BBXX PHFV 12124 99255 70840 41/98 /0618 10210 40210 702// 8/544 22253 00260 20000 30000 4//// 5////
BBXX A8LC2 12124 99330 70096 41698 60230 10210 20180 40260 54000 70321 87///
BBXX 44172 12121 99445 70634 46/// ///// 1//// 91131 22200 00070 10402 20402 70011
BBXX 46218 12121 99345 71208 46/// ///// 1//// 91132 22200 00144 11504 21001 330// 41504 70021
BBXX ZMENA 12114 99407 31742 46/// ///// 10171 20160 40175 52008 22213
AAXX 12124 40255 32960 30804 10156 20008 39508 40230 57022 80001 333 83070 MAX.17.0 MIN.3.2 G.M.1.4 R.H.36
AAXX 12124 40270 31950 41404 10154 21046 39325 40237 54001 70500 80001 84070
AAXX 12124 67315 32580 20614 10310 20240 40061 57023 82100 333 94310
AAXX 12124 40272 31957 61110 10170 21031 39390 40236 57018 70500 80001 333 86070
BBXX V7MO2 12124 99262 70914 41/// /0417 10210 20180 40218 52004 7//// 8//// 22200 00230 20403 305// 40604 5//// 6//// 80190 ICE /////
BBXX V7MO3 12124 99263 70910 415// 70221 10215 20187 40183 56009 7//// 877/6 22200 04235 20502 30404 40706 50706 6//// 85196 ICE /////
BBXX NWS0021 12124 99323 70646 43/// /0718 10223 20199 40195 5//// 7//// 8//// 222// 04227 2//// 3//// 4//// 5//// 6//// 8//// ICE /////
BBXX WZJC 12123 99236 70813 41398 60719 10244 2020/ 40166 52005 70222 862// 22233 00256 20302 30906 40409 50506 6//// 80211 ICE /////
BBXX KIRH 12123 99192 70668 41498 20609 10256 20207 40121 51013 7//61 822// 22234 00244 20802 306// 41102 5//// 6//// 80222 ICE /////
BBXX 46248 12121 99461 71247 46/// ///// 1//// 91134 22200 00087 11305 20803 329// 41303 70024
BBXX 46244 12121 99409 71244 46/// ///// 1//// 91135 22200 00096 11008 21007 328// 41404 70040
BBXX 46237 12121 99378 71226 46/// ///// 1//// 91140 22200 00113 11404 21003 325// 41403 70022
BBXX 46212 12121 99408 71243 46/// ///// 1//// 91142 22200 00098 11008 21007 329// 41404 70042
BBXX 46217 12121 99342 71194 46/// ///// 1//// 91142 22200 00144 11402 21001 325// 41402 70009
BBXX 46211 12121 99469 71242 46/// ///// 1//// 91136 22200 00082 11404 20803 327// 41403 70020
BBXX 44098 12121 99428 70702 46/// ///// 1//// 91137 22200 00094 10502 20502 70012
BBXX 41115 12121 99184 70673 46/// ///// 1//// 91135 22200 10902 20902 301// 41101 70008
BBXX 41114 12121 99276 70802 46/// ///// 1//// 91146 22200 00240 11005 21005 305// 41102 70025
BBXX A8YW2 12124 99346 30244 41497 52618 10235 20180 40095 58010 70300 84244 22224 00170 21402 80200
BBXX DBJM 12121 99540 10085 46/// /2309 10063 20054 49993 52009 22232 00059
BBXX DBBU 12121 99542 10121 46/// /1807 10043 20040 40006 57021 22200 00053
BBXX DBBT 12121 99443 30055 46/// /1916 10057 21004 40181 52009 22252 00087
BBXX DBEA 12121 99540 10082 46/// /2411 10068 20059 49986 52002 22270 00067
BBXX DBFR 12121 99548 10192 46/// /1813 10030 20011 40076 57026 22241 00074
BBXX BAREU61 12124 99260 70155 46/// /0619 10204 29069 40244 52001 22254
AAXX 12124 91334 32474 80412 10280 20237 30086 40089 52010 82171 333 10294 56199 59005 70089 555 91212
AAXX 12124 91413 32469 29906 10276 20240 30081 40107 52017 81101 333 10316 569/9 59015 70005 555 91212
AAXX 12124 91413 32469 29906 10276 20240 30081 40107 52017 81101 333 10316 569/9 59015 70005 555 91212
AAXX 12124 91334 32474 80412 10280 20237 30086 40089 52010 82171 333 10294 56199 59005 70089 555 91212
BBXX 44060 12121 99413 70721 46/// ///03 10028 40365 91145 22200 00104 333 91205 555 11031 22031
BBXX 44022 12121 99409 70737 46/// ///02 10024 21036 40362 91145 22200 00091 333 91203 555 11021 22021
BBXX 46114 12121 99364 71222 46/// ///// 1//// 91134 22200 00121 11504 21001 329// 41504 70021
BBXX 42362 12121 99278 70907 46/// /0407 10189 20156 40237 91145
BBXX 42363 12121 99282 70892 46/// /0610 10194 20156 40237 91145 333 91210
BBXX 42364 12121 99291 70881 46/// /0507 10183 20156 40247 91145
BBXX 51203 12121 99208 71570 46/// ///// 1//// 91143 22200 00247 11301 20901 325// 41301 70007
BBXX 52200 12121 99134 11448 46/// ///// 1//// 91145 22200 00288 11005 21005 307// 41101 70024
AAXX 12124 68392 36/// /3109 10309 20049 30001 4//// 58011 333 10310 20159 91017 555
AAXX 12124 68382 36/// /0809 10280 20188 39290 48494 58007 333 10283 20165 91016 555 91010
AAXX 12124 68994 32598 43216 10095 20062 30234 40263 58006 82570 222// 00066 333 10104 20068 91023 555 91026
AAXX 12124 68906 32698 50907 10128 20055 30245 40311 58000 85502 222// 00125 318// 41001 333 10138 20087 91011 555 91031
AAXX 12124 91376 32474 40811 10277 20224 30091 40095 50002 82101 333 10305 562/9 59007 70013 555 91212
AAXX 12124 91408 11473 71308 10272 20253 30052 40090 52008 60021 70282 85901 333 10317 562/9 59004 70046 555 91212
AAXX 12124 89664 31261 70405 11039 21093 39805 49847 51005 71522 83570 333 11022 21052 56440 58057 81705 83630 85360 91510 96014
AAXX 12124 68396 32680 31003 10344 20168 39377 48488 57021 83400 555 10344 91007
AAXX 12124 89664 31261 70405 11039 21093 39805 49847 51005 71522 83570 333 11022 21052 56440 58057 81705 83630 85360 91510 96014
AAXX 12124 91376 32474 40811 10277 20224 30091 40095 50002 82101 333 10305 562/9 59007 70013 555 91212
AAXX 12124 91408 11473 71308 10272 20253 30052 40090 52008 60021 70282 85901 333 10317 562/9 59004 70046 555 91212
AAXX 12124 61901 11275 71317 10169 20150 39671 40180 60031 70282 878// 91150 333 58000 84805 85630 90710 91127
AAXX 12124 89664 31261 70405 11039 21093 39805 49847 51005 71522 83570 333 11022 21052 56440 58057 81705 83630 85360 91510 96014
AAXX 12124 62010 32960 62509 10222 20029 40226 57001 82036 333 82363 86270
AAXX 12124 68352 36/// /2609 10356 20274 39002 48478 58006 333 10356 20168 91020 555 91009
AAXX 12124 40340 31957 03617 10208 20021 40199 57029 70500
BBXX BAREU63 12124 99317 10290 46/// /3412 10179 29064 40244 57023 22233
AAXX 12124 40296 32960 00000 10200 20012 40230 57021
AAXX 12124 41170 31957 13315 10195 20116 30176 40189 70600 80001 333 58000 81072
BBXX 41012 12121 99300 70805 46/// /0815 10207 40226 51017 91150 22200 00242 333 91218 555 11161 22171 31106 40918 61149 082149 082147 080152 080140 086141 081138
BBXX 41001 12121 99347 70727 46/// ///// 10191 20093 40288 52003 91150 22200 00223 10704 70019
BBXX 41049 12121 99275 70630 46/// /1006 10245 20207 40163 53011 91150 22200 00247 11106 20502 300// 41105 70028 333 91207 555 11061 22064 31127 41008 61149 104059 099060 094064 097054 089043 081040 80907 91128
BBXX 42020 12121 99270 70967 46/// /1211 10225 20171 40193 57005 91150 22200 00237 10704 20704 309// 40801 70019 333 91213 555 11114 22121 31144 41113 61149 117107 117104 116104 117105 119101 118105
BBXX 41044 12121 99217 70587 46/// /1408 10258 20221 40141 52013 91150 22200 00267 11105 20703 300// 41105 70027 333 91210 555 11083 22087 31101 41410 61149 142078 147075 146070 151073 144078 146079 81508 91137
BBXX 41048 12121 99320 70696 46/// /0712 10210 20166 40240 53005 91150 22200 00229 10806 20605 3//// 40804 70030 333 91214 555 11116 22123 31136 40616 61149 069118 062128 062123 065128 058127 055120 80614 91136
BBXX 42065 12121 99149 70750 46/// /0608 10272 20236 91150 22200 10703 20602 3//// 40702 70014 333 91209 555 11080 22085 31125 40610 61149 055076 053081 061080 062077 057078 054077 80609 91126
BBXX 42012 12121 99301 70876 46/// /0508 10122 20114 40256 52006 91150 22200 00189 10602 20602 70012 333 91210 555 11083 22086 31129 40510 61149 052080 051080 047083 049085 046083 043081
BBXX 42001 12121 99259 70897 46/// /1003 10239 20187 40222 53010 91150 22200 00238 10804 20401 3//// 40804 70020 333 91204 555 11034 22037 31052 41006 61149 099032 103032 098037 098039 094041 095042
BBXX 42035 12121 99292 70944 46/// /0807 10129 20092 40244 55000 91150 22200 00153 10502 20502 306// 41101 70009 333 91208 555 11072 22075 31149 40708 61149 081067 082064 083066 084066 079066 077065
BBXX 42060 12121 99163 70635 46/// /1101 10275 20226 40131 53018 91150 22200 00282 10902 20401 300// 40902 70008 333 91202 555 11011 22012 31052 41503 61149 113011 123014 125008 122011 148007 163016 81502 91052
BBXX 42058 12121 99149 70749 46/// /0607 10271 20235 40106 53014 91150 22200 00277 10603 20602 304// 41001 70014 333 91209 555 11073 22077 31147 40609 61149 061068 053068 065065 069068 071070 074067 80708 91147
BBXX 42036 12121 99285 70845 46/// /0510 10177 20165 40225 53006 91150 22200 00217 10603 20603 70015 333 91212 555 11104 22109 31134 40512 61149 049097 045102 048101 050101 050101 049104
BBXX 42056 12121 99198 70849 46/// /0608 10265 20225 40155 53008 91150 22200 00274 10703 20703 70016 333 91209 555 11083 22087 31129 40510 61149 057079 052077 051078 052077 057073 057074 80509 91129
BBXX 42059 12121 99151 70675 46/// /0904 10275 20224 40124 53018 91150 22200 00285 10802 20301 3//// 40802 70009 333 91205 555 11040 22041 31100 40805 61149 087038 089037 083039 084037 083037 083038 80804 91100
BBXX 42019 12121 99279 70954 46/// /1108 10193 20150 40215 56007 91150 22200 10703 20703 311// 40801 70015 333 91210 555 11090 22096 31055 42811 61149 109085 281083 283082 282083 282082 281088
BBXX 44005 12121 99432 70691 46/// /2310 10065 21006 40332 53006 91150 22200 00089 10604 20604 70021 333 91213 555 11107 22113 31133 42413 61149 232102 233105 232106 233107 231107 232106
BBXX 42040 12121 99292 70882 46/// /0608 10177 40243 53007 91150 22200 00222 10703 20703 70016 333 91210 555 11080 22083 31057 40612 61149 054081 059082 055090 053095 048102 049103
BBXX 42003 12121 99260 70856 46/// /1206 1//// 91150 22200 10703 20401 306// 40703 70015 333 91207 555 11059 22062 31146 41207 61149 120054 119049 117044 123042 135046 134047 81206 91146
BBXX 32012 12121 99197 50856 46/// ///// 1//// 91150 22200 11404 70021
BBXX 46002 12121 99426 71305 46/// ///// 10097 40254 57003 91150 22200 00120 10806 70028
BBXX 46006 12121 99408 71375 46/// /2101 10097 40304 58019 91150 22200 00124 11103 20401 3//// 41103 70017 333 91202 555 11008 22008 31139 42002 61149 206008 205009 211007 199002 180001 133002
BBXX 46084 12121 99566 71361 46/// /2309 10070 20031 40096 55000 91150 22200 00074 11212 20705 300// 41210 70058 333 91211 555 11091 22096 31058 42513 61149 229085 231083 231090 230101 232095 232099
BBXX 46075 12121 99539 71608 46/// /2511 10048 20000 40085 51025 91150 22200 00050 11009 20605 300// 41008 70047 333 91214 555 11116 22123 31050 42515 61149 250108 253094 255098 252099 252102 242108 82512 91051
BBXX 46005 12121 99461 71310 46/// ///05 10072 40277 56004 91150 22200 00099 11304 20401 3//// 41304 70019 333 91206 555 11048 22049
BBXX 46059 12121 99380 71300 46/// /0114 10108 40211 56012 91150 22200 00145 10908 20606 3//// 40905 70039 333 91218 555 11154 22163 31143 40118 61149 007144 000131 359135 358131 358125 355130
BBXX 46080 12121 99580 71500 46/// /2618 10045 21004 49920 51064 91150 22200 00053 11415 20910 3//// 41410 70073 333 91223 555 11194 22207 31120 42725 61149 261180 263192 264191 264190 262184 260184 82621 91134
BBXX ICRA 12124 99140 10519 419// /0326 10250 2016/ 40140 54040 7//// 8/000 22213 00250 2//// 3//// 4//// 5//// 6//// 80190 ICE /////
BBXX WFLG 12124 99286 71392 41698 70519 10167 20098 40260 57020 70222 872// 22223 04178 20804 332// 41204 5//// 6//// 80128 ICE /////
BBXX 9HXC9 12124 99197 70678 41498 60304 10239 20187 40120 54000 7//22 86230 22235 00280 2//// 3//// 4//// 5//// 6//// 80204 ICE /////
BBXX WDC6698 12124 99089 71471 43/// /0706 10268 2//// 40100 5//// 7//// 8//// 222// 04266 2//// 3//// 4//// 5//// 6//// 8//// ICE /////
BBXX NWS0022 12124 99416 70714 43/// /2304 10020 21023 40355 5//// 7//// 8//// 222// 04132 2//// 3//// 4//// 5//// 6//// 8//// ICE /////
BBXX 44025 12121 99402 70732 46/// /3001 10055 21015 40360 55000 91150 22200 00115 10701 308// 40701 70005 333 91202 555 11011 22011 31057 43403 61149 295012 279020 305017 307017 336020 300019
BBXX 41008 12121 99314 70809 46/// /0211 10137 20134 40271 53017 91150 22200 00170 10705 20705 300// 40902 70026 333 91214 555 11119 22125 31052 40215 61149 023113 024114 024111 028108 024121 024126
BBXX 44014 12121 99366 70748 46/// /0409 1//// 40322 56006 91150 22200 00150 10803 20402 309// 40801 70013 333 91210 555 11089 22089 31134 40311 61149 040090 035092 039088 040087 038087 037091
BBXX 41004 12121 99325 70791 46/// /0213 10154 20136 40270 53004 91150 22200 00206 10905 20605 3//// 40902 70025 333 91215 555 11139 22147 31056 40217 61149 019130 019134 016139 012139 010138 007135
BBXX 44009 12121 99385 70747 46/// /0305 10073 40362 56003 91150 22200 00122 10801 20401 300// 40801 70006 333 91206 555 11051 22052 31143 40406 61149 029048 035045 030037 021042 020038 018041
BBXX 44027 12121 99443 70673 46/// /2312 10070 20013 40312 54000 91150 22200 00089 10705 20705 70024 333 91214 555 11125 22132 31130 42314 61149 230118 234115 233110 233107 237110 238111
BBXX 41013 12121 99334 70777 46/// /0211 10155 20140 40280 53007 91150 22200 00211 10705 20704 304// 41401 70023 333 91214 555 11120 22126 31149 40214 61149 020113 022110 024109 026112 028110 029113
BBXX 44065 12121 99404 70737 46/// /2601 10041 21051 40362 54000 91150 22200 00102 10801 309// 40801 70005 333 91202 555 11011 22011 31051 43104 61149 263011 276013 273014 270023 279021 299024 83004 91052
BBXX 44040 12121 99410 70736 46/// /1903 10027 21025 40369 91145 22200 1//00 70000 333 91204 555 11041 22046
BBXX 44020 12121 99414 70702 46/// /2505 10064 21002 40357 54000 91150 22200 00087 10301 20301 70003 333 91205 555 11048 22051 31050 42506 61149 248044 259046 258048 258046 257047 256048
BBXX 42055 12121 99222 70940 46/// /0307 10241 20186 40192 54000 91150 22200 00252 10903 20602 303// 40902 70014 333 91208 555 11073 22077 31140 40308 61149 031069 034061 038062 033063 035056 030053 80407 91140
BBXX 42002 12121 99258 70937 46/// /0707 10217 20173 40216 55000 91150 22200 00245 10803 20602 307// 40803 70017 333 91209 555 11071 22076 31116 40609 61149 072070 072070 070068 065069 071063 066068
BBXX 41047 12121 99275 70715 46/// /0512 10235 40190 52005 91150 22200 00254 10907 20705 308// 40904 70033 333 91214 555 11116 22123 31128 40417 61149 050119 044120 042131 040121 040119 043124 80516 91128
BBXX 41043 12121 99211 70650 46/// /0802 10254 20217 40139 53014 91150 22200 00266 11004 20401 300// 41004 70022 333 91204 555 11024 22024 31059 40704 61149 078024 070025 071024 060027 063029 054031 80504 91054
BBXX 41036 12121 99342 70770 46/// ///// 10136 20113 40288 55000 91150 22200 00216 10604 70018
BBXX 44066 12121 99396 70726 46/// /0204 10073 20016 40359 55000 91150 22200 00139 10701 3//// 40701 70006 333 91205 555 11036 22037 31137 40205 61149 016035 009037 008039 004034 016037 011037
BBXX 46001 12121 99563 71480 46/// /2617 10054 40003 51043 91150 22200 00051 11418 20810 300// 41415 70090 333 91222 555 11183 22196 31059 42622 61149 258171 256173 256165 257164 260166 257173
BBXX 46105 12121 99590 71522 46/// ///// 1//// 91150 22200 10909 70046
BBXX 46070 12121 99551 11753 46/// /3603 11007 21026 49840 56005 91150 22200 00041 11107 20401 3//// 41107 70036 333 91205 555 11034 22035 31138 40205 61149 000033 004036 357034 359031 352032 347031 80104 91138
BBXX 46088 12121 99483 71232 46/// /3306 10045 40245 54000 91150 22200 00080 1//00 70002 333 91207 555 11058 22061 31107 43308 61149 332057 333054 326054 330054 331063 337062
BBXX 46053 12121 99342 71198 46/// /1505 10120 40082 58016 91150 22200 00145 333 91206 555 11050 22052 31140 41406 61149 149048 140037 128035 120026 101022 094028
BBXX 46014 12121 99394 71240 46/// /0404 10073 40096 56009 91150 22200 00104 11007 20401 3//// 41007 70037 333 91204 555 11037 22038 31149 40207 61149 038037 038044 035044 042045 043048 029057
BBXX 46011 12121 99350 71210 46/// /2902 10099 40086 57015 91150 22200 00135 11503 330// 41503 70016 333 91204 555 11025 22025 31117 42807 61149 292024 288033 283050 286045 303015 298009
BBXX 46047 12121 99324 71195 46/// /2703 10115 40089 56014 91150 22200 00153 11604 20301 328// 41604 70020 333 91204 555 11026 22026 31128 42806 61149 269026 281025 237033 178028 173028 157031
BBXX 46027 12121 99419 71244 46/// /3610 10072 40129 58008 91150 22200 00094 11406 20603 329// 41405 70028 333 91212 555 11104 22110 31105 43614 61149 004099 007100 011104 011107 008113 011114
BBXX 46086 12121 99325 71180 46/// /1906 10130 40090 56021 91150 22200 00156 11603 20501 328// 41603 70014 333 91207 555 11061 22063 31143 42007 61149 189058 183060 172045 158043 144040 152042
BBXX 46088 12121 99483 71232 46/// /3306 10045 40245 91150 22200 00080 1//00 70002 333 91207 555 11058 22061 31107 43308 61149 332057 333054 326054 330054 331063 337062
BBXX 46050 12121 99442 71246 46/// /0109 10064 40207 53005 91150 22200 00101 11406 20704 330// 41405 70029 333 91210 555 11093 22097 31102 40211 61149 007089 008088 012087 017089 021091 023093
BBXX 46069 12121 99337 71202 46/// /1902 10109 40087 58014 91150 22200 00132 11503 329// 41503 70017 333 91203 555 11024 22024 31117 42004 61149 187024 192026 202028 199031 208025 205029
BBXX 46012 12121 99374 71229 46/// /0401 10094 40081 58016 91150 22200 00120 11505 20401 328// 41505 70024 333 91202 555 11010 22010 31107 40603 61149 035010 023007 036010 044010 043013 017009
BBXX 46013 12121 99382 71233 46/// /0803 10085 40089 58010 91150 22200 00106 11505 20401 3//// 41505 70026 333 91205 555 11031 22032 31149 40805 61149 080029 088032 076032 080032 066028 044024
BBXX 46087 12121 99485 71247 46/// /0804 10053 21003 40249 50000 91150 22200 00078 11404 20401 328// 41404 70018 333 91205 555 11045 22046 31140 40805 61149 076043 084042 079041 068028 053026 060031
BBXX 46029 12121 99461 71245 46/// /0606 10062 21001 40229 50003 91150 22200 00076 11405 20502 328// 41405 70025 333 91208 555 11068 22071 31103 40609 61149 063065 060066 061068 055071 053070 049069
BBXX 46054 12121 99342 71204 46/// /1802 10113 40088 57011 91150 22200 00140 11603 300// 41603 70016 333 91203 555 11018 22019 31123 41904 61149 175018 177025 179029 183025 196026 194026
BBXX 46028 12121 99357 71219 46/// /2702 10104 40077 58018 91150 22200 00131 11603 330// 41603 70013 333 91203 555 11025 22025 31132 42805 61149 269024 272032 275033 272030 267035 281033
BBXX 46025 12121 99337 71191 46/// /1906 10124 40087 58018 91150 22200 00148 11502 321// 41502 70008 333 91208 555 11063 22065 31148 41908 61149 192055 178021 185023 183027 172017 156013
BBXX BAREU61 12124 99260 70155 46/// /0619 10204 29069 40244 52001 22254
BBXX DBBT 12121 99443 30055 46/// /1916 10057 21004 40181 52009 22252 00087
BBXX A8YW2 12124 99346 30244 41497 52618 10235 20180 40095 58010 70300 84244 22224 00170 21402 80200
BBXX ICRA 12124 99140 10519 419// /0326 10250 2016/ 40140 54040 7//// 8/000 22213 00250 2//// 3//// 4//// 5//// 6//// 80190 ICE /////
BBXX ONCE 12124 99283 30018 41497 62510 10220 2013/ 40200 5//// 70122 8513/ 22234 00186 2//// 3//// 4//// 5//// 6//// 80165 ICE /////
BBXX 3FSB4 12124 99392 11698 435// 42737 10100 2006/ 40100 52010 7//// 842// 22224 0//// 20908 3//// 40810 5//// 6//// 80080 ICE /////
BBXX LAOX5 12121 99312 11610 41/97 83512 00/// 10170 2014/ 40210 51010 70261 88627 22223 00180 20403 330// 40404 5//// 6//// 80150
BBXX C6OT4 12124 99276 11678 41598 52508 10235 20225 40209 54000 70222 8245/ 22223 04234 2//// 3//// 4//// 5//// 80228
BBXX ONFE 12124 99080 11091 41597 80135 10240 2021/ 40110 5//// 7//22 887// 22213 00260 20716 301// 4//// 5//// 6//// 80220 ICE /////
BBXX LADR4 12124 99232 11792 41898 50814 10250 2022/ 40220 54000 70322 85673 22263 00280 20504 3//// 4//// 5//// 6//// 80230
BBXX ZCBZ5 12123 99078 10771 41397 80209 10275 20214 40073 55006 76186 87718 22274 02281 20101 310// 40503 5//// 80234
BBXX WDE9586 12123 99359 11496 43498 51820 10150 2012/ 40150 56020 7//// 8548/ 22224 00220 2//// 3//// 4//// 5//// 6//// 80130 ICE /////
BBXX SHIP 12123 99307 11668 41/98 /0016 10200 20153 40170 54000 70006 8//// 22264 00215 2//// 3//// 4//// 80170
BBXX C6YA7 12124 99245 11641 41998 00906 10210 2018/ 40190 54000 702// 80/// 22253 00260 2//// 3//// 4//// 5//// 6//// 80190 ICE /////
BBXX ONAI 12124 99015 70436 41598 30924 10280 2025/ 40100 52020 70200 83100 22234 00290 2//// 3//// 4//// 5//// 6//// 80260 ICE /////
BBXX SHIP 12124 99033 11274 41498 50111 10280 2025/ 40090 54000 70121 8523/ 22283 00295 20201 302// 41020 5//// 6//// 80260 ICE /////
BBXX SHIP 12124 99377 71620 41398 50609 10140 20064 40239 53013 70221 8483/ 91145 22224 00160 1//// 2//// 3//// 4//// 5//// 6//// 80100
BBXX SHIP 12124 99399 70375 41596 72523 10190 20159 40275 52007 70302 8765/ 91148 22224 0//// 1//// 20507 3//// 40406 5//// 6//// 80170 /////
BBXX WDD3825 12124 99359 70583 41697 80724 10180 2018/ 40280 5//// 780// 8872/ 22264 00220 20206 332// 40707 5//// 6//// 80180 ICE /////
BBXX WFLG 12124 99286 71392 41698 70519 10167 20098 40260 57020 70222 872// 22223 04178 20804 332// 41204 5//// 6//// 80128 ICE /////
BBXX 9HXC9 12124 99197 70678 41498 60304 10239 20187 40120 54000 7//22 86230 22235 00280 2//// 3//// 4//// 5//// 6//// 80204 ICE /////
BBXX 46114 12121 99364 71222 46/// ///// 1//// 91134 22200 00121 11504 21001 329// 41504 70021
BBXX 44060 12121 99413 70721 46/// ///03 10028 40365 91145 22200 00104 333 91205 555 11031 22031
BBXX 42363 12121 99282 70892 46/// /0610 10194 20156 40237 91145 333 91210
BBXX 42364 12121 99291 70881 46/// /0507 10183 20156 40247 91145
BBXX 42362 12121 99278 70907 46/// /0407 10189 20156 40237 91145
BBXX 44022 12121 99409 70737 46/// ///02 10024 21036 40362 91145 22200 00091 333 91203 555 11021 22021
BBXX 4XFX 12124 99401 71281 41597 50335 00/// 10090 2003/ 40190 51030 70122 854// 22273 0//// 2//// 3//// 4//// 5//// 6//// 80060
BBXX KHRC 12124 99270 71440 41598 80915 10211 2016/ 40236 51008 70222 8841/ 22214 00178 2//// 3//// 4//// 5//// 6//// 80178 ICE /////
BBXX WDE4432 12124 99281 70856 41497 80320 10200 2019/ 40214 52004 75052 8547/ 22273 0//// 20302 303// 40304 5//// 6//// 80190 ICE /////
BBXX WSRL 12123 99480 71253 41698 20905 10060 2002/ 40232 58005 70200 8//// 22244 00072 2//// 3//// 4//// 5//// 6//// 80040 ICE /////
BBXX 44098 12121 99428 70702 46/// ///// 1//// 91137 22200 00094 10502 20502 70012
BBXX 41114 12121 99276 70802 46/// ///// 1//// 91146 22200 00240 11005 21005 305// 41102 70025
BBXX 41115 12121 99184 70673 46/// ///// 1//// 91135 22200 10902 20902 301// 41101 70008
BBXX 46211 12121 99469 71242 46/// ///// 1//// 91136 22200 00082 11404 20803 327// 41403 70020
BBXX 46212 12121 99408 71243 46/// ///// 1//// 91142 22200 00098 11008 21007 329// 41404 70042
BBXX 46217 12121 99342 71194 46/// ///// 1//// 91142 22200 00144 11402 21001 325// 41402 70009
BBXX 46237 12121 99378 71226 46/// ///// 1//// 91140 22200 00113 11404 21003 325// 41403 70022
BBXX 46248 12121 99461 71247 46/// ///// 1//// 91134 22200 00087 11305 20803 329// 41303 70024
BBXX 46244 12121 99409 71244 46/// ///// 1//// 91135 22200 00096 11008 21007 328// 41404 70040
BBXX MZDL7 12123 99308 71179 41/97 /3418 10126 20119 40107 57002 78182 8//// 22243 00180 2//// 3//// 4//// 5//// 80122
BBXX KGTZ 12124 99523 71409 43/// /2715 10067 2003/ 40176 52010 7//// 8//// 22234 00072 20502 329// 41106 5//// 6//// 80050 ICE /////
BBXX DDZB2 12123 99388 71299 41598 53623 10105 20055 40220 51010 70222 84568 22234 04130 20304 80080
BBXX KIRH 12123 99192 70668 41498 20609 10256 20207 40121 51013 7//61 822// 22234 00244 20802 306// 41102 5//// 6//// 80222 ICE /////
BBXX NWS0021 12124 99323 70646 43/// /0718 10223 20199 40195 5//// 7//// 8//// 222// 04227 2//// 3//// 4//// 5//// 6//// 8//// ICE /////
BBXX WDE8264 12123 99363 70022 41798 32513 10220 20121 40260 54/// 7//22 83280 22224 00190 20402 330// 40804 5//// 6//// 80160 ICE /////
BBXX WDD6126 12124 99465 70186 41395 82337 10140 2012/ 40046 57020 70755 8872/ 22214 00124 20306 330// 41209 5//// 6//// 80130 ICE /////
BBXX WDC6736 12124 99525 10034 41798 42737 10100 2004/ 40030 52038 70111 842// 22254 00130 20405 326// 40604 5//// 6//// 80070 ICE /////
BBXX DBEA 12121 99540 10082 46/// /2411 10068 20059 49986 52002 22270 00067
BBXX DBBU 12121 99542 10121 46/// /1807 10043 20040 40006 57021 22200 00053
BBXX DBFR 12121 99548 10192 46/// /1813 10030 20011 40076 57026 22241 00074
BBXX DBJM 12121 99540 10085 46/// /2309 10063 20054 49993 52009 22232 00059
BBXX WDA7827 12124 99072 71631 41698 71220 10264 2023/ 40115 5//// 70222 8765/ 22213 00278 20601 335// 41205 5//// 6//// 80240 ICE /////
AAXX 12121 76342 01420 80201 10068 20068 39520 40255 57008 69901 75054 886// 91148 333 10080 20062 30052 561// 59041 69907 70003 88710
AAXX 12121 76382 32660 60000 10104 20086 38899 40152 52002 86020 91148 333 10206 20090 30075 56050 59034 70000 86554
AAXX 12121 76390 31950 31904 10139 20062 38224 40152 57004 70544 80004 91130 333 10100 20116 30110 56004 59024 70000 83070
AAXX 12121 76458 32960 00301 10160 20145 30143 40148 53003 91145 333 10263 20138 30130 58011 70000
AAXX 12121 76471 32980 40000 10080 20048 37692 40124 5//// 80001 91150 333 10232 20059 30028 55090 56005 59004 70000 84075
AAXX 12121 76525 32960 21005 10105 20032 37472 40122 57003 80006 91140 333 10168 20105 30090 55096 22653 56//5 59001 70000 82080
AAXX 12121 76548 32960 02701 10168 20162 30202 40212 57008 91145 333 10195 20164 30160 59016 70001
AAXX 12121 76556 32960 00000 10132 20112 39117 40139 570005 91135 333 10290 20128 30114 58005 70000
AAXX 12121 76577 32960 00000 10100 20088 38047 40155 52001 91140 333 10240 20090 30080 59005 70000
AAXX 12121 76632 31950 00403 10066 20037 37646 40162 52003 70500 91140 333 10200 20064 30/// 58004 70000
AAXX 12121 76665 32958 01902 10090 20078 38128 40159 52003 91145 333 10255 20081 30070 58001 70000
AAXX 12121 76680 31949 01801 10086 20042 37764 40126 52002 70444 91150 333 10230 20070 30066 59003 70000
AAXX 12121 76685 32950 00000 10050 20042 37884 40198 52002 91150 333 10218 20048 30006 58004 70000
AAXX 12121 76743 31340 80501 10185 20165 30181 40189 53004 70222 884// 91150 333 10265 20185 30160 562// 58003 70000 88808
AAXX 12121 76775 32960 00501 10084 20055 38548 40207 52001 91145 333 10272 20080 30/// 58005 70000
AAXX 12121 76805 32860 23301 10217 20213 30129 40132 50001 82040 91145 333 10318 20216 30204 56/6/ 58002 70000 82357
AAXX 12121 76840 32901 00408 10232 20161 30082 40139 52005 91135 333 10252 20180 30/// 58006 70000
AAXX 12121 76843 32965 03601 10169 20140 39524 40173 53003 91135 333 10252 20162 30154 58006 70000
AAXX 12121 76311 32960 40000 10110 20099 39859 40139 57006 84003 91150 333 10282 20108 30094 56006 58000 70000 84270
AAXX 12121 76412 32960 00000 10126 20101 30112 40158 57015 91150 333 10288 20105 30/// 59003 70000
AAXX 12124 78905 11478 12604 10243 20219 30112 40135 60002 701// 81800 333 10303 20221 58009 70000 81818
AAXX 12124 89009 42461 70000 11329 36792 53001 86601 333 11318 21336 86715
AAXX 12124 78858 11580 20000 10257 20236 30075 40131 60002 703// 82201 333 10276 20221 58008 82823
AAXX 12121 76342 01420 80201 10068 20068 39520 40255 57008 69901 75054886// 91148 333 10080 20062 30052 561// 59041 69907 7000388710
AAXX 12121 76382 32660 60000 10104 20086 38899 40152 52002 86020 91148333 10206 20090 30075 56050 59034 70000 86554
AAXX 12121 76390 31950 31904 10139 20062 38224 40152 57004 70544 8000491130 333 10100 20116 30110 56004 59024 70000 83070
AAXX 12121 76458 32960 00301 10160 20145 30143 40148 53003 91145 33310263 20138 30130 58011 70000
AAXX 12121 76471 32980 40000 10080 20048 37692 40124 5//// 80001 91150333 10232 20059 30028 55090 56005 59004 70000 84075
AAXX 12121 76525 32960 21005 10105 20032 37472 40122 57003 80006 91140333 10168 20105 30090 55096 22653 56//5 59001 70000 82080
AAXX 12121 76548 32960 02701 10168 20162 30202 40212 57008 91145 33310195 20164 30160 59016 70001
AAXX 12121 76556 32960 00000 10132 20112 39117 40139 570005 91135 333 10290 20128 30114 58005 70000
AAXX 12121 76577 32960 00000 10100 20088 38047 40155 52001 91140 33310240 20090 30080 59005 70000
AAXX 12121 76632 31950 00403 10066 20037 37646 40162 52003 70500 91140333 10200 20064 30/// 58004 70000
AAXX 12121 76665 32958 01902 10090 20078 38128 40159 52003 91145 33310255 20081 30070 58001 70000
AAXX 12121 76680 31949 01801 10086 20042 37764 40126 52002 70444 91150333 10230 20070 30066 59003 70000
AAXX 12121 76685 32950 00000 10050 20042 37884 40198 52002 91150 33310218 20048 30006 58004 70000
AAXX 12121 76743 31340 80501 10185 20165 30181 40189 53004 70222 884//91150 333 10265 20185 30160 562// 58003 70000 88808
AAXX 12121 76775 32960 00501 10084 20055 38548 40207 52001 91145 33310272 20080 30/// 58005 70000
AAXX 12121 76805 32860 23301 10217 20213 30129 40132 50001 82040 91145333 10318 20216 30204 56/6/ 58002 70000 82357
AAXX 12121 76840 32901 00408 10232 20161 30082 40139 52005 91135 33310252 20180 30/// 58006 70000
AAXX 12121 76843 32965 03601 10169 20140 39524 40173 53003 91135 33310252 20162 30154 58006 70000
AAXX 12121 76311 32960 40000 10110 20099 39859 40139 57006 84003 91150333 10282 20108 30094 56006 58000 70000 84270
AAXX 12121 76412 32960 00000 10126 20101 30112 40158 57015 91150 33310288 20105 30/// 59003 70000
AAXX 12124 62010 32960 62509 10222 20029 40226 57001 82036 333 82363 86270
AAXX 12124 78905 11478 12604 10243 20219 30112 40135 60002 701// 81800 333 10303 20221 58009 70000 81818
AAXX 12124 89009 42461 70000 11329 36792 53001 86601 333 11318 21336 86715
AAXX 12124 81405 01363 62502 10257 20245 30113 40122 60154 72586 84830 333 20233 60027 58007 81808 83816 555 60015
AAXX 12124 81405 01363 62502 10257 20245 30113 40122 60154 72586 84830 333 20233 60027 58007 81808 83816 555 60015
AAXX 12121 33815 42598 71604 10055 20025 30030 40240 57021 87500 555 11004
AAXX 12124 85406 12560 83103 10200 20144 40138 53022 60004 885// 333 20188 30/// 55098 56099 70000 88630
AAXX 12124 85418 12965 41805 10194 20130 40133 53008 60004 70200 80001 333 20168 30/// 55107 56000 70000 84080
AAXX 12124 85432 12970 51016 10152 20021 37758 48448 55000 60004 80001 333 20048 30/// 51420 55116 56006 85072
AAXX 12124 85442 12470 29901 10171 20138 40130 53004 60004 81501 333 20136 30/// 55108 56407 70000 81618
AAXX 12124 85469 42562 41204 10189 20146 40208 57008 82130 333 56330 82820 84365
AAXX 12124 85488 12460 72704 10147 20129 40151 53017 60004 87500 333 20114 30006 50170 55064 56600 70000 87610
AAXX 12124 85836 12570 22306 10122 20059 40289 50003 60004 82100 333 20057 30/// 56060 70000 82830
AAXX 12124 85886 12970 50000 10148 20135 40187 51005 60004 80004 333 20060 30/// 56006 70000 85070
AAXX 12124 85892 12980 52903 10130 20074 40201 52020 60001 80001 333 20068 30/// 56006 70000 85070
AAXX 12124 85934 12580 32821 10118 20046 40057 52011 69904 82130 333 20088 30/// 55063 56660 79999 82820 83359
AAXX 12124 89056 11325 80221 11005 21014 49772 57036 69902 75022 8372/ 333 10002 21005 41099 55000 56669 83707 88459
AAXX 12124 89057 11356 83407 10001 21013 49772 57028 69922 75022 886// 333 10009 21002 44100 56799 88707
AAXX 12124 89058 32570 73411 10010 21016 39769 49790 57021 86540
AAXX 12124 89059 12460 82107 11002 21016 49771 57013 60002 886// 333 10006 21003 42060 55036 70999 88710
AAXX 12124 89251 32562 83615 10017 21020 49774 57030 8652/ 333 20003
AAXX 12124 97180 31457 60905 10268 20259 30066 40084 53022 70192 83232 333 10327 56000 59009 83819
AAXX 12124 85574 12960 09901 10192 20072 39590 40135 51003 60004 333 20133 30/// 55128 70000
AAXX 12124 85577 12960 00000 10198 20076 39539 40137 51004 60004 333 20130 30012 50530 55120 70000
AAXX 12124 85585 12597 81921 10161 20098 40218 51006 60004 885// 333 20155 30/// 55003 56499 70000 88623
AAXX 12124 85586 12960 02703 10150 20113 40160 52010 60004 333 20070 30/// 50300 55126
AAXX 12124 85629 12980 02208 10150 20115 40153 51/// 60004 333 20120 30/// 50760 55136 70000
AAXX 12124 85672 12580 21808 101136 20110 40169 52005 60004 82500 333 20087 30/// 55129 5660 70000 82620
AAXX 12124 85682 12965 02204 10149 20102 40172 51003 60004 333 20087 30/// 50630 55133 70000
AAXX 12124 85703 12560 51820 10134 20124 40172 5//// 60004 85400 333 20104 30/// 56400 7//// 85630
AAXX 12124 85743 11460 29903 10128 20122 40192 58009 60004 70340 82400 333 20061 30/// 50340 55090 56600 70000 82610
AAXX 12124 85799 12460 41512 10129 20106 40229 54001 60024 84500 333 20076 30/// 50320 55036 56400 70018 84617
BBXX 46001 12121 99563 71480 46/// /2617 10054 40003 51043 91150 22200 00051 11418 20810 300// 41415 70090 333 91222 555 11183 22196 31059 42622 61149 258171 256173 256165 257164 260166 257173
BBXX 46002 12121 99426 71305 46/// ///// 10097 40254 57003 91150 22200 00120 10806 70028
BBXX 46005 12121 99461 71310 46/// ///05 10072 40277 56004 91150 22200 00099 11304 20401 3//// 41304 70019 333 91206 555 11048 22049
BBXX 46006 12121 99408 71375 46/// /2101 10097 40304 58019 91150 22200 00124 11103 20401 3//// 41103 70017 333 91202 555 11008 22008 31139 42002 61149 206008 205009 211007 199002 180001 133002
BBXX 46014 12121 99394 71240 46/// /0404 10073 40096 56009 91150 22200 00104 11007 20401 3//// 41007 70037 333 91204 555 11037 22038 31149 40207 61149 038037 038044 035044 042045 043048 029057
BBXX 46028 12121 99357 71219 46/// /2702 10104 40077 58018 91150 22200 00131 11603 330// 41603 70013 333 91203 555 11025 22025 31132 42805 61149 269024 272032 275033 272030 267035 281033
BBXX 46050 12121 99442 71246 46/// /0109 10064 40207 53005 91150 22200 00101 11406 20704 330// 41405 70029 333 91210 555 11093 22097 31102 40211 61149 007089 008088 012087 017089 021091 023093
BBXX 46054 12121 99342 71204 46/// /1802 10113 40088 57011 91150 22200 00140 11603 300// 41603 70016 333 91203 555 11018 22019 31123 41904 61149 175018 177025 179029 183025 196026 194026
BBXX DDZB2 12123 99388 71299 41598 53623 10105 20055 40220 51010 70222 84568 22234 04130 20304 80080
BBXX KGTZ 12124 99523 71409 43/// /2715 10067 20030 40176 52010 7//// 8//// 22234 00072 20502 329// 41106 5//// 6//// 80050 ICE /////
BBXX WSRL 12123 99480 71253 41698 20905 10060 20020 40232 58005 70200 8//// 22244 00072 2//// 3//// 4//// 5//// 6//// 80040 ICE /////
AAXX 12124 78925 12468 31101 10259 20252 40133 53022 60001 83810 333 10320 20226 58006 70000 81816
AAXX 12124 78925 12468 31101 10259 20252 40133 53022 60001 83810 333 10320 20226 58006 70000 81816
AAXX 12124 78925 12468 31101 10259 20252 40133 53022 60001 83810 333 10320 20226 58006 70000 81816
AAXX 12121 10004 NIL
AAXX 12121 10015 01460 82712 10076 20059 39978 49988 53005 69931 75865 8687/ 333 31/// 55300 20159 30159 69917 83818 83633 85650 91116 91212
AAXX 12121 10020 07233 72207 10062 20062 39940 49972 56004 60021 76265 333 55300 20045 30045 60027 86/04 87/11 87/19 91113
AAXX 12121 10035 01010 82104 10041 20039 39929 49988 56005 69951 76165 877// 333 32/// 55300 20061 30059 41198 69957 87701
AAXX 12121 10055 01260 81906 10048 20040 39983 49993 56015 69901 72052 876// 333 31/// 55300 20162 30162 69907 87706
AAXX 12121 10147 01256 82205 10067 20060 39982 40000 56006 69961 76165 886// 333 31/// 55300 20062 30058 41235 69967 82706 87708
AAXX 12121 10162 01556 82003 10055 20040 39925 40007 57014 69911 71062 885// 333 31/// 55300 20173 30173 69917 88622
AAXX 12121 10184 12460 81704 10041 20022 30012 40020 58019 60001 885// 333 31/// 55300 20130 30130 84616 88620
AAXX 12121 10200 01462 72606 10068 20058 30014 40012 53022 60011 72162 8357/ 333 32/// 55300 20134 30134 69957 81615 83633 86363 91114 96463
AAXX 12121 10224 01356 82405 10075 20068 30005 40011 53009 60011 75865 885// 333 31/// 55300 20101 30099 60017 82708 88615 96010
AAXX 12121 10270 06560 81805 10058 20037 39983 40038 57015 69901 222// 06051 333 55300 69907 88/33
AAXX 12121 10338 01460 82205 10072 20058 39946 40018 53004 60011 76165 878// 333 31/// 55300 20076 30076 60017 82815 87632
AAXX 12121 10361 12975 81905 10072 20036 39932 40035 58011 60001 8257/ 333 31/// 55300 20309 30308 88460
AAXX 12121 10393 01875 81704 10055 20022 39928 40055 58014 69901 72161 8707/ 333 31/// 55300 20377 30368 69907 85358 87462
AAXX 12121 10400 01468 72706 10078 20049 30015 40064 51035 60031 70162 8387/ 333 31/// 55300 20289 30288 69917 81812 83620 87362
AAXX 12121 10438 07463 71703 10063 20056 39768 40047 53005 60051 75165 333 55300 60047 86/12 87/18
AAXX 12121 10469 12583 71906 10065 20027 39889 40053 56010 60001 85846 333 31/// 55300 81830 85656 86276
AAXX 12121 10488 11870 71610 10034 20006 39788 40071 58017 69901 70362 84072 333 31/// 55300 20484 30447 41051 82358 84466 86078 91116 91211
AAXX 12121 10506 01380 72705 10046 20030 39500 40083 51030 60041 72162 85871 333 31/// 55302 20476 30418 69987 85807 83358 96463 96459
AAXX 12121 10548 01025 81904 10025 20025 39526 40071 55005 60021 75164 886// 333 32/// 55300 20084 30084 60017 88701
AAXX 12121 10637 01475 72307 10083 20065 39938 40075 52021 60021 72162 878// 333 31/// 55300 69937 81818 84628 87633 91114 96463
AAXX 12121 10685 01362 71905 10039 20026 39400 40074 57006 69901 75162 86802 333 31/// 55300 20373 30372 69907 81807 85630 96461
AAXX 12121 10738 01482 82204 10077 20049 39632 40098 53014 69991 72162 8382/ 333 31/// 55300 69927 81815 83650 88460 96461 96460
AAXX 12121 10763 01459 81804 10046 20034 39711 40095 55000 60031 76362 875// 333 31/// 55300 20175 30170 60037 81710 83623 86635
AAXX 12121 10788 17248 71702 10016 20015 39680 40119 55007 60001 71030 333 55300 20133 30133 87/03
AAXX 12121 10852 01563 82105 10047 20047 39542 40113 51004 69911 76164 875// 333 31/// 55300 20205 30205 69917 87633
AAXX 12121 10946 07462 71902 10041 20031 39292 40125 52014 69921 76165 333 55300 20118 30118 69927 87/15 87/21 87/38
AAXX 12121 12772 11640 81502 10025 20012 39884 40174 57025 60011 71076 8557/ 333 85633
AAXX 12121 12822 36/// /1303 10085 20037 39992 40135 57024
AAXX 12121 12843 11559 80802 10041 20021 39987 40160 57021 69911 70162 8657/ 333 86626
AAXX 12121 12882 31975 71402 10095 20055 30035 40167 58021 70222 8707/
AAXX 12121 12925 36/// /1603 10070 20055 39973 40145 58021
AAXX 12121 12942 31950 71002 10079 20059 39910 40155 58019 71022 86032
AAXX 12121 12982 31970 71705 10108 20071 30062 40163 57017 70122 87072
AAXX 12124 85406 12560 83103 10200 20144 40138 53022 60004 885// 333 20188 30/// 55098 56099 70000 88630
AAXX 12124 85418 12965 41805 10194 20130 40133 53008 60004 70200 80001 333 20168 30/// 55107 56000 70000 84080
AAXX 12124 85432 12970 51016 10152 20021 37758 48448 55000 60004 80001 333 20048 30/// 51420 55116 56006 85072
AAXX 12124 85442 12470 29901 10171 20138 40130 53004 60004 81501 333 20136 30/// 55108 56407 70000 81618
AAXX 12124 85469 42562 41204 10189 20146 40208 57008 82130 333 56330 82820 84365
AAXX 12124 85488 12460 72704 10147 20129 40151 53017 60004 87500 333 20114 30006 50170 55064 56600 70000 87610
AAXX 12124 85836 12570 22306 10122 20059 40289 50003 60004 82100 333 20057 30/// 56060 70000 82830
AAXX 12124 85886 12970 50000 10148 20135 40187 51005 60004 80004 333 20060 30/// 56006 70000 85070
AAXX 12124 85892 12980 52903 10130 20074 40201 52020 60001 80001 333 20068 30/// 56006 70000 85070
AAXX 12124 85934 12580 32821 10118 20046 40057 52011 69904 82130 333 20088 30/// 55063 56660 79999 82820 83359
AAXX 12124 89056 11325 80221 11005 21014 49772 57036 69902 75022 8372/ 333 10002 21005 41099 55000 56669 83707 88459
AAXX 12124 89057 11356 83407 10001 21013 49772 57028 69922 75022 886// 333 10009 21002 44100 56799 88707
AAXX 12124 89058 32570 73411 10010 21016 39769 49790 57021 86540
AAXX 12124 89059 12460 82107 11002 21016 49771 57013 60002 886// 333 10006 21003 42060 55036 70999 88710
AAXX 12124 89251 32562 83615 10017 21020 49774 57030 8652/ 333 20003
AAXX 12124 85574 12960 09901 10192 20072 39590 40135 51003 60004 333 20133 30/// 55128 70000
AAXX 12124 85577 12960 00000 10198 20076 39539 40137 51004 60004 333 20130 30012 50530 55120 70000
AAXX 12124 85585 12597 81921 10161 20098 40218 51006 60004 885// 333 20155 30/// 55003 56499 70000 88623
AAXX 12124 85586 12960 02703 10150 20113 40160 52010 60004 333 20070 30/// 50300 55126
AAXX 12124 85629 12980 02208 10150 20115 40153 51/// 60004 333 20120 30/// 50760 55136 70000
AAXX 12124 85672 12580 21808 101136 20110 40169 52005 60004 82500 333 20087 30/// 55129 5660 70000 82620
AAXX 12124 85682 12965 02204 10149 20102 40172 51003 60004 333 20087 30/// 50630 55133 70000
AAXX 12124 85703 12560 51820 10134 20124 40172 5//// 60004 85400 333 20104 30/// 56400 7//// 85630
AAXX 12124 85743 11460 29903 10128 20122 40192 58009 60004 70340 82400 333 20061 30/// 50340 55090 56600 70000 82610
AAXX 12124 85799 12460 41512 10129 20106 40229 54001 60024 84500 333 20076 30/// 50320 55036 56400 70018 84617
BBXX VOXS 12124 99467 70480 41698 82828 11015 2104/ 40265 51018 70222 885// 22200 04025 20808 326// 40704 81026
AAXX 12124 08583 31938 70621 10258 20147 40160 70522 86031 333 58007 86360
AAXX 12124 08589 31440 70515 10266 20190 40145 70522 81501 333 58009 81615 87070
AAXX 12124 08594 31456 70615 10252 20192 40153 70622 8253/ 333 58009 82616 83760
AAXX 12124 78862 11476 39902 10258 20238 30107 40130 60001 71511 81862 333 10284 20222 58011 81818
AAXX 12124 3816
AAXX 12124 7635 85458
AAXX 12124 TAF TQPF 081000Z 0812/0912 04010KT 9999 SCT022 PROB30 TEMPO 0812/0912 SHRA BKN015
AAXX 12124 TAF TUPJ 081000Z 0812/0912 06010KT 9999 SCT022 PROB30 TEMPO 0812/0912 SHRA BKN015
AAXX 12124 N036
AAXX 12124 TAF TUPJ 071600Z 0718/0818 06008KT 9999 SCT020 BKN280 PROB30 TEMPO 0718/0818 06010G20KT SHRA BKN015 BKN036
AAXX 12124 TEMPO 0600/0624 SHRA BKN015=+TSRA SCT012CB
AAXX 12124 TAF TUPJ 041000Z 04012/0512 07008KT 9999 SCT016 BKN038 SCT270 TEMPO 0412/0512 SHRA BKN015 PROB40 TEMPO 0418/0512 5000 SHRA BKN014 BKN036 PROB30 0420/0512 4000 TSRA FEW012CB
AAXX 12124 918 4000 TSRA FEW012CB
AAXX 12124 N015 BKN036 PROB40 TEMPO 0704/0724 3000 +TSRA SCT011CB BKN012 BECMG 0712/0714 14008KT
AAXX 12124 21/2712 07017G28KT 5000 SHRA BKN015 BKN036 PROB TEMPO 2700/2712 4000 TSRA FEW013CB
AAXX 12124 PROB30 TEMPO 0800/0806 4000 TSRA FEW012CB PROB40 TEMPO 0800/0824 2000 +SHRA/TSRA SCT010CB BKN012 BKN250
AAXX 12124 78948 11579 51009 10285 20237 30123 40131 69901 70581 82401 333 02206 10305 20249 58004 79999 82824 84079 90955
AAXX 12124 78700 NIL
AAXX 12124 78703 11460 82915 10240 20193 30158 40160 60042 715// 8542/ 333 10240 20207 31/// 56799 58002 70479 85616 88457
AAXX 12124 78704 01330 83204 10208 20196 30163 40168 60061 762// 8542/ 333 10233 20197 31/// 56799 58010 70057 81708 84618 88457
AAXX 12124 78705 01550 72105 10219 20183 30154 40172 53012 69902 751// 8442/ 333 10222 20198 31/// 56699 59005 69902 70014 84820 88457
AAXX 12124 78706 11570 70000 10201 20187 30180 40185 60032 705// 85270 333 10240 20184 31/// 56220 58015 70028 85820 87458
AAXX 12124 78707 NIL
AAXX 12124 78708 31565 71702 10207 20207 30143 40174 53005 70544 81550 333 10259 20207 30/// 56110 59002 70000 82625 87358
AAXX 12124 78711 NIL
AAXX 12124 78714 32568 40000 10181 20175 84100 333 10312 20181 30/// 56100 70000 84830
AAXX 12124 78717 31560 70000 10146 20143 38976 40178 5//// 710// 82520 333 10194 20144 30/// 56880 59004 70000 82625 87458
AAXX 12124 78718 31660 23406 10176 705// 82430 333 10250 20174 30/// 56800 70000 82840
AAXX 12124 78719 32450 50610 10115 20103 38352 40151 85500 333 10162 20112 30/// 56100 59005 70000 85616
AAXX 12124 78720 31357 73407 10156 20138 39042 40166 53002 70544 85530 333 10250 20156 30/// 56800 58002 70000 81706 84625
AAXX 12124 78724 32578 30408 10238 20197 30061 40118 5//// 82101 333 10347 20238 30/// 56100 58000 70000 82630
AAXX 12124 78862 11476 39902 10258 20238 30107 40130 60001 71511 81862 333 10284 20222 58011 81818
AAXX 12124 3816
AAXX 12124 7635 85458
AAXX 12124 TAF TQPF 081000Z 0812/0912 04010KT 9999 SCT022 PROB30 TEMPO 0812/0912 SHRA BKN015
AAXX 12124 TAF TUPJ 081000Z 0812/0912 06010KT 9999 SCT022 PROB30 TEMPO 0812/0912 SHRA BKN015
AAXX 12124 N036
AAXX 12124 TAF TUPJ 071600Z 0718/0818 06008KT 9999 SCT020 BKN280 PROB30 TEMPO 0718/0818 06010G20KT SHRA BKN015 BKN036
AAXX 12124 TEMPO 0600/0624 SHRA BKN015=+TSRA SCT012CB
AAXX 12124 TAF TUPJ 041000Z 04012/0512 07008KT 9999 SCT016 BKN038 SCT270 TEMPO 0412/0512 SHRA BKN015 PROB40 TEMPO 0418/0512 5000 SHRA BKN014 BKN036 PROB30 0420/0512 4000 TSRA FEW012CB
AAXX 12124 918 4000 TSRA FEW012CB
AAXX 12124 N015 BKN036 PROB40 TEMPO 0704/0724 3000 +TSRA SCT011CB BKN012 BECMG 0712/0714 14008KT
AAXX 12124 21/2712 07017G28KT 5000 SHRA BKN015 BKN036 PROB TEMPO 2700/2712 4000 TSRA FEW013CB
AAXX 12124 PROB30 TEMPO 0800/0806 4000 TSRA FEW012CB PROB40 TEMPO 0800/0824 2000 +SHRA/TSRA SCT010CB BKN012 BKN250
AAXX 12124 96315 11457 71910 10244 20234 40086 60051 76188 84878 333 10317 82814 85465
AAXX 12124 96323 NIL
AAXX 12121 01001 11575 73605 11007 21045 39979 49991 58010 60001 70221 8647/ 222// 00005 333 91110
AAXX 12121 01008 41362 82503 11061 21088 39928 49962 53004 77177 885// 333 91108
AAXX 12121 01010 41589 21305 11003 21041 39962 49978 57013 70300 82868 333 91110
AAXX 12121 01026 41370 70000 11023 21032 39853 49995 58009 70222 876// 333 91102
AAXX 12121 01055 46/// /3506 10004 21013 39982 40000 52002 333 91113
AAXX 12121 01062 NIL
AAXX 12121 01098 41480 53403 10012 21004 39961 49979 52014 72682 85300 333 91108
AAXX 12121 01115 41480 81413 10017 21048 39907 49928 56016 70222 8127/ 333 91118
AAXX 12121 01152 11789 71011 10001 21078 39926 49942 58019 60001 70211 81178 333 91117
AAXX 12121 01205 NIL
AAXX 12121 01212 16/// /1004 10051 20009 39841 49856 58028 6//// 333 91108
AAXX 12121 01271 16/// /1004 10003 21045 39880 49901 58020 6//// 333 91106
AAXX 12121 01288 41349 81103 11035 21050 39168 49916 58025 78682 889// 333 91105
AAXX 12121 01300 NIL
AAXX 12121 01317 41460 81505 10052 20028 39866 49880 53011 76062 8472/ 333 91110
AAXX 12121 01367 41330 83001 11052 21063 39473 49921 57020 77372 8872/ 333 91103
AAXX 12121 01384 41470 81707 10022 20013 39680 49926 58011 72065 8772/ 333 91110
AAXX 12121 01403 11580 3//// 1//// 2//// 39822 50007 60021 70186 83900
AAXX 12121 01415 16/// /2305 10071 20016 39894 49905 51006 6//// 333 91112
AAXX 12121 01482 46/// /1914 1//// 2//// 39927 49934 58013 333 91120
AAXX 12121 01492 41370 81805 10037 20021 39813 49929 58005 76062 8677/ 333 91112
AAXX 12121 01003 NIL
AAXX 12121 01007 11570 80000 11067 21093 39950 49960 52002 69931 77372 885// 333 91106
AAXX 12121 01028 11580 71704 11051 21060 39967 49987 58004 69911 70384 8137/ 222// 01001 333 91106
AAXX 12121 01047 41608 81801 11174 21196 39642 40023 50003 77872 8802/
AAXX 12121 01049 16/// /1902 11074 21087 30010 40013 52003 60001 333 91104
AAXX 12121 01078 11385 80401 10015 21048 39974 49987 52010 6//// 70322 86260 333 91110
AAXX 12121 01102 46/// /1310 10023 21028 39886 49905 56014 333 91116
AAXX 12121 01160 NIL
AAXX 12121 01218 11787 81408 10055 21044 39839 49860 57028 60001 70222 83280 333 91115
AAXX 12121 01238 46/// /3501 11056 21067 38759 49877 57024 333 91103
AAXX 12121 01241 11886 71308 10023 21030 39869 49881 58026 60001 70222 82077 333 91110
AAXX 12121 01281 NIL
AAXX 12121 01338 16/// /0904 10021 20003 39813 49879 56010 60001 333 91111
AAXX 12121 01359 NIL
AAXX 12121 01397 16/// /1302 11008 21009 39496 49932 58017 60051 333 91104
AAXX 12121 01400 NIL
AAXX 12121 01427 11570 72909 10065 20033 39902 49918 52002 60031 71586 84972 333 91115
AAXX 12121 01447 NIL
AAXX 12121 01448 46/// ///// 10068 20041 39909 49918 58008
AAXX 1212/ 89872 46/// ///// 11076 39802 4//// 5////
AAXX 1212/ 89866 46/// ///// 11048 39737 4//// 5////
AAXX 1212/ 89329 46/// ///// 11134 38679 4//// 5////
AAXX 1212/ 89327 46/// ///// 11029 39646 4//// 5////
AAXX 1212/ 89332 46/// ///// 11084 39192 4//// 5////
AAXX 12124 89667 46/// /0805 11077 29085 39848 4//// 5////
AAXX 12121 78221 11462 40504 10220 20200 30152 40179 52010 60004 70300 84200 333 84815
AAXX 12121 78224 11558 10503 10177 20165 30106 40182 52012 69924 71044 81100 333 20174 81825
AAXX 12121 78229 12559 10301 10186 20174 30105 40180 52010 60004 81200 333 81820
AAXX 12121 78239 11559 30705 10236 20201 30159 40162 52010 60004 70500 83800 333 82820
AAXX 12121 12345 12559 20702 10202 20200 30121 40160 52009 60004 82150 333 82820
AAXX 12121 78243 12550 30602 10202 20195 30041 40164 57011 60024 83210 333 83825
AAXX 12121 78255 12559 30302 10208 20193 30016 40165 52010 60004 83800 333 20208 82820
AAXX 12121 78264 11560 33604 10228 20191 30067 40142 52010 60004 70300 83200 333 20223 83825
AAXX 12121 78265 11557 21601 10189 20177 30049 40149 52010 60084 71144 82200 333 20194 82820
AAXX 12121 78256 NIL
AAXX 12121 78259 11558 31001 10201 20189 30070 40163 54000 60004 70544 83200 333 20199 83820
AAXX 12121 78268 NIL
AAXX 12124 78897 14484 /2902 10247 20235 40133 53021 69921 700// 333 10298 20217 58014 70010
AAXX 12121 10004 46/60 /2712 10084 20028 39998 49998 51024 222// 00095 333 55307 91115 91212
AAXX 12124 61902 32584 21414 10270 20186 40143 82800 58009 82822
AAXX 12121 45032 36/// /2201 10116 20055 30185 40202 52003
AAXX 12121 45035 36/// /0303 10155 20038 30159 40201 52004
AAXX 12121 45039 36/// /3301 10149 20053 30184 40200 52004
AAXX 12121 45044 36/// /0006 10151 20040 30101 40196 52003
AAXX 12121 45032 36/// /2201 10116 20055 30185 40202 52003
AAXX 12121 45035 36/// /0303 10155 20038 30159 40201 52004
AAXX 12121 45039 36/// /3301 10149 20053 30184 40200 52004
AAXX 12121 45044 36/// /0006 10151 20040 30101 40196 52003
AAXX 12124 78897 14484 /2902 10247 20235 40133 53021 69921 700// 333 10298 20217 58014 70010
BBXX CGDS 12124 99447 70755 46/// /2014 11001 21073 4//// 5//// 7//// 8//// 22200 0//// 2////
AAXX 12124 48001 31230 81301 10170 20154 40147 70522 8592/ 333 10195 56559 59002
AAXX 12124 48004 32430 50000 10198 20185 85300 333 10254 56500
AAXX 12124 48008 32556 20000 10207 20160 40120 70511 82500 333 10260 56400 59004
AAXX 12124 48010 32510 30000 10210 20195 40130 82830 333 10265 56770 58015
AAXX 12124 48018 32940 00000 10225 20198 40118 333 10576 58009
AAXX 12124 48019 32450 10000 10202 20159 82400 333 10240 56400
AAXX 12124 48020 32440 20000 10205 20159 82400 333 10240 56400
AAXX 12124 48025 32456 12201 10216 20185 40128 81500 333 10262 56900 58013
AAXX 12124 48035 31510 20000 10187 20139 40103 71000 81130 333 10263 56990 58011
AAXX 12124 48037 32940 00000 10257 20179 40110 333 10293 58004
AAXX 12124 48042 32957 00000 10258 20203 40113 333 10300 58004
AAXX 12124 48045 32558 20000 10150 20111 82100 333 10211 56300
AAXX 12124 48048 32940 00401 10260 20203 40108 333 10300 58008
AAXX 12124 48053 32550 20000 10260 20178 40108 82500 333 10300 56500 58008
AAXX 12124 48057 32439 52201 10177 20108 84850 333 10228 56690
AAXX 12124 48060 32410 30000 10176 20147 40143 82970 333 10212 56560 59013
AAXX 12124 48062 31450 20000 10268 20230 40113 70500 82500 333 10296 56900 58002
AAXX 12124 48071 32956 03203 10263 20203 40121 333 10290 58002
AAXX 12124 48077 32556 30000 10280 20203 40109 82801 333 10334 56909 58015
AAXX 12124 48078 32556 22701 10277 20206 40110 81201 333 10320 56909 58008
AAXX 12124 48080 32556 40000 10272 20211 40101 82870 333 10325 56990 59002
AAXX 12124 48094 32556 00000 10260 20250 40112 333 10322 56000 58002
AAXX 12124 48097 32456 42301 10270 20211 40122 70322 84800 333 10325 56900 58005
AAXX 12124 48108 31997 50000 10240 20174 40122 70522 80005 333 10310 56009 58004
AAXX 12124 48109 32496 40401 10280 20233 40109 82531 333 10320 56599 58003
AAXX 12124 48110 31996 83203 10260 20191 40105 705// 80007 333 10305 56009 59001
AAXX 12124 48112 32598 60401 10257 20195 40103 70222 82246 333 10285 56199 58005
AAXX 12124 48001 31230 81301 10170 20154 40147 70522 8592/ 333 10195 56559 59002
AAXX 12124 48004 32430 50000 10198 20185 85300 333 10254 56500
AAXX 12124 48008 32556 20000 10207 20160 40120 70511 82500 333 10260 56400 59004
AAXX 12124 48010 32510 30000 10210 20195 40130 82830 333 10265 56770 58015
AAXX 12124 48018 32940 00000 10225 20198 40118 333 10576 58009
AAXX 12124 48019 32450 10000 10202 20159 82400 333 10240 56400
AAXX 12124 48020 32440 20000 10205 20159 82400 333 10240 56400
AAXX 12124 48025 32456 12201 10216 20185 40128 81500 333 10262 56900 58013
AAXX 12124 48035 31510 20000 10187 20139 40103 71000 81130 333 10263 56990 58011
AAXX 12124 48037 32940 00000 10257 20179 40110 333 10293 58004
AAXX 12124 48042 32957 00000 10258 20203 40113 333 10300 58004
AAXX 12124 48045 32558 20000 10150 20111 82100 333 10211 56300
AAXX 12124 48048 32940 00401 10260 20203 40108 333 10300 58008
AAXX 12124 48053 32550 20000 10260 20178 40108 82500 333 10300 56500 58008
AAXX 12124 48057 32439 52201 10177 20108 84850 333 10228 56690
AAXX 12124 48060 32410 30000 10176 20147 40143 82970 333 10212 56560 59013
AAXX 12124 48062 31450 20000 10268 20230 40113 70500 82500 333 10296 56900 58002
AAXX 12124 48071 32956 03203 10263 20203 40121 333 10290 58002
AAXX 12124 48077 32556 30000 10280 20203 40109 82801 333 10334 56909 58015
AAXX 12124 48078 32556 22701 10277 20206 40110 81201 333 10320 56909 58008
AAXX 12124 48080 32556 40000 10272 20211 40101 82870 333 10325 56990 59002
AAXX 12124 48094 32556 00000 10260 20250 40112 333 10322 56000 58002
AAXX 12124 48097 32456 42301 10270 20211 40122 70322 84800 333 10325 56900 58005
AAXX 12124 48108 31997 50000 10240 20174 40122 70522 80005 333 10310 56009 58004
AAXX 12124 48109 32496 40401 10280 20233 40109 82531 333 10320 56599 58003
AAXX 12124 48110 31996 83203 10260 20191 40105 705// 80007 333 10305 56009 59001
AAXX 12124 48112 32598 60401 10257 20195 40103 70222 82246 333 10285 56199 58005
AAXX 12121 01015 NIL
AAXX 12121 01023 41189 13001 11142 21148 39903 40003 57011 70200 81608 333 91102
AAXX 12121 01033 46/// /0904 10016 21029 39962 49993 57008 333 91111
AAXX 12121 01059 41989 12203 11090 21099 30001 40011 53006 70100 81070 333 91104
AAXX 12121 01089 16/// /2504 11044 21056 39886 49994 52017 6//// 333 91108
AAXX 12121 01167 41688 11703 10019 21030 39965 49969 57017 70200 81108 333 91105
AAXX 12121 01180 NIL
AAXX 12121 01210 41683 81501 10048 20006 39824 49850 58029 70222 8657/ 333 91106
AAXX 12121 01228 NIL
AAXX 12121 01240 16/// /1310 10039 21012 39862 49881 58018 6//// 333 91114
AAXX 12121 01304 46/// /1309 10047 20016 39809 49840 57028 333 91112
AAXX 12121 01311 46/// /2304 1//// 2//// 39821 53011 333 91114
AAXX 12121 01340 NIL
AAXX 12121 01355 16/// ///// 10006 21003 39880 49885 56014 60021
AAXX 12121 01360 NIL
AAXX 12121 01392 11256 81704 10024 20014 39714 49937 57011 60021 76062 888// 333 91107
AAXX 12121 01406 46/// /2109 10060 20032 39866 49883 53015 333 91117
AAXX 12121 01411 16/// /2209 10069 20020 39875 49900 50005 6//// 333 91113
AAXX 12121 01425 NIL
AAXX 12121 01433 46/// /0000 11014 21025 38655 49893 50004 333 91109
AAXX 12121 01442 11480 81504 10038 20023 39662 49916 50003 60061 76166 887// 333 91112
AAXX 12121 01450 NIL
AAXX 12121 01452 11169 82403 10058 20046 39900 49921 57006 60051 76165 8472/ 333 91116
AAXX 12121 01473 41560 71602 10016 20010 39712 49918 57009 70352 8772/ 333 91104
AAXX 12121 01494 11575 81707 10045 20014 39872 49936 58012 60041 72162 8672/ 333 91113
BBXX BAREU04 12124 99520 70062 46/// ///// 40015 57028 22224
AAXX 12121 01025 16/// /1901 11014 21024 39986 49997 58009 6//// 333 91103
AAXX 12121 01052 16/// /0000 11026 21040 39899 49998 51007 60021 333 91109
AAXX 12121 01122 16/// /0102 11027 21066 39855 49945 56021 60001 333 91106
AAXX 12121 01132 16/// /0805 11034 21080 39560 49952 58019 60001 333 4/045 91111
AAXX 12121 01156 16/// /1006 10010 21052 39945 49955 58017 60001 333 91109
AAXX 12121 01203 46/// /0807 10052 20002 39795 49842 58026 333 91110
AAXX 12121 01233 16/// /2101 11058 21063 60011 333 91104
AAXX 12121 01265 NIL
AAXX 12121 01273 16/// /1203 10002 21030 39707 49902 58020 60001 333 91108
AAXX 12121 01307 46/// /2313 10057 20030 39832 49859 55005 333 91119
AAXX 12121 01321 16/// /2901 10008 21005 39607 49857 56021 60001 333 91105
AAXX 12121 01327 16/// /1504 10008 21001 60021 333 91108
AAXX 12121 01350 16/// /2403 11013 21023 38503 49863 56005 60031 222// 00048 333 91109
AAXX 12121 01361 16/// /0805 11053 21071 38865 49893 56027 60001 333 91108
AAXX 12121 01375 NIL
AAXX 12121 01378 16/// /0000 11041 21048 39623 49917 57020 60041 333 91103
AAXX 12121 01385 16/// /1102 10010 20006 39653 49922 57016 60011 333 91103
AAXX 12121 01412 16/// /2509 10071 20022 39878 49907 51006 60051 333 91116
AAXX 12121 01422 16/// /1804 10049 20028 60031 333 91110
AAXX 12121 01440 NIL
AAXX 12121 01441 NIL
AAXX 12121 01467 NIL
AAXX 12121 01469 NIL
AAXX 12121 01477 16/// /1503 10026 20015 69981 333 4/018 91109
AAXX 12121 01480 16/// /0104 10039 20010 60031 333 91108
AAXX 12121 01484 16/// /1607 10027 20004 39786 49940 58012 69971 333 91110
AAXX 12121 01490 16/// /1905 10003 20003 60061 333 91113
AAXX 12121 01495 16/// /1914 10064 20022 39923 49936 58016 60011 333 91119
AAXX 12121 01121 NIL
AAXX 12121 01135 16/// /1804 11015 21072 39797 49950 58017 60001 333 91111
AAXX 12121 01143 16/// /1105 11004 21068 60001 333 91109
AAXX 12121 01150 16/// /0502 11044 21092 60001 333 91109
AAXX 12121 01192 16/// /2802 11052 21100 60001 333 4/009 91105
AAXX 12121 01225 46/// /0606 10050 21004 39860 49865 58029 333 91109
AAXX 12121 01230 16/// /1802 11027 21050 60001 333 4/030 91108
AAXX 12121 01232 16/// /1503 10024 21032 39796 49874 56032 60001 333 4/028 91108
AAXX 12121 01234 16/// /2001 11033 21043 60001 333 91104
AAXX 12121 01253 16/// /0301 11015 21027 60001 333 91104
AAXX 12121 01254 16/// /1401 11018 21025 69941 333 4/021 91102
AAXX 12121 01257 NIL
AAXX 12121 01277 NIL
AAXX 12121 01291 16/// /1302 11035 21058 60001 333 4/019 91106
AAXX 12121 01332 16/// /0000 11004 21014 69921 333 91101
AAXX 12121 01366 46/// /1507 11052 21064 38278 49878 56016 333 91109
AAXX 12121 01370 NIL
AAXX 12121 01376 16/// /0000 11017 21024 60051 333 91103
AAXX 12121 01383 46/// /0000 11068 21073 39618 49938 57021 333 91100
AAXX 12121 01386 16/// ///// 10014 20007 60011
AAXX 12121 01416 16/// ///// 10061 20021 60061
AAXX 12121 01419 NIL
AAXX 12121 01430 16/// ///// 10059 20040 60031
AAXX 12121 01434 16/// /0501 10001 21009 38942 49893 53002 6//// 333 91103
AAXX 12121 01455 16/// /1202 10034 20023 39607 49912 57008 60071 333 91108
AAXX 12121 01468 16/// /1403 10027 20009 60011 333 91107
AAXX 12121 01470 16/// /1403 10035 20024 39802 49915 58009 60021 333 4/004 91110
AAXX 12121 01476 NIL
AAXX 12121 01481 16/// /1906 10052 20017 39901 49933 58011 69991 333 91114
AAXX 12121 01488 NIL
AAXX 12121 01037 16/// /1601 11131 21143 30005 40011 57003 60001 333 91103
AAXX 12121 01046 NIL
AAXX 12121 01058 16/// /0000 11130 21145 39544 40031 50003 69981 333 4/019 91102
AAXX 12121 01065 11689 30801 11136 21152 39858 40028 52007 69931 70211 81540 333 91102
AAXX 12121 01092 NIL
AAXX 12121 01107 16/// /1503 10021 20002 39930 49934 56019 60001 333 91113
AAXX 12121 01114 16/// /0401 11016 21051 39918 49929 58018 60001 333 91106
AAXX 12121 01144 41886 81112 10004 21073 70322 84028 333 91118
AAXX 12121 01199 NIL
AAXX 12121 01245 11580 80604 11019 21049 39185 49887 58030 60001 70272 8272/ 333 91107
AAXX 12121 01259 16/// /1109 10012 21040 39868 49891 58018 60001 333 91113
AAXX 12121 01262 NIL
AAXX 12121 01278 41889 81005 11012 21051 39808 49911 58023 70222 8802/
AAXX 12121 01293 11758 81504 11027 21058 39716 49925 58016 60001 77122 8802/ 333 91109
AAXX 12121 01329 NIL
AAXX 12121 01337 NIL
AAXX 12121 01344 16/// ///// 10020 21019 60011 333 4/058
AAXX 12121 01364 16/// /1006 11051 21067 38782 49901 50014 69981 333 4/038 91108
AAXX 12121 01373 11213 80000 11047 21055 39709 49912 57019 60021 77177 887// 333 91100
AAXX 12121 01374 41/12 90000 11038 21040 77372
AAXX 12121 01380 41020 81503 11043 21054 77172 886// 333 4/004 91105
AAXX 12121 01389 11710 83301 11060 21069 39624 49940 57020 60051 77172 8372/ 333 91105
AAXX 12121 01393 NIL
AAXX 12121 01424 11450 8//// 10004 21003 39908 49911 52007 60081 77176 887//
AAXX 12121 01431 16/// /2201 10004 21002 39257 49915 50002 60101 333 91103
AAXX 12121 01436 NIL
AAXX 12121 01465 11245 81914 10062 20047 39904 49922 57013 60021 76566 8672/ 333 91122
AAXX 12121 01471 11218 81701 10000 21007 60021 76375 8772/ 333 91102
AAXX 12121 01483 NIL
BBXX BATFR15 12124 99395 70140 44798 22512 10160 20082 40267 50002 70332 82135 22254 00172 20708 335// 40708 5////
BBXX BAREU00 12124 99404 70723 46/// ///// 40357 57004 22223
BBXX BATFR13 12124 99244 70531 44497 81328 10252 20205 40189 53021 70222 887// 22214 00257 20404 309// 41206 5////
BBXX BATFR14 12124 99163 70608 44598 23205 10267 20235 40133 53016 70100 82260 22254 00274 202// 30612 410// 50802 60000 ICE 0/0//
BBXX BATEU00 12124 99495 30159 46/// /1724 10029 20022 40019 53005 22243
BBXX BAREU06 12124 99400 70371 46/// ///// 40237 52004 22264
BBXX BATFR02 12124 99506 70009 46/// /2636 10099 20022 40078 58018 22284 00119
BBXX BAREU54 12124 99165 70713 46/// ///// 40125 52013 22253
BBXX BATFR04 12124 99596 70101 46/// /2319 10059 20010 49814 22272 00099
BBXX BATFR27 12124 99495 70022 46/// /2527 10127 20055 40109 22285 00132
AAXX 12121 02741 47478 72007 10043 20029 30011 40027 57010 70086 85/// 91139
AAXX 12121 02755 47980 01302 11089 21095 39965 40065 54002 70000 91139
AAXX 12121 02805 47999 01603 11136 21154 39876 40015 52012 70020 91139
AAXX 12121 02807 47799 72103 11063 21071 39832 40019 700// 87/// 91200
AAXX 12121 02836 47699 81701 11092 21102 39805 40036 52010 70080 88/// 91139
AAXX 12121 02845 47058 12103 11134 21143 39795 40057 52013 77187 81/// 91139
AAXX 12121 02849 47481 72401 11087 21098 39762 40045 52015 78587 87/// 91139
AAXX 12121 02866 47010 70000 11098 21103 39910 40066 52012 72087 87/// 91139
AAXX 12121 02897 47599 82102 11050 21064 39888 40075 700// 88/// 91200
AAXX 12121 02913 47/20 /1104 11033 21037 39983 40036 771//
AAXX 12121 02917 47483 71801 11053 21079 39961 40088 700// 87/// 91200
AAXX 12121 02924 47523 81101 11033 21034 39853 40055 57012 77187 88/// 91139
AAXX 12121 02926 47259 81403 10012 20012 30013 40026 57016 761// 88/// 91200
AAXX 12121 02935 47659 71302 11042 21049 39895 40073 57008 78587 87/// 91139
AAXX 12121 02939 47483 82304 11039 21046 39892 40091 52019 77787 88/// 91139
AAXX 12121 02944 47150 71504 10000 20000 39901 40049 767// 87/// 91200
AAXX 12121 02947 47565 71301 11021 21031 40089 57003 77107 85/// 91151
AAXX 12121 02963 41150 81803 10011 20009 40050 57012 75876 886//
AAXX 12121 02974 41256 82104 10031 20027 30007 40074 57009 76186 886//
AAXX 12121 02976 46/// /2307 10042 20039 30068 40084 57009 91139
AAXX 12121 02981 47475 72012 10047 20033 30038 40048 57009 75286 85/// 91139
AAXX 12121 02982 46/// /2412 10053 20036 30054 40062 57006 91139
AAXX 12121 13586 31536 40000 10093 20032 39937 40228 57022 69901 71026 82530 333 82630 84358
AAXX 12121 10007 NIL
AAXX 12121 10044 NIL
AAXX 12121 10046 41130 82105 10050 20040 39951 49990 57011 75152 877// 333 87703
AAXX 12121 10091 01460 81909 10034 20021 39961 40012 58018 69901 72122 875// 222// 06063 333 31/// 55300 20214 30214 69907 87616 91114 91211
AAXX 12121 10113 01565 62810 10077 20051 39985 40004 53018 69951 70362 85820 333 32/// 55300 20326 30307 69907 83825 83656 85462 91114 91211
AAXX 12121 10124 NIL
AAXX 12121 10131 01256 82306 10064 20057 39982 49997 53006 69981 75866 877// 333 31/// 55300 20044 30044 69967 87705
AAXX 12121 10170 01560 81805 10047 20031 39990 40006 56021 69901 72162 885// 333 31/// 55300 20145 30145 69907 88621
AAXX 12121 10264 01565 81805 10059 20036 39907 40013 58015 69901 72065 8557/ 333 31/// 55300 20236 30236 69907 85633 88358
AAXX 12121 10291 01670 81604 10047 20024 39975 40043 56018 69901 72152 875// 333 31/// 55300 20283 30282 69907 87637
AAXX 12121 10315 01465 82706 10074 20060 39977 40041 53030 60021 72562 878// 333 31/// 55300 20087 30087 60027 81810 85817 87646 96015
AAXX 12121 10379 01677 81806 10061 20034 39921 40042 58011 69901 75865 8452/ 333 31/// 55300 20308 30295 41187 69907 81643 83657 88460 91113 96466
AAXX 12121 10382 01575 71906 10069 20030 30000 40045 57013 69901 76162 875// 333 31/// 55300 20194 30193 69907 83630 87650
AAXX 12121 10384 06/// /1904 10071 20031 39987 40047 58013 69901 333 55300 20288 30287 69907
AAXX 12121 10427 01/04 82809 10015 20015 39047 48358 53019 60061 76976 877// 333 44017 55300 20102 30102 60047 847// 87705 91117 91211 96041 96445
AAXX 12121 10430 01050 82505 10069 20061 39847 40038 53015 60041 76362 887// 333 32/// 55300 20056 30056 60047 81801 83804 86809 96010
AAXX 12121 10439 41462 82303 10071 20051 39833 40051 53010 72162 885// 333 83712 85630 87656
AAXX 12121 10453 11/90 92221 11004 21004 38686 48325 56008 60041 77374 333 49050 55300 91129 91226 96049 96038 96468 96466
AAXX 12121 10496 01870 81805 10059 20014 39982 40067 58013 69901 70261 875// 333 31/// 55300 20465 30451 69907 87657
AAXX 12121 10499 12965 81908 10038 20009 39792 40084 57009 60001 81047 333 31/// 55305 20659 30552 81366 88270 91117 91213
AAXX 12121 10505 01481 12610 10057 20028 39800 40082 51031 60061 72561 81300 333 32/// 55303 20601 30459 69987 81915 91115 91211
AAXX 12121 10513 01480 82705 10072 20058 39953 40074 51029 60041 76062 878// 333 31/// 55300 20122 30122 69967 82813 83816 85630
AAXX 12121 10532 07584 72306 10070 20053 39816 40062 53021 60031 70065 333 55300 20336 30336 69987 84/21 87/40 87/50
AAXX 12121 10544 01/02 92313 10017 20017 38979 48365 55002 60021 75876 333 42003 55300 69987 91119 91214 96045 96259 96469 96468
AAXX 12121 10554 12581 72211 10066 20031 39658 40043 57013 60001 83276 333 31/// 55300 20389 30383 83823 83460 87280 91115 91212
AAXX 12121 10567 12583 72008 10062 20028 39685 40059 57014 60001 83538 333 31/// 55302 20605 30549 83625 83365 87270
AAXX 12121 10578 11/01 92114 11005 21005 38678 48380 57011 69901 77142 333 44028 55301 20586 30538 96049
AAXX 12124 78905 11478 12604 10243 20219 30112 40135 60002 701// 81800 333 10303 20221 58009 70000 81818
AAXX 12121 10609 01485 72606 10063 20038 39770 40100 51037 60041 70262 878// 333 31/// 55300 20302 30294 69987 84817 87630 91114 91211
AAXX 12121 10616 01284 72806 10043 20032 39491 40092 53033 60041 72165 875// 333 32/// 55300 60027 82705 86607 87613 91114 96463 96451
AAXX 12121 10641 07581 82104 10080 20064 39927 40073 53019 60031 72365 333 55300 69947 86/31 87/38 88/50
AAXX 12121 10655 01470 82407 10070 20060 39752 40079 53004 69981 75862 8581/ 333 31/// 55300 20249 30246 69957 82812 85628 88458
AAXX 12121 10675 07462 71705 10052 20039 39795 40087 58002 60011 75165 333 55300 20290 30290 60017 82/17 87/30 87/40
AAXX 12121 10688 07359 71803 10028 20017 39577 40104 55007 69901 76165 333 55300 20340 30340 69907 84/07 85/22 87/38
AAXX 12121 10708 01384 72608 10060 20041 39723 40109 53031 60031 70162 875// 333 31/// 55300 20164 30161 69927 85708 87614 91115
AAXX 12121 10729 17581 81803 10083 20069 39975 40096 51020 60021 70065 333 55300 20208 30208 88/24
AAXX 12121 10731 01362 72307 10083 20072 39951 40093 51017 60091 72166 878// 333 31/// 55300 20203 30203 60057 83808 87628
AAXX 12121 10742 07456 82505 10070 20059 39765 40095 52015 60071 75765 333 55300 20131 30131 60037 86/14 87/20 88/31
AAXX 12121 10776 11139 81503 10017 20017 39665 40116 55004 60001 71042 886// 333 31/// 55300 20181 30181 88703
AAXX 12121 10791 12788 71804 11001 21001 38458 48406 56011 60001 86042 333 44/// 55305 84356 83362 444 27076
AAXX 12121 10805 01483 82205 10088 20066 39926 40116 51029 69941 72162 8687/ 333 32/// 55300 20248 30248 69907 81818 83844 85361 91114 96015
AAXX 12121 10815 01235 82707 10039 20035 39165 48409 52017 60141 76366 8572/ 333 32/// 4/998 55300 20175 30175 60097 85706 88515 91117 96010 96465
AAXX 12121 10836 01460 82507 10048 20042 39232 40098 53006 69971 76164 888// 333 31/// 4/998 55300 20139 30139 69977 83810 88618 91113 96447
AAXX 12121 10870 11258 83501 10024 20019 39579 40120 53001 60001 70342 885// 333 31/// 55300 82706 87650 96210 96441 96440 96410
AAXX 12121 10895 01015 81602 10006 20006 39536 40116 56016 69931 72854 886// 333 31/// 55300 20294 30292 69917 88701 96010
AAXX 12121 10908 01/01 92613 11011 21011 38417 48417 53021 60191 77374 333 49014 55300 20191 30191 60107 89/01 91125 90260 91218 90328 91219 96049
AAXX 12121 10929 01560 82405 10070 20053 39591 40120 51008 69981 75966 885// 333 31/// 55300 20189 30187 69987 81626 88635
AAXX 12121 10948 01462 80902 10038 20027 39182 48430 53018 69931 76122 8372/ 333 31/// 41998 55300 20178 30178 69937 83715 88535
AAXX 12121 10961 11/08 71506 11081 21089 37001 47961 58002 69921 77142 875// 333 49080 55300 20416 41025 876// 91125 91216 96041
AAXX 12121 10962 12580 72606 10026 20007 38970 48419 53015 60001 876// 333 43003 55300 20262 30261 87426
AAXX 12121 10980 12589 82706 10009 21059 38072 48418 55000 60001 8707/ 333 48/// 55300 20405 30405 86333 87450 91116 91211 95152 444 16086
AAXX 12124 40310 32960 21208 10162 21016 38985 48526 57013 80001 333 82070
BBXX DBEB 12121 99539 10079 41/// /2412 10065 20064 49988 52009 7//// 22221 00070
BBXX DBFH 12121 99538 10072 46/// /2913 10084 20044 49998 52019 22222 00075
AAXX 12124 40270 31950 41404 10154 21046 39325 40237 54001 70500 80001 333 84070
BBXX DBBC 12121 99535 10086 46/// /2304 10067 2//// 40002 52008 22260 00458
BBXX DBKR 12121 99541 10121 46/// /1803 10047 20047 40006 57020 22200 00052
AAXX 12124 91348 11474 80605 10275 20236 30061 40113 50003 60011 70282 84101 333 10300 561/9 58010 70081 555 91212
BBXX DBBA 12121 99536 10086 46/// ///// 10066 20066 49999 52007 22210 00054
BBXX 41101 12124 99146 70562 46/// /1113 10273 20242 40122 52018 22200 00272 10804 70020
AAXX 12124 91356 32466 50508 10283 20238 30096 40103 51007 84201 333 10306 562/9 58005 84818 555 91212
BBXX DBBI/12121 99536 10086 46/// /2306 10066 20066 40000 52005 22210 00058
BBXX DBCK 12121 99/// ///// 46/// ///// 10067 20067 49992 52007 22220 00070
AAXX 12124 61901 11275 71317 10169 20150 39671 40180 60031 70282 878// 91150 333 58000 84805 85630 90710 91127
AAXX 12124 61902 32584 21414 10270 20186 40143 82800 58009 82822
AAXX 12124 88889 12688 32719 10149 20049 39997 40080 51011 69904 81131 91150 333 20083 30003 81830 91027 90710 91127
AAXX 12124 91203 32471 30810 10311 20265 30112 40117 52017 82210 333 5629/ 59010 82817 555 91212
BBXX D/ND 12121 99///////// 46/// ///// 10065 20065 49992 52007/ 22220/00079
AAXX 12124 87692 12560 62309 10162 20110 30093 40118 51008 60034 81170 333 10172 20126 56550 81820 86360 555 10117 60612 64210 65060 72525 74190 89460
AAXX 12124 03005 11479 72623 10051 20015 39721 49820 56009 60021 72581 86902 91150 333 55300 20147 81918 83822 90710 91132
AAXX 12124 03017 17565 /2421 10056 20030 39825 49856 51009 60021 723// 91150 333 55305 20511 85/29 90710 91132
AAXX 12124 03023 15664 /2517 10068 20012 39878 49883 58011 69981 91150 333 81/40 90710 91126
AAXX 12124 03026 17974 /2213 10041 20019 39848 49866 58005 60041 722// 91150 333 55303 20230 81/62
AAXX 12124 03063 17680 /2208 10022 20000 39630 49906 58002 69941 781// 91150 333 55308 20380 81/37 84/50
AAXX 12124 03066 12484 22111 10050 21005 39888 49894 58003 69901 81833 91150 333 55310 20417 81710
AAXX 12124 03075 15974 /2316 10042 20012 39824 49868 50002 60001 91150 333 84/60 90710 91127
AAXX 12124 03091 15981 /2307 10059 21008 39825 49904 50002 60001 91150 333 55310 20466 8//99
AAXX 12124 03100 15972 /2511 10061 20012 39891 49907 58016 60011 91150 333 55301 20278 81/67
AAXX 12124 03111 16676 /2217 10054 20027 39931 49943 58008 69941 91150 333 81/47 90710 91125
AAXX 12124 03134 15785 /2410 10045 20022 39865 49937 58006 60021 91150 333 55301 20221 87/50
AAXX 12124 03136 15572 /2417 10065 20029 39918 49950 50000 69941 91150 333 55302 20358 86/20 90710 91125
AAXX 12124 03162 11373 62210 10035 20021 39679 49965 50000 69901 70282 862// 91150 333 55300 20235 84708 86816
AAXX 12124 03166 15783 /2213 10045 20022 39868 49938 58003 69921 91150 333 55307 20354 81/50
AAXX 12124 03171 11583 12416 10050 20022 39916 49928 50000 69901 70281 81431 91150 333 55310 20496 81624
AAXX 12124 03204 12480 72516 10071 20023 39962 49981 57007 60001 82808 91150 333 55303 20451 82818 87272 92448
AAXX 12124 03240 15982 /2312 10053 20024 39930 49958 50006 60001 91150 333 55310 20585 8//99
AAXX 12124 03257 11581 22414 10069 20023 39946 49986 50003 60001 71511 82800 91150 333 55310 20599 81825
AAXX 12124 03292 169// /2207 10061 20028 39975 49993 50004 60001 91150 333 8//99
AAXX 12124 03302 11580 62318 10076 20041 39991 40003 58010 69921 70281 82801 91150 333 55307 20621 81820 86075 90710 91125
AAXX 12124 03354 15975 /2410 10059 20028 39884 40026 50007 60001 91150 333 55309 20665 8//99 91020
AAXX 12124 03377 12483 12312 10057 20025 39936 40020 50002 60001 81800 91150 333 55310 20700 81818
AAXX 12124 03414 11582 22209 10070 20025 39937 40024 58001 69901 70181 82861 91150 333 55306 20467 81825
AAXX 12124 03462 12582 12416 10065 20019 39943 40032 50003 60001 81801 91150 333 55310 20746 81822
AAXX 12124 03482 12484 12314 10061 20027 30013 40039 50008 60001 81131 91150 333 81816
AAXX 12124 03502 12572 72111 10068 20019 39868 40029 58012 60001 81446 91150 333 55307 20522 81822 87275
AAXX 12124 03535 15964 /2208 10072 20029 39920 40037 51006 69921 91150 333 55310 20809 8//99
AAXX 12124 03590 12984 12514 10056 20026 39945 40055 51013 60001 80002 91150 333 55310 20814 81075
AAXX 12124 03649 12682 32308 10068 20028 39959 40059 50005 69921 83804 91150 333 55309 2//// 82830
AAXX 12124 03716 17680 /2316 10080 20038 39996 40056 58002 69921 781// 91150 333 55304 20602 83/30 84/50 90710 91125
AAXX 12124 03740 16675 /2414 10067 20032 39889 40065 50004 69921 91150 333 55310 2//// 81/34
AAXX 12124 03746 12675 12413 10073 20024 39921 40074 50004 60001 81571 91150 333 81640
AAXX 12124 03772 15976 /2313 10077 20035 30040 40071 50010 60001 91150 333 55310 20804 8//99
AAXX 12124 03796 46/// /2710 10072 20035 39937 40080 51015 91150
AAXX 12124 03803 15567 /2123 10103 20061 30029 40066 58028 69921 91150 333 81/26 86/56 90710 91132
AAXX 12124 03808 11570 72314 10093 20045 39968 40073 58017 69941 70281 8283/ 91150 333 55303 20649 81822 87362
AAXX 12124 03809 12565 52418 10096 20049 39986 40078 58015 60001 82130 91150 333 82820 85363 90710 91130 91030
AAXX 12124 03827 15566 /2518 10094 20047 30019 40081 58013 60011 91150 333 81/29 90710 91128 91028
AAXX 12124 03840 15/80 /2211 10059 20035 39770 40076 58003 69941 91150
AAXX 12124 03853 11570 32309 10085 20030 40074 69921 70281 82871 91150 333 55310 20874 81825
AAXX 12124 03874 46/// /2724 10095 20042 30068 40079 50003 91150 333 90710 91129
AAXX 12124 03882 15967 /2508 10080 20033 30021 40084 51014 60001 91150 333 55310 20863 8//99
AAXX 12124 03894 NIL
AAXX 12124 03917 15979 /1809 10033 20012 39884 49961 58016 69901 91150 333 55300 20300 86/65
BBXX BATFR55 12124 99110 30480 44697 31213 10282 20232 40085 70200 8//18 22222 00285 20704 314// 41104 5////
BBXX BATEU02 12124 99532 70095 46/// /1625 10062 20034 49920 58066 22200 00100
BBXX 61001 12124 99434 10078 46/// /2424 10151 20103 40120 57016 22200 00155 10502 70009 555 1/033
BBXX BATFR59 12124 99220 31685 46/// /0411 10269 20242 40119 50006 22211 00269
BBXX BATEU01 12124 99467 70716 46/// /2520 10017 21055 40278 51035 22253 00039
BBXX BATFR19 12124 99007 30088 46/// /1915 10279 20227 40106 58014 22200 00274
BBXX BATEU04 12124 99625 70505 46/// /3408 11060 21086 49867 51013 22233
BBXX BATFR47 12124 99301 51451 46/// /1111 10202 20144 40195 56015 22262
BBXX BATFR41 12124 99437 10073 46/// ///// 10147 20084 40117 22231
BBXX BATFR01 12124 99363 10204 46/// /2217 10195 20125 40235 58007 22222 00190
BBXX 42039 12121 99288 70860 46/// /0708 10171 40235 52006 91150 22200 00232 10603 20603 70016 333 91210 555 11085 22089 31119 40610 61149 063080 064081 056083 057084 055082 051083 80609 91120
BBXX 41040 12121 99145 70530 46/// /0908 10276 20228 40138 53019 91150 22200 00278 11105 20603 3//// 41104 70024 333 91210 555 11084 22090 31145 40910 61149 095078 095076 091076 088081 087077 087078 80909 91145
BBXX BATFR56 12124 99054 30791 46/// /2707 10287 20237 40076 55007 22253 00299
BBXX BATEU07 12124 99340 31512 46/// /2022 10175 40071 22232
BBXX BATFR08 12124 99494 30702 46/// /1011 10069 20024 40127 56006 22200 00072
BBXX BATFR06 12124 99454 70013 46/// /2815 10137 20054 40205 50007 22212 00157
AAXX 12124 07005 01459 72214 10073 20049 30017 40107 51017 60021 78086 872// 333 60027 82815 86820 90710 91124 93100 555 69905
AAXX 12124 07015 01584 72417 10075 20037 30040 40097 53018 69901 72586 878// 333 69907 84828 83643 90710 91123 93100 555 69905
AAXX 12124 07020 01564 6//// 1//// 2//// 30086 4//// 50005 6///1 70287 86300 333 6///7 84930 83833 555 6///5
AAXX 12124 07027 02682 42114 10075 20046 30049 40131 51013 69901 84203 333 60007 84840 90710 91123 93100 555 60005
AAXX 12124 07037 01570 52313 10080 20048 39942 40126 51014 60011 70186 83801 333 69967 82820 83640 90710 91119 93100 555 60005
AAXX 12124 07070 04570 /2612 10086 20034 30015 40126 51027 60011 700// 333 60007 90710 91122 555 60005
AAXX 12124 07110 02570 62214 10093 20053 30013 40128 58010 69901 86800 333 69907 82820 86633 90710 91124 93100 555 69905
AAXX 12124 07117 01575 52213 10098 20044 30052 40122 58006 69901 70262 85300 333 60007 90710 91123 92438 555 60005
AAXX 12124 07130 04985 /2210 10100 20048 30102 40154 50001 60001 700// 333 60007 90710 91115 555 60005
AAXX 12124 07139 01580 12411 10078 20033 39979 40154 51016 69901 70186 81800 333 60007 81820 90710 91117 93100 555 60005
AAXX 12124 07149 02580 12513 10086 20040 30035 40145 51020 60001 81100 333 60007 81820 90710 91121 93100 555 60005
AAXX 12124 07168 02580 22516 10082 20038 30008 40152 51029 60001 82800 333 60007 81823 90710 91123 93100 555 60005
AAXX 12124 07181 01575 42711 10049 20029 39720 40135 51036 60031 72586 84801 333 69987 83820 84633 90710 91123 93100 555 69925
AAXX 12124 07190 04585 82811 10085 20045 39935 40118 53031 69961 700// 333 69947 90710 91121 555 69905
AAXX 12124 07207 02570 42519 10116 20048 60001 84901 222// 327// 333 60007 90710 91129 92448 555 60005
AAXX 12124 07222 01680 22008 10112 20061 30138 40170 50003 69921 70186 82201 333 69927 82836 90710 91111 555 60005
AAXX 12124 07240 04985 /2310 10090 20040 30038 40174 51016 60001 700// 333 60007 90710 91117 555 60005
AAXX 12124 07255 02581 22709 10087 20035 39982 40184 51023 60001 82100 333 60007 82823 90710 91118 93100 555 60005
AAXX 12124 07280 04586 /2709 10086 20044 39888 40162 51038 60011 700// 333 69927 90710 91117 555 69905
AAXX 12124 07299 01559 82513 10070 20048 39806 40136 53027 60031 76162 889// 333 60027 82820 87635 88645 90710 91125 93100 555 60015
AAXX 12124 07314 02466 52913 10120 20032 30167 40195 50010 60001 85800 333 60007 82816 83623 90710 91120 555 60005
AAXX 12124 07335 02982 12410 10098 20044 30046 40192 50012 60001 81030 333 60007 81361 90710 91115 555 60005
AAXX 12124 07434 02583 32606 10072 20029 39718 40203 51015 69901 83130 333 60007 83821 90710 91113 93100 555 60005
AAXX 12124 07460 01682 12713 10084 21001 39800 40193 51020 60011 70161 81100 333 60007 81840 90710 91120 93100 555 60005
AAXX 12124 07471 01570 62912 10059 20000 39211 48798 51020 69981 70186 86200 333 69927 86821 90710 91125 93100 555 60005
AAXX 12124 07481 01684 43010 10088 20024 39894 40184 51022 60051 70361 84800 333 69907 82833 83646 90710 91120 93100 555 60005
AAXX 12124 07510 01565 62704 10108 20073 30146 40212 50008 69961 72586 86800 333 69947 83830 85643 90710 91109 93100 555 69945
AAXX 12124 07535 01480 22603 10104 20050 39900 40214 51013 60021 70186 81131 333 60007 81816 90710 91113 93100 555 60005
AAXX 12124 07558 01470 43115 10051 20028 39359 40208 51018 60011 72586 84200 333 69947 84813 90710 91135 93100 555 69925
AAXX 12124 07577 01570 40000 10122 20077 30088 40177 51008 69921 70161 84100 333 60007 81830 83840 90710 91103 93100 555 60005
AAXX 12124 07591 06/// /1904 10057 20035 39132 4//// 57013 60071 333 60027 90710 91117 555 60005
AAXX 12124 07607 04769 /2408 10130 20068 30149 40220 50001 69941 700// 333 60007 90710 91114 555 60005
AAXX 12124 07621 01660 82809 10093 20062 39795 40232 50001 60031 76065 875// 333 60027 84640 87650 90710 91117 93100 555 69925
AAXX 12124 07627 01665 72807 10097 20032 39738 40229 50008 69941 70262 872// 333 69907 87633 90710 91115 93100 555 60005
AAXX 12124 07630 01575 63111 10117 20060 30041 40222 51008 69901 70186 86800 333 60007 85830 90710 91122 93100 555 60005
AAXX 12124 07643 02688 23021 10139 20015 30174 40184 51006 60001 8254/ 333 60007 82646 90710 91135 555 60005
AAXX 12124 07650 01682 13014 10143 20071 30132 40170 50001 69921 70186 81132 333 60007 81833 90710 91121 93100 555 60005
AAXX 12124 07661 01570 32724 10127 20058 39993 40153 58011 69961 70161 83200 333 60007 83826 90710 91135 555 60005
AAXX 12124 07690 01580 12318 10157 20080 30087 40120 58029 69921 70186 8180/ 333 60007 81826 90710 91124 93100 555 60005
AAXX 12124 07747 02675 33115 10142 20024 30146 40199 50010 60001 83140 333 60007 81836 83366 90710 91127 93100 555 60005
AAXX 12124 07761 01280 70601 10143 20120 30152 40163 58003 60261 70396 878// 333 69967 81705 84823 86656 90710 91104 93100 555 60005
AAXX 12124 07790 02582 72003 10164 20098 30124 40138 58009 60001 84842 333 60007 82830 84656 86076 90710 91108 93100 555 60005
BBXX BATFR42 12124 99502 70027 46/// /2420 10102 20054 40094 58020 22224 00134
BBXX BATFR62 12124 99497 70017 46/// /2626 10109 20040 40106 50011 22262 00139
BBXX BATFR54 12124 99441 70076 46/// /2331 10134 20075 4//// 22263 00147
BBXX BATFR60 12124 99483 70056 46/// /2227 10114 20059 40111 58009 22233 00124
AAXX 12121 11816 11357 80903 10047 20026 39971 40136 57024 60001 71022 886// 333 82708 84709 88710
AAXX 12121 11826 11458 81305 10050 20027 39934 40135 57025 60001 71022 886// 333 88713
AAXX 12121 11903 11145 80000 10014 20014 39780 40168 57020 60021 71076 885// 333 81702 88612
AAXX 12121 11934 11365 81302 10012 20005 39321 42758 56027 69911 76062 885// 333 81706 88626
AAXX 12121 11968 11459 89902 10025 20013 39886 40172 57024 60011 72176 886// 333 88714
AAXX 12121 10044 46/// /2109 10051 20041 39955 49987 58009 222// 00058 333 55300 91113 91211
AAXX 12121 10124 46/// /0000 10063 2//// 39953 49991 53009 222// 00061 333 553// 91113 91211
BBXX 46026 12121 99378 71228 46/// /0803 10090 40084 58013 91150 22200 00109 11505 20401 329// 41505 70023 333 91204 555 11031 22032 31129 42905 61149 068030 291030 290030 292031 290031 295024
BBXX 46041 12121 99474 71247 46/// /0803 10047 40235 51006 91150 22200 00077 11405 20401 3//// 41405 70025 333 91204 555 11026 22026 31104 40604 61149 075025 061020 055024 048025 049027 059016
BBXX 44007 12121 99435 70701 46/// /2308 10030 21044 40328 54000 91150 22200 00087 10502 20502 70008 333 91210 555 11087 22091 31147 42310 61149 234083 235080 234081 236081 236083 226086
BBXX 46072 12121 99517 71722 46/// /1909 10048 20012 40043 58024 91150 22200 00053 11109 20505 3//// 41107 70044 333 91211 555 11100 22107 31122 42012 61149 189094 197090 202097 203094 206089 205094 82010 91123
AAXX 12121 14528 11665 60000 10110 20097 39844 40137 57023 60011 76162 83510 333 83640 86460
AAXX 12121 14537 11666 70000 10089 20071 39953 40140 56029 60001 70242 87500 333 87640
AAXX 12121 14544 11660 81803 10119 20088 39498 40153 58016 69921 76062 885// 333 88643
AAXX 12121 14557 12660 71202 10150 20058 39800 40159 57021 60001 86532 333 86633
AAXX 12121 14640 11340 81602 10096 20094 39330 48498 56009 60111 76266 8532/ 333 85906 88458
BBXX 46082 12121 99597 71434 46/// ///// 10044 20044 49899 53018 91150 22200 00064 11518 70089
BBXX 46072 12121 99517 71722 46/// /1909 10048 20012 40043 58024 91150 22200 00053 11109 20505 3//// 41107 70044 333 91211 555 11100 22107 31122 42012 61149 189094 197090 202097 203094 206089 205094 82010 91123
BBXX 46077 12121 99579 71543 46/// /2713 10030 21003 49934 51056 91150 22200 00056 10706 20706 70028 333 91216 555 11141 22149 31112 42817 61149 266131 267136 267138 273139 278137 276134 82715 91139
BBXX 46035 12121 99571 71778 46/// /1809 1//// 49908 50005 91150 22200 11110 20604 300// 41109 70049 333 91211 555 11092 22098 31125 41812 61149 185092 193088 184098 191104 198099 194096 82111 91104
BBXX 51004 12121 99175 71524 46/// /0704 10243 20226 91150 555 11039 22042
BBXX 51002 12121 99171 71578 46/// /0605 10246 40149 58005 91150 22200 00252 333 91206 555 11047 22049 31131 40706 61149 063044 070047 064045 072043 081045 079044
BBXX 51100 12121 99236 71539 46/// /0912 10218 40200 58012 91150 22200 00233 11107 20905 311// 41105 70036 333 91214 555 11125 22132 31147 40814 61149 084117 071111 065111 065106 057098 061091
BBXX 45008 12121 99443 70824 46/// /2307 10021 30071 40291 53007 91150 22200 00064 10603 20603 3//// 40901 70013 333 91209 555 11068 22071 61149 229065 233067 239068 241074 243087 243092
AAXX 12121 76225 32720 60000 10062 20038 38604 40135 57006 86020 91147 333 10160 20050 30030 56050 59033 70000 86353
AAXX 12121 76305 32970 72202 10189 20121 30106 40114 5//// 8343/ 91135 333 10240 20159 30140 5645/ 59026 70000 86330
AAXX 12121 76323 32910 63201 10060 21014 38252 40188 57002 80007 91145 333 10220 20055 30035 56005 59001 70000 86268
AAXX 12121 76342 01420 80201 10068 20068 39520 40255 57008 69901 75054 886// 91148 333 10080 20062 30052 561// 59041 69907 70003 88710
AAXX 12121 76373 32950 00000 10024 21010 38205 40150 5//// 91150 333 10250 20011 31010 55086 21578 59001 70000
AAXX 12121 76382 32660 60000 10104 20086 38899 40152 52002 86020 91148 333 10206 20090 30075 56050 59034 70000 86554
AAXX 12121 76390 31950 31904 10139 20062 38224 40152 57004 70544 80004 91130 333 10100 20116 30110 56004 59024 70000 83070
AAXX 12121 76402 32950 60000 10168 20139 30078 40135 57002 86600 91145 333 10245 20090 30086 56600 59007 70000 86728
AAXX 12121 76423 32960 70000 10080 20021 38149 40139 57004 80008 91158 333 10272 20070 30040 56009 59006 70000 87267
AAXX 12121 76458 32960 00301 10160 20145 30143 40148 53003 91145 333 10263 20138 30130 58011 70000
AAXX 12121 76471 32980 40000 10080 20048 37692 40124 5//// 80001 91150 333 10232 20059 30028 55090 56005 59004 70000 84075
AAXX 12121 76525 32960 21005 10105 20032 37472 40122 57003 80006 91140 333 10168 20105 30090 55096 22653 56//5 59001 70000 82080
AAXX 12121 76543 31670 83201 10168 20147 30186 40219 54/// 7054/ 8357/ 91145 333 10248 20168 30/// 5618/ 59023 70000 83650 85358
AAXX 12121 76548 32960 02701 10168 20162 30202 40212 57008 91145 333 10195 20164 30160 59016 70001
AAXX 12121 76556 32960 00000 10132 20112 39117 40139 570005 91135 333 10290 20128 30114 58005 70000
AAXX 12121 76577 32960 00000 10100 20088 38047 40155 52001 91140 333 10240 20090 30080 59005 70000
AAXX 12121 76581 32960 63601 10130 20112 39070 40184 5//// 86060 91155 333 10235 20117 30110 56030 59020 70000 86359
AAXX 12121 76585 32980 60000 10167 20155 30045 40205 55007 86400 91145 333 10205 20166 30156 55000 562// 59027 70018 86437
AAXX 12121 76625 32560 40902 10098 20076 38148 40146 57004 82105 91140 333 10229 20095 30080 5620/ 59016 70000 82825
AAXX 12121 76632 31950 00403 10066 20037 37646 40162 52003 70500 91140 333 10200 20064 30/// 58004 70000
AAXX 12121 76654 31956 03602 10218 20192 30146 40150 57003 70544 91155 333 10297 20216 30190 58006 70000
AAXX 12121 76662 32660 23601 10100 20082 38476 40166 52005 82300 91150 333 10272 20080 30070 56/// 58003 70000 82833
AAXX 12121 76665 32958 01902 10090 20078 38128 40159 52003 91145 333 10255 20081 30070 58001 70000
AAXX 12121 76675 31960 01702 10008 21014 37386 40210 56004 70544 91150 333 10216 21005 31031 58003 70000
AAXX 12121 76680 31949 01801 10086 20042 37764 40126 52002 70444 91150 333 10230 20070 30066 59003 70000
AAXX 12121 76683 32662 20000 10038 20030 37844 40232 52006 82600 91155 333 10217 20034 30000 50241 55106 21877 56200 59002 70000 82725
AAXX 12121 76685 32950 00000 10050 20042 37884 40198 52002 91150 333 10218 20048 30006 58004 70000
AAXX 12121 76687 31358 62201 10096 20087 38703 40212 57007 70222 865// 91148 333 10193 20090 30082 563// 59005 70000 82718 84616
AAXX 12121 76692 01520 72902 10202 20193 30182 40201 50000 60041 70356 8442/ 91145 333 10260 20200 30198 5688/ 59002 60017 70035 84630 83456
AAXX 12121 76698 32560 20000 10214 20205 30158 40170 5//// 81201 91155 333 10246 20213 30190 56/0/ 59003 79999 81820
AAXX 12121 76737 01980 03201 10103 20096 38804 40204 55003 69911 70252 91132 333 10196 20103 30088 59003 69911 70016
AAXX 12121 76743 31340 80501 10185 20165 30181 40189 53004 70222 884// 91150 333 10265 20185 30160 562// 58003 70000 88808
AAXX 12121 76750 32558 72901 10194 20191 30162 40173 52006 83520 91150 333 10281 20190 30187 56880 58002 70000 83620 84557
AAXX 12121 76762 32904 00000 10122 20103 38763 40142 54000 91150 333 10292 20120 30100 59011 70000
AAXX 12121 76773 32958 00000 10060 20047 38442 40195 52002 91145 333 10268 20054 30038 50351 55100 58002 70000
AAXX 12121 76775 32960 00501 10084 20055 38548 40207 52001 91145 333 10272 20080 30/// 58005 70000
AAXX 12121 76805 32860 23301 10217 20213 30129 40132 50001 82040 91145 333 10318 20216 30204 56/6/ 58002 70000 82357
AAXX 12121 76840 32901 00408 10232 20161 30082 40139 52005 91135 333 10252 20180 30/// 58006 70000
AAXX 12121 76843 32965 03601 10169 20140 39524 40173 53003 91135 333 10252 20162 30154 58006 70000
AAXX 12121 76848 32960 00000 10089 20045 38392 40131 57001 91150 333 10223 20089 30039 59002 70000
AAXX 12121 76243 11368 83208 10078 20070 39930 40234 54000 69981 70252 887// 91130 333 10090 20070 30054 568// 59056 70038 88707
AAXX 12121 76311 32960 40000 10110 20099 39859 40139 57006 84003 91150 333 10282 20108 30094 56006 58000 70000 84270
AAXX 12121 76405 32840 60000 10204 20174 30116 40138 57002 86070 91150 333 10258 20202 30190 56040 59006 70000 86456
AAXX 12121 76412 32960 00000 10126 20101 30112 40158 57015 91150 333 10288 20105 30/// 59003 70000
AAXX 12121 76640 31010 43201 10178 20175 30210 40222 57008 71044 845// 91140 333 10230 20164 30162 567// 59005 70000 84601
AAXX 12121 76647 31/08 93601 10208 20208 30152 40183 5//// 74744 91150 333 10279 20200 30180 58006 70043
AAXX 12121 76741 31940 00301 10186 20173 30144 40163 52000 70544 91135 333 10242 20150 30149 59/// 70004
AAXX 12121 76855 32980 03401 10216 20193 30071 40121 5//// 91145 333 10325 20210 30206 55096 59001 70000 92000
AAXX 12124 78897 12570 52902 10247 20235 40133 53021 69921 83830 333 0235/ 10298 20217 58014 70010 81820 83366
AAXX 12124 91203 32471 30810 10311 20265 30112 40117 52017 82210 333 5629/ 59010 82817 555 91212
AAXX 12123 67295 32480 50000 10319 20192 39306 48527 85900 333 59025 94390
AAXX 12124 91348 11474 80605 10275 20236 30061 40113 50003 60011 70282 84101 333 10300 561/9 58010 70081 555 91212
AAXX 12124 78774 32670 82405 10228 20196 30007 40085 52009 8122/ 333 10328 20223 30/// 56220 58007 81835 87463
AAXX 12124 78906 11580 11403 10261 20222 30126 40131 60002 702// 81200 333 10304 20226 58011 70000 81824
AAXX 12121 11423 NIL
AAXX 12121 11487 01/01 91304 11003 21004 39482 40117 57016 60001 74944 333 60005 89/01 93505
AAXX 12121 11518 01258 81703 10015 20002 39664 40110 56014 60001 71022 886// 333 60005 88706
AAXX 12121 11603 01359 81306 10016 21003 39617 40106 57018 60001 71022 886// 333 60005 88708 91112
AAXX 12121 11659 01224 81406 10010 20008 39473 40122 57020 60001 71022 886// 333 60005 88704
AAXX 12121 11723 01235 81103 10032 20016 39831 40133 57022 69901 75152 887// 333 69905 86706 88715
AAXX 12121 11782 02460 82405 10046 20015 39819 40127 57020 60001 885// 333 60005 88615
BBXX CZ9742 12124 99506 70969 46/// /3409 11125 21139 40295 52026 7//// 8//// 22200 0//// 2////
BBXX VCBW 12124 99508 70589 46/// /3502 11141 21175 40249 58011 7//// 8//// 22200 00026 2////
BBXX CG2960 12124 99453 70800 46/// /2106 10031 20009 40288 53001 7//// 8//// 22200 0//// 2////
BBXX VOPP 12124 99456 70735 46/// /1708 10006 21062 4//// 5//// 7//// 8//// 22200 0//// 2////
BBXX CGSB 12124 99468 70712 46/// /2104 11015 21053 40291 51011 7//// 8//// 22200 0//// 2////
BBXX VCRG 12124 99474 70619 46/// /2006 10009 21020 40276 57020 7//// 8//// 22200 0//// 2////
BBXX VCLM 12124 99621 70747 46/// /2220 11101 21160 40126 53004 7//// 8//// 22200 0//// 2////
BBXX VAAZ 12124 99523 70508 46/// /2835 11070 21100 40119 52006 7//// 8//// 22271 0//// 2////
BBXX CG2350 12124 99433 70798 46/// /2207 10003 21036 40318 51004 7//// 8//// 22200 0//// 2////
AAXX 12121 76225 32720 60000 10062 20038 38604 40135 57006 86020 91147333 10160 20050 30030 56050 59033 70000 86353
AAXX 12121 76305 32970 72202 10189 20121 30106 40114 5//// 8343/ 91135333 10240 20159 30140 5645/ 59026 70000 86330
AAXX 12121 76323 32910 63201 10060 21014 38252 40188 57002 80007 91145333 10220 20055 30035 56005 59001 70000 86268
AAXX 12121 76342 01420 80201 10068 20068 39520 40255 57008 69901 75054886// 91148 333 10080 20062 30052 561// 59041 69907 7000388710
AAXX 12121 76373 32950 00000 10024 21010 38205 40150 5//// 91150 33310250 20011 31010 55086 21578 59001 70000
AAXX 12121 76382 32660 60000 10104 20086 38899 40152 52002 86020 91148333 10206 20090 30075 56050 59034 70000 86554
AAXX 12121 76390 31950 31904 10139 20062 38224 40152 57004 70544 8000491130 333 10100 20116 30110 56004 59024 70000 83070
AAXX 12121 76402 32950 60000 10168 20139 30078 40135 57002 86600 91145333 10245 20090 30086 56600 59007 70000 86728
AAXX 12121 76423 32960 70000 10080 20021 38149 40139 57004 80008 91158333 10272 20070 30040 56009 59006 70000 87267
AAXX 12121 76458 32960 00301 10160 20145 30143 40148 53003 91145 33310263 20138 30130 58011 70000
AAXX 12121 76471 32980 40000 10080 20048 37692 40124 5//// 80001 91150333 10232 20059 30028 55090 56005 59004 70000 84075
AAXX 12121 76525 32960 21005 10105 20032 37472 40122 57003 80006 91140333 10168 20105 30090 55096 22653 56//5 59001 70000 82080
AAXX 12121 76543 31670 83201 10168 20147 30186 40219 54/// 7054/ 8357/91145 333 10248 20168 30/// 5618/ 59023 70000 83650 85358
AAXX 12121 76548 32960 02701 10168 20162 30202 40212 57008 91145 33310195 20164 30160 59016 70001
AAXX 12121 76556 32960 00000 10132 20112 39117 40139 570005 91135 333 10290 20128 30114 58005 70000
AAXX 12121 76577 32960 00000 10100 20088 38047 40155 52001 91140 33310240 20090 30080 59005 70000
AAXX 12121 76581 32960 63601 10130 20112 39070 40184 5//// 86060 91155333 10235 20117 30110 56030 59020 70000 86359
AAXX 12121 76585 32980 60000 10167 20155 30045 40205 55007 86400 91145333 10205 20166 30156 55000 562// 59027 70018 86437
AAXX 12121 76625 32560 40902 10098 20076 38148 40146 57004 82105 91140333 10229 20095 30080 5620/ 59016 70000 82825
AAXX 12121 76632 31950 00403 10066 20037 37646 40162 52003 70500 91140333 10200 20064 30/// 58004 70000
AAXX 12121 76654 31956 03602 10218 20192 30146 40150 57003 70544 91155333 10297 20216 30190 58006 70000
AAXX 12121 76662 32660 23601 10100 20082 38476 40166 52005 82300 91150333 10272 20080 30070 56/// 58003 70000 82833
AAXX 12121 76665 32958 01902 10090 20078 38128 40159 52003 91145 33310255 20081 30070 58001 70000
AAXX 12121 76675 31960 01702 10008 21014 37386 40210 56004 70544 91150333 10216 21005 31031 58003 70000
AAXX 12121 76680 31949 01801 10086 20042 37764 40126 52002 70444 91150333 10230 20070 30066 59003 70000
AAXX 12121 76683 32662 20000 10038 20030 37844 40232 52006 82600 91155333 10217 20034 30000 50241 55106 21877 56200 59002 7000082725
AAXX 12121 76685 32950 00000 10050 20042 37884 40198 52002 91150 33310218 20048 30006 58004 70000
AAXX 12121 76687 31358 62201 10096 20087 38703 40212 57007 70222 865//91148 333 10193 20090 30082 563// 59005 70000 82718 84616
AAXX 12121 76692 01520 72902 10202 20193 30182 40201 50000 60041 703568442/ 91145 333 10260 20200 30198 5688/ 59002 60017 7003584630 83456
AAXX 12121 76698 32560 20000 10214 20205 30158 40170 5//// 81201 91155333 10246 20213 30190 56/0/ 59003 79999 81820
AAXX 12121 76737 01980 03201 10103 20096 38804 40204 55003 69911 7025291132 333 10196 20103 30088 59003 69911 70016
AAXX 12121 76743 31340 80501 10185 20165 30181 40189 53004 70222 884//91150 333 10265 20185 30160 562// 58003 70000 88808
AAXX 12121 76750 32558 72901 10194 20191 30162 40173 52006 83520 91150333 10281 20190 30187 56880 58002 70000 83620 84557
AAXX 12121 76762 32904 00000 10122 20103 38763 40142 54000 91150 33310292 20120 30100 59011 70000
AAXX 12121 76773 32958 00000 10060 20047 38442 40195 52002 91145 33310268 20054 30038 50351 55100 58002 70000
AAXX 12121 76775 32960 00501 10084 20055 38548 40207 52001 91145 33310272 20080 30/// 58005 70000
AAXX 12121 76805 32860 23301 10217 20213 30129 40132 50001 82040 91145333 10318 20216 30204 56/6/ 58002 70000 82357
AAXX 12121 76840 32901 00408 10232 20161 30082 40139 52005 91135 33310252 20180 30/// 58006 70000
AAXX 12121 76843 32965 03601 10169 20140 39524 40173 53003 91135 33310252 20162 30154 58006 70000
AAXX 12121 76848 32960 00000 10089 20045 38392 40131 57001 91150 33310223 20089 30039 59002 70000
AAXX 12121 76243 11368 83208 10078 20070 39930 40234 54000 69981 70252887// 91130 333 10090 20070 30054 568// 59056 70038 88707
AAXX 12121 76311 32960 40000 10110 20099 39859 40139 57006 84003 91150333 10282 20108 30094 56006 58000 70000 84270
AAXX 12121 76405 32840 60000 10204 20174 30116 40138 57002 86070 91150333 10258 20202 30190 56040 59006 70000 86456
AAXX 12121 76412 32960 00000 10126 20101 30112 40158 57015 91150 33310288 20105 30/// 59003 70000
AAXX 12121 76640 31010 43201 10178 20175 30210 40222 57008 71044 845//91140 333 10230 20164 30162 567// 59005 70000 84601
AAXX 12121 76647 31/08 93601 10208 20208 30152 40183 5//// 74744 91150333 10279 20200 30180 58006 70043
AAXX 12121 76741 31940 00301 10186 20173 30144 40163 52000 70544 91135333 10242 20150 30149 59/// 70004
AAXX 12121 76855 32980 03401 10216 20193 30071 40121 5//// 91145 33310325 20210 30206 55096 59001 70000 92000
AAXX 12124 78774 32670 82405 10228 20196 30007 40085 52009 8122/ 333 10328 20223 30/// 56220 58007 81835 87463
AAXX 12124 78906 11580 11403 10261 20222 30126 40131 60002 702// 81200 333 10304 20226 58011 70000 81824
AAXX 12124 78897 12570 52902 10247 20235 40133 53021 69921 83830 333 0235/ 10298 20217 58014 70010 81820 83366
AAXX 12124 48698 01468 73403 10250 20244 30076 40094 69921 72586 83878 333 10292 50180 55007 69927 81815 85466
AAXX 12124 48698 01468 73403 10250 20244 30076 40094 69921 72586 83878 333 10292 50180 55007 69927 81815 85466
AAXX 12124 81401 06/// /1403 10272 20234 30117 40123 60214 333 20223 60007 58007 555 60005
AAXX 12124 81408 06/// /0000 10285 20239 30107 40115 60024 333 20226 69927 58003 555 60005
AAXX 12121 01160 41789 8//// 10008 21052 70222 888// 333 91113
AAXX 12121 01359 11445 80000 11047 21061 38991 49908 57014 60041 77177 8802/ 333 91101
AAXX 12121 01062 11356 81104 11046 21057 39977 49990 57005 69901 71582 888// 333 91106
AAXX 12121 01205 46/// ///// 10059 20020 39801 49845 57027
AAXX 12124 48601 11340 80107 10246 20238 30093 40097 60021 79596 84937 333 10313 82708 81917 83623 87275
AAXX 12124 48615 11457 80608 10256 20226 30099 40105 60031 76162 8352/ 333 10264 81710 83364 88469
AAXX 12124 48620 11562 72902 10279 20242 30084 40093 60001 70522 83548 333 10308 83630 84365 87276
AAXX 12124 48647 11559 71602 10280 20249 30066 40091 60001 70522 81442 333 10304 81626 84364 86078
AAXX 12124 48657 11458 70603 10247 20239 30087 40105 6///1 76062 85742 333 10277 81710 84624 86078
AAXX 12124 48665 11564 70404 10249 20232 30089 40099 60001 70522 82542 333 10290 82628 84364 86077
AAXX 12124 96413 11556 72608 10236 20225 30078 40105 60011 76162 8452/ 333 10305 84620 87465
AAXX 12124 96421 12465 72802 10258 20240 30058 40094 60001 83531 333 10314 83618 83365 85080
AAXX 12124 96441 12468 72604 10266 20241 30064 40091 60001 8357/ 333 10302 83614 87365
AAXX 12124 96449 11460 72203 10256 20242 30069 40088 60021 76162 8457/ 333 10298 84614 87365
AAXX 12124 96465 11465 72204 10265 20248 30055 40088 69901 72162 82838 333 10305 81810 85363 87279
AAXX 12124 96471 11460 80303 10254 20234 30088 40091 60061 76162 85848 333 10314 82813 83635 88276
AAXX 12124 96481 12462 63602 10264 20240 30060 40079 60001 82841 333 10322 81817 85080
AAXX 12124 96491 11463 72502 10257 20248 30075 40087 60291 71396 82948 333 10328 82815 81916 83364 87277
AAXX 12124 78958 01466 10267 20252 30117 40127 69901 71582 86802 333 10304 20247 58006 86817
AAXX 12124 78958 01466 10267 20252 30117 40127 69901 71582 86802 333 10304 20247 58006 86817
AAXX 12124 81401 06/// /1403 10272 20234 30117 40123 60214 333 20223 60007 58007 555 60005
AAXX 12124 81408 06/// /0000 10285 20239 30107 40115 60024 333 20226 69927 58003 555 60005
AAXX 12124 78862 11476 39902 10258 20238 30107 40130 60001 71511 81862 333 10284 20222 58011 81818
AAXX 12124 3816
AAXX 12124 7635 85458
AAXX 12124 TAF TQPF 081000Z 0812/0912 04010KT 9999 SCT022 PROB30 TEMPO 0812/0912 SHRA BKN015
AAXX 12124 TAF TUPJ 081000Z 0812/0912 06010KT 9999 SCT022 PROB30 TEMPO 0812/0912 SHRA BKN015
AAXX 12124 N036
AAXX 12124 TAF TUPJ 071600Z 0718/0818 06008KT 9999 SCT020 BKN280 PROB30 TEMPO 0718/0818 06010G20KT SHRA BKN015 BKN036
AAXX 12124 TEMPO 0600/0624 SHRA BKN015=+TSRA SCT012CB
AAXX 12124 TAF TUPJ 041000Z 04012/0512 07008KT 9999 SCT016 BKN038 SCT270 TEMPO 0412/0512 SHRA BKN015 PROB40 TEMPO 0418/0512 5000 SHRA BKN014 BKN036 PROB30 0420/0512 4000 TSRA FEW012CB
AAXX 12124 918 4000 TSRA FEW012CB
AAXX 12124 N015 BKN036 PROB40 TEMPO 0704/0724 3000 +TSRA SCT011CB BKN012 BECMG 0712/0714 14008KT
AAXX 12124 21/2712 07017G28KT 5000 SHRA BKN015 BKN036 PROB TEMPO 2700/2712 4000 TSRA FEW013CB
AAXX 12124 PROB30 TEMPO 0800/0806 4000 TSRA FEW012CB PROB40 TEMPO 0800/0824 2000 +SHRA/TSRA SCT010CB BKN012 BKN250
BBXX CGDX 12124 99468 70712 46/// /1906 11007 21047 40290 51010 7//// 8//// 22200 0//// 2////
BBXX CGBN 12124 99447 70636 46/// /2205 10038 21010 40320 56012 7//// 8//// 22200 0//// 2////
BBXX CGJK 12124 99484 71234 46/// /3504 10023 21012 40253 50000 7//// 8//// 22200 0//// 2////
BBXX C6SI6 12124 99378 11451 46/// /2920 10101 20038 40172 53016 7//// 8//// 22253 0//// 2////
BBXX CGTF 12124 99476 70527 46/// /1512 11044 21112 40295 53023 7//// 8//// 22200 0//// 2////
BBXX CGBY 12124 99487 71235 46/// /3305 10018 21014 40257 50000 7//// 8//// 22200 0//// 2////
BBXX 3FZK3 12124 99512 11708 46/// /2914 11009 21035 49864 56007 7//// 8//// 22223 0//// 2////
BBXX VAAP 12124 99489 70588 46/// /2424 11014 21022 40240 56035 7//// 8//// 22262 0//// 2////
BBXX CG2965 12124 99487 71235 46/// /3406 10027 21007 40258 50000 7//// 8//// 22200 0//// 2////
BBXX CGDT 12124 99490 70669 46/// /2313 11006 21041 40239 51005 7//// 8//// 22200 0//// 2////
BBXX CG2958 12124 99491 71233 46/// /3114 10044 20023 40262 56003 7//// 8//// 22200 0//// 2////
BBXX CGJV 12124 99454 70611 46/// /2117 11011 21053 40331 56013 7//// 8//// 22231 00066 2////
BBXX CGDR 12124 99505 71276 46/// /3602 10009 20009 40265 57002 7//// 8//// 22200 0//// 2////
BBXX VRYO3 12124 99479 70308 46/// /2720 10071 20081 40044 53013 7//// 8//// 22224 00121 2////
BBXX VOKJ 12124 99472 70527 46/// /2514 11044 21106 40296 51029 7//// 8//// 22242 0//// 2////
BBXX CGCC 12124 99460 70731 46/// /2308 11011 21059 40297 51013 7//// 8//// 22200 0//// 2////
BBXX CGBR 12124 99541 71305 46/// /1322 10050 20048 40208 58029 7//// 8//// 22200 0//// 2////
BBXX VOFG 12124 99456 70614 46/// /2113 11024 21087 40326 58017 7//// 8//// 22200 0//// 2////
BBXX VCSZ 12124 99467 70718 46/// /2315 11018 21025 40286 53047 7//// 8//// 22253 0//// 2////
BBXX CGDG 12124 99447 70636 46/// /2210 10031 20016 40332 56013 7//// 8//// 22272 00065 2////
BBXX VCWL 12124 99468 70712 46/// /2702 11012 21051 40290 51013 7//// 8//// 22200 0//// 2////
AAXX 12124 17600 12580 72807 10174 20083 30238 40248 58018 60001 81882 333 81820 87075 92428
AAXX 12124 17601 12684 72206 10168 20074 30213 40244 57020 60001 81102 91150 333 81830 87075
AAXX 12124 17607 42580 73302 10159 20077 30055 40247 56017 81806 333 81825 87275
AAXX 12124 17609 12580 70506 10170 20071 30244 40248 58016 60001 81802 333 81830 87075
BBXX 41010 12121 99289 70785 46/// /0812 10227 40221 53014 91150 22200 00242 11007 20705 300// 41005 70037 333 91215 555 11130 22138
BBXX 42057 12121 99168 70815 46/// /0606 10276 20221 40130 53008 91150 22200 00277 10803 20502 3//// 40802 70015 333 91207 555 11061 22064 31101 40509 61149 058062 058068 056069 054070 051071 045068 80508 91100
BBXX 41009 12121 99285 70802 46/// /1106 10211 20198 40226 53024 91150 22200 00255 11009 20503 300// 41008 70043 333 91211 555 11064 22066
AAXX 12124 91503 31470 30000 10250 20243 40082 51011 70500 81202 333 10322 56900 59006 81815 83080
AAXX 12124 91517 11475 31806 10250 20236 40093 52009 69931 70500 82938 333 10315 56999 59004 81816 81917
AAXX 12124 64500 32460 52410 10290 20240 30086 40099 84800 333 0//00 58005 84611 83633 94948 95838
AAXX 12124 91503 31470 30000 10250 20243 40082 51011 70500 81202 333 10322 56900 59006 81815 83080
AAXX 12124 91517 11475 31806 10250 20236 40093 52009 69931 70500 82938 333 10315 56999 59004 81816 81917
BBXX 51101 12121 99243 71621 46/// /0710 10236 20191 40199 58013 91150 22200 00244 10906 20804 309// 40904 70028 333 91212 555 11103 22110 31130 40612 61149 066097 068098 063097 069097 067102 067102
BBXX 46061 12121 99602 71468 46/// /0807 10039 49782 53047 91150 22200 00045 11307 20603 300// 41306 70034 333 91209 555 11077 22081 31101 41409 61149 082071 095062 113058 128061 132070 140074
BBXX CGBR 12124 99541 71305 46/// /1322 10050 20048 40208 58029 7//// 8//// 22200 0//// 2////
BBXX CGDX 12124 99468 70712 46/// /1906 11007 21047 40290 51010 7//// 8//// 22200 0//// 2////
BBXX CGBN 12124 99447 70636 46/// /2205 10038 21010 40320 56012 7//// 8//// 22200 0//// 2////
BBXX 3FZK3 12124 99512 11708 46/// /2914 11009 21035 49864 56007 7//// 8//// 22223 0//// 2////
BBXX CGDG 12124 99447 70636 46/// /2210 10031 20016 40332 56013 7//// 8//// 22272 00065 2////
BBXX CGTF 12124 99476 70527 46/// /1512 11044 21112 40295 53023 7//// 8//// 22200 0//// 2////
BBXX CG2965 12124 99487 71235 46/// /3406 10027 21007 40258 50000 7//// 8//// 22200 0//// 2////
BBXX CGBY 12124 99487 71235 46/// /3305 10018 21014 40257 50000 7//// 8//// 22200 0//// 2////
BBXX CGCC 12124 99460 70731 46/// /2308 11011 21059 40297 51013 7//// 8//// 22200 0//// 2////
BBXX VRYO3 12124 99479 70308 46/// /2720 10071 20081 40044 53013 7//// 8//// 22224 00121 2////
BBXX VCWL 12124 99468 70712 46/// /2702 11012 21051 40290 51013 7//// 8//// 22200 0//// 2////
BBXX CGDR 12124 99505 71276 46/// /3602 10009 20009 40265 57002 7//// 8//// 22200 0//// 2////
BBXX VOKJ 12124 99472 70527 46/// /2514 11044 21106 40296 51029 7//// 8//// 22242 0//// 2////
BBXX CGJV 12124 99454 70611 46/// /2117 11011 21053 40331 56013 7//// 8//// 22231 00066 2////
BBXX VCSZ 12124 99467 70718 46/// /2315 11018 21025 40286 53047 7//// 8//// 22253 0//// 2////
BBXX VAAP 12124 99489 70588 46/// /2424 11014 21022 40240 56035 7//// 8//// 22262 0//// 2////
BBXX CGJK 12124 99484 71234 46/// /3504 10023 21012 40253 50000 7//// 8//// 22200 0//// 2////
BBXX C6SI6 12124 99378 11451 46/// /2920 10101 20038 40172 53016 7//// 8//// 22253 0//// 2////
BBXX VOFG 12124 99456 70614 46/// /2113 11024 21087 40326 58017 7//// 8//// 22200 0//// 2////
BBXX CG2958 12124 99491 71233 46/// /3114 10044 20023 40262 56003 7//// 8//// 22200 0//// 2////
BBXX CGDT 12124 99490 70669 46/// /2313 11006 21041 40239 51005 7//// 8//// 22200 0//// 2////
AAXX 12124 60107 32565 13608 10159 20100 40279 50006 81200 333 81820 95300
AAXX 12124 60141 32558 30000 10159 20079 39612 40275 50003 83800 333 81820 83830
AAXX 12124 60185 32970 00811 10183 20109 40279 50006
AAXX 12124 60190 32975 00406 10164 20066 40262 51012
AAXX 12124 60191 32970 00000 10158 20082 40272 51006
AAXX 12124 60195 32965 10000 10122 20002 38587 48600 50010 81030 333 81360 95500
AAXX 12124 60210 32870 32606 10178 21025 39075 48602 50002 82032 333 82358 82070
AAXX 12124 60220 32558 23612 10173 20124 40272 50005 82500 333 82626
AAXX 12124 60265 32970 10000 10146 21032 38979 48602 50006 81042 333 81360
AAXX 12124 60060 NIL
AAXX 12124 60105 NIL
AAXX 12124 60106 NIL
AAXX 12124 60127 NIL
AAXX 12124 60318 NIL
BBXX 44172 12121 99445 70634 46/// ///// 1//// 91201 22200 00070 10503 20503 70013
AAXX 12124 60150 32558 30602 10156 20086 39621 40274 50000 82230 333 82820
AAXX 12124 60155 32458 304// 10185 20121 40270 53014 83800 333 82816
AAXX 12124 60096 NIL
AAXX 12124 60101 NIL
AAXX 12124 60115 NIL
AAXX 12124 60135 NIL
AAXX 12124 60156 NIL
AAXX 12124 60230 NIL
AAXX 12124 60252 NIL
AAXX 12121 89061 379// 03402 10021 21016 39696 49702 57044 72011 333 10022 21010 91005 91105
BBXX VEP717 12124 99467 70487 41698 82841 11017 2111/ 40276 52020 70322 885// 22200 06032 20509 333// 40704 81045
AAXX 12121 89061 379// 03402 10021 21016 39696 49702 57044 72011 333 10022 21010 91005 91105
BBXX 44099 12121 99369 70757 46/// ///// 1//// 91152 22200 00129 10402 20402 70011
BBXX 44039 12121 99411 70727 46/// /2503 10047 21028 40372 91145 22200 00107 10301 70003 333 91205
BBXX 44100 12121 99363 70756 46/// ///// 1//// 91152 22200 00138 10503 20503 70015
BBXX 41110 12121 99341 70777 46/// ///// 1//// 91151 22200 00144 10603 20603 70014
BBXX 42099 12121 99273 70842 46/// ///// 1//// 91157 22200 00237 10603 20603 70016
AAXX 12124 85032 32565 60204 10260 20244 39940 40100 52040 82530 333 20210 30/// 55026 56110 59010 82620 86358
AAXX 12124 85104 32865 63205 10260 20241 39921 40082 52013 86030 333 20245 30/// 55070 56070 59004 86358
AAXX 12124 85109 32565 63204 10266 20244 39936 40096 52021 81234 333 20229 30/// 56776 58006 81820 83358 86070
AAXX 12124 85114 32565 73406 10266 20250 39931 40095 52016 82530 333 20244 30/// 55102 56770 58000 82620 87358
AAXX 12124 85116 32865 63508 10280 20254 39916 40094 52019 86030 333 20238 30/// 55065 56070 59005 86358
AAXX 12124 85123 12565 73205 10261 20246 39920 40085 52023 69964 82231 333 20247 30/// 55084 56788 58000 70006 82820 85358 85070
AAXX 12124 85139 32465 73505 10267 20244 39845 40035 52013 82938 333 20248 30/// 55085 56776 59015 81612 81923 84357 87270
AAXX 12124 85153 32465 73204 10264 20248 39915 40100 52030 84504 333 20248 30/// 56706 58013 84716 87070
AAXX 12124 85043 32865 63606 10268 20232 39932 40093 52027 86030 333 20230 30/// 55055 56080 59015 86358
AAXX 12124 85154 32570 63006 10262 20243 39915 40091 52027 82244 333 20233 30022 55113 56776 58003 82827 84358 85070
BBXX 46232 12121 99325 71174 46/// ///// 1//// 91138 22200 00145 11403 20901 326// 41403 70014
BBXX 46249 12121 99338 71197 46/// ///// 1//// 91145 22200 00145 11502 20901 322// 41502 70009
BBXX 46247 12121 99378 71228 46/// ///// 1//// 91151 22200 00113 11405 20803 328// 41403 70024
BBXX 46243 12121 99462 71241 46/// ///// 1//// 91159 22200 00079 11304 20803 327// 41302 70018
BBXX 46240 12121 99366 71219 46/// ///// 1//// 91142 22200 00122 11201 21001 336// 41201 70006
BBXX 46236 12121 99368 71219 46/// ///// 1//// 91150 22200 00125 11403 21001 328// 41403 70014
BBXX 46229 12121 99438 71246 46/// ///// 1//// 91151 22200 00106 10806 20805 329// 41403 70029
BBXX 46225 12121 99329 71174 46/// ///// 1//// 91144 22200 00157 11402 20201 324// 41401 70009
BBXX 46215 12121 99352 71209 46/// ///// 1//// 91138 22200 00139 11503 21001 326// 41503 70014
BBXX 46219 12121 99332 71199 46/// ///// 1//// 91158 22200 00136 11503 21001 329// 41503 70017
BBXX 46224 12121 99332 71175 46/// ///// 1//// 91136 22200 00149 11502 20901 323// 41502 70009
BBXX 46214 12121 99379 71235 46/// ///// 1//// 91157 22200 00111 11106 21005 331// 41104 70032
BBXX VOLG 12124 99/// ///// 46/// /2712 11038 21105 40292 51018 7//// 8//// 22200 0//// 2////
BBXX VXKF 12124 99476 70591 46/// /2618 10001 21051 40281 56019 7//// 8//// 22211 0//// 2////
BBXX 51201 12121 99217 71581 46/// ///// 1//// 91142 22200 00242 10804 20804 305// 41102 70022
BBXX 51202 12121 99214 71577 46/// ///// 1//// 91139 22200 00245 11106 21005 308// 41103 70030
BBXX 51205 12121 99210 71564 46/// ///// 1//// 91148 22200 00242 11106 20905 309// 41103 70030
BBXX 46238 12121 99334 71195 46/// ///// 1//// 91150 22200 00151 11503 21001 328// 41503 70014
BBXX 46239 12121 99363 71221 46/// ///// 1//// 91151 22200 00127 11504 21001 328// 41504 70019
BBXX VXKF 12124 99476 70591 46/// /2618 10001 21051 40281 56019 7//// 8//// 22211 0//// 2////
BBXX VOLG 12124 99/// ///// 46/// /2712 11038 21105 40292 51018 7//// 8//// 22200 0//// 2////
AAXX 12121 06407 12575 32510 10080 20037 30074 40080 51014 60001 83800 333 82823 91113 91210
AAXX 12121 06447 NIL
AAXX 12124 61970 16/// ///// 10320 20249 40090 60001 333 59001 555 60005
AAXX 12124 61972 16/// /0104 10297 20250 40089 60001 333 59009 90710 91110 555 60005
AAXX 12124 61980 14582 /0716 10296 20223 40099 69901 700// 333 59008 90710 91122 555 60005
AAXX 12124 67005 11456 52104 10296 20226 40089 60001 71511 84361 333 59001 81918 83820 90710 91108 555 60005
AAXX 12124 60285 32460 53604 10187 20145 40247 51008 82530 333 82616 84360
AAXX 12124 60340 NIL
AAXX 12124 68399 16/// /1408 10339 20198 39946 40050 57006 69921 333 10369 20178 91062 555 20002 91005
AAXX 12124 68383 16/// /0000 10346 20172 39820 48534 57012 69921 333 10352 20199 91000 555 20002 91006
AAXX 12124 68299 36/// /0405 10276 20092 38877 48483 57012 333 10276 20144 91010 555 91012
AAXX 12121 45007 12960 60503 10168 20025 30193 40202 53016 60002 80001 333 10186 59021 86080
AAXX 12124 85041 32470 70000 10253 20229 39821 40086 52021 82931 333 20230 30/// 55070 56000 58000 81817 81920 84358 87070
AAXX 12124 85140 11458 63205 10244 20233 39885 40092 53025 60014 71582 85550 333 20235 31/// 55092 56770 58015 70010 82610 84616 86357
AAXX 12124 85141 32284 73605 10252 20238 39860 40088 52015 86504 333 20237 31/// 55070 56706 58007 83706 86617 87070
AAXX 12124 85151 NIL
AAXX 12124 85152 32584 63305 10260 20245 39855 40084 52025 81930 333 20247 30/// 55097 56770 58007 81920 85358
AAXX 12124 85201 11470 71106 10075 20038 36296 53009 60034 70292 83933 333 20044 30002 55035 56000 58003 70030 82615 81917 87070
AAXX 12124 85230 NIL
AAXX 12124 85242 12584 60304 10098 20064 36558 52002 60044 84208 333 20072 30/// 56206 58004 70036 84820 86270
AAXX 12121 45007 12960 60503 10168 20025 30193 40202 53016 60002 80001 333 10186 59021 86080
AAXX 12121 01238 41440 83501 11056 21067 38759 49877 57024 77072 8572/ 333 91103
AAXX 12124 48310 32560 50000 10197 20169 39688 40151 52011 84505 333 10260 59013
AAXX 12124 48325 32960 20000 10228 20210 39872 40117 52015 80001 333 10308 59013
AAXX 12124 48329 31556 10000 10236 20171 39789 40129 52005 71000 81100 333 10273 59012
AAXX 12124 48352 31956 00000 10204 20132 39949 40154 52008 70500 333 10255 59014
AAXX 12124 48357 31957 10704 10185 20111 39993 40167 52015 70500 80001 333 10247 59015
AAXX 12124 48380 32960 00000 10225 20184 30046 40142 52012 333 10274 59007
AAXX 12124 48383 31957 00610 10185 20111 30004 40168 52030 70500 333 10253 59004
AAXX 12124 48403 31958 00303 10220 20123 39926 40140 52013 70500 333 10262 59014
AAXX 12124 48405 32960 20703 10207 20134 39975 40142 52011 80005 333 10247 59013
AAXX 12124 48420 31957 30000 10226 20183 30121 40125 52014 71011 80005 333 10275 59003
AAXX 12124 48421 31957 20000 10227 20170 30010 40126 52017 71000 80005 333 10298 59004
AAXX 12124 48425 31956 20000 10227 20166 30126 40136 52011 71000 80005 333 10264 59001
AAXX 12124 48426 31959 20000 10237 20132 30120 40133 52013 70511 80001 333 10279 58000
AAXX 12124 48429 32960 33307 10249 20124 30120 40128 52013 81035 333 10271 59004
AAXX 12124 48430 31959 20606 10238 20135 30122 40129 52016 70500 80002 333 10295 58002
AAXX 12124 48450 31957 00000 10230 20145 30093 40126 52007 70500 333 10275 59005
AAXX 12124 48459 32960 20000 10249 20164 30120 40123 52014 80005 333 10291 59005
AAXX 12124 48465 31958 23206 10230 20155 30121 40126 52015 71000 80005 333 10283 59002
AAXX 12124 48550 31558 50304 10256 20201 30102 40109 52013 71011 81146 333 10286 58004
AAXX 12124 48552 31458 80304 10260 20215 30098 40104 52016 71022 86877 333 10275 59007 70004
AAXX 12124 48566 32560 50403 10276 20223 30096 40104 52020 82145 333 10305 59009
AAXX 12124 48568 01458 81004 10237 20231 30102 40109 52018 60212 76166 8482/ 333 10256 58002 60077 70251
AAXX 12124 48300 32560 21004 10232 20188 39802 40115 51008 82500 333 10280 59007
AAXX 12124 48327 32960 03402 10228 20178 39780 40139 52009 333 10275 59012
AAXX 12124 48331 32962 00000 10215 20166 39907 40141 52011 333 10275 59021
AAXX 12124 48353 31950 00302 10207 20140 39853 40147 52013 71000 333 10254 59014
AAXX 12124 48356 31956 00000 10195 20117 39958 40160 52014 70500 333 10250 59011
AAXX 12124 48375 32960 00000 10225 20153 39889 40117 52014 333 10285 59010
AAXX 12124 48378 31956 20000 10220 20173 30084 40138 51008 71000 80005 333 10273 59004
AAXX 12124 48381 32960 23604 10212 20119 39927 40147 52012 80005 333 10257 59008
AAXX 12124 48407 31959 30203 10218 20129 39993 40137 52015 70511 80001 333 10275 59008
AAXX 12124 48431 32960 20703 10218 20135 39928 40145 52014 80005 333 10250 59003
AAXX 12124 48456 NIL
AAXX 12124 48480 31958 23102 10239 20162 30112 40116 52015 70500 80001 333 10283 59008
AAXX 12124 48500 31940 33505 10246 20157 30108 40115 52014 70511 80005 333 10285 59012
AAXX 12124 48551 31550 63503 10255 20209 30103 40111 52017 71022 83867 333 10280 58000
AAXX 12124 48565 32560 60605 10280 20213 30074 40084 52016 81146 333 10315 59004
AAXX 12124 48569 01459 80000 10234 20219 30071 40112 52016 60072 76166 85876 333 10257 59002 60047 70148
AAXX 12124 48583 01458 80000 10257 20238 30098 40104 52015 60022 72122 8582/ 333 10285 59005 69925 70437
AAXX 12124 48302 31/00 91102 10122 20118 38483 40140 52008 74544 333 10135 59004
AAXX 12124 48304 32965 00000 10180 20163 39685 40156 52009 333 10221 59010
AAXX 12124 48334 31558 40000 10210 20169 39767 40134 52007 71011 82155 333 10265 59007
AAXX 12124 48360 31959 00000 10192 20149 39882 40148 52012 71000 333 10246 59005
AAXX 12124 48372 31958 20000 10231 20188 30076 40134 52005 71000 80001 333 10274 59012
AAXX 12124 48373 31958 20000 10220 20176 30072 40136 52010 71000 80001 333 10270 59008
AAXX 12124 48386 NIL
AAXX 12124 48387 31956 00000 10150 20132 39163 40141 57000 71000 333 10205 59011
AAXX 12124 48408 32960 30406 10215 20137 39982 40134 52012 80005 333 10276 59012
AAXX 12124 48415 31957 60604 10230 20145 30119 40130 52012 70521 80006 333 10280 59005
AAXX 12124 48433 31958 00000 10208 20152 39974 40143 52014 71000 333 10263 59003
AAXX 12124 48437 31958 00501 10185 20154 39930 40146 52012 71000 333 10253 59002
AAXX 12124 48440 31957 00000 10221 20161 30078 40129 52017 71000 333 10284 59003
AAXX 12124 48451 32960 50000 10214 20177 30128 40139 52012 80005 333 10256 59002
AAXX 12124 48454 32960 60605 10245 20134 30124 40131 51018 80006 333 10283 59002
AAXX 12124 48457 31956 63604 10252 20162 30110 40127 52014 70522 80006 333 10257 58002
AAXX 12124 48463 31940 60212 10241 20157 30045 40139 53017 70522 80006 333 10282 59004
AAXX 12124 48464 31958 23203 10210 20178 30107 40120 52012 71000 80001 333 10260 59002
AAXX 12124 48479 31958 20205 10240 20148 30064 40116 52012 70500 80005 333 10285 59007
AAXX 12124 48520 31959 50000 10234 20197 30094 40110 52007 71011 80005 333 10272 59008
AAXX 12124 48554 31458 70506 10260 20231 30102 40106 52017 71022 84876 333 10275 59003
AAXX 12124 48563 32560 60310 10264 20211 30059 40095 52018 81256 333 10312 59007
AAXX 12124 48571 01458 82904 10235 20221 30091 40102 52013 60162 76022 83886 333 10259 59005 60067 70224
AAXX 12124 78388 111572 71108 10249 20218 30122 40131 60081 70562 83802 333 01209 10306 20234 58008 70083 82822 87070 90960
AAXX 12124 48601 11340 80107 10246 20238 30093 40097 60021 79596 84937 333 10313 82708 81917 83623 87275
AAXX 12124 48615 11457 80608 10256 20226 30099 40105 60031 76162 8352/ 333 10264 81710 83364 88469
AAXX 12124 48620 11562 72902 10279 20242 30084 40093 60001 70522 83548 333 10308 83630 84365 87276
AAXX 12124 48647 11559 71602 10280 20249 30066 40091 60001 70522 81442 333 10304 81626 84364 86078
AAXX 12124 48650 11560 70803 10265 20237 30071 40090 69901 70562 82542 333 10290 82630 85364 85077
AAXX 12124 48657 11458 70603 10247 20239 30087 40105 6///1 76062 85742 333 10277 81710 84624 86078
AAXX 12124 48665 11564 70404 10249 20232 30089 40099 60001 70522 82542 333 10290 82628 84364 86077
AAXX 12124 96413 11556 72608 10236 20225 30078 40105 60011 76162 8452/ 333 10305 84620 87465
AAXX 12124 96421 12465 72802 10258 20240 30058 40094 60001 83531 333 10314 83618 83365 85080
AAXX 12124 96441 12468 72604 10266 20241 30064 40091 60001 8357/ 333 10302 83614 87365
AAXX 12124 96449 11460 72203 10256 20242 30069 40088 60021 76162 8457/ 333 10298 84614 87365
AAXX 12124 96465 11465 72204 10265 20248 30055 40088 69901 72162 82838 333 10305 81810 85363 87279
AAXX 12124 96471 11460 80303 10254 20234 30088 40091 60061 76162 85848 333 10314 82813 83635 88276
AAXX 12124 96481 12462 63602 10264 20240 30060 40079 60001 82841 333 10322 81817 85080
AAXX 12124 96491 11463 72502 10257 20248 30075 40087 60291 71396 82948 333 10328 82815 81916 83364 87277
AAXX 12124 48307 31957 00000 10190 20165 39762 40149 51012 71000 333 10275 59024
AAXX 12124 48324 32960 21101 10220 20171 39915 40138 52012 80005 333 10283 59010
AAXX 12124 48333 31958 00000 10197 20160 39840 40148 52013 71000 333 10265 59018
AAXX 12124 48350 NIL
AAXX 12124 48355 31940 00000 10190 20138 39931 40156 52013 71000 333 10250 59018
AAXX 12124 48358 32960 10903 10170 20115 39988 40170 52014 80001 333 10242 59026
AAXX 12124 48384 NIL
AAXX 12124 48401 31957 20502 10220 20175 30036 40145 52015 71000 80005 333 10273 58002
AAXX 12124 48404 32960 20000 10194 20144 39961 40143 53014 80005 333 10253 59009
AAXX 12124 48409 NIL
AAXX 12124 48419 31959 50104 10245 20154 30120 40128 51010 70511 80005 333 10274 59004
AAXX 12124 48427 31957 23103 10203 20160 30123 40131 52006 71000 80001 333 10258 59005
AAXX 12124 48435 31958 21011 10200 20119 39695 40141 52011 70500 80001 333 10240 59002
AAXX 12124 48453 32960 30203 10246 20153 30122 40125 52017 80005 333 10286 59004
AAXX 12124 48458 32960 80000 10228 20155 30061 40143 52017 80006 333 10282 59007
AAXX 12124 48474 31956 20000 10222 20144 30004 40130 52019 70500 80005 333 10281 59001
AAXX 12124 48481 32960 12101 10234 20171 30091 40120 52017 80001 333 10292 59008
AAXX 12124 48555 31556 70000 10250 20220 30094 40137 52010 71022 83576 333 10278 58000
AAXX 12124 48556 NIL
AAXX 12124 48557 32560 40000 10252 20227 30069 40104 52014 82101 333 10315 58000
AAXX 12124 48560 01540 80804 10250 20237 30099 40104 56004 60042 76122 84876 333 10280 59001 60046 70056
AAXX 12124 48574 NIL
AAXX 12124 48581 NIL
AAXX 12121 06201 47471 52611 10071 20032 39939 49991 51007 72300 8//// 333 81/14 83/18 85/41 91013 91113 91212
AAXX 12121 06203 45469 4//11 10075 20032 39992 40043 51015 8//// 333 82/17 83/19 91013 91115 91213
AAXX 12121 06204 45480 42612 10068 20033 39973 40024 51013 8//// 333 83/14 84/17 91014 91115 91212
AAXX 12121 06205 47475 82312 10072 20029 39908 49966 51003 72180 8//// 333 81/15 83/20 88/35 91014 91114 91212
AAXX 12121 06208 47568 62609 10077 20026 39970 40019 53028 70285 8//// 333 82/25 83/30 85/35 91011 91112 91210
AAXX 12121 06211 45472 72512 10072 20029 39952 40007 51011 8//// 333 81/17 83/32 86/37 91014 91116 91214
AAXX 12121 06212 45480 42512 1//// 2//// 39966 40029 51015 8//// 333 83/19 84/21 91014 91114 91212
AAXX 12121 06235 15572 22609 10076 20028 30035 40035 51021 60001 8//// 333 82/26 91012 91114 91210
AAXX 12121 06240 15571 42609 10080 20031 30055 40050 51023 60001 8//// 333 82/27 84/31 91012 91113 91209
AAXX 12121 06251 17577 42608 10073 20030 30021 40022 51025 69921 70385 8//// 333 83/25 84/28 91013 91113 91210
AAXX 12121 06258 46/// /2509 333 91011 91112 91210
AAXX 12121 06269 17580 62507 10075 20038 30052 40046 51027 69931 70165 8//// 333 83/30 86/34 91009 91111 91207
AAXX 12121 06280 17972 62606 10072 20039 30022 40026 51031 60011 70185 8//// 333 86/65 91009 91111 91207
AAXX 12121 06310 15575 12308 10081 20045 30059 40069 51015 60001 8//// 333 81/27 91009 91113 91211
AAXX 12121 06344 15675 12507 10082 20027 30064 40057 51021 60001 8//// 333 81/36 91010 91113 91209
AAXX 12121 06370 17582 32706 10078 20026 30045 40070 51030 69901 70385 8//// 333 82/25 83/32 91009 91112 91208
AAXX 12121 06380 17580 62605 10070 20032 39948 40087 51033 60041 70265 8//// 333 83/21 86/24 91008 91111 91207
AAXX 12124 91574 46/// ///// 29092 30043 40049 56051
AAXX 12124 91570 NIL
AAXX 12124 91598 NIL
AAXX 12121 06206 45580 62410 10077 20024 39955 40008 51012 8//// 333 82/21 83/26 86/42 91011 91113 91211
AAXX 12121 06207 47572 32511 10059 20008 39958 40011 51019 70180 8//// 333 82/20 83/23 91012 91113 91211
AAXX 12121 06239 47580 43613 10076 20017 3//// 4//// 5//// 72385 8//// 333 82/23 83/27 91014 91115 91213
AAXX 12121 06252 46/// /2712 10069 20035 39973 40018 5//// 222// 00091 10604 333 91014 91114 91212
AAXX 12121 06260 15576 22506 10083 20022 30053 40055 51027 69901 8//// 333 82/27 91009 91110 91206
AAXX 12121 06270 17572 22607 10073 20035 30025 40025 51028 69951 70165 8//// 333 81/27 91009 91110 91207
AAXX 12121 06290 17471 82605 10073 20047 30004 40044 51034 60031 70286 8//// 333 81/15 83/18 85/21 91007 91110 91206
AAXX 12124 91573 06/// /0310 10264 20239 30011 40107 51008 60054 333 20265 59004 60007
AAXX 12124 91577 06/// /0702 10252 20209 30084 40105 51007 60004 333 20258 59003 60007
AAXX 12124 91579 06/// /0304 10259 20236 30104 40112 50004 60004 333 20259 58000 60007
AAXX 12124 91582 04466 /0404 10250 20238 30081 40115 50003 60001 700// 333 60007 90710 91107 555 60005
AAXX 12124 91583 06/// /0906 10258 20238 30096 40111 50004 69984 333 20261 59001 69967
AAXX 12124 91590 04785 /0103 10271 20214 30066 40108 51006 60001 700// 333 60007 90710 91107 555 60005
AAXX 12124 91592 06/// /0203 10273 20204 30025 40109 51008 60004 333 20277 59002 60007
AAXX 12124 91596 06/// /0308 10260 20239 30011 40119 51004 60004 333 20254 58001 60007
AAXX 12124 91587 NIL
AAXX 12124 16008 12560 82206 10014 21005 38478 48440 57012 60001 885// 333 88620 92842
AAXX 12124 16084 11517 80902 10062 20045 39966 40135 57023 69901 76062 84530 333 55300 81620 83630 85356
AAXX 12124 16088 11410 82002 10070 20070 30025 40144 58012 60021 76262 885// 333 84716 85628
AAXX 12124 16110 11497 80000 10120 20117 30127 40131 57018 60021 75166 84570 333 55300 84615 83456 555 0000/
AAXX 12124 16134 11/00 92323 10012 20006 37776 48453 56013 60021 74574 333 55300 89/00 92801 93197 95090 95190
AAXX 12124 16153 11597 62208 10114 20097 39869 40133 58009 60021 70162 85830 333 55302 82820 83623 555 0214/
AAXX 12124 16158 11430 51208 10116 20107 30128 40135 57013 60141 79196 83940 333 55300 82810 81920 85357
AAXX 12124 16206 11460 81812 10152 20129 30138 40147 56004 60211 70262 87900 333 81919 83830 85650
AAXX 12124 16219 41/00 90716 10010 20007 38106 48493 58013 6///1 76564 333 55300 89/00 95090 95190
AAXX 12124 16252 11460 60000 10112 20086 39235 42794 58012 69921 72062 85861 333 55309 82810 83615 85335 95060
AAXX 12124 16280 12497 41912 10168 20146 39949 40167 57011 60001 84200 333 55310 84810 555 0315/
AAXX 12124 16310 12997 11208 10162 20118 39963 40182 58001 60001 80001 333 55308 555 0213/
AAXX 12124 16320 12560 62015 10158 20142 30180 40192 58006 60001 83130 333 55305 83825 84357 555 0100/
AAXX 12124 16325 11596 82702 10132 20102 30166 40180 58004 60001 71042 8651/ 333 86620 84457 98056 555 0100/
AAXX 12124 16360 12497 82109 10166 20137 30068 40202 58001 60001 87230 333 55302 87815 83357 555 0314/
AAXX 12124 16400 12497 22414 10184 20129 39911 40196 58003 60001 82100 333 55310 82817 555 0435/
AAXX 12124 16420 12998 32406 10198 20105 30124 40188 58009 60001 83030 333 55310 83359 555 0200/
AAXX 12124 16429 12570 22605 10180 20131 30184 40195 54002 60001 81501 333 55310 81625
AAXX 12124 16470 12460 42907 10166 20146 39975 40209 50000 60001 84500 333 55308 22/// 84612 95060
AAXX 12124 16480 12498 12504 10198 20155 30131 40191 57011 60001 81100 333 55310 81815 555 0100/
AAXX 12124 16522 11497 73010 10158 20131 39928 40169 51003 60011 70262 84260 333 55300 84815 87357 555 0300/
AAXX 12124 16539 11497 63311 10148 20145 30071 40185 54003 69941 72162 83973 333 82812 81915 83356 555 0499/
AAXX 12124 16550 12598 62510 10168 20082 39977 40154 58001 60001 83830 333 55305 81833 83357 555 0200/
AAXX 12124 16597 32570 12306 10193 20140 30118 40204 58012 81101 333 81820
AAXX 12124 78388 111572 71108 10249 20218 30122 40131 60081 70562 83802 333 01209 10306 20234 58008 70083 82822 87070 90960
AAXX 12121 06431 NIL
AAXX 12121 06432 11574 22306 10079 20029 30020 40096 51020 69921 70386 82831 333 81820 91108 91206
AAXX 12121 06449 11470 12606 10066 20016 39870 40098 51025 69991 70161 81802 333 81814 91111 91207
AAXX 12121 06450 11575 12507 10078 20020 30065 40081 51026 69901 70261 81100 333 81822 91112 91208
AAXX 12121 06458 11580 12507 10072 20028 39938 40092 51028 60021 70161 81100 333 81820 91110 91208
AAXX 12121 06465 12575 22506 10076 20031 30016 40082 51031 60021 70262 82800 333 82822 91111 91207
AAXX 12121 06478 12580 12607 10061 20028 39871 40091 51032 60041 81100 333 81820 91112 91208
AAXX 12121 06496 12361 72706 10029 20019 39410 40088 51031 60061 72562 878// 333 81707 85709 87614 91113 91208
AAXX 12121 06400 32579 22509 10089 20038 30072 40083 51012 82801 333 81828 91113 91210
AAXX 12121 06428 11580 12404 10082 20023 30038 40086 51018 69901 70261 81800 333 81830 91108 91206
AAXX 12121 06451 11575 12506 10073 20007 30019 40087 51026 60031 70261 81102 333 81820 91111 91208
AAXX 12121 06456 11480 12607 10063 20013 39737 40104 51029 60021 70165 81100 333 81818 91111 91208
AAXX 12121 06476 17478 82605 10040 20018 39441 40106 52032 60041 70065 333 86/10 87/13 88/15 91114 91208
AAXX 12121 06479 11580 42507 10078 20034 30002 40081 51031 69941 70262 82101 333 82823 84074 91111 91207
AAXX 12121 06490 17369 82805 10036 20015 39525 40098 52033 60061 70061 333 81/08 85/10 87/13 91112 91206
AAXX 12121 06590 11480 52607 10052 20048 39651 40104 52038 60021 70262 84801 333 81812 83636 91112 91208
AAXX 12124 89532 41/50 80316 11041 21070 39796 49823 58007 77177 885// 333 11026 21041 92960
AAXX 12121 01015 46/// /1707 11018 21029 333 91111
AAXX 12121 01180 11982 02401 11042 21056 39920 49978 58015 60001 70200 333 91103
AAXX 12121 01228 46/// /1308 10035 21005 39866 49873 58024 333 91111
AAXX 12121 01340 16/// /2602 10016 21027 39030 49882 53004 60001 333 91109
AAXX 12121 01425 16/// /1201 10027 20024 39838 49918 52004 60091 333 91106
AAXX 12121 01092 46/// /3307 10016 21010 333 91111
AAXX 12121 01199 11570 80000 11197 21215 39550 40051 54002 6//// 70242 885//
AAXX 12121 01262 46/// /1212 10017 21023 333 91117
AAXX 12121 01329 11136 82001 10016 20007 39832 49893 53007 60031 78182 888// 333 91104
AAXX 12121 01337 16/// /2701 10004 21007 39820 49886 55001 60011 333 91102
AAXX 12121 01436 41475 82510 10074 20044 70286 8337/ 222// 00090 333 91119
AAXX 12121 01265 16/// /2801 11064 21075 39334 49923 58029 60021 333 91101
AAXX 12121 01375 16/// /1608 11049 21053 6//// 333 91111
AAXX 12121 01440 46/// /2307 11024 21026 38634 49903 54003
AAXX 12121 01469 16/// /1605 10031 20005 39746 49915 57013 60031 333 91111
AAXX 12121 01046 41588 41502 11034 21048 30000 40007 57002 70172 82460 333 91105
AAXX 12121 01277 16/// /0602 11012 21047 60001 333 91107
AAXX 12121 01370 16/// /3301 11052 21060 38813 49990 57020 60061 333 4/027 91102
AAXX 12121 01419 16/// /2202 10026 20019 60101 333 91109
AAXX 12124 85223 31570 70000 10195 20118 37511 47147 52021 70421 82236 333 20150 30/// 55063 56000 58004 82623 81830 87070
AAXX 12124 85283 11484 70303 10111 20101 37211 47132 52010 60154 70169 82923 333 20085 32007 55065 56100 58012 70146 81610 81927 84457 87070
AAXX 12124 85293 12484 50000 10062 20008 36368 52004 60034 82509 333 20020 30/// 56000 5//// 70033 82617 84170
AAXX 12124 85312 12884 80000 10194 20174 38800 52002 60274 8802/ 333 20178 32/// 55050 56009 58030 70268 88457
AAXX 12124 85345 12584 70000 10254 20205 39626 40081 52007 60174 82105 333 20201 31/// 56000 58018 70174 82820 85070
AAXX 12124 85364 12570 50000 10170 20153 38150 48214 53006 60124 81530 333 20152 31/// 55034 56000 58013 70116 81620 84357
AAXX 12124 85365 32984 30907 10270 20243 39356 40062 51001 80001 333 20220 30/// 56000 58011 83070
AAXX 12124 85394 12984 53604 10255 20231 39662 40095 52006 60034 80001 333 20205 31/// 56000 5//// 70030 85070
AAXX 12124 78397 111570 53604 10258 20235 30112 40128 60001 70511 84902 333 06909 10314 20242 58013 83822 81924
AAXX 12121 33135 NIL
AAXX 12121 33317 32598 71610 10021 21009 39872 40216 57025 87500
AAXX 12121 33345 NIL
AAXX 12121 33393 32997 81204 10017 21026 39786 40185 57021 8807/
AAXX 12121 33506 32597 62803 10014 21038 30082 40284 58004 85530
AAXX 12121 33587 32697 51602 10026 21013 39999 40268 58013 85500
AAXX 12121 33631 /1597 81303 10050 20020 30035 40180 57024 70262 885// 333 88630 555 69901
AAXX 12121 33663 NIL
AAXX 12121 33658 31/06 90903 11006 21006 39913 40222 57023 74342
AAXX 12121 33711 32998 02004 10037 21019 30067 40281 58009
AAXX 12121 33791 32997 02304 10039 21014 30131 40285 57008
AAXX 12121 33837 32972 81405 10062 20026 30214 40267 58016 83039
AAXX 12121 33924 32999 71103 10070 21047 30270 40282 57006 87030
AAXX 12121 33946 32997 40704 10065 21062 30054 40278 57010 84030
AAXX 12121 34300 32597 72304 10010 21019 30090 40287 51003 87500 333 87625
AAXX 12121 34504 32497 32403 10028 21005 30105 40288 57005 83600
AAXX 12121 34519 32560 50000 10008 21028 30011 40295 58005 85500 333 85630
AAXX 12121 34601 32960 02404 10035 21005 30156 40296 57006
AAXX 12124 78397 111570 53604 10258 20235 30112 40128 60001 70511 84902 333 06909 10314 20242 58013 83822 81924
AAXX 12121 76113 32870 60301 10122 20005 39629 40092 5//// 86030 91150 333 10235 20120 30112 50291 55068 56010 59056 70000 86358
AAXX 12121 76123 06/// 72802 10018 21005 3//// 4//// 5//// 60001 7//// 81037 91150 333 0//// 10164 20016 4//// 50169 55076 56099 57/// 5//// 60007 70000 86270 8//// 8//// 8//// 9//// 9/
AAXX 12121 76225 32720 60000 10062 20038 38604 40135 57006 86020 91147 333 10160 20050 30030 56050 59033 70000 86353
AAXX 12121 76226 06/// /2401 10070 20035 38595 40130 57009 60001 7//// 8//// 91150 333 0//// 10168 20051 30/// 4//// 50209 54/// 55/// 56/// 57/// 59036 60007 70000 8//// 8//// 8//// 9/
AAXX 12121 76256 32960 81803 10159 20136 30123 40137 5//// 88070 91150 333 10205 20150 30/// 56/5/ 59015 70000 88460
AAXX 12121 76305 32970 72202 10189 20121 30106 40114 5//// 8343/ 91135 333 10240 20159 30140 5645/ 59026 70000 86330
AAXX 12121 76323 32910 63201 10060 21014 38252 40188 57002 80007 91145 333 10220 20055 30035 56005 59001 70000 86268
AAXX 12121 76342 01420 80201 10068 20068 39520 40255 57008 69901 75054 886// 91148 333 10080 20062 30052 561// 59041 69907 70003 88710
AAXX 12121 76373 32950 00000 10024 21010 38205 40150 5//// 91150 333 10250 20011 31010 55086 21578 59001 70000
AAXX 12121 76382 32660 60000 10104 20086 38899 40152 52002 86020 91148 333 10206 20090 30075 56050 59034 70000 86554
AAXX 12121 76390 31950 31904 10139 20062 38224 40152 57004 70544 80004 91130 333 10100 20116 30110 56004 59024 70000 83070
AAXX 12121 76402 32950 60000 10168 20139 30078 40135 57002 86600 91145 333 10245 20090 30086 56600 59007 70000 86728
AAXX 12121 76423 32960 70000 10080 20021 38149 40139 57004 80008 91158 333 10272 20070 30040 56009 59006 70000 87267
AAXX 12121 76458 32960 00301 10160 20145 30143 40148 53003 91145 333 10263 20138 30130 58011 70000
AAXX 12121 76471 32980 40000 10080 20048 37692 40124 5//// 80001 91150 333 10232 20059 30028 55090 56005 59004 70000 84075
AAXX 12121 76490 06/// /0000 10125 20117 39805 40204 57004 69921 7//// 8//// 91150 333 0//// 10146 20124 30/// 50109 54/// 55000 56/// 57/// 59043 69927 70010 8//// 8//// 8//// 8//// 9/
AAXX 12121 76525 32960 21005 10105 20032 37472 40122 57003 80006 91140 333 10168 20105 30090 55096 22653 56//5 59001 70000 82080
AAXX 12121 76539 31550 80000 10084 20076 38178 40208 5//// 70544 886// 91145 333 10220 20048 30020 562// 59005 70000 88720
AAXX 12121 76543 31670 83201 10168 20147 30186 40219 54/// 7054/ 8357/ 91145 333 10248 20168 30/// 5618/ 59023 70000 83650 85358
AAXX 12121 76547 06/// /2702 10164 20162 30190 40202 56006 60001 7//// 8//// 91150 333 0//// 10192 20160 4//// 50129 55000 56/// 57/// 59016 60007 70000 8//// 8//// 8//// 8//// 9//// 9/
AAXX 12121 76548 32960 02701 10168 20162 30202 40212 57008 91145 333 10195 20164 30160 59016 70001
AAXX 12121 76556 32960 00000 10132 20112 39117 40139 570005 91135 333 10290 20128 30114 58005 70000
AAXX 12121 76577 32960 00000 10100 20088 38047 40155 52001 91140 333 10240 20090 30080 59005 70000
AAXX 12121 76578 06/// /0000 10083 20039 38048 40198 53003 60001 7//// 8//// 91150 333 0//// 10257 20083 30/// 4//// 50259 54/// 55056 56/// 57/// 59005 60007 70000 8//// 8//// 8//// 9/
AAXX 12121 76581 32960 63601 10130 20112 39070 40184 5//// 86060 91155 333 10235 20117 30110 56030 59020 70000 86359
AAXX 12121 76585 32980 60000 10167 20155 30045 40205 55007 86400 91145 333 10205 20166 30156 55000 562// 59027 70018 86437
AAXX 12121 76586 06/// /0000 10167 20166 30047 40205 56004 60001 7//// 8//// 91150 333 0//// 10210 20165 30/// 4//// 50129 54/// 55000 56/// 57/// 59021 60007 70010 8//// 8//// 8//// 9/
AAXX 12121 76592 06/// /0405 10229 20058 30176 40176 53005 60001 7//// 8//// 91150 333 0//// 10239 20225 30/// 4//// 50479 54/// 55000 56/// 57/// 59002 60007 70014 8//// 8//// 8//// 9/
AAXX 12121 76593 32464 50603 10226 20223 30182 40184 52006 81550 91150 333 10239 20216 30214 5622/ 58006 70000 81620 84330
AAXX 12121 76625 32560 40902 10098 20076 38148 40146 57004 82105 91140 333 10229 20095 30080 5620/ 59016 70000 82825
AAXX 12121 76632 31950 00403 10066 20037 37646 40162 52003 70500 91140 333 10200 20064 30/// 58004 70000
AAXX 12121 76641 06/// /0501 10172 20169 30196 40208 55005 60001 7//// 8//// 91150 333 0//// 10239 20171 30/// 4//// 50159 54/// 55000 56/// 57/// 59008 60007 70000 8//// 8//// 8//// 8/
AAXX 12121 76644 32750 50401 10218 20218 30164 40176 5//// 85070 91150 333 10239 20205 30192 56/9/ 59001 70023 853//
AAXX 12121 76645 02/// ///// 1//// 2//// 3//// 4//// 5//// 6//// 7//// 8//// 9//// 333 0//// 1//// 2//// 30/// 4//// 5//// 54/// 55/// 56/// 57/// 5//// 6//// 7//// 8//// 8//// 8//// 9/
AAXX 12121 76648 06/// /0101 10208 20198 30141 40172 53009 60001 7//// 8//// 91150 333 0//// 10285 20199 30/// 4//// 50199 54/// 55000 56/// 57/// 58008 60007 70036 8//// 8//// 8//// 8/
AAXX 12121 76654 31956 03602 10218 20192 30146 40150 57003 70544 91155 333 10297 20216 30190 58006 70000
AAXX 12121 76656 32870 30000 10100 20096 38515 40172 52006 83030 91155 333 10260 20090 30050 56050 58002 70000 83358
AAXX 12121 76659 06/// /0302 10176 20146 3//// 4//// 5//// 60001 7//// 8//// 91150 333 0//// 10334 20165 30/// 4//// 50359 54/// 55084 56/// 57/// 5//// 60007 70000 8//// 8//// 8//// 9/
AAXX 12121 76662 32660 23601 10100 20082 38476 40166 52005 82300 91150 333 10272 20080 30070 56/// 58003 70000 82833
AAXX 12121 76665 32958 01902 10090 20078 38128 40159 52003 91145 333 10255 20081 30070 58001 70000
AAXX 12121 76675 31960 01702 10008 21014 37386 40210 56004 70544 91150 333 10216 21005 31031 58003 70000
AAXX 12121 76680 31949 01801 10086 20042 37764 40126 52002 70444 91150 333 10230 20070 30066 59003 70000
AAXX 12121 76683 32662 20000 10038 20030 37844 40232 52006 82600 91155 333 10217 20034 30000 50241 55106 21877 56200 59002 70000 82725
AAXX 12121 76684 06/// /3603 10034 20023 37849 40282 53005 60001 7//// 8//// 91150 333 0//// 10237 20027 30/// 4//// 50319 54/// 55095 56/// 57/// 58006 60007 70000 8//// 8//// 8//// 9/
AAXX 12121 76685 32950 00000 10050 20042 37884 40198 52002 91150 333 10218 20048 30006 58004 70000
AAXX 12121 76687 31358 62201 10096 20087 38703 40212 57007 70222 865// 91148 333 10193 20090 30082 563// 59005 70000 82718 84616
AAXX 12121 76692 01520 72902 10202 20193 30182 40201 50000 60041 70356 8442/ 91145 333 10260 20200 30198 5688/ 59002 60017 70035 84630 83456
AAXX 12121 76693 06/// /2801 10199 20187 30182 40201 55001 60041 7//// 8//// 91150 333 0//// 10259 20199 30/// 4//// 50209 55000 56/// 57/// 58000 60017 70040 8//// 8//// 8//// 8//// 9/
AAXX 12121 76695 12256 83401 10226 20215 30156 40162 52001 60061 88600 91150 333 10261 20194 30192 561// 58/// 70060 88703
AAXX 12121 76698 32560 20000 10214 20205 30158 40170 5//// 81201 91155 333 10246 20213 30190 56/0/ 59003 79999 81820
AAXX 12121 76727 06/// /2701 10131 20032 38412 40163 53004 60001 7//// 8//// 91150 333 0//// 10264 20121 30/// 4//// 50209 54/// 55000 56/// 57/// 58000 60007 70000 8//// 8//// 8//// 9/
AAXX 12121 76737 01980 03201 10103 20096 38804 40204 55003 69911 70252 91132 333 10196 20103 30088 59003 69917 70016
AAXX 12121 76738 06/// /3201 10096 20094 38806 40226 54000 60001 7//// 8//// 333 10200 20096 30/// 50149 55000 56/// 57/// 59003 60007 70018 8//// 8//// 8//// 8//// 9//// 9//// 9//// 44
AAXX 12121 76743 31340 80501 10185 20165 30181 40189 53004 70222 884// 91150 333 10265 20185 30160 562// 58003 70000 88808
AAXX 12121 76750 32558 72901 10194 20191 30162 40173 52006 83520 91150 333 10281 20190 30187 56880 58002 70000 83620 84557
AAXX 12121 76751 06/// /3001 10195 20193 30162 40173 53006 60001 7//// 8//// 91150 333 0//// 10281 20189 30/// 4//// 50209 54/// 55000 56/// 57/// 58001 60007 70000 8//// 8//// 8//// 9/
AAXX 12121 76762 32904 00000 10122 20103 38763 40142 54000 91150 333 10292 20120 30100 59011 70000
AAXX 12121 76772 06/// /0000 10055 20046 38448 40245 53004 60001 7//// 8//// 91150 333 0//// 10281 20055 30/// 4//// 5///9 55000 56/// 57/// 58004 60007 70000 8//// 8//// 8//// 9//// 9/
AAXX 12121 76773 32958 00000 10060 20047 38442 40195 52002 91145 333 10268 20054 30038 50351 55100 58002 70000
AAXX 12121 76775 32960 00501 10084 20055 38548 40207 52001 91145 333 10272 20080 30/// 58005 70000
AAXX 12121 76776 06/// /0401 10073 20051 38533 40230 53002 60001 7//// 8//// 91150 333 0//// 10274 20073 30/// 4//// 50359 55096 56/// 57/// 58004 60007 70000 8//// 8//// 8//// 9//// 9/
AAXX 12121 76805 32860 23301 10217 20213 30129 40132 50001 82040 91145 333 10318 20216 30204 56/6/ 58002 70000 82357
AAXX 12121 76806 06/// /3401 10213 20204 30135 40139 53004 60001 7//// 8//// 91150 333 10313 20212 30210 30/// 50229 55000 56/// 57/// 58005 60007 70000 8//// 8//// 8//// 8//// 9//// 9/
AAXX 12121 76840 32901 00408 10232 20161 30082 40139 52005 91135 333 10252 20180 30/// 58006 70000
AAXX 12121 76843 32965 03601 10169 20140 39524 40173 53003 91135 333 10252 20162 30154 58006 70000
AAXX 12121 76848 32960 00000 10089 20045 38392 40131 57001 91150 333 10223 20089 30039 59002 70000
AAXX 12121 76902 06/// /0401 10225 20176 39993 40132 53002 60001 7//// 8//// 91150 333 0//// 10330 20224 30/// 4//// 50419 54/// 56/// 57/// 58003 60007 70000 8//// 8//// 8//// 8//// 9/
AAXX 12121 76243 11368 83208 10078 20070 39930 40234 54000 69981 70252 887// 91130 333 10090 20070 30054 568// 59056 70038 88707
AAXX 12121 76311 32960 40000 10110 20099 39859 40139 57006 84003 91150 333 10282 20108 30094 56006 58000 70000 84270
AAXX 12121 76405 32840 60000 10204 20174 30116 40138 57002 86070 91150 333 10258 20202 30190 56040 59006 70000 86456
AAXX 12121 76412 32960 00000 10126 20101 30112 40158 57015 91150 333 10288 20105 30/// 59003 70000
AAXX 12121 76640 31010 43201 10178 20175 30210 40222 57008 71044 845// 91140 333 10230 20164 30162 567// 59005 70000 84601
AAXX 12121 76647 31/08 93601 10208 20208 30152 40183 5//// 74744 91150 333 10279 20200 30180 58006 70043
AAXX 12121 76741 31940 00301 10186 20173 30144 40163 52000 70544 91135 333 10242 20150 30149 59/// 70004
AAXX 12121 76855 32980 03401 10216 20193 30071 40121 5//// 91145 333 10325 20210 30206 55096 59001 70000 92000
AAXX 12121 15015 02597 72501 10036 20003 39591 42797 58016 60001 82570 333 4//// 60007 91002 91102
AAXX 12121 15020 01996 31203 10048 20019 30020 40221 57026 60001 71000 83070 333 60007 91004 91104
AAXX 12121 15090 02597 81103 10048 20025 30140 40235 58023 60001 885// 333 4//// 55300 00224 20252 30243 60007 91004 91106
AAXX 12121 15108 02199 72906 11003 21003 38106 48522 58003 60001 82541 333 43006 60007 95000
AAXX 12121 15120 02697 70603 10070 20045 39693 40191 57023 60001 82570 333 55301 00355 20634 30558 60007 91006 91107
AAXX 12121 15150 02597 81603 10049 20036 30016 40233 57020 60001 8557/ 333 60007 91006 91109
AAXX 12121 15170 02997 51101 10051 20014 39429 42818 57021 60001 85070 333 60007 91002 91102
AAXX 12121 15200 02997 71503 10121 20070 30028 40171 57013 60001 87070 333 60007 91004 91106
AAXX 12121 15230 02598 61501 10070 20039 39909 40204 57022 60001 84550 333 55305 00373 20875 30578 60007 91003 91103
AAXX 12121 15260 01598 72101 10040 20040 39663 40207 57020 60001 72842 84570 333 60007 91002 91102 95000
AAXX 12121 15280 01/93 82308 11032 21038 37505 47046 57011 69921 77174 885// 333 48035 69927 92913 96036 96041
AAXX 12121 15292 02598 61606 10101 20053 39897 40191 57018 60001 84360 333 60007 91010 91111 95000
AAXX 12121 15310 01496 80902 10051 20037 30160 40248 57021 60001 71022 8667/ 333 55300 00131 20193 30176 60007 91003 91104
AAXX 12121 15335 02497 81404 10094 20059 30240 40247 57022 60001 886// 333 60007 91006 91107
AAXX 12121 15346 01595 80101 10065 20058 39939 40233 58019 60021 71062 8657/ 333 60017 91002 91102
AAXX 12121 15350 01593 81202 10061 20058 30121 40244 57022 69911 72054 886// 333 69917 91003 91103 96044
AAXX 12121 15360 02597 81205 10085 20062 30233 40247 57020 60001 885// 222// 06078 20201 333 60007 91007 91107 92417
AAXX 12121 15410 02597 80000 10063 20042 30136 40233 57018 60001 8802/ 333 60007 91000 91101
AAXX 12121 15420 01496 80503 10065 20053 30119 40232 57019 60001 71022 886// 333 55300 0//// 20258 3//// 60007 91004 91106
AAXX 12121 15450 01596 80703 10052 20046 39988 40228 57017 69931 71062 8557/ 333 55300 00081 20216 30196 69917 91006 91106
AAXX 12121 15460 02997 71302 10130 20079 30201 40225 57022 60001 87070 333 60007 91004 91105
AAXX 12121 15470 01495 80504 10060 20055 30099 40228 57015 69911 72052 886// 333 69917 91006 91106
AAXX 12121 15480 02497 81103 10094 20094 30224 40241 57017 60001 886// 222// 06074 2//// 333 60007 91004 91105 92427
AAXX 12124 78982 01480 70708 10260 20228 30102 40107 52014 60001 71622 83278 333 10310 20252 58007 60007 83817 86281
AAXX 12121 76113 32870 60301 10122 20005 39629 40092 5//// 86030 91150333 10235 20120 30112 50291 55068 56010 59056 70000 86358
AAXX 12121 76123 06/// 72802 10018 21005 3//// 4//// 5//// 60001 7////81037 91150 333 0//// 10164 20016 4//// 50169 55076 5609957/// 5//// 60007 70000 86270 8//// 8//// 8//// 9//// 9/
AAXX 12121 76225 32720 60000 10062 20038 38604 40135 57006 86020 91147333 10160 20050 30030 56050 59033 70000 86353
AAXX 12121 76226 06/// /2401 10070 20035 38595 40130 57009 60001 7////8//// 91150 333 0//// 10168 20051 30/// 4//// 50209 54///55/// 56/// 57/// 59036 60007 70000 8//// 8//// 8//// 9/
AAXX 12121 76256 32960 81803 10159 20136 30123 40137 5//// 88070 91150333 10205 20150 30/// 56/5/ 59015 70000 88460
AAXX 12121 76305 32970 72202 10189 20121 30106 40114 5//// 8343/ 91135333 10240 20159 30140 5645/ 59026 70000 86330
AAXX 12121 76323 32910 63201 10060 21014 38252 40188 57002 80007 91145333 10220 20055 30035 56005 59001 70000 86268
AAXX 12121 76342 01420 80201 10068 20068 39520 40255 57008 69901 75054886// 91148 333 10080 20062 30052 561// 59041 69907 7000388710
AAXX 12121 76373 32950 00000 10024 21010 38205 40150 5//// 91150 33310250 20011 31010 55086 21578 59001 70000
AAXX 12121 76382 32660 60000 10104 20086 38899 40152 52002 86020 91148333 10206 20090 30075 56050 59034 70000 86554
AAXX 12121 76390 31950 31904 10139 20062 38224 40152 57004 70544 8000491130 333 10100 20116 30110 56004 59024 70000 83070
AAXX 12121 76402 32950 60000 10168 20139 30078 40135 57002 86600 91145333 10245 20090 30086 56600 59007 70000 86728
AAXX 12121 76423 32960 70000 10080 20021 38149 40139 57004 80008 91158333 10272 20070 30040 56009 59006 70000 87267
AAXX 12121 76458 32960 00301 10160 20145 30143 40148 53003 91145 33310263 20138 30130 58011 70000
AAXX 12121 76471 32980 40000 10080 20048 37692 40124 5//// 80001 91150333 10232 20059 30028 55090 56005 59004 70000 84075
AAXX 12121 76490 06/// /0000 10125 20117 39805 40204 57004 69921 7////8//// 91150 333 0//// 10146 20124 30/// 50109 54/// 5500056/// 57/// 59043 69927 70010 8//// 8//// 8//// 8//// 9/
AAXX 12121 76525 32960 21005 10105 20032 37472 40122 57003 80006 91140333 10168 20105 30090 55096 22653 56//5 59001 70000 82080
AAXX 12121 76539 31550 80000 10084 20076 38178 40208 5//// 70544 886//91145 333 10220 20048 30020 562// 59005 70000 88720
AAXX 12121 76543 31670 83201 10168 20147 30186 40219 54/// 7054/ 8357/91145 333 10248 20168 30/// 5618/ 59023 70000 83650 85358
AAXX 12121 76547 06/// /2702 10164 20162 30190 40202 56006 60001 7////8//// 91150 333 0//// 10192 20160 4//// 50129 55000 56///57/// 59016 60007 70000 8//// 8//// 8//// 8//// 9//// 9/
AAXX 12121 76548 32960 02701 10168 20162 30202 40212 57008 91145 33310195 20164 30160 59016 70001
AAXX 12121 76556 32960 00000 10132 20112 39117 40139 570005 91135 333 10290 20128 30114 58005 70000
AAXX 12121 76577 32960 00000 10100 20088 38047 40155 52001 91140 33310240 20090 30080 59005 70000
AAXX 12121 76578 06/// /0000 10083 20039 38048 40198 53003 60001 7////8//// 91150 333 0//// 10257 20083 30/// 4//// 50259 54///55056 56/// 57/// 59005 60007 70000 8//// 8//// 8//// 9/
AAXX 12121 76581 32960 63601 10130 20112 39070 40184 5//// 86060 91155333 10235 20117 30110 56030 59020 70000 86359
AAXX 12121 76585 32980 60000 10167 20155 30045 40205 55007 86400 91145333 10205 20166 30156 55000 562// 59027 70018 86437
AAXX 12121 76586 06/// /0000 10167 20166 30047 40205 56004 60001 7////8//// 91150 333 0//// 10210 20165 30/// 4//// 50129 54///55000 56/// 57/// 59021 60007 70010 8//// 8//// 8//// 9/
AAXX 12121 76592 06/// /0405 10229 20058 30176 40176 53005 60001 7////8//// 91150 333 0//// 10239 20225 30/// 4//// 50479 54///55000 56/// 57/// 59002 60007 70014 8//// 8//// 8//// 9/
AAXX 12121 76593 32464 50603 10226 20223 30182 40184 52006 81550 91150333 10239 20216 30214 5622/ 58006 70000 81620 84330
AAXX 12121 76625 32560 40902 10098 20076 38148 40146 57004 82105 91140333 10229 20095 30080 5620/ 59016 70000 82825
AAXX 12121 76632 31950 00403 10066 20037 37646 40162 52003 70500 91140333 10200 20064 30/// 58004 70000
AAXX 12121 76641 06/// /0501 10172 20169 30196 40208 55005 60001 7////8//// 91150 333 0//// 10239 20171 30/// 4//// 50159 54///55000 56/// 57/// 59008 60007 70000 8//// 8//// 8//// 8/
AAXX 12121 76644 32750 50401 10218 20218 30164 40176 5//// 85070 91150333 10239 20205 30192 56/9/ 59001 70023 853//
AAXX 12121 76645 02/// ///// 1//// 2//// 3//// 4//// 5//// 6//// 7////8//// 9//// 333 0//// 1//// 2//// 30/// 4//// 5//// 54///55/// 56/// 57/// 5//// 6//// 7//// 8//// 8//// 8//// 9/
AAXX 12121 76648 06/// /0101 10208 20198 30141 40172 53009 60001 7////8//// 91150 333 0//// 10285 20199 30/// 4//// 50199 54///55000 56/// 57/// 58008 60007 70036 8//// 8//// 8//// 8/
AAXX 12121 76654 31956 03602 10218 20192 30146 40150 57003 70544 91155333 10297 20216 30190 58006 70000
AAXX 12121 76656 32870 30000 10100 20096 38515 40172 52006 83030 91155333 10260 20090 30050 56050 58002 70000 83358
AAXX 12121 76659 06/// /0302 10176 20146 3//// 4//// 5//// 60001 7////8//// 91150 333 0//// 10334 20165 30/// 4//// 50359 54///55084 56/// 57/// 5//// 60007 70000 8//// 8//// 8//// 9/
AAXX 12121 76662 32660 23601 10100 20082 38476 40166 52005 82300 91150333 10272 20080 30070 56/// 58003 70000 82833
AAXX 12121 76665 32958 01902 10090 20078 38128 40159 52003 91145 33310255 20081 30070 58001 70000
AAXX 12121 76675 31960 01702 10008 21014 37386 40210 56004 70544 91150333 10216 21005 31031 58003 70000
AAXX 12121 76680 31949 01801 10086 20042 37764 40126 52002 70444 91150333 10230 20070 30066 59003 70000
AAXX 12121 76683 32662 20000 10038 20030 37844 40232 52006 82600 91155333 10217 20034 30000 50241 55106 21877 56200 59002 7000082725
AAXX 12121 76684 06/// /3603 10034 20023 37849 40282 53005 60001 7////8//// 91150 333 0//// 10237 20027 30/// 4//// 50319 54///55095 56/// 57/// 58006 60007 70000 8//// 8//// 8//// 9/
AAXX 12121 76685 32950 00000 10050 20042 37884 40198 52002 91150 33310218 20048 30006 58004 70000
AAXX 12121 76687 31358 62201 10096 20087 38703 40212 57007 70222 865//91148 333 10193 20090 30082 563// 59005 70000 82718 84616
AAXX 12121 76692 01520 72902 10202 20193 30182 40201 50000 60041 703568442/ 91145 333 10260 20200 30198 5688/ 59002 60017 7003584630 83456
AAXX 12121 76693 06/// /2801 10199 20187 30182 40201 55001 60041 7////8//// 91150 333 0//// 10259 20199 30/// 4//// 50209 5500056/// 57/// 58000 60017 70040 8//// 8//// 8//// 8//// 9/
AAXX 12121 76695 12256 83401 10226 20215 30156 40162 52001 60061 8860091150 333 10261 20194 30192 561// 58/// 70060 88703
AAXX 12121 76698 32560 20000 10214 20205 30158 40170 5//// 81201 91155333 10246 20213 30190 56/0/ 59003 79999 81820
AAXX 12121 76727 06/// /2701 10131 20032 38412 40163 53004 60001 7////8//// 91150 333 0//// 10264 20121 30/// 4//// 50209 54///55000 56/// 57/// 58000 60007 70000 8//// 8//// 8//// 9/
AAXX 12121 76737 01980 03201 10103 20096 38804 40204 55003 69911 7025291132 333 10196 20103 30088 59003 69917 70016
AAXX 12121 76738 06/// /3201 10096 20094 38806 40226 54000 60001 7////8//// 333 10200 20096 30/// 50149 55000 56/// 57/// 5900360007 70018 8//// 8//// 8//// 8//// 9//// 9//// 9//// 44
AAXX 12121 76743 31340 80501 10185 20165 30181 40189 53004 70222 884//91150 333 10265 20185 30160 562// 58003 70000 88808
AAXX 12121 76750 32558 72901 10194 20191 30162 40173 52006 83520 91150333 10281 20190 30187 56880 58002 70000 83620 84557
AAXX 12121 76751 06/// /3001 10195 20193 30162 40173 53006 60001 7////8//// 91150 333 0//// 10281 20189 30/// 4//// 50209 54///55000 56/// 57/// 58001 60007 70000 8//// 8//// 8//// 9/
AAXX 12121 76762 32904 00000 10122 20103 38763 40142 54000 91150 33310292 20120 30100 59011 70000
AAXX 12121 76772 06/// /0000 10055 20046 38448 40245 53004 60001 7////8//// 91150 333 0//// 10281 20055 30/// 4//// 5///9 5500056/// 57/// 58004 60007 70000 8//// 8//// 8//// 9//// 9/
AAXX 12121 76773 32958 00000 10060 20047 38442 40195 52002 91145 33310268 20054 30038 50351 55100 58002 70000
AAXX 12121 76775 32960 00501 10084 20055 38548 40207 52001 91145 33310272 20080 30/// 58005 70000
AAXX 12121 76776 06/// /0401 10073 20051 38533 40230 53002 60001 7////8//// 91150 333 0//// 10274 20073 30/// 4//// 50359 5509656/// 57/// 58004 60007 70000 8//// 8//// 8//// 9//// 9/
AAXX 12121 76805 32860 23301 10217 20213 30129 40132 50001 82040 91145333 10318 20216 30204 56/6/ 58002 70000 82357
AAXX 12121 76806 06/// /3401 10213 20204 30135 40139 53004 60001 7////8//// 91150 333 10313 20212 30210 30/// 50229 55000 56///57/// 58005 60007 70000 8//// 8//// 8//// 8//// 9//// 9/
AAXX 12121 76840 32901 00408 10232 20161 30082 40139 52005 91135 33310252 20180 30/// 58006 70000
AAXX 12121 76843 32965 03601 10169 20140 39524 40173 53003 91135 33310252 20162 30154 58006 70000
AAXX 12121 76848 32960 00000 10089 20045 38392 40131 57001 91150 33310223 20089 30039 59002 70000
AAXX 12121 76902 06/// /0401 10225 20176 39993 40132 53002 60001 7////8//// 91150 333 0//// 10330 20224 30/// 4//// 50419 54///56/// 57/// 58003 60007 70000 8//// 8//// 8//// 8//// 9/
AAXX 12121 76243 11368 83208 10078 20070 39930 40234 54000 69981 70252887// 91130 333 10090 20070 30054 568// 59056 70038 88707
AAXX 12121 76311 32960 40000 10110 20099 39859 40139 57006 84003 91150333 10282 20108 30094 56006 58000 70000 84270
AAXX 12121 76405 32840 60000 10204 20174 30116 40138 57002 86070 91150333 10258 20202 30190 56040 59006 70000 86456
AAXX 12121 76412 32960 00000 10126 20101 30112 40158 57015 91150 33310288 20105 30/// 59003 70000
AAXX 12121 76640 31010 43201 10178 20175 30210 40222 57008 71044 845//91140 333 10230 20164 30162 567// 59005 70000 84601
AAXX 12121 76647 31/08 93601 10208 20208 30152 40183 5//// 74744 91150333 10279 20200 30180 58006 70043
AAXX 12121 76741 31940 00301 10186 20173 30144 40163 52000 70544 91135333 10242 20150 30149 59/// 70004
AAXX 12121 76855 32980 03401 10216 20193 30071 40121 5//// 91145 33310325 20210 30206 55096 59001 70000 92000
AAXX 12121 01281 16/// /0606 11040 21075 39770 49947 58020 60001 333 91110
AAXX 12121 01447 16/// /2001 10006 20002 39245 49908 57003 60141 333 91106
AAXX 12121 26038 21373 81904 10033 20023 30046 40087 57006 72162 886// 333 10035 21005 60007 88709 91110 555 1/002 21005 3/100 50014 52102
AAXX 12121 26045 27468 72005 10030 20019 30097 40099 57003 70000 87/// 333 10032 21007 60007 87/12 91008 91108 555 1/000 21007 3/101 50010
AAXX 12121 26058 27373 82103 10030 20021 30105 40113 54000 70060 88/// 333 10034 21009 69937 88/07 555 1/002 21009 3/102 50019 52102
AAXX 12121 26115 27356 71905 10048 20036 30059 40067 58011 76160 87/// 333 10067 20046 60017 87/08 91010 91115 555 1/004 20046 3/003 50053
AAXX 12121 26135 27376 81903 10018 20006 30035 40110 57002 70080 88/// 333 10028 21007 60007 88/10 555 1/001 21007 3/101 50012 52102
AAXX 12121 26141 21375 82005 10015 20007 39959 40109 54001 70282 875// 333 10018 21023 60007 87608 91109 555 1/000 21023 3/104 50003 52104
AAXX 12121 26231 21370 81807 10024 20006 30091 40106 58008 70282 8662/ 333 10041 20001 60007 86710 91011 91113 555 1/002 20001 3/100
AAXX 12121 26242 21483 81904 10015 21017 30039 40127 58003 70286 875// 333 10026 21002 60007 87614 91109 555 1/000 21002 3/100 50016 52102
AAXX 12121 26247 27/72 /2004 10011 21007 30052 40132 58008 70000 333 10024 20004 60007 91111 555 1/001 20004 3/101 50015
AAXX 12121 11423 01375 72503 10019 20007 39217 42719 56007 69901 76142 8682/ 333 69905 81807 86643 87458 9513/
BBXX UFTA 12121 99851 71231 42997 52203 11312 21344 40057 57015 85030 333 11307
AAXX 12124 67665 42580 72902 10242 20214 48494 70122 8223/ 333 58009 82822 86360
AAXX 12124 91930 36/// ///// 10250 20234 333 10315
AAXX 12124 91943 36/// /0808 10262 20203 30134 40136 56018 333 58005
AAXX 12121 89061 379// 03402 10021 21016 39696 49702 57044 72011 333 10022 21010 91005 91105
AAXX 12124 03002 17460 /2009 10047 20028 39797 49815 58018 69901 723// 91150 333 83/15 85/30
AAXX 12124 03008 16/// /2430 10055 20014 39765 49834 53002 69921 91150 333 90710 91139
AAXX 12124 03010 46/// /2232 10070 20013 49843 50004 333 90710 91144
AAXX 12124 03014 46/// /2826 10054 20023 39794 49820 55005 91150 333 8//// 90710 91133
AAXX 12124 03031 17681 /2513 10032 21014 39570 49893 50002 60031 721// 91150 333 553// 20363 84/30 85/37 90710 91125
AAXX 12124 03034 15680 /2218 10060 20015 39870 49884 57002 60021 91150 333 81/32
AAXX 12124 03037 17675 /2312 10052 20024 39879 49901 58004 69941 723// 91150 333 81/35 90710 91130
AAXX 12124 03039 46/// /2425 11016 21046 91150 333 90710 91137
AAXX 12124 03041 46/// ///// 11044 21045 91150 333 90710 91146 91041
AAXX 12124 03044 17561 /2013 10026 20010 39779 49877 50005 60011 741// 91150 333 553// 20145 81/29 83/50
AAXX 12124 03047 17684 /2110 10031 20004 39621 49922 57004 60031 723// 91150 333 553// 20234 86/36 83/50
AAXX 12124 03062 15982 /2009 10034 20009 39888 49893 50000 60021 91150 333 553// 20418 8//99
AAXX 12124 03065 46/// /2436 11045 21050 91150 333 90710 91152 91047
AAXX 12124 03068 12586 22314 10044 20001 39883 49892 57001 60001 81803 91150 333 81820
AAXX 12124 03072 46/// ///// 11028 21029 91150 333 91000
AAXX 12124 03080 15981 /2311 10047 21008 39733 49902 50000 69901 91150 333 8//99
AAXX 12124 03088 15381 /2609 10033 20018 39753 49915 51007 69921 91150 333 553// 20499 83/09 90710 91129
AAXX 12124 03094 15985 /1804 10039 21009 39887 49892 50005 60001 91150 333 8//99
AAXX 12124 03105 17966 /2215 10058 20029 39920 49937 57009 60011 723// 91150 333 82/58
AAXX 12124 03132 15977 /2314 10058 20035 39953 49966 58005 60001 91150 333 81/60
AAXX 12124 03144 15784 /2211 10045 20024 39889 49931 58003 60031 91150 333 553// 20339 81/50
AAXX 12124 03148 46/// /2414 10001 21009 91150
AAXX 12124 03153 15481 /2416 10058 20032 39830 49966 58002 60001 91150 333 553// 20528 86/12
AAXX 12124 03155 16481 /2318 10040 20031 39651 49947 58003 60011 91150 333 87/15 90710 91126
AAXX 12124 03158 15584 /2315 10037 20022 39813 49949 50008 60001 91150 333 553// 20532 82/26
AAXX 12124 03210 16470 /2415 10067 20042 39831 49981 50001 69961 91150 333 85/17 84/35 90710 91125
AAXX 12124 03212 17581 /3004 10062 20044 39880 49978 50000 60021 723// 91150 333 84/25 86/32
AAXX 12124 03214 15473 /2516 10079 20041 39970 49988 50001 60001 91150 333 81/19 90710 91126
AAXX 12124 03220 16480 ///// 10063 20043 39936 49970 58001 60001 91150 333 82/18
AAXX 12124 03224 12280 52619 10032 20026 39623 49967 50001 6///1 85100 91150 333 82704 85820 90710 91126
AAXX 12124 03225 16573 /2313 10046 20023 39678 49983 50003 60011 91150 333 553// 20378 82/25 84/33
AAXX 12124 03226 17476 /2612 10050 20030 39704 49978 58002 69921 723// 91150 333 82/16 83/26
AAXX 12124 03227 46/// /2530 11007 2//// 91150 333 90710 91135
AAXX 12124 03230 16481 /2414 10042 20015 39709 49964 50005 60001 91150 333 81/13 85/16
AAXX 12124 03238 15476 /2512 10057 20025 39790 49962 52006 69901 91150 333 87/17 90710 91127
AAXX 12124 03261 11581 22516 10063 20027 39954 49995 51004 69921 71586 82800 91150 333 82822
AAXX 12124 03265 15981 /2413 10067 20031 39962 49992 50003 69901 91150 333 8//99
AAXX 12124 03266 12582 22410 10061 20025 39979 49996 51005 60001 82800 91150 333 81824
AAXX 12124 03275 15973 /2214 10048 20015 39785 49977 50003 60001 91150 333 8//99
AAXX 12124 03281 16/// /2112 10027 20025 69941 91150
AAXX 12124 03903 16470 /1812 10033 20020 39889 49946 58035 69921 91150 333 553// 20259 81/10 83/36
AAXX 12124 03904 17965 /1407 10033 20015 39880 49939 58033 69961 723// 91150 333 86/62
AAXX 12124 03907 15776 /1806 10041 20018 39933 49940 58021 69981 91150 333 55300 20285 81/50
AAXX 12124 03911 16076 /1607 10020 20014 39681 49955 58023 60011 91150 333 81/01
AAXX 12124 03915 16973 /1609 10026 20026 39870 49949 58020 69961 91150 333 8//99
AAXX 12124 03916 16784 /2306 10030 20016 39760 49950 58009 69941 91150 333 553// 20331 81/56
AAXX 12124 03923 15274 /2010 10019 20011 39764 49961 58021 69901 91150 333 85/04
AAXX 12124 67665 42580 72902 10242 20214 48494 70122 8223/ 333 58009 82822 86360
AAXX 12124 03301 16577 /2315 10069 20045 39934 40007 58011 69961 91150 333 84/22
AAXX 12124 03305 15580 /2321 10056 20013 39749 40010 58010 60021 91150 333 87/23 83/38 90710 91133
AAXX 12124 03313 16982 /2306 10065 20027 39917 40011 58004 60021 91150 333 8//99
AAXX 12124 03316 15562 /2418 10077 20034 39995 40006 50000 60011 91150 333 81/25 90710 91127
AAXX 12124 03318 16/// /2419 10064 20043 60001 91150 333 90710 91128
AAXX 12124 03321 16582 /2410 10078 20034 30004 40016 58002 60031 91150 333 553// 20713 81/27
AAXX 12124 03330 15566 /2312 10035 20030 39664 40026 52002 69941 91150 333 81/22
AAXX 12124 03344 17472 /2414 10045 20019 39680 49997 50002 69921 723// 91150 333 81/18 90710 91126
AAXX 12124 03346 16/// /2517 10046 20021 69941 91150 333 90710 91128 91027
AAXX 12124 03348 15681 /2214 10063 20030 39909 40016 50001 69921 91150 333 55308 20655 81/39
AAXX 12124 03355 15980 /2413 10064 20027 39989 40000 50002 69901 91150 333 55307 20568 8//99
AAXX 12124 03373 16968 /2215 10053 20029 39944 40014 50004 69921 91150 333 8//99
AAXX 12124 03379 12475 12417 10063 20026 39944 40021 50002 60001 81101 91150 333 81816
AAXX 12124 03382 15978 /2208 10058 20031 39990 49998 50001 60001 91150 333 55310 20667 8//99
AAXX 12124 03385 42580 12115 10057 20030 30004 40014 50009 81500 91150 333 81625
AAXX 12124 03391 12481 12311 10062 20027 30017 40024 50005 60001 81130 91150 333 81818
AAXX 12124 03392 16973 /2115 10059 20037 30020 40024 50005 60001 91150 333 8//99
AAXX 12124 03405 16572 /2322 10077 20025 39905 40020 58011 60001 91150 333 553// 20670 84/27 90710 91128
AAXX 12124 03409 16/// /2512 10059 20023 69921 91150 333 55301 2////
AAXX 12124 03410 16469 /2313 10046 20029 39586 40020 58001 69981 91150 333 553// 20415 85/19
AAXX 12124 03469 15979 /2113 10062 20035 30028 40031 50008 60001 91150 333 553// 20755 8//99
AAXX 12124 03488 15977 /2318 10056 20025 30005 40031 51013 60001 91150 333 8//99 90710 91126
AAXX 12124 03503 15967 /2108 10082 20024 39956 40032 58009 69901 91150 333 8//99
AAXX 12124 03507 15674 /2212 10041 20023 39672 40044 58006 69921 91150 333 82/30
AAXX 12124 03520 16670 /2309 10075 20030 39922 40042 50001 69921 91150 333 553// 20785 81/39
AAXX 12124 03522 15973 /2308 10087 20014 39956 40048 58001 60001 91150 333 82/58
AAXX 12124 03529 15963 /2310 10079 20034 30007 40049 50000 60001 91150 333 8//99
AAXX 12124 03544 15969 /2206 10066 20025 39914 40044 51007 60001 91150 333 553// 20743 8//99
AAXX 12124 03560 15975 /2313 10065 20029 39942 40045 50005 60001 91150 333 553// 20812 8//99 91023
AAXX 12124 03604 16580 /2411 10088 20030 39982 40036 58015 60001 91150 333 83/29 85/46 91021
AAXX 12124 03605 12662 72523 10091 20038 30036 40044 58009 69941 81232 91150 333 81834 84075 90710 91128
AAXX 12124 03609 16/// /2422 10093 20038 39998 40050 58010 60001 91150 333 90710 91131
AAXX 12124 03628 17676 /2111 10065 20045 39989 40061 50001 60021 723// 91150 333 55301 20375 81/40 84/45 90710 91125
AAXX 12124 03647 16465 /2316 10054 20039 39796 40051 51004 69921 91150 333 553// 20795 83/10
AAXX 12124 03658 12580 12009 10069 20035 39996 40066 50009 60001 81800 91150 333 81828
AAXX 12124 03660 15668 /2306 10051 20032 39818 40067 51013 60001 91150 333 82/30
AAXX 12124 03672 12581 12411 10076 20023 30027 40067 50008 60001 81801 91150 333 81820
AAXX 12124 03684 15980 /2414 10059 20029 39951 40057 50011 60001 91150 333 8//99
AAXX 12124 03693 16980 /2410 10075 20037 30065 40067 51013 60001 91150 333 8//99
AAXX 12124 03707 15572 /2011 10077 20046 30054 40061 58008 60021 91150 333 81/28 83/35
AAXX 12124 03710 16375 /2314 10044 20036 39645 40067 58006 60011 91150 333 553// 2//// 83/09 84/50
AAXX 12124 03743 12581 12410 10071 20027 39912 40072 50005 60001 81804 91150 333 81825
AAXX 12124 03749 12682 12412 10073 20025 39965 40076 51005 60001 81578 91150 333 81635
AAXX 12124 03761 12580 12214 10067 20030 39928 40072 50007 60021 81801 91150 333 55310 20853 81822
AAXX 12124 03768 16964 /2412 10074 20034 39996 40075 50011 69921 91150 333 8//99
AAXX 12124 03769 15980 /2207 10078 20043 39996 40078 50011 60001 91150 333 55310 20567 8//99
AAXX 12124 03770 16/// ///// 10083 20038 60001 91150
AAXX 12124 03781 15977 /2310 10069 20034 39868 40074 50011 60001 91150 333 553// 20823 8//99
AAXX 12124 03797 15979 /2516 10069 20026 30016 40076 51016 60001 91150 333 55310 20886 8//99
AAXX 12124 03823 17560 /2315 10067 20046 39831 40073 58012 60011 781// 91150 333 553// 20637 82/24 83/50
AAXX 12124 03839 16/// ///// 10083 20039 69941 91150 333 553// 20763
AAXX 12124 03857 15568 /2625 10094 20045 30022 40085 50002 60001 91150 333 81/26 84/56 90710 91132
AAXX 12124 03862 15978 /2513 10092 20038 30069 40081 50002 60001 91150 333 55310 20886 8//99 90710 91129 91023
AAXX 12124 03866 16/// /2624 10102 20042 30058 40083 50005 60001 91150 333 90710 91130
AAXX 12124 03872 15980 /2516 10093 20044 30078 40083 50009 60001 91150 333 553// 20908 8//99
AAXX 12124 03876 16/// /2606 10089 20053 30084 40086 50011 60001 91150
AAXX 12124 03895 41580 52316 10089 20058 40120 50007 72581 85901 333 82922 84647 90710 91131
AAXX 12124 03894 11580 42518 10093 20043 40114 50003 69931 71581 83901 333 81920 90710 91128
AAXX 12124 78384 11460 60612 10249 20232 40147 69912 71680 84801 333 10294 20238 58011 79995 84816 90919
AAXX 12124 78383 11460 70710 10253 20209 40149 60022 70082 83202 333 10290 20242 58008 70022 83814 84070 90999
BBXX KAOU 12124 99078 10984 43/// /0215 10278 20217 40090 5//// 7//// 8//// 222// 04303 2//// 3//// 4//// 5//// 6//// 8//// ICE /////
BBXX NWS0029 12124 99153 70243 43/// /0719 10246 20188 40148 5//// 7//// 8//// 222// 04252 2//// 3//// 4//// 5//// 6//// 8//// ICE /////
BBXX NWS0020 12124 99371 10237 43/// /2216 10172 20139 40225 5//// 7//// 8//// 222// 04191 2//// 3//// 4//// 5//// 6//// 8//// ICE /////
BBXX WYR4481 12124 99471 70908 41/98 71814 10017 40199 70301 22253 20302
BBXX WE3592 12124 99475 70875 41/// 82218 10027 2//// 40207 5//// 70222 8//// 22223 00050 2//// 3//// 4//// 5//// 6//// 8//// ICE /////
BBXX ZCDA9 12123 99204 71534 41298 80826 10224 20209 40163 58011 70222 886// 22264 00253 20103 310// 40304 5//// 80214
BBXX WKAB 12124 99403 70713 41/98 /3104 10060 20027 40356 55002 7//// 8//// 22225 00131 2//// 3//// 4//// 5//// 6//// 80045 ICE /////
BBXX C6FM8 12124 99263 70789 41494 41625 10250 20175 40210 54/// 7//// 842// 22232 0//// 21000 3//// 41000 51000 6//// 80200 ICE /////
BBXX ZCDF4 12123 99089 70795 41698 63212 10244 20237 40108 53009 70111 83552 22200 00270 20201 315// 40301 5//// 80239
BBXX NWS0003 12124 99627 71670 43/// /2114 11013 21022 49865 5//// 7//// 8//// 222// 05016 2//// 3//// 4//// 5//// 6//// 8//// ICE /////
BBXX C6FM5 12124 99136 70941 41999 /3527 10260 2025/ 40100 56/// 7//// 8//// 22274 04280 21204 332// 4//// 5//// 6//// 85250 ICE /////
AAXX 12124 70026 NIL
AAXX 12124 70133 NIL
AAXX 12124 70174 NIL
AAXX 12124 70200 NIL
AAXX 12124 70219 NIL
AAXX 12124 70231 NIL
AAXX 12124 70261 NIL
AAXX 12124 70267 NIL
AAXX 12124 70271 NIL
AAXX 12124 70273 NIL
AAXX 12124 70308 NIL
AAXX 12124 70316 NIL
AAXX 12124 70326 NIL
AAXX 12124 70340 NIL
AAXX 12124 70350 NIL
AAXX 12124 70361 NIL
AAXX 12124 70381 NIL
AAXX 12124 70398 NIL
AAXX 12124 70414 NIL
AAXX 12124 78526 NIL
AAXX 12124 78543 NIL
BBXX 46089 12121 99459 71258 46/// /0308 10078 20018 40235 50003 91150 22200 00096 11305 20403 330// 41305 70027 333 91210 555 11089 22094 31050 40211 61149 027084 026088 026079 024081 025087 027086
BBXX 46042 12121 99368 71224 46/// /3501 10097 40080 58017 91150 22200 00113 11604 327// 41604 70019 333 91201 555 11009 22009 31107 40502 61149 352009 007008 070008 064008 050013 031012
BBXX 44060 12121 99413 70721 46/// ///04 10031 40364 54000 91200 22200 00104 333 91205 555 11036 22041
BBXX 44008 12121 99405 70692 46/// /0302 10067 20012 40367 52003 91150 22200 00125 10901 314// 40901 70006 333 91203 555 11019 22020 31143 40403 61149 033019 021014 014017 344010 344011 342010
BBXX 44022 12121 99409 70737 46/// ///02 10023 21039 40361 54000 91200 22200 00091 333 91203 555 11021 22021
BBXX 42362 12121 99278 70907 46/// /0507 10189 20156 40241 53004 91200
BBXX 42363 12121 99282 70892 46/// /0711 10194 20156 40241 53007 91200 333 91211
BBXX 42364 12121 99291 70881 46/// /0506 10183 20156 40247 53003 91200
BBXX 44011 12121 99411 70666 46/// /2002 10063 21001 40376 53006 91150 22200 00099 10602 20401 3//// 40602 70009 333 91203 555 11024 22024 31131 40303 61149 201022 195023 181018 193018 201022 197021
BBXX 41046 12121 99238 70683 46/// /0607 10253 20210 40142 53011 91150 22200 00261 10904 20502 300// 40903 70020 333 91208 555 11070 22073 31144 40608 61149 057066 048057 046052 046057 052062 049062 80507 91141
BBXX 41041 12121 99142 70460 46/// /1110 10272 20224 40143 53024 91150 22200 00268 11006 20705 3//// 41003 70030 333 91212 555 11110 22118 31109 40913 61149 105103 106102 106100 103103 101096 103100 81111 91149
BBXX 46083 12121 99582 71380 46/// /2411 10060 20017 40046 53009 91150 22200 00062 11416 20806 300// 41414 70078 333 91215 555 11117 22125 31142 42415 61149 242107 237090 237089 241103 244107 250099 82412 91143
AAXX 12121 14648 11665 80000 10112 20099 30055 40175 58019 60011 70262 8357/ 333 83646 88457
AAXX 12121 14652 11/00 92021 10004 20002 37905 48464 58016 69971 74544 333 89///
AAXX 12121 14542 11409 83401 10077 20060 39963 40152 57012 60001 74244 85870 333 83814 85640 87358
AAXX 12124 64507 32460 6//// 10285 20250 3//// 40/// 86500 333 0//00 5//// 83613 85630
AAXX 12124 64510 31570 5//// 10298 20200 3//// 4//// 70144 85200 333 0//00 5//// 85820 94939 95839
AAXX 12124 64560 32460 6//// 10278 20232 39559 40091 70132 86200 333 0//00 58002 86810 94919 95839
AAXX 12124 64556 31465 6//// 10293 20208 39516 40094 70142 86200 333 0//00 59005 86813 94929 95839
AAXX 12124 64570 31460 43403 10289 20232 39599 40100 70242 84100 333 0//00 59011 84813 94919 85839
AAXX 12121 26554 42460 72203 10000 21024 30021 40188 58003 876// 333 86712 91110 555 11000
AAXX 12121 26666 42460 82402 10012 21014 39984 40203 54000 886// 333 88711 555 1/000
AAXX 12121 26850 42360 81903 11007 21023 39926 40205 57011 885// 333 88709 555 14100
AAXX 12121 26863 41359 82104 11004 21019 39973 40215 58003 71022 886// 333 88707 555 1/100
AAXX 12121 26941 41956 71503 10024 21019 39943 40184 57028 71022 85031 555 11002
AAXX 12121 26951 42560 81803 10013 21009 30005 40208 58020 82502 555 11001
AAXX 12121 33008 42562 71603 10019 21027 39983 40164 57023 87500 555 11001
AAXX 12121 33019 42960 20702 10033 21021 30015 40192 57024 80001 555 12002
AAXX 12121 33036 42970 32101 10023 21033 39999 40239 58010 80001 555 1/102
AAXX 12121 33041 42960 22004 10011 21024 30083 40243 58006 80004 555 1/101
AAXX 12124 78255 12559 30302 10208 20193 30016 40165 52010 60004 83800 333 20208 82820
AAXX 12124 78317 NIL
AAXX 12124 78318 NIL
AAXX 12124 78325 NIL
AAXX 12124 78333 NIL
AAXX 12124 78338 NIL
AAXX 12124 78348 NIL
AAXX 12124 78349 NIL
AAXX 12124 78353 NIL
AAXX 12124 78360 NIL
AAXX 12124 78367 NIL
AAXX 12124 78369 NIL
AAXX 12123 91551 NIL
AAXX 12123 91553 NIL
AAXX 12123 91554 31598 70000 10260 20251 40097 51007 70222 878// 333 10305 569// 58002 83820 87640
AAXX 12123 91555 11598 81210 10253 20243 40103 51006 60151 78068 8697/ 333 10309 5639/ 58004 60151 85820 81925 88461
AAXX 12123 91557 31598 20804 10250 20241 40085 51006 70212 82800 333 10/// 562// 58004 82825
AAXX 12123 91565 31598 10000 10260 20246 40104 52010 70111 81200 333 10315 569// 58003 81822
AAXX 12123 91568 31598 20000 10235 20228 40120 51008 70121 82100 333 10310 569// 58005 82825
AAXX 12124 91165 NIL
AAXX 12124 91182 NIL
AAXX 12124 91190 NIL
AAXX 12124 91212 NIL
AAXX 12124 91217 NIL
AAXX 12124 91285 NIL
AAXX 12124 91317 NIL
AAXX 12124 91334 32474 80412 10280 20237 30086 40089 52010 82171 333 10294 56199 59005 70089 555 91212
AAXX 12124 91348 11474 80605 10275 20236 30061 40113 50003 60011 70282 84101 333 10300 561/9 58010 70081 555 91212
AAXX 12124 91356 32466 50508 10283 20238 30096 40103 51007 84201 333 10306 562/9 58005 84818 555 91212
AAXX 12124 91366 NIL
AAXX 12124 91369 NIL
AAXX 12124 91371 NIL
AAXX 12124 91376 32474 40811 10277 20224 30091 40095 50002 82101 333 10305 562/9 59007 70013 555 91212
AAXX 12124 91408 11473 71308 10272 20253 30052 40090 52008 60021 70282 85901 333 10317 562/9 59004 70046 555 91212
AAXX 12124 91413 32469 29906 10276 20240 30081 40107 52017 81101 333 10316 569/9 59015 70005 555 91212
AAXX 12124 91425 NIL
AAXX 12124 91434 NIL
AAXX 12124 91765 NIL
AAXX 12124 91222 NIL
AAXX 12124 91245 NIL
AAXX 12124 91323 NIL
AAXX 12124 91339 NIL
AAXX 12124 91343 NIL
AAXX 12124 91353 NIL
AAXX 12124 91442 NIL
BBXX 51000 12121 99235 71541 46/// /0711 10225 40197 58012 91150 22200 00233 11007 20805 312// 41005 70036 333 91213 555 11119 22126 31131 40714 61149 064109 063108 057112 059106 061103 063100
BBXX 51003 12121 99193 71606 46/// /0510 10236 40148 58017 91150 22200 00256 10805 20805 3//// 41202 70026 333 91213 555 11104 22110 31058 40315 61149 054100 051114 052114 045099 036118 038118
BBXX PBEN 12123 99355 10309 41/98 30000 10180 20112 40250 57010 7//22 83106 22223 20000 80140
BBXX OXKO2 12120 99375 70318 41/98 32710 10197 40302 51005 70122 8/27/ 22254 04170 20505 331// 41207 5////
BBXX DGNB 12123 99472 70119 41497 72431 10155 20071 40210 54000 70222 8776/ 22254 00163 22108 333// 42112 80110
AAXX 12123 91551 NIL
AAXX 12123 91553 NIL
AAXX 12123 91554 31598 70000 10260 20251 40097 51007 70222 878// 333 10305 569// 58002 83820 87640
AAXX 12123 91555 11598 81210 10253 20243 40103 51006 60151 78068 8697/ 333 10309 5639/ 58004 60151 85820 81925 88461
AAXX 12123 91557 31598 20804 10250 20241 40085 51006 70212 82800 333 10/// 562// 58004 82825
AAXX 12123 91565 31598 10000 10260 20246 40104 52010 70111 81200 333 10315 569// 58003 81822
AAXX 12123 91568 31598 20000 10235 20228 40120 51008 70121 82100 333 10310 569// 58005 82825
BBXX PFBF 12123 99043 31109 41398 32702 10285 20265 40080 55/// 70322 8327/ 22223 02294 2//// 3//// 4//// 5//// 80270
BBXX A8RL3 12121 99101 30798 41598 39902 10302 20247 40070 54000 70200 8/1// 22213 20000 316// 4//03 5//// 80263
AAXX 12121 13579 32670 42201 10132 20058 39382 40058 57021 84800 333 84846
AAXX 12121 11812 36/// /1107 10005 20005 39427 42737 57021
AAXX 12121 11813 11012 89901 10027 20024 39782 40136 57024 69901 72865 887// 333 88701
AAXX 12121 11816 11357 80903 10047 20026 39971 40136 57024 60001 71022 886// 333 82708 84709 88710
AAXX 12121 11819 36/// /1203 10044 20026 39922 40140 57026
AAXX 12121 11826 11458 81305 10050 20027 39934 40135 57025 60001 71022 886// 333 88713
AAXX 12121 11841 12460 89901 10018 20011 39758 40140 58024 60001 875// 333 87616
AAXX 12121 11855 12462 80908 10050 20022 39977 40144 57023 60001 886// 333 88712
AAXX 12121 11856 36/// /1109 10042 20021 39825 40146 57025
AAXX 12121 11858 12560 71205 10079 20043 39988 40139 57024 60001 84542 333 84626 85070
AAXX 12121 11867 11461 83405 10047 20014 39823 40142 57023 69901 70262 885// 333 88618
AAXX 12121 11880 11562 80902 10048 20023 39985 40158 57021 69901 70262 885// 333 88623
AAXX 12121 11900 16/// /0901 10034 20016 39824 40163 57025 69941
AAXX 12121 11903 11145 80000 10014 20014 39780 40168 57020 60021 71076 885// 333 81702 88612
AAXX 12121 11916 11/00 92220 11017 21025 37896 48402 56009 69931 74973 333 89/00 91026 91128 92983 93598
AAXX 12121 11918 12678 69901 10031 21013 39308 42744 57025 60001 85841 333 84836
AAXX 12121 11927 11465 80201 10026 20016 39902 40168 57024 69991 70262 885// 333 85615 88620
AAXX 12121 11930 11/00 93006 11044 21047 37309 47984 57015 60021 77144 333 89/00 91011
AAXX 12121 11933 11/30 89902 10026 20019 38628 48446 57020 69951 76075 875// 333 827// 83703 87613 444 27//1
AAXX 12121 11934 11365 81302 10012 20005 39321 42758 56027 69911 76062 885// 333 81706 88626
AAXX 12121 11938 11235 82307 10014 20010 39083 42757 57021 60041 76072 885// 333 84703 88630
AAXX 12121 11952 16/// /9902 10013 20010 39313 42758 57028 69921
AAXX 12121 11958 36/// /2012 11000 21004 38713 48447 57020
AAXX 12121 11968 11459 89902 10025 20013 39886 40172 57024 60011 72176 886// 333 88714
AAXX 12121 11976 11965 81602 10017 20011 39903 40172 57030 69961 72176 8807/ 333 88459
AAXX 12121 11978 11670 80000 10025 20013 30042 40175 57025 69921 70362 885// 333 88640
AAXX 12121 11993 11260 89901 10020 20020 39955 40176 57030 69931 76062 885// 333 81706 88629 93401
AAXX 12124 89642 41475 71316 11015 21068 39657 49709 58002 71522 875// 333 10002 21029 81711 87633 91133
AAXX 12124 78384 11460 60612 10249 20232 40147 69912 71680 84801 333 10294 20238 58011 79995 84816 90919
AAXX 12124 78383 11460 70710 10253 20209 40149 60022 70082 83202 333 10290 20242 58008 70022 83814 84070 90999
AAXX 12124 71805 01565 72814 11008 21060 30305 40314 51009 69901 78587 878// 333 45997 69907 85826 86640 90710 91122 93100 555 69905
BBXX WRYW 12124 99263 10349 41998 03519 10280 2019/ 40182 57009 70200 80/// 22275 00222 20304 334// 4//// 5//// 6//// 80220 ICE /////
BBXX 2AKI2 12123 99296 30473 41/97 81240 10200 20167 40135 57008 78186 89/// 22213 00252 20101 312// 40608 5//// 80180
BBXX BATFR19 12124 99007 30088 46/// /1915 10279 20227 40106 58014 22200 00274
BBXX BATFR55 12124 99110 30480 44697 31213 10282 20232 40085 70200 8//18 22222 00285 20704 314// 41104 5////
BBXX BATEU00 12124 99495 30159 46/// /1724 10029 20022 40019 53005 22243
BBXX DIJY2 12124 99263 50347 41/98 /2813 10240 20172 40140 52010 70100 8/2// 22264 00220 2//05 329// 4//06 5//// 80195
BBXX A8EH5 12121 99531 11795 41/97 81618 10050 49870 57060 758// 8/7// 22263 00054 21412 325// 4//07 5////
BBXX S6AJ8 12123 99237 11231 41398 80535 10210 2020/ 40180 5//// 70222 8865/ 22213 0//// 20505 305// 40505 5//// 6//// 80200 ICE /////
BBXX 3FZK3 12124 99512 11708 46/// /2914 11009 21035 49864 56007 7//// 8//// 22223 0//// 2////
BBXX C6SI6 12124 99378 11451 46/// /2920 10101 20038 40172 53016 7//// 8//// 22253 0//// 2////
BBXX 46070 12121 99551 11753 46/// /3603 11007 21026 49840 56005 91150 22200 00041 11107 20401 3//// 41107 70036 333 91205 555 11034 22035 31138 40205 61149 000033 004036 357034 359031 352032 347031 80104 91138
BBXX 4XFV 12123 99511 11701 43/97 92435 10025 00/// 21010 49870 54000 7//// 8//// 22264 0//// 2//// ///// 3//// 4//// 5//// 6//// 80015
BBXX A8EY7 12124 99476 11472 41/91 83410 11040 21077 40050 54000 774// 8//// 22253 2//02 3//// 4//// 5//// 82050
BBXX 5BDK2 12124 99080 50802 41497 61509 10200 2019/ 40190 52010 70300 85188 22233 00200 20501 315// 40501 5//// 6//// 80190 ICE /////
BBXX TBWUK18 12124 99252 50393 41/98 11310 10220 20189 40130 52017 70000 811// 22232 00240 20603 331// 41203 5//// 80200
BBXX WBP3210 12124 99531 50709 43/// /3014 10128 2//// 40058 5//// 7//// 8//// 22200 00080 2//// 3//// 4//// 5//// 6//// ICE /////
BBXX A8VL7 12123 99142 50367 41598 80219 10275 20226 40110 51012 76222 8772/ 22245 04270 20401 80240
BBXX 32012 12121 99197 50856 46/// ///// 1//// 91150 22200 11404 70021
BBXX 46035 12121 99571 71778 46/// /1809 1//// 49908 50005 91150 22200 11110 20604 300// 41109 70049 333 91211 555 11092 22098 31125 41812 61149 185092 193088 184098 191104 198099 194096 82111 91104
BBXX 46072 12121 99517 71722 46/// /1909 10048 20012 40043 58024 91150 22200 00053 11109 20505 3//// 41107 70044 333 91211 555 11100 22107 31122 42012 61149 189094 197090 202097 203094 206089 205094 82010 91123
BBXX 46077 12121 99579 71543 46/// /2713 10030 21003 49934 51056 91150 22200 00056 10706 20706 70028 333 91216 555 11141 22149 31112 42817 61149 266131 267136 267138 273139 278137 276134 82715 91139
BBXX BATEU04 12124 99625 70505 46/// /3408 11060 21086 49867 51013 22233
BBXX BATEU01 12124 99467 70716 46/// /2520 10017 21055 40278 51035 22253 00039
BBXX 42039 12121 99288 70860 46/// /0708 10171 40235 52006 91150 22200 00232 10603 20603 70016 333 91210 555 11085 22089 31119 40610 61149 063080 064081 056083 057084 055082 051083 80609 91120
BBXX 41040 12121 99145 70530 46/// /0908 10276 20228 40138 53019 91150 22200 00278 11105 20603 3//// 41104 70024 333 91210 555 11084 22090 31145 40910 61149 095078 095076 091076 088081 087077 087078 80909 91145
BBXX 41101 12124 99146 70562 46/// /1113 10273 20242 40122 52018 22200 00272 10804 70020
BBXX BATFR14 12124 99163 70608 44598 23205 10267 20235 40133 53016 70100 82260 22254 00274 202// 30612 410// 50802 60000 ICE 0/0//
BBXX BATFR13 12124 99244 70531 44497 81328 10252 20205 40189 53021 70222 887// 22214 00257 20404 309// 41206 5////
BBXX BAREU06 12124 99400 70371 46/// ///// 40237 52004 22264
BBXX BAREU54 12124 99165 70713 46/// ///// 40125 52013 22253
BBXX BAREU00 12124 99404 70723 46/// ///// 40357 57004 22223
BBXX VOXS 12124 99467 70480 41698 82828 11015 2104/ 40265 51018 70222 885// 22200 04025 20808 326// 40704 81026
BBXX A8JH8 12121 99290 70424 41598 20812 10230 20171 40272 52012 70200 82200 22224 00230 20502 308// 41104 80191
BBXX MHNO6 12123 99202 70649 41498 20000 10249 20205 40129 54000 70311 821// 22253 00281 20000 308// 40602 5//// 80220
BBXX 46027 12121 99419 71244 46/// /3610 10072 40129 58008 91150 22200 00094 11406 20603 329// 41405 70028 333 91212 555 11104 22110 31105 43614 61149 004099 007100 011104 011107 008113 011114
BBXX 46069 12121 99337 71202 46/// /1902 10109 40087 58014 91150 22200 00132 11503 329// 41503 70017 333 91203 555 11024 22024 31117 42004 61149 187024 192026 202028 199031 208025 205029
BBXX 46050 12121 99442 71246 46/// /0109 10064 40207 53005 91150 22200 00101 11406 20704 330// 41405 70029 333 91210 555 11093 22097 31102 40211 61149 007089 008088 012087 017089 021091 023093
BBXX 46047 12121 99324 71195 46/// /2703 10115 40089 56014 91150 22200 00153 11604 20301 328// 41604 70020 333 91204 555 11026 22026 31128 42806 61149 269026 281025 237033 178028 173028 157031
BBXX 46088 12121 99483 71232 46/// /3306 10045 40245 91150 22200 00080 1//00 70002 333 91207 555 11058 22061 31107 43308 61149 332057 333054 326054 330054 331063 337062
BBXX 46025 12121 99337 71191 46/// /1906 10124 40087 58018 91150 22200 00148 11502 321// 41502 70008 333 91208 555 11063 22065 31148 41908 61149 192055 178021 185023 183027 172017 156013
BBXX 46029 12121 99461 71245 46/// /0606 10062 21001 40229 50003 91150 22200 00076 11405 20502 328// 41405 70025 333 91208 555 11068 22071 31103 40609 61149 063065 060066 061068 055071 053070 049069
BBXX 46028 12121 99357 71219 46/// /2702 10104 40077 58018 91150 22200 00131 11603 330// 41603 70013 333 91203 555 11025 22025 31132 42805 61149 269024 272032 275033 272030 267035 281033
BBXX ZCDA9 12123 99204 71534 41298 80826 10224 20209 40163 58011 70222 886// 22264 00253 20103 310// 40304 5//// 80214
BBXX PHBO 12123 99300 70394 41598 30917 10222 20150 40299 52007 70111 83200 22254 20402 303// 41204 80179
BBXX WDD3826 12124 99354 70751 41398 73630 10160 2013/ 40353 52012 7//22 876// 22284 00220 20402 336// 40704 5//// 6//// 80140 ICE /////
BBXX DQVG 12123 99368 71580 41597 53012 10150 20092 40180 55005 70311 85566 22264 00186 21101 3//// 4//// 5//// 80120
BBXX CGDG 12124 99447 70636 46/// /2210 10031 20016 40332 56013 7//// 8//// 22272 00065 2////
BBXX VOFG 12124 99456 70614 46/// /2113 11024 21087 40326 58017 7//// 8//// 22200 0//// 2////
BBXX CGDT 12124 99490 70669 46/// /2313 11006 21041 40239 51005 7//// 8//// 22200 0//// 2////
BBXX VCWL 12124 99468 70712 46/// /2702 11012 21051 40290 51013 7//// 8//// 22200 0//// 2////
BBXX VAAP 12124 99489 70588 46/// /2424 11014 21022 40240 56035 7//// 8//// 22262 0//// 2////
BBXX VCSZ 12124 99467 70718 46/// /2315 11018 21025 40286 53047 7//// 8//// 22253 0//// 2////
BBXX CGDR 12124 99505 71276 46/// /3602 10009 20009 40265 57002 7//// 8//// 22200 0//// 2////
BBXX VOKJ 12124 99472 70527 46/// /2514 11044 21106 40296 51029 7//// 8//// 22242 0//// 2////
BBXX CGJV 12124 99454 70611 46/// /2117 11011 21053 40331 56013 7//// 8//// 22231 00066 2////
BBXX CGBR 12124 99541 71305 46/// /1322 10050 20048 40208 58029 7//// 8//// 22200 0//// 2////
BBXX CG2958 12124 99491 71233 46/// /3114 10044 20023 40262 56003 7//// 8//// 22200 0//// 2////
BBXX CGCC 12124 99460 70731 46/// /2308 11011 21059 40297 51013 7//// 8//// 22200 0//// 2////
BBXX CGDX 12124 99468 70712 46/// /1906 11007 21047 40290 51010 7//// 8//// 22200 0//// 2////
BBXX CG2965 12124 99487 71235 46/// /3406 10027 21007 40258 50000 7//// 8//// 22200 0//// 2////
BBXX CGBN 12124 99447 70636 46/// /2205 10038 21010 40320 56012 7//// 8//// 22200 0//// 2////
BBXX CGJK 12124 99484 71234 46/// /3504 10023 21012 40253 50000 7//// 8//// 22200 0//// 2////
BBXX CGTF 12124 99476 70527 46/// /1512 11044 21112 40295 53023 7//// 8//// 22200 0//// 2////
BBXX CGBY 12124 99487 71235 46/// /3305 10018 21014 40257 50000 7//// 8//// 22200 0//// 2////
BBXX VCLM 12124 99621 70747 46/// /2220 11101 21160 40126 53004 7//// 8//// 22200 0//// 2////
BBXX CZ9742 12124 99506 70969 46/// /3409 11125 21139 40295 52026 7//// 8//// 22200 0//// 2////
BBXX CGSB 12124 99468 70712 46/// /2104 11015 21053 40291 51011 7//// 8//// 22200 0//// 2////
BBXX VCRG 12124 99474 70619 46/// /2006 10009 21020 40276 57020 7//// 8//// 22200 0//// 2////
BBXX VCBW 12124 99508 70589 46/// /3502 11141 21175 40249 58011 7//// 8//// 22200 00026 2////
BBXX VAAZ 12124 99523 70508 46/// /2835 11070 21100 40119 52006 7//// 8//// 22271 0//// 2////
BBXX VOPP 12124 99456 70735 46/// /1708 10006 21062 4//// 5//// 7//// 8//// 22200 0//// 2////
BBXX 46026 12121 99378 71228 46/// /0803 10090 40084 58013 91150 22200 00109 11505 20401 329// 41505 70023 333 91204 555 11031 22032 31129 42905 61149 068030 291030 290030 292031 290031 295024
BBXX 46041 12121 99474 71247 46/// /0803 10047 40235 51006 91150 22200 00077 11405 20401 3//// 41405 70025 333 91204 555 11026 22026 31104 40604 61149 075025 061020 055024 048025 049027 059016
BBXX 44007 12121 99435 70701 46/// /2308 10030 21044 40328 54000 91150 22200 00087 10502 20502 70008 333 91210 555 11087 22091 31147 42310 61149 234083 235080 234081 236081 236083 226086
BBXX 46082 12121 99597 71434 46/// ///// 10044 20044 49899 53018 91150 22200 00064 11518 70089
BBXX UFTA 12121 99851 71231 42997 52203 11312 21344 40057 57015 85030 333 11307
BBXX 3FBC9 12124 99265 71535 41698 70824 10210 40205 56020 70311 86854 9//// 22223 00250 20406 307// 40608 5//// 6//// 80180
BBXX DBIP 12123 99286 70577 41496 81230 10230 40190 51015 7//// 887// 22223 04250 20606 3//// 4//// 5////
BBXX C6FM8 12124 99263 70789 41494 41625 10250 20175 40210 54/// 7//// 842// 22232 0//// 21000 3//// 41000 51000 6//// 80200 ICE /////
BBXX C6XP7 12123 99198 70701 41698 42605 1//// 2//// 40130 54/// 7//// 82295 22234 00270 2//// 3//// 4//// 5//// 6//// 8//// ICE /////
BBXX WKAB 12124 99403 70713 41/98 /3104 10060 20027 40356 55002 7//// 8//// 22225 00131 2//// 3//// 4//// 5//// 6//// 80045 ICE /////
BBXX 51205 12121 99210 71564 46/// ///// 1//// 91148 22200 00242 11106 20905 309// 41103 70030
BBXX 46239 12121 99363 71221 46/// ///// 1//// 91151 22200 00127 11504 21001 328// 41504 70019
BBXX 46238 12121 99334 71195 46/// ///// 1//// 91150 22200 00151 11503 21001 328// 41503 70014
BBXX VXKF 12124 99476 70591 46/// /2618 10001 21051 40281 56019 7//// 8//// 22211 0//// 2////
BBXX 46215 12121 99352 71209 46/// ///// 1//// 91138 22200 00139 11503 21001 326// 41503 70014
BBXX 46232 12121 99325 71174 46/// ///// 1//// 91138 22200 00145 11403 20901 326// 41403 70014
BBXX 46214 12121 99379 71235 46/// ///// 1//// 91157 22200 00111 11106 21005 331// 41104 70032
BBXX 46219 12121 99332 71199 46/// ///// 1//// 91158 22200 00136 11503 21001 329// 41503 70017
BBXX 46224 12121 99332 71175 46/// ///// 1//// 91136 22200 00149 11502 20901 323// 41502 70009
BBXX 46243 12121 99462 71241 46/// ///// 1//// 91159 22200 00079 11304 20803 327// 41302 70018
BBXX 46236 12121 99368 71219 46/// ///// 1//// 91150 22200 00125 11403 21001 328// 41403 70014
BBXX 46247 12121 99378 71228 46/// ///// 1//// 91151 22200 00113 11405 20803 328// 41403 70024
BBXX 46240 12121 99366 71219 46/// ///// 1//// 91142 22200 00122 11201 21001 336// 41201 70006
BBXX 46229 12121 99438 71246 46/// ///// 1//// 91151 22200 00106 10806 20805 329// 41403 70029
BBXX 46249 12121 99338 71197 46/// ///// 1//// 91145 22200 00145 11502 20901 322// 41502 70009
BBXX 46225 12121 99329 71174 46/// ///// 1//// 91144 22200 00157 11402 20201 324// 41401 70009
BBXX 44039 12121 99411 70727 46/// /2503 10047 21028 40372 91145 22200 00107 10301 70003 333 91205
BBXX 44099 12121 99369 70757 46/// ///// 1//// 91152 22200 00129 10402 20402 70011
BBXX 42099 12121 99273 70842 46/// ///// 1//// 91157 22200 00237 10603 20603 70016
BBXX 41110 12121 99341 70777 46/// ///// 1//// 91151 22200 00144 10603 20603 70014
BBXX 44100 12121 99363 70756 46/// ///// 1//// 91152 22200 00138 10503 20503 70015
BBXX 44172 12121 99445 70634 46/// ///// 1//// 91201 22200 00070 10503 20503 70013
BBXX 51101 12121 99243 71621 46/// /0710 10236 20191 40199 58013 91150 22200 00244 10906 20804 309// 40904 70028 333 91212 555 11103 22110 31130 40612 61149 066097 068098 063097 069097 067102 067102
BBXX 46061 12121 99602 71468 46/// /0807 10039 49782 53047 91150 22200 00045 11307 20603 300// 41306 70034 333 91209 555 11077 22081 31101 41409 61149 082071 095062 113058 128061 132070 140074
BBXX 41010 12121 99289 70785 46/// /0812 10227 40221 53014 91150 22200 00242 11007 20705 300// 41005 70037 333 91215 555 11130 22138
BBXX 42057 12121 99168 70815 46/// /0606 10276 20221 40130 53008 91150 22200 00277 10803 20502 3//// 40802 70015 333 91207 555 11061 22064 31101 40509 61149 058062 058068 056069 054070 051071 045068 80508 91100
BBXX 41009 12121 99285 70802 46/// /1106 10211 20198 40226 53024 91150 22200 00255 11009 20503 300// 41008 70043 333 91211 555 11064 22066
BBXX 46001 12121 99563 71480 46/// /2617 10054 40003 51043 91150 22200 00051 11418 20810 300// 41415 70090 333 91222 555 11183 22196 31059 42622 61149 258171 256173 256165 257164 260166 257173
BBXX 42055 12121 99222 70940 46/// /0307 10241 20186 40192 54000 91150 22200 00252 10903 20602 303// 40902 70014 333 91208 555 11073 22077 31140 40308 61149 031069 034061 038062 033063 035056 030053 80407 91140
BBXX 46105 12121 99590 71522 46/// ///// 1//// 91150 22200 10909 70046
BBXX 42002 12121 99258 70937 46/// /0707 10217 20173 40216 55000 91150 22200 00245 10803 20602 307// 40803 70017 333 91209 555 11071 22076 31116 40609 61149 072070 072070 070068 065069 071063 066068
BBXX 41043 12121 99211 70650 46/// /0802 10254 20217 40139 53014 91150 22200 00266 11004 20401 300// 41004 70022 333 91204 555 11024 22024 31059 40704 61149 078024 070025 071024 060027 063029 054031 80504 91054
BBXX 44066 12121 99396 70726 46/// /0204 10073 20016 40359 55000 91150 22200 00139 10701 3//// 40701 70006 333 91205 555 11036 22037 31137 40205 61149 016035 009037 008039 004034 016037 011037
BBXX 41036 12121 99342 70770 46/// ///// 10136 20113 40288 55000 91150 22200 00216 10604 70018
BBXX 41047 12121 99275 70715 46/// /0512 10235 40190 52005 91150 22200 00254 10907 20705 308// 40904 70033 333 91214 555 11116 22123 31128 40417 61149 050119 044120 042131 040121 040119 043124 80516 91128
BBXX NWS0022 12124 99416 70714 43/// /2304 10020 21023 40355 5//// 7//// 8//// 222// 04132 2//// 3//// 4//// 5//// 6//// 8//// ICE /////
BBXX 42019 12121 99279 70954 46/// /1108 10193 20150 40215 56007 91150 22200 10703 20703 311// 40801 70015 333 91210 555 11090 22096 31055 42811 61149 109085 281083 283082 282083 282082 281088
BBXX 42040 12121 99292 70882 46/// /0608 10177 40243 53007 91150 22200 00222 10703 20703 70016 333 91210 555 11080 22083 31057 40612 61149 054081 059082 055090 053095 048102 049103
BBXX 42003 12121 99260 70856 46/// /1206 1//// 91150 22200 10703 20401 306// 40703 70015 333 91207 555 11059 22062 31146 41207 61149 120054 119049 117044 123042 135046 134047 81206 91146
BBXX 44005 12121 99432 70691 46/// /2310 10065 21006 40332 53006 91150 22200 00089 10604 20604 70021 333 91213 555 11107 22113 31133 42413 61149 232102 233105 232106 233107 231107 232106
BBXX 42059 12121 99151 70675 46/// /0904 10275 20224 40124 53018 91150 22200 00285 10802 20301 3//// 40802 70009 333 91205 555 11040 22041 31100 40805 61149 087038 089037 083039 084037 083037 083038 80804 91100
BBXX 42056 12121 99198 70849 46/// /0608 10265 20225 40155 53008 91150 22200 00274 10703 20703 70016 333 91209 555 11083 22087 31129 40510 61149 057079 052077 051078 052077 057073 057074 80509 91129
BBXX 41001 12121 99347 70727 46/// ///// 10191 20093 40288 52003 91150 22200 00223 10704 70019
BBXX 42020 12121 99270 70967 46/// /1211 10225 20171 40193 57005 91150 22200 00237 10704 20704 309// 40801 70019 333 91213 555 11114 22121 31144 41113 61149 117107 117104 116104 117105 119101 118105
BBXX 42065 12121 99149 70750 46/// /0608 10272 20236 91150 22200 10703 20602 3//// 40702 70014 333 91209 555 11080 22085 31125 40610 61149 055076 053081 061080 062077 057078 054077 80609 91126
BBXX 42035 12121 99292 70944 46/// /0807 10129 20092 40244 55000 91150 22200 00153 10502 20502 306// 41101 70009 333 91208 555 11072 22075 31149 40708 61149 081067 082064 083066 084066 079066 077065
BBXX 41044 12121 99217 70587 46/// /1408 10258 20221 40141 52013 91150 22200 00267 11105 20703 300// 41105 70027 333 91210 555 11083 22087 31101 41410 61149 142078 147075 146070 151073 144078 146079 81508 91137
BBXX 46054 12121 99342 71204 46/// /1802 10113 40088 57011 91150 22200 00140 11603 300// 41603 70016 333 91203 555 11018 22019 31123 41904 61149 175018 177025 179029 183025 196026 194026
BBXX 46011 12121 99350 71210 46/// /2902 10099 40086 57015 91150 22200 00135 11503 330// 41503 70016 333 91204 555 11025 22025 31117 42807 61149 292024 288033 283050 286045 303015 298009
BBXX 46086 12121 99325 71180 46/// /1906 10130 40090 56021 91150 22200 00156 11603 20501 328// 41603 70014 333 91207 555 11061 22063 31143 42007 61149 189058 183060 172045 158043 144040 152042
BBXX 46087 12121 99485 71247 46/// /0804 10053 21003 40249 50000 91150 22200 00078 11404 20401 328// 41404 70018 333 91205 555 11045 22046 31140 40805 61149 076043 084042 079041 068028 053026 060031
BBXX 46013 12121 99382 71233 46/// /0803 10085 40089 58010 91150 22200 00106 11505 20401 3//// 41505 70026 333 91205 555 11031 22032 31149 40805 61149 080029 088032 076032 080032 066028 044024
BBXX 46053 12121 99342 71198 46/// /1505 10120 40082 58016 91150 22200 00145 333 91206 555 11050 22052 31140 41406 61149 149048 140037 128035 120026 101022 094028
BBXX 46014 12121 99394 71240 46/// /0404 10073 40096 56009 91150 22200 00104 11007 20401 3//// 41007 70037 333 91204 555 11037 22038 31149 40207 61149 038037 038044 035044 042045 043048 029057
BBXX 46012 12121 99374 71229 46/// /0401 10094 40081 58016 91150 22200 00120 11505 20401 328// 41505 70024 333 91202 555 11010 22010 31107 40603 61149 035010 023007 036010 044010 043013 017009
BBXX 46088 12121 99483 71232 46/// /3306 10045 40245 54000 91150 22200 00080 1//00 70002 333 91207 555 11058 22061 31107 43308 61149 332057 333054 326054 330054 331063 337062
BBXX 44027 12121 99443 70673 46/// /2312 10070 20013 40312 54000 91150 22200 00089 10705 20705 70024 333 91214 555 11125 22132 31130 42314 61149 230118 234115 233110 233107 237110 238111
BBXX 44014 12121 99366 70748 46/// /0409 1//// 40322 56006 91150 22200 00150 10803 20402 309// 40801 70013 333 91210 555 11089 22089 31134 40311 61149 040090 035092 039088 040087 038087 037091
BBXX 41004 12121 99325 70791 46/// /0213 10154 20136 40270 53004 91150 22200 00206 10905 20605 3//// 40902 70025 333 91215 555 11139 22147 31056 40217 61149 019130 019134 016139 012139 010138 007135
BBXX 44040 12121 99410 70736 46/// /1903 10027 21025 40369 91145 22200 1//00 70000 333 91204 555 11041 22046
BBXX 41008 12121 99314 70809 46/// /0211 10137 20134 40271 53017 91150 22200 00170 10705 20705 300// 40902 70026 333 91214 555 11119 22125 31052 40215 61149 023113 024114 024111 028108 024121 024126
BBXX 44065 12121 99404 70737 46/// /2601 10041 21051 40362 54000 91150 22200 00102 10801 309// 40801 70005 333 91202 555 11011 22011 31051 43104 61149 263011 276013 273014 270023 279021 299024 83004 91052
BBXX 44025 12121 99402 70732 46/// /3001 10055 21015 40360 55000 91150 22200 00115 10701 308// 40701 70005 333 91202 555 11011 22011 31057 43403 61149 295012 279020 305017 307017 336020 300019
BBXX 44020 12121 99414 70702 46/// /2505 10064 21002 40357 54000 91150 22200 00087 10301 20301 70003 333 91205 555 11048 22051 31050 42506 61149 248044 259046 258048 258046 257047 256048
BBXX 44009 12121 99385 70747 46/// /0305 10073 40362 56003 91150 22200 00122 10801 20401 300// 40801 70006 333 91206 555 11051 22052 31143 40406 61149 029048 035045 030037 021042 020038 018041
BBXX 41013 12121 99334 70777 46/// /0211 10155 20140 40280 53007 91150 22200 00211 10705 20704 304// 41401 70023 333 91214 555 11120 22126 31149 40214 61149 020113 022110 024109 026112 028110 029113
BBXX ZCDF4 12123 99089 70795 41698 63212 10244 20237 40108 53009 70111 83552 22200 00270 20201 315// 40301 5//// 80239
BBXX C6FM5 12124 99136 70941 41999 /3527 10260 2025/ 40100 56/// 7//// 8//// 22274 04280 21204 332// 4//// 5//// 6//// 85250 ICE /////
BBXX WDC6698 12124 99089 71471 43/// /0706 10268 2//// 40100 5//// 7//// 8//// 222// 04266 2//// 3//// 4//// 5//// 6//// 8//// ICE /////
BBXX 42060 12121 99163 70635 46/// /1101 10275 20226 40131 53018 91150 22200 00282 10902 20401 300// 40902 70008 333 91202 555 11011 22012 31052 41503 61149 113011 123014 125008 122011 148007 163016 81502 91052
BBXX 42036 12121 99285 70845 46/// /0510 10177 20165 40225 53006 91150 22200 00217 10603 20603 70015 333 91212 555 11104 22109 31134 40512 61149 049097 045102 048101 050101 050101 049104
BBXX 42058 12121 99149 70749 46/// /0607 10271 20235 40106 53014 91150 22200 00277 10603 20602 304// 41001 70014 333 91209 555 11073 22077 31147 40609 61149 061068 053068 065065 069068 071070 074067 80708 91147
BBXX 42001 12121 99259 70897 46/// /1003 10239 20187 40222 53010 91150 22200 00238 10804 20401 3//// 40804 70020 333 91204 555 11034 22037 31052 41006 61149 099032 103032 098037 098039 094041 095042
BBXX 41048 12121 99320 70696 46/// /0712 10210 20166 40240 53005 91150 22200 00229 10806 20605 3//// 40804 70030 333 91214 555 11116 22123 31136 40616 61149 069118 062128 062123 065128 058127 055120 80614 91136
BBXX 41012 12121 99300 70805 46/// /0815 10207 40226 51017 91150 22200 00242 333 91218 555 11161 22171 31106 40918 61149 082149 082147 080152 080140 086141 081138
BBXX 46084 12121 99566 71361 46/// /2309 10070 20031 40096 55000 91150 22200 00074 11212 20705 300// 41210 70058 333 91211 555 11091 22096 31058 42513 61149 229085 231083 231090 230101 232095 232099
BBXX 42012 12121 99301 70876 46/// /0508 10122 20114 40256 52006 91150 22200 00189 10602 20602 70012 333 91210 555 11083 22086 31129 40510 61149 052080 051080 047083 049085 046083 043081
BBXX 41049 12121 99275 70630 46/// /1006 10245 20207 40163 53011 91150 22200 00247 11106 20502 300// 41105 70028 333 91207 555 11061 22064 31127 41008 61149 104059 099060 094064 097054 089043 081040 80907 91128
BBXX 46080 12121 99580 71500 46/// /2618 10045 21004 49920 51064 91150 22200 00053 11415 20910 3//// 41410 70073 333 91223 555 11194 22207 31120 42725 61149 261180 263192 264191 264190 262184 260184 82621 91134
BBXX 46005 12121 99461 71310 46/// ///05 10072 40277 56004 91150 22200 00099 11304 20401 3//// 41304 70019 333 91206 555 11048 22049
BBXX 46075 12121 99539 71608 46/// /2511 10048 20000 40085 51025 91150 22200 00050 11009 20605 300// 41008 70047 333 91214 555 11116 22123 31050 42515 61149 250108 253094 255098 252099 252102 242108 82512 91051
BBXX 46059 12121 99380 71300 46/// /0114 10108 40211 56012 91150 22200 00145 10908 20606 3//// 40905 70039 333 91218 555 11154 22163 31143 40118 61149 007144 000131 359135 358131 358125 355130
BBXX 46006 12121 99408 71375 46/// /2101 10097 40304 58019 91150 22200 00124 11103 20401 3//// 41103 70017 333 91202 555 11008 22008 31139 42002 61149 206008 205009 211007 199002 180001 133002
BBXX 46002 12121 99426 71305 46/// ///// 10097 40254 57003 91150 22200 00120 10806 70028
BBXX LAJS6 12124 99500 71534 41698 32618 10050 2003/ 40200 51010 70211 832// 22224 00060 21005 329// 41304 80040
BBXX OUJI2 12124 99527 71522 43/// /2432 10040 2//// 40240 5//// 7//// 8//// 22211 0//// 2//// 3//// 4//// 5//// 6//// ICE /////
BBXX SHIP 12124 99316 71739 41598 82415 10210 2020/ 40260 54000 70222 88470 22223 00230 2//// 315// 4//// 5//// 6//// 80200 ICE 0////
BBXX WCX8884 12124 99375 71248 41497 83540 10110 2005/ 40112 57037 70322 888// 22235 00059 21011 335// 41212 5//// 6//// 80080 ICE /////
BBXX WCX7445 12124 99647 50640 43/// /2002 10026 2//// 49651 5//// 7//// 8//// 22200 01001 2//// 3//// 4//// 5//// 6//// ICE /////
BBXX WQVY 12124 99354 70129 41798 43305 10170 2014/ 40285 50000 70110 83181 22264 0//// 20201 303// 40706 5//// 6//// 80150 ICE /////
BBXX VRYO3 12124 99479 70308 46/// /2720 10071 20081 40044 53013 7//// 8//// 22224 00121 2////
BBXX DBBC 12121 99535 10086 46/// /2304 10067 2//// 40002 52008 22260 00458
BBXX DBEB 12121 99539 10079 41/// /2412 10065 20064 49988 52009 7//// 22221 00070
BBXX DBKR 12121 99541 10121 46/// /1803 10047 20047 40006 57020 22200 00052
BBXX DBBA 12121 99536 10086 46/// ///// 10066 20066 49999 52007 22210 00054
BBXX DBFH 12121 99538 10072 46/// /2913 10084 20044 49998 52019 22222 00075
BBXX WYR4481 12124 99471 70908 41/98 71814 10017 40199 70301 22253 20302
BBXX CG2960 12124 99453 70800 46/// /2106 10031 20009 40288 53001 7//// 8//// 22200 0//// 2////
BBXX CG2350 12124 99433 70798 46/// /2207 10003 21036 40318 51004 7//// 8//// 22200 0//// 2////
BBXX 45008 12121 99443 70824 46/// /2307 10021 30071 40291 53007 91150 22200 00064 10603 20603 3//// 40901 70013 333 91209 555 11068 22071 61149 229065 233067 239068 241074 243087 243092
BBXX CGDS 12124 99447 70755 46/// /2014 11001 21073 4//// 5//// 7//// 8//// 22200 0//// 2////
BBXX ZCBH7 12124 99007 31074 41/98 /2210 10275 20255 40123 54000 7//// 8/8// 22253 20000 3//// 4//// 5//// 80261
BBXX BATEU07 12124 99340 31512 46/// /2022 10175 40071 22232
BBXX BATFR08 12124 99494 30702 46/// /1011 10069 20024 40127 56006 22200 00072
BBXX BATFR47 12124 99301 51451 46/// /1111 10202 20144 40195 56015 22262
BBXX BATFR56 12124 99054 30791 46/// /2707 10287 20237 40076 55007 22253 00299
BBXX BATFR59 12124 99220 31685 46/// /0411 10269 20242 40119 50006 22211 00269
AAXX 12124 78016 11464 70616 10215 20191 30213 40217 52007 60011 72582 86730 333 10215 20191 70004 90916
AAXX 12121 13579 32670 42201 10132 20058 39382 40202 57021 84800 333 84846
AAXX 12124 16168 11/00 92025 10110 20109 39402 42766 58016 60001 74544 333 89/00
AAXX 12124 16021 11/03 91806 11006 21009 37935 48454 58007 60001 74542
AAXX 12124 16022 11/00 91710 11018 21018 37794 48435 56016 69901 77174 333 55300 89/00 92802 93192
AAXX 12124 16033 12568 83002 10020 21011 38739 48449 57015 60001 885// 333 88630 92822
AAXX 12124 16040 11556 80000 10052 20048 39214 42746 57018 69901 76062 885// 333 88628
AAXX 12124 16052 11/03 92315 11090 21101 36544 47964 57009 60001 77042 333 55300 89/03 93199
AAXX 12124 16061 11650 53304 10056 20056 39305 42758 57005 60001 71022 82230 333 55306 82640 83362
AAXX 12124 16098 11425 80000 10090 20074 30087 40138 57014 60011 76162 885// 333 84710 86620
AAXX 12124 16138 11406 80000 10072 20063 30128 40139 58021 69981 74264 886// 333 88710
AAXX 12124 16148 11208 80000 10074 20057 30131 40143 57019 60021 76164 887// 333 55300 84704 85625
AAXX 12124 16168 NIL
AAXX 12124 16172 11215 81715 10110 20107 39853 40150 57017 60111 76166 882// 333 83704 87617
AAXX 12124 16179 11465 82014 10110 20101 39456 42757 57021 60041 76062 8527/ 333 85819 83356
AAXX 12124 16224 11358 71610 10140 20109 39834 40148 58007 60001 71096 87800 333 55300 82708 84812
AAXX 12124 16232 11598 62304 10172 20089 30099 40152 58014 60011 70262 83270 333 55301 83825 84357 555 0214/
AAXX 12124 16245 11475 52110 10166 20128 30127 40153 58016 60121 70391 83801 333 82815 83630
AAXX 12124 16253 12460 52209 10170 20123 30166 40178 58012 60091 85901 333 55305 81918 84820
AAXX 12124 16258 12568 32209 10110 20064 39189 42792 55002 60001 81501 333 81620
AAXX 12124 16263 12270 62510 10090 20054 38922 48491 57011 60001 84530 333 84605 85356
AAXX 12124 16294 NIL
AAXX 12124 16337 NIL
AAXX 12124 16344 NIL
AAXX 12124 16434 12265 31906 10122 20079 39007 48516 58004 60001 83200 333 83805 95070 95100
AAXX 12124 16450 11364 42404 10134 20097 39105 48576 58006 60001 70241 84200 333 84809
AAXX 12124 16459 12564 53206 10202 20119 30161 40195 57020 60001 85240 333 85830 83358
AAXX 12124 16546 11459 62606 10190 20130 30151 40179 58005 69981 71062 85230 333 82815 83640
AAXX 12124 16564 12498 32516 10184 20124 30034 40173 58003 60001 83400 333 82818 83630 555 0400/
AAXX 12124 13600 NIL
AAXX 12124 13610 11758 60000 10128 20097 39782 40203 57012 60031 71022 86500 333 86650
AAXX 12124 13611 11560 81410 10172 20117 30094 40184 57013 60021 76062 883// 333 82923 83633
AAXX 12124 13619 11660 60000 10094 20087 39455 42838 57010 60041 70166 86500 333 86640
AAXX 12124 13622 12665 61804 10192 20092 30177 40185 57013 60001 86500 333 86640
AAXX 12124 13624 12765 70416 10214 20065 30148 40186 57012 60001 86450 333 86650
AAXX 12124 13625 11770 81406 10145 20115 39998 40228 54002 60011 76166 885// 333 88650
AAXX 12124 13629 12664 62206 10124 20071 39159 42806 57010 60001 86500 333 86640
AAXX 12124 13601 12664 81402 10188 20079 30070 40168 57019 60001 8652/ 333 86640
AAXX 12124 13602 NIL
AAXX 12124 13623 11660 80304 10130 20127 30181 40187 57015 60061 76066 8452/ 333 84633 84460
AAXX 12123 61701 32960 40910 10300 20098 40112 80002 333 58007 84074
AAXX 12123 61705 NIL
AAXX 12123 61707 32960 40905 10325 20125 4//// 80002 333 5//// 84073
AAXX 12123 61711 32960 30902 10310 20169 4//// 80002 333 5//// 83072
AAXX 12123 61712 32960 40510 10315 20085 4//// 82032 333 5//// 82362
AAXX 12123 61717 NIL
AAXX 12123 61720 NIL
AAXX 12123 61721 NIL
AAXX 12123 61722 32960 53407 10321 20009 4//// 80002 333 5//// 85074
AAXX 12123 61731 32960 52706 10326 20074 4//// 80002 333 5//// 85074
AAXX 12123 61733 NILL
AAXX 12124 61766 31957 80602 10298 20162 30074 40116 70522 80001 333 0//00 59009 88075
AAXX 12124 61769 NIL
AAXX 12124 333 NIL
AAXX 12124 78906 11580 11403 10261 20222 30126 40131 60002 702// 81200 333 10304 20226 58011 70000 81824
AAXX 12124 07621 01660 72809 10093 20062 39795 40232 50001 60031 76065 875// 333 60027 84640 87650 90710 91117 93100 555 69925
AAXX 12121 11010 31137 81104 10012 20010 39735 40120 57020 71022 333 84702 88703
AAXX 12121 11012 16/// /0903 10007 20003 39640 40117 58020 60001 333 55300
AAXX 12121 11022 11230 80503 10026 20020 39733 40124 58022 60001 71022 886// 333 55300 88706
AAXX 12121 11035 31/09 90901 10039 20039 39867 40122 57024 74542 333 89/03
AAXX 12121 11036 31012 81305 10047 20044 39898 40123 58025 71042 333 85701 86702
AAXX 12121 11101 17/// /1303 10055 20054 39604 40132 50015 69921 721// 333 55300
AAXX 12121 11120 32784 72905 10038 21005 39403 40111 57019 333 82656 85462 87070
AAXX 12121 11126 16/// /1618 11027 21038 37653 48411 58003 69901 333 55300 91130
AAXX 12121 11130 16/// /0000 10029 21002 39523 40116 55012 60001 333 55300
AAXX 12121 11146 31/00 92413 11077 21087 36866 47963 58011 7408/ 333 55300 89/00 91124 92612
AAXX 12121 11150 12980 79901 10045 21014 39563 40104 55015 333 84363 87080
AAXX 12121 11155 12889 72007 10044 21052 38284 48411 55014 60001 82032 333 55309 82358 86071 444 47082
AAXX 12121 11157 32258 89901 11004 21016 39352 40136 57024 886// 333 83704 88706
AAXX 12121 11172 NIL
AAXX 12121 11190 12660 80905 10063 20044 39886 40120 58026 60001 885// 333 55300 88638
AAXX 12121 11204 32675 70000 10040 21002 39346 40140 57024 8551/ 333 85640
AAXX 12121 11212 11/00 92510 11015 21019 37783 48450 56010 69961 77184 333 91115 92611
AAXX 12121 11231 32358 73302 10035 20017 39569 40145 57022 333 82709 86650
AAXX 12121 11240 32560 79901 10052 20023 39691 40131 57023 333 81820 83658 87070
AAXX 12121 11244 16/// /1801 10056 20031 39803 40132 58022 60001 333 55300
AAXX 12121 11389 12550 80402 10019 20012 39795 40126 58021 60001 885// 333 55300
AAXX 12124 78016 11464 70616 10215 20191 30213 40217 52007 60011 72582 86730 333 10215 20191 70004 90916
AAXX 12124 65338 31906 53606 10317 20098 39923 40109 70644 80002 333 0//00 58002 85076
AAXX 12124 16045 11415 83503 10088 20074 30076 40141 57014 60051 76062 887// 333 55300 83715 85625
AAXX 12124 16090 11230 80000 10088 20085 30058 40141 58018 69981 71065 885// 333 55300 82705 83612 85620
AAXX 12124 16149 11109 82905 10080 20061 30123 40139 58017 60031 76064 887// 333 85703 84625
AAXX 12124 16261 12570 31504 10180 20106 30094 40165 58014 60001 81530 333 55310 81630 83359
AAXX 12124 16453 12597 22306 10190 20138 30128 40205 56010 60001 82200 333 55310 82821 555 0100/
AAXX 12124 16560 11470 32808 10170 20126 30172 40178 58006 60011 70165 82360 333 55310 81918
BBXX DBLK 12121 99569 30000 41194 83014 11003 21004 40020 57030 71074 886// 22242 05012 20403 329// 40903 ICE 6/4/0
BBXX 46012 12121 99374 71229 46/// /0401 10094 40081 58016 91150 22200 00120 11505 20401 328// 41505 70024 333 91202 555 11010 22010 31107 40603 61149 035010 023007 036010 044010 043013 017009
BBXX 46013 12121 99382 71233 46/// /0803 10085 40089 58010 91150 22200 00106 11505 20401 3//// 41505 70026 333 91205 555 11031 22032 31149 40805 61149 080029 088032 076032 080032 066028 044024
BBXX 46026 12121 99378 71228 46/// /0803 10090 40084 58013 91150 22200 00109 11505 20401 329// 41505 70023 333 91204 555 11031 22032 31129 42905 61149 068030 291030 290030 292031 290031 295024
BBXX 46029 12121 99461 71245 46/// /0606 10062 21001 40229 50003 91150 22200 00076 11405 20502 328// 41405 70025 333 91208 555 11068 22071 31103 40609 61149 063065 060066 061068 055071 053070 049069
BBXX 46042 12121 99368 71224 46/// /3501 10097 40080 58017 91150 22200 00113 11604 327// 41604 70019 333 91201 555 11009 22009 31107 40502 61149 352009 007008 070008 064008 050013 031012
BBXX 4XFX 12124 99401 71281 41597 50335 00/// 10090 20030 40190 51030 70122 854// 22273 0//// 2//// 3//// 4//// 5//// 6//// 80060
BBXX CG2958 12124 99491 71233 46/// /3114 10044 20023 40262 56003 7//// 8//// 22200 0//// 2////
BBXX CG2965 12124 99487 71235 46/// /3406 10027 21007 40258 50000 7//// 8//// 22200 0//// 2////
BBXX CGBR 12124 99541 71305 46/// /1322 10050 20048 40208 58029 7//// 8//// 22200 0//// 2////
BBXX CGBY 12124 99487 71235 46/// /3305 10018 21014 40257 50000 7//// 8//// 22200 0//// 2////
BBXX CGDR 12124 99505 71276 46/// /3602 10009 20009 40265 57002 7//// 8//// 22200 0//// 2////
BBXX CGJK 12124 99484 71234 46/// /3504 10023 21012 40253 50000 7//// 8//// 22200 0//// 2////
AAXX 12121 03951 17450 /1915 10084 20071 39929 49955 58071 60031 76186 87/// 333 87/13 90710 91121
AAXX 12121 03953 11450 81809 10083 20068 39887 49923 58082 60081 76386 886// 333 88714 92446 90710 91119
AAXX 12121 03955 11356 81807 10060 20055 39779 49975 57057 60021 76161 886// 333 86709 88715
AAXX 12121 03956 15566 /2005 10073 20030 39926 40003 58033 69911 86/// 333 86/28 87/62
AAXX 12121 03962 11568 81508 10057 20033 39923 49947 57063 69901 70381 8553/ 333 81621 85650 87357
AAXX 12121 03963 17450 /1613 10062 20041 39876 49904 57074 60031 76186 87/// 333 87/16 90710 91119
AAXX 12121 03966 17665 /1707 10047 20016 39870 49963 57050 69911 781// 87/// 333 81/40 85/49 87/57
AAXX 12121 03967 12581 71907 10049 20017 39869 49983 58025 69901 81542 333 81622 87075
AAXX 12121 03969 32580 61805 10053 20020 39883 49987 58020 81802 333 81820 86070
AAXX 12121 03973 11462 81708 10029 20021 39677 49931 58057 69931 75085 8653/ 333 81710 86625 87358
AAXX 12121 03976 NIL
AAXX 12121 03980 17964 /2006 10044 20023 39901 49926 58024 69911 70185
AAXX 12124 04005 41488 70905 10034 21001 49813 52007 71562 84320 555 3/307
AAXX 12124 04018 42486 50711 10006 21008 49770 54000 83201 555 3//12 81912 83632 85070
AAXX 12124 04030 41586 50807 10000 21040 49779 57001 71522 82939 555 3//09 82920
AAXX 12124 04048 NIL
AAXX 12124 04063 41580 62002 10017 21011 49820 53001 71522 85443 555 3//05
AAXX 12124 04077 NIL
AAXX 12124 04082 NIL
AAXX 12124 04097 41584 80905 10021 20013 49817 57003 78088 883// 555 3/407
AAXX 12124 65352 31903 70804 10313 20061 3//// 4//// 70544 80002 333 5//// 87076
AAXX 12124 65361 NIL
AAXX 12124 65376 31920 73608 10285 20097 39658 40116 70522 80002 333 58010 87076
AAXX 12124 65387 31925 70406 10315 20156 30080 40098 70522 80002 333 58007 87073
AAXX 12121 14240 11650 71501 10069 20055 39987 40143 57022 69901 72162 87500 333 70002
AAXX 12121 14258 11670 70000 10082 20078 39950 40138 57022 60001 70244 87500 333 70002 87633
AAXX 12121 14445 12581 71807 10161 20115 30001 40152 57015 60001 85820 222// 00155 333 70009 85895 82499 92322
AAXX 12124 91925 06/// /0102 10225 20204 30060 40121 56020 60031 333 10297 58004 60037 90710 91113 555 60005 10729
AAXX 12124 91929 04/83 /0906 10269 20229 30138 40141 56015 69901 700// 333 60007 90710 91108 555 60005
AAXX 12124 91938 02570 21703 10251 20212 30143 40145 56015 60001 81201 333 60007 81820 90710 91105 555 60005 10206
AAXX 12124 91943 36/// /0808 10262 20203 30134 40136 56018 333 58005
AAXX 12124 91944 06/// /0810 10260 20199 30148 40151 56017 60001 333 60007 90710 91114 555 60005
AAXX 12124 91954 06/// /3006 1//// 2//// 30139 4//// 56007 60001 333 1//// 58005 60007
AAXX 12124 91958 06/// /0510 10226 20186 30169 40171 56018 60001 333 10236 58007 60007 90710 91118 555 60005 10820
AAXX 12124 91945 NIL
AAXX 12124 91948 NIL
AAXX 12121 03976 11464 81611 10057 20045 39875 49887 58076 69951 76062 8767/ 333 84712 86717 88458
BBXX DBBH 12121 99452 70085 41598 82316 10134 20067 40191 57012 70322 84837 22221 04143 20704 334// 41610
AAXX 12124 47101 32970 00501 11012 21047 30186 40285 52015 333 10078 34102
AAXX 12124 47105 369// /2704 10037 21083 30231 40264 52014 333 10100 3/004
AAXX 12124 47108 12970 03403 10020 21105 30177 40285 52010 69902 333 10064 30000
AAXX 12124 47115 32575 20712 10049 21034 39982 40257 52015 82500 333 10091 3/000 42005 92034
AAXX 12124 47133 32970 02302 10028 21098 30197 40284 52007 333 10098 31000
AAXX 12124 47138 32966 01604 10070 21019 30261 40264 52010 333 10119 30004 92022
AAXX 12124 47159 32962 63404 10073 21030 30178 40264 52007 85030 333 10117 30004 92022
AAXX 12124 47165 32961 00502 10050 20020 30231 40279 52010 333 10095 31003 92021
AAXX 12124 47168 32962 43608 10078 21014 30185 40265 52010 84030 333 10115 30004 92023
AAXX 12124 47184 32670 33607 10102 20015 30250 40275 52008 83500 333 10114 31007 92023
AAXX 12124 93004 16/// /0626 10178 20178 40150 57003 60111 333 10191
AAXX 12124 93023 16/// /0000 10183 20180 40182 52002 69921 333 10185
AAXX 12124 93069 16/// /0617 10173 20169 40186 57003 60001 333 10177
AAXX 12124 93110 17396 /0509 10171 20166 40184 57001 69921 333 10192
AAXX 12124 93186 17396 /0507 10159 20154 40207 54000 60081 333 10187
AAXX 12124 93196 NIL
AAXX 12124 93245 16498 /0607 10130 20117 40211 54000 60031 333 10156
AAXX 12124 93292 17798 /0202 10148 20140 40209 57003 60021 333 10218
AAXX 12124 93309 17497 /0610 10160 20157 40181 52001 60041 333 10168
AAXX 12124 93334 NIL
AAXX 12124 93339 NIL
AAXX 12124 93373 167// /0404 10165 20145 40191 52001 60011 333 10211
AAXX 12124 93404 17597 /0401 10165 20160 40183 52002 60051 333 10205
AAXX 12124 93420 17495 /0606 10162 20149 40178 52002 60031 333 10186
AAXX 12124 93439 17496 /0212 10164 20150 40171 54000 60001 333 10187
AAXX 12124 93498 16/// /0311 10145 20145 40181 54000 60001 333 10165
AAXX 12124 93515 17497 /0311 10167 20163 40157 52005 69961 333 10192
AAXX 12124 93527 16/// /3512 10163 20163 40167 52003 60021 333 10164
AAXX 12124 93546 17496 /1802 10159 20156 40172 54000 69981 333 10181
AAXX 12124 93597 16/// /3423 10150 20142 40146 57002 60001 333 10168
AAXX 12124 93615 17295 /0311 10164 20161 40155 52006 60021 333 10180
AAXX 12124 93678 16/98 /2704 10205 20126 40117 52003 60001 333 10213
AAXX 12124 93709 16/// /0000 10155 20148 40144 54000 60001 333 10183
AAXX 12124 93773 17997 /0103 10144 20140 40100 52003 60001 333 10235
AAXX 12124 93781 17996 /0104 10137 20132 40114 54000 60001 333 10215
AAXX 12124 93800 NIL
AAXX 12124 93805 NIL
AAXX 12124 93831 17/92 /3604 10130 20099 40128 52019 60001 333 10256
AAXX 12124 93845 17/98 /1307 10139 20125 40120 52007 60001 333 10272
AAXX 12124 93891 17497 /2110 10137 20121 40122 52013 60001 333 10295
AAXX 12124 93909 16/// /3511 10128 20126 40108 57001 60031
AAXX 12124 93929 16/// /3414 10098 20096 40080 52008 69941
AAXX 12124 93947 16/// /3312 10099 20097 40083 52017 60001
AAXX 12124 93987 16/// /0510 10121 20109 40284 57002 60001 333 10163
AAXX 12124 93994 NIL
AAXX 12124 43533 12462 70710 10278 20243 30065 40068 60052 8227/ 333 10299 59008 82817 87361
AAXX 12124 43555 12470 71106 10290 20249 30065 40068 60002 83232 333 10306 59011 83818 86076
AAXX 12124 43577 12468 31806 10296 20243 30071 40073 60002 81242 333 10316 59009 81818 83077
AAXX 12124 43588 11465 32103 10299 20257 30072 40074 69932 70282 83202 333 10312 59005 83818
AAXX 12124 43599 12465 32707 10302 20257 30078 40080 60002 82201 333 10314 58002 82818
BBXX UCKG 12121 99631 10043 41/98 91104 10070 49831 57025 70222 885// 22213 00070 20101 32800 40404
BBXX MCLJ8 12123 99185 31539 41498 60000 10280 20252 40075 50015 70322 8/200 22243 20000 300// 40000 5//// 80260
AAXX 12121 33135 32998 02204 10037 21022 30068 40250 58003
AAXX 12121 33345 32998 02003 10039 21027 30048 40257 58013
AAXX 12121 33663 31596 71302 10013 21007 30145 40244 57021 71042 875// 333 87625
BBXX PCDE 12123 99399 30840 41498 53511 10167 20125 40183 56005 70300 82151 22223 2//// 324// 41002 80142
BBXX A8UD6 12121 99172 31661 41498 30609 10260 20231 40090 54000 71580 83200 22274 20503 312// 41003 5//// 80240
AAXX 12124 47090 32973 02905 10042 21118 30244 40267 52016 333 10097 3/001 49011 92012
AAXX 12124 47095 32970 01102 11027 21087 30094 40291 52014 333 10061 34102
AAXX 12124 47097 329// /2702 10000 21082 30184 40284 52010 333 10096 3/102
AAXX 12124 47098 329// /3602 11012 21093 30147 40286 52013 333 10073 3/101
AAXX 12124 47099 329// /0000 11024 21073 30252 40290 52011 333 10069 3/101
AAXX 12124 47100 32970 01102 11051 21110 39338 40294 52035 333 10026 3/101 49036
AAXX 12124 47102 32972 03404 10016 21067 30117 40300 52006 333 10060 31000
AAXX 12124 47104 32970 02005 10032 21115 30164 40263 52013 333 10088 3/001 43///
AAXX 12124 47106 329// /2705 10057 21082 30211 40261 52017 333 10109 3/001
AAXX 12124 47112 32970 03606 10029 21078 30201 40287 52009 333 10072 30000 92012
AAXX 12124 47114 32965 00903 10001 21069 30094 40283 52016 333 10081 30101
AAXX 12124 47119 12970 03204 10035 21070 30242 40285 52008 69902 333 10081 34101
AAXX 12124 47121 329// /0901 11009 21058 39979 40283 52020 333 10087 3/102
AAXX 12124 47127 329// /0903 10003 21074 30139 40285 52013 333 10085 3/000
AAXX 12124 47129 32968 00000 11008 21039 30255 40292 52006 333 10089 34001
AAXX 12124 47130 32970 02503 10027 21045 30200 40263 52015 333 10102 31000 92022
AAXX 12124 47131 32968 02901 10041 21089 30211 40283 52008 333 10094 31000
AAXX 12124 47135 329// /2707 10034 21050 39975 40279 52012 333 10075 3/000
AAXX 12124 47136 32970 03402 10013 21058 30097 40274 52013 333 10097 30101
AAXX 12124 47137 329// /2706 10044 21090 30155 40275 52011 333 10094 3/000
AAXX 12124 47140 12968 03401 10029 21038 30257 40286 52010 69902 333 10084 31002 92011
AAXX 12124 47143 32965 02704 10066 21048 30200 40280 52013 333 10095 30001
AAXX 12124 47145 32966 02703 10000 21050 30251 40278 52006 333 10091 31000
AAXX 12124 47146 31950 01602 10022 20010 30217 40285 52012 71000 333 10075 31002
AAXX 12124 47150 12965 00902 10009 21055 30266 40286 52010 69902 333 10092 31000
AAXX 12124 47152 32970 22702 10062 21001 30219 40262 52008 82030 333 10110 30002
AAXX 12124 47154 329// /2502 10039 21043 30215 40276 52011 333 10098 3/001
AAXX 12124 47155 32960 43602 10075 21004 30221 40267 52009 84030 333 10104 30003
AAXX 12124 47156 32665 30205 10051 20008 30191 40282 52009 83500 333 10109 31003
AAXX 12124 47157 31958 02503 10011 21014 39994 40271 52017 71000 333 10087 34101
AAXX 12124 47162 32962 60504 10065 20005 30227 40268 52012 85030 333 10110 30004 92022
AAXX 12124 47169 32668 40212 10090 20036 30183 40277 52009 84500 333 10105 31007 92044
AAXX 12124 47170 32962 43203 10068 21002 30232 40276 52011 84030 333 10105 31004 92022
AAXX 12124 47171 329// /0000 10023 20009 30228 40284 52009 333 10105 3/001
AAXX 12124 47172 329// /0001 10029 20009 30209 40277 52009 333 10109 3/003
AAXX 12124 47173 329// /3405 10018 20001 30167 40281 52009 333 10091 3/001
AAXX 12124 47174 32962 02901 10044 20003 30067 40272 52009 333 10104 31003
AAXX 12124 47175 31556 30703 10034 20015 39695 40276 52007 71011 83500 333 10095 31002 92022
AAXX 12124 47185 32668 43413 10108 20028 30182 40273 52010 84500 333 10114 31007 92024
AAXX 12124 47188 32670 23603 10077 20025 30249 40271 52012 82500 333 10123 31006 92022
AAXX 12124 47189 32670 30204 10084 20032 30202 40262 52010 83500 333 10144 31006 92022
AAXX 12124 47192 32961 30000 10044 21016 30235 40273 52013 83030 333 10117 30002
BBXX VRFO7 12124 99430 70272 41598 62327 10180 20148 40180 57020 70300 862// 22225 21206 323// 41208 80160
BBXX LDGJ 12121 99603 10053 43/// /1603 10053 20030 49881 5//// 222/1 04079 1//// 3//// 4//// 5////
BBXX LF4H 12124 99596 10022 46/98 12319 10054 20017 49860 57009 8//// 22200 06090 10805 70025 333 91128
BBXX LMEL 12121 99603 10053 43/// /1603 10047 20047 49878 5//// 222/2 04080 1//// 3//// 4//// 5////
AAXX 12121 33088 32997 22004 10033 21021 30011 40205 57023 80001
AAXX 12121 33177 32575 71102 10024 21050 39937 40178 57025 87500
AAXX 12121 33261 32497 32203 10027 21025 30077 40264 58004 83600
AAXX 12121 33275 32597 32403 10015 21030 30043 40273 58001 83500
AAXX 12121 33301 32997 21607 10023 21013 39917 40204 58022 80001
AAXX 12121 33325 32997 01603 10033 21046 39964 40236 58020
AAXX 12121 33377 32597 22401 10025 21028 30078 40277 58003 82200
AAXX 12121 33415 31396 71606 11001 21009 39803 40212 57021 71011 86701 333 86707
AAXX 12121 33429 32397 71506 10006 21011 39788 40222 57022 85630 333 85708
AAXX 12121 33466 32998 01903 10029 21019 30076 40268 58012
AAXX 12121 33526 32760 51003 10030 21012 39850 40195 57024 82530
AAXX 12121 33562 32597 71504 10016 21028 39875 40245 57020 87500 333 87631
AAXX 12121 33614 32598 22402 10040 21023 30172 40279 58004 82500
AAXX 12121 33761 32662 81804 10024 20003 30037 40266 58014 8355/ 333 83639
AAXX 12121 33902 32597 71402 10041 21017 30207 40275 57016 82230
AAXX 12121 33983 32997 00605 10040 21003 30233 40295 58005
AAXX 12121 34415 32670 83202 10020 21031 30191 40290 58002 885//
AAXX 12121 34523 32698 73003 10018 21043 30214 40292 52004 87500 333 87637
AAXX 12121 34712 32965 02202 10032 21010 30213 40301 58004
BBXX MCCN6 12124 99234 31069 41298 81626 10229 20208 40102 53012 70222 887// 22233 00226 20604 316// 40705 5//// 80215
BBXX PBFM 12123 99432 70119 41398 82427 10150 20093 40203 50008 71582 8779/ 22254 2//// 80118
BBXX A8IP2 12123 99397 70233 41298 72035 10168 20135 40262 53011 76066 81750 22254 06160 20506 332// 41409 5//// 80148
BBXX A8CH2 12124 99375 70340 41598 52919 10220 20175 40305 51010 70222 85555 22213 04200 20304 335// 40504 80190
AAXX 12124 91324 NIL
AAXX 12124 91329 NIL
AAXX 12124 91336 NIL
AAXX 12124 91339 11474 80810 10294 20249 30085 40091 60021 70282 8636/ 333 56299 59013 70020 86918 88362 555 91212
AAXX 12124 91320 11474 80514 10283 20261 30105 40110 60071 70069 8213/ 333 56199 59003 70069 82816 86363 555 91212
AAXX 12121 06414 36/// /2305 10082 20035 30051 40083 51014 60001 333 91109 91206
AAXX 12121 06459 16/// /2608 10067 20041 39905 40098 51027 60021 333 91112 91209
AAXX 12121 06494 16/// /2807 10017 20013 39290 40095 52030 60081 333 91114 91208
AAXX 12124 65351 31930 70408 10300 20125 3//// 4//// 70522 80002 333 5//// 87076
AAXX 12124 65355 31915 70808 10290 21018 39609 40122 70522 80002 333 58005 87073
AAXX 12124 65357 31920 70804 10304 20018 39735 40124 70522 80002 333 58008 87076
AAXX 12124 65380 32958 70804 10306 20120 3//// 4//// 80002 333 5//// 87076
AAXX 12124 91487 NIL
AAXX 12124 91490 NIL
AAXX 12124 91533 NIL
AAXX 12124 91601 NIL
AAXX 12124 91610 11599 30508 10269 20230 40090 50000 60001 70200 82101 333 10///
AAXX 12124 561/9
AAXX 12124 91623 NIL
AAXX 12124 91629 NIL
AAXX 12124 91701 NIL
AAXX 12121 38353 42597 82501 10020 21037 39366 40282 53034 86531
AAXX 12121 38613 42997 83401 10018 21059 39386 40309 52030 8802/ 555 11000
AAXX 12121 38616 42597 60000 10002 21009 39270 40314 52029 82501
AAXX 12121 38345 42998 82701 11010 21049 38837 48529 52017 8802/ 555 1/105
AAXX 12121 36911 42999 80000 10016 21019 39290 40270 52028 8807/ 555 1/000
AAXX 12121 36974 429// 72702 11107 21151 38001 48570 53005 80040 555 15111
AAXX 12121 36982 424// 80203 11132 21178 36509 47129 53008 8367/
AAXX 12124 78016 11464 70616 10215 20191 30213 40217 52007 60011 72582 86730 333 10215 20191 70004 90916
AAXX 12124 91324 NIL
AAXX 12124 91329 NIL
AAXX 12124 91336 NIL
AAXX 12124 91339 11474 80810 10294 20249 30085 40091 60021 70282 8636/ 333 56299 59013 70020 86918 88362 555 91212
AAXX 12124 91320 11474 80514 10283 20261 30105 40110 60071 70069 8213/ 333 56199 59003 70069 82816 86363 555 91212
AAXX 12124 91487 NIL
AAXX 12124 91490 NIL
AAXX 12124 91533 NIL
AAXX 12124 91601 NIL
AAXX 12124 91610 11599 30508 10269 20230 40090 50000 60001 70200 82101 333 10///
AAXX 12124 561/9
AAXX 12124 91623 NIL
AAXX 12124 91629 NIL
AAXX 12124 91701 NIL
AAXX 12124 43533 12462 70710 10278 20243 30065 40068 60052 8227/ 333 10299 59008 82817 87361
AAXX 12124 43555 12470 71106 10290 20249 30065 40068 60002 83232 333 10306 59011 83818 86076
AAXX 12124 43577 12468 31806 10296 20243 30071 40073 60002 81242 333 10316 59009 81818 83077
AAXX 12124 43588 11465 32103 10299 20257 30072 40074 69932 70282 83202 333 10312 59005 83818
AAXX 12124 43599 12465 32707 10302 20257 30078 40080 60002 82201 333 10314 58002 82818
AAXX 12121 26645 42463 81903 10000 21018 39912 40176 58016 82502 555 1/101
AAXX 12121 26659 42563 71902 10006 21027 39985 40205 58002 875// 333 87628 555 12001
AAXX 12121 26763 42460 82103 10004 21019 39978 40212 58002 886// 333 88710 555 1/100
AAXX 12121 26825 42662 61604 10013 21032 39972 40157 57022 84530 333 84633 555 11001
AAXX 12121 26832 42960 71702 10012 21030 39978 40147 58025 87030 555 11000
AAXX 12121 26887 42397 72104 10000 21015 30018 40229 51001 87600 333 87709 555 1/000
AAXX 12121 26961 41359 82202 11002 21019 30030 40228 58005 71022 885// 333 88707 555 11///
AAXX 12121 33027 42998 51603 10029 21007 30049 40219 58020 80001 555 1/000
AAXX 12124 60106 32565 31603 10168 20089 40287 50004 83200 333 83820
AAXX 12124 60318 32560 12710 10192 20094 40280 51019 81200 333 81826
AAXX 12124 68386 36/// /0904 10378 20122 39610 48592 57016 333 10384 20182 91008 555 91014
AAXX 12124 68298 36/// /1104 1//// 2//// 39416 4//// 57013 333 1//// 2//// 91013 555 91007
AAXX 12121 26106 42/97 81605 10018 21012 30081 40124 57020 8167/
AAXX 12121 26313 43/// /1905 10024 20005 30090 40097 57016
AAXX 12121 26346 42497 81804 11004 21018 39899 40148 57005 886// 333 88714 91110
AAXX 12121 26406 42965 81504 10020 21013 30079 40085 57028 86032 333 91110
AAXX 12121 26416 43/// /1705 10007 21021 39965 40107 57025
AAXX 12121 26424 41964 81705 10008 21012 30063 40117 57023 70281 8807/
AAXX 12121 26544 42465 72005 10007 21019 30013 40169 57013 86301 333 82918 91110
AAXX 12121 15502 12968 80902 10058 20039 30191 40231 58013 60001 8807/ 333 10062 20054 555 588//
AAXX 12121 15525 11530 80701 10071 20060 39952 40220 58012 69921 71054 8657/ 333 10075 20046 555 593//
AAXX 12121 15528 11956 82501 10058 20039 30011 40203 57006 60001 75054 8802/ 333 10060 20050 555 588// 71200
AAXX 12121 15535 11558 70702 10091 20067 30158 40205 58024 69901 71084 86960 333 10091 20039 555 58500 65099
AAXX 12121 15549 11558 61802 10094 20064 39806 40222 57017 60001 71042 86500 333 10104 20048 555 582//
AAXX 12121 15552 11456 71102 10111 20089 30180 40229 57017 60001 71022 82530 222// 2//00 314// 4//00 333 10115 20090 555 586// 92012 92416
AAXX 12121 15614 11640 70000 10078 20059 39514 40220 58013 69931 71082 87300 333 10082 20052 555 588// 63199 71252
AAXX 12121 15615 11/00 92310 11036 21044 37139 47081 58014 69961 77174 333 11034 21050 92982 555 594// 63699 71247 92712
AAXX 12121 15626 12668 50000 10122 20063 30030 40217 58022 60001 82532 333 10126 20044 555 567//
AAXX 12121 15627 11/02 92306 11006 21006 37649 47093 58007 69911 74944 333 11006 21012 48003 93501 555 500// 92712
AAXX 12121 15640 11659 80000 10110 20075 39919 40230 58015 60001 71022 885// 333 10116 20070 555 579//
AAXX 12121 15655 11530 60000 10105 20082 30191 40224 58019 60001 71022 86500 222// 00094 20000 333 10106 20067 555 586// 81298 92010 92415
AAXX 12121 15712 12680 42001 10148 20059 39973 40219 58014 60001 82201 333 10153 20054 555 555//
AAXX 12121 15730 11659 32010 10153 20087 39830 40214 58019 60001 70411 82849 333 10160 20047 555 565//
AAXX 12124 86011 01570 53607 10264 20244 39925 40084 52020 69954 71392 84936 333 20236 70005 83630 81940 82358 84270
AAXX 12124 86033 02870 60000 10304 20242 39982 40075 52020 60044 81084 333 50554 70036 81357 86270
AAXX 12124 86065 31570 63604 10266 20196 39856 40091 52018 70292 83285 333 20246 5//// 82633 81840 81358
AAXX 12124 86068 32570 72706 10272 20207 39891 40081 53004 82570 333 20248 50504 82627 87458
AAXX 12124 86086 32970 30902 10286 20198 39987 40075 52020 80001 333 20228 53270
AAXX 12124 86097 32570 40214 10270 20177 39460 40092 52019 82886 333 20234 50754 82827 83358 84270
AAXX 12124 86128 32970 00000 10280 20222 39963 40074 52012 333 20208 5////
AAXX 12124 86134 32570 21305 10284 20219 39993 40078 52017 81101 333 20218 50604 81830 82070
AAXX 12124 86170 32970 31204 10280 20187 39966 40067 52011 80005 333 20188 50554 83270
AAXX 12124 86185 32870 30000 10288 20232 39994 40086 52015 83070 333 20222 5//// 83457
AAXX 12124 86192 32970 00904 10296 20228 39881 40094 52004 333 20216 5////
AAXX 12124 86210 32870 63612 10268 20193 39743 40078 51017 86080 333 20212 50524 86357
AAXX 12124 86218 32970 10704 10296 20195 39999 40093 52021 80001 333 20214 50694 81070
AAXX 12124 86221 32970 00000 10256 20183 39974 40107 52008 333 20200 50084
AAXX 12124 86233 32970 00000 10286 20201 39912 40097 51013 333 20200 5////
AAXX 12124 86234 NIL
AAXX 12124 86246 32870 10000 10270 20210 39810 40091 53008 81060 333 20200 5//// 81358
AAXX 12124 86251 32970 30000 10254 20187 39905 40071 53017 80004 333 20202
AAXX 12124 86255 32870 21402 10280 20221 30029 40095 53024 81064 333 20200 50064 81357
AAXX 12124 86260 32670 30904 10278 20253 39937 40086 52022 83400 333 20222 50754 83640
AAXX 12124 86268 32970 00802 10236 20198 39912 40075 52008 333 20186
AAXX 12124 86285 32970 00000 10262 20197 39810 40089 52020 333 20206 50664
AAXX 12124 86297 32970 30902 10280 20204 39973 40075 52022 80004 333 20200 50604 83270
AAXX 12124 17022 12662 73202 10143 20064 30087 40252 57016 60001 84250 333 84834 87360 91105 92427
AAXX 12124 17031 11670 50103 10158 20021 30259 40265 57015 69921 70282 83130 333 83836 85360
AAXX 12124 17038 12960 61004 10110 20035 30234 40286 57004 60001 86030 333 86360 92427
AAXX 12124 17050 12670 51604 10165 20115 30161 40223 57023 60001 83230 333 83835 85360 91108
AAXX 12124 17060 12660 31903 10155 20037 30203 40243 57018 60001 83100 333 83835
AAXX 12124 17096 11848 30402 11093 21103 38307 48582 56004 60001 71000 83030 333 83358
AAXX 12124 17124 12660 40806 10063 21005 39344 40290 57015 60001 81501 333 81640 84070
AAXX 12124 17128 11958 39902 10094 20004 39165 40287 57018 60001 71000 80001 333 83070
AAXX 12124 17170 NIL
AAXX 12124 17195 12670 31201 10066 21041 39056 48562 57015 60001 83500 333 83640
AAXX 12124 17199 12970 22401 10050 21030 39165 40297 57017 60001 80001 333 82070
AAXX 12124 17219 12565 41607 10169 20084 30100 40246 56023 60001 82130 333 82830 84360
AAXX 12124 17240 12970 00202 10096 21048 39103 40278 57021 60001
AAXX 12124 17244 12970 31203 10089 21059 39072 48557 57019 60001 80001 333 83070
AAXX 12124 17280 12960 23005 10069 21039 39450 40266 57014 60001 80001 333 82070
AAXX 12124 17350 12960 41703 10152 20027 30168 40248 56016 60001 80001 333 84070
AAXX 12124 16622 11457 52904 10122 20086 30227 40238 57015 60001 71022 84660 333 82710 83635 90730 91109 555 30000 10122 2//// 30104 4//// 5//// 40000 47702 44220 50000 50104 70000 77Y// 7/Y//
AAXX 12124 16641 12465 51712 10184 20135 30210 40215 58009 60001 84850 333 81818 84625 85360 90730 91124 555 40000 47688 44210 50000 50156
AAXX 12124 16682 12460 62108 10168 20136 30209 40227 57007 60001 86602 333 82710 83818 86625 90730 91119 555 30000 10170 20154 30150 40136 50144 60194 40000 47687 44200 50000 50150
AAXX 12124 16716 12570 40000 10194 20123 30215 40233 58011 60001 81132 333 81820 83362 555 40000 47691 44195 50000 50154
AAXX 12124 16734 12570 50000 10186 20132 30182 40242 58017 60001 83250 333 83820 85360 90730 91104
AAXX 12124 16743 NIL
AAXX 12124 16749 12460 60204 10180 20142 30231 40246 57019 60001 82255 333 82818 84358 86068 90730 91107 555 40000 47707 44220 50000 50158
AAXX 12124 16754 12565 63307 10188 20099 30195 40242 57020 60001 81108 333 81820 86270 90730 91108 555 40000 47679 44205 50000 50140
AAXX 12124 17026 11670 51702 10132 20080 30229 40268 57010 69941 70262 83250 333 83833 85360 91106 92418
AAXX 12124 17034 12670 40503 10130 21051 30237 40284 57004 60001 82130 333 82835 84360 92428
AAXX 12124 17070 3//// /1302 10086 20031 39386 40270 57018 60001
AAXX 12124 17084 11958 22201 10088 21009 39367 40293 57015 60001 70411 82030 333 82360 91104
AAXX 12124 17090 12665 60000 10024 21067 38805 48565 57009 60001 84550 333 84640 86360
AAXX 12124 17098 12660 52503 11036 21100 38260 48573 55004 60001 82540 333 82640 85357
AAXX 12124 17150 12660 30602 10144 20057 30124 40249 57025 60001 81101 333 81835 83070
AAXX 12124 17160 12970 02102 10102 21029 39099 48562 57017 60001 333 91106
AAXX 12124 17184 12970 01601 10137 20033 30143 40257 57024 60001
AAXX 12124 17189 11658 40807 10094 21027 39094 48545 57021 60001 70511 82130 333 82840 84360
AAXX 12124 17210 12970 33202 10055 21001 39202 40264 57012 60001 80001 333 83070
AAXX 12124 17234 12670 31104 10153 20055 30185 40254 57022 60001 82201 333 82840 83070 91111
AAXX 12124 17260 12960 00000 10124 21006 39420 40255 57016 60001
AAXX 12124 17290 12670 71803 10178 20127 30220 40252 57018 60001 84270 333 84835 87360 91107 92418
AAXX 12124 17370 12965 53402 10150 20050 30242 40246 57021 60001 80001 333 85070 92417
AAXX 12124 17500 12560 73205 10172 20072 30203 40261 57020 60001 81108 333 81825 87270
AAXX 12124 17501 12560 70000 10162 20070 30230 40249 57021 60001 81102 333 81830 87070 92427
AAXX 12124 17505 12560 70904 10159 20079 30146 40260 57018 60001 81102 333 81830 87070
AAXX 12124 17507 12560 70506 10157 20066 30151 40274 57019 60001 81108 333 81825 87270
AAXX 12124 17510 12560 60000 10167 20079 30223 40233 57010 60001 81106 333 81830 86270 92417
AAXX 12124 17515 12560 70000 10156 20058 30091 40267 57019 60001 81102 333 81830 87070
AAXX 12124 17521 12560 70000 10159 20072 30105 40247 56016 60001 82108 333 82830 87270
AAXX 12124 17530 12560 70000 10168 20074 30201 40258 57019 60001 81102 333 81830 87070
AAXX 12124 17535 12560 70000 10164 20071 30205 40241 57018 60001 81102 333 81830 87070
AAXX 12124 17540 12560 60000 10162 20077 30244 40268 57017 60001 81106 333 81830 86270 92417
AAXX 12124 17547 12560 63305 10140 20081 30005 40250 57018 60001 81102 333 81830 86270 92427
AAXX 12124 17550 12560 73303 10156 20074 30103 40248 57017 60001 81102 333 81830 87070 92427
AAXX 12124 17572 12560 6//// 10163 20073 30239 40264 57017 60001 81106 333 81830 86270 92417
AAXX 12124 17024 12670 60801 10124 20085 30184 40262 57010 60001 84550 333 84635 86360 91106 92438
AAXX 12124 17056 12970 30605 10127 20125 30234 40238 57016 60001 83030 333 83360 91111 92428
AAXX 12124 17067 12670 40801 10151 20042 30222 40244 57020 60001 84200 333 84840 91105 92408
AAXX 12124 17092 12660 20801 10033 21084 38948 48564 57016 60001 82500 333 82640
AAXX 12124 17112 12665 43202 10152 20112 30229 40231 57019 60001 82130 333 82835 84360 91107 92407
AAXX 12124 17115 12960 31407 10157 20071 30184 40235 57025 60001 80001 333 83070
AAXX 12124 17116 12670 20803 10139 20037 30126 40249 57024 60001 82100 333 82835 91109
AAXX 12124 17188 12970 41702 10117 20016 39190 40266 57016 60001 80001 333 84070 91106
AAXX 12124 17202 12670 30000 10032 21033 39248 40318 57012 60001 83500 333 83635
AAXX 12124 17248 12970 13402 10087 21041 39057 48554 57020 60001 80001 333 81070
AAXX 12124 17292 12670 62102 10161 20072 39490 40252 57020 60001 82150 333 82840 86360 91105
AAXX 12124 17300 12560 41805 10158 20056 30175 40247 57021 60001 81101 333 81830 84068
AAXX 12124 17310 12970 02503 10177 20029 30248 40255 57018 60001 333 91106 92428
AAXX 12124 17330 12970 32301 10180 20012 30230 40248 57020 60001 80001 333 83070
AAXX 12124 17042 12670 70000 10112 20027 30254 40294 56005 60001 84250 333 84835 87360 92438
AAXX 12124 17074 12662 73402 10069 20024 39330 40284 57014 60001 83550 333 83635 87360 91108
AAXX 12124 17086 11958 43002 10082 21031 39553 40287 57014 60001 70500 84050 333 84360
AAXX 12124 17088 12670 60000 10056 21101 38866 48558 57016 60001 84550 333 84640 86360
AAXX 12124 17140 12965 01502 10078 21010 38776 48557 57011 60001
AAXX 12124 17155 11670 53101 10077 20000 39134 40277 50000 60001 70241 83550 333 83640 85360 91105
AAXX 12124 17203 12670 20000 10034 21064 38950 48587 57016 60001 82100 333 82840
AAXX 12124 17237 12970 40501 10117 20029 39752 40265 57017 60001 80007 333 84270 91105
AAXX 12124 17250 12975 30504 10090 21016 38878 48562 57016 60001 80001 333 83070
AAXX 12124 17270 12670 33603 10113 21022 39594 40253 57016 60001 81130 333 81840 83360
AAXX 12124 17295 12560 62702 10177 20044 30249 40256 57016 60001 82101 333 82830 86068
AAXX 12124 17320 12970 01604 10175 20071 30244 40249 57018 60001 333 92428
AAXX 12124 17375 12970 72001 10171 20056 30251 40253 57018 60001 80008 333 87270 91104 92428
AAXX 12124 81225 11360 60904 10250 20223 40125 6009 71011 82952 333 20/// 56199 58003 81707 81920 85360
AAXX 12124 81200 11458 70000 10244 20232 40125 60044 78081 85932 333 20/// 56229 58008 81815 81920 85625 85358
AAXX 12124 81202 12470 11203 10261 20244 40125 69924 81902 333 20244 56209 58006 81815 81918
AAXX 12124 81209 12465 70000 10254 20231 4//// 69904 87832 333 20/// 56299 5//// 86812
AAXX 12124 81251 NIL
AAXX 12124 78951 11578 51105 10280 20240 30121 40136 60102 7028/ 82202 333 10310 20232 58006 70102 82820 83078
AAXX 12124 16643 12460 52006 10206 20145 30233 40238 58012 60001 84830 333 82818 83625 90730 91109 555 40000 47708 44235 50000 50170
AAXX 12124 16648 12560 70000 10162 20065 30138 40226 57013 60001 81156 333 81830 83359 86069 90730 91104 555 30000 10142 2//// 30110 40100 5//// 6//// 40000 47634 44210 50000 50114
AAXX 12124 16650 12460 41710 10164 20136 30222 40226 57009 60001 84500 333 90730 91119 555 30000 10148 20140 30128 40136 50120 60140 40000 47698 44220 50000 50148
AAXX 12124 16684 12860 20103 10168 20121 30189 40216 56013 60001 82030 333 90730 91108 555 40000 47674 44220 50000 50142
AAXX 12124 16732 12465 51912 10188 20147 30233 40245 57016 60001 82204 333 82818 84069 90730 91118 555 40000 47699 44150 50000 50164 70000 77/// 7/I//
AAXX 12124 06030 NIL
AAXX 12124 06060 01225 72107 10037 20031 39898 49963 57007 69901 76162 87700 333 60027 83704 87705
AAXX 12124 06070 07256 72006 10043 20028 39943 49973 57015 69901 75255 333 6///7 81/05 87/07 91118
AAXX 12124 06120 41350 81909 10039 20039 39954 49980 57012 72162 886// 333 85707 87612
AAXX 12124 06180 02365 81913 10047 20030 39991 49997 57019 6///1 886// 333 6///7 87709
AAXX 12124 06193 07358 72010 10038 20029 30006 40017 57023 69911 72285 333 55300 20101 69917 83/07 87/09 91120
AAXX 12124 71102 NIL
AAXX 12124 71105 NIL
AAXX 12124 71107 NIL
AAXX 12124 71110 NIL
AAXX 12124 71111 16766 81709 10030 20012 30191 40199 58026 60001 333 10056 21020 70000
AAXX 12124 71112 16/// ///// 60001 333 70000
AAXX 12124 71113 16/// /0205 10035 21061 30229 40253 58002 60001 333 10075 20005 70010
AAXX 12124 71115 16/// /0902 11054 21071 39676 40273 50008 60001 333 11003 21055 70000
AAXX 12124 71116 16/// /0605 11056 21063 39133 40257 51006 60001 333 10011 21056 4/003 70000 555 10030
AAXX 12124 71118 16/// /1505 11106 21120 39417 40271 58004 60001 333 11029 21107 70000
AAXX 12124 71121 16958 01802 11090 21133 39405 40253 58005 60001 333 11023 21102 70000
AAXX 12124 71127 16/// /2203 11110 21113 39309 40260 58005 60001 333 11019 21110 4/009 70000
AAXX 12124 71130 17366 82105 11119 21130 39836 40314 50005 60001 771// 333 11077 21140 70000
AAXX 12124 71132 15466 82104 11077 21091 39887 40208 58009 60001 333 11094 21119 70000
AAXX 12124 71133 NIL
AAXX 12124 71139 NIL
AAXX 12124 71141 NIL
AAXX 12124 71142 17264 81508 11086 21089 39270 40267 52004 60001 771// 333 11023 21086 70000
AAXX 12124 71143 NIL
AAXX 12124 71144 NIL
AAXX 12124 71147 16/// /3612 11094 21111 60001 333 11035 21094 70000
AAXX 12124 71149 NIL
AAXX 12124 71300 NIL
AAXX 12124 71301 16/// ///// 11013 21016 39827 40231 53017 60001 333 11005 21071 4/001 70000
AAXX 12124 71302 16/// /1903 11083 21089 39409 40250 58012 60001 333 11028 21094 4/018 70000
AAXX 12124 71303 46/// ///// 10007 21046 6///1 333 10021 20006 7////
AAXX 12124 71305 15966 01809 11101 21110 39875 40180 58020 60001 333 11063 21122 70000
AAXX 12124 71306 17566 83308 11110 21125 30162 40195 53015 60001 771// 333 11103 21216 70000
AAXX 12124 71307 NIL
AAXX 12124 71308 16/// /1916 11018 21070 30232 40319 58020 60001 333 10002 21073 70000
AAXX 12124 71309 NIL
AAXX 12124 71310 16/// /2111 11013 21048 30255 40293 56013 60001 333 11026 21081 70000
AAXX 12124 71311 NIL
AAXX 12124 71312 16/// /2404 11125 21139 39834 40312 51005 60001 333 11080 21139 70000
AAXX 12124 71314 NIL
AAXX 12124 71315 16/// /0000 11075 21088 30207 40263 51005 60001 333 11086 21157 4/008 70005
AAXX 12124 71316 16/// /1803 11086 21094 39552 40259 57008 60001 333 11032 21107 70000
AAXX 12124 71317 NIL
AAXX 12124 71318 16/// /1603 11070 21086 39292 40265 58001 60001 333 11013 21072 4/001 70000
AAXX 12124 71319 16/// /2605 11045 21049 39369 40252 53012 60001 333 11058 21078 70006
AAXX 12124 71320 16/// /2808 11284 21310 30088 40089 51001 60001 333 21286 4/039 7////
AAXX 12124 71321 NIL
AAXX 12124 71322 NIL
AAXX 12124 71323 16/// /1702 11096 21110 30004 40296 53011 60001 333 11024 21113 70000
AAXX 12124 71331 16/// /2303 11139 21158 60001 333 11111 21206 4/014 55/// 20000 70000
AAXX 12124 71332 NIL
AAXX 12124 71334 NIL
AAXX 12124 71335 46964 02832 11129 52007 6///1 333 11134 21155 7////
AAXX 12124 71336 46/// ///24 11045 21092 30239 40262 53019 6///1 333 10052 21053 7////
AAXX 12124 71337 46/// /2505 11110 21135 39995 40242 50005 6///1 333 11054 21125 7////
AAXX 12124 71338 46764 60112 11120 21159 30002 40009 53015 6///1 333 11090 21123 7////
AAXX 12124 71339 16964 02714 11180 21254 30185 40200 51004 60001 333 11129 21182 70000
AAXX 12124 71340 NIL
AAXX 12124 71341 NIL
AAXX 12124 71342 NIL
AAXX 12124 71343 NIL
AAXX 12124 71344 NIL
AAXX 12124 71345 NIL
AAXX 12124 71346 NIL
AAXX 12124 71347 NIL
AAXX 12124 71348 NIL
AAXX 12124 71349 NIL
AAXX 12124 71150 46/// /0207 11127 21139 39584 40291 53009 6///1 333 11063 21128 7////
AAXX 12124 71151 NIL
AAXX 12124 71152 16/// /3503 11043 21067 30279 40293 58006 60001 333 11012 21054 70006
AAXX 12124 71153 17/// /2902 11082 21086 60021 7//4/ 333 11023 21082 70050
AAXX 12124 71154 17/// /0402 11083 21095 69981 7//4/ 333 10018 21084 70046
AAXX 12124 71155 NIL
AAXX 12124 71156 NIL
AAXX 12124 71157 46/// ///// 11073 21078 6///1 333 11014 21078 7////
AAXX 12124 71158 NIL
AAXX 12124 71159 NIL
AAXX 12124 71160 NIL
AAXX 12124 71161 16/// /2007 11007 21065 30157 40309 51012 60001 333 10020 21012 70000
AAXX 12124 71162 NIL
AAXX 12124 71163 46/// /1404 11137 21148 39655 49998 57055 6///1 333 11061 21167 7////
AAXX 12124 71164 NIL
AAXX 12124 71165 NIL
AAXX 12124 71166 NIL
AAXX 12124 71167 15166 12804 11184 21202 39111 40251 58009 60001 333 11032 21185 70000
AAXX 12124 71168 16/// /2005 10031 20022 39594 40180 53007 60001 333 10043 21013 70000
AAXX 12124 71170 NIL
AAXX 12124 71171 46/// /2105 11011 21048 30213 40313 53004 6///1 333 10034 21014 7////
AAXX 12124 71172 NIL
AAXX 12124 71175 16/// /2218 11009 21072 30288 40324 58007 60001 333 10010 21045 70000
AAXX 12124 71176 460// /2729 11128 39339 40029 53018 6///1 333 11126 21135 7////
AAXX 12124 71177 460// ///// 11176 39026 40055 51039 6///1 333 11156 21200 7////
AAXX 12124 71178 16/// /2831 11059 21109 30238 40271 51018 60001 333 10039 21066 55/// 20000 70000
AAXX 12124 71179 460// /2314 11225 39259 40124 53029 6///1 333 11174 21243 7////
AAXX 12124 71180 16/// /2318 10004 21041 30249 40289 56014 60001 333 11013 21048 70006
AAXX 12124 71181 16564 62910 11025 21092 30249 40286 51015 60001 333 21040 70000
AAXX 12124 71183 16/// /2404 30265 51008 60001 333 70000
AAXX 12124 71184 46/// /2009 11015 21055 6///1 333 10014 21043 7////
AAXX 12124 71186 NIL
AAXX 12124 71187 15966 00503 11003 21043 30223 40272 51005 60001 333 10031 21017 70000
AAXX 12124 71189 NIL
AAXX 12124 71190 NIL
AAXX 12124 71191 17/// ///// 10024 21010 69941 7//4/ 333 11014 21069 70004
AAXX 12124 71192 15161 61703 11090 21093 39592 40274 58006 60001 333 11041 21101 70000
AAXX 12124 71193 16/// /2503 11005 21010 39861 40230 53023 60001 333 11010 21054 4/014 70000
AAXX 12124 71196 NIL
AAXX 12124 71197 16564 32524 10001 21049 30237 40288 57013 60001 333 11018 21048 70005
AAXX 12124 71198 46/// /2215 10005 21048 6///1 333 10014 20001 7////
AAXX 12124 71199 46/// /1303 11133 21147 39218 40074 58047 6///1 333 11183 21223 4/021 7////
AAXX 12124 71397 12574 82404 11010 21036 30288 40324 55005 60001 885// 333 11003 21079 70000
AAXX 12124 71400 16/64 /1302 11105 21114 60001 333 11037 21109 70000
AAXX 12124 71403 46/// /2321 10034 21008 30311 40331 56015 6///1 333 10009 21042 7////
AAXX 12124 71411 16/// /2411 10035 20009 30331 40344 53004 60001 333 10013 21061 70000
AAXX 12124 71412 16/// /2316 10005 21037 30283 40293 56015 60001 333 11008 21062 70003
AAXX 12124 71421 NIL
AAXX 12124 71430 16/// /2317 10036 21026 30219 40318 53006 60001 333 10044 20036 70000
AAXX 12124 71431 16/// /2708 10034 21002 30207 40305 53004 60001 333 10039 20026 70000
AAXX 12124 71432 16/// /1905 10015 21037 30219 40318 53003 60001 333 10037 20010 70000
AAXX 12124 71433 NIL
AAXX 12124 71435 NIL
AAXX 12124 71441 46/// /3615 11076 21098 39949 40269 53016 6///1 333 10005 21104 7////
AAXX 12124 71443 16/// /3601 11125 21140 39884 40314 51004 60001 333 11061 21127 4/006 70000
AAXX 12124 71444 NIL
AAXX 12124 71447 16/// /0710 11073 21088 39720 40284 53017 60001 333 11013 21087 70000
AAXX 12124 71467 16/// /0212 11270 21296 39848 49965 56027 60001 333 11189 21270 4/002 70000
AAXX 12124 71472 NIL
AAXX 12124 71474 16964 00000 11126 21150 39003 40281 58002 60001 333 11035 21127 70000
AAXX 12124 71510 NIL
AAXX 12124 71538 12974 00000 11029 21081 30081 40319 53001 60001 333 10016 21033 41997 70000
AAXX 12124 71600 16564 62609 10021 21044 30354 40360 53007 60001 333 10052 21006 70005
AAXX 12124 71601 NIL
AAXX 12124 71603 12574 62315 10056 20015 30288 40343 53004 60001 86500 333 10028 21050 79999
AAXX 12124 71607 16/// /0000 11087 21092 30282 40316 53005 60001 333 11009 21089 4/001 70000
AAXX 12124 71609 12574 12508 10014 21035 30175 40314 53003 60001 81500 333 10018 21100 70000
AAXX 12124 71610 NIL
AAXX 12124 71621 12974 02406 11005 21029 30209 40318 53006 60001 333 10038 21005 70000
AAXX 12124 71623 NIL
AAXX 12124 71624 12974 02005 11013 21054 30097 40315 53003 60001 333 10041 21022 55084 70000
AAXX 12124 71625 16964 00000 11097 21139 30123 40289 53010 60001 333 10015 21101 70000
AAXX 12124 71627 12983 02406 11003 21073 30264 40310 52009 60001 333 10018 21023 41997 70000
AAXX 12124 71628 12974 01905 11007 21041 30161 40305 52011 60001 333 10031 21011 41997 70000
AAXX 12124 71630 NIL
AAXX 12124 71631 16/// /1905 11041 21075 39790 40305 55000 60001 333 11006 21043 70000
AAXX 12124 71633 12474 71709 11025 21046 30015 40294 51007 60001 87500 333 10033 21026 41001 55039 70000
AAXX 12124 71705 12574 22506 11030 21052 30208 40299 52003 60001 81501 333 11035 21082 79999
AAXX 12124 71706 11474 82312 10001 21038 30238 40300 56005 69901 72622 885// 333 11023 21070 79999 90910
AAXX 12124 71707 12674 72006 11036 21094 30244 40323 58008 60001 87500 333 10000 21074 41997 79999
AAXX 12124 71709 11674 82217 10006 21031 30256 40270 57020 69942 785// 885// 333 11021 21047 41997 70010 90999 555 10008 20008
AAXX 12124 71711 NIL
AAXX 12124 71714 46/// /2506 11026 30215 6///1 333 4/005 7////
AAXX 12124 71715 16/// /2109 11008 21050 30069 40255 53013 60001 333 11018 21040 4/004 70000
AAXX 12124 71718 11566 82109 11006 21036 30177 40244 53007 69901 78522 885// 333 11023 21057 47014 79999 90962
AAXX 12124 71719 NIL
AAXX 12124 71114 16964 00503 11004 21051 30223 40272 51005 60001 333 10033 21013 70000
AAXX 12124 71120 11256 82308 11091 21108 39599 40279 58004 69901 71082 886// 333 11003 21093 42003 79999 90921
AAXX 12124 71122 16/// /0603 11137 21162 38613 40268 51004 60001 333 11045 21137 4/009 70000 555 10010
AAXX 12124 71123 11932 01809 11099 21105 39363 40256 58006 69901 71077 333 11019 21126 44004 79999 90933
AAXX 12124 71125 11274 82208 11108 21114 39683 40291 50003 69902 7717/ 886// 333 46997 79999 90999
AAXX 12124 71129 11156 81202 11079 21087 39415 40272 58003 60001 71022 885// 333 11032 21080 42997 79999
AAXX 12124 71131 16/// /1005 11067 21071 38957 40244 51004 60001 333 10010 21070 70000
AAXX 12124 71135 16/// /0404 11074 21089 39146 40260 53005 60001 333 10014 21074 4/004 70000
AAXX 12124 71137 NIL
AAXX 12124 71140 12974 80712 11097 21104 39778 40300 53016 60001 885// 333 11036 21097 41997 70000
AAXX 12124 71145 12974 02803 11197 21226 39994 40305 52019 60001 333 11101 21211 48031 70006
AAXX 12124 71148 16/// /0113 11102 21117 39682 40284 53016 60001 333 11020 21104 4/002 70000
AAXX 12124 71182 16964 02805 11251 21299 39665 40241 53013 60001 333 11206 21279 70000
AAXX 12124 71185 17440 82406 11066 30222 40247 58017 60001 745// 333 11052 21106 70005
AAXX 12124 71188 12574 80902 11106 21123 30210 40255 53001 60001 8657/ 333 11093 21177 43017 55053 70000
AAXX 12124 71200 16/// /3408 10006 21027 60001 333 10055 20005 70000
AAXX 12124 71207 16/// /0202 11029 21068 30200 40266 51006 60001 333 10045 21052 70000
AAXX 12124 71260 13/// ///// 10019 21009 30013 40252 53011 60001 333 10063 20008 70000
AAXX 12124 71250 16/// /2817 11052 21115 30141 40282 51022 60001 333 10057 21063 70003
AAXX 12124 71251 16/// /0103 11071 21084 39320 40272 51006 60001 333 11015 21079 70017
AAXX 12124 71252 NIL
AAXX 12124 71253 46/// /2202 11150 21158 6///1 333 11060 21152 4/016 7////
AAXX 12124 71254 16/// /1404 11078 21081 60001 333 11030 21078 4/002 70000
AAXX 12124 71255 16/// /1906 11112 21128 60001 333 11064 21115 4/019 70007
AAXX 12124 71256 46/// /0000 11144 21154 39275 40246 58005 6///1 333 11025 21154 7////
AAXX 12124 71257 NIL
AAXX 12124 71258 NIL
AAXX 12124 71259 NIL
AAXX 12124 71261 16/// /1608 11021 21046 30033 40300 54000 60001 333 10014 21032 70000
AAXX 12124 71263 12974 02307 11036 21062 30023 40321 53003 60001 333 10031 21048 70000
AAXX 12124 71264 16/// /2310 10036 21009 30301 40333 56010 60001 333 10003 21057 70000
AAXX 12124 71265 15966 02314 10017 21026 30220 40316 53001 60001 333 10043 21007 70000
AAXX 12124 71266 NIL
AAXX 12124 71267 17640 83503 11075 21075 39149 40277 51008 69931 771// 333 11006 21082 70026
AAXX 12124 71268 NIL
AAXX 12124 71269 NIL
AAXX 12124 71270 NIL
AAXX 12124 71271 NIL
AAXX 12124 71272 15966 82511 11147 21160 39859 40227 58010 60001 333 11158 21246 70000
AAXX 12124 71273 16/// /1905 11112 21121 39596 40282 58002 60001 333 11006 21114 55/// 20000 70000
AAXX 12124 71274 NIL
AAXX 12124 71275 NIL
AAXX 12124 71276 NIL
AAXX 12124 71277 NIL
AAXX 12124 71278 NIL
AAXX 12124 71279 17/// /0104 11144 21163 30171 40240 53005 60011 7//4/ 333 11136 21214 70017
AAXX 12124 71281 NIL
AAXX 12124 71282 46/// /2212 10010 21007 30027 40302 53003 6///1 333 10028 20008 7////
AAXX 12124 71283 NIL
AAXX 12124 71284 NIL
AAXX 12124 71285 NIL
AAXX 12124 71286 NIL
AAXX 12124 71287 NIL
AAXX 12124 71288 NIL
AAXX 12124 71289 NIL
AAXX 12124 71290 15466 81610 11070 21081 39393 40244 58007 60001 333 11035 21090 70000
AAXX 12124 71291 NIL
AAXX 12124 71292 16366 80108 11104 39669 40300 51008 60001 333 11064 21104 70000
AAXX 12124 71294 16/// /0000 11073 21078 39885 40300 53010 60001 333 11001 4/004 70000
AAXX 12124 71295 NIL
AAXX 12124 71296 NIL
AAXX 12124 71297 16/// /2503 11019 21045 60001 333 10048 21020 70000
AAXX 12124 71298 16/// /2304 11021 21054 30076 40315 55000 60001 333 10011 21028 4/001 70000
AAXX 12124 71299 NIL
AAXX 12124 71051 NIL
AAXX 12124 71055 NIL
AAXX 12124 71057 NIL
AAXX 12124 71059 460// ///// 11122 39824 49914 58036 6///1 333 11131 21185 7////
AAXX 12124 71061 16/// /2004 11089 21096 39429 40240 58005 60001 333 11032 21169 70000
AAXX 12124 71062 46/// /2001 11108 21121 39119 40224 58007 6///1 333 11012 21113 4/013 7////
AAXX 12124 71064 460// /1109 11277 39797 40020 56041 6///1 333 11258 21301 7////
AAXX 12124 71065 NIL
AAXX 12124 71067 NIL
AAXX 12124 71070 NIL
AAXX 12124 71073 NIL
AAXX 12124 71074 NIL
AAXX 12124 71075 16/// /2208 11111 21124 39606 40231 58009 60001 333 11120 21147 4/040 70000
AAXX 12124 71078 17466 82407 11123 21140 39804 40264 58004 60001 771// 333 11117 21130 70000
AAXX 12124 71084 460// ///// 11295 30030 40080 56021 6///1 333 11185 21296 7////
AAXX 12124 71085 17248 81602 11079 21082 38843 40262 51006 69981 7714/ 333 10003 21099 70049
AAXX 12124 71087 NIL
AAXX 12124 71088 460// /3010 11219 52009 6///1 333 11159 21221 7////
AAXX 12124 71089 NIL
AAXX 12124 71096 460// ///// 11170 39261 49998 53020 6///1 333 11147 21170 7////
AAXX 12124 71097 47964 00115 11149 39529 40008 52013 6///1 745// 333 11104 21149 7////
AAXX 12124 71098 43/// /3002 11208 21216 39916 40295 51017 6///1 333 11077 21208 7////
AAXX 12124 71099 43/// /2606 11167 21206 30230 40251 53019 6///1 333 11167 21233 7////
AAXX 12124 71500 NIL
AAXX 12124 71501 NIL
AAXX 12124 71502 NIL
AAXX 12124 71503 NIL
AAXX 12124 71504 NIL
AAXX 12124 71505 16/// /1013 10006 21038 39201 49909 58005 60001 333 10037 21014 7////
AAXX 12124 71506 NIL
AAXX 12124 71507 NIL
AAXX 12124 71508 16/// ///// 10015 21021 30177 40318 53001 60001 333 10042 20004 70007
AAXX 12124 71509 NIL
AAXX 12124 71511 NIL
AAXX 12124 71512 NIL
AAXX 12124 71513 17548 80408 11130 21147 30226 40242 56009 60001 771// 333 11137 21190 70000
AAXX 12124 71514 NIL
AAXX 12124 71515 NIL
AAXX 12124 71516 NIL
AAXX 12124 71517 NIL
AAXX 12124 71518 NIL
AAXX 12124 71519 NIL
AAXX 12124 71520 NIL
AAXX 12124 71521 NIL
AAXX 12124 71522 NIL
AAXX 12124 71523 NIL
AAXX 12124 71524 16/// /2206 11007 21058 30285 40312 53013 60001 333 10011 21023 70010
AAXX 12124 71525 NIL
AAXX 12124 71526 NIL
AAXX 12124 71527 15566 80406 11105 21114 39735 40258 53017 60001 333 11034 21128 70000
AAXX 12124 71528 NIL
AAXX 12124 71529 46/// /2005 11077 21094 39860 40089 58030 6///1 333 11069 21079 4/018 7//// 555 10010
AAXX 12124 71532 15966 01703 11078 21079 39943 40299 53003 60001 333 10010 21098 70000
AAXX 12124 71534 16964 02405 11019 21057 30021 40299 53004 60001 333 10028 21022 70000
AAXX 12124 71535 NIL
AAXX 12124 71536 NIL
AAXX 12124 71537 NIL
AAXX 12124 71539 NIL
AAXX 12124 71540 NIL
AAXX 12124 71541 NIL
AAXX 12124 71542 NIL
AAXX 12124 71543 NIL
AAXX 12124 71544 NIL
AAXX 12124 71545 NIL
AAXX 12124 71546 NIL
AAXX 12124 71547 NIL
AAXX 12124 71548 NIL
AAXX 12124 71549 NIL
AAXX 12124 71604 16/// /2513 11048 21064 60001 333 11049 21084 4/030 70007 555 10040
AAXX 12124 71605 16/// /2301 11001 21051 30099 40252 50004 60001 333 10065 21002 70000
AAXX 12124 71611 NIL
AAXX 12124 71612 NIL
AAXX 12124 71614 NIL
AAXX 12124 71616 16/// /2008 11025 21055 30183 40307 53014 60001 333 11009 21035 70010
AAXX 12124 71617 17/// /2412 10007 21025 30077 40249 53014 60011 7//4/ 333 11036 21075 70060
AAXX 12124 71618 15966 82410 11246 21270 30196 40236 58008 60001 333 11146 21265 70000
AAXX 12124 71619 16/// /2703 11029 21060 30200 40260 53007 60001 333 11043 21112 70000
AAXX 12124 71622 NIL
AAXX 12124 71632 46/// /2506 11123 21142 39805 40261 58004 6///1 333 11119 21132 4/011 7////
AAXX 12124 71634 16/// /2104 11048 21065 30118 40277 53006 60001 333 11064 21110 4/012 70000
AAXX 12124 71638 16/// /3104 11032 21063 30141 40249 58002 60001 333 10042 21037 70000
AAXX 12124 71639 12974 02004 11019 21067 30066 40315 53006 60001 333 10037 21026 70000
AAXX 12124 71642 13574 82106 11002 21008 39681 40232 52015 60001 885// 333 10014 21035 47020 79999
AAXX 12124 71700 15966 02208 11038 21071 30279 40306 53006 60001 333 11030 21086 70000
AAXX 12124 71701 12974 12308 11028 21071 30240 40304 53006 60001 81070 333 11028 21070 79999
AAXX 12124 71702 16/// /2414 10002 21023 30269 40285 55000 60001 333 11018 21065 4/001 70000
AAXX 12124 71703 12674 12202 11039 21062 39973 40281 53009 60003 81500 333 11047 21094 43014 55/// 70000 555 10000 20000
AAXX 12124 71704 17966 01806 11043 21057 30086 40314 53003 60011 7004/ 333 10013 21052 70020
AAXX 12124 71710 17/// /2216 10003 21033 30257 40267 56019 60011 7//4/ 333 11021 21046 70010
AAXX 12124 71712 16/// /2306 10000 21084 30249 40312 51012 60001 333 10019 21013 70000
AAXX 12124 71713 NIL
AAXX 12124 71716 NIL
AAXX 12124 71717 NIL
AAXX 12124 71720 16/// /0000 11032 21035 30107 40263 55001 60001 333 10034 21039 70000
AAXX 12124 71721 16/// /1902 11056 21062 30035 40288 53016 60001 333 11003 21056 70000
AAXX 12124 71723 16/// /2209 11011 21061 30289 40299 53016 60001 333 10000 21018 70000
AAXX 12124 71724 16/// /2216 10003 21043 30289 40297 53017 60001 333 10009 21006 70000
AAXX 12124 71732 16/// /1605 10033 20004 60001 333 10038 20028 70000
AAXX 12124 71733 16/// /1707 11001 21009 39821 40253 51012 60001 333 10016 21029 4/002 70000
AAXX 12124 71734 16/// /2206 10002 21015 39838 40234 53019 60001 333 11002 21016 70012
AAXX 12124 71736 NIL
AAXX 12124 71737 NIL
AAXX 12124 71741 16/// /1202 11076 21096 39857 40294 51007 60001 333 11021 21108 70000
AAXX 12124 71742 NIL
AAXX 12124 71743 NIL
AAXX 12124 71744 NIL
AAXX 12124 71745 NIL
AAXX 12124 71746 NIL
AAXX 12124 71747 NIL
AAXX 12124 71748 NIL
AAXX 12124 71893 12580 32804 11018 21056 30228 40260 58005 60001 81530 333 10058 21024 55072 70000
AAXX 12124 71894 NIL
AAXX 12124 71896 15964 01905 11085 21093 39399 40253 58011 60001 333 11029 21106 70000
AAXX 12124 71897 12469 80510 10021 20006 3//// 4//// 52003 60001 888XX 333 10041 20018 70000
AAXX 12124 71898 160// ///// 10023 58023 60001 333 10031 21007 70000
AAXX 12124 71899 11466 81903 10035 20035 3//// 4//// 56033 60061 76162 8652X 333 10059 20026 70062 90942
AAXX 12124 71902 12974 02919 11137 21192 30119 40128 50011 60002 333 11117 21173 43020 70000 555 10000 20000
AAXX 12124 71905 NIL
AAXX 12124 71906 12674 22708 11164 21195 30116 40168 52016 60001 82500 333 11129 21186 48008 79999
AAXX 12124 71907 17564 80000 11127 21147 30163 40197 53015 69951 74544 333 11123 21249 70010
AAXX 12124 71909 16964 03220 11165 21203 30044 40088 53017 60001 333 11166 21178 70005
AAXX 12124 71910 46564 83004 11153 21174 30058 40122 53008 6///1 333 11144 21190 7////
AAXX 12124 71911 46561 61709 11282 30049 40107 56007 6///1 333 11197 21298 7////
AAXX 12124 71912 NIL
AAXX 12124 71915 11574 33407 11305 21342 30061 40146 50004 69901 77174 83501 333 11214 21325 48043 55/// 79999 90983
AAXX 12124 71917 11974 10000 11410 21444 30033 40048 57005 69901 77677 81070 333 11357 21410 47013 55/// ///// 2//// 79999 90993
AAXX 12124 71922 11469 81705 11121 21131 39805 40292 58003 69901 77177 885// 333 11096 21146 47027 79999 90983
AAXX 12124 71924 11374 60000 11274 21315 39956 40049 57009 69901 77177 86500 333 11248 21280 48037 55/// 79999 90983
AAXX 12124 71925 11359 31406 11288 21328 30006 40049 57030 69901 77677 82770 333 11246 21320 42018 79999 90983
AAXX 12124 71926 11674 71811 11235 21286 30107 40132 58017 69901 77777 87500 333 11246 21285 44041 79999 90983
AAXX 12124 71928 16/// /1101 11156 21174 39050 40254 58003 60001 333 11036 21158 4/007 70000
AAXX 12124 71950 15366 81505 11060 21068 39590 40235 58019 60001 333 11037 21065 70000
AAXX 12124 71952 16/// /1003 11082 21089 39361 40234 58011 60001 333 11054 21082 4/022 70000
AAXX 12124 71954 46/// /1802 11264 21288 39918 40318 53007 6///1 333 11113 21269 7////
AAXX 12124 71956 NIL
AAXX 12124 71959 NIL
AAXX 12124 71960 460// /0516 11201 39780 49913 56018 6///1 333 11149 21209 7////
AAXX 12124 71962 16/// /0104 11088 21102 39798 40232 53014 60001 333 10039 21115 4/005 70000
AAXX 12124 71963 NIL
AAXX 12124 71967 16/// /2109 11016 21057 30210 40318 53014 60001 333 11004 21028 70000
AAXX 12124 71970 NIL
AAXX 12124 71971 NIL
AAXX 12124 71972 460// ///// 11121 39550 40017 51019 6///1 333 11107 21131 7////
AAXX 12124 71973 46/// /1906 11060 21073 30066 40260 58019 6///1 333 11044 21085 7////
AAXX 12124 71974 NIL
AAXX 12124 71975 460// /2612 11169 39253 49983 51016 6///1 333 11105 21170 7////
AAXX 12124 71976 NIL
AAXX 12124 71977 NIL
AAXX 12124 71978 NIL
AAXX 12124 71979 NIL
AAXX 12124 71980 NIL
AAXX 12124 71981 NIL
AAXX 12124 71982 NIL
AAXX 12124 71983 NIL
AAXX 12124 71984 16/// /3506 11159 21175 39897 49905 57020 60001 333 11095 21162 70000
AAXX 12124 71985 NIL
AAXX 12124 71986 NIL
AAXX 12124 71987 16/// /2428 10008 21032 30253 40263 55010 60001 333 11011 21043 70000
AAXX 12124 71988 16/// /2212 10058 20019 30314 40334 51004 60001 333 10039 21014 70000
AAXX 12124 71989 NIL
AAXX 12124 71990 NIL
AAXX 12124 71999 46/// ///// 11059 6///1 333 10000 21063 7////
AAXX 12124 71744 NIL
AAXX 12124 71750 16/// /0505 11062 21068 39987 40225 52017 60001 333 10037 21062 4/005 70000
AAXX 12124 71751 NIL
AAXX 12124 71752 NIL
AAXX 12124 71753 16/// /3003 11013 21041 30287 40317 56013 60001 333 11010 21098 70000
AAXX 12124 71754 16/// /1104 11118 21136 39612 40306 50002 60001 333 11033 21136 55/// 20000 70000
AAXX 12124 71755 43/// /2902 11164 21177 39924 40286 5/019 6///1 333 11100 7////
AAXX 12124 71756 16/// /1403 11072 21111 39140 40259 50001 60001 333 11008 21075 4/046 70000
AAXX 12124 71758 NIL
AAXX 12124 71760 NIL
AAXX 12124 71761 NIL
AAXX 12124 71762 NIL
AAXX 12124 71763 NIL
AAXX 12124 71765 16/// /1605 11043 21060 30008 40290 51008 60001 333 10020 21044 70000
AAXX 12124 71766 NIL
AAXX 12124 71767 16/// /2407 10023 21001 30016 40281 53003 60001 333 10041 20021 4/001 70000
AAXX 12124 71768 46/// /3105 11009 21106 39712 40270 50008 6///1 333 10051 21009 7////
AAXX 12124 71769 16/// /2310 10022 21003 30232 40248 50000 60001 333 10053 20022 70000
AAXX 12124 71770 16/// /0403 11020 21055 39454 40243 51012 60001 333 11029 21036 70000
AAXX 12124 71771 NIL
AAXX 12124 71772 16/// /3013 10036 20008 30240 40246 50000 60001 333 10055 20036 70000
AAXX 12124 71773 16/// /1711 11010 21034 39118 49964 56015 60001 333 11016 21055 4/023 70000
AAXX 12124 71774 46/// ///// 11002 6///1 333 10034 21014 7////
AAXX 12124 71775 46/// /0000 11058 21062 30251 40257 58001 6///1 333 10034 21060 7////
AAXX 12124 71776 46/// /2504 11027 21041 39594 40249 51014 6///1 333 11003 21031 7////
AAXX 12124 71777 NIL
AAXX 12124 71778 46/// /0302 6///1 333 7////
AAXX 12124 71779 16/// /1402 11089 21095 39589 40270 58007 60001 333 11039 21102 4/007 70000
AAXX 12124 71780 16/// /0101 10010 21041 30229 40257 51002 60001 333 10068 20010 70000
AAXX 12124 71781 46/// /2707 10030 20002 30225 40250 58001 6///1 333 10055 20030 7////
AAXX 12124 71782 46/// /3501 11130 21138 38897 40265 50012 6///1 333 11044 21131 7////
AAXX 12124 71783 16/// /2603 10007 21025 30175 40250 50000 60001 333 10057 21004 70002
AAXX 12124 71784 16/// /3602 11011 21055 30038 40246 50001 60001 333 10064 21018 70000
AAXX 12124 71785 16/// /0104 10001 21045 30241 40257 58002 60001 333 10068 21011 70000
AAXX 12124 71786 46/// /0703 11182 21203 38391 40286 51007 6///1 333 11060 21183 7////
AAXX 12124 71787 16/// /2413 11010 21034 39797 40300 53004 60001 333 11046 21093 4/002 70003
AAXX 12124 71788 NIL
AAXX 12124 71789 NIL
AAXX 12124 71791 NIL
AAXX 12124 71792 NIL
AAXX 12124 71793 NIL
AAXX 12124 71794 NIL
AAXX 12124 71795 NIL
AAXX 12124 71796 NIL
AAXX 12124 71797 NIL
AAXX 12124 71350 16/// /2110 11004 21036 30222 40290 57008 60001 333 11035 21073 70000
AAXX 12124 71351 NIL
AAXX 12124 71352 NIL
AAXX 12124 71353 NIL
AAXX 12124 71354 NIL
AAXX 12124 71355 16/// /0000 11357 21395 39960 40049 58005 60001 333 11302 21375 4/011 70000
AAXX 12124 71356 16/// /1506 11242 21266 30067 40136 56016 60001 333 11262 21292 4/006 70000
AAXX 12124 71357 NIL
AAXX 12124 71358 16/// /2704 11195 21218 39993 40028 52005 60001 333 11134 21208 4/020 70000
AAXX 12124 71359 NIL
AAXX 12124 71360 NIL
AAXX 12124 71361 NIL
AAXX 12124 71362 NIL
AAXX 12124 71363 NIL
AAXX 12124 71364 NIL
AAXX 12124 71365 NIL
AAXX 12124 71368 15966 02003 11034 21076 39916 40318 53003 60001 333 10024 21035 70000
AAXX 12124 71369 15966 00806 11125 21140 39503 40231 58014 60001 333 11036 21157 70000
AAXX 12124 71370 46/// /0000 11066 21076 30150 40290 52019 6///1 333 10003 21067 7////
AAXX 12124 71371 15966 01907 11026 21064 30273 40308 51011 60001 333 10017 21026 70000
AAXX 12124 71372 NIL
AAXX 12124 71373 16/// /2004 11001 21096 60001 333 10003 21011 70000
AAXX 12124 71374 NIL
AAXX 12124 71375 NIL
AAXX 12124 71376 16/// /0000 11071 21074 30001 40305 53013 60001 333 11005 21072 70000
AAXX 12124 71377 16/// /2406 10005 21060 30256 40306 52009 60001 333 10014 21035 70000
AAXX 12124 71378 16/// /1706 11016 21054 30064 40278 53017 60001 333 11014 21037 4/003 70010
AAXX 12124 71379 16/// /2011 11002 21024 30042 40215 53018 60001 333 11024 21048 70000
AAXX 12124 71380 NIL
AAXX 12124 71381 NIL
AAXX 12124 71382 NIL
AAXX 12124 71383 NIL
AAXX 12124 71384 NIL
AAXX 12124 71385 NIL
AAXX 12124 71386 NIL
AAXX 12124 71387 NIL
AAXX 12124 71388 NIL
AAXX 12124 71389 46/// /0000 11054 21060 6///1 333 11016 21090 7////
AAXX 12124 71390 NIL
AAXX 12124 71391 16/// ///// 11052 21059 60001 333 11003 21054 70000
AAXX 12124 71392 NIL
AAXX 12124 71393 NIL
AAXX 12124 71395 12574 82010 11022 21042 30147 40332 55007 60001 885// 333 11015 21083 79999
AAXX 12124 71398 17666 83502 11076 21085 30237 40249 53027 60001 771// 333 11073 21079 70000
AAXX 12124 71399 NIL
AAXX 12124 71450 NIL
AAXX 12124 71451 16/// /2504 11120 21140 39833 40277 58004 60001 333 11100 21144 4/014 70000
AAXX 12124 71452 46/// /0406 11064 21077 39540 40271 50005 6///1 333 11002 21066 7////
AAXX 12124 71453 NIL
AAXX 12124 71454 16/// /2105 11139 21157 39577 40298 51002 60001 333 11050 21139 55/// 20000 70000
AAXX 12124 71455 NIL
AAXX 12124 71456 16/// /2901 11131 21143 39687 40311 51007 60001 333 11077 21134 70000
AAXX 12124 71457 17/// /3602 11088 21094 39345 40261 51006 69931 7//4/ 333 11016 21089 4/018 70026 555 10060
AAXX 12124 71458 16/// /1506 11066 21080 39467 40262 58007 60001 333 11009 21105 4/006 70000
AAXX 12124 71459 16/// /1003 11085 21099 39440 40274 50003 60001 333 11009 21086 70000
AAXX 12124 71460 16/// /2613 10038 20007 30022 40266 51006 60001 333 10048 20030 70000
AAXX 12124 71461 NIL
AAXX 12124 71462 NIL
AAXX 12124 71463 NIL
AAXX 12124 71464 NIL
AAXX 12124 71465 NIL
AAXX 12124 71466 NIL
AAXX 12124 71468 NIL
AAXX 12124 71470 NIL
AAXX 12124 71471 15966 01409 11082 21108 39361 40168 58029 60001 333 11025 21160 70000
AAXX 12124 71473 16/// /3206 10014 21015 30219 40250 51004 60001 333 10035 20014 70000
AAXX 12124 71475 16/// /0706 11015 21018 30176 40272 50000 60001 333 10009 21018 70000
AAXX 12124 71476 NIL
AAXX 12124 71477 17/// /1627 10037 20026 60041 7//4/ 333 10047 20011 70042
AAXX 12124 71478 NIL
AAXX 12124 71479 NIL
AAXX 12124 71480 NIL
AAXX 12124 71481 NIL
AAXX 12124 71482 NIL
AAXX 12124 71483 NIL
AAXX 12124 71484 NIL
AAXX 12124 71485 16/// /1107 10029 20012 30236 40257 58004 60001 333 10049 20023 70000
AAXX 12124 71486 16/// /2102 11200 21217 39036 40300 50000 60001 333 11027 21200 4/016 70000
AAXX 12124 71487 16/// /0405 11080 21089 39375 40267 51005 60001 333 11008 21080 70000
AAXX 12124 71489 16/// /0102 11137 21152 39460 40300 50002 60001 333 11037 21168 70000
AAXX 12124 71490 NIL
AAXX 12124 71491 16/// /0502 11142 21158 60001 333 10029 21216 70000
AAXX 12124 71492 NIL
AAXX 12124 71493 16/// /2306 10030 21004 30263 40302 58006 60001 333 11022 21098 70000
AAXX 12124 71494 16/// /2409 11034 21079 39763 40299 53012 60001 333 11044 21082 4/005 70000
AAXX 12124 71495 NIL
AAXX 12124 71496 16/// /0504 11107 21121 39661 40297 51002 60001 333 11050 21108 55/// 20000 70000
AAXX 12124 71497 46/// /2306 11066 21106 39781 40047 58031 6///1 333 11040 21087 7////
AAXX 12124 71498 NIL
AAXX 12124 71499 17466 82110 11102 21114 39598 40247 58010 60001 771// 333 11102 21128 70000
AAXX 12124 71550 NIL
AAXX 12124 71551 NIL
AAXX 12124 71552 NIL
AAXX 12124 71553 16/// /0907 11110 21120 60001 333 11067 21110 70000
AAXX 12124 71554 NIL
AAXX 12124 71555 17/// /1804 11084 21097 38647 40255 50001 69931 7//4/ 333 11006 21084 70058
AAXX 12124 71556 NIL
AAXX 12124 71557 46/// /0902 11126 21135 6///1 333 10021 21130 7////
AAXX 12124 71558 46/// ///// 11141 21174 30177 40215 55004 6///1 333 11110 21164 7////
AAXX 12124 71559 16/// /0905 11062 21065 39551 40272 53009 60001 333 10004 21065 55/// 20000 72200
AAXX 12124 71560 16/// /3613 11070 21087 39954 40271 52016 60001 333 11017 21111 70000
AAXX 12124 71563 NIL
AAXX 12124 71564 NIL
AAXX 12124 71565 NIL
AAXX 12124 71566 NIL
AAXX 12124 71567 NIL
AAXX 12124 71568 16/// /1901 10019 21004 30255 40268 56004 60001 333 10053 20013 70000
AAXX 12124 71569 NIL
AAXX 12124 71570 16/// /0106 11075 21093 39957 40280 51020 60001 333 11034 21088 70000
AAXX 12124 71571 NIL
AAXX 12124 71572 NIL
AAXX 12124 71573 NIL
AAXX 12124 71574 11574 81905 11051 21070 30190 40266 53004 69901 70387 885// 333 11041 21130 43020 79999 90931
AAXX 12124 71575 16/// /3204 11151 21178 30053 40119 53010 60001 333 11143 21188 4/026 70000
AAXX 12124 71576 16/// /2105 11204 21228 39955 40041 51008 60001 333 11172 21210 4/002 55/// 20000 70000
AAXX 12124 71577 46/// /3508 11126 21140 6///1 333 11043 21128 7////
AAXX 12124 71578 16/// /2513 11020 21060 60001 333 11005 21037 70000
AAXX 12124 71579 NIL
AAXX 12124 71580 11362 71508 11266 21294 30062 40100 57008 69901 77677 87600 333 11196 21282 45030 79999 90973
AAXX 12124 71581 NIL
AAXX 12124 71582 15966 31704 11012 21013 30213 40267 58014 60001 333 10026 21025 70000
AAXX 12124 71583 NIL
AAXX 12124 71584 17458 80306 11112 21127 30191 40241 55000 60001 771// 333 11130 21208 70000
AAXX 12124 71585 NIL
AAXX 12124 71586 16/// /1804 11122 21134 39804 40290 58002 60001 333 11097 21146 4/028 70000
AAXX 12124 71587 NIL
AAXX 12124 71588 16/// /0402 11071 21080 60001 333 11051 21099 70000
AAXX 12124 71589 16/// /2707 11085 21118 30139 40277 51017 60001 333 10001 21094 70000
AAXX 12124 71590 16/// /1203 11056 21069 30070 40267 51009 60001 333 11036 21088 4/006 70000
AAXX 12124 71592 NIL
AAXX 12124 71593 NIL
AAXX 12124 71596 NIL
AAXX 12124 71598 16/64 /2106 11031 21069 30261 40267 53010 60001 333 11045 21103 4/002 70000 555 10010
AAXX 12124 71599 16/// /2303 11003 21015 30128 40338 55000 60001 333 11007 21068 4/002 70000 555 10010
AAXX 12124 71864 NIL
AAXX 12124 71865 16/// /0604 11106 21120 39590 40297 50003 60001 333 11057 21112 70000
AAXX 12124 71866 46264 80504 11106 21127 39664 40302 50002 6///1 333 11050 21109 7////
AAXX 12124 71867 12474 12602 11189 21198 39964 40317 51008 60001 81500 333 11090 21192 47016 70003
AAXX 12124 71868 NIL
AAXX 12124 71869 11262 82304 11133 21141 39765 40315 52004 69921 77122 887// 333 11056 21138 47004 70002 90942
AAXX 12124 71871 15366 81708 11116 21128 39447 40286 50000 60001 333 11019 21129 70000
AAXX 12124 71877 11458 81805 11065 21073 38954 40261 58002 69941 71072 885// 333 11012 21084 48008 70060 90923
AAXX 12124 71878 11920 01805 11149 21163 39156 40267 58005 69901 71071 333 11014 21161 48012 79999 90933
AAXX 12124 71879 16961 01706 11071 21093 39425 40252 58006 60001 333 11011 21079 70000
AAXX 12124 71880 11480 42302 11090 21102 39121 40260 51013 69921 70177 82670 333 11062 21097 47002 70020 90943
AAXX 12124 71882 16964 03508 11059 21087 39729 40281 51013 60001 333 10009 21065 70000
AAXX 12124 71883 NIL
AAXX 12124 71887 12786 21202 11073 21094 39861 40297 51006 60001 82500 333 11009 21109 46997 70000
AAXX 12124 71889 12474 83308 10015 21097 39842 40267 50006 60001 885// 333 10030 20004 70002
AAXX 12124 71891 16964 01705 11041 21060 30011 40293 52009 60001 333 10022 21042 70000
AAXX 12124 71892 12980 00103 11039 21063 30252 40257 50002 60001 333 10050 21044 55064 70000
AAXX 12124 71816 12974 12621 11190 21252 30158 40223 52011 60001 80001 333 11168 21198 44047 55065 70000
AAXX 12124 71817 NIL
AAXX 12124 71818 12574 12413 11157 21181 30154 40173 52012 60001 81100 333 11102 21158 43020 55052 70000
AAXX 12124 71822 11466 83204 11020 21030 39741 40225 53026 60011 77175 887// 333 11025 21063 43028 70054 90983
AAXX 12124 71825 12874 20000 11275 21321 39530 40247 53013 60001 82010 333 11197 21278 47072 70000
AAXX 12124 71827 12774 71702 11165 21186 39994 40250 52020 60001 87500 333 11137 21213 47018 79999
AAXX 12124 71828 16137 83102 11225 21262 39544 40218 53014 60001 333 11194 21225 70000
AAXX 12124 71831 11474 83004 11019 21029 39948 40234 52020 69901 70252 885// 333 11012 21034 47016 70006 90922
AAXX 12124 71832 NIL
AAXX 12124 71834 11259 80404 11058 21068 39811 40249 53022 69901 77122 887// 333 11005 21058 48011 79999 90921
AAXX 12124 71841 NIL
AAXX 12124 71842 12874 33602 11132 21142 39777 40266 53020 60001 83070 333 11052 21139 48003 70000
AAXX 12124 71844 16564 82903 11145 21174 39985 40278 51017 60001 333 11116 21195 70000
AAXX 12124 71845 13269 83404 11144 21150 39778 40272 52019 69902 86608 333 11055 21144 44009 79999 555 10010 20006
AAXX 12124 71850 12774 63607 11104 21114 39742 40258 53015 60001 83501 333 11031 21109 48003 70000
AAXX 12124 71852 16264 80112 11108 21117 39981 40289 53023 60001 333 11048 21131 70000
AAXX 12124 71854 11269 83507 11058 21109 39785 40277 53020 69902 771// 885// 333 11058 21109 48009 79999 90929 555 10000 20000
AAXX 12124 71858 16/// /2102 11208 21229 30021 40320 53010 60001 333 11061 21208 70000
AAXX 12124 71861 NIL
AAXX 12124 71862 11116 80805 11061 21070 39553 40276 53008 69901 77177 886// 333 10002 21066 42002 79999 90972
AAXX 12124 71863 46259 80804 11077 21101 39562 40282 51006 6///1 333 11019 21087 7////
AAXX 12124 71851 16/// /3512 11105 21115 39947 40296 51019 60001 333 11052 21105 70000
AAXX 12124 71857 NIL
AAXX 12124 71860 NIL
AAXX 12124 71876 15266 81005 11103 21111 39616 40308 50003 60001 333 11029 21122 70000
AAXX 12124 71885 NIL
AAXX 12124 71888 NIL
AAXX 12124 71895 NIL
AAXX 12124 71812 NIL
AAXX 12124 71819 15966 02919 11141 21175 30180 40223 57003 60001 333 11116 21160 70003
AAXX 12124 71820 16/// /2112 10026 21034 30198 40315 53004 60001 333 10035 20023 4/001 70000
AAXX 12124 71823 16364 80000 11242 21273 39852 40256 51023 60001 333 11151 21275 70005
AAXX 12124 71824 NIL
AAXX 12124 71826 16/// /2601 11133 21159 39964 40007 52014 60001 333 11125 21139 4/011 70000
AAXX 12124 71829 17/// /2705 11047 21063 30066 40233 53007 69941 7//4/ 333 11068 21132 70009
AAXX 12124 71833 NIL
AAXX 12124 71835 16/// /3603 11144 21156 39768 40267 53020 60001 333 11055 21144 4/005 70000
AAXX 12124 71837 NIL
AAXX 12124 71839 NIL
AAXX 12124 71840 NIL
AAXX 12124 71846 16/// /2802 11226 21246 39947 40279 53024 60001 333 11086 21226 4/002 70005
AAXX 12124 71847 NIL
AAXX 12124 71848 NIL
AAXX 12124 71849 NIL
AAXX 12124 71900 46/// /25// 11151 21197 30125 40138 53011 6///1 333 11125 21165 7////
AAXX 12124 71903 NIL
AAXX 12124 71904 NIL
AAXX 12124 71914 16/// /3502 10016 21002 30029 40254 51001 60001 333 10033 20015 70000
AAXX 12124 71916 NIL
AAXX 12124 71918 460// ///// 11268 6///1 333 7////
AAXX 12124 71920 NIL
AAXX 12124 71921 NIL
AAXX 12124 71923 NIL
AAXX 12124 71927 NIL
AAXX 12124 71941 15566 82307 10010 21005 39822 40245 53017 60001 333 11008 21026 70000
AAXX 12124 71947 17140 83603 11028 21028 39877 40230 52023 60001 710// 333 11013 21040 70000
AAXX 12124 71001 NIL
AAXX 12124 71002 NIL
AAXX 12124 71003 NIL
AAXX 12124 71005 NIL
AAXX 12124 71006 NIL
AAXX 12124 71007 NIL
AAXX 12124 71008 NIL
AAXX 12124 71009 NIL
AAXX 12124 71010 NIL
AAXX 12124 71011 NIL
AAXX 12124 71012 NIL
AAXX 12124 71013 NIL
AAXX 12124 71014 NIL
AAXX 12124 71015 NIL
AAXX 12124 71016 NIL
AAXX 12124 71017 NIL
AAXX 12124 71018 NIL
AAXX 12124 71019 NIL
AAXX 12124 71020 NIL
AAXX 12124 71021 NIL
AAXX 12124 71022 15566 81311 10020 21008 30167 40212 58023 60001 333 10029 21007 70000
AAXX 12124 71023 16164 82308 11101 21108 39472 40267 55003 60001 333 11019 21104 70000
AAXX 12124 71024 16/// /0501 11161 21170 60001 333 11051 21175 4/009 70000
AAXX 12124 71026 NIL
AAXX 12124 71027 16/// /2006 11028 21070 30289 40299 58013 60001 333 11004 21054 70013
AAXX 12124 71028 16/// /3502 11167 21178 39225 40306 58004 60001 333 11015 21167 4/008 70000
AAXX 12124 71029 16/// /0814 11200 21220 39908 49948 57032 60001 333 11207 21254 4/029 70000
AAXX 12124 71030 16/64 /2408 10050 20003 30214 40306 53002 60001 333 10029 21082 4/001 70000 555 10010
AAXX 12124 71032 46/// /0000 11055 21088 39419 40270 50002 6///1 333 10009 21055 4/007 7////
AAXX 12124 71033 46/// /2106 11109 21119 39598 40250 58009 6///1 333 11108 21136 4/017 55/// 20000 7//// 555 10010
AAXX 12124 71035 NIL
AAXX 12124 71036 17466 80307 11117 21133 39925 40316 51012 60001 771// 333 11049 21117 70000
AAXX 12124 71039 46/// /1413 10005 6///1 333 11020 21133 7////
AAXX 12124 71040 46/// /2510 10011 21031 30035 40238 53018 6///1 333 11006 21076 7////
AAXX 12124 71041 15666 82109 11030 21095 30174 40321 58015 60001 333 11004 21084 70000
AAXX 12124 71042 16/// /0202 11063 21068 30246 40250 51003 60001 333 10052 21068 70000
AAXX 12124 71044 17/// /0314 11085 21110 39541 49857 58026 69931 7//4/ 333 11120 21203 4/007 70003
AAXX 12124 71046 460// /1111 11150 39910 49927 56014 6///1 333 11096 21161 7////
AAXX 12124 71047 NIL
AAXX 12124 71048 NIL
AAXX 12124 71049 NIL
AAXX 12124 71060 NIL
AAXX 12124 71063 NIL
AAXX 12124 71726 16/// /2305 11017 21030 39700 40251 51017 60001 333 11023 21046 4/013 70024
AAXX 12124 71727 11674 80000 11031 21041 30045 40247 53015 69901 70288 885// 333 11044 21070 47019 70042 90933
AAXX 12124 71728 12580 82315 10002 21031 30015 40240 53020 60001 885// 333 11018 21038 48001 70002
AAXX 12124 71730 12466 81706 11002 21009 39829 40260 56014 60001 886// 333 10019 21007 46008 70000
AAXX 12124 71731 12369 82311 10011 21001 39812 40270 52010 60001 887// 333 10012 20009 47001 79999
AAXX 12124 71735 NIL
AAXX 12124 71738 11459 80000 10002 21004 39872 40229 53016 60002 710// 885// 333 10045 21001 44012 79999 555 19999 29999 32134 40181
AAXX 12124 71739 42474 80000 11001 21010 39862 40230 52022 6//// 886// 333 11004 21039 4//// 7////
AAXX 12124 71749 16462 62205 11100 21108 39989 40243 53019 60001 333 10026 21140 70005
AAXX 12124 71799 12983 12605 11014 21032 30232 40256 50002 60001 80001 333 10060 21014 55050 79999
AAXX 12124 71800 16/// /3305 11038 21061 30275 40309 53021 60001 333 10066 21055 70000
AAXX 12124 71801 12574 22825 11058 21114 30104 40283 53019 60001 82500 333 10047 21066 79999
AAXX 12124 71803 11474 22814 11094 21138 30081 40275 50012 69901 70388 81541 333 11006 21100 48002 79999 90961
AAXX 12124 71807 NIL
AAXX 12124 71808 12574 62710 11154 21210 30199 40248 55005 60001 86500 333 11124 21170 44018 70000
AAXX 12124 71809 11448 80704 11076 21087 30234 40262 58013 60001 78582 885// 333 11044 21086 47004 70044 90937 93101
AAXX 12124 71810 16/// /2409 11028 21039 30157 40225 56003 60001 333 11092 21108 70009
AAXX 12124 71811 NIL
AAXX 12124 71813 NIL
AAXX 12124 71814 16/// /0204 11131 21159 30238 40248 57012 60001 333 11120 21161 70000
AAXX 12124 71815 11/24 92515 11019 21021 30231 40263 58024 60021 78582 333 11025 21076 44006 70049 90927 93102
AAXX 12124 71043 12983 81310 11100 21135 39788 49881 56057 60001 86072 333 11112 21221 48019 70000
AAXX 12124 71045 16/// /1205 11017 21064 39150 40012 57040 60001 333 11026 21136 4/021 70000
AAXX 12124 71050 NIL
AAXX 12124 71051 NIL
AAXX 12124 71052 NIL
AAXX 12124 71066 12258 80000 11119 21147 39712 40142 58033 60001 885// 333 11061 21153 44016 70000
AAXX 12124 71068 12974 02103 11152 21165 39481 40195 58019 60001 333 11064 21153 46997 70000
AAXX 12124 71069 16964 00905 11132 21136 39504 40232 58013 60001 333 11037 21167 70000
AAXX 12124 71076 16/// /2106 11087 21096 39792 40193 58016 60001 333 11078 21088 4/030 55/// 20000 70000 555 10030
AAXX 12124 71077 16/// /2104 11075 21092 39712 40269 58005 60001 333 11086 21101 4/008 55/// 20000 70000
AAXX 12124 71079 11574 80000 11207 21242 30001 40296 52008 69901 77111 885// 333 11132 21271 48003 79999 90910
AAXX 12124 71081 46964 02908 11282 21325 30084 40096 51001 6///1 333 11187 21284 7////
AAXX 12124 71082 NIL
AAXX 12124 71083 11474 60000 11282 21323 30129 40174 58014 69901 77177 86500 333 11301 21320 48053 79999 90983
AAXX 12124 71090 46564 32604 11198 21230 39995 40030 52006 6///1 333 11135 21209 7////
AAXX 12124 71091 460// /2819 11194 39848 40061 51008 6///1 333 7////
AAXX 12124 71092 46916 02909 11246 39370 40051 51011 6///1 333 11156 21250 7////
AAXX 12124 71093 460// /2620 11190 39514 40015 51005 6///1 333 11133 21191 7////
AAXX 12124 71094 46004 /3228 11158 39029 49925 51014 6///1 333 11139 21166 7////
AAXX 12124 71095 47558 82105 11205 21237 39960 40041 52008 6///1 745// 333 11172 21212 7////
AAXX 12124 71101 160// /1805 30189 57027 60001 333 70000
AAXX 12124 71104 12974 21402 11121 21135 39135 40282 50001 60001 80001 333 11031 21127 44014 79999
AAXX 12124 71108 12974 00209 10003 21061 30177 40251 58002 60001 333 10057 21012 70002
AAXX 12124 71109 12574 71804 10016 21004 30236 40263 58001 60001 87500 333 10047 20011 70000
AAXX 12124 71401 16/// /3303 11046 21068 39545 40246 51014 60001 333 11029 21062 70000
AAXX 12124 71402 NIL
AAXX 12124 71404 NIL
AAXX 12124 71405 NIL
AAXX 12124 71406 NIL
AAXX 12124 71407 NIL
AAXX 12124 71408 NIL
AAXX 12124 71409 NIL
AAXX 12124 71410 15966 02401 11256 21282 30018 40317 53012 60001 333 11098 21259 70005
AAXX 12124 71413 NIL
AAXX 12124 71414 NIL
AAXX 12124 71415 16/// /2212 11016 21057 30298 40301 56017 60001 333 11003 21057 70006
AAXX 12124 71417 NIL
AAXX 12124 71418 NIL
AAXX 12124 71419 46/// /2009 11026 21058 30327 40338 57008 6///1 333 10022 21054 7////
AAXX 12124 71423 NIL
AAXX 12124 71424 46/// /2216 6///1 333 7////
AAXX 12124 71425 NIL
AAXX 12124 71426 NIL
AAXX 12124 71427 17/// /2608 11022 21034 30228 40236 53007 60011 7//4/ 333 11037 21098 70030
AAXX 12124 71428 NIL
AAXX 12124 71429 16/// /2608 11044 21072 30229 40249 53003 60001 333 11078 21115 70000
AAXX 12124 71434 NIL
AAXX 12124 71436 15966 02205 10000 21054 30068 40309 53004 60001 333 10030 21002 70000
AAXX 12124 71437 46/// /2105 10007 21045 30217 40314 53004 6///1 333 10040 20007 7////
AAXX 12124 71438 NIL
AAXX 12124 71439 NIL
AAXX 12124 71440 NIL
AAXX 12124 71442 NIL
AAXX 12124 71445 NIL
AAXX 12124 71446 16/// /1005 11095 21109 39255 40263 53002 60001 333 11033 21096 70000
AAXX 12124 71448 NIL
AAXX 12124 71449 16/// /3607 11105 21119 39833 40249 53015 60001 333 10032 21122 70000
AAXX 12124 71665 16/// /2921 11133 21184 30113 40123 50012 60001 333 11121 21174 4/030 70009
AAXX 12124 71666 16/// /2310 11026 21053 30243 40289 55000 60001 333 11029 21082 4/001 70000
AAXX 12124 71667 NIL
AAXX 12124 71668 16/// /2504 11027 21081 30257 40302 53007 60001 333 11033 21084 70000
AAXX 12124 71669 NIL
AAXX 12124 71670 16/// ///// 11030 21066 60001 333 11047 21086 70000
AAXX 12124 71671 16/// /2307 10010 21023 30249 40311 55007 60001 333 11018 21060 70000
AAXX 12124 71672 16/// /1904 11012 21066 30032 40303 53004 60001 333 10026 21018 70000
AAXX 12124 71673 NIL
AAXX 12124 71674 NIL
AAXX 12124 71675 17566 83003 11145 21165 39984 40276 51017 60051 77144 333 11123 21185 70151
AAXX 12124 71679 16/// /0404 11101 21109 39187 40227 58010 60001 333 11006 21105 70000
AAXX 12124 71680 NIL
AAXX 12124 71681 46/// /1501 11046 21073 6///1 333 10025 21047 7////
AAXX 12124 71682 NIL
AAXX 12124 71683 NIL
AAXX 12124 71684 15566 82010 10000 21013 39941 40247 53020 60001 333 10008 21021 70000
AAXX 12124 71685 15966 03310 11049 21075 39727 40279 51013 60001 333 10006 21058 70000
AAXX 12124 71686 NIL
AAXX 12124 71687 16/// /0000 11114 21125 39466 40272 50002 60001 333 10014 21115 4/028 70000
AAXX 12124 71688 16/// /0702 11091 21109 39190 40249 50000 60001 333 10015 21092 4/054 70000
AAXX 12124 71689 15966 02204 11099 21110 39767 40236 58007 60001 333 11064 21104 70000
AAXX 12124 71690 NIL
AAXX 12124 71691 17866 82904 11045 21055 30209 40237 53006 60001 771// 333 11071 21108 70000
AAXX 12124 71692 NIL
AAXX 12124 71694 16/// /0701 11111 21122 39934 40310 53004 60001 333 10011 21114 4/015 70000
AAXX 12124 71695 16/// /2402 11190 21209 39959 40311 51007 60001 333 11089 21193 4/018 70000
AAXX 12124 71696 NIL
AAXX 12124 71697 15966 03201 11042 21053 30140 40316 53005 60001 333 10033 21044 70000
AAXX 12124 71699 16/// /2905 10031 21003 30306 40314 53005 60001 333 10037 21013 70000
AAXX 12124 71930 NIL
AAXX 12124 71931 16/// /2610 11092 21133 30243 40256 51027 60001 333 10029 21099 70000
AAXX 12124 71934 12974 71708 11109 21126 39868 40130 58027 60001 80006 333 11066 21114 44021 79999
AAXX 12124 71935 12974 21912 11079 21107 39846 40056 58049 60001 81049 333 11061 21098 44015 79999
AAXX 12124 71936 11374 81506 11074 21077 39784 40045 57047 69901 77177 887// 333 11050 21081 48024 70008 90983
AAXX 12124 71937 NIL
AAXX 12124 71938 11574 80000 11197 21227 39921 49951 58051 69901 70272 82520 333 11195 21238 48020 79999 90923
AAXX 12124 71940 11982 00000 11204 21225 39375 40212 58021 60001 70240 333 11014 21209 44001 79999
AAXX 12124 71943 12974 62008 11066 21114 39306 40159 58024 60001 80001 333 11049 21112 48008 79999
AAXX 12124 71944 160// ///// 11081 56009 60001 333 11035 21089 70000
AAXX 12124 71945 12974 81805 11146 21181 39612 40093 57031 60001 83071 333 11068 21160 47011 70000
AAXX 12124 71946 12774 81405 11130 21150 39774 49990 58058 60001 86502 333 11092 21141 48037 70000
AAXX 12124 71948 46011 00720 11176 39812 49925 56024 6///1 333 11169 21187 7////
AAXX 12124 71949 46/// /1509 11075 21090 39077 49951 56036 6///1 333 11132 21178 7////
AAXX 12124 71951 11162 80000 11027 21035 39969 40242 58024 69901 77172 885// 333 11003 21031 47021 70006 90947
AAXX 12124 71957 46864 82102 11123 21171 39803 49890 58017 6///1 333 11083 21137 7////
AAXX 12124 71958 43/// /0000 11111 21123 39158 40116 58023 6///1 333 11054 21160 7////
AAXX 12124 71964 11580 81620 11010 21043 39122 49969 55016 69901 77172 885// 333 10003 21061 47020 79999
AAXX 12124 71966 17/// /0105 11062 21081 39399 49855 56038 60021 7//4/ 333 11099 21154 4/031 70023 555 10040
AAXX 12124 71968 47048 /0206 11150 39849 49913 56014 6///1 745// 333 11065 21150 7////
AAXX 12124 71201 16/// ///// 11007 21037 60001 333 10057 21007 70002
AAXX 12124 71202 16/// ///// 11066 21078 60001 333 11022 21071 70000
AAXX 12124 71203 15766 80202 11038 21046 39742 40276 50007 60001 333 10012 21043 70000
AAXX 12124 71209 46/// /3314 10041 6///1 333 10055 20041 7////
AAXX 12124 71211 46/// /0422 10029 21062 30241 40253 51003 6///1 333 10051 20028 7////
AAXX 12124 71212 16/// /2706 11038 21053 39437 40260 53012 60001 333 11057 21070 4/012 70000
AAXX 12124 71213 46/// /2210 10002 21007 39938 40243 53019 6///1 333 10011 21023 7////
AAXX 12124 71214 NIL
AAXX 12124 71215 46/// /3408 10022 21090 39905 40253 51013 6///1 333 10055 20018 7////
AAXX 12124 71216 16/// /0802 11048 21062 39636 40268 51015 60001 333 11003 21055 4/001 70000 555 10010
AAXX 12124 71217 NIL
AAXX 12124 71218 16/// /2002 11086 21096 39843 40284 50008 60001 333 10028 21090 70000
AAXX 12124 71219 46/// /1316 10029 21010 30200 40206 58025 6///1 333 10034 20016 7////
AAXX 12124 71220 46/// /1424 10032 20007 6///1 333 10039 20015 7////
AAXX 12124 71221 NIL
AAXX 12124 71222 16/// /0000 11111 21122 39147 40134 58023 60001 333 11055 21162 4/027 70000
AAXX 12124 71223 NIL
AAXX 12124 71224 NIL
AAXX 12124 71225 NIL
AAXX 12124 71226 NIL
AAXX 12124 71227 NIL
AAXX 12124 71228 NIL
AAXX 12124 71229 NIL
AAXX 12124 71230 16/// /1303 11106 21138 39273 40188 58019 60001 333 11016 21122 4/002 70000 555 10010
AAXX 12124 71231 17/// /0204 11066 21080 69971 7//4/ 333 11012 21067 70022
AAXX 12124 71232 16/// /2305 11097 21114 38702 40242 58003 60001 333 11015 21176 70036
AAXX 12124 71233 NIL
AAXX 12124 71234 17/// /0902 11081 21089 39042 40264 51005 69951 7//4/ 333 11020 21087 4/009 70040 555 10080
AAXX 12124 71235 17/// /2005 11076 21082 69931 7//4/ 333 11004 21077 70036
AAXX 12124 71236 46/// /0000 11107 21121 6///1 333 11004 21107 7////
AAXX 12124 71237 46/// /2003 11079 21089 39421 40260 50002 6///1 333 11006 21079 7////
AAXX 12124 71238 16/// /1603 11082 21091 60001 333 11027 21084 4/001 70000
AAXX 12124 71239 16/// /0313 11105 21126 39811 40295 51017 60001 333 11028 21106 4/002 70000 555 10010
AAXX 12124 71240 16/// /0000 11079 21096 39407 40281 50002 60001 333 11027 21079 70000
AAXX 12124 71241 NIL
AAXX 12124 71242 16/// /1902 11131 21140 60001 333 11023 21141 4/006 70000
AAXX 12124 71243 NIL
AAXX 12124 71244 17/// /3404 11073 21081 38989 40248 51006 69931 7//4/ 333 11024 21073 4/008 70024 555 10050
AAXX 12124 71245 NIL
AAXX 12124 71246 NIL
AAXX 12124 71247 17648 80105 11057 21062 39386 40262 53003 69981 7714/ 333 11011 21057 70014
AAXX 12124 71248 16/// /0000 11200 21227 38908 40262 58006 60001 333 11027 21200 4/022 70035 555 10060
AAXX 12124 71249 NIL
AAXX 12124 16614 12570 60000 10124 20054 39444 40214 58019 60001 86500 333 90730 91107
AAXX 12124 16627 NIL
AAXX 12124 16667 12565 51407 10184 20084 30240 40246 56014 60001 82150 333 82825 84358 90730 91112 555 30000 20162 30144 40000 47710 44200 50000 50132
AAXX 12124 16675 NIL
AAXX 12124 16710 36/// /2406 10142 20065 39477 40239 57015 333 90730 91117
AAXX 12124 16723 12460 52212 10160 20104 30240 40256 56015 60001 83250 333 83818 85360 90730 91113 555 40000 47715 44230 50000 50130
AAXX 12124 16738 17/// /1307 10174 20131 30042 40239 57015 69901 741// 333 90730 91115 555 60000 65555 60006
AAXX 12124 16746 12560 80000 10190 20097 30062 40240 58016 60001 81137 333 81825 88270 90730 91103 555 40000 47577 44190 50000 50140
AAXX 12124 06011 07564 83003 10024 20016 39714 49782 57009 60121 75186 333 55300 20076 60057 85/30 88/35
AAXX 12124 81225 11360 60904 10250 20223 40125 6009 71011 82952 333 20/// 56199 58003 81707 81920 85360
AAXX 12124 81200 11458 70000 10244 20232 40125 60044 78081 85932 333 20/// 56229 58008 81815 81920 85625 85358
AAXX 12124 81202 12470 11203 10261 20244 40125 69924 81902 333 20244 56209 58006 81815 81918
AAXX 12124 81209 12465 70000 10254 20231 4//// 69904 87832 333 20/// 56299 5//// 86812
AAXX 12124 81251 NIL
AAXX 12124 78951 11578 51105 10280 20240 30121 40136 60102 7028/ 82202 333 10310 20232 58006 70102 82820 83078
AAXX 12124 71603 12574 62315 10056 20015 30288 40343 53004 60001 86500 333 10028 21050 79999
AAXX 12124 71607 16/// /0000 11087 21092 30282 40316 53005 60001 333 11009 21089 4/001 70000
AAXX 12124 71609 12574 12508 10014 21035 30175 40314 53003 60001 81500 333 10018 21100 70000
AAXX 12124 71610 NIL
AAXX 12124 71621 12974 02406 11005 21029 30209 40318 53006 60001 333 10038 21005 70000
AAXX 12124 71623 NIL
AAXX 12124 71624 12974 02005 11013 21054 30097 40315 53003 60001 333 10041 21022 55084 70000
AAXX 12124 71625 16964 00000 11097 21139 30123 40289 53010 60001 333 10015 21101 70000
AAXX 12124 71627 12983 02406 11003 21073 30264 40310 52009 60001 333 10018 21023 41997 70000
AAXX 12124 71628 12974 01905 11007 21041 30161 40305 52011 60001 333 10031 21011 41997 70000
AAXX 12124 71630 NIL
AAXX 12124 71631 16/// /1905 11041 21075 39790 40305 55000 60001 333 11006 21043 70000
AAXX 12124 71633 12474 71709 11025 21046 30015 40294 51007 60001 87500 333 10033 21026 41001 55039 70000
AAXX 12124 71705 12574 22506 11030 21052 30208 40299 52003 60001 81501 333 11035 21082 79999
AAXX 12124 71706 11474 82312 10001 21038 30238 40300 56005 69901 72622 885// 333 11023 21070 79999 90910
AAXX 12124 71707 12674 72006 11036 21094 30244 40323 58008 60001 87500 333 10000 21074 41997 79999
AAXX 12124 71709 11674 82217 10006 21031 30256 40270 57020 69942 785// 885// 333 11021 21047 41997 70010 90999 555 10008 20008
AAXX 12124 71711 NIL
AAXX 12124 71714 46/// /2506 11026 30215 6///1 333 4/005 7////
AAXX 12124 71715 16/// /2109 11008 21050 30069 40255 53013 60001 333 11018 21040 4/004 70000
AAXX 12124 71718 11566 82109 11006 21036 30177 40244 53007 69901 78522 885// 333 11023 21057 47014 79999 90962
AAXX 12124 71719 NIL
AAXX 12124 71603 12574 62315 10056 20015 30288 40343 53004 60001 86500 333 10028 21050 79999
AAXX 12124 71607 16/// /0000 11087 21092 30282 40316 53005 60001 333 11009 21089 4/001 70000
AAXX 12124 71609 12574 12508 10014 21035 30175 40314 53003 60001 81500 333 10018 21100 70000
AAXX 12124 71610 NIL
AAXX 12124 71621 12974 02406 11005 21029 30209 40318 53006 60001 333 10038 21005 70000
AAXX 12124 71623 NIL
AAXX 12124 71624 12974 02005 11013 21054 30097 40315 53003 60001 333 10041 21022 55084 70000
AAXX 12124 71625 16964 00000 11097 21139 30123 40289 53010 60001 333 10015 21101 70000
AAXX 12124 71627 12983 02406 11003 21073 30264 40310 52009 60001 333 10018 21023 41997 70000
AAXX 12124 71628 12974 01905 11007 21041 30161 40305 52011 60001 333 10031 21011 41997 70000
AAXX 12124 71630 NIL
AAXX 12124 71631 16/// /1905 11041 21075 39790 40305 55000 60001 333 11006 21043 70000
AAXX 12124 71633 12474 71709 11025 21046 30015 40294 51007 60001 87500 333 10033 21026 41001 55039 70000
AAXX 12124 71705 12574 22506 11030 21052 30208 40299 52003 60001 81501 333 11035 21082 79999
AAXX 12124 71706 11474 82312 10001 21038 30238 40300 56005 69901 72622 885// 333 11023 21070 79999 90910
AAXX 12124 71707 12674 72006 11036 21094 30244 40323 58008 60001 87500 333 10000 21074 41997 79999
AAXX 12124 71709 11674 82217 10006 21031 30256 40270 57020 69942 785// 885// 333 11021 21047 41997 70010 90999 555 10008 20008
AAXX 12124 71711 NIL
AAXX 12124 71714 46/// /2506 11026 30215 6///1 333 4/005 7////
AAXX 12124 71715 16/// /2109 11008 21050 30069 40255 53013 60001 333 11018 21040 4/004 70000
AAXX 12124 71718 11566 82109 11006 21036 30177 40244 53007 69901 78522 885// 333 11023 21057 47014 79999 90962
AAXX 12124 71719 NIL
AAXX 12124 71726 16/// /2305 11017 21030 39700 40251 51017 60001 333 11023 21046 4/013 70024
AAXX 12124 71727 11674 80000 11031 21041 30045 40247 53015 69901 70288 885// 333 11044 21070 47019 70042 90933
AAXX 12124 71728 12580 82315 10002 21031 30015 40240 53020 60001 885// 333 11018 21038 48001 70002
AAXX 12124 71730 12466 81706 11002 21009 39829 40260 56014 60001 886// 333 10019 21007 46008 70000
AAXX 12124 71731 12369 82311 10011 21001 39812 40270 52010 60001 887// 333 10012 20009 47001 79999
AAXX 12124 71735 NIL
AAXX 12124 71738 11459 80000 10002 21004 39872 40229 53016 60002 710// 885// 333 10045 21001 44012 79999 555 19999 29999 32134 40181
AAXX 12124 71739 42474 80000 11001 21010 39862 40230 52022 6//// 886// 333 11004 21039 4//// 7////
AAXX 12124 71749 16462 62205 11100 21108 39989 40243 53019 60001 333 10026 21140 70005
AAXX 12124 71799 12983 12605 11014 21032 30232 40256 50002 60001 80001 333 10060 21014 55050 79999
AAXX 12124 71800 16/// /3305 11038 21061 30275 40309 53021 60001 333 10066 21055 70000
AAXX 12124 71801 12574 22825 11058 21114 30104 40283 53019 60001 82500 333 10047 21066 79999
AAXX 12124 71803 11474 22814 11094 21138 30081 40275 50012 69901 70388 81541 333 11006 21100 48002 79999 90961
AAXX 12124 71807 NIL
AAXX 12124 71808 12574 62710 11154 21210 30199 40248 55005 60001 86500 333 11124 21170 44018 70000
AAXX 12124 71809 11448 80704 11076 21087 30234 40262 58013 60001 78582 885// 333 11044 21086 47004 70044 90937 93101
AAXX 12124 71810 16/// /2409 11028 21039 30157 40225 56003 60001 333 11092 21108 70009
AAXX 12124 71811 NIL
AAXX 12124 71813 NIL
AAXX 12124 71814 16/// /0204 11131 21159 30238 40248 57012 60001 333 11120 21161 70000
AAXX 12124 71815 11/24 92515 11019 21021 30231 40263 58024 60021 78582 333 11025 21076 44006 70049 90927 93102
AAXX 12124 71043 12983 81310 11100 21135 39788 49881 56057 60001 86072 333 11112 21221 48019 70000
AAXX 12124 71045 16/// /1205 11017 21064 39150 40012 57040 60001 333 11026 21136 4/021 70000
AAXX 12124 71050 NIL
AAXX 12124 71051 NIL
AAXX 12124 71052 NIL
AAXX 12124 71066 12258 80000 11119 21147 39712 40142 58033 60001 885// 333 11061 21153 44016 70000
AAXX 12124 71068 12974 02103 11152 21165 39481 40195 58019 60001 333 11064 21153 46997 70000
AAXX 12124 71069 16964 00905 11132 21136 39504 40232 58013 60001 333 11037 21167 70000
AAXX 12124 71076 16/// /2106 11087 21096 39792 40193 58016 60001 333 11078 21088 4/030 55/// 20000 70000 555 10030
AAXX 12124 71077 16/// /2104 11075 21092 39712 40269 58005 60001 333 11086 21101 4/008 55/// 20000 70000
AAXX 12124 71079 11574 80000 11207 21242 30001 40296 52008 69901 77111 885// 333 11132 21271 48003 79999 90910
AAXX 12124 71081 46964 02908 11282 21325 30084 40096 51001 6///1 333 11187 21284 7////
AAXX 12124 71082 NIL
AAXX 12124 71083 11474 60000 11282 21323 30129 40174 58014 69901 77177 86500 333 11301 21320 48053 79999 90983
AAXX 12124 71090 46564 32604 11198 21230 39995 40030 52006 6///1 333 11135 21209 7////
AAXX 12124 71091 460// /2819 11194 39848 40061 51008 6///1 333 7////
AAXX 12124 71092 46916 02909 11246 39370 40051 51011 6///1 333 11156 21250 7////
AAXX 12124 71093 460// /2620 11190 39514 40015 51005 6///1 333 11133 21191 7////
AAXX 12124 71094 46004 /3228 11158 39029 49925 51014 6///1 333 11139 21166 7////
AAXX 12124 71095 47558 82105 11205 21237 39960 40041 52008 6///1 745// 333 11172 21212 7////
AAXX 12124 71101 160// /1805 30189 57027 60001 333 70000
AAXX 12124 71104 12974 21402 11121 21135 39135 40282 50001 60001 80001 333 11031 21127 44014 79999
AAXX 12124 71108 12974 00209 10003 21061 30177 40251 58002 60001 333 10057 21012 70002
AAXX 12124 71109 12574 71804 10016 21004 30236 40263 58001 60001 87500 333 10047 20011 70000
AAXX 12124 71816 12974 12621 11190 21252 30158 40223 52011 60001 80001 333 11168 21198 44047 55065 70000
AAXX 12124 71817 NIL
AAXX 12124 71818 12574 12413 11157 21181 30154 40173 52012 60001 81100 333 11102 21158 43020 55052 70000
AAXX 12124 71822 11466 83204 11020 21030 39741 40225 53026 60011 77175 887// 333 11025 21063 43028 70054 90983
AAXX 12124 71825 12874 20000 11275 21321 39530 40247 53013 60001 82010 333 11197 21278 47072 70000
AAXX 12124 71827 12774 71702 11165 21186 39994 40250 52020 60001 87500 333 11137 21213 47018 79999
AAXX 12124 71828 16137 83102 11225 21262 39544 40218 53014 60001 333 11194 21225 70000
AAXX 12124 71831 11474 83004 11019 21029 39948 40234 52020 69901 70252 885// 333 11012 21034 47016 70006 90922
AAXX 12124 71832 NIL
AAXX 12124 71834 11259 80404 11058 21068 39811 40249 53022 69901 77122 887// 333 11005 21058 48011 79999 90921
AAXX 12124 71841 NIL
AAXX 12124 71842 12874 33602 11132 21142 39777 40266 53020 60001 83070 333 11052 21139 48003 70000
AAXX 12124 71844 16564 82903 11145 21174 39985 40278 51017 60001 333 11116 21195 70000
AAXX 12124 71845 13269 83404 11144 21150 39778 40272 52019 69902 86608 333 11055 21144 44009 79999 555 10010 20006
AAXX 12124 71850 12774 63607 11104 21114 39742 40258 53015 60001 83501 333 11031 21109 48003 70000
AAXX 12124 71852 16264 80112 11108 21117 39981 40289 53023 60001 333 11048 21131 70000
AAXX 12124 71854 11269 83507 11058 21109 39785 40277 53020 69902 771// 885// 333 11058 21109 48009 79999 90929 555 10000 20000
AAXX 12124 71858 16/// /2102 11208 21229 30021 40320 53010 60001 333 11061 21208 70000
AAXX 12124 71861 NIL
AAXX 12124 71862 11116 80805 11061 21070 39553 40276 53008 69901 77177 886// 333 10002 21066 42002 79999 90972
AAXX 12124 71863 46259 80804 11077 21101 39562 40282 51006 6///1 333 11019 21087 7////
AAXX 12124 71864 NIL
AAXX 12124 71865 16/// /0604 11106 21120 39590 40297 50003 60001 333 11057 21112 70000
AAXX 12124 71866 46264 80504 11106 21127 39664 40302 50002 6///1 333 11050 21109 7////
AAXX 12124 71867 12474 12602 11189 21198 39964 40317 51008 60001 81500 333 11090 21192 47016 70003
AAXX 12124 71868 NIL
AAXX 12124 71869 11262 82304 11133 21141 39765 40315 52004 69921 77122 887// 333 11056 21138 47004 70002 90942
AAXX 12124 71871 15366 81708 11116 21128 39447 40286 50000 60001 333 11019 21129 70000
AAXX 12124 71877 11458 81805 11065 21073 38954 40261 58002 69941 71072 885// 333 11012 21084 48008 70060 90923
AAXX 12124 71878 11920 01805 11149 21163 39156 40267 58005 69901 71071 333 11014 21161 48012 79999 90933
AAXX 12124 71879 16961 01706 11071 21093 39425 40252 58006 60001 333 11011 21079 70000
AAXX 12124 71880 11480 42302 11090 21102 39121 40260 51013 69921 70177 82670 333 11062 21097 47002 70020 90943
AAXX 12124 71882 16964 03508 11059 21087 39729 40281 51013 60001 333 10009 21065 70000
AAXX 12124 71883 NIL
AAXX 12124 71887 12786 21202 11073 21094 39861 40297 51006 60001 82500 333 11009 21109 46997 70000
AAXX 12124 71889 12474 83308 10015 21097 39842 40267 50006 60001 885// 333 10030 20004 70002
AAXX 12124 71891 16964 01705 11041 21060 30011 40293 52009 60001 333 10022 21042 70000
AAXX 12124 71892 12980 00103 11039 21063 30252 40257 50002 60001 333 10050 21044 55064 70000
AAXX 12124 71893 12580 32804 11018 21056 30228 40260 58005 60001 81530 333 10058 21024 55072 70000
AAXX 12124 71894 NIL
AAXX 12124 71896 15964 01905 11085 21093 39399 40253 58011 60001 333 11029 21106 70000
AAXX 12124 71897 12469 80510 10021 20006 3//// 4//// 52003 60001 888XX 333 10041 20018 70000
AAXX 12124 71898 160// ///// 10023 58023 60001 333 10031 21007 70000
AAXX 12124 71899 11466 81903 10035 20035 3//// 4//// 56033 60061 76162 8652X 333 10059 20026 70062 90942
AAXX 12124 71902 12974 02919 11137 21192 30119 40128 50011 60002 333 11117 21173 43020 70000 555 10000 20000
AAXX 12124 71905 NIL
AAXX 12124 71906 12674 22708 11164 21195 30116 40168 52016 60001 82500 333 11129 21186 48008 79999
AAXX 12124 71907 17564 80000 11127 21147 30163 40197 53015 69951 74544 333 11123 21249 70010
AAXX 12124 71909 16964 03220 11165 21203 30044 40088 53017 60001 333 11166 21178 70005
AAXX 12124 71910 46564 83004 11153 21174 30058 40122 53008 6///1 333 11144 21190 7////
AAXX 12124 71911 46561 61709 11282 30049 40107 56007 6///1 333 11197 21298 7////
AAXX 12124 71912 NIL
AAXX 12124 71915 11574 33407 11305 21342 30061 40146 50004 69901 77174 83501 333 11214 21325 48043 55/// 79999 90983
AAXX 12124 71917 11974 10000 11410 21444 30033 40048 57005 69901 77677 81070 333 11357 21410 47013 55/// ///// 2//// 79999 90993
AAXX 12124 71922 11469 81705 11121 21131 39805 40292 58003 69901 77177 885// 333 11096 21146 47027 79999 90983
AAXX 12124 71924 11374 60000 11274 21315 39956 40049 57009 69901 77177 86500 333 11248 21280 48037 55/// 79999 90983
AAXX 12124 71925 11359 31406 11288 21328 30006 40049 57030 69901 77677 82770 333 11246 21320 42018 79999 90983
AAXX 12124 71926 11674 71811 11235 21286 30107 40132 58017 69901 77777 87500 333 11246 21285 44041 79999 90983
AAXX 12124 71928 16/// /1101 11156 21174 39050 40254 58003 60001 333 11036 21158 4/007 70000
AAXX 12124 71930 NIL
AAXX 12124 71931 16/// /2610 11092 21133 30243 40256 51027 60001 333 10029 21099 70000
AAXX 12124 71934 12974 71708 11109 21126 39868 40130 58027 60001 80006 333 11066 21114 44021 79999
AAXX 12124 71935 12974 21912 11079 21107 39846 40056 58049 60001 81049 333 11061 21098 44015 79999
AAXX 12124 71936 11374 81506 11074 21077 39784 40045 57047 69901 77177 887// 333 11050 21081 48024 70008 90983
AAXX 12124 71937 NIL
AAXX 12124 71938 11574 80000 11197 21227 39921 49951 58051 69901 70272 82520 333 11195 21238 48020 79999 90923
AAXX 12124 71940 11982 00000 11204 21225 39375 40212 58021 60001 70240 333 11014 21209 44001 79999
AAXX 12124 71943 12974 62008 11066 21114 39306 40159 58024 60001 80001 333 11049 21112 48008 79999
AAXX 12124 71944 160// ///// 11081 56009 60001 333 11035 21089 70000
AAXX 12124 71945 12974 81805 11146 21181 39612 40093 57031 60001 83071 333 11068 21160 47011 70000
AAXX 12124 71946 12774 81405 11130 21150 39774 49990 58058 60001 86502 333 11092 21141 48037 70000
AAXX 12124 71948 46011 00720 11176 39812 49925 56024 6///1 333 11169 21187 7////
AAXX 12124 71949 46/// /1509 11075 21090 39077 49951 56036 6///1 333 11132 21178 7////
AAXX 12124 71951 11162 80000 11027 21035 39969 40242 58024 69901 77172 885// 333 11003 21031 47021 70006 90947
AAXX 12124 71957 46864 82102 11123 21171 39803 49890 58017 6///1 333 11083 21137 7////
AAXX 12124 71958 43/// /0000 11111 21123 39158 40116 58023 6///1 333 11054 21160 7////
AAXX 12124 71964 11580 81620 11010 21043 39122 49969 55016 69901 77172 885// 333 10003 21061 47020 79999
AAXX 12124 71966 17/// /0105 11062 21081 39399 49855 56038 60021 7//4/ 333 11099 21154 4/031 70023 555 10040
AAXX 12124 71968 47048 /0206 11150 39849 49913 56014 6///1 745// 333 11065 21150 7////
AAXX 12124 71114 16964 00503 11004 21051 30223 40272 51005 60001 333 10033 21013 70000
AAXX 12124 71120 11256 82308 11091 21108 39599 40279 58004 69901 71082 886// 333 11003 21093 42003 79999 90921
AAXX 12124 71122 16/// /0603 11137 21162 38613 40268 51004 60001 333 11045 21137 4/009 70000 555 10010
AAXX 12124 71123 11932 01809 11099 21105 39363 40256 58006 69901 71077 333 11019 21126 44004 79999 90933
AAXX 12124 71125 11274 82208 11108 21114 39683 40291 50003 69902 7717/ 886// 333 46997 79999 90999
AAXX 12124 71129 11156 81202 11079 21087 39415 40272 58003 60001 71022 885// 333 11032 21080 42997 79999
AAXX 12124 71131 16/// /1005 11067 21071 38957 40244 51004 60001 333 10010 21070 70000
AAXX 12124 71135 16/// /0404 11074 21089 39146 40260 53005 60001 333 10014 21074 4/004 70000
AAXX 12124 71137 NIL
AAXX 12124 71140 12974 80712 11097 21104 39778 40300 53016 60001 885// 333 11036 21097 41997 70000
AAXX 12124 71145 12974 02803 11197 21226 39994 40305 52019 60001 333 11101 21211 48031 70006
AAXX 12124 71148 16/// /0113 11102 21117 39682 40284 53016 60001 333 11020 21104 4/002 70000
AAXX 12124 71182 16964 02805 11251 21299 39665 40241 53013 60001 333 11206 21279 70000
AAXX 12124 71185 17440 82406 11066 30222 40247 58017 60001 745// 333 11052 21106 70005
AAXX 12124 71188 12574 80902 11106 21123 30210 40255 53001 60001 8657/ 333 11093 21177 43017 55053 70000
AAXX 12124 71200 16/// /3408 10006 21027 60001 333 10055 20005 70000
AAXX 12124 71207 16/// /0202 11029 21068 30200 40266 51006 60001 333 10045 21052 70000
AAXX 12124 71260 13/// ///// 10019 21009 30013 40252 53011 60001 333 10063 20008 70000
AAXX 12124 71397 12574 82404 11010 21036 30288 40324 55005 60001 885// 333 11003 21079 70000
AAXX 12124 71400 16/64 /1302 11105 21114 60001 333 11037 21109 70000
AAXX 12124 71403 46/// /2321 10034 21008 30311 40331 56015 6///1 333 10009 21042 7////
AAXX 12124 71411 16/// /2411 10035 20009 30331 40344 53004 60001 333 10013 21061 70000
AAXX 12124 71412 16/// /2316 10005 21037 30283 40293 56015 60001 333 11008 21062 70003
AAXX 12124 71421 NIL
AAXX 12124 71430 16/// /2317 10036 21026 30219 40318 53006 60001 333 10044 20036 70000
AAXX 12124 71431 16/// /2708 10034 21002 30207 40305 53004 60001 333 10039 20026 70000
AAXX 12124 71432 16/// /1905 10015 21037 30219 40318 53003 60001 333 10037 20010 70000
AAXX 12124 71433 NIL
AAXX 12124 71435 NIL
AAXX 12124 71441 46/// /3615 11076 21098 39949 40269 53016 6///1 333 10005 21104 7////
AAXX 12124 71443 16/// /3601 11125 21140 39884 40314 51004 60001 333 11061 21127 4/006 70000
AAXX 12124 71444 NIL
AAXX 12124 71447 16/// /0710 11073 21088 39720 40284 53017 60001 333 11013 21087 70000
AAXX 12124 71467 16/// /0212 11270 21296 39848 49965 56027 60001 333 11189 21270 4/002 70000
AAXX 12124 71472 NIL
AAXX 12124 71474 16964 00000 11126 21150 39003 40281 58002 60001 333 11035 21127 70000
AAXX 12124 71510 NIL
AAXX 12124 71538 12974 00000 11029 21081 30081 40319 53001 60001 333 10016 21033 41997 70000
AAXX 12124 71600 16564 62609 10021 21044 30354 40360 53007 60001 333 10052 21006 70005
AAXX 12124 71601 NIL
AAXX 12124 71893 12580 32804 11018 21056 30228 40260 58005 60001 81530 333 10058 21024 55072 70000
AAXX 12124 71894 NIL
AAXX 12124 71896 15964 01905 11085 21093 39399 40253 58011 60001 333 11029 21106 70000
AAXX 12124 71897 12469 80510 10021 20006 3//// 4//// 52003 60001 888XX 333 10041 20018 70000
AAXX 12124 71898 160// ///// 10023 58023 60001 333 10031 21007 70000
AAXX 12124 71899 11466 81903 10035 20035 3//// 4//// 56033 60061 76162 8652X 333 10059 20026 70062 90942
AAXX 12124 71902 12974 02919 11137 21192 30119 40128 50011 60002 333 11117 21173 43020 70000 555 10000 20000
AAXX 12124 71905 NIL
AAXX 12124 71906 12674 22708 11164 21195 30116 40168 52016 60001 82500 333 11129 21186 48008 79999
AAXX 12124 71907 17564 80000 11127 21147 30163 40197 53015 69951 74544 333 11123 21249 70010
AAXX 12124 71909 16964 03220 11165 21203 30044 40088 53017 60001 333 11166 21178 70005
AAXX 12124 71910 46564 83004 11153 21174 30058 40122 53008 6///1 333 11144 21190 7////
AAXX 12124 71911 46561 61709 11282 30049 40107 56007 6///1 333 11197 21298 7////
AAXX 12124 71912 NIL
AAXX 12124 71915 11574 33407 11305 21342 30061 40146 50004 69901 77174 83501 333 11214 21325 48043 55/// 79999 90983
AAXX 12124 71917 11974 10000 11410 21444 30033 40048 57005 69901 77677 81070 333 11357 21410 47013 55/// ///// 2//// 79999 90993
AAXX 12124 71922 11469 81705 11121 21131 39805 40292 58003 69901 77177 885// 333 11096 21146 47027 79999 90983
AAXX 12124 71924 11374 60000 11274 21315 39956 40049 57009 69901 77177 86500 333 11248 21280 48037 55/// 79999 90983
AAXX 12124 71925 11359 31406 11288 21328 30006 40049 57030 69901 77677 82770 333 11246 21320 42018 79999 90983
AAXX 12124 71926 11674 71811 11235 21286 30107 40132 58017 69901 77777 87500 333 11246 21285 44041 79999 90983
AAXX 12124 71928 16/// /1101 11156 21174 39050 40254 58003 60001 333 11036 21158 4/007 70000
AAXX 12124 71864 NIL
AAXX 12124 71865 16/// /0604 11106 21120 39590 40297 50003 60001 333 11057 21112 70000
AAXX 12124 71866 46264 80504 11106 21127 39664 40302 50002 6///1 333 11050 21109 7////
AAXX 12124 71867 12474 12602 11189 21198 39964 40317 51008 60001 81500 333 11090 21192 47016 70003
AAXX 12124 71868 NIL
AAXX 12124 71869 11262 82304 11133 21141 39765 40315 52004 69921 77122 887// 333 11056 21138 47004 70002 90942
AAXX 12124 71871 15366 81708 11116 21128 39447 40286 50000 60001 333 11019 21129 70000
AAXX 12124 71877 11458 81805 11065 21073 38954 40261 58002 69941 71072 885// 333 11012 21084 48008 70060 90923
AAXX 12124 71878 11920 01805 11149 21163 39156 40267 58005 69901 71071 333 11014 21161 48012 79999 90933
AAXX 12124 71879 16961 01706 11071 21093 39425 40252 58006 60001 333 11011 21079 70000
AAXX 12124 71880 11480 42302 11090 21102 39121 40260 51013 69921 70177 82670 333 11062 21097 47002 70020 90943
AAXX 12124 71882 16964 03508 11059 21087 39729 40281 51013 60001 333 10009 21065 70000
AAXX 12124 71883 NIL
AAXX 12124 71887 12786 21202 11073 21094 39861 40297 51006 60001 82500 333 11009 21109 46997 70000
AAXX 12124 71889 12474 83308 10015 21097 39842 40267 50006 60001 885// 333 10030 20004 70002
AAXX 12124 71891 16964 01705 11041 21060 30011 40293 52009 60001 333 10022 21042 70000
AAXX 12124 71892 12980 00103 11039 21063 30252 40257 50002 60001 333 10050 21044 55064 70000
AAXX 12124 71114 16964 00503 11004 21051 30223 40272 51005 60001 333 10033 21013 70000
AAXX 12124 71120 11256 82308 11091 21108 39599 40279 58004 69901 71082 886// 333 11003 21093 42003 79999 90921
AAXX 12124 71122 16/// /0603 11137 21162 38613 40268 51004 60001 333 11045 21137 4/009 70000 555 10010
AAXX 12124 71123 11932 01809 11099 21105 39363 40256 58006 69901 71077 333 11019 21126 44004 79999 90933
AAXX 12124 71125 11274 82208 11108 21114 39683 40291 50003 69902 7717/ 886// 333 46997 79999 90999
AAXX 12124 71129 11156 81202 11079 21087 39415 40272 58003 60001 71022 885// 333 11032 21080 42997 79999
AAXX 12124 71131 16/// /1005 11067 21071 38957 40244 51004 60001 333 10010 21070 70000
AAXX 12124 71135 16/// /0404 11074 21089 39146 40260 53005 60001 333 10014 21074 4/004 70000
AAXX 12124 71137 NIL
AAXX 12124 71140 12974 80712 11097 21104 39778 40300 53016 60001 885// 333 11036 21097 41997 70000
AAXX 12124 71145 12974 02803 11197 21226 39994 40305 52019 60001 333 11101 21211 48031 70006
AAXX 12124 71148 16/// /0113 11102 21117 39682 40284 53016 60001 333 11020 21104 4/002 70000
AAXX 12124 71182 16964 02805 11251 21299 39665 40241 53013 60001 333 11206 21279 70000
AAXX 12124 71185 17440 82406 11066 30222 40247 58017 60001 745// 333 11052 21106 70005
AAXX 12124 71188 12574 80902 11106 21123 30210 40255 53001 60001 8657/ 333 11093 21177 43017 55053 70000
AAXX 12124 71200 16/// /3408 10006 21027 60001 333 10055 20005 70000
AAXX 12124 71207 16/// /0202 11029 21068 30200 40266 51006 60001 333 10045 21052 70000
AAXX 12124 71260 13/// ///// 10019 21009 30013 40252 53011 60001 333 10063 20008 70000
AAXX 12124 43466 21456 83602 10254 20245 30070 40082 79598 8692/ 333 00022 10309 58011 60117 81712 85816 83920 88460
AAXX 12124 71930 NIL
AAXX 12124 71931 16/// /2610 11092 21133 30243 40256 51027 60001 333 10029 21099 70000
AAXX 12124 71934 12974 71708 11109 21126 39868 40130 58027 60001 80006 333 11066 21114 44021 79999
AAXX 12124 71935 12974 21912 11079 21107 39846 40056 58049 60001 81049 333 11061 21098 44015 79999
AAXX 12124 71936 11374 81506 11074 21077 39784 40045 57047 69901 77177 887// 333 11050 21081 48024 70008 90983
AAXX 12124 71937 NIL
AAXX 12124 71938 11574 80000 11197 21227 39921 49951 58051 69901 70272 82520 333 11195 21238 48020 79999 90923
AAXX 12124 71940 11982 00000 11204 21225 39375 40212 58021 60001 70240 333 11014 21209 44001 79999
AAXX 12124 71943 12974 62008 11066 21114 39306 40159 58024 60001 80001 333 11049 21112 48008 79999
AAXX 12124 71944 160// ///// 11081 56009 60001 333 11035 21089 70000
AAXX 12124 71945 12974 81805 11146 21181 39612 40093 57031 60001 83071 333 11068 21160 47011 70000
AAXX 12124 71946 12774 81405 11130 21150 39774 49990 58058 60001 86502 333 11092 21141 48037 70000
AAXX 12124 71948 46011 00720 11176 39812 49925 56024 6///1 333 11169 21187 7////
AAXX 12124 71949 46/// /1509 11075 21090 39077 49951 56036 6///1 333 11132 21178 7////
AAXX 12124 71951 11162 80000 11027 21035 39969 40242 58024 69901 77172 885// 333 11003 21031 47021 70006 90947
AAXX 12124 71957 46864 82102 11123 21171 39803 49890 58017 6///1 333 11083 21137 7////
AAXX 12124 71958 43/// /0000 11111 21123 39158 40116 58023 6///1 333 11054 21160 7////
AAXX 12124 71964 11580 81620 11010 21043 39122 49969 55016 69901 77172 885// 333 10003 21061 47020 79999
AAXX 12124 71966 17/// /0105 11062 21081 39399 49855 56038 60021 7//4/ 333 11099 21154 4/031 70023 555 10040
AAXX 12124 71968 47048 /0206 11150 39849 49913 56014 6///1 745// 333 11065 21150 7////
AAXX 12124 71726 16/// /2305 11017 21030 39700 40251 51017 60001 333 11023 21046 4/013 70024
AAXX 12124 71727 11674 80000 11031 21041 30045 40247 53015 69901 70288 885// 333 11044 21070 47019 70042 90933
AAXX 12124 71728 12580 82315 10002 21031 30015 40240 53020 60001 885// 333 11018 21038 48001 70002
AAXX 12124 71730 12466 81706 11002 21009 39829 40260 56014 60001 886// 333 10019 21007 46008 70000
AAXX 12124 71731 12369 82311 10011 21001 39812 40270 52010 60001 887// 333 10012 20009 47001 79999
AAXX 12124 71735 NIL
AAXX 12124 71738 11459 80000 10002 21004 39872 40229 53016 60002 710// 885// 333 10045 21001 44012 79999 555 19999 29999 32134 40181
AAXX 12124 71739 42474 80000 11001 21010 39862 40230 52022 6//// 886// 333 11004 21039 4//// 7////
AAXX 12124 71749 16462 62205 11100 21108 39989 40243 53019 60001 333 10026 21140 70005
AAXX 12124 71799 12983 12605 11014 21032 30232 40256 50002 60001 80001 333 10060 21014 55050 79999
AAXX 12124 71800 16/// /3305 11038 21061 30275 40309 53021 60001 333 10066 21055 70000
AAXX 12124 71801 12574 22825 11058 21114 30104 40283 53019 60001 82500 333 10047 21066 79999
AAXX 12124 71803 11474 22814 11094 21138 30081 40275 50012 69901 70388 81541 333 11006 21100 48002 79999 90961
AAXX 12124 71807 NIL
AAXX 12124 71808 12574 62710 11154 21210 30199 40248 55005 60001 86500 333 11124 21170 44018 70000
AAXX 12124 71809 11448 80704 11076 21087 30234 40262 58013 60001 78582 885// 333 11044 21086 47004 70044 90937 93101
AAXX 12124 71810 16/// /2409 11028 21039 30157 40225 56003 60001 333 11092 21108 70009
AAXX 12124 71811 NIL
AAXX 12124 71813 NIL
AAXX 12124 71814 16/// /0204 11131 21159 30238 40248 57012 60001 333 11120 21161 70000
AAXX 12124 71815 11/24 92515 11019 21021 30231 40263 58024 60021 78582 333 11025 21076 44006 70049 90927 93102
AAXX 12124 71043 12983 81310 11100 21135 39788 49881 56057 60001 86072 333 11112 21221 48019 70000
AAXX 12124 71045 16/// /1205 11017 21064 39150 40012 57040 60001 333 11026 21136 4/021 70000
AAXX 12124 71050 NIL
AAXX 12124 71051 NIL
AAXX 12124 71052 NIL
AAXX 12124 71066 12258 80000 11119 21147 39712 40142 58033 60001 885// 333 11061 21153 44016 70000
AAXX 12124 71068 12974 02103 11152 21165 39481 40195 58019 60001 333 11064 21153 46997 70000
AAXX 12124 71069 16964 00905 11132 21136 39504 40232 58013 60001 333 11037 21167 70000
AAXX 12124 71076 16/// /2106 11087 21096 39792 40193 58016 60001 333 11078 21088 4/030 55/// 20000 70000 555 10030
AAXX 12124 71077 16/// /2104 11075 21092 39712 40269 58005 60001 333 11086 21101 4/008 55/// 20000 70000
AAXX 12124 71079 11574 80000 11207 21242 30001 40296 52008 69901 77111 885// 333 11132 21271 48003 79999 90910
AAXX 12124 71081 46964 02908 11282 21325 30084 40096 51001 6///1 333 11187 21284 7////
AAXX 12124 71082 NIL
AAXX 12124 71083 11474 60000 11282 21323 30129 40174 58014 69901 77177 86500 333 11301 21320 48053 79999 90983
AAXX 12124 71090 46564 32604 11198 21230 39995 40030 52006 6///1 333 11135 21209 7////
AAXX 12124 71091 460// /2819 11194 39848 40061 51008 6///1 333 7////
AAXX 12124 71092 46916 02909 11246 39370 40051 51011 6///1 333 11156 21250 7////
AAXX 12124 71093 460// /2620 11190 39514 40015 51005 6///1 333 11133 21191 7////
AAXX 12124 71094 46004 /3228 11158 39029 49925 51014 6///1 333 11139 21166 7////
AAXX 12124 71095 47558 82105 11205 21237 39960 40041 52008 6///1 745// 333 11172 21212 7////
AAXX 12124 71101 160// /1805 30189 57027 60001 333 70000
AAXX 12124 71104 12974 21402 11121 21135 39135 40282 50001 60001 80001 333 11031 21127 44014 79999
AAXX 12124 71108 12974 00209 10003 21061 30177 40251 58002 60001 333 10057 21012 70002
AAXX 12124 71109 12574 71804 10016 21004 30236 40263 58001 60001 87500 333 10047 20011 70000
AAXX 12124 71816 12974 12621 11190 21252 30158 40223 52011 60001 80001 333 11168 21198 44047 55065 70000
AAXX 12124 71817 NIL
AAXX 12124 71818 12574 12413 11157 21181 30154 40173 52012 60001 81100 333 11102 21158 43020 55052 70000
AAXX 12124 71822 11466 83204 11020 21030 39741 40225 53026 60011 77175 887// 333 11025 21063 43028 70054 90983
AAXX 12124 71825 12874 20000 11275 21321 39530 40247 53013 60001 82010 333 11197 21278 47072 70000
AAXX 12124 71827 12774 71702 11165 21186 39994 40250 52020 60001 87500 333 11137 21213 47018 79999
AAXX 12124 71828 16137 83102 11225 21262 39544 40218 53014 60001 333 11194 21225 70000
AAXX 12124 71831 11474 83004 11019 21029 39948 40234 52020 69901 70252 885// 333 11012 21034 47016 70006 90922
AAXX 12124 71832 NIL
AAXX 12124 71834 11259 80404 11058 21068 39811 40249 53022 69901 77122 887// 333 11005 21058 48011 79999 90921
AAXX 12124 71841 NIL
AAXX 12124 71842 12874 33602 11132 21142 39777 40266 53020 60001 83070 333 11052 21139 48003 70000
AAXX 12124 71844 16564 82903 11145 21174 39985 40278 51017 60001 333 11116 21195 70000
AAXX 12124 71845 13269 83404 11144 21150 39778 40272 52019 69902 86608 333 11055 21144 44009 79999 555 10010 20006
AAXX 12124 71850 12774 63607 11104 21114 39742 40258 53015 60001 83501 333 11031 21109 48003 70000
AAXX 12124 71852 16264 80112 11108 21117 39981 40289 53023 60001 333 11048 21131 70000
AAXX 12124 71854 11269 83507 11058 21109 39785 40277 53020 69902 771// 885// 333 11058 21109 48009 79999 90929 555 10000 20000
AAXX 12124 71858 16/// /2102 11208 21229 30021 40320 53010 60001 333 11061 21208 70000
AAXX 12124 71861 NIL
AAXX 12124 71862 11116 80805 11061 21070 39553 40276 53008 69901 77177 886// 333 10002 21066 42002 79999 90972
AAXX 12124 71863 46259 80804 11077 21101 39562 40282 51006 6///1 333 11019 21087 7////
BBXX A8TG2 12123 99236 71125 41/// /2208 10210 20122 40110 50000 7//22 8//// 22234 00170 21202 33030 41804 51802 80160
AAXX 12121 13160 32997 41302 10104 20085 30051 40159 57020 80001
AAXX 12121 13262 32697 70000 10139 20067 30010 40156 57022 87500
AAXX 12121 13272 11765 61405 10135 20076 30045 40163 57016 69901 70262 82530 333 82650 85358
AAXX 12121 13285 32697 31106 10104 20035 30095 40198 57017 83500 333 91112
AAXX 12121 13289 31/91 91408 11001 21001 38995 48490 57015 74544 333 91114
AAXX 12121 13376 31896 71302 10124 20076 39926 40185 58015 71022 87070
AAXX 12121 13388 32697 71502 10140 20078 39958 40202 57015 87500
AAXX 12121 13462 11350 80000 10124 20124 30153 40192 57024 60121 76196 8582/ 333 82706 83633 86457
AAXX 12121 13473 NIL
AAXX 12121 13489 11493 82601 10066 20066 39708 40232 56016 69961 76166 887//
AAXX 12124 60020 12560 20807 10214 20150 30223 40268 51008 60001 82500 333 92438
AAXX 12124 60030 02573 40216 10213 20138 30200 40256 50010 60001 84800 333 60007 92428
AAXX 12124 60040 02581 70413 10214 20125 30240 40264 50011 60001 87800 333 60007 92428
AAXX 12124 60338 12582 22710 10180 20105 30202 40267 51004 60001 82500 333 92418
AAXX 12121 01393 16/// /1203 11023 21030 39120 49917 57023 6//// 333 91105
AAXX 12121 01441 16/// /1704 11002 21019 38917 49887 50003 60041 333 91109
AAXX 12121 01450 16/// /2005 11008 21018 38767 49893 55004 60041 333 91111
AAXX 12121 01257 16/// /0401 11002 21027 39736 49897 58023 60001 333 91104
AAXX 12121 01476 16/// /1911 10053 20035 39915 49921 58011 6//// 333 91120
AAXX 12121 01488 16/// /1503 10031 20014 60131 333 4/023 91107
AAXX 12124 89514 32998 03402 11028 49808 57003 333 11012 21084
AAXX 12124 89514 32998 03402 11028 49808 57003 333 11012 21084
AAXX 12124 16627 12560 61806 10156 20116 30230 40234 57019 60001 84430 333 84620 83359 90730 91110 555 30000 10134 20124 30112 40105 50106 6//// 40000 47709 44260 50000 50134
AAXX 12121 02019 07/99 /0502 11101 21113 39363 49996 57014 60001 70010 333 60005 90710 91106
AAXX 12121 02081 07/82 /1101 11227 21250 39615 40039 55001 60001 70010 333 60005 90710 91102
AAXX 12121 02095 07499 /0600 11242 21269 39833 40047 50005 69901 70087 333 60005 81/16 84/70 90710 91101
AAXX 12121 02101 45579 /1807 11070 21104 39418 49983 58014 8//// 333 83/29 88/56
AAXX 12121 02119 07983 /0101 11210 21228 39634 40038 57007 69901 70070 333 60005 86/61 87/64 90710 91102
AAXX 12121 02124 078// /0000 11168 21180 39487 40031 57009 69901 72487 333 69905 84/57 85/60 90710 91101
AAXX 12121 02126 07771 /0501 11174 21192 39678 40029 57014 69901 78587 333 69905 88/50 90710 91102
AAXX 12121 02151 07960 00000 11206 21218 39686 40037 58009 69911 78587 333 69915 91000 90710 91101 90710 91200
AAXX 12121 02186 12280 73402 11130 21141 30017 40042 58007 69901 875// 333 60005 81703 86614 91004 90710 91104 90710 91202
AAXX 12121 02197 05/64 /0502 11120 21128 30028 40048 50001 60001 333 60005 90710 91103
AAXX 12121 02207 07546 /1301 11074 21082 39220 49924 58022 69931 77170 333 69935 88/28 90710 91102
AAXX 12121 02219 07/26 /1206 11074 21087 39280 49953 58021 69951 77170 333 69915 90710 91112
AAXX 12121 02226 47427 /0802 11051 21055 39493 49950 57020 771// 8//// 333 88/11
AAXX 12121 02243 07/14 /0902 11060 21064 39704 49976 58027 60031 77187 333 69975 90710 91107
AAXX 12121 02269 07230 /1011 10017 20017 60021 74174 333 60015 88/04 90710 91113
AAXX 12121 02287 07413 /1204 11016 21028 30010 40020 58018 69941 77170 333 69945 87/12 90710 91106
AAXX 12121 02297 07058 /3602 11047 21047 39986 40032 58013 60001 71010 333 60005 87/01 90710 91103
AAXX 12121 02308 07014 /2000 11068 21076 39069 49934 58019 60031 77177 333 69965 81/01 85/10 88/14 90710 91101
AAXX 12121 02327 07/57 /0902 11035 21038 39513 49949 57018 60031 74174 333 69935 90710 91103
AAXX 12121 02355 07262 /1907 10018 20017 39965 49978 57015 60031 76176 333 69955 85/06 87/09 90710 91110
AAXX 12121 02366 47136 /1402 10000 20000 39968 49974 56018 771// 8//// 333 83/02 85/04 88/08
AAXX 12121 02407 07370 /1805 10017 20009 39583 49950 57012 60021 76165 333 69925 87/09 90710 91109
AAXX 12121 02418 47360 /1804 10030 20022 39839 49969 57013 752// 8//// 333 81/08 85/11 88/15
AAXX 12121 02435 47162 /1604 10015 20003 39791 49978 57011 722// 8//// 333 88/03
AAXX 12121 02440 07382 /1902 10012 20005 69971 72376 333 69925 87/08 88/10 90710 91106
AAXX 12121 02452 07102 /1601 10008 20008 69971 73487 333 60005 89/02 90710 91103
AAXX 12121 02456 07470 /1904 10021 20014 39961 40004 58015 69981 70065 333 60005 86/10 88/13 90710 91108
AAXX 12121 02469 07/75 /1804 10030 20012 69971 70060 333 60005 90710 91109
AAXX 12121 02498 07973 /1912 10046 20020 30011 40027 57019 69981 70086 333 60005 87/58 90710 91116
AAXX 12121 02518 463// /1713 10046 20034 333 82/09 85/12 90710 91116
AAXX 12121 02520 31475 81705 10032 20007 39905 49972 58020 60001 70162 8257/ 333 60005 82616 87359 91007 90710 91108 90710 91206
AAXX 12121 02550 45380 /1604 10013 20005 39714 49990 58023 8//// 333 81/09 83/11
AAXX 12121 02562 32483 81704 10025 20006 39887 40003 58019 60001 875// 333 60005 87617 91005 90710 91106 90710 91204
AAXX 12121 02563 07968 /1807 10033 20021 39992 40014 57023 69901 70061 333 60005 82/62 90710 91111
AAXX 12121 02565 07460 /1704 10031 20003 39893 40013 58023 60001 70010 333 60005 87/19 90710 91107
AAXX 12121 02589 07481 /1908 10041 20004 30018 40039 57022 69901 70060 333 60005 85/19 90710 91115
AAXX 12121 02590 45581 /1907 10035 21006 39978 40039 56023 8//// 333 86/25 87/31
AAXX 12121 02618 07/50 /1702 10014 20010 39827 49992 58022 69901 76164 333 69905 90710 91108
AAXX 12121 02664 32470 81706 10037 20013 39948 40020 58026 60001 883// 333 60005 87612 83940 91009 90710 91109 90710 91206
AAXX 12121 02679 05482 /2010 10036 21004 39998 40043 57028 60001 333 60005 85/18 90710 91114
AAXX 12121 01271 17/84 21004 10003 21045 39880 49901 58020 6//// 700// 333 91106
AAXX 12121 01415 17/76 12305 10071 20016 39894 49905 51006 6//// 722// 333 91112
AAXX 12121 26509 32962 81405 10018 21019 30087 40096 57026 86032 333 91010 91111 555 1/002
AAXX 12121 26518 32663 71605 11007 21025 39906 40114 57028 82532 333 91007 91108 555 1/102 4/017
AAXX 12121 26524 32998 61603 10005 21015 39991 40126 58024 82036 333 91007 91108 555 1/101 4/002
AAXX 12121 26531 32965 71604 10013 21009 30065 40142 57020 86076 333 91007 91108 555 1/001
AAXX 12121 26629 32897 81606 10011 21018 30047 40144 57023 83032 333 91009 91109 555 1/001
AAXX 12121 26633 32563 71503 10010 21016 30028 40161 57015 83502 333 91005 91107 555 1/001
AAXX 12121 26730 32970 51605 10008 21021 39972 40167 57021 85030 333 91008 91110 555 1/000 41998
AAXX 12121 01400 41499 42510 10071 20029 49935 54000 78080 83960 22200 06086 10606 70028 333 91114
AAXX 12121 01300 41498 61804 10040 20026 49845 57012 78082 8526/ 22200 02064 11007 70033 333 91108
AAXX 12124 08001 12470 51906 10138 20078 30145 40226 58002 60001 82551 333 92457
AAXX 12124 08015 12575 60903 10110 20066 39819 40224 58011 60001 82887
AAXX 12124 08023 11560 32611 10135 20066 30154 40225 58001 69981 70286 82842
AAXX 12124 08027 11565 42910 10115 20062 39915 40226 52001 60011 70162 82870
AAXX 12124 08045 01007 71906 10093 20090 39944 40257 50003 69901 74144 85678 333 69907
AAXX 12124 08141 11475 62506 10098 20060 39374 40233 50004 69901 70252 85401 333 50030
AAXX 12124 08160 11670 53102 10104 20064 39928 40239 58001 69901 70242 82571
AAXX 12124 08181 02970 33508 10148 20046 30203 40209 50009 60001 80008 333 60007
AAXX 12124 08221 02467 82106 10086 20053 39563 40255 50001 60001 87601 333 60007
AAXX 12124 08231 11360 83002 10061 20047 39159 48554 51005 69901 75152 887//
AAXX 12124 08261 11375 72806 10114 20086 39795 40279 51006 69931 70265 8687/
AAXX 12124 08284 02682 72310 10164 20053 30160 40235 50005 60001 81548 333 60007
AAXX 12124 08306 12580 63211 10173 20079 30215 40221 52009 60001 82878
AAXX 12124 08314 02576 63011 10155 20074 30107 40209 51008 69901 82818 333 60007
AAXX 12124 08430 12675 63004 10166 20067 30173 40247 53004 60001 83118
AAXX 12124 08482 12682 53012 10174 20069 30257 40265 50000 60001 81881
AAXX 12124 08055 12584 62712 10066 20025 39171 48533 50002 60001 81181 333 50020 95000
AAXX 12124 08075 11480 62210 10076 20036 39192 48534 50004 69911 70152 84871 333 50021
AAXX 12124 08084 02670 42704 10125 20056 39798 40229 58003 69951 81571 333 69917
AAXX 12124 08171 11762 32201 10118 20063 39986 40226 50003 60001 70040 81102
AAXX 12124 08184 02780 31810 10147 20072 30036 40190 50000 60001 82248 333 60007
AAXX 12124 08202 01464 82609 10090 20076 39325 42861 50009 69941 75052 8547/ 333 50000 69907
AAXX 12124 08235 NIL
AAXX 12124 08238 12675 73108 10142 20058 30154 40214 50010 60001 82444
AAXX 12124 08280 12480 72808 10084 20044 39441 40273 51008 60001 85831
AAXX 12124 08330 11665 32704 10123 20104 30038 40270 52003 69981 70254 82501
AAXX 12124 08348 NIL
AAXX 12124 08360 02480 72915 10162 20049 30205 40243 50007 60001 81108 333 60007
AAXX 12124 08373 02668 63113 10168 20084 30211 40232 51012 60001 82104 333 60007
AAXX 12124 08410 01457 80000 10118 20094 30173 40285 50003 69901 70322 887// 333 69907
AAXX 12124 08419 02575 62601 10141 20081 39597 40262 58002 60001 82802 333 60007
AAXX 12124 08451 02583 70701 10192 20120 30248 40281 50002 60001 87810 333 60007
AAXX 12124 08487 02480 52107 10178 20080 30220 40245 58002 60001 81105 333 60007
AAXX 12121 12120 11565 71805 10030 20001 30045 40052 57032 69901 72522 873// 333 93097
AAXX 12121 12250 12960 21504 10037 21001 30005 40094 57023 60001 82030 333 93000
AAXX 12121 12295 12667 81503 10002 21019 39960 40149 57022 60001 885// 333 93000
AAXX 12121 12330 12960 61704 10046 20009 39973 40082 57023 60001 85052 333 93000
AAXX 12121 12375 12560 71402 10015 21007 39999 40132 57022 60001 875// 333 93000
AAXX 12121 12424 12980 71604 10061 20024 39947 40100 57018 60001 81048 333 93000
AAXX 12121 33088 32997 22004 10033 21021 30011 40205 57023 80001
AAXX 12121 33177 32575 71102 10024 21050 39937 40178 57025 87500
AAXX 12121 33261 32497 32203 10027 21025 30077 40264 58004 83600
AAXX 12121 33275 32597 32403 10015 21030 30043 40273 58001 83500
AAXX 12121 33301 32997 21607 10023 21013 39917 40204 58022 80001
AAXX 12121 33325 32997 01603 10033 21046 39964 40236 58020
AAXX 12121 33377 32597 22401 10025 21028 30078 40277 58003 82200
AAXX 12121 33415 31396 71606 11001 21009 39803 40212 57021 71011 86701 333 86707
AAXX 12121 33429 32397 71506 10006 21011 39788 40222 57022 85630 333 85708
AAXX 12121 33466 32998 01903 10029 21019 30076 40268 58012
AAXX 12121 33526 32760 51003 10030 21012 39850 40195 57024 82530
AAXX 12121 33562 32597 71504 10016 21028 39875 40245 57020 87500 333 87631
AAXX 12121 33614 32598 22402 10040 21023 30172 40279 58004 82500
AAXX 12121 33761 32662 81804 10024 20003 30037 40266 58014 8355/ 333 83639
AAXX 12121 33902 32597 71402 10041 21017 30207 40275 57016 82230
AAXX 12121 33983 32997 00605 10040 21003 30233 40295 58005
AAXX 12121 34415 32670 83202 10020 21031 30191 40290 58002 885//
AAXX 12121 34523 32698 73003 10018 21043 30214 40292 52004 87500 333 87637
AAXX 12121 34712 32965 02202 10032 21010 30213 40301 58004
AAXX 12121 14241 11350 70801 10079 20058 30009 40139 58024 60001 71042 87500 333 85706 87657
AAXX 12121 14284 12960 41204 10122 20093 30043 40150 57024 60001 83031
AAXX 12121 14307 11340 82302 10133 20118 30060 40135 57019 69921 76162 8677/ 333 70074 96010
AAXX 12121 14317 11560 81203 10118 20109 30037 40136 57017 60051 76162 8672/
AAXX 12121 14431 11465 71704 10152 20130 30051 40142 57018 60021 70226 85170 333 82117 85833
AAXX 12121 14444 13565 71603 10165 20137 30131 40159 57014 69921 84870 333
AAXX 12121 14474 12462 71405 10156 20126 39990 40176 58014 60001 87800
AAXX 12121 12105 11762 81605 10028 20004 30005 40048 57021 69901 72111 8257/ 333 91110 93097
AAXX 12121 12195 11659 81804 10004 21023 39908 40141 56019 60001 71011 885// 333 93000
AAXX 12121 12235 11958 51605 10020 21003 39862 40075 57024 60001 71011 85030 333 93000
AAXX 12121 12270 12962 31803 10027 21011 39934 40118 56020 60001 82031 333 93000
AAXX 12121 12280 12662 71604 10009 21022 39967 40127 57019 60001 875// 333 93000
AAXX 12121 12300 11960 71803 10042 20016 39971 40061 56019 69901 70181 86038 333 93097
AAXX 12121 12400 12970 71704 10055 20012 39839 40074 56019 60001 86058 333 93000
AAXX 12121 12435 12960 21604 10041 21001 39929 40102 57020 60001 81031 333 93000
AAXX 12121 12495 12880 71705 10029 21004 39854 40151 58024 60001 875// 333 93000
AAXX 12121 12530 12964 31806 10057 20014 39912 40112 57019 60001 82032 333 91110 93000
AAXX 12121 12570 12564 71503 10029 20003 39816 40138 57024 60001 875// 333 93000
AAXX 12121 12580 12570 71303 10041 20015 39892 40154 57025 60001 82531 333 93000
AAXX 12121 12160 12560 41305 10023 21017 30040 40093 57024 60001 82530 333 93000
AAXX 12121 12205 11673 72005 10059 20024 30034 40042 57018 69901 70262 875// 333 93097
AAXX 12121 12465 12961 11403 10044 20002 39880 40115 57020 60001 80001 333 93000
AAXX 12121 12566 11658 60203 10042 20009 39833 40130 57024 60001 71011 84552 333 93000
AAXX 12121 02464 45475 /1704 10035 20010 39998 40016 57017 8//// 333 83/15 85/19 87/24
AAXX 12121 02500 07567 /1814 10056 20019 39896 49938 58023 60011 70086 333 60005 81/21 87/32 90710 91119
AAXX 12121 02513 07/62 /1605 10035 20020 39965 49969 57023 69911 78186 333 69915 90710 91110
AAXX 12121 02615 05362 /1809 10045 20028 39997 40001 58018 60001 333 60005 87/09 90710 91111
AAXX 12121 02635 07/59 /1803 10039 20024 69901 71086 333 60005 90710 91106
AAXX 12124 60715 12562 32508 10192 20110 30205 40212 56005 60001 83202 333 58009 83820 91015 91115
AAXX 12124 60723 12970 02902 10170 20104 30040 40227 56002 60001 333 50081
AAXX 12124 60725 12565 12406 10168 2//// 30052 40229 56008 60001 81200 333 50081 81820
AAXX 12124 60735 12962 03402 10189 20061 30133 40212 58004 60001 333 50151
AAXX 12124 60745 12960 20603 10204 20040 39839 40201 56017 60001 80002 333 50181 82070
AAXX 12124 60748 12965 00000 10189 20043 39793 40204 50009 60001 333 50541
AAXX 12124 60750 12960 13407 10201 20005 30179 40204 56007 60001 80002 333 5///1 81070
AAXX 12124 60760 12558 22912 10174 20014 30115 40219 56012 60001 82200 333 50091 82830
AAXX 12124 60765 12960 32708 10189 20089 30213 40217 56008 60001 80002 333 83070 92436 925//
AAXX 12124 60767 NIL
AAXX 12124 60769 12960 23010 10192 20093 30196 40200 58009 60001 80002 333 50281 82070
AAXX 12124 60715 12562 32508 10192 20110 30205 40212 56005 60001 83202 333 58009 83820 91015 91115
AAXX 12124 60723 12970 02902 10170 20104 30040 40227 56002 60001 333 50081
AAXX 12124 60725 12565 12406 10168 2//// 30052 40229 56008 60001 81200 333 50081 81820
AAXX 12124 60735 12962 03402 10189 20061 30133 40212 58004 60001 333 50151
AAXX 12124 60745 12960 20603 10204 20040 39839 40201 56017 60001 80002 333 50181 82070
AAXX 12124 60748 12965 00000 10189 20043 39793 40204 50009 60001 333 50541
AAXX 12124 60750 12960 13407 10201 20005 30179 40204 56007 60001 80002 333 5///1 81070
AAXX 12124 60760 12558 22912 10174 20014 30115 40219 56012 60001 82200 333 50091 82830
AAXX 12124 60765 12960 32708 10189 20089 30213 40217 56008 60001 80002 333 83070 92436 925//
AAXX 12124 60767 NIL
AAXX 12124 60769 12960 23010 10192 20093 30196 40200 58009 60001 80002 333 50281 82070
AAXX 12124 64600 31958 00608 10302 20096 39438 40080 70511 333 58003
AAXX 12124 64601 31957 30425 10282 20047 38985 48498 70411 80002 333 58001 83080
AAXX 12124 64605 32980 00204 10/// 20/// 393// 40/// 333 5////
AAXX 12124 64610 32980 08008 10318 20042 3//// 4//// 333 5////
AAXX 12124 64650 NIL
AAXX 12124 64654 32975 33608 10330 20060 39532 40092 80002 333 58008 83080
AAXX 12124 64655 32980 00406 10316 20064 39439 40075 333 58005
AAXX 12124 64656 31965 01004 10308 20132 39531 40077 70244 333 58003
AAXX 12124 64659 NIL
AAXX 12124 64660 32970 03204 10320 20105 39549 40067 333 59001
AAXX 12124 64662 32980 60404 10323 20131 39576 40067 80002 333 58005 86080
AAXX 12124 64665 32980 00406 10334 20150 3//// 4//// 333 5////
AAXX 12121 06447 16/// /2604 10075 20021 39965 40089 51026 60011 333 91111 91206
AAXX 12121 37575 42999 12702 10103 21027 39684 40268 57004 81002 555 12008
AAXX 12121 37675 42998 43203 10069 21004 39524 40288 52015 84030 555 12006
AAXX 12121 37735 42999 30201 10111 21054 39822 40194 57009 83003 555 10015
AAXX 12121 37749 42998 62901 10099 20029 40294 51003 83052 555 11007
AAXX 12121 37864 32497 73409 10085 20055 40276 52022 87600 333 87715
AAXX 12121 37985 41995 70000 10095 20071 30292 40277 58007 11011 87040 555 11012
AAXX 12124 96315 11457 71910 10244 20234 40091 60051 76188 84878 333 10317 82814 85465
AAXX 12124 96323 NIL
AAXX 12124 60127 32565 12702 10167 20098 39679 40271 50000 81200 333 81823
AAXX 12124 61974 12480 40104 10306 20235 40074 60001 83202 333 58004 83819 94326
AAXX 12124 61986 12575 60509 10308 20264 40076 60001 83903 333 58042 819// 82820 84075 94321
AAXX 12124 61988 11465 70716 10275 20239 40108 60001 71522 87802 333 58011 85816 84650 91129
AAXX 12124 61989 11465 70813 10274 20240 40115 69911 78082 86342 333 0//11 58011 81710 81915 85816
AAXX 12124 61990 11462 61207 10280 20243 40097 60001 71522 86800 333 59007 81710 85813 94322
AAXX 12124 61995 11465 61004 10265 20219 39621 60011 71582 86302 333 0//12 59002 81916 86816 94323
AAXX 12124 96315 11457 71910 10244 20234 40091 60051 76188 84878 333 10317 82814 85465
AAXX 12124 96323 NIL
BBXX VCXF 12124 99464 70484 41698 72945 11015 2106/ 40267 52020 70222 87500 22200 02020 20808 333// 40705 81030
BBXX VCXF 12124 99464 70484 41698 72945 11015 2106/ 40267 52020 70222 87500 22200 02020 20808 333// 40705 81030
AAXX 12124 06610 01550 82311 10056 20033 39572 40160 52/// 60031 76362 8802/ 333 55300 20130 69995 88527 91124 91214
AAXX 12124 06670 01459 82413 10066 20040 39616 40127 52/// 60021 76062 885// 333 55300 20122 69955 83616 87621 91125 91214
AAXX 12124 06700 01468 73007 10064 20021 39674 40170 52/// 60091 78182 878// 333 55300 20158 60025 83819 86629 91124 91217
AAXX 12124 06680 01/01 92624 11056 21056 37424 47953 57/// 60061 77372 333 55300 20364 60035 91139 91224
AAXX 12124 06990 01450 82201 10029 20020 39584 40139 53/// 69941 71042 8111/ 333 55300 20122 69945 81819 88462 91106 91203
AAXX 12124 06760 01/03 90000 10054 20051 39686 40137 58/// 60031 74764 333 55300 20068 60005 91103 91202
AAXX 12124 06720 01458 82602 10043 20029 39578 40160 52/// 60041 76322 887// 333 55300 20212 69985 88517 88924 91106 91204
AAXX 12121 91925 06/// /0102 10225 20204 30060 40121 56020 60031 333 10297 58004 60037 90710 91113 555 60005 10729
AAXX 12121 91929 04/83 /0906 10269 20229 30138 40141 56015 69901 700// 333 60007 90710 91108 555 60005
AAXX 12121 91938 02570 21703 10251 20212 30143 40145 56015 60001 81201 333 60007 81820 90710 91105 555 60005 10206
AAXX 12121 91943 36/// /0808 10262 20203 30134 40136 56018 333 58005= 91944 06/// /0810 10260 20199 30148 40151 56017 60001 333 60007 90710 91114 555 60005
AAXX 12121 91954 06/// /3006 1//// 2//// 30139 4//// 56007 60001 333 1//// 58005 60007
AAXX 12121 91958 06/// /0510 10226 20186 30169 40171 56018 60001 333 10236 58007 60007 90710 91118 555 60005 10820
AAXX 12121 91945 36/// /3508 10264 20237 30146 40151 56012 333 10292
AAXX 12121 06431 36/// /2405 10081 20038 30065 40077 51019 60001 333 91109 91206
AAXX 12124 94299 46/// /3515 10289 20257 30057 40067
AAXX 12124 94300 46/// /2010 10247 20214 30075 40085
AAXX 12124 94302 46/// /2313 10281 20190 30070 40076
AAXX 12124 94312 46/// /2913 10292 20234 30034 40043
AAXX 12124 94313 NIL
AAXX 12124 94317 46/// /1508 10336 20126 39452 40019
AAXX 12124 94319 46/// /1306 10356 20137 39697 40018
AAXX 12124 94324 NIL
AAXX 12124 94326 46/// /1210 10272 20049 39475 40076
AAXX 12124 94327 46/// /1511 10284 20003 39712 40076
AAXX 12124 94332 46/// /1705 10248 20175 39677 40053
AAXX 12124 94333 NIL
AAXX 12124 94341 46/// /2108 10258 20126 39820 40049
AAXX 12124 94346 46/// /2706 10243 20152 39829 40043
AAXX 12124 94363 46/// /2504 10249 20218 39826 40038
AAXX 12124 94366 NIL
AAXX 12124 94367 46/// /3509 10276 20256 39996 40037
AAXX 12124 94374 46/// /0703 10242 20230 30030 40046
AAXX 12124 94388 46/// /3016 10241 20206 30042 40047
AAXX 12124 94393 46/// /3401 10272 30038 40050 53006
AAXX 12124 94394 46/// /3217 10261 30040 40048 51012
AAXX 12124 94403 46/// /2507 10224 20191 30035 40076
AAXX 12124 94429 46/// /2103 10186 20173 39625 40078
AAXX 12124 94430 46/// /1816 10263 20146 39493 40061
AAXX 12124 94449 46/// /1011 10285 20077 39568 40085
AAXX 12124 94451 NIL
AAXX 12124 94461 46/// /1510 10297 20056 39411 40063
AAXX 12124 94462 46/// /1608 10284 20065 39529 40070
AAXX 12124 94477 NIL
AAXX 12124 94488 NIL
AAXX 12124 94102 46/// /3603 10280 20242 30054 40063
AAXX 12124 94103 NIL
AAXX 12124 94120 46/// /2606 10264 20244 30028 40068
AAXX 12124 94122 NIL
AAXX 12124 94131 46/// /3404 10275 20243 39911 40061
AAXX 12124 94132 NIL
AAXX 12124 94147 NIL
AAXX 12124 94150 46/// /2503 10276 20240 39999 40058
AAXX 12124 94151 46/// /0000 10291 20246 30039 4////
AAXX 12124 94170 46/// /0102 10261 20250 30052 40074
AAXX 12124 94200 NIL
AAXX 12124 94203 46/// /3113 10297 20258 30052 40062
AAXX 12124 94206 46/// /1116 10307 21313 39907 40034
AAXX 12124 94207 NIL
AAXX 12124 94211 NIL
AAXX 12124 94212 46/// /3003 10290 20173 39581 40042
AAXX 12124 94216 46/// /0106 10281 20244 30012 40062
AAXX 12124 94236 NIL
AAXX 12124 94238 46/// /0402 10267 20209 39631 40043
AAXX 12124 94248 NIL
AAXX 12124 94255 46/// /1306 10276 20189 39797 40053
AAXX 12124 94268 46/// /3505 10281 20261 30047 40059
AAXX 12124 94287 46/// /2905 10278 20248 30047 40056
AAXX 12124 94290 NIL
AAXX 12124 94294 46/// /3009 10286 20266 30047 40057
AAXX 12124 94296 35/// /0000 10282 30058 40068 52014
AAXX 12124 94298 46/// /3511 10284 30059 40065 51013
AAXX 12124 95641 NIL
BBXX VRDB3 12124 99172 31531 41/98 33510 10285 20246 40081 54010 70122 83/// 22285 0//// 2//// 3//// 4//// 80260
BBXX C6HS4 12124 99216 31007 41598 72732 10240 20211 40120 54000 70222 86392 22233 06240 20502 313// 40403 80220
BBXX V2OG2 12123 99110 31024 41598 53207 10290 20256 40104 53016 70211 85832 22223 20402 314// 40403 80265
BBXX VROC 12124 99046 31533 41598 63508 10280 20237 40091 53030 70392 86284 22283 04300 20302 334// 40501 80250
BBXX VRDG4 12123 99407 31765 41297 80413 10160 20151 40180 52005 70355 887// 22213 20603 80155
BBXX 9KWP 12123 99041 30892 41697 52407 10280 20252 40087 53010 70151 83436 22274 2//// 80260
BBXX VNSZ 12114 99384 31447 46/// /2031 10144 20119 30076 40102 52004 22235 04175 85129
BBXX C6FS9 12114 99224 31604 46/// /0522 10263 20249 30048 40083 52012 22223 04268 85252
BBXX VROB 12114 99068 31470 46/// /3107 10253 20229 30073 40098 52028 22200 04309 85235
BBXX FHZI 12114 99429 31473 46/// ///// 10143 20116 30066 40077 52028 22200 85127
BBXX VHAF 12124 99394 31451 41/98 71617 10148 20104 40154 52020 70282 8//// 22284 20503 323// 41404 80125
BBXX VNSZ 12124 99388 31449 46/// /2024 10149 20115 30077 40103 52002 22235 04173 85129
BBXX 9HA2479 12124 99281 31590 46/// /2926 10220 20214 30000 40029 52022 22214 04242 85216
BBXX C6FS9 12124 99224 31607 46/// /0422 10265 20249 30050 40085 52010 22223 04270 85253
BBXX VROB 12124 99068 31470 46/// /3306 10250 20229 30074 40099 52014 22200 04309 85235
BBXX 9HA2479 12104 99285 31585 46/// /3143 10222 20213 39981 40010 52010 22214 04223 85216
BBXX VNSZ 12104 99383 31449 46/// /1916 10158 20109 30076 40102 57001 22244 04189 85129
BBXX C6FS9 12104 99224 31602 46/// /0517 10261 20249 30045 40080 52012 22223 04264 85252
BBXX VROB 12104 99068 31470 46/// /3105 10264 20227 30069 40094 52030 22200 04310 85237
BBXX FHZI 12104 99429 31473 46/// ///// 10147 20115 30059 40070 52028 22200 85128
BBXX 9MBX5 12104 99202 31126 41598 52131 10270 20226 40074 55001 7//11 82563 22284 20201 80240
BBXX VRWS3 12113 99097 31214 41/98 /3212 10295 20274 40069 55/// 70200 8/103 22224 04310 299// 80280
BBXX VRRD 12124 99077 31575 41698 30000 10290 20248 40088 51004 70100 82445 22233 04300 20000 30000 80260
BBXX PCAM 12123 99363 31752 41/97 /0708 10182 20166 40196 52/// 7//11 8//// 22262 00199 2//// 80172
BBXX ZMIQ 12124 99384 31785 41/96 73517 10162 20162 40217 57003 76162 84772 22243 00176 2//// 80162
AAXX 12123 91502 31470 70000 10265 20243 40089 51010 71322 82930 333 10330 56990 5//// 81814 81915 87360
AAXX 12123 91507 NIL
AAXX 12123 91520 31475 30000 10245 20238 40092 50011 70510 83978 333 10310 56999 59003 81815 81917
AAXX 12123 91541 12480 80000 10255 20241 40095 52020 69911 882// 333 10315 56399 5//// 88815
AAXX 12124 89564 41981 02803 11009 21116 39744 49763 53001 70200
AAXX 12124 89570 46/// /0509 11077 21115 39112 58003 333 11051
AAXX 12124 89571 41465 70113 11024 21067 39747 49775 57002 72682 8583/
AAXX 12124 89573 NIL
AAXX 12124 89610 NIL
AAXX 12124 89611 41580 12407 11007 21047 39702 49753 56001 70200 81801
AAXX 12124 89614 NIL
AAXX 12124 89615 46001 80000 11076 21092 38861 57002 333 11005
AAXX 12124 89807 NIL
AAXX 12124 89809 46/// /2205 11048 21059 39304 57002 333 10002
AAXX 12124 92001 NIL
AAXX 12124 92014 NIL
AAXX 12124 92044 11470 80000 10239 20231 30093 40099 52009 60111 72552 8587/
AAXX 12124 92047 NIL
AAXX 12124 92100 NIL
AAXX 12124 94893 46/// /2719 10141 20139 39979 40094
AAXX 12124 94907 46/// /2706 10126 20092 30096 40106
AAXX 12124 94910 46/// /2209 10173 20068 39811 40055
AAXX 12124 94926 46/// /1006 10141 20114 39415 40067
AAXX 12124 94935 46/// /2905 10128 20091 30074 40100
AAXX 12124 94954 46/// /2324 10128 20068 30002 40111
AAXX 12124 94956 46/// /2108 10109 20068 30088 40114
AAXX 12124 94975 46/// /1907 10130 20099 30052 40084
AAXX 12124 94983 46/// /2610 10146 20112 30037 40062
AAXX 12124 94995 46/// /0317 10218 20204 39998 40006
AAXX 12124 94996 46/// /0309 10224 20216 39995 40123
AAXX 12124 94997 NIL
AAXX 12124 94998 46/// /0125 10067 20053 39942 49952
AAXX 12124 95111 46/// /3406 10287 20253 30028 40064
AAXX 12124 95205 46/// /3215 10314 20250 30050 40057
AAXX 12124 95322 NIL
AAXX 12124 95448 46/// /1412 10255 20137 39520 40068
AAXX 12124 95458 46/// /1707 10240 20016 39862 40118
AAXX 12124 95480 46/// /1713 10235 20072 30054 40112
AAXX 12124 95481 46/// /2112 10257 20011 30044 40088
AAXX 12124 95482 46/// /1711 10280 20037 30027 40081
AAXX 12124 95485 46/// /2108 10230 20014 39883 40081
AAXX 12124 95492 46/// /2207 10243 20051 39918 40068
AAXX 12124 95527 46/// /0000 10201 20180 39801 40048
AAXX 12124 95634 46/// /0814 10249 20135 39674 40065
AAXX 12124 95637 46/// /1316 10147 20135 39784 40111
AAXX 12124 95646 46/// /1316 10184 20112 39974 40158
AAXX 12124 95666 NIL
AAXX 12124 95719 46/// /1205 10159 20146 39733 40055
AAXX 12124 95762 46/// /2005 10150 20120 39606 40050
AAXX 12124 95826 NIL
AAXX 12124 95839 46/// /2014 10155 20090 39969 40126
AAXX 12124 95864 NIL
AAXX 12124 95909 NIL
AAXX 12124 95954 NIL
AAXX 12124 95966 46/// /3507 10111 20087 39871 40069
AAXX 12124 96995 46/// /0000 10250 20240 39801 40095
AAXX 12124 96996 455// 83603 10274 20226 30076 40080 53006
AAXX 12124 94500 NIL
AAXX 12124 94510 46/// /1704 10217 20136 39714 40052
AAXX 12124 94515 46/// /0000 10198 20161 39709 40049
AAXX 12124 94552 46/// /2605 10178 20149 39593 40048
AAXX 12124 94578 46/// /1506 10228 20185 30029 40040
AAXX 12124 94584 46/// /2915 10235 20206 39922 40030
AAXX 12124 94601 46/// /1228 10187 20151 30107 40124
AAXX 12124 94610 46/// /1522 10178 20149 30050 40073
AAXX 12124 94637 46/// /1012 10245 20070 39670 40086
AAXX 12124 94638 46/// /0911 10173 20114 30124 40155
AAXX 12124 94642 NIL
AAXX 12124 94643 NIL
AAXX 12124 94647 46/// /1408 10175 20131 30050 40169
AAXX 12124 94651 46/// /1507 10156 20131 30094 40170
AAXX 12124 94653 46/// /1510 10175 20101 30148 40166
AAXX 12124 94659 46/// /1317 10198 20071 39938 40129
AAXX 12124 94672 46/// /1807 10158 20096 30145 40155
AAXX 12124 94691 46/// /1917 10188 20066 39792 40112
AAXX 12124 94693 46/// /2109 10197 20074 30060 40121
AAXX 12124 94700 NIL
AAXX 12124 94703 46/// /2506 10224 20092 39933 40055
AAXX 12124 94710 46/// /1907 10205 20061 39817 40063
AAXX 12124 94729 46/// /0000 10141 20139 39221 40049
AAXX 12124 94750 46/// /2008 10152 20147 39958 40080
AAXX 12124 94767 46/// /1915 10183 20149 30067 40073
AAXX 12124 94776 46/// /2707 10172 20149 30054 40064
AAXX 12124 94791 NIL
AAXX 12124 94802 46/// /1116 10164 20122 30071 40153
AAXX 12124 94804 46/// /1717 10157 20105 30127 40164
AAXX 12124 94807 NIL
AAXX 12124 94821 46/// /2110 10121 20113 30068 40150
AAXX 12124 94842 46/// /2016 10141 20072 30032 40130
AAXX 12124 94847 NIL
AAXX 12124 94850 46/// /2213 10127 20049 30074 40120
AAXX 12124 94865 46/// /2206 10150 20116 30093 40117
AAXX 12124 94866 46/// /1906 10147 20112 39977 40116
AAXX 12124 94875 46/// /2012 10147 20065 39960 40093
AAXX 12124 68014 36/// /2807 10249 20148 38574 48491 58006 333 10304 20169 91012 555 91016
AAXX 12124 68110 32789 23408 10309 20064 38255 48464 57012 82202 333 10309 20160 91014 555 91016
AAXX 12124 68300 36/// /3117 10161 20098 39954 40104 57005 333 10169 20106 91025 555 91010
AAXX 12124 89564 41981 02803 11009 21116 39744 49763 53001 70200
AAXX 12124 89570 46/// /0509 11077 21115 39112 58003 333 11051
AAXX 12124 89571 41465 70113 11024 21067 39747 49775 57002 72682 8583/
AAXX 12124 89573 NIL
AAXX 12124 89610 NIL
AAXX 12124 89611 41580 12407 11007 21047 39702 49753 56001 70200 81801
AAXX 12124 89614 NIL
AAXX 12124 89615 46001 80000 11076 21092 38861 57002 333 11005
AAXX 12124 89807 NIL
AAXX 12124 89809 46/// /2205 11048 21059 39304 57002 333 10002
AAXX 12124 92001 NIL
AAXX 12124 92014 NIL
AAXX 12124 92044 11470 80000 10239 20231 30093 40099 52009 60111 72552 8587/
AAXX 12124 92047 NIL
AAXX 12124 92100 NIL
BBXX VRDB3 12124 99172 31531 41/98 33510 10285 20246 40081 54010 70122 83/// 22285 0//// 2//// 3//// 4//// 80260
BBXX C6HS4 12124 99216 31007 41598 72732 10240 20211 40120 54000 70222 86392 22233 06240 20502 313// 40403 80220
BBXX V2OG2 12123 99110 31024 41598 53207 10290 20256 40104 53016 70211 85832 22223 20402 314// 40403 80265
BBXX VROC 12124 99046 31533 41598 63508 10280 20237 40091 53030 70392 86284 22283 04300 20302 334// 40501 80250
BBXX VRDG4 12123 99407 31765 41297 80413 10160 20151 40180 52005 70355 887// 22213 20603 80155
BBXX 9KWP 12123 99041 30892 41697 52407 10280 20252 40087 53010 70151 83436 22274 2//// 80260
BBXX VNSZ 12114 99384 31447 46/// /2031 10144 20119 30076 40102 52004 22235 04175 85129
BBXX C6FS9 12114 99224 31604 46/// /0522 10263 20249 30048 40083 52012 22223 04268 85252
BBXX VROB 12114 99068 31470 46/// /3107 10253 20229 30073 40098 52028 22200 04309 85235
BBXX FHZI 12114 99429 31473 46/// ///// 10143 20116 30066 40077 52028 22200 85127
BBXX VHAF 12124 99394 31451 41/98 71617 10148 20104 40154 52020 70282 8//// 22284 20503 323// 41404 80125
BBXX VNSZ 12124 99388 31449 46/// /2024 10149 20115 30077 40103 52002 22235 04173 85129
BBXX 9HA2479 12124 99281 31590 46/// /2926 10220 20214 30000 40029 52022 22214 04242 85216
BBXX C6FS9 12124 99224 31607 46/// /0422 10265 20249 30050 40085 52010 22223 04270 85253
BBXX VROB 12124 99068 31470 46/// /3306 10250 20229 30074 40099 52014 22200 04309 85235
BBXX 9HA2479 12104 99285 31585 46/// /3143 10222 20213 39981 40010 52010 22214 04223 85216
BBXX VNSZ 12104 99383 31449 46/// /1916 10158 20109 30076 40102 57001 22244 04189 85129
BBXX C6FS9 12104 99224 31602 46/// /0517 10261 20249 30045 40080 52012 22223 04264 85252
BBXX VROB 12104 99068 31470 46/// /3105 10264 20227 30069 40094 52030 22200 04310 85237
BBXX FHZI 12104 99429 31473 46/// ///// 10147 20115 30059 40070 52028 22200 85128
BBXX 9MBX5 12104 99202 31126 41598 52131 10270 20226 40074 55001 7//11 82563 22284 20201 80240
BBXX VRWS3 12113 99097 31214 41/98 /3212 10295 20274 40069 55/// 70200 8/103 22224 04310 299// 80280
BBXX VRRD 12124 99077 31575 41698 30000 10290 20248 40088 51004 70100 82445 22233 04300 20000 30000 80260
BBXX PCAM 12123 99363 31752 41/97 /0708 10182 20166 40196 52/// 7//11 8//// 22262 00199 2//// 80172
BBXX ZMIQ 12124 99384 31785 41/96 73517 10162 20162 40217 57003 76162 84772 22243 00176 2//// 80162
AAXX 12124 94893 46/// /2719 10141 20139 39979 40094
AAXX 12124 94907 46/// /2706 10126 20092 30096 40106
AAXX 12124 94910 46/// /2209 10173 20068 39811 40055
AAXX 12124 94926 46/// /1006 10141 20114 39415 40067
AAXX 12124 94935 46/// /2905 10128 20091 30074 40100
AAXX 12124 94954 46/// /2324 10128 20068 30002 40111
AAXX 12124 94956 46/// /2108 10109 20068 30088 40114
AAXX 12124 94975 46/// /1907 10130 20099 30052 40084
AAXX 12124 94983 46/// /2610 10146 20112 30037 40062
AAXX 12124 94995 46/// /0317 10218 20204 39998 40006
AAXX 12124 94996 46/// /0309 10224 20216 39995 40123
AAXX 12124 94997 NIL
AAXX 12124 94998 46/// /0125 10067 20053 39942 49952
AAXX 12124 95111 46/// /3406 10287 20253 30028 40064
AAXX 12124 95205 46/// /3215 10314 20250 30050 40057
AAXX 12124 95322 NIL
AAXX 12124 95448 46/// /1412 10255 20137 39520 40068
AAXX 12124 95458 46/// /1707 10240 20016 39862 40118
AAXX 12124 95480 46/// /1713 10235 20072 30054 40112
AAXX 12124 95481 46/// /2112 10257 20011 30044 40088
AAXX 12124 95482 46/// /1711 10280 20037 30027 40081
AAXX 12124 95485 46/// /2108 10230 20014 39883 40081
AAXX 12124 95492 46/// /2207 10243 20051 39918 40068
AAXX 12124 95527 46/// /0000 10201 20180 39801 40048
AAXX 12124 95634 46/// /0814 10249 20135 39674 40065
AAXX 12124 95637 46/// /1316 10147 20135 39784 40111
AAXX 12124 95646 46/// /1316 10184 20112 39974 40158
AAXX 12124 95666 NIL
AAXX 12124 95719 46/// /1205 10159 20146 39733 40055
AAXX 12124 95762 46/// /2005 10150 20120 39606 40050
AAXX 12124 95826 NIL
AAXX 12124 95839 46/// /2014 10155 20090 39969 40126
AAXX 12124 95864 NIL
AAXX 12124 95909 NIL
AAXX 12124 95954 NIL
AAXX 12124 95966 46/// /3507 10111 20087 39871 40069
AAXX 12124 96995 46/// /0000 10250 20240 39801 40095
AAXX 12124 96996 455// 83603 10274 20226 30076 40080 53006
AAXX 12124 94102 46/// /3603 10280 20242 30054 40063
AAXX 12124 94103 NIL
AAXX 12124 94120 46/// /2606 10264 20244 30028 40068
AAXX 12124 94122 NIL
AAXX 12124 94131 46/// /3404 10275 20243 39911 40061
AAXX 12124 94132 NIL
AAXX 12124 94147 NIL
AAXX 12124 94150 46/// /2503 10276 20240 39999 40058
AAXX 12124 94151 46/// /0000 10291 20246 30039 4////
AAXX 12124 94170 46/// /0102 10261 20250 30052 40074
AAXX 12124 94200 NIL
AAXX 12124 94203 46/// /3113 10297 20258 30052 40062
AAXX 12124 94206 46/// /1116 10307 21313 39907 40034
AAXX 12124 94207 NIL
AAXX 12124 94211 NIL
AAXX 12124 94212 46/// /3003 10290 20173 39581 40042
AAXX 12124 94216 46/// /0106 10281 20244 30012 40062
AAXX 12124 94236 NIL
AAXX 12124 94238 46/// /0402 10267 20209 39631 40043
AAXX 12124 94248 NIL
AAXX 12124 94255 46/// /1306 10276 20189 39797 40053
AAXX 12124 94268 46/// /3505 10281 20261 30047 40059
AAXX 12124 94287 46/// /2905 10278 20248 30047 40056
AAXX 12124 94290 NIL
AAXX 12124 94294 46/// /3009 10286 20266 30047 40057
AAXX 12124 94296 35/// /0000 10282 30058 40068 52014
AAXX 12124 94298 46/// /3511 10284 30059 40065 51013
AAXX 12124 95641 NIL
AAXX 12124 91375 NIL
AAXX 12124 91519 NIL
AAXX 12124 91531 NIL
AAXX 12124 91532 45/// /0110 10273 20246 30088 40096 52002 333 10307
AAXX 12124 91559 NIL
AAXX 12124 91611 NIL
AAXX 12124 91642 NIL
AAXX 12124 91679 NIL
AAXX 12124 91689 NIL
AAXX 12124 91756 NIL
AAXX 12124 91844 NIL
AAXX 12124 92036 NIL
AAXX 12124 93713 NIL
AAXX 12124 94500 NIL
AAXX 12124 94510 46/// /1704 10217 20136 39714 40052
AAXX 12124 94515 46/// /0000 10198 20161 39709 40049
AAXX 12124 94552 46/// /2605 10178 20149 39593 40048
AAXX 12124 94578 46/// /1506 10228 20185 30029 40040
AAXX 12124 94584 46/// /2915 10235 20206 39922 40030
AAXX 12124 94601 46/// /1228 10187 20151 30107 40124
AAXX 12124 94610 46/// /1522 10178 20149 30050 40073
AAXX 12124 94637 46/// /1012 10245 20070 39670 40086
AAXX 12124 94638 46/// /0911 10173 20114 30124 40155
AAXX 12124 94642 NIL
AAXX 12124 94643 NIL
AAXX 12124 94647 46/// /1408 10175 20131 30050 40169
AAXX 12124 94651 46/// /1507 10156 20131 30094 40170
AAXX 12124 94653 46/// /1510 10175 20101 30148 40166
AAXX 12124 94659 46/// /1317 10198 20071 39938 40129
AAXX 12124 94672 46/// /1807 10158 20096 30145 40155
AAXX 12124 94691 46/// /1917 10188 20066 39792 40112
AAXX 12124 94693 46/// /2109 10197 20074 30060 40121
AAXX 12124 94700 NIL
AAXX 12124 94703 46/// /2506 10224 20092 39933 40055
AAXX 12124 94710 46/// /1907 10205 20061 39817 40063
AAXX 12124 94729 46/// /0000 10141 20139 39221 40049
AAXX 12124 94750 46/// /2008 10152 20147 39958 40080
AAXX 12124 94767 46/// /1915 10183 20149 30067 40073
AAXX 12124 94776 46/// /2707 10172 20149 30054 40064
AAXX 12124 94791 NIL
AAXX 12124 94802 46/// /1116 10164 20122 30071 40153
AAXX 12124 94804 46/// /1717 10157 20105 30127 40164
AAXX 12124 94807 NIL
AAXX 12124 94821 46/// /2110 10121 20113 30068 40150
AAXX 12124 94842 46/// /2016 10141 20072 30032 40130
AAXX 12124 94847 NIL
AAXX 12124 94850 46/// /2213 10127 20049 30074 40120
AAXX 12124 94865 46/// /2206 10150 20116 30093 40117
AAXX 12124 94866 46/// /1906 10147 20112 39977 40116
AAXX 12124 94875 46/// /2012 10147 20065 39960 40093
AAXX 12124 94299 46/// /3515 10289 20257 30057 40067
AAXX 12124 94300 46/// /2010 10247 20214 30075 40085
AAXX 12124 94302 46/// /2313 10281 20190 30070 40076
AAXX 12124 94312 46/// /2913 10292 20234 30034 40043
AAXX 12124 94313 NIL
AAXX 12124 94317 46/// /1508 10336 20126 39452 40019
AAXX 12124 94319 46/// /1306 10356 20137 39697 40018
AAXX 12124 94324 NIL
AAXX 12124 94326 46/// /1210 10272 20049 39475 40076
AAXX 12124 94327 46/// /1511 10284 20003 39712 40076
AAXX 12124 94332 46/// /1705 10248 20175 39677 40053
AAXX 12124 94333 NIL
AAXX 12124 94341 46/// /2108 10258 20126 39820 40049
AAXX 12124 94346 46/// /2706 10243 20152 39829 40043
AAXX 12124 94363 46/// /2504 10249 20218 39826 40038
AAXX 12124 94366 NIL
AAXX 12124 94367 46/// /3509 10276 20256 39996 40037
AAXX 12124 94374 46/// /0703 10242 20230 30030 40046
AAXX 12124 94388 46/// /3016 10241 20206 30042 40047
AAXX 12124 94393 46/// /3401 10272 30038 40050 53006
AAXX 12124 94394 46/// /3217 10261 30040 40048 51012
AAXX 12124 94403 46/// /2507 10224 20191 30035 40076
AAXX 12124 94429 46/// /2103 10186 20173 39625 40078
AAXX 12124 94430 46/// /1816 10263 20146 39493 40061
AAXX 12124 94449 46/// /1011 10285 20077 39568 40085
AAXX 12124 94451 NIL
AAXX 12124 94461 46/// /1510 10297 20056 39411 40063
AAXX 12124 94462 46/// /1608 10284 20065 39529 40070
AAXX 12124 94477 NIL
AAXX 12124 94488 NIL
AAXX 12120 67693 31580 70305 10264 20169 39224 48478 72996 8293/ 333 59006 81925 87358 555 10283 29058
AAXX 12120 67690 41580 71401 10264 20214 71762 81937 333 81920 83360 87280 555 10268 29074
AAXX 12120 67695 41680 60000 10260 20224 70396 95930 333 81930 83640 86360 555 10265 29070
AAXX 12124 88963 12560 40000 10038 21011 39726 49756 58009 69904 81504 333 10038 20010 41997 56707 81632 84070 92407 94060 95000
AAXX 12124 88968 01462 83220 10020 21014 39797 49812 52021 69964 70252 886// 333 10020 20000 56799 69901 86712 88620 90117 90961 92437 92734 92851 94070 95060
AAXX 12124 89034 32970 60000 11028 21073 39505 49819 58009 86030 333 11028 21073 56020 86360 92407 92830
AAXX 12124 89053 31350 83228 10030 20017 39770 49783 57033 71010 8372/ 333 10035 21002 56669 83708 88540 90017 90084 92436 92851 94070 94476 95000 97536 98550
AAXX 12124 89055 11965 23207 10014 20005 39512 49750 58008 60034 70232 80005 333 10014 21025 56007 82270 92730 92850 95150
AAXX 12124 89066 32570 20705 10025 21017 39696 49704 57020 81607 333 10061 21009 56202 81730 92427 92734 92851 94070 95000
AAXX 12124 41241 32960 03609 10254 20130 30119 40154 333 58004
AAXX 12124 41242 36/// /0404 10251 20132 30141 40165 333 0E019 59000
AAXX 12124 41244 NIL
AAXX 12124 41246 32965 20508 10248 20167 30151 40155 80001 333 58005 82070
AAXX 12124 41251 36/// /1903 10177 21027 3//// 49920 333 0E007 58000
AAXX 12124 41252 NIL
AAXX 12124 41253 36/// /0104 10261 20103 39781 40164 333 0E015 58004
AAXX 12124 41254 NIL
AAXX 12124 41255 36/// /2003 10284 21013 39613 40152 333 0E018 59001
AAXX 12124 41256 32565 23307 10249 20158 30147 40157 82500 333 58002 82625
AAXX 12124 41257 NIL
AAXX 12124 41258 NIL
AAXX 12124 41259 NIL
AAXX 12124 41262 NIL
AAXX 12124 41263 NIL
AAXX 12124 41264 NIL
AAXX 12124 41265 NIL
AAXX 12124 41267 35/80 /3414 10251 20149 30134 40150 333 0E018 59001
AAXX 12124 41268 32960 20111 10258 20149 30133 40149 80001 333 59002 82070
AAXX 12124 41270 NIL
AAXX 12124 41275 NIL
AAXX 12124 41287 NIL
AAXX 12124 41288 32460 31105 10255 20155 30129 40151 83501 333 59001 81610 83070
AAXX 12124 41290 NIL
AAXX 12124 41295 NIL
AAXX 12124 41304 NIL
AAXX 12124 41312 36/// /3415 10280 20069 30092 40131 333 0E/// 58004
AAXX 12124 41314 32960 43211 10231 20051 39659 40160 80001 333 58003 84075
AAXX 12124 41315 36/// /3419 10193 20041 39154 42793 333 0E/// 59007
AAXX 12124 41316 32960 53415 10282 20052 30110 40136 80001 333 58003 85075
AAXX 12124 68004 36/// /3503 10313 20019 38511 48466 57015 333 10321 20149 91010 555 91014
AAXX 12124 68006 36/// /2208 10330 21009 38890 48484 57011 333 10339 20213 91014 555 91012
AAXX 12124 68010 36/// /2704 10348 21008 38885 48504 57012 333 10352 20135 91010 555 91014
AAXX 12124 68018 16/// /3302 10297 20167 38866 48481 57021 69921 333 10297 20191 91005 555 20002 91012
AAXX 12124 68098 32789 52810 10177 20104 30034 40141 58002 85500 333 10177 20121 91017 555 91014
AAXX 12124 68102 36/// /2505 10325 20019 38705 48464 57012 333 10335 20126 91013 555 91011
AAXX 12124 68112 32789 63009 10301 20070 38305 48480 58007 85280 333 10311 20147 91017 555 91018
AAXX 12124 68116 36/// /0106 10334 20111 38529 48478 57017 333 10335 20170 91013 555 91015
AAXX 12124 68212 36/// /3312 10372 20023 38848 48483 57023 333 10378 20195 91018 555 91011
AAXX 12124 68312 32789 10310 10336 20038 38898 48479 58020 81201 333 10343 20160 91018 555 91011
AAXX 12124 48350 31940 01402 10176 20145 39845 40153 71000 333 10250 59017
AAXX 12124 48384 31958 00000 10190 20138 39956 40151 52014 71000 333 10269 59003
AAXX 12124 48409 32960 20303 10222 20151 39988 40138 52015 80001 333 10262 59010
AAXX 12124 48574 01560 60000 10265 20243 30073 40103 52013 69902 70262 83136 333 10312 59005 69906 79999
AAXX 12124 48581 11557 80403 10250 20226 30068 40110 52015 69902 71022 82546 333 10288 59009 70240
AAXX 12123 NIL
AAXX 12124 94310 46/// /3218 10277 20250 30035 40047 52016 333 10328
AAXX 12124 95283 46/// /3204 10267 20242 30058 40065
AAXX 12124 95288 46/// /3518 10293 30048 40063 51021
AAXX 12124 95675 46/// /1713
AAXX 12124 95872 46/// /1713
AAXX 12124 95961 35/// /2614 10120 30064 40105 52023
BBXX ZCDS3 12111 99335 70580 41498 51207 10222 20192 40250 55002 70311 84860 22264 00240 20402 311// 40705 5//// 80203
BBXX ZCDS3 12101 99335 70577 41498 41308 10220 20187 40243 56007 70300 82260 22264 00240 20402 311// 40704 5//// 80199
BBXX UCKZ 12121 99434 30193 42598 70109 10138 20118 40095 58027 82532 22243 00141 20503 306// 41005
BBXX VNVF 12124 99292 11353 41398 73512 10183 20114 40215 51022 70222 83/// 22213 00239 20301 80145
BBXX VRWS4 12124 99127 11488 41398 62912 10290 20255 40074 51012
BBXX 41038 12121 99341 70777 46/// /0208 10098 40301 52010 91200 22200 00144 333 91210
AAXX 12121 37395 42799 80000 10084 20013 30153 40295 53001 8452/ 555 11008
AAXX 12121 37409 42598 62704 10022 21057 38833 48548 58001 85540 333 95000 555 1/102
AAXX 12121 37432 42697 60000 10038 21054 39010 48542 52002 86201 555 10100
AAXX 12121 37545 42599 43213 10112 21022 39742 40252 52001 81131
AAXX 12121 37621 42699 60000 10080 21041 39620 40263 53005 80031 555 11005
AAXX 12121 37484 NIL
AAXX 12121 37514 NIL
AAXX 12121 38396 41697 71703 10014 21024 30196 40325 52006 70272 87500 333 83945 555 10002
AAXX 12121 38141 42598 82502 10011 21056 30112 40274 53003 885// 555 1/000
AAXX 12121 38149 42598 82003 10025 21011 30212 40290 53001 885// 555 10003
AAXX 12121 38178 42598 82605 11041 21160 30013 40312 52021 885// 555 10104
AAXX 12121 38262 42698 82302 10019 21042 30230 40313 52002 885// 555 11002
AAXX 12121 38264 42698 72103 10024 21029 30210 40306 52007 875// 555 14001
AAXX 12121 38396 NIL
AAXX 12121 38403 42497 82704 11001 21061 30201 40327 52023 886// 555 11004
AAXX 12121 38413 41997 82703 11026 21042 30022 40325 52018 77177 8802/ 555 15102
AAXX 12121 38457 41394 83101 10000 21006 39720 40328 52035 77176 8852/ 555 1/000
AAXX 12121 38462 41594 80000 11020 21029 38816 48550 52022 77177 887// 555 1/102
AAXX 12121 38565 32698 82305 10000 21044 39720 40324 52028 85540 555 11000
AAXX 12121 38579 42597 70809 10028 21049 39893 40323 52023 86970 555 11002
AAXX 12121 38583 31596 81401 10003 20000 30002 40335 52023 71077 8872/ 555 1/000
AAXX 12121 38611 41796 80703 10030 21003 39718 40301 52029 71022 883// 333 85089 555 10002
AAXX 12121 38618 42997 80000 10039 20005 39584 40284 52031 8807/ 555 11001
AAXX 12121 38683 41496 81804 11001 21034 30063 40351 52017 76176 882// 333 88514 555 11002
AAXX 12121 38696 41598 80502 11004 21013 39450 40337 52020 70288 8594/ 555 14101
AAXX 12121 38812 NIL
AAXX 12121 38927 32660 80000 10042 20027 39974 40361 52011 8802/ 333 88533 555 11006
AAXX 12121 37682 32997 40000 11036 21065 38175 48581 58002 84040
AAXX 12121 37717 32599 62102 11021 21112 38129 48559 54000 81534 555 1/107
AAXX 12121 37788 41996 20000 10005 21057 39299 40332 57008 71011 82600 333 82713
AAXX 12124 60710 12565 42614 10186 20074 30137 40215 56001 60001 83280 333 50151 82820 83360
AAXX 12124 60714 12570 52912 10187 2//// 30215 40221 58006 60001 84202 333 50101 84820
AAXX 12124 60720 12960 02908 10185 20131 30172 40205 50004 60001 333 50081
AAXX 12124 60728 NIL
AAXX 12124 60729 12560 22808 10176 20118 30040 40224 50005 60001 82500 333 50141 82626
AAXX 12124 60731 05960 /3411 10195 20088 30200 40207 56008 60001 333 58001 60007 91015 91115
AAXX 12124 60732 12565 32506 10160 20073 39166 40215 51002 60001 83200 333 50161 83820
AAXX 12124 60734 12970 02806 10167 20071 39699 40214 51002 60001 333 50151
AAXX 12124 60738 NIL
AAXX 12124 60739 12960 03216 10160 20024 39395 40204 58008 60001 333 50421
AAXX 12124 60740 12965 03406 10181 20069 30208 40210 57004 60001 333 50141
AAXX 12124 60742 NIL
AAXX 12124 60764 12962 22304 10171 20061 30168 40220 58010 60001 80002 333 50271 82070
AAXX 12124 60770 12975 62704 10227 20080 30072 40207 57013 60001 80002 333 50151 86070
AAXX 12124 60772 12965 52610 10201 20050 39955 40206 56008 60001 80002 333 5///1 85070
AAXX 12124 60775 12965 72708 10194 20009 39862 40211 56010 60001 83082 333 5///1 83360 85070
AAXX 12124 60780 12960 63206 10187 20029 39927 40229 50001 60001 80002 333 5///1 86070
AAXX 12124 16294 12598 22302 10170 20121 39998 40188 58002 60001 82100 333 82826 555 0215/
AAXX 12124 78866 02488 10706 10263 20224 30127 40132 52013 60001 81200 333 10290 20230 58007 60007 81819
AAXX 12121 14008 11/91 90902 11028 21029 37426 47981 57014 60021 77374 333 93102 95199
AAXX 12121 14023 12697 70901 10070 20043 39841 40136 58025 60001 87500 333 87634
AAXX 12121 14024 11298 81504 10055 20054 39034 48436 57021 60001 72842 888// 333 85801 83608 95050
AAXX 12121 14026 12597 72004 10101 20062 39805 40121 57027 60001 87500 333 82630 83643 87656
AAXX 12121 14031 11596 61203 10096 20065 39902 40128 57026 60001 71024 82531 333 82623
AAXX 12121 14105 11596 72302 10126 20117 30126 40130 58019 60021 76166 87500 333 82620 87650
AAXX 12121 14106 11495 80901 10097 20093 30059 40127 58020 60071 76162 8802/ 333 88514 95090
AAXX 12121 14112 11/40 82303 10096 29098 69931 760//
AAXX 12121 14121 11697 70000 10061 20046 39864 40131 57026 69901 70264 87500 333 84640 85647
AAXX 12121 14122 11250 70101 10060 20048 39941 40138 57025 69911 71064 85570 333 82705 85650
AAXX 12121 13173 32697 51606 10116 20078 30067 40166 57018 85500
AAXX 12121 13180 32697 61408 10115 20085 30066 40175 57019 86500 333 91112
AAXX 12121 13266 11696 60904 10120 20083 30063 40163 57020 69911 71026 86500
AAXX 12121 13369 32698 71805 10061 20025 38993 48477 58013 87500 333 91011
AAXX 12121 13383 32698 72801 10146 20072 39982 40181 57018 87500
AAXX 12121 13384 32698 81103 10099 20049 30041 40192 57014 885//
AAXX 12121 13389 11598 80601 10120 20053 39930 40208 57012 69921 70262 888//
AAXX 12121 13477 NIL
AAXX 12121 13168 32697 71104 10122 20087 30055 40161 58019 87500
AAXX 12121 13174 32697 71606 10102 20069 30065 40165 58017 87500
AAXX 12121 13269 11697 80901 10110 20084 39959 40171 57016 69921 70262 885//
AAXX 12121 13274 32697 61505 10132 20077 30009 40167 57018 84830
AAXX 12121 13278 11698 72301 10124 20092 39966 40187 57016 69901 76022 87500
AAXX 12121 13378 31/90 91805 10017 20017 38283 48508 57008 74544
AAXX 12121 13397 11697 81103 10104 20081 39677 40211 57014 69981 72162 888//
AAXX 12121 13457 41565 71502 10153 20139 30178 40185 57018 70196 85820 333 82826 83633 87459
AAXX 12121 13481 NIL
BBXX BATUK01 12124 99578 70066 44596 62606 10067 20005 49875 53002 72022 8623/ 22232 00114 20404
AAXX 12121 10980 12589 82706 10009 21059 38072 48418 55000 60001 8707/ 333 48019 55300 20405 30405 86333 87450 91116 91211 95152 444 16086
AAXX 12121 15501 12566 80000 10060 20044 30193 40238 58010 60001 885// 333 10061 20055 555 589//
AAXX 12121 15505 11/00 90000 10046 20041 39845 40224 57014 69921 74764 333 10050 20040 555 597//
AAXX 12121 15511 12570 80502 10052 20045 30204 40244 58009 60001 885// 333 10054 20045 555 595//
AAXX 12121 15514 11535 80901 10052 20038 30187 40223 57012 60001 71022 8802/ 333 10053 20041 555 590//
AAXX 12121 15530 12665 43402 10112 20070 39977 40213 58020 60001 81285 333 10125 20050 555 576//
AAXX 12121 15533 11511 80000 10065 20049 30167 40199 58013 69901 70264 885// 333 10065 20031 555 58900 69199
AAXX 12121 15550 12968 70000 10130 20086 30195 40214 57026 60001 87050 333 10130 20064 555 575//
AAXX 12121 15561 11965 81604 10105 20093 30220 40227 57018 69951 70262 8802/ 222// 00099 311// 4//01 333 10106 20094 555 592// 71255 81309 92023 92427
AAXX 12121 15562 11/01 90000 10100 20083 30171 40243 58011 60001 74542 222// 2//00 333 10102 20090 555 589// 92003 92401
AAXX 12121 15600 11/00 91820 10024 20024 38333 48534 58008 60001 74544 333 10025 20020 91124 555 500//
AAXX 12121 15601 11602 80000 10074 20061 39596 40217 58010 69951 74684 883// 333 10074 20038 555 59200 63199 71260
AAXX 12121 15605 11672 70703 10086 20078 39371 40209 58014 69931 70282 87300 333 10091 20052 555 59500 62199 71250
AAXX 12121 15613 11/00 92010 11007 21007 37734 47091 58010 69951 77177 333 11002 21010 44012 555 500//
AAXX 12121 15628 11658 70000 10106 20063 39969 40225 58015 60001 71022 85230 333 10119 20046 555 575//
AAXX 12121 15642 11668 70000 10134 20107 30062 40228 58021 60001 70242 87500 333 10136 20064 555 584//
AAXX 12121 15661 12560 80702 10108 20088 30190 40225 57016 60001 885// 222// 00092 20000 333 10110 20084 555 587// 92012 92417
AAXX 12121 15726 11481 52002 10054 20011 38295 48551 58012 60001 70311 82232 333 10086 20022 42001 555 574//
AAXX 12124 65306 31940 51010 10299 20051 39803 40133 70522 80002 333 0//00 58010 85076
AAXX 12124 65319 31915 52806 10308 20054 39613 40123 70542 80002 333 0//00 58011 85076
AAXX 12124 65330 31906 51008 10303 20035 39676 40111 70544 80002 333 0//00 58009 85076
AAXX 12124 65335 31/08 90404 10322 20100 39890 40111 70644 333 0//00 58012 89/08
AAXX 12124 65344 31920 53608 10303 20168 30098 40109 70522 80002 333 0//00 58011 85076
AAXX 12124 71869 11262 82304 11133 21141 39765 40315 52004 69921 77122 887// 333 11056 21168 47004 70002 90942
BBXX OZDM2 12124 99419 70101 41698 42320 10160 20066 40247 50006 70211 82142 22244 04160 20102 333// 40312 80110
AAXX 12124 78016 11464 70616 10215 20191 30213 40217 52007 60011 72582 86730 333 10215 20191 70004 90916
AAXX 12121 38812 41296 82302 10001 21010 39883 40355 52014 72682 883// 333 85706 555 11002
AAXX 12124 68398 16/// /3611 10317 20205 39304 48483 57011 69921 333 10328 20194 91017 555 20002 91007
AAXX 12121 56187 32963 00000 10031 21004 39595 40269 52014 333 05452
AAXX 12121 56778 NIL
AAXX 12121 57265 NIL
AAXX 12121 57461 32962 00901 10082 20000 30111 40279 52016
AAXX 12121 57494 NIL
AAXX 12121 57516 31957 02901 10081 20045 39943 40261 52014 71000 333 05400
AAXX 12121 57687 32975 52201 10082 21033 30182 40269 52008 80002
AAXX 12121 57816 31659 80403 10045 20008 38829 40256 52012 71000 885// 333 05201
AAXX 12121 58040 31956 00000 10013 21013 30282 40296 52010 71000
AAXX 12121 58102 32970 01101 10038 21044 30248 40298 52013
AAXX 12121 58150 31940 00000 10016 21018 30293 40297 52008 71000
AAXX 12121 58221 NIL
AAXX 12121 58238 NIL
AAXX 12121 58251 NIL
AAXX 12121 58362 NIL
AAXX 12121 58457 31950 03401 10050 21046 30239 40294 52013 70500
AAXX 12121 58606 NIL
AAXX 12121 58752 NIL
AAXX 12121 58847 32665 73602 10141 20044 30141 40244 52009 875//
AAXX 12121 59117 32968 02501 10112 20067 30105 40214 52010
AAXX 12121 59134 NIL
AAXX 12121 59287 NIL
AAXX 12121 59316 32963 00904 10171 20128 30196 40201 52010
AAXX 12121 59431 NIL
AAXX 12121 59644 32970 03403 10153 20034 30187 40204 52011
AAXX 12121 59758 NIL
AAXX 12121 50468 32970 03601 11213 21250 30028 40257 52001
AAXX 12121 50953 32970 02201 11092 21153 30103 40293 52003
AAXX 12121 51076 NIL
AAXX 12121 51243 NIL
AAXX 12121 51288 32980 10903 11081 21223 38339 52006 80002 333 05402
AAXX 12121 51463 NIL
AAXX 12121 51573 NIL
AAXX 12121 51709 NIL
AAXX 12121 52533 NIL
AAXX 12121 52652 NIL
AAXX 12121 52866 NIL
AAXX 12121 52983 NIL
AAXX 12121 53463 32960 72701 11053 21129 39003 40314 57009 80002 333 05502
AAXX 12121 53513 32970 22002 11068 21162 39008 40297 57002 80002 333 05600
AAXX 12121 53588 NIL
AAXX 12121 53772 NIL
AAXX 12121 53915 NIL
AAXX 12121 54218 32970 01601 11079 21175 39469 40319 57006
AAXX 12121 54337 32960 02502 11019 21109 30229 40316 52002
AAXX 12121 54342 NIL
AAXX 12121 54401 NIL
AAXX 12121 54471 32962 01402 11037 21129 30316 40322 52006
AAXX 12121 54497 32965 00202 11028 21155 30298 40315 52014
AAXX 12121 54511 NIL
AAXX 12121 54823 32962 00902 10015 21040 30082 40299 52004
AAXX 12121 56080 NIL
AAXX 12121 56096 NIL
AAXX 12121 57083 31957 70000 10027 21015 30149 40291 52009 71000 80002
AAXX 12121 14015 11430 80201 10059 20053 39780 40140 58022 60021 76062 8657/ 333 82710 86626
BBXX 62087 12121 99547 10068 46/// /1002 10076 20044 4//// 5//// 22270 00086
AAXX 12124 78866 02488 10706 10263 20224 30127 40132 52013 60001 81200 333 10290 20230 58007 60007 81819
AAXX 12124 78866 02488 10706 10263 20224 30127 40132 52013 60001 81200 333 10290 20230 58007 60007 81819
AAXX 12124 71869 11262 82304 11133 21141 39765 40315 52004 69921 77122 887// 333 11056 21168 47004 70002 90942
AAXX 12121 89064 11105 80305 10009 29087 49760 57035 69904 77357 885// 333 21004
AAXX 12124 60663 36/// /2501 10219 21092
AAXX 12124 60645 36/// /0000 10234 21002
BBXX 61002 12124 99421 10047 46/// ///30 10140 2//// 40190 52004 22200 00154 10503 70016 555 1/041
AAXX 12124 78922 46/// /1607 10278 20238 30086 40130 53019
BBXX PDHY 12123 99458 70491 41598 73012 10010 21016 40289 52010 70222 862/0 22223 04060 20606 332// 40707 5//// 80000
AAXX 12124 60619 36/// /0212 10187 20006
AAXX 12124 60621 36/// /0512 10223 21018
AAXX 12124 60612 36/// /0801 10183 21040
AAXX 12124 60664 36/// /0000 10216 21075
AAXX 12124 63125 32580 31013 10290 20199 40143 83200 333 59002 83825
AAXX 12123 04013 42689 61113 11008 21021 49788 57003 82510 555 3//13
AAXX 12123 04064 41788 89902 10001 21002 49794 57001 78522 87802 555 3//02
BBXX TFBKF 12124 99635 70202 46/// ///// 22200 10704 70020
BBXX TFBLK 12124 99657 70248 46/// ///// 22200 10806 70028
BBXX TFDRN 12124 99658 70212 46/// ///// 22200 10603 70013
BBXX TFGRS 12124 99663 70182 46/// ///// 22200 10705 70027
BBXX TFGRV 12124 99638 70225 46/// ///// 22200 10805 70026
BBXX TFHFN 12124 99642 70152 46/// ///// 22200 10905 70027
BBXX TFKGR 12124 99657 70136 46/// ///// 22200 10806 70031
BBXX TFSRT 12124 99633 70203 46/// ///// 22200 10906 70031
BBXX TFSTD 12124 99664 70234 46/// ///// 22200 10808 70042
AAXX 12124 04082 42983 83605 10007 21001 49799 57007 8807/ 555 3//05 88360
AAXX 12121 48919 32498 80514 10260 20236 30060 40082 53000 8392/ 22200 00273 2//04 333 10266 59002 70000 8189 4 83995 88499
AAXX 12121 48916 32998 70203 10260 20204 30055 40102 53008 80008 333 00/// 10282 59006 70000 87299
AAXX 12121 48921 31/00 90901 10102 20098 38582 48079 52014 74744 333 10110 59001
AAXX 12121 48924 31610 82701 10165 20159 39532 40171 52025 71044 8556/ 333 10215 59014
AAXX 12121 48925 31430 50903 10177 20123 39401 40105 52011 71044 83800 333 10225 59022
AAXX 12121 48926 NIL
AAXX 12121 48927 32970 00000 10114 20094 39168 48631 52002 333 10182 59016
AAXX 12121 48928 31420 11401 10107 20090 39092 48555 52016 71044 81100 333 10175 58003
AAXX 12121 48930 31350 40000 10175 20150 39807 40164 52007 71044 82800 333 10245 59036
AAXX 12121 48935 31410 10401 10128 20084 38974 48457 52012 71044 81100 333 10188 59016
AAXX 12121 48938 31506 10901 10188 20158 39806 40142 52005 71044 81800 333 10245 59035
AAXX 12121 48940 31930 00901 10205 20145 39945 40144 52018 71044 333 10246 59008
AAXX 12121 48941 NIL
AAXX 12121 48944 31520 11803 10126 20104 39535 40127 52006 71044 81500 333 10176 58007
AAXX 12121 48945 31540 21402 10185 20118 39972 40155 52007 71044 81800 333 10255 59009
AAXX 12121 48946 31930 00901 10205 20145 39945 40144 52018 71044 333 10246 59008
AAXX 12121 48947 NIL
AAXX 12121 48948 NIL
AAXX 12121 48952 31520 13601 10201 20149 39927 40123 52006 70544 81100 333 10260 59003
AAXX 12121 48953 31440 50000 10215 20175 39919 40083 52022 71044 82240 333 10285 59008
AAXX 12121 48955 32460 33603 10231 20147 30011 40129 52017 81800 333 10283 58013
AAXX 12121 48957 NIL
AAXX 12121 48900 32497 22405 10250 20210 30093 40103 52021 82100 333 10310 58001 82894
AAXX 12121 48917 32598 60506 10263 20187 30102 40108 53009 82208 222// 00281 2//00 333 00025 10294 59004 7000 0 82895 86299
AAXX 12121 48918 02498 72701 10250 20227 30102 40113 53014 69944 878// 222// 00275 2//01 333 01026 10292 5800 0 69942 70004 82894 86696
AAXX 12121 48914 32998 70201 10276 20203 30090 40092 56014 80008 333 58000 87299
AAXX 12121 48914 32598 73402 10258 20208 30108 40110 52018 82208 333 00024 10278 58000 70000 82895 87299
BBXX 41053 12121 99185 70661 46/// /2003 10250 40126 53016 91200 22200 00279 11003 70014 333 91204
AAXX 12124 89628 46/// /3106 4//// 5////
BBXX 42067 12121 99300 70886 46/// ///// 10097 20086 40257 91140 22200 00164 10602 70011
BBXX 44139 12121 99442 70571 46/// /2704 10018 40366 52013 22200 00086 10803 70017 333 91206
BBXX 46035 12121 99571 71778 46/// /1809 1//// 49908 50005 91150 22200 11110 20604 300// 41109 70049 333 91211 555 11092 22098 31125 41812 61149 185092 193088 184098 191104 198099 194096 82111 91104
BBXX DDJS2 12123 99407 71540 41296 83526 10105 20095 40205 54000 76011 89700 22224 04150 20403 301// 40540 5//// 80100
BBXX DQVG 12123 99368 71580 41597 53012 10150 20092 40180 55005 70311 85566 22264 00186 21101 3//// 4//// 5//// 80120
BBXX LAJS6 12124 99500 71534 41698 32618 10050 20030 40200 51010 70211 832// 22224 00060 21005 329// 41304 80040
BBXX OUJI2 12124 99527 71522 43/// /2432 10040 2//// 40240 5//// 7//// 8//// 22211 0//// 2//// 3//// 4//// 5//// 6//// ICE /////
BBXX SHIP 12124 99377 71620 41398 50609 10140 20064 40239 53013 70221 8483/ 91145 22224 00160 1//// 2//// 3//// 4//// 5//// 6//// 80100
BBXX SHIP 12124 99316 71739 41598 82415 10210 20200 40260 54000 70222 88470 22223 00230 2//// 315// 4//// 5//// 6//// 80200 ICE 0////
BBXX 3FSB4 12124 99392 11698 435// 42737 10100 20060 40100 52010 7//// 842// 22224 0//// 20908 3//// 40810 5//// 6//// 80080 ICE /////
BBXX 3FZK3 12124 99512 11708 46/// /2914 11009 21035 49864 56007 7//// 8//// 22223 0//// 2////
BBXX 4XFV 12123 99511 11701 43/97 92435 10025 00/// 21010 49870 54000 7//// 8//// 22264 0//// 2//// ///// 3//// 4//// 5//// 6//// 80015
BBXX A8EH5 12121 99531 11795 41/97 81618 10050 49870 57060 758// 8/7// 22263 00054 21412 325// 4//07 5////
BBXX DMRX 12124 99495 11685 41/97 /3030 10000 21042 49912 51007 70222 8/2// 22224 00060 2//// 81015
BBXX LAOX5 12121 99312 11610 41/97 83512 00/// 10170 20140 40210 51010 70261 88627 22223 00180 20403 330// 40404 5//// 6//// 80150
BBXX SHIP 12123 99307 11668 41/98 /0016 10200 20153 40170 54000 70006 8//// 22264 00215 2//// 3//// 4//// 80170
BBXX 44139 12121 99442 70571 46/// /2704 10018 40366 52013 22200 00086 10803 70017 333 91206
BBXX A8EY7 12124 99476 11472 41/91 83410 11040 21077 40050 54000 774// 8//// 22253 2//02 3//// 4//// 5//// 82050
BBXX C6SI6 12124 99378 11451 46/// /2920 10101 20038 40172 53016 7//// 8//// 22253 0//// 2////
BBXX DGDD 12121 99341 11462 41/98 12615 10170 20119 40160 57015 70161 81/// 22264 00210 2//// 3//// 4//// 5//// 80140
BBXX WDE9586 12123 99359 11496 43498 51820 10150 20120 40150 56020 7//// 8548/ 22224 00220 2//// 3//// 4//// 5//// 6//// 80130 ICE /////
AAXX 12121 01089 41487 42504 11044 21056 39886 49994 52017 70110 81140 333 91108
AAXX 12121 01311 47581 82304 1//// 2//// 39821 53011 722// 333 91114
AAXX 12121 01025 17383 81901 11014 21024 39986 49997 58009 6//// 700// 333 91103
AAXX 12124 48386 31950 00000 10215 20183 30095 40140 52015 71000 333 10280 59003
AAXX 12121 48845 32998 00000 10143 20115 30187 40194 53003 333 01014 10177 59021 70000
AAXX 12121 48840 32998 00000 10157 20080 30181 40187 52007 333 00015 10210 59023 70000
AAXX 12124 78962 11460 71105 10243 20222 30123 40131 60091 78082 85932 333 06299 10306 20234 58007 70089 81912 83640 87640 90915
AAXX 12124 71837 17/// ///// 11079 60011 7//4/ 333 10000 21079 70046
AAXX 12124 71839 17/// ///// 11084 69971 7//4/ 333 11014 21086 70041
AAXX 12124 71840 46/// /3412 11102 21113 6///1 333 11003 21102 7////
AAXX 12124 71849 16/// /0111 11108 21119 39980 40294 52024 60001 333 11049 21128 4/001 70000
AAXX 12124 71450 16/// /0805 11093 21104 39547 40291 51005 60001 333 11029 21098 70000
AAXX 12124 71453 17/// /1101 11072 21082 39326 40266 53005 60071 7//4/ 333 11007 21076 4/001 55/// 20000 70087 555 10010
AAXX 12124 71465 46/// /2409 10025 21045 30092 40313 55000 6///1 333 10036 20024 7////
AAXX 12124 71470 16/// /2015 11090 21100 39391 40017 58039 60001 333 11154 21184 70000
AAXX 12124 71476 16/// /1419 30192 56031 60001 333 70000
AAXX 12124 71478 16/// /3302 10044 20013 30120 40258 58007 60001 333 10059 20038 70000
AAXX 12124 71479 16/// /0113 10025 21003 30125 40248 58001 60001 333 10051 20024 70000
AAXX 12124 71480 16/// /1307 11093 21120 39753 49874 56057 60001 333 11087 21194 4/017 70000
AAXX 12124 71482 46/// /0417 10007 30228 40267 58008 6///1 333 10032 20004 7////
AAXX 12124 71484 16/// /1618 10042 20025 30182 40201 58028 60001 333 10064 20036 70000
AAXX 12124 71492 46/// ///17 11140 21155 39203 49891 58028 6///1 333 11112 21164 4/014 7//// 555 10030
AAXX 12124 71854 11269 83507 11104 21120 39785 40277 53020 69902 771// 885// 333 11058 21109 48009 79999 90929 555 10000 20000
AAXX 12124 71015 17/// ///// 11087 69961 7//4/ 333 11003 21089 70042
AAXX 12124 71017 16/// /1303 11286 21315 30004 40019 58020 60001 333 11270 21289 70000
AAXX 12124 71018 16/// ///00 11274 21301 39957 40047 56010 60001 333 11249 21278 70000
AAXX 12124 71019 46/// /2404 11044 21069 39966 40278 53008 6///1 333 11047 21092 7////
AAXX 12124 71020 46/// /1402 11007 21077 39726 49977 57051 6///1 333 11012 21083 4/010 7//// 555 10010
AAXX 12124 71021 46/// /3104 11047 21110 39655 40005 58057 6///1 333 11074 21120 4/005 7//// 555 10010
AAXX 12124 71807 16/// /2920 11028 21087 30292 40311 51015 60001 333 10060 21043 70000
AAXX 12124 71868 16/// /2401 11123 21138 39851 40311 51006 60001 333 11067 21124 70000
AAXX 12124 71832 16/// /2804 11058 21065 39907 40241 53026 60001 333 11021 21058 4/020 70000
AAXX 12124 71861 17/// /0805 11070 21077 39531 40279 53010 60461 7//4/ 333 11013 21076 4/001 70730
AAXX 12124 71713 16/// /2220 11009 21049 60001 333 11005 21024 70000
AAXX 12124 71736 46/// ///// 11084 21095 6///1 333 10004 21105 4/010 7//// 555 10100
AAXX 12124 71742 46/// /2710 11091 21127 30082 40276 50012 6///1 333 11008 21096 7////
AAXX 12124 71744 16/// /2409 11030 21074 30238 40280 55000 60001 333 11052 21090 4/001 70000 555 10010
AAXX 12124 71747 16/// /0000 11158 21172 39748 40242 53015 60001 333 21158 4/005 7////
AAXX 12124 71243 16/// /3603 11079 21091 39164 40292 51007 60001 333 11003 21086 7////
AAXX 12124 71246 16/// /1508 11109 21124 39517 40199 58020 60001 333 21109 70000
AAXX 12124 71137 16/// /0805 11054 21062 39286 40255 51009 60001 333 10001 21074 70000
AAXX 12124 71885 17/// ///// 11091 60011 7//4/ 333 11001 21093 7////
AAXX 12124 71669 16/// /2201 11160 21173 38588 40267 50004 60001 333 11037 21164 70075
AAXX 12124 71696 16/// /2106 11249 21272 30192 40231 58008 60001 333 11147 21267 70000
AAXX 12124 71758 16/// /1907 11041 21080 30244 40324 58008 60001 333 11001 21076 70000
AAXX 12124 71771 46/// /1719 10058 20030 30178 40199 58024 6///1 333 10066 20031 7////
AAXX 12124 71551 16/// /3001 11093 21098 39611 40299 51003 60001 333 11034 21094 70000
AAXX 12124 71552 46/// /0106 11097 21112 6///1 333 11043 21097 7////
AAXX 12124 71556 16/// /0304 11098 21106 39670 40297 52004 60001 333 11041 21103 4/002 70000
AAXX 12124 71564 16/// /3609 11087 21106 39898 40283 51018 60001 333 10005 21092 70000
AAXX 12124 71579 16/// /3607 11101 21116 39985 40279 52024 60001 333 11047 21101 70000
AAXX 12124 71585 16/// /2204 11101 21110 39759 40233 58007 60001 333 11064 21113 4/011 70000
AAXX 12124 71894 16/// /0401 11002 21007 30243 40252 50001 60001 333 10073 21005 70002
AAXX 12124 71110 16/// /2710 11022 21070 30246 40308 53015 60001 333 10047 21042 70012
AAXX 12124 71133 46/// /2104 11136 21160 39551 40287 50006 6///1 333 11027 21136 7////
AAXX 12124 71139 17/// /1504 11078 21088 38741 40237 51005 69931 7//4/ 333 11011 21081 70003
AAXX 12124 71141 16/// /1906 11313 21344 30027 40055 58019 60001 333 11176 21322 4/004 70000
AAXX 12124 71149 16/// /3507 11123 21137 60001 333 11042 21123 70000
AAXX 12124 71307 16/// /2103 11045 21066 30064 40322 55001 60001 333 10016 21048 4/001 70000
AAXX 12124 71311 16/// /2305 10009 21009 30277 40302 53001 60001 333 11036 21075 70000
AAXX 12124 71317 16/// /2505 10002 21035 30268 40316 56006 60001 333 11025 21103 70003
AAXX 12124 71321 16/// /3219 11164 21189 30060 40104 53017 60001 333 11165 21176 4/005 70000
AAXX 12124 71087 46/// /1503 11140 21156 39823 40031 58049 6///1 333 11054 21185 7////
AAXX 12124 71357 16/// /0211 11119 21160 30005 40012 53014 60001 333 11089 21122 4/046 70000
AAXX 12124 71361 16/// /2117 11077 21105 39838 40046 58049 60001 333 11060 21095 70000
AAXX 12124 71362 16/// /1808 11106 21121 39861 40121 58027 60001 333 11068 21108 70000
AAXX 12124 71364 16/// /3406 11116 21130 39753 49885 58017 60001 333 11088 21125 4/020 70000
AAXX 12124 71365 16/// /1406 11129 21141 39770 49984 58057 60001 333 11088 21149 4/020 70000
AAXX 12124 71372 16/// /1909 11020 21047 60001 333 10016 21024 70000
AAXX 12124 71381 46/// /2314 10013 21021 6///1 333 11005 21073 70000
AAXX 12124 71386 16/// /1705 11026 21055 30032 40244 53007 60001 333 11072 21105 70000
AAXX 12124 71393 16/// ///// 11069 21075 38949 40255 58001 60001 333 11014 21083 4/014 70031 555 10060
AAXX 12124 71719 16/// /2312 11018 21050 30258 40264 53005 60001 333 11039 21075 70000
AAXX 12124 71270 16/// /2314 10009 21040 30064 40288 53005 60001 333 10043 20007 70000
AAXX 12124 71291 16/// /3502 11040 21052 39942 40238 53014 60001 333 10025 21075 4/010 55/// 20000 70000
AAXX 12124 71444 16/// /0104 11145 21158 39503 40291 52010 60001 333 11037 21145 4/009 70000
AAXX 12124 71472 17/// /1828 10059 20043 30171 40189 56029 60021 7//4/ 333 10062 20040 70020
AAXX 12124 71510 16/// /0301 11099 21115 39555 40287 51007 60001 333 11032 21100 70000
AAXX 12124 71501 16/// /0811 11148 21163 39917 49919 56016 60001 333 11097 21160 4/052 70005
AAXX 12124 71511 16/// /0704 11101 21109 39634 40296 50001 60001 333 11053 21104 55/// 20000 70000
AAXX 12124 71512 17/// /0104 11138 21150 30225 40240 53002 60021 7//4/ 333 11122 21217 70022
AAXX 12124 71515 16/// /0604 11084 21089 39557 40280 51007 60001 333 11015 21084 55/// 20000 70000
AAXX 12124 71956 16/// /2208 10031 20018 30024 40258 52006 60001 333 10048 20019 70000
AAXX 12124 71959 16/// ///// 11005 21061 60001 333 10002 21032 70007
AAXX 12124 71970 16/// /2309 11107 21116 39678 40286 51002 60001 333 11010 21109 70000
AAXX 12124 71977 46/// /0201 11137 21137 39180 49890 56029 6///1 333 11161 21225 4/020 7////
AAXX 12124 71978 46/// /0107 11158 21168 39588 49899 56019 6///1 333 11105 21178 4/001 7////
AAXX 12124 71989 16/// /0503 11393 21434 30039 40056 58003 60001 333 11227 21394 4/051 70000
AAXX 12124 71402 46/// /2622 11078 21126 30135 40253 50009 6///1 333 11025 21087 7////
AAXX 12124 71407 16/// /2315 11245 21274 30086 40108 58009 60001 333 11212 21245 70000
AAXX 12124 71428 16/// /2007 11027 21058 30230 40236 53005 60001 333 11047 21094 70000
AAXX 12124 71442 16/// /3406 11149 21163 39976 40304 53016 60001 333 11049 21149 70000
AAXX 12124 71151 16/// /0104 11103 21111 39733 40253 53016 60001 333 11030 21106 4/001 55/// 20000 70000
AAXX 12124 71155 16/// ///// 11099 21099 60001 333 11021 21123 70000
AAXX 12124 71156 16/// /2703 11178 21192 39110 40253 58009 60001 333 11025 21188 4/015 70000
AAXX 12124 71158 16/// /3303 11196 21215 30018 40310 52014 60001 333 11065 21210 70000
AAXX 12124 71159 17/// /2708 11025 21031 30184 40258 58023 60011 7//4/ 333 11033 21075 70020
AAXX 12124 71160 16/// /2013 11074 21085 39880 40095 58027 60001 333 11076 21094 70000
AAXX 12124 71162 46/// /1716 11074 21085 39838 40047 5/046 6///1 333 7////
AAXX 12124 71164 46/// /0402 11144 21160 39806 49887 56049 6///1 333 11093 21182 7////
AAXX 12124 71165 46/// ///06 11107 21119 39711 49994 56058 6///1 333 11069 21118 7////
AAXX 12124 71166 46/// /2414 39416 58039 6///1 333 7////
AAXX 12124 71920 16/// /2520 10058 20025 30341 40347 53004 60001 333 10030 21040 70000
BBXX 41053 12121 99185 70661 46/// /2003 10246 40126 91150 333 91204
BBXX 41053 12121 99185 70661 46/// /2003 10247 40124 91140 333 91204
BBXX 41052 12121 99183 70648 46/// /0202 10263 40121 53016 91200 22200 00278 333 91202
AAXX 12124 91753 04786 70603 10253 20235 30076 40108 58008 60021 700// 333 60027 90710 91106 555 60005
AAXX 12124 91754 36/// /0104 10269 20234 30062 40103 58005 333 10308 55084 2//// 58002 555 60005
AAXX 12124 71854 11269 83507 11104 21120 39785 40277 53020 69902 771// 885// 333 11058 21109 48009 79999 90929 555 10000 20000
AAXX 12124 78962 11460 71105 10243 20222 30123 40131 60091 78082 85932 333 06299 10306 20234 58007 70089 81912 83640 87640 90915
BBXX 41052 12121 99183 70648 46/// /0102 10261 40121 91150 333 91203
BBXX 41052 12121 99183 70648 46/// /0102 10262 40120 91140 333 91203
AAXX 12121 48823 32997 00000 10157 20092 30188 40191 51005 333 00013 10200 59021 70000
AAXX 12124 71137 16/// /0805 11054 21062 39286 40255 51009 60001 333 10001 21074 70000
AAXX 12124 71868 16/// /2401 11123 21138 39851 40311 51006 60001 333 11067 21124 70000
AAXX 12121 48820 32998 00000 10162 20071 30188 40196 53011 333 01013 10203 59015 70000
AAXX 12124 71719 16/// /2312 11018 21050 30258 40264 53005 60001 333 11039 21075 70000
AAXX 12124 71807 16/// /2920 11028 21087 30292 40311 51015 60001 333 10060 21043 70000
AAXX 12124 71444 16/// /0104 11145 21158 39503 40291 52010 60001 333 11037 21145 4/009 70000
AAXX 12124 71472 17/// /1828 10059 20043 30171 40189 56029 60021 7//4/ 333 10062 20040 70020
AAXX 12124 71510 16/// /0301 11099 21115 39555 40287 51007 60001 333 11032 21100 70000
AAXX 12124 71832 16/// /2804 11058 21065 39907 40241 53026 60001 333 11021 21058 4/020 70000
AAXX 12124 71861 17/// /0805 11070 21077 39531 40279 53010 60461 7//4/ 333 11013 21076 4/001 70730
AAXX 12124 71894 16/// /0401 11002 21007 30243 40252 50001 60001 333 10073 21005 70002
BBXX 42085 12121 99179 70665 46/// /0403 10260 40124 52017 91200 22200 00283 10501 70006 333 91204
BBXX 42085 12121 99179 70665 46/// /0403 10259 40124 91150 333 91204
BBXX 42085 12121 99179 70665 46/// /0303 10259 40123 91140 333 91204
BBXX 41037 12121 99340 70775 46/// /0510 10137 40251 52004 91200 22200 00167 333 91212
AAXX 12124 41024 32960 01908 10334 20100 30094 40113 333 59004
AAXX 12124 41030 32660 22109 10348 20150 39837 40105 82200 333 58001 82835
AAXX 12124 41036 32960 00609 10216 21070 38576 48525 333 58001 555 04410 50147
AAXX 12124 41055 32960 01013 10200 21080 38378 48527 333 58002 555 04410 50165
AAXX 12124 41061 31959 20706 10210 20060 39478 40191 70600 80001 333 58012 82075
AAXX 12124 41084 32960 30610 10222 20010 38883 48531 80002 333 58009 83070 555 04410 50169
AAXX 12124 41112 32560 60204 10206 21090 37950 48523 82131 333 58001 82820 555 04410 50166
AAXX 12124 41114 32960 03205 10210 21040 37993 48530 333 58012 555 04410 50170
AAXX 12124 41128 32960 00505 10212 21010 38839 48539 333 58011 555 04410 50186
AAXX 12124 41136 32960 00306 10206 20030 39356 40178 333 58015
AAXX 12124 41140 32560 11814 10300 20220 30112 40122 81100 333 58000 81830
AAXX 12124 40356 32960 01702 10140 21050 39249 48535 333 59018 555 04410 50245
AAXX 12124 40357 32960 00000 10157 20020 39592 40246 333 59022
AAXX 12124 40360 32960 01204 10152 21020 39634 40227 333 59024
AAXX 12124 40361 32960 01207 10157 21040 39454 40239 333 59019
AAXX 12124 40362 32960 03310 10138 20000 39715 40246 333 59011
AAXX 12124 40373 32960 03210 10148 20000 39800 40227 333 59008
AAXX 12124 40375 32960 00604 10190 21030 39322 40205 333 59009
AAXX 12124 40377 32960 00311 10156 20030 39746 40239 333 59008
AAXX 12124 40394 32960 01602 10194 20020 39080 48550 333 59013 555 04410 50218
AAXX 12124 40400 32960 02912 10269 20150 30137 40165 333 59001
AAXX 12124 40401 NIL
AAXX 12124 40405 32960 00205 10172 20040 39480 40242 333 59001
AAXX 12124 40416 31956 03116 10180 21020 30164 40184 70700 333 58005
AAXX 12124 40417 31935 03221 10169 21020 30186 40201 70700 333 58001
AAXX 12124 40420 31915 03221 10182 21030 39985 40196 70700 333 59006
AAXX 12124 40430 32960 00910 10246 21060 39460 40180 333 58016
AAXX 12124 40435 32960 00810 10190 20050 39160 40150 333 58004
AAXX 12124 40437 32960 03410 10186 21030 39510 40226 333 58000
AAXX 12124 40439 32960 02610 10300 20100 30122 40132 333 58005
AAXX 12124 40550 35/67 /0109 10179 21011 40220 56013 333 0/020 55310 00431 10000 21277 30389 41019 51482 61666 55407 40888 90069 90401 91021 91123 91211 91309
AAXX 12124 40551 36/// /2820 10173 21022 333 0//// 90400 91023 91129 91223 91321
AAXX 12124 40552 47/63 /3220 10170 21024 40220 56014 700// 333 0/019 55310 90069 90401 91025 91133 91225 91321
AAXX 12124 40553 35/69 /3320 10179 21041 40215 56015 333 0/019 55310 90069 90400 91025 91129 91223 91321
AAXX 12124 40568 36/// /3119 10187 21042 333 0//// 90401 91023 91127 91219 91317
AAXX 12124 40569 NIL
AAXX 12124 40570 35/70 /3218 10154 21028 40229 56019 333 0/017 55308 90069 90400 91021 91125 91217 91315
AAXX 12124 40571 NIL
AAXX 12124 40572 NIL
AAXX 12124 40573 36/// /3317 10156 21029 333 0//// 90401 91021 91127 91221 91317
AAXX 12124 40580 46/// /3207 10182 21011 333 0/024 553// 00558 10000 21308 30254 41036 51538 61562 55407 41053 90401 91015 91121 91209 91307
AAXX 12124 40581 36/// /1304 10181 20017 333 0//// 90401 91009 91115 91205 91303
AAXX 12124 40582 31950 03418 10181 21034 40217 56017 70700 333 00021 55300 00578 10000 21420 30453 41114 51507 61874 55407 40967 90400 91023 91127 91217 91315
AAXX 12124 40583 NIL
AAXX 12124 40585 46/// /3112 10171 20035 222// 1//// 3//// 4//// 70/// 333 0//// 90401 91021 91127 91217 91313
AAXX 12124 40586 36/// /3008 10183 21032 333 0//// 90401 91019 91129 91213 91309
AAXX 12124 40587 36/// /3116 10182 21036 333 0/021 553// 00589 10000 21432 30378 41008 51478 61810 55407 41054 90400 91023 91129 91219 91315
AAXX 12124 40588 45/63 /3315 10179 20001 40214 56015 333 0/019 55300 90069 90401 91019 91123 91217 91315
AAXX 12124 40589 NIL
AAXX 12124 40590 46/// /3320 10171 21027 333 0//// 90400 91025 91131 91225 91321
AAXX 12124 40591 NIL
AAXX 12124 40592 37/45 /3314 10180 21032 40216 56015 70410 333 0/019 55310 00622 10000 21300 30256 41035 51461 61557 55407 41044 90069 90400 91023 91127 91217 91313
AAXX 12124 40593 36/// /3516 10172 20024 333 0//// 90400 91019 91123 91217 91315
AAXX 12124 40594 36/// /3409 10195 21039 333 0//// 90401 91017 91125 91211 91309
AAXX 12124 40596 46/// /3219 10170 20045 333 0//// 90400 91031 91133 91223 91319
BBXX SKWI 12124 99434 70115 43/98 82332 10147 40206 58013 22254 00185 20804 41008
BBXX SBLW 12123 99385 70267 43/98 52719 10168 40299 50017 22254 00179 2//// 4////
BBXX 44150 12121 99425 70640 46/// /2506 10052 40369 52004 22200 00098 10901 70006 333 91208
AAXX 12124 60340 32565 12804 10169 20083 40276 50002 81100 333 81820
AAXX 12124 65201 31925 70506 10320 20173 30078 40131 70522 80008 333 56000 58011 87280
BBXX 44150 12121 99425 70640 46/// /2506 10052 40369 52004 22200 00098 10901 70006 333 91208
AAXX 12120 44214 32998 32604 11193 21249 38287 40424 53007 82041 333 11108
AAXX 12120 44231 319// 00000 11192 21254 38732 40401 52019 70400 333 11190
AAXX 12120 44259 319// 20000 11209 21233 39277 40257 58013 70440 80004 333 11169
AAXX 12120 44277 319// 32709 11132 21203 37777 40353 58001 73631 82044 333 11089
AAXX 12120 44288 32999 01601 11107 21229 38112 40269 53012 333 11029
AAXX 12120 44292 319// 00000 11196 21222 38655 40304 53008 70400 333 11121
AAXX 12120 44304 329// 32305 11195 21221 38946 40266 57005 81041 333 11147
AAXX 12120 44354 319// 60000 11194 21213 39078 40283 57013 77822 86070 333 11092
AAXX 12120 44373 32999 41802 11128 21168 38494 40263 56001 82046 333 11026
AAXX 12121 40706 11450 71002 10008 21062 38730 40322 55004 60001 70522 84770 333 81713 83640 87362
AAXX 12121 40718 12565 60203 10104 20074 30289 40260 56017 60001 82551 222// 00104 20102 333 82620 83360
AAXX 12121 40732 12980 40902 10122 20067 30277 40252 55003 60001 81041 333 81362 84070
AAXX 12121 40745 12560 10502 10065 21016 39119 40291 56007 60001 81100 333
AAXX 12121 40754 12960 41604 10066 21036 38893 40271 55006 60001 80004 333 84070
AAXX 12121 40766 12960 01402 10120 21086 38738 40244 56012 60001 333
AAXX 12121 40800 12960 01003 10102 21051 38497 40240 58012 60001 333
AAXX 12121 40811 11940 02703 10164 20050 30177 40204 57016 60001 70600 333
AAXX 12121 40841 12960 20203 10124 21072 38291 40226 57018 60001 80002 333 82070
AAXX 12121 40848 12962 11202 10158 21040 38548 40196 55009 60001 80001 333 81070
AAXX 12121 40856 12962 30305 10140 21147 38677 40229 56005 60001 80003 333 83070
AAXX 12121 40875 12960 30506 10284 21109 30141 40152 57014 60001 80002 333 83070
AAXX 12121 40706 11450 71002 10008 21062 38730 40322 55004 60001 70522 84770 333 81713 83640 87362
AAXX 12121 40718 12565 60203 10104 20074 30289 40260 56017 60001 82551 222// 00104 20102 333 82620 83360
AAXX 12121 40732 12980 40902 10122 20067 30277 40252 55003 60001 81041 333 81362 84070
AAXX 12121 40745 12560 10502 10065 21016 39119 40291 56007 60001 81100 333
AAXX 12121 40754 12960 41604 10066 21036 38893 40271 55006 60001 80004 333 84070
AAXX 12121 40766 12960 01402 10120 21086 38738 40244 56012 60001 333
AAXX 12121 40800 12960 01003 10102 21051 38497 40240 58012 60001 333
AAXX 12121 40811 11940 02703 10164 20050 30177 40204 57016 60001 70600 333
AAXX 12121 40841 12960 20203 10124 21072 38291 40226 57018 60001 80002 333 82070
AAXX 12121 40848 12962 11202 10158 21040 38548 40196 55009 60001 80001 333 81070
AAXX 12121 40856 12962 30305 10140 21147 38677 40229 56005 60001 80003 333 83070
AAXX 12121 40875 12960 30506 10284 21109 30141 40152 57014 60001 80002 333 83070
AAXX 12124 65352 31903 70804 10313 20061 3//// 4//// 70544 80002 333 5//// 87076
AAXX 12124 65361 31910 70806 10300 20044 3//// 4//// 70522 80002 333 5//// 87076
AAXX 12124 65376 31920 73608 10285 20097 39658 40116 70522 80002 333 58010 87076
AAXX 12124 65387 31925 70406 10315 20156 30080 40098 70522 80002 333 58007 87073
AAXX 12121 50136 32970 00000 11297 21334 39687 40294 52008
AAXX 12121 50745 32965 02003 11089 21177 30077 40274 57003
AAXX 12121 50774 32960 00000 11162 21211 39955 40290 52013
AAXX 12121 50788 32970 02503 11185 21233 30162 40255 52015
AAXX 12121 51133 NIL
AAXX 12121 51431 NIL
AAXX 12121 51747 NIL
AAXX 12121 52203 NIL
AAXX 12121 52418 NIL
AAXX 12121 52681 NIL
AAXX 12121 53564 NIL
AAXX 12121 53614 NIL
AAXX 12121 53646 32970 01401 11049 21132 38903 40324 52002 333 05400
AAXX 12121 53798 NIL
AAXX 12121 53845 32965 00701 11015 21085 39131 40310 52011 333 05502
AAXX 12121 53959 NIL
AAXX 12121 54094 31958 02502 11115 21177 39979 40300 52013 70400
AAXX 12121 54102 32980 41803 11107 21155 39045 40334 57014 80002
AAXX 12121 54161 32962 02202 11103 21164 30002 40316 52003
AAXX 12121 54292 NIL
AAXX 12121 54374 32963 03603 11103 21162 39837 40326 52014
AAXX 12121 54423 NIL
AAXX 12121 54618 NIL
AAXX 12121 54843 NIL
AAXX 12121 54909 32966 60701 10021 21036 30227 40293 52011 80002
AAXX 12121 56029 NIL
AAXX 12121 57127 NIL
AAXX 12121 57131 32965 00202 10005 21041 39785 40303 52013
AAXX 12124 04211 47/46 /3609 11106 21114 39785 49947 52005 77177
AAXX 12124 04220 05984 13406 11050 21114 39837 49889 52002 6///1 333 55300 20004 6///7 81/75
AAXX 12124 04221 45/84 /1206 11106 21208 39849 49887 52004
AAXX 12124 04231 12989 10508 11181 21217 39833 49910 52011 6///1 80001 333 81071
AAXX 12124 04234 45984 71004 11101 21148 39877 49887 52011 333 86/67 87/73
AAXX 12124 04241 47922 51012 11073 21149 39831 49871 52012 77777 333 85/69
AAXX 12124 04250 07584 70706 11067 21123 39755 49861 52016 69901 70087 333 55300 20000 6///7 83/27 87/39
AAXX 12124 04254 45583 80907 11073 21142 39760 49874 52016 333 88/27
AAXX 12124 04260 45983 11404 11067 21162 39818 49862 52014 333 81/61
AAXX 12124 04270 45984 52303 11154 21232 39834 49874 52004 333 85/61
AAXX 12124 04272 05984 5//// 11098 21166 39792 49866 52003 6///1 333 6///7 81/65 85/67
AAXX 12124 04312 46/// /2302 11249 21283 39988 40030 57013
AAXX 12124 04320 45984 13108 11223 21297 30015 40031 52006 333 55300 81/72
AAXX 12124 04339 47/84 ///// 11081 21092 39935 40027 52002 70087 333 55300 20000
AAXX 12124 04360 06/// /0514 11012 21020 39757 49825 52019 60031 333 55300 20000 60027 91033 91136
AAXX 12124 04361 46/// 90740 11013 21028 39771 49822 52021 333 89/07 91165 91054
AAXX 12124 04390 05875 82820 11032 21190 39713 49806 52001 60021 333 69917 88/58
AAXX 12121 57265 32962 60702 10065 21007 30159 40274 52010 86030
AAXX 12121 53614 31940 72501 11049 21095 38953 40318 52003 71000 80002 333 05601
AAXX 12121 54843 31930 00000 11002 21016 30276 40305 52013 71000
AAXX 12121 57127 32961 02001 10030 21008 39643 40274 52014
AAXX 12121 57494 32968 01101 10021 20006 30241 40272 52005
AAXX 12121 56778 32970 02502 10062 20035 38115 52011 333 05200
AAXX 12121 58752 31958 50702 10106 20036 30223 40270 52014 70500 85030
AAXX 12121 59134 32764 50703 10153 20088 30050 40219 52012 82502
AAXX 12121 59287 32968 13603 10109 20057 30122 40210 52011 80002
AAXX 12121 58221 32962 00000 10025 21036 30268 40298 52012
AAXX 12121 58238 31957 00401 10022 21033 30248 40295 52010 70500
AAXX 12121 58251 31957 00000 10013 21018 30290 40295 52008 71000
AAXX 12121 58606 32962 00901 10060 21036 30209 40269 52008
AAXX 12121 59431 32965 33601 10108 20062 30065 40216 52008 83030
AAXX 12121 59758 32975 70702 10153 20083 30120 40198 52015 80002
AAXX 12121 51133 32980 61401 11042 21110 39594 40276 52018 80002 333 05401
AAXX 12121 52418 32980 02202 11056 21117 38925 40329 54000 333 05752
AAXX 12121 52681 32980 21101 11028 21161 38666 40313 52004 80002 333 05602
AAXX 12121 51431 32770 72701 11029 21067 39456 40290 52024 81502 333 05100
AAXX 12121 51747 32965 60000 11085 21157 38967 40353 57002 80002 333 05551
AAXX 12121 52203 32980 70000 11063 21126 39377 40307 52001 80002 333 05501
AAXX 12121 53798 32960 73401 10021 21015 30200 40300 52008 80002
AAXX 12121 54423 32980 00701 11048 21112 39773 40315 52003
AAXX 12121 54618 32962 40901 10012 21019 30280 40298 52006 80002
AAXX 12121 56029 32980 02701 11046 21231 36447 52011 333 00052
AAXX 12121 53588 32480 12205 11103 21129 37803 54000 81100
AAXX 12121 53772 31940 00000 11022 21066 39350 40320 52006 71000
AAXX 12121 54511 32975 01602 10024 21039 30257 40299 52006
AAXX 12121 52533 32980 01802 11058 21125 38551 40327 52006 333 05601
AAXX 12121 52652 32980 01602 11075 21145 38566 40349 52005 333 05501
AAXX 12121 52983 31956 72502 11061 21116 38137 52024 70500 80002 333 05403
AAXX 12121 53915 32980 02902 11028 21079 38706 40320 52021 333 05401
AAXX 12121 56080 32980 00202 11033 21173 37133 52030 333 05302
AAXX 12121 56096 32975 20401 10047 21038 38963 40237 52017 80002 333 05600
AAXX 12121 54342 32960 01101 11101 21123 30250 40316 54000
AAXX 12121 53564 32975 41601 11030 21101 39239 40315 52004 80002 333 05504
AAXX 12121 53959 32960 22202 11001 21071 39832 40296 52006 80002
AAXX 12121 54292 32670 42704 11072 21156 39965 40300 52021 84500
AAXX 12121 51076 32980 70201 11120 21171 39366 40317 54000 80002 333 05501
AAXX 12121 51243 32970 62501 11116 21133 39721 40319 52005 80002 333 05401
AAXX 12121 51463 31756 70901 11111 21124 39140 40313 52004 71000 85502 333 05453
AAXX 12121 51573 32975 22501 11037 21112 30262 40308 52001 80002 333 05600
AAXX 12121 51709 32865 72501 11064 21104 38763 40336 52005 86502 333 05451
AAXX 12121 52866 32970 02501 11060 21138 37691 52013 333 05400
AAXX 12121 54401 32965 23602 11028 21128 39399 40304 52004 80002
AAXX 12121 58362 32962 00402 10057 21012 30285 40294 52010
AAXX 12120 44203 329// 00000 11248 21266 38418 40464 52011 333 11197
AAXX 12120 44207 329// 01804 11162 21222 38305 40317 53022 333 11160
AAXX 12120 44212 32999 31806 11163 21189 39221 40435 53019 80004 333 11163
AAXX 12120 44213 12699 70000 11277 21303 38847 40503 52010 69902 86530 333 11171 555 93100
AAXX 12120 44215 32998 20000 11281 21304 38438 40486 52002 82040 333 11197
AAXX 12120 44218 129// 02201 11190 21223 38646 40419 53014 69912 333 11120 555 93100
AAXX 12120 44225 129// 00000 11349 21359 38299 40591 52015 69902 333 11264
AAXX 12120 44230 329// 00104 11207 21245 38791 40392 52020 333 11153
AAXX 12120 44232 329// 20000 11265 21291 39118 40378 52023 82030 333 11197
AAXX 12120 44237 32999 00000 11193 21234 38464 40321 52017 333 11135
AAXX 12120 44239 329// 03202 11198 21231 38783 40315 52029 333 11154
AAXX 12120 44241 329// 83203 11174 21193 39248 40291 52018 8802/ 333 11145
AAXX 12120 44256 32999 20000 11241 21260 39331 40269 56001 80006 333 11153
AAXX 12120 44265 329// 00000 11199 21232 38864 40375 53007 333 11112
AAXX 12120 44272 329// 00000 11282 21320 38226 40450 52012 333 11188
AAXX 12120 44275 32898 30000 11179 21212 37686 40327 53004 81036 333 11115
AAXX 12120 44282 31999 63404 11083 21232 38261 40239 53025 70331 80008 333 11028 91114
AAXX 12120 44284 328// 40502 11279 21309 37812 40499 56006 81044 333 11210
AAXX 12120 44285 32999 01702 11241 21267 38283 40385 52016 333 11129
AAXX 12120 44287 32899 10204 11198 21244 38078 40378 53006 81040 333 11101
AAXX 12120 44294 329// 83301 11218 21240 38507 40331 57002 8802/ 333 11177
AAXX 12120 44298 318// 61404 11183 21183 38663 40259 57007 74642 86070 333 11157
AAXX 12120 44302 329// 02704 11203 21226 39072 40267 56008 333 11149
AAXX 12120 44305 32999 02704 11174 21197 39025 40257 57010 86050 333 11134
AAXX 12120 44313 32999 00000 11179 21220 39403 40301 57011 333 11123
AAXX 12120 44314 32998 32302 11132 2//// 39110 40250 57018 83040 333 11084
AAXX 12120 44317 32998 60000 11120 21147 38922 40249 57016 80008 333 11050
AAXX 12120 44336 329// 00503 11181 21200 38636 40284 53004 333 11119
AAXX 12120 44341 329// 62501 11184 21203 38551 40307 56001 82034 333 11141
AAXX 12120 44347 32999 22706 11118 21170 38668 40249 54000 81041 333 11051
AAXX 12120 44352 32999 60000 11172 21198 38896 40283 58009 86030 333 11129
AAXX 12120 44358 NIL
AAXX 12120 44210 32999 20000 11213 21225 38556 53005 82070 333 11156
AAXX 12120 44216 32599 52903 11266 21283 39058 40465 51003 82540 333 11186
AAXX 12120 44217 32998 10000 11183 21234 37857 40411 56003 80004 333 11106
AAXX 12120 44219 329// 20000 11236 21255 38660 40454 53012 80004 333 11150
AAXX 12120 44221 129// 70000 11254 21272 38636 40474 52009 69902 87070 333 11186
AAXX 12120 44224 319// 20000 11366 21387 38060 40595 53007 77840 80004 333 11265
AAXX 12120 44229 32999 02704 11228 21260 37902 40402 53007 333 11192
AAXX 12120 44242 119// 80000 11191 21209 39333 40322 52025 69902 77172 8802/ 333 11174
AAXX 12120 44243 325// 80000 11205 21227 39428 40332 52021 885// 333 11200
AAXX 12120 44254 329// 20000 11207 21225 38994 40256 51001 82040 333 11128
AAXX 12120 44257 329// 00000 11258 21304 38935 40318 54000 333 11166
AAXX 12120 44263 32998 00000 11246 21292 38076 40510 52010 333 11175
AAXX 12120 44266 329// 23603 11164 21233 37752 40336 53008 80001 333 11120
AAXX 12120 44286 329// 30204 11156 21192 38602 40280 53014 80004 333 11105
AAXX 12120 44291 319// 00000 11275 21303 38693 40374 52010 70400 333 11105
AAXX 12120 44325 329// 11801 11205 21238 38849 40350 57012 80004 333 11135
AAXX 12120 44329 NIL
AAXX 12120 44338 32899 20000 11120 21182 38426 40251 57003 81034 333 11040
AAXX 12120 44348 329// 40000 11150 21163 38649 40257 58003 82044 333 11070
AAXX 12120 44374 32999 22001 11117 21200 38233 40313 51001 80004 333 11053
AAXX 12120 44385 32999 42305 11076 21160 38890 40243 58005 84030 333 11057
AAXX 12120 44386 329// 50000 11107 21151 39029 40256 57017 82044 333 11061
AAXX 12124 40100 12958 70104 10172 20070 30208 40240 55014 60001 80004 912// 333 87070 92427
AAXX 12124 40101 12958 60000 10128 21003 39149 48551 56017 60001 80004 912// 333 86070
AAXX 12124 40103 32965 30204 10164 20053 40047 57017 80002 333 83070
AAXX 12124 40102 NIL
AAXX 12124 47401 11/20 83010 11055 21094 30092 40107 53023 60052 78582 883// 333 11013
AAXX 12124 47412 11/40 83012 11016 21079 30114 40147 51007 60022 78582 882// 333 11001
AAXX 12124 47420 15/70 /2514 11015 21074 30068 40102 51007 60002 333 10010
AAXX 12124 47426 17/70 /3114 11007 21071 30095 40144 50009 60012 72476 333 10030
AAXX 12124 47582 12/60 73111 10039 21058 30182 40209 53012 60112 872// 333 10050
AAXX 12124 47590 11/80 83606 10055 21003 30141 40195 51007 69902 72582 8727/ 333 10099
AAXX 12124 47600 17/70 /0113 10088 20054 30217 40225 53014 69902 76160 333 10121
AAXX 12124 47648 12/70 33004 10093 20053 30146 40180 51008 60002 81102 333 10156
AAXX 12124 47662 12/80 43206 10100 20050 30137 40182 53008 60002 81130 333 10150
AAXX 12124 47678 15/70 /2712 10131 20045 30014 40201 50003 60002 333 10156
AAXX 12124 47740 15/66 /3104 10078 20046 30201 40236 50007 60002 333 10123
AAXX 12124 47778 15/70 /3607 10106 20034 30147 40231 51008 69902 333 10147
AAXX 12124 47807 12/60 81102 10096 20044 30239 40257 51006 69902 882// 333 10112
AAXX 12124 47827 12/70 13407 10099 20032 30208 40247 52009 60002 81500 333 10154
AAXX 12124 47843 15/73 /3304 10113 20034 30227 40260 52007 60002 333 10117
AAXX 12124 47893 12970 02803 10089 20047 30236 40242 51012 60002 333 10155
AAXX 12124 47909 11/60 71602 10157 20128 30219 40229 53007 69902 70262 8552/ 333 10183
AAXX 12124 47918 11/60 80411 10199 20182 30173 40190 51007 60012 76062 8582/ 333 10225
AAXX 12124 47936 11/60 80312 10176 20158 30153 40212 51017 60042 76162 8227/ 333 10193
AAXX 12124 47945 11/60 80513 10196 20183 30171 40195 51007 60062 72586 8627/ 333 10215
AAXX 12124 47971 11/56 83402 10194 20184 30186 40196 52006 60022 78082 882// 333 10203
AAXX 12124 47991 16/// /0506 10255 20210 30181 40191 51005 60002 333 10278
AAXX 12124 47407 11/40 82814 11040 21079 39951 40129 53006 60022 78582 883// 333 11015
AAXX 12124 47409 11/70 12505 11034 21107 30045 40100 52004 69902 70281 81200 333 11004
AAXX 12124 47418 12/80 12721 11009 21077 30069 40119 51012 60002 81200 333 10020
AAXX 12124 47421 17/16 /3114 11016 21058 30124 40169 53009 60032 77170 333 10013
AAXX 12124 47430 11/65 73207 11014 21052 30117 40173 51005 60012 78582 873// 333 10018
AAXX 12124 47570 17/36 /0204 10042 20036 39940 40204 50002 60062 76166 333 10045
AAXX 12124 47575 11/65 72607 10012 21068 30187 40192 51012 60072 70282 85230 333 10031
AAXX 12124 47584 11/65 62709 10020 21054 30003 40197 53015 69902 70380 86300 333 10053
AAXX 12124 47604 11/65 83311 10075 20034 30205 40214 51011 60032 78082 882// 333 10101
AAXX 12124 47605 11/65 81807 10087 20058 30183 40224 50005 60152 78082 882// 333 10116
AAXX 12124 47610 11/75 22704 10043 20020 39702 40213 51011 69902 72581 82200 333 10106
AAXX 12124 47624 12/80 13206 10087 20011 30050 40190 51011 60002 81531 333 10148
AAXX 12124 47629 12965 23302 10074 20025 30145 40184 51011 60002 80001 333 10142
AAXX 12124 47636 12/65 23205 10086 20042 30153 40222 51007 60002 82530 333 10136
AAXX 12124 47651 12/80 22606 10092 20025 30204 40227 51007 60002 81130 333 10136
AAXX 12124 47655 15/70 /2715 10104 20041 30140 40197 50005 60002 333 10139
AAXX 12124 47675 15/68 /1205 10076 20059 30087 40180 51003 60002 333 10153
AAXX 12124 47741 11/60 70000 10088 20066 30212 40240 51006 69902 72582 872// 333 10116
AAXX 12124 47746 11/65 81106 10085 20051 30219 40239 51008 69902 78082 8727/ 333 10127
AAXX 12124 47750 11/75 21001 10066 20048 30208 40236 51006 69902 70182 82200 333 10116
AAXX 12124 47765 12/65 40206 10081 20040 30183 40250 53008 60002 84800 333 10127
AAXX 12124 47772 12970 53102 10112 20023 30134 40235 51007 60002 85030 333 10139
AAXX 12124 47800 15/64 /3301 10067 20031 30255 40260 51005 60002 333 10112
AAXX 12124 47815 12/70 62406 10089 20020 30240 40257 51011 60002 86400 333 10137
AAXX 12124 47817 12/70 70501 10099 20041 30211 40255 52006 60002 8253/ 333 10126
AAXX 12124 47830 12970 12907 10087 20058 30226 40245 51010 60002 81030 333 10146
AAXX 12124 47887 12/65 71005 10089 20013 30208 40250 51008 60002 878// 333 10137
AAXX 12124 47891 12/70 12404 10077 20024 30227 40244 52008 60002 81100 333 10133
AAXX 12124 47895 12975 12910 10103 20017 30231 40239 51004 60002 81030 333 10145
AAXX 12124 47927 11/40 80514 10197 20189 30149 40198 53009 60062 76162 8682/ 333 10216
AAXX 12121 45032 36/// /0801 10115 20061 30187 40204 52002
AAXX 12121 45035 36/// /0302 10155 20031 30160 40202 52001
AAXX 12121 45039 36/// /3201 10146 20047 30186 40202 52002
AAXX 12121 45044 36/// /0006 10150 20040 30102 40197 52001
AAXX 12121 45032 36/// /0801 10115 20061 30187 40204 52002
AAXX 12121 45035 36/// /0302 10155 20031 30160 40202 52001
AAXX 12121 45039 36/// /3201 10146 20047 30186 40202 52002
AAXX 12121 45044 36/// /0006 10150 20040 30102 40197 52001
AAXX 12124 88878 46/// /2616 10132 20088 40075 52013
AAXX 12124 88897 46/// /3017 10118 20075 40044 52008
AAXX 12121 30372 32999 20000 11301 21326 39335 40330 52013 82042 333 11208
AAXX 12121 30433 32999 01601 11158 21200 39638 40267 52007 333 11113
AAXX 12121 30554 329// 20000 11310 21328 39129 40355 52007 80001 333 11200
AAXX 12121 30635 328// 81202 11126 21146 39661 40259 53016 8807/ 333 11108
AAXX 12121 30673 32999 00401 11304 21310 39450 40312 52010 333 11200
AAXX 12121 30692 31997 00000 11303 21321 39722 40277 53/// 70400 333 11153
AAXX 12121 30758 11949 80000 11178 21204 39396 40272 53006 69942 77172 8807/ 333 11166
AAXX 12121 30802 31698 60902 11147 21153 38711 48488 52026 71511 84301 333 11069
AAXX 12121 30823 11699 62001 11162 21181 39607 40283 52018 69922 70182 82932 333 11134
AAXX 12121 30879 32999 00000 11237 21256 39457 40287 58003 333 11171
AAXX 12121 30935 31997 80000 11154 21181 39293 40282 53017 71511 8802/ 333 11154
AAXX 12121 30949 32999 60000 11200 21219 39088 40259 53001 86030 333 11157
AAXX 12121 30965 329// 71103 11180 21199 39387 40268 57006 83042 333 11169
AAXX 12121 31168 32999 80504 11203 21292 30054 40066 53004 80007 333 11188
AAXX 12121 31300 31906 00000 11250 21262 39911 40229 52002 74641 333 11172
AAXX 12121 31329 32999 60000 11319 21343 39501 40254 52009 80002 333 11214
AAXX 12121 31369 11998 52707 11203 21236 39990 40081 52006 69940 70173 80002 333 11181 91110
AAXX 12121 31416 32999 00901 11292 21303 30033 40132 52004 333 11206
AAXX 12121 31484 32999 02503 11198 21265 39810 40171 52014 333 11155
AAXX 12121 31512 329// 00000 11205 21254 30070 40250 54000 333 11124
AAXX 12121 31538 32998 02302 11219 21260 39777 40248 52020 333 11182
AAXX 12121 31707 32998 20000 11176 21255 30159 40259 52015 80001 333 11119
AAXX 12121 31735 32997 02507 11181 21257 30099 40194 52012 333 11148 91112
AAXX 12121 31770 32568 83204 11145 21238 30097 40129 52022 82531 333 11100
BBXX C6XP7 12123 99198 70701 41698 42605 1//// 2//// 40130 54/// 7//// 82295 22234 00270 2//// 3//// 4//// 5//// 6//// 8//// ICE /////
BBXX 3FPR9 12124 99207 71547 41497 80626 10220 20220 40130 54000 71682 8534/ 22214 04240 20308 306// 40606 5//// 6//// 80220 ICE /////
BBXX C6YA5 12123 99548 50695 41497 83018 10110 2//// 49980 54000 70322 8867/ 22224 00090 2//// 399// 4//// 5//// 6//// 8//// ICE /////
BBXX PBAD 12121 99125 70874 41697 40113 10260 20199 40105 53004 70211 84500 22224 00280 20401 329// 40801 5//// 80220
BBXX C6VG7 12124 99258 70779 415// 40725 10230 2//// 40180 5/010 7//11 84/6/ 22232 0//// 20502 3//// 40502 50502 6//// 8//// ICE /////
BBXX PCHM 12124 99405 31767 41597 30328 10160 20143 40179 55010 70222 82576 22213 00140 20204 304// 40204 80150
BBXX V7NV4 12124 99162 70992 41497 62913 10260 20232 40125 51008 703// 83283 22273 00240 20200 312// 40401 5//// 6//// 80240 ICE /////
BBXX WCZ5238 12124 99029 51446 41598 40913 10260 20217 40112 57020 7//11 84284 22273 00256 20404 310// 40605 5//// 6//// 80230 ICE /////
BBXX A8TG2 12123 99236 71125 41/// /2208 10210 20122 40110 50000 7//22 8//// 22234 00170 21202 33030 41804 51802 80160
BBXX VRHO2 12124 99526 71736 41898 42524 10040 21008 40030 56010 70171 84/78 22253 00040 20701 32727 40902 51203 6//// 80020 ICE /////
BBXX C6XC2 12124 99063 11267 41897 80412 10270 20243 40080 54/// 76266 886// 22243 00300 2//// 3//// 4//// 5//// 6//// 80250 ICE /////
BBXX HPYE 12123 99212 70695 41697 40521 10260 2023/ 40090 53010 7//11 84285 2223/ 00270 20404 305// 4//// 5//// 6//// 80240 ICE /////
BBXX WDF7020 12124 99452 70832 41/98 72022 1//// 2//// 40268 53/// 703// 8//// 222// 0//// 2//// 3//// 4//// 5//// 6//// 8//// ICE /////
BBXX WAZV 12124 99525 71365 41597 82520 10080 2004/ 40180 51020 7//22 886// 22233 00060 20404 325// 41411 5//// 6//// 80060 ICE /////
BBXX HPHV 12124 99286 70943 412// 50914 10150 20116 40240 54000 7//// 8/1// 222// 0//// 20502 30909 40502 50502 6//// 80130 ICE /////
AAXX 12124 NIL
AAXX 12124 83384 NIL
AAXX 12124 83386 NIL
AAXX 12124 83388 NIL
AAXX 12124 83393 NIL
AAXX 12124 83442 NIL
AAXX 12124 83479 NIL
AAXX 12124 83483 NIL
AAXX 12124 83531 NIL
AAXX 12124 83538 NIL
AAXX 12124 83574 NIL
AAXX 12124 83582 NIL
AAXX 12124 83595 NIL
AAXX 12124 83687 NIL
AAXX 12124 83692 NIL
AAXX 12124 83695 32698 20000 10248 20183 39998 40135 54000 81130 333 20197
AAXX 12124 83718 31596 60000 10210 20170 39562 40131 52018 70544 86800 333 20181
AAXX 12124 NIL
AAXX 12124 87022 12560 53602 10268 20224 39563 40050 60024 81206 333 10270 20230 56000 81830
AAXX 12124 87046 32962 52303 10250 20197 39086 48485 52016 85070 333 10262 20205 56050 85360
AAXX 12124 87047 11462 72305 10218 20180 38784 48504 53017 60034 71021 82270
AAXX 12124 87097 32970 03602 10266 20220 39796 40101 52015 333 10266 20201
AAXX 12124 87121 01450 81809 10186 20176 39652 40158 52083 60064 76095 885// 333 10280 20186 56499 60061 82715 83635 85635
AAXX 12124 87129 01360 81804 10192 20181 39928 40156 52035 60084 72196 887// 333 10314 20191 56499 60081 83708 86620 90105
AAXX 12124 87155 31962 71801 10253 20205 30048 40108 52033 71011 84076 333 10253 20166 56076 84360 86270
AAXX 12124 87162 32970 51405 10294 20187 30026 40094 52023 80006 333 10294 20186 56007 85270
AAXX 12124 87166 32960 71604 10258 20190 30034 40105 52033 81036 333 10258 20190 56066 81360 87270
AAXX 12124 87178 31965 30705 10284 20189 39953 40094 52023 70500 80001 333 10295 20220 56006 83070
AAXX 12124 87217 02770 81404 10225 20181 39654 40127 5//// 60011 885// 333 10366 20212 56099 88656
AAXX 12124 87222 NIL
AAXX 12124 87257 32670 71810 10239 20157 30046 40147 52024 83570 333 10266 20200 56550 83640 86360
AAXX 12124 87270 32965 81808 10233 20162 30054 40116 51023 8807/ 333 10263 20185 30016 56069 88360
AAXX 12124 87289 32962 62309 10272 20178 30024 40104 52019 80006 333 10276 20187 56006 86270
AAXX 12124 87311 32965 61616 10219 20052 39482 40145 52016 86070 333 10292 20198 56070 86360
AAXX 12124 87320 02670 70000 10198 20169 39633 40150 52019 60084 81570 333 10322 20175 56410 60081 81635 86360
AAXX 12124 87328 01680 71804 10171 20153 39509 40154 52020 60024 70262 87800 333 10243 20160 31000 56000 60021 84840 83645 95060
AAXX 12124 NIL
AAXX 12124 82022 32970 00514 10274 20221 30015 40111 333 20242
AAXX 12124 82193 32470 40509 10286 20238 30093 40111 84100 333 20241 59002
AAXX 12124 82281 32570 30514 10305 20182 30049 40111 83200 333 20264 58004
AAXX 12124 82332 32470 60000 10282 20239 30016 40108 84201 333 20257 58010
AAXX 12124 82398 32470 40910 10283 20221 30090 40119 84100 333 20245 58002
AAXX 12124 82400 32570 41007 10284 20233 30061 40125 84100 333 20254 59008
AAXX 12124 82579 32570 30602 10299 20230 30036 40112 83100 333 20252 59003
AAXX 12124 82917 32970 73504 10283 20258 39880 40099 87030 333 20257 59002
AAXX 12124 82965 21470 80404 10239 20223 39788 40117 7212/ 8127/ 333 20234 58016 60064
AAXX 12124 82993 32570 50410 10287 20216 39990 40125 85100 333 20232 58023
AAXX 12124 83208 21220 80305 10221 20219 39428 48540 7602/ 8652/ 333 20213 58010 60014
AAXX 12124 83349 21460 83103 10248 20237 30131 40137 71062 8422/ 333 20235 59027 600104
AAXX 12124 83362 22570 53507 10276 20209 39879 40092 82101 333 20243 59012 69984
AAXX 12124 83378 22470 53006 10232 20186 38953 48510 83504 333 20185 58016 60094
AAXX 12124 83460 21458 70304 10239 20218 30073 40130 71062 85830 333 20218 58021 60284
AAXX 12124 83497 NIL
AAXX 12124 83566 32570 51402 10213 20162 39200 48520 85200 333 20158 58016
AAXX 12124 83599 NIL
AAXX 12124 83612 32970 60414 10295 20156 39468 48520 51015 82234 333 20236
AAXX 12124 83649 21350 73203 10241 20206 30131 40136 51013 76162 855 30 333 20213 60034
AAXX 12124 83650 NIL
AAXX 12124 83780 31960 00504 10210 20156 39222 48510 51010 70500 333 20158
AAXX 12124 83827 32970 00603 10277 20220 39822 40095 51013 333 20187
AAXX 12124 83840 32870 13407 10222 20149 39107 48510 51013 81030 333 20163
AAXX 12124 83899 32570 23212 10253 20200 30096 40102 56007 82500 333 20218
AAXX 12124 83925 NIL
AAXX 12124 83970 NIL
AAXX 12124 83971 32970 03006 10243 20199 30089 40093 50006 333 20174
AAXX 12123 87007 12580 43202 10107 20037 36750 47156 51009 60034 81505 333 10109 20087 56800 81630 83280
AAXX 12123 87148 32970 72308 10272 20186 30000 40106 52043 83076 333 10280 20194 56000 83360 87270
AAXX 12124 82143 NIL
AAXX 12124 82599 32570 60810 10282 20226 30059 40119 86200 333 20235 59002
AAXX 12124 82824 21970 53604 10270 20246 30002 40103 70262 85030 333 20251 59004 60044
AAXX 12124 82899 32570 40415 10294 20213 30114 40126 84200 333 20243 58012
AAXX 12124 83117 NIL
AAXX 12124 83248 21465 52004 10263 20230 30114 40136 71096 83130 333 20241 59034 60064
AAXX 12124 83746 31465 10106 10245 20185 40121 51006 70511 81500 333 20202
AAXX 12124 83437 NIL
AAXX 12124 83550 21497 8//// 10228 20220 30083 40113 70226 885// 333 20213 58028 60074
AAXX 12124 83552 NIL
AAXX 12124 83565 NIL
AAXX 12124 83579 NIL
AAXX 12124 83592 NIL
AAXX 12124 83623 NIL
AAXX 12124 83630 NIL
AAXX 12124 83676 NIL
AAXX 12124 83698 32798 80000 10260 20199 30122 40136 51022 885// 333 20197
AAXX 12124 83702 NIL
AAXX 12124 83704 NIL
AAXX 12124 83716 NIL
AAXX 12124 83726 NIL
AAXX 12124 83738 32698 10000 10232 20165 39618 40113 52006 81100 333 20160
AAXX 12124 NIL
AAXX 12124 NIL
AAXX 12124 NIL
AAXX 12124 70133 32766 60000 11061 21078 39865 49999 53007 91153 333 21072 4/119 70005 555 91212
AAXX 12124 70174 11420 83304 11061 21072 39596 49838 55006 60021 771// 91153 333 21072 4/071 70056 555 91212
AAXX 12124 70200 11348 80808 11033 21039 39863 49868 51018 69901 771// 91153 333 21039 96010 555 91212
AAXX 12124 70219 12766 82312 11039 21061 39888 49944 51043 69901 91153 333 21039 4/003 70005 555 91212
AAXX 12124 70231 12966 82507 11028 21056 39747 49874 53052 60011 91153 333 21028 4/097 70079 555 91212
AAXX 12124 70261 32666 82007 11028 21083 39634 49804 53021 91153 333 21039 70008 555 91212
AAXX 12124 70267 15966 61010 11061 21100 39338 49814 53007 69901 91153 333 21067 70003 555 91212
AAXX 12124 70271 35666 81718 10017 21028 39241 49807 53025 91153 333 21039 70003 91030 555 91212
AAXX 12124 70273 11012 82603 10006 21006 39764 49821 51050 60041 771// 91153 333 21005 4/041 70152 96010 555 91212
AAXX 12124 70316 12966 01414 10006 21033 30006 40040 51016 69901 91153 333 70005 91024 555 91212
AAXX 12124 70326 32666 22513 11006 21022 39954 49966 51046 91154 333 21011 4/025 70137 555 91212
AAXX 12124 70340 15966 02510 11028 21056 39887 49948 52051 69901 91153 333 21028 70086 555 91212
AAXX 12124 70350 11548 82814 10017 21017 39922 49963 51063 69901 771// 91153 333 20017 70295 91024 555 91212
AAXX 12124 70361 12662 82117 10050 20006 39985 49997 51005 60051 91153 333 20006 4/038 70193 91029 555 91212
AAXX 12124 70381 11456 81220 10011 20006 30071 40079 56023 60101 773// 91153 333 20011 70117 91028 96073 96010 555 91212
AAXX 12124 70414 35566 63213 10000 21044 39809 49846 53001 91156 333 20000 555 91212
AAXX 12124 NIL
AAXX 12124 78526 12566 20000 10244 20211 30116 40137 53018 69931 91156 333 10283 20228 70003 555 91212
AAXX 12124 78543 32966 00000 10250 20222 30055 40134 53017 91153 333 10289 20217 555 91212
AAXX 12124 NIL
BBXX 46111 12121 99481 71227 46/// /3007 10055 40238 54000 91200 22200 00059
BBXX 46112 12121 99481 71227 46/// /3006 10056 40238 54000 91200
AAXX 12121 28676 429// 80402 11188 21210 30190 40328 53007 8807/ 555 1/117
AAXX 12121 28766 419// 00901 11220 21240 30108 40318 54000 71000 555 1/123
AAXX 12121 28867 42998 02301 11228 21253 30018 40317 53004 555 1/124
AAXX 12121 28879 419// 31202 11185 21201 30010 40322 53011 70172 80001 555 1/121
AAXX 12121 28952 41996 00000 11202 21221 30099 40309 54000 71011 555 1/121
AAXX 12121 28966 429// 00000 11201 21222 30002 40312 53007 555 1/123
AAXX 12121 29802 429// 20602 11208 21227 30174 40332 53005 80001 555 1/123
AAXX 12121 29807 429// 00000 11202 21238 30195 40324 53008 555 1/123
AAXX 12121 34691 42998 23204 10022 21031 30255 40242 52010 82030 555 1/100
AAXX 12121 35067 429// 00000 11205 21241 30017 40319 53008 555 1/122
AAXX 12121 35078 42998 10000 11217 21240 39911 40327 52011 80001 555 1/124
AAXX 12121 35085 429// 00000 11212 21231 39808 40329 52011 555 1/124
AAXX 12121 35108 41596 82204 11035 21050 30124 40171 57004 77173 8802/
AAXX 12121 35188 419// 00102 11186 21209 39849 40319 52014 70400 555 1/122
AAXX 12121 35217 41498 81907 11058 21069 30163 40203 54000 73673 8802/ 555 1/106
AAXX 12121 35229 42998 81503 11137 21164 39970 40260 57008 8807/ 555 1/112
AAXX 12121 35302 41598 83004 11009 21035 30174 40193 52005 70273 885// 555 1/102
AAXX 12121 35357 42997 00702 11218 21250 39829 40305 53010 555 1/123
AAXX 12121 35394 42998 30000 11214 21241 39574 40312 52011 80001 555 1/128
AAXX 12121 35406 41597 82102 11031 21055 30215 40217 53005 70272 885// 555 1/104
AAXX 12121 35416 41596 81605 11077 21099 30113 40238 58002 77173 8802/ 555 1/107
AAXX 12121 35426 42999 81304 11136 21159 39959 40268 57005 8802/ 555 1/112
AAXX 12121 35497 429// 30501 11211 21242 39444 40312 53013 82042 555 1/125
AAXX 12121 35532 42998 71801 11112 21156 39751 40269 53001 87030 555 1/113
AAXX 12121 35671 42998 03601 11224 21256 39845 40319 53007 555 1/124
AAXX 12121 35700 41595 82702 11002 21019 30270 40246 53011 71072 885// 555 1/101
AAXX 12121 35746 42998 80402 11128 21155 30218 40290 53005 8807/ 555 1/111
AAXX 12121 35796 41997 80501 11152 21180 39830 40293 53018 70272 85036 555 1/120
AAXX 12121 35849 42598 82004 11093 21123 30203 40293 53016 885// 555 1/107
AAXX 12121 35925 42998 82303 11027 21047 30155 40269 53003 8802/ 555 1/102
AAXX 12121 35953 42699 82008 11048 20184 30161 40295 57014 885// 555 1/105
AAXX 12121 35969 42599 70000 11075 21130 30125 40306 52017 84540 555 1/106
AAXX 12121 36003 42997 83603 11161 21176 30143 40305 54000 8807/ 555 1/118
AAXX 12121 36152 429// 60202 11162 21201 30078 40279 54000 83042 555 1/118
AAXX 12121 36177 429// 51201 11164 21179 30018 40281 57001 82031 555 1/119
AAXX 12121 36208 429// 50801 11082 21136 39265 40272 53010 80001 555 1/115
AAXX 12121 36397 429// 61408 11096 21147 39698 40281 53003 85032 555 1/111
AAXX 12121 36428 429// 60202 11178 21193 39772 40307 53007 82041 333 95090 555 1/121
AAXX 12121 36535 429// 62901 11160 21202 39637 40311 53004 82031 555 1/119
AAXX 12121 36639 429// 30000 11096 21141 39643 40270 52012 83040 555 1/112
AAXX 12121 36821 415// 82502 11066 21074 39777 40282 52029 71022 889//
AAXX 12121 36859 425// 70000 11030 21050 39475 40269 53020 82545 555 1/108
AAXX 12121 36864 42698 82905 10046 21120 39355 40240 53026 8257/
AAXX 12121 36870 425// 80000 10057 21062 39235 40233 52017 82932 555 1/101
AAXX 12121 38001 42597 82304 10038 20012 30300 40270 52011 8807/ 555 11004
AAXX 12121 38062 41596 80701 11058 21110 30134 40304 52019 71022 885// 555 1/103
AAXX 12121 38069 42997 72301 11052 21089 30109 40308 52027 87070
AAXX 12121 38196 41596 81802 11046 21062 39295 40307 52022 77172 8802/
AAXX 12121 38198 41596 80901 11024 21033 30052 40319 52027 77172 8802/ 555 1/102
AAXX 12121 38222 42597 82902 11002 21050 39706 40273 52027 885// 555 14100
AAXX 12121 38232 42698 72105 10058 20031 30172 40271 54000 87500 555 1/004
AAXX 12121 38328 41595 82603 11025 21034 39575 40327 52031 78582 889// 555 1/102
AAXX 12121 38334 41494 83003 11028 21038 39327 40315 52025 77372 8802/ 555 1/102
AAXX 12121 38341 42997 82201 10014 21027 39486 40279 52026 8802/ 555 1/001
AAXX 12121 38343 42698 82701 10022 21031 39422 40268 52026 885//
AAXX 12121 38439 41596 80000 11001 21009 39980 40327 52025 77177 8802/ 555 1/100
AAXX 12121 22271 NIL
AAXX 12121 22520 42398 62704 11048 21065 30034 40044 52022 85630 333 85607
AAXX 12121 22550 41496 82402 10006 21011 30029 40039 52015 78582 884// 333 88917
AAXX 12121 22583 42480 71402 11054 21068 30003 40086 52006 875// 333 87613
AAXX 12121 22768 41697 82003 11015 21029 30022 40079 52012 70282 885//
AAXX 12121 22845 42698 52401 11014 21031 39936 40094 52021 85500
AAXX 12121 22887 42499 72002 11066 21090 30038 40110 52005 8555/ 333 85614 91104
AAXX 12121 23205 41498 82005 11069 21098 30060 40075 54000 73632 886// 333 88711 91111
AAXX 12121 23219 NIL
AAXX 12121 23418 42965 81504 11069 21116 30066 40142 57005 86032
AAXX 12121 23606 42460 81603 11106 21126 39960 40140 54000 8252/
AAXX 12121 23711 42498 81402 11101 21129 39992 40174 57003 8254/
AAXX 12121 23804 41397 81702 11099 21116 39978 40133 54000 77172 8872/ 333 86707
AAXX 12121 27037 41598 83002 10003 21005 39957 40119 52025 70372 885// 333 88620
AAXX 12121 27199 41435 81801 11108 21128 39948 40155 52010 77372 8802/ 333 93404
AAXX 12121 27271 41596 71601 11084 21099 39972 40134 52007 71022 87500
AAXX 12121 27459 41498 82401 11021 21030 39938 40137 52006 78582 8692/ 333 86914
AAXX 12121 27730 41598 83003 10010 21010 39983 40180 52012 72272 8653/ 333 86620
AAXX 12121 38598 42597 82710 10023 21007 40327 52036 887//
AAXX 12121 38599 NIL
AAXX 12121 38725 NIL
AAXX 12121 38734 42599 60708 11057 21109 37474 47060 52015 85903
AAXX 12121 38744 41696 80000 11056 21098 38057 48600 52018 78582 889//
AAXX 12121 38836 41594 80000 10007 21007 39382 40353 52017 72682 889//
AAXX 12121 38838 NIL
AAXX 12121 38844 41/92 92703 11030 21030 48560 58009 74584
AAXX 12121 38846 41496 82302 11012 21012 38585 48550 52005 77177 8872/
AAXX 12121 38847 41697 70000 10019 20003 40380 52015 70272 875//
AAXX 12121 38932 NIL
AAXX 12121 38933 41696 80000 10024 21003 39840 40373 52005 71072 885//
AAXX 12121 38944 41597 80000 10017 20003 39722 40275 52002 70282 889//
AAXX 12121 38954 42799 60000 10013 21116 37953 48540 54000 86901
AAXX 12121 26997 41558 72403 10009 21008 30024 40249 52004 71022 87500 333 87625
AAXX 12121 27595 41496 81601 11109 21129 30001 40157 52004 77172 8802/
AAXX 12121 27612 41597 61703 10018 21014 39985 40180 52022 70282 86500
AAXX 12121 27707 41550 72303 10007 20002 39917 40215 52010 71022 87500 333 87620
AAXX 12121 27719 41597 62302 10010 21010 39957 40211 52019 70282 86300
AAXX 12121 27786 41497 82703 11099 21116 39994 40163 52014 77172 885// 333 88618
AAXX 12121 27857 41996 82803 10003 21010 30015 40180 52003 77172 8802/
AAXX 12121 27906 42497 82305 10008 21006 39988 40235 52010 883//
AAXX 12121 27928 41497 82704 10012 21005 30016 40226 52013 70272 8655/
AAXX 12121 27947 41697 72405 10008 21021 30036 40197 53003 72272 875//
AAXX 12121 27962 41396 82505 11014 21031 39953 40176 53002 78587 883// 333 88609
AAXX 12121 27983 41497 83003 11074 21083 30024 40157 52020 77172 8872/ 333 88710
AAXX 12121 27995 41598 83302 11077 21091 40156 52021 77187 8755/
AAXX 12121 28506 41996 81302 11101 21114 30052 40171 57002 77172 8802/
AAXX 12121 28704 41496 81603 11104 21124 30059 40161 53004 77173 8802/ 333 88510
AAXX 12121 28711 41396 81605 11130 21150 39785 40182 57001 77172 8872/ 333 88707
AAXX 12121 28807 41396 81003 11086 21101 30100 40154 53003 77177 8872/ 333 88709
AAXX 12121 34009 42597 82802 10005 21017 39939 40259 52007 884//
AAXX 12121 34110 42898 72605 10004 21026 39972 40256 52004 87030
AAXX 12121 34123 42966 72303 10013 21016 30048 40235 51003 87030
AAXX 12121 34152 42498 72505 10002 21012 30020 40220 52009 875//
AAXX 12121 34163 42498 82607 11008 21030 40200 52014 885// 333 88620 91012 91112
AAXX 12121 34171 41660 52807 11004 21041 39994 40191 52017 73632 83331 333 83933 91012 91116
AAXX 12121 34186 41698 72807 11018 21042 30043 40184 52026 73673 82530 333 91115
AAXX 12121 34247 42570 82705 10018 21023 30137 40253 52003 885// 333 88624
AAXX 12121 34336 42698 72404 10018 21036 30162 40268 52004 87500
AAXX 12121 34391 42997 72704 11004 21038 30179 40211 52020 87070
AAXX 12121 35011 41496 81504 11106 21126 30029 40191 57009 77373 8802/ 333 88515
AAXX 12121 35121 41395 81303 11124 21143 30073 40229 57010 77372 8872/ 333 88708
AAXX 12121 28676 429// 80402 11188 21210 30190 40328 53007 8807/ 555 1/117
AAXX 12121 28766 419// 00901 11220 21240 30108 40318 54000 71000 555 1/123
AAXX 12121 28867 42998 02301 11228 21253 30018 40317 53004 555 1/124
AAXX 12121 28879 419// 31202 11185 21201 30010 40322 53011 70172 80001 555 1/121
AAXX 12121 28952 41996 00000 11202 21221 30099 40309 54000 71011 555 1/121
AAXX 12121 28966 429// 00000 11201 21222 30002 40312 53007 555 1/123
AAXX 12121 29802 429// 20602 11208 21227 30174 40332 53005 80001 555 1/123
AAXX 12121 29807 429// 00000 11202 21238 30195 40324 53008 555 1/123
AAXX 12121 34691 42998 23204 10022 21031 30255 40242 52010 82030 555 1/100
AAXX 12121 35067 429// 00000 11205 21241 30017 40319 53008 555 1/122
AAXX 12121 35078 42998 10000 11217 21240 39911 40327 52011 80001 555 1/124
AAXX 12121 35085 429// 00000 11212 21231 39808 40329 52011 555 1/124
AAXX 12121 35108 41596 82204 11035 21050 30124 40171 57004 77173 8802/
AAXX 12121 35188 419// 00102 11186 21209 39849 40319 52014 70400 555 1/122
AAXX 12121 35217 41498 81907 11058 21069 30163 40203 54000 73673 8802/ 555 1/106
AAXX 12121 35229 42998 81503 11137 21164 39970 40260 57008 8807/ 555 1/112
AAXX 12121 35302 41598 83004 11009 21035 30174 40193 52005 70273 885// 555 1/102
AAXX 12121 35357 42997 00702 11218 21250 39829 40305 53010 555 1/123
AAXX 12121 35394 42998 30000 11214 21241 39574 40312 52011 80001 555 1/128
AAXX 12121 35406 41597 82102 11031 21055 30215 40217 53005 70272 885// 555 1/104
AAXX 12121 35416 41596 81605 11077 21099 30113 40238 58002 77173 8802/ 555 1/107
AAXX 12121 35426 42999 81304 11136 21159 39959 40268 57005 8802/ 555 1/112
AAXX 12121 35497 429// 30501 11211 21242 39444 40312 53013 82042 555 1/125
AAXX 12121 35532 42998 71801 11112 21156 39751 40269 53001 87030 555 1/113
AAXX 12121 35671 42998 03601 11224 21256 39845 40319 53007 555 1/124
AAXX 12121 35700 41595 82702 11002 21019 30270 40246 53011 71072 885// 555 1/101
AAXX 12121 35746 42998 80402 11128 21155 30218 40290 53005 8807/ 555 1/111
AAXX 12121 35796 41997 80501 11152 21180 39830 40293 53018 70272 85036 555 1/120
AAXX 12121 35849 42598 82004 11093 21123 30203 40293 53016 885// 555 1/107
AAXX 12121 35925 42998 82303 11027 21047 30155 40269 53003 8802/ 555 1/102
AAXX 12121 35953 42699 82008 11048 20184 30161 40295 57014 885// 555 1/105
AAXX 12121 35969 42599 70000 11075 21130 30125 40306 52017 84540 555 1/106
AAXX 12121 36003 42997 83603 11161 21176 30143 40305 54000 8807/ 555 1/118
AAXX 12121 36152 429// 60202 11162 21201 30078 40279 54000 83042 555 1/118
AAXX 12121 36177 429// 51201 11164 21179 30018 40281 57001 82031 555 1/119
AAXX 12121 36208 429// 50801 11082 21136 39265 40272 53010 80001 555 1/115
AAXX 12121 36397 429// 61408 11096 21147 39698 40281 53003 85032 555 1/111
AAXX 12121 36428 429// 60202 11178 21193 39772 40307 53007 82041 333 95090 555 1/121
AAXX 12121 36535 429// 62901 11160 21202 39637 40311 53004 82031 555 1/119
AAXX 12121 36639 429// 30000 11096 21141 39643 40270 52012 83040 555 1/112
AAXX 12121 36821 415// 82502 11066 21074 39777 40282 52029 71022 889//
AAXX 12121 36859 425// 70000 11030 21050 39475 40269 53020 82545 555 1/108
AAXX 12121 36864 42698 82905 10046 21120 39355 40240 53026 8257/
AAXX 12121 36870 425// 80000 10057 21062 39235 40233 52017 82932 555 1/101
AAXX 12121 38001 42597 82304 10038 20012 30300 40270 52011 8807/ 555 11004
AAXX 12121 38062 41596 80701 11058 21110 30134 40304 52019 71022 885// 555 1/103
AAXX 12121 38069 42997 72301 11052 21089 30109 40308 52027 87070
AAXX 12121 38196 41596 81802 11046 21062 39295 40307 52022 77172 8802/
AAXX 12121 38198 41596 80901 11024 21033 30052 40319 52027 77172 8802/ 555 1/102
AAXX 12121 38222 42597 82902 11002 21050 39706 40273 52027 885// 555 14100
AAXX 12121 38232 42698 72105 10058 20031 30172 40271 54000 87500 555 1/004
AAXX 12121 38328 41595 82603 11025 21034 39575 40327 52031 78582 889// 555 1/102
AAXX 12121 38334 41494 83003 11028 21038 39327 40315 52025 77372 8802/ 555 1/102
AAXX 12121 38341 42997 82201 10014 21027 39486 40279 52026 8802/ 555 1/001
AAXX 12121 38343 42698 82701 10022 21031 39422 40268 52026 885//
AAXX 12121 38439 41596 80000 11001 21009 39980 40327 52025 77177 8802/ 555 1/100
AAXX 12121 20107 41597 71102 11066 21112 39867 49963 54000 72682 86930 333 91002
AAXX 12121 22113 42582 71805 11048 21065 39928 49992 52014 87500 333 91007
AAXX 12121 22217 42597 70000 11085 21100 39990 40023 52015 87500 333 87624
AAXX 12121 22235 41467 83301 11118 21124 39811 40014 52016 72011 886// 333 88710 91002
AAXX 12121 22349 41598 63005 11009 21028 39996 40008 52026 70282 84501 333 91006
AAXX 12121 22408 42499 81302 11051 21061 39902 40054 52020 885// 333 88612
AAXX 12121 22602 41459 82503 11041 21053 39847 40077 52016 77072 8872/ 333 88710
AAXX 12121 22619 41481 83004 11026 21049 39909 40072 52022 70282 885// 333 88616
AAXX 12121 22721 41499 82902 11017 21031 39974 40076 52021 78582 889// 333 86918
AAXX 12121 22802 41599 82101 11020 21055 30084 40108 51013 70282 8555/
AAXX 12121 22820 41499 82702 11015 21029 39953 40094 52019 70282 8233/
AAXX 12121 26059 41397 82203 10026 20018 30093 40118 58001 70275 886// 333 88709
AAXX 12121 26063 42497 82302 10014 20000 30111 40119 52005 885// 333 88611
AAXX 12121 26094 42480 82403 11001 21012 30056 40133 52020 887// 333 88715
AAXX 12121 26157 42567 72205 10025 20015 30080 40130 52003 875// 333 87621
AAXX 12121 26167 42468 82303 10015 20007 30030 40144 51005 886// 333 88710
AAXX 12121 26258 42598 72203 10031 20005 30096 40151 54000 87500
AAXX 12121 26298 41496 72702 10001 21004 39931 40165 52015 78582 87900
AAXX 12121 26359 42499 82403 10026 21004 30035 40170 52003 889//
AAXX 12121 26702 42997 41802 10024 21022 30076 40102 57024 83035 333 91005 91106
AAXX 12121 26781 41497 72402 10015 21007 39910 40206 52004 70282 87500 333 87612
AAXX 12121 27208 41497 72703 10004 21021 39979 40158 51020 72681 87900
AAXX 12121 27402 42697 72402 10015 21013 39990 40172 52022 87500 333 87642
AAXX 12121 22028 42598 72204 11053 21071 39947 49985 52012 83532 333 91005
AAXX 12121 22106 41498 82301 11058 21069 39922 40002 52016 70282 889// 333 84713 91003
AAXX 12121 22127 42598 71801 11151 21164 39798 40010 52013 86930 333 84922 91002
AAXX 12121 22324 41582 82604 11043 21052 39967 40018 52013 78582 889// 333 91008
AAXX 12121 22621 41458 82702 11018 21029 39918 40059 52020 78582 889// 333 86912
AAXX 12121 22831 42498 82702 11005 21020 30025 40085 52020 889//
AAXX 12121 22892 41598 81102 11004 21034 30086 40102 58003 70282 8692/ 333 86920
AAXX 12121 26275 42498 81702 10015 20004 30123 40154 52006 885// 333 88611
AAXX 12121 26389 41459 62303 10003 21014 39907 40175 51013 71022 86600
AAXX 12121 26499 42598 22403 10021 21032 39949 40180 52013 82500
AAXX 12121 26695 42497 22703 10010 21016 39893 40205 52009 82500
AAXX 12121 26882 42467 72604 10009 21011 39943 40223 52003 86530 333 86616
AAXX 12124 91165 12566 60519 10230 20194 30145 40182 57018 60011 91153 333 70058 91026 555 91212
AAXX 12124 91182 11566 60608 10228 20206 30164 40170 56013 69981 761// 91153 333 20222 70013 555 91212
AAXX 12124 91190 37966 00417 10228 20178 30148 40169 56003 761// 91154 555 91212
AAXX 12124 91212 32566 40810 10278 20228 31387 40120 51014 91154 333 20272 70025 555 91212
AAXX 12124 91285 11556 82408 10200 20183 30154 40167 58001 60081 763// 91153 333 20200 70762 96010 555 91212
AAXX 12124 91245 32566 40614 10270 20220 30171 91155 555 91212
BBXX 44067 12121 99384 70770 46/// /0000 10018 40350 56008 91200
BBXX 41029 12121 99328 70796 46/// /0410 1//// 91200 555 11129 22154
BBXX 44032 12121 99437 70694 46/30 /2309 10058 40318 53006 91204 22200 00089 10604 70019 333 91211 555 11112 22118
BBXX V7PW3 12123 99120 10455 41498 20415 10270 20221 40125 58012 70200 82100 22224 00270 20401 306// 40603 80237
BBXX KABP 12123 99264 10359 43/95 /3321 10220 2015/ 40190 56020 7//// 8//// 22211 0//// 2//// 3//// 4//// 5//// 6//// 80175 ICE /////
BBXX UCKZ 12121 99434 30193 42598 70109 10138 20118 40095 58027 82532 22243 00141 20503 306// 41005
BBXX A8VD8 12124 99009 70280 41498 41121 10265 20223 40090 51020 70311 842// 22254 04270 20604 312// 40604 5//// 80235
BBXX A8KH9 12124 99025 30077 41497 71516 10265 20230 40090 54000 70322 8673/ 22244 20502 31800 41203 5//// 80240
BBXX DBLK 12121 99569 30000 41194 83014 11003 21004 40020 57030 71074 886// 22242 05012 20403 329// 40903 ICE 6/4/0
BBXX TBWUK05 12124 99260 50006 41597 51815 10225 20142 40221 54000 7//11 857// 22273 00200 20302 318// 40503 5//// 80176
BBXX A8GU6 12123 99226 70173 41498 60516 10220 20206 40170 52/// 70100 86772 22215 04220 20604 30507 40504 50503 80210
BBXX A8EY5 12124 99166 70210 41/96 50518 10260 20170 40140 71011 85/1/ 22255 00250 20704 302// 41004 5//// 80200
BBXX NWS0029 12124 99153 70243 43/// /0719 10246 20188 40148 5//// 7//// 8//// 222// 04252 2//// 3//// 4//// 5//// 6//// 8//// ICE /////
BBXX DFCX2 12123 99167 71006 41598 39902 10265 20215 40130 51007 70300 82260 22234 06293 20000 80230
BBXX V7NV4 12124 99162 70992 41497 62913 10260 20232 40125 51008 703// 83283 22273 00240 20200 312// 40401 5//// 6//// 80240 ICE /////
BBXX H9UY 12124 99162 71151 41899 33613 00/// 10230 40121 56010 70200 83131 9//// 22273 04260 20401 336// 40503 5//// 6//// 80200
BBXX PBAD 12121 99125 70874 41697 40113 10260 20199 40105 53004 70211 84500 22224 00280 20401 329// 40801 5//// 80220
BBXX 3FMH7 12124 99118 70947 41998 13519 00/// 10250 20229 40127 52018 70100 81005 9//// 22272 00260 1//// 20403 334// 41306 5//// 6//// 80235
BBXX WE3592 12124 99475 70875 41/// 82218 10027 2//// 40207 5//// 70222 8//// 22223 00050 2//// 3//// 4//// 5//// 6//// 8//// ICE /////
BBXX PDNN 12123 99399 70685 41598 50505 10100 20047 40350 52008 70022 851// 22213 20100 305// 40802 80074 90253
BBXX C6VR4 12123 99216 70561 41598 61218 10255 20226 40158 53012 70322 84362 22224 04269 20906 308// 41206 5//// 80235
BBXX A8IN7 12124 99330 70746 41397 51014 10200 20109 40260 53010 70222 83748 22284 06190 20408 80150
BBXX DDJS2 12123 99407 71540 41296 83526 10105 20095 40205 54000 76011 89700 22224 04150 20403 301// 40540 5//// 80100
BBXX A8UN3 12124 99404 70553 41598 80212 10090 20066 40350 51010 70222 888// 22224 04177 2//02 334// 4//04 5//// 80078
BBXX DHEE 12123 99446 70551 41598 72920 10015 21052 40330 51025 70122 875// 22264 00070 20302 328// 40406 82010
BBXX A8IY2 12123 99506 71487 41697 72725 10070 20001 40170 58010 70322 877// 22274 00063 2//02 330// 4//10 5//// 80040
BBXX 42362 12121 99278 70907 46/// /0507 10189 20156 40241 53004 91200
BBXX 44060 12121 99413 70721 46/// ///04 10031 40364 54000 91200 22200 00104 333 91205 555 11036 22041
BBXX 46089 12121 99459 71258 46/// /0308 10078 20018 40235 50003 91150 22200 00096 11305 20403 330// 41305 70027 333 91210 555 11089 22094 31050 40211 61149 027084 026088 026079 024081 025087 027086
BBXX 44011 12121 99411 70666 46/// /2002 10063 21001 40376 53006 91150 22200 00099 10602 20401 3//// 40602 70009 333 91203 555 11024 22024 31131 40303 61149 201022 195023 181018 193018 201022 197021
BBXX 41046 12121 99238 70683 46/// /0607 10253 20210 40142 53011 91150 22200 00261 10904 20502 300// 40903 70020 333 91208 555 11070 22073 31144 40608 61149 057066 048057 046052 046057 052062 049062 80507 91141
BBXX 42363 12121 99282 70892 46/// /0711 10194 20156 40241 53007 91200 333 91211
BBXX 42364 12121 99291 70881 46/// /0506 10183 20156 40247 53003 91200
BBXX 41041 12121 99142 70460 46/// /1110 10272 20224 40143 53024 91150 22200 00268 11006 20705 3//// 41003 70030 333 91212 555 11110 22118 31109 40913 61149 105103 106102 106100 103103 101096 103100 81111 91149
BBXX 44008 12121 99405 70692 46/// /0302 10067 20012 40367 52003 91150 22200 00125 10901 314// 40901 70006 333 91203 555 11019 22020 31143 40403 61149 033019 021014 014017 344010 344011 342010
BBXX 44022 12121 99409 70737 46/// ///02 10023 21039 40361 54000 91200 22200 00091 333 91203 555 11021 22021
BBXX 46042 12121 99368 71224 46/// /3501 10097 40080 58017 91150 22200 00113 11604 327// 41604 70019 333 91201 555 11009 22009 31107 40502 61149 352009 007008 070008 064008 050013 031012
BBXX 46083 12121 99582 71380 46/// /2411 10060 20017 40046 53009 91150 22200 00062 11416 20806 300// 41414 70078 333 91215 555 11117 22125 31142 42415 61149 242107 237090 237089 241103 244107 250099 82412 91143
BBXX NWS0003 12124 99627 71670 43/// /2114 11013 21022 49865 5//// 7//// 8//// 222// 05016 2//// 3//// 4//// 5//// 6//// 8//// ICE /////
BBXX C6YA5 12123 99548 50695 41497 83018 10110 2//// 49980 54000 70322 8867/ 22224 00090 2//// 399// 4//// 5//// 6//// 8//// ICE /////
BBXX A8DE3 12123 99334 50718 41996 01912 10140 20123 40155 54000 7//// 80000 22283 00170 29902 328// 40805 80130
BBXX 3EPD8 12124 99417 50761 41298 81816 10121 20078 40239 52010 7//22 8/7// 22243 04144 29904 399// 4//06 80100
BBXX DFCW2 12123 99344 50734 41998 02026 10190 20142 40145 50010 70022 80000 22284 04155 21006 321// 41408 5//// 80160
BBXX ZMIQ 12124 99384 31785 41/96 73517 10162 20162 40217 57003 76162 84772 22243 00176 2//// 80162
BBXX PCAM 12123 99363 31752 41/97 /0708 10182 20166 40196 52/// 7//11 8//// 22262 00199 2//// 80172
BBXX VRRD 12124 99077 31575 41698 30000 10290 20248 40088 51004 70100 82445 22233 04300 20000 30000 80260
BBXX VROB 12124 99068 31470 46/// /3306 10250 20229 30074 40099 52014 22200 04309 85235
BBXX C6FS9 12124 99224 31607 46/// /0422 10265 20249 30050 40085 52010 22223 04270 85253
BBXX 9HA2479 12124 99281 31590 46/// /2926 10220 20214 30000 40029 52022 22214 04242 85216
BBXX VHAF 12124 99394 31451 41/98 71617 10148 20104 40154 52020 70282 8//// 22284 20503 323// 41404 80125
BBXX VNSZ 12124 99388 31449 46/// /2024 10149 20115 30077 40103 52002 22235 04173 85129
BBXX 9KWP 12123 99041 30892 41697 52407 10280 20252 40087 53010 70151 83436 22274 2//// 80260
BBXX VRDG4 12123 99407 31765 41297 80413 10160 20151 40180 52005 70355 887// 22213 20603 80155
BBXX VROC 12124 99046 31533 41598 63508 10280 20237 40091 53030 70392 86284 22283 04300 20302 334// 40501 80250
BBXX V2OG2 12123 99110 31024 41598 53207 10290 20256 40104 53016 70211 85832 22223 20402 314// 40403 80265
BBXX C6HS4 12124 99216 31007 41598 72732 10240 20211 40120 54000 70222 86392 22233 06240 20502 313// 40403 80220
BBXX SHIP 12124 99172 31531 41/98 33510 10285 20246 40081 54010 70122 83/// 22285 0//// 2//// 3//// 4//// 80260
BBXX WCZ5238 12124 99029 51446 41598 40913 10260 20217 40112 57020 7//11 84284 22273 00256 20404 310// 40605 5//// 6//// 80230 ICE /////
BBXX PCHM 12124 99405 31767 41597 30328 10160 20143 40179 55010 70222 82576 22213 00140 20204 304// 40204 80150
BBXX A8UD6 12121 99172 31661 41498 30609 10260 20231 40090 54000 71580 83200 22274 20503 312// 41003 5//// 80240
BBXX PCDE 12123 99399 30840 41498 53511 10167 20125 40183 56005 70300 82151 22223 2//// 324// 41002 80142
BBXX MCCN6 12124 99234 31069 41298 81626 10229 20208 40102 53012 70222 887// 22233 00226 20604 316// 40705 5//// 80215
BBXX MCLJ8 12123 99185 31539 41498 60000 10280 20252 40075 50015 70322 8/200 22243 20000 300// 40000 5//// 80260
BBXX A8RL3 12121 99101 30798 41598 39902 10302 20247 40070 54000 70200 8/1// 22213 20000 316// 4//03 5//// 80263
BBXX PFBF 12123 99043 31109 41398 32702 10285 20265 40080 55/// 70322 8327/ 22223 02294 2//// 3//// 4//// 5//// 80270
BBXX VRWS4 12124 99127 11488 41398 62912 10290 20255 40074 51012
BBXX VNVF 12124 99292 11353 41398 73512 10183 20114 40215 51022 70222 83/// 22213 00239 20301 80145
BBXX WCX8882 12124 99482 11572 41598 83013 11010 2104/ 40000 52025 7//22 8842/ 22254 00030 20404 322// 40606 5//// 6//// 81020 ICE /////
BBXX C6XC2 12124 99063 11267 41897 80412 10270 20243 40080 54/// 76266 886// 22243 00300 2//// 3//// 4//// 5//// 6//// 80250 ICE /////
BBXX KFMV 12123 99309 11716 41295 83519 10183 2017/ 40180 52020 75165 87627 22225 00228 20704 33230 40504 50703 6//// 80178 ICE /////
BBXX PHKL 12124 99059 10793 41396 72810 10294 20249 40070 53001 78122 8677/ 22264 00287 20401 30299 40402 5//// 80261
BBXX MIBR 12124 99220 11142 41597 70109 10180 20058 40193 57010 70222 8346/ 22200 00198 20000 3//// 4//// 5//// 80120
BBXX PHPP 12123 99058 10785 41498 73212 10254 20236 40074 55014 71588 82965 22222 00300 20102 334// 40604 80241
BBXX DMRX 12124 99495 11685 41/97 /3030 10000 21042 49912 51007 70222 8/2// 22224 00060 2//// 81015
BBXX DGDD 12121 99341 11462 41/98 12615 10170 20119 40160 57015 70161 81/// 22264 00210 2//// 3//// 4//// 5//// 80140
BBXX KAOU 12124 99078 10984 43/// /0215 10278 20217 40090 5//// 7//// 8//// 222// 04303 2//// 3//// 4//// 5//// 6//// 8//// ICE /////
BBXX DGTX 12123 99357 71274 41497 73531 10115 20056 40160 51005 70322 82578 22234 00180 20708 330// 40708 80085
BBXX HPHV 12124 99286 70943 412// 50914 10150 20116 40240 54000 7//// 8/1// 222// 0//// 20502 30909 40502 50502 6//// 80130 ICE /////
BBXX DFWV2 12124 99314 71476 41597 41413 10195 20138 40280 57005 70280 824/8 22263 04190 2//03 3//// 4//// 5//// 80160
BBXX DGHJ 12123 99186 71049 41498 13211 10250 20199 40120 57005 70200 811// 22274 00250 2//// 3//// 4//// 5//// 80215
BBXX WDE9193 12123 99212 70757 41498 30909 10260 2022/ 40130 53008 70200 82201 22222 00260 20202 30711 40403 50302 6//// 80230 ICE /////
BBXX WAZV 12124 99525 71365 41597 82520 10080 2004/ 40180 51020 7//22 886// 22233 00060 20404 325// 41411 5//// 6//// 80060 ICE /////
BBXX C6SI4 12124 99488 71309 41496 62015 10060 2004/ 40270 56010 70322 862// 22273 00100 20602 334// 4//// 5//// 6//// 80050 ICE /////
BBXX 44150 12121 99425 70640 46/// /2506 10052 40369 52004 22200 00098 10901 70006 333 91208
BBXX 41037 12121 99340 70775 46/// /0510 10137 40251 52004 91200 22200 00167 333 91212
BBXX 42085 12121 99179 70665 46/// /0403 10260 40124 52017 91200 22200 00283 10501 70006 333 91204
BBXX 42085 12121 99179 70665 46/// /0403 10259 40124 91150 333 91204
BBXX 42085 12121 99179 70665 46/// /0303 10259 40123 91140 333 91204
BBXX 41052 12121 99183 70648 46/// /0102 10262 40120 91140 333 91203
BBXX 41052 12121 99183 70648 46/// /0102 10261 40121 91150 333 91203
BBXX 41053 12121 99185 70661 46/// /2003 10247 40124 91140 333 91204
BBXX 41052 12121 99183 70648 46/// /0202 10263 40121 53016 91200 22200 00278 333 91202
BBXX 41053 12121 99185 70661 46/// /2003 10246 40126 91150 333 91204
BBXX 44139 12121 99442 70571 46/// /2704 10018 40366 52013 22200 00086 10803 70017 333 91206
BBXX 42067 12121 99300 70886 46/// ///// 10097 20086 40257 91140 22200 00164 10602 70011
BBXX 41053 12121 99185 70661 46/// /2003 10250 40126 53016 91200 22200 00279 11003 70014 333 91204
BBXX PDHY 12123 99458 70491 41598 73012 10010 21016 40289 52010 70222 862/0 22223 04060 20606 332// 40707 5//// 80000
BBXX 41038 12121 99341 70777 46/// /0208 10098 40301 52010 91200 22200 00144 333 91210
BBXX C6FT7 12123 99199 70664 417// /1508 10260 2//// 40130 50010 7//22 8/24/ 22275 00170 2//// 3//// 40102 50104 6//// ICE /////
BBXX HPYE 12123 99212 70695 41697 40521 10260 2023/ 40090 53010 7//11 84285 2223/ 00270 20404 305// 4//// 5//// 6//// 80240 ICE /////
BBXX KGTY 12124 99568 71435 41497 72454 10044 2000/ 49995 57015 72166 872// 22274 00033 21115 323// 41413 5//// 6//// 80028 ICE /////
BBXX VRHO2 12124 99526 71736 41898 42524 10040 21008 40030 56010 70171 84/78 22253 00040 20701 32727 40902 51203 6//// 80020 ICE /////
BBXX VCXF 12124 99464 70484 41698 72945 11015 2106/ 40267 52020 70222 87500 22200 02020 20808 333// 40705 81030
BBXX WDC6907 12124 99387 70676 41598 70219 10121 2007/ 40348 51008 70322 86592 22213 00200 20402 302// 40803 5//// 6//// 80095 ICE /////
BBXX A8TG2 12123 99236 71125 41/// /2208 10210 20122 40110 50000 7//22 8//// 22234 00170 21202 33030 41804 51802 80160
BBXX SHIP 12123 99295 71796 41698 72015 10220 2021/ 40250 54000 70222 8//// 22213 00234 2//// 3//// 4//// 5//// 6//// 80210 ICE /////
BBXX WHRN 12123 99302 71334 41598 60124 10150 2010/ 40215 52015 70122 86462 22255 00190 21004 333// 41204 5//// 6//// 80120 ICE /////
BBXX SHIP 12124 99422 71629 41898 11506 10110 20038 40233 57019 70200 81/// 22223 00130 80075
BBXX WABS 12124 99470 71258 41798 30113 10067 2004/ 40250 58005 7//00 83/3/ 22243 0//// 2//// 3//// 4//// 5//// 6//// 80056 ICE /////
BBXX 3FPR9 12124 99207 71547 41497 80626 10220 20220 40130 54000 71682 8534/ 22214 04240 20308 306// 40606 5//// 6//// 80220 ICE /////
BBXX SKWI 12124 99434 70115 43/98 82332 10147 40206 58013 22254 00185 20804 41008
BBXX SBLW 12123 99385 70267 43/98 52719 10168 40299 50017 22254 00179 2//// 4////
BBXX TFGRS 12124 99663 70182 46/// ///// 22200 10705 70027
BBXX TFSTD 12124 99664 70234 46/// ///// 22200 10808 70042
BBXX TFBKF 12124 99635 70202 46/// ///// 22200 10704 70020
BBXX TFHFN 12124 99642 70152 46/// ///// 22200 10905 70027
BBXX TFSRT 12124 99633 70203 46/// ///// 22200 10906 70031
BBXX TFKGR 12124 99657 70136 46/// ///// 22200 10806 70031
BBXX TFGRV 12124 99638 70225 46/// ///// 22200 10805 70026
BBXX TFDRN 12124 99658 70212 46/// ///// 22200 10603 70013
BBXX TFBLK 12124 99657 70248 46/// ///// 22200 10806 70028
BBXX 62023 12123 99514 70079 46/96 /1938 10083 2//// 40006 5//// 22200 10706 70031 333 91147 555 70050 81013
BBXX 62087 12121 99547 10068 46/// /1002 10076 20044 4//// 5//// 22270 00086
BBXX OZDM2 12124 99419 70101 41698 42320 10160 20066 40247 50006 70211 82142 22244 04160 20102 333// 40312 80110
BBXX A8CH2 12124 99375 70340 41598 52919 10220 20175 40305 51010 70222 85555 22213 04200 20304 335// 40504 80190
BBXX UCKG 12121 99631 10043 41/98 91104 10070 49831 57025 70222 885// 22213 00070 20101 32800 40404
BBXX LDGJ 12121 99603 10053 43/// /1603 10053 20030 49881 5//// 222/1 04079 1//// 3//// 4//// 5////
BBXX A8IP2 12123 99397 70233 41298 72035 10168 20135 40262 53011 76066 81750 22254 06160 20506 332// 41409 5//// 80148
BBXX VRFO7 12124 99430 70272 41598 62327 10180 20148 40180 57020 70300 862// 22225 21206 323// 41208 80160
BBXX LMEL 12121 99603 10053 43/// /1603 10047 20047 49878 5//// 222/2 04080 1//// 3//// 4//// 5////
BBXX LF4H 12124 99596 10022 46/98 12319 10054 20017 49860 57009 8//// 22200 06090 10805 70025 333 91128
BBXX PBFM 12123 99432 70119 41398 82427 10150 20093 40203 50008 71582 8779/ 22254 2//// 80118
BBXX DBBH 12121 99452 70085 41598 82316 10134 20067 40191 57012 70322 84837 22221 04143 20704 334// 41610
BBXX OXKO2 12120 99375 70318 41/98 32710 10197 40302 51005 70122 8/27/ 22254 04170 20505 331// 41207 5////
BBXX PBEN 12123 99355 10309 41/98 30000 10180 20112 40250 57010 7//22 83106 22223 20000 80140
BBXX DGNB 12123 99472 70119 41497 72431 10155 20071 40210 54000 70222 8776/ 22254 00163 22108 333// 42112 80110
BBXX NWS0020 12124 99371 10237 43/// /2216 10172 20139 40225 5//// 7//// 8//// 222// 04191 2//// 3//// 4//// 5//// 6//// 8//// ICE /////
AAXX 12121 37308 42799 60000 10025 21049 39640 40308 57005 82530
AAXX 12121 37553 42999 51001 10095 21054 39597 40242 57003 80030 555 10012
AAXX 12121 37651 16/// ///00 10104 21049 3//// 4//// 5//// 60001
AAXX 12121 37279 NIL
AAXX 12121 37492 NIL
AAXX 12121 37531 NIL
AAXX 12124 78062 12565 70604 10209 20194 40206 60000 85830 333 59007 70000 82818 83640 83358 90908
AAXX 12124 60360 12665 32511 10189 20091 40221 58002 60001 82830 333 0//00 81833 95900
AAXX 12124 60390 11570 72408 10150 20110 40259 51005 69941 70362 8587/ 333 0//13 82820 85640
AAXX 12124 60402 12570 62408 10170 20095 40235 50003 60001 85830 333 83823 83646 95900
AAXX 12124 60419 12565 73210 10121 20047 40241 50005 60001 828// 333 82826 86633 95900
AAXX 12124 60475 12670 33210 10153 20060 39276 48540 51003 60001 83202 333 83840 95900
AAXX 12124 60490 12565 72313 10160 20114 40261 50005 60001 86202 333 0//00 86820 83073 95900
AAXX 12124 60525 NIL
AAXX 12124 60531 12575 42410 10171 20104 40274 58002 60001 84232 333 0//00 84826 95900
AAXX 12124 60566 12960 30408 10180 20064 40255 50004 60001 80002 333 0//00 83073
AAXX 12124 60571 12970 30000 10160 20051 39332 48581 58004 60001 80002 333 0//00 83073 95900
AAXX 12124 60580 12660 63206 10160 20086 40246 50002 60001 81232 333 81846 83360
AAXX 12124 60590 12660 63009 10170 20046 40260 58002 60001 81178 333 0//00 81840 83460 83270
AAXX 12124 60611 12860 51505 10185 20015 40215 57016 60001 82034 333 0//00 81358 84073
AAXX 12124 60620 12960 50311 10210 20011 40240 58004 60001 82032 333 0//00 82365 84075
AAXX 12124 60630 12970 50610 10224 20003 40234 58007 60001 81032 333 81362 85075
AAXX 12124 60656 12759 81804 10194 21010 40232 50007 60001 81272 333 0//00 81846 84460 86073
AAXX 12124 60670 12982 23206 10188 20017 39108 48548 58020 60001 80002 333 0//00 82073 95900
AAXX 12124 60680 12982 32606 10195 21052 38682 48560 58010 60001 80002 333 83073 95900
AAXX 12121 40001 32970 00304 10124 20015 40233 57013
AAXX 12121 40007 32960 52302 10111 20041 40252 56016 80002 333 85070
AAXX 12121 40025 32960 52502 10168 20047 40241 57018 80002 333 85070
AAXX 12121 40045 32970 43505 10138 20016 40262 57024 80002 333 84070
AAXX 12121 40061 32970 30000 10110 20005 40250 57019 80002 333 83070
AAXX 12121 40080 32970 41301 10138 21015 39517 40243 57025 80001 333 84070
AAXX 12121 40087 NIL
AAXX 12121 40095 NIL
AAXX 12124 60351 12560 62616 10185 20092 40221 50006 60001 86800 333 82823 85633 95900
AAXX 12124 60355 12660 52706 10186 20080 40217 58001 60001 83232 333 0//00 83833 83360 95900
AAXX 12124 60445 12465 72608 10101 20058 39070 48545 50002 60001 8623/ 333 82710 85826 95970
AAXX 12124 60468 12570 43114 10140 20034 39275 48539 53002 60001 84200 333 84826 95900
AAXX 12124 60507 12570 52816 10143 20094 40271 50004 60001 85200 333 85826 95900
AAXX 12124 60511 12560 72714 10095 20065 39128 48561 51007 60001 872// 333 87820 95900
AAXX 12124 60535 12565 73620 10070 20060 38890 48551 54000 60001 878// 333 0//00 83820 86626 95900
AAXX 12124 60536 12570 62612 10118 20070 39392 48573 50010 60001 86200 333 86830 95900
AAXX 12124 60549 11660 42710 10108 20055 38998 48592 51005 60001 84200 333 82713 95960
AAXX 12124 60550 11570 73605 10076 20010 38737 48573 50006 60001 70142 875// 333 0//00 87625 95900
AAXX 12124 60555 12970 32806 10173 20048 40247 50003 60001 80002 333 0//00 83073
AAXX 12124 60559 12960 12811 10185 20060 40235 58007 60001 80001 333 0//00 81073
AAXX 12124 60581 12960 50208 10167 20050 40240 55003 60001 80002 333 0//00 85073
AAXX 12124 60602 12960 40000 10162 20032 40259 50002 60001 84032 333 0//00 84360 95900
AAXX 12124 60607 12960 73608 10179 21007 40238 54000 60001 83034 333 0//00 83362 85075
AAXX 12124 60640 12960 43408 10230 20009 40215 58011 60001 82032 333 0//00 82360 83073
AAXX 12124 60690 NIL
AAXX 12121 08501 32/// /2405 10183 20125 30233 40269 52004 333 91012 91114
AAXX 12121 08505 32470 72605 10164 20141 30239 40289 52009 878// 333 83812 85630
AAXX 12121 08509 32560 52806 10166 20128 30222 40287 52009 82806 333 81825 84070 91009 91109
AAXX 12121 08512 11265 82906 10155 20155 30207 40293 52013 69901 78082 888// 333 83705 84812 85625
AAXX 12121 08515 11375 52805 10179 20165 30181 40304 50013 69901 70211 85800 222// 0//// 333 81709 83814 910// 911//
AAXX 12121 08533 32/// /3603 10177 20125 30254 40283 52005 333 91105
AAXX 12121 08541 32/// /3104 10157 20112 30160 40279 52005
AAXX 12121 08545 NIL
AAXX 12121 08548 12/// /3502 10135 20078 30062 40268 52005 69911
AAXX 12121 08554 32/// /2303 10167 20128 30274 40283 52003
AAXX 12121 08558 31465 63003 10140 20111 39975 40270 50001 70164 86302 333 83814 81915 83617
AAXX 12121 08560 NIL
AAXX 12121 08567 31470 72302 10104 20058 39593 40260 51009 70342 86801 333 84813
AAXX 12121 08570 11475 22803 10125 20080 39803 40262 50005 69911 70340 82848 333 81812 91106
AAXX 12121 08575 41465 62904 10097 20037 39438 40252 58004 70222 84242 333 84819 85099 91007 91107
AAXX 12121 08579 41470 52402 10159 20081 30148 40272 5//// 70222 82831 333 81817 84070 91105
AAXX 12124 60351 12560 62616 10185 20092 40221 50006 60001 86800 333 82823 85633 95900
AAXX 12124 60355 12660 52706 10186 20080 40217 58001 60001 83232 333 0//00 83833 83360 95900
AAXX 12124 60445 12465 72608 10101 20058 39070 48545 50002 60001 8623/ 333 82710 85826 95970
AAXX 12124 60468 12570 43114 10140 20034 39275 48539 53002 60001 84200 333 84826 95900
AAXX 12124 60507 12570 52816 10143 20094 40271 50004 60001 85200 333 85826 95900
AAXX 12124 60511 12560 72714 10095 20065 39128 48561 51007 60001 872// 333 87820 95900
AAXX 12124 60535 12565 73620 10070 20060 38890 48551 54000 60001 878// 333 0//00 83820 86626 95900
AAXX 12124 60536 12570 62612 10118 20070 39392 48573 50010 60001 86200 333 86830 95900
AAXX 12124 60549 11660 42710 10108 20055 38998 48592 51005 60001 84200 333 82713 95960
AAXX 12124 60550 11570 73605 10076 20010 38737 48573 50006 60001 70142 875// 333 0//00 87625 95900
AAXX 12124 60555 12970 32806 10173 20048 40247 50003 60001 80002 333 0//00 83073
AAXX 12124 60559 12960 12811 10185 20060 40235 58007 60001 80001 333 0//00 81073
AAXX 12124 60581 12960 50208 10167 20050 40240 55003 60001 80002 333 0//00 85073
AAXX 12124 60602 12960 40000 10162 20032 40259 50002 60001 84032 333 0//00 84360 95900
AAXX 12124 60607 12960 73608 10179 21007 40238 54000 60001 83034 333 0//00 83362 85075
AAXX 12124 60640 12960 43408 10230 20009 40215 58011 60001 82032 333 0//00 82360 83073
AAXX 12124 60690 NIL
AAXX 12121 98134 NIL
AAXX 12121 98223 31562 43604 10245 20236 40106 53016 70244 81160 333 10272 56999 58010 81820 84360
AAXX 12121 98232 NIL
AAXX 12121 98325 NIL
AAXX 12121 98328 NIL
AAXX 12121 98330 NIL
AAXX 12121 98336 NIL
AAXX 12121 98429 31560 21204 10284 20245 40100 53018 70544 82200 333 10327 56999 58003 82825
AAXX 12121 98430 31558 11401 10277 20241 40096 52018 70544 81105 333 10327 56999 58004 81820
AAXX 12121 98431 NIL
AAXX 12121 98440 NIL
AAXX 12121 98444 NIL
AAXX 12121 98526 NIL
AAXX 12121 98531 NIL
AAXX 12121 98536 NIL
AAXX 12121 98543 NIL
AAXX 12121 98550 NIL
AAXX 12121 98618 11460 80402 10268 20247 40093 53008 60021 79581 8697/ 333 10305 56999 58016 84917 84820 88458
AAXX 12121 98630 NIL
AAXX 12121 98637 NIL
AAXX 12121 98646 NIL
AAXX 12121 98653 NIL
AAXX 12121 98741 31470 40000 10264 20254 40083 52010 70244 82202 333 10309 56199 59001 82818
AAXX 12121 98747 NIL
AAXX 12121 98753 NIL
AAXX 12121 98755 NIL
AAXX 12121 98836 NIL
AAXX 12124 66160 35565 62906 10285 20206 40102 84230 333 58010
AAXX 12124 91945 36/// /3508 10264 20237 30146 40151 56012 333 10292
AAXX 12124 91948 06/// /3604 10225 20191 30078 40181 56012 60001 333 10269 58008 60007 90710 91109 555 60005 13312
AAXX 12124 89002 42499 80810 11063 21076 39768 49822 57007 885// 333 11058 21119
AAXX 12124 78062 12565 70604 10209 20194 40206 60000 85830 333 59007 70000 82818 83640 83358 90908
AAXX 12124 78062 12565 70604 10209 20194 40206 60000 85830 333 59007 70000 82818 83640 83358 90908
AAXX 12121 08560 31470 69902 10101 20053 39503 40264 52009 70242 84102 333 84813 85099 91105
BBXX DHDH 12124 99105 10656 41397 80321 10272 20249 40082 58010 70322 8/774 22225 20304 80255
BBXX DCSL2 12124 99286 11675 41298 52518 10240 20211 40190 54000 70211 857// 22264 00233 20202 80220
BBXX 3ERR2 12124 99635 10053 43/// /1108 10072 20029 49854 57023 22200 11606 70030 333 91114
BBXX LF3F 12124 99643 10078 41598 31313 10055 20018 49872 57017 70200 832// 22200 04087 10906 70028 333 91120
BBXX LF3N 12124 99653 10073 41597 42111 10065 20011 49867 57008 70282 84300 22200 00089 11108 70039
BBXX LF4B 12124 99606 10037 47/98 /2223 10054 49857 52006 781// 22200 00059 10806 70029 333 91127
BBXX LF4C 12124 99584 10019 41598 62521 10072 20014 49888 52008 72582 86200 22200 00078 10705 70023 333 91128
BBXX LF5T 12124 99660 10081 43598 81318 10038 20009 49875 57022 88/// 22200 10704 70020 333 91134
AAXX 12121 08521 NIL
AAXX 12121 08524 32470 30404 10182 20142 30199 40297 52010 83200 333 83815
BBXX MHNL6 12123 99362 70227 41298 73215 10180 20136 40313 54000 70222 877// 22223 00197 20402 334// 40704 5//// 80155
BBXX SBLI 12121 99308 71278 43/98 73519 10130 40151 52002 22254 00167 2//// 4//// 426621110
BBXX SMGW 12121 99357 11274 43/98 63609 10105 40267 50011 22264 00192 20302 4////
BBXX C6CU6 12123 99402 70196 41597 72725 10155 20137 40271 51023 70122 87566 22253 04140 21412 332// 41911 5//// 80145
AAXX 12121 63330 42580 31316 10188 20066 37784 40250 81101 333 55160 59003 81820 83070
AAXX 12121 63331 42580 32003 10264 20098 38024 40195 83260 333 59016 83828
AAXX 12121 63332 42580 23402 10250 20120 38221 40075 82200 333 58012 82825
AAXX 12121 63333 42580 22002 10238 20091 38156 40112 82100 333 59001 82825
AAXX 12121 63334 NIL
AAXX 12121 63340 42580 51802 10222 20145 37930 40148 85200 333 59002 85825
AAXX 12121 63402 41575 41802 10270 20120 38315 49924 70500 84300 333 59005 83830 81931
AAXX 12121 63403 41560 72902 10218 20151 71722 86970 333 81823 84624 81925 87360
AAXX 12121 63450 42580 11505 10200 20070 37714 40057 81100 333 59005 81825
AAXX 12121 63451 42580 10904 10242 20042 38120 40037 81100 333 59002 81826
AAXX 12121 6345342980 03604 10296 2//// 39050 333 58002
AAXX 12121 63460 42980 02902 10256 20104
AAXX 12121 63471 42980 00904 10272 20061 38856 40098 333 58002
AAXX 12121 63474 42580 20204 10206 20051 82100 333 82823
AAXX 12121 63478 42580 10404 10328 20155 39764 40141 81100 333 58001 81830
AAXX 12121 63500 41570 20902 10284 20138 70500 82200 333 82825
AAXX 12121 63533 42580 20502 10255 20102 82100 333 82828
AAXX 12121 NNNN
BBXX A8VL5 12124 99062 10928 41398 62210 10250 20235 40210 53010 70322 86500 22265 00270 20101 30000 80240
BBXX DCPX2 12123 99335 10252 41597 72507 10210 20147 40250 54000 70200 865// 22225 04200 20400 30000 80170
BBXX DDZA2 12124 99368 10016 41498 52821 10170 20119 40235 51015 7//22 85468 22263 04180 20304 80140
AAXX 12123 61701 32960 40910 10300 20098 40112 80002 333 58007 84074
AAXX 12123 61705 NIL
AAXX 12123 61707 32960 40905 10325 20125 4//// 80002 333 5//// 84073
AAXX 12123 61711 32960 30902 10310 20169 4//// 80002 333 5//// 83072
AAXX 12123 61712 32960 40510 10315 20085 4//// 82032 333 5//// 82362
AAXX 12123 61717 NIL
AAXX 12123 61720 NIL
AAXX 12123 61721 NIL
AAXX 12123 61722 32960 53407 10321 20009 4//// 80002 333 5//// 85074
AAXX 12123 61731 32960 52706 10326 20074 4//// 80002 333 5//// 85074
AAXX 12123 61733 NIL
BBXX 46207 12121 99509 71299 46/// /2204 10061 40250 57012 22200 00085 11003 70015 333 91206
AAXX 12121 10791 12788 71804 11001 21001 38458 48406 56011 60001 86052 333 44/// 55305 84356 83362 444 27076
AAXX 12124 16337 12598 41206 10168 20113 39620 40180 55008 60001 84500 333 84625 555 0100/
AAXX 12124 78846 12580 10303 10247 20/// 30095 40134 60603 81200 333 10279 20224 5//// 81820
AAXX 12121 34560 42597 72909 10004 21041 30099 40269 52012 87500 333 87630
AAXX 12121 34720 42498 22902 10029 21037 30260 40301 54000 82600
AAXX 12121 34730 42597 73002 10013 21032 30206 40301 52002 87500 333 87626
AAXX 12121 34740 42598 63102 10027 21022 30201 40299 52005 84530
AAXX 12121 34824 42997 00502 10040 21022 30294 40299 57003
AAXX 12121 34858 42997 23202 10038 21026 30189 40299 53005 80002
AAXX 12121 34866 42998 03004 10039 21015 30300 40291 53010
AAXX 12121 34880 42497 32803 10037 21012 30304 40277 52017 83300
AAXX 12121 37018 42698 71304 10100 20015 30200 40276 57004 83550
AAXX 12121 37054 41698 82302 10034 20020 39911 40303 52002 70262 885//
AAXX 12121 37472 42597 73104 10077 20015 30313 40290 52011 85531
BBXX A8UQ3 12123 99046 70026 41597 59904 10295 20262 40130 50005 70211 84017 22263 00300 299// 318// 41002 80270
AAXX 12124 61017 32960 50000 10244 20038 39773 40187 80002 333 59001 85080
AAXX 12124 61024 32960 21016 10250 20002 39606 40176 80002 333 0//00 58012 82080
AAXX 12124 61036 31956 70806 102985 20008 39910 40149 70522 80008 333 0//00 58007 87280
AAXX 12124 61043 31936 70814 10275 21054 39706 40146 70622 80008 333 0//00 58007 87280
AAXX 12124 61045 31910 70606 10243 21068 39658 40156 70642 80002 333 0//00 58003 87280
AAXX 12124 61049 32960 70804 10260 21078 39820 40141 80008 333 0//00 58000 87280
AAXX 12124 61052 31925 50812 10288 21029 39899 40155 70622 80002 333 0//00 58013 85080
AAXX 12124 61075 31956 71006 10285 20032 39837 40146 70622 80008 333 0//00 58006 87280
AAXX 12124 61080 31912 71008 10260 21023 39734 40156 70642 80008 333 0//00 58004 87280
AAXX 12124 61090 31925 70610 10244 21060 39645 40152 70642 80008 333 0//00 58006 87280
AAXX 12124 61091 31956 70806 10260 20066 39709 40158 70642 80008 333 0//00 58002 87280
AAXX 12124 61096 32960 70806 10262 21048 39770 40152 80008 333 0//00 58002 87280
AAXX 12124 61099 31930 70608 10290 20052 39899 40127 70622 80008 333 0//00 58003 87280
AAXX 12121 22165 41498 81506 11004 21019 39920 49981 52013 71572 85902
AAXX 12121 22676 42466 81403 11038 21050 30001 40081 52008 885//
AAXX 12121 22837 41499 72502 10000 21017 30029 40100 52018 72682 87900 333 85918
AAXX 12121 22954 41334 82202 11015 21020 39853 40105 52020 78682 889// 333 86708
AAXX 12121 23405 41550 81503 11086 21101 30006 40109 52003 77172 8802/ 333 88524
AAXX 12121 23412 41999 81504 11082 21124 30033 40134 57003 72272 8807/
AAXX 12121 23803 41997 81302 11118 21138 39974 40163 53002 77172 8802/
AAXX 12121 27066 42598 81802 11072 21081 39941 40125 52007 8655/ 333 86624
AAXX 12121 27083 41599 71701 11115 21135 39903 40137 52008 72272 86570
AAXX 12121 27113 41560 62903 11008 21027 39976 40124 51023 70282 83330
AAXX 12121 27242 41470 82502 11006 21015 39985 40115 52016 70282 889// 333 88914
AAXX 12121 27329 41984 83004 10009 21011 30015 40141 52027 70272 8805/
AAXX 12121 27355 42497 82501 11014 21022 39960 40126 52002 885//
AAXX 12121 27373 41999 81503 11101 21121 39920 40148 52010 77172 8807/
AAXX 12121 27665 42597 72101 11028 21051 39878 40154 52003 875// 333 87628
AAXX 12121 27835 42697 72804 10011 21009 30035 40195 52009 875// 333 87634
AAXX 12121 28009 41435 81803 11113 21141 39951 40172 52006 77372 8802/
AAXX 12121 28411 41497 81302 11130 21150 39983 40190 57001 77172 8657/ 333 86610
AAXX 12121 28418 41999 81403 11127 21154 30021 40197 57002 70272 8805/
BBXX DFUM2 12123 99145 10424 41998 01825 10278 20186 40130 57030 70200 80000 22275 00270 20604 80215
BBXX PBEO 12123 99398 70098 41598 73311 10165 20079 40278 52019 70322 86548 22282 02166 20201 333// 40704 80118
AAXX 12124 87344 01458 82705 10162 20136 39634 40175 50004 60054 76096 8262/ 333 10270 20154 56009 69991 82718 86550
AAXX 12124 87349 01565 72306 10180 20131 39789 40178 53012 60074 70396 82573 333 10243 20157 31016 56550 60011 82622 84360
AAXX 12124 87371 32962 61813 10229 20147 30133 40154 52025 82086 333 10270 20208 56050 82360 84270
AAXX 12124 87374 32965 41413 10220 20126 30057 40143 52027 81076 333 10250 20186 56066 81360 84270
AAXX 12124 87395 32965 62016 10234 20157 30073 40116 52021 80006 333 10288 20210 56006 86270
AAXX 12124 87418 32765 62303 10210 20024 39377 40156 52015 86500 333 10268 20182 56300 86650
AAXX 12124 87436 NIL
AAXX 12124 87448 12960 20505 10213 20105 39618 40171 51012 60034 82050 333 10221 20118 56050 82360
AAXX 12124 87453 32565 30907 10208 20077 39686 40166 52013 83500 333 10240 20165 56700 83625
AAXX 12124 87467 NIL
AAXX 12124 87497 32965 41808 10220 20138 30109 40136 51009 81076 333 10260 20165 56077 81360 83270
AAXX 12124 87506 32970 33605 10142 20037 38614 48539 51009 80004 333 10200 20052 56006 83070 95000
AAXX 12124 87509 32970 41404 10196 20037 39333 40171 52015 82055 333 10228 20108 30008 56087 82360
AAXX 12124 87534 12960 00000 10189 20089 30016 40176 52015 69904 333 10219 20114 31008
AAXX 12124 87548 NIL
AAXX 12124 87576 12960 02015 10192 20097 30122 40146 52012 69924 333 10206 20122
AAXX 12124 87582 12960 00915 10189 20082 30136 40142 52016 69904 333 10257 20159
AAXX 12124 87585 12960 01810 10196 20100 30110 40140 52016 69934 333 10253 20146 30014
AAXX 12123 87480 12965 61807 10185 20100 30124 40154 52021 60114 86070 333 10216 20149 56070 86360
AAXX 12123 87532 32965 23605 10186 20101 30005 40174 52016 80002 333 10205 20134 56006 82070
AAXX 12121 22282 415// 82311 11010 21023 39998 40006 54000 73633 885//
AAXX 12121 22438 41571 72905 11015 21038 30000 40022 53032 70282 86970
AAXX 12121 22471 41484 82009 11007 21022 30002 40026 52007 72787 889// 333 85610
AAXX 12121 22563 41450 82103 11015 21026 30003 40042 52006 77173 8652/ 333 86613
AAXX 12121 22641 41398 83002 11008 21014 30034 40050 52022 78575 889// 333 86707 91107
AAXX 12121 22695 41498 81603 11081 21091 39949 40107 53003 70272 887// 333 87710
AAXX 12121 22867 41598 81901 11016 21033 39977 40092 52015 70282 8655/ 333 86633 91105
AAXX 12121 22939 42697 72503 11006 21021 39953 40117 52024 87500 333 87639
AAXX 12121 22996 41996 71902 11108 21128 39941 40140 52008 77172 87010
AAXX 12121 23324 42982 70000 11080 21107 30073 40153 58001 85078
AAXX 12121 27008 42598 82302 11011 21027 39960 40133 52016 885//
AAXX 12121 27051 41496 82402 11027 21043 39933 40102 52016 78587 8657/ 333 83914
AAXX 12121 27225 41464 83204 10001 21034 30007 40139 52027 70272 885// 333 88617
AAXX 12121 27252 41457 82002 11030 21037 39928 40117 52011 77172 8877/ 333 88713
AAXX 12121 27333 41580 72802 10001 21014 39970 40129 52023 70272 82830
AAXX 12121 27369 41557 81402 11069 21081 39999 40141 52007 77022 8802/ 333 88523
AAXX 12121 27393 41495 81803 11111 21131 39984 40160 52006 77372 8872/
AAXX 12121 27479 41564 81402 11082 21101 30009 40148 52006 77172 885// 333 88625
AAXX 12121 27532 41496 62705 10004 21010 39935 40151 52019 72272 84530
AAXX 12121 27648 41496 82706 10001 21002 39988 40159 52011 78587 879// 333 88913
AAXX 12121 27675 41497 82301 11056 21070 39977 40153 52007 70272 885// 333 88618 1/105
AAXX 12121 27679 41497 82801 11072 21077 39929 40161 52013 77072 8872/ 333 88513
AAXX 12121 28214 41496 81303 11120 21133 39959 40182 53005 77173 8872/
AAXX 12124 62002 32960 52715 10165 20133 39499 48558 58008 80004 333 85070
AAXX 12124 62007 32960 42409 10205 20060 40219 52002 80008 333 84270
AAXX 12124 62010 32960 62509 10222 20029 40226 57001 82036 333 82363 86870
AAXX 12124 62012 32860 71905 10222 20055 30188 40218 58020 81070 333 81358 87170
AAXX 12124 62016 32962 62011 10196 20011 40250 58020 82039 333 82362 84170
AAXX 12124 62124 32960 23206 10166 20002 39735 40243 57013 80004 333 82070
AAXX 12124 62161 32970 30905 10185 20092 40250 56020 83030 333 83356
AAXX 12124 62259 32970 01210 10180 20058 40273 58011
AAXX 12124 62271 32970 00710 10174 20016 40273 58019
BBXX FLAO 1212/ 99764 70847 46/// ///// 11203 40019 57003
AAXX 12121 40703 11550 73302 10008 21036 39006 40325 51005 60001 70542 85610 333 83720 87459
AAXX 12121 40712 11640 81002 10001 21035 38755 40326 55004 60001 70522 8432/ 333 81935 83640 88459
AAXX 12121 40729 12960 62503 10038 21057 38385 40293 55006 60001 80009 333 86169
AAXX 12121 40736 12960 00602 10138 20072 30284 40258 56004 60001 333
AAXX 12121 40739 12965 02303 10056 21048 38755 40287 56004 60001 333
AAXX 12121 40743 12970 00000 10100 21066 39148 40292 55006 60001 333
AAXX 12121 40762 12964 00000 10068 21042 38617 40274 55004 60001 333
AAXX 12121 40768 12965 00000 10073 21056 38293 40264 57012 60001 333
AAXX 12121 40769 11958 10000 10082 21070 38337 40251 56013 60001 70500 80001 333 81070
AAXX 12121 40785 12960 23502 10102 21037 39153 40275 57007 60001 80001 333 82070
AAXX 12121 40809 12970 03604 10109 21109 38552 40256 55003 60001 333
AAXX 12121 40821 12962 00000 10140 21068 38844 40256 56015 60001 333
AAXX 12121 40831 12960 03006 10174 20010 30211 40219 56015 60001 333
BBXX BAREU54 12124 99165 70713 46/// ///// 40125 52013 22253
BBXX BAREU00 12124 99404 70723 46/// ///// 40357 57004 22223
BBXX BAREU06 12124 99400 70371 46/// ///// 40237 52004 22264
BBXX BATFR13 12124 99244 70531 44497 81328 10252 20205 40189 53021 70222 887// 22214 00257 20404 309// 41206 5////
BBXX BATFR14 12124 99163 70608 44598 23205 10267 20235 40133 53016 70100 82260 22254 00274 202// 30612 410// 50802 60000 ICE 0/0//
BBXX 41101 12124 99146 70562 46/// /1113 10273 20242 40122 52018 22200 00272 10804 70020
BBXX BATEU01 12124 99467 70716 46/// /2520 10017 21055 40278 51035 22253 00039
BBXX BATEU04 12124 99625 70505 46/// /3408 11060 21086 49867 51013 22233
BBXX PDHY 12123 99458 70491 41598 73012 10010 21016 40289 52010 70222 862/0 22223 04060 20606 332// 40707 5//// 80000
BBXX A8YW2 12124 99346 30244 41497 52618 10235 20180 40095 58010 70300 84244 22224 00170 21402 80200
BBXX BAREU61 12124 99260 70155 46/// /0619 10204 29069 40244 52001 22254
BBXX BATEU00 12124 99495 30159 46/// /1724 10029 20022 40019 53005 22243
BBXX BATFR55 12124 99110 30480 44697 31213 10282 20232 40085 70200 8//18 22222 00285 20704 314// 41104 5////
BBXX BATFR19 12124 99007 30088 46/// /1915 10279 20227 40106 58014 22200 00274
BBXX DHDH 12124 99105 10656 41397 80321 10272 20249 40082 58010 70322 8/774 22225 20304 80255
BBXX A8UQ3 12123 99046 70026 41597 59904 10295 20262 40130 50005 70211 84017 22263 00300 299// 318// 41002 80270
BBXX DFUM2 12123 99145 10424 41998 01825 10278 20186 40130 57030 70200 80000 22275 00270 20604 80215
BBXX ELWP5 12121 99049 10010 41397 70103 10295 20240 40165 56015 70522 8761/ 22200 04270 299// 3//// 4//// 5//// 80255
BBXX BATFR59 12124 99220 31685 46/// /0411 10269 20242 40119 50006 22211 00269
BBXX BATFR56 12124 99054 30791 46/// /2707 10287 20237 40076 55007 22253 00299
BBXX BATFR47 12124 99301 51451 46/// /1111 10202 20144 40195 56015 22262
BBXX BATFR08 12124 99494 30702 46/// /1011 10069 20024 40127 56006 22200 00072
BBXX BATEU07 12124 99340 31512 46/// /2022 10175 40071 22232
BBXX BAREU63 12124 99317 10290 46/// /3412 10179 29064 40244 57023 22233
BBXX BAREU04 12124 99520 70062 46/// ///// 40015 57028 22224
BBXX BATFR02 12124 99506 70009 46/// /2636 10099 20022 40078 58018 22284 00119
BBXX BATFR04 12124 99596 70101 46/// /2319 10059 20010 49814 22272 00099
BBXX BATFR15 12124 99395 70140 44798 22512 10160 20082 40267 50002 70332 82135 22254 00172 20708 335// 40708 5////
BBXX BATFR27 12124 99495 70022 46/// /2527 10127 20055 40109 22285 00132
BBXX 61001 12124 99434 10078 46/// /2424 10151 20103 40120 57016 22200 00155 10502 70009 555 1/033
BBXX BATFR01 12124 99363 10204 46/// /2217 10195 20125 40235 58007 22222 00190
BBXX BATFR41 12124 99437 10073 46/// ///// 10147 20084 40117 22231
BBXX BATEU02 12124 99532 70095 46/// /1625 10062 20034 49920 58066 22200 00100
BBXX BATFR54 12124 99441 70076 46/// /2331 10134 20075 4//// 22263 00147
BBXX BATFR60 12124 99483 70056 46/// /2227 10114 20059 40111 58009 22233 00124
BBXX BATFR06 12124 99454 70013 46/// /2815 10137 20054 40205 50007 22212 00157
BBXX BATFR42 12124 99502 70027 46/// /2420 10102 20054 40094 58020 22224 00134
BBXX BATFR62 12124 99497 70017 46/// /2626 10109 20040 40106 50011 22262 00139
BBXX BATUK01 12124 99578 70066 44596 62606 10067 20005 49875 53002 72022 8623/ 22232 00114 20404
BBXX 61002 12124 99421 10047 46/// ///30 10140 2//// 40190 52004 22200 00154 10503 70016 555 1/041
BBXX MHNL6 12123 99362 70227 41298 73215 10180 20136 40313 54000 70222 877// 22223 00197 20402 334// 40704 5//// 80155
BBXX DCPX2 12123 99335 10252 41597 72507 10210 20147 40250 54000 70200 865// 22225 04200 20400 30000 80170
BBXX C6CU6 12123 99402 70196 41597 72725 10155 20137 40271 51023 70122 87566 22253 04140 21412 332// 41911 5//// 80145
BBXX DDZA2 12124 99368 10016 41498 52821 10170 20119 40235 51015 7//22 85468 22263 04180 20304 80140
BBXX PBEO 12123 99398 70098 41598 73311 10165 20079 40278 52019 70322 86548 22282 02166 20201 333// 40704 80118
AAXX 12121 63330 42580 31316 10188 20066 37784 40250 81101 333 55160 59003 81820 83070
AAXX 12121 63331 42580 32003 10264 20098 38024 40195 83260 333 59016 83828
AAXX 12121 63332 42580 23402 10250 20120 38221 40075 82200 333 58012 82825
AAXX 12121 63333 42580 22002 10238 20091 38156 40112 82100 333 59001 82825
AAXX 12121 63334 NIL
AAXX 12121 63340 42580 51802 10222 20145 37930 40148 85200 333 59002 85825
AAXX 12121 63402 41575 41802 10270 20120 38315 49924 70500 84300 333 59005 83830 81931
AAXX 12121 63403 41560 72902 10218 20151 71722 86970 333 81823 84624 81925 87360
AAXX 12121 63450 42580 11505 10200 20070 37714 40057 81100 333 59005 81825
AAXX 12121 63451 42580 10904 10242 20042 38120 40037 81100 333 59002 81826
AAXX 12121 63453 42980 03604 10296 2//// 39050 333 58002
AAXX 12121 63460 42980 02902 10256 20104
AAXX 12121 63471 42980 00904 10272 20061 38856 40098 333 58002
AAXX 12121 63474 42580 20204 10206 20051 82100 333 82823
AAXX 12121 63478 42580 10404 10328 20155 39764 40141 81100 333 58001 81830
AAXX 12121 63500 41570 20902 10284 20138 70500 82200 333 82825
AAXX 12121 63533 42580 20502 10255 20102 82100 333 82828
AAXX 12121
AAXX 12121 40701 12960 01203 10012 21049 38665 40325 56004 60001 333
AAXX 12121 40704 12670 72703 10008 21062 38670 40295 51007 60001 82530 333 82640 86358
AAXX 12121 40708 12960 60000 10016 21024 38722 40276 55000 60001 84035 333 84360 85267
AAXX 12121 40710 12662 69901 11044 21084 38379 40359 56004 60001 81506 333 81635 86267
AAXX 12121 40713 11650 80000 11004 21052 38733 40319 55005 60001 70522 8432/ 333 82835 82936 88459
AAXX 12121 40731 12970 31303 10070 21047 38800 40293 56009 60001 80001 333 83070
AAXX 12121 40740 12962 01603 10020 21052 38795 40278 56005 60001 333
AAXX 12121 40747 12960 13501 10090 21073 38668 40250 56022 60001 80001 333 81070
AAXX 12121 40757 12965 01801 10082 21046 38971 40284 56005 60001 333
AAXX 12121 40763 12965 02702 10086 21047 38990 40272 56007 60001 333
AAXX 12121 40782 12970 02302 10140 21069 38907 40231 56016 60001 333
AAXX 12121 40783 12970 03304 10120 21066 38013 40216 57011 60001 333
AAXX 12121 40789 12965 00000 10112 21044 39281 40277 57009 60001 333
AAXX 12121 40798 12960 00000 10118 21120 37993 40247 57013 60001 333
AAXX 12121 40818 12965 00000 10110 21087 38009 40222 56010 60001 333
AAXX 12121 40827 12970 12104 10160 21146 38880 40263 55005 60001 80001 333 81070
AAXX 12121 40836 12970 02102 10152 21092 38219 40205 57013 60001 333
AAXX 12121 40851 12960 33003 10146 21069 38294 40207 57013 60001 80001 333 83070
AAXX 12121 40853 12965 52707 10130 21172 37773 40171 56003 60001 80001 333 85070
AAXX 12121 40854 12960 30104 10140 21044 39006 40216 56006 60001 80001 333 83070
AAXX 12121 40857 11920 03506 10170 20102 30189 40199 57011 60001 70600 222// 00/// 20303 333
AAXX 12121 40859 12965 20000 10220 21060 38724 40149 56012 60001 80001 333 82070
AAXX 12121 40878 12965 00510 10175 21205 38864 40213 55005 60001 333
AAXX 12121 40879 12962 22104 10230 21102 39502 40183 56013 60001 80002 333 82070
AAXX 12121 40883 11956 11105 10242 20156 30135 40157 56012 60001 70500 80001 222// 00228 20401 333 81070
BBXX BAREU11 12124 99040 70804 46/// ///// 40114 52005 22284
BBXX C6XQ2 12123 99325 50508 41598 53611 10220 20189 40105 54000 70211 84546 22253 04210 20804 309// 41003 5//// 80200
BBXX ELWP5 12121 99049 10010 41397 70103 10295 20240 40165 56015 70522 8761/ 22200 04270 299// 3//// 4//// 5//// 80255
BBXX DFUX2 12124 99380 70096 41599 33004 10190 20142 40280 52030 7//00 832// 22284 00160 2//// 330// 41208 80160
AAXX 12123 91802 NIL
AAXX 12123 91809 NIL
AAXX 12123 91831 36/// /3201 ///// ///// 10245 20229 40156 57000
AAXX 12123 91841 NIL
AAXX 12123 91843 31598 40000 10263 20236 40131 58011 60001 71721 84900 333 10292 561// 82925
AAXX 12123 91848 36/// /3303 10236 20228 40102 57031 333 10298
BBXX 46207 12121 99509 71299 46/// /2204 10061 40250 57012 22200 00085 11003 70015 333 91206
AAXX 12124 78846 12580 10303 10247 20/// 30095 40134 60603 81200 333 10279 20224 5//// 81820
AAXX 12124 61017 32960 50000 10244 20038 39773 40187 80002 333 59001 85080
AAXX 12124 61024 32960 21016 10250 20002 39606 40176 80002 333 0//00 58012 82080
AAXX 12124 61036 31956 70806 20008 39910 40149 70522 80008 333 0//00 58007 87280
AAXX 12124 61043 31936 70814 10275 21054 39706 40146 70622 80008 333 0//00 58007 87280
AAXX 12124 61045 31910 70606 10243 21068 39658 40156 70642 80002 333 0//00 58003 87280
AAXX 12124 61049 32960 70804 10260 21078 39820 40141 80008 333 0//00 58000 87280
AAXX 12124 61052 31925 50812 10288 21029 39899 40155 70622 80002 333 0//00 58013 85080
AAXX 12124 61075 31956 71006 10285 20032 39837 40146 70622 80008 333 0//00 58006 87280
AAXX 12124 61080 31912 71008 10260 21023 39734 40156 70642 80008 333 0//00 58004 87280
AAXX 12124 61090 31925 70610 10244 21060 39645 40152 70642 80008 333 0//00 58006 87280
AAXX 12124 61091 31956 70806 10260 20066 39709 40158 70642 80008 333 0//00 58002 87280
AAXX 12124 61096 32960 70806 10262 21048 39770 40152 80008 333 0//00 58002 87280
AAXX 12124 61099 31930 70608 10290 20052 39899 40127 70622 80008 333 0//00 58003 87280
AAXX 12124 78947 12578 30000 10264 20241 30131 40134 60002 705// 82801 333 05909 10308 20242 58006 82821
AAXX 12121 40650 42960 23504 10155 20002 40243 57016 80002
AAXX 12121 40604 42960 50000 10122 20048 40233 58014 80005
AAXX 12121 40608 42960 52705 10138 20047 40238 57017 80005
AAXX 12121 40621 42960 23003 10152 21008 40246 58010 80001
AAXX 12121 40629 42960 32704 10142 20057 40267 57016 80002
AAXX 12121 40631 42960 53203 10143 20006 40247 58006 80006
AAXX 12121 40634 42960 32905 10146 20050 40229 57018 83030
AAXX 12121 40642 42960 30000 10150 21073 40255 57015 80001
AAXX 12121 40664 42960 03005 10166 21027 40235 57023
AAXX 12121 40670 42960 23303 10163 20019 40241 57015 80002
AAXX 12121 40672 42960 03305 10166 20017 40249 58020
AAXX 12121 40676 41956 02608 10175 20002 40231 56015 70700
AAXX 12121 40680 41958 03406 10182 20054 40211 57014 70600
AAXX 12121 40656 42960 13208 10158 21002 40228 57022 80002
AAXX 12121 40623 42960 42401 10149 21003 40220 58019 80004
AAXX 12121 40622 42560 42702 10170 21015 40186 57010 84400
AAXX 12121 40637 42960 02503 10175 0080 40235 57004
AAXX 12121 40690 42960 02908 10180 20020 40218 56017
AAXX 12121 40691 42960 02406 10182 20021 40232 57014
AAXX 12121 63330 42580 31316 10188 20066 37784 40250 81101 333 55160 59003 81820 83070
AAXX 12121 63331 42580 32003 10264 20098 38024 40195 83260 333 59016 83828
AAXX 12121 63332 42580 23402 10250 20120 38221 40075 82200 333 58012 82825
AAXX 12121 63333 42580 22002 10238 20091 38156 40112 82100 333 59001 82825
AAXX 12121 63334 NIL
AAXX 12121 63340 42580 51802 10222 20145 37930 40148 85200 333 59002 85825
AAXX 12121 63402 41575 41802 10270 20120 38315 49924 70500 84300 333 59005 83830 81931
AAXX 12121 63403 41560 72902 10218 20151 71722 86970 333 81823 84624 81925 87360
AAXX 12121 63450 42580 11505 10200 20070 37714 40057 81100 333 59005 81825
AAXX 12121 63451 42580 10904 10242 20042 38120 40037 81100 333 59002 81826
AAXX 12121 63453 42980 03604 10296 2//// 39050 333 58002
AAXX 12121 63460 42980 02902 10256 20104
AAXX 12121 63471 42980 00904 10272 20061 38856 40098 333 58002
AAXX 12121 63474 42580 20204 10206 20051 82100 333 82823
AAXX 12121 63478 42580 10404 10328 20155 39764 40141 81100 333 58001 81830
AAXX 12121 63500 41570 20902 10284 20138 70500 82200 333 82825
AAXX 12121 63533 42580 20502 10255 20102 82100 333 82828
AAXX 12121 50844 32962 02202 11112 21156 40283 57004
AAXX 12121 50854 32970 02201 11145 21188 40290 57002
AAXX 12121 50968 32962 02001 11135 21165 40308 52007
AAXX 12121 51379 32980 12501 11113 21135 40326 52014 80002 333 05400
AAXX 12121 51467 32975 00000 11065 21136 38260 52015 333 05400
AAXX 12121 51495 32980 40000 11039 21178 40306 52002 80002 333 05500
AAXX 12121 53480 32980 20000 11088 21152 40340 57001 80002
AAXX 12121 53673 31958 00000 11037 21075 40322 52006 70400
AAXX 12121 53698 32962 03201 10025 21045 40300 52006
AAXX 12121 53898 31957 03401 10006 21015 40295 52009 71000
AAXX 12121 54308 32980 00701 11045 21126 40322 52004
AAXX 12121 54602 32960 50202 11004 21054 40298 52003 80002
AAXX 12121 54725 32962 00902 10023 21005 40302 52008
AAXX 12121 54751 32965 00904 10043 21028 40306 52006
AAXX 12121 54916 32962 00000 11008 21032 40298 52010
AAXX 12121 57014 32968 02902 11022 21055 40298 52022 333 05501
AAXX 12121 57025 32968 00702 10001 21061 40302 52020
AAXX 12121 57046 32974 31803 11037 21121 37957 52007 80002 333 05302
AAXX 12121 58208 32965 00902 10046 21020 40287 52012
AAXX 12121 40716 12960 60802 10044 21061 38987 40304 56014 60001 85031 333 85360
AAXX 12121 40719 12562 53202 10118 20042 30273 40262 55002 60001 81545 333 81625 83266
AAXX 12121 40721 12960 00000 10114 20034 39721 40276 56006 60001 333
AAXX 12121 40858 11930 03407 10158 20083 30190 40201 57010 60001 70700 333
AAXX 12121 40872 11956 23206 10228 20039 30159 40164 57014 60001 70610 80001 222// 00240 20301 333 82070
AAXX 12121 40877 12960 11206 10232 21054 39606 40150 57014 60001 80001 333 81070
AAXX 12121 40898 12965 12002 10252 20168 30128 40137 56018 60001 80001 222// 00247 10700 333
AAXX 12121 01492 41370 81805 10037 20017 39811 49927 58007 76062 8677/ 333 91112
AAXX 12124 61401 NIL
AAXX 12124 61404 31925 50823 10262 21080 39798 40191 7072/ 83082 333 0//00 58008 83363 85073
AAXX 12124 61415 31956 70210 10226 20087 30175 40180 70622 8707/ 333 0//00 58010 87463
AAXX 12124 61421 NIL
AAXX 12124 61437 31950 70808 10284 20082 30041 40178 705// 8707/ 333 0//00 58013 87363
AAXX 12124 61442 31920 71113 10289 21103 30148 40151 70622 80002 333 0//00 58013 85080
AAXX 12124 61450 31930 61014 10260 20018 39714 40169 707// 80002 333 0//00 58025 86073
AAXX 12124 61461 NIL
AAXX 12124 61489 31950 50804 10275 20014 30139 40146 705// 85070 333 0//00 58009 85363
AAXX 12124 61492 31950 50806 10285 21020 30136 40155 85070 333 0//00 58002 85363
AAXX 12124 61497 34920 00816 10302 21010 39906 4//// 707// 333 0//00 58024
AAXX 12124 61498 31930 70806 10292 20094 30008 40139 705// 80008 333 0//00 58012 87073
AAXX 12124 61499 31930 51404 10290 20015 39900 40152 705// 80002 333 0//00 58021 85073
AAXX 12124 61510 35960 00902 10300 29028 30050 4//// 333 0//00 5////
AAXX 12124 89022 41484 30607 11082 21115 39772 49810 57009 70340 81578 333 11082 21148 81620 83068 99129
AAXX 12124 89062 42480 70113 10007 21024 39647 49687 57021 875// 333 10027 21002 83620 84640
AAXX 12124 60395 11658 70000 10155 20110 40242 50016 60032 70364 872// 333 0//12 87840 95900
AAXX 12124 60421 12665 51608 10125 20051 39191 48536 58007 60001 85200 333 0//00 85833 95900
AAXX 12124 60423 12670 33513 10136 20052 39244 48519 50002 60001 83230 333 83840 95900
AAXX 12124 60430 11357 62610 10130 20092 40252 50001 60021 70362 84242 333 0//52 81706 84823 95980
AAXX 12124 60437 11/01 92206 10070 20070 39032 48531 51007 69931 75054 333 0//11 89/// 95990
AAXX 12124 60444 12565 43206 10119 20051 39132 48546 50009 60001 84200 333 84830 95900
AAXX 12124 60452 12565 7//// 10180 20126 40258 51010 60001 852// 222// 2//// 333 85820 91826
AAXX 12124 60457 11560 62811 10163 20118 40254 50007 69921 70262 86200 333 0//55 86820 95900
AAXX 12124 60514 12560 73014 10106 20074 39340 48572 50002 60001 875// 333 0//00 87626 95900
AAXX 12124 60518 12565 62706 10160 20108 40253 51003 60001 84232 222// 29903 333 0//00 84820 91847 95900
AAXX 12124 60520 12570 62412 10145 20069 40262 50007 60001 85202 333 85826 95900
AAXX 12124 60540 12560 50000 10096 20030 39100 48558 50001 60001 85200 333 85830 95900
AAXX 12124 60560 12970 60000 10124 20043 39019 48564 58007 60001 82082 333 82360 86073 95900
AAXX 12124 71374 46/// /0410 11097 21116 6///1 333 11101 21125 7////
AAXX 12124 71387 17/// /2004 11019 21023 39848 40233 53016 69941 7//4/ 333 11047 21072 70000
AAXX 1212/ 89828 46/// ///// 11291 36423 4//// 5////
AAXX 1212/ 89879 46/// ///// 11011 39740 4//// 5////
AAXX 1212/ 89869 46/// ///// 11025 39789 4//// 5////
AAXX 1212/ 89799 46/// ///// 11244 4//// 5////
AAXX 1212/ 89769 46/// ///// 11053 39820 4//// 5////
AAXX 1212/ 89314 46/// ///// 11165 38143 4//// 5////
AAXX 12121 34357 42498 22703 10011 21039 30096 40255 51016 82500
AAXX 12121 34363 42598 22808 10001 21036 30080 40236 52011 82500
AAXX 12121 34545 42598 83003 10011 21024 30172 40286 52007 885//
AAXX 12121 34579 42998 62902 10010 21023 30219 40264 52014 8008/
AAXX 12121 34838 42997 00301 10036 21010 30201 40300 50006
AAXX 12121 34927 41697 80701 10039 20016 30259 40297 57004 70262 885//
AAXX 12121 34949 41396 62401 10026 20010 39740 40296 55000 71072 85630 333 86709
AAXX 12121 37001 42597 30604 10061 20023 30236 40277 57005 83100
AAXX 12121 37031 42597 80401 10042 20018 30097 40296 57002 889//
AAXX 12121 37061 41597 73402 10036 20009 30131 40301 53006 70282 87500
AAXX 12121 37085 41598 63404 10039 20005 30323 40351 52013 70262 82530
AAXX 12121 37126 41/92 91901 11055 21055 37968 48547 52002 74984
AAXX 12121 37171 41798 80405 10079 20050 30266 40285 58007 70282 885// 333 88650
AAXX 12121 37228 42597 80401 10033 20003 39446 40293 52006 885//
AAXX 12121 37470 42598 63403 10091 20010 30318 40295 53019 84531 333 91113
AAXX 12121 37663 42999 10906 10038 21039 39075 48544 53012 8108/
AAXX 1212/ 89828 46/// ///// 11303 36423 4//// 5////
AAXX 1212/ 89108 46/// ///// 11296 36885 4//// 5////
AAXX 1212/ 89872 46/// ///// 11079 39802 4//// 5////
AAXX 1212/ 89869 46/// ///// 11023 39789 4//// 5////
AAXX 1212/ 89866 46/// ///// 11048 39736 4//// 5////
AAXX 1212/ 89329 46/// ///// 11136 38679 4//// 5////
AAXX 1212/ 89799 46/// ///// 11244 4//// 5////
AAXX 1212/ 89332 46/// ///// 11083 39192 4//// 5////
AAXX 12121 28049 42997 01607 11132 21163 30085 40260 57006
AAXX 12121 28144 42998 51101 11158 21175 30082 40251 57004 81031
AAXX 12121 28319 41498 81302 11134 21160 30026 40200 57002 70382 8357/
AAXX 12121 28321 42999 61403 11131 21151 39983 40199 57003 84032
AAXX 12121 28334 42998 60000 11188 21214 39911 40240 57006 80005
AAXX 12121 28434 42998 70000 11204 21221 39962 40244 57005 80001
AAXX 12121 28552 42998 21202 11161 21187 30175 40296 57003 80002
AAXX 12121 28666 42999 00901 11195 21213 30128 40319 53006
AAXX 12121 28825 42997 81801 11109 21133 30042 40223 57005 8807/
AAXX 12121 29111 32998 60901 11230 21251 30310 40408 52004 80001 333 11200
AAXX 12121 29209 32998 00000 11223 21242 30252 40392 53005 333 11171
AAXX 12121 29551 11997 20000 11194 21213 30207 40407 52006 69902 70281 80001 333 11163
AAXX 12121 29602 11999 80503 11185 21204 30196 40349 53007 69902 70271 8805/ 333 11178
AAXX 12121 29636 32998 00201 11179 21185 30124 40361 53003 333 11128
AAXX 12121 29654 32999 01701 11131 21166 39705 40355 57004 333 11068
AAXX 12121 29712 12998 00302 11173 21185 30181 40335 53003 69902 333 11136
AAXX 12121 29724 12997 30503 11166 21179 30112 40330 57001 69902 80001 333 11141
AAXX 12121 29726 32998 00502 11173 21185 30164 40345 54000 333 11145
AAXX 12121 29814 32998 20401 11184 21196 30171 40330 53003 82040 333 11149
AAXX 12121 29827 329// 20502 11185 21197 30150 40318 56003 82070 333 11165
AAXX 12121 29923 31994 80502 11173 21192 30023 40320 57005 71011 80007 333 11173
AAXX 12121 29939 32997 00602 11165 21184 30006 40310 57005 333 11155
AAXX 12121 35026 42597 80901 11156 21182 39589 40270 57004 885//
AAXX 12121 36021 32999 20201 11203 21222 30111 40307 57001 80001 333 11163
AAXX 12121 36022 32997 10504 11170 21189 30015 40296 53004 80001 333 11146
AAXX 12121 36038 32999 30000 11165 21191 39816 40288 53009 80002 333 11083
AAXX 12121 36058 32999 20902 11122 21142 39770 40320 53002 80001 333 11081
AAXX 12121 36064 32999 03102 11062 21126 39694 40305 57001 333 11030
AAXX 12121 36229 32999 30000 11210 21225 39123 40398 57001 80004 333 11198
AAXX 12121 36259 32999 20000 11257 21296 38263 48553 57001 80001 333 11209
AAXX 12124 71309 16/// /3502 11076 21091 30235 40247 53027 60001 333 11069 21079 4/014 70011 555 10020
AAXX 12124 71340 16/// /1204 11148 21160 60001 333 11018 21148 70006
AAXX 12124 71341 17/// /0703 11077 21083 60011 7//4/ 333 10021 21099 70062
AAXX 12124 71342 16/// /0602 11083 21099 60001 333 11024 21083 70000
AAXX 12124 71344 16/// /2802 11090 21099 60001 333 11020 21093 70019
AAXX 12124 71347 16/// /1506 11116 21128 60001 333 11051 21127 70000
AAXX 12124 71348 16/// /0603 11155 21170 60001 333 11048 21166 70000
AAXX 12124 71349 16/// ///// 11093 21104 60001 333 11018 21112 70000
AAXX 12124 71903 47/// /2210 10040 20035 30105 40155 56034 6///1 7//4/ 333 20025 7////
AAXX 12124 71063 16/// /1903 11029 21050 30201 40302 52012 60001 333 10030 21029 70000
AAXX 12124 87593 02960 02310 10177 20105 30112 40139 5//// 60314 333 10190 20117 60102
AAXX 12124 87623 31960 13205 10197 20097 39954 40177 52016 70600 80002 333 10220 20104 56005 81070
AAXX 12124 87641 12965 01811 10165 20083 39980 40154 52009 69914 333 10165 20081 30006
AAXX 12124 87645 12470 12312 10158 20093 39940 40146 52015 69934 81800 333 10158 20080 56400 81812
AAXX 12124 87648 12960 01817 10170 20118 30120 40130 52012 60134 333 10182 20114
AAXX 12124 87692 12560 62309 10162 20110 30093 40118 51008 60034 81170 333 10172 20126 56550 81820 86360
AAXX 12124 87715 12970 02306 10183 20068 39870 40185 52012 69904 333 10220 20135
AAXX 12124 87750 32965 02710 10182 20072 30066 40166 52013 333 10182 20078
AAXX 12124 87765 32960 01402 10095 20042 39246 48534 50001 333 10112 20018 96120
AAXX 12124 87784 12980 01408 10202 21050 30164 40187 52035 69904 333 10211 20190
AAXX 12124 87791 12980 01805 10196 20064 30156 40164 52009 69904 333 10196 20067
AAXX 12124 87800 32680 10000 10125 20087 39813 40213 58005 81100 333 10155 20040 56400 811848
AAXX 12124 87803 32980 02504 10104 20041 39288 40211 52005 333 10125 20059
AAXX 12124 87828 32980 22305 10198 20035 30125 40176 52016 80001 333 10200 20104 56000 82070
AAXX 12124 87860 32980 52709 10196 20066 30116 40171 52011 80004 333 10208 20135 56004 85070
AAXX 12124 87904 31980 22713 10148 20017 39878 40121 5//// 702// 80009 333 10148 20108 56006 82170
AAXX 12124 87909 32980 32910 10180 20018 30065 40138 52011 80005 333 10220 20103 56000 83270
AAXX 12124 87925 32780 32921 10172 21015 30061 40084 50001 81440 333 10172 20088 56660 57348 81650
AAXX 12124 87938 31675 72306 10109 20043 39924 49992 53008 71522 86570 333 10109 20065 56550 86635 83360
AAXX 12124 71228 16/// /1406 11071 21092 60001 333 11030 21071 70000
AAXX 12124 71107 16/// /2317 10053 20022 30117 40231 58017 60001 333 10092 20038 70000
AAXX 12121 23914 42999 61403 11126 21145 39929 40201 57003 80001
AAXX 12121 23921 42997 70000 11200 21219 30117 40246 57008 81041
AAXX 12121 23955 11384 81202 11237 21255 30341 40410 52009 69902 77172 86601 333 11217 84707
AAXX 12121 23966 32999 30000 11258 21276 30260 40401 52012 80002 333 11220
AAXX 12121 28138 42999 62001 11120 21190 39638 40238 57001 80001
AAXX 12121 28224 42998 81502 11122 21146 39981 40206 56004 80007
AAXX 12121 28255 42994 01701 11168 21183 30148 40288 57003
AAXX 12121 28440 42997 21304 11155 21175 39885 40259 57003 80001
AAXX 12121 28645 42997 01402 11170 21182 39968 40287 54000
AAXX 12121 28661 42997 31202 11166 21182 30209 40309 53005 80001
AAXX 12121 28722 41694 81602 11135 21156 30077 40216 57005 71022 885//
AAXX 12121 28748 41929 21402 11192 21204 30034 40296 54000 71011 80001
AAXX 12121 28838 41997 21301 11205 21217 39778 40299 53004 70271 82030
AAXX 12121 29231 11998 80000 11219 21238 30308 40416 52009 69902 77172 8802/ 333 11200
AAXX 12121 29313 12998 30501 11205 21224 30262 40397 52006 69902 80002 333 11178
AAXX 12121 29612 32998 00302 11203 21215 30184 40350 53002 333 11175
AAXX 12121 29638 12998 20303 11155 21168 30163 40341 57003 69902 333 11128
AAXX 12121 29838 11997 30201 11184 21203 30074 40327 53001 69902 70271 83030 333 11148
AAXX 12121 29846 11936 30000 11202 21208 39933 40354 54000 69902 71011 83031 333 11160
AAXX 12121 36061 32999 20000 11187 21206 39881 40323 54000 80001 333 11114
AAXX 12124 71421 16/// ///// 11176 21195 39505 40260 53005 60001 333 11201 21244 70000
AAXX 12124 71435 17/// /0502 11152 21162 39624 40237 51012 69951 7//4/ 333 10021 21159 4/010 70008
AAXX 12124 71971 16/// /1401 11219 21242 39972 40019 56003 60001 333 11218 21261 70000
AAXX 12124 71976 46/// /2503 11214 21237 39496 40149 52012 6///1 333 11211 21224 7////
AAXX 12124 71667 16/// /2205 11097 21112 39984 40237 53019 60001 333 10027 21140 4/008 70000
AAXX 12124 71682 16/// /2205 11044 21052 39768 49999 58048 60001 333 11126 21206 70000
AAXX 12124 71550 16/// /0206 11129 21144 39924 40315 51012 60001 333 11053 21130 4/002 70000
AAXX 12124 71737 16/// /2407 11024 21048 39739 40275 53016 60001 333 11016 21098 4/006 70000
AAXX 12124 71743 16/// /2004 11245 21267 39972 40201 53016 60001 333 11148 21260 7////
AAXX 12124 71748 16/// /3507 11138 21154 39995 40299 53020 60001 333 11049 21138 70000
AAXX 12124 71423 17/// /2813 11026 21036 30232 40242 55013 60011 7//4/ 333 11079 21125 7////
AAXX 12124 71752 16/// /2303 11016 21059 30097 40320 53003 60001 333 10025 21016 4/004 70000
AAXX 12123 87016 11460 32706 10258 20219 39662 40059 53012 70054 70200 82105 333 10258 20223 56608 82815
AAXX 12123 87896 32980 32713 10188 20099 30053 40147 5//// 80002 333 10188 2//// 56006 83070
AAXX 12124 71186 46/// /0704 11030 21043 6///1 333 11047 21061 7////
AAXX 12124 71190 46/// /2813 11012 21035 6///1 333 10010 21038 7////
AAXX 12123 NIL
AAXX 12124 87078 32970 33602 10298 20188 39944 40090 52017 83030 333 10304 20190 56070 83360
AAXX 12124 87244 01558 81405 10184 20158 39781 40176 5//// 60094 75096 8572/ 333 10218 20182 56559 60062 85725 87560
AAXX 12124 87393 32970 71810 10266 20160 30044 40105 52017 80006 333 10267 20190 56007 87270
AAXX 12124 87416 32665 82308 10201 20062 39428 40159 52031 885// 333 10258 20165 30014 56499 88635
AAXX 12124 87563 NIL
AAXX 12124 87640 31965 12508 10189 20131 30057 40169 52018 702// 80002 333 10189 20068 30006 56006 81070
AAXX 12124 87688 NIL
AAXX 12124 87774 32982 12302 10132 20070 39176 48527 5//// 80001 333 10160 20038 56000 81070
AAXX 12124 87852 32984 02721 10140 20066 39676 40179 52022 333 10152 20086
AAXX 12121 23909 41998 81803 11114 21134 39917 40176 53004 72272 8802/
AAXX 12121 28044 42997 51101 11159 21177 30073 40249 57003 80001
AAXX 12121 28116 41696 81202 11124 21148 39948 40193 53001 77172 8257/
AAXX 12121 28240 42998 41502 11152 21178 39902 40248 57002 82031
AAXX 12121 28522 41996 61603 11132 21156 39950 40223 57007 71022 84041
AAXX 12121 28621 42998 71403 11131 21157 39961 40207 57006 87030
AAXX 12121 29023 11997 80000 11227 21252 30315 40423 52009 69902 77172 8801/ 333 11204
AAXX 12121 29122 12298 60000 11241 21260 30340 40422 52007 69902 84601 333 11217 84706
AAXX 12121 29328 32998 00000 11205 21224 30242 40395 54000 333 11186
AAXX 12121 29348 11997 30000 11203 21219 30252 40412 53010 69902 70281 80001 333 11193
AAXX 12121 29405 32997 30601 11193 21212 30205 40366 53003 80001 333 11160
AAXX 12121 29418 32998 00302 11195 21221 30198 40373 52002 333 11168
AAXX 12121 29430 32998 00601 11174 21186 30195 40386 53005 333 11156
AAXX 12121 29524 32998 00503 11180 21192 30185 40362 52002 333 11165
AAXX 12121 29605 11998 80502 11199 21205 30187 40342 53005 69902 70271 8802/ 333 11173
AAXX 12121 29631 32997 00604 11171 21183 30154 40355 53006 333 11164
AAXX 12121 29645 31996 00000 11256 21274 30160 40369 53001 71000 333 11200
AAXX 12121 29706 12998 00703 11184 21196 30178 40338 53008 69922 333 11147
AAXX 12121 29736 31996 00000 11233 21251 30071 40348 57001 70400 333 11180
AAXX 12121 29937 32997 50302 11180 21199 30071 40309 57010 80005 333 11178
AAXX 12121 36034 11698 80502 11175 21194 39997 40293 53006 69902 70272 8225/ 333 11156
AAXX 12121 36096 11997 60901 11283 21300 39599 40476 53009 69922 70271 82031 333 11210 95090
AAXX 12124 89667 46/// /0805 11078 29085 39848 4//// 5////
AAXX 12124 71506 46/// /0828 11071 21085 38951 49813 58039 6///1 333 11049 21086 7////
AAXX 12124 71516 16/// /0405 11065 21074 60001 333 11004 21065 70000
AAXX 12124 71539 16/// /0104 11090 21099 39572 40292 51006 60001 333 11010 21094 55/// 20000 70000
AAXX 12124 71833 46/// /2403 11031 21080 6///1 333 10020 21032 7////
AAXX 12124 71269 17/// /0504 11080 21088 60011 7//4/ 333 11011 21081 70030
AAXX 12124 71285 46/// /1603 11082 21092 6///1 333 11023 21109 7////
AAXX 12124 71295 16/// /0504 11099 21110 39809 40271 53023 60001 333 11037 21122 4/009 55/// 20000 70000
AAXX 12124 71296 16/// /1803 11022 21063 39983 40296 53003 60001 333 10024 70000
AAXX 12124 71299 16/// /3102 11020 21022 39949 40225 51022 60001 333 11012 21026 4/009 70000 555 10010
AAXX 12124 71455 46/// /0903 11091 21094 39459 40283 51003 6///1 333 11026 21091 7////
AAXX 12124 71421 16/// ///// 11176 21195 39505 40260 53005 60001 333 11201 21244 70000
AAXX 12124 71435 17/// /0502 11152 21162 39624 40237 51012 69951 7//4/ 333 10021 21159 4/010 70008
AAXX 12121 40700 12960 32404 10128 20002 30180 40271 56004 60001 83030 333 83360
AAXX 12121 40723 12960 00000 10046 21010 38990 40300 55004 60001 333
AAXX 12121 40726 12660 80000 10002 21043 38721 40306 57008 60001 8252/ 333 82635 88458
AAXX 12121 40727 11657 43406 10002 21030 38535 40314 56015 60001 70510 81101 333 81840 84070
AAXX 12121 40734 12970 61202 10124 20065 30283 40258 56007 60001 80006 333 86270
AAXX 12121 40737 12960 40404 10132 20065 30243 40262 55003 60001 80006 333 84268
AAXX 12121 40741 12560 61303 10058 20026 39988 40337 56007 60001 86700 333 82725 84635
AAXX 12121 40780 12970 12704 10142 21113 38719 40223 55010 60001 80001 333 81070
AAXX 12121 40791 12962 03002 10144 21043 39427 40265 56008 60001 333
AAXX 12121 40792 12970 03006 10090 21079 38778 40263 56007 60001 333
AAXX 12121 40794 NIL
AAXX 12121 40812 11930 02404 10182 20040 39809 40188 56013 60001 70600 333
AAXX 12121 40829 12960 03307 10150 21039 39652 40232 55002 60001 333
AAXX 12121 40833 11930 03006 10164 20020 30176 40209 57021 60001 70600 333
AAXX 12121 40835 12960 00000 10194 21005 39356 40195 55013 60001 333
AAXX 12121 40845 11950 03309 10160 20107 30193 40198 57013 60001 70700 91145 333
AAXX 12121 40882 12560 21403 10256 20142 30123 40158 56012 60001 81202 333 81830
AAXX 12121 40889 12560 10608 10246 20200 30152 40157 56008 60001 81300 222// 00263 20302 333 81930
AAXX 12121 40890 11530 21505 10240 20165 30138 40146 56010 60001 70500 82500 222// 00240 20301 333 82625
AAXX 12121 40893 12964 22505 10262 20082 30139 40145 57014 60001 80002 222// 00220 20401 333 82068
AAXX 12121 40897 NIL
AAXX 12121 40700 12960 32404 10128 20002 30180 40271 56004 60001 83030 333 83360
AAXX 12121 40723 12960 00000 10046 21010 38990 40300 55004 60001 333
AAXX 12121 40726 12660 80000 10002 21043 38721 40306 57008 60001 8252/ 333 82635 88458
AAXX 12121 40727 11657 43406 10002 21030 38535 40314 56015 60001 70510 81101 333 81840 84070
AAXX 12121 40734 12970 61202 10124 20065 30283 40258 56007 60001 80006 333 86270
AAXX 12121 40737 12960 40404 10132 20065 30243 40262 55003 60001 80006 333 84268
AAXX 12121 40741 12560 61303 10058 20026 39988 40337 56007 60001 86700 333 82725 84635
AAXX 12121 40780 12970 12704 10142 21113 38719 40223 55010 60001 80001 333 81070
AAXX 12121 40791 12962 03002 10144 21043 39427 40265 56008 60001 333
AAXX 12121 40792 12970 03006 10090 21079 38778 40263 56007 60001 333
AAXX 12121 40794 NIL
AAXX 12121 40812 11930 02404 10182 20040 39809 40188 56013 60001 70600 333
AAXX 12121 40829 12960 03307 10150 21039 39652 40232 55002 60001 333
AAXX 12121 40833 11930 03006 10164 20020 30176 40209 57021 60001 70600 333
AAXX 12121 40835 12960 00000 10194 21005 39356 40195 55013 60001 333
AAXX 12121 40845 11950 03309 10160 20107 30193 40198 57013 60001 70700 91145 333
AAXX 12121 40882 12560 21403 10256 20142 30123 40158 56012 60001 81202 333 81830
AAXX 12121 40889 12560 10608 10246 20200 30152 40157 56008 60001 81300 222// 00263 20302 333 81930
AAXX 12121 40890 11530 21505 10240 20165 30138 40146 56010 60001 70500 82500 222// 00240 20301 333 82625
AAXX 12121 40893 12964 22505 10262 20082 30139 40145 57014 60001 80002 222// 00220 20401 333 82068
AAXX 12121 40897 NIL
AAXX 12121 40700 12960 32404 10128 20002 30180 40271 56004 60001 83030 333 83360
AAXX 12121 40723 12960 00000 10046 21010 38990 40300 55004 60001 333
AAXX 12121 40726 12660 80000 10002 21043 38721 40306 57008 60001 8252/ 333 82635 88458
AAXX 12121 40727 11657 43406 10002 21030 38535 40314 56015 60001 70510 81101 333 81840 84070
AAXX 12121 40734 12970 61202 10124 20065 30283 40258 56007 60001 80006 333 86270
AAXX 12121 40737 12960 40404 10132 20065 30243 40262 55003 60001 80006 333 84268
AAXX 12121 40741 12560 61303 10058 20026 39988 40337 56007 60001 86700 333 82725 84635
AAXX 12121 40780 12970 12704 10142 21113 38719 40223 55010 60001 80001 333 81070
AAXX 12121 40791 12962 03002 10144 21043 39427 40265 56008 60001 333
AAXX 12121 40792 12970 03006 10090 21079 38778 40263 56007 60001 333
AAXX 12121 40794 NIL
AAXX 12121 40812 11930 02404 10182 20040 39809 40188 56013 60001 70600 333
AAXX 12121 40829 12960 03307 10150 21039 39652 40232 55002 60001 333
AAXX 12121 40833 11930 03006 10164 20020 30176 40209 57021 60001 70600 333
AAXX 12121 40835 12960 00000 10194 21005 39356 40195 55013 60001 333
AAXX 12121 40845 11950 03309 10160 20107 30193 40198 57013 60001 70700 91145 333
AAXX 12121 40882 12560 21403 10256 20142 30123 40158 56012 60001 81202 333 81830
AAXX 12121 40889 12560 10608 10246 20200 30152 40157 56008 60001 81300 222// 00263 20302 333 81930
AAXX 12121 40890 11530 21505 10240 20165 30138 40146 56010 60001 70500 82500 222// 00240 20301 333 82625
AAXX 12121 40893 12964 22505 10262 20082 30139 40145 57014 60001 80002 222// 00220 20401 333 82068
AAXX 12121 40897 NIL
AAXX 12124 61968 16/// /1204 10316 20229 40082 60001 333 59003 90710 91109 555 60005
AAXX 12124 60353 12560 52616 10185 20108 40220 50005 60001 84980 333 0//00 83820 81926 83630 91837 95900
AAXX 12124 60367 NIL
AAXX 12124 60369 11559 61704 10171 20074 40245 51007 60021 70186 85802 333 0//27 85826 91836
AAXX 12124 60401 NIL
AAXX 12124 60403 12670 52813 10182 20062 40229 58006 60001 84230 333 0//00 84836 95900
AAXX 12124 60425 12562 62413 10156 20123 40251 50003 60001 85202 333 0//00 85826 95900
AAXX 12124 60461 12570 52408 10174 20089 40264 50001 60001 85200 222// 20101 333 85823 91838 95900
AAXX 12124 60467 12660 52810 10149 20076 40241 58003 60001 83231 333 0//00 83833 95900
AAXX 12124 60492 12565 52713 10177 20135 40253 50000 60001 84202 333 84830 95900
AAXX 12124 60515 12560 43312 10160 20059 40247 58007 60001 84200 333 0//00 84830 95900
AAXX 12124 60517 12565 42705 10189 20107 40275 50000 60001 81232 333 0//00 81820 95900
AAXX 12124 60522 12575 12208 10159 20060 40273 58002 60001 81800 333 0//00 81826 95900
AAXX 12124 60557 12470 53412 10096 20041 38937 48577 51004 60001 82200 333 82710 83830 95970
AAXX 12124 60563 12560 43316 10143 20070 39364 48582 50003 60001 82102 333 0//00 82830 83073
AAXX 12124 60603 12960 43508 10190 20023 40232 50004 60001 82032 333 82360
AAXX 12124 60638 12960 6//// 10197 20034 40226 58006 60001 80006 333 0//00 86273
AAXX 12124 60686 12960 20516 10239 21009 40204 58008 60001 80002 333 0//00 82073
AAXX 12121 22892 41598 81102 11004 21034 30086 40102 58003 70281 8692/ 333 86920
AAXX 12121 28216 41698 81403 11126 21149 39893 40190 52001 77177 885//
AAXX 12121 28428 41996 81603 11138 21154 30026 40224 57009 71022 83031
AAXX 12121 28451 42997 21502 11168 21187 30113 40284 57004 80001
AAXX 12121 28541 42983 21104 11116 21151 39728 40245 57004 80001
AAXX 12121 28655 42998 00000 11188 21206 30056 40298 58006
AAXX 12121 28756 42998 01302 11224 21245 30150 40314 53003
AAXX 12121 29557 32998 01001 11197 21209 30111 40403 52011 333 11163
AAXX 12121 29625 12998 00603 11181 21187 30152 40346 54000 69922 333 11138
AAXX 12121 29813 32999 10602 11180 21199 30117 40311 53001 80002 333 11146
AAXX 12121 29822 32997 00201 11223 21242 30154 40334 57001 333 11156
AAXX 12121 29915 31996 30202 11193 21205 30144 40317 53003 71000 80002 333 11168
AAXX 12121 36020 32998 70503 11179 21191 30093 40310 53006 82031 333 11150
AAXX 12121 23226 41960 81904 11087 21136 39941 40164 53003 70372 86031
AAXX 12121 23701 41336 81401 10101 21121 39995 40130 53002 77372 8802/ 333 88507
AAXX 12121 28909 41496 81505 11088 21103 30064 40169 57009 77173 8872/ 333 88711
BBXX 46249 12121 99338 71197 46/// ///// 1//// 91215 22200 00144 11502 20901 323// 41502 70010
BBXX 46248 12121 99461 71247 46/// ///// 1//// 91204 22200 00087 11305 20803 329// 41303 70023
BBXX 46241 12121 99330 71173 46/// ///// 1//// 91141 22200 00149 11502 20501 326// 41502 70010
BBXX 51204 12121 99213 71581 46/// ///// 1//// 91152 22200 00247 10702 20702 327// 41101 70011
BBXX 41115 12121 99184 70673 46/// ///// 1//// 91205 22200 10902 20902 301// 41101 70008
AAXX 12121 56146 32980 03403 11011 21146 36733 52014 333 00253
AAXX 12121 56444 32980 02701 11025 21072 36804 52009 333 00052
AAXX 12121 56492 32970 00901 10087 20009 39842 40259 52018 333 05401
AAXX 12121 56571 32670 70701 10086 20028 38401 52009 874// 333 05202
AAXX 12121 57799 32975 02902 10073 21027 30174 40267 52010
AAXX 12121 57866 32980 00403 10085 21081 30050 40263 52007
AAXX 12121 57957 32866 70204 10113 21070 30041 40244 52006 875//
AAXX 12121 57993 32970 02201 10090 21011 30083 40255 52013
AAXX 12121 58027 32961 00000 10004 21033 30237 40291 52010
AAXX 12121 58141 31940 02901 10018 21031 30276 40296 52008 70500
AAXX 12121 58265 31940 02701 10027 21006 30290 40298 52010 71000
AAXX 12121 58472 32964 03605 10068 20019 30190 40287 52009
AAXX 12121 58477 32961 00201 10033 21003 30238 40284 52008
AAXX 12121 58527 32965 00000 10057 21012 30187 40266 52004
AAXX 12121 58633 31958 00203 10056 20002 30171 40276 52008 70500
AAXX 12121 58666 31950 00208 10094 20044 30167 40272 52016 70500
AAXX 12121 58725 32965 01801 10071 20010 39984 40257 52015
AAXX 12121 58921 32964 02001 10097 20061 39987 40243 52012
AAXX 12121 59082 32963 01401 10093 20012 30083 40235 52012
AAXX 12121 59211 32960 23601 10107 20063 30009 40222 52010 82040
AAXX 12121 59265 32960 00202 10132 20021 30072 40214 52012
AAXX 12121 59293 32975 00204 10140 21052 30130 40218 52013
AAXX 12121 59501 32970 00901 10156 20063 30175 40196 52013
AAXX 12121 59663 32968 20404 10151 21002 30092 40202 52017 80002
AAXX 12121 59838 32965 30406 10172 20086 30175 40185 52017 80002
AAXX 12121 59948 32470 70905 10157 20130 39694 40189 52015 81102
AAXX 12121 59981 11568 80705 10230 20203 30139 40146 52019 69961 70060 888//
BBXX 46240 12121 99366 71219 46/// ///// 1//// 91212 22200 00122 11501 21001 301// 41501 70007
BBXX 46237 12121 99378 71226 46/// ///// 1//// 91210 22200 00113 11504 21003 326// 41503 70021
BBXX 46223 12121 99335 71178 46/// ///// 1//// 91200 22200 00155 11502 21001 325// 41502 70009
AAXX 12121 48892 01497 81402 10245 20242 30088 40093 52030 60864 78098 889// 333 10288 58025 60632 70857 8189 4 84995 84697 96160
AAXX 12121 48839 32997 00207 10164 20064 30128 40195 53008 222// 00191 2//02 333 00/// 10175 59021 70000
AAXX 12121 48826 32997 02502 10164 20078 30058 40197 53012 333 00014 10203 59018 70000
AAXX 12121 48830 32998 00000 10114 20058 39889 40206 52008 333 00010 10182 59017 70000
AAXX 12121 48808 32498 10000 10118 20081 39917 40210 52010 81100 333 00010 10190 59011 70000 81894
AAXX 12121 48887 32598 71802 10262 20202 30103 40109 53014 875// 333 00027 10293 58007 70000 81895 87697
AAXX 12121 48877 32598 63606 10237 20176 30124 40129 53020 868// 333 00024 10252 59011 70000 83895 86697
AAXX 12121 48870 32498 83405 10212 20166 30141 40148 53014 888// 333 00021 10215 59015 70000 83894 88696
AAXX 12121 48920 01498 83416 10262 20248 30050 40053 50002 60054 70382 889// 222// 00281 //06 333 10262 59024 60042 70048 82894 83995 85697 91120 91534 555 20253
BBXX 46231 12121 99327 71174 46/// ///// 1//// 91154 22200 00156 11502 21001 326// 41502 70012
BBXX 46222 12121 99336 71183 46/// ///// 1//// 91156 22200 00155 11502 21001 326// 41502 70009
BBXX 46242 12121 99332 71174 46/// ///// 1//// 91158 22200 00147 11501 21001 322// 41501 70007
BBXX 46211 12121 99469 71242 46/// ///// 1//// 91206 22200 00082 11304 20803 328// 41302 70019
AAXX 12121 23219 41498 82508 11058 21076 30034 40143 58005 73632 8563/
AAXX 12121 22271 41498 71907 11994 21922 39978 49988 52007 73683 87300
AAXX 12124 87222 01550 81408 10197 20160 39626 40135 52018 60164 76096 887// 333 10323 20191 56599 60162 84730 88735
AAXX 12124 43400 NIL
AAXX 12124 43404 21470 8//// 10263 20212 30083 40093 70282 8372/ 333 00024 10294 58006 69967 83818 88458
AAXX 12124 43410 NIL
AAXX 12124 43413 21460 70512 10274 20236 30079 40083 72582 8697/ 333 00024 10281 58007 69907 84716 83920
AAXX 12124 43415 21470 53602 10260 20243 39975 40083 70282 82201 333 00023 10291 58001 69937 82818 83078
AAXX 12124 43418 21470 70502 10257 20245 3//// 4//// 72022 86936 333 10300 58/// 69907 85818 81920 85280
AAXX 12124 43421 21460 83602 10259 20250 39980 40082 78098 879// 333 00024 10299 58000 60057 87818 82920
AAXX 12124 43422 21469 702// 10252 20243 39952 40082 79599 8597/ 333 00024 10300 58000 60137 83712 83920 85460
AAXX 12124 43424 21475 73603 10250 20244 30065 40068 79582 8797/ 333 00023 10302 58000 60057 82710 85815 81918 86458
AAXX 12124 43436 21470 73602 10264 20250 30072 40074 72582 84151 333 00023 10290 59005 60037 84818 85080
AAXX 12124 43441 21470 836// 10256 20239 39939 40068 70198 8692/ 333 00020 10319 58000 60057 84818 82920 85460
AAXX 12124 43444 21470 70000 10247 20229 39547 40078 78098 86926 333 10295 58001 69937 85818 81920
AAXX 12124 43467 21462 80507 10250 20244 30073 40078 79598 8692/ 333 10325 58004 60207 85814 82918 88460
AAXX 12124 43473 21460 60903 10168 20159 38115 48479 72582 862// 333 00013 10207 58003 69937 86810
AAXX 12124 43475 22470 60503 10282 20251 30072 40081 84901 333 10315 59001 60007 84818 81919 84080
AAXX 12124 43476 21460 80903 10195 20191 38753 48498 78098 8622/ 333 10233 59003 60087 86811 88458
AAXX 12124 43479 21460 70901 10220 20209 39243 72582 8697/ 333 10274 59004 60017 85816 82920
AAXX 12124 43486 21460 83202 10230 20224 39989 40083 79598 8692/ 333 10/// 58006 60557 83812 83920 88450
AAXX 12124 43495 21466 7//// 10280 20247 30061 40077 71798 86930 333 10300 59002 60007 84817 83919 83358
AAXX 12124 43497 21474 60508 10280 20249 30053 40070 70282 83970 333 1//// 58001 69907 82818 81920 83358
AAXX 12121 78310 12/60 10703 10216 20206 30165 40175 53006 60001 81200 333 10292 20205 30/// 56900 58017 818// 92023
AAXX 12121 78315 12/70 10000 10196 20189 30110 40176 53010 60001 81240 333 10286 20185 30/// 50810 56990 58017 818//
AAXX 12121 78318 11559 10101 10198 20180 30175 40179 53013 60001 70500 81800 333 10277 20195 32/// 56900 58020 81821
AAXX 12121 78322 11958 03602 10204 20192 30160 40177 53010 60001 71000 333 10290 20192 30/// 58012
AAXX 12121 78324 11410 20503 10234 20226 30152 40163 53008 60001 70500 82240 333 10270 20232 30/// 56190 58013 82816 555 10503
AAXX 12121 78325 11560 30901 10217 20198 30120 40178 51010 60001 70500 83200 333 10269 20212 30/// 55077 56200 58016 83820 555 10901
AAXX 12121 78328 11/61 30803 10236 20199 30171 40/// 53012 60001 70500 83800 333 10270 20233 30/// 50550 56900 58011 70005 828// 92417
AAXX 12121 78333 12/10 10301 10202 20195 30158 40165 51008 60001 81102 333 10284 20199 31/// 56909 58008 818//
AAXX 12121 78344 11563 30301 10205 20202 30114 40163 53009 60001 70500 83202 333 10294 20202 31/// 50440 56909 57813 58010 83820
AAXX 12121 78345 12465 60202 10204 20201 30155 40158 53007 60001 81801 333 10290 20198 30/// 56900 58011 81816 85073
AAXX 12121 78348 11556 20502 10229 20207 30114 40166 53010 60021 70580 81842 333 10270 20225 31/// 50404 56996 57844 58010 70020 81820 555 29927
AAXX 12121 78349 11556 33201 10196 20187 30060 40170 53009 60001 71000 81201 333 10278 20185 30/// 50104 56909 57885 58006 81820 83070
AAXX 12121 78351 12550 30103 10194 20187 30141 40143 53006 60001 83500 333 10296 20187 30/// 56900 58002 70001 83826
AAXX 12121 78353 12570 30701 10238 20213 30143 40166 53011 60001 83801 333 10275 20235 31/// 50254 56200 58009 70026 82820 555 10703
AAXX 12121 78355 12570 20101 10213 20206 30019 40160 51011 60001 81202 333 10269 20200 30/// 55061 56909 58010 79999 81820
AAXX 12121 78358 11530 30000 10209 20202 30130 40145 51005 60001 71000 83800 333 10283 20204 31/// 50104 56900 58004 70023 82823
AAXX 12121 78360 12/70 50302 10223 20206 30130 40142 51011 60001 81200 333 10308 20218 32/// 56909 58010 70103 818// 840// 92012
AAXX 12121 78363 11958 50000 10203 20198 30018 40133 53009 60001 71011 80004 333 10276 20203 31/// 50180 56009 58006 70022 85071
AAXX 12121 78365 11562 40908 10259 20211 30143 40150 53005 60001 70511 84200 333 10270 20229 32/// 56299 57835 58006 70051 84820 92045 555 10903
AAXX 12121 78369 11568 40304 10255 20209 30129 40138 52009 60001 70500 83201 333 10272 20240 31/// 55059 56109 57866 58009 70059 83820 92043 555 10303
AAXX 12124 62309 32560 40408 10191 20111 40242 57021 84500
AAXX 12124 62325 32560 23402 10200 20106 40244 57020 82100
AAXX 12124 62332 32560 50309 10186 20120 40237 57017 85100
AAXX 12124 62387 31930 03611 10204 20074 40203 57025 70300
AAXX 12124 62459 32960 03015 10210 20087 40189 57021
AAXX 12124 62452 32960 00107 10176 21010 40223 57021
AAXX 12124 62476 32960 00118 10248 20155 40147 57022
AAXX 12124 62458 32960 03011 10214 20121 40182 57026
AAXX 12124 62420 32960 00109 10216 20072 40219 57024
AAXX 12124 62432 32960 03105 10202 20057 40212 57028
AAXX 12124 62435 32960 03607 10207 20043 40194 57026
AAXX 12124 62455 32960 03111 10206 20099 40200 52026
AAXX 12124 62309 32560 40408 10191 20111 40242 57021 84500
AAXX 12124 62325 32560 23402 10200 20106 40244 57020 82100
AAXX 12124 62332 32560 50309 10186 20120 40237 57017 85100
AAXX 12124 62387 31930 03611 10204 20074 40203 57025 70300
AAXX 12124 62459 32960 03015 10210 20087 40189 57021
AAXX 12124 62452 32960 00107 10176 21010 40223 57021
AAXX 12121 50353 32970 00000 11236 21275 30004 40249 52007
AAXX 12121 50557 32970 02001 11219 21250 39942 40278 52001
AAXX 12121 50756 31958 02001 11179 21195 39970 40296 54000 70400
AAXX 12121 50949 32965 02001 11122 21178 30117 40301 54000
AAXX 12121 50963 32965 02201 11155 21183 30142 40291 52010
AAXX 12121 50978 32980 02906 11108 21187 39908 40278 52019
AAXX 12121 51087 32980 21601 11163 21194 39290 40350 52002 80002 333 05451
AAXX 12121 51156 32980 73201 11073 21146 38726 40299 52005 80002 333 05404
AAXX 12121 51644 32970 22701 11030 21085 38980 40303 57003 80002 333 05600
AAXX 12121 51656 32975 02201 11036 21086 39155 40301 54000 333 05600
AAXX 12121 51886 32980 00702 11087 21266 37105 52001 333 05351
AAXX 12121 52602 32980 03201 11126 21286 37268 57002 333 05300
AAXX 12121 52713 32980 00702 11086 21276 36905 57002 333 05201
AAXX 12121 52754 32980 03204 11106 21282 36775 52012 333 05203 91117 91529
AAXX 12121 52818 32980 01401 11061 21221 37237 57001 333 05302
AAXX 12121 52836 32980 01402 11128 21271 36902 52004 333 05251
AAXX 12121 52955 32980 12001 11125 21262 36970 52016 80002 333 05102
AAXX 12121 53068 32980 00703 11187 21214 39076 40330 57011 333 05756
AAXX 12121 53276 32980 02002 11099 21156 38876 40296 57005
AAXX 12121 54135 32975 01801 11082 21175 30079 40316 52001
AAXX 12121 54236 32960 02001 11077 21147 30205 40317 52003
AAXX 12121 54539 32970 00901 10004 21050 30302 40317 52005
AAXX 12121 54662 32975 03601 11005 21107 30198 40317 52004
AAXX 12121 54753 32960 00701 10010 21024 30300 40307 52009
AAXX 12121 54857 31950 03602 10048 20013 30206 40301 52010 71000
AAXX 12121 57067 32965 72501 10001 21047 39587 40300 52016 80002
AAXX 12121 57178 32962 20402 10057 21031 30122 40287 52014 82030
AAXX 12121 57245 32965 00901 10046 21016 39906 40271 52015 333 05351
AAXX 12121 57297 32962 02701 10045 21028 30137 40282 52011
AAXX 12121 48803 32497 60000 10156 20129 30077 40193 52004 868// 333 00015 10210 59022 70000 82894 86696
AAXX 12124 60101 32458 52405 10171 20122 40293 50007 85200 333 83816
AAXX 12124 60115 32570 22408 10170 20097 40262 56006 82200 333 82826
AAXX 12124 60230 15957 20206 10184 20097 40257 50004 60001 80002 333 82070
AAXX 12121 89062 42480 70113 10007 21024 39647 49687 57021 875// 333 10027 21002 83620 84640
AAXX 12124 40656 42960 13208 10158 21002 40228 57022 80002
AAXX 12124 40664 42960 03005 10166 21027 40235 57023
AAXX 12124 40670 42960 23303 10163 20019 40241 57015 80002
AAXX 12124 40672 42960 03305 10166 20017 40249 58020
AAXX 12124 40690 42960 02908 10180 20020 40218 56017
AAXX 12124 40676 41956 02608 10175 20002 40231 56015 70700
AAXX 12124 40680 41958 03406 10182 20054 40211 57014 70600
AAXX 12124 40691 42960 02406 10182 20021 40232 57014
AAXX 12124 40604 42960 50000 10122 20048 40233 58014 80005
AAXX 12124 40608 42960 52705 10138 20047 40238 57017 80005
AAXX 12124 40623 42960 42401 10149 21003 40220 58019 80004
AAXX 12124 40629 42960 32704 10142 20057 40267 57016 80002
AAXX 12124 40634 42960 32905 10146 20050 40229 57018 83030
AAXX 12124 40637 42960 02503 10175 0080 40235 57004
AAXX 12124 40621 42960 23003 10152 21008 40246 58010 80001
AAXX 12124 40622 42560 42702 10170 21015 40186 57010 84400
AAXX 12124 40631 42960 53203 10143 20006 40247 58006 80006
AAXX 12124 40642 42960 30000 10150 21073 40255 57015 80001
AAXX 12124 40650 42960 23504 10155 20002 40243 57016 80002
BBXX 41113 12121 99284 70805 46/// ///// 1//// 91151 22200 00220 10903 20903 308// 41101 70017
BBXX 41112 12121 99307 70813 46/// ///// 1//// 91151 22200 00163 10605 20605 309// 41101 70026
BBXX 51205 12121 99210 71564 46/// ///// 1//// 91218 22200 00242 11107 21005 309// 41105 70037
BBXX 46114 12121 99364 71222 46/// ///// 1//// 91204 22200 00122 11504 21002 328// 41504 70021
AAXX 12124 40582 31950 03418 10181 21034 40217 56017 70700 333 00021 55300 00578 10000 21420 30453 41114 51507 61874 55407 40967 90400 91023 91127 91217 91315
AAXX 12124 41150 NIL
AAXX 12124 41168 NIL
AAXX 12124 41170 31957 13315 10195 20116 30176 40189 70600 80001 333 58000 81072
AAXX 12124 41176 NIL
AAXX 12124 41184 NIL
AAXX 12124 41194 NIL
AAXX 12124 41196 NIL
AAXX 12124 41198 NIL
AAXX 12124 41210 NIL
AAXX 12124 41216 NIL
AAXX 12124 41217 NIL
AAXX 12124 41218 NIL
AAXX 12124 41226 NIL
AAXX 12124 41244 NIL
AAXX 12124 41246 32965 20508 10248 20167 30151 40155 80001 333 58005 82070
AAXX 12124 41254 NIL
AAXX 12124 41256 32565 23307 10249 20158 30147 40157 82500 333 58002 82625
AAXX 12124 41258 NIL
AAXX 12124 41268 32960 20111 10258 20149 30133 40149 80001 333 59002 82070
AAXX 12124 41312 36/// /3415 10280 20069 30092 40131 333 0E/// 58004
AAXX 12124 41314 32960 43211 10231 20051 39659 40160 80001 333 58003 84075
AAXX 12124 41316 32960 53415 10282 20052 30110 40136 80001 333 58003 85075
AAXX 12124 41404 12560 10411 10190 21058 37862 48504 60002 81100 333 58001 81830
AAXX 12124 41407 12970 10310 10200 21001 38955 48514 60002 80001 333 58010 81068
AAXX 12124 41431 12560 11820 10298 20228 30099 40112 60002 81100 333 59003 81830
AAXX 12124 41466 12560 22106 10244 20014 38558 48460 60002 82200 333 59002 82820
AAXX 12124 41477 12960 01721 10282 20198 60002 333
AAXX 12124 41480 12562 11213 10283 20161 30128 40131 60002 81500 333 59002 81620
BBXX 63110 12123 99595 10015 41496 52530 10056 20022 49851 78186 858// 22200 10905 70025
BBXX 62303 12124 99516 70051 46/// /2219 10099 20032 40040 58012 22200 00116 10606 70031
BBXX 64045 12124 99591 70117 46/// /2312 10066 20004 49822 58013 22200 00102 11012 70060
BBXX 62301 12124 99524 70047 46/// /2317 10090 20039 40018 58014 22200 00106 10605 70023
BBXX 62105 12124 99554 70122 46/// /1528 10076 20045 49812 58095 22200 00108 11011 70055 333 90710 91145
BBXX 62081 12124 99510 70134 46/// ///// 10131 20109 49900 56050 22200 00119 11014 70070
BBXX 62001 12124 99452 70050 46/// /2516 10132 20068 40198 58002 22200 00150 11111 70057
BBXX 62163 12124 99475 70084 46/// /2224 10121 20075 40112 58032 22200 00133 11012 70060 333 90710 91132
BBXX 62029 12124 99487 70125 46/// /2232 10129 20119 49992 56058 22200 00136 10914 70071 333 90710 91145
BBXX 64046 12124 99606 70049 46/// /2618 10066 20035 49794 50000 22200 00095 11013 70063
BBXX 62442 12124 99490 70164 46/// /2427 1//// 2//// 49962 58011 22200 00130 333 90710 91136
BBXX DPUW 12124 99374 10031 41598 62917 10185 20118 40250 54000 70322 85577 22224 00190 20303 30000 4//// 5//// 80145
BBXX AMOUK03 12124 99537 70003 46/// ///// 10056 20036 39968 4//// 5//// 91150
BBXX AMOUK06 12124 99509 70014 46/// ///// 10097 20045 30056 40079 52012 91150
BBXX AMOUK08 12124 99501 70061 46/// ///// 10114 20057 30061 40069 54002 91150
BBXX AMOUK21 12124 99565 70068 46/// ///// 10075 20016 39911 4//// 5//// 91150
BBXX AMOUK14 12124 99535 70030 46/// ///// 10073 20029 39976 40012 52011 91150
BBXX AMOUK19 12124 99571 70021 46/// ///// 10056 2//// 39907 49910 52006 91150
BBXX AMOUK02 12124 99533 70062 46/// ///// 10067 20016 39953 4//// 5//// 91150
BBXX AMOUK10 12124 99508 70011 46/// ///// 10100 20040 30083 40090 5//// 91150
BBXX AMOUK05 12124 99537 70003 46/// ///// 10052 20027 39965 40007 52017 91150
BBXX AMOUK27 12124 99581 70058 46/// ///// 1//// 2//// 39854 49856 52007 91150
BBXX 63056 12124 99597 10016 47498 /2319 10058 20017 49846 58009 740// 22200 10805 70027
BBXX 62111 12124 99580 70003 46/// /2723 10066 20009 49907 50008 22200 10605 70025
BBXX PJAI 12124 99581 70014 47598 /2421 10077 20015 49886 50004 700// 22200
BBXX 62112 12124 99584 70002 47598 /2521 10066 20019 49885 50008 700// 22200
BBXX 64041 12124 99607 70026 47598 /2317 10060 20020 49804 57006 700// 22200 11110 70050
BBXX 63055 12124 99606 10016 47698 /1913 10067 20022 49838 57016 700// 22200 10805 70026
BBXX 63108 12124 99608 10017 47999 /2117 10058 20010 49834 57013 700// 22200 11005 70025
BBXX 63106 12124 99610 10017 46/// /1909 10059 49841 58013 22200
BBXX 63105 12124 99610 10017 47798 ///// 10065 20023 49840 58013 700// 22200
BBXX 63113 12124 99610 10017 46/// /1909 10062 20021 49840 57015 22200 11006 70031
BBXX 63112 12124 99611 10010 46/// /2010 10069 20009 49830 57019 22200 11007 70036
BBXX 63107 12124 99611 10017 46/// /1910 10060 49839 57013 22200
BBXX 63101 12124 99612 10009 46/// /2011 10062 20025 49833 57020 22200
BBXX 63103 12124 99612 10011 46/// /2012 10064 20015 49834 57019 22200 11107 70036
BBXX 63104 12124 99612 10016 47499 /1911 10060 20019 49839 57015 700// 22200
BBXX 63117 12124 99613 10011 47599 /1910 10063 20006 49837 57017 730// 22200
BBXX 63115 12124 99616 10013 47498 /1609 10121 20031 49834 57017 700// 22200 10908 70041
BBXX MWYG6 12124 99603 70040 47998 /2424 10075 700// 22200
BBXX 62164 12124 99572 10008 47598 /2415 10087 20032 49923 52011 700// 22200 00098 10606 70031
BBXX PJGO 12124 99571 10022 47598 /2515 10075 20034 49922 53003 700// 22200
BBXX 62133 12124 99571 10009 46/// /2423 10071 20016 49917 51009 22200
BBXX 62119 12124 99570 10019 47598 /2722 10077 20022 49931 52010 700// 22200 10605 70027
BBXX 62152 12124 99570 10018 47/97 /2415 10072 20021 49931 52007 700// 22200 10506 70029
BBXX 62154 12124 99564 10022 46/// /2521 10071 20023 49937 52005 22200
BBXX 62120 12124 99564 10021 47698 /2622 10072 20027 49937 53005 700// 22200
BBXX 62132 12124 99564 10020 46/// /2816 10075 20023 49948 52012 22200
BBXX 62123 12124 99563 10022 47698 /2523 10075 20030 49940 52006 700// 22200
BBXX 62165 12124 99540 10009 47998 /2527 10064 20027 40004 51009 700// 22200 10504 70019
BBXX 62127 12124 99540 10007 47999 ///// 10062 20023 40003 52013 700// 22200 10503 70017
BBXX 62131 12124 99539 10012 46/// /24// 10067 20031 40004 52012 22200
BBXX 62149 12124 99537 10011 47998 /2324 10066 20029 40013 51014 700// 22200 10503 70017
BBXX 62148 12124 99536 10015 46/// /2324 10065 20029 40021 51013 22200
BBXX 62150 12124 99536 10007 47998 /2316 10057 20022 40023 51011 700// 22200 10402 70010
BBXX 62121 12124 99535 10027 46/// /2523 10066 20023 40018 51012 22200
BBXX 62144 12124 99534 10017 47497 /2426 10060 20030 40029 52012 700// 22200 10504 70022
BBXX 62145 12124 99531 10028 47498 /2320 10062 20022 40028 51009 700// 22200 10504 70018
BBXX 62142 12124 99530 10021 46998 /2622 10065 20022 40027 51010 22200 10403 70014
BBXX 63057 12124 99592 10015 47497 /2614 10056 20031 49867 53001 700// 22200 10806 70029
BBXX 62128 12124 99587 10014 47598 /2524 10067 20017 49875 58002 700// 22200 10705 70027
BBXX 62129 12124 99584 10003 46/// ///// 10067 20023 49892 51009 22200
BBXX 62113 12124 99584 10002 47598 /2423 10068 20021 49890 51010 700// 22200
BBXX ZQSD5 12124 99583 10007 46/// /2523 10072 20018 49892 52006 22200 10708 70041
BBXX 62114 12124 99583 10000 46/// /2425 10066 20019 49882 50006 22200
BBXX 62134 12124 99580 10014 47598 /2621 10072 20019 49903 52010 700// 22200 10606 70028
BBXX 62102 12124 99579 10018 46/// /2619 10070 20023 49902 53007 22200 10605 70026
BBXX 62117 12124 99579 10000 47598 /2521 10077 20026 49895 51007 700// 22200 10605 70025
BBXX 62143 12124 99577 10018 47598 /2721 10072 20008 49917 51014 700// 22200 10605 70027
BBXX 62118 12124 99577 10009 47598 /2423 10087 20020 49900 51008 700// 22200 10605 70025
BBXX 62155 12124 99577 10007 47598 /2522 10073 20020 49912 51009 700// 22200 10605 70025
BBXX 62116 12124 99576 10011 47598 /2521 10075 20016 49905 51010 700// 22200 10605 70027
BBXX 62104 12124 99574 10013 47998 /2620 10083 20021 49910 51008 700// 22200
BBXX 62153 12124 99573 10020 47598 /2512 10074 20026 49916 53007 700// 22200 10606 70028
BBXX 62122 12124 99573 10016 47598 /2520 10078 20020 49923 52009 700// 22200 10605 70027
BBXX 62140 12124 99573 10013 46/// /26// 10075 20021 49911 52012 22200
BBXX 62146 12124 99572 10021 47/98 /2520 10072 20012 49926 53006 700// 22200 10606 70028
BBXX AMOUK09 12124 99507 10008 46/// ///// 10098 20031 30067 40085 52011 91150
BBXX DMDZ 12123 99340 70096 41698 30513 10175 20143 40300 52030 70200 83162 22253 04180 20601 333// 41001 5//// 80155
BBXX 62094 12124 99517 70067 46/// /21// 10102 2//// 40018 58029 22200 00113 10605 70025
BBXX 62170 12124 99514 10020 46/98 /2626 10077 20040 40070 51010 22200 00116 10501 70007 333 90710 91133
BBXX 62103 12124 99499 70029 46/99 /2626 10101 20042 40098 51010 22200 00128 10906 70029 333 90710 91138
BBXX 62304 12124 99511 10018 46/99 /2723 10074 20035 40077 52010 22200 00117 10502 70011 333 90710 91133
BBXX 62305 12124 99504 10000 46/98 /2725 10102 20036 40099 51009 22200 00126 10703 70015 333 90710 91131
BBXX 62159 12124 99605 10017 41597 61820 10069 20031 49821 57020 76162 863// 22200 11605 70025
BBXX MCZN2 12124 99511 70062 41297 82037 10105 20085 40046 56010 70222 887// 22243 04120 20103 32000 40106 50000 80095
BBXX DRMX 12123 99437 10081 41598 32420 10145 20132 40117 56018 70181 8/800 22251 02172 20403 322// 40503 5//// 80138
BBXX 62169 12123 99614 10014 41399 61510 10060 20055 49842 57010 72582 86200 22200 20102 324// 40606 5//// 80058
BBXX TBWUK30 12123 99362 70126 41398 31403 10170 20135 40336 54000 70122 8/260 22284 00190 20000 32802 41007 50806 80150
BBXX VRBI2 12124 99467 70072 41297 52325 10140 20056 40154 70311 85772 22214 00180 20508 3//// 4//// 5//// 80100
BBXX 62095 12124 99530 70159 46/// /2427 10117 20075 49800 57021 22200 00116 10811 70057 333 90710 91142
BBXX 62094 12124 99517 70067 46/// /2124 10102 20039 40018 58029 22200 00113 10605 70024 333 90710 91133
BBXX 62107 12124 99501 70061 46/// /2229 10106 20042 40067 58023 22200 00120 11311 70055 333 90710 91137
BBXX 62027 12124 99491 70022 46/// /2719 1//// 2//// 40130 52015 22200 00123 12006 302// 70029
AAXX 12124 91945 36/// /3508 10264 20237 30146 40151 56012 333 10292
AAXX 12124 91948 06/// /3604 10225 20191 30078 40181 56012 60001 333 10269 58008 60007 90710 91109 555 60005 13312
AAXX 12121 10015 01460 82712 10076 20059 39978 49988 53005 69931 75865 8687/ 333 31/// 55300 20159 30159 69917 83818 83633 85656 91116 91212
AAXX 12124 67767 NIL
AAXX 12124 67843 41680 60308 10238 20197 38924 48480 72162 83273 333 58002 81930 83835 86458
AAXX 12124 67969 NIL
AAXX 12121 29998 32999 01801 11218 21224 38639 48495 52018 333 11124
AAXX 12121 30385 32999 00000 11319 21337 39685 40283 58004 333 11266
AAXX 12121 30469 329// 00000 11326 21342 39468 40323 53007 333 11201
AAXX 12121 30636 129// 80000 11171 21171 39625 40270 52009 69902 8805/ 333 11165
AAXX 12121 30650 32984 40000 11244 21262 39095 40310 52005 82041 333 11217
AAXX 12121 30664 32999 00000 11310 21328 39229 40336 53006 333 11208
AAXX 12121 30781 32999 00000 11307 21324 39779 40308 53011 333 11186
AAXX 12121 30777 32698 32702 11236 21255 39577 40287 55009 82502 333 11159
AAXX 12121 30844 11599 62702 11140 21146 39243 40261 52012 69932 70172 85801 333 11137 85630
AAXX 12121 30925 118// 83401 11133 21153 39270 40284 52021 69902 70272 83075 333 11072
AAXX 12121 31371 32999 00000 11220 21269 39963 40249 52010 333 11149
AAXX 12121 31388 32984 00000 11279 21291 39939 40230 51001 333 11185 1/134 91202
AAXX 12121 31478 NIL
AAXX 12121 31532 12999 32501 11254 21272 39873 40248 52015 69900 80001 333 11237
AAXX 12121 31594 32999 01801 11264 21282 30071 40259 51007 333 11168
AAXX 12121 31655 32998 01802 11200 21226 30114 40164 52010 333 11132
AAXX 12121 31754 11999 00000 11226 21244 39662 40260 52014 60020 70281 333 11148
BBXX JGQH 12124 99242 11354 41/97 80622 10220 20211 40175 53012 78082 882// 22261 00247 1//06 20503 399// 4//04 70029
BBXX JPBN 12124 99284 11464 41/97 80411 10182 20160 40200 53008 78022 882// 22271 00230 1//03 20301 399// 4//02 70014
BBXX JGQH 12124 99242 11354 41/97 80622 10220 20211 40175 53012 78082 882// 22261 00247 1//06 20503 399// 4//04 70029
BBXX JPBN 12124 99284 11464 41/97 80411 10182 20160 40200 53008 78022 882// 22271 00230 1//03 20301 399// 4//02 70014
AAXX 12121 23929 42979 31403 11138 21173 30214 40285 57005 80001
AAXX 12121 28465 42998 00000 11182 21201 30239 40322 52004
BBXX 51203 12121 99208 71570 46/// ///// 1//// 91213 22200 00247 11201 20901 325// 41201 70007
BBXX 52200 12121 99134 11448 46/// ///// 1//// 91215 22200 00288 10905 20905 308// 41101 70026
BBXX 51201 12121 99217 71581 46/// ///// 1//// 91212 22200 00242 11104 20804 304// 41102 70021
AAXX 12121 28688 41997 20000 11208 21226 30164 40340 52007 70271 80001
AAXX 12121 28791 42998 00401 11205 21217 30176 40335 52006
AAXX 12121 28696 41996 80501 11207 21226 30194 40347 52008 77172 8801/
AAXX 12121 28586 42997 30501 11210 21228 30173 40335 52003 80004
BBXX 44097 12121 99410 70711 46/// ///// 1//// 91202 22200 00126 10801 20801 70005
AAXX 12121 38388 42998 01402 10040 21019 30244 40316 54000 555 1/004
AAXX 12121 38392 42698 72004 10032 21059 30213 40319 53004 85530 333 85648 555 11005
AAXX 12121 38507 NIL
AAXX 12121 38511 42698 71603 10071 20046 30142 40285 57006 87500 555 11007
AAXX 12121 38545 42598 82102 10008 21061 30155 40336 52011 8597/ 555 11003
AAXX 12121 38647 42998 10906 10082 20017 30240 40282 57004 80001 555 10009
AAXX 12121 38656 42698 30902 10062 20003 30205 40317 57006 83080 555 11007
AAXX 12121 38687 41496 82502 10003 21014 30107 40352 52013 71082 885// 333 88617 555 11002
AAXX 12121 38750 42997 00702 10125 20036 30311 40283 54000 555 10012
AAXX 12121 38763 42998 00905 10079 20015 30186 40292 57004 555 11008
AAXX 12121 38774 42898 30902 10082 20011 30112 40308 57002 83040 555 10007
AAXX 12121 38799 42597 70000 10035 21015 30101 40339 58001 87500 555 10007
AAXX 12121 38806 42597 72302 10014 21015 30084 40355 52013 87900 555 11002
AAXX 12121 38880 42797 21304 10071 20004 30249 40307 56007 81530 555 11009
AAXX 12121 38886 42697 71302 10065 20007 30095 40327 54000 87800 555 11008
AAXX 12121 38895 42596 52301 10056 21002 30046 40343 52003 85500 555 11006
AAXX 12121 38911 41497 83002 10025 21015 30052 40357 52009 76062 8472/ 555 11004
AAXX 12121 38915 42597 73202 10045 20003 30029 40363 52011 87500 555 11006
AAXX 12121 38974 42998 61602 10058 20015 39982 40323 57010 87060 555 12007
AAXX 12121 38987 42596 80902 10039 20011 39571 40333 57006 885// 555 11006
AAXX 12121 28588 42998 50901 11195 21214 30160 40335 52001 85030 333 93523
AAXX 12121 28383 42997 00401 11178 21190 30265 40357 54000
BBXX 46221 12121 99339 71186 46/// ///// 1//// 91145 22200 00149 11502 21001 320// 41501 70008
AAXX 12121 37514 42699 70000 10041 21062 39116 40288 57014 87500
AAXX 12121 08541 32484 33104 10157 20112 30160 40279 52005 82801 333 81817
BBXX JNCJ 12124 99335 11397 41497 22835 10130 20051 40180 54000 70111 82100 22273 00230 20305 331// 40305 80090
BBXX SHIP 12124 99230 11781 41/97 30914 10256 20186 40204 57008 70111 8//// 22223 04260
BBXX SHIP 12124 99321 11455 41597 72713 10190 20123 40191 57004 70211 8645/ 22273 06216 20202 327// 40505 80150
BBXX SHIP 12124 99220 11226 41297 80326 10210 20195 40150 52017 76362 87/// 22213 00251 80200
BBXX SHIP 12124 99179 11306 41/98 /0811 10270 20257 40133 57025 70222 8//// 22244 00280 80260
BBXX SHIP 12124 99309 11404 41/97 72718 10182 40205 52001 75022 8//// 9//// 22283 00227 2////
BBXX A8PX5 12124 99400 11383 41597 52334 10051 20051 40231 50/// 70100 8549/ 22254 04121 20206 3//// 4//// 5//// 80051
BBXX SHIP 12124 99284 11340 41698 73515 10195 20130 40210 52006 70222 85/// 22240 00220 2//// 3//// 4//// 80155
AAXX 12124 89003 46/89 /3111 11101 29063 39013 4//// 5////
AAXX 12124 89507 46/89 /1109 11235 29067 36766 4//// 5////
AAXX 12124 89577 46/// /0906 11342 35710 4//// 5////
AAXX 12124 89578 46/// /0509 11354 36766 4//// 5////
AAXX 1212/ 89767 46/// ///// 11060 39670 4//// 5////
BBXX SHIP 12124 99342 71452 41/// 71617 10160 20144 40287 56018 70302 8//// 91150 22264 00180 2//// 3//// 4//// 5//// 80150
BBXX SHIP 12124 99137 31087 41498 53004 10280 20253 40090 53006 70122 8429/ 22214 00286 80260
BBXX SHIP 12124 99137 31087 41498 53004 10280 20253 40090 53006 70122 8429/ 22214 00286 80260
AAXX 12124 65501 31940 70404 10296 21028 39831 40145 70622 80002 333 0//00 59007 87076
AAXX 12124 65502 31910 70810 10285 20000 39764 40143 70522 80002 333 0//00 58016 87076
AAXX 12124 65503 31925 71010 10292 20050 39796 40140 70622 80002 333 0//00 58009 87076
AAXX 12124 65505 31915 70410 10300 21015 39800 40136 70622 80002 333 0//00 58011 87076
AAXX 12124 65507 31940 70810 10283 20033 39786 40134 70622 80002 333 0//00 58012 87076
AAXX 12124 65510 31920 60610 10285 20025 39617 40129 70622 80002 333 0//00 58010 86076
AAXX 12124 65516 31920 60408 10293 21019 39826 40132 70622 80002 333 0//00 58010 86076
AAXX 12124 65518 31906 70414 10294 20035 39764 40126 70622 80002 333 0//00 58016 87076
AAXX 12124 65522 31920 70410 10294 21026 39801 40129 70622 80002 333 0//00 58011 87076
BBXX A8SF8 12124 99361 70347 41597 52416 10200 20135 40315 53/// 70222 8546/ 22254 04190 20504 399// 40904 80160
BBXX DCPY2 12123 99195 10392 41/96 59902 10290 20248 40130 57015 70511 85030 22200 00270 2//01 80260
BBXX A8LN2 12123 99454 70109 41296 82337 10155 20071 40155 57/// 70082 8/7// 22253 04135 21416 305// 42014 80110
AAXX 12121 08501 32/// /2405 10183 20125 30233 40269 52004 333 91012 91114 555 50004 60005
AAXX 12121 08505 32470 72605 10164 20141 30239 40289 52009 878// 333 83812 85630 555 50004 60007
AAXX 12121 08506 32/// /2504 10167 20143 30227 40299 52011 333 91007 91109 555 50004 60005
AAXX 12121 08509 32560 52806 10166 20128 30222 40287 52009 82806 333 81825 84070 91009 91109 555 50044 60007
AAXX 12121 08511 32580 62503 10165 20115 30182 40290 52011 82801 333 82820 86070 91005 91106 555 50004 60005
AAXX 12121 08512 11265 82906 10155 20155 30207 40293 52013 69901 78082 888// 333 83705 84812 85625 555 59904 60005
AAXX 12121 08515 11375 52805 10179 20165 30181 40304 50013 69901 70211 85800 222// 0//// 333 81709 83814 910// 911// 555 59904 60007 912//
AAXX 12121 08521 NIL
AAXX 12121 08522 32570 29901 10212 20122 30227 40295 52010 82100 222// 00205 314// 40301 333 82823 555 50004 60005
AAXX 12121 08524 32470 30404 10182 20142 30199 40297 52010 83200 333 83815 555 50024 60005
AAXX 12121 08530 NIL
AAXX 12121 08531 32/// /9901 10156 20101 30234 40273 52004 333 91105 555 50024 60005
AAXX 12121 08532 31565 53004 10152 20095 30114 40276 50008 703// 83804 333 82820 83630 555 5///4 60007
AAXX 12121 08533 32/// /3603 10177 20125 30254 40283 52005 333 91105 555 59914 60005
AAXX 12121 08534 32570 50000 10180 20113 30256 40273 52012 84854 333 82820 83635 555 50004 60007
AAXX 12121 08535 32470 69902 10169 20093 30181 40274 52002 82231 333 82816 83358 91106 555 59994 60005
AAXX 12121 08537 32560 42703 10160 20104 30266 40270 50005 83804 333 82825 555 50024 60007
AAXX 12121 08540 32460 63102 10148 20098 30198 40267 50008 86800 333 82818 86640 555 59954 60007
AAXX 12121 08541 32/// /3104 10157 20112 30160 40279 52005 555 50034 60005
AAXX 12121 08544 32460 71802 10126 20108 30244 40264 50011 878// 333 81816 87630 555 50114 60007
AAXX 12121 08545 NIL
AAXX 12121 08548 12/// /3502 10135 20078 30062 40268 52005 69911 555 50024 60005
AAXX 12121 08551 31462 71102 10111 20104 30198 40256 57002 70222 878// 333 86817 85624 555 50094 60005
AAXX 12121 08554 32/// /2303 10167 20128 30274 40283 52003 555 50004 60005
AAXX 12121 08558 31465 63003 10140 20111 39975 40270 50001 70164 86302 333 83814 81915 83617 555 59974 60005 96646 90320
AAXX 12121 08560 31470 69902 10101 20053 39503 40264 52009 70242 84102 333 84813 85099 91105 555 59984 60005
AAXX 12121 08561 11365 42905 10154 20109 30041 40273 50006 69901 70281 83201 333 91108 555 59934 60007
AAXX 12121 08562 32/// /2705 10147 20101 39977 40270 52003 555 59934 60005
AAXX 12121 08567 31470 72302 10104 20058 39593 40260 51009 70342 86801 333 84813 555 50014 60005
AAXX 12121 08568 31120 52908 10035 20025 38682 48551 51006 74042 84641 333 83702 83099 91113 555 50014 60005
AAXX 12121 08570 11475 22803 10125 20080 39803 40262 50005 69911 70340 82848 333 81812 91106 555 50014 60005
AAXX 12121 08571 12/// /3105 10100 20081 39562 40271 52006 69931 333 91008 91108 555 50024 60005
AAXX 12121 08575 41465 62904 10097 20037 39438 40252 58004 70222 84242 333 84819 85099 91007 91107 555 60005
AAXX 12121 08579 41470 52402 10159 20081 30148 40272 5//// 70222 82831 333 81817 84070 91105 555 60005
AAXX 12121 14235 12460 8//// 10059 20051 38989 48448 57013 60001 88500 333 70000
AAXX 12121 14246 12665 61605 10086 20058 39929 40132 57024 60001 82531 333 70002
AAXX 12121 14314 12662 71801 10155 20108 30072 40135 58020 69911 85870 333 70020 92311 92417
AAXX 12121 14323 11560 81101 10128 20115 30101 40135 57019 60051 72166 886// 333 70367 92311 92417
AAXX 12121 14324 11/00 92706 10020 20020 38375 48478 58015 60101 74564 333 70358
AAXX 12121 14328 NIL
AAXX 12121 14330 11560 81302 10092 20084 39477 40136 57020 60051 76366 8802/ 333 70070
AAXX 12121 14438 11584 71902 10159 20118 30056 40145 58012 60081 70296 87800 333 70190 92312
AAXX 12121 14443 NIL
AAXX 12121 14447 12682 61605 10174 20110 30133 40163 58010 60001 82120 222// 00175 333 70000 92322
AAXX 12121 14472 12665 51607 10173 20153 30115 40178 57011 60001 85200 222// 00174 333 70000 92312
BBXX SHIP 12124 99248 30477 41598 60130 10285 20251 40082 57030 70022 84820 22212 04270 20505 3//// 4//// 5//// 80260
BBXX VRCZ7 12123 99276 10340 41598 23624 10200 20109 40180 54000 70200 82100 22274 20603 3//// 4//// 5//// 80150
BBXX 2BLY5 12123 99057 50311 41498 20511 10272 20245 40128 50009 7//00 8/16/ 22253 00279 20302 80253
BBXX A8AD7 12123 99071 70131 41397 10402 10280 20239 40120 54000 70522 81718 22233 02290 20301 318// 40301 80250
AAXX 12124 61017 32960 50000 10244 20038 39773 40187 80002 333 59001 85080
AAXX 12124 61024 32960 21016 10250 20002 39606 40176 80002 333 0//00 58012 82080
AAXX 12124 61036 31956 70806 10298 20008 39910 40149 70522 80008 333 0//00 58007 87280
AAXX 12124 61043 31936 70814 10275 21054 39706 40146 70622 80008 333 0//00 58007 87280
AAXX 12124 61045 31910 70606 10243 21068 39658 40156 70642 80002 333 0//00 58003 87280
AAXX 12124 61049 32960 70804 10260 21078 39820 40141 80008 333 0//00 58000 87280
AAXX 12124 61052 31925 50812 10288 21029 39899 40155 70622 80002 333 0//00 58013 85080
AAXX 12124 61075 31956 71006 10285 20032 39837 40146 70622 80008 333 0//00 58006 87280
AAXX 12124 61080 31912 71008 10260 21023 39734 40156 70642 80008 333 0//00 58004 87280
AAXX 12124 61090 31925 70610 10244 21060 39645 40152 70642 80008 333 0//00 58006 87280
AAXX 12124 61091 31956 70806 10260 20066 39709 40158 70642 80008 333 0//00 58002 87280
AAXX 12124 61096 32960 70806 10262 21048 39770 40152 80008 333 0//00 58002 87280
AAXX 12124 61099 31930 70608 10290 20052 39899 40127 70622 80008 333 0//00 58003 87280
AAXX 12121 08541 32484 33104 10157 20112 30160 40279 52005 82801 333 81817 555 50034 60005
AAXX 12121 60370 16/// /2503 10157 20110 69921
AAXX 12121 60371 16/// /2102 10167 20108 60011
AAXX 12121 60372 16/// /2805 10138 20114 69971
AAXX 12121 60373 NIL
AAXX 12121 60374 NIL
AAXX 12121 60376 NIL
AAXX 12121 60379 NIL
AAXX 12121 60380 NIL
AAXX 12121 60381 NIL
AAXX 12121 60393 NIL
AAXX 12121 60394 NIL
AAXX 12121 60593 NIL
AAXX 12121 60595 NIL
AAXX 12121 60605 NIL
AAXX 12121 60613 NIL
AAXX 12121 60623 NIL
AAXX 12124 60624 36/// /0000 10222 21054
AAXX 12124 60639 NIL
AAXX 12124 60645 36/// /0000 10234 21002
BBXX V7OX3 12124 99250 50468 41598 20405 10220 20189 40090 54000 7//00 8/14/ 22253 04220 21402 314// 41603 5//// 80200
AAXX 12121 48855 32597 82902 10186 20152 30170 40178 52012 888// 333 01019 10220 59016 70000 86895 88697
AAXX 12121 48848 32597 83202 10162 20114 30181 40189 53006 888// 333 00015 10175 59021 70000 82895 88697
AAXX 12121 13463 11550 80901 10129 20127 30132 40191 57022 60111 72169 8582/
AAXX 12121 13459 11650 81103 10082 20081 39442 40206 57013 60051 76166 8582/ 333 85696 88597
AAXX 12121 13461 11560 71103 10169 20134 30182 40190 57016 60231 72198 87800 333 84830 85640 92333 92437 92515
AAXX 12121 13363 31668 71101 10116 20082 39264 48501 57018 70342 87800
BBXX DCPY2 12123 99195 10392 41/96 59902 10290 20248 40130 57015 70511 85030 22200 00270 2//01 80260
BBXX 2BLY5 12123 99057 50311 41498 20511 10272 20245 40128 50009 7//00 8/16/ 22253 00279 20302 80253
BBXX VRCZ7 12123 99276 10340 41598 23624 10200 20109 40180 54000 70200 82100 22274 20603 3//// 4//// 5//// 80150
BBXX A8AD7 12123 99071 70131 41397 10402 10280 20239 40120 54000 70522 81718 22233 02290 20301 318// 40301 80250
BBXX SHIP 12124 99248 30477 41598 60130 10285 20251 40082 57030 70022 84820 22212 04270 20505 3//// 4//// 5//// 80260
BBXX DFUX2 12124 99380 70096 41599 33004 10190 20142 40280 52030 7//00 832// 22284 00160 2//// 330// 41208 80160
BBXX A8LN2 12123 99454 70109 41296 82337 10155 20071 40155 57/// 70082 8/7// 22253 04135 21416 305// 42014 80110
BBXX A8SF8 12124 99361 70347 41597 52416 10200 20135 40315 53/// 70222 8546/ 22254 04190 20504 399// 40904 80160
AAXX 12124 60672 36/// /1205 10194 21087
AAXX 12124 60667 36/// /0000 10204 21027
AAXX 12124 60676 36/// /0605 10164 21057
AAXX 12124 60679 36/// /0207 10142 21248
AAXX 12124 60692 36/// /0205 10234 21012
AAXX 12124 60633 36/// /3611 10243 21111
AAXX 12124 60650 36/// /0000 10220 21086
AAXX 12124 60677 36/// /0000 10202 21068
AAXX 12124 60691 36/// /0708 10230 21037
AAXX 12124 04203 46/// /3115 29083 39962 49980 57001
AAXX 12124 04205 45/84 /1401 11196 21269 39953 49976 54000
AAXX 12124 04208 46/// ///// 11175 21200 39906 49952 52005
AAXX 12124 04213 46/// /0203 11053 21192 39791 49900 57004
AAXX 12124 04214 46/// /0505 11059 21126 39863 49896 52001
AAXX 12124 04224 45980 13608 11047 21123 39855 49887 52002 333 81/72
AAXX 12124 04228 NIL
AAXX 12124 04242 46/// /0609 11076 21142 39863 49879 52015
AAXX 12124 04253 46/// /1216 11063 21103 39844 49871 52014 333 91029
AAXX 12124 04266 46/// /0917 11051 21080 39816 49854 54000
AAXX 12124 04285 46/// /3118 11044 21114 39831 49850 52006
AAXX 12124 04301 NIL
AAXX 12124 04313 46/// ///// 29081 39994 40006 52001
AAXX 12124 04330 46/// /3408 11248 21285 30018 40036 57010
AAXX 12124 04351 46/// /0308 11010 21071 39911 49927 52009
AAXX 12124 04373 46/// /0635 11021 21024 39710 49803 52004
AAXX 12124 04382 46/// /2906 11023 21137 39742 49790 57006
AAXX 12124 04416 NIL
AAXX 12124 60661 36/// /0109 10213 21113
BBXX DGWE2 12123 99061 10928 41498 71811 10270 20236 40105 55005 7//22 87860 22224 00290 20502 318// 40401 80245
AAXX 12124 60595 36/// /0000 11451
AAXX 12124 60381 16/// /2302 10159 20114 69921
AAXX 12124 60639 36/// /3105 10195 21016
AAXX 12124 60605 36/// /3401 10186 21036
AAXX 12124 78062 12565 70604 10209 20194 40206 60000 85830 333 59007 70000 82818 83640 83358 90908
AAXX 12121 48852 01497 82301 10157 20153 30176 40186 53013 69914 76062 888// 333 01016 10167 59017 69902 7000 1 83894 88697 96160
BBXX A8EH3 12123 99533 11738 41397 73321 10000 49850 54000 78587 877// 22224 04050 29904 330// 41005
AAXX 12121 13492 ///// 8//// 10030
AAXX 12121 13584 NIL
AAXX 12121 13585 42698 40000 10154 20064 39410 40184 57020 83540
AAXX 12121 13597 42698 70000 10131 20079 30150 40222 57016 87500
AAXX 12121 13598 42698 52303 10146 20001 48519 58015 83530
AAXX 12121 14216 11468 81201 10119 20110 39982 40131 57022 69921 72052 886// 333 70050 92322 92427
AAXX 12121 14219 11215 81802 10074 20064 39126 48448 58019 60021 76566 8372/ 333 70028
AAXX 12121 14232 11650 70601 10077 20057 30006 40141 57025 69911 72164 83570 333 70038
AAXX 12121 14234 11550 81201 10060 20050 39896 40144 58023 60001 7102/ 886// 333 70003
AAXX 12121 14236 11540 71801 10084 20058 39941 40138 57022 60001 71022 87500 333 70002
AAXX 12121 14244 11456 80000 10067 20063 30015 40144 57023 60001 7102/ 886// 333 70001
AAXX 12121 14248 11920 81802 10069 20059 39970 40144 57024 60001 71042 8802/ 333 70001
AAXX 12121 14253 11950 61401 10085 20067 39967 40140 57027 60001 71022 86030 333 70000
AAXX 12121 14256 11520 61101 10077 20061 39826 40144 57019 60001 710// 84530 333 70000
AAXX 12121 14280 11940 61103 10114 20080 30037 40145 57023 60001 7102/ 86031 333 70000
AAXX 12121 14308 11565 82703 10119 20110 39784 40130 57016 60001 70244 887// 333 70001
AAXX 12121 14321 12666 81203 10139 20125 30117 40141 57021 60221 8487/ 333 70453 92312 92427
AAXX 12121 14370 11620 71001 10104 20063 30035 40143 57024 60001 71022 87500 333 70000
AAXX 12121 14382 12960 61402 10117 20065 30034 40152 57017 60001 86030 333 70002
AAXX 12121 14428 11470 71605 10155 20130 30133 40140 57019 60641 72998 85370 222// 00150 333 70760 92312
AAXX 12121 14441 11565 42004 10174 20114 30126 40149 58014 69901 72121 81189 222// 00178 333 70000 92322
AAXX 12121 14452 12598 72004 10150 20135 39940 40161 56008 60001 81517 333 92312
AAXX 12121 14454 11663 71003 10155 20113 30103 40162 56012 69961 72562 86870 333 70006 92322
AAXX 12121 14462 12570 71603 10165 20121 30166 40171 57015 60001 85470 333 70002
AAXX 12124 60662 36/// /0000 10189 21100
AAXX 12121 60373 16/// /3004 10153 20119 60011
AAXX 12121 60623 36/// /0000 10216 21153
AAXX 12121 60393 16/// /2103 10156 20111 69951
AAXX 12121 14328 11556 71802 10134 20091 39736 40121 57021 69941 7216/ 86802 333 70111
AAXX 12121 14443 12698 61804 10164 20140 30073 40162 57025 69911 86729 333 70001 92312
AAXX 12124 62423 32960 00210 10206 20062 40224 57028
AAXX 12124 62357 32560 23606 10200 20098 40234 57017 82100
AAXX 12124 62403 32960 02806 10218 20039 40191 57021
AAXX 12124 62423 32960 00210 10206 20062 40224 57028
AAXX 12124 62357 32560 23606 10200 20098 40234 57017 82100
AAXX 12124 62403 32960 02806 10218 20039 40191 57021
AAXX 12124 87563 32965 01410 10182 20094 30097 40139 53020 333 10200 20085
AAXX 12124 84036 11560 83602 10104 20102 69924 75022 887// 333 10190 20081 555 10002 30098
AAXX 12124 84076 31460 70000 10116 20107 74042 87600 333 10230 20113 30111 555 30094
AAXX 12124 84008 32457 81414 10224 20204 30125 40135 888// 00161 333 10277 20223 58003 555 30088 40179
AAXX 12124 84088 11103 80000 10086 20085 37069 60074 74042 886// 333 10183 20083 30080 58006 555 10070 30099
AAXX 12124 84270 11550 70000 10132 20111 60014 74125 87800 333 10250 20132 555 10012 30090
AAXX 12124 84140 31570 80000 10236 20210 30036 40121 70542 8651/ 333 10350 20233 58004 555 30085
AAXX 12124 84179 11981 70000 10179 20175 39055 69904 71142 87070 333 10294 20169 58012 555 1 T 30098
AAXX 12124 84202 31870 82302 10238 20200 30160 70542 8751/ 333 10342 20232 58013 555 30079
AAXX 12124 84160 11570 41802 10083 20072 37266 69974 70544 83530 333 10213 20078 59003 555 10007 30092
AAXX 12124 84204 31665 80000 10240 20182 70544 8451/ 333 10249 20235 555 30070
AAXX 12124 84143 11360 70000 10111 20106 37405 69974 72162 81650 333 10218 20101 30064 59004 555 10007 30097
AAXX 12124 84226 12680 40000 10092 20092 60044 82504 333 10166 20048 555 10035 30100
AAXX 12124 84050 11450 80902 10216 20208 69964 74046 886// 333 10330 20214 555 10006 30095
AAXX 12124 84142 11110 80000 10158 20155 60234 75066 887// 333 10220 20154 555 10232 30098
AAXX 12124 84132 11/10 90000 10224 20221 39877 60124 74544 89/// 333 10316 20216 58003 555 10121 30098
AAXX 12124 84105 11230 83604 10214 20211 31001 60044 71655 887// 333 10324 20213 58001 555 10040 30098
AAXX 12121 21432 NIL
AAXX 12121 21824 11997 82503 11267 21279 30290 40300 52005 69932 77872 83035 333 11256
AAXX 12121 21908 32999 20000 11359 21380 30280 40371 52025 80002 333 11309
AAXX 12121 21921 31999 30204 11250 21281 30244 40292 53014 73631 83030 333 11220
AAXX 12121 21931 NIL
AAXX 12121 21946 11295 83506 11261 21285 30121 40206 52007 69940 77173 8663/ 333 11240 86705 91110
AAXX 12121 21982 41594 80411 11119 21132 39927 49954 52032 77173 8452/ 333 91117
AAXX 12121 25062 41997 83503 11105 21111 39920 49924 52020 72273 8802/ 333 91113
AAXX 12121 25123 11496 80304 11165 21215 39938 49971 53016 69930 73673 8655/ 333 11140 86613 91113
AAXX 12121 25138 11597 80402 11147 21167 39825 49948 52024 60010 77172 8802/ 333 11129 91106
AAXX 12121 25173 41395 83007 11094 21101 39887 49891 52020 77373 8872/ 333 91114
AAXX 12121 25248 11998 30000 11201 21227 39464 49925 52026 69990 70271 83030 333 11129 91103
AAXX 12121 25282 41974 80805 11035 21043 39848 49854 52018 72272 8801/ 333 91108
AAXX 12121 25325 NIL
AAXX 12121 25356 NIL
AAXX 12121 25399 41456 70103 11030 21040 39843 49852 52017 78583 85901 333 91108
AAXX 12121 25428 11957 80000 11259 21284 39608 49959 52012 69970 77172 8802/ 333 1//// 91101
AAXX 12121 25551 41695 82903 11131 21151 39792 49823 52015 77272 84537 333 91105
AAXX 12121 25563 41570 71012 11033 21047 39685 49761 52025 73683 87900 333 91118
AAXX 12121 25594 41498 61602 11026 21042 39780 49829 52031 70272 86500 333 91106
AAXX 12121 25677 41598 62704 11086 21101 39750 49756 52033 70232 84530 333 84631 91106
AAXX 12121 31054 11999 60000 11432 21461 39914 40231 53003 69922 70271 80007 333 11393
AAXX 12121 31123 32998 82301 11332 21362 39850 40214 58008 82017 333 11300
AAXX 12124 62305 32960 20304 10189 20109 40259 57016 80001
AAXX 12124 62306 32560 40610 10186 20111 40258 57022 84500
AAXX 12124 62318 32560 20307 10194 20100 40239 57022 82500
AAXX 12124 62337 NIL
AAXX 12124 62366 32960 03614 10200 20087 40223 57021
AAXX 12124 62393 32960 00106 10198 20053 40205 56018
AAXX 12124 62405 31958 03202 10236 20077 40177 57022 70500
AAXX 12124 62414 32960 03609 10253 20049 40169 57028
AAXX 12124 62417 32960 00506 10204 20082 40242 57028
AAXX 12124 62440 32960 00311 10206 20093 40227 57019
AAXX 12124 62463 32960 03619 10222 20099 40188 57025
AAXX 12124 62465 32960 03612 10220 20119 40180 57019
AAXX 12124 62419 NIL
AAXX 12124 93196 NIL
AAXX 12124 93334 NIL
AAXX 12124 93339 NIL
AAXX 12124 93800 16/// /0413 10147 20145 40134 52008 60101
AAXX 12124 93805 16/// /3412 10162 20127 40115 52004 60001
AAXX 12124 93994 16/// /1107 10205 20160 40172 57008 60001
BBXX 46207 12121 99509 71299 46/// /2204 10061 40250 57012 22200 00085 11003 70015 333 91206
BBXX A8IY2 12123 99506 71487 41697 72725 10070 20001 40170 58010 70322 877// 22274 00063 2//02 330// 4//10 5//// 80040
BBXX C6SI4 12124 99488 71309 41496 62015 10060 20040 40270 56010 70322 862// 22273 00100 20602 334// 4//// 5//// 6//// 80050 ICE /////
BBXX DFWV2 12124 99314 71476 41597 41413 10195 20138 40280 57005 70280 824/8 22263 04190 2//03 3//// 4//// 5//// 80160
BBXX DGTX 12123 99357 71274 41497 73531 10115 20056 40160 51005 70322 82578 22234 00180 20708 330// 40708 80085
BBXX KGTY 12124 99568 71435 41497 72454 10044 20000 49995 57015 72166 872// 22274 00033 21115 323// 41413 5//// 6//// 80028 ICE /////
BBXX SBLI 12121 99308 71278 43/98 73519 10130 40151 52002 22254 00167 2//// 4////
BBXX SHIP 12124 99342 71452 41/// 71617 10160 20144 40287 56018 70302 8//// 91150 22264 00180 2//// 3//// 4//// 5//// 80150
BBXX WABS 12124 99470 71258 41798 30113 10067 20040 40250 58005 7//00 83/3/ 22243 0//// 2//// 3//// 4//// 5//// 6//// 80056 ICE /////
BBXX WAZV 12124 99525 71365 41597 82520 10080 20040 40180 51020 7//22 886// 22233 00060 20404 325// 41411 5//// 6//// 80060 ICE /////
BBXX WCX8884 12124 99375 71248 41497 83540 10110 20050 40112 57037 70322 888// 22235 00059 21011 335// 41212 5//// 6//// 80080 ICE /////
BBXX WHRN 12123 99302 71334 41598 60124 10150 20100 40215 52015 70122 86462 22255 00190 21004 333 // 41204 5//// 6//// 80120 ICE /////
BBXX 46147 12121 99518 71312 46/// /1809 10066 40222 57021 22200 00080 10903 70017 333 91211
AAXX 12121 38507 42498 51406 10079 20019 30177 40281 57005 85500 333 85619 555 10008
BBXX 46147 12121 99518 71312 46/// /1809 10066 40222 57021 22200 00080 10903 70017 333 91211
AAXX 12124 61600 32958 71204 10285 20112 30134 40139 80002 333 58016 87073
AAXX 12124 61612 32960 50604 12292 20030 30137 40145 80002 333 0//00 58018 85073
AAXX 12124 61627 32957 51406 10305 21011 3//// 4//// 80002 333 0//00 5//// 85073
AAXX 12124 61630 32958 71206 10317 20091 30119 40138 80002 333 0//00 58013 87073
AAXX 12124 61641 32956 53608 10273 20155 30101 40134 80002 333 0//00 58015 85073
AAXX 12124 61666 32960 70808 10328 20083 30120 40128 80002 333 0//00 58012 87073
AAXX 12124 61679 31957 30808 10330 20142 30126 40134 70511 81032 333 0//00 58011 81363 83073
AAXX 12124 61687 31956 10810 10332 20064 30071 40128 705// 80002 333 0//00 58027 83073
AAXX 12124 61695 31940 53602 10302 20142 30097 40123 70622 80002 333 0//00 58013 85073
AAXX 12124 61697 31948 40804 10304 20195 30112 40126 70600 80001 333 0//00 58013 85073
AAXX 12124 61698 32960 70802 10327 20116 30113 40124 80002 333 0//00 58008 87073
AAXX 12124 61699 33958 01606 10323 20200 39918 40106 333 0//00 59009
AAXX 12121 25703 11596 83504 11189 21222 39743 40022 52012 60010 78583 8532/ 333 11192 91112
AAXX 12121 25745 32698 72205 11151 21178 39800 49852 52016 87500 333 11143
AAXX 12121 25913 32699 80502 11180 21259 39777 49930 52012 82537 333 11159
AAXX 12121 25954 11597 83308 11139 21174 39710 49824 52013 69900 78583 8693/ 333 11137 91012 91112
AAXX 12121 25956 32598 80402 11151 21178 39814 49820 52029 885// 333 11172
AAXX 12121 31088 32599 70202 11179 21238 39966 49974 54000 83532 333 11166
AAXX 12121 31873 12997 03102 11165 21208 30118 40261 52017 69940 333 11102
AAXX 12121 31909 32998 02808 11110 21220 30109 40190 51021 333 11035 91014 91118
AAXX 12121 31960 32998 03209 11045 21149 30026 40269 52022 333 11011 91015 91117
AAXX 12121 31961 32998 00103 11107 21170 30225 40274 52027 333 11006
AAXX 12121 32053 32997 62905 11186 21227 30019 40071 52008 80002 333 11144 91008 91109
AAXX 12121 32061 11534 83108 11148 21168 30049 40090 52010 69920 78583 889// 333 11123 91016 91115
AAXX 12121 32098 11598 83602 11188 21200 30077 40088 52009 69900 70381 81903 333 11123 91003 91105
AAXX 12121 32150 11496 73402 11102 21122 30058 40089 53020 60040 78582 87900 333 11056 91004 91109
AAXX 12121 32165 12598 32606 11014 21090 30023 40085 58002 69960 83900 333 10002 91010 91114
AAXX 12121 32215 11596 72905 11044 21095 39927 49956 52002 60020 73683 84910 333 11019 91010 91113
AAXX 12121 32252 NIL
AAXX 12121 32389 32999 22702 11166 21200 39835 49873 52006 82030 333 11120
AAXX 12121 32477 11597 62804 11079 21158 39877 49909 52006 60040 70282 86500 333 11070
AAXX 12121 32583 32598 83504 11075 21140 39878 49909 52008 83574 333 11061
AAXX 12121 32618 11598 20203 11059 21094 39829 49850 52001 69920 70281 82500 333 11039
AAXX 12121 31961 32998 00103 11107 21170 30225 40274 52027 333 11006
AAXX 12121 31873 12997 03102 11165 21208 30118 40261 52017 69940 333 11102
AAXX 12121 31909 32998 02808 11110 21220 30109 40190 51021 333 11035 91014 91118
AAXX 12121 31960 32998 03209 11045 21149 30026 40269 52022 333 11011 91015 91117
AAXX 12124 71979 16/// ///// 11249 21273 38496 40226 58012 60001 333 11052 21252 4/035 70000
AAXX 12124 71217 47/// /0701 11092 21101 6///1 7//4/ 333 11018 21105 7////
AAXX 12124 71224 17/// /3304 11103 21110 60021 7//4/ 333 11023 21104 70050
AAXX 12124 71434 16/// /2304 11188 21214 30182 40252 52016 60001 333 11147 4/010 70000
AAXX 12124 71581 16/// /2701 11069 21076 39792 40287 52007 60001 333 11008 4/004 70000
AAXX 12124 71276 16/// ///07 11095 21106 60001 333 11025 21135 70000
AAXX 12124 71746 46/// /1805 11046 21062 30080 40308 53003 6///1 333 10015 21052 7////
AAXX 12124 71363 17/// /2009 11299 21331 30031 40087 58018 69931 7//4/ 333 11187 21304 70003
AAXX 12124 71332 16/// /2402 11190 21208 39911 49941 58051 60001 333 11193 21233 4/008 70000
AAXX 12124 71334 46/// /2410 11149 21169 39884 40228 58010 6///1 333 11159 21251 7////
AAXX 12124 71343 17/// /3405 11074 21082 60011 7//4/ 333 11020 21077 70042
AAXX 12124 71050 46/// /0000 11197 21222 39171 40295 58006 6///1 333 11018 21197 7////
AAXX 12124 71189 46/// /0000 11041 21063 6///1 333 11061 21074 7////
AAXX 12124 71622 16/// ///// 11038 21070 39965 40313 55000 60001 333 10019 21041 4/001 70000
AAXX 12124 71860 11374 81903 11077 21099 38820 40257 58003 60022 70072 885// 333 10046 21078 48013 70060 90999 93103 555 10098 20060
AAXX 12124 78954 12480 31109 10280 20242 30064 40128 60001 82802 333 10300 20253 50580 58007 82818
AAXX 12124 71050 46/// /0000 11197 21222 39171 40295 58006 6///1 333 11018 21197 7////
AAXX 12124 78954 12480 31109 10280 20242 30064 40128 60001 82802 333 10300 20253 50580 58007 82818
AAXX 12121 50434 32980 10000 11285 21323 39334 40333 52003 80002
AAXX 12121 50527 32966 71402 11210 21230 39434 40306 57009 80002
AAXX 12121 50603 32980 00201 11198 21224 39532 40272 57014
AAXX 12121 50632 32980 70201 11155 21179 39327 40290 57005 85032
AAXX 12121 50727 32980 01401 11239 21265 39034 40352 57012
AAXX 12121 50915 32980 02203 11135 21176 39223 40307 57017
AAXX 12121 51716 32965 72502 11020 21087 38951 40299 52005 8703/ 333 05400
AAXX 12121 51765 32980 01801 11040 21098 39257 40321 57002 333 05600
AAXX 12121 51777 32975 00202 11036 21107 39209 40314 57008 333 05601
AAXX 12121 51811 11962 70000 11038 21069 38826 40303 52003 69901 70070 8703/ 333 05451
AAXX 12121 51828 32965 70902 11013 21087 38660 40296 52002 80002 333 05400
AAXX 12121 52267 32980 62501 11060 21147 39122 40301 57003 80002 333 05801
AAXX 12121 52323 32980 02509 11082 21136 38223 57002 333 05603
AAXX 12121 52495 32980 02702 11080 21176 38703 40338 52004 333 05652
AAXX 12121 53149 32980 22503 11107 21164 38783 40296 57005 80002 333 05700
AAXX 12121 53192 32980 10701 11184 21209 38903 40359 57013 80002
AAXX 12121 53231 32980 11804 11118 21180 38488 52004 80002 333 05700
AAXX 12121 53336 32980 21802 11090 21162 38726 40301 57004 80002 333 05600
AAXX 12121 53391 32980 02204 11075 21137 38522 40313 57004 333 05404
AAXX 12121 53529 32980 02201 11089 21147 38651 40338 54000 333 05551
AAXX 12121 53543 32980 21803 11060 21171 38554 40296 54000 80002
AAXX 12121 53723 32970 30000 11054 21157 38689 40336 52003 80002 333 05503
AAXX 12121 54012 32980 31101 11123 21166 39044 40327 57014 80002
AAXX 12121 54026 32980 20000 11094 21174 39949 40296 57003 80002
AAXX 12121 54027 32975 00401 11090 21171 39674 40303 57003
AAXX 12121 54208 32980 00000 11140 21165 38789 40346 57003
AAXX 12121 54776 32980 00405 10041 21023 30251 40310 52006
AAXX 12121 56004 32680 42703 11103 21352 35791 57003 84900 333 05304
AAXX 12121 56033 32980 03602 11125 21255 36004 52011 333 00051
AAXX 12121 56046 32980 00702 11118 21195 36251 52012 333 00051
BBXX 46183 12121 99536 71311 46/// /1612 10051 40202 57023 22200 00077 10503 70014 333 91214
AAXX 12121 56193 NIL
AAXX 12121 56196 32960 21602 10068 21004 40261 52013 82040 333 05400
AAXX 12121 56287 32968 80000 10084 20011 40264 52018 8807/ 333 05503
AAXX 12121 56684 32580 10401 10057 20014 37895 52015 81100 333 05102
AAXX 12121 56751 32778 11401 10092 21010 38009 52007 81400 333 00054
AAXX 12121 56786 32565 21606 10080 20049 38106 52019 82400 333 05202
AAXX 12121 56977 32470 80402 10117 20111 40195 52012 885// 333 05102
AAXX 12121 57259 32980 60903 10078 21012 40273 52020 86030
AAXX 12121 57279 32961 00000 10055 20005 40278 52007
AAXX 12121 57348 32965 01801 10078 20029 40261 52013
AAXX 12121 57399 32962 03601 10052 21026 40282 52012
AAXX 12121 57554 32968 80401 10100 20001 40265 52012 8807/
AAXX 12121 57793 32960 70901 10077 21005 40275 52013 8704/
AAXX 12121 58345 32961 01401 10013 21030 40295 52009
AAXX 12121 58506 32978 00703 10012 21309 40292 52004
AAXX 12121 58813 32975 00201 10077 21005 40261 52014
AAXX 12121 58834 32968 02501 10098 20038 40248 52010
AAXX 12121 58926 32970 02001 10116 20075 40228 52015
AAXX 12121 58944 32461 80407 10134 20102 40236 52007 885//
AAXX 12121 59096 32970 00701 10115 21068 40233 52015
AAXX 12121 59102 32965 00701 10093 21003 40238 52009
AAXX 12121 59278 32965 02001 10142 20031 40211 52009
AAXX 12121 59456 32975 00201 10161 21006 40198 52013
AAXX 12121 59493 32961 00401 10156 20010 40203 52017
AAXX 12121 59658 32970 02903 10133 20052 40197 52011
AAXX 12121 59673 32966 30206 10159 20040 40202 52019 80002
AAXX 12121 59845 32565 30702 10156 20074 40201 52018 83100
BBXX 42362 12121 99278 70907 46/// /0507 10189 20156 40241 91215
BBXX 42363 12121 99282 70892 46/// /0709 10194 20156 40244 91215 333 91209
BBXX 42364 12121 99291 70881 46/// /0607 10183 20156 40251 91215
BBXX 46183 12121 99536 71311 46/// /1612 10051 40202 57023 22200 00077 10503 70014 333 91214
AAXX 12121 48806 32797 60000 10147 20086 39407 40195 52009 865// 333 00014 10194 59013 70000 86697
AAXX 12121 21432 32998 00000 11307 21343 30286 40307 52005 333 11293
AAXX 12121 21931 11998 02302 11356 21390 30253 40289 52016 69902 70271 333 11337
AAXX 12124 45011 17960 /3506 10141 20030 40200 52014 60002 70011 333 10188 59018
AAXX 12124 45011 17960 /3506 10141 20030 40200 52014 60002 70011 333 10188 59018
AAXX 12121 80402 NIL
AAXX 12121 80412 NIL
AAXX 12121 80416 NIL
AAXX 12121 80420 32970 00000 10231 20214 30094 40100 84500 333 20220 30/// 50314 55080 2//// 58003 5//// 555 10113
AAXX 12121 80425 12470 70902 10245 20244 30091 40122 69984 8247/ 333 20244 31/// 50124 55039 20805 5699/ 58009 82613 85460 10123
AAXX 12121 80426 32570 62001 10224 20171 39474 40119 865// 333 20215 30/// 5///4 55020 20938 569// 58008 86627 555 10149
AAXX 12121 80427 32570 73402 10240 20226 39849 40102 8257/ 333 20220 30/// 5///4 55065 21899 5699/ 59001 82617 85457 555 10117
AAXX 12121 80431 NIL
AAXX 12121 80434 NIL
AAXX 12121 80437 12365 70000 10246 20240 39998 40083 60114 877// 333 20245 31/// 5///4 55025 2//// 569// 58001 87710 555 10089
AAXX 12121 80440 12570 53602 10244 20213 39892 40103 69964 82508 333 20232 31// 50534 55029 21236 56909 58012 82620 83280 555 10112
AAXX 12121 80442 32970 6//// 10274 2//// 30002 4//// 80007 333 20240 30/// 5///4 55080 2//// 56009 58004 555 10113
AAXX 12121 80472 32465 80000 10221 20214 39634 40115 81208 333 20198 30/// 50254 55067 21214 58011 81816 88275 555 10136
AAXX 12121 80475 12460 50501 10202 20202 39750 40121 60154 855// 333 20199 31/// 5///4 55019 2//// 569// 58000 85617 555 10132
AAXX 12121 80476 12370 8//// 10250 20249 30085 40115 60164 8352/ 333 20245 31/// 50444 55050 21035 5699/ 58004 83610 85457
AAXX 12121 80478 NIL
AAXX 12121 80479 NIL
AAXX 12121 80400 NIL
AAXX 12121 80403 32470 50905 10268 20247 30091 40110 81210 333 20250 30/// 50374 55096 2//// 56990 58012 81813 555 10113
AAXX 12121 80405 NIL
AAXX 12121 80407 12470 5//// 10242 20236 30034 4//// 60384 8342/ 333 20237 31/// 50244 55052 2//// 5699/ 5//// 83613 85457 555 10109
AAXX 12121 80410 32465 81402 10219 20219 39433 40111 8377/ 333 20217 30/// 5///4 55083 2//// 5629/ 58003 83710 85458 555 10145
AAXX 12121 80413 32470 73601 10235 20211 39627 40116 8252/ 333 20208 30/// 50184 55086 22069 5699/ 58002 82616 85460 555 10145
AAXX 12121 80415 NIL
AAXX 12121 80419 NIL
AAXX 12121 80421 NIL
AAXX 12121 80423 31468 8//// 10265 20208 30096 40113 69944 70250 889// 333 20244 31/// 50254 55098 2//// 562// 58003 88610 81910 555 10112
AAXX 12121 80428 12468 50000 10249 20200 39902 40086 60044 82508 333 20230 30/// 50164 55032 21303 56909 58004 82617 83280 555 10098
AAXX 12121 80432 NIL
AAXX 12121 80435 NIL
AAXX 12121 80438 12970 61103 10160 20143 38513 48510 60074 86005 333 20160 30/// 50094 55043 20827 56009 59001 555 10195
AAXX 12121 80444 32870 5//// 10260 2//// 30056 4//// 857// 333 20232 30/// 5///4 55056 2//// 58004 85710 555 10104
AAXX 12121 80447 32557 60000 10222 20219 39659 40080 865// 333 20220 30/// 50114 55035 20942 569// 58007 86620 555 10131
AAXX 12121 80448 12570 60000 10237 20232 3//// 4//// 69954 8357/ 333 20227 30/// 5///4 55061 21306 5699/ 5//// 83620 83357
AAXX 12121 80450 32975 51103 10248 20230 30062 40117 80008 333 20244 30/// 5///4 55097 21706 56009 58010 555 10114
AAXX 12121 80453 NIL
AAXX 12121 80457 32470 2//// 10254 20228 30022 40106 82500 333 20254 30/// 50454 55079 2//// 56900 58002 82613 555 10107
AAXX 12121 80462 NIL
AAXX 12124 60367 12565 5//// 10183 20124 40214 53014 60001 86800 333 0//00 83820 85833
BBXX 46131 12121 99499 71250 46/// /3304 1//// 40261 57003 22200 00068 10200 70002 333 91205
AAXX 12124 67969 41680 70000 10243 20203 38/// 48/// 72998 86233 333 5//// 81935 86840
BBXX 46131 12121 99499 71250 46/// /3304 1//// 40261 57003 22200 00068 10200 70002 333 91205
AAXX 12124 60252 32960 02805 10202 20079 40239 55001 80002 333 555 00043
AAXX 12124 60060 32458 33403 10180 20118 40247 52011 81532 333 81616 95300
AAXX 12124 60105 32458 31005 10178 20131 40278 51010 83100 333 83816
AAXX 12124 60135 32458 30305 10174 20093 40281 50005 83500 333 83616
AAXX 12124 60156 17460 20508 10172 20110 40283 56001 60001 70031 82500 333 82616
BBXX 46204 12121 99514 71288 46/// /0705 10056 40250 57011 22200 00084 11002 70012 333 91206
BBXX 46204 12121 99514 71288 46/// /0705 10056 40250 57011 22200 00084 11002 70012 333 91206
AAXX 12120 44329 32998 20000 11154 21235 37736 40326 51001 80001 333 11089
AAXX 12124 06610 01550 82311 10056 20033 39572 40160 52031 60031 76362 8802/ 333 55300 20130 69995 88527 91124 91214
AAXX 12124 06670 01459 82413 10066 20040 39616 40127 52008 60021 76062 885// 333 55300 20122 69955 83616 87621 91125 91214
AAXX 12124 06700 01468 73007 10064 20021 39674 40170 52027 60091 78182 878// 333 55300 20158 60025 83819 86629 91124 91217
BBXX FHZI 12124 99429 31473 46/// ///// 10145 20086 30071 40082 52024 22200 85113
BBXX JPAT 12124 99121 30839 41498 21212 10282 20232 40065 55007 70381 82240 22233 00294 10803 20201 315// 40603 85246
AAXX 12124 91650 11598 83610 10265 2025/ 40101 54000 60261 70282 8687/ 333 10305 5699/ 83820 84648 88460
AAXX 12124 91652 NIL
AAXX 12124 91656 NIL
AAXX 12124 91659 NIL
AAXX 12124 91660 NIL
AAXX 12124 91669 36/// /1409 10254 20252 40116 54000 91215 333 1////
AAXX 12124 91670 36/// /0500 10261 20227 40110
AAXX 12124 91676 14/// /0804 10265 20219 30039 40099 55007 60001 333 10313
AAXX 12124 91680 11698 41005 10229 20225 40112 58005 60021 70162 82832 333 10308 56999 81830
AAXX 12124 91682 NIL
AAXX 12124 91683 11598 70000 10234 20228 40115 58004 60271 72528 85802 333 10298 569/9 83823 84650 87080
AAXX 12124 91691 14/// /0701 10253 20237 30112 40115 55004 60001 333 10317
AAXX 12124 91693 NIL
AAXX 12124 91697 14/// /1002 10254 20223 30111 40116 55005 69951 333 10311
AAXX 12124 91699 14/// /0903 10255 20219 30095 40127 55002 60001 333 10318
BBXX 44039 12121 99411 70727 46/// /2504 10047 21026 40371 54000 91200 22200 00106 10301 70003 333 91205
BBXX 44060 12121 99413 70721 46/// ///03 10032 40364 91215 22200 00106 333 91205 555 11036 22036
BBXX 44033 12121 99441 70690 46/30 /2505 10042 40323 52010 91204 22200 00078 10602 70008 333 91207 555 11064 22066
BBXX 44034 12121 99441 70681 46/30 /2411 10071 40317 54000 91204 22200 00089 10604 70022 333 91213 555 11138 22146
BBXX 44024 12121 99423 70659 46/30 /2308 10068 40355 50000 91204 22200 00089 10502 70008 333 91210 555 11094 22099
BBXX 44022 12121 99409 70737 46/// ///03 10025 21040 40362 91215 22200 00091 333 91204 555 11031 22031
BBXX 44029 12121 99425 70706 46/30 /2208 10041 40340 52003 91204 22200 00089 10402 70008 333 91210 555 11096 22100
BBXX 44030 12121 99432 70704 46/// /2407 1//// 40333 51006 91204 22200 00086 10501 70007 333 91209 555 11091 22097
BBXX 44040 12121 99410 70736 46/// /2103 10029 21035 40367 91215 22200 1//00 70000 333 91204 555 11036 22046
BBXX 41036 12121 99342 70770 46/// ///// 10138 20115 40280 91220 22200 00216
BBXX FHZI 12124 99429 31473 46/// ///// 10145 20086 30071 40082 52024 22200 85113
BBXX JPAT 12124 99121 30839 41498 21212 10282 20232 40065 55007 70381 82240 22233 00294 10803 20201 315// 40603 85246
BBXX ZDLP 12123 99656 50669 41/93 90527 11005 21006 49683 57030 77774 89/// 22213 05001 20405 33600 40702 5//// 81005
AAXX 12121 30157 11997 81001 11224 21249 30005 40314 53004 69902 77172 80007 333 11172
AAXX 12124 82586 32598 63610 10288 20228 39877 40113 84201 333 20234 58005
AAXX 12124 82678 32596 83604 10311 20215 39976 40114 85821 333 20254 58006
AAXX 12124 82784 32598 60904 10254 20178 39667 40119 86200 333 20205 58008
AAXX 12124 82791 32599 80504 10275 20207 39837 40113 885// 333 20158 58007
AAXX 12124 82983 21595 81803 10270 20220 39704 40115 70262 884// 333 20239 58022 69954
AAXX 12124 83064 21797 818// 10228 20223 39832 40102 76165 88020 333 2//// 58019 60204
AAXX 12124 83235 22698 50000 10255 20210 39432 40101 85400 333 20213 58010 60014
AAXX 12124 83332 22697 80000 10228 20192 39200 40102 888// 333 20194 58015 60044
AAXX 12124 83423 32598 62701 10245 20200 39287 40094 8357/ 333 20206 58024
AAXX 12124 83470 32698 23204 10246 20215 39244 40086 81101 333 20192 58021
AAXX 12121 21802 12999 80000 11333 21359 30327 40354 52011 69902 80007 333 11261
AAXX 12121 24125 32998 33503 11294 21305 30043 40356 52012 83020 333 11267
AAXX 12121 24136 11999 52101 11405 21438 30212 40228 52016 69902 80006 333 11337
AAXX 12121 24143 32998 00000 11432 21468 30216 40275 51011 333 11423
AAXX 12121 24266 11997 80000 11443 21469 30121 40329 52011 69902 77171 80007 333 11461
AAXX 12121 24329 11998 83101 11276 21306 39997 40330 52018 69972 77171 8802/ 333 11341
AAXX 12121 24343 32998 53602 11347 21370 30126 40262 52012 85030 333 11343
AAXX 12121 24382 11996 80000 11340 21361 39953 40235 57005 69900 77077 83036 333 11359
AAXX 12121 24639 11998 83501 11317 21341 30098 40270 52021 69902 70271 82017 333 11285
AAXX 12121 24641 11999 60000 11335 21365 30099 40260 52017 69922 70272 80008 333 11307
AAXX 12121 24652 32997 20000 11422 21448 30092 40237 52003 80001 333 11374
AAXX 12121 24656 32999 20000 11449 21483 30114 40235 52001 80001 333 11396
AAXX 12121 24671 31999 83301 11280 21304 39641 40195 58001 70272 8802/ 333 11334
AAXX 12121 24688 11996 80302 11405 21438 39185 40232 53001 69920 77172 85037 333 11402
AAXX 12121 24724 11997 80203 11191 21210 39696 40259 52020 69972 77173 8802/ 333 11170
AAXX 12121 24738 11997 80101 11247 21259 30050 40242 52015 69982 77172 80007 333 11241
AAXX 12121 24768 31993 20000 11467 21501 39950 40228 54000 74440 80001 333 11451
AAXX 12121 24923 11596 82103 11168 21187 39920 40244 53002 60022 77172 885// 333 11166 88620
AAXX 12121 24944 11996 80702 11304 21327 39921 40247 52003 69952 77172 84037 333 11266
AAXX 12121 24951 11998 83101 11295 21319 30049 40235 52013 69972 77173 80007 333 11273
AAXX 12121 24661 32999 83605 11255 21310 39896 40185 58014 73631 80003 333 11252
AAXX 12121 24959 12998 03201 11375 21405 30073 40221 52007 333 11295
AAXX 12121 24962 11993 00000 11455 21476 30011 40233 52004 69902 74440 333 11416
AAXX 12121 24966 11996 00000 11450 21471 39957 40214 58003 69900 71000 333 21422
AAXX 12121 24967 11999 20000 11410 21444 39988 40243 52011 69982 80001 333 11288
AAXX 12121 25206 11496 83506 11192 21218 30033 40061 52019 60040 77173 8472/ 333 11130 91113
AAXX 12121 25400 41495 83407 11200 21226 30020 40078 52015 60040 77373 8572/ 333 11210 85713 91116
AAXX 12121 30054 11997 81501 11204 21229 30026 40286 57006 69952 77172 86037 333 11203
AAXX 12121 30089 11999 80000 11279 21303 30004 40250 56002 69932 77172 88077 333 11279
AAXX 12121 30393 11998 82303 11294 21311 39118 40272 57009 69902 77171 83037 333 11250 47///
AAXX 12121 30493 32999 22701 11331 21360 39130 40306 58001 80001 333 11226
AAXX 12121 31004 11996 82502 11225 21243 39316 40212 55001 60012 77173 8802/ 333 11225 91110
AAXX 12121 31137 11998 80000 11410 21431 39093 40289 58003 69902 70272 80005 333 1/146
AAXX 12124 67755 NIL
AAXX 12124 67771 42880 73504 10307 20136 38/// 48/// 83202 333 5//// 83857 87080
AAXX 12124 67773 42780 70406 10315 20167 38/// 48/// 83108 333 5//// 83856 87280
AAXX 12124 67774 NIL
AAXX 12124 67785 NIL
AAXX 12124 67789 NIL
AAXX 12124 67855 41370 73502 10220 20198 38/// 48/// 72998 8667/ 333 5//// 86708 87460
AAXX 12124 67857 NIL
AAXX 12124 67863 41775 82603 10269 20161 38/// 48/// 76062 82170 333 5//// 82850 86064
AAXX 12124 67871 NIL
AAXX 12124 67875 NIL
AAXX 12124 67891 NIL
AAXX 12124 67895 NIL
AAXX 12124 67897 NIL
AAXX 12124 67899 42680 53303 10282 20160 38/// 48/// 83230 333 5//// 83840 83360
AAXX 12124 67951 41675 81506 10185 20170 38/// 48/// 79598 83273 333 5//// 81920 81707 83830 88459
AAXX 12124 67963 NIL
AAXX 12124 67967 NIL
AAXX 12124 67971 41650 83304 10227 20212 38/// 48/// 79296 82973 333 5//// 82930 88460
AAXX 12124 67976 NIL
AAXX 12124 67979 41970 80000 10260 20210 38/// 48/// 71762 8807/ 333 5//// 88458
AAXX 12123 67765 42780 82810 10252 20184 38636 48480 84237 333 84850 88280
AAXX 12123 67775 42775 70209 10290 20142 38470 48472 84232 333 84850 83360
AAXX 12123 67861 41780 82906 10232 20192 38702 48482 71792 81273 333 81950 88459
AAXX 12123 67867 42680 73312 10272 20165 38544 48472 83232 333 83840 83359 87080
AAXX 12123 67881 41875 63602 10284 20151 38547 48476 71522 86232 333 86857
AAXX 12123 67965 41570 80203 10207 20182 38662 48487 79596 83273 333 81920 87458
AAXX 12123 67983 41650 70802 10233 20207 38842 48469 72998 81268 333 81845 87280
BBXX 46088 12121 99483 71232 46/// /3306 10044 40245 91220 22200 00080 1//00 70002 333 91208 555 11065 22067 31215 43208 61219 327061 328061 332061 332057 333054 326054
BBXX 46088 12121 99483 71232 46/// /3306 10044 40245 91220 22200 00080 1//00 70002 333 91208 555 11065 22067 31215 43208 61219 327061 328061 332061 332057 333054 326054
BBXX 46087 12121 99485 71247 46/// /0805 10053 21006 40246 91220 22200 00077 333 91207 555 11051 22053 31219 40807 61219 078048 077046 074042 076043 084042 079041
AAXX 12124 40250 NIL
AAXX 12124 40265 NIL
AAXX 12124 40296 32960 00000 10200 20012 40230 57021
AAXX 12124 40310 32960 21208 10162 21016 38985 48526 57013 80001 333 82070
BBXX DGWE2 12123 99061 10928 41498 71811 10270 20236 40105 55005 7//22 87860 22224 00290 20502 318// 40401 80245
BBXX A8EH3 12123 99533 11738 41397 73321 10000 49850 54000 78587 877// 22224 04050 29904 330// 41005
BBXX SHIP 12124 99309 11404 41/97 72718 10182 40205 52001 75022 8//// 9//// 22283 00227 2////
BBXX A8PX5 12124 99400 11383 41597 52334 10051 20051 40231 50/// 70100 8549/ 22254 04121 20206 3//// 4//// 5//// 80051
BBXX SHIP 12124 99284 11340 41698 73515 10195 20130 40210 52006 70222 85/// 22240 00220 2//// 3//// 4//// 80155
BBXX SHIP 12124 99220 11226 41297 80326 10210 20195 40150 52017 76362 87/// 22213 00251 80200
BBXX SHIP 12124 99321 11455 41597 72713 10190 20123 40191 57004 70211 8645/ 22273 06216 20202 327// 40505 80150
BBXX JNCJ 12124 99335 11397 41497 22835 10130 20051 40180 54000 70111 82100 22273 00230 20305 331// 40305 80090
BBXX SHIP 12124 99230 11781 41/97 30914 10256 20186 40204 57008 70111 8//// 22223 04260
BBXX SHIP 12124 99179 11306 41/98 /0811 10270 20257 40133 57025 70222 8//// 22244 00280 80260
BBXX JPBN 12124 99284 11464 41/97 80411 10182 20160 40200 53008 78022 882// 22271 00230 1//03 20301 399// 4//02 70014
BBXX JGQH 12124 99242 11354 41/97 80622 10220 20211 40175 53012 78082 882// 22261 00247 1//06 20503 399// 4//04 70029
BBXX A8VL5 12124 99062 10928 41398 62210 10250 20235 40210 53010 70322 86500 22265 00270 20101 30000 80240
BBXX SMGW 12121 99357 11274 43/98 63609 10105 40267 50011 22264 00192 20302 4////
BBXX DCSL2 12124 99286 11675 41298 52518 10240 20211 40190 54000 70211 857// 22264 00233 20202 80220
BBXX AUTV 12124 99184 10704 41698 50515 10300 20201 40093 55002 70010 84001 22233
BBXX A8AD7 12123 99071 70131 41397 10402 10280 20239 40120 54000 70522 81718 22233 02290 20301 318// 40301 80250
BBXX VRCZ7 12123 99276 10340 41598 23624 10200 20109 40180 54000 70200 82100 22274 20603 3//// 4//// 5//// 80150
BBXX 2BLY5 12123 99057 50311 41498 20511 10272 20245 40128 50009 7//00 8/16/ 22253 00279 20302 80253
BBXX SHIP 12124 99248 30477 41598 60130 10285 20251 40082 57030 70022 84820 22212 04270 20505 3//// 4//// 5//// 80260
BBXX DCPY2 12123 99195 10392 41/96 59902 10290 20248 40130 57015 70511 85030 22200 00270 2//01 80260
BBXX ELWP5 12121 99049 10010 41397 70103 10295 20240 40165 56015 70522 8761/ 22200 04270 299// 3//// 4//// 5//// 80255
BBXX DFUM2 12123 99145 10424 41998 01825 10278 20186 40130 57030 70200 80000 22275 00270 20604 80215
BBXX A8UQ3 12123 99046 70026 41597 59904 10295 20262 40130 50005 70211 84017 22263 00300 299// 318// 41002 80270
BBXX WAHV 12123 99127 10478 43998 00607 10270 2023/ 40137 57020 80000 22225 00269 20301 308// 40703 80238
BBXX DHDH 12124 99105 10656 41397 80321 10272 20249 40082 58010 70322 8/774 22225 20304 80255
BBXX SHIP 12124 99137 31087 41498 53004 10280 20253 40090 53006 70122 8429/ 22214 00286 80260
BBXX IDDUK02 12124 99656 50668 46/// ///// 49680 222//
BBXX 44032 12121 99437 70694 46/30 /2309 10058 40318 53006 91204 22200 00089 10604 70019 333 91211 555 11112 22118
BBXX 46112 12121 99481 71227 46/// /3006 10056 40238 54000 91200
BBXX 46111 12121 99481 71227 46/// /3007 10055 40238 54000 91200 22200 00059
BBXX C6VG7 12124 99258 70779 415// 40725 10230 2//// 40180 5/010 7//11 84/6/ 22232 0//// 20502 3//// 40502 50502 6//// 8//// ICE /////
BBXX VQKZ5 12123 99003 70809 41598 72209 10235 20204 40128 53050 70200 83288 22244 02242 2//// 322// 404// 5//// 80215
BBXX V7OX3 12124 99250 50468 41598 20405 10220 20189 40090 54000 7//00 8/14/ 22253 04220 21402 314// 41603 5//// 80200
BBXX C6XQ2 12123 99325 50508 41598 53611 10220 20189 40105 54000 70211 84546 22253 04210 20804 309// 41003 5//// 80200
BBXX BAREU11 12124 99040 70804 46/// ///// 40114 52005 22284
BBXX PDZS 12123 99517 50526 41899 53318 10097 20064 40094 53011 70211 83098 22222 02069 20402 334// 40807 5//// 80080
BBXX WKAE 12123 99504 10006 41498 42724 10103 20036 40085 51008 70211 84100 22223 00120 20405 3//// 4//// 5//// 6//// 80071 ICE /////
BBXX A8SF8 12124 99361 70347 41597 52416 10200 20135 40315 53/// 70222 8546/ 22254 04190 20504 399// 40904 80160
BBXX DFUX2 12124 99380 70096 41599 33004 10190 20142 40280 52030 7//00 832// 22284 00160 2//// 330// 41208 80160
BBXX A8LN2 12123 99454 70109 41296 82337 10155 20071 40155 57/// 70082 8/7// 22253 04135 21416 305// 42014 80110
BBXX 62094 12124 99517 70067 46/// /2124 10102 20039 40018 58029 22200 00113 10605 70024 333 90710 91133
BBXX 62107 12124 99501 70061 46/// /2229 10106 20042 40067 58023 22200 00120 11311 70055 333 90710 91137
BBXX 62027 12124 99491 70022 46/// /2719 1//// 2//// 40130 52015 22200 00123 12006 302// 70029
BBXX 62095 12124 99530 70159 46/// /2427 10117 20075 49800 57021 22200 00116 10811 70057 333 90710 91142
BBXX VRBI2 12124 99467 70072 41297 52325 10140 20056 40154 70311 85772 22214 00180 20508 3//// 4//// 5//// 80100
BBXX TBWUK30 12123 99362 70126 41398 31403 10170 20135 40336 54000 70122 8/260 22284 00190 20000 32802 41007 50806 80150
BBXX 62169 12123 99614 10014 41399 61510 10060 20055 49842 57010 72582 86200 22200 20102 324// 40606 5//// 80058
BBXX DRMX 12123 99437 10081 41598 32420 10145 20132 40117 56018 70181 8/800 22251 02172 20403 322// 40503 5//// 80138
BBXX MCZN2 12124 99511 70062 41297 82037 10105 20085 40046 56010 70222 887// 22243 04120 20103 32000 40106 50000 80095
BBXX 62159 12124 99605 10017 41597 61820 10069 20031 49821 57020 76162 863// 22200 11605 70025
BBXX 62305 12124 99504 10000 46/98 /2725 10102 20036 40099 51009 22200 00126 10703 70015 333 90710 91131
BBXX 62304 12124 99511 10018 46/99 /2723 10074 20035 40077 52010 22200 00117 10502 70011 333 90710 91133
BBXX 62103 12124 99499 70029 46/99 /2626 10101 20042 40098 51010 22200 00128 10906 70029 333 90710 91138
BBXX 62170 12124 99514 10020 46/98 /2626 10077 20040 40070 51010 22200 00116 10501 70007 333 90710 91133
BBXX DMDZ 12123 99340 70096 41698 30513 10175 20143 40300 52030 70200 83162 22253 04180 20601 333// 41001 5//// 80155
BBXX 62094 12124 99517 70067 46/// /21// 10102 2//// 40018 58029 22200 00113 10605 70025
BBXX AMOUK09 12124 99507 10008 46/// ///// 10098 20031 30067 40085 52011 91150
BBXX 62146 12124 99572 10021 47/98 /2520 10072 20012 49926 53006 700// 22200 10606 70028
BBXX 62118 12124 99577 10009 47598 /2423 10087 20020 49900 51008 700// 22200 10605 70025
BBXX 64045 12124 99591 70117 46/// /2312 10066 20004 49822 58013 22200 00102 11012 70060
BBXX 62153 12124 99573 10020 47598 /2512 10074 20026 49916 53007 700// 22200 10606 70028
BBXX 62140 12124 99573 10013 46/// /26// 10075 20021 49911 52012 22200
BBXX 62122 12124 99573 10016 47598 /2520 10078 20020 49923 52009 700// 22200 10605 70027
BBXX 62104 12124 99574 10013 47998 /2620 10083 20021 49910 51008 700// 22200
BBXX 62116 12124 99576 10011 47598 /2521 10075 20016 49905 51010 700// 22200 10605 70027
BBXX 62155 12124 99577 10007 47598 /2522 10073 20020 49912 51009 700// 22200 10605 70025
BBXX 62117 12124 99579 10000 47598 /2521 10077 20026 49895 51007 700// 22200 10605 70025
BBXX 62134 12124 99580 10014 47598 /2621 10072 20019 49903 52010 700// 22200 10606 70028
BBXX 62143 12124 99577 10018 47598 /2721 10072 20008 49917 51014 700// 22200 10605 70027
BBXX 62102 12124 99579 10018 46/// /2619 10070 20023 49902 53007 22200 10605 70026
BBXX 62114 12124 99583 10000 46/// /2425 10066 20019 49882 50006 22200
BBXX ZQSD5 12124 99583 10007 46/// /2523 10072 20018 49892 52006 22200 10708 70041
BBXX 62113 12124 99584 10002 47598 /2423 10068 20021 49890 51010 700// 22200
BBXX 46204 12121 99514 71288 46/// /0705 10056 40250 57011 22200 00084 11002 70012 333 91206
BBXX 46131 12121 99499 71250 46/// /3304 1//// 40261 57003 22200 00068 10200 70002 333 91205
BBXX 42362 12121 99278 70907 46/// /0507 10189 20156 40241 91215
BBXX 42364 12121 99291 70881 46/// /0607 10183 20156 40251 91215
BBXX 42363 12121 99282 70892 46/// /0709 10194 20156 40244 91215 333 91209
BBXX 46183 12121 99536 71311 46/// /1612 10051 40202 57023 22200 00077 10503 70014 333 91214
BBXX 9V8796 12124 99445 70570 41498 72921 10010 21016 40356 51026 70222 8577/ 22263 00053 20402 332// 40804 80000
BBXX C6KJ5 12124 99262 70909 41497 80220 10210 2020/ 40220 52002 70326 88220 22233 00238 80200
BBXX WFLH 12123 99284 71349 41/98 53013 10167 20098 40230 54000 7//22 8//// 22264 00167 20403 330// 41204 5//// 6//// 80128 ICE /////
BBXX 46147 12121 99518 71312 46/// /1809 10066 40222 57021 22200 00080 10903 70017 333 91211
BBXX SHIP 12124 99342 71452 41/// 71617 10160 20144 40287 56018 70302 8//// 91150 22264 00180 2//// 3//// 4//// 5//// 80150
BBXX PHIN 12124 99467 70509 41598 63029 11001 21046 40292 53017 70122 86400 22223 00030 20608 333// 40906 81017
BBXX PFBE 12123 99222 70524 41498 71122 10260 20210 40181 52006 72111 84715 22264 00260 20604 309// 40904 80225 90253
BBXX 46221 12121 99339 71186 46/// ///// 1//// 91145 22200 00149 11502 21001 320// 41501 70008
BBXX 44097 12121 99410 70711 46/// ///// 1//// 91202 22200 00126 10801 20801 70005
BBXX 41112 12121 99307 70813 46/// ///// 1//// 91151 22200 00163 10605 20605 309// 41101 70026
BBXX 41113 12121 99284 70805 46/// ///// 1//// 91151 22200 00220 10903 20903 308// 41101 70017
BBXX 51205 12121 99210 71564 46/// ///// 1//// 91218 22200 00242 11107 21005 309// 41105 70037
BBXX 46114 12121 99364 71222 46/// ///// 1//// 91204 22200 00122 11504 21002 328// 41504 70021
BBXX PBKH 12124 99297 71298 41/98 63530 10140 20082 40199 50000 71811 8437/ 22264 20202 399// 4//05 5////
BBXX 46211 12121 99469 71242 46/// ///// 1//// 91206 22200 00082 11304 20803 328// 41302 70019
BBXX 46222 12121 99336 71183 46/// ///// 1//// 91156 22200 00155 11502 21001 326// 41502 70009
BBXX 46242 12121 99332 71174 46/// ///// 1//// 91158 22200 00147 11501 21001 322// 41501 70007
BBXX 46231 12121 99327 71174 46/// ///// 1//// 91154 22200 00156 11502 21001 326// 41502 70012
BBXX 46240 12121 99366 71219 46/// ///// 1//// 91212 22200 00122 11501 21001 301// 41501 70007
BBXX 46223 12121 99335 71178 46/// ///// 1//// 91200 22200 00155 11502 21001 325// 41502 70009
BBXX 46237 12121 99378 71226 46/// ///// 1//// 91210 22200 00113 11504 21003 326// 41503 70021
BBXX 41115 12121 99184 70673 46/// ///// 1//// 91205 22200 10902 20902 301// 41101 70008
BBXX 46248 12121 99461 71247 46/// ///// 1//// 91204 22200 00087 11305 20803 329// 41303 70023
BBXX 46249 12121 99338 71197 46/// ///// 1//// 91215 22200 00144 11502 20901 323// 41502 70010
BBXX 46241 12121 99330 71173 46/// ///// 1//// 91141 22200 00149 11502 20501 326// 41502 70010
BBXX FLAO 1212/ 99764 70847 46/// ///// 11203 40019 57003
BBXX WDC6925 12124 99404 70353 41697 52527 10180 20172 40230 52016 71511 83136 22213 00170 20202 328// 40807 5//// 6//// 80175 ICE /////
BBXX KABL 12124 99394 70632 41598 80317 10110 2005/ 40360 54000 70222 889// 22214 00235 20202 303// 40404 5//// 6//// 80080 ICE /////
BBXX 46207 12121 99509 71299 46/// /2204 10061 40250 57012 22200 00085 11003 70015 333 91206
BBXX SBLI 12121 99308 71278 43/98 73519 10130 40151 52002 22254 00167 2//// 4//// NNNN 426621110
BBXX 41029 12121 99328 70796 46/// /0410 1//// 91200 555 11129 22154
BBXX 44067 12121 99384 70770 46/// /0000 10018 40350 56008 91200
BBXX WDF7020 12124 99452 70832 41/98 72022 1//// 2//// 40268 53/// 703// 8//// 222// 0//// 2//// 3//// 4//// 5//// 6//// 8//// ICE /////
BBXX 62129 12124 99584 10003 46/// ///// 10067 20023 49892 51009 22200
BBXX 62142 12124 99530 10021 46998 /2622 10065 20022 40027 51010 22200 10403 70014
BBXX 63057 12124 99592 10015 47497 /2614 10056 20031 49867 53001 700// 22200 10806 70029
BBXX 62128 12124 99587 10014 47598 /2524 10067 20017 49875 58002 700// 22200 10705 70027
BBXX 62145 12124 99531 10028 47498 /2320 10062 20022 40028 51009 700// 22200 10504 70018
BBXX 62144 12124 99534 10017 47497 /2426 10060 20030 40029 52012 700// 22200 10504 70022
BBXX 62132 12124 99564 10020 46/// /2816 10075 20023 49948 52012 22200
BBXX 62121 12124 99535 10027 46/// /2523 10066 20023 40018 51012 22200
BBXX 62150 12124 99536 10007 47998 /2316 10057 20022 40023 51011 700// 22200 10402 70010
BBXX 62120 12124 99564 10021 47698 /2622 10072 20027 49937 53005 700// 22200
BBXX 62149 12124 99537 10011 47998 /2324 10066 20029 40013 51014 700// 22200 10503 70017
BBXX 62148 12124 99536 10015 46/// /2324 10065 20029 40021 51013 22200
BBXX 62131 12124 99539 10012 46/// /24// 10067 20031 40004 52012 22200
BBXX 62165 12124 99540 10009 47998 /2527 10064 20027 40004 51009 700// 22200 10504 70019
BBXX 62127 12124 99540 10007 47999 ///// 10062 20023 40003 52013 700// 22200 10503 70017
BBXX 62123 12124 99563 10022 47698 /2523 10075 20030 49940 52006 700// 22200
BBXX 62154 12124 99564 10022 46/// /2521 10071 20023 49937 52005 22200
BBXX 62119 12124 99570 10019 47598 /2722 10077 20022 49931 52010 700// 22200 10605 70027
BBXX 62152 12124 99570 10018 47/97 /2415 10072 20021 49931 52007 700// 22200 10506 70029
BBXX 62133 12124 99571 10009 46/// /2423 10071 20016 49917 51009 22200
BBXX PJGO 12124 99571 10022 47598 /2515 10075 20034 49922 53003 700// 22200
BBXX 63115 12124 99616 10013 47498 /1609 10121 20031 49834 57017 700// 22200 10908 70041
BBXX 62164 12124 99572 10008 47598 /2415 10087 20032 49923 52011 700// 22200 00098 10606 70031
BBXX MWYG6 12124 99603 70040 47998 /2424 10075 700// 22200
BBXX 63117 12124 99613 10011 47599 /1910 10063 20006 49837 57017 730// 22200
BBXX 63104 12124 99612 10016 47499 /1911 10060 20019 49839 57015 700// 22200
BBXX 63107 12124 99611 10017 46/// /1910 10060 49839 57013 22200
BBXX 63112 12124 99611 10010 46/// /2010 10069 20009 49830 57019 22200 11007 70036
BBXX 63101 12124 99612 10009 46/// /2011 10062 20025 49833 57020 22200
BBXX 63113 12124 99610 10017 46/// /1909 10062 20021 49840 57015 22200 11006 70031
BBXX 63103 12124 99612 10011 46/// /2012 10064 20015 49834 57019 22200 11107 70036
BBXX 63105 12124 99610 10017 47798 ///// 10065 20023 49840 58013 700// 22200
BBXX 63108 12124 99608 10017 47999 /2117 10058 20010 49834 57013 700// 22200 11005 70025
BBXX 63106 12124 99610 10017 46/// /1909 10059 49841 58013 22200
BBXX 62111 12124 99580 70003 46/// /2723 10066 20009 49907 50008 22200 10605 70025
BBXX 64041 12124 99607 70026 47598 /2317 10060 20020 49804 57006 700// 22200 11110 70050
BBXX PJAI 12124 99581 70014 47598 /2421 10077 20015 49886 50004 700// 22200
BBXX 63055 12124 99606 10016 47698 /1913 10067 20022 49838 57016 700// 22200 10805 70026
BBXX 63056 12124 99597 10016 47498 /2319 10058 20017 49846 58009 740// 22200 10805 70027
BBXX 62112 12124 99584 70002 47598 /2521 10066 20019 49885 50008 700// 22200
BBXX AMOUK10 12124 99508 70011 46/// ///// 10100 20040 30083 40090 5//// 91150
BBXX AMOUK27 12124 99581 70058 46/// ///// 1//// 2//// 39854 49856 52007 91150
BBXX AMOUK05 12124 99537 70003 46/// ///// 10052 20027 39965 40007 52017 91150
BBXX AMOUK02 12124 99533 70062 46/// ///// 10067 20016 39953 4//// 5//// 91150
BBXX AMOUK06 12124 99509 70014 46/// ///// 10097 20045 30056 40079 52012 91150
BBXX AMOUK21 12124 99565 70068 46/// ///// 10075 20016 39911 4//// 5//// 91150
BBXX AMOUK14 12124 99535 70030 46/// ///// 10073 20029 39976 40012 52011 91150
BBXX AMOUK19 12124 99571 70021 46/// ///// 10056 2//// 39907 49910 52006 91150
BBXX AMOUK08 12124 99501 70061 46/// ///// 10114 20057 30061 40069 54002 91150
BBXX DPUW 12124 99374 10031 41598 62917 10185 20118 40250 54000 70322 85577 22224 00190 20303 30000 4//// 5//// 80145
BBXX AMOUK03 12124 99537 70003 46/// ///// 10056 20036 39968 4//// 5//// 91150
BBXX 62442 12124 99490 70164 46/// /2427 1//// 2//// 49962 58011 22200 00130 333 90710 91136
BBXX 62029 12124 99487 70125 46/// /2232 10129 20119 49992 56058 22200 00136 10914 70071 333 90710 91145
BBXX 64046 12124 99606 70049 46/// /2618 10066 20035 49794 50000 22200 00095 11013 70063
BBXX 62001 12124 99452 70050 46/// /2516 10132 20068 40198 58002 22200 00150 11111 70057
BBXX 62163 12124 99475 70084 46/// /2224 10121 20075 40112 58032 22200 00133 11012 70060 333 90710 91132
BBXX 62105 12124 99554 70122 46/// /1528 10076 20045 49812 58095 22200 00108 11011 70055 333 90710 91145
BBXX 62081 12124 99510 70134 46/// ///// 10131 20109 49900 56050 22200 00119 11014 70070
BBXX 62303 12124 99516 70051 46/// /2219 10099 20032 40040 58012 22200 00116 10606 70031
BBXX 63110 12123 99595 10015 41496 52530 10056 20022 49851 78186 858// 22200 10905 70025
BBXX 62301 12124 99524 70047 46/// /2317 10090 20039 40018 58014 22200 00106 10605 70023
BBXX PBEO 12123 99398 70098 41598 73311 10165 20079 40278 52019 70322 86548 22282 02166 20201 333// 40704 80118
BBXX DDZA2 12124 99368 10016 41498 52821 10170 20119 40235 51015 7//22 85468 22263 04180 20304 80140
BBXX BATFR62 12124 99497 70017 46/// /2626 10109 20040 40106 50011 22262 00139
BBXX 61002 12124 99421 10047 46/// ///30 10140 2//// 40190 52004 22200 00154 10503 70016 555 1/041
BBXX C6CU6 12123 99402 70196 41597 72725 10155 20137 40271 51023 70122 87566 22253 04140 21412 332// 41911 5//// 80145
BBXX BATFR42 12124 99502 70027 46/// /2420 10102 20054 40094 58020 22224 00134
BBXX BATUK01 12124 99578 70066 44596 62606 10067 20005 49875 53002 72022 8623/ 22232 00114 20404
BBXX MHNL6 12123 99362 70227 41298 73215 10180 20136 40313 54000 70222 877// 22223 00197 20402 334// 40704 5//// 80155
BBXX BATFR54 12124 99441 70076 46/// /2331 10134 20075 4//// 22263 00147
BBXX BATFR06 12124 99454 70013 46/// /2815 10137 20054 40205 50007 22212 00157
BBXX DCPX2 12123 99335 10252 41597 72507 10210 20147 40250 54000 70200 865// 22225 04200 20400 30000 80170
BBXX BATFR60 12124 99483 70056 46/// /2227 10114 20059 40111 58009 22233 00124
BBXX 61001 12124 99434 10078 46/// /2424 10151 20103 40120 57016 22200 00155 10502 70009 555 1/033
BBXX BATEU02 12124 99532 70095 46/// /1625 10062 20034 49920 58066 22200 00100
BBXX BATFR41 12124 99437 10073 46/// ///// 10147 20084 40117 22231
BBXX BATFR15 12124 99395 70140 44798 22512 10160 20082 40267 50002 70332 82135 22254 00172 20708 335// 40708 5////
BBXX BATFR27 12124 99495 70022 46/// /2527 10127 20055 40109 22285 00132
BBXX BATFR01 12124 99363 10204 46/// /2217 10195 20125 40235 58007 22222 00190
BBXX BATFR04 12124 99596 70101 46/// /2319 10059 20010 49814 22272 00099
BBXX BAREU04 12124 99520 70062 46/// ///// 40015 57028 22224
BBXX BATFR02 12124 99506 70009 46/// /2636 10099 20022 40078 58018 22284 00119
BBXX BAREU63 12124 99317 10290 46/// /3412 10179 29064 40244 57023 22233
BBXX LF5T 12124 99660 10081 43598 81318 10038 20009 49875 57022 88/// 22200 10704 70020 333 91134
BBXX LF4C 12124 99584 10019 41598 62521 10072 20014 49888 52008 72582 86200 22200 00078 10705 70023 333 91128
BBXX LF4B 12124 99606 10037 47/98 /2223 10054 49857 52006 781// 22200 00059 10806 70029 333 91127
BBXX 3ERR2 12124 99635 10053 43/// /1108 10072 20029 49854 57023 22200 11606 70030 333 91114
BBXX LF3N 12124 99653 10073 41597 42111 10065 20011 49867 57008 70282 84300 22200 00089 11108 70039
BBXX LF3F 12124 99643 10078 41598 31313 10055 20018 49872 57017 70200 832// 22200 04087 10906 70028 333 91120
AAXX 12120 44354 329// 60000 11194 21213 39078 40283 57013 86070 333 11092
AAXX 12120 44358 329// 40903 11194 21200 39084 40319 56010 82042 333 11164
AAXX 12124 41515 02997 00000 10108 21090 38534 48497 60002 333 10150 59012 60007
AAXX 12124 41560 22697 31804 10050 21024 38258 48488 60002 82430 333 10070 59006 60007
AAXX 12124 41571 11996 02304 10200 20028 39587 40165 60002 70500 333 10235 58036
AAXX 12124 41594 31996 01304 10200 20060 39953 40170 70500 333 10235 58033
AAXX 12124 41685 32997 20000 10210 21071 38916 48509 82020 333 10215 56090 58021 82460
AAXX 12124 41710 02997 31302 10220 21069 39388 40149 60002 80001 333 10230 56009 58028 60007 83070
AAXX 12124 41718 12996 00000 10260 20099 30046 40147 60002 333 10267
AAXX 12124 41739 02997 03608 10220 21137 39054 48522 60002 333 10230 58009 60007
AAXX 12124 41744 32996 03104 10230 21042 38764 48499 333 10240 58004
AAXX 12124 41749 01996 02702 10255 20104 30105 40138 60002 70400 333 10275 58012 60007
AAXX 12124 41506 02997 03604 10130 21027 48493 60002 333 10150 59002 60007
AAXX 12124 41508 22997 01802 10117 21106 48543 60002 333 10165 58018 60007
AAXX 12124 41523 12997 00000 10155 21038 48544 60002 333 10165 58027 60007
AAXX 12124 41535 12997 01302 10140 20007 48492 60002 333 10165 58019
AAXX 12124 41536 02997 00000 10120 20048 48514 60002 333 10200 58026 60007
AAXX 12124 41573 12997 00000 10080 20039 48515 60002 333 10140 58028
AAXX 12124 41600 01995 00000 10195 20114 38865 40160 60002 70400 333 10234 58032 60007
AAXX 12124 41630 11996 00000 10210 20075 40169 60002 70500 333 10235 58034
AAXX 12124 41678 12697 40000 10240 20089 40167 60002 85400 333 10255 56900 58008 84640
AAXX 12124 41696 02997 03102 10130 21123 38022 48526 60002 333 10150 58007 60007
AAXX 12124 41697 02997 00000 10256 20137 39996 40150 60002 333 10265 58023 60007
AAXX 12124 41700 11996 10000 10235 20073 30019 40145 60002 70500 81030 333 10260 56090 58025 81360
AAXX 12124 41725 02997 00000 10260 20099 30055 40133 60002 333 10265 58018 60007
AAXX 12124 41746 02996 03102 10235 20143 30087 40140 60002 333 10245 58019 60007
AAXX 12124 41759 12996 02304 10265 20129 30140 40146 60002 333 10295 58000
AAXX 12124 41785 02997 02302 10270 20061 30124 40137 60002 333 10285 58008 60007
AAXX 12124 41529 12997 03102 10164 20076 39800 40184 60002 333 10200 58040
AAXX 12124 41598 11996 00000 10215 20095 39890 40159 60002 70500 333 10250 58032
AAXX 12124 41620 32997 01305 10190 21268 38591 48496 333 10205 58017
AAXX 12124 41624 02997 00902 10200 20074 39959 40159 60002 333 10220 58032 60007
AAXX 12124 41640 01996 00000 10205 20093 39910 40158 60002 70500 333 10231 58031 60007
AAXX 12124 41660 12997 23116 10140 21044 38451 48541 60002 80001 333 10150 56009 58016 82072
AAXX 12124 41675 11996 10000 10235 20044 30012 40155 60002 70500 81030 333 10256 56090 58026 81362
AAXX 12124 41712 11996 60508 10210 21118 39224 48549 60002 70600 80011 333 10230 56099 58028 83460 83070
AAXX 12124 41715 01996 00904 10250 20131 30074 40138 60002 70500 333 10255 58010 60007
AAXX 12124 41756 01996 02706 10260 20073 30061 40125 60002 70500 333 10270 58000 60007
AAXX 12124 41764 32996 01802 10285 20146 30079 40127 60002 333 10290 58015 60007
AAXX 12124 41768 02996 00000 10265 20118 30131 40138 60002 333 10295 58008 60007
AAXX 12124 41780 02996 02306 10270 20166 30109 40136 60002 333 10295 58007 60007
AAXX 12124 94996 47002 80308 10222 20216 39987 40123 50000 7//44 91230 333 10255
AAXX 12124 41529 12997 03102 10164 20076 39800 40184 60002 333 10200 58040
AAXX 12124 41598 11996 00000 10215 20095 39890 40159 60002 70500 333 10250 58032
AAXX 12124 41620 32997 01305 10190 21268 38591 48496 333 10205 58017
AAXX 12124 41624 02997 00902 10200 20074 39959 40159 60002 333 10220 58032 60007
AAXX 12124 41640 01996 00000 10205 20093 39910 40158 60002 70500 333 10231 58031 60007
AAXX 12124 41660 12997 23116 10140 21044 38451 48541 60002 80001 333 10150 56009 58016 82072
AAXX 12124 41675 11996 10000 10235 20044 30012 40155 60002 70500 81030 333 10256 56090 58026 81362
AAXX 12124 41712 11996 60508 10210 21118 39224 48549 60002 70600 80011 333 10230 56099 58028 83460 83070
AAXX 12124 41715 01996 00904 10250 20131 30074 40138 60002 70500 333 10255 58010 60007
AAXX 12124 41756 01996 02706 10260 20073 30061 40125 60002 70500 333 10270 58000 60007
AAXX 12124 41764 32996 01802 10285 20146 30079 40127 60002 333 10290 58015 60007
AAXX 12124 41768 02996 00000 10265 20118 30131 40138 60002 333 10295 58008 60007
AAXX 12124 41780 02996 02306 10270 20166 30109 40136 60002 333 10295 58007 60007
AAXX 12124 41515 02997 00000 10108 21090 38534 48497 60002 333 10150 59012 60007
AAXX 12124 41560 22697 31804 10050 21024 38258 48488 60002 82430 333 10070 59006 60007
AAXX 12124 41571 11996 02304 10200 20028 39587 40165 60002 70500 333 10235 58036
AAXX 12124 41594 31996 01304 10200 20060 39953 40170 70500 333 10235 58033
AAXX 12124 41685 32997 20000 10210 21071 38916 48509 82020 333 10215 56090 58021 82460
AAXX 12124 41710 02997 31302 10220 21069 39388 40149 60002 80001 333 10230 56009 58028 60007 83070
AAXX 12124 41718 12996 00000 10260 20099 30046 40147 60002 333 10267
AAXX 12124 41739 02997 03608 10220 21137 39054 48522 60002 333 10230 58009 60007
AAXX 12124 41744 32996 03104 10230 21042 38764 48499 333 10240 58004
AAXX 12124 41749 01996 02702 10255 20104 30105 40138 60002 70400 333 10275 58012 60007
AAXX 12124 94996 47002 80308 10222 20216 39987 40123 50000 7//44 91230 333 10255
AAXX 12121 55299 32980 03202 11076 21252 35834 52003 333 05202
AAXX 12121 55591 32980 00701 10009 21221 36485 52004 333 05152
AAXX 12121 56739 32578 73201 10115 20020 38350 52008 87400 333 00051
AAXX 12121 56951 32770 21801 10127 20042 38500 52011 82400 333 00051
AAXX 12121 56964 32570 80000 10134 20108 38719 40174 52011 884// 333 05103
AAXX 12121 57328 32961 00000 10062 20019 39845 40271 52017
AAXX 12121 57411 31957 00000 10078 20027 39881 40263 52016 71000
AAXX 12121 57447 32968 03401 10056 20042 39709 40271 52010
AAXX 12121 57662 32968 80701 10096 21044 30224 40269 52010 8807/
AAXX 12121 57745 32968 80000 10100 20011 39926 40261 52008 8807/
AAXX 12121 57972 32965 00000 10076 21016 30032 40264 52009
AAXX 12121 58203 32960 00901 10043 21055 30250 40293 52010
AAXX 12121 58314 32965 01801 10017 21014 30174 40286 52011
AAXX 12121 58424 32960 00402 10057 21053 30256 40283 52006
AAXX 12121 59023 32870 80401 10135 20009 39911 40226 52007 885//
AAXX 12121 59417 32572 71401 10143 20076 30049 40208 52009 8114/
AAXX 12121 59985 11570 80407 10222 20207 30142 40147 52019 60011 78080 882//
AAXX 12121 59995 NIL
AAXX 12120 44329 32998 20000 11154 21235 37736 40326 51001 80001 333 11089
BBXX BAREU62 12124 99386 10257 46/// ///// 40229 57031 22254
BBXX 46185 12121 99524 71298 46/// /1907 10058 40237 57013 22200 00068 11401 70005 333 91208
AAXX 12124 42309 31595 30000 10184 20157 40137 70521 81530 333 10240 59002
AAXX 12124 42314 31995 10000 10190 20149 40147 70500 81030 333 10243 59002 81360
AAXX 12124 42410 31995 00000 10202 20175 40140 70500 333 10240 58003
AAXX 12124 42415 32996 20000 10192 20169 40160 82030 333 10252 58005 82360
AAXX 12124 42492 31994 00000 10174 20154 40151 71000 333 10190 58012
AAXX 12124 42587 31995 00000 10200 20122 40146 70500 333 10242 58016
AAXX 12124 42591 31995 00203 10194 20153 40154 70500 333 10234 58016
AAXX 12124 42623 31595 10000 10158 20070 39257 40138 70500 81500 333 10228 58004 81620
AAXX 12124 42701 31495 63401 10184 20148 39404 40138 70522 84530 333 10234 58010 84615 86360
AAXX 12124 42706 31995 10000 10224 20165 40144 70510 81030 333 10251 58021 81360
AAXX 12124 42724 31995 20000 10210 20167 40139 70510 82030 333 10258 58001 82360
AAXX 12124 42798 31994 30902 10220 20164 40129 70422 83030 333 10252 58014 83360
AAXX 12124 42809 31495 50000 10218 20162 40136 70522 84530 333 10254 58018 84615 83360
AAXX 12124 42886 31596 10000 10250 20134 40128 70500 81500 333 10294 58012 81620
AAXX 12124 42895 31595 33602 10236 20179 40129 70500 82530 333 10290 58016 82620
AAXX 12124 42971 31995 00000 10256 20166 40127 70510 333 10306 58012
AAXX 12124 43333 31495 61109 10268 20211 40105 70522 84401 333 10307 56209 58006 82618 84070
AAXX 12124 42398 NIL
AAXX 12124 42977 NIL
AAXX 12124 43368 NIL
AAXX 12123 63726 32570 31402 10255 20147 38108 48443 83100 333 59002 83820 555 10185
AAXX 12123 63680 32565 40505 10285 20173 38785 84900 333 59005 84827 81930 555 10210
AAXX 12124 89050 11196 80514 11004 21014 49774 57034 69902 77941 886//
AAXX 12124 89512 42998 10304 11045 21107 39666 49815 57003 81030
AAXX 12124 89574 32598 80102 11026 21075 49777 57002 8257/ 333 11020
AAXX 12124 89592 32998 60000 11021 21058 49787 52002 86030
AAXX 12124 89606 32998 31804 11298 21373 36206 47858 57002 80001
AAXX 12124 61202 NIL
AAXX 12124 61214 NIL
AAXX 12124 61223 31958 11012 10296 21016 39872 40168 70600 80002 333 0//00 58017 81075
AAXX 12124 61226 32960 00614 10288 20049 39875 40171 333 0//00 58022
AAXX 12124 61230 31958 30808 10303 21080 39852 40119 70600 80002 333 0//00 58021 83075
AAXX 12124 61233 31958 61210 10297 21033 3//// 4//// 70611 80002 333 0//00 5//// 86075
AAXX 12124 61235 NIL
AAXX 12124 61240 31958 31014 10290 21019 39828 40152 70600 80002 333 0//00 58017 83075
AAXX 12124 61250 32960 00804 10276 20111 3//// 4//// 333 0//00 5////
AAXX 12124 61257 31910 41010 10310 20035 30076 40169 70611 80002 333 0//00 58017 84075
AAXX 12124 61265 31950 20810 10300 21006 39841 40147 70600 80002 333 0//00 58019 82075
AAXX 12124 61270 31956 00410 10310 20011 3//// 4//// 70600 333 0//00 5////
AAXX 12124 61272 31958 00408 10312 20004 39815 40138 70600 333 0//00 58007
AAXX 12124 61277 31940 41410 10310 20023 39818 40136 70600 80002 333 0//00 58024 84075
AAXX 12124 61285 31958 61206 10331 20030 39974 40124 70622 80002 333 58010 86075
AAXX 12124 61291 31915 01010 10300 21005 39724 40131 70600 333 0//00 58020
AAXX 12124 61293 31930 40808 10295 20067 3//// 4//// 70611 80002 333 0//00 5//// 84075
AAXX 12124 61296 31930 60806 10300 20102 3//// 4//// 70622 80002 333 0//00 5//// 86075
AAXX 12124 61297 31930 70808 10297 20017 3//// 4//// 70622 80002 333 0//00 5//// 87075
BBXX ZMFR 12124 99491 31670 43/// /02// 10115 20110 40096 52002 22241 00105
BBXX ZMFR 12124 99491 31670 43/// /02// 10115 20110 40096 52002 22241 00105
BBXX 46185 12121 99524 71298 46/// /1907 10058 40237 57013 22200 00068 11401 70005 333 91208
AAXX 12121 24790 11999 80506 11174 21200 39187 40020 52001 69930 73673 8807/ 333 11230
AAXX 12121 24988 32699 83002 11160 21220 39730 49990 53005 8455/ 333 11148
AAXX 12121 25378 41596 83505 11029 21049 39788 49820 52026 78583 8692/ 333 91109
AAXX 12121 25503 11696 83202 11181 21207 39879 40011 52011 60030 77373 8452/ 333 11193
AAXX 12121 25705 11695 82301 11215 21233 39671 40017 52015 60030 78682 889// 333 11211
AAXX 12121 25927 32698 63206 11198 21247 39917 49924 52009 84930 333 11174 91111
AAXX 12121 25932 32999 80105 11181 21222 39830 49869 52013 80007 333 11151
AAXX 12121 31152 32997 51802 11330 21367 39745 40194 54000 80002 333 11330
AAXX 12121 31174 11599 13107 11171 21230 30082 40094 52002 69900 73631 81500 333 11168 91011 91116
AAXX 12121 31489 32999 00000 11273 21298 30018 40146 52006 333 11171
AAXX 12121 31866 32999 03004 11134 21256 30151 40156 52019 333 11061
AAXX 12121 31959 32998 02905 11069 21168 30160 40205 52025 333 11026 91113
AAXX 12121 31989 32999 02603 11028 21141 30182 40238 52018 333 10007 91112
AAXX 12121 32027 32599 62908 11173 21223 30070 40079 52007 82930 333 11158 91010 91112
AAXX 12121 32076 32598 73101 11157 21227 30058 40069 52016 85530 333 11101 91002 91106
AAXX 12121 32099 12598 63410 11099 21146 30059 40067 53019 69900 86900 333 11073 91011 91113
AAXX 12121 32121 11597 63505 11098 21157 30063 40086 52015 69950 78583 86900 333 11047 91009 91114
AAXX 12121 32213 11597 62712 11042 21068 39881 49945 52007 69970 73683 86500 333 11034 91015 91119
AAXX 12121 32287 11999 21302 11166 21179 39868 49879 52006 60010 70281 82030 333 11130
AAXX 12121 32408 32999 01203 11190 21223 39838 49878 52010
AAXX 12121 32509 32998 00302 11109 21193 39859 49894 52011 333 11053
AAXX 12121 32594 11598 73108 11039 21084 39892 49928 52005 60010 70283 87300 333 11033 91010 91118
AAXX 12123 63726 32570 31402 10255 20147 38108 48443 83100 333 59002 83820 555 10185
AAXX 12123 63680 32565 40505 10285 20173 38785 84900 333 59005 84827 81930 555 10210
AAXX 12124 63729 11480 60000 10230 20192 38845 48/// 60011 70292 8293/ 333 0//13 55300 59003 82619 81921 86358
AAXX 12124 63733 32580 13010 10260 20196 38828 48474 81900 333 55310 59003 81625 81926
AAXX 12124 63756 32580 43019 10246 20190 38839 48478 83931 333 55310 58000 83826 81927 84077
AAXX 12124 63791 32680 40710 10322 20144 39081 48484 84900 333 55310 58003 81932 84833
AAXX 12124 63801 01580 80000 10200 20194 39185 48500 60151 79196 8192/ 333 55300 58005 60157 81822 81923 88460
AAXX 12124 63832 32580 70000 10196 20170 38798 48464 8297/ 333 55300 59006 82816 81917 87358
AAXX 12124 63862 32580 51205 10280 20150 38861 48483 82931 333 55310 59007 84826 81928
AAXX 12124 63866 32580 30605 10316 20224 39477 48/// 83200 333 55310 58001 83828
AAXX 12124 63870 32580 40612 10317 20239 30050 40068 84900 333 55310 59001 84822 81924
AAXX 12124 63881 02480 70000 10210 20145 38186 48/// 69901 82930 333 0//11 55300 58001 69907 82619 81921 85458
AAXX 12124 63887 12580 63608 10230 20161 38559 48475 69931 85932 333 55300 59002 85823 81824
AAXX 12124 63894 01580 50413 10302 20248 30017 40077 60041 70286 84931 333 0//21 55310 58000 69991 84821 81922
AAXX 12124 63932 32580 62107 10218 20176 38279 48471 86900 333 55307 59007 86823 81924
AAXX 12124 63962 32580 50605 10282 20183 38489 85900 333 55310 59007 85826 81928
AAXX 12124 63971 01580 70312 10254 20241 39964 40092 60251 70286 8397/ 333 55300 58011 60087 83822 81923 86458
BBXX 51171 12121 99064 71623 46/// ///// 1//// 91146 22200 00279
BBXX 51170 12121 99168 71695 46/// ///// 1//// 91148 22200 00262
BBXX 52243 12121 99193 11666 46/// ///// 1//// 91155 22200 00266
BBXX 51174 12121 99142 51697 46/// ///// 1//// 91155 22200 00284
BBXX 51178 12121 99142 51695 46/// ///// 1//// 91158 22200 00281
AAXX 12121 38725 42699 80000 11009 21167 37776 48520 53031 86502
AAXX 12121 37531 42599 62406 10075 21086 39555 40284 52002 84552 333 45002
AAXX 12123 64501 32465 41808 10290 20242 3//// 4//// 84200 333 0//00 5//// 84810 94919 95839
AAXX 12124 89132 NIL
AAXX 12124 89542 NIL
AAXX 12124 89575 NIL
AAXX 12124 89657 46/// /1516 11060 20004 49791 58017
AAXX 12124 64810 31420 73204 10300 20250 30068 40094 70522 8497/ 333 55/// 58014 84813 81920 87363 94941 95831
BBXX BAREU62 12124 99386 10257 46/// ///// 40229 57031 22254
BBXX MINFR03 1212/ 99269 30433 46/// ///// 10265 40083 57011
AAXX 12124 89002 42499 80810 11063 21076 39768 49822 57007 885// 333 11058 21119
AAXX 12123 41150 31457 43124 10166 20114 70600 83601 333 58005 83715 82075
AAXX 12124 40153 11950 71304 10109 21013 39152 48548 57012 60001 70500 80005
AAXX 12124 40179 12970 53104 10191 20059 30184 40221 57016 60001 80006
AAXX 12124 40180 12960 52807 10185 20059 30176 40224 57018 60001 80006
AAXX 12124 40190 16/// ///// 10202 20027 39886 40213 57018 60001
AAXX 12124 40199 13/// /0407 10214 21003 30175 40197 57028 60001
AAXX 12121 60379 16/// /2903 10161 20123 60011
AAXX 12121 60380 16/// /2804 10168 20112 69921
AAXX 12121 60394 16/// /2301 10160 20121 69921
AAXX 12121 60374 36/// /2507 10167 20128
AAXX 12121 60613 36/// /2006 10205 21015
AAXX 12124 67002 32580 40603 10322 20224 30129 40102 82830 333 0//00 59003 82823 83630 92408
AAXX 12124 67009 32582 70000 10295 20214 39969 40087 57009 872// 333 0//00 87820 555 10330
AAXX 12124 67012 12582 42808 10310 20256 30072 40083 56020 60051 82902 333 0//15 82820 81920 83075 94961/2 95831/2
AAXX 12124 67025 31565 21410 10298 20222 39985 40082 57015 70410 82800 333 0//00 82820 555 81640
AAXX 12124 67027 32582 23014 10316 20241 30055 40076 58024 82230 333 0//00 82820 555 81360
AAXX 12124 67045 NIL
AAXX 12124 67072 11475 71808 10280 20227 30106 40109 56014 69931 71562 878// 333 0//05 82817 87640 92428. 67073 32582 3//// 10316 20242 30053 40079 56017 81905 333 0//00 81923 81823 94961/3 95831/33 555 81633 82273
AAXX 12124 67083 32582 21204 10289 20110 38718 48494 57014 81801 333 0//00 81820
AAXX 12124 67095 32481 11408 10295 20228 30097 40103 56005 83830 333 0//00 83817 85360 555 82633
AAXX 12124 67113 NIL
AAXX 12124 67117 NIL
AAXX 12124 67137 32580 2//06 10291 20136 38867 48478 56013 82830 333 0//00 81820 555 10304 81623 81360
AAXX 12124 67143 32582 1//// 10/// 20/// 30089 40096 57015 81231 333 0//00 81820 92438 555 81360 81073
AAXX 12124 67152 32580 4//// 10312 20202 39168 48488 57016 84330 333 0//00 84820 81920 94996 95676 555 81360
AAXX 12124 67157 32475 7//// 10/// 20/// 30105 40112 57016 878// 333 0//00 81817 87633
AAXX 12124 67161 32582 1//06 10310 20239 30069 40078 56012 81200 333 0//00 81820
AAXX 12124 67197 32582 50819 10304 20228 30063 40073 57014 83902 333 0//00 82820 82920 83073 94966 95836
AAXX 12124 60593 36/// /0000 10172
AAXX 12124 60376 16/// /2803 10165 20100 60011
BBXX NIL
BBXX NIL
AAXX 12124 67017 NIL
AAXX 12124 67020 32582 30000 10350 20211 30040 40067 57020 83902 333 0//00 81820 81920 83640 94971 95831 555 81073
AAXX 12124 67023 32582 61608 10304 20235 30073 40079 57019 82202 333 0//00 82820 86075
AAXX 12124 67037 31575 7//// 10/// 20/// 30034 40075 5/016 71790 84926 333 0//00 82820 81920 83633 85273 94973/4/5 95873/4/5 555 82458
AAXX 12124 67067 31575 5//// 10288 20190 39223 48/// 57018 70410 85800 333 0//00 83823 83630
AAXX 12124 67107 NIL
AAXX 12124 67131 32582 12610 10/// 20/// 30069 40074 57013 81802 333 0//00 81823 555 81640 81073
BBXX NIL
BBXX NIL
AAXX 12124 40250 NIL
AAXX 12124 40265 NIL
AAXX 12124 40296 32960 00000 10200 20012 40230 57021
AAXX 12124 40310 32960 21208 10162 21016 38985 48526 57013 80001 333 82070
BBXX NIL
AAXX 12124 61017 32960 50000 10244 20038 39773 40187 80002 333 59001 85080
AAXX 12124 61024 32960 21016 10250 20002 39606 40176 80002 333 0//00 58012 82080
AAXX 12124 61036 31956 70806 102985 20008 39910 40149 70522 80008 333 0//00 58007 87280
AAXX 12124 61043 31936 70814 10275 21054 39706 40146 70622 80008 333 0//00 58007 87280
AAXX 12124 61045 31910 70606 10243 21068 39658 40156 70642 80002 333 0//00 58003 87280
AAXX 12124 61049 32960 70804 10260 21078 39820 40141 80008 333 0//00 58000 87280
AAXX 12124 61052 31925 50812 10288 21029 39899 40155 70622 80002 333 0//00 58013 85080
AAXX 12124 61075 31956 71006 10285 20032 39837 40146 70622 80008 333 0//00 58006 87280
AAXX 12124 61080 31912 71008 10260 21023 39734 40156 70642 80008 333 0//00 58004 87280
AAXX 12124 61090 31925 70610 10244 21060 39645 40152 70642 80008 333 0//00 58006 87280
AAXX 12124 61091 31956 70806 10260 20066 39709 40158 70642 80008 333 0//00 58002 87280
AAXX 12124 61096 32960 70806 10262 21048 39770 40152 80008 333 0//00 58002 87280
AAXX 12124 61099 31930 70608 10290 20052 39899 40127 70622 80008 333 0//00 58003 87280
AAXX 12121 23973 32999 10000 11252 21270 30354 40424 52007 80001 333 11212
AAXX 12121 23975 329// 23001 11256 21281 30301 40423 52005 80001 333 11206
AAXX 12121 23986 32999 50000 11208 21227 39735 40428 51005 83011 333 11175
AAXX 12121 23987 32999 00000 11250 21274 30339 40421 52009 333 11213
AAXX 12121 24606 118// 20000 11285 21310 30051 40351 52014 69922 70271 82040 333 11200
AAXX 12121 29253 329// 00000 11240 21265 30237 40426 52002 333 11208
AAXX 12121 29471 32998 20000 11222 21235 30176 40429 52021 80001 333 11160
AAXX 12121 29481 12999 00000 11220 21239 30149 40412 52010 69902 333 11151
AAXX 12121 29553 12973 20701 11218 21236 30019 40422 52012 69902 80001 333 11167
AAXX 12121 29562 12984 00000 11198 21217 39961 40416 52012 69932 70271 333 11165
AAXX 12121 29581 115// 83001 11151 21171 30134 40410 52021 69922 70282 8391/ 333 11133
AAXX 12121 29594 11598 82803 11142 21169 39984 40395 52023 69952 78582 889// 333 11123
AAXX 12121 29653 32997 01601 11269 21293 39888 40431 52010 333 11198
AAXX 12121 29675 12598 50000 11175 21194 39781 40420 52017 69942 82501 333 11137
AAXX 12121 29676 11998 60000 11199 21218 39951 40414 52020 69932 70371 80006 333 11124
AAXX 12121 29752 329// 00802 11171 21190 38881 48507 52004 333 11091
AAXX 12121 29759 329// 00000 11193 21205 39305 40417 52011 333 11131
AAXX 12121 29766 32999 00000 11278 21291 30031 40432 53014 333 11210
AAXX 12121 29789 32699 80000 11156 21175 39134 40390 52023 84932 333 11121
AAXX 12121 29864 329// 03202 11259 21284 39708 40435 52014 333 11156
AAXX 12121 29866 119// 80000 11236 21248 30066 40423 52015 69902 71072 80001 333 11153
AAXX 12121 29869 119// 00000 11231 21250 30014 40429 52013 69922 70271 333 11165
AAXX 12121 29956 11642 80503 11165 21184 39802 40402 52009 69922 77172 8252/ 333 11157
AAXX 12121 30337 32998 30000 11277 21295 39839 40339 52020 80001 333 11205
AAXX 12121 30405 119// 83102 11130 21157 39801 40358 52024 69972 77177 86037 333 11109
AAXX 12121 30504 11597 73202 11149 21176 39687 40375 52025 69972 78582 84330 333 11114
AAXX 12121 30603 11997 83004 11137 21164 39750 40352 52026 69962 73683 80005 333 11106
AAXX 12121 30612 115// 82902 11146 21166 39776 40341 52025 69902 78582 84947 333 11113
AAXX 12121 30622 116// 83203 11133 21153 39622 40296 52017 69962 70372 82933 333 11131
AAXX 12121 30627 11998 62802 11156 21183 39331 40313 52021 69922 70172 86070 333 11118
AAXX 12121 30703 119// 82902 11131 21158 39645 40354 51023 69972 77172 82077 333 11102
AAXX 12121 36307 32997 20000 11255 21273 39012 48516 53003 80001 333 11167
AAXX 12121 23074 11597 71504 11125 21138 30245 57003 69902 78582 8393/ 333 11061
AAXX 12121 23274 11597 71603 11136 21149 30269 40307 53004 69922 78582 8696/ 333 11125 83620
AAXX 12121 23383 11497 80000 11181 21200 39988 40366 58001 69932 78582 889// 333 11179
AAXX 12121 23472 11497 81604 11138 21158 30283 40335 54000 69932 78583 889// 333 11137
AAXX 12121 23678 329// 11171 21183 30328 40392 54000 8801/ 333 11149
AAXX 12121 23884 329// 50000 11253 21278 30343 40425 52006 80001 333 11212
AAXX 12121 23891 12996 20000 11244 21276 30050 52010 69922 80006 333 11192
AAXX 12121 24507 326// 73001 11277 21301 30109 40381 52008 87500 333 11276
AAXX 12121 24817 115// 70000 11195 21214 39897 40291 52003 69902 77172 83530 333 11195
AAXX 12121 24908 11998 22401 11265 21290 39999 40365 52007 69922 70271 81031 333 11198
AAXX 12121 29263 12978 70000 11207 21226 30299 40409 52012 69902 80001 333 11149
AAXX 12121 29282 12977 03101 11205 21224 30210 40395 52017 69922 333 11151
AAXX 12121 29379 12998 01901 11240 21258 30186 40418 52021 69902 333 11139
AAXX 12121 29570 11996 02401 11197 21216 30045 40425 52018 69932 70280 333 11158
AAXX 12121 29698 119// 83403 11125 21160 39840 40382 52027 69902 77172 8802/ 333 11097
AAXX 12121 30230 11997 80000 11262 21281 39974 40336 52012 69922 77171 8807/ 333 11213
AAXX 12121 30252 119// 60000 11217 21235 39970 40313 52010 69932 70172 82041 333 11172
AAXX 12121 30309 11599 83002 11132 21152 39802 40350 52026 69982 78587 889// 333 11109
AAXX 12121 30328 119// 50000 11172 21184 39878 40333 52031 60012 70272 82048 333 11113
AAXX 12121 30521 115// 82502 11117 21137 39758 40305 52026 60012 70282 85901 333 11110
AAXX 12121 30710 11596 82904 11119 21149 39727 40339 52025 69982 78583 889// 333 11091
AAXX 12124 71916 46/// /3207 11340 21371 39932 49989 58020 6///1 333 21347 7////
AAXX 12124 71751 46/// /0210 11027 21053 39959 40221 53017 6///1 333 21027 7////
AAXX 12124 71257 16/// /2102 11079 21091 60001 333 11021 21079 70000
AAXX 12124 71258 17/// /2107 11128 21142 60011 7//4/ 333 11011 21147 70056
AAXX 12124 71259 17/// /0804 11081 21094 69951 7//4/ 333 11018 21088 70016
AAXX 12124 71274 16/// /1705 11084 21092 60001 333 11015 21146 70000
AAXX 12124 71275 46/// /1504 11101 21109 6///1 333 11014 21116 7////
AAXX 12124 71278 16/// /1605 11113 21124 60001 333 11013 21173 70000
AAXX 12124 71286 16/// /1506 11079 21089 60001 333 11012 21092 70000
AAXX 12124 71287 16/// /2006 11075 21083 60001 333 11013 21105 70004
AAXX 12124 71289 16/// /1707 11067 21084 60001 333 11025 21067 70000
AAXX 12124 71351 16/// /1803 11078 21089 60001 333 11018 21078 70000
AAXX 12124 71353 16/// /2106 11108 21121 60001 333 11016 21113 70000
AAXX 12124 71375 46/// /0213 11116 6///1 333 11108 21138 7////
AAXX 12124 71385 46/// /2124 10005 6///1 333 10003 21027 7////
AAXX 12124 71464 46/// ///12 10026 30089 40307 53003 6///1 333 10033 20025 7////
AAXX 12124 71466 46/// ///// 10013 30078 40321 55000 6///1 333 7////
AAXX 12124 71683 46/// /2802 11154 39771 49880 56016 6///1 333 11091 21160 7////
AAXX 12124 71345 17/// /3505 11064 21071 60021 7//4/ 333 11018 21064 70036
AAXX 12124 71214 16/// /0602 11084 21103 60001 333 11023 21084 70000
AAXX 12124 71223 16/// /1003 11087 21103 60001 333 11018 21088 70000
AAXX 12124 71225 17/// /3405 11072 21076 60021 7//4/ 333 11017 21075 70035
AAXX 12124 71227 46/// /1606 11068 21077 6///1 333 11027 21072 7////
AAXX 12124 71445 16/// /3305 11186 21209 30020 40312 52012 60001 333 11079 21186 4/005 70006
AAXX 12124 71525 17/// /3606 11064 21065 60021 7//4/ 333 11016 21065 70025
AAXX 12124 71535 17/// /3303 11071 21075 60011 7//4/ 333 11016 21076 70045
AAXX 12124 71536 17/// /3303 11078 21083 60011 7//4/ 333 11013 21080 70045
AAXX 12124 71537 17/// /0203 11097 21104 69941 7//4/ 333 11010 21098 70042
AAXX 12121 38599 41396 82405 10012 21002 39803 40335 52032 71082 889 333 84709 84930
AAXX 12121 38599 41396 82405 10012 21002 39803 40335 52032 71082 889 333 84709 84930
AAXX 12121 51711 32780 70000 11079 21126 38009 52001 875// 333 05403
AAXX 12121 51730 32970 71801 11067 21091 40327 57003 80002 333 05551
AAXX 12121 52112 32980 02201 11086 21195 40299 57002 333 05501
AAXX 12121 52737 32980 23201 11107 21249 37087 52007 80002 333 05200
AAXX 12121 52787 32980 03205 11133 21222 37013 52015 333 05353
AAXX 12121 53352 32980 02003 11095 21158 40333 57004
AAXX 12121 53593 32962 22001 11056 21107 40320 52002 80002
AAXX 12121 53705 32970 02201 11032 21143 40328 52009 333 05502
AAXX 12121 53863 31956 01602 11022 21042 40322 52008 71000
AAXX 12121 53975 32972 21101 10033 21084 40303 52012 80001
AAXX 12121 54273 32970 00000 11147 21175 40333 52013
AAXX 12121 54324 32970 01604 11037 21169 40317 57001
AAXX 12121 54405 32970 50201 11033 21125 40301 52001 80002
AAXX 12121 54436 32980 02901 11016 21095 40329 52014
AAXX 12121 54808 32961 00901 10000 21025 40295 52008
AAXX 12121 54826 32980 11802 11037 21117 38514 52005 80002
AAXX 12121 54836 32965 00000 10017 21038 40310 52012
AAXX 12121 54863 32960 00703 10035 21007 40306 52014
AAXX 12121 56018 32980 00902 11066 21248 36164 52008 333 05200
AAXX 12121 56021 32980 00000 11146 21232 36061 52004 333 05155
AAXX 12121 57071 32962 60703 10047 21036 40291 52009 80002
AAXX 12120 44358 329// 40903 11194 21200 39084 40319 56010 82042 333 11164
AAXX 12124 40250 32960 22404 10140 20003 39432 40223 57020 80001 333 82070
AAXX 12124 40265 32960 41012 10138 21059 39441 40253 57019 84031 333 84360 83070
AAXX 12124 63705 32559 31806 10255 20185 38825 48485 82900 3333 59001 82825 81923 5555 10205
AAXX 12123 63602 32570 43607 10290 20143 38772 84200 3333 58003 84825 5555 10192
AAXX 12123 63631 32480 43503 10305 20// 48/// 84021 3333 84618 5555 10///
AAXX 12123 63654 32575 51107 10282 20142 48/// 85960 3333 85821 5555 10194
AAXX 12124 42027 31995 00000 10076 20005 38446 48533 70500 333 10104 58013
AAXX 12124 42101 31994 00000 10166 20138 40170 71000 333 10196 58034
AAXX 12124 42111 31995 00000 10160 20139 39387 40164 70500 333 10196 58033
AAXX 12124 42131 32996 00000 10176 20078 40171 333 10248 58026
AAXX 12124 42165 32996 00000 10230 20031 40145 333 10275 58016
AAXX 12124 42182 31994 00000 10198 20111 40163 70400 333 10246 58028
AAXX 12124 42260 31996 09901 10177 20086 40165 70500 333 10236 58021
AAXX 12124 42328 32996 01401 10258 20016 40136 333 10287 58014
AAXX 12124 42339 31995 00000 10230 20003 40141 70500 333 10270 58004
AAXX 12124 42348 31995 00000 10196 20017 40160 70500 333 10234 58018
AAXX 12124 42361 31996 00000 10194 20157 40160 70500 333 10252 58021
AAXX 12124 42379 31994 00000 10148 20119 40153 71040 333 10169 58017
AAXX 12124 42452 32996 00000 10216 20019 40154 333 10244 58017
AAXX 12124 42475 31995 00000 10196 20141 40159 70500 333 10238 58013
AAXX 12124 42071 NIL
AAXX 12124 42189 NIL
AAXX 12124 42369 NIL
AAXX 12123 42071 32996 09902 10192 20042 40165 333 10238 58032
AAXX 12124 44404 22565 12704 10090 20035 38134 48479 81100 333 10156 58014 60008 70000
AAXX 12124 44406 NIL
AAXX 12124 44409 NIL
AAXX 12124 44416 21540 12602 10169 20099 39378 40163 71000 81100 333 10202 58026 60008 70000
AAXX 12124 44418 NIL
AAXX 12124 44424 22965 02404 10086 21007 37660 47054 333 10146 58017 60008 70000
AAXX 12124 44429 NIL
AAXX 12124 44434 NIL
AAXX 12124 44438 21325 30000 10162 20140 30034 40164 70544 83600 333 10176 58023 60008 70000
AAXX 12124 44449 21930 00000 10200 2//// 30005 40164 71044 333 10220 58015 60008 70000
AAXX 12124 44454 22562 12502 10122 20052 38659 48493 81100 333 10177 58012 60008 70000
AAXX 12124 44462 22965 00000 10096 20052 38248 48479 333 10174 58021 60008 70000
AAXX 12124 44474 22356 30000 10120 20026 3//// 4//// 83200 333 10155 5//// 60008 70000
AAXX 12124 44477 22950 00000 10124 20102 38814 48519 333 10210 58014 60008 70000
AAXX 12124 44478 21950 02503 10190 20157 30046 40128 70500 333 10237 58017 60008 70000
AAXX 12124 48304 32965 00000 10180 20163 39685 40156 52009 333 10221 59010
AAXX 12121 47090 32973 02905 10042 21118 30244 40267 52016 333 10097 3/001 49011 92012
AAXX 12121 47095 32970 01102 11027 21087 30094 40291 52014 333 10061 34102
AAXX 12121 47097 329// /2702 10000 21082 30184 40284 52010 333 10096 3/102
AAXX 12121 47098 329// /3602 11012 21093 30147 40286 52013 333 10073 3/101
AAXX 12121 47099 329// /0000 11024 21073 30252 40290 52011 333 10069 3/101
AAXX 12121 47100 32970 01102 11051 21110 39338 40294 52035 333 10026 3/101 49036
AAXX 12121 47102 32972 03404 10016 21067 30117 40300 52006 333 10060 31000
AAXX 12121 47104 32970 02005 10032 21115 30164 40263 52013 333 10088 3/001 43///
AAXX 12121 47106 329// /2705 10057 21082 30211 40261 52017 333 10109 3/001
AAXX 12121 47112 32970 03606 10029 21078 30201 40287 52009 333 10072 30000 92012
AAXX 12121 47114 32965 00903 10001 21069 30094 40283 52016 333 10081 30101
AAXX 12121 47119 12970 03204 10035 21070 30242 40285 52008 69902 333 10081 34101
AAXX 12121 47121 329// /0901 11009 21058 39979 40283 52020 333 10087 3/102
AAXX 12121 47127 329// /0903 10003 21074 30139 40285 52013 333 10085 3/000
AAXX 12121 47129 32968 00000 11008 21039 30255 40292 52006 333 10089 34001
AAXX 12121 47130 32970 02503 10027 21045 30200 40263 52015 333 10102 31000 92022
AAXX 12121 47131 32968 02901 10041 21089 30211 40283 52008 333 10094 31000
AAXX 12121 47135 329// /2707 10034 21050 39975 40279 52012 333 10075 3/000
AAXX 12121 47136 32970 03402 10013 21058 30097 40274 52013 333 10097 30101
AAXX 12121 47137 329// /2706 10044 21090 30155 40275 52011 333 10094 3/000
AAXX 12121 47140 12968 03401 10029 21038 30257 40286 52010 69902 333 10084 31002 92011
AAXX 12121 47143 32965 02704 10066 21048 30200 40280 52013 333 10095 30001
AAXX 12121 47145 32966 02703 10000 21050 30251 40278 52006 333 10091 31000
AAXX 12121 47146 31950 01602 10022 20010 30217 40285 52012 71000 333 10075 31002
AAXX 12121 47150 12965 00902 10009 21055 30266 40286 52010 69902 333 10092 31000
AAXX 12121 47152 32970 22702 10062 21001 30219 40262 52008 82030 333 10110 30002
AAXX 12121 47154 329// /2502 10039 21043 30215 40276 52011 333 10098 3/001
AAXX 12121 47155 32960 43602 10075 21004 30221 40267 52009 84030 333 10104 30003
AAXX 12121 47156 32665 30205 10051 20008 30191 40282 52009 83500 333 10109 31003
AAXX 12121 47157 31958 02503 10011 21014 39994 40271 52017 71000 333 10087 34101
AAXX 12121 47162 32962 60504 10065 20005 30227 40268 52012 85030 333 10110 30004 92022
AAXX 12121 47169 32668 40212 10090 20036 30183 40277 52009 84500 333 10105 31007 92044
AAXX 12121 47170 32962 43203 10068 21002 30232 40276 52011 84030 333 10105 31004 92022
AAXX 12121 47171 329// /0000 10023 20009 30228 40284 52009 333 10105 3/001
AAXX 12121 47172 329// /0001 10029 20009 30209 40277 52009 333 10109 3/003
AAXX 12121 47173 329// /3405 10018 20001 30167 40281 52009 333 10091 3/001
AAXX 12121 47174 32962 02901 10044 20003 30067 40272 52009 333 10104 31003
AAXX 12121 47175 31556 30703 10034 20015 39695 40276 52007 71011 83500 333 10095 31002 92022
AAXX 12121 47185 32668 43413 10108 20028 30182 40273 52010 84500 333 10114 31007 92024
AAXX 12121 47188 32670 23603 10077 20025 30249 40271 52012 82500 333 10123 31006 92022
AAXX 12121 47189 32670 30204 10084 20032 30202 40262 52010 83500 333 10144 31006 92022
AAXX 12121 47192 32961 30000 10044 21016 30235 40273 52013 83030 333 10117 30002
AAXX 12121 47003 32980 03205 11016 21130 30267 40271 52019 333 10021
AAXX 12121 47005 12980 02301 11157 21185 38634 52011 69912 333 11085
AAXX 12121 47022 32975 03402 11110 21194 38876 52017 333 11034
AAXX 12121 47028 32965 00000 11048 21133 30201 40300 52013 333 10031
AAXX 12121 47031 32970 03201 11121 21163 38978 52020 333 11050
AAXX 12121 47037 32970 00000 11042 21118 30148 40276 58026 333 10035
AAXX 12121 47039 32960 00000 11043 21113 30106 40305 52020 333 10042
AAXX 12121 47046 32969 03603 10029 21107 30235 40258 52017 333 10076
AAXX 12121 47050 32965 00000 11017 21086 30254 40287 52010 333 10047
AAXX 12121 47052 32965 00000 11044 21071 39951 40304 52022 333 10018
AAXX 12121 47060 32960 03402 10000 21061 30241 40301 52010 333 10053
AAXX 12121 47061 32980 00000 10019 21058 30204 40248 54000 333 10107
AAXX 12121 47065 32970 00000 11016 21076 30237 40305 52012 333 10050
AAXX 12121 47067 32965 03204 11010 21089 30181 40306 52013 333 10045
AAXX 12121 47068 32970 00000 11005 21074 30255 40291 52011 333 10053
AAXX 12121 47070 32970 02904 10008 21073 30200 40290 52008 333 10064
AAXX 12121 47075 32980 00000 11035 21105 39768 40211 52005 333 10044
AAXX 12121 47101 32970 00501 11012 21047 30186 40285 52015 333 10078 34102
AAXX 12121 47105 369// /2704 10037 21083 30231 40264 52014 333 10100 3/004
AAXX 12121 47108 12970 03403 10020 21105 30177 40285 52010 69902 333 10064 30000
AAXX 12121 47115 32575 20712 10049 21034 39982 40257 52015 82500 333 10091 3/000 42005 92034
AAXX 12121 47133 32970 02302 10028 21098 30197 40284 52007 333 10098 31000
AAXX 12121 47138 32966 01604 10070 21019 30261 40264 52010 333 10119 30004 92022
AAXX 12121 47159 32962 63404 10073 21030 30178 40264 52007 85030 333 10117 30004 92022
AAXX 12121 47165 32961 00502 10050 20020 30231 40279 52010 333 10095 31003 92021
AAXX 12121 47168 32962 43608 10078 21014 30185 40265 52010 84030 333 10115 30004 92023
AAXX 12121 47184 32670 33607 10102 20015 30250 40275 52008 83500 333 10114 31007 92023
AAXX 12121 47008 32970 03205 10006 21200 30217 40273 52022 333 10062
AAXX 12121 47014 32950 00000 11111 21184 39867 40293 53021 333 10001
AAXX 12121 47016 12970 00000 11107 21170 39407 40308 52020 69902 333 11025
AAXX 12121 47020 32965 00000 11063 21099 39920 40315 52014 333 10011
AAXX 12121 47025 32961 02902 10001 21146 30237 40267 52014 333 10084
AAXX 12121 47035 32970 01801 11010 21050 30303 40312 52010 333 10041
AAXX 12121 47041 32970 03203 10012 21136 30240 40268 52020 333 10079
AAXX 12121 47055 32970 03203 10020 21102 30234 40280 52018 333 10073
AAXX 12121 47058 32960 03202 11014 21081 30259 40308 52014 333 10039
AAXX 12121 47069 32965 00000 10002 21015 30187 40289 52006 333 10068
AAXX 12124 68513 36/// /1616 10237 20109 39965 40074 58010 333 10240 20125 91022 555 91007
AAXX 12124 68514 NIL
AAXX 12124 68523 36/// /3207 10297 21048 39057 48492 57016 333 10300 20102 91016 555 91011
AAXX 12124 68527 36/// /2707 10315 21063 39020 48483 58016 333 10315 20141 91014 555 91010
AAXX 12124 68572 NIL
AAXX 12124 68575 36/// /0805 10217 20165 39039 48472 58003 333 10239 20162 91011 555 91011
AAXX 12124 68581 36/// /1205 10202 20174 39319 48472 58008 333 10204 20181 91009 555 91009
AAXX 12124 68583 36/// /1903 10245 20190 39967 40075 58008 333 10257 20207 91010 555 91007
AAXX 12124 68589 36/// /0307 10270 20017 38194 48441 58010 333 10272 20111 91015 555 91014
AAXX 12124 68613 36/// /2410 10224 20143 39987 40100 57017 333 10226 20103 91017 555 91010
AAXX 12124 68647 36/// /2612 10250 20038 38856 48464 58006 333 10254 20099 91020 555 91011
AAXX 12124 68651 36/// /2810 10255 20004 38511 48474 57006 333 10255 20086 91017 555 91015
AAXX 12124 68715 36/// /2703 10291 20119 39960 40082 58017 333 10294 20146 91009 555 91008
AAXX 12124 68717 36/// /0304 10270 20087 39941 40079 57022 333 10273 20103 91007 555 91008
AAXX 12124 68723 36/// /2704 10282 20034 39329 48488 57025 333 10286 20158 91008 555 91009
AAXX 12124 68737 32975 02206 10272 20051 39190 48486 57015 333 10274 20083 91012 555 91010
AAXX 12124 68744 36/// /0504 10266 20034 39036 48467 57015 333 10273 20095 91008 555 91009
AAXX 12124 68747 36/// /2610 10264 20086 39557 48500 58011 333 10265 20113 91017 555 91008
AAXX 12124 68754 36/// /2407 10248 20125 39074 48476 58008 333 10251 20088 91014 555 91010
AAXX 12124 68817 NIL
AAXX 12124 68821 36/// /2406 10278 20084 39835 40064 58017 333 10282 20121 91012 555 91007
AAXX 12124 68835 36/// /2510 10261 20127 39967 40077 57007 333 10268 20124 91018 555 91008
AAXX 12124 68843 36/// /2309 10230 20146 39977 40074 58007 333 10250 20119 91019 555 91007
AAXX 12124 68849 36/// /2712 10232 20101 39352 48482 58008 333 10233 20097 91021 555 91009
AAXX 12124 68912 32970 81609 10190 20157 30094 40103 57013 81206 333 10201 20127 91011 555 91010
AAXX 12124 68918 36/// /1704 10218 20164 30086 40104 58011 333 10224 20169 91008 555 91010
AAXX 12124 68921 36/// /1909 10232 20156 30096 40099 58010 333 10236 20181 91015 555 91009
AAXX 12124 68925 36/// /2706 10241 20146 39730 40083 58017 333 10253 20129 91012 555 91009
AAXX 12124 68926 32570 72206 10256 20136 39915 40088 57017 875// 333 10262 20159 91014 555 91009
AAXX 12124 68935 36/// /2408 10232 20151 30037 40099 58006 333 10238 20161 91012 555 91010
AAXX 12124 61017 32960 50000 10244 20038 39773 40187 80002 333 59001 85080
AAXX 12124 61024 32960 21016 10250 20002 39606 40176 80002 333 0//00 58012 82080
AAXX 12124 61036 31956 70806 10298 20008 39910 40149 70522 80008 333 0//00 58007 87280
AAXX 12124 61043 31936 70814 10275 21054 39706 40146 70622 80008 333 0//00 58007 87280
AAXX 12124 61045 31910 70606 10243 21068 39658 40156 70642 80002 333 0//00 58003 87280
AAXX 12124 61049 32960 70804 10260 21078 39820 40141 80008 333 0//00 58000 87280
AAXX 12124 61052 31925 50812 10288 21029 39899 40155 70622 80002 333 0//00 58013 85080
AAXX 12124 61075 31956 71006 10285 20032 39837 40146 70622 80008 333 0//00 58006 87280
AAXX 12124 61080 31912 71008 10260 21023 39734 40156 70642 80008 333 0//00 58004 87280
AAXX 12124 61090 31925 70610 10244 21060 39645 40152 70642 80008 333 0//00 58006 87280
AAXX 12124 61091 31956 70806 10260 20066 39709 40158 70642 80008 333 0//00 58002 87280
AAXX 12124 61096 32960 70806 10262 21048 39770 40152 80008 333 0//00 58002 87280
AAXX 12124 61099 31930 70608 10290 20052 39899 40127 70622 80008 333 0//00 58003 87280
AAXX 12124 84036 11560 83602 10104 20102 69924 75022 887// 333 10190 20081 555 10002 30098
AAXX 12124 84076 31460 70000 10116 20107 74042 87600 333 10230 20113 30111 555 30094
AAXX 12124 84008 32457 81414 10224 20204 30125 40135 888// 00161 333 10277 20223 58003 555 30088 40179
AAXX 12124 84088 11103 80000 10086 20085 37069 60074 74042 886// 333 10183 20083 30080 58006 555 10070 30099
AAXX 12124 84270 11550 70000 10127 20111 60014 74125 87800 333 10250 20117 555 10012 30090
AAXX 12124 84140 31570 80000 10236 20210 30036 40121 70542 8651/ 333 10350 20233 58004 555 30085
AAXX 12124 84179 11981 70000 10179 20175 39055 69904 71142 87070 333 10294 20169 58012 555 1 T 30098
AAXX 12124 84202 31670 82302 10238 20200 30160 70542 8751/ 333 10342 20232 58013 555 30079
AAXX 12124 84160 11570 41802 10083 20072 37266 69974 70544 83530 333 10213 20078 59003 555 10007 30092
AAXX 12124 84204 31665 80000 10240 20182 70544 8451/ 333 10249 20235 555 30070
AAXX 12124 84143 11360 70000 10111 20106 37405 69974 72162 81650 333 10218 20101 30064 59004 555 10007 30097
AAXX 12124 84226 12680 40000 10092 20092 60044 82504 333 10166 20048 555 10035 30100
AAXX 12124 84050 11450 80902 10216 20208 69964 74046 886// 333 10330 20214 555 10006 30095
AAXX 12124 84132 11/10 90000 10224 20221 39877 60124 74544 89/// 333 10316 20216 58003 555 10121 30098
AAXX 12124 84105 11230 83604 10214 20211 31001 60044 71655 887// 333 10324 20213 58001 555 10040 30098
AAXX 12124 84072 11258 80000 10110 20098 37299 69974 74044 8661/ 333 10216 20103 58004 555 10007 30092
AAXX 12124 84001 31565 71810 10225 20185 30107 40127 70544 87500 333 20221 58005
AAXX 12124 84010 31465 81412 10222 20209 70542 885// 333 20220
AAXX 12124 84018 11458 81803 10225 20222 30116 40123 60044 71544 8557/ 333 20223 58016 555 10042
AAXX 12124 84027 12665 80000 10096 20093 37173 47143 60014 885// 333 20090 58001 555 10010
AAXX 12124 84063 11/01 90000 10222 20219 39749 40085 60064 74744 89/// 333 20210 58008 555 10060
AAXX 12124 84071 11220 80702 10106 20100 37286 47136 69984 74042 885// 333 20105 58006 555 10008
AAXX 12124 84099 11110 70000 10220 20217 3//// 40010 60014 74164 84630 333 20210 5//// 555 10011
AAXX 12124 84117 31760 82008 10230 20185 30105 40128 70544 885// 333 20229 58008
AAXX 12124 84123 11140 70000 10110 20107 37301 47135 60094 74044 86550 333 20103 59001 555 10090
AAXX 12124 84147 11/02 90000 10113 20111 69944 74544 89/// 333 20110 555 10004
AAXX 12124 84163 12970 50107 10186 20169 38942 48488 60074 85030 333 20180 58008 555 10070
AAXX 12124 84176 32570 70000 10106 20096 87200 333 20094
AAXX 12124 84200 31462 52008 10219 20191 70544 81530 333 20217
AAXX 12124 84203 31560 72704 10241 20156 30109 40114 70544 86530 333 20236 58010
AAXX 12124 84217 11210 33402 10183 20180 60224 74064 81639 333 20174 555 10220
AAXX 12124 84239 12465 80000 10131 20129 37547 47147 69934 885// 333 20121 59003 555 10003
AAXX 12124 84252 31565 50204 10244 20214 30115 40123 70544 81530 333 20237 58010
AAXX 12124 67975 41675 71110 10262 20192 38873 48467 71798 82973 333 59022 82930 87460
AAXX 12124 67991 42880 51402 10346 20194 39515 48459 82130 333 59042 82857 85360
AAXX 12123 67975 41575 71110 10262 20192 38873 48467 71798 82973 333 82930 87460
AAXX 12123 67991 42880 51402 10346 20194 39515 48459 82130 333 82857 85360
AAXX 12124 67976 41550 82608 10218 20207 38/// 48/// 79596 82973 333 5//// 82925 84640 88459
AAXX 12121 50548 32980 00401 11234 21264 40286 52004
AAXX 12121 50564 32970 02501 11212 21251 40281 52008
AAXX 12121 51334 32770 70000 11071 21096 40313 52013 82502 333 05351
AAXX 12121 51818 32865 73202 11030 21083 40302 52006 83502 333 05451
AAXX 12121 52378 32980 32704 11044 21151 40296 52002 80002 333 05705
AAXX 12121 53487 31956 13402 11057 21122 40316 52003 70400 80002
AAXX 12121 53502 32980 02205 11043 21153 40315 52005 333 05602
AAXX 12121 53923 32980 02901 11021 21097 40312 52014
AAXX 12121 54049 32970 01802 11076 21186 40307 54000
AAXX 12121 54115 32980 22201 11098 21155 40308 57007 80002
AAXX 12121 54157 32962 00000 11116 21158 40323 52004
AAXX 12121 54186 32970 03202 11138 21176 40316 52011
AAXX 12121 54311 32980 00401 11116 21158 40337 54000
AAXX 12121 54346 32965 00902 11068 21133 40327 52004
AAXX 12121 54377 32975 00203 11066 21139 40321 52014
AAXX 12121 54386 32970 00203 11120 21180 40313 52013
AAXX 12121 54493 32974 00901 11080 21144 40328 52014
AAXX 12121 54587 NIL
AAXX 12121 54715 31957 01101 11002 21032 40299 52006 71000
AAXX 12121 54929 32962 01801 10011 21027 40301 52013
AAXX 12121 54945 32965 02901 10052 21024 40301 52012
AAXX 12121 56065 32980 12702 11094 21202 36611 52028 80002 333 05100
AAXX 12121 57193 32962 70901 10031 21033 40288 52010 80002
AAXX 12121 57290 32965 00000 10024 21029 40285 52010
AAXX 12124 68514 NIL
AAXX 12124 68572 NIL
AAXX 12124 68817 NIL
BBXX A8PX5 12124 99400 11383 41597 52334 10051 20051 40231 50/// 70100 8549/ 22254 04121 20206 3//// 4//// 5//// 80051
BBXX JNCJ 12124 99335 11397 41497 22835 10130 20051 40180 54000 70111 82100 22273 00230 20305 331// 40305 80090
BBXX SHIP 12124 99321 11455 41597 72713 10190 20123 40191 57004 70211 8645/ 22273 06216 20202 327// 40505 80150
BBXX SHIP 12124 99309 11404 41/97 72718 10182 40205 52001 75022 8//// 9//// 22283 00227 2////
BBXX SMGW 12121 99357 11274 43/98 63609 10105 40267 50011 22264 00192 20302 4////
BBXX 46208 12121 99525 71327 46/// /1811 10071 40191 5//// 22200 00076 10604 70021 333 91214
AAXX 12124 67975 41675 71110 10262 20192 38873 48467 71798 82973 333 59022 82930 87460
AAXX 12124 67991 42880 51402 10346 20194 39515 48459 82130 333 59042 82857 85360
BBXX 46208 12121 99525 71327 46/// /1811 10071 40191 5//// 22200 00076 10604 70021 333 91214
AAXX 12121 08545 31562 71202 10128 20078 30179 40262 52003 70222 86831 222// 00150 333 82825 85645
AAXX 12121 38599 41396 82405 10012 21002 39803 40335 52032 71082 889EE 333 84709 84930
AAXX 12124 68174 31670 52107 10291 20136 38745 48478 58013 70522 83182 333 10291 20134 91010 555 91013
AAXX 12124 68191 36/// /2602 10383 20133 39557 48518 58015 333 10385 20206 91006 555 91006
AAXX 12124 68242 32680 32309 10301 20009 38682 48469 58008 83100 333 10303 20135 91016 555 91012
AAXX 12124 68262 36/// /2804 10297 20090 38665 48478 58008 333 10297 20167 91007 555 91014
AAXX 12124 68263 32680 32805 10267 20106 38454 48478 58008 83100 333 10268 20154 91011 555 91016
AAXX 12124 68267 NIL
AAXX 12124 68289 36/// /2402 10342 20092 39083 48485 58011 333 10342 20180 91006 555 91009
AAXX 12124 68350 36/// /2604 10316 20039 38631 48487 58011 333 10326 20115 91009 555 91015
AAXX 12124 68368 43784 42907 10259 20060 38294 48483 58012 84102 333 20195 555 91017
AAXX 12124 68403 36/// /2117 10226 20121 30058 40090 57013 333 10237 20123 91024 555 91009
AAXX 12124 68424 32982 02707 10343 21080 39145 48500 58010 333 10344 20114 91014 555 91010
AAXX 12124 68438 32982 03313 10283 21035 38774 48477 58008 333 10287 20076 91021 555 91013
AAXX 12124 68442 32980 02609 10268 21036 38621 48477 58008 333 10273 20053 91020 555 91014
AAXX 12124 68461 32980 02312 10260 21042 38285 48463 58006 333 10260 20091 91023 555 91015
AAXX 12124 68512 32982 12907 10285 21022 38967 48482 58011 80001 333 10286 20124 91014 555 91011
AAXX 12124 68538 32982 03010 10272 20003 38669 48459 58012 333 10278 20096 91019 555 91012
AAXX 12124 68587 36/// /2005 10242 20184 30066 40078 58006 333 10243 20197 91008 555 91007
AAXX 12124 68588 36/// /1710 10254 20182 30075 40091 58001 333 10256 20213 91015 555 91009
AAXX 12124 68591 16/// /1509 10244 20189 39909 40085 58007 69921 333 10249 20203 91014 555 20002 91009
AAXX 12124 68592 NIL
AAXX 12124 68618 32980 03007 10291 21017 38999 48486 58013 333 10293 20072 91013 555 91011
AAXX 12124 68633 36/// /3010 10258 21044 38462 48455 58006 333 10259 20057 91020 555 91013
AAXX 12124 68668 32670 21907 10262 20125 39229 48476 58010 82100 333 10262 20128 91013 555 91009
AAXX 12124 68714 36/// /2012 10254 20114 30051 40086 57018 333 10260 20125 91020 555 91008
AAXX 12124 68727 NIL
AAXX 12124 68752 36/// /2613 10265 20100 39408 48493 58005 333 10265 20122 91020 555 91009
AAXX 12124 68816 32680 51711 10239 20138 30044 40099 58020 82508 333 20180 91015 555 91009
AAXX 12124 68828 32470 51911 10209 20160 39868 40096 58010 85500 333 20172 555 91010
AAXX 12124 68842 32580 22428 10226 20130 30015 40083 58011 82500 333 20145 555 91008
AAXX 12124 68858 32682 22016 10226 20128 39924 40076 58007 82100 333 20131 555 91007
AAXX 12124 68906 32698 50907 10128 20055 30245 40311 58000 85502 222// 00125 318// 41001 333 10138 20087 91011 555 91031
AAXX 12124 68994 32598 43216 10095 20062 30234 40263 58006 82570 222// 00066 333 10104 20068 91023 555 91026
AAXX 12124 89004 32080 11603 11099 21133 38810 49827 58001 81600 333 11066 21154 91006 555
BBXX 46206 12121 99488 71260 46/// /1005 10064 40250 54000 22200 00086 11203 70017 333 91206
BBXX 46206 12121 99488 71260 46/// /1005 10064 40250 54000 22200 00086 11203 70017 333 91206
BBXX V7QN8 12123 99188 11203 41297 30333 10270 2027/ 40130 52/// 70322 83498 22213 04270 21207 303// 41207 5//// 6//// 80270 ICE /////
AAXX 12124 67765 42880 82810 10252 20184 38636 48480 84237 333 59002 84856 88280
AAXX 12124 67775 42775 70209 10290 20142 38470 48472 84232 333 59013 84850 83360
AAXX 12124 67779 NIL
AAXX 12124 67853 NIL
AAXX 12124 67861 41780 82906 10232 20192 38702 48482 71792 81273 333 58006 81950 88459
AAXX 12124 67867 42680 73312 10272 20165 38544 48472 83232 333 59008 83840 83359 87080
AAXX 12124 67881 41875 63602 10284 20151 38547 48476 71522 86232 333 59016 86857
AAXX 12124 67965 41570 80203 10207 20182 38662 48487 79596 83273 333 58001 81920 87458
AAXX 12124 67975 NIL
AAXX 12124 67977 NIL
AAXX 12124 67983 41650 70802 10233 20207 38842 48469 72998 81268 333 59020 81845 87280
AAXX 12124 67991 NIL
AAXX 12121 50658 31940 00000 11179 21193 40284 52002 70400
AAXX 12121 50888 32965 02702 11159 21219 40262 52020
AAXX 12121 50983 32970 00000 11131 21207 40266 52018
AAXX 12121 51053 32980 40904 11094 21151 40302 52013 80002 333 05501
AAXX 12121 51542 32980 12703 11113 21183 37555 52009 80002 333 05302
AAXX 12121 52436 32980 02703 11064 21115 38492 40315 52001 333 05601
AAXX 12121 52908 32980 02201 11150 21373 35733 57001 333 05200
AAXX 12121 52996 32970 11601 11067 21099 37566 52017 80002 333 05303
AAXX 12121 53083 32980 33601 11200 21217 40353 57013 80002 333 05552
AAXX 12121 53764 32970 03201 11027 21072 40318 52001
AAXX 12121 53787 32980 20703 11034 21079 40320 52010 80002
AAXX 12121 54096 32970 02708 11113 21169 40277 52019
AAXX 12121 54226 32980 00000 11108 21172 40323 57001
AAXX 12121 54259 32965 00701 11101 21145 40336 52008
AAXX 12121 54527 32960 01403 10022 21021 40309 52003
AAXX 12121 54534 32965 41402 10012 21046 40313 52005 84030
AAXX 12124 68267 NIL
AAXX 12124 68592 NIL
AAXX 12124 68727 NIL
AAXX 12124 67765 42880 82810 10252 20184 38636 48480 84237 333 59002 84856 88280
AAXX 12124 67775 42775 70209 10290 20142 38470 48472 84232 333 59013 84850 83360
AAXX 12124 67779 NIL
AAXX 12124 67853 NIL
AAXX 12124 67861 41780 82906 10232 20192 38702 48482 71792 81273 333 58006 81950 88459
AAXX 12124 67867 42680 73312 10272 20165 38544 48472 83232 333 59008 83840 83359 87080
AAXX 12124 67881 41875 63602 10284 20151 38547 48476 71522 86232 333 59016 86857
AAXX 12124 67965 41570 80203 10207 20182 38662 48487 79596 83273 333 58001 81920 87458
AAXX 12124 67975 NIL
AAXX 12124 67977 NIL
AAXX 12124 67983 41650 70802 10233 20207 38842 48469 72998 81268 333 59020 81845 87280
AAXX 12124 67991 NIL
AAXX 12121 08521 32470 20405 10210 20130 30220 40292 50009 82200 333 82816
AAXX 12124 63705 32559 31806 10255 20185 38825 48485 82900 333 59001 82825 81923 555 10205
AAXX 12124 42559 32996 00000 10206 20067 40140 333 10243 58016
AAXX 12124 42571 32996 00000 10206 20089 40145 333 10245 58015
AAXX 12124 42754 31996 20506 10222 20049 39498 40132 70510 80001 333 10248 58014 82075
AAXX 12124 42779 32996 00000 10198 20102 39439 40142 333 10268 58013
AAXX 12124 42867 31996 00902 10242 20132 40123 70511 333 10292 58016
AAXX 12124 42874 32996 00000 10268 20132 40117 333 10301 58012
AAXX 12124 42933 32997 00000 10270 20129 40118 333 10310 58015
AAXX 12124 43041 32996 00000 10254 20137 39508 40118 333 10292 58011
AAXX 12124 42667 NIL
AAXX 12124 42675 NIL
AAXX 12121 45032 36/// /1501 10111 20066 30189 40206 52002
AAXX 12121 45035 36/// /0302 10155 20037 30163 40205 52003
AAXX 12121 45039 36/// /3502 10147 20041 30186 40202 54000
AAXX 12121 45044 36/// /0006 10150 20040 30103 40197 52001
AAXX 12121 45032 36/// /1501 10111 20066 30189 40206 52002
AAXX 12121 45035 36/// /0302 10155 20037 30163 40205 52003
AAXX 12121 45039 36/// /3502 10147 20041 30186 40202 54000
AAXX 12121 45044 36/// /0006 10150 20040 30103 40197 52001
AAXX 12123 63602 32570 43607 10290 20143 38772 84200 333 58003 84825 555 10192
AAXX 12123 63631 32480 43503 10305 48/// 84021 333 84618 555 10///
AAXX 12123 63654 32575 51107 10282 20142 48/// 85960 333 85821 555 10194
BBXX 46205 12121 99542 71343 46/// /2505 10064 40152 57007 22200 00078 11008 70041 333 91207
BBXX 46132 12121 99497 71279 46/// /3508 10055 40246 57003 22200 00087 11204 70021 333 91209
AAXX 12124 63705 32559 31806 10255 20185 38825 48485 82900 333 59001 82825 81923 555 10205
AAXX 12124 88900 46/// /1908 10048 20018 30058 40061 50017 333 10059 20026
BBXX ZCDF4 12123 99089 70795 41698 63212 10244 20237 40108 53009 70111 83552 22200 00270 20201 315// 40301 5//// 80239
BBXX TBWUK19 12124 99484 71247 41/98 20501 10062 20055 40266 7//// 8//4/ 22223 20201 329// 40803 5//// 80059
BBXX PHHD 12121 99486 70621 41/96 82512 10000 20000 40241 56031 78672 8//// 22273 04010 2//05 80000
BBXX 46205 12121 99542 71343 46/// /2505 10064 40152 57007 22200 00078 11008 70041 333 91207
AAXX 12124 68183 11675 73511 10267 20192 39373 48483 58008 60021 72922 82973 333 10307 20202 91016 555 20026 91008
AAXX 12124 68188 36/// /0000 10316 20122 39140 48494 58012 333 10318 20163 91004 555 91010
AAXX 12124 68268 36/// /2806 10321 20099 38844 48499 57018 333 10329 20158 91013 555 91014
AAXX 12124 68272 NIL
AAXX 12124 68296 36/// /3504 10401 20109 39724 48520 57022 333 10423 20190 91008 555 91003
AAXX 12124 68322 32982 03604 10352 21005 39088 48491 57021 333 10358 20127 91009 555 91010
AAXX 12124 68338 32675 22809 10300 21045 38727 48468 57015 81904 333 10307 20089 91017 555 91012
AAXX 12124 68345 36/// /2809 10280 20001 38634 48481 58011 333 10281 20111 91013 555 91014
AAXX 12124 68362 32980 02509 10293 21027 38468 48469 57009 333 10298 20095 91017 555 91015
AAXX 12124 68400 32780 31506 10317 20192 39981 40051 57002 82444 333 10330 20207 91013 555 91005
AAXX 12124 68408 32280 81510 10175 20130 30076 40084 57011 886// 333 10188 20121 91016 555 91008
AAXX 12124 68416 32984 02807 10281 21048 38992 48482 57015 333 10286 20103 91011 555 91011
AAXX 12124 68478 NIL
AAXX 12124 68488 36/// /0907 10239 20182 39209 48474 57002 333 10263 20153 91013 555 91009
AAXX 12124 68494 36/// /1805 10242 20193 39954 40082 58008 333 10254 20211 91013 555 91008
AAXX 12124 68524 32986 02906 10308 21053 39009 48483 57018 333 10316 20116 91013 555 91011
AAXX 12124 68546 36/// /3305 10270 20024 38610 48460 58007 333 10271 20080 91014 555 91012
AAXX 12124 68558 36/// /3114 10233 21013 38148 48453 57007 333 10234 20043 91022 555 91015
AAXX 12124 68570 32970 02809 10269 21035 38451 48442 57010 333 10269 20095 91021 555 91011
AAXX 12124 68580 36/// /1205 10167 20154 38899 48462 57005 333 10191 20158 91011 555 91011
AAXX 12124 68614 36/// /2608 10308 20100 30026 40065 57025 333 10321 20117 91015 555 91006
AAXX 12124 68624 32882 12708 10258 21034 38698 48476 57016 81200 333 10267 20074 91015 555 91013
AAXX 12124 68674 36/// /1705 10257 20185 30058 48533 57010 333 10262 20195 91007 555 91008
AAXX 12124 68712 32970 62111 10189 20148 30031 40095 57015 80006 333 10199 20129 91014 555 91009
AAXX 12124 68718 36/// /2303 10295 20094 39838 40073 57023 333 10296 20129 91006 555 91008
AAXX 12124 68722 36/// /3106 10244 21019 38504 48462 57013 333 10249 20019 91013 555 91013
AAXX 12124 68814 36/// /2209 10199 20158 30097 40105 57016 333 10208 20142 91010 555 91010
AAXX 12124 68832 36/// /1904 10243 20063 39138 48476 57015 333 10243 20114 91013 555 91010
AAXX 12124 68916 36/// /1906 10208 20162 39843 40106 57013 333 10214 20161 91011 555 91011
AAXX 12124 68920 32970 21905 10228 20152 30088 40100 57017 80006 333 10230 20183 91011 555 91010
AAXX 12124 68928 16/// /2108 10226 20184 39942 40099 58007 69981 333 10237 20176 91016 555 20008 91010
BBXX AMOUK15 12124 99136 50083 46/// ///// 10223 20184 30144 40176 52004 91150
BBXX AMOUK17 12124 99327 30573 46/// ///// 10172 20086 30169 40177 57006 91150
BBXX VQHO7 12124 99081 50340 41598 11018 10280 20229 40120 70200 8111/ 22284 00274 29903 303// 4//05 5//// 80245
BBXX A8JM6 12124 99123 70258 41397 81006 10256 20198 40129 54000 70222 8/7// 22284 04264 20202 335// 40203 80216
BBXX ZSAF 12124 99453 30055 41599 72122 10052 21017 40184 52011 70122 875// 22252 04072 2//// 321// 40612 5////
BBXX A8QL5 12121 99082 50332 41/98 30908 10260 20202 40130 54000 70300 82400 22254 04280 20902 309// 41003 80220
AAXX 12124 68155 36/// /2903 10329 20118 39135 48491 58018 333 10329 20184 91006 555 91010
AAXX 12124 68171 NIL
AAXX 12124 68176 36/// /2203 10323 20138 39074 48483 58018 333 10325 20168 91008 555 91010
AAXX 12124 68181 NIL
AAXX 12124 68182 36/// /0104 10312 20194 39276 48493 58008 333 10331 20188 91007 555 91009
AAXX 12124 68185 16/// /0305 10267 20110 38511 48444 58006 69921 333 10275 20137 91008 555 20002 91011
AAXX 12124 68253 NIL
AAXX 12124 68255 36/// /3105 10306 20074 38813 48473 58014 333 10309 20166 91011 555 91011
AAXX 12124 68271 36/// /1503 10312 20124 38865 48483 58015 333 10316 20233 91006 555 91012
AAXX 12124 68273 36/// /2806 10285 20080 38425 48476 58008 333 10303 20159 91014 555 91016
AAXX 12124 68287 36/// /1004 10278 20150 38535 48472 57013 333 10284 20140 91013 555 91014
AAXX 12124 68291 36/// /1603 10366 20119 39455 48504 57021 333 10374 20191 91008 555 91006
AAXX 12124 68297 NIL
AAXX 12124 68329 36/// /2805 10338 21046 39046 48502 58011 333 10340 20121 91013 555 91012
AAXX 12124 68331 36/// /3111 10314 21082 38815 48512 58005 333 10317 20090 91017 555 91016
AAXX 12124 68335 36/// /3005 10298 20007 38882 48503 58015 333 10298 20101 91011 555 91014
AAXX 12124 68341 36/// /2809 10292 20068 38498 48482 58008 333 10301 20129 91015 555 91016
AAXX 12124 68342 NIL
AAXX 12124 68343 36/// ///// 10290 21008 38744 48476 57011 333 10290 20100 555 91013
AAXX 12124 68349 36/// /2810 10298 20016 38471 48463 58007 333 10310 20147 91022 555 91014
AAXX 12124 68353 36/// /2506 10279 20024 38479 48457 57013 333 10282 20129 91010 555 91013
AAXX 12124 68355 36/// /2614 10281 21015 38542 48477 58006 333 10283 20138 91021 555 91015
AAXX 12124 68370 NIL
AAXX 12124 68377 36/// /2810 10331 20043 38692 48441 58011 333 10331 20168 91018 555 91009
AAXX 12124 68380 36/// /3205 10278 20068 3//// 4//// 5//// 333 10281 20122 91010 555
AAXX 12124 68387 36/// /2707 10326 20064 38792 48466 57015 333 10328 20155 91014 555 91011
AAXX 12124 68411 36/// /1604 10345 20014 39859 40055 58028 333 10345 20199 91007 555 91006
AAXX 12124 68429 NIL
AAXX 12124 68449 36/// /2706 10260 21053 38355 48463 58006 333 10261 20083 91015 555 91015
AAXX 12124 68471 NIL
AAXX 12124 68474 36/// /2406 10287 21010 38560 48454 57012 333 10287 20083 91013 555 91012
AAXX 12124 68479 36/// /3114 10326 21025 38874 48456 58013 333 10327 20156 91026 555 91008
AAXX 12124 68481 36/// /0910 10303 20215 39697 40050 57005 333 10318 20188 91016 555 91007
AAXX 12124 68487 36/// /1707 10201 20166 38941 48466 57008 333 10236 20189 91012 555 91011
AAXX 12124 68491 36/// /1809 10272 20218 30059 40068 57003 333 10288 20225 91017 555 91006
AAXX 12124 68497 36/// /2109 10238 20193 30038 40081 58006 333 10251 20220 91013 555 91008
BBXX A8SI9 12123 99435 11469 43498 62720 10010 2102/ 40110 54000 851// 22254 00060 80000
BBXX S6OM 12124 99256 11222 41/97 80524 10195 20153 40237 52032 72565 88/// 22200 00224 20303 305// 40810 5//// 80170
BBXX 46132 12121 99497 71279 46/// /3508 10055 40246 57003 22200 00087 11204 70021 333 91209
AAXX 12124 83096 32695 20905 10285 20229 30110 40117 82100 333 20239 58021
AAXX 12124 83186 21596 83601 10228 20216 39580 40109 70296 8552/ 333 20189 58035 60304
AAXX 12124 83236 21598 72302 10227 20216 39611 40106 70366 85522 333 20203 58016 60444
AAXX 12124 83242 21496 80000 10216 20211 39647 40145 71062 887// 333 20222 58044 60234
AAXX 12124 83288 21598 80000 10229 20217 39630 40125 70255 885// 333 20192 58033 60114
AAXX 12124 83344 21497 80501 10196 20188 39162 40127 75262 887// 333 20177 58019 60434
AAXX 12124 82863 32898 60000 10282 20240 39890 40100 86030 333 20239 58008
AAXX 12124 83228 21899 80000 10252 20223 39824 40099 70262 8803/ 333 20215 58016 60494
AAXX 12124 83368 21798 50000 10252 20242 39728 40091 70362 85200 333 20230 58012 60194
AAXX 12124 83374 22598 63206 10250 20219 39535 40103 86800 333 20225 58016 60044
AAXX 12124 83526 32598 23605 10237 20199 39166 40095 82100 333 20192 58010
BBXX 41010 12121 99289 70785 46/// /0713 10226 40222 91220 22200 00241 10908 20706 300// 40906 70042 333 91216 555 11135 22143
BBXX 41009 12121 99285 70802 46/// /0611 10203 20193 40226 91220 22200 00256 11009 20605 300// 41008 70046 333 91214 555 11121 22127
AAXX 12124 82583 32599 50506 10274 20200 39777 40111 85100 333 20219 58004
AAXX 12124 82594 32697 51407 10280 20231 30102 40110 82211 333 20232 59002
AAXX 12124 82683 32595 60506 10274 20192 39671 40119 86600 333 20218 58002
AAXX 12124 82780 32598 20504 10298 20192 39890 40138 82100 333 20266 58012
AAXX 12124 82789 32599 63611 10206 20164 38932 40023 83720 333 20179 58010
AAXX 12124 82795 32597 61406 10258 20197 39514 40126 86200 333 20212 58006
AAXX 12124 82879 21598 63602 10226 20218 39855 40121 75062 86800 333 20220 58016 60394
AAXX 12124 82893 32798 60513 10242 20188 39213 40105 86400 333 20200 58016
AAXX 12124 82979 21498 8//03 10231 20210 39664 40113 70296 88700 333 20214 58033 60114
AAXX 12124 82986 31598 63205 10298 20206 39827 40104 70521 83204 333 20277 58018
AAXX 12124 83179 21598 81401 10252 20213 39660 40109 70266 8652/ 333 20210 58026 60084
AAXX 12124 83192 21597 82707 10243 20233 39963 40127 70361 8532/ 333 20217 58024 69934
AAXX 12124 83339 21495 80902 10202 20194 39152 40119 74066 8622/ 333 20187 58031 60544
AAXX 12124 83498 21595 81403 10233 20225 30133 40138 72162 8562/ 333 20227 58023 60254
AAXX 12124 82106 22196 83604 10251 20240 3//// 4//// 886// 333 20238 5//// 60044
AAXX 12124 82113 21595 73204 10252 20245 3//// 4//// 70352 86602 333 20231 5//// 60084
AAXX 12124 82212 22797 60000 10244 20239 30036 40118 84420 333 20234 58006 60044
AAXX 12124 82336 32698 60000 10274 20254 3//// 4//// 83420 333 20250 5////
AAXX 12124 82410 21596 80502 10246 20236 3//// 4//// 70262 8583/ 333 20235 5//// 60014
AAXX 12124 82425 32996 83604 10268 20263 3//// 4//// 88050 333 20264 5////
AAXX 12124 82533 32297 63602 10258 20251 3//// 4//// 84650 333 20244 5////
AAXX 12124 82704 32896 30000 10239 20228 39867 40061 83150 333 20227 58013
AAXX 12124 82042 32598 50000 10273 20239 3//// 4//// 83321 333 20242 5////
AAXX 12124 82240 32096 00000 10293 20240 3//// 4//// 333 20263 5////
AAXX 12124 82317 22693 60502 10252 20243 3//// 4//// 85640 333 20218 5//// 60164
AAXX 12124 82610 32694 60000 10245 20239 3//// 4//// 83043 333 20200 5////
AAXX 12124 82807 32895 53602 10248 20241 3//// 4//// 84301 333 20236 5////
AAXX 12121 30499 32999 02603 11270 21288 39551 40273 52001 333 11200
AAXX 12121 30683 429// 00000 11265 21284 39567 40280 58003 333 11150
AAXX 12121 30695 32999 03201 11288 21312 39897 40271 51004 333 11169
AAXX 12121 31253 32999 00000 11275 21307 39716 40218 52001 333 11240
AAXX 12121 31295 31999 02904 11201 21259 39748 40235 52003 70230 333 11154
AAXX 12121 31348 32999 00000 11324 21336 39933 40151 52008 333 11201
AAXX 12121 31418 32984 23206 11168 21248 39864 40131 52004 80001 333 11130
AAXX 12121 31439 12999 01602 11220 21245 30055 40102 52005 69940 72272 333 11187
AAXX 12121 31442 32997 02402 11271 21301 39851 40240 52003 333 11166
AAXX 12121 31445 32984 02602 11215 21272 39963 40236 52004 333 11162
AAXX 12121 31474 12998 00000 11330 21360 39712 40256 52007 69900 333 11218
AAXX 12121 31521 32984 02202 11236 21269 39934 40252 52006 333 11187
AAXX 12121 31527 32998 02301 11224 21264 39920 40248 51003 333 11180
AAXX 12121 31534 32999 00000 11258 21283 39882 40260 52010 333 11182
AAXX 12121 31587 32999 00000 11257 21268 30106 40267 52008 333 11154
AAXX 12121 31632 NIL
AAXX 12121 31702 32998 00301 11268 21300 39906 40279 51012 333 11185
AAXX 12121 31713 32999 02702 11207 21256 30116 40222 52018 333 11123
AAXX 12121 31725 32998 02904 11190 21239 30142 40213 52021 333 11120
AAXX 12121 31801 11999 00000 11236 21262 39976 40225 52016 69940 70231 333 11125
AAXX 12121 31825 32684 23503 11168 21248 39953 40174 51026 82500 333 11072
AAXX 12121 31845 12998 00000 11261 21261 30068 40249 52017 60030 333 11105
AAXX 12121 31878 32971 00000 11174 21196 30133 40267 51022 333 11067
AAXX 12121 31915 32998 02803 11088 21167 39996 40272 52024 333 11037
AAXX 12121 31921 32999 02902 11091 21172 30165 40268 51025 333 11034
AAXX 12121 31969 32998 02904 11038 21154 30233 40284 52024 333 10011 91112
AAXX 12121 31981 32999 70000 11100 21120 30017 40263 52025 87030 333 11023
AAXX 12121 31987 32699 23403 11063 21163 39987 40255 52023 82500 333 11021
AAXX 12121 32069 11595 83312 11120 21140 30086 40091 52012 60030 78583 889// 333 11097 91015 91118
AAXX 12121 30455 329// 00000 11256 21275 38908 48439 52009 333 11204
AAXX 12121 30731 119// 83003 11076 21086 39620 40244 53027 60032 77372 8802/ 333 11069
AAXX 12121 30739 116// 80000 11190 21209 39408 40283 52009 69932 78582 889// 333 11118
AAXX 12121 30741 119// 80000 11164 21170 38667 48458 52009 69972 77171 8802/ 333 11110
AAXX 12121 30745 119// 80201 11208 21227 39062 40292 52012 69952 70272 80005 333 11164
AAXX 12121 30764 32998 70000 11248 21266 39428 40297 53005 80001 333 11184
AAXX 12121 30829 32984 83502 11156 21169 39565 52016 86072 333 11140
AAXX 12121 30838 11598 72603 11146 21159 39248 40277 52016 69902 72687 86950 333 11116
AAXX 12121 30846 11998 70000 11185 21211 39304 40269 52005 60012 77177 8707/ 333 11133
AAXX 12121 30859 32999 50000 11232 21250 39378 40286 53004 80001 333 11145
AAXX 12121 30862 32984 40000 11221 21240 39482 40278 57001 80001 333 11185
AAXX 12121 30957 329// 70501 11170 21182 39311 40256 53007 87050 333 11116
AAXX 12121 30975 32998 83601 11248 21280 39600 40308 58003 80007 333 11193
BBXX 51179 12121 99143 51708 46/// ///// 1//// 91202 22200 00285
BBXX 51176 12121 99278 71758 46/// ///// 1//// 91204 22200 00239
BBXX 52245 12121 99181 11458 46/// ///// 1//// 91205 22200 00282
BBXX 52248 12121 99135 11448 46/// ///// 1//// 91206 22200 00284
BBXX 52246 12121 99152 11457 46/// ///// 1//// 91207 22200 00283
BBXX 52244 12121 99200 11452 46/// ///// 1//// 91207 22200 00271
BBXX 51173 12121 99260 71739 46/// ///// 1//// 91211 22200 00243
BBXX 51172 12121 99284 71783 46/// ///// 1//// 91212 22200 00238
BBXX 46181 12121 99538 71288 46/// /0000 10003 40242 57024 22200 00034 10400 70000 333 91200
AAXX 12124 67002 32580 40603 10322 20224 30129 40102 82830 333 0//00 59003 82823 83630 92408
AAXX 12124 67009 32582 70000 10295 20214 39969 40087 57009 872// 333 0//00 87820 555 10330
AAXX 12124 67012 12582 42808 10310 20256 30072 40083 56020 60051 82902 333 0//15 82820 81920 83075 94961 95831
AAXX 12124 67025 31565 21410 10298 20222 39985 40082 57015 70410 82800 333 0//00 82820 555 81640
AAXX 12124 67027 32582 23014 10316 20241 30055 40076 58024 82230 333 0//00 82820 555 81360
AAXX 12124 67045 NIL
AAXX 12124 67072 11475 71808 10280 20227 30106 40109 56014 69931 71562 878// 333 0//05 82817 87640 92428
AAXX 12124 67073 32582 3//// 10316 20242 30053 40079 56017 81905 333 0//00 81923 81823 94961 95831 555 81633 82273
AAXX 12124 67083 32582 21204 10289 20110 38718 48494 57014 81801 333 0//00 81820
AAXX 12124 67095 32481 11408 10295 20228 30097 40103 56005 83830 333 0//00 83817 85360 555 82633
AAXX 12124 67113 NIL
AAXX 12124 67117 NIL
AAXX 12124 67137 32580 2//06 10291 20136 38867 48478 56013 82830 333 0//00 81820 555 10304 81623 81360
AAXX 12124 67143 32582 1//// 10/// 20/// 30089 40096 57015 81231 333 0//00 81820 92438 555 81360 81073
AAXX 12124 67152 32580 4//// 10312 20202 39168 48488 57016 84330 333 0//00 84820 81920 94996 95676 555 81360
AAXX 12124 67157 32475 7//// 10/// 20/// 30105 40112 57016 878// 333 0//00 81817 87633
AAXX 12124 67161 32582 1//06 10310 20239 30069 40078 56012 81200 333 0//00 81820
AAXX 12124 67197 32582 50819 10304 20228 30063 40073 57014 83902 333 0//00 82820 82920 83073 94966 95836
AAXX 12124 67017 NIL
AAXX 12124 67020 32582 30000 10350 20211 30040 40067 57020 83902 333 0//00 81820 81920 83640 94971 95831 555 81073
AAXX 12124 67023 32582 61608 10304 20235 30073 40079 57019 82202 333 0//00 82820 86075
AAXX 12124 67037 31575 7//// 10/// 20/// 30034 40075 5/016 71790 84926 333 0//00 82820 81920 83633 85273 94973 95873 555 82458
AAXX 12124 67067 31575 5//// 10288 20190 39223 48/// 57018 70410 85800 333 0//00 83823 83630
AAXX 12124 67107 NIL
AAXX 12124 67131 32582 12610 10/// 20/// 30069 40074 57013 81802 333 0//00 81823 555 81640 81073
BBXX 46181 12121 99538 71288 46/// /0000 10003 40242 57024 22200 00034 10400 70000 333 91200
AAXX 12124 86330 32998 60000 10268 20158 40094 50016 80006 333 10270 20182 30014
AAXX 12124 86360 32897 61815 10232 20160 40113 52021 82075 333 10340 20194 30016
AAXX 12124 86460 32998 31914 10234 20122 40101 51015 80004 333 1//// 20184 30018
AAXX 12124 86490 32597 22109 10226 20136 40127 52016 81105 333 10264 20172 30015
AAXX 12124 86530 12597 22114 10218 20139 40100 52013 60014 82405 333 10246 20172 30///
AAXX 12124 86545 12597 62011 10196 20162 40112 52016 60104 86200 333 10202 20158 31014
AAXX 12124 86565 11497 52706 10205 20164 40083 52009 60114 70196 82270 333 10205 20175 31015
AAXX 12124 86580 11597 32318 10188 20124 40103 52011 60304 701// 83300 333 10284 20168 33///
BBXX A8IP9 12123 99370 10175 41597 32312 10200 20185 40220 58/// 70100 81111 22274 00210 20303 80190
AAXX 12124 68171 NIL
AAXX 12124 68181 NIL
AAXX 12124 68253 NIL
AAXX 12124 68297 NIL
AAXX 12124 68342 NIL
AAXX 12124 68370 NIL
AAXX 12124 68429 NIL
AAXX 12124 68471 NIL
BBXX 46184 12121 99539 71389 46/// /2610 10068 40145 52008 22200 00067 11410 70050 333 91212
AAXX 12124 42634 32996 00503 10254 20036 40127 333 10285 58006
AAXX 12124 42647 32996 20509 10256 20033 40133 80001 333 10276 58005 82075
AAXX 12124 42737 32996 00508 10270 20047 40123 333 10295 58004
AAXX 12124 42840 32996 00503 10294 20138 40114 333 10320 58002
AAXX 12124 42909 32997 03604 10294 20089 40123 222// 20000 333 10324 58005
AAXX 12124 42921 32996 10902 10274 20104 40134 80001 333 10299 58015 81075
AAXX 12124 43003 31995 03204 10290 20192 40096 70400 333 10334 58006
AAXX 12124 43014 32996 00000 10284 20159 39461 40093 333 10302 58011
AAXX 12124 43063 32997 60000 10292 20173 39477 40086 80001 333 10312 58013 86070
AAXX 12124 43110 31997 02905 10298 20211 40089 70544 333 10353 58006
AAXX 12124 43117 32597 20000 10300 20176 40089 82500 333 10339 58013
AAXX 12124 43192 31596 62704 10310 20232 40084 70522 81402 333 10348 58007
BBXX 46184 12121 99539 71389 46/// /2610 10068 40145 52008 22200 00067 11410 70050 333 91212
AAXX 12124 91723 NIL
AAXX 12124 91759 11598 70904 10249 20228 40120 58005 60001 71522 83238 333 10285 56999 83820 87278
AAXX 12124 91762 11598 51203 10252 20230 40117 58006 60001 71522 84830 333 10300 83820 85364
AAXX 12121 24856 12998 02702 11386 21413 30048 40226 52008 69932 333 11285
AAXX 12121 30679 NIL
AAXX 12121 30686 32999 03601 11300 21330 39870 40286 52004 333 11210
AAXX 12121 30961 32999 80000 11206 21218 39432 40276 57011 80009 333 11186
AAXX 12121 30971 32999 82101 11194 21213 39228 40276 57004 80008 333 11127
AAXX 12121 30978 32999 81903 11172 21206 39553 40275 58009 8801/ 333 11158
AAXX 12121 31513 32999 02701 11216 21256 39998 40242 58001 333 11161
AAXX 12121 31624 NIL
AAXX 12121 31832 12968 03402 11175 21234 30155 40247 52016 69900 333 11116
AAXX 12121 31913 NIL
AAXX 12121 32128 11496 73601 11102 21115 30049 40103 51023 69930 78583 87300 333 11030 91005 91113
AAXX 12121 08545 31562 71202 10128 20078 30179 40262 52003 70222 86831 222// 00150 333 82825 85645 555 50084 60005
AAXX 12124 40250 32960 22404 10140 20003 39432 40223 57020 80001 333 82070
AAXX 12124 40260 32960 21606 10140 21046 39449 40246 57018 80001 333 82070
AAXX 12124 40265 32960 41012 10138 21059 39441 40253 57019 84031 333 84360 83070
AAXX 12124 64512 32470 5//// 10276 20206 3//// 4//// 85200 333 0//00 5//// 85813 94919 95839
AAXX 12124 64700 32960 30412 10280 21019 39794 40133 80002 333 0//00 58002 83075
AAXX 12124 64701 NIL
AAXX 12124 64702 NIL
AAXX 12124 64705 31958 33404 10312 20046 3//// 4//// 70500 80002 91150 333 0//00 5//// 83075
AAXX 12124 64706 32960 63206 10290 20045 39632 40102 80002 333 0//00 58003 86075
AAXX 12124 64708 32960 30804 10290 3//// 4//// 80002 91155 333 0//00 5//// 83075
AAXX 12124 64709 31930 70208 10270 20021 3//// 4//// 70542 80002 91145 333 0//00 5//// 87075
AAXX 12124 64710 NIL
AAXX 12124 64713 NIL
AAXX 12124 64722 32960 43604 10310 20130 3//// 4//// 80002 91150 333 0//00 5//// 84075
AAXX 12124 64750 32965 60206 10333 20035 39689 40095 80002 91155 333 0//00 58000 86075
AAXX 12124 64751 32960 20606 10289 21030 3//// 4//// 81032 91150 333 0//00 5//// 81365
AAXX 12124 64753 31958 00410 10235 21020 3//// 4//// 70700 91153 333 0//00 5////
AAXX 12124 64754 NIL
AAXX 12124 64756 32962 53604 10310 21025 39501 4//// 80002 91150 333 0//00 59004 85075
AAXX 12124 64757 32965 20410 10275 21020 3//// 4//// 80002 91155 333 0//00 5//// 82075
AAXX 12124 64758 32960 60404 10328 20027 3//// 4//// 80002 91150 333 0//00 5//// 86075
AAXX 12124 64761 NIL
AAXX 12124 40260 32960 21606 10140 21046 39449 40246 57018 80001 333 82070
AAXX 12124 40250 32960 22404 10140 20003 39432 40223 57020 80001 333 82070
AAXX 12124 40265 32960 41012 10138 21059 39441 40253 57019 84031 333 84360 83070
AAXX 12121 08521 32470 20405 10210 20130 30220 40292 50009 82200 333 82816 555 50004 60007
AAXX 12124 40255 32960 30804 10156 20008 39508 40230 57022 80001 333 83070
AAXX 12124 40260 NIL
AAXX 12124 40270 31950 41404 10154 21046 39325 40237 54001 70500 80001 333 84070
AAXX 12124 40272 31957 61110 10170 21031 39390 40236 57018 70500 80001 333 86070
AAXX 12124 40290 NIL
AAXX 12124 40340 31957 03617 10208 20021 40199 57029 70500
AAXX 12121 10962 12580 72606 10026 20007 38970 48419 53015 60001 876// 333 43003 55300 20262 30261 87726
BBXX 44061 12121 99388 70770 46/// /0000 1//// 91220 333 91201
BBXX 44061 12121 99388 70770 46/// /0601 1//// 40351 91210 333 91202
BBXX 44061 12121 99388 70770 46/// /0502 11003 40350 56010 91200 22200 00062 333 91202
BBXX 44059 12121 99368 70763 46/// /0604 1//// 91220 333 91206
BBXX 44059 12121 99368 70763 46/// /0604 1//// 40328 91210 333 91205
BBXX 44059 12121 99368 70763 46/// /0604 10063 40327 56007 91200 22200 00106 333 91206
BBXX 44057 12121 99395 70761 46/// /3602 1//// 91220 333 91203
BBXX 44057 12121 99395 70761 46/// /0202 1//// 40359 91210 333 91203
BBXX 44057 12121 99395 70761 46/// /0301 11021 40359 56003 91200 22200 00062 333 91202
BBXX 44058 12121 99376 70763 46/// /0707 1//// 91220 333 91209
BBXX 44058 12121 99376 70763 46/// /0607 1//// 40337 91210 333 91209
BBXX 44058 12121 99376 70763 46/// /0607 10064 40339 55007 91200 22200 00101 10301 70007 333 91209
BBXX 44039 12121 99411 70727 46/// /2603 10048 21025 40368 91153 22200 00107 10301 70003 333 91205
BBXX MINUK05 1212/ 99594 70023 46/// ///// 10070 49832 57001
BBXX MINUK03 1212/ 99550 70015 46/// ///// 10078 49986 52056
BBXX MINUK01 1212/ 99602 70012 46/// ///// 10063 49830 57008
BBXX MINFR05 1212/ 99496 70002 46/// ///// 10095 40120 52014
BBXX 46092 12121 99368 71220 46/// /1304 10095 40084 91157 22200 00123 555 11036 22041
BBXX 44039 12121 99411 70727 46/// /2504 10047 21026 40371 91200 22200 00106 10301 70003 333 91205
BBXX 46246 12121 99500 71451 46/// ///// 1//// 91159 22200 00075 11512 21006 326// 41510 70060
BBXX 46232 12121 99325 71174 46/// ///// 1//// 91208 22200 00145 11503 21001 324// 41503 70014
BBXX 46247 12121 99378 71228 46/// ///// 1//// 91221 22200 00113 11505 20903 329// 41503 70023
AAXX 12121 56671 32780 13402 10077 20022 38204 52006 81400 333 05201
AAXX 12121 57378 32960 01401 10077 20013 40277 52011
AAXX 12121 57426 32962 00000 10038 20028 40276 52016 333 05352
AAXX 12121 57476 32962 20901 10065 20004 40270 52009 82030
AAXX 12121 57584 32970 20402 10079 21011 40274 52008 82040
AAXX 12121 57598 32962 00000 10045 21001 40273 52012
AAXX 12121 57655 32962 70401 10104 20010 40259 52011 8707/
AAXX 12121 57713 NIL
AAXX 12121 57776 32875 20404 10005 21199 40288 52008 82040
AAXX 12121 58321 32960 00701 10033 21035 40297 52007
AAXX 12121 58437 32980 01401 11001 21281 38189 52006
AAXX 12121 58445 NIL
AAXX 12121 58556 31958 03603 10050 21030 40291 52014 70500
AAXX 12121 58569 31957 03606 10060 21009 40280 52009 70500
AAXX 12121 58646 32660 23401 10079 21021 40274 52015 82500
AAXX 12121 58653 NIL
AAXX 12121 58660 NIL
AAXX 12121 58715 32965 13602 10069 21020 40266 52009 80002
AAXX 12121 58730 32965 00201 10077 20034 40260 52014
AAXX 12121 58731 32973 02901 10074 21006 40263 52014
AAXX 12121 58754 32664 73401 10117 20030 40265 52016 875//
AAXX 12121 58911 32975 00701 10085 20016 40247 52013
AAXX 12121 58931 31/00 90706 10043 20043 38386 52004 74740
AAXX 12121 59254 32762 10000 10133 20064 40209 52006 81530
AAXX 12121 59632 32963 13401 10157 20032 40203 52009 80002
AAXX 12121 59855 32570 50403 10169 20101 40196 52024 85100
BBXX A8EH3 12123 99533 11738 41397 73321 10000 49850 54000 78587 877// 22224 04050 29904 330// 41005
BBXX KFMV 12123 99309 11716 41295 83519 10183 20170 40180 52020 75165 87627 22225 00228 20704 33230 40504 50703 6//// 80178 ICE /////
BBXX WCX8882 12124 99482 11572 41598 83013 11010 21040 40000 52025 7//22 8842/ 22254 00030 20404 322// 40606 5//// 6//// 81020 ICE /////
BBXX SHIP 12124 99422 71629 41898 11506 10110 20038 40233 57019 70200 81/// 22223 00130 80075
BBXX VRHO2 12124 99526 71736 41898 42524 10040 21008 40030 56010 70171 84/78 22253 00040 20701 32727 40902 51203 6//// 80020 ICE /////
BBXX 46004 12121 99509 71361 46/// /3406 10070 40186 57005 22200 00080 11109 70043 333 91207
AAXX 12124 04048 41470 61117 10027 20011 49763 57007 71588 86900 555 3/520
BBXX 46004 12121 99509 71361 46/// /3406 10070 40186 57005 22200 00080 11109 70043 333 91207
AAXX 12124 68024 42660 50305 10310 20167 48469 57029 85280
AAXX 12124 68026 41660 60602 10291 20191 48470 57030 70222 85983
AAXX 12124 68032 42660 53203 10300 20203 48476 57025 85280
AAXX 12124 68038 41560 70000 10206 20199 48485 57010 79722 85970
AAXX 12124 68040 42560 70704 10295 20170 48474 57025 83972
AAXX 12124 68148 42660 50707 10295 20177 48478 57025 84802
AAXX 12124 68226 42660 50000 10316 20134 48474 57024 85974
AAXX 12124 68234 42560 60512 10242 20150 48475 57013 84981
AAXX 12124 68240 41560 62812 10256 20137 48473 57017 79522 86900
AAXX 12124 68328 42660 21803 10336 20044 48478 57028 81984
AAXX 12124 68320 42660 22710 10342 20086 48487 57018 82202
AAXX 12124 43086 32997 00503 10274 20153 39938 40114 333 10314 58019
AAXX 12124 43128 32597 50903 10278 20221 39508 40104 84501 333 10304 58013 84620 83070
AAXX 12124 43150 32596 60903 10270 20193 30049 40123 82530 222// 20000 333 10301 58012 82620 85360
AAXX 12124 43185 31596 60903 10276 20223 30109 40112 70522 83532 333 10315 58014 83620 85070
AAXX 12124 43189 32997 00000 10276 20203 30111 40120 333 10313 58012
AAXX 12124 43198 32496 60702 10280 20138 39268 40074 83531 333 10314 56299 58006 83615 83358
AAXX 12124 43201 32497 60903 10298 20151 39371 40072 83532 333 10311 58009 83615
AAXX 12124 43213 32597 20000 10302 20144 39784 40095 81130 333 10329 58012
AAXX 12124 43226 32497 52701 10310 20241 30057 40086 81508 333 10348 58000
AAXX 12124 43233 32997 00903 10284 20095 39289 40078 333 10300 58011
AAXX 12124 43237 32597 50903 10292 20152 39708 40093 83830 333 10317 58013 82620 83825 83360
AAXX 12124 43245 21597 30502 10274 20221 30084 40110 70262 82501 333 10303 58015 6994/
AAXX 12124 43279 32597 23606 10278 20209 30093 40110 81501 333 10321 58010 81620
AAXX 12124 43284 32596 22706 10306 20221 39959 40072 81501 333 10341 58009 81260
AAXX 12124 43295 32496 60503 10262 20131 39084 48503 85601 333 10286 56199 58001 83615 83075
AAXX 12124 43311 32497 60903 10300 20252 40073 84401 333 10327 56209 58005 83618 85075
AAXX 12124 43314 32597 22702 10314 20252 40083 81430 333 10344 58014
AAXX 12124 43321 31496 30708 10284 20177 39651 40091 70510 81501 333 10303 58001
AAXX 12124 43329 32597 60000 10274 20227 30083 40096 82530 333 10307 59015
AAXX 12124 43344 31496 60508 10284 20219 39997 40096 70522 84902 333 10308 57972 58005 83615 81925 85075
AAXX 12124 43346 32597 60508 10278 20228 30083 40090 81532 333 10304 58009 81620 86075
AAXX 12124 43353 32496 52309 10294 20239 40087 82501 333 10336 56609 58018 82616 85075
AAXX 12124 43369 32597 50503 10286 20249 40077 83430 333 10330 59001 83620 83360
AAXX 12124 43371 21597 70000 10280 20237 30011 40083 70365 83870 333 10302 58015 6002/ 83620 85356
AAXX 12124 84036 11560 83602 10104 20102 69924 75022 887// 333 10190 20081 555 10002 30098
AAXX 12124 84076 31460 70000 10116 20107 74042 87600 333 10230 20113 30111 555 30094
AAXX 12124 84008 32457 81414 10224 20204 30125 40135 888// 00161 333 10277 20223 58003 555 30088 40179
AAXX 12124 84088 11103 80000 10086 20085 37069 60074 74042 886// 333 10183 20083 30080 58006 555 10070 30099
AAXX 12124 84270 11550 70000 10127 20111 60014 74125 87800 333 10250 20117 555 10012 30090
AAXX 12124 84140 31570 80000 10236 20210 30036 40121 70542 8651/ 333 10350 20233 58004 555 30085
AAXX 12124 84179 11981 70000 10179 20175 39055 69904 71142 87070 333 10294 20169 58012 555 1 T 30098
AAXX 12124 84202 31670 82302 10238 20200 30160 70542 8751/ 333 10342 20232 58013 555 30079
AAXX 12124 84160 11570 41802 10083 20072 37266 69974 70544 83530 333 10213 20078 59003 555 10007 30092
AAXX 12124 84204 31665 80000 10240 20182 70544 8451/ 333 10249 20235 555 30070
AAXX 12124 84143 11360 70000 10111 20106 37405 69974 72162 81650 333 10218 20101 30064 59004 555 10007 30097
AAXX 12124 84226 12680 40000 10092 20092 60044 82504 333 10166 20048 555 10035 30100
AAXX 12124 84050 11450 80902 10216 20208 69964 74046 886// 333 10330 20214 555 10006 30095
AAXX 12124 84142 11110 80000 10158 20155 60234 75066 887// 333 10220 20154 555 10232 30098
AAXX 12124 84132 11/10 90000 10224 20221 39877 60124 74544 89/// 333 10316 20216 58003 555 10121 30098
AAXX 12124 84105 11230 83604 10214 20211 31001 60044 71655 887// 333 10324 20213 58001 555 10040 30098
AAXX 12124 84072 11258 80000 10110 20098 37299 69974 74044 8661/ 333 10216 20103 58004 555 10007 30092
AAXX 12124 84045 11/00 90000 10080 20080 60134 75042 89/// 333 10159 20057 555 10126 30100
AAXX 12124 84173 31465 60402 10105 20100 74044 83635 333 10212 20101 555 30094
AAXX 12124 84135 32575 60000 10234 20193 30075 84130 333 10356 20214 58000 555 30078
AAXX 12124 84001 31565 71810 10225 20185 30107 40127 70544 87500 333 20221 58005
AAXX 12124 84010 31465 81412 10222 20209 70542 885// 333 20220
AAXX 12124 84018 11458 81803 10225 20222 30116 40123 60044 71544 8557/ 333 20223 58016 555 10042
AAXX 12124 84027 12665 80000 10096 20093 37173 47143 60014 885// 333 20090 58001 555 10010
AAXX 12124 84063 11/01 90000 10222 20219 39749 40085 60064 74744 89/// 333 20210 58008 555 10060
AAXX 12124 84071 11220 80702 10106 20100 37286 47136 69984 74042 885// 333 20105 58006 555 10008
AAXX 12124 84099 11110 70000 10220 20217 3//// 40010 60014 74164 84630 333 20210 5//// 555 10011
AAXX 12124 84117 31760 82008 10230 20185 30105 40128 70544 885// 333 20229 58008
AAXX 12124 84123 11140 70000 10110 20107 37301 47135 60094 74044 86550 333 20103 59001 555 10090
AAXX 12124 84147 11/02 90000 10113 20111 69944 74544 89/// 333 20110 555 10004
AAXX 12124 84163 12970 50107 10186 20169 38942 48488 60074 85030 333 20180 58008 555 10070
AAXX 12124 84176 32570 70000 10106 20096 87200 333 20094
AAXX 12124 84200 31462 52008 10219 20191 70544 81530 333 20217
AAXX 12124 84203 31560 72704 10241 20156 30109 40114 70544 86530 333 20236 58010
AAXX 12124 84217 11210 33402 10183 20180 60224 74064 81639 333 20174 555 10220
AAXX 12124 84239 12465 80000 10131 20129 37547 47147 69934 885// 333 20121 59003 555 10003
AAXX 12124 84252 31565 50204 10244 20214 30115 40123 70544 81530 333 20237 58010
AAXX 12124 87548 12960 02308 10182 20067 30062 40158 52013 69904 333 10239 20098
AAXX 12124 71405 16/// ///// 11067 21079 60001 333 11022 21071 70000
AAXX 12124 71417 46/// /2810 11103 21124 30201 40237 53001 6///1 333 11078 21117 7////
AAXX 12124 71426 46/// /2228 10012 6///1 333 10002 21016 7////
AAXX 12124 71761 16/// ///// 11090 21102 60001 333 11006 21136 70000
AAXX 12124 71788 17/// /0204 11066 21071 69981 7//4/ 333 11017 21069 70037
AAXX 12124 71792 16/// ///// 11069 21081 60001 333 11036 21071 70000
AAXX 12124 71221 16/// /0801 11135 21145 60001 333 11052 21138 70000
AAXX 12124 71226 16/// /1703 11177 21190 60001 333 11032 21183 7////
AAXX 12124 71229 46/// /1610 11120 21135 6///1 333 11069 21138 7////
AAXX 12124 71500 16/// /1705 11094 21102 60001 333 11025 21108 70004
AAXX 12124 71504 16/// ///// 11113 21129 60001 333 11017 21137 70000
AAXX 12124 71526 16/// /2105 11081 21085 60001 333 11009 21090 70053
AAXX 12124 71541 16/// /1904 11100 21112 60001 333 11083 21109 70000
AAXX 12124 71543 16/// /0302 11197 21214 60001 333 11018 21204 70004
AAXX 12124 71546 16/// /2008 11102 21125 60001 333 11046 21117 70000
AAXX 12124 71547 16/// /1802 11116 21131 60001 333 11050 21132 70000
AAXX 12124 71461 16/// /1911 11087 21114 60001 333 11058 21109 70000
AAXX 12124 71468 16/// /0710 11037 21041 39916 40245 53019 60001 333 21037 70000
AAXX 12124 71483 17/// ///// 11142 21157 69941 7//4/ 333 11016 21169 70004
AAXX 12124 71569 16/// /0506 11078 21086 39543 40265 51007 60001 333 11021 21083 70000
AAXX 12124 71283 16/// /1701 11137 21147 60001 333 11062 21139 70007
AAXX 12124 71673 16/// ///// 11089 21096 60001 333 11025 21090 70000
AAXX 12124 71690 16/// ///// 11196 21214 60001 333 11034 21198 70000
AAXX 12124 71359 16/// /1403 11100 21108 60001 333 11014 21107 70000
AAXX 12124 71067 16/// ///// 11093 21107 60001 333 11031 21093 70000
AAXX 12124 71010 16/// /1507 11078 21097 60001 333 11028 21080 70000
AAXX 12124 71011 16/// ///// 11083 21095 60001 333 11019 21083 70000
AAXX 12124 71888 16/// ///// 11078 21096 60001 333 11021 21091 7////
AAXX 12124 71895 16/// ///// 11128 21134 60001 333 11024 21136 70000
BBXX 46146 12121 99493 71237 46/// /3404 10029 40257 57005 22200 00062 10301 70003 333 91205
AAXX 12121 56144 32980 00000 11023 21138 36858 52017 333 00153
AAXX 12121 56152 32980 03203 11070 21164 36306 52012 333 00151
AAXX 12121 56167 32980 00000 11008 21094 37088 52018 333 00251
AAXX 12121 56182 32980 00000 11014 21107 37187 52017 333 05152
AAXX 12121 56357 32980 02201 11014 21171 36430 52016 333 05101
AAXX 12121 56586 32960 00201 10006 21010 38061 52015 333 05202
AAXX 12121 56748 32580 22001 10123 20027 38350 52009 82400 333 00052
AAXX 12121 56763 32980 01403 10148 20050 40149 52010 333 05404
AAXX 12121 56768 32680 22001 10071 20059 38184 52012 82400 333 05202
AAXX 12121 56838 32670 11601 10156 20112 40154 52006 81400 333 00052
AAXX 12121 56886 32675 31402 10075 20055 38307 52015 83400 333 05201
AAXX 12121 56946 32675 20000 10156 20108 40149 52008 82400 333 00051
AAXX 12121 56959 32765 80000 10169 20156 40167 52010 884// 333 05202
AAXX 12121 56969 32660 70401 10152 20134 40183 52009 874// 333 05202
AAXX 12121 57731 32768 80000 10091 20027 40256 52011 885// 333 05302
AAXX 12121 57766 32762 70901 10091 21019 40268 52008 875//
AAXX 12121 57845 32960 70000 10069 20004 40254 52010 87040
AAXX 12121 57853 32962 10701 10088 21022 40265 52008 81040
AAXX 12121 57916 32671 80000 10117 20062 40230 52008 885// 333 05203
AAXX 12121 57922 32668 60000 10072 20019 40250 52014 86500 333 05202
AAXX 12121 57932 32672 70202 10122 20026 40241 52008 875// 333 05304
AAXX 12121 58338 32961 00901 10035 21042 40288 52007
AAXX 12121 59007 32667 81401 10096 20029 40219 52011 885//
AAXX 12121 59046 32970 60201 10127 20005 40228 52006 86030
AAXX 12121 59058 32970 73402 10117 21014 40230 52012 8704/
AAXX 12121 59072 32963 00203 10108 21033 40241 52013
AAXX 12121 59087 32962 00904 10139 21029 40215 52005
AAXX 12121 59209 32565 63401 10077 20047 40235 52013 86800
BBXX 46146 12121 99493 71237 46/// /3404 10029 40257 57005 22200 00062 10301 70003 333 91205
BBXX 44258 12121 99445 70634 46/// /2413 10055 40329 57013 22200 00069 10402 70012 333 91215
AAXX 12124 65545 31930 0//// 10300 20041 39700 40125 70500 333 58009
AAXX 12124 65557 32460 6//// 10285 20230 39882 40121 86200 333 58010 86813 94919
AAXX 12124 65560 31460 7//// 10281 20225 39805 40113 70244 872// 333 58003 87813 94914
AAXX 12124 65562 31458 6//// 10304 20239 3//// 4//// 70244 86800 333 5//// 83813 85815 94919
AAXX 12124 65578 32460 71804 10297 20248 30/// 40/// 81800 333 5//// 81813 87620 94908
AAXX 12124 65585 31456 5//// 10310 20242 3//// 4//// 70144 85200 333 5//// 85816 94939
AAXX 12124 65594 31458 72806 10273 20246 30083 40117 70399 872// 333 58004 87813 94919
AAXX 12124 65599 31460 6//// 10294 20237 30032 40106 70399 85230 333 58008 85813 83360 94919
BBXX 44258 12121 99445 70634 46/// /2413 10055 40329 57013 22200 00069 10402 70012 333 91215
AAXX 12124 97008 01457 70000 10250 20244 30060 40070 52003 60081 71562 85572 333 10313 56000 59007 69927 85618
AAXX 12124 97016 32560 70000 10282 20235 30073 40075 52021 82271 333 10328 56000 57802 59007 82820 84460 80860
AAXX 12124 97126 31457 81402 10286 20252 30021 40082 52025 8392/ 333 10332 56009 57901 59010 81916 82616 88460 80980
AAXX 12124 97142 NIL
AAXX 12124 97182 32468 60801 10288 20248 30073 40078 52023 84831 333 10324 56000 57800 59005 83819 83360 808//
AAXX 12124 97240 01456 80000 10268 20260 39967 40081 52019 60021 71396 86931 333 10324 56000 57901 59011 69907 81915 85816 80980 80860
AAXX 12124 97284 01440 80000 10212 20210 38856 40091 57015 60021 72162 8622/ 333 10258 56009 57801 59007 60027 86810 80837
AAXX 12124 97310 32558 20000 10277 20251 30063 40075 52021 82101 333 10322 56000 59008 82820
AAXX 12124 97320 32560 70000 10284 20252 30068 40081 52026 82126 333 10332 56000 59001 82820 83460
AAXX 12124 97378 32565 50000 10272 20261 39928 40091 53026 83211 333 10324 56000 59008 83820
AAXX 12124 97380 NIL
AAXX 12124 97406 32460 60000 10258 20249 30042 40067 52018 84231 333 10328 56000 57801 59014 84818 80860
AAXX 12124 97570 32460 83305 10278 20249 30069 40076 52021 888// 333 10324 56000 59004 82815 87616
AAXX 12124 97630 32457 70000 10256 20244 39924 40085 51016 84942 333 56000 57901 59006 81911 83812 86080 80976
AAXX 12124 97682 31410 70904 10268 20247 30078 40085 52012 72917 86971 333 10346 56000 57901 58004 82916 85814 80968
AAXX 12124 97698 NIL
AAXX 12124 97700 32461 20000 10282 20250 30055 40070 52013 81231 333 10316 56000 57805 59013 81816 80840
AAXX 12124 97722 32565 30000 10260 20248 30067 40082 52016 83202 333 10314 56000 57803 59007 83820 80850
AAXX 12124 97780 NIL
AAXX 12124 97790 32561 70000 10269 20243 30034 40055 52013 81105 333 10313 56000 57802 59003 81821 85274 80858
AAXX 12124 96009 01430 81204 10256 20244 30056 40091 52016 69911 79196 8592/ 333 10284 56009 57902 59001 69917 81914 84614 80965
AAXX 12124 96011 12458 81003 10246 20236 30060 40086 52000 60061 79562 83921 333 10298 56000 57901 82919 83619 808//
AAXX 12124 96035 01440 80000 10238 20227 30055 40093 52027 60051 76196 8597/ 333 10314 56009 57902 58000 60057 81917 84617 80950
AAXX 12124 96073 01450 70000 10256 20244 30072 40083 56005 60101 72196 84972 333 10320 56000 57901 59017 60107 84913 80959
AAXX 12124 96091 32460 70000 10260 20244 30078 40101 53010 83278 333 10280 56000 57804 58003 83817 87360 80860
AAXX 12124 96109 NIL
AAXX 12124 96145 01440 80000 10234 20228 30101 40104 53012 60121 70562 8552/ 333 10248 56809 58008 69987 88460
AAXX 12124 96147 01440 80000 10240 20232 30106 40111 52010 60021 72162 8462/ 333 10270 56009 58016 60017 84710 86459
AAXX 12124 96163 32458 71706 10275 20229 30089 40091 52018 83521 333 10326 56000 59004 83616
AAXX 12124 96179 32460 70000 10261 20236 30058 40095 52003 82238 333 10306 56000 57803 58004 82817 80840
AAXX 12124 96195 NIL
AAXX 12124 96221 32560 60404 10276 20244 30071 40086 52013 81131 333 10298 56099 59010 81820 84362
AAXX 12124 96237 31457 80000 10270 20244 30046 40087 51015 71322 84378 333 10300 56000 57904 58000 81919 83816 84360 86280 80980
AAXX 12124 96249 32560 70000 10264 20249 30024 40085 52015 82232 333 10308 56400 57842 59005 82820 80863
AAXX 12124 96253 32460 70000 10276 20247 30052 40072 52015 83932 333 10306 56000 57900 81915 83360
AAXX 12124 96295 01460 70000 10272 20240 39983 40086 51018 60181 70262 84521 333 10316 56000 59005 60017 84615
AAXX 12124 96509 NIL
AAXX 12124 96581 11457 70000 10252 20240 30084 40091 52009 60031 70262 86170 333 10296 56600 58002 86812 80860
AAXX 12124 96633 32559 30904 10283 20250 30057 40065 52024 81511 333 10323 56000 59009 81620
AAXX 12124 96645 31456 73103 10262 20247 30050 40083 52021 72992 85372 333 10344 56000 57901 59004 81913 85613 80981
AAXX 12124 96655 32458 61806 10280 20246 30063 40097 52020 85521 333 56000 10334 56000 59004 85612
AAXX 12124 96685 31460 60000 10284 20249 30060 40086 52030 71322 85911 333 10330 56000 57902 58000 82918 83616 80980
AAXX 12124 96749 01557 71602 10278 20234 30071 40085 53015 69921 70596 82521 333 10328 56000 59003 69907 82620 87460
AAXX 12124 96781 NIL
AAXX 12124 96805 01458 81704 10248 20238 30088 40097 51005 60101 76096 8592/ 333 10294 56009 57901 57801 59001 60017 81918 84818 88460 80975 80858
AAXX 12124 96839 11450 71705 10286 20228 30073 40080 5.011 69901 72996 84376 333 10306 56000 58001 84619
AAXX 12124 96935 11560 60000 10290 20245 30072 40078 52017 69901 70262 81531 333 10328 56000 59002 81620
AAXX 12124 97014 31559 73505 10287 20240 39982 40075 52004 71422 84871 333 56800 57884 83820 80858
AAXX 12124 97028 32561 50000 10272 20255 30059 40065 53011 83531 333 10313 56000 59004 83620 83360
AAXX 12124 97048 32460 40000 10278 20259 30040 40064 52014 82931 333 10348 56000 57903 59003 82917 80980
AAXX 12124 97072 32459 53408 10280 20239 39984 40084 53027 82271 333 10348 56000 57804 59007 82819 80856
AAXX 12124 97086 32560 52502 10278 20251 30059 40083 51014 82231 333 10321 56000 57803 59002 82820 84360 80859
AAXX 12124 97096 32460 50000 10270 20249 30068 40089 52014 81231 333 10316 56000 57803 59005 81816 83460 80860
AAXX 12124 97120 32459 50000 10278 20246 30045 40078 53021 82231 333 10322 56000 57802 59002 82818 83360 80860
AAXX 12124 97146 NIL
AAXX 12124 97180 31457 60905 10268 20259 30066 40084 53022 70192 83232 333 10327 56000 59009 83819
AAXX 12124 97192 31458 41103 10276 20251 30038 40095 52020 70291 84800 333 10322 56200 57823 59009 84816 80857
AAXX 12124 97230 01460 80000 10272 20258 30063 40070 52012 60031 72996 85972 333 10312 56000 57901 57901 59014 60037 81916 85459 80960
AAXX 12124 97260 31560 40000 10278 20254 30062 40069 52019 71311 83901 333 10316 56000 57901 81920 80980 82626
AAXX 12124 97270 31450 70000 10282 20252 30073 40077 53025 71422 85821 333 10342 56000 59007 83815 85460
AAXX 12124 97300 32560 50000 10288 20247 30043 40084 52016 82201 333 10326 56000 57803 59005 82820 80856
AAXX 12124 97340 32560 70000 10290 20262 30063 40078 52020 82232 333 10326 56000 59010 82820 85080
AAXX 12124 97372 31456 70000 10285 20264 39966 40086 52021 71722 85971 333 10318 56000 57901 59012 81914 84815 83459 80980
AAXX 12124 97430 31460 70000 10227 20242 30055 40084 52016 71322 84932 333 10318 56700 28971 57871 59007 81915 83818 80980 80860
AAXX 12124 97460 11460 50000 10258 20246 30055 40069 52024 60021 70262 82836 333 10326 56000 57803 58003 81818 80856
AAXX 12124 97502 32450 30000 10260 20249 30074 40078 52017 82531 333 10314 56000 59005 82620
AAXX 12124 97530 11456 43007 10267 20237 30078 40083 57025 60011 70261 81232 333 10323 56000 57803 59003 81814 83360 80857
AAXX 12124 97560 32460 73403 10274 20248 30073 40088 52018 84947 333 10310 56000 57901 57803 59001 81917 83818 85361 87279 80980 80860
AAXX 12124 97580 NIL
AAXX 12124 97600 32560 50000 10272 20249 30064 40070 53006 82231 333 10322 56600 57864 58013 82820 80860
AAXX 12124 97686 01456 80000 10170 20159 38364 40096 52035 60051 76066 85847 333 10264 56000 57802 58019 60057 84811 87361 80856
AAXX 12124 97690 NIL
AAXX 12124 97724 32561 60000 10266 20242 30057 40073 52017 81236 333 10325 56800 57883 59007 81820 84275 80850
AAXX 12124 97748 31462 40903 10280 20245 30058 40060 52002 70511 81232 333 10317 56000 57804 58000 81816 84075 80856
AAXX 12124 97760 31460 61003 10261 20244 30074 40083 52020 71322 82902 333 10338 56000 57901 59006 81915 82816 80960
AAXX 12124 97796 NIL
AAXX 12124 97810 31456 70000 10262 20245 30053 40062 52014 71422 86832 333 10325 56000 57801 59012 84818 80858
AAXX 12124 97876 32440 40000 10270 20253 30092 40122 52024 83231 333 56000 57801 59004 83812 80858
AAXX 12124 97900 32562 60402 10262 20243 30047 40076 52022 82275 333 10315 56100 57812 59007 82820 85275 80850
AAXX 12124 97980 32460 50000 10262 20222 30061 40068 52020 84842 333 10340 56000 59013 84817
AAXX 12124 96001 01440 80000 10232 20229 39954 40103 57005 60371 76166 85522 333 10292 56200 59001 60367 85617
AAXX 12124 96015 31450 71606 10281 20249 30075 40082 52016 71692 86972 333 10322 56000 57901 59005 82913 84615 80978
AAXX 12124 96033 01440 80406 10274 20245 30083 40088 52011 69951 76162 8492/ 333 10294 56009 57903 59014 81920 84616 86457 80980
AAXX 12124 96075 NIL
AAXX 12124 96087 32459 70306 10266 20233 30060 40093 53008 81578 333 10278 56100 58002 81615 87360
AAXX 12124 96171 32456 73406 10280 20239 30048 40073 53003 85522 333 10306 56000 59014 85613
AAXX 12124 96207 32460 63106 10246 20202 39218 40139 57001 84231 333 10284 56000 57801 84818 80860
AAXX 12124 96525 31458 41304 10280 20254 30064 40072 52021 71321 82931 333 10354 56600 57961 58003 81915 80980
AAXX 12124 96529 01420 82106 10258 20246 30064 40088 52032 60021 76262 8512/ 333 10011 56009 58011 60027 85817 88460
AAXX 12124 96535 11450 82904 10242 20237 30092 40112 52018 60091 76166 8422/ 333 10304 56609 57862 58016 84815 88462 80867
AAXX 12124 96557 32457 63006 10270 20235 30033 40082 52032 84321 333 10328 56400 57941 57841 59004 82912 82813 80980 80857
AAXX 12124 96559 31340 82706 10248 20233 30054 40092 52026 71321 8792/ 333 10332 56609 57962 57864 58000 81915 85809 88462 80972 80849
AAXX 12124 96565 32458 40803 10286 20270 30035 40087 52013 82241 333 10325 56000 59002 82811 84357 80856
AAXX 12124 96595 31458 70000 10284 20258 30032 40083 52020 71322 83976 333 10330 56000 57903 59007 81916 83613 80977
AAXX 12124 96607 11456 73503 10260 20239 30066 40081 52027 60351 72996 84921 333 10352 56000 57970 59004 60357 81914 84813 809//
AAXX 12124 96615 NIL
AAXX 12124 96695 01458 70000 10262 20247 30072 40078 53039 60051 70296 85291 333 10332 56000 57901 59002 60057 81917 85617 80975
AAXX 12124 96737 32456 72405 10276 20240 30047 40078 52020 85221 333 10336 56000 57802 58003 84815 80860
AAXX 12124 96739 01550 80906 10265 20244 30030 40089 52013 72166 8452/ 333 10336 56009 58014 69901 84620 88460
AAXX 12124 96741 32556 71104 10284 20229 30076 40080 52016 83571 333 10328 56000 58000 83622 85460
AAXX 12124 96745 01450 82704 10252 20237 30083 40088 52024 60121 72196 8552/ 333 10334 56009 58003 69997 88459
AAXX 12124 96751 01556 80000 10213 20193 39024 48920 52010 69901 76062 8621/ 333 10260 56409 57842 59009 69907 81820 85620 82460 80880
AAXX 12124 96791 01456 80000 10246 20239 30043 40117 52018 60431 79196 8592/ 333 10334 56009 58012 60357 82915 83615
AAXX 12124 96797 32558 72208 10270 20218 30075 40079 52011 81271 333 10330 56000 57802 59001 81820 84460 80860
AAXX 12124 96837 32556 70000 10281 20237 30075 40079 51010 82231 333 10306 56000 57800 82823
AAXX 12124 96925 32465 70000 10279 20242 30074 40079 51018 82232 333 10319 56600 57860 59001 82817 87080 80860
AAXX 12124 96933 32459 62902 10290 20247 30077 40080 52015 82521 333 10316 56200 58001 82618 85461
AAXX 12124 96937 32958 13305 10291 20252 30071 40076 52015 80030 333 10328 56000 59009 81358
AAXX 12124 96973 32558 43203 10284 20252 30067 40073 52013 82231 333 10328 56000 57803 59007 82820 80850
AAXX 12124 96987 32458 60000 10280 20251 30017 40077 52012 84228 333 10326 56000 57802 82818 82618 80860
BBXX 46036 12121 99484 71339 46/// /2110 10081 40237 57025 22200 00085 10504 70019 333 91212
BBXX 46036 12121 99484 71339 46/// /2110 10081 40237 57025 22200 00085 10504 70019 333 91212
AAXX 12124 88900 46/// /1908 10048 20018 30058 40061 50017 333 10059 20026
BBXX AMOUK03 12124 99537 70003 46/// ///// 10056 20036 39968 4//// 5//// 91150
BBXX AMOUK08 12124 99501 70061 46/// ///// 10114 20057 30061 40069 54002 91150
BBXX 63106 12124 99610 10017 46/// /1909 10059 49841 58013 22200
BBXX 63105 12124 99610 10017 47798 ///// 10065 20023 49840 58013 700// 22200
BBXX 62094 12124 99517 70067 46/// /21// 10102 2//// 40018 58029 22200 00113 10605 70025
BBXX 64049 12123 99571 10022 41597 42530 10080 20080 49908 58101 70211 8/5// 22200 20608 3//// 4//// 5//// 80080
BBXX 44062 12121 99386 70764 46/// /0704 1//// 91220 22200 00088 333 91205
BBXX 44062 12121 99386 70764 46/// /0704 1//// 40332 91210 22200 00088 333 91205
BBXX 44062 12121 99386 70764 46/// /0704 10035 40332 56008 91200 22200 00088 1//00 70001 333 91205
BBXX 44063 12121 99390 70764 46/// /0000 1//// 91220 333 91200
BBXX 44063 12121 99390 70764 46/// /0000 1//// 40357 91210 333 91200
BBXX 44063 12121 99390 70764 46/// /0000 10015 40358 58006 91200 22200 00069 1//00 70001 333 91200
BBXX 44041 12121 99372 70768 46/// /0101 1//// 91220 333 91202
BBXX 44041 12121 99372 70768 46/// /0301 1//// 40363 91210 333 91202
BBXX 44041 12121 99372 70768 46/// /0402 10029 40363 55006 91200 22200 00097 1//00 70001 333 91203
BBXX 44042 12121 99380 70763 46/// /0505 1//// 91220 333 91205
BBXX 44042 12121 99380 70763 46/// /0505 1//// 40349 91210 333 91207
BBXX 44042 12121 99380 70763 46/// /0505 10057 40347 56010 91200 22200 00093 1//00 70001 333 91207
BBXX 44043 12121 99392 70764 46/// /0102 1//// 91220 333 91203
BBXX 44043 12121 99392 70764 46/// /0202 1//// 40348 91210 333 91203
BBXX 44043 12121 99392 70764 46/// /0202 10029 40349 58006 91200 22200 00072 1//00 70001 333 91202
BBXX 41114 12121 99276 70802 46/// ///// 1//// 91216 22200 00240 11105 21004 305// 41102 70024
BBXX 41112 12121 99307 70813 46/// ///// 1//// 91221 22200 00163 10906 20905 309// 41101 70028
BBXX 42361 12121 99276 70925 46/// ///07 10189 20139 40227 53003 91230 555 11059 22063
BBXX 42362 12121 99278 70907 46/// /0507 10189 20156 40244 91230
BBXX 42363 12121 99282 70892 46/// /0709 10200 20156 40244 91230 333 91210
BBXX 42364 12121 99291 70881 46/// /0606 10183 20156 40254 91230
AAXX 12124 82143 31598 70206 10290 20250 40121 7032/ 86210 222// 80260 333 20254 59005
AAXX 12124 83117 31797 11501 10250 20222 40133 51008 7011/ 829// 222// 02190 20101 80230 333 20200
BBXX WDE2719 12123 99607 71514 41/97 82215 11017 2//// 49830 5//// 702// 8//// 222// 01017 2//00 328// 4//01 5//// 6//// 8//// ICE /////
AAXX 12124 83766 32997 00502 10246 20181 39466 40097 5//// 333 20188
AAXX 12124 83836 32497 23205 10233 20181 39146 40105 51019 81260 333 20160
AAXX 12124 83881 32997 02702 10246 20197 39802 40078 51015 333 20170
AAXX 12124 83980 32997 63606 10250 20156 39812 40084 51009 80006 333 20183
AAXX 12124 83997 21497 61404 10216 20192 30070 40113 53013 70196 86800 333 20183 60054
AAXX 12124 82098 32497 40000 10295 20233 30090 40107 82360 333 20239 58002
AAXX 12124 82246 31597 50903 10267 20248 39915 40112 71011 82081 333 20231 58003
AAXX 12124 82445 31597 50902 10284 20240 30068 40120 70511 82102 333 20260 59003
AAXX 12124 82460 32597 60505 10286 20237 30086 40115 86200 333 20250 58006
AAXX 12124 82562 32598 60504 10275 20234 39997 40104 84201 333 20249 58008
AAXX 12124 82571 32497 60506 10273 20224 39935 40108 86200 333 20248 58005
AAXX 12124 82765 21498 83604 10251 20219 39900 40139 70365 8522/ 333 20250 58006 60024
AAXX 12124 82141 32698 50506 10288 20244 30092 40104 84230 333 20264 58001
AAXX 12124 82145 32598 40902 10302 20241 30073 40114 84200 333 20189 59001
AAXX 12124 82181 32996 10512 10268 20216 39982 40121 80001 333 20234 59007
AAXX 12124 82198 32495 40206 10293 20243 30045 40096 84200 333 20241 58003
AAXX 12124 82353 32598 63608 10267 20238 39995 40079 84130 333 20234 58002
AAXX 12124 82361 32497 60204 10274 20238 30082 40119 85530 333 20255 58003
AAXX 12124 82476 32995 50404 10279 20231 39991 40109 82250 333 20249 58008
AAXX 12124 82861 32597 63604 10287 20244 39909 40076 84230 333 20251 58004
AAXX 12124 83264 22697 83202 10249 20229 39679 40144 885// 333 20221 58014 60064
AAXX 12124 83358 22798 60000 10266 20235 39679 40075 84249 333 20224 58011 60044
AAXX 12124 78318 11559 10101 10198 20180 30175 40179 53013 60001 70500 81800 333 10277 20195 32/// 56900 58020 81821
AAXX 12124 78325 11560 30901 10217 20198 30120 40178 51010 60001 70500 83200 333 10269 20212 30/// 55077 56200 58016 83820 555 10901
AAXX 12124 78333 12/10 10301 10202 20195 30158 40165 51008 60001 81102 333 10284 20199 31/// 56909 58008 818//
AAXX 12124 78348 11556 20502 10229 20207 30114 40166 53010 60021 70580 81842 333 10270 20225 31/// 50404 56996 57844 58010 70020 81820 555 29927
AAXX 12124 78349 11556 33201 10196 20187 30060 40170 53009 60001 71000 81201 333 10278 20185 30/// 50104 56909 57885 58006 81820 83070
AAXX 12124 78353 12570 30701 10238 20213 30143 40166 53011 60001 83801 333 10275 20235 31/// 50254 56200 58009 70026 82820 555 10703
AAXX 12124 78360 12/70 50302 10223 20206 30130 40142 51011 60001 81200 333 10308 20218 32/// 56909 58010 70103 818// 840// 92012
AAXX 12124 78369 11568 40304 10255 20209 30129 40138 52009 60001 70500 83201 333 10272 20240 31/// 55059 56109 57866 58009 70059 83820 92043 555 10303
AAXX 12124 63688 32580 5//// 10230 20100 48/// 83963 333 59018 81923 83824
AAXX 12124 63708 32580 32413 10286 20181 48466 83950 333 59008 81927 83828
AAXX 12124 63740 32582 20713 10245 20097 48474 82100 333 58001 82828
AAXX 12124 63820 12580 10913 10320 20217 40069 60011 81901 333 59001 81928
AAXX 12124 63612 NIL
AAXX 12124 63661 NIL
AAXX 12124 63671 NIL
AAXX 12124 63695 NIL
AAXX 12124 63714 NIL
AAXX 12124 63723 NIL
AAXX 12124 63772 NIL
AAXX 12124 63793 NIL
AAXX 12121 20046 41498 81503 11054 21061 39972 40004 57009 70272 885//
AAXX 12121 20069 11435 81610 11047 21075 30038 40051 57018 69932 77173 8452/ 333 11023 84618 91115 92982
AAXX 12121 20087 11897 81607 11079 21089 30108 40119 57019 69942 77173 8807/ 333 11077
AAXX 12121 20292 NIL
AAXX 12121 20353 46/// /2009 11046 21085 39997 40001 57015 333 91112
AAXX 12121 20667 41996 81808 11039 21047 30097 40104 52003 77173 8802/
AAXX 12121 20674 11496 72010 11111 21117 30090 40151 57001 60012 73873 8455/ 333 11102 84617 91116 92980
AAXX 12121 20744 41497 61710 11014 21028 39993 40011 53013 73683 85830
AAXX 12121 20891 32998 20703 11357 21374 30279 40328 57003 82030 333 11325 91103
AAXX 12121 23022 11496 82010 11064 21080 30042 40103 57004 78583 889// 333 91116
AAXX 12121 23032 41496 81807 11062 21074 30104 40135 57008 78583 889// 333 88912
AAXX 12121 23058 42598 71804 11154 21173 30218 40227 52005 85030
AAXX 12121 23242 41997 52108 11156 21175 30198 40215 54000 73632 85030 333 96110
AAXX 12121 23256 42998 52209 11152 21172 30221 40258 52004 85030 333 91012 91113
AAXX 12121 23330 42997 32201 11204 21217 30202 40225 52004 82031 333 93545
AAXX 12121 23445 42997 81505 11114 21258 30246 40273 52001 84031
AAXX 12121 23552 41997 62002 11130 21157 30286 40322 52008 73632 80001
AAXX 12121 23631 42998 62004 11136 21171 30206 40250 57001 80001
AAXX 12121 23662 42998 61901 11099 21116 30313 40359 52012 86030
AAXX 12121 23724 42999 30901 11208 21226 30156 40226 57004 80001
AAXX 12121 23734 42998 21102 11165 21191 30193 40290 58003 82030
AAXX 12121 23849 41242 81602 11158 21177 40371 52004 71022 886// 333 88704
AAXX 12121 23867 41997 81601 11201 21220 30334 40414 52006 77172 86071
AAXX 12121 23933 41396 81603 11182 21199 30274 40335 52001 77172 8571/ 333 85707
AAXX 12121 28064 42998 21402 11180 21199 30217 40316 52003 80001
AAXX 12121 28275 42597 81002 11177 21196 30273 40339 53004 82502
AAXX 12121 28493 42997 00901 11160 21179 30253 40353 54000
AAXX 12121 28698 41996 80902 11189 21208 30176 40345 52010 77177 83032
AAXX 12121 23426 42984 81802 11171 21197 30200 40226 52002 85031
AAXX 12121 23625 42998 21402 11168 21187 30190 40226 54000 82030
AAXX 12121 28076 42997 61001 11178 21190 30255 40334 54000 80001
AAXX 12121 28367 42984 21102 11158 21177 30169 40308 57002 80001
AAXX 12121 28382 42998 01001 11180 21192 30274 40352 54000
AAXX 12121 28481 42997 00000 11180 21192 30236 40344 53001
AAXX 12121 28491 42997 00901 11184 21203 30231 40351 52002
AAXX 12121 28573 42997 00902 11185 21204 30222 40336 53004
AAXX 12121 28593 42997 00701 11181 21193 30241 40347 52005
AAXX 12121 28786 41997 00701 11206 21218 30167 40340 52006 70271
AAXX 12121 28797 41997 00000 11207 21226 30161 40334 53008 70271
AAXX 12121 28799 42997 00702 11195 21214 30178 40337 52014
AAXX 12123 63671 32580 60906 10320 20218 862// 333 86825
AAXX 12123 63723 12682 43606 10332 20204 40072 69901 84200 333 58000 84830
AAXX 12123 63793 32580 50510 10312 20189 40039 85900 333 58002 81922 85823
BBXX 51204 12121 99213 71581 46/// ///// 1//// 91222 22200 00247 10702 20702 326// 41101 70011
BBXX 51202 12121 99214 71577 46/// ///// 1//// 91209 22200 00246 11106 21005 309// 41103 70029
BBXX 46246 12121 99500 71451 46/// ///// 1//// 91229 22200 00075 11511 21006 326// 41509 70056
BBXX 46243 12121 99462 71241 46/// ///// 1//// 91229 22200 00080 11404 20803 326// 41403 70019
BBXX 46229 12121 99438 71246 46/// ///// 1//// 91221 22200 00106 11306 20805 329// 41303 70029
BBXX 46225 12121 99329 71174 46/// ///// 1//// 91214 22200 00157 11502 21001 322// 41502 70009
BBXX 46215 12121 99352 71209 46/// ///// 1//// 91208 22200 00138 11503 21001 326// 41502 70013
BBXX 46224 12121 99332 71175 46/// ///// 1//// 91206 22200 00148 11502 21001 321// 41502 70009
BBXX 44098 12121 99428 70702 46/// ///// 1//// 91207 22200 00094 10503 20503 70013
BBXX 44060 12121 99413 70721 46/// ///04 10033 40363 91230 22200 00107 333 91205 555 11036 22036
BBXX 44022 12121 99409 70737 46/// ///03 10024 21036 40363 91230 22200 00090 333 91204 555 11031 22031
BBXX 44040 12121 99410 70736 46/// /2103 10029 21035 40367 91219 22200 1//00 70000 333 91204 555 11036 22046
BBXX 46238 12121 99334 71195 46/// ///// 1//// 91220 22200 00151 11503 21001 329// 41503 70016
BBXX WDA2768 12124 99417 70874 43/// /2913 00/// 11002 21044 40298 53001 7//// 8//// 22200 0//// 2//// 3//// 4//// 5//// 6//// 81018 ICE /////
BBXX A8JK4 12124 99288 30352 41798 30512 10260 20202 40065 55/// 70211 8204/ 22224 06190 20201 308// 40304 5//// 80220 46379 1473121227
BBXX V7FS3 12123 99281 10502 41/97 /3528 10200 40190 50/// 703// 8/454 22274 00220 2//// 3//// 4//// 5////
BBXX ZSAF 12124 99453 30055 41599 72122 10052 21017 40184 52011 70122 875// 22252 04072 2//// 321// 40612 5////
BBXX A8QL5 12121 99082 50332 41/98 30908 10260 20202 40130 54000 70300 82400 22254 04280 20902 309// 41003 80220
BBXX A8JM6 12124 99123 70258 41397 81006 10256 20198 40129 54000 70222 8/7// 22284 04264 20202 335// 40203 80216
BBXX VQHO7 12124 99081 50340 41598 11018 10280 20229 40120 70200 8111/ 22284 00274 29903 303// 4//05 5//// 80245
BBXX AMOUK17 12124 99327 30573 46/// ///// 10172 20086 30169 40177 57006 91150
BBXX AMOUK15 12124 99136 50083 46/// ///// 10223 20184 30144 40176 52004 91150
BBXX MINFR03 1212/ 99269 30433 46/// ///// 10265 40083 57011
BBXX 52245 12121 99181 11458 46/// ///// 1//// 91205 22200 00282
BBXX 52248 12121 99135 11448 46/// ///// 1//// 91206 22200 00284
BBXX 52246 12121 99152 11457 46/// ///// 1//// 91207 22200 00283
BBXX 52244 12121 99200 11452 46/// ///// 1//// 91207 22200 00271
BBXX UDWE 12121 99443 11370 42698 62815 11062 40163 52067 86200 22253 00035 20807
BBXX UEYO 12121 99472 11443 42/98 /2908 11070 40054 52021 22253 00031 20402
BBXX A8SI9 12123 99435 11469 43498 62720 10010 2102/ 40110 54000 851// 22254 00060 80000
BBXX S6OM 12124 99256 11222 41/97 80524 10195 20153 40237 52032 72565 88/// 22200 00224 20303 305// 40810 5//// 80170
BBXX V7QN8 12123 99188 11203 41297 30333 10270 2027/ 40130 52/// 70322 83498 22213 04270 21207 303// 41207 5//// 6//// 80270 ICE /////
BBXX 52243 12121 99193 11666 46/// ///// 1//// 91155 22200 00266
BBXX SHIP 12124 99450 11735 41698 83332 10090 2007/ 49970 52095 70262 8671/ 22263 00170 29904 330// 4//08 5//// 6//// 80080 ICE /////
BBXX 51170 12121 99168 71695 46/// ///// 1//// 91148 22200 00262
BBXX 51171 12121 99064 71623 46/// ///// 1//// 91146 22200 00279
BBXX 46036 12121 99484 71339 46/// /2110 10081 40237 57025 22200 00085 10504 70019 333 91212
BBXX 44258 12121 99445 70634 46/// /2413 10055 40329 57013 22200 00069 10402 70012 333 91215
BBXX 46146 12121 99493 71237 46/// /3404 10029 40257 57005 22200 00062 10301 70003 333 91205
BBXX 46004 12121 99509 71361 46/// /3406 10070 40186 57005 22200 00080 11109 70043 333 91207
BBXX 46246 12121 99500 71451 46/// ///// 1//// 91159 22200 00075 11512 21006 326// 41510 70060
BBXX 46247 12121 99378 71228 46/// ///// 1//// 91221 22200 00113 11505 20903 329// 41503 70023
BBXX 46232 12121 99325 71174 46/// ///// 1//// 91208 22200 00145 11503 21001 324// 41503 70014
BBXX 44039 12121 99411 70727 46/// /2504 10047 21026 40371 91200 22200 00106 10301 70003 333 91205
BBXX 46092 12121 99368 71220 46/// /1304 10095 40084 91157 22200 00123 555 11036 22041
BBXX 44058 12121 99376 70763 46/// /0607 10064 40339 55007 91200 22200 00101 10301 70007 333 91209
BBXX 44058 12121 99376 70763 46/// /0607 1//// 40337 91210 333 91209
BBXX 44057 12121 99395 70761 46/// /0202 1//// 40359 91210 333 91203
BBXX 44061 12121 99388 70770 46/// /0000 1//// 91220 333 91201
BBXX 44061 12121 99388 70770 46/// /0601 1//// 40351 91210 333 91202
BBXX 44061 12121 99388 70770 46/// /0502 11003 40350 56010 91200 22200 00062 333 91202
BBXX 44058 12121 99376 70763 46/// /0707 1//// 91220 333 91209
BBXX 44059 12121 99368 70763 46/// /0604 1//// 91220 333 91206
BBXX 44057 12121 99395 70761 46/// /0301 11021 40359 56003 91200 22200 00062 333 91202
BBXX 44059 12121 99368 70763 46/// /0604 10063 40327 56007 91200 22200 00106 333 91206
BBXX 44057 12121 99395 70761 46/// /3602 1//// 91220 333 91203
BBXX 44059 12121 99368 70763 46/// /0604 1//// 40328 91210 333 91205
BBXX 44039 12121 99411 70727 46/// /2603 10048 21025 40368 91153 22200 00107 10301 70003 333 91205
BBXX WDD3825 12124 99358 70588 41697 80724 10180 2018/ 40285 52005 780// 8872/ 22264 00220 20206 332// 40707 5//// 6//// 80180 ICE /////
BBXX WKPF 12123 99407 70678 43/98 20000 10060 2002/ 40375 54000 7//// 8/1// 22265 00107 20100 303// 40602 5//// 6//// 80040 ICE /////
BBXX SHIP 12124 99318 71285 41497 63624 10160 20126 40170 56/// 76222 8636/ 22223 00190 20305 30508 40506 50907 6//// 80140 ICE /////
BBXX 46184 12121 99539 71389 46/// /2610 10068 40145 52008 22200 00067 11410 70050 333 91212
BBXX 46181 12121 99538 71288 46/// /0000 10003 40242 57024 22200 00034 10400 70000 333 91200
BBXX 51172 12121 99284 71783 46/// ///// 1//// 91212 22200 00238
BBXX 51176 12121 99278 71758 46/// ///// 1//// 91204 22200 00239
BBXX 51173 12121 99260 71739 46/// ///// 1//// 91211 22200 00243
BBXX 41010 12121 99289 70785 46/// /0713 10226 40222 91220 22200 00241 10908 20706 300// 40906 70042 333 91216 555 11135 22143
BBXX 41009 12121 99285 70802 46/// /0611 10203 20193 40226 91220 22200 00256 11009 20605 300// 41008 70046 333 91214 555 11121 22127
BBXX PHHD 12121 99486 70621 41/96 82512 10000 20000 40241 56031 78672 8//// 22273 04010 2//05 80000
BBXX TBWUK19 12124 99484 71247 41/98 20501 10062 20055 40266 7//// 8//4/ 22223 20201 329// 40803 5//// 80059
BBXX 46132 12121 99497 71279 46/// /3508 10055 40246 57003 22200 00087 11204 70021 333 91209
BBXX 46205 12121 99542 71343 46/// /2505 10064 40152 57007 22200 00078 11008 70041 333 91207
BBXX 46206 12121 99488 71260 46/// /1005 10064 40250 54000 22200 00086 11203 70017 333 91206
BBXX 46208 12121 99525 71327 46/// /1811 10071 40191 5//// 22200 00076 10604 70021 333 91214
BBXX V7DI7 12124 99445 70426 41296 83140 10050 2002/ 40225 52035 71522 882// 22262 0//// 20210 330// 40412 5//// 6//// 80035 ICE /////
BBXX WKAW 12124 99280 70900 41296 80418 10187 2018/ 40222 57008 70311 887// 22254 00220 20504 30699 41506 5//// 6//// 80185 ICE /////
BBXX 46185 12121 99524 71298 46/// /1907 10058 40237 57013 22200 00068 11401 70005 333 91208
BBXX 46087 12121 99485 71247 46/// /0805 10053 21006 40246 91220 22200 00077 333 91207 555 11051 22053 31219 40807 61219 078048 077046 074042 076043 084042 079041
BBXX 46088 12121 99483 71232 46/// /3306 10044 40245 91220 22200 00080 1//00 70002 333 91208 555 11065 22067 31215 43208 61219 327061 328061 332061 332057 333054 326054
BBXX 41036 12121 99342 70770 46/// ///// 10138 20115 40280 91220 22200 00216
BBXX 44060 12121 99413 70721 46/// ///03 10032 40364 91215 22200 00106 333 91205 555 11036 22036
BBXX 44022 12121 99409 70737 46/// ///03 10025 21040 40362 91215 22200 00091 333 91204 555 11031 22031
BBXX 44029 12121 99425 70706 46/30 /2208 10041 40340 52003 91204 22200 00089 10402 70008 333 91210 555 11096 22100
BBXX 44024 12121 99423 70659 46/30 /2308 10068 40355 50000 91204 22200 00089 10502 70008 333 91210 555 11094 22099
BBXX 44030 12121 99432 70704 46/// /2407 1//// 40333 51006 91204 22200 00086 10501 70007 333 91209 555 11091 22097
BBXX 44040 12121 99410 70736 46/// /2103 10029 21035 40367 91215 22200 1//00 70000 333 91204 555 11036 22046
BBXX 44034 12121 99441 70681 46/30 /2411 10071 40317 54000 91204 22200 00089 10604 70022 333 91213 555 11138 22146
BBXX 44033 12121 99441 70690 46/30 /2505 10042 40323 52010 91204 22200 00078 10602 70008 333 91207 555 11064 22066
BBXX 44039 12121 99411 70727 46/// /2504 10047 21026 40371 54000 91200 22200 00106 10301 70003 333 91205
BBXX WNBE 12124 99209 71564 41/// /0527 10230 2//// 40170 54/// 7//22 8//// 222// 0//// 2//// 3//// 4//// 5//// 6//// 8//// ICE /////
BBXX WDB3161 12124 99501 71461 41497 83219 10070 2005/ 40180 54000 70222 887// 22273 00083 20805 330// 41007 5//// 6//// 80060 ICE /////
BBXX ZDLP 12123 99656 50669 41/93 90527 11005 21006 49683 57030 77774 89/// 22213 05001 20405 33600 40702 5//// 81005
BBXX MINUK05 1212/ 99594 70023 46/// ///// 10070 49832 57001
BBXX MINFR05 1212/ 99496 70002 46/// ///// 10095 40120 52014
BBXX MINUK01 1212/ 99602 70012 46/// ///// 10063 49830 57008
BBXX MINUK03 1212/ 99550 70015 46/// ///// 10078 49986 52056
BBXX A8IP9 12123 99370 10175 41597 32312 10200 20185 40220 58/// 70100 81111 22274 00210 20303 80190
BBXX BAREU62 12124 99386 10257 46/// ///// 40229 57031 22254
BBXX VRDF2 12123 99391 70236 41696 72823 10230 20185 40270 54000 7//22 87642 22263 00210 20508 332// 40508 5//// 6//// 80200 ICE /////
BBXX 51179 12121 99143 51708 46/// ///// 1//// 91202 22200 00285
BBXX 51174 12121 99142 51697 46/// ///// 1//// 91155 22200 00284
BBXX 51178 12121 99142 51695 46/// ///// 1//// 91158 22200 00281
BBXX ZMFR 12124 99491 31670 43/// /02// 10115 20110 40096 52002 22241 00105
BBXX SHIP 12124 99121 30839 41498 21212 10282 20232 40065 55007 70381 82240 22233 00294 10803 20201 315// 40603 85246
BBXX FHZI 12124 99429 31473 46/// ///// 10145 20086 30071 40082 52024 22200 85113
BBXX KS044 12124 99208 31498 43/// /3212 10276 40046 22233 06272
BBXX KS098 12124 99444 71241 43/// /0510 10045 40198 22242 06000
BBXX KS094 12124 99137 70602 43/// /1512 10274 40131 22232 06272
AAXX 12124 43497 21474 60508 10280 20249 30053 40070 70282 83970 333 10327 58001 69907 82818 81920 83358
AAXX 12124 42398 31995 00000 10156 20141 40142 71000 333 10242 58002
AAXX 12124 91723 NIL
AAXX 12124 91964 NIL
BBXX DHSI 12124 99052 70040 41697 62105 10320 20253 40115 51005 70311 83455 22200 02300 20501 319// 40802 80270
BBXX MINFR00 1212/ 99429 70390 46/// ///// 10098 40240 52055
BBXX DHSI 12124 99052 70040 41697 62105 10320 20253 40115 51005 70311 83455 22200 02300 20501 319// 40802 80270
BBXX DGPT2 12124 99259 50472 41498 31305 10240 20204 40110 54000 70100 8214/ 22213 00230 20502 80215
BBXX A8NO7 12124 99493 70041 41598 42326 10120 20062 40160 57020 7//11 8/46/ 22215 04143 21010 80090
BBXX A8NO7 12124 99493 70041 41598 42326 10120 20062 40160 57020 7//11 8/46/ 22215 04143 21010 80090
BBXX BATFR19 12124 99007 30088 46/// /1915 10279 20227 40106 58014 22200 00274
BBXX ZCBH7 12124 99007 31074 41/98 /2210 10275 20255 40123 54000 7//// 8/8// 22253 20000 3//// 4//// 5//// 80261
BBXX A8KH9 12124 99025 30077 41497 71516 10265 20230 40090 54000 70322 8673/ 22244 20502 31800 41203 5//// 80240
BBXX 9KWP 12123 99041 30892 41697 52407 10280 20252 40087 53010 70151 83436 22274 2//// 80260
BBXX BATFR56 12124 99054 30791 46/// /2707 10287 20237 40076 55007 22253 00299
BBXX A8RL3 12121 99101 30798 41598 39902 10302 20247 40070 54000 70200 8/1// 22213 20000 316// 4//03 5//// 80263
BBXX BATFR55 12124 99110 30480 44697 31213 10282 20232 40085 70200 8//18 22222 00285 20704 314// 41104 5////
BBXX V2OG2 12123 99110 31024 41598 53207 10290 20256 40104 53016 70211 85832 22223 20402 314// 40403 80265
BBXX SHIP 12124 99137 31087 41498 53004 10280 20253 40090 53006 70122 8429/ 22214 00286 80260
BBXX C6HS4 12124 99216 31007 41598 72732 10240 20211 40120 54000 70222 86392 22233 06240 20502 313// 40403 80220
BBXX MCCN6 12124 99234 31069 41298 81626 10229 20208 40102 53012 70222 887// 22233 00226 20604 316// 40705 5//// 80215
BBXX SHIP 12124 99248 30477 41598 60130 10285 20251 40082 57030 70022 84820 22212 04270 20505 3//// 4//// 5//// 80260
BBXX ONCE 12124 99283 30018 41497 62510 10220 2013/ 40200 5//// 70122 8513/ 22234 00186 2//// 3//// 4//// 5//// 6//// 80165 /////
BBXX 2AKI2 12123 99296 30473 41/97 81240 10200 20167 40135 57008 78186 89/// 22213 00252 20101 312// 40608 5//// 80180
BBXX A8YW2 12124 99346 30244 41497 52618 10235 20180 40095 58010 70300 84244 22224 00170 21402 80200
BBXX PCDE 12123 99399 30840 41498 53511 10167 20125 40183 56005 70300 82151 22223 2//// 324// 41002 80142
BBXX UCKZ 12121 99434 30193 42598 70109 10138 20118 40095 58027 82532 22243 00141 20503 306// 41005
BBXX DBBT 12121 99443 30055 46/// /1916 10057 21004 40181 52009 22252 00087
BBXX BATFR08 12124 99494 30702 46/// /1011 10069 20024 40127 56006 22200 00072
BBXX BATEU00 12124 99495 30159 46/// /1724 10029 20022 40019 53005 22243
BBXX DBLK 12121 99569 30000 41194 83014 11003 21004 40020 57030 71074 886// 22242 05012 20403 329// 40903 ICE 6/4/0
AAXX 12124 13600 11557 80906 10122 20099 30151 40204 57012 60141 78222 883// 333 81926 87633
AAXX 12121 31152 32997 51802 11330 21367 39745 40194 54000 80002 333 11330
AAXX 12121 31163 NIL
AAXX 12121 31285 32999 22301 11247 21294 30090 40176 52005 80001 333 11222
AAXX 12121 31561 32998 02302 11241 21254 30126 40156 52004 333 11166
AAXX 12121 31683 32699 22901 11160 21230 30054 40132 52020 81530 333 11110
AAXX 12121 32010 11495 82904 11155 21168 39983 40034 52004 60030 78582 86907 333 11135 86910 91009 91112
AAXX 12124 71923 16/// ///17 11120 21129 39709 40168 58005 60001 333 11170 21242 70000
AAXX 12124 71963 16/// /2109 11108 21117 39688 40095 58025 60001 333 11127 21164 4/005 70000
AAXX 12124 71592 16/// /1804 11205 21244 30027 40040 55000 60001 333 11180 21213 4/011 70000
AAXX 12124 71049 16/// /0703 11309 30121 40146 56009 60001 333 11284 21347 70000
AAXX 12124 71490 16/// /2308 11209 21226 39789 40118 58016 60001 333 11213 21235 4/009 70000
BBXX 44138 12121 99443 70536 46/// /2909 10025 40345 52020 22200 00087 10905 70027 333 91211
BBXX 44138 12121 99443 70536 46/// /2909 10025 40345 52020 22200 00087 10905 70027 333 91211
AAXX 12124 84036 11560 83602 10104 20102 69924 75022 887// 333 10190 20081 555 10002 30098
AAXX 12124 84076 31460 70000 10116 20107 74042 87600 333 10230 20113 30111 555 30094
AAXX 12124 84008 32457 81414 10224 20204 30125 40135 888// 00161 333 10277 20223 58003 555 30088 40179
AAXX 12124 84088 11103 80000 10086 20085 37069 60074 74042 886// 333 10183 20083 30080 58006 555 10070 30099
AAXX 12124 84270 11550 70000 10127 20111 60014 74125 87800 333 10250 20117 555 10012 30090
AAXX 12124 84140 31570 80000 10236 20210 30036 40121 70542 8651/ 333 10350 20233 58004 555 30085
AAXX 12124 84179 11981 70000 10179 20175 39055 69904 71142 87070 333 10294 20169 58012 555 1 T 30098
AAXX 12124 84202 31670 82302 10238 20200 30160 70542 8751/ 333 10342 20232 58013 555 30079
AAXX 12124 84160 11570 41802 10083 20072 37266 69974 70544 83530 333 10213 20078 59003 555 10007 30092
AAXX 12124 84204 31665 80000 10240 20182 70544 8451/ 333 10249 20235 555 30070
AAXX 12124 84143 11360 70000 10111 20106 37405 69974 72162 81650 333 10218 20101 30064 59004 555 10007 30097
AAXX 12124 84226 12680 40000 10092 20092 60044 82504 333 10166 20048 555 10035 30100
AAXX 12124 84050 11450 80902 10216 20208 69964 74046 886// 333 10330 20214 555 10006 30095
AAXX 12124 84142 11110 80000 10158 20155 60234 75066 887// 333 10220 20154 555 10232 30098
AAXX 12124 84132 11/10 90000 10224 20221 39877 60124 74544 89/// 333 10316 20216 58003 555 10121 30098
AAXX 12124 84105 11230 83604 10214 20211 31001 60044 71655 887// 333 10324 20213 58001 555 10040 30098
AAXX 12124 84072 11258 80000 10110 20098 37299 69974 74044 8661/ 333 10216 20103 58004 555 10007 30092
AAXX 12124 84045 11/00 90000 10080 20080 60134 75042 89/// 333 10159 20057 555 10126 30100
AAXX 12124 84173 31465 60402 10105 20100 74044 83635 333 10212 20101 555 30094
AAXX 12124 84135 32575 60000 10234 20193 30075 84130 333 10356 20214 58000 555 30078
AAXX 12124 84001 31565 71810 10225 20185 30107 40127 70544 87500 333 20221 58005
AAXX 12124 84010 31465 81412 10222 20209 70542 885// 333 20220
AAXX 12124 84018 11458 81803 10225 20222 30116 40123 60044 71544 8557/ 333 20223 58016 555 10042
AAXX 12124 84027 12665 80000 10096 20093 37173 47143 60014 885// 333 20090 58001 555 10010
AAXX 12124 84063 11/01 90000 10222 20219 39749 40085 60064 74744 89/// 333 20210 58008 555 10060
AAXX 12124 84071 11220 80702 10106 20100 37286 47136 69984 74042 885// 333 20105 58006 555 10008
AAXX 12124 84099 11110 70000 10220 20217 3//// 40010 60014 74164 84630 333 20210 5//// 555 10011
AAXX 12124 84117 31760 82008 10230 20185 30105 40128 70544 885// 333 20229 58008
AAXX 12124 84123 11140 70000 10110 20107 37301 47135 60094 74044 86550 333 20103 59001 555 10090
AAXX 12124 84147 11/02 90000 10113 20111 69944 74544 89/// 333 20110 555 10004
AAXX 12124 84163 12970 50107 10186 20169 38942 48488 60074 85030 333 20180 58008 555 10070
AAXX 12124 84176 32570 70000 10106 20096 87200 333 20094
AAXX 12124 84200 31462 52008 10219 20191 70544 81530 333 20217
AAXX 12124 84203 31560 72704 10241 20156 30109 40114 70544 86530 333 20236 58010
AAXX 12124 84217 11210 33402 10183 20180 60224 74064 81639 333 20174 555 10220
AAXX 12124 84239 12465 80000 10131 20129 37547 47147 69934 885// 333 20121 59003 555 10003
AAXX 12124 84252 31565 50204 10244 20214 30115 40123 70544 81530 333 20237 58010
AAXX 12124 84265 12470 80000 10192 20168 38775 4//// 60114 885// 333 20190 58000 555 10110
AAXX 12124 42189 31/94 90000 10186 20145 40161 71042 89/// 333 10202 58026
AAXX 12124 42369 31994 09902 10170 20138 40162 71000 333 10196 58002
BBXX 46004 12121 99509 71361 46/// /3406 10070 40186 57005 22200 00080 11109 70043 333 91207
BBXX 46036 12121 99484 71339 46/// /2110 10081 40237 57025 22200 00085 10504 70019 333 91212
BBXX 46181 12121 99538 71288 46/// /0000 10003 40242 57024 22200 00034 10400 70000 333 91200
BBXX 46183 12121 99536 71311 46/// /1612 10051 40202 57023 22200 00077 10503 70014 333 91214
BBXX 46185 12121 99524 71298 46/// /1907 10058 40237 57013 22200 00068 11401 70005 333 91208
BBXX 46204 12121 99514 71288 46/// /0705 10056 40250 57011 22200 00084 11002 70012 333 91206
BBXX 46205 12121 99542 71343 46/// /2505 10064 40152 57007 22200 00078 11008 70041 333 91207
BBXX 46206 12121 99488 71260 46/// /1005 10064 40250 54000 22200 00086 11203 70017 333 91206
BBXX 46208 12121 99525 71327 46/// /1811 10071 40191 5//// 22200 00076 10604 70021 333 91214
BBXX KS098 12124 99444 71241 43/// /0510 10045 40198 22242 06000
BBXX SHIP 12124 99318 71285 41497 63624 10160 20126 40170 56/// 76222 8636/ 22223 00190 20305 30508 40506 50907 6//// 80140 ICE /////
BBXX TBWUK19 12124 99484 71247 41/98 20501 10062 20055 40266 7//// 8//4/ 22223 20201 329// 40803 5//// 80059
BBXX WDB3161 12124 99501 71461 41497 83219 10070 20050 40180 54000 70222 887// 22273 00083 20805 330// 41007 5//// 6//// 80060 ICE /////
AAXX 12124 65001 31925 70710 10325 20068 3//// 4//// 70522 80008 333 5//// 87280
AAXX 12124 65101 31910 70208 10305 20079 39722 40106 70522 80008 333 58009 87280
AAXX 12124 65108 31914 70205 10298 20066 3//// 4//// 70522 80008 333 5//// 87280
AAXX 12124 65112 31930 70706 10310 20058 3//// 4//// 70522 80008 333 5//// 87280
AAXX 12124 65124 31958 70909 10334 20076 3//// 4//// 70522 80008 333 5//// 87280
AAXX 12124 65203 31935 70000 10306 20181 3//// 4//// 70522 80008 333 5//// 87280
AAXX 12124 65205 31950 72603 10309 20123 3//// 4//// 70522 80008 333 58003 87280
AAXX 12124 65208 31916 70803 10300 20107 39860 40118 70522 80008 333 58007 87280
AAXX 12124 65210 31956 70912 10318 20138 3//// 4//// 70522 80008 333 5//// 87280
AAXX 12124 65213 31415 70000 10318 20174 3//// 4//// 70522 86508 333 5//// 86614
AAXX 12124 65264 31930 51503 10316 20181 30036 40107 70522 80008 333 58001 85280
AAXX 12121 08554 32465 32303 10167 20128 30274 40283 52003 83802 333 81818 83630
AAXX 12124 42667 32996 20505 10206 20086 39553 40145 80001 333 10236 58012 82075
AAXX 12121 98134 11456 80407 10220 20216 39946 40138 5//// 60081 76166 8552/ 333 10226 56199 59005 85618 88456
AAXX 12121 98232 31565 43602 10254 20228 40112 53009 70142 82270 333 10286 56199 58001 82820
AAXX 12121 98325 31458 83404 10282 20261 40085 53001 70242 8457/ 333 10320 56999 59021 84615 88358
AAXX 12121 98328 31459 61402 10192 20174 38521 40092 53008 74044 84201 333 10242 56999 58013 84813 86079
AAXX 12121 98330 31475 20000 10267 20247 30070 40102 53021 70144 81201 333 10319 56999 58005 81818
AAXX 12121 98336 31468 30401 10254 20248 30113 40118 53013 70140 82201 333 10320 56999 58014 82815
AAXX 12121 98431 31458 71801 10262 20240 30042 40089 51012 70342 83230 333 10306 56999 59003 83818 87360
AAXX 12121 98440 11460 71103 10280 20256 30098 40103 53014 69921 72544 84230 333 10308 56299 58008 84815 86358
AAXX 12121 98444 32462 60302 10277 20259 30080 40099 53016 83278 333 10317 56199 58009 83818 84459 85270
AAXX 12121 98526 32570 83202 10261 20257 40099 53025 81208 333 10/// 56999 58011 81820 88274
AAXX 12121 98531 31568 40901 10282 20258 30082 40086 53014 70544 82201 333 10/// 56299 58000 82820 84080
AAXX 12121 98536 31465 20402 10258 20227 39892 40090 53006 70240 82260 333 10292 56199 59001 82818
AAXX 12121 98543 32468 51401 10275 20255 30077 40088 53019 82201 333 10323 56999 59003 82818 84075
AAXX 12121 98550 32460 20201 10272 20245 40096 53015 81202 333 10310 56999 58003 81818
AAXX 12121 98646 32560 23603 10280 20246 30089 40117 52015 81201 333 10315 56999 58002 81820
AAXX 12121 98653 31465 30402 10283 20253 30040 40085 52020 70544 82201 333 10325 56999 59008 82818
AAXX 12121 98747 31460 32301 10260 20238 39885 40090 52023 70544 82270 333 10322 56999 58005 82818
AAXX 12121 98753 11440 80401 10260 20257 40103 53039 60101 76244 8592/ 333 10340 56999 58009 85915 88458
AAXX 12121 98755 32575 30000 10274 20245 40096 52018 83201 333 10313 56299 58000 83820
AAXX 12121 98836 11460 70000 10267 20252 40098 52018 69981 70584 81930 333 10350 56999 58002 81918 87362
AAXX 12124 06610 01550 82311 10056 20033 39572 40160 52/// 60031 76362 8802/ 333 55300 20130 69995 88527 91124 91214
AAXX 12121 11101 11470 81303 10055 20054 39604 40132 50015 69921 72162 886// 333 55300 88719
AAXX 12124 94290 46/// /3319 10291 30050 40059 53015 91224
AAXX 12124 94997 46/// ///// 10035 30024 40039 5////
AAXX 12124 89807 46/// /1905 11011 29075 39682 4//// 5//// 333 90700 91105
AAXX 12124 06670 01459 82413 10066 20040 39616 40127 52/// 60021 76062 885// 333 55300 20122 69955 83616 87621 91125 91214
AAXX 12124 06700 01468 73007 10064 20021 39674 40170 52/// 60091 78182 878// 333 55300 20158 60025 83819 86629 91124 91217
AAXX 12124 94997 46/// ///// 10035 30024 40039 5////
AAXX 12124 89807 46/// /1905 11011 29075 39682 4//// 5//// 333 90700 91105
AAXX 12124 94290 46/// /3319 10291 30050 40059 53015 91224
AAXX 12124 94210 35/// /3010 10285 30061 40066 52018
AAXX 12124 94289 46/// /3515 10290 30049 40056 53012 91215
AAXX 12124 94379 46/// /3521 10268 30030 40039 51007 91226
AAXX 12124 83552 22598 5//// 10309 20254 39931 40102 85030 333 2//// 58007 69984
AAXX 12124 83565 32997 30502 10270 20196 39628 40087 80002 333 20201 58018
AAXX 12124 83623 32996 0//// 1//// 2//// 39591 4//// 53026 333 2////
AAXX 12124 83630 32997 00504 10234 20183 3//// 4//// 52027 333 20177
AAXX 12124 83676 31997 01404 10250 20200 39456 4//// 52016 70500 333 20180
AAXX 12124 83704 32498 33602 10260 20199 39661 40061 53019 83040 333 2////
AAXX 12124 83716 32997 10504 10262 20181 39610 40095 52016 80001 333 20210
AAXX 12124 83726 32997 00502 10237 20179 39166 40121 51020 333 20167
BBXX 44039 12121 99411 70727 46/// /2603 10048 21025 40368 91153 22200 00107 10301 70003 333 91205
BBXX SHIP 12124 99450 11735 41698 83431 10090 20071 49970 52095 70262 8571/ 22263 00170 2//04 330// 4//08 80080
BBXX 3EDA4 12123 99209 11454 41298 80805 10280 20253 40159 55/// 70300 87797 22234 00272 20302 304// 40202 80260
BBXX DGOS 12123 99362 70309 41398 62310 10186 20154 40315 52/// 70322 869// 22224 20303 33416 40201 50302 80166
AAXX 12124 89610 46/// /0410 11040 39562 4//// 5//// 333 90700 91111
AAXX 12124 89610 46/// /0410 11040 39562 4//// 5//// 333 90700 91111
AAXX 12121 55228 32980 02505 11029 21340 36001 57005 333 05101
AAXX 12121 55578 32980 02702 10011 21235 36324 57007 333 05203
AAXX 12121 55664 32980 02008 10044 21271 35968 52010 333 00005 91119 91520
AAXX 12121 55773 32470 21104 11065 21094 35997 52009 82600 333 00000
AAXX 12121 56116 32680 13602 11046 21145 36333 52005 81100 333 00000
AAXX 12121 56137 32980 03601 10015 21185 36787 52017 333 00000
AAXX 12121 56172 32980 00901 11002 21043 37350 52022 333 00201
AAXX 12121 56247 32880 10703 10073 21096 37412 52021 81400 333 00001
AAXX 12121 56312 32980 00000 11006 21074 37073 52008 333 05154
AAXX 12121 56462 32680 22701 10015 21042 37119 52026 82400 333 05101
AAXX 12121 56651 32680 32502 10076 21051 37624 52010 83400 333 05153
AAXX 12121 56691 11359 81101 10011 20002 37783 52016 69901 76000 887// 333 05101 93427
AAXX 12121 56985 32562 11602 10105 20074 38724 40196 52015 81100 333 05203
AAXX 12121 57633 32763 80000 10067 20020 39469 40269 52013 885// 333 05302
AAXX 12121 57902 11450 80701 10048 20045 38665 40251 52012 69901 76000 887// 333 05152
BBXX SHIP 12124 99342 71452 41/// 71617 10160 20144 40287 56018 70302 8//// 91150 22264 00180 2//// 3//// 4//// 5//// 80150
AAXX 12121 55279 32980 02702 11088 21289 35684 52003 333 05201
AAXX 12121 55472 32980 00000 11069 21224 35710 57002 333 05202
AAXX 12121 55696 32980 00708 11002 21099 36310 52007 333 05152
AAXX 12121 56079 32980 02203 11030 21185 36666 52013 333 05103
AAXX 12121 56106 32980 02701 11068 21255 36192 52002 333 05253
AAXX 12121 56257 32980 00402 11038 21185 36264 52012 333 00152
AAXX 12121 56374 32980 02001 11022 21060 37431 52023 333 05103
AAXX 12121 56385 31/01 90000 11058 21058 37003 52007 74940 333 05105
AAXX 12121 56954 32570 70401 10162 20149 40152 52012 8646/ 333 05102
AAXX 12121 56966 32765 72501 10143 20109 40181 52013 87400 333 05300
AAXX 12121 57237 32970 02901 10027 21024 40283 52014
AAXX 12121 57306 32965 50000 10063 20038 40268 52015 85040
AAXX 12121 57604 32866 80702 10086 20020 40257 52014 885//
AAXX 12121 57707 11458 80000 10027 20020 38526 52013 69901 76060 887// 333 05202
AAXX 12121 57832 32668 80000 10078 20021 39501 40255 52006 885// 333 05302
AAXX 12124 89610 46/// /0410 11040 39562 4//// 5//// 333 90700 91111
BBXX 44056 12121 99362 70757 46/// ///// 1//// 91150 22200 00116 10503 20503 70014
BBXX 7JJA 12124 99018 11212 41696 80335 00 10240 20226 40115 52 78122 888// 9//// 22212 0 20308 301 40409 5 6//// 80230 IC E/////
BBXX 7JJA 12124 99018 11212 41696 80335 00 10240 20226 40115 52 78122 888// 9//// 22212 0 20308 301 40409 5 6//// 80230 IC E/////
AAXX 1212/ 48969 NIL
AAXX 1212/ 48962 NIL
AAXX 1212/ 48990 NIL
AAXX 1212/ 48986 NIL
AAXX 1212/ 48995 NIL
AAXX 1212/ 48967 NIL
AAXX 1212/ 48992 NIL
AAXX 1212/ 48965 NIL
AAXX 1212/ 48985 NIL
AAXX 1212/ 48970 NIL
AAXX 1212/ 48991 NIL
AAXX 1212/ 48964 NIL
AAXX 1212/ 48997 NIL
AAXX 1212/ 48968 NIL
AAXX 1212/ 48973 NIL
AAXX 1212/ 48966 NIL
AAXX 1212/ 48983 NIL
AAXX 1212/ 48972 NIL
AAXX 1212/ 48998 NIL
AAXX 1212/ 48993 NIL
AAXX 1212/ 48971 NIL
AAXX 1212/ 48963 NIL
AAXX 1212/ 48987 NIL
AAXX 12121 08554 32465 32303 10167 20128 30274 40283 52003 83802 333 81818 83630 555 50004 60005
AAXX 12121 40009 32965 40000 10127 20035 40227 57019 80001 333 84070
AAXX 12121 40016 32970 32702 10100 20044 40278 56013 80001 333 83070
AAXX 12121 40022 32965 53002 10156 20071 40235 56018 80002 222// 20000 333 85070
AAXX 12121 40030 32970 40000 10123 20048 40245 57023 84050 333 84360
AAXX 12121 40039 32970 30000 10108 20029 40251 56009 80001 333 83070
AAXX 12121 40066 32970 41201 10164 20023 40230 57015 80001 333 84070
AAXX 12121 40072 32970 00000 10138 20006 40262 56018
AAXX 12121 40083 32970 03401 10112 21035 48529 57009
AAXX 12124 71268 12466 82310 10035 20010 39844 40253 51005 60001 886// 333 10020 20000 70000
AAXX 12124 71277 46/// /1610 11131 21142 6///1 333 11040 21150 7////
AAXX 12124 71406 16/// /2718 11087 21121 30224 40234 58008 60001 333 11081 21119 70000
AAXX 12124 71418 46/// /2015 11005 21052 30243 40276 58012 6///1 333 11006 21036 7////
AAXX 12124 71048 17/// /0203 11080 21091 69941 7//4/ 333 11004 21080 7////
AAXX 12124 71354 16/// /1705 11068 21076 60001 333 11019 21113 70000
AAXX 12124 71981 17/// /1602 11081 21090 69941 7//4/ 333 11020 21084 70054
AAXX 12124 71982 16/// /2102 11073 21081 60001 333 11020 21074 7////
AAXX 12124 71986 17/// /0404 11083 21092 69951 7//4/ 333 11014 21085 7////
AAXX 12124 71990 17/// /2318 11074 21082 38361 49967 58035 60031 7//4/ 333 11130 21194 4/079 55/// 00000 70032 555 10010
AAXX 12121 11934 11365 81302 10012 20005 39321 42758 56027 69941 76062 885// 333 81706 88626
AAXX 12124 68727 36/// /1709 10266 20034 39064 48468 57018 333 10267 20126 91016 555 91009
AAXX 12124 41184 32960 03407 10257 20162 40145 333 59004
AAXX 12124 41194 11559 23307 10252 20165 30152 40157 60001 70600 82100 333 59008 82830
AAXX 12124 41196 31660 33310 10245 20169 30120 40159 70600 83500 333 59007 83640
AAXX 12124 41198 32960 30507 10254 20149 40154 80001 333 58001 83070
AAXX 12124 41217 32660 42912 10232 20156 30128 40157 84500 333 59010 84630
AAXX 12124 41218 31958 23108 10253 20113 39849 40151 70600 80001 333 59006 82075
AAXX 12124 40401 31959 02805 10225 21050 39488 40168 70600 333 59001
AAXX 12124 82392 32499 62701 10280 20192 30003 40105 83430 333 20218 58000
AAXX 12124 83811 32997 03602 10246 20168 39216 40098 53018 333 20168
AAXX 12124 83844 32597 132// 10240 20189 30103 40110 51010 81100 333 20201
AAXX 12124 83887 32597 23210 10226 20164 39067 40097 52017 81160 333 20149
AAXX 12124 83907 32997 00503 10274 20176 39815 40088 53015 333 20195
AAXX 12124 83914 31996 03604 10250 20170 39331 40079 52020 70500 333 20165
AAXX 12124 83919 32497 33203 10198 20159 38947 40116 52018 83200 333 20148
AAXX 12124 83927 32997 00902 10236 20191 30016 40086 52004 333 20190
AAXX 12124 83936 32997 00903 10258 20204 39979 40098 51004 333 20170
AAXX 12124 83948 31496 10506 10235 20207 30079 40085 50005 71011 81100 333 20199
AAXX 12124 83964 32997 20000 10241 20162 39614 40095 52006 80002 333 20149
AAXX 12124 83995 32597 53602 10230 20205 30084 40087 54000 83201 333 20184
BBXX 42360 12121 99267 70905 46/// /0109 10214 91200 22200 00243 10703 70016 333 91211
AAXX 12124 83437 21596 63603 10218 20199 39392 40109 74065 867// 333 20189 58012 60204
AAXX 12124 83579 32599 63603 10222 20186 38998 40103 86700 333 20180 58016
AAXX 12124 83592 21596 82301 10202 20195 39443 40125 71565 885// 333 20184 58023 60074
AAXX 12124 83840 32870 13407 10222 20149 39107 48510 51013 81040 333 20163
AAXX 12124 83384 22597 40000 10258 20220 39530 40103 84200 333 20214 58006 60084
AAXX 12124 83386 21398 70506 10245 20219 39573 40101 70282 8674/ 333 20208 58017 60054
AAXX 12124 83388 21497 73603 10228 20207 39419 40085 70262 8427/ 333 20203 58012 60224
AAXX 12124 83393 21599 80505 10218 20206 39403 40125 76062 8672/ 333 20200 58016 60234
AAXX 12124 83442 21597 70000 10250 20225 39752 40095 70162 878// 333 20213 58010 60194
AAXX 12124 83479 21598 72308 10232 20198 39318 40111 70341 875// 333 20190 58018 69964
AAXX 12124 83483 21598 30501 10230 20205 39543 40109 70265 82112 333 20187 58015 60324
AAXX 12124 83531 32597 83604 10216 20193 39907 40103 885// 333 20163 58018
AAXX 12124 83538 21497 63603 10201 20156 38700 40083 70252 85430 333 20192 58019 60094
AAXX 12124 83574 32994 00000 10282 20194 39577 40176 5//// 333 20200
AAXX 12124 83582 32597 50503 10222 20199 39368 40132 52012 85200 333 20182
AAXX 12124 83595 21597 81402 10230 20203 30092 40177 70366 855// 333 20198 58050 60014
AAXX 12124 83687 32698 80906 10220 20180 39093 40088 53010 887// 333 20163
AAXX 12124 83692 32697 80906 10186 20166 39080 40115 53005 882// 333 20160
AAXX 12124 83270 22797 70000 10238 20221 39650 40133 83530 333 20203 58017 60024
AAXX 12124 83309 21795 60000 10260 20239 39775 40094 71000 864// 333 20228 58015 60034
AAXX 12124 83319 22697 80000 10244 20236 39765 40137 8372/ 333 20220 58013 60134
AAXX 12124 83405 32995 0//// 10288 20248 39927 40058 333 20248 59004
AAXX 12124 83925 32999 50710 10230 20195 40100 52024 7012/ 85040 222// 20501 80206 333 20204
BBXX 41053 12121 99185 70661 46/// /1902 10251 40129 91230 333 91203
BBXX 41053 12121 99185 70661 46/// /1902 10251 40128 91220 333 91203
BBXX 41053 12121 99185 70661 46/// /2002 10250 40127 91210 333 91204
AAXX 12121 45032 36/// /9901 10107 20066 30189 40206 54000
AAXX 12121 45035 36/// /0202 10154 20042 30164 40206 52001
AAXX 12121 45039 36/// /0002 10149 20043 30187 40203 52001
AAXX 12121 45044 36/// /0005 10148 20039 30104 40198 52001
AAXX 12121 45032 36/// /9901 10107 20066 30189 40206 54000
AAXX 12121 45035 36/// /0202 10154 20042 30164 40206 52001
AAXX 12121 45039 36/// /0002 10149 20043 30187 40203 52001
AAXX 12121 45044 36/// /0005 10148 20039 30104 40198 52001
BBXX DHSI 12124 99052 70040 41697 62105 10320 20253 40115 51005 70311 83455 22200 02300 20501 319// 40802 80270
BBXX AUTV 12124 99184 10704 41698 50515 10300 20201 40093 55002 70010 84001 22233 44190 1326121221
BBXX 3EDA4 12123 99209 11454 41298 80805 10280 20253 40159 55/// 70300 87797 22234 00272 20302 304// 40202 80260
BBXX SHIP 12124 99450 11735 41698 83431 10090 20071 49970 52095 70262 8571/ 22263 00170 2//04 330// 4//08 80080
BBXX WDC6698 12124 99089 71472 41598 80707 10250 2024/ 40102 57013 70282 889// 22261 00269 20201 312// 40603 5//// 6//// 80244 ICE /////
BBXX 7JJA 12124 99018 11212 41696 80335 00 10240 20226 40115 52 78122 888// 9//// 22212 0 20308 301 40409 5 6//// 80230 IC E/////
BBXX KS044 12124 99208 31498 43/// /3212 10276 40046 22233 06272
BBXX DGPT2 12124 99259 50472 41498 31305 10240 20204 40110 54000 70100 8214/ 22213 00230 20502 80215
BBXX A8JC5 12124 99406 70683 41598 11503 10100 20026 40350 54000 70200 81445 2226/ 04126 299// 3//// 4//// 5//// 80065
BBXX 44056 12121 99362 70757 46/// ///// 1//// 91150 22200 00116 10503 20503 70014
BBXX 44138 12121 99443 70536 46/// /2909 10025 40345 52020 22200 00087 10905 70027 333 91211
BBXX MINFR00 1212/ 99429 70390 46/// ///// 10098 40240 52055
BBXX KS094 12124 99137 70602 43/// /1512 10274 40131 22232 06272
BBXX KS098 12124 99444 71241 43/// /0510 10045 40198 22242 06000
BBXX 46215 12121 99352 71209 46/// ///// 1//// 91208 22200 00138 11503 21001 326// 41502 70013
BBXX 46238 12121 99334 71195 46/// ///// 1//// 91220 22200 00151 11503 21001 329// 41503 70016
BBXX 46229 12121 99438 71246 46/// ///// 1//// 91221 22200 00106 11306 20805 329// 41303 70029
BBXX 46224 12121 99332 71175 46/// ///// 1//// 91206 22200 00148 11502 21001 321// 41502 70009
BBXX 46246 12121 99500 71451 46/// ///// 1//// 91229 22200 00075 11511 21006 326// 41509 70056
BBXX 46225 12121 99329 71174 46/// ///// 1//// 91214 22200 00157 11502 21001 322// 41502 70009
BBXX 46243 12121 99462 71241 46/// ///// 1//// 91229 22200 00080 11404 20803 326// 41403 70019
BBXX 44040 12121 99410 70736 46/// /2103 10029 21035 40367 91219 22200 1//00 70000 333 91204 555 11036 22046
BBXX 44098 12121 99428 70702 46/// ///// 1//// 91207 22200 00094 10503 20503 70013
BBXX 44060 12121 99413 70721 46/// ///04 10033 40363 91230 22200 00107 333 91205 555 11036 22036
BBXX 44022 12121 99409 70737 46/// ///03 10024 21036 40363 91230 22200 00090 333 91204 555 11031 22031
BBXX WDE2719 12123 99607 71514 41/97 82215 11017 2//// 49830 5//// 702// 8//// 222// 01017 2//00 328// 4//01 5//// 6//// 8//// ICE /////
BBXX 42361 12121 99276 70925 46/// ///07 10189 20139 40227 53003 91230 555 11059 22063
BBXX 41114 12121 99276 70802 46/// ///// 1//// 91216 22200 00240 11105 21004 305// 41102 70024
BBXX 42363 12121 99282 70892 46/// /0709 10200 20156 40244 91230 333 91210
BBXX 42364 12121 99291 70881 46/// /0606 10183 20156 40254 91230
BBXX 41112 12121 99307 70813 46/// ///// 1//// 91221 22200 00163 10906 20905 309// 41101 70028
BBXX 42362 12121 99278 70907 46/// /0507 10189 20156 40244 91230
BBXX 44043 12121 99392 70764 46/// /0202 10029 40349 58006 91200 22200 00072 1//00 70001 333 91202
BBXX 44043 12121 99392 70764 46/// /0202 1//// 40348 91210 333 91203
BBXX 44063 12121 99390 70764 46/// /0000 1//// 91220 333 91200
BBXX 44042 12121 99380 70763 46/// /0505 10057 40347 56010 91200 22200 00093 1//00 70001 333 91207
BBXX 44043 12121 99392 70764 46/// /0102 1//// 91220 333 91203
BBXX 44042 12121 99380 70763 46/// /0505 1//// 40349 91210 333 91207
BBXX 44062 12121 99386 70764 46/// /0704 10035 40332 56008 91200 22200 00088 1//00 70001 333 91205
BBXX 44041 12121 99372 70768 46/// /0402 10029 40363 55006 91200 22200 00097 1//00 70001 333 91203
BBXX 44042 12121 99380 70763 46/// /0505 1//// 91220 333 91205
BBXX 44063 12121 99390 70764 46/// /0000 1//// 40357 91210 333 91200
BBXX 44041 12121 99372 70768 46/// /0301 1//// 40363 91210 333 91202
BBXX 44041 12121 99372 70768 46/// /0101 1//// 91220 333 91202
BBXX 44062 12121 99386 70764 46/// /0704 1//// 40332 91210 22200 00088 333 91205
BBXX 44063 12121 99390 70764 46/// /0000 10015 40358 58006 91200 22200 00069 1//00 70001 333 91200
BBXX 44062 12121 99386 70764 46/// /0704 1//// 91220 22200 00088 333 91205
BBXX DGOS 12123 99362 70309 41398 62310 10186 20154 40315 52/// 70322 869// 22224 20303 33416 40201 50302 80166
BBXX A8NO7 12124 99493 70041 41598 42326 10120 20062 40160 57020 7//11 8/46/ 22215 04143 21010 80090
BBXX 64049 12123 99571 10022 41597 42530 10080 20080 49908 58101 70211 8/5// 22200 20608 3//// 4//// 5//// 80080
AAXX 12124 78767 11563 82704 10211 20198 30120 40122 50003 60042 750// 87520 333 10276 20208 32/// 56000 58010 70210 87620
BBXX A8SI9 12123 99435 11469 43498 62720 10010 21020 40110 54000 851// 22254 00060 80000
BBXX UDWE 12121 99443 11370 42698 62815 11062 40163 52067 86200 22253 00035 20807
BBXX UEYO 12121 99472 11443 42/98 /2908 11070 40054 52021 22253 00031 20402
AAXX 12124 78767 11563 82704 10211 20198 30120 40122 50003 60042 750// 87520 333 10276 20208 32/// 56000 58010 70210 87620
AAXX 12121 47008 32970 03205 10006 21200 30217 40273 52022 333 10062
AAXX 12121 47014 32950 00000 11111 21184 39867 40293 53021 333 10001
AAXX 12121 47016 12970 00000 11107 21170 39407 40308 52020 69902 333 11025
AAXX 12121 47020 32965 00000 11063 21099 39920 40315 52014 333 10011
AAXX 12121 47025 32961 02902 10001 21146 30237 40267 52014 333 10084
AAXX 12121 47035 32970 01801 11010 21050 30303 40312 52010 333 10041
AAXX 12121 47041 32970 03203 10012 21136 30240 40268 52020 333 10079
AAXX 12121 47055 32970 03203 10020 21102 30234 40280 52018 333 10073
AAXX 12121 47058 32960 03202 11014 21081 30259 40308 52014 333 10039
AAXX 12121 47069 32965 00000 10002 21015 30187 40289 52006 333 10068
AAXX 12121 47003 32980 03205 11016 21130 30267 40271 52019 333 10021
AAXX 12121 47005 12980 02301 11157 21185 38634 52011 69912 333 11085
AAXX 12121 47022 32975 03402 11110 21194 38876 52017 333 11034
AAXX 12121 47028 32965 00000 11048 21133 30201 40300 52013 333 10031
AAXX 12121 47031 32970 03201 11121 21163 38978 52020 333 11050
AAXX 12121 47037 32970 00000 11042 21118 30148 40276 58026 333 10035
AAXX 12121 47039 32960 00000 11043 21113 30106 40305 52020 333 10042
AAXX 12121 47046 32969 03603 10029 21107 30235 40258 52017 333 10076
AAXX 12121 47050 32965 00000 11017 21086 30254 40287 52010 333 10047
AAXX 12121 47052 32965 00000 11044 21071 39951 40304 52022 333 10018
AAXX 12121 47060 32960 03402 10000 21061 30241 40301 52010 333 10053
AAXX 12121 47061 32980 00000 10019 21058 30204 40248 54000 333 10107
AAXX 12121 47065 32970 00000 11016 21076 30237 40305 52012 333 10050
AAXX 12121 47067 32965 03204 11010 21089 30181 40306 52013 333 10045
AAXX 12121 47068 32970 00000 11005 21074 30255 40291 52011 333 10053
AAXX 12121 47070 32970 02904 10008 21073 30200 40290 52008 333 10064
AAXX 12121 47075 32980 00000 11035 21105 39768 40211 52005 333 10044
AAXX 12124 47407 11/40 82814 11040 21079 39951 40129 53006 60032 78582 883// 333 11015
AAXX 12124 08495 12682 32714 10163 20096 30265 40273 50002 60001 81501 91150 333 81630 83075
BBXX ZCBV9 12123 99182 11191 41497 80526 10248 20237 40128 52002 70222 887// 22212 // 20706 336// 41104 5//// 80240
BBXX PCPR 12123 99365 10161 41398 22316 10191 20153 40205 57025 70122 8/5// 22263 04183 20300 323// 40401 80167
BBXX ZNQO3 12123 99166 10398 41397 61803 10310 20223 40131 57022 70111 84245 22274 04295 20201 332// 40602 5//// 80250
BBXX A8HD5 12121 99265 10527 41996 02710 10220 20144 40180 54000 70011 80000 22273 04200 20501 327// 40502 5//// 80175
BBXX DDBR2 12124 99348 10358 41999 63211 10162 20067 40250 57020 70311 80006 22200 02190 20301 300// 40000 5//// 80115
BBXX DDDO2 12124 99248 10356 41997 83314 10258 20167 40165 57015 70222 80007 22233 00250 20202 30000 80198
BBXX TBWUK17 12123 99011 11052 41397 83414 10271 20242 40127 57010 70222 86/// 22233 04270 20203 334// 40505 5//// 80251
AAXX 12121 11934 11365 81302 10012 20005 39321 42758 56027 69941 76062 885// 333 81706 88626
AAXX 12124 16344 12670 32705 10078 20005 38340 48520 50005 60001 83030 333 55310 83340 95000 95100
BBXX A8ZS7 12124 99170 30665 41698 31004 10280 20237 40105 51030 70300 82560 22254 04260 20501 314// 40501 80250
BBXX ELWO6 12123 99124 30000 41398 61410 10258 20221 40150 54000 70322 84678 22274 00219 20802 316// 41203 80232
BBXX A8SG4 12124 99264 51550 41698 60912 10240 20196 40140 58010 70211 85468 22214 04250 80210
BBXX A8TG2 12123 99236 71125 41/// /2208 10210 20122 40110 50000 7//22 22234 00170 21202 33030 41804 51802 80160
BBXX V7DG6 12124 99267 70150 41598 40519 10210 20188 40250 56010 703// 8347/ 22254 04220 20804 80195
AAXX 12121 08561 11365 42905 10154 20109 30040 40273 50006 69901 70281 83201 333 91108 555 59934 60007
BBXX BATFR41 12124 99437 10073 46/// ///// 10147 20084 40117 22231
BBXX DRMX 12123 99437 10081 41598 32420 10145 20132 40117 56018 70181 8/800 22251 02172 20403 322// 40503 5//// 80138
BBXX 61001 12124 99434 10078 46/// /2424 10151 20103 40120 57016 22200 00155 10502 70009 555 1/033
BBXX 61002 12124 99421 10047 46/// ///30 10140 2//// 40190 52004 22200 00154 10503 70016 555 1/041
BBXX BAREU62 12124 99386 10257 46/// ///// 40229 57031 22254
BBXX DPUW 12124 99374 10031 41598 62917 10185 20118 40250 54000 70322 85577 22224 00190 20303 30000 4//// 5//// 80145
BBXX NWS0020 12124 99371 10237 43/// /2216 10172 20139 40225 5//// 7//// 8//// 222// 04191 2//// 3//// 4//// 5//// 6//// 8//// /////
BBXX A8IP9 12123 99370 10175 41597 32312 10200 20185 40220 58/// 70100 81111 22274 00210 20303 80190
BBXX DDZA2 12124 99368 10016 41498 52821 10170 20119 40235 51015 7//22 85468 22263 04180 20304 80140
BBXX BATFR01 12124 99363 10204 46/// /2217 10195 20125 40235 58007 22222 00190
BBXX DCPX2 12123 99335 10252 41597 72507 10210 20147 40250 54000 70200 865// 22225 04200 20400 30000 80170
BBXX BAREU63 12124 99317 10290 46/// /3412 10179 29064 40244 57023 22233
AAXX 1212/ 89327 46/// ///// 11040 39549 4//// 5//// 91230
AAXX 1212/ 89828 46/// ///// 11321 36421 4//// 5//// 91230
AAXX 1212/ 89108 46/// ///// 11294 36884 4//// 5//// 91230
AAXX 1212/ 89879 46/// ///// 11018 39735 4//// 5//// 91230
AAXX 1212/ 89879 46/// ///// 11020 39735 4//// 5//// 91240
AAXX 1212/ 89872 46/// ///// 11076 39802 4//// 5//// 91230
AAXX 1212/ 89869 46/// ///// 11029 39789 4//// 5//// 91230
AAXX 1212/ 89866 46/// ///// 11048 39736 4//// 5//// 91230
AAXX 1212/ 89329 46/// ///// 11134 38681 4//// 5//// 91230
AAXX 1212/ 89868 46/// ///// 11055 39795 4//// 5//// 91230
AAXX 1212/ 89332 46/// ///// 11085 39193 4//// 5//// 91230
AAXX 1212/ 89769 46/// ///// 11054 39818 4//// 5//// 91220
AAXX 1212/ 89769 46/// ///// 11058 39819 4//// 5//// 91230
AAXX 1212/ 89314 46/// ///// 11169 38146 4//// 5//// 91220
AAXX 12124 89667 46/// /0704 11078 29086 39849 4//// 5//// 91230
AAXX 12124 89667 46/// /0605 11078 39849 4//// 5//// 91220
AAXX 12124 89667 46/// /0706 11079 39849 4//// 5//// 91210
AAXX 12124 89528 46/// /3521 4//// 5////
AAXX 12124 71848 16/// ///// 11092 21103 60001 333 11023 21095 70045
AAXX 12124 71495 17/// /2206 11116 21125 69941 7//4/ 333 11029 21127 70032
AAXX 12124 71912 11974 02106 11241 21279 30091 40205 51010 69901 70277 333 11151 21248 47011 79999 90963
AAXX 12124 71565 16/// /1406 11099 21105 60001 333 11023 21117 4/001 70010
AAXX 12124 71566 16/// /1903 11109 21113 60001 333 11032 21112 70000
AAXX 12124 71567 16/// /1604 11098 21106 60001 333 11011 21099 70000
AAXX 12124 71793 16/// ///// 11073 21087 60001 333 11032 21075 70000
AAXX 12124 71013 16/// ///// 11069 21078 60001 333 11025 21069 70000
AAXX 12124 71060 16/// /2704 11162 21168 38665 40287 58003 60001 333 11032 21181 4/016 70000
AAXX 12124 71974 46/// /0000 11336 21365 39981 40025 58008 6///1 333 11237 21353 7////
AAXX 12124 71073 16/// /1801 11093 21101 60001 333 11030 21101 70040
AAXX 12124 71912 11974 02106 11241 21279 30091 40205 51010 69901 70277 333 11151 21248 47011 79999 90963
BBXX 46241 12121 99330 71173 46/// ///// 1//// 91211 22200 00149 11502 20501 326// 41502 70008
BBXX 44100 12121 99363 70756 46/// ///// 1//// 91222 22200 00138 10503 20503 70014
BBXX 46236 12121 99368 71219 46/// ///// 1//// 91220 22200 00125 11503 21001 327// 41503 70015
BBXX 46216 12121 99343 71198 46/// ///// 1//// 91157 22200 00143 11502 21001 327// 41502 70008
BBXX 46223 12121 99335 71178 46/// ///// 1//// 91230 22200 00155 11502 21001 324// 41502 70009
BBXX 46231 12121 99327 71174 46/// ///// 1//// 91224 22200 00156 11702 20901 326// 41702 70011
BBXX 46222 12121 99336 71183 46/// ///// 1//// 91226 22200 00154 11702 21001 325// 41701 70008
BBXX 46219 12121 99332 71199 46/// ///// 1//// 91228 22200 00136 11504 21001 330// 41504 70021
BBXX 46242 12121 99332 71174 46/// ///// 1//// 91228 22200 00147 11501 21001 324// 41501 70007
BBXX A80K4 12123 99144 10555 41598 40322 10280 20224 40030 56010 70222 83187 22264 00/// 20504 303// 40504 80240
BBXX 9VDD2 12124 99524 11752 41/96 60337 10030 20010 49890 57/// 77022 86/// 22254 00/// 20116 80020
BBXX S6JT 12124 99498 11630 41/98 /2620 11020 21038 49935 58005 70211 8//// 22214 04030 2//// 81025
BBXX A8CG7 12120 99079 31201 41398 12305 10282 20200 40060 54000 71300 81600 22264 04300 20101 80225
BBXX 9VDD3 12124 99485 11609 41/97 /2522 11010 21010 49955 56010 70377 8//// 22214 00050 20106 32626 40105 5//// 81010
BBXX DQVN 12123 99221 11142 41/97 60308 10180 20053 40180 54000 70222 8//// 22200 00203 2//// 80113
BBXX DGXS 12124 99160 11128 41/98 83011 10232 20222 40142 53017 76166 880// 22244 00250 20705 304// 41007 80225
BBXX VRAR7 12123 99307 11668 41/98 /3616 10200 20153 40170 54000 70006 8//// 22264 00215 2//// 80170
BBXX NLPAH 12123 99061 31147 41597 33203 10285 20222 40075 50/// 70300 8/8// 22224 04300 20202 80240
BBXX A8IQ2 12120 99033 11005 41/98 40902 10280 20280 40095 52005 70200 8415/ 22273 00/// 20301 80280
BBXX A80K4 12123 99144 10555 41598 40322 10280 20224 40030 56010 70222 83187 22264 00/// 20504 303// 40504 80240
BBXX 9VDD2 12124 99524 11752 41/96 60337 10030 20010 49890 57/// 77022 86/// 22254 00/// 20116 80020
BBXX S6JT 12124 99498 11630 41/98 /2620 11020 21038 49935 58005 70211 8//// 22214 04030 2//// 81025
BBXX A8CG7 12120 99079 31201 41398 12305 10282 20200 40060 54000 71300 81600 22264 04300 20101 80225
BBXX 9VDD3 12124 99485 11609 41/97 /2522 11010 21010 49955 56010 70377 8//// 22214 00050 20106 32626 40105 5//// 81010
BBXX DQVN 12123 99221 11142 41/97 60308 10180 20053 40180 54000 70222 8//// 22200 00203 2//// 80113
BBXX DGXS 12124 99160 11128 41/98 83011 10232 20222 40142 53017 76166 880// 22244 00250 20705 304// 41007 80225
BBXX VRAR7 12123 99307 11668 41/98 /3616 10200 20153 40170 54000 70006 8//// 22264 00215 2//// 80170
BBXX NLPAH 12123 99061 31147 41597 33203 10285 20222 40075 50/// 70300 8/8// 22224 04300 20202 80240
BBXX A8IQ2 12120 99033 11005 41/98 40902 10280 20280 40095 52005 70200 8415/ 22273 00/// 20301 80280
AAXX 12124 68296 32575 33404 10390 20100 39724 48516 57022 83500 333 10423 20190 91008 555 91003
AAXX 12124 97380 32558 40000 10288 20245 30057 40077 50023 82101 333 10334 56000 59001 82820
AAXX 12124 96509 31457 11004 10280 20252 30060 40071 52020 71310 81901 333 10312 56000 57903 58002 81815 80975
BBXX 44099 12121 99369 70757 46/// ///// 1//// 91222 22200 00129 10402 20402 70012
BBXX 41052 12121 99183 70648 46/// /0402 10270 40124 91230 333 91203
BBXX 41052 12121 99183 70648 46/// /0102 10265 40123 91220 333 91203
BBXX 41052 12121 99183 70648 46/// /0102 10266 40122 91210 333 91203
BBXX 42085 12121 99179 70665 46/// /0404 10260 40127 91230 333 91205
BBXX 42085 12121 99179 70665 46/// /0404 10260 40125 91220 333 91204
BBXX 42085 12121 99179 70665 46/// /0403 10261 40125 91210 333 91204
BBXX 44039 12121 99411 70727 46/// /2603 10048 21025 40368 91230 22200 00107 10301 70003 333 91205
AAXX 12123 63661 32580 73607 10234 20118 48493 8696/ 333 58000 81923 86624
BBXX AMOUK05 12124 99537 70003 46/// ///// 10052 20027 39965 40007 52017 91150
BBXX PJGO 12124 99571 10022 47598 /2515 10075 20034 49922 53003 700// 22200
BBXX 63106 12124 99610 10017 46/// /1909 10059 49841 58013 22200
BBXX 63113 12124 99610 10017 46/// /1909 10062 20021 49840 57015 22200 11006 70031
BBXX 62107 12124 99501 70061 46/// /2229 10106 20042 40067 58023 22200 00120 11311 70055 333 90710 91137
BBXX 62094 12124 99517 70067 46/// /2124 10102 20039 40018 58029 22200 00113 10605 70024 333 90710 91133
BBXX 46239 12121 99363 71221 46/// ///// 1//// 91221 22200 00128 11404 21001 330// 41403 70018
BBXX 46214 12121 99379 71235 46/// ///// 1//// 91227 22200 00111 11006 21005 331// 41104 70031
BBXX 46221 12121 99339 71186 46/// ///// 1//// 91215 22200 00149 11502 21001 323// 41502 70009
AAXX 12124 89807 46/// /2007 11010 29076 39682 4//// 5//// 91230 333 90700 91110
AAXX 12124 89614 46/// /0301 11045 29078 38894 4//// 5//// 91230 333 90700 91103
AAXX 12124 93196 NIL
AAXX 12124 93334 NIL
AAXX 12124 93339 NIL
AAXX 12124 89614 46/// /0301 11045 29078 38894 4//// 5//// 91230 333 90700 91103
AAXX 12124 89807 46/// /2007 11010 29076 39682 4//// 5//// 91230 333 90700 91110
BBXX 9VDD2 12124 99524 11752 41/96 60337 10030 20010 49890 57/// 77022 86/// 22254 00/// 20116 80020
BBXX 9VDD3 12124 99485 11609 41/97 /2522 11010 21010 49955 56010 70377 8//// 22214 00050 20106 32626 40105 5//// 81010
BBXX S6JT 12124 99498 11630 41/98 /2620 11020 21038 49935 58005 70211 8//// 22214 04030 2//// 81025
BBXX SHIP 12124 99450 11735 41698 83332 10090 20070 49970 52095 70262 8671/ 22263 00170 29904 330// 4//08 5//// 6//// 80080 ICE /////
BBXX VRAR7 12123 99307 11668 41/98 /3616 10200 20153 40170 54000 70006 8//// 22264 00215 2//// 80170
AAXX 12124 63714 32980 736004 10240 20097 48473 872// 333 59013 87825
AAXX 12121 40001 32970 00304 10124 20015 40233 57013
AAXX 12121 40007 32960 52302 10111 20041 40252 56016 80002 333 85070
AAXX 12121 40025 32960 52502 10168 20047 40241 57018 80002 333 85070
AAXX 12121 40045 32970 43505 10138 20016 40262 57024 80002 333 84070
AAXX 12121 40061 32970 30000 10110 20005 40250 57019 80002 333 83070
AAXX 12121 40080 32970 41301 10138 21015 39517 40243 57025 80001 333 84070
AAXX 12121 40087 NIL
AAXX 12121 40095 NIL
AAXX 12121 40009 32965 40000 10127 20035 40227 57019 80001 333 84070
AAXX 12121 40016 32970 32702 10100 20044 40278 56013 80001 333 83070
AAXX 12121 40022 32965
AAXX 12121 40001 32970 00304 10124 20015 40233 57013
AAXX 12121 40007 32960 52302 10111 20041 40252 56016 80002 333 85070
AAXX 12121 40025 32960 52502 10168 20047 40241 57018 80002 333 85070
AAXX 12121 40045 32970 43505 10138 20016 40262 57024 80002 333 84070
AAXX 12121 40061 32970 30000 10110 20005 40250 57019 80002 333 83070
AAXX 12121 40080 32970 41301 10138 21015 39517 40243 57025 80001 333 84070
AAXX 12121 40087 NIL
AAXX 12121 40095 NIL
AAXX 12121 40009 32965 40000 10127 20035 40227 57019 80001 333 84070
AAXX 12121 40016 32970 32702 10100 20044 40278 56013 80001 333 83070
AAXX 12121 40022 32965 53002 10156 20071 40235 56018 80002 222// 20000 333 85070
AAXX 12121 40030 32970 40000 10123 20048 40245 57023 84050 333 84360
AAXX 12121 40039 32970 30000 10108 20029 40251 56009 80001 333 83070
AAXX 12121 40066 32970 41201 10164 20023 40230 57015 80001 333 84070
AAXX 12121 40072 32970 00000 10138 20006 40262 56018
AAXX 12121 40083 32970 03401 10112 21035 48529 57009
AAXX 12124 89646 46/// ///07 11201 29087 4//// 5////
AAXX 12124 89648 46/// /2104 11272 29071 37109 4//// 5////
AAXX 12124 89659 46/// /27// 11186 29061 37622 4//// 5////
AAXX 12124 89661 46/// ///// 29078 4//// 5////
AAXX 12124 89662 42980 32604 11025 21066 39738 49842 57001 80006 222 ICE 98015
AAXX 12124 89666 46/// ///// 11043 29082 39663 4//// 5////
BBXX MINUK04 1212/ 99555 10084 46/// ///// 10058 4//// 57046
AAXX 12124 71789 17/// ///// 11089 21095 60011 7//4/ 333 11018 21114 70045
AAXX 12124 71794 16/// ///// 11113 21125 60001 333 11021 21125 70000
AAXX 12124 71795 47/// ///// 11068 21073 6///1 7//4/ 333 11016 21068 7////
AAXX 12124 71796 16/// ///// 11086 21099 60001 333 11010 21091 70000
AAXX 12124 71817 12974 02614 11180 21253 30184 40198 52013 60001 333 42010 70000
AAXX 12124 71841 16/// /0301 11080 21088 39849 40261 53022 60001 333 11033 21146 4/010 70000
AAXX 12124 71433 46/// /2809 10035 20010 39992 40224 51010 6///1 333 10054 20034 7////
AAXX 12124 71102 16/// ///// 11133 21148 60001 333 11028 21153 70000
AAXX 12124 71105 17/// ///// 11075 21084 60011 7//4/ 333 11017 21080 70044
AAXX 12124 71006 16/// /1704 11063 21075 60001 333 11021 21067 70000
AAXX 12124 71007 16/// ///// 11089 21101 60001 333 11020 21091 70042
AAXX 12124 71008 16/// /2702 11089 21096 60001 333 11012 21099 70040
AAXX 12124 71009 17/// /1101 11161 21175 69941 7//4/ 333 11018 21161 70029
AAXX 12124 71012 16/// /2203 11110 21122 60001 333 11023 21126 70000
AAXX 12124 71035 17/// ///// 11171 21186 69941 7//4/ 333 11009 21171 70031
AAXX 12124 71502 16/// /0603 11149 21158 39866 49882 57019 60001 333 11095 21183 7////
AAXX 12124 71509 17/// /3502 11077 21078 69941 7//4/ 333 11016 21085 70040
AAXX 12124 71517 17/// /3503 11086 21091 69991 7//4/ 333 10001 21097 70048
AAXX 12124 71518 17/// /0203 11078 21081 69941 7//4/ 333 11015 21080 7////
AAXX 12124 71519 17/// /3603 11065 21066 60011 7//4/ 333 11009 21065 70024
AAXX 12124 71528 17/// /3404 11081 21084 69941 7//4/ 333 11010 21084 70039
AAXX 12124 71051 17/// ///// 11060 21067 60011 7//4/ 333 11010 21061 70021
AAXX 12124 71057 16/// ///// 11089 21099 60001 333 11018 21105 70044
AAXX 12124 71070 17/// ///// 11064 21068 60021 7//4/ 333 11013 21064 7////
AAXX 12124 71089 16/// ///// 11142 21155 60001 333 11010 21182 70000
AAXX 12124 71399 16/// ///// 11075 21088 60001 333 11028 21075 70000
AAXX 12124 71409 17/// ///// 11069 21076 60011 7//4/ 333 11015 21069 70023
AAXX 12124 71433 46/// /2809 10035 20010 39992 40224 51010 6///1 333 10054 20034 7////
AAXX 12124 71817 12974 02614 11180 21253 30184 40198 52013 60001 333 42010 70000
AAXX 12124 71841 16/// /0301 11080 21088 39849 40261 53022 60001 333 11033 21146 4/010 70000
AAXX 12121 10361 12775 81905 10072 20036 39932 40035 58011 60001 8257/ 333 31/// 55300 20309 30308 82650 88460
AAXX 12124 63612 32680 40912 10332 20116 40071 81201 333 59002 81832 84080
AAXX 12124 63695 32580 73003 10211 20156 8326/ 333 83824 87359
AAXX 12124 63772 12580 70911 10304 20246 69901 84960 333 81925 84826
AAXX 12124 91772 NIL
AAXX 12124 91776 NIL
AAXX 12124 91779 31498 40000 10236 20221 40123 58005 60001 70291 82201 333 10300 569/9 82817 83079
AAXX 12124 91784 31498 60604 10250 20235 40116 58004 60001 70222 867// 333 10280 561// 83815 86635
AAXX 12124 91792 31498 40000 10223 20214 40125 58007 60001 70222 84200 333 10300 569// 84814
BBXX VQGQ4 12124 99049 31535 41299 53610 10281 20238 40071 50000 70211 83792 22284 00302 20101 30000 80251
BBXX VQGQ4 12124 99049 31535 41299 53610 10281 20238 40071 50000 70211 83792 22284 00302 20101 30000 80251
AAXX 12124 68029 41560 70106 10256 20203 48482 57023 70262 85370
AAXX 12124 68030 41560 70305 10226 20207 48479 57021 72162 84570
AAXX 12124 91693 11599 30000 10244 2023/ 40109 50003 60001 70100 83100 333 10309 569// 83825
BBXX A80K4 12123 99144 10555 41598 40322 10280 20224 40030 56010 70222 83187 22264 00/// 20504 303// 40504 80240
BBXX V7DG6 12124 99267 70150 41598 40519 10210 20188 40250 56010 703// 8347/ 22254 04220 20804 80195
BBXX ELWO6 12123 99124 30000 41398 61410 10258 20221 40150 54000 70322 84678 22274 00219 20802 316// 41203 80232
BBXX A8ZS7 12124 99170 30665 41698 31004 10280 20237 40105 51030 70300 82560 22254 04260 20501 314// 40501 80250
BBXX DDDO2 12124 99248 10356 41997 83314 10258 20167 40165 57015 70222 80007 22233 00250 20202 30000 80198
BBXX ZNQO3 12123 99166 10398 41397 61803 10310 20223 40131 57022 70111 84245 22274 04295 20201 332// 40602 5//// 80250
BBXX A8HD5 12121 99265 10527 41996 02710 10220 20144 40180 54000 70011 80000 22273 04200 20501 327// 40502 5//// 80175
BBXX SHIP 12124 99331 11692 41598 53118 10180 20112 40199 52010 70122 85/// 22225 00219 2//// 3//// 4//// 80140
BBXX SHIP 12121 99094 11105 41/97 80113 10270 20250 40104 54005 70082 88/// 22213 00247 2//// 3//// 4//// 80255
BBXX DGXS 12124 99160 11128 41/98 83011 10232 20222 40142 53017 76166 880// 22244 00250 20705 304// 41007 80225
BBXX SHIP 12123 99307 11668 41/98 /3616 10200 20153 40170 54000 70006 8//// 22264 00215 2//// 80170
BBXX DQVN 12123 99221 11142 41/97 60308 10180 20053 40180 54000 70222 8//// 22200 00203 2//// 80113
BBXX 9VDD3 12124 99485 11609 41/97 /2522 11010 21010 49955 56010 70377 8//// 22214 00050 20106 32626 40105 5//// 81010
BBXX S6JT 12124 99498 11630 41/98 /2620 11020 21038 49935 58005 70211 8//// 22214 04030 2//// 81025
BBXX 9VDD2 12124 99524 11752 41/96 60337 10030 20010 49890 57/// 77022 86/// 22254 00/// 20116 80020
BBXX ZCBV9 12123 99182 11191 41497 80526 10248 20237 40128 52002 70222 887// 22212 // 20706 336// 41104 5//// 80240
BBXX 46214 12121 99379 71235 46/// ///// 1//// 91227 22200 00111 11006 21005 331// 41104 70031
BBXX 46221 12121 99339 71186 46/// ///// 1//// 91215 22200 00149 11502 21001 323// 41502 70009
BBXX 46239 12121 99363 71221 46/// ///// 1//// 91221 22200 00128 11404 21001 330// 41403 70018
BBXX 42085 12121 99179 70665 46/// /0404 10260 40127 91230 333 91205
BBXX 42085 12121 99179 70665 46/// /0404 10260 40125 91220 333 91204
BBXX 44039 12121 99411 70727 46/// /2603 10048 21025 40368 91230 22200 00107 10301 70003 333 91205
BBXX 41052 12121 99183 70648 46/// /0102 10265 40123 91220 333 91203
BBXX 42085 12121 99179 70665 46/// /0403 10261 40125 91210 333 91204
BBXX 41052 12121 99183 70648 46/// /0102 10266 40122 91210 333 91203
BBXX 44099 12121 99369 70757 46/// ///// 1//// 91222 22200 00129 10402 20402 70012
BBXX 41052 12121 99183 70648 46/// /0402 10270 40124 91230 333 91203
BBXX 46223 12121 99335 71178 46/// ///// 1//// 91230 22200 00155 11502 21001 324// 41502 70009
BBXX 46219 12121 99332 71199 46/// ///// 1//// 91228 22200 00136 11504 21001 330// 41504 70021
BBXX 46231 12121 99327 71174 46/// ///// 1//// 91224 22200 00156 11702 20901 326// 41702 70011
BBXX 46222 12121 99336 71183 46/// ///// 1//// 91226 22200 00154 11702 21001 325// 41701 70008
BBXX 46242 12121 99332 71174 46/// ///// 1//// 91228 22200 00147 11501 21001 324// 41501 70007
BBXX 46216 12121 99343 71198 46/// ///// 1//// 91157 22200 00143 11502 21001 327// 41502 70008
BBXX 46236 12121 99368 71219 46/// ///// 1//// 91220 22200 00125 11503 21001 327// 41503 70015
BBXX 44100 12121 99363 70756 46/// ///// 1//// 91222 22200 00138 10503 20503 70014
BBXX 46241 12121 99330 71173 46/// ///// 1//// 91211 22200 00149 11502 20501 326// 41502 70008
BBXX A8TG2 12123 99236 71125 41/// /2208 10210 20122 40110 50000 7//22 22234 00170 21202 33030 41804 51802 80160
BBXX WKWB 12124 99325 71205 41398 62212 10117 2009/ 40089 57010 76022 86240 22200 00156 20100 332// 41704 80107
BBXX 41053 12121 99185 70661 46/// /1902 10251 40129 91230 333 91203
BBXX 41053 12121 99185 70661 46/// /2002 10250 40127 91210 333 91204
BBXX 41053 12121 99185 70661 46/// /1902 10251 40128 91220 333 91203
BBXX 42360 12121 99267 70905 46/// /0109 10214 91200 22200 00243 10703 70016 333 91211
BBXX VQGQ4 12124 99049 31535 41299 53610 10281 20238 40071 50000 70211 83792 22284 00302 20101 30000 80251
BBXX A8IQ2 12120 99033 11005 41/98 40902 10280 20280 40095 52005 70200 8415/ 22273 00/// 20301 80280
BBXX NLPAH 12123 99061 31147 41597 33203 10285 20222 40075 50/// 70300 8/8// 22224 04300 20202 80240
BBXX A8CG7 12120 99079 31201 41398 12305 10282 20200 40060 54000 71300 81600 22264 04300 20101 80225
BBXX A8SG4 12124 99264 51550 41698 60912 10240 20196 40140 58010 70211 85468 22214 04250 80210
BBXX TBWUK17 12123 99011 11052 41397 83414 10271 20242 40127 57010 70222 86/// 22233 04270 20203 334// 40505 5//// 80251
BBXX MINUK04 1212/ 99555 10084 46/// ///// 10058 4//// 57046
BBXX DDBR2 12124 99348 10358 41999 63211 10162 20067 40250 57020 70311 80006 22200 02190 20301 300// 40000 5//// 80115
BBXX PCPR 12123 99365 10161 41398 22316 10191 20153 40205 57025 70122 8/5// 22263 04183 20300 323// 40401 80167
AAXX 12124 65019 31918 00910 10256 20013 39429 40130 70522 8//// 333 58016 8//// 65030 31907 40818 10245 20030 39389 40116 70644 80008 333 59001 87280
AAXX 12124 65123 31956 70413 10320 20058 30088 40106 70522 80008 333 58009 87280
AAXX 12124 65125 31940 71505 10336 20016 30731 40135 70522 80008 333 58005 87280
AAXX 12124 65134 31956 61224 10235 20010 38724 4//// 70522 80008 333 58008 86280
AAXX 12124 65232 31925 /0305 10316 20095 39736 40107 70522 8//// 333 58017 8//// 65236 41958 70905 10325 20125 3//// 4//// 70522 80008 333 5//// 87280
AAXX 12124 65250 31916 70505 10311 20136 30061 40094 70522 80008 333 58004 87280
AAXX 12124 65252 31928 70514 10307 20104 39964 40097 70522 80008 333 58011 87280
AAXX 12124 65271 11914 50908 10312 20076 30015 40113 70522 80008 333 58011 87280
AAXX 12124 87467 11970 21611 10192 20104 30024 40157 50015 60064 70190 80005 333 10219 20144 56007 82270
AAXX 12124 71249 16/// /1806 11100 21107 60001 333 11008 21104 70005
AAXX 12124 71055 46/// /0404 11197 21215 39555 49887 58045 6///1 333 11094 21198 7////
AAXX 12124 71065 16/// ///// 11097 21114 60001 333 11014 21167 70000
AAXX 12124 71520 16/// /1407 11124 21135 39522 40217 53017 60001 333 11141 21163 70000
AAXX 12124 71521 16/// ///// 11124 21144 60001 333 11123 21146 70000
AAXX 12124 71522 46/// /0000 11058 21072 39730 40231 53014 6///1 333 21112 70000
AAXX 12124 71523 17/// ///// 11005 21007 39827 40209 53018 69961 7//4/ 333 11048 21092 70006
AAXX 12124 71540 16/// /1304 11103 21111 60001 333 11017 21103 70000
AAXX 12124 71544 16/// ///// 11068 21081 60001 333 11021 21086 70000
AAXX 12124 71548 16/// ///// 11087 21099 60001 333 11004 21100 70000
AAXX 12124 71346 17/// /3502 11073 21078 60011 7//4/ 333 11015 21080 7////
AAXX 12124 71857 16/// ///// 11101 21113 60001 333 11018 21106 70000
AAXX 12124 71360 16/// ///// 11137 21151 60001 333 11022 21152 70000
AAXX 12124 71380 16/// /1903 11110 21114 60001 333 11008 21117 70000
AAXX 12124 71383 16/// ///// 11111 21132 39596 40223 53018 60001 333 11096 21121 7////
AAXX 12124 71791 16/// /1406 11125 21137 60001 333 11027 21144 70000
AAXX 12124 71797 16/// ///// 11104 21112 60001 333 11025 21132 7////
AAXX 12124 71674 16/// ///// 11063 21078 60001 333 11023 21068 70000
AAXX 12124 71481 16/// /3401 11141 21155 60001 333 11027 21142 70000
AAXX 12124 71498 16/// /1603 11088 21092 60001 333 11017 21098 70055
AAXX 12124 71413 16/// ///// 11069 21080 60001 333 11031 21073 70000
AAXX 12124 71414 16/// ///// 11087 21097 60001 333 10001 21094 70000
AAXX 12124 71440 16/// ///// 11082 21085 60001 333 11008 21104 70038
AAXX 12124 71014 16/// /1506 11095 21105 60001 333 11016 21095 70000
AAXX 12124 64820 32460 62808 10302 20244 30096 40105 82102 333 58007 82813 86070
BBXX MINFR09 1212/ 99359 31192 46/// ///// 40162 57001
AAXX 1212/ 89327 46/// ///// 11040 39549 4//// 5//// 91220
AAXX 1212/ 89108 46/// ///// 11296 36884 4//// 5//// 91220
AAXX 1212/ 89869 46/// ///// 11025 39789 4//// 5//// 91220
AAXX 1212/ 89329 46/// ///// 11135 38681 4//// 5//// 91220
AAXX 1212/ 89799 46/// ///// 11228 4//// 5//// 91230
AAXX 12124 62002 32960 52715 10165 20133 39499 48558 58008 80004 333 85070
AAXX 12124 62007 32960 42409 10205 20060 40219 52002 80008 333 84270
AAXX 12124 62010 32960 62509 10222 20029 40226 57001 82036 333 82363 86870
AAXX 12124 62012 32860 71905 10222 20055 30188 40218 58020 81070 333 81358 87170
AAXX 12124 62016 32962 62011 10196 20011 40250 58020 82039 333 82362 84170
AAXX 12124 62124 32960 23206 10166 20002 39735 40243 57013 80004 333 82070
AAXX 12124 62161 32970 30905 10185 20092 40250 56020 83030 333 83356
AAXX 12124 62259 32970 01210 10180 20058 40273 58011
AAXX 12124 62271 32970 00710 10174 20016 40273 58019
AAXX 12124 89667 46/// /0805 11079 39849 4//// 5//// 91240
AAXX 1212/ 89327 46/// ///// 11040 39580 4//// 5//// 91240
AAXX 1212/ 89828 46/// ///// 11326 36421 4//// 5//// 91240
AAXX 1212/ 89872 46/// ///// 11068 39802 4//// 5//// 91240
AAXX 1212/ 89866 46/// ///// 11046 39736 4//// 5//// 91240
AAXX 1212/ 89329 46/// ///// 11136 38682 4//// 5//// 91240
AAXX 1212/ 89799 46/// ///// 11231 4//// 5//// 91240
AAXX 1212/ 89332 46/// ///// 11084 39194 4//// 5//// 91240
BBXX PCGM 12123 99020 50413 41398 40915 10270 20248 40107 7//// 831// 22264 20301 80254
BBXX A8CJ2 12124 99339 50728 41297 52137 10160 20144 40150 52015 70222 83610 22244 04180 21002 320// 41206 5//// 80150
BBXX DFRZ 12123 99221 70511 41298 40923 10260 20202 40195 52010 70511 82768 22254 20503 313// 41006 80220
AAXX 12124 63980 41465 73313 10278 20245 40078 78082 85932 333 58009 81914 85815 87074 943// 91125
AAXX 12124 67243 32580 62708 10348 20215 40/// 84332 333 5//// 94330
AAXX 12124 67280 31565 6//// 10351 20226 40050 71792 84330 333 59005 94330
AAXX 12124 67291 32580 4//// 10394 20196 3//// 48/// 83801 333 5//// 94380
AAXX 12124 67327 32580 51406 10354 20192 40070 57026 85200 333 94320
AAXX 12124 67331 32570 60000 10376 20221 40025 57026 84340 333 94330
AAXX 12123 63674 32570 70910 10300 20181 39016 48481 86704 333 59005 85826 83078 555 10221
AAXX 12123 63630 32580 63604 10300 20147 83266 333 83825 86280 555 10202
AAXX 12123 63682 32584 51807 10272 20180 85900 333 85826 81927 555 10210
AAXX 12123 63658 32580 40703 10300 20162 38838 48476 83905 333 59005 83820 81923 84280 555 10210
AAXX 12123 63702 11565 70512 10262 20163 69911 70162 82938 333 82822 81925 86363 555 10197
AAXX 12123 63674 32570 70910 10300 20181 39016 48481 86704 333 59005 85826 83078 555 10221
AAXX 12123 63630 32580 63604 10300 20147 83266 333 83825 86280 555 10202
AAXX 12123 63682 32584 51807 10272 20180 85900 333 85826 81927 555 10210
AAXX 12123 63658 32580 40703 10300 20162 38838 48476 83905 333 59005 83820 81923 84280 555 10210
AAXX 12123 63702 11565 70512 10262 20163 69911 70162 82938 333 82822 81925 86363 555 10197
AAXX 12123 63674 32570 70910 10300 20181 39016 48481 86704 333 59005 85826 83078 555 10221
AAXX 12123 63630 32580 63604 10300 20147 83266 333 83825 86280 555 10202
AAXX 12123 63682 32584 51807 10272 20180 85900 333 85826 81927 555 10210
AAXX 12123 63658 32580 40703 10300 20162 38838 48476 83905 333 59005 83820 81923 84280 555 10210
AAXX 12123 63702 11565 70512 10262 20163 69911 70162 82938 333 82822 81925 86363 555 10197
AAXX 12121 58968 11557 80904 10174 20157 30201 40209 50004 69902 71052 885//
AAXX 12121 58974 11260 80511 10181 20141 30095 40220 52008 60032 70262 886//
AAXX 12121 59358 11620 80102 10185 20168 30152 40184 51017 69952 76062 887//
AAXX 12121 59559 11560 80202 10202 20181 30141 40169 51009 60142 72162 8322/
AAXX 12121 59997 12460 60902 10268 20252 30062 40074 52018 60032 83820
AAXX 12121 59158 32962 83302 10184 20144 30071 40172 51010 8805/
AAXX 12121 59567 11250 80108 10189 20189 39781 40160 51017 60212 76162 885//
AAXX 12124 71612 16/// /2004 10008 21070 30217 40309 51009 60001 333 10012 21015 70000
AAXX 12124 91844 46/// /0000 10239 40126 22200 00275
AAXX 12121 10836 01460 82507 10048 20042 39232 40098 53006 69971 76364 888// 333 31/// 4/998 55300 20139 30139 69977 83810 88618 91113 96447
BBXX JPAT 12124 99121 30839 41498 21212 10282 20232 40065 55007 70381 82240 22233 00294 10803 20201 315// 40603 85246
BBXX ELWO6 12123 99124 30000 41398 61410 10258 20221 40150 54000 70322 84678 22274 00219 20802 316// 41203 80232
BBXX A8ZS7 12124 99170 30665 41698 31004 10280 20237 40105 51030 70300 82560 22254 04260 20501 314// 40501 80250
BBXX MINFR03 1212/ 99269 30433 46/// ///// 10265 40083 57011
BBXX A8JK4 12124 99288 30352 41798 30512 10260 20202 40065 55/// 70211 8204/ 22224 06190 20201 308// 40304 5//// 80220 46379 1473121227
BBXX AMOUK17 12124 99327 30573 46/// ///// 10172 20086 30169 40177 57006 91150
BBXX ZSAF 12124 99453 30055 41599 72122 10052 21017 40184 52011 70122 875// 22252 04072 2//// 321// 40612 5////
BBXX BATFR04 12124 99596 70101 46/// /2319 10059 20010 49814 22272 00099
BBXX MINUK05 1212/ 99594 70023 46/// ///// 10070 49832 57001
BBXX 64045 12124 99591 70117 46/// /2312 10066 20004 49822 58013 22200 00102 11012 70060
BBXX 62112 12124 99584 70002 47598 /2521 10066 20019 49885 50008 700// 22200
BBXX 62113 12124 99584 10002 47598 /2423 10068 20021 49890 51010 700// 22200
BBXX 62129 12124 99584 10003 46/// ///// 10067 20023 49892 51009 22200
BBXX 62114 12124 99583 10000 46/// /2425 10066 20019 49882 50006 22200
BBXX AMOUK27 12124 99581 70058 46/// ///// 1//// 2//// 39854 49856 52007 91150
BBXX PJAI 12124 99581 70014 47598 /2421 10077 20015 49886 50004 700// 22200
BBXX 62111 12124 99580 70003 46/// /2723 10066 20009 49907 50008 22200 10605 70025
BBXX 62117 12124 99579 10000 47598 /2521 10077 20026 49895 51007 700// 22200 10605 70025
BBXX BATUK01 12124 99578 70066 44596 62606 10067 20005 49875 53002 72022 8623/ 22232 00114 20404
BBXX AMOUK19 12124 99571 70021 46/// ///// 10056 2//// 39907 49910 52006 91150
BBXX AMOUK21 12124 99565 70068 46/// ///// 10075 20016 39911 4//// 5//// 91150
BBXX 62105 12124 99554 70122 46/// /1528 10076 20045 49812 58095 22200 00108 11011 70055 333 90710 91145
BBXX MINUK03 1212/ 99550 70015 46/// ///// 10078 49986 52056
BBXX AMOUK03 12124 99537 70003 46/// ///// 10056 20036 39968 4//// 5//// 91150
BBXX AMOUK14 12124 99535 70030 46/// ///// 10073 20029 39976 40012 52011 91150
BBXX AMOUK02 12124 99533 70062 46/// ///// 10067 20016 39953 4//// 5//// 91150
BBXX BATEU02 12124 99532 70095 46/// /1625 10062 20034 49920 58066 22200 00100
BBXX 62095 12124 99530 70159 46/// /2427 10117 20075 49800 57021 22200 00116 10811 70057 333 90710 91142
BBXX 62301 12124 99524 70047 46/// /2317 10090 20039 40018 58014 22200 00106 10605 70023
BBXX BAREU04 12124 99520 70062 46/// ///// 40015 57028 22224
BBXX 62094 12124 99517 70067 46/// /21// 10102 2//// 40018 58029 22200 00113 10605 70025
BBXX 62303 12124 99516 70051 46/// /2219 10099 20032 40040 58012 22200 00116 10606 70031
BBXX 62023 12123 99514 70079 46/96 /1938 10083 2//// 40006 5//// 22200 10706 70031 333 91147 555 70050 81013
BBXX MCZN2 12124 99511 70062 41297 82037 10105 20085 40046 56010 70222 887// 22243 04120 20103 32000 40106 50000 80095
BBXX 62081 12124 99510 70134 46/// ///// 10131 20109 49900 56050 22200 00119 11014 70070
BBXX AMOUK06 12124 99509 70014 46/// ///// 10097 20045 30056 40079 52012 91150
BBXX AMOUK10 12124 99508 70011 46/// ///// 10100 20040 30083 40090 5//// 91150
BBXX BATFR02 12124 99506 70009 46/// /2636 10099 20022 40078 58018 22284 00119
BBXX 62305 12124 99504 10000 46/98 /2725 10102 20036 40099 51009 22200 00126 10703 70015 333 90710 91131
BBXX BATFR42 12124 99502 70027 46/// /2420 10102 20054 40094 58020 22224 00134
BBXX AMOUK08 12124 99501 70061 46/// ///// 10114 20057 30061 40069 54002 91150
BBXX 62103 12124 99499 70029 46/99 /2626 10101 20042 40098 51010 22200 00128 10906 70029 333 90710 91138
BBXX BATFR62 12124 99497 70017 46/// /2626 10109 20040 40106 50011 22262 00139
BBXX MINFR05 1212/ 99496 70002 46/// ///// 10095 40120 52014
BBXX BATFR27 12124 99495 70022 46/// /2527 10127 20055 40109 22285 00132
BBXX A8NO7 12124 99493 70041 41598 42326 10120 20062 40160 57020 7//11 8/46/ 22215 04143 21010 80090
BBXX 62027 12124 99491 70022 46/// /2719 1//// 2//// 40130 52015 22200 00123 12006 302// 70029
BBXX 62442 12124 99490 70164 46/// /2427 1//// 2//// 49962 58011 22200 00130 333 90710 91136
BBXX 62029 12124 99487 70125 46/// /2232 10129 20119 49992 56058 22200 00136 10914 70071 333 90710 91145
BBXX BATFR60 12124 99483 70056 46/// /2227 10114 20059 40111 58009 22233 00124
BBXX 62163 12124 99475 70084 46/// /2224 10121 20075 40112 58032 22200 00133 11012 70060 333 90710 91132
BBXX DGNB 12123 99472 70119 41497 72431 10155 20071 40210 54000 70222 8776/ 22254 00163 22108 333// 42112 80110
BBXX VRBI2 12124 99467 70072 41297 52325 10140 20056 40154 70311 85772 22214 00180 20508 3//// 4//// 5//// 80100
BBXX WDD6126 12124 99465 70186 41395 82337 10140 2012/ 40046 57020 70755 8872/ 22214 00124 20306 330// 41209 5//// 6//// 80130 /////
BBXX A8LN2 12123 99454 70109 41296 82337 10155 20071 40155 57/// 70082 8/7// 22253 04135 21416 305// 42014 80110
BBXX BATFR06 12124 99454 70013 46/// /2815 10137 20054 40205 50007 22212 00157
BBXX DBBH 12121 99452 70085 41598 82316 10134 20067 40191 57012 70322 84837 22221 04143 20704 334// 41610
BBXX 62001 12124 99452 70050 46/// /2516 10132 20068 40198 58002 22200 00150 11111 70057
BBXX BATFR54 12124 99441 70076 46/// /2331 10134 20075 4//// 22263 00147
BBXX SKWI 12124 99434 70115 43/98 82332 10147 40206 58013 22254 00185 20804 41008
BBXX PBFM 12123 99432 70119 41398 82427 10150 20093 40203 50008 71582 8779/ 22254 2//// 80118
BBXX VRFO7 12124 99430 70272 41598 62327 10180 20148 40180 57020 70300 862// 22225 21206 323// 41208 80160
BBXX OZDM2 12124 99419 70101 41698 42320 10160 20066 40247 50006 70211 82142 22244 04160 20102 333// 40312 80110
BBXX C6CU6 12123 99402 70196 41597 72725 10155 20137 40271 51023 70122 87566 22253 04140 21412 332// 41911 5//// 80145
BBXX PBEO 12123 99398 70098 41598 73311 10165 20079 40278 52019 70322 86548 22282 02166 20201 333// 40704 80118
BBXX A8IP2 12123 99397 70233 41298 72035 10168 20135 40262 53011 76066 81750 22254 06160 20506 332// 41409 5//// 80148
BBXX BATFR15 12124 99395 70140 44798 22512 10160 20082 40267 50002 70332 82135 22254 00172 20708 335// 40708 5////
BBXX VRDF2 12123 99391 70236 41696 72823 10230 20185 40270 54000 7//22 87642 22263 00210 20508 332// 40508 5//// 6//// 80200 /////
BBXX SBLW 12123 99385 70267 43/98 52719 10168 40299 50017 22254 00179 2//// 4////
BBXX DFUX2 12124 99380 70096 41599 33004 10190 20142 40280 52030 7//00 832// 22284 00160 2//// 330// 41208 80160
BBXX WDE8264 12123 99363 70022 41798 32513 10220 20121 40260 54/// 7//22 83280 22224 00190 20402 330// 40804 5//// 6//// 80160 /////
BBXX MHNL6 12123 99362 70227 41298 73215 10180 20136 40313 54000 70222 877// 22223 00197 20402 334// 40704 5//// 80155
BBXX TBWUK30 12123 99362 70126 41398 31403 10170 20135 40336 54000 70122 8/260 22284 00190 20000 32802 41007 50806 80150
BBXX WQVY 12124 99354 70129 41798 43305 10170 2014/ 40285 50000 70110 83181 22264 0//// 20201 303// 40706 5//// 6//// 80150 /////
AAXX 12124 03008 11465 72430 10055 20014 49834 69921 71582 879// 91150 333 82712 82915 85818 90710 91139
BBXX AMOUK03 12124 99537 70003 46/// ///// 10056 20036 39968 4//// 5//// 91150
BBXX AMOUK08 12124 99501 70061 46/// ///// 10114 20057 30061 40069 54002 91150
BBXX 63106 12124 99610 10017 46/// /1909 10059 49841 58013 22200
BBXX 63105 12124 99610 10017 47798 ///// 10065 20023 49840 58013 700// 22200
BBXX 62094 12124 99517 70067 46/// /21// 10102 2//// 40018 58029 22200 00113 10605 70025
BBXX 64049 12123 99571 10022 41597 42530 10080 20080 49908 58101 70211 8/5// 22200 20608 3//// 4//// 5//// 80080
BBXX AMOUK04 12124 99533 70062 46/// ///// 10084 20039 39982 4//// 57010 91150
BBXX A8UX3 12124 99056 10000 41397 7//02 10295 20289 40120 51/// 71044 86612 22200 04290 250// 80290
BBXX S6SR 12124 99434 50330 41696 81030 10140 20123 40110 51020 76466 887// 22223 00140 2//// 3//// 4//// 5//// 6//// 80130 ICE /////
BBXX PCGM 12123 99020 50413 41398 40915 10270 20248 40107 7//// 831// 22264 20301 80254
BBXX A8CJ2 12124 99339 50728 41297 52137 10160 20144 40150 52015 70222 83610 22244 04180 21002 320// 41206 5//// 80150
BBXX MINFR09 1212/ 99359 31192 46/// ///// 40162 57001
BBXX BSH02 12121 99542 10079 46/// ///// 22200 00074 20503 70016
BBXX BSH03 12121 99540 10081 46/// ///// 22200 00072 20503 70013
BBXX BSH05 12121 99550 10079 46/// ///// 22200 20703 70015
BBXX DFRZ 12123 99221 70511 41298 40923 10260 20202 40195 52010 70511 82768 22254 20503 313// 41006 80220
OOXX ISP34 12101 99641 70219 ///// 01301 26/// /1605 10002 29001 39708 91010 333 6///0
OOXX ISP34 12101 99641 70219 ///// 01301 26/// /1704 10002 29001 39708 91020 333 6///0
OOXX ISP34 12101 99641 70219 ///// 01301 26/// /1604 10002 29001 39708 91030 333 6///0
OOXX ISP34 12101 99641 70219 ///// 01301 26/// /1504 10004 29001 39707 91040 333 6///0
OOXX ISP34 12101 99641 70219 ///// 01301 26/// /1404 10007 29001 39707 91050 333 6///0
OOXX ISP34 12111 99641 70219 ///// 01301 26/// /1504 10007 29001 39707 91100 333 6///0
OOXX ISP34 12111 99641 70219 ///// 01301 26/// /1403 10008 29001 39707 91110 333 6///0
OOXX ISP34 12111 99641 70219 ///// 01301 26/// /1504 10007 29001 39707 91120 333 6///0
OOXX ISP34 12111 99641 70219 ///// 01301 26/// /1504 10008 29001 39706 91130 333 6///0
OOXX ISP34 12111 99641 70219 ///// 01301 26/// /1504 10008 29001 39706 91140 333 6///0
OOXX ISP34 12111 99641 70219 ///// 01301 26/// /1604 10008 29001 39706 91150 333 6///0
OOXX ISP34 12121 99641 70219 ///// 01301 26/// /1604 10008 29001 39706 91200 333 6///0
OOXX FRP28 12061 99163 70615 ///// 00091 26/// /0000 10241 29091 30157 90617 333 60000
OOXX FRP28 12061 99163 70615 ///// 00091 26/// /0000 10244 29091 30161 90627 333 60000
OOXX FRP28 12061 99163 70615 ///// 00091 26/// /0000 10249 29091 30162 90637 333 60000
OOXX FRP28 12061 99163 70615 ///// 00091 26/// /0000 10260 29090 30160 90647 333 60000
OOXX FRP28 12061 99163 70615 ///// 00091 26/// /0000 10268 29086 30159 90657 333 60000
OOXX FRP28 12071 99163 70615 ///// 00091 26/// /0000 10275 29082 30162 90707 333 60000
OOXX FRP28 12071 99163 70615 ///// 00091 26/// /0000 10278 29080 30162 90717 333 60000
OOXX FRP28 12071 99163 70615 ///// 00091 26/// /0000 10278 29078 30165 90727 333 60000
OOXX FRP28 12071 99163 70615 ///// 00091 26/// /0000 10290 29075 30167 90737 333 60000
OOXX FRP28 12071 99163 70615 ///// 00091 26/// /0000 10294 29073 30166 90747 333 60000
OOXX FRP28 12071 99163 70615 ///// 00091 26/// /0000 10297 29073 30167 90757 333 60000
OOXX FRP28 12081 99163 70615 ///// 00091 26/// /0000 10311 29067 30169 90807 333 60000
OOXX NZP46 12101 99438 51765 ///// 00221 26/// /0406 10126 29095 30272 91030 333 60000
OOXX NZP46 12101 99438 51765 ///// 00221 26/// /0406 10125 29094 30273 91040 333 60000
OOXX NZP46 12101 99438 51765 ///// 00221 26/// /0406 10125 29095 30273 91050 333 60000
OOXX NZP46 12111 99438 51765 ///// 00221 26/// /0406 10125 29095 30273 91100 333 60000
OOXX NZP46 12111 99438 51765 ///// 00221 26/// /0406 10125 29096 30273 91110 333 60000
OOXX NZP46 12111 99438 51765 ///// 00221 26/// /0405 10124 29096 30272 91120 333 60000
OOXX NZP46 12111 99438 51765 ///// 00221 26/// /0405 10124 29097 30271 91130 333 60000
OOXX NZP46 12111 99438 51765 ///// 00221 26/// /0405 10124 29097 30271 91140 333 60000
OOXX NZP46 12111 99438 51765 ///// 00221 26/// /0406 10124 29097 30271 91150 333 60000
OOXX NZP46 12121 99438 51765 ///// 00221 26/// /0406 10124 29097 30271 91200 333 60000
OOXX NZP46 12121 99438 51765 ///// 00221 26/// /0406 10124 29097 30270 91210 333 60000
OOXX NZP46 12121 99438 51765 ///// 00221 26/// /0406 10124 29097 30270 91220 333 60000
OOXX FJP26 12101 99178 31775 ///// 00311 26/// /1002 10236 29093 30086 91010 333 60000
OOXX FJP26 12101 99178 31775 ///// 00311 26/// /1202 10237 29093 30086 91020 333 60000
OOXX FJP26 12101 99178 31775 ///// 00311 26/// /1202 10236 29093 30086 91030 333 60000
OOXX FJP26 12101 99178 31775 ///// 00311 26/// /1202 10236 29093 30086 91040 333 60000
OOXX FJP26 12101 99178 31775 ///// 00311 26/// /1202 10235 29093 30085 91050 333 60000
OOXX FJP26 12111 99178 31775 ///// 00311 26/// /1202 10236 29093 30084 91100 333 60000
OOXX FJP26 12111 99178 31775 ///// 00311 26/// /1302 10236 29092 30083 91110 333 60000
OOXX FJP26 12111 99178 31775 ///// 00311 26/// /1202 10234 29093 30081 91120 333 60000
OOXX FJP26 12111 99178 31775 ///// 00311 26/// /1202 10233 29094 30079 91130 333 60000
OOXX FJP26 12111 99178 31775 ///// 00311 26/// /1302 10232 29094 30077 91140 333 60000
OOXX FJP26 12111 99178 31775 ///// 00311 26/// /1302 10231 29095 30077 91150 333 60000
OOXX FJP26 12121 99178 31775 ///// 00311 26/// /1102 10230 29095 30077 91200 333 60000
OOXX CAP14 12101 99487 71234 ///// 00431 26/// /2702 10013 29075 30185 91020 333 60000
OOXX CAP14 12101 99487 71234 ///// 00431 26/// /2602 10015 29074 30185 91030 333 60000
OOXX CAP14 12101 99487 71234 ///// 00431 26/// /2602 10013 29076 30185 91040 333 60000
OOXX CAP14 12101 99487 71234 ///// 00431 26/// /2602 10010 29076 30184 91050 333 60000
OOXX CAP14 12111 99487 71234 ///// 00431 26/// /2601 10006 29076 30185 91100 333 60000
OOXX CAP14 12111 99487 71234 ///// 00431 26/// /2802 10014 29076 30184 91110 333 60000
OOXX CAP14 12111 99487 71234 ///// 00431 26/// /3202 10015 29075 30184 91120 333 60000
OOXX CAP14 12111 99487 71234 ///// 00431 26/// /3102 10016 29074 30182 91130 333 60000
OOXX CAP14 12111 99487 71234 ///// 00431 26/// /3202 10015 29074 30184 91140 333 60000
OOXX CAP14 12111 99487 71234 ///// 00431 26/// /3102 10015 29074 30183 91150 333 60000
OOXX CAP14 12121 99487 71234 ///// 00431 26/// /3202 10013 29076 30184 91200 333 60000
OOXX CAP14 12121 99487 71234 ///// 00431 26/// /3302 10012 29077 30184 91210 333 60000
OOXX MYP42 12101 99045 11014 ///// 15551 26/// /0704 10183 29092 38396 91003 333 60000
OOXX MYP42 12101 99045 11014 ///// 15551 26/// /0503 10182 29092 38407 91013 333 60000
OOXX MYP42 12101 99045 11014 ///// 15551 26/// /0702 10183 29093 38420 91023 333 60000
OOXX MYP42 12101 99045 11014 ///// 15551 26/// /0401 10180 29093 38420 91033 333 60000
OOXX MYP42 12101 99045 11014 ///// 15551 26/// /0303 10180 29093 38421 91043 333 60000
OOXX MYP42 12101 99045 11014 ///// 15551 26/// /0201 10178 29093 38412 91053 333 60000
OOXX MYP42 12111 99045 11014 ///// 15551 26/// /0908 10174 29093 38407 91103 333 60000
OOXX MYP42 12111 99045 11014 ///// 15551 26/// /0308 10176 29093 38409 91113 333 60000
OOXX MYP42 12111 99045 11014 ///// 15551 26/// /0504 10178 29093 38425 91123 333 60000
OOXX MYP42 12111 99045 11014 ///// 15551 26/// /0107 10179 29092 38418 91133 333 60000
OOXX MYP42 12111 99045 11014 ///// 15551 26/// /0606 10178 29093 38412 91143 333 60000
OOXX MYP42 12111 99045 11014 ///// 15551 26/// /0402 10178 29093 38418 91153 333 60000
OOXX ARP01 12101 99345 50585 ///// 00311 26/// /2001 10079 29035 30113 91010 333 60000
OOXX ARP01 12101 99345 50585 ///// 00311 26/// /2302 10078 29034 30114 91020 333 60000
OOXX ARP01 12101 99345 50585 ///// 00311 26/// /2301 10078 29034 30114 91030 333 60000
OOXX ARP01 12101 99345 50585 ///// 00311 26/// /2302 10080 29033 30114 91040 333 60000
OOXX ARP01 12101 99345 50585 ///// 00311 26/// /2302 10078 29033 30116 91050 333 60000
OOXX ARP01 12111 99345 50585 ///// 00311 26/// /2302 10079 29033 30117 91100 333 60000
OOXX ARP01 12111 99345 50585 ///// 00311 26/// /2301 10083 29032 30117 91110 333 60000
OOXX ARP01 12111 99345 50585 ///// 00311 26/// /2302 10082 29031 30118 91120 333 60000
OOXX ARP01 12111 99345 50585 ///// 00311 26/// /2302 10082 29031 30118 91130 333 60000
OOXX ARP01 12111 99345 50585 ///// 00311 26/// /2002 10082 29032 30118 91140 333 60000
OOXX ARP01 12111 99345 50585 ///// 00311 26/// /2302 10084 29031 30118 91150 333 60000
OOXX ARP01 12121 99345 50585 ///// 00311 26/// /2302 10085 29030 30118 91200 333 60000
OOXX AUP07 12101 99/// ///// ///// ///// 26/// /0214 10069 29092 39937 91057 333 60000
OOXX AUP07 12111 99/// ///// ///// ///// 26/// /0214 10069 29092 39938 91107 333 60000
OOXX AUP07 12111 99/// ///// ///// ///// 26/// /0214 10068 29092 39939 91117 333 60000
OOXX AUP07 12111 99/// ///// ///// ///// 26/// /0214 10068 29092 39940 91127 333 60000
OOXX AUP07 12111 99/// ///// ///// ///// 26/// /0213 10067 29092 39942 91137 333 60000
OOXX AUP07 12111 99/// ///// ///// ///// 26/// /0214 10068 29092 39943 91147 333 60000
OOXX AUP07 12111 99/// ///// ///// ///// 26/// /0113 10068 29092 39943 91157 333 60000
OOXX AUP07 12121 99/// ///// ///// ///// 26/// /0213 10066 29091 39945 91207 333 60000
OOXX AUP07 12121 99/// ///// ///// ///// 26/// /0212 10064 29091 39948 91217 333 60000
OOXX AUP07 12121 99/// ///// ///// ///// 26/// /0111 10063 29091 39950 91227 333 60000
OOXX AUP07 12121 99/// ///// ///// ///// 26/// /0112 10063 29091 39950 91237 333 60000
OOXX AUP07 12121 99/// ///// ///// ///// 26/// /0212 10064 29091 39951 91247 333 60000
OOXX AUP04 12111 99377 31451 ///// 00311 26/// /1801 10154 29068 30057 91106 333 60000
OOXX AUP04 12111 99377 31451 ///// 00311 26/// /1701 10154 29068 30057 91116 333 60000
OOXX AUP04 12111 99377 31451 ///// 00311 26/// /1901 10154 29068 30057 91126 333 60000
OOXX AUP04 12111 99377 31451 ///// 00311 26/// /2001 10154 29069 30057 91136 333 60000
OOXX AUP04 12111 99377 31451 ///// 00311 26/// /1801 10155 29068 30057 91146 333 60000
OOXX AUP04 12111 99377 31451 ///// 00311 26/// /1701 10155 29069 30056 91156 333 60000
OOXX AUP04 12121 99377 31451 ///// 00311 26/// /1701 10155 29069 30056 91206 333 60000
OOXX AUP04 12121 99377 31451 ///// 00311 26/// /1701 10155 29069 30056 91216 333 60000
OOXX AUP04 12121 99377 31451 ///// 00311 26/// /1801 10155 29070 30056 91226 333 60000
OOXX AUP04 12121 99377 31451 ///// 00311 26/// /1701 10155 29071 30055 91236 333 60000
OOXX AUP04 12121 99377 31451 ///// 00311 26/// /1701 10155 29072 30055 91246 333 60000
OOXX AUP04 12121 99377 31451 ///// 00311 26/// /1401 10154 29072 30056 91256 333 60000
OOXX RUP54 12101 99586 10494 ///// 01271 26/// /0304 11111 29092 39987 91027 333 60120
OOXX RUP54 12101 99586 10494 ///// 01271 26/// /0405 11111 29092 39987 91037 333 60120
OOXX RUP54 12101 99586 10494 ///// 01271 26/// /0405 11111 29092 39988 91047 333 60120
OOXX RUP54 12101 99586 10494 ///// 01271 26/// /0304 11112 29092 39989 91057 333 60120
OOXX RUP54 12111 99586 10494 ///// 01271 26/// /0405 11112 29092 39990 91107 333 60120
OOXX RUP54 12111 99586 10494 ///// 01271 26/// /0204 11112 29092 39990 91117 333 60120
OOXX RUP54 12111 99586 10494 ///// 01271 26/// /0405 11113 29092 39991 91127 333 60120
OOXX RUP54 12111 99586 10494 ///// 01271 26/// /0305 11113 29092 39993 91137 333 60120
OOXX RUP54 12111 99586 10494 ///// 01271 26/// /0203 11113 29092 39993 91147 333 60120
OOXX RUP54 12111 99586 10494 ///// 01271 26/// /0404 11113 29092 39993 91157 333 60120
OOXX RUP54 12121 99586 10494 ///// 01271 26/// /3603 11113 29092 39993 91207 333 60120
OOXX RUP54 12121 99586 10494 ///// 01271 26/// /3603 11114 29092 39993 91217 333 60120
OOXX CKP23 12101 99212 51598 ///// 00051 26/// /0302 10262 29085 30121 91050 333 60000
OOXX CKP23 12111 99212 51598 ///// 00051 26/// /0302 10262 29085 30120 91100 333 60000
OOXX CKP23 12111 99212 51598 ///// 00051 26/// /0303 10262 29085 30120 91110 333 60000
OOXX CKP23 12111 99212 51598 ///// 00051 26/// /0303 10262 29085 30118 91120 333 60000
OOXX CKP23 12111 99212 51598 ///// 00051 26/// /0103 10262 29086 30117 91130 333 60000
OOXX CKP23 12111 99212 51598 ///// 00051 26/// /0203 10263 29085 30116 91140 333 60000
OOXX CKP23 12111 99212 51598 ///// 00051 26/// /0103 10262 29086 30116 91150 333 60000
OOXX CKP23 12121 99212 51598 ///// 00051 26/// /0303 10262 29086 30115 91200 333 60000
OOXX CKP23 12121 99212 51598 ///// 00051 26/// /0203 10262 29086 30114 91210 333 60000
OOXX CKP23 12121 99212 51598 ///// 00051 26/// /0203 10263 29085 30114 91220 333 60000
OOXX CKP23 12121 99212 51598 ///// 00051 26/// /3503 10263 29085 30114 91230 333 60000
OOXX CKP23 12121 99212 51598 ///// 00051 26/// /0203 10263 29085 30114 91240 333 60000
OOXX RUP60 12101 99531 11588 ///// 00651 26/// /3206 11126 29070 39815 91052 333 60000
OOXX RUP60 12111 99531 11588 ///// 00651 26/// /3604 11133 29072 39815 91102 333 60000
OOXX RUP60 12111 99531 11588 ///// 00651 26/// /2901 11139 29073 39815 91112 333 60000
OOXX RUP60 12111 99531 11588 ///// 00651 26/// /3205 11142 29074 39816 91122 333 60000
OOXX RUP60 12111 99531 11588 ///// 00651 26/// /2705 11148 29073 39817 91132 333 60000
OOXX RUP60 12111 99531 11588 ///// 00651 26/// /3205 11148 29074 39817 91142 333 60000
OOXX RUP60 12111 99531 11588 ///// 00651 26/// /2504 11153 29075 39817 91152 333 60000
OOXX RUP60 12121 99531 11588 ///// 00651 26/// /0504 11155 29076 39818 91202 333 60000
OOXX RUP60 12121 99531 11588 ///// 00651 26/// /2505 11155 29079 39817 91212 333 60000
OOXX RUP60 12121 99531 11588 ///// 00651 26/// /3001 11145 29079 39818 91222 333 60000
OOXX RUP60 12121 99531 11588 ///// 00651 26/// /2706 11130 29075 39818 91232 333 60000
OOXX RUP60 12121 99531 11588 ///// 00651 26/// /3106 11117 29070 39819 91242 333 60000
OOXX RUP59 12101 99539 10848 ///// 02121 26/// /0000 11245 29074 30015 91040 333 60000
OOXX RUP59 12101 99539 10848 ///// 02121 26/// /0000 11249 29075 30015 91050 333 60000
OOXX RUP59 12111 99539 10848 ///// 02121 26/// /0000 11248 29077 30015 91100 333 60000
OOXX RUP59 12111 99539 10848 ///// 02121 26/// /0000 11251 29076 30015 91110 333 60000
OOXX RUP59 12111 99539 10848 ///// 02121 26/// /0000 11253 29075 30016 91120 333 60000
OOXX RUP59 12111 99539 10848 ///// 02121 26/// /0000 11258 29073 30014 91130 333 60000
OOXX RUP59 12111 99539 10848 ///// 02121 26/// /0000 11257 29075 30014 91140 333 60000
OOXX RUP59 12111 99539 10848 ///// 02121 26/// /0000 11260 29074 30014 91150 333 60000
OOXX RUP59 12121 99539 10848 ///// 02121 26/// /0000 11260 29074 30013 91200 333 60000
OOXX RUP59 12121 99539 10848 ///// 02121 26/// /0000 11261 29073 30013 91210 333 60000
OOXX RUP59 12121 99539 10848 ///// 02121 26/// /0000 11264 29072 30012 91220 333 60000
OOXX RUP59 12121 99539 10848 ///// 02121 26/// /0000 11262 29073 30016 91230 333 60000
OOXX AUP09 12101 99124 31309 ///// 00321 26/// ///// 1//// 29/// 3//// 91014 333 6///0
OOXX AUP09 12101 99124 31309 ///// 00321 26/// ///// 1//// 29/// 3//// 91024 333 6///0
OOXX AUP09 12101 99124 31309 ///// 00321 26/// ///// 1//// 29/// 3//// 91034 333 6///0
OOXX AUP09 12101 99124 31309 ///// 00321 26/// ///// 1//// 29/// 3//// 91044 333 6///0
OOXX AUP09 12101 99124 31309 ///// 00321 26/// ///// 1//// 29/// 3//// 91054 333 6///0
OOXX AUP09 12111 99124 31309 ///// 00321 26/// ///// 1//// 29/// 3//// 91104 333 6///0
OOXX AUP09 12111 99124 31309 ///// 00321 26/// ///// 1//// 29/// 3//// 91114 333 6///0
OOXX AUP09 12111 99124 31309 ///// 00321 26/// ///// 1//// 29/// 3//// 91124 333 6///0
OOXX AUP09 12111 99124 31309 ///// 00321 26/// ///// 1//// 29/// 3//// 91134 333 6///0
OOXX AUP09 12111 99124 31309 ///// 00321 26/// ///// 1//// 29/// 3//// 91144 333 6///0
OOXX AUP09 12111 99124 31309 ///// 00321 26/// ///// 1//// 29/// 3//// 91154 333 6///0
OOXX AUP09 12121 99124 31309 ///// 00321 26/// ///// 1//// 29/// 3//// 91204 333 6///0
OOXX RUP58 12101 99442 11320 ///// 01121 26/// /0202 11074 29047 30085 91042 333 60000
OOXX RUP58 12101 99442 11320 ///// 01121 26/// /0302 11078 29048 30085 91052 333 60000
OOXX RUP58 12111 99442 11320 ///// 01121 26/// /1301 11083 29049 30087 91102 333 60000
OOXX RUP58 12111 99442 11320 ///// 01121 26/// /1501 11090 29051 30088 91112 333 60000
OOXX RUP58 12111 99442 11320 ///// 01121 26/// /0701 11086 29050 30089 91122 333 60000
OOXX RUP58 12111 99442 11320 ///// 01121 26/// /0701 11085 29049 30092 91132 333 60000
OOXX RUP58 12111 99442 11320 ///// 01121 26/// /1701 11089 29050 30093 91142 333 60000
OOXX RUP58 12111 99442 11320 ///// 01121 26/// /1801 11089 29050 30095 91152 333 60000
OOXX RUP58 12121 99442 11320 ///// 01121 26/// /2001 11087 29049 30096 91202 333 60000
OOXX RUP58 12121 99442 11320 ///// 01121 26/// /1201 11087 29049 30097 91212 333 60000
OOXX RUP58 12121 99442 11320 ///// 01121 26/// /1701 11090 29050 30097 91222 333 60000
OOXX RUP58 12121 99442 11320 ///// 01121 26/// /1501 11094 29050 30097 91232 333 60000
OOXX NOP49 12101 99782 10154 ///// 04691 26/// /2303 11092 29093 39380 91010 333 6///0
OOXX NOP49 12101 99782 10154 ///// 04691 26/// /2203 11095 29093 39381 91020 333 6///0
OOXX NOP49 12101 99782 10154 ///// 04691 26/// /2303 11096 29093 39381 91030 333 6///0
OOXX NOP49 12101 99782 10154 ///// 04691 26/// /2302 11095 29093 39381 91040 333 6///0
OOXX NOP49 12101 99782 10154 ///// 04691 26/// /2302 11096 29093 39381 91050 333 6///0
OOXX NOP49 12111 99782 10154 ///// 04691 26/// /2402 11096 29093 39381 91100 333 6///0
OOXX NOP49 12111 99782 10154 ///// 04691 26/// /2402 11096 29093 39382 91110 333 6///0
OOXX NOP49 12111 99782 10154 ///// 04691 26/// /2302 11097 29093 39382 91120 333 6///0
OOXX NOP49 12111 99782 10154 ///// 04691 26/// /2302 11097 29093 39381 91130 333 6///0
OOXX NOP49 12111 99782 10154 ///// 04691 26/// /2401 11097 29093 39381 91140 333 6///0
OOXX NOP49 12111 99782 10154 ///// 04691 26/// /2401 11097 29093 39381 91150 333 6///0
OOXX NOP49 12121 99782 10154 ///// 04691 26/// /2401 11098 29093 39381 91200 333 6///0
AAXX 12121 23074 11597 71504 11125 21138 30245 57003 69902 78582 8393/ 333 11061
AAXX 12121 20292 11395 81908 11136 21149 30201 40221 57010 69902 77387 8872/ 333 11133 91112
AAXX 12124 91559 46/// /0000 10259 40094 22200 00284
AAXX 12124 71384 16/// /2605 11010 21046 30270 40278 52013 60001 333 11006 21034 70000
AAXX 12124 71390 46/// /3503 11085 6///1 333 11099 21122 7////
AAXX 12124 71425 16/// /2108 11035 21077 30203 40240 53005 60001 333 11056 21100 70010
AAXX 12124 71614 16/// /0000 11077 21095 30236 40304 51011 60001 333 10021 21082 70003
AAXX 1212/ 89314 46/// ///// 11169 38146 4//// 5//// 91230
AAXX 12124 89016 46/89 /1012 11051 29063 39378 4//// 5////
AAXX 12124 91531 46/// /3606 1//// 40079 22200 00249
AAXX 1212/ 89869 46/// ///// 11029 39789 4//// 5//// 91240
AAXX 1212/ 89769 46/// ///// 11056 39820 4//// 5//// 91240
AAXX 1212/ 89314 46/// ///// 11168 38146 4//// 5//// 91240
BBXX SHIP 12124 99331 11692 41598 53118 10180 20112 40199 52010 70122 85/// 22225 00219 2//// 3//// 4//// 80140
BBXX VRBQ6 12124 99331 11692 41598 53118 10180 20112 40199 52010 70122 85/// 22225 00219 2//// 3//// 4//// 80140
AAXX 12124 63714 32980 73604 10240 20097 48473 872// 333 59013 87825
AAXX 12124 65019 31918 00910 10256 20013 39429 40130 70522 8//// 333 58016 8////
AAXX 12124 65030 31907 40818 10245 20030 39389 40116 70644 80008 333 59001 87280
AAXX 12124 65123 31956 70413 10320 20058 30088 40106 70522 80008 333 58009 87280
AAXX 12124 65125 31940 71505 10336 20016 30731 40135 70522 80008 333 58005 87280
AAXX 12124 65134 31956 61224 10235 20010 38724 4//// 70522 80008 333 58008 86280
AAXX 12124 65232 31925 /0305 10316 20095 39736 40107 70522 8//// 333 58017 8////
AAXX 12124 65236 41958 70905 10325 20125 3//// 4//// 70522 80008 333 5//// 87280
AAXX 12124 65250 31916 70505 10311 20136 30061 40094 70522 80008 333 58004 87280
AAXX 12124 65252 31928 70514 10307 20104 39964 40097 70522 80008 333 58011 87280
AAXX 12124 65271 11914 50908 10312 20076 30015 40113 70522 80008 333 58011 87280
AAXX 12124 78764 13560 61007 10192 20166 39025 40150 57015 81200 333 10200 20184 31/// 5620/ 58005 70032 82620 86458
AAXX 12124
AAXX 12124 78764 13560 61007 10192 20166 39025 40150 57015 81200 333 10200 20184 31/// 5620/ 58005 70032 82620 86458
AAXX 12124 78764 13560 61007 10192 20166 39025 40150 57015 81200 333 10200 20184 31/// 5620/ 58005 70032 82620 86458
AAXX 12124
BBXX WKWB 12124 99325 71205 41398 62212 10117 20090 40089 57010 76022 86240 22200 00156 20100 332// 41704 80107
BBXX 44056 12121 99362 70757 46/// ///// 1//// 91220 22200 00117 10503 20503 70014
AAXX 12124 91642 46/// /0000 1//// 40093 22200 0////
BBXX 46109 12121 99481 71234 46/// /1403 10017 40249 91157 22200 00080
BBXX 46110 12121 99481 71230 46/// /2306 10040 40245 91158
AAXX 12124 71172 16/// ///// 10026 20005 30055 40275 53002 60001 333 10029 20019 4/013 70000
AAXX 12124 71016 17/// ///// 11083 69991 7//4/ 333 10018 21085 70054
AAXX 12124 71172 16/// ///// 10026 20005 30055 40275 53002 60001 333 10029 20019 4/013 70000
AAXX 12124 71016 17/// ///// 11083 69991 7//4/ 333 10018 21085 70054
AAXX 12124 17070 11960 51602 10087 20031 39387 40272 57019 60001 71022 85050 333 85360 91103
AAXX 12121 59792 32460 80410 10215 20183 30159 40164 52010 84420
AAXX 12121 59562 11650 83601 10192 20174 30168 40180 51014 60092 76162 8112/
BBXX 44055 12121 99391 70753 46/// ///// 1//// 91230 22200 00090 1//00 70002
BBXX 42043 12121 99290 70949 46/// /1008 1//// 40233 91200 22200 00158 333 91210
BBXX 42044 12121 99262 70971 46/// /2803 10150 20140 40196 54000 91200 22200 00188 333 91204
BBXX 42047 12121 99279 70936 46/// /0904 10172 20110 40230 54000 91200 22200 00227 333 91205
BBXX 46094 12121 99446 71243 46/// /0108 10064 91230
BBXX 46094 12121 99446 71243 46/// /3507 10064 91220
BBXX 46094 12121 99446 71243 46/// /0107 10063 91210
BBXX 46094 12121 99446 71243 46/// /3506 10062 91200
BBXX 46094 12121 99446 71243 46/// /0206 10061 91150
BBXX 46094 12121 99446 71243 46/// /3607 10060 91140
BBXX MDTE9 12123 99403 70713 41598 19901 10072 20012 40363 54000 70200 81100 22223 00130 20000 309// 40801 5//// 80048
BBXX PGQI 12123 99284 70244 41598 30620 10219 20144 40277 51021 70100 8247/ 22253 20603 334// 41205 80172
BBXX A8CF2 12124 99038 50814 41397 41820 10195 20147 40115 52010 70111 8177/ 22244 20205 318// 41203 80165
BBXX MGSM3 12124 99064 31483 41097 83219 10270 20255 40060 52020 76366 886// 22233 06300 20300 307// 40701 5//// 80255
BBXX AMOUK04 12124 99533 70062 46/// ///// 10084 20039 39982 4//// 57010 91150
BBXX 46094 12121 99446 71243 46/// /3607 10060 91140
BBXX 46094 12121 99446 71243 46/// /0206 10061 91150
BBXX 46094 12121 99446 71243 46/// /0108 10064 91230
BBXX 46094 12121 99446 71243 46/// /3507 10064 91220
BBXX 46094 12121 99446 71243 46/// /3506 10062 91200
BBXX 46094 12121 99446 71243 46/// /0107 10063 91210
BBXX 42044 12121 99262 70971 46/// /2803 10150 20140 40196 54000 91200 22200 00188 333 91204
BBXX 42047 12121 99279 70936 46/// /0904 10172 20110 40230 54000 91200 22200 00227 333 91205
BBXX 42043 12121 99290 70949 46/// /1008 1//// 40233 91200 22200 00158 333 91210
BBXX 44055 12121 99391 70753 46/// ///// 1//// 91230 22200 00090 1//00 70002
BBXX 46109 12121 99481 71234 46/// /1403 10017 40249 91157 22200 00080
BBXX 46110 12121 99481 71230 46/// /2306 10040 40245 91158
BBXX 44056 12121 99362 70757 46/// ///// 1//// 91220 22200 00117 10503 20503 70014
BBXX MVQP8 12124 99292 70946 41497 50819 10130 20101 40242 54000 70122 83174 22200 00110 20202 308// 40202 5//// 80115
AAXX 12124 71503 46/// /0605 11118 21131 39652 49922 58050 6///1 333 11095 21163 4/004 7////
AAXX 12124 71170 16/// /0408 11111 21126 60001 333 11026 21115 70000
AAXX 12124 71026 46/// /0203 11062 21075 39380 40256 52004 6///1 333 21062 4/002 7//// 555 10020
AAXX 12124 71170 16/// /0408 11111 21126 60001 333 11026 21115 70000
AAXX 12124 71026 46/// /0203 11062 21075 39380 40256 52004 6///1 333 21062 4/002 7//// 555 10020
AAXX 12124 71503 46/// /0605 11118 21131 39652 49922 58050 6///1 333 11095 21163 4/004 7////
AAXX 12124 92036 46/// /2302 10246 40091 22200 00311
BBXX AMOUK02 12124 99533 70062 46/// ///// 10067 20016 39953 4//// 5//// 91150
BBXX AMOUK05 12124 99537 70003 46/// ///// 10052 20027 39965 40007 52017 91150
BBXX PJGO 12124 99571 10022 47598 /2515 10075 20034 49922 53003 700// 22200
BBXX 63106 12124 99610 10017 46/// /1909 10059 49841 58013 22200
BBXX 63113 12124 99610 10017 46/// /1909 10062 20021 49840 57015 22200 11006 70031
BBXX 62107 12124 99501 70061 46/// /2229 10106 20042 40067 58023 22200 00120 11311 70055 333 90710 91137
BBXX 62094 12124 99517 70067 46/// /2124 10102 20039 40018 58029 22200 00113 10605 70024 333 90710 91133
BBXX DPLE 12123 99417 70314 41598 82728 10175 20143 40209 52002 70322 8777/ 22224 00170 20607 332// 41406 80155
BBXX V2CJ8 12123 99396 70119 41/98 72511 10160 20078 40315 52025 70322 8//// 22283 00150 20401 325// 41409 80115
AAXX 12124 93713 46/// /0000 10161 40134 22200 00157
AAXX 12124 91689 46/// /0222 10242 40108 22200 00274
AAXX 12124 41858 41950 20000 10200 20150 30091 40138 70500 82030 333 10248 56090 58002 70000 82362
AAXX 12124 41915 31940 20000 10175 20150 30114 40140 70510 82030 333 10262 56090 58001 70000 82362
AAXX 12124 41926 31950 03402 10188 20160 30119 40133 70520 333 10240 58010 70000
AAXX 12124 41941 31940 60000 10222 20180 30127 40133 70544 85420 333 10276 56990 58018 70000 84616 86460
AAXX 12124 41947 31950 00000 10222 20160 30133 40135 70544 333 10260 58011 70000
AAXX 12124 41960 31440 30000 10214 20180 30134 40136 70500 83400 333 10280 56700 58007 70000 82617
AAXX 12124 41963 31925 00000 10210 20180 30124 40127 70500 333 10286 58012 70000
AAXX 12124 41964 31956 00000 10200 20180 30127 40129 70500 333 10284 59007 70000
AAXX 12124 41989 32940 00000 10244 20180 30117 40120 333 10296 58005 70000
AAXX 12124 41858 NIL
AAXX 12124 41863 32950 10194 20140 30094 40138 333 10245 58004 70000
AAXX 12124 41886 31450 60000 10214 20140 30118 40139 70522 82530 333 10248 56990 58005 70000 82518 86360
AAXX 12124 41895 31450 50000 10190 20170 30119 40142 70522 82520 333 10232 56890 58008 70000 82616 85458
AAXX 12124 41909 NIL
AAXX 12124 41915 NIL
AAXX 12124 41926 NIL
AAXX 12124 41929 31950 50000 10213 20160 30123 40132 70542 85050 333 10254 56090 58011 70000 85364
AAXX 12124 41933 31450 23102 10226 20130 30125 40134 70500 82500 333 10273 56900 58006 70000 82616
AAXX 12124 41939 31940 40000 10220 20180 40138 70542 84030 333 10263 56090 58008 70000 84362
AAXX 12124 41941 NIL
AAXX 12124 41946 31950 20000 10210 20170 30128 40133 70520 82030 333 10253 56090 58008 70000 82360
AAXX 12124 41947 NIL
AAXX 12124 41951 32956 00000 10222 20170 30123 40128 333 10278 58001 70000
AAXX 12124 41953 31950 00000 10230 20160 30121 40127 70500 333 10280 58010 70000
AAXX 12124 41958 31940 30000 10216 20170 30123 40125 70520 83030 333 10264 56090 58004 70000 83362
AAXX 12124 41960 NIL
AAXX 12124 41963 NIL
AAXX 12124 41964 NIL
AAXX 12124 41965 NIL
AAXX 12124 41966 32956 00000 10205 20190 30050 40129 333 10278 58003 70000
AAXX 12124 41984 NIL
AAXX 12124 41989 NIL
AAXX 12124 41998 NIL
AAXX 12124 42675 32996 00000 10214 20085 40143 70500 333 10236 58015
BBXX C6FY5 12124 99022 50387 41697 30916 10270 2023/ 40120 54/// 7//00 834/8 22273 04280 20202 306// 40202 5//// 6//// 80240 ICE /////
BBXX A8CF2 12124 99038 50814 41397 41820 10195 20147 40115 52010 70111 8177/ 22244 20205 318// 41203 80165
BBXX A8VE3 12124 99082 70488 41597 10617 10285 20222 40130 50/// 70044 8/1// 22274 20503 3//// 4//// 5//// 80240
BBXX MDTE9 12123 99403 70713 41598 19901 10072 20012 40363 54000 70200 81100 22223 00130 20000 309// 40801 5//// 80048
BBXX PGQI 12123 99284 70244 41598 30620 10219 20144 40277 51021 70100 8247/ 22253 20603 334// 41205 80172
BBXX MGSM3 12124 99064 31483 41097 83219 10270 20255 40060 52020 76366 886// 22233 06300 20300 307// 40701 5//// 80255
BBXX V2CJ8 12123 99396 70119 41/98 72511 10160 20078 40315 52025 70322 8//// 22283 00150 20401 325// 41409 80115
BBXX DPLE 12123 99417 70314 41598 82728 10175 20143 40209 52002 70322 8777/ 22224 00170 20607 332// 41406 80155
AAXX 12124 89573 35965 80204 11026 21089 39754 49776 57001 8807/ 333 80000
BBXX V2CJ8 12123 99396 70119 41/98 72511 10160 20078 40315 52025 70322 8//// 22283 00150 20401 325// 41409 80115
BBXX PCPR 12123 99365 10161 41398 22316 10191 20153 40205 57025 70122 8/5// 22263 04183 20300 323// 40401 80167
AAXX 12124 89573 35965 80204 11026 21089 39754 49776 57001 8807/ 333 80000
AAXX 12121 23074 11597 71504 11125 21138 30245 40271 57003 69902 78582 8393/ 333 11097
AAXX 12124 60525 12660 13118 10186 20051 40223 58005 60001 81230 333 0//00 81840 95900
AAXX 12124 04418 NIL
AAXX 12124 04425 NIL
AAXX 12124 04432 NIL
AAXX 12124 04436 NIL
AAXX 12124 04464 46/// /1311 11243 21265 333 553// 20004
AAXX 12124 04485 46/// /0000 11201 21205 37152 52012 333 553// 20000
AAXX 12124 04488 46/// /0210 11188 21196 37222 52009 333 553// 20000
BBXX AMOUK03 12124 99537 70003 46/// ///// 10056 20036 39968 4//// 5//// 91150
BBXX AMOUK08 12124 99501 70061 46/// ///// 10114 20057 30061 40069 54002 91150
BBXX 63106 12124 99610 10017 46/// /1909 10059 49841 58013 22200
BBXX 63105 12124 99610 10017 47798 ///// 10065 20023 49840 58013 700// 22200
BBXX 62094 12124 99517 70067 46/// /21// 10102 2//// 40018 58029 22200 00113 10605 70025
BBXX 64049 12123 99571 10022 41597 42530 10080 20080 49908 58101 70211 8/5// 22200 20608 3//// 4//// 5//// 80080
BBXX AMOUK04 12124 99533 70062 46/// ///// 10084 20039 39982 4//// 57010 91150
BBXX 63119 12124 99583 10009 41598 63127 10065 20006 49875 54000 78182 862// 22200 20304 331// 40506 5////
BBXX UFLT 12121 99454 11384 42/98 03210 11010 40150 53009 80000 22263 00040 20606 329// 40606
BBXX WKPN 12124 99394 70246 41498 82721 10170 20137 40280 54000 70222 88300 22225 00197 20602 327// 40805 5//// 6//// 80150 ICE /////
AAXX 12124 71408 46/// /2823 11017 21078 30210 40292 6///1 333 10029 21045 7////
AAXX 12121 98132 11430 80407 10217 20207 40176 53003 60221 76266 8652/ 333 10230 56199 59010 86615 88456
AAXX 12121 98133 31462 80704 10/// 20/// 40119 5//// 70544 8447/ 333 10/// 56299 58008 84618 88459
AAXX 12121 98222 31575 50202 10252 20229 40109 53009 70544 81236 333 10292 56199 58005 81820 85078
AAXX 12121 98233 31570 70000 10252 20222 40108 52010 70544 82270 333 10278 56999 58006 82820 87358
AAXX 12121 98324 31462 63601 10278 20257 40100 52026 70544 81278 333 10320 56999 58012 81816 83358 86280
AAXX 12121 98327 31670 72802 10260 20231 39932 40106 52016 70544 82208 333 10318 56999 58006 82842 87277
AAXX 12121 98334 32465 20000 10260 20247 39912 40116 52018 82200 333 10305 56999 58012 82820
AAXX 12121 98425 31558 41401 10300 20245 40091 52011 70542 83108 333 10330 56999 59004 83820 84280
AAXX 12121 98426 31562 10201 10273 20240 40106 53018 70544 81100 333 10327 56999 58008 81820
AAXX 12121 98427 31475 53603 10262 20240 39905 40083 53011 70242 83270 333 10310 56999 59005 83818 85357
AAXX 12121 98428 32458 41406 10290 70251 40098 53025 82461 33301 10323 56999 59008 82618
AAXX 12121 98432 31568 10275 20247 40100 52017 70544 81272 333 10321 56999 58003 81820
AAXX 12121 98433 31465 30405 10227 20207 39387 40107 53015 70544 82201 333 10260 56999 58010 82812
AAXX 12121 98434 32470 40000 10267 20250 30100 40108 53014 83201 333 10316 56199 58007 83819
AAXX 12121 98435 32470 70402 10273 20248 40106 5//// 84270 333 10310 56199 58007 84818 86358
AAXX 12121 98442 NIL
AAXX 12121 98446 32470 50701 10266 20253 30067 40113 53015 83201 333 10302 56299 58007 83818 85070
AAXX 12121 98447 32470 50403 10253 20246 39850 40114 5//// 82202 333 10/// 56199 58014 82818 84070
AAXX 12121 98538 31468 33602 10282 20256 30083 40088 53012 70340 81201 333 10310 56999 58001 81811 83075
AAXX 12121 98546 32575 41601 10275 20257 30095 40103 52014 81208 333 10312 56999 58008 81820 84275
AAXX 12121 98548 32468 20000 10275 20258 30086 40092 51014 81101 333 10325 56999 58016 81816
AAXX 12121 98553 31466 62701 10265 20252 30101 40105 52012 71544 84970 333 10311 56999 58007 81915 84818 86358
AAXX 12121 98558 11462 71702 10279 20261 40088 52008 60041 72584 83570 333 10310 56999 59005 83615 87357
AAXX 12121 98642 31465 20000 10266 20249 30076 40085 53017 70544 81101 333 56999 58006 81815
AAXX 12121 98644 11465 60000 10270 20250 30079 40088 53015 69901 70248 81268 333 10324 56999 59004 81817 86272
AAXX 12121 98648 31470 23601 10275 20255 30014 40096 52014 70544 82200 333 10325 56299 58011 82817
AAXX 12121 98746 11462 80000 10275 20230 40101 52026 69921 71384 8397/ 333 10340 56999 58004 83918 88358
AAXX 12121 98751 31470 10901 10230 20209 39430 40103 52030 70544 81100 333 10320 56999 58005 81815
AAXX 12121 98752 11462 10000 10260 20241 40101 52010 60071 70198 81200 333 10346 56999 58001 81818
AAXX 12121 98851 31470 33202 10264 20237 39935 40083 53019 71321 81970 333 10333 56999 59007 81918 83358
BBXX 42369 12121 99272 70903 46/// /0309 1//// 91140 22200 10503 70017
BBXX 42370 12121 99273 70905 46/// ///// 10197 91140 22200 10503 70016
AAXX 1212/ 89872 46/// ///// 11078 39802 4//// 5//// 91220
AAXX 1212/ 89866 46/// ///// 11045 39736 4//// 5//// 91220
AAXX 1212/ 89799 46/// ///// 11238 4//// 5//// 91220
AAXX 1212/ 89332 46/// ///// 11084 39193 4//// 5//// 91220
AAXX 1212/ 89314 46/// ///// 11166 38146 4//// 5//// 91210
AAXX 1212/ 89828 46/// ///// 11310 36422 4//// 5//// 91220
AAXX 1212/ 89879 46/// ///// 11018 39735 4//// 5//// 91220
BBXX A8IZ2 12124 99350 70751 41397 80120 10160 20140 40310 57010 75000 88/// 22244 80150
BBXX 63119 12124 99583 10009 41598 63127 10065 20006 49875 54000 78182 862// 22200 20304 331// 40506 5////
BBXX 42369 12121 99272 70903 46/// /0309 1//// 91140 22200 10503 70017
BBXX 42370 12121 99273 70905 46/// ///// 10197 91140 22200 10503 70016
BBXX VRGW2 12124 99245 11202 41297 60940 10200 20200 40082 53028 70011 8/671 22214 04220 20608 80200
BBXX ZQDI9 12123 99065 10790 41598 73615 10300 20251 40079 56008 71522 8427/ 22233 00285 20404 80265
BBXX 9MBW7 12124 99061 11148 41398 62730 10282 20243 40060 54001 70312 86/// 22254 00297 2//// 80253
BBXX VRGM8 12124 99069 10767 41397 80917 10260 20231 40082 54000 72562 8772/ 22264 00280 20902 311// 41002 80240
BBXX TBWUK37 12121 99067 11150 41/99 /0407 10280 20266 40077 54000 75811 8//// 22253 04300 2//// 80270
BBXX VRGW2 12124 99245 11202 41297 60940 10200 20200 40082 53028 70011 8/671 22214 04220 20608 80200
BBXX ZQDI9 12123 99065 10790 41598 73615 10300 20251 40079 56008 71522 8427/ 22233 00285 20404 80265
BBXX 9MBW7 12124 99061 11148 41398 62730 10282 20243 40060 54001 70312 86/// 22254 00297 2//// 80253
BBXX VRGM8 12124 99069 10767 41397 80917 10260 20231 40082 54000 72562 8772/ 22264 00280 20902 311// 41002 80240
BBXX TBWUK37 12121 99067 11150 41/99 /0407 10280 20266 40077 54000 75811 8//// 22253 04300 2//// 80270
BBXX 42376 12121 99291 70879 46/// /0309 10182 91140 22200 10603 70016
BBXX 42392 12121 99272 70900 46/// ///// 1//// 91140 22200 10503 70016
BBXX 42887 12121 99282 70885 46/// /0808 1//// 91140 22200 10503 70015
AAXX 12121 38838 41497 80000 10012 21005 39662 40356 52024 70282 889//
BBXX AMOUK02 12124 99533 70062 46/// ///// 10067 20016 39953 4//// 5//// 91150
BBXX AMOUK05 12124 99537 70003 46/// ///// 10052 20027 39965 40007 52017 91150
BBXX PJGO 12124 99571 10022 47598 /2515 10075 20034 49922 53003 700// 22200
BBXX 63106 12124 99610 10017 46/// /1909 10059 49841 58013 22200
BBXX 63113 12124 99610 10017 46/// /1909 10062 20021 49840 57015 22200 11006 70031
BBXX 62107 12124 99501 70061 46/// /2229 10106 20042 40067 58023 22200 00120 11311 70055 333 90710 91137
BBXX 62094 12124 99517 70067 46/// /2124 10102 20039 40018 58029 22200 00113 10605 70024 333 90710 91133
BBXX UFLT 12121 99454 11384 42/98 03210 11010 40150 53009 80000 22263 00040 20606 329// 40606
BBXX TBWUK37 12121 99067 11150 41/99 /0407 10280 20266 40077 54000 75811 8//// 22253 04300 2//// 80270
BBXX ZQDI9 12123 99065 10790 41598 73615 10300 20251 40079 56008 71522 8427/ 22233 00285 20404 80265
BBXX VRGM8 12124 99069 10767 41397 80917 10260 20231 40082 54000 72562 8772/ 22264 00280 20902 311// 41002 80240
BBXX VRGW2 12124 99245 11202 41297 60940 10200 20200 40082 53028 70011 8/671 22214 04220 20608 80200
BBXX SHIP 12124 99061 11148 41398 62730 10282 20243 40060 54001 70312 86/// 22254 00297 2//// 80253
BBXX 42887 12121 99282 70885 46/// /0808 1//// 91140 22200 10503 70015
BBXX 42392 12121 99272 70900 46/// ///// 1//// 91140 22200 10503 70016
BBXX 42376 12121 99291 70879 46/// /0309 10182 91140 22200 10603 70016
BBXX A8IZ2 12124 99350 70751 41397 80120 10160 20140 40310 57010 75000 88/// 22244 80150
AAXX 12124 71904 16/// ///// 11117 21124 60001 333 11009 21128 70000
AAXX 12124 71904 16/// ///// 11117 21124 60001 333 11009 21128 70000
AAXX 12124 07690 01580 12318 10157 20080 30087 40120 58029 69921 70186 81800 333 60007 81826 90710 91124 93100 555 60005
AAXX 12124 16061 11650 53304 10056 20056 39295 42750 57015 60001 71022 82230 333 55306 82640 83362
BBXX WKPN 12124 99394 70246 41498 82721 10170 20137 40280 54000 70222 88300 22225 00197 20602 327// 40805 5//// 6//// 80150 /////
AAXX 12124 91375 46/// /0510 10284 40091 22200 00285
AAXX 12124 61902 32584 21414 10270 20186 40143 82800 82822
BBXX 42369 12121 99272 70903 46/// /0309 1//// 91200 22200 10503 70017
BBXX 42370 12121 99273 70905 46/// ///// 10197 91200 22200 10503 70016
AAXX 12124 91165 12566 60519 10230 20194 30145 40182 57018 60011 91153
AAXX 12124 91203 32471 30810 10311 20265 30112 40117 52017 82210
AAXX 12124 91212 32566 40810 10278 20228 31387 40120 51014 91154
AAXX 12124 91245 32566 40614 10270 20220 30171 91155
AAXX 12124 91285 11556 82408 10200 20183 30154 40167 58001 60081 763// 91153
AAXX 12124 91334 32474 80412 10280 20237 30086 40089 52010 82171
AAXX 12124 91348 11474 80605 10275 20236 30061 40113 50003 60011 70282 84101
AAXX 12124 91356 32466 50508 10283 20238 30096 40103 51007 84201
AAXX 12124 91376 32474 40811 10277 20224 30091 40095 50002 82101
AAXX 12124 91408 11473 71308 10272 20253 30052 40090 52008 60021 70282 85901
AAXX 12124 91413 32469 29906 10276 20240 30081 40107 52017 81101
AAXX 12124 91155 NIL
AAXX 12124 91217 NIL
AAXX 12124 91232 NIL
AAXX 12124 91250 NIL
AAXX 12124 91275 NIL
AAXX 12124 91317 NIL
AAXX 12124 91324 NIL
AAXX 12124 91339 NIL
AAXX 12124 91353 NIL
AAXX 12124 91366 NIL
AAXX 12124 91367 NIL
AAXX 12124 91369 NIL
AAXX 12124 91371 NIL
AAXX 12124 91378 NIL
AAXX 12124 91425 NIL
AAXX 12124 91434 NIL
AAXX 12124 91601 NIL
AAXX 12124 91610 NIL
BBXX 42376 12121 99291 70879 46/// /0309 10182 91200 22200 10603 70016
BBXX 42392 12121 99272 70900 46/// ///// 1//// 91200 22200 10503 70016
BBXX 42887 12121 99282 70885 46/// /0808 1//// 91200 22200 10503 70015
BBXX AMOUK03 12124 99537 70003 46/// ///// 10056 20036 39968 4//// 5//// 91150
BBXX AMOUK08 12124 99501 70061 46/// ///// 10114 20057 30061 40069 54002 91150
BBXX 63106 12124 99610 10017 46/// /1909 10059 49841 58013 22200
BBXX 63105 12124 99610 10017 47798 ///// 10065 20023 49840 58013 700// 22200
BBXX 62094 12124 99517 70067 46/// /21// 10102 2//// 40018 58029 22200 00113 10605 70025
BBXX 64049 12123 99571 10022 41597 42530 10080 20080 49908 58101 70211 8/5// 22200 20608 3//// 4//// 5//// 80080
BBXX AMOUK04 12124 99533 70062 46/// ///// 10084 20039 39982 4//// 57010 91150
AAXX 12124 91165 12566 60519 10230 20194 30145 40182 57018 60011 91153
AAXX 12124 91212 32566 40810 10278 20228 31387 40120 51014 91154
AAXX 12124 91285 11556 82408 10200 20183 30154 40167 58001 60081 763// 91153
AAXX 12124 91334 32474 80412 10280 20237 30086 40089 52010 82171
AAXX 12124 91348 11474 80605 10275 20236 30061 40113 50003 60011 70282 84101
AAXX 12124 91356 32466 50508 10283 20238 30096 40103 51007 84201
AAXX 12124 91376 32474 40811 10277 20224 30091 40095 50002 82101
AAXX 12124 91408 11473 71308 10272 20253 30052 40090 52008 60021 70282 85901
AAXX 12124 91413 32469 29906 10276 20240 30081 40107 52017 81101
AAXX 12124 91245 32566 40614 10270 20220 30171 91155
BBXX 42392 12121 99272 70900 46/// ///// 1//// 91200 22200 10503 70016
BBXX 42887 12121 99282 70885 46/// /0808 1//// 91200 22200 10503 70015
BBXX 42376 12121 99291 70879 46/// /0309 10182 91200 22200 10603 70016
BBXX 42369 12121 99272 70903 46/// /0309 1//// 91200 22200 10503 70017
BBXX 42370 12121 99273 70905 46/// ///// 10197 91200 22200 10503 70016
AAXX 12124 71388 46/// /0704 11030 21039 30051 40244 53014 6///1 333 11045 21072 7////
AAXX 12124 71554 17/// /2011 11008 21040 30241 40247 53010 60011 7//4/ 333 11023 21049 70010
AAXX 12124 71554 17/// /2011 11008 21040 30241 40247 53010 60011 7//4/ 333 11023 21049 70010
AAXX 12124 71388 46/// /0704 11030 21039 30051 40244 53014 6///1 333 11045 21072 7////
AAXX 12121 38932 41595 81401 10005 21004 47004 57007 77288 889//
BBXX 42044 12121 99262 70971 46/// /2702 10149 20140 40198 91230 22200 00187 333 91204
BBXX 42045 12121 99262 70965 46/// /1309 10210 40196 91230 22200 00220 333 91211
BBXX 42045 12121 99262 70965 46/// /1409 10210 40195 91200 22200 00220 333 91211
BBXX 42045 12121 99262 70965 46/// /1409 10210 40195 91200 22200 00220 333 91211
BBXX 42045 12121 99262 70965 46/// /1309 10210 40196 91230 22200 00220 333 91211
BBXX 42044 12121 99262 70971 46/// /2702 10149 20140 40198 91230 22200 00187 333 91204
BBXX AMOUK02 12124 99533 70062 46/// ///// 10067 20016 39953 4//// 5//// 91150
BBXX AMOUK05 12124 99537 70003 46/// ///// 10052 20027 39965 40007 52017 91150
BBXX PJGO 12124 99571 10022 47598 /2515 10075 20034 49922 53003 700// 22200
BBXX 63106 12124 99610 10017 46/// /1909 10059 49841 58013 22200
BBXX 63113 12124 99610 10017 46/// /1909 10062 20021 49840 57015 22200 11006 70031
BBXX 62107 12124 99501 70061 46/// /2229 10106 20042 40067 58023 22200 00120 11311 70055 333 90710 91137
BBXX 62094 12124 99517 70067 46/// /2124 10102 20039 40018 58029 22200 00113 10605 70024 333 90710 91133
AAXX 12124 64507 32460 6//// 10285 20250 3//// 40/// 86500 333 0//00 5//// 83613 85630
AAXX 12124 64510 31570 5//// 10298 20200 3//// 4//// 70144 85200 333 0//00 5//// 85820 94939 95839
AAXX 12124 64560 32460 6//// 10278 20232 39559 40091 70132 86200 333 0//00 58002 86810 94919 95839
AAXX 12124 64556 31465 6//// 10293 20208 39516 40094 70142 86200 333 0//00 59005 86813 94929 95839
AAXX 12124 64570 31460 43403 10289 20232 39599 40100 70242 84100 333 0//00 59011 84813 94919
BBXX 42369 12121 99272 70903 46/// /0309 1//// 91220 22200 10503 70017
BBXX 42370 12121 99273 70905 46/// ///// 10197 91220 22200 10503 70016
BBXX 42376 12121 99291 70879 46/// /0309 10182 91220 22200 10603 70016
BBXX 42392 12121 99272 70900 46/// ///// 1//// 91220 22200 10503 70016
BBXX 42887 12121 99282 70885 46/// /0808 1//// 91220 22200 10503 70015
BBXX WRAH 12123 99210 10384 41998 23510 10290 2//// 40122 57018 70500 80005 22274 00281 20201 331// 40403 5//// 6//// 8//// ICE /////
BBXX 42392 12121 99272 70900 46/// ///// 1//// 91220 22200 10503 70016
BBXX 42887 12121 99282 70885 46/// /0808 1//// 91220 22200 10503 70015
BBXX 42376 12121 99291 70879 46/// /0309 10182 91220 22200 10603 70016
BBXX 42370 12121 99273 70905 46/// ///// 10197 91220 22200 10503 70016
BBXX 42369 12121 99272 70903 46/// /0309 1//// 91220 22200 10503 70017
BBXX WKDY 12124 99387 70491 41298 80224 10130 20112 40300 52040 70222 886// 22224 00207 20204 302// 40404 5//// 6//// 80120 ICE /////
BBXX 9V7645 12123 99211 70742 41697 70810 10255 20220 40135 52015 71511 83881 22214 04280 20201 306// 40503 5//// 6//// 80230 ICE /////
BBXX AMOUK03 12124 99537 70003 46/// ///// 10056 20036 39968 4//// 5//// 91150
BBXX AMOUK08 12124 99501 70061 46/// ///// 10114 20057 30061 40069 54002 91150
BBXX 63106 12124 99610 10017 46/// /1909 10059 49841 58013 22200
BBXX 63105 12124 99610 10017 47798 ///// 10065 20023 49840 58013 700// 22200
BBXX 62094 12124 99517 70067 46/// /21// 10102 2//// 40018 58029 22200 00113 10605 70025
BBXX 64049 12123 99571 10022 41597 42530 10080 20080 49908 58101 70211 8/5// 22200 20608 3//// 4//// 5//// 80080
BBXX AMOUK04 12124 99533 70062 46/// ///// 10084 20039 39982 4//// 57010 91150
AAXX 12121 01257 11575 80401 11002 21027 39736 49897 58023 60001 70322 885// 333 91104
BBXX AMOUK02 12124 99533 70062 46/// ///// 10067 20016 39953 4//// 5//// 91150
BBXX AMOUK05 12124 99537 70003 46/// ///// 10052 20027 39965 40007 52017 91150
BBXX PJGO 12124 99571 10022 47598 /2515 10075 20034 49922 53003 700// 22200
BBXX 63106 12124 99610 10017 46/// /1909 10059 49841 58013 22200
BBXX 63113 12124 99610 10017 46/// /1909 10062 20021 49840 57015 22200 11006 70031
BBXX 62107 12124 99501 70061 46/// /2229 10106 20042 40067 58023 22200 00120 11311 70055 333 90710 91137
BBXX 62094 12124 99517 70067 46/// /2124 10102 20039 40018 58029 22200 00113 10605 70024 333 90710 91133
AAXX 12121 28786 /2997 00000 11218 21230 30160 40334 57007 333 11179
BBXX AMOUK03 12124 99537 70003 46/// ///// 10056 20036 39968 4//// 5//// 91150
BBXX AMOUK08 12124 99501 70061 46/// ///// 10114 20057 30061 40069 54002 91150
BBXX 63106 12124 99610 10017 46/// /1909 10059 49841 58013 22200
BBXX 63105 12124 99610 10017 47798 ///// 10065 20023 49840 58013 700// 22200
BBXX 62094 12124 99517 70067 46/// /21// 10102 2//// 40018 58029 22200 00113 10605 70025
BBXX 64049 12123 99571 10022 41597 42530 10080 20080 49908 58101 70211 8/5// 22200 20608 3//// 4//// 5//// 80080
BBXX AMOUK04 12124 99533 70062 46/// ///// 10084 20039 39982 4//// 57010 91150
AAXX 12124 71392 16/// /2407 11020 21051 60001 333 11003 21046 70024
AAXX 12124 48557 32560 40000 10252 20227 30069 40104 52014 82101 333 10315 58000
AAXX 12124 97560 31450 80000 10274 20233 30102 40109 52026 70522 85927 333 10322 56000 57901 57802 58/// 82915 84616 85361 87278 80980 80868
BBXX 42043 12121 99290 70949 46/// /1008 1//// 40237 91230 22200 00158 333 91209
BBXX 42047 12121 99279 70936 46/// /0904 10173 20109 40234 91230 22200 00227 333 91205
AAXX 12124 71514 16/// /0703 11077 21094 39561 40282 51006 60001 333 11018 21086 55/// 20000 70000
BBXX 42047 12121 99279 70936 46/// /0904 10173 20109 40234 91230 22200 00227 333 91205
BBXX 42043 12121 99290 70949 46/// /1008 1//// 40237 91230 22200 00158 333 91209
BBXX AMOUK02 12124 99533 70062 46/// ///// 10067 20016 39953 4//// 5//// 91150
BBXX AMOUK05 12124 99537 70003 46/// ///// 10052 20027 39965 40007 52017 91150
BBXX PJGO 12124 99571 10022 47598 /2515 10075 20034 49922 53003 700// 22200
BBXX 63106 12124 99610 10017 46/// /1909 10059 49841 58013 22200
BBXX 63113 12124 99610 10017 46/// /1909 10062 20021 49840 57015 22200 11006 70031
BBXX 62107 12124 99501 70061 46/// /2229 10106 20042 40067 58023 22200 00120 11311 70055 333 90710 91137
BBXX 62094 12124 99517 70067 46/// /2124 10102 20039 40018 58029 22200 00113 10605 70024 333 90710 91133
AAXX 12124 71322 17/// /2210 11230 21251 30171 40184 58022 60031 7//4/ 333 11264 21300 4/008 70030
BBXX AMOUK03 12124 99537 70003 46/// ///// 10056 20036 39968 4//// 5//// 91150
BBXX AMOUK08 12124 99501 70061 46/// ///// 10114 20057 30061 40069 54002 91150
BBXX 63106 12124 99610 10017 46/// /1909 10059 49841 58013 22200
BBXX 63105 12124 99610 10017 47798 ///// 10065 20023 49840 58013 700// 22200
BBXX 62094 12124 99517 70067 46/// /21// 10102 2//// 40018 58029 22200 00113 10605 70025
BBXX 64049 12123 99571 10022 41597 42530 10080 20080 49908 58101 70211 8/5// 22200 20608 3//// 4//// 5//// 80080
BBXX AMOUK04 12124 99533 70062 46/// ///// 10084 20039 39982 4//// 57010 91150
AAXX 1212/ 68902 46/// ///// 40234 54000
BBXX AMOUK02 12124 99533 70062 46/// ///// 10067 20016 39953 4//// 5//// 91150
BBXX AMOUK05 12124 99537 70003 46/// ///// 10052 20027 39965 40007 52017 91150
BBXX PJGO 12124 99571 10022 47598 /2515 10075 20034 49922 53003 700// 22200
BBXX 63106 12124 99610 10017 46/// /1909 10059 49841 58013 22200
BBXX 63113 12124 99610 10017 46/// /1909 10062 20021 49840 57015 22200 11006 70031
BBXX 62107 12124 99501 70061 46/// /2229 10106 20042 40067 58023 22200 00120 11311 70055 333 90710 91137
BBXX 62094 12124 99517 70067 46/// /2124 10102 20039 40018 58029 22200 00113 10605 70024 333 90710 91133
AAXX 12121 24817 115// 70000 11195 21214 39897 40291 52003 69902 77171 83530 333 11195
BBXX AMOUK03 12124 99537 70003 46/// ///// 10056 20036 39968 4//// 5//// 91150
BBXX AMOUK08 12124 99501 70061 46/// ///// 10114 20057 30061 40069 54002 91150
BBXX 63106 12124 99610 10017 46/// /1909 10059 49841 58013 22200
BBXX 63105 12124 99610 10017 47798 ///// 10065 20023 49840 58013 700// 22200
BBXX 62094 12124 99517 70067 46/// /21// 10102 2//// 40018 58029 22200 00113 10605 70025
BBXX 64049 12123 99571 10022 41597 42530 10080 20080 49908 58101 70211 8/5// 22200 20608 3//// 4//// 5//// 80080
BBXX AMOUK04 12124 99533 70062 46/// ///// 10084 20039 39982 4//// 57010 91150
AAXX 12124 71824 46/// /2903 11024 21027 6///1 333 11025 21058 7////
BBXX ONFW 12124 99352 11198 41197 23605 10100 20100 40290 54/// 70200 8228/ 22200 04120 20201 3//// 4//// 5//// 6//// 80100 ICE /////
BBXX AMOUK02 12124 99533 70062 46/// ///// 10067 20016 39953 4//// 5//// 91150
BBXX AMOUK05 12124 99537 70003 46/// ///// 10052 20027 39965 40007 52017 91150
BBXX PJGO 12124 99571 10022 47598 /2515 10075 20034 49922 53003 700// 22200
BBXX 63106 12124 99610 10017 46/// /1909 10059 49841 58013 22200
BBXX 63113 12124 99610 10017 46/// /1909 10062 20021 49840 57015 22200 11006 70031
BBXX 62107 12124 99501 70061 46/// /2229 10106 20042 40067 58023 22200 00120 11311 70055 333 90710 91137
BBXX 62094 12124 99517 70067 46/// /2124 10102 20039 40018 58029 22200 00113 10605 70024 333 90710 91133
BBXX 52243 12121 99193 11666 46/// ///// 1//// 91200 22200 00265
BBXX 51178 12121 99142 51695 46/// ///// 1//// 91200 22200 00281
BBXX 51174 12121 99142 51697 46/// ///// 1//// 91200 22200 00284
BBXX 51171 12121 99064 71623 46/// ///// 1//// 91200 22200 00279
BBXX 51170 12121 99168 71695 46/// ///// 1//// 91200 22200 00261
BBXX 51169 12121 99004 51600 46/// ///// 1//// 91200 22200 00257
BBXX AMOUK03 12124 99537 70003 46/// ///// 10056 20036 39968 4//// 5//// 91150
BBXX AMOUK08 12124 99501 70061 46/// ///// 10114 20057 30061 40069 54002 91150
BBXX 63106 12124 99610 10017 46/// /1909 10059 49841 58013 22200
BBXX 63105 12124 99610 10017 47798 ///// 10065 20023 49840 58013 700// 22200
BBXX 62094 12124 99517 70067 46/// /21// 10102 2//// 40018 58029 22200 00113 10605 70025
BBXX 64049 12123 99571 10022 41597 42530 10080 20080 49908 58101 70211 8/5// 22200 20608 3//// 4//// 5//// 80080
BBXX AMOUK04 12124 99533 70062 46/// ///// 10084 20039 39982 4//// 57010 91150
BBXX 52243 12121 99193 11666 46/// ///// 1//// 91200 22200 00265
BBXX 51174 12121 99142 51697 46/// ///// 1//// 91200 22200 00284
BBXX 51169 12121 99004 51600 46/// ///// 1//// 91200 22200 00257
BBXX 51178 12121 99142 51695 46/// ///// 1//// 91200 22200 00281
BBXX 51170 12121 99168 71695 46/// ///// 1//// 91200 22200 00261
BBXX 51171 12121 99064 71623 46/// ///// 1//// 91200 22200 00279
AAXX 1212/ 89868 46/// ///// 11053 39796 4//// 5////
AAXX 1212/ 89769 46/// ///// 11055 39820 4//// 5////
AAXX 12124 89614 46/// /0000 11043 29084 38894 4//// 5////
AAXX 12124 89614 46/// /0000 11043 29084 38894 4//// 5////
BBXX AMOUK02 12124 99533 70062 46/// ///// 10067 20016 39953 4//// 5//// 91150
BBXX AMOUK05 12124 99537 70003 46/// ///// 10052 20027 39965 40007 52017 91150
BBXX PJGO 12124 99571 10022 47598 /2515 10075 20034 49922 53003 700// 22200
BBXX 63106 12124 99610 10017 46/// /1909 10059 49841 58013 22200
BBXX 63113 12124 99610 10017 46/// /1909 10062 20021 49840 57015 22200 11006 70031
BBXX 62107 12124 99501 70061 46/// /2229 10106 20042 40067 58023 22200 00120 11311 70055 333 90710 91137
BBXX 62094 12124 99517 70067 46/// /2124 10102 20039 40018 58029 22200 00113 10605 70024 333 90710 91133
AAXX 12121 78090 15/// /0000 10250 30215 40218 69901 91200 222// 00140
AAXX 12124 71352 16/// /1802 11036 21076 39845 40313 53005 60001 333 10004 21053 70007
AAXX 12124 71005 16/// ///// 11089 21107 60001 333 11022 21111 70000
AAXX 12124 71047 16/// ///// 11099 21108 60001 333 11015 21135 70000
AAXX 12124 71507 16/// /2205 11129 21140 60001 333 11072 21143 70000
AAXX 12124 71542 16/// /2902 11185 21203 60001 333 11059 21187 70000
AAXX 12124 71545 17/// ///// 11071 21086 69941 7//4/ 333 11011 21100 70004
AAXX 12124 71271 16/// ///// 11072 21084 60001 333 11013 21097 70000
AAXX 12124 71284 16/// ///// 11109 21116 60001 333 11032 21117 70000
AAXX 12124 71352 16/// /1802 11036 21076 39845 40313 53005 60001 333 10004 21053 70007
AAXX 12124 71005 16/// ///// 11089 21107 60001 333 11022 21111 70000
AAXX 12124 71047 16/// ///// 11099 21108 60001 333 11015 21135 70000
AAXX 12124 71271 16/// ///// 11072 21084 60001 333 11013 21097 70000
AAXX 12124 71284 16/// ///// 11109 21116 60001 333 11032 21117 70000
AAXX 12124 71507 16/// /2205 11129 21140 60001 333 11072 21143 70000
AAXX 12124 71542 16/// /2902 11185 21203 60001 333 11059 21187 70000
AAXX 12124 71545 17/// ///// 11071 21086 69941 7//4/ 333 11011 21100 70004
BBXX AMOUK03 12124 99537 70003 46/// ///// 10056 20036 39968 4//// 5//// 91150
BBXX AMOUK08 12124 99501 70061 46/// ///// 10114 20057 30061 40069 54002 91150
BBXX 63106 12124 99610 10017 46/// /1909 10059 49841 58013 22200
BBXX 63105 12124 99610 10017 47798 ///// 10065 20023 49840 58013 700// 22200
BBXX 62094 12124 99517 70067 46/// /21// 10102 2//// 40018 58029 22200 00113 10605 70025
BBXX 64049 12123 99571 10022 41597 42530 10080 20080 49908 58101 70211 8/5// 22200 20608 3//// 4//// 5//// 80080
BBXX AMOUK04 12124 99533 70062 46/// ///// 10084 20039 39982 4//// 57010 91150
AAXX 12124 03784 46/// /2511 10080 20031 30063 40067 50011 91150
BBXX WFLH 12123 99284 71349 41/98 53013 10167 20098 40230 54000 7//22 8//// 22264 00167 20403 330// 41204 5//// 6//// 80128 ICE /////
BBXX WKAE 12123 99504 10006 41498 42724 10103 20036 40085 51008 70211 84100 22223 00120 20405 3//// 4//// 5//// 6//// 80071 ICE /////
BBXX VRDF2 12123 99391 70236 41696 72823 10230 20185 40270 54000 7//22 87642 22263 00210 20508 332// 40508 5//// 6//// 80200 ICE /////
BBXX WNBE 12124 99209 71564 41/// /0527 10230 2//// 40170 54/// 7//22 8//// 222// 0//// 2//// 3//// 4//// 5//// 6//// 8//// ICE /////
BBXX WDA2768 12124 99417 70874 43/// /2913 00/// 11002 21044 40298 53001 7//// 8//// 22200 0//// 2//// 3//// 4//// 5//// 6//// 81018 ICE /////
BBXX S6SR 12124 99434 50330 41696 81030 10140 20123 40110 51020 76466 887// 22223 00140 2//// 3//// 4//// 5//// 6//// 80130 ICE /////
BBXX VOPM 12124 99433 70794 41/98 02211 10023 2//// 41023 53000 70000 8//// 22223 0//// 2//01 3//// 4//// 5//// 6//// 8//// ICE /////
BBXX C6FY5 12124 99022 50387 41697 30916 10270 2023/ 40120 54/// 7//00 834/8 22273 04280 20202 306// 40202 5//// 6//// 80240 ICE /////
BBXX WKPN 12124 99394 70246 41498 82721 10170 20137 40280 54000 70222 88300 22225 00197 20602 327// 40805 5//// 6//// 80150 ICE /////
BBXX C6TH9 12123 99178 51530 41297 62506 10240 2021/ 40160 54/// 7//11 852// 22254 00250 21002 3//// 4//// 5//// 6//// 80220 ICE /////
AAXX 12124 71382 16/// /2008 11042 21049 39298 40256 53014 60001 333 11055 21080 70030
AAXX 12124 71382 16/// /2008 11042 21049 39298 40256 53014 60001 333 11055 21080 70030
BBXX ELZU3 12120 99376 70265 41297 62507 10180 20164 40321 54000 76211 85762 22264 2//02 330// 4//03 80170
BBXX A8SF9 12124 99444 31726 41698 60422 10140 20132 40098 50002 70122 8603/ 22214 04140 80135
BBXX ELZU3 12120 99376 70265 41297 62507 10180 20164 40321 54000 76211 85762 22264 2//02 330// 4//03 80170
BBXX DFVY2 12124 99077 50340 41698 60712 10280 20224 40130 53018 70211 8/4// 22244 00270 80240
BBXX 9V7645 12123 99211 70742 41697 70810 10255 20220 40135 52015 71511 83881 22214 04280 20201 306// 40503 5//// 6//// 80230 ICE /////
BBXX WRAH 12123 99210 10384 41998 23510 10290 2//// 40122 57018 70500 80005 22274 00281 20201 331// 40403 5//// 6//// 8//// ICE /////
BBXX WKDY 12124 99387 70491 41298 80224 10130 20112 40300 52040 70222 886// 22224 00207 20204 302// 40404 5//// 6//// 80120 ICE /////
BBXX C6VG8 12124 99362 70747 41/96 70427 10130 2//// 40300 53010 78088 87/// 22255 00170 2//// 3//// 4//// 5//// 6//// 8//// ICE /////
BBXX ONFW 12124 99352 11198 41197 23605 10100 20100 40290 54/// 70200 8228/ 22200 04120 20201 3//// 4//// 5//// 6//// 80100 ICE /////
BBXX DFVY2 12124 99077 50340 41698 60712 10280 20224 40130 53018 70211 8/4// 22244 00270 80240
BBXX VOPM 12124 99433 70794 41/98 02211 10023 2//// 41023 53000 70000 8//// 22223 0//// 2//01 3//// 4//// 5//// 6//// 8//// ICE /////
BBXX A8SF9 12124 99444 31726 41698 60422 10140 20132 40098 50002 70122 8603/ 22214 04140 80135
BBXX C6TH9 12123 99178 51530 41297 62506 10240 2021/ 40160 54/// 7//11 852// 22254 00250 21002 3//// 4//// 5//// 6//// 80220 ICE /////
BBXX ELZU3 12120 99376 70265 41297 62507 10180 20164 40321 54000 76211 85762 22264 2//02 330// 4//03 80170
BBXX AMOUK02 12124 99533 70062 46/// ///// 10067 20016 39953 4//// 5//// 91150
BBXX AMOUK05 12124 99537 70003 46/// ///// 10052 20027 39965 40007 52017 91150
BBXX PJGO 12124 99571 10022 47598 /2515 10075 20034 49922 53003 700// 22200
BBXX 63106 12124 99610 10017 46/// /1909 10059 49841 58013 22200
BBXX 63113 12124 99610 10017 46/// /1909 10062 20021 49840 57015 22200 11006 70031
BBXX 62107 12124 99501 70061 46/// /2229 10106 20042 40067 58023 22200 00120 11311 70055 333 90710 91137
BBXX 62094 12124 99517 70067 46/// /2124 10102 20039 40018 58029 22200 00113 10605 70024 333 90710 91133
BBXX C6VG8 12124 99362 70747 41/96 70427 10130 2//// 40300 53010 78088 87/// 22255 00170 2//// 3//// 4//// 5//// 6//// 8//// ICE /////
AAXX 12121 RRA 37756 42999 51303 10104 21009 39399 40294 51003 63052 555 11007
BBXX AMOUK03 12124 99537 70003 46/// ///// 10056 20036 39968 4//// 5//// 91150
BBXX AMOUK08 12124 99501 70061 46/// ///// 10114 20057 30061 40069 54002 91150
BBXX 63106 12124 99610 10017 46/// /1909 10059 49841 58013 22200
BBXX 63105 12124 99610 10017 47798 ///// 10065 20023 49840 58013 700// 22200
BBXX 62094 12124 99517 70067 46/// /21// 10102 2//// 40018 58029 22200 00113 10605 70025
BBXX 64049 12123 99571 10022 41597 42530 10080 20080 49908 58101 70211 8/5// 22200 20608 3//// 4//// 5//// 80080
BBXX AMOUK04 12124 99533 70062 46/// ///// 10084 20039 39982 4//// 57010 91150
AAXX 12124 91723 NIL
AAXX 12124 91964 NIL
AAXX 12121 10791 12788 71804 11001 21001 38458 48406 56011 60001 86052 333 44048 55305 84356 83362 444 27076
AAXX 12124 78846 12582 20106 10284 20/// 30089 40128 82200 333 10279 20224 5//// 82820
BBXX AMOUK02 12124 99533 70062 46/// ///// 10067 20016 39953 4//// 5//// 91150
BBXX AMOUK05 12124 99537 70003 46/// ///// 10052 20027 39965 40007 52017 91150
BBXX PJGO 12124 99571 10022 47598 /2515 10075 20034 49922 53003 700// 22200
BBXX 63106 12124 99610 10017 46/// /1909 10059 49841 58013 22200
BBXX 63113 12124 99610 10017 46/// /1909 10062 20021 49840 57015 22200 11006 70031
BBXX 62107 12124 99501 70061 46/// /2229 10106 20042 40067 58023 22200 00120 11311 70055 333 90710 91137
BBXX 62094 12124 99517 70067 46/// /2124 10102 20039 40018 58029 22200 00113 10605 70024 333 90710 91133
AAXX 12124 71233 16/// /1404 11100 21111 60001 333 11014 21111 70000
AAXX 12124 71766 16/// /2402 11021 21035 30182 40255 58004 60001 333 10059 21024 70004
AAXX 12124 71777 16/// ///// 11125 21137 30035 40297 51005 60001 333 11037 21127 4/005 70000
AAXX 12124 71233 16/// /1404 11100 21111 60001 333 11014 21111 70000
AAXX 12124 71766 16/// /2402 11021 21035 30182 40255 58004 60001 333 10059 21024 70004
AAXX 12124 71777 16/// ///// 11125 21137 30035 40297 51005 60001 333 11037 21127 4/005 70000
BBXX AMOUK03 12124 99537 70003 46/// ///// 10056 20036 39968 4//// 5//// 91150
BBXX AMOUK08 12124 99501 70061 46/// ///// 10114 20057 30061 40069 54002 91150
BBXX 63106 12124 99610 10017 46/// /1909 10059 49841 58013 22200
BBXX 63105 12124 99610 10017 47798 ///// 10065 20023 49840 58013 700// 22200
BBXX 62094 12124 99517 70067 46/// /21// 10102 2//// 40018 58029 22200 00113 10605 70025
BBXX 64049 12123 99571 10022 41597 42530 10080 20080 49908 58101 70211 8/5// 22200 20608 3//// 4//// 5//// 80080
BBXX AMOUK04 12124 99533 70062 46/// ///// 10084 20039 39982 4//// 57010 91150
BBXX LAOX5 12121 99312 11629 41897 81012 00/// 10175 2015/ 40200 54000 70222 884// 22213 00175 20403 330// 40404 80160
BBXX 42046 12121 99279 70940 46/// /1204 1//// 40233 91230 22200 00225 333 91206
BBXX AMOUK02 12124 99533 70062 46/// ///// 10067 20016 39953 4//// 5//// 91150
BBXX AMOUK05 12124 99537 70003 46/// ///// 10052 20027 39965 40007 52017 91150
BBXX PJGO 12124 99571 10022 47598 /2515 10075 20034 49922 53003 700// 22200
BBXX 63106 12124 99610 10017 46/// /1909 10059 49841 58013 22200
BBXX 63113 12124 99610 10017 46/// /1909 10062 20021 49840 57015 22200 11006 70031
BBXX 62107 12124 99501 70061 46/// /2229 10106 20042 40067 58023 22200 00120 11311 70055 333 90710 91137
BBXX 62094 12124 99517 70067 46/// /2124 10102 20039 40018 58029 22200 00113 10605 70024 333 90710 91133
BBXX LAOX5 12121 99312 11629 41897 81012 00/// 10175 20150 40200 54000 70222 884// 22213 00175 20403 330// 40404 80160
BBXX 42046 12121 99279 70940 46/// /1204 1//// 40233 91230 22200 00225 333 91206
BBXX AMOUK03 12124 99537 70003 46/// ///// 10056 20036 39968 4//// 5//// 91150
BBXX AMOUK08 12124 99501 70061 46/// ///// 10114 20057 30061 40069 54002 91150
BBXX 63106 12124 99610 10017 46/// /1909 10059 49841 58013 22200
BBXX 63105 12124 99610 10017 47798 ///// 10065 20023 49840 58013 700// 22200
BBXX 62094 12124 99517 70067 46/// /21// 10102 2//// 40018 58029 22200 00113 10605 70025
BBXX 64049 12123 99571 10022 41597 42530 10080 20080 49908 58101 70211 8/5// 22200 20608 3//// 4//// 5//// 80080
BBXX AMOUK04 12124 99533 70062 46/// ///// 10084 20039 39982 4//// 57010 91150
AAXX 12123 91553 11598 89902 10255 20248 40100 52007 60061 72522 889// 333 10295 563// 58003 60061 84820 81925 88640
AAXX 12123 91553 11598 89902 10255 20248 40100 52007 60061 72522 889// 333 10295 563// 58003 60061 84820 81925 88640
AAXX 12124 91643 11498 73207 10256 20231 40102 50003 69941 71422 83270 333 10286 5679/ 83818 87460
AAXX 12124 97796 01420 80000 10236 20235 30059 40110 52019 60321 76196 8697/ 333 10350 56009 57901 58008 60117 82910 85611 87460 80980
AAXX 12121 24966 11996 00000 11450 21471 39957 40214 58003 69900 71000 333 11422
AAXX 12121 24959 12998 03201 11375 21405 30073 40221 52007 69902 333 11295
BBXX WC5932 12124 99423 70876 43/// /1919 00/// 1//// 2//// 4//// 5//// 7//// 8//// 22233 0//// 2//// 3//// 4//// 5//// 6//// 8//// ICE /////
BBXX WC5932 12124 99423 70876 43/// /1919 00/// 1//// 2//// 4//// 5//// 7//// 8//// 22233 0//// 2//// 3//// 4//// 5//// 6//// 8//// ICE /////
AAXX 12121 25356 41599 83604 11077 21117 39732 49829 52017 70272 885// 333 91006
AAXX 12124 71573 16/// /2101 11065 21075 30021 40313 53001 60001 333 10023 21068 7////
AAXX 12124 71463 46/// /2416 10033 21059 30098 40326 53003 6///1 333 10037 20031 7////
AAXX 12123 91551 31598 80000 10250 20243 4//// 5//// 70222 888// 333 10318 561// 5//// 84820 88640
AAXX 12123 91551 31598 80000 10250 20243 4//// 5//// 70222 888// 333 10318 561// 5//// 84820 88640
BBXX HZRX 12123 99367 70591 41697 80517 /// 10193 20175 40268 56026 70362 88246 22263 10150 20202 30404 40202 5//// 6//// 80140 ///// /////
AAXX 12121 30829 32984 83502 11156 21169 39565 40293 52016 86072 333 11140
BBXX SHIP 12124 99031 11006 41/97 40708 10281 20267 40049 70322 222// 0//// 20100 307// 40101 5////
BBXX SHIP 12124 99031 11006 41/97 40708 10281 20267 40049 70322 222// 0//// 20100 307// 40101 5////
BBXX SHIP 12124 99031 11006 41/97 40708 10281 20267 40049 70322 222// 0//// 20100 307// 40101 5////
AAXX 12121 31137 11998 80000 11410 21431 39093 40289 58003 69902 70272 80005 333 11324
AAXX 12124 41252 36/// /3010 10280 20014 39771 40060 333 0E015 59002
AAXX 12124 41265 36/// /1504 10283 20068 39604 40156 333 0E020 59002
AAXX 12124 71245 46/// /2308 11147 21164 6///1 333 11085 21162 7////
AAXX 12124 41259 36/// /2504 10123 21161 37132 40305 333 0E/// 59004
AAXX 12124 41270 36/70 /0210 10248 20162 30094 40106 333 0E017 59000
AAXX 12124 41295 36/// /3010 10258 20077 39963 40140 333 0E018 59001
AAXX 12124 41257 36/// /0806 10259 20115 39671 40159 333 0E013 58002
AAXX 12124 41258 36/// /2905 10254 20151 30144 40148 333 0E/// 58000
AAXX 12124 41287 36/// /0100 10280 20097 30099 40166 333 0E016 59003
AAXX 12124 41244 36/// /3108 10249 20116 39808 48101 333 0E014 59007
AAXX 12124 41244 36/// /3108 10249 20116 39808 48101 333 0E014 59007
AAXX 12124 41258 36/// /2905 10254 20151 30144 40148 333 0E/// 58000
AAXX 12121 10929 01560 82405 10070 20053 39591 40120 51008 69981 75965 885// 333 31/// 55300 20189 30187 69987 81626 88635 96444
AAXX 12124 41264 36/70 /2105 10274 20051 39765 40126 333 0E017 58000
AAXX 12124 71448 16/// /3605 11072 21090 39930 40272 53021 60001 333 11042 21093 70000
AAXX 12121 10548 01025 81904 10025 20025 39526 40071 55005 60021 75165 886// 333 32/// 55300 20084 30084 60017 88701
BBXX DEFY 12123 99142 70601 41598 31310 10285 20251 40112 51005 70022 83200 22281 02275 80260
AAXX 12124 71196 46/// /1802 11068 21072 30083 40287 5/011 6///1 333 21076 4/002 7////
AAXX 12121 10338 01460 82205 10072 20058 39946 40018 53004 60011 76362 878// 333 31/// 55300 20076 30076 60017 82815 87632
AAXX 12121 10131 01256 82306 10064 20057 39982 49997 53006 69981 75865 877// 333 31/// 55300 20044 30044 69967 87705
AAXX 12124 85836 12570 22306 10122 20059 40289 50003 60004 82100 333 20057 30/// 56060 70000 82830
AAXX 12124 85886 12970 50000 10148 20135 40187 51005 60004 80004 333 20060 30/// 56006 70000 85070
AAXX 12124 85892 12980 52903 10130 20074 40201 52020 60001 80001 333 20068 30/// 56006 70000 85070
AAXX 12124 85934 12580 32821 10118 20046 40057 52011 69904 82130 333 20088 30/// 55063 56660 79999 82820 83359
AAXX 12124 89056 11325 80221 11005 21014 49772 57036 69902 75022 8372/ 333 10002 21005 41099 55000 56669 83707 88459
AAXX 12124 89057 11356 83407 10001 21013 49772 57028 69922 75022 886// 333 10009 21002 44100 56799 88707
AAXX 12124 89058 32570 73411 10010 21016 39769 49790 57021 86540
AAXX 12124 89059 12460 82107 11002 21016 49771 57013 60002 886// 333 10006 21003 42060 55036 70999 88710
AAXX 12124 89251 32562 83615 10017 21020 49774 57030 8652/ 333 20003
AAXX 12124 85574 12960 09901 10192 20072 39590 40135 51003 60004 333 20133 30/// 55128 70000
AAXX 12124 85577 12960 00000 10198 20076 39539 40137 51004 60004 333 20130 30012 50530 55120 70000
AAXX 12124 85585 12597 81921 10161 20098 40218 51006 60004 885// 333 20155 30/// 55003 56499 70000 88623
AAXX 12124 85586 12960 02703 10150 20113 40160 52010 60004 333 20070 30/// 50300 55126
AAXX 12124 85629 12980 02208 10150 20115 40153 51/// 60004 333 20120 30/// 50760 55136 70000
AAXX 12124 85672 12580 21808 101136 20110 40169 52005 60004 82500 333 20087 30/// 55129 5660 70000 82620
AAXX 12124 85682 12965 02204 10149 20102 40172 51003 60004 333 20087 30/// 50630 55133 70000
AAXX 12124 85703 12560 51820 10134 20124 40172 5//// 60004 85400 333 20104 30/// 56400 7//// 85630
AAXX 12124 85743 11460 29903 10128 20122 40192 58009 60004 70340 82400 333 20061 30/// 50340 55090 56600 70000 82610
AAXX 12124 85799 12460 41512 10129 20106 40229 54001 60024 84500 333 20076 30/// 50320 55036 56400 70018 84617
AAXX 12124 85406 12560 83103 10200 20144 40138 53022 60004 885// 333 20188 30/// 55098 56099 70000 88630
AAXX 12124 85418 12965 41805 10194 20130 40133 53008 60004 70200 80001 333 20168 30/// 55107 56000 70000 84080
AAXX 12124 85432 12970 51016 10152 20021 37758 48448 55000 60004 80001 333 20048 30/// 51420 55116 56006 85072
AAXX 12124 85442 12470 29901 10171 20138 40130 53004 60004 81501 333 20136 30/// 55108 56407 70000 81618
AAXX 12124 85469 42562 41204 10189 20146 40208 57008 82130 333 56330 82820 84365
AAXX 12124 85488 12460 72704 10147 20129 40151 53017 60004 87500 333 20114 30006 50170 55064 56600 70000 87610
AAXX 12124 85223 31570 70000 10195 20118 37511 47147 52021 70421 82236 333 20150 30/// 55063 56000 58004 82623 81830 87070
AAXX 12124 85283 11484 70303 10111 20101 37211 47132 52010 60154 70169 82923 333 20085 32007 55065 56100 58012 70146 81610 81927 84457 87070
AAXX 12124 85293 12484 50000 10062 20008 36368 52004 60034 82509 333 20020 30/// 56000 5//// 70033 82617 84170
AAXX 12124 85312 12884 80000 10194 20174 38800 52002 60274 8802/ 333 20178 32/// 55050 56009 58030 70268 88457
AAXX 12124 85345 12584 70000 10254 20205 39626 40081 52007 60174 82105 333 20201 31/// 56000 58018 70174 82820 85070
AAXX 12124 85364 12570 50000 10170 20153 38150 48214 53006 60124 81530 333 20152 31/// 55034 56000 58013 70116 81620 84357
AAXX 12124 85365 32984 30907 10270 20243 39356 40062 51001 80001 333 20220 30/// 56000 58011 83070
AAXX 12124 85394 12984 53604 10255 20231 39662 40095 52006 60034 80001 333 20205 31/// 56000 5//// 70030 85070
AAXX 12124 89262 46/// /2006 11021 21039 39690 49733 57015 91220
OOXX AAPIG 12124 99758 51003 56251 08502 46/// /0927 11167 21275 38769 49762 52004 91150
OOXX AABRI 12124 99839 51342 60134 05251 46/// /2406 11098 21188 39180 49805 5//// 91150
OOXX AAKOM 12124 99795 51121 56392 18332 46/// /0206 11176 21216 37766 49669 52007 91150
OOXX AAERC 12124 99815 31639 60713 00451 46/// /0204 11090 21118 39790 49847 52004 91150
OOXX AAERI 12124 99849 51288 60048 09901 46/// /0822 11146 21163 38717 49857 5//// 91200
OOXX AAPEG 12124 99779 31666 57186 00051 46/// /0805 11078 21099 39848 49854 52002 91200
OOXX AAUNI 12124 99798 50833 56093 07671 46/// /2316 11131 21199 38918 49817 52001 91200
OOXX AALAU 12124 99775 31708 57070 00371 46/// ///01 11101 21105 39810 49857 52007 91150
OOXX AAEMI 12124 99785 31731 57083 00521 46/// /1903 11095 21133 39832 49898 52004 91200
AAXX 12121 10338 01460 82205 10072 20058 39946 40018 53004 60011 76165 878// 333 31/// 55300 20076 30076 60017 82815 87632
AAXX 12121 10131 01256 82306 10064 20057 39982 49997 53006 69981 75866 877// 333 31/// 55300 20044 30044 69967 87705
AAXX 12121 10836 01460 82507 10048 20042 39232 40098 53006 69971 76364 888// 333 41998 55300 20139 30139 69977 83810 88618 91113 96447
AAXX 12121 10895 01015 81602 10006 20006 39536 40116 56016 69911 72854 886// 333 31/// 55300 20294 30292 69907 88701 96010
AAXX 12124 71571 16/// /1912 11105 21119 38950 40172 58020 60001 333 11058 21111 70000
AAXX 12124 71927 16/// /0000 11057 21066 30201 40260 51001 60001 333 10078 21057 70000
AAXX 12121 10980 12589 82706 10009 21059 38072 48418 55000 60001 8707/ 333 44019 55300 20405 30405 86333 87450 91116 91211 95152 444 16086
AAXX 12121 10131 01256 82306 10064 20057 39982 49997 53006 69981 75865 877// 333 31/// 55300 20044 30044 69967 87705
AAXX 12124 71314 16/// /2002 11067 21090 39934 40296 53003 60001 333 10018 21067 4/001 70000
