AAXX 12184 40255 32960 00000 10090 20020 39510 40240 54002 333 10172
BBXX ZMFR 12174 99491 31675 43/// /35// 10118 20117 40100 52005 22221 00101
BBXX V7MO2 12184 99262 70914 41497 80519 10220 20174 40231 57003 7//22 886// 22200 00230 20403 305// 40604 5//// 6//// 80190 ICE /////
AAXX 12184 40272 31957 50706 10082 21035 39396 40253 52008 70500 80001 333 10170 85070
AAXX 12184 40296 32960 00000 10136 20046 40215 54001 333 10208
AAXX 12184 40340 32960 03612 10140 20012 40206 52009 333 10210
BBXX 42362 12181 99278 70907 46/// /0708 10217 20178 40251 91745
BBXX 42363 12181 99282 70892 46/// /0809 10200 20150 40258 91745 333 91209
BBXX 42364 12181 99291 70881 46/// /0508 10189 20150 40261 91745
BBXX PDGS 12184 99099 70847 41398 62705 10260 40120 56010 70122 867// 22200 20100
BBXX WNBE 12184 99209 71564 41398 80326 10230 2//// 40150 50020 71552 8847/ 22200 0//// 2//// 3//// 4//// 5//// 6//// 8//// ICE /////
BBXX C6DM2 12183 99075 10982 418// 50505 10270 20228 40100 50010 7//22 851// 22242 0//// 2//// 3//// 4//// 5//// 6//// 80240 ICE /////
AAXX 12184 08495 12580 72709 10161 20127 30264 40272 52012 60002 875// 91750 333 10175 81625 87635
AAXX 12184 61902 32584 11414 10255 20185 40119 81100 333 10283 58003 81822
BBXX BAREU61 12184 99248 70163 46/// /0524 10198 29074 40213 57004 22254
BBXX 46060 12181 99606 71468 46/// /2909 10024 49888 91750 22200 00060 11203 20601 318// 41203 70016 333 91211 555 11094 22099 31746 42911 61749 286088 288077 282056 281047 270039 282045 82910 91747
BBXX 32012 12181 99197 50856 46/// ///// 1//// 91750 22200 11404 70022
BBXX 46105 12181 99590 71522 46/// ///// 1//// 91750 22200 10706 70028
BBXX 46070 12181 99551 11753 46/// /3306 10002 21039 49828 56010 91750 22200 00042 11006 20502 3//// 41006 70032 333 91208 555 11063 22065 31735 43308 61749 334061 327063 334061 337055 341057 344056 83407 91727
BBXX 44025 12181 99402 70732 46/// /2801 10069 20001 40344 58012 91750 22200 00117 10801 310// 40801 70004 333 91202 555 11013 22013 31748 42702 61749 281011 267007 322007 342004 292009 309005
BBXX 41008 12181 99314 70809 46/// /0209 10138 20136 40279 58009 91750 22200 00167 10804 20804 300// 40902 70020 333 91210 555 11092 22097 31717 40212 61749 017088 016090 020095 023100 026102 024102
BBXX 41012 12181 99300 70805 46/// /0510 10218 40247 54000 91750 22200 00240 333 91212 555 11109 22115 31656 40615 61749 051104 052101 050097 044093 052101 057109
BBXX 41001 12181 99347 70727 46/// ///// 10197 20105 40278 58008 91750 22200 00223 10704 70021
BBXX 41049 12181 99275 70630 46/// /1005 10240 20209 40150 56020 91750 22200 00248 11106 20502 300// 41105 70028 333 91207 555 11054 22056 31725 40908 61749 102051 096059 096060 105054 108060 098057 81106 91701
BBXX 46088 12181 99483 71232 46/// /3306 10039 40251 54000 91750 22200 00080 1//00 70002 333 91208 555 11063 22065 31729 43108 61749 330060 310057 313063 320069 312059 304057
BBXX 46053 12181 99342 71198 46/// /1107 10117 40079 54000 91750 22200 00141 333 91208 555 11075 22078 31650 41109 61749 106070 108070 103072 101072 100071 096067
BBXX 46014 12181 99394 71240 46/// /0203 10079 40103 51007 91750 22200 00102 11207 20401 3//// 41207 70037 333 91205 555 11035 22036 31741 40105 61749 016034 023034 026035 024037 023038 022035
AAXX 12184 81225 11456 60505 10309 20228 40092 69901 71511 86942 333 56199 59003 82918 85830
AAXX 12184 81200 11570 50710 10313 20231 40096 69911 70282 84962 333 56299 58003 81925 83835
AAXX 12184 81202 NIL
AAXX 12184 81209 NIL
AAXX 12184 81251 NIL
AAXX 12184 91334 11474 80408 10278 20238 30064 40067 56010 60011 70282 82171 333 56199 70099 555 91218
AAXX 12184 91334 11474 80408 10278 20238 30064 40067 56010 60011 70282 82171 333 56199 70099 555 91218
AAXX 12184 81225 11456 60505 10309 20228 40092 69901 71511 86942 333 56199 59003 82918 85830
AAXX 12184 81200 11570 50710 10313 20231 40096 69911 70282 84962 333 56299 58003 81925 83835
AAXX 12184 81202 NIL
AAXX 12184 81209 NIL
AAXX 12184 81251 NIL
BBXX DBKV 12181 99176 70218 46/// /0509 10230 20172 40141 57002 22260 00237
BBXX DBBT 12181 99444 30050 46/// /1910 10053 20007 40204 52010 22201 00097
BBXX DBBU 12181 99542 10121 46/// /2608 10066 20059 40039 52028 22220 00064
AAXX 12184 68906 32698 30405 10127 20056 30240 40306 55000 83500 222// 00125 317// 40702 333 10149 20127 91008 555 91030
AAXX 12184 78954 11474 61208 10280 20248 30048 40111 69921 71522 84902 333 10313 20253 58007 82914 84818
AAXX 12184 78954 11474 61208 10280 20248 30048 40111 69921 71522 84902 333 10313 20253 58007 82914 84818
AAXX 12184 89664 32461 79903 11022 21078 39802 49843 58002 83570 333 56440 81610 87360
AAXX 12184 89664 32461 79903 11022 21078 39802 49843 58002 83570 333 56440 81610 87360
AAXX 12184 89664 32461 79903 11022 21078 39802 49843 58002 83570 333 56440 81610 87360
AAXX 12184 96315 11260 70302 10241 20239 40097 60093 76166 83878 333 81703 83620 85465
AAXX 12184 96323 NIL
AAXX 12184 16597 32465 12304 10158 20131 30119 40206 53006 81100 333 10195 81816
BBXX BAREU63 12184 99312 10298 46/// /3412 10174 29066 40242 52001 22222
AAXX 12184 68994 32598 63010 10077 20064 30231 40260 53002 85580 222// 00066 333 10104 20076 91016 555 91026
AAXX 12181 63021 42380 20703 10120 20104 37733 40159 82600 333 59003 82708
AAXX 12184 40270 31950 00000 10080 21030 39329 40252 52005 70500 333 10160
AAXX 12184 61901 169// /1313 10160 20146 39655 40164 56003 60052 91750 333 10184 8//99 555 7/090
AAXX 12184 08583 31550 70620 10253 20155 40140 70522 81532 333 10278 58013 81620 84360 86070
AAXX 12184 08589 31450 70312 10257 20187 40127 70522 81504 333 10282 58012 81615 87070
AAXX 12184 08594 41448 80612 10242 20182 40135 70522 84534 333 10260 58015 84615 85360 86070
AAXX 12184 68392 36/// /1109 10195 20178 30024 4//// 53015 333 10315 20195 91016 555
AAXX 12184 68382 36/// /0804 10199 20171 39317 48498 53015 333 10283 20199 91006 555 91013
AAXX 12184 89009 41461 41206 11337 36786 57003 77671 81608 333 81715 84258
AAXX 12181 48921 NIL
AAXX 12181 48924 NIL
AAXX 12181 48925 NIL
AAXX 12181 48926 NIL
AAXX 12181 48927 NIL
AAXX 12181 48928 NIL
AAXX 12181 48930 31310 50000 10145 20118 39829 40179 52002 71044 83800 333 59020
AAXX 12181 48935 NIL
AAXX 12181 48938 NIL
AAXX 12181 48940 31930 01401 10160 20142 39960 40162 57005 71044 333 59015
AAXX 12181 48941 NIL
AAXX 12181 48944 NIL
AAXX 12181 48945 NIL
AAXX 12181 48946 NIL
AAXX 12181 48947 31510 60902 10142 20112 30026 40199 52010 71044 83560 333 59018
AAXX 12181 48948 NIL
AAXX 12181 48952 NIL
AAXX 12181 48953 NIL
AAXX 12181 48955 31558 23202 10178 20134 30015 40136 57013 71044 82500 333 59025
AAXX 12181 48957 NIL
AAXX 12184 89009 41461 41206 11337 36786 57003 77671 81608 333 81715 84258
AAXX 12184 89514 32998 02910 11032 49798 57006
AAXX 12184 89514 32998 02910 11032 49798 57006
BBXX 46002 12181 99426 71305 46/// ///// 10093 40249 54000 91750 22200 00120 10805 70027
BBXX 46006 12181 99408 71375 46/// /2706 10110 40286 58008 91750 22200 00124 11202 20501 3//// 41202 70012 333 91207 555 11062 22065 31707 42608 61749 269059 259052 262047 257053 259055 257054
BBXX 46084 12181 99566 71361 46/// /2410 10062 20013 40103 53006 91750 22200 00074 11412 20607 300// 41410 70060 333 91212 555 11108 22114 31708 42314 61749 244101 245104 251094 247112 238114 237107
BBXX 46075 12181 99539 71608 46/// /2608 10048 20014 40106 53014 91750 22200 00049 11108 20604 300// 41107 70041 333 91209 555 11080 22085 31723 42811 61749 265075 268081 270081 265086 268083 262084 82710 91659
BBXX 46005 12181 99461 71310 46/// ///02 10072 40259 57009 91750 22200 00099 11003 20401 3//// 41003 70016 333 91203 555 11022 22022
BBXX 46059 12181 99380 71300 46/// /3614 10117 40208 52003 91750 22200 00144 11010 20606 3//// 41008 70048 333 91217 555 11150 22159 31652 43518 61749 354138 355138 357139 358141 357140 353141
BBXX 46080 12181 99580 71500 46/// /2714 10041 21007 49998 51033 91750 22200 00052 11112 20809 3//// 41107 70059 333 91218 555 11153 22163 31656 42721 61749 266146 264146 265148 264161 265159 261160 82718 91703
BBXX 44014 12181 99366 70748 46/// /0607 1//// 40312 58012 91750 22200 00150 10603 20602 311// 40802 70014 333 91208 555 11069 22069 31706 40508 61749 063069 062068 057069 053068 044069 039070
BBXX 41004 12181 99325 70791 46/// /0111 10148 20132 40284 58008 91750 22200 00207 10804 20604 3//// 40802 70021 333 91213 555 11113 22119 31650 40113 61749 009106 009106 011109 012108 015105 018109
BBXX 44009 12181 99385 70747 46/// /0403 10096 40346 58016 91750 22200 00124 10701 20401 300// 40701 70007 333 91204 555 11035 22036 31659 40605 61749 043034 052034 051038 053038 056040 055040
BBXX 44027 12181 99443 70673 46/// /2311 10081 20020 40295 56012 91750 22200 00091 10705 20705 70024 333 91213 555 11117 22125 31717 42214 61749 230109 226111 223108 221111 225110 225109
BBXX 41013 12181 99334 70777 46/// /0210 10154 20142 40284 57012 91750 22200 00210 10704 20704 313// 40901 70019 333 91212 555 11103 22108 31704 40213 61749 021098 018101 025106 025105 025104 026105
BBXX 44065 12181 99404 70737 46/// /2602 10053 21018 40348 57011 91750 22200 00098 10901 312// 40901 70004 333 91203 555 11018 22019 31732 42403 61749 260018 246019 245020 246020 230014 252013 82503 91715
BBXX 44020 12181 99414 70702 46/// /2205 10085 20025 40332 58023 91750 22200 00095 10201 70003 333 91206 555 11052 22055 31740 42606 61749 229050 257047 258047 259051 259050 256049
BBXX 42020 12181 99270 70967 46/// /1408 10235 20181 40216 50003 91750 22200 00240 10603 20603 70017 333 91210 555 11085 22090 31718 41310 61749 137080 136080 134084 136087 136085 137084
BBXX 41044 12181 99217 70587 46/// /1607 10261 20221 40136 56022 91750 22200 00268 11006 20603 300// 41005 70029 333 91208 555 11074 22078 31725 41509 61749 155070 157071 156075 152070 149070 149076 81508 91725
BBXX 42065 12181 99149 70750 46/// /0807 10267 20234 91750 22200 10603 20603 70016 333 91209 555 11077 22082 31702 40712 61749 078072 083071 091065 080065 059069 066065 80610 91702
BBXX 41048 12181 99320 70696 46/// /0713 10210 20165 40221 56024 91750 22200 00229 10807 20705 3//// 40805 70034 333 91216 555 11130 22138 31727 40717 61749 068129 066127 067128 065130 070127 069133 80715 91745
BBXX 42012 12181 99301 70876 46/// /0508 10134 20124 40265 58003 91750 22200 00190 10602 20602 70010 333 91209 555 11080 22083 31652 40709 61749 049076 050075 051073 053073 053072 055075
BBXX 42001 12181 99259 70897 46/// /0505 10238 20199 40234 58003 91750 22200 00241 10804 20401 3//// 40804 70019 333 91206 555 11055 22058 31740 40507 61749 046052 044049 036048 036047 037044 040045
BBXX 42035 12181 99292 70944 46/// /0905 10147 20123 40261 54000 91750 22200 00151 10502 20401 311// 40501 70008 333 91206 555 11052 22054 31711 41008 61749 093050 092056 093059 095064 094065 093061
BBXX 42058 12181 99149 70749 46/// /0808 10276 20232 40105 58016 91750 22200 00279 10503 20502 307// 40701 70013 333 91209 555 11080 22085 31651 40809 61749 084075 080073 077073 082075 090077 084074 80808 91651
BBXX 42060 12181 99163 70635 46/// /0902 10277 20218 40122 58020 91750 22200 00295 10902 300// 40902 70009 333 91203 555 11020 22020 31725 40703 61749 090018 069017 057019 074012 048014 043014 80603 91726
BBXX 42036 12181 99285 70845 46/// /0608 10175 20163 40238 58007 91750 22200 00215 10703 20703 70015 333 91209 555 11081 22085 31712 40610 61749 063077 054077 055077 057078 054075 058071
BBXX 42056 12181 99198 70849 46/// /0508 10267 20222 40166 58006 91750 22200 00275 10703 20703 70017 333 91209 555 11082 22086 31718 40510 61749 051076 050079 050078 052080 057075 058071 80508 91736
BBXX 42059 12181 99151 70675 46/// /1004 10280 20222 40116 58018 91750 22200 00289 10902 20401 3//// 40902 70008 333 91205 555 11042 22043 31700 40905 61749 100040 098041 102042 090038 092042 093040 80905 91700
BBXX 44005 12181 99432 70691 46/// /2210 10071 21001 40309 56021 91750 22200 00090 10603 20603 70016 333 91211 555 11103 22109 31730 42212 61749 218097 218099 221100 222097 217097 222093
BBXX 42040 12181 99292 70882 46/// /0608 10185 40254 50000 91750 22200 00222 10703 20603 309// 40702 70017 333 91209 555 11080 22084 31715 40711 61749 063080 060086 063085 064085 064083 061083
BBXX 42055 12181 99222 70940 46/// /0506 10248 20195 40202 50000 91750 22200 00252 10803 20602 303// 40802 70015 333 91207 555 11068 22072 31738 40408 61749 049065 048062 049062 046061 056058 059059 80507 91741
BBXX 42003 12181 99260 70856 46/// /0606 1//// 91750 22200 10703 20601 305// 40703 70016 333 91207 555 11064 22068 31739 40607 61749 064060 064061 072062 072058 074056 072055 80807 91726
BBXX 42002 12181 99258 70937 46/// /0806 10231 20186 40229 50000 91750 22200 00245 10703 20402 308// 40702 70014 333 91207 555 11062 22066 31732 40809 61749 077063 075070 078068 076067 075071 076071
BBXX 41047 12181 99275 70715 46/// /0611 10241 40184 58018 91750 22200 00254 10906 20705 305// 40904 70030 333 91213 555 11111 22117 31703 40514 61749 055109 050109 045108 050112 053116 052119 80513 91656
BBXX 46011 12181 99350 71210 46/// /1302 10115 40081 54000 91750 22200 00137 11504 328// 41504 70018 333 91203 555 11021 22021 31721 41104 61749 130020 116020 110025 103023 099024 088025
BBXX 46047 12181 99324 71195 46/// /3006 10127 40090 53008 91750 22200 00155 11503 20301 328// 41503 70016 333 91207 555 11059 22061 31719 43008 61749 303056 302065 306064 297064 300063 301064
BBXX 46086 12181 99325 71180 46/// /2205 10130 40085 53003 91750 22200 00154 11603 20401 328// 41603 70017 333 91206 555 11047 22048 31749 42206 61749 224045 228043 229043 243036 226030 218020
BBXX 46027 12181 99419 71244 46/// /0112 10080 40122 54000 91750 22200 00092 10805 20804 330// 41103 70027 333 91213 555 11124 22131 31653 43614 61749 005116 004115 001113 001110 357111 356114
BBXX 46088 12181 99483 71232 46/// /3306 10039 40251 91750 22200 00080 1//00 70002 333 91208 555 11063 22065 31729 43108 61749 330060 310057 313063 320069 312059 304057
BBXX 46050 12181 99442 71246 46/// /0310 10069 40210 52003 91750 22200 00101 10905 20603 332// 40904 70026 333 91212 555 11102 22107 31725 40312 61749 030095 030097 030098 027098 029096 026096
BBXX 46013 12181 99382 71233 46/// /0804 10087 40089 53005 91750 22200 00106 11106 20301 3//// 41106 70032 333 91205 555 11038 22040 31651 40906 61749 076037 070036 072040 076040 077041 079043
BBXX 46012 12181 99374 71229 46/// /0404 10097 40079 55000 91750 22200 00121 11106 20401 332// 41106 70031 333 91206 555 11044 22045 31653 40507 61749 038043 040042 040046 043048 045053 050053
BBXX 46087 12181 99485 71247 46/// /0807 10049 21004 40249 57003 91750 22200 00079 11303 20301 328// 41303 70017 333 91209 555 11075 22078 31725 40809 61749 083072 079075 078075 073071 077070 073069
BBXX 46029 12181 99461 71245 46/// /0705 10053 21014 40236 52003 91750 22200 00074 11204 20301 329// 41204 70021 333 91206 555 11048 22050 31749 40706 61749 066046 056046 050043 048042 040044 043040
BBXX 46054 12181 99342 71204 46/// /3201 10119 40084 52004 91750 22200 00140 11503 20301 300// 41503 70017 333 91202 555 11012 22013 31737 42903 61749 315011 289015 293013 305013 301014 303012
BBXX 46028 12181 99357 71219 46/// /0000 10110 40069 54000 91750 22200 00131 11505 332// 41505 70025 333 91201 555 11003 22003 31711 43103 61749 221004 298012 307012 346013 261010 237012
BBXX 46001 12181 99563 71480 46/// /2514 10052 40058 51021 91750 22200 00049 11312 20706 300// 41311 70061 333 91217 555 11152 22162 31651 42318 61749 254139 255135 256133 255132 253130 255138
BBXX 41043 12181 99211 70650 46/// /1302 10258 20219 40139 56027 91750 22200 00269 11104 20401 300// 41104 70022 333 91203 555 11016 22017 31736 41203 61749 132016 123017 128017 107018 104014 110015 81202 91736
BBXX 41036 12181 99342 70770 46/// ///// 10146 20118 40287 58016 91750 22200 00217 10603 70017
BBXX 44066 12181 99396 70726 46/// /0203 10096 20057 40338 56017 91750 22200 00131 10801 3//// 40801 70006 333 91204 555 11032 22033 31651 40405 61749 020032 021032 030030 038031 039034 037040
BBXX LAVW4 12184 99442 70097 41696 82435 00/// 10155 2013/ 40145 54000 75052 889// 22253 00160 21009 330// 41110 5//// 6////
BBXX NWS0022 12184 99416 70714 43/// /2408 10087 20020 40333 5//// 7//// 8//// 222// 04133 2//// 3//// 4//// 5//// 6//// 8//// ICE /////
BBXX WDC6698 12184 99089 71475 43/// /0705 10320 20281 40120 5//// 7//// 8//// 222// 04266 2//// 3//// 4//// 5//// 6//// 8//// ICE /////
BBXX WABS 12184 99457 71258 41599 10510 10072 20038 40240 56005 70200 811/1 22243 0//// 20402 332// 40806 5//// 6//// 80056 ICE /////
BBXX LAOW5 12184 99103 51191 41497 21022 10270 20228 40155 52015 70200 8218/ 22254 00251 20405 310// 40406 5//// 6//// 80240 ICE /////
BBXX V7HC6 12184 99273 70907 41797 60814 10200 20185 40230 56012 70222 84878 22200 00224 20401 307// 40602 5//// 6//// 80190 ICE /////
BBXX DBKV 12181 99176 70218 46/// /0509 10230 20172 40141 57002 22260 00237
BBXX DBBT 12181 99444 30050 46/// /1910 10053 20007 40204 52010 22201 00097
BBXX BAREU61 12184 99248 70163 46/// /0524 10198 29074 40213 57004 22254
BBXX WAHV 12184 99133 10497 41697 21022 10250 2018/ 40148 51008 70500 81/3/ 22225 00259 2//// 311// 40902 5//// 6//// 80200 ICE /////
BBXX 3FSB4 12184 99396 11721 41497 82933 10100 2006/ 40100 54000 75055 8874/ 22224 0//// 2//// 3//// 4//// 5//// 6//// 80080 ICE /////
BBXX LADR4 12184 99233 11789 41898 40713 00/// 10240 2021/ 40195 54000 70322 84261 22263 00280 20504 3//// 4//// 5//// 6//// 80220
BBXX C6OT4 12184 99274 11695 41398 73504 10235 20220 40081 56008 7//22 877// 22223 04248 20904 327// 41104 5//// 80225
BBXX ZCBZ4 12183 99266 11266 41/// 51805 10210 20169 40233 57020 70022 8//// 22244 20302 31800 40201 50000 80185
BBXX 46070 12181 99551 11753 46/// /3306 10002 21039 49828 56010 91750 22200 00042 11006 20502 3//// 41006 70032 333 91208 555 11063 22065 31735 43308 61749 334061 327063 334061 337055 341057 344056 83407 91727
BBXX WDE9586 12183 99355 11520 41598 72629 10180 2011/ 40115 57020 71322 87460 22234 00210 2//// 3//// 4//// 5//// 6//// 80140 ICE /////
BBXX LAOW5 12184 99103 51191 41497 21022 10270 20228 40155 52015 70200 8218/ 22254 00251 20405 310// 40406 5//// 6//// 80240 ICE /////
BBXX 32012 12181 99197 50856 46/// ///// 1//// 91750 22200 11404 70022
BBXX DGPT2 12184 99248 50467 41598 11619 10250 20199 40085 56005 70300 811// 22213 00230 29902 312// 41205 80215
BBXX 41012 12181 99300 70805 46/// /0510 10218 40247 54000 91750 22200 00240 333 91212 555 11109 22115 31656 40615 61749 051104 052101 050097 044093 052101 057109
BBXX V7DI7 12183 99443 70438 41597 73137 10045 2002/ 40240 52010 70222 877// 22262 00070 20408 331// 40608 5//// 6//// 80035 ICE /////
BBXX SHIP 12184 99318 71271 41597 53535 10140 20085 40160 54000 78088 854// 22223 00190 20606 302// 40706 5//// 6//// 80110 ICE /////
BBXX SHIP 12184 99399 70351 41/96 92721 10170 20137 40270 56005 72002 89/// 91745 22224 0//// 1//// 20606 331// 40506 5//// 6//// 80150 /////
BBXX WPGK 12184 99221 70672 41498 50609 10283 2022/ 40117 57013 71521 853// 22244 00267 20600 307// 40504 5//// 6//// 80239 ICE /////
BBXX KGTY 12184 99586 71459 43897 82445 10050 2001/ 49990 5//// 7//// 8822/ 22273 00033 20921 32725 41018 51221 6//// 80033 ICE /////
BBXX C6QK 12183 99359 70458 41598 72416 10210 2018/ 40290 54000 70322 85263 22254 20302 80190
BBXX MVQP8 12184 99292 70946 41497 70712 10155 20118 40271 50009 70300 8575/ 22200 04180 2//01 307// 4//01 5//// 80135
BBXX 42364 12181 99291 70881 46/// /0508 10189 20150 40261 91745
BBXX 42362 12181 99278 70907 46/// /0708 10217 20178 40251 91745
BBXX 42363 12181 99282 70892 46/// /0809 10200 20150 40258 91745 333 91209
BBXX DBBU 12181 99542 10121 46/// /2608 10066 20059 40039 52028 22220 00064
BBXX LAVW4 12184 99442 70097 41696 82435 00/// 10155 2013/ 40145 54000 75052 889// 22253 00160 21009 330// 41110 5//// 6//// ICE//
BBXX 46002 12181 99426 71305 46/// ///// 10093 40249 54000 91750 22200 00120 10805 70027
BBXX 46075 12181 99539 71608 46/// /2608 10048 20014 40106 53014 91750 22200 00049 11108 20604 300// 41107 70041 333 91209 555 11080 22085 31723 42811 61749 265075 268081 270081 265086 268083 262084 82710 91659
BBXX 46080 12181 99580 71500 46/// /2714 10041 21007 49998 51033 91750 22200 00052 11112 20809 3//// 41107 70059 333 91218 555 11153 22163 31656 42721 61749 266146 264146 265148 264161 265159 261160 82718 91703
BBXX 46084 12181 99566 71361 46/// /2410 10062 20013 40103 53006 91750 22200 00074 11412 20607 300// 41410 70060 333 91212 555 11108 22114 31708 42314 61749 244101 245104 251094 247112 238114 237107
BBXX 46006 12181 99408 71375 46/// /2706 10110 40286 58008 91750 22200 00124 11202 20501 3//// 41202 70012 333 91207 555 11062 22065 31707 42608 61749 269059 259052 262047 257053 259055 257054
BBXX 46059 12181 99380 71300 46/// /3614 10117 40208 52003 91750 22200 00144 11010 20606 3//// 41008 70048 333 91217 555 11150 22159 31652 43518 61749 354138 355138 357139 358141 357140 353141
BBXX 46005 12181 99461 71310 46/// ///02 10072 40259 57009 91750 22200 00099 11003 20401 3//// 41003 70016 333 91203 555 11022 22022
BBXX KABL 12184 99397 70610 41598 80822 10110 2005/ 40350 54000 7//22 886// 22224 00230 21003 309// 41003 5//// 6//// 80080 ICE /////
BBXX SHIP 12184 99341 71504 41698 62305 10180 2015/ 40280 5//// 70152 8528/ 22263 00190 20802 330// 41302 5//// 6//// 80160 ICE /////
BBXX DGTX 12183 99349 71293 41597 43630 10140 20064 40190 52010 70211 844// 22254 00180 20808 335// 40807 80100
BBXX LAYG5 12184 99522 71767 41597 81630 10040 21040 49870 56040 70322 88/// 22252 00077 20804 324// 4//// 5//// 80010
BBXX LAJS6 12184 99500 71510 41598 63013 10050 2000/ 40205 55005 70321 85365 22224 00060 20804 325// 41405 80030
BBXX WABS 12184 99457 71258 41599 10510 10072 20038 40240 56005 70200 811/1 22243 0//// 20402 332// 40806 5//// 6//// 80056 ICE /////
BBXX KGTZ 12184 99518 71380 41497 82919 10067 2004/ 40185 54000 70222 886// 22224 00083 20401 326// 41006 5//// 6//// 80056 ICE /////
BBXX 46105 12181 99590 71522 46/// ///// 1//// 91750 22200 10706 70028
BBXX 46014 12181 99394 71240 46/// /0203 10079 40103 51007 91750 22200 00102 11207 20401 3//// 41207 70037 333 91205 555 11035 22036 31741 40105 61749 016034 023034 026035 024037 023038 022035
BBXX 46088 12181 99483 71232 46/// /3306 10039 40251 54000 91750 22200 00080 1//00 70002 333 91208 555 11063 22065 31729 43108 61749 330060 310057 313063 320069 312059 304057
BBXX 46053 12181 99342 71198 46/// /1107 10117 40079 54000 91750 22200 00141 333 91208 555 11075 22078 31650 41109 61749 106070 108070 103072 101072 100071 096067
BBXX 41008 12181 99314 70809 46/// /0209 10138 20136 40279 58009 91750 22200 00167 10804 20804 300// 40902 70020 333 91210 555 11092 22097 31717 40212 61749 017088 016090 020095 023100 026102 024102
BBXX 44025 12181 99402 70732 46/// /2801 10069 20001 40344 58012 91750 22200 00117 10801 310// 40801 70004 333 91202 555 11013 22013 31748 42702 61749 281011 267007 322007 342004 292009 309005
BBXX 46060 12181 99606 71468 46/// /2909 10024 49888 91750 22200 00060 11203 20601 318// 41203 70016 333 91211 555 11094 22099 31746 42911 61749 286088 288077 282056 281047 270039 282045 82910 91747
BBXX 41049 12181 99275 70630 46/// /1005 10240 20209 40150 56020 91750 22200 00248 11106 20502 300// 41105 70028 333 91207 555 11054 22056 31725 40908 61749 102051 096059 096060 105054 108060 098057 81106 91701
BBXX 41001 12181 99347 70727 46/// ///// 10197 20105 40278 58008 91750 22200 00223 10704 70021
AAXX 12181 76040 32960 72101 10136 30083 40097 52005 87006 91747 333 10139 20099 30/// 56009 59053 87098 98660
AAXX 12181 76055 32980 02702 10185 20063 30070 40089 52005 91740 333 10201 20125 30/// 58///
AAXX 12181 76113 22780 83401 10102 20094 39656 40108 52020 88800 91745 333 10130 20100 32/// 56700 59042 60057 88750
AAXX 12181 76225 32760 72004 10145 20065 38612 40143 50002 87020 91745 333 10145 20050 30/// 56050 59027 87450
AAXX 12181 76305 31670 72403 10204 20105 30142 40150 52021 82450 91740 333 10207 20159 30/// 56550 59008 82630 85358
AAXX 12181 76323 32870 80401 10154 21004 38264 40216 50000 85036 91745 333 10164 20050 30/// 56055 59027 85357 83268
AAXX 12181 76342 31360 80401 10096 20070 39533 40267 57003 70222 887// 91750 333 10105 20060 31/// 561// 59039 88710
AAXX 12181 76382 32980 71103 10208 20120 38910 40173 57004 80004 91745 333 10218 20090 30/// 56005 59025 87076
AAXX 12181 76390 31965 22207 10168 20073 38244 40153 52008 70544 80006 91730 333 10186 20116 30/// 56005 59011 82070
AAXX 12181 76423 32982 21801 10201 20012 38171 40181 54001 80007 91739 333 10211 20060 30/// 56004 58016 81095
AAXX 12181 76458 32970 01704 10250 20182 30157 40162 58002 91740 333 10267 20135 30/// 58008
AAXX 12181 76491 32960 20201 10188 20176 39827 40224 57006 80004 91745 333 10192 20120 31/// 56009 59050
AAXX 12181 76539 31962 00000 10142 20065 38195 40232 52010 70544 91745 333 10167 20048 30/// 58004
AAXX 12181 76543 32575 32002 10254 20161 30191 40224 58015 81130 91735 333 10256 20165 30/// 56330 59031 81834
AAXX 12181 76548 32575 12102 10236 20169 30217 40227 50001 81100 91740 333 10238 20164 30/// 56400 59018 81826
AAXX 12181 76556 32970 50000 10240 20120 39138 40171 50007 80006 91730 333 10251 20122 30/// 56006 58010 85270
AAXX 12181 76577 32970 02305 10186 20147 38067 40189 50003 91740 333 10191 20081 30/// 59002
AAXX 12181 76581 32970 50001 10212 20136 39085 40199 54000 85060 91750 333 10221 20117 30/// 56020 59015 85360
AAXX 12181 76585 32680 20901 10220 20183 30055 40214 50000 82200 91735 333 10230 20164 30/// 562// 59021 82833
AAXX 12181 76625 32950 03203 10187 20078 38164 40174 57002 91740 333 10187 20091 30/// 58001
AAXX 12181 76632 31957 01703 10157 20093 37656 40170 52002 70500 91740 333 10190 20064 30/// 58008
AAXX 12181 76634 31970 02601 10208 20024 37869 40206 57008 70500 80000 91750 333 10214 20048 30/// 56/// 59010
AAXX 12181 76683 32968 01801 10184 20086 37850 40240 56009 91745 333 10195 20035 30/// 58006
AAXX 12181 76685 32960 01202 10198 20021 37891 40196 57002 80000 91740 333 10200 20048 30/// 58004
AAXX 12181 76750 32560 73002 10260 20218 30168 40178 57008 87600 91750 333 10268 20190 30/// 56800 58002 87720
AAXX 12181 76762 32904 03201 10260 20210 38776 40164 54000 91735 333 10120 30/// 58004
AAXX 12181 76773 31968 02801 10232 20117 38441 40193 57015 7054/ 91748 333 10235 20051 30/// 58001
AAXX 12181 76775 31970 03401 10236 20075 38548 40211 57015 70200 91730 333 10238 20058 30/// 59001
AAXX 12181 76805 32570 12102 10292 20231 30147 40151 50002 81100 91745 333 10318 20216 30/// 567// 58019 81830
AAXX 12181 76833 32970 03610 10298 20149 30142 40144 57012 91745 333 10298 20220 30/// 58003 92023
AAXX 12181 76840 32550 10406 10284 20174 30090 40146 57007 81100 91730 333 10290 20180 30/// 56100 58002 81827
AAXX 12181 76843 32565 13602 10244 20160 39525 40173 57015 81100 91735 333 10250 20162 30/// 569// 58005 81830
AAXX 12181 76845 32960 03603 10180 20137 37966 40205 56008 91745 333 10192 20038 30/// 58007
AAXX 12181 76903 32980 02302 10329 20182 30000 40130 57008 91740 333 10339 20222 30/// 58011
AAXX 12181 76160 11562 51601 10160 20112 39901 40151 52015 70252 885// 91730 333 10160 20150 30/// 56500 58/// 69907 88630
AAXX 12181 76243 11370 80701 10100 20089 39931 40235 57001 69931 70252 887// 91740 333 10106 20070 31/// 568// 59050 88707
AAXX 12181 76253 32682 82303 10184 20115 30059 40149 54002 88400 91750 333 10190 20160 30/// 59023 88634 92002
AAXX 12181 76311 32580 80000 10178 20122 39885 40168 52013 884// 91745 333 10180 20108 30/// 565// 59006 88625
AAXX 12181 76405 32675 61802 10240 20185 30137 40157 50008 85210 91750 333 10240 20196 30/// 56440 59002 85837
AAXX 12181 76412 31966 02501 10264 20138 300118 40163 57013 70544 91745 333 10264 20118 30/// 59011
BBXX BAREU08 12184 99181 70690 46/// ///// 40128 22233
BBXX BAREU05 12184 99360 70060 46/// ///// 40277 22262
AAXX 12181 76040 32960 72101 10136 30083 40097 52005 87006 91747 333 10139 20099 30/// 56009 59053 87098 98660
AAXX 12181 76055 32980 02702 10185 20063 30070 40089 52005 91740 333 10201 20125 30/// 58///
AAXX 12181 76113 22780 83401 10102 20094 39656 40108 52020 88800 91745 333 10130 20100 32/// 56700 59042 60057 88750
AAXX 12181 76225 32760 72004 10145 20065 38612 40143 50002 87020 91745 333 10145 20050 30/// 56050 59027 87450
AAXX 12181 76305 31670 72403 10204 20105 30142 40150 52021 82450 91740 333 10207 20159 30/// 56550 59008 82630 85358
AAXX 12181 76323 32870 80401 10154 21004 38264 40216 50000 85036 91745 333 10164 20050 30/// 56055 59027 85357 83268
AAXX 12181 76342 31360 80401 10096 20070 39533 40267 57003 70222 887// 91750 333 10105 20060 31/// 561// 59039 88710
AAXX 12181 76382 32980 71103 10208 20120 38910 40173 57004 80004 91745 333 10218 20090 30/// 56005 59025 87076
AAXX 12181 76390 31965 22207 10168 20073 38244 40153 52008 70544 80006 91730 333 10186 20116 30/// 56005 59011 82070
AAXX 12181 76423 32982 21801 10201 20012 38171 40181 54001 80007 91739 333 10211 20060 30/// 56004 58016 81095
AAXX 12181 76458 32970 01704 10250 20182 30157 40162 58002 91740 333 10267 20135 30/// 58008
AAXX 12181 76491 32960 20201 10188 20176 39827 40224 57006 80004 91745 333 10192 20120 31/// 56009 59050
AAXX 12181 76539 31962 00000 10142 20065 38195 40232 52010 70544 91745 333 10167 20048 30/// 58004
AAXX 12181 76543 32575 32002 10254 20161 30191 40224 58015 81130 91735 333 10256 20165 30/// 56330 59031 81834
AAXX 12181 76548 32575 12102 10236 20169 30217 40227 50001 81100 91740 333 10238 20164 30/// 56400 59018 81826
AAXX 12181 76556 32970 50000 10240 20120 39138 40171 50007 80006 91730 333 10251 20122 30/// 56006 58010 85270
AAXX 12181 76577 32970 02305 10186 20147 38067 40189 50003 91740 333 10191 20081 30/// 59002
AAXX 12181 76581 32970 50001 10212 20136 39085 40199 54000 85060 91750 333 10221 20117 30/// 56020 59015 85360
AAXX 12181 76585 32680 20901 10220 20183 30055 40214 50000 82200 91735 333 10230 20164 30/// 562// 59021 82833
AAXX 12181 76625 32950 03203 10187 20078 38164 40174 57002 91740 333 10187 20091 30/// 58001
AAXX 12181 76632 31957 01703 10157 20093 37656 40170 52002 70500 91740 333 10190 20064 30/// 58008
AAXX 12181 76634 31970 02601 10208 20024 37869 40206 57008 70500 80000 91750 333 10214 20048 30/// 56/// 59010
AAXX 12181 76683 32968 01801 10184 20086 37850 40240 56009 91745 333 10195 20035 30/// 58006
AAXX 12181 76685 32960 01202 10198 20021 37891 40196 57002 80000 91740 333 10200 20048 30/// 58004
AAXX 12181 76750 32560 73002 10260 20218 30168 40178 57008 87600 91750 333 10268 20190 30/// 56800 58002 87720
AAXX 12181 76762 32904 03201 10260 20210 38776 40164 54000 91735 333 10120 30/// 58004
AAXX 12181 76773 31968 02801 10232 20117 38441 40193 57015 7054/ 91748 333 10235 20051 30/// 58001
AAXX 12181 76775 31970 03401 10236 20075 38548 40211 57015 70200 91730 333 10238 20058 30/// 59001
AAXX 12181 76805 32570 12102 10292 20231 30147 40151 50002 81100 91745 333 10318 20216 30/// 567// 58019 81830
AAXX 12181 76833 32970 03610 10298 20149 30142 40144 57012 91745 333 10298 20220 30/// 58003 92023
AAXX 12181 76840 32550 10406 10284 20174 30090 40146 57007 81100 91730 333 10290 20180 30/// 56100 58002 81827
AAXX 12181 76843 32565 13602 10244 20160 39525 40173 57015 81100 91735 333 10250 20162 30/// 569// 58005 81830
AAXX 12181 76845 32960 03603 10180 20137 37966 40205 56008 91745 333 10192 20038 30/// 58007
AAXX 12181 76903 32980 02302 10329 20182 30000 40130 57008 91740 333 10339 20222 30/// 58011
AAXX 12181 76160 11562 51601 10160 20112 39901 40151 52015 70252 885// 91730 333 10160 20150 30/// 56500 58/// 69907 88630
AAXX 12181 76243 11370 80701 10100 20089 39931 40235 57001 69931 70252 887// 91740 333 10106 20070 31/// 568// 59050 88707
AAXX 12181 76253 32682 82303 10184 20115 30059 40149 54002 88400 91750 333 10190 20160 30/// 59023 88634 92002
AAXX 12181 76311 32580 80000 10178 20122 39885 40168 52013 884// 91745 333 10180 20108 30/// 565// 59006 88625
AAXX 12181 76405 32675 61802 10240 20185 30137 40157 50008 85210 91750 333 10240 20196 30/// 56440 59002 85837
AAXX 12181 76412 31966 02501 10264 20138 300118 40163 57013 70544 91745 333 10264 20118 30/// 59011
AAXX 12181 76040 32960 72101 10136 30083 40097 52005 87006 91747 33310139 20099 30/// 56009 59053 87098 98660
AAXX 12181 76055 32980 02702 10185 20063 30070 40089 52005 91740 33310201 20125 30/// 58///
AAXX 12181 76113 22780 83401 10102 20094 39656 40108 52020 88800 91745333 10130 20100 32/// 56700 59042 60057 88750
AAXX 12181 76225 32760 72004 10145 20065 38612 40143 50002 87020 91745333 10145 20050 30/// 56050 59027 87450
AAXX 12181 76305 31670 72403 10204 20105 30142 40150 52021 82450 91740333 10207 20159 30/// 56550 59008 82630 85358
AAXX 12181 76323 32870 80401 10154 21004 38264 40216 50000 85036 91745333 10164 20050 30/// 56055 59027 85357 83268
AAXX 12181 76342 31360 80401 10096 20070 39533 40267 57003 70222 887//91750 333 10105 20060 31/// 561// 59039 88710
AAXX 12181 76382 32980 71103 10208 20120 38910 40173 57004 80004 91745333 10218 20090 30/// 56005 59025 87076
AAXX 12181 76390 31965 22207 10168 20073 38244 40153 52008 70544 8000691730 333 10186 20116 30/// 56005 59011 82070
AAXX 12181 76423 32982 21801 10201 20012 38171 40181 54001 80007 91739333 10211 20060 30/// 56004 58016 81095
AAXX 12181 76458 32970 01704 10250 20182 30157 40162 58002 91740 33310267 20135 30/// 58008
AAXX 12181 76491 32960 20201 10188 20176 39827 40224 57006 80004 91745333 10192 20120 31/// 56009 59050
AAXX 12181 76539 31962 00000 10142 20065 38195 40232 52010 70544 91745333 10167 20048 30/// 58004
AAXX 12181 76543 32575 32002 10254 20161 30191 40224 58015 81130 91735333 10256 20165 30/// 56330 59031 81834
AAXX 12181 76548 32575 12102 10236 20169 30217 40227 50001 81100 91740333 10238 20164 30/// 56400 59018 81826
AAXX 12181 76556 32970 50000 10240 20120 39138 40171 50007 80006 91730333 10251 20122 30/// 56006 58010 85270
AAXX 12181 76577 32970 02305 10186 20147 38067 40189 50003 91740 33310191 20081 30/// 59002
AAXX 12181 76581 32970 50001 10212 20136 39085 40199 54000 85060 91750333 10221 20117 30/// 56020 59015 85360
AAXX 12181 76585 32680 20901 10220 20183 30055 40214 50000 82200 91735333 10230 20164 30/// 562// 59021 82833
AAXX 12181 76625 32950 03203 10187 20078 38164 40174 57002 91740 33310187 20091 30/// 58001
AAXX 12181 76632 31957 01703 10157 20093 37656 40170 52002 70500 91740333 10190 20064 30/// 58008
AAXX 12181 76634 31970 02601 10208 20024 37869 40206 57008 70500 8000091750 333 10214 20048 30/// 56/// 59010
AAXX 12181 76683 32968 01801 10184 20086 37850 40240 56009 91745 33310195 20035 30/// 58006
AAXX 12181 76685 32960 01202 10198 20021 37891 40196 57002 80000 91740333 10200 20048 30/// 58004
AAXX 12181 76750 32560 73002 10260 20218 30168 40178 57008 87600 91750333 10268 20190 30/// 56800 58002 87720
AAXX 12181 76762 32904 03201 10260 20210 38776 40164 54000 91735 33310120 30/// 58004
AAXX 12181 76773 31968 02801 10232 20117 38441 40193 57015 7054/ 91748333 10235 20051 30/// 58001
AAXX 12181 76775 31970 03401 10236 20075 38548 40211 57015 70200 91730333 10238 20058 30/// 59001
AAXX 12181 76805 32570 12102 10292 20231 30147 40151 50002 81100 91745333 10318 20216 30/// 567// 58019 81830
AAXX 12181 76833 32970 03610 10298 20149 30142 40144 57012 91745 33310298 20220 30/// 58003 92023
AAXX 12181 76840 32550 10406 10284 20174 30090 40146 57007 81100 91730333 10290 20180 30/// 56100 58002 81827
AAXX 12181 76843 32565 13602 10244 20160 39525 40173 57015 81100 91735333 10250 20162 30/// 569// 58005 81830
AAXX 12181 76845 32960 03603 10180 20137 37966 40205 56008 91745 33310192 20038 30/// 58007
AAXX 12181 76903 32980 02302 10329 20182 30000 40130 57008 91740 33310339 20222 30/// 58011
AAXX 12181 76160 11562 51601 10160 20112 39901 40151 52015 70252 885//91730 333 10160 20150 30/// 56500 58/// 69907 88630
AAXX 12181 76243 11370 80701 10100 20089 39931 40235 57001 69931 70252887// 91740 333 10106 20070 31/// 568// 59050 88707
AAXX 12181 76253 32682 82303 10184 20115 30059 40149 54002 88400 91750333 10190 20160 30/// 59023 88634 92002
AAXX 12181 76311 32580 80000 10178 20122 39885 40168 52013 884// 91745333 10180 20108 30/// 565// 59006 88625
AAXX 12181 76405 32675 61802 10240 20185 30137 40157 50008 85210 91750333 10240 20196 30/// 56440 59002 85837
AAXX 12181 76412 31966 02501 10264 20138 300118 40163 57013 70544 91745 333 10264 20118 30/// 59011
BBXX 46002 12181 99426 71305 46/// ///// 10093 40249 54000 91750 22200 00120 10805 70027
BBXX 46005 12181 99461 71310 46/// ///02 10072 40259 57009 91750 22200 00099 11003 20401 3//// 41003 70016 333 91203 555 11022 22022
BBXX 46006 12181 99408 71375 46/// /2706 10110 40286 58008 91750 22200 00124 11202 20501 3//// 41202 70012 333 91207 555 11062 22065 31707 42608 61749 269059 259052 262047 257053 259055 257054
BBXX 46012 12181 99374 71229 46/// /0404 10097 40079 55000 91750 22200 00121 11106 20401 332// 41106 70031 333 91206 555 11044 22045 31653 40507 61749 038043 040042 040046 043048 045053 050053
BBXX 46013 12181 99382 71233 46/// /0804 10087 40089 53005 91750 22200 00106 11106 20301 3//// 41106 70032 333 91205 555 11038 22040 31651 40906 61749 076037 070036 072040 076040 077041 079043
BBXX 46014 12181 99394 71240 46/// /0203 10079 40103 51007 91750 22200 00102 11207 20401 3//// 41207 70037 333 91205 555 11035 22036 31741 40105 61749 016034 023034 026035 024037 023038 022035
BBXX 46028 12181 99357 71219 46/// /0000 10110 40069 54000 91750 22200 00131 11505 332// 41505 70025 333 91201 555 11003 22003 31711 43103 61749 221004 298012 307012 346013 261010 237012
BBXX 46050 12181 99442 71246 46/// /0310 10069 40210 52003 91750 22200 00101 10905 20603 332// 40904 70026 333 91212 555 11102 22107 31725 40312 61749 030095 030097 030098 027098 029096 026096
BBXX 46054 12181 99342 71204 46/// /3201 10119 40084 52004 91750 22200 00140 11503 20301 300// 41503 70017 333 91202 555 11012 22013 31737 42903 61749 315011 289015 293013 305013 301014 303012
BBXX KGTY 12184 99586 71459 43897 82445 10050 20010 49990 5//// 7//// 8822/ 22273 00033 20921 32725 41018 51221 6//// 80033 ICE /////
BBXX WABS 12184 99457 71258 41599 10510 10072 20038 40240 56005 70200 811/1 22243 0//// 20402 332// 40806 5//// 6//// 80056 ICE /////
AAXX 12184 81405 01563 60809 10291 20233 30081 40090 60021 70286 85830 333 60007 59006 85821 555 60005
AAXX 12181 33815 32597 81304 10050 20032 30014 40224 57008 885// 333 10061 555 80015
BBXX DBFR 12181 99550 10189 46/// /2014 10041 20030 40049 57005/ 22271 00074
BBXX DBBC 12185 99535 10086 46/// +2005 10047 2//// 40056 52021 22250 00055
BBXX DBBA 12181 99536 10086 46/// ///// 10055 20027 40053 52020 22220 00052
BBXX DBEB 12185 99539 10079 41/// /2313 10058 20057/40036 52020 / 7//// 22200 00067
BBXX DBEA 12181 99540 10083 46/// /2313 10058 20031 40037 52019 22221 00048
BBXX DBFH 12181 99540 10084 46/// /2211 10057 20034 40039 52017 22222 00051
BBXX DBJM 12181 99540 10085 46/// /2113 10052 20031 40049 52030 22271 00043
BBXX DBKR 12181 99541 10121 46/// /2505 10066 20066 40036 52029 22200 00058
BBXX DBND 12181 99/// ///// 46/// ///// 10055 20028 40045 52020 22220 00075
BBXX DBCK 12181 99/// ///// 46/// ///// 10056 20056 40046 52021 22220 00063
BBXX DBBI 12185 99536 10086 46/// /2206 10056 20045 40053 52020 22200 00455
AAXX 12184 81405 01563 60809 10291 20233 30081 40090 60021 70286 85830 333 60007 59006 85821 555 60005
AAXX 12184 85832 12980 12804 10232 20058 40176 57022 60001 80001 333 56000 81070
AAXX 12184 85836 12970 12309 10235 20065 40226 57023 60001 80001 333 56007 81070
AAXX 12184 85864 12980 41808 10216 20083 40181 57009 60001 80001 333 56006 84070
AAXX 12184 85886 12970 32921 10272 20159 40139 57011 60001 80004 333 56006 83070
AAXX 12184 85892 12980 22006 10228 20072 40164 57012 60001 80001 333 56006 82070
AAXX 12184 85934 12580 52729 10152 20046 40092 52021 60001 83140 333 56660 83820 83359
AAXX 12184 85968 12660 52719 10153 20069 40006 52016 60001 85100 333 56600 85845
AAXX 12184 89056 11358 82930 10018 20005 49735 50006 60023 71076 887// 333 56799 88707 93101
AAXX 12184 89057 11460 82328 10020 20002 49720 57005 60063 72675 888// 333 56799 86810 88613 91138 93105
AAXX 12184 89058 11462 82927 10020 20013 39709 49730 57015 60041 76075 8272/
AAXX 12184 89059 11430 80611 10008 21011 49712 57032 60033 77172 884// 333 71099 88616 93103
AAXX 12184 89251 31358 82924 10019 20008 49723 52004 71022 8651/
AAXX 12184 85574 12960 02112 10302 20060 39568 40091 57010 60001
AAXX 12184 85585 11598 81915 10169 20110 40215 54001 69921 70382 885// 333 56499 88627
AAXX 12184 85586 12960 02307 10190 20130 40152 56004 60001
AAXX 12184 85629 12980 01807 10268 20118 40114 57010 60001
AAXX 12184 85672 13980 02107 10262 20109 40132 57018 60001 333
AAXX 12184 85682 12962 02415 10219 20126 40144 57013 60001
AAXX 12184 85743 11960 02307 10244 20135 40156 58018 60001 70400
AAXX 12184 85799 12560 11613 10177 20116 40209 57010 60001 81100 333 56400 81825
AAXX 12184 85406 12980 02212 10235 20129 40124 55011 60001
AAXX 12184 85418 12570 12316 10215 20133 40131 58014 60001 81500 333 56000 81625
AAXX 12184 85432 12970 02419 10240 20020 37742 48401 56005 60001
AAXX 12184 85442 12570 11811 10194 20128 40125 58005 60001 81500 333 56400 81620
AAXX 12184 85469 42560 10710 10245 20134 40215 52001 81100 333 5620 81820
AAXX 12184 85488 12460 12911 10192 20132 40126 58014 60001 81500 333 56000 81615
AAXX 12184 91376 11474 50615 10279 20232 30076 40080 55003 69901 70282 83801 333 561/9 70013 555 91218
AAXX 12184 78384 11460 60613 10284 20231 40152 60031 70282 83102 333 10291 20238 58008 70030 83816 85075 90954
AAXX 12184 78383 12460 60608 10285 20223 40152 60001 81202 333 10291 20242 58010 70000 81818 85075
AAXX 12184 78384 11460 60613 10284 20231 40152 60031 70282 83102 333 10291 20238 58008 70030 83816 85075 90954
AAXX 12184 78383 12460 60608 10285 20223 40152 60001 81202 333 10291 20242 58010 70000 81818 85075
AAXX 12183 91802 NIL
AAXX 12183 91809 NIL
AAXX 12183 91831 36/// /0303 ///// ///// 10261 20237 40168 52007
AAXX 12183 91841 36/// /0203 10264 20228 40153 52018 555 20002
AAXX 12183 91843 31499 50000 10275 20247 40146 52018 60001 70222 85201 333 564/9 82818 85079
AAXX 12183 91848 NIL
AAXX 12184 91376 11474 50615 10279 20232 30076 40080 55003 69901 70282 83801 333 561/9 70013 555 91218
BBXX 41101 12184 99146 70562 46/// /1011 10275 20242 40106 57022 22200 00275 10805 70023
BBXX 61001 12184 99434 10078 46/// /2630 10148 20063 40106 52006 22200 00158 10605 70025 555 1/040
BBXX BAREU11 12184 99057 70801 46/// ///// 40125 57012 22283
BBXX BAREU54 12184 99158 70727 46/// ///// 40114 57020 22253
BBXX BAREU06 12184 99400 70392 46/// ///// 40274 52022 22264
BBXX BAREU00 12184 99404 70701 46/// ///// 40339 57015 22223
BBXX BAREU62 12184 99376 10241 46/// ///// 40222 57002 22254
BBXX BAREU04 12184 99535 70046 46/// ///// 49834 57103 22214
AAXX 12184 78862 11476 79902 10271 20231 30098 40121 60071 72522 86802 333 10292 20222 58010 85815
AAXX 12184 MPO 1218/1318 SHRA FEW012CB BKN015 BECMG 1312/1314 10008KT
AAXX 12184 TAF TQPF 121600Z 1218/1318 VRB04KT 9999 SCT016 PROB30 TEMPO 1218/1318 SHRA FEW012CB BKN015 BECMG 1312/1314 10008KT
AAXX 12184 TAF TKPN 121600Z 1218/1318 VRB04KT 9999 SCT016 PROB30 TEMPO 1218/1318 SHRA FEW012CB BKN015 BECMG 1312/1314 10008KT
AAXX 12184 TAF TUPJ 121600Z 1218/1318 VRB04KT 9999 SCT016 PROB30 TEMPO 1218/1318 SHRA FEW012CB BKN015 BECMG 1312/1314 10008KT
AAXX 12184 EMPO 0600/0624 SHRA BKN015=+TSRA SCT012CB
AAXX 12184 TAF TUPJ 041000Z 04012/0512 07008KT 9999 SCT016 BKN038 SCT270 TEMPO 0412/0512 SHRA BKN015 PROB40 TEMPO 0418/0512 5000 SHRA BKN014 BKN036 PROB30 0420/0512 4000 TSRA FEW012CB
AAXX 12184 918 4000 TSRA FEW012CB
AAXX 12184 N015 BKN036 PROB40 TEMPO 0704/0724 3000 +TSRA SCT011CB BKN012 BECMG 0712/0714 14008KT
AAXX 12184 21/2712 07017G28KT 5000 SHRA BKN015 BKN036 PROB TEMPO 2700/2712 4000 TSRA FEW013CB
AAXX 12184 PROB30 TEMPO 0800/0806 4000 TSRA FEW012CB PROB40 TEMPO 0800/0824 2000 +SHRA/TSRA SCT010CB BKN012 BKN250
AAXX 12184 78862 11476 79902 10271 20231 30098 40121 60071 72522 86802 333 10292 20222 58010 85815
AAXX 12184 MPO 1218/1318 SHRA FEW012CB BKN015 BECMG 1312/1314 10008KT
AAXX 12184 TAF TQPF 121600Z 1218/1318 VRB04KT 9999 SCT016 PROB30 TEMPO 1218/1318 SHRA FEW012CB BKN015 BECMG 1312/1314 10008KT
AAXX 12184 TAF TKPN 121600Z 1218/1318 VRB04KT 9999 SCT016 PROB30 TEMPO 1218/1318 SHRA FEW012CB BKN015 BECMG 1312/1314 10008KT
AAXX 12184 TAF TUPJ 121600Z 1218/1318 VRB04KT 9999 SCT016 PROB30 TEMPO 1218/1318 SHRA FEW012CB BKN015 BECMG 1312/1314 10008KT
AAXX 12184 EMPO 0600/0624 SHRA BKN015=+TSRA SCT012CB
AAXX 12184 TAF TUPJ 041000Z 04012/0512 07008KT 9999 SCT016 BKN038 SCT270 TEMPO 0412/0512 SHRA BKN015 PROB40 TEMPO 0418/0512 5000 SHRA BKN014 BKN036 PROB30 0420/0512 4000 TSRA FEW012CB
AAXX 12184 918 4000 TSRA FEW012CB
AAXX 12184 N015 BKN036 PROB40 TEMPO 0704/0724 3000 +TSRA SCT011CB BKN012 BECMG 0712/0714 14008KT
AAXX 12184 21/2712 07017G28KT 5000 SHRA BKN015 BKN036 PROB TEMPO 2700/2712 4000 TSRA FEW013CB
AAXX 12184 PROB30 TEMPO 0800/0806 4000 TSRA FEW012CB PROB40 TEMPO 0800/0824 2000 +SHRA/TSRA SCT010CB BKN012 BKN250
AAXX 12184 78862 11476 79902 10271 20231 30098 40121 60071 72522 86802 333 10292 20222 58010 85815
AAXX 12184 MPO 1218/1318 SHRA FEW012CB BKN015 BECMG 1312/1314 10008KT
AAXX 12184 TAF TQPF 121600Z 1218/1318 VRB04KT 9999 SCT016 PROB30 TEMPO 1218/1318 SHRA FEW012CB BKN015 BECMG 1312/1314 10008KT
AAXX 12184 TAF TKPN 121600Z 1218/1318 VRB04KT 9999 SCT016 PROB30 TEMPO 1218/1318 SHRA FEW012CB BKN015 BECMG 1312/1314 10008KT
AAXX 12184 TAF TUPJ 121600Z 1218/1318 VRB04KT 9999 SCT016 PROB30 TEMPO 1218/1318 SHRA FEW012CB BKN015 BECMG 1312/1314 10008KT
AAXX 12184 EMPO 0600/0624 SHRA BKN015=+TSRA SCT012CB
AAXX 12184 TAF TUPJ 041000Z 04012/0512 07008KT 9999 SCT016 BKN038 SCT270 TEMPO 0412/0512 SHRA BKN015 PROB40 TEMPO 0418/0512 5000 SHRA BKN014 BKN036 PROB30 0420/0512 4000 TSRA FEW012CB
AAXX 12184 918 4000 TSRA FEW012CB
AAXX 12184 N015 BKN036 PROB40 TEMPO 0704/0724 3000 +TSRA SCT011CB BKN012 BECMG 0712/0714 14008KT
AAXX 12184 21/2712 07017G28KT 5000 SHRA BKN015 BKN036 PROB TEMPO 2700/2712 4000 TSRA FEW013CB
AAXX 12184 PROB30 TEMPO 0800/0806 4000 TSRA FEW012CB PROB40 TEMPO 0800/0824 2000 +SHRA/TSRA SCT010CB BKN012 BKN250
AAXX 12184 78700 NIL
AAXX 12184 78703 11450 82910 10224 20210 30172 40174 58009 60031 72065 8572/ 333 10240 20205 31/// 56199 58007 89710 88457
AAXX 12184 78704 11350 82805 10216 2020130161 40166 57013 60181 72165 8542/ 333 10236 20197 31/// 56699 58008 81708 84618 88457
AAXX 12184 78705 11570 82303 10235 20177 30164 40182 58009 60011 71554 8442/ 333 10236 20198 31/// 56789 59001 84824 88458
AAXX 12184 78706 31560 70902 10230 20212 30190 40195 52005 70544 85270 333 10230 20184 30/// 56400 58010 85824 87458
AAXX 12184 78707NIL
AAXX 12184 78708 31560 73305 10262 20204 30147 40177 58012 70544 81130 333 10262 20207 30/// 56800 58001 81825 87358
AAXX 12184 78711 31560 73612 10280 20220 30128 40143 58010 70544 82201 333 10280 20222 30/// 56800 82828 87075
AAXX 12184 78714 NIL
AAXX 12184 78717 31560 70203 10194 20142 37984 40174 58008 70544 86110 333 10202 20144 30/// 56880 58006 86825 86458
AAXX 12184 78718 31660 13412 10250 70544 81430 333 10254 20164 30/// 56800 81840
AAXX 12184 78719 32570 20614 10182 20126 38366 40147 56006 82101 333 10182 20112 30/// 56100 58003 82826
AAXX 12184 78720 31565 73614 10237 20150 39046 40128 58016 70544 82138 333 10237 20153 30/// 56884 58001 82827 86273
AAXX 12184 78724 32578 50316 10321 20200 30055 40112 51012 82101 333 10321 20238 30/// 56100 58009 82832 83075
AAXX 12184 48698 01464 73502 10253 20242 30089 40108 60001 70522 83832 333 60007 81815 86363
AAXX 12184 48698 01464 73502 10253 20242 30089 40108 60001 70522 83832 333 60007 81815 86363
AAXX 12184 86011 32670 42712 10338 20243 39911 40067 57018 83806 333 83840 84270
AAXX 12184 86033 01570 73009 10266 20214 39988 40082 58011 60021 71722 87900 333 60027 87633 81940
AAXX 12184 86065 NIL
AAXX 12184 86068 32670 50000 10364 20195 39881 40065 58009 84230 333 84840 81358
AAXX 12184 86086 32670 41403 10364 20153 39970 40056 57025 82101 333 82840 82270
AAXX 12184 86097 31570 63616 10310 20184 39443 40063 57015 70292 84863 333 84827 85358 86070
AAXX 12184 86128 32670 22703 10364 20192 39944 40052 57019 82100 333 82840
AAXX 12184 86134 32670 42304 10362 20195 39972 40055 57021 84200 333 84840
AAXX 12184 86170 NIL
AAXX 12184 86185 32570 40000 10348 20217 39982 40072 57010 84200 333 84833
AAXX 12184 86192 32570 30000 10348 20199 39879 40078 57014 83200 333 83820
AAXX 12184 86210 32670 41410 10334 20170 39723 40052 57021 83202 333 83840 81070
AAXX 12184 86218 32570 51607 10348 20163 39976 40078 57016 84201 333 84833 82070
AAXX 12184 86221 32970 20000 10352 20200 39966 40095 57015 80005 333 82270
AAXX 12184 86233 32670 21802 10340 20185 39906 40089 56002 82100 333 82840
AAXX 12184 86234 NIL
AAXX 12184 86246 32670 42606 10346 20186 39798 40071 57015 84200 333 84840
AAXX 12184 86251 32970 62704 10330 20158 39899 40060 57006 80004
AAXX 12184 86255 32670 61802 10330 20229 30025 40094 55001 81278 333 81827 83357 82070
AAXX 12184 86260 32570 40000 10334 20153 39930 40076 56014 82076 333 82358
AAXX 12184 86268 32970 50604 10330 20191 39923 40081 56002 80004 333 85270
AAXX 12184 86285 32970 02308 10350 20182 39800 40070 58019
AAXX 12184 86297 32570 62303 10340 20206 39960 40060 57020 82806 333 82827 85270
AAXX 12184 78925 11558 63605 10269 20244 40114 57024 60021 78086 8686/ 333 10316 20226 58006 82820 84633
BBXX 46082 12181 99597 71434 46/// ///// 10042 20042 49955 51021 91750 22200 00064 11518 70091
BBXX 46072 12181 99517 71722 46/// /1315 10052 20020 49941 56074 91750 22200 00054 11107 20805 3//// 41104 70034 333 91218 555 11161 22172 31748 41418 61749 130151 131146 132141 133135 136137 135135 81316 91747
BBXX 42039 12181 99288 70860 46/// /0608 10193 40242 58008 91750 22200 00233 10603 20603 70015 333 91210 555 11080 22083 31721 40710 61749 062075 069071 067075 067078 064084 068078 80609 91707
BBXX 41040 12181 99145 70530 46/// /1006 10278 20228 40119 58025 91750 22200 00280 10905 20502 3//// 40904 70024 333 91207 555 11062 22065 31743 41007 61749 095058 093055 087057 092057 090054 086056 81006 91712
BBXX 44007 12181 99435 70701 46/// /2108 10060 21005 40299 56024 91750 22200 00088 10402 20402 70009 333 91210 555 11089 22093 31731 42011 61749 209085 211089 209087 210085 207084 206084
BBXX 46026 12181 99378 71228 46/// /0607 10089 40082 55000 91750 22200 00112 11505 20602 328// 41505 70027 333 91209 555 11078 22082 31702 42910 61749 052074 286068 286078 285074 284082 289082
AAXX 12184 78925 11558 63605 10269 20244 40114 57024 60021 78086 8686/ 333 10316 20226 58006 82820 84633
AAXX 12181 12772 11412 80000 10026 20019 39872 40162 58003 60012 76064 886// 333 10027 4/000 88713
AAXX 12181 12822 36/// /1302 10072 20050 39981 40124 52005 333 10090
AAXX 12181 12843 11658 80302 10044 20032 39971 40143 58005 69912 70322 8657/ 333 10045 4/000 86633
AAXX 12181 12882 31975 71602 10080 20060 30024 40156 57004 70122 85072 333 10102 4/000
AAXX 12181 12925 36/// /0000 10064 20052 39957 40129 55003 333 10089
AAXX 12181 12942 11658 80902 10079 20075 39891 40136 58005 60012 76062 8357/ 333 10093 4/000 83640
AAXX 12181 12982 31765 81505 10082 20058 30045 40146 57005 76021 8457/ 333 10120 4/000 84656
BBXX 51205 12181 99210 71564 46/// ///// 1//// 91748 22200 00241 11106 21005 310// 41104 70030
BBXX 46244 12181 99409 71244 46/// ///// 1//// 91735 22200 00095 11008 21006 331// 41104 70038
AAXX 12184 68352 36/// /1310 10252 20040 39024 48483 52016 333 10364 20251 91021 555 91011
BBXX 51004 12181 99175 71524 46/// /0706 10245 20228 91750 555 11062 22066
BBXX 51002 12181 99171 71578 46/// /0808 10247 40146 51014 91750 22200 00252 333 91210 555 11081 22086 31651 40811 61749 079077 077081 077084 081083 078086 075085
BBXX 46237 12181 99378 71226 46/// ///// 1//// 91740 22200 00113 11404 21002 326// 41404 70022
BBXX 46212 12181 99408 71243 46/// ///// 1//// 91742 22200 00097 11107 20906 331// 41104 70036
BBXX 46217 12181 99342 71194 46/// ///// 1//// 91742 22200 00143 11502 21001 327// 41501 70008
AAXX 12184 78897 12580 53606 10285 20210 40120 56017 60001 84830 333 0235/ 10314 20217 58015 70010 83823 83366
BBXX 46211 12181 99469 71242 46/// ///// 1//// 91736 22200 00085 11404 20803 327// 41402 70018
AAXX 12181 01003 NIL
AAXX 12181 01007 11689 81602 11067 21109 39952 49962 54000 69952 70272 8805/ 333 11050 91103
AAXX 12181 01028 NIL
AAXX 12181 01047 11430 81803 11162 21186 39638 40020 57003 69912 71042 886// 333 11125
AAXX 12181 01049 NIL
AAXX 12181 01078 11375 72203 11013 21036 39989 40002 52004 60002 70222 85210 333 10033 91109
AAXX 12181 01102 46/// /1212 10022 21031 39842 49861 57022 333 10029 91114
AAXX 12181 01160 NIL
AAXX 12181 01218 NIL
AAXX 12181 01238 46/// /1607 11027 21052 38743 49859 53002 333 11018 91115
AAXX 12181 01241 11686 71506 10032 21006 39824 49835 56011 60002 70222 81578 333 10032 91112
AAXX 12181 01281 NIL
AAXX 12181 01338 16/// /1105 10021 20009 39812 49878 58004 60002 333 10024 91108
AAXX 12181 01359 NIL
AAXX 12181 01397 NIL
AAXX 12181 01400 NIL
AAXX 12181 01427 16/// /2510 10075 20032 39913 49929 53004 60042 333 10077 91115
AAXX 12181 01447 NIL
AAXX 12181 01448 46/// ///// 10060 20032 39923 49933 52003 333 10077
AAXX 12184 78897 12580 53606 10285 20210 40120 56017 60001 84830 333 0235/ 10314 20217 58015 70010 83823 83366
AAXX 12181 01001 11575 63506 11011 21038 39946 49958 58015 60002 70222 84430 333 11005 91110
AAXX 12181 01008 16/// /1005 11065 21096 39931 49965 57000 6//// 333 11049 91106
AAXX 12181 01010 11989 41207 10003 21061 39916 49932 57022 60002 70120 83031 333 10015 91111
AAXX 12181 01026 NIL
AAXX 12181 01055 46/// /1704 10002 21019 39974 49992 57007 333 10030 91106
AAXX 12181 01062 NIL
AAXX 12181 01098 11475 62504 11007 21020 39985 40003 52009 60042 70182 86300 333 10015 91109
AAXX 12181 01115 11882 41111 10021 21036 39866 49886 58022 60002 70111 84070 333 10024 91116
AAXX 12181 01152 11889 30911 11004 21066 39889 49905 58020 60002 70111 81071 333 10012 91114
AAXX 12181 01205 NIL
AAXX 12181 01212 16/// /2215 10051 20021 39820 49835 50000 6//// 333 10064 91121
AAXX 12181 01271 16/// /0701 10032 21025 39829 49849 56010 69902 333 10042 91107
AAXX 12181 01288 11570 81405 10011 21032 39135 49868 55006 60022 70283 885// 333 10016 91115
AAXX 12181 01300 NIL
AAXX 12181 01317 11482 61605 10042 20017 39865 49880 50004 60092 70298 83870 333 10053 91110
AAXX 12181 01367 NIL
AAXX 12181 01384 11158 81703 10008 20005 39662 49909 56011 60152 76876 886// 333 10026 91111
AAXX 12181 01403 11580 4//// 1//// 2//// 39826 52005 60032 70281 84900
AAXX 12181 01415 16/// /2406 10070 20015 39900 49911 51007 6//// 333 10072 91112
AAXX 12181 01482 46/// /2409 1//// 2//// 39910 49917 55000 333 91117
AAXX 12181 01492 NIL
AAXX 12184 97180 32457 61101 10262 20257 30061 40079 56013 81232 333 56000 81819 84360
AAXX 12184 85406 12980 02212 10235 20129 40124 55011 60001
AAXX 12184 85418 12570 12316 10215 20133 40131 58014 60001 81500 333 56000 81625
AAXX 12184 85432 12970 02419 10240 20020 37742 48401 56005 60001
AAXX 12184 85442 12570 11811 10194 20128 40125 58005 60001 81500 333 56400 81620
AAXX 12184 85469 42560 10710 10245 20134 40215 52001 81100 333 5620 81820
AAXX 12184 85488 12460 12911 10192 20132 40126 58014 60001 81500 333 56000 81615
BBXX CGDS 12184 99447 70755 46/// /2318 10045 21020 4//// 5//// 7//// 8//// 22200 0//// 2////
BBXX BATFR03 12184 99500 70006 46/// /2037 10102 20057 40062 22284
AAXX 12181 10004 NIL
AAXX 12181 10015 01463 62412 10068 20043 30022 40032 51015 69942 78086 86900 222// 02066 333 10081 20049 31004 55300 20000 30000 69917 83815 82917 85650 91119 91213
AAXX 12181 10020 07580 62407 10056 20043 39977 40009 51014 60032 72365 333 10068 20033 3/003 55300 20000 30000 69927 81/22 85/42 86/56 91117 91211
AAXX 12181 10035 01580 32204 10037 20023 39972 40031 51024 60022 72065 83500 333 10056 20016 32001 55300 20000 30000 40938 69907 83628
AAXX 12181 10055 01580 32509 10056 20040 30020 40030 53030 60022 70161 81571 333 10061 20022 32002 55300 20000 30000 69937 81633 91113 91211
AAXX 12181 10147 11975 02405 10049 20028 30040 40058 51032 60032 70161 333 10071 20030 31002 55300 20000 30000 40894
AAXX 12181 10162 07467 72507 10057 20042 39971 40054 51036 60032 70065 333 10064 20009 3/000 55300 20000 30000 69957 86/16 87/20 87/31
AAXX 12181 10184 01358 82303 10061 20053 30023 40031 53017 60042 76162 877// 333 10061 20001 32100 55300 20000 30000 60037 87709
AAXX 12181 10200 12984 02105 10052 20029 30057 40055 51017 60012 333 10071 20040 32004 55300 20000 30000
AAXX 12181 10224 11680 72205 10052 20023 30064 40070 51022 60012 70361 878// 333 10077 20038 31002 55300 20000 30000 81835 87650
AAXX 12181 10270 06460 82503 10061 20054 30012 40067 52028 60032 222// 06052 333 10062 20015 3/001 55300 60027 85/11 87/19 88/60
AAXX 12181 10338 11570 22404 10050 20019 30016 40089 51031 60022 70261 82100 333 10080 20049 31003 55300 20000 30000 82828
AAXX 12181 10361 01575 52803 10055 20026 39987 40091 51040 69992 70162 83130 333 10075 20027 31002 55300 20000 30000 69907 83829
AAXX 12181 10393 01560 82205 10054 20041 39946 40073 53019 69912 76062 875// 333 10059 20001 31101 55300 20000 30000 69917 87625
AAXX 12181 10400 02784 12106 10050 20021 30061 40111 51018 60032 81500 333 10080 20050 31003 55300 20000 30000 69907 81650
AAXX 12181 10438 17960 01901 10014 20006 39837 40123 51035 60052 70065 333 10067 20010 3/102 55300
AAXX 12181 10469 11585 82505 10069 20042 39935 40100 53039 69902 70362 878// 333 10078 20041 31003 55300 83825 84635 87650
AAXX 12181 10488 12581 82507 10076 20034 39819 40099 53027 69902 875// 333 10078 20027 31002 55300 20000 30000 41204 83624 87635 91113
AAXX 12181 10506 11481 62506 10031 20009 39548 40137 51019 60042 70281 86500 333 10065 20025 31001 55300 20000 30000 82616 85630 96480
AAXX 12181 10548 01475 22602 10031 20005 39586 40133 51035 60032 70186 81230 333 10050 20015 31000 55300 20000 30000 69927 81816 96480 96451
AAXX 12181 10637 11984 02205 10046 20012 30010 40150 51035 60022 70160 333 10088 20043 31002 55300 96461
AAXX 12181 10685 01375 82605 10037 20026 39444 40121 53028 60032 72165 885// 333 10043 20009 31100 55300 20000 30000 60027 85709 87620 96258 96251 96463 96461 96451
AAXX 12181 10738 01587 32203 10043 20016 39700 40176 53033 69992 70186 82801 333 10079 20026 31001 55300 69907 81825 83080 91114 91211 96480 96460
AAXX 12181 10763 01665 72703 10051 20035 39761 40146 53035 60042 72586 875// 333 10064 20029 31002 55300 20000 30000 69927 84644 87656
AAXX 12181 10788 07331 70802 10024 20024 39714 40153 53023 69962 72365 333 10025 20009 3/001 55300 20000 30000 69927 83/08 87/14 87/20
AAXX 12181 10852 01688 32704 10044 20026 39594 40169 53040 69962 70161 81530 333 10069 20000 31000 55300 20000 30000 69947 81640 83363
AAXX 12181 10946 07464 72103 10026 20018 39344 40187 51032 60062 75765 333 10047 21001 3/102 55300 20000 30000 60027 87/13 87/20
BBXX BATFR56 12184 99062 30781 44598 42809 10280 20239 40105 51011 70300 83802 22253 00299 20602 324// 40602 5////
BBXX BATFR41 12184 99430 10063 46/// /2923 10137 20017 40157 51041 22262
BBXX BATFR15 12184 99386 70160 46/// /2616 10162 20109 40250 55001 22254 00175
BBXX BATEU07 12184 99359 31507 46/// /2029 10169 40062 53001 22244
BBXX PHQX 12183 99443 70452 41298 82914 10068 20004 40295 56005 70200 8775/ 22214 20806 331// 41006 5//// 80040
BBXX BATFR13 12184 99258 70516 44998 31324 10252 20195 40208 50004 70111 83333 22214 00257 20402 309// 41006 5////
BBXX BATFR11 12184 99362 10002 46/// /2705 10164 20119 40259 22213 00179
BBXX BATFR59 12184 99221 31684 46/// /0312 10267 20239 40099 22251 00269
BBXX BATEU09 12184 99431 10068 46/// /2833 10139 20034 40141 22251 00175
BBXX BATFR19 12184 99007 30088 46/// /1813 10264 20234 40108 53019 22200 00275
BBXX BATFR20 12184 99431 10054 46/// /2725 10132 20027 40188 22234
BBXX BATEU00 12184 99507 30159 46/// /1621 10012 21042 40122 53043 22242
BBXX BATFR55 12184 99114 30489 44598 31311 10275 20245 40111 70211 82142 22232 00280 207// 32727 409// 509//
BBXX BATEU01 12184 99462 70729 46/// /2410 10050 21045 40282 56014 22252 00047
BBXX BATFR01 12184 99359 10217 46/// /2313 10184 20115 40237 53004 22222 00197
BBXX BATFR04 12184 99598 70107 46/// /1221 10067 20012 49728 56056 22200 00102
BBXX BATFR54 12184 99437 70092 46/// /2243 10147 20089 4//// 22262 00145
BBXX BATFR60 12184 99474 70039 46/// /2035 10129 20087 40069 58023 22233 00135
BBXX BATFR50 12184 99429 10061 46/// /3025 10142 20062 40173 53018 22242 00170
BBXX BATFR47 12184 99304 51462 44998 20916 10207 20147 40212 51010 70100 80008 22262 20000 310// 40902 5////
BBXX BATFR42 12184 99505 70019 46/// /2058 10107 20067 49997 22244 00127
BBXX BATEU04 12184 99611 70490 46/// /3313 11041 21118 49875 53006 22233
AAXX 12181 10609 01583 52308 10052 20026 39819 40152 51022 60042 72181 85500 333 10077 20046 31003 55300 20000 30000 69907 85620
AAXX 12181 10616 11480 52505 10034 20011 39543 40149 52024 60042 70361 85500 333 10064 20023 31001 55300 83618 83625
AAXX 12181 10641 07988 02303 10045 20013 39999 40148 51035 60052 70065 333 10080 20040 3/001 55300 60017
AAXX 12181 10655 01482 42805 10048 20030 39816 40148 51039 60022 72511 82831 333 10075 20031 31002 55300 20000 30000 69957 81818 83640 91113
AAXX 12181 10675 07323 72605 10053 20037 39850 40144 51040 60032 76365 333 10069 20035 3/003 55300 20000 30000 60017 82/08 87/39 87/58
AAXX 12181 10688 07358 82403 10041 20037 39610 40136 53024 69972 72365 333 10041 20014 3/001 55300 20000 30000 69927 85/09 87/33 88/46 91113
AAXX 12181 10708 11586 22306 10039 20020 39779 40170 51028 60032 70261 82500 333 10071 20039 31002 55300 20000 30000 82625 91113
AAXX 12181 10729 17982 02103 10025 20010 30050 40175 53037 60022 70065 333 10098 20025 3/102 55300 20000 30000
AAXX 12181 10731 01784 12405 10050 20025 30027 40172 53035 60092 70381 81500 333 10085 20023 31002 55300 20000 30000 69927 81656 91113
AAXX 12181 10742 07984 12404 10046 20020 39829 40164 51039 60072 70065 333 10075 20046 3/002 55300 20000 30000 69917 81/78 91113
AAXX 12181 10776 01440 81602 10025 20025 39698 40149 53024 69962 76165 875// 333 10025 20011 31002 55300 20000 30000 69937 86618 87636 96010
AAXX 12181 10791 01/90 92612 11008 21008 38475 48422 51015 60052 77174 333 10000 21013 44052 55300 60047 96049 96273
AAXX 12181 10805 11583 11903 10046 20021 39996 40190 53033 69972 70181 81800 333 10106 20039 31002 55300 20000 30000 81833
AAXX 12181 10815 07487 82605 10012 20003 39227 48456 52032 60162 70087 333 10043 20010 3/000 55300 20000 30000 69907 83/10 87/25 88/30 91116 91211
AAXX 12181 10836 01389 82808 10021 20019 39291 40172 51038 60022 72586 878// 333 10052 20014 31001 55300 20000 30000 69927 85807 83616 91119 91214 96280 96488 96463
AAXX 12181 10870 01482 82607 10053 20041 39623 40160 53033 60042 76162 8482/ 333 10059 20008 31001 55300 60027 81812 83636 87459 96463
AAXX 12181 10895 01/05 91903 10011 20011 39575 40156 53017 60022 76164 333 10011 21001 31000 55300 20000 30000 60027 96043
AAXX 12181 10908 01/01 92510 11034 21034 38464 48462 51025 60252 74987 333 10002 21036 3/104 49017 55300 20000 30000 69917 89/01 91120 91214 96487
AAXX 12181 10929 01680 22504 10045 20024 39654 40192 52032 60022 70161 82500 333 10071 20030 31003 55300 20000 30000 69907 82643 91114
AAXX 12181 10948 07469 81601 10011 20011 39236 48470 51034 60142 75787 333 10038 21030 3/104 55300 20000 30000 60057 82/12 87/33 88/41
AAXX 12181 10961 11/00 93410 11113 21121 37011 47972 51014 60082 77174 333 11060 21115 49085 55300 20000 41006 91118 91212 96049
AAXX 12181 10962 01/00 92505 10003 20003 39016 48456 53036 60022 74576 333 10075 20002 3/000 43002 55300 20000 30000 69997 91116 96269 96268 96463 96441
AAXX 12181 10980 11/00 92817 11039 21041 38101 48454 53023 60092 77374 333 10022 21039 3/104 48027 55300 20000 30000 91124 90201 91218 91218 96049
AAXX 12181 10007 NIL
AAXX 12181 10044 46/// /2209 10050 20020 39997 40029 51029 222// 00063 333 10065 20017 55300 91114 91211
AAXX 12181 10046 11562 22305 10049 20028 39998 40037 52032 60012 70165 81501 333 10063 20020 32001 81630
AAXX 12181 10091 07233 82409 10050 20047 39965 40016 53013 60032 75765 333 10052 20014 3/001 55300 20000 30000 60037 87/04 87/08 88/23
AAXX 12181 10113 01570 22208 10053 20034 30027 40046 52015 69952 70281 82200 333 10078 20037 32003 55300 20000 30000 69907 82823 91114 91211
AAXX 12181 10124 46/// /2213 10054 2//// 39999 40037 51017 222// 00052 333 10078 20035 553// 91117 91215
AAXX 12181 10131 11581 72207 10054 20024 30032 40047 51021 69982 70361 875// 333 10070 20032 31003 55300 20000 30000 83630 87650
AAXX 12181 10170 01675 82506 10065 20047 30023 40039 53030 60032 72162 8357/ 333 10066 20012 32001 55300 20000 30000 60027 83636 88463
AAXX 12181 10264 06469 72605 10056 20045 39948 40055 51034 60052 333 10061 20011 3/000 55300 20000 30000 60017 87/15 87/64
AAXX 12181 10291 01460 82306 10059 20047 39990 40058 53019 69972 76062 875// 333 10063 21006 31101 55300 20000 30000 69977 82711 87616
AAXX 12181 10315 01682 12106 10058 20016 30028 40092 51018 60022 72111 81500 333 10078 20052 31003 55300 20000 30000 69907 81634
AAXX 12181 10379 01475 72507 10063 20054 39947 40068 53024 60012 76062 875// 333 10067 20017 31001 55300 20000 30000 41207 69987 81710 87633 91113
AAXX 12181 10382 01365 82605 10065 20053 30024 40069 53025 69942 72166 876// 333 10072 20014 31001 55300 20000 30000 69947 84709 87714
AAXX 12181 10384 06/// /2604 10068 20056 30009 40069 53024 69972 333 10074 20004 3/101 55300 20000 30000 69977
AAXX 12181 10427 01/03 92407 11005 21005 39101 48402 51027 60072 74187 333 10021 21005 3/101 44016 55300 20000 30000 69907 91117 91211 96487 96486
AAXX 12181 10430 11672 52104 10045 20017 39914 40108 51030 60042 70261 85500 333 10071 20034 31001 55300 20000 30000 82635 85650
AAXX 12181 10439 12665 22504 10035 20007 39904 40127 52037 60022 82500 333 10081 20023 31100 82635
AAXX 12181 10453 11/90 92518 11025 21025 38743 48376 51025 60092 74974 333 11002 21025 3/103 49053 55300 91127 91221 96038 96473 96449 96438
AAXX 12181 10496 01570 72304 10065 20036 39997 40082 53018 69912 72162 875// 333 10065 20037 31002 55300 20000 30000 69917 87623
AAXX 12181 10499 01561 82108 10039 20013 39808 40101 53017 69902 70252 885// 333 10043 20023 31001 55300 20000 30000 69907 88627 91116 91211
AAXX 12181 10505 01584 12309 10050 20026 39838 40121 51019 60062 70161 81500 333 10071 20048 31004 55300 20000 30000 69907 81633 91113 91211
AAXX 12181 10513 11686 32004 10057 20015 30007 40129 51018 60042 70161 83500 333 10081 20048 31002 55300 20000 30000 83638
AAXX 12181 10532 17680 12406 10035 20013 39881 40132 51034 60032 70065 333 10071 20031 3/001 55300 20000 30000 81/46
AAXX 12181 10544 11035 82607 11002 21002 39043 48418 53033 60032 72876 885// 333 10020 21003 3/101 42003 55300 88601 91117 91213 96473 96469 96459
AAXX 12181 10554 01681 62706 10041 20016 39726 40117 51038 69902 70162 86500 333 10071 20041 31003 55300 20000 30000 69907 86640 91114 91211
AAXX 12181 10567 01486 82607 10063 20034 39735 40110 53033 69902 76022 875// 333 10071 20023 31001 55300 20000 30000 69907 87618 91114
AAXX 12181 10578 11/00 92613 11006 21006 38707 48407 53024 60022 77175 333 11003 21016 3/101 44028 55300 20000 30000 96049 96273 96477 96456
AAXX 12184 07005 04/70 /1814 10069 20031 30006 40096 58014 60022 700// 333 10083 20049 60007 90710 91125 555 60005
AAXX 12184 07015 04886 /2014 10064 20037 30043 40101 58004 69902 700// 333 10082 20051 60007 90710 91121 555 60005
AAXX 12184 07020 01664 8//// 1//// 2//// 30022 4//// 57048 6///2 76086 885// 333 1//// 2//// 6///7 88633 555 6///5
AAXX 12184 07027 01982 61716 10077 20043 30007 40089 58035 69982 70386 80008 333 10090 20039 60007 86270 90710 91124 93100 555 60005
AAXX 12184 07037 04985 71916 10065 20036 39926 40111 58016 60012 700// 333 10089 20039 60007 90710 91124 555 60005
AAXX 12184 07070 04970 /2211 10063 20033 30036 40148 50011 60012 700// 333 10089 20061 60007 90710 91118 555 60005
AAXX 12184 07110 04328 82025 10104 20099 39929 40043 58049 60032 763// 333 10104 20057 60037 91037 90710 91141 555 60035
AAXX 12184 07117 01862 82017 10094 20070 39968 40038 58055 69922 76162 88020 333 10108 20070 69927 91029 90710 91134 92447 555 69925
AAXX 12184 07130 04686 81813 10093 20060 30056 40108 58034 60002 700// 333 10109 20025 60007 90710 91122 555 60005
AAXX 12184 07139 06/// /1910 10067 20035 39949 40124 58018 69902 333 10092 20029 60007 90710 91117 555 60005
AAXX 12184 07149 02775 12009 10061 20033 30037 40148 50003 60002 81500 333 10099 20051 60007 81656 90710 91115 93100 555 60005
AAXX 12184 07168 04/70 /2008 10040 20017 30031 40177 51013 60002 700// 333 10089 20032 60007 90710 91113 555 60005
AAXX 12184 07181 04986 /2111 10033 20013 39767 40187 51026 60032 700// 333 10070 20029 60007 90710 91115 555 60005
AAXX 12184 07190 04684 71806 10044 20019 30000 40187 53033 69982 700// 333 10091 20035 60007 90710 91109 555 60005
AAXX 12184 07207 01450 82327 10121 20089 60012 75185 88700 222// 327// 333 10125 20099 60017 91042 90710 91145 92446 555 69965
AAXX 12184 07222 01670 71906 10087 20068 30105 40137 58022 69942 76086 8557/ 333 10119 20033 69927 85646 87360 90710 91110 555 69925
AAXX 12184 07240 02982 61811 10079 20043 30026 40163 58001 60002 80002 333 10101 20051 60007 86076 90710 91119 93100 555 60005
AAXX 12184 07255 04970 /2009 10054 20019 39988 40192 50009 60002 700// 333 10096 20047 60007 90710 91112 555 60005
AAXX 12184 07280 01986 01804 10036 20001 39932 40213 53028 60012 700// 333 10091 20036 60007 90710 91109 555 60005
AAXX 12184 07299 04686 /2308 10050 20022 39867 40201 53030 60032 700// 333 10090 20046 60007 90710 91113 555 60005
AAXX 12184 07314 06/// /3217 10130 20074 30143 40171 50000 60002 333 10130 20100 60007 90710 91127 555 60005
AAXX 12184 07335 04686 /1908 10071 20047 30034 40181 50004 60002 700// 333 10106 20038 60007 90710 91114 555 60005
AAXX 12184 07434 04785 /1806 10055 20032 39717 40205 50006 69902 700// 333 10084 20047 69907 90710 91111 555 69905
AAXX 12184 07460 02984 01606 10037 21011 39818 40218 53016 60012 333 10095 20030 60007 90710 91108 93100 555 60005
AAXX 12184 07471 04970 /2704 10018 21031 39239 48823 53020 69982 700// 333 10063 20009 60007 90710 91112 555 60005
AAXX 12184 07481 02982 00000 10057 21006 39931 40226 53023 60052 333 10102 20056 60007 90710 91108 93100 555 60005
AAXX 12184 07510 02782 21706 10087 20060 30134 40200 50001 69962 81830 333 10127 20075 60007 81850 90710 91109 93100 555 60005
AAXX 12184 07535 06/// /1705 10062 20042 39904 40223 53009 60022 333 10111 20062 60007 90710 91106 555 60005
AAXX 12184 07558 06/// /3306 10029 20011 39383 40242 53020 60012 333 10061 20029 60007 90710 91108 555 60005
AAXX 12184 07577 04/70 /3604 10082 20002 30126 40217 53027 69922 700// 333 10139 20069 60007 90710 91109 555 60005
AAXX 12184 07591 04/// /0403 10009 21022 39159 4//// 51023 60072 700// 333 10074 20008 60007 90710 91105 555 60005
AAXX 12184 07607 04982 /1903 10098 20077 30147 40219 50004 69942 700// 333 10137 20073 69907 90710 91107 555 60005
AAXX 12184 07621 01782 11705 10051 20042 39794 40238 53008 60042 70261 81530 333 10116 20047 60007 81650 90710 91106 93100 555 60005
AAXX 12184 07627 06/// /2302 10057 20025 39746 40245 53013 69942 333 10105 20046 60007 90710 91105 555 60005
AAXX 12184 07630 01580 63102 10090 20050 30049 40232 53011 69922 70386 86800 333 10129 20082 60007 82830 85650 86657 90710 91107 93100 555 60005
AAXX 12184 07643 02988 02611 10091 20024 30207 40217 53017 60002 333 10144 20078 60007 90710 91116 555 60005
AAXX 12184 07650 02984 03016 10103 20033 30158 40197 53022 69922 333 10146 20087 60007 90710 91124 93100 555 60005
AAXX 12184 07661 02981 22827 10112 20017 30007 40169 53012 69962 82030 333 10136 20106 60007 82358 90710 91136 555 60005
AAXX 12184 07690 02982 02814 10130 21010 30083 40117 53012 69922 333 10165 20100 60007 90710 91129 93100 555 60005
AAXX 12184 07747 02775 30204 10108 20038 30172 40226 53025 60002 83500 333 10148 20061 60007 83650 90710 91111 93100 555 60005
AAXX 12184 07761 02575 42709 10142 20073 30161 40172 51015 60262 84800 333 10172 20113 60007 81830 84650 90710 91116 93100 555 60005
AAXX 12184 07790 02570 23503 10107 20066 30114 40129 53003 69922 82500 333 10171 20107 60007 81620 90710 91110 93100 555 60005
AAXX 12184 78862 11476 79902 10271 20231 30098 40121 60071 72522 86802 333 10292 20222 58010 85815
AAXX 12184 MPO 1218/1318 SHRA FEW012CB BKN015 BECMG 1312/1314 10008KT
AAXX 12184 TAF TQPF 121600Z 1218/1318 VRB04KT 9999 SCT016 PROB30 TEMPO 1218/1318 SHRA FEW012CB BKN015 BECMG 1312/1314 10008KT
AAXX 12184 TAF TKPN 121600Z 1218/1318 VRB04KT 9999 SCT016 PROB30 TEMPO 1218/1318 SHRA FEW012CB BKN015 BECMG 1312/1314 10008KT
AAXX 12184 TAF TUPJ 121600Z 1218/1318 VRB04KT 9999 SCT016 PROB30 TEMPO 1218/1318 SHRA FEW012CB BKN015 BECMG 1312/1314 10008KT
AAXX 12184 EMPO 0600/0624 SHRA BKN015=+TSRA SCT012CB
AAXX 12184 TAF TUPJ 041000Z 04012/0512 07008KT 9999 SCT016 BKN038 SCT270 TEMPO 0412/0512 SHRA BKN015 PROB40 TEMPO 0418/0512 5000 SHRA BKN014 BKN036 PROB30 0420/0512 4000 TSRA FEW012CB
AAXX 12184 918 4000 TSRA FEW012CB
AAXX 12184 N015 BKN036 PROB40 TEMPO 0704/0724 3000 +TSRA SCT011CB BKN012 BECMG 0712/0714 14008KT
AAXX 12184 21/2712 07017G28KT 5000 SHRA BKN015 BKN036 PROB TEMPO 2700/2712 4000 TSRA FEW013CB
AAXX 12184 PROB30 TEMPO 0800/0806 4000 TSRA FEW012CB PROB40 TEMPO 0800/0824 2000 +SHRA/TSRA SCT010CB BKN012 BKN250
AAXX 12181 02741 17682 71909 10040 21001 39981 49997 57017 60022 70000 87/// 91739 333 10047 20034
AAXX 12181 02755 17324 91306 11039 21045 39924 40021 57026 60012 77170 91739 333 11039 21091
AAXX 12181 02805 37999 01701 11186 21211 39891 40033 52007 70087 91739 333 11095 21186
AAXX 12181 02807 47699 72303 11083 21094 39850 40039 700// 87/// 91800 333 11059 21092
AAXX 12181 02836 37915 11601 11147 21159 39822 40058 52005 78587 81/// 91739 333 11089 21153
AAXX 12181 02845 47165 80603 11149 21160 39794 40058 57005 77187 88/// 91739 333 11130 21168
AAXX 12181 02849 47682 51803 11107 21120 39780 40066 52008 70087 81/// 91739 333 11083 21107
AAXX 12181 02866 37383 81501 11055 21055 39903 40057 57010 70087 88/// 91739 333 11055 21118
AAXX 12181 02897 47799 81203 11071 21083 39875 40063 700// 88/// 91800 333 11038 21091
AAXX 12181 02913 47365 71505 10011 20005 39940 49992 761// 87/// 333 10011 21110
AAXX 12181 02917 47322 81205 11035 21042 39938 40063 771// 88/// 91800 333 11035 21062
AAXX 12181 02924 47236 81501 11001 21001 39824 40022 57012 785// 88/// 91739 333 11001 21068
AAXX 12181 02926 17373 71403 10017 20015 39993 40005 57012 60022 700// 82/// 91800 333 10024 21019
AAXX 12181 02935 17121 71402 11014 21016 39868 40044 57013 60022 77187 87/// 91739 333 11014 21071
AAXX 12181 02939 37799 71402 11057 21065 39902 40101 54001 70074 85/// 91739 333 11026 21063
AAXX 12181 02944 47165 81403 10010 20010 39881 40029 781// 88/// 91800 333 10010 21033
AAXX 12181 02947 47241 71402 11007 21007 40067 57013 77177 87/// 91751 333 11007 21031
AAXX 12181 02963 46/// /1806 10023 20020 40033 333 1//// 2////
AAXX 12181 02974 11365 81907 10026 20014 39994 40061 57009 60042 70262 885// 333 10038 21030 32///
AAXX 12181 02976 46/// /2009 10028 20022 30064 40080 57005 91739 333 10046 21013
AAXX 12181 02981 17470 81815 10054 20024 30007 40017 57017 60012 74042 88/// 91739 333 10057 20043
AAXX 12181 02982 46/// /1915 10037 20008 30032 40040 57012 91739 333 10063 20037
AAXX 12181 11816 11250 80404 10047 20034 39968 40133 53006 60002 71022 886// 333 10053 88706
AAXX 12181 11826 11458 89901 10065 20040 39930 40130 52005 60002 71022 886// 333 10065 88717
AAXX 12181 11903 11335 89901 10020 20017 39769 40156 52001 60022 71022 886// 333 10020 41998 88708
AAXX 12181 11934 11465 81202 10025 20019 39312 42750 53002 69942 76062 885// 333 10047 41998 81710 87623
AAXX 12181 11968 11250 80000 10027 20017 39874 40159 57004 60022 71062 886// 333 10031 84706 88709
AAXX 12181 02741 17682 71909 10040 21001 39981 49997 57017 60022 70000 87/// 91739 333 10047 20034
AAXX 12181 02755 17324 91306 11039 21045 39924 40021 57026 60012 77170 91739 333 11039 21091
AAXX 12181 02805 37999 01701 11186 21211 39891 40033 52007 70087 91739 333 11095 21186
AAXX 12181 02807 47699 72303 11083 21094 39850 40039 700// 87/// 91800 333 11059 21092
AAXX 12181 02836 37915 11601 11147 21159 39822 40058 52005 78587 81/// 91739 333 11089 21153
AAXX 12181 02845 47165 80603 11149 21160 39794 40058 57005 77187 88/// 91739 333 11130 21168
AAXX 12181 02849 47682 51803 11107 21120 39780 40066 52008 70087 81/// 91739 333 11083 21107
AAXX 12181 02866 37383 81501 11055 21055 39903 40057 57010 70087 88/// 91739 333 11055 21118
AAXX 12181 02897 47799 81203 11071 21083 39875 40063 700// 88/// 91800 333 11038 21091
AAXX 12181 02913 47365 71505 10011 20005 39940 49992 761// 87/// 333 10011 21110
AAXX 12181 02917 47322 81205 11035 21042 39938 40063 771// 88/// 91800 333 11035 21062
AAXX 12181 02924 47236 81501 11001 21001 39824 40022 57012 785// 88/// 91739 333 11001 21068
AAXX 12181 02926 17373 71403 10017 20015 39993 40005 57012 60022 700// 82/// 91800 333 10024 21019
AAXX 12181 02935 17121 71402 11014 21016 39868 40044 57013 60022 77187 87/// 91739 333 11014 21071
AAXX 12181 02939 37799 71402 11057 21065 39902 40101 54001 70074 85/// 91739 333 11026 21063
AAXX 12181 02944 47165 81403 10010 20010 39881 40029 781// 88/// 91800 333 10010 21033
AAXX 12181 02947 47241 71402 11007 21007 40067 57013 77177 87/// 91751 333 11007 21031
AAXX 12181 02963 46/// /1806 10023 20020 40033 333 1//// 2////
AAXX 12181 02974 11365 81907 10026 20014 39994 40061 57009 60042 70262 885// 333 10038 21030 32///
AAXX 12181 02976 46/// /2009 10028 20022 30064 40080 57005 91739 333 10046 21013
AAXX 12181 02981 17470 81815 10054 20024 30007 40017 57017 60012 74042 88/// 91739 333 10057 20043
AAXX 12181 02982 46/// /1915 10037 20008 30032 40040 57012 91739 333 10063 20037
AAXX 12181 01025 16/// /0000 11052 21063 39949 49960 57021 60002 333 11013 91103
AAXX 12181 01052 16/// /0501 11057 21072 39889 49989 57006 60022 333 11001 91103
AAXX 12181 01122 16/// /2402 11026 21068 39814 49904 58021 69922 333 11017 91106
AAXX 12181 01132 16/// /1005 11024 21071 39512 49900 58025 60002 333 11019 4/041 91116
AAXX 12181 01156 NIL
AAXX 12181 01203 46/// /1710 10039 20006 39786 49833 50007 333 10067 91133
AAXX 12181 01233 16/// /1604 11038 21047 60012 333 11011 91108
AAXX 12181 01265 NIL
AAXX 12181 01273 NIL
AAXX 12181 01307 46/// /2113 10070 20025 39830 49857 56004 333 10075 91121
AAXX 12181 01321 16/// /1302 10003 21005 39607 49858 50000 69942 333 10027 91107
AAXX 12181 01327 16/// /1203 11001 21010 60032 333 10020 91109
AAXX 12181 01350 16/// /1306 11049 21065 38506 49873 50001 60032 333 11009 91111
AAXX 12181 01361 16/// /3202 11068 21086 38856 49888 57001 60002 333 11048 91107
AAXX 12181 01375 NIL
AAXX 12181 01378 NIL
AAXX 12181 01385 16/// /1402 10011 20002 39637 49906 57006 60022 333 10022 91108
AAXX 12181 01412 16/// /2410 10072 20027 39884 49913 51008 60062 333 10074 91117
AAXX 12181 01422 NIL
AAXX 12181 01440 NIL
AAXX 12181 01441 NIL
AAXX 12181 01467 NIL
AAXX 12181 01469 NIL
AAXX 12181 01477 16/// /3401 10001 21004 60012 333 10036 4/018 91108
AAXX 12181 01480 16/// /0101 10009 21002 60052 333 10049 91109
AAXX 12181 01484 16/// /1704 10014 21001 39761 49915 56010 60022 333 10039 91110
AAXX 12181 01490 16/// /2003 10001 20001 60132 333 10021 91111
AAXX 12181 01495 16/// /2007 10061 20033 39906 49919 55001 60052 333 10066 91117
AAXX 12181 01037 NIL
AAXX 12181 01046 11689 61605 11024 21061 39974 49981 58016 60042 70322 82448 333 11014 91107
AAXX 12181 01058 16/// /0000 11158 21174 39542 40034 56005 69922 333 11128 4/019 91101
AAXX 12181 01065 NIL
AAXX 12181 01092 NIL
AAXX 12181 01107 16/// /0702 10017 21002 39895 49900 58016 60002 333 10026 91106
AAXX 12181 01114 NIL
AAXX 12181 01144 41886 11012 10004 21060 70121 81040 333 10011 91117
AAXX 12181 01199 NIL
AAXX 12181 01245 NIL
AAXX 12181 01259 16/// /0904 10009 21032 39822 49844 58019 60002 333 10033 91118
AAXX 12181 01262 NIL
AAXX 12181 01278 11985 71105 10000 21039 39757 49858 56025 69902 70272 8707/ 333 10002
AAXX 12181 01293 16/// /0202 10016 21018 39653 49857 56028 60002 333 10016 91108
AAXX 12181 01329 NIL
AAXX 12181 01337 NIL
AAXX 12181 01344 16/// ///// 11002 21033 60022 333 10021 4/056
AAXX 12181 01364 NIL
AAXX 12181 01373 11420 80501 11031 21037 39707 49910 53002 60022 71122 8572/ 333 11031 91102
AAXX 12181 01374 11265 80901 11012 21013 60042 70172 886// 333 11008
AAXX 12181 01380 16/// /1503 11030 21039 6//// 333 11030 4/023 91112
AAXX 12181 01389 NIL
AAXX 12181 01393 NIL
AAXX 12181 01424 11450 8//// 10003 21004 39911 49914 53004 60162 76872 887// 333 10007
AAXX 12181 01431 16/// /0601 10000 21006 39264 49924 53005 60192 333 10008 91105
AAXX 12181 01436 NIL
AAXX 12181 01465 11975 02506 10045 20029 39916 49934 51009 60042 70262 333 10080 91116
AAXX 12181 01471 11802 20000 11006 21013 60022 74664 82030 333 10010 91103
AAXX 12181 01483 NIL
AAXX 12181 01015 NIL
AAXX 12181 01023 NIL
AAXX 12181 01033 46/// /1011 10016 21059 39921 49952 56024 333 10021 91116
AAXX 12181 01059 11989 01809 11102 21116 30001 40011 54000 69902 70222 333 11072 91111
AAXX 12181 01089 16/// /1703 11096 21099 39910 40021 52013 6//// 333 11008 91108
AAXX 12181 01167 31580 61406 10010 21095 39920 49924 56022 70310 84460 333 10011 91109
AAXX 12181 01180 NIL
AAXX 12181 01210 41584 61905 10048 21004 39811 49837 50004 72582 83361 333 10056 91115
AAXX 12181 01228 NIL
AAXX 12181 01240 16/// /1407 10030 21012 39816 49836 56019 6//// 333 10044 91113
AAXX 12181 01304 46/// /2112 10059 20031 39806 49836 58008 333 10064 91123
AAXX 12181 01311 46/// /1506 1//// 2//// 39819 51004 333 91113
AAXX 12181 01340 NIL
AAXX 12181 01355 16/// ///// 11002 21010 39878 49883 50001 60032 333 10007
AAXX 12181 01360 NIL
AAXX 12181 01392 16/// /1702 10013 20004 39690 49914 57013 60042 333 10026 91108
AAXX 12181 01406 NIL
AAXX 12181 01411 16/// /2208 10072 20025 39880 49905 51011 6//// 333 10072 91119
AAXX 12181 01425 NIL
AAXX 12181 01433 46/// /2406 11020 21038 38657 49899 56001 333 11002 91110
AAXX 12181 01442 NIL
AAXX 12181 01450 NIL
AAXX 12181 01452 11576 62204 10037 20022 39914 49935 50004 60062 72581 85802 333 10071 91108
AAXX 12181 01473 16/// /2501 11004 21008 39703 49911 55000 6//// 333 10018 91105
AAXX 12181 01494 16/// /1602 10033 20027 39851 49916 55004 60072 333 10055 91112
AAXX 12181 01121 NIL
AAXX 12181 01135 NIL
AAXX 12181 01143 16/// /1506 10003 21086 60002 333 10008 91113
AAXX 12181 01150 16/// /3402 11037 21090 60002 333 11036 91111
AAXX 12181 01192 NIL
AAXX 12181 01225 46/// /1704 10054 20015 39828 49833 56006 333 10062 91109
AAXX 12181 01230 16/// /1602 11021 21051 60002 333 11005 4/030 91109
AAXX 12181 01232 16/// /1302 10030 21037 39766 49844 57008 60002 333 10047 4/027 91111
AAXX 12181 01234 16/// /2004 11031 21038 69972 333 10019 91106
AAXX 12181 01253 16/// /2701 10006 21028 60002 333 10012 91105
AAXX 12181 01254 16/// /3401 11002 21011 69952 333 10002 4/021 91103
AAXX 12181 01257 NIL
AAXX 12181 01277 NIL
AAXX 12181 01291 16/// /1104 11036 21052 60002 333 11025 4/019 91108
AAXX 12181 01332 16/// /0000 10001 21010 60022 333 10005 91102
AAXX 12181 01366 46/// /1202 11069 21082 38280 49890 50003 333 11044 91112
AAXX 12181 01370 NIL
AAXX 12181 01376 16/// /0803 10005 21001 60062 333 10012 91105
AAXX 12181 01383 46/// /1304 10003 20003 39587 49898 57010 333 10005 91106
AAXX 12181 01386 16/// ///// 10019 20002 60022 333 10031
AAXX 12181 01416 16/// ///// 10042 20034 60072 333 10064
AAXX 12181 01419 NIL
AAXX 12181 01430 16/// ///// 10060 20037 60052 333 10072
AAXX 12181 01434 16/// /0101 11026 21037 38947 49902 54001 6//// 333 10004 91104
AAXX 12181 01455 NIL
AAXX 12181 01468 16/// /1303 10013 20003 60032 333 10027 91105
AAXX 12181 01470 16/// /2301 10020 20015 39803 49916 53007 60032 333 10045 4/004 91109
AAXX 12181 01476 NIL
AAXX 12181 01481 NIL
AAXX 12181 01488 NIL
AAXX 12184 91408 11474 70905 10272 20250 30037 40075 57019 69901 72522 82201 333 569/9 70046 555 91218
AAXX 12184 61901 169// /1313 10160 20146 39655 40164 56003 60052 91750 333 10184 8//99 555 7/090
AAXX 12184 61902 32584 11414 10255 20185 40119 81100 333 10283 58003 81822
AAXX 12184 88878 46/// /2619 10145 20084 40095 52013
AAXX 12184 88883 46/// /2821 10159 20067 40097 52009 555 1//36
AAXX 12184 88889 12789 72726 10173 20045 30014 40096 52010 60001 8117/ 91750 333 81850 87360 90710 91137 91035
AAXX 12184 03005 11470 62423 10049 20025 39717 49816 58003 60022 72581 84930 91750 333 10059 55300 20000 83918 85363 90710 91131
AAXX 12184 03017 15966 /2114 10036 20012 39801 49833 58016 60022 91750 333 10059 55300 20000 83/71
AAXX 12184 03023 17440 /1530 10042 20028 39744 49749 58086 60032 782// 91750 333 10073 87/12 90710 91144 91041
AAXX 12184 03026 15967 /1622 10063 20027 39763 49781 58062 60042 91750 333 10067 55300 20000 83/61 90710 91133 91033
AAXX 12184 03063 15880 /2009 10027 21017 39566 49840 58045 60012 91750 333 10028 55300 20000 85/57 87/65
AAXX 12184 03066 12982 71604 10037 21015 39831 49837 58040 69902 85076 91750 333 10053 55300 20000 85362 87275
AAXX 12184 03075 15968 /1810 10039 20010 39791 49835 58026 69922 91750 333 10043 85/66
AAXX 12184 03091 15980 /1912 10037 20010 39787 49866 58032 60002 91750 333 10063 55300 20000 87/63 87/69
AAXX 12184 03100 NIL
AAXX 12184 03111 16/29 /1732 10055 20049 39789 49801 56094 60062 91750 333 10061 90710 91146 91045
AAXX 12184 03134 17459 /1310 10038 20026 39761 49833 58077 60032 762// 91750 333 10050 55300 20000 86/17 85/22
AAXX 12184 03136 17566 /1515 10051 20029 39797 49829 58087 69982 761// 91750 333 10071 55300 20000 86/24 84/38 90710 91126
AAXX 12184 03162 17562 /1811 10035 20018 39589 49873 58067 69962 781// 91750 333 10045 55300 20000 83/22 86/28
AAXX 12184 03166 17980 /1606 10056 20010 39785 49853 58066 60012 723// 91750 333 10056 55300 20000 88/59
AAXX 12184 03171 12680 81507 10044 20010 39854 49866 58049 69902 8257/ 91750 333 10054 55300 20000 82630 88361
AAXX 12184 03204 11450 81731 10069 20067 39824 49844 58092 60062 76562 885// 91750 333 10083 55300 20000 82710 85620 88630 90710 91144 91041
AAXX 12184 03240 15976 /1716 10051 20026 39873 49901 58045 60002 91750 333 10059 55300 20000 88/62
AAXX 12184 03257 15667 /1515 10048 20019 39888 49928 58052 60002 91750 333 10079 55300 20000 82/32 84/56 86/62
AAXX 12184 03292 169// /1926 10062 20036 39936 49954 58033 60002 91750 333 10068 88/62 90710 91132
AAXX 12184 03302 11440 81737 10081 20066 39838 49850 58101 60042 76362 885// 91750 333 10090 55300 20000 81616 87620 88625 90710 91148 91048
AAXX 12184 03354 15673 /1912 10058 20029 39825 49967 58047 60002 91750 333 10071 55300 20000 86/44 87/57
AAXX 12184 03377 12681 81819 10055 20024 39892 49976 58036 60002 8157/ 91750 333 10072 55300 20000 81632 88359 90710 91129
AAXX 12184 03414 11565 81615 10061 20036 39840 49927 58074 69922 76086 885// 91750 333 10079 55300 20000 84622 88640 90710 91125
AAXX 12184 03462 15781 /1713 10056 20019 39901 49989 58035 60002 91750 333 10072 55300 20000 88/56
AAXX 12184 03482 12972 81814 10059 20024 39979 40005 58033 60002 8805/ 91750 333 10068 85359 88367
AAXX 12184 03502 17456 /1827 10075 20075 39723 49881 57088 60042 761// 91750 333 10075 55300 20000 81/15 87/19 90710 91145 91040
AAXX 12184 03535 17660 /1613 10053 20037 39846 49962 58055 69942 781// 91750 333 10081 55300 20000 85/30 84/50
AAXX 12184 03590 12982 81911 10059 20023 39916 40025 58029 60002 8807/ 91750 333 10067 55300 20000 87362 88468
AAXX 12184 03649 11562 81812 10071 20041 39888 49987 58054 69922 76061 885// 91750 333 10078 55300 2//// 84625 88640
AAXX 12184 03716 17473 /1914 10083 20062 39893 49952 58073 60012 761// 91750 333 10087 55300 20000 87/18
AAXX 12184 03740 16457 /1814 10066 20055 39809 49984 58058 60022 91750 333 10072 55300 2//// 82/18 84/25 86/36
AAXX 12184 03746 11462 81919 10073 20061 39852 40004 58047 69902 76061 8757/ 91750 333 10079 81711 84618 86630 90710 91125
AAXX 12184 03772 15976 /1811 10078 20044 39988 40018 58040 60002 91750 333 10088 55300 20000 88/59
AAXX 12184 03796 46/// /2319 10088 20066 39912 40053 58025 91750 333 10088 90710 91130 91030
AAXX 12184 03803 17331 /2140 10116 20115 39895 49932 56067 60082 752// 91750 333 10116 87/06 86/13 90710 91154 91050
AAXX 12184 03808 11230 82226 10103 20101 39839 49943 57075 60142 76586 887// 91750 333 10103 55300 20000 88705 90710 91143 91040
AAXX 12184 03809 11225 82228 10106 20104 39855 49946 57080 69922 76386 887// 91750 333 10106 84704 86706 88712 90710 91151 91049
AAXX 12184 03827 17434 /1931 10099 20094 39908 49968 58072 60062 762// 91750 333 10102 85/14 85/23 90710 91150 91046
AAXX 12184 03840 17359 /1923 10069 20065 39674 49976 58064 60022 761// 91750 333 10073 85/06 85/14 90710 91136
AAXX 12184 03853 11450 81924 10090 20070 49989 60022 76361 885// 91750 333 10094 55300 20000 83710 88618 90710 91139 91039
AAXX 12184 03874 46/// /2229 10092 20069 30013 40024 58043 91750 333 10103 90710 91139
AAXX 12184 03882 17565 /2114 10086 20054 39983 40046 58030 69902 723// 91750 333 10097 55300 20000 81/25 86/61 90710 91129
AAXX 12184 03894 NIL
AAXX 12184 03917 17580 /1521 10064 20035 39712 49787 56108 60022 723// 91750 333 10065 55300 20000 81/25 85/37 90710 91138 91034
AAXX 12184 85574 12960 02112 10302 20060 39568 40091 57010 60001
AAXX 12184 85585 11598 81915 10169 20110 40215 54001 69921 70382 885// 333 56499 88627
AAXX 12184 85586 12960 02307 10190 20130 40152 56004 60001
AAXX 12184 85629 12980 01807 10268 20118 40114 57010 60001
AAXX 12184 85672 13980 02107 10262 20109 40132 57018 60001 333
AAXX 12184 85682 12962 02415 10219 20126 40144 57013 60001
AAXX 12184 85743 11960 02307 10244 20135 40156 58018 60001 70400
AAXX 12184 85799 12560 11613 10177 20116 40209 57010 60001 81100 333 56400 81825
AAXX 12184 85832 12980 12804 10232 20058 40176 57022 60001 80001 333 56000 81070
AAXX 12184 85836 12970 12309 10235 20065 40226 57023 60001 80001 333 56007 81070
AAXX 12184 85864 12980 41808 10216 20083 40181 57009 60001 80001 333 56006 84070
AAXX 12184 85886 12970 32921 10272 20159 40139 57011 60001 80004 333 56006 83070
AAXX 12184 85892 12980 22006 10228 20072 40164 57012 60001 80001 333 56006 82070
AAXX 12184 85934 12580 52729 10152 20046 40092 52021 60001 83140 333 56660 83820 83359
AAXX 12184 85968 12660 52719 10153 20069 40006 52016 60001 85100 333 56600 85845
AAXX 12184 89056 11358 82930 10018 20005 49735 50006 60023 71076 887// 333 56799 88707 93101
AAXX 12184 89057 11460 82328 10020 20002 49720 57005 60063 72675 888// 333 56799 86810 88613 91138 93105
AAXX 12184 89058 11462 82927 10020 20013 39709 49730 57015 60041 76075 8272/
AAXX 12184 89059 11430 80611 10008 21011 49712 57032 60033 77172 884// 333 71099 88616 93103
AAXX 12184 89251 31358 82924 10019 20008 49723 52004 71022 8651/
AAXX 12184 91408 11474 70905 10272 20250 30037 40075 57019 69901 72522 82201 333 569/9 70046 555 91218
BBXX 46077 12181 99579 71543 46/// /2810 10012 20006 40017 51040 91750 22200 00055 10704 20703 3//// 41102 70019 333 91212 555 11103 22108 31706 42615 61749 284098 279110 265118 257121 258121 259119 82613 91706
BBXX 46035 12181 99571 71778 46/// /1513 1//// 49878 58005 91750 22200 11109 20706 300// 41106 70045 333 91216 555 11132 22141 31654 41517 61749 148133 151130 154132 152130 153126 154140 81615 91723
BBXX 52200 12181 99134 11448 46/// ///// 1//// 91745 22200 00287 10905 20905 309// 41101 70026
BBXX 41115 12181 99184 70673 46/// ///// 1//// 91735 22200 10902 20902 301// 41101 70010
BBXX 41114 12181 99276 70802 46/// ///// 1//// 91746 22200 00241 10904 20904 305// 41102 70020
AAXX 12181 45032 36/// /1201 10077 20057 30185 40202 57001
AAXX 12181 45035 36/// /0604 10129 20019 30159 40201 57001
AAXX 12181 45039 36/// /1201 10118 20061 30182 40198 57002
AAXX 12181 45044 36/// /0005 10137 20048 30098 40193 57002
AAXX 12184 07015 02886 72014 10064 20037 30043 40101 58004 69902 82502 333 10082 20051 60007 82657 87076 90710 91121 93100 555 60005
AAXX 12181 14648 11665 82001 10114 20101 30045 40164 54000 60012 70262 8357/ 333 10117 83646 88457
AAXX 12181 14652 11/00 92021 10001 20001 37897 48456 58012 69972 74544 333 10004 44011 89///
AAXX 12181 14542 NIL
BBXX 51100 12181 99236 71539 46/// /0710 10224 40195 51015 91750 22200 00233 11007 20805 311// 41005 70036 333 91212 555 11109 22115 31708 40715 61749 073103 072100 080111 078105 070113 067099
AAXX 12181 45032 36/// /1201 10077 20057 30185 40202 57001
AAXX 12181 45035 36/// /0604 10129 20019 30159 40201 57001
AAXX 12181 45039 36/// /1201 10118 20061 30182 40198 57002
AAXX 12181 45044 36/// /0005 10137 20048 30098 40193 57002
BBXX 44172 12181 99445 70634 46/// ///// 1//// 91731 22200 00071 10603 20603 70015
BBXX 44098 12181 99428 70702 46/// ///// 1//// 91737 22200 00093 10502 20502 70011
BBXX 44097 12181 99410 70711 46/// ///// 1//// 91732 22200 00127 10801 20801 70005
BBXX 44040 12181 99410 70736 46/// /2704 10053 21050 40351 91745 22200 1//00 70001 333 91205 555 11051 22062
BBXX 46041 12181 99474 71247 46/// /1204 10050 40239 52004 91750 22200 00073 11304 20401 3//// 41304 70022 333 91205 555 11044 22045 31736 41106 61749 114042 116045 105045 106048 101047 097035
BBXX 46072 12181 99517 71722 46/// /1315 10052 20020 49941 56074 91750 22200 00054 11107 20805 3//// 41104 70034 333 91218 555 11161 22172 31748 41418 61749 130151 131146 132141 133135 136137 135135 81316 91747
BBXX 45008 12181 99443 70824 46/// /2305 10025 30073 40294 57006 91750 22200 00063 10401 20401 70007 333 91207 555 11056 22058 61749 228056 226060 220063 218061 211059 214062
AAXX 12181 76040 32960 72101 10136 30083 40097 52005 87006 91747 333 10139 20099 30/// 56009 59053 87098 98660
AAXX 12181 76055 32980 02702 10185 20063 30070 40089 52005 91740 333 10201 20125 30/// 58///
AAXX 12181 76113 22780 83401 10102 20094 39656 40108 52020 88800 91745 333 10130 20100 32/// 56700 59042 60057 88750
AAXX 12181 76225 32760 72004 10145 20065 38612 40143 50002 87020 91745 333 10145 20050 30/// 56050 59027 87450
AAXX 12181 76256 02680 81902 10172 20148 30151 40165 52014 60011 75855 88700 91745 333 10182 20155 31/// 565// 59010 60017 88734
AAXX 12181 76305 31670 72403 10204 20105 30142 40150 52021 82450 91740 333 10207 20159 30/// 56550 59008 82630 85358
AAXX 12181 76323 32870 80401 10154 21004 38264 40216 50000 85036 91745 333 10164 20050 30/// 56055 59027 85357 83268
AAXX 12181 76342 31360 80401 10096 20070 39533 40267 57003 70222 887// 91750 333 10105 20060 31/// 561// 59039 88710
AAXX 12181 76382 32980 71103 10208 20120 38910 40173 57004 80004 91745 333 10218 20090 30/// 56005 59025 87076
AAXX 12181 76390 31965 22207 10168 20073 38244 40153 52008 70544 80006 91730 333 10186 20116 30/// 56005 59011 82070
AAXX 12181 76393 01203 80600 10114 20103 39627 40219 54000 69901 70422 887// 91752 333 10118 20090 31/// 569// 59037 69907 88705
AAXX 12181 76402 31557 72703 10206 20143 30102 40159 52012 70544 87500 91745 333 10206 20150 30/// 56400 59004 87630
AAXX 12181 76423 32982 21801 10201 20012 38171 40181 54001 80007 91739 333 10211 20060 30/// 56004 58016 81095
AAXX 12181 76458 32970 01704 10250 20182 30157 40162 58002 91740 333 10267 20135 30/// 58008
AAXX 12181 76491 32960 20201 10188 20176 39827 40224 57006 80004 91745 333 10192 20120 31/// 56009 59050
AAXX 12181 76525 32970 52106 10140 20051 37491 40154 52007 80001 91755 333 10142 20101 30/// 56//5 58005 85080
AAXX 12181 76539 31962 00000 10142 20065 38195 40232 52010 70544 91745 333 10167 20048 30/// 58004
AAXX 12181 76543 32575 32002 10254 20161 30191 40224 58015 81130 91735 333 10256 20165 30/// 56330 59031 81834
AAXX 12181 76548 32575 12102 10236 20169 30217 40227 50001 81100 91740 333 10238 20164 30/// 56400 59018 81826
AAXX 12181 76556 32970 50000 10240 20120 39138 40171 50007 80006 91730 333 10251 20122 30/// 56006 58010 85270
AAXX 12181 76577 32970 02305 10186 20147 38067 40189 50003 91740 333 10191 20081 30/// 59002
AAXX 12181 76581 32970 50001 10212 20136 39085 40199 54000 85060 91750 333 10221 20117 30/// 56020 59015 85360
AAXX 12181 76585 32680 20901 10220 20183 30055 40214 50000 82200 91735 333 10230 20164 30/// 562// 59021 82833
AAXX 12181 76593 32370 30505 10266 20253 30188 40190 58007 83200 91750 333 10272 20225 30/// 561// 59001 81820 82720 91007 91505
AAXX 12181 76612 32562 51501 10210 20122 38497 40190 50000 83830 91750 333 10226 20088 30/// 56660 58005 81630 82833
AAXX 12181 76625 32950 03203 10187 20078 38164 40174 57002 91740 333 10187 20091 30/// 58001
AAXX 12181 76632 31957 01703 10157 20093 37656 40170 52002 70500 91740 333 10190 20064 30/// 58008
AAXX 12181 76634 31970 02601 10208 20024 37869 40206 57008 70500 80000 91750 333 10214 20048 30/// 56/// 59010
AAXX 12181 76644 32460 51103 10300 20225 30171 40183 56014 852// 91750 333 10300 20205 30/// 563// 59006 85820 91005 91511
AAXX 12181 76654 31430 12501 10278 20218 30168 40172 50006 70544 81500 91750 333 10278 20213 30/// 56400 58011 81620
AAXX 12181 76658 31558 12302 10279 20160 39657 40165 52002 70540 81100 91751 333 10282 20176 30/// 56100 58016 81822 94022 98904
AAXX 12181 76662 31670 63601 10196 20124 38490 40191 52004 70542 86400 91750 333 10205 20080 30/// 56200 58000 86633
AAXX 12181 76665 31562 22101 10224 20095 38128 40161 57011 70100 82100 91755 333 10234 20075 30/// 56100 57812 59006 82814
AAXX 12181 76675 31570 01302 10182 20017 37393 40215 56003 70544 91751 333 10191 21008 30/// 58004 98470
AAXX 12181 76680 31956 01402 10184 20049 37772 40127 57007 70400 80000 91755 333 10190 20072 30/// 59001
AAXX 12181 76683 32968 01801 10184 20086 37850 40240 56009 91745 333 10195 20035 30/// 58006
AAXX 12181 76685 32960 01202 10198 20021 37891 40196 57002 80000 91740 333 10200 20048 30/// 58004
AAXX 12181 76687 31560 62401 10187 20124 38723 40233 57001 70242 86500 91737 333 10190 20088 30/// 563// 59001 81824 85622
AAXX 12181 76692 31556 30402 10254 20195 30192 40211 58005 70544 83800 91745 333 10255 20200 30/// 568// 59005 82820 81622
AAXX 12181 76698 01560 60501 10263 20244 30168 40180 57009 60011 75152 86200 91755 333 10297 20213 32/// 56100 58007 60017 86820
AAXX 12181 76737 31480 41402 10192 20139 38815 40218 53001 70300 84200 91735 333 10199 20092 30/// 56200 59003 83817 91105 91514
AAXX 12181 76750 32560 73002 10260 20218 30168 40178 57008 87600 91750 333 10268 20190 30/// 56800 58002 87720
AAXX 12181 76762 32904 03201 10260 20210 38776 40164 54000 91735 333 10120 30/// 58004
AAXX 12181 76773 31968 02801 10232 20117 38441 40193 57015 7054/ 91748 333 10235 20051 30/// 58001
AAXX 12181 76775 31970 03401 10236 20075 38548 40211 57015 70200 91730 333 10238 20058 30/// 59001
AAXX 12181 76805 32570 12102 10292 20231 30147 40151 50002 81100 91745 333 10318 20216 30/// 567// 58019 81830
AAXX 12181 76833 32970 03610 10298 20149 30142 40144 57012 91745 333 10298 20220 30/// 58003 92023
AAXX 12181 76840 32550 10406 10284 20174 30090 40146 57007 81100 91730 333 10290 20180 30/// 56100 58002 81827
AAXX 12181 76843 32565 13602 10244 20160 39525 40173 57015 81100 91735 333 10250 20162 30/// 569// 58005 81830
AAXX 12181 76845 32960 03603 10180 20137 37966 40205 56008 91745 333 10192 20038 30/// 58007
AAXX 12181 76848 32770 10602 10225 20086 38402 40131 56004 81100 91750 333 10226 20083 30/// 56100 58004 81856
AAXX 12181 76903 32980 02302 10329 20182 30000 40130 57008 91740 333 10339 20222 30/// 58011
AAXX 12181 76160 11562 51601 10160 20112 39901 40151 52015 70252 885// 91730 333 10160 20150 30/// 56500 58/// 69907 88630
AAXX 12181 76243 11370 80701 10100 20089 39931 40235 57001 69931 70252 887// 91740 333 10106 20070 31/// 568// 59050 88707
AAXX 12181 76253 32682 82303 10184 20115 30059 40149 54002 88400 91750 333 10190 20160 30/// 59023 88634 92002
AAXX 12181 76311 32580 80000 10178 20122 39885 40168 52013 884// 91745 333 10180 20108 30/// 565// 59006 88625
AAXX 12181 76405 32675 61802 10240 20185 30137 40157 50008 85210 91750 333 10240 20196 30/// 56440 59002 85837
AAXX 12181 76412 31966 02501 10264 20138 300118 40163 57013 70544 91745 333 10264 20118 30/// 59011
AAXX 12181 76640 31458 53201 10224 20190 30222 40234 57003 70211 8215/ 91740 333 10238 20164 30/// 5633/ 59021 82814 83340
AAXX 12181 76647 32570 60502 10277 20226 30161 40192 58001 85230 91750 333 10292 20200 32/// 561/0 58016 85820
AAXX 12181 76741 31478 50503 10248 20209 30179 40197 52005 70544 83230 91730 333 10255 20150 30/// 5611/ 58016 83811
AAXX 12184 78970 11470 71312 10321 20226 30076 40101 69901 71581 83972 333 06399 10337 20243 58007 81912 87078 90960
AAXX 12184 78962 11468 71211 10295 20231 30106 40114 69941 70582 82832 333 02299 10303 20234 58007 82818 86078 90960
AAXX 12181 14528 NIL
AAXX 12181 14537 NIL
AAXX 12181 14544 NIL
AAXX 12181 14557 12960 41103 10120 20055 39786 40148 56004 60002 84030 333 84360
AAXX 12181 14640 NIL
AAXX 12181 76040 32960 72101 10136 30083 40097 52005 87006 91747 33310139 20099 30/// 56009 59053 87098 98660
AAXX 12181 76055 32980 02702 10185 20063 30070 40089 52005 91740 33310201 20125 30/// 58///
AAXX 12181 76113 22780 83401 10102 20094 39656 40108 52020 88800 91745333 10130 20100 32/// 56700 59042 60057 88750
AAXX 12181 76225 32760 72004 10145 20065 38612 40143 50002 87020 91745333 10145 20050 30/// 56050 59027 87450
AAXX 12181 76256 02680 81902 10172 20148 30151 40165 52014 60011 7585588700 91745 333 10182 20155 31/// 565// 59010 60017 88734
AAXX 12181 76305 31670 72403 10204 20105 30142 40150 52021 82450 91740333 10207 20159 30/// 56550 59008 82630 85358
AAXX 12181 76323 32870 80401 10154 21004 38264 40216 50000 85036 91745333 10164 20050 30/// 56055 59027 85357 83268
AAXX 12181 76342 31360 80401 10096 20070 39533 40267 57003 70222 887//91750 333 10105 20060 31/// 561// 59039 88710
AAXX 12181 76382 32980 71103 10208 20120 38910 40173 57004 80004 91745333 10218 20090 30/// 56005 59025 87076
AAXX 12181 76390 31965 22207 10168 20073 38244 40153 52008 70544 8000691730 333 10186 20116 30/// 56005 59011 82070
AAXX 12181 76393 01203 80600 10114 20103 39627 40219 54000 69901 70422887// 91752 333 10118 20090 31/// 569// 59037 69907 88705
AAXX 12181 76402 31557 72703 10206 20143 30102 40159 52012 70544 8750091745 333 10206 20150 30/// 56400 59004 87630
AAXX 12181 76423 32982 21801 10201 20012 38171 40181 54001 80007 91739333 10211 20060 30/// 56004 58016 81095
AAXX 12181 76458 32970 01704 10250 20182 30157 40162 58002 91740 33310267 20135 30/// 58008
AAXX 12181 76491 32960 20201 10188 20176 39827 40224 57006 80004 91745333 10192 20120 31/// 56009 59050
AAXX 12181 76525 32970 52106 10140 20051 37491 40154 52007 80001 91755333 10142 20101 30/// 56//5 58005 85080
AAXX 12181 76539 31962 00000 10142 20065 38195 40232 52010 70544 91745333 10167 20048 30/// 58004
AAXX 12181 76543 32575 32002 10254 20161 30191 40224 58015 81130 91735333 10256 20165 30/// 56330 59031 81834
AAXX 12181 76548 32575 12102 10236 20169 30217 40227 50001 81100 91740333 10238 20164 30/// 56400 59018 81826
AAXX 12181 76556 32970 50000 10240 20120 39138 40171 50007 80006 91730333 10251 20122 30/// 56006 58010 85270
AAXX 12181 76577 32970 02305 10186 20147 38067 40189 50003 91740 33310191 20081 30/// 59002
AAXX 12181 76581 32970 50001 10212 20136 39085 40199 54000 85060 91750333 10221 20117 30/// 56020 59015 85360
AAXX 12181 76585 32680 20901 10220 20183 30055 40214 50000 82200 91735333 10230 20164 30/// 562// 59021 82833
AAXX 12181 76593 32370 30505 10266 20253 30188 40190 58007 83200 91750333 10272 20225 30/// 561// 59001 81820 82720 91007 91505
AAXX 12181 76612 32562 51501 10210 20122 38497 40190 50000 83830 91750333 10226 20088 30/// 56660 58005 81630 82833
AAXX 12181 76625 32950 03203 10187 20078 38164 40174 57002 91740 33310187 20091 30/// 58001
AAXX 12181 76632 31957 01703 10157 20093 37656 40170 52002 70500 91740333 10190 20064 30/// 58008
AAXX 12181 76634 31970 02601 10208 20024 37869 40206 57008 70500 8000091750 333 10214 20048 30/// 56/// 59010
AAXX 12181 76644 32460 51103 10300 20225 30171 40183 56014 852// 91750333 10300 20205 30/// 563// 59006 85820 91005 91511
AAXX 12181 76654 31430 12501 10278 20218 30168 40172 50006 70544 8150091750 333 10278 20213 30/// 56400 58011 81620
AAXX 12181 76658 31558 12302 10279 20160 39657 40165 52002 70540 8110091751 333 10282 20176 30/// 56100 58016 81822 94022 98904
AAXX 12181 76662 31670 63601 10196 20124 38490 40191 52004 70542 8640091750 333 10205 20080 30/// 56200 58000 86633
AAXX 12181 76665 31562 22101 10224 20095 38128 40161 57011 70100 8210091755 333 10234 20075 30/// 56100 57812 59006 82814
AAXX 12181 76675 31570 01302 10182 20017 37393 40215 56003 70544 91751333 10191 21008 30/// 58004 98470
AAXX 12181 76680 31956 01402 10184 20049 37772 40127 57007 70400 8000091755 333 10190 20072 30/// 59001
AAXX 12181 76683 32968 01801 10184 20086 37850 40240 56009 91745 33310195 20035 30/// 58006
AAXX 12181 76685 32960 01202 10198 20021 37891 40196 57002 80000 91740333 10200 20048 30/// 58004
AAXX 12181 76687 31560 62401 10187 20124 38723 40233 57001 70242 8650091737 333 10190 20088 30/// 563// 59001 81824 85622
AAXX 12181 76692 31556 30402 10254 20195 30192 40211 58005 70544 8380091745 333 10255 20200 30/// 568// 59005 82820 81622
AAXX 12181 76698 01560 60501 10263 20244 30168 40180 57009 60011 7515286200 91755 333 10297 20213 32/// 56100 58007 60017 86820
AAXX 12181 76737 31480 41402 10192 20139 38815 40218 53001 70300 8420091735 333 10199 20092 30/// 56200 59003 83817 91105 91514
AAXX 12181 76750 32560 73002 10260 20218 30168 40178 57008 87600 91750333 10268 20190 30/// 56800 58002 87720
AAXX 12181 76762 32904 03201 10260 20210 38776 40164 54000 91735 33310120 30/// 58004
AAXX 12181 76773 31968 02801 10232 20117 38441 40193 57015 7054/ 91748333 10235 20051 30/// 58001
AAXX 12181 76775 31970 03401 10236 20075 38548 40211 57015 70200 91730333 10238 20058 30/// 59001
AAXX 12181 76805 32570 12102 10292 20231 30147 40151 50002 81100 91745333 10318 20216 30/// 567// 58019 81830
AAXX 12181 76833 32970 03610 10298 20149 30142 40144 57012 91745 33310298 20220 30/// 58003 92023
AAXX 12181 76840 32550 10406 10284 20174 30090 40146 57007 81100 91730333 10290 20180 30/// 56100 58002 81827
AAXX 12181 76843 32565 13602 10244 20160 39525 40173 57015 81100 91735333 10250 20162 30/// 569// 58005 81830
AAXX 12181 76845 32960 03603 10180 20137 37966 40205 56008 91745 33310192 20038 30/// 58007
AAXX 12181 76848 32770 10602 10225 20086 38402 40131 56004 81100 91750333 10226 20083 30/// 56100 58004 81856
AAXX 12181 76903 32980 02302 10329 20182 30000 40130 57008 91740 33310339 20222 30/// 58011
AAXX 12181 76160 11562 51601 10160 20112 39901 40151 52015 70252 885//91730 333 10160 20150 30/// 56500 58/// 69907 88630
AAXX 12181 76243 11370 80701 10100 20089 39931 40235 57001 69931 70252887// 91740 333 10106 20070 31/// 568// 59050 88707
AAXX 12181 76253 32682 82303 10184 20115 30059 40149 54002 88400 91750333 10190 20160 30/// 59023 88634 92002
AAXX 12181 76311 32580 80000 10178 20122 39885 40168 52013 884// 91745333 10180 20108 30/// 565// 59006 88625
AAXX 12181 76405 32675 61802 10240 20185 30137 40157 50008 85210 91750333 10240 20196 30/// 56440 59002 85837
AAXX 12181 76412 31966 02501 10264 20138 300118 40163 57013 70544 91745 333 10264 20118 30/// 59011
AAXX 12181 76640 31458 53201 10224 20190 30222 40234 57003 70211 8215/91740 333 10238 20164 30/// 5633/ 59021 82814 83340
AAXX 12181 76647 32570 60502 10277 20226 30161 40192 58001 85230 91750333 10292 20200 32/// 561/0 58016 85820
AAXX 12181 76741 31478 50503 10248 20209 30179 40197 52005 70544 8323091730 333 10255 20150 30/// 5611/ 58016 83811
BBXX VCXF 12184 99464 70484 41598 62827 11015 2107/ 40287 52005 70222 86500 22200 02020 20707 332// 40706 81033
BBXX VCRG 12184 99474 70619 46/// /2413 10021 21020 40280 53003 7//// 8//// 22200 0//// 2////
AAXX 12181 76040 32960 72101 10136 30083 40097 52005 87006 91747 333 10139 20099 30/// 56009 59053 87098 98660
AAXX 12181 76055 32980 02702 10185 20063 30070 40089 52005 91740 333 10201 20125 30/// 58///
AAXX 12181 76113 22780 83401 10102 20094 39656 40108 52020 88800 91745 333 10130 20100 32/// 56700 59042 60057 88750
AAXX 12181 76225 32760 72004 10145 20065 38612 40143 50002 87020 91745 333 10145 20050 30/// 56050 59027 87450
AAXX 12181 76256 02680 81902 10172 20148 30151 40165 52014 60011 75855 88700 91745 333 10182 20155 31/// 565// 59010 60017 88734
AAXX 12181 76305 31670 72403 10204 20105 30142 40150 52021 82450 91740 333 10207 20159 30/// 56550 59008 82630 85358
AAXX 12181 76323 32870 80401 10154 21004 38264 40216 50000 85036 91745 333 10164 20050 30/// 56055 59027 85357 83268
AAXX 12181 76342 31360 80401 10096 20070 39533 40267 57003 70222 887// 91750 333 10105 20060 31/// 561// 59039 88710
AAXX 12181 76382 32980 71103 10208 20120 38910 40173 57004 80004 91745 333 10218 20090 30/// 56005 59025 87076
AAXX 12181 76390 31965 22207 10168 20073 38244 40153 52008 70544 80006 91730 333 10186 20116 30/// 56005 59011 82070
AAXX 12181 76393 01203 80600 10114 20103 39627 40219 54000 69901 70422 887// 91752 333 10118 20090 31/// 569// 59037 69907 88705
AAXX 12181 76402 31557 72703 10206 20143 30102 40159 52012 70544 87500 91745 333 10206 20150 30/// 56400 59004 87630
AAXX 12181 76423 32982 21801 10201 20012 38171 40181 54001 80007 91739 333 10211 20060 30/// 56004 58016 81095
AAXX 12181 76458 32970 01704 10250 20182 30157 40162 58002 91740 333 10267 20135 30/// 58008
AAXX 12181 76491 32960 20201 10188 20176 39827 40224 57006 80004 91745 333 10192 20120 31/// 56009 59050
AAXX 12181 76525 32970 52106 10140 20051 37491 40154 52007 80001 91755 333 10142 20101 30/// 56//5 58005 85080
AAXX 12181 76539 31962 00000 10142 20065 38195 40232 52010 70544 91745 333 10167 20048 30/// 58004
AAXX 12181 76543 32575 32002 10254 20161 30191 40224 58015 81130 91735 333 10256 20165 30/// 56330 59031 81834
AAXX 12181 76548 32575 12102 10236 20169 30217 40227 50001 81100 91740 333 10238 20164 30/// 56400 59018 81826
AAXX 12181 76556 32970 50000 10240 20120 39138 40171 50007 80006 91730 333 10251 20122 30/// 56006 58010 85270
AAXX 12181 76577 32970 02305 10186 20147 38067 40189 50003 91740 333 10191 20081 30/// 59002
AAXX 12181 76581 32970 50001 10212 20136 39085 40199 54000 85060 91750 333 10221 20117 30/// 56020 59015 85360
AAXX 12181 76585 32680 20901 10220 20183 30055 40214 50000 82200 91735 333 10230 20164 30/// 562// 59021 82833
AAXX 12181 76593 32370 30505 10266 20253 30188 40190 58007 83200 91750 333 10272 20225 30/// 561// 59001 81820 82720 91007 91505
AAXX 12181 76612 32562 51501 10210 20122 38497 40190 50000 83830 91750 333 10226 20088 30/// 56660 58005 81630 82833
AAXX 12181 76625 32950 03203 10187 20078 38164 40174 57002 91740 333 10187 20091 30/// 58001
AAXX 12181 76632 31957 01703 10157 20093 37656 40170 52002 70500 91740 333 10190 20064 30/// 58008
AAXX 12181 76634 31970 02601 10208 20024 37869 40206 57008 70500 80000 91750 333 10214 20048 30/// 56/// 59010
AAXX 12181 76644 32460 51103 10300 20225 30171 40183 56014 852// 91750 333 10300 20205 30/// 563// 59006 85820 91005 91511
AAXX 12181 76654 31430 12501 10278 20218 30168 40172 50006 70544 81500 91750 333 10278 20213 30/// 56400 58011 81620
AAXX 12181 76658 31558 12302 10279 20160 39657 40165 52002 70540 81100 91751 333 10282 20176 30/// 56100 58016 81822 94022 98904
AAXX 12181 76662 31670 63601 10196 20124 38490 40191 52004 70542 86400 91750 333 10205 20080 30/// 56200 58000 86633
AAXX 12181 76665 31562 22101 10224 20095 38128 40161 57011 70100 82100 91755 333 10234 20075 30/// 56100 57812 59006 82814
AAXX 12181 76675 31570 01302 10182 20017 37393 40215 56003 70544 91751 333 10191 21008 30/// 58004 98470
AAXX 12181 76680 31956 01402 10184 20049 37772 40127 57007 70400 80000 91755 333 10190 20072 30/// 59001
AAXX 12181 76683 32968 01801 10184 20086 37850 40240 56009 91745 333 10195 20035 30/// 58006
AAXX 12181 76685 32960 01202 10198 20021 37891 40196 57002 80000 91740 333 10200 20048 30/// 58004
AAXX 12181 76687 31560 62401 10187 20124 38723 40233 57001 70242 86500 91737 333 10190 20088 30/// 563// 59001 81824 85622
AAXX 12181 76692 31556 30402 10254 20195 30192 40211 58005 70544 83800 91745 333 10255 20200 30/// 568// 59005 82820 81622
AAXX 12181 76698 01560 60501 10263 20244 30168 40180 57009 60011 75152 86200 91755 333 10297 20213 32/// 56100 58007 60017 86820
AAXX 12181 76737 31480 41402 10192 20139 38815 40218 53001 70300 84200 91735 333 10199 20092 30/// 56200 59003 83817 91105 91514
AAXX 12181 76750 32560 73002 10260 20218 30168 40178 57008 87600 91750 333 10268 20190 30/// 56800 58002 87720
AAXX 12181 76762 32904 03201 10260 20210 38776 40164 54000 91735 333 10120 30/// 58004
AAXX 12181 76773 31968 02801 10232 20117 38441 40193 57015 7054/ 91748 333 10235 20051 30/// 58001
AAXX 12181 76775 31970 03401 10236 20075 38548 40211 57015 70200 91730 333 10238 20058 30/// 59001
AAXX 12181 76805 32570 12102 10292 20231 30147 40151 50002 81100 91745 333 10318 20216 30/// 567// 58019 81830
AAXX 12181 76833 32970 03610 10298 20149 30142 40144 57012 91745 333 10298 20220 30/// 58003 92023
AAXX 12181 76840 32550 10406 10284 20174 30090 40146 57007 81100 91730 333 10290 20180 30/// 56100 58002 81827
AAXX 12181 76843 32565 13602 10244 20160 39525 40173 57015 81100 91735 333 10250 20162 30/// 569// 58005 81830
AAXX 12181 76845 32960 03603 10180 20137 37966 40205 56008 91745 333 10192 20038 30/// 58007
AAXX 12181 76848 32770 10602 10225 20086 38402 40131 56004 81100 91750 333 10226 20083 30/// 56100 58004 81856
AAXX 12181 76903 32980 02302 10329 20182 30000 40130 57008 91740 333 10339 20222 30/// 58011
AAXX 12181 76160 11562 51601 10160 20112 39901 40151 52015 70252 885// 91730 333 10160 20150 30/// 56500 58/// 69907 88630
AAXX 12181 76243 11370 80701 10100 20089 39931 40235 57001 69931 70252 887// 91740 333 10106 20070 31/// 568// 59050 88707
AAXX 12181 76253 32682 82303 10184 20115 30059 40149 54002 88400 91750 333 10190 20160 30/// 59023 88634 92002
AAXX 12181 76311 32580 80000 10178 20122 39885 40168 52013 884// 91745 333 10180 20108 30/// 565// 59006 88625
AAXX 12181 76405 32675 61802 10240 20185 30137 40157 50008 85210 91750 333 10240 20196 30/// 56440 59002 85837
AAXX 12181 76412 31966 02501 10264 20138 300118 40163 57013 70544 91745 333 10264 20118 30/// 59011
AAXX 12181 76640 31458 53201 10224 20190 30222 40234 57003 70211 8215/ 91740 333 10238 20164 30/// 5633/ 59021 82814 83340
AAXX 12181 76647 32570 60502 10277 20226 30161 40192 58001 85230 91750 333 10292 20200 32/// 561/0 58016 85820
AAXX 12181 76741 31478 50503 10248 20209 30179 40197 52005 70544 83230 91730 333 10255 20150 30/// 5611/ 58016 83811
BBXX CG2350 12184 99433 70798 46/// /2311 10050 21048 40305 58010 7//// 8//// 22200 0//// 2////
AAXX 12184 41170 41960 03008 10166 20121 30199 40212 70500 333 10205 58007
AAXX 12184 78762 31670 81304 10238 20185 39094 40110 58008 71522 81773 333 10240 20187 30/// 56330 58011 81640 84458 85075
BBXX VRZT9 12183 99291 70945 416// 60909 10180 2015/ 40270 51030 7//22 86132 22200 0//// 20502 3//// 40502 5//// 6//// 80160 ICE /////
AAXX 12184 78982 01482 60912 10290 20259 30094 40099 57021 69941 72522 83238 333 58012 69947 83818 85281
AAXX 12181 89061 379// 00213 10031 21012 39675 49682 52014 76166 333 91019 91123
AAXX 12184 78948 11579 51110 10299 20245 30108 40116 60001 70511 83201 333 02206 10307 20249 58008 79999 83827 83080
BBXX VCXF 12184 99464 70484 41598 62827 11015 2107/ 40287 52005 70222 86500 22200 02020 20707 332// 40706 81033
AAXX 12184 78062 11565 70811 10253 20205 40203 60001 71522 87800 333 58007 85818 86650 90908
BBXX VEP717 12184 99467 70487 41598 72830 11017 2108/ 40287 57002 70222 87500 22200 06031 20506 333// 40706 81038
AAXX 12184 81401 06/// /3102 10259 20241 30085 40091 60031 333 60037 58002 555 60005
AAXX 12184 81408 06/// /1702 10291 20257 30073 40081 60061 333 69967 59005 555 60005
AAXX 12184 78762 31670 81304 10238 20185 39094 40110 58008 71522 81773 333 10240 20187 30/// 56330 58011 81640 84458 85075
BBXX CGJK 12184 99484 71234 46/// /3608 10047 21009 40259 53002 7//// 8//// 22200 0//// 2////
BBXX CGDT 12184 99490 70669 46/// /2407 10016 21013 40250 55001 7//// 8//// 22200 0//// 2////
BBXX 3FZK3 12184 99515 11729 46/// /3225 11013 21036 49847 56008 7//// 8//// 22223 0//// 2////
BBXX VAAP 12184 99479 70596 46/// /2822 10016 21021 40244 53014 7//// 8//// 22243 0//// 2////
BBXX CGSB 12184 99468 70712 46/// /2102 10012 21036 40299 56004 7//// 8//// 22200 0//// 2////
BBXX CG2960 12184 99454 70803 46/// /2412 10048 20026 40285 58005 7//// 8//// 22261 00047 2////
BBXX CZ9742 12184 99506 70969 46/// /3511 11123 21139 40324 53007 7//// 8//// 22200 0//// 2////
BBXX CGBY 12184 99487 71235 46/// /2805 10026 21025 40261 53005 7//// 8//// 22200 0//// 2////
BBXX VOKJ 12184 99466 70547 46/// /2119 10013 21026 40281 58027 7//// 8//// 22264 0//// 2////
BBXX VOPP 12184 99456 70735 46/// /2107 10044 21044 4//// 5//// 7//// 8//// 22200 0//// 2////
BBXX VAAZ 12184 99527 70512 46/// /2735 11066 21109 40115 58008 7//// 8//// 22271 0//// 2////
BBXX VRYO3 12184 99480 70279 46/// /2718 10063 20072 40046 53004 7//// 8//// 22224 00131 2////
BBXX CGTF 12184 99476 70527 46/// /1411 11007 21062 40276 56026 7//// 8//// 22200 0//// 2////
BBXX C6SI6 12184 99370 11438 46/// /3220 10094 20042 40198 51016 7//// 8//// 22253 0//// 2////
BBXX VXKF 12184 99468 70598 46/// /2626 10035 21014 40244 55021 7//// 8//// 22254 0//// 2////
AAXX 12184 78062 11565 70811 10253 20205 40203 60001 71522 87800 333 58007 85818 86650 90908
BBXX VCBW 12184 99508 70589 46/// /3506 11093 21141 40235 56008 7//// 8//// 22200 0//// 2////
BBXX VCLM 12184 99621 70747 46/// /2520 11120 21165 40143 53008 7//// 8//// 22200 0//// 2////
BBXX CGJV 12184 99456 70612 46/// /2612 10053 20007 40297 56015 7//// 8//// 22200 0//// 2////
BBXX CGDR 12184 99505 71276 46/// /0102 10008 20007 40249 56005 7//// 8//// 22200 0//// 2////
BBXX VCSZ 12184 99459 70732 46/// /2212 10034 20005 40280 56014 7//// 8//// 22253 0//// 2////
BBXX CGBN 12184 99447 70636 46/// /2104 10082 20022 40295 56022 7//// 8//// 22200 0//// 2////
BBXX CGBR 12184 99543 71303 46/// /1211 10029 20028 40174 58015 7//// 8//// 22281 00079 2////
BBXX CG2965 12184 99487 71235 46/// /2805 10028 21022 40263 53006 7//// 8//// 22200 0//// 2////
BBXX CGCC 12184 99461 70729 46/// /2211 10030 21040 40290 56015 7//// 8//// 22211 00050 2////
BBXX CGDX 12184 99468 70712 46/// /2001 10018 21030 40298 56005 7//// 8//// 22200 0//// 2////
BBXX VCWL 12184 99468 70712 46/// /2602 10010 21036 40298 56004 7//// 8//// 22200 0//// 2////
AAXX 12181 89061 379// 00213 10031 21012 39675 49682 52014 76166 333 91019 91123
AAXX 12184 78762 31670 81304 10238 20185 39094 40110 58008 71522 81773 333 10240 20187 30/// 56330 58011 81640 84458 85075
AAXX 12184 78062 11565 70811 10253 20205 40203 60001 71522 87800 333 58007 85818 86650 90908
AAXX 12181 78221 11462 60506 10265 20202 30158 40185 57010 60004 70222 86200 333 86818
AAXX 12181 78224 31560 50407 10273 20182 30110 40183 58013 70304 85100 333 85830
AAXX 12181 78229 41559 30407 10253 20197 30111 40186 57010 70580 83200 333 83820
AAXX 12181 78239 41559 40408 10281 20209 30164 40167 57010 70000 84800 333 10274 20231 83820
AAXX 12181 12345 42560 60504 10270 20214 30130 40160 57018 86800 333 86825
AAXX 12181 78243 42558 60903 10230 20204 30064 40187 54000 85200 333 85820
AAXX 12181 78255 42559 40507 10273 20190 30016 40165 57010 84202 333 10283 20206 84820
AAXX 12181 78264 31560 21804 10282 20180 30064 40139 57020 70200 82100 333 82820
AAXX 12181 78265 41560 40506 10277 20184 30044 40144 57020 70544 84200 333 10291 20186 84825
AAXX 12181 78256 11559 40705 10301 20176 30090 40151 57022 60004 70544 84000 333 10300 20224 82825
AAXX 12181 78259 31559 51304 10299 20182 30070 40153 57023 70544 85200 333 10308 20199 85825
AAXX 12181 78268 11560 40603 10278 20240 30132 40151 57012 60001 70222 84200 333 84825
AAXX 12181 11423 01/01 92606 10018 20016 39243 42741 53019 69982 75165 333 10027 42004 69905 89/01 9513/
AAXX 12181 11487 01212 82302 10001 20000 39508 40144 53015 69912 72444 886// 333 10001 35/// 69915 88704 93604
AAXX 12181 11518 01560 72105 10027 20010 39682 40127 52011 69902 70262 875// 333 10027 60005 81623 83636 87656
AAXX 12181 11603 01457 81204 10021 20003 39635 40124 53013 69922 76052 885// 333 10023 69925 84616 85626 91111
AAXX 12181 11659 01/06 91901 10008 20008 39491 40142 52022 60002 74722 333 10012 60005 89/02
AAXX 12181 11723 01225 83202 10036 20026 39837 40138 53011 69902 72052 886// 333 10037 69905 82704 88706
AAXX 12181 11782 01340 82206 10037 20028 39820 40128 52007 60002 71022 886// 333 10047 60005 88708
AAXX 12184 81401 06/// /3102 10259 20241 30085 40091 60031 333 60037 58002 555 60005
AAXX 12184 81408 06/// /1702 10291 20257 30073 40081 60061 333 69967 59005 555 60005
AAXX 12184 64551 32460 60000 10276 20242 30064 40093 82930 333 10302 58004 82811 87362 94941 95831
AAXX 12184 64500 31460 72610 10270 20241 30078 40091 71322 85902 333 10286 58005 84610 81920 87075 94941 95831
BBXX CG2958 12184 99490 71233 46/// /3405 10046 20005 40267 51005 7//// 8//// 22200 0//// 2////
BBXX CGDG 12184 99447 70636 46/// /2413 10077 20048 40307 56021 7//// 8//// 22200 0//// 2////
AAXX 12181 11812 36/// /0804 10020 20020 39428 42739 52009 333 10022
AAXX 12181 11813 11230 80303 10036 20033 39781 40133 52008 69902 71022 886// 333 10037 88704
AAXX 12181 11816 11250 80404 10047 20034 39968 40133 53006 60002 71022 886// 333 10053 88706
AAXX 12181 11819 36/// /1102 10054 20039 39917 40134 52004 333 10054
AAXX 12181 11826 11458 89901 10065 20040 39930 40130 52005 60002 71022 886// 333 10065 88717
AAXX 12181 11841 11216 82601 10026 20019 39758 40139 53007 60002 75062 887// 333 10027 83706 88712
AAXX 12181 11855 11456 80806 10053 20035 39971 40138 53007 60002 71022 885// 333 10055 83713 88627
AAXX 12181 11856 36/// /1106 10047 20031 39819 40139 52003 333 10047
AAXX 12181 11858 11556 43102 10056 20041 39977 40129 53002 60002 71011 82541 333 10082 82626 83070
AAXX 12181 11867 12460 83504 10053 20023 39819 40137 53005 60002 885// 333 10053 88618
AAXX 12181 11880 11458 89901 10052 20038 39972 40145 56001 69902 71022 885// 333 10056 88616
AAXX 12181 11900 16/// /0502 10038 20023 39813 40151 54000 69942 333 10040
AAXX 12181 11903 11335 89901 10020 20017 39769 40156 52001 60022 71022 886// 333 10020 41998 88708
AAXX 12181 11916 11/00 92216 11020 21027 37899 48406 53012 69932 74943 333 11014 44020 89/00 91021 91130 92980 93698
AAXX 12181 11918 12673 72804 10037 20024 39303 42740 53003 60002 86571 333 10052 42003 86643
AAXX 12181 11927 11240 80402 10028 20019 39892 40158 56002 60012 71062 886// 333 10030 88705
AAXX 12181 11930 11/00 93105 11043 21044 37308 47983 55001 60022 74974 333 11040 44040 89/00 91013 93510
AAXX 12181 11933 11/01 99902 10022 20022 38620 48439 55002 69952 74765 333 10028 44039 89/00 91008
AAXX 12181 11934 11465 81202 10025 20019 39312 42750 53002 69942 76062 885// 333 10047 41998 81710 87623
AAXX 12181 11938 11/02 92309 10027 20024 39073 42748 55002 60042 74566 333 10027 44009 89/01
AAXX 12181 11952 16/// /1305 10028 20025 39306 42752 52001 69962 333 10028
AAXX 12181 11958 36/// /2013 10003 21000 38704 48439 52001 333 10005
AAXX 12181 11968 11250 80000 10027 20017 39874 40159 57004 60022 71062 886// 333 10031 84706 88709
AAXX 12181 11976 11665 81502 10041 20029 39889 40155 58006 69982 70262 885// 333 10042 88633
AAXX 12181 11978 11450 80000 10032 20023 30026 40158 57008 69922 71062 886// 333 10034 88710
AAXX 12181 11993 11464 81803 10073 20053 39939 40155 57005 69972 76062 885// 333 10076 88618
AAXX 12184 60155 32958 102// 10163 20118 40264 53004 80001 333 10188 81070
AAXX 12184 60096 NIL
AAXX 12184 60101 NIL
AAXX 12184 60115 NIL
AAXX 12184 60135 NIL
AAXX 12184 60150 NIL
AAXX 12184 60156 NIL
AAXX 12184 60230 NIL
AAXX 12184 60252 NIL
AAXX 12184 60060 32958 50206 10168 20132 40241 56003 84032 333 10185 84360 95300
AAXX 12184 60105 32460 23206 10148 20120 40278 52005 82800 333 10179 81816
AAXX 12184 60107 32960 01002 10132 20073 40271 51006 333 10184
AAXX 12184 60127 32960 00000 10142 20081 39672 40270 52008 333 10180
AAXX 12184 60141 32558 30000 10110 20069 39604 40279 53006 83200 333 10177 83830
AAXX 12184 60185 32970 00407 10171 20108 40262 50000 333 10207
AAXX 12184 60191 32970 00000 10156 20108 40260 53002 333 10212
AAXX 12184 60195 32965 02408 10116 21013 38577 48591 55004 333 10162 95500
AAXX 12184 60265 32970 13001 10171 21036 38956 48584 55002 80002 333 10204 81070
AAXX 12184 60106 NIL
AAXX 12184 60190 NIL
AAXX 12184 60210 NIL
AAXX 12184 60220 NIL
AAXX 12184 60318 NIL
BBXX DBLK 12181 99580 30000 41195 82814 11002 21003 49996 57008 71052 886// 22242 05016 ICE 35692
AAXX 12184 60285 32960 23606 10180 20141 40229 55001 82030 333 10205 82360
AAXX 12184 60340 NIL
AAXX 12184 65201 31913 60000 10276 20153 30064 40119 70522 80008 333 10340 56000 58010 86280
AAXX 12184 89642 40/// /1211 11012 21062 39654 49706 55000 333 91128
BBXX 44060 12181 99413 70721 46/// ///05 10056 40346 91745 22200 00104 333 91207 555 11051 22057
BBXX 44022 12181 99409 70737 46/// ///03 10055 21064 40343 91745 22200 00092 333 91206 555 11036 22036
AAXX 12184 17600 12970 70406 10124 20077 30235 40245 50001 60002 80002 333 10183 20105 87075
AAXX 12184 17601 12982 73203 10114 20083 30213 40245 53002 60002 80001 91750 333 10177 87075
AAXX 12184 17607 NIL
AAXX 12184 17609 12775 53106 10110 20075 30245 40249 52004 60002 81502 333 10179 20094 81656 85075
BBXX 41010 12181 99289 70785 46/// /0811 10228 40217 58018 91750 22200 00242 10906 20604 300// 40904 70031 333 91213 555 11118 22125
BBXX 41009 12181 99285 70802 46/// /0711 10241 20183 40218 58012 91750 22200 00258 10908 20705 300// 40906 70039 333 91213 555 11120 22127
BBXX 42057 12181 99168 70815 46/// /0408 10281 20228 40138 58010 91750 22200 00283 10603 20603 70016 333 91209 555 11079 22084 31714 40410 61749 037079 040078 040081 037079 035079 044076 80408 91727
BBXX 51101 12181 99243 71621 46/// /0809 10234 20187 40199 53010 91750 22200 00243 11006 20704 309// 41004 70029 333 91210 555 11092 22097 31726 40811 61749 076087 075091 077085 080084 077084 083085
BBXX 46061 12181 99602 71468 46/// /3302 10026 49894 51056 91750 22200 00059 11509 20401 300// 41509 70044 333 91205 555 11025 22025 31724 43408 61749 323024 347049 345055 338035 302016 251024
BBXX 44040 12181 99410 70736 46/// /2704 10053 21050 40351 91745 22200 1//00 70001 333 91205 555 11051 22062
AAXX 12184 48601 11558 70203 10242 20235 30106 40110 60461 76166 83538 333 83625 84364 87276
AAXX 12184 48615 11557 82202 10234 20225 30111 40117 69901 70562 8252/ 333 82620 88469
AAXX 12184 48620 11460 70301 10248 20240 30098 40107 60001 71322 83948 333 81917 83630 87276
AAXX 12184 48647 11550 73402 10259 20246 30082 40107 60001 70522 81542 333 81626 87078
AAXX 12184 48657 11240 73503 10234 20231 30095 40113 60031 76166 85558 333 81705 84624 86463
AAXX 12184 48665 12564 70406 10254 20234 30100 40110 60001 82572 333 82628 87364
AAXX 12184 96413 12565 72504 10236 20228 30070 40097 69901 82541 333 82620 83365 86080
AAXX 12184 96421 11256 82103 10232 20227 30063 40099 60191 76366 8552/ 333 82706 84616 88464
AAXX 12184 96441 11220 82102 10235 20232 30062 40089 60271 76566 8552/ 333 82705 84614 88464
AAXX 12184 96449 11458 81303 10244 20241 30067 40086 60091 76166 8452/ 333 84614 88365
AAXX 12184 96465 11465 82205 10234 20227 30060 40094 60031 72162 83877 333 82810 85363 88279
AAXX 12184 96471 11459 82607 10250 20235 30091 40094 60071 76166 84847 333 82813 83635 88276
AAXX 12184 96481 11462 73102 10254 20234 30063 40082 60001 71322 82941 333 81916 84364 86080
AAXX 12184 96491 11460 73102 10244 20236 30073 40085 69901 71062 82842 333 82814 84364 87078
AAXX 12181 45007 12962 30703 10139 20043 30192 40201 57007 60001 80001 333 59021 83080
BBXX VOLG 12184 99/// ///// 46/// /2510 11007 21057 40273 57024 7//// 8//// 22200 0//// 2////
AAXX 12181 45007 12962 30703 10139 20043 30192 40201 57007 60001 80001 333 59021 83080
BBXX 46232 12181 99325 71174 46/// ///// 1//// 91738 22200 00145 11504 20503 327// 41502 70018
BBXX 46247 12181 99378 71228 46/// ///// 1//// 91751 22200 00114 11306 21004 330// 41304 70028
BBXX 46243 12181 99462 71241 46/// ///// 1//// 91759 22200 00082 10903 20903 327// 41102 70017
BBXX 46240 12181 99366 71219 46/// ///// 1//// 91742 22200 00124 11102 20902 335// 41102 70012
BBXX 46236 12181 99368 71219 46/// ///// 1//// 91750 22200 00126 11304 21002 328// 41303 70019
BBXX 46225 12181 99329 71174 46/// ///// 1//// 91744 22200 00156 11503 20401 326// 41502 70013
BBXX 46213 12181 99403 71247 46/// ///// 1//// 91754 22200 00098 11010 21008 333// 41106 70051
BBXX 46215 12181 99352 71209 46/// ///// 1//// 91738 22200 00137 11503 21001 326// 41502 70013
BBXX 46218 12181 99345 71208 46/// ///// 1//// 91802 22200 00145 11504 21001 329// 41504 70020
AAXX 12184 87692 32460 72311 10168 20096 30100 40125 53005 87800 333 56500 82818 87625 555 10124
BBXX 44100 12181 99363 70756 46/// ///// 1//// 91752 22200 00138 10603 20603 70015
BBXX 41110 12181 99341 70777 46/// ///// 1//// 91751 22200 00144 10502 20502 70012
BBXX 42099 12181 99273 70842 46/// ///// 1//// 91757 22200 00237 10602 20602 70012
BBXX 46219 12181 99332 71199 46/// ///// 1//// 91758 22200 00137 11503 21001 328// 41503 70016
BBXX 46224 12181 99332 71175 46/// ///// 1//// 91736 22200 00150 11502 21001 324// 41501 70009
AAXX 12184 91503 31470 20000 10238 20237 40059 57010 70500 81208 333 56000 81814
AAXX 12184 91517 31475 21807 10238 20230 40069 57004 70500 81201 333 56909 81815
AAXX 12184 91503 31470 20000 10238 20237 40059 57010 70500 81208 333 56000 81814
AAXX 12184 91517 31475 21807 10238 20230 40069 57004 70500 81201 333 56909 81815
AAXX 12184 41170 41956 03008 10166 20121 30199 40212 70500 333 10205 58007
AAXX 12181 06431 NIL
AAXX 12181 06432 15/73 /2007 10066 20037 30037 40114 50007 69922 333 10079 87/59 91113 91210
AAXX 12181 06449 11480 52006 10054 20031 39894 40124 50010 60012 70281 84802 333 10073 81816 83640 91114 91210
AAXX 12181 06450 12481 52106 10069 20037 30086 40102 50011 69902 81132 333 10085 81819 85361 91111 91208
AAXX 12181 06458 12582 12007 10058 20038 39965 40120 51014 60022 81100 333 10079 81820 91111 91209
AAXX 12181 06465 15983 02104 10062 20031 30047 40114 51018 60022 333 10082 91110 91207
AAXX 12181 06478 12580 12208 10052 20026 39905 40127 51019 60042 81500 333 10073 81622 91112 91208
AAXX 12181 06496 17380 /2205 10026 20015 39451 40132 51019 60072 70086 333 10048 81/08 83/12 85/15 91110 91207
AAXX 12184 16021 11/06 91205 11016 21029 37908 48429 56007 60012 77174 333 11004 42008 89/02 92802 93104
AAXX 12184 16022 11/02 93415 11030 21033 37780 48424 53002 60032 77074 333 11010 47003 89/00 92812 93103
AAXX 12184 16033 11540 83106 10020 21001 38727 48438 53009 60022 77122 885// 333 10030 88620 92822 93106
AAXX 12184 16040 11510 80000 10044 20040 39204 42737 58001 69982 70262 886// 333 10060 88725
AAXX 12184 16052 11260 20331 11140 21146 36542 47972 54000 69922 72871 82080 333 11080 49999 82305 93199
AAXX 12184 16061 11950 02606 10052 20031 39291 42746 52007 60002 71011 333 10072
AAXX 12184 16098 11316 80202 10090 20082 30067 40118 56002 60052 76162 885// 333 10102 84708 86615
AAXX 12184 16138 11408 80000 10078 20072 30109 40120 53001 69982 74444 886// 333 10083 88710
AAXX 12184 16148 11215 52203 10071 20054 30099 40111 56007 60022 71064 85700 333 10087 82705 85640
AAXX 12184 16168 NIL
AAXX 12184 16172 11560 62403 10096 20094 39842 40141 55001 60162 70361 86800 333 10122 83821 85623
AAXX 12184 16179 11568 53306 10098 20060 39440 42742 56009 60102 72162 83270 333 10120 83828
AAXX 12184 16224 11460 62008 10130 20113 39817 40132 58002 60032 70262 82230 333 10146 82814 85357
AAXX 12184 16232 12598 71706 10150 20080 30084 40136 58004 60012 83271 333 10174 55300 82820 83357 555 0////
AAXX 12184 16245 11465 62406 10156 20124 30117 40143 53002 60142 70396 86300 333 10170 82810 81915 85630
AAXX 12184 16253 11462 61705 10148 20128 30148 40160 57007 60092 79511 84930 333 10188 81918 83820
AAXX 12184 16258 12560 31909 10094 20068 39172 42778 56015 60002 81501 333 10114 81620
AAXX 12184 16263 12380 22109 10076 20049 38910 48478 56001 60002 82500 333 10096 82608
AAXX 12184 16294 NIL
AAXX 12184 16337 NIL
AAXX 12184 16344 12970 02708 10040 20040 38330 48512 54002 60002 333 10080 95000 95100
AAXX 12184 16434 11056 52204 10074 20068 39002 48504 51001 60002 72841 85200 333 10130 85801 95062 95101
AAXX 12184 16450 12462 22209 10120 20090 39099 48568 56002 60002 82200 333 10148 82810
AAXX 12184 16459 12964 12606 10134 20125 30155 40190 53001 60002 81040 333 10220 81359
AAXX 12184 16546 11459 52402 10136 20111 30159 40187 52007 60022 71061 85800 333 10192 82815 84650
AAXX 12184 16564 11498 32718 10144 20110 30040 40182 52005 69902 70151 83800 333 10192 82816 83630 555 0////
AAXX 12184 65338 31910 50000 10285 20167 39912 40100 70522 80002 333 10340 58009 85076
AAXX 12184 16045 NIL
AAXX 12184 16090 11230 80000 10078 20075 30038 40121 55000 60082 76162 885// 333 10094 82705 85620
AAXX 12184 16149 11445 71605 10098 20079 30095 40111 58017 60032 71064 83570 333 10098 83615 84359
AAXX 12184 16261 12560 31405 10128 20093 30084 40156 56000 60002 81530 333 10186 55300 81630 83359
AAXX 12184 16453 12997 02805 10164 20126 30121 40199 56001 60002 333 10198 55300 555 0100/
AAXX 12184 16560 11470 30105 10130 20102 30181 40187 52006 60032 70261 81230 333 10182 55300 81818
AAXX 12181 06407 11575 62007 10058 20036 30081 40087 50001 69902 72582 85832 333 10085 82824 85636 91113 91210
AAXX 12181 06447 NIL
AAXX 12184 16168 11270 12204 10098 20094 39392 42758 55001 60002 70241 81500 333 10124 81604
AAXX 12184 16008 11560 80104 10012 21033 38490 48452 53028 60012 72272 885// 333 10018 43009 88625 92811 93101
AAXX 12184 16084 11215 82504 10050 20041 39960 40130 53008 69902 71062 885// 333 10064 82605 83625 85640
AAXX 12184 16088 11120 82604 10069 20069 30004 40122 56002 60092 72164 888// 333 10073 83703 83825
AAXX 12184 16110 11497 70503 10112 20098 30111 40115 57003 60082 70166 83230 333 10124 83615 84357 555 0////
AAXX 12184 16134 11/02 92228 10006 21001 37750 48426 57008 60022 77074 333 10016 42001 55300 89/01 93199 95090 95190 96043
AAXX 12184 16153 12998 00411 10087 20038 39849 40115 55001 60022 333 10137 555 0////
AAXX 12184 16158 12562 32418 10138 20086 30106 40113 50000 60142 83200 333 10146 83820
AAXX 12184 16206 11665 40104 10102 20080 30120 40129 58001 60222 70192 82450 333 10160 82640 83356
AAXX 12184 16219 41/00 90816 10014 20010 38090 48476 56005 6///2 76376 333 10026 89/00 95090 95190
AAXX 12184 16252 12462 72103 10108 20071 39212 42773 56007 60002 83470 333 10124 83615 84335 95080
AAXX 12184 16280 11597 42106 10146 20130 39932 40151 55007 60012 72161 84200 333 10174 84820 555 0////
AAXX 12184 16310 11597 43303 10140 20131 39950 40170 56010 69922 72996 81970 333 10170 55300 81920 555 0////
AAXX 12184 16320 12860 42116 10142 20139 30165 40177 53007 60002 84030 333 10168 84357 555 0////
AAXX 12184 16325 12597 63607 10138 20108 30150 40164 54000 60002 86500 333 10152 86630 98062 555 0////
AAXX 12184 16360 12497 52110 10160 20135 30054 40188 54000 60002 85200 333 10172 85815 555 0////
AAXX 12184 16400 12497 32313 10150 20113 39906 40193 55001 60002 83100 333 10194 55300 83817 555 0435/
AAXX 12184 16420 12998 02503 10170 20131 30120 40184 54000 60002 333 10202 555 0////
AAXX 12184 16429 11562 32608 10148 20123 30182 40194 51000 69962 70161 83200 333 10184 83822
AAXX 12184 16470 12460 32910 10156 20127 39978 40213 51003 60002 83200 333 10168 55300 22/// 83815 95060
AAXX 12184 16480 NIL
AAXX 12184 16522 11497 43015 10150 20096 39937 40179 53009 60012 70161 84200 333 10160 55300 84815 555 0////
AAXX 12184 16539 11497 53314 10150 20130 30075 40188 53004 60012 70186 82970 333 10158 81812 81915 555 0////
AAXX 12184 16550 12597 23206 10150 20076 39982 40160 52006 60002 82800 333 10178 81830 555 0////
AAXX 12184 13600 11450 81812 10130 20109 30133 40185 56005 60322 79588 889// 333 10148 82916 86626
AAXX 12184 13610 NIL
AAXX 12184 13611 NIL
AAXX 12184 13619 NIL
AAXX 12184 13622 11665 80404 10156 20097 30173 40180 54002 60022 70266 885// 333 10210 88633
AAXX 12184 13624 NIL
AAXX 12184 13625 NIL
AAXX 12184 13629 NIL
AAXX 12184 13601 11660 61804 10152 20092 30071 40170 53007 69902 70162 83520 333 10200 83633 84459
AAXX 12184 13602 NIL
AAXX 12184 13623 NIL
AAXX 12184 71805 01430 82325 10008 20002 30271 40280 57022 69902 78587 888// 333 10012 21025 45000 69907 87810 90710 91137 93100 555 69905
AAXX 12181 06400 11571 71905 10062 20047 30076 40087 58003 69902 72581 8487/ 333 10089 81829 84650 86358 91114 91210
AAXX 12181 06428 37780 /2006 10067 20039 30052 40101 50003 72286 333 10086 81/50 83/58 91111 91207
AAXX 12181 06451 12975 32106 10062 20033 30043 40110 50010 60032 82032 333 10078 82360 91113 91209
AAXX 12181 06456 11580 82105 10054 20026 39764 40133 51013 60022 70282 878// 333 10070 82824 85630 87650 91112 91208
AAXX 12181 06476 17267 82205 10029 20020 39477 40147 51021 60042 70065 333 10048 85/05 88/06 91109 91205
AAXX 12181 06479 12981 02205 10055 20030 30035 40115 51018 69962 333 10086 91111 91208
AAXX 12181 06490 17481 62206 10033 20016 39561 40137 51019 60062 70065 333 10053 82/15 86/35 91112 91206
AAXX 12181 06590 11475 72205 10039 20030 39697 40155 52021 60032 72582 878// 333 10068 87812 91112 91208
AAXX 12184 68386 36/// /1102 10266 20219 39654 48592 52025 333 10385 20266 91004 555 91019
BBXX 51204 12181 99213 71581 46/// ///// 1//// 91752 22200 00247 10602 20602 323// 41301 70012
BBXX 51203 12181 99208 71570 46/// ///// 1//// 91743 22200 00246 11301 20901 320// 41301 70006
BBXX 51201 12181 99217 71581 46/// ///// 1//// 91742 22200 00242 10704 20703 304// 41101 70018
BBXX 51202 12181 99214 71577 46/// ///// 1//// 91739 22200 00244 11006 21005 309// 41203 70032
AAXX 12184 61970 16/// ///// 10284 20242 40102 60002 333 10328 58002 555 60005
AAXX 12184 61972 16/// /0202 10278 20248 40102 60002 333 10314 59002 90710 91104 555 60005
AAXX 12184 61980 12562 11008 10256 20211 40128 69902 81800 333 10313 58000 81826 90710 91112 924/7 555 60005
AAXX 12184 67005 14/// /2805 10271 20238 40109 60002 700// 333 10305 58005 90710 91107 555 60005
AAXX 12184 16480 12997 02702 10150 20147 30127 40188 51006 60002 333 10200 555 0////
AAXX 12181 01028 11580 41606 11073 21083 39954 49974 55007 69912 70221 81501 333 11019 91106
AAXX 12181 01397 16/// /1202 10002 20001 39473 49906 57013 60082 333 10002 91104
AAXX 12181 01026 11987 40000 11046 21054 39815 49958 57022 60002 70221 80008 333 11020 91101
AAXX 12181 01367 11530 83201 11045 21056 39467 49913 53002 60092 70222 8872/ 333 11042 91103
AAXX 12184 78970 11470 71312 10321 20226 30076 40101 69901 71581 83972 333 06399 10337 20243 58007 81912 87078 90960
AAXX 12184 78962 11468 71211 10295 20231 30106 40114 69941 70582 82832 333 02299 10303 20234 58007 82818 86078 90960
AAXX 12181 06201 47513 42211 10075 20037 39932 49984 58018 78085 8//// 333 10076 82/20 83/24 91012 91115 91211
AAXX 12181 06203 45571 4//13 10095 20029 39992 40043 58012 8//// 333 10095 81/29 84/73 91015 91116 91213
AAXX 12181 06204 45573 12313 10085 20031 39975 40026 58008 8//// 333 10085 81/25 91015 91116 91214
AAXX 12181 06205 47472 32212 10074 20031 39912 49970 58006 70185 8//// 333 10076 82/18 83/20 91014 91119 91213
AAXX 12181 06208 45569 32108 10058 20032 39994 40043 50009 8//// 333 10086 83/23 83/28 91011 91111 91209
AAXX 12181 06211 45466 42212 10076 20030 39946 40001 58014 8//// 333 10078 82/19 84/23 91015 91116 91214
AAXX 12181 06212 45570 32313 1//// 2//// 39978 40041 50000 8//// 333 1//// 82/23 83/27 91014 91115 91213
AAXX 12181 06235 15567 12309 10074 20036 30050 40050 50006 60002 8//// 333 10080 81/27 91012 91113 91210
AAXX 12181 06240 17970 02006 10051 20036 30077 40072 51010 60002 70180 333 10084 91008 91112 91209
AAXX 12181 06251 15566 72307 10063 20046 30042 40043 51009 69922 8//// 333 10076 81/26 85/36 87/42 91008 91113 91210
AAXX 12181 06258 46/// /2110 333 91012 91112 91211
AAXX 12181 06269 15580 42107 10056 20037 30078 40072 51012 69932 8//// 333 10077 82/26 84/29 91010 91113 91208
AAXX 12181 06280 15974 02105 10044 20028 30055 40059 51015 60012 333 10073 91007 91111 91207
AAXX 12181 06310 15673 82011 10071 20047 30069 40079 58001 60002 8//// 333 10084 81/36 83/45 88/56 91013 91113 91211
AAXX 12181 06344 15972 02007 10060 20034 30083 40076 50007 60002 333 10084 91010 91113 91209
AAXX 12181 06370 15982 02106 10058 20032 30076 40102 51016 69902 333 10085 91008 91112 91208
AAXX 12181 06380 15981 02208 10057 20028 39982 40122 51020 60042 333 10081 91012 91112 91209
AAXX 12184 48601 11558 70203 10242 20235 30106 40110 60461 76166 83538 333 83625 84364 87276
AAXX 12184 48615 11557 82202 10234 20225 30111 40117 69901 70562 8252/ 333 82620 88469
AAXX 12184 48620 11460 70301 10248 20240 30098 40107 60001 71322 83948 333 81917 83630 87276
AAXX 12184 48647 11550 73402 10259 20246 30082 40107 60001 70522 81542 333 81626 87078
AAXX 12184 48650 11560 70000 10247 20228 30087 40106 60001 70522 82542 333 82630 84364 86078
AAXX 12184 48657 11240 73503 10234 20231 30095 40113 60031 76166 85558 333 81705 84624 86463
AAXX 12184 48665 12564 70406 10254 20234 30100 40110 60001 82572 333 82628 87364
AAXX 12184 96413 12565 72504 10236 20228 30070 40097 69901 82541 333 82620 83365 86080
AAXX 12184 96421 11256 82103 10232 20227 30063 40099 60191 76366 8552/ 333 82706 84616 88464
AAXX 12184 96441 11220 82102 10235 20232 30062 40089 60271 76566 8552/ 333 82705 84614 88464
AAXX 12184 96449 11458 81303 10244 20241 30067 40086 60091 76166 8452/ 333 84614 88365
AAXX 12184 96465 11465 82205 10234 20227 30060 40094 60031 72162 83877 333 82810 85363 88279
AAXX 12184 96471 11459 82607 10250 20235 30091 40094 60071 76166 84847 333 82813 83635 88276
AAXX 12184 96481 11462 73102 10254 20234 30063 40082 60001 71322 82941 333 81916 84364 86080
AAXX 12184 96491 11460 73102 10244 20236 30073 40085 69901 71062 82842 333 82814 84364 87078
AAXX 12181 06206 45572 62211 10080 20028 39964 40017 58003 8//// 333 10087 82/21 83/27 86/38 91012 91113 91211
AAXX 12181 06207 45572 72411 10068 20021 39975 40028 50007 8//// 333 10074 81/21 86/31 87/36 91014 91114 91212
AAXX 12181 06239 47480 13513 10077 20025 3//// 4//// 5//// 70180 8//// 333 10081 81/18 91015 91118 91215
AAXX 12181 06252 46/// /2312 10085 20034 39971 40016 58014 222// 00093 10604 333 10086 91014 91115 91213
AAXX 12181 06260 15975 12106 10059 20030 30079 40081 51013 69902 8//// 333 10090 81/68 91010 91110 91206
AAXX 12181 06270 15572 62004 10042 20029 30050 40050 51013 69952 8//// 333 10073 81/26 83/38 86/43 91006 91112 91208
AAXX 12181 06290 17580 42105 10055 20019 30043 40083 51015 60032 70180 8//// 333 10077 81/24 84/39 91009 91112 91208
BBXX 46114 12181 99364 71222 46/// ///// 1//// 91734 22200 00126 11306 21003 329// 41305 70030
BBXX 46238 12181 99334 71195 46/// ///// 1//// 91750 22200 00147 11503 21001 328// 41503 70015
BBXX 46239 12181 99363 71221 46/// ///// 1//// 91751 22200 00128 11306 21004 330// 41304 70029
AAXX 12181 37682 32997 00000 11110 21116 38184 48531 52005 333 11030
AAXX 12181 37717 329// 61901 11045 21084 38140 48574 52009 86070 333 10005
AAXX 12181 37788 41695 70000 11040 21059 39310 40362 52005 71011 82570 333 10012
AAXX 12184 16084 11415 82504 10050 20041 39960 40130 53008 69902 71062 885// 333 10064 82615 83625 85640
AAXX 12184 91574 46/// ///// 29090 30007 40013 56014
AAXX 12184 91570 NIL
AAXX 12184 91598 NIL
AAXX 12184 91573 06/// /0310 10261 20236 39988 40084 55003 60001 333 59006 60007
AAXX 12184 91579 06/// /0304 10258 20240 30083 40091 56006 60001 333 59006 60007
AAXX 12184 91582 04470 /0404 10248 20236 30061 40095 55006 60002 700// 333 10289 20247 60007 90710 91107 555 60005
AAXX 12184 91583 06/// /0706 10269 20240 30077 40092 56003 60101 333 59005 60007
AAXX 12184 91590 04985 /0304 10273 20191 30039 40081 56005 60002 700// 333 10291 20259 60007 90710 91109 555 60005
AAXX 12184 91592 06/// /3604 10264 20183 30000 40084 56004 60001 333 59013 60007
AAXX 12184 91596 06/// /0310 10249 20230 39990 40098 55004 60001 333 59007 60007
AAXX 12184 91577 NIL
AAXX 12184 91587 NIL
BBXX A8MW8 12183 99308 10001 41497 32151 10150 20118 40250 54000 70300 83145 22265 06210 21203 326// 41002 5//// 80131
AAXX 12181 13586 11537 80000 10063 20037 39931 40225 52006 69902 71022 886// 333 10105 85720 88650
BBXX A8UT7 12184 99337 70136 41698 30206 10185 20145 40250 54000 70200 82/84 22283 20501 333// 41009 80160
AAXX 12181 33135 32997 61704 11017 21034 30056 40242 57007 80004 333 10040
AAXX 12181 33317 11496 81606 10009 20001 39852 40196 57012 69902 71082 885// 333 10024 88614
AAXX 12181 33345 32998 01503 10008 21021 30031 40242 57011 333 10043
AAXX 12181 33393 11448 81305 10026 21001 39767 40163 56008 69902 78082 883// 333 10027 84914
AAXX 12181 33506 32997 20000 11004 21031 30084 40287 58001 80001 333 10016
AAXX 12181 33587 32662 81401 10012 21005 39983 40253 57007 885// 333 10036 88636
AAXX 12181 33631 11597 81103 10079 20040 30019 40162 57008 69942 70262 885// 333 10081 88625
AAXX 12181 33663 31495 71102 10033 20026 30124 40222 57007 71022 875// 333 10033 87618
AAXX 12181 33658 31/01 91003 11001 21001 39892 40200 57011 74742 333 10008
AAXX 12181 33711 32997 71604 10006 21011 30060 40277 57004 87030 333 10042
AAXX 12181 33791 32997 81503 10003 21021 30125 40281 58006 8805/ 333 10039
AAXX 12181 33837 32580 81408 10071 20025 30199 40251 57008 8555/ 333 10072 85621
AAXX 12181 33924 32998 81104 10042 21028 30257 40270 57005 8807/ 333 10074
AAXX 12181 33946 32797 80704 10030 21018 30047 40273 57007 8255/ 333 10086
AAXX 12181 34300 32497 72203 10001 21031 30097 40295 54000 87500 333 10012 87616
AAXX 12181 34504 32924 01601 11017 21025 30109 40295 54000 333 10030
AAXX 12181 34519 32560 61401 10002 21035 30022 40307 52002 86500 333 10010 86623
AAXX 12181 34601 31927 01402 11022 21029 30158 40301 57001 71000 333 10039
AAXX 12184 78958 11472 61410 10289 20255 30099 40109 60021 70682 86802 333 10292 20247 58008 82819 85640
BBXX A8SF7 12181 99370 70746 41/98 70610 10150 20113 40320 54000 7//11 8/7// 22283 04140 21003 305// 41204 5//// 80130
AAXX 12184 13619 11660 61406 10094 20074 39430 42816 54000 60062 70152 86500 333 10100 86640
AAXX 12181 03951 17450 /2413 10114 20103 39814 49840 57036 60112 72386 87/// 333 10115 86/13 87/44 90710 91119
AAXX 12181 03953 11450 82414 10108 20090 39793 49828 56026 60202 76262 886// 333 10120 86715 88628 92456 90710 91121
AAXX 12181 03955 11370 82210 10100 20095 39644 49834 57037 60162 76062 886// 333 10101 85708 86715 87640
AAXX 12181 03956 17356 /2209 10103 20097 39773 49847 55069 60102 75287 87/// 333 10104 87/08 87/50 90710 91118
AAXX 12181 03962 11450 81907 10099 20083 39778 49802 57045 60042 76062 885// 333 10102 81714 83634 87645
AAXX 12181 03963 17644 /2614 10083 20063 39747 49775 57038 60172 78186 87/// 333 10110 87/31 90710 91124
AAXX 12181 03966 17770 /2007 10089 20062 39709 49798 57053 60042 78186 81/// 333 10094 81/50
AAXX 12181 03967 11470 82110 10094 20076 39698 49808 56085 60022 72165 8657/ 333 10095 81711 83640 87459 90710 91121 91218
AAXX 12181 03969 11475 82208 10095 20072 39713 49813 56087 69972 72162 885// 333 10097 81715 84630 87650 91602
AAXX 12181 03973 11259 82107 10073 20064 39519 49765 56060 60052 76176 885// 333 10073 84705 86711 87622
AAXX 12181 03976 11459 72409 10086 20064 39737 49749 56043 60092 78086 873// 333 10095 83715 86920 90710 91118
AAXX 12181 03980 16/// /1610 10044 20029 39733 49757 57086 60022 333 10067
BBXX A8EH3 12183 99537 11769 41496 83518 10020 21005 49810 56020 76877 887// 22224 04040 2//// 80010
AAXX 12184 07034 41/96 8//// 76586 333 92446
BBXX DBBH 12181 99449 70088 41497 82320 10135 20098 40143 55001 70282 875// 22252 04147
BBXX C6CU6 12183 99394 70207 41297 73027 10160 20124 40250 56020 70352 85778 22253 04170 20801 331// 41508 5//// 80140
BBXX TBWUK35 12183 99409 70102 41598 82315 10156 20099 40228 53010 70222 885// 22244 00170 20202 332// 40808 80126
BBXX DDZF2 12184 99105 10657 41/97 /0522 10280 20239 40120 51020 72922 8//// 22225 00280 20303 80250
BBXX PBEO 12183 99408 70098 41597 72514 10156 20079 40250 57010 70222 878// 22282 02165 20301 333// 41005 80114
AAXX 12184 78958 11472 61410 10289 20255 30099 40109 60021 70682 86802 333 10292 20247 58008 82819 85640
BBXX 42363 12181 99282 70892 46/// /0709 10200 20156 40254 50000 91800 333 91209
BBXX 44011 12181 99411 70666 46/// /1804 10082 20011 40348 56024 91750 22200 00100 10801 3//// 40801 70007 333 91205 555 11045 22046 31718 43506 61749 178043 178042 177042 177043 178041 169040
BBXX 41046 12181 99238 70683 46/// /0606 10255 20210 40137 58018 91750 22200 00262 10805 20402 300// 40804 70023 333 91207 555 11058 22061 31721 40507 61749 059055 056051 056057 056059 055060 056056 80506 91714
AAXX 12184 78947 11478 31305 10310 20230 30114 40117 60001 70500 83903 333 06209 10311 20242 58009 81918
AAXX 12181 01023 16/// /0301 11050 21057 39856 49953 58025 6//// 333 11050 91104
AAXX 12181 01406 46/// /2212 10067 20026 39863 49881 51004 333 10070 91116
AAXX 12181 01442 11488 51407 10029 20016 39669 49924 52001 60072 70361 85200 333 10054 91109
AAXX 12181 01378 16/// /1303 10017 20002 39600 49888 57009 60062 333 10017 91106
AAXX 12181 01422 16/// /1304 10049 20021 60042 333 10058 91109
AAXX 12181 01364 16/// /0904 11082 21093 38781 49914 50001 60012 333 11048 4/038 91107
AAXX 12184 89532 41/58 83008 11045 21063 39783 49810 56007 77172 885//
AAXX 12181 11010 01450 83101 10024 20021 39775 40160 52021 69942 76162 333 10025 69945 84616 87625
AAXX 12181 11012 11/10 92303 10026 20020 39685 40161 53022 69942 76344 333 10028 20004 55300
AAXX 12181 11022 11/08 92801 10028 20019 39748 40139 53017 69902 75154 333 10028 20014 55300 89/02
AAXX 12181 11035 31358 82906 10043 20034 39881 40136 52022 69902 75042 886// 333 10055 20027 82707 88708
AAXX 12181 11036 32356 83104 10052 20038 39909 40133 53021 333 10059 87707
AAXX 12181 11101 11460 82003 10051 20021 39669 40201 52032 60032 70262 886// 333 10066 20014 88719
AAXX 12181 11120 01359 80302 10032 20024 39461 40175 53039 60032 76166 333 10060 60025 82607 84615 86625
AAXX 12181 11126 17/// /3211 11057 21057 37686 48455 53028 60072 7404/ 333 11019 21058 55300 91130
AAXX 12181 11130 17/// /2301 10029 20024 39580 40176 53038 60052 7404/ 333 10048 20003 55300
AAXX 12181 11146 11/00 90507 11102 21106 36871 47971 52005 60042 77574 333 11075 21102 89/00 91121 91213 92612
AAXX 12181 11150 01356 81702 10036 20031 39625 40172 52030 60052 76362 333 10040 60035 81709 83614 88622
AAXX 12181 11155 11/01 93207 11022 21027 38313 48444 53016 60032 77342 333 10053 21023 55300 89/03 91115
AAXX 12181 11157 11465 82401 11002 21012 39379 40164 52027 69902 76662 875// 333 10000 82614 87640
AAXX 12181 11172 NIL
AAXX 12181 11190 12660 83203 10054 20040 39890 40124 53015 60002 885// 333 10076 20007 55300 88638
AAXX 12181 11204 17/// /0601 10020 20010 39349 40149 53016 69922 740// 333 10045 21018 55300
AAXX 12181 11212 NIL
AAXX 12181 11231 01456 83001 10028 20020 39559 40136 53001 69912 76086 333 10039 69915 81710 83640 87657
AAXX 12181 11240 01658 79901 10043 20031 39685 40126 53004 69902 78082 333 10059 69905 81640 87656 86362
AAXX 12181 11244 16/// /3501 10055 20039 39793 40122 53002 69902 333 10066 20004 55300
AAXX 12181 11389 12550 82205 10021 20012 39821 40153 53032 60002 885// 333 10033 20010 55300
AAXX 12181 76040 32960 72101 10136 30083 40097 52005 87006 91747 333 10139 20099 30/// 56009 59053 87098 98660
AAXX 12181 76055 32980 02702 10185 20063 30070 40089 52005 91740 333 10201 20125 30/// 58///
AAXX 12181 76113 22780 83401 10102 20094 39656 40108 52020 88800 91745 333 10130 20100 32/// 56700 59042 60057 88750
AAXX 12181 76123 06570 73203 10182 20000 3//// 4//// 5//// 60002 7//// 81224 91750 333 0//// 10182 20004 56493 57/// 5//// 60007 81835 8//// 8//// 8//// 9//// 9//// 9//// 444 ///// 555
AAXX 12181 76225 32760 72004 10145 20065 38612 40143 50002 87020 91745 333 10145 20050 30/// 56050 59027 87450
AAXX 12181 76226 06/// /1704 10154 20051 38606 40095 58001 60002 7//// 8//// 91750 333 0//// 10154 20051 30/// 4//// 54/// 56/// 57/// 59025 60007 8//// 8//// 8//// 9//// 9//// 9//// 44
AAXX 12181 76256 02680 81902 10172 20148 30151 40165 52014 60011 75855 88700 91745 333 10182 20155 31/// 565// 59010 60017 88734
AAXX 12181 76305 31670 72403 10204 20105 30142 40150 52021 82450 91740 333 10207 20159 30/// 56550 59008 82630 85358
AAXX 12181 76323 32870 80401 10154 21004 38264 40216 50000 85036 91745 333 10164 20050 30/// 56055 59027 85357 83268
AAXX 12181 76342 31360 80401 10096 20070 39533 40267 57003 70222 887// 91750 333 10105 20060 31/// 561// 59039 88710
AAXX 12181 76373 32670 50000 10186 21032 38206 40152 57011 85050 91750 333 10190 20011 30/// 56090 58004 85340
AAXX 12181 76382 32980 71103 10208 20120 38910 40173 57004 80004 91745 333 10218 20090 30/// 56005 59025 87076
AAXX 12181 76390 31965 22207 10168 20073 38244 40153 52008 70544 80006 91730 333 10186 20116 30/// 56005 59011 82070
AAXX 12181 76393 01203 80600 10114 20103 39627 40219 54000 69901 70422 887// 91752 333 10118 20090 31/// 569// 59037 69907 88705
AAXX 12181 76402 31557 72703 10206 20143 30102 40159 52012 70544 87500 91745 333 10206 20150 30/// 56400 59004 87630
AAXX 12181 76423 32982 21801 10201 20012 38171 40181 54001 80007 91739 333 10211 20060 30/// 56004 58016 81095
AAXX 12181 76458 32970 01704 10250 20182 30157 40162 58002 91740 333 10267 20135 30/// 58008
AAXX 12181 76471 32980 12103 10200 20092 37710 40146 52004 80001 91755 333 10208 20059 30/// 56005 58004 81075
AAXX 12181 76490 06/// /0403 10199 20145 39810 40199 58008 69922 7//// 8//// 91750 333 0//// 10199 20124 30/// 54/// 56/// 57/// 59042 69927 8//// 8//// 8//// 8//// 9//// 9//// 9//// 44
AAXX 12181 76491 32960 20201 10188 20176 39827 40224 57006 80004 91745 333 10192 20120 31/// 56009 59050
AAXX 12181 76499 31457 73401 10200 20167 30186 40208 57002 70122 876// 91755 333 10201 20148 32/// 568// 59034 87714
AAXX 12181 76525 32970 52106 10140 20051 37491 40154 52007 80001 91755 333 10142 20101 30/// 56//5 58005 85080
AAXX 12181 76538 06/// /3102 10168 20071 38193 40162 58003 60002 7//// 8//// 91750 333 0//// 10171 20066 30/// 4//// 54/// 56/// 57/// 58002 60007 8//// 8//// 8//// 9//// 9//// 9//// 44
AAXX 12181 76539 31962 00000 10142 20065 38195 40232 52010 70544 91745 333 10167 20048 30/// 58004
AAXX 12181 76543 32575 32002 10254 20161 30191 40224 58015 81130 91735 333 10256 20165 30/// 56330 59031 81834
AAXX 12181 76547 06/// /2102 10235 20166 30201 40213 58005 60002 7//// 8//// 91750 333 0//// 10236 20160 56/// 57/// 59018 60007 8//// 8//// 8//// 8//// 9//// 9//// 9//// 444 ///// 555
AAXX 12181 76548 32575 12102 10236 20169 30217 40227 50001 81100 91740 333 10238 20164 30/// 56400 59018 81826
AAXX 12181 76556 32970 50000 10240 20120 39138 40171 50007 80006 91730 333 10251 20122 30/// 56006 58010 85270
AAXX 12181 76571 31965 21802 10204 20048 38190 40211 55001 705// 91755 333 10210 20060 30/// 50005 58001
AAXX 12181 76577 32970 02305 10186 20147 38067 40189 50003 91740 333 10191 20081 30/// 59002
AAXX 12181 76578 06/// /2205 10191 20057 38064 40131 50002 60002 7//// 8//// 91750 333 0//// 10191 20076 30/// 4//// 54/// 56/// 57/// 58005 60007 8//// 8//// 8//// 9//// 9//// 9//// 44
AAXX 12181 76581 32970 50001 10212 20136 39085 40199 54000 85060 91750 333 10221 20117 30/// 56020 59015 85360
AAXX 12181 76585 32680 20901 10220 20183 30055 40214 50000 82200 91735 333 10230 20164 30/// 562// 59021 82833
AAXX 12181 76586 06/// /0501 10237 20168 30054 40209 58003 60002 7//// 8//// 91750 333 0//// 10248 20165 30/// 4//// 54/// 56/// 57/// 59024 60007 8//// 8//// 8//// 9//// 9//// 9//// 44
AAXX 12181 76592 06/// /0412 10265 20109 30188 40188 58008 60002 7//// 8//// 91750 333 0//// 10272 20225 30/// 4//// 54/// 56/// 57/// 58001 60007 8//// 8//// 8//// 9//// 9//// 9//// 44
AAXX 12181 76593 32370 30505 10266 20253 30188 40190 58007 83200 91750 333 10272 20225 30/// 561// 59001 81820 82720 91007 91505
AAXX 12181 76612 32562 51501 10210 20122 38497 40190 50000 83830 91750 333 10226 20088 30/// 56660 58005 81630 82833
AAXX 12181 76625 32950 03203 10187 20078 38164 40174 57002 91740 333 10187 20091 30/// 58001
AAXX 12181 76632 31957 01703 10157 20093 37656 40170 52002 70500 91740 333 10190 20064 30/// 58008
AAXX 12181 76634 31970 02601 10208 20024 37869 40206 57008 70500 80000 91750 333 10214 20048 30/// 56/// 59010
AAXX 12181 76641 06/// /1101 10254 20187 30206 40218 58005 60002 7//// 8//// 91750 333 0//// 10260 20170 30/// 4//// 54/// 56/// 57/// 59015 60007 8//// 8//// 8//// 8//// 9//// 9//// 9/
AAXX 12181 76644 32460 51103 10300 20225 30171 40183 56014 852// 91750 333 10300 20205 30/// 563// 59006 85820 91005 91511
AAXX 12181 76645 06/// /0603 10298 20213 30175 40188 58011 60002 7//// 8//// 91750 333 0//// 10298 20205 30/// 4//// 54/// 56/// 57/// 59005 60007 8//// 8//// 8//// 9//// 9//// 9//// 44
AAXX 12181 76648 06/// /0502 10291 20217 30148 40178 58012 69922 7//// 8//// 91750 333 0//// 10297 20199 30/// 4//// 54/// 56/// 57/// 58013 60007 8//// 8//// 8//// 8//// 9//// 9//// 9/
AAXX 12181 76654 31430 12501 10278 20218 30168 40172 50006 70544 81500 91750 333 10278 20213 30/// 56400 58011 81620
AAXX 12181 76656 32575 11601 10232 20121 38529 40185 54000 81100 91750 333 10240 20080 30/// 56300 58010 81820
AAXX 12181 76658 31558 12302 10279 20160 39657 40165 52002 70540 81100 91751 333 10282 20176 30/// 56100 58016 81822 94022 98904
AAXX 12181 76659 06/// /2302 10300 20142 3//// 4//// 5//// 60002 7//// 8//// 91750 333 0//// 10300 20165 30/// 4//// 54/// 56/// 57/// 5//// 60007 8//// 8//// 8//// 9//// 9//// 9//// 44
AAXX 12181 76662 31670 63601 10196 20124 38490 40191 52004 70542 86400 91750 333 10205 20080 30/// 56200 58000 86633
AAXX 12181 76665 31562 22101 10224 20095 38128 40161 57011 70100 82100 91755 333 10234 20075 30/// 56100 57812 59006 82814
AAXX 12181 76675 31570 01302 10182 20017 37393 40215 56003 70544 91751 333 10191 21008 30/// 58004 98470
AAXX 12181 76680 31956 01402 10184 20049 37772 40127 57007 70400 80000 91755 333 10190 20072 30/// 59001
AAXX 12181 76683 32968 01801 10184 20086 37850 40240 56009 91745 333 10195 20035 30/// 58006
AAXX 12181 76684 06/// /1804 10204 20015 37850 40128 58012 60002 7//// 8//// 91750 333 0//// 10204 20026 30/// 4//// 54/// 56/// 57/// 58002 60007 8//// 8//// 8//// 9//// 9//// 9//// 44
AAXX 12181 76685 32960 01202 10198 20021 37891 40196 57002 80000 91740 333 10200 20048 30/// 58004
AAXX 12181 76687 31560 62401 10187 20124 38723 40233 57001 70242 86500 91737 333 10190 20088 30/// 563// 59001 81824 85622
AAXX 12181 76692 31556 30402 10254 20195 30192 40211 58005 70544 83800 91745 333 10255 20200 30/// 568// 59005 82820 81622
AAXX 12181 76693 06/// /0402 10260 20197 30188 40207 58010 60002 7//// 8//// 91750 333 0//// 10260 20198 30/// 4//// 56/// 57/// 59008 60007 8//// 8//// 8//// 8//// 9//// 9//// 9//// 44
AAXX 12181 76698 01560 60501 10263 20244 30168 40180 57009 60011 75152 86200 91755 333 10297 20213 32/// 56100 58007 60017 86820
AAXX 12181 76726 32970 02001 10213 20109 38424 40169 52001 91755 333 10213 20118 30/// 58001
AAXX 12181 76727 06/// /1701 10220 20052 38422 40119 58005 60002 7//// 8//// 91750 333 0//// 10233 20121 30/// 4//// 54/// 56/// 57/// 58004 60007 8//// 8//// 8//// 9//// 9//// 9//// 44
AAXX 12181 76737 31480 41402 10192 20139 38815 40218 53001 70300 84200 91735 333 10199 20092 30/// 56200 59003 83817 91105 91514
AAXX 12181 76738 06/// /1502 10201 20129 38815 40183 58004 60002 7//// 8//// 333 10202 20087 30/// 56/// 57/// 59003 60007 8//// 8//// 8//// 8//// 9//// 9//// 9//// 444 ///// 555 30187
AAXX 12181 76750 32560 73002 10260 20218 30168 40178 57008 87600 91750 333 10268 20190 30/// 56800 58002 87720
AAXX 12181 76751 06/// /3202 10267 20224 30168 40178 58008 60002 7//// 8//// 91750 333 0//// 10267 20189 30/// 4//// 54/// 56/// 57/// 58003 60007 8//// 8//// 8//// 9//// 9//// 9//// 44
AAXX 12181 76762 32904 03201 10260 20210 38776 40164 54000 91735 333 10120 30/// 58004
AAXX 12181 76772 06/// /2701 10234 20055 38444 40124 58018 60002 7//// 8//// 91750 333 0//// 10234 20048 30/// 4//// 56/// 57/// 58001 60007 8//// 8//// 8//// 9//// 9//// 9//// 444 ////
AAXX 12181 76773 31968 02801 10232 20117 38441 40193 57015 7054/ 91748 333 10235 20051 30/// 58001
AAXX 12181 76775 31970 03401 10236 20075 38548 40211 57015 70200 91730 333 10238 20058 30/// 59001
AAXX 12181 76776 06/// /1501 10230 20059 38530 40130 58019 60002 7//// 8//// 91750 333 0//// 10230 20054 30/// 4//// 56/// 57/// 58001 60007 8//// 8//// 8//// 9//// 9//// 9//// 444 ////
AAXX 12181 76805 32570 12102 10292 20231 30147 40151 50002 81100 91745 333 10318 20216 30/// 567// 58019 81830
AAXX 12181 76806 06/// /2202 10297 20226 30145 40149 58007 60002 7//// 8//// 91750 333 10302 20212 30/// 56/// 57/// 58011 60007 8//// 8//// 8//// 8//// 9//// 9//// 9//// 555 30274
AAXX 12181 76833 32970 03610 10298 20149 30142 40144 57012 91745 333 10298 20220 30/// 58003 92023
AAXX 12181 76840 32550 10406 10284 20174 30090 40146 57007 81100 91730 333 10290 20180 30/// 56100 58002 81827
AAXX 12181 76843 32565 13602 10244 20160 39525 40173 57015 81100 91735 333 10250 20162 30/// 569// 58005 81830
AAXX 12181 76845 32960 03603 10180 20137 37966 40205 56008 91745 333 10192 20038 30/// 58007
AAXX 12181 76848 32770 10602 10225 20086 38402 40131 56004 81100 91750 333 10226 20083 30/// 56100 58004 81856
AAXX 12181 76902 06/// /2202 10324 20179 39998 40133 58008 60002 7//// 8//// 91750 333 0//// 10330 20220 30/// 4//// 54/// 56/// 57/// 58006 60007 8//// 8//// 8//// 8//// 9//// 9//// 9/
AAXX 12181 76903 32980 02302 10329 20182 30000 40130 57008 91740 333 10339 20222 30/// 58011
AAXX 12181 76160 11562 51601 10160 20112 39901 40151 52015 70252 885// 91730 333 10160 20150 30/// 56500 58/// 69907 88630
AAXX 12181 76243 11370 80701 10100 20089 39931 40235 57001 69931 70252 887// 91740 333 10106 20070 31/// 568// 59050 88707
AAXX 12181 76253 32682 82303 10184 20115 30059 40149 54002 88400 91750 333 10190 20160 30/// 59023 88634 92002
AAXX 12181 76311 32580 80000 10178 20122 39885 40168 52013 884// 91745 333 10180 20108 30/// 565// 59006 88625
AAXX 12181 76405 32675 61802 10240 20185 30137 40157 50008 85210 91750 333 10240 20196 30/// 56440 59002 85837
AAXX 12181 76412 31966 02501 10264 20138 300118 40163 57013 70544 91745 333 10264 20118 30/// 59011
AAXX 12181 76640 31458 53201 10224 20190 30222 40234 57003 70211 8215/ 91740 333 10238 20164 30/// 5633/ 59021 82814 83340
AAXX 12181 76647 32570 60502 10277 20226 30161 40192 58001 85230 91750 333 10292 20200 32/// 561/0 58016 85820
AAXX 12181 76741 31478 50503 10248 20209 30179 40197 52005 70544 83230 91730 333 10255 20150 30/// 5611/ 58016 83811
AAXX 12181 76855 32880 11802 10316 20243 30089 40138 50002 81020 91745 333 10320 20210 30/// 56090 58011 81458 92001
BBXX 2ALE5 12183 99194 70177 41997 80417 10231 20137 40135 53003 70322 8805/ 22284 20403 80176
BBXX DDZA2 12184 99366 70001 41/98 22719 10165 20114 40245 52005 70100 8//// 22263 04170 2//// 80135
AAXX 12181 15015 02597 80601 10056 20020 39574 42785 57005 60002 8457/ 333 10063 21014 31001 60007 91002 91103
AAXX 12181 15020 01596 81002 10034 20032 30001 40203 58006 60002 71011 8457/ 333 10054 21065 30008 60007 91002 91102
AAXX 12181 15090 01596 81202 10070 20053 30124 40217 57004 60002 71022 885// 333 10073 21013 31004 55300 00006 20002 3//// 60007 91003 91105
AAXX 12181 15108 02298 52908 11006 21006 38094 48513 57006 60002 81541 333 10000 21040 3//// 43006 60007 92820
AAXX 12181 15120 01697 70602 10063 20043 39681 40180 57004 69902 76162 84570 333 10079 20005 31009 55300 10097 2//// 3//// 69907 91003 91104
AAXX 12181 15150 01393 81603 10047 20047 39998 40214 57007 60002 74644 886// 333 10055 21006 31007 60007 91006 91106
AAXX 12181 15170 02997 62201 10006 20004 39416 42805 57002 60002 86070 333 10054 21039 31011 60007 91001 91102
AAXX 12181 15200 02997 61202 10081 20055 30014 40158 57005 60002 86070 333 10135 20062 31016 60007 91003 91103
AAXX 12181 15230 02597 71800 10055 20037 39890 40187 57006 60002 87500 333 10085 20032 31011 55300 10055 20003 3//// 60007 91001 91102
AAXX 12181 15260 02597 32800 10046 20038 39646 40187 57006 60002 83500 333 10066 20013 31010 60007 91002 91102
AAXX 12181 15280 01/93 82508 11032 21035 37494 47025 58003 69942 74174 885// 333 11026 21049 3//// 48035 60007 92815 92911 96036
AAXX 12181 15292 02597 81505 10083 20045 39887 40181 54001 60002 883// 333 10111 20081 31011 60007 91008 91109
AAXX 12181 15310 01496 81102 10073 20061 30139 40227 57010 60002 71022 8467/ 333 10076 20022 31007 55300 10014 20002 3//// 60007 91004 91105
AAXX 12181 15335 02497 81503 10088 20079 30225 40231 57006 60002 886// 333 10096 20028 31011 60007 91005 91107
AAXX 12181 15346 01/92 90000 10056 20054 39929 40223 54001 60032 74762 333 10068 20048 31007 69987 91001 91101
AAXX 12181 15350 01596 81001 10071 20069 30105 40226 56008 69912 71042 885// 333 10071 20040 31008 60007 91002 91103
AAXX 12181 15360 02497 81507 10092 20083 30220 40234 55007 60002 886// 222// 06073 20301 333 10092 20073 3//// 60007 91009 91109 92427
AAXX 12181 15410 01597 80000 10056 20044 30123 40220 57005 69922 76162 8802/ 333 10067 20056 30008 69927 91000 91100
AAXX 12181 15420 01597 80301 10065 20058 30104 40217 57006 69912 76162 8802/ 333 10067 20047 31009 55300 0//// 20000 3//// 69917 91002 91102
AAXX 12181 15450 01493 81002 10052 20051 39977 40217 56006 69932 74444 886// 333 10056 20034 31006 55300 10007 20001 3//// 60007 91002 91104
AAXX 12181 15460 02997 71102 10089 20076 30187 40211 58006 60002 87070 333 10131 20052 30015 60007 91003 91103
AAXX 12181 15470 01493 80401 10059 20059 30088 40216 58005 69912 74642 886// 333 10062 20036 31008 60007 91002 91102
AAXX 12181 15480 01494 81102 10096 20096 30208 40225 57006 69902 71054 886// 222// 06072 2//// 333 10097 20091 31011 69907 91004 91105 92424
BBXX C6OM8 12180 99135 70267 41396 70706 10265 20213 40124 54000 70540 877// 22243 06260 20402 307// 40402 5//// 80230
BBXX A8YW2 12184 99343 30263 41598 32022 10210 20160 40080 50003 70200 8244/ 22223 00200 20804 328// 40904 80180
AAXX 12184 78062 11565 70811 10253 20205 40203 60001 71522 87800 333 58007 85818 86650 90908
BBXX A8VL5 12184 99061 10908 41/98 /0908 10266 20240 40226 50/// 7//// 8//// 22265 00280 2//01 80247
BBXX TFBLK 12184 99657 70248 46/// ///// 22200 10705 70027
BBXX TFDRN 12184 99658 70212 46/// ///// 22200 10604 70020
BBXX TFGRS 12184 99663 70182 46/// ///// 22200 10706 70028
BBXX TFGRV 12184 99638 70225 46/// ///// 22200 10704 70022
BBXX TFGSK 12184 99641 70229 46/// ///// 22200 10703 70017
BBXX TFHFN 12184 99642 70152 46/// ///// 22200 10805 70023
BBXX TFKGR 12184 99657 70136 46/// ///// 22200 10807 70036
BBXX TFSRT 12184 99633 70203 46/// ///// 22200 10906 70029
BBXX TFSTD 12184 99664 70234 46/// ///// 22200 10710 70050
AAXX 12181 26038 01460 71705 10009 21003 30025 40066 57016 69962 70262 87600 333 10035 20009 60007 87711 91008 91110 555 1/001 20009 3/000 50016 52000
AAXX 12181 26135 01466 81804 10003 21014 30010 40085 58018 60002 70222 886// 333 10028 20003 60007 88713 91109 555 1/000 20003 3/100 50009 52000
AAXX 12181 26141 01365 71906 10000 21014 39941 40092 57014 69912 70222 87500 333 10018 21008 60007 87610 91009 91110 555 1/100 21008 3/101 50002 52101
AAXX 12181 26231 01466 81705 10011 21016 30061 40076 58017 69902 70211 875// 333 10041 20011 60007 87618 91008 91110 555 1/001 20011 3/000
AAXX 12181 26242 01475 81606 10004 21027 30016 40104 57017 69902 70222 875// 333 10026 20001 60007 87616 91009 91110 555 1/100 20001 3/100 50012 52100
AAXX 12181 26247 01466 71504 10000 21018 30025 40106 58016 60002 70322 86530 333 10024 21001 60007 86620 91108 555 1/100 21001 3/100 50011
AAXX 12181 26045 NIL
AAXX 12181 26058 NIL
AAXX 12181 26115 NIL
AAXX 12184 61766 31957 82003 10296 20186 30054 40096 70522 80001 333 10331 58016 88075
AAXX 12184 61769 NIL
AAXX 12184 333 NIL
AAXX 12181 76040 32960 72101 10136 30083 40097 52005 87006 91747 33310139 20099 30/// 56009 59053 87098 98660
AAXX 12181 76055 32980 02702 10185 20063 30070 40089 52005 91740 33310201 20125 30/// 58///
AAXX 12181 76113 22780 83401 10102 20094 39656 40108 52020 88800 91745333 10130 20100 32/// 56700 59042 60057 88750
AAXX 12181 76123 06570 73203 10182 20000 3//// 4//// 5//// 60002 7////81224 91750 333 0//// 10182 20004 56493 57/// 5//// 6000781835 8//// 8//// 8//// 9//// 9//// 9//// 444 ///// 555
AAXX 12181 76225 32760 72004 10145 20065 38612 40143 50002 87020 91745333 10145 20050 30/// 56050 59027 87450
AAXX 12181 76226 06/// /1704 10154 20051 38606 40095 58001 60002 7////8//// 91750 333 0//// 10154 20051 30/// 4//// 54/// 56///57/// 59025 60007 8//// 8//// 8//// 9//// 9//// 9//// 44
AAXX 12181 76256 02680 81902 10172 20148 30151 40165 52014 60011 7585588700 91745 333 10182 20155 31/// 565// 59010 60017 88734
AAXX 12181 76305 31670 72403 10204 20105 30142 40150 52021 82450 91740333 10207 20159 30/// 56550 59008 82630 85358
AAXX 12181 76323 32870 80401 10154 21004 38264 40216 50000 85036 91745333 10164 20050 30/// 56055 59027 85357 83268
AAXX 12181 76342 31360 80401 10096 20070 39533 40267 57003 70222 887//91750 333 10105 20060 31/// 561// 59039 88710
AAXX 12181 76373 32670 50000 10186 21032 38206 40152 57011 85050 91750333 10190 20011 30/// 56090 58004 85340
AAXX 12181 76382 32980 71103 10208 20120 38910 40173 57004 80004 91745333 10218 20090 30/// 56005 59025 87076
AAXX 12181 76390 31965 22207 10168 20073 38244 40153 52008 70544 8000691730 333 10186 20116 30/// 56005 59011 82070
AAXX 12181 76393 01203 80600 10114 20103 39627 40219 54000 69901 70422887// 91752 333 10118 20090 31/// 569// 59037 69907 88705
AAXX 12181 76402 31557 72703 10206 20143 30102 40159 52012 70544 8750091745 333 10206 20150 30/// 56400 59004 87630
AAXX 12181 76423 32982 21801 10201 20012 38171 40181 54001 80007 91739333 10211 20060 30/// 56004 58016 81095
AAXX 12181 76458 32970 01704 10250 20182 30157 40162 58002 91740 33310267 20135 30/// 58008
AAXX 12181 76471 32980 12103 10200 20092 37710 40146 52004 80001 91755333 10208 20059 30/// 56005 58004 81075
AAXX 12181 76490 06/// /0403 10199 20145 39810 40199 58008 69922 7////8//// 91750 333 0//// 10199 20124 30/// 54/// 56/// 57///59042 69927 8//// 8//// 8//// 8//// 9//// 9//// 9//// 44
AAXX 12181 76491 32960 20201 10188 20176 39827 40224 57006 80004 91745333 10192 20120 31/// 56009 59050
AAXX 12181 76499 31457 73401 10200 20167 30186 40208 57002 70122 876//91755 333 10201 20148 32/// 568// 59034 87714
AAXX 12181 76525 32970 52106 10140 20051 37491 40154 52007 80001 91755333 10142 20101 30/// 56//5 58005 85080
AAXX 12181 76538 06/// /3102 10168 20071 38193 40162 58003 60002 7////8//// 91750 333 0//// 10171 20066 30/// 4//// 54/// 56///57/// 58002 60007 8//// 8//// 8//// 9//// 9//// 9//// 44
AAXX 12181 76539 31962 00000 10142 20065 38195 40232 52010 70544 91745333 10167 20048 30/// 58004
AAXX 12181 76543 32575 32002 10254 20161 30191 40224 58015 81130 91735333 10256 20165 30/// 56330 59031 81834
AAXX 12181 76547 06/// /2102 10235 20166 30201 40213 58005 60002 7////8//// 91750 333 0//// 10236 20160 56/// 57/// 59018 600078//// 8//// 8//// 8//// 9//// 9//// 9//// 444 ///// 555
AAXX 12181 76548 32575 12102 10236 20169 30217 40227 50001 81100 91740333 10238 20164 30/// 56400 59018 81826
AAXX 12181 76556 32970 50000 10240 20120 39138 40171 50007 80006 91730333 10251 20122 30/// 56006 58010 85270
AAXX 12181 76571 31965 21802 10204 20048 38190 40211 55001 705// 91755333 10210 20060 30/// 50005 58001
AAXX 12181 76577 32970 02305 10186 20147 38067 40189 50003 91740 33310191 20081 30/// 59002
AAXX 12181 76578 06/// /2205 10191 20057 38064 40131 50002 60002 7////8//// 91750 333 0//// 10191 20076 30/// 4//// 54/// 56///57/// 58005 60007 8//// 8//// 8//// 9//// 9//// 9//// 44
AAXX 12181 76581 32970 50001 10212 20136 39085 40199 54000 85060 91750333 10221 20117 30/// 56020 59015 85360
AAXX 12181 76585 32680 20901 10220 20183 30055 40214 50000 82200 91735333 10230 20164 30/// 562// 59021 82833
AAXX 12181 76586 06/// /0501 10237 20168 30054 40209 58003 60002 7////8//// 91750 333 0//// 10248 20165 30/// 4//// 54/// 56///57/// 59024 60007 8//// 8//// 8//// 9//// 9//// 9//// 44
AAXX 12181 76592 06/// /0412 10265 20109 30188 40188 58008 60002 7////8//// 91750 333 0//// 10272 20225 30/// 4//// 54/// 56///57/// 58001 60007 8//// 8//// 8//// 9//// 9//// 9//// 44
AAXX 12181 76593 32370 30505 10266 20253 30188 40190 58007 83200 91750333 10272 20225 30/// 561// 59001 81820 82720 91007 91505
AAXX 12181 76612 32562 51501 10210 20122 38497 40190 50000 83830 91750333 10226 20088 30/// 56660 58005 81630 82833
AAXX 12181 76625 32950 03203 10187 20078 38164 40174 57002 91740 33310187 20091 30/// 58001
AAXX 12181 76632 31957 01703 10157 20093 37656 40170 52002 70500 91740333 10190 20064 30/// 58008
AAXX 12181 76634 31970 02601 10208 20024 37869 40206 57008 70500 8000091750 333 10214 20048 30/// 56/// 59010
AAXX 12181 76641 06/// /1101 10254 20187 30206 40218 58005 60002 7////8//// 91750 333 0//// 10260 20170 30/// 4//// 54/// 56///57/// 59015 60007 8//// 8//// 8//// 8//// 9//// 9//// 9/
AAXX 12181 76644 32460 51103 10300 20225 30171 40183 56014 852// 91750333 10300 20205 30/// 563// 59006 85820 91005 91511
AAXX 12181 76645 06/// /0603 10298 20213 30175 40188 58011 60002 7////8//// 91750 333 0//// 10298 20205 30/// 4//// 54/// 56///57/// 59005 60007 8//// 8//// 8//// 9//// 9//// 9//// 44
AAXX 12181 76648 06/// /0502 10291 20217 30148 40178 58012 69922 7////8//// 91750 333 0//// 10297 20199 30/// 4//// 54/// 56///57/// 58013 60007 8//// 8//// 8//// 8//// 9//// 9//// 9/
AAXX 12181 76654 31430 12501 10278 20218 30168 40172 50006 70544 8150091750 333 10278 20213 30/// 56400 58011 81620
AAXX 12181 76656 32575 11601 10232 20121 38529 40185 54000 81100 91750333 10240 20080 30/// 56300 58010 81820
AAXX 12181 76658 31558 12302 10279 20160 39657 40165 52002 70540 8110091751 333 10282 20176 30/// 56100 58016 81822 94022 98904
AAXX 12181 76659 06/// /2302 10300 20142 3//// 4//// 5//// 60002 7////8//// 91750 333 0//// 10300 20165 30/// 4//// 54/// 56///57/// 5//// 60007 8//// 8//// 8//// 9//// 9//// 9//// 44
AAXX 12181 76662 31670 63601 10196 20124 38490 40191 52004 70542 8640091750 333 10205 20080 30/// 56200 58000 86633
AAXX 12181 76665 31562 22101 10224 20095 38128 40161 57011 70100 8210091755 333 10234 20075 30/// 56100 57812 59006 82814
AAXX 12181 76675 31570 01302 10182 20017 37393 40215 56003 70544 91751333 10191 21008 30/// 58004 98470
AAXX 12181 76680 31956 01402 10184 20049 37772 40127 57007 70400 8000091755 333 10190 20072 30/// 59001
AAXX 12181 76683 32968 01801 10184 20086 37850 40240 56009 91745 33310195 20035 30/// 58006
AAXX 12181 76684 06/// /1804 10204 20015 37850 40128 58012 60002 7////8//// 91750 333 0//// 10204 20026 30/// 4//// 54/// 56///57/// 58002 60007 8//// 8//// 8//// 9//// 9//// 9//// 44
AAXX 12181 76685 32960 01202 10198 20021 37891 40196 57002 80000 91740333 10200 20048 30/// 58004
AAXX 12181 76687 31560 62401 10187 20124 38723 40233 57001 70242 8650091737 333 10190 20088 30/// 563// 59001 81824 85622
AAXX 12181 76692 31556 30402 10254 20195 30192 40211 58005 70544 8380091745 333 10255 20200 30/// 568// 59005 82820 81622
AAXX 12181 76693 06/// /0402 10260 20197 30188 40207 58010 60002 7////8//// 91750 333 0//// 10260 20198 30/// 4//// 56/// 57///59008 60007 8//// 8//// 8//// 8//// 9//// 9//// 9//// 44
AAXX 12181 76698 01560 60501 10263 20244 30168 40180 57009 60011 7515286200 91755 333 10297 20213 32/// 56100 58007 60017 86820
AAXX 12181 76726 32970 02001 10213 20109 38424 40169 52001 91755 33310213 20118 30/// 58001
AAXX 12181 76727 06/// /1701 10220 20052 38422 40119 58005 60002 7////8//// 91750 333 0//// 10233 20121 30/// 4//// 54/// 56///57/// 58004 60007 8//// 8//// 8//// 9//// 9//// 9//// 44
AAXX 12181 76737 31480 41402 10192 20139 38815 40218 53001 70300 8420091735 333 10199 20092 30/// 56200 59003 83817 91105 91514
AAXX 12181 76738 06/// /1502 10201 20129 38815 40183 58004 60002 7////8//// 333 10202 20087 30/// 56/// 57/// 59003 60007 8////8//// 8//// 8//// 9//// 9//// 9//// 444 ///// 555 30187
AAXX 12181 76750 32560 73002 10260 20218 30168 40178 57008 87600 91750333 10268 20190 30/// 56800 58002 87720
AAXX 12181 76751 06/// /3202 10267 20224 30168 40178 58008 60002 7////8//// 91750 333 0//// 10267 20189 30/// 4//// 54/// 56///57/// 58003 60007 8//// 8//// 8//// 9//// 9//// 9//// 44
AAXX 12181 76762 32904 03201 10260 20210 38776 40164 54000 91735 33310120 30/// 58004
AAXX 12181 76772 06/// /2701 10234 20055 38444 40124 58018 60002 7////8//// 91750 333 0//// 10234 20048 30/// 4//// 56/// 57///58001 60007 8//// 8//// 8//// 9//// 9//// 9//// 444 ////
AAXX 12181 76773 31968 02801 10232 20117 38441 40193 57015 7054/ 91748333 10235 20051 30/// 58001
AAXX 12181 76775 31970 03401 10236 20075 38548 40211 57015 70200 91730333 10238 20058 30/// 59001
AAXX 12181 76776 06/// /1501 10230 20059 38530 40130 58019 60002 7////8//// 91750 333 0//// 10230 20054 30/// 4//// 56/// 57///58001 60007 8//// 8//// 8//// 9//// 9//// 9//// 444 ////
AAXX 12181 76805 32570 12102 10292 20231 30147 40151 50002 81100 91745333 10318 20216 30/// 567// 58019 81830
AAXX 12181 76806 06/// /2202 10297 20226 30145 40149 58007 60002 7////8//// 91750 333 10302 20212 30/// 56/// 57/// 58011 600078//// 8//// 8//// 8//// 9//// 9//// 9//// 555 30274
AAXX 12181 76833 32970 03610 10298 20149 30142 40144 57012 91745 33310298 20220 30/// 58003 92023
AAXX 12181 76840 32550 10406 10284 20174 30090 40146 57007 81100 91730333 10290 20180 30/// 56100 58002 81827
AAXX 12181 76843 32565 13602 10244 20160 39525 40173 57015 81100 91735333 10250 20162 30/// 569// 58005 81830
AAXX 12181 76845 32960 03603 10180 20137 37966 40205 56008 91745 33310192 20038 30/// 58007
AAXX 12181 76848 32770 10602 10225 20086 38402 40131 56004 81100 91750333 10226 20083 30/// 56100 58004 81856
AAXX 12181 76902 06/// /2202 10324 20179 39998 40133 58008 60002 7////8//// 91750 333 0//// 10330 20220 30/// 4//// 54/// 56///57/// 58006 60007 8//// 8//// 8//// 8//// 9//// 9//// 9/
AAXX 12181 76903 32980 02302 10329 20182 30000 40130 57008 91740 33310339 20222 30/// 58011
AAXX 12181 76160 11562 51601 10160 20112 39901 40151 52015 70252 885//91730 333 10160 20150 30/// 56500 58/// 69907 88630
AAXX 12181 76243 11370 80701 10100 20089 39931 40235 57001 69931 70252887// 91740 333 10106 20070 31/// 568// 59050 88707
AAXX 12181 76253 32682 82303 10184 20115 30059 40149 54002 88400 91750333 10190 20160 30/// 59023 88634 92002
AAXX 12181 76311 32580 80000 10178 20122 39885 40168 52013 884// 91745333 10180 20108 30/// 565// 59006 88625
AAXX 12181 76405 32675 61802 10240 20185 30137 40157 50008 85210 91750333 10240 20196 30/// 56440 59002 85837
AAXX 12181 76412 31966 02501 10264 20138 300118 40163 57013 70544 91745 333 10264 20118 30/// 59011
AAXX 12181 76640 31458 53201 10224 20190 30222 40234 57003 70211 8215/91740 333 10238 20164 30/// 5633/ 59021 82814 83340
AAXX 12181 76647 32570 60502 10277 20226 30161 40192 58001 85230 91750333 10292 20200 32/// 561/0 58016 85820
AAXX 12181 76741 31478 50503 10248 20209 30179 40197 52005 70544 8323091730 333 10255 20150 30/// 5611/ 58016 83811
AAXX 12181 76855 32880 11802 10316 20243 30089 40138 50002 81020 91745333 10320 20210 30/// 56090 58011 81458 92001
AAXX 12181 76040 32960 72101 10136 30083 40097 52005 87006 91747 333 10139 20099 30/// 56009 59053 87098 98660
AAXX 12181 76055 32980 02702 10185 20063 30070 40089 52005 91740 333 10201 20125 30/// 58///
AAXX 12181 76113 22780 83401 10102 20094 39656 40108 52020 88800 91745 333 10130 20100 32/// 56700 59042 60057 88750
AAXX 12181 76123 06570 73203 10182 20000 3//// 4//// 5//// 60002 7//// 81224 91750 333 0//// 10182 20004 56493 57/// 5//// 60007 81835 8//// 8//// 8//// 9//// 9//// 9//// 444 ///// 555
AAXX 12181 76225 32760 72004 10145 20065 38612 40143 50002 87020 91745 333 10145 20050 30/// 56050 59027 87450
AAXX 12181 76226 06/// /1704 10154 20051 38606 40095 58001 60002 7//// 8//// 91750 333 0//// 10154 20051 30/// 4//// 54/// 56/// 57/// 59025 60007 8//// 8//// 8//// 9//// 9//// 9//// 44
AAXX 12181 76256 02680 81902 10172 20148 30151 40165 52014 60011 75855 88700 91745 333 10182 20155 31/// 565// 59010 60017 88734
AAXX 12181 76305 31670 72403 10204 20105 30142 40150 52021 82450 91740 333 10207 20159 30/// 56550 59008 82630 85358
AAXX 12181 76323 32870 80401 10154 21004 38264 40216 50000 85036 91745 333 10164 20050 30/// 56055 59027 85357 83268
AAXX 12181 76342 31360 80401 10096 20070 39533 40267 57003 70222 887// 91750 333 10105 20060 31/// 561// 59039 88710
AAXX 12181 76373 32670 50000 10186 21032 38206 40152 57011 85050 91750 333 10190 20011 30/// 56090 58004 85340
AAXX 12181 76382 32980 71103 10208 20120 38910 40173 57004 80004 91745 333 10218 20090 30/// 56005 59025 87076
AAXX 12181 76390 31965 22207 10168 20073 38244 40153 52008 70544 80006 91730 333 10186 20116 30/// 56005 59011 82070
AAXX 12181 76393 01203 80600 10114 20103 39627 40219 54000 69901 70422 887// 91752 333 10118 20090 31/// 569// 59037 69907 88705
AAXX 12181 76402 31557 72703 10206 20143 30102 40159 52012 70544 87500 91745 333 10206 20150 30/// 56400 59004 87630
AAXX 12181 76423 32982 21801 10201 20012 38171 40181 54001 80007 91739 333 10211 20060 30/// 56004 58016 81095
AAXX 12181 76458 32970 01704 10250 20182 30157 40162 58002 91740 333 10267 20135 30/// 58008
AAXX 12181 76471 32980 12103 10200 20092 37710 40146 52004 80001 91755 333 10208 20059 30/// 56005 58004 81075
AAXX 12181 76490 06/// /0403 10199 20145 39810 40199 58008 69922 7//// 8//// 91750 333 0//// 10199 20124 30/// 54/// 56/// 57/// 59042 69927 8//// 8//// 8//// 8//// 9//// 9//// 9//// 44
AAXX 12181 76491 32960 20201 10188 20176 39827 40224 57006 80004 91745 333 10192 20120 31/// 56009 59050
AAXX 12181 76499 31457 73401 10200 20167 30186 40208 57002 70122 876// 91755 333 10201 20148 32/// 568// 59034 87714
AAXX 12181 76525 32970 52106 10140 20051 37491 40154 52007 80001 91755 333 10142 20101 30/// 56//5 58005 85080
AAXX 12181 76538 06/// /3102 10168 20071 38193 40162 58003 60002 7//// 8//// 91750 333 0//// 10171 20066 30/// 4//// 54/// 56/// 57/// 58002 60007 8//// 8//// 8//// 9//// 9//// 9//// 44
AAXX 12181 76539 31962 00000 10142 20065 38195 40232 52010 70544 91745 333 10167 20048 30/// 58004
AAXX 12181 76543 32575 32002 10254 20161 30191 40224 58015 81130 91735 333 10256 20165 30/// 56330 59031 81834
AAXX 12181 76547 06/// /2102 10235 20166 30201 40213 58005 60002 7//// 8//// 91750 333 0//// 10236 20160 56/// 57/// 59018 60007 8//// 8//// 8//// 8//// 9//// 9//// 9//// 444 ///// 555
AAXX 12181 76548 32575 12102 10236 20169 30217 40227 50001 81100 91740 333 10238 20164 30/// 56400 59018 81826
AAXX 12181 76556 32970 50000 10240 20120 39138 40171 50007 80006 91730 333 10251 20122 30/// 56006 58010 85270
AAXX 12181 76571 31965 21802 10204 20048 38190 40211 55001 705// 91755 333 10210 20060 30/// 50005 58001
AAXX 12181 76577 32970 02305 10186 20147 38067 40189 50003 91740 333 10191 20081 30/// 59002
AAXX 12181 76578 06/// /2205 10191 20057 38064 40131 50002 60002 7//// 8//// 91750 333 0//// 10191 20076 30/// 4//// 54/// 56/// 57/// 58005 60007 8//// 8//// 8//// 9//// 9//// 9//// 44
AAXX 12181 76581 32970 50001 10212 20136 39085 40199 54000 85060 91750 333 10221 20117 30/// 56020 59015 85360
AAXX 12181 76585 32680 20901 10220 20183 30055 40214 50000 82200 91735 333 10230 20164 30/// 562// 59021 82833
AAXX 12181 76586 06/// /0501 10237 20168 30054 40209 58003 60002 7//// 8//// 91750 333 0//// 10248 20165 30/// 4//// 54/// 56/// 57/// 59024 60007 8//// 8//// 8//// 9//// 9//// 9//// 44
AAXX 12181 76592 06/// /0412 10265 20109 30188 40188 58008 60002 7//// 8//// 91750 333 0//// 10272 20225 30/// 4//// 54/// 56/// 57/// 58001 60007 8//// 8//// 8//// 9//// 9//// 9//// 44
AAXX 12181 76593 32370 30505 10266 20253 30188 40190 58007 83200 91750 333 10272 20225 30/// 561// 59001 81820 82720 91007 91505
AAXX 12181 76612 32562 51501 10210 20122 38497 40190 50000 83830 91750 333 10226 20088 30/// 56660 58005 81630 82833
AAXX 12181 76625 32950 03203 10187 20078 38164 40174 57002 91740 333 10187 20091 30/// 58001
AAXX 12181 76632 31957 01703 10157 20093 37656 40170 52002 70500 91740 333 10190 20064 30/// 58008
AAXX 12181 76634 31970 02601 10208 20024 37869 40206 57008 70500 80000 91750 333 10214 20048 30/// 56/// 59010
AAXX 12181 76641 06/// /1101 10254 20187 30206 40218 58005 60002 7//// 8//// 91750 333 0//// 10260 20170 30/// 4//// 54/// 56/// 57/// 59015 60007 8//// 8//// 8//// 8//// 9//// 9//// 9/
AAXX 12181 76644 32460 51103 10300 20225 30171 40183 56014 852// 91750 333 10300 20205 30/// 563// 59006 85820 91005 91511
AAXX 12181 76645 06/// /0603 10298 20213 30175 40188 58011 60002 7//// 8//// 91750 333 0//// 10298 20205 30/// 4//// 54/// 56/// 57/// 59005 60007 8//// 8//// 8//// 9//// 9//// 9//// 44
AAXX 12181 76648 06/// /0502 10291 20217 30148 40178 58012 69922 7//// 8//// 91750 333 0//// 10297 20199 30/// 4//// 54/// 56/// 57/// 58013 60007 8//// 8//// 8//// 8//// 9//// 9//// 9/
AAXX 12181 76654 31430 12501 10278 20218 30168 40172 50006 70544 81500 91750 333 10278 20213 30/// 56400 58011 81620
AAXX 12181 76656 32575 11601 10232 20121 38529 40185 54000 81100 91750 333 10240 20080 30/// 56300 58010 81820
AAXX 12181 76658 31558 12302 10279 20160 39657 40165 52002 70540 81100 91751 333 10282 20176 30/// 56100 58016 81822 94022 98904
AAXX 12181 76659 06/// /2302 10300 20142 3//// 4//// 5//// 60002 7//// 8//// 91750 333 0//// 10300 20165 30/// 4//// 54/// 56/// 57/// 5//// 60007 8//// 8//// 8//// 9//// 9//// 9//// 44
AAXX 12181 76662 31670 63601 10196 20124 38490 40191 52004 70542 86400 91750 333 10205 20080 30/// 56200 58000 86633
AAXX 12181 76665 31562 22101 10224 20095 38128 40161 57011 70100 82100 91755 333 10234 20075 30/// 56100 57812 59006 82814
AAXX 12181 76675 31570 01302 10182 20017 37393 40215 56003 70544 91751 333 10191 21008 30/// 58004 98470
AAXX 12181 76680 31956 01402 10184 20049 37772 40127 57007 70400 80000 91755 333 10190 20072 30/// 59001
AAXX 12181 76683 32968 01801 10184 20086 37850 40240 56009 91745 333 10195 20035 30/// 58006
AAXX 12181 76684 06/// /1804 10204 20015 37850 40128 58012 60002 7//// 8//// 91750 333 0//// 10204 20026 30/// 4//// 54/// 56/// 57/// 58002 60007 8//// 8//// 8//// 9//// 9//// 9//// 44
AAXX 12181 76685 32960 01202 10198 20021 37891 40196 57002 80000 91740 333 10200 20048 30/// 58004
AAXX 12181 76687 31560 62401 10187 20124 38723 40233 57001 70242 86500 91737 333 10190 20088 30/// 563// 59001 81824 85622
AAXX 12181 76692 31556 30402 10254 20195 30192 40211 58005 70544 83800 91745 333 10255 20200 30/// 568// 59005 82820 81622
AAXX 12181 76693 06/// /0402 10260 20197 30188 40207 58010 60002 7//// 8//// 91750 333 0//// 10260 20198 30/// 4//// 56/// 57/// 59008 60007 8//// 8//// 8//// 8//// 9//// 9//// 9//// 44
AAXX 12181 76698 01560 60501 10263 20244 30168 40180 57009 60011 75152 86200 91755 333 10297 20213 32/// 56100 58007 60017 86820
AAXX 12181 76726 32970 02001 10213 20109 38424 40169 52001 91755 333 10213 20118 30/// 58001
AAXX 12181 76727 06/// /1701 10220 20052 38422 40119 58005 60002 7//// 8//// 91750 333 0//// 10233 20121 30/// 4//// 54/// 56/// 57/// 58004 60007 8//// 8//// 8//// 9//// 9//// 9//// 44
AAXX 12181 76737 31480 41402 10192 20139 38815 40218 53001 70300 84200 91735 333 10199 20092 30/// 56200 59003 83817 91105 91514
AAXX 12181 76738 06/// /1502 10201 20129 38815 40183 58004 60002 7//// 8//// 333 10202 20087 30/// 56/// 57/// 59003 60007 8//// 8//// 8//// 8//// 9//// 9//// 9//// 444 ///// 555 30187
AAXX 12181 76750 32560 73002 10260 20218 30168 40178 57008 87600 91750 333 10268 20190 30/// 56800 58002 87720
AAXX 12181 76751 06/// /3202 10267 20224 30168 40178 58008 60002 7//// 8//// 91750 333 0//// 10267 20189 30/// 4//// 54/// 56/// 57/// 58003 60007 8//// 8//// 8//// 9//// 9//// 9//// 44
AAXX 12181 76762 32904 03201 10260 20210 38776 40164 54000 91735 333 10120 30/// 58004
AAXX 12181 76772 06/// /2701 10234 20055 38444 40124 58018 60002 7//// 8//// 91750 333 0//// 10234 20048 30/// 4//// 56/// 57/// 58001 60007 8//// 8//// 8//// 9//// 9//// 9//// 444 ////
AAXX 12181 76773 31968 02801 10232 20117 38441 40193 57015 7054/ 91748 333 10235 20051 30/// 58001
AAXX 12181 76775 31970 03401 10236 20075 38548 40211 57015 70200 91730 333 10238 20058 30/// 59001
AAXX 12181 76776 06/// /1501 10230 20059 38530 40130 58019 60002 7//// 8//// 91750 333 0//// 10230 20054 30/// 4//// 56/// 57/// 58001 60007 8//// 8//// 8//// 9//// 9//// 9//// 444 ////
AAXX 12181 76805 32570 12102 10292 20231 30147 40151 50002 81100 91745 333 10318 20216 30/// 567// 58019 81830
AAXX 12181 76806 06/// /2202 10297 20226 30145 40149 58007 60002 7//// 8//// 91750 333 10302 20212 30/// 56/// 57/// 58011 60007 8//// 8//// 8//// 8//// 9//// 9//// 9//// 555 30274
AAXX 12181 76833 32970 03610 10298 20149 30142 40144 57012 91745 333 10298 20220 30/// 58003 92023
AAXX 12181 76840 32550 10406 10284 20174 30090 40146 57007 81100 91730 333 10290 20180 30/// 56100 58002 81827
AAXX 12181 76843 32565 13602 10244 20160 39525 40173 57015 81100 91735 333 10250 20162 30/// 569// 58005 81830
AAXX 12181 76845 32960 03603 10180 20137 37966 40205 56008 91745 333 10192 20038 30/// 58007
AAXX 12181 76848 32770 10602 10225 20086 38402 40131 56004 81100 91750 333 10226 20083 30/// 56100 58004 81856
AAXX 12181 76902 06/// /2202 10324 20179 39998 40133 58008 60002 7//// 8//// 91750 333 0//// 10330 20220 30/// 4//// 54/// 56/// 57/// 58006 60007 8//// 8//// 8//// 8//// 9//// 9//// 9/
AAXX 12181 76903 32980 02302 10329 20182 30000 40130 57008 91740 333 10339 20222 30/// 58011
AAXX 12181 76160 11562 51601 10160 20112 39901 40151 52015 70252 885// 91730 333 10160 20150 30/// 56500 58/// 69907 88630
AAXX 12181 76243 11370 80701 10100 20089 39931 40235 57001 69931 70252 887// 91740 333 10106 20070 31/// 568// 59050 88707
AAXX 12181 76253 32682 82303 10184 20115 30059 40149 54002 88400 91750 333 10190 20160 30/// 59023 88634 92002
AAXX 12181 76311 32580 80000 10178 20122 39885 40168 52013 884// 91745 333 10180 20108 30/// 565// 59006 88625
AAXX 12181 76405 32675 61802 10240 20185 30137 40157 50008 85210 91750 333 10240 20196 30/// 56440 59002 85837
AAXX 12181 76412 31966 02501 10264 20138 300118 40163 57013 70544 91745 333 10264 20118 30/// 59011
AAXX 12181 76640 31458 53201 10224 20190 30222 40234 57003 70211 8215/ 91740 333 10238 20164 30/// 5633/ 59021 82814 83340
AAXX 12181 76647 32570 60502 10277 20226 30161 40192 58001 85230 91750 333 10292 20200 32/// 561/0 58016 85820
AAXX 12181 76741 31478 50503 10248 20209 30179 40197 52005 70544 83230 91730 333 10255 20150 30/// 5611/ 58016 83811
AAXX 12181 76855 32880 11802 10316 20243 30089 40138 50002 81020 91745 333 10320 20210 30/// 56090 58011 81458 92001
AAXX 12184 84455 31460 60308 10326 20220 39770 40110 70212 8313/ 333 5600/ 59010 83817 83360
AAXX 12184 84688 31462 80904 10130 20070 36661 70222 886// 333 569// 58000 83620 86640
AAXX 12184 84377 31560 82803 10326 20244 39975 40076 70222 85130 333 5600/ 59003 85820 84360
AAXX 12184 84542 31670 73410 10220 20114 37336 70311 8484/ 333 5699/ 58/// 84840 83464
AAXX 12184 84658 21558 82106 10250 20232 39843 40070 70222 8652/ 333 5609/ 58016 60061 83807 83620 82460
AAXX 12184 84390 31965 01914 10280 20170 30004 40107 70200 333 58///
AAXX 12184 84720 31960 03107 10334 20193 39488 40154 70100 333 70100
AAXX 12184 84673 31660 73107 10233 20092 37322 70222 82120 333 56990 59018 82846 85465
AAXX 12184 84782 31965 32209 10235 20142 39612 40110 70222 80001 333 56009 59010 83071
AAXX 12184 84752 32760 72612 10187 20063 37520 70222 8453/ 333 5699/ 59004 84556 83363
AAXX 12184 84474 31660 40000 10343 20253 39732 7022/ 84100 333 56900 58/// 84840
AAXX 12184 84501 31960 02106 20202 20162 30097 40124 70222 333 58002
AAXX 12184 84735 31660 89903 10170 20040 36431 70222 84150 333 56900 58007 84840 86658
AAXX 12184 84452 31960 01914 10278 20188 30080 40110 70122 333 59014
BBXX UFTA 12181 99851 71231 11596 82201 11270 21299 40019 57020 69932 889//
AAXX 12181 01492 11270 81902 10034 20027 39792 49908 55008 60072 76066 8772/ 333 10048 91109
AAXX 12181 01049 16/// /1604 11077 21100 30002 40005 57004 60002 333 11052 91107
AAXX 12181 01359 11689 62901 11022 21059 38992 49900 53006 60052 70172 82230 333 10003 91110
AAXX 12181 01427 11565 62510 10075 20032 39913 49929 53004 60042 78082 86900 333 10077 91115
AAXX 12181 01008 11470 71005 11065 21096 39931 49965 57000 60002 77177 875// 333 11049 91106
AAXX 12184 78388 111574 60713 10287 20221 30120 40129 69901 70582 82208 333 01209 10304 20234 58011 82822 85274 90950
AAXX 12184 91930 36/// ///// 10294 20229
AAXX 12184 91943 36/// /0909 10286 20198 30157 40159 51012 333 10287 58003
AAXX 12184 89061 379// 00213 10031 21012 39675 49682 52014 76166 333 91019 91123
AAXX 12184 78951 11462 71209 10266 20244 30110 40125 60031 78022 87902 333 10305 20232 58013 70136 82915 86818
AAXX 12184 78526 NIL
AAXX 12184 78543 NIL
AAXX 12184 03894 11460 81923 10092 20063 40047 58046 69982 76386 875// 333 10100 84618 84624 85640 90710 91140
AAXX 12184 03301 16460 /1728 10066 20066 39788 49860 58096 60052 91750 333 10075 83/12 86/20 90710 91141 91040
AAXX 12184 03305 17434 /2225 10058 20032 39633 49891 58079 60102 762// 91750 333 10063 88/16 90710 91142 91039
AAXX 12184 03313 16457 /1616 10059 20040 39793 49886 58093 60032 91750 333 10075 81/17 87/37 90710 91132 91032
AAXX 12184 03316 17770 /1520 10064 20036 39885 49896 58085 60012 723// 91750 333 10078 88/50 90710 91132
AAXX 12184 03318 16/// /1520 10057 20036 69962 91750 333 10076 90710 91129
AAXX 12184 03321 16558 /1616 10057 20046 39893 49905 58081 60042 91750 333 10080 553// 20000 87/24 83/50 90710 91125
AAXX 12184 03330 17456 /1819 10040 20040 39587 49946 58057 69942 782// 91750 333 10058 86/16 83/56 90710 91133 91033
AAXX 12184 03344 17558 /1811 10047 20014 39614 49929 58052 69942 782// 91750 333 10047 85/23 83/37 91023
AAXX 12184 03346 16/// /1719 10038 20023 69942 91750 333 10051 90710 91127
AAXX 12184 03348 17568 /1719 10058 20036 39824 49930 58062 69922 781// 91750 333 10067 55300 20000 81/29 87/38 90710 91130
AAXX 12184 03355 15873 /1814 10057 20023 39936 49947 58042 69902 91750 333 10072 55300 20000 87/57
AAXX 12184 03373 16968 /1817 10059 20027 39900 49969 58036 69922 91750 333 10065 88/60 90710 91126
AAXX 12184 03379 16980 /1817 10055 20025 39904 49980 58036 60002 91750 333 10069 87/58 90710 91125
AAXX 12184 03382 15976 /1913 10056 20033 39947 49956 58037 60002 91750 333 10071 55300 20000 88/59
AAXX 12184 03385 46970 /1817 10051 20035 39964 49974 58034 91750 333 10069 88/61 90710 91126
AAXX 12184 03391 12680 82019 10059 20023 39973 49981 58037 60002 8157/ 91750 333 10077 81630 85362 88465
AAXX 12184 03392 16969 /1921 10057 20038 39983 49987 58035 60002 91750 333 10068 87/60 90710 91128
AAXX 12184 03405 16327 /1940 10080 20080 39750 49863 58096 60062 91750 333 10086 553// 20000 86/06 85/15 90710 91153 91052
AAXX 12184 03409 16/// /2110 10057 20036 60032 91750 333 10068 55300 2////
AAXX 12184 03410 16258 /1917 10041 20039 39481 49910 58075 60032 91750 333 10053 553// 20000 85/05 87/13 90710 91128
AAXX 12184 03469 15978 /2018 10058 20032 39989 49993 58033 69922 91750 333 10075 553// 20000 87/59 90710 91125
AAXX 12184 03488 15980 /1915 10054 20027 39979 40004 58025 60002 91750 333 10068 81/64
AAXX 12184 03503 17561 /1722 10077 20054 39825 49900 58082 60032 761// 91750 333 10085 82/20 87/50 90710 91140 91037
AAXX 12184 03507 17464 /1922 10057 20047 39558 49924 58076 60032 762// 91750 333 10057 82/12 86/20 86/29 90710 91136 91032
AAXX 12184 03520 16562 /1915 10063 20045 39823 49943 58070 69942 91750 333 10077 553// 20000 81/28 86/36
AAXX 12184 03522 17457 /1708 10065 20061 39860 49951 58070 69982 762// 91750 333 10087 87/17 83/50 91021
AAXX 12184 03529 17565 /1817 10073 20044 39926 49969 58064 69902 781// 91750 333 10081 81/28 87/48 90710 91128
AAXX 12184 03544 17664 /1609 10055 20033 39848 49978 58050 69902 782// 91750 333 10074 553// 20000 85/38 86/56
AAXX 12184 03560 15981 /1813 10060 20032 39894 49998 58039 60002 91750 333 10068 553// 20000 88/58
AAXX 12184 03604 16450 /2033 10100 20094 39836 49888 57089 60062 91750 333 10100 85/12 84/17 90710 91153 91046
AAXX 12184 03605 16433 /1940 10093 20082 39906 49915 58082 60072 91750 333 10096 86/12 86/19 90710 91152 91050
AAXX 12184 03609 16/// /1840 10089 20075 39876 49927 58084 60022 91750 333 10094 90710 91150 91050
AAXX 12184 03628 17457 /1714 10077 20065 39898 49969 57067 60032 762// 91750 333 10081 55300 20000 84/14 84/38 90710 91125
AAXX 12184 03647 16558 /1819 10055 20043 39725 49978 58054 69942 91750 333 10061 553// 20000 86/22 83/57 90710 91128
AAXX 12184 03658 11665 81717 10073 20043 39932 40001 58050 69902 76061 885// 91750 333 10081 83630 86656 88359 90710 91127
AAXX 12184 03660 15669 /2009 10061 20037 39761 40007 58044 60002 91750 333 10068 82/36 87/57
AAXX 12184 03672 12680 81910 10077 20033 39976 40016 58040 60002 8257/ 91750 333 10087 82630 85358 88460
AAXX 12184 03684 15980 /2011 10066 20028 39915 40020 58030 60002 91750 333 10073 87/60
AAXX 12184 03693 16980 /1912 10069 20047 30036 40038 58026 60002 91750 333 10086 87/61
AAXX 12184 03707 17658 /1825 10092 20078 39934 49941 58079 60052 761// 91750 333 10093 84/38 86/50 90710 91140 91040
AAXX 12184 03710 16243 /1923 10057 20057 39543 49958 58068 60052 91750 333 10057 553// 2//// 81/03 85/10 86/17 90710 91138 91038
AAXX 12184 03743 16564 /1911 10072 20057 39840 40000 58050 69942 91750 333 10077 86/22 83/50 91021
AAXX 12184 03749 11462 81917 10079 20060 39897 40007 58048 69902 76061 8752/ 91750 333 10083 82615 87638 90710 91125
AAXX 12184 03761 11450 81814 10070 20051 39874 40017 58043 69962 76361 8652/ 91750 333 10083 55300 20000 83618 86625 88464
AAXX 12184 03768 16/59 /1910 10076 20048 39939 40018 58042 69922 91750 333 10084
AAXX 12184 03769 17572 /1909 10080 20063 39947 40028 58039 69902 781// 91750 333 10094 55300 20000 81/26 86/60
AAXX 12184 03770 16/// ///// 10081 20045 69922 91750 333 10094
AAXX 12184 03781 15675 /1814 10068 20049 39821 40027 58039 69902 91750 333 10077 553// 20000 81/37 87/59
AAXX 12184 03784 46/// /2010 10077 20044 30024 40028 58032 91750 333 10091
AAXX 12184 03797 15672 /2014 10071 20045 39991 40051 58024 60002 91750 333 10079 55300 20000 81/42 87/66
AAXX 12184 03823 17223 /1926 10089 20088 39714 49952 58070 60102 763// 91750 333 10089 553// 20000 85/03 87/11 90710 91142 91039
AAXX 12184 03839 16/// ///// 10089 20080 60022 91750 333 10095 553// 20000
AAXX 12184 03857 17450 /2233 10094 20084 39949 40012 58047 69982 761// 91750 333 10105 82/12 85/38 90710 91145 91045
AAXX 12184 03862 17450 /2117 10091 20077 30000 40012 58049 60022 762// 91750 333 10099 55300 20000 81/17 86/24 90710 91129 91027
AAXX 12184 03866 16/// /2225 10109 20064 30004 40028 58042 60002 91750 333 10109 90710 91137 91037
AAXX 12184 03872 17563 /2128 10099 20069 30024 40029 58039 69982 723// 91750 333 10100 553// 20000 82/22 85/40 90710 91139 91039
AAXX 12184 03876 16/// /2127 10101 20063 30037 40040 58036 69962 91750 333 10101 90710 91136
AAXX 12184 03895 41465 81923 10094 20065 40060 58042 76061 888// 333 20101 82717 84642 87650 90710 91136 91036
AAXX 12184 70026 NIL
AAXX 12184 70133 NIL
AAXX 12184 70174 NIL
AAXX 12184 70200 NIL
AAXX 12184 70219 NIL
AAXX 12184 70231 NIL
AAXX 12184 70261 NIL
AAXX 12184 70267 NIL
AAXX 12184 70271 NIL
AAXX 12184 70273 NIL
AAXX 12184 70308 NIL
AAXX 12184 70316 NIL
AAXX 12184 70326 NIL
AAXX 12184 70340 NIL
AAXX 12184 70350 NIL
AAXX 12184 70361 NIL
AAXX 12184 70381 NIL
AAXX 12184 70398 NIL
AAXX 12184 70414 NIL
AAXX 12184 03002 17557 /2217 10049 20027 39787 49805 58003 69962 781// 91750 333 10052 81/23 90710 91127
AAXX 12184 03008 16/// /2120 10053 20010 39756 49824 58011 69942 91750 333 10068 90710 91131
AAXX 12184 03010 46/// /2017 10069 20024 49809 57026 333 90710 91131
AAXX 12184 03014 46/// /2723 10053 20019 39790 49816 50004 91750 333 8//// 90710 91132
AAXX 12184 03031 15980 /1415 10023 21012 39502 49824 58049 60042 91750 333 10035 553// 20000 88/58
AAXX 12184 03034 15980 /1414 10057 20003 39783 49796 58064 60022 91750 333 10069 88/59
AAXX 12184 03037 15677 /1604 10050 20002 39769 49790 58075 60042 91750 333 10055 81/35 87/44
AAXX 12184 03039 46/// /0912 11020 21050 91750 333 11004 90710 91133 91033
AAXX 12184 03041 46/// ///// 11038 21038 91750 333 11023 90710 91147 91035
AAXX 12184 03044 15982 /3507 10024 21001 39717 49814 58043 60032 91750 333 10043 553// 20000 87/64
AAXX 12184 03047 17458 /1410 10027 20003 39535 49833 57065 60032 781// 91750 333 10035 553// 20000 83/17 83/35 90710 91126
AAXX 12184 03062 15983 /1308 10025 21011 39827 49832 58039 60022 91750 333 10042 553// 20000 87/62
AAXX 12184 03065 46/// /1740 11047 21053 91750 333 11041 90710 91150 91050
AAXX 12184 03068 12682 71511 10031 21018 39831 49840 58039 60002 81572 91750 333 10049 81640 86361 87072
AAXX 12184 03072 46/// ///// 11028 21029 91750 333 11024 91000
AAXX 12184 03080 15981 /2007 10038 21006 39691 49860 58035 69902 91750 333 10057 87/61 85/66
AAXX 12184 03088 15474 /2218 10038 20022 39710 49872 58032 69922 91750 333 10038 553// 20000 81/12 87/63 90710 91125
AAXX 12184 03094 15982 /1713 10024 21008 39846 49851 58032 60002 91750 333 10048 81/69
AAXX 12184 03105 17461 /1627 10060 20045 39769 49785 56095 60042 761// 91750 333 10071 81/15 85/18 90710 91144 91038
AAXX 12184 03132 17349 /1727 10069 20058 39817 49831 57091 60042 762// 91750 333 10071 81/09 87/12 85/31 90710 91139 91037
AAXX 12184 03144 15772 /1204 10039 20009 39813 49856 58060 60032 91750 333 10052 553// 20000 88/56
AAXX 12184 03148 46/// /1625 10000 20000 91750 333 10008 90710 91139
AAXX 12184 03153 17457 /1630 10052 20037 39712 49847 58085 60022 762// 91750 333 10068 553// 20000 87/14 90710 91143
AAXX 12184 03155 16463 /1722 10035 20029 39549 49843 58078 60012 91750 333 10041 81/12 86/22 85/60 90710 91131
AAXX 12184 03158 17583 /1504 10030 20021 39745 49881 58051 69902 721// 91750 333 10044 553// 20000 81/28 87/61
AAXX 12184 03210 16457 /1432 10047 20031 39709 49858 58092 60022 91750 333 10075 81/12 86/15 90710 91143 91043
AAXX 12184 03212 17565 /1412 10057 20027 39783 49880 58073 60022 762// 91750 333 10069 86/22 83/29
AAXX 12184 03214 17561 /1518 10059 20038 39868 49887 58079 69962 781// 91750 333 10081 86/25 83/35 90710 91128
AAXX 12184 03220 16680 ///// 10059 20027 39847 49881 58065 60002 91750 333 10070 81/35 86/59
AAXX 12184 03224 15978 /1821 10032 20014 39549 49891 58055 69902 91750 333 10039 87/58 90710 91129
AAXX 12184 03225 16542 /1924 10036 20017 39590 49893 58066 60022 91750 333 10056 553// 20000 86/20 90710 91133
AAXX 12184 03226 17565 /1515 10038 20020 39632 49906 58055 69922 781// 91750 333 10055 83/21 86/25
AAXX 12184 03227 46/// /2047 11009 2//// 91750 333 11003 90710 91157
AAXX 12184 03230 16579 /1812 10038 20016 39640 49894 58051 69922 91750 333 10047 82/23 87/63
AAXX 12184 03238 15580 /1710 10043 20014 39732 49903 58045 69922 91750 333 10061 81/20 87/58
AAXX 12184 03261 11870 81617 10055 20015 39897 49937 58047 69922 70281 8557/ 91750 333 10070 85657 88467
AAXX 12184 03265 15865 /1617 10052 20025 39906 49937 58047 69902 91750 333 10071 83/57 85/61 86/65 90710 91125
AAXX 12184 03266 16873 /1714 10058 20015 39922 49939 58045 60002 91750 333 10079 86/57 86/66
AAXX 12184 03275 15970 /1819 10040 20011 39740 49932 58037 60002 91750 333 10061 87/60 86/68 90710 91126
AAXX 12184 03281 16/// /1815 10031 20022 69942 91750 333 10045 90710 91125
AAXX 12184 03903 16372 /1811 10066 20058 39719 49774 56082 60062 91750 333 10066 553// 20000 86/09 83/16 85/19
AAXX 12184 03904 17483 /1713 10060 20044 39711 49769 56082 60042 723// 91750 333 10060 82/18 85/50 90710 91125 91025
AAXX 12184 03907 15784 /1728 10055 20025 39756 49763 58102 60032 91750 333 10056 55300 20000 81/50 90710 91144 91039
AAXX 12184 03911 16041 /1510 10034 20034 39523 49791 56085 60072 91750 333 10034 88/01
AAXX 12184 03915 16466 /1515 10051 20051 39706 49782 58099 60052 91750 333 10052 87/11 90710 91130
AAXX 12184 03916 16460 /1812 10048 20039 39597 49783 56106 60072 91750 333 10048 553// 20000 81/15 87/19 90710 91129 91025
AAXX 12184 03923 17265 /2018 10047 20043 39597 49789 56091 60062 751// 91750 333 10047 86/04 83/13 90710 91129
AAXX 12184 68024 41660 50000 10278 20188 48468 53015 71322 81980 333 10318
AAXX 12184 68029 41460 72303 10220 20210 48492 52023 71799 83973 333 10265
AAXX 12184 68054 41460 73516 10196 20183 48508 51014 76022 85980 333 10290
AAXX 12184 68070 42660 73606 10238 20191 48495 52024 81481 333 10295
AAXX 12184 68148 42560 30205 10259 20177 48484 57019 83404 333 10305
AAXX 12184 68226 42660 50000 10255 20172 48467 53010 85980 333 10331
AAXX 12184 68240 42660 63202 10235 20157 48474 52014 81983 333 10293
AAXX 12184 68320 42960 20000 10288 20116 48475 52011 82082 333 10359
AAXX 12184 68328 42960 30000 10282 20126 48462 53004 82084 333 10347
AAXX 12184 78255 42559 40507 10273 20190 30016 40165 57010 84202 333 10283 20206 84820
AAXX 12184 78317 NIL
AAXX 12184 78318 NIL
AAXX 12184 78325 NIL
AAXX 12184 78333 NIL
AAXX 12184 78338 NIL
AAXX 12184 78348 NIL
AAXX 12184 78349 NIL
AAXX 12184 78353 NIL
AAXX 12184 78360 NIL
AAXX 12184 78367 NIL
AAXX 12184 78369 NIL
AAXX 12184 91165 NIL
AAXX 12184 91182 NIL
AAXX 12184 91190 NIL
AAXX 12184 91212 NIL
AAXX 12184 91217 NIL
AAXX 12184 91285 NIL
AAXX 12184 91317 NIL
AAXX 12184 91334 11474 80408 10278 20238 30064 40067 56010 60011 70282 82171 333 56199 70099 555 91218
AAXX 12184 91348 NIL
AAXX 12184 91356 NIL
AAXX 12184 91366 NIL
AAXX 12184 91369 NIL
AAXX 12184 91371 NIL
AAXX 12184 91376 11474 50615 10279 20232 30076 40080 55003 69901 70282 83801 333 561/9 70013 555 91218
AAXX 12184 91408 11474 70905 10272 20250 30037 40075 57019 69901 72522 82201 333 569/9 70046 555 91218
AAXX 12184 91413 NIL
AAXX 12184 91425 NIL
AAXX 12184 91434 NIL
AAXX 12184 91765 NIL
AAXX 12184 91222 NIL
AAXX 12184 91245 NIL
AAXX 12184 91323 NIL
AAXX 12184 91339 NIL
AAXX 12184 91343 NIL
AAXX 12184 91353 NIL
AAXX 12184 91442 NIL
AAXX 12181 26554 32960 81703 11016 21042 39998 40166 57013 82037 333 10018
AAXX 12181 26666 32460 61902 11008 21033 39976 40197 58008 83670 333 10020
AAXX 12181 26850 31659 71603 11012 21022 39902 40182 57008 71022 86530 333 11006 86644
AAXX 12181 26863 31358 81605 11010 21026 39964 40207 58012 71022 886// 333 10009 88707
AAXX 12181 26941 32960 71604 10014 21018 39921 40161 57014 87070 333 10029
AAXX 12181 26951 32962 61603 11002 21029 39979 40184 57013 86030 333 10015
AAXX 12181 33008 32562 81604 10032 21010 39957 40137 57015 885// 333 10032 88624
AAXX 12181 33019 32660 71102 10014 21011 39991 40169 57014 875// 333 10035 87641
AAXX 12181 33036 32667 61504 11006 21040 39974 40211 57013 85501 333 10023 85635
AAXX 12181 33041 32960 31201 11018 21032 30072 40233 58011 80004 333 10014
BBXX UCKG 12181 99644 10048 41/98 91104 10070 49831 57027 70222 22213 00090 20202 32800 40404
BBXX UGGA 12181 99691 10409 41/98 92407 11010 49993 52010 70222 89/// 22271 20302
BBXX PDHW 12183 99536 10057 41/99 /2327 10078 20028 40031 51030 70200 8//// 22223 00090 2//// 80055
BBXX PBFM 12183 99425 70138 41297 72516 10155 20130 40190 57002 70222 8777/ 22264 20505 329// 41009 80140
BBXX DGWD2 12183 99374 10109 41/98 32815 10176 20145 40199 53002 70011 8//// 22224 00180 2//// 80157
BBXX VRGJ6 12183 99363 70080 41598 63010 10168 20121 40277 57010 70222 86800 22234 04181 20101 330// 40402 5//// 80142
BBXX A8RL3 12181 99091 30808 41492 19902 10270 40090 52020 70200 811// 22213 00290 2//00 3//// 4//03 5////
BBXX MGRH9 12183 99327 31697 41493 60213 10206 20203 40115 57008 74242 82679 22273 00185 20101 311// 40603 5//// 80204
BBXX PCDE 12183 99399 30858 41597 43503 10140 20105 40200 52010 7//// 813// 22223 20402 80120
AAXX 12184 78951 11462 71209 10266 20244 30110 40125 60031 78022 87902 333 10305 20232 58013 70136 82915 86818
BBXX KEY796 12183 99571 71703 41/97 11911 10022 21017 40000 53/// 702// 8//// 222// 00028 2//// 3//// 4//// 5//// 6//// 8//// ICE /////
BBXX C6FR6 12184 99243 10362 41/// /3417 10230 2//// 40200 5//// 7//// 8//// 22233 0//// 2//// 3//// 4//// 5//// 6//// 8//// ICE /////
BBXX WBN3015 12184 99230 70684 41/// /3610 10261 2//// 40112 54000 714// 8//// 22272 0//// 20604 30336 40804 50601 6//// 8//// ICE /////
BBXX C6XC2 12184 99052 11256 41498 70612 10260 20246 40080 57010 70222 8627/ 22253 00300 2//// 3//// 4//// 5//// 6//// 80250 ICE /////
BBXX KAOU 12184 99078 10984 43/// /0210 10259 20211 40106 5//// 7//// 8//// 222// 04302 2//// 3//// 4//// 5//// 6//// 8//// ICE /////
BBXX NWS0003 12184 99617 71674 43/// /2313 11013 21031 49939 5//// 7//// 8//// 222// 05016 2//// 3//// 4//// 5//// 6//// 8//// ICE /////
BBXX NWS0029 12184 99159 70255 43/// /0621 10247 20180 40135 5//// 7//// 8//// 222// 04252 2//// 3//// 4//// 5//// 6//// 8//// ICE /////
BBXX WRAH 12183 99227 10375 41997 03519 10250 2//// 40128 53007 70200 80/// 22214 00260 20203 301// 40504 5//// 6//// 8//// ICE /////
BBXX C6TQ6 12184 99248 70876 41797 30421 10250 20222 40210 54000 70211 83135 22235 00260 20302 30406 40304 50302 6//// 80230 ICE /////
BBXX ONDE 12183 99362 11412 41897 60118 10100 20012 40180 51010 7//22 8644/ 22200 00170 20403 301// 4//// 5//// 6//// 80060 ICE /////
BBXX PBAD 12181 99124 70871 41697 42503 10275 20222 40107 58/// 70211 84500 22200 00280 2//// 3//// 4//// 5//// 80239
BBXX WBS5272 12184 99453 70856 41/97 72327 10066 2//// 40301 57003 70222 8//// 22252 0//// 20302 3//// 4//// 5//// 6//// 8//// ICE /////
BBXX C6TH9 12183 99185 51544 41698 31206 10270 2023/ 40170 50010 70210 82188 22253 00260 20202 319// 40303 5//// 6//// 80240 ICE /////
BBXX C6XP7 12183 99192 70681 41399 30908 10270 20256 40110 54/// 7//10 821/5 22234 00260 20401 328// 4//// 5//// 6//// 80260 ICE /////
AAXX 12184 78388 111574 60713 10287 20221 30120 40129 69901 70582 82208 333 01209 10304 20234 58011 82822 85274 90950
BBXX A8VL5 12184 99061 10908 41/98 /0908 10266 20240 40226 50/// 7//// 8//// 22265 00280 2//01 80247
BBXX A8EH3 12183 99537 11769 41496 83518 10020 21005 49810 56020 76877 887// 22224 04040 2//// 80010
BBXX SHIP 12183 99050 11277 41498 60210 10280 2025/ 40100 54000 70222 8628/ 22283 00290 2//// 3//// 4//// 5//// 6//// 80260 ICE /////
BBXX ONDE 12183 99362 11412 41897 60118 10100 20012 40180 51010 7//22 8644/ 22200 00170 20403 301// 4//// 5//// 6//// 80060 ICE /////
BBXX 4XFV 12183 99510 11674 43298 42822 10000 00/// 21030 49875 51005 7//// 85232 22264 0//// 20403 ///// 3//// 4//// 5//// 6//// 81020
BBXX DQXQ 12184 99237 11182 41/96 80540 10166 20126 40185 57010 70222 88/2/ 22213 00190 21008 305// 41010 80142
BBXX 3FZK3 12184 99515 11729 46/// /3225 11013 21036 49847 56008 7//// 8//// 22223 0//// 2////
BBXX C6SI6 12184 99370 11438 46/// /3220 10094 20042 40198 51016 7//// 8//// 22253 0//// 2////
BBXX TBWUK36 12183 99317 11330 41398 43620 10152 20111 40220 57005 70111 84445 22214 00230 20504 305// 40603 5//// 80130
BBXX C6XC2 12184 99052 11256 41498 70612 10260 20246 40080 57010 70222 8627/ 22253 00300 2//// 3//// 4//// 5//// 6//// 80250 ICE /////
BBXX 41010 12181 99289 70785 46/// /0811 10228 40217 58018 91750 22200 00242 10906 20604 300// 40904 70031 333 91213 555 11118 22125
BBXX 44022 12181 99409 70737 46/// ///03 10055 21064 40343 91745 22200 00092 333 91206 555 11036 22036
BBXX 44060 12181 99413 70721 46/// ///05 10056 40346 91745 22200 00104 333 91207 555 11051 22057
BBXX CG2958 12184 99490 71233 46/// /3405 10046 20005 40267 51005 7//// 8//// 22200 0//// 2////
BBXX CGDG 12184 99447 70636 46/// /2413 10077 20048 40307 56021 7//// 8//// 22200 0//// 2////
BBXX 9V8796 12184 99444 70586 41298 72735 10045 21003 40326 56030 70222 8677/ 22263 00064 20402 332// 40804 80025
BBXX 4XFX 12184 99408 71299 41498 60340 00/// 10105 2004/ 40220 52030 70707 8529/ 22274 04135 20513 300// 40513 5//// 6//// 80075 ICE /////
BBXX DDJS2 12183 99402 71514 41597 73518 10108 20068 40240 52007 70222 8740/ 22224 00150 20804 326// 40604 5//// 80089
BBXX 3FBC9 12184 99262 71522 41697 60929 10210 40190 57005 70211 85895 9//// 22223 00240 20304 309// 40304 5//// 6//// 80190
BBXX OUJI2 12184 99531 71545 41798 82428 10040 2004/ 40240 5//// 78222 889// 22264 00050 20304 327// 40712 5//// 6//// 80040 ICE /////
BBXX A8JH8 12181 99295 70406 41597 50716 10220 20166 40270 54000 70322 84730 22224 20402 303// 40904 80185 80191
BBXX A8JX9 12183 99355 71225 41396 83210 10130 20130 40070 56010 76122 8646/ 22274 20301 333// 41005 5//// 80130
BBXX PHBO 12183 99288 70413 41598 20918 10230 20172 40270 56014 70211 82260 22254 20404 307// 41004 80194
BBXX CGTF 12184 99476 70527 46/// /1411 11007 21062 40276 56026 7//// 8//// 22200 0//// 2////
BBXX VCWL 12184 99468 70712 46/// /2602 10010 21036 40298 56004 7//// 8//// 22200 0//// 2////
BBXX CGSB 12184 99468 70712 46/// /2102 10012 21036 40299 56004 7//// 8//// 22200 0//// 2////
BBXX CGCC 12184 99461 70729 46/// /2211 10030 21040 40290 56015 7//// 8//// 22211 00050 2////
BBXX CGBR 12184 99543 71303 46/// /1211 10029 20028 40174 58015 7//// 8//// 22281 00079 2////
BBXX CG2965 12184 99487 71235 46/// /2805 10028 21022 40263 53006 7//// 8//// 22200 0//// 2////
BBXX VCBW 12184 99508 70589 46/// /3506 11093 21141 40235 56008 7//// 8//// 22200 0//// 2////
BBXX CZ9742 12184 99506 70969 46/// /3511 11123 21139 40324 53007 7//// 8//// 22200 0//// 2////
BBXX VAAZ 12184 99527 70512 46/// /2735 11066 21109 40115 58008 7//// 8//// 22271 0//// 2////
BBXX CGBY 12184 99487 71235 46/// /2805 10026 21025 40261 53005 7//// 8//// 22200 0//// 2////
BBXX VOPP 12184 99456 70735 46/// /2107 10044 21044 4//// 5//// 7//// 8//// 22200 0//// 2////
BBXX CGDT 12184 99490 70669 46/// /2407 10016 21013 40250 55001 7//// 8//// 22200 0//// 2////
BBXX VXKF 12184 99468 70598 46/// /2626 10035 21014 40244 55021 7//// 8//// 22254 0//// 2////
BBXX VCSZ 12184 99459 70732 46/// /2212 10034 20005 40280 56014 7//// 8//// 22253 0//// 2////
BBXX VCLM 12184 99621 70747 46/// /2520 11120 21165 40143 53008 7//// 8//// 22200 0//// 2////
BBXX CGDR 12184 99505 71276 46/// /0102 10008 20007 40249 56005 7//// 8//// 22200 0//// 2////
BBXX CGJV 12184 99456 70612 46/// /2612 10053 20007 40297 56015 7//// 8//// 22200 0//// 2////
BBXX CGBN 12184 99447 70636 46/// /2104 10082 20022 40295 56022 7//// 8//// 22200 0//// 2////
BBXX VOKJ 12184 99466 70547 46/// /2119 10013 21026 40281 58027 7//// 8//// 22264 0//// 2////
BBXX CGJK 12184 99484 71234 46/// /3608 10047 21009 40259 53002 7//// 8//// 22200 0//// 2////
BBXX CGDX 12184 99468 70712 46/// /2001 10018 21030 40298 56005 7//// 8//// 22200 0//// 2////
BBXX VAAP 12184 99479 70596 46/// /2822 10016 21021 40244 53014 7//// 8//// 22243 0//// 2////
BBXX 2ALE5 12183 99194 70177 41997 80417 10231 20137 40135 53003 70322 8805/ 22284 20403 80176
BBXX C6OM8 12180 99135 70267 41396 70706 10265 20213 40124 54000 70540 877// 22243 06260 20402 307// 40402 5//// 80230
BBXX A8YW2 12184 99343 30263 41598 32022 10210 20160 40080 50003 70200 8244/ 22223 00200 20804 328// 40904 80180
BBXX 3FMV6 12183 99050 30069 41598 71810 10260 20215 40088 54000 70222 86770 22283 06264 20701 80230
BBXX 2AKI2 12183 99289 30491 412// 81135 10200 20167 40149 54000 8777/ 22214 00200 2//// 3//// 4//// 5//// 80180
BBXX DDZF2 12184 99105 10657 41/97 /0522 10280 20239 40120 51020 72922 8//// 22225 00280 20303 80250
BBXX DBLK 12181 99580 30000 41195 82814 11002 21003 49996 57008 71052 886// 22242 05016 ICE 35692
BBXX BATEU00 12184 99507 30159 46/// /1621 10012 21042 40122 53043 22242
BBXX BATFR55 12184 99114 30489 44598 31311 10275 20245 40111 70211 82142 22232 00280 207// 32727 409// 509//
BBXX BATFR19 12184 99007 30088 46/// /1813 10264 20234 40108 53019 22200 00275
BBXX WRAH 12183 99227 10375 41997 03519 10250 2//// 40128 53007 70200 80/// 22214 00260 20203 301// 40504 5//// 6//// 8//// ICE /////
BBXX C6FR6 12184 99243 10362 41/// /3417 10230 2//// 40200 5//// 7//// 8//// 22233 0//// 2//// 3//// 4//// 5//// 6//// 8//// ICE /////
BBXX C6VF5 12184 99260 10538 41997 00107 10220 2016/ 40180 5//// 7//00 8/000 22264 00260 2//// 3//// 4//// 5//// 6//// 80180 ICE /////
BBXX ONAI 12184 99004 70420 41698 20922 10280 2024/ 40090 56020 70200 82100 22234 00283 2//// 3//// 4//// 5//// 6//// 80250 ICE /////
BBXX PDZS 12183 99517 50514 41598 63318 10095 20055 40102 52005 702// 85018 22222 02072 20402 333// 40707 5//// 80075
BBXX WBP3210 12184 99531 50709 43/// /2809 10138 2//// 40100 5//// 7//// 8//// 22200 00080 2//// 3//// 4//// 5//// 6//// ICE /////
BBXX PCGM 12183 99018 50432 41598 40516 10294 20229 40084 70222 84200 22264 04284 20201 308// 40803 80247
BBXX DCLH2 12180 99104 50884 41698 21605 10255 20164 40140 57010 70200 8/180 22273 06230 2//// 3//// 4//// 5//// 80195
BBXX 5BDK2 12184 99068 50809 43/// 01505 10260 2017/ 40170 56020 7//// 8//// 22273 00180 21202 3//// 40902 5//// 6//// 80200 ICE /////
BBXX TBWUK18 12184 99256 50383 41/98 11603 10245 20223 40137 58002 70200 81100 22232 00240 20403 317// 40604 5//// 80230
BBXX VQKZ5 12183 99012 50812 41597 82116 10239 20194 40119 57020 70222 85037 22244 02242 20402 321// 40402 5//// 80210
BBXX UFTA 12181 99851 71231 11596 82201 11270 21299 40019 57020 69932 889//
BBXX WGJT 12184 99278 70798 41298 80924 10228 2021/ 40198 57013 780// 88600 22283 00250 20805 309// 41107 5//// 6//// 80217 ICE /////
BBXX J8PE4 12183 99188 70658 415// 50705 10260 2020/ 40140 50010 70311 85185 22274 00290 20302 307// 40201 5//// 6//// 80220 ICE /////
BBXX WDC3786 12184 99307 71230 41498 43325 10139 2009/ 40126 54000 7//00 842/8 22224 00200 20303 333// 40605 5//// 6//// 80110 ICE /////
BBXX C6XP7 12183 99192 70681 41399 30908 10270 20256 40110 54/// 7//10 821/5 22234 00260 20401 328// 4//// 5//// 6//// 80260 ICE /////
BBXX MHNO6 12183 99194 70660 41598 10000 10276 20199 40123 58008 70100 81140 22253 00289 20000 304// 41201 5//// 80225
BBXX 41046 12181 99238 70683 46/// /0606 10255 20210 40137 58018 91750 22200 00262 10805 20402 300// 40804 70023 333 91207 555 11058 22061 31721 40507 61749 059055 056051 056057 056059 055060 056056 80506 91714
BBXX 44011 12181 99411 70666 46/// /1804 10082 20011 40348 56024 91750 22200 00100 10801 3//// 40801 70007 333 91205 555 11045 22046 31718 43506 61749 178043 178042 177042 177043 178041 169040
BBXX 42363 12181 99282 70892 46/// /0709 10200 20156 40254 50000 91800 333 91209
BBXX A8SF7 12181 99370 70746 41/98 70610 10150 20113 40320 54000 7//11 8/7// 22283 04140 21003 305// 41204 5//// 80130
BBXX 46238 12181 99334 71195 46/// ///// 1//// 91750 22200 00147 11503 21001 328// 41503 70015
BBXX 46114 12181 99364 71222 46/// ///// 1//// 91734 22200 00126 11306 21003 329// 41305 70030
BBXX 46239 12181 99363 71221 46/// ///// 1//// 91751 22200 00128 11306 21004 330// 41304 70029
BBXX 46219 12181 99332 71199 46/// ///// 1//// 91758 22200 00137 11503 21001 328// 41503 70016
BBXX 46224 12181 99332 71175 46/// ///// 1//// 91736 22200 00150 11502 21001 324// 41501 70009
BBXX 41110 12181 99341 70777 46/// ///// 1//// 91751 22200 00144 10502 20502 70012
BBXX 44100 12181 99363 70756 46/// ///// 1//// 91752 22200 00138 10603 20603 70015
BBXX 42099 12181 99273 70842 46/// ///// 1//// 91757 22200 00237 10602 20602 70012
BBXX 46232 12181 99325 71174 46/// ///// 1//// 91738 22200 00145 11504 20503 327// 41502 70018
BBXX 46243 12181 99462 71241 46/// ///// 1//// 91759 22200 00082 10903 20903 327// 41102 70017
BBXX 46247 12181 99378 71228 46/// ///// 1//// 91751 22200 00114 11306 21004 330// 41304 70028
BBXX 46215 12181 99352 71209 46/// ///// 1//// 91738 22200 00137 11503 21001 326// 41502 70013
BBXX 46213 12181 99403 71247 46/// ///// 1//// 91754 22200 00098 11010 21008 333// 41106 70051
BBXX 46225 12181 99329 71174 46/// ///// 1//// 91744 22200 00156 11503 20401 326// 41502 70013
BBXX 46218 12181 99345 71208 46/// ///// 1//// 91802 22200 00145 11504 21001 329// 41504 70020
BBXX 46240 12181 99366 71219 46/// ///// 1//// 91742 22200 00124 11102 20902 335// 41102 70012
BBXX 46236 12181 99368 71219 46/// ///// 1//// 91750 22200 00126 11304 21002 328// 41303 70019
BBXX 51101 12181 99243 71621 46/// /0809 10234 20187 40199 53010 91750 22200 00243 11006 20704 309// 41004 70029 333 91210 555 11092 22097 31726 40811 61749 076087 075091 077085 080084 077084 083085
BBXX 46061 12181 99602 71468 46/// /3302 10026 49894 51056 91750 22200 00059 11509 20401 300// 41509 70044 333 91205 555 11025 22025 31724 43408 61749 323024 347049 345055 338035 302016 251024
BBXX 42057 12181 99168 70815 46/// /0408 10281 20228 40138 58010 91750 22200 00283 10603 20603 70016 333 91209 555 11079 22084 31714 40410 61749 037079 040078 040081 037079 035079 044076 80408 91727
BBXX 41009 12181 99285 70802 46/// /0711 10241 20183 40218 58012 91750 22200 00258 10908 20705 300// 40906 70039 333 91213 555 11120 22127
BBXX WSRL 12184 99460 71252 41498 31713 10060 2002/ 40225 58005 7//00 811/1 22245 00083 2//// 330// 40806 5//// 6//// 80040 ICE /////
BBXX SHIP 12184 99375 71598 41498 71211 10150 20097 40226 57014 70221 86369 91755 22224 00160 1//// 20403 331// 41008 5//// 6//// 80120
BBXX WCX8884 12184 99361 71230 41091 70302 10100 2006/ 40080 54005 78066 879// 22235 00060 20408 3//// 40408 5//// 6//// 80080 ICE /////
BBXX A8MH7 12184 99194 70868 41797 50615 10278 2023/ 40169 58006 70322 85160 22284 04270 20201 306// 40503
BBXX BAREU00 12184 99404 70701 46/// ///// 40339 57015 22223
BBXX BAREU06 12184 99400 70392 46/// ///// 40274 52022 22264
BBXX BAREU54 12184 99158 70727 46/// ///// 40114 57020 22253
BBXX 41101 12184 99146 70562 46/// /1011 10275 20242 40106 57022 22200 00275 10805 70023
BBXX BAREU08 12184 99181 70690 46/// ///// 40128 22233
BBXX V7HC6 12184 99273 70907 41797 60814 10200 20185 40230 56012 70222 84878 22200 00224 20401 307// 40602 5//// 6//// 80190 ICE /////
BBXX NWS0022 12184 99416 70714 43/// /2408 10087 20020 40333 5//// 7//// 8//// 222// 04133 2//// 3//// 4//// 5//// 6//// 8//// ICE /////
BBXX 46054 12181 99342 71204 46/// /3201 10119 40084 52004 91750 22200 00140 11503 20301 300// 41503 70017 333 91202 555 11012 22013 31737 42903 61749 315011 289015 293013 305013 301014 303012
BBXX 46087 12181 99485 71247 46/// /0807 10049 21004 40249 57003 91750 22200 00079 11303 20301 328// 41303 70017 333 91209 555 11075 22078 31725 40809 61749 083072 079075 078075 073071 077070 073069
BBXX 46028 12181 99357 71219 46/// /0000 10110 40069 54000 91750 22200 00131 11505 332// 41505 70025 333 91201 555 11003 22003 31711 43103 61749 221004 298012 307012 346013 261010 237012
BBXX 46029 12181 99461 71245 46/// /0705 10053 21014 40236 52003 91750 22200 00074 11204 20301 329// 41204 70021 333 91206 555 11048 22050 31749 40706 61749 066046 056046 050043 048042 040044 043040
BBXX 46013 12181 99382 71233 46/// /0804 10087 40089 53005 91750 22200 00106 11106 20301 3//// 41106 70032 333 91205 555 11038 22040 31651 40906 61749 076037 070036 072040 076040 077041 079043
BBXX 46050 12181 99442 71246 46/// /0310 10069 40210 52003 91750 22200 00101 10905 20603 332// 40904 70026 333 91212 555 11102 22107 31725 40312 61749 030095 030097 030098 027098 029096 026096
BBXX 46012 12181 99374 71229 46/// /0404 10097 40079 55000 91750 22200 00121 11106 20401 332// 41106 70031 333 91206 555 11044 22045 31653 40507 61749 038043 040042 040046 043048 045053 050053
BBXX 46088 12181 99483 71232 46/// /3306 10039 40251 91750 22200 00080 1//00 70002 333 91208 555 11063 22065 31729 43108 61749 330060 310057 313063 320069 312059 304057
BBXX 46027 12181 99419 71244 46/// /0112 10080 40122 54000 91750 22200 00092 10805 20804 330// 41103 70027 333 91213 555 11124 22131 31653 43614 61749 005116 004115 001113 001110 357111 356114
BBXX 41047 12181 99275 70715 46/// /0611 10241 40184 58018 91750 22200 00254 10906 20705 305// 40904 70030 333 91213 555 11111 22117 31703 40514 61749 055109 050109 045108 050112 053116 052119 80513 91656
BBXX 46011 12181 99350 71210 46/// /1302 10115 40081 54000 91750 22200 00137 11504 328// 41504 70018 333 91203 555 11021 22021 31721 41104 61749 130020 116020 110025 103023 099024 088025
BBXX 46086 12181 99325 71180 46/// /2205 10130 40085 53003 91750 22200 00154 11603 20401 328// 41603 70017 333 91206 555 11047 22048 31749 42206 61749 224045 228043 229043 243036 226030 218020
BBXX 46047 12181 99324 71195 46/// /3006 10127 40090 53008 91750 22200 00155 11503 20301 328// 41503 70016 333 91207 555 11059 22061 31719 43008 61749 303056 302065 306064 297064 300063 301064
BBXX VRZT9 12183 99291 70945 416// 60909 10180 2015/ 40270 51030 7//22 86132 22200 0//// 20502 3//// 40502 5//// 6//// 80160 ICE /////
BBXX VCRG 12184 99474 70619 46/// /2413 10021 21020 40280 53003 7//// 8//// 22200 0//// 2////
BBXX VCXF 12184 99464 70484 41598 62827 11015 2107/ 40287 52005 70222 86500 22200 02020 20707 332// 40706 81033
BBXX 46041 12181 99474 71247 46/// /1204 10050 40239 52004 91750 22200 00073 11304 20401 3//// 41304 70022 333 91205 555 11044 22045 31736 41106 61749 114042 116045 105045 106048 101047 097035
BBXX 44097 12181 99410 70711 46/// ///// 1//// 91732 22200 00127 10801 20801 70005
BBXX 44098 12181 99428 70702 46/// ///// 1//// 91737 22200 00093 10502 20502 70011
BBXX 44040 12181 99410 70736 46/// /2704 10053 21050 40351 91745 22200 1//00 70001 333 91205 555 11051 22062
BBXX 44172 12181 99445 70634 46/// ///// 1//// 91731 22200 00071 10603 20603 70015
BBXX 41115 12181 99184 70673 46/// ///// 1//// 91735 22200 10902 20902 301// 41101 70010
BBXX 41114 12181 99276 70802 46/// ///// 1//// 91746 22200 00241 10904 20904 305// 41102 70020
BBXX 46077 12181 99579 71543 46/// /2810 10012 20006 40017 51040 91750 22200 00055 10704 20703 3//// 41102 70019 333 91212 555 11103 22108 31706 42615 61749 284098 279110 265118 257121 258121 259119 82613 91706
BBXX 46035 12181 99571 71778 46/// /1513 1//// 49878 58005 91750 22200 11109 20706 300// 41106 70045 333 91216 555 11132 22141 31654 41517 61749 148133 151130 154132 152130 153126 154140 81615 91723
BBXX BATEU04 12184 99611 70490 46/// /3313 11041 21118 49875 53006 22233
BBXX BATEU01 12184 99462 70729 46/// /2410 10050 21045 40282 56014 22252 00047
BBXX BATFR13 12184 99258 70516 44998 31324 10252 20195 40208 50004 70111 83333 22214 00257 20402 309// 41006 5////
BBXX PHQX 12183 99443 70452 41298 82914 10068 20004 40295 56005 70200 8775/ 22214 20806 331// 41006 5//// 80040
BBXX 46211 12181 99469 71242 46/// ///// 1//// 91736 22200 00085 11404 20803 327// 41402 70018
BBXX 46237 12181 99378 71226 46/// ///// 1//// 91740 22200 00113 11404 21002 326// 41404 70022
BBXX 46217 12181 99342 71194 46/// ///// 1//// 91742 22200 00143 11502 21001 327// 41501 70008
BBXX 46212 12181 99408 71243 46/// ///// 1//// 91742 22200 00097 11107 20906 331// 41104 70036
BBXX 51205 12181 99210 71564 46/// ///// 1//// 91748 22200 00241 11106 21005 310// 41104 70030
BBXX 46244 12181 99409 71244 46/// ///// 1//// 91735 22200 00095 11008 21006 331// 41104 70038
BBXX 46026 12181 99378 71228 46/// /0607 10089 40082 55000 91750 22200 00112 11505 20602 328// 41505 70027 333 91209 555 11078 22082 31702 42910 61749 052074 286068 286078 285074 284082 289082
BBXX 41040 12181 99145 70530 46/// /1006 10278 20228 40119 58025 91750 22200 00280 10905 20502 3//// 40904 70024 333 91207 555 11062 22065 31743 41007 61749 095058 093055 087057 092057 090054 086056 81006 91712
BBXX 42039 12181 99288 70860 46/// /0608 10193 40242 58008 91750 22200 00233 10603 20603 70015 333 91210 555 11080 22083 31721 40710 61749 062075 069071 067075 067078 064084 068078 80609 91707
BBXX 44007 12181 99435 70701 46/// /2108 10060 21005 40299 56024 91750 22200 00088 10402 20402 70009 333 91210 555 11089 22093 31731 42011 61749 209085 211089 209087 210085 207084 206084
BBXX 46082 12181 99597 71434 46/// ///// 10042 20042 49955 51021 91750 22200 00064 11518 70091
BBXX 46072 12181 99517 71722 46/// /1315 10052 20020 49941 56074 91750 22200 00054 11107 20805 3//// 41104 70034 333 91218 555 11161 22172 31748 41418 61749 130151 131146 132141 133135 136137 135135 81316 91747
AAXX 12184 65306 31940 50604 10268 20070 39791 40126 70522 80002 333 10320 58012 85076
AAXX 12184 65319 31940 53404 10278 20095 39603 40117 70522 80002 333 10340 58012 85076
AAXX 12184 65330 31906 53602 10285 20092 39661 40099 70544 80002 333 10336 58002 85076
AAXX 12184 65335 31920 50000 10291 20149 39872 40096 70544 80002 333 10353 58004 85076
AAXX 12184 65344 31925 41804 10283 20210 30083 40094 70522 80002 333 10325 58006 84076
BBXX 42020 12181 99270 70967 46/// /1408 10235 20181 40216 50003 91750 22200 00240 10603 20603 70017 333 91210 555 11085 22090 31718 41310 61749 137080 136080 134084 136087 136085 137084
BBXX 44027 12181 99443 70673 46/// /2311 10081 20020 40295 56012 91750 22200 00091 10705 20705 70024 333 91213 555 11117 22125 31717 42214 61749 230109 226111 223108 221111 225110 225109
BBXX 42001 12181 99259 70897 46/// /0505 10238 20199 40234 58003 91750 22200 00241 10804 20401 3//// 40804 70019 333 91206 555 11055 22058 31740 40507 61749 046052 044049 036048 036047 037044 040045
BBXX 41048 12181 99320 70696 46/// /0713 10210 20165 40221 56024 91750 22200 00229 10807 20705 3//// 40805 70034 333 91216 555 11130 22138 31727 40717 61749 068129 066127 067128 065130 070127 069133 80715 91745
BBXX 42058 12181 99149 70749 46/// /0808 10276 20232 40105 58016 91750 22200 00279 10503 20502 307// 40701 70013 333 91209 555 11080 22085 31651 40809 61749 084075 080073 077073 082075 090077 084074 80808 91651
BBXX 42065 12181 99149 70750 46/// /0807 10267 20234 91750 22200 10603 20603 70016 333 91209 555 11077 22082 31702 40712 61749 078072 083071 091065 080065 059069 066065 80610 91702
BBXX 42012 12181 99301 70876 46/// /0508 10134 20124 40265 58003 91750 22200 00190 10602 20602 70010 333 91209 555 11080 22083 31652 40709 61749 049076 050075 051073 053073 053072 055075
BBXX 42060 12181 99163 70635 46/// /0902 10277 20218 40122 58020 91750 22200 00295 10902 300// 40902 70009 333 91203 555 11020 22020 31725 40703 61749 090018 069017 057019 074012 048014 043014 80603 91726
BBXX 42035 12181 99292 70944 46/// /0905 10147 20123 40261 54000 91750 22200 00151 10502 20401 311// 40501 70008 333 91206 555 11052 22054 31711 41008 61749 093050 092056 093059 095064 094065 093061
BBXX 46001 12181 99563 71480 46/// /2514 10052 40058 51021 91750 22200 00049 11312 20706 300// 41311 70061 333 91217 555 11152 22162 31651 42318 61749 254139 255135 256133 255132 253130 255138
BBXX WBN3015 12184 99230 70684 41/// /3610 10261 2//// 40112 54000 714// 8//// 22272 0//// 20604 30336 40804 50601 6//// 8//// ICE /////
BBXX ELXU2 12180 99206 71137 41598 82904 10227 20150 40198 52015 70222 885// 22223 29902 334// 4//04 5//// 80178
BBXX MZDL7 12183 99295 71176 41498 22510 10155 20118 40117 56005 70182 82200 22243 00180 20201 322// 40801 5//// 80135
AAXX 12181 06414 36/// /2005 10065 20034 30059 40092 58001 60002 333 10088 91111 91207
AAXX 12181 06459 16/// /2106 10055 20045 39932 40126 50013 60022 333 10073 91114 91210
AAXX 12181 06494 16/// /2307 10018 20013 39327 40134 50019 60082 333 10037 91111 91207
BBXX A8IE7 12184 99058 10969 41497 32910 10240 20211 40105 51025 71322 832// 22264 04287 299// 30000 80220
BBXX ZCBU2 12183 99366 31505 41598 72030 10170 20153 40059 57003 70022 8147/ 22244 00190 20302 317// 40504 5//// 80160
BBXX BATFR47 12184 99304 51462 44998 20916 10207 20147 40212 51010 70100 80008 22262 20000 310// 40902 5////
BBXX BATFR59 12184 99221 31684 46/// /0312 10267 20239 40099 22251 00269
BBXX BATFR56 12184 99062 30781 44598 42809 10280 20239 40105 51011 70300 83802 22253 00299 20602 324// 40602 5////
BBXX BATEU07 12184 99359 31507 46/// /2029 10169 40062 53001 22244
BBXX ZCBH7 12184 99019 11083 41597 30415 10252 20239 40113 58021 70322 8/272 22233 04272 20202 305// 40202 5//// 80243
BBXX 42002 12181 99258 70937 46/// /0806 10231 20186 40229 50000 91750 22200 00245 10703 20402 308// 40702 70014 333 91207 555 11062 22066 31732 40809 61749 077063 075070 078068 076067 075071 076071
BBXX 42003 12181 99260 70856 46/// /0606 1//// 91750 22200 10703 20601 305// 40703 70016 333 91207 555 11064 22068 31739 40607 61749 064060 064061 072062 072058 074056 072055 80807 91726
BBXX 42055 12181 99222 70940 46/// /0506 10248 20195 40202 50000 91750 22200 00252 10803 20602 303// 40802 70015 333 91207 555 11068 22072 31738 40408 61749 049065 048062 049062 046061 056058 059059 80507 91741
BBXX 41043 12181 99211 70650 46/// /1302 10258 20219 40139 56027 91750 22200 00269 11104 20401 300// 41104 70022 333 91203 555 11016 22017 31736 41203 61749 132016 123017 128017 107018 104014 110015 81202 91736
BBXX 44020 12181 99414 70702 46/// /2205 10085 20025 40332 58023 91750 22200 00095 10201 70003 333 91206 555 11052 22055 31740 42606 61749 229050 257047 258047 259051 259050 256049
BBXX 44066 12181 99396 70726 46/// /0203 10096 20057 40338 56017 91750 22200 00131 10801 3//// 40801 70006 333 91204 555 11032 22033 31651 40405 61749 020032 021032 030030 038031 039034 037040
BBXX 42040 12181 99292 70882 46/// /0608 10185 40254 50000 91750 22200 00222 10703 20603 309// 40702 70017 333 91209 555 11080 22084 31715 40711 61749 063080 060086 063085 064085 064083 061083
BBXX 44005 12181 99432 70691 46/// /2210 10071 21001 40309 56021 91750 22200 00090 10603 20603 70016 333 91211 555 11103 22109 31730 42212 61749 218097 218099 221100 222097 217097 222093
BBXX 42059 12181 99151 70675 46/// /1004 10280 20222 40116 58018 91750 22200 00289 10902 20401 3//// 40902 70008 333 91205 555 11042 22043 31700 40905 61749 100040 098041 102042 090038 092042 093040 80905 91700
BBXX 41004 12181 99325 70791 46/// /0111 10148 20132 40284 58008 91750 22200 00207 10804 20604 3//// 40802 70021 333 91213 555 11113 22119 31650 40113 61749 009106 009106 011109 012108 015105 018109
BBXX 44009 12181 99385 70747 46/// /0403 10096 40346 58016 91750 22200 00124 10701 20401 300// 40701 70007 333 91204 555 11035 22036 31659 40605 61749 043034 052034 051038 053038 056040 055040
BBXX 41036 12181 99342 70770 46/// ///// 10146 20118 40287 58016 91750 22200 00217 10603 70017
BBXX 42036 12181 99285 70845 46/// /0608 10175 20163 40238 58007 91750 22200 00215 10703 20703 70015 333 91209 555 11081 22085 31712 40610 61749 063077 054077 055077 057078 054075 058071
BBXX 42056 12181 99198 70849 46/// /0508 10267 20222 40166 58006 91750 22200 00275 10703 20703 70017 333 91209 555 11082 22086 31718 40510 61749 051076 050079 050078 052080 057075 058071 80508 91736
BBXX 41044 12181 99217 70587 46/// /1607 10261 20221 40136 56022 91750 22200 00268 11006 20603 300// 41005 70029 333 91208 555 11074 22078 31725 41509 61749 155070 157071 156075 152070 149070 149076 81508 91725
BBXX 41013 12181 99334 70777 46/// /0210 10154 20142 40284 57012 91750 22200 00210 10704 20704 313// 40901 70019 333 91212 555 11103 22108 31704 40213 61749 021098 018101 025106 025105 025104 026105
BBXX 44014 12181 99366 70748 46/// /0607 1//// 40312 58012 91750 22200 00150 10603 20602 311// 40802 70014 333 91208 555 11069 22069 31706 40508 61749 063069 062068 057069 053068 044069 039070
BBXX 44065 12181 99404 70737 46/// /2602 10053 21018 40348 57011 91750 22200 00098 10901 312// 40901 70004 333 91203 555 11018 22019 31732 42403 61749 260018 246019 245020 246020 230014 252013 82503 91715
BBXX PBAD 12181 99124 70871 41697 42503 10275 20222 40107 58/// 70211 84500 22200 00280 2//// 3//// 4//// 5//// 80239
BBXX 9VAW8 12184 99137 70923 41898 22813 10290 20249 40140 54000 70200 82400 22233 00282 20803 32828 40803 50803 6//// 80260 ICE /////
BBXX BAREU11 12184 99057 70801 46/// ///// 40125 57012 22283
BBXX WDC6698 12184 99089 71475 43/// /0705 10320 20281 40120 5//// 7//// 8//// 222// 04266 2//// 3//// 4//// 5//// 6//// 8//// ICE /////
BBXX A8FU7 12181 99081 70867 41698 73608 10274 20232 40120 54000 70211 87470 22235 00265 299// 333// 40803 5//// 80245
BBXX TFSTD 12184 99664 70234 46/// ///// 22200 10710 70050
BBXX TFSRT 12184 99633 70203 46/// ///// 22200 10906 70029
BBXX TFDRN 12184 99658 70212 46/// ///// 22200 10604 70020
BBXX TFKGR 12184 99657 70136 46/// ///// 22200 10807 70036
BBXX TFGRV 12184 99638 70225 46/// ///// 22200 10704 70022
BBXX TFGSK 12184 99641 70229 46/// ///// 22200 10703 70017
BBXX TFHFN 12184 99642 70152 46/// ///// 22200 10805 70023
BBXX TFGRS 12184 99663 70182 46/// ///// 22200 10706 70028
BBXX TFBLK 12184 99657 70248 46/// ///// 22200 10705 70027
BBXX WDE8264 12183 99366 70002 41398 43309 10180 20164 40260 54000 70200 8315/ 22224 00190 20201 3//// 4//// 5//// 6//// 80170 ICE /////
BBXX DBBH 12181 99449 70088 41497 82320 10135 20098 40143 55001 70282 875// 22252 04147
BBXX VRYO3 12184 99480 70279 46/// /2718 10063 20072 40046 53004 7//// 8//// 22224 00131 2////
BBXX DBKR 12181 99541 10121 46/// /2505 10066 20066 40036 52029 22200 00058
BBXX DBJM 12181 99540 10085 46/// /2113 10052 20031 40049 52030 22271 00043
BBXX DBBA 12181 99536 10086 46/// ///// 10055 20027 40053 52020 22220 00052
BBXX DBFH 12181 99540 10084 46/// /2211 10057 20034 40039 52017 22222 00051
BBXX DBEA 12181 99540 10083 46/// /2313 10058 20031 40037 52019 22221 00048
BBXX DBFR 12181 99550 10189 46/// /2014 10041 20030 40049 57005/ 22271 00074
BBXX LAVW4 12184 99442 70097 41696 82435 00/// 10155 2013/ 40145 54000 75052 889// 22253 00160 21009 330// 41110 5//// 6////
BBXX OXBB2 12181 99322 70347 41698 50908 10210 20147 40270 57/// 70311 85165 22225 00220 20104 80170
BBXX WCX7445 12184 99647 50640 43/// /2427 10032 2//// 49636 5//// 7//// 8//// 22200 01001 2//// 3//// 4//// 5//// 6//// ICE /////
AAXX 12184 93004 16/// /0523 10177 20177 40145 52002 60221
AAXX 12184 93023 16/// /0305 10184 20181 40178 52007 60001
AAXX 12184 93069 16/// /0618 10170 20166 40184 52005 60001
AAXX 12184 93110 17498 /0612 10173 20162 40181 52003 69921
AAXX 12184 93186 17497 /0505 10162 20155 40208 52007 60031
AAXX 12184 93196 16/// /1605 10158 20153 40220 52007 6///1
AAXX 12184 93245 16498 /0703 10128 20120 40212 52006 69941
AAXX 12184 93292 17798 /0401 10152 20143 40212 52009 69921
AAXX 12184 93309 17396 /0710 10159 20159 40179 52001 60051
AAXX 12184 93334 16/// /0306 10118 20096 39243 52004 6///1
AAXX 12184 93339 16/// /0216 10105 20092 39248 52005 6///1
AAXX 12184 93373 168// /0412 10167 20143 40193 52008 69941
AAXX 12184 93404 17698 /1101 10168 20160 40179 52004 60041
AAXX 12184 93420 17598 /0406 10171 20150 40174 52004 60011
AAXX 12184 93439 17498 /0111 10168 20151 40167 52004 69941
AAXX 12184 93498 16/// /0316 10141 20141 40179 52005 69921
AAXX 12184 93515 17293 /0306 10165 20165 40157 52001 60001
AAXX 12184 93527 16/// /3512 10164 20164 40165 52004 60001
AAXX 12184 93546 17498 /0605 10169 20168 40165 52003 60011
AAXX 12184 93597 16/// /3522 10151 20144 40146 52007 60001
AAXX 12184 93615 17395 /1402 10163 20160 40157 52001 69981
AAXX 12184 93678 16/98 /2804 10186 20133 40126 52011 60001
AAXX 12184 93709 16/// /0409 10155 20151 40149 52005 69981
AAXX 12184 93773 17194 /1908 10136 20135 40134 52028 60001
AAXX 12184 93781 17/97 /2901 10140 20139 40122 52013 60001
AAXX 12184 93800 NIL
AAXX 12184 93805 NIL
AAXX 12184 93831 17/98 /0105 10099 20085 40142 52007 60001
AAXX 12184 93845 17/97 /1003 10137 20133 40126 52007 60001
AAXX 12184 93891 17/97 /0000 10124 20117 40132 52006 60001
AAXX 12184 93909 16/// /3419 10133 20131 40121 52006 60001
AAXX 12184 93929 16/// /3310 10099 20097 40076 52004 69921
AAXX 12184 93947 16/// /3508 10118 20105 40096 52008 60001
AAXX 12184 93987 16/// /0510 10133 20114 40290 52008 60001
AAXX 12184 93994 NIL
BBXX CG2960 12184 99454 70803 46/// /2412 10048 20026 40285 58005 7//// 8//// 22261 00047 2////
BBXX CG2350 12184 99433 70798 46/// /2311 10050 21048 40305 58010 7//// 8//// 22200 0//// 2////
BBXX 45008 12181 99443 70824 46/// /2305 10025 30073 40294 57006 91750 22200 00063 10401 20401 70007 333 91207 555 11056 22058 61749 228056 226060 220063 218061 211059 214062
BBXX CGDS 12184 99447 70755 46/// /2318 10045 21020 4//// 5//// 7//// 8//// 22200 0//// 2////
AAXX 12184 04005 21470 80522 10022 20006 49811 57004 76366 8432/ 333 10037 20021 60028 555 3/424
AAXX 12184 04018 22586 40711 10004 21038 49760 57004 70281 82901 333 10012 21010 69908 555 3//14 82923 84068
AAXX 12184 04030 32589 30708 10005 21055 49759 57012 81931 333 10010 21006 555 3//09 81920
AAXX 12184 04048 NIL
AAXX 12184 04063 22582 63103 10011 21019 49808 53003 84410 333 10022 20006 69908 555 3//05
AAXX 12184 04077 NIL
AAXX 12184 04082 NIL
AAXX 12184 04097 21470 80606 10022 20011 49803 57007 71588 883// 333 10030 20009 60078 555 3/410
BBXX UFJN 12181 99711 10339 41/98 30206 11020 49999 52020 70221 8325/ 22200 0//// 20301
BBXX UCSJ 12181 99690 10418 41/97 93407 11023 49992 51010 70280 89/// 22241 20302
AAXX 12184 48300 31558 60000 10191 20178 39831 40150 51007 71020 83556 333 59005
AAXX 12184 48327 31558 10000 10198 20175 39807 40170 52005 71000 81500 333 59012
AAXX 12184 48331 32960 00000 10161 20151 39930 40168 52001 333 59019
AAXX 12184 48353 31930 00000 10143 20121 39868 40170 57008 71000 333 59025
AAXX 12184 48356 31950 00000 10145 20117 39972 40177 57010 71000 333 59025
AAXX 12184 48375 31957 00000 10160 20148 39913 40146 52001 71000 333 59010
AAXX 12184 48378 31956 20502 10198 20165 30103 40157 56006 71000 80005 333 59011
AAXX 12184 48381 32960 00703 10163 20121 39945 40170 57005 333 59020
AAXX 12184 48407 31959 30103 10159 20132 39997 40144 57015 71011 80001 333 59023
AAXX 12184 48431 32960 20304 10171 20134 39944 40164 57002 80005 333 59012
AAXX 12184 48456 NIL
AAXX 12184 48480 31957 10503 10215 20141 30124 40129 57007 70500 80001 333 59001
AAXX 12184 48500 31940 20000 10223 20141 30126 40133 57005 70500 80005 333 58002
AAXX 12184 48551 31550 20000 10215 20201 30118 40126 57002 71000 82205 333 59006
AAXX 12184 48565 32560 50908 10254 20198 30099 40109 57001 81246 333 58000
AAXX 12184 48569 01450 80000 10229 20215 30085 40125 57007 60223 76162 82876 333 58002 60117 70216
AAXX 12184 48583 NIL
AAXX 12184 48302 NIL
AAXX 12184 48304 32562 60000 10156 20152 39702 40178 50003 82556 333 59009
AAXX 12184 48334 31958 00000 10180 20163 39798 40170 52010 71000 333 59006
AAXX 12184 48360 31959 00000 10140 20121 39894 40166 57008 71011 333 59023
AAXX 12184 48372 31958 10000 10189 20184 30096 40155 52002 71000 80001 333 59018
AAXX 12184 48373 31940 20000 10180 20167 30088 40152 57003 71000 80001 333 59018
AAXX 12184 48386 31940 00000 10180 20163 30105 40150 57015 71000 333 59013
AAXX 12184 48387 NIL
AAXX 12184 48408 NIL
AAXX 12184 48415 31957 30610 10200 20139 30139 40150 57004 71021 80002 333 59012
AAXX 12184 48433 31956 10403 10164 20132 39989 40161 57004 71000 80001 333 59022
AAXX 12184 48437 31958 00505 10165 20119 39942 40159 57004 71000 333 59025
AAXX 12184 48440 NIL
AAXX 12184 48451 32960 03202 10177 20167 30142 40154 57006 333 59007
AAXX 12184 48454 NIL
AAXX 12184 48457 NIL
AAXX 12184 48463 NIL
AAXX 12184 48464 31958 03305 10186 20155 30123 40136 57005 71000 333 59007
AAXX 12184 48479 31958 20106 10210 20141 30074 40127 57010 71000 80005 333 59018
AAXX 12184 48520 31958 40304 10220 20188 30117 40133 56001 71011 80005 333 59007
AAXX 12184 48554 31458 70000 10245 20235 30090 40094 57030 71022 83846 333 59028
AAXX 12184 48563 32560 40308 10244 20201 30077 40113 57003 81255 333 59002
AAXX 12184 48571 01458 80000 10228 20217 30116 40127 52001 60633 76122 8386/ 333 58010 60337 70634
AAXX 12184 48310 31556 40000 10156 20147 39706 40177 52003 71010 84500 333 59010
AAXX 12184 48325 31656 60000 10175 20165 39906 40156 52007 71022 82555 333 59005
AAXX 12184 48329 31950 00000 10180 20167 39815 40163 52007 71000 333 59006
AAXX 12184 48352 31940 00902 10160 20131 39966 40174 57007 71000 333 59024
AAXX 12184 48357 31956 10000 10155 20108 39998 40174 57008 71000 80001 333 59019
AAXX 12184 48380 32960 00000 10185 20167 30062 40159 57007 333 59013
AAXX 12184 48383 31950 00502 10150 20110 30003 40169 56007 71000 333 59019
AAXX 12184 48403 31957 00806 10180 20126 39944 40161 57005 71000 333 59012
AAXX 12184 48405 32960 20404 10160 20107 39992 40161 57009 80005 333 59020
AAXX 12184 48420 31956 20402 10199 20168 30137 40142 57007 71000 80005 333 59007
AAXX 12184 48421 31950 20000 10168 20154 30041 40159 53000 71000 80005 333 59005
AAXX 12184 48425 31930 10000 10194 20167 30145 40156 57004 71000 80005 333 59001
AAXX 12184 48426 31957 20401 10202 20132 30136 40150 57009 70510 80005 333 59012
AAXX 12184 48429 32960 20603 10202 20151 30140 40147 57003 80001 333 59006
AAXX 12184 48430 31958 20000 10205 20135 30135 40142 57008 70500 80002 333 59007
AAXX 12184 48450 31957 00000 10190 20147 30119 40153 50002 71000 333 59005
AAXX 12184 48459 32960 00602 10205 20153 30133 40136 57009 333 59009
AAXX 12184 48465 31958 23006 10205 20145 30136 40141 57004 71000 80005 333 59009
AAXX 12184 48550 31558 43302 10250 20207 30115 40122 57005 71011 81146 333 59001
AAXX 12184 48552 31458 70000 10236 20216 30111 40117 57005 71022 82236 333 59007 70004
AAXX 12184 48566 32560 60000 10253 20215 30108 40116 57009 82145 333 59006
AAXX 12184 48568 01459 71102 10234 20229 30114 40122 57005 60493 76166 83877 333 58003 60207 70510
AAXX 12184 78988 02484 60713 10269 20250 30093 40104 57021 69981 84201 333 58011 69987 84819 86081
AAXX 12184 78990 01459 /0000 10294 20254 30105 57020 60001 70000 333 58009 60007
AAXX 12181 14241 11235 80401 10067 20059 39992 40122 56002 60022 76362 885// 333 10082 82705 88657
AAXX 12181 14284 11670 81506 10113 20100 30022 40129 57008 69912 70262 8452/ 333 10125
AAXX 12181 14307 11615 81201 10114 20108 30042 40118 55003 69982 71026 8457/ 333 10136
AAXX 12181 14317 NIL
AAXX 12181 14431 11560 71203 10127 20120 30041 40133 58002 60022 76022 84520 333 10153
AAXX 12181 14444 13565 71304 10158 20129 30119 40147 57002 69942 85770 333 10168 81723 85857
AAXX 12181 14474 12970 41005 10128 20104 39988 40177 52005 60002 84030 333 10170
AAXX 12184 16622 11358 72404 10114 20086 30220 40231 51002 60002 71022 84650 333 10122 82707 83625 86358 90730 91105 555 10000 40068 30000 10106 2//// 30108 4//// 5//// 40000 47696 44215 50000 50100 70000 77Y// 7/Y//
AAXX 12184 16641 12460 31706 10166 20138 30199 40205 55000 69902 83200 333 10192 90730 91118 555 10000 40166 40000 47680 44210 50000 50150 60000 65555 60005
AAXX 12184 16682 11560 30000 10134 20127 30198 40216 56007 60082 70160 81240 333 10180 81820 83358 90730 91114 555 10000 40128 30000 10134 20142 30146 40144 50140 60188 40000 47680 44210 50000 50130 60000 60079 60110 70000 77/// 7R///
AAXX 12184 16716 12560 40000 10146 20112 30206 40225 58001 60002 81150 333 10202 81820 84360 555 10000 40102 40000 47682 44175 50000 50128
AAXX 12184 16734 17/// /0403 10147 20117 30174 40235 57001 69902 7//4/ 333 10198 90730 91110 555 10000 40137 60000 65555 60003
AAXX 12184 16743 NIL
AAXX 12184 16749 12460 69901 10126 20099 30233 40247 51003 60062 82255 333 10180 82818 84358 86068 90730 91104 555 10000 40126 40000 47706 44210 50000 50112 60000 60060 60053
AAXX 12184 16754 12560 60000 10126 20082 30198 40246 52003 60002 81108 333 10188 81820 86270 90730 91105 555 10000 40126 40000 47681 44205 50000 50104
AAXX 12181 14240 11630 83001 10073 20067 39969 40125 53003 60032 76362 885// 333 10080
AAXX 12181 14258 11665 40801 10082 20082 39930 40117 57008 69942 70162 84100 333 10095 84833
AAXX 12181 14445 11570 81509 10152 20125 39989 40140 56001 69922 7036/ 8782/ 333 10163 87695 81499 92323
AAXX 12184 08001 12468 72108 10136 20074 30118 40199 58002 60002 82556 333 10142 924/7
AAXX 12184 08015 12565 30602 10114 20034 39791 40194 57005 60002 81577 333 10135
AAXX 12184 08023 12960 61507 10110 20067 30131 40203 58006 69982 80008 333 10140
AAXX 12184 08027 12970 20903 10105 20065 39904 40215 55005 60012 80005 333 10121
AAXX 12184 08045 02562 81908 10105 20097 39930 40242 56004 69902 8777/ 333 10115 60007
AAXX 12184 08141 12470 42507 10078 20025 39372 40238 51005 69902 81538 333 10115
AAXX 12184 08160 NIL
AAXX 12184 08181 02568 13406 10098 20040 30213 40219 51014 60002 81800 333 10164 60007
AAXX 12184 08221 02480 62605 10090 20056 39567 40258 53009 60002 86801 333 10099 60007
AAXX 12184 08231 NIL
AAXX 12184 08261 12575 72604 10110 20069 39799 40284 53009 69932 8743/ 333 10130
AAXX 12184 08284 02882 12816 10135 20056 30166 40242 53015 60002 81051 333 10174 60007
AAXX 12184 08306 12570 13106 10137 20079 30225 40231 52012 60002 81100 333 10176
AAXX 12184 08314 02575 33402 10119 20089 30120 40224 51010 69902 83801 333 10160 60007
AAXX 12184 08430 12968 02902 10128 20073 30176 40251 53007 60002 333 10182
AAXX 12184 08482 12570 33107 10152 20080 30256 40264 53005 60002 81801 333 10184
AAXX 12184 16614 11560 70000 10086 20055 39444 40231 53008 69902 70162 84550 333 10130 84625 86358 90730 91114 555 10000 40037 60000 65555 60100 70000 77/// 7R///
AAXX 12184 16627 12560 30000 10114 20110 30226 40230 56001 60002 82140 333 10156 90730 91110 555 10000 40104 30000 10112 20112 30116 40112 50108 6//// 40000 47703 44240 50000 50112
AAXX 12184 16667 12560 51703 10156 20107 30233 40238 54000 60002 82150 333 10184 82825 85358 90730 91112 555 10000 40138 30000 20140 30144 40000 47704 44200 50000 50130
AAXX 12184 16675 17/// /9903 10131 20098 30202 40216 52002 69902 741// 333 10182 90730 91105 555 10000 40081 60000 65555 6////
AAXX 12184 16710 36/// /2104 10102 20072 39472 40245 54000 333 10153 90730 91111 555 10000 40061
AAXX 12184 16723 12560 50000 10146 20112 30234 40250 54000 60002 82205 333 10164 82820 84068 90730 91110 555 10000 40132 40000 47710 44230 50000 50128
AAXX 12184 16738 NIL
AAXX 12184 16746 12560 50000 10132 20109 30059 40242 57001 60002 81136 333 10194 81825 85068 90730 91104 555 10000 40114 40000 47576 44200 50000 50120
AAXX 12181 26509 11457 81405 10010 21001 30056 40065 57013 69962 76162 8872/ 333 10031 91010 91112 555 53012
AAXX 12181 26518 32663 61606 11010 21025 40087 57012 82532 333 10000 91009 91110 555 4/016 53010
AAXX 12181 26524 32697 21703 10001 21017 39960 40095 56013 81502 333 10009 91007 91109 555 4/002 53009
AAXX 12181 26531 32664 81504 10009 21020 40106 57017 885// 333 10014 88640 91008 91111 555 53011
AAXX 12181 26629 32897 81605 10003 21014 30016 40114 57011 82030 333 10013 91007 91109 555 53009
AAXX 12181 26633 32668 71504 10002 21025 39994 40127 56015 87500 333 10015 87644 91007 91108 555 53008
AAXX 12181 26730 32670 71704 10006 21020 39943 40138 57015 87500 333 10011 91006 91109 555 41998 53010
AAXX 12184 16643 12360 30000 10144 20130 30222 40227 57005 60002 83600 333 10206 90730 91107 555 10000 40116 40000 47700 44235 50000 50136
AAXX 12184 16648 12560 50000 10110 20068 30130 40219 58001 60002 81156 333 10166 81830 84358 90730 91105 555 10000 40058 30000 10092 2//// 30096 40088 5//// 6//// 40000 47628 44210 50000 50090
AAXX 12184 16650 12260 51605 10140 20133 30213 40216 50002 60002 85600 333 10164 82706 84615 90730 91110 555 10000 40138 30000 10122 20128 30132 40126 50120 60140 40000 47689 44210 50000 50136
AAXX 12184 16684 12860 21906 10148 20098 30174 40202 56008 60002 82031 333 10180 90730 91110 555 10000 40120 40000 47665 44240 50000 50122
AAXX 12184 16732 12465 51508 10158 20137 30231 40243 51001 60002 82250 333 10192 82818 85359 90730 91115 555 10000 40148 40000 47698 44150 50000 50146
AAXX 12184 48307 31950 00000 10160 20151 39780 40173 51000 71000 333 59017
AAXX 12184 48324 32960 00000 10165 20156 39938 40165 52004 333 59008
AAXX 12184 48333 31956 00000 10162 20150 39860 40172 52001 71000 333 59018
AAXX 12184 48350 NIL
AAXX 12184 48355 31940 00000 10128 20113 39946 40176 57007 71000 333 59030
AAXX 12184 48358 NIL
AAXX 12184 48384 31956 00000 10158 20127 39971 40169 56006 71000 333 59015
AAXX 12184 48401 31956 20000 10169 20145 30053 40164 57008 71000 80005 333 59009
AAXX 12184 48404 32960 00507 10161 20113 39978 40163 56008 333 59020
AAXX 12184 48409 NIL
AAXX 12184 48419 31958 50205 10215 20156 30137 40145 56008 71011 80005 333 59012
AAXX 12184 48427 NIL
AAXX 12184 48435 31958 20000 10155 20108 39712 40165 57003 71000 80001 333 59005
AAXX 12184 48453 32960 20000 10212 20162 30138 40141 57007 80001 333 59008
AAXX 12184 48458 32960 00000 10169 20141 30077 40160 57007 333 59007
AAXX 12184 48474 31956 20000 10179 20146 30018 40146 57006 71000 80005 333 59010
AAXX 12184 48481 32960 03401 10186 20164 30102 40131 57011 333 59002
AAXX 12184 48555 31550 60000 10218 20206 30111 40154 55004 71022 83576 333 59002
AAXX 12184 48556 NIL
AAXX 12184 48557 NIL
AAXX 12184 48560 NIL
AAXX 12184 48574 01560 80000 10242 20236 30097 40126 57002 60023 70362 84876 333 58016 60026 70020
AAXX 12184 48581 NIL
AAXX 12184 07110 01330 82025 10104 20099 39929 40043 58049 60032 76086 876// 333 10104 20057 60037 87708 91037 90710 91141 93100 555 60035
AAXX 12181 38353 425// 72301 11011 21025 39419 40351 52025 85531 333 10055
AAXX 12181 38613 415// 80101 10005 21039 40360 52026 77177 8802/ 333 10052
AAXX 12181 38616 415// 80000 11006 21009 39317 40369 52023 77172 8872/ 333 10020
AAXX 12181 38345 31596 82702 11044 21067 38881 48561 52026 71022 886// 333 10054
AAXX 12181 36911 419// 80000 11008 21017 39347 40342 52030 70272 8802/ 333 10041
AAXX 12181 36974 NIL
AAXX 12181 36982 114// 82004 11147 21184 36524 47145 52007 69900 77172 8802/ 333 11107
AAXX 12184 91925 01575 71111 10275 20208 30082 40142 51010 60041 70186 85802 333 56206 69967 84821 83080 90710 91118 555 60005 11118 59004
AAXX 12184 91929 04/86 /1206 10293 20233 30153 40156 51012 69902 761// 333 10293 20255 69907 90710 91110 555 69905
AAXX 12184 91938 01580 50404 10288 20213 30162 40164 51013 60002 702// 81202 333 10288 20242 60007 81820 85080 90710 91107 555 60005 10607 58014
AAXX 12184 91944 06/// /0809 10276 20197 30170 40173 51014 60002 333 10278 20253 60007 90710 91113 555 60005
AAXX 12184 91948 02482 40704 10263 20192 30096 40198 51008 60001 83201 333 56108 60007 83818 90710 91109 555 60005 10409 58007
AAXX 12184 91954 06/// /2404 1//// 2//// 30157 4//// 52012 60001 333 60007 555 58020
AAXX 12184 91958 01475 80610 10218 20195 30185 40187 51008 60021 72162 888// 333 56299 60027 85816 87646 90710 91126 555 69985 10630 59003
AAXX 12184 91943 NIL
AAXX 12184 91945 NIL
AAXX 12184 78988 02484 60713 10269 20250 30093 40104 57021 69981 84201 333 58011 69987 84819 86081
AAXX 12184 78990 01459 /0000 10294 20254 30105 57020 60001 70000 333 58009 60007
AAXX 12184 78988 02484 60713 10269 20250 30093 40104 57021 69981 84201 333 58011 69987 84819 86081
AAXX 12184 78990 01459 /0000 10294 20254 30105 57020 60001 70000 333 58009 60007
AAXX 12184 06030 01575 22008 10033 20021 39951 49967 52012 69982 70165 81501 333 10047 20032 6///7 81632
AAXX 12184 06060 01570 42106 10024 20017 39920 49985 52014 60022 72581 83501 333 10040 20020 69907 81626 83638
AAXX 12184 06070 05/65 02306 10039 20025 39963 49994 52018 60022 333 10048 20037 69937
AAXX 12184 06120 41982 32209 10036 20029 39985 40011 52023 70261 80001 333 10053 20024 83070
AAXX 12184 06180 01362 82512 10058 20050 39995 40001 52013 60012 72152 885// 333 10059 20036 60017 81708 87611
AAXX 12184 06193 07235 82217 10056 20052 39995 40006 57002 60032 76186 333 10056 20017 55300 20000 60027 81/04 85/07 88/10 91125
AAXX 12181 15502 11915 80000 10050 20050 30182 40222 56003 60002 71022 8807/ 333 10062 20050 555 500//
AAXX 12181 15525 11/08 90501 10058 20056 39933 40201 58015 69992 75154 333 10077 20046 555 59800 66299 71859
AAXX 12181 15528 11015 80000 10050 20041 30000 40192 57007 69902 71054 8802/ 333 10060 20048 555 594// 71800
AAXX 12181 15535 11930 80000 10071 20062 30158 40205 57003 69902 71062 8807/ 333 10098 20039 555 59400 60499
AAXX 12181 15549 11558 81802 10084 20065 39799 40216 57005 60002 71022 886// 333 10104 20048 555 588//
AAXX 12181 15552 11/04 91102 10088 20080 30171 40220 57003 60002 74544 222// 2//00 333 10115 20088 555 595// 92012 92412
AAXX 12181 15614 11515 60000 10057 20053 39505 40216 57005 69972 71082 86800 333 10083 20052 555 597// 69199 71850
AAXX 12181 15615 11/00 92510 11048 21058 37133 47075 54000 69982 74174 333 11034 21050 555 593// 71800
AAXX 12181 15626 12962 30000 10062 20033 30028 40219 53001 60002 82032 333 10130 20044 555 582//
AAXX 12181 15627 11/00 92310 11012 21012 37640 47081 56005 69922 74944 333 11006 21012 48003 93501 555 500// 92710
AAXX 12181 15640 11658 80000 10114 20082 39907 40218 57005 60002 71022 885// 333 10118 20070 555 581//
AAXX 12181 15655 11908 00504 10093 20089 30181 40214 57003 60002 74411 222// 00093 20000 333 10106 20067 555 597// 92013 92413
AAXX 12181 15712 12670 70000 10105 20069 39971 40221 53003 60002 86501 333 10157 20054 555 579//
AAXX 12181 15730 12670 62006 10111 20097 39823 40212 53002 60002 83856 333 10161 20047 555 591//
AAXX 12184 06011 07462 12609 10033 20015 39694 49761 57011 60122 78085 333 10036 20018 55300 20000 69907 81/14
AAXX 12184 47101 32970 03602 11047 21071 30202 40303 52007
AAXX 12184 47105 369// /2709 10003 21084 30253 40286 51006
AAXX 12184 47108 32970 00201 11017 21102 30184 40294 52003
AAXX 12184 47115 32575 30206 10043 21052 39998 40274 52006 83500 333 92022
AAXX 12184 47133 32965 02902 11017 21059 30209 40298 52005
AAXX 12184 47138 32970 02004 10033 21061 30274 40277 52004 333 92022
AAXX 12184 47159 32962 03405 10047 21084 30182 40269 52004 333 92022
AAXX 12184 47165 31958 00503 10014 21008 30237 40285 54000 71000 333 92021
AAXX 12184 47168 32962 01103 10053 21025 30190 40271 55001 333 92022
AAXX 12184 47184 32670 23607 10087 21008 30248 40273 55004 82500 333 92023
AAXX 12184 47090 32973 00001 10002 21115 30262 40285 50004 333 92011
AAXX 12184 47095 32965 00202 11066 21084 30105 40305 52006
AAXX 12184 47097 329// /0000 11054 21078 30196 40298 52006
AAXX 12184 47098 329// /0202 11042 21090 30154 40295 53003
AAXX 12184 47099 329// /0502 11053 21069 30259 40297 51001
AAXX 12184 47100 32962 00000 11142 21160 39353 40346 52016
AAXX 12184 47102 32972 00204 10007 21068 30113 40297 55002
AAXX 12184 47104 32970 01402 11013 21111 30185 40286 51005
AAXX 12184 47106 329// /2004 10002 21062 30233 40284 52008
AAXX 12184 47112 32970 00203 11005 21086 30208 40295 52003 333 92012
AAXX 12184 47114 32965 00201 11039 21073 30105 40297 52005
AAXX 12184 47119 32965 00000 11027 21056 30251 40295 52006
AAXX 12184 47121 329// /2701 11049 21064 39997 40307 52010
AAXX 12184 47127 329// /0902 11042 21068 30152 40301 53005
AAXX 12184 47129 32965 03602 11030 21048 30263 40300 53004
AAXX 12184 47130 32970 02505 11004 21061 30218 40282 52009 333 92022
AAXX 12184 47131 32970 00000 11009 21062 30221 40294 53002
AAXX 12184 47135 329// /3403 11018 21075 39984 40295 53002
AAXX 12184 47136 32963 00001 11029 21052 30113 40293 52007
AAXX 12184 47137 329// /1602 11023 21079 30168 40292 52006
AAXX 12184 47140 32963 00501 11017 21040 30262 40292 55001 333 92011
AAXX 12184 47143 32965 00502 10007 21059 30214 40296 52008
AAXX 12184 47145 32962 00001 11034 21049 30261 40289 52004
AAXX 12184 47146 31950 01402 11013 21020 30224 40293 53001 71000
AAXX 12184 47150 32968 00503 11010 21040 30271 40291 53002
AAXX 12184 47152 32968 02702 10023 21044 30232 40276 52007
AAXX 12184 47154 329// /0001 11017 21068 30230 40293 52007
AAXX 12184 47155 32965 00906 10058 21104 30226 40272 54000
AAXX 12184 47156 32965 00205 10017 21028 30196 40288 54000
AAXX 12184 47157 31956 00702 11043 21054 30003 40286 52007 71000
AAXX 12184 47162 32960 00503 10033 21014 30230 40271 55001 333 92022
AAXX 12184 47169 32968 00212 10077 20015 30184 40279 55004 333 92044
AAXX 12184 47170 32960 00001 10040 21033 30234 40278 55003 333 92021
AAXX 12184 47171 329// /0001 11009 21024 30234 40291 55002
AAXX 12184 47172 329// /0201 11008 21022 30215 40284 55002
AAXX 12184 47173 329// /0000 11033 21039 30175 40292 52003
AAXX 12184 47174 31959 02001 11012 21026 30073 40283 54000 71000
AAXX 12184 47175 32961 01105 10008 21026 39694 40282 55001 333 92022
AAXX 12184 47185 32661 30210 10083 20020 30178 40269 57006 83500 333 92023
AAXX 12184 47188 32662 23404 10054 20015 30244 40266 56005 81500 333 92022
AAXX 12184 47189 32670 23604 10069 20033 30196 40257 57006 81500 333 92022
AAXX 12184 47192 31956 00000 11022 21034 30243 40282 53001 71000
AAXX 12184 64810 NIL
AAXX 12184 64820 32460 62406 10278 20245 30094 40103 82502 333 10308 58008 82813 86070
AAXX 12184 89667 46/// /0706 11081 29078 39843 4//// 5////
AAXX 1218/ 89828 46/// ///// 11381 36417 4//// 5////
AAXX 1218/ 89108 46/// ///// 11275 36878 4//// 5////
AAXX 1218/ 89879 46/// ///// 11024 39701 4//// 5////
AAXX 1218/ 89872 46/// ///// 11091 39796 4//// 5////
AAXX 1218/ 89869 46/// ///// 11056 39784 4//// 5////
AAXX 1218/ 89866 46/// ///// 11035 39730 4//// 5////
AAXX 1218/ 89329 46/// ///// 11100 38701 4//// 5////
AAXX 1218/ 89799 46/// ///// 11189 4//// 5////
AAXX 1218/ 89332 46/// ///// 11074 39206 4//// 5////
AAXX 1218/ 89769 46/// ///// 11056 39817 4//// 5////
AAXX 1218/ 89314 46/// ///// 11155 38150 4//// 5////
AAXX 1218/ 89866 46/// ///// 11030 39730 4//// 5////
AAXX 1218/ 89329 46/// ///// 11108 38701 4//// 5////
AAXX 12184 78615 32482 72706 10224 20198 30070 40203 58010 87500 333 10226 20154 30/// 56800 59000 87618
AAXX 12184 78627 32982 01908 10212 20086 38179 58011 333 10214 20060 30/// 58007
AAXX 12184 78637 32482 72708 10268 20169 30161 40181 58013 82230 333 10270 20218 30/// 56190 57825 59001 82818 85359
AAXX 12184 78641 32580 13618 10216 20112 38565 40158 58007 81100 333 10222 20110 30/// 56800 57857 58005 81822
AAXX 12184 78647 31959 01510 10310 20186 30135 40142 58015 70440 333 10320 20190 30/// 58015
BBXX 46001 12181 99563 71480 46/// /2514 10052 40058 51021 91750 22200 00049 11312 20706 300// 41311 70061 333 91217 555 11152 22162 31651 42318 61749 254139 255135 256133 255132 253130 255138
BBXX 46026 12181 99378 71228 46/// /0607 10089 40082 55000 91750 22200 00112 11505 20602 328// 41505 70027 333 91209 555 11078 22082 31702 42910 61749 052074 286068 286078 285074 284082 289082
BBXX 46029 12181 99461 71245 46/// /0705 10053 21014 40236 52003 91750 22200 00074 11204 20301 329// 41204 70021 333 91206 555 11048 22050 31749 40706 61749 066046 056046 050043 048042 040044 043040
BBXX CG2958 12184 99490 71233 46/// /3405 10046 20005 40267 51005 7//// 8//// 22200 0//// 2////
BBXX CG2965 12184 99487 71235 46/// /2805 10028 21022 40263 53006 7//// 8//// 22200 0//// 2////
BBXX CGBR 12184 99543 71303 46/// /1211 10029 20028 40174 58015 7//// 8//// 22281 00079 2////
BBXX CGBY 12184 99487 71235 46/// /2805 10026 21025 40261 53005 7//// 8//// 22200 0//// 2////
BBXX CGDR 12184 99505 71276 46/// /0102 10008 20007 40249 56005 7//// 8//// 22200 0//// 2////
BBXX CGJK 12184 99484 71234 46/// /3608 10047 21009 40259 53002 7//// 8//// 22200 0//// 2////
BBXX DGTX 12183 99349 71293 41597 43630 10140 20064 40190 52010 70211 844// 22254 00180 20808 335// 40807 80100
BBXX KGTZ 12184 99518 71380 41497 82919 10067 20040 40185 54000 70222 886// 22224 00083 20401 326// 41006 5//// 6//// 80056 ICE /////
BBXX SHIP 12184 99318 71271 41597 53535 10140 20085 40160 54000 78088 854// 22223 00190 20606 302// 40706 5//// 6//// 80110 ICE /////
AAXX 12181 26645 32697 71903 11006 21027 39882 40147 57012 875// 333 10000 87643
AAXX 12181 26659 32962 61704 11014 21028 39966 40185 57011 80001 333 10017
AAXX 12181 26763 32460 81704 11012 21029 39974 40208 58008 886// 333 10017 88710
AAXX 12181 26825 32662 61603 10011 21015 39948 40133 57012 83530 333 10013
AAXX 12181 26832 32560 71502 10014 21015 39951 40147 57015 875// 333 10017 87632
AAXX 12181 26887 31496 81702 11008 21017 30023 40234 58002 71022 886// 333 10008 88715
AAXX 12181 26961 31958 51502 11018 21032 30007 40205 57012 71011 80001 333 10002
AAXX 12181 33027 32997 51302 11003 21027 30023 40195 57014 80001 333 10031
AAXX 12184 85223 11357 82504 10150 20132 37518 47148 50007 60021 72996 8497/ 333 56000 58046 81607 83627 81930 88357 96004
AAXX 12184 85283 32584 50610 10183 20117 37194 47124 57023 84201 333 56100 58007 84820
AAXX 12184 85293 32584 70910 10130 20076 36364 57012 85920 333 56600 5//// 84620 81923 87457
AAXX 12184 85312 32684 20000 10298 20186 38760 57030 82020 333 56000 58010 82836
AAXX 12184 85345 32584 30000 10338 20216 39592 40043 57032 83100 333 56000 5//// 83823
AAXX 12184 85364 32570 41910 10272 20172 38125 48257 57020 84300 333 56000 58004 83833 81936
AAXX 12184 85365 32584 23606 10320 20223 39340 40039 57020 82300 333 56100 58020 82823 81927
AAXX 12184 85394 11356 81810 10255 20234 39661 40094 57006 69931 75022 8662/ 333 56409 5//// 84610 82925 88457
AAXX 12184 13610 11430 70000 10092 20080 39769 40194 57006 60052 76022 87500 333 10130 87610
BBXX BATUK01 12184 99576 70061 46/// /1632 10064 21007 49769 58080 22231 00112
AAXX 12184 89577 46/// /1003 11404 35706 4//// 5////
AAXX 12184 89578 46/// /0804 11355 36764 4//// 5////
AAXX 12184 61017 32960 50000 10174 20034 39759 40181 80002 333 10257 59006 85080
AAXX 12184 61024 32960 51210 10215 21011 39589 40167 80002 333 10272 58003 85080
AAXX 12184 61036 31956 70404 10275 20009 39890 40130 7052/ 80008 333 10314 58015 87280
AAXX 12184 61043 32960 70606 10254 21028 39694 40139 80008 333 10294 58010 87280
AAXX 12184 61045 31930 70602 10223 21070 39648 40152 7062/ 80008 333 10265 58008 87280
AAXX 12184 61049 32960 70000 10212 21035 39811 40137 80008 333 10282 59005 87280
AAXX 12184 61052 31930 50608 10275 21016 39880 40138 70622 80002 333 10315 58010 85080
AAXX 12184 61075 31956 70000 10256 20069 39824 40135 70622 80008 333 10312 58009 87280
AAXX 12184 61080 31912 71004 10234 21020 39721 40145 70622 80008 333 10280 58005 87280
AAXX 12184 61090 31945 70404 10226 21030 39629 40145 70622 80008 333 10269 58007 87280
AAXX 12184 61091 NIL
AAXX 12184 61096 31957 70000 10216 20000 39721 40149 70522 80008 333 10280 59001 87280
AAXX 12184 61099 31930 70208 10285 20061 39881 40110 70622 80008 333 10315 58006 87280
AAXX 12184 60101 32460 40000 10141 20111 40287 51007 84200 333 10177 84816
AAXX 12184 60115 32665 20303 10127 20084 40272 53009 81202 333 10178 81833
AAXX 12184 60135 16/// /0405 10130 20098 40275 53009 60002 333 10192 4////
AAXX 12184 60150 32558 11202 10125 20088 39615 40274 53005 81200 333 10170 81820
AAXX 12184 60156 15960 00209 10150 20096 40276 53005 60002 333 10186
AAXX 12184 60230 15958 00203 10170 20087 40250 53007 60002 333 10227
AAXX 12184 60106 32565 20000 10110 20090 40290 53009 82200 333 10189 82820
AAXX 12184 60210 32970 23206 10153 21027 39065 48587 53008 80002 333 10201 82070
AAXX 12184 60318 32560 22505 10143 20091 40279 51016 82200 333 10199 82726
AAXX 12181 14008 11/91 91403 11036 21041 37419 47972 55000 60042 77174 333 11026 49070 92818 93105 95190
AAXX 12181 14015 11213 83601 10062 20058 39764 40123 58002 60052 76162 887// 333 10063 85704 88624
AAXX 12181 14023 11596 80601 10066 20064 39830 40125 53003 69952 75165 885// 333 10080 81720 88630
AAXX 12181 14024 46/// ///// 1//// 2//// 3//// 4//// 5////
AAXX 12181 14026 11596 81802 10081 20075 39800 40118 53003 69942 76062 885// 333 83720 88640 10108
AAXX 12181 14031 11596 71203 10075 20061 39892 40120 51001 60002 710// 83541 333 10108 83623
AAXX 12181 14105 11697 61302 10110 20102 30111 40115 55003 60072 70162 86500 333 10135 82632 84650
AAXX 12181 14121 11597 80000 10062 20050 39850 40117 55001 69902 76062 885// 333 10070 88630
AAXX 12181 14122 11640 80000 10059 20050 39926 40123 55002 69912 71022 885// 333 10070 85645 88656
BBXX LF4H 12184 99596 10022 46/// /2319 10069 20014 49858 54000 8//// 22200 06090 10707 70033 333 91129
AAXX 12183 04013 32689 10913 11006 21022 49783 57007 81500 333 10001 21016 555 3//13
AAXX 12183 04064 22680 40702 10002 21003 49766 57013 70181 82942 333 10010 21001 60038 555 3//05
AAXX 12184 68399 16/// /1505 10263 20205 39984 40091 52028 69922 333 10369 20263 91031 555 20002 91009
AAXX 12184 68383 16/// /0000 10255 20190 39858 48530 52025 69922 333 10352 20255 91000 555 20002 91010
AAXX 12184 17026 12570 51405 10107 20086 30227 40266 58004 69942 82250 333 10140 82832 85360 91110 92418
AAXX 12184 17034 12970 30702 10099 21014 30238 40285 58001 60002 83030 333 10149 83360 92428
AAXX 12184 17070 12965 61601 10029 20017 39389 40287 52001 60002 86050 333 10098 86360 91103
AAXX 12184 17084 12970 02001 10005 21007 39371 40313 50004 60002 333 10097 91104
AAXX 12184 17090 11956 00000 11026 21056 38810 48568 52005 60002 70511 333 10036
AAXX 12184 17098 12960 00000 11141 21141 38271 48588 52007 60002 333 11034
AAXX 12184 17150 12660 10000 10070 20062 30122 40249 51001 60002 81100 333 10167 81835
AAXX 12184 17160 12970 23601 10014 21019 39104 48557 51004 60002 82030 333 10103 82360 91105
AAXX 12184 17184 12970 00102 10069 20054 30140 40255 50001 60002 333 10138 91104
AAXX 12184 17189 11950 01702 11023 21039 39094 48533 57004 60002 71000 333 10102
AAXX 12184 17210 12970 00000 10018 20002 39207 40280 53005 60002 333 10062
AAXX 12184 17234 3//// /1101 10100 20068 30185 40254 50001 60002 333 10164
AAXX 12184 17260 12960 00000 10020 20011 39428 40279 53005 60002 333 10137
AAXX 12184 17290 3//// /0502 10147 20127 30220 40253 50001 60002 333 10192
AAXX 12184 17370 12965 01502 10112 20047 30248 40252 50006 60002 333 10161 92417
AAXX 12181 13160 NIL
AAXX 12181 13262 NIL
AAXX 12181 13272 12965 61605 10114 20070 30030 40148 57006 69902 86030 333 10141 86360
AAXX 12181 13285 NIL
AAXX 12181 13289 NIL
AAXX 12181 13376 NIL
AAXX 12181 13388 NIL
AAXX 12181 13462 11415 70801 10107 20105 30148 40189 51003 60162 71796 87900 333 10125 82710 82930 85640
AAXX 12181 13473 NIL
AAXX 12181 13489 NIL
AAXX 12184 17022 12962 31202 10126 20060 30079 40245 57007 60002 83030 333 10158 83360 91106 92427
AAXX 12184 17031 12670 50805 10082 20042 30261 40267 58004 60002 83250 333 10163 83836 85360
AAXX 12184 17038 11929 42003 10085 20024 30238 40290 51002 60002 70411 84040 333 10138 84360 92435
AAXX 12184 17050 12970 21603 10127 20111 30156 40219 53001 60002 82030 333 10169 82360 91114
AAXX 12184 17060 12660 31306 10137 20045 30196 40236 58003 60002 83100 333 10158 83840
AAXX 12184 17096 11932 02201 11183 21188 38314 48592 52004 60002 71000 333 11076
AAXX 12184 17124 12960 31304 10014 21010 39342 40299 50000 60002 83030 333 10069 83360
AAXX 12184 17128 11956 03301 10006 21001 39170 40316 50005 60002 71000 333 10105
AAXX 12184 17170 NIL
AAXX 12184 17195 12970 00304 11010 21039 39061 48562 51007 60002 333 10074
AAXX 12184 17199 12970 01502 11013 21040 39171 40317 51004 60002 333 10059
AAXX 12184 17219 12565 59901 10097 20082 30101 40246 52001 60002 82130 333 10172 82830 85360
AAXX 12184 17240 12970 03001 10004 21036 39105 40303 50000 60002 333 10111 91104
AAXX 12184 17244 11956 23005 10006 21029 39076 48552 52003 60002 71000 80001 333 10094 82070
AAXX 12184 17280 12960 03104 11005 21034 39453 40277 50003 60002 333 10070
AAXX 12184 17350 12960 40506 10053 20040 30166 40247 51003 60002 80001 333 10158 84070
AAXX 12184 17024 12670 71703 10092 20069 30176 40255 58006 60002 84570 333 10147 84635 87360 91106 92438
AAXX 12184 17056 12670 53002 10091 20090 30229 40233 57003 60002 83230 333 10152 83834 85360 91107 92428
AAXX 12184 17067 12970 31402 10099 20058 30217 40239 50000 60002 83030 333 10168 83360 92408
AAXX 12184 17092 12970 02701 11065 21081 38958 48563 52008 60002 333 10044
AAXX 12184 17112 12665 50102 10113 20094 30228 40230 56002 60002 83550 333 10169 83635 85360 91107 92407
AAXX 12184 17115 12960 01604 10096 20069 30182 40234 53001 60002 333 10163
AAXX 12184 17116 12962 01601 10064 20029 30126 40251 50000 60002 333 10142 91105
AAXX 12184 17188 12960 02803 10040 20010 39190 40281 51003 60002 333 10122 91106
AAXX 12184 17202 12670 22206 11070 21070 39254 40339 51005 60002 82500 333 10041 82635
AAXX 12184 17248 12970 01201 10020 21024 39060 48552 50000 60002 333 10093
AAXX 12184 17292 12670 43601 10077 20067 39497 40272 52005 60002 82130 333 10165 82840 84360 91105
AAXX 12184 17300 12560 53504 10087 20065 30180 40253 52003 60002 83209 333 10162 83830 85168
AAXX 12184 17310 12970 00702 10130 20039 30249 40256 50003 60002 333 10179 91108 92418
AAXX 12184 17330 12970 40000 10094 20044 30232 40251 53003 60002 80004 333 10184 84070
BBXX 46083 12181 99582 71380 46/// /2511 10054 20011 40049 53004 91750 22200 00062 11515 20907 300// 41513 70074 333 91215 555 11121 22129 31739 42517 61749 253114 251118 250111 246120 240127 247113 82414 91702
BBXX 41041 12181 99142 70460 46/// /1008 10258 20216 40126 58016 91750 22200 00268 11007 20604 3//// 41005 70034 333 91210 555 11082 22088 31705 41014 61749 095078 100079 109091 098109 093100 100079 81012 91705
BBXX 44172 12181 99445 70634 46/// ///// 1//// 91801 22200 00071 10603 20603 70015
BBXX 44097 12181 99410 70711 46/// ///// 1//// 91802 22200 00127 10801 20801 70005
BBXX 44039 12181 99411 70727 46/// /2405 10060 21021 40352 57017 91800 22200 00106 10301 70004 333 91207
BBXX 44060 12181 99413 70721 46/// ///05 10056 40344 56017 91800 22200 00102 333 91206 555 11051 22051
BBXX 44008 12181 99405 70692 46/// /1506 10113 20064 40333 56028 91750 22200 00126 10701 20501 309// 40701 70006 333 91207 555 11062 22065 31728 41407 61749 147059 141058 144059 143054 120040 056043
BBXX 44022 12181 99409 70737 46/// ///03 10056 21070 40342 56015 91800 22200 00092 333 91205 555 11031 22031
BBXX 46089 12181 99459 71258 46/// /0604 10072 20025 40238 54000 91750 22200 00096 11204 20401 329// 41204 70022 333 91205 555 11037 22038 31650 40605 61749 061036 050036 053034 052036 058040 051039
BBXX 46042 12181 99368 71224 46/// /0904 10101 40072 54000 91750 22200 00115 11505 20401 328// 41505 70026 333 91205 555 11046 22048 31727 41106 61749 093044 097046 099046 106043 104037 099031
AAXX 12181 33088 11597 82104 10012 21002 39987 40182 57015 69902 78081 889// 333 10039
AAXX 12181 33177 11597 81001 10020 20004 39906 40147 57015 69912 70282 889// 333 10024
AAXX 12181 33261 31996 01702 11012 21025 30075 40265 58003 71000 333 10027
AAXX 12181 33275 32997 01602 11035 21049 30049 40283 58003 333 10015
AAXX 12181 33301 11497 81405 10006 21002 39892 40180 57015 69952 78081 8635/ 333 10026 85919
AAXX 12181 33325 32997 82303 10022 20000 39940 40213 58010 8805/ 333 10035
AAXX 12181 33377 32997 01801 11012 21031 30075 40276 57001 333 10027
AAXX 12181 33415 11295 81607 10006 20003 39783 40191 57012 69902 71082 886// 333 10007 88704
AAXX 12181 33429 11/93 91705 10014 20014 39772 40204 57011 69912 74764 333 10015
AAXX 12181 33466 32962 71502 10014 21012 30060 40253 57010 87030 333 10038
AAXX 12181 33526 11540 81102 10009 21002 39837 40184 57005 69902 78082 883// 333 10040 84920
AAXX 12181 33562 11240 81606 10015 20010 39855 40224 57009 69932 75152 886// 333 10026 88705
AAXX 12181 33614 32961 01803 11004 21022 30174 40283 53003 333 10040
AAXX 12181 33761 31496 81504 10015 20001 30023 40252 57006 71022 886// 333 10025 88714
AAXX 12181 33902 32597 81301 10025 21008 30202 40270 57005 885// 333 10051
AAXX 12181 33983 32997 00803 11002 21020 30235 40298 54000 333 10051
AAXX 12181 34415 32697 82702 10009 21024 30199 40299 51001 885// 333 10021
AAXX 12181 34523 32597 81901 10009 21037 30228 40306 51004 885// 333 10024 88630
AAXX 12181 34712 31996 01401 10002 21001 30222 40311 52003 71000 333 10042
BBXX 51000 12181 99235 71541 46/// /0710 10216 40192 52011 91750 22200 00233 11007 20806 311// 41004 70036 333 91213 555 11111 22117 31740 40715 61749 066108 079108 076112 066098 064098 066100
BBXX 51003 12181 99193 71606 46/// /0510 10248 40149 51016 91750 22200 00257 10905 20704 3//// 40903 70024 333 91212 555 11101 22107 31656 40612 61749 053096 056092 055097 057096 057104 062101
AAXX 12181 01218 11989 21803 10059 21046 39828 49849 55001 60002 70120 80004 333 10071 91114
AAXX 12181 01400 41499 42311 10076 20028 49935 57010 70380 83230 22200 06085 10606 70028 333 91115
AAXX 12181 01062 11320 80000 11033 21041 39974 49987 55001 60012 77272 887// 333 11031 91106
AAXX 12181 01300 41598 42511 10063 20026 49828 52005 72582 85/// 22200 02066 10807 70037 333 91115
AAXX 12184 17500 NIL
AAXX 12184 17501 12960 33006 10130 20076 30231 40250 52003 60002 80002 333 10171 83070 92427
AAXX 12184 17505 12960 30803 10104 20075 30146 40262 53002 60002 80002 333 10173 83070
AAXX 12184 17507 NIL
AAXX 12184 17510 12960 50000 10120 20076 30221 40231 53002 60002 80001 333 10180 85070 92417
AAXX 12184 17515 12960 30000 10095 20056 30091 40271 51004 60002 80002 333 10170 83070
AAXX 12184 17521 12560 52707 10097 20068 30107 40247 53005 60002 81102 333 10164 81830 85070
AAXX 12184 17530 12960 30000 10072 20050 30200 40258 52004 60002 80002 333 10177 83070
AAXX 12184 17535 12960 30000 10094 20050 30198 40235 55000 60002 80002 333 10168 83070
AAXX 12184 17540 NIL
AAXX 12184 17547 NIL
AAXX 12184 17550 12960 30000 10108 20061 30101 40249 53003 60002 80002 333 10163 83070 92437
AAXX 12184 17572 12960 5//// 10121 20071 30238 40263 53002 60002 80001 333 10178 85070 92417
AAXX 12181 13289 11/91 91607 11002 21002 38986 48481 56005 69912 74544 333 10027
AAXX 12181 13285 32697 61105 10078 20040 30080 40183 57008 86500 333 10106 91112
AAXX 12181 13489 11392 82801 10064 20064 39701 40225 53005 60022 74644 887// 333 10076
AAXX 12181 13160 11697 81302 10100 20094 30030 40138 57007 69912 76062 885// 333 10117
AAXX 12181 13388 11697 80000 10097 20091 39950 40197 56002 60192 70262 885// 333 10140
AAXX 12181 13376 32999 41304 10118 20070 39917 40176 56001 84030 333 10140
AAXX 12184 17042 12670 71209 10116 20054 30254 40294 54000 60002 84250 333 10122 84835 87360 92438
AAXX 12184 17074 11656 62002 10020 20012 39332 40294 50003 60002 71022 82530 333 10069 82635 86360 91107
AAXX 12184 17086 12970 00905 10008 21023 39559 40303 51004 60002 333 10083
AAXX 12184 17088 12970 01104 11009 21065 38881 48566 52010 60002 333 10059
AAXX 12184 17140 12965 00702 11007 21022 38781 48558 50002 60002 333 10083
AAXX 12184 17155 11930 03001 10024 20006 39133 40291 52002 60002 71011 333 10087 91105
AAXX 12184 17203 12970 00000 11030 21092 38956 48587 53006 60002 333 10043
AAXX 12184 17237 12970 42302 10085 20031 39750 40266 51002 60002 80008 333 10126 84270 91104
AAXX 12184 17250 12975 00503 10009 21015 38882 48562 53002 60002 333 10092
AAXX 12184 17270 12970 23102 10054 21001 39597 40263 52002 60002 80001 333 10124 82070
AAXX 12184 17295 12560 60203 10094 20079 30249 40256 50002 60002 82101 333 10181 82830 86068
AAXX 12184 17320 12970 03304 10119 20079 30243 40248 53003 60002 333 10179 92428
AAXX 12184 17375 12970 30601 10104 20049 30251 40253 50001 60002 80001 333 10177 83070 91104 92408
AAXX 12184 68234 41560 51405 10226 20160 48474 52019 71322 82902 333 10301
AAXX 12184 08055 12660 62810 10058 20021 39164 48525 53006 60002 83410 333 10082 95090
AAXX 12184 08075 12578 62110 10068 20029 39187 48527 50007 69912 81516 333 10094
AAXX 12184 08084 02675 20000 10074 20045 39792 40231 53007 69952 81571 333 10143 60007
AAXX 12184 08171 12984 19903 10102 20054 39986 40228 53007 60002 80001 333 10155
AAXX 12184 08184 02660 13004 10094 20042 30053 40210 53008 60002 81200 333 10159 60007
AAXX 12184 08202 02465 61906 10058 20035 39321 42857 51005 69942 82446 333 10112 60007
AAXX 12184 08235 12970 2//// 10065 20022 39190 48538 51006 60002 80001 333 10114
AAXX 12184 08238 12670 22502 10118 20095 30156 40217 52008 60002 82100 333 10170
AAXX 12184 08280 12570 72705 10090 20056 39436 40266 52006 60002 84836 333 10104
AAXX 12184 08330 12670 82202 10123 20068 30040 40272 52010 69982 86677 333 10146
AAXX 12184 08348 12565 72303 10096 20084 39519 40262 58005 69902 83606 333 10120
AAXX 12184 08360 02965 02911 10141 20049 30213 40250 51015 60002 333 10167 60007
AAXX 12184 08373 02968 02806 10123 20088 30216 40238 51010 60002 333 10171 60007
AAXX 12184 08410 02570 50000 10117 20098 30168 40280 53006 69902 82775 333 10131 60007
AAXX 12184 08419 02670 32505 10102 20078 39598 40273 53010 60002 82501 333 10156 60007
AAXX 12184 08451 02565 30000 10134 20120 30242 40275 51007 69902 83500 333 10211 60007
AAXX 12184 08487 02970 00201 10140 20075 30227 40253 53010 60002 333 10186 60007
AAXX 12181 13168 NIL
AAXX 12181 13174 NIL
AAXX 12181 13269 NIL
AAXX 12181 13274 NIL
AAXX 12181 13278 NIL
AAXX 12181 13378 NIL
AAXX 12181 13397 NIL
AAXX 12181 13457 41665 50000 10124 20113 30175 40182 52005 70196 83530 333 10167 83633 85359
AAXX 12181 13481 NIL
AAXX 12184 85041 31460 71804 10262 20243 39800 40061 57030 71522 83963 333 56000 58000 81817 82920 86358 87070
AAXX 12184 85140 32470 73405 10296 20242 39872 40079 57023 83233 333 56778 58005 83817 84357 87070
AAXX 12184 85141 32484 73604 10310 20260 39840 40068 57022 84306 333 56000 58000 84817 81927 87070
AAXX 12184 85151 NIL
AAXX 12184 85152 31465 73210 10318 20236 39830 40058 57030 71522 85908 333 56700 59002 84817 81920 86270
AAXX 12184 85201 31465 70810 10124 20043 36282 57014 71522 83963 333 56777 58001 82817 81920 84357 87070
AAXX 12184 85230 NIL
AAXX 12184 85242 32584 60912 10150 20054 36532 57016 84901 333 56206 59008 83820 81923 86070
AAXX 12181 15501 11/02 90000 10053 20051 30179 40224 57014 60002 74542 333 10061 20053 555 598//
AAXX 12181 15505 11/01 90000 10038 20038 39837 40216 57001 69942 76164 333 10050 20036 555 50000 66299 71800
AAXX 12181 15511 11530 80000 10050 20048 30194 40234 57006 60002 71022 885// 333 10054 20045 555 598//
AAXX 12181 15514 11/01 90000 10051 20049 30176 40212 57005 69912 74564 333 10058 20041 555 598//
AAXX 12181 15530 11962 80000 10070 20054 39976 40216 54000 69912 72161 8802/ 333 10125 20050 555 590// 66199 71800
AAXX 12181 15533 11568 80000 10066 20062 30148 40180 57010 69972 70262 885// 333 10071 20031 555 59701 69399
AAXX 12181 15550 12965 61101 10096 20079 30184 40204 56007 60002 86030 333 10132 20064 555 589//
AAXX 12181 15561 11/02 91606 10096 20084 30206 40213 57006 69952 74742 222// 00099 2//01 333 10106 20094 555 592// 92024 92422
AAXX 12181 15562 11/01 91802 10086 20073 30159 40232 53001 60002 74544 222// 2//00 333 10102 20085 555 592// 92001 92400
AAXX 12181 15600 11/00 91824 10018 20018 38319 48520 57006 60002 74544 333 10025 20020 91128 555 500//
AAXX 12181 15601 11705 60000 10064 20046 39579 40201 58017 69952 74442 86300 333 10082 20038 555 588//
AAXX 12181 15613 11/00 92008 11008 21008 37725 47079 56002 60022 74974 333 11002 21011 44014 555 500// 70052
AAXX 12181 15628 11658 30000 10042 20027 39963 40225 53001 60002 71011 82230 333 10119 20041 555 590//
AAXX 12181 15642 12670 60000 10110 20102 30055 40222 57003 60002 83502 333 10150 20064 555 595//
AAXX 12181 15661 12570 80000 10082 20073 30185 40221 54000 60002 885// 222// 20000 333 10120 20070 555 594// 92000 92408
AAXX 12181 15726 11481 52001 10026 21007 38290 48548 57003 60002 70311 83502 333 10086 20022 41999 555 579//
AAXX 12184 71726 16/// /2104 11005 21018 39709 40259 50000 60001 333 11002 21055 70000
AAXX 12184 71727 12480 81003 11012 21030 30057 40259 55001 60001 885// 333 10020 21032 47018 70042
AAXX 12184 71728 11680 82214 10011 21019 30027 40252 55000 69901 77122 885// 333 10011 21070 48001 79999 90952
AAXX 12184 71730 12574 82412 10031 20001 39833 40263 58001 60001 885// 333 10031 21007 70000
AAXX 12184 71731 11458 82311 10020 20007 39813 40271 58004 60001 71022 885// 333 10021 21007 70000
AAXX 12184 71735 NIL
AAXX 12184 71738 11140 80000 10001 21004 39888 40245 50004 69901 76172 885// 333 10041 21001 44011 79999 90921
AAXX 12184 71739 42566 80000 11002 21015 39882 40252 51006 6//// 886// 333 10004 21039 4//// 7////
AAXX 12184 71749 16464 82403 11055 21071 30008 40263 50003 60001 333 11054 21140 70000
AAXX 12184 71799 12583 62505 10017 21024 30237 40262 50004 60001 81571 333 10017 21033 70000
AAXX 12184 71800 16/// /2419 10004 21021 30252 40286 56022 60001 333 10009 21055 70000
AAXX 12184 71801 11566 82415 11019 21061 30092 40270 58018 69901 78581 885// 333 11019 21066 79999 90915
AAXX 12184 71803 12474 72413 11020 21057 30041 40233 56028 60001 86530 333 11020 21100 79999
AAXX 12184 71807 NIL
AAXX 12184 71808 12574 33304 11130 21193 30178 40227 55008 60001 83500 333 11130 21170 44018 70000
AAXX 12184 71809 11459 62509 11010 21030 30197 40225 56015 60081 77188 86500 333 11007 21086 47012 70114 90973 93108
AAXX 12184 71810 16/// /3501 11033 21057 30173 40241 53002 60001 333 11028 21119 70009
AAXX 12184 71811 NIL
AAXX 12184 71813 NIL
AAXX 12184 71814 16/// /2903 11073 21106 30229 40239 55004 60001 333 11071 21161 70000
AAXX 12184 71815 11359 83011 10005 21013 30212 40243 55006 60011 78588 885// 333 10009 21076 44007 70046 90973 93101
AAXX 12184 71812 46664 62311 11185 21216 30134 40148 56016 6///1 333 21302 7////
AAXX 12184 71819 15966 02712 11122 21161 30172 40215 56001 60001 333 11117 21160 70003
AAXX 12184 71820 16/// /2013 10055 21010 30187 40303 56011 60001 333 10059 20016 70000
AAXX 12184 71823 16364 60000 11169 21192 39879 40284 51007 60001 333 11168 21275 70000
AAXX 12184 71824 NIL
AAXX 12184 71826 16/// /1406 11144 21174 39999 40042 52021 60001 333 11130 21150 70000
AAXX 12184 71829 16/// /2308 11001 21025 30076 40241 55002 60001 333 11001 21141 70009
AAXX 12184 71833 NIL
AAXX 12184 71835 16/// /0102 11127 21140 39799 40299 50009 60001 333 11092 21150 70000
AAXX 12184 71837 NIL
AAXX 12184 71839 NIL
AAXX 12184 71840 46/// /3409 11096 21118 6///1 333 11073 21116 7////
AAXX 12184 71846 16/// /2303 11126 21158 39973 40303 50005 60001 333 11123 21241 70005
AAXX 12184 71847 NIL
AAXX 12184 71848 NIL
AAXX 12184 71849 NIL
AAXX 12184 65352 31903 73604 10303 20070 3//// 4//// 70544 80002 333 10342 5//// 87076
AAXX 12184 65361 31910 70000 10260 20097 3//// 4//// 70522 80002 333 10340 5//// 87076
AAXX 12184 65376 31920 73604 10278 20105 39648 40108 70522 80002 333 10305 59012 87076
AAXX 12184 65387 31925 71602 10286 20205 30063 40081 70522 80002 333 10334 58004 87073
AAXX 12184 71350 16/// /2611 10043 21042 30212 40279 56010 60001 333 10043 21073 70000
AAXX 12184 71351 NIL
AAXX 12184 71352 16/// /2510 10014 21044 39836 40301 58008 60001 333 10014 21069 70007
AAXX 12184 71353 NIL
AAXX 12184 71354 NIL
AAXX 12184 71355 NIL
AAXX 12184 71356 NIL
AAXX 12184 71357 NIL
AAXX 12184 71358 16/// /2604 11184 21207 39997 40032 52005 60001 333 11176 21238 70000
AAXX 12184 71359 NIL
AAXX 12184 71360 NIL
AAXX 12184 71361 NIL
AAXX 12184 71362 NIL
AAXX 12184 71363 NIL
AAXX 12184 71364 NIL
AAXX 12184 71365 NIL
AAXX 12184 71368 15966 02412 10037 21055 39909 40308 58004 60001 333 10037 21057 70000
AAXX 12184 71369 15966 00709 11100 21115 39454 40181 58028 60001 333 11099 21161 70000
AAXX 12184 71370 46/// /1702 10015 21026 30146 40285 56009 6///1 333 10015 21067 7////
AAXX 12184 71371 15966 02412 10052 21036 30258 40293 56019 60001 333 10052 21026 70000
AAXX 12184 71372 NIL
AAXX 12184 71373 16/// /2103 10054 21101 60001 333 10056 21014 70000
AAXX 12184 71374 NIL
AAXX 12184 71375 NIL
AAXX 12184 71376 NIL
AAXX 12184 71377 16/// /2409 10046 21030 30240 40289 58016 60001 333 10046 21035 70000
AAXX 12184 71378 16/// /1804 10017 21029 30064 40277 56008 60001 333 10018 21062 70010
AAXX 12184 71379 16/// /3403 10007 21005 30061 40234 53004 60001 333 10015 21100 70000
AAXX 12184 71380 NIL
AAXX 12184 71381 NIL
AAXX 12184 71382 NIL
AAXX 12184 71383 NIL
AAXX 12184 71384 16/// /2608 10010 21033 30278 40286 56003 60001 333 10018 21051 70000
AAXX 12184 71385 NIL
AAXX 12184 71386 NIL
AAXX 12184 71387 NIL
AAXX 12184 71388 46/// /0702 11014 21022 30063 40255 55001 6///1 333 11014 21099 7////
AAXX 12184 71389 46/// /3302 10053 21021 6///1 333 10055 21090 7////
AAXX 12184 71390 NIL
AAXX 12184 71391 16/// ///// 10010 21031 60001 333 10010 21057 70000
AAXX 12184 71392 16/// /2505 10005 21037 60001 333 10005 21056 70000
AAXX 12184 71393 NIL
AAXX 12184 71395 12574 12211 10066 20011 30121 40304 56019 60001 81500 333 10066 21083 70000
AAXX 12184 71398 15566 83504 11063 21091 30267 40279 51009 60001 333 11063 21111 70000
AAXX 12184 71399 NIL
AAXX 12184 71450 NIL
AAXX 12184 71451 16/// /2203 11101 21121 39814 40255 56013 60001 333 11098 21148 70000
AAXX 12184 71452 46/// /1509 11053 21067 39559 40292 50001 6///1 333 11052 21066 7////
AAXX 12184 71453 NIL
AAXX 12184 71454 16/// /1906 11123 21145 39565 40284 58006 60001 333 11120 21140 70000
AAXX 12184 71455 46/// /1406 11083 21086 39462 40287 58002 6///1 333 11083 21091 7////
AAXX 12184 71456 16/// /2305 11105 21114 39682 40304 58006 60001 333 11105 21134 70000
AAXX 12184 71457 16/// /1902 11137 21148 39339 40261 57006 60001 333 11058 21172 70026 555 10050
AAXX 12184 71458 16/// /1810 11065 21087 39444 40237 58014 60001 333 11064 21108 70000
AAXX 12184 71459 16/// /1206 11076 21097 39441 40275 55003 60001 333 11061 21086 70000
AAXX 12184 71460 16/// /2509 10046 20023 30031 40275 58002 60001 333 10051 20021 70000
AAXX 12184 71461 NIL
AAXX 12184 71462 NIL
AAXX 12184 71463 NIL
AAXX 12184 71464 NIL
AAXX 12184 71465 NIL
AAXX 12184 71466 NIL
AAXX 12184 71468 NIL
AAXX 12184 71470 NIL
AAXX 12184 71471 15966 83003 11007 21106 39326 40131 56013 60001 333 11007 21160 70000
AAXX 12184 71473 16/// /0506 10026 21061 30227 40258 51008 60001 333 10026 20007 70000
AAXX 12184 71475 16/// /3103 11021 21025 30172 40268 58003 60001 333 11008 21027 70000
AAXX 12184 71476 NIL
AAXX 12184 71477 17/// /1911 10045 20038 60071 7//4/ 333 10048 20011 70110
AAXX 12184 71478 NIL
AAXX 12184 71479 NIL
AAXX 12184 71480 NIL
AAXX 12184 71481 NIL
AAXX 12184 71482 NIL
AAXX 12184 71483 NIL
AAXX 12184 71484 NIL
AAXX 12184 71485 16/// /1114 10027 20009 30220 40241 55000 60001 333 10035 20023 70000
AAXX 12184 71486 16/// /1903 11161 21182 39029 40292 58005 60001 333 11147 21209 70000
AAXX 12184 71487 NIL
AAXX 12184 71489 NIL
AAXX 12184 71490 NIL
AAXX 12184 71491 17/// /11// 11104 21116 60021 7//4/ 333 10066 21223 70018
AAXX 12184 71492 NIL
AAXX 12184 71493 16/// /2510 10076 20037 30248 40287 56014 60001 333 10078 21098 70000
AAXX 12184 71494 16/// /2410 10011 21045 39757 40290 56013 60001 333 10011 21082 70000
AAXX 12184 71495 NIL
AAXX 12184 71496 16/// /2106 11094 21104 39662 40297 51001 60001 333 11088 21108 70000
AAXX 12184 71497 46/// /2307 11079 21113 39716 49980 56019 6///1 333 11045 21177 7////
AAXX 12184 71498 NIL
AAXX 12184 71499 17366 82314 11086 21098 39564 40210 58016 60001 771// 333 11085 21128 70000
AAXX 12184 71900 46/// /25// 11117 21185 30154 40167 53014 6///1 333 11115 21165 7////
AAXX 12184 71903 NIL
AAXX 12184 71904 NIL
AAXX 12184 71914 16/// /0402 10019 21020 30029 40254 50000 60001 333 10026 20002 70000
AAXX 12184 71916 NIL
AAXX 12184 71918 460// ///// 11261 6///1 333 7////
AAXX 12184 71920 NIL
AAXX 12184 71921 NIL
AAXX 12184 71923 NIL
AAXX 12184 71927 NIL
AAXX 12184 71941 15466 82305 10016 20000 39833 40255 58002 60001 333 10016 21041 70000
AAXX 12184 71947 17261 80104 11022 21023 39897 40249 51003 60001 771// 333 11012 21056 70000
AAXX 12184 71700 15966 02606 10057 21067 30270 40296 56012 60001 333 10058 21086 70000
AAXX 12184 71701 12974 10000 10058 21063 30232 40295 57014 60001 80001 333 10058 21070 70000
AAXX 12184 71702 16/// /2514 10046 21047 30261 40276 56012 60001 333 10047 21075 70000
AAXX 12184 71703 12674 12306 10016 21014 39973 40277 57007 60001 81500 333 10020 21094 70000
AAXX 12184 71704 15966 01807 10032 21035 30081 40308 58011 69931 333 10034 21052 70018
AAXX 12184 71710 NIL
AAXX 12184 71712 17/// /2407 10059 21026 30232 40293 58016 60011 7//4/ 333 10059 21014 70010
AAXX 12184 71713 16/// /2218 10016 21028 60001 333 10017 21048 70000
AAXX 12184 71716 NIL
AAXX 12184 71717 NIL
AAXX 12184 71720 16/// /0602 11025 21032 30104 40261 58001 60001 333 11011 21044 70000
AAXX 12184 71721 NIL
AAXX 12184 71723 16/// /2406 10030 21042 30283 40293 56013 60001 333 10032 21018 70000
AAXX 12184 71724 NIL
AAXX 12184 71732 16/// /1405 10037 20013 60001 333 10037 20004 70000
AAXX 12184 71733 NIL
AAXX 12184 71734 16/// /2304 10009 21008 39851 40248 58001 60001 333 10009 21034 70000
AAXX 12184 71736 NIL
AAXX 12184 71737 NIL
AAXX 12184 71741 16/// /0802 11066 21091 39865 40304 51005 60001 333 11052 21119 70000
AAXX 12184 71742 NIL
AAXX 12184 71743 NIL
AAXX 12184 71744 NIL
AAXX 12184 71745 NIL
AAXX 12184 71746 NIL
AAXX 12184 71747 16/// /0304 11039 21076 39772 40264 50007 60001 333 11027 21163 7////
AAXX 12184 71748 NIL
AAXX 12184 71150 NIL
AAXX 12184 71151 NIL
AAXX 12184 71152 47/// /2522 10014 21006 30238 40251 5/026 6///1 7//4/ 333 7////
AAXX 12184 71153 17/// /1605 11138 21162 69931 7//4/ 333 11053 21166 70053
AAXX 12184 71154 17/// /0302 11115 21152 69981 7//4/ 333 11054 21182 70054
AAXX 12184 71155 NIL
AAXX 12184 71156 NIL
AAXX 12184 71157 NIL
AAXX 12184 71158 NIL
AAXX 12184 71159 NIL
AAXX 12184 71160 NIL
AAXX 12184 71161 16/// /2109 10051 21026 30141 40292 56014 60001 333 10053 21012 70000
AAXX 12184 71162 NIL
AAXX 12184 71163 46/// /1908 11082 21089 39541 49880 56051 6///1 333 11082 21167 7////
AAXX 12184 71164 NIL
AAXX 12184 71165 NIL
AAXX 12184 71166 NIL
AAXX 12184 71167 15966 02603 11163 21182 39082 40228 58017 60001 333 11136 21218 70000
AAXX 12184 71168 16/// /2104 10032 20019 39626 40212 51018 60001 333 10035 21013 70000
AAXX 12184 71170 NIL
AAXX 12184 71171 46/// /2509 10064 21029 30200 40298 58008 6///1 333 10066 21022 7////
AAXX 12184 71172 16/// ///// 10036 20013 30055 40275 57006 60001 333 10038 20011 70000
AAXX 12184 71175 NIL
AAXX 12184 71176 460// /2829 11129 39368 40060 50022 6///1 333 11122 21147 7////
AAXX 12184 71177 460// /3220 11181 39046 40078 53016 6///1 333 11162 21211 7////
AAXX 12184 71178 46/// /2221 11028 21055 30204 40237 5/024 6///1 333 11027 21066 7////
AAXX 12184 71179 460// /2526 11179 39262 40121 50002 6///1 333 11172 21243 7////
AAXX 12184 71180 17/// /2823 10015 21013 30227 40267 55008 69981 7//4/ 333 10016 21051 70014
AAXX 12184 71181 17322 82414 11007 21028 30215 40252 58018 60001 745// 333 10005 21043 70000
AAXX 12184 71183 16/// /2411 30250 58017 60001 333 70000
AAXX 12184 71184 46/// /2410 10047 21026 6///1 333 10047 21043 7////
AAXX 12184 71186 NIL
AAXX 12184 71187 15966 01111 11002 21061 30232 40281 50003 60001 333 10008 21017 70000
AAXX 12184 71189 NIL
AAXX 12184 71190 NIL
AAXX 12184 71191 16/// ///// 10078 21030 60001 333 10088 21069 70004
AAXX 12184 71192 15966 01609 11070 21074 39572 40252 58014 60001 333 11045 21132 70000
AAXX 12184 71193 NIL
AAXX 12184 71196 NIL
AAXX 12184 71197 17564 62827 10016 21016 30209 40259 55012 69951 7//44 333 10018 21055 70010
AAXX 12184 71198 46/// /2309 10032 21042 6///1 333 10033 21007 7////
AAXX 12184 71199 46/// /1503 11055 21081 39175 40018 55012 6///1 333 11012 21223 7////
AAXX 12184 71043 11786 72706 11101 21128 39714 49806 55021 69901 70272 86570 333 11077 21221 48019 79999 90941
AAXX 12184 71045 16/// /2210 11024 21067 39130 49981 56010 60001 333 10001 21153 70000 555 10020
AAXX 12184 71050 NIL
AAXX 12184 71051 NIL
AAXX 12184 71052 NIL
AAXX 12184 71066 12569 60000 11114 21141 39634 40061 56037 60001 86500 333 11107 21153 70000
AAXX 12184 71068 12974 82010 11090 21099 39422 40131 57031 60001 80002 333 11090 21153 70000
AAXX 12184 71069 16964 00807 11104 21111 39454 40180 58027 60001 333 11104 21167 70000
AAXX 12184 71076 16/// /1804 11088 21100 39726 40125 56034 60001 333 11080 21113 70000
AAXX 12184 71077 16/// /2008 11079 21099 39684 40239 58014 60001 333 11074 21110 70000
AAXX 12184 71079 11974 02207 11130 21164 39994 40288 58007 69901 70277 333 11130 21271 48003 79999 90941
AAXX 12184 71081 46964 02710 11282 21322 30088 40100 51004 6///1 333 11215 21295 7////
AAXX 12184 71082 NIL
AAXX 12184 71083 11559 82408 11210 21242 30086 40130 56018 69941 77177 885// 333 11193 21321 48053 70004 90983
AAXX 12184 71090 46664 82504 11183 21219 39998 40033 51004 6///1 333 11177 21239 7////
AAXX 12184 71091 460// /3019 11237 39865 40080 53013 6///1 333 7////
AAXX 12184 71092 46002 02910 11267 39382 40069 52009 6///1 333 11235 21272 7////
AAXX 12184 71093 460// /2624 11203 39521 40024 52007 6///1 333 11165 21209 7////
AAXX 12184 71094 46041 /3528 11160 39050 49950 53010 6///1 333 11145 21167 7////
AAXX 12184 71095 47520 82706 11215 21250 39968 40050 53009 6///1 745// 333 11193 21243 7////
AAXX 12184 71101 160// /2708 30160 55006 60001 333 70000
AAXX 12184 71104 12974 71604 11088 21095 39114 40256 57010 60001 85071 333 11053 21139 79999
AAXX 12184 71108 12983 60402 10028 21063 30187 40261 51009 60001 80004 333 10029 21012 70000
AAXX 12184 71109 12480 70000 10014 21017 30220 40247 55003 60001 83570 333 10024 20008 70000
AAXX 12184 71397 12574 22416 10087 20013 30265 40300 56015 60001 82500 333 10093 21079 70000
AAXX 12184 71400 16/48 /2305 11013 21023 60001 333 11013 21109 70000
AAXX 12184 71403 46/// /2423 10065 20034 30283 40303 56025 6///1 333 10066 21042 7////
AAXX 12184 71411 16/// /2315 10090 20039 30302 40315 56023 60001 333 10091 21061 70000
AAXX 12184 71412 16/// /2609 10049 21028 30270 40280 56007 60001 333 10050 21062 70003
AAXX 12184 71421 NIL
AAXX 12184 71430 16/// /2416 10056 20002 30206 40304 58009 60001 333 10057 20026 70000
AAXX 12184 71431 16/// /2612 10047 20002 30199 40296 56006 60001 333 10049 20026 70000
AAXX 12184 71432 NIL
AAXX 12184 71433 NIL
AAXX 12184 71435 NIL
AAXX 12184 71441 46/// /3511 11099 21124 39983 40305 51014 6///1 333 11070 21104 7////
AAXX 12184 71443 16/// /2107 11124 21144 39894 40327 50004 60001 333 11123 21127 70000 555 10010
AAXX 12184 71444 NIL
AAXX 12184 71447 NIL
AAXX 12184 71467 NIL
AAXX 12184 71472 NIL
AAXX 12184 71474 16964 01904 11104 21126 38987 40262 58011 60001 333 11061 21146 70000
AAXX 12184 71510 16/// /1806 11084 21104 39548 40279 58008 60001 333 11081 21100 70000
AAXX 12184 71538 12974 12204 10041 21066 30075 40311 58011 60001 80001 333 10044 21034 70000
AAXX 12184 71600 17564 82419 10052 21007 30332 40338 56018 69951 7//44 333 10056 21006 70005
AAXX 12184 71601 NIL
AAXX 12184 71744 NIL
AAXX 12184 71750 16/// /0505 11026 21037 30004 40243 50003 60001 333 11026 21067 70000
AAXX 12184 71751 NIL
AAXX 12184 71752 NIL
AAXX 12184 71753 16/// /2309 10069 20007 30259 40289 56021 60001 333 10070 21098 70000
AAXX 12184 71754 16/// /1405 11097 21113 39602 40294 56006 60001 333 11096 21136 70000
AAXX 12184 71755 43/// /2302 11152 21168 39945 40307 50002 6///1 333 21205 7////
AAXX 12184 71756 16/// /2801 11062 21111 39133 40253 50000 60001 333 11054 21083 70000
AAXX 12184 71758 NIL
AAXX 12184 71760 NIL
AAXX 12184 71761 NIL
AAXX 12184 71762 NIL
AAXX 12184 71763 NIL
AAXX 12184 71765 16/// /0000 11059 21067 30018 40301 53005 60001 333 11006 21071 70000
AAXX 12184 71766 16/// /0000 11014 21028 30180 40253 58002 60001 333 10008 21042 70000
AAXX 12184 71767 16/// /2207 10035 20016 30019 40284 58004 60001 333 10042 20021 70000
AAXX 12184 71768 46/// /2703 11003 21105 39724 40282 53006 6///1 333 10013 21032 7////
AAXX 12184 71769 16/// /2203 10022 21014 30229 40245 58001 60001 333 10037 20014 70000
AAXX 12184 71770 16/// /0903 11011 21066 39475 40264 51010 60001 333 11007 21042 70000
AAXX 12184 71771 NIL
AAXX 12184 71772 16/// /2704 10030 20000 30242 40248 50001 60001 333 10049 20023 70000
AAXX 12184 71773 16/// /1608 11012 21046 39107 49949 53006 60001 333 10004 21077 70000
AAXX 12184 71774 46/// ///// 10008 6///1 333 10011 21017 7////
AAXX 12184 71775 46/// /1001 11010 21020 30258 40264 50005 6///1 333 11008 21067 7////
AAXX 12184 71776 46/// /2403 11017 21060 39611 40267 51011 6///1 333 11016 21042 7////
AAXX 12184 71777 16/// ///// 11104 21114 30033 40296 50000 60001 333 11100 21136 70000
AAXX 12184 71778 46/// /0408 6///1 333 7////
AAXX 12184 71779 16/// /1506 11071 21080 39569 40248 58014 60001 333 11045 21136 70000 555 10010
AAXX 12184 71780 16/// /0807 10048 21049 30230 40258 58001 60001 333 10051 20002 70000
AAXX 12184 71781 46/// /1104 10027 20001 30223 40248 58002 6///1 333 10043 20025 7////
AAXX 12184 71782 46/// /0000 11144 21156 38904 40277 58002 6///1 333 11050 21164 7////
AAXX 12184 71783 16/// /3203 10032 21020 30180 40255 50000 60001 333 10033 21022 70002
AAXX 12184 71784 16/// /2601 10020 21031 30040 40248 50002 60001 333 10020 21018 70000
AAXX 12184 71785 16/// /0602 10029 21050 30249 40265 50006 60001 333 10030 21034 70000
AAXX 12184 71786 46/// /0601 11219 21243 38389 40304 56004 6///1 333 11121 21226 7////
AAXX 12184 71787 16/// /2609 10040 21049 39791 40288 56010 60001 333 10041 21096 70000
AAXX 12184 71788 NIL
AAXX 12184 71789 NIL
AAXX 12184 71791 NIL
AAXX 12184 71792 NIL
AAXX 12184 71793 NIL
AAXX 12184 71794 NIL
AAXX 12184 71795 NIL
AAXX 12184 71796 NIL
AAXX 12184 71797 NIL
AAXX 12184 71603 12574 12313 10080 20034 30268 40322 56018 60001 81500 333 10083 21050 70000
AAXX 12184 71607 16/// /2404 10068 21043 30265 40298 56018 60001 333 10069 21089 70000
AAXX 12184 71609 12574 12608 10073 21033 30164 40300 56012 60001 81500 333 10074 21100 70000
AAXX 12184 71610 NIL
AAXX 12184 71621 12474 12211 10049 21002 30198 40306 55007 60001 81500 333 10058 21005 70000
AAXX 12184 71623 NIL
AAXX 12184 71624 12974 02510 10065 21045 30085 40301 58009 60001 333 10066 21022 70000
AAXX 12184 71625 16464 82005 10022 21038 30124 40289 5/006 60001 333 10022 21101 70000
AAXX 12184 71627 12983 02511 10051 21048 30249 40294 58017 60001 333 10052 21023 70000
AAXX 12184 71628 12974 02409 10056 21021 30149 40292 56014 60001 333 10056 21015 70000
AAXX 12184 71630 NIL
AAXX 12184 71631 NIL
AAXX 12184 71633 12474 72013 10030 20000 30015 40292 56005 60001 87500 333 10031 21026 70000
AAXX 12184 71705 12974 02316 10047 21049 30196 40285 57014 60001 333 10050 21082 70000
AAXX 12184 71706 12574 12710 10046 21044 30228 40290 56009 60001 81530 333 10047 21070 79999
AAXX 12184 71707 12674 72510 10030 21023 30209 40288 56010 60001 87500 333 10030 21074 79999
AAXX 12184 71709 11574 52713 10021 21023 30259 40273 53002 69921 70188 85500 333 10026 21061 41997 70010 90933
AAXX 12184 71711 NIL
AAXX 12184 71714 46/// /2605 10004 21033 30215 6///1 333 7////
AAXX 12184 71715 16/// /2107 10005 21038 30081 40266 53002 60001 333 10005 21061 70000
AAXX 12184 71718 11566 82210 10011 21024 30189 40256 55000 69921 78588 885// 333 10012 21101 47013 70002 90973
AAXX 12184 71719 NIL
AAXX 12184 71851 NIL
AAXX 12184 71857 NIL
AAXX 12184 71860 12483 23103 11146 21167 38807 40256 57008 60001 81570 333 11054 21168 48013 70038
AAXX 12184 71876 15466 81407 11086 21093 39605 40296 56006 60001 333 11086 21122 70000
AAXX 12184 71885 NIL
AAXX 12184 71888 NIL
AAXX 12184 71895 NIL
AAXX 12184 71263 12974 02413 10047 21048 30013 40308 58009 60001 333 10049 21048 70000
AAXX 12184 71665 16/// /2814 11119 21183 30147 40157 51017 60001 333 11114 21174 70009
AAXX 12184 71666 16/// /2508 10046 21049 30232 40277 56013 60001 333 10049 21083 70000
AAXX 12184 71667 NIL
AAXX 12184 71668 16/// /2705 10052 21057 30248 40292 56013 60001 333 10052 21084 70000
AAXX 12184 71669 NIL
AAXX 12184 71670 16/// ///// 10037 21047 60001 333 10037 21088 70000
AAXX 12184 71671 16/// /2509 10090 20008 30227 40288 56017 60001 333 10092 21060 70000
AAXX 12184 71672 16/// /2602 10063 21053 30025 40293 57006 60001 333 10064 21018 70000
AAXX 12184 71673 NIL
AAXX 12184 71674 NIL
AAXX 12184 71675 17566 83204 11132 21161 30006 40298 50005 60051 77144 333 11131 21185 70176
AAXX 12184 71679 16/// /0404 11071 21077 39153 40191 56015 60001 333 11071 21106 70000
AAXX 12184 71680 NIL
AAXX 12184 71681 46/// /1601 11066 21089 6///1 333 10003 21080 7////
AAXX 12184 71682 NIL
AAXX 12184 71683 NIL
AAXX 12184 71684 15666 82009 10013 20000 39945 40250 58003 60001 333 10018 21021 70000
AAXX 12184 71685 15666 62903 11054 21076 39739 40294 51005 60001 333 11023 21091 70000
AAXX 12184 71686 NIL
AAXX 12184 71687 16/// /1001 11078 21092 39459 40268 58002 60001 333 11078 21118 70000
AAXX 12184 71688 16/// /0000 11059 21091 39184 40245 50000 60001 333 11059 21098 70000
AAXX 12184 71689 15966 01106 11125 21138 39719 40187 58028 60001 333 11069 21173 70000
AAXX 12184 71690 NIL
AAXX 12184 71691 15566 82511 10006 21010 30218 40246 55002 60001 333 10006 21137 70000
AAXX 12184 71692 NIL
AAXX 12184 71694 16/// /2202 10017 21012 39931 40304 56009 60001 333 10017 21118 70000
AAXX 12184 71695 16/// /2206 11135 21153 39956 40307 58011 60001 333 11134 21199 70000
AAXX 12184 71696 16/// /2109 11157 21180 30159 40197 56019 60001 333 11156 21267 70000
AAXX 12184 71697 15966 02107 10047 21044 30127 40302 58009 60001 333 10051 21044 70000
AAXX 12184 71699 16/// /2705 10080 21010 30290 40298 56016 60001 333 10083 21031 70000
AAXX 12184 71864 NIL
AAXX 12184 71865 16/// /1405 11085 21098 39594 40301 58002 60001 333 11084 21112 70000
AAXX 12184 71866 47248 82006 11095 21113 39665 40302 51001 6///1 745// 333 11087 21109 7////
AAXX 12184 71867 11362 82106 11136 21142 39960 40312 58011 69901 77100 885// 333 11136 21198 47016 79999 90962
AAXX 12184 71868 NIL
AAXX 12184 71869 11358 82306 11117 21123 39758 40306 58002 69901 77177 885// 333 11117 21168 47005 70002 90973 93102
AAXX 12184 71871 17466 81809 11100 21109 39434 40271 56009 60001 771// 333 11100 21129 70000
AAXX 12184 71877 11156 81910 11091 21096 38939 40252 57009 69901 71071 88600 333 11062 21092 48008 70004 90940
AAXX 12184 71878 12966 61707 11108 21113 39133 40239 58014 60001 80001 333 11066 21166 79999
AAXX 12184 71879 16964 01808 11072 21104 39394 40218 56018 60001 333 11051 21098 70000
AAXX 12184 71880 NIL
AAXX 12184 71882 16664 82902 11055 21082 39740 40295 51005 60001 333 11022 21090 70000
AAXX 12184 71883 NIL
AAXX 12184 71887 12986 50902 11067 21090 39868 40306 52003 60001 80001 333 11051 21119 70000
AAXX 12184 71889 12974 43505 11002 21091 39861 40287 52009 60001 88171 333 10023 21034 70000
AAXX 12184 71891 16964 00000 11057 21067 30020 40303 53005 60001 333 11005 21068 70000
AAXX 12184 71892 12583 61107 10016 21020 30253 40258 50001 60001 81171 333 10021 21050 70000
AAXX 12184 71604 17/// /2917 11009 21024 69961 7//4/ 333 11005 21086 70013
AAXX 12184 71605 16/// /0303 10034 21069 30097 40249 50001 60001 333 10034 21009 70000
AAXX 12184 71611 NIL
AAXX 12184 71612 17/// /2804 10052 21043 30203 40296 58017 60011 7//4/ 333 10052 21015 70010
AAXX 12184 71614 16/// /2705 10054 21050 30221 40288 56015 60001 333 10057 21082 70000
AAXX 12184 71616 16/// /2407 10034 21034 30179 40302 56012 60001 333 10035 21035 70000
AAXX 12184 71617 16/// /2506 10017 21017 30089 40259 55001 60001 333 10018 21105 70030
AAXX 12184 71618 15966 32313 11157 21178 30165 40205 56017 60001 333 11157 21265 70000
AAXX 12184 71619 16/// /2903 11009 21045 30207 40266 55002 60001 333 11009 21112 70000
AAXX 12184 71622 NIL
AAXX 12184 71632 46/// /2208 11115 21130 39793 40248 58012 6///1 333 11110 21134 7////
AAXX 12184 71634 16/// /2304 10014 21020 30119 40276 55004 60001 333 10015 21119 70000
AAXX 12184 71638 16/// /3204 10014 21050 30142 40250 50000 60001 333 10015 21041 70000
AAXX 12184 71639 12974 02407 10059 21058 30053 40300 58010 60001 333 10060 21026 70000
AAXX 12184 71642 11256 82204 10006 20006 39695 40248 50000 69901 77162 885// 333 10006 21035 47020 79999 90931
AAXX 12184 71051 NIL
AAXX 12184 71055 NIL
AAXX 12184 71057 NIL
AAXX 12184 71059 460// ///// 11183 39788 49878 55008 6///1 333 11095 21190 7////
AAXX 12184 71061 16/// /1805 11101 21110 39394 40211 58019 60001 333 11088 21169 70000
AAXX 12184 71062 46/// /2106 11116 21133 39090 40196 56016 6///1 333 11086 21131 7////
AAXX 12184 71064 460// /1306 11207 39697 49916 57047 6///1 333 11207 21301 7////
AAXX 12184 71065 NIL
AAXX 12184 71067 NIL
AAXX 12184 71070 NIL
AAXX 12184 71073 NIL
AAXX 12184 71074 NIL
AAXX 12184 71075 16/// /2112 11091 21102 39570 40192 56018 60001 333 11091 21147 70000
AAXX 12184 71078 17356 82208 11113 21126 39791 40250 58012 60001 771// 333 11110 21131 70000
AAXX 12184 71084 460// ///// 11213 39959 40008 58039 6///1 333 11213 21298 7////
AAXX 12184 71085 15966 02605 11120 21129 38833 40260 58009 60001 333 11053 21123 70049
AAXX 12184 71087 NIL
AAXX 12184 71088 460// /2810 11235 53004 6///1 333 11172 21236 7////
AAXX 12184 71089 NIL
AAXX 12184 71096 460// ///// 11201 39278 40020 53010 6///1 333 11161 21203 7////
AAXX 12184 71097 47664 30113 11149 39557 40037 53012 6///1 745// 333 11147 21150 7////
AAXX 12184 71098 43/// /0000 11155 21188 39938 40318 50004 6///1 333 11154 21231 7////
AAXX 12184 71099 43/// /2607 11150 21199 30255 40276 51007 6///1 333 11150 21233 7////
AAXX 12184 71250 16/// /2409 11012 21058 30123 40263 58022 60001 333 11012 21063 70003
AAXX 12184 71251 17/// /2701 11124 21143 39316 40276 57006 69971 7//4/ 333 11054 21142 70024
AAXX 12184 71252 NIL
AAXX 12184 71253 46/// /2603 11147 21150 6///1 333 11116 21189 7////
AAXX 12184 71254 16/// /1809 11076 21077 60001 333 11064 21104 70000
AAXX 12184 71255 16/// /1912 11066 21091 60001 333 11066 21115 70000
AAXX 12184 71256 46/// /0000 11138 21150 39237 40207 58020 6///1 333 11116 21166 7////
AAXX 12184 71257 NIL
AAXX 12184 71258 NIL
AAXX 12184 71259 NIL
AAXX 12184 71261 16/// /1908 10016 21007 30030 40296 58007 60001 333 10023 21032 70000
AAXX 12184 71263 12974 02413 10047 21048 30013 40308 58009 60001 333 10049 21048 70000
AAXX 12184 71264 16/// /2410 10077 20025 30272 40304 56024 60001 333 10081 21057 70000
AAXX 12184 71265 15966 02113 10053 21019 30207 40303 58010 60001 333 10053 21007 70000
AAXX 12184 71266 NIL
AAXX 12184 71267 17/06 /2203 11108 21112 39143 40277 58006 69931 735// 333 11045 21150 70029
AAXX 12184 71268 12466 82303 10025 20025 39859 40269 58001 60001 886// 333 10035 20000 70000
AAXX 12184 71269 NIL
AAXX 12184 71270 NIL
AAXX 12184 71271 16/// ///// 11084 21099 60001 333 11071 21097 70000
AAXX 12184 71272 15966 02408 11127 21149 39845 40214 56006 60001 333 11127 21246 70000
AAXX 12184 71273 16/// /2006 11101 21112 39582 40267 56010 60001 333 11092 21114 70000
AAXX 12184 71274 NIL
AAXX 12184 71275 NIL
AAXX 12184 71276 NIL
AAXX 12184 71277 NIL
AAXX 12184 71278 NIL
AAXX 12184 71279 16/// /0103 11078 21099 30178 40247 58002 60001 333 11078 21222 70017
AAXX 12184 71281 NIL
AAXX 12184 71282 46/// /2105 10029 20007 30026 40301 56006 6///1 333 10031 20005 7////
AAXX 12184 71283 NIL
AAXX 12184 71284 16/// ///// 11106 21114 60001 333 11085 21120 70000
AAXX 12184 71285 NIL
AAXX 12184 71286 NIL
AAXX 12184 71287 NIL
AAXX 12184 71288 NIL
AAXX 12184 71289 NIL
AAXX 12184 71290 15966 81712 11060 21081 39353 40202 56024 60001 333 11049 21090 70000
AAXX 12184 71291 16/// /0109 11033 21048 39964 40263 50004 60001 333 11029 21075 70000
AAXX 12184 71292 15466 81302 11091 21091 39681 40312 50000 60001 333 11078 21110 70000
AAXX 12184 71294 16/// /2105 10032 21037 39878 40288 56011 60001 333 10036 21089 70000
AAXX 12184 71295 NIL
AAXX 12184 71296 16/// /1904 10052 21031 39977 40288 58007 60001 333 10053 21037 70000
AAXX 12184 71297 16/// /2406 10063 21059 60001 333 10066 21023 70000
AAXX 12184 71298 16/// /2305 10028 21037 30073 40310 58012 60001 333 10028 21032 70000
AAXX 12184 71299 NIL
AAXX 12184 71114 17964 01011 11001 21071 30232 40281 50002 69951 7//44 333 10009 21013 70005
AAXX 12184 71120 11474 81909 11074 21105 39570 40247 58013 69901 70182 86501 333 11073 21093 42003 79999 90950
AAXX 12184 71122 16/// /2605 11125 21170 38606 40265 58007 60001 333 11080 21201 70000
AAXX 12184 71123 12974 71611 11101 21116 39331 40221 58017 60001 80004 333 11058 21126 79999
AAXX 12184 71125 11458 72011 11110 21130 39668 40275 58007 69901 77187 87500 333 48001 79999 90973 93101
AAXX 12184 71129 11258 80000 11083 21093 39422 40281 55000 60001 71022 885// 333 11071 21085 79999
AAXX 12184 71131 16/// /1306 11068 21072 38965 40253 58001 60001 333 11061 21071 70000
AAXX 12184 71135 16/// /1503 11076 21092 39163 40281 50005 60001 333 11056 21081 70000
AAXX 12184 71137 16/// /1407 11058 21069 39300 40270 50004 60001 333 11043 21074 70000
AAXX 12184 71140 11459 70506 11114 21129 39806 40329 50011 69901 77122 87500 333 11060 21118 41997 79999 90962
AAXX 12184 71145 12974 13002 11190 21217 30012 40324 50003 60001 81070 333 11173 21231 79999
AAXX 12184 71148 16/// /0107 11109 21131 39715 40319 51016 60001 333 11073 21116 70000
AAXX 12184 71182 16964 02405 11166 21225 39676 40247 53001 60001 333 11165 21279 70000
AAXX 12184 71185 17456 83504 11060 30207 40232 53002 69951 74544 333 11048 21106 70005
AAXX 12184 71188 12574 80802 11029 21058 30212 40256 56002 60001 8657/ 333 11025 21177 70000
AAXX 12184 71200 16/// /3607 10030 21026 60001 333 10030 21002 70000
AAXX 12184 71207 16/// /3403 11015 21066 30199 40265 50003 60001 333 11015 21056 70000
AAXX 12184 71260 13/// ///// 10026 20023 30017 40256 58006 69941 333 10048 20008 70004
AAXX 12184 71300 NIL
AAXX 12184 71301 16/// ///// 10004 20001 39838 40243 58001 60001 333 10004 21071 70000
AAXX 12184 71302 16/// /1804 11067 21071 39383 40223 56022 60001 333 11067 21138 70000
AAXX 12184 71303 NIL
AAXX 12184 71305 15966 01912 11080 21092 39803 40107 57033 60001 333 11080 21122 70000
AAXX 12184 71306 17566 82610 11090 21128 30177 40210 51003 60001 771// 333 11092 21216 70000
AAXX 12184 71307 17/// /2605 10046 21054 30057 40314 58015 69931 7//4/ 333 10046 21054 70003
AAXX 12184 71308 16/// /2608 10045 20004 30213 40299 55015 60001 333 10047 21073 70000
AAXX 12184 71309 NIL
AAXX 12184 71310 16/// /2512 10043 21045 30244 40282 56007 60001 333 10045 21081 70000
AAXX 12184 71311 NIL
AAXX 12184 71312 16/// /2108 11118 21132 39826 40304 58006 60001 333 11114 21139 70000
AAXX 12184 71314 NIL
AAXX 12184 71315 NIL
AAXX 12184 71316 16/// /1710 11072 21094 39513 40216 58021 60001 333 11072 21107 70000
AAXX 12184 71317 NIL
AAXX 12184 71318 16/// /1812 11066 21091 39284 40257 55005 60001 333 11065 21072 70000 555 10030
AAXX 12184 71319 NIL
AAXX 12184 71320 NIL
AAXX 12184 71321 NIL
AAXX 12184 71322 16/// /2410 11187 21206 30135 40148 56016 60001 333 11186 21300 70030
AAXX 12184 71323 NIL
AAXX 12184 71331 16/// /2003 11145 21166 60001 333 11135 21206 70000
AAXX 12184 71332 NIL
AAXX 12184 71334 46/// /2407 11128 21157 39871 40214 56005 6///1 333 11128 21251 7////
AAXX 12184 71335 46964 02932 11119 51012 6///1 333 11118 21159 7////
AAXX 12184 71336 46/// ///19 11016 21037 30211 40234 58023 6///1 333 11016 21053 7////
AAXX 12184 71337 46/// /2104 11044 21065 39965 40210 56016 6///1 333 11044 21125 7////
AAXX 12184 71338 46964 00509 11178 21195 30024 40031 53010 6///1 333 11096 21183 7////
AAXX 12184 71339 17964 02815 11110 21208 30174 40189 55007 69951 7//44 333 11110 21182 70005
AAXX 12184 71340 NIL
AAXX 12184 71341 NIL
AAXX 12184 71342 NIL
AAXX 12184 71343 NIL
AAXX 12184 71344 NIL
AAXX 12184 71345 NIL
AAXX 12184 71346 NIL
AAXX 12184 71347 NIL
AAXX 12184 71348 NIL
AAXX 12184 71349 NIL
AAXX 12184 71001 NIL
AAXX 12184 71002 NIL
AAXX 12184 71003 NIL
AAXX 12184 71005 16/// ///// 11070 21099 60001 333 11070 21111 70000
AAXX 12184 71006 NIL
AAXX 12184 71007 NIL
AAXX 12184 71008 NIL
AAXX 12184 71009 NIL
AAXX 12184 71010 NIL
AAXX 12184 71011 NIL
AAXX 12184 71012 NIL
AAXX 12184 71013 NIL
AAXX 12184 71014 NIL
AAXX 12184 71015 NIL
AAXX 12184 71016 NIL
AAXX 12184 71017 NIL
AAXX 12184 71018 NIL
AAXX 12184 71019 NIL
AAXX 12184 71020 NIL
AAXX 12184 71021 NIL
AAXX 12184 71022 17566 81414 10020 20010 30125 40169 56018 60101 76144 333 10023 21007 70100
AAXX 12184 71023 16464 62111 11077 21085 39439 40230 58020 60001 333 11077 21104 70000
AAXX 12184 71024 16/// /1002 11124 21131 60001 333 11124 21181 70000
AAXX 12184 71026 NIL
AAXX 12184 71027 17/// /2604 10034 21023 30264 40274 55000 69981 7//4/ 333 10037 21054 70008
AAXX 12184 71028 16/// /3403 11130 21142 39189 40271 58023 60001 333 11128 21168 70000
AAXX 12184 71029 16/// /0408 11188 21207 39851 49890 58017 60001 333 11183 21288 70000
AAXX 12184 71030 17/64 /2409 10086 20027 30201 40292 56015 69961 7//4/ 333 10088 21082 70006
AAXX 12184 71032 46/// /0104 11059 21108 39434 40289 51008 6///1 333 11032 21073 7////
AAXX 12184 71033 46/// /2210 11090 21101 39566 40214 58014 6///1 333 11090 21136 7//// 555 10010
AAXX 12184 71035 NIL
AAXX 12184 71036 17464 13502 11112 21140 39941 40334 50004 60001 771// 333 11094 21121 70000
AAXX 12184 71039 NIL
AAXX 12184 71040 46/// /2509 10020 21021 30047 40249 55001 6///1 333 10020 21101 7////
AAXX 12184 71041 15566 82512 10040 21004 30150 40296 56016 60001 333 10051 21084 70000
AAXX 12184 71042 16/// /1001 11012 21017 30250 40254 50003 60001 333 11012 21090 70000
AAXX 12184 71044 17/// /0514 11120 21146 39560 49877 53033 69931 7//4/ 333 11075 21203 70006
AAXX 12184 71046 460// /0713 11138 39927 49944 53014 6///1 333 11135 21197 7////
AAXX 12184 71047 16/// ///// 11075 21096 60001 333 11075 21135 70000
AAXX 12184 71048 NIL
AAXX 12184 71049 NIL
AAXX 12184 71060 NIL
AAXX 12184 71063 NIL
AAXX 12184 71950 15766 81304 11070 21084 39551 40195 55016 60001 333 11051 21072 70000
AAXX 12184 71952 16/// /0802 11075 21083 39323 40192 55015 60001 333 11065 21099 70000
AAXX 12184 71954 NIL
AAXX 12184 71956 NIL
AAXX 12184 71959 NIL
AAXX 12184 71960 460// /0528 11172 39764 49896 56009 6///1 333 11158 21209 7////
AAXX 12184 71962 16/// /0406 11046 21081 39831 40266 51012 60001 333 11046 21115 70000
AAXX 12184 71963 NIL
AAXX 12184 71967 NIL
AAXX 12184 71970 NIL
AAXX 12184 71971 NIL
AAXX 12184 71972 460// ///// 11133 39555 40022 55009 6///1 333 11118 21134 7////
AAXX 12184 71973 46/// /2608 11015 21025 30044 40236 55004 6///1 333 11012 21086 7////
AAXX 12184 71974 NIL
AAXX 12184 71975 460// /2723 11171 39271 40006 53012 6///1 333 11160 21171 7////
AAXX 12184 71976 NIL
AAXX 12184 71977 NIL
AAXX 12184 71978 NIL
AAXX 12184 71979 NIL
AAXX 12184 71980 NIL
AAXX 12184 71981 NIL
AAXX 12184 71982 NIL
AAXX 12184 71983 NIL
AAXX 12184 71984 16/// /0615 11169 21186 39856 49864 58017 60001 333 11094 21182 70000
AAXX 12184 71985 NIL
AAXX 12184 71986 NIL
AAXX 12184 71987 16/// /2516 10021 21029 30259 40269 55004 60001 333 10025 21063 70000
AAXX 12184 71988 16/// /2310 10091 20033 30298 40318 56016 60001 333 10096 21014 70000
AAXX 12184 71989 16/// /3507 11343 21379 30027 40044 50000 60001 333 11336 21395 70000
AAXX 12184 71990 NIL
AAXX 12184 71999 46/// ///// 11042 6///1 333 11010 21084 7////
AAXX 12184 71500 NIL
AAXX 12184 71501 NIL
AAXX 12184 71502 NIL
AAXX 12184 71503 NIL
AAXX 12184 71504 NIL
AAXX 12184 71505 16/// /1209 10016 21114 39211 49918 53027 60001 333 10030 21132 7////
AAXX 12184 71506 NIL
AAXX 12184 71507 16/// /1914 11073 21099 60001 333 11073 21146 70000
AAXX 12184 71508 16/// ///// 10062 21019 30164 40304 58010 60001 333 10063 20004 70000
AAXX 12184 71509 NIL
AAXX 12184 71511 NIL
AAXX 12184 71512 NIL
AAXX 12184 71513 15466 60303 11086 21110 30233 40249 53003 60001 333 11083 21190 70000
AAXX 12184 71514 NIL
AAXX 12184 71515 16/// /1206 11071 21074 39569 40294 58002 60001 333 11070 21084 70000
AAXX 12184 71516 16/// /1504 11064 21077 60001 333 11049 21069 70000
AAXX 12184 71517 NIL
AAXX 12184 71518 NIL
AAXX 12184 71519 NIL
AAXX 12184 71520 NIL
AAXX 12184 71521 NIL
AAXX 12184 71522 NIL
AAXX 12184 71523 NIL
AAXX 12184 71524 16/// /2408 10037 21034 30273 40300 56016 60001 333 10038 21023 70010
AAXX 12184 71525 NIL
AAXX 12184 71526 NIL
AAXX 12184 71527 15366 80306 11087 21098 39763 40289 50010 60001 333 11087 21128 70000
AAXX 12184 71528 NIL
AAXX 12184 71529 46/// /1814 11080 21113 39752 49978 58057 6///1 333 11068 21100 7////
AAXX 12184 71532 15466 82405 10020 21002 39941 40294 58007 60001 333 10020 21111 70000
AAXX 12184 71534 16964 01604 10058 21027 30016 40292 5/007 60001 333 10058 21035 70000
AAXX 12184 71535 NIL
AAXX 12184 71536 NIL
AAXX 12184 71537 NIL
AAXX 12184 71539 NIL
AAXX 12184 71540 NIL
AAXX 12184 71541 NIL
AAXX 12184 71542 16/// /0503 11152 21167 60001 333 11152 21192 70000
AAXX 12184 71543 NIL
AAXX 12184 71544 NIL
AAXX 12184 71545 16/// ///// 11071 21087 60001 333 11065 21100 70004
AAXX 12184 71546 NIL
AAXX 12184 71547 NIL
AAXX 12184 71548 NIL
AAXX 12184 71549 NIL
AAXX 12184 71893 11480 70000 11013 21046 30226 40258 50000 60001 71411 81832 333 10016 21037 70000
AAXX 12184 71894 16/// /0606 10004 21002 30241 40250 53002 60001 333 10012 21010 70002
AAXX 12184 71896 15966 81806 11072 21077 39373 40229 56021 60001 333 11072 21141 70000
AAXX 12184 71897 11262 81415 10029 20016 3//// 4//// 57010 60011 76152 887XX 333 10030 20019 70012 90999
AAXX 12184 71898 NIL
AAXX 12184 71899 11359 82811 10056 20056 3//// 4//// 51002 60051 70262 887XX 333 10060 20026 70114 90923
AAXX 12184 71902 12474 22916 11120 21169 30153 40162 51016 60001 82530 333 11110 21175 70000
AAXX 12184 71905 NIL
AAXX 12184 71906 12774 12410 11133 21181 30150 40202 52015 60001 81500 333 11132 21186 79999
AAXX 12184 71907 17564 82603 11109 21140 30178 40212 51003 60001 745// 333 11108 21249 70010
AAXX 12184 71909 16964 03312 11185 21229 30072 40117 53012 60001 333 11155 21187 70005
AAXX 12184 71910 47416 90505 11164 21175 30063 40127 50002 6///1 745// 333 11143 21190 7////
AAXX 12184 71911 46964 01410 11324 30018 40077 56018 6///1 333 11236 21328 7////
AAXX 12184 71912 11574 62110 11153 21181 30085 40278 58006 69901 72211 86500 333 11152 21248 47011 79999 90911
AAXX 12184 71915 11374 83404 11277 21320 30060 40145 57002 69901 77177 885// 333 11248 21336 48043 79999 90983
AAXX 12184 71917 11974 10000 11402 21441 30027 40042 55001 69901 77677 81078 333 11387 21415 47013 79999 90983
AAXX 12184 71922 11474 82005 11110 21120 39788 40273 57010 69901 77177 885// 333 11104 21156 47027 79999 90983
AAXX 12184 71924 NIL
AAXX 12184 71925 11206 81721 11202 21236 39895 49937 57055 69901 77173 885// 333 11202 21320 42018 79999 90983
AAXX 12184 71926 11462 81205 11208 21256 30077 40102 56010 69921 77177 885// 333 11208 21293 48041 70002 90947
AAXX 12184 71928 NIL
AAXX 12184 71930 11969 70000 11154 21182 39242 40210 57020 69903 7407/ 80001 333 11116 21172 47015 79999 90939
AAXX 12184 71931 16/// /2413 11037 21065 30204 40216 56025 60001 333 11006 21099 70000
AAXX 12184 71934 12874 71712 11093 21112 39785 40044 57041 60001 85031 333 11079 21117 70000
AAXX 12184 71935 12974 71917 11053 21102 39768 49975 57028 60001 84071 333 11050 21098 79999
AAXX 12184 71936 11474 71812 11057 21065 39670 49927 57062 69901 73677 81520 333 11056 21077 48024 70006 90963
AAXX 12184 71937 NIL
AAXX 12184 71938 12574 70000 11203 21233 39841 49871 56039 60001 87500 333 11178 21238 79999
AAXX 12184 71940 12982 70000 11111 21141 39328 40161 58026 60001 82032 333 11111 21209 70000
AAXX 12184 71943 11874 82320 11019 21095 39269 40116 56014 60001 73622 88070 333 11018 21113 70000
AAXX 12184 71944 160// ///// 11066 56022 60001 333 11054 21096 70000
AAXX 12184 71945 12980 82105 11130 21166 39543 40021 57030 60001 85071 333 11117 21160 70000
AAXX 12184 71946 12774 72215 10020 21031 39690 49901 55029 60001 87500 333 10020 21164 70000
AAXX 12184 71948 47411 30622 11181 39785 49898 58008 6///1 745// 333 11164 21193 7////
AAXX 12184 71949 46/// /2610 11004 21080 39056 49915 55001 6///1 333 10006 21188 7////
AAXX 12184 71951 NIL
AAXX 12184 71957 46664 83504 11152 21204 39793 49881 53014 6///1 333 11085 21154 7////
AAXX 12184 71958 43/// /0000 11104 21119 39119 40075 56012 6///1 333 7////
AAXX 12184 71964 11786 61613 11012 21053 39113 49956 53007 69901 70371 8357/ 333 10003 21081 47020 79999 90950
AAXX 12184 71966 16/// /2306 11087 21107 39436 49893 53028 60001 333 11057 21232 70023 555 10040
AAXX 12184 71968 47058 /0409 11147 39860 49924 53019 6///1 745// 333 11126 21150 7////
AAXX 12184 71201 16/// ///// 10045 21037 60001 333 10051 21011 70000
AAXX 12184 71202 17/// ///// 11080 21097 60011 7//4/ 333 11066 21112 70011
AAXX 12184 71203 15666 82403 11033 21063 39758 40293 53009 60001 333 11016 21079 70000
AAXX 12184 71209 46/// /3606 10039 6///1 333 10051 20034 7////
AAXX 12184 71211 46/// /0325 10019 21044 30239 40251 50004 6///1 333 10039 20017 7////
AAXX 12184 71212 16/// /2205 11025 21039 39445 40266 55003 60001 333 11019 21092 70000
AAXX 12184 71213 46/// /2209 10015 20006 39942 40246 58003 6///1 333 10020 21023 7////
AAXX 12184 71214 NIL
AAXX 12184 71215 NIL
AAXX 12184 71216 16/// /1202 11034 21071 39648 40280 53008 60001 333 11008 21065 70000 555 10010
AAXX 12184 71217 NIL
AAXX 12184 71218 16/// /1902 11060 21075 39856 40299 53005 60001 333 11055 21092 70000
AAXX 12184 71219 46/// /1424 10045 20020 30163 40169 56017 6///1 333 10045 20016 7////
AAXX 12184 71220 46/// /1431 10033 20019 6///1 333 10035 20013 7////
AAXX 12184 71221 NIL
AAXX 12184 71222 16/// /2601 11105 21116 39108 40091 56013 60001 333 11083 21162 70000
AAXX 12184 71223 NIL
AAXX 12184 71224 NIL
AAXX 12184 71225 NIL
AAXX 12184 71226 NIL
AAXX 12184 71227 NIL
AAXX 12184 71228 NIL
AAXX 12184 71229 NIL
AAXX 12184 71230 16/// /0000 11061 21120 39231 40142 56023 60001 333 11058 21122 70000
AAXX 12184 71231 17/// /2201 11049 21071 69971 7//4/ 333 11048 21071 70029
AAXX 12184 71232 16/// /2409 11107 21138 38687 40241 58008 60001 333 11093 21176 70018
AAXX 12184 71233 16/// /1906 11106 21125 60001 333 11072 21131 70000
AAXX 12184 71234 17/// /1403 11128 21141 39028 40258 58012 69931 7//4/ 333 11052 21130 70043 555 10060
AAXX 12184 71235 16/// /2103 11088 21104 60001 333 11065 21098 70014
AAXX 12184 71236 46/// /0000 11085 21116 6///1 333 11053 21166 7////
AAXX 12184 71237 46/// /1604 11081 21090 39412 40252 56006 6///1 333 11058 21138 7////
AAXX 12184 71238 16/// /1806 11053 21081 60001 333 11052 21100 70000
AAXX 12184 71239 16/// /0307 11109 21136 39842 40327 51011 60001 333 11064 21123 70000
AAXX 12184 71240 16/// /0000 11073 21097 39404 40279 58001 60001 333 11071 21080 70000
AAXX 12184 71241 NIL
AAXX 12184 71242 16/// /1705 11097 21110 60001 333 11070 21166 70000
AAXX 12184 71243 NIL
AAXX 12184 71244 16/// /2906 11104 21117 38992 40258 56002 60001 333 11053 21105 70024 555 10050
AAXX 12184 71245 NIL
AAXX 12184 71246 NIL
AAXX 12184 71247 17548 83501 11060 21071 39388 40266 56003 60011 7714/ 333 11045 21062 70024
AAXX 12184 71248 16/// /0000 11140 21164 38883 40231 56014 60001 333 11068 21243 70016 555 10020
AAXX 12184 71249 NIL
AAXX 12184 71102 NIL
AAXX 12184 71105 NIL
AAXX 12184 71107 NIL
AAXX 12184 71110 NIL
AAXX 12184 71111 16664 82609 10040 20033 30160 40168 55007 69951 333 10041 21020 70005
AAXX 12184 71112 16/// ///// 60001 333 70000
AAXX 12184 71113 16/// /3009 10028 21070 30236 40260 51005 60001 333 10040 20005 70000
AAXX 12184 71115 16/// /1801 11060 21072 39690 40290 51010 60001 333 11024 21077 70000
AAXX 12184 71116 16/// /1206 11043 21056 39140 40264 50001 60001 333 11037 21058 70000 555 10060
AAXX 12184 71118 16/// /1706 11070 21096 39403 40256 56009 60001 333 11070 21107 70000
AAXX 12184 71121 16962 01908 11071 21128 39371 40215 5/019 60001 333 11055 21103 70000
AAXX 12184 71127 16/// /2002 11118 21126 39277 40229 58016 60001 333 11074 21140 70000
AAXX 12184 71130 17436 81909 11112 21127 39828 40306 58006 60001 771// 333 11108 21140 70000
AAXX 12184 71132 15466 61504 11064 21085 39831 40149 58031 60001 333 11063 21122 70000
AAXX 12184 71133 46/// /2103 11131 21155 39540 40275 58006 6///1 333 11100 21176 7////
AAXX 12184 71139 NIL
AAXX 12184 71141 NIL
AAXX 12184 71142 17666 81714 11077 21080 39276 40276 58001 60001 771// 333 11074 21086 70000
AAXX 12184 71143 NIL
AAXX 12184 71144 NIL
AAXX 12184 71147 16/// /3609 11101 21137 60001 333 11068 21117 70000
AAXX 12184 71149 NIL
AAXX 12184 71401 17/// /1502 11036 21060 39563 40266 51012 69971 7//4/ 333 11025 21070 70007
AAXX 12184 71402 NIL
AAXX 12184 71404 NIL
AAXX 12184 71405 NIL
AAXX 12184 71406 NIL
AAXX 12184 71407 NIL
AAXX 12184 71408 NIL
AAXX 12184 71409 NIL
AAXX 12184 71410 15966 02205 11156 21172 30027 40323 50001 60001 333 11156 21270 70000
AAXX 12184 71413 NIL
AAXX 12184 71414 NIL
AAXX 12184 71415 16/// /2507 10061 20013 30280 40283 56015 60001 333 10061 21057 70000
AAXX 12184 71417 NIL
AAXX 12184 71418 NIL
AAXX 12184 71419 46/// /2319 10060 20012 30287 40297 55020 6///1 333 10061 21054 7////
AAXX 12184 71423 NIL
AAXX 12184 71424 46/// /2315 6///1 333 7////
AAXX 12184 71425 16/// /3208 11006 21021 30212 40249 53001 60001 333 11001 21109 70010
AAXX 12184 71426 NIL
AAXX 12184 71427 NIL
AAXX 12184 71428 16/// /2004 11006 21030 30240 40246 56002 60001 333 10000 21107 70000
AAXX 12184 71429 16/// /2608 11009 21041 30233 40253 55004 60001 333 11009 21115 70000
AAXX 12184 71434 NIL
AAXX 12184 71436 15966 02406 10065 21046 30058 40297 58007 60001 333 10066 21024 70000
AAXX 12184 71437 NIL
AAXX 12184 71438 NIL
AAXX 12184 71439 NIL
AAXX 12184 71440 NIL
AAXX 12184 71442 16/// /3505 11132 21152 39999 40329 50005 60001 333 11113 21167 70000
AAXX 12184 71445 NIL
AAXX 12184 71446 NIL
AAXX 12184 71448 NIL
AAXX 12184 71449 16/// /0108 11070 21087 39866 40285 51012 60001 333 11068 21122 70000
AAXX 12184 71816 12974 02516 11149 21218 30161 40225 55002 60001 333 11149 21198 70000
AAXX 12184 71817 NIL
AAXX 12184 71818 12574 12712 11120 21143 30160 40179 53006 60001 81108 333 11110 21161 70000
AAXX 12184 71822 11274 73203 11019 21035 39760 40243 54000 69901 70176 84530 333 11011 21089 43027 70054 90946
AAXX 12184 71825 11474 22805 11150 21193 39544 40251 53004 69901 77111 82600 333 11146 21278 47071 79999 90901
AAXX 12184 71827 12774 81904 11129 21148 30018 40275 50005 60001 88500 333 11129 21213 79999
AAXX 12184 71828 16664 33105 11190 21236 39568 40240 53011 60001 333 11183 21229 70000
AAXX 12184 71831 11248 83304 11037 21052 39977 40264 51007 60001 71022 886// 333 11010 21037 79999
AAXX 12184 71832 NIL
AAXX 12184 71834 11466 80605 11064 21072 39832 40272 50007 69901 77172 885// 333 11057 21064 48011 79999 90927
AAXX 12184 71841 NIL
AAXX 12184 71842 11374 83604 11111 21125 39805 40297 50010 69901 77111 886// 333 11109 21139 48003 79999 90921
AAXX 12184 71844 16564 83105 11130 21170 30007 40298 50005 60001 333 11129 21195 70000
AAXX 12184 71845 11366 63602 11129 21138 39809 40304 50009 69901 77111 85770 333 11092 21150 44009 79999 90962
AAXX 12184 71850 12261 80308 11088 21093 39775 40295 50011 60001 886// 333 11087 21109 70000
AAXX 12184 71852 16361 80109 11116 21131 30007 40314 50006 60001 333 11062 21131 70000
AAXX 12184 71854 11474 20302 11104 21142 39813 40306 50007 69901 77177 81504 333 11085 21114 48009 79999 90973
AAXX 12184 71858 16/// /2803 11118 21134 30030 40326 58001 60001 333 11116 21229 70000
AAXX 12184 71861 46/// /1206 11080 21088 39550 40300 50005 6///1 333 11068 21083 7////
AAXX 12184 71862 11232 81306 11060 21068 39577 40301 50008 69901 77177 886// 333 11054 21066 42002 79999 90983
AAXX 12184 71863 46362 81506 11065 21093 39575 40298 50001 6///1 333 11062 21087 7////
AAXX 12184 71550 NIL
AAXX 12184 71551 NIL
AAXX 12184 71552 NIL
AAXX 12184 71553 NIL
AAXX 12184 71554 16/// /2213 10008 21024 30251 40257 55001 60001 333 10009 21082 70010
AAXX 12184 71555 17/// /2106 11079 21093 38631 40238 56012 69951 7//4/ 333 11072 21111 70055
AAXX 12184 71556 NIL
AAXX 12184 71557 46/// /0902 11081 21106 6///1 333 11059 21150 7////
AAXX 12184 71558 NIL
AAXX 12184 71559 46/// /1404 11060 21067 39575 40298 50009 6///1 333 11054 21065 7////
AAXX 12184 71560 16/// /3511 11087 21106 39987 40308 51011 60001 333 11067 21111 70000
AAXX 12184 71563 NIL
AAXX 12184 71564 NIL
AAXX 12184 71565 NIL
AAXX 12184 71566 NIL
AAXX 12184 71567 NIL
AAXX 12184 71568 16/// /1606 10001 21021 30246 40259 55005 60001 333 10029 21002 70000
AAXX 12184 71569 NIL
AAXX 12184 71570 16/// /0605 11083 21110 39986 40310 50006 60001 333 11060 21088 70000
AAXX 12184 71571 NIL
AAXX 12184 71572 NIL
AAXX 12184 71573 NIL
AAXX 12184 71574 12974 70000 10009 21014 30194 40269 55003 60001 87070 333 10009 21130 79999
AAXX 12184 71575 NIL
AAXX 12184 71576 16/// /2707 11215 21240 39963 40050 53008 60001 333 11192 21242 70000
AAXX 12184 71577 NIL
AAXX 12184 71578 16/// /2706 10005 21041 60001 333 10005 21054 70000
AAXX 12184 71579 16/// /0204 11113 21139 30012 40308 50007 60001 333 11062 21124 70000
AAXX 12184 71580 11566 11507 11303 21352 30038 40076 58016 69901 77670 81500 333 11222 21310 45030 79999 90987
AAXX 12184 71581 NIL
AAXX 12184 71582 15666 81306 10009 21003 30193 40247 56011 60001 333 10009 21025 70000
AAXX 12184 71583 NIL
AAXX 12184 71584 15966 02503 11077 21106 30199 40249 55000 60001 333 11070 21208 70000
AAXX 12184 71585 NIL
AAXX 12184 71586 16/// /2106 11111 21123 39786 40270 56009 60001 333 11105 21156 70000
AAXX 12184 71587 NIL
AAXX 12184 71588 16/// /2707 11021 21031 60001 333 11020 21099 70000
AAXX 12184 71589 NIL
AAXX 12184 71590 NIL
AAXX 12184 71592 NIL
AAXX 12184 71593 NIL
AAXX 12184 71596 NIL
AAXX 12184 71598 16/64 /2405 10009 21043 30263 40269 55005 60001 333 10011 21103 70000
AAXX 12184 71599 16/// /2702 10083 20017 30108 40315 56020 60001 333 10090 21068 70000 555 10010
AAXX 12184 84628 34460 61706 10234 20180 30113 40129 70222 866// 333 564// 59002 86717
AAXX 12184 84564 31560 60612 10240 20153 38136 7022/ 8323/ 333 5600/ 58003 83828 83464
AAXX 12184 84531 31960 01912 10232 20157 30083 40100 70100 333 58///
AAXX 12184 84401 31960 32109 10300 20175 30067 40110 70202 83030 333 56000 58000 83360
AAXX 12184 84686 21765 89903 10161 20061 36866 72062 8351/ 333 56990 58006 69921 83650 85460
AAXX 12184 84773 31562 71607 10246 20157 30109 40134 70222 87500 333 56900 58/// 87625
AAXX 12184 84691 31458 52706 10233 20193 30119 40126 71044 8562/ 333 560// 59004 82712 83460
AAXX 12184 84370 31960 03511 10271 20227 30070 40103 70200 333 58004
AAXX 12184 84444 31660 6//// 10178 20124 37516 70222 86400 333 569// 58/// 86640
AAXX 12184 84515 31460 83406 10328 20235 39901 40075 70234 8422/ 333 56000 59008 84817 85458
AAXX 12184 84472 31560 80110 10205 20108 37396 70300 885// 333 56900 58000 84725 87633
AAXX 12184 84534 21660 7//// 10305 20218 39350 40049 7021/ 8322/ 333 5699/ 58/// 60071 83840 87460
AAXX 12184 71930 11969 70000 11154 21182 39242 40210 57020 69903 7407/ 80001 333 11116 21172 47015 79999 90939
AAXX 12184 71931 16/// /2413 11037 21065 30204 40216 56025 60001 333 11006 21099 70000
AAXX 12184 71934 12874 71712 11093 21112 39785 40044 57041 60001 85031 333 11079 21117 70000
AAXX 12184 71935 12974 71917 11053 21102 39768 49975 57028 60001 84071 333 11050 21098 79999
AAXX 12184 71936 11474 71812 11057 21065 39670 49927 57062 69901 73677 81520 333 11056 21077 48024 70006 90963
AAXX 12184 71937 NIL
AAXX 12184 71938 12574 70000 11203 21233 39841 49871 56039 60001 87500 333 11178 21238 79999
AAXX 12184 71940 12982 70000 11111 21141 39328 40161 58026 60001 82032 333 11111 21209 70000
AAXX 12184 71943 11874 82320 11019 21095 39269 40116 56014 60001 73622 88070 333 11018 21113 70000
AAXX 12184 71944 160// ///// 11066 56022 60001 333 11054 21096 70000
AAXX 12184 71945 12980 82105 11130 21166 39543 40021 57030 60001 85071 333 11117 21160 70000
AAXX 12184 71946 12774 72215 10020 21031 39690 49901 55029 60001 87500 333 10020 21164 70000
AAXX 12184 71948 47411 30622 11181 39785 49898 58008 6///1 745// 333 11164 21193 7////
AAXX 12184 71949 46/// /2610 11004 21080 39056 49915 55001 6///1 333 10006 21188 7////
AAXX 12184 71951 NIL
AAXX 12184 71957 46664 83504 11152 21204 39793 49881 53014 6///1 333 11085 21154 7////
AAXX 12184 71958 43/// /0000 11104 21119 39119 40075 56012 6///1 333 7////
AAXX 12184 71964 11786 61613 11012 21053 39113 49956 53007 69901 70371 8357/ 333 10003 21081 47020 79999 90950
AAXX 12184 71966 16/// /2306 11087 21107 39436 49893 53028 60001 333 11057 21232 70023 555 10040
AAXX 12184 71968 47058 /0409 11147 39860 49924 53019 6///1 745// 333 11126 21150 7////
AAXX 12184 71726 16/// /2104 11005 21018 39709 40259 50000 60001 333 11002 21055 70000
AAXX 12184 71727 12480 81003 11012 21030 30057 40259 55001 60001 885// 333 10020 21032 47018 70042
AAXX 12184 71728 11680 82214 10011 21019 30027 40252 55000 69901 77122 885// 333 10011 21070 48001 79999 90952
AAXX 12184 71730 12574 82412 10031 20001 39833 40263 58001 60001 885// 333 10031 21007 70000
AAXX 12184 71731 11458 82311 10020 20007 39813 40271 58004 60001 71022 885// 333 10021 21007 70000
AAXX 12184 71735 NIL
AAXX 12184 71738 11140 80000 10001 21004 39888 40245 50004 69901 76172 885// 333 10041 21001 44011 79999 90921
AAXX 12184 71739 42566 80000 11002 21015 39882 40252 51006 6//// 886// 333 10004 21039 4//// 7////
AAXX 12184 71749 16464 82403 11055 21071 30008 40263 50003 60001 333 11054 21140 70000
AAXX 12184 71799 12583 62505 10017 21024 30237 40262 50004 60001 81571 333 10017 21033 70000
AAXX 12184 71800 16/// /2419 10004 21021 30252 40286 56022 60001 333 10009 21055 70000
AAXX 12184 71801 11566 82415 11019 21061 30092 40270 58018 69901 78581 885// 333 11019 21066 79999 90915
AAXX 12184 71803 12474 72413 11020 21057 30041 40233 56028 60001 86530 333 11020 21100 79999
AAXX 12184 71807 NIL
AAXX 12184 71808 12574 33304 11130 21193 30178 40227 55008 60001 83500 333 11130 21170 44018 70000
AAXX 12184 71809 11459 62509 11010 21030 30197 40225 56015 60081 77188 86500 333 11007 21086 47012 70114 90973 93108
AAXX 12184 71810 16/// /3501 11033 21057 30173 40241 53002 60001 333 11028 21119 70009
AAXX 12184 71811 NIL
AAXX 12184 71813 NIL
AAXX 12184 71814 16/// /2903 11073 21106 30229 40239 55004 60001 333 11071 21161 70000
AAXX 12184 71815 11359 83011 10005 21013 30212 40243 55006 60011 78588 885// 333 10009 21076 44007 70046 90973 93101
AAXX 12184 71114 17964 01011 11001 21071 30232 40281 50002 69951 7//44 333 10009 21013 70005
AAXX 12184 71120 11474 81909 11074 21105 39570 40247 58013 69901 70182 86501 333 11073 21093 42003 79999 90950
AAXX 12184 71122 16/// /2605 11125 21170 38606 40265 58007 60001 333 11080 21201 70000
AAXX 12184 71123 12974 71611 11101 21116 39331 40221 58017 60001 80004 333 11058 21126 79999
AAXX 12184 71125 11458 72011 11110 21130 39668 40275 58007 69901 77187 87500 333 48001 79999 90973 93101
AAXX 12184 71129 11258 80000 11083 21093 39422 40281 55000 60001 71022 885// 333 11071 21085 79999
AAXX 12184 71131 16/// /1306 11068 21072 38965 40253 58001 60001 333 11061 21071 70000
AAXX 12184 71135 16/// /1503 11076 21092 39163 40281 50005 60001 333 11056 21081 70000
AAXX 12184 71137 16/// /1407 11058 21069 39300 40270 50004 60001 333 11043 21074 70000
AAXX 12184 71140 11459 70506 11114 21129 39806 40329 50011 69901 77122 87500 333 11060 21118 41997 79999 90962
AAXX 12184 71145 12974 13002 11190 21217 30012 40324 50003 60001 81070 333 11173 21231 79999
AAXX 12184 71148 16/// /0107 11109 21131 39715 40319 51016 60001 333 11073 21116 70000
AAXX 12184 71182 16964 02405 11166 21225 39676 40247 53001 60001 333 11165 21279 70000
AAXX 12184 71185 17456 83504 11060 30207 40232 53002 69951 74544 333 11048 21106 70005
AAXX 12184 71188 12574 80802 11029 21058 30212 40256 56002 60001 8657/ 333 11025 21177 70000
AAXX 12184 71200 16/// /3607 10030 21026 60001 333 10030 21002 70000
AAXX 12184 71207 16/// /3403 11015 21066 30199 40265 50003 60001 333 11015 21056 70000
AAXX 12184 71260 13/// ///// 10026 20023 30017 40256 58006 69941 333 10048 20008 70004
AAXX 12184 71864 NIL
AAXX 12184 71865 16/// /1405 11085 21098 39594 40301 58002 60001 333 11084 21112 70000
AAXX 12184 71866 47248 82006 11095 21113 39665 40302 51001 6///1 745// 333 11087 21109 7////
AAXX 12184 71867 11362 82106 11136 21142 39960 40312 58011 69901 77100 885// 333 11136 21198 47016 79999 90962
AAXX 12184 71868 NIL
AAXX 12184 71869 11358 82306 11117 21123 39758 40306 58002 69901 77177 885// 333 11117 21168 47005 70002 90973 93102
AAXX 12184 71871 17466 81809 11100 21109 39434 40271 56009 60001 771// 333 11100 21129 70000
AAXX 12184 71877 11156 81910 11091 21096 38939 40252 57009 69901 71071 88600 333 11062 21092 48008 70004 90940
AAXX 12184 71878 12966 61707 11108 21113 39133 40239 58014 60001 80001 333 11066 21166 79999
AAXX 12184 71879 16964 01808 11072 21104 39394 40218 56018 60001 333 11051 21098 70000
AAXX 12184 71880 NIL
AAXX 12184 71882 16664 82902 11055 21082 39740 40295 51005 60001 333 11022 21090 70000
AAXX 12184 71883 NIL
AAXX 12184 71887 12986 50902 11067 21090 39868 40306 52003 60001 80001 333 11051 21119 70000
AAXX 12184 71889 12974 43505 11002 21091 39861 40287 52009 60001 88171 333 10023 21034 70000
AAXX 12184 71891 16964 00000 11057 21067 30020 40303 53005 60001 333 11005 21068 70000
AAXX 12184 71892 12583 61107 10016 21020 30253 40258 50001 60001 81171 333 10021 21050 70000
AAXX 12184 71043 11786 72706 11101 21128 39714 49806 55021 69901 70272 86570 333 11077 21221 48019 79999 90941
AAXX 12184 71045 16/// /2210 11024 21067 39130 49981 56010 60001 333 10001 21153 70000 555 10020
AAXX 12184 71050 NIL
AAXX 12184 71051 NIL
AAXX 12184 71052 NIL
AAXX 12184 71066 12569 60000 11114 21141 39634 40061 56037 60001 86500 333 11107 21153 70000
AAXX 12184 71068 12974 82010 11090 21099 39422 40131 57031 60001 80002 333 11090 21153 70000
AAXX 12184 71069 16964 00807 11104 21111 39454 40180 58027 60001 333 11104 21167 70000
AAXX 12184 71076 16/// /1804 11088 21100 39726 40125 56034 60001 333 11080 21113 70000
AAXX 12184 71077 16/// /2008 11079 21099 39684 40239 58014 60001 333 11074 21110 70000
AAXX 12184 71079 11974 02207 11130 21164 39994 40288 58007 69901 70277 333 11130 21271 48003 79999 90941
AAXX 12184 71081 46964 02710 11282 21322 30088 40100 51004 6///1 333 11215 21295 7////
AAXX 12184 71082 NIL
AAXX 12184 71083 11559 82408 11210 21242 30086 40130 56018 69941 77177 885// 333 11193 21321 48053 70004 90983
AAXX 12184 71090 46664 82504 11183 21219 39998 40033 51004 6///1 333 11177 21239 7////
AAXX 12184 71091 460// /3019 11237 39865 40080 53013 6///1 333 7////
AAXX 12184 71092 46002 02910 11267 39382 40069 52009 6///1 333 11235 21272 7////
AAXX 12184 71093 460// /2624 11203 39521 40024 52007 6///1 333 11165 21209 7////
AAXX 12184 71094 46041 /3528 11160 39050 49950 53010 6///1 333 11145 21167 7////
AAXX 12184 71095 47520 82706 11215 21250 39968 40050 53009 6///1 745// 333 11193 21243 7////
AAXX 12184 71101 160// /2708 30160 55006 60001 333 70000
AAXX 12184 71104 12974 71604 11088 21095 39114 40256 57010 60001 85071 333 11053 21139 79999
AAXX 12184 71108 12983 60402 10028 21063 30187 40261 51009 60001 80004 333 10029 21012 70000
AAXX 12184 71109 12480 70000 10014 21017 30220 40247 55003 60001 83570 333 10024 20008 70000
AAXX 12184 71726 16/// /2104 11005 21018 39709 40259 50000 60001 333 11002 21055 70000
AAXX 12184 71727 12480 81003 11012 21030 30057 40259 55001 60001 885// 333 10020 21032 47018 70042
AAXX 12184 71728 11680 82214 10011 21019 30027 40252 55000 69901 77122 885// 333 10011 21070 48001 79999 90952
AAXX 12184 71730 12574 82412 10031 20001 39833 40263 58001 60001 885// 333 10031 21007 70000
AAXX 12184 71731 11458 82311 10020 20007 39813 40271 58004 60001 71022 885// 333 10021 21007 70000
AAXX 12184 71735 NIL
AAXX 12184 71738 11140 80000 10001 21004 39888 40245 50004 69901 76172 885// 333 10041 21001 44011 79999 90921
AAXX 12184 71739 42566 80000 11002 21015 39882 40252 51006 6//// 886// 333 10004 21039 4//// 7////
AAXX 12184 71749 16464 82403 11055 21071 30008 40263 50003 60001 333 11054 21140 70000
AAXX 12184 71799 12583 62505 10017 21024 30237 40262 50004 60001 81571 333 10017 21033 70000
AAXX 12184 71800 16/// /2419 10004 21021 30252 40286 56022 60001 333 10009 21055 70000
AAXX 12184 71801 11566 82415 11019 21061 30092 40270 58018 69901 78581 885// 333 11019 21066 79999 90915
AAXX 12184 71803 12474 72413 11020 21057 30041 40233 56028 60001 86530 333 11020 21100 79999
AAXX 12184 71807 NIL
AAXX 12184 71808 12574 33304 11130 21193 30178 40227 55008 60001 83500 333 11130 21170 44018 70000
AAXX 12184 71809 11459 62509 11010 21030 30197 40225 56015 60081 77188 86500 333 11007 21086 47012 70114 90973 93108
AAXX 12184 71810 16/// /3501 11033 21057 30173 40241 53002 60001 333 11028 21119 70009
AAXX 12184 71811 NIL
AAXX 12184 71813 NIL
AAXX 12184 71814 16/// /2903 11073 21106 30229 40239 55004 60001 333 11071 21161 70000
AAXX 12184 71815 11359 83011 10005 21013 30212 40243 55006 60011 78588 885// 333 10009 21076 44007 70046 90973 93101
AAXX 12184 71397 12574 22416 10087 20013 30265 40300 56015 60001 82500 333 10093 21079 70000
AAXX 12184 71400 16/48 /2305 11013 21023 60001 333 11013 21109 70000
AAXX 12184 71403 46/// /2423 10065 20034 30283 40303 56025 6///1 333 10066 21042 7////
AAXX 12184 71411 16/// /2315 10090 20039 30302 40315 56023 60001 333 10091 21061 70000
AAXX 12184 71412 16/// /2609 10049 21028 30270 40280 56007 60001 333 10050 21062 70003
AAXX 12184 71421 NIL
AAXX 12184 71430 16/// /2416 10056 20002 30206 40304 58009 60001 333 10057 20026 70000
AAXX 12184 71431 16/// /2612 10047 20002 30199 40296 56006 60001 333 10049 20026 70000
AAXX 12184 71432 NIL
AAXX 12184 71433 NIL
AAXX 12184 71435 NIL
AAXX 12184 71441 46/// /3511 11099 21124 39983 40305 51014 6///1 333 11070 21104 7////
AAXX 12184 71443 16/// /2107 11124 21144 39894 40327 50004 60001 333 11123 21127 70000 555 10010
AAXX 12184 71444 NIL
AAXX 12184 71447 NIL
AAXX 12184 71467 NIL
AAXX 12184 71472 NIL
AAXX 12184 71474 16964 01904 11104 21126 38987 40262 58011 60001 333 11061 21146 70000
AAXX 12184 71510 16/// /1806 11084 21104 39548 40279 58008 60001 333 11081 21100 70000
AAXX 12184 71538 12974 12204 10041 21066 30075 40311 58011 60001 80001 333 10044 21034 70000
AAXX 12184 71600 17564 82419 10052 21007 30332 40338 56018 69951 7//44 333 10056 21006 70005
AAXX 12184 71601 NIL
AAXX 12184 71603 12574 12313 10080 20034 30268 40322 56018 60001 81500 333 10083 21050 70000
AAXX 12184 71607 16/// /2404 10068 21043 30265 40298 56018 60001 333 10069 21089 70000
AAXX 12184 71609 12574 12608 10073 21033 30164 40300 56012 60001 81500 333 10074 21100 70000
AAXX 12184 71610 NIL
AAXX 12184 71621 12474 12211 10049 21002 30198 40306 55007 60001 81500 333 10058 21005 70000
AAXX 12184 71623 NIL
AAXX 12184 71624 12974 02510 10065 21045 30085 40301 58009 60001 333 10066 21022 70000
AAXX 12184 71625 16464 82005 10022 21038 30124 40289 5/006 60001 333 10022 21101 70000
AAXX 12184 71627 12983 02511 10051 21048 30249 40294 58017 60001 333 10052 21023 70000
AAXX 12184 71628 12974 02409 10056 21021 30149 40292 56014 60001 333 10056 21015 70000
AAXX 12184 71630 NIL
AAXX 12184 71631 NIL
AAXX 12184 71633 12474 72013 10030 20000 30015 40292 56005 60001 87500 333 10031 21026 70000
AAXX 12184 71705 12974 02316 10047 21049 30196 40285 57014 60001 333 10050 21082 70000
AAXX 12184 71706 12574 12710 10046 21044 30228 40290 56009 60001 81530 333 10047 21070 79999
AAXX 12184 71707 12674 72510 10030 21023 30209 40288 56010 60001 87500 333 10030 21074 79999
AAXX 12184 71709 11574 52713 10021 21023 30259 40273 53002 69921 70188 85500 333 10026 21061 41997 70010 90933
AAXX 12184 71711 NIL
AAXX 12184 71714 46/// /2605 10004 21033 30215 6///1 333 7////
AAXX 12184 71715 16/// /2107 10005 21038 30081 40266 53002 60001 333 10005 21061 70000
AAXX 12184 71718 11566 82210 10011 21024 30189 40256 55000 69921 78588 885// 333 10012 21101 47013 70002 90973
AAXX 12184 71719 NIL
AAXX 12184 43533 12462 30905 10278 20246 30107 40110 60001 81202 333 59005 81818 83077
AAXX 12184 43555 12470 70908 10278 20242 30104 40107 60001 83232 333 59003 83818 87077
AAXX 12184 43577 11468 31803 10276 20243 30101 40103 60001 71300 82942 333 59011 81818 81919
AAXX 12184 43588 12465 22303 10275 20251 30098 40100 60001 82201 333 59011 82818
AAXX 12184 43599 12465 72707 10275 20248 30096 40098 60001 82201 333 59014 82818
AAXX 12184 71350 16/// /2611 10043 21042 30212 40279 56010 60001 333 10043 21073 70000
AAXX 12184 71351 NIL
AAXX 12184 71352 16/// /2510 10014 21044 39836 40301 58008 60001 333 10014 21069 70007
AAXX 12184 71353 NIL
AAXX 12184 71354 NIL
AAXX 12184 71355 NIL
AAXX 12184 71356 NIL
AAXX 12184 71357 NIL
AAXX 12184 71358 16/// /2604 11184 21207 39997 40032 52005 60001 333 11176 21238 70000
AAXX 12184 71359 NIL
AAXX 12184 71360 NIL
AAXX 12184 71361 NIL
AAXX 12184 71362 NIL
AAXX 12184 71363 NIL
AAXX 12184 71364 NIL
AAXX 12184 71365 NIL
AAXX 12184 71368 15966 02412 10037 21055 39909 40308 58004 60001 333 10037 21057 70000
AAXX 12184 71369 15966 00709 11100 21115 39454 40181 58028 60001 333 11099 21161 70000
AAXX 12184 71370 46/// /1702 10015 21026 30146 40285 56009 6///1 333 10015 21067 7////
AAXX 12184 71371 15966 02412 10052 21036 30258 40293 56019 60001 333 10052 21026 70000
AAXX 12184 71372 NIL
AAXX 12184 71373 16/// /2103 10054 21101 60001 333 10056 21014 70000
AAXX 12184 71374 NIL
AAXX 12184 71375 NIL
AAXX 12184 71376 NIL
AAXX 12184 71377 16/// /2409 10046 21030 30240 40289 58016 60001 333 10046 21035 70000
AAXX 12184 71378 16/// /1804 10017 21029 30064 40277 56008 60001 333 10018 21062 70010
AAXX 12184 71379 16/// /3403 10007 21005 30061 40234 53004 60001 333 10015 21100 70000
AAXX 12184 71380 NIL
AAXX 12184 71381 NIL
AAXX 12184 71382 NIL
AAXX 12184 71383 NIL
AAXX 12184 71384 16/// /2608 10010 21033 30278 40286 56003 60001 333 10018 21051 70000
AAXX 12184 71385 NIL
AAXX 12184 71386 NIL
AAXX 12184 71387 NIL
AAXX 12184 71388 46/// /0702 11014 21022 30063 40255 55001 6///1 333 11014 21099 7////
AAXX 12184 71389 46/// /3302 10053 21021 6///1 333 10055 21090 7////
AAXX 12184 71390 NIL
AAXX 12184 71391 16/// ///// 10010 21031 60001 333 10010 21057 70000
AAXX 12184 71392 16/// /2505 10005 21037 60001 333 10005 21056 70000
AAXX 12184 71393 NIL
AAXX 12184 71395 12574 12211 10066 20011 30121 40304 56019 60001 81500 333 10066 21083 70000
AAXX 12184 71398 15566 83504 11063 21091 30267 40279 51009 60001 333 11063 21111 70000
AAXX 12184 71399 NIL
AAXX 12184 71150 NIL
AAXX 12184 71151 NIL
AAXX 12184 71152 47/// /2522 10014 21006 30238 40251 5/026 6///1 7//4/ 333 7////
AAXX 12184 71153 17/// /1605 11138 21162 69931 7//4/ 333 11053 21166 70053
AAXX 12184 71154 17/// /0302 11115 21152 69981 7//4/ 333 11054 21182 70054
AAXX 12184 71155 NIL
AAXX 12184 71156 NIL
AAXX 12184 71157 NIL
AAXX 12184 71158 NIL
AAXX 12184 71159 NIL
AAXX 12184 71160 NIL
AAXX 12184 71161 16/// /2109 10051 21026 30141 40292 56014 60001 333 10053 21012 70000
AAXX 12184 71162 NIL
AAXX 12184 71163 46/// /1908 11082 21089 39541 49880 56051 6///1 333 11082 21167 7////
AAXX 12184 71164 NIL
AAXX 12184 71165 NIL
AAXX 12184 71166 NIL
AAXX 12184 71167 15966 02603 11163 21182 39082 40228 58017 60001 333 11136 21218 70000
AAXX 12184 71168 16/// /2104 10032 20019 39626 40212 51018 60001 333 10035 21013 70000
AAXX 12184 71170 NIL
AAXX 12184 71171 46/// /2509 10064 21029 30200 40298 58008 6///1 333 10066 21022 7////
AAXX 12184 71172 16/// ///// 10036 20013 30055 40275 57006 60001 333 10038 20011 70000
AAXX 12184 71175 NIL
AAXX 12184 71176 460// /2829 11129 39368 40060 50022 6///1 333 11122 21147 7////
AAXX 12184 71177 460// /3220 11181 39046 40078 53016 6///1 333 11162 21211 7////
AAXX 12184 71178 46/// /2221 11028 21055 30204 40237 5/024 6///1 333 11027 21066 7////
AAXX 12184 71179 460// /2526 11179 39262 40121 50002 6///1 333 11172 21243 7////
AAXX 12184 71180 17/// /2823 10015 21013 30227 40267 55008 69981 7//4/ 333 10016 21051 70014
AAXX 12184 71181 17322 82414 11007 21028 30215 40252 58018 60001 745// 333 10005 21043 70000
AAXX 12184 71183 16/// /2411 30250 58017 60001 333 70000
AAXX 12184 71184 46/// /2410 10047 21026 6///1 333 10047 21043 7////
AAXX 12184 71186 NIL
AAXX 12184 71187 15966 01111 11002 21061 30232 40281 50003 60001 333 10008 21017 70000
AAXX 12184 71189 NIL
AAXX 12184 71190 NIL
AAXX 12184 71191 16/// ///// 10078 21030 60001 333 10088 21069 70004
AAXX 12184 71192 15966 01609 11070 21074 39572 40252 58014 60001 333 11045 21132 70000
AAXX 12184 71193 NIL
AAXX 12184 71196 NIL
AAXX 12184 71197 17564 62827 10016 21016 30209 40259 55012 69951 7//44 333 10018 21055 70010
AAXX 12184 71198 46/// /2309 10032 21042 6///1 333 10033 21007 7////
AAXX 12184 71199 46/// /1503 11055 21081 39175 40018 55012 6///1 333 11012 21223 7////
AAXX 12184 71263 12974 02413 10047 21048 30013 40308 58009 60001 333 10049 21048 70000
AAXX 12184 71201 16/// ///// 10045 21037 60001 333 10051 21011 70000
AAXX 12184 71202 17/// ///// 11080 21097 60011 7//4/ 333 11066 21112 70011
AAXX 12184 71203 15666 82403 11033 21063 39758 40293 53009 60001 333 11016 21079 70000
AAXX 12184 71209 46/// /3606 10039 6///1 333 10051 20034 7////
AAXX 12184 71211 46/// /0325 10019 21044 30239 40251 50004 6///1 333 10039 20017 7////
AAXX 12184 71212 16/// /2205 11025 21039 39445 40266 55003 60001 333 11019 21092 70000
AAXX 12184 71213 46/// /2209 10015 20006 39942 40246 58003 6///1 333 10020 21023 7////
AAXX 12184 71214 NIL
AAXX 12184 71215 NIL
AAXX 12184 71216 16/// /1202 11034 21071 39648 40280 53008 60001 333 11008 21065 70000 555 10010
AAXX 12184 71217 NIL
AAXX 12184 71218 16/// /1902 11060 21075 39856 40299 53005 60001 333 11055 21092 70000
AAXX 12184 71219 46/// /1424 10045 20020 30163 40169 56017 6///1 333 10045 20016 7////
AAXX 12184 71220 46/// /1431 10033 20019 6///1 333 10035 20013 7////
AAXX 12184 71221 NIL
AAXX 12184 71222 16/// /2601 11105 21116 39108 40091 56013 60001 333 11083 21162 70000
AAXX 12184 71223 NIL
AAXX 12184 71224 NIL
AAXX 12184 71225 NIL
AAXX 12184 71226 NIL
AAXX 12184 71227 NIL
AAXX 12184 71228 NIL
AAXX 12184 71229 NIL
AAXX 12184 71230 16/// /0000 11061 21120 39231 40142 56023 60001 333 11058 21122 70000
AAXX 12184 71231 17/// /2201 11049 21071 69971 7//4/ 333 11048 21071 70029
AAXX 12184 71232 16/// /2409 11107 21138 38687 40241 58008 60001 333 11093 21176 70018
AAXX 12184 71233 16/// /1906 11106 21125 60001 333 11072 21131 70000
AAXX 12184 71234 17/// /1403 11128 21141 39028 40258 58012 69931 7//4/ 333 11052 21130 70043 555 10060
AAXX 12184 71235 16/// /2103 11088 21104 60001 333 11065 21098 70014
AAXX 12184 71236 46/// /0000 11085 21116 6///1 333 11053 21166 7////
AAXX 12184 71237 46/// /1604 11081 21090 39412 40252 56006 6///1 333 11058 21138 7////
AAXX 12184 71238 16/// /1806 11053 21081 60001 333 11052 21100 70000
AAXX 12184 71239 16/// /0307 11109 21136 39842 40327 51011 60001 333 11064 21123 70000
AAXX 12184 71240 16/// /0000 11073 21097 39404 40279 58001 60001 333 11071 21080 70000
AAXX 12184 71241 NIL
AAXX 12184 71242 16/// /1705 11097 21110 60001 333 11070 21166 70000
AAXX 12184 71243 NIL
AAXX 12184 71244 16/// /2906 11104 21117 38992 40258 56002 60001 333 11053 21105 70024 555 10050
AAXX 12184 71245 NIL
AAXX 12184 71246 NIL
AAXX 12184 71247 17548 83501 11060 21071 39388 40266 56003 60011 7714/ 333 11045 21062 70024
AAXX 12184 71248 16/// /0000 11140 21164 38883 40231 56014 60001 333 11068 21243 70016 555 10020
AAXX 12184 71249 NIL
AAXX 12184 71744 NIL
AAXX 12184 71750 16/// /0505 11026 21037 30004 40243 50003 60001 333 11026 21067 70000
AAXX 12184 71751 NIL
AAXX 12184 71752 NIL
AAXX 12184 71753 16/// /2309 10069 20007 30259 40289 56021 60001 333 10070 21098 70000
AAXX 12184 71754 16/// /1405 11097 21113 39602 40294 56006 60001 333 11096 21136 70000
AAXX 12184 71755 43/// /2302 11152 21168 39945 40307 50002 6///1 333 21205 7////
AAXX 12184 71756 16/// /2801 11062 21111 39133 40253 50000 60001 333 11054 21083 70000
AAXX 12184 71758 NIL
AAXX 12184 71760 NIL
AAXX 12184 71761 NIL
AAXX 12184 71762 NIL
AAXX 12184 71763 NIL
AAXX 12184 71765 16/// /0000 11059 21067 30018 40301 53005 60001 333 11006 21071 70000
AAXX 12184 71766 16/// /0000 11014 21028 30180 40253 58002 60001 333 10008 21042 70000
AAXX 12184 71767 16/// /2207 10035 20016 30019 40284 58004 60001 333 10042 20021 70000
AAXX 12184 71768 46/// /2703 11003 21105 39724 40282 53006 6///1 333 10013 21032 7////
AAXX 12184 71769 16/// /2203 10022 21014 30229 40245 58001 60001 333 10037 20014 70000
AAXX 12184 71770 16/// /0903 11011 21066 39475 40264 51010 60001 333 11007 21042 70000
AAXX 12184 71771 NIL
AAXX 12184 71772 16/// /2704 10030 20000 30242 40248 50001 60001 333 10049 20023 70000
AAXX 12184 71773 16/// /1608 11012 21046 39107 49949 53006 60001 333 10004 21077 70000
AAXX 12184 71774 46/// ///// 10008 6///1 333 10011 21017 7////
AAXX 12184 71775 46/// /1001 11010 21020 30258 40264 50005 6///1 333 11008 21067 7////
AAXX 12184 71776 46/// /2403 11017 21060 39611 40267 51011 6///1 333 11016 21042 7////
AAXX 12184 71777 16/// ///// 11104 21114 30033 40296 50000 60001 333 11100 21136 70000
AAXX 12184 71778 46/// /0408 6///1 333 7////
AAXX 12184 71779 16/// /1506 11071 21080 39569 40248 58014 60001 333 11045 21136 70000 555 10010
AAXX 12184 71780 16/// /0807 10048 21049 30230 40258 58001 60001 333 10051 20002 70000
AAXX 12184 71781 46/// /1104 10027 20001 30223 40248 58002 6///1 333 10043 20025 7////
AAXX 12184 71782 46/// /0000 11144 21156 38904 40277 58002 6///1 333 11050 21164 7////
AAXX 12184 71783 16/// /3203 10032 21020 30180 40255 50000 60001 333 10033 21022 70002
AAXX 12184 71784 16/// /2601 10020 21031 30040 40248 50002 60001 333 10020 21018 70000
AAXX 12184 71785 16/// /0602 10029 21050 30249 40265 50006 60001 333 10030 21034 70000
AAXX 12184 71786 46/// /0601 11219 21243 38389 40304 56004 6///1 333 11121 21226 7////
AAXX 12184 71787 16/// /2609 10040 21049 39791 40288 56010 60001 333 10041 21096 70000
AAXX 12184 71788 NIL
AAXX 12184 71789 NIL
AAXX 12184 71791 NIL
AAXX 12184 71792 NIL
AAXX 12184 71793 NIL
AAXX 12184 71794 NIL
AAXX 12184 71795 NIL
AAXX 12184 71796 NIL
AAXX 12184 71797 NIL
AAXX 12184 71603 12574 12313 10080 20034 30268 40322 56018 60001 81500 333 10083 21050 70000
AAXX 12184 71607 16/// /2404 10068 21043 30265 40298 56018 60001 333 10069 21089 70000
AAXX 12184 71609 12574 12608 10073 21033 30164 40300 56012 60001 81500 333 10074 21100 70000
AAXX 12184 71610 NIL
AAXX 12184 71621 12474 12211 10049 21002 30198 40306 55007 60001 81500 333 10058 21005 70000
AAXX 12184 71623 NIL
AAXX 12184 71624 12974 02510 10065 21045 30085 40301 58009 60001 333 10066 21022 70000
AAXX 12184 71625 16464 82005 10022 21038 30124 40289 5/006 60001 333 10022 21101 70000
AAXX 12184 71627 12983 02511 10051 21048 30249 40294 58017 60001 333 10052 21023 70000
AAXX 12184 71628 12974 02409 10056 21021 30149 40292 56014 60001 333 10056 21015 70000
AAXX 12184 71630 NIL
AAXX 12184 71631 NIL
AAXX 12184 71633 12474 72013 10030 20000 30015 40292 56005 60001 87500 333 10031 21026 70000
AAXX 12184 71705 12974 02316 10047 21049 30196 40285 57014 60001 333 10050 21082 70000
AAXX 12184 71706 12574 12710 10046 21044 30228 40290 56009 60001 81530 333 10047 21070 79999
AAXX 12184 71707 12674 72510 10030 21023 30209 40288 56010 60001 87500 333 10030 21074 79999
AAXX 12184 71709 11574 52713 10021 21023 30259 40273 53002 69921 70188 85500 333 10026 21061 41997 70010 90933
AAXX 12184 71711 NIL
AAXX 12184 71714 46/// /2605 10004 21033 30215 6///1 333 7////
AAXX 12184 71715 16/// /2107 10005 21038 30081 40266 53002 60001 333 10005 21061 70000
AAXX 12184 71718 11566 82210 10011 21024 30189 40256 55000 69921 78588 885// 333 10012 21101 47013 70002 90973
AAXX 12184 71719 NIL
AAXX 12184 71950 15766 81304 11070 21084 39551 40195 55016 60001 333 11051 21072 70000
AAXX 12184 71952 16/// /0802 11075 21083 39323 40192 55015 60001 333 11065 21099 70000
AAXX 12184 71954 NIL
AAXX 12184 71956 NIL
AAXX 12184 71959 NIL
AAXX 12184 71960 460// /0528 11172 39764 49896 56009 6///1 333 11158 21209 7////
AAXX 12184 71962 16/// /0406 11046 21081 39831 40266 51012 60001 333 11046 21115 70000
AAXX 12184 71963 NIL
AAXX 12184 71967 NIL
AAXX 12184 71970 NIL
AAXX 12184 71971 NIL
AAXX 12184 71972 460// ///// 11133 39555 40022 55009 6///1 333 11118 21134 7////
AAXX 12184 71973 46/// /2608 11015 21025 30044 40236 55004 6///1 333 11012 21086 7////
AAXX 12184 71974 NIL
AAXX 12184 71975 460// /2723 11171 39271 40006 53012 6///1 333 11160 21171 7////
AAXX 12184 71976 NIL
AAXX 12184 71977 NIL
AAXX 12184 71978 NIL
AAXX 12184 71979 NIL
AAXX 12184 71980 NIL
AAXX 12184 71981 NIL
AAXX 12184 71982 NIL
AAXX 12184 71983 NIL
AAXX 12184 71984 16/// /0615 11169 21186 39856 49864 58017 60001 333 11094 21182 70000
AAXX 12184 71985 NIL
AAXX 12184 71986 NIL
AAXX 12184 71987 16/// /2516 10021 21029 30259 40269 55004 60001 333 10025 21063 70000
AAXX 12184 71988 16/// /2310 10091 20033 30298 40318 56016 60001 333 10096 21014 70000
AAXX 12184 71989 16/// /3507 11343 21379 30027 40044 50000 60001 333 11336 21395 70000
AAXX 12184 71990 NIL
AAXX 12184 71999 46/// ///// 11042 6///1 333 11010 21084 7////
AAXX 12184 71500 NIL
AAXX 12184 71501 NIL
AAXX 12184 71502 NIL
AAXX 12184 71503 NIL
AAXX 12184 71504 NIL
AAXX 12184 71505 16/// /1209 10016 21114 39211 49918 53027 60001 333 10030 21132 7////
AAXX 12184 71506 NIL
AAXX 12184 71507 16/// /1914 11073 21099 60001 333 11073 21146 70000
AAXX 12184 71508 16/// ///// 10062 21019 30164 40304 58010 60001 333 10063 20004 70000
AAXX 12184 71509 NIL
AAXX 12184 71511 NIL
AAXX 12184 71512 NIL
AAXX 12184 71513 15466 60303 11086 21110 30233 40249 53003 60001 333 11083 21190 70000
AAXX 12184 71514 NIL
AAXX 12184 71515 16/// /1206 11071 21074 39569 40294 58002 60001 333 11070 21084 70000
AAXX 12184 71516 16/// /1504 11064 21077 60001 333 11049 21069 70000
AAXX 12184 71517 NIL
AAXX 12184 71518 NIL
AAXX 12184 71519 NIL
AAXX 12184 71520 NIL
AAXX 12184 71521 NIL
AAXX 12184 71522 NIL
AAXX 12184 71523 NIL
AAXX 12184 71524 16/// /2408 10037 21034 30273 40300 56016 60001 333 10038 21023 70010
AAXX 12184 71525 NIL
AAXX 12184 71526 NIL
AAXX 12184 71527 15366 80306 11087 21098 39763 40289 50010 60001 333 11087 21128 70000
AAXX 12184 71528 NIL
AAXX 12184 71529 46/// /1814 11080 21113 39752 49978 58057 6///1 333 11068 21100 7////
AAXX 12184 71532 15466 82405 10020 21002 39941 40294 58007 60001 333 10020 21111 70000
AAXX 12184 71534 16964 01604 10058 21027 30016 40292 5/007 60001 333 10058 21035 70000
AAXX 12184 71535 NIL
AAXX 12184 71536 NIL
AAXX 12184 71537 NIL
AAXX 12184 71539 NIL
AAXX 12184 71540 NIL
AAXX 12184 71541 NIL
AAXX 12184 71542 16/// /0503 11152 21167 60001 333 11152 21192 70000
AAXX 12184 71543 NIL
AAXX 12184 71544 NIL
AAXX 12184 71545 16/// ///// 11071 21087 60001 333 11065 21100 70004
AAXX 12184 71546 NIL
AAXX 12184 71547 NIL
AAXX 12184 71548 NIL
AAXX 12184 71549 NIL
AAXX 12184 71051 NIL
AAXX 12184 71055 NIL
AAXX 12184 71057 NIL
AAXX 12184 71059 460// ///// 11183 39788 49878 55008 6///1 333 11095 21190 7////
AAXX 12184 71061 16/// /1805 11101 21110 39394 40211 58019 60001 333 11088 21169 70000
AAXX 12184 71062 46/// /2106 11116 21133 39090 40196 56016 6///1 333 11086 21131 7////
AAXX 12184 71064 460// /1306 11207 39697 49916 57047 6///1 333 11207 21301 7////
AAXX 12184 71065 NIL
AAXX 12184 71067 NIL
AAXX 12184 71070 NIL
AAXX 12184 71073 NIL
AAXX 12184 71074 NIL
AAXX 12184 71075 16/// /2112 11091 21102 39570 40192 56018 60001 333 11091 21147 70000
AAXX 12184 71078 17356 82208 11113 21126 39791 40250 58012 60001 771// 333 11110 21131 70000
AAXX 12184 71084 460// ///// 11213 39959 40008 58039 6///1 333 11213 21298 7////
AAXX 12184 71085 15966 02605 11120 21129 38833 40260 58009 60001 333 11053 21123 70049
AAXX 12184 71087 NIL
AAXX 12184 71088 460// /2810 11235 53004 6///1 333 11172 21236 7////
AAXX 12184 71089 NIL
AAXX 12184 71096 460// ///// 11201 39278 40020 53010 6///1 333 11161 21203 7////
AAXX 12184 71097 47664 30113 11149 39557 40037 53012 6///1 745// 333 11147 21150 7////
AAXX 12184 71098 43/// /0000 11155 21188 39938 40318 50004 6///1 333 11154 21231 7////
AAXX 12184 71099 43/// /2607 11150 21199 30255 40276 51007 6///1 333 11150 21233 7////
AAXX 12184 71893 11480 70000 11013 21046 30226 40258 50000 60001 71411 81832 333 10016 21037 70000
AAXX 12184 71894 16/// /0606 10004 21002 30241 40250 53002 60001 333 10012 21010 70002
AAXX 12184 71896 15966 81806 11072 21077 39373 40229 56021 60001 333 11072 21141 70000
AAXX 12184 71897 11262 81415 10029 20016 3//// 4//// 57010 60011 76152 887XX 333 10030 20019 70012 90999
AAXX 12184 71898 NIL
AAXX 12184 71899 11359 82811 10056 20056 3//// 4//// 51002 60051 70262 887XX 333 10060 20026 70114 90923
AAXX 12184 71902 12474 22916 11120 21169 30153 40162 51016 60001 82530 333 11110 21175 70000
AAXX 12184 71905 NIL
AAXX 12184 71906 12774 12410 11133 21181 30150 40202 52015 60001 81500 333 11132 21186 79999
AAXX 12184 71907 17564 82603 11109 21140 30178 40212 51003 60001 745// 333 11108 21249 70010
AAXX 12184 71909 16964 03312 11185 21229 30072 40117 53012 60001 333 11155 21187 70005
AAXX 12184 71910 47416 90505 11164 21175 30063 40127 50002 6///1 745// 333 11143 21190 7////
AAXX 12184 71911 46964 01410 11324 30018 40077 56018 6///1 333 11236 21328 7////
AAXX 12184 71912 11574 62110 11153 21181 30085 40278 58006 69901 72211 86500 333 11152 21248 47011 79999 90911
AAXX 12184 71915 11374 83404 11277 21320 30060 40145 57002 69901 77177 885// 333 11248 21336 48043 79999 90983
AAXX 12184 71917 11974 10000 11402 21441 30027 40042 55001 69901 77677 81078 333 11387 21415 47013 79999 90983
AAXX 12184 71922 11474 82005 11110 21120 39788 40273 57010 69901 77177 885// 333 11104 21156 47027 79999 90983
AAXX 12184 71924 NIL
AAXX 12184 71925 11206 81721 11202 21236 39895 49937 57055 69901 77173 885// 333 11202 21320 42018 79999 90983
AAXX 12184 71926 11462 81205 11208 21256 30077 40102 56010 69921 77177 885// 333 11208 21293 48041 70002 90947
AAXX 12184 71928 NIL
AAXX 12184 71812 46664 62311 11185 21216 30134 40148 56016 6///1 333 21302 7////
AAXX 12184 71819 15966 02712 11122 21161 30172 40215 56001 60001 333 11117 21160 70003
AAXX 12184 71820 16/// /2013 10055 21010 30187 40303 56011 60001 333 10059 20016 70000
AAXX 12184 71823 16364 60000 11169 21192 39879 40284 51007 60001 333 11168 21275 70000
AAXX 12184 71824 NIL
AAXX 12184 71826 16/// /1406 11144 21174 39999 40042 52021 60001 333 11130 21150 70000
AAXX 12184 71829 16/// /2308 11001 21025 30076 40241 55002 60001 333 11001 21141 70009
AAXX 12184 71833 NIL
AAXX 12184 71835 16/// /0102 11127 21140 39799 40299 50009 60001 333 11092 21150 70000
AAXX 12184 71837 NIL
AAXX 12184 71839 NIL
AAXX 12184 71840 46/// /3409 11096 21118 6///1 333 11073 21116 7////
AAXX 12184 71846 16/// /2303 11126 21158 39973 40303 50005 60001 333 11123 21241 70005
AAXX 12184 71847 NIL
AAXX 12184 71848 NIL
AAXX 12184 71849 NIL
AAXX 12184 71001 NIL
AAXX 12184 71002 NIL
AAXX 12184 71003 NIL
AAXX 12184 71005 16/// ///// 11070 21099 60001 333 11070 21111 70000
AAXX 12184 71006 NIL
AAXX 12184 71007 NIL
AAXX 12184 71008 NIL
AAXX 12184 71009 NIL
AAXX 12184 71010 NIL
AAXX 12184 71011 NIL
AAXX 12184 71012 NIL
AAXX 12184 71013 NIL
AAXX 12184 71014 NIL
AAXX 12184 71015 NIL
AAXX 12184 71016 NIL
AAXX 12184 71017 NIL
AAXX 12184 71018 NIL
AAXX 12184 71019 NIL
AAXX 12184 71020 NIL
AAXX 12184 71021 NIL
AAXX 12184 71022 17566 81414 10020 20010 30125 40169 56018 60101 76144 333 10023 21007 70100
AAXX 12184 71023 16464 62111 11077 21085 39439 40230 58020 60001 333 11077 21104 70000
AAXX 12184 71024 16/// /1002 11124 21131 60001 333 11124 21181 70000
AAXX 12184 71026 NIL
AAXX 12184 71027 17/// /2604 10034 21023 30264 40274 55000 69981 7//4/ 333 10037 21054 70008
AAXX 12184 71028 16/// /3403 11130 21142 39189 40271 58023 60001 333 11128 21168 70000
AAXX 12184 71029 16/// /0408 11188 21207 39851 49890 58017 60001 333 11183 21288 70000
AAXX 12184 71030 17/64 /2409 10086 20027 30201 40292 56015 69961 7//4/ 333 10088 21082 70006
AAXX 12184 71032 46/// /0104 11059 21108 39434 40289 51008 6///1 333 11032 21073 7////
AAXX 12184 71033 46/// /2210 11090 21101 39566 40214 58014 6///1 333 11090 21136 7//// 555 10010
AAXX 12184 71035 NIL
AAXX 12184 71036 17464 13502 11112 21140 39941 40334 50004 60001 771// 333 11094 21121 70000
AAXX 12184 71039 NIL
AAXX 12184 71040 46/// /2509 10020 21021 30047 40249 55001 6///1 333 10020 21101 7////
AAXX 12184 71041 15566 82512 10040 21004 30150 40296 56016 60001 333 10051 21084 70000
AAXX 12184 71042 16/// /1001 11012 21017 30250 40254 50003 60001 333 11012 21090 70000
AAXX 12184 71044 17/// /0514 11120 21146 39560 49877 53033 69931 7//4/ 333 11075 21203 70006
AAXX 12184 71046 460// /0713 11138 39927 49944 53014 6///1 333 11135 21197 7////
AAXX 12184 71047 16/// ///// 11075 21096 60001 333 11075 21135 70000
AAXX 12184 71048 NIL
AAXX 12184 71049 NIL
AAXX 12184 71060 NIL
AAXX 12184 71063 NIL
AAXX 12184 71604 17/// /2917 11009 21024 69961 7//4/ 333 11005 21086 70013
AAXX 12184 71605 16/// /0303 10034 21069 30097 40249 50001 60001 333 10034 21009 70000
AAXX 12184 71611 NIL
AAXX 12184 71612 17/// /2804 10052 21043 30203 40296 58017 60011 7//4/ 333 10052 21015 70010
AAXX 12184 71614 16/// /2705 10054 21050 30221 40288 56015 60001 333 10057 21082 70000
AAXX 12184 71616 16/// /2407 10034 21034 30179 40302 56012 60001 333 10035 21035 70000
AAXX 12184 71617 16/// /2506 10017 21017 30089 40259 55001 60001 333 10018 21105 70030
AAXX 12184 71618 15966 32313 11157 21178 30165 40205 56017 60001 333 11157 21265 70000
AAXX 12184 71619 16/// /2903 11009 21045 30207 40266 55002 60001 333 11009 21112 70000
AAXX 12184 71622 NIL
AAXX 12184 71632 46/// /2208 11115 21130 39793 40248 58012 6///1 333 11110 21134 7////
AAXX 12184 71634 16/// /2304 10014 21020 30119 40276 55004 60001 333 10015 21119 70000
AAXX 12184 71638 16/// /3204 10014 21050 30142 40250 50000 60001 333 10015 21041 70000
AAXX 12184 71639 12974 02407 10059 21058 30053 40300 58010 60001 333 10060 21026 70000
AAXX 12184 71642 11256 82204 10006 20006 39695 40248 50000 69901 77162 885// 333 10006 21035 47020 79999 90931
AAXX 12184 71851 NIL
AAXX 12184 71857 NIL
AAXX 12184 71860 12483 23103 11146 21167 38807 40256 57008 60001 81570 333 11054 21168 48013 70038
AAXX 12184 71876 15466 81407 11086 21093 39605 40296 56006 60001 333 11086 21122 70000
AAXX 12184 71885 NIL
AAXX 12184 71888 NIL
AAXX 12184 71895 NIL
AAXX 12184 71043 11786 72706 11101 21128 39714 49806 55021 69901 70272 86570 333 11077 21221 48019 79999 90941
AAXX 12184 71045 16/// /2210 11024 21067 39130 49981 56010 60001 333 10001 21153 70000 555 10020
AAXX 12184 71050 NIL
AAXX 12184 71051 NIL
AAXX 12184 71052 NIL
AAXX 12184 71066 12569 60000 11114 21141 39634 40061 56037 60001 86500 333 11107 21153 70000
AAXX 12184 71068 12974 82010 11090 21099 39422 40131 57031 60001 80002 333 11090 21153 70000
AAXX 12184 71069 16964 00807 11104 21111 39454 40180 58027 60001 333 11104 21167 70000
AAXX 12184 71076 16/// /1804 11088 21100 39726 40125 56034 60001 333 11080 21113 70000
AAXX 12184 71077 16/// /2008 11079 21099 39684 40239 58014 60001 333 11074 21110 70000
AAXX 12184 71079 11974 02207 11130 21164 39994 40288 58007 69901 70277 333 11130 21271 48003 79999 90941
AAXX 12184 71081 46964 02710 11282 21322 30088 40100 51004 6///1 333 11215 21295 7////
AAXX 12184 71082 NIL
AAXX 12184 71083 11559 82408 11210 21242 30086 40130 56018 69941 77177 885// 333 11193 21321 48053 70004 90983
AAXX 12184 71090 46664 82504 11183 21219 39998 40033 51004 6///1 333 11177 21239 7////
AAXX 12184 71091 460// /3019 11237 39865 40080 53013 6///1 333 7////
AAXX 12184 71092 46002 02910 11267 39382 40069 52009 6///1 333 11235 21272 7////
AAXX 12184 71093 460// /2624 11203 39521 40024 52007 6///1 333 11165 21209 7////
AAXX 12184 71094 46041 /3528 11160 39050 49950 53010 6///1 333 11145 21167 7////
AAXX 12184 71095 47520 82706 11215 21250 39968 40050 53009 6///1 745// 333 11193 21243 7////
AAXX 12184 71101 160// /2708 30160 55006 60001 333 70000
AAXX 12184 71104 12974 71604 11088 21095 39114 40256 57010 60001 85071 333 11053 21139 79999
AAXX 12184 71108 12983 60402 10028 21063 30187 40261 51009 60001 80004 333 10029 21012 70000
AAXX 12184 71109 12480 70000 10014 21017 30220 40247 55003 60001 83570 333 10024 20008 70000
AAXX 12184 71450 NIL
AAXX 12184 71451 16/// /2203 11101 21121 39814 40255 56013 60001 333 11098 21148 70000
AAXX 12184 71452 46/// /1509 11053 21067 39559 40292 50001 6///1 333 11052 21066 7////
AAXX 12184 71453 NIL
AAXX 12184 71454 16/// /1906 11123 21145 39565 40284 58006 60001 333 11120 21140 70000
AAXX 12184 71455 46/// /1406 11083 21086 39462 40287 58002 6///1 333 11083 21091 7////
AAXX 12184 71456 16/// /2305 11105 21114 39682 40304 58006 60001 333 11105 21134 70000
AAXX 12184 71457 16/// /1902 11137 21148 39339 40261 57006 60001 333 11058 21172 70026 555 10050
AAXX 12184 71458 16/// /1810 11065 21087 39444 40237 58014 60001 333 11064 21108 70000
AAXX 12184 71459 16/// /1206 11076 21097 39441 40275 55003 60001 333 11061 21086 70000
AAXX 12184 71460 16/// /2509 10046 20023 30031 40275 58002 60001 333 10051 20021 70000
AAXX 12184 71461 NIL
AAXX 12184 71462 NIL
AAXX 12184 71463 NIL
AAXX 12184 71464 NIL
AAXX 12184 71465 NIL
AAXX 12184 71466 NIL
AAXX 12184 71468 NIL
AAXX 12184 71470 NIL
AAXX 12184 71471 15966 83003 11007 21106 39326 40131 56013 60001 333 11007 21160 70000
AAXX 12184 71473 16/// /0506 10026 21061 30227 40258 51008 60001 333 10026 20007 70000
AAXX 12184 71475 16/// /3103 11021 21025 30172 40268 58003 60001 333 11008 21027 70000
AAXX 12184 71476 NIL
AAXX 12184 71477 17/// /1911 10045 20038 60071 7//4/ 333 10048 20011 70110
AAXX 12184 71478 NIL
AAXX 12184 71479 NIL
AAXX 12184 71480 NIL
AAXX 12184 71481 NIL
AAXX 12184 71482 NIL
AAXX 12184 71483 NIL
AAXX 12184 71484 NIL
AAXX 12184 71485 16/// /1114 10027 20009 30220 40241 55000 60001 333 10035 20023 70000
AAXX 12184 71486 16/// /1903 11161 21182 39029 40292 58005 60001 333 11147 21209 70000
AAXX 12184 71487 NIL
AAXX 12184 71489 NIL
AAXX 12184 71490 NIL
AAXX 12184 71491 17/// /11// 11104 21116 60021 7//4/ 333 10066 21223 70018
AAXX 12184 71492 NIL
AAXX 12184 71493 16/// /2510 10076 20037 30248 40287 56014 60001 333 10078 21098 70000
AAXX 12184 71494 16/// /2410 10011 21045 39757 40290 56013 60001 333 10011 21082 70000
AAXX 12184 71495 NIL
AAXX 12184 71496 16/// /2106 11094 21104 39662 40297 51001 60001 333 11088 21108 70000
AAXX 12184 71497 46/// /2307 11079 21113 39716 49980 56019 6///1 333 11045 21177 7////
AAXX 12184 71498 NIL
AAXX 12184 71499 17366 82314 11086 21098 39564 40210 58016 60001 771// 333 11085 21128 70000
AAXX 12184 71300 NIL
AAXX 12184 71301 16/// ///// 10004 20001 39838 40243 58001 60001 333 10004 21071 70000
AAXX 12184 71302 16/// /1804 11067 21071 39383 40223 56022 60001 333 11067 21138 70000
AAXX 12184 71303 NIL
AAXX 12184 71305 15966 01912 11080 21092 39803 40107 57033 60001 333 11080 21122 70000
AAXX 12184 71306 17566 82610 11090 21128 30177 40210 51003 60001 771// 333 11092 21216 70000
AAXX 12184 71307 17/// /2605 10046 21054 30057 40314 58015 69931 7//4/ 333 10046 21054 70003
AAXX 12184 71308 16/// /2608 10045 20004 30213 40299 55015 60001 333 10047 21073 70000
AAXX 12184 71309 NIL
AAXX 12184 71310 16/// /2512 10043 21045 30244 40282 56007 60001 333 10045 21081 70000
AAXX 12184 71311 NIL
AAXX 12184 71312 16/// /2108 11118 21132 39826 40304 58006 60001 333 11114 21139 70000
AAXX 12184 71314 NIL
AAXX 12184 71315 NIL
AAXX 12184 71316 16/// /1710 11072 21094 39513 40216 58021 60001 333 11072 21107 70000
AAXX 12184 71317 NIL
AAXX 12184 71318 16/// /1812 11066 21091 39284 40257 55005 60001 333 11065 21072 70000 555 10030
AAXX 12184 71319 NIL
AAXX 12184 71320 NIL
AAXX 12184 71321 NIL
AAXX 12184 71322 16/// /2410 11187 21206 30135 40148 56016 60001 333 11186 21300 70030
AAXX 12184 71323 NIL
AAXX 12184 71331 16/// /2003 11145 21166 60001 333 11135 21206 70000
AAXX 12184 71332 NIL
AAXX 12184 71334 46/// /2407 11128 21157 39871 40214 56005 6///1 333 11128 21251 7////
AAXX 12184 71335 46964 02932 11119 51012 6///1 333 11118 21159 7////
AAXX 12184 71336 46/// ///19 11016 21037 30211 40234 58023 6///1 333 11016 21053 7////
AAXX 12184 71337 46/// /2104 11044 21065 39965 40210 56016 6///1 333 11044 21125 7////
AAXX 12184 71338 46964 00509 11178 21195 30024 40031 53010 6///1 333 11096 21183 7////
AAXX 12184 71339 17964 02815 11110 21208 30174 40189 55007 69951 7//44 333 11110 21182 70005
AAXX 12184 71340 NIL
AAXX 12184 71341 NIL
AAXX 12184 71342 NIL
AAXX 12184 71343 NIL
AAXX 12184 71344 NIL
AAXX 12184 71345 NIL
AAXX 12184 71346 NIL
AAXX 12184 71347 NIL
AAXX 12184 71348 NIL
AAXX 12184 71349 NIL
AAXX 12184 43533 12462 30905 10278 20246 30107 40110 60001 81202 333 59005 81818 83077
AAXX 12184 43555 12470 70908 10278 20242 30104 40107 60001 83232 333 59003 83818 87077
AAXX 12184 43577 11468 31803 10276 20243 30101 40103 60001 71300 82942 333 59011 81818 81919
AAXX 12184 43588 12465 22303 10275 20251 30098 40100 60001 82201 333 59011 82818
AAXX 12184 43599 12465 72707 10275 20248 30096 40098 60001 82201 333 59014 82818
AAXX 12184 71864 NIL
AAXX 12184 71865 16/// /1405 11085 21098 39594 40301 58002 60001 333 11084 21112 70000
AAXX 12184 71866 47248 82006 11095 21113 39665 40302 51001 6///1 745// 333 11087 21109 7////
AAXX 12184 71867 11362 82106 11136 21142 39960 40312 58011 69901 77100 885// 333 11136 21198 47016 79999 90962
AAXX 12184 71868 NIL
AAXX 12184 71869 11358 82306 11117 21123 39758 40306 58002 69901 77177 885// 333 11117 21168 47005 70002 90973 93102
AAXX 12184 71871 17466 81809 11100 21109 39434 40271 56009 60001 771// 333 11100 21129 70000
AAXX 12184 71877 11156 81910 11091 21096 38939 40252 57009 69901 71071 88600 333 11062 21092 48008 70004 90940
AAXX 12184 71878 12966 61707 11108 21113 39133 40239 58014 60001 80001 333 11066 21166 79999
AAXX 12184 71879 16964 01808 11072 21104 39394 40218 56018 60001 333 11051 21098 70000
AAXX 12184 71880 NIL
AAXX 12184 71882 16664 82902 11055 21082 39740 40295 51005 60001 333 11022 21090 70000
AAXX 12184 71883 NIL
AAXX 12184 71887 12986 50902 11067 21090 39868 40306 52003 60001 80001 333 11051 21119 70000
AAXX 12184 71889 12974 43505 11002 21091 39861 40287 52009 60001 88171 333 10023 21034 70000
AAXX 12184 71891 16964 00000 11057 21067 30020 40303 53005 60001 333 11005 21068 70000
AAXX 12184 71892 12583 61107 10016 21020 30253 40258 50001 60001 81171 333 10021 21050 70000
AAXX 12184 71250 16/// /2409 11012 21058 30123 40263 58022 60001 333 11012 21063 70003
AAXX 12184 71251 17/// /2701 11124 21143 39316 40276 57006 69971 7//4/ 333 11054 21142 70024
AAXX 12184 71252 NIL
AAXX 12184 71253 46/// /2603 11147 21150 6///1 333 11116 21189 7////
AAXX 12184 71254 16/// /1809 11076 21077 60001 333 11064 21104 70000
AAXX 12184 71255 16/// /1912 11066 21091 60001 333 11066 21115 70000
AAXX 12184 71256 46/// /0000 11138 21150 39237 40207 58020 6///1 333 11116 21166 7////
AAXX 12184 71257 NIL
AAXX 12184 71258 NIL
AAXX 12184 71259 NIL
AAXX 12184 71261 16/// /1908 10016 21007 30030 40296 58007 60001 333 10023 21032 70000
AAXX 12184 71263 12974 02413 10047 21048 30013 40308 58009 60001 333 10049 21048 70000
AAXX 12184 71264 16/// /2410 10077 20025 30272 40304 56024 60001 333 10081 21057 70000
AAXX 12184 71265 15966 02113 10053 21019 30207 40303 58010 60001 333 10053 21007 70000
AAXX 12184 71266 NIL
AAXX 12184 71267 17/06 /2203 11108 21112 39143 40277 58006 69931 735// 333 11045 21150 70029
AAXX 12184 71268 12466 82303 10025 20025 39859 40269 58001 60001 886// 333 10035 20000 70000
AAXX 12184 71269 NIL
AAXX 12184 71270 NIL
AAXX 12184 71271 16/// ///// 11084 21099 60001 333 11071 21097 70000
AAXX 12184 71272 15966 02408 11127 21149 39845 40214 56006 60001 333 11127 21246 70000
AAXX 12184 71273 16/// /2006 11101 21112 39582 40267 56010 60001 333 11092 21114 70000
AAXX 12184 71274 NIL
AAXX 12184 71275 NIL
AAXX 12184 71276 NIL
AAXX 12184 71277 NIL
AAXX 12184 71278 NIL
AAXX 12184 71279 16/// /0103 11078 21099 30178 40247 58002 60001 333 11078 21222 70017
AAXX 12184 71281 NIL
AAXX 12184 71282 46/// /2105 10029 20007 30026 40301 56006 6///1 333 10031 20005 7////
AAXX 12184 71283 NIL
AAXX 12184 71284 16/// ///// 11106 21114 60001 333 11085 21120 70000
AAXX 12184 71285 NIL
AAXX 12184 71286 NIL
AAXX 12184 71287 NIL
AAXX 12184 71288 NIL
AAXX 12184 71289 NIL
AAXX 12184 71290 15966 81712 11060 21081 39353 40202 56024 60001 333 11049 21090 70000
AAXX 12184 71291 16/// /0109 11033 21048 39964 40263 50004 60001 333 11029 21075 70000
AAXX 12184 71292 15466 81302 11091 21091 39681 40312 50000 60001 333 11078 21110 70000
AAXX 12184 71294 16/// /2105 10032 21037 39878 40288 56011 60001 333 10036 21089 70000
AAXX 12184 71295 NIL
AAXX 12184 71296 16/// /1904 10052 21031 39977 40288 58007 60001 333 10053 21037 70000
AAXX 12184 71297 16/// /2406 10063 21059 60001 333 10066 21023 70000
AAXX 12184 71298 16/// /2305 10028 21037 30073 40310 58012 60001 333 10028 21032 70000
AAXX 12184 71299 NIL
AAXX 12184 71665 16/// /2814 11119 21183 30147 40157 51017 60001 333 11114 21174 70009
AAXX 12184 71666 16/// /2508 10046 21049 30232 40277 56013 60001 333 10049 21083 70000
AAXX 12184 71667 NIL
AAXX 12184 71668 16/// /2705 10052 21057 30248 40292 56013 60001 333 10052 21084 70000
AAXX 12184 71669 NIL
AAXX 12184 71670 16/// ///// 10037 21047 60001 333 10037 21088 70000
AAXX 12184 71671 16/// /2509 10090 20008 30227 40288 56017 60001 333 10092 21060 70000
AAXX 12184 71672 16/// /2602 10063 21053 30025 40293 57006 60001 333 10064 21018 70000
AAXX 12184 71673 NIL
AAXX 12184 71674 NIL
AAXX 12184 71675 17566 83204 11132 21161 30006 40298 50005 60051 77144 333 11131 21185 70176
AAXX 12184 71679 16/// /0404 11071 21077 39153 40191 56015 60001 333 11071 21106 70000
AAXX 12184 71680 NIL
AAXX 12184 71681 46/// /1601 11066 21089 6///1 333 10003 21080 7////
AAXX 12184 71682 NIL
AAXX 12184 71683 NIL
AAXX 12184 71684 15666 82009 10013 20000 39945 40250 58003 60001 333 10018 21021 70000
AAXX 12184 71685 15666 62903 11054 21076 39739 40294 51005 60001 333 11023 21091 70000
AAXX 12184 71686 NIL
AAXX 12184 71687 16/// /1001 11078 21092 39459 40268 58002 60001 333 11078 21118 70000
AAXX 12184 71688 16/// /0000 11059 21091 39184 40245 50000 60001 333 11059 21098 70000
AAXX 12184 71689 15966 01106 11125 21138 39719 40187 58028 60001 333 11069 21173 70000
AAXX 12184 71690 NIL
AAXX 12184 71691 15566 82511 10006 21010 30218 40246 55002 60001 333 10006 21137 70000
AAXX 12184 71692 NIL
AAXX 12184 71694 16/// /2202 10017 21012 39931 40304 56009 60001 333 10017 21118 70000
AAXX 12184 71695 16/// /2206 11135 21153 39956 40307 58011 60001 333 11134 21199 70000
AAXX 12184 71696 16/// /2109 11157 21180 30159 40197 56019 60001 333 11156 21267 70000
AAXX 12184 71697 15966 02107 10047 21044 30127 40302 58009 60001 333 10051 21044 70000
AAXX 12184 71699 16/// /2705 10080 21010 30290 40298 56016 60001 333 10083 21031 70000
AAXX 12184 71930 11969 70000 11154 21182 39242 40210 57020 69903 7407/ 80001 333 11116 21172 47015 79999 90939
AAXX 12184 71931 16/// /2413 11037 21065 30204 40216 56025 60001 333 11006 21099 70000
AAXX 12184 71934 12874 71712 11093 21112 39785 40044 57041 60001 85031 333 11079 21117 70000
AAXX 12184 71935 12974 71917 11053 21102 39768 49975 57028 60001 84071 333 11050 21098 79999
AAXX 12184 71936 11474 71812 11057 21065 39670 49927 57062 69901 73677 81520 333 11056 21077 48024 70006 90963
AAXX 12184 71937 NIL
AAXX 12184 71938 12574 70000 11203 21233 39841 49871 56039 60001 87500 333 11178 21238 79999
AAXX 12184 71940 12982 70000 11111 21141 39328 40161 58026 60001 82032 333 11111 21209 70000
AAXX 12184 71943 11874 82320 11019 21095 39269 40116 56014 60001 73622 88070 333 11018 21113 70000
AAXX 12184 71944 160// ///// 11066 56022 60001 333 11054 21096 70000
AAXX 12184 71945 12980 82105 11130 21166 39543 40021 57030 60001 85071 333 11117 21160 70000
AAXX 12184 71946 12774 72215 10020 21031 39690 49901 55029 60001 87500 333 10020 21164 70000
AAXX 12184 71948 47411 30622 11181 39785 49898 58008 6///1 745// 333 11164 21193 7////
AAXX 12184 71949 46/// /2610 11004 21080 39056 49915 55001 6///1 333 10006 21188 7////
AAXX 12184 71951 NIL
AAXX 12184 71957 46664 83504 11152 21204 39793 49881 53014 6///1 333 11085 21154 7////
AAXX 12184 71958 43/// /0000 11104 21119 39119 40075 56012 6///1 333 7////
AAXX 12184 71964 11786 61613 11012 21053 39113 49956 53007 69901 70371 8357/ 333 10003 21081 47020 79999 90950
AAXX 12184 71966 16/// /2306 11087 21107 39436 49893 53028 60001 333 11057 21232 70023 555 10040
AAXX 12184 71968 47058 /0409 11147 39860 49924 53019 6///1 745// 333 11126 21150 7////
AAXX 12184 71700 15966 02606 10057 21067 30270 40296 56012 60001 333 10058 21086 70000
AAXX 12184 71701 12974 10000 10058 21063 30232 40295 57014 60001 80001 333 10058 21070 70000
AAXX 12184 71702 16/// /2514 10046 21047 30261 40276 56012 60001 333 10047 21075 70000
AAXX 12184 71703 12674 12306 10016 21014 39973 40277 57007 60001 81500 333 10020 21094 70000
AAXX 12184 71704 15966 01807 10032 21035 30081 40308 58011 69931 333 10034 21052 70018
AAXX 12184 71710 NIL
AAXX 12184 71712 17/// /2407 10059 21026 30232 40293 58016 60011 7//4/ 333 10059 21014 70010
AAXX 12184 71713 16/// /2218 10016 21028 60001 333 10017 21048 70000
AAXX 12184 71716 NIL
AAXX 12184 71717 NIL
AAXX 12184 71720 16/// /0602 11025 21032 30104 40261 58001 60001 333 11011 21044 70000
AAXX 12184 71721 NIL
AAXX 12184 71723 16/// /2406 10030 21042 30283 40293 56013 60001 333 10032 21018 70000
AAXX 12184 71724 NIL
AAXX 12184 71732 16/// /1405 10037 20013 60001 333 10037 20004 70000
AAXX 12184 71733 NIL
AAXX 12184 71734 16/// /2304 10009 21008 39851 40248 58001 60001 333 10009 21034 70000
AAXX 12184 71736 NIL
AAXX 12184 71737 NIL
AAXX 12184 71741 16/// /0802 11066 21091 39865 40304 51005 60001 333 11052 21119 70000
AAXX 12184 71742 NIL
AAXX 12184 71743 NIL
AAXX 12184 71744 NIL
AAXX 12184 71745 NIL
AAXX 12184 71746 NIL
AAXX 12184 71747 16/// /0304 11039 21076 39772 40264 50007 60001 333 11027 21163 7////
AAXX 12184 71748 NIL
AAXX 12184 71900 46/// /25// 11117 21185 30154 40167 53014 6///1 333 11115 21165 7////
AAXX 12184 71903 NIL
AAXX 12184 71904 NIL
AAXX 12184 71914 16/// /0402 10019 21020 30029 40254 50000 60001 333 10026 20002 70000
AAXX 12184 71916 NIL
AAXX 12184 71918 460// ///// 11261 6///1 333 7////
AAXX 12184 71920 NIL
AAXX 12184 71921 NIL
AAXX 12184 71923 NIL
AAXX 12184 71927 NIL
AAXX 12184 71941 15466 82305 10016 20000 39833 40255 58002 60001 333 10016 21041 70000
AAXX 12184 71947 17261 80104 11022 21023 39897 40249 51003 60001 771// 333 11012 21056 70000
AAXX 12184 71893 11480 70000 11013 21046 30226 40258 50000 60001 71411 81832 333 10016 21037 70000
AAXX 12184 71894 16/// /0606 10004 21002 30241 40250 53002 60001 333 10012 21010 70002
AAXX 12184 71896 15966 81806 11072 21077 39373 40229 56021 60001 333 11072 21141 70000
AAXX 12184 71897 11262 81415 10029 20016 3//// 4//// 57010 60011 76152 887XX 333 10030 20019 70012 90999
AAXX 12184 71898 NIL
AAXX 12184 71899 11359 82811 10056 20056 3//// 4//// 51002 60051 70262 887XX 333 10060 20026 70114 90923
AAXX 12184 71902 12474 22916 11120 21169 30153 40162 51016 60001 82530 333 11110 21175 70000
AAXX 12184 71905 NIL
AAXX 12184 71906 12774 12410 11133 21181 30150 40202 52015 60001 81500 333 11132 21186 79999
AAXX 12184 71907 17564 82603 11109 21140 30178 40212 51003 60001 745// 333 11108 21249 70010
AAXX 12184 71909 16964 03312 11185 21229 30072 40117 53012 60001 333 11155 21187 70005
AAXX 12184 71910 47416 90505 11164 21175 30063 40127 50002 6///1 745// 333 11143 21190 7////
AAXX 12184 71911 46964 01410 11324 30018 40077 56018 6///1 333 11236 21328 7////
AAXX 12184 71912 11574 62110 11153 21181 30085 40278 58006 69901 72211 86500 333 11152 21248 47011 79999 90911
AAXX 12184 71915 11374 83404 11277 21320 30060 40145 57002 69901 77177 885// 333 11248 21336 48043 79999 90983
AAXX 12184 71917 11974 10000 11402 21441 30027 40042 55001 69901 77677 81078 333 11387 21415 47013 79999 90983
AAXX 12184 71922 11474 82005 11110 21120 39788 40273 57010 69901 77177 885// 333 11104 21156 47027 79999 90983
AAXX 12184 71924 NIL
AAXX 12184 71925 11206 81721 11202 21236 39895 49937 57055 69901 77173 885// 333 11202 21320 42018 79999 90983
AAXX 12184 71926 11462 81205 11208 21256 30077 40102 56010 69921 77177 885// 333 11208 21293 48041 70002 90947
AAXX 12184 71928 NIL
AAXX 12184 71816 12974 02516 11149 21218 30161 40225 55002 60001 333 11149 21198 70000
AAXX 12184 71817 NIL
AAXX 12184 71818 12574 12712 11120 21143 30160 40179 53006 60001 81108 333 11110 21161 70000
AAXX 12184 71822 11274 73203 11019 21035 39760 40243 54000 69901 70176 84530 333 11011 21089 43027 70054 90946
AAXX 12184 71825 11474 22805 11150 21193 39544 40251 53004 69901 77111 82600 333 11146 21278 47071 79999 90901
AAXX 12184 71827 12774 81904 11129 21148 30018 40275 50005 60001 88500 333 11129 21213 79999
AAXX 12184 71828 16664 33105 11190 21236 39568 40240 53011 60001 333 11183 21229 70000
AAXX 12184 71831 11248 83304 11037 21052 39977 40264 51007 60001 71022 886// 333 11010 21037 79999
AAXX 12184 71832 NIL
AAXX 12184 71834 11466 80605 11064 21072 39832 40272 50007 69901 77172 885// 333 11057 21064 48011 79999 90927
AAXX 12184 71841 NIL
AAXX 12184 71842 11374 83604 11111 21125 39805 40297 50010 69901 77111 886// 333 11109 21139 48003 79999 90921
AAXX 12184 71844 16564 83105 11130 21170 30007 40298 50005 60001 333 11129 21195 70000
AAXX 12184 71845 11366 63602 11129 21138 39809 40304 50009 69901 77111 85770 333 11092 21150 44009 79999 90962
AAXX 12184 71850 12261 80308 11088 21093 39775 40295 50011 60001 886// 333 11087 21109 70000
AAXX 12184 71852 16361 80109 11116 21131 30007 40314 50006 60001 333 11062 21131 70000
AAXX 12184 71854 11474 20302 11104 21142 39813 40306 50007 69901 77177 81504 333 11085 21114 48009 79999 90973
AAXX 12184 71858 16/// /2803 11118 21134 30030 40326 58001 60001 333 11116 21229 70000
AAXX 12184 71861 46/// /1206 11080 21088 39550 40300 50005 6///1 333 11068 21083 7////
AAXX 12184 71862 11232 81306 11060 21068 39577 40301 50008 69901 77177 886// 333 11054 21066 42002 79999 90983
AAXX 12184 71863 46362 81506 11065 21093 39575 40298 50001 6///1 333 11062 21087 7////
AAXX 12184 71550 NIL
AAXX 12184 71551 NIL
AAXX 12184 71552 NIL
AAXX 12184 71553 NIL
AAXX 12184 71554 16/// /2213 10008 21024 30251 40257 55001 60001 333 10009 21082 70010
AAXX 12184 71555 17/// /2106 11079 21093 38631 40238 56012 69951 7//4/ 333 11072 21111 70055
AAXX 12184 71556 NIL
AAXX 12184 71557 46/// /0902 11081 21106 6///1 333 11059 21150 7////
AAXX 12184 71558 NIL
AAXX 12184 71559 46/// /1404 11060 21067 39575 40298 50009 6///1 333 11054 21065 7////
AAXX 12184 71560 16/// /3511 11087 21106 39987 40308 51011 60001 333 11067 21111 70000
AAXX 12184 71563 NIL
AAXX 12184 71564 NIL
AAXX 12184 71565 NIL
AAXX 12184 71566 NIL
AAXX 12184 71567 NIL
AAXX 12184 71568 16/// /1606 10001 21021 30246 40259 55005 60001 333 10029 21002 70000
AAXX 12184 71569 NIL
AAXX 12184 71570 16/// /0605 11083 21110 39986 40310 50006 60001 333 11060 21088 70000
AAXX 12184 71571 NIL
AAXX 12184 71572 NIL
AAXX 12184 71573 NIL
AAXX 12184 71574 12974 70000 10009 21014 30194 40269 55003 60001 87070 333 10009 21130 79999
AAXX 12184 71575 NIL
AAXX 12184 71576 16/// /2707 11215 21240 39963 40050 53008 60001 333 11192 21242 70000
AAXX 12184 71577 NIL
AAXX 12184 71578 16/// /2706 10005 21041 60001 333 10005 21054 70000
AAXX 12184 71579 16/// /0204 11113 21139 30012 40308 50007 60001 333 11062 21124 70000
AAXX 12184 71580 11566 11507 11303 21352 30038 40076 58016 69901 77670 81500 333 11222 21310 45030 79999 90987
AAXX 12184 71581 NIL
AAXX 12184 71582 15666 81306 10009 21003 30193 40247 56011 60001 333 10009 21025 70000
AAXX 12184 71583 NIL
AAXX 12184 71584 15966 02503 11077 21106 30199 40249 55000 60001 333 11070 21208 70000
AAXX 12184 71585 NIL
AAXX 12184 71586 16/// /2106 11111 21123 39786 40270 56009 60001 333 11105 21156 70000
AAXX 12184 71587 NIL
AAXX 12184 71588 16/// /2707 11021 21031 60001 333 11020 21099 70000
AAXX 12184 71589 NIL
AAXX 12184 71590 NIL
AAXX 12184 71592 NIL
AAXX 12184 71593 NIL
AAXX 12184 71596 NIL
AAXX 12184 71598 16/64 /2405 10009 21043 30263 40269 55005 60001 333 10011 21103 70000
AAXX 12184 71599 16/// /2702 10083 20017 30108 40315 56020 60001 333 10090 21068 70000 555 10010
AAXX 12184 71102 NIL
AAXX 12184 71105 NIL
AAXX 12184 71107 NIL
AAXX 12184 71110 NIL
AAXX 12184 71111 16664 82609 10040 20033 30160 40168 55007 69951 333 10041 21020 70005
AAXX 12184 71112 16/// ///// 60001 333 70000
AAXX 12184 71113 16/// /3009 10028 21070 30236 40260 51005 60001 333 10040 20005 70000
AAXX 12184 71115 16/// /1801 11060 21072 39690 40290 51010 60001 333 11024 21077 70000
AAXX 12184 71116 16/// /1206 11043 21056 39140 40264 50001 60001 333 11037 21058 70000 555 10060
AAXX 12184 71118 16/// /1706 11070 21096 39403 40256 56009 60001 333 11070 21107 70000
AAXX 12184 71121 16962 01908 11071 21128 39371 40215 5/019 60001 333 11055 21103 70000
AAXX 12184 71127 16/// /2002 11118 21126 39277 40229 58016 60001 333 11074 21140 70000
AAXX 12184 71130 17436 81909 11112 21127 39828 40306 58006 60001 771// 333 11108 21140 70000
AAXX 12184 71132 15466 61504 11064 21085 39831 40149 58031 60001 333 11063 21122 70000
AAXX 12184 71133 46/// /2103 11131 21155 39540 40275 58006 6///1 333 11100 21176 7////
AAXX 12184 71139 NIL
AAXX 12184 71141 NIL
AAXX 12184 71142 17666 81714 11077 21080 39276 40276 58001 60001 771// 333 11074 21086 70000
AAXX 12184 71143 NIL
AAXX 12184 71144 NIL
AAXX 12184 71147 16/// /3609 11101 21137 60001 333 11068 21117 70000
AAXX 12184 71149 NIL
AAXX 12184 71816 12974 02516 11149 21218 30161 40225 55002 60001 333 11149 21198 70000
AAXX 12184 71817 NIL
AAXX 12184 71818 12574 12712 11120 21143 30160 40179 53006 60001 81108 333 11110 21161 70000
AAXX 12184 71822 11274 73203 11019 21035 39760 40243 54000 69901 70176 84530 333 11011 21089 43027 70054 90946
AAXX 12184 71825 11474 22805 11150 21193 39544 40251 53004 69901 77111 82600 333 11146 21278 47071 79999 90901
AAXX 12184 71827 12774 81904 11129 21148 30018 40275 50005 60001 88500 333 11129 21213 79999
AAXX 12184 71828 16664 33105 11190 21236 39568 40240 53011 60001 333 11183 21229 70000
AAXX 12184 71831 11248 83304 11037 21052 39977 40264 51007 60001 71022 886// 333 11010 21037 79999
AAXX 12184 71832 NIL
AAXX 12184 71834 11466 80605 11064 21072 39832 40272 50007 69901 77172 885// 333 11057 21064 48011 79999 90927
AAXX 12184 71841 NIL
AAXX 12184 71842 11374 83604 11111 21125 39805 40297 50010 69901 77111 886// 333 11109 21139 48003 79999 90921
AAXX 12184 71844 16564 83105 11130 21170 30007 40298 50005 60001 333 11129 21195 70000
AAXX 12184 71845 11366 63602 11129 21138 39809 40304 50009 69901 77111 85770 333 11092 21150 44009 79999 90962
AAXX 12184 71850 12261 80308 11088 21093 39775 40295 50011 60001 886// 333 11087 21109 70000
AAXX 12184 71852 16361 80109 11116 21131 30007 40314 50006 60001 333 11062 21131 70000
AAXX 12184 71854 11474 20302 11104 21142 39813 40306 50007 69901 77177 81504 333 11085 21114 48009 79999 90973
AAXX 12184 71858 16/// /2803 11118 21134 30030 40326 58001 60001 333 11116 21229 70000
AAXX 12184 71861 46/// /1206 11080 21088 39550 40300 50005 6///1 333 11068 21083 7////
AAXX 12184 71862 11232 81306 11060 21068 39577 40301 50008 69901 77177 886// 333 11054 21066 42002 79999 90983
AAXX 12184 71863 46362 81506 11065 21093 39575 40298 50001 6///1 333 11062 21087 7////
AAXX 12184 71401 17/// /1502 11036 21060 39563 40266 51012 69971 7//4/ 333 11025 21070 70007
AAXX 12184 71402 NIL
AAXX 12184 71404 NIL
AAXX 12184 71405 NIL
AAXX 12184 71406 NIL
AAXX 12184 71407 NIL
AAXX 12184 71408 NIL
AAXX 12184 71409 NIL
AAXX 12184 71410 15966 02205 11156 21172 30027 40323 50001 60001 333 11156 21270 70000
AAXX 12184 71413 NIL
AAXX 12184 71414 NIL
AAXX 12184 71415 16/// /2507 10061 20013 30280 40283 56015 60001 333 10061 21057 70000
AAXX 12184 71417 NIL
AAXX 12184 71418 NIL
AAXX 12184 71419 46/// /2319 10060 20012 30287 40297 55020 6///1 333 10061 21054 7////
AAXX 12184 71423 NIL
AAXX 12184 71424 46/// /2315 6///1 333 7////
AAXX 12184 71425 16/// /3208 11006 21021 30212 40249 53001 60001 333 11001 21109 70010
AAXX 12184 71426 NIL
AAXX 12184 71427 NIL
AAXX 12184 71428 16/// /2004 11006 21030 30240 40246 56002 60001 333 10000 21107 70000
AAXX 12184 71429 16/// /2608 11009 21041 30233 40253 55004 60001 333 11009 21115 70000
AAXX 12184 71434 NIL
AAXX 12184 71436 15966 02406 10065 21046 30058 40297 58007 60001 333 10066 21024 70000
AAXX 12184 71437 NIL
AAXX 12184 71438 NIL
AAXX 12184 71439 NIL
AAXX 12184 71440 NIL
AAXX 12184 71442 16/// /3505 11132 21152 39999 40329 50005 60001 333 11113 21167 70000
AAXX 12184 71445 NIL
AAXX 12184 71446 NIL
AAXX 12184 71448 NIL
AAXX 12184 71449 16/// /0108 11070 21087 39866 40285 51012 60001 333 11068 21122 70000
AAXX 12181 26106 32/97 61505 10011 21024 40092 57014 85530 333 10020 91111
AAXX 12181 26313 32/// 71805 10008 21013 40062 57015 83930 333 10032 91111
AAXX 12181 26346 32497 61604 11017 21030 40126 57016 82640 333 10014 91110
AAXX 12181 26406 11597 81605 10016 21006 40052 57014 69902 78082 889// 333 10032 88927 91010 91110
AAXX 12181 26416 33/// /1705 10002 21024 40074 57014 333 10011 91110
AAXX 12181 26424 12497 81805 10003 21017 40085 57015 69902 8655/ 333 10011 86616 91110
AAXX 12181 26544 32697 71705 11007 21027 40139 57016 86502 333 10013 86645
AAXX 12181 12120 11563 72006 10038 20012 30031 40038 57004 69922 70182 8557/ 333 10040 21006 93092
AAXX 12181 12250 11958 21703 10022 20006 39994 40084 55004 60002 71011 80001 333 10041 21026 93000
AAXX 12181 12295 12667 51703 10005 21011 39938 40126 56012 60002 82501 333 10014 21032 93000
AAXX 12181 12330 12660 72005 10040 20014 39973 40082 52007 60002 8455/ 333 10050 21017 93000
AAXX 12181 12375 12560 71402 10023 20007 39980 40113 57005 60002 875// 333 10024 21019 93000
AAXX 12181 12424 11665 72003 10034 20016 39956 40110 53016 69902 76122 875// 333 10064 21026 93097
AAXX 12181 12105 12568 81704 10051 20018 39998 40041 52003 69902 885// 333 10051 21012 93000
AAXX 12181 12195 11659 71804 10002 21012 39882 40114 57009 60002 71011 875// 333 10005 21028 93000
AAXX 12181 12235 11950 51805 10014 20007 39853 40066 55003 60002 71011 82036 333 10024 21023 93000
AAXX 12181 12270 11950 51503 10000 21006 39917 40103 58006 60002 71011 80006 333 10028 21022 93000
AAXX 12181 12280 11957 51605 10005 21005 39944 40104 56010 60002 71011 85030 333 10015 21018 93000
AAXX 12181 12300 11558 82403 10047 20032 39978 40068 53012 69922 76122 875// 333 10057 21018 93092
AAXX 12181 12400 11660 82004 10045 20019 39849 40085 53011 69902 78082 879// 333 10061 21018 91109 93097
AAXX 12181 12435 11950 71704 10026 21002 39926 40100 53004 60002 71011 8705/ 333 10050 21020 93000
AAXX 12181 12495 12763 71602 10029 20009 39834 40130 56009 60002 875// 333 10035 21016 93000
AAXX 12181 12530 12960 71802 10031 20015 39910 40112 51006 60002 82032 333 10059 20023 93000
AAXX 12181 12570 11558 70000 10018 20015 39804 40127 53001 60002 71011 875// 333 10036 21015 93000
AAXX 12181 12580 11465 62003 10058 20040 39873 40133 57004 69902 72522 83532 333 10061 21052 93097
AAXX 12181 12160 11556 51504 10022 21002 30020 40073 57008 60002 71011 84501 333 10025 21010 93000
AAXX 12181 12205 11357 82206 10054 20048 30041 40049 52015 69982 76122 8772/ 333 10064 21002 93001
AAXX 12181 12465 11950 71502 10006 21004 39871 40109 58001 60002 71011 85038 333 10049 21018 93000
AAXX 12181 12566 11650 60801 10002 21002 39826 40127 53003 60002 71011 86500 333 10046 21041 93000
AAXX 12184 48427 31957 00000 10182 20153 30137 40145 57005 71000 333 59007
AAXX 12184 60020 NIL
AAXX 12184 60030 02570 20114 10194 20131 30183 40239 56003 60002 82800 333 10219 60007 92428
AAXX 12184 60040 02581 50210 10196 20126 30227 40252 53001 60002 85500 333 10225 60007 92428
AAXX 12184 60338 12980 02504 10150 20113 30199 40265 53008 60002 333 10180 92418
AAXX 12181 48820 32998 00000 10133 20098 30195 40203 58004 333 59026
AAXX 12184 08231 11363 82602 10064 20057 39158 48554 51009 69952 75052 887// 333 10065
AAXX 12184 84202 31575 51402 10316 20193 30134 70544 82109 333 59005 555 30048
AAXX 12184 84142 31320 63204 10196 20176 71044 86800 555 30088
AAXX 12184 84045 31456 70000 10130 20098 74044 87800 555 30081
AAXX 12184 84036 31570 72204 10184 20147 70542 86450 555 30079
AAXX 12184 84143 32665 71704 10178 20100 37399 87800 333 58008 555 30060
AAXX 12184 84072 31570 70412 10180 20120 37287 71544 83350 333 58003 555 30068
AAXX 12184 84076 31570 73208 10190 20123 70544 87400 555 30065
AAXX 12184 84135 32675 73606 10309 20212 30052 83130 333 58009 555 30056
AAXX 12184 84270 11556 60000 10182 20135 60051 76062 86500 555 10046 30074
AAXX 12184 84050 31575 83608 10272 20214 70544 888// 555 30070
AAXX 12184 84179 31465 62702 10260 20206 39043 71794 86900 333 58001 555 30072
AAXX 12184 84140 31580 70902 10296 20199 30019 40104 70544 86850 333 58009 555 30056
AAXX 12184 84008 32665 61414 10274 20207 30124 40134 82830 00166 333 58003 555 30067
AAXX 12184 84160 31565 71404 10173 20077 37260 74144 84530 333 59001 555 30053
AAXX 12184 84173 31665 71402 10179 20100 71644 85732 555 30060
AAXX 12184 84204 31680 50902 10332 20185 70544 81159 555 30042
AAXX 12184 84105 31565 63604 10295 20220 39999 70542 84110 333 58001 555 30064
AAXX 12184 84132 31675 53204 10314 20253 39873 71544 85300 333 58003 555 30070
AAXX 12184 84226 31560 73608 10112 20109 70544 87400 555 30098
AAXX 12181 48823 32997 00000 10125 20093 30198 40201 58001 333 59023
AAXX 12181 01156 16/// /1105 10010 21052 39907 49917 57016 60002 333 10013 91111
AAXX 12181 01273 16/// /1102 10038 21026 39661 49853 55009 60002 333 10042 91113
AAXX 12181 01293 11865 70202 10016 21018 39653 49857 56028 60002 70272 87070 333 10016 91108
AAXX 12181 01037 16/// /1505 11027 21049 39975 49981 57017 69992 333 11026 91109
AAXX 12181 01065 11X10 90000 11155 21169 39868 40040 54000 69932 74541 333 11096 91102
AAXX 12181 01114 16/// /0604 11045 21064 39882 49893 58023 60002 333 11011 91104
AAXX 12181 01245 11680 51904 10014 21061 39164 49855 55000 60002 70122 85500 333 10022 91109
AAXX 12181 01329 11130 83601 10005 21005 39836 49897 53004 60102 75882 888// 333 10032 91111
AAXX 12181 01337 16/// /1901 10007 21004 39825 49891 55001 60022 333 10010 91105
AAXX 12181 01389 11710 81202 10002 21003 39600 49908 57008 60082 76877 8272/ 333 10004 91106
AAXX 12181 01135 16/// /1802 11038 21070 39760 49914 58019 60002 333 11012 4/003 91109
AAXX 12181 01192 16/// /1404 11018 21101 60002 333 11013 4/009 91111
AAXX 12181 01257 11470 62102 10005 21021 39692 49852 55004 60002 70222 84333 333 10012 91108
AAXX 12181 01370 16/// /2203 11035 21041 38801 49969 55004 60062 333 11035 4/028 91107
AAXX 12181 01419 16/// /2302 10022 20013 60132 333 10037 91111
AAXX 12181 01455 16/// /1502 10009 21001 39616 49924 52010 60082 333 10049 91105
AAXX 12181 01481 16/// /2102 10035 20026 39886 49918 55000 60042 333 10064 91113
AAXX 12181 01023 41689 60301 11050 21057 39856 49953 58025 70320 81578 333 11050 91104
AAXX 12181 01228 46/// /1602 10032 21004 39828 49836 56008 333 10046 91113
AAXX 12184 64500 31460 72610 10270 20241 30078 40091 71322 85902 333 10286 58005 84610 81920 87075 94941 95831
AAXX 12184 64501 32358 62008 10273 20238 3//// 4//// 86900 333 10290 5//// 83808 81920 86360 94943 95833
AAXX 12184 64550 32460 8//// 10265 20234 30/// 40/// 885// 333 10315 5//// 84610 88625
AAXX 12181 13168 11698 81104 10108 20086 30040 40146 56004 69902 72162 885// 333 10142
AAXX 12181 13174 32697 81605 10083 20057 30050 40151 56004 885// 333 10116
AAXX 12181 13274 11697 51504 10114 20074 39996 40155 55004 69902 70262 85500 333 10139
AAXX 12181 13269 11697 82001 10083 20065 39945 40159 55002 69942 76162 885// 333 10115
AAXX 12184 16206 11665 40104 10102 20080 30120 40129 55001 60212 70192 82450 333 10160 82640 83356
AAXX 12184 64600 32960 00000 10240 20142 39439 40091 333 10320 55083 58004
AAXX 12184 64601 31970 03614 10220 20073 38997 48499 70400 333 10297 58003
AAXX 12184 64605 32960 00000 10223 20121 39351 40095 333 10308 58005
AAXX 12184 64610 32960 00000 10220 20136 3//// 4//// 333 10330 5////
AAXX 12184 64650 32956 03604 10270 20118 39679 40090 333 10335 55095 58007
AAXX 12184 64654 32958 00806 10210 20114 39536 40109 333 10330 59001
AAXX 12184 64655 32960 00000 10236 20154 39443 40090 333 10332 58002
AAXX 12184 64656 32960 00000 10248 20206 39527 40080 333 10323 58003
AAXX 12184 64659 NIL
AAXX 12184 64660 32960 00000 10250 20153 39548 40074 333 10335 58001
AAXX 12184 64662 32960 30402 10240 20169 39573 40072 80002 333 10343 58003 83080
AAXX 12184 64665 32960 00000 10234 20198 3//// 4//// 333 10342 5////
AAXX 12184 16337 12998 31306 10130 20109 39616 40183 58004 60002 80001 333 10170 555 0////
AAXX 12184 78988 02484 60713 10269 20250 30093 40104 57021 69981 84201 333 58011 69987 84819 86081
AAXX 12184 78990 01459 /0000 10294 20254 30105 57020 60001 70000 333 58009 60007
AAXX 12184 61974 12470 20000 10243 20228 40106 60002 82200 333 10318 55083 58011 82819
AAXX 12184 61986 12570 10609 10273 20255 40106 60002 81202 333 10315 58034 81820
AAXX 12184 61988 12470 60712 10254 20234 40134 60002 86842 333 10282 55081 58007 83818 85650 91123
AAXX 12184 61989 NIL
AAXX 12184 61990 11468 50807 10267 20243 40125 60002 71522 85800 333 10302 55042 59001 85815
AAXX 12184 61995 12470 30905 10228 20216 39648 60012 82840 333 10276 55041 58004 82818
AAXX 12181 02019 05/99 /0402 11068 21101 39327 49953 57014 60002 333 11059 21131 60005 90710 91106
AAXX 12181 02081 07/59 /0803 11185 21203 39609 40029 58004 69922 77170 333 11185 21241 69905 90710 91105
AAXX 12181 02095 07474 /0201 11177 21194 39826 40038 57009 69902 70087 333 11177 21255 60005 86/14 87/62 90710 91102
AAXX 12181 02101 47/40 /1606 11055 21091 39380 49941 58017 771// 8//// 333 11047 21162 89/23
AAXX 12181 02119 07650 /1101 11148 21162 39611 40008 57011 69902 77187 333 11147 21233 69905 88/47 90710 91102
AAXX 12181 02124 07525 /0603 11106 21116 39446 49981 58021 69932 77187 333 11099 21209 69935 89/23 90710 91104
AAXX 12181 02126 07515 /2801 11118 21130 39614 49959 58037 60042 77187 333 11118 21238 60015 88/21 90710 91101
AAXX 12181 02151 07214 80000 11158 21166 39662 40009 58016 69922 77181 333 11156 21219 69915 85/04 87/06 88/12 91000 90710 91100 90710 91200
AAXX 12181 02186 07316 93601 11099 21109 39978 40003 56027 69932 77100 333 11097 21156 69935 89/08 91002 90710 91103 90710 91202
AAXX 12181 02197 07/66 /0902 11055 21058 30006 40025 58016 69912 70087 333 11053 21169 60005 90710 91105
AAXX 12181 02207 07899 /2005 10006 21025 39169 49856 56021 69932 70070 333 10012 21104 60005 84/56 90710 91110
AAXX 12181 02219 07/13 /1206 11067 21076 39232 49900 57024 60022 77177 333 11063 21090 69945 90710 91113
AAXX 12181 02226 47381 /1704 11003 21005 39443 49893 57023 771// 8//// 333 11003 21053 88/07
AAXX 12181 02243 07/16 /1202 11034 21035 39656 49925 57021 60062 77174 333 11034 21139 69965 90710 91104
AAXX 12181 02269 07250 /2011 10034 20031 60022 76186 333 10036 21070 69905 88/06 90710 91113
AAXX 12181 02287 07250 /1604 10015 20010 39948 49958 57026 60052 72387 333 10015 21083 69925 88/03 90710 91109
AAXX 12181 02297 07110 /1507 11001 21001 39923 49969 58036 60032 77271 333 11001 21098 60015 81/03 85/05 88/10 90710 91113
AAXX 12181 02308 07499 /1802 11016 21024 39036 49888 57014 60032 72477 333 11016 21071 69905 86/11 88/14 90710 91106
AAXX 12181 02327 07/99 /1302 10004 20003 39484 49916 57011 60032 70087 333 10004 21056 60005 90710 91104
AAXX 12181 02355 07258 /1908 10016 20013 39940 49953 57011 60042 75286 333 10022 20001 69935 87/06 90710 91112
AAXX 12181 02366 47263 /1604 10008 20005 39936 49942 57012 781// 8//// 333 10009 21062 88/03
AAXX 12181 02407 07259 /1503 10005 20002 39558 49925 58014 60032 78586 333 10020 20005 69905 88/06 90710 91104
AAXX 12181 02418 47360 /1806 10024 20014 39807 49938 56013 761// 8//// 333 10039 20023 85/09 88/16
AAXX 12181 02435 45276 /1604 10010 21005 39766 49954 57009 8//// 333 10017 20008 88/05
AAXX 12181 02440 07364 /1802 10008 20001 60022 77187 333 10013 21040 69925 84/08 86/13 87/20 90710 91105
AAXX 12181 02452 07103 /1602 10000 20000 60022 77176 333 10019 20000 69945 89/02 90710 91105
AAXX 12181 02456 05466 /1802 10015 20006 39933 49975 58015 69982 333 10022 20010 60005 83/17 88/22 90710 91105
AAXX 12181 02469 05/76 /1803 10026 20007 69972 333 10034 20020 60005 90710 91107
AAXX 12181 02498 05670 /1911 10045 20004 39980 49996 56017 69982 333 10050 20041 60005 87/35 90710 91114
AAXX 12181 02518 464// /2310 10057 20043 333 10058 20044 82/13 83/15 90710 91113
AAXX 12181 02520 07366 82006 10026 20014 39882 49949 56007 69902 78185 333 10039 20025 69905 85/09 88/13 91008 90710 91109 90710 91207
AAXX 12181 02550 47266 /1804 10018 20018 39694 49968 56007 722// 8//// 333 10018 20008 81/04 85/06 88/09
AAXX 12181 02562 17482 81804 10021 20008 39856 49971 56015 69922 70086 333 10026 20016 60005 88/14 91006 90710 91106 90710 91204
AAXX 12181 02563 07361 /1706 10033 20024 39957 49979 58018 69902 70086 333 10035 20027 60005 87/09 88/11 90710 91110
AAXX 12181 02565 07259 /1702 10028 20019 39865 49984 57013 60002 71010 333 10031 20022 60005 88/06 90710 91105
AAXX 12181 02589 05472 /2007 10037 20005 39984 40006 57015 69902 333 10048 20034 60005 83/17 87/50 87/64 90710 91113
AAXX 12181 02590 45361 /1805 10032 20020 39943 40005 57016 8//// 333 10042 20017 88/07
AAXX 12181 02618 07/50 /2103 10032 20032 39814 49978 55001 60032 76186 333 10032 20012 60015 90710 91107
AAXX 12181 02664 07250 82104 10047 20040 39925 49996 56009 69992 76181 333 10047 20027 69985 88/05 91007 90710 91108 90710 91206
AAXX 12181 02679 07361 /2008 10047 20038 39967 40011 57015 60002 70010 333 10047 20032 60005 88/07 90710 91112
AAXX 12184 13624 12765 21410 10128 20098 30146 40185 57005 60002 81550 333 10220 81650
AAXX 12184 65351 31930 70408 10280 20094 3//// 4//// 70522 80002 333 10310 5//// 87076
AAXX 12184 65355 31950 70406 10260 20073 39592 40107 70522 80002 333 10315 58004 87073
AAXX 12184 65357 31920 70404 10285 20076 39713 40104 70522 80002 333 10340 58000 87076
AAXX 12184 65380 32958 70000 10266 20190 3//// 4//// 80002 333 10338 5//// 87076
AAXX 12184 60715 12562 52609 10156 20095 30211 40218 52007 60002 84282 333 10200 58019 84820 91014 91122
AAXX 12184 60723 12560 22904 10146 20106 30044 40233 53007 60002 82280 333 10192 82826
AAXX 12184 60725 12560 33104 10128 2//// 30062 40240 53013 60002 83200 333 10199 83820
AAXX 12184 60735 12962 03602 10151 20083 30139 40221 52011 60002 333 10207
AAXX 12184 60745 12660 32005 10138 20039 39850 40221 53010 60002 83500 333 10204 83633
AAXX 12184 60748 12565 20202 10146 20054 39806 40223 51015 60002 82200 333 10203 82823
AAXX 12184 60750 12960 30302 10152 20077 30194 40219 52013 60002 80002 333 10213 83070
AAXX 12184 60760 12560 22609 10142 20045 30118 40223 53009 60002 82200 333 10191 82830 91010 91120
AAXX 12184 60765 12558 42606 10182 20063 30204 40207 56006 60002 82502 333 10215 82630 83070 92426 905//
AAXX 12184 60767 12960 32208 10147 20023 30076 40221 53012 60002 80002 333 10196 83070
AAXX 12184 60769 12960 30108 10163 20099 30207 40211 52013 60002 80002 333 10198 83070
AAXX 12181 33088 11597 82104 10012 21002 39987 40182 57015 69902 78081 889// 333 10039
AAXX 12181 33177 11597 81001 10020 20004 39906 40147 57015 69912 70282 889// 333 10024
AAXX 12181 33261 31996 01702 11012 21025 30075 40265 58003 71000 333 10027
AAXX 12181 33275 32997 01602 11035 21049 30049 40283 58003 333 10015
AAXX 12181 33301 11497 81405 10006 21002 39892 40180 57015 69952 78081 8635/ 333 10026 85919
AAXX 12181 33325 32997 82303 10022 20000 39940 40213 58010 8805/ 333 10035
AAXX 12181 33377 32997 01801 11012 21031 30075 40276 57001 333 10027
AAXX 12181 33415 11295 81607 10006 20003 39783 40191 57012 69902 71082 886// 333 10007 88704
AAXX 12181 33429 11/93 91705 10014 20014 39772 40204 57011 69912 74764 333 10015
AAXX 12181 33466 32962 71502 10014 21012 30060 40253 57010 87030 333 10038
AAXX 12181 33526 11540 81102 10009 21002 39837 40184 57005 69902 78082 883// 333 10040 84920
AAXX 12181 33562 11240 81606 10015 20010 39855 40224 57009 69932 75152 886// 333 10026 88705
AAXX 12181 33614 32961 01803 11004 21022 30174 40283 53003 333 10040
AAXX 12181 33761 31496 81504 10015 20001 30023 40252 57006 71022 886// 333 10025 88714
AAXX 12181 33902 32597 81301 10025 21008 30202 40270 57005 885// 333 10051
AAXX 12181 33983 32997 00803 11002 21020 30235 40298 54000 333 10051
AAXX 12181 34415 32697 82702 10009 21024 30199 40299 51001 885// 333 10021
AAXX 12181 34523 32597 81901 10009 21037 30228 40306 51004 885// 333 10024 88630
AAXX 12181 34712 31996 01401 10002 21001 30222 40311 52003 71000 333 10042
AAXX 12181 02464 45474 /1605 10032 20007 39967 49985 56013 8//// 333 10038 20027 83/13 85/18 88/44
AAXX 12181 02500 07474 /2205 10056 20039 39885 49927 55001 60042 72386 333 10058 20044 69905 90710 91108
AAXX 12181 02513 07/60 /2204 10053 20042 39956 49960 53008 60062 76186 333 10053 20028 69935 90710 91108
AAXX 12181 02615 07763 /2408 10057 20050 30000 40004 52011 60012 72386 333 10057 20034 69935 88/50 90710 91110
AAXX 12181 02635 07/57 /2503 10052 20045 60022 75286 333 10052 20020 69955 90710 91107
AAXX 12181 48803 32498 10000 10120 20114 30101 40219 54000 81100 333 59012 81894 96122
AAXX 12184 08261 11575 72604 10110 20069 39799 40284 53009 69932 70262 8743/ 333 10130
AAXX 12181 01205 46/// ///// 10054 20024 39786 49831 50010 333 10068
AAXX 12181 01238 41557 41607 11027 21052 38743 49859 53002 73632 83940 333 11018 91115
AAXX 12181 37575 42998 20202 10052 21062 39708 40305 52013 82050 333 10108
AAXX 12181 37675 42995 50000 10023 21007 39659 40337 52007 85030
AAXX 12181 37735 42697 71801 10050 21044 39849 40231 52023 87500 333 10113
AAXX 12181 37749 NIL
AAXX 12181 37756 42997 50103 10035 21036 39432 40352 52014 80002 333 10110
AAXX 12181 37864 32497 73510 10076 20050 40319 52021 87700 333 10121 87714
AAXX 12181 37985 42996 03601 10049 20044 30336 40321 52030 333 10116
AAXX 12183 91551 11498 80000 10260 20247 4//// 5//// 60241 72562 8522/ 333 5699/ 60241 85820 81925 88461
AAXX 12183 91553 NIL
AAXX 12183 91554 11498 80000 10240 20232 40084 53002 60061 78028 889// 333 569// 60064 84818 81920 88640
AAXX 12183 91555 31598 50000 10267 20251 40082 53001 70222 85800 333 569// 83823 85644
AAXX 12183 91557 11598 69901 10238 20234 40070 56002 69901 70222 83201 333 562/9 69901 83820 86080
AAXX 12183 91565 31598 10306 10240 20225 40081 56004 70111 81200 333 561// 81822=91/35 91568 31598 50000 10226 20223 40101 56004 70211 82101 333 562/9 82825 85080
AAXX 12183 91551 11498 80000 10260 20247 4//// 5//// 60241 72562 8522/ 333 5699/ 60241 85820 81925 88461
AAXX 12183 91553 NIL
AAXX 12183 91554 11498 80000 10240 20232 40084 53002 60061 78028 889// 333 569// 60064 84818 81920 88640
AAXX 12183 91555 31598 50000 10267 20251 40082 53001 70222 85800 333 569// 83823 85644
AAXX 12183 91557 11598 69901 10238 20234 40070 56002 69901 70222 83201 333 562/9 69901 83820 86080
AAXX 12183 91565 31598 10306 10240 20225 40081 56004 70111 81200 333 561// 81822=91/35 91568 31598 50000 10226 20223 40101 56004 70211 82101 333 562/9 82825 85080
AAXX 12184 65501 31958 70000 10264 20005 39815 40132 70622 80002 333 10312 58013 87076
AAXX 12184 65502 31958 70000 10278 21018 39744 40124 70622 80002 333 10317 58015 87076
AAXX 12184 65503 31925 70406 10280 20037 39776 40122 70622 80002 333 10318 58011 87076
AAXX 12184 65505 31915 70208 10290 20022 39778 40116 70622 80002 333 10329 58014 87076
AAXX 12184 65507 31956 70402 10279 20017 39770 40119 70622 80002 333 10325 58015 87076
AAXX 12184 65510 31916 50404 10280 20030 39597 40111 70622 80002 333 10311 58010 85076
AAXX 12184 65516 31920 60000 10284 20017 39806 40113 70622 80002 333 10320 58016 86076
AAXX 12184 65518 31945 70000 10272 20035 39749 40113 70622 80002 333 10318 58019 87076
AAXX 12184 65522 31920 70000 10292 20038 39776 40106 70622 80002 333 10327 58008 87076
AAXX 12181 13180 32697 71408 10083 20073 30050 40161 57007 87500 333 10120 91112
AAXX 12181 13173 32697 71606 10091 20059 30052 40152 56006 87500 333 10116
AAXX 12181 13369 11597 71502 10035 20009 38983 48463 55003 69952 70262 87500 333 10068 4/008
AAXX 12181 13266 12697 70803 10100 20081 30045 40145 56005 69912 87500 333 10134
AAXX 12181 13384 32698 81601 10086 20062 30034 40186 55000 885// 333 10116
AAXX 12181 13383 11697 81002 10106 20095 39977 40178 56003 60022 70262 885// 333 10149
AAXX 12181 13389 12698 81502 10101 20070 39748 40205 52005 60012 885// 333 10125
AAXX 12181 14024 11/90 91804 10054 20054 39026 48433 55000 69912 74564 333 10060 95090
BBXX 62087 12181 99547 10068 46/// /0704 10075 20041 4//// 5//// 22230 00085
AAXX 12184 60645 36/// /0000 10208 21025 333 10247
AAXX 12181 13378 11/91 92006 10012 20012 38269 48494 56006 60032 74574 333 10022 4/004 93197 91113
AAXX 12181 13278 12698 62003 10126 20077 39953 40174 56002 69922 86500 333 10135
AAXX 12181 13397 11696 81102 10086 20079 39671 40207 56003 60022 76062 885// 333 10108
AAXX 12184 60710 11558 62214 10140 20112 30146 40225 53010 60032 78082 85280 333 10188 85820 83360
AAXX 12184 60714 11565 63010 10148 2//// 30217 40223 51003 69932 70182 84880 333 10190 82820 83630
AAXX 12184 60720 12560 22808 10144 20119 30176 40209 53005 60002 82200 333 10194 82823
AAXX 12184 60728 NIL
AAXX 12184 60729 NIL
AAXX 12184 60731 05960 /3002 10149 20082 30214 40221 53012 60002 333 10199 20048 58016 60007 91003 91116
AAXX 12184 60732 12560 43308 10130 20054 39620 40227 52008 60002 84800 333 10179 83820
AAXX 12184 60734 12562 33602 10102 20076 39706 40230 51010 60002 83202 333 10173 83823
AAXX 12184 60738 NIL
AAXX 12184 60739 12658 23314 10127 20039 39404 40223 52008 60002 82202 333 10168 82830 94225
AAXX 12184 60740 12965 33308 10181 20092 30218 40220 53011 60002 82032 333 10190 82360
AAXX 12184 60742 NIL
AAXX 12184 60764 NIL
AAXX 12184 60770 12975 52704 10148 20061 30078 40217 53011 60002 82082 333 10229 82360 84070
AAXX 12184 60772 NIL
AAXX 12184 60775 12565 52806 10155 20027 39870 40224 52006 60002 82582 333 10200 81630 83070
AAXX 12184 60780 12960 63306 10160 20036 39927 40231 52006 60002 82082 333 10208 82360 85070
AAXX 12184 60252 12960 22605 10154 20122 40236 53004 60002 80002 333 10221 82070 95800
BBXX 61002 12184 99421 10047 46/// ///23 10141 2//// 40212 52016 22200 00153 10605 70024 555 1/030
AAXX 12184 60621 36/// /0113 10200 21013 333 10244
AAXX 12184 60619 36/// /0306 10158 21015 333 10204
AAXX 12184 78922 46/// /1710 10285 20225 30073 40117 58019
AAXX 12184 60612 36/// /0000 10149 21050 333 10204
AAXX 12184 60663 36/// /0000 10185 21095 333 10219
AAXX 12181 76040 32960 72101 10136 30083 40097 52005 87006 91747 333 10139 20099 30/// 56009 59053 87098 98660
AAXX 12181 76055 32980 02702 10185 20063 30070 40089 52005 91740 333 10201 20125 30/// 58///
AAXX 12181 76113 22780 83401 10102 20094 39656 40108 52020 88800 91745 333 10130 20100 32/// 56700 59042 60057 88750
AAXX 12181 76123 06570 73203 10182 20000 3//// 4//// 5//// 60002 7//// 81224 91750 333 0//// 10182 20004 56493 57/// 5//// 60007 81835 8//// 8//// 8//// 9//// 9//// 9//// 444 ///// 555
AAXX 12181 76225 32760 72004 10145 20065 38612 40143 50002 87020 91745 333 10145 20050 30/// 56050 59027 87450
AAXX 12181 76226 06/// /1704 10154 20051 38606 40095 58001 60002 7//// 8//// 91750 333 0//// 10154 20051 30/// 4//// 54/// 56/// 57/// 59025 60007 8//// 8//// 8//// 9//// 9//// 9//// 44
AAXX 12181 76256 02680 81902 10172 20148 30151 40165 52014 60011 75855 88700 91745 333 10182 20155 31/// 565// 59010 60017 88734
AAXX 12181 76305 31670 72403 10204 20105 30142 40150 52021 82450 91740 333 10207 20159 30/// 56550 59008 82630 85358
AAXX 12181 76323 32870 80401 10154 21004 38264 40216 50000 85036 91745 333 10164 20050 30/// 56055 59027 85357 83268
AAXX 12181 76342 31360 80401 10096 20070 39533 40267 57003 70222 887// 91750 333 10105 20060 31/// 561// 59039 88710
AAXX 12181 76373 32670 50000 10186 21032 38206 40152 57011 85050 91750 333 10190 20011 30/// 56090 58004 85340
AAXX 12181 76382 32980 71103 10208 20120 38910 40173 57004 80004 91745 333 10218 20090 30/// 56005 59025 87076
AAXX 12181 76390 31965 22207 10168 20073 38244 40153 52008 70544 80006 91730 333 10186 20116 30/// 56005 59011 82070
AAXX 12181 76393 01203 80600 10114 20103 39627 40219 54000 69901 70422 887// 91752 333 10118 20090 31/// 569// 59037 69907 88705
AAXX 12181 76402 31557 72703 10206 20143 30102 40159 52012 70544 87500 91745 333 10206 20150 30/// 56400 59004 87630
AAXX 12181 76423 32982 21801 10201 20012 38171 40181 54001 80007 91739 333 10211 20060 30/// 56004 58016 81095
AAXX 12181 76458 32970 01704 10250 20182 30157 40162 58002 91740 333 10267 20135 30/// 58008
AAXX 12181 76471 32980 12103 10200 20092 37710 40146 52004 80001 91755 333 10208 20059 30/// 56005 58004 81075
AAXX 12181 76490 06/// /0403 10199 20145 39810 40199 58008 69922 7//// 8//// 91750 333 0//// 10199 20124 30/// 54/// 56/// 57/// 59042 69927 8//// 8//// 8//// 8//// 9//// 9//// 9//// 44
AAXX 12181 76491 32960 20201 10188 20176 39827 40224 57006 80004 91745 333 10192 20120 31/// 56009 59050
AAXX 12181 76499 31457 73401 10200 20167 30186 40208 57002 70122 876// 91755 333 10201 20148 32/// 568// 59034 87714
AAXX 12181 76525 32970 52106 10140 20051 37491 40154 52007 80001 91755 333 10142 20101 30/// 56//5 58005 85080
AAXX 12181 76538 06/// /3102 10168 20071 38193 40162 58003 60002 7//// 8//// 91750 333 0//// 10171 20066 30/// 4//// 54/// 56/// 57/// 58002 60007 8//// 8//// 8//// 9//// 9//// 9//// 44
AAXX 12181 76539 31962 00000 10142 20065 38195 40232 52010 70544 91745 333 10167 20048 30/// 58004
AAXX 12181 76543 32575 32002 10254 20161 30191 40224 58015 81130 91735 333 10256 20165 30/// 56330 59031 81834
AAXX 12181 76547 06/// /2102 10235 20166 30201 40213 58005 60002 7//// 8//// 91750 333 0//// 10236 20160 56/// 57/// 59018 60007 8//// 8//// 8//// 8//// 9//// 9//// 9//// 444 ///// 555
AAXX 12181 76548 32575 12102 10236 20169 30217 40227 50001 81100 91740 333 10238 20164 30/// 56400 59018 81826
AAXX 12181 76556 32970 50000 10240 20120 39138 40171 50007 80006 91730 333 10251 20122 30/// 56006 58010 85270
AAXX 12181 76571 31965 21802 10204 20048 38190 40211 55001 705// 91755 333 10210 20060 30/// 50005 58001
AAXX 12181 76577 32970 02305 10186 20147 38067 40189 50003 91740 333 10191 20081 30/// 59002
AAXX 12181 76578 06/// /2205 10191 20057 38064 40131 50002 60002 7//// 8//// 91750 333 0//// 10191 20076 30/// 4//// 54/// 56/// 57/// 58005 60007 8//// 8//// 8//// 9//// 9//// 9//// 44
AAXX 12181 76581 32970 50001 10212 20136 39085 40199 54000 85060 91750 333 10221 20117 30/// 56020 59015 85360
AAXX 12181 76585 32680 20901 10220 20183 30055 40214 50000 82200 91735 333 10230 20164 30/// 562// 59021 82833
AAXX 12181 76586 06/// /0501 10237 20168 30054 40209 58003 60002 7//// 8//// 91750 333 0//// 10248 20165 30/// 4//// 54/// 56/// 57/// 59024 60007 8//// 8//// 8//// 9//// 9//// 9//// 44
AAXX 12181 76592 06/// /0412 10265 20109 30188 40188 58008 60002 7//// 8//// 91750 333 0//// 10272 20225 30/// 4//// 54/// 56/// 57/// 58001 60007 8//// 8//// 8//// 9//// 9//// 9//// 44
AAXX 12181 76593 32370 30505 10266 20253 30188 40190 58007 83200 91750 333 10272 20225 30/// 561// 59001 81820 82720 91007 91505
AAXX 12181 76612 32562 51501 10210 20122 38497 40190 50000 83830 91750 333 10226 20088 30/// 56660 58005 81630 82833
AAXX 12181 76625 32950 03203 10187 20078 38164 40174 57002 91740 333 10187 20091 30/// 58001
AAXX 12181 76632 31957 01703 10157 20093 37656 40170 52002 70500 91740 333 10190 20064 30/// 58008
AAXX 12181 76634 31970 02601 10208 20024 37869 40206 57008 70500 80000 91750 333 10214 20048 30/// 56/// 59010
AAXX 12181 76641 06/// /1101 10254 20187 30206 40218 58005 60002 7//// 8//// 91750 333 0//// 10260 20170 30/// 4//// 54/// 56/// 57/// 59015 60007 8//// 8//// 8//// 8//// 9//// 9//// 9/
AAXX 12181 76644 32460 51103 10300 20225 30171 40183 56014 852// 91750 333 10300 20205 30/// 563// 59006 85820 91005 91511
AAXX 12181 76645 06/// /0603 10298 20213 30175 40188 58011 60002 7//// 8//// 91750 333 0//// 10298 20205 30/// 4//// 54/// 56/// 57/// 59005 60007 8//// 8//// 8//// 9//// 9//// 9//// 44
AAXX 12181 76648 06/// /0502 10291 20217 30148 40178 58012 69922 7//// 8//// 91750 333 0//// 10297 20199 30/// 4//// 54/// 56/// 57/// 58013 60007 8//// 8//// 8//// 8//// 9//// 9//// 9/
AAXX 12181 76654 31430 12501 10278 20218 30168 40172 50006 70544 81500 91750 333 10278 20213 30/// 56400 58011 81620
AAXX 12181 76656 32575 11601 10232 20121 38529 40185 54000 81100 91750 333 10240 20080 30/// 56300 58010 81820
AAXX 12181 76658 31558 12302 10279 20160 39657 40165 52002 70540 81100 91751 333 10282 20176 30/// 56100 58016 81822 94022 98904
AAXX 12181 76659 06/// /2302 10300 20142 3//// 4//// 5//// 60002 7//// 8//// 91750 333 0//// 10300 20165 30/// 4//// 54/// 56/// 57/// 5//// 60007 8//// 8//// 8//// 9//// 9//// 9//// 44
AAXX 12181 76662 31670 63601 10196 20124 38490 40191 52004 70542 86400 91750 333 10205 20080 30/// 56200 58000 86633
AAXX 12181 76665 31562 22101 10224 20095 38128 40161 57011 70100 82100 91755 333 10234 20075 30/// 56100 57812 59006 82814
AAXX 12181 76675 31570 01302 10182 20017 37393 40215 56003 70544 91751 333 10191 21008 30/// 58004 98470
AAXX 12181 76680 31956 01402 10184 20049 37772 40127 57007 70400 80000 91755 333 10190 20072 30/// 59001
AAXX 12181 76683 32968 01801 10184 20086 37850 40240 56009 91745 333 10195 20035 30/// 58006
AAXX 12181 76684 06/// /1804 10204 20015 37850 40128 58012 60002 7//// 8//// 91750 333 0//// 10204 20026 30/// 4//// 54/// 56/// 57/// 58002 60007 8//// 8//// 8//// 9//// 9//// 9//// 44
AAXX 12181 76685 32960 01202 10198 20021 37891 40196 57002 80000 91740 333 10200 20048 30/// 58004
AAXX 12181 76687 31560 62401 10187 20124 38723 40233 57001 70242 86500 91737 333 10190 20088 30/// 563// 59001 81824 85622
AAXX 12181 76692 31556 30402 10254 20195 30192 40211 58005 70544 83800 91745 333 10255 20200 30/// 568// 59005 82820 81622
AAXX 12181 76693 06/// /0402 10260 20197 30188 40207 58010 60002 7//// 8//// 91750 333 0//// 10260 20198 30/// 4//// 56/// 57/// 59008 60007 8//// 8//// 8//// 8//// 9//// 9//// 9//// 44
AAXX 12181 76695 02460 70702 10256 20219 30168 40174 57012 69901 87200 91745 333 10256 20194 31/// 561// 59008 69997 84512 83812
AAXX 12181 76698 01560 60501 10263 20244 30168 40180 57009 60011 75152 86200 91755 333 10297 20213 32/// 56100 58007 60017 86820
AAXX 12181 76726 32970 02001 10213 20109 38424 40169 52001 91755 333 10213 20118 30/// 58001
AAXX 12181 76727 06/// /1701 10220 20052 38422 40119 58005 60002 7//// 8//// 91750 333 0//// 10233 20121 30/// 4//// 54/// 56/// 57/// 58004 60007 8//// 8//// 8//// 9//// 9//// 9//// 44
AAXX 12181 76737 31480 41402 10192 20139 38815 40218 53001 70300 84200 91735 333 10199 20092 30/// 56200 59003 83817 91105 91514
AAXX 12181 76738 06/// /1502 10201 20129 38815 40183 58004 60002 7//// 8//// 333 10202 20087 30/// 56/// 57/// 59003 60007 8//// 8//// 8//// 8//// 9//// 9//// 9//// 444 ///// 555 30187
AAXX 12181 76750 32560 73002 10260 20218 30168 40178 57008 87600 91750 333 10268 20190 30/// 56800 58002 87720
AAXX 12181 76751 06/// /3202 10267 20224 30168 40178 58008 60002 7//// 8//// 91750 333 0//// 10267 20189 30/// 4//// 54/// 56/// 57/// 58003 60007 8//// 8//// 8//// 9//// 9//// 9//// 44
AAXX 12181 76762 32904 03201 10260 20210 38776 40164 54000 91735 333 10120 30/// 58004
AAXX 12181 76772 06/// /2701 10234 20055 38444 40124 58018 60002 7//// 8//// 91750 333 0//// 10234 20048 30/// 4//// 56/// 57/// 58001 60007 8//// 8//// 8//// 9//// 9//// 9//// 444 ////
AAXX 12181 76773 31968 02801 10232 20117 38441 40193 57015 7054/ 91748 333 10235 20051 30/// 58001
AAXX 12181 76775 31970 03401 10236 20075 38548 40211 57015 70200 91730 333 10238 20058 30/// 59001
AAXX 12181 76776 06/// /1501 10230 20059 38530 40130 58019 60002 7//// 8//// 91750 333 0//// 10230 20054 30/// 4//// 56/// 57/// 58001 60007 8//// 8//// 8//// 9//// 9//// 9//// 444 ////
AAXX 12181 76805 32570 12102 10292 20231 30147 40151 50002 81100 91745 333 10318 20216 30/// 567// 58019 81830
AAXX 12181 76806 06/// /2202 10297 20226 30145 40149 58007 60002 7//// 8//// 91750 333 10302 20212 30/// 56/// 57/// 58011 60007 8//// 8//// 8//// 8//// 9//// 9//// 9//// 555 30274
AAXX 12181 76833 32970 03610 10298 20149 30142 40144 57012 91745 333 10298 20220 30/// 58003 92023
AAXX 12181 76840 32550 10406 10284 20174 30090 40146 57007 81100 91730 333 10290 20180 30/// 56100 58002 81827
AAXX 12181 76843 32565 13602 10244 20160 39525 40173 57015 81100 91735 333 10250 20162 30/// 569// 58005 81830
AAXX 12181 76845 32960 03603 10180 20137 37966 40205 56008 91745 333 10192 20038 30/// 58007
AAXX 12181 76848 32770 10602 10225 20086 38402 40131 56004 81100 91750 333 10226 20083 30/// 56100 58004 81856
AAXX 12181 76902 06/// /2202 10324 20179 39998 40133 58008 60002 7//// 8//// 91750 333 0//// 10330 20220 30/// 4//// 54/// 56/// 57/// 58006 60007 8//// 8//// 8//// 8//// 9//// 9//// 9/
AAXX 12181 76903 32980 02302 10329 20182 30000 40130 57008 91740 333 10339 20222 30/// 58011
AAXX 12181 76160 11562 51601 10160 20112 39901 40151 52015 70252 885// 91730 333 10160 20150 30/// 56500 58/// 69907 88630
AAXX 12181 76243 11370 80701 10100 20089 39931 40235 57001 69931 70252 887// 91740 333 10106 20070 31/// 568// 59050 88707
AAXX 12181 76253 32682 82303 10184 20115 30059 40149 54002 88400 91750 333 10190 20160 30/// 59023 88634 92002
AAXX 12181 76311 32580 80000 10178 20122 39885 40168 52013 884// 91745 333 10180 20108 30/// 565// 59006 88625
AAXX 12181 76405 32675 61802 10240 20185 30137 40157 50008 85210 91750 333 10240 20196 30/// 56440 59002 85837
AAXX 12181 76412 31966 02501 10264 20138 300118 40163 57013 70544 91745 333 10264 20118 30/// 59011
AAXX 12181 76519 31960 60000 10222 20075 38387 40223 54000 80002 91750 333 10225 20048 30/// 56006 59011 86070
AAXX 12181 76640 31458 53201 10224 20190 30222 40234 57003 70211 8215/ 91740 333 10238 20164 30/// 5633/ 59021 82814 83340
AAXX 12181 76647 32570 60502 10277 20226 30161 40192 58001 85230 91750 333 10292 20200 32/// 561/0 58016 85820
AAXX 12181 76741 31478 50503 10248 20209 30179 40197 52005 70544 83230 91730 333 10255 20150 30/// 5611/ 58016 83811
AAXX 12181 76855 32880 11802 10316 20243 30089 40138 50002 81020 91745 333 10320 20210 30/// 56090 58011 81458 92001
AAXX 12184 85032 11556 60214 10260 20253 39915 40075 57040 60161 71792 85924 333 56116 59015 84817 81920 85457 86070 96015
AAXX 12184 85043 31458 63608 10323 20249 39914 40074 57041 71522 86900 333 56800 59016 85817 81920
AAXX 12184 85104 31458 63210 10321 20247 39900 40058 57032 71522 84904 333 56706 59010 83817 81923 86070
AAXX 12184 85109 31458 63210 10320 20240 39915 40074 57027 71522 84930 333 56770 59005 83817 81923 86358
AAXX 12184 85114 11458 63206 10240 20229 39920 40083 57025 60081 71596 85910 333 56770 58000 84817 81923 86457
AAXX 12184 85116 31458 63412 10325 20253 39890 40067 57034 71522 84904 333 56706 59002 83817 81923 86070
AAXX 12184 85123 31558 73114 10330 20244 39885 40048 57042 71522 86904 333 56708 59008 85820 81923 86070
AAXX 12184 85139 31457 73015 10293 20257 39841 40031 57019 71522 86904 333 56706 58006 85616 81923 87070
AAXX 12184 85153 12465 70000 10264 20248 39900 40082 57025 60314 84908 333 56706 58011 83817 81923 87270
AAXX 12184 85154 11458 73403 10256 20248 39885 40061 57034 60051 71598 84902 333 56706 59003 83817 81920 86070
AAXX 12181 48892 11498 80706 10262 20251 30064 40069 58014 60041 70382 889// 333 58020 81894 82995 86697
AAXX 12181 48877 32598 73202 10231 20166 30113 40118 57015 878// 333 59022 82895 87697
AAXX 12181 48887 11798 62702 10236 20218 30098 40104 57014 69941 70262 865// 333 59011 86697
AAXX 12181 48870 32498 83405 10212 20164 30132 40139 58018 888// 333 59014 83894 88696
AAXX 12181 48920 11497 83608 10259 20252 30061 40064 58014 69941 78082 889// 333 59009 82894 83995 85697 9111 6 91532 96160
AAXX 12181 76040 32960 72101 10136 30083 40097 52005 87006 91747 333 10139 20099 30/// 56009 59053 87098 98660
AAXX 12181 76055 32980 02702 10185 20063 30070 40089 52005 91740 333 10201 20125 30/// 58///
AAXX 12181 76113 22780 83401 10102 20094 39656 40108 52020 88800 91745 333 10130 20100 32/// 56700 59042 60057 88750
AAXX 12181 76123 06570 73203 10182 20000 3//// 4//// 5//// 60002 7//// 81224 91750 333 0//// 10182 20004 56493 57/// 5//// 60007 81835 8//// 8//// 8//// 9//// 9//// 9//// 444 ///// 555
AAXX 12181 76225 32760 72004 10145 20065 38612 40143 50002 87020 91745 333 10145 20050 30/// 56050 59027 87450
AAXX 12181 76226 06/// /1704 10154 20051 38606 40095 58001 60002 7//// 8//// 91750 333 0//// 10154 20051 30/// 4//// 54/// 56/// 57/// 59025 60007 8//// 8//// 8//// 9//// 9//// 9//// 44
AAXX 12181 76256 02680 81902 10172 20148 30151 40165 52014 60011 75855 88700 91745 333 10182 20155 31/// 565// 59010 60017 88734
AAXX 12181 76305 31670 72403 10204 20105 30142 40150 52021 82450 91740 333 10207 20159 30/// 56550 59008 82630 85358
AAXX 12181 76323 32870 80401 10154 21004 38264 40216 50000 85036 91745 333 10164 20050 30/// 56055 59027 85357 83268
AAXX 12181 76342 31360 80401 10096 20070 39533 40267 57003 70222 887// 91750 333 10105 20060 31/// 561// 59039 88710
AAXX 12181 76373 32670 50000 10186 21032 38206 40152 57011 85050 91750 333 10190 20011 30/// 56090 58004 85340
AAXX 12181 76382 32980 71103 10208 20120 38910 40173 57004 80004 91745 333 10218 20090 30/// 56005 59025 87076
AAXX 12181 76390 31965 22207 10168 20073 38244 40153 52008 70544 80006 91730 333 10186 20116 30/// 56005 59011 82070
AAXX 12181 76393 01203 80600 10114 20103 39627 40219 54000 69901 70422 887// 91752 333 10118 20090 31/// 569// 59037 69907 88705
AAXX 12181 76402 31557 72703 10206 20143 30102 40159 52012 70544 87500 91745 333 10206 20150 30/// 56400 59004 87630
AAXX 12181 76423 32982 21801 10201 20012 38171 40181 54001 80007 91739 333 10211 20060 30/// 56004 58016 81095
AAXX 12181 76458 32970 01704 10250 20182 30157 40162 58002 91740 333 10267 20135 30/// 58008
AAXX 12181 76471 32980 12103 10200 20092 37710 40146 52004 80001 91755 333 10208 20059 30/// 56005 58004 81075
AAXX 12181 76490 06/// /0403 10199 20145 39810 40199 58008 69922 7//// 8//// 91750 333 0//// 10199 20124 30/// 54/// 56/// 57/// 59042 69927 8//// 8//// 8//// 8//// 9//// 9//// 9//// 44
AAXX 12181 76491 32960 20201 10188 20176 39827 40224 57006 80004 91745 333 10192 20120 31/// 56009 59050
AAXX 12181 76499 31457 73401 10200 20167 30186 40208 57002 70122 876// 91755 333 10201 20148 32/// 568// 59034 87714
AAXX 12181 76525 32970 52106 10140 20051 37491 40154 52007 80001 91755 333 10142 20101 30/// 56//5 58005 85080
AAXX 12181 76538 06/// /3102 10168 20071 38193 40162 58003 60002 7//// 8//// 91750 333 0//// 10171 20066 30/// 4//// 54/// 56/// 57/// 58002 60007 8//// 8//// 8//// 9//// 9//// 9//// 44
AAXX 12181 76539 31962 00000 10142 20065 38195 40232 52010 70544 91745 333 10167 20048 30/// 58004
AAXX 12181 76543 32575 32002 10254 20161 30191 40224 58015 81130 91735 333 10256 20165 30/// 56330 59031 81834
AAXX 12181 76547 06/// /2102 10235 20166 30201 40213 58005 60002 7//// 8//// 91750 333 0//// 10236 20160 56/// 57/// 59018 60007 8//// 8//// 8//// 8//// 9//// 9//// 9//// 444 ///// 555
AAXX 12181 76548 32575 12102 10236 20169 30217 40227 50001 81100 91740 333 10238 20164 30/// 56400 59018 81826
AAXX 12181 76556 32970 50000 10240 20120 39138 40171 50007 80006 91730 333 10251 20122 30/// 56006 58010 85270
AAXX 12181 76571 31965 21802 10204 20048 38190 40211 55001 705// 91755 333 10210 20060 30/// 50005 58001
AAXX 12181 76577 32970 02305 10186 20147 38067 40189 50003 91740 333 10191 20081 30/// 59002
AAXX 12181 76578 06/// /2205 10191 20057 38064 40131 50002 60002 7//// 8//// 91750 333 0//// 10191 20076 30/// 4//// 54/// 56/// 57/// 58005 60007 8//// 8//// 8//// 9//// 9//// 9//// 44
AAXX 12181 76581 32970 50001 10212 20136 39085 40199 54000 85060 91750 333 10221 20117 30/// 56020 59015 85360
AAXX 12181 76585 32680 20901 10220 20183 30055 40214 50000 82200 91735 333 10230 20164 30/// 562// 59021 82833
AAXX 12181 76586 06/// /0501 10237 20168 30054 40209 58003 60002 7//// 8//// 91750 333 0//// 10248 20165 30/// 4//// 54/// 56/// 57/// 59024 60007 8//// 8//// 8//// 9//// 9//// 9//// 44
AAXX 12181 76592 06/// /0412 10265 20109 30188 40188 58008 60002 7//// 8//// 91750 333 0//// 10272 20225 30/// 4//// 54/// 56/// 57/// 58001 60007 8//// 8//// 8//// 9//// 9//// 9//// 44
AAXX 12181 76593 32370 30505 10266 20253 30188 40190 58007 83200 91750 333 10272 20225 30/// 561// 59001 81820 82720 91007 91505
AAXX 12181 76612 32562 51501 10210 20122 38497 40190 50000 83830 91750 333 10226 20088 30/// 56660 58005 81630 82833
AAXX 12181 76625 32950 03203 10187 20078 38164 40174 57002 91740 333 10187 20091 30/// 58001
AAXX 12181 76632 31957 01703 10157 20093 37656 40170 52002 70500 91740 333 10190 20064 30/// 58008
AAXX 12181 76634 31970 02601 10208 20024 37869 40206 57008 70500 80000 91750 333 10214 20048 30/// 56/// 59010
AAXX 12181 76641 06/// /1101 10254 20187 30206 40218 58005 60002 7//// 8//// 91750 333 0//// 10260 20170 30/// 4//// 54/// 56/// 57/// 59015 60007 8//// 8//// 8//// 8//// 9//// 9//// 9/
AAXX 12181 76644 32460 51103 10300 20225 30171 40183 56014 852// 91750 333 10300 20205 30/// 563// 59006 85820 91005 91511
AAXX 12181 76645 06/// /0603 10298 20213 30175 40188 58011 60002 7//// 8//// 91750 333 0//// 10298 20205 30/// 4//// 54/// 56/// 57/// 59005 60007 8//// 8//// 8//// 9//// 9//// 9//// 44
AAXX 12181 76648 06/// /0502 10291 20217 30148 40178 58012 69922 7//// 8//// 91750 333 0//// 10297 20199 30/// 4//// 54/// 56/// 57/// 58013 60007 8//// 8//// 8//// 8//// 9//// 9//// 9/
AAXX 12181 76654 31430 12501 10278 20218 30168 40172 50006 70544 81500 91750 333 10278 20213 30/// 56400 58011 81620
AAXX 12181 76656 32575 11601 10232 20121 38529 40185 54000 81100 91750 333 10240 20080 30/// 56300 58010 81820
AAXX 12181 76658 31558 12302 10279 20160 39657 40165 52002 70540 81100 91751 333 10282 20176 30/// 56100 58016 81822 94022 98904
AAXX 12181 76659 06/// /2302 10300 20142 3//// 4//// 5//// 60002 7//// 8//// 91750 333 0//// 10300 20165 30/// 4//// 54/// 56/// 57/// 5//// 60007 8//// 8//// 8//// 9//// 9//// 9//// 44
AAXX 12181 76662 31670 63601 10196 20124 38490 40191 52004 70542 86400 91750 333 10205 20080 30/// 56200 58000 86633
AAXX 12181 76665 31562 22101 10224 20095 38128 40161 57011 70100 82100 91755 333 10234 20075 30/// 56100 57812 59006 82814
AAXX 12181 76675 31570 01302 10182 20017 37393 40215 56003 70544 91751 333 10191 21008 30/// 58004 98470
AAXX 12181 76680 31956 01402 10184 20049 37772 40127 57007 70400 80000 91755 333 10190 20072 30/// 59001
AAXX 12181 76683 32968 01801 10184 20086 37850 40240 56009 91745 333 10195 20035 30/// 58006
AAXX 12181 76684 06/// /1804 10204 20015 37850 40128 58012 60002 7//// 8//// 91750 333 0//// 10204 20026 30/// 4//// 54/// 56/// 57/// 58002 60007 8//// 8//// 8//// 9//// 9//// 9//// 44
AAXX 12181 76685 32960 01202 10198 20021 37891 40196 57002 80000 91740 333 10200 20048 30/// 58004
AAXX 12181 76687 31560 62401 10187 20124 38723 40233 57001 70242 86500 91737 333 10190 20088 30/// 563// 59001 81824 85622
AAXX 12181 76692 31556 30402 10254 20195 30192 40211 58005 70544 83800 91745 333 10255 20200 30/// 568// 59005 82820 81622
AAXX 12181 76693 06/// /0402 10260 20197 30188 40207 58010 60002 7//// 8//// 91750 333 0//// 10260 20198 30/// 4//// 56/// 57/// 59008 60007 8//// 8//// 8//// 8//// 9//// 9//// 9//// 44
AAXX 12181 76695 02460 70702 10256 20219 30168 40174 57012 69901 87200 91745 333 10256 20194 31/// 561// 59008 69997 84512 83812
AAXX 12181 76698 01560 60501 10263 20244 30168 40180 57009 60011 75152 86200 91755 333 10297 20213 32/// 56100 58007 60017 86820
AAXX 12181 76726 32970 02001 10213 20109 38424 40169 52001 91755 333 10213 20118 30/// 58001
AAXX 12181 76727 06/// /1701 10220 20052 38422 40119 58005 60002 7//// 8//// 91750 333 0//// 10233 20121 30/// 4//// 54/// 56/// 57/// 58004 60007 8//// 8//// 8//// 9//// 9//// 9//// 44
AAXX 12181 76737 31480 41402 10192 20139 38815 40218 53001 70300 84200 91735 333 10199 20092 30/// 56200 59003 83817 91105 91514
AAXX 12181 76738 06/// /1502 10201 20129 38815 40183 58004 60002 7//// 8//// 333 10202 20087 30/// 56/// 57/// 59003 60007 8//// 8//// 8//// 8//// 9//// 9//// 9//// 444 ///// 555 30187
AAXX 12181 76750 32560 73002 10260 20218 30168 40178 57008 87600 91750 333 10268 20190 30/// 56800 58002 87720
AAXX 12181 76751 06/// /3202 10267 20224 30168 40178 58008 60002 7//// 8//// 91750 333 0//// 10267 20189 30/// 4//// 54/// 56/// 57/// 58003 60007 8//// 8//// 8//// 9//// 9//// 9//// 44
AAXX 12181 76762 32904 03201 10260 20210 38776 40164 54000 91735 333 10120 30/// 58004
AAXX 12181 76772 06/// /2701 10234 20055 38444 40124 58018 60002 7//// 8//// 91750 333 0//// 10234 20048 30/// 4//// 56/// 57/// 58001 60007 8//// 8//// 8//// 9//// 9//// 9//// 444 ////
AAXX 12181 76773 31968 02801 10232 20117 38441 40193 57015 7054/ 91748 333 10235 20051 30/// 58001
AAXX 12181 76775 31970 03401 10236 20075 38548 40211 57015 70200 91730 333 10238 20058 30/// 59001
AAXX 12181 76776 06/// /1501 10230 20059 38530 40130 58019 60002 7//// 8//// 91750 333 0//// 10230 20054 30/// 4//// 56/// 57/// 58001 60007 8//// 8//// 8//// 9//// 9//// 9//// 444 ////
AAXX 12181 76805 32570 12102 10292 20231 30147 40151 50002 81100 91745 333 10318 20216 30/// 567// 58019 81830
AAXX 12181 76806 06/// /2202 10297 20226 30145 40149 58007 60002 7//// 8//// 91750 333 10302 20212 30/// 56/// 57/// 58011 60007 8//// 8//// 8//// 8//// 9//// 9//// 9//// 555 30274
AAXX 12181 76833 32970 03610 10298 20149 30142 40144 57012 91745 333 10298 20220 30/// 58003 92023
AAXX 12181 76840 32550 10406 10284 20174 30090 40146 57007 81100 91730 333 10290 20180 30/// 56100 58002 81827
AAXX 12181 76843 32565 13602 10244 20160 39525 40173 57015 81100 91735 333 10250 20162 30/// 569// 58005 81830
AAXX 12181 76845 32960 03603 10180 20137 37966 40205 56008 91745 333 10192 20038 30/// 58007
AAXX 12181 76848 32770 10602 10225 20086 38402 40131 56004 81100 91750 333 10226 20083 30/// 56100 58004 81856
AAXX 12181 76902 06/// /2202 10324 20179 39998 40133 58008 60002 7//// 8//// 91750 333 0//// 10330 20220 30/// 4//// 54/// 56/// 57/// 58006 60007 8//// 8//// 8//// 8//// 9//// 9//// 9/
AAXX 12181 76903 32980 02302 10329 20182 30000 40130 57008 91740 333 10339 20222 30/// 58011
AAXX 12181 76160 11562 51601 10160 20112 39901 40151 52015 70252 885// 91730 333 10160 20150 30/// 56500 58/// 69907 88630
AAXX 12181 76243 11370 80701 10100 20089 39931 40235 57001 69931 70252 887// 91740 333 10106 20070 31/// 568// 59050 88707
AAXX 12181 76253 32682 82303 10184 20115 30059 40149 54002 88400 91750 333 10190 20160 30/// 59023 88634 92002
AAXX 12181 76311 32580 80000 10178 20122 39885 40168 52013 884// 91745 333 10180 20108 30/// 565// 59006 88625
AAXX 12181 76405 32675 61802 10240 20185 30137 40157 50008 85210 91750 333 10240 20196 30/// 56440 59002 85837
AAXX 12181 76412 31966 02501 10264 20138 300118 40163 57013 70544 91745 333 10264 20118 30/// 59011
AAXX 12181 76519 31960 60000 10222 20075 38387 40223 54000 80002 91750 333 10225 20048 30/// 56006 59011 86070
AAXX 12181 76640 31458 53201 10224 20190 30222 40234 57003 70211 8215/ 91740 333 10238 20164 30/// 5633/ 59021 82814 83340
AAXX 12181 76647 32570 60502 10277 20226 30161 40192 58001 85230 91750 333 10292 20200 32/// 561/0 58016 85820
AAXX 12181 76741 31478 50503 10248 20209 30179 40197 52005 70544 83230 91730 333 10255 20150 30/// 5611/ 58016 83811
AAXX 12181 76855 32880 11802 10316 20243 30089 40138 50002 81020 91745 333 10320 20210 30/// 56090 58011 81458 92001
AAXX 12181 76040 32960 72101 10136 30083 40097 52005 87006 91747 33310139 20099 30/// 56009 59053 87098 98660
AAXX 12181 76055 32980 02702 10185 20063 30070 40089 52005 91740 33310201 20125 30/// 58///
AAXX 12181 76113 22780 83401 10102 20094 39656 40108 52020 88800 91745333 10130 20100 32/// 56700 59042 60057 88750
AAXX 12181 76123 06570 73203 10182 20000 3//// 4//// 5//// 60002 7////81224 91750 333 0//// 10182 20004 56493 57/// 5//// 6000781835 8//// 8//// 8//// 9//// 9//// 9//// 444 ///// 555
AAXX 12181 76225 32760 72004 10145 20065 38612 40143 50002 87020 91745333 10145 20050 30/// 56050 59027 87450
AAXX 12181 76226 06/// /1704 10154 20051 38606 40095 58001 60002 7////8//// 91750 333 0//// 10154 20051 30/// 4//// 54/// 56///57/// 59025 60007 8//// 8//// 8//// 9//// 9//// 9//// 44
AAXX 12181 76256 02680 81902 10172 20148 30151 40165 52014 60011 7585588700 91745 333 10182 20155 31/// 565// 59010 60017 88734
AAXX 12181 76305 31670 72403 10204 20105 30142 40150 52021 82450 91740333 10207 20159 30/// 56550 59008 82630 85358
AAXX 12181 76323 32870 80401 10154 21004 38264 40216 50000 85036 91745333 10164 20050 30/// 56055 59027 85357 83268
AAXX 12181 76342 31360 80401 10096 20070 39533 40267 57003 70222 887//91750 333 10105 20060 31/// 561// 59039 88710
AAXX 12181 76373 32670 50000 10186 21032 38206 40152 57011 85050 91750333 10190 20011 30/// 56090 58004 85340
AAXX 12181 76382 32980 71103 10208 20120 38910 40173 57004 80004 91745333 10218 20090 30/// 56005 59025 87076
AAXX 12181 76390 31965 22207 10168 20073 38244 40153 52008 70544 8000691730 333 10186 20116 30/// 56005 59011 82070
AAXX 12181 76393 01203 80600 10114 20103 39627 40219 54000 69901 70422887// 91752 333 10118 20090 31/// 569// 59037 69907 88705
AAXX 12181 76402 31557 72703 10206 20143 30102 40159 52012 70544 8750091745 333 10206 20150 30/// 56400 59004 87630
AAXX 12181 76423 32982 21801 10201 20012 38171 40181 54001 80007 91739333 10211 20060 30/// 56004 58016 81095
AAXX 12181 76458 32970 01704 10250 20182 30157 40162 58002 91740 33310267 20135 30/// 58008
AAXX 12181 76471 32980 12103 10200 20092 37710 40146 52004 80001 91755333 10208 20059 30/// 56005 58004 81075
AAXX 12181 76490 06/// /0403 10199 20145 39810 40199 58008 69922 7////8//// 91750 333 0//// 10199 20124 30/// 54/// 56/// 57///59042 69927 8//// 8//// 8//// 8//// 9//// 9//// 9//// 44
AAXX 12181 76491 32960 20201 10188 20176 39827 40224 57006 80004 91745333 10192 20120 31/// 56009 59050
AAXX 12181 76499 31457 73401 10200 20167 30186 40208 57002 70122 876//91755 333 10201 20148 32/// 568// 59034 87714
AAXX 12181 76525 32970 52106 10140 20051 37491 40154 52007 80001 91755333 10142 20101 30/// 56//5 58005 85080
AAXX 12181 76538 06/// /3102 10168 20071 38193 40162 58003 60002 7////8//// 91750 333 0//// 10171 20066 30/// 4//// 54/// 56///57/// 58002 60007 8//// 8//// 8//// 9//// 9//// 9//// 44
AAXX 12181 76539 31962 00000 10142 20065 38195 40232 52010 70544 91745333 10167 20048 30/// 58004
AAXX 12181 76543 32575 32002 10254 20161 30191 40224 58015 81130 91735333 10256 20165 30/// 56330 59031 81834
AAXX 12181 76547 06/// /2102 10235 20166 30201 40213 58005 60002 7////8//// 91750 333 0//// 10236 20160 56/// 57/// 59018 600078//// 8//// 8//// 8//// 9//// 9//// 9//// 444 ///// 555
AAXX 12181 76548 32575 12102 10236 20169 30217 40227 50001 81100 91740333 10238 20164 30/// 56400 59018 81826
AAXX 12181 76556 32970 50000 10240 20120 39138 40171 50007 80006 91730333 10251 20122 30/// 56006 58010 85270
AAXX 12181 76571 31965 21802 10204 20048 38190 40211 55001 705// 91755333 10210 20060 30/// 50005 58001
AAXX 12181 76577 32970 02305 10186 20147 38067 40189 50003 91740 33310191 20081 30/// 59002
AAXX 12181 76578 06/// /2205 10191 20057 38064 40131 50002 60002 7////8//// 91750 333 0//// 10191 20076 30/// 4//// 54/// 56///57/// 58005 60007 8//// 8//// 8//// 9//// 9//// 9//// 44
AAXX 12181 76581 32970 50001 10212 20136 39085 40199 54000 85060 91750333 10221 20117 30/// 56020 59015 85360
AAXX 12181 76585 32680 20901 10220 20183 30055 40214 50000 82200 91735333 10230 20164 30/// 562// 59021 82833
AAXX 12181 76586 06/// /0501 10237 20168 30054 40209 58003 60002 7////8//// 91750 333 0//// 10248 20165 30/// 4//// 54/// 56///57/// 59024 60007 8//// 8//// 8//// 9//// 9//// 9//// 44
AAXX 12181 76592 06/// /0412 10265 20109 30188 40188 58008 60002 7////8//// 91750 333 0//// 10272 20225 30/// 4//// 54/// 56///57/// 58001 60007 8//// 8//// 8//// 9//// 9//// 9//// 44
AAXX 12181 76593 32370 30505 10266 20253 30188 40190 58007 83200 91750333 10272 20225 30/// 561// 59001 81820 82720 91007 91505
AAXX 12181 76612 32562 51501 10210 20122 38497 40190 50000 83830 91750333 10226 20088 30/// 56660 58005 81630 82833
AAXX 12181 76625 32950 03203 10187 20078 38164 40174 57002 91740 33310187 20091 30/// 58001
AAXX 12181 76632 31957 01703 10157 20093 37656 40170 52002 70500 91740333 10190 20064 30/// 58008
AAXX 12181 76634 31970 02601 10208 20024 37869 40206 57008 70500 8000091750 333 10214 20048 30/// 56/// 59010
AAXX 12181 76641 06/// /1101 10254 20187 30206 40218 58005 60002 7////8//// 91750 333 0//// 10260 20170 30/// 4//// 54/// 56///57/// 59015 60007 8//// 8//// 8//// 8//// 9//// 9//// 9/
AAXX 12181 76644 32460 51103 10300 20225 30171 40183 56014 852// 91750333 10300 20205 30/// 563// 59006 85820 91005 91511
AAXX 12181 76645 06/// /0603 10298 20213 30175 40188 58011 60002 7////8//// 91750 333 0//// 10298 20205 30/// 4//// 54/// 56///57/// 59005 60007 8//// 8//// 8//// 9//// 9//// 9//// 44
AAXX 12181 76648 06/// /0502 10291 20217 30148 40178 58012 69922 7////8//// 91750 333 0//// 10297 20199 30/// 4//// 54/// 56///57/// 58013 60007 8//// 8//// 8//// 8//// 9//// 9//// 9/
AAXX 12181 76654 31430 12501 10278 20218 30168 40172 50006 70544 8150091750 333 10278 20213 30/// 56400 58011 81620
AAXX 12181 76656 32575 11601 10232 20121 38529 40185 54000 81100 91750333 10240 20080 30/// 56300 58010 81820
AAXX 12181 76658 31558 12302 10279 20160 39657 40165 52002 70540 8110091751 333 10282 20176 30/// 56100 58016 81822 94022 98904
AAXX 12181 76659 06/// /2302 10300 20142 3//// 4//// 5//// 60002 7////8//// 91750 333 0//// 10300 20165 30/// 4//// 54/// 56///57/// 5//// 60007 8//// 8//// 8//// 9//// 9//// 9//// 44
AAXX 12181 76662 31670 63601 10196 20124 38490 40191 52004 70542 8640091750 333 10205 20080 30/// 56200 58000 86633
AAXX 12181 76665 31562 22101 10224 20095 38128 40161 57011 70100 8210091755 333 10234 20075 30/// 56100 57812 59006 82814
AAXX 12181 76675 31570 01302 10182 20017 37393 40215 56003 70544 91751333 10191 21008 30/// 58004 98470
AAXX 12181 76680 31956 01402 10184 20049 37772 40127 57007 70400 8000091755 333 10190 20072 30/// 59001
AAXX 12181 76683 32968 01801 10184 20086 37850 40240 56009 91745 33310195 20035 30/// 58006
AAXX 12181 76684 06/// /1804 10204 20015 37850 40128 58012 60002 7////8//// 91750 333 0//// 10204 20026 30/// 4//// 54/// 56///57/// 58002 60007 8//// 8//// 8//// 9//// 9//// 9//// 44
AAXX 12181 76685 32960 01202 10198 20021 37891 40196 57002 80000 91740333 10200 20048 30/// 58004
AAXX 12181 76687 31560 62401 10187 20124 38723 40233 57001 70242 8650091737 333 10190 20088 30/// 563// 59001 81824 85622
AAXX 12181 76692 31556 30402 10254 20195 30192 40211 58005 70544 8380091745 333 10255 20200 30/// 568// 59005 82820 81622
AAXX 12181 76693 06/// /0402 10260 20197 30188 40207 58010 60002 7////8//// 91750 333 0//// 10260 20198 30/// 4//// 56/// 57///59008 60007 8//// 8//// 8//// 8//// 9//// 9//// 9//// 44
AAXX 12181 76695 02460 70702 10256 20219 30168 40174 57012 69901 8720091745 333 10256 20194 31/// 561// 59008 69997 84512 83812
AAXX 12181 76698 01560 60501 10263 20244 30168 40180 57009 60011 7515286200 91755 333 10297 20213 32/// 56100 58007 60017 86820
AAXX 12181 76726 32970 02001 10213 20109 38424 40169 52001 91755 33310213 20118 30/// 58001
AAXX 12181 76727 06/// /1701 10220 20052 38422 40119 58005 60002 7////8//// 91750 333 0//// 10233 20121 30/// 4//// 54/// 56///57/// 58004 60007 8//// 8//// 8//// 9//// 9//// 9//// 44
AAXX 12181 76737 31480 41402 10192 20139 38815 40218 53001 70300 8420091735 333 10199 20092 30/// 56200 59003 83817 91105 91514
AAXX 12181 76738 06/// /1502 10201 20129 38815 40183 58004 60002 7////8//// 333 10202 20087 30/// 56/// 57/// 59003 60007 8////8//// 8//// 8//// 9//// 9//// 9//// 444 ///// 555 30187
AAXX 12181 76750 32560 73002 10260 20218 30168 40178 57008 87600 91750333 10268 20190 30/// 56800 58002 87720
AAXX 12181 76751 06/// /3202 10267 20224 30168 40178 58008 60002 7////8//// 91750 333 0//// 10267 20189 30/// 4//// 54/// 56///57/// 58003 60007 8//// 8//// 8//// 9//// 9//// 9//// 44
AAXX 12181 76762 32904 03201 10260 20210 38776 40164 54000 91735 33310120 30/// 58004
AAXX 12181 76772 06/// /2701 10234 20055 38444 40124 58018 60002 7////8//// 91750 333 0//// 10234 20048 30/// 4//// 56/// 57///58001 60007 8//// 8//// 8//// 9//// 9//// 9//// 444 ////
AAXX 12181 76773 31968 02801 10232 20117 38441 40193 57015 7054/ 91748333 10235 20051 30/// 58001
AAXX 12181 76775 31970 03401 10236 20075 38548 40211 57015 70200 91730333 10238 20058 30/// 59001
AAXX 12181 76776 06/// /1501 10230 20059 38530 40130 58019 60002 7////8//// 91750 333 0//// 10230 20054 30/// 4//// 56/// 57///58001 60007 8//// 8//// 8//// 9//// 9//// 9//// 444 ////
AAXX 12181 76805 32570 12102 10292 20231 30147 40151 50002 81100 91745333 10318 20216 30/// 567// 58019 81830
AAXX 12181 76806 06/// /2202 10297 20226 30145 40149 58007 60002 7////8//// 91750 333 10302 20212 30/// 56/// 57/// 58011 600078//// 8//// 8//// 8//// 9//// 9//// 9//// 555 30274
AAXX 12181 76833 32970 03610 10298 20149 30142 40144 57012 91745 33310298 20220 30/// 58003 92023
AAXX 12181 76840 32550 10406 10284 20174 30090 40146 57007 81100 91730333 10290 20180 30/// 56100 58002 81827
AAXX 12181 76843 32565 13602 10244 20160 39525 40173 57015 81100 91735333 10250 20162 30/// 569// 58005 81830
AAXX 12181 76845 32960 03603 10180 20137 37966 40205 56008 91745 33310192 20038 30/// 58007
AAXX 12181 76848 32770 10602 10225 20086 38402 40131 56004 81100 91750333 10226 20083 30/// 56100 58004 81856
AAXX 12181 76902 06/// /2202 10324 20179 39998 40133 58008 60002 7////8//// 91750 333 0//// 10330 20220 30/// 4//// 54/// 56///57/// 58006 60007 8//// 8//// 8//// 8//// 9//// 9//// 9/
AAXX 12181 76903 32980 02302 10329 20182 30000 40130 57008 91740 33310339 20222 30/// 58011
AAXX 12181 76160 11562 51601 10160 20112 39901 40151 52015 70252 885//91730 333 10160 20150 30/// 56500 58/// 69907 88630
AAXX 12181 76243 11370 80701 10100 20089 39931 40235 57001 69931 70252887// 91740 333 10106 20070 31/// 568// 59050 88707
AAXX 12181 76253 32682 82303 10184 20115 30059 40149 54002 88400 91750333 10190 20160 30/// 59023 88634 92002
AAXX 12181 76311 32580 80000 10178 20122 39885 40168 52013 884// 91745333 10180 20108 30/// 565// 59006 88625
AAXX 12181 76405 32675 61802 10240 20185 30137 40157 50008 85210 91750333 10240 20196 30/// 56440 59002 85837
AAXX 12181 76412 31966 02501 10264 20138 300118 40163 57013 70544 91745 333 10264 20118 30/// 59011
AAXX 12181 76519 31960 60000 10222 20075 38387 40223 54000 80002 91750333 10225 20048 30/// 56006 59011 86070
AAXX 12181 76640 31458 53201 10224 20190 30222 40234 57003 70211 8215/91740 333 10238 20164 30/// 5633/ 59021 82814 83340
AAXX 12181 76647 32570 60502 10277 20226 30161 40192 58001 85230 91750333 10292 20200 32/// 561/0 58016 85820
AAXX 12181 76741 31478 50503 10248 20209 30179 40197 52005 70544 8323091730 333 10255 20150 30/// 5611/ 58016 83811
AAXX 12181 76855 32880 11802 10316 20243 30089 40138 50002 81020 91745333 10320 20210 30/// 56090 58011 81458 92001
AAXX 12181 91929 04/86 /1206 10293 20233 30153 40156 51012 69902 761// 333 10293 20255 69907 90710 91110 555 69905
AAXX 12181 91938 01580 50404 10288 20213 30162 40164 51013 60002 702// 81202 333 10288 20242 60007 81820 85080 90710 91107 555 60005 10607 58014
AAXX 12181 91948 02482 40704 10263 20192 30096 40198 51008 60001 83201 333 56108 60007 83818 90710 91109 555 60005 10409 58007
AAXX 12181 91954 06/// /2404 1//// 2//// 30157 4//// 52012 60001 333 60007 555 58020
AAXX 12181 91925 01575 71111 10275 20208 30082 40142 51010 60041 70186 85802 333 56206 69967 84821 83080 90710 91118 555 60005 11118 59004
AAXX 12181 91944 06/// /0809 10276 20197 30170 40173 51014 60002 333 10278 20253 60007 90710 91113 555 60005
AAXX 12181 91958 01475 80610 10218 20195 30185 40187 51008 60021 72162 888// 333 56299 60027 85816 87646 90710 91126 555 69985 10630 59003
AAXX 12181 91945 36/// /0204 10284 20231 30172 40177 51016
AAXX 12184 88963 11215 80000 10010 20003 39682 49712 57028 69901 77072 887// 333 56799 88705 90010 90088 90205 90280 92404 92800 93100 94076 95096 96010
AAXX 12184 88968 11465 63220 10042 21016 39806 49821 51004 69901 72272 86800 333 56700 85612 83820 90128 90318 90930 92427 92734 92851 93000 93100 94070 95060
AAXX 12184 89034 32970 30000 11032 21095 39486 49801 58008 83030 333 56000 83360 92407 92830
AAXX 12184 89053 11330 82728 10020 20018 39737 49750 53015 69941 76062 887// 333 88707 90056 90088 90262 90284 92435 92851 94070 94479 95090 96010 97536 98530
AAXX 12184 89055 31120 73416 11002 21005 39466 49705 57020 71042 83670 333 56770 83702 87358 90025 90083 92733 92850 95190
AAXX 12184 89066 32970 80710 10037 21063 39653 49661 57017 8802/ 333 56029 88560 92427 92734 94030
AAXX 12184 94500 NIL
AAXX 12184 94510 46/// /0000 10170 20164 39707 40045
AAXX 12184 94515 46/// /0000 10167 20157 39700 40040
AAXX 12184 94552 46/// /0904 10136 20128 39588 40043
AAXX 12184 94578 46/// /1702 10200 20169 30036 40047
AAXX 12184 94584 46/// /1518 10225 20202 39925 40033
AAXX 12184 94601 46/// /1126 10180 20136 30106 40123
AAXX 12184 94610 46/// /1209 10189 20148 30043 40066
AAXX 12184 94637 46/// /0108 10203 20154 39669 40085
AAXX 12184 94638 46/// /1010 10153 20133 30100 40131
AAXX 12184 94642 NIL
AAXX 12184 94643 NIL
AAXX 12184 94647 46/// /0205 10151 20122 30028 40147
AAXX 12184 94651 46/// /0907 10140 20129 30077 40153
AAXX 12184 94653 46/// /1108 10130 20111 30136 40154
AAXX 12184 94659 46/// /1611 10154 20103 39942 40133
AAXX 12184 94672 46/// /1410 10147 20103 30142 40152
AAXX 12184 94691 46/// /2011 10132 20072 39791 40111
AAXX 12184 94693 46/// /2107 10145 20092 30062 40123
AAXX 12184 94700 NIL
AAXX 12184 94703 46/// /2007 10176 20085 39942 40064
AAXX 12184 94710 46/// /2010 10168 20054 39825 40071
AAXX 12184 94729 46/// /0000 10128 20128 39213 40040
AAXX 12184 94750 46/// /2211 10132 20118 39948 40070
AAXX 12184 94767 46/// /2115 10167 20144 30059 40065
AAXX 12184 94776 46/// /2406 10164 20152 30047 40057
AAXX 12184 94791 NIL
AAXX 12184 94802 46/// /1014 10153 20137 30060 40142
AAXX 12184 94804 46/// /1809 10156 20097 30125 40162
AAXX 12184 94807 NIL
AAXX 12184 94821 46/// /2405 10100 20084 30067 40149
AAXX 12184 94842 46/// /2114 10126 20037 30035 40133
AAXX 12184 94847 NIL
AAXX 12184 94850 46/// /2012 10114 20046 30082 40128
AAXX 12184 94865 46/// /2012 10134 20063 30099 40123
AAXX 12184 94866 46/// /1914 10124 20073 39982 40121
AAXX 12184 94875 46/// /2012 10126 20092 39959 40092
AAXX 12183 NIL
AAXX 12184 94893 46/// /2327 10136 20087 39975 40090
AAXX 12184 94907 46/// /2707 10127 20104 30093 40103
AAXX 12184 94910 46/// /0000 10108 20077 39810 40054
AAXX 12184 94926 46/// /1706 10120 20111 39405 40057
AAXX 12184 94935 46/// /2609 10139 20097 30057 40083
AAXX 12184 94954 46/// /1928 10114 20030 30010 40120
AAXX 12184 94956 46/// /2006 10084 20067 30103 40129
AAXX 12184 94975 46/// /2805 10089 20022 30084 40116
AAXX 12184 94983 46/// /1730 10140 20092 30057 40082
AAXX 12184 94995 46/// /2813 10220 20206 39980 49988
AAXX 12184 94996 46/// /0311 10219 20214 39977 40105
AAXX 12184 94997 NIL
AAXX 12184 94998 46/// /0118 10060 20050 39973 49983
AAXX 12184 95111 46/// /0000 10258 20248 30005 40041
AAXX 12184 95205 46/// /3510 10294 20241 30054 40061
AAXX 12184 95322 NIL
AAXX 12184 95448 46/// /1808 10216 20172 39517 40065
AAXX 12184 95458 46/// /1714 10181 20075 39865 40121
AAXX 12184 95480 46/// /1609 10182 20082 30060 40118
AAXX 12184 95481 46/// /1711 10201 20038 30048 40092
AAXX 12184 95482 46/// /2108 10207 20030 30032 40086
AAXX 12184 95485 46/// /1811 10183 20058 39890 40089
AAXX 12184 95492 46/// /1707 10196 20067 39918 40068
AAXX 12184 95527 46/// /0000 10166 20162 39797 40044
AAXX 12184 95634 46/// /0208 10205 20186 39663 40054
AAXX 12184 95637 46/// /1310 10143 20136 39763 40090
AAXX 12184 95646 46/// /0910 10152 20132 39952 40136
AAXX 12184 95666 NIL
AAXX 12184 95719 46/// /0000 10119 20117 39729 40051
AAXX 12184 95762 46/// /1406 10119 20105 39601 40045
AAXX 12184 95826 NIL
AAXX 12184 95839 46/// /2108 10095 20079 39973 40130
AAXX 12184 95864 NIL
AAXX 12184 95909 NIL
AAXX 12184 95954 NIL
AAXX 12184 95966 46/// /1608 10102 20046 39900 40098
AAXX 12184 96995 46/// /2704 10236 20230 39794 40088
AAXX 12184 96996 455// 10304 10269 20226 30085 40089 58007
AAXX 12184 68014 36/// /3303 10225 20144 38561 48477 53005 333 10304 20209 91005 555 91015
AAXX 12184 68110 36/// /2306 10238 21002 38250 48465 53007 333 10314 20238 91010 555 91016
AAXX 12184 68300 36/// /0502 10136 20096 39963 40114 52006 333 10169 20116 91003 555 91011
AAXX 12184 41241 NIL
AAXX 12184 41242 36/// /2204 10184 20128 30160 40184 333 0E022 10269 58009
AAXX 12184 41244 NIL
AAXX 12184 41246 32960 02003 10215 20151 30167 40172 333 10257 58004
AAXX 12184 41251 36/// /0202 10115 21160 3//// 49920 333 0E010 10198 58000
AAXX 12184 41252 NIL
AAXX 12184 41253 36/// /3502 10184 20152 39804 40187 333 0E020 10267 58002
AAXX 12184 41254 NIL
AAXX 12184 41255 36/// /0903 10182 20040 39642 40201 333 0E021 10290 58007
AAXX 12184 41256 32970 22205 10218 20147 30165 40175 80001 333 10259 58004 82075
AAXX 12184 41257 NIL
AAXX 12184 41258 NIL
AAXX 12184 41259 NIL
AAXX 12184 41262 NIL
AAXX 12184 41263 NIL
AAXX 12184 41264 NIL
AAXX 12184 41265 NIL
AAXX 12184 41267 35/80 /2906 10232 20164 30156 40172 333 0E023 10261 58004
AAXX 12184 41268 NIL
AAXX 12184 41270 NIL
AAXX 12184 41275 NIL
AAXX 12184 41287 NIL
AAXX 12184 41288 NIL
AAXX 12184 41290 NIL
AAXX 12184 41295 NIL
AAXX 12184 41304 NIL
AAXX 12184 41312 36/// /3115 10239 20075 30129 40168 333 0E/// 10285 58000
AAXX 12184 41314 NIL
AAXX 12184 41315 36/// /3319 10148 20051 39182 42820 333 0E/// 10197 59006
AAXX 12184 41316 32960 33317 10233 20057 30144 40170 80001 333 10285 58000 83075
AAXX 12184 68004 36/// /2505 10260 21023 38509 48464 52013 333 10331 20260 91010 555 91014
AAXX 12184 68006 36/// /2603 10298 20040 38870 48460 53007 333 10348 20298 91004 555 91009
AAXX 12184 68010 36/// /2207 10272 21004 38877 48486 52011 333 10362 20272 91013 555 91013
AAXX 12184 68018 16/// /0605 10249 20184 38875 48484 52020 69922 333 10321 20249 91007 555 20002 91013
AAXX 12184 68098 36/// /2807 10156 20114 30033 40141 53005 333 10182 20156 91010 555 91014
AAXX 12184 68102 36/// /2209 10250 20007 38709 48462 52012 333 10335 20250 91015 555 91012
AAXX 12184 68112 32989 32610 10235 20014 38298 48477 53001 80002 333 10322 20235 91013 555 91017
AAXX 12184 68116 16/// /0802 10240 20159 38527 48475 52010 60032 333 10335 20221 91003 555 20032 91015
AAXX 12184 68212 36/// /2712 10312 21083 38848 48476 52023 333 10381 20311 91018 555 91011
AAXX 12184 68312 32789 22419 10303 20044 38881 48458 53001 81480 333 10368 20303 91026 555 91009
AAXX 12184 94893 46/// /2327 10136 20087 39975 40090
AAXX 12184 94907 46/// /2707 10127 20104 30093 40103
AAXX 12184 94910 46/// /0000 10108 20077 39810 40054
AAXX 12184 94926 46/// /1706 10120 20111 39405 40057
AAXX 12184 94935 46/// /2609 10139 20097 30057 40083
AAXX 12184 94954 46/// /1928 10114 20030 30010 40120
AAXX 12184 94956 46/// /2006 10084 20067 30103 40129
AAXX 12184 94975 46/// /2805 10089 20022 30084 40116
AAXX 12184 94983 46/// /1730 10140 20092 30057 40082
AAXX 12184 94995 46/// /2813 10220 20206 39980 49988
AAXX 12184 94996 46/// /0311 10219 20214 39977 40105
AAXX 12184 94997 NIL
AAXX 12184 94998 46/// /0118 10060 20050 39973 49983
AAXX 12184 95111 46/// /0000 10258 20248 30005 40041
AAXX 12184 95205 46/// /3510 10294 20241 30054 40061
AAXX 12184 95322 NIL
AAXX 12184 95448 46/// /1808 10216 20172 39517 40065
AAXX 12184 95458 46/// /1714 10181 20075 39865 40121
AAXX 12184 95480 46/// /1609 10182 20082 30060 40118
AAXX 12184 95481 46/// /1711 10201 20038 30048 40092
AAXX 12184 95482 46/// /2108 10207 20030 30032 40086
AAXX 12184 95485 46/// /1811 10183 20058 39890 40089
AAXX 12184 95492 46/// /1707 10196 20067 39918 40068
AAXX 12184 95527 46/// /0000 10166 20162 39797 40044
AAXX 12184 95634 46/// /0208 10205 20186 39663 40054
AAXX 12184 95637 46/// /1310 10143 20136 39763 40090
AAXX 12184 95646 46/// /0910 10152 20132 39952 40136
AAXX 12184 95666 NIL
AAXX 12184 95719 46/// /0000 10119 20117 39729 40051
AAXX 12184 95762 46/// /1406 10119 20105 39601 40045
AAXX 12184 95826 NIL
AAXX 12184 95839 46/// /2108 10095 20079 39973 40130
AAXX 12184 95864 NIL
AAXX 12184 95909 NIL
AAXX 12184 95954 NIL
AAXX 12184 95966 46/// /1608 10102 20046 39900 40098
AAXX 12184 96995 46/// /2704 10236 20230 39794 40088
AAXX 12184 96996 455// 10304 10269 20226 30085 40089 58007
AAXX 12184 94500 NIL
AAXX 12184 94510 46/// /0000 10170 20164 39707 40045
AAXX 12184 94515 46/// /0000 10167 20157 39700 40040
AAXX 12184 94552 46/// /0904 10136 20128 39588 40043
AAXX 12184 94578 46/// /1702 10200 20169 30036 40047
AAXX 12184 94584 46/// /1518 10225 20202 39925 40033
AAXX 12184 94601 46/// /1126 10180 20136 30106 40123
AAXX 12184 94610 46/// /1209 10189 20148 30043 40066
AAXX 12184 94637 46/// /0108 10203 20154 39669 40085
AAXX 12184 94638 46/// /1010 10153 20133 30100 40131
AAXX 12184 94642 NIL
AAXX 12184 94643 NIL
AAXX 12184 94647 46/// /0205 10151 20122 30028 40147
AAXX 12184 94651 46/// /0907 10140 20129 30077 40153
AAXX 12184 94653 46/// /1108 10130 20111 30136 40154
AAXX 12184 94659 46/// /1611 10154 20103 39942 40133
AAXX 12184 94672 46/// /1410 10147 20103 30142 40152
AAXX 12184 94691 46/// /2011 10132 20072 39791 40111
AAXX 12184 94693 46/// /2107 10145 20092 30062 40123
AAXX 12184 94700 NIL
AAXX 12184 94703 46/// /2007 10176 20085 39942 40064
AAXX 12184 94710 46/// /2010 10168 20054 39825 40071
AAXX 12184 94729 46/// /0000 10128 20128 39213 40040
AAXX 12184 94750 46/// /2211 10132 20118 39948 40070
AAXX 12184 94767 46/// /2115 10167 20144 30059 40065
AAXX 12184 94776 46/// /2406 10164 20152 30047 40057
AAXX 12184 94791 NIL
AAXX 12184 94802 46/// /1014 10153 20137 30060 40142
AAXX 12184 94804 46/// /1809 10156 20097 30125 40162
AAXX 12184 94807 NIL
AAXX 12184 94821 46/// /2405 10100 20084 30067 40149
AAXX 12184 94842 46/// /2114 10126 20037 30035 40133
AAXX 12184 94847 NIL
AAXX 12184 94850 46/// /2012 10114 20046 30082 40128
AAXX 12184 94865 46/// /2012 10134 20063 30099 40123
AAXX 12184 94866 46/// /1914 10124 20073 39982 40121
AAXX 12184 94875 46/// /2012 10126 20092 39959 40092
AAXX 12184 94102 46/// /2308 10283 20259 30041 40050
AAXX 12184 94103 NIL
AAXX 12184 94120 46/// /0605 10250 20244 30012 40052
AAXX 12184 94122 NIL
AAXX 12184 94131 46/// /3302 10253 20246 39894 40044
AAXX 12184 94132 NIL
AAXX 12184 94147 NIL
AAXX 12184 94150 46/// /3106 10273 20256 39985 40044
AAXX 12184 94151 46/// /3305 10290 20243 30024 4////
AAXX 12184 94170 46/// /0000 10253 20246 30034 40056
AAXX 12184 94200 NIL
AAXX 12184 94203 46/// /2811 10288 20254 30040 40050
AAXX 12184 94206 NIL
AAXX 12184 94207 NIL
AAXX 12184 94211 NIL
AAXX 12184 94212 46/// /2704 10283 20178 39566 40026
AAXX 12184 94216 46/// /0101 10256 20239 39987 40037
AAXX 12184 94236 NIL
AAXX 12184 94238 46/// /0817 10259 20213 39632 40044
AAXX 12184 94248 NIL
AAXX 12184 94255 46/// /1406 10234 20155 39796 40052
AAXX 12184 94268 46/// /0000 10256 20247 30038 40050
AAXX 12184 94287 46/// /0000 10265 20230 30033 40042
AAXX 12184 94290 NIL
AAXX 12184 94294 46/// /1802 10263 20228 30029 40039
AAXX 12184 94296 35/// /0000 10279 30037 40047 57007
AAXX 12184 94298 46/// /3414 10280 30036 40042 56007
AAXX 12184 95641 NIL
AAXX 12184 89564 45/// /1419 11054 21121 39747 49766 53001
AAXX 12184 89570 46/// /0707 11098 21123 39101 57002
AAXX 12184 89571 45/// /0211 11041 21075 39737 49765 58003
AAXX 12184 89573 NIL
AAXX 12184 89610 NIL
AAXX 12184 89611 45/// /0308 11025 21041 39697 49748 56003
AAXX 12184 89614 NIL
AAXX 12184 89615 NIL
AAXX 12184 89807 NIL
AAXX 12184 89809 46/// /3406 11053 21065 39301 56002
AAXX 12184 94299 46/// /3313 10288 20257 30039 40049
AAXX 12184 94300 46/// /1812 10246 20205 30075 40085
AAXX 12184 94302 46/// /2011 10258 20208 30071 40077
AAXX 12184 94312 46/// /3210 10272 20250 30034 40043
AAXX 12184 94313 NIL
AAXX 12184 94317 46/// /2104 10296 20138 39451 40018
AAXX 12184 94319 46/// /2819 10287 20179 39709 40030
AAXX 12184 94324 NIL
AAXX 12184 94326 46/// /0000 10185 20030 39474 40074
AAXX 12184 94327 46/// /1403 10203 20055 39714 40078
AAXX 12184 94332 46/// /1704 10199 20171 39676 40052
AAXX 12184 94333 NIL
AAXX 12184 94341 46/// /0000 10197 20154 39815 40044
AAXX 12184 94346 46/// /1605 10204 20152 39822 40036
AAXX 12184 94363 46/// /1706 10211 20189 39826 40038
AAXX 12184 94366 NIL
AAXX 12184 94367 46/// /3005 10257 20205 39987 40028
AAXX 12184 94374 46/// /1401 10238 20226 30020 40036
AAXX 12184 94388 46/// /2607 10248 20223 30031 40036
AAXX 12184 94393 46/// /3315 10271 30029 40041 55000
AAXX 12184 94394 46/// /3517 10254 30023 40031 58013
AAXX 12184 94403 46/// /2411 10219 20184 30034 40075
AAXX 12184 94429 46/// /3509 10191 20179 39608 40060
AAXX 12184 94430 46/// /1508 10225 20148 39498 40066
AAXX 12184 94449 46/// /1405 10227 20108 39573 40090
AAXX 12184 94451 NIL
AAXX 12184 94461 46/// /1113 10253 20013 39398 40049
AAXX 12184 94462 46/// /1306 10212 20051 39534 40075
AAXX 12184 94477 NIL
AAXX 12184 94488 NIL
AAXX 12184 94102 46/// /2308 10283 20259 30041 40050
AAXX 12184 94103 NIL
AAXX 12184 94120 46/// /0605 10250 20244 30012 40052
AAXX 12184 94122 NIL
AAXX 12184 94131 46/// /3302 10253 20246 39894 40044
AAXX 12184 94132 NIL
AAXX 12184 94147 NIL
AAXX 12184 94150 46/// /3106 10273 20256 39985 40044
AAXX 12184 94151 46/// /3305 10290 20243 30024 4////
AAXX 12184 94170 46/// /0000 10253 20246 30034 40056
AAXX 12184 94200 NIL
AAXX 12184 94203 46/// /2811 10288 20254 30040 40050
AAXX 12184 94206 NIL
AAXX 12184 94207 NIL
AAXX 12184 94211 NIL
AAXX 12184 94212 46/// /2704 10283 20178 39566 40026
AAXX 12184 94216 46/// /0101 10256 20239 39987 40037
AAXX 12184 94236 NIL
AAXX 12184 94238 46/// /0817 10259 20213 39632 40044
AAXX 12184 94248 NIL
AAXX 12184 94255 46/// /1406 10234 20155 39796 40052
AAXX 12184 94268 46/// /0000 10256 20247 30038 40050
AAXX 12184 94287 46/// /0000 10265 20230 30033 40042
AAXX 12184 94290 NIL
AAXX 12184 94294 46/// /1802 10263 20228 30029 40039
AAXX 12184 94296 35/// /0000 10279 30037 40047 57007
AAXX 12184 94298 46/// /3414 10280 30036 40042 56007
AAXX 12184 95641 NIL
AAXX 12184 94299 46/// /3313 10288 20257 30039 40049
AAXX 12184 94300 46/// /1812 10246 20205 30075 40085
AAXX 12184 94302 46/// /2011 10258 20208 30071 40077
AAXX 12184 94312 46/// /3210 10272 20250 30034 40043
AAXX 12184 94313 NIL
AAXX 12184 94317 46/// /2104 10296 20138 39451 40018
AAXX 12184 94319 46/// /2819 10287 20179 39709 40030
AAXX 12184 94324 NIL
AAXX 12184 94326 46/// /0000 10185 20030 39474 40074
AAXX 12184 94327 46/// /1403 10203 20055 39714 40078
AAXX 12184 94332 46/// /1704 10199 20171 39676 40052
AAXX 12184 94333 NIL
AAXX 12184 94341 46/// /0000 10197 20154 39815 40044
AAXX 12184 94346 46/// /1605 10204 20152 39822 40036
AAXX 12184 94363 46/// /1706 10211 20189 39826 40038
AAXX 12184 94366 NIL
AAXX 12184 94367 46/// /3005 10257 20205 39987 40028
AAXX 12184 94374 46/// /1401 10238 20226 30020 40036
AAXX 12184 94388 46/// /2607 10248 20223 30031 40036
AAXX 12184 94393 46/// /3315 10271 30029 40041 55000
AAXX 12184 94394 46/// /3517 10254 30023 40031 58013
AAXX 12184 94403 46/// /2411 10219 20184 30034 40075
AAXX 12184 94429 46/// /3509 10191 20179 39608 40060
AAXX 12184 94430 46/// /1508 10225 20148 39498 40066
AAXX 12184 94449 46/// /1405 10227 20108 39573 40090
AAXX 12184 94451 NIL
AAXX 12184 94461 46/// /1113 10253 20013 39398 40049
AAXX 12184 94462 46/// /1306 10212 20051 39534 40075
AAXX 12184 94477 NIL
AAXX 12184 94488 NIL
BBXX VRZN7 12184 99117 51771 415// 83415 10270 2023/ 40100 52000 7//22 8874/ 22253 04320 20410 335// 4//// 5//// 85240
BBXX VRAE3 12184 99105 31180 41497 31113 10285 20248 40098 53003 70303 8577/ 22234 00300 2//// 3//// 4//// 5//// 80259
BBXX 9VVN8 12183 99002 31735 41498 40309 10272 20242 40088 54000 70211 84261 22273 02290 20301 80251
BBXX C6HS4 12183 99225 31019 41497 51418 10225 20191 40136 50/// 7//22 831/7 22233 20805 80202
BBXX VNSZ 12164 99402 31458 46/// /2135 10130 20064 30058 40084 57019 22235 04159 85095
BBXX VROB 12164 99068 31470 46/// /3213 10249 20215 30046 40071 57029 22200 04306 85225
BBXX 9HA2479 12164 99273 31600 46/// /3120 10215 20206 30001 40030 54000 22214 04229 85209
BBXX C6FS9 12164 99224 31618 46/// /0222 10262 20244 30037 40072 57012 22223 04267 85249
BBXX FHZI 12164 99429 31473 46/// /1618 10126 20036 30092 40103 52014 22200 85082
BBXX VNSZ 12174 99405 31460 46/// /2132 10124 20061 30055 40081 57018 22235 04159 85091
BBXX C6FS9 12174 99224 31620 46/// /0125 10261 20243 30037 40072 57002 22223 04261 85248
BBXX 9HA2479 12174 99271 31602 46/// /3117 10221 20206 30006 40035 52008 22214 04226 85210
BBXX VROB 12174 99068 31470 46/// /3110 10253 20217 30042 40067 57027 22200 04307 85227
BBXX VNSZ 12184 99409 31462 46/// /2229 10122 20049 30057 40084 57003 22235 04158 85085
BBXX FHZI 12174 99429 31473 46/// /2106 10130 20026 30097 40108 5//// 22200 85080
BBXX 9KWP 12183 99030 30880 41698 52310 10290 20248 40099 54000 70222 83244 22274 00300 20501 323// 40502 80260
BBXX ZMIQ 12183 99396 31777 41497 80620 10165 20151 40224 56007 72522 8587/ 22253 00171 20402 306// 40603 80157
AAXX 12184 94310 46/// /2922 10272 20247 30032 40044 57015
AAXX 12184 95283 46/// /2904 10262 20252 30046 40053
AAXX 12184 95288 46/// /3316 10292 30030 40045 56008
AAXX 12184 95675 46/// /1607
AAXX 12184 95872 46/// /1723
AAXX 12184 95961 35/// /2309 10104 30083 40124 52009
AAXX 12184 91375 NIL
AAXX 12184 91519 NIL
AAXX 12184 91531 NIL
AAXX 12184 91532 47/// /0114 10272 20247 30069 40077 57003 7//44
AAXX 12184 91559 NIL
AAXX 12184 91611 NIL
AAXX 12184 91642 NIL
AAXX 12184 91679 NIL
AAXX 12184 91689 NIL
AAXX 12184 91756 NIL
AAXX 12184 91844 NIL
AAXX 12184 92036 NIL
AAXX 12184 93713 NIL
AAXX 12184 89564 45/// /1419 11054 21121 39747 49766 53001
AAXX 12184 89570 46/// /0707 11098 21123 39101 57002
AAXX 12184 89571 45/// /0211 11041 21075 39737 49765 58003
AAXX 12184 89573 NIL
AAXX 12184 89610 NIL
AAXX 12184 89611 45/// /0308 11025 21041 39697 49748 56003
AAXX 12184 89614 NIL
AAXX 12184 89615 NIL
AAXX 12184 89807 NIL
AAXX 12184 89809 46/// /3406 11053 21065 39301 56002
AAXX 12183 91502 NIL
AAXX 12183 91507 31480 20904 10250 20235 40067 5//// 70500 81902 333 56000 81814 81915
AAXX 12183 91520 32480 10000 10230 20226 40068 55004 81901 333 56900 81813 81915
AAXX 12183 91541 NIL
BBXX VRZN7 12184 99117 51771 415// 83415 10270 2023/ 40100 52000 7//22 8874/ 22253 04320 20410 335// 4//// 5//// 85240
BBXX VRAE3 12184 99105 31180 41497 31113 10285 20248 40098 53003 70303 8577/ 22234 00300 2//// 3//// 4//// 5//// 80259
BBXX 9VVN8 12183 99002 31735 41498 40309 10272 20242 40088 54000 70211 84261 22273 02290 20301 80251
BBXX C6HS4 12183 99225 31019 41497 51418 10225 20191 40136 50/// 7//22 831/7 22233 20805 80202
BBXX VNSZ 12164 99402 31458 46/// /2135 10130 20064 30058 40084 57019 22235 04159 85095
BBXX VROB 12164 99068 31470 46/// /3213 10249 20215 30046 40071 57029 22200 04306 85225
BBXX 9HA2479 12164 99273 31600 46/// /3120 10215 20206 30001 40030 54000 22214 04229 85209
BBXX C6FS9 12164 99224 31618 46/// /0222 10262 20244 30037 40072 57012 22223 04267 85249
BBXX FHZI 12164 99429 31473 46/// /1618 10126 20036 30092 40103 52014 22200 85082
BBXX VNSZ 12174 99405 31460 46/// /2132 10124 20061 30055 40081 57018 22235 04159 85091
BBXX C6FS9 12174 99224 31620 46/// /0125 10261 20243 30037 40072 57002 22223 04261 85248
BBXX 9HA2479 12174 99271 31602 46/// /3117 10221 20206 30006 40035 52008 22214 04226 85210
BBXX VROB 12174 99068 31470 46/// /3110 10253 20217 30042 40067 57027 22200 04307 85227
BBXX VNSZ 12184 99409 31462 46/// /2229 10122 20049 30057 40084 57003 22235 04158 85085
BBXX FHZI 12174 99429 31473 46/// /2106 10130 20026 30097 40108 5//// 22200 85080
BBXX 9KWP 12183 99030 30880 41698 52310 10290 20248 40099 54000 70222 83244 22274 00300 20501 323// 40502 80260
BBXX ZMIQ 12183 99396 31777 41497 80620 10165 20151 40224 56007 72522 8587/ 22253 00171 20402 306// 40603 80157
AAXX 12184 40356 42960 01006 10040 21080 39248 48525 333 10140 59026 55089 555 04410 50259
AAXX 12184 40357 42960 00000 10077 21010 39600 40261 333 10157 59021 55///
AAXX 12184 40360 42960 00802 10080 21030 39636 40233 333 10164 59027 55081
AAXX 12184 40361 42960 00904 10100 21060 39462 40250 333 10159 59025 55///
AAXX 12184 40362 NIL
AAXX 12184 40373 42960 00000 10080 21030 39814 40245 333 10162 59014 55///
AAXX 12184 40375 41959 00000 10120 21040 39328 40220 60600 333 10196 59017 55090
AAXX 12184 40377 42960 03405 10090 20020 39760 40257 333 10156 59013 55///
AAXX 12184 40394 42960 03601 10100 20010 39094 48556 333 10194 59017 55090 555 04410 50249
AAXX 12184 40400 42960 03506 10218 20170 30145 40173 333 10274 59007 55090
AAXX 12184 40401 41959 00000 10165 21030 39491 40194 70600 333 10225 59008
AAXX 12184 40405 42960 00703 10120 20040 39490 40249 333 10182 59010 55///
AAXX 12184 40416 41957 03007 10130 20050 30178 40198 70500 333 10180 59002 55///
AAXX 12184 40417 41956 02910 10111 20030 30201 40216 70600 333 10171 59003 55///
AAXX 12184 40420 41958 03109 10119 20000 30008 40221 70640 333 10194 59006 55///
AAXX 12184 40430 42960 00305 10196 21030 39466 40189 333 10246 59007 55078
AAXX 12184 40435 NIL
AAXX 12184 40437 42960 03502 10109 21010 39526 40245 333 10195 59008 55090
AAXX 12184 40439 42960 00000 10224 20150 30138 40148 333 10324 58006 55092
AAXX 12184 41024 42960 03410 10250 20170 30113 40132 333 10350 59005 55087
AAXX 12184 41030 42960 00000 10266 20140 39860 40129 333 10353 58003 55///
AAXX 12184 41036 42960 01008 10140 21060 38593 48541 333 10230 59002 55091 555 04410 50178
AAXX 12184 41055 42960 01010 10123 21030 38400 48549 333 10174 58002 55098 555 04410 50202
AAXX 12184 41061 42960 21207 10138 20050 39501 40220 82030 333 10220 58011 55081 82359
AAXX 12184 41084 42960 00801 10134 20000 38908 48556 333 10236 58006 55100 555 04410 50194
AAXX 12184 41112 42960 00000 10122 21060 37967 48542 333 10215 59001 55093 555 04410 50194
AAXX 12184 41114 42960 00612 10145 21060 37999 48535 333 10220 59002 55000 555 04410 50171
AAXX 12184 41128 42960 00403 10134 21020 38866 48565 333 10232 58006 55085 555 04410 50216
AAXX 12184 41136 42960 00404 10155 20010 39382 40209 333 10220 58013 55096
AAXX 12184 41140 42560 10000 10280 20220 30129 40132 81100 333 10315 58001 55/// 81830
AAXX 12184 08160 12665 22207 10078 20051 39926 40240 53006 69902 81531 333 10132
AAXX 12184 91577 06/// /0503 10253 20218 30057 40078 56008 60001 333 59011 60007
AAXX 12184 41859 31430 70000 10162 20140 30118 40157 70522 85620 333 56190 59003 70000 82710 84618
AAXX 12184 41883 31930 00000 10174 20160 30134 40155 70510 333 59005 70000
AAXX 12184 41891 31930 00000 10162 20150 30107 40147 70500 333 59006 70000
AAXX 12184 41907 31410 43101 10155 20150 30141 40156 70511 83830 333 56990 58007 70000 82618 83362
AAXX 12184 41923 31930 33102 10196 20150 30134 40144 70500 83030 333 56090 59001 70000 83360
AAXX 12184 41936 31916 00000 10166 20160 40151 70500 333 58008 70000
AAXX 12184 41943 31940 00000 10178 20170 30136 40144 70500 333 58001 70000
AAXX 12184 41950 31940 00000 10168 20160 30143 40146 70510 333 59002 70000
AAXX 12184 41978 31935 00000 10200 20130 30131 40138 70500 333 59002 70000
AAXX 12184 41992 31930 00000 10180 20140 30135 40137 70500 333 59001 70000
AAXX 12181 38141 12598 82201 10003 21042 30130 40294 52010 69900 885// 333 10011
AAXX 12181 38149 41598 81801 10006 21023 30229 40308 52007 69900 77172 885// 333 10033
AAXX 12181 38178 425// 82406 11053 21154 30045 40347 52009 885// 333 11034
AAXX 12181 38262 326// 82303 10014 21038 30235 40319 53007 885// 333 10019
AAXX 12181 38264 32698 71805 10016 21025 30223 40319 52004 875// 333 10027
AAXX 12181 38396 12797 72102 11016 21043 30213 40344 52010 69902 82571 333 10016
AAXX 12181 38403 426// 71803 11008 21061 30193 40319 53002 6993/ 87500 333 10001
AAXX 12181 38413 129// 82102 11012 21027 30046 40349 52017 6002/ 8802/ 333 11026
AAXX 12181 38457 11394 81601 10001 21008 39752 40362 52015 60042 77172 8852/ 333 10029
AAXX 12181 38462 115// 80000 11034 21042 38838 48568 52001 6004/ 77077 887// 333 10013
AAXX 12181 38565 126// 80000 10003 21030 39752 40357 52015 69902 85540 333 10011
AAXX 12181 38579 125// 60604 10018 21036 39926 40358 52009 69902 85909 333 10040
AAXX 12181 38583 11596 81401 10007 20004 30031 40365 52008 60042 71077 887// 333 10022
AAXX 12181 38611 11295 80602 10018 20010 39768 40357 52015 69902 76166 8802/ 333 10033 80585
AAXX 12181 38618 329// 80801 10019 20008 39634 40343 52017 70262 8807/ 333 10054
AAXX 12181 38683 11396 81603 10006 21011 30075 40363 52001 69960 71062 886// 333 10004 88708
AAXX 12181 38696 126// 80201 11019 21028 39476 40371 52004 69962 885// 333 10022
AAXX 12181 38812 12497 81502 10017 20003 39888 40358 58003 69932 883// 333 10007 88915
AAXX 12181 38927 11558 70501 10028 20010 39984 40337 58002 69902 71022 879// 333 10047 84621
BBXX UCKZ 12181 99449 30193 41597 80307 10114 20106 40073 56006 71582 8637/ 22243 00104 20402 30521 41005 50904
BBXX PBLQ 12183 99046 10028 41996 03604 10300 20235 40100 50020 71022 80000 22200 04292 20000 30000 80255
AAXX 12181 37395 32797 80000 10062 20000 30160 40303 52001 8452/ 333 10090
AAXX 12181 37409 32591 82704 11009 21055 38844 48553 54000 8654/ 333 10030 95090
AAXX 12181 37432 32697 50000 11013 21056 39037 48560 52011 85500 333 10057
AAXX 12181 37514 32696 60000 10009 21051 39126 40313 52003 86500 333 10055
AAXX 12181 37545 325// 33404 10060 21012 39765 40286 52009 81130 333 10112
AAXX 12181 37621 329// 00000 10004 21070 39648 40311 52020 333 10100
AAXX 12181 37484 NIL
AAXX 12184 06670 01480 62405 10046 20015 39683 40202 51034 60042 70286 865// 333 10073 32/// 55300 20000 60005 81716 83621 85656 90766 93100 91128 91217
AAXX 12184 06700 01681 21001 10026 20010 39719 40224 52020 60092 70281 81840 333 10081 31/// 55300 20000 60005 81635 90766 93100 91121 91210
AAXX 12184 06680 01/01 92712 11091 21091 37458 47982 52024 60252 77174 333 11047 47100 55300 20000 60025 90766 93106 91151 91230
AAXX 12184 06990 01450 82102 10045 20024 39643 40198 52038 60032 76322 887// 333 10070 32/// 55300 20000 69945 88719 91132 91216
AAXX 12184 06760 01270 40202 10051 20034 39688 40140 52008 60032 70164 81620 333 10064 31/// 55300 20000 60005 81706 84459 90766 93100 91107 91204
AAXX 12184 06720 02770 50802 10016 20005 39628 40219 52024 60052 85600 333 10052 32/// 55300 20000 60005 85750 90766 93100 91119 91211
AAXX 12184 78970 11470 71312 10321 20226 30076 40101 69911 71581 83972 333 06399 10337 20243 58007 81912 87078 90960
AAXX 12184 78962 11468 71211 10295 20231 30106 40114 69941 70582 82832 333 02299 10303 20234 58007 82818 86078 90960
AAXX 12184 40550 37/50 /3204 10086 21010 40231 50005 70400 333 55300 00000 10267 20000 30000 40970 51237 60000 55407 40000 90069 90401 91009 91121 91209 91305
AAXX 12184 40551 36/// /2614 10083 21020 333 90401 91017 91125 91221 91313
AAXX 12184 40552 47/58 /2914 10084 21023 40235 51006 71010 333 55300 90069 90401 91017 91127 91221 91315
AAXX 12184 40553 35/69 /3112 10089 21010 40230 51006 333 55300 90069 90400 91013 91125 91221 91313
AAXX 12184 40568 36/// /2809 10086 20002 333 90401 91011 91123 91217 91311
AAXX 12184 40569 NIL
AAXX 12184 40570 35/63 /3108 10068 21038 40252 51010 333 55300 90069 90400 91011 91119 91217 91309
AAXX 12184 40571 NIL
AAXX 12184 40572 NIL
AAXX 12184 40573 36/// /2911 10069 21028 333 90400 91011 91121 91217 91311
AAXX 12184 40580 46/// /2904 10126 20005 333 553// 00000 10307 20000 30000 40972 51279 60000 55407 40000 90400 91007 91117 91207 91305
AAXX 12184 40581 36/// /2303 10137 20032 333 90400 91011 91117 91205 91303
AAXX 12184 40582 32960 03210 10116 21030 40233 51008 333 55300 00000 10256 20000 30000 41031 51286 60000 55407 40000 90400 91013 91127 91217 91313
AAXX 12184 40583 NIL
AAXX 12184 40585 46/// /3010 10139 20038 222// 1//// 3//// 4//// 70/// 333 90401 91021 91125 91217 91313
AAXX 12184 40586 36/// /2706 10110 21026 333 90400 91009 91119 91209 91305
AAXX 12184 40587 46/// /3008 10108 21022 333 553// 00000 10271 20000 30000 40941 51212 60000 55407 40000 90400 91011 91123 91217 91311
AAXX 12184 40588 47/39 /3212 10120 20032 40226 51007 71010 333 55300 90069 90400 91017 91121 91215 91313
AAXX 12184 40589 NIL
AAXX 12184 40590 46/// /3111 10081 21029 333 90400 91011 91125 91221 91313
AAXX 12184 40591 NIL
AAXX 12184 40592 35/69 /3208 10118 21031 40235 51007 333 55300 00000 10311 20000 30000 40951 51262 60000 55407 40000 90069 90401 91013 91121 91213 91307
AAXX 12184 40593 36/// /3110 10121 21001 333 90400 91013 91121 91215 91311
AAXX 12184 40594 36/// /3207 10118 21019 333 90401 91011 91117 91209 91305
AAXX 12184 40596 46/// /3117 10163 20051 333 90400 91023 91129 91219 91317
AAXX 12184 06610 01669 12205 10028 20012 39622 40219 52017 60042 70161 81500 333 10072 32/// 55300 20000 60005 81840 90766 93100 91118 91211
AAXX 12184 85041 31460 71804 10262 20243 39800 40061 57030 71522 83963 333 56000 58000 81817 82920 86358 87070
AAXX 12184 85140 32470 73405 10296 20242 39872 40079 57023 83233 333 56778 58005 83817 84357 87070
AAXX 12184 85141 32484 73604 10310 20260 39840 40068 57022 84306 333 56000 58000 84817 81927 87070
AAXX 12184 85151 NIL
AAXX 12184 85152 31465 73210 10318 20236 39830 40058 57030 71522 85908 333 56700 59002 84817 81920 86270
AAXX 12184 85201 31465 70810 10124 20043 36282 57014 71522 83963 333 56777 58001 82817 81920 84357 87070
AAXX 12184 85230 NIL
AAXX 12184 85242 32584 60912 10150 20054 36532 57016 84901 333 56206 59008 83820 81923 86070
AAXX 12184 43599 12465 22707 10275 20248 30096 40098 60001 82201 333 59014 82818
AAXX 12184 04082 21330 83609 10008 20002 49775 57013 78377 8362/ 333 10014 21004 60088 555 3//09 83706 87558
AAXX 12184 68398 16/// /3611 10221 20202 39326 48478 52021 69922 333 10328 20221 91015 555 20002 91010
AAXX 12184 68299 36/// /1205 10178 20159 38904 48496 52022 333 10281 20178 91007 555 91015
BBXX PEBT 12183 99365 10140 41498 32816 10185 20148 40195 54000 7//00 83400 22263 02168 20402 3//// 4//// 5//// 80162
AAXX 12181 50468 32970 03402 11237 21265 30033 40261 52002 333 11135
AAXX 12181 50953 32970 01801 11134 21167 30098 40288 57007 333 11061
AAXX 12181 51076 NIL
AAXX 12181 51243 NIL
AAXX 12181 51288 32980 00901 11102 21209 38354 52009 333 05103 11031
AAXX 12181 51463 NIL
AAXX 12181 51573 NIL
AAXX 12181 51709 NIL
AAXX 12181 52533 NIL
AAXX 12181 52652 NIL
AAXX 12181 52866 NIL
AAXX 12181 52983 NIL
AAXX 12181 53463 32975 71401 11077 21135 38989 40282 57005 80008 333 05602 11021
AAXX 12181 53513 32970 02203 11079 21149 38992 40254 57010 333 05701 11003
AAXX 12181 53588 NIL
AAXX 12181 53772 NIL
AAXX 12181 53915 NIL
AAXX 12181 54218 32970 71601 11095 21166 39441 40277 57018 80002 333 11003
AAXX 12181 54337 32960 02202 11045 21099 30210 40296 57015 333 10038
AAXX 12181 54342 NIL
AAXX 12181 54401 NIL
AAXX 12181 54471 32960 01101 11073 21133 30300 40306 57008 333 10015
AAXX 12181 54497 32965 00404 11060 21117 30292 40309 57004 333 10024
AAXX 12181 54511 NIL
AAXX 12181 54823 32965 21403 10018 21054 30076 40290 57008 80002 333 10086
AAXX 12181 56080 NIL
AAXX 12181 56096 NIL
AAXX 12181 57083 31950 62201 10018 21013 30146 40286 57010 71000 82042 333 10103
AAXX 12181 56187 32961 82001 10052 20026 39604 40263 57002 8807/ 333 05304 10114
AAXX 12181 56778 NIL
AAXX 12181 57265 NIL
AAXX 12181 57461 32962 02501 10038 20022 30117 40283 57005 333 10136
AAXX 12181 57494 NIL
AAXX 12181 57516 31950 23202 10059 20039 39951 40269 57004 71000 82040 333 05352 10118
AAXX 12181 57687 32965 02001 10056 21007 30185 40271 57003 333 10129
AAXX 12181 57816 31658 80202 10041 20011 38834 40252 57001 71000 885// 333 05202 10074
AAXX 12181 58040 31940 20000 11003 21020 30279 40293 57002 71000 80002 333 10087
AAXX 12181 58102 32970 20901 10004 21039 30244 40293 57009 82040 333 10103
AAXX 12181 58150 NIL
AAXX 12181 58221 NIL
AAXX 12181 58238 NIL
AAXX 12181 58251 31920 00000 11004 21023 30277 40282 57013 71000 333 10085
AAXX 12181 58362 NIL
AAXX 12181 58457 31940 03401 10020 21041 30229 40283 57008 71000 333 10100
AAXX 12181 58606 NIL
AAXX 12181 58752 NIL
AAXX 12181 58847 NIL
AAXX 12181 59117 32965 02501 10077 20055 30114 40222 57002 333 10195
AAXX 12181 59134 NIL
AAXX 12181 59287 NIL
AAXX 12181 59316 31957 50901 10143 20087 30195 40200 57008 70500 85040 333 10207
AAXX 12181 59431 31956 00000 10062 20050 30077 40226 57007 71000 333 10188
AAXX 12181 59644 32965 03403 10122 20034 30196 40213 57002 333 10194
AAXX 12181 59758 NIL
BBXX AVMI 12186 99268 31537 41998 12328 10200 20/// 40114 51020 70102 81001 22233 00238
BBXX 9VBM6 12183 99429 70098 41797 62124 10170 20119 40240 54/// 7//22 8597/ 22283 04190 20706 3//// 40708 50706 6//// 80140 ICE /////
AAXX 12181 34504 31924 01601 11017 21025 30109 40295 54000 71000 333 10030
BBXX 44139 12181 99442 70571 46/// /2510 10042 40349 57020 22200 00087 10603 70017 333 91212
AAXX 12184 67002 32580 41007 10265 20213 30082 40116 81800 333 10330 55025 58000 81823 83630 92408
AAXX 12184 67009 NIL
AAXX 12184 67025 NIL
AAXX 12184 67027 32580 22410 10282 20248 30074 40095 52016 82830 333 10321 81820 555 81640 81360
AAXX 12184 67083 32470 11204 10210 20187 38740 48515 53020 81800 333 10298 81817
AAXX 12184 67095 32475 20000 10256 20233 30114 40120 51016 82800 333 10322 81817 555 82633
AAXX 12184 67113 NIL
AAXX 12184 67117 NIL
AAXX 12184 67137 NIL
AAXX 12184 67143 NIL
AAXX 12184 67161 NIL
AAXX 12184 67197 31470 70814 10261 20238 30099 40109 52028 71322 8497/ 333 10331 82817 81917 83633 85360 94968 95838
AAXX 12181 01281 16/// /0703 11034 21060 39721 49897 58028 69972 333 11030 91112
AAXX 12181 01447 16/// /0000 11031 21036 39251 49924 51006 60142 333 10017 91104
AAXX 12181 01015 46/// /1615 10000 21040 333 10001 91120
AAXX 12181 01180 11680 60102 11028 21067 39875 49933 57022 60002 70222 86500 333 11014 91104
AAXX 12181 01340 16/// /1103 11026 21054 39033 49900 58003 69932 333 10028 91104
AAXX 12181 01425 16/// /3201 10015 20012 39849 49928 52009 60152 333 10042 91104
AAXX 12181 01450 16/// /2406 11041 21060 38770 49911 50003 60052 333 11001 91110
AAXX 12184 89002 42598 80718 11053 21071 39739 49793 57014 885//
AAXX 12184 64810 31415 62604 10272 20203 30065 40091 70522 84530 333 10325 58002 83614 86366
AAXX 12181 01392 11147 81702 10013 20004 39690 49914 57013 60042 76876 888// 333 10026 91108
AAXX 12184 84202 31575 51402 10316 20193 30134 70544 82109 333 59005 555 30048
AAXX 12184 84142 31320 63204 10196 20176 71044 86800 555 30088
AAXX 12184 84045 31456 70000 10130 20098 74044 87800 555 30081
AAXX 12184 84036 31570 72204 10184 20147 70542 86450 555 30079
AAXX 12184 84143 32665 71704 10178 20100 37399 87800 333 58008 555 30060
AAXX 12184 84072 31570 70412 10180 20120 37287 71544 83350 333 58003 555 30068
AAXX 12184 84076 31570 73208 10190 20123 70544 87400 555 30065
AAXX 12184 84135 32675 73606 10309 20212 30052 83130 333 58009 555 30056
AAXX 12184 84270 11556 60000 10182 20135 60051 76062 86500 555 10046 30074
AAXX 12184 84050 31575 83608 10272 20214 70544 888// 555 30070
AAXX 12184 84179 31465 62702 10260 20206 39043 71794 86900 333 58001 555 30072
AAXX 12184 84140 31580 70902 10296 20199 30019 40104 70544 86850 333 58009 555 30056
AAXX 12184 84008 32665 61414 10274 20207 30124 40134 82830 00166 333 58003 555 30067
AAXX 12184 84160 31565 71404 10173 20077 37260 74144 84530 333 59001 555 30053
AAXX 12184 84173 31665 71402 10179 20100 71644 85732 555 30060
AAXX 12184 84204 31680 50902 10332 20185 70544 81159 555 30042
AAXX 12184 84105 31565 63604 10295 20220 39999 70542 84110 333 58001 555 30064
AAXX 12184 84132 31675 53204 10314 20253 39873 71544 85300 333 58003 555 30070
AAXX 12184 84226 31560 73608 10112 20109 70544 87400 555 30098
AAXX 12184 84088 31560 70902 10144 20088 37061 71542 87300 333 59002 555 30068
AAXX 12184 64700 31958 30208 10230 21014 39781 40125 70611 80002 333 10305 59004 82075
AAXX 12184 64750 32960 63204 10241 20128 39686 40096 80002 91753 333 10349 58002 86075
AAXX 12181 03980 17481 /1610 10044 20029 39733 49757 57086 60022 72286 87/// 333 10067 87/14
AAXX 12181 01277 16/// /0703 10003 21036 69922 333 10003 91108
AAXX 12181 01476 16/// /2505 10043 20025 39917 49923 52009 6//// 333 10073 91118
AAXX 12181 01092 46/// /2305 11017 21043 333 10023 91110
AAXX 12181 01199 11575 80000 11161 21175 39548 40042 57004 60002 70221 885//
AAXX 12181 01262 46/// /1216 10005 21017 333 10023 91120
AAXX 12181 01393 16/// /1805 11006 21021 39096 49886 58011 6//// 333 10001 91108
AAXX 12181 01436 11475 52412 10065 20026 60052 71581 83963 333 10078 91119
AAXX 12181 01265 16/// /3102 11022 21039 39305 49884 55006 60022 333 11003 91108
AAXX 12181 01375 16/// /1905 11038 21041 6//// 333 11036 91112
AAXX 12181 01440 46/// /2508 11030 21034 38637 49909 54002 333 91112
AAXX 12181 01469 16/// /1702 10023 20000 39736 49906 55002 60032 333 10033 91111
AAXX 12181 01380 11X03 91503 11030 21039 60062 74574 333 11030 4/023 91112
AAXX 12181 26045 01570 71805 10010 21001 30085 40087 58010 69902 72582 83530 333 10032 21007 60007 83627 91111 555 1/000 21007 3/101 50011
AAXX 12181 26058 27480 71804 10015 21012 30099 40107 58008 70000 87/// 333 10030 21009 60007 87/15 91110 555 1/000 21009 3/102 50019 52102
AAXX 12181 26115 01466 81804 10028 20003 30031 40039 57015 60022 70222 886// 333 10067 20028 60007 88714 91009 91111 555 1/002 20028 3/002 50052
AAXX 12184 91487 NIL
AAXX 12184 91490 11599 21106 10261 2023/ 40421 60001 70300 82100 333 562//
AAXX 12184 91533 NIL
AAXX 12184 91601 NIL
AAXX 12184 91610 11599 30708 10264 20229 40079 52005 60001 70200 82101 333 562/9
AAXX 12184 91623 NIL
AAXX 12184 91629 NIL
AAXX 12184 91701 NIL
BBXX 3FSB4 12184 99396 11721 41497 82933 10100 20060 40100 54000 75055 8874/ 22224 0//// 2//// 3//// 4//// 5//// 6//// 80080 ICE /////
BBXX 3FZK3 12184 99515 11729 46/// /3225 11013 21036 49847 56008 7//// 8//// 22223 0//// 2////
BBXX 4XFV 12183 99510 11674 43298 42822 10000 00/// 21030 49875 51005 7//// 85232 22264 0//// 20403 ///// 3//// 4//// 5//// 6//// 81020
BBXX A8EH3 12183 99537 11769 41496 83518 10020 21005 49810 56020 76877 887// 22224 04040 2//// 80010
BBXX DGDD 12181 99344 11539 41/98 32915 10180 20070 40155 54000 70200 8//// 22264 00200 2//// 3//// 4//// 5//// 80120
BBXX DMRX 12184 99490 11715 41598 33015 11003 21062 49906 58010 70170 82425 22224 00060 20102 32333 40508 50608 81023
BBXX WDE9586 12183 99355 11520 41598 72629 10180 20110 40115 57020 71322 87460 22234 00210 2//// 3//// 4//// 5//// 6//// 80140 ICE /////
BBXX 46035 12181 99571 71778 46/// /1513 1//// 49878 58005 91750 22200 11109 20706 300// 41106 70045 333 91216 555 11132 22141 31654 41517 61749 148133 151130 154132 152130 153126 154140 81615 91723
BBXX DDJS2 12183 99402 71514 41597 73518 10108 20068 40240 52007 70222 8740/ 22224 00150 20804 326// 40604 5//// 80089
BBXX KEY796 12183 99571 71703 41/97 11911 10022 21017 40000 53/// 702// 8//// 222// 00028 2//// 3//// 4//// 5//// 6//// 8//// ICE /////
BBXX LAJS6 12184 99500 71510 41598 63013 10050 20000 40205 55005 70321 85365 22224 00060 20804 325// 41405 80030
BBXX LAYG5 12184 99522 71767 41597 81630 10040 21040 49870 56040 70322 88/// 22252 00077 20804 324// 4//// 5//// 80010
BBXX OUJI2 12184 99531 71545 41798 82428 10040 20040 40240 5//// 78222 889// 22264 00050 20304 327// 40712 5//// 6//// 80040 ICE /////
BBXX SHIP 12184 99375 71598 41498 71211 10150 20097 40226 57014 70221 86369 91755 22224 00160 1//// 20403 331// 41008 5//// 6//// 80120
BBXX SHIP 12184 99341 71504 41698 62305 10180 20150 40280 5//// 70152 8528/ 22263 00190 20802 330// 41302 5//// 6//// 80160 ICE /////
BBXX SKWI 12184 99427 70133 43/98 82434 10150 40179 56007 22253 00170 2//// 4////
BBXX SBLW 12183 99376 70286 43/98 42618 10179 40270 55004 22254 00192 2//// 4////
AAXX 12181 48855 32597 83401 10186 20156 30170 40178 58010 888// 333 59010 83895 88697
AAXX 12181 48848 32597 82902 10162 20114 30185 40193 58012 888// 333 59021 82895 88697
AAXX 12181 48852 11497 82501 10164 20157 30175 40185 58013 69921 70262 888// 333 59015 85894 88697
AAXX 12184 91753 01465 80706 10246 20234 30084 40116 53015 60202 76066 8222/ 333 10275 20238 60067 82813 88461 90710 91112 555 69985
AAXX 12184 91754 06/// /0000 10233 20214 30083 40124 53031 60261 333 60267
AAXX 12184 71832 16/// /0503 11071 21079 39932 40267 50007 60001 333 11022 21071 70000
AAXX 12184 71724 16/// /2309 10027 21038 30284 40292 56012 60001 333 10030 21017 70000
AAXX 12184 71736 46/// ///// 11113 21130 6///1 333 11056 21123 7//// 555 10090
AAXX 12184 71742 46/// /2412 11020 21048 30042 40234 56027 6///1 333 11020 21097 7////
AAXX 12184 71744 16/// /2610 10028 21040 30233 40275 56010 60001 333 10028 21090 70000
AAXX 12184 71752 16/// /2306 10044 21013 30088 40309 58006 60001 333 10047 21043 70000
AAXX 12184 71758 16/// /2512 10026 21015 30209 40288 56011 60001 333 10026 21076 70000
AAXX 12184 71771 46/// /1610 10067 20048 30143 40164 55013 6///1 333 10067 20031 7////
AAXX 12184 71501 16/// /0715 11143 21158 39933 49935 53015 60001 333 11136 21185 70005
AAXX 12184 71511 16/// /1403 11091 21099 39638 40301 58002 60001 333 11091 21104 70000
AAXX 12184 71512 16/// /0601 11069 21092 30235 40250 55000 60001 333 11064 21217 70022
AAXX 12184 71807 16/// /2527 10018 21017 30257 40276 56027 60001 333 10018 21043 70000
AAXX 12184 71954 46/// /2306 11159 21173 39911 40308 58006 6///1 333 11159 21278 7////
AAXX 12184 71956 16/// /2307 10040 20026 30029 40264 58003 60001 333 10045 20019 70000
AAXX 12184 71959 16/// ///// 10042 21017 60001 333 10046 21041 70007
AAXX 12184 71970 16/// /2009 11110 21130 39664 40272 57007 60001 333 11083 21116 70000
AAXX 12184 71977 46/// /0405 11094 21094 39179 49884 53007 6///1 333 11092 21225 7//// 555 10020
AAXX 12184 71978 46/// /0111 11155 21168 39605 49918 53017 6///1 333 11155 21178 7////
AAXX 12184 71150 46/// /0903 11134 21149 39608 40318 51008 6///1 333 11076 21158 7////
AAXX 12184 71151 16/// /0305 11088 21096 39766 40289 50012 60001 333 11087 21106 70000
AAXX 12184 71156 16/// /2604 11179 21193 39080 40227 58018 60001 333 11156 21230 70000
AAXX 12184 71157 46/// ///// 11073 21088 6///1 333 11054 21098 7////
AAXX 12184 71159 17/// /3013 11008 21011 30163 40237 55008 60041 7//4/ 333 11005 21075 70050
AAXX 12184 71160 17/// /2013 11080 21095 39777 49990 56055 69931 7//4/ 333 11066 21147 70003
AAXX 12184 71162 16/// /1925 11056 21079 39740 49947 58046 60001 333 11056 7////
AAXX 12184 71164 46/// /3303 11085 21096 39765 49845 55005 6///1 333 11085 21188 7////
AAXX 12184 71165 46/// ///04 11122 21135 39601 49881 56055 6///1 333 11093 21123 7////
AAXX 12184 71166 46/// /2308 39363 56027 6///1 333 7////
AAXX 12184 71868 16/// /2404 11107 21125 39854 40315 50001 60001 333 11107 21124 70000
AAXX 12184 71920 16/// /2418 10080 20052 30320 40326 56022 60001 333 10080 21040 70000
AAXX 12184 71015 17/// ///// 11092 69951 7//4/ 333 11067 21114 70047
AAXX 12184 71017 16/// /1211 11251 21276 39961 49976 57020 60001 333 11248 21311 70000
AAXX 12184 71018 16/// ///03 11283 21312 39941 40031 57007 60001 333 11251 21313 70000
AAXX 12184 71019 46/// /2408 10023 21032 39967 40275 56007 6///1 333 10033 21093 7////
AAXX 12184 71020 46/// /3005 10033 21076 39661 49908 56020 6///1 333 10041 21140 7//// 555 10020
AAXX 12184 71021 46/// /2910 10014 21090 39585 49930 56021 6///1 333 10016 21120 7////
AAXX 12184 71026 17/// /0000 11061 21085 39382 40260 56003 60011 7//4/ 333 21067 7//// 555 10030
AAXX 12184 71087 46/// /2208 10018 21035 39714 49916 58044 6///1 333 10018 21185 7////
AAXX 12184 71444 16/// /1901 11118 21131 39524 40314 50006 60001 333 11090 21185 70000
AAXX 12184 71447 16/// /0709 11087 21107 39748 40313 50011 60001 333 11060 21091 70000
AAXX 12184 71472 17/// /2605 10060 20040 30151 40169 51040 60061 7//4/ 333 10069 20040 70078
AAXX 12184 71719 16/// /2609 10006 21033 30262 40268 55003 60001 333 10015 21083 70000
AAXX 12184 71110 16/// /2419 11004 21007 30210 40271 56022 60001 333 10006 21044 70012
AAXX 12184 71139 17/// /1607 11077 21087 38747 40244 56001 60011 7//4/ 333 11075 21081 70014
AAXX 12184 71141 17/// /1510 11252 21276 39972 49999 56029 69951 7//4/ 333 11251 21322 70005
AAXX 12184 71149 16/// /3604 11124 21152 60001 333 11084 21134 70000
AAXX 12184 71402 46/// /2406 11041 21059 30103 40221 56020 6///1 333 11041 21087 7////
AAXX 12184 71407 16/// /2003 11285 21318 30075 40097 58003 60001 333 11217 21300 70000
AAXX 12184 71446 16/// /1607 11081 21094 39262 40274 58001 60001 333 11075 21096 70000
AAXX 12184 71215 46/// /3006 10010 21086 39917 40268 51006 6///1 333 10030 21023 7////
AAXX 12184 71243 47/// /1804 11086 21105 39157 40289 58007 6///1 7//4/ 333 11044 21131 7////
AAXX 12184 71246 16/// /1710 11081 21104 39464 40140 57027 60001 333 11081 21113 70000
AAXX 12184 71669 16/// /2001 11149 21166 38567 40245 58014 60001 333 11085 21206 70065
AAXX 12184 71924 11574 41303 11279 21319 39940 40032 57007 69901 77170 84530 333 11250 21300 48037 79999 90942
AAXX 12184 71851 16/// /3408 11106 21128 39974 40323 50008 60001 333 11064 21128 70000
AAXX 12184 71885 17/// ///// 11110 69941 7//4/ 333 11050 7////
AAXX 12184 71355 16/// /0000 11355 21392 39949 40038 58005 60001 333 11320 21375 70000
AAXX 12184 71357 16/// /0608 11179 21204 30027 40034 53009 60001 333 11095 21184 70000
AAXX 12184 71362 16/// /1806 11094 21111 39779 40036 58044 60001 333 11076 21118 70000
AAXX 12184 71364 16/// /3608 11161 21178 39742 49874 53014 60001 333 11078 21161 70000
AAXX 12184 71365 16/// /2417 10023 21038 39684 49893 55030 60001 333 10025 21189 70000 555 10030
AAXX 12184 71376 16/// /2604 10027 21028 39993 40292 56014 60001 333 10029 21076 70000
AAXX 12184 71381 46/// /2312 10017 21012 6///1 333 10018 21101 70000
AAXX 12184 71382 16/// /2005 11035 21041 39306 40259 55002 60001 333 11035 21101 70010
AAXX 12184 71393 16/// ///// 11091 21101 38934 40246 56008 60001 333 11063 21096 70020 555 10010
AAXX 12184 71450 16/// /1205 11090 21103 39548 40294 56005 60001 333 11089 21098 70000
AAXX 12184 71453 47/// /1102 11050 21067 39328 40267 5/004 6///1 7//4/ 333 7//// 555 10010
AAXX 12184 71465 46/// /2105 10042 21032 30087 40308 58013 6///1 333 10045 20009 7////
AAXX 12184 71470 16/// /1820 11115 21127 39290 49908 58063 60001 333 11085 21184 70000
AAXX 12184 71476 17/// /1727 30151 56017 60101 7//4/ 333 70096
AAXX 12184 71478 16/// /1815 10049 20021 30094 40232 56009 60001 333 10053 20038 70000
AAXX 12184 71479 16/// /1110 10042 20006 30120 40242 51003 60001 333 10044 20023 70000
AAXX 12184 71480 16/// /2703 11095 21110 39679 49798 55023 60001 333 11054 21194 70000 555 10010
AAXX 12184 71482 46/// /0512 10006 30207 40246 58005 6///1 333 10018 20003 7////
AAXX 12184 71484 16/// /1828 10059 20043 30142 40160 56017 60001 333 10059 20036 70000
AAXX 12184 71487 16/// /1603 11071 21079 39389 40283 50000 60001 333 11060 21086 70000
AAXX 12184 71489 16/// /1806 11081 21091 39453 40295 56003 60001 333 11081 21168 70000
AAXX 12184 71492 46/// ///07 11148 21159 39154 49837 58023 6///1 333 11116 21245 7//// 555 10010
AAXX 12184 71551 16/// /1906 11080 21089 39612 40300 54000 60001 333 11079 21094 70000
AAXX 12184 71552 46/// /3509 11084 21116 6///1 333 11061 21109 7////
AAXX 12184 71553 16/// /1106 11128 21141 60001 333 11080 21130 70000
AAXX 12184 71556 16/// /1503 11081 21093 39672 40300 58002 60001 333 11080 21103 70000
AAXX 12184 71577 46/// /3609 11125 21141 6///1 333 11075 21141 7////
AAXX 12184 71585 16/// /1105 11132 21143 39711 40186 56029 60001 333 11069 21188 70000
AAXX 12184 71270 16/// /0802 10059 21021 30064 40286 58009 60001 333 10066 20007 70000
AAXX 12184 71295 16/// /3604 11097 21118 39838 40301 51010 60001 333 11081 21122 70000
AAXX 12184 71622 16/// ///// 10043 21060 39963 40308 58009 60001 333 10044 21041 70000
AAXX 12184 71311 16/// /2411 10071 21012 30264 40289 56013 60001 333 10072 21075 70000
AAXX 12184 71317 16/// /2605 10052 20009 30242 40290 56021 60001 333 10052 21103 70000
AAXX 12184 71319 17/// /2504 11030 21035 39381 40262 50000 69971 7//4/ 333 11022 21101 70013
AAXX 12184 71321 16/// /3211 11185 21212 30088 40133 53012 60001 333 11153 21185 70000
AAXX 12184 71323 17/// /2505 10026 21046 30001 40290 56011 60011 7//4/ 333 10028 21113 70010
AAXX 12184 71332 16/// /3405 11203 21224 39832 49861 56038 60001 333 11132 21233 70000 555 10380
AAXX 12184 71837 16/// ///// 11125 60001 333 11056 21139 70046
AAXX 12184 71839 17/// ///// 11128 69971 7//4/ 333 11052 21158 70048
AAXX 12184 71849 16/// /0109 11116 21134 30006 40319 50006 60001 333 11062 21128 70000
BBXX 44150 12181 99425 70640 46/// /2607 10069 40349 57023 22200 00099 10402 70011 333 91208
AAXX 12181 14106 11597 80501 10102 20100 30044 40112 55001 60112 70262 886// 333 10109 82740 86621 95090
BBXX SBLI 12181 99301 71298 43/98 83510 10137 40193 51028 22254 00176 2//// 4//// 426621110
BBXX 41052 12181 99183 70648 46/// /0802 10273 40111 58018 91800 22200 00286 333 91203
AAXX 12184 71444 16/// /1901 11118 21131 39524 40314 50006 60001 333 11090 21185 70000
AAXX 12184 71447 16/// /0709 11087 21107 39748 40313 50011 60001 333 11060 21091 70000
AAXX 12184 71472 17/// /2605 10060 20040 30151 40169 51040 60061 7//4/ 333 10069 20040 70078
AAXX 12184 71832 16/// /0503 11071 21079 39932 40267 50007 60001 333 11022 21071 70000
AAXX 12184 71807 16/// /2527 10018 21017 30257 40276 56027 60001 333 10018 21043 70000
AAXX 12184 71719 16/// /2609 10006 21033 30262 40268 55003 60001 333 10015 21083 70000
AAXX 12184 71868 16/// /2404 11107 21125 39854 40315 50001 60001 333 11107 21124 70000
AAXX 12184 71752 16/// /2306 10044 21013 30088 40309 58006 60001 333 10047 21043 70000
AAXX 12184 71758 16/// /2512 10026 21015 30209 40288 56011 60001 333 10026 21076 70000
AAXX 12184 71771 46/// /1610 10067 20048 30143 40164 55013 6///1 333 10067 20031 7////
AAXX 12184 71724 16/// /2309 10027 21038 30284 40292 56012 60001 333 10030 21017 70000
AAXX 12184 71736 46/// ///// 11113 21130 6///1 333 11056 21123 7//// 555 10090
AAXX 12184 71742 46/// /2412 11020 21048 30042 40234 56027 6///1 333 11020 21097 7////
AAXX 12184 71744 16/// /2610 10028 21040 30233 40275 56010 60001 333 10028 21090 70000
AAXX 12184 71501 16/// /0715 11143 21158 39933 49935 53015 60001 333 11136 21185 70005
AAXX 12184 71511 16/// /1403 11091 21099 39638 40301 58002 60001 333 11091 21104 70000
AAXX 12184 71512 16/// /0601 11069 21092 30235 40250 55000 60001 333 11064 21217 70022
AAXX 12184 71954 46/// /2306 11159 21173 39911 40308 58006 6///1 333 11159 21278 7////
AAXX 12184 71956 16/// /2307 10040 20026 30029 40264 58003 60001 333 10045 20019 70000
AAXX 12184 71959 16/// ///// 10042 21017 60001 333 10046 21041 70007
AAXX 12184 71970 16/// /2009 11110 21130 39664 40272 57007 60001 333 11083 21116 70000
AAXX 12184 71977 46/// /0405 11094 21094 39179 49884 53007 6///1 333 11092 21225 7//// 555 10020
AAXX 12184 71978 46/// /0111 11155 21168 39605 49918 53017 6///1 333 11155 21178 7////
AAXX 12184 71150 46/// /0903 11134 21149 39608 40318 51008 6///1 333 11076 21158 7////
AAXX 12184 71151 16/// /0305 11088 21096 39766 40289 50012 60001 333 11087 21106 70000
AAXX 12184 71156 16/// /2604 11179 21193 39080 40227 58018 60001 333 11156 21230 70000
AAXX 12184 71157 46/// ///// 11073 21088 6///1 333 11054 21098 7////
AAXX 12184 71159 17/// /3013 11008 21011 30163 40237 55008 60041 7//4/ 333 11005 21075 70050
AAXX 12184 71160 17/// /2013 11080 21095 39777 49990 56055 69931 7//4/ 333 11066 21147 70003
AAXX 12184 71162 16/// /1925 11056 21079 39740 49947 58046 60001 333 11056 7////
AAXX 12184 71164 46/// /3303 11085 21096 39765 49845 55005 6///1 333 11085 21188 7////
AAXX 12184 71165 46/// ///04 11122 21135 39601 49881 56055 6///1 333 11093 21123 7////
AAXX 12184 71166 46/// /2308 39363 56027 6///1 333 7////
AAXX 12181 36974 329// 72301 11126 11146 38020 48600 54000 80042 333 11075
AAXX 12184 71924 11574 41303 11279 21319 39940 40032 57007 69901 77170 84530 333 11250 21300 48037 79999 90942
AAXX 12184 71215 46/// /3006 10010 21086 39917 40268 51006 6///1 333 10030 21023 7////
AAXX 12184 71243 47/// /1804 11086 21105 39157 40289 58007 6///1 7//4/ 333 11044 21131 7////
AAXX 12184 71246 16/// /1710 11081 21104 39464 40140 57027 60001 333 11081 21113 70000
AAXX 12184 71015 17/// ///// 11092 69951 7//4/ 333 11067 21114 70047
AAXX 12184 71017 16/// /1211 11251 21276 39961 49976 57020 60001 333 11248 21311 70000
AAXX 12184 71018 16/// ///03 11283 21312 39941 40031 57007 60001 333 11251 21313 70000
AAXX 12184 71019 46/// /2408 10023 21032 39967 40275 56007 6///1 333 10033 21093 7////
AAXX 12184 71020 46/// /3005 10033 21076 39661 49908 56020 6///1 333 10041 21140 7//// 555 10020
AAXX 12184 71021 46/// /2910 10014 21090 39585 49930 56021 6///1 333 10016 21120 7////
AAXX 12184 71026 17/// /0000 11061 21085 39382 40260 56003 60011 7//4/ 333 21067 7//// 555 10030
AAXX 12184 71920 16/// /2418 10080 20052 30320 40326 56022 60001 333 10080 21040 70000
AAXX 12184 71551 16/// /1906 11080 21089 39612 40300 54000 60001 333 11079 21094 70000
AAXX 12184 71552 46/// /3509 11084 21116 6///1 333 11061 21109 7////
AAXX 12184 71553 16/// /1106 11128 21141 60001 333 11080 21130 70000
AAXX 12184 71556 16/// /1503 11081 21093 39672 40300 58002 60001 333 11080 21103 70000
AAXX 12184 71577 46/// /3609 11125 21141 6///1 333 11075 21141 7////
AAXX 12184 71585 16/// /1105 11132 21143 39711 40186 56029 60001 333 11069 21188 70000
AAXX 12184 71087 46/// /2208 10018 21035 39714 49916 58044 6///1 333 10018 21185 7////
AAXX 12184 71669 16/// /2001 11149 21166 38567 40245 58014 60001 333 11085 21206 70065
AAXX 12184 71355 16/// /0000 11355 21392 39949 40038 58005 60001 333 11320 21375 70000
AAXX 12184 71357 16/// /0608 11179 21204 30027 40034 53009 60001 333 11095 21184 70000
AAXX 12184 71362 16/// /1806 11094 21111 39779 40036 58044 60001 333 11076 21118 70000
AAXX 12184 71364 16/// /3608 11161 21178 39742 49874 53014 60001 333 11078 21161 70000
AAXX 12184 71365 16/// /2417 10023 21038 39684 49893 55030 60001 333 10025 21189 70000 555 10030
AAXX 12184 71376 16/// /2604 10027 21028 39993 40292 56014 60001 333 10029 21076 70000
AAXX 12184 71381 46/// /2312 10017 21012 6///1 333 10018 21101 70000
AAXX 12184 71382 16/// /2005 11035 21041 39306 40259 55002 60001 333 11035 21101 70010
AAXX 12184 71393 16/// ///// 11091 21101 38934 40246 56008 60001 333 11063 21096 70020 555 10010
AAXX 12184 71402 46/// /2406 11041 21059 30103 40221 56020 6///1 333 11041 21087 7////
AAXX 12184 71407 16/// /2003 11285 21318 30075 40097 58003 60001 333 11217 21300 70000
AAXX 12184 71446 16/// /1607 11081 21094 39262 40274 58001 60001 333 11075 21096 70000
AAXX 12184 71837 16/// ///// 11125 60001 333 11056 21139 70046
AAXX 12184 71839 17/// ///// 11128 69971 7//4/ 333 11052 21158 70048
AAXX 12184 71849 16/// /0109 11116 21134 30006 40319 50006 60001 333 11062 21128 70000
AAXX 12184 71851 16/// /3408 11106 21128 39974 40323 50008 60001 333 11064 21128 70000
AAXX 12184 71885 17/// ///// 11110 69941 7//4/ 333 11050 7////
AAXX 12184 71622 16/// ///// 10043 21060 39963 40308 58009 60001 333 10044 21041 70000
AAXX 12184 71110 16/// /2419 11004 21007 30210 40271 56022 60001 333 10006 21044 70012
AAXX 12184 71139 17/// /1607 11077 21087 38747 40244 56001 60011 7//4/ 333 11075 21081 70014
AAXX 12184 71141 17/// /1510 11252 21276 39972 49999 56029 69951 7//4/ 333 11251 21322 70005
AAXX 12184 71149 16/// /3604 11124 21152 60001 333 11084 21134 70000
AAXX 12184 71450 16/// /1205 11090 21103 39548 40294 56005 60001 333 11089 21098 70000
AAXX 12184 71453 47/// /1102 11050 21067 39328 40267 5/004 6///1 7//4/ 333 7//// 555 10010
AAXX 12184 71465 46/// /2105 10042 21032 30087 40308 58013 6///1 333 10045 20009 7////
AAXX 12184 71470 16/// /1820 11115 21127 39290 49908 58063 60001 333 11085 21184 70000
AAXX 12184 71476 17/// /1727 30151 56017 60101 7//4/ 333 70096
AAXX 12184 71478 16/// /1815 10049 20021 30094 40232 56009 60001 333 10053 20038 70000
AAXX 12184 71479 16/// /1110 10042 20006 30120 40242 51003 60001 333 10044 20023 70000
AAXX 12184 71480 16/// /2703 11095 21110 39679 49798 55023 60001 333 11054 21194 70000 555 10010
AAXX 12184 71482 46/// /0512 10006 30207 40246 58005 6///1 333 10018 20003 7////
AAXX 12184 71484 16/// /1828 10059 20043 30142 40160 56017 60001 333 10059 20036 70000
AAXX 12184 71487 16/// /1603 11071 21079 39389 40283 50000 60001 333 11060 21086 70000
AAXX 12184 71489 16/// /1806 11081 21091 39453 40295 56003 60001 333 11081 21168 70000
AAXX 12184 71492 46/// ///07 11148 21159 39154 49837 58023 6///1 333 11116 21245 7//// 555 10010
AAXX 12184 71311 16/// /2411 10071 21012 30264 40289 56013 60001 333 10072 21075 70000
AAXX 12184 71317 16/// /2605 10052 20009 30242 40290 56021 60001 333 10052 21103 70000
AAXX 12184 71319 17/// /2504 11030 21035 39381 40262 50000 69971 7//4/ 333 11022 21101 70013
AAXX 12184 71321 16/// /3211 11185 21212 30088 40133 53012 60001 333 11153 21185 70000
AAXX 12184 71323 17/// /2505 10026 21046 30001 40290 56011 60011 7//4/ 333 10028 21113 70010
AAXX 12184 71332 16/// /3405 11203 21224 39832 49861 56038 60001 333 11132 21233 70000 555 10380
AAXX 12184 71270 16/// /0802 10059 21021 30064 40286 58009 60001 333 10066 20007 70000
AAXX 12184 71295 16/// /3604 11097 21118 39838 40301 51010 60001 333 11081 21122 70000
BBXX 41052 12181 99183 70648 46/// /0803 10272 40111 91750 333 91204
BBXX 41052 12181 99183 70648 46/// /0803 10274 40111 91740 333 91203
AAXX 12184 67341 32580 41709 10261 20224 40069 52023 84200 333 10349 94320
BBXX 42085 12181 99179 70665 46/// /1404 10287 40112 91750 333 91205
BBXX 42085 12181 99179 70665 46/// /1303 10283 40113 91740 333 91204
BBXX 42085 12181 99179 70665 46/// /1304 10287 40110 91800 22200 00287 10901 70004 333 91205
AAXX 12184 04211 47/35 /0306 11118 21128 39793 49956 52006 77177 333 11096 21119
AAXX 12184 04220 05984 31810 11088 21111 39855 49908 52012 69912 333 11048 21089 55300 20004 69917 83/75
AAXX 12184 04221 45984 11205 11122 21212 39871 49910 52009 333 11083 21150 81/74
AAXX 12184 04231 12989 20707 11197 21234 39852 49929 52011 6///2 80001 333 11158 21201 82074
AAXX 12184 04234 45/84 /0603 11105 21154 39901 49912 52015 333 11074 21109
AAXX 12184 04241 45580 30911 11085 21165 39863 49903 52016 333 11069 21085 83/28
AAXX 12184 04250 05584 30608 11078 21139 39793 49899 52024 69902 333 11063 21080 55300 20022 6///7 83/31
AAXX 12184 04254 45584 70809 11085 21156 39789 49905 52015 333 11062 21092 87/32
AAXX 12184 04260 45981 13003 11060 21152 39837 49881 52010 333 11055 21077 81/70
AAXX 12184 04270 45984 10902 11146 21220 39827 49867 57001 333 11110 21164 81/62
AAXX 12184 04272 05984 3//// 11096 21175 39788 49861 57001 6///2 333 11088 21121 6///7 83/68
AAXX 12184 04312 46/// /2303 11255 21289 39978 40020 57003
AAXX 12184 04320 NIL
AAXX 12184 04339 47/84 ///// 11123 21133 39913 40007 57011 70087 333 11049 21129 55300 20000
AAXX 12184 04360 06/// /0512 11002 21039 39782 49851 52020 60042 333 11001 21014 55300 20000 6///7 91022 91139 91224
AAXX 12184 04361 46/// 90731 11009 21032 39794 49846 52017 333 10002 21016 89/10 91161 91049
AAXX 12184 04390 07980 72819 11027 21182 39711 49803 57001 60022 70087 333 11024 21047 69967 83/61 87/63 91131
BBXX A8TG2 12183 99226 71109 41698 52410 10210 20160 40140 54000 70222 83462 22234 20204 325// 40204 5//// 80180
BBXX 41037 12181 99340 70775 46/// /0409 10145 40252 58015 91800 22200 00166 333 91212
AAXX 12181 58150 31930 03201 11003 21022 30286 40290 57007 71000 333 10092
AAXX 12181 58221 32960 00000 11010 21034 30262 40291 57010 333 10091
AAXX 12181 58238 31957 00901 10022 21039 30237 40283 57012 70500 333 10089
AAXX 12181 58606 32961 10701 10069 21042 30206 40265 57009 81040 333 10120
AAXX 12181 58752 31957 72701 10085 20051 30216 40263 57009 70500 8703/ 333 10148
AAXX 12181 58847 32665 73602 10131 20035 30134 40236 57009 875// 333 10172
AAXX 12181 59134 32964 73603 10149 20091 30045 40213 57008 8704/ 333 10197
AAXX 12181 59287 32971 13603 10111 21020 30127 40213 57007 80002 333 10192
AAXX 12181 59758 32970 63402 10135 20092 30121 40198 57006 80002 333 10190
AAXX 12181 52533 32980 52902 11098 21161 38544 40294 57003 80002 333 05502 10005
AAXX 12181 52652 32980 01402 11120 21158 38557 40298 57003 333 05503 11002
AAXX 12181 52866 32970 00000 11123 21161 37715 52005 333 05301 10036
AAXX 12181 52983 31957 02701 11116 21139 38135 57007 70500 333 05301 11019
AAXX 12181 53588 32970 02508 11100 21134 37783 57016 333 11031
AAXX 12181 53772 31915 61401 11047 21073 39342 40295 57008 71000 80002 333 10042
AAXX 12181 53915 32980 02902 11058 21092 38700 40288 57013 333 05501 10026
AAXX 12181 54342 32962 00702 11122 21136 30241 40306 57009 333 10001
AAXX 12181 54511 32770 70702 10005 21034 30244 40285 57012 86502 333 10076
AAXX 12181 56080 32980 00000 11119 21168 37145 57004 333 05201 10057
AAXX 12181 56096 32975 21101 10028 21044 38990 40251 57004 80002 333 05301 10093
BBXX 46111 12181 99481 71227 46/// /0802 10038 40251 52008 91800 22200 00059
BBXX 46112 12181 99481 71227 46/// /0402 10036 40253 53009 91800
AAXX 12184 08348 11565 62303 10096 20084 39529 40272 50005 69902 70155 83606 333 10120
AAXX 12181 51076 32980 70202 11128 21170 39387 40325 52011 80002 333 05105 11060
AAXX 12181 51243 32970 20901 11120 21139 39732 40326 52007 80002 333 05202 11088
AAXX 12181 51463 32965 21802 11091 21110 39160 40317 52015 80002 333 00052 11036
AAXX 12181 51573 32975 00000 11070 21121 30271 40317 52006 333 05451 11011
AAXX 12181 51709 32865 72201 11059 21096 38773 40323 57005 875// 333 05401 11034
AAXX 12181 54401 32965 53402 11056 21130 39376 40266 57014 80002 333 10032
AAXX 12181 56778 32565 70901 10058 20052 38129 57001 874// 333 05152 10151
AAXX 12181 57265 31958 02702 10038 20012 30163 40276 57005 71000 333 10125
AAXX 12181 57494 32965 60201 10029 20025 30242 40273 57003 86030 333 10117
AAXX 12181 58362 31958 02701 10008 21010 30268 40276 57012 71000 333 10091
AAXX 12184 91413 11469 40907 10260 20237 30063 40088 57015 60021 72522 83101 333 562/9 70015 555 91218
AAXX 12181 40706 11650 60602 11040 21071 38735 40339 51005 60001 70522 81506 333 55001 20530 86269
AAXX 12181 40718 12960 40000 10084 20066 30328 40298 52017 60001 84030 333 55070 84360
AAXX 12181 40732 12960 40000 10072 20044 30304 40279 51012 60001 84030 333 55081 84362
AAXX 12181 40745 12960 00000 11001 21026 39130 40320 50003 60001 333 55065 20928
AAXX 12181 40754 12960 30000 10031 21028 38902 40286 50001 60001 82031 333 55075 82360
AAXX 12181 40766 12960 20000 10010 21078 38742 40275 52004 60001 82040 333 55086 21163 82360
AAXX 12181 40800 12960 00000 10010 21026 38502 40262 51004 60001 333 55087 2////
AAXX 12181 40811 11957 02803 10120 20034 30187 40215 51009 60001 70600 333 55086 20378
AAXX 12181 40841 12960 01102 10024 21087 38309 40269 52010 60001 333 55094 21481
AAXX 12181 40848 12965 03002 10052 21024 38559 40224 51007 60001 333 55092 21477
AAXX 12181 40856 12962 13403 10048 21063 38700 40243 51008 60001 80001 333 55095 2//// 81070
AAXX 12181 40875 12960 20406 10207 21104 30164 40176 52014 60001 80002 333 55096 21497 82070
AAXX 12184 91413 11469 40907 10260 20237 30063 40088 57015 60021 72522 83101 333 562/9 70015 555 91218
AAXX 12180 44203 NIL
AAXX 12180 44207 NIL
AAXX 12180 44212 NIL
AAXX 12180 44213 NIL
AAXX 12180 44215 NIL
AAXX 12180 44218 NIL
AAXX 12180 44225 NIL
AAXX 12180 44230 NIL
AAXX 12180 44232 NIL
AAXX 12180 44237 NIL
AAXX 12180 44239 NIL
AAXX 12180 44241 NIL
AAXX 12180 44256 NIL
AAXX 12180 44265 NIL
AAXX 12180 44272 329// 00000 11302 21332 38238 40491 52007
AAXX 12180 44275 329// 20000 11262 21287 37699 40437 53007 80004
AAXX 12180 44282 NIL
AAXX 12180 44284 328// 32001 11300 21332 37822 40529 51005 82044
AAXX 12180 44285 NIL
AAXX 12180 44287 32899 20304 11193 21252 38086 40381 52005 82040
AAXX 12180 44294 329// 00102 11234 21260 38522 40361 53013
AAXX 12180 44298 318// 53206 11263 21268 38654 40303 57005 70242 85040
AAXX 12180 44302 329// 22703 11241 21266 39078 40303 51003 80001
AAXX 12180 44305 329// 83203 11195 21217 39004 40243 56009 8807/
AAXX 12180 44313 NIL
AAXX 12180 44314 NIL
AAXX 12180 44317 NIL
AAXX 12180 44336 NIL
AAXX 12180 44341 NIL
AAXX 12180 44347 NIL
AAXX 12180 44352 NIL
AAXX 12180 44358 NIL
AAXX 12181 06447 16/// /2105 10062 20033 39985 40110 50009 60012 333 10085 91113 91209
AAXX 12180 44214 NIL
AAXX 12180 44231 NIL
AAXX 12180 44259 NIL
AAXX 12180 44277 NIL
AAXX 12180 44288 NIL
AAXX 12180 44292 NIL
AAXX 12180 44304 329// 22303 11259 21284 38951 40300 52004 82040
AAXX 12180 44354 NIL
AAXX 12180 44373 NIL
AAXX 12181 63330 NIL
AAXX 12181 63331 NIL
AAXX 12181 63332 NIL
AAXX 12181 63333 42980 00000 10148 20079 38171 40197 333 10242 58002
AAXX 12181 63340 41565 53602 10155 20105 37951 40175 79181 85900 333 10255 58010 82823 83624 81925
AAXX 12181 63402 NIL
AAXX 12181 63403 NIL
AAXX 12181 63450 NIL
AAXX 12181 63451 NIL
AAXX 12181 63453 NIL
AAXX 12181 63460 NIL
AAXX 12181 63471 NIL
AAXX 12181 63474 NIL
AAXX 12181 63478 NIL
AAXX 12181 63500 NIL
AAXX 12181 63533 NIL
AAXX 12181 06431 36/// /2106 10074 20044 30081 40093 50005 60002 333 10089 91111 91207
AAXX 12181 37279 32494 70000 10055 20023 30145 40292 57012 87700 333 10106
AAXX 12181 37308 329// 30000 11010 21032 39645 40323 58005 83030 333 10036
AAXX 12181 37531 325// 72403 10036 21020 39577 40317 52011 87500 333 10093
AAXX 12181 37553 329// 22801 11003 21059 39626 40297 52019 80030 333 10110
AAXX 12181 37651 16/// ///00 11009 21057 3//// 4//// 5//// 60002 333 10107
AAXX 12181 37492 NIL
BBXX 44255 12181 99473 70573 46/// ///// 1//// 4//// 5//// 22200 0//// 1//// 70/// 333 912//
AAXX 12181 50136 32970 02201 11335 21375 39696 40291 52005 333 11156
AAXX 12181 50745 32965 02202 11138 21186 30065 40261 57007 333 11055
AAXX 12181 50774 32960 00000 11253 21276 39955 40288 52001 333 11115
AAXX 12181 50788 32970 02204 11184 21222 30176 40269 52005 333 11127
AAXX 12181 51133 32680 70401 11043 21109 39620 40294 52008 83502 333 00006 11007
AAXX 12181 51431 32762 70401 11056 21071 39496 40324 52019 875// 333 00503 10008
AAXX 12181 51747 32970 70000 11169 21206 38981 40342 52011 80002 333 05300 10004
AAXX 12181 52203 32980 00201 11112 21146 39385 40308 52004 333 05453 10005
AAXX 12181 52418 32980 00901 11112 21140 38923 40310 57001 333 05551 10009
AAXX 12181 52681 32980 02502 11099 21156 38658 40286 57005 333 05601 10021
AAXX 12181 53564 32975 73401 11086 21107 39233 40292 57006 80008 333 05601 10026
AAXX 12181 53614 31912 00000 11095 21108 38941 40292 57011 71000 333 05600 11017
AAXX 12181 53646 32970 20902 11082 21131 38890 40285 57010 80002 333 05601 11005
AAXX 12181 53798 32960 70000 11004 21029 30187 40286 57014 80002 333 10077
AAXX 12181 53845 32965 02002 11055 21086 39130 40290 57006 333 05502 10044
AAXX 12181 53959 32960 21401 11028 21058 39828 40285 57007 80002 333 10056
AAXX 12181 54094 31958 01801 11151 21193 39990 40309 52005 70400 333 11035
AAXX 12181 54102 32980 72203 11097 21143 39017 40260 57013 80002 333 11095
AAXX 12181 54161 32962 01802 11099 21166 39991 40300 57007 333 11047
AAXX 12181 54292 32965 02502 11108 21161 39980 40316 52005 333 11020
AAXX 12181 54374 32963 03601 11157 21184 39852 40345 52003 333 11009
AAXX 12181 54423 32975 60000 11072 21119 39764 40298 57010 80002 333 10024
AAXX 12181 54618 32961 51401 11004 21025 30267 40285 57011 80002 333 10087
AAXX 12181 54843 31930 01601 10002 21009 30269 40298 57008 71000 333 10078
AAXX 12181 54909 32962 50901 11009 21033 30223 40288 57007 80002 333 10096
AAXX 12181 56029 32980 00000 11142 21178 36448 57006 333 05255 10026
AAXX 12181 57127 32961 02701 10006 21007 39662 40287 52001 333 10092
AAXX 12181 57131 32962 02901 11017 21044 39796 40308 57001 333 10055
AAXX 12180 44210 NIL
AAXX 12180 44216 NIL
AAXX 12180 44217 NIL
AAXX 12180 44219 NIL
AAXX 12180 44221 NIL
AAXX 12180 44224 NIL
AAXX 12180 44229 NIL
AAXX 12180 44242 NIL
AAXX 12180 44243 NIL
AAXX 12180 44254 329// 72502 11188 21211 39005 40257 51006 87070
AAXX 12180 44257 329// 70000 11210 21259 38950 40300 51005 87010
AAXX 12180 44263 NIL
AAXX 12180 44266 NIL
AAXX 12180 44286 416// 61601 11173 21192 38649 40346 52020 70272 86500
AAXX 12180 44291 NIL
AAXX 12180 44325 NIL
AAXX 12180 44329 328// 23603 11140 21222 37743 40314 51002 81041
AAXX 12180 44338 NIL
AAXX 12180 44348 NIL
AAXX 12180 44374 NIL
AAXX 12180 44385 NIL
AAXX 12180 44386 NIL
AAXX 12184 40100 12958 30702 10141 20074 30205 40237 50003 60001 80004 918// 333 10193 83070 92427
AAXX 12184 40101 12957 00000 10057 20026 39157 48543 51007 60001 918// 333 10143
AAXX 12184 40102 NIL
AAXX 12184 40103 NIL
AAXX 12184 47401 11/08 92909 11069 21107 30141 40156 51022 60011 78682
AAXX 12184 47412 11/40 73018 11040 21088 30155 40189 51022 60031 78582 8627/
AAXX 12184 47420 15/70 /3319 11033 21080 30089 40124 51018 60001
AAXX 12184 47426 17/70 /3116 11031 21097 30122 40171 53020 69901 72470
AAXX 12184 47582 12/60 73211 10037 21068 30203 40230 51012 60001 872//
AAXX 12184 47590 11/80 70802 10031 21016 30166 40221 50010 69901 72582 872//
AAXX 12184 47600 17/70 /3612 10070 20005 30251 40259 51018 60011 72360
AAXX 12184 47648 12/70 23004 10065 20052 30164 40199 53017 60001 82200
AAXX 12184 47662 12/80 10202 10089 20004 30155 40200 53009 60001 81100
AAXX 12184 47678 15/70 /2811 10130 20059 30007 40194 58004 69901
AAXX 12184 47740 15/83 /3304 10076 21011 30220 40255 53009 60001
AAXX 12184 47778 15/70 /3103 10101 20049 30146 40231 55000 60001
AAXX 12184 47807 12/60 51203 10086 20039 30233 40252 56006 60001 85200
AAXX 12184 47827 12/75 33308 10080 20027 30200 40239 58003 60001 81530
AAXX 12184 47843 15/70 /3503 10107 20046 30217 40250 56007 60001
AAXX 12184 47893 12970 03003 10052 20027 30239 40245 53001 60001
AAXX 12184 47909 11/70 81604 10153 20133 30206 40216 56010 69901 72162 8752/
AAXX 12184 47918 11/60 70514 10205 20190 30158 40175 58009 60081 72162 8587/
AAXX 12184 47936 11/65 80309 10181 20144 30137 40196 57015 60021 70262 8227/
AAXX 12184 47945 11/58 80412 10188 20171 30167 40191 58002 60011 78082 8627/
AAXX 12184 47971 11/60 80208 10198 20183 30177 40187 58004 60041 78088 882//
AAXX 12184 47991 16/// /0706 10253 20214 30164 40174 56008 60001
AAXX 12184 47407 11/18 82808 11065 21086 39994 40175 51031 60011 78581 883//
AAXX 12184 47409 11/70 22912 11054 21130 30081 40137 51023 60031 70281 82200
AAXX 12184 47418 12/80 12715 11023 21116 30090 40141 53017 60001 81200
AAXX 12184 47421 17/36 /3215 11026 21068 30156 40201 51017 60021 77177
AAXX 12184 47430 11/56 82811 11027 21058 30146 40202 50019 69951 78582 883//
AAXX 12184 47570 17/70 /2806 10029 20006 39971 40237 51021 69951 76760
AAXX 12184 47575 11/05 82812 11011 21022 30215 40220 53025 60011 78682 883//
AAXX 12184 47584 11/70 60802 10004 21056 30018 40214 52006 69901 70381 86300
AAXX 12184 47604 11/70 83310 10064 21015 30238 40247 53012 69901 72588 882//
AAXX 12184 47605 11/70 70511 10065 20047 30208 40250 53011 60061 72582 87200
AAXX 12184 47610 11/75 70305 10037 20008 39727 40240 51014 69901 78081 872//
AAXX 12184 47624 12/80 13307 10074 21013 30068 40209 53014 60001 81830
AAXX 12184 47629 12965 13604 10032 20013 30170 40210 53021 60001 81030
AAXX 12184 47636 12/65 13003 10066 20044 30155 40225 53002 60001 81500
AAXX 12184 47651 13/// /2806 10084 20033 30209 40232 53005 60001
AAXX 12184 47655 15/70 /2912 10082 20027 30138 40196 53006 60001
AAXX 12184 47675 15/62 /0508 10091 20071 30099 40191 53009 60001
AAXX 12184 47741 11/70 70204 10097 20045 30227 40255 53011 69901 78082 872//
AAXX 12184 47746 11/65 81304 10074 20060 30232 40252 53009 69951 78082 882//
AAXX 12184 47750 11265 71702 10063 20051 30217 40245 53005 69901 78082 872//
AAXX 12184 47765 12/60 20110 10058 20031 30185 40252 57002 60001 82800
AAXX 12184 47772 12970 71603 10087 20043 30135 40237 56001 60001 8703/
AAXX 12184 47800 15/61 /3602 10057 20032 30252 40257 56006 60001
AAXX 12184 47815 12/70 61804 10053 20014 30237 40254 56002 60001 86400
AAXX 12184 47817 12/70 20802 10071 20024 30207 40252 56006 60001 82800
AAXX 12184 47830 12965 02804 10044 20037 30224 40243 56001 60001
AAXX 12184 47887 12/65 11405 10065 20026 30209 40252 55002 60001 81100
AAXX 12184 47891 12/70 22606 10068 20032 30229 40246 56001 60001 82100
AAXX 12184 47895 12975 02909 10096 20025 30231 40239 56001 60001
AAXX 12184 47927 11/60 80415 10202 20185 30136 40185 58006 60041 76062 888//
AAXX 12181 40703 11556 80000 11026 21044 39008 40335 53002 60001 71022 8662/ 333 55000 86720 88458
AAXX 12181 40712 11640 82502 11014 21039 38763 40328 52004 60001 71022 8432/ 333 55000 81935 83640 88459
AAXX 12181 40729 12960 30903 11040 21057 38399 40319 50001 60001 80002 333 55043 83070
AAXX 12181 40736 12960 00000 10084 20062 30314 40288 52014 60001 333 55075
AAXX 12181 40739 12965 00102 10004 21034 38764 40305 51005 60001 333 55091
AAXX 12181 40743 12968 00403 10024 21039 39156 40308 51004 60001 333 55081
AAXX 12181 40762 12962 00000 11012 21066 38624 40300 53002 60001 333 55070
AAXX 12181 40768 12965 00000 11043 21075 38309 40301 50005 60001 333 55080 21295
AAXX 12181 40769 11958 02802 11004 21078 38350 40287 50005 60001 70500 333 55083 2////
AAXX 12181 40785 12960 00000 10028 21034 39165 40295 50010 60001 333 55087
AAXX 12181 40809 12965 00902 11006 21149 38563 40282 50003 60001 333 55094 21336
AAXX 12181 40821 12960 00000 10048 21050 38856 40276 51005 60001 333 55093 21274
AAXX 12181 40831 12960 02702 10080 20016 30220 40228 52010 60001 333 55086
AAXX 1218/ 89327 46/// ///// 11006 39584 4//// 5////
AAXX 1218/ 89828 46/// ///// 11385 36416 4//// 5////
AAXX 1218/ 89879 46/// ///// 11025 39698 4//// 5////
AAXX 1218/ 89872 46/// ///// 11081 39796 4//// 5////
AAXX 1218/ 89869 46/// ///// 11054 39785 4//// 5////
AAXX 1218/ 89332 46/// ///// 11071 39207 4//// 5////
AAXX 1218/ 89769 46/// ///// 11055 39817 4//// 5////
AAXX 1218/ 89314 46/// ///// 11155 38150 4//// 5////
AAXX 12184 89667 46/// /0805 11080 39844 4//// 5////
AAXX 12181 08501 32/// /2705 10187 20123 30205 40241 52001 333 10201 91012 91112
AAXX 12181 08505 32470 62607 10182 20140 30206 40256 55009 83831 333 10190 83812 85070
AAXX 12181 08509 32560 52806 10186 20138 30185 40250 56013 83801 333 10194 82825 83637 91010 91112
AAXX 12181 08512 11480 52805 10165 20145 30179 40264 57004 60022 70182 83802 333 10172 82816 83070 91007 91110
AAXX 12181 08515 11480 62706 10177 20149 30153 40274 55008 69902 70381 86801 333 10192 81812 84816 910// 911//
AAXX 12181 08533 32/// /3302 10152 20116 30248 40277 52002 333 10179
AAXX 12181 08541 32/// /1801 10134 20097 30154 40274 54000 333 10162
AAXX 12181 08545 NIL
AAXX 12181 08548 12/// /1701 10121 20086 30055 40262 54000 69912 333 10147
AAXX 12181 08554 32665 52903 10151 20102 30268 40278 52006 83501 333 10176 83635 83080 91106
AAXX 12181 08558 32/// /2901 10109 20088 39976 40273 52008 333 10150
AAXX 12181 08560 NIL
AAXX 12181 08567 32/// /2102 10086 20057 39586 40257 54000 333 10110
AAXX 12181 08570 11475 62201 10102 20060 39803 40266 52005 69912 70311 81852 333 10144 81816 84358
AAXX 12181 08575 NIL
AAXX 12181 08579 NIL
AAXX 12181 48845 32998 00000 10123 20110 30191 40198 57006 333 59025 96122
AAXX 12181 48826 32997 00902 10140 20098 30065 40205 58005 333 59024
AAXX 12181 48839 32997 00207 10170 20080 30133 40200 58007 222// 00187 2//// 333 59023
AAXX 12181 48840 32998 03202 10129 20100 30192 40198 57007 333 98030
AAXX 12181 48830 32998 00000 10064 20060 39902 40226 58003 333 59017 96122
AAXX 12181 48808 32498 20000 10075 20068 39932 40230 58002 82100 333 59028 82894
AAXX 12184 87022 31458 81814 10212 20192 39572 40072 53011 70722 8582/ 333 56449 84710 81935 85540
AAXX 12184 87046 32562 71820 10220 20138 39102 48493 53004 84570 333 56450 84625 87360
AAXX 12184 87047 31462 80507 10173 20134 38796 48513 50009 71622 888// 333 56299 82815 86618
AAXX 12184 87097 32570 32306 10333 20184 39772 40075 57023 83100 333 56900 83825
AAXX 12184 87121 11250 82304 10202 20183 39633 40140 57015 60031 72065 8572/ 333 56449 85706 88535
AAXX 12184 87129 11462 81803 10234 20187 39916 40144 57021 60051 70262 885// 333 83715 86620
AAXX 12184 87155 32965 62006 10292 20199 30040 40100 57015 85076 333 56076 85360 85270
AAXX 12184 87162 32570 61809 10350 20159 30011 40078 56013 81170 333 56860 81825 86360
AAXX 12184 87166 32960 72006 10300 20187 30024 40095 57015 82076 333 56076 82360 87270
AAXX 12184 87178 32970 72307 10337 20136 39936 40077 57016 80006 333 56006 87270
AAXX 12184 87217 32770 81404 10251 20206 39634 40113 57019 885// 333 56099 84650 84656
AAXX 12184 87222 NIL
AAXX 12184 87257 32965 71414 10262 20134 30028 40129 57023 86072 333 56065 86360 83070
AAXX 12184 87270 32965 21810 10302 20169 30046 40108 57017 80009 333 56005 82170
AAXX 12184 87289 32562 52318 10324 20164 30010 40091 57016 82106 333 56506 82820 85270
AAXX 12184 87311 32965 51610 10274 20075 39449 40108 57024 85070 333 56000 85360
AAXX 12184 87320 NIL
AAXX 12184 87328 11458 80908 10170 20155 39513 40162 58001 60381 76096 86620 333 56000 88510 86720 95060
AAXX 12183 87007 32580 40505 10198 20001 36720 47114 57020 84800 333 56100 81630 83835
AAXX 12183 87148 32970 82316 10258 20161 30001 40109 56012 8807/ 333 56079 88360
AAXX 12184 NIL
AAXX 12184 78397 111576 51905 10321 20233 30104 40120 60001 70522 84802 333 01909 10324 20242 58008 82822
AAXX 12184 82586 32598 40906 10350 20230 39853 40087 84200 333 58002
AAXX 12184 82678 32596 82306 10334 20215 39938 40075 85811 333 58019
AAXX 12184 82784 32598 80503 10312 20225 39625 40073 8314/ 333 58015
AAXX 12184 82791 32599 70503 10347 20196 39787 40062 87400 333 58013
AAXX 12184 82983 32597 81804 10314 20216 39662 40070 885// 333 58032
AAXX 12184 83096 32695 40905 10285 20235 30088 40095 84100 333 58012
AAXX 12184 83186 21597 80908 10250 20215 39561 40091 71555 87508 333 58063 69991
AAXX 12184 83236 NIL
AAXX 12184 83242 21496 83601 10236 20203 39612 40114 70262 887// 333 58057 60031
AAXX 12184 83288 32598 70000 10285 20223 39879 40066 85455 333 58001
AAXX 12184 83344 21498 80506 10209 20184 39144 40114 70252 886// 333 58031 69921
AAXX 12184 83437 NIL
AAXX 12184 83550 21497 8//// 10258 20229 30067 40096 70262 885// 333 58001 60041
AAXX 12184 83552 NIL
AAXX 12184 83565 NIL
AAXX 12184 83579 NIL
AAXX 12184 83592 NIL
AAXX 12184 83623 NIL
AAXX 12184 83630 NIL
AAXX 12184 83676 NIL
AAXX 12184 83698 32999 00000 10290 20202 30110 40124 56010
AAXX 12184 83702 NIL
AAXX 12184 83704 NIL
AAXX 12184 83716 NIL
AAXX 12184 83726 NIL
AAXX 12184 83738 32698 10904 10300 20175 39590 40081 57009 81200
AAXX 12184 82143 NIL
AAXX 12184 82599 32570 51112 10297 20228 30031 40091 85200 333 59009
AAXX 12184 82824 21450 60000 10297 20253 39974 40074 71511 86430 333 59000 69931
AAXX 12184 82899 32570 40510 1//// 2//// 30092 40104 84200 333 59026
AAXX 12184 83117 NIL
AAXX 12184 83248 21460 82007 10264 20231 30093 40115 71062 8522/ 333 59047 69921
AAXX 12184 83746 31565 11413 10282 20188 40093 57017 70500 81200
AAXX 12184 83384 NIL
AAXX 12184 83386 NIL
AAXX 12184 83388 NIL
AAXX 12184 83393 NIL
AAXX 12184 83442 NIL
AAXX 12184 83479 NIL
AAXX 12184 83483 NIL
AAXX 12184 83531 NIL
AAXX 12184 83538 NIL
AAXX 12184 83574 NIL
AAXX 12184 83582 NIL
AAXX 12184 83595 NIL
AAXX 12184 83687 NIL
AAXX 12184 83692 NIL
AAXX 12184 83695 32697 81404 10278 20201 39977 40113 54000 8655/
AAXX 12184 83718 NIL
AAXX 12184 NIL
AAXX 12184 82022 32570 51108 10336 20198 39986 40081 85100 333 59008
AAXX 12184 82193 32570 63412 10302 20248 30059 40077 86200 333 59004
AAXX 12184 82281 32570 30417 10320 20179 30019 40080 83200 333 59002
AAXX 12184 82332 32570 52503 10310 20242 39981 40073 84201 333 59008
AAXX 12184 82398 32570 50810 10289 20213 30061 40090 85200 333 58003
AAXX 12184 82400 32470 31208 10277 20231 30037 40101 83100 333 58013
AAXX 12184 82579 32570 60000 10358 20197 39992 40068 82101 333 58011
AAXX 12184 82917 32570 63608 10334 20257 39852 40069 85230 333 59006
AAXX 12184 82965 32570 53006 10300 20226 39753 40078 83131 333 58007
AAXX 12184 82993 32570 30814 10300 20218 39963 40098 83100 333 59032
AAXX 12184 83208 21470 73206 10249 20218 39398 48510 70162 82520 333 58008 60011
AAXX 12184 83349 31470 70402 10260 20226 30116 40122 71522 87530 333 59030
AAXX 12184 83362 32570 63509 10335 20204 39841 40052 86200 333 58005
AAXX 12184 83378 32670 50705 10269 20176 38920 48480 85200 333 58000
AAXX 12184 83460 21470 60206 10247 20219 30057 40114 72162 84830 333 58018 69961
AAXX 12184 83497 NIL
AAXX 12184 83566 32970 52203 10258 20146 39169 48490 84130 333 58007
AAXX 12184 83599 NIL
AAXX 12184 83612 32970 62303 10309 20192 39441 48490 58021 85250
AAXX 12184 83649 21458 80704 10244 20218 30113 40118 57012 75152 865 1/ 333 69931
AAXX 12184 83650 NIL
AAXX 12184 83780 32970 32006 10284 20132 39199 48500 50018 83100
AAXX 12184 83827 32570 52804 10343 20175 39797 40068 58024 85200
AAXX 12184 83840 32970 62010 10263 20152 39082 48490 56013 86200
AAXX 12184 83899 32570 23616 10279 20211 30061 40067 51014 82100
AAXX 12184 83925 NIL
AAXX 12184 83970 NIL
AAXX 12184 83971 32970 22407 10315 20166 30064 40068 57015 82100
AAXX 12184 NIL
AAXX 12184 NIL
AAXX 12184 NIL
AAXX 12184 78970 11470 71312 10321 20226 30076 40101 69911 71581 83972 333 06399 10337 20243 58007 81912 87078 90960
AAXX 12184 78962 11468 71211 10295 20231 30106 40114 69941 70582 82832 333 02299 10303 20234 58007 82818 86078 90960
AAXX 12181 22271 NIL
AAXX 12181 22520 32998 02503 11065 21085 30068 40078 52016 333 11029
AAXX 12181 22550 11472 83303 11009 21038 30075 40085 52026 69950 70282 884// 333 10007 88616
AAXX 12181 22583 31472 71602 11058 21073 30006 40089 54000 72272 875// 333 11047 87614
AAXX 12181 22768 11497 82003 11009 21028 30056 40113 53022 69940 72682 889// 333 11009 85917
AAXX 12181 22845 11696 82302 11017 21028 39976 40135 52022 69900 77172 8852/ 333 11004
AAXX 12181 22887 31597 71703 11065 21085 30059 40131 52016 78582 8695/ 333 11062 86926 91107
AAXX 12181 23205 NIL
AAXX 12181 23219 31998 82506 11072 21085 30034 40143 53001 73633 8802/ 333 11034
AAXX 12181 23418 12565 81604 11077 21117 30068 40144 53002 69900 85503 333 11065 85623
AAXX 12181 23606 11350 81604 11105 21133 39967 40147 53007 69930 77172 8572/ 333 11094 85708
AAXX 12181 23711 31997 81403 11099 21121 39996 40178 53004 77172 8802/ 333 11089
AAXX 12181 23804 11497 82102 11104 21124 30004 40160 52013 60030 77172 885// 333 11082 88617
AAXX 12181 27037 11598 82501 11018 21042 30002 40166 52022 60030 70272 885// 333 10003 88632
AAXX 12181 27199 11497 82101 11112 21132 39970 40178 52014 60040 77172 8472/ 333 11105 93404
AAXX 12181 27271 11596 71101 11076 21089 30002 40164 52014 69940 77172 87500 333 11080
AAXX 12181 27459 11497 82901 11008 21018 39979 40178 52022 69950 70282 866// 333 11012 86711
AAXX 12181 27730 /2697 82602 11004 21016 30028 40226 52015 69920 8653/ 333 10010 86640
AAXX 12184 03008 11565 22120 10053 20010 49824 69942 70181 82200 91750 333 10068 82820 90710 91131
AAXX 12184 NIL
AAXX 12181 30372 42999 10000 11341 21365 39354 40344 53006 81040
AAXX 12181 30433 42999 61702 11147 21190 39660 40288 52007 86040
AAXX 12181 30554 429// 00000 11348 21365 39143 40391 52006
AAXX 12181 30635 418// 81102 11130 21143 39689 40290 52016 77172 8801/
AAXX 12181 30673 42999 00000 11334 21339 39457 40331 52004
AAXX 12181 30692 42998 00502 11327 21345 39728 40290 52///
AAXX 12181 30758 41944 80000 11222 21248 39413 40310 52011 77177 8802/
AAXX 12181 30802 42799 30901 11228 21228 38746 48516 52020 83500
AAXX 12181 30823 41597 81902 11131 21151 39638 40308 52015 78582 85901
AAXX 12181 30879 42999 30000 11268 21287 39461 40302 52003 80001
AAXX 12181 30935 41999 80000 11125 21168 39318 40298 52015 70172 8807/
AAXX 12181 30949 41996 80000 11178 21190 39099 40261 53011 77271 8802/
AAXX 12181 30965 419// 70902 11190 21209 39382 40266 54000 77172 82046
AAXX 12181 31168 42999 83204 11200 21278 30057 40069 53007 80007
AAXX 12181 31300 41905 00000 11276 21287 39920 40243 52008 74840
AAXX 12181 31329 42999 20000 11350 21374 39506 40269 53005 80002
AAXX 12181 31369 42998 82706 11198 21231 39992 40083 53007 80007
AAXX 12181 31416 42999 00901 11304 21315 30033 40132 53005
AAXX 12181 31484 NIL
AAXX 12181 31512 429// 02801 11224 21264 30076 40259 52003
AAXX 12181 31538 42998 00401 11290 21307 39786 40271 52005
AAXX 12181 31707 42998 00000 11198 21247 30169 40269 52007
AAXX 12181 31735 42997 02513 11190 21270 30117 40213 51007 333 91016 91114
AAXX 12181 31770 42967 00000 11172 21252 30111 40143 52006
AAXX 12184 88897 46/// /2922 10132 20067 40062 52011
AAXX 12181 40716 12960 70000 10008 21056 38992 40316 51002 60001 80006 333 55055 87269
AAXX 12181 40719 12960 42402 10068 20054 30309 40298 52017 60001 82034 333 55072 82362 83070
AAXX 12181 40721 12960 01604 10074 21029 39734 40292 51006 60001 333 55071
AAXX 12181 40858 11950 00303 10148 20093 30197 40208 52007 60001 70600 333 55068
AAXX 12181 40872 11950 03206 10160 20061 30175 40180 52011 60001 70600 222// 00/// 20301 333 55084
AAXX 12181 40877 12960 43404 10128 21053 39633 40181 52010 60001 80006 333 55094 84270
AAXX 12181 40898 12965 30000 10204 20154 30147 40156 51012 60001 80001 222// 00248 10600 333 55098 2//// 83070
AAXX 12184 03896 16/// ///// 10096 60012 333 10108
AAXX 12184 82392 NIL
AAXX 12184 82583 NIL
AAXX 12184 82594 32697 40511 10306 20219 30071 40079 82110 333 59002
AAXX 12184 82683 NIL
AAXX 12184 82780 32598 33602 10337 20191 39842 40088 83100 333 58002
AAXX 12184 82789 NIL
AAXX 12184 82795 32597 41407 10293 20191 39496 40105 84200 333 58019
AAXX 12184 82879 21598 53603 10288 20225 39819 40085 70151 85500 333 58037 60021
AAXX 12184 82893 32798 60910 10294 20188 39195 40080 86200 333 58008
AAXX 12184 82979 21498 70000 10247 20222 39661 40112 70396 87700 333 58063 60011
AAXX 12184 82986 32598 61403 10361 20207 39784 40062 83208 333 58030
AAXX 12184 83179 32598 80505 10261 20203 39632 40079 885// 333 58027
AAXX 12184 83192 32597 81806 10272 20219 39939 40102 8552/ 333 58059
AAXX 12184 83339 31497 51406 10229 20200 39127 40088 70242 83231 333 58032
AAXX 12184 83498 32595 80503 10251 20238 30115 40120 8562/ 333 58007
AAXX 12181 20107 11597 31104 11075 21130 39867 49963 58003 69902 70281 82530 333 11059 91005
AAXX 12181 22113 32484 82004 11040 21055 39960 40025 52016 886// 333 11036 88710 91005
AAXX 12181 22217 11483 73301 11073 21082 30019 40051 53012 69902 70182 87900 333 11070 86644 91002
AAXX 12181 22235 12466 62801 11106 21112 39848 40050 52020 69902 86600 333 11082 86710 91002
AAXX 12181 22349 12598 62902 11073 21090 30045 40057 52023 69932 86500 333 10012 91003
AAXX 12181 22408 32584 32001 11107 21113 39928 40085 52010 82501 333 11051
AAXX 12181 22602 11476 51402 11080 21086 39865 40098 52008 69952 70272 83530 333 11021
AAXX 12181 22619 12582 52101 11056 21067 39941 40107 52013 69922 85500 333 11010
AAXX 12181 22721 11598 10000 11058 21062 30012 40116 52017 69932 70181 81500 333 11009
AAXX 12181 22802 11950 81302 11009 21025 30084 40107 58007 69922 77172 8807/ 333 11009
AAXX 12181 22820 12984 83001 11037 21062 39984 40126 52011 60012 8803/ 333 11011
AAXX 12181 26059 11597 81703 10013 21013 30091 40116 58006 69942 70282 885// 333 10026 88620
AAXX 12181 26063 32397 82103 10027 20003 30110 40118 50003 886// 333 10028 88708
AAXX 12181 26094 11466 82102 10003 21005 30069 40146 52004 69902 72272 886// 333 10003 88710
AAXX 12181 26157 32997 81706 10003 21017 30067 40118 57011 80001 333 10025 91111
AAXX 12181 26167 32968 81804 10004 21023 30030 40144 58002 8802/ 333 10020 91112
AAXX 12181 26258 42998 41804 11005 21026 30089 40145 58009 80001 333 10033
AAXX 12181 26298 11496 72103 10003 21005 39945 40179 52002 69962 71082 87600 333 10006
AAXX 12181 26359 32999 81603 11009 21030 30027 40164 58010 8801/ 333 10033
AAXX 12181 26702 41996 61802 10017 21011 30051 40078 57010 71011 86030 333 10024 91004 91106
AAXX 12181 26781 12397 82003 11012 21022 39922 40223 52003 69942 8802/ 333 10018 88508
AAXX 12181 27208 11496 82002 11003 21012 30006 40185 51009 60012 71082 886// 333 10010
AAXX 12181 27402 32597 71901 10002 21025 30018 40201 52011 87500 333 10019 87620
AAXX 12181 28676 329// 00401 11226 21248 30199 40340 52002 333 11188
AAXX 12181 28766 319// 50902 11208 21229 30113 40321 52001 71011 80001 333 11206
AAXX 12181 28867 32998 02302 11243 21261 30020 40320 52001 333 1////
AAXX 12181 28879 129// 01001 11238 21255 30016 40335 52003 69900 333 11173
AAXX 12181 28952 329// 81401 11232 21250 30100 40312 58002 8801/ 333 11188
AAXX 12181 28966 329// 01603 11236 21265 30019 40333 52014 333 11177
AAXX 12181 29802 329// 83402 11220 21238 30172 40329 58003 80001 333 11190
AAXX 12181 29807 329// 60000 11207 21230 30190 40319 58005 80001 333 11197
AAXX 12181 34691 12998 62701 10002 21046 30276 40263 52006 69900 86030 333 10026
AAXX 12181 35067 329// 00000 11237 21266 30022 40328 52004 333 11180
AAXX 12181 35078 329// 00502 11281 21302 39922 40350 52006 333 11201
AAXX 12181 35085 329// 00000 11266 21286 39817 40350 52002 333 11181
AAXX 12181 35108 115// 83303 11037 21066 30154 40201 52016 60020 70272 885// 333 11034
AAXX 12181 35188 119// 00000 11221 21243 39862 40340 52005 69900 70400 333 11155
AAXX 12181 35217 114// 82406 11036 21047 30174 40214 52007 60010 70232 8802/ 333 11028
AAXX 12181 35229 114// 81602 11121 21135 39968 40256 57005 69970 77172 8802/ 333 11122
AAXX 12181 35302 115// 83204 11014 21066 30201 40220 52011 60020 70232 885// 333 11007
AAXX 12181 35357 329// 51402 11271 21294 39850 40338 52009 80001 333 11172
AAXX 12181 35394 12998 40000 11238 21263 39598 40345 52010 69900 80001 333 11170
AAXX 12181 35406 125// 82503 11021 21061 30244 40246 52010 60010 885// 333 11020
AAXX 12181 35416 114// 82005 11048 21065 30120 40244 58001 69990 71075 886// 333 11064 93401
AAXX 12181 35426 114// 81705 11126 21142 39965 40273 52001 69920 77172 8872/ 333 11130
AAXX 12181 35497 129// 00201 11271 21292 39469 40361 52013 69930 333 11129
AAXX 12181 35532 31496 80000 11122 21157 39768 40236 52013 77077 8802/ 333 11106
AAXX 12181 35671 32998 00000 11264 21286 39869 40350 52011 333 11182
AAXX 12181 35700 12998 02803 11040 21062 30307 40283 52014 60010 333 10004
AAXX 12181 35746 314// 81602 11119 21146 30226 40297 52001 77172 8802/ 333 11120
AAXX 12181 35796 11997 20402 11221 21245 39866 40344 52013 69920 70271 82030 333 11087
AAXX 12181 35849 12597 82501 11079 21093 30206 40296 58007 77772 885// 333 11075
AAXX 12181 35925 NIL
AAXX 12181 35953 319// 81903 11065 21085 30180 40315 52004 77122 8802/ 333 11048
AAXX 12181 35969 125// 82004 11060 21091 30158 40338 52009 69900 70272 8802/ 333 11068
AAXX 12181 36003 32998 83403 11185 21201 30134 40297 58009 87051 333 11161
AAXX 12181 36152 NIL
AAXX 12181 36177 NIL
AAXX 12181 36208 NIL
AAXX 12181 36397 NIL
AAXX 12181 36428 NIL
AAXX 12181 36535 NIL
AAXX 12181 36639 NIL
AAXX 12181 36821 315// 70000 11065 21073 39822 40329 52019 71022 87900 333 11049
AAXX 12181 36859 329// 50701 11034 21055 39518 40318 52021 82041 333 10009
AAXX 12181 36864 NIL
AAXX 12181 36870 314// 80000 10008 21003 39294 40316 52026 78682 889// 333 10087
AAXX 12181 38001 NIL
AAXX 12181 38062 115// 82003 11050 21074 30161 40330 52012 69900 77772 886// 333 11053
AAXX 12181 38069 325// 71701 11051 21072 30144 40344 52013 87500 333 11044
AAXX 12181 38196 NIL
AAXX 12181 38198 NIL
AAXX 12181 38222 31497 82302 11012 21034 39760 40332 52021 77172 8872/ 333 10008
AAXX 12181 38232 NIL
AAXX 12181 38328 NIL
AAXX 12181 38334 NIL
AAXX 12181 38341 32997 82205 11004 21034 39525 40327 52013 8802/ 333 10020
AAXX 12181 38343 32697 70000 11012 21035 39467 40329 52017 87500 333 10043
AAXX 12181 38439 NIL
AAXX 12181 22028 32581 32607 11033 21047 39974 40013 52015 82930 333 11031 91009 91110
AAXX 12181 22106 12498 72401 11049 21059 39950 40031 52012 69932 87600 333 11046 86712 91002
AAXX 12181 22127 11496 80000 11095 21107 39829 40037 52016 69902 78582 889// 333 11095 85913 91001
AAXX 12181 22324 11584 72702 11043 21049 30005 40056 52017 69902 70282 86531 333 11039 91004
AAXX 12181 22621 11498 72502 11039 21061 39960 40103 52016 69922 70282 87900 333 11017 84918
AAXX 12181 22831 11997 72401 11018 21029 30064 40125 52019 69902 70282 87030 333 10000
AAXX 12181 22892 11497 82107 10022 20009 30078 40094 57002 60022 78082 889// 333 10024 88919 91112 93401
AAXX 12181 26275 32498 82004 10019 21006 30128 40158 58001 885// 333 10029 88617
AAXX 12181 26389 31496 62102 10005 21003 39916 40184 54000 71022 86600 333 10008
AAXX 12181 26499 32497 82002 11026 21033 39971 40207 52004 886// 333 10021 88711
AAXX 12181 26695 31496 82305 10002 21012 39919 40233 52012 71011 886// 333 10018 88710
AAXX 12181 26882 32484 72204 11009 21025 39952 40235 54000 87500 333 10012 87615
AAXX 12184 78397 111576 51905 10321 20233 30104 40120 60001 70522 84802 333 01909 10324 20242 58008 82822
BBXX WXJ63 12183 99611 71464 41/96 80602 10018 20009 49885 5//// 761// 8//// 222// 00056 2//// 3//// 4//// 5//// 6//// 8//// ICE /////
BBXX WFLG 12184 99291 71376 41498 80621 10167 20108 40261 52003 70222 878/1 22213 00178 20406 305// 40509 5//// 6//// 80133 ICE /////
BBXX C6XC6 12184 99315 70254 41698 40612 10215 2//// 40280 54000 7//11 83880 22264 0//// 2//// 334// 41203 5//// 6//// 8//// ICE /////
BBXX VRWV4 12183 99005 10077 41498 61420 10270 2024/ 40140 54/// 70311 86/1/ 22233 00300 20201 3//// 4//// 5//// 6//// 80250 ICE /////
BBXX NWS0020 12184 99360 10231 43/// /2217 10175 20124 40232 5//// 7//// 8//// 222// 04193 2//// 3//// 4//// 5//// 6//// 8//// ICE /////
BBXX C6VG7 12184 99258 70779 415// 40725 10250 2//// 40190 5/010 7//11 84/6/ 22200 0//// 20402 3//// 40402 50402 6//// 8//// ICE /////
BBXX CFK 12184 99448 70829 41/97 72316 10003 2//// 41021 56010 70302 8//// 22253 0//// 20102 3//// 4//// 5//// 6//// 8//// ICE /////
BBXX WDF7020 12184 99444 70827 41/97 82218 1//// 2//// 40284 54/// 70202 88/2/ 22243 0//// 20302 3//// 4//// 5//// 6//// 8//// ICE /////
BBXX WFLH 12183 99277 71370 43498 70317 10189 20065 40259 54/// 7//// 878// 22254 00189 20702 332// 41204 5//// 6//// 80122 ICE /////
BBXX A8TG2 12183 99226 71109 41698 52410 10210 20160 40140 54000 70222 83462 22234 20204 325// 40204 5//// 80180
BBXX WBN7618 12184 99304 70811 41/// /0223 10172 2//// 40280 5//// 7//// 8//// 22252 0//// 20505 30505 40504 50404 6//// 8//// ICE /////
BBXX ONFP 12184 99379 30250 43596 42113 10230 2019/ 40080 55010 70111 84182 22223 04184 20704 30808 40806 50806 6//// 80200 ICE /////
BBXX WKAB 12183 99405 70685 41398 51509 10085 20055 40347 57020 7//22 85498 22225 00111 21002 314// 41002 5//// 6//// 80070 ICE /////
AAXX 12181 26997 31950 02101 11027 21037 30034 40262 52006 71011 333 10011
AAXX 12181 27595 11/97 81801 11107 21105 30022 40178 52009 60070 77172 8002/ 333 11108
AAXX 12181 27612 115// 42701 10007 21022 30023 40219 52016 69902 71011 84500 333 10022
AAXX 12181 27707 31558 72502 11002 21014 39941 40241 52008 71022 87500 333 10009 87625
AAXX 12181 27719 11997 62401 11010 21016 39988 40246 52015 69942 70282 86030 333 10015
AAXX 12181 27786 11597 81703 11082 21092 30014 40182 52009 60030 70272 885// 333 11092 88625
AAXX 12181 27857 11997 82904 10006 21005 30053 40219 52020 69900 70272 8802/ 333 10006
AAXX 12181 27906 32597 82303 10006 21011 30008 40255 52006 883// 333 10012
AAXX 12181 27928 12997 02702 11003 21024 30042 40254 52009 69900 333 10012
AAXX 12181 27947 11697 42604 11016 21040 30074 40238 52020 69900 70281 84500 333 10009
AAXX 12181 27962 11497 82904 10001 21016 40197 52019 60030 76887 885// 333 11005 88610
AAXX 12181 27983 11569 72501 11047 21060 30051 40184 51007 60030 70272 875// 333 11070 87620
AAXX 12181 27995 11472 82302 11075 21088 40187 52009 60040 70272 8802/ 333 11066
AAXX 12181 28506 11996 80000 11109 21122 30057 40176 52003 60030 77172 8802/ 333 11101
AAXX 12181 28704 11997 80901 11111 21124 30078 40180 52010 60030 77172 8802/ 333 11103
AAXX 12181 28711 11497 81603 11124 21144 39789 40185 52001 77172 885// 333 11126 88613
AAXX 12181 28807 11395 80000 11082 21096 30128 40182 52013 60070 77172 8872/ 333 11080 88707
AAXX 12181 34009 32997 02702 11025 21041 39954 40270 52007 333 10006
AAXX 12181 34110 32897 22904 11024 21040 39990 40278 52008 82030 333 10004
AAXX 12181 34123 32497 82603 10007 21013 30081 40271 52017 885// 333 10013 88619
AAXX 12181 34152 11570 72704 10004 21013 30041 40242 52010 69900 70282 889// 333 10004
AAXX 12181 34163 11496 82507 11003 21012 40217 52009 69900 78588 889// 333 11008 88919
AAXX 12181 34171 11460 82707 10008 21018 30014 40208 53004 69920 77183 8872/ 333 10000 88516
AAXX 12181 34186 11450 82704 11012 21022 30068 40208 52011 69900 77172 887// 333 11001 88714
AAXX 12181 34247 32867 82804 10008 21021 30162 40278 52014 8807/ 333 10024
AAXX 12181 34336 32998 22602 11004 21025 30181 40288 52008 82030 333 10029
AAXX 12181 34391 32997 62705 11019 21037 30200 40232 52008 86070 333 10007
AAXX 12181 35011 11456 81403 11085 21108 40178 57005 60030 77173 8802/ 333 11093 88516
AAXX 12181 35121 11496 81402 11090 21105 30056 40209 57011 60040 77173 8872/ 333 11110 88711
AAXX 12184 41858 NIL
AAXX 12184 41863 32950 30000 10145 20130 30113 40159 83030 333 56990 59003 70000 83362
AAXX 12184 41886 31430 30000 10175 20160 30127 40148 70541 83500 333 56900 59009 70000 83618
AAXX 12184 41895 31950 02701 10160 20150 30141 40164 70520 333 58016 70000
AAXX 12184 41909 NIL
AAXX 12184 41915 31930 40000 10129 20120 30131 40157 71044 82530 333 56990 59006 70000 82618 83362
AAXX 12184 41926 NIL
AAXX 12184 41929 NIL
AAXX 12184 41933 31435 40000 10174 20160 30141 40150 70520 82530 333 56990 59004 70000 82615 83362
AAXX 12184 41939 31950 00000 10167 20160 40157 70544 333 59003 70000
AAXX 12184 41941 31940 00000 10182 20160 30146 40132 70500 333 58005 70000
AAXX 12184 41946 31940 10000 10180 20160 30150 40155 70520 81030 333 56090 58010 70000 81360
AAXX 12184 41947 NIL
AAXX 12184 41951 NIL
AAXX 12184 41953 NIL
AAXX 12184 41958 31930 00000 10185 20180 30154 40157 70500 333 58014 70000
AAXX 12184 41960 31940 00000 10173 20170 30156 40158 70500 333 58004 70000
AAXX 12184 41963 31920 00000 10171 20160 30144 40147 70500 333 58003 70000
AAXX 12184 41964 NIL
AAXX 12184 41965 NIL
AAXX 12184 41966 NIL
AAXX 12184 41984 31940 00000 10187 20160 30136 40138 333 59002 70000
AAXX 12184 41989 NIL
AAXX 12184 41998 NIL
AAXX 12181 28676 329// 00401 11226 21248 30199 40340 52002 333 11188
AAXX 12181 28766 319// 50902 11208 21229 30113 40321 52001 71011 80001 333 11206
AAXX 12181 28867 32998 02302 11243 21261 30020 40320 52001 333 1////
AAXX 12181 28879 129// 01001 11238 21255 30016 40335 52003 69900 333 11173
AAXX 12181 28952 329// 81401 11232 21250 30100 40312 58002 8801/ 333 11188
AAXX 12181 28966 329// 01603 11236 21265 30019 40333 52014 333 11177
AAXX 12181 29802 329// 83402 11220 21238 30172 40329 58003 80001 333 11190
AAXX 12181 29807 329// 60000 11207 21230 30190 40319 58005 80001 333 11197
AAXX 12181 34691 12998 62701 10002 21046 30276 40263 52006 69900 86030 333 10026
AAXX 12181 35067 329// 00000 11237 21266 30022 40328 52004 333 11180
AAXX 12181 35078 329// 00502 11281 21302 39922 40350 52006 333 11201
AAXX 12181 35085 329// 00000 11266 21286 39817 40350 52002 333 11181
AAXX 12181 35108 115// 83303 11037 21066 30154 40201 52016 60020 70272 885// 333 11034
AAXX 12181 35188 119// 00000 11221 21243 39862 40340 52005 69900 70400 333 11155
AAXX 12181 35217 114// 82406 11036 21047 30174 40214 52007 60010 70232 8802/ 333 11028
AAXX 12181 35229 114// 81602 11121 21135 39968 40256 57005 69970 77172 8802/ 333 11122
AAXX 12181 35302 115// 83204 11014 21066 30201 40220 52011 60020 70232 885// 333 11007
AAXX 12181 35357 329// 51402 11271 21294 39850 40338 52009 80001 333 11172
AAXX 12181 35394 12998 40000 11238 21263 39598 40345 52010 69900 80001 333 11170
AAXX 12181 35406 125// 82503 11021 21061 30244 40246 52010 60010 885// 333 11020
AAXX 12181 35416 114// 82005 11048 21065 30120 40244 58001 69990 71075 886// 333 11064 93401
AAXX 12181 35426 114// 81705 11126 21142 39965 40273 52001 69920 77172 8872/ 333 11130
AAXX 12181 35497 129// 00201 11271 21292 39469 40361 52013 69930 333 11129
AAXX 12181 35532 31496 80000 11122 21157 39768 40236 52013 77077 8802/ 333 11106
AAXX 12181 35671 32998 00000 11264 21286 39869 40350 52011 333 11182
AAXX 12181 35700 12998 02803 11040 21062 30307 40283 52014 60010 333 10004
AAXX 12181 35746 314// 81602 11119 21146 30226 40297 52001 77172 8802/ 333 11120
AAXX 12181 35796 11997 20402 11221 21245 39866 40344 52013 69920 70271 82030 333 11087
AAXX 12181 35849 12597 82501 11079 21093 30206 40296 58007 77772 885// 333 11075
AAXX 12181 35925 NIL
AAXX 12181 35953 319// 81903 11065 21085 30180 40315 52004 77122 8802/ 333 11048
AAXX 12181 35969 125// 82004 11060 21091 30158 40338 52009 69900 70272 8802/ 333 11068
AAXX 12181 36003 32998 83403 11185 21201 30134 40297 58009 87051 333 11161
AAXX 12181 36152 NIL
AAXX 12181 36177 NIL
AAXX 12181 36208 NIL
AAXX 12181 36397 NIL
AAXX 12181 36428 NIL
AAXX 12181 36535 NIL
AAXX 12181 36639 NIL
AAXX 12181 36821 315// 70000 11065 21073 39822 40329 52019 71022 87900 333 11049
AAXX 12181 36859 329// 50701 11034 21055 39518 40318 52021 82041 333 10009
AAXX 12181 36864 NIL
AAXX 12181 36870 314// 80000 10008 21003 39294 40316 52026 78682 889// 333 10087
AAXX 12181 38001 NIL
AAXX 12181 38062 115// 82003 11050 21074 30161 40330 52012 69900 77772 886// 333 11053
AAXX 12181 38069 325// 71701 11051 21072 30144 40344 52013 87500 333 11044
AAXX 12181 38196 NIL
AAXX 12181 38198 NIL
AAXX 12181 38222 31497 82302 11012 21034 39760 40332 52021 77172 8872/ 333 10008
AAXX 12181 38232 NIL
AAXX 12181 38328 NIL
AAXX 12181 38334 NIL
AAXX 12181 38341 32997 82205 11004 21034 39525 40327 52013 8802/ 333 10020
AAXX 12181 38343 32697 70000 11012 21035 39467 40329 52017 87500 333 10043
AAXX 12181 38439 NIL
AAXX 12181 38598 426// 72507 10017 21011 43066 52012 85531
AAXX 12181 38599 NIL
AAXX 12181 38725 NIL
AAXX 12181 38734 NIL
AAXX 12181 38744 416// 50000 11083 21097 48602 51002 77072
AAXX 12181 38836 NIL
AAXX 12181 38838 NIL
AAXX 12181 38844 416// 60000 11031 21070 48550 57007 70284 82502
AAXX 12181 38846 NIL
AAXX 12181 38847 NIL
AAXX 12181 38932 NIL
AAXX 12181 38933 119// 62701 10015 21010 39851 40386 54000 60020 71022 80002 333 10025
AAXX 12181 38944 NIL
AAXX 12181 38954 NIL
BBXX 44067 12181 99384 70770 46/// /0702 10058 40342 58016 91800
BBXX 41029 12181 99328 70796 46/// /0307 1//// 91800 555 11092 22112
BBXX 44032 12181 99437 70694 46/30 /2209 10076 40293 56020 91804 22200 00089 10503 70015 333 91210 555 11113 22120
BBXX 46069 12181 99337 71202 46/// /3403 10121 40086 52006 91750 22200 00131 11403 329// 41403 70016 333 91204 555 11031 22032 31703 43006 61749 339030 346034 344042 316042 309040 303027
AAXX 12184 70133 32766 80703 11072 21089 39899 49903 51018 91753 333 11033 21078 555 91218
AAXX 12184 70174 11658 82903 11056 21061 39633 49877 51027 60021 771// 91753 333 11050 21072 4/069 96010 555 91218
AAXX 12184 70200 12266 82308 11028 21033 39913 49920 53030 69981 91753 333 11028 21039 555 91218
AAXX 12184 70219 32566 61911 11061 21072 39945 40002 51024 91753 333 11017 21083 555 91218
AAXX 12184 70231 32566 81604 11039 21056 39837 49966 53041 91753 333 11017 21061 4/097 555 91218
AAXX 12184 70261 11459 82308 11022 21044 39717 49888 51043 69981 771// 91753 333 10000 21072 91015 96010 555 91218
AAXX 12184 70267 11532 80000 11056 21061 39433 49916 51029 60021 771// 91753 333 11056 21067 96010 555 91218
AAXX 12184 70271 32666 81719 10011 21050 39302 49878 53025 91753 333 10017 21010 4/003 91030 555 91218
AAXX 12184 70273 11332 81812 10000 21011 39872 49929 51056 60081 771// 91753 333 10011 21021 91018 96010 555 91218
AAXX 12184 70316 12666 22314 10006 21011 30046 40082 51021 69901 91753 333 10017 555 91218
AAXX 12184 70326 32762 61803 11044 21050 30011 40026 53027 91754 333 10000 21056 4/025 555 91218
AAXX 12184 70340 32766 82507 11033 21050 39955 40016 51033 91753 333 10006 21039 4/015 555 91218
AAXX 12184 70350 12766 22517 10028 21061 39979 40021 53024 69901 91753 333 10044 20017 91025 555 91218
AAXX 12184 70361 12566 82108 10028 20006 39999 40012 53010 69931 91753 333 10050 20000 555 91218
AAXX 12184 70381 12466 80707 10017 20006 30058 40067 52003 60021 91753 333 10028 20006 555 91218
AAXX 12184 70414 35566 63219 10000 21044 39802 49838 55004 91756 333 10028 21017 91022 555 91218
AAXX 12184 43400 NIL
AAXX 12184 43404 NIL
AAXX 12184 43410 NIL
AAXX 12184 43413 NIL
AAXX 12184 43415 NIL
AAXX 12184 43418 21460 81106 10246 20245 3//// 4//// 79598 8692/ 333 5//// 60367 85817 83918 88460
AAXX 12184 43421 21460 83602 10246 20240 30009 40111 78088 879// 333 59006 60207 87818 82920
AAXX 12184 43422 NIL
AAXX 12184 43424 21468 80501 10252 20246 30102 40105 78098 8772/ 333 58001 60017 82710 85815 87458
AAXX 12184 43436 21470 80000 10260 20249 30096 40099 72582 8417/ 333 59007 60057 84817 88458
AAXX 12184 43441 NIL
AAXX 12184 43444 21470 60000 10228 20222 39579 40105 72582 84966 333 58000 60057 84818 81920 85280
AAXX 12184 43467 21462 70000 10240 20234 30105 40110 70298 8322/ 333 58004 60027 83816 86460
AAXX 12184 43473 22470 40902 10154 20146 38123 48499 84200 333 59001 60007 84810
AAXX 12184 43475 NIL
AAXX 12184 43476 NIL
AAXX 12184 43479 NIL
AAXX 12184 43486 21450 70000 10228 20222 30006 40100 70282 83110 333 59002 69927 83814 86460
AAXX 12184 43495 21960 6//// 10250 20239 30094 40110 70398 86030 333 58002 60017 86360
AAXX 12184 43497 22472 53406 10250 20238 30082 40100 83231 333 58010 60007 83818
BBXX DQVI 12183 99373 10114 41698 32925 10175 20143 40200 54000 70300 83/// 22273 00194 20708 80155
AAXX 12184 43400 NIL
AAXX 12184 43404 NIL
AAXX 12184 43410 NIL
AAXX 12184 43413 NIL
AAXX 12184 43415 NIL
AAXX 12184 43418 21460 81106 10246 20245 3//// 4//// 79598 8692/ 333 5//// 60367 85817 83918 88460
AAXX 12184 43421 21460 83602 10246 20240 30009 40111 78088 879// 333 59006 60207 87818 82920
AAXX 12184 43422 NIL
AAXX 12184 43424 21468 80501 10252 20246 30102 40105 78098 8772/ 333 58001 60017 82710 85815 87458
AAXX 12184 43436 21470 80000 10260 20249 30096 40099 72582 8417/ 333 59007 60057 84817 88458
AAXX 12184 43441 NIL
AAXX 12184 43444 21470 60000 10228 20222 39579 40105 72582 84966 333 58000 60057 84818 81920 85280
AAXX 12184 43467 21462 70000 10240 20234 30105 40110 70298 8322/ 333 58004 60027 83816 86460
AAXX 12184 43473 22470 40902 10154 20146 38123 48499 84200 333 59001 60007 84810
AAXX 12184 43475 NIL
AAXX 12184 43476 NIL
AAXX 12184 43479 NIL
AAXX 12184 43486 21450 70000 10228 20222 30006 40100 70282 83110 333 59002 69927 83814 86460
AAXX 12184 43495 21960 6//// 10250 20239 30094 40110 70398 86030 333 58002 60017 86360
AAXX 12184 43497 22472 53406 10250 20238 30082 40100 83231 333 58010 60007 83818
AAXX 12181 45032 36/// /1801 10074 20057 30184 40201 57001
AAXX 12181 45035 36/// /0503 10130 20011 30158 40200 57001
AAXX 12181 45039 36/// /0000 10113 20068 30182 40198 54000
AAXX 12181 45044 36/// /0004 10136 20046 30098 40193 54000
AAXX 12181 45032 36/// /1801 10074 20057 30184 40201 57001
AAXX 12181 45035 36/// /0503 10130 20011 30158 40200 57001
AAXX 12181 45039 36/// /0000 10113 20068 30182 40198 54000
AAXX 12181 45044 36/// /0004 10136 20046 30098 40193 54000
BBXX 46207 12181 99509 71299 46/// /1909 10069 40212 57018 22200 00085 10903 70013 333 91211
AAXX 12184 78526 32666 20107 10278 20211 30102 40124 58020 91756 333 10283 20244 555 91218
AAXX 12184 78543 32566 20000 10289 20206 30041 40122 58019 91753 333 10294 20244 555 91218
AAXX 12181 08521 32470 20103 10186 20121 30210 40281 53001 82200 333 10215 82816
AAXX 12181 08524 32475 23602 10173 20143 30186 40284 54000 82800 333 10199 81815 91105
BBXX 46207 12181 99509 71299 46/// /1909 10069 40212 57018 22200 00085 10903 70013 333 91211
AAXX 12184 60360 12565 62709 10143 20103 40230 52007 60002 86800 333 10191 82830 85840 95990
AAXX 12184 60390 11570 31904 10131 20099 40266 53011 69942 70162 82830 333 10174 82820 95990
AAXX 12184 60402 12560 62606 10153 20095 40245 53012 60002 85830 333 10185 83820 83640 95990
AAXX 12184 60419 12565 53106 10104 20039 40253 51006 60002 84532 333 10146 84630 95990
AAXX 12184 60475 12665 63208 10110 20070 39275 48527 51002 60002 86200 333 10154 86840 95990
AAXX 12184 60490 12570 62604 10136 20112 40265 53005 60002 86202 333 10178 86820 84073 95990
AAXX 12184 60525 42960 23118 10170 20055 40216 52006 60002 80002 333 10195 82073 95900
AAXX 12184 60531 12570 20000 10120 20090 40278 53010 60002 81202 333 10175 81826 95990
AAXX 12184 60566 12960 33508 10145 20034 40263 53009 60002 80002 333 10190 83073
AAXX 12184 60571 12962 20000 10154 20023 39323 48570 53002 60002 80002 333 10197 82073 95990
AAXX 12184 60580 12960 20000 10150 20092 40241 53006 60002 80002 333 10206 82073
AAXX 12184 60590 12960 22908 10148 20047 40261 53010 60002 80002 333 10204 82073
AAXX 12184 60611 12860 61104 10151 21006 40221 53006 60002 82031 333 10204 82358 86073
AAXX 12184 60620 12660 63610 10190 21048 40237 53005 60002 82232 333 10236 82846 83365
AAXX 12184 60630 12970 60607 10200 21012 40228 53009 60002 82032 333 10246 82362 85075
AAXX 12184 60656 12660 60406 10210 20014 40221 53002 60002 83282 333 10230 83846 84360
AAXX 12184 60670 12970 10000 10147 21064 39102 48533 53011 60002 80002 333 10233 81073 95990
AAXX 12184 60680 12970 33010 10164 21066 38675 48551 53006 60002 80002 333 10215 83073 95990
AAXX 12184 60351 11560 82614 10160 20096 40227 51005 69922 72162 888// 333 0//11 10223 84820 86633 95990
AAXX 12184 60355 12660 52504 10157 20084 40228 58012 60002 84202 333 0//00 10190 84833 82073 95990
AAXX 12184 60445 12560 72806 10073 20047 39076 48545 53006 60002 85232 333 10107 85826 95990
AAXX 12184 60468 12560 63106 10100 20029 39282 48537 53009 60002 86200 333 10140 86826 95990
AAXX 12184 60507 12560 62606 10118 20099 40272 52006 60002 85230 333 10148 85830 95990
AAXX 12184 60511 12560 52908 10075 20063 39135 48564 51016 60002 85200 333 10112 85820 95990
AAXX 12184 60535 12565 73616 10060 20038 38890 48550 54000 60002 878// 333 10090 83820 86626 95900
AAXX 12184 60536 12560 70000 10110 20076 39388 48569 51006 60002 872// 333 10123 87833 95990
AAXX 12184 60549 11760 10000 10099 20056 38984 48578 58003 60002 70200 81100 333 10125 81833 95990
AAXX 12184 60550 12560 30000 10064 20031 38736 48571 53004 60002 83500 333 10086 83626 95990
AAXX 12184 60555 12970 20000 10133 20052 40238 52004 60002 80002 333 10205 82073
AAXX 12184 60559 12960 10000 10143 20053 40231 51007 60002 80001 333 10206 81073
AAXX 12184 60581 12960 20204 10156 20054 40239 53006 60002 80002 333 10192 82073
AAXX 12184 60602 12960 40000 10166 20049 40253 53002 60002 81032 333 10216 81360 84073 95990
AAXX 12184 60607 12960 50208 10170 21038 40242 53007 60002 82034 333 10205 82362 84075
AAXX 12184 60640 12960 43204 10194 21023 40223 53009 60002 82032 333 10241 82360 83073
AAXX 12184 60690 NIL
AAXX 12181 48917 32598 60504 10247 20182 30098 40104 52012 83208 222// 00275 333 59002 83895 86299
AAXX 12181 48918 32498 72901 10232 20220 30100 40111 58014 8321/ 222// 00264 2//// 333 59010 82894 87499
AAXX 12181 48900 32497 23205 10220 20180 30093 40103 57012 82100 333 59007 82894
AAXX 12181 48914 32598 73401 10239 20210 30112 40114 57010 82208 333 59006 82895 87299
AAXX 12181 48919 32598 70512 10261 20235 30071 40093 58004 878// 22200 02271 333 59002 82895 86696
AAXX 12181 48916 32598 70201 10258 20206 30065 40112 57006 82208 333 59005 82895 87299
AAXX 12184 60351 11560 82614 10160 20096 40227 51005 69922 72162 888// 333 0//11 10223 84820 86633 95990
AAXX 12184 60355 12660 52504 10157 20084 40228 58012 60002 84202 333 0//00 10190 84833 82073 95990
AAXX 12184 60445 12560 72806 10073 20047 39076 48545 53006 60002 85232 333 10107 85826 95990
AAXX 12184 60468 12560 63106 10100 20029 39282 48537 53009 60002 86200 333 10140 86826 95990
AAXX 12184 60507 12560 62606 10118 20099 40272 52006 60002 85230 333 10148 85830 95990
AAXX 12184 60511 12560 52908 10075 20063 39135 48564 51016 60002 85200 333 10112 85820 95990
AAXX 12184 60535 12565 73616 10060 20038 38890 48550 54000 60002 878// 333 10090 83820 86626 95900
AAXX 12184 60536 12560 70000 10110 20076 39388 48569 51006 60002 872// 333 10123 87833 95990
AAXX 12184 60549 11760 10000 10099 20056 38984 48578 58003 60002 70200 81100 333 10125 81833 95990
AAXX 12184 60550 12560 30000 10064 20031 38736 48571 53004 60002 83500 333 10086 83626 95990
AAXX 12184 60555 12970 20000 10133 20052 40238 52004 60002 80002 333 10205 82073
AAXX 12184 60559 12960 10000 10143 20053 40231 51007 60002 80001 333 10206 81073
AAXX 12184 60581 12960 20204 10156 20054 40239 53006 60002 80002 333 10192 82073
AAXX 12184 60602 12960 40000 10166 20049 40253 53002 60002 81032 333 10216 81360 84073 95990
AAXX 12184 60607 12960 50208 10170 21038 40242 53007 60002 82034 333 10205 82362 84075
AAXX 12184 60640 12960 43204 10194 21023 40223 53009 60002 82032 333 10241 82360 83073
AAXX 12184 60690 NIL
AAXX 12183 64800 NIL
AAXX 12183 64820 NIL
AAXX 12183 64860 31920 70000 10252 20092 39844 40117 70522 80002 333 10304 58007 87080
AAXX 12183 64861 NIL
AAXX 12183 64870 31950 70000 10188 20068 38912 48501 80002 333 10286 58004 87080
AAXX 12183 64871 NIL
AAXX 12183 64892 NIL
AAXX 12183 64893 NIL
AAXX 12183 64894 NIL
AAXX 12184 64910 31418 72404 10277 20238 30092 40101 70522 83502 333 10325 58009 83620 87080
AAXX 12184 64911 NIL
AAXX 12184 64950 NIL
AAXX 12184 87344 11560 82506 10148 20108 39630 40179 58005 60031 76066 8372/ 333 56009 83720 88540
AAXX 12184 87349 11565 71802 10198 20124 39776 40168 55005 69911 70262 82570 333 56400 82621 85358
AAXX 12184 87371 32962 41611 10247 20090 30128 40148 58011 84080 333 56000 84360
AAXX 12184 87374 32965 31811 10260 20074 30053 40139 57007 83070 333 56060 83360
AAXX 12184 87395 32965 12314 10286 20089 30061 40105 57017 80002 333 56006 81070
AAXX 12184 87418 32765 61405 10260 20045 39345 40123 57021 82570 333 56460 82650 84360
AAXX 12184 87436 32970 73607 10258 20068 39337 40131 57013 87070 333 56070 87360
AAXX 12184 87448 32660 61412 12071 20084 39598 40152 57012 82850 333 56550 81635 81840 84360
AAXX 12184 87453 32565 33206 10258 20071 39666 40145 57016 81505 333 56403 81630
AAXX 12184 87467 32970 31813 10264 20080 30012 40144 57016 83070 333 56060 83360
AAXX 12184 87497 32965 01810 10250 20079 30106 40134 58007
AAXX 12184 87506 32670 10506 10227 20028 38590 48515 57016 81100 333 56500 81835 95000
AAXX 12184 87509 31960 00510 10260 20054 39300 40141 57023 70611 333 90056 90079 90085
AAXX 12184 87534 32960 00000 10263 20076 39996 40156 57013
AAXX 12184 87548 32960 12314 10268 20003 30042 40137 57016 81060 333 56050 81360
AAXX 12184 87576 32762 22017 10263 20070 30102 40126 57015 81102 333 56406 81850
AAXX 12184 87582 32560 22015 10250 20048 30121 40128 57011 81102 333 56607 81830
AAXX 12184 87585 32460 11812 10263 20094 30102 40131 57007 81604 333 56406 81715
AAXX 12183 87480 32965 21809 10269 20035 30109 40138 57011 80009 333 56000 82170
AAXX 12183 87532 32670 42305 10274 20096 39984 40152 57019 84100 333 56400 84845
AAXX 12184 43466 21470 70000 10240 20231 30095 40107 70398 871// 333 58004 60037 87818
AAXX 12181 22282 NIL
AAXX 12181 22438 NIL
AAXX 12181 22471 12984 72303 11008 21024 30030 40054 52016 69900 87030 333 11005
AAXX 12181 22563 NIL
AAXX 12181 22641 11499 82702 11011 21024 30076 40092 52020 60010 70282 886// 333 10014 88712 91106
AAXX 12181 22695 11397 81503 11083 21093 39961 40119 52007 69900 77172 8672/ 333 11054 87708
AAXX 12181 22867 12698 82301 11015 21029 30015 40130 52020 69900 8555/ 333 11014 85644 91105
AAXX 12181 22939 12697 62404 11023 21074 39993 40158 52018 69940 86500 333 11006 86640
AAXX 12181 22996 11998 81702 11109 21137 39971 40170 52017 60030 70272 8807/ 333 11092
AAXX 12181 23324 32982 72002 11060 21128 30069 40149 55000 85078 333 11044
AAXX 12181 27008 12698 82002 11010 21014 39988 40162 52008 69900 885// 333 10000
AAXX 12181 27051 12397 82502 11024 21036 39984 40154 52028 69920 70282 8655/ 333 11027 84909
AAXX 12181 27225 12464 82502 11001 21040 30046 40179 52013 60020 885// 333 10006 88619
AAXX 12181 27252 11496 82702 11012 21019 39969 40157 52021 69930 71072 885// 333 11025 88616
AAXX 12181 27333 11484 82804 11010 21036 30020 40179 52020 69930 70272 887// 333 10004
AAXX 12181 27369 11995 80000 11052 21059 30026 40168 52014 69930 77072 8801/ 333 11066
AAXX 12181 27393 11497 81501 11113 21133 30001 40178 52013 60030 77172 8672/ 333 11105
AAXX 12181 27479 11598 81402 11070 21087 30025 40163 52005 69900 77172 885// 333 11073 88622
AAXX 12181 27532 11596 72703 11004 21013 39987 40204 52022 69960 71022 84530 333 10006
AAXX 12181 27648 11596 82602 11003 21018 30035 40207 52020 60010 71022 885// 333 10001 88620
AAXX 12181 27675 32497 82202 11036 21044 39997 40171 52008 885// 333 11044 88617
AAXX 12181 27679 11498 82301 11044 21053 39948 40177 52011 69970 70272 885// 333 11037 88618
AAXX 12181 28214 11996 81302 11124 21130 39970 40193 52008 69940 77172 8801/ 333 11118
AAXX 12181 40701 11905 00000 11066 21068 38677 40359 51005 60001 74444 333 55062
AAXX 12181 40704 12970 60000 11084 21110 38684 40343 53005 60001 80001 333 55035 20699 86070
AAXX 12181 40708 12860 52602 11072 21092 38740 40340 52006 60001 81035 333 55045 21040 81358 85269
AAXX 12181 40710 12960 29901 11156 21175 38387 40426 51005 60001 80001 333 55025 82067
AAXX 12181 40713 11645 80000 11010 21040 38741 40315 51005 60001 71022 8352/ 333 55000 83640 88459
AAXX 12181 40731 12960 00000 11001 21049 38810 40312 52009 60001 86050 333 55071 21158 86460
AAXX 12181 40740 12962 01202 11090 21097 38805 40332 51004 60001 333 55056
AAXX 12181 40747 12960 20000 11007 21062 38675 40277 50001 60001 80001 333 55073 21034 82070
AAXX 12181 40757 12962 00101 10020 21032 38977 40291 51001 60001 333 55085 21141
AAXX 12181 40763 12965 00302 10034 21038 38998 40292 58001 60001 333 55089
AAXX 12181 40782 12965 11402 10028 21067 38920 40259 51007 60001 80001 333 55087 81069
AAXX 12181 40783 12967 01308 10006 21108 38026 40268 51007 60001 333 55091
AAXX 12181 40789 12965 00000 10038 21028 39285 40287 51002 60001 333 55090 2////
AAXX 12181 40798 12960 03302 11020 21103 38005 10289 51010 60001 333 55092 21361
AAXX 12181 40818 12965 00000 10006 21078 38020 40264 52009 60001 333 55093
AAXX 12181 40827 12965 00000 10040 21043 38904 40295 51010 60001 333 55093
AAXX 12181 40836 12970 01802 10040 21109 38232 40243 52009 60001 333 55095 21491
AAXX 12181 40851 12960 00000 10004 21081 38307 40252 52008 60001 333 55090
AAXX 12181 40853 12960 00000 10030 21172 37782 40201 54000 60001 333 55097
AAXX 12181 40854 12960 12802 10074 21037 39017 40232 50001 60001 80001 333 55084 81070
AAXX 12181 40857 11956 00402 10140 20097 30202 40212 52009 60001 70600 222// 00/// 20401 333 55075
AAXX 12181 40859 12965 00000 10054 21043 38743 40188 51013 60001 333 55095
AAXX 12181 40878 12965 00105 10124 21150 38892 40225 51015 60001 333 55099
AAXX 12181 40879 12960 10000 10111 21117 39532 40221 51019 60001 80002 333 55098 81070
AAXX 12181 40883 11956 13502 10180 20083 30149 40172 51009 60001 70500 80001 333 55096 81070
AAXX 12181 34560 32997 02706 11021 21037 30112 40284 52002 333 10018
AAXX 12181 34720 32599 50801 11002 21032 30273 40314 52004 85600 333 10035
AAXX 12181 34730 32597 50000 11009 21050 30219 40315 52003 85500 333 10016 85623
AAXX 12181 34740 31996 03501 11035 21043 30214 40316 52004 71011 333 10036
AAXX 12181 34824 32997 00802 11004 21022 30300 40305 52007 333 10044
AAXX 12181 34858 31996 01901 11030 21036 30204 40317 50003 71000 333 10046
AAXX 12181 34866 32998 52702 11013 21027 30322 40313 51008 8005/ 333 10043
AAXX 12181 34880 31996 02502 11009 21020 30333 40305 51010 71000 333 10044
AAXX 12181 37018 12598 81304 10100 20027 30208 40284 50002 69970 8597/ 333 10103
AAXX 12181 37054 11496 80401 10022 20018 39924 40318 54001 60040 71062 885// 333 10035
AAXX 12181 37472 32597 80000 10051 20030 30348 40325 52009 886// 333 10100
AAXX 12181 22165 NIL
AAXX 12181 22676 32484 81604 11035 21046 30018 40098 52011 885// 333 11028
AAXX 12181 22837 11477 71901 11010 21042 30068 40139 52016 60010 70282 87900 333 85626
AAXX 12181 22954 11397 82502 11017 21025 39899 40152 52023 60010 78582 889// 333 11013 85709
AAXX 12181 23405 11550 81503 11093 21109 30007 40110 54000 60010 77172 8802/ 333 11061 88521
AAXX 12181 23412 11999 81503 11085 21123 30034 40135 54000 60020 70272 8807/ 333 11074
AAXX 12181 23803 11497 81703 11112 21132 39968 40156 58007 69960 77172 8802/ 333 11112 88518
AAXX 12181 27066 11398 81802 11069 21078 39974 40158 52019 69900 77872 888// 333 11070 88707
AAXX 12181 27083 12484 81901 11107 21127 39931 40166 52016 60010 885// 333 11105
AAXX 12181 27113 11560 82501 11020 21035 30017 40165 51012 69960 8353/ 333 10002
AAXX 12181 27242 32498 82702 11006 21015 30036 40166 52023 69980 8695/ 333 10002
AAXX 12181 27329 12984 82802 11001 21021 30062 40199 52018 69960 8805/ 333 10012
AAXX 12181 27355 12497 82704 11008 21018 30002 40168 52020 69980 885// 333 11008
AAXX 12181 27373 11496 81403 11092 21108 39944 40172 52012 69920 77172 8802/ 333 11095 88518
AAXX 12181 27665 11997 82803 11006 21021 39911 40185 52022 69930 70272 8802/ 333 11022
AAXX 12181 27835 31996 72702 11012 21029 30075 40237 52017 71022 87030 333 10011
AAXX 12181 28009 11496 81802 11113 21126 39967 40188 52008 60010 77172 8802/ 333 11099
AAXX 12181 28411 11597 81303 11134 21154 39988 40195 52002 69900 77172 8552/ 333 11126
AAXX 12181 28418 11997 71202 11128 21148 30016 40192 57002 69920 77172 87010 333 11124
AAXX 12184 91165 12566 60615 10222 20206 30145 40180 53011 60051 91753 555 91218
AAXX 12184 91182 11566 60610 10233 20200 30161 40166 53016 69901 761// 91753 333 10250 20222 555 91218
AAXX 12184 91190 32566 60317 10233 20189 30148 40167 51008 91754 333 10233 555 91218
AAXX 12184 91212 12566 20611 10267 20239 31364 40100 56017 69931 91754 333 10294 20261 555 91218
AAXX 12184 91285 12666 80000 10206 20189 30151 40165 53006 69951 91753 333 10233 20194 555 91218
AAXX 12184 91413 11469 40907 10260 20237 30063 40088 57015 60021 72522 83101 333 562/9 70015 555 91218
AAXX 12181 01494 11375 51602 10033 20027 39851 49916 55004 60072 72162 83570 333 10055 91112
AAXX 12181 01441 16/// /1704 11020 21035 38923 49901 52001 60042 333 10008 91107
AAXX 12184 91943 36/// /0909 10286 20198 30157 40159 51012 333 10287 58003
AAXX 12184 91945 36/// /0204 10284 20231 30172 40177 51016
BBXX 3ERR2 12184 99635 10053 41498 80906 10053 20022 49807 57026 76166 887xx 22200 06092 11506 70028 333 91122
BBXX LF3F 12184 99643 10078 43/// /1313 10032 21008 49835 57014 22200 04091 11006 70031 333 91120
BBXX LF3N 12184 99653 10073 41597 21317 10048 20020 49834 57017 70222 8//// 22200 00100 11008 70040
BBXX LF4B 12184 99606 10037 47/98 /2224 10063 49852 57006 761// 22200 00060 10706 70032 333 91132
BBXX LF4C 12184 99584 10019 41698 22219 10076 20020 49881 57013 70121 89/// 22200 00076 10705 70025 333 91124
BBXX LF5T 12184 99660 10081 41498 61416 10046 20016 49847 57014 78082 869// 22200 06084 10705 70023 333 91123
AAXX 12181 01488 16/// /1602 10007 20001 60182 333 10034 4/023 91109
AAXX 12184 91245 32566 40615 10270 20210 30154 91755 555 91218
AAXX 12181 22837 11477 71901 11010 21042 30068 40139 52016 60010 70282 87900 333 10000 85626
BBXX C6SI6 12184 99370 11438 46/// /3220 10094 20042 40198 51016 7//// 8//// 22253 0//// 2////
BBXX DGBE 12183 99323 11330 41/97 /3415 10125 20068 40240 52010 70311 8//// 22254 00240 2//// 80095
BBXX MGPU2 12183 99416 11338 41/98 43232 11020 40314 52/// 70200 8/1// 22231 00020 2//// 327// 40506 5////
BBXX ONDE 12183 99362 11412 41897 60118 10100 20012 40180 51010 7//22 8644/ 22200 00170 20403 301// 4//// 5//// 6//// 80060 ICE /////
BBXX TBWUK36 12183 99317 11330 41398 43620 10152 20111 40220 57005 70111 84445 22214 00230 20504 305// 40603 5//// 80130
AAXX 12181 08560 31470 72202 10082 20053 39498 40265 52002 70222 874// 333 10107 83815 86620
AAXX 12181 08579 42/// /2402 10140 20078 30145 40271 52003 333 1//// 91105
AAXX 12181 50844 32962 02003 11145 21186 40267 57008 333 11035
AAXX 12181 50854 32970 01602 11148 21187 40273 57012 333 11059
AAXX 12181 50968 32962 02001 11162 21177 40310 54000 333 11063
AAXX 12181 51379 32980 01601 11164 21192 40329 52010 333 05152 11028
AAXX 12181 51467 32980 03604 11068 21223 38280 52013 333 05204 10011
AAXX 12181 51495 32980 03604 11074 21130 40308 52005 333 05452 11004
AAXX 12181 53480 32980 72203 11077 21141 40258 57013 80002 333 11015
AAXX 12181 53673 32961 22701 11068 21098 40293 57012 80002 333 10019
AAXX 12181 53698 32962 50000 11002 21044 40284 57016 80002 333 10088
AAXX 12181 53898 31920 70000 11015 21021 40286 57012 71000 80002 333 10082
AAXX 12181 54308 32980 63402 11100 21143 40293 57010 80002 333 10011
AAXX 12181 54602 32960 50902 11022 21039 40284 57012 80002 333 10069
AAXX 12181 54725 32962 01102 11016 21023 40291 57010 333 10083
AAXX 12181 54751 32965 01403 10018 21020 40300 57005 333 10069
AAXX 12181 54916 32960 20000 11022 21030 40296 57004 80002 333 10090
AAXX 12181 57014 32965 22701 11049 21064 40297 57003 80002 333 05402 10059
AAXX 12181 57025 32965 23401 11034 21060 40292 57008 82030 333 10045
AAXX 12181 57046 32974 02210 11043 21127 37954 57007 333 05302 10000
AAXX 12181 58208 32965 10401 10010 21027 40281 57006 81040 333 10111
BBXX BAREU61 12184 99248 70163 46/// /0524 10198 29074 40213 57004 22254
BBXX BATEU00 12184 99507 30159 46/// /1621 10012 21042 40122 53043 22242
BBXX BATFR55 12184 99114 30489 44598 31311 10275 20245 40111 70211 82142 22232 00280 207// 32727 409// 509//
BBXX BATFR19 12184 99007 30088 46/// /1813 10264 20234 40108 53019 22200 00275
BBXX DDZF2 12184 99105 10657 41/97 /0522 10280 20239 40120 51020 72922 8//// 22225 00280 20303 80250
BBXX A8YW2 12184 99343 30263 41598 32022 10210 20160 40080 50003 70200 8244/ 22223 00200 20804 328// 40904 80180
BBXX C6OM8 12180 99135 70267 41396 70706 10265 20213 40124 54000 70540 877// 22243 06260 20402 307// 40402 5//// 80230
BBXX 2ALE5 12183 99194 70177 41997 80417 10231 20137 40135 53003 70322 8805/ 22284 20403 80176
BBXX BAREU08 12184 99181 70690 46/// ///// 40128 22233
BBXX 41101 12184 99146 70562 46/// /1011 10275 20242 40106 57022 22200 00275 10805 70023
BBXX BAREU54 12184 99158 70727 46/// ///// 40114 57020 22253
BBXX BAREU00 12184 99404 70701 46/// ///// 40339 57015 22223
BBXX BAREU11 12184 99057 70801 46/// ///// 40125 57012 22283
BBXX BAREU06 12184 99400 70392 46/// ///// 40274 52022 22264
BBXX PHQX 12183 99443 70452 41298 82914 10068 20004 40295 56005 70200 8775/ 22214 20806 331// 41006 5//// 80040
BBXX BATEU01 12184 99462 70729 46/// /2410 10050 21045 40282 56014 22252 00047
BBXX BATFR13 12184 99258 70516 44998 31324 10252 20195 40208 50004 70111 83333 22214 00257 20402 309// 41006 5////
BBXX BATEU04 12184 99611 70490 46/// /3313 11041 21118 49875 53006 22233
BBXX A8SF7 12181 99370 70746 41/98 70610 10150 20113 40320 54000 7//11 8/7// 22283 04140 21003 305// 41204 5//// 80130
AAXX 12181 08501 32/// /2705 10187 20123 30205 40241 52001 333 10201 91012 91112 555 60005
AAXX 12181 08505 32470 62607 10182 20140 30206 40256 55009 83831 333 10190 83812 85070 555 60007
AAXX 12181 08506 12/// /2508 10170 20143 30192 40264 57008 69912 333 10183 91112 555 60005
AAXX 12181 08509 32560 52806 10186 20138 30185 40250 56013 83801 333 10194 82825 83637 91010 91112 555 60007
AAXX 12181 08511 32/// /2704 10165 20161 30148 40256 57008 333 10176 91008 91109 555 60005
AAXX 12181 08512 11480 52805 10165 20145 30179 40264 57004 60022 70182 83802 333 10172 82816 83070 91007 91110 555 60005
AAXX 12181 08515 11480 62706 10177 20149 30153 40274 55008 69902 70381 86801 333 10192 81812 84816 910// 911// 555 60007 912//
AAXX 12181 08521 32470 20103 10186 20121 30210 40281 53001 82200 333 10215 82816 555 60007
AAXX 12181 08522 32570 69901 10191 20128 30214 40283 54000 86100 222// 312// 40301 333 10220 86820 555 60005
AAXX 12181 08524 32475 23602 10173 20143 30186 40284 54000 82800 333 10199 81815 91105 555 60005
AAXX 12181 08530 NIL
AAXX 12181 08531 32/// /1903 10150 20088 30226 40264 54000 333 10165 555 60005
AAXX 12181 08532 NIL
AAXX 12181 08533 32/// /3302 10152 20116 30248 40277 52002 333 10179 555 60005
AAXX 12181 08534 32670 72702 10138 20114 30251 40269 52003 875// 333 10180 87635 555 60007
AAXX 12181 08535 32/// /2501 10137 20089 30178 40272 52003 333 10176 555 60005
AAXX 12181 08537 NIL
AAXX 12181 08540 32460 61901 10122 20104 30190 40260 50001 85831 333 10154 81817 85640 555 60007
AAXX 12181 08541 32/// /1801 10134 20097 30154 40274 54000 333 10162 555 60005
AAXX 12181 08544 32560 81803 10132 20092 30229 40250 57004 87501 333 10152 87628 555 60007
AAXX 12181 08545 NIL
AAXX 12181 08548 12/// /1701 10121 20086 30055 40262 54000 69912 333 10147 555 60005
AAXX 12181 08551 31464 89902 10132 20077 30186 40244 57005 70222 888// 333 10137 86817 86624 91006 91106 555 60005
AAXX 12181 08554 32665 52903 10151 20102 30268 40278 52006 83501 333 10176 83635 83080 91106 555 60005
AAXX 12181 08558 32/// /2901 10109 20088 39976 40273 52008 333 10150 555 60005
AAXX 12181 08560 31470 72202 10082 20053 39498 40265 52002 70222 874// 333 10107 83815 86620 555 60005
AAXX 12181 08561 12570 72803 10126 20083 30038 40272 52005 69902 82806 333 10162 81822 87272 91105 555 60007
AAXX 12181 08562 32/// /2802 10114 20074 39975 40272 52005 333 10162 555 60005
AAXX 12181 08567 32/// /2102 10086 20057 39586 40257 54000 333 10110 555 60005
AAXX 12181 08568 NIL
AAXX 12181 08570 11475 62201 10102 20060 39803 40266 52005 69912 70311 81852 333 10144 81816 84358 555 60005
AAXX 12181 08571 12/// /2902 10090 20080 39564 40275 52005 69932 333 10112 555 60005
AAXX 12181 08575 NIL
AAXX 12181 08579 42/// /2402 10140 20078 30145 40271 52003 333 1//// 91105 555 60005
AAXX 12181 14235 11/01 9//// 10054 20054 38975 48436 52002 60002 76344 333 10064
AAXX 12181 14246 11458 81602 10088 20066 39916 40118 56/// 69902 760// 8272/ 333 10104
AAXX 12181 14314 12665 62105 10139 20086 30055 40118 56/// 60092 85870 333 10157 92312 92427
AAXX 12181 14323 11560 81505 10142 20114 30079 40112 57/// 60102 795// 8392/ 333 10145 92323 92437
AAXX 12181 14324 NIL
AAXX 12181 14328 11440 80301 10095 20091 39723 40113 58/// 60102 7616/ 8772/ 333 10139
AAXX 12181 14330 11560 81903 10097 20074 39462 40119 57/// 60132 76366 8802/ 333 10111
AAXX 12181 14438 11570 61503 10148 20115 30043 40133 58/// 60082 70262 86800 333 10168 923//
AAXX 12181 14443 32698 716// 10162 20140 30054 40143 57014 87760 333 10171 92323
AAXX 12181 14447 NIL
AAXX 12181 14472 12665 31205 10160 20143 30110 40173 52005 60002 83200 333 10179 92312
BBXX BATFR56 12184 99062 30781 44598 42809 10280 20239 40105 51011 70300 83802 22253 00299 20602 324// 40602 5////
BBXX BATFR59 12184 99221 31684 46/// /0312 10267 20239 40099 22251 00269
BBXX BATEU07 12184 99359 31507 46/// /2029 10169 40062 53001 22244
BBXX BATFR47 12184 99304 51462 44998 20916 10207 20147 40212 51010 70100 80008 22262 20000 310// 40902 5////
AAXX 12181 40700 12960 01103 10012 20001 30218 40310 52024 60001 333 55042
AAXX 12181 40723 12960 30000 11018 21061 38997 40320 56001 60001 80004 333 55088 21134 83067
AAXX 12181 40726 12660 60000 11006 21035 38729 40312 54000 60001 82520 333 55000 82635 86459
AAXX 12181 40727 11958 63305 11016 21041 38550 40320 51007 60001 71 80005 333 55059 20859 86270
AAXX 12181 40734 12960 69901 10066 20042 30312 40286 52004 60001 86030 333 55084 86360
AAXX 12181 40737 12960 00000 10034 20024 30272 40291 51014 60001 333 55080
AAXX 12181 40741 12960 00902 10021 20012 39985 40335 57009 60001 333 55000
AAXX 12181 40780 12960 30703 10020 21154 38727 40249 51003 60001 80001 333 55089 21264 83070
AAXX 12181 40791 12962 00000 10066 21046 39436 40281 52007 60001 333 55093
AAXX 12181 40792 12970 00602 10030 21065 38792 40279 52014 60001 333 55096
AAXX 12181 40794 12960 00000 10080 20053 30117 40218 52013 60001 333 55073 21087
AAXX 12181 40812 11930 00000 10110 20044 39819 40202 51007 60001 70600 333 55075
AAXX 12181 40829 12960 03250 10078 21033 39676 40260 52009 60001 333 55086
AAXX 12181 40833 11958 03304 10078 20046 30189 40223 51006 60001 70600 91750 333 55072
AAXX 12181 40835 12960 00000 10090 20015 39369 40213 53008 60001 333 55092
AAXX 12181 40845 NIL
AAXX 12181 40882 12960 13402 10210 20153 30141 40176 51009 60001 80001 333 55100 81070
AAXX 12181 40889 NIL
AAXX 12181 40890 NIL
AAXX 12181 40893 12960 23302 10208 20112 30158 40164 51013 60001 80002 222// 00/// 20401 333 55096 82068
AAXX 12181 40897 NIL
AAXX 12184 60395 11660 60000 10122 20118 40250 53007 60052 70266 86200 333 10161 86840 95990
AAXX 12184 60421 NIL
AAXX 12184 60423 12665 73410 10093 20062 39248 48516 51002 60002 878// 333 10143 83833 86640 95990
AAXX 12184 60430 12559 30000 10099 20055 40266 53006 60022 83802 333 10132 82823 95990
AAXX 12184 60437 11250 82804 10074 20065 39038 48537 53010 69972 70254 882// 333 10087 84705 85820 95990
AAXX 12184 60444 12565 63405 10096 20055 39140 48551 52007 60002 86200 333 10139 86830 95900
AAXX 12184 60452 12565 6//// 10166 20118 40255 51003 60002 84202 222// 2//// 333 10185 84820 83073 91826
AAXX 12184 60457 11565 72404 10151 20116 40260 53006 69902 70262 872// 333 10172 87820 95990
AAXX 12184 60514 12560 52610 10099 20064 39339 48571 53005 60002 85500 333 10126 85626 95990
AAXX 12184 60518 12565 53306 10152 20122 40249 53001 60001 83232 222// 29902 333 10187 83820 91837 95900
AAXX 12184 60520 12960 22504 10109 20083 40262 52005 60002 80002 333 10152 82073 95990
AAXX 12184 60540 11560 20000 10110 20047 39096 48552 53004 60002 70310 82200 333 10134 82830 95990
AAXX 12184 60560 11960 00000 10106 20048 39012 48554 53005 60002 70200 333 10163 95990
AAXX 12184 60353 NIL
AAXX 12184 60367 12565 6//// 10160 20124 40222 56008 60002 86800 333 10196 83820 85640
AAXX 12184 60369 12560 40000 10160 20056 40252 53009 60022 82280 333 10180 82826 91827
AAXX 12184 60401 NIL
AAXX 12184 60403 12660 63207 10125 20058 40241 53008 60002 85230 333 10186 85840 95990
AAXX 12184 60425 12565 60000 10150 20119 40256 53009 60002 85202 333 10170 85826 95990
AAXX 12184 60461 12570 50000 10160 20103 40258 51004 60002 85200 222// 20000 333 10176 85823 91838 95990
AAXX 12184 60467 12660 63006 10128 20062 40254 53012 60002 84830 333 10175 84833 83360 95990
AAXX 12184 60492 12565 43106 10139 20123 40258 53003 60002 84200 333 10186 84830 95990
AAXX 12184 60515 12560 73214 10119 20082 40231 55012 60002 872// 333 10175 87830 95990
AAXX 12184 60517 12565 30000 10169 20128 40275 53011 60002 82202 333 10193 82826 95990
AAXX 12184 60522 12570 10000 10119 20083 40280 53009 60002 81201 333 10166 81826 95990
AAXX 12184 60557 11670 10000 10088 20046 38928 48568 53002 60002 70200 81200 333 10125 81833 95990
AAXX 12184 60563 12960 33610 10107 20051 39365 48561 53011 60002 82032 333 10160 82360 83073
AAXX 12184 60603 12960 23606 10165 20022 40239 53012 60002 80001 333 10210 82073
AAXX 12184 60638 12960 6//// 10150 20023 40231 53008 60002 80002 333 10205 86073
AAXX 12184 60686 NIL
AAXX 12184 60664 36/// /0000 10165 21083 333 10229
AAXX 12184 60677 36/// /0000 10165 21085 333 10214
AAXX 12184 60692 36/// /0205 10211 21040 333 10253
AAXX 12184 60667 36/// /0000 10174 21062 333 10228
AAXX 12184 60672 36/// /0508 10170 21090 333 10201
AAXX 12184 60661 36/// /0407 10153 21116 333 10221
AAXX 12184 60633 36/// /3505 10216 21127 333 10257
AAXX 12181 89064 11470 71803 10029 29081 49742 52023 60031 70177 876//
AAXX 12184 60676 36/// /0000 10135 21073 333 10181
AAXX 12184 60662 36/// /0000 10151 21110 333 10198
AAXX 12184 60691 36/// /0209 10203 21073 333 10249
AAXX 12181 40700 12960 01103 10012 20001 30218 40310 52024 60001 333 55042
AAXX 12181 40723 12960 30000 11018 21061 38997 40320 56001 60001 80004 333 55088 21134 83067
AAXX 12181 40726 12660 60000 11006 21035 38729 40312 54000 60001 82520 333 55000 82635 86459
AAXX 12181 40727 11958 63305 11016 21041 38550 40320 51007 60001 71 80005 333 55059 20859 86270
AAXX 12181 40734 12960 69901 10066 20042 30312 40286 52004 60001 86030 333 55084 86360
AAXX 12181 40737 12960 00000 10034 20024 30272 40291 51014 60001 333 55080
AAXX 12181 40741 12960 00902 10021 20012 39985 40335 57009 60001 333 55000
AAXX 12181 40780 12960 30703 10020 21154 38727 40249 51003 60001 80001 333 55089 21264 83070
AAXX 12181 40791 12962 00000 10066 21046 39436 40281 52007 60001 333 55093
AAXX 12181 40792 12970 00602 10030 21065 38792 40279 52014 60001 333 55096
AAXX 12181 40794 12960 00000 10080 20053 30117 40218 52013 60001 333 55073 21087
AAXX 12181 40812 11930 00000 10110 20044 39819 40202 51007 60001 70600 333 55075
AAXX 12181 40829 12960 03250 10078 21033 39676 40260 52009 60001 333 55086
AAXX 12181 40833 11958 03304 10078 20046 30189 40223 51006 60001 70600 91750 333 55072
AAXX 12181 40835 12960 00000 10090 20015 39369 40213 53008 60001 333 55092
AAXX 12181 40845 NIL
AAXX 12181 40882 12960 13402 10210 20153 30141 40176 51009 60001 80001 333 55100 81070
AAXX 12181 40889 NIL
AAXX 12181 40890 NIL
AAXX 12181 40893 12960 23302 10208 20112 30158 40164 51013 60001 80002 222// 00/// 20401 333 55096 82068
AAXX 12181 40897 NIL
AAXX 12181 78458 32566 40303 10280 20240 40144 57017 84204 333 10280 20205 31/// 56200 58008 84820
AAXX 12181 78460 32566 31402 10300 20223 40125 57017 83500 333 10304 20174 30/// 56100 59004 83620
AAXX 12181 78467 32466 20404 10284 20234 40132 57023 82200 333 10290 20200 30// 56200 58006 82818
AAXX 12181 78479 32566 30705 10280 20222 40115 57012 83200 333 10290 20210 30/// 56200 58008 83825
AAXX 12181 78482 32566 21605 10304 20210 40138 57020 82200 333 10315 20210 30/// 56500 58017 82824
AAXX 12181 78485 32566 42004 10287 20194 40119 57027 84200 333 10305 20200 30/// 56000 58006 84828
AAXX 12181 78486 32566 30303 10300 20215 40107 57019 83200 333 10318 20212 30/// 56200 58001 83830
AAXX 12181 78488 32566 40505 10305 20215 40124 57023 84200 333 10306 20174 30/// 56000 58009 84825
AAXX 12183 87016 31406 81433 10253 20176 39671 40071 53008 70711 8537/ 333 56449 82817 83620 81935
AAXX 12183 87896 32980 10713 1021 20100 30046 40142 57011 80005 333 56006 81270
AAXX 12183 87791 32980 00918 10240 20011 30174 40183 50003
AAXX 12184 87078 32970 81803 10310 20185 39945 40093 52005 8807/ 333 56089 88360
AAXX 12184 87244 11568 51405 10224 20125 39766 4//// 5//// 69901 70152 85500 333 56400 85625
AAXX 12184 87393 32970 61820 10315 20134 30044 40105 58008 83086 333 56070 83360 86270
AAXX 12184 87416 32665 71405 10275 20182 39386 40114 57028 82550 333 56550 82635 86360
AAXX 12184 87563 32565 31423 10242 20023 30074 40117 56010 83100 333 56200 83825
AAXX 12184 87640 32565 41810 10269 20051 30037 4//// 57016 84100 333 56400 84833
AAXX 12184 87688 32965 01814 10210 20055 30029 40166 54000
AAXX 12184 87774 NIL
AAXX 12184 87852 32984 32718 10222 20036 39660 40162 57009 81072 333 56006 81360
AAXX 12184 87593 32560 32320 10239 20064 30101 40128 57004 83100 333 56400 83825
AAXX 12184 87623 32780 42306 10288 20076 39929 40151 57019 84100 333 56500 84856
AAXX 12184 87641 32965 01817 10236 20089 39966 40141 57009
AAXX 12184 87645 32970 02024 10216 20014 39933 40139 57004
AAXX 12184 87648 32560 52316 10212 20077 30116 40127 57012 85500 333 56500 85620
AAXX 12184 87692 32460 72311 10168 20096 30100 40125 53005 87800 333 56500 82818 87625
AAXX 12184 87715 32970 03403 10278 20036 39844 40155 57019
AAXX 12184 87750 32965 01420 10241 20073 30065 40164 57001
AAXX 12184 87765 32960 01405 10234 21012 39218 48517 57017 333 96120
AAXX 12184 87784 32580 31415 10230 20104 30161 40184 58003 83100 333 56600 83830
AAXX 12184 87800 32980 01806 10249 20074 39765 40161 57039
AAXX 12184 87803 32980 12510 10235 21014 39260 40164 57015 80005 333 56006 81270
AAXX 12184 87828 32980 21106 10260 20056 30125 40176 58003 82042 333 56006 57301 82362
AAXX 12184 87860 32980 50915 10244 20078 30093 40147 57015 80002 333 56006 85070
AAXX 12184 87904 32680 42719 10188 21003 39886 40128 52005 81476 333 56666 81640 83270
AAXX 12184 87909 32980 42308 10303 21033 30044 40116 56009 80001 333 56000 84070
AAXX 12184 87925 32780 72505 10239 21006 30076 40099 53003 81449 333 56666 57397 81650 83360
AAXX 12184 87938 11670 62320 10133 20039 39960 40029 52017 69901 70262 86500 333 56500 86635
AAXX 12184 89022 42984 41604 11055 21089 39758 49795 57007 81506 333 81620 84270 99128
AAXX 12184 89062 42565 80204 10015 21030 39607 49646 57017 885// 333 83620 85640
AAXX 12181 60370 16/// /2001 10141 20097 69922 333 10170
AAXX 12181 60371 16/// /0000 10146 20095 60012 333 10169
AAXX 12181 60372 16/// /3004 10119 20091 69972 333 10145
AAXX 12181 60373 NIL
AAXX 12181 60374 NIL
AAXX 12181 60376 NIL
AAXX 12181 60379 NIL
AAXX 12181 60380 NIL
AAXX 12181 60381 NIL
AAXX 12181 60393 NIL
AAXX 12181 60394 NIL
AAXX 12181 60593 NIL
AAXX 12181 60595 NIL
AAXX 12181 60605 NIL
AAXX 12181 60613 NIL
AAXX 12181 60623 NIL
AAXX 12184 60624 36/// /0000 10213 21053 333 10236
AAXX 12184 60639 NIL
AAXX 12184 60645 36/// /0000 10208 21025 333 10247
AAXX 12181 23909 11497 81803 11120 21140 39931 40192 52008 69900 77172 8752/ 333 11113
AAXX 12181 28044 32997 01102 11179 21196 30073 40250 54000 333 11150
AAXX 12181 28116 11896 81602 11127 21151 39956 40201 52005 69900 77172 8807/ 333 11119
AAXX 12181 28240 32998 41403 11176 21193 39902 40251 54001 80009 333 11131
AAXX 12181 28522 32997 81402 11102 21125 39942 40212 57005 8805/ 333 11128
AAXX 12181 28621 11996 81402 11107 21127 39955 40199 57003 69950 77172 8802/ 333 11121
AAXX 12181 29023 41998 80000 11218 21243 30327 40435 52006 70274 8801/
AAXX 12181 29122 42297 70801 11223 21235 30343 40424 53002 87600 333 87705
AAXX 12181 29328 42998 30502 11199 21216 30242 40395 54000 80005
AAXX 12181 29348 42997 00000 11239 21260 30254 40416 53002
AAXX 12181 29405 42997 20402 11220 21239 30206 40368 54000 80001
AAXX 12181 29418 42398 00302 11196 21222 30195 40369 53001
AAXX 12181 29430 42998 00601 11186 21198 30194 40387 58001
AAXX 12181 29524 42998 00401 11203 21215 30179 40358 57005
AAXX 12181 29605 41996 80501 11197 21203 30195 40350 52003 77172 8802/
AAXX 12181 29631 42997 60605 11179 21191 30146 40348 57006 80001
AAXX 12181 29645 42998 53201 11195 21207 30151 40355 57004 80001
AAXX 12181 29706 42998 00403 11212 21231 30175 40337 58003
AAXX 12181 29736 41994 00000 11271 21295 30061 40342 57007 70400
AAXX 12181 29937 42997 30201 11197 21216 30065 40305 57001 80005
AAXX 12181 36034 41996 00502 11208 21220 39995 40295 54000 71011
AAXX 12181 36096 42997 70000 11287 21312 39618 40498 52009 84035 333 95090
AAXX 12181 34357 32998 02604 11000 21020 30113 40273 52007 333 10011
AAXX 12181 34363 32998 82608 11005 21024 30099 40255 52004 8807/ 333 10004
AAXX 12181 34545 32598 82803 10005 21024 30188 40303 52005 885// 333 10013
AAXX 12181 34579 32998 02502 11009 21043 30240 40286 51007 333 10023
AAXX 12181 34838 32/97 60802 11004 21027 30211 40311 52003 8002/ 333 10050
AAXX 12181 34927 11496 80601 10036 20023 30263 40301 57003 69980 71062 886// 333 10039
AAXX 12181 34949 11508 60901 11015 21017 39759 40319 52002 69980 74242 82530 333 10027 93401
AAXX 12181 37001 32996 00704 10033 20020 30241 40283 54001 333 10069
AAXX 12181 37031 32597 81001 10025 20015 30105 40305 54001 8455/ 333 10042
AAXX 12181 37061 11957 00000 11018 21021 30148 40321 52005 69960 71011 333 10039
AAXX 12181 37085 12996 03002 11011 21020 30349 40377 52008 60020 333 10054
AAXX 12181 37107 11494 80000 10027 20027 39617 40310 52003 60050 71022 884// 333 10031
AAXX 12181 37126 41/92 92702 11055 21055 37979 48557 52002 74942 333 10000
AAXX 12181 37171 32796 80603 10071 20025 30276 40295 52007 69900 889// 333 10088
AAXX 12181 37228 32597 81401 10015 20000 39455 40309 50000 885// 333 10064
AAXX 12181 37470 32596 83001 10068 20029 30349 40326 52011 885// 333 10097
AAXX 12181 37663 32996 02801 11027 21048 39115 48567 51014 333 10083
AAXX 12181 23914 32999 61803 11146 21162 39934 40209 53005 80001 333 11124
AAXX 12181 23921 32998 82001 11244 21262 30115 40246 58001 80001 333 11163
AAXX 12181 23955 41264 81303 11227 21243 30345 40414 52004 77172 886// 333 86704
AAXX 12181 23966 42999 60000 11252 21271 30296 40438 52009 80002
AAXX 12181 28138 32999 30000 11178 21197 39637 40250 52002 80001 333 11098
AAXX 12181 28224 32998 81802 11128 21149 39983 40210 54000 80007 333 11104
AAXX 12181 28255 32994 01601 11189 21206 30148 40289 54001 333 11165
AAXX 12181 28440 32997 01303 11187 21206 39885 40265 58001 333 11135
AAXX 12181 28645 32997 01602 11196 21208 39964 40287 54000 333 11154
AAXX 12181 28661 32997 31302 11196 21213 30209 40310 54000 80001 333 11137
AAXX 12181 28722 11594 81602 11111 21122 30063 40201 57008 60010 78582 889// 333 11108
AAXX 12181 28748 31941 01602 11218 21236 30026 40291 57003 71000 333 11184
AAXX 12181 28838 12996 70000 11234 21246 39767 40294 57005 69930 80002 333 11182
AAXX 12181 29231 41996 80000 11229 21255 30314 40422 52003 77172 8802/
AAXX 12181 29313 42998 60602 11216 21234 30262 40397 54000 85012
AAXX 12181 29612 42998 00202 11228 21240 30185 40353 54000
AAXX 12181 29638 42998 00303 11164 21183 30165 40343 58002
AAXX 12181 29838 42997 20000 11195 21214 30060 40313 57006 80001
AAXX 12181 29846 41927 23602 11233 21239 39927 40353 58006 71000 80001
AAXX 12181 36061 42999 21802 11209 21228 39881 40327 58003 80001
AAXX 12181 28049 32997 01506 11157 21178 30086 40262 54001 333 11113
AAXX 12181 28144 32998 61302 11180 21196 30082 40253 57002 80002 333 11139
AAXX 12181 28319 11496 81202 11125 21146 30033 40205 52002 69900 77172 8802/ 333 11127
AAXX 12181 28321 12999 61302 11130 21150 39988 40204 52002 84032 333 11117
AAXX 12181 28334 32997 70000 11226 21251 39911 40246 53003 80006 333 11186
AAXX 12181 28434 32998 70000 11212 21232 39961 40243 53003 83031 333 11165
AAXX 12181 28552 32998 21101 11201 21222 30175 40299 54000 80002 333 11145
AAXX 12181 28666 31956 81002 11195 21214 30131 40322 50003 77171 8802/ 333 11170
AAXX 12181 28825 11994 81803 11102 21113 30028 40208 57003 60010 77572 8802/ 333 11095
AAXX 12181 29111 42998 80701 11230 21251 30321 40419 52004 80005
AAXX 12181 29209 42998 00000 11256 21275 30254 40396 54000
AAXX 12181 29551 42997 00501 11215 21233 30210 40412 52002
AAXX 12181 29602 42999 00101 11248 21273 30194 40351 58003
AAXX 12181 29636 42998 00000 11209 21215 30118 40357 57005
AAXX 12181 29654 42999 22102 11140 21167 39709 40360 52001 80001
AAXX 12181 29712 42998 00201 11207 21226 30183 40340 54000
AAXX 12181 29724 42997 00503 11189 21201 30107 40328 57002
AAXX 12181 29726 42998 00702 11189 21208 30150 40332 57006
AAXX 12181 29814 42999 30602 11187 21206 30164 40323 57003 80002
AAXX 12181 29827 42997 20502 11176 21188 30141 40306 57005 80001
AAXX 12181 29923 42999 30601 11194 21213 30012 40311 57004 80007
AAXX 12181 29939 42997 10703 11153 21172 39993 40294 57005 80001
AAXX 12181 35026 11495 81402 11165 21188 39578 40261 57004 69900 78582 889// 333 11155
AAXX 12181 36021 42999 20703 11203 21222 30099 40295 57006 80001
AAXX 12181 36022 42998 00403 11202 21214 30013 40298 54000
AAXX 12181 36038 42999 30000 11206 21212 39826 40308 53009 80002
AAXX 12181 36058 42999 01004 11138 21158 39766 40319 57003
AAXX 12181 36064 42999 40704 11042 21106 39694 40300 54000 80001
AAXX 12181 36229 42999 50000 11235 21247 39133 40423 52008 80004
AAXX 12181 36259 42999 60000 11282 21321 38271 48563 52002 80001
AAXX 12181 38954 328// 20000 11014 21036 37983 38570 52005 88002 333 10014
AAXX 12181 38725 12181 429// 60000 11048 21136 48530 52004 80001
AAXX 12181 13492 NIL
AAXX 12181 13584 NIL
AAXX 12181 13585 11698 81601 10090 20085 39411 40202 51006 60022 70262 885// 333 10158 94049 90341
AAXX 12181 13597 11697 80000 10106 20095 30141 40214 54000 69922 76162 8802/ 333 10157 94008 90692
AAXX 12181 13598 42698 82302 10086 20040 48505 53002 885// 333 10146 94031
AAXX 12181 15605 11668 70902 10070 20066 39369 40213 58002 60022 78082 87900 333 10091 20052 555 59702 69544 71850
AAXX 12181 38836 115// 80000 10003 21008 39402 43077 51002 6040 746684 8899// 333 10020
AAXX 12184 04203 46/// /3115 11157 21178 39970 49988 52007
AAXX 12184 04205 45/84 /1501 11206 21268 39954 49977 52004 333 11183 21227
AAXX 12184 04208 46/// ///// 11182 21207 39918 49964 52007
AAXX 12184 04213 46/// /1611 11029 21199 39796 49905 52007 333 11027 21092
AAXX 12184 04214 46/// /1004 11045 21135 39876 49909 52008
AAXX 12184 04224 45/83 /1809 11083 21123 39872 49905 52012 333 11040 21084
AAXX 12184 04228 NIL
AAXX 12184 04242 46/// /0611 11083 21161 39892 49908 52017
AAXX 12184 04253 46/// /0807 11073 21135 39861 49888 52010
AAXX 12184 04266 46/// /3108 11043 21095 39828 49866 52012
AAXX 12184 04285 46/// /3211 11040 21104 39827 49846 57005
AAXX 12184 04301 46/// /2604 11340 21390 30021 40026
AAXX 12184 04313 46/// /0508 11171 21196 39989 40001 57001
AAXX 12184 04330 46/// /3202 11228 21283 39998 40016 57005
AAXX 12184 04351 46/// /0806 11012 21086 39910 49926 52004
AAXX 12184 04373 46/// /3314 11017 21020 39753 49846 52026
AAXX 12184 04382 46/// /3409 11018 21103 39751 49799 52011
AAXX 12184 04416 NIL
AAXX 12184 13629 11660 81408 10086 20068 39154 42803 52005 60172 70262 885// 333 10130 88636
AAXX 12181 38734 425// 60904 11079 21110 47090 52007 84903
AAXX 12181 78458 32566 40303 10280 20240 40144 57017 84204 333 10280 20205 31/// 56200 58008 84820
AAXX 12181 78460 32566 31402 10300 20223 40125 57017 83500 333 10304 20174 30/// 56100 59004 83620
AAXX 12181 78467 32466 20404 10284 20234 40132 57023 82200 333 10290 20200 30// 56200 58006 82818
AAXX 12181 78479 32566 30705 10280 20222 40115 57012 83200 333 10290 20210 30/// 56200 58008 83825
AAXX 12181 78482 32566 21605 10304 20210 40138 57020 82200 333 10315 20210 30/// 56500 58017 82824
AAXX 12181 78485 32566 42004 10287 20194 40119 57027 84200 333 10305 20200 30/// 56000 58006 84828
AAXX 12181 78486 32566 30303 10300 20215 40107 57019 83200 333 10318 20212 30/// 56200 58001 83830
AAXX 12181 78488 32566 40505 10305 20215 40124 57023 84200 333 10306 20174 30/// 56000 58009 84825
AAXX 12181 78458 32566 40303 10280 20240 40144 57017 84204 333 10280 20205 31/// 56200 58008 84820
AAXX 12181 78460 32566 31402 10300 20223 40125 57017 83500 333 10304 20174 30/// 56100 59004 83620
AAXX 12181 78467 32466 20404 10284 20234 40132 57023 82200 333 10290 20200 30// 56200 58006 82818
AAXX 12181 78479 32566 30705 10280 20222 40115 57012 83200 333 10290 20210 30/// 56200 58008 83825
AAXX 12181 78482 32566 21605 10304 20210 40138 57020 82200 333 10315 20210 30/// 56500 58017 82824
AAXX 12181 78485 32566 42004 10287 20194 40119 57027 84200 333 10305 20200 30/// 56000 58006 84828
AAXX 12181 78486 32566 30303 10300 20215 40107 57019 83200 333 10318 20212 30/// 56200 58001 83830
AAXX 12181 78488 32566 40505 10305 20215 40124 57023 84200 333 10306 20174 30/// 56000 58009 84825
AAXX 12181 13463 11550 80201 10118 20117 30124 40184 55002 60132 70226 85828 333 10131
AAXX 12181 13459 11550 61803 10087 20086 39431 40189 56003 60062 70264 86700 333 10088 86795
AAXX 12181 13461 11560 81603 10164 20126 30178 40186 51004 60232 71792 889// 333 10182 88927 92333 92436
AAXX 12181 13363 32965 51402 10091 20035 39259 48491 53002 85030 333 10116 43002
AAXX 12184 71682 16/// /2204 10002 21042 39705 49930 56021 60001 333 10019 21215 70000
AAXX 12184 71361 16/// /2216 11051 21102 39759 49965 56028 60001 333 11048 21095 70000
AAXX 12184 71374 46/// /3506 11073 21093 6///1 333 11073 21128 7////
AAXX 12184 71387 17/// /2005 11003 21009 39861 40243 55000 69941 7//4/ 333 11003 21101 70000
AAXX 12184 71435 17/// /0503 11078 21082 39651 40267 50005 69951 7//4/ 333 11078 21159 70010
AAXX 12184 71158 16/// /2301 11145 21176 30034 40326 50001 60001 333 11138 21249 70000
AAXX 12184 71170 16/// /0103 11108 21126 60001 333 11064 21115 70000
AAXX 12184 71186 46/// /0909 11015 21030 6///1 333 11015 21084 7////
AAXX 12184 71190 46/// /2810 10001 21024 6///1 333 10003 21053 7////
AAXX 12184 71733 16/// /2309 10030 21001 39826 40256 55001 60001 333 10031 21029 70000
AAXX 12184 71743 16/// /1702 11205 21221 39991 40220 51005 60001 333 11205 21268 7////
AAXX 12184 71748 16/// /0104 11118 21142 30019 40322 50004 60001 333 11074 21148 70000
AAXX 12184 71550 17/// /0000 11116 21141 39940 40333 50004 69931 7//4/ 333 11102 21134 70003
AAXX 12184 71581 16/// /2602 10002 21021 39793 40284 55007 60001 333 10003 21076 70000
AAXX 12184 71833 46/// /2608 10031 21055 6///1 333 10033 21040 7////
AAXX 12184 71437 46/// /2307 10056 21066 30203 40300 58012 6///1 333 10057 20006 7////
AAXX 12184 71269 17/// /1205 11073 21087 60021 7//4/ 333 11060 21085 70046
AAXX 12184 71285 46/// /1708 11090 21101 6///1 333 11076 21129 7////
AAXX 12184 71299 16/// /3505 11037 21044 39978 40255 51007 60001 333 11011 21037 70000
AAXX 12184 71107 16/// /2225 10060 20051 30073 40186 56023 60001 333 10061 20038 70000
AAXX 12184 71951 11132 80000 11033 21038 39933 40205 56020 69961 77172 885// 333 11023 21034 70006 90933 93101
AAXX 12184 71228 17/// /1810 11057 21088 69941 7//4/ 333 11057 21113 70004
AAXX 12184 71503 46/// /0603 11090 21100 39551 49818 56042 6///1 333 11090 21189 7////
AAXX 12184 71506 46/// /0817 11074 21099 38954 49813 53019 6///1 333 11029 21115 7////
AAXX 12184 71514 16/// /1506 11063 21086 39575 40298 50001 60001 333 11063 21086 70000
AAXX 12184 71309 17/// /3403 11061 21095 30265 40277 51009 69931 7//4/ 333 11061 21111 70014 555 10020
AAXX 12184 71341 16/// /2904 11106 21125 60001 333 11049 21124 70062
AAXX 12184 71342 17/// /1908 11076 21099 60041 7//4/ 333 11073 21107 70036
AAXX 12184 71344 16/// /1609 11089 21099 60001 333 11080 21105 70014
AAXX 12184 71347 16/// /1908 11065 21087 60001 333 11065 21127 70000
AAXX 12184 71348 16/// /1405 11087 21098 60001 333 11087 21166 70000
AAXX 12184 71349 46/// ///// 11072 21098 6///1 333 7////
AAXX 12184 71951 11132 80000 11033 21038 39933 40205 56020 69961 77172 885// 333 11023 21034 70006 90933 93101
AAXX 12184 71435 17/// /0503 11078 21082 39651 40267 50005 69951 7//4/ 333 11078 21159 70010
AAXX 12184 84202 31575 51402 10316 20193 30134 70544 82109 333 59005 555 30048
AAXX 12184 84045 31456 70000 10130 20098 74044 87800 555 30081
AAXX 12184 84036 31570 72204 10184 20147 70542 86450 555 30079
AAXX 12184 84143 32665 71704 10178 20100 37399 87800 333 58008 555 30060
AAXX 12184 84072 31570 70412 10180 20120 37287 71544 83350 333 58003 555 30068
AAXX 12184 84076 31570 73208 10190 20123 70544 87400 555 30065
AAXX 12184 84135 32675 73606 10309 20212 30052 83130 333 58009 555 30056
AAXX 12184 84270 11556 60000 10182 20135 60051 76062 86500 555 10046 30074
AAXX 12184 84050 31575 83608 10272 20214 70544 888// 555 30070
AAXX 12184 84179 31465 62702 10260 20206 39043 71794 86900 333 58001 555 30072
AAXX 12184 84140 31580 70902 10296 20199 30019 40104 70544 86850 333 58009 555 30056
AAXX 12184 84008 32665 61414 10274 20207 30124 40134 82830 00166 333 58003 555 30067
AAXX 12184 84160 31565 71404 10173 20077 37260 74144 84530 333 59001 555 30053
AAXX 12184 84204 31680 50902 10332 20185 70544 81159 555 30042
AAXX 12184 84105 31565 63604 10295 20220 39999 70542 84110 333 58001 555 30064
AAXX 12184 84132 31675 53204 10314 20253 39873 71544 85300 333 58003 555 30070
AAXX 12184 84226 31560 73608 10112 20109 70544 87400 555 30098
AAXX 12184 84088 31560 70902 10144 20088 37061 71542 87300 333 59002 555 30068
AAXX 12184 84001 31565 71312 10241 20200 30110 40130 70544 85530 333 58008
AAXX 12184 84010 31580 31314 10262 20212 70244 81130
AAXX 12184 84018 31580 82811 10254 20223 30109 40116 70544 8627/ 333 58013
AAXX 12184 84027 11560 63604 10138 20116 37169 47140 69951 76065 84230 333 58002 555 10005
AAXX 12184 84063 11562 70000 10252 20221 39739 40071 60061 71696 85230 333 58004 555 10056
AAXX 12184 84069 32565 73003 10256 20202 86230
AAXX 12184 84071 32565 73310 10168 20097 37277 47128 85130 333 58005
AAXX 12184 84099 11570 70000 10258 20226 3//// 40085 60081 71682 84270 333 5//// 555 10078
AAXX 12184 84101 31562 42810 10270 20226 30092 40106 70544 82130 333 5////
AAXX 12184 84117 31560 72612 10268 20221 30087 40110 70544 81130 333 58014
AAXX 12184 84123 31570 71604 10165 20110 37286 47124 71544 86250 333 58003
AAXX 12184 84147 31565 61204 10188 20125 70242 83130
AAXX 12184 84163 11470 63204 10195 20190 38935 48484 60071 71796 84930 333 58002 555 10073
AAXX 12184 84200 31962 22709 10237 20194 70544 82030
AAXX 12184 84203 31560 51304 10315 20158 30088 40093 70544 82130 333 58004
AAXX 12184 84217 31570 60312 10264 20206 71641 85230
AAXX 12184 84239 32680 71503 10201 20097 37532 47146 85230 333 59003
AAXX 12184 84252 31465 53407 10305 20207 30092 40100 70544 81130 333 58000
AAXX 12184 84265 31680 60506 10276 20148 38747 71522 83130 333 58010
AAXX 12184 81225 11456 60505 10309 20228 40092 69901 71511 86942 333 56199 59003 82918 85830
AAXX 12184 81200 11570 50710 10313 20231 40096 69911 70282 84962 333 56299 58003 81925 83835
AAXX 12184 81202 NIL
AAXX 12184 81209 NIL
AAXX 12184 81251 NIL
AAXX 12181 28216 11898 71403 11138 21158 39900 40200 52004 69900 70272 87010 333 11126
AAXX 12181 28428 32997 81902 11124 21144 30021 40217 57005 8805/ 333 11131
AAXX 12181 28451 32996 01502 11203 21222 30112 40286 58002 333 11153
AAXX 12181 28541 32980 00000 11205 21224 39727 40262 54000 333 11086
AAXX 12181 28655 32998 51802 11218 21238 30058 40303 52001 80002 333 11170
AAXX 12181 28756 32997 01402 11241 21262 30149 40315 54000 333 11177
AAXX 12181 29557 42998 01501 11234 21259 30116 40412 52004
AAXX 12181 29625 42998 00602 11193 21212 30149 40345 58003
AAXX 12181 29813 42999 60502 11190 21209 30112 40306 58006 80001
AAXX 12181 29822 42997 03602 11230 21256 30149 40329 57001
AAXX 12181 29915 42998 60302 11171 21183 30132 40303 57008 80002
AAXX 12181 36020 42998 40603 11195 21201 30087 40304 57003 80002
AAXX 12181 08545 31662 71703 10134 20086 30167 40250 57002 70222 875// 333 10149 87640 91106
AAXX 12181 08545 31662 71703 10134 20086 30167 40250 57002 70222 875// 333 10149 87640 91106 555 60005
AAXX 12181 23226 12960 81604 11080 21148 39933 40156 53002 69900 85031 333 11068
AAXX 12181 23701 11484 81802 11101 21121 30009 40144 53011 60050 70272 8802/ 333 11066 88519
AAXX 12181 28909 11499 81504 11077 21091 30062 40165 53001 60030 77173 8872/ 333 11083 88712
AAXX 12184 60595 36/// /0000 11451 333 11451
AAXX 12184 60381 16/// /2301 10138 20097 69942 333 10177
AAXX 12184 60639 36/// /3407 10163 21010 333 10202
AAXX 12184 60605 36/// /0000 10192 21047 333 10210
AAXX 12181 56146 32980 03601 11078 21140 36741 57006 333 05154 10051
AAXX 12181 56444 32980 02703 11068 21092 36807 57008 333 05151 10043
AAXX 12181 56492 32962 00000 10045 20027 39848 40265 57007 333 05453 10125
AAXX 12181 56571 32670 70000 10068 20027 38413 57004 874// 333 05201 10142
AAXX 12181 57799 32970 80000 10054 21009 30172 40263 57008 8807/ 333 10128
AAXX 12181 57866 32970 71801 10066 20007 30055 40267 57006 8704/ 333 10114
AAXX 12181 57957 32966 50202 10091 21031 30053 40255 52001 85030 333 10134
AAXX 12181 57993 32960 00701 10051 20018 30083 40254 57005 333 10144
AAXX 12181 58027 31950 20000 11014 21036 30231 40284 57011 71000 82040 333 10093
AAXX 12181 58141 31930 00401 11009 21025 30270 40290 57008 71000 333 10094
AAXX 12181 58265 31920 02701 10015 21006 30274 40282 57014 71000 333 10076
AAXX 12181 58472 32460 13405 10071 20044 30174 40271 57013 81100 333 10090
AAXX 12181 58477 32963 03402 10066 20025 30221 40267 57012 333 10110
AAXX 12181 58527 32965 60000 10025 20001 30188 40266 57004 84042 333 10134
AAXX 12181 58633 31950 00703 10031 21011 30169 40272 57005 70500 333 10110
AAXX 12181 58666 31950 03608 10080 20035 30155 40259 57010 70500 333 10101
AAXX 12181 58725 31958 40000 10025 20012 39990 40258 54000 71000 84040 333 10161
AAXX 12181 58921 31958 01801 10062 20052 39991 40243 57001 71000 333 10158
AAXX 12181 59082 32961 01603 10045 20014 30093 40243 57003 333 10157
AAXX 12181 59211 31956 60000 10082 20062 30026 40238 52004 71000 86030 333 10161
AAXX 12181 59265 31956 03602 10085 21005 30086 40226 54000 70500 333 10189
AAXX 12181 59293 32968 02902 10081 20006 30135 40222 57006 333 10176
AAXX 12181 59501 32962 30702 10141 20030 30174 40195 57009 83040 333 10213
AAXX 12181 59663 32970 00404 10125 20015 30095 40204 57008 333 10198
AAXX 12181 59838 32965 70704 10151 20081 30183 40193 57006 80002 333 10211
AAXX 12181 59948 32470 70703 10149 20111 39700 40191 57003 81102 333 10205
AAXX 12181 59981 11568 80405 10231 20210 30134 40141 57015 69971 70060 888// 333 10234
BBXX 46248 12181 99461 71247 46/// ///// 1//// 91804 22200 00086 11304 20803 329// 41303 70022
BBXX 46244 12181 99409 71244 46/// ///// 1//// 91805 22200 00095 11107 21006 332// 41104 70036
AAXX 12181 23205 31498 72005 11087 21111 30064 40079 52002 73632 86530 333 11059 86618 91110
BBXX 42362 12181 99278 70907 46/// /0707 10222 20167 40247 58004 91800
BBXX 42362 12181 99278 70907 46/// /0708 10222 20167 40247 91815
BBXX 42363 12181 99282 70892 46/// /0709 10200 20150 40254 91815 333 91210
BBXX 42364 12181 99291 70881 46/// /0608 10189 20150 40258 58003 91800
BBXX 42364 12181 99291 70881 46/// /0508 10194 20150 40254 91815
BBXX 41115 12181 99184 70673 46/// ///// 1//// 91805 22200 10902 20902 302// 41101 70010
BBXX 46241 12181 99330 71173 46/// ///// 1//// 91741 22200 00152 11501 21001 326// 41501 70007
AAXX 12181 22563 11496 82302 11013 21015 30034 40073 52017 69950 71072 885// 333 11008 88610
AAXX 12181 22271 11498 83004 11005 21011 30002 40012 52014 69960 72683 883// 333 11003
BBXX 46237 12181 99378 71226 46/// ///// 1//// 91810 22200 00113 11404 21002 327// 41403 70020
BBXX 41114 12181 99276 70802 46/// ///// 1//// 91816 22200 00241 11004 21004 305// 41101 70021
BBXX 41113 12181 99284 70805 46/// ///// 1//// 91751 22200 00221 11003 21003 308// 41101 70017
BBXX 46212 12181 99408 71243 46/// ///// 1//// 91812 22200 00096 11107 21006 331// 41104 70037
BBXX 46229 12181 99438 71246 46/// ///// 1//// 91751 22200 00106 11305 20904 330// 41303 70026
BBXX 46216 12181 99343 71198 46/// ///// 1//// 91757 22200 00142 11502 20301 326// 41501 70008
BBXX 46223 12181 99335 71178 46/// ///// 1//// 91800 22200 00156 11502 20402 323// 41502 70012
AAXX 12181 50353 32970 02001 11263 21297 30011 40254 52008 333 11135
AAXX 12181 50557 32970 00701 11260 21290 39944 40274 52004 333 11115
AAXX 12181 50756 32960 00000 11200 21217 39962 40285 57006 333 11119
AAXX 12181 50949 32965 02002 11121 21183 30105 40286 57009 333 11052
AAXX 12181 50963 32965 00000 11204 21225 30145 40293 52002 333 11080
AAXX 12181 50978 32980 02502 11142 21188 39923 40293 52007 333 11058
AAXX 12181 51087 32980 52001 11186 21216 39307 40346 52008 80002 333 05200 11078
AAXX 12181 51156 NIL
AAXX 12181 51644 NIL
AAXX 12181 51656 32970 01601 11062 21094 39162 40306 52002 333 05451 11003
AAXX 12181 51886 32980 00702 11129 21276 37109 57001 333 05301 11023
AAXX 12181 52602 32980 03202 11171 21265 37268 57003 333 05300 11027
AAXX 12181 52713 32980 00202 11151 21295 36903 52001 333 05201 11029
AAXX 12181 52754 32980 10401 11157 21283 36773 57007 80002 333 05253 11017
AAXX 12181 52818 32980 02501 11109 21247 37235 52006 333 05202 10003
AAXX 12181 52836 32980 11603 11111 21273 36880 57013 80002 333 05303 11027
AAXX 12181 52955 32980 01603 11162 21262 36964 57012 333 05302 10000
AAXX 12181 53068 32980 22203 11132 21175 39053 40272 57012 80002 333 06003 11131
AAXX 12181 53276 32980 62205 11105 21164 38858 40252 57013 80002 333 11024
AAXX 12181 54135 32980 31402 11101 21170 30047 40281 57019 80002 333 11009
AAXX 12181 54236 32970 02003 11075 21129 30184 40294 57015 333 10008
AAXX 12181 54539 32970 50702 11025 21051 30283 40298 57017 80002 333 10053
AAXX 12181 54662 32975 01601 11016 21071 30193 40311 57004 333 10037
AAXX 12181 54753 32960 01401 11013 21029 30291 40298 57007 333 10073
AAXX 12181 54857 31920 73402 10030 20021 30205 40300 54000 71000 85032 333 10068
AAXX 12181 57067 32965 02001 11038 21061 39596 40297 57004 333 10086
AAXX 12181 57178 32960 70000 10048 21025 30120 40282 57009 8703/ 333 10117
AAXX 12181 57245 32965 00000 10003 21015 39925 40287 52002 333 05252 10108
AAXX 12181 57297 32960 00000 10017 21028 30138 40282 57003 333 10113
BBXX 46214 12181 99379 71235 46/// ///// 1//// 91757 22200 00113 11208 21005 332// 41206 70039
BBXX 46221 12181 99339 71186 46/// ///// 1//// 91745 22200 00148 11502 21001 324// 41502 70009
BBXX 46211 12181 99469 71242 46/// ///// 1//// 91806 22200 00087 11304 20903 328// 41303 70018
BBXX 46231 12181 99327 71174 46/// ///// 1//// 91754 22200 00154 11503 20402 326// 41502 70014
BBXX 46222 12181 99336 71183 46/// ///// 1//// 91756 22200 00155 11502 20401 328// 41502 70010
BBXX 46242 12181 99332 71174 46/// ///// 1//// 91758 22200 00152 11401 21001 323// 41401 70007
AAXX 12181 91945 36/// /0204 10284 20231 30172 40177 51016
AAXX 12181 91943 36/// /0909 10286 20198 30157 40159 51012 333 10287 58003
AAXX 12181 89062 42565 80204 10015 21030 39607 49646 57017 885// 333 83620 85640
AAXX 12184 83064 21598 21803 10302 20246 39800 40067 70365 81250 333 58016 60021
AAXX 12184 83235 32698 42702 10305 20213 39406 40066 84200 333 59006
AAXX 12184 83332 32698 50000 10293 20202 39168 40055 83240 333 58000
AAXX 12184 83423 32698 63602 10283 20198 39256 40057 84961 333 58026
AAXX 12184 83470 32698 60906 10290 20207 39215 40053 86100 333 58005
BBXX 41112 12181 99307 70813 46/// ///// 1//// 91751 22200 00162 11004 21004 313// 41101 70022
BBXX JGQH 12184 99242 11345 41/97 80522 10220 20211 40162 57010 78088 882// 22262 00246 1//// 20503 399// 4//04
BBXX JGQH 12184 99242 11345 41/97 80522 10220 20211 40162 57010 78088 882// 22262 00246 1//// 20503 399// 4//04
BBXX JPBN 12184 99292 11457 41/97 83507 10179 20126 40191 58012 70282 8527/ 22271 00227 1//03 20201 399// 4//02 70014
BBXX JPBN 12184 99292 11457 41/97 83507 10179 20126 40191 58012 70282 8527/ 22271 00227 1//03 20201 399// 4//02 70014
AAXX 12180 44214 32998 50000 11215 21266 38298 40458 52006 80007
AAXX 12180 44231 329// 00701 11223 21283 38766 40464 52016
AAXX 12180 44259 31997 12102 11244 21277 39278 40259 53001 70240 80004
AAXX 12180 44277 319// 02904 11158 21218 37791 40402 52011 70230 333 91112
AAXX 12180 44288 32999 23604 11153 21206 38144 40353 52018 80004
AAXX 12180 44292 32999 03101 11169 21195 38685 40308 52017
AAXX 12180 44304 329// 22303 11259 21284 38951 40300 52004 82040
AAXX 12180 44354 329// 30000 11214 21239 39058 40271 57013 80004
AAXX 12180 44373 32999 42903 11122 21198 38509 40277 51014 80004
AAXX 12181 29998 42999 01601 11278 21279 38686 48530 52024
AAXX 12181 30385 42999 20000 11318 21335 39687 40285 53006 82030
AAXX 12181 30469 429// 00000 11370 21393 39482 40357 53014
AAXX 12181 30636 429// 60000 11215 21215 39656 40315 52020 80001
AAXX 12181 30650 42984 30000 11290 21307 39109 40350 52006 80001
AAXX 12181 30664 42999 00000 11350 21368 39241 40369 52006
AAXX 12181 30781 42999 00000 11340 21362 39760 40328 52007
AAXX 12181 30777 42998 00000 11294 21311 39580 40308 54000
AAXX 12181 30844 41598 82906 11133 21146 39269 40288 52019 77177 83507
AAXX 12181 30925 429// 53601 11155 21168 39305 40333 52015 80005
AAXX 12181 31371 42999 00000 11287 21319 39959 40254 53005
AAXX 12181 31388 42984 00000 11320 21331 39946 40242 52004
AAXX 12181 31478 NIL
AAXX 12181 31532 42999 00000 11315 21332 39885 40273 52006
AAXX 12181 31594 42999 01302 11235 21260 30069 40255 53001
AAXX 12181 31655 42998 01806 11198 21239 30133 40184 52006 333 91012
AAXX 12181 31754 42999 03201 11247 21265 39685 40234 52009
BBXX 63110 12183 99595 10015 41/98 /2230 10069 20012 49848 70086 8//// 22200 10908 70038
BBXX 62029 12184 99487 70125 46/// /2228 10125 20104 49930 58018 22200 00136 10914 70069 333 90710 91135
BBXX 62163 12184 99475 70084 46/// /2334 10127 20107 40026 56036 22200 00133 11014 70072 333 90710 91147
BBXX 62001 12184 99452 70050 46/// /2325 10144 20093 40156 58018 22200 00151 11014 70068 333 90710 91134
BBXX 64046 12184 99605 70049 46/// /2514 10065 20018 49786 58006 22200 00094 10909 70045
BBXX 62301 12184 99524 70047 46/// /1829 10093 20078 49870 58094 22200 00101 10606 70029 333 90710 91141
BBXX 62442 12184 99490 70164 46/// /2632 1//// 2//// 49920 51003 22200 00130 333 90710 91144
BBXX 62303 12184 99516 70051 46/// /2033 10107 20093 49884 57095 22200 00118 10710 70050 333 90710 91149
BBXX 64045 12184 99591 70117 46/// /1127 10073 20025 49694 56078 22200 00102 10808 70042 333 90710 91136
BBXX 62105 12184 99554 70122 46/// /2428 10082 20035 49690 56021 22200 00107 10812 70059 333 90710 91144
BBXX 62081 12184 99510 70134 46/// ///// 10107 20075 49848 57004 22200 00118 10913 70064
BBXX AMOUK08 12184 99501 70061 46/// ///// 10122 20115 39921 49929 57080 91750
BBXX AMOUK10 12184 99508 70011 46/// ///// 10096 20066 30031 40032 57025 91750
BBXX AMOUK21 12184 99564 70055 46/// ///// 10043 20030 39803 49799 57062 91750
BBXX AMOUK27 12184 99579 70053 46/// ///// 1//// 2//// 39802 49802 57030 91750
BBXX AMOUK06 12184 99509 70014 46/// ///// 10094 20073 39996 40019 57025 91750
BBXX AMOUK13 12184 99519 10013 46/// ///// 10074 20040 30026 40026 57007 91750
BBXX AMOUK14 12184 99535 70054 46/// ///// 10105 20094 39770 49806 57136 91750
BBXX AMOUK19 12184 99571 70021 46/// ///// 10040 20010 39870 49873 57028 91750
BBXX PJAI 12184 99581 70014 47998 /2116 10069 21004 49861 57022 700// 22200
BBXX 62111 12184 99580 70003 46/// /2322 10066 20012 49879 58020 22200 10504 70022
BBXX 62142 12184 99530 10021 46998 /2122 10075 20033 40011 58022 22200 10403 70015
BBXX 62145 12184 99531 10028 47598 /2024 10080 20024 40020 58015 700// 22200 10504 70022
BBXX 63056 12184 99597 10016 47598 /2223 10069 20015 49848 51003 700// 22200 10707 70036
BBXX 62144 12184 99534 10017 47997 /2025 10070 20033 40002 58031 700// 22200 10403 70015
BBXX 63057 12184 99592 10015 47598 /2325 10067 20015 49862 58004 700// 22200 10707 70036
BBXX 62112 12184 99584 70002 47698 /2218 10065 20001 49867 58018 700// 22200
BBXX 63055 12184 99606 10016 47897 /2520 10067 20017 49834 56002 700// 22200 10706 70030
BBXX 63108 12184 99608 10017 47598 /2327 10061 20004 49829 53007 700// 22200 10806 70031
BBXX 63106 12184 99610 10017 46/// /2324 10072 49816 56002 22200
BBXX 63105 12184 99610 10017 47597 ///// 10068 20021 49816 56001 761// 22200
BBXX 63113 12184 99610 10017 46/// /2428 10064 20014 49833 51009 22200 10807 70035
BBXX 63112 12184 99611 10010 47/97 /2422 10086 20016 49806 58004 700// 22200 10707 70037
BBXX 63107 12184 99611 10017 46/// /2323 10072 49814 56003 22200
BBXX 63101 12184 99612 10009 46/// /2523 10065 20010 49806 56006 22200
BBXX 63103 12184 99612 10011 46/// /2525 10070 20006 49819 52005 22200 10807 70035
BBXX 63104 12184 99612 10016 47998 /2324 10067 20021 49812 55005 700// 22200
BBXX 63117 12184 99613 10011 47498 /2323 10165 20039 49810 56003 700// 22200
BBXX 63115 12184 99616 10013 47597 /2119 10115 20030 49799 57011 700// 22200 10907 70037
BBXX MWYG6 12184 99603 70040 47998 /2316 10070 700// 22200
BBXX 64041 12184 99607 70026 47498 /2320 10048 20045 49793 56005 700// 22200 11009 70045
BBXX 62140 12184 99573 10013 46/// /23// 10073 20025 49903 58009 22200
BBXX 62146 12184 99572 10021 47/98 /2322 10071 20011 49917 58011 700// 22200 10606 70029
BBXX 62164 12184 99572 10008 47598 /2024 10091 20041 49905 58016 700// 22200 00099 10606 70028
BBXX PJGO 12184 99571 10022 47598 /2123 10075 20031 49921 58005 700// 22200
BBXX 62133 12184 99571 10009 46/// /2020 10073 20008 49906 58010 22200
BBXX 62119 12184 99570 10019 47598 /2323 10075 20017 49920 58014 700// 22200 10606 70028
BBXX 62152 12184 99570 10018 47/97 /1915 10080 20027 49921 58015 700// 22200 10505 70026
BBXX 62154 12184 99564 10022 46/// /2220 10075 20025 49933 58011 22200
BBXX 62120 12184 99564 10021 47598 /2422 10077 20028 49929 58013 700// 22200
BBXX 62132 12184 99564 10020 46/// /2520 10077 20020 49934 58015 22200
BBXX 62123 12184 99563 10022 47598 /2222 10079 20029 49934 58012 700// 22200
BBXX 62165 12184 99540 10009 47997 /2226 10072 20031 49977 58032 700// 22200 10504 70018
BBXX 62127 12184 99540 10007 47998 ///// 10070 20032 49971 58032 700// 22200 10504 70018
BBXX 62131 12184 99539 10012 46/// /20// 10074 20038 49984 58023 22200
BBXX 62149 12184 99537 10011 47998 /2027 10072 20036 49986 58029 700// 22200 10503 70017
BBXX 62148 12184 99536 10015 46/// /2024 10070 20035 40002 58023 22200
BBXX 62150 12184 99536 10007 47998 /2027 10071 20035 49990 58031 700// 22200 10502 70012
BBXX 62121 12184 99535 10027 46/// /2224 10073 20022 40018 58009 22200
BBXX 62128 12184 99587 10014 47598 /2219 10066 20011 49873 58009 700// 22200 10706 70030
BBXX 62129 12184 99584 10003 46/// ///// 10067 20009 49875 58021 22200
BBXX 62113 12184 99584 10002 47599 /2218 10067 20009 49875 58019 700// 22200
BBXX ZQSD5 12184 99583 10007 46/// /2222 10071 20015 49879 58017 22200 10807 70036
BBXX 62114 12184 99583 10000 46/// /2119 10066 20002 49867 58019 22200
BBXX 62134 12184 99580 10014 47598 /2222 10072 20020 49885 58017 700// 22200 10606 70028
BBXX 62102 12184 99579 10018 46/// /2319 10072 20018 49892 58011 22200 10605 70027
BBXX 62117 12184 99579 10000 47698 /2220 10070 20019 49875 58018 700// 22200 10505 70023
BBXX 62143 12184 99577 10018 47598 /2312 10075 20021 49896 58017 700// 22200 10606 70028
BBXX 62118 12184 99577 10009 47598 /2125 10083 20022 49883 58017 700// 22200 10605 70026
BBXX 62155 12184 99577 10007 47598 /2323 10074 20024 49891 58019 751// 22200 10605 70026
BBXX 62116 12184 99576 10011 47598 /2318 10067 20020 49891 58015 761// 22200 10606 70031
BBXX 62104 12184 99574 10013 47598 /2321 10075 20025 49897 58014 762// 22200
BBXX 62153 12184 99573 10020 47598 /2225 10073 20027 49908 58009 700// 22200 10606 70029
BBXX 62122 12184 99573 10016 47598 /2122 10089 20024 49907 58018 700// 22200 10606 70028
BBXX AMOUK09 12184 99507 10008 46/// ///// 10107 20063 30048 40065 57004 91750
BBXX AMOUK05 12184 99537 70003 46/// ///// 10057 20030 39915 49957 57023 91750
BBXX AMOUK03 12184 99537 70003 46/// ///// 10059 20039 39926 49959 57019 91750
BBXX 62103 12184 99499 70029 46/97 /2136 10106 20076 40026 57052 22200 00129 10807 70033 333 90710 91152
BBXX 62081 12184 99510 70132 46/// ///// 10107 20075 49848 57004 22200 00118
BBXX 62094 12184 99517 70067 46/// /2226 10117 20106 49864 56066 22200 00113 10709 70045 333 90710 91142
BBXX 62170 12184 99514 10020 46/97 /2129 10095 20070 40056 58016 22200 00117 10601 70007 333 90710 91144
BBXX 62304 12184 99511 10018 46/96 /2128 10097 20060 40065 57017 22200 00119 10602 70010 333 90710 91144
BBXX 62305 12184 99504 10000 46/97 /2140 10105 20056 40067 58025 22200 00126 10704 70020 333 90710 91148
BBXX 62027 12184 99491 70022 46/// /2025 1//// 2//// 40063 58050 22200 00122 11805 323// 70026
BBXX 63119 12184 99583 10009 41/97 /2323 10070 20011 49867 56/// 700// 8//// 22200 2//// 323// 40505 5////
BBXX 62107 12184 99501 70061 46/// /2139 10120 20109 49927 56073 22200 00120 11012 70060 333 90710 91160
BBXX 62095 12184 99531 70159 46/// /2729 10076 20037 49782 55000 22200 00115 11016 70078 333 90710 91146
BBXX DMDZ 12183 99332 70110 41598 20512 10180 20131 40280 54000 7//00 82100 22253 04190 20501 333// 40704 5//// 80150
AAXX 12184 40582 32960 03210 10116 21030 40233 51008 333 55300 00000 10256 20000 30000 41031 51286 60000 55407 40000 90400 91013 91127 91217 91313
AAXX 12184 41150 NIL
AAXX 12184 41168 NIL
AAXX 12184 41170 41960 03008 10166 20121 30199 40212 70500 333 10205 58007
AAXX 12184 41176 NIL
AAXX 12184 41184 NIL
AAXX 12184 41194 NIL
AAXX 12184 41196 NIL
AAXX 12184 41198 NIL
AAXX 12184 41210 NIL
AAXX 12184 41216 NIL
AAXX 12184 41217 NIL
AAXX 12184 41218 NIL
AAXX 12184 41226 NIL
AAXX 12184 41244 NIL
AAXX 12184 41246 32960 02003 10215 20151 30167 40172 333 10257 58004
AAXX 12184 41254 NIL
AAXX 12184 41256 32970 22205 10218 20147 30165 40175 80001 333 10259 58004 82075
AAXX 12184 41258 NIL
AAXX 12184 41268 NIL
AAXX 12184 41312 36/// /3115 10239 20075 30129 40168 333 0E/// 10285 58000
AAXX 12184 41314 NIL
AAXX 12184 41316 32960 33317 10233 20057 30144 40170 80001 333 10285 58000 83075
AAXX 12184 41404 NIL
AAXX 12184 41407 NIL
AAXX 12184 41431 42960 00000 10250 20230 30122 40135 333 10298 58003
AAXX 12184 41466 42960 01804 10164 20085 38580 48482 333 10250 58000
AAXX 12184 41477 NIL
AAXX 12184 41480 42560 19902 10257 20174 30160 40163 81500 333 10290 58005 81620
BBXX 44033 12181 99441 70690 46/26 /2308 10077 40295 56021 91804 22200 00082 10602 70010 333 91210 555 11101 22107
BBXX 44034 12181 99441 70681 46/30 /2309 10081 40298 56016 91804 22200 00090 10604 70019 333 91211 555 11116 22123
BBXX 44060 12181 99413 70721 46/// ///05 10056 40343 91815 22200 00105 333 91206 555 11051 22051
BBXX 44022 12181 99409 70737 46/// ///03 10059 21069 40340 91815 22200 00092 333 91204 555 11026 22026
BBXX 46088 12181 99483 71232 46/// /3505 10039 40249 91820 22200 00079 1//00 70002 333 91206 555 11047 22048 31729 43108 61819 343045 331046 334051 330060 310057 313063
BBXX 51203 12181 99208 71570 46/// ///// 1//// 91813 22200 00246 11201 21001 322// 41201 70006
BBXX 52200 12181 99134 11448 46/// ///// 1//// 91815 22200 00288 10805 20805 308// 41101 70026
BBXX 51201 12181 99217 71581 46/// ///// 1//// 91812 22200 00242 11004 21004 333// 41201 70019
BBXX 51205 12181 99210 71564 46/// ///// 1//// 91818 22200 00241 11107 21005 310// 41104 70033
AAXX 12181 28383 32997 80502 11214 21233 30274 40368 52007 80007 333 11174
AAXX 12181 23929 32977 31402 11166 21185 30211 40283 57003 80001 333 11129
AAXX 12181 38388 NIL
AAXX 12181 38392 32797 71903 11005 21050 30231 40338 52008 87500 333 10041 87656
AAXX 12181 38507 32696 61405 10068 20022 30198 40302 52010 86500 333 10081 86634
AAXX 12181 38511 32998 71103 10040 20030 30165 40310 52014 87050 333 10073
AAXX 12181 38545 22598 71501 10008 21038 30169 40350 52006 84550 333 69900 10013
AAXX 12181 38647 32997 00906 10035 20003 30254 40297 52005 333 10094
AAXX 12181 38656 32998 50903 10012 21015 30214 40327 52001 80002 333 10068
AAXX 12181 38687 22696 71401 10009 21008 30118 40362 58002 87500 333 69930 10007
AAXX 12181 38750 32997 23602 10063 20019 30321 40292 52005 80001 333 10126
AAXX 12181 38763 32997 30906 10035 20000 30192 40300 58001 80001 333 10089
AAXX 12181 38774 32995 00000 10010 21001 30121 40323 52002 333 10085
AAXX 12181 38799 32997 00901 11014 21022 30114 40358 52003 333 10038
AAXX 12181 38806 32597 71401 10022 20003 30090 40360 58003 87900 333 10021
AAXX 12181 38880 32997 60401 10007 21013 30057 40322 58001 84031 333 10078
AAXX 12181 38886 32997 21303 10042 20008 30095 40329 58005 80001 333 10073
AAXX 12181 38895 32996 71202 10010 21004 30049 40350 58003 87500 333 10070
AAXX 12181 38911 21697 83101 10035 20009 30055 40359 58004 70262 885// 333 69900 10028
AAXX 12181 38915 32997 01203 10026 21010 30032 40369 58002 333 10048
AAXX 12181 38974 32998 01102 10014 20000 39982 40329 58005 333 10065
AAXX 12181 38987 32596 70000 10014 20009 39573 40343 58007 87500 333 10050
AAXX 12181 28586 32997 80901 11204 21223 30184 40347 52003 80005 333 11167
AAXX 12181 28465 32998 00000 11222 21240 30239 40324 54000 333 11152
AAXX 12181 22282 115// 72110 11009 21028 30007 40015 52005 69940 73632 87500 333 11005
AAXX 12181 28696 11997 80301 11195 21214 30199 40353 52001 69900 70272 8802/ 333 11181
AAXX 12181 22165 11598 72405 11012 21041 39942 40003 52009 69990 70282 87530 333 11003
AAXX 12181 38847 3//// /3000 11002 21011 39570 40360 333 10018 777 92093
AAXX 12181 28688 12997 00000 11241 21260 30166 40344 57005 69900 333 11174
AAXX 12181 28588 32997 50901 11225 21243 30173 40349 52002 80009 333 11169
AAXX 12181 28791 12998 00802 11244 21262 30189 40351 52001 69900 333 11183
AAXX 12184 60623 36/// /0000 10170 21126 333 10238
AAXX 12184 60393 16/// /1501 10143 20097 60012 333 10177
BBXX ONFP 12184 99379 30250 43596 42113 10230 2019/ 40080 55010 70111 84182 22223 04184 20704 30808 40806 50806 6//// 80200 ICE /////
BBXX UCKZ 12181 99449 30193 41597 80307 10114 20106 40073 56006 71582 8637/ 22243 00104 20402 30521 41005 50904
BBXX PBLQ 12183 99046 10028 41996 03604 10300 20235 40100 50020 71022 80000 22200 04292 20000 30000 80255
BBXX VRWV4 12183 99005 10077 41498 61420 10270 2024/ 40140 54/// 70311 86/1/ 22233 00300 20201 3//// 4//// 5//// 6//// 80250 ICE /////
BBXX PHQW 12183 99002 10094 41/// /0000 10265 20230 40091 52011 7//11 8//// 22200 00282 2//// 80240 90265
BBXX NWS0029 12184 99159 70255 43/// /0621 10247 20180 40135 5//// 7//// 8//// 222// 04252 2//// 3//// 4//// 5//// 6//// 8//// ICE /////
BBXX PGQI 12183 99277 70260 41597 40721 10221 20150 40254 56003 70200 82160 22254 20503 335// 41405 80176
BBXX PCIH 12183 99262 70157 41497 50521 10202 20151 40210 53010 70211 22214 00210 20405 30305 40605 50806 80170
BBXX PJHA 12184 99105 30110 41697 31711 10212 20212 40124 54000 7//// 8146/ 22283 06223 20200 31817 41003 50803 80212
BBXX DFNB2 12183 99123 10465 41998 01220 10250 20207 40150 51020 70200 80000 22224 00250 20602 80220
BBXX DGZL 12183 99127 10583 41398 60334 10270 20231 40125 56015 76082 85792 22264 00270 2//// 311// 41206 80242
BBXX OZDM2 12184 99402 70101 41597 82315 10158 20090 40243 50/// 70222 888// 22244 04170 20804 329// 41210 80120
BBXX DDSC2 12183 99481 70066 41596 82343 10135 20109 40015 57180 76465 887// 22214 00127 20610 80120
AAXX 12180 44203 329// 10000 11316 21338 38445 40522 52012 80001
AAXX 12180 44207 329// 11802 11263 21301 38337 40457 52021 81040
AAXX 12180 44212 32999 61802 11276 21299 39233 40506 52010 82017
AAXX 12180 44213 32999 50000 11263 21289 38859 40506 52008 85050
AAXX 12180 44215 32998 00000 11300 21323 38449 40516 52008
AAXX 12180 44218 329// 00000 11227 21252 38653 40450 52004
AAXX 12180 44225 329// 00000 11396 21405 38319 40660 53008
AAXX 12180 44230 329// 30104 11213 21236 38830 40443 52019 83040
AAXX 12180 44232 329// 60000 11234 21258 39163 40413 52024 86050 555 99601
AAXX 12180 44237 NIL
AAXX 12180 44239 329// 83403 11132 21175 38820 40317 53018 8802/ 555 99605
AAXX 12180 44241 419// 00000 11206 21225 39295 40364 52042 70272
AAXX 12180 44256 32999 40000 11282 21300 39335 40295 51005 82076
AAXX 12180 44265 329// 20000 11221 21247 38869 40400 53002 80004
AAXX 12180 44272 329// 00000 11302 21332 38238 40491 52007
AAXX 12180 44275 329// 20000 11262 21287 37699 40437 53007 80004
AAXX 12180 44282 NIL
AAXX 12180 44284 328// 32001 11300 21332 37822 40529 51005 82044
AAXX 12180 44285 32799 20000 11199 21215 38318 40391 52017 82080
AAXX 12180 44287 32899 20304 11193 21252 38086 40381 52005 82040
AAXX 12180 44294 329// 00102 11234 21260 38522 40361 53013
AAXX 12180 44298 318// 53206 11263 21268 38654 40303 57005 70242 85040
AAXX 12180 44302 329// 22703 11241 21266 39078 40303 51003 80001
AAXX 12180 44305 329// 83203 11195 21217 39004 40243 56009 8807/
AAXX 12180 44313 32999 32303 11200 21241 39373 40275 57006 83040
AAXX 12180 44314 32998 72704 11142 2//// 39092 40233 57012 87040
AAXX 12180 44317 32998 82703 11088 21137 38894 40210 57014 88070
AAXX 12180 44336 329// 03603 11207 21232 38681 40353 52025
AAXX 12180 44341 319// 23511 11164 21192 38550 40290 53001 73630 80004 333 91115
AAXX 12180 44347 32999 63206 11160 21194 38682 40287 53014 80008
AAXX 12180 44352 32999 42504 11159 21186 38862 40231 57012 84040
AAXX 12180 44358 329// 30902 11204 21210 39062 40301 57008 80004
BBXX 7JJA 12184 99201 11222 41596 80438 00 10240 20226 40125 57005 70522 886// 9//// 22212 0 2//10 302 4//10 5 6//// 80230 IC E/////
BBXX PCCL 12183 99268 11534 41/98 32215 10221 40032 54000 70200 822/8 22273 04245 2////
BBXX SHIP 12184 99327 11442 41397 62717 10185 20127 40181 55005 70311 85440 22273 06218 20303 329// 40606 80150
BBXX SHIP 12184 99230 11797 41/97 21112 10252 20191 40180 55001 70200 8//// 22223 04257
BBXX 7JKC 12184 99076 11201 41697 30104 00 10280 2//// 40050 56010 74030 83209 9//// 22283 00300 1//// 20401 318// 40501 5//// 6//// 80260 /////
BBXX /0P/// 12184 99482 11582 41/95 82616 11020 21036 49990 58010 77322 8//// 22214 00040 2//// 82025
BBXX SHIP 12184 99321 11402 41/97 32717 10174 40191 57008 70111 8//// 9//// 22283 00223
BBXX DDYL2 12183 99290 11225 41/98 /3422 10105 20070 40248 57012 70500 8//// 22244 00170 2//// 80087
BBXX A8PX5 12184 99389 11365 415// 53117 10070 20026 40260 52/// 70322 854/3 22254 04150 20404 326// 40605 5//// 80050
BBXX SHIP 12184 99229 11238 41297 80319 10210 20195 40160 50005 72152 87/// 22213 00251 80200
BBXX SHIP 12184 99248 11346 41297 60428 00/// 10210 20195 40167 54000 70222 866/3 9//// 22283 00283 2//// 302// 4//08 5//// 6//// 80200 THNKS/B.REGARDS MASTER PACIFIC GLORY INM C - 443272110
AAXX 12181 44214 32998 50000 11215 21266 38298 40458 52006 80007
AAXX 12181 44231 329// 00701 11223 21283 38766 40464 52016
AAXX 12181 44259 31997 12102 11244 21277 39278 40259 53001 70240 80004
AAXX 12181 44277 319// 02904 11158 21218 37791 40402 52011 70230 333 91112
AAXX 12181 44288 32999 23604 11153 21206 38144 40353 52018 80004
AAXX 12181 44292 32999 03101 11169 21195 38685 40308 52017
AAXX 12181 44304 329// 22303 11259 21284 38951 40300 52004 82040
AAXX 12181 44354 329// 30000 11214 21239 39058 40271 57013 80004
AAXX 12181 44373 32999 42903 11122 21198 38509 40277 51014 80004
BBXX MNDC9 12184 99362 31216 41398 81021 10160 40165 55015 70222 887// 22224 04183 2//// 323// 41209
BBXX ONFE 12184 99089 11098 41396 83538 10235 2022/ 40100 58010 70222 887// 22213 00260 2//// 3//// 4//// 5//// 6//// 80225 ICE /////
BBXX A8NO8 12184 99059 10875 41/98 40714 10260 20232 40105 51015 7//00 8/3/6 22265 04310 20504 30000 80240
BBXX C6YA7 12184 99240 11626 41698 20705 10205 2018/ 40165 54000 70200 821// 22253 00270 2//// 3//// 4//// 5//// 6//// 80185 ICE /////
BBXX AUTV 12184 99176 10715 41698 50613 10260 20202 40117 55009 70001 82008 22233
BBXX A8IE7 12184 99058 10969 41497 32910 10240 20211 40105 51025 71322 832// 22264 04287 299// 30000 80220
BBXX KAOU 12184 99078 10984 43/// /0210 10259 20211 40106 5//// 7//// 8//// 222// 04302 2//// 3//// 4//// 5//// 6//// 8//// ICE /////
BBXX PHKL 12181 99066 10771 41/97 /0514 10265 20249 40101 50015 76162 8//// 22264 00284 2//// 3//// 4//// 5//// 80253
BBXX DGBE 12183 99323 11330 41/97 /3415 10125 20068 40240 52010 70311 8//// 22254 00240 2//// 80095
BBXX PHPP 12184 99057 10795 41397 80110 10224 20198 40106 51015 76166 887// 22222 00300 2//02 315// 40902 80206
BBXX DPCK 12183 99116 11096 41397 83645 10220 20206 40090 54000 70222 887// 22281 00240 20816 302// 40712 5//// 80210
BBXX VNVZ 12184 99080 11288 41498 50711 10280 20273 40073 54000 72189 8//// 22243 00295 2//// 3//// 4//// 5//// 80275
BBXX MIBR 12183 99220 11142 41997 00208 10166 20075 40195 54000 70200 80000 22200 00197 2//// 3//// 4//// 5//// 80120
BBXX DMRX 12184 99490 11715 41598 33015 11003 21062 49906 58010 70170 82425 22224 00060 20102 32333 40508 50608 81023
BBXX MGPU2 12183 99416 11338 41/98 43232 11020 40314 52/// 70200 8/1// 22231 00020 2//// 327// 40506 5////
BBXX DGDD 12181 99344 11539 41/98 32915 10180 20070 40155 54000 70200 8//// 22264 00200 2//// 3//// 4//// 5//// 80120
BBXX DFFA2 12183 99129 50791 41698 81208 10250 20166 40135 57010 70322 8147/ 22284 00210 2//// 321// 41001 5//// 80195
BBXX DFCW2 12183 99328 50737 41598 22130 10197 20133 40145 50000 70200 81105 22284 04161 20507 321// 41008 5//// 80158
BBXX A8OK7 12184 99043 70503 41498 20916 10293 20246 40092 57008 70211 8/16/ 22233 20503 307// 4//02 5//// 80258
BBXX VK4041 12180 99037 50925 41597 71604 10224 20206 40132 50016 71585 8384/ 22251 02228 20201 318// 40706 5//// 80212
BBXX SHIP 12184 99126 31104 41498 62106 10270 20243 40086 57005 70122 8532/ 22214 00292 80250
BBXX S6CW 12183 99021 11481 41/98 40000 10272 20231 40065 56014 70200 8216/ 22274 00300 2//// 30000 80244
BBXX SHIP 12184 99339 71473 41597 61719 10170 20155 40265 56022 70102 86/4/ 91755 22264 00190 20200 330// 40401 5//// 80160
BBXX DGHX 12183 99470 71289 41498 63012 10080 20013 40245 57005 70211 85461 22254 00100 20801 330// 40804 80050
BBXX 44255 12181 99473 70573 46/// ///// 1//// 4//// 5//// 22200 0//// 1//// 70/// 333 912//
BBXX A8LL8 12184 99273 70543 41698 51031 10275 20241 40185 57005 70111 85149 22214 21010 322// 40910 80250
BBXX WBN7618 12184 99304 70811 41/// /0223 10172 2//// 40280 5//// 7//// 8//// 22252 0//// 20505 30505 40504 50404 6//// 8//// ICE /////
BBXX WKAB 12183 99405 70685 41398 51509 10085 20055 40347 57020 7//22 85498 22225 00111 21002 314// 41002 5//// 6//// 80070 ICE /////
BBXX KIYI 12184 99572 71476 41498 42627 10040 2001/ 40030 52060 7//21 844// 22234 0//// 20104 322// 41007 5//// 6//// 80027 ICE /////
BBXX 46111 12181 99481 71227 46/// /0802 10038 40251 52008 91800 22200 00059
BBXX 46112 12181 99481 71227 46/// /0402 10036 40253 53009 91800
BBXX 41037 12181 99340 70775 46/// /0409 10145 40252 58015 91800 22200 00166 333 91212
BBXX A8TG2 12183 99226 71109 41698 52410 10210 20160 40140 54000 70222 83462 22234 20204 325// 40204 5//// 80180
BBXX 42085 12181 99179 70665 46/// /1303 10283 40113 91740 333 91204
BBXX 42085 12181 99179 70665 46/// /1404 10287 40112 91750 333 91205
BBXX 42085 12181 99179 70665 46/// /1304 10287 40110 91800 22200 00287 10901 70004 333 91205
BBXX 41052 12181 99183 70648 46/// /0803 10274 40111 91740 333 91203
BBXX 41052 12181 99183 70648 46/// /0803 10272 40111 91750 333 91204
BBXX 41052 12181 99183 70648 46/// /0802 10273 40111 58018 91800 22200 00286 333 91203
BBXX 44150 12181 99425 70640 46/// /2607 10069 40349 57023 22200 00099 10402 70011 333 91208
BBXX SBLI 12181 99301 71298 43/98 83510 10137 40193 51028 22254 00176 2//// 4//// NNNN 426621110
BBXX 44139 12181 99442 70571 46/// /2510 10042 40349 57020 22200 00087 10603 70017 333 91212
BBXX C6VR4 12183 99222 70544 41298 71125 10275 20224 40154 50015 70222 86776 22224 04264 20908 309// 41207 5//// 80240
BBXX C6KD9 12180 99277 70497 41597 61308 10250 20204 40232 57028 70322 86594 22254 02248 20803 313// 40804 5//// 80220
BBXX WJBJ 12183 99289 70789 41398 60926 10230 2019/ 40213 57017 70222 861// 22273 00243 20605 309// 40807 5//// 6//// 80200 ICE /////
BBXX WFLH 12183 99277 71370 43498 70317 10189 20065 40259 54/// 7//// 878// 22254 00189 20702 332// 41204 5//// 6//// 80122 ICE /////
BBXX SHIP 12184 99419 71611 41598 81521 10100 20026 40205 56034 70322 831// 22223 00140 20505 330// 41206 80070
BBXX WHRN 12183 99296 71358 41798 60318 10161 2011/ 40240 52004 70222 8614/ 22265 00194 20503 301// 41005 5//// 6//// 80133 ICE /////
BBXX 9HA2064 12183 99366 71362 41797 30510 10140 20105 40280 54000 7//00 83135 22224 0//// 2//// 399// 4//// 5//// 6//// 80120 ICE /////
BBXX A8SI3 12183 99503 71311 43/96 82020 10065 2006/ 40250 54/// 22234 00070 20604 327// 40703 80060
BBXX WKAP 12184 99377 70714 41198 50619 10158 2013/ 40309 56010 70262 85489 22214 00180 20201 30706 40804 50503 6//// 80140 ICE /////
BBXX WFLG 12184 99291 71376 41498 80621 10167 20108 40261 52003 70222 878/1 22213 00178 20406 305// 40509 5//// 6//// 80133 ICE /////
BBXX WDE9193 12183 99209 70750 41797 30809 10275 2023/ 40131 57016 70200 822/2 22232 0//// 20302 307// 40603 5//// 6//// 80240 ICE /////
BBXX 46042 12181 99368 71224 46/// /0904 10101 40072 54000 91750 22200 00115 11505 20401 328// 41505 70026 333 91205 555 11046 22048 31727 41106 61749 093044 097046 099046 106043 104037 099031
BBXX 46089 12181 99459 71258 46/// /0604 10072 20025 40238 54000 91750 22200 00096 11204 20401 329// 41204 70022 333 91205 555 11037 22038 31650 40605 61749 061036 050036 053034 052036 058040 051039
BBXX 44008 12181 99405 70692 46/// /1506 10113 20064 40333 56028 91750 22200 00126 10701 20501 309// 40701 70006 333 91207 555 11062 22065 31728 41407 61749 147059 141058 144059 143054 120040 056043
BBXX SHIP 12184 99126 31104 41498 62106 10270 20243 40086 57005 70122 8532/ 22214 00292 80250
BBXX S6CW 12183 99021 11481 41/98 40000 10272 20231 40065 56014 70200 8216/ 22274 00300 2//// 30000 80244
AAXX 12184 63705 32556 20503 10226 20167 38837 48493 82901 333 10256 58000 81623 81925 555 10185
BBXX WBS5272 12184 99453 70856 41/97 72327 10066 2//// 40301 57003 70222 8//// 22252 0//// 20302 3//// 4//// 5//// 6//// 8//// ICE /////
BBXX 44039 12181 99411 70727 46/// /2405 10060 21021 40352 57017 91800 22200 00106 10301 70004 333 91207
BBXX 44060 12181 99413 70721 46/// ///05 10056 40344 56017 91800 22200 00102 333 91206 555 11051 22051
BBXX 44022 12181 99409 70737 46/// ///03 10056 21070 40342 56015 91800 22200 00092 333 91205 555 11031 22031
BBXX 44097 12181 99410 70711 46/// ///// 1//// 91802 22200 00127 10801 20801 70005
BBXX 44172 12181 99445 70634 46/// ///// 1//// 91801 22200 00071 10603 20603 70015
BBXX 46083 12181 99582 71380 46/// /2511 10054 20011 40049 53004 91750 22200 00062 11515 20907 300// 41513 70074 333 91215 555 11121 22129 31739 42517 61749 253114 251118 250111 246120 240127 247113 82414 91702
BBXX 41041 12181 99142 70460 46/// /1008 10258 20216 40126 58016 91750 22200 00268 11007 20604 3//// 41005 70034 333 91210 555 11082 22088 31705 41014 61749 095078 100079 109091 098109 093100 100079 81012 91705
BBXX NWS0003 12184 99617 71674 43/// /2313 11013 21031 49939 5//// 7//// 8//// 222// 05016 2//// 3//// 4//// 5//// 6//// 8//// ICE /////
BBXX C6TQ6 12184 99248 70876 41797 30421 10250 20222 40210 54000 70211 83135 22235 00260 20302 30406 40304 50302 6//// 80230 ICE /////
BBXX KEY796 12183 99571 71703 41/97 11911 10022 21017 40000 53/// 702// 8//// 222// 00028 2//// 3//// 4//// 5//// 6//// 8//// ICE /////
BBXX DHEE 12183 99445 70575 41598 72526 10040 21026 40310 58040 70211 8689/ 22264 00070 20904 328// 41104 80014
BBXX PDNN 12183 99409 70673 41998 41510 10105 20029 40340 57011 70211 83045 22223 02170 20201 30000 80069 90264
BBXX PHIN 12184 99472 70492 41698 72928 11019 21027 40268 57016 70211 8645/ 22223 00030 20506 331// 40705 81022
BBXX 2AKI3 12183 99137 70695 41/98 20615 10300 20240 40111 58016 70200 81148 22265 00286 29901 30600 40801 5//// 80258
BBXX DDSB2 12183 99057 70800 41/97 82615 10245 20217 40121 58007 75865 8//// 22284 20203 399// 40304 80225
BBXX ZCDF4 12183 99089 70795 41598 62708 10272 20248 40125 51020 78081 83894 22200 00270 20201 315// 40302 5//// 80255
BBXX H9UY 12184 99165 71166 41898 30707 00/// 10240 40167 51/// 70200 82232 9//// 22273 04260 20201 332// 40302 5//// 6//// 80200
AAXX 12181 21432 42998 02202 11331 21367 30288 40310 53005
AAXX 12181 21824 41997 80000 11254 21265 30298 40308 52005 77873 82037
AAXX 12181 21908 42999 20000 11400 21421 30275 40368 58008 80002
AAXX 12181 21921 NIL
AAXX 12181 21931 41997 82302 11282 21313 30256 40291 53004 77172 8805/
AAXX 12181 21946 41596 83407 11286 21310 30141 40227 52014 77173 8253/
AAXX 12181 21982 11/93 90611 11139 21152 39982 40009 52030 60022 73973 333 21139 49021 91117 92992
AAXX 12181 25062 11996 80809 11102 21108 39970 49974 52033 60022 73832 8802/ 333 21111 48043 91111
AAXX 12181 25123 41996 83604 11176 21217 39979 40013 52017 77173 8802/ 333 91110
AAXX 12181 25138 41599 82002 11205 21224 39874 49996 53026 70242 8552/ 333 91105
AAXX 12181 25173 11395 83105 11076 21081 39934 49938 52029 60012 77373 8872/ 333 21098 48077 91113
AAXX 12181 25248 42598 81101 11210 21243 39511 49977 52018 8253/ 333 91103
AAXX 12181 25282 12980 80503 11057 21068 39900 49906 52031 69930 8803/ 333 21060 48011 91106
AAXX 12181 25325 NIL
AAXX 12181 25356 NIL
AAXX 12181 25399 11468 71503 11018 21032 39878 49887 52019 60010 70282 86801 333 21032 48038 55000 91106
AAXX 12181 25428 41966 70000 11279 21303 39639 49994 52018 77172 80006 333 91100
AAXX 12181 25551 11996 83606 11082 21092 39824 49855 52019 60030 77173 8802/ 333 21135 47037 55000 91110
AAXX 12181 25563 11584 70809 11036 21072 39747 49823 52025 69902 70232 87900 333 21043 48034 55000 91115
AAXX 12181 25594 11496 81702 11033 21033 39833 49883 52033 69982 77172 885// 333 21039 49033 91105
AAXX 12181 25677 31598 62403 11071 21100 39824 49830 52037 70232 84530 333 21086 84630 91107
AAXX 12181 31054 42999 60000 11434 21461 39914 40231 53004 80006
AAXX 12181 31123 42998 63201 11360 21390 39857 40226 53007 80006
AAXX 12180 44210 32999 60000 11247 21252 38570 51008 83078
AAXX 12180 44216 32599 33602 11293 21317 39077 40488 58007 83500
AAXX 12180 44217 32998 60000 11225 21233 37860 40457 53004 82047
AAXX 12180 44219 329// 01402 11278 21296 38670 40497 51004
AAXX 12180 44221 329// 70000 11255 21276 38651 40494 52010 87010
AAXX 12180 44224 319// 60000 11355 21377 38070 40596 52005 77810 86070
AAXX 12180 44229 NIL
AAXX 12180 44242 419// 31404 11221 21238 39371 40377 52018 70171 83050
AAXX 12180 44243 329// 50702 11263 21291 39466 40396 52021 85040
AAXX 12180 44254 329// 72502 11188 21211 39005 40257 51006 87070
AAXX 12180 44257 329// 70000 11210 21259 38950 40300 51005 87010
AAXX 12180 44263 32998 00000 11240 21287 38088 40512 52002
AAXX 12180 44266 329// 23602 11192 21270 37765 40383 52007 80004
AAXX 12180 44286 416// 61601 11173 21192 38649 40346 52020 70272 86500
AAXX 12180 44291 418// 23607 11154 21178 38719 40319 52015 82040
AAXX 12180 44325 329// 00902 11235 21253 38850 40376 58013
AAXX 12180 44329 328// 23603 11140 21222 37743 40314 51002 81041
AAXX 12180 44338 32999 10000 11161 21203 38448 40307 53022 80004
AAXX 12180 44348 329// 23205 11146 21159 38633 40234 58007 80004
AAXX 12180 44374 32999 22703 11103 21208 38234 40302 51006 80004
AAXX 12180 44385 32999 52306 11102 21175 38883 40242 54000 84050
AAXX 12180 44386 329// 63204 11126 21169 39007 40243 57018 86010
BBXX SBLW 12183 99376 70286 43/98 42618 10179 40270 55004 22254 00192 2//// 4////
BBXX SKWI 12184 99427 70133 43/98 82434 10150 40179 56007 22253 00170 2//// 4////
BBXX 9VBM6 12183 99429 70098 41797 62124 10170 20119 40240 54/// 7//22 8597/ 22283 04190 20706 3//// 40708 50706 6//// 80140 ICE /////
BBXX PEBT 12183 99365 10140 41498 32816 10185 20148 40195 54000 7//00 83400 22263 02168 20402 3//// 4//// 5//// 80162
BBXX 62087 12181 99547 10068 46/// /0704 10075 20041 4//// 5//// 22230 00085
BBXX 62023 12183 99514 70079 46/96 /2233 10110 2//// 49889 5//// 22200 10709 70044 333 91138 555 70067 80019
BBXX C6XC6 12184 99315 70254 41698 40612 10215 2//// 40280 54000 7//11 83880 22264 0//// 2//// 334// 41203 5//// 6//// 8//// ICE /////
BBXX LF4H 12184 99596 10022 46/// /2319 10069 20014 49858 54000 8//// 22200 06090 10707 70033 333 91129
BBXX UCSJ 12181 99690 10418 41/97 93407 11023 49992 51010 70280 89/// 22241 20302
BBXX UFJN 12181 99711 10339 41/98 30206 11020 49999 52020 70221 8325/ 22200 0//// 20301
BBXX DGWD2 12183 99374 10109 41/98 32815 10176 20145 40199 53002 70011 8//// 22224 00180 2//// 80157
BBXX VRGJ6 12183 99363 70080 41598 63010 10168 20121 40277 57010 70222 86800 22234 04181 20101 330// 40402 5//// 80142
BBXX PDHW 12183 99536 10057 41/99 /2327 10078 20028 40031 51030 70200 8//// 22223 00090 2//// 80055
BBXX UCKG 12181 99644 10048 41/98 91104 10070 49831 57027 70222 22213 00090 20202 32800 40404
BBXX UGGA 12181 99691 10409 41/98 92407 11010 49993 52010 70222 89/// 22271 20302
BBXX PBFM 12183 99425 70138 41297 72516 10155 20130 40190 57002 70222 8777/ 22264 20505 329// 41009 80140
BBXX VNSZ 12184 99409 31462 46/// /2229 10122 20049 30057 40084 57003 22235 04158 85085
BBXX ZMIQ 12183 99396 31777 41497 80620 10165 20151 40224 56007 72522 8587/ 22253 00171 20402 306// 40603 80157
BBXX 9KWP 12183 99030 30880 41698 52310 10290 20248 40099 54000 70222 83244 22274 00300 20501 323// 40502 80260
BBXX 9VVN8 12183 99002 31735 41498 40309 10272 20242 40088 54000 70211 84261 22273 02290 20301 80251
BBXX C6HS4 12183 99225 31019 41497 51418 10225 20191 40136 50/// 7//22 831/7 22233 20805 80202
BBXX VRAE3 12184 99105 31180 41497 31113 10285 20248 40098 53003 70303 8577/ 22234 00300 2//// 3//// 4//// 5//// 80259
BBXX VRZN7 12184 99117 51771 415// 83415 10270 2023/ 40100 52000 7//22 8874/ 22253 04320 20410 335// 4//// 5//// 85240
BBXX A8HJ8 12183 99012 11034 41/96 /0305 10256 20238 40104 54000 70222 8//// 22200 20301 30000 80243
BBXX C6TH9 12183 99185 51544 41698 31206 10270 2023/ 40170 50010 70210 82188 22253 00260 20202 319// 40303 5//// 6//// 80240 ICE /////
BBXX A8RL3 12181 99091 30808 41492 19902 10270 40090 52020 70200 811// 22213 00290 2//00 3//// 4//03 5////
BBXX MGRH9 12183 99327 31697 41493 60213 10206 20203 40115 57008 74242 82679 22273 00185 20101 311// 40603 5//// 80204
BBXX PCDE 12183 99399 30858 41597 43503 10140 20105 40200 52010 7//// 813// 22223 20402 80120
AAXX 12184 86330 32598 52118 10310 20126 40081 56004 81236
AAXX 12184 86360 32697 31815 10294 20092 40103 57014 81175
AAXX 12184 86460 32598 12118 10264 20067 40100 58003 81105
AAXX 12184 86490 32997 12108 10258 20145 40121 57010 80005
AAXX 12184 86530 42697 32214 10248 20067 40110 54000 82105
AAXX 12184 86545 32597 42213 10226 20111 40111 57004 84200
AAXX 12184 86565 32598 52414 10216 20129 40088 52003 85200
AAXX 12184 86580 43597 32316 10210 20117 40106 54000 83400
BBXX 46042 12181 99368 71224 46/// /0904 10101 40072 54000 91750 22200 00115 11505 20401 328// 41505 70026 333 91205 555 11046 22048 31727 41106 61749 093044 097046 099046 106043 104037 099031
BBXX 46207 12181 99509 71299 46/// /1909 10069 40212 57018 22200 00085 10903 70013 333 91211
BBXX 4XFX 12184 99408 71299 41498 60340 00/// 10105 20040 40220 52030 70707 8529/ 22274 04135 20513 300// 40513 5//// 6//// 80075 ICE /////
BBXX 9HA2064 12183 99366 71362 41797 30510 10140 20105 40280 54000 7//00 83135 22224 0//// 2//// 399// 4//// 5//// 6//// 80120 ICE /////
BBXX A8JX9 12183 99355 71225 41396 83210 10130 20130 40070 56010 76122 8646/ 22274 20301 333 // 41005 5//// 80130
BBXX DGHX 12183 99470 71289 41498 63012 10080 20013 40245 57005 70211 85461 22254 00100 20801 330// 40804 80050
BBXX KIYI 12184 99572 71476 41498 42627 10040 20010 40030 52060 7//21 844// 22234 0//// 20104 322// 41007 5//// 6//// 80027 ICE /////
BBXX SBLI 12181 99301 71298 43/98 83510 10137 40193 51028 22254 00176 2//// 4////
BBXX SHIP 12184 99339 71473 41597 61719 10170 20155 40265 56022 70102 86/4/ 91755 22264 00190 20200 330// 40401 5//// 80160
BBXX WCX8884 12184 99361 71230 41091 70302 10100 20060 40080 54005 78066 879// 22235 00060 20408 3//// 40408 5//// 6//// 80080 ICE /////
BBXX WDC3786 12184 99307 71230 41498 43325 10139 20090 40126 54000 7//00 842/8 22224 00200 20303 333 // 40605 5//// 6//// 80110 ICE /////
BBXX WSRL 12184 99460 71252 41498 31713 10060 20020 40225 58005 7//00 811/1 22245 00083 2//// 330// 40806 5//// 6//// 80040 ICE /////
AAXX 12184 61600 32960 73606 10287 20144 30106 40111 82082 333 10342 58009 82363 86073
AAXX 12184 61612 32958 60000 10310 20041 30106 40114 80002 333 10330 58012 86073
AAXX 12184 61627 31945 60604 10330 20050 3//// 4//// 7061/ 80002 333 10363 5//// 86073
AAXX 12184 61630 32958 71004 10320 20105 30088 40107 80002 333 10360 58010 87073
AAXX 12184 61641 32956 43407 10258 20208 30079 40112 80002 333 10301 58009 84073
AAXX 12184 61666 32962 70000 10340 20137 30084 40092 80002 333 10377 58011 87073
AAXX 12184 61679 32960 50806 10343 20141 30093 40101 82032 333 10375 58011 82363 83073
AAXX 12184 61687 31956 61202 10338 20112 30040 40097 70511 80002 333 10366 58016 86073
AAXX 12184 61695 31940 70402 10312 20174 30081 40107 70622 80002 333 10341 58019 87073
AAXX 12184 61697 31956 32402 10280 20221 30088 40102 70600 80002 333 10310 58012 83073
AAXX 12184 61698 32960 70000 10312 20179 30089 40090 86032 333 10360 58011 86363 86073
AAXX 12184 61699 32958 51004 10330 20110 39894 40082 80002 333 10355 58013 85073
AAXX 12181 14216 11458 83301 10118 20107 39967 40117 56/// 69922 761// 8472/ 333 10126 923// 924/6
AAXX 12181 14219 11240 72001 10063 20061 39114 48435 56/// 60062 76066 87700 333 10084
AAXX 12181 14232 11420 83401 10073 20065 39992 40128 54/// 60032 76162 8372/ 333 10089
AAXX 12181 14234 11440 81901 10068 20060 39883 40129 56/// 69912 761// 887// 333 10077
AAXX 12181 14236 11550 80601 10084 20070 39923 40120 54/// 60022 763// 8802/ 333 10090
AAXX 12181 14244 11456 82802 10073 20067 39999 40128 55/// 69912 760// 8672/ 333 10081
AAXX 12181 14248 11930 83402 10065 20059 39955 40129 54/// 69902 76062 8802/ 333 10076
AAXX 12181 14253 11640 71401 10082 20072 39950 40123 56/// 60002 71022 87500 333 10095
AAXX 12181 14256 11540 81901 10095 20085 39805 40120 57006 69952 760// 8672/ 333 10095
AAXX 12181 14280 12960 71502 10104 20091 30017 40124 56009 60002 87070 333 10120
AAXX 12181 14308 11550 81802 10103 20092 39765 40113 57/// 60022 710// 887// 333 10125
AAXX 12181 14321 12562 81504 10137 20125 30100 40124 57/// 60352 888// 333 10143 92323 92437
AAXX 12181 14370 11520 60000 10080 20070 30018 40127 56003 69922 72162 86600 333 10106
AAXX 12181 14382 12960 61203 10115 20083 30011 40129 57011 69912 86030 333 10120
AAXX 12181 14428 11465 81203 10147 20132 30121 40129 58/// 60642 76062 8682/ 333 10155 92312
AAXX 12181 14441 11965 71804 10173 20117 30113 40137 56/// 69902 700// 87070 333 10179 92322
AAXX 12181 14452 NIL
AAXX 12181 14454 12666 81204 10160 20100 30090 40148 54/// 69962 888// 333 10174 92322
AAXX 12181 14462 12570 81002 10148 20115 30157 40163 52/// 60002 885// 333 10172
AAXX 12183 91802 NIL
AAXX 12183 91809 NIL
AAXX 12183 91831 36/// /0303 10261 20237 40168 52007
AAXX 12183 91841 36/// /0203 10264 20228 40153 52018 555 20002
AAXX 12183 91843 31499 50000 10275 20247 40146 52018 60001 70222 85201 333 564/9 82818 85079
AAXX 12183 91848 NIL
AAXX 12184 65528 NIL
AAXX 12184 65536 NIL
AAXX 12184 65545 NIL
AAXX 12184 65548 NIL
AAXX 12184 65555 NIL
AAXX 12184 65557 32956 2//// 10288 20226 39862 40101 82002 333 10/// 58013 82076
AAXX 12184 65560 31930 5//// 10296 20164 30/// 40097 81032 333 10332 58011 81360 85076
AAXX 12184 65562 31920 0//// 10288 20174 3//// 4//// 70511 333 10325 5////
AAXX 12184 65563 31920 00804 10260 20174 39862 40102 70500 333 10310 58012
AAXX 12184 65578 32460 62604 10282 20251 30089 40098 85802 333 10327 58008 82813 85620 94919
AAXX 12184 65585 32458 5//// 10288 20248 3//// 4//// 82202 333 10333 5//// 82815 85076 94931
AAXX 12184 65592 11458 7//// 10253 20237 30073 40096 60032 70196 8703/ 333 10260 58001 87360
AAXX 12184 65594 32458 72204 10265 20241 30070 40104 8595/ 333 10290 58005 81913 84813 87360 94916 94947 95837
AAXX 12184 65599 32460 2//// 10264 20244 30016 40090 81902 333 10305 58002 81915 94946 95836
AAXX 12181 14324 11/00 92708 10020 20020 38459 48558 56/// 60182 760// 333 10033 41998
AAXX 12181 14447 11580 81006 10160 20128 30114 40145 57/// 69902 70262 888// 333 10183 92322
BBXX 46147 12181 99518 71312 46/// /0000 10072 40179 57023 22200 00082 10805 70027 333 912//
AAXX 12181 21921 41999 30108 40254 21285 30247 40295 53004 73630 83030
BBXX 46147 12181 99518 71312 46/// /0000 10072 40179 57023 22200 00082 10805 70027 333 912//
AAXX 12184 62305 32960 43503 10134 20108 40259 52006 84050 333 10194
AAXX 12184 62306 32960 00606 10162 20110 40260 52004 333 10198
AAXX 12184 62318 32560 20405 10164 20101 40245 52007 82500 333 10204
AAXX 12184 62337 NIL
AAXX 12184 62366 32960 00210 10160 20094 40237 52011 333 10202
AAXX 12184 62393 32960 03407 10140 20081 40213 52006 333 10208
AAXX 12184 62405 32960 01903 10176 20044 40179 52006 333 10248
AAXX 12184 62414 32960 00110 10196 20045 40180 52010 333 10261
AAXX 12184 62417 32960 00901 10130 20077 40247 52008 333 10216
AAXX 12184 62440 32960 03502 10138 20107 40234 52007 333 10208
AAXX 12184 62463 32960 03110 10162 20068 40202 52014 333 10228
AAXX 12184 62465 32960 03308 10196 20118 40186 52008 333 10227
AAXX 12184 62419 NIL
AAXX 12181 78310 12570 20505 10264 20208 30177 40187 58007 60001 82900 333 10264 20205 30/// 56900 57976 58017 81820 819// 92034
AAXX 12181 78315 12575 60601 10274 20182 30112 40177 58014 60001 84870 333 10284 20185 30/// 56990 57892 58012 83820 85360
AAXX 12181 78318 11562 20507 10283 20200 30173 40177 58014 60001 70500 82800 333 10284 20192 31/// 56900 58008 81820
AAXX 12181 78322 11559 43604 10290 20181 30161 40178 58018 60001 70500 84200 333 10290 20192 30/// 56100 58004 84820 555 10502
AAXX 12181 78324 11/10 10504 10265 20216 30162 40173 58011 60001 70500 81200 333 10265 20232 30/// 56900 58013 818//
AAXX 12181 78325 11562 40604 10266 20195 30125 40183 58014 60001 70500 84200 333 10267 20212 30/// 56100 58010 84820 555 10602
AAXX 12181 78328 01461 30806 10265 20204 30180 40/// 57011 69901 70580 83200 333 10269 20233 30/// 56200 58008 69907 70005 83817 92427 555 10903
AAXX 12181 78333 11410 20201 10277 20191 30159 40166 58015 60001 70500 82242 333 10279 20199 30/// 56199 57875 58008 82818 555 10402
AAXX 12181 78344 11563 50203 10275 20202 30113 40161 58015 60001 70511 84240 333 10275 20202 31/// 56990 57813 58008 84820
AAXX 12181 78345 12465 50507 10292 20213 30155 40158 58014 60001 84802 333 10293 20198 30/// 56109 58012 83816
AAXX 12181 78348 11556 30404 10263 20209 30115 40167 58018 60001 70500 83800 333 10263 20225 31/// 56100 57813 58006 70020 83821 555 10502
AAXX 12181 78349 11565 60606 10275 20198 30053 40162 57018 60001 70511 85201 333 10277 20185 30/// 56109 58005 85821 555 10503
AAXX 12181 78351 12550 60405 10297 20171 30138 40140 57013 60001 83202 333 10297 20187 30/// 56103 59002 70001 83830 84083 555 10403 2//14
AAXX 12181 78353 12570 60602 10276 20286 30143 40165 58015 60001 83802 333 10276 20235 31/// 56909 58004 70004 82823 84080
AAXX 12181 78355 12570 50304 10276 20196 30016 40156 56008 60001 85800 333 10284 20200 30/// 56200 58004 79999 84823 555 10903
AAXX 12181 78358 11540 50506 10283 20219 30132 40147 57012 60001 70511 83202 333 10288 20202 31/// 56109 58010 70021 83823 84070 555 10503
AAXX 12181 78360 12570 32501 10308 20202 30131 40142 56015 60001 82802 333 10308 20218 31/// 56209 57849 58011 70103 81820 92011 555 10902
AAXX 12181 78363 11563 50201 10281 20186 30008 40122 57024 60001 70522 84202 333 10281 20203 30/// 56109 58010 70022 84820 555 10401
AAXX 12181 78365 11562 30905 10276 20221 30148 40153 58016 60001 70500 83802 333 10279 20229 31/// 56209 57883 58008 70037 82822 92033 555 10902
AAXX 12181 78369 11568 50205 10275 20213 30132 40141 57009 60001 70511 82240 333 10277 20240 30/// 56990 57865 58011 70044 82820 83357 92033
AAXX 12181 22438 12571 62905 11019 21024 30045 40066 52019 69960 82470 333 10006
AAXX 12184 93800 16/// /0313 10143 20142 40136 52003 60061
AAXX 12184 93805 16/// /3311 10147 20129 40123 52010 60001
AAXX 12184 93994 16/// /1108 10210 20166 40174 52007 60001
AAXX 12181 80400 NIL
AAXX 12181 80403 32470 80707 10317 20243 30095 40114 81206 333 30/// 56909 58018 81816 88080 555 10117
AAXX 12181 80405 NIL
AAXX 12181 80407 32470 4//// 10320 20261 30033 4//// 84400 333 30/// 56900 5//// 84616 555 10106
AAXX 12181 80410 32470 70905 10270 20229 39431 40106 8521/ 333 30/// 5699/ 58015 85816 555 10143
AAXX 12181 80413 32470 52502 10301 20185 39615 40100 857// 333 30/// 569// 58003 85713 555 10132
AAXX 12181 80415 32470 80501 10296 20253 30043 40099 8327/ 333 30/// 5699/ 58002 83816 85470 555 10099
AAXX 12181 80419 NIL
AAXX 12181 80421 NIL
AAXX 12181 80423 12470 4//// 10311 20203 30075 40092 60031 84900 333 30/// 56200 58010 83610 81910 555 10091
AAXX 12181 80428 32470 60703 10312 20243 39914 40097 865// 333 30/// 569// 58003 86617 555 10110
AAXX 12181 80432 NIL
AAXX 12181 80435 11470 60903 10318 20180 30009 40084 69941 70292 862// 333 31/// 569// 58004 86813 555 10082
AAXX 12181 80438 32570 72305 10236 20174 38506 48503 82515 333 30/// 56999 58011 82623 83280 555 10186
AAXX 12181 80444 32470 4//// 10322 2//// 30029 4//// 84500 333 30/// 56200 58003 84613 555 10077
AAXX 12181 80447 32560 8000 10289 20216 39650 40069 85508 333 30/// 56909 58009 85620 555 10120
AAXX 12181 80448 11465 80000 10264 20252 3//// 4//// 60041 72126 8352/ 333 31/// 5699/ 83617 85457 /////
AAXX 12181 80450 NIL
AAXX 12181 80453 NIL
AAXX 12181 80457 NIL
AAXX 12181 80462 NIL
AAXX 12181 80402 NIL
AAXX 12181 80412 NIL
AAXX 12181 80416 NIL
AAXX 12181 80420 32470 22704 10330 20168 30089 40095 82500 333 30/// 56900 58011 82613 555 10108
AAXX 12181 80425 11470 82501 10300 20249 30066 40097 69911 70252 8147/ 333 31/// 5699/ 59011 81613 87660 555 10097
AAXX 12181 80426 32570 63602 10270 20198 39463 40106 865// 333 30/// 569// 58003 86620 555 10138
AAXX 12181 80427 32468 80502 10317 20255 39851 40102 8527/ 333 30/// 5699/ 58004 85817 555 10120
AAXX 12181 80431 NIL
AAXX 12181 80434 NIL
AAXX 12181 80437 32470 42702 10324 20209 39993 40078 84500 333 30/// 56900 58006 84613 555 10084
AAXX 12181 80440 32460 61103 10305 20219 39885 40096 8483/ 333 30/// 5699/ 58006 84820 555 10105
AAXX 12181 80442 32470 5//// 10328 20/// 39984 40/// 852// 333 30/// 569// 58009 85813 555 10095
AAXX 12181 80472 32465 81102 10297 20203 39615 40094 8422/ 333 30/// 5699/ 84816 86460 555 10117
AAXX 12181 80475 11440 83605 10227 20223 39758 40127 60021 76026 889// 333 32/// 569// 59011 87713 555 10140
AAXX 12181 80476 32370 3//// 10320 20274 30077 40107 82230 333 31/// 56990 59002 82610
AAXX 12181 80478 NIL
AAXX 12181 80479 NIL
AAXX 12181 25703 41696 83506 11195 21236 39775 40055 52013 78583 8431/
AAXX 12181 25745 NIL
AAXX 12181 25913 42999 80502 11190 21258 39793 49947 52012 82037
AAXX 12181 25954 41597 73204 11134 21177 39729 49844 52011 78583 85930 333 91112
AAXX 12181 25956 42598 60504 11181 21206 39830 49836 58024 86500
AAXX 12181 31088 42599 83502 11155 21215 39977 49984 52005 82547
AAXX 12181 31873 42997 02702 11194 21228 30145 40291 53011
AAXX 12181 31909 42998 03403 11120 21229 30146 40227 53018 333 91112
AAXX 12181 31960 42998 03506 11073 21168 30054 40299 52008
AAXX 12181 31961 42998 00000 11172 21214 50253 40303 52009
AAXX 12181 32053 42997 12705 11202 21251 30023 40075 53002 80001 333 91009 91110
AAXX 12181 32061 41581 73107 11146 21227 30062 40103 52006 73683 87900 333 91010 91113
AAXX 12181 32098 42598 83101 11214 21226 30103 40114 52014 81906 333 91001 91103
AAXX 12181 32150 41596 70000 11136 21142 30102 40133 52023 78582 87900 333 91002 91102
AAXX 12181 32165 41596 83110 11034 21081 30045 40107 53022 78582 889// 333 91016 91117
AAXX 12181 32215 41596 72603 11044 21091 39924 49953 53001 78583 87900 333 91007 91112
AAXX 12181 32252 NIL
AAXX 12181 32389 41998 22101 11226 21224 39861 49901 52014 74000 82030
AAXX 12181 32477 41597 81302 11126 21139 39880 49912 52007 70282 885//
AAXX 12181 32583 42999 80000 11091 21120 39889 49920 52008 83044
AAXX 12181 32618 42598 20105 11062 21111 39861 49883 52019 82500
BBXX MINFR05 1218/ 99496 70003 46/// ///// 10088 40087 57030
AAXX 12183 91551 11498 80000 10260 20247 4//// 5//// 60241 72562 8522/ 333 5699/ 60241 85820 81925 88461
AAXX 12183 91553 NIL
AAXX 12183 91554 11498 80000 10240 20232 40084 53002 60061 78028 889// 333 569// 60064 84818 81920 88640
AAXX 12183 91555 31598 50000 10267 20251 40082 53001 70222 85800 333 569// 83823 85644
AAXX 12183 91557 11598 69901 10238 20234 40070 56002 69901 70222 83201 333 562/9 69901 83820 86080
AAXX 12183 91565 31598 10306 10240 20225 40081 56004 70111 81200 333 561// 81822
AAXX 12183 91568 31598 50000 10226 20223 40101 56004 70211 82101 333 562/9 82825 85080
AAXX 12184 40153 12960 40911 10092 21033 39152 48544 52003 60002 80004 333 10116
AAXX 12184 40179 12965 10203 10136 20053 30188 40226 52005 60002 80001 333 10204
AAXX 12184 40180 12960 01003 10126 20047 30179 40229 51006 60002 333 10200
AAXX 12184 40190 16/// ///// 10113 20061 39891 40228 52006 60002 333 10202
AAXX 12184 40199 13/// /0204 10153 21018 30190 40213 52010 60002 333 10216
AAXX 12184 60686 12960 30210 10202 21048 40197 57001 60002 81032 333 10264 81360
AAXX 12184 89002 42598 80718 11053 21071 39739 49793 57014 885//
AAXX 12181 08568 32/// /9903 10023 20014 38686 48554 52006 333 10049 91006 91110 555 60005
AAXX 12184 71423 16/// /2713 11006 21042 30240 40250 53003 60001 333 11006 21125 7////
AAXX 12184 71434 16/// /2606 11133 21170 30201 40270 51007 60001 333 11133 70000
AAXX 12184 71303 46/// ///// 10032 21047 6///1 333 10039 20004 7////
AAXX 12184 71340 16/// /1205 11116 21129 60001 333 11080 21152 70000
AAXX 12184 71343 17/// /2403 11086 21108 69961 7//4/ 333 11049 21100 70048
AAXX 12184 71356 16/// /1205 11213 21234 30038 40107 56009 60001 333 11213 21306 70000
AAXX 12184 71363 16/// /1809 11296 21328 39994 40051 58021 60001 333 11258 21314 70003
AAXX 12184 71276 16/// ///11 11080 21102 60001 333 11080 21135 70000
AAXX 12184 71564 16/// /3507 11098 21129 39931 40318 51014 60001 333 11070 21107 70000
AAXX 12184 71589 16/// /2311 11026 21062 30098 40234 56028 60001 333 11023 21094 70000
AAXX 12184 71737 16/// /2405 11008 21029 39739 40271 58010 60001 333 11007 21098 70000
AAXX 12184 71189 46/// /0801 11024 21049 6///1 333 11024 21087 7////
AAXX 12184 71193 16/// /3102 11007 21016 39880 40249 51005 60001 333 11003 21054 70000
AAXX 12184 71817 12974 02714 11111 21208 30173 40187 56009 60001 333 70000
AAXX 12184 71976 46/// /2303 11220 21244 39507 40160 51003 6///1 333 11198 21227 7//// 555 10010
AAXX 12184 71979 46/// ///// 11099 21138 38472 40188 6///1 333 7//// 555 10010
AAXX 12184 71421 16/// ///// 11125 21169 39515 40264 53001 60001 333 11125 21244 70000
AAXX 12184 71217 16/// /1503 11109 21120 60001 333 21136 7////
AAXX 12184 71224 17/// /2003 11125 21137 69951 7//4/ 333 11063 21152 70055
AAXX 12184 71880 12582 22303 11081 21104 39135 40275 52006 60001 82602 333 11060 21120 70020
AAXX 12184 71039 46/// /1108 11020 6///1 333 10011 21179 7////
AAXX 12184 71063 16/// /2606 10052 21028 30188 40287 57015 60001 333 10055 21029 70000
AAXX 12184 45011 47959 /0113 10133 20044 40199 57009 70011 333 59021
AAXX 12184 71421 16/// ///// 11125 21169 39515 40264 53001 60001 333 11125 21244 70000
AAXX 12184 71880 12582 22303 11081 21104 39135 40275 52006 60001 82602 333 11060 21120 70020
AAXX 12184 71880 12582 22303 11081 21104 39135 40275 52006 60001 82602 333 11060 21120 70020
AAXX 12184 71817 12974 02714 11111 21208 30173 40187 56009 60001 333 70000
BBXX 46145 12181 99544 71324 46/// /2006 10057 40154 52003 22200 00074 11207 70035 333 91208
AAXX 12181 56193 NIL
AAXX 12181 56196 31940 00000 10041 20008 40268 54000 71000 333 05351 10113
AAXX 12181 56287 31958 80000 10066 20034 40260 57004 71000 8807/ 333 05401 10128
AAXX 12181 56684 32560 80901 10035 20007 37910 54000 885// 333 05101 10112
AAXX 12181 56751 32780 12702 10029 20003 38024 57002 81400 333 05155 10151
AAXX 12181 56786 31558 81602 10068 20045 38123 52002 71000 884// 333 05101 10149
AAXX 12181 56977 11462 80000 10114 20111 40204 52002 69901 72160 885// 333 05101 10132
AAXX 12181 57259 32980 01401 10000 21006 40282 52002 333 10141
AAXX 12181 57279 32961 81401 10044 21014 40275 57008 8807/ 333 10117
AAXX 12181 57348 32962 03201 10051 20034 40276 52001 333 10130
AAXX 12181 57399 32962 00202 10008 21033 40282 57003 333 10124
AAXX 12181 57554 32964 70000 10058 20006 40271 57003 8704/ 333 10142
AAXX 12181 57793 32960 51401 10063 20014 40266 57009 85040 333 10119
AAXX 12181 58345 31958 01601 11008 21022 40284 57011 71000 333 10091
AAXX 12181 58506 32975 70000 10022 21185 40272 57005 8704/ 333 10057
AAXX 12181 58813 32968 01401 10025 20012 40262 57001 333 10130
AAXX 12181 58834 32963 71101 10096 20042 40245 57006 8707/ 333 10158
AAXX 12181 58926 32962 00401 10075 20060 40236 57001 333 10197
AAXX 12181 58944 32460 80205 10137 20105 40224 57012 885// 333 10143
AAXX 12181 59096 32968 02502 10062 21005 40237 57002 333 10177
AAXX 12181 59102 32962 02201 10038 20015 40239 57001 333 10151
AAXX 12181 59278 32968 02501 10109 20057 40219 57004 333 10182
AAXX 12181 59456 32973 00000 10121 20014 40206 57002 333 10220
AAXX 12181 59493 32966 00402 10134 21003 40201 57008 333 10202
AAXX 12181 59658 32965 03602 10118 20017 40197 57010 333 10198
AAXX 12181 59673 32966 30407 10149 20034 40197 57010 80002 333 10178
AAXX 12181 59845 32965 02201 10118 20088 40202 57007 333 10210
AAXX 12181 50434 32980 72201 11317 21349 39329 40309 57002 80002 333 11145
AAXX 12181 50527 32965 71106 11215 21235 39408 40270 57013 80002 333 11202
AAXX 12181 50603 32980 70402 11185 21208 39507 40235 57007 83032 333 11148
AAXX 12181 50632 32980 70201 11188 21207 39315 40268 57007 83032 333 11111
AAXX 12181 50727 32980 00000 11242 21271 39001 40275 57015 333 11115
AAXX 12181 50915 32980 22203 11146 21195 39189 40256 57013 80002 333 11118
AAXX 12181 51716 32965 72502 11034 21079 38957 40301 57006 80002 333 05404 11004
AAXX 12181 51765 32980 03401 11122 21139 39262 40318 52004 333 05451 10011
AAXX 12181 51777 32975 71801 11094 21130 39214 40308 52007 80002 333 05400 10015
AAXX 12181 51811 32962 72901 11047 21064 38843 40320 52004 85032 333 05351 11021
AAXX 12181 51828 32965 70702 11042 21104 38683 40315 52014 80002 333 05102 10000
AAXX 12181 52267 32980 02703 11103 21160 39120 40280 57002 333 05600 11013
AAXX 12181 52323 32980 02508 11114 21167 38225 57002 333 05401 11013
AAXX 12181 52495 32980 00702 11113 21171 38695 40283 57004 333 05606 11006
AAXX 12181 53149 32980 32504 11115 21168 38763 40239 57010 80002 333 05800 11015
AAXX 12181 53192 32980 72501 11180 21199 38878 40296 57013 84032 333 11123
AAXX 12181 53231 32980 32007 11110 21152 38477 57001 80002 333 05702 11040
AAXX 12181 53336 32980 40402 11118 21165 38711 40269 57007 80002 333 05702 11049
AAXX 12181 53391 32980 02002 11105 21149 38502 40261 57011 333 05600 11027
AAXX 12181 53529 32980 02001 11111 21162 38640 40295 57009 333 05601 11026
AAXX 12181 53543 32980 12002 11097 21154 38544 40273 57006 80002 333 10001
AAXX 12181 53723 32970 50000 11111 21143 38677 40293 57011 80002 333 05651 11012
AAXX 12181 54012 32980 02506 11077 21158 39007 40243 57018 333 11072
AAXX 12181 54026 32980 73401 11125 21193 39916 40259 57018 80002 333 11008
AAXX 12181 54027 32980 40000 11139 21184 39641 40262 57018 82032 333 11007
AAXX 12181 54208 32980 72901 11169 21191 38764 40291 57013 80002 333 11038
AAXX 12181 54776 32980 00203 10034 21032 30248 40307 57003 333 10067
AAXX 12181 56004 32980 02903 11183 21310 35793 54000 333 05302 11044
AAXX 12181 56033 32980 20901 11182 21261 35994 57009 80002 333 05254 11057
AAXX 12181 56046 32980 00000 11198 21240 36250 57009 333 05152 11067
BBXX 46145 12181 99544 71324 46/// /2006 10057 40154 52003 22200 00074 11207 70035 333 91208
AAXX 12181 51156 32780 73401 11057 21116 38739 40286 52009 85502 333 05208 11024
AAXX 12181 51644 32970 73201 11061 21091 38988 40301 52002 82032 333 05403 11002
AAXX 12181 01271 17884 80701 10032 21025 39829 49849 56010 69902 700// 333 10042 91107
AAXX 12181 01415 17/76 32406 10070 20015 39900 49911 51007 6//// 721// 333 10072 91112
AAXX 12184 64005 NIL
AAXX 12184 64040 NIL
AAXX 12184 64210 32457 70000 10262 20230 39734 40086 83503 333 10298 59014 83616 87362
AAXX 12181 60379 16/// /2302 10150 20126 60012 333 10174
AAXX 12181 60380 16/// /3301 10127 20098 69922 333 10168
AAXX 12181 60394 16/// /1701 10135 20105 69922 333 10181
AAXX 12181 60374 36/// /2807 10162 20112 333 10173
AAXX 12181 60613 36/// /0000 10148 21025 333 10208
BBXX 46131 12181 99499 71250 46/// /2803 1//// 40259 52001 22200 00067 10200 70001 333 91204
AAXX 12184 66160 35460 62309 10257 20217 40086 84830 333 10293 59002
AAXX 12181 01025 17/70 00000 11052 21063 39949 49960 57021 60002 700// 333 11013 91103
AAXX 12181 01311 47580 81506 1//// 2//// 39819 51004 700// 333 91113
AAXX 12184 62600 32970 00210 10210 20020 39970 40185 333 10250 59009
AAXX 12184 62640 32970 03610 10255 20085 39755 40111 333 10325 59009
AAXX 12184 62641 31962 03408 10245 20180 30108 40156 333 70600 10284 58004
AAXX 12184 62650 32970 03613 10230 20030 39874 40146 333 10292 59010
AAXX 12184 62680 31965 03604 10255 20130 39712 40105 333 70600 10326 58003
AAXX 12184 62721 32970 73207 10270 20140 39671 40108 80007 333 10315 56009 59008 87275
AAXX 12184 62730 32970 00403 10285 20150 39570 40128 333 10345 58000
AAXX 12184 62750 32970 73207 10260 20115 39655 40084 80007 333 10325 56009 59005 87275
AAXX 12184 62751 32970 73404 10254 20056 39635 40092 80007 333 10352 56009 59010 87275
AAXX 12184 62752 32970 70204 10295 20138 39409 40066 80007 333 10362 56009 59002 87275
AAXX 12184 62600 32970 00210 10210 20020 39970 40185 333 10250 59009
AAXX 12184 62640 32970 03610 10255 20085 39755 40111 333 10325 59009
AAXX 12184 62641 31962 03408 10245 20180 30108 40156 333 70600 10284 58004
AAXX 12184 62650 32970 03613 10230 20030 39874 40146 333 10292 59010
AAXX 12184 62680 31965 03604 10255 20130 39712 40105 333 70600 10326 58003
AAXX 12184 62721 32970 73207 10270 20140 39671 40108 80007 333 10315 56009 59008 87275
AAXX 12184 62730 32970 00403 10285 20150 39570 40128 333 10345 58000
AAXX 12184 62750 32970 73207 10260 20115 39655 40084 80007 333 10325 56009 59005 87275
AAXX 12184 62751 32970 73404 10254 20056 39635 40092 80007 333 10352 56009 59010 87275
AAXX 12184 62752 32970 70204 10295 20138 39409 40066 80007 333 10362 56009 59002 87275
AAXX 12183 41150 41557 23118 10171 20101 40206 70500 82500 333 10187 59001 82620
BBXX DHDH 12184 99098 10677 41697 70518 10260 20232 40100 54000 79111 8451/ 22225 00270 20101 399// 40202 80240
BBXX A8SG2 12181 99165 51355 41598 31107 10270 20202 40160 54000 70100 82130 22254 00270 20502 310// 40803 5//// 80225
AAXX 1218/ 89108 46/// ///// 11275 36878 4//// 5////
BBXX 46204 12181 99514 71288 46/// /1008 10052 40224 57014 22200 00085 11202 70012 333 91209
BBXX 46204 12181 99514 71288 46/// /1008 10052 40224 57014 22200 00085 11202 70012 333 91209
AAXX 12181 48806 32997 00000 10106 20088 39420 40219 58007 333 59015
AAXX 12184 92044 11465 80000 10243 20228 30060 40066 5//// 7258/ 85237
AAXX 12184 92044 11465 80000 10243 20228 30060 40066 5//// 7258/ 85237
BBXX 9HA2479 12184 99270 31605 46/// /3316 10214 20203 30013 40042 52011 22214 04227 85207
BBXX C6FS9 12184 99224 31623 46/// /0222 10261 20241 30040 40075 52005 22223 04260 85246
BBXX VROB 12184 99068 31470 46/// /3111 10250 20215 30038 40063 57019 22200 04305 85225
BBXX FHZI 12184 99429 31473 46/// /2904 10120 20011 30103 40114 5//// 22200 85070
BBXX JPAT 12184 99128 30849 41397 61318 00/// 10273 20238 40080 58003 70311 86300 22233 00291 10904 20202 315// 40304 5//// 85247
BBXX V2OG2 12183 99107 31037 41998 03207 10290 20256 40094 58016 70211 80000 22223 20402 314// 40403 80265
BBXX 9HA2479 12184 99270 31605 46/// /3316 10214 20203 30013 40042 52011 22214 04227 85207
BBXX C6FS9 12184 99224 31623 46/// /0222 10261 20241 30040 40075 52005 22223 04260 85246
BBXX VROB 12184 99068 31470 46/// /3111 10250 20215 30038 40063 57019 22200 04305 85225
BBXX FHZI 12184 99429 31473 46/// /2904 10120 20011 30103 40114 5//// 22200 85070
BBXX JPAT 12184 99128 30849 41397 61318 00/// 10273 20238 40080 58003 70311 86300 22233 00291 10904 20202 315// 40304 5//// 85247
BBXX V2OG2 12183 99107 31037 41998 03207 10290 20256 40094 58016 70211 80000 22223 20402 314// 40403 80265
BBXX ZDLP 12183 99650 50647 41/92 90428 11003 21006 49681 53023 77574 89/// 22222 05005 20701 305// 40404 5//// 81004
BBXX 44040 12181 99410 70736 46/// /2404 10056 21056 40348 91815 22200 1//00 70000 333 91205 555 11046 22057
BBXX 41036 12181 99342 70770 46/// ///// 10148 20119 40285 91820 22200 00217
AAXX 12181 21802 42999 51601 11343 21368 30330 40357 53003 80002
AAXX 12181 24125 42998 50000 11303 21321 30057 40372 52009 85030
AAXX 12181 24136 42999 01901 11432 21468 30232 40351 52019
AAXX 12181 24143 42999 03601 11449 21483 30227 40286 52005
AAXX 12181 24266 41997 80000 11418 21443 30133 40340 53010 77177 80007
AAXX 12181 24329 42998 40000 11301 21332 30025 40451 52007 84010
AAXX 12181 24343 42998 53203 11319 21343 30468 40268 52003 82032
AAXX 12181 24382 41996 82604 11221 21247 39957 40225 53008 77077 83036
AAXX 12181 24639 41998 80000 11356 21390 30126 40302 52019 77172 83017
AAXX 12181 24641 42999 52801 11369 21404 30113 40276 52012 80001
AAXX 12181 24652 42997 82904 11390 21417 30093 40235 53006 80007
AAXX 12181 24656 42999 82503 11379 21415 30104 40222 53003 83037
AAXX 12181 24671 42999 83001 11249 21288 39648 40115 53009 8802/
AAXX 12181 24688 41997 80401 11387 21420 39187 40225 53005 77172 85037
AAXX 12181 24724 41999 20103 11262 21287 39736 40318 52019 70273 80001
AAXX 12181 24738 41998 83402 11307 21323 30092 40290 52020 77172 80007
AAXX 12181 24768 41997 60000 11413 21448 39947 40218 53002 70241 80001
AAXX 12181 24923 41596 82402 11173 21192 39935 40260 52012 77172 86507 333 86621
AAXX 12181 24944 41996 80000 11307 21329 39936 40263 52014 77172 84037
AAXX 12181 24951 41999 03001 11340 21368 30069 40258 52011 70271
AAXX 12181 24661 41999 83608 11204 21279 39889 40171 53007 73633 80007
AAXX 12181 24959 42998 52101 11342 21371 30075 40232 54000 80001
AAXX 12181 24962 41993 82202 11420 21448 30010 40228 58002 74441 83037
AAXX 12181 24966 41997 82302 11416 21437 39959 40211 53003 77171 80007
AAXX 12181 24967 42999 20000 11436 21475 30001 40261 52006 80001
AAXX 12181 25206 41498 83505 11220 21252 30072 40101 52021 77173 8372/ 333 91111
AAXX 12181 25400 41495 83409 11207 21232 30048 40106 52013 77373 8572/ 333 85715 91117
AAXX 12181 30054 41997 82102 11171 21197 30019 40275 53004 77172 85037
AAXX 12181 30089 41997 80000 11284 21303 39999 40247 57002 77177 80007
AAXX 12181 30393 41998 83002 11260 21277 39113 40249 52003 77172 85037
AAXX 12181 30493 42999 02701 11353 21383 39124 40312 57002
AAXX 12181 31004 41996 80000 11242 21260 39329 40233 53013 77173 80007
AAXX 12181 31137 41999 60000 11435 21446 39094 40305 53010 70272 80001
AAXX 12181 30157 41997 81302 11207 21232 39993 40301 56004 77172 8802/
AAXX 12184 40362 42960 02202 10062 21010 39721 40256 333 10141 59015 55///
AAXX 12181 35925 315// 82001 11022 21035 40281 51003 71022 886// 333 11027
AAXX 12181 36152 329// 82904 11162 21201 30087 40288 52004 80007 333 11131
AAXX 12181 36177 329// 80000 11170 21184 30032 40296 52008 80007 333 11088
AAXX 12181 36208 329// 70502 11088 21140 39271 40281 52001 82042 333 11007
AAXX 12181 36397 329// 81608 11096 21141 39700 40283 53006 80007 333 11056
AAXX 12181 36428 329// 70000 11160 21177 39799 40332 52015 83045 333 11130 95090
AAXX 12181 36535 329// 60000 11165 21199 39659 40335 52009 86030 333 11118
AAXX 12181 36639 329// 80000 11076 21111 39672 40296 52015 8807/ 333 11074
AAXX 12181 36864 325// 82505 10002 21022 39412 40315 52031 8551/ 333 10072
AAXX 12181 38001 32997 33601 10013 21013 30348 40313 52014 83030 333 10063
AAXX 12181 38232 32598 82404 10040 20023 30195 40295 57010 885// 333 10060
AAXX 12184 91650 11598 80000 10233 2023/ 40098 53014 60051 76126 8687/ 333 5699/ 83820 84648 88460
AAXX 12184 91652 NIL
AAXX 12184 91656 NIL
AAXX 12184 91659 NIL
AAXX 12184 91660 NIL
AAXX 12184 91669 36/// /1204 10249 20249 40115 52009 91815
AAXX 12184 91670 36/// /0500 10261 20227 40105
AAXX 12184 91676 14/// /3501 10255 20227 30040 40101 50012 60001
AAXX 12184 91680 11699 11105 10222 20216 40111 53011 60001 70100 81100 333 569// 81830
AAXX 12184 91682 NIL
AAXX 12184 91683 11597 70000 10235 20234 40114 53009 60121 76086 8687/ 333 5699/ 84820 85648 87461
AAXX 12184 91691 14/// /0301 10237 20232 30113 40116 50012 60021
AAXX 12184 91693 11599 30000 10236 2023/ 40108 55008 60001 70200 82802 333 563/9 82825
AAXX 12184 91697 14/// /1002 10246 20220 30109 40114 50007 69951
AAXX 12184 91699 14/// /0901 10261 20221 30089 40121 50008 60001
AAXX 12183 67765 41780 72503 10212 20168 38646 48489 71322 81968 333 10295 81950 87280
AAXX 12183 67775 41670 72508 10220 20164 38487 48491 71522 81273 333 10304 81945 87459
AAXX 12183 67867 41580 70000 10201 20176 38564 48492 71792 81973 333 10285 81930 87459
AAXX 12183 67965 41565 72507 10180 20165 38675 48498 79596 84773 333 10260 81920 84708 87458
AAXX 12183 67975 41565 81801 10200 20191 38903 48492 79596 81973 333 10292 81930 81709 88459
AAXX 12183 67983 41770 71802 10200 20192 38854 48481 71796 81973 333 10295 81950 87460
AAXX 12183 67991 41980 71902 10238 20205 39547 48458 72162 8707/ 333 10358 87460
AAXX 12184 67765 41780 72503 10212 20168 38646 48489 71322 81968 333 10295 58004 81956 87280
AAXX 12184 67775 41670 72508 10220 20164 38487 48491 71522 81273 333 10304 58005 81945 87459
AAXX 12184 67779 NIL
AAXX 12184 67853 NIL
AAXX 12184 67861 NIL
AAXX 12184 67867 41680 70000 10201 20176 38564 48492 71792 81973 333 10285 59005 81930 87459
AAXX 12184 67881 NIL
AAXX 12184 67965 41465 72507 10180 20165 38675 48498 79596 84773 333 10260 59002 81920 84708 87458
AAXX 12184 67975 41665 81801 10200 20191 38903 48492 79596 81973 333 10292 58002 81930 81709 88459
AAXX 12184 67977 NIL
AAXX 12184 67983 41770 71802 10200 20192 38854 48481 71796 81973 333 10295 59008 81956 87460
AAXX 12184 67991 41980 71902 10238 20205 39547 48458 72162 8707/ 333 10358 58009 87460
BBXX 46088 12181 99483 71232 46/// /3505 10039 40249 91820 22200 00079 1//00 70002 333 91206 555 11047 22048 31729 43108 61819 343045 331046 334051 330060 310057 313063
BBXX 46087 12181 99485 71247 46/// /0907 10053 21003 40246 91820 22200 00079 333 91208 555 11073 22076 31725 40809 61819 088068 088065 084067 083072 079075 078075
BBXX VRHO2 12184 99525 71762 41498 41525 10040 20017 49890 57040 7//// 84900 22254 00050 20807 32525 40707 50806 6//// 80030 ICE /////
BBXX DFUX2 12184 99400 70098 41/98 82217 10170 20110 40248 56003 7//22 8//// 22284 00160 2//// 80135
AAXX 12184 13623 11757 51804 10130 20117 30169 40175 57008 60302 76166 85500 333 10150 85650
AAXX 12184 40250 NIL
AAXX 12184 40265 NIL
AAXX 12184 40296 32960 00000 10136 20046 40215 54001 333 10208
AAXX 12184 40310 NIL
AAXX 12181 60376 16/// /2503 10154 20106 60012 333 10178
AAXX 12181 60593 36/// /0000 10158 333 10199
BBXX A8IE6 12184 99163 11131 41/97 80526 10235 20214 40120 55020 75255 8//// 22284 04255 20808 304// 40808 80220
BBXX DHDH 12184 99098 10677 41697 70518 10260 20232 40100 54000 79111 8451/ 22225 00270 20101 399// 40202 80240
BBXX A8SG2 12181 99165 51355 41598 31107 10270 20202 40160 54000 70100 82130 22254 00270 20502 310// 40803 5//// 80225
BBXX BAREU63 12184 99312 10298 46/// /3412 10174 29066 40242 52001 22222
BBXX BAREU05 12184 99360 70060 46/// ///// 40277 22262
BBXX 61001 12184 99434 10078 46/// /2630 10148 20063 40106 52006 22200 00158 10605 70025 555 1/040
BBXX BAREU04 12184 99535 70046 46/// ///// 49834 57103 22214
BBXX BAREU62 12184 99376 10241 46/// ///// 40222 57002 22254
BBXX BATFR15 12184 99386 70160 46/// /2616 10162 20109 40250 55001 22254 00175
BBXX BATFR03 12184 99500 70006 46/// /2037 10102 20057 40062 22284
BBXX BATFR04 12184 99598 70107 46/// /1221 10067 20012 49728 56056 22200 00102
BBXX BATEU09 12184 99431 10068 46/// /2833 10139 20034 40141 22251 00175
BBXX BATFR11 12184 99362 10002 46/// /2705 10164 20119 40259 22213 00179
BBXX BATFR41 12184 99430 10063 46/// /2923 10137 20017 40157 51041 22262
BBXX BATFR20 12184 99431 10054 46/// /2725 10132 20027 40188 22234
BBXX BATFR54 12184 99437 70092 46/// /2243 10147 20089 4//// 22262 00145
BBXX BATFR01 12184 99359 10217 46/// /2313 10184 20115 40237 53004 22222 00197
BBXX BATFR60 12184 99474 70039 46/// /2035 10129 20087 40069 58023 22233 00135
BBXX BATFR42 12184 99505 70019 46/// /2058 10107 20067 49997 22244 00127
BBXX BATFR50 12184 99429 10061 46/// /3025 10142 20062 40173 53018 22242 00170
BBXX A8MW8 12183 99308 10001 41497 32151 10150 20118 40250 54000 70300 83145 22265 06210 21203 326// 41002 5//// 80131
BBXX A8UT7 12184 99337 70136 41698 30206 10185 20145 40250 54000 70200 82/84 22283 20501 333// 41009 80160
BBXX TBWUK35 12183 99409 70102 41598 82315 10156 20099 40228 53010 70222 885// 22244 00170 20202 332// 40808 80126
BBXX 07034 41/96 8//// 76586 333 92446
BBXX C6CU6 12183 99394 70207 41297 73027 10160 20124 40250 56020 70352 85778 22253 04170 20801 331// 41508 5//// 80140
BBXX PBEO 12183 99408 70098 41597 72514 10156 20079 40250 57010 70222 878// 22282 02165 20301 333// 41005 80114
BBXX DDZA2 12184 99366 70001 41/98 22719 10165 20114 40245 52005 70100 8//// 22263 04170 2//// 80135
BBXX BATUK01 12184 99576 70061 46/// /1632 10064 21007 49769 58080 22231 00112
BBXX 61002 12184 99421 10047 46/// ///23 10141 2//// 40212 52016 22200 00153 10605 70024 555 1/030
BBXX DFUX2 12184 99400 70098 41/98 82217 10170 20110 40248 56003 7//22 8//// 22284 00160 2//// 80135
BBXX DHDH 12184 99098 10677 41697 70518 10260 20232 40100 54000 79111 8451/ 22225 00270 20101 399// 40202 80240
BBXX A8EY5 12184 99146 70220 41595 80415 10245 20194 40120 57/// 71022 8/77/ 22255 00251 20503 301// 40804 5//// 80210
AAXX 12184 61017 32960 50000 10174 20034 39759 40181 80002 333 10257 59006 85080
AAXX 12184 61024 32960 51210 10215 21011 39589 40167 80002 333 10272 58003 85080 P073
AAXX 12184 61036 31956 70404 10275 20009 39890 40130 7052/ 80008 333 10314 58015 87280
AAXX 12184 61043 32960 70606 10254 21028 39694 40139 80008 333 10294 58010 87280
AAXX 12184 61045 31930 70602 10223 21070 39648 40152 7062/ 80008 333 10265 58008 87280
AAXX 12184 61049 32960 70000 10212 21035 39811 40137 80008 333 10282 59005 87280
AAXX 12184 61052 31930 50608 10275 21016 39880 40138 70622 80002 333 10315 58010 85080
AAXX 12184 61075 31956 70000 10256 20069 39824 40135 70622 80008 333 10312 58009 87280
AAXX 12184 61080 31912 71004 10234 21020 39721 40145 70622 80008 333 10280 58005 87280
AAXX 12184 61090 31945 70404 10226 21030 39629 40145 70622 80008 333 10269 58007 87280
AAXX 12184 61091 NIL
AAXX 12184 61096 31957 70000 10216 20000 39721 40149 70522 80008 333 10280 59001 87280
AAXX 12184 61099 31930 70208 10285 20061 39881 40110 70622 80008 333 10315 58006 87280
BBXX DHTK 12181 99030 70352 41498 30806 10278 20237 40088 57020 71511 83800 22214 00280 2//02 399// 4//02 80248
BBXX SHIP 12184 99248 11346 41297 60428 00/// 10210 20195 40167 54000 70222 866/3 9//// 22283 00283 2//// 302// 4//08 5//// 6//// 80200 THNKS/B/REGARDS MASTER PACIFIC GLORY INM C - 443272110
BBXX HZGN 12183 99121 10746 41497 53605 10285 20254 40113 51011 70322 82241 22234 02293 20100 304// 40201 5//// 80262
BBXX AUTV 12184 99176 10715 41698 50613 10260 20202 40117 55009 70001 82008 22233 44190 1326121221
BBXX SHIP 12184 99248 11346 41297 60428 00/// 10210 20195 40167 54000 70222 866/3 9//// 22283 00283 2//// 302// 4//08 5//// 6//// 80200 THNKS/B.REGARDS MASTER PACIFIC GLORY INM C - 443272110
BBXX A8PX5 12184 99389 11365 415// 53117 10070 20026 40260 52/// 70322 854/3 22254 04150 20404 326// 40605 5//// 80050
BBXX SHIP 12184 99229 11238 41297 80319 10210 20195 40160 50005 72152 87/// 22213 00251 80200
BBXX 0P/// 12184 99482 11582 41/95 82616 11020 21036 49990 58010 77322 8//// 22214 00040 2//// 82025
BBXX DDYL2 12183 99290 11225 41/98 /3422 10105 20070 40248 57012 70500 8//// 22244 00170 2//// 80087
BBXX SHIP 12184 99321 11402 41/97 32717 10174 40191 57008 70111 8//// 9//// 22283 00223
BBXX 7JJA 12184 99201 11222 41596 80438 00 10240 20226 40125 57005 70522 886// 9//// 22212 0 2//10 302 4//10 5 6//// 80230 IC E/////
BBXX 7JKC 12184 99076 11201 41697 30104 00 10280 2//// 40050 56010 74030 83209 9//// 22283 00300 1//// 20401 318// 40501 5//// 6//// 80260 /////
BBXX SHIP 12184 99230 11797 41/97 21112 10252 20191 40180 55001 70200 8//// 22223 04257
BBXX SHIP 12184 99327 11442 41397 62717 10185 20127 40181 55005 70311 85440 22273 06218 20303 329// 40606 80150
BBXX PCCL 12183 99268 11534 41/98 32215 10221 40032 54000 70200 822/8 22273 04245 2////
BBXX JPBN 12184 99292 11457 41/97 83507 10179 20126 40191 58012 70282 8527/ 22271 00227 1//03 20201 399// 4//02 70014
BBXX JGQH 12184 99242 11345 41/97 80522 10220 20211 40162 57010 78088 882// 22262 00246 1//// 20503 399// 4//04
BBXX 46204 12181 99514 71288 46/// /1008 10052 40224 57014 22200 00085 11202 70012 333 91209
BBXX 46131 12181 99499 71250 46/// /2803 1//// 40259 52001 22200 00067 10200 70001 333 91204
BBXX 46145 12181 99544 71324 46/// /2006 10057 40154 52003 22200 00074 11207 70035 333 91208
BBXX VREX8 12184 99386 71572 43/// /2514 10120 2008/ 40280 5//// 7//// 8//// 22254 0//// 20302 325// 40302 50302 6//// 80100 ICE /////
BBXX 46147 12181 99518 71312 46/// /0000 10072 40179 57023 22200 00082 10805 70027 333 912//
BBXX DGHX 12183 99470 71289 41498 63012 10080 20013 40245 57005 70211 85461 22254 00100 20801 330// 40804 80050
BBXX SHIP 12184 99339 71473 41597 61719 10170 20155 40265 56022 70102 86/4/ 91755 22264 00190 20200 330// 40401 5//// 80160
BBXX 44034 12181 99441 70681 46/30 /2309 10081 40298 56016 91804 22200 00090 10604 70019 333 91211 555 11116 22123
BBXX 44033 12181 99441 70690 46/26 /2308 10077 40295 56021 91804 22200 00082 10602 70010 333 91210 555 11101 22107
BBXX 44022 12181 99409 70737 46/// ///03 10059 21069 40340 91815 22200 00092 333 91204 555 11026 22026
BBXX 44060 12181 99413 70721 46/// ///05 10056 40343 91815 22200 00105 333 91206 555 11051 22051
BBXX 46088 12181 99483 71232 46/// /3505 10039 40249 91820 22200 00079 1//00 70002 333 91206 555 11047 22048 31729 43108 61819 343045 331046 334051 330060 310057 313063
BBXX 51205 12181 99210 71564 46/// ///// 1//// 91818 22200 00241 11107 21005 310// 41104 70033
BBXX 41112 12181 99307 70813 46/// ///// 1//// 91751 22200 00162 11004 21004 313// 41101 70022
BBXX 46221 12181 99339 71186 46/// ///// 1//// 91745 22200 00148 11502 21001 324// 41502 70009
BBXX 46214 12181 99379 71235 46/// ///// 1//// 91757 22200 00113 11208 21005 332// 41206 70039
BBXX 46211 12181 99469 71242 46/// ///// 1//// 91806 22200 00087 11304 20903 328// 41303 70018
BBXX 46222 12181 99336 71183 46/// ///// 1//// 91756 22200 00155 11502 20401 328// 41502 70010
BBXX 46242 12181 99332 71174 46/// ///// 1//// 91758 22200 00152 11401 21001 323// 41401 70007
BBXX 46231 12181 99327 71174 46/// ///// 1//// 91754 22200 00154 11503 20402 326// 41502 70014
BBXX 46223 12181 99335 71178 46/// ///// 1//// 91800 22200 00156 11502 20402 323// 41502 70012
BBXX 46216 12181 99343 71198 46/// ///// 1//// 91757 22200 00142 11502 20301 326// 41501 70008
BBXX 46212 12181 99408 71243 46/// ///// 1//// 91812 22200 00096 11107 21006 331// 41104 70037
BBXX 46229 12181 99438 71246 46/// ///// 1//// 91751 22200 00106 11305 20904 330// 41303 70026
BBXX 41114 12181 99276 70802 46/// ///// 1//// 91816 22200 00241 11004 21004 305// 41101 70021
BBXX 41113 12181 99284 70805 46/// ///// 1//// 91751 22200 00221 11003 21003 308// 41101 70017
BBXX 46241 12181 99330 71173 46/// ///// 1//// 91741 22200 00152 11501 21001 326// 41501 70007
BBXX 42364 12181 99291 70881 46/// /0508 10194 20150 40254 91815
BBXX 42364 12181 99291 70881 46/// /0608 10189 20150 40258 58003 91800
BBXX 41115 12181 99184 70673 46/// ///// 1//// 91805 22200 10902 20902 302// 41101 70010
BBXX 42363 12181 99282 70892 46/// /0709 10200 20150 40254 91815 333 91210
BBXX 42362 12181 99278 70907 46/// /0707 10222 20167 40247 58004 91800
BBXX 42362 12181 99278 70907 46/// /0708 10222 20167 40247 91815
BBXX 46237 12181 99378 71226 46/// ///// 1//// 91810 22200 00113 11404 21002 327// 41403 70020
BBXX 46248 12181 99461 71247 46/// ///// 1//// 91804 22200 00086 11304 20803 329// 41303 70022
BBXX 46244 12181 99409 71244 46/// ///// 1//// 91805 22200 00095 11107 21006 332// 41104 70036
BBXX DQVG 12183 99362 71611 41598 71617 10155 20108 40150 58/// 70222 8/370 22264 00185 20704 328// 41005 5//// 80130
BBXX 62303 12184 99516 70051 46/// /2033 10107 20093 49884 57095 22200 00118 10710 70050 333 90710 91149
BBXX 62442 12184 99490 70164 46/// /2632 1//// 2//// 49920 51003 22200 00130 333 90710 91144
BBXX 63110 12183 99595 10015 41/98 /2230 10069 20012 49848 70086 8//// 22200 10908 70038
BBXX 62163 12184 99475 70084 46/// /2334 10127 20107 40026 56036 22200 00133 11014 70072 333 90710 91147
BBXX 62029 12184 99487 70125 46/// /2228 10125 20104 49930 58018 22200 00136 10914 70069 333 90710 91135
BBXX LF4C 12184 99584 10019 41698 22219 10076 20020 49881 57013 70121 89/// 22200 00076 10705 70025 333 91124
BBXX LF3N 12184 99653 10073 41597 21317 10048 20020 49834 57017 70222 8//// 22200 00100 11008 70040
BBXX LF4B 12184 99606 10037 47/98 /2224 10063 49852 57006 761// 22200 00060 10706 70032 333 91132
BBXX LF5T 12184 99660 10081 41498 61416 10046 20016 49847 57014 78082 869// 22200 06084 10705 70023 333 91123
BBXX LF3F 12184 99643 10078 43/// /1313 10032 21008 49835 57014 22200 04091 11006 70031 333 91120
BBXX 3ERR2 12184 99635 10053 41498 80906 10053 20022 49807 57026 76166 887xx 22200 06092 11506 70028 333 91122
BBXX DQVI 12183 99373 10114 41698 32925 10175 20143 40200 54000 70300 83/// 22273 00194 20708 80155
BBXX NWS0020 12184 99360 10231 43/// /2217 10175 20124 40232 5//// 7//// 8//// 222// 04193 2//// 3//// 4//// 5//// 6//// 8//// ICE /////
BBXX DFCX2 12183 99158 70990 41/98 32806 10300 20260 40152 52019 7//22 8/463 22234 06292 21001 80270
BBXX CFK 12184 99448 70829 41/97 72316 10003 2//// 41021 56010 70302 8//// 22253 0//// 20102 3//// 4//// 5//// 6//// 8//// ICE /////
BBXX WDF7020 12184 99444 70827 41/97 82218 1//// 2//// 40284 54/// 70202 88/2/ 22243 0//// 20302 3//// 4//// 5//// 6//// 8//// ICE /////
BBXX A8SG2 12181 99165 51355 41598 31107 10270 20202 40160 54000 70100 82130 22254 00270 20502 310// 40803 5//// 80225
BBXX SHIP 12183 99021 11481 41/98 40000 10272 20231 40065 56014 70200 8216/ 22274 00300 2//// 30000 80244
BBXX SHIP 12184 99126 31104 41498 62106 10270 20243 40086 57005 70122 8532/ 22214 00292 80250
BBXX MNDC9 12184 99362 31216 41398 81021 10160 40165 55015 70222 887// 22224 04183 2//// 323// 41209
BBXX MINFR05 1218/ 99496 70003 46/// ///// 10088 40087 57030
BBXX DDSC2 12183 99481 70066 41596 82343 10135 20109 40015 57180 76465 887// 22214 00127 20610 80120
BBXX OZDM2 12184 99402 70101 41597 82315 10158 20090 40243 50/// 70222 888// 22244 04170 20804 329// 41210 80120
BBXX 62305 12184 99504 10000 46/97 /2140 10105 20056 40067 58025 22200 00126 10704 70020 333 90710 91148
BBXX 62027 12184 99491 70022 46/// /2025 1//// 2//// 40063 58050 22200 00122 11805 323// 70026
BBXX DMDZ 12183 99332 70110 41598 20512 10180 20131 40280 54000 7//00 82100 22253 04190 20501 333// 40704 5//// 80150
BBXX 62107 12184 99501 70061 46/// /2139 10120 20109 49927 56073 22200 00120 11012 70060 333 90710 91160
BBXX 62095 12184 99531 70159 46/// /2729 10076 20037 49782 55000 22200 00115 11016 70078 333 90710 91146
BBXX 62170 12184 99514 10020 46/97 /2129 10095 20070 40056 58016 22200 00117 10601 70007 333 90710 91144
BBXX 62304 12184 99511 10018 46/96 /2128 10097 20060 40065 57017 22200 00119 10602 70010 333 90710 91144
BBXX 63119 12184 99583 10009 41/97 /2323 10070 20011 49867 56/// 700// 8//// 22200 2//// 323// 40505 5////
BBXX 62094 12184 99517 70067 46/// /2226 10117 20106 49864 56066 22200 00113 10709 70045 333 90710 91142
BBXX 62102 12184 99579 10018 46/// /2319 10072 20018 49892 58011 22200 10605 70027
BBXX 62134 12184 99580 10014 47598 /2222 10072 20020 49885 58017 700// 22200 10606 70028
BBXX 62143 12184 99577 10018 47598 /2312 10075 20021 49896 58017 700// 22200 10606 70028
BBXX 62081 12184 99510 70132 46/// ///// 10107 20075 49848 57004 22200 00118
BBXX 62103 12184 99499 70029 46/97 /2136 10106 20076 40026 57052 22200 00129 10807 70033 333 90710 91152
BBXX 62114 12184 99583 10000 46/// /2119 10066 20002 49867 58019 22200
BBXX AMOUK03 12184 99537 70003 46/// ///// 10059 20039 39926 49959 57019 91750
BBXX 62116 12184 99576 10011 47598 /2318 10067 20020 49891 58015 761// 22200 10606 70031
BBXX AMOUK05 12184 99537 70003 46/// ///// 10057 20030 39915 49957 57023 91750
BBXX 62155 12184 99577 10007 47598 /2323 10074 20024 49891 58019 751// 22200 10605 70026
BBXX AMOUK09 12184 99507 10008 46/// ///// 10107 20063 30048 40065 57004 91750
BBXX 62122 12184 99573 10016 47598 /2122 10089 20024 49907 58018 700// 22200 10606 70028
BBXX 62153 12184 99573 10020 47598 /2225 10073 20027 49908 58009 700// 22200 10606 70029
BBXX 62104 12184 99574 10013 47598 /2321 10075 20025 49897 58014 762// 22200
BBXX 62118 12184 99577 10009 47598 /2125 10083 20022 49883 58017 700// 22200 10605 70026
BBXX 62128 12184 99587 10014 47598 /2219 10066 20011 49873 58009 700// 22200 10706 70030
BBXX 62117 12184 99579 10000 47698 /2220 10070 20019 49875 58018 700// 22200 10505 70023
BBXX 62129 12184 99584 10003 46/// ///// 10067 20009 49875 58021 22200
BBXX 62121 12184 99535 10027 46/// /2224 10073 20022 40018 58009 22200
BBXX 62150 12184 99536 10007 47998 /2027 10071 20035 49990 58031 700// 22200 10502 70012
BBXX 62113 12184 99584 10002 47599 /2218 10067 20009 49875 58019 700// 22200
BBXX 62165 12184 99540 10009 47997 /2226 10072 20031 49977 58032 700// 22200 10504 70018
BBXX 62127 12184 99540 10007 47998 ///// 10070 20032 49971 58032 700// 22200 10504 70018
BBXX 62149 12184 99537 10011 47998 /2027 10072 20036 49986 58029 700// 22200 10503 70017
BBXX 62131 12184 99539 10012 46/// /20// 10074 20038 49984 58023 22200
BBXX ZQSD5 12184 99583 10007 46/// /2222 10071 20015 49879 58017 22200 10807 70036
BBXX 62148 12184 99536 10015 46/// /2024 10070 20035 40002 58023 22200
BBXX 62123 12184 99563 10022 47598 /2222 10079 20029 49934 58012 700// 22200
BBXX 62133 12184 99571 10009 46/// /2020 10073 20008 49906 58010 22200
BBXX 62132 12184 99564 10020 46/// /2520 10077 20020 49934 58015 22200
BBXX J8AZ2 12183 99262 70784 41497 80519 10000 2000/ 40215 52005 7//21 86828 22263 0//// 20302 30506 40302 50302 6//// 80000 ICE /////
BBXX 46207 12181 99509 71299 46/// /1909 10069 40212 57018 22200 00085 10903 70013 333 91211
BBXX 46069 12181 99337 71202 46/// /3403 10121 40086 52006 91750 22200 00131 11403 329// 41403 70016 333 91204 555 11031 22032 31703 43006 61749 339030 346034 344042 316042 309040 303027
BBXX 41029 12181 99328 70796 46/// /0307 1//// 91800 555 11092 22112
BBXX 44032 12181 99437 70694 46/30 /2209 10076 40293 56020 91804 22200 00089 10503 70015 333 91210 555 11113 22120
BBXX 44067 12181 99384 70770 46/// /0702 10058 40342 58016 91800
BBXX C6VG7 12184 99258 70779 415// 40725 10250 2//// 40190 5/010 7//11 84/6/ 22200 0//// 20402 3//// 40402 50402 6//// 8//// ICE /////
BBXX WXJ63 12183 99611 71464 41/96 80602 10018 20009 49885 5//// 761// 8//// 222// 00056 2//// 3//// 4//// 5//// 6//// 8//// ICE /////
BBXX IDDUK02 12184 99651 50648 46/// ///// 49681 222//
BBXX 62154 12184 99564 10022 46/// /2220 10075 20025 49933 58011 22200
BBXX 62120 12184 99564 10021 47598 /2422 10077 20028 49929 58013 700// 22200
BBXX 62152 12184 99570 10018 47/97 /1915 10080 20027 49921 58015 700// 22200 10505 70026
BBXX 62164 12184 99572 10008 47598 /2024 10091 20041 49905 58016 700// 22200 00099 10606 70028
BBXX 62119 12184 99570 10019 47598 /2323 10075 20017 49920 58014 700// 22200 10606 70028
BBXX 62146 12184 99572 10021 47/98 /2322 10071 20011 49917 58011 700// 22200 10606 70029
BBXX 62140 12184 99573 10013 46/// /23// 10073 20025 49903 58009 22200
BBXX PJGO 12184 99571 10022 47598 /2123 10075 20031 49921 58005 700// 22200
BBXX 63117 12184 99613 10011 47498 /2323 10165 20039 49810 56003 700// 22200
BBXX 63112 12184 99611 10010 47/97 /2422 10086 20016 49806 58004 700// 22200 10707 70037
BBXX 63115 12184 99616 10013 47597 /2119 10115 20030 49799 57011 700// 22200 10907 70037
BBXX 64041 12184 99607 70026 47498 /2320 10048 20045 49793 56005 700// 22200 11009 70045
BBXX MWYG6 12184 99603 70040 47998 /2316 10070 700// 22200
BBXX 63107 12184 99611 10017 46/// /2323 10072 49814 56003 22200
BBXX 63106 12184 99610 10017 46/// /2324 10072 49816 56002 22200
BBXX 63108 12184 99608 10017 47598 /2327 10061 20004 49829 53007 700// 22200 10806 70031
BBXX 63103 12184 99612 10011 46/// /2525 10070 20006 49819 52005 22200 10807 70035
BBXX 63104 12184 99612 10016 47998 /2324 10067 20021 49812 55005 700// 22200
BBXX 63101 12184 99612 10009 46/// /2523 10065 20010 49806 56006 22200
BBXX 63105 12184 99610 10017 47597 ///// 10068 20021 49816 56001 761// 22200
BBXX 63055 12184 99606 10016 47897 /2520 10067 20017 49834 56002 700// 22200 10706 70030
BBXX 62112 12184 99584 70002 47698 /2218 10065 20001 49867 58018 700// 22200
BBXX 63113 12184 99610 10017 46/// /2428 10064 20014 49833 51009 22200 10807 70035
BBXX AMOUK14 12184 99535 70054 46/// ///// 10105 20094 39770 49806 57136 91750
BBXX 63057 12184 99592 10015 47598 /2325 10067 20015 49862 58004 700// 22200 10707 70036
BBXX 63056 12184 99597 10016 47598 /2223 10069 20015 49848 51003 700// 22200 10707 70036
BBXX AMOUK27 12184 99579 70053 46/// ///// 1//// 2//// 39802 49802 57030 91750
BBXX 62144 12184 99534 10017 47997 /2025 10070 20033 40002 58031 700// 22200 10403 70015
BBXX 62145 12184 99531 10028 47598 /2024 10080 20024 40020 58015 700// 22200 10504 70022
BBXX 62111 12184 99580 70003 46/// /2322 10066 20012 49879 58020 22200 10504 70022
BBXX 62142 12184 99530 10021 46998 /2122 10075 20033 40011 58022 22200 10403 70015
BBXX PJAI 12184 99581 70014 47998 /2116 10069 21004 49861 57022 700// 22200
BBXX AMOUK13 12184 99519 10013 46/// ///// 10074 20040 30026 40026 57007 91750
BBXX AMOUK19 12184 99571 70021 46/// ///// 10040 20010 39870 49873 57028 91750
BBXX AMOUK21 12184 99564 70055 46/// ///// 10043 20030 39803 49799 57062 91750
BBXX 64046 12184 99605 70049 46/// /2514 10065 20018 49786 58006 22200 00094 10909 70045
BBXX AMOUK08 12184 99501 70061 46/// ///// 10122 20115 39921 49929 57080 91750
BBXX AMOUK10 12184 99508 70011 46/// ///// 10096 20066 30031 40032 57025 91750
BBXX AMOUK06 12184 99509 70014 46/// ///// 10094 20073 39996 40019 57025 91750
BBXX 62001 12184 99452 70050 46/// /2325 10144 20093 40156 58018 22200 00151 11014 70068 333 90710 91134
BBXX 62105 12184 99554 70122 46/// /2428 10082 20035 49690 56021 22200 00107 10812 70059 333 90710 91144
BBXX 62081 12184 99510 70134 46/// ///// 10107 20075 49848 57004 22200 00118 10913 70064
BBXX 62301 12184 99524 70047 46/// /1829 10093 20078 49870 58094 22200 00101 10606 70029 333 90710 91141
BBXX 64045 12184 99591 70117 46/// /1127 10073 20025 49694 56078 22200 00102 10808 70042 333 90710 91136
AAXX 12184 04048 21480 10918 10028 20001 49739 57011 71588 81903 333 10031 20017 60018 555 3/524
AAXX 12181 80402 NIL
AAXX 12181 80412 NIL
AAXX 12181 80416 NIL
AAXX 12181 80420 32470 22704 10330 20168 30089 40095 82500 333 30/// 56900 58011 82613 555 10108
AAXX 12181 80425 11470 82501 10300 20249 30066 40097 69911 70252 8147/ 333 31/// 5699/ 59011 81613 87660 555 10097
AAXX 12181 80426 32570 63602 10270 20198 39463 40106 865// 333 30/// 569// 58003 86620 555 10138
AAXX 12181 80427 32468 80502 10317 20255 39851 40102 8527/ 333 30/// 5699/ 58004 85817 555 10120
AAXX 12181 80431 NIL
AAXX 12181 80434 NIL
AAXX 12181 80437 32470 42702 10324 20209 39993 40078 84500 333 30/// 56900 58006 84613 555 10084
AAXX 12181 80440 32460 61103 10305 20219 39885 40096 8483/ 333 30/// 5699/ 58006 84820 555 10105
AAXX 12181 80442 32470 5//// 10328 20/// 39984 40/// 852// 333 30/// 569// 58009 85813 555 10095
AAXX 12181 80472 32465 81102 10297 20203 39615 40094 8422/ 333 30/// 5699/ 84816 86460 555 10117
AAXX 12181 80475 11440 83605 10227 20223 39758 40127 60021 76026 889// 333 32/// 569// 59011 87713 555 10140
AAXX 12181 80476 32370 3//// 10320 20274 30077 40107 82230 333 31/// 56990 59002 82610
AAXX 12181 80478 NIL
AAXX 12181 80479 NIL
AAXX 12181 80400 NIL
AAXX 12181 80403 32470 80707 10317 20243 30095 40114 81206 333 30/// 56909 58018 81816 88080 555 10117
AAXX 12181 80405 NIL
AAXX 12181 80407 32470 4//// 10320 20261 30033 4//// 84400 333 30/// 56900 5//// 84616 555 10106
AAXX 12181 80410 32470 70905 10270 20229 39431 40106 8521/ 333 30/// 5699/ 58015 85816 555 10143
AAXX 12181 80413 32470 52502 10301 20185 39615 40100 857// 333 30/// 569// 58003 85713 555 10132
AAXX 12181 80415 32470 80501 10296 20253 30043 40099 8327/ 333 30/// 5699/ 58002 83816 85470 555 10099
AAXX 12181 80419 NIL
AAXX 12181 80421 NIL
AAXX 12181 80423 12470 4//// 10311 20203 30075 40092 60031 84900 333 30/// 56200 58010 83610 81910 555 10091
AAXX 12181 80428 32470 60703 10312 20243 39914 40097 865// 333 30/// 569// 58003 86617 555 10110
AAXX 12181 80432 NIL
AAXX 12181 80435 11470 60903 10318 20180 30009 40084 69941 70292 862// 333 31/// 569// 58004 86813 555 10082
AAXX 12181 80438 32570 72305 10236 20174 38506 48503 82515 333 30/// 56999 58011 82623 83280 555 10186
AAXX 12181 80444 32470 4//// 10322 2//// 30029 4//// 84500 333 30/// 56200 58003 84613 555 10077
AAXX 12181 80447 32560 8000 10289 20216 39650 40069 85508 333 30/// 56909 58009 85620 555 10120
AAXX 12181 80448 11465 80000 10264 20252 3//// 4//// 60041 72126 8352/ 333 31/// 5699/ 83617 85457 /////
AAXX 12181 80450 NIL
AAXX 12181 80453 NIL
AAXX 12181 80457 NIL
AAXX 12181 80462 NIL
AAXX 12180 44237 32999 20000 11213 21253 38491 40374 52011 82041
AAXX 12180 44282 32999 02702 11155 21236 38296 40348 52016
AAXX 12184 42309 31995 40000 10144 20129 40151 70522 84030 333 59013
AAXX 12184 42314 31593 30000 10122 20114 40163 71040 82530 333 58002 82620
AAXX 12184 42410 31495 90000 10140 20140 40169 71000 333 58001
AAXX 12184 42415 31595 30000 10150 20139 40174 70500 81530 333 59008 81620 83360
AAXX 12184 42492 31992 00000 10126 20122 40167 74640 333 58000
AAXX 12184 42587 31995 00000 10134 20115 40168 70500 333 58003
AAXX 12184 42591 31/93 00000 10136 20136 40174 74244 333 58006
AAXX 12184 42623 31494 30000 10084 20072 39267 40172 70500 83500 333 58004 83618
AAXX 12184 42701 31494 60000 10152 20128 39418 40161 70522 83530 333 59002 83615 85360
AAXX 12184 42706 31495 70000 10176 20156 40149 70522 85530 333 56690 58000 85615 86360
AAXX 12184 42724 31995 40000 10162 20152 40154 70500 84030 333 59001 84360
AAXX 12184 42809 31995 00000 10188 20151 40149 70520 333 58003
AAXX 12184 42886 31996 00000 10176 20145 40148 70500 333 58004
AAXX 12184 42895 31996 03602 10196 20170 40150 70500 333 58010
AAXX 12184 42971 31995 00503 10204 20188 40146 70500 333 58006
AAXX 12184 43333 31495 61105 10260 20215 40122 70521 85401 333 56309 58003 82616 83818
AAXX 12184 42398 NIL
AAXX 12184 42798 NIL
AAXX 12184 42977 NIL
AAXX 12184 43368 NIL
AAXX 12184 67765 41780 72503 10212 20168 38646 48489 71322 81968 333 10295 58004 81956 87280
AAXX 12184 67775 41670 72508 10220 20164 38487 48491 71522 81273 333 10304 58005 81945 87459
AAXX 12184 67779 NIL
AAXX 12184 67853 NIL
AAXX 12184 67861 NIL
AAXX 12184 67867 41680 70000 10201 20176 38564 48492 71792 81973 333 10285 59005 81930 87459
AAXX 12184 67881 NIL
AAXX 12184 67965 41465 72507 10180 20165 38675 48498 79596 84773 333 10260 59002 81920 84708 87458
AAXX 12184 67975 41665 81801 10200 20191 38903 48492 79596 81973 333 10292 58002 81930 81709 88459
AAXX 12184 67977 NIL
AAXX 12184 67983 41770 71802 10200 20192 38854 48481 71796 81973 333 10295 59008 81956 87460
AAXX 12184 67991 41980 71902 10238 20205 39547 48458 72162 8707/ 333 10358 58009 87460
BBXX DPLE 12183 99417 70299 41497 82825 10145 20110 40215 52015 70286 887// 22200 00160 20505 399// 40907 80125
AAXX 12181 55299 32980 00000 11158 21266 35841 52001 333 05200 11019
AAXX 12181 55591 32980 01102 11032 21196 36497 52003 333 05252 10079
AAXX 12181 56739 32980 00402 10043 20010 38359 57003 333 05153 10165
AAXX 12181 56951 32680 10000 10084 20055 38518 54000 81400 333 00053 10203
AAXX 12181 56964 32565 81601 10125 20102 38732 40181 52001 884// 333 05102 10165
AAXX 12181 57328 31940 00000 10033 20010 39855 40277 52001 71000 333 10110
AAXX 12181 57411 31920 01101 10045 20027 39891 40270 57002 71000 333 10133
AAXX 12181 57447 32962 02901 10015 20012 39725 40286 52001 333 10093
AAXX 12181 57662 32963 70000 10078 21009 30229 40273 57002 8704/ 333 10132
AAXX 12181 57745 32965 70000 10063 20024 39933 40266 52002 8704/ 333 10128
AAXX 12181 57972 32963 70000 10054 20010 30036 40266 57003 8704/ 333 10123
AAXX 12181 58203 32962 20902 10017 21054 30244 40287 57009 80002 333 10107
AAXX 12181 58314 32962 02001 11024 21024 30171 40281 57007 333 10117
AAXX 12181 58424 32961 00402 10042 21058 30251 40277 57010 333 10099
AAXX 12181 59023 32568 32501 10098 20046 39927 40241 54000 81140 333 10159
AAXX 12181 59417 32568 11601 10081 20069 30064 40221 57004 81140 333 10193
AAXX 12181 59985 11568 80405 10226 20214 30136 40141 57019 60011 78080 882// 333 10235
AAXX 12181 59995 NIL
AAXX 12184 94996 45002 80310 10220 20215 39970 40106 53002 91830
AAXX 12184 89050 41295 83420 10014 20010 49740 52008 75075 886//
AAXX 12184 89512 32998 02908 11034 21099 39657 49806 57006 333 11031
AAXX 12184 89574 41598 80701 11051 21084 49768 57005 70272 8257/
AAXX 12184 89592 42598 72702 11049 21062 49783 57001 87500
AAXX 12184 89606 42998 51802 11342 21414 36202 47847 57003 80001 333 11267
AAXX 12184 94996 45002 80310 10220 20215 39970 40106 53002 91830
AAXX 12181 26058 01480 81804 10015 21012 30099 40107 58008 69942 70222 875// 333 10030 21009 60007 87615 91110 555 1/000 21009 3/102 50019 52102
BBXX 46185 12181 99524 71298 46/// /1811 10057 40201 57016 22200 00069 10403 70015 333 91213
AAXX 12180 44229 32999 03203 11227 21252 37918 40428 53017
BBXX 46185 12181 99524 71298 46/// /1811 10057 40201 57016 22200 00069 10403 70015 333 91213
AAXX 12181 24790 41999 70705 11171 21205 39200 40033 52010 73632 87070
AAXX 12181 24988 NIL
AAXX 12181 25378 11596 72903 11028 21041 39836 49868 52026 60052 78583 86950 333 21029 48036 91108
AAXX 12181 25503 41696 80205 11187 21220 39910 40043 52019 77373 8452/ 333 91113
AAXX 12181 25705 41696 80204 11204 21229 39696 40042 52016 78583 889//
AAXX 12181 25927 42698 82905 11217 21257 39937 49944 52010 81907
AAXX 12181 25932 41999 80000 11160 21203 39857 49886 52010 80007
AAXX 12181 31152 42997 01802 11255 21290 39740 40195 53002
AAXX 12181 31174 41599 13107 11169 21238 30082 40094 53001 73630 81500 333 91011 91117
AAXX 12181 31489 42999 60000 11286 21310 30024 40152 53006 80001
AAXX 12181 31866 42999 03303 11198 21256 30183 40189 52017
AAXX 12181 31959 42998 00000 11117 21200 30191 40236 52010
AAXX 12181 31989 42999 02303 11061 21166 30219 40275 52014
AAXX 12181 32027 42599 52906 11174 21243 30075 40084 52002 82930 333 91008 91110
AAXX 12181 32076 42598 53103 11152 21233 30070 40081 52008 85500 333 91007 91107
AAXX 12181 32099 41596 53217 11125 21187 30087 40095 53016 73731 85900 333 91019 91123
AAXX 12181 32121 41597 83308 11098 21151 30103 40126 52025 78583 789// 333 91013 91113
AAXX 12181 32213 41598 32909 11044 21071 39878 49942 57001 70231 83500 333 91012 91115
AAXX 12181 32287 42999 21403 11192 21204 39875 49886 53007 82030
AAXX 12181 32408 42999 01003 11193 21234 39850 49890 52007
AAXX 12181 32509 42998 60304 11115 21168 39869 49904 52006 80001
AAXX 12181 32594 41598 71003 11056 21074 39895 49931 52001 70283 85301 333 91118 92980
BBXX NIL
BBXX NIL
AAXX 12184 40250 NIL
AAXX 12184 40265 NIL
AAXX 12184 40296 32960 00000 10136 20046 40215 54001 333 10208
AAXX 12184 40310 NIL
BBXX NIL
AAXX 12184 40255 32960 00000 10090 20020 39510 40240 54002 333 10172
AAXX 12184 40260 NIL
AAXX 12184 40270 31950 00000 10080 21030 39329 40252 52005 70500 333 10160
AAXX 12184 40272 31957 50706 10082 21035 39396 40253 52008 70500 80001 333 10170 85070
AAXX 12184 40290 NIL
AAXX 12184 40340 32960 03612 10140 20012 40206 52009 333 10210
BBXX NIL
AAXX 12184 89132 NIL
AAXX 12184 89542 NIL
AAXX 12184 89575 NIL
AAXX 12184 89657 46/// /1413 11050 20002 49765 57006
AAXX 12184 89016 46/89 /3412 11055 29070 39368 4//// 5////
BBXX NIL
AAXX 12181 80001 01470 80306 10238 20238 30122 40123 60371 72165 81278 333 56110 58014 60307 82810 87357
AAXX 12181 80002 01470 80404 10238 20229 60141 75165 8212/ 333 5619/ 60147 82815 88457
AAXX 12181 80009 31560 62302 10288 20238 30094 40099 70522 82806 333 56090 58009 82820 86270
AAXX 12181 80022 01462 72404 10292 20244 30098 40100 69931 70522 83226 333 56599 58009 83813 83457
AAXX 12181 80028 31460 81202 10298 20247 30073 40108 70522 8251/ 333 5699/ 58005 82615 87457
AAXX 12181 80035 01456 80000 10256 20248 30100 40105 60371 79562 8497/ 333 5609/ 57931 58010 60377 84912 85457
AAXX 12181 80036 31462 82102 10284 20246 71522 84278 333 56000 57893 84810 85270
AAXX 12181 80063 31468 60000 10310 20251 70522 84510 333 5600/ 84620
AAXX 12181 80084 11462 72104 10273 20236 60011 71552 84216 333 56999 57833 84817 83459 85270
AAXX 12181 80091 31470 42702 10288 20233 70522 84200 333 560// 84815
AAXX 12181 80094 11463 73103 10216 20191 38807 66991 70552 84870 333 5679/ 58013 84812 85458
AAXX 12181 80097 32570 73604 10288 20211 39738 40083 83836 333 56999 58015 83820 83359
AAXX 12181 80099 11464 50000 10282 20248 39907 40050 60141 70595 85801 333 56999 57832 58010 85815
AAXX 12181 80110 11570 82203 10230 20149 38499 60021 70552 8387/ 333 5600/ 57895 58024 83832 88358
AAXX 12181 80112 11470 71403 10196 20126 37895 69941 70552 83271 333 56000 57895 58006 83817 86358
AAXX 12181 80139 32570 31502 10340 20223 83100 333 564// 83623
AAXX 12181 80144 01458 72404 10262 20229 60011 70552 84250 333 5600/ 69917 84815 87358
AAXX 12181 80149 NIL
AAXX 12181 80210 11464 82602 10226 20183 38663 60031 70575 84271 333 56980 57891 58016 84815 83358
AAXX 12181 80211 11460 72404 10236 20187 60171 71552 85270 333 5683/ 57803 85820 84360
AAXX 12181 80214 31460 61504 10251 20220 39114 70522 86801 333 565/0 58014 86817
AAXX 12181 80222 41467 72206 10178 20112 37510 71562 85275 333 56999 57894 58011 81817 85820
AAXX 12181 80234 11562 73402 10290 20220 39596 40090 69921 70352 85131 333 56339 58003 85823
AAXX 12181 80241 NIL
AAXX 12181 80259 11560 70000 10264 20193 39051 60031 70552 85835 333 56349 58018 85820 83270
AAXX 12181 80315 01460 70000 10265 20227 39592 40091 60071 70165 83150 333 5682/ 58023 60027 83815 86361
AAXX 12181 80342 32565 63304 10198 20151 38212 86800 333 564// 58006 86820
AAXX 12181 80370 01462 70502 10140 20100 69961 71552 87800 333 562// 69927 87818
AAXX 12181 80398 32470 42602 10306 20265 39997 40092 83830 333 5611/ 58008 83815 83358
BBXX TBWUK17 12183 99004 11063 41697 63405 10271 20241 40127 54000 70311 86738 22233 04280 20402 20100 33435 40501 50602 80250
AAXX 12184 62458 32960 03405 10170 20040 40182 52008 333 10220
AAXX 12184 62420 32960 03603 10150 20082 40234 52011 333 10229
AAXX 12184 62432 32960 02902 10168 20037 40212 52013 333 10222
AAXX 12184 62435 32960 02802 10150 20027 40199 52011 333 10214
AAXX 12184 62455 32960 03307 10156 20065 40215 52015 333 10209
AAXX 12184 62476 32960 03508 10214 20175 40161 52011 333 10254
AAXX 12184 62309 32560 60205 10170 20108 40245 52003 86800 333 10196
AAXX 12184 62325 32560 23603 10162 20110 40248 52006 82500 333 10208
AAXX 12184 62332 32560 40310 10178 20119 40240 52005 84500 333 10197
AAXX 12184 62387 32960 03504 10147 20099 40213 52010 333 10202
AAXX 12184 62459 32960 00104 10176 20095 40193 52008 333 10212
AAXX 12184 62452 32960 00205 10100 20006 40251 52009 333 10180
AAXX 12184 62309 32560 60205 10170 20108 40245 52003 86800 333 10196
AAXX 12184 62325 32560 23603 10162 20110 40248 52006 82500 333 10208
AAXX 12184 62332 32560 40310 10178 20119 40240 52005 84500 333 10197
AAXX 12184 62387 32960 03504 10147 20099 40213 52010 333 10202
AAXX 12184 62459 32960 00104 10176 20095 40193 52008 333 10212
AAXX 12184 62452 32960 00205 10100 20006 40251 52009 333 10180
AAXX 12181 23074 41597 81505 11126 21146 30242 40268 57001 73686 8291/
AAXX 12181 23274 41697 71802 11134 21147 30272 40310 53001 70282 83530
AAXX 12181 23383 41597 80000 11180 21199 39981 40359 57001 77187 8652/
AAXX 12181 23472 41598 51602 11155 21174 30293 40345 52007 70282 82501
AAXX 12181 23678 429// 60901 11163 21176 30325 40387 57001 80009
AAXX 12181 23884 429// 60000 11252 21271 30347 40429 53004 80006
AAXX 12181 23891 42996 50000 11249 21281 30061 52010 83081
AAXX 12181 24507 419// 22901 11274 21298 30118 40389 52003 70271 82030
AAXX 12181 24817 419// 00501 11252 21271 39930 40335 53023 70271
AAXX 12181 24908 42998 80000 11235 21260 30012 40374 52010 87037
AAXX 12181 29263 42978 30000 11259 21284 30318 40431 52012 80001
AAXX 12181 29282 42984 23001 11264 21282 30226 40417 52007 80001
AAXX 12181 29379 42998 00000 11283 21300 30204 40440 52005
AAXX 12181 29570 NIL
AAXX 12181 29698 419// 83501 11125 21157 39869 40413 52014 77172 8802/
AAXX 12181 30230 41997 80000 11216 21234 39980 40336 51002 77172 8807/
AAXX 12181 30252 419// 80901 11209 21228 39964 40305 57001 77372 8805/
AAXX 12181 30309 41598 83001 11142 21155 39834 40387 51012 78582 82935
AAXX 12181 30328 419// 80000 11204 21216 39915 40377 52012 77172 80007
AAXX 12181 30521 429// 20000 11217 21229 39807 40379 52024 80001
AAXX 12181 30710 41596 73003 11136 21163 39766 40384 52021 78583 87900
AAXX 12181 23973 42999 23301 11247 21263 30367 40437 53013 80001
AAXX 12181 23975 429// 80000 11241 21267 30320 40442 52008 80007
AAXX 12181 23986 41994 00000 11192 21211 39746 40436 53009 71011 95090
AAXX 12181 23987 42999 00000 11286 21310 30356 40441 52011
AAXX 12181 24606 429// 00000 11332 21356 30081 40388 52018
AAXX 12181 29253 429// 00000 11290 21321 30244 40438 52006
AAXX 12181 29471 42998 50000 11260 21271 30194 40451 52007 80001
AAXX 12181 29481 42999 00000 11270 21295 30176 40446 52010
AAXX 12181 29553 42971 00701 11268 21293 30027 40447 52004
AAXX 12181 29562 42984 00000 11251 21276 39975 40440 52006
AAXX 12181 29581 419// 80000 11212 21231 30158 40441 52011 77172 8802/
AAXX 12181 29594 41598 83002 11145 21172 30013 40425 52013 78582 889//
AAXX 12181 29653 42997 01602 11274 21305 39900 40444 52004
AAXX 12181 29675 42998 00000 11245 21270 39800 40459 52006
AAXX 12181 29676 41998 00000 11226 21244 39970 40438 52008 70171
AAXX 12181 29752 429// 11103 11167 21180 38886 48516 52001 80001
AAXX 12181 29759 429// 00000 11205 21217 39311 40428 52003
AAXX 12181 29766 42999 00000 11302 21313 30050 40455 52008
AAXX 12181 29789 42999 50000 11220 21233 39162 40457 52015 80001
AAXX 12181 29864 429// 03304 11238 21256 39722 40442 52005
AAXX 12181 29866 419// 80000 11222 21227 30081 40435 52010 71022 80001
AAXX 12181 29869 419// 00000 11292 21322 30028 40453 52007
AAXX 12181 29956 41856 80503 11192 21211 39813 40422 52002 77172 8807/
AAXX 12181 30337 41996 80000 11238 21256 39873 40366 52013 77371 80007
AAXX 12181 30405 419// 83201 11144 21164 39845 40407 52019 70272 8807/
AAXX 12181 30504 41597 73101 11147 21174 39722 40413 52017 78582 84330
AAXX 12181 30603 41597 83002 11135 21162 39786 40391 52019 70283 83907
AAXX 12181 30612 415// 83303 11122 21142 39818 40380 52028 78582 8597/
AAXX 12181 30622 429// 23103 11150 21163 39665 40348 52024 80003
AAXX 12181 30627 41999 23404 11159 21193 39364 40350 52023 70171 80001
AAXX 12181 30703 419// 82702 11136 21156 39684 40397 51016 77172 83077
AAXX 12181 36307 42897 70601 11235 21254 39032 48550 51006 87030 333 95090
AAXX 12184 71351 17/// /1906 11057 21086 60011 7//4/ 333 11054 21098 70014
AAXX 12184 71353 17/// /2013 11080 21104 60011 7//4/ 333 11073 21131 70012
AAXX 12184 71375 46/// /0303 11065 6///1 333 11056 21138 7////
AAXX 12184 71385 46/// /2224 10007 6///1 333 10015 21067 7////
AAXX 12184 71257 17/// /1808 11091 21103 69961 7//4/ 333 11067 21114 70006
AAXX 12184 71258 16/// /1809 11108 21122 60001 333 11077 21147 70035
AAXX 12184 71259 16/// /1204 11091 21108 60001 333 11068 21104 70010
AAXX 12184 71274 16/// /1609 11086 21096 60001 333 11082 21146 70000
AAXX 12184 71275 46/// /1610 11083 21100 6///1 333 11083 21116 7////
AAXX 12184 71278 16/// /1609 11080 21097 60001 333 11080 21173 70000
AAXX 12184 71287 16/// /2109 11064 21082 60001 333 11063 21105 70000
AAXX 12184 71289 16/// /1809 11082 21098 60001 333 11063 21107 70000
AAXX 12184 71683 46/// /0308 11166 39762 49871 53007 6///1 333 11103 21179 7////
AAXX 12184 71010 16/// /1809 11046 21085 60001 333 11046 21080 70000
AAXX 12184 71916 46/// /3505 11325 21352 39916 49973 56001 6///1 333 11314 21347 7////
AAXX 12184 71214 16/// /1806 11066 21088 60001 333 11066 21084 70000
AAXX 12184 71223 16/// /1808 11071 21093 60001 333 11071 21088 70000
AAXX 12184 71225 17/// /2602 11048 21066 69991 7//4/ 333 11047 21076 70044
AAXX 12184 71229 46/// /1614 11072 21094 6///1 333 11072 21138 7////
AAXX 12184 71525 17/// /0000 11054 21055 60021 7//4/ 333 11053 21071 70041
AAXX 12184 71526 16/// /2207 11097 21103 60001 333 11078 21107 70043
AAXX 12184 71535 17/// /2003 11104 21112 69951 7//4/ 333 11046 21110 70050
AAXX 12184 71536 17/// /1701 11075 21090 60011 7//4/ 333 11046 21127 70056
AAXX 12184 71537 17/// /1703 11104 21114 69951 7//4/ 333 11064 21164 70031
AAXX 12184 71464 46/// ///14 10034 30081 40299 58011 6///1 333 10035 20002 7////
AAXX 12184 71558 46/// ///// 11122 21161 30169 40207 56001 6///1 333 11113 21164 7////
AAXX 12184 71445 17/// /1903 11147 21177 30036 40328 50003 60021 7//4/ 333 11128 21187 70020
AAXX 12184 71345 17/// /3003 11066 21080 60011 7//4/ 333 11046 21082 70046
AAXX 12184 60679 36/// /0314 10060 21120 333 10153
AAXX 12184 60650 36/// /0111 10206 21079 333 10241
AAXX 12184 42027 31994 00000 11002 21011 38457 48545 71000 333 58003
AAXX 12184 42101 31994 00000 10100 20096 40185 71000 333 58020
AAXX 12184 42111 31996 00502 10100 20096 39832 40177 70500 333 58002
AAXX 12184 42131 32996 00000 10080 20049 40184 333 58015
AAXX 12184 42165 31995 00000 10150 20025 40165 70500 333 58012
AAXX 12184 42182 31993 00000 10108 20092 40180 71100 333 58012
AAXX 12184 42328 32996 02002 10156 21028 40164 333 58017
AAXX 12184 42339 31995 00501 10134 20020 40169 70500 333 58009
AAXX 12184 42348 31995 00000 10126 20037 40179 70400 333 58013
AAXX 12184 42361 31995 00000 10110 20094 40178 70500 333 58011
AAXX 12184 42369 31991 00000 10110 20098 40172 74644 333 58003
AAXX 12184 42379 31594 82703 10154 20117 40160 71042 8552/ 333 58003 85625 88458
AAXX 12184 42452 32996 00000 10142 20068 40176 333 58008
AAXX 12184 42071 NIL
AAXX 12184 42189 NIL
AAXX 12184 42260 NIL
AAXX 12184 42475 NIL
AAXX 12183 42071 31995 00000 10088 20053 40188 70500 333 58017
AAXX 12181 51711 32780 72201 11061 21118 38015 52001 875// 333 05409 11026
AAXX 12181 51730 32970 72001 11073 21089 40310 52003 80002 333 05405 11011
AAXX 12181 52112 32980 00000 11129 21203 40306 52007 333 05451 11029
AAXX 12181 52737 32980 00701 11114 21267 37076 57004 333 05304 11027
AAXX 12181 52787 32980 01603 11119 21228 37010 57008 333 05202 11056
AAXX 12181 53352 32980 02202 11114 21161 40265 57006 333 11022
AAXX 12181 53593 32962 00701 11042 21102 40268 57013 333 10015
AAXX 12181 53705 32970 20000 11077 21110 40283 57013 80002 333 05601 10018
AAXX 12181 53863 31956 00000 11058 21067 40302 57010 71000 333 10027
AAXX 12181 53975 32964 62901 11020 21069 40292 57008 80002 333 10079
AAXX 12181 54273 32970 00901 11208 21235 40336 57002 333 11048
AAXX 12181 54324 32970 71803 11056 21125 40288 57019 80002 333 10021
AAXX 12181 54405 32965 23202 11043 21111 40271 57013 82030 333 10040
AAXX 12181 54436 32780 80901 11041 21080 40307 57013 885// 333 10048
AAXX 12181 54808 31958 80000 11017 21028 40286 57012 71000 80007 333 10094
AAXX 12181 54826 32980 82203 11042 21119 38508 57007 80007 333 10022
AAXX 12181 54836 32962 00000 11014 21037 40303 57006 333 10093
AAXX 12181 54863 32965 00201 10005 21020 40304 57002 333 10103
AAXX 12181 56018 32980 02001 11146 21244 36163 57002 333 05351 10005
AAXX 12181 56021 32980 11102 11142 21254 36045 57012 80002 333 05405 11037
AAXX 12181 57071 32962 70402 10025 21022 40282 57011 80002 333 10099
AAXX 12184 63729 12480 10000 10200 20185 38853 48/// 60012 81900 333 0//90 10262 55300 58003 81618 81920
AAXX 12184 63756 31580 42707 10228 20193 38850 48487 71322 81931 333 10275 58001 81823 81924 84074
AAXX 12184 63791 32580 21215 10262 20150 39103 48492 82500 333 10335 58005 82626
AAXX 12184 63801 12580 70000 10251 20184 39195 48511 60152 8197/ 333 0//96 10260 58010 81821 81922 87359
AAXX 12184 63832 32480 20000 10200 20193 38807 48475 81930 333 10264 55300 58001 81817 81918
AAXX 12184 63862 63862 32580 50000 10228 20170 38879 48487 85903 333 10290 58002 85620 81921
AAXX 12184 63866 32580 40310 10263 20208 39497 48/// 82901 333 10322 59006 82625 81927
AAXX 12184 63870 63870 12480 10610 10270 20253 30080 40098 69902 81200 333 0//59 10327 55300 58003 81216
AAXX 12184 63881 01480 40000 10164 20156 38191 48/// 69922 71365 83920 333 0//11 20233 59002 69927 83617 81919
AAXX 12184 63887 11580 60000 10200 20175 38578 48496 69932 71322 83932 333 10268 55300 58002 83820 81923 85358
AAXX 12184 63894 12580 10410 10270 20242 30046 40106 60042 81200 333 0//27 10325 55300 58004 81820
AAXX 12184 63932 12580 60000 20280 20180 38302 48499 60332 8492/ 333 10235 58004 84822 81923 86458
AAXX 12184 63962 31580 62706 10223 20190 38942 48502 71722 84930 333 10290 58017 84623 81925 84358
AAXX 12184 63971 12580 40208 10250 20240 39970 40099 60262 82930 333 0//17 10279 55300 58000 82822 81923 84358
AAXX 12184 63733 NIL
AAXX 12181 80001 01470 80306 10238 20238 30122 40123 60371 72165 81278 333 56110 58014 60307 82810 87357
AAXX 12181 80002 01470 80404 10238 20229 60141 75165 8212/ 333 5619/ 60147 82815 88457
AAXX 12181 80009 31560 62302 10288 20238 30094 40099 70522 82806 333 56090 58009 82820 86270
AAXX 12181 80022 01462 72404 10292 20244 30098 40100 69931 70522 83226 333 56599 58009 83813 83457
AAXX 12181 80028 31460 81202 10298 20247 30073 40108 70522 8251/ 333 5699/ 58005 82615 87457
AAXX 12181 80035 01456 80000 10256 20248 30100 40105 60371 79562 8497/ 333 5609/ 57931 58010 60377 84912 85457
AAXX 12181 80036 31462 82102 10284 20246 71522 84278 333 56000 57893 84810 85270
AAXX 12181 80063 31468 60000 10310 20251 70522 84510 333 5600/ 84620
AAXX 12181 80084 11462 72104 10273 20236 60011 71552 84216 333 56999 57833 84817 83459 85270
AAXX 12181 80091 31470 42702 10288 20233 70522 84200 333 560// 84815
AAXX 12181 80094 11463 73103 10216 20191 38807 66991 70552 84870 333 5679/ 58013 84812 85458
AAXX 12181 80097 32570 73604 10288 20211 39738 40083 83836 333 56999 58015 83820 83359
AAXX 12181 80099 11464 50000 10282 20248 39907 40050 60141 70595 85801 333 56999 57832 58010 85815
AAXX 12181 80110 11570 82203 10230 20149 38499 60021 70552 8387/ 333 5600/ 57895 58024 83832 88358
AAXX 12181 80112 11470 71403 10196 20126 37895 69941 70552 83271 333 56000 57895 58006 83817 86358
AAXX 12181 80139 32570 31502 10340 20223 83100 333 564// 83623
AAXX 12181 80144 01458 72404 10262 20229 60011 70552 84250 333 5600/ 69917 84815 87358
AAXX 12181 80149 NIL
AAXX 12181 80210 11464 82602 10226 20183 38663 60031 70575 84271 333 56980 57891 58016 84815 83358
AAXX 12181 80211 11460 72404 10236 20187 60171 71552 85270 333 5683/ 57803 85820 84360
AAXX 12181 80214 31460 61504 10251 20220 39114 70522 86801 333 565/0 58014 86817
AAXX 12181 80222 41467 72206 10178 20112 37510 71562 85275 333 56999 57894 58011 81817 85820
AAXX 12181 80234 11562 73402 10290 20220 39596 40090 69921 70352 85131 333 56339 58003 85823
AAXX 12181 80241 NIL
AAXX 12181 80259 11560 70000 10264 20193 39051 60031 70552 85835 333 56349 58018 85820 83270
AAXX 12181 80315 01460 70000 10265 20227 39592 40091 60071 70165 83150 333 5682/ 58023 60027 83815 86361
AAXX 12181 80342 32565 63304 10198 20151 38212 86800 333 564// 58006 86820
AAXX 12181 80370 01462 70502 10140 20100 69961 71552 87800 333 562// 69927 87818
AAXX 12181 80398 32470 42602 10306 20265 39997 40092 83830 333 5611/ 58008 83815 83358
AAXX 12184 89667 46/// /1004 11083 29070 39844 4//// 5//// 91810
AAXX 1218/ 89327 46/// ///// 11005 39597 4//// 5//// 91810
AAXX 1218/ 89108 46/// ///// 11275 36877 4//// 5//// 91810
AAXX 1218/ 89108 46/// ///// 11274 36877 4//// 5//// 91820
AAXX 1218/ 89879 46/// ///// 11024 39698 4//// 5//// 91810
AAXX 1218/ 89872 46/// ///// 11095 39796 4//// 5//// 91810
AAXX 1218/ 89869 46/// ///// 11053 39784 4//// 5//// 91810
AAXX 1218/ 89866 46/// ///// 11034 39730 4//// 5//// 91810
AAXX 1218/ 89329 46/// ///// 11106 38701 4//// 5//// 91810
AAXX 1218/ 89799 46/// ///// 11204 4//// 5////
AAXX 1218/ 89799 46/// ///// 11219 4//// 5//// 91810
AAXX 1218/ 89332 46/// ///// 11078 39208 4//// 5//// 91810
AAXX 1218/ 89769 46/// ///// 11053 39816 4//// 5//// 91810
AAXX 1218/ 89314 46/// ///// 11154 38150 4//// 5//// 91810
AAXX 12184 68513 36/// /1314 10178 20143 39971 40082 53008 333 10244 20178 91018 555 91008
AAXX 12184 68514 NIL
AAXX 12184 68523 36/// /2906 10282 21125 39023 48455 57005 333 10327 20282 91009 555 91008
AAXX 12184 68527 36/// /2505 10279 21108 39000 48457 52006 333 10333 20279 91007 555 91008
AAXX 12184 68572 31324 80903 10152 20142 38366 48475 52018 71000 886// 333 10283 20152 91006 555 91015
AAXX 12184 68575 16/// /0000 10168 20158 39058 48481 53008 69922 333 10239 20167 91003 555 20002 69925 91013
AAXX 12184 68581 36/// /1602 10178 20168 39337 48483 53013 333 10205 20177 91003 555 91011
AAXX 12184 68583 36/// /0000 10227 20172 39984 40092 53011 333 10257 20227 91004 555 91009
AAXX 12184 68589 36/// /0403 10147 20134 38217 48478 53020 333 10286 20142 91006 555 91016
AAXX 12184 68613 36/// /2108 10166 20133 39971 40086 57011 333 10226 20162 91014 555 91008
AAXX 12184 68647 36/// /1116 10177 20113 38866 48464 53003 333 10270 20177 91024 555 91012
AAXX 12184 68651 36/// /1207 10143 20118 38522 48484 52013 333 10263 20143 91010 555 91016
AAXX 12184 68715 36/// /2004 10207 20125 39954 40079 56001 333 10294 20207 91009 555 91008
AAXX 12184 68717 36/// /1807 10217 20121 39933 40074 52003 333 10298 20217 91012 555 91007
AAXX 12184 68723 36/// /1806 10226 20112 39313 48457 53000 333 10311 20226 91015 555 91007
AAXX 12184 68737 32975 01702 10229 20008 39171 48457 52003 333 10288 20229 91004 555 91008
AAXX 12184 68744 36/// /1514 10211 20091 39028 48449 52005 333 10284 20211 91022 555 91008
AAXX 12184 68747 36/// /1609 10183 20116 39572 48485 53023 333 10291 20183 91013 555 91010
AAXX 12184 68754 36/// /0904 10149 20129 39102 48483 52020 333 10271 20149 91006 555 91013
AAXX 12184 68817 NIL
AAXX 12184 68821 36/// /1211 10226 20124 39830 40063 52017 333 10298 20225 91016 555 91007
AAXX 12184 68835 36/// /1003 10192 20125 39977 40090 53010 333 10269 20192 91007 555 91009
AAXX 12184 68843 36/// /2606 10175 20140 39992 40091 53005 333 10250 20175 91010 555 91009
AAXX 12184 68849 36/// /1705 10141 20111 39364 48467 53010 333 10236 20140 91010 555 91011
AAXX 12184 68912 36/// /1509 10175 20146 30078 40087 57003 333 10201 20174 91011 555 91008
AAXX 12184 68918 36/// /0803 10195 20154 30073 40091 58002 333 10224 20195 91004 555 91009
AAXX 12184 68921 36/// /1804 10201 20153 30088 40091 53000 333 10239 20201 91006 555 91009
AAXX 12184 68925 36/// /0000 10182 20127 39727 40087 53002 333 10253 20182 91004 555 91009
AAXX 12184 68926 36/// /1305 10194 20149 39916 40093 52013 333 10262 20193 91007 555 91009
AAXX 12184 68935 36/// /0602 10184 20139 30024 40087 56001 333 10238 20184 91003 555 91008
AAXX 12181 38439 11596 80401 10000 21005 30017 40365 52009 60040 77177 8802/ 333 10003
AAXX 12181 38196 11/92 91402 11051 21051 39328 40346 51009 69930 77374 333 10034 96045
AAXX 12181 38328 115// 82704 11021 21027 39610 40362 52010 60030 78582 889// 333 10030
AAXX 12181 38334 11995 82904 11032 21042 39363 40360 52009 60020 77177 8801/ 333 10045
AAXX 12181 38196 11/92 91402 11051 21051 39328 40346 51009 69930 77374 333 10034 96045
AAXX 12181 38334 11995 82904 11032 21042 39363 40360 52009 60020 77177 8801/ 333 10045
AAXX 12181 38198 115// 81202 11029 21036 30088 40356 52016 60030 77172 8802/ 333 11014
AAXX 12181 38196 11/92 91402 11051 21051 39328 40346 51009 69930 77374 333 10034 96045
AAXX 12181 38328 115// 82704 11021 21027 39610 40362 52010 60030 78582 889// 333 10030
AAXX 12181 38196 11/92 91402 11051 21051 39328 40346 51009 69930 77374 333 10034 96045
BBXX 46208 12181 99525 71327 46/// /3004 10070 40172 54000 22200 00077 11407 70033 333 91206
BBXX 46208 12181 99525 71327 46/// /3004 10070 40172 54000 22200 00077 11407 70033 333 91206
AAXX 12184 68514 NIL
AAXX 12184 68817 NIL
AAXX 12181 50548 32980 73601 11231 21262 40274 52001 80002 333 11082
AAXX 12181 50564 32970 01601 11249 21273 40275 52003 333 11123
AAXX 12181 51334 32970 71101 11086 21104 40321 52004 80002 333 05251 11057
AAXX 12181 51818 32865 72901 11053 21079 40322 52013 83502 333 05204 11009
AAXX 12181 52378 32980 02204 11093 21143 40275 57005 333 05701 11001
AAXX 12181 53487 32960 03602 11096 21132 40273 57008 333 10018
AAXX 12181 53502 32980 02001 11071 21153 40279 57007 333 05703 11001
AAXX 12181 53923 32980 02002 11031 21106 40281 57012 333 10016
AAXX 12181 54049 32970 01802 11106 21181 40287 57011 333 11036
AAXX 12181 54115 32680 72501 11131 21176 40258 57017 85502 333 11032
AAXX 12181 54157 32963 01601 11147 21174 40306 57006 333 11027
AAXX 12181 54186 32970 02901 11193 21222 40329 52001 333 11051
AAXX 12181 54311 32980 03602 11142 21163 40301 57009 333 11017
AAXX 12181 54346 32965 01101 11103 21140 40318 57006 333 11007
AAXX 12181 54377 32970 03603 11118 21149 40332 52001 333 10011
AAXX 12181 54386 32970 00403 11189 21222 40346 52008 333 11032
AAXX 12181 54493 32970 00401 11126 21142 40323 57001 333 10003
AAXX 12181 54587 NIL
AAXX 12181 54715 32962 81801 11014 21031 40285 57012 80007 333 10089
AAXX 12181 54929 32960 50000 11010 21029 40297 57006 80002 333 10091
AAXX 12181 54945 32960 02901 10032 21008 40298 57001 333 10102
AAXX 12181 56065 32980 01102 11164 21211 36609 57013 333 05200 10013
AAXX 12181 57193 32962 01101 10031 21044 40286 57007 333 10105
AAXX 12181 57290 32962 70701 10025 21032 40283 57006 8703/ 333 10098
AAXX 12184 68174 31670 41304 10255 20132 38752 48482 53015 70500 82282 333 10301 20254 91006 555 91014
AAXX 12184 68191 36/// /0508 10288 20181 39575 48502 53020 333 10385 20287 91011 555 91008
AAXX 12184 68242 32680 22106 10256 21046 38680 48464 53008 82400 333 10312 20256 91007 555 91012
AAXX 12184 68262 36/// /0000 10261 20101 38665 48476 53007 333 10302 20261 91002 555 91014
AAXX 12184 68263 32880 42003 10239 20096 38454 48478 53007 84080 333 10273 20236 91003 555 91016
AAXX 12184 68267 NIL
AAXX 12184 68289 36/// ///// 1//// 2//// 3//// 4//// 5//// 333 1//// 2//// 555
AAXX 12184 68350 36/// /2802 10215 20024 38629 48481 53008 333 10332 20214 91003 555 91015
AAXX 12184 68368 11980 40205 10234 20093 38294 48485 53015 69912 70582 83063 333 10266 555 20001 91018
AAXX 12184 68403 NIL
AAXX 12184 68424 32882 11905 10267 21037 39118 48457 56006 81070 333 10360 20264 91006 555 91007
AAXX 12184 68438 32982 02605 10211 21006 38758 48454 53000 333 10302 20211 91005 555 91011
AAXX 12184 68442 32980 03003 10190 20016 38616 48469 52007 333 10282 20178 91005 555 91014
AAXX 12184 68461 32980 12604 10191 21017 38289 48472 53008 80004 333 10263 20191 91006 555 91016
AAXX 12184 68512 32982 22207 10180 20066 38968 48466 53011 80002 333 10295 20180 91011 555 91011
AAXX 12184 68538 32982 02808 10240 21049 38651 48439 56001 333 10297 20240 91010 555 91009
AAXX 12184 68587 36/// /1204 10227 20172 30079 40091 53007 333 10244 20226 91005 555 91009
AAXX 12184 68588 36/// /2006 10220 20184 30088 40104 53010 333 10258 20220 91008 555 91010
AAXX 12184 68591 16/// /0000 10231 20183 39926 40103 53008 69922 333 10251 20231 91001 555 20002 91010
AAXX 12184 68592 NIL
AAXX 12184 68618 32980 12412 10221 20043 38987 48462 53001 80002 333 10304 20221 91015 555 91010
AAXX 12184 68633 36/// /0000 10190 21036 38450 48444 52006 333 10278 20189 91003 555 91012
AAXX 12184 68668 32670 31108 10171 20128 39256 48479 53016 83500 333 10265 20168 91013 555 91012
AAXX 12184 68714 36/// /2011 10189 20138 30043 40079 53001 333 10260 20189 91014 555 91008
AAXX 12184 68727 36/// /1404 10259 20015 39039 48442 57005 333 10286 20259 91006 555 91006
AAXX 12184 68752 36/// /1707 10188 20128 39426 48486 53015 333 10279 20188 91009 555 91011
AAXX 12184 68816 32680 61815 10192 20153 30032 40087 55005 81508 333 10248 91018 555 91008
AAXX 12184 68828 32470 41405 10168 20156 39856 40087 55000 82501 333 10225 555 91009
AAXX 12184 68842 32260 72410 10172 20147 30021 40091 53013 87600 333 10235 555 91009
AAXX 12184 68858 NIL
AAXX 12184 68906 32698 30405 10127 20056 30240 40306 55000 83500 222// 00125 317// 40702 333 10149 20127 91008 555 91030
AAXX 12184 68994 32598 63010 10077 20064 30231 40260 53002 85580 222// 00066 333 10104 20076 91016 555 91026
AAXX 12184 89004 32880 10708 11115 21131 38805 49828 57005 80001 333 11066 21117 91009 555
BBXX 46206 12181 99488 71260 46/// /1005 10059 40252 54000 22200 00087 11203 70015 333 91207
AAXX 12184 62357 32960 40208 10142 20096 40237 52006 80001 333 10207
AAXX 12184 62423 32960 03607 10131 20048 40231 51010 333 10219
AAXX 12184 62403 32960 02904 10162 20050 40195 52006 333 10222
AAXX 12184 13611 11560 81420 10145 20115 30084 40174 54002 60092 70288 889// 333 10185 82926 86633
AAXX 12184 62357 32960 40208 10142 20096 40237 52006 80001 333 10207
AAXX 12184 62423 32960 03607 10131 20048 40231 51010 333 10219
AAXX 12184 62403 32960 02904 10162 20050 40195 52006 333 10222
AAXX 12184 42559 32996 00000 10118 20066 40170 333 58007
AAXX 12184 42571 32996 00000 10124 20084 40173 333 58007
AAXX 12184 42667 32996 00904 10140 20061 39563 40170 333 58003
AAXX 12184 42675 31996 00502 10130 20068 40171 70500 333 58005
AAXX 12184 42754 31996 00905 10160 20042 39512 40164 70500 333 58008
AAXX 12184 42779 32996 00000 10134 20076 39453 40173 333 58006
AAXX 12184 42874 32996 03602 10210 20121 40146 333 58007
AAXX 12184 43041 32996 00000 10156 20113 39525 40158 333 58002
AAXX 12184 42867 NIL
AAXX 12184 42933 NIL
BBXX 46206 12181 99488 71260 46/// /1005 10059 40252 54000 22200 00087 11203 70015 333 91207
AAXX 12184 68267 NIL
AAXX 12184 68403 NIL
AAXX 12184 68592 NIL
AAXX 12184 68858 NIL
AAXX 12181 50658 31958 83601 11197 21207 40271 57005 70400 80007 333 11107
AAXX 12181 50888 32980 02502 11166 21220 40278 52008 333 11094
AAXX 12181 50983 32970 02501 11197 21231 40293 52012 333 11082
AAXX 12181 51053 32980 50702 11095 21148 40319 52015 80002 333 05102 11061
AAXX 12181 51542 32980 20000 11190 21223 37580 52012 80002 333 00002 11061
AAXX 12181 52436 32980 12202 11102 21130 38490 40290 57001 80002 333 05500 10004
AAXX 12181 52908 32980 02502 11173 21327 35726 57004 333 05201 11060
AAXX 12181 52996 32970 02002 11077 21101 37567 57008 333 05302 11039
AAXX 12181 53083 32980 70000 11197 21216 40295 57018 80002 333 05951 11172
AAXX 12181 53764 32970 03402 11053 21080 40295 57009 333 10015
AAXX 12181 53787 32970 20000 11061 21085 40287 57008 80002 333 10052
AAXX 12181 54096 32970 02704 11136 21179 40296 52008 333 11074
AAXX 12181 54226 32980 22002 11090 21155 40279 57020 80002 333 11013
AAXX 12181 54259 32965 02701 11162 21187 40332 57001 333 11016
AAXX 12181 54527 32965 01603 11001 21026 40293 57013 333 10071
AAXX 12181 54534 32965 20702 11009 21039 40293 57016 80002 333 10067
BBXX 46205 12181 99542 71343 46/// /2606 10073 40155 52006 22200 00077 11408 70041 333 91208
BBXX 46132 12181 99497 71279 46/// /1502 10064 40243 5//// 22200 00087 11203 70016 333 91204
BBXX 46132 12181 99497 71279 46/// /1502 10064 40243 5//// 22200 00087 11203 70016 333 91204
BBXX 46205 12181 99542 71343 46/// /2606 10073 40155 52006 22200 00077 11408 70041 333 91208
AAXX 12184 03100 17442 /1635 10052 20045 39749 49765 57089 60072 761// 91750 333 10070 55300 20000 88/11 90710 91148 91046
BBXX A8UL5 12183 99186 30607 41898 30614 10275 20241 40095 52015 70100 81181 22214 20403 3//// 4//// 5//// 80250
BBXX AMOUK17 12184 99327 30573 46/// ///// 10170 20090 30194 40202 52010 91750
BBXX AMOUK20 12184 99015 50306 46/// ///// 10269 20232 30098 40107 54/// 91750
BBXX AMOUK15 12184 99128 50092 46/// ///// 10226 20175 30122 40154 57006 91750
BBXX OZDK2 12181 99145 70178 41/97 93506 10269 20194 40105 56015 71022 89/// 22244 20301 399// 40602 80220
BBXX VQHO7 12184 99064 50344 41598 30611 10290 20232 40103 57003 70385 83200 22284 00275 20304 305// 40404 5//// 80250
BBXX 46181 12181 99538 71288 46/// /3401 10002 40215 57016 22200 00030 10200 70001 333 91201
BBXX VQKZ6 12183 99255 70542 41298 70921 10258 20208 40195 57020 70322 84725 22253 02239 20504 311// 40807 5//// 80225
BBXX ZCDG4 12184 99125 70703 41498 60520 10282 20240 40103 57015 70311 83278 22264 00290 20101 310// 40402 5////
BBXX ZCDF4 12183 99089 70795 41598 62708 10272 20248 40125 51020 78081 83894 22200 00270 20201 315// 40302 5//// 80255
BBXX DGSE 12183 99471 71310 41498 72413 10080 20038 40255 54000 70122 8717/ 22224 00100 20502 334// 40803 80060
BBXX PENR 12183 99319 70547 41497 61020 10240 20210 40237 55005 70122 85278 22214 20502 311// 41104 80220
BBXX DFRZ 12183 99210 70521 41598 50928 10270 20243 40170 57020 70322 85555 22253 00260 21105 80250
BBXX GDTT 12184 99274 70800 41498 60111 10230 20199 40197 57003 7//22 84563 22200 00270 20402 308// 40708 80210
BBXX A8VE3 12184 99094 70498 41597 70814 10290 20235 40090 56020 70222 8577/ 22274 04282 21404 309// 41604 5//// 80250
BBXX ZCBU2 12183 99366 31505 41598 72030 10170 20153 40059 57003 70022 8147/ 22244 00190 20302 317// 40504 5//// 80160
BBXX MGSM3 12184 99071 31494 41497 73116 10264 20230 40033 57027 76056 87/// 22233 04290 20301 33132 40601 50701 80245
BBXX A8CJ2 12184 99357 50731 41497 52237 10160 20144 40150 54000 70222 83670 22244 04180 21004 323// 41206 5//// 80150
AAXX 12184 83264 32797 53202 10312 20230 39643 40102 82214 333 58010
AAXX 12184 83358 31598 83206 10256 20225 39656 40053 70942 885// 333 58009
BBXX A8SI9 12183 99426 11450 43698 12724 10006 2100/ 40170 52040 81/83 22254 00068 20505 327// 40830 80001
BBXX S6OM 12184 99256 11222 41697 80432 10180 20163 40216 58/// 78022 877// 22200 00224 21010 304// 41010 5//// 80170
AAXX 12184 82098 32597 20704 10326 20241 30057 40074 81201 333 59011
AAXX 12184 82106 32598 51404 10332 20247 3//// 4//// 83201 333 5////
AAXX 12184 82113 21696 70502 10323 20244 3//// 4//// 70362 85460 333 5//// 60021
AAXX 12184 82212 32798 43604 10333 20247 30018 40099 82342 333 58002
AAXX 12184 82246 32597 40203 10321 20251 39890 40085 82220 333 58001
AAXX 12184 82336 32598 60904 10330 20224 3//// 4//// 83223 333 5////
AAXX 12184 82425 32597 81402 10298 20244 3//// 4//// 86340 333 5////
AAXX 12184 82445 31597 60504 10326 20241 30047 40099 70544 83205 333 58011
AAXX 12184 82460 32597 60504 10366 20224 30040 40069 83140 333 58010
AAXX 12184 82533 32497 42302 10318 20252 3//// 4//// 83220 333 5////
AAXX 12184 82562 32598 53603 10335 20217 39940 40046 84201 333 58015
AAXX 12184 82571 32497 40505 10333 20222 39895 40065 83240 333 59011
AAXX 12184 82704 32696 60000 10325 20231 39847 40038 86400 333 58012
AAXX 12184 82765 21498 72704 10309 20235 39869 40106 70352 85330 333 58016 69911
AAXX 12184 82042 32698 50504 10331 20260 3//// 4//// 83400 333 5////
AAXX 12184 82141 32598 20508 10301 20249 30073 40085 82100 333 59018
AAXX 12184 82145 32598 33604 10338 20235 30047 40088 83200 333 59008
AAXX 12184 82181 32796 20707 10333 20219 39961 40099 82040 333 59011
AAXX 12184 82198 32495 50207 10319 20225 30022 40073 85200 333 59002
AAXX 12184 82240 32596 20000 10339 20227 3//// 4//// 82200 333 5////
AAXX 12184 82317 32493 83604 10296 20283 3//// 4//// 889// 333 5////
AAXX 12184 82353 32598 61804 10339 20232 39957 40040 84230 333 59002
AAXX 12184 82361 32497 50204 10336 20233 30047 40084 84211 333 59004
AAXX 12184 82476 32595 70502 10351 20187 39950 40017 83254 333 58010
AAXX 12184 82610 32596 50000 10314 20267 3//// 4//// 83044 333 5////
AAXX 12184 82807 32595 63602 10317 20256 3//// 4//// 86200 333 5////
AAXX 12184 82861 21597 63204 10273 20243 39887 40055 70296 8472/ 333 58017 60071
AAXX 12184 82863 21597 83202 10264 20225 39876 40087 70361 8598/ 333 58025 69961
AAXX 12184 83228 31799 81803 10286 20228 39794 40066 71522 8823/ 333 58019
AAXX 12184 83270 32798 50000 10298 20217 39614 40092 82038 333 58008
AAXX 12184 83309 31595 60000 10324 20260 39752 40068 70511 84220 333 58010
AAXX 12184 83319 32697 73208 10318 20248 39729 40097 82380 333 59002
AAXX 12184 83368 32798 61802 10324 20247 39696 40059 84202 333 58009
AAXX 12184 83374 21598 62306 10263 20230 39512 40078 70152 85202 333 58014 69931
AAXX 12184 83405 32597 5//// 10344 20243 39892 40022 85200 333 59020
AAXX 12184 83526 32598 33203 10301 20157 39140 40063 83200 333 58014
AAXX 12184 68183 11665 70210 10255 20188 39388 48494 53021 60022 71722 82973 333 10316 20255 91015 555 20026 91010
AAXX 12184 68188 36/// /0802 10224 20165 39146 48480 53016 333 10328 20223 91003 555 91011
AAXX 12184 68268 36/// /0102 10237 20153 38847 48492 52017 333 10330 20235 91004 555 91014
AAXX 12184 68272 36/// /0902 10236 20141 39022 48475 53007 333 10343 20236 91002 555 91011
AAXX 12184 68296 32570 41708 10308 20203 39750 48507 52032 84500 333 10432 20308 91015 555 91006
AAXX 12184 68322 32982 02302 10284 20036 39059 48449 53005 333 10379 20284 91003 555 91006
AAXX 12184 68338 36/// /3005 10201 20039 38721 48455 52008 333 10308 20200 91006 555 91011
AAXX 12184 68345 36/// /2702 10213 20012 38630 48474 53003 333 10290 20212 91003 555 91014
AAXX 12184 68362 32980 10000 10169 20029 38471 48473 52013 81040 333 10302 20169 91002 555 91015
AAXX 12184 68400 32975 01602 10246 20197 30003 40075 52018 333 10330 20246 91004 555 91007
AAXX 12184 68408 NIL
AAXX 12184 68416 32984 02307 10280 21061 38962 48452 53006 333 10315 20280 91010 555 91008
AAXX 12184 68478 32989 01605 10180 20151 38827 48467 52020 333 10324 20180 91011 555 91012
AAXX 12184 68488 31120 80902 10179 20167 39232 48481 52014 75155 886// 333 10263 20177 91004 555 91012
AAXX 12184 68494 36/// /2602 10217 20189 39972 40102 53013 333 10254 20216 91004 555 91010
AAXX 12184 68524 32986 03005 10285 21104 38983 48454 53003 333 10330 20285 91009 555 91008
AAXX 12184 68546 36/// /1202 10173 20056 38601 48447 53003 333 10281 20173 91003 555 91011
AAXX 12184 68558 36/// /3304 10165 21014 38145 48458 52001 333 10238 20162 91005 555 91014
AAXX 12184 68570 36/// /1310 10167 20116 38463 48456 52012 333 10274 20167 91017 555 91013
AAXX 12184 68580 36/// /1302 10150 20143 38916 48476 52012 333 10191 20149 91003 555 91013
AAXX 12184 68614 32980 22205 10206 20131 30024 40064 52006 80005 333 10321 20206 91012 555 91006
AAXX 12184 68624 32982 22706 10240 21069 38676 48452 53002 80006 333 10287 20239 91009 555 91011
AAXX 12184 68674 36/// /0302 10216 20180 30064 48518 53005 333 10272 20216 91005 555 91009
AAXX 12184 68712 32470 81915 10151 20134 30014 40079 53001 885// 333 10200 20150 91018 555 91007
AAXX 12184 68718 36/// /1107 10207 20125 39846 40088 52015 333 10315 20207 91016 555 91009
AAXX 12184 68722 36/// /2305 10197 21030 38496 48453 52008 333 10255 20197 91010 555 91012
AAXX 12184 68814 36/// /2108 10235 20214 30083 40091 55000 333 10236 20176 91009 555 91009
AAXX 12184 68832 32570 51703 10210 20087 39119 48451 53001 85300 333 10264 20210 91006 555 91008
AAXX 12184 68916 32368 80402 10182 20154 39827 40092 50000 885// 333 10214 20182 91012 555 91009
AAXX 12184 68920 32470 61902 10200 20148 30080 40092 54000 83806 333 10232 20200 91005 555 91009
AAXX 12184 68928 NIL
AAXX 12184 68155 36/// /3402 10278 20160 39139 48484 53013 333 10344 20278 91003 555 91010
AAXX 12184 68171 NIL
AAXX 12184 68176 36/// /0602 10230 20164 39088 48479 52022 333 10339 20230 91006 555 91011
AAXX 12184 68181 NIL
AAXX 12184 68182 36/// /3106 10248 20186 39286 48486 53018 333 10338 20248 91014 555 91010
AAXX 12184 68185 16/// /0806 10238 20106 38493 48425 58004 69922 333 10300 20238 91011 555 20002 91009
AAXX 12184 68253 NIL
AAXX 12184 68255 36/// /3103 10274 20099 38815 48471 53007 333 10315 20274 91006 555 91012
AAXX 12184 68271 16/// /0000 10252 20132 38871 48482 53012 69922 333 10327 20248 91003 555 20002 91013
AAXX 12184 68273 36/// /1802 10220 20079 38429 48482 53010 333 10307 20220 91003 555 91016
AAXX 12184 68287 36/// /0205 10197 20139 38549 48485 53011 333 10284 20191 91006 555 91016
AAXX 12184 68291 36/// /0304 10285 20187 39471 48493 53020 333 10392 20285 91011 555 91008
AAXX 12184 68297 NIL
AAXX 12184 68329 36/// /1102 10280 20009 39020 48466 56001 333 10359 20280 91003 555 91009
AAXX 12184 68331 36/// /2903 10239 21059 38810 48499 55000 333 10328 20239 91003 555 91015
AAXX 12184 68335 36/// /0000 10217 20040 38872 48483 53005 333 10319 20217 91003 555 91013
AAXX 12184 68341 36/// /2403 10220 20001 38499 48483 53007 333 10307 20220 91004 555 91016
AAXX 12184 68342 NIL
AAXX 12184 68343 36/// ///// 10231 20043 38733 48460 53002 333 10299 20231 555 91011
AAXX 12184 68349 36/// /1804 10241 21000 38473 48466 53010 333 10319 20241 91007 555 91014
AAXX 12184 68353 36/// /2604 10217 20069 38480 48458 53010 333 10292 20217 91005 555 91013
AAXX 12184 68355 36/// /2202 10225 21013 38538 48472 53006 333 10288 20225 91004 555 91014
AAXX 12184 68370 NIL
AAXX 12184 68377 36/// /2804 10248 20036 38704 48448 53012 333 10333 20248 91005 555 91010
AAXX 12184 68380 36/// /2602 10191 20099 3//// 4//// 5//// 333 10286 20190 91003 555
AAXX 12184 68387 36/// /2507 10213 20197 38814 48477 53017 333 10337 20212 91022 555 91013
AAXX 12184 68411 36/// /1907 10268 20036 39869 40070 53021 333 10380 20267 91021 555 91008
AAXX 12184 68429 NIL
AAXX 12184 68449 36/// /2704 10201 21033 38350 48461 53006 333 10271 20201 91005 555 91014
AAXX 12184 68471 36/// /3004 10184 21023 38284 48461 53011 333 10266 20184 91006 555 91014
AAXX 12184 68474 36/// /3002 10136 20028 38580 48470 52017 333 10295 20135 91004 555 91014
AAXX 12184 68479 36/// /1311 10199 20158 38896 48461 53013 333 10333 20199 91021 555 91011
AAXX 12184 68481 36/// /1306 10239 20197 39728 40090 52020 333 10318 20239 91008 555 91010
AAXX 12184 68487 36/// /1103 10170 20157 38959 48478 53012 333 10236 20170 91005 555 91013
AAXX 12184 68491 36/// /2104 10231 20204 30071 40080 52013 333 10290 20231 91008 555 91008
AAXX 12184 68497 36/// /2504 10224 20199 30055 40099 52017 333 10251 20224 91006 555 91010
BBXX 44062 12181 99386 70764 46/// /0401 1//// 91820 22200 00092 333 91202
BBXX 44062 12181 99386 70764 46/// /0301 1//// 40323 91810 22200 00091 333 91202
BBXX 44062 12181 99386 70764 46/// /0201 10049 40326 58016 91800 22200 00091 1//00 70001 333 91202
BBXX 44063 12181 99390 70764 46/// /0000 1//// 91820 333 91200
BBXX 44063 12181 99390 70764 46/// /0000 1//// 40350 91810 333 91200
BBXX 44063 12181 99390 70764 46/// /0000 10044 40351 58016 91800 22200 00079 1//00 70001 333 91200
BBXX 44041 12181 99372 70768 46/// /2905 1//// 91820 333 91205
BBXX 44041 12181 99372 70768 46/// /3004 1//// 40350 91810 333 91205
BBXX 44041 12181 99372 70768 46/// /3004 10081 40351 58018 91800 22200 00103 1//00 70001 333 91205
BBXX 44042 12181 99380 70763 46/// /0402 1//// 91820 333 91204
BBXX 44042 12181 99380 70763 46/// /0202 1//// 40339 91810 333 91203
BBXX 44042 12181 99380 70763 46/// /0202 10067 40341 58012 91800 22200 00093 1//00 70001 333 91203
BBXX 44043 12181 99392 70764 46/// /1002 1//// 91820 333 91202
BBXX 44043 12181 99392 70764 46/// /1201 1//// 40343 91810 333 91202
BBXX 44043 12181 99392 70764 46/// /1401 10045 40344 58015 91800 22200 00076 1//00 70001 333 91202
AAXX 12181 31825 42984 00103 11170 21250 39977 40199 53012
AAXX 12181 31845 42998 00000 11306 21330 30107 40293 53023
AAXX 12181 31878 41950 02101 11241 21264 30166 40303 53014 71000
AAXX 12181 31915 42998 00000 11137 21189 30020 40301 52012
AAXX 12181 31921 42999 02502 11144 21195 30193 40298 52012
AAXX 12181 31969 42/98 22804 11071 21141 30259 40311 53007 80002
AAXX 12181 31981 42999 02202 11188 21188 30051 40307 52013
AAXX 12181 31987 42999 03406 11090 21184 30015 40287 51007
AAXX 12181 32069 41596 82811 11121 21148 30101 40106 52006 73883 889// 333 91014 91118
AAXX 12181 30455 429// 30000 11292 21309 38921 48442 52007 80002
AAXX 12181 30731 419// 82102 11100 21108 39652 40283 52017 77372 8802/
AAXX 12181 30739 416// 62702 11134 21147 39428 40283 52013 70182 85970
AAXX 12181 30741 419// 83301 11168 21174 38684 48466 52011 70272 80007
AAXX 12181 30745 419// 81502 11216 21241 39073 40309 52008 77177 80007
AAXX 12181 30764 42998 40000 11306 21318 39443 40335 52009 80003
AAXX 12181 30829 42984 80202 11142 21193 39605 40332 52014 83031
AAXX 12181 30838 41596 82001 11157 21165 39177 40311 52013 77172 8572/
AAXX 12181 30846 41998 70000 11175 21201 39318 40281 52008 77177 8707/
AAXX 12181 30859 41898 80000 11226 21244 39385 40291 52003 77172 82047
AAXX 12181 30862 42984 20000 11249 21274 39488 40295 53006 82040
AAXX 12181 30957 429// 80000 11183 21195 39324 40276 52006 8807/
AAXX 12181 30967 NIL
AAXX 12181 30975 41897 81101 11228 21253 39587 40289 57005 77172 8802/
AAXX 12181 30499 42999 02403 11300 21317 39550 40281 53001
AAXX 12181 30683 429// 00000 11294 21311 39572 40294 52003
AAXX 12181 30695 42999 03601 11320 21343 39905 40284 51004
AAXX 12181 31253 42999 20000 11323 21353 39724 40237 52006 80001
AAXX 12181 31295 42999 00000 11255 21287 39754 40252 52002
AAXX 12181 31348 42999 00000 11334 21338 39921 40139 54000
AAXX 12181 31418 42984 23208 11173 21264 39866 40133 53004 80001
AAXX 12181 31439 42999 01802 11240 21280 30057 40105 53003
AAXX 12181 31442 42997 00000 11254 21285 39858 40245 52007
AAXX 12181 31445 42984 03002 11281 21312 39965 40246 52004
AAXX 12181 31474 42598 20000 11360 21397 39729 40280 52009 82500
AAXX 12181 31521 32984 02201 11245 21270 39936 40254 53005
AAXX 12181 31527 42998 02301 11232 21264 39921 40250 54000
AAXX 12181 31534 41998 80000 11272 21290 39884 40264 53002 77171 80007
AAXX 12181 31587 42999 00000 11214 21239 30107 40265 52002
AAXX 12181 31632 NIL
AAXX 12181 31702 42998 00203 11285 21324 39905 40281 53001
AAXX 12181 31713 42999 02301 11259 21284 30126 40234 52006
AAXX 12181 31725 42998 02502 11233 21258 30160 40234 52014
AAXX 12181 31801 42999 00000 11295 21301 30008 40262 52015
AAXX 12184 91723 NIL
AAXX 12184 91759 NIL
AAXX 12184 91762 NIL
BBXX 44061 12181 99388 70770 46/// /2002 1//// 91820 333 91203
BBXX 44061 12181 99388 70770 46/// /1902 1//// 40340 91810 333 91202
BBXX 44061 12181 99388 70770 46/// /1902 10053 40342 58018 91800 22200 00060 333 91203
BBXX 44059 12181 99368 70763 46/// /0504 1//// 91820 333 91205
BBXX 44059 12181 99368 70763 46/// /0503 1//// 40317 91810 333 91204
BBXX 44059 12181 99368 70763 46/// /0403 10100 40317 58015 91800 22200 00109 333 91204
BBXX 44057 12181 99395 70761 46/// /1502 1//// 91820 333 91202
BBXX 44057 12181 99395 70761 46/// /1603 1//// 40347 91810 333 91203
BBXX 44057 12181 99395 70761 46/// /1602 10040 40348 56014 91800 22200 00062 333 91203
BBXX 44058 12181 99376 70763 46/// /0206 1//// 91820 333 91207
BBXX 44058 12181 99376 70763 46/// /0206 1//// 40330 91810 333 91207
BBXX 44058 12181 99376 70763 46/// /0206 10071 40332 58010 91800 22200 00100 10301 70005 333 91207
BBXX 44029 12181 99425 70706 46/30 /2208 10071 40311 56024 91804 22200 00090 10301 70007 333 91209 555 11093 22098
BBXX 46092 12181 99368 71220 46/// /1005 10096 40069 91757 22200 00126 555 11057 22057
AAXX 12184 42634 32996 00000 10164 20080 40149 333 58004
AAXX 12184 42647 32996 00206 10186 20061 40154 333 58004
AAXX 12184 42737 32996 00704 10176 20073 40152 333 58007
AAXX 12184 42840 32996 00503 10196 20125 40137 333 59003
AAXX 12184 42909 32996 00205 10202 20098 40149 333 58005
AAXX 12184 42921 32996 00000 10156 20106 40185 333 58007
AAXX 12184 43003 31995 00000 10218 20180 40108 70500 333 59009
AAXX 12184 43110 31996 40000 10244 20173 40114 70040 80001 333 58003 84080
AAXX 12184 43117 32596 70902 10244 20147 40123 82530 333 58007
AAXX 12184 43192 32996 31103 10264 20238 40111 80002 333 58003
AAXX 12184 43014 NIL
AAXX 12184 43063 NIL
AAXX 12180 44203 329// 10000 11316 21338 38445 40522 52012 80001
AAXX 12180 44207 329// 11802 11263 21301 38337 40457 52021 81040
AAXX 12180 44212 32999 61802 11276 21299 39233 40506 52010 82017
AAXX 12180 44213 32999 50000 11263 21289 38859 40506 52008 85050
AAXX 12180 44215 32998 00000 11300 21323 38449 40516 52008
AAXX 12180 44218 329// 00000 11227 21252 38653 40450 52004
AAXX 12180 44225 329// 00000 11396 21405 38319 40660 53008
AAXX 12180 44230 329// 30104 11213 21236 38830 40443 52019 83040
AAXX 12180 44232 329// 60000 11234 21258 39163 40413 52024 86050 555 99601
AAXX 12180 44237 32999 20000 11213 21253 38491 40374 52011 82041
AAXX 12180 44239 329// 83403 11132 21175 38820 40317 53018 8802/ 555 99605
AAXX 12180 44241 419// 00000 11206 21225 39295 40364 52042 70272
AAXX 12180 44256 32999 40000 11282 21300 39335 40295 51005 82076
AAXX 12180 44265 329// 20000 11221 21247 38869 40400 53002 80004
AAXX 12180 44272 329// 00000 11302 21332 38238 40491 52007
AAXX 12180 44275 329// 20000 11262 21287 37699 40437 53007 80004
AAXX 12180 44282 32999 02702 11155 21236 38296 40348 52016
AAXX 12180 44284 328// 32001 11300 21332 37822 40529 51005 82044
AAXX 12180 44285 32799 20000 11199 21215 38318 40391 52017 82080
AAXX 12180 44287 32899 20304 11193 21252 38086 40381 52005 82040
AAXX 12180 44294 329// 00102 11234 21260 38522 40361 53013
AAXX 12180 44298 318// 53206 11263 21268 38654 40303 57005 70242 85040
AAXX 12180 44302 329// 22703 11241 21266 39078 40303 51003 80001
AAXX 12180 44305 329// 83203 11195 21217 39004 40243 56009 8807/
AAXX 12180 44313 32999 32303 11200 21241 39373 40275 57006 83040
AAXX 12180 44314 32998 72704 11142 2//// 39092 40233 57012 87040
AAXX 12180 44317 32998 82703 11088 21137 38894 40210 57014 88070
AAXX 12180 44336 329// 03603 11207 21232 38681 40353 52025
AAXX 12180 44341 319// 23511 11164 21192 38550 40290 53001 73630 80004 333 91115
AAXX 12180 44347 32999 63206 11160 21194 38682 40287 53014 80008
AAXX 12180 44352 32999 42504 11159 21186 38862 40231 57012 84040
AAXX 12180 44358 329// 30902 11204 21210 39062 40301 57008 80004
AAXX 12184 48387 31950 00000 10160 20151 39156 40129 57036 71000 333 59049
AAXX 12184 48350 31930 00000 10132 20126 39854 40168 57013 71000 333 59023
BBXX DDSC2 12183 99481 70066 41596 82344 10135 20109 40015 57160 78565 887// 22214 00127 20610 33021 41216 51214 80120
AAXX 12184 68171 NIL
AAXX 12184 68181 NIL
AAXX 12184 68253 NIL
AAXX 12184 68297 NIL
AAXX 12184 68342 NIL
AAXX 12184 68370 NIL
AAXX 12184 68429 NIL
AAXX 12181 45032 36/// /1301 10073 20058 30184 40201 54000
AAXX 12181 45035 36/// /0403 10131 20012 30159 40201 52001
AAXX 12181 45039 36/// /9901 10109 20070 30181 40197 57001
AAXX 12181 45044 36/// /0004 10137 20046 30098 40193 54000
BBXX 46184 12181 99539 71389 46/// /2608 10063 40157 52007 22200 00067 11411 70053 333 91211
AAXX 12181 45032 36/// /1301 10073 20058 30184 40201 54000
AAXX 12181 45035 36/// /0403 10131 20012 30159 40201 52001
AAXX 12181 45039 36/// /9901 10109 20070 30181 40197 57001
AAXX 12181 45044 36/// /0004 10137 20046 30098 40193 54000
BBXX 46184 12181 99539 71389 46/// /2608 10063 40157 52007 22200 00067 11411 70053 333 91211
BBXX 46232 12181 99325 71174 46/// ///// 1//// 91808 22200 00145 11504 20503 325// 41502 70018
BBXX 46247 12181 99378 71228 46/// ///// 1//// 91821 22200 00114 11405 21004 329// 41404 70027
AAXX 12181 31913 NIL
AAXX 12181 32128 41597 73308 11097 21133 30095 40149 51024 78583 87300 333 91015 91118
AAXX 12181 24856 41996 82202 11416 21443 30057 40238 52004 71011 80007
AAXX 12181 30679 NIL
AAXX 12181 30686 42999 00000 11342 21371 39881 40304 52007
AAXX 12181 30961 41899 83002 11230 21249 39429 40282 57002 70272 8801/
AAXX 12181 30971 42999 60000 11258 21283 39223 40299 57002 80008
AAXX 12181 30978 41999 80503 11197 21216 39539 40267 57007 70272 8801/
AAXX 12181 31513 42999 00000 11240 21265 30002 40248 53004
AAXX 12181 31624 NIL
AAXX 12181 31832 42967 00801 11230 21263 30179 40274 52010
BBXX A8AD7 12183 99065 70122 41795 49903 10295 20233 40100 50000 70000 82468 22233 02300 2//// 30000 80250
BBXX A8AD7 12183 99065 70122 41795 49903 10295 20233 40100 50000 70000 82468 22233 02300 2//// 30000 80250
BBXX BATFR19 12184 99007 30088 46/// /1813 10264 20234 40108 53019 22200 00275
BBXX 9KWP 12183 99030 30880 41698 52310 10290 20248 40099 54000 70222 83244 22274 00300 20501 323// 40502 80260
BBXX 3FMV6 12183 99050 30069 41598 71810 10260 20215 40088 54000 70222 86770 22283 06264 20701 80230
BBXX BATFR56 12184 99062 30781 44598 42809 10280 20239 40105 51011 70300 83802 22253 00299 20602 324// 40602 5////
BBXX A8RL3 12181 99091 30808 41492 19902 10270 40090 52020 70200 811// 22213 00290 2//00 3//// 4//03 5////
BBXX PJHA 12184 99105 30110 41697 31711 10212 20212 40124 54000 7//// 8146/ 22283 06223 20200 31817 41003 50803 80212
BBXX BATFR55 12184 99114 30489 44598 31311 10275 20245 40111 70211 82142 22232 00280 207// 32727 409// 509//
BBXX C6HS4 12183 99225 31019 41497 51418 10225 20191 40136 50/// 7//22 831/7 22233 20805 80202
BBXX 2AKI2 12183 99289 30491 412// 81135 10200 20167 40149 54000 8777/ 22214 00200 2//// 3//// 4//// 5//// 80180
BBXX A8YW2 12184 99343 30263 41598 32022 10210 20160 40080 50003 70200 8244/ 22223 00200 20804 328// 40904 80180
BBXX ONFP 12184 99379 30250 43596 42113 10230 2019/ 40080 55010 70111 84182 22223 04184 20704 30808 40806 50806 6//// 80200 /////
BBXX PCDE 12183 99399 30858 41597 43503 10140 20105 40200 52010 7//// 813// 22223 20402 80120
BBXX DBBT 12181 99444 30050 46/// /1910 10053 20007 40204 52010 22201 00097
BBXX UCKZ 12181 99449 30193 41597 80307 10114 20106 40073 56006 71582 8637/ 22243 00104 20402 30521 41005 50904
BBXX BATEU00 12184 99507 30159 46/// /1621 10012 21042 40122 53043 22242
BBXX DBLK 12181 99580 30000 41195 82814 11002 21003 49996 57008 71052 886// 22242 05016 ICE 35692
BBXX 46246 12181 99500 71451 46/// ///// 1//// 91759 22200 00075 11410 21005 326// 41408 70051
BBXX 46246 12181 99500 71451 46/// ///// 1//// 91829 22200 00075 11311 21006 327// 41309 70053
AAXX 12184 43128 31596 41404 10224 20197 39528 40136 70522 84500 333 58007 84620
AAXX 12184 43150 32596 50503 10250 20177 30067 40142 83530 333 58002 83620 83360
AAXX 12184 43185 31996 00904 10254 20215 30131 40135 70510 333 58008
AAXX 12184 43189 32996 00502 10260 20199 30132 40141 333 58005
AAXX 12184 43198 32496 50704 10206 20158 39295 40124 82531 333 56299 58008 82615 83358
AAXX 12184 43201 32497 40902 10230 20153 39399 40119 81532 333 58007 81618 83075
AAXX 12184 43213 32596 30000 10250 20180 39810 40128 81532 333 58007
AAXX 12184 43226 32996 00902 10266 20228 30082 40111 333 58000
AAXX 12184 43233 32996 00503 10224 20153 39317 40126 333 58008
AAXX 12184 43237 32596 20906 10236 20209 39730 40124 81530 333 58006 81620
AAXX 12184 43245 22596 30502 10250 20226 30109 40136 82501 333 58012 6994/
AAXX 12184 43279 32596 40504 10266 20215 30120 40138 83501 333 56109 58007 83620
AAXX 12184 43284 32996 00000 10264 20244 39985 40100 333 59002
AAXX 12184 43295 32996 10204 10204 20184 39111 48517 80001 333 58002 81075
AAXX 12184 43311 32996 10502 10274 20260 40102 80001 333 58001 81075
AAXX 12184 43314 32996 00000 10280 20252 40107 333 58000
AAXX 12184 43321 31495 50505 10246 20196 39676 40124 70521 82431 333 59005
AAXX 12184 43329 32596 70505 10270 20226 30112 40126 84531 333 58003
AAXX 12184 43344 31496 60510 10250 20211 30027 40127 70522 83531 333 58001 83618 84358
AAXX 12184 43346 32596 60512 10278 20222 30106 40113 84532 333 59003 84620 85075
AAXX 12184 43353 31496 30000 10274 20245 40108 70500 81501 333 56609 58000 81614 83072
AAXX 12184 43369 32596 40000 10268 20251 40102 82530 333 59013 82620 83360
AAXX 12184 43371 22596 50000 10250 20235 30038 40111 82402 333 59002 6002/ 82620 84075
AAXX 12184 43086 NIL
BBXX 46004 12181 99509 71361 46/// /3402 10065 40186 54000 22200 00078 11207 70034 333 91203
AAXX 12181 56671 32780 10000 10021 20003 38220 54000 81100 333 05155 10141
AAXX 12181 57378 31958 00901 10036 20000 40278 57007 71000 333 10125
AAXX 12181 57426 31958 00401 10019 20018 40274 57003 71000 333 05300 10110
AAXX 12181 57476 32960 70401 10059 20016 40271 57007 8703/ 333 10128
AAXX 12181 57584 32968 80701 10076 21006 40274 57003 8807/ 333 10122
AAXX 12181 57598 32760 70000 10011 20001 40278 57002 875// 333 10139
AAXX 12181 57655 32962 60000 10064 20015 40268 52001 86030 333 10127
AAXX 12181 57713 NIL
AAXX 12181 57776 32970 72001 10026 21260 40271 57003 8704/ 333 10033
AAXX 12181 58321 31940 00000 11008 21030 40293 57008 71000 333 10097
AAXX 12181 58437 32980 02206 11005 21265 38180 57008 333 10019
AAXX 12181 58445 NIL
AAXX 12181 58556 31930 00901 10014 21013 40281 57009 71000 333 10103
AAXX 12181 58569 32960 03404 10058 21001 40268 57010 333 10114
AAXX 12181 58646 32960 00701 10036 21002 40272 57004 333 10143
AAXX 12181 58653 NIL
AAXX 12181 58660 NIL
AAXX 12181 58715 32962 73402 10057 21006 40264 57006 8704/ 333 10114
AAXX 12181 58730 32965 00201 10045 20015 40255 57006 333 10158
AAXX 12181 58731 32968 62501 10038 20018 40257 57007 86040 333 10153
AAXX 12181 58754 32662 83402 10100 20031 40258 57008 885// 333 10149
AAXX 12181 58911 32968 03201 10037 20017 40250 52001 333 10157
AAXX 12181 58931 31980 00902 10088 20008 38383 57005 70040 333 10122
AAXX 12181 59254 32962 03601 10098 20052 40224 54000 333 10201
AAXX 12181 59632 32962 03602 10131 20008 40215 57003 333 10203
AAXX 12181 59855 32570 73203 10160 20090 40192 57008 878// 333 10227
BBXX 46004 12181 99509 71361 46/// /3402 10065 40186 54000 22200 00078 11207 70034 333 91203
BBXX 44039 12181 99411 70727 46/// /2305 10060 21026 40352 91753 22200 00106 10301 70004 333 91206
BBXX 44099 12181 99369 70757 46/// ///// 1//// 91822 22200 00129 10602 20602 70010
AAXX 12181 29570 42996 00000 11231 21242 30058 40444 52007
AAXX 12181 47101 32970 03602 11047 21071 30202 40303 52007
AAXX 12181 47105 369// /2709 10003 21084 30253 40286 51006
AAXX 12181 47108 32970 00201 11017 21102 30184 40294 52003
AAXX 12181 47115 32575 30206 10043 21052 39998 40274 52006 83500 333 92022
AAXX 12181 47133 32965 02902 11017 21059 30209 40298 52005
AAXX 12181 47138 32970 02004 10033 21061 30274 40277 52004 333 92022
AAXX 12181 47159 32962 03405 10047 21084 30182 40269 52004 333 92022
AAXX 12181 47165 31958 00503 10014 21008 30237 40285 54000 71000 333 92021
AAXX 12181 47168 32962 01103 10053 21025 30190 40271 55001 333 92022
AAXX 12181 47184 32670 23607 10087 21008 30248 40273 55004 82500 333 92023
AAXX 12181 47008 42970 03201 11044 21153 30240 40296 52014
AAXX 12181 47014 42950 00000 11153 21180 39883 40318 52003
AAXX 12181 47016 42970 50000 11167 21201 39410 40311 58012 80002
AAXX 12181 47020 42965 00000 11108 21128 39936 40341 52003
AAXX 12181 47025 42961 00000 11047 21159 30251 40281 52004
AAXX 12181 47035 42962 00000 11059 21092 30302 40311 57001
AAXX 12181 47041 42970 00000 11049 21102 30264 40292 52008
AAXX 12181 47055 42970 00000 11029 21083 30252 40299 52002
AAXX 12181 47058 42960 00000 11056 21063 30257 40307 58009
AAXX 12181 47069 42965 00902 11018 21044 30193 40296 53007
AAXX 12181 47090 32973 00001 10002 21115 30262 40285 50004 333 92011
AAXX 12181 47095 32965 00202 11066 21084 30105 40305 52006
AAXX 12181 47097 329// /0000 11054 21078 30196 40298 52006
AAXX 12181 47098 329// /0202 11042 21090 30154 40295 53003
AAXX 12181 47099 329// /0502 11053 21069 30259 40297 51001
AAXX 12181 47100 32962 00000 11142 21160 39353 40346 52016
AAXX 12181 47102 32972 00204 10007 21068 30113 40297 55002
AAXX 12181 47104 32970 01402 11013 21111 30185 40286 51005
AAXX 12181 47106 329// /2004 10002 21062 30233 40284 52008
AAXX 12181 47112 32970 00203 11005 21086 30208 40295 52003 333 92012
AAXX 12181 47114 32965 00201 11039 21073 30105 40297 52005
AAXX 12181 47119 32965 00000 11027 21056 30251 40295 52006
AAXX 12181 47121 329// /2701 11049 21064 39997 40307 52010
AAXX 12181 47127 329// /0902 11042 21068 30152 40301 53005
AAXX 12181 47129 32965 03602 11030 21048 30263 40300 53004
AAXX 12181 47130 32970 02505 11004 21061 30218 40282 52009 333 92022
AAXX 12181 47131 32970 00000 11009 21062 30221 40294 53002
AAXX 12181 47135 329// /3403 11018 21075 39984 40295 53002
AAXX 12181 47136 32963 00001 11029 21052 30113 40293 52007
AAXX 12181 47137 329// /1602 11023 21079 30168 40292 52006
AAXX 12181 47140 32963 00501 11017 21040 30262 40292 55001 333 92011
AAXX 12181 47143 32965 00502 10007 21059 30214 40296 52008
AAXX 12181 47145 32962 00001 11034 21049 30261 40289 52004
AAXX 12181 47146 31950 01402 11013 21020 30224 40293 53001 71000
AAXX 12181 47150 32968 00503 11010 21040 30271 40291 53002
AAXX 12181 47152 32968 02702 10023 21044 30232 40276 52007
AAXX 12181 47154 329// /0001 11017 21068 30230 40293 52007
AAXX 12181 47155 32965 00906 10058 21104 30226 40272 54000
AAXX 12181 47156 32965 00205 10017 21028 30196 40288 54000
AAXX 12181 47157 31956 00702 11043 21054 30003 40286 52007 71000
AAXX 12181 47162 32960 00503 10033 21014 30230 40271 55001 333 92022
AAXX 12181 47169 32968 00212 10077 20015 30184 40279 55004 333 92044
AAXX 12181 47170 32960 00001 10040 21033 30234 40278 55003 333 92021
AAXX 12181 47171 329// /0001 11009 21024 30234 40291 55002
AAXX 12181 47172 329// /0201 11008 21022 30215 40284 55002
AAXX 12181 47173 329// /0000 11033 21039 30175 40292 52003
AAXX 12181 47174 31959 02001 11012 21026 30073 40283 54000 71000
AAXX 12181 47175 32961 01105 10008 21026 39694 40282 55001 333 92022
AAXX 12181 47185 32661 30210 10083 20020 30178 40269 57006 83500 333 92023
AAXX 12181 47188 32662 23404 10054 20015 30244 40266 56005 81500 333 92022
AAXX 12181 47189 32670 23604 10069 20033 30196 40257 57006 81500 333 92022
AAXX 12181 47192 31956 00000 11022 21034 30243 40282 53001 71000
AAXX 12181 47003 42980 00000 11053 21123 30297 40301 52009
AAXX 12181 47005 42980 01802 11185 21204 38649 52006
AAXX 12181 47022 NIL
AAXX 12181 47028 42964 01802 11081 21108 30210 40310 52001
AAXX 12181 47031 42970 00000 11192 21204 38995 52005
AAXX 12181 47037 42970 00000 11050 21123 30154 40274 54000
AAXX 12181 47039 42960 00000 11090 21115 30119 40322 52001
AAXX 12181 47046 42969 03202 11024 21080 30258 40281 52012
AAXX 12181 47050 42965 00000 11066 21107 30265 40301 52002
AAXX 12181 47052 42965 00000 11104 21117 39964 40325 52007
AAXX 12181 47060 42960 00901 11016 21119 30244 40304 53004
AAXX 12181 47061 42980 00000 11016 21057 30240 40285 52011
AAXX 12181 47065 42970 00000 11036 21058 30239 40307 53002
AAXX 12181 47067 42965 00000 11054 21081 30188 40314 52001
AAXX 12181 47068 42970 03601 11038 21071 30258 40295 53003
AAXX 12181 47070 42970 00000 11039 21068 30209 40301 52004
AAXX 12181 47075 42980 00000 11080 21098 39788 40240 52010
BBXX 42013 12181 99272 70829 46/// ///// 1//// 40224 91740 22200 00200
BBXX 41010 12181 99289 70785 46/// /0811 10228 40214 91820 22200 00242 10906 20404 300// 40905 70031 333 91213 555 11115 22122
BBXX 41009 12181 99285 70802 46/// /0711 10241 20181 40216 91820 22200 00258 10907 20805 300// 40905 70036 333 91213 555 11116 22123
BBXX 44100 12181 99363 70756 46/// ///// 1//// 91822 22200 00138 10603 20603 70016
BBXX 41110 12181 99341 70777 46/// ///// 1//// 91821 22200 00144 10502 20502 70012
BBXX 42099 12181 99273 70842 46/// ///// 1//// 91827 22200 00237 10603 20603 70013
BBXX 41113 12181 99284 70805 46/// ///// 1//// 91821 22200 00222 11103 20903 310// 41101 70016
BBXX 42362 12181 99278 70907 46/// /0708 10222 20167 40244 91830
BBXX 42363 12181 99282 70892 46/// /0710 10200 20156 40251 91830 333 91210
BBXX 42364 12181 99291 70881 46/// /0607 10194 20150 40254 91830
BBXX 42361 12181 99276 70925 46/// ///09 10206 20156 40234 58003 91830 555 11076 22081
AAXX 12184 13625 11630 83602 10132 20098 39981 40211 57008 60092 79596 889// 333 10162 82933 86640
AAXX 1218/ 89767 46/// ///// 11155 39668 4//// 5////
AAXX 12184 89003 46/89 /3109 11107 29063 38998 4//// 5////
AAXX 12184 89507 46/// /3307 11239 29068 36746 4//// 5////
AAXX 12184 71788 17/// /2002 11072 21082 69961 7//4/ 333 11049 21092 70043
AAXX 12184 71792 46/// ///// 11073 21094 6///1 333 11068 21127 7////
AAXX 12184 71221 16/// /0000 11128 21137 60001 333 11098 21163 70000
AAXX 12184 71226 16/// /1907 11067 21110 60001 333 11066 21185 7////
AAXX 12184 71315 16/// /0802 11024 21047 30213 40268 55001 60001 333 11022 21157 70005
AAXX 12184 71320 16/// /2610 11284 21310 30092 40093 51004 60001 333 11214 21296 70000
AAXX 12184 71500 16/// /1805 11099 21112 60001 333 11091 21120 70004
AAXX 12184 71504 16/// ///// 11084 21098 60001 333 11059 21138 70000
AAXX 12184 71541 16/// /1910 11085 21115 60001 333 11085 21109 70000
AAXX 12184 71543 16/// /0403 11109 21119 60001 333 11109 21204 70004
AAXX 12184 71546 16/// /2110 11030 21083 60001 333 11030 21117 70000
AAXX 12184 71547 16/// /2512 11034 21092 60001 333 11034 21132 70000
AAXX 12184 71673 16/// ///// 11080 21086 60001 333 11065 21116 70000
AAXX 12184 71690 16/// ///// 11089 21097 60001 333 11089 21198 70000
AAXX 12184 71888 46/// ///// 11068 21092 6///1 333 11068 21108 7////
AAXX 12184 71895 16/// ///// 11107 21117 60001 333 11064 21154 70000
AAXX 12184 71359 16/// /1608 11082 21097 60001 333 11082 21107 70000
AAXX 12184 71405 16/// ///// 11083 21097 60001 333 11065 21115 70000
AAXX 12184 71417 16/// /2809 11056 21095 30182 40218 56006 60001 333 11047 21117 7////
AAXX 12184 71426 46/// /2224 10012 6///1 333 10013 21033 7////
AAXX 12184 71011 16/// ///// 11100 21114 60001 333 11071 21122 70000
AAXX 12184 71049 16/// /0608 11283 30108 40133 58005 60001 333 11282 21347 70000
AAXX 12184 71928 16/// /1101 11157 21181 39023 40227 57014 60001 333 11073 21198 70000
AAXX 12184 71283 17/// /1805 11092 21099 69941 7//4/ 333 11092 21139 70004
AAXX 12184 71569 16/// /1407 11061 21079 39556 40279 50001 60001 333 11061 21083 70000
AAXX 12184 71575 17/// /0705 11162 21177 30056 40122 51001 69961 7//4/ 333 11142 21191 70006
AAXX 12184 71067 16/// ///// 11104 21121 60001 333 11067 21113 70000
AAXX 12184 71432 16/// /2403 10072 21008 30208 40307 58006 60001 333 10072 20010 70000
AAXX 12184 71467 16/// /0310 11277 21303 39831 49948 58002 60001 333 11199 21283 70000 555 10010
AAXX 12184 71461 16/// /1913 11064 21112 60001 333 11063 21109 70000
AAXX 12184 71468 16/// /0609 11038 21049 39939 40269 50006 60001 333 21048 70000
AAXX 12184 71483 16/// ///// 11148 21164 60001 333 11129 21169 70004
AAXX 12181 38838 425// 25003 /0009 21008 39686 40384 52002 82900/ 91804 11122 21128 38852 425// 60901 11050 21060 48/// 51010 80667
AAXX 12181 38838 425// 25003 /0009 21008 39686 40384 52002 82900
AAXX 12181 56144 32980 00901 11060 21152 36870 57003 333 05153 10070
AAXX 12181 56152 32980 02501 11177 21196 36310 57008 333 00056 11002
AAXX 12181 56167 32780 10000 11067 21099 37110 52001 81400 333 00157 10083
AAXX 12181 56182 32980 03401 11072 21117 37213 52005 333 00053 10074
AAXX 12181 56357 32980 02701 11080 21142 36450 57002 333 05100 10070
AAXX 12181 56586 11457 83401 10007 20000 38072 57002 69901 76060 885// 333 05203 10071
AAXX 12181 56748 32980 01401 10051 20030 38363 57003 333 05154 10167
AAXX 12181 56763 32980 00701 10075 20061 40162 52004 333 05253 10212
AAXX 12181 56768 32680 82202 10068 20061 38200 52002 884// 333 05101 10129
AAXX 12181 56838 32668 10000 10107 20085 40168 57001 81400 333 05151 10232
AAXX 12181 56886 32760 80000 10050 20043 38321 52002 884// 333 05151 10126
AAXX 12181 56946 32680 12001 10100 20097 40167 52004 81400 333 00054 10231
AAXX 12181 56959 32765 80000 10162 20159 40177 52001 884// 333 05202 10193
AAXX 12181 56969 31450 61401 10121 20118 40198 52004 71000 86500 333 05152 10182
AAXX 12181 57731 32665 81601 10082 20038 40262 57002 885// 333 05202 10112
AAXX 12181 57766 31959 70000 10062 20013 40267 57010 71000 8704/ 333 10114
AAXX 12181 57845 11760 83201 10067 20031 40259 52003 69931 72160 885// 333 10135
AAXX 12181 57853 11460 82201 10068 20021 40271 57002 69951 76060 887// 333 10124
AAXX 12181 57916 32665 81401 10104 20083 40238 57001 885// 333 05301 10139
AAXX 12181 57922 32663 71801 10066 20019 40244 57005 875// 333 05202 10117
AAXX 12181 57932 11658 80000 10094 20058 40255 54000 69911 76060 885// 333 05302 10145
AAXX 12181 58338 32961 00902 10012 21027 40279 57008 333 10096
AAXX 12181 59007 32664 80000 10086 20038 40219 57001 885// 333 10120
AAXX 12181 59046 32970 33201 10102 20011 40240 57001 83030 333 10158
AAXX 12181 59058 32968 01601 10070 20017 40241 52001 333 10158
AAXX 12181 59072 32962 03601 10039 20002 40254 52003 333 10149
AAXX 12181 59087 32961 00903 10103 21061 40227 57002 333 10177
AAXX 12181 59209 31558 60000 10045 20032 40245 52001 71000 86800 333 10128
AAXX 12184 71928 16/// /1101 11157 21181 39023 40227 57014 60001 333 11073 21198 70000
AAXX 12184 71432 16/// /2403 10072 21008 30208 40307 58006 60001 333 10072 20010 70000
AAXX 12184 71467 16/// /0310 11277 21303 39831 49948 58002 60001 333 11199 21283 70000 555 10010
BBXX 46146 12181 99493 71237 46/// /3602 10031 40257 54000 22200 00061 10200 70002 333 91203
AAXX 12181 31329 42999 60000 11350 21374 39506 40269 53005 80002
BBXX 46146 12181 99493 71237 46/// /3602 10031 40257 54000 22200 00061 10200 70002 333 91203
BBXX 44258 12181 99445 70634 46/// /2312 10071 40303 57024 22200 00070 10603 70016 333 91213
BBXX 44258 12181 99445 70634 46/// /2312 10071 40303 57024 22200 00070 10603 70016 333 91213
BBXX 44140 12181 99429 70515 46/// /2808 10113 40348 5//// 22200 00098 10905 70027 333 91210
AAXX 12181 24988 42/// /3403 11145 21260 39741 49998 52011
BBXX 44140 12181 99429 70515 46/// /2808 10113 40348 5//// 22200 00098 10905 70027 333 91210
AAXX 12184 97014 32560 41403 10240 20228 39988 40081 57015 81571 333 56000 81624
AAXX 12184 97028 NIL
AAXX 12184 97048 32458 30000 10247 20239 30040 40064 57012 82231 333 56000 57803 82817 80860
AAXX 12184 97072 32458 70000 10267 20242 39985 40085 57014 82571 333 56000 82619 84460
AAXX 12184 97086 NIL
AAXX 12184 97096 32560 30000 10246 20236 30068 40089 57014 81231 333 56000 57803 81821 80857
AAXX 12184 97120 31459 72602 10272 20240 30042 40075 56010 71522 84831 333 56000 57802 83818 84360 80860
AAXX 12184 97146 NIL
AAXX 12184 97180 32457 61101 10262 20257 30061 40079 56013 81232 333 56000 81819 84360
AAXX 12184 97192 NIL
AAXX 12184 97230 11460 72704 10264 20248 30070 40077 57014 69901 70296 83272 333 56000 57801 83817 85460 80859
AAXX 12184 97260 32560 41604 10256 20244 30063 40070 57018 83501 333 56000 83620
AAXX 12184 97270 NIL
AAXX 12184 97300 32560 40000 10266 20236 30046 40086 55013 81101 333 56000 81820
AAXX 12184 97340 32560 81003 10266 20255 30063 40077 57013 82232 333 56000 82820 87080
AAXX 12184 97372 11457 60000 10251 20245 39946 40067 57022 69911 70262 83271 333 56000 83816 84459
AAXX 12184 97430 32460 60000 10248 20238 30053 40082 57007 83232 333 56700 57871 83818 80860
AAXX 12184 97460 NIL
AAXX 12184 97502 32450 60000 10248 20242 30062 40066 57018 84531 333 56000 84612
AAXX 12184 97530 NIL
AAXX 12184 97560 01459 80302 10236 20228 30061 40077 57012 60041 72162 85976 333 56000 57902 57803 60047 81917 84620 87279 80980 80860
AAXX 12184 97686 NIL
AAXX 12184 97690 NIL
AAXX 12184 97724 31559 70000 10254 20233 30054 40070 57014 70522 81136 333 56800 57883 81820 85275 80850
AAXX 12184 97748 31460 62805 10272 20252 30058 40059 57001 70522 82232 333 56600 57863 82816 84075 80856
AAXX 12184 97760 NIL
AAXX 12184 97796 NIL
AAXX 12184 97810 NIL
AAXX 12184 97900 32462 60302 10256 20246 30029 40058 57014 81136 333 56000 57805 81820 86275 80825
AAXX 12184 97980 NIL
AAXX 12184 96009 01458 82205 10233 20224 30074 40109 58009 60031 71362 8497/ 333 56009 57903 69907 81915 83617 85460 80964
AAXX 12184 96011 01458 80000 10235 20230 30088 40114 57008 60151 70522 84572 333 56000 60057 84618 83460
AAXX 12184 96035 01460 80000 10238 20230 30073 40111 58007 60011 76162 85578 333 56000 69957 85618
AAXX 12184 96073 31450 70000 10250 20244 30094 40105 52004 70522 83972 333 56000 57901 83913 80960
AAXX 12184 96091 32458 70000 10248 20238 30087 40110 58004 82578 333 56000 82613 87360
AAXX 12184 96109 32458 80000 10250 20237 30060 40099 58003 83532 333 56000 83617
AAXX 12184 96145 31440 70103 10254 20231 30103 40106 56002 70522 83520 333 56800 83615 87460
AAXX 12184 96147 NIL
AAXX 12184 96163 01450 80000 10238 20230 30102 40104 57002 60031 76162 8652/ 333 56009 60027 86616
AAXX 12184 96179 NIL
AAXX 12184 96195 NIL
AAXX 12184 96221 01460 70000 10238 20227 30075 40090 57021 60041 70296 82171 333 56999 60027 82815 84461
AAXX 12184 96237 01456 80000 10252 20242 30052 40094 58011 60021 84118 333 56000 57904 60017 84816 85460 86280
AAXX 12184 96249 31459 73404 10244 20231 30030 40091 57014 71792 83932 333 56800 57981 81917 84358 80981
AAXX 12184 96253 32560 50505 10251 20241 30063 40084 57007 82832 333 56000 57800 81820 83080
AAXX 12184 96295 NIL
AAXX 12184 96509 01440 83313 10243 20236 30069 40081 56008 60041 76062 86971 333 56000 57902 57800 60047 82915 85815 80980 80865
AAXX 12184 96581 32457 70000 10235 20232 30085 40092 57016 81131 333 56000 81812 87360 80860
AAXX 12184 96633 32557 62202 10264 20255 30061 40069 57009 82571 333 56000 82620 83460
AAXX 12184 96645 31440 70000 10240 20236 30052 40084 57016 71022 85532 333 56000 80613
AAXX 12184 96655 32456 60000 10257 20245 30067 40102 58005 85521 333 56000 85612
AAXX 12184 96685 32460 70000 10268 20254 30054 40080 57015 84511 333 56000 84618
AAXX 12184 96749 NIL
AAXX 12184 96781 NIL
AAXX 12184 96805 01558 80000 10244 20238 30090 40099 56008 60171 71662 85371 333 56000 57902 57801 60027 81920 84820 84460 80980 80860
AAXX 12184 96839 31540 51405 10258 20234 30074 40081 58008 71322 82972 333 56000 57901 82920 80980
AAXX 12184 96935 32560 50000 10262 20241 30080 40086 57012 81131 333 56000 81820
AAXX 12184 96001 NIL
AAXX 12184 96015 01420 70000 10238 20230 30100 40107 56005 70262 85572 333 56000 60067 85612
AAXX 12184 96033 NIL
AAXX 12184 96075 32456 60000 10230 20227 30094 40099 57007 83521 333 56000 83617
AAXX 12184 96087 31458 83604 10255 20234 30074 40107 50000 70522 81578 333 56000 81615 86460 87280
AAXX 12184 96171 31440 70000 10252 20237 30085 40110 52010 70522 85522 333 56000 85615
AAXX 12184 96207 01406 80000 10212 20196 39237 40159 52001 60011 76162 85931 333 56000 57902 60017 82912 83614 80940
AAXX 12184 96525 01440 82418 10246 20233 30075 40082 55007 60121 79596 8697/ 333 56009 57900 60127 82910 84810 88460 809//
AAXX 12184 96529 01450 70000 10240 20237 30073 40097 58014 60051 70396 84131 333 56000 69927 84818
AAXX 12184 96559 NIL
AAXX 12184 96607 32458 70000 10260 20245 30069 40084 57011 84521 333 56000 84615
AAXX 12184 96615 11456 30000 10244 20238 30084 40098 56013 60021 70262 83100 333 56200 57823 83812 80856
AAXX 12184 96737 32457 60000 10256 20238 30051 40082 58007 84571 333 56000 84617
AAXX 12184 96739 31550 72603 10247 20235 30044 40093 57008 83522 333 56000 83620
AAXX 12184 96741 NIL
AAXX 12184 96745 32556 60000 10256 20235 30085 40089 57009 82521 333 56000 82620 85460
AAXX 12184 96751 NIL
AAXX 12184 96791 NIL
AAXX 12184 96797 31458 71904 10260 20219 30074 40079 57012 71522 81971 333 56000 57902 81918 85360 80980
AAXX 12184 96837 32550 60000 10263 20242 30083 40087 56008 82231 333 56000 57800 82823
AAXX 12184 96925 32465 60000 10257 20242 30079 40083 56008 82232 333 56600 57860 82817 86080 80860
AAXX 12184 96933 32458 71702 10266 20246 30084 40087 57003 84521 333 56200 84618 84460
AAXX 12184 96937 32958 70000 10271 20246 30081 40086 57009 87090 333 56000 87358
AAXX 12184 96973 32558 40000 10260 20245 30075 40080 57011 82231 333 56000 57804 82820 80850
AAXX 12184 96987 32458 60000 10264 20243 30020 40079 57015 84238 333 56000 57802 82818 82618 80860
AAXX 12184 97008 NIL
AAXX 12184 97016 32560 40301 10257 20231 30068 40070 57011 81272 333 56000 57802 81820 80859
AAXX 12184 97126 11460 62202 10242 20236 30020 40080 57021 60101 70196 81521 333 56000 81618 85460
AAXX 12184 97182 11468 71102 10270 20247 30067 40071 57014 69901 70262 8357/ 333 56009 83619 84459
AAXX 12184 97240 31456 60000 10256 20250 39965 40079 57018 70592 84131 333 56000 80860
AAXX 12184 97310 32558 10000 10262 20229 30066 40077 57006 81101 333 56000 81820
AAXX 12184 97320 11560 82303 10266 20248 30056 40069 57017 69901 70262 85246 333 56000 57801 84818 80850
AAXX 12184 97378 31565 70000 10262 20250 39932 40095 51008 70292 81171 333 56000 81820 84359
AAXX 12184 97406 32460 70000 10242 20239 30048 40073 56003 85252 333 56000 57801 85818 80860
AAXX 12184 97570 NIL
AAXX 12184 97630 31458 80105 10236 20217 39908 40068 56014 70522 86946 333 56000 57901 82912 84813 86280 80978
AAXX 12184 97700 32460 32203 10254 20242 30056 40070 57016 82231 333 56000 57804 82817 80850
AAXX 12184 97722 32564 50303 10284 20233 30058 40073 57020 83206 333 56000 57804 83820 80850
BBXX FLAO 1218/ 99764 70847 46/// ///// 11208 40016 52001
BBXX MINUK01 1218/ 99602 70012 46/// ///// 10058 49828 57001
BBXX 46036 12181 99484 71339 46/// /2108 10086 40208 57011 22200 00085 10805 70027 333 91210
BBXX 46036 12181 99484 71339 46/// /2108 10086 40208 57011 22200 00085 10805 70027 333 91210
AAXX 12184 82143 31598 70304 10300 20247 40079 7022/ 85260 222// 80260 333 59008
AAXX 12184 83117 31397 11301 10280 20240 40119 56016 7010/ 82145 222// 02210 20101 80250
AAXX 12184 41184 42960 02003 10185 20142 40167 333 10270 59002
AAXX 12184 41194 12960 09903 10222 20163 30171 40176 60001 333 10269 59002
AAXX 12184 41196 41958 00000 10184 20155 30139 40178 70500 333 10273 59003
AAXX 12184 41198 42960 02403 10211 20140 40173 333 10259 58006
AAXX 12184 41217 41558 42805 10211 20178 30145 40174 70500 84500 333 10248 59005 84625
AAXX 12184 41218 41556 33006 10179 20157 39873 40184 70500 83500 333 10256 59004 83621
AAXX 12184 83437 32599 50504 10277 20207 39356 40066 85200 333 59004
AAXX 12184 83552 32498 7//// 10346 20207 39900 4//// 875// 333 58016
AAXX 12184 83579 32599 50000 10290 20175 38970 40056 85200 333 58012
AAXX 12184 83592 32597 50904 10262 20203 39422 40096 83240 333 58018
AAXX 12184 83623 32996 6//// 1//// 2//// 39499 4//// 55326 85204
AAXX 12184 83630 21597 51804 10266 20179 3//// 4//// 57015 70352 82240 333 69941
AAXX 12184 83702 21498 83204 10265 20214 39333 4//// 5//// 70366 85970 333 60181
AAXX 12184 83704 32698 43602 10328 20196 39649 40046 58012 84200
AAXX 12184 83726 32597 62702 10306 20151 39143 40082 58025 86300
BBXX AMOUK08 12184 99501 70061 46/// ///// 10122 20115 39921 49929 57080 91750
BBXX 63106 12184 99610 10017 46/// /2324 10072 49816 56002 22200
BBXX 63105 12184 99610 10017 47597 ///// 10068 20021 49816 56001 761// 22200
BBXX AMOUK05 12184 99537 70003 46/// ///// 10057 20030 39915 49957 57023 91750
AAXX 12184 63688 32980 31005 10105 20092 48/// 81033 333 10240 58010 81358 83077
AAXX 12184 63708 32575 43405 10229 20175 48480 81901 333 10295 59001 81922 84076
AAXX 12184 63714 32980 00000 10170 20102 48482 333 10250 58006
AAXX 12184 63740 32482 10201 10182 20140 48505 81530 333 10264 58003 81619
AAXX 12184 63820 12580 10606 10270 20241 40102 60012 81100 333 58007 81823
AAXX 12184 63612 NIL
AAXX 12184 63661 NIL
AAXX 12184 63671 NIL
AAXX 12184 63695 NIL
AAXX 12184 63723 NIL
AAXX 12184 63772 NIL
AAXX 12184 63793 NIL
BBXX 46238 12181 99334 71195 46/// ///// 1//// 91820 22200 00148 11503 21001 326// 41503 70013
BBXX 46239 12181 99363 71221 46/// ///// 1//// 91821 22200 00128 11506 21004 328// 41504 70030
AAXX 12181 23426 32984 80000 11200 21226 30199 40225 54000 80001 333 11163
AAXX 12181 23625 32998 01201 11178 21197 30187 40224 54000 333 11159
AAXX 12181 28076 32997 31201 11180 21186 30258 40337 53003 80001 333 11173
AAXX 12181 28367 32984 21102 11187 21206 30170 40310 54000 80001 333 11137
AAXX 12181 28382 32998 81002 11190 20202 30281 40359 52006 80005 333 11164
AAXX 12181 28481 32997 21101 11203 21222 30240 40349 52003 80005 333 11160
AAXX 12181 28491 32997 30000 11207 21232 30238 40359 52002 80001 333 11155
AAXX 12181 28573 32997 80901 11187 21199 30223 40337 54000 80007 333 11171
AAXX 12181 28593 32997 00000 11219 21231 30251 40359 54000 333 11150
AAXX 12181 28786 12997 01001 11223 21241 30160 40334 54000 69920 333 11179
AAXX 12181 28797 12497 80000 11221 21240 30166 40340 51001 69900 886// 333 11175 88713
AAXX 12181 28799 11996 70000 11189 21208 30182 40340 52004 69900 77171 87010 333 11149
AAXX 12184 78318 11562 20507 10283 20200 30173 40177 58014 60001 70500 82800 333 10284 20192 31/// 56900 58008 81820
AAXX 12184 78325 11562 40604 10266 20195 30125 40183 58014 60001 70500 84200 333 10267 20212 30/// 56100 58010 84820 555 10602
AAXX 12184 78333 11410 20201 10277 20191 30159 40166 58015 60001 70500 82242 333 10279 20199 30/// 56199 57875 58008 82818 555 10402
AAXX 12184 78348 11556 30404 10263 20209 30115 40167 58018 60001 70500 83800 333 10263 20225 31/// 56100 57813 58006 70020 83821 555 10502
AAXX 12184 78349 11565 60606 10275 20198 30053 40162 57018 60001 70511 85201 333 10277 20185 30/// 56109 58005 85821 555 10503
AAXX 12184 78353 12570 60602 10276 20286 30143 40165 58015 60001 83802 333 10276 20235 31/// 56909 58004 70004 82823 84080
AAXX 12184 78360 12570 32501 10308 20202 30131 40142 56015 60001 82802 333 10308 20218 31/// 56209 57849 58011 70103 81820 92011 555 10902
AAXX 12184 78369 11568 50205 10275 20213 30132 40141 57009 60001 70511 82240 333 10277 20240 30/// 56990 57865 58011 70044 82820 83357 92033
AAXX 12181 20046 NIL
AAXX 12181 20069 NIL
AAXX 12181 20087 41897 81810 11101 21114 30076 40087 57012 77173 8802/ 333 91113
AAXX 12181 20292 NIL
AAXX 12181 20353 46/// /1809 11022 21053 39978 49981 57015 333 91113
AAXX 12181 20667 11997 81809 11057 21064 30085 40092 57011 69930 73832 8802/ 333 11030
AAXX 12181 20674 41496 71811 11093 21100 30084 40145 58009 73832 875// 333 87617 91116
AAXX 12181 20744 11497 71810 11010 21026 39987 40005 57002 60030 73683 83130 333 11003
AAXX 12181 20891 42998 21405 11211 21229 30256 40302 57008 82030 333 91106
AAXX 12181 23022 11597 71908 11081 21099 30039 40101 57001 69900 73683 82539 333 11062 91115
AAXX 12181 23032 11597 82207 11054 21087 30096 40127 57004 69960 73683 885// 333 11050 88626
AAXX 12181 23058 31998 51805 11148 21168 30203 40208 57004 70232 80001 333 11118
AAXX 12181 23242 31996 32209 11140 21160 30195 40212 53001 73831 83030 333 10143 91113
AAXX 12181 23256 32998 32009 11132 21159 30224 40261 52002 83030 333 11110 91012 91113
AAXX 12181 23330 32997 62301 11201 21213 30205 40228 52001 83031 333 11151 93544
AAXX 12181 23445 32997 81404 11131 21183 30256 40283 52004 80001 333 11107
AAXX 12181 23552 31497 51902 11150 21170 30300 40337 52008 70331 85500 333 11120 85617
AAXX 12181 23631 32998 82003 11144 21179 30200 40244 57003 80001 333 11124
AAXX 12181 23662 32998 71901 11099 21111 30324 40370 52008 87030 333 11086
AAXX 12181 23724 32998 01601 11153 21166 30154 40223 53002 333 11150
AAXX 12181 23734 32998 01402 11181 21207 30188 40287 57001 333 11143
AAXX 12181 23849 41956 01601 11181 21202 40375 52004 71000
AAXX 12181 23867 11997 60000 11227 21246 30343 40423 52005 69900 77172 86010 333 11167
AAXX 12181 23933 11596 81502 11176 21194 30270 40331 57001 69900 77172 83507 333 11174
AAXX 12181 28064 32998 01502 11180 21199 30212 40311 54000 333 11174
AAXX 12181 28275 32997 41003 11198 21217 30273 40339 53003 80002 333 11177
AAXX 12181 28493 32997 00801 11204 21223 30259 40361 52001 333 11145
AAXX 12181 28698 11396 80601 11192 21211 30182 40351 53002 69900 77172 8572/ 333 11172 85707
BBXX 46243 12181 99462 71241 46/// ///// 1//// 91829 22200 00083 11303 20803 327// 41302 70017
BBXX 46236 12181 99368 71219 46/// ///// 1//// 91820 22200 00126 11404 20803 328// 41403 70020
BBXX 46229 12181 99438 71246 46/// ///// 1//// 91821 22200 00106 11305 20904 329// 41303 70025
BBXX 46217 12181 99342 71194 46/// ///// 1//// 91812 22200 00143 11302 21001 326// 41302 70009
BBXX 46225 12181 99329 71174 46/// ///// 1//// 91814 22200 00156 11503 20401 327// 41502 70013
BBXX 46215 12181 99352 71209 46/// ///// 1//// 91808 22200 00137 11502 21001 326// 41502 70012
BBXX 46219 12181 99332 71199 46/// ///// 1//// 91828 22200 00137 11504 21001 328// 41504 70018
BBXX 46224 12181 99332 71175 46/// ///// 1//// 91806 22200 00150 11502 20401 323// 41501 70009
BBXX 46214 12181 99379 71235 46/// ///// 1//// 91827 22200 00114 11108 21005 332// 41106 70039
BBXX 51202 12181 99214 71577 46/// ///// 1//// 91809 22200 00244 11107 21006 310// 41104 70033
BBXX 44060 12181 99413 70721 46/// ///04 10058 40342 91830 22200 00111 333 91206 555 11046 22046
BBXX 44022 12181 99409 70737 46/// ///04 10061 21073 40339 91830 22200 00092 333 91205 555 11036 22036
BBXX 44040 12181 99410 70736 46/// /2404 10056 21056 40348 91819 22200 1//00 70000 333 91205 555 11046 22057
BBXX A8AD7 12183 99065 70122 41795 49903 10295 20233 40100 50000 70000 82468 22233 02300 2//// 30000 80250
BBXX VQHO7 12184 99064 50344 41598 30611 10290 20232 40103 57003 70385 83200 22284 00275 20304 305// 40404 5//// 80250
BBXX OZDK2 12181 99145 70178 41/97 93506 10269 20194 40105 56015 71022 89/// 22244 20301 399// 40602 80220
BBXX AMOUK17 12184 99327 30573 46/// ///// 10170 20090 30194 40202 52010 91750
BBXX AMOUK15 12184 99128 50092 46/// ///// 10226 20175 30122 40154 57006 91750
BBXX AMOUK20 12184 99015 50306 46/// ///// 10269 20232 30098 40107 54/// 91750
BBXX A8UL5 12183 99186 30607 41898 30614 10275 20241 40095 52015 70100 81181 22214 20403 3//// 4//// 5//// 80250
BBXX MINUK01 1218/ 99602 70012 46/// ///// 10058 49828 57001
BBXX DDSC2 12183 99481 70066 41596 82344 10135 20109 40015 57160 78565 887// 22214 00127 20610 33021 41216 51214 80120
BBXX DPLE 12183 99417 70299 41497 82825 10145 20110 40215 52015 70286 887// 22200 00160 20505 399// 40907 80125
BBXX 61002 12184 99421 10047 46/// ///23 10141 2//// 40212 52016 22200 00153 10605 70024 555 1/030
BBXX BATUK01 12184 99576 70061 46/// /1632 10064 21007 49769 58080 22231 00112
BBXX DDZA2 12184 99366 70001 41/98 22719 10165 20114 40245 52005 70100 8//// 22263 04170 2//// 80135
BBXX PBEO 12183 99408 70098 41597 72514 10156 20079 40250 57010 70222 878// 22282 02165 20301 333// 41005 80114
BBXX C6CU6 12183 99394 70207 41297 73027 10160 20124 40250 56020 70352 85778 22253 04170 20801 331// 41508 5//// 80140
BBXX TBWUK35 12183 99409 70102 41598 82315 10156 20099 40228 53010 70222 885// 22244 00170 20202 332// 40808 80126
BBXX BATFR42 12184 99505 70019 46/// /2058 10107 20067 49997 22244 00127
BBXX BATFR60 12184 99474 70039 46/// /2035 10129 20087 40069 58023 22233 00135
BBXX A8UT7 12184 99337 70136 41698 30206 10185 20145 40250 54000 70200 82/84 22283 20501 333// 41009 80160
BBXX BATFR01 12184 99359 10217 46/// /2313 10184 20115 40237 53004 22222 00197
BBXX A8MW8 12183 99308 10001 41497 32151 10150 20118 40250 54000 70300 83145 22265 06210 21203 326// 41002 5//// 80131
BBXX BATFR54 12184 99437 70092 46/// /2243 10147 20089 4//// 22262 00145
BBXX BATFR50 12184 99429 10061 46/// /3025 10142 20062 40173 53018 22242 00170
BBXX BATFR20 12184 99431 10054 46/// /2725 10132 20027 40188 22234
BBXX BAREU62 12184 99376 10241 46/// ///// 40222 57002 22254
BBXX BATFR41 12184 99430 10063 46/// /2923 10137 20017 40157 51041 22262
BBXX BATFR11 12184 99362 10002 46/// /2705 10164 20119 40259 22213 00179
BBXX BATEU09 12184 99431 10068 46/// /2833 10139 20034 40141 22251 00175
BBXX 61001 12184 99434 10078 46/// /2630 10148 20063 40106 52006 22200 00158 10605 70025 555 1/040
BBXX BATFR04 12184 99598 70107 46/// /1221 10067 20012 49728 56056 22200 00102
BBXX BATFR03 12184 99500 70006 46/// /2037 10102 20057 40062 22284
BBXX BAREU05 12184 99360 70060 46/// ///// 40277 22262
BBXX DFUX2 12184 99400 70098 41/98 82217 10170 20110 40248 56003 7//22 8//// 22284 00160 2//// 80135
BBXX BATFR15 12184 99386 70160 46/// /2616 10162 20109 40250 55001 22254 00175
BBXX BAREU63 12184 99312 10298 46/// /3412 10174 29066 40242 52001 22222
BBXX BAREU04 12184 99535 70046 46/// ///// 49834 57103 22214
BBXX A8CJ2 12184 99357 50731 41497 52237 10160 20144 40150 54000 70222 83670 22244 04180 21004 323// 41206 5//// 80150
BBXX UDWE 12181 99436 11355 42998 02810 11070 40228 52031 22253 00041 20202
BBXX A8SI9 12183 99426 11450 43698 12724 10006 2100/ 40170 52040 81/83 22254 00068 20505 327// 40830 80001
BBXX S6OM 12184 99256 11222 41697 80432 10180 20163 40216 58/// 78022 877// 22200 00224 21010 304// 41010 5//// 80170
BBXX A8IE6 12184 99163 11131 41/97 80526 10235 20214 40120 55020 75255 8//// 22284 04255 20808 304// 40808 80220
BBXX 44062 12181 99386 70764 46/// /0401 1//// 91820 22200 00092 333 91202
BBXX 44041 12181 99372 70768 46/// /3004 1//// 40350 91810 333 91205
BBXX 44041 12181 99372 70768 46/// /3004 10081 40351 58018 91800 22200 00103 1//00 70001 333 91205
BBXX 44042 12181 99380 70763 46/// /0402 1//// 91820 333 91204
BBXX 44041 12181 99372 70768 46/// /2905 1//// 91820 333 91205
BBXX 44063 12181 99390 70764 46/// /0000 10044 40351 58016 91800 22200 00079 1//00 70001 333 91200
BBXX 44063 12181 99390 70764 46/// /0000 1//// 40350 91810 333 91200
BBXX 44063 12181 99390 70764 46/// /0000 1//// 91820 333 91200
BBXX 44062 12181 99386 70764 46/// /0201 10049 40326 58016 91800 22200 00091 1//00 70001 333 91202
BBXX PENR 12183 99319 70547 41497 61020 10240 20210 40237 55005 70122 85278 22214 20502 311// 41104 80220
BBXX VQKZ6 12183 99255 70542 41298 70921 10258 20208 40195 57020 70322 84725 22253 02239 20504 311// 40807 5//// 80225
BBXX A8VE3 12184 99094 70498 41597 70814 10290 20235 40090 56020 70222 8577/ 22274 04282 21404 309// 41604 5//// 80250
BBXX ZCDG4 12184 99125 70703 41498 60520 10282 20240 40103 57015 70311 83278 22264 00290 20101 310// 40402 5////
BBXX GDTT 12184 99274 70800 41498 60111 10230 20199 40197 57003 7//22 84563 22200 00270 20402 308// 40708 80210
BBXX DFRZ 12183 99210 70521 41598 50928 10270 20243 40170 57020 70322 85555 22253 00260 21105 80250
BBXX DGSE 12183 99471 71310 41498 72413 10080 20038 40255 54000 70122 8717/ 22224 00100 20502 334// 40803 80060
BBXX 46181 12181 99538 71288 46/// /3401 10002 40215 57016 22200 00030 10200 70001 333 91201
BBXX 46132 12181 99497 71279 46/// /1502 10064 40243 5//// 22200 00087 11203 70016 333 91204
BBXX 46205 12181 99542 71343 46/// /2606 10073 40155 52006 22200 00077 11408 70041 333 91208
BBXX 46206 12181 99488 71260 46/// /1005 10059 40252 54000 22200 00087 11203 70015 333 91207
BBXX 46208 12181 99525 71327 46/// /3004 10070 40172 54000 22200 00077 11407 70033 333 91206
BBXX WDB3161 12184 99508 71481 41698 13319 10060 2004/ 40186 54000 70200 812// 22273 00073 20302 33122 41107 50604 6//// 80050 ICE /////
BBXX C6UB2 12184 99477 71395 41296 81920 10090 2009/ 40170 57010 75865 8892/ 22223 00090 20403 320// 40604 5//// 6//// 80090 ICE /////
BBXX 46185 12181 99524 71298 46/// /1811 10057 40201 57016 22200 00069 10403 70015 333 91213
BBXX 46087 12181 99485 71247 46/// /0907 10053 21003 40246 91820 22200 00079 333 91208 555 11073 22076 31725 40809 61819 088068 088065 084067 083072 079075 078075
BBXX 44040 12181 99410 70736 46/// /2404 10056 21056 40348 91815 22200 1//00 70000 333 91205 555 11046 22057
BBXX 41036 12181 99342 70770 46/// ///// 10148 20119 40285 91820 22200 00217
BBXX VRHO2 12184 99525 71762 41498 41525 10040 20017 49890 57040 7//// 84900 22254 00050 20807 32525 40707 50806 6//// 80030 ICE /////
BBXX WRYD 12184 99381 70695 43/// ///// 1//// 2//// 4//// 5//// 7//// 8//// 22211 0//// 2//// 3//// 4//// 5//// 6//// ICE /////
BBXX 46036 12181 99484 71339 46/// /2108 10086 40208 57011 22200 00085 10805 70027 333 91210
BBXX FLAO 1218/ 99764 70847 46/// ///// 11208 40016 52001
BBXX 44140 12181 99429 70515 46/// /2808 10113 40348 5//// 22200 00098 10905 70027 333 91210
BBXX 44258 12181 99445 70634 46/// /2312 10071 40303 57024 22200 00070 10603 70016 333 91213
BBXX 46146 12181 99493 71237 46/// /3602 10031 40257 54000 22200 00061 10200 70002 333 91203
BBXX 42013 12181 99272 70829 46/// ///// 1//// 40224 91740 22200 00200
BBXX 42361 12181 99276 70925 46/// ///09 10206 20156 40234 58003 91830 555 11076 22081
BBXX 41113 12181 99284 70805 46/// ///// 1//// 91821 22200 00222 11103 20903 310// 41101 70016
BBXX 41110 12181 99341 70777 46/// ///// 1//// 91821 22200 00144 10502 20502 70012
BBXX 42099 12181 99273 70842 46/// ///// 1//// 91827 22200 00237 10603 20603 70013
BBXX 44100 12181 99363 70756 46/// ///// 1//// 91822 22200 00138 10603 20603 70016
BBXX 42363 12181 99282 70892 46/// /0710 10200 20156 40251 91830 333 91210
BBXX 41009 12181 99285 70802 46/// /0711 10241 20181 40216 91820 22200 00258 10907 20805 300// 40905 70036 333 91213 555 11116 22123
BBXX 42362 12181 99278 70907 46/// /0708 10222 20167 40244 91830
BBXX 42364 12181 99291 70881 46/// /0607 10194 20150 40254 91830
BBXX 41010 12181 99289 70785 46/// /0811 10228 40214 91820 22200 00242 10906 20404 300// 40905 70031 333 91213 555 11115 22122
BBXX 44099 12181 99369 70757 46/// ///// 1//// 91822 22200 00129 10602 20602 70010
BBXX 44039 12181 99411 70727 46/// /2305 10060 21026 40352 91753 22200 00106 10301 70004 333 91206
BBXX 46004 12181 99509 71361 46/// /3402 10065 40186 54000 22200 00078 11207 70034 333 91203
BBXX 46246 12181 99500 71451 46/// ///// 1//// 91759 22200 00075 11410 21005 326// 41408 70051
BBXX 46246 12181 99500 71451 46/// ///// 1//// 91829 22200 00075 11311 21006 327// 41309 70053
BBXX 46232 12181 99325 71174 46/// ///// 1//// 91808 22200 00145 11504 20503 325// 41502 70018
BBXX 46247 12181 99378 71228 46/// ///// 1//// 91821 22200 00114 11405 21004 329// 41404 70027
BBXX 46184 12181 99539 71389 46/// /2608 10063 40157 52007 22200 00067 11411 70053 333 91211
BBXX 44029 12181 99425 70706 46/30 /2208 10071 40311 56024 91804 22200 00090 10301 70007 333 91209 555 11093 22098
BBXX 44058 12181 99376 70763 46/// /0206 1//// 40330 91810 333 91207
BBXX 44057 12181 99395 70761 46/// /1602 10040 40348 56014 91800 22200 00062 333 91203
BBXX 44058 12181 99376 70763 46/// /0206 1//// 91820 333 91207
BBXX 44057 12181 99395 70761 46/// /1603 1//// 40347 91810 333 91203
BBXX 44058 12181 99376 70763 46/// /0206 10071 40332 58010 91800 22200 00100 10301 70005 333 91207
BBXX 44061 12181 99388 70770 46/// /1902 1//// 40340 91810 333 91202
BBXX 44061 12181 99388 70770 46/// /1902 10053 40342 58018 91800 22200 00060 333 91203
BBXX 44059 12181 99368 70763 46/// /0504 1//// 91820 333 91205
BBXX 44061 12181 99388 70770 46/// /2002 1//// 91820 333 91203
BBXX 44057 12181 99395 70761 46/// /1502 1//// 91820 333 91202
BBXX 44059 12181 99368 70763 46/// /0503 1//// 40317 91810 333 91204
BBXX 44059 12181 99368 70763 46/// /0403 10100 40317 58015 91800 22200 00109 333 91204
BBXX 46092 12181 99368 71220 46/// /1005 10096 40069 91757 22200 00126 555 11057 22057
BBXX 44043 12181 99392 70764 46/// /1201 1//// 40343 91810 333 91202
BBXX 44043 12181 99392 70764 46/// /1401 10045 40344 58015 91800 22200 00076 1//00 70001 333 91202
BBXX 44062 12181 99386 70764 46/// /0301 1//// 40323 91810 22200 00091 333 91202
BBXX 44042 12181 99380 70763 46/// /0202 1//// 40339 91810 333 91203
BBXX 44043 12181 99392 70764 46/// /1002 1//// 91820 333 91202
BBXX 44042 12181 99380 70763 46/// /0202 10067 40341 58012 91800 22200 00093 1//00 70001 333 91203
BBXX WDA2768 12184 99418 70875 43/// /3516 00/// 10050 21017 40281 55017 7//// 8//// 22283 0//// 2//// 3//// 4//// 5//// 6//// 80023 ICE /////
BBXX WDC6055 12184 99468 70917 41/97 80000 10020 2//// 40220 5//// 75352 8//// 22213 00030 2//01 3//// 4//// 5//// 6//// 8//// ICE /////
BBXX WCF3012 12184 99438 70825 41/97 22014 10030 40290 70500 22283 00060 20302
BBXX MGSM3 12184 99071 31494 41497 73116 10264 20230 40033 57027 76056 87/// 22233 04290 20301 33132 40601 50701 80245
BBXX TBWUK17 12183 99004 11063 41697 63405 10271 20241 40127 54000 70311 86738 22233 04280 20402 20100 33435 40501 50602 80250
BBXX SHIP 12184 99128 30849 41397 61318 00/// 10273 20238 40080 58003 70311 86300 22233 00291 10904 20202 315// 40304 5//// 85247
BBXX V2OG2 12183 99107 31037 41998 03207 10290 20256 40094 58016 70211 80000 22223 20402 314// 40403 80265
BBXX C6FS9 12184 99224 31623 46/// /0222 10261 20241 30040 40075 52005 22223 04260 85246
BBXX VROB 12184 99068 31470 46/// /3111 10250 20215 30038 40063 57019 22200 04305 85225
BBXX FHZI 12184 99429 31473 46/// /2904 10120 20011 30103 40114 5//// 22200 85070
BBXX 9HA2479 12184 99270 31605 46/// /3316 10214 20203 30013 40042 52011 22214 04227 85207
BBXX ZDLP 12183 99650 50647 41/92 90428 11003 21006 49681 53023 77574 89/// 22222 05005 20701 305// 40404 5//// 81004
BBXX WDE2719 12183 99608 71513 41/97 80105 10006 2//// 49920 5//// 702// 8//// 222// 01017 2//01 332// 4//01 5//// 6//// 8//// ICE /////
BBXX WDE3568 12184 99434 70868 41/98 62116 10088 2//// 40284 56/// 702// 8//// 22283 0//// 2//03 3//// 4//// 5//// 6//// 8//// ICE /////
BBXX WE3592 12184 99470 70858 43/// 82115 10027 2//// 40227 5//// 7//// 8//// 222// 0//// 2//02 3//// 4//// 5//// 6//// 8//// ICE /////
BBXX WCF3012 12184 99438 70825 41/97 22014 10030 40290 70500 22283 00060 20302
BBXX WDA2768 12184 99418 70875 43/// /3516 00/// 10050 21017 40281 55017 7//// 8//// 22283 0//// 2//// 3//// 4//// 5//// 6//// 80023 ICE /////
BBXX WDC6055 12184 99468 70917 41/97 80000 10020 2//// 40220 5//// 75352 8//// 22213 00030 2//01 3//// 4//// 5//// 6//// 8//// ICE /////
BBXX KS098 12184 99441 71242 43/// /0111 10070 40194 22242 06000
BBXX KS094 12184 99133 70596 43/// /1006 10280 40119 22200 06274
BBXX KS088 12184 99267 70801 43/// /1405 10249 40194 22200 06240
AAXX 12181 80400 NIL
AAXX 12181 80403 32470 80707 10317 20243 30095 40114 81206 333 30/// 56909 58018 81816 88080 555 10117
AAXX 12181 80405 NIL
AAXX 12181 80407 32470 4//// 10320 20261 30033 4//// 84400 333 30/// 56900 5//// 84616 555 10106
AAXX 12181 80410 32470 70905 10270 20229 39431 40106 8521/ 333 30/// 5699/ 58015 85816 555 10143
AAXX 12181 80413 32470 52502 10301 20185 39615 40100 857// 333 30/// 569// 58003 85713 555 10132
AAXX 12181 80415 32470 80501 10296 20253 30043 40099 8327/ 333 30/// 5699/ 58002 83816 85470 555 10099
AAXX 12181 80419 NIL
AAXX 12181 80421 NIL
AAXX 12181 80423 12470 4//// 10311 20203 30075 40092 60031 84900 333 30/// 56200 58010 83610 81910 555 10091
AAXX 12181 80428 32470 60703 10312 20243 39914 40097 865// 333 30/// 569// 58003 86617 555 10110
AAXX 12181 80432 NIL
AAXX 12181 80435 11470 60903 10318 20180 30009 40084 69941 70292 862// 333 31/// 569// 58004 86813 555 10082
AAXX 12181 80438 32570 72305 10236 20174 38506 48503 82515 333 30/// 56999 58011 82623 83280 555 10186
AAXX 12181 80444 32470 4//// 10322 2//// 30029 4//// 84500 333 30/// 56200 58003 84613 555 10077
AAXX 12181 80447 32560 8000 10289 20216 39650 40069 85508 333 30/// 56909 58009 85620 555 10120
AAXX 12181 80448 11465 80000 10264 20252 3//// 4//// 60041 72126 8352/ 333 31/// 5699/ 83617 85457
AAXX 12181 80450 NIL
AAXX 12181 80453 NIL
AAXX 12181 80457 NIL
AAXX 12181 80462 NIL
AAXX 12181 80402 NIL
AAXX 12181 80412 NIL
AAXX 12181 80416 NIL
AAXX 12181 80420 32470 22704 10330 20168 30089 40095 82500 333 30/// 56900 58011 82613 555 10108
AAXX 12181 80425 11470 82501 10300 20249 30066 40097 69911 70252 8147/ 333 31/// 5699/ 59011 81613 87660 555 10097
AAXX 12181 80426 32570 63602 10270 20198 39463 40106 865// 333 30/// 569// 58003 86620 555 10138
AAXX 12181 80427 32468 80502 10317 20255 39851 40102 8527/ 333 30/// 5699/ 58004 85817 555 10120
AAXX 12181 80431 NIL
AAXX 12181 80434 NIL
AAXX 12181 80437 32470 42702 10324 20209 39993 40078 84500 333 30/// 56900 58006 84613 555 10084
AAXX 12181 80440 32460 61103 10305 20219 39885 40096 8483/ 333 30/// 5699/ 58006 84820 555 10105
AAXX 12181 80442 32470 5//// 10328 20/// 39984 4//// 852// 333 30/// 569// 58009 85813 555 10095
AAXX 12181 80472 32465 81102 10297 20203 39615 40094 8422/ 333 30/// 5699/ 84816 86460 555 10117
AAXX 12181 80475 11440 83605 10227 20223 39758 40127 60021 76026 889// 333 32/// 569// 59011 87713 555 10140
AAXX 12181 80476 32370 3//// 10320 20274 30077 40107 82230 333 31/// 56990 59002 82610
AAXX 12181 80478 NIL
AAXX 12181 80479 NIL
AAXX 12184 91723 NIL
AAXX 12184 91964 NIL
BBXX A8OZ4 12184 99372 10035 43998 12824 10170 20110 40250 52030 7//// 81/// 22264 00166 80130
BBXX A8OY9 12184 99136 10507 043598 50919 10251 20165 40167 55004 84436 22264 00275 21203 310// 41002 8 0195
AAXX 12184 89610 46/// /0410 11120 39562 4//// 5//// 333 90700 91112
BBXX A8OY9 12184 99136 10507 043598 50919 10251 20165 40167 55004 84436 22264 00275 21203 310// 41002 80195
BBXX 46004 12181 99509 71361 46/// /3402 10065 40186 54000 22200 00078 11207 70034 333 91203
BBXX 46036 12181 99484 71339 46/// /2108 10086 40208 57011 22200 00085 10805 70027 333 91210
BBXX 46145 12181 99544 71324 46/// /2006 10057 40154 52003 22200 00074 11207 70035 333 91208
BBXX 46181 12181 99538 71288 46/// /3401 10002 40215 57016 22200 00030 10200 70001 333 91201
BBXX 46185 12181 99524 71298 46/// /1811 10057 40201 57016 22200 00069 10403 70015 333 91213
BBXX 46204 12181 99514 71288 46/// /1008 10052 40224 57014 22200 00085 11202 70012 333 91209
BBXX 46205 12181 99542 71343 46/// /2606 10073 40155 52006 22200 00077 11408 70041 333 91208
BBXX 46206 12181 99488 71260 46/// /1005 10059 40252 54000 22200 00087 11203 70015 333 91207
BBXX 46208 12181 99525 71327 46/// /3004 10070 40172 54000 22200 00077 11407 70033 333 91206
BBXX A8SI3 12183 99503 71311 43/96 82020 10065 20060 40250 54/// 22234 00070 20604 327// 40703 80060
BBXX C6UB2 12184 99477 71395 41296 81920 10090 20090 40170 57010 75865 8892/ 22223 00090 20403 320// 40604 5//// 6//// 80090 ICE /////
BBXX DGSE 12183 99471 71310 41498 72413 10080 20038 40255 54000 70122 8717/ 22224 00100 20502 334// 40803 80060
BBXX KS098 12184 99441 71242 43/// /0111 10070 40194 22242 06000
BBXX WDB3161 12184 99508 71481 41698 13319 10060 20040 40186 54000 70200 812// 22273 00073 20302 33122 41107 50604 6//// 80050 ICE /////
AAXX 12184 48409 32960 13503 10175 20124 39997 40150 57009 80001 333 59027
BBXX /0P/// 12184 99482 11582 41/95 82616 11020 21036 49990 58010 77322 8//// 22214 00040 2//// 82025
BBXX 0P/// 12184 99482 11582 41/95 82616 11020 21036 49990 58010 77322 8//// 22214 00040 2//// 82025
BBXX DQVG 12183 99362 71611 41598 71617 10155 20108 40150 58/// 70222 8/370 22264 00185 20704 328// 41005 5//// 80130
BBXX SHIP 12184 99419 71611 41598 81521 10100 20026 40205 56034 70322 831// 22223 00140 20505 330// 41206 80070
BBXX VREX8 12184 99386 71572 43/// /2514 10120 20080 40280 5//// 7//// 8//// 22254 0//// 20302 325// 40302 50302 6//// 80100 ICE /////
BBXX VRHO2 12184 99525 71762 41498 41525 10040 20017 49890 57040 7//// 84900 22254 00050 20807 32525 40707 50806 6//// 80030 ICE /////
BBXX A8PX5 12184 99389 11365 415// 53117 10070 20026 40260 52/// 70322 854/3 22254 04150 20404 326// 40605 5//// 80050
BBXX A8SI9 12183 99426 11450 43698 12724 10006 21000 40170 52040 81/83 22254 00068 20505 327// 40830 80001
BBXX SHIP 12184 99327 11442 41397 62717 10185 20127 40181 55005 70311 85440 22273 06218 20303 329// 40606 80150
BBXX SHIP 12184 99321 11402 41/97 32717 10174 40191 57008 70111 8//// 9//// 22283 00223
BBXX UDWE 12181 99436 11355 42998 02810 11070 40228 52031 22253 00041 20202
BBXX 44137 12181 99423 70620 46/// /2306 10074 40352 57024 22200 00127 11102 70009 333 91208
BBXX 44137 12181 99423 70620 46/// /2306 10074 40352 57024 22200 00127 11102 70009 333 91208
AAXX 12183 63661 32980 03605 10168 20123 48517 333 10259 59001
AAXX 12183 63671 32980 00000 10262 20230 333 10323
AAXX 12183 63723 12980 20000 10287 20225 20086 69902 81030 333 10345 58000 82359
AAXX 12183 63772 12580 20705 10269 20246 69902 82500 333 10315 82620
AAXX 12183 63793 32480 30506 10242 20209 40086 83500 333 10317 58010 83616
AAXX 12184 48408 32960 70204 10160 20129 39992 40147 57011 80008 333 59024
AAXX 12184 71490 16/// /1717 11164 21176 39716 40038 58048 60001 333 11160 21250 70000 555 10010
AAXX 12184 71963 16/// /2118 11086 21093 39617 40019 56043 60001 333 11083 21255 70000
AAXX 12184 71923 16/// ///24 11114 21123 39667 40120 58020 60001 333 11101 21251 70000
AAXX 12184 71592 16/// /0610 11246 21283 30032 40046 53005 60001 333 11195 21246 70000
AAXX 12184 71761 16/// ///// 11069 21089 60001 333 11069 21136 70000
AAXX 12181 31152 42997 01802 11255 21290 39740 40195 53002
AAXX 12181 31163 NIL
AAXX 12181 31285 42999 32403 11245 21293 30091 40177 53008 80001
AAXX 12181 31561 42998 31803 11238 21250 30139 40169 52009 80001
AAXX 12181 31683 42699 12502 11200 21233 30064 40144 52005 81500
AAXX 12181 32010 41294 82705 11157 21770 39980 40031 53001 78682 889// 333 91008 91111
BBXX 44138 12181 99443 70536 46/// /2607 10039 40339 57012 22200 00087 10905 70027 333 91210
BBXX 44138 12181 99443 70536 46/// /2607 10039 40339 57012 22200 00087 10905 70027 333 91210
BBXX MINUK05 1218/ 99598 70033 46/// ///// 10073 49805 57006
BBXX MINUK04 1218/ 99555 10084 46/// ///// 10063 4//// 52001
AAXX 12183 91553 11598 59902 10250 20243 40085 53001 60021 72555 85900 333 563// 60021 84820 81925
AAXX 12183 91553 11598 59902 10250 20243 40085 53001 60021 72555 85900 333 563// 60021 84820 81925
AAXX 12184 62762 32970 73605 10245 20135 39605 40176 80007 333 10335 56009 58001 87275
AAXX 12184 62771 32970 70205 10250 20030 39478 40119 80007 333 10295 56009 59008 87275
AAXX 12184 62772 32970 03604 10260 20160 39668 40097 333 10324 58004
AAXX 12184 62781 32970 73604 10230 20070 39494 40126 80007 333 10303 56009 58002 87275
AAXX 12184 62790 32970 70204 10220 20010 39394 40120 80007 333 10294 56009 59014 87275
AAXX 12184 62795 32970 73408 10290 20120 39577 40069 80007 333 10370 56009 59004 87275
AAXX 12184 62803 32970 70000 10245 20090 39/// 40/// 80007 333 10307 56009 5//// 87275
AAXX 12184 62805 32970 73608 10300 20120 39539 40055 80007 333 10365 56009 59008 87275
AAXX 12184 62809 32970 73604 10250 20102 39603 40113 80007 333 10308 56009 59004 87275
AAXX 12184 62810 32970 73605 10260 20100 39/// 40/// 80007 333 10330 5//// 87275
AAXX 12184 62762 32970 73605 10245 20135 39605 40176 80007 333 10335 56009 58001 87275
AAXX 12184 62771 32970 70205 10250 20030 39478 40119 80007 333 10295 56009 59008 87275
AAXX 12184 62772 32970 03604 10260 20160 39668 40097 333 10324 58004
AAXX 12184 62781 32970 73604 10230 20070 39494 40126 80007 333 10303 56009 58002 87275
AAXX 12184 62790 32970 70204 10220 20010 39394 40120 80007 333 10294 56009 59014 87275
AAXX 12184 62795 32970 73408 10290 20120 39577 40069 80007 333 10370 56009 59004 87275
AAXX 12184 62803 32970 70000 10245 20090 39/// 40/// 80007 333 10307 56009 5//// 87275
AAXX 12184 62805 32970 73608 10300 20120 39539 40055 80007 333 10365 56009 59008 87275
AAXX 12184 62809 32970 73604 10250 20102 39603 40113 80007 333 10308 56009 59004 87275
AAXX 12184 62810 32970 73605 10260 20100 39/// 40/// 80007 333 10330 5//// 87275
AAXX 12184 48440 31957 00000 10165 20151 30089 40140 57011 71000 333 59010
AAXX 12181 40001 32970 03601 10033 21003 40253 53001 333 10126
AAXX 12181 40007 32960 02802 10047 20022 40266 50003 333 10120
AAXX 12181 40025 32960 60402 10088 20055 40244 53003 80002 333 10165 86070
AAXX 12181 40045 32970 00000 10047 20023 40261 54000 333 10127
AAXX 12181 40061 32970 00000 10060 20010 40258 52009 333 10116
AAXX 12181 40080 32970 30000 10044 21028 39518 40259 52007 80001 333 10150 83070
AAXX 12181 40087 NIL
AAXX 12181 40095 NIL
AAXX 12181 40009 32965 30000 10038 20013 40237 52007 80001 10130 83070
AAXX 12181 40016 32970 32701 10050 20029 40279 51001 80001 333 10103 83070
AAXX 12181 40022 32965 00000 10105 20055 40238 53003 222// 20000 333 10158
AAXX 12181 40030 32970 50000 10062 20041 40253 51004 80008 333 10124 85270
AAXX 12181 40039 32970 00000 10054 20027 40253 51004 333 10110
AAXX 12181 40066 32570 20501 10104 20032 40235 40235 51001 82400 333 10164 82626
AAXX 12181 40072 32970 00000 10064 20003 40265 54000 333 10138
AAXX 12181 40083 32970 00000 10038 21026 48528 52006 333 10128
AAXX 12181 40001 32970 03601 10033 21003 40253 53001 333 10126
AAXX 12181 40007 32960 02802 10047 20022 40266 50003 333 10120
AAXX 12181 40025 32960 60402 10088 20055 40244 53003 80002 333 10165 86070
AAXX 12181 40045 32970 00000 10047 20023 40261 54000 333 10127
AAXX 12181 40061 32970 00000 10060 20010 40258 52009 333 10116
AAXX 12181 40080 32970 30000 10044 21028 39518 40259 52007 80001 333 10150 83070
AAXX 12181 40087 NIL
AAXX 12181 40095 NIL
AAXX 12181 98134 11440 80406 10215 20204 39948 40140 5//// 60061 76166 8557/ 333 56199 85617 88456
AAXX 12181 98223 32562 40201 10243 20236 40104 58011 81108 333 56999 81820 84278
AAXX 12181 98232 31565 80000 10246 20227 40113 58005 70342 8227/ 333 56199 82820 88358
AAXX 12181 98325 NIL
AAXX 12181 98328 31456 51101 10172 20160 38515 40081 58008 74644 85501 333 56999 85612
AAXX 12181 98330 32975 10000 10243 20235 30070 40070 58007 80001 333 56999 81077
AAXX 12181 98336 31467 73602 10240 20238 30110 40115 58012 71322 82970 333 56899 82915 87357
AAXX 12181 98429 31560 21302 10267 20244 40101 58012 70544 82200 333 56999 82825
AAXX 12181 98430 31558 33202 10241 20237 40091 58021 70542 81210 333 56999 81820
AAXX 12181 98431 31458 60000 10247 20228 30045 40092 58013 70222 82230 333 56999 82818 86360
AAXX 12181 98440 11460 80202 10268 20248 30093 40098 58013 69901 71584 8427/ 333 56299 84815 88358
AAXX 12181 98444 32462 50302 10268 20247 30076 40095 58012 84302 333 56299 82917 84818 84070
AAXX 12181 98526 32570 13601 10249 20248 40095 58018 81200 333 56999 81820
AAXX 12181 98531 31468 20000 10259 20240 30087 40091 54008 70544 82900 333 56999 81919 81820
AAXX 12181 98536 32465 30404 10254 20227 39894 40091 58009 83200 333 56199 83818
AAXX 12181 98543 32468 41101 10259 20244 30082 40092 50012 82201 333 56999 82818 83075
AAXX 12181 98550 32460 33201 10260 20247 40087 58020 81242 333 56999 81818
AAXX 12181 98618 32570 30000 10255 20238 40091 58005 82201 333 56999 82820 83075
AAXX 12181 98630 NIL
AAXX 12181 98637 NIL
AAXX 12181 98646 32560 20264 20250 30084 40112 57007 82201 333 56999 82820 83080
AAXX 12181 98653 11465 40000 10268 20247 30039 40084 57008 69961 70584 82270 333 56999 82818 83358
AAXX 12181 98741 32467 70000 10257 20244 40075 57013 60041 76192 82970 333 56199 82917 87358
AAXX 12181 98747 31460 21601 10225 20215 39880 40084 58009 70544 82200 333 56999 82818
AAXX 12181 98753 11465 60000 10248 20236 40073 58030 60071 70564 81238 333 56999 81816 86279
AAXX 12181 98755 32575 72701 10250 20238 40082 58021 82278 333 56299 82820 84359 87279
AAXX 12181 98836 31460 70000 10252 20238 40086 58013 70544 82270 333 56999 82818 87362
AAXX 12184 94997 46/// ///// 10031 30014 40029 5////
AAXX 12184 94290 46/// /3218 10290 30033 40042 55005 91824
AAXX 12184 89610 46/// /0410 11120 39562 4//// 5//// 333 90700 91112
AAXX 12184 89614 46/// /0509 38894 4//// 5//// 333 90700 91111
AAXX 12184 83766 32597 63202 10326 20184 39451 40089 5//// 86200
AAXX 12184 83836 21397 63603 10243 20195 39116 40074 57009 71798 82973 333 69921
AAXX 12184 83881 32497 42308 10334 20158 39778 40052 58013 81204
AAXX 12184 83980 31596 52314 10300 20171 39795 40067 56012 70522 85200
AAXX 12184 83997 21497 71817 10218 20144 30067 40110 51002 70296 87800 333 60011
AAXX 12184 94210 35/// /2805 10284 30048 40053 57019
AAXX 12184 94289 46/// /3315 10290 30035 40042 55002 91815
AAXX 12184 94379 46/// /3516 10246 30023 40032 58007 91826
AAXX 12184 94997 46/// ///// 10031 30014 40029 5////
AAXX 12184 94290 46/// /3218 10290 30033 40042 55005 91824
AAXX 12184 89610 46/// /0410 11120 39562 4//// 5//// 333 90700 91112
AAXX 12184 89614 46/// /0509 38894 4//// 5//// 333 90700 91111
AAXX 12181 55228 32980 02703 11085 21320 36021 52001 333 05106 10009
AAXX 12181 55578 32980 00000 11106 21225 36346 52006 333 05100 10069
AAXX 12181 55664 32980 00000 11060 21224 35991 52003 333 00105 10110
AAXX 12181 55773 32970 00000 11115 21125 36005 54000 333 00054 10001
AAXX 12181 56116 32980 03201 11102 21150 36338 57004 333 05251 10010
AAXX 12181 56137 32980 00000 11065 21182 36798 57001 333 05252 10077
AAXX 12181 56172 32980 00000 11046 21066 37369 57002 333 00154 10095
AAXX 12181 56247 32980 00901 10002 21101 37443 52003 333 05153 10143
AAXX 12181 56312 32780 70000 10002 21080 37088 57005 875// 333 05100 10083
AAXX 12181 56462 32980 03201 11027 21047 37140 57006 333 00053 10124
AAXX 12181 56651 32980 00000 10014 21037 37641 54000 333 05155 10135
AAXX 12181 56691 11/06 91602 10001 21003 37789 57003 69911 76064 333 05203 10032
AAXX 12181 56985 32562 21402 10091 20064 38735 40195 52003 82400 333 05102 10158
AAXX 12181 57633 32762 80000 10055 20027 39475 40269 57005 885// 333 05202 10096
AAXX 12181 57902 11450 82901 10047 20047 38672 40257 57001 69911 71060 885// 333 05251 10054
AAXX 12181 55279 32980 00000 11158 21278 35685 54000 333 05152 11017
AAXX 12181 55472 32980 00901 11134 21289 35717 54000 333 05201 11005
AAXX 12181 55696 32980 01101 11048 21094 36343 52011 333 00001 10071
AAXX 12181 56079 32980 01401 11114 21161 36674 57004 333 05151 10024
AAXX 12181 56106 32980 02901 11122 21239 36199 57002 333 05351 10018
AAXX 12181 56257 32980 00000 11098 21169 36277 57006 333 00055 10023
AAXX 12181 56374 32980 01801 11045 21073 37438 57006 333 05101 10024
AAXX 12181 56385 31970 02201 11039 21040 37007 57005 70040 333 05204 11017
AAXX 12181 56954 11565 82501 10153 20150 40162 52002 69921 78080 884// 333 05101 10215
AAXX 12181 56966 32765 81102 10154 20093 40194 52004 884// 333 05202 10203
AAXX 12181 57237 32960 03201 11008 21025 40289 54000 333 10107
AAXX 12181 57306 31958 03201 10036 20030 40275 57001 71000 333 10120
AAXX 12181 57604 31930 71101 10047 20035 40262 57007 71000 87030 333 10103
AAXX 12181 57707 11458 80000 10028 20021 38533 54000 69901 71060 886// 333 05203 10038
AAXX 12181 57832 32765 73401 10061 20022 39512 40263 52002 875// 333 05201 10101
AAXX 12184 78866 01588 20306 10285 20214 30118 40123 57018 60001 82800 333 58011 60007 82822
AAXX 12184 78866 01588 20306 10285 20214 30118 40123 57018 60001 82800 333 58011 60007 82822
AAXX 12184 78866 01588 20306 10285 20214 30118 40123 57018 60001 82800 333 58011 60007 82822
BBXX 44056 12181 99362 70757 46/// ///// 1//// 91750 22200 00121 10603 20602 70013
AAXX 1218/ 48969 NIL
AAXX 1218/ 48962 NIL
AAXX 1218/ 48990 NIL
AAXX 1218/ 48986 NIL
AAXX 1218/ 48995 NIL
AAXX 1218/ 48967 NIL
AAXX 1218/ 48992 NIL
AAXX 1218/ 48965 NIL
AAXX 1218/ 48985 NIL
AAXX 1218/ 48970 NIL
AAXX 1218/ 48991 NIL
AAXX 1218/ 48964 NIL
AAXX 1218/ 48997 NIL
AAXX 1218/ 48968 NIL
AAXX 1218/ 48973 NIL
AAXX 1218/ 48966 NIL
AAXX 1218/ 48983 NIL
AAXX 1218/ 48972 NIL
AAXX 1218/ 48998 NIL
AAXX 1218/ 48993 NIL
AAXX 1218/ 48971 NIL
AAXX 1218/ 48963 NIL
AAXX 1218/ 48987 NIL
AAXX 1218/ 89879 46/// ///// 11024 39695 4//// 5//// 91830
BBXX MINUK03 1218/ 99549 70012 46/// ///// 10065 49871 57037
AAXX 12184 71354 16/// /1809 11070 21082 60001 333 11067 21113 70000
AAXX 12184 71406 16/// /2812 11087 21121 30213 40223 55004 60001 333 11079 21119 70000
AAXX 12184 71418 46/// /2828 10025 21016 30221 40254 55001 6///1 333 10028 21046 7////
AAXX 12184 71981 17/// /2503 11130 21144 69941 7//4/ 333 11068 21157 70045
AAXX 12184 71982 16/// /2103 11119 21160 60001 333 11068 21153 7////
AAXX 12184 71986 17/// /1404 11102 21114 69951 7//4/ 333 11066 21113 7////
AAXX 12184 71990 17/// /2223 11063 21070 38301 49893 56012 60021 7//4/ 333 11061 21194 70050
AAXX 12184 71277 46/// /1614 11120 21137 6///1 333 21150 7////
AAXX 12184 71050 46/// /2001 11167 21187 39145 40275 56019 6///1 333 11156 21205 7////
AAXX 12184 71048 17/// /1303 11082 21094 69941 7//4/ 333 11069 21107 7////
BBXX 42360 12181 99267 70905 46/// /0509 10230 91800 22200 00243 10703 70016 333 91211
AAXX 12184 71050 46/// /2001 11167 21187 39145 40275 56019 6///1 333 11156 21205 7////
AAXX 12181 98325 32458 30401 10260 20247 40091 58010 81201 333 56999 81816
BBXX MINFR03 1218/ 99266 30447 46/// ///// 10255 40096 52014
BBXX 42023 12181 99261 70831 46/// /0306 1//// 91830 333 91207
BBXX 42023 12181 99261 70831 46/// /0306 1//// 91800 333 91207
BBXX ZQCP3 12183 99090 11099 41397 83430 10245 20230 40086 53005 76186 887// 22253 00260 29902 336// 40707 5//// 80235
BBXX C6W2032 12183 99015 10015 41898 71805 10270 2024/ 40100 56/// 70111 87611 22243 00270 20201 314// 40201 50201 6//// 80250 ICE /////
BBXX A8CF2 12184 99054 50815 41997 01703 10205 20167 40121 58010 70022 80000 22244 20202 318// 40203 80180
AAXX 12184 83384 32597 53202 10318 20216 39495 40060 84260 333 59005
AAXX 12184 83386 21598 40506 10266 20233 39538 40063 70282 82392 333 58000 60081
AAXX 12184 83388 32497 60505 10282 20207 39386 40035 8523/ 333 58005
AAXX 12184 83393 32599 63603 10248 20198 39379 40095 83331 333 58009
AAXX 12184 83442 32597 20000 10296 20228 39712 40049 81209 333 58000
AAXX 12184 83479 32598 40906 10296 20215 39296 40083 84400 333 58024
AAXX 12184 83483 32598 41402 10300 20214 39507 40064 83214 333 58001
AAXX 12184 83531 32597 52302 10268 20184 39051 40070 85200 333 58013
AAXX 12184 83538 32597 71805 10225 20177 38679 40059 87200 333 58011
AAXX 12184 83574 32794 62702 10320 20182 39552 40147 5//// 86100
AAXX 12184 83582 32598 83604 10264 20193 39323 40082 57008 88700
AAXX 12184 83595 21597 80902 10255 20227 30028 40113 70362 855// 333 58026 69921
AAXX 12184 83692 32699 20904 10254 20198 39064 40085 58010 82200
AAXX 12184 83309 31595 60000 10324 20262 39752 40068 70511 84220 333 58010
AAXX 12184 83811 21496 70502 10214 20188 39196 40092 58007 71064 84270 333 60211
AAXX 12184 83844 32597 305// 10276 20216 30066 40073 56011 81960
AAXX 12184 83887 32597 32706 10274 20114 39050 40082 57015 82102
AAXX 12184 83907 32497 62304 10345 20163 39805 40077 58005 82204
AAXX 12184 83914 31596 62706 10305 20109 39318 40062 57008 70521 82104
AAXX 12184 83919 31496 52306 10270 20102 38927 40086 57010 70521 85200
AAXX 12184 83927 32997 71406 10318 20169 30022 40092 57001 80004
AAXX 12184 83936 32497 52306 10348 20157 39955 40072 56012 82106
AAXX 12184 83948 31496 20902 10251 20209 30067 40073 56005 70500 81301
AAXX 12184 83964 31595 52702 10312 20139 39592 40069 57016 70500 85200
AAXX 12184 83995 32497 72314 10265 20199 30080 40083 54000 86602
AAXX 12184 83599 31998 199// 10270 20257 40068 56023 71000 81/3/ 222// 0501/ 80260
AAXX 12184 83925 32999 20815 10234 20211 40082 57003 7030/ 80006 222// 20702 80218
BBXX 41053 12181 99185 70661 46/// /0203 10271 40111 91830 333 91205
BBXX 41053 12181 99185 70661 46/// /0303 10273 40112 91820 333 91204
BBXX 41053 12181 99185 70661 46/// /0303 10275 40113 91810 333 91204
BBXX 41052 12181 99183 70648 46/// /0802 10273 40107 91830 333 91203
BBXX 41052 12181 99183 70648 46/// /0902 10273 40109 91820 333 91204
BBXX 41052 12181 99183 70648 46/// /0802 10280 40110 91810 333 91203
BBXX 44030 12181 99432 70704 46/// /2207 1//// 40300 56027 91804 22200 00085 10402 70008 333 91207 555 11081 22086
BBXX 44024 12181 99423 70659 46/30 /2307 10079 40334 56024 91804 22200 00096 10503 70013 333 91209 555 11087 22091
BBXX WKAE 12184 99512 10017 41498 82527 10095 20065 40055 57030 71562 882// 22212 00120 2//// 3//// 4//// 5//// 6//// 80080 ICE /////
BBXX WAZV 12184 99518 71346 41397 80005 10080 2006/ 40190 54000 75052 889// 22233 00080 20501 326// 41107 5//// 6//// 80070 ICE /////
BBXX MINFR03 1218/ 99266 30447 46/// ///// 10255 40096 52014
BBXX A8OY9 12184 99136 10507 043598 50919 10251 20165 40167 55004 84436 22264 00275 21203 310// 41002 80195
BBXX A8OY9 12184 99136 10507 043598 50919 10251 20165 40167 55004 84436 22264 00275 21203 310// 41002 8 0195
BBXX WE3592 12184 99470 70858 43/// 82115 10027 2//// 40227 5//// 7//// 8//// 222// 0//// 2//02 3//// 4//// 5//// 6//// 8//// ICE /////
BBXX WDE3568 12184 99434 70868 41/98 62116 10088 2//// 40284 56/// 702// 8//// 22283 0//// 2//03 3//// 4//// 5//// 6//// 8//// ICE /////
BBXX 42023 12181 99261 70831 46/// /0306 1//// 91830 333 91207
BBXX 42023 12181 99261 70831 46/// /0306 1//// 91800 333 91207
BBXX WAZV 12184 99518 71346 41397 80005 10080 2006/ 40190 54000 75052 889// 22233 00080 20501 326// 41107 5//// 6//// 80070 ICE /////
BBXX 42360 12181 99267 70905 46/// /0509 10230 91800 22200 00243 10703 70016 333 91211
BBXX 44056 12181 99362 70757 46/// ///// 1//// 91750 22200 00121 10603 20602 70013
BBXX 44138 12181 99443 70536 46/// /2607 10039 40339 57012 22200 00087 10905 70027 333 91210
BBXX 44137 12181 99423 70620 46/// /2306 10074 40352 57024 22200 00127 11102 70009 333 91208
BBXX KS098 12184 99441 71242 43/// /0111 10070 40194 22242 06000
BBXX KS088 12184 99267 70801 43/// /1405 10249 40194 22200 06240
BBXX KS094 12184 99133 70596 43/// /1006 10280 40119 22200 06274
BBXX WDE2719 12183 99608 71513 41/97 80105 10006 2//// 49920 5//// 702// 8//// 222// 01017 2//01 332// 4//01 5//// 6//// 8//// ICE /////
BBXX 44060 12181 99413 70721 46/// ///04 10058 40342 91830 22200 00111 333 91206 555 11046 22046
BBXX 44022 12181 99409 70737 46/// ///04 10061 21073 40339 91830 22200 00092 333 91205 555 11036 22036
BBXX 44040 12181 99410 70736 46/// /2404 10056 21056 40348 91819 22200 1//00 70000 333 91205 555 11046 22057
BBXX 46224 12181 99332 71175 46/// ///// 1//// 91806 22200 00150 11502 20401 323// 41501 70009
BBXX 46236 12181 99368 71219 46/// ///// 1//// 91820 22200 00126 11404 20803 328// 41403 70020
BBXX 46217 12181 99342 71194 46/// ///// 1//// 91812 22200 00143 11302 21001 326// 41302 70009
BBXX 46215 12181 99352 71209 46/// ///// 1//// 91808 22200 00137 11502 21001 326// 41502 70012
BBXX 46214 12181 99379 71235 46/// ///// 1//// 91827 22200 00114 11108 21005 332// 41106 70039
BBXX 46219 12181 99332 71199 46/// ///// 1//// 91828 22200 00137 11504 21001 328// 41504 70018
BBXX 46229 12181 99438 71246 46/// ///// 1//// 91821 22200 00106 11305 20904 329// 41303 70025
BBXX 46225 12181 99329 71174 46/// ///// 1//// 91814 22200 00156 11503 20401 327// 41502 70013
BBXX 46243 12181 99462 71241 46/// ///// 1//// 91829 22200 00083 11303 20803 327// 41302 70017
BBXX 46238 12181 99334 71195 46/// ///// 1//// 91820 22200 00148 11503 21001 326// 41503 70013
BBXX 46239 12181 99363 71221 46/// ///// 1//// 91821 22200 00128 11506 21004 328// 41504 70030
BBXX MINUK03 1218/ 99549 70012 46/// ///// 10065 49871 57037
BBXX MINUK05 1218/ 99598 70033 46/// ///// 10073 49805 57006
BBXX MINUK04 1218/ 99555 10084 46/// ///// 10063 4//// 52001
BBXX WKAE 12184 99512 10017 41498 82527 10095 20065 40055 57030 71562 882// 22212 00120 2//// 3//// 4//// 5//// 6//// 80080 ICE /////
BBXX A8OZ4 12184 99372 10035 43998 12824 10170 20110 40250 52030 7//// 81/// 22264 00166 80130
AAXX 12181 47008 42970 03201 11044 21153 30240 40296 52014
AAXX 12181 47014 42950 00000 11153 21180 39883 40318 52003
AAXX 12181 47016 42970 50000 11167 21201 39410 40311 58012 80002
AAXX 12181 47020 42965 00000 11108 21128 39936 40341 52003
AAXX 12181 47025 42961 00000 11047 21159 30251 40281 52004
AAXX 12181 47035 42962 00000 11059 21092 30302 40311 57001
AAXX 12181 47041 42970 00000 11049 21102 30264 40292 52008
AAXX 12181 47055 42970 00000 11029 21083 30252 40299 52002
AAXX 12181 47058 42960 00000 11056 21063 30257 40307 58009
AAXX 12181 47069 42965 00902 11018 21044 30193 40296 53007
AAXX 12181 47003 42980 00000 11053 21123 30297 40301 52009
AAXX 12181 47005 42980 01802 11185 21204 38649 52006
AAXX 12181 47028 42964 01802 11081 21108 30210 40310 52001
AAXX 12181 47031 42970 00000 11192 21204 38995 52005
AAXX 12181 47037 42970 00000 11050 21123 30154 40274 54000
AAXX 12181 47039 42960 00000 11090 21115 30119 40322 52001
AAXX 12181 47046 42969 03202 11024 21080 30258 40281 52012
AAXX 12181 47050 42965 00000 11066 21107 30265 40301 52002
AAXX 12181 47052 42965 00000 11104 21117 39964 40325 52007
AAXX 12181 47060 42960 00901 11016 21119 30244 40304 53004
AAXX 12181 47061 42980 00000 11016 21057 30240 40285 52011
AAXX 12181 47065 42970 00000 11036 21058 30239 40307 53002
AAXX 12181 47067 42965 00000 11054 21081 30188 40314 52001
AAXX 12181 47068 42970 03601 11038 21071 30258 40295 53003
AAXX 12181 47070 42970 00000 11039 21068 30209 40301 52004
AAXX 12181 47075 42980 00000 11080 21098 39788 40240 52010
AAXX 12181 45032 36/// /1301 10073 20057 30184 40201 54000
AAXX 12181 45035 36/// /0603 10130 20008 30157 40200 57002
AAXX 12181 45039 36/// /9901 10105 20074 30182 40198 52001
AAXX 12181 45044 36/// /0005 10134 20050 30098 40193 54000
AAXX 12181 45032 36/// /1301 10073 20057 30184 40201 54000
AAXX 12181 45035 36/// /0603 10130 20008 30157 40200 57002
AAXX 12181 45039 36/// /9901 10105 20074 30182 40198 52001
AAXX 12181 45044 36/// /0005 10134 20050 30098 40193 54000
AAXX 12184 89646 46/// /0203 11243 29081 37486 4//// 5////
AAXX 12184 89648 46/// /2205 11352 29067 37098 4//// 5////
AAXX 12184 89659 46/// /2606 11232 29073 37797 4//// 5////
AAXX 12184 89661 46/// /2209 11086 29086 39169 4//// 5////
AAXX 12184 89662 42568 81707 11032 21123 39725 49830 57005 81510 222 ICE 98015 333 21033 81627 88460
AAXX 12184 89666 46/// /1909 11052 29083 39655 4//// 5////
AAXX 12184 65545 31930 0//// 10277 20096 39680 40108 70500 333 10325 58007
BBXX 46241 12181 99330 71173 46/// ///// 1//// 91811 22200 00152 11501 20401 325// 41501 70007
AAXX 12184 71399 16/// ///// 11074 21089 60001 333 11069 21089 70000
AAXX 12184 71057 16/// ///// 11095 21107 60001 333 11082 21144 70031
AAXX 12184 71073 16/// /1807 11114 21124 60001 333 11085 21117 70036
AAXX 12184 71509 17/// /1904 11106 21113 69961 7//4/ 333 11045 21134 70046
AAXX 12184 71848 16/// ///// 11108 21121 60001 333 11070 21135 70045
AAXX 12184 71495 16/// /2107 11083 21099 60001 333 11078 21127 70019
AAXX 12184 71565 16/// /1406 11129 21140 60001 333 11068 21150 70005
AAXX 12184 71566 16/// /2105 11114 21125 60001 333 11097 21139 70000
AAXX 12184 71567 16/// /1611 11089 21104 60001 333 11089 21099 70000
AAXX 12184 71974 46/// /0206 11333 21363 39964 40008 55004 6///1 333 11311 21353 7////
AAXX 12184 71793 16/// ///// 11073 21091 60001 333 11069 21076 70000
AAXX 12184 71012 16/// /1708 11069 21082 60001 333 11069 21126 70000
AAXX 12184 71013 16/// ///// 11076 21089 60001 333 11066 21121 70000
AAXX 12184 71060 16/// /2604 11099 21144 38643 40269 56014 60001 333 11096 21189 70000
BBXX 46216 12181 99343 71198 46/// ///// 1//// 91827 22200 00141 11502 20301 327// 41502 70009
BBXX 46223 12181 99335 71178 46/// ///// 1//// 91830 22200 00156 11502 20401 324// 41502 70012
BBXX 46231 12181 99327 71174 46/// ///// 1//// 91824 22200 00154 11504 20603 328// 41502 70018
BBXX 46222 12181 99336 71183 46/// ///// 1//// 91826 22200 00156 11502 20401 327// 41501 70010
BBXX 44039 12181 99411 70727 46/// /2404 10061 21028 40352 91830 22200 00106 10301 70004 333 91205
AAXX 12184 65019 31912 20210 10218 20041 39421 40122 70522 80008 333 10280 58000 82280
AAXX 12184 65046 41/04 70409 10207 21006 39608 40158 70522 8//// 333 10254 58004 8//// 65101 31907 63609 10277 20100 39714 40098 70522 80008 333 10330 58007 86280
AAXX 12184 65123 31956 70211 10290 20066 30076 40083 70522 80008 333 10340 58005 87280
AAXX 12184 65125 31950 71105 10275 20084 3//// 4//// 70522 80008 333 10336 58014 87280
AAXX 12184 65236 31962 70000 10287 20190 3//// 4//// 70522 80008 333 10344 5//// 87280
AAXX 12184 65252 31930 70000 10272 20201 39960 40095 70522 80008 333 10317 58006 87280
AAXX 12184 65257 31930 70000 10275 20136 3//// 40082 70522 80008 333 10320 58024 87280
AAXX 12184 65271 31912 60904 10270 20101 30004 40104 70522 80008 333 10326 58008 86280
AAXX 12181 40009 32965 30000 10038 20013 40237 52007 80001 10130 83070
AAXX 12181 40016 32970 32701 10050 20029 40279 51001 80001 333 10103 83070
AAXX 12181 40022 32965 00000 10105 20055 40238 53003 222// 20000 333 10158
AAXX 12181 40030 32970 50000 10062 20041 40253 51004 80008 333 10124 85270
AAXX 12181 40039 32970 00000 10054 20027 40253 51004 333 10110
AAXX 12181 40066 32570 20501 10104 20032 40235 40235 51001 82400 333 10164 82626
AAXX 12181 40072 32970 00000 10064 20003 40265 54000 333 10138
AAXX 12181 40083 32970 00000 10038 21026 48528 52006 333 10128
AAXX 12184 96791 11558 70000 10244 20224 30038 40112 56015 69901 83571 333 56000 83620
AAXX 12184 16294 11597 62405 10150 20108 39979 40171 56003 60002 71711 86900 333 10178 83920 84830 555 0////
AAXX 12181 30949 41996 80000 11178 21190 39099 40261 53011 77172 8802/
BBXX 63106 12184 99610 10017 46/// /2324 10072 49816 56002 22200
BBXX 63113 12184 99610 10017 46/// /2428 10064 20014 49833 51009 22200 10807 70035
BBXX AMOUK03 12184 99537 70003 46/// ///// 10059 20039 39926 49959 57019 91750
BBXX 62107 12184 99501 70061 46/// /2139 10120 20109 49927 56073 22200 00120 11012 70060 333 90710 91160
BBXX SHIP 12183 99355 70272 412// 60707 10208 20205 40292 54000 70022 8/7// 22224 00220 29901 80206
BBXX TBWUK30 12183 99379 70120 41598 30207 10148 20119 40249 54000 70311 8/460 22284 00186 20302 335// 40509 5//// 80132
AAXX 12184 41404 42960 00204 10093 21039 37891 48557 333 10207 58002
AAXX 12184 RTD 78792 31458 81602 10282 20229 30091 40104 57016 70266 8427/ 333 020// 10268 20226 30/// 58006 84816 86358

AAXX 12184 RTD 78792 31458 81602 10282 20229 30091 40104 57016 70266 8427/ 333 020// 10268 20226 30/// 58006 84816 86358
AAXX 12184 RTD 78792 31458 81602 10282 20229 30091 40104 57016 70266 8427/ 333 020// 10268 20226 30/// 58006 84816 86358

AAXX 12181 10655 01482 42805 10048 20030 39816 40148 51039 60022 72586 82831 333 10075 20031 31002 55300 20000 30000 69957 81818 83640 91113
BBXX 46242 12181 99332 71174 46/// ///// 1//// 91828 22200 00153 11502 21001 325// 41501 70008
BBXX 46221 12181 99339 71186 46/// ///// 1//// 91815 22200 00148 11502 20801 322// 41502 70010
BBXX 41112 12181 99307 70813 46/// ///// 1//// 91822 22200 00161 11005 21004 310// 41101 70023
AAXX 12184 43014 32996 00000 10192 20120 39485 40138 333 58010
AAXX 12184 71409 17/// ///// 11060 21070 60011 7//4/ 333 11055 21071 70036
AAXX 12184 71789 16/// ///// 11094 21103 60001 333 11051 21158 70045
AAXX 12184 71791 16/// /1406 11098 21108 60001 333 11098 21144 70000
AAXX 12184 71794 16/// ///// 11075 21088 60001 333 11075 21125 70000
AAXX 12184 71795 17/// ///// 11060 21071 60011 7//4/ 333 21077 7////
AAXX 12184 71796 16/// ///// 11058 21085 60001 333 11058 21091 70000
AAXX 12184 71797 46/// ///// 11095 21103 6///1 333 11095 21132 7////
AAXX 12184 71051 47/// ///// 11041 21059 6///1 7//4/ 333 11041 21067 7////
AAXX 12184 71070 47/// ///// 11062 21070 6///1 7//4/ 333 11043 7////
AAXX 12184 71089 16/// ///// 11082 21089 60001 333 11082 21182 70000
AAXX 12184 71433 46/// /2310 10038 20029 30003 40236 58003 6///1 333 10045 20030 7////
AAXX 12184 71006 16/// /1910 11055 21078 60001 333 11055 21075 70000
AAXX 12184 71007 17/// ///// 11114 21129 60021 7//4/ 333 11056 21173 70057
AAXX 12184 71008 16/// /1907 11091 21100 60001 333 11086 21120 70035
AAXX 12184 71009 16/// /1705 11106 21111 60001 333 11075 21196 70024
AAXX 12184 71035 16/// ///// 11134 21146 60001 333 11075 21214 70026
AAXX 12184 71102 16/// ///// 11102 21114 60001 333 11102 21153 70000
AAXX 12184 71105 16/// ///// 11138 21155 60001 333 11054 21158 70044
AAXX 12184 71502 16/// /0523 11154 21163 39866 49882 55010 60001 333 11139 21183 7////
AAXX 12184 71517 47/// /2403 11112 21121 6///1 7//4/ 333 11047 21161 7////
AAXX 12184 71518 17/// /2003 11099 21105 69941 7//4/ 333 11060 21144 7////
AAXX 12184 71519 17/// /1802 11054 21058 60011 7//4/ 333 11051 21068 70036
AAXX 12184 71528 17/// /2403 11113 21120 69951 7//4/ 333 11052 21180 70044
AAXX 12184 71841 46/// /3603 11066 21090 39872 40283 6///1 333 11062 21146 7////
AAXX 12184 97760 32460 60000 10248 20239 30058 40068 57014 82202 333 56000 57801 82816 80860
AAXX 12184 71433 46/// /2310 10038 20029 30003 40236 58003 6///1 333 10045 20030 7////
AAXX 12184 71841 46/// /3603 11066 21090 39872 40283 6///1 333 11062 21146 7////
AAXX 12181 10400 01784 12106 10050 20021 30061 40111 51018 60032 70161 81500 333 10080 20050 31003 55300 20000 30000 69907 81650
BBXX VQGQ4 12184 99034 31529 41/98 /9904 10280 20252 40060 54000 70222 8//// 22284 00305 20000 80260
BBXX VQGQ4 12184 99034 31529 41/98 /9904 10280 20252 40060 54000 70222 8//// 22284 00305 20000 80260
AAXX 12181 13262 32997 10000 10091 20074 39997 40145 55002 81030 333 10163
BBXX A8SZ5 12184 99213 11218 41397 80523 10220 20190 40150 56020 702// 8/7// 22253 00/// 2//08 80200
BBXX DDCK2 12184 99058 10830 41698 23612 10280 20239 40090 54000 70200 8148/ 22235 00290 2//// 80250
BBXX VQOG5 12184 99048 11040 41/98 70115 10269 20/// 40102 54000 70222 8426/ 22283 00267 2////
BBXX 9MCN8 12184 99203 11208 41497 80441 10242 20217 40138 5//// 70222 88/// 22213 00270 2//// 80225
BBXX ZQDI9 12183 99057 10800 41/97 53605 10290 20248 40155 54000 72598 8297/ 22233 00287 20101 301// 40202 80260
BBXX A8UX5 12184 99175 11132 41697 80526 10230 20230 40140 57010 7//// 8/7// 22244 04249 20606 305// 40707 80230
BBXX A8CG7 12180 99078 31184 41497 30104 10280 20239 40070 54000 70211 82175 22264 04300 20302 80250
BBXX DGZS2 12183 99223 11162 41597 80727 10180 20148 40170 57/// 70222 8777/ 22224 00190 20304 305// 40406 80160
BBXX A8PB2 12180 99066 11076 41498 43625 10240 20211 40040 54000 70322 8456/ 22254 04260 20805 305// 41006 80220
BBXX ZCBV4 12184 99003 10897 41/97 /2211 10262 20239 40117 5//// 702// 8//// 22253 00280 20401 317// 40603 80245
BBXX DQVN 12183 99221 11142 41/98 /0111 10170 20068 40190 51010 7//// 8//// 22200 00201 2//// 80115
BBXX 9VVK 12184 99280 71330 41698 70221 10160 20126 40260 56020 70311 879// 22225 00160 20206 332// 40206 80140
BBXX A8SZ5 12184 99213 11218 41397 80523 10220 20190 40150 56020 702// 8/7// 22253 00/// 2//08 80200
BBXX DDCK2 12184 99058 10830 41698 23612 10280 20239 40090 54000 70200 8148/ 22235 00290 2//// 80250
BBXX VQOG5 12184 99048 11040 41/98 70115 10269 20/// 40102 54000 70222 8426/ 22283 00267 2////
BBXX 9MCN8 12184 99203 11208 41497 80441 10242 20217 40138 5//// 70222 88/// 22213 00270 2//// 80225
BBXX ZQDI9 12183 99057 10800 41/97 53605 10290 20248 40155 54000 72598 8297/ 22233 00287 20101 301// 40202 80260
BBXX A8UX5 12184 99175 11132 41697 80526 10230 20230 40140 57010 7//// 8/7// 22244 04249 20606 305// 40707 80230
BBXX A8CG7 12180 99078 31184 41497 30104 10280 20239 40070 54000 70211 82175 22264 04300 20302 80250
BBXX DGZS2 12183 99223 11162 41597 80727 10180 20148 40170 57/// 70222 8777/ 22224 00190 20304 305// 40406 80160
BBXX A8PB2 12180 99066 11076 41498 43625 10240 20211 40040 54000 70322 8456/ 22254 04260 20805 305// 41006 80220
BBXX ZCBV4 12184 99003 10897 41/97 /2211 10262 20239 40117 5//// 702// 8//// 22253 00280 20401 317// 40603 80245
BBXX DQVN 12183 99221 11142 41/98 /0111 10170 20068 40190 51010 7//// 8//// 22200 00201 2//// 80115
BBXX 9VVK 12184 99280 71330 41698 70221 10160 20126 40260 56020 70311 879// 22225 00160 20206 332// 40206 80140
AAXX 12184 89528 46/// /3613 11241 36694 4//// 5////
AAXX 12184 89628 46/// /3112 11163 36765 4//// 5////
AAXX 12184 91772 NIL
AAXX 12184 91776 NIL
AAXX 12184 91779 11498 63509 10254 20225 40112 53011 60041 70380 82231 333 56899 82816 83362 86079
AAXX 12184 91784 31498 50000 10250 20243 40112 53009 60001 70222 83701 333 569/9 83818 85078
AAXX 12184 91792 31498 10000 10231 20227 40115 53009 60001 70100 81101 333 569/9 81818
BBXX WKDY 12183 99388 70471 41498 80524 10140 20105 40310 54000 70222 8872/ 22224 00187 20307 318// 40307 5//// 6//// 80120 ICE /////
BBXX 3FPR9 12184 99216 71519 41/// /0000 10000 2//// 4//// 5//// 7//// 8//// 22200 04000 2//// 3//// 4//// 5//// 6//// 8//// ICE /////
BBXX WCPU 12184 99273 70916 41698 70413 10194 20169 40247 50000 72011 86/// 22253 0//// 2//// 3//// 4//// 5//// 6//// 80178 ICE /////
BBXX C6YA5 12183 99553 50667 41597 62315 10141 2//// 49990 54/// 7//// 838/8 22234 00100 20601 3//// 4//// 5//// 6//// 8//// ICE /////
BBXX C6YA5 12183 99553 50667 41597 62315 10141 2//// 49990 54/// 7//// 838/8 22234 00100 20601 3//// 4//// 5//// 6//// 8//// ICE /////
BBXX A8CF2 12184 99054 50815 41997 01703 10205 20167 40121 58010 70022 80000 22244 20202 318// 40203 80180
BBXX 9VVK 12184 99280 71330 41698 70221 10160 20126 40260 56020 70311 879// 22225 00160 20206 332// 40206 80140
BBXX 41112 12181 99307 70813 46/// ///// 1//// 91822 22200 00161 11005 21004 310// 41101 70023
BBXX 46242 12181 99332 71174 46/// ///// 1//// 91828 22200 00153 11502 21001 325// 41501 70008
BBXX 46221 12181 99339 71186 46/// ///// 1//// 91815 22200 00148 11502 20801 322// 41502 70010
BBXX WKDY 12183 99388 70471 41498 80524 10140 20105 40310 54000 70222 8872/ 22224 00187 20307 318// 40307 5//// 6//// 80120 ICE /////
BBXX 3FPR9 12184 99216 71519 41/// /0000 10000 2//// 4//// 5//// 7//// 8//// 22200 04000 2//// 3//// 4//// 5//// 6//// 8//// ICE /////
BBXX 44039 12181 99411 70727 46/// /2404 10061 21028 40352 91830 22200 00106 10301 70004 333 91205
BBXX 46223 12181 99335 71178 46/// ///// 1//// 91830 22200 00156 11502 20401 324// 41502 70012
BBXX 46222 12181 99336 71183 46/// ///// 1//// 91826 22200 00156 11502 20401 327// 41501 70010
BBXX 46231 12181 99327 71174 46/// ///// 1//// 91824 22200 00154 11504 20603 328// 41502 70018
BBXX 46216 12181 99343 71198 46/// ///// 1//// 91827 22200 00141 11502 20301 327// 41502 70009
BBXX 46241 12181 99330 71173 46/// ///// 1//// 91811 22200 00152 11501 20401 325// 41501 70007
BBXX 41052 12181 99183 70648 46/// /0802 10273 40107 91830 333 91203
BBXX 41053 12181 99185 70661 46/// /0203 10271 40111 91830 333 91205
BBXX 44030 12181 99432 70704 46/// /2207 1//// 40300 56027 91804 22200 00085 10402 70008 333 91207 555 11081 22086
BBXX 44024 12181 99423 70659 46/30 /2307 10079 40334 56024 91804 22200 00096 10503 70013 333 91209 555 11087 22091
BBXX 41053 12181 99185 70661 46/// /0303 10275 40113 91810 333 91204
BBXX 41052 12181 99183 70648 46/// /0802 10280 40110 91810 333 91203
BBXX 41052 12181 99183 70648 46/// /0902 10273 40109 91820 333 91204
BBXX 41053 12181 99185 70661 46/// /0303 10273 40112 91820 333 91204
BBXX C6W2032 12183 99015 10015 41898 71805 10270 2024/ 40100 56/// 70111 87611 22243 00270 20201 314// 40201 50201 6//// 80250 ICE /////
BBXX A8UX5 12184 99175 11132 41697 80526 10230 20230 40140 57010 7//// 8/7// 22244 04249 20606 305// 40707 80230
BBXX SHIP 12184 99203 11208 41497 80441 10242 20217 40138 5//// 70222 88/// 22213 00270 2//// 80225
BBXX A8PB2 12180 99066 11076 41498 43625 10240 20211 40040 54000 70322 8456/ 22254 04260 20805 305// 41006 80220
BBXX ZQDI9 12183 99057 10800 41/97 53605 10290 20248 40155 54000 72598 8297/ 22233 00287 20101 301// 40202 80260
BBXX DGZS2 12183 99223 11162 41597 80727 10180 20148 40170 57/// 70222 8777/ 22224 00190 20304 305// 40406 80160
BBXX DDCK2 12184 99058 10830 41698 23612 10280 20239 40090 54000 70200 8148/ 22235 00290 2//// 80250
BBXX DQVN 12183 99221 11142 41/98 /0111 10170 20068 40190 51010 7//// 8//// 22200 00201 2//// 80115
BBXX A8SZ5 12184 99213 11218 41397 80523 10220 20190 40150 56020 702// 8/7// 22253 00/// 2//08 80200
BBXX SHIP 12181 99103 11105 41/97 80216 10270 20243 40094 50008 70022 88/// 22213 00249 20506 3//// 4//// 80250
BBXX VRGO8 12184 99098 11084 41/98 /0422 10260 20232 40158 54000 70222 8//// 22213 00280 20403 304// 40404 80240
BBXX ZQCP3 12183 99090 11099 41397 83430 10245 20230 40086 53005 76186 887// 22253 00260 29902 336// 40707 5//// 80235
BBXX VQOG5 12184 99048 11040 41/98 70115 10269 20/// 40102 54000 70222 8426/ 22283 00267 2////
BBXX ZCBV4 12184 99003 10897 41/97 /2211 10262 20239 40117 5//// 702// 8//// 22253 00280 20401 317// 40603 80245
BBXX A8CG7 12180 99078 31184 41497 30104 10280 20239 40070 54000 70211 82175 22264 04300 20302 80250
BBXX VQGQ4 12184 99034 31529 41/98 /9904 10280 20252 40060 54000 70222 8//// 22284 00305 20000 80260
BBXX SHIP 12183 99355 70272 412// 60707 10208 20205 40292 54000 70022 8/7// 22224 00220 29901 80206
BBXX TBWUK30 12183 99379 70120 41598 30207 10148 20119 40249 54000 70311 8/460 22284 00186 20302 335// 40509 5//// 80132
AAXX 12184 89667 46/// /0905 11076 29070 39844 4//// 5//// 91840
AAXX 12184 89667 46/// /0905 11080 39844 4//// 5//// 91830
AAXX 12184 89667 46/// /1005 11082 39844 4//// 5//// 91820
AAXX 1218/ 89828 46/// ///// 11376 36417 4//// 5//// 91830
AAXX 1218/ 89828 46/// ///// 11374 36417 4//// 5//// 91840
AAXX 1218/ 89108 46/// ///// 11276 36877 4//// 5//// 91840
AAXX 1218/ 89879 46/// ///// 11024 39694 4//// 5//// 91840
AAXX 1218/ 89872 46/// ///// 11088 39796 4//// 5//// 91840
AAXX 1218/ 89869 46/// ///// 11046 39785 4//// 5//// 91830
AAXX 1218/ 89869 46/// ///// 11034 39786 4//// 5//// 91840
AAXX 1218/ 89866 46/// ///// 11028 39731 4//// 5//// 91840
AAXX 1218/ 89329 46/// ///// 11106 38702 4//// 5//// 91840
AAXX 1218/ 89799 46/// ///// 11221 4//// 5//// 91840
AAXX 1218/ 89332 46/// ///// 11074 39208 4//// 5//// 91840
AAXX 1218/ 89769 46/// ///// 11046 39816 4//// 5//// 91840
AAXX 1218/ 89314 46/// ///// 11150 38154 4//// 5//// 91840
AAXX 12184 89614 46/// /0509 11123 29090 38894 4//// 5//// 91830 333 90700 91110
BBXX V2OG2 12183 99107 31037 41998 03207 10290 20256 40094 58016 70211 80000 22223 20402 314// 40403 80265
BBXX JPAT 12184 99128 30849 41397 61318 00/// 10273 20238 40080 58003 70311 86300 22233 00291 10904 20202 315// 40304 5//// 85247
BBXX A8UL5 12183 99186 30607 41898 30614 10275 20241 40095 52015 70100 81181 22214 20403 3//// 4//// 5//// 80250
BBXX MINFR03 1218/ 99266 30447 46/// ///// 10255 40096 52014
BBXX AMOUK17 12184 99327 30573 46/// ///// 10170 20090 30194 40202 52010 91750
AAXX 12184 89807 46/// /2625 11054 29050 39671 4//// 5//// 91830 333 90700 91129
AAXX 12184 89614 46/// /0509 11123 29090 38894 4//// 5//// 91830 333 90700 91110
AAXX 12184 89807 46/// /2625 11054 29050 39671 4//// 5//// 91830 333 90700 91129
AAXX 12184 71904 16/// ///// 11101 21109 60001 333 11071 21153 70000
AAXX 12184 71346 17/// /2303 11075 21085 69941 7//4/ 333 11046 21141 70054
AAXX 12184 71540 16/// /1201 11133 21142 60001 333 11065 21182 70000
AAXX 12184 71544 16/// ///// 11082 21089 60001 333 11062 21108 70000
AAXX 12184 71548 16/// ///// 11065 21093 60001 333 11065 21100 70000
AAXX 12184 71857 16/// ///// 11099 21111 60001 333 11099 21109 70000
AAXX 12184 71413 16/// ///// 11060 21082 60001 333 11060 21074 70000
AAXX 12184 71414 16/// ///// 11068 21097 60001 333 11067 21094 70000
AAXX 12184 71440 16/// ///// 11095 21100 60001 333 11077 21104 70033
AAXX 12184 71674 16/// ///// 11057 21086 60001 333 11056 21089 70000
AAXX 12184 71055 46/// /3401 11126 21136 39488 49814 56019 6///1 333 11126 21200 7////
AAXX 12184 71065 16/// ///// 11076 21105 60001 333 11075 21167 70000
AAXX 12184 71014 16/// /1608 11099 21111 60001 333 11067 21101 70000
AAXX 12184 71481 16/// /2802 11146 21167 60001 333 11118 21173 70000
AAXX 12184 71498 16/// /1708 11091 21096 60001 333 11076 21098 70048
AAXX 12184 71360 16/// ///// 11111 21123 60001 333 11111 21152 70000
AAXX 12184 71380 16/// /1710 11085 21101 60001 333 11064 21140 70000
AAXX 12184 71249 17/// /1810 11097 21105 69941 7//4/ 333 11071 21118 70009
AAXX 12184 96751 11540 70000 10197 20182 39028 48920 52002 69901 70262 86220 333 56600 57861 83820 83620 80880
BBXX ZSAF 12184 99460 30049 41499 72110 10047 21020 40207 52013 70222 875// 22244 04081 2//// 321// 40710 5////
BBXX BATFR04 12184 99598 70107 46/// /1221 10067 20012 49728 56056 22200 00102
BBXX 64045 12184 99591 70117 46/// /1127 10073 20025 49694 56078 22200 00102 10808 70042 333 90710 91136
BBXX 62112 12184 99584 70002 47698 /2218 10065 20001 49867 58018 700// 22200
BBXX 62113 12184 99584 10002 47599 /2218 10067 20009 49875 58019 700// 22200
BBXX 62129 12184 99584 10003 46/// ///// 10067 20009 49875 58021 22200
BBXX 62114 12184 99583 10000 46/// /2119 10066 20002 49867 58019 22200
BBXX PJAI 12184 99581 70014 47998 /2116 10069 21004 49861 57022 700// 22200
BBXX 62111 12184 99580 70003 46/// /2322 10066 20012 49879 58020 22200 10504 70022
BBXX AMOUK27 12184 99579 70053 46/// ///// 1//// 2//// 39802 49802 57030 91750
BBXX 62117 12184 99579 10000 47698 /2220 10070 20019 49875 58018 700// 22200 10505 70023
BBXX BATUK01 12184 99576 70061 46/// /1632 10064 21007 49769 58080 22231 00112
BBXX AMOUK19 12184 99571 70021 46/// ///// 10040 20010 39870 49873 57028 91750
BBXX AMOUK21 12184 99564 70055 46/// ///// 10043 20030 39803 49799 57062 91750
BBXX 62105 12184 99554 70122 46/// /2428 10082 20035 49690 56021 22200 00107 10812 70059 333 90710 91144
BBXX AMOUK05 12184 99537 70003 46/// ///// 10057 20030 39915 49957 57023 91750
BBXX AMOUK14 12184 99535 70054 46/// ///// 10105 20094 39770 49806 57136 91750
BBXX BAREU04 12184 99535 70046 46/// ///// 49834 57103 22214
BBXX 62095 12184 99531 70159 46/// /2729 10076 20037 49782 55000 22200 00115 11016 70078 333 90710 91146
BBXX 62301 12184 99524 70047 46/// /1829 10093 20078 49870 58094 22200 00101 10606 70029 333 90710 91141
BBXX 62094 12184 99517 70067 46/// /2226 10117 20106 49864 56066 22200 00113 10709 70045 333 90710 91142
BBXX 62303 12184 99516 70051 46/// /2033 10107 20093 49884 57095 22200 00118 10710 70050 333 90710 91149
BBXX 62023 12183 99514 70079 46/96 /2233 10110 2//// 49889 5//// 22200 10709 70044 333 91138 555 70067 80019
BBXX 62081 12184 99510 70134 46/// ///// 10107 20075 49848 57004 22200 00118 10913 70064
BBXX 62081 12184 99510 70132 46/// ///// 10107 20075 49848 57004 22200 00118
BBXX AMOUK06 12184 99509 70014 46/// ///// 10094 20073 39996 40019 57025 91750
BBXX AMOUK10 12184 99508 70011 46/// ///// 10096 20066 30031 40032 57025 91750
BBXX BATFR42 12184 99505 70019 46/// /2058 10107 20067 49997 22244 00127
BBXX 62305 12184 99504 10000 46/97 /2140 10105 20056 40067 58025 22200 00126 10704 70020 333 90710 91148
BBXX AMOUK08 12184 99501 70061 46/// ///// 10122 20115 39921 49929 57080 91750
BBXX BATFR03 12184 99500 70006 46/// /2037 10102 20057 40062 22284
BBXX 62103 12184 99499 70029 46/97 /2136 10106 20076 40026 57052 22200 00129 10807 70033 333 90710 91152
BBXX MINFR05 1218/ 99496 70003 46/// ///// 10088 40087 57030
BBXX 62027 12184 99491 70022 46/// /2025 1//// 2//// 40063 58050 22200 00122 11805 323// 70026
BBXX 62442 12184 99490 70164 46/// /2632 1//// 2//// 49920 51003 22200 00130 333 90710 91144
BBXX 62029 12184 99487 70125 46/// /2228 10125 20104 49930 58018 22200 00136 10914 70069 333 90710 91135
BBXX DDSC2 12183 99481 70066 41596 82343 10135 20109 40015 57180 76465 887// 22214 00127 20610 80120
BBXX VRYO3 12184 99480 70279 46/// /2718 10063 20072 40046 53004 7//// 8//// 22224 00131 2////
BBXX 62163 12184 99475 70084 46/// /2334 10127 20107 40026 56036 22200 00133 11014 70072 333 90710 91147
BBXX BATFR60 12184 99474 70039 46/// /2035 10129 20087 40069 58023 22233 00135
BBXX 62001 12184 99452 70050 46/// /2325 10144 20093 40156 58018 22200 00151 11014 70068 333 90710 91134
BBXX DBBH 12181 99449 70088 41497 82320 10135 20098 40143 55001 70282 875// 22252 04147
BBXX LAVW4 12184 99442 70097 41696 82435 00/// 10155 2013/ 40145 54000 75052 889// 22253 00160 21009 330// 41110 5//// 6////
BBXX BATFR54 12184 99437 70092 46/// /2243 10147 20089 4//// 22262 00145
BBXX 9VBM6 12183 99429 70098 41797 62124 10170 20119 40240 54/// 7//22 8597/ 22283 04190 20706 3//// 40708 50706 6//// 80140 /////
BBXX SKWI 12184 99427 70133 43/98 82434 10150 40179 56007 22253 00170 2//// 4////
BBXX PBFM 12183 99425 70138 41297 72516 10155 20130 40190 57002 70222 8777/ 22264 20505 329// 41009 80140
BBXX DPLE 12183 99417 70299 41497 82825 10145 20110 40215 52015 70286 887// 22200 00160 20505 399// 40907 80125
BBXX TBWUK35 12183 99409 70102 41598 82315 10156 20099 40228 53010 70222 885// 22244 00170 20202 332// 40808 80126
BBXX PBEO 12183 99408 70098 41597 72514 10156 20079 40250 57010 70222 878// 22282 02165 20301 333// 41005 80114
BBXX OZDM2 12184 99402 70101 41597 82315 10158 20090 40243 50/// 70222 888// 22244 04170 20804 329// 41210 80120
BBXX DFUX2 12184 99400 70098 41/98 82217 10170 20110 40248 56003 7//22 8//// 22284 00160 2//// 80135
BBXX C6CU6 12183 99394 70207 41297 73027 10160 20124 40250 56020 70352 85778 22253 04170 20801 331// 41508 5//// 80140
BBXX BATFR15 12184 99386 70160 46/// /2616 10162 20109 40250 55001 22254 00175
BBXX SBLW 12183 99376 70286 43/98 42618 10179 40270 55004 22254 00192 2//// 4////
BBXX WDE8264 12183 99366 70002 41398 43309 10180 20164 40260 54000 70200 8315/ 22224 00190 20201 3//// 4//// 5//// 6//// 80170 /////
BBXX DDZA2 12184 99366 70001 41/98 22719 10165 20114 40245 52005 70100 8//// 22263 04170 2//// 80135
BBXX VRGJ6 12183 99363 70080 41598 63010 10168 20121 40277 57010 70222 86800 22234 04181 20101 330// 40402 5//// 80142
BBXX BATFR11 12184 99362 10002 46/// /2705 10164 20119 40259 22213 00179
BBXX BAREU05 12184 99360 70060 46/// ///// 40277 22262
BBXX 61001 12184 99434 10078 46/// /2630 10148 20063 40106 52006 22200 00158 10605 70025 555 1/040
BBXX BATFR20 12184 99431 10054 46/// /2725 10132 20027 40188 22234
BBXX BATEU09 12184 99431 10068 46/// /2833 10139 20034 40141 22251 00175
BBXX BATFR41 12184 99430 10063 46/// /2923 10137 20017 40157 51041 22262
BBXX BATFR50 12184 99429 10061 46/// /3025 10142 20062 40173 53018 22242 00170
BBXX 61002 12184 99421 10047 46/// ///23 10141 2//// 40212 52016 22200 00153 10605 70024 555 1/030
BBXX BAREU62 12184 99376 10241 46/// ///// 40222 57002 22254
BBXX DGWD2 12183 99374 10109 41/98 32815 10176 20145 40199 53002 70011 8//// 22224 00180 2//// 80157
BBXX DQVI 12183 99373 10114 41698 32925 10175 20143 40200 54000 70300 83/// 22273 00194 20708 80155
BBXX A8OZ4 12184 99372 10035 43998 12824 10170 20110 40250 52030 7//// 81/// 22264 00166 80130
BBXX WDE8264 12183 99366 70002 41398 43309 10180 20164 40260 54000 70200 8315/ 22224 00190 20201 3//// 4//// 5//// 6//// 80170 /////
BBXX DDZA2 12184 99366 70001 41/98 22719 10165 20114 40245 52005 70100 8//// 22263 04170 2//// 80135
BBXX PEBT 12183 99365 10140 41498 32816 10185 20148 40195 54000 7//00 83400 22263 02168 20402 3//// 4//// 5//// 80162
BBXX BATFR11 12184 99362 10002 46/// /2705 10164 20119 40259 22213 00179
BBXX NWS0020 12184 99360 10231 43/// /2217 10175 20124 40232 5//// 7//// 8//// 222// 04193 2//// 3//// 4//// 5//// 6//// 8//// /////
BBXX BATFR01 12184 99359 10217 46/// /2313 10184 20115 40237 53004 22222 00197
BBXX BAREU63 12184 99312 10298 46/// /3412 10174 29066 40242 52001 22222
BBXX A8MW8 12183 99308 10001 41497 32151 10150 20118 40250 54000 70300 83145 22265 06210 21203 326// 41002 5//// 80131
BBXX MGSM5 12183 99576 10107 41998 42810 10055 20031 49951 52/// 70211 80008 22200 04069 20301 31919 40301 50401 80045
AAXX 12184 97270 31450 60000 10260 20245 30070 40079 56009 70522 84811 333 56000 83815
AAXX 12184 78858 11478 40204 10285 20240 30067 40123 60011 71680 85400 333 10288 20221 58010 85817
BBXX WAZV 12184 99518 71346 41397 80005 10080 20060 40190 54000 75052 889// 22233 00080 20501 326// 41107 5//// 6//// 80070 ICE /////
AAXX 12184 71898 160// ///// 10024 56019 60101 333 10026 21007 70100
AAXX 12184 71898 160// ///// 10024 56019 60101 333 10026 21007 70100
BBXX A8UA9 12184 99362 10181 41/98 22124 10180 20134 40220 57010 70200 82/4/ 22263 321// 40704 80152
BBXX DBPG 12181 99536 10080 43797 42111 10050 40040 51020 8/5// 22200
BBXX A8ZS7 12184 99177 30649 41698 40913 10265 20228 40120 53015 70311 84100 22254 04250 29901 80240
BBXX A8TG2 12183 99226 71109 41698 52410 10210 20160 40140 54000 70222 83462 22234 20204 325// 40204 80180
AAXX 12184 91844 46/// /9901 10267 40142 22200 00272
AAXX 12181 58968 11440 81004 10175 20159 30185 40193 58016 69901 76162 887//
AAXX 12181 58974 46/// /0512 10167 20142 30082 40207 57017
AAXX 12181 59358 11658 60102 10177 20157 30136 40168 58014 60031 71062 86500
AAXX 12181 59559 32562 70305 10220 20173 30122 40150 57016 8452/
AAXX 12181 59792 32460 80409 10222 20192 30156 40161 57009 84410
AAXX 12181 59158 32662 83101 10181 20142 30065 40166 55009 885//
AAXX 12181 59562 11770 73201 10195 20173 30162 40174 58013 60021 72162 875//
AAXX 12181 59567 46/// /0108 10191 20191 39780 40159 58010
BBXX A8ZS7 12184 99177 30649 41698 40913 10265 20228 40120 53015 70311 84100 22254 04250 29901 80240
BBXX ZSAF 12184 99460 30049 41499 72110 10047 21020 40207 52013 70222 875// 22244 04081 2//// 321// 40710 5////
AAXX 12184 43063 32996 00000 10180 20154 39501 40137 333 58005
AAXX 12181 38725 429// 60000 11048 21136 48530 52004 80001
BBXX AMOUK08 12184 99501 70061 46/// ///// 10122 20115 39921 49929 57080 91750
BBXX 63106 12184 99610 10017 46/// /2324 10072 49816 56002 22200
BBXX 63105 12184 99610 10017 47597 ///// 10068 20021 49816 56001 761// 22200
BBXX AMOUK05 12184 99537 70003 46/// ///// 10057 20030 39915 49957 57023 91750
BBXX AMOUK04 12184 99533 70062 46/// ///// 10067 20044 39868 4//// 57069 91750
BBXX VRBU6 12184 99063 10792 43/// /3513 10250 2022/ 40110 54/// 79111 8//// 22274 00250 2//// 3//// 4//// 5//// 6//// 80230 ICE /////
BBXX A8PF6 12184 99459 70492 41697 62830 10010 21047 40290 54000 7//22 867// 22262 0//// 20603 328// 40808 5//// 6//// 81010 ICE /////
BBXX S6SR 12184 99433 50314 41/91 81321 10140 20105 40010 56050 758// 8//// 22223 02120 2//06 313// 4//// 5//// 6//// 80120 ICE /////
BBXX 9V7645 12183 99228 70745 419// 30519 10270 20228 40133 50015 70200 831// 22214 04280 20503 302// 40503 5//// 6//// 80240 ICE /////
BBXX A8ZS7 12184 99177 30649 41698 40913 10265 20228 40120 53015 70311 84100 22254 04250 29901 80240
BBXX S6SR 12184 99433 50314 41/91 81321 10140 20105 40010 56050 758// 8//// 22223 02120 2//06 313// 4//// 5//// 6//// 80120 ICE /////
BBXX ZSAF 12184 99460 30049 41499 72110 10047 21020 40207 52013 70222 875// 22244 04081 2//// 321// 40710 5////
BBXX A8TG2 12183 99226 71109 41698 52410 10210 20160 40140 54000 70222 83462 22234 20204 325// 40204 80180
BBXX 9V7645 12183 99228 70745 419// 30519 10270 20228 40133 50015 70200 831// 22214 04280 20503 302// 40503 5//// 6//// 80240 ICE /////
BBXX A8PF6 12184 99459 70492 41697 62830 10010 21047 40290 54000 7//22 867// 22262 0//// 20603 328// 40808 5//// 6//// 81010 ICE /////
BBXX WCPU 12184 99273 70916 41698 70413 10194 20169 40247 50000 72011 86/// 22253 0//// 2//// 3//// 4//// 5//// 6//// 80178 ICE /////
BBXX DBPG 12181 99536 10080 43797 42111 10050 40040 51020 8/5// 22200
BBXX A8UA9 12184 99362 10181 41/98 22124 10180 20134 40220 57010 70200 82/4/ 22263 321// 40704 80152
BBXX BSH03 12181 99540 10081 46/// ///// 22200 00067 20704 70020
BBXX BSH05 12181 99550 10079 46/// ///// 22200 20703 70015
BBXX MGSM5 12183 99576 10107 41998 42810 10055 20031 49951 52/// 70211 80008 22200 04069 20301 31919 40301 50401 80045
BBXX VRBU6 12184 99063 10792 43/// /3513 10250 2022/ 40110 54/// 79111 8//// 22274 00250 2//// 3//// 4//// 5//// 6//// 80230 ICE /////
OOXX FJP26 12161 99178 31775 ///// 00311 26/// /1402 10225 29093 30067 91610 333 60000
OOXX FJP26 12161 99178 31775 ///// 00311 26/// /1302 10225 29093 30067 91620 333 60000
OOXX FJP26 12161 99178 31775 ///// 00311 26/// /1202 10225 29093 30067 91630 333 60000
OOXX FJP26 12161 99178 31775 ///// 00311 26/// /1202 10224 29093 30067 91640 333 60000
OOXX FJP26 12161 99178 31775 ///// 00311 26/// /1202 10223 29094 30069 91650 333 60000
OOXX FJP26 12171 99178 31775 ///// 00311 26/// /1402 10223 29094 30069 91700 333 60000
OOXX FJP26 12171 99178 31775 ///// 00311 26/// /1202 10221 29094 30070 91710 333 60000
OOXX FJP26 12171 99178 31775 ///// 00311 26/// /1202 10221 29094 30071 91720 333 60000
OOXX FJP26 12171 99178 31775 ///// 00311 26/// /1202 10221 29094 30072 91730 333 60000
OOXX FJP26 12171 99178 31775 ///// 00311 26/// /1302 10222 29094 30073 91740 333 60000
OOXX FJP26 12171 99178 31775 ///// 00311 26/// /1302 10224 29093 30075 91750 333 60000
OOXX FJP26 12181 99178 31775 ///// 00311 26/// /1202 10224 29093 30076 91800 333 60000
OOXX RUP54 12161 99586 10494 ///// 01271 26/// /1309 11118 29093 30011 91627 333 60120
OOXX RUP54 12161 99586 10494 ///// 01271 26/// /1610 11119 29093 30012 91637 333 60120
OOXX RUP54 12161 99586 10494 ///// 01271 26/// /1309 11119 29093 30013 91647 333 60120
OOXX RUP54 12161 99586 10494 ///// 01271 26/// /1011 11120 29093 30013 91657 333 60120
OOXX RUP54 12171 99586 10494 ///// 01271 26/// /0812 11120 29093 30014 91707 333 60120
OOXX RUP54 12171 99586 10494 ///// 01271 26/// /0212 11120 29093 30014 91717 333 60120
OOXX RUP54 12171 99586 10494 ///// 01271 26/// /0212 11119 29093 30015 91727 333 60120
OOXX RUP54 12171 99586 10494 ///// 01271 26/// /0412 11119 29093 30017 91737 333 60120
OOXX RUP54 12171 99586 10494 ///// 01271 26/// /0212 11119 29093 30018 91747 333 60120
OOXX RUP54 12171 99586 10494 ///// 01271 26/// /0612 11119 29093 30019 91757 333 60120
OOXX RUP54 12181 99586 10494 ///// 01271 26/// /0313 11119 29093 30019 91807 333 60120
OOXX RUP54 12181 99586 10494 ///// 01271 26/// /0511 11119 29093 30020 91817 333 60120
OOXX AUP04 12171 99377 31451 ///// 00311 26/// /1901 10134 29082 30058 91706 333 60000
OOXX AUP04 12171 99377 31451 ///// 00311 26/// /2002 10130 29084 30059 91716 333 60000
OOXX AUP04 12171 99377 31451 ///// 00311 26/// /1802 10130 29082 30060 91726 333 60000
OOXX AUP04 12171 99377 31451 ///// 00311 26/// /1802 10131 29078 30059 91736 333 60000
OOXX AUP04 12171 99377 31451 ///// 00311 26/// /1602 10131 29078 30060 91746 333 60000
OOXX AUP04 12171 99377 31451 ///// 00311 26/// /1702 10131 29076 30060 91756 333 60000
OOXX AUP04 12181 99377 31451 ///// 00311 26/// /1701 10131 29075 30061 91806 333 60000
OOXX AUP04 12181 99377 31451 ///// 00311 26/// /1802 10132 29070 30061 91816 333 60000
OOXX AUP04 12181 99377 31451 ///// 00311 26/// /1802 10136 29063 30061 91826 333 60000
OOXX AUP04 12181 99377 31451 ///// 00311 26/// /1802 10136 29063 30062 91836 333 60000
OOXX AUP04 12181 99377 31451 ///// 00311 26/// /1702 10135 29064 30063 91846 333 60000
OOXX AUP04 12181 99377 31451 ///// 00311 26/// /1602 10134 29066 30064 91856 333 60000
OOXX ISP34 12161 99641 70219 ///// 01301 26/// /1303 10010 29001 39692 91610 333 6///0
OOXX ISP34 12161 99641 70219 ///// 01301 26/// /1402 10009 29001 39694 91620 333 6///0
OOXX ISP34 12161 99641 70219 ///// 01301 26/// /1402 10008 29001 39693 91630 333 6///0
OOXX ISP34 12161 99641 70219 ///// 01301 26/// /1302 10010 29001 39693 91640 333 6///0
OOXX ISP34 12161 99641 70219 ///// 01301 26/// /1202 10011 29001 39692 91650 333 6///0
OOXX ISP34 12171 99641 70219 ///// 01301 26/// /1102 10010 29001 39692 91700 333 6///0
OOXX ISP34 12171 99641 70219 ///// 01301 26/// /0802 10008 29001 39692 91710 333 6///0
OOXX ISP34 12171 99641 70219 ///// 01301 26/// /0502 10007 29001 39692 91720 333 6///0
OOXX ISP34 12171 99641 70219 ///// 01301 26/// /1403 10007 29001 39690 91730 333 6///0
OOXX ISP34 12171 99641 70219 ///// 01301 26/// /1604 10013 29001 39689 91740 333 6///0
OOXX ISP34 12171 99641 70219 ///// 01301 26/// /1604 10015 29001 39688 91750 333 6///0
OOXX ISP34 12181 99641 70219 ///// 01301 26/// /1503 10017 29001 39689 91800 333 6///0
OOXX MYP42 12161 99045 11014 ///// 15551 26/// /0606 10174 29094 38444 91603 333 60000
OOXX MYP42 12161 99045 11014 ///// 15551 26/// /0601 10178 29094 38427 91613 333 60000
OOXX MYP42 12161 99045 11014 ///// 15551 26/// /3601 10176 29094 38438 91623 333 60000
OOXX MYP42 12161 99045 11014 ///// 15551 26/// /0101 10175 29094 38440 91633 333 60000
OOXX MYP42 12161 99045 11014 ///// 15551 26/// /3604 10175 29094 38440 91643 333 60000
OOXX MYP42 12161 99045 11014 ///// 15551 26/// /0305 10177 29094 38432 91653 333 60000
OOXX MYP42 12171 99045 11014 ///// 15551 26/// /0403 10175 29094 38427 91703 333 60000
OOXX MYP42 12171 99045 11014 ///// 15551 26/// /1304 10178 29094 38444 91713 333 60000
OOXX MYP42 12171 99045 11014 ///// 15551 26/// /2704 10176 29094 38440 91723 333 60000
OOXX MYP42 12171 99045 11014 ///// 15551 26/// /0901 10176 29094 38434 91733 333 60000
OOXX MYP42 12171 99045 11014 ///// 15551 26/// /0704 10177 29094 38420 91743 333 60000
OOXX MYP42 12171 99045 11014 ///// 15551 26/// /0402 10178 29094 38425 91753 333 60000
OOXX NZP46 12161 99438 51765 ///// 00221 26/// /0405 10131 29097 30276 91630 333 60000
OOXX NZP46 12161 99438 51765 ///// 00221 26/// /0406 10131 29098 30276 91640 333 60000
OOXX NZP46 12161 99438 51765 ///// 00221 26/// /0407 10131 29095 30277 91650 333 60000
OOXX NZP46 12171 99438 51765 ///// 00221 26/// /0508 10130 29095 30277 91700 333 60000
OOXX NZP46 12171 99438 51765 ///// 00221 26/// /0506 10131 29095 30277 91710 333 60000
OOXX NZP46 12171 99438 51765 ///// 00221 26/// /0406 10133 29096 30277 91720 333 60000
OOXX NZP46 12171 99438 51765 ///// 00221 26/// /0406 10134 29095 30278 91730 333 60000
OOXX NZP46 12171 99438 51765 ///// 00221 26/// /0407 10134 29095 30278 91740 333 60000
OOXX NZP46 12171 99438 51765 ///// 00221 26/// /0507 10134 29093 30278 91750 333 60000
OOXX NZP46 12181 99438 51765 ///// 00221 26/// /0507 10135 29092 30278 91800 333 60000
OOXX NZP46 12181 99438 51765 ///// 00221 26/// /0407 10135 29092 30278 91810 333 60000
OOXX NZP46 12181 99438 51765 ///// 00221 26/// /0408 10136 29091 30277 91820 333 60000
OOXX CKP23 12161 99212 51598 ///// 00051 26/// /0501 10246 29094 30123 91640 333 60000
OOXX CKP23 12161 99212 51598 ///// 00051 26/// /0501 10252 29092 30123 91650 333 60000
OOXX CKP23 12171 99212 51598 ///// 00051 26/// /0501 10260 29090 30124 91700 333 60000
OOXX CKP23 12171 99212 51598 ///// 00051 26/// /0501 10264 29090 30125 91710 333 60000
OOXX CKP23 12171 99212 51598 ///// 00051 26/// /0401 10264 29087 30125 91720 333 60000
OOXX CKP23 12171 99212 51598 ///// 00051 26/// /0401 10266 29086 30127 91730 333 60000
OOXX CKP23 12171 99212 51598 ///// 00051 26/// /0401 10268 29086 30127 91740 333 60000
OOXX CKP23 12171 99212 51598 ///// 00051 26/// /0401 10270 29085 30129 91750 333 60000
OOXX CKP23 12181 99212 51598 ///// 00051 26/// /0401 10273 29084 30129 91800 333 60000
OOXX CKP23 12181 99212 51598 ///// 00051 26/// /0401 10274 29084 30131 91810 333 60000
OOXX CKP23 12181 99212 51598 ///// 00051 26/// /0401 10274 29084 30132 91820 333 60000
OOXX CKP23 12181 99212 51598 ///// 00051 26/// /0401 10275 29083 30134 91830 333 60000
OOXX CAP14 12161 99487 71234 ///// 00431 26/// /2802 10010 29069 30189 91620 333 60000
OOXX CAP14 12161 99487 71234 ///// 00431 26/// /2703 10009 29071 30190 91630 333 60000
OOXX CAP14 12161 99487 71234 ///// 00431 26/// /2703 10008 29073 30192 91640 333 60000
OOXX CAP14 12161 99487 71234 ///// 00431 26/// /2802 10011 29072 30191 91650 333 60000
OOXX CAP14 12171 99487 71234 ///// 00431 26/// /3201 10012 29071 30192 91700 333 60000
OOXX CAP14 12171 99487 71234 ///// 00431 26/// /2501 10016 29068 30190 91710 333 60000
OOXX CAP14 12171 99487 71234 ///// 00431 26/// /2601 10012 29068 30190 91720 333 60000
OOXX CAP14 12171 99487 71234 ///// 00431 26/// /2801 10013 29069 30190 91730 333 60000
OOXX CAP14 12171 99487 71234 ///// 00431 26/// /2801 10020 29067 30190 91740 333 60000
OOXX CAP14 12171 99487 71234 ///// 00431 26/// /2802 10023 29066 30190 91750 333 60000
OOXX CAP14 12181 99487 71234 ///// 00431 26/// /2902 10024 29067 30188 91800 333 60000
OOXX CAP14 12181 99487 71234 ///// 00431 26/// /3202 10025 29066 30189 91810 333 60000
OOXX SEP63 12161 99594 10180 ///// 00401 26/// /0503 10033 29079 39950 91610 333 60000
OOXX SEP63 12161 99594 10180 ///// 00401 26/// /0203 10033 29079 39950 91620 333 60000
OOXX SEP63 12161 99594 10180 ///// 00401 26/// /0403 10033 29079 39950 91630 333 60000
OOXX SEP63 12161 99594 10180 ///// 00401 26/// /0303 10033 29080 39950 91640 333 60000
OOXX SEP63 12161 99594 10180 ///// 00401 26/// /0102 10034 29079 39950 91650 333 60000
OOXX SEP63 12171 99594 10180 ///// 00401 26/// /3102 10034 29080 39940 91700 333 60000
OOXX SEP63 12171 99594 10180 ///// 00401 26/// /3502 10034 29080 39940 91710 333 60000
OOXX SEP63 12171 99594 10180 ///// 00401 26/// /0302 10034 29081 39940 91720 333 60000
OOXX SEP63 12171 99594 10180 ///// 00401 26/// /0503 10034 29081 39940 91730 333 60000
OOXX SEP63 12171 99594 10180 ///// 00401 26/// /0503 10034 29081 39940 91740 333 60000
OOXX SEP63 12171 99594 10180 ///// 00401 26/// /0403 10035 29082 39940 91750 333 60000
OOXX SEP63 12181 99594 10180 ///// 00401 26/// /0203 10035 29081 39940 91800 333 60000
OOXX FRP28 12121 99163 70615 ///// 00091 26/// /0000 10328 29054 30154 91217 333 60000
OOXX FRP28 12121 99163 70615 ///// 00091 26/// /0000 10334 29053 30153 91227 333 60000
OOXX FRP28 12121 99163 70615 ///// 00091 26/// /0000 10332 29054 30151 91237 333 60000
OOXX FRP28 12121 99163 70615 ///// 00091 26/// /0000 10331 29055 30150 91247 333 60000
OOXX FRP28 12121 99163 70615 ///// 00091 26/// /0000 10332 29056 30147 91257 333 60000
OOXX FRP28 12131 99163 70615 ///// 00091 26/// /0000 10338 29054 30148 91307 333 60000
OOXX FRP28 12131 99163 70615 ///// 00091 26/// /0000 10344 29052 30148 91317 333 60000
OOXX FRP28 12131 99163 70615 ///// 00091 26/// /0000 10317 29062 30148 91327 333 60000
OOXX FRP28 12131 99163 70615 ///// 00091 26/// /0000 10302 29066 30149 91337 333 60000
OOXX FRP28 12131 99163 70615 ///// 00091 26/// /0000 10297 29069 30149 91347 333 60000
OOXX FRP28 12131 99163 70615 ///// 00091 26/// /0000 10294 29069 30147 91357 333 60000
OOXX FRP28 12141 99163 70615 ///// 00091 26/// /0000 10302 29066 30145 91407 333 60000
OOXX AUP07 12161 99/// ///// ///// ///// 26/// /0210 10060 29093 39969 91657 333 60000
OOXX AUP07 12171 99/// ///// ///// ///// 26/// /0209 10059 29092 39970 91707 333 60000
OOXX AUP07 12171 99/// ///// ///// ///// 26/// /0109 10060 29093 39971 91717 333 60000
OOXX AUP07 12171 99/// ///// ///// ///// 26/// /0109 10060 29093 39972 91727 333 60000
OOXX AUP07 12171 99/// ///// ///// ///// 26/// /0109 10060 29093 39974 91737 333 60000
OOXX AUP07 12171 99/// ///// ///// ///// 26/// /0109 10059 29093 39975 91747 333 60000
OOXX AUP07 12171 99/// ///// ///// ///// 26/// /0110 10060 29093 39975 91757 333 60000
OOXX AUP07 12181 99/// ///// ///// ///// 26/// /0109 10061 29093 39976 91807 333 60000
OOXX AUP07 12181 99/// ///// ///// ///// 26/// /0110 10061 29093 39977 91817 333 60000
OOXX AUP07 12181 99/// ///// ///// ///// 26/// /0209 10061 29093 39978 91827 333 60000
OOXX AUP07 12181 99/// ///// ///// ///// 26/// /0209 10062 29093 39980 91837 333 60000
OOXX AUP07 12181 99/// ///// ///// ///// 26/// /0109 10061 29093 39980 91847 333 60000
OOXX PTP53 12161 99377 70257 ///// 00121 26/// /2708 10166 29001 30207 91610 333 60000
OOXX PTP53 12161 99377 70257 ///// 00121 26/// /2708 10170 29001 30207 91620 333 60000
OOXX PTP53 12161 99377 70257 ///// 00121 26/// /2608 10172 29001 30206 91630 333 60000
OOXX PTP53 12161 99377 70257 ///// 00121 26/// /2607 10171 29001 30205 91640 333 60000
OOXX PTP53 12161 99377 70257 ///// 00121 26/// /2706 10170 29001 30205 91650 333 60000
OOXX PTP53 12171 99377 70257 ///// 00121 26/// /2708 10169 29001 30205 91700 333 60000
OOXX PTP53 12171 99377 70257 ///// 00121 26/// /2608 10169 29001 30205 91710 333 60000
OOXX PTP53 12171 99377 70257 ///// 00121 26/// /2707 10169 29001 30206 91720 333 60000
OOXX PTP53 12171 99377 70257 ///// 00121 26/// /2707 10170 29001 30205 91730 333 60000
OOXX PTP53 12171 99377 70257 ///// 00121 26/// /2806 10170 29001 30206 91740 333 60000
OOXX PTP53 12171 99377 70257 ///// 00121 26/// /2707 10170 29001 30205 91750 333 60000
OOXX PTP53 12181 99377 70257 ///// 00121 26/// /2706 10170 29001 30205 91800 333 60000
OOXX GBP67 12161 99159 50057 ///// 04381 26/// /0804 10155 29/// 39660 91610 333 60000
OOXX GBP67 12161 99159 50057 ///// 04381 26/// /0704 10156 29/// 39659 91620 333 60000
OOXX GBP67 12161 99159 50057 ///// 04381 26/// /0703 10155 29/// 39661 91630 333 60000
OOXX GBP67 12161 99159 50057 ///// 04381 26/// /0904 10157 29/// 39662 91640 333 60000
OOXX GBP67 12161 99159 50057 ///// 04381 26/// /0804 10157 29/// 39661 91650 333 60000
OOXX GBP67 12171 99159 50057 ///// 04381 26/// /0904 10158 29/// 39659 91700 333 60000
OOXX GBP67 12171 99159 50057 ///// 04381 26/// /0804 10154 29100 39661 91710 333 60000
OOXX GBP67 12171 99159 50057 ///// 04381 26/// /0804 10158 29098 39661 91720 333 60000
OOXX GBP67 12171 99159 50057 ///// 04381 26/// /0804 10161 29097 39661 91730 333 60000
OOXX GBP67 12171 99159 50057 ///// 04381 26/// /0904 10162 29095 39661 91740 333 60000
OOXX GBP67 12171 99159 50057 ///// 04381 26/// /0804 10162 29094 39662 91750 333 60000
OOXX GBP67 12181 99159 50057 ///// 04381 26/// /0904 10162 29095 39661 91800 333 60000
OOXX MRP43 12161 99181 70159 ///// 00101 26/// /0604 10303 29008 30117 91640 333 60000
OOXX MRP43 12161 99181 70159 ///// 00101 26/// /0504 10302 29008 30120 91650 333 60000
OOXX MRP43 12171 99181 70159 ///// 00101 26/// /0503 10301 29008 30118 91700 333 60000
OOXX MRP43 12171 99181 70159 ///// 00101 26/// /0503 10300 29008 30118 91710 333 60000
OOXX MRP43 12171 99181 70159 ///// 00101 26/// /0503 10298 29009 30120 91720 333 60000
OOXX MRP43 12171 99181 70159 ///// 00101 26/// /0403 10297 29009 30120 91730 333 60000
OOXX MRP43 12171 99181 70159 ///// 00101 26/// /0503 10294 29009 30121 91740 333 60000
OOXX MRP43 12171 99181 70159 ///// 00101 26/// /0403 10292 29009 30123 91750 333 60000
OOXX MRP43 12181 99181 70159 ///// 00101 26/// /0403 10289 29009 30123 91800 333 60000
OOXX MRP43 12181 99181 70159 ///// 00101 26/// /0303 10285 29009 30125 91810 333 60000
OOXX MRP43 12181 99181 70159 ///// 00101 26/// /0303 10282 29009 30127 91820 333 60000
OOXX MRP43 12181 99181 70159 ///// 00101 26/// /0302 10279 29010 30127 91830 333 60000
OOXX RUP60 12161 99531 11588 ///// 00651 26/// /3201 11150 29074 39827 91652 333 60000
OOXX RUP60 12171 99531 11588 ///// 00651 26/// /2805 11150 29075 39827 91702 333 60000
OOXX RUP60 12171 99531 11588 ///// 00651 26/// /3304 11161 29076 39828 91712 333 60000
OOXX RUP60 12171 99531 11588 ///// 00651 26/// /3102 11152 29076 39828 91722 333 60000
OOXX RUP60 12171 99531 11588 ///// 00651 26/// /3103 11151 29077 39828 91732 333 60000
OOXX RUP60 12171 99531 11588 ///// 00651 26/// /2406 11151 29077 39829 91742 333 60000
OOXX RUP60 12171 99531 11588 ///// 00651 26/// /2105 11155 29079 39828 91752 333 60000
OOXX RUP60 12181 99531 11588 ///// 00651 26/// /2705 11161 29077 39827 91802 333 60000
OOXX RUP60 12181 99531 11588 ///// 00651 26/// /2705 11165 29077 39828 91812 333 60000
OOXX RUP60 12181 99531 11588 ///// 00651 26/// /0000 11163 29077 39828 91822 333 60000
OOXX RUP60 12181 99531 11588 ///// 00651 26/// /3105 11160 29079 39828 91832 333 60000
OOXX RUP60 12181 99531 11588 ///// 00651 26/// /2505 11155 29078 39830 91842 333 60000
OOXX AUP09 12161 99124 31309 ///// 00321 26/// ///// 1//// 29/// 3//// 91614 333 6///0
OOXX AUP09 12161 99124 31309 ///// 00321 26/// ///// 1//// 29/// 3//// 91624 333 6///0
OOXX AUP09 12161 99124 31309 ///// 00321 26/// ///// 1//// 29/// 3//// 91634 333 6///0
OOXX AUP09 12161 99124 31309 ///// 00321 26/// ///// 1//// 29/// 3//// 91644 333 6///0
OOXX AUP09 12161 99124 31309 ///// 00321 26/// ///// 1//// 29/// 3//// 91654 333 6///0
OOXX AUP09 12171 99124 31309 ///// 00321 26/// ///// 1//// 29/// 3//// 91704 333 6///0
OOXX AUP09 12171 99124 31309 ///// 00321 26/// ///// 1//// 29/// 3//// 91714 333 6///0
OOXX AUP09 12171 99124 31309 ///// 00321 26/// ///// 1//// 29/// 3//// 91724 333 6///0
OOXX AUP09 12171 99124 31309 ///// 00321 26/// ///// 1//// 29/// 3//// 91734 333 6///0
OOXX AUP09 12171 99124 31309 ///// 00321 26/// ///// 1//// 29/// 3//// 91744 333 6///0
OOXX AUP09 12171 99124 31309 ///// 00321 26/// ///// 1//// 29/// 3//// 91754 333 6///0
OOXX AUP09 12181 99124 31309 ///// 00321 26/// ///// 1//// 29/// 3//// 91804 333 6///0
OOXX ARP01 12161 99345 50585 ///// 00311 26/// /2302 10107 29025 30108 91610 333 60000
OOXX ARP01 12161 99345 50585 ///// 00311 26/// /2302 10108 29025 30108 91620 333 60000
OOXX ARP01 12161 99345 50585 ///// 00311 26/// /2302 10108 29025 30107 91630 333 60000
OOXX ARP01 12161 99345 50585 ///// 00311 26/// /2302 10109 29025 30106 91640 333 60000
OOXX ARP01 12161 99345 50585 ///// 00311 26/// /2302 10109 29025 30105 91650 333 60000
OOXX ARP01 12171 99345 50585 ///// 00311 26/// /2303 10108 29025 30104 91700 333 60000
OOXX ARP01 12171 99345 50585 ///// 00311 26/// /2003 10108 29025 30104 91710 333 60000
OOXX ARP01 12171 99345 50585 ///// 00311 26/// /3602 10110 29025 30103 91720 333 69920
OOXX ARP01 12171 99345 50585 ///// 00311 26/// /2303 10111 29025 30103 91730 333 60000
OOXX ARP01 12171 99345 50585 ///// 00311 26/// /2303 10110 29024 30103 91740 333 60000
OOXX ARP01 12171 99345 50585 ///// 00311 26/// /2303 10111 29025 30103 91750 333 60000
OOXX ARP01 12181 99345 50585 ///// 00311 26/// /2302 10112 29025 30102 91800 333 60000
OOXX RUP59 12161 99539 10848 ///// 02121 26/// /2601 11158 29080 30004 91640 333 60000
OOXX RUP59 12161 99539 10848 ///// 02121 26/// /2601 11163 29076 30005 91650 333 60000
OOXX RUP59 12171 99539 10848 ///// 02121 26/// /0000 11179 29077 30005 91700 333 60000
OOXX RUP59 12171 99539 10848 ///// 02121 26/// /0000 11170 29079 30004 91710 333 60000
OOXX RUP59 12171 99539 10848 ///// 02121 26/// /0000 11197 29075 30005 91720 333 60000
OOXX RUP59 12171 99539 10848 ///// 02121 26/// /2501 11209 29074 30005 91730 333 60000
OOXX RUP59 12171 99539 10848 ///// 02121 26/// /3201 11197 29081 30006 91740 333 60000
OOXX RUP59 12171 99539 10848 ///// 02121 26/// /2901 11193 29078 30003 91750 333 60000
OOXX RUP59 12181 99539 10848 ///// 02121 26/// /0000 11208 29076 30003 91800 333 60000
OOXX RUP59 12181 99539 10848 ///// 02121 26/// /0000 11211 29077 30002 91810 333 60000
OOXX RUP59 12181 99539 10848 ///// 02121 26/// /0000 11215 29077 30002 91820 333 60000
OOXX RUP59 12181 99539 10848 ///// 02121 26/// /1201 11218 29078 30003 91830 333 60000
OOXX RUP58 12161 99442 11320 ///// 01121 26/// /1701 11111 29056 30117 91642 333 60000
OOXX RUP58 12161 99442 11320 ///// 01121 26/// /1901 11112 29056 30118 91652 333 60000
OOXX RUP58 12171 99442 11320 ///// 01121 26/// /0000 11109 29056 30118 91702 333 60000
OOXX RUP58 12171 99442 11320 ///// 01121 26/// /0000 11109 29055 30120 91712 333 60000
OOXX RUP58 12171 99442 11320 ///// 01121 26/// /0000 11111 29055 30120 91722 333 60000
OOXX RUP58 12171 99442 11320 ///// 01121 26/// /0000 11114 29055 30121 91732 333 60000
OOXX RUP58 12171 99442 11320 ///// 01121 26/// /0000 11113 29056 30122 91742 333 60000
OOXX RUP58 12171 99442 11320 ///// 01121 26/// /0000 11114 29056 30122 91752 333 60000
OOXX RUP58 12181 99442 11320 ///// 01121 26/// /0000 11115 29056 30121 91802 333 60000
OOXX RUP58 12181 99442 11320 ///// 01121 26/// /2701 11120 29058 30121 91812 333 60000
OOXX RUP58 12181 99442 11320 ///// 01121 26/// /2101 11125 29059 30120 91822 333 60000
OOXX RUP58 12181 99442 11320 ///// 01121 26/// /0000 11124 29059 30119 91832 333 60000
AAXX 12184 91559 46/// /0000 10250 40074 22200 00282
AAXX 12184 71710 16/// /2713 10017 21023 30258 40268 50001 60001 333 10021 21058 70010
AAXX 12184 71824 46/// /3302 11016 21026 6///1 333 11014 21085 7////
AAXX 12184 71631 16/// /2308 10011 21028 39789 40301 58004 60001 333 10013 21043 70000
AAXX 12184 71372 16/// /1806 10043 21013 60001 333 10044 21024 70000
AAXX 12184 71386 17/// /1704 10008 21027 30040 40250 55000 60011 7//4/ 333 10008 21115 70010
AAXX 12184 71631 16/// /2308 10011 21028 39789 40301 58004 60001 333 10013 21043 70000
AAXX 12184 40250 32960 00000 10104 21031 39435 40248 54003 333 10144
AAXX 12184 40265 32960 20000 10070 21063 39444 40263 53005 80001 333 10144 82070
AAXX 12184 91531 46/// /0109 1//// 40060 22200 00267
AAXX 12184 40260 32960 33006 10076 21079 39444 40249 52008 80001 333 10141 83070
AAXX 12184 40250 32960 00000 10104 21031 39435 40248 54003 333 10144
AAXX 12184 40265 32960 20000 10070 21063 39444 40263 53005 80001 333 10144 82070
AAXX 12184 40250 32960 00000 10104 21031 39435 40248 54003 333 10144
AAXX 12184 40260 32960 33006 10076 21079 39444 40249 52008 80001 333 10141 83070
AAXX 12184 40265 32960 20000 10070 21063 39444 40263 53005 80001 333 10144 82070
AAXX 12181 38944 115// 80000 10014 20006 39731 40285 52003 60020 70282 889// 333 10028
BBXX 41038 12181 99341 70777 46/// /0106 10131 40293 58018 91800 22200 00143 333 91207
AAXX 12181 38599 32197 82403 10008 21009 39891 40366 50005 8395 333 10042
AAXX 12181 01473 41560 72501 11004 21008 39703 49911 55000 70352 8772/ 333 10018 91105
AAXX 12181 38599 32197 82403 10008 21009 39891 40366 50005 8395E 333 10042
AAXX 12184 71016 17/// ///// 11100 69941 7//4/ 333 11064 21136 70058
AAXX 12183 63612 32980 30903 10290 20155 40097 80001 333 10345 58003 83077
AAXX 12183 63695 32480 60000 10184 20164 8353/ 333 10241 83619 86359
AAXX 12184 91642 46/// /0000 1//// 40083 22200 0////
BBXX 41053 12181 99185 70661 46/// /0203 10272 40114 58021 91800 22200 00284 11103 70016 333 91204
BBXX 44056 12181 99362 70757 46/// ///// 1//// 91820 22200 00121 10603 20602 70013
BBXX 46109 12181 99481 71234 46/// /1302 10039 40254 91757 22200 00081
BBXX 46110 12181 99481 71230 46/// /2404 10041 40254 91758
BBXX 44055 12181 99391 70753 46/// ///// 1//// 91830 22200 00100 1//00 70002
BBXX 41038 12181 99341 70777 46/// /0106 10131 40293 91800 22200 00143 333 91207
AAXX 12184 60135 32458 30405 10130 20098 40275 53009 60000 83500 333 10192 83616
BBXX DCTA2 12180 99356 71736 41/97 83214 10180 20139 40105 51018 75065 8//// 22225 04170 2//08 311// 4//07 5//// 80155
AAXX 12181 40656 12960 00000 10105 20007 40232 53005 60002
AAXX 12181 40665 12960 02803 10054 20046 40244 52006 60002
AAXX 12181 40670 12960 20000 10095 20018 40244 53003 60002 80001
AAXX 12181 40674 12960 00000 10088 21011 40246 51003 60002
AAXX 12181 40676 12960 02804 10108 21002 40242 51008 60002
AAXX 12181 40680 12960 03401 10078 20007 40212 53003 60002
AAXX 12181 40689 12960 03003 10102 20017 40236 52008 60002
AAXX 12181 40691 12960 40000 10070 21010 40251 52008 60002 80002
AAXX 12181 40604 12960 20000 10066 20027 40247 53004 60002 80001
AAXX 12181 40608 12960 00000 10044 20034 40253 51004 60002
AAXX 12181 40621 12960 23501 10092 20008 40254 52005 60002 80001
AAXX 12181 40623 12960 30000 10064 21001 40260 53006 60002 83001
AAXX 12181 40629 12960 20000 10048 20000 40273 52008 60002 80002
AAXX 12181 40631 12960 23002 10084 21002 40254 53008 60002 80002
AAXX 12181 40634 12960 02702 10060 20002 40254 52012 60002
AAXX 12181 40642 12960 20000 10064 21040 40278 53002 60002 80001
AAXX 12181 40650 12960 12702 10084 20026 40246 53001 60002 80001
BBXX A8OU4 12184 99438 11573 41498 62915 10005 21009 40080 57020 77011 84778 22224 00050 20908 3//// 4//// 5//// 80000
BBXX C6VG8 12184 99342 70761 41/95 80328 10180 2//// 40280 53020 78188 88/// 22254 00250 2//// 3//// 4//// 5//// 6//// 8//// ICE /////
BBXX ONAN 12184 99022 71471 41597 41019 10250 2022/ 4//// 54/// 70211 832// 22273 00240 21004 3//// 40804 5//// 6//// 80230 ICE /////
BBXX DCTA2 12180 99356 71736 41/97 83214 10180 20139 40105 51018 75065 8//// 22225 04170 2//08 311// 4//07 5//// 80155
BBXX 41038 12181 99341 70777 46/// /0106 10131 40293 91800 22200 00143 333 91207
BBXX 44055 12181 99391 70753 46/// ///// 1//// 91830 22200 00100 1//00 70002
BBXX 46109 12181 99481 71234 46/// /1302 10039 40254 91757 22200 00081
BBXX 46110 12181 99481 71230 46/// /2404 10041 40254 91758
BBXX 44056 12181 99362 70757 46/// ///// 1//// 91820 22200 00121 10603 20602 70013
BBXX 41053 12181 99185 70661 46/// /0203 10272 40114 58021 91800 22200 00284 11103 70016 333 91204
BBXX 41038 12181 99341 70777 46/// /0106 10131 40293 58018 91800 22200 00143 333 91207
BBXX AMOUK04 12184 99533 70062 46/// ///// 10067 20044 39868 4//// 57069 91750
BBXX ONAN 12184 99022 71471 41597 41019 10250 2022/ 4//// 54/// 70211 832// 22273 00240 21004 3//// 40804 5//// 6//// 80230 ICE /////
AAXX 12184 71539 16/// /1604 11071 21080 39582 40304 58001 60001 333 11071 21094 70000
AAXX 12184 71155 16/// ///// 11100 21109 60001 333 11059 21123 70000
AAXX 12184 71667 16/// /2403 11054 21079 30004 40259 50004 60001 333 11054 21140 70000
AAXX 12124 91648 11498 73413 10259 20233 40095 69901 71482 83370 333 10306 5689/
AAXX 12184 91643 11599 80208 10269 20227 40090 53008 60001 70222 82220 333 5689/ 82820 88461
AAXX 12184 91648 11498 80000 10242 20233 40100 60231 78066 83370 333 5679/
BBXX 42043 12181 99290 70949 46/// /0806 1//// 40250 58004 91800 22200 00157 333 91207
AAXX 12184 92036 46/// /2903 10259 40058 22200 00310
AAXX 12184 61401 NIL
AAXX 12184 61404 31950 60819 10260 21070 39782 40175 70711 82082 333 10270 58017 82363 86073
AAXX 12184 61415 31956 73111 10221 20142 30154 40159 70622 87070 333 10291 58020 87463
AAXX 12184 61421 NIL
AAXX 12184 61437 31956 60000 10295 20121 30018 40155 70522 80002 333 10314 58019 86073
AAXX 12184 61442 31920 50606 10302 21094 30129 40132 70622 80002 333 10314 58013 85080
AAXX 12184 61450 31940 70000 10260 20118 39692 40149 70622 8707/ 333 10295 58024 87363
AAXX 12184 61461 NIL
AAXX 12184 61489 31950 80804 10300 20010 30115 40122 70522 8807/ 333 10318 58015 88462
AAXX 12184 61492 31940 50806 10310 21020 30109 40128 70500 85070 333 10325 58003 85363
AAXX 12184 61497 34920 60812 10294 21016 39883 4//// 706// 80002 333 10322 58020 86073
AAXX 12184 61498 31930 70806 10302 20110 39984 40116 705// 80008 333 10314 59001 87273
AAXX 12184 61499 31930 60000 10293 21006 39876 40130 70522 80002 333 10330 58019 86073
BBXX 63106 12184 99610 10017 46/// /2324 10072 49816 56002 22200
BBXX 63113 12184 99610 10017 46/// /2428 10064 20014 49833 51009 22200 10807 70035
BBXX AMOUK03 12184 99537 70003 46/// ///// 10059 20039 39926 49959 57019 91750
BBXX 62107 12184 99501 70061 46/// /2139 10120 20109 49927 56073 22200 00120 11012 70060 333 90710 91160
AAXX 12184 61202 NIL
AAXX 12184 61214 NIL
AAXX 12184 61223 32960 30804 10265 20004 39853 40151 80002 333 10315 58020 83075
AAXX 12184 61226 32960 40406 10266 20028 39852 40161 80002 333 10307 58011 84075
AAXX 12184 61230 31959 00806 10308 21052 39829 40098 70600 333 10334 58014
AAXX 12184 61233 31959 50806 10290 20011 3//// 4//// 70622 80002 333 10335 5//// 85075
AAXX 12184 61235 31940 50808 10320 21035 3//// 4//// 70611 80002 333 10345 5//// 85085
AAXX 12184 61240 32960 30000 10274 20025 39810 40137 80002 333 10315 58018 83075
AAXX 12184 61250 32960 10000 10275 20098 3//// 4//// 80002 333 10302 5//// 81075
AAXX 12184 61257 31904 00604 10330 20076 30040 40133 70600 333 10350 59001
AAXX 12184 61265 31958 20806 10282 20034 39817 40125 70600 80002 333 10325 58012 82075
AAXX 12184 61270 31956 00000 10314 20042 3//// 4//// 70600 333 10353 5////
AAXX 12184 61272 31958 00000 10293 20082 39786 40112 70600 333 10345 58003
AAXX 12184 61277 31940 30806 10297 20048 39801 40121 70600 80002 333 10332 58022 83075
AAXX 12184 61285 31956 60806 10333 20034 39950 40100 70622 80002 333 10365 58016 86075
AAXX 12184 61291 31920 00604 10290 20049 39695 40105 70600 333 10325 58017
AAXX 12184 61293 31956 30604 10296 20093 3//// 4//// 70611 80002 333 10330 5//// 83075
AAXX 12184 61296 31930 60000 10288 20129 3//// 4//// 706// 80002 333 10325 5//// 86075
AAXX 12184 61297 31940 70404 10282 20052 3//// 4//// 70622 80002 333 10313 5//// 87075
BBXX 42044 12181 99262 70971 46/// /2701 10166 20144 40211 57005 91800 22200 00186 333 91202
AAXX 12184 93713 46/// /0000 10154 40138 22200 00155
BBXX 42046 12181 99279 70940 46/// /0906 1//// 40235 91830 22200 00225 333 91207
BBXX 42046 12181 99279 70940 46/// /0906 1//// 40239 57006 91800 22200 00225 333 91208
BBXX 42047 12181 99279 70936 46/// /0806 10187 20141 40233 91830 22200 00228 333 91208
BBXX 42047 12181 99279 70936 46/// /0805 10189 20136 40241 57005 91800 22200 00228 333 91206
BBXX 42085 12181 99179 70665 46/// /1403 10287 40107 91830 333 91204
BBXX 42085 12181 99179 70665 46/// /1504 10286 40108 91820 333 91205
BBXX 42085 12181 99179 70665 46/// /1304 10287 40110 91810 333 91205
AAXX 12184 41515 02995 00000 10083 21176 38545 48508 60003 333 59013 60007
AAXX 12184 41560 22696 21803 10025 21058 38255 48488 60003 81230 333 59003 60007
AAXX 12184 41571 119// 00000 10085 20016 39600 40203 60003 70500 333 58020
AAXX 12184 41594 319// 00000 10105 20068 39969 40193 70500 333 58027
AAXX 12184 41685 32993 00000 10105 20041 38935 48511 333 58008
AAXX 12184 41710 02997 03102 10100 21115 39413 40207 60003 333 58045 60007
AAXX 12184 41718 11995 00000 10110 20068 30064 40172 60003 70400 333 58023
AAXX 12184 41739 02996 00000 10130 21069 39073 48523 60003 333 58010 60007
AAXX 12184 41744 32996 00000 10130 21027 38796 48518 333 58017
AAXX 12184 41749 01995 00000 10160 20114 30132 40167 60003 70400 333 58012 60007
AAXX 12184 41529 12995 00000 10067 20036 39817 40212 60003 333 58026
AAXX 12184 41598 11996 00000 10090 20045 39905 40187 60003 70500 333 58022
AAXX 12184 41620 32995 01805 10100 21115 38615 48517 333 58014
AAXX 12184 41624 02995 00506 10127 20049 39975 40180 60003 333 58026 60007
AAXX 12184 41640 01996 00000 10130 20080 39922 40176 60003 70500 333 58015 60007
AAXX 12184 41660 119// 01304 10030 21046 38467 48558 60003 70500 333 58019
AAXX 12184 41675 11996 00000 10110 20056 30033 40177 60003 70400 333 58022
AAXX 12184 41712 12996 00502 10100 21115 39256 48552 60003 333 58051
AAXX 12184 41715 01995 00000 10145 20117 30107 40173 60003 70400 333 58029 60007
AAXX 12184 41756 01996 02302 10195 20153 30091 40155 60003 70500 333 58013 60007
AAXX 12184 41764 32996 00000 10185 20123 30112 40162 60003 333 58024 60007
AAXX 12184 41768 02996 00000 10135 20096 30155 40162 60002 333 58008 60007
AAXX 12184 41780 02996 20000 10200 20167 30138 40165 60003 80001 333 56009 58015 60007 82070
AAXX 12184 41506 22694 70000 10090 21006 48521 60003 83420 333 56990 58012 60007 83640 84460
AAXX 12184 41508 22996 00000 10056 21040 48547 60003 333 58021 60007
AAXX 12184 41523 12996 00000 10060 21016 48522 60003 333 58019 60007
AAXX 12184 41535 12997 00000 10045 20009 48485 60003 333 58010
AAXX 12184 41573 12996 03604 10050 21039 48520 60003 333 58012
AAXX 12184 41600 01995 00000 10100 20079 39878 40183 60003 70400 333 58018 60007
AAXX 12184 41630 11996 00000 10090 20045 40191 60003 70400 333 58019
AAXX 12184 41678 12996 00000 10140 20080 40190 60003 333 58027 60007
AAXX 12184 41696 02996 00000 10010 21125 38047 48577 60003 333 58020 60007
AAXX 12184 41697 02996 00000 10117 20074 40180 60003 333 58028 60007
AAXX 12184 41700 11995 00000 10120 20056 40165 60003 70400 333 58023
AAXX 12184 41725 02996 00000 10170 20094 40166 60003 333 58026 60007
AAXX 12184 41746 02996 03102 10150 20123 40166 60003 333 58024 60007
AAXX 12184 41759 12996 00000 10180 20106 30150 40156 60002 333 58000
AAXX 12184 41785 02996 00000 10175 20121 40159 60003 333 58006 60007
AAXX 12184 41529 12995 00000 10067 20036 39817 40212 60003 333 58026
AAXX 12184 41598 11996 00000 10090 20045 39905 40187 60003 70500 333 58022
AAXX 12184 41620 32995 01805 10100 21115 38615 48517 333 58014
AAXX 12184 41624 02995 00506 10127 20049 39975 40180 60003 333 58026 60007
AAXX 12184 41640 01996 00000 10130 20080 39922 40176 60003 70500 333 58015 60007
AAXX 12184 41660 119// 01304 10030 21046 38467 48558 60003 70500 333 58019
AAXX 12184 41675 11996 00000 10110 20056 30033 40177 60003 70400 333 58022
AAXX 12184 41712 12996 00502 10100 21115 39256 48552 60003 333 58051
AAXX 12184 41715 01995 00000 10145 20117 30107 40173 60003 70400 333 58029 60007
AAXX 12184 41756 01996 02302 10195 20153 30091 40155 60003 70500 333 58013 60007
AAXX 12184 41764 32996 00000 10185 20123 30112 40162 60003 333 58024 60007
AAXX 12184 41768 02996 00000 10135 20096 30155 40162 60002 333 58008 60007
AAXX 12184 41780 02996 20000 10200 20167 30138 40165 60003 80001 333 56009 58015 60007 82070
AAXX 12184 41515 02995 00000 10083 21176 38545 48508 60003 333 59013 60007
AAXX 12184 41560 22696 21803 10025 21058 38255 48488 60003 81230 333 59003 60007
AAXX 12184 41571 119// 00000 10085 20016 39600 40203 60003 70500 333 58020
AAXX 12184 41594 319// 00000 10105 20068 39969 40193 70500 333 58027
AAXX 12184 41685 32993 00000 10105 20041 38935 48511 333 58008
AAXX 12184 41710 02997 03102 10100 21115 39413 40207 60003 333 58045 60007
AAXX 12184 41718 11995 00000 10110 20068 30064 40172 60003 70400 333 58023
AAXX 12184 41739 02996 00000 10130 21069 39073 48523 60003 333 58010 60007
AAXX 12184 41744 32996 00000 10130 21027 38796 48518 333 58017
AAXX 12184 41749 01995 00000 10160 20114 30132 40167 60003 70400 333 58012 60007
AAXX 12184 71520 16/// /3201 11097 21121 39551 40246 51013 60001 333 11092 21168 70000
AAXX 12184 71521 16/// ///// 11064 21085 60001 333 11059 21175 70000
AAXX 12184 71522 47/// /2804 11016 21035 39750 40248 53002 6///1 7//4/ 333 11016 21137 70000
AAXX 12184 71523 17/// ///// 11002 21004 39850 40230 53004 69981 7//4/ 333 10000 21110 70000
AAXX 12184 71383 16/// ///// 11054 21082 39620 40244 53005 60001 333 11048 21152 70000
AAXX 12184 60096 32960 33620 10195 20132 40193 55003 83080 333 10211 83360
AAXX 12184 91689 46/// /0109 10243 40107 22200 00274
BBXX WCZ5238 12184 99020 51463 41698 60918 10250 20207 40145 52010 76262 86400 22273 00259 20303 328// 40802 5//// 6//// 80220 ICE /////
BBXX V7NV4 12184 99167 71006 41798 73613 10280 20267 40140 56005 71121 86122 22263 00300 20204 33434 40204 50202 6//// 80270 ICE /////
AAXX 12184 61017 32960 50000 10174 20034 39759 40181 80002 333 10257 59006 85080
AAXX 12184 61024 32960 51210 10215 21011 39589 40167 80002 333 10272 58003 85080
AAXX 12184 61036 31956 70404 10275 20009 39890 40130 7052/ 80008 333 10314 58015 87280
AAXX 12184 61043 32960 70606 10254 21028 39694 40139 80008 333 10294 58010 87280
AAXX 12184 61045 31930 70602 10223 21070 39648 40152 7062/ 80008 333 10265 58008 87280
AAXX 12184 61049 32960 70000 10212 21035 39811 40137 80008 333 10282 59005 87280
AAXX 12184 61052 31930 50608 10275 21016 39880 40138 70622 80002 333 10315 58010 85080
AAXX 12184 61075 31956 70000 10256 20069 39824 40135 70622 80008 333 10312 58009 87280
AAXX 12184 61080 31912 71004 10234 21020 39721 40145 70622 80008 333 10280 58005 87280
AAXX 12184 61090 31945 70404 10226 21030 39629 40145 70622 80008 333 10269 58007 87280
AAXX 12184 61091 NIL
AAXX 12184 61096 31957 70000 10216 20000 39721 40149 70522 80008 333 10280 59001 87280
AAXX 12184 61099 31930 70208 10285 20061 39881 40110 70622 80008 333 10315 58006 87280
BBXX ZMFR 12184 99490 31674 43/// /35// 10119 20118 40103 52005 22271 00098
BBXX 3EAT6 12183 99208 31726 41398 30912 10260 20237 40106 57010 70300 8/100 22253 00280 20302 309// 40302
BBXX A8UA9 12184 99362 10181 41/98 22124 10180 20134 40220 57010 70200 82/4/ 22263 321// 40704 80152
BBXX MINUK05 1218/ 99598 70033 46/// ///// 10073 49805 57006
BBXX MINUK03 1218/ 99549 70012 46/// ///// 10065 49871 57037
BBXX AMOUK04 12184 99533 70062 46/// ///// 10067 20044 39868 4//// 57069 91750
BBXX TBWUK30 12183 99379 70120 41598 30207 10148 20119 40249 54000 70311 8/460 22284 00186 20302 335// 40509 5//// 80132
BBXX SHIP 12183 99355 70272 412// 60707 10208 20205 40292 54000 70022 8/7// 22224 00220 29901 80206
BBXX ZMFR 12184 99490 31674 43/// /35// 10119 20118 40103 52005 22271 00098
BBXX 3EAT6 12183 99208 31726 41398 30912 10260 20237 40106 57010 70300 8/100 22253 00280 20302 309// 40302
BBXX V7NV4 12184 99167 71006 41798 73613 10280 20267 40140 56005 71121 86122 22263 00300 20204 33434 40204 50202 6//// 80270 ICE /////
BBXX A8OU4 12184 99438 11573 41498 62915 10005 21009 40080 57020 77011 84778 22224 00050 20908 3//// 4//// 5//// 80000
BBXX 42085 12181 99179 70665 46/// /1504 10286 40108 91820 333 91205
BBXX 42085 12181 99179 70665 46/// /1403 10287 40107 91830 333 91204
BBXX 42085 12181 99179 70665 46/// /1304 10287 40110 91810 333 91205
BBXX 42047 12181 99279 70936 46/// /0806 10187 20141 40233 91830 22200 00228 333 91208
BBXX 42047 12181 99279 70936 46/// /0805 10189 20136 40241 57005 91800 22200 00228 333 91206
BBXX 42046 12181 99279 70940 46/// /0906 1//// 40239 57006 91800 22200 00225 333 91208
BBXX 42046 12181 99279 70940 46/// /0906 1//// 40235 91830 22200 00225 333 91207
BBXX 42044 12181 99262 70971 46/// /2701 10166 20144 40211 57005 91800 22200 00186 333 91202
BBXX 42043 12181 99290 70949 46/// /0806 1//// 40250 58004 91800 22200 00157 333 91207
BBXX C6VG8 12184 99342 70761 41/95 80328 10180 2//// 40280 53020 78188 88/// 22254 00250 2//// 3//// 4//// 5//// 6//// 8//// ICE /////
BBXX WCZ5238 12184 99020 51463 41698 60918 10250 20207 40145 52010 76262 86400 22273 00259 20303 328// 40802 5//// 6//// 80220 ICE /////
AAXX 12181 63330 NIL
AAXX 12181 63331 NIL
AAXX 12181 63332 NIL
AAXX 12181 63333 42980 00000 10148 20079 38171 40197 333 10242 58002
AAXX 12181 63340 41565 53602 10155 20105 37951 40175 79181 85900 333 10255 58010 82823 83624 81925
AAXX 12181 63402 NIL
AAXX 12181 63403 NIL
AAXX 12181 63450 NIL
AAXX 12181 63451 NIL
AAXX 12181 63453 NIL
AAXX 12181 63460 NIL
AAXX 12181 63471 NIL
AAXX 12181 63474 NIL
AAXX 12181 63478 NIL
AAXX 12181 63500 NIL
AAXX 12181 63533 NIL
AAXX 12183 64800 NIL
AAXX 12183 64820 NIL
AAXX 12183 64860 31920 70000 10252 20092 39844 40117 70522 80002 333 10304 58007 87080
AAXX 12183 64861 NIL
AAXX 12183 64870 31950 70000 10188 20068 38912 48501 80002 333 10286 58004 87080
AAXX 12183 64871 NIL
AAXX 12183 64892 NIL
AAXX 12183 64893 NIL
AAXX 12183 64894 NIL
AAXX 12183 64910 31418 72404 10277 20238 30092 40101 70522 83502 333 10325 58009 83620 87080
AAXX 12183 64911 NIL
AAXX 12183 64950 NIL
AAXX 12184 87320 32670 40504 10246 20164 39608 40132 57025 86800 333 56400 82630 84840
AAXX 12184 71286 16/// /1812 11062 21076 60001 333 11062 21114 70000
AAXX 12184 63729 12480 10000 10200 20185 38853 48/// 60012 81900 333 0//90 10262 55300 58003 81618 81920
AAXX 12184 63756 31580 42707 10228 20193 38850 48487 71322 81931 333 10275 58001 81823 81924 84074
AAXX 12184 63791 32580 21215 10262 20150 39103 48492 82500 333 10335 58005 82626
AAXX 12184 63801 12580 70000 10251 20184 39195 48511 60152 8197/ 333 0//96 10260 58010 81821 81922 87359
AAXX 12184 63832 32480 20000 10200 20193 38807 48475 81930 333 10264 55300 58001 81817 81918
AAXX 12184 63862 63862 32580 50000 85903 333 10290 58002 85620 81921
AAXX 12184 63866 32580 40310 10263 20208 39497 48/// 82901 333 10322 59006 82625 81927
AAXX 12184 63870 63870 12480 10610 30080 40098 69902 81200 333 0//59 10327 55300 58003 81216
AAXX 12184 63881 01480 40000 10164 20156 38191 48/// 69922 71365 83920 333 0//11 20233 59002 69927 83617 81919
AAXX 12184 63887 11580 60000 10200 20175 38578 48496 69932 71322 83932 333 10268 55300 58002 83820 81923 85358
AAXX 12184 63894 12580 10410 10270 20242 30046 40106 60042 81200 333 0//27 10325 55300 58004 81820
AAXX 12184 63932 12580 60000 20280 38302 48499 60332 8492/ 333 10235 58004 84822 81923 86458
AAXX 12184 63962 31580 62706 10223 20190 38942 48502 71722 84930 333 10290 58017 84623 81925 84358
AAXX 12184 63971 12580 40208 10250 20240 39970 40099 60262 82930 333 0//17 10279 55300 58000 82822 81923 84358
AAXX 12184 63733 NIL
AAXX 12184 61017 32960 50000 10174 20034 39759 40181 80002 333 10257 59006 85080
AAXX 12184 61024 32960 51210 10215 21011 39589 40167 80002 333 10272 58003 85080
AAXX 12184 61036 31956 70404 10275 20009 39890 40130 7052/ 80008 333 10314 58015 87280
AAXX 12184 61043 32960 70606 10254 21028 39694 40139 80008 333 10294 58010 87280
AAXX 12184 61045 31930 70602 10223 21070 39648 40152 7062/ 80008 333 10265 58008 87280
AAXX 12184 61049 32960 70000 10212 21035 39811 40137 80008 333 10282 59005 87280
AAXX 12184 61052 31930 50608 10275 21016 39880 40138 70622 80002 333 10315 58010 85080
AAXX 12184 61075 31956 70000 10256 20069 39824 40135 70622 80008 333 10312 58009 87280
AAXX 12184 61080 31912 71004 10234 21020 39721 40145 70622 80008 333 10280 58005 87280
AAXX 12184 61090 31945 70404 10226 21030 39629 40145 70622 80008 333 10269 58007 87280
AAXX 12184 61091 NIL
AAXX 12184 61096 31957 70000 10216 20000 39721 40149 70522 80008 333 10280 59001 87280
AAXX 12184 61099 31930 70208 10285 20061 39881 40110 70622 80008 333 10315 58006 87280
AAXX 12184 04418 NIL
AAXX 12184 04425 NIL
AAXX 12184 04432 NIL
AAXX 12184 04436 46/// /0000 11345 21377
AAXX 12184 04464 46/// /1214 11250 21273 333 553// 20004
AAXX 12184 04485 46/// /0000 11205 21210 37176 52011 333 553// 20004
AAXX 12184 04488 46/// /1710 11207 21217 37242 52007 333 553// 20000
BBXX DCTA2 12180 99356 71736 41/97 83214 10180 20139 40105 51018 75065 8//// 22225 04170 2//08 311// 4//07 5//// 80155
BBXX A8OU4 12184 99438 11573 41498 62915 10005 21009 40080 57020 77011 84778 22224 00050 20908 3//// 4//// 5//// 80000
BBXX SKEC 12181 99544 10114 46/// ///// 10058 40001 5//// 222// 00066
BBXX AMOUK08 12184 99501 70061 46/// ///// 10122 20115 39921 49929 57080 91750
BBXX 63106 12184 99610 10017 46/// /2324 10072 49816 56002 22200
BBXX 63105 12184 99610 10017 47597 ///// 10068 20021 49816 56001 761// 22200
BBXX AMOUK05 12184 99537 70003 46/// ///// 10057 20030 39915 49957 57023 91750
BBXX 42013 12181 99272 70829 46/// ///// 1//// 40218 91820 22200 00201
BBXX 42013 12181 99272 70829 46/// ///// 1//// 40221 91800 22200 00201
BBXX SKEC 12181 99544 10114 46/// ///// 10058 40001 5//// 222// 00066
BBXX ZMFR 12184 99490 31674 43/// /35// 10119 20118 40103 52005 22271 00098
BBXX 3EAT6 12183 99208 31726 41398 30912 10260 20237 40106 57010 70300 8/100 22253 00280 20302 309// 40302
AAXX 12184 71408 46/// /2233 10001 21008 30170 40251 58018 6///1 333 10007 21049 7////
AAXX 12181 98132 11450 80407 10214 20201 40175 58009 60061 76066 8652/ 333 56199 86615 88456
AAXX 12181 98133 NIL
AAXX 12181 98222 31575 20302 10238 20223 40108 58008 70544 81206 333 56999 81820
AAXX 12181 98233 31570 70000 10240 20215 40112 58008 70544 87500 333 56999 87620
AAXX 12181 98324 31462 50000 10260 20238 40098 58010 70544 82468 333 56999 82616 85280
AAXX 12181 98327 31665 62902 10243 20229 39932 10105 57013 70544 81108 333 56999 81842 86277
AAXX 12181 98334 31465 63503 10245 20238 39910 40113 57012 71322 82970 333 56999 82917 84358
AAXX 12181 98425 32557 63202 10276 20241 40098 58010 82108 333 56999 82820 86280
AAXX 12181 98426 31562 30603 10260 20231 40106 58010 70544 81230 333 56999 81820 83358
AAXX 12181 98427 32475 20000 10255 20235 39900 40079 58009 82200 333 56999 82818
AAXX 12181 98428 32458 41402 10270 20243 40102 58002 81434 333 56999 81618
AAXX 12181 98432 NIL
AAXX 12181 98433 32464 40405 10222 20201 39385 40103 57011 82901 333 56999 82912
AAXX 12181 98434 11459 80000 10250 20245 30096 40104 58007 60011 76162 8452/ 333 56199 84617 88456
AAXX 12181 98435 32472 30000 10260 20240 40098 5//// 82201 333 56999 82818
AAXX 12181 98442 NIL
AAXX 12181 98446 32470 32901 10248 20240 30061 40107 58013 82201 333 56999 82818
AAXX 12181 98447 32470 60403 10250 20243 39830 40092 5//// 83202 333 56199 83818 85070
AAXX 12181 98538 32466 50202 10264 20244 30085 40090 57013 81230 333 56999 81811 84358
AAXX 12181 98546 32575 51601 10252 20243 30086 40094 58008 82208 333 56999 82820 85275
AAXX 12181 98548 32466 13601 10255 20242 30089 40095 58007 81100 333 56999 81816
AAXX 12181 98553 31466 53201 10256 20248 30091 40095 58015 71544 84901 333 56299 82915 83818 85074
AAXX 12181 98558 32466 60404 10271 20262 40084 58011 82271 333 56999 82818 85357
AAXX 12181 98642 32465 50000 10250 20236 30072 40081 58018 82202 333 56199 82815 84072
AAXX 12181 98644 32465 50000 10252 20240 30080 40089 58010 81268 333 56999 81817 84272
AAXX 12181 98648 31470 53601 10260 20233 30015 40097 57008 70544 82230 333 56299 82817 83358
AAXX 12181 98746 31462 60301 10245 20216 40077 58028 70594 82276 333 56999 82818 83358 85075
AAXX 12181 98751 32470 10000 10185 20177 39411 40081 57024 81100 333 56999 81815
AAXX 12181 98752 32462 70000 10241 20230 40090 57019 82270 333 56999 82818 87358
AAXX 12181 98851 32470 52702 10240 20212 39928 40076 58014 82270 333 56999 82818 85358
BBXX 42369 12181 99272 70903 46/// /0309 1//// 91740 22200 10503 70017
BBXX 42370 12181 99273 70905 46/// ///// 10197 91740 22200 10503 70016
BBXX 42376 12181 99291 70879 46/// /0309 10182 91740 22200 10603 70016
BBXX 42392 12181 99272 70900 46/// ///// 1//// 91740 22200 10503 70016
BBXX 42887 12181 99282 70885 46/// /0808 1//// 91740 22200 10503 70015
BBXX 42369 12181 99272 70903 46/// /0309 1//// 91740 22200 10503 70017
BBXX 42392 12181 99272 70900 46/// ///// 1//// 91740 22200 10503 70016
BBXX 42370 12181 99273 70905 46/// ///// 10197 91740 22200 10503 70016
BBXX 42376 12181 99291 70879 46/// /0309 10182 91740 22200 10603 70016
BBXX 42887 12181 99282 70885 46/// /0808 1//// 91740 22200 10503 70015
BBXX 42013 12181 99272 70829 46/// ///// 1//// 40221 91800 22200 00201
BBXX 42013 12181 99272 70829 46/// ///// 1//// 40218 91820 22200 00201
AAXX 12181 11930 11/00 93105 11043 21044 37308 47983 55001 60022 74974 333 11041 44040 89/00 91013 93510
BBXX 63106 12184 99610 10017 46/// /2324 10072 49816 56002 22200
BBXX 63113 12184 99610 10017 46/// /2428 10064 20014 49833 51009 22200 10807 70035
BBXX AMOUK03 12184 99537 70003 46/// ///// 10059 20039 39926 49959 57019 91750
BBXX 62107 12184 99501 70061 46/// /2139 10120 20109 49927 56073 22200 00120 11012 70060 333 90710 91160
BBXX 9VDD2 12184 99516 11723 41393 83224 11005 21050 49900 55000 77272 88/// 22254 07030 20606 331// 40808 5//// 64011 81020
BBXX S6JT 12184 99506 11660 41397 53024 11010 21043 49915 56005 70772 847/5 22224 04040 20805 81020
BBXX VRAR7 12183 99305 11645 41/98 70718 10170 20170 40170 54000 76062 87/// 22264 00219 2//// 80170
BBXX VRBQ6 12184 99332 11716 41398 22918 10185 20098 40189 58010 70200 82100 22225 00221 2//// 80135
BBXX V7SY6 12184 99254 10363 41898 23420 10230 20185 40300 56010 7//00 81711 22233 00/// 20803 33434 40803 50602 80200
BBXX VRGW2 12184 99263 11212 41/97 80826 10170 20137 40217 53012 70200 8//// 22215 04210 21405 80151
BBXX A8CQ5 12183 99111 30713 41/98 41110 10280 20/// 40100 54000 70200 821// 22214 04270 2////
BBXX 9VDD2 12184 99516 11723 41393 83224 11005 21050 49900 55000 77272 88/// 22254 07030 20606 331// 40808 5//// 64011 81020
BBXX S6JT 12184 99506 11660 41397 53024 11010 21043 49915 56005 70772 847/5 22224 04040 20805 81020
BBXX VRAR7 12183 99305 11645 41/98 70718 10170 20170 40170 54000 76062 87/// 22264 00219 2//// 80170
BBXX VRBQ6 12184 99332 11716 41398 22918 10185 20098 40189 58010 70200 82100 22225 00221 2//// 80135
BBXX V7SY6 12184 99254 10363 41898 23420 10230 20185 40300 56010 7//00 81711 22233 00/// 20803 33434 40803 50602 80200
BBXX VRGW2 12184 99263 11212 41/97 80826 10170 20137 40217 53012 70200 8//// 22215 04210 21405 80151
BBXX A8CQ5 12183 99111 30713 41/98 41110 10280 20/// 40100 54000 70200 821// 22214 04270 2////
BBXX DHEB 12183 99441 11479 41598 32724 11015 21060 40030 57015 70122 831// 22215 04040 2//// 3//// 4//// 5//// 81030
BBXX DHEB 12183 99441 11479 41598 32724 11015 21060 40030 57015 70122 831// 22215 04040 2//// 3//// 4//// 5//// 81030
BBXX SHIP 12183 99305 11645 41/98 70718 10170 20170 40170 54000 76062 87/// 22264 00219 2//// 80170
BBXX SHIP 12184 99332 11716 41398 22918 10185 20098 40189 58010 70200 82100 22225 00221 2//// 80135
BBXX S6JT 12184 99506 11660 41397 53024 11010 21043 49915 56005 70772 847/5 22224 04040 20805 81020
BBXX 9VDD2 12184 99516 11723 41393 83224 11005 21050 49900 55000 77272 88/// 22254 07030 20606 331// 40808 5//// 64011 81020
BBXX VRGW2 12184 99263 11212 41/97 80826 10170 20137 40217 53012 70200 8//// 22215 04210 21405 80151
BBXX V7SY6 12184 99254 10363 41898 23420 10230 20185 40300 56010 7//00 81711 22233 00/// 20803 33434 40803 50602 80200
BBXX A8CQ5 12183 99111 30713 41/98 41110 10280 20/// 40100 54000 70200 821// 22214 04270 2////
BBXX AUTQ 12180 99320 10309 41698 40419 10250 20222 40194 54001 70200 87111 22274 00280
BBXX MINFR00 1218/ 99430 70411 46/// ///// 10085 40268 52015
BBXX A8CQ5 12183 99111 30713 41/98 41110 10280 20/// 40100 54000 70200 821// 22214 04270 2////
AAXX 12184 40103 32960 71802 10110 20063 40245 50002 80007 333 10173 87270
AAXX 12184 91375 46/// /0509 10282 40078 22200 00284
AAXX 1218/ 89332 46/// ///// 11076 39208 4//// 5//// 91830
AAXX 1218/ 89769 46/// ///// 11044 39816 4//// 5//// 91830
AAXX 1218/ 89314 46/// ///// 11150 38153 4//// 5//// 91830
AAXX 1218/ 89872 46/// ///// 11093 39796 4//// 5//// 91830
AAXX 1218/ 89866 46/// ///// 11034 39730 4//// 5//// 91830
BBXX 42369 12181 99272 70903 46/// /0309 1//// 91800 22200 10503 70017
BBXX 42370 12181 99273 70905 46/// ///// 10197 91800 22200 10503 70016
BBXX 42376 12181 99291 70879 46/// /0309 10182 91800 22200 10603 70016
BBXX 42392 12181 99272 70900 46/// ///// 1//// 91800 22200 10503 70016
BBXX 42887 12181 99282 70885 46/// /0808 1//// 91800 22200 10503 70015
AAXX 12181 01008 11470 71005 11065 21096 39931 49965 57000 60012 77177 875// 333 11049 91106
AAXX 12184 91165 12566 60615 10222 20206 30145 40180 53011 60051 91753
AAXX 12184 91212 12566 20611 10267 20239 31364 40100 56017 69931 91754
AAXX 12184 91245 32566 40615 10270 20210 30154 91755
AAXX 12184 91285 12666 80000 10206 20189 30151 40165 53006 69951 91753
AAXX 12184 91334 11474 80408 10278 20238 30064 40067 56010 60011 70282 82171
AAXX 12184 91376 11474 50615 10279 20232 30076 40080 55003 69901 70282 83801
AAXX 12184 91408 11474 70905 10272 20250 30037 40075 57019 69901 72522 82201
AAXX 12184 91413 11469 40907 10260 20237 30063 40088 57015 60021 72522 83101
AAXX 12184 91610 11599 30708 10264 20229 40079 52005 60001 70200 82101
AAXX 12184 91155 NIL
AAXX 12184 91203 NIL
AAXX 12184 91217 NIL
AAXX 12184 91232 NIL
AAXX 12184 91250 NIL
AAXX 12184 91275 NIL
AAXX 12184 91317 NIL
AAXX 12184 91324 NIL
AAXX 12184 91339 NIL
AAXX 12184 91348 NIL
AAXX 12184 91353 NIL
AAXX 12184 91356 NIL
AAXX 12184 91366 NIL
AAXX 12184 91367 NIL
AAXX 12184 91369 NIL
AAXX 12184 91371 NIL
AAXX 12184 91378 NIL
AAXX 12184 91425 NIL
AAXX 12184 91434 NIL
AAXX 12184 91601 NIL
AAXX 12184 97686 11356 70000 10163 20151 38350 40082 56008 60051 70522 85746 333 56000 84709 86361
BBXX AMOUK08 12184 99501 70061 46/// ///// 10122 20115 39921 49929 57080 91750
BBXX 63106 12184 99610 10017 46/// /2324 10072 49816 56002 22200
BBXX 63105 12184 99610 10017 47597 ///// 10068 20021 49816 56001 761// 22200
BBXX AMOUK05 12184 99537 70003 46/// ///// 10057 20030 39915 49957 57023 91750
BBXX MYNJ6 12183 99103 70595 415// 50913 10280 20253 40120 54000 7//00 85498 22273 00290 20702 30909 40702 50702 6//// 80260 ICE /////
AAXX 12184 91165 12566 60615 10222 20206 30145 40180 53011 60051 91753
AAXX 12184 91212 12566 20611 10267 20239 31364 40100 56017 69931 91754
AAXX 12184 91285 12666 80000 10206 20189 30151 40165 53006 69951 91753
AAXX 12184 91334 11474 80408 10278 20238 30064 40067 56010 60011 70282 82171
AAXX 12184 91376 11474 50615 10279 20232 30076 40080 55003 69901 70282 83801
AAXX 12184 91408 11474 70905 10272 20250 30037 40075 57019 69901 72522 82201
AAXX 12184 91413 11469 40907 10260 20237 30063 40088 57015 60021 72522 83101
AAXX 12184 91245 32566 40615 10270 20210 30154 91755
AAXX 12184 60340 32965 03406 10137 20083 40275 53009 333 10187
BBXX AUTQ 12180 99320 10309 41698 40419 10250 20222 40194 54001 70200 87111 22274 00280
BBXX 42392 12181 99272 70900 46/// ///// 1//// 91800 22200 10503 70016
BBXX 42887 12181 99282 70885 46/// /0808 1//// 91800 22200 10503 70015
BBXX 42376 12181 99291 70879 46/// /0309 10182 91800 22200 10603 70016
BBXX 42369 12181 99272 70903 46/// /0309 1//// 91800 22200 10503 70017
BBXX 42370 12181 99273 70905 46/// ///// 10197 91800 22200 10503 70016
BBXX MINFR00 1218/ 99430 70411 46/// ///// 10085 40268 52015
BBXX MYNJ6 12183 99103 70595 415// 50913 10280 20253 40120 54000 7//00 85498 22273 00290 20702 30909 40702 50702 6//// 80260 ICE /////
BBXX DHEB 12183 99441 11479 41598 32724 11015 21060 40030 57015 70122 831// 22215 04040 2//// 3//// 4//// 5//// 81030
BBXX 9VDD2 12184 99516 11723 41393 83224 11005 21050 49900 55000 77272 88/// 22254 07030 20606 331// 40808 5//// 64011 81020
BBXX S6JT 12184 99506 11660 41397 53024 11010 21043 49915 56005 70772 847/5 22224 04040 20805 81020
BBXX SHIP 12183 99305 11645 41/98 70718 10170 20170 40170 54000 76062 87/// 22264 00219 2//// 80170
BBXX SHIP 12184 99332 11716 41398 22918 10185 20098 40189 58010 70200 82100 22225 00221 2//// 80135
BBXX VRAR7 12183 99305 11645 41/98 70718 10170 20170 40170 54000 76062 87/// 22264 00219 2//// 80170
BBXX VRBQ6 12184 99332 11716 41398 22918 10185 20098 40189 58010 70200 82100 22225 00221 2//// 80135
AAXX 12184 71390 46/// /3102 11058 6///1 333 11058 21129 7////
AAXX 12184 71721 16/// /1805 10007 21026 30036 40288 56009 60001 333 10007 21058 70000
AAXX 12184 71721 16/// /1805 10007 21026 30036 40288 56009 60001 333 10007 21058 70000
AAXX 12184 71390 46/// /3102 11058 6///1 333 11058 21129 7////
AAXX 12184 60457 11565 72404 10151 20116 40260 53006 69922 70262 872// 333 10172 87820 95990
AAXX 12184 71971 16/// /1302 11236 21257 39969 40016 58001 60001 333 11213 21277 70000
AAXX 12184 71971 16/// /1302 11236 21257 39969 40016 58001 60001 333 11213 21277 70000
AAXX 12184 96559 31330 80000 10236 20230 30059 40097 57011 71322 8692/ 333 56609 57963 57864 81913 85808 88461 80973 80847
BBXX 42043 12181 99290 70949 46/// /0807 1//// 40242 91830 22200 00157 333 91208
BBXX 42044 12181 99262 70971 46/// /3101 10166 20144 40207 91830 22200 00186 333 91202
BBXX 63106 12184 99610 10017 46/// /2324 10072 49816 56002 22200
BBXX 63113 12184 99610 10017 46/// /2428 10064 20014 49833 51009 22200 10807 70035
BBXX AMOUK03 12184 99537 70003 46/// ///// 10059 20039 39926 49959 57019 91750
BBXX 62107 12184 99501 70061 46/// /2139 10120 20109 49927 56073 22200 00120 11012 70060 333 90710 91160
BBXX 2AUO5 12183 99606 10017 41/97 82425 10078 20036 49830 54000 76288 8//// 22200 20702 324// 40904 80060
AAXX 1218/ 68902 46/// ///// 40227 52003
AAXX 12184 97008 01430 80000 10246 20237 30058 40068 57004 60121 76362 8627/ 333 56009 57801 60057 86817 80860
AAXX 12184 48560 01556 80000 10245 20232 30106 40111 57010 60103 71066 83876 333 58008 60017 70116
BBXX 42369 12181 99272 70903 46/// /0309 1//// 91820 22200 10503 70017
BBXX 42370 12181 99273 70905 46/// ///// 10197 91820 22200 10503 70016
BBXX 42376 12181 99291 70879 46/// /0309 10182 91820 22200 10603 70016
BBXX 42392 12181 99272 70900 46/// ///// 1//// 91820 22200 10503 70016
BBXX 42887 12181 99282 70885 46/// /0808 1//// 91820 22200 10503 70015
BBXX V7QX2 12184 99055 10865 41/// /1309 10280 2028/ 40080 5/000 7//// 8//// 22262 00300 20601 330// 40602 5//// 6//// 80280 ICE /////
BBXX 42376 12181 99291 70879 46/// /0309 10182 91820 22200 10603 70016
BBXX 42392 12181 99272 70900 46/// ///// 1//// 91820 22200 10503 70016
BBXX 42887 12181 99282 70885 46/// /0808 1//// 91820 22200 10503 70015
BBXX 42369 12181 99272 70903 46/// /0309 1//// 91820 22200 10503 70017
BBXX 42370 12181 99273 70905 46/// ///// 10197 91820 22200 10503 70016
BBXX 42044 12181 99262 70971 46/// /3101 10166 20144 40207 91830 22200 00186 333 91202
BBXX 42043 12181 99290 70949 46/// /0807 1//// 40242 91830 22200 00157 333 91208
BBXX 2AUO5 12183 99606 10017 41/97 82425 10078 20036 49830 54000 76288 8//// 22200 20702 324// 40904 80060
BBXX 52243 12181 99193 11666 46/// ///// 1//// 91800 22200 00260
BBXX 51179 12181 99143 51708 46/// ///// 1//// 91800 22200 00285
BBXX 51178 12181 99142 51695 46/// ///// 1//// 91800 22200 00282
BBXX 52246 12181 99152 11457 46/// ///// 1//// 91800 22200 00282
BBXX 51176 12181 99278 71758 46/// ///// 1//// 91800 22200 00238
BBXX 52245 12181 99181 11458 46/// ///// 1//// 91800 22200 00281
BBXX 51174 12181 99142 51697 46/// ///// 1//// 91800 22200 00284
BBXX 52244 12181 99200 11452 46/// ///// 1//// 91800 22200 00270
BBXX 51173 12181 99260 71739 46/// ///// 1//// 91800 22200 00241
BBXX 51172 12181 99284 71783 46/// ///// 1//// 91800 22200 00234
BBXX 51171 12181 99064 71623 46/// ///// 1//// 91800 22200 00278
BBXX 51170 12181 99168 71695 46/// ///// 1//// 91800 22200 00259
BBXX 51169 12181 99004 51600 46/// ///// 1//// 91800 22200 00257
BBXX 52248 12181 99135 11448 46/// ///// 1//// 91800 22200 00286
BBXX AMOUK08 12184 99501 70061 46/// ///// 10122 20115 39921 49929 57080 91750
BBXX 63106 12184 99610 10017 46/// /2324 10072 49816 56002 22200
BBXX 63105 12184 99610 10017 47597 ///// 10068 20021 49816 56001 761// 22200
BBXX AMOUK05 12184 99537 70003 46/// ///// 10057 20030 39915 49957 57023 91750
BBXX WKAW 12184 99279 70916 41/// /0714 10190 2018/ 40240 57003 702// 8//// 22263 00220 2//// 3//// 4//// 5//// 6//// 80180 ICE /////
BBXX 51172 12181 99284 71783 46/// ///// 1//// 91800 22200 00234
BBXX 51176 12181 99278 71758 46/// ///// 1//// 91800 22200 00238
BBXX 51173 12181 99260 71739 46/// ///// 1//// 91800 22200 00241
BBXX 51169 12181 99004 51600 46/// ///// 1//// 91800 22200 00257
BBXX 51179 12181 99143 51708 46/// ///// 1//// 91800 22200 00285
BBXX 51174 12181 99142 51697 46/// ///// 1//// 91800 22200 00284
BBXX 51178 12181 99142 51695 46/// ///// 1//// 91800 22200 00282
BBXX 52245 12181 99181 11458 46/// ///// 1//// 91800 22200 00281
BBXX 52243 12181 99193 11666 46/// ///// 1//// 91800 22200 00260
BBXX 52248 12181 99135 11448 46/// ///// 1//// 91800 22200 00286
BBXX 52244 12181 99200 11452 46/// ///// 1//// 91800 22200 00270
BBXX 52246 12181 99152 11457 46/// ///// 1//// 91800 22200 00282
BBXX V7QX2 12184 99055 10865 41/// /1309 10280 2028/ 40080 5/000 7//// 8//// 22262 00300 20601 330// 40602 5//// 6//// 80280 ICE /////
BBXX 51170 12181 99168 71695 46/// ///// 1//// 91800 22200 00259
BBXX 51171 12181 99064 71623 46/// ///// 1//// 91800 22200 00278
AAXX 12184 97796 11450 70000 10232 20229 30035 40086 57003 60021 71522 85972 333 56000 57901 81910 84611 86361 80980
AAXX 12184 97192 32958 00000 10258 20241 30037 40094 57001 333
AAXX 12181 20069 41463 81508 11044 21067 30001 40014 57016 77173 8452/ 333 84611 91113 92980
AAXX 12181 20046 11498 80503 11075 21084 39954 49986 56008 69950 70272 8253/ 333 11034
AAXX 12181 20292 41394 82011 11137 21150 30174 40194 57014 77173 8672/ 333 91115 92983
AAXX 12181 02805 32899 11701 11186 21211 39891 40033 52007 70200 81070 333 11095 21186 47///
BBXX 63106 12184 99610 10017 46/// /2324 10072 49816 56002 22200
BBXX 63113 12184 99610 10017 46/// /2428 10064 20014 49833 51009 22200 10807 70035
BBXX AMOUK03 12184 99537 70003 46/// ///// 10059 20039 39926 49959 57019 91750
BBXX 62107 12184 99501 70061 46/// /2139 10120 20109 49927 56073 22200 00120 11012 70060 333 90710 91160
AAXX 12184 97810 32457 70000 10245 20242 30047 40056 57008 84232 333 56700 57871 84819 80856
AAXX 12184 71889 12974 43505 11002 21091 39861 40287 52009 60001 81071 333 10023 21034 70000
AAXX 12184 71889 12974 43505 11002 21091 39861 40287 52009 60001 81071 333 10023 21034 70000
AAXX 12184 71889 12974 43505 11002 21091 39861 40287 52009 60001 81071 333 10023 21034 70000
AAXX 12184 97530 31450 50000 10250 20241 30059 40064 57017 70544 82232 333 56000 57803 82814 80833
BBXX SHIP 12184 99244 30484 41997 53625 10270 20228 40105 53020 70011 81040 22212 04270 20502 3//// 4//// 5//// 80240
BBXX SHIP 12184 99244 30484 41997 53625 10270 20228 40105 53020 70011 81040 22212 04270 20502 3//// 4//// 5//// 80240
BBXX SHIP 12184 99244 30484 41997 53625 10270 20228 40105 53020 70011 81040 22212 04270 20502 3//// 4//// 5//// 80240
BBXX UEYO 12181 99475 11432 42/97 /2608 11050 40107 52053 22253 00035 20503
AAXX 12184 97460 32461 40000 10238 20229 30053 40067 57006 83836 333 56000 57803 82818 80857
AAXX 12181 38001 42997 50201 11001 21024 30351 40321 52008 86030
AAXX 12181 35925 415// 82704 11008 21011 40290 53009 71022 886//
AAXX 12181 38232 42598 82505 10040 20020 30200 40300 52005 885//
BBXX AMOUK08 12184 99501 70061 46/// ///// 10122 20115 39921 49929 57080 91750
BBXX 63106 12184 99610 10017 46/// /2324 10072 49816 56002 22200
BBXX 63105 12184 99610 10017 47597 ///// 10068 20021 49816 56001 761// 22200
BBXX AMOUK05 12184 99537 70003 46/// ///// 10057 20030 39915 49957 57023 91750
BBXX SHIP 12184 99244 30484 41997 53625 10270 20228 40105 53020 70011 81040 22212 04270 20502 3//// 4//// 5//// 80240
AAXX 12184 71427 16/// /2410 10001 21012 30235 40243 56003 60001 333 10001 21119 70030
AAXX 12184 71427 16/// /2410 10001 21012 30235 40243 56003 60001 333 10001 21119 70030
AAXX 12184 48554 31458 70000 10245 20235 30129 40134 52010 71022 83846 333 58012
BBXX UEYO 12181 99475 11432 42/97 /2608 11050 40107 52053 22253 00035 20503
AAXX 12184 71746 46/// /1706 10035 21035 30075 40301 58011 6///1 333 10036 21052 7////
AAXX 12184 71746 46/// /1706 10035 21035 30075 40301 58011 6///1 333 10036 21052 7////
BBXX 42045 12181 99262 70965 46/// /1308 10218 40204 91830 22200 00222 333 91209
BBXX 42045 12181 99262 70965 46/// /1308 10218 40207 91800 22200 00221 333 91210
BBXX 42045 12181 99262 70965 46/// /1308 10218 40204 91830 22200 00222 333 91209
BBXX 42045 12181 99262 70965 46/// /1308 10218 40207 91800 22200 00221 333 91210
AAXX 12184 48358 31958 10000 10130 20101 39992 40176 57014 71000 80001 333 59015
AAXX 12184 96741 32556 72502 10270 20232 30080 40084 58007 83571 333 56000 83622
AAXX 12181 25356 11598 83606 11087 21125 39781 49880 52027 69922 77873 885// 333 21088 48018 55000 91010
BBXX 63106 12184 99610 10017 46/// /2324 10072 49816 56002 22200
BBXX 63113 12184 99610 10017 46/// /2428 10064 20014 49833 51009 22200 10807 70035
BBXX AMOUK03 12184 99537 70003 46/// ///// 10059 20039 39926 49959 57019 91750
BBXX 62107 12184 99501 70061 46/// /2139 10120 20109 49927 56073 22200 00120 11012 70060 333 90710 91160
AAXX 12181 31484 42999 02702 11210 21267 39820 40183 51005 61001
BBXX WC5932 12184 99423 70876 43/// /1919 00/// 1//// 2//// 4//// 5//// 7//// 8//// 22233 0//// 2//// 3//// 4//// 5//// 6//// 8//// ICE /////
AAXX 12180 44237 32999 20000 11213 21253 38491 40374 52011 82041
AAXX 12180 44282 32999 02702 11155 21236 38296 40348 52016
AAXX 12180 44229 32999 03203 11227 21252 37918 40428 53017
AAXX 12184 97980 32460 60000 10258 20234 30059 40066 52003 85842 333 56000 83817 82620
AAXX 12181 25745 42698 82502 11158 21185 39831 49883 52015 885//
AAXX 12184 97028 32562 30000 10242 20231 30063 40069 58005 82411 333 56000 82620
BBXX AMOUK08 12184 99501 70061 46/// ///// 10122 20115 39921 49929 57080 91750
BBXX 63106 12184 99610 10017 46/// /2324 10072 49816 56002 22200
BBXX 63105 12184 99610 10017 47597 ///// 10068 20021 49816 56001 761// 22200
BBXX AMOUK05 12184 99537 70003 46/// ///// 10057 20030 39915 49957 57023 91750
BBXX WC5932 12184 99423 70876 43/// /1919 00/// 1//// 2//// 4//// 5//// 7//// 8//// 22233 0//// 2//// 3//// 4//// 5//// 6//// 8//// ICE /////
BBXX 63106 12184 99610 10017 46/// /2324 10072 49816 56002 22200
BBXX 63113 12184 99610 10017 46/// /2428 10064 20014 49833 51009 22200 10807 70035
BBXX AMOUK03 12184 99537 70003 46/// ///// 10059 20039 39926 49959 57019 91750
BBXX 62107 12184 99501 70061 46/// /2139 10120 20109 49927 56073 22200 00120 11012 70060 333 90710 91160
AAXX 12184 97086 32560 72702 10275 20251 30064 40088 58003 83271 333 56000 57803 83820 85460 80860
BBXX AMOUK08 12184 99501 70061 46/// ///// 10122 20115 39921 49929 57080 91750
BBXX 63106 12184 99610 10017 46/// /2324 10072 49816 56002 22200
BBXX 63105 12184 99610 10017 47597 ///// 10068 20021 49816 56001 761// 22200
BBXX AMOUK05 12184 99537 70003 46/// ///// 10057 20030 39915 49957 57023 91750
AAXX 12184 71573 16/// /2306 10048 21042 30012 40300 58011 60001 333 10052 21071 7////
AAXX 12184 96179 32460 70000 10250 20234 30064 40101 57005 83208 333 56000 57802 83817 80850
BBXX 63106 12184 99610 10017 46/// /2324 10072 49816 56002 22200
BBXX 63113 12184 99610 10017 46/// /2428 10064 20014 49833 51009 22200 10807 70035
BBXX AMOUK03 12184 99537 70003 46/// ///// 10059 20039 39926 49959 57019 91750
BBXX 62107 12184 99501 70061 46/// /2139 10120 20109 49927 56073 22200 00120 11012 70060 333 90710 91160
BBXX 52249 12181 99052 31503 46/// ///// 1//// 91800 22200 00301
AAXX 12184 71463 46/// /2415 10032 21035 30090 40318 58007 6///1 333 10038 20010 7////
BBXX MINFR09 1218/ 99362 31217 46/// ///// 40163 57004
BBXX AMOUK08 12184 99501 70061 46/// ///// 10122 20115 39921 49929 57080 91750
BBXX 63106 12184 99610 10017 46/// /2324 10072 49816 56002 22200
BBXX 63105 12184 99610 10017 47597 ///// 10068 20021 49816 56001 761// 22200
BBXX AMOUK05 12184 99537 70003 46/// ///// 10057 20030 39915 49957 57023 91750
BBXX MINFR09 1218/ 99362 31217 46/// ///// 40163 57004
BBXX 52249 12181 99052 31503 46/// ///// 1//// 91800 22200 00301
BBXX 63106 12184 99610 10017 46/// /2324 10072 49816 56002 22200
BBXX 63113 12184 99610 10017 46/// /2428 10064 20014 49833 51009 22200 10807 70035
BBXX AMOUK03 12184 99537 70003 46/// ///// 10059 20039 39926 49959 57019 91750
BBXX 62107 12184 99501 70061 46/// /2139 10120 20109 49927 56073 22200 00120 11012 70060 333 90710 91160
AAXX 12181 78090 15/// /0000 10272 30192 40195 69901 91800 222// 00147
BBXX AMOUK08 12184 99501 70061 46/// ///// 10122 20115 39921 49929 57080 91750
BBXX 63106 12184 99610 10017 46/// /2324 10072 49816 56002 22200
BBXX 63105 12184 99610 10017 47597 ///// 10068 20021 49816 56001 761// 22200
BBXX AMOUK05 12184 99537 70003 46/// ///// 10057 20030 39915 49957 57023 91750
BBXX 63106 12184 99610 10017 46/// /2324 10072 49816 56002 22200
BBXX 63113 12184 99610 10017 46/// /2428 10064 20014 49833 51009 22200 10807 70035
BBXX AMOUK03 12184 99537 70003 46/// ///// 10059 20039 39926 49959 57019 91750
BBXX 62107 12184 99501 70061 46/// /2139 10120 20109 49927 56073 22200 00120 11012 70060 333 90710 91160
AAXX 12181 38847 429// 60000 11001 21012 40397 58001 85033
AAXX 12181 27595 11/97 81801 11107 21120 30022 40178 52009 60050 77172 8802/ 333 11108
BBXX AMOUK08 12184 99501 70061 46/// ///// 10122 20115 39921 49929 57080 91750
BBXX 63106 12184 99610 10017 46/// /2324 10072 49816 56002 22200
BBXX 63105 12184 99610 10017 47597 ///// 10068 20021 49816 56001 761// 22200
BBXX AMOUK05 12184 99537 70003 46/// ///// 10057 20030 39915 49957 57023 91750
AAXX 12184 71574 12974 70000 10009 21014 30194 40269 55003 60001 87070 333 10009 21133 79999
AAXX 12184 91723 NIL
AAXX 12184 91964 NIL
BBXX 63106 12184 99610 10017 46/// /2324 10072 49816 56002 22200
BBXX 63113 12184 99610 10017 46/// /2428 10064 20014 49833 51009 22200 10807 70035
BBXX AMOUK03 12184 99537 70003 46/// ///// 10059 20039 39926 49959 57019 91750
BBXX 62107 12184 99501 70061 46/// /2139 10120 20109 49927 56073 22200 00120 11012 70060 333 90710 91160
AAXX 12184 48583 01457 80000 10235 20223 30105 40111 57011 60053 71062 82876 333 59008 60037 70136
AAXX 12184 48557 32560 40000 10220 20212 30085 40121 57006 82101 333 58011
BBXX AMOUK08 12184 99501 70061 46/// ///// 10122 20115 39921 49929 57080 91750
BBXX 63106 12184 99610 10017 46/// /2324 10072 49816 56002 22200
BBXX 63105 12184 99610 10017 47597 ///// 10068 20021 49816 56001 761// 22200
BBXX AMOUK05 12184 99537 70003 46/// ///// 10057 20030 39915 49957 57023 91750
AAXX 12184 48556 32560 40000 10250 20235 30109 40125 57013 81106 333 58003
AAXX 12184 48581 31556 80000 10240 20231 30081 40123 57006 71022 82546 333 58002 70012
BBXX 63106 12184 99610 10017 46/// /2324 10072 49816 56002 22200
BBXX 63113 12184 99610 10017 46/// /2428 10064 20014 49833 51009 22200 10807 70035
BBXX AMOUK03 12184 99537 70003 46/// ///// 10059 20039 39926 49959 57019 91750
BBXX 62107 12184 99501 70061 46/// /2139 10120 20109 49927 56073 22200 00120 11012 70060 333 90710 91160
AAXX 12184 82723 32598 61402 10318 20203 30016 40097 86300 333 58033
BBXX AMOUK08 12184 99501 70061 46/// ///// 10122 20115 39921 49929 57080 91750
BBXX 63106 12184 99610 10017 46/// /2324 10072 49816 56002 22200
BBXX 63105 12184 99610 10017 47597 ///// 10068 20021 49816 56001 761// 22200
BBXX AMOUK05 12184 99537 70003 46/// ///// 10057 20030 39915 49957 57023 91750
AAXX 12184 43086 32996 00000 10190 20167 39950 40132 333 58010
BBXX A8CG7 12180 99078 31184 41497 30104 10280 20239 40070 54000 70211 82175 22264 04300 20302 300// 40000 5//// 80250
AAXX 12181 38846 415// 80503 11036 21043 38603 48560 52011 71072 886//
BBXX A8CG7 12180 99078 31184 41497 30104 10280 20239 40070 54000 70211 82175 22264 04300 20302 300// 40000 5//// 80250
AAXX 12184 48097 32956 03201 10235 20194 40136 333 58000
AAXX 12184 48097 32956 03201 10235 20194 40136 333 58000
BBXX PBWQ 12184 99240 70747 41498 40431 10260 20210 40165 50000 70211 842// 22234 00269 20302 306// 40504
BBXX PBWQ 12184 99240 70747 41498 40431 10260 20210 40165 50000 70211 842// 22234 00269 20302 306// 40504
AAXX 12184 41252 36/// /3010 10191 20131 39796 40085 333 0E017 10283 58001
AAXX 12184 41265 36/// /1502 10201 20113 39640 40193 333 0E022 10286 58008
AAXX 12181 10870 01482 82607 10053 20041 39623 40160 53033 60042 72162 8482/ 333 10059 20008 31001 55300 60027 81812 83636 87459 96463
AAXX 12184 41241 36/// /9902 10209 20100 30138 40176 333 0E024 10262 58014
BBXX UANA 12181 99695 10355 41/98 42508 11019 40002 52001 79421 80260 22212 04038 20405 / 130 61 99 699 1 0367 41/98 31805 11026 40022 52001 70221 8//// 22222 04049 20302
AAXX 12184 41270 36/70 /3508 10224 20167 30118 40129 333 0E022 10253 58003
BBXX UANA 12181 99695 10355 41/98 42508 11019 40002 52001 79421 80260 22212 04038 20405 / 130 61 99 699 1 0367 41/98 31805 11026 40022 52001 70221 8//// 22222 04049 20302
AAXX 12184 67009 32580 70000 10260 20231 39290 40108 51015 872/ 333 10330 87820
AAXX 12184 41295 36/// /2807 10183 20096 39989 40171 333 0E020 10262 59003
AAXX 12184 63980 11470 32911 10270 20226 40103 60362 70181 82932 333 10296 58003 81914 943// 91126
AAXX 12184 41257 36/// /0402 10190 20151 39700 40190 333 0E018 10262 58006
AAXX 12184 41258 36/// /2506 10235 20144 30162 40167 333 0E/// 10258 58004
AAXX 12184 41287 36/// /1007 10200 20154 30130 40199 333 0E021 10291 59001
AAXX 12184 41258 36/// /2506 10235 20144 30162 40167 333 0E/// 10258 58004
AAXX 12184 89573 44965 80704 11057 21098 39744 49766 57005 70070 8807/
AAXX 12184 89573 44965 80704 11057 21098 39744 49766 57005 70070 8807/
AAXX 12184 41244 36/// /3005 10188 20158 39833 48218 333 0E018 10256 59004
AAXX 12184 41268 36/// /1600 10215 20176 30154 48161 333 0E023 10267 58002
AAXX 12184 41244 36/// /3005 10188 20158 39833 48218 333 0E018 10256 59004
AAXX 12184 41268 36/// /1600 10215 20176 30154 48161 333 0E023 10267 58002
AAXX 12184 60190 32975 02204 10163 20075 40248 53006 333 10208
AAXX 12184 41264 36/70 /1704 10210 20017 39791 40160 333 0E021 10284 58004
AAXX 12184 71448 16/// /0104 11082 21102 39958 40300 50008 60001 333 11062 21093 70000
AAXX 12181 10035 01580 32204 10037 20023 39972 40031 51024 60022 72061 83500 333 10056 20016 32001 55300 20000 30000 40938 69907 83628
AAXX 12181 10980 11/00 92817 11039 21041 38101 48454 53023 60092 77374 333 10022 21039 3/104 48027 55300 20000 30000 91124 90201 91218 91218 96049 96473 96471 96445
AAXX 12184 71245 46/// /2311 11126 21188 6///1 333 11120 7////
AAXX 12184 71245 46/// /2311 11126 21188 6///1 333 11120 7////
BBXX DEFY 12183 99144 70604 41598 31106 10311 20259 40112 57011 70200 8324/ 22251 02281 80272
BBXX DEFY 12183 99144 70604 41598 31106 10311 20259 40112 57011 70200 8324/ 22251 02281 80272
AAXX 12184 41259 36/// /0202 10081 21272 37146 40324 333 0E/// 10142 59003
AAXX 12184 41263 36/// /0000 10194 20031 39500 40192 333 0E019 10276 58007
AAXX 12184 41288 36/// /1010 10229 20168 30157 40181 333 0E022 10266 59000
AAXX 12184 91487 NIL
AAXX 12184 91490 11599 21106 10261 2023/ 40421 60001 70300 82100 333 562//
AAXX 12184 91533 NIL
AAXX 12184 91601 NIL
AAXX 12184 91610 11599 30708 10264 20229 40079 52005 60001 70200 82101 333 562/9
AAXX 12184 91623 NIL
AAXX 12184 91629 NIL
AAXX 12184 91701 NIL
AAXX 12184 91487 NIL
AAXX 12184 91490 11599 21106 10261 2023/ 40421 60001 70300 82100 333 562//
AAXX 12184 91533 NIL
AAXX 12184 91601 NIL
AAXX 12184 91610 11599 30708 10264 20229 40079 52005 60001 70200 82101 333 562/9
AAXX 12184 91623 NIL
AAXX 12184 91629 NIL
AAXX 12184 91701 NIL
AAXX 12184 71196 16/// /2604 10029 21026 30085 40288 58007 60001 333 10033 21076 7////
AAXX 12181 10015 01463 62412 10068 20043 30022 40032 51015 69942 78086 86900 222// 02066 333 10081 20049 31004 55300 20000 30000 69917 83815 82917 85650 91118 91213
AAXX 12184 85041 31460 71804 10262 20243 39800 40061 57030 71522 83963 333 56000 58000 81817 82920 86358 87070
AAXX 12184 85140 32470 73405 10296 20242 39872 40079 57023 83233 333 56778 58005 83817 84357 87070
AAXX 12184 85141 32484 73604 10310 20260 39840 40068 57022 84306 333 56000 58000 84817 81927 87070
AAXX 12184 85151 NIL
AAXX 12184 85152 31465 73210 10318 20236 39830 40058 57030 71522 85908 333 56700 59002 84817 81920 86270
AAXX 12184 85201 31465 70810 10124 20043 36282 57014 71522 83963 333 56777 58001 82817 81920 84357 87070
AAXX 12184 85230 NIL
AAXX 12184 85242 32584 60912 10150 20054 36532 57016 84901 333 56206 59008 83820 81923 86070
AAXX 12184 85832 12980 12804 10232 20058 40176 57022 60001 80001 333 56000 81070
AAXX 12184 85836 12970 12309 10235 20065 40226 57023 60001 80001 333 56007 81070
AAXX 12184 85864 12980 41808 10216 20083 40181 57009 60001 80001 333 56006 84070
AAXX 12184 85886 12970 32921 10272 20159 40139 57011 60001 80004 333 56006 83070
AAXX 12184 85892 12980 22006 10228 20072 40164 57012 60001 80001 333 56006 82070
AAXX 12184 85934 12580 52729 10152 20046 40092 52021 60001 83140 333 56660 83820 83359
AAXX 12184 85968 12660 52719 10153 20069 40006 52016 60001 85100 333 56600 85845
AAXX 12184 89056 11358 82930 10018 20005 49735 50006 60023 71076 887// 333 56799 88707 93101
AAXX 12184 89057 11460 82328 10020 20002 49720 57005 60063 72675 888// 333 56799 86810 88613 91138 93105
AAXX 12184 89058 11462 82927 10020 20013 39709 49730 57015 60041 76075 8272/
AAXX 12184 89059 11430 80611 10008 21011 49712 57032 60033 77172 884// 333 71099 88616 93103
AAXX 12184 89251 31358 82924 10019 20008 49723 52004 71022 8651/
AAXX 12184 85574 12960 02112 10302 20060 39568 40091 57010 60001
AAXX 12184 85585 11598 81915 10169 20110 40215 54001 69921 70382 885// 333 56499 88627
AAXX 12184 85586 12960 02307 10190 20130 40152 56004 60001
AAXX 12184 85629 12980 01807 10268 20118 40114 57010 60001
AAXX 12184 85672 13980 02107 10262 20109 40132 57018 60001 333
AAXX 12184 85682 12962 02415 10219 20126 40144 57013 60001
AAXX 12184 85743 11960 02307 10244 20135 40156 58018 60001 70400
AAXX 12184 85799 12560 11613 10177 20116 40209 57010 60001 81100 333 56400 81825
AAXX 12184 85406 12980 02212 10235 20129 40124 55011 60001
AAXX 12184 85418 12570 12316 10215 20133 40131 58014 60001 81500 333 56000 81625
AAXX 12184 85432 12970 02419 10240 20020 37742 48401 56005 60001
AAXX 12184 85442 12570 11811 10194 20128 40125 58005 60001 81500 333 56400 81620
AAXX 12184 85469 42560 10710 10245 20134 40215 52001 81100 333 5620 81820
AAXX 12184 85488 12460 12911 10192 20132 40126 58014 60001 81500 333 56000 81615
AAXX 12184 85223 11357 82504 10150 20132 37518 47148 50007 60021 72996 8497/ 333 56000 58046 81607 83627 81930 88357 96004
AAXX 12184 85283 32584 50610 10183 20117 37194 47124 57023 84201 333 56100 58007 84820
AAXX 12184 85293 32584 70910 10130 20076 36364 57012 85920 333 56600 5//// 84620 81923 87457
AAXX 12184 85312 32684 20000 10298 20186 38760 57030 82020 333 56000 58010 82836
AAXX 12184 85345 32584 30000 10338 20216 39592 40043 57032 83100 333 56000 5//// 83823
AAXX 12184 85364 32570 41910 10272 20172 38125 48257 57020 84300 333 56000 58004 83833 81936
AAXX 12184 85365 32584 23606 10320 20223 39340 40039 57020 82300 333 56100 58020 82823 81927
AAXX 12184 85394 11356 81810 10255 20234 39661 40094 57006 69931 75022 8662/ 333 56409 5//// 84610 82925 88457
AAXX 12181 10836 01389 82808 10021 20019 39291 40172 51038 60022 72586 878// 333 10052 20014 31001 4/998 55300 20000 30000 69927 85807 83616 91119 91214 96280 96488 96463
AAXX 12184 89272 46/// /0411 11075 21106 3//// 4//// 5//// 91840
AAXX 12184 89257 46/// /0811 11070 21108 39720 49790 57002 91840
AAXX 12184 89266 46/// /1506 11029 21043 39617 49753 57005 91840
AAXX 12184 89257 46/// /0609 11072 21112 39721 49791 57002 91810
OOXX AAERC 12184 99815 31639 60713 00451 46/// ///02 11095 21132 39796 49853 52003 91800
OOXX AABRI 12184 99839 51342 60134 05251 46/// /3102 11076 21231 39198 49819 52007 91800
OOXX AAKOM 12184 99795 51121 56392 18332 46/// /3509 11156 21225 37779 49670 5//// 91800
OOXX AAERI 12184 99849 51288 60048 09901 46/// /0719 11136 21158 38725 49862 52002 91800
OOXX AAEMI 12184 99785 31731 57083 00521 46/// /2003 11066 21153 39834 49900 57001 91810
OOXX AAUNI 12184 99798 50833 56093 07671 46/// /2315 11112 21179 38915 49807 57001 91800
OOXX AALAU 12184 99775 31708 57070 00371 46/// /1104 11096 21182 39803 49850 57005 91810
OOXX AAPEG 12184 99779 31666 57186 00051 46/// /1004 11083 21128 39844 49850 57001 91810
AAXX 12184 89272 46/// /0410 11075 21108 3//// 4//// 5//// 91810
AAXX 12184 71571 16/// /2015 11055 21092 38912 40125 56017 60001 333 11055 21111 70000
AAXX 12184 71927 16/// /0000 11007 21036 30204 40263 51002 60001 333 11006 21064 70000
AAXX 12184 71314 16/// /2403 10036 21035 39931 40289 56010 60001 333 10038 21075 70000
