BBXX ZMENA 26174 99436 31727 46/// ///// 10150 20133 40133 57004 22200
BBXX ZMFR 26174 99413 31748 43/// /0218 10163 20134 40168 57001 22200 00187
BBXX 44172 26181 99445 70634 46/// ///// 1//// 91731 22200 00062 10603 20603 70015
AAXX 26184 40255 32960 00000 10084 20049 39542 40274 52018 333 10128
BBXX WDD2876 26184 99470 70911 41/98 32537 10055 2//// 40007 57/// 70200 8//// 22263 00044 2//02 3//// 4//// 5//// 6//// 8//// ICE /////
AAXX 26184 81225 11560 50307 10300 20242 40115 60061 72522 84962 333 56299 59003 81920 83825 96015
AAXX 26184 81200 12570 60710 10310 20231 40113 60001 85232 333 56299 59005 85830
AAXX 26184 81202 12570 20611 10290 20248 40118 60001 82902 333 56209 59007 81820 81925
AAXX 26184 81209 12570 30000 10322 20220 4//// 60001 83232 333 45299 5//// 83830
AAXX 26184 81251 NIL
AAXX 26184 81225 11560 50307 10300 20242 40115 60061 72522 84962 333 56299 59003 81920 83825 96015
AAXX 26184 81200 12570 60710 10310 20231 40113 60001 85232 333 56299 59005 85830
AAXX 26184 81202 12570 20611 10290 20248 40118 60001 82902 333 56209 59007 81820 81925
AAXX 26184 81209 12570 30000 10322 20220 4//// 60001 83232 333 45299 5//// 83830
AAXX 26184 81251 NIL
AAXX 26184 81225 11560 50307 10300 20242 40115 60061 72522 84962 333 56299 59003 81920 83825 96015
AAXX 26184 81200 12570 60710 10310 20231 40113 60001 85232 333 56299 59005 85830
AAXX 26184 81202 12570 20611 10290 20248 40118 60001 82902 333 56209 59007 81820 81925
AAXX 26184 81209 12570 30000 10322 20220 4//// 60001 83232 333 45299 5//// 83830
AAXX 26184 81251 NIL
BBXX 42362 26181 99278 70907 46/// /1405 10228 20194 40207 91745
BBXX 42363 26181 99282 70892 46/// /1306 10228 20178 40214 91745 333 91206
BBXX 42363 26181 99282 70892 46/// /1506 10222 20178 40207 58013 91800 333 91206
BBXX DBKV 26181 99169 70250 46/// /0505 10229 20163 40175 57003 22200 00233
BBXX DBBT 26181 99339 30184 46/// /3202 10189 20161 40128 52015 22220 00144
BBXX WZP8164 26184 99430 70877 43/// /2128 10044 2//// 40193 5//// 7//// 8//// 22243 0//// 2//04 3//// 4//// 5//// 6//// 8//// ICE /////
BBXX 42364 26181 99291 70881 46/// /1008 10217 20189 40210 91745
AAXX 26184 78764 32560 20716 10246 20143 39026 40158 58014 82100 333 10246 20194 30/// 562// 59007 82620
AAXX 26184 78764 32560 20716 10246 20143 39026 40158 58014 82100 333 10246 20194 30/// 562// 59007 82620
AAXX 26184 78764 32560 20716 10246 20143 39026 40158 58014 82100 333 10246 20194 30/// 562// 59007 82620
AAXX 26184 40270 31556 30000 10082 20052 39343 40258 52009 70500 333 10120
BBXX BAREU56 26184 99326 10150 46/// ///// 40246 57001 22222
AAXX 26184 40272 31558 52804 10078 20052 39415 40267 52010 71000 85800 333 10130 82825 84630
BBXX 46249 26181 99338 71197 46/// ///// 1//// 91740 22200 00144 11502 21001 323// 41502 70010
BBXX 46248 26181 99461 71247 46/// ///// 1//// 91734 22200 00097 11409 21004 328// 41407 70043
BBXX 46244 26181 99409 71244 46/// ///// 1//// 91735 22200 00098 11507 20904 329// 41506 70035
BBXX 41115 26181 99184 70673 46/// ///// 1//// 91735 22200 10702 20702 70008
BBXX 46240 26181 99366 71219 46/// ///// 1//// 91742 22200 00122 11402 21001 335// 41402 70012
BBXX 46237 26181 99378 71226 46/// ///// 1//// 91740 22200 00108 11705 21002 326// 41704 70024
BBXX 46212 26181 99408 71243 46/// ///// 1//// 91742 22200 00098 11306 20903 329// 41305 70031
BBXX 46218 26181 99345 71208 46/// ///// 1//// 91732 22200 00138 11505 20704 329// 41504 70027
BBXX 46211 26181 99469 71242 46/// ///// 1//// 91736 22200 00081 11408 21004 327// 41406 70038
BBXX 44098 26181 99428 70702 46/// ///// 1//// 91737 22200 00085 10402 20402 70011
BBXX 44097 26181 99410 70711 46/// ///// 1//// 91732 22200 00118 10504 20504 70020
AAXX 26184 68906 32598 41003 10166 20124 30103 40167 56003 83502 222// 00128 333 10190 20158 91005 555 91016
AAXX 26184 40340 32960 03610 10144 20059 40244 52014 333 10205
BBXX PCEO 26183 99448 70142 41599 82104 10130 20051 40316 54000 7//// 8/7// 22254 04137 20801 329// 41004 5//// 80090
AAXX 26184 08495 12462 21024 10152 20107 30296 40304 51003 60002 82500 91750 333 10169 81714 90710 91131 91031
AAXX 26184 61902 32584 21315 10255 20170 40130 82800 333 10284 58005 81826
AAXX 26181 13579 32670 63403 10001 21031 39510 40384 52016 86500 333 10027 86633
AAXX 26184 78858 12582 10276 20206 30105 40161 60001 84830 333 10286 20235 59007 81820 83650
BBXX 41114 26181 99276 70802 46/// ///// 1//// 91746 22200 00246 11002 21002 70008
BBXX 46088 26181 99483 71232 46/// /1405 10057 40244 56006 91750 22200 00078 10301 20301 70004 333 91206 555 11052 22054 31650 41206 61749 139050 131052 130049 131044 124045 127051
BBXX 46114 26181 99364 71222 46/// ///// 1//// 91734 22200 00124 11506 21003 329// 41505 70030
BBXX 46060 26181 99606 71468 46/// /0308 10006 49838 56065 91750 22200 00052 10401 20401 70007 333 91210 555 11086 22090 31653 40310 61749 025082 022081 024083 018083 019082 022085 80309 91654
BBXX 44060 26181 99413 70721 46/// ///09 10062 40190 91745 22200 00099 333 91212 555 11103 22108
BBXX 44022 26181 99409 70737 46/// ///09 10064 21033 40214 91745 22200 00084 333 91213 555 11103 22108
BBXX 51203 26181 99208 71570 46/// ///// 1//// 91743 22200 00246 11302 21001 331// 41302 70010
BBXX 52200 26181 99134 11448 46/// ///// 1//// 91745 22200 00287 11005 21004 309// 41101 70023
AAXX 26184 67665 41760 70802 10229 20229 48531 71322 81932 333 10312 58006 81950 84360 86280
AAXX 26184 78388 111578 40715 10286 20224 30147 40156 60001 70511 83801 333 01209 10305 20221 59010 83824
AAXX 26184 78388 111578 40715 10286 20224 30147 40156 60001 70511 83801 333 01209 10305 20221 59010 83824
BBXX DDZD2 26184 99333 10264 41/97 90817 10136 20100 40260 51025 75885 89/// 22225 00170 299// 80116
AAXX 26184 40296 32560 40000 10170 20118 40261 52008 84100 333 10224 84825
AAXX 26184 91643 11498 53407 10280 20240 40083 53011 60001 70222 83230 333 5689/ 83819 85361
AAXX 26184 68994 32598 43123 10098 20080 30152 40181 51004 83540 222// 00078 333 10196 20094 91034 555 91018
BBXX BAREU63 26184 99444 10089 46/// ///// 10112 29029 40335 22200
BBXX TESTFR9 26184 99499 70040 46/// /2222 10113 29076 40366 57017 22284
AAXX 26184 91772 11398 83107 10259 20250 4//// 60071 70288 8671/ 333 5679/ 82707 89813 88461
AAXX 26184 91776 NIL
AAXX 26184 91779 11398 70000 10254 20243 40072 53005 60081 70288 87701 333 569/9 81709 85817 87077
AAXX 26184 91784 31498 70000 10256 20252 40065 53009 60001 70212 858/8 333 562/9 82817 85640 87277
AAXX 26184 91792 11498 81307 10242 20230 40086 53006 60031 70282 8477/ 333 5639/ 83816 88362
AAXX 26184 91376 32474 80811 10274 20237 30093 40097 53007 85878 333 56229 70010 555 92618
AAXX 26184 89664 32961 10000 10027 21052 39788 49829 51001 81080 333 56040 81362
AAXX 26184 16597 11459 70214 10114 20093 30165 40253 55000 60032 72582 878// 333 10149 84815 87650 91132 91504
AAXX 26184 89664 32961 10000 10027 21052 39788 49829 51001 81080 333 56040 81362
AAXX 26184 61901 169// /1314 10170 20146 39669 40177 55000 69942 91750 333 10194 8//99 555 7/090
AAXX 26184 91376 32474 80811 10274 20237 30093 40097 53007 85878 333 56229 70010 555 92618
AAXX 26184 89664 32961 10000 10027 21052 39788 49829 51001 81080 333 56040 81362
AAXX 26184 78384 12560 10611 10290 20232 40173 60001 81802 333 10295 20246 59011 70000 81820
AAXX 26184
AAXX 26184 78383 11460 51011 10295 20220 40172 69901 70280 83202 333 10296 20244 59014 79999 83816 84070 90910
BBXX 42003 26181 99260 70856 46/// /1108 1//// 91750 22200 10502 20502 319// 40801 70009 333 91209 555 11083 22089 31733 41110 61749 116078 118086 121081 122085 119083 120083 81209 91733
BBXX 42055 26181 99222 70940 46/// /3209 10221 20206 40198 58010 91750 22200 00251 10805 20504 333// 40802 70025 333 91211 555 11091 22095 31730 43311 61749 325085 329086 333084 333091 335083 338087 83410 91718
BBXX 42002 26181 99258 70937 46/// /3408 10200 20172 40218 58010 91750 22200 00241 10602 20602 308// 40701 70012 333 91210 555 11079 22084 31704 43410 61749 337079 330081 334086 335083 336088 333071
BBXX 41047 26181 99275 70715 46/// /2607 10235 40202 58023 91750 22200 00249 10903 20601 308// 40903 70014 333 91208 555 11068 22071 31700 42808 61749 261067 265067 270069 271067 272068 273070 82708 91658
BBXX 41043 26181 99211 70650 46/// /0905 10250 20203 40185 58025 91750 22200 00261 10903 20502 300// 40903 70015 333 91206 555 11055 22057 31706 40807 61749 087052 083052 082052 085052 087052 086056 80806 91658
BBXX 41036 26181 99342 70770 46/// ///// 10108 20004 40257 50000 91750 22200 00185 10402 70011
BBXX 44066 26181 99396 70726 46/// /3311 10083 20016 40200 51018 91750 22200 00142 10706 20706 70030 333 91214 555 11121 22127 31652 43416 61749 328115 332112 332117 332117 334123 336125
AAXX 26184 78384 12560 10611 10290 20232 40173 60001 81802 333 10295 20246 59011 70000 81820
AAXX 26184 78383 11460 51011 10295 20220 40172 69901 70280 83202 333 10296 20244 59014 79999 83816 84070 90910
BBXX 41012 26181 99300 70805 46/// /0506 10206 40227 58018 91750 22200 00237 333 91208 555 11062 22064 31713 40409 61749 047059 049064 044065 040069 031063 032064
BBXX 41060 26181 99148 70510 46/// ///// 1//// 91750 22200 11004 70022
BBXX 41001 26181 99347 70727 46/// ///// 10148 20067 40210 50000 91750 22200 00226 10808 70038
BBXX 41049 26181 99275 70630 46/// /2504 10221 20163 40187 56018 91750 22200 00237 10904 20301 300// 40904 70019 333 91205 555 11037 22039 31704 42205 61749 253036 243042 234039 230041 228040 224039 82404 91738
BBXX 42020 26181 99270 70967 46/// /3106 10124 20078 40242 58015 91750 22200 00212 10502 20502 306// 40701 70010 333 91208 555 11062 22064 31722 43009 61749 305062 306060 305067 308067 307066 304063
BBXX 41044 26181 99217 70587 46/// /1004 10250 20175 40181 58020 91750 22200 00263 10803 20401 300// 40802 70013 333 91205 555 11038 22040 31657 41105 61749 099036 093036 097037 099038 101040 096040 81005 91657
BBXX 41048 26181 99320 70696 46/// /3315 10187 20103 40180 55000 91750 22200 00225 10705 20705 70027 333 91217 555 11145 22153 31653 43220 61749 331145 329147 323142 323145 326154 322159 83217 91653
BBXX 42065 26181 99149 70750 46/// /0709 10274 20220 91750 22200 10905 20804 3//// 40903 70026 333 91210 555 11093 22099 31705 40711 61749 068087 070080 066082 068088 068090 065090 80710 91712
BBXX 42012 26181 99301 70876 46/// /1009 10185 20170 40207 58023 91750 22200 00197 10503 20503 70014 333 91211 555 11092 22098 31733 40911 61749 099088 097092 093090 092092 091090 085093
BBXX 42001 26181 99259 70897 46/// /2901 10244 20185 40203 58009 91750 22200 00252 10602 20401 3//// 40602 70010 333 91202 555 11008 22008 31747 43202 61749 293007 286003 232002 233002 167001 162003
BBXX 42035 26181 99292 70944 46/// /2705 10103 20093 40218 58015 91750 22200 00148 10701 20301 315// 40701 70005 333 91207 555 11054 22056 31741 42607 61749 267053 256047 272038 268048 277044 277048
BBXX 42060 26181 99163 70635 46/// /0607 10268 20196 40158 58021 91750 22200 00274 10503 20502 300// 40802 70014 333 91208 555 11069 22073 31724 40808 61749 064065 070065 069068 067066 069064 063067 80707 91720
BBXX 42058 26181 99149 70749 46/// /0810 10271 20213 40127 58019 91750 22200 00271 10906 20705 309// 40903 70029 333 91213 555 11104 22111 31652 40914 61749 079098 084110 080113 083111 086107 086109 80912 91705
BBXX 42056 26181 99198 70849 46/// /0905 10264 20226 40176 58013 91750 22200 00272 10702 20401 309// 40702 70012 333 91206 555 11050 22053 31654 41008 61749 095049 099051 099052 103055 094057 101062 81006 91654
BBXX 42036 26181 99285 70845 46/// /0808 10197 20187 40211 58019 91750 22200 00213 10402 20402 319// 40701 70009 333 91209 555 11083 22087 31719 40809 61749 085078 087073 085077 082078 080076 079074
BBXX 42059 26181 99151 70675 46/// /0809 10273 20209 40144 58024 91750 22200 00278 10604 20604 70020 333 91211 555 11095 22101 31739 40811 61749 082089 082090 083083 077084 078083 074087 80810 91738
BBXX 42019 26181 99279 70954 46/// /2907 10137 20106 40224 58010 91750 22200 10502 20502 311// 40701 70009 333 91208 555 11072 22076 31709 43009 61749 288066 284064 283064 283062 284061 283062
BBXX 44005 26181 99432 70691 46/// /3411 10036 21007 40153 51015 91750 22200 00083 10503 20503 70013 333 91213 555 11114 22120 31720 43414 61749 342109 343111 338114 331109 334106 336102
BBXX 42040 26181 99292 70882 46/// /1110 10211 40198 58020 91750 22200 00224 333 91211 555 11098 22104 31658 41112 61749 107098 106095 104098 104098 101099 102104
BBXX 46070 26181 99551 11753 46/// /0705 11032 21056 40147 56010 91750 22200 00035 11205 20502 3//// 41204 70023 333 91208 555 11055 22057 31713 40611 61749 068055 047075 046081 050086 052080 047078 80610 91713
BBXX 46014 26181 99394 71240 46/// /3103 10096 40286 53025 91750 22200 00107 11606 20401 3//// 41606 70029 333 91204 555 11030 22031 31738 43105 61749 311029 307025 319014 317019 027006 081009
BBXX 46011 26181 99350 71210 46/// /3207 10127 40255 53017 91750 22200 00134 11605 20603 331// 41604 70025 333 91208 555 11075 22079 31740 43209 61749 321072 323070 323071 325068 328070 328070
BBXX 46047 26181 99324 71195 46/// /3104 10135 40249 53017 91750 22200 00136 11604 20401 327// 41604 70019 333 91205 555 11038 22040 31655 43105 61749 307036 308034 313031 312035 308033 307036
BBXX 46088 26181 99483 71232 46/// /1405 10057 40244 91750 22200 00078 10301 20301 70004 333 91206 555 11052 22054 31650 41206 61749 139050 131052 130049 131044 124045 127051
BBXX 46027 26181 99419 71244 46/// /1102 10079 40279 53016 91750 22200 00092 11206 20401 330// 41206 70031 333 91204 555 11022 22022 31739 41104 61749 109020 101012 098006 105011 120010 108017
BBXX 46086 26181 99325 71180 46/// /3402 10151 40241 51017 91750 22200 00150 11603 326// 41603 70015 333 91203 555 11023 22025 31700 43503 61749 341021 337022 338020 343021 353023 351026
BBXX 46050 26181 99442 71246 46/// /1704 10080 40263 55000 91750 22200 00097 11408 20301 329// 41408 70042 333 91205 555 11036 22037 31652 41306 61749 165035 171034 176031 168032 164037 154041
BBXX 46069 26181 99337 71202 46/// /3308 10133 40246 53018 91750 22200 00139 11605 20703 328// 41604 70023 333 91209 555 11080 22084 31659 43309 61749 329075 328075 328073 329072 327077 327074
BBXX 46013 26181 99382 71233 46/// /2805 10092 40277 53016 91750 22200 00114 11506 20501 3//// 41506 70032 333 91207 555 11052 22054 31718 42907 61749 283050 278046 280041 279048 289048 311027
BBXX 46012 26181 99374 71229 46/// /3204 10106 40272 51014 91750 22200 00124 11606 20301 328// 41606 70028 333 91205 555 11039 22041 31732 43107 61749 321039 322053 315047 320044 317044 318049
BBXX 46087 26181 99485 71247 46/// /1208 10067 20054 40236 56012 91750 22200 00080 11407 20402 326// 41406 70033 333 91211 555 11089 22094 31726 41211 61749 119085 118077 116079 126077 126077 124077
BBXX 46029 26181 99461 71245 46/// /1707 10083 20048 40249 56007 91750 22200 00093 11407 20602 330// 41407 70037 333 91209 555 11074 22078 31654 41610 61749 165070 167070 169078 166078 164075 167078
BBXX 46054 26181 99342 71204 46/// /3210 10127 40242 52018 91750 22200 00139 11505 20703 300// 41503 70023 333 91211 555 11102 22108 31710 43211 61749 318096 319097 319096 320095 321090 321091
BBXX 46028 26181 99357 71219 46/// /3209 10118 40255 53018 91750 22200 00132 11606 20603 331// 41604 70028 333 91211 555 11097 22102 31705 43211 61749 318091 317087 321090 319093 320091 318084
BBXX 46025 26181 99337 71191 46/// /0902 10149 20093 40239 52019 91750 22200 00150 11302 20401 328// 41302 70010 333 91203 555 11017 22017 31701 40903 61749 092016 102016 107016 113016 093024 092020
BBXX 44025 26181 99402 70732 46/// /3110 10075 21011 40204 51011 91750 22200 00109 10503 20503 316// 40801 70013 333 91213 555 11110 22116 31741 43213 61749 314106 320101 318106 320099 325102 321106
BBXX 41008 26181 99314 70809 46/// /0509 10149 20087 40246 58015 91750 22200 00172 333 91212 555 11100 22105 31749 40412 61749 045095 045093 042095 046096 042095 040097
BBXX 41004 26181 99325 70791 46/// /0508 10142 20043 40256 58006 91750 22200 00216 10603 20603 3//// 40901 70016 333 91211 555 11088 22092 31705 40312 61749 051083 031084 039082 036085 037094 033093
BBXX 44009 26181 99385 70747 46/// /3212 10081 40247 51006 91750 22200 00112 10503 20503 70015 333 91215 555 11128 22135 31650 43215 61749 321118 321120 320120 323114 326118 318120
BBXX 44014 26181 99366 70748 46/// /3311 1//// 40246 51010 91750 22200 00138 10705 20705 70026 333 91214 555 11113 22113 31701 43415 61749 333111 329108 334112 332111 332120 337115
BBXX 44027 26181 99443 70673 46/// /3411 10015 21017 40137 53014 91750 22200 00079 10703 20402 3//// 40702 70015 333 91213 555 11112 22117 31742 43313 61749 336105 336090 334089 332096 333090 344084
BBXX 41013 26181 99334 70777 46/// /0209 10123 20033 40252 58005 91750 22200 00199 10603 20603 314// 41001 70015 333 91212 555 11099 22103 31742 40312 61749 024094 027092 025089 025086 026089 024094
BBXX 44065 26181 99404 70737 46/// /3311 10073 21018 40215 53012 91750 22200 00099 10403 20402 70013 333 91213 555 11112 22118 31710 43215 61749 325105 327115 333113 324117 330122 329119 83313 91702
BBXX 44040 26181 99410 70736 46/// /3408 10068 21032 40220 91745 22200 10301 70005 333 91211 555 11103 22118
BBXX 44020 26181 99414 70702 46/// /3412 10053 20007 40162 51022 91750 22200 00069 10402 20402 70011 333 91214 555 11124 22133 31659 42514 61749 326114 262116 262113 261111 260113 263115
BBXX 32012 26181 99197 50856 46/// ///// 1//// 91750 22200 11104 70019
BBXX 46002 26181 99426 71305 46/// ///// 10117 40226 57008 91750 22200 00120 11308 70038
BBXX 46006 26181 99408 71375 46/// /2113 10136 40171 53003 91750 22200 00121 11209 20907 3//// 41206 70047 333 91216 555 11139 22151 31654 42117 61749 210128 209127 212128 211129 213134 211135
BBXX 46084 26181 99566 71361 46/// ///// 10052 20046 49785 56053 91750 22200 00070 11215 70077
BBXX 46075 26181 99539 71608 46/// /3208 11026 21095 40043 58015 91750 22200 00043 11606 20604 300// 41604 70029 333 91211 555 11088 22092 31650 43112 61749 321085 307088 314083 320079 313073 306080 83010 91651
BBXX 46059 26181 99380 71300 46/// /2606 10128 40291 51008 91750 22200 00137 11407 20501 3//// 41407 70036 333 91208 555 11061 22064 31734 42708 61749 261059 258058 253053 248051 255048 245054
BBXX 46005 26181 99461 71310 46/// ///16 10101 40110 56031 91750 22200 00099 10909 20908 3//// 41105 70047 333 91219 555 11167 22178
BBXX 46080 26181 99580 71500 46/// /3117 11033 21043 49841 56034 91750 22200 00054 10707 20707 70035 333 91219 555 11176 22186 31728 42320 61749 308165 307162 306161 303157 307155 310157 83118 91730
BBXX WFLG 26184 99286 71391 41498 40909 10172 20125 40280 52022 70211 841// 22224 00178 20401 332// 40907 5//// 6//// 80144 ICE /////
BBXX WACW 26184 99383 71248 41397 43112 10120 2008/ 40300 5/010 7//00 8/2// 22232 00120 20202 3//// 4//// 5//// 6//// 80100 ICE /////
BBXX WBS5272 26184 99456 70842 41/98 62225 10066 2//// 40190 57002 70222 8//// 22232 0//// 20201 3//// 4//// 5//// 6//// 8//// ICE /////
BBXX WCAJ 26184 99417 71265 416// 71915 10100 20081 40230 54000 7//// 8/7// 22213 00100 20202 32919 40608 5//// 6//// 80090 ICE /////
BBXX WDC6698 26184 99126 71501 43/// /0924 1//// 2//// 40130 5//// 7//// 8//// 222// 04249 2//// 3//// 4//// 5//// 6//// 8//// ICE /////
BBXX WKAU 26184 99270 70905 41498 49900 10270 2021/ 40190 53005 70200 843/5 22272 00240 20301 309// 40301 5//// 6//// 80230 ICE /////
BBXX WZJC 26184 99226 70780 41398 40713 10250 2021/ 40185 57012 70211 842// 22233 00261 20402 3//// 4//// 5//// 6//// 80222 ICE /////
BBXX WAHV 26184 99131 10431 41898 20105 10250 2021/ 40158 51008 7//00 8219/ 22285 00261 2//// 3//// 4//// 5//// 6//// 80220 ICE /////
BBXX 9HJD9 26183 99465 50644 41697 63419 10150 2010/ 40190 54/// 7//// 86/4/ 22284 0//// 2//// 318// 4//// 5//// 6//// 80120 ICE /////
BBXX WHIA 26183 99059 11195 41398 20518 10270 2026/ 40086 57014 70200 8226/ 22273 0//// 20200 305// 40401 5//// 6//// 80260 ICE /////
BBXX ONFE 26184 99051 11065 41/97 80222 10235 2020/ 40135 54000 76162 8//// 22254 00260 2//// 3//// 4//// 5//// 6//// 80210 ICE /////
BBXX V7DI8 26183 99199 11214 43/95 /0733 10220 2019/ 40225 54000 7//// 8//// 22200 00270 2//// 3//// 4//// 5//// 6//// 80200 ICE /////
BBXX SHIP 26183 99042 31258 41/97 23305 10280 2025/ 40095 58005 70200 82/// 22244 00296 2//// 3//// 4//// 5//// 6//// 80260 ICE /////
BBXX ONCE 26184 99049 31076 41497 83314 10270 2024/ 40120 5//// 70298 887// 22214 00295 2//// 3//// 4//// 5//// 6//// 80250 ICE /////
BBXX LAVX4 26184 99438 70322 41397 73428 10115 2011/ 40100 57001 70322 86441 22213 0//// 20809 327// 40808 5//// 6//// 80105
BBXX WZP8164 26184 99430 70877 43/// /2128 10044 2//// 40193 5//// 7//// 8//// 22243 0//// 2//04 3//// 4//// 5//// 6//// 8//// ICE /////
BBXX WZJC 26184 99226 70780 41398 40713 10250 2021/ 40185 57012 70211 842// 22233 00261 20402 3//// 4//// 5//// 6//// 80222 ICE /////
BBXX SHIP 26184 99438 71356 41396 81928 10125 20117 40129 56040 75355 885// 22273 00113 20708 326// 40911 80120
BBXX WCAJ 26184 99417 71265 416// 71915 10100 20081 40230 54000 7//// 8/7// 22213 00100 20202 32919 40608 5//// 6//// 80090 ICE /////
BBXX WKAU 26184 99270 70905 41498 49900 10270 2021/ 40190 53005 70200 843/5 22272 00240 20301 309// 40301 5//// 6//// 80230 ICE /////
BBXX WACW 26184 99383 71248 41397 43112 10120 2008/ 40300 5/010 7//00 8/2// 22232 00120 20202 3//// 4//// 5//// 6//// 80100 ICE /////
BBXX 44060 26181 99413 70721 46/// ///09 10062 40190 91745 22200 00099 333 91212 555 11103 22108
BBXX 46114 26181 99364 71222 46/// ///// 1//// 91734 22200 00124 11506 21003 329// 41505 70030
BBXX 44022 26181 99409 70737 46/// ///09 10064 21033 40214 91745 22200 00084 333 91213 555 11103 22108
BBXX 46088 26181 99483 71232 46/// /1405 10057 40244 56006 91750 22200 00078 10301 20301 70004 333 91206 555 11052 22054 31650 41206 61749 139050 131052 130049 131044 124045 127051
BBXX 46060 26181 99606 71468 46/// /0308 10006 49838 56065 91750 22200 00052 10401 20401 70007 333 91210 555 11086 22090 31653 40310 61749 025082 022081 024083 018083 019082 022085 80309 91654
BBXX 41114 26181 99276 70802 46/// ///// 1//// 91746 22200 00246 11002 21002 70008
BBXX 44097 26181 99410 70711 46/// ///// 1//// 91732 22200 00118 10504 20504 70020
BBXX 44098 26181 99428 70702 46/// ///// 1//// 91737 22200 00085 10402 20402 70011
BBXX 46211 26181 99469 71242 46/// ///// 1//// 91736 22200 00081 11408 21004 327// 41406 70038
BBXX 46218 26181 99345 71208 46/// ///// 1//// 91732 22200 00138 11505 20704 329// 41504 70027
BBXX 46212 26181 99408 71243 46/// ///// 1//// 91742 22200 00098 11306 20903 329// 41305 70031
BBXX 46240 26181 99366 71219 46/// ///// 1//// 91742 22200 00122 11402 21001 335// 41402 70012
BBXX 46237 26181 99378 71226 46/// ///// 1//// 91740 22200 00108 11705 21002 326// 41704 70024
BBXX 41115 26181 99184 70673 46/// ///// 1//// 91735 22200 10702 20702 70008
BBXX 46249 26181 99338 71197 46/// ///// 1//// 91740 22200 00144 11502 21001 323// 41502 70010
BBXX 46244 26181 99409 71244 46/// ///// 1//// 91735 22200 00098 11507 20904 329// 41506 70035
BBXX 46248 26181 99461 71247 46/// ///// 1//// 91734 22200 00097 11409 21004 328// 41407 70043
BBXX WSLH 26184 99385 71237 41497 83213 10111 2004/ 40280 52020 70322 8864/ 22234 00078 20101 332// 40802 5//// 6//// 80078 ICE /////
BBXX DMDZ 26183 99243 70838 41297 81012 10232 20215 40210 54000 76122 847// 22283 00260 2//// 3//// 4//// 5//// 80220
BBXX 4XIS 26183 99299 71275 43498 40415 10170 2014/ 40280 54000 83121 22224 20403 335// 40804 80150
BBXX LAIG7 26184 99309 71589 41898 62315 10210 2018/ 40250 50010 70211 8688/ 22223 00218 20601 317// 41502 5//// 6//// 80190 ICE /////
BBXX WBWK 26183 99327 71240 41697 80217 10156 2012/ 40288 52021 7//21 864// 22252 0//// 20303 332// 40506 5//// 6//// 80139 ICE 0/0//
BBXX WFLG 26184 99286 71391 41498 40909 10172 20125 40280 52022 70211 841// 22224 00178 20401 332// 40907 5//// 6//// 80144 ICE /////
BBXX 42364 26181 99291 70881 46/// /1008 10217 20189 40210 91745
BBXX BAREU05 26184 99467 70567 46/// ///// 40170 52004 22224
AAXX 26181 76040 32960 02901 10135 20028 30249 40264 52012 91740 333 10200 20040 30/// 59031 98660
AAXX 26181 76055 32980 00903 10178 21013 30226 40245 52015 91740 333 10214 20071 30/// 58///
AAXX 26181 76113 32980 02401 10134 21037 39754 40123 52005 91745 333 10142 20026 30/// 58017
AAXX 26181 76122 32980 00902 10038 21052 38625 40353 57004 91750 333 10045 21072 31/// 58002
AAXX 26181 76256 32980 00402 10199 20049 30208 40222 52008 91745 333 10209 20078 30/// 58017
AAXX 26181 76305 32970 33404 10210 20023 30210 40218 52014 80005 91750 333 10215 20140 30/// 56004 58022 83070
AAXX 26181 76323 32970 00201 10088 21052 38345 40396 52002 91740 333 10088 21074 30/// 59018
AAXX 26181 76342 32962 00902 10132 20021 39566 40303 57003 91750 333 10136 20042 30/// 59051
AAXX 26181 76382 32980 01802 10120 20016 38975 40282 57007 91753 333 10126 20010 30/// 59034
AAXX 26181 76390 31868 12404 10094 20005 38260 40265 57001 70544 81050 91730 333 10106 21024 30/// 56070 59020 81356
AAXX 26181 76402 31958 40000 10202 20046 30149 40208 52014 70544 80006 91745 333 10202 20036 30/// 56005 58017
AAXX 26181 76423 32580 41201 10118 21029 38179 40242 57008 81204 91740 333 10118 21022 30/// 56505 59021 81830 83067
AAXX 26181 76458 32970 22404 10198 20154 30164 40169 50001 80004 91740 333 10234 20114 30/// 58007 82072
AAXX 26181 76491 32960 23401 10144 20065 39872 40276 57016 80004 91745 333 10148 20090 30/// 56009 59041
AAXX 26181 76499 31860 60000 10168 20067 30230 40252 57019 70122 86070 91745 333 10170 20117 30/// 56090 58023 86357
AAXX 26181 76525 32780 72012 10114 20039 37496 40177 57001 83036 91740 333 10114 20070 30/// 56/55 58001 83356 84080
AAXX 26181 76539 32970 03601 10148 20084 38191 40233 57002 91750 333 10260 20052 30/// 59013
AAXX 26181 76543 32675 70302 10190 20078 30236 40269 58013 8155/ 91745 333 10190 20128 30/// 59030 81650 86358
AAXX 26181 76548 32875 82102 10168 20073 30259 40269 58008 8805/ 91735 333 10170 20134 30/// 5603/ 59027 88357
AAXX 26181 76556 32970 60000 10252 20134 39146 40175 51007 80006 91735 333 10260 20139 30/// 56003 58018 86070
AAXX 26181 76571 32975 42102 10210 20061 38198 40235 56004 80004 91748 333 10214 20042 30/// 56005 59001
AAXX 26181 76577 32570 83604 10197 20152 38073 40201 58004 81106 91740 333 10205 20080 30/// 56505 58001 81826 87081
AAXX 26181 76581 32970 72502 10153 20093 39109 40249 57012 87020 91750 333 10160 20062 30/// 56032 59016 87460
AAXX 26181 76585 32680 43001 10150 20119 30093 40254 58012 82270 91735 333 10165 20109 30/// 5628/ 58032 82833
AAXX 26181 76593 32370 43604 10270 20251 30186 40188 58014 82230 91750 333 10315 20216 30/// 5688/ 59011 82820 82330 91005 91536
AAXX 26181 76612 32962 41901 10222 20082 38506 40197 50000 80005 91750 333 10228 20075 30/// 56006 58/// 84272
AAXX 26181 76632 31665 22403 10180 20071 37658 40160 57005 70500 82400 91740 333 10186 20086 30/// 56300 58/// 59/// 82645 98565
AAXX 26181 76647 32670 30502 10312 20208 30168 40198 58007 83200 91750 333 10315 20202 30/// 56200 59005 82842
AAXX 26181 76656 32975 80000 10225 20086 38536 40203 54000 80007 91750 333 10232 20062 30/// 56005 58/// 88280
AAXX 26181 76658 31960 53203 10301 20157 39651 40157 57008 70542 80006 91749 333 10308 20170 30/// 56001 58038 85070 98934
AAXX 26181 76662 32670 13002 10220 20090 38543 40210 52003 81300 91714 333 10230 20070 30/// 56/// 58014 81833
AAXX 26181 76675 32581 10502 10185 20010 37403 40232 569005 81200 91749 333 10193 21013 30/// 569// 59001 81826
AAXX 26181 76680 31957 00501 10192 20042 37783 40133 57006 70500 91755 333 10197 20090 30/// 59006
AAXX 26181 76681 31970 01801 10200 20072 37810 40222 57005 70500 91745 333 10200 20030 30/// 58005
AAXX 26181 76683 32670 12701 10184 20093 37855 40226 56011 81100 91745 333 10195 20040 30/// 56200 59006 81840 94010 94182
AAXX 26181 76685 32970 03601 10196 20059 37897 40184 57003 91745 333 10198 20078 30/// 59003
AAXX 26181 76687 11/01 91101 10141 20125 38728 40240 58003 69911 74554 89/// 91738 333 10160 20105 31/// 59004
AAXX 26181 76692 31556 83608 10210 20149 30219 40239 58001 70222 8655/ 91745 333 10210 20180 30/// 5688/ 58002 86622 91536 91110
AAXX 26181 76695 32560 30602 10298 20223 30169 40175 52014 83200 91750 333 10300 20200 30/// 561// 59009 83825
AAXX 26181 76698 32560 60401 10279 20231 30179 40191 57011 86200 91750 333 10299 20199 31/// 56200 59012 86820
AAXX 26181 76737 31465 73401 10174 20144 38820 40215 58006 70322 876// 91735 333 10190 20134 30/// 562// 59010 87710 91105 91514
AAXX 26181 76743 31356 83202 10239 20219 30194 40202 57004 70211 885// 91745 333 10305 20223 30/// 567// 88608
AAXX 26181 76750 01560 42702 10286 20227 30172 40182 57015 60021 75152 84200 91750 333 10297 20211 31/// 56100 59005 60017 84820
AAXX 26181 76762 32904 03602 10272 20222 38785 40168 58009 91743 333 10275 20134 30/// 58003 91204
AAXX 26181 76773 32570 12501 10234 20143 38450 40181 57012 81100 91748 333 10237 20071 30/// 56900 59001 81820
AAXX 26181 76775 31570 22302 10233 20090 38560 40214 52013 70300 82100 91745 333 10238 20082 30/// 56800 58004 81627 81824
AAXX 26181 76833 32970 03614 10302 20178 30151 40153 57003 91745 333 10302 20244 30/// 58014 92033
AAXX 26181 76840 32560 10207 10280 20190 30094 40150 57005 81100 91740 333 10288 20195 30/// 58/// 81827 91221 91502 90417
AAXX 26181 76843 32565 60805 10219 20160 39534 40181 56013 84630 91745 333 10236 20192 30/// 567// 58009 84820
AAXX 26181 76845 32460 60503 10155 20117 37975 40203 56008 86700 91747 333 10174 20090 30/// 56200 59003 84717 82713
AAXX 26181 76848 32470 70501 10178 20131 38411 40134 58005 87700 91850 333 10188 20134 30/// 56100 58000 87619
AAXX 26181 76855 32580 11301 10304 20224 30082 40131 56004 81200 91745 333 10324 20214 30/// 56900 58009 81820 92000
AAXX 26181 76160 32962 00202 10170 21029 39979 40231 52009 91730 333 10170 20095 30/// 58024
AAXX 26181 76243 32974 01903 10114 20029 39959 40266 57001 91730 333 10122 20018 30/// 59068
AAXX 26181 76311 32980 00000 10210 20028 39917 40206 50013 91745 333 10214 20038 30/// 58021
AAXX 26181 76405 32980 63605 10213 20130 30184 40204 50012 80001 91750 333 10213 20127 30/// 56005 58013 86270
AAXX 26181 76640 31458 73203 10160 20132 30265 40277 57008 70222 8452/ 91740 333 10170 20126 30/// 5689/ 59028 84612 83440
AAXX 26181 76741 31465 63209 10224 20193 30179 40198 58002 70733 83230 91735 333 10249 20190 30/// 5677/ 58001 83813 83398 91112 91532
AAXX 26184 78774 32970 20820 10320 20152 39997 40090 58021 80004 333 10325 20226 30/// 56002 59017 82075
AAXX 26181 76040 32960 02901 10135 20028 30249 40264 52012 91740 33310200 20040 30/// 59031 98660
AAXX 26181 76055 32980 00903 10178 21013 30226 40245 52015 91740 33310214 20071 30/// 58///
AAXX 26181 76113 32980 02401 10134 21037 39754 40123 52005 91745 33310142 20026 30/// 58017
AAXX 26181 76122 32980 00902 10038 21052 38625 40353 57004 91750 33310045 21072 31/// 58002
AAXX 26181 76256 32980 00402 10199 20049 30208 40222 52008 91745 33310209 20078 30/// 58017
AAXX 26181 76305 32970 33404 10210 20023 30210 40218 52014 80005 91750333 10215 20140 30/// 56004 58022 83070
AAXX 26181 76323 32970 00201 10088 21052 38345 40396 52002 91740 33310088 21074 30/// 59018
AAXX 26181 76342 32962 00902 10132 20021 39566 40303 57003 91750 33310136 20042 30/// 59051
AAXX 26181 76382 32980 01802 10120 20016 38975 40282 57007 91753 33310126 20010 30/// 59034
AAXX 26181 76390 31868 12404 10094 20005 38260 40265 57001 70544 8105091730 333 10106 21024 30/// 56070 59020 81356
AAXX 26181 76402 31958 40000 10202 20046 30149 40208 52014 70544 8000691745 333 10202 20036 30/// 56005 58017
AAXX 26181 76423 32580 41201 10118 21029 38179 40242 57008 81204 91740333 10118 21022 30/// 56505 59021 81830 83067
AAXX 26181 76458 32970 22404 10198 20154 30164 40169 50001 80004 91740333 10234 20114 30/// 58007 82072
AAXX 26181 76491 32960 23401 10144 20065 39872 40276 57016 80004 91745333 10148 20090 30/// 56009 59041
AAXX 26181 76499 31860 60000 10168 20067 30230 40252 57019 70122 8607091745 333 10170 20117 30/// 56090 58023 86357
AAXX 26181 76525 32780 72012 10114 20039 37496 40177 57001 83036 91740333 10114 20070 30/// 56/55 58001 83356 84080
AAXX 26181 76539 32970 03601 10148 20084 38191 40233 57002 91750 33310260 20052 30/// 59013
AAXX 26181 76543 32675 70302 10190 20078 30236 40269 58013 8155/ 91745333 10190 20128 30/// 59030 81650 86358
AAXX 26181 76548 32875 82102 10168 20073 30259 40269 58008 8805/ 91735333 10170 20134 30/// 5603/ 59027 88357
AAXX 26181 76556 32970 60000 10252 20134 39146 40175 51007 80006 91735333 10260 20139 30/// 56003 58018 86070
AAXX 26181 76571 32975 42102 10210 20061 38198 40235 56004 80004 91748333 10214 20042 30/// 56005 59001
AAXX 26181 76577 32570 83604 10197 20152 38073 40201 58004 81106 91740333 10205 20080 30/// 56505 58001 81826 87081
AAXX 26181 76581 32970 72502 10153 20093 39109 40249 57012 87020 91750333 10160 20062 30/// 56032 59016 87460
AAXX 26181 76585 32680 43001 10150 20119 30093 40254 58012 82270 91735333 10165 20109 30/// 5628/ 58032 82833
AAXX 26181 76593 32370 43604 10270 20251 30186 40188 58014 82230 91750333 10315 20216 30/// 5688/ 59011 82820 82330 91005 91536
AAXX 26181 76612 32962 41901 10222 20082 38506 40197 50000 80005 91750333 10228 20075 30/// 56006 58/// 84272
AAXX 26181 76632 31665 22403 10180 20071 37658 40160 57005 70500 8240091740 333 10186 20086 30/// 56300 58/// 59/// 82645 98565
AAXX 26181 76647 32670 30502 10312 20208 30168 40198 58007 83200 91750333 10315 20202 30/// 56200 59005 82842
AAXX 26181 76656 32975 80000 10225 20086 38536 40203 54000 80007 91750333 10232 20062 30/// 56005 58/// 88280
AAXX 26181 76658 31960 53203 10301 20157 39651 40157 57008 70542 8000691749 333 10308 20170 30/// 56001 58038 85070 98934
AAXX 26181 76662 32670 13002 10220 20090 38543 40210 52003 81300 91714333 10230 20070 30/// 56/// 58014 81833
AAXX 26181 76675 32581 10502 10185 20010 37403 40232 569005 81200 91749 333 10193 21013 30/// 569// 59001 81826
AAXX 26181 76680 31957 00501 10192 20042 37783 40133 57006 70500 91755333 10197 20090 30/// 59006
AAXX 26181 76681 31970 01801 10200 20072 37810 40222 57005 70500 91745333 10200 20030 30/// 58005
AAXX 26181 76683 32670 12701 10184 20093 37855 40226 56011 81100 91745333 10195 20040 30/// 56200 59006 81840 94010 94182
AAXX 26181 76685 32970 03601 10196 20059 37897 40184 57003 91745 33310198 20078 30/// 59003
AAXX 26181 76687 11/01 91101 10141 20125 38728 40240 58003 69911 7455489/// 91738 333 10160 20105 31/// 59004
AAXX 26181 76692 31556 83608 10210 20149 30219 40239 58001 70222 8655/91745 333 10210 20180 30/// 5688/ 58002 86622 91536 91110
AAXX 26181 76695 32560 30602 10298 20223 30169 40175 52014 83200 91750333 10300 20200 30/// 561// 59009 83825
AAXX 26181 76698 32560 60401 10279 20231 30179 40191 57011 86200 91750333 10299 20199 31/// 56200 59012 86820
AAXX 26181 76737 31465 73401 10174 20144 38820 40215 58006 70322 876//91735 333 10190 20134 30/// 562// 59010 87710 91105 91514
AAXX 26181 76743 31356 83202 10239 20219 30194 40202 57004 70211 885//91745 333 10305 20223 30/// 567// 88608
AAXX 26181 76750 01560 42702 10286 20227 30172 40182 57015 60021 7515284200 91750 333 10297 20211 31/// 56100 59005 60017 84820
AAXX 26181 76762 32904 03602 10272 20222 38785 40168 58009 91743 33310275 20134 30/// 58003 91204
AAXX 26181 76773 32570 12501 10234 20143 38450 40181 57012 81100 91748333 10237 20071 30/// 56900 59001 81820
AAXX 26181 76775 31570 22302 10233 20090 38560 40214 52013 70300 8210091745 333 10238 20082 30/// 56800 58004 81627 81824
AAXX 26181 76833 32970 03614 10302 20178 30151 40153 57003 91745 33310302 20244 30/// 58014 92033
AAXX 26181 76840 32560 10207 10280 20190 30094 40150 57005 81100 91740333 10288 20195 30/// 58/// 81827 91221 91502 90417
AAXX 26181 76843 32565 60805 10219 20160 39534 40181 56013 84630 91745333 10236 20192 30/// 567// 58009 84820
AAXX 26181 76845 32460 60503 10155 20117 37975 40203 56008 86700 91747333 10174 20090 30/// 56200 59003 84717 82713
AAXX 26181 76848 32470 70501 10178 20131 38411 40134 58005 87700 91850333 10188 20134 30/// 56100 58000 87619
AAXX 26181 76855 32580 11301 10304 20224 30082 40131 56004 81200 91745333 10324 20214 30/// 56900 58009 81820 92000
AAXX 26181 76160 32962 00202 10170 21029 39979 40231 52009 91730 33310170 20095 30/// 58024
AAXX 26181 76243 32974 01903 10114 20029 39959 40266 57001 91730 33310122 20018 30/// 59068
AAXX 26181 76311 32980 00000 10210 20028 39917 40206 50013 91745 33310214 20038 30/// 58021
AAXX 26181 76405 32980 63605 10213 20130 30184 40204 50012 80001 91750333 10213 20127 30/// 56005 58013 86270
AAXX 26181 76640 31458 73203 10160 20132 30265 40277 57008 70222 8452/91740 333 10170 20126 30/// 5689/ 59028 84612 83440
AAXX 26181 76741 31465 63209 10224 20193 30179 40198 58002 70733 8323091735 333 10249 20190 30/// 5677/ 58001 83813 83398 9111291532
AAXX 26184 78767 31565 80205 10255 20188 30140 40150 56010 70522 82570 333 10267 20192 30/// 56000 58000 82630 86360
AAXX 26184 78767 31565 80205 10255 20188 30140 40150 56010 70522 82570 333 10267 20192 30/// 56000 58000 82630 86360
AAXX 26184 78774 32970 20820 10320 20152 39997 40090 58021 80004 333 10325 20226 30/// 56002 59017 82075
AAXX 26184 78774 32970 20820 10320 20152 39997 40090 58021 80004 333 10325 20226 30/// 56002 59017 82075
AAXX 26184 78767 31565 80205 10255 20188 30140 40150 56010 70522 82570 333 10267 20192 30/// 56000 58000 82630 86360
BBXX 46002 26181 99426 71305 46/// ///// 10117 40226 57008 91750 22200 00120 11308 70038
BBXX 46005 26181 99461 71310 46/// ///16 10101 40110 56031 91750 22200 00099 10909 20908 3//// 41105 70047 333 91219 555 11167 22178
BBXX 46006 26181 99408 71375 46/// /2113 10136 40171 53003 91750 22200 00121 11209 20907 3//// 41206 70047 333 91216 555 11139 22151 31654 42117 61749 210128 209127 212128 211129 213134 211135
BBXX 46012 26181 99374 71229 46/// /3204 10106 40272 51014 91750 22200 00124 11606 20301 328// 41606 70028 333 91205 555 11039 22041 31732 43107 61749 321039 322053 315047 320044 317044 318049
BBXX 46014 26181 99394 71240 46/// /3103 10096 40286 53025 91750 22200 00107 11606 20401 3//// 41606 70029 333 91204 555 11030 22031 31738 43105 61749 311029 307025 319014 317019 027006 081009
BBXX 46028 26181 99357 71219 46/// /3209 10118 40255 53018 91750 22200 00132 11606 20603 331// 41604 70028 333 91211 555 11097 22102 31705 43211 61749 318091 317087 321090 319093 320091 318084
BBXX 46029 26181 99461 71245 46/// /1707 10083 20048 40249 56007 91750 22200 00093 11407 20602 330// 41407 70037 333 91209 555 11074 22078 31654 41610 61749 165070 167070 169078 166078 164075 167078
BBXX SHIP 26184 99438 71356 41396 81928 10125 20117 40129 56040 75355 885// 22273 00113 20708 326// 40911 80120
BBXX WACW 26184 99383 71248 41397 43112 10120 20080 40300 5/010 7//00 8/2// 22232 00120 20202 3//// 4//// 5//// 6//// 80100 ICE /////
BBXX WBWK 26183 99327 71240 41697 80217 10156 20120 40288 52021 7//21 864// 22252 0//// 20303 332// 40506 5//// 6//// 80139 ICE 0/0//
BBXX WCAJ 26184 99417 71265 416// 71915 10100 20081 40230 54000 7//// 8/7// 22213 00100 20202 32919 40608 5//// 6//// 80090 ICE /////
BBXX WSLH 26184 99385 71237 41497 83213 10111 20040 40280 52020 70322 8864/ 22234 00078 20101 332// 40802 5//// 6//// 80078 ICE /////
AAXX 26184 81405 02565 51006 10278 20246 30104 40113 69901 84831 333 69907 59006 83820 84640 555 69905
AAXX 26184 81405 02565 51006 10278 20246 30104 40113 69901 84831 333 69907 59006 83820 84640 555 69905
BBXX VCXF 26184 99464 70484 41598 32603 11002 2106/ 40207 57010 70200 83100 22200 02018 20201 333// 40805 81022
BBXX VCXF 26184 99464 70484 41598 32603 11002 2106/ 40207 57010 70200 83100 22200 02018 20201 333// 40805 81022
BBXX DBFR 261:1 99535 10086 46/// /2405 10108 20100 40309 52/09 22230 02054
BBXX DBBU 26181 99542 10119 46/// /2412 10107 20098 40280 54000 22220 00060
BBXX DBFH 26181 99/// /-/// 46/// ///// 10113 20293 40311 52009 22220 00054
BBXX DBJM 26181 99540 10085 46/////2313 10085 20075 40303 52015 22222 00054
BBXX 41101 26184 99146 70562 46/// /0613 10260 20216 40136 57018 22200 00270 10603 70016
BBXX DBBA 26181 99541 10121 46/// /2506 10114 20090 40284 52002 22220 00059
BBXX DBCK 26181 99/// ///// 46/// ///// 10111 20111 40308 52009 22220 00056
BBXX 61001 26184 99434 10078 46/// /0209 10139 20052 40334 57004 22200 00141 10501 70007
BBXX DBKR 26181 99541 10121 46/// -2405 10110 20109 40284 52003 22200 00053
BBXX DBEB /6181 99538 10082 41/// //413 10091/20091 40298 52/11 7//// 20221 00054
BBXX DBBA 26181 99535 10100 46/// /2506 10110 2//// 40305 52006 22210 00054
AAXX 26183 91487 NIL
AAXX 26183 91490 NIL
AAXX 26183 91533 NIL
AAXX 26183 91601 NIL
AAXX 26183 91610 11499 70807 10269 20234 40085 53008 60001 70301 82208 333 562/9
AAXX 26183 91623 NIL
AAXX 26183 91629 NIL
AAXX 26183 91701 NIL
AAXX 26183 91487 NIL
AAXX 26183 91490 NIL
AAXX 26183 91533 NIL
AAXX 26183 91601 NIL
AAXX 26183 91610 11499 70807 10269 20234 40085 53008 60001 70301 82208 333 562/9
AAXX 26183 91623 NIL
AAXX 26183 91629 NIL
AAXX 26183 91701 NIL
AAXX 26184 41170 41956 03209 10200 20160 30185 40198 70600 333 10243 58023
AAXX 26184 78700 NIL
AAXX 26184 78703 31460 72406 10262 20225 30173 40175 58010 71544 85210 333 10268 20215 30//7 56200 59004 85817 85358
AAXX 26184 78704 11568 73104 10263 20217 30142 40147 57012 69971 70554 84270 333 10269 20196 30/// 56700 58005 83824 86458
AAXX 26184 78705 31570 70505 10259 20213 30162 40180 58012 70544 82170 333 10271 20187 30/// 58001 82824 87358
AAXX 26184 78706 31560 43604 10289 20240 30144 40149 57011 70544 84200 333 10289 20202 30/// 56200 59004 84824
AAXX 26184 78707 NIL
AAXX 26184 78708 31565 73504 10273 20232 30144 40174 58017 70544 83160 333 10273 20220 30/// 56880 58000 83830 85358
AAXX 26184 78711 NIL
AAXX 26184 78714 32575 71802 10264 20195 84220 333 10264 20188 30/// 56440 84828 87457
AAXX 26184 78717 31560 60608 10212 20149 38984 40170 57015 70544 86100 333 10212 20152 30/// 56100 59002 86825
AAXX 26184 78718 31660 13612 10266 70544 81400 333 10270 20194 30/// 56800 81840
AAXX 26184 78719 32570 20614 10186 20122 38371 40147 56013 82100 333 10186 20130 30/// 56100 59005 82824
AAXX 26184 78720 31565 63626 10246 20159 39053 40130 58017 70544 85130 333 10246 20168 30//7 56200 59006 85830
AAXX 26184 78724 32578 30422 10330 20177 30063 40120 58016 83100 333 10330 20257 30/// 56100 58009 83834
AAXX 26184 89009 42761 71210 11249 36873 55000 80006 333 87256
AAXX 26184 96315 41260 71602 10251 20250 40085 60023 71062 81848 333 81703 85080
AAXX 26184 96323 NIL
AAXX 26184 89009 42761 71210 11249 36873 55000 80006 333 87256
AAXX 26184 78954 11456 70610 10246 20218 30078 40143 69901 78082 878// 333 10279 20230 58008 83816 87634 90914
AAXX 26184 91334 11474 80710 10269 20240 30069 40072 57017 60051 70282 82371 333 56299 70071 555 92618
AAXX 26184 78954 11456 70610 10246 20218 30078 40143 69901 78082 878// 333 10279 20230 58008 83816 87634 90914
AAXX 26184 86011 32670 43508 10340 20187 39977 40132 57027 84800 333 84840
AAXX 26184 86033 32670 40903 10340 20207 30037 40130 57016 84200 333 84834
AAXX 26184 86065 32670 52704 10330 20177 39900 40131 57025 85100 333 85840
AAXX 26184 86068 NIL
AAXX 26184 86086 32570 30902 10330 20153 30047 40135 57020 83100 333 83833
AAXX 26184 86097 32670 41803 10304 20190 39501 40130 57022 84200 333 84840
AAXX 26184 86128 32570 51305 10314 20220 30032 40142 57027 85100 333 85630
AAXX 26184 86134 32570 42504 10322 20199 30047 40131 57024 84800 333 84833
AAXX 26184 86170 32670 42704 10332 20195 30015 40125 57026 84100 333 84840
AAXX 26184 86185 32570 50000 10318 20232 30045 40136 57023 85500 333 85627
AAXX 26184 86192 32570 42704 10334 20210 39921 40133 57018 84200 333 84820
AAXX 26184 86210 32670 60908 10298 20195 39786 40120 57018 86200 333 86840
AAXX 26184 86218 32570 63407 10318 20201 30036 40130 57024 86200 333 86833
AAXX 26184 86221 32570 60000 10304 20227 30021 40153 57013 86800 333 86825
AAXX 26184 86233 32570 60505 10300 20227 39946 40132 57017 86800 333 86620
AAXX 26184 86234 01570 60705 10280 20238 39907 40088 58013 60041 70262 85450 333 60047 85625 83357
AAXX 26184 86246 32570 40506 10294 20228 39855 40135 58018 83850 333 83830 84358
AAXX 26184 86251 32470 80000 10304 20211 39955 40119 57014 885// 333 88627
AAXX 26184 86255 32670 40000 10302 20211 30070 40136 57018 84200 333 84640
AAXX 26184 86260 32470 40000 10294 20216 39982 40131 56013 84400 333 84613
AAXX 26184 86268 32570 60602 10324 20215 39976 40136 56005 86200 333 86840
AAXX 26184 86285 32670 60508 10300 20227 39860 40136 58016 86200 333 86840
AAXX 26184 86297 32570 63602 10310 20238 39984 40085 57028 86500 333 86620
AAXX 26184 85406 12970 02112 10233 20167 40116 58021 60001
AAXX 26184 85418 12565 52409 10229 20164 40135 57017 60001 83501 333 56000 83622
AAXX 26184 85432 12970 52524 10268 20083 37746 48393 57017 60001 83202 333 56606 83858 84072
AAXX 26184 85442 12470 41811 10221 20157 40124 57018 60001 84500 333 56400 81611 83620
AAXX 26184 85488 12462 52912 10209 20135 40134 58011 60001 82504 333 56007 81610 85075
AAXX 26184 85574 12960 61812 10315 20063 39574 40095 57015 60001 82039 333 56066 82368 85170
AAXX 26184 85577 12960 61904 10315 20075 39527 40101 57014 60001 84031 333 56066 84366
AAXX 26184 85585 12498 71917 10182 20149 40185 58004 60001 87600 333 56400 83715 84616
AAXX 26184 85586 12960 52711 10196 20125 40155 57011 60001 80001 333 56006 87075
AAXX 26184 85672 12980 01808 10322 20132 40121 58019 60001 333
AAXX 26184 85682 12960 00406 10199 20141 40153 58009 60001
AAXX 26184 85743 12960 09906 10274 20128 40156 58014 60001
AAXX 26184 85782 12560 11813 10242 20144 40191 57010 60001 81100 333 56000 81830
AAXX 26184 85799 42980 01312 10189 20150 40201 58004 60001 70222
AAXX 26184 85832 12780 23105 10262 20089 40158 56011 60001 82201 333 56600 82850
AAXX 26184 85836 12960 02309 10272 20102 40208 57012 60001
AAXX 26184 85864 12680 12605 10247 20100 40173 56001 60001 81100 333 56600 81836
AAXX 26184 85874 12682 22914 10238 20092 39563 40157 57003 60001 82200 333 56600 82840
AAXX 26184 85886 12670 13317 10262 20183 40157 56014 60001 81200 333 56600 81840
AAXX 26184 85934 12580 72522 10153 20019 40165 52008 60001 83131 333 56556 83820 83070
AAXX 26184 85968 12660 82820 10104 20056 40099 52007 60001 884// 333 56699 88643
AAXX 26184 89056 11/03 93308 10013 20010 49869 57013 60003 74544 333 89/01
AAXX 26184 89057 11340 82609 10014 21020 49870 57010 60023 76822 8672/ 333 56669 86707 88520
AAXX 26184 89058 11415 83210 10017 20011 39853 49874 57015 60011 76074 8272/
AAXX 26184 89059 12460 81905 10007 21003 49855 57014 60003 886// 333 74099 88713
AAXX 26184 89251 11112 83217 10014 20009 49861 57015 76062 8672/
AAXX 26184 91334 11474 80710 10269 20240 30069 40072 57017 60051 70282 82371 333 56299 70071 555 92618
AAXX 26184 85467 12980 02409 10234 20122 40134 58013 60001
AAXX 26184 08594 32465 70412 10232 20177 40168 8387/ 333 10250 58017 82614 87359
AAXX 26184 08589 31459 70318 10238 20166 40161 70622 8153/ 333 10265 58017 81615 87360
AAXX 26184 08583 32562 80615 10230 20155 40178 81576 333 10267 58010 81624 85459 85270
BBXX BAREU62 26184 99364 10225 46/// ///// 40291 57004 22264
BBXX BAREU11 26184 99492 70100 46/// ///// 40316 52014 22224
BBXX BATFR13 26184 99468 70038 46/// /1013 10109 20064 40360 55003 22264 00140
BBXX BATFR03 26184 99505 70011 46/// /2421 10100 20057 40361 58005 22213
BBXX BATFR53 26184 99188 51535 46/// /0212 10274 20217 40142 51013 22222 00282
AAXX 26184 97180 01458 70805 10244 20244 30069 70262 40087 58022 60021 70262 822 72 333 56000 60027 82819 84359
AAXX 26184 78583 11575 40403 10280 20216 40181 69901 70184 84800 333 01100 59002 84821
AAXX 26184 41858 31920 00000 10153 20140 30103 40151 71000 333 58003 70000
AAXX 26184 41863 31950 02701 10138 20130 30103 40148 70500 333 58005 70000
AAXX 26184 41886 NIL
AAXX 26184 41895 32950 03602 10159 20140 30125 40148 333 58006 70000
AAXX 26184 41909 31930 00000 10133 20120 30123 40135 70540 333 58009 70000
AAXX 26184 41915 NIL
AAXX 26184 41926 NIL
AAXX 26184 41929 NIL
AAXX 26184 41933 NIL
AAXX 26184 41939 31920 00000 10140 20130 40153 71044 333 58008 70000
AAXX 26184 41941 NIL
AAXX 26184 41946 31940 00000 10144 20130 30142 40146 70500 333 58005 70000
AAXX 26184 41947 NIL
AAXX 26184 41951 NIL
AAXX 26184 41953 NIL
AAXX 26184 41958 31940 00000 10160 20140 30130 40132 70500 333 58000 70000
AAXX 26184 41960 NIL
AAXX 26184 41963 NIL
AAXX 26184 41964 NIL
AAXX 26184 41965 NIL
AAXX 26184 41966 NIL
AAXX 26184 41984 NIL
AAXX 26184 41989 NIL
AAXX 26184 41998 NIL
AAXX 26184 85406 12970 02112 10233 20167 40116 58021 60001
AAXX 26184 85418 12565 52409 10229 20164 40135 57017 60001 83501 333 56000 83622
AAXX 26184 85432 12970 52524 10268 20083 37746 48393 57017 60001 83202 333 56606 83858 84072
AAXX 26184 85442 12470 41811 10221 20157 40124 57018 60001 84500 333 56400 81611 83620
AAXX 26184 85488 12462 52912 10209 20135 40134 58011 60001 82504 333 56007 81610 85075
AAXX 26184 78925 11465 71106 10240 20230 40149 57020 60061 72586 878// 333 10289 20238 59006 81816 83823 85830
AAXX 26184 78925 11465 71106 10240 20230 40149 57020 60061 72586 878// 333 10289 20238 59006 81816 83823 85830
AAXX 26184 78583 11575 40403 10280 20216 40181 69901 70184 84800 333 01100 59002 84821
AAXX 26181 13586 32665 83601 10026 21010 30089 40393 52017 885// 333 10047 88643
AAXX 26181 12772 31415 81501 11017 21023 30097 40398 51012 71042 886// 333 11017 4/000 88710
AAXX 26181 12822 16/// /2202 10038 20028 30237 40386 52004 69982 333 10042
AAXX 26181 12843 31425 81301 10008 20002 30208 40387 51007 72162 886// 333 10013 4/000 88710
AAXX 26181 12882 31320 81702 11006 21009 30261 40401 53012 71042 886// 333 11005 4/000 88706
AAXX 26181 12925 16/// /0000 10032 20026 30222 40401 52007 69912 333 10052
AAXX 26181 12942 31980 83003 10029 20016 30144 40400 52008 70222 8807/ 333 10037 41998
AAXX 26181 12982 31212 71503 10007 21000 30293 40400 52009 71022 875// 333 10035 4/000 83704 87630
AAXX 26184 78970 12580 30910 10326 20203 30099 40124 60001 83840 333 02290 10330 20222 59009 83830
AAXX 26184 78962 12575 51115 10295 20202 30128 40136 60001 84201 333 01209 10309 20218 59010 84823
AAXX 26181 01001 11465 83609 11052 21081 39743 49755 56006 69962 77072 8472/ 333 11040 91113
AAXX 26181 01008 11586 51408 11020 21067 39703 49736 52009 60002 70310 82570 333 10008 91112
AAXX 26181 01010 11473 72607 10020 21039 39831 49847 58016 60022 78782 8696/ 333 10035 91123
AAXX 26181 01026 11360 72305 10004 21037 39700 49839 58004 60042 78782 8596/ 333 10032 4/012 91119
AAXX 26181 01055 46/// /2620 10032 21010 39725 49742 53024 333 10063 91132
AAXX 26181 01062 NIL
AAXX 26181 01098 11480 82507 10034 20003 39707 49724 53024 60002 70222 875// 333 10040 91119
AAXX 26181 01115 11480 31511 10042 20002 39844 49865 58050 69932 70181 81360 333 10050 91121
AAXX 26181 01152 NIL
AAXX 26181 01205 NIL
AAXX 26181 01212 NIL
AAXX 26181 01271 16/// /0404 10042 20019 39851 49872 56093 60062 333 10048 91110
AAXX 26181 01288 11675 71202 10010 21020 39189 49927 56050 60022 70122 85531 333 10015 91107
AAXX 26181 01300 NIL
AAXX 26181 01317 11450 81404 10109 20076 30014 40028 56012 60052 70262 8677/ 333 10109 91111
AAXX 26181 01367 41685 61502 10038 21002 39548 49985 56011 70222 86500 333 10093 91108
AAXX 26181 01384 11987 11907 10058 20043 39771 40016 56038 60002 70100 81040 333 10062 91112
AAXX 26181 01403 11560 72318 10092 20073 39988 40056 57009 60032 70282 8596/ 333 10094 91124
AAXX 26181 01415 16/// /2009 10101 20079 30086 40097 58004 6//// 333 10106 91113
AAXX 26181 01482 46/// /2317 10085 20068 30064 40071 55016 333 10085 91120
AAXX 26181 01492 NIL
AAXX 26181 01003 NIL
AAXX 26181 01007 11989 81203 11030 21091 39724 49733 51006 60002 70221 80008 333 10007 91106
AAXX 26181 01028 NIL
AAXX 26181 01047 31788 52205 11026 21076 39465 49833 51024 70222 85070 333 10005
AAXX 26181 01049 16/// /2910 10007 21018 39801 49804 51028 60042 333 10044 91117
AAXX 26181 01078 11365 8//// 10034 20013 39706 49719 53032 60102 76262 8772/ 333 10050 91124
AAXX 26181 01102 46/// /1616 10031 20015 39831 49850 58077 333 10064 91121
AAXX 26181 01160 NIL
AAXX 26181 01218 NIL
AAXX 26181 01238 46/// /2012 10036 20013 38813 49939 56018 333 10037 91121
AAXX 26181 01241 11250 82311 10066 20062 39835 49846 56082 60072 76376 8777/ 333 10066 91119
AAXX 26181 01281 NIL
AAXX 26181 01338 16/// /2408 10103 20077 39899 49963 58034 6//// 333 10107 91114
AAXX 26181 01359 NIL
AAXX 26181 01397 16/// /1203 10047 20027 39555 49984 56040 60002 333 10048 91106
AAXX 26181 01400 NIL
AAXX 26181 01427 11458 82511 10096 20077 30117 40133 53003 60012 71022 886// 333 10097 91117
AAXX 26181 01447 NIL
AAXX 26181 01448 46/// /2712 10099 20082 30116 40126 58002 333 10100 91118
AAXX 26184 91503 31470 20000 10265 20251 40069 55004 70500 81202 333 56900 81816
AAXX 26184 91517 31475 71805 10250 20231 40069 57003 70521 82807 333 56909 81815 86280
AAXX 26184 91503 31470 20000 10265 20251 40069 55004 70500 81202 333 56900 81816
AAXX 26184 91517 31475 71805 10250 20231 40069 57003 70521 82807 333 56909 81815 86280
AAXX 26181 33815 32997 02803 10007 21029 30120 40336 52008 333 10056 555 80018
BBXX CGDS 26184 99447 70755 46/// /2009 11006 21047 4//// 5//// 7//// 8//// 22200 0//// 2////
AAXX 26184 78073 12469 10606 10271 20212 40216 60001 81200 333 59017 81818
AAXX 26184 85574 12960 61812 10315 20063 39574 40095 57015 60001 82039 333 56066 82368 85170
AAXX 26184 85577 12960 61904 10315 20075 39527 40101 57014 60001 84031 333 56066 84366
AAXX 26184 85585 12498 71917 10182 20149 40185 58004 60001 87600 333 56400 83715 84616
AAXX 26184 85586 12960 52711 10196 20125 40155 57011 60001 80001 333 56006 87075
AAXX 26184 85672 12980 01808 10322 20132 40121 58019 60001 333
AAXX 26184 85682 12960 00406 10199 20141 40153 58009 60001
AAXX 26184 85743 12960 09906 10274 20128 40156 58014 60001
AAXX 26184 85782 12560 11813 10242 20144 40191 57010 60001 81100 333 56000 81830
AAXX 26184 85799 42980 01312 10189 20150 40201 58004 60001 70222
AAXX 26184 85832 12780 23105 10262 20089 40158 56011 60001 82201 333 56600 82850
AAXX 26184 85836 12960 02309 10272 20102 40208 57012 60001
AAXX 26184 85864 12680 12605 10247 20100 40173 56001 60001 81100 333 56600 81836
AAXX 26184 85874 12682 22914 10238 20092 39563 40157 57003 60001 82200 333 56600 82840
AAXX 26184 85886 12670 13317 10262 20183 40157 56014 60001 81200 333 56600 81840
AAXX 26184 85934 12580 72522 10153 20019 40165 52008 60001 83131 333 56556 83820 83070
AAXX 26184 85968 12660 82820 10104 20056 40099 52007 60001 884// 333 56699 88643
AAXX 26184 89056 11/03 93308 10013 20010 49869 57013 60003 74544 333 89/01
AAXX 26184 89057 11340 82609 10014 21020 49870 57010 60023 76822 8672/ 333 56669 86707 88520
AAXX 26184 89058 11415 83210 10017 20011 39853 49874 57015 60011 76074 8272/
AAXX 26184 89059 12460 81905 10007 21003 49855 57014 60003 886// 333 74099 88713
AAXX 26184 89251 11112 83217 10014 20009 49861 57015 76062 8672/
AAXX 26184 78073 12469 10606 10271 20212 40216 60001 81200 333 59017 81818
AAXX 26181 10004 46/60 /2312 10096/20087 30288 40288 52010 222// 00076 333 10102 20092 5/300 91116 91213
AAXX 26181 10015 12459 32310 10086 20073 30279 40289 51008 60002 83600 222// 02070 333 10093 20082 31008 55300 20000 30000 83711 91118 91213
AAXX 26181 10020 15461 42411 10084 20080 30223 40256 51005 60002 333 10090 20077 3/007 55300 20000 30000 81/12 84/64 91116 91212
AAXX 26181 10035 12370 82408 10092 20081 30223 40282 51009 60002 876// 333 10098 20090 31009 55300 20000 30000 41256 87708 91115
AAXX 26181 10055 12465 52611 10079 20070 30260 40271 53001 60002 85500 333 10085 20074 31007 55300 20000 30000 85612 91113 91211
AAXX 26181 10147 11470 82505 10112 20095 30288 40306 53008 69902 70252 875// 333 10113 20101 31009 55300 20000 30000 41302 87612
AAXX 26181 10162 07464 82407 10102 20089 30215 40298 52004 69952 72265 333 10103 20092 3/009 55300 20000 30000 69907 87/12 87/18 88/23
AAXX 26181 10184 01578 82304 10108 20093 30274 40282 58001 69902 70152 885// 333 10111 20098 31009 55300 20000 30000 69907 88630
AAXX 26181 10200 12483 62305 10110 20092 30318 40316 53008 60002 865// 333 10114 20100 32010 55300 20000 30000 83712 86622
AAXX 26181 10224 11465 82405 10111 20097 30314 40320 51008 69902 70252 876// 333 10111 20101 32010 55300 20000 30000 87712
AAXX 26181 10270 06360 82504 10097 20090 30267 40323 53005 69952 222// 06044 333 10101 20089 3/009 55300 69907 86/07 87/11 88/21
AAXX 26181 10338 01360 82404 10102 20091 30260 40333 53006 69902 70255 875// 333 10107 20091 31009 55300 20000 30000 69907 85709 87613
AAXX 26181 10361 01480 82503 10102 20080 30236 40341 53008 69902 75122 885// 333 10112 20096 31009 55300 20000 30000 69907 88615
AAXX 26181 10393 01582 82406 10092 20074 30201 40329 51007 69902 70365 875// 333 10094 20079 31007 55300 20000 30000 69907 87622
AAXX 26181 10400 01257 82004 10095 20090 30312 40362 52006 69912 75155 886// 333 10096 20086 31008 55300 20000 30000 69907 81704 87706
AAXX 26181 10438 07240 81702 10069 20064 30078 40365 51007 69912 71050 333 10072 20059 3/006 55300 69917 88/06 88/11
AAXX 26181 10469 12582 82405 10086 20064 30185 40353 51006 69902 875// 333 10099 20075 31007 55300 87621
AAXX 26181 10488 12481 82605 10083 20053 30070 40356 51010 60002 875// 333 10086 20070 31006 55300 20000 30000 41250 82617 87626
AAXX 26181 10506 01281 82503 10073 20064 39780 40373 53002 69902 70252 886// 333 10075 20055 31005 55300 20000 30000 69907 88704
AAXX 26181 10548 11015 82003 10051 20049 39825 40381 52010 60002 71042 886// 333 10068 20041 31004 55300 20000 30000 88701
AAXX 26181 10637 12475 81903 10076 20051 30242 40383 52006 69902 885// 333 10082 20056 31005 55300 81610 87615
AAXX 26181 10685 01118 82002 10041 20039 39686 40379 53006 69922 75154 886// 333 10041 20036 31003 55300 20000 30000 69917 88702
AAXX 26181 10738 12586 70000 10070 20039 39908 40389 52001 60002 875// 333 10081 20043 31002 55300 87621
AAXX 26181 10763 01360 82802 10063 20050 39994 40387 53004 69902 75152 885// 333 10074 20050 31004 55300 20000 30000 69907 83707 87610
AAXX 26181 10788 07559 81402 10046 20040 39950 40396 51006 69902 75150 333 10071 20029 3/003 55300 20000 30000 69907 88/20
AAXX 26181 10852 12484 71601 10040 20029 39810 40398 51003 60002 875// 333 10075 20020 31101 55300 20000 30000 81619 87636
AAXX 26181 10946 05971 21202 11008 21018 39540 40412 52001 69912 333 10060 21026 3/104 55300 20000 30000 69907 82/63
BBXX CGDS 26184 99447 70755 46/// /2009 11006 21047 4//// 5//// 7//// 8//// 22200 0//// 2////
AAXX 26184 41891 31430 20302 10180 20160 30107 40147 70510 82500 333 56900 58009 70000 82615
AAXX 26184 97180 01458 70805 10244 20244 30069 70262 40087 58022 60021 70262 822 72 333 56000 69907 82819 84359
AAXX 26184 78897 11570 30810 10271 20200 40152 57022 69901 72511 83800 333 021// 10292 20200 59007 70004 83831
AAXX 26184 48698 01458 70205 10262 20245 30095 40113 60001 70522 82138 333 60007 82815 86366
AAXX 26181 10007 NIL
AAXX 26181 10044 46/// /2413 10096 20077 30240 40272 51007 222// 00048 333 10103 20083 5/300 91117 91213
AAXX 26181 10046 12462 82408 10104 20082 30241 40280 52011 60002 876// 333 10109 20092 31009 87710 91115
AAXX 26181 10091 17467 72412 10089 20082 30208 40259 57002 69912 70054 333 10093 20071 3/007 55300 20000 30000 87/15 91117 91215
AAXX 26181 10113 12568 72208 10089 20080 30287 40306 53010 60002 875// 333 10093 20081 31007 55300 20000 30000 87626
AAXX 26181 10124 46/// /0000 100
AAXX 26181 10131 15481 42508 10101 20083 30286 40301 52010 60002 333 10110 20095 3/009 55300 20000 30000 84/16 91113
AAXX 26181 10170 01482 82404 10113 20090 30269 40285 53003 69902 70252 875// 333 10113 20096 31009 55300 20000 30000 69907 87618
AAXX 26181 10264 06372 82305 10097 20088 30197 40304 51006 60012 333 10099 20092 3/009 55300 20000 30000 69917 84/07 86/12 88/25
AAXX 26181 10291 01465 82405 10100 20085 30243 40311 51005 69902 75152 877// 333 10105 20090 31008 55300 20000 30000 69907 87710
AAXX 26181 10315 01258 82304 10100 20094 30281 40346 53005 69902 72052 876// 333 10102 20089 31009 55300 20000 30000 69907 87706
AAXX 26181 10379 11483 72305 10095 20081 30203 40326 51007 69922 70265 875// 333 10097 20082 31008 55300 20000 30000 41279 87618
AAXX 26181 10382 01475 72406 10103 20083 30279 40324 51006 69912 72162 875// 333 10103 20086 31008 55300 20000 30000 69907 83614 87620
AAXX 26181 10384 06/// /2204 10096 20082 30265 40326 52007 69942 333 10105 20088 3/008 55300 20000 30000 69907
AAXX 26181 10427 01/01 92709 10042 20042 39331 48612 50002 60022 75154 333 10045 20032 3/003 44023 55300 20000 30000 69917 91113 96045
AAXX 26181 10430 07228 82404 10090 20085 30158 40353 52006 69912 75150 333 10094 20084 3/008 55300 20000 30000 69917 88/04
AAXX 26181 10439 NIL
AAXX 26181 10453 11/90 92614 10024 20024 38986 48600 51010 60072 75154 333 10030 20018 3/001 49104 55300 91119 91216 96045
AAXX 26181 10496 11481 82404 10090 20071 30254 40340 51006 69902 70265 875// 333 10097 20078 31007 55300 20000 30000 87618
AAXX 26181 10499 01258 82404 10073 20061 30055 40351 53007 69922 75152 875// 333 10080 20066 31006 55300 20000 30000 69907 81606 87613
AAXX 26181 10505 01040 82305 10082 20079 30081 40368 51004 69902 72052 886// 333 10085 20075 31007 55300 20000 30000 69907 88701
AAXX 26181 10513 01475 82503 10097 20086 30249 40372 50006 69902 70252 875// 333 10106 20087 31008 55300 20000 30000 69907 84614 87618
AAXX 26181 10532 15358 82103 10077 20071 30117 40370 53005 60002 333 10081 20066 3/006 55300 20000 30000 88/07 88/15 88/27
AAXX 26181 10544 01/01 92606 10025 20025 39266 48618 51007 69902 75154 333 10029 20013 3/001 44015 55300 69907 96045
AAXX 26181 10554 12480 82503 10075 20055 39968 40363 53007 60002 878// 333 10086 20062 31006 55300 20000 30000 82815 87620
AAXX 26181 10567 12480 82206 10065 20050 39981 40366 51009 60002 886// 333 10080 20056 31005 55300 20000 30000 88710
AAXX 26181 10578 11/00 92812 10011 20011 38933 48613 51007 69992 74554 333 10013 21003 3/100 44066 55300 20000 30000 91115 91213
AAXX 26184 48698 01458 70205 10262 20245 30095 40113 60001 70522 82138 333 60007 82815 86366
AAXX 26184 78897 11570 30810 10271 20200 40152 57022 69901 72511 83800 333 021// 10292 20200 59007 70004 83831
BBXX A8IM7 26184 99324 11781 41/98 /2718 10190 20159 40150 54000 76200 8//// 22225 20304 3//// 4//// 5//// 80170
BBXX BATFR60 26184 99538 10065 46/// /2225 10089 20079 40305 53010 22222 00065
BBXX BATFR15 26184 99236 70504 44798 10105 10235 20165 40183 56016 70000 81111 22214 00255 307// 41502 5////
BBXX BATFR54 26184 99513 70059 46/// /2228 10114 20069 40310 56012 22282 00114
BBXX BATFR55 26184 99105 30470 44598 31012 10279 20252 40118 70111 82241 22222 00287 208// 33131 410// 510//
BBXX BATFR11 26184 99376 10018 46/// ///// 10139 20064 40321 52005 22212 00172
BBXX BATFR09 26184 99388 10088 44498 70617 10124 20054 40316 53018 70222 84240 22223 00167 20304 60//0 ICE 0/0//
BBXX BATFR08 26184 99202 30573 46/// /0811 10262 20212 40142 58007 22283 00274
BBXX A8EH3 26183 99543 71596 41497 73323 11045 21066 40025 53005 70377 877// 22265 04050 20403 82050
BBXX BATFR56 26184 99032 30822 46/// /2622 10252 20250 40111 56015 22213 00287
BBXX PHCQ 26183 99299 70902 41/91 /0000 10163 20150 40210 74542 8//// 22200 00087 20000 3//// 4//// 5//// 80155
BBXX BATFR24 26184 99427 10095 46/// /3308 10129 20029 40340 22222 00150
BBXX BATEU04 26184 99610 70308 46/// /2634 10022 21066 4//// 22251
BBXX BATFR52 26184 99499 70040 46/// /2226 10115 20067 40348 58017 22283 00119
BBXX BATFR01 26184 99430 10061 46/// /0009 10142 20039 40337 53014 22272 00159
BBXX BATFR20 26184 99431 10054 46/// ///// 10132 21041 40342 22233
BBXX A8KM9 26184 99216 71270 41398 40918 10190 20150 40220 52/// 70311 84778 22264 20404 308// 41004 80165
BBXX BATFR19 26184 99067 30055 46/// /1916 10239 20209 40119 53009 22200 00254
BBXX BATFR28 26184 99064 10944 46/// /1111 10272 20250 40102 50003 22262 00294
BBXX BATFR14 26184 99510 10022 46/// /2311 10112 20089 40358 53011 22200 00095
AAXX 26181 10609 01230 81902 10069 20063 30047 40385 53004 69902 72022 886// 333 10071 20059 31006 55300 20000 30000 69907 88704
AAXX 26181 10616 11/01 92703 10059 20055 39767 40381 53002 69902 74754 333 10062 20049 31005 55300
AAXX 26181 10641 NIL
AAXX 26181 10655 12481 82002 10065 20049 30048 40385 51006 69902 886// 333 10074 20051 31004 55300 20000 30000 88710
AAXX 26181 10675 07460 81403 10061 20051 30086 40386 52005 69902 72250 333 10072 20049 3/005 55300 20000 30000 69907 84/12 88/18
AAXX 26181 10688 07216 71902 10053 20049 39852 40389 51007 69922 75250 333 10055 20039 3/004 55300 20000 30000 69927 86/05 87/24 87/33
AAXX 26181 10708 01257 82301 10067 20058 39993 40388 51003 69902 72022 886// 333 10074 20044 31004 55300 20000 30000 69907 88704
AAXX 26181 10729 15469 81502 10070 20051 30270 40395 51002 60002 333 10080 20058 3/005 55300 20000 30000 81/15 88/21
AAXX 26181 10731 12684 81702 10072 20045 30240 40387 51003 60002 885// 333 10081 20056 31005 55300 20000 30000 88646
AAXX 26181 10742 15476 82401 10071 20045 30051 40391 53006 69902 333 10077 20049 3/004 55300 20000 30000 88/17
AAXX 26181 10776 12475 81403 10054 20040 39933 40390 50004 69902 875// 333 10089 20039 31004 55300 20000 30000 87616
AAXX 26181 10791 11/90 92807 11001 21001 38697 48629 51008 69922 74544 333 10000 21020 49099 55300
AAXX 26181 10805 12782 71001 10066 20042 30194 40390 50000 60002 875// 333 10090 20010 31100 55300 20000 30000 87650
AAXX 26181 10815 12376 72601 10027 20027 39424 48628 58001 60002 875// 333 10042 20006 3/102 43013 55300 20000 30000 82607 87631
AAXX 26181 10836 12389 82802 10044 20036 39497 40390 52001 69902 878// 333 10049 20028 31002 4/998 55300 20000 30000 86809
AAXX 26181 10870 12688 62102 10054 20021 39847 40397 53005 60002 86500 333 10081 20031 31002 55300 86639
AAXX 26181 10895 01570 80000 10042 20026 39811 40400 51005 69912 72072 885// 333 10053 20018 31002 55300 20000 30000 69907 85623 88630 96277 96477
AAXX 26181 10908 12989 00811 10015 20015 38649 48636 56002 60002 333 10022 21009 3/103 49070 55300 20000 30000 91113 91211
AAXX 26181 10929 12975 00301 10019 21000 39846 40400 57003 60002 333 10064 21010 31103 55300 20000 30000
AAXX 26181 10948 17976 11401 11019 21019 39425 48621 53002 60002 72031 333 10042 21076 3/110 4/022 55300 20000 30000 81/62
AAXX 26181 10961 NIL
AAXX 26181 10962 12989 41602 10019 21020 39216 48633 53002 60002 84070 333 10040 20010 3/103 42004 55300 20000 30000 84360
AAXX 26181 10980 12789 52302 11007 21035 38300 48644 53005 60002 85030 333 10004 21041 3/104 48086 55300 20000 30000 85350
AAXX 26181 01037 16/// /2803 10008 21031 39832 49838 50005 60032 333 10051 91117
AAXX 26181 01046 NIL
AAXX 26181 01058 16/// /3012 11024 21064 39353 49811 51025 60002 333 10010 4/017 91124
AAXX 26181 01065 11689 82405 10001 21040 39645 49804 51031 69932 70221 888// 333 10010 91113
AAXX 26181 01092 NIL
AAXX 26181 01107 16/// /1707 10041 2//// 39853 49858 58041 69962 333 10043 91117
AAXX 26181 01114 NIL
AAXX 26181 01144 41786 71806 10033 21020 70182 83546 333 10046 91120
AAXX 26181 01199 NIL
AAXX 26181 01245 NIL
AAXX 26181 01259 16/// /1415 10036 20010 39800 49822 58114 60042 333 10069 91122
AAXX 26181 01262 NIL
AAXX 26181 01278 11565 81505 10022 20006 39771 49871 58098 60042 76182 8802/ 333 10044
AAXX 26181 01293 16/// /1502 10017 20007 39687 49892 56089 60102 333 10041 91109
AAXX 26181 01329 NIL
AAXX 26181 01337 NIL
AAXX 26181 01344 16/// ///// 10058 20035 60342 333 10066 4/067
AAXX 26181 01364 16/// /2707 10040 20021 38875 49967 50020 60102 333 10051 4/039 91116
AAXX 26181 01373 16/// /0501 10040 20004 39798 40000 56020 60002 333 10073 91109
AAXX 26181 01374 31689 21801 10026 20010 70210 81440 333 10044
AAXX 26181 01380 11580 31703 10001 21020 69952 70281 83500 333 10002 4/026 91111
AAXX 26181 01389 NIL
AAXX 26181 01393 NIL
AAXX 26181 01424 11450 8//// 10094 20072 30063 40066 57029 60282 76362 887// 333 10096
AAXX 26181 01431 16/// /2203 10057 20047 39449 40107 58002 60122 333 10060 91108
AAXX 26181 01436 NIL
AAXX 26181 01465 11570 72413 10110 20081 30088 40106 55011 60002 70221 875// 333 10112 91118
AAXX 26181 01471 11589 20803 10105 20042 60002 70221 82300 333 10113 91107
AAXX 26181 01483 NIL
AAXX 26181 01025 16/// /2208 10011 21035 39827 49838 58003 60064 333 10042 91124
AAXX 26181 01052 16/// /2410 10017 21026 39681 49777 51023 60042 333 10042 91121
AAXX 26181 01122 16/// /1101 10006 21002 39800 49889 58048 60052 333 10039 91112
AAXX 26181 01132 16/// /1604 10004 21014 39510 49894 58056 60052 333 10019 91109
AAXX 26181 01156 NIL
AAXX 26181 01203 NIL
AAXX 26181 01233 16/// /1906 10056 20026 60032 333 10060 91116
AAXX 26181 01265 NIL
AAXX 26181 01273 NIL
AAXX 26181 01307 46/// /2220 10109 20076 39957 49984 58018 333 10111 91124
AAXX 26181 01321 NIL
AAXX 26181 01327 11235 82515 10078 20056 60252 76266 8772/ 333 10089 91126
AAXX 26181 01350 16/// /2516 10039 20024 38633 49995 58012 60292 333 10050 91125
AAXX 26181 01361 16/// /2807 10046 20024 38918 49913 58025 60172 333 10052 4/087 91115
AAXX 26181 01375 NIL
AAXX 26181 01378 16/// /1802 10042 20009 39686 49974 58036 60002 333 10065 91108
AAXX 26181 01385 16/// /3601 10047 20019 39729 49997 56033 60002 333 10060 91108
AAXX 26181 01412 16/// /2314 10097 20081 30072 40101 58004 69972 333 10099 91118
AAXX 26181 01422 16/// /1909 10105 20081 60042 333 10108 91117
AAXX 26181 01440 NIL
AAXX 26181 01441 NIL
AAXX 26181 01467 NIL
AAXX 26181 01469 NIL
AAXX 26181 01477 16/// /1301 10045 20031 60002 333 10072 4/018 91109
AAXX 26181 01480 16/// /0104 10081 20038 60002 333 10087 91106
AAXX 26181 01484 16/// /1405 10073 20048 39886 40039 56027 6//// 333 91112
AAXX 26181 01490 16/// /2006 10042 20039 60002 333 10043 91114
AAXX 26181 01495 16/// /2317 10086 20070 30056 40069 55014 60002 333 10088 91121
AAXX 26181 01015 NIL
AAXX 26181 01023 NIL
AAXX 26181 01033 46/// /2712 10032 21050 39787 49817 50004 333 10052 91126
AAXX 26181 01059 11457 52910 10018 21023 39777 49786 53016 69922 78311 84822 333 10039 91132
AAXX 26181 01089 16/// /2508 10019 21024 39657 49761 53031 6//// 333 10021 91116
AAXX 26181 01167 11460 80101 10002 21009 39862 49867 58017 60052 72272 887// 333 10037 91111
AAXX 26181 01180 NIL
AAXX 26181 01210 41556 82322 10114 20083 39851 49876 57021 76062 885// 333 10119 91131
AAXX 26181 01228 NIL
AAXX 26181 01240 16/// /1515 10045 20032 39794 49813 58108 6//// 333 10072 91120
AAXX 26181 01304 46/// /0000 10105 20083 39900 49930 56022 333 10107 91103
AAXX 26181 01311 46/// /2211 10102 20080 39965 40026 57013 333 10102 91117
AAXX 26181 01340 NIL
AAXX 26181 01355 16/// ///// 10038 20029 39967 49972 58027 60102 333 10053
AAXX 26181 01360 NIL
AAXX 26181 01392 16/// /1303 10072 20043 39787 40009 56032 60002
AAXX 26181 01406 46/// /2115 10103 20087 30016 40034 56010 333 10103 91121
AAXX 26181 01411 16/// /2113 10102 20083 30052 40077 58010 6//// 333 10104 91119
AAXX 26181 01425 NIL
AAXX 26181 01433 46/// /2508 10040 20028 38820 40055 57012 333 10043 91114
AAXX 26181 01442 NIL
AAXX 26181 01450 NIL
AAXX 26181 01452 11457 82508 10100 20078 30101 40122 58003 60002 78085 883// 333 10106 91115
AAXX 26181 01473 11786 22204 10107 20053 39822 40024 58030 60002 70100 81240 333 10108 91111
AAXX 26181 01494 16/// /2008 10083 20072 30001 40065 55008 60002 333 10084 91114
AAXX 26181 01121 46/// /1208 10036 21011 39859 49872 58052 333 10045 91116
AAXX 26181 01135 NIL
AAXX 26181 01143 16/// /1702 10001 21034 69992 333 10033 91116
AAXX 26181 01150 16/// /0901 11029 21043 60062 333 10017 91118
AAXX 26181 01192 NIL
AAXX 26181 01225 46/// /2123 10098 20082 39812 49817 56081 333 10099 91129
AAXX 26181 01230 16/// /2104 10079 20038 60052 333 10083 4/029 91113
AAXX 26181 01232 16/// /1805 10077 20058 39808 49885 58021 60102 333 10087 91112
AAXX 26181 01234 16/// /2103 10006 20002 60152 333 10054 91106
AAXX 26181 01253 16/// /2501 10007 20004 60072 333 10026 4/035 91107
AAXX 26181 01254 16/// /1501 10007 20001 60052 333 10034 4/019 91107
AAXX 26181 01257 NIL
AAXX 26181 01277 NIL
AAXX 26181 01291 16/// /1105 10007 21001 60032 333 10030 4/018 91108
AAXX 26181 01332 NIL
AAXX 26181 01366 NIL
AAXX 26181 01370 NIL
AAXX 26181 01376 16/// /0702 10027 21005 60002 333 10077 91116
AAXX 26181 01383 46/// /1405 10053 20018 39652 49959 56051 333 10060 91115
AAXX 26181 01386 16/// ///// 10050 20019 60002 333 10071
AAXX 26181 01416 16/// ///// 10097 20095 60032 333 10099
AAXX 26181 01419 NIL
AAXX 26181 01430 16/// ///// 10098 20081 60042 333 10099
AAXX 26181 01434 16/// /2410 10044 20018 39089 40044 50003 60172 333 10065 91123
AAXX 26181 01455 NIL
AAXX 26181 01468 16/// /1002 10081 20052 60002 333 10085 91108
AAXX 26181 01470 16/// /1904 10109 20061 39937 40048 56021 60002 333 10109 4/003 91108
AAXX 26181 01476 NIL
AAXX 26181 01481 NIL
AAXX 26181 01488 NIL
AAXX 26184 07005 04/70 /2104 10087 20065 30282 40374 53006 69942 700// 333 10109 20087 60007 90710 91106 555 60005
AAXX 26184 07015 02465 82206 10101 20082 30312 40370 53007 60002 885// 333 10104 20093 60007 88616 90710 91113 93100 555 60005
AAXX 26184 07020 02670 82215 10104 20052 30344 40371 51005 60002 885// 333 10119 20101 60007 88633 90710 91122 555 60005
AAXX 26184 07027 02980 12004 10059 20036 30294 40378 52009 60002 81031 333 10117 20055 60007 81360 90710 91105 93100 555 60005
AAXX 26184 07037 04574 81703 10068 20059 30191 40381 53007 60002 700// 333 10124 20059 60007 90710 91105 555 60005
AAXX 26184 07070 04562 81704 10087 20071 30271 40384 52005 60002 700// 333 10110 20081 60007 90710 91105 555 60005
AAXX 26184 07110 02580 82007 10097 20057 30244 40362 51003 60002 885// 333 10105 20062 60007 88627 90710 91111 93100 555 60005
AAXX 26184 07117 02575 81904 10092 20046 30294 40366 51003 60002 885// 333 10100 20066 60007 90710 91106 92428 555 60005
AAXX 26184 07130 04973 /1002 10059 20029 30320 40374 53004 60002 700// 333 10118 20041 60007 90710 91103 555 60005
AAXX 26184 07139 06/// /0000 10039 20023 30200 40382 52004 69922 333 10107 20029 60007 90710 91102 555 60005
AAXX 26184 07149 02965 11902 10058 20040 30274 40387 53005 60002 80001 333 10116 20041 60007 81075 90710 91106 93100 555 60005
AAXX 26184 07168 04/50 /0000 10033 20024 30243 40393 52005 60002 700// 333 10115 21001 60007 90710 91102 555 60005
AAXX 26184 07181 04486 80302 10075 20056 39966 40387 55000 60002 700// 333 10088 20041 60007 90710 91104 555 60005
AAXX 26184 07190 04569 83501 10071 20041 30199 40387 58002 60002 700// 333 10085 20033 60007 90710 91103 555 60005
AAXX 26184 07207 02670 10705 10071 20037 60002 81100 222// 327// 333 10111 20070 60007 90710 91108 92428 555 60005
AAXX 26184 07222 02980 20603 10073 20041 30335 40368 53001 60002 80001 333 10117 20027 60007 82076 90710 91106 555 60005
AAXX 26184 07240 02970 00705 10049 20029 30238 40379 53001 60002 333 10100 20049 60007 90710 91109 93100 555 60005
AAXX 26184 07255 04160 81106 10036 20035 30182 40392 55001 60002 700// 333 10039 20003 60007 90710 91110 555 60005
AAXX 26184 07280 04/01 91406 10003 21003 30104 40393 50000 60002 745// 333 10082 21013 60007 90710 91108 555 60005
AAXX 26184 07299 02970 13202 10013 21002 30051 40396 52001 60002 80001 333 10086 21018 60007 81073 90710 91106 93100 555 60005
AAXX 26184 07314 06/// /0606 10098 20060 30333 40362 53003 60002 333 10108 20083 60007 90710 91113 555 60005
AAXX 26184 07335 04271 80907 10047 20035 30222 40373 53005 60002 700// 333 10099 20047 60007 90710 91111 555 60005
AAXX 26184 07434 04974 /0505 10060 20032 39865 40360 55002 60002 700// 333 10088 20013 60007 90710 91108 555 60005
AAXX 26184 07460 02570 43301 10026 20014 39977 40385 53005 60002 81131 333 10086 20015 60007 81820 83365 90710 91103 93100 555 60005
AAXX 26184 07471 04270 82401 10024 20011 39377 48943 51003 60002 700// 333 10044 20020 60007 90710 91106 555 60005
AAXX 26184 07481 01330 80703 10021 20014 30091 40394 53003 60002 71022 886// 333 10026 20007 60007 88708 90710 91111 93100 555 60005
AAXX 26184 07510 04978 /0804 10058 20024 30284 40352 53002 60002 700// 333 10092 20001 60007 90710 91108 555 60005
AAXX 26184 07535 06/// /0302 10057 20022 30031 40355 51002 60002 333 10093 21028 60007 90710 91104 555 60005
AAXX 26184 07558 06/// /0705 10057 21039 39500 40361 53006 60002 333 10103 20008 60007 90710 91108 555 60005
AAXX 26184 07577 04/69 /0410 10056 20024 30282 40375 52006 60002 700// 333 10091 20039 60007 90710 91115 555 60005
AAXX 26184 07591 04/// /0407 10020 21045 39324 4//// 50005 60002 700// 333 10081 21048 60007 90710 91110 555 60005
AAXX 26184 07607 04983 /1105 10028 20013 30277 40352 53009 60002 700// 333 10091 21027 60007 90710 91107 555 60005
AAXX 26184 07621 02975 62003 10021 20009 39899 40353 53010 60002 80001 333 10085 21035 60007 86076 90710 91104 93100 555 60005
AAXX 26184 07627 06/// /1703 10026 21016 39840 40350 53007 60002 333 10120 21039 60007 90710 91104 555 60005
AAXX 26184 07630 02965 40000 10055 20014 30163 40351 53006 69922 80001 333 10109 21015 60007 84075 90710 91104 93100 555 60005
AAXX 26184 07643 02986 20105 10061 20010 30350 40360 53005 60002 80002 333 10125 20025 60007 82076 90710 91110 555 60005
AAXX 26184 07650 02962 21304 10043 20004 30312 40353 53003 60002 80002 333 10130 21016 60007 82076 90710 91107 93100 555 60005
AAXX 26184 07661 02965 33002 10107 20010 30180 40345 53004 60002 80009 333 10129 20057 60007 83168 90710 91106 555 60005
AAXX 26184 07690 02963 13212 10086 21010 30311 40346 50002 60002 80001 333 10157 20053 60007 81073 90710 91115 93100 555 60005
AAXX 26184 07747 02980 32904 10038 20017 30305 40361 53006 60002 80001 333 10108 20003 60007 83075 90710 91105 555 60005
AAXX 26184 07761 02/80 60508 10078 20018 30310 40321 53005 60002 80002 333 10159 20007 60007 86075 90710 91110 93100 555 60005
AAXX 26184 07790 02870 32305 10071 20020 30320 40335 53002 60002 81031 333 10136 20035 60007 81358 83073 90710 91107 93100 555 60005
AAXX 26181 11816 11565 73002 10069 20033 30211 40379 53004 69902 70266 875// 333 10069 87627
AAXX 26181 11826 12560 80000 10028 20018 30172 40380 52007 60002 885// 333 10041 88620
AAXX 26181 11903 12460 53201 11012 21013 39985 40385 52005 60002 85500 333 10003 43001 82610 85640
AAXX 26181 11934 11465 89902 10021 20006 39514 42924 51003 69902 70262 885// 333 10023 41998 82710 88618
AAXX 26181 11968 11120 82302 11011 21019 30094 40390 52008 69902 71074 886// 333 11009 43002 88702
AAXX 26181 78221 41462 70806 10264 20213 30165 40192 57020 70322 85230 333 85815 87357
AAXX 26181 78224 32560 40806 10290 20166 30116 40189 58017 84200 333 84830
AAXX 26181 78229 42559 31001 10194 20169 30126 40201 52010 83200 333 83820
AAXX 26181 78239 41559 40707 10267 20204 30188 40191 57020 70500 84800 333 82820
AAXX 26181 78244 NIL
AAXX 26181 78243 42559 60707 10263 20181 30070 40193 57020 85210 333 85820
AAXX 26181 78255 42559 30706 10287 20179 30040 40189 57020 83200 333 10289 20207 83820
AAXX 26181 78264 31559 31406 10289 20206 30093 40168 57030 70500 83200 333 10290 20222 83825
AAXX 26181 78265 31559 50506 10276 20194 30075 40175 57020 70544 85200 333 10288 20200 85825
AAXX 26181 78256 11559 40705 10304 20170 30110 40176 57028 60004 70544 84100 333 10309 20211 84825
AAXX 26181 78259 31559 51404 10302 20179 30090 40182 57028 70544 85200 333 10308 20206 85820
AAXX 26181 78268 11560 31204 10278 20240 30165 40184 57021 60004 70111 83200 333 83820
AAXX 26184 03005 11350 72826 10072 20059 39892 49992 53044 60042 72586 878// 91750 333 10115 55300 20000 81707 83711 85656 90710 91144
AAXX 26184 03017 17681 /2825 10084 20057 30003 40035 53036 60032 723// 91750 333 10125 55300 20000 84/47 90710 91143 91035
AAXX 26184 03023 17663 /2824 10084 20050 30108 40113 51072 60042 723// 91750 333 10119 81/33 85/68 90710 91131
AAXX 26184 03026 17667 /2617 10069 20051 30066 40085 51079 60092 781// 91750 333 10123 55300 20000 81/33 85/68 90710 91125
AAXX 26184 03063 17659 /2113 10103 20088 39814 40088 53021 60052 761// 91750 333 10121 55300 20000 84/36 83/41 90710 91136 91028
AAXX 26184 03066 17781 /2427 10128 20093 30059 40065 53021 69922 761// 91750 333 10148 55300 20000 88/50 90710 91141 91037
AAXX 26184 03075 15574 /2731 10089 20070 30003 40047 53027 69922 91750 333 10140 83/22 85/29 90710 91147
AAXX 26184 03091 15679 /1914 10127 20089 30014 40092 53001 60002 91750 333 10138 55300 20000 87/43 87/59
AAXX 26184 03100 17461 /2920 10089 20084 30117 40133 53036 60042 723// 91750 333 10122 55300 20001 85/10 85/24 90710 91147
AAXX 26184 03111 16580 /2122 10130 20089 30163 40175 53013 60002 91750 333 10138 87/27 84/35 90710 91135 91034
AAXX 26184 03134 17566 /2325 10114 20093 30086 40157 53006 69902 781// 91750 333 10121 55300 20000 87/24 84/36 90710 91139 91039
AAXX 26184 03136 15680 /2228 10128 20091 30143 40176 57001 60002 91750 333 10131 55300 20137 84/31 87/46 90710 91144 91039
AAXX 26184 03162 17472 /2220 10097 20081 39912 40198 55002 60052 761// 91750 333 10100 55300 20000 87/10 90710 91140 91032
AAXX 26184 03166 15581 /2325 10127 20087 30075 40144 58001 69922 91750 333 10132 55300 20000 81/28 87/39 90710 91147 91047
AAXX 26184 03171 11575 82529 10131 20088 30123 40135 53008 69922 70362 885// 91750 333 10135 55300 20000 86623 88630 90710 91145 91045
AAXX 26184 03204 12462 82127 10105 20087 30222 40242 52004 60002 885// 91750 333 10118 55300 20000 82710 88640 90710 91140
AAXX 26184 03240 15682 /2223 10125 20088 30155 40183 50001 60002 91750 333 10135 55300 20000 83/43 90710 91136 91035
AAXX 26184 03257 15577 /2219 10114 20080 30211 40252 50005 60002 91750 333 10129 55300 20000 87/20 85/29 90710 91130
AAXX 26184 03292 165// /2315 10130 20088 30233 40252 51007 60002 91750 333 10138 88/29 90710 91125 91025
AAXX 26184 03302 17559 /2125 10103 20079 30263 40276 53004 60002 704// 91750 333 10114 55300 20000 86/20 84/25 90710 91136 91036
AAXX 26184 03354 15486 /2314 10107 20062 30148 40292 53002 60002 91750 333 10132 55300 20000 88/18 90710 91130 91028
AAXX 26184 03377 12486 72220 10111 20085 30198 40282 51001 60002 875// 91750 333 10135 55300 20000 87618 90710 91130
AAXX 26184 03414 15582 /2322 10107 20065 30203 40291 50001 60002 91750 333 10142 55300 20000 87/22 90710 91135 91035
AAXX 26184 03462 17486 /2218 10104 20081 30215 40305 52004 69902 723// 91750 333 10132 55300 20000 81/10 86/21 90710 91127
AAXX 26184 03482 15474 /2215 10111 20087 30283 40309 51002 60002 91750 333 10131 83/15 87/25 90710 91125
AAXX 26184 03502 17570 /2211 10090 20067 30143 40308 53004 69962 761// 91750 333 10110 55300 20000 87/23 90710 91125
AAXX 26184 03535 15483 /1911 10095 20076 30186 40304 50001 60002 91750 333 10123 55300 20000 81/14 87/25
AAXX 26184 03590 NIL
AAXX 26184 03649 11475 72208 10097 20074 30227 40329 52002 69982 72052 875// 91750 333 10115 55300 2//// 81712 87627
AAXX 26184 03716 15580 /2312 10098 20066 30269 40330 53001 69902 91750 333 10110 55300 20000 88/23
AAXX 26184 03740 16574 /2111 10089 20072 30155 40335 53003 69982 91750 333 10108 55300 2//// 88/21
AAXX 26184 03746 15480 /2311 10089 20061 30189 40345 53004 69902 91750 333 10111 87/17
AAXX 26184 03772 15475 /2111 10105 20072 30308 40340 53004 60002 91750 333 10130 55300 20000 82/19 85/25
AAXX 26184 03796 46/// /2415 10094 20091 30206 40351 53010 91750 333 10106
AAXX 26184 03803 NIL
AAXX 26184 03808 12580 82309 10103 20065 30232 40340 53004 69922 885// 91750 333 10104 55300 20000 88626
AAXX 26184 03809 12470 72317 10107 20069 30245 40339 53003 60002 875// 91750 333 10108 82712 87622
AAXX 26184 03827 15572 /2414 10104 20062 30284 40347 53004 69942 91750 333 10108 88/26
AAXX 26184 03840 15473 /2205 10077 20062 30032 40344 51006 69902 91750 333 10097 88/18
AAXX 26184 03853 15580 /2207 10101 20060 30320 40345 52006 69902 91750 333 10119 55300 20000 88/26
AAXX 26184 03874 46/// /2514 10099 20061 30339 40350 51003 91750 333 10107
AAXX 26184 03882 15567 /2508 10098 20073 30289 40353 52006 69902 91750 333 10110 55300 20000 87/23
AAXX 26184 03894 32582 72207 10094 20047 40367 51004 875// 333 10104 87625
AAXX 26184 03917 15578 /2120 10116 20084 30122 40199 53003 69902 91750 333 10123 55300 20000 88/23 90710 91132 91031
AAXX 26184 61901 169// /1314 10170 20146 39669 40177 55000 69942 91750 333 10194 8//99 555 7/090
AAXX 26184 61902 32584 21315 10255 20170 40130 82800 333 10284 58005 81826
AAXX 26184 88889 12689 72725 10152 20012 30038 40121 57004 60001 84136 91750 333 84845 84270 87075 91036 90710 91139
BBXX 42039 26181 99288 70860 46/// /1009 10215 40201 58020 91750 22200 00233 10603 20603 70014 333 91210 555 11090 22095 31706 41010 61749 099083 094085 096087 091088 092086 096087 80909 91712
BBXX 41040 26181 99145 70530 46/// /0707 10266 20218 40144 56020 91750 22200 00272 10904 20603 3//// 40902 70018 333 91209 555 11079 22083 31741 40710 61749 068075 071071 070073 068074 068071 068070 80708 91741
BBXX 46082 26181 99597 71434 46/// ///// 10036 49790 58070 91750 22200 00064 10808 70039
BBXX 46072 26181 99517 71722 46/// /0809 11006 21075 40046 56035 91750 22200 00040 11105 20402 3//// 41104 70023 333 91210 555 11096 22100 31657 41014 61749 077092 078092 070097 088094 094105 086107 80912 91657
BBXX 46077 26181 99579 71543 46/// /2708 11103 21147 49935 57009 91750 22200 00044 10603 20603 70013 333 91211 555 11087 22090 31739 42611 61749 269082 257076 251073 257071 245068 258070 82809 91746
BBXX 46035 26181 99571 71778 46/// /3410 1//// 40125 58028 91750 22200 11305 20604 300// 41304 70026 333 91212 555 11095 22101 31656 43514 61749 339094 009091 018090 014081 000088 335112 83412 91655
BBXX 51101 26181 99243 71621 46/// /1008 10229 20181 40233 51007 91750 22200 00237 10905 20603 310// 40903 70023 333 91210 555 11085 22090 31746 41010 61749 096079 101077 102079 096078 086073 085070
AAXX 26184 85467 12980 02409 10234 20122 40134 58013 60001
AAXX 26184 78951 12580 20913 10285 20202 30132 40147 60001 82800 333 10292 20238 59005 70049 82824
AAXX 26184 78970 12580 30910 10326 20203 30099 40124 60001 83840 333 02290 10330 20222 59009 83830
AAXX 26184 78962 12575 51115 10295 20202 30128 40136 60001 84201 333 01209 10309 20218 59010 84823
BBXX 46072 26181 99517 71722 46/// /0809 11006 21075 40046 56035 91750 22200 00040 11105 20402 3//// 41104 70023 333 91210 555 11096 22100 31657 41014 61749 077092 078092 070097 088094 094105 086107 80912 91657
BBXX 44007 26181 99435 70701 46/// /3409 10029 21024 40172 53016 91750 22200 00074 10301 20301 3//// 40601 70007 333 91211 555 11098 22103 31654 43411 61749 341092 339084 343084 339092 346096 342096
BBXX 46026 26181 99378 71228 46/// /0201 10099 40274 53014 91750 22200 00108 11604 20401 327// 41604 70022 333 91203 555 11011 22012 31659 43004 61749 002011 288015 273022 282023 281025 280026
BBXX 46041 26181 99474 71247 46/// /1510 10072 40235 56012 91750 22200 00081 11408 20704 3//// 41407 70041 333 91212 555 11109 22115 31719 41413 61749 146103 147097 148100 146101 147097 148096
BBXX 51004 26181 99175 71524 46/// /0510 10240 20178 91750 555 11104 22111
BBXX 51002 26181 99171 71578 46/// /0611 10238 40184 53017 91750 22200 00248 333 91214 555 11121 22128 31748 40714 61749 064111 073110 073110 073113 075110 075116
BBXX 51100 26181 99236 71539 46/// /0608 10222 40245 51013 91750 22200 00229 11205 20503 335// 41204 70024 333 91210 555 11087 22092 31655 40610 61749 056081 057079 059079 059081 051078 054080
AAXX 26184 78951 12580 20913 10285 20202 30132 40147 60001 82800 333 10292 20238 59005 70049 82824
AAXX 26181 14648 12770 13606 10062 21042 30228 40352 53011 60002 81500 333 10082 81650
AAXX 26181 14652 11/01 90202 11106 21113 38016 48600 53016 60002 74741 333 11097 49069 89///
AAXX 26181 14542 11730 80000 10034 20001 30194 40392 54000 60002 71022 885// 333 10046 88652 95990
BBXX CGUM 26184 99463 70604 46/// /1507 10012 21014 40137 56016 7//// 8//// 22242 0//// 2////
BBXX VCRG 26184 99474 70619 46/// /2005 10005 20003 40126 55010 7//// 8//// 22200 0//// 2////
AAXX 26181 02741 37869 72204 10055 20019 30053 40069 57031 70000 85/// 91739 333 10093 20049
AAXX 26181 02755 17982 72604 10009 21028 39875 49970 52029 69952 70000 80/// 91739 333 10033 20008
AAXX 26181 02805 37983 83107 10010 21029 39651 49780 52023 70087 80/// 91739 333 10017 21033
AAXX 26181 02807 47999 72507 11002 21048 39638 49817 700// 80/// 91800 333 10001 21021
AAXX 26181 02836 17999 32706 11018 21044 39636 49856 52024 69922 70082 83/// 91739 333 11002 21024
AAXX 26181 02845 47999 02605 11021 21045 39643 49890 52024 78587 91739 333 11004 21021
AAXX 26181 02849 47999 02803 11021 21040 39584 49855 52020 70000 91739 333 11007 21023
AAXX 26181 02866 17999 02704 11014 21027 39763 49912 52032 69982 70020 91739 333 10006 21014
AAXX 26181 02897 47999 02707 10002 2//// 39757 49938 700// 91800 333 10014 20001
AAXX 26181 02913 47975 02406 10024 21012 39953 40005 700// 333 10056 20020
AAXX 26181 02917 47999 02707 10012 21026 39843 49965 700// 91800 333 10033 20012
AAXX 26181 02924 47977 72502 10010 21024 39821 40019 52024 70000 83/// 91739 333 10040 20010
AAXX 26181 02926 37881 82403 10048 20004 30039 40051 58005 700// 88/// 91800 333 10071 20037
AAXX 26181 02935 47981 02804 10010 21037 39835 40008 52037 70000 91739 333 10040 20010
AAXX 26181 02939 17499 82906 10021 21003 39727 49917 52055 60012 78086 88/// 91739 333 10026 20002
AAXX 26181 02944 47982 32504 10015 21012 39905 40053 700// 83/// 91800 333 10065 20014
AAXX 26181 02947 47983 02707 10020 21035 40012 52044 70000 80/// 91751 333 10052 20019
AAXX 26181 02963 46/// /2203 10020 21014 40067 333 1//// 2////
AAXX 26181 02974 12999 02707 10032 21027 30002 40068 52028 69902 70200 333 10085 20029 32///
AAXX 26181 02976 46/// /2908 10040 21012 30026 40042 52045 91739 333 10073 20040
AAXX 26181 02981 37862 72409 10064 2//// 30079 40089 57015 700// 87/// 91739 333 10086 20063
AAXX 26181 02982 46/// /2810 10059 20030 30083 40091 52005 91739 333 10086 20056
AAXX 26181 11812 36/// /3106 10032 20026 39661 42937 52007 333 10034
AAXX 26181 11813 11570 89902 10058 20031 30023 40381 52005 69912 70266 885// 333 10058 88625
AAXX 26181 11816 11565 73002 10069 20033 30211 40379 53004 69902 70266 875// 333 10069 87627
AAXX 26181 11819 36/// /3602 10018 20011 30159 40385 52008 333 10042
AAXX 26181 11826 12560 80000 10028 20018 30172 40380 52007 60002 885// 333 10041 88620
AAXX 26181 11841 11107 89901 10011 20005 39991 40383 53006 69972 75154 887// 333 10016 42002 88702
AAXX 26181 11855 11110 80602 10028 20024 30213 40385 52008 69942 71062 886// 333 10029 88702
AAXX 26181 11856 16/// /0000 10011 20006 30053 40385 52007 69952 333 10027
AAXX 26181 11858 11535 89902 10038 20032 30227 40384 53005 69972 71052 885// 333 10043 88626
AAXX 26181 11867 11106 80000 10013 20001 30056 40386 53007 69902 75154 887// 333 10016 42002 87703
AAXX 26181 11880 11412 80000 10004 20004 30207 40387 51005 69912 71062 885// 333 10007 41998 88616
AAXX 26181 11900 16/// /0000 10009 21011 30037 40387 52007 69902 333 10016
AAXX 26181 11903 12460 53201 11012 21013 39985 40385 52005 60002 85500 333 10003 43001 82610 85640
AAXX 26181 11916 11/00 90113 11019 21026 38073 48585 53006 69902 74977 333 11004 48050 89/00 93598
AAXX 26181 11918 11/08 92403 10006 20003 39524 42929 53008 69962 74765 333 10009 43004 89/03
AAXX 26181 11927 11235 83401 11008 21012 30115 40391 52009 60002 71022 886// 333 11008 42001 88704 93504
AAXX 26181 11930 11684 13406 11030 21034 37464 47155 52009 60032 72874 81042 333 11021 48032 81333 93564 444 67112
AAXX 26181 11933 11/03 99901 11016 21016 38800 48604 52006 69912 74564 333 10009 44038 89/00
AAXX 26181 11934 11465 89902 10021 20006 39514 42924 51003 69902 70262 885// 333 10023 41998 82710 88618
AAXX 26181 11938 12670 39901 11018 21029 39268 42922 52007 60002 83500 333 10021 44016 83636
AAXX 26181 11952 16/// /9901 11012 21028 39507 42923 52004 60002 333 10016
AAXX 26181 11958 36/// /9902 11001 21005 38889 48608 52009 333 11000
AAXX 26181 11968 11120 82302 11011 21019 30094 40390 52008 69902 71074 886// 333 11009 43002 88702
AAXX 26181 11976 11306 81802 11010 21014 30112 40390 52007 69922 77054 886// 333 11009 42001 88706 93401
AAXX 26181 11978 11235 80000 11010 21014 30253 40390 52006 60002 71022 886// 333 11009 41998 88703 93505
AAXX 26181 11993 12460 80801 10004 21002 30162 40389 52006 60002 886// 333 10015 41998 88714
BBXX CGUM 26184 99463 70604 46/// /1507 10012 21014 40137 56016 7//// 8//// 22242 0//// 2////
BBXX VCRG 26184 99474 70619 46/// /2005 10005 20003 40126 55010 7//// 8//// 22200 0//// 2////
AAXX 26181 76040 32960 02901 10135 20028 30249 40264 52012 91740 333 10200 20040 30/// 59031 98660
AAXX 26181 76055 32980 00903 10178 21013 30226 40245 52015 91740 333 10214 20071 30/// 58///
AAXX 26181 76113 32980 02401 10134 21037 39754 40123 52005 91745 333 10142 20026 30/// 58017
AAXX 26181 76122 32980 00902 10038 21052 38625 40353 57004 91750 333 10045 21072 31/// 58002
AAXX 26181 76225 32960 00701 10065 21049 38689 40288 50004 91745 333 10065 21057 30/// 58///
AAXX 26181 76256 32980 00402 10199 20049 30208 40222 52008 91745 333 10209 20078 30/// 58017
AAXX 26181 76305 32970 33404 10210 20023 30210 40218 52014 80005 91750 333 10215 20140 30/// 56004 58022 83070
AAXX 26181 76323 32970 00201 10088 21052 38345 40396 52002 91740 333 10088 21074 30/// 59018
AAXX 26181 76342 32962 00902 10132 20021 39566 40303 57003 91750 333 10136 20042 30/// 59051
AAXX 26181 76382 32980 01802 10120 20016 38975 40282 57007 91753 333 10126 20010 30/// 59034
AAXX 26181 76390 31868 12404 10094 20005 38260 40265 57001 70544 81050 91730 333 10106 21024 30/// 56070 59020 81356
AAXX 26181 76393 31910 21001 10138 20040 39653 40251 57023 70544 82030 91750 333 10148 20056 30/// 56050 59047
AAXX 26181 76402 31958 40000 10202 20046 30149 40208 52014 70544 80006 91745 333 10202 20036 30/// 56005 58017
AAXX 26181 76423 32580 41201 10118 21029 38179 40242 57008 81204 91740 333 10118 21022 30/// 56505 59021 81830 83067
AAXX 26181 76458 32970 22404 10198 20154 30164 40169 50001 80004 91740 333 10234 20114 30/// 58007 82072
AAXX 26181 76491 32960 23401 10144 20065 39872 40276 57016 80004 91745 333 10148 20090 30/// 56009 59041
AAXX 26181 76499 31860 60000 10168 20067 30230 40252 57019 70122 86070 91745 333 10170 20117 30/// 56090 58023 86357
AAXX 26181 76525 32780 72012 10114 20039 37496 40177 57001 83036 91740 333 10114 20070 30/// 56/55 58001 83356 84080
AAXX 26181 76539 32970 03601 10148 20084 38191 40233 57002 91750 333 10260 20052 30/// 59013
AAXX 26181 76543 32675 70302 10190 20078 30236 40269 58013 8155/ 91745 333 10190 20128 30/// 59030 81650 86358
AAXX 26181 76548 32875 82102 10168 20073 30259 40269 58008 8805/ 91735 333 10170 20134 30/// 5603/ 59027 88357
AAXX 26181 76556 32970 60000 10252 20134 39146 40175 51007 80006 91735 333 10260 20139 30/// 56003 58018 86070
AAXX 26181 76571 32975 42102 10210 20061 38198 40235 56004 80004 91748 333 10214 20042 30/// 56005 59001
AAXX 26181 76577 32570 83604 10197 20152 38073 40201 58004 81106 91740 333 10205 20080 30/// 56505 58001 81826 87081
AAXX 26181 76581 32970 72502 10153 20093 39109 40249 57012 87020 91750 333 10160 20062 30/// 56032 59016 87460
AAXX 26181 76585 32680 43001 10150 20119 30093 40254 58012 82270 91735 333 10165 20109 30/// 5628/ 58032 82833
AAXX 26181 76593 32370 43604 10270 20251 30186 40188 58014 82230 91750 333 10315 20216 30/// 5688/ 59011 82820 82330 91005 91536
AAXX 26181 76612 32962 41901 10222 20082 38506 40197 50000 80005 91750 333 10228 20075 30/// 56006 58/// 84272
AAXX 26181 76632 31665 22403 10180 20071 37658 40160 57005 70500 82400 91740 333 10186 20086 30/// 56300 58/// 59/// 82645 98565
AAXX 26181 76634 31570 23102 10220 20057 37876 40198 57007 70500 82200 91750 333 10225 20055 30/// 565// 58/// 82820
AAXX 26181 76647 32670 30502 10312 20208 30168 40198 58007 83200 91750 333 10315 20202 30/// 56200 59005 82842
AAXX 26181 76656 32975 80000 10225 20086 38536 40203 54000 80007 91750 333 10232 20062 30/// 56005 58/// 88280
AAXX 26181 76658 31960 53203 10301 20157 39651 40157 57008 70542 80006 91749 333 10308 20170 30/// 56001 58038 85070 98934
AAXX 26181 76662 32670 13002 10220 20090 38543 40210 52003 81300 91714 333 10230 20070 30/// 56/// 58014 81833
AAXX 26181 76665 32964 03601 10222 20080 38149 40194 57005 91755 333 10234 20069 30/// 58002
AAXX 26181 76675 32581 10502 10185 20010 37403 40232 569005 81200 91749 333 10193 21013 30/// 569// 59001 81826
AAXX 26181 76680 31957 00501 10192 20042 37783 40133 57006 70500 91755 333 10197 20090 30/// 59006
AAXX 26181 76681 31970 01801 10200 20072 37810 40222 57005 70500 91745 333 10200 20030 30/// 58005
AAXX 26181 76683 32670 12701 10184 20093 37855 40226 56011 81100 91745 333 10195 20040 30/// 56200 59006 81840 94010 94182
AAXX 26181 76685 32970 03601 10196 20059 37897 40184 57003 91745 333 10198 20078 30/// 59003
AAXX 26181 76687 11/01 91101 10141 20125 38728 40240 58003 69911 74554 89/// 91738 333 10160 20105 31/// 59004
AAXX 26181 76692 31556 83608 10210 20149 30219 40239 58001 70222 8655/ 91745 333 10210 20180 30/// 5688/ 58002 86622 91536 91110
AAXX 26181 76695 32560 30602 10298 20223 30169 40175 52014 83200 91750 333 10300 20200 30/// 561// 59009 83825
AAXX 26181 76698 32560 60401 10279 20231 30179 40191 57011 86200 91750 333 10299 20199 31/// 56200 59012 86820
AAXX 26181 76737 31465 73401 10174 20144 38820 40215 58006 70322 876// 91735 333 10190 20134 30/// 562// 59010 87710 91105 91514
AAXX 26181 76743 31356 83202 10239 20219 30194 40202 57004 70211 885// 91745 333 10305 20223 30/// 567// 88608
AAXX 26181 76750 01560 42702 10286 20227 30172 40182 57015 60021 75152 84200 91750 333 10297 20211 31/// 56100 59005 60017 84820
AAXX 26181 76762 32904 03602 10272 20222 38785 40168 58009 91743 333 10275 20134 30/// 58003 91204
AAXX 26181 76773 32570 12501 10234 20143 38450 40181 57012 81100 91748 333 10237 20071 30/// 56900 59001 81820
AAXX 26181 76775 31570 22302 10233 20090 38560 40214 52013 70300 82100 91745 333 10238 20082 30/// 56800 58004 81627 81824
AAXX 26181 76833 32970 03614 10302 20178 30151 40153 57003 91745 333 10302 20244 30/// 58014 92033
AAXX 26181 76840 32560 10207 10280 20190 30094 40150 57005 81100 91740 333 10288 20195 30/// 58/// 81827 91221 91502 90417
AAXX 26181 76843 32565 60805 10219 20160 39534 40181 56013 84630 91745 333 10236 20192 30/// 567// 58009 84820
AAXX 26181 76845 32460 60503 10155 20117 37975 40203 56008 86700 91747 333 10174 20090 30/// 56200 59003 84717 82713
AAXX 26181 76848 32470 70501 10178 20131 38411 40134 58005 87700 91850 333 10188 20134 30/// 56100 58000 87619
AAXX 26181 76855 32580 11301 10304 20224 30082 40131 56004 81200 91745 333 10324 20214 30/// 56900 58009 81820 92000
AAXX 26181 76160 32962 00202 10170 21029 39979 40231 52009 91730 333 10170 20095 30/// 58024
AAXX 26181 76243 32974 01903 10114 20029 39959 40266 57001 91730 333 10122 20018 30/// 59068
AAXX 26181 76311 32980 00000 10210 20028 39917 40206 50013 91745 333 10214 20038 30/// 58021
AAXX 26181 76405 32980 63605 10213 20130 30184 40204 50012 80001 91750 333 10213 20127 30/// 56005 58013 86270
AAXX 26181 76640 31458 73203 10160 20132 30265 40277 57008 70222 8452/ 91740 333 10170 20126 30/// 5689/ 59028 84612 83440
AAXX 26181 76741 31465 63209 10224 20193 30179 40198 58002 70733 83230 91735 333 10249 20190 30/// 5677/ 58001 83813 83398 91112 91532
AAXX 26184 78016 11348 82921 10158 20145 30127 40131 55024 60081 76122 8597/ 333 10213 20156 70084 90910
AAXX 26181 76040 32960 02901 10135 20028 30249 40264 52012 91740 33310200 20040 30/// 59031 98660
AAXX 26181 76055 32980 00903 10178 21013 30226 40245 52015 91740 33310214 20071 30/// 58///
AAXX 26181 76113 32980 02401 10134 21037 39754 40123 52005 91745 33310142 20026 30/// 58017
AAXX 26181 76122 32980 00902 10038 21052 38625 40353 57004 91750 33310045 21072 31/// 58002
AAXX 26181 76225 32960 00701 10065 21049 38689 40288 50004 91745 33310065 21057 30/// 58///
AAXX 26181 76256 32980 00402 10199 20049 30208 40222 52008 91745 33310209 20078 30/// 58017
AAXX 26181 76305 32970 33404 10210 20023 30210 40218 52014 80005 91750333 10215 20140 30/// 56004 58022 83070
AAXX 26181 76323 32970 00201 10088 21052 38345 40396 52002 91740 33310088 21074 30/// 59018
AAXX 26181 76342 32962 00902 10132 20021 39566 40303 57003 91750 33310136 20042 30/// 59051
AAXX 26181 76382 32980 01802 10120 20016 38975 40282 57007 91753 33310126 20010 30/// 59034
AAXX 26181 76390 31868 12404 10094 20005 38260 40265 57001 70544 8105091730 333 10106 21024 30/// 56070 59020 81356
AAXX 26181 76393 31910 21001 10138 20040 39653 40251 57023 70544 8203091750 333 10148 20056 30/// 56050 59047
AAXX 26181 76402 31958 40000 10202 20046 30149 40208 52014 70544 8000691745 333 10202 20036 30/// 56005 58017
AAXX 26181 76423 32580 41201 10118 21029 38179 40242 57008 81204 91740333 10118 21022 30/// 56505 59021 81830 83067
AAXX 26181 76458 32970 22404 10198 20154 30164 40169 50001 80004 91740333 10234 20114 30/// 58007 82072
AAXX 26181 76491 32960 23401 10144 20065 39872 40276 57016 80004 91745333 10148 20090 30/// 56009 59041
AAXX 26181 76499 31860 60000 10168 20067 30230 40252 57019 70122 8607091745 333 10170 20117 30/// 56090 58023 86357
AAXX 26181 76525 32780 72012 10114 20039 37496 40177 57001 83036 91740333 10114 20070 30/// 56/55 58001 83356 84080
AAXX 26181 76539 32970 03601 10148 20084 38191 40233 57002 91750 33310260 20052 30/// 59013
AAXX 26181 76543 32675 70302 10190 20078 30236 40269 58013 8155/ 91745333 10190 20128 30/// 59030 81650 86358
AAXX 26181 76548 32875 82102 10168 20073 30259 40269 58008 8805/ 91735333 10170 20134 30/// 5603/ 59027 88357
AAXX 26181 76556 32970 60000 10252 20134 39146 40175 51007 80006 91735333 10260 20139 30/// 56003 58018 86070
AAXX 26181 76571 32975 42102 10210 20061 38198 40235 56004 80004 91748333 10214 20042 30/// 56005 59001
AAXX 26181 76577 32570 83604 10197 20152 38073 40201 58004 81106 91740333 10205 20080 30/// 56505 58001 81826 87081
AAXX 26181 76581 32970 72502 10153 20093 39109 40249 57012 87020 91750333 10160 20062 30/// 56032 59016 87460
AAXX 26181 76585 32680 43001 10150 20119 30093 40254 58012 82270 91735333 10165 20109 30/// 5628/ 58032 82833
AAXX 26181 76593 32370 43604 10270 20251 30186 40188 58014 82230 91750333 10315 20216 30/// 5688/ 59011 82820 82330 91005 91536
AAXX 26181 76612 32962 41901 10222 20082 38506 40197 50000 80005 91750333 10228 20075 30/// 56006 58/// 84272
AAXX 26181 76632 31665 22403 10180 20071 37658 40160 57005 70500 8240091740 333 10186 20086 30/// 56300 58/// 59/// 82645 98565
AAXX 26181 76634 31570 23102 10220 20057 37876 40198 57007 70500 8220091750 333 10225 20055 30/// 565// 58/// 82820
AAXX 26181 76647 32670 30502 10312 20208 30168 40198 58007 83200 91750333 10315 20202 30/// 56200 59005 82842
AAXX 26181 76656 32975 80000 10225 20086 38536 40203 54000 80007 91750333 10232 20062 30/// 56005 58/// 88280
AAXX 26181 76658 31960 53203 10301 20157 39651 40157 57008 70542 8000691749 333 10308 20170 30/// 56001 58038 85070 98934
AAXX 26181 76662 32670 13002 10220 20090 38543 40210 52003 81300 91714333 10230 20070 30/// 56/// 58014 81833
AAXX 26181 76665 32964 03601 10222 20080 38149 40194 57005 91755 33310234 20069 30/// 58002
AAXX 26181 76675 32581 10502 10185 20010 37403 40232 569005 81200 91749 333 10193 21013 30/// 569// 59001 81826
AAXX 26181 76680 31957 00501 10192 20042 37783 40133 57006 70500 91755333 10197 20090 30/// 59006
AAXX 26181 76681 31970 01801 10200 20072 37810 40222 57005 70500 91745333 10200 20030 30/// 58005
AAXX 26181 76683 32670 12701 10184 20093 37855 40226 56011 81100 91745333 10195 20040 30/// 56200 59006 81840 94010 94182
AAXX 26181 76685 32970 03601 10196 20059 37897 40184 57003 91745 33310198 20078 30/// 59003
AAXX 26181 76687 11/01 91101 10141 20125 38728 40240 58003 69911 7455489/// 91738 333 10160 20105 31/// 59004
AAXX 26181 76692 31556 83608 10210 20149 30219 40239 58001 70222 8655/91745 333 10210 20180 30/// 5688/ 58002 86622 91536 91110
AAXX 26181 76695 32560 30602 10298 20223 30169 40175 52014 83200 91750333 10300 20200 30/// 561// 59009 83825
AAXX 26181 76698 32560 60401 10279 20231 30179 40191 57011 86200 91750333 10299 20199 31/// 56200 59012 86820
AAXX 26181 76737 31465 73401 10174 20144 38820 40215 58006 70322 876//91735 333 10190 20134 30/// 562// 59010 87710 91105 91514
AAXX 26181 76743 31356 83202 10239 20219 30194 40202 57004 70211 885//91745 333 10305 20223 30/// 567// 88608
AAXX 26181 76750 01560 42702 10286 20227 30172 40182 57015 60021 7515284200 91750 333 10297 20211 31/// 56100 59005 60017 84820
AAXX 26181 76762 32904 03602 10272 20222 38785 40168 58009 91743 33310275 20134 30/// 58003 91204
AAXX 26181 76773 32570 12501 10234 20143 38450 40181 57012 81100 91748333 10237 20071 30/// 56900 59001 81820
AAXX 26181 76775 31570 22302 10233 20090 38560 40214 52013 70300 8210091745 333 10238 20082 30/// 56800 58004 81627 81824
AAXX 26181 76833 32970 03614 10302 20178 30151 40153 57003 91745 33310302 20244 30/// 58014 92033
AAXX 26181 76840 32560 10207 10280 20190 30094 40150 57005 81100 91740333 10288 20195 30/// 58/// 81827 91221 91502 90417
AAXX 26181 76843 32565 60805 10219 20160 39534 40181 56013 84630 91745333 10236 20192 30/// 567// 58009 84820
AAXX 26181 76845 32460 60503 10155 20117 37975 40203 56008 86700 91747333 10174 20090 30/// 56200 59003 84717 82713
AAXX 26181 76848 32470 70501 10178 20131 38411 40134 58005 87700 91850333 10188 20134 30/// 56100 58000 87619
AAXX 26181 76855 32580 11301 10304 20224 30082 40131 56004 81200 91745333 10324 20214 30/// 56900 58009 81820 92000
AAXX 26181 76160 32962 00202 10170 21029 39979 40231 52009 91730 33310170 20095 30/// 58024
AAXX 26181 76243 32974 01903 10114 20029 39959 40266 57001 91730 33310122 20018 30/// 59068
AAXX 26181 76311 32980 00000 10210 20028 39917 40206 50013 91745 33310214 20038 30/// 58021
AAXX 26181 76405 32980 63605 10213 20130 30184 40204 50012 80001 91750333 10213 20127 30/// 56005 58013 86270
AAXX 26181 76640 31458 73203 10160 20132 30265 40277 57008 70222 8452/91740 333 10170 20126 30/// 5689/ 59028 84612 83440
AAXX 26181 76741 31465 63209 10224 20193 30179 40198 58002 70733 8323091735 333 10249 20190 30/// 5677/ 58001 83813 83398 9111291532
BBXX CG2960 26184 99429 70824 46/// /2012 10050 21017 40226 58041 7//// 8//// 22200 0//// 2////
BBXX CG2965 26184 99487 71235 46/// /1605 10053 20035 40254 55004 7//// 8//// 22200 0//// 2////
BBXX VOKJ 26184 99466 70555 46/// /1520 11007 21048 40169 58009 7//// 8//// 22223 0//// 2////
BBXX VCLM 26184 99468 70712 46/// /2408 11026 21076 40183 51002 7//// 8//// 22200 0//// 2////
BBXX CGDX 26184 99468 70712 46/// /2410 11028 21083 40189 53004 7//// 8//// 22200 0//// 2////
BBXX VRYO3 26184 99477 70699 46/// /0321 11018 21011 40148 51002 7//// 8//// 22254 00013 2////
AAXX 26181 76040 32960 02901 10135 20028 30249 40264 52012 91740 333 10200 20040 30/// 59031 98660
AAXX 26181 76055 32980 00903 10178 21013 30226 40245 52015 91740 333 10214 20071 30/// 58///
AAXX 26181 76113 32980 02401 10134 21037 39754 40123 52005 91745 333 10142 20026 30/// 58017
AAXX 26181 76122 32980 00902 10038 21052 38625 40353 57004 91750 333 10045 21072 31/// 58002
AAXX 26181 76225 32960 00701 10065 21049 38689 40288 50004 91745 333 10065 21057 30/// 58///
AAXX 26181 76256 32980 00402 10199 20049 30208 40222 52008 91745 333 10209 20078 30/// 58017
AAXX 26181 76305 32970 33404 10210 20023 30210 40218 52014 80005 91750 333 10215 20140 30/// 56004 58022 83070
AAXX 26181 76323 32970 00201 10088 21052 38345 40396 52002 91740 333 10088 21074 30/// 59018
AAXX 26181 76342 32962 00902 10132 20021 39566 40303 57003 91750 333 10136 20042 30/// 59051
AAXX 26181 76382 32980 01802 10120 20016 38975 40282 57007 91753 333 10126 20010 30/// 59034
AAXX 26181 76390 31868 12404 10094 20005 38260 40265 57001 70544 81050 91730 333 10106 21024 30/// 56070 59020 81356
AAXX 26181 76393 31910 21001 10138 20040 39653 40251 57023 70544 82030 91750 333 10148 20056 30/// 56050 59047
AAXX 26181 76402 31958 40000 10202 20046 30149 40208 52014 70544 80006 91745 333 10202 20036 30/// 56005 58017
AAXX 26181 76423 32580 41201 10118 21029 38179 40242 57008 81204 91740 333 10118 21022 30/// 56505 59021 81830 83067
AAXX 26181 76458 32970 22404 10198 20154 30164 40169 50001 80004 91740 333 10234 20114 30/// 58007 82072
AAXX 26181 76491 32960 23401 10144 20065 39872 40276 57016 80004 91745 333 10148 20090 30/// 56009 59041
AAXX 26181 76499 31860 60000 10168 20067 30230 40252 57019 70122 86070 91745 333 10170 20117 30/// 56090 58023 86357
AAXX 26181 76525 32780 72012 10114 20039 37496 40177 57001 83036 91740 333 10114 20070 30/// 56/55 58001 83356 84080
AAXX 26181 76539 32970 03601 10148 20084 38191 40233 57002 91750 333 10260 20052 30/// 59013
AAXX 26181 76543 32675 70302 10190 20078 30236 40269 58013 8155/ 91745 333 10190 20128 30/// 59030 81650 86358
AAXX 26181 76548 32875 82102 10168 20073 30259 40269 58008 8805/ 91735 333 10170 20134 30/// 5603/ 59027 88357
AAXX 26181 76556 32970 60000 10252 20134 39146 40175 51007 80006 91735 333 10260 20139 30/// 56003 58018 86070
AAXX 26181 76571 32975 42102 10210 20061 38198 40235 56004 80004 91748 333 10214 20042 30/// 56005 59001
AAXX 26181 76577 32570 83604 10197 20152 38073 40201 58004 81106 91740 333 10205 20080 30/// 56505 58001 81826 87081
AAXX 26181 76581 32970 72502 10153 20093 39109 40249 57012 87020 91750 333 10160 20062 30/// 56032 59016 87460
AAXX 26181 76585 32680 43001 10150 20119 30093 40254 58012 82270 91735 333 10165 20109 30/// 5628/ 58032 82833
AAXX 26181 76593 32370 43604 10270 20251 30186 40188 58014 82230 91750 333 10315 20216 30/// 5688/ 59011 82820 82330 91005 91536
AAXX 26181 76612 32962 41901 10222 20082 38506 40197 50000 80005 91750 333 10228 20075 30/// 56006 58/// 84272
AAXX 26181 76632 31665 22403 10180 20071 37658 40160 57005 70500 82400 91740 333 10186 20086 30/// 56300 58/// 59/// 82645 98565
AAXX 26181 76634 31570 23102 10220 20057 37876 40198 57007 70500 82200 91750 333 10225 20055 30/// 565// 58/// 82820
AAXX 26181 76647 32670 30502 10312 20208 30168 40198 58007 83200 91750 333 10315 20202 30/// 56200 59005 82842
AAXX 26181 76656 32975 80000 10225 20086 38536 40203 54000 80007 91750 333 10232 20062 30/// 56005 58/// 88280
AAXX 26181 76658 31960 53203 10301 20157 39651 40157 57008 70542 80006 91749 333 10308 20170 30/// 56001 58038 85070 98934
AAXX 26181 76662 32670 13002 10220 20090 38543 40210 52003 81300 91714 333 10230 20070 30/// 56/// 58014 81833
AAXX 26181 76665 32964 03601 10222 20080 38149 40194 57005 91755 333 10234 20069 30/// 58002
AAXX 26181 76675 32581 10502 10185 20010 37403 40232 569005 81200 91749 333 10193 21013 30/// 569// 59001 81826
AAXX 26181 76680 31957 00501 10192 20042 37783 40133 57006 70500 91755 333 10197 20090 30/// 59006
AAXX 26181 76681 31970 01801 10200 20072 37810 40222 57005 70500 91745 333 10200 20030 30/// 58005
AAXX 26181 76683 32670 12701 10184 20093 37855 40226 56011 81100 91745 333 10195 20040 30/// 56200 59006 81840 94010 94182
AAXX 26181 76685 32970 03601 10196 20059 37897 40184 57003 91745 333 10198 20078 30/// 59003
AAXX 26181 76687 11/01 91101 10141 20125 38728 40240 58003 69911 74554 89/// 91738 333 10160 20105 31/// 59004
AAXX 26181 76692 31556 83608 10210 20149 30219 40239 58001 70222 8655/ 91745 333 10210 20180 30/// 5688/ 58002 86622 91536 91110
AAXX 26181 76695 32560 30602 10298 20223 30169 40175 52014 83200 91750 333 10300 20200 30/// 561// 59009 83825
AAXX 26181 76698 32560 60401 10279 20231 30179 40191 57011 86200 91750 333 10299 20199 31/// 56200 59012 86820
AAXX 26181 76737 31465 73401 10174 20144 38820 40215 58006 70322 876// 91735 333 10190 20134 30/// 562// 59010 87710 91105 91514
AAXX 26181 76743 31356 83202 10239 20219 30194 40202 57004 70211 885// 91745 333 10305 20223 30/// 567// 88608
AAXX 26181 76750 01560 42702 10286 20227 30172 40182 57015 60021 75152 84200 91750 333 10297 20211 31/// 56100 59005 60017 84820
AAXX 26181 76762 32904 03602 10272 20222 38785 40168 58009 91743 333 10275 20134 30/// 58003 91204
AAXX 26181 76773 32570 12501 10234 20143 38450 40181 57012 81100 91748 333 10237 20071 30/// 56900 59001 81820
AAXX 26181 76775 31570 22302 10233 20090 38560 40214 52013 70300 82100 91745 333 10238 20082 30/// 56800 58004 81627 81824
AAXX 26181 76833 32970 03614 10302 20178 30151 40153 57003 91745 333 10302 20244 30/// 58014 92033
AAXX 26181 76840 32560 10207 10280 20190 30094 40150 57005 81100 91740 333 10288 20195 30/// 58/// 81827 91221 91502 90417
AAXX 26181 76843 32565 60805 10219 20160 39534 40181 56013 84630 91745 333 10236 20192 30/// 567// 58009 84820
AAXX 26181 76845 32460 60503 10155 20117 37975 40203 56008 86700 91747 333 10174 20090 30/// 56200 59003 84717 82713
AAXX 26181 76848 32470 70501 10178 20131 38411 40134 58005 87700 91850 333 10188 20134 30/// 56100 58000 87619
AAXX 26181 76855 32580 11301 10304 20224 30082 40131 56004 81200 91745 333 10324 20214 30/// 56900 58009 81820 92000
AAXX 26181 76160 32962 00202 10170 21029 39979 40231 52009 91730 333 10170 20095 30/// 58024
AAXX 26181 76243 32974 01903 10114 20029 39959 40266 57001 91730 333 10122 20018 30/// 59068
AAXX 26181 76311 32980 00000 10210 20028 39917 40206 50013 91745 333 10214 20038 30/// 58021
AAXX 26181 76405 32980 63605 10213 20130 30184 40204 50012 80001 91750 333 10213 20127 30/// 56005 58013 86270
AAXX 26181 76640 31458 73203 10160 20132 30265 40277 57008 70222 8452/ 91740 333 10170 20126 30/// 5689/ 59028 84612 83440
AAXX 26181 76741 31465 63209 10224 20193 30179 40198 58002 70733 83230 91735 333 10249 20190 30/// 5677/ 58001 83813 83398 91112 91532
BBXX CGDR 26184 99484 71234 46/// /3604 10049 20048 40266 51007 7//// 8//// 22200 0//// 2////
BBXX CG2350 26184 99433 70798 46/// /2512 10028 21032 40232 58026 7//// 8//// 22200 0//// 2////
BBXX CZ9742 26184 99506 70969 46/// /2607 10036 21017 49929 56003 7//// 8//// 22200 0//// 2////
AAXX 26184 78958 11575 31209 10298 20223 30123 40133 69921 80280 83800 333 10304 20231 59009 83821
AAXX 26184 78016 11348 82921 10158 20145 30127 40131 55024 60081 76122 8597/ 333 10213 20156 70084 90910
AAXX 26184 41923 31930 00000 10154 20140 30128 40138 70500 333 58006 70000
AAXX 26184 41936 31920 00000 10136 20120 40150 70500 333 58013 70000
AAXX 26184 41943 31940 00000 10166 20160 30138 40146 70500 333 58006 70000
AAXX 26184 41950 31935 00000 10153 20150 30133 40136 70510 333 58005 70000
AAXX 26184 41978 31932 20000 10200 20180 30126 40132 70500 82030 333 56900 58003 70000 82362
AAXX 26184 41992 31930 30000 10215 20190 30122 40125 70521 83030 333 56090 59001 70000 83362
BBXX CGDX 26184 99468 70712 46/// /2410 11028 21083 40189 53004 7//// 8//// 22200 0//// 2////
BBXX CG2965 26184 99487 71235 46/// /1605 10053 20035 40254 55004 7//// 8//// 22200 0//// 2////
BBXX CG2350 26184 99433 70798 46/// /2512 10028 21032 40232 58026 7//// 8//// 22200 0//// 2////
BBXX CG2960 26184 99429 70824 46/// /2012 10050 21017 40226 58041 7//// 8//// 22200 0//// 2////
BBXX VCLM 26184 99468 70712 46/// /2408 11026 21076 40183 51002 7//// 8//// 22200 0//// 2////
BBXX VRYO3 26184 99477 70699 46/// /0321 11018 21011 40148 51002 7//// 8//// 22254 00013 2////
BBXX CZ9742 26184 99506 70969 46/// /2607 10036 21017 49929 56003 7//// 8//// 22200 0//// 2////
BBXX VOKJ 26184 99466 70555 46/// /1520 11007 21048 40169 58009 7//// 8//// 22223 0//// 2////
BBXX CGDR 26184 99484 71234 46/// /3604 10049 20048 40266 51007 7//// 8//// 22200 0//// 2////
AAXX 26181 01492 11488 72202 10068 20053 39914 40030 58025 60002 70222 8167/ 333 10070 91110
AAXX 26181 01028 11380 42204 11005 21011 39674 49693 50007 69912 72684 84800 333 10001 91107
AAXX 26181 01160 41789 42103 10023 21032 39850 49867 58029 70282 84800 333 10048 91117
AAXX 26181 01359 11350 82410 10050 20017 39107 40002 50005 60132 76386 8802/ 333 10058 91116
AAXX 26184 81401 06/// /0507 10304 20226 30100 40106 60021 333 60007 59006 555 60005
AAXX 26184 81408 06/// /0907 10291 20233 30096 40104 60021 333 69967 59007 555 60005
AAXX 26181 11423 01/01 92604 10031 20030 39479 42947 50008 69912 75144 333 10032 42004 69915 89/01
AAXX 26181 11487 01365 82905 10049 20041 39741 40380 52003 69902 70252 885// 333 10052 60005 84709 88628
AAXX 26181 11518 02681 72505 10056 20041 39921 40372 52008 60002 875// 333 10078 60005 87636 91111
AAXX 26181 11603 01210 81201 10048 20039 39869 40365 52007 69952 75252 887// 333 10059 69915 81706 85708 87710
AAXX 26181 11659 01/09 92702 10045 20045 39717 40374 52008 69932 74554 333 10048 69915 89/02
AAXX 26181 11723 02670 82701 10061 20036 30067 40373 52005 69902 885// 333 10072 60005 88643
AAXX 26181 11782 01250 82004 10049 20043 30050 40364 51007 69922 75065 885// 333 10054 69905 85705 88622
AAXX 26184 78958 11575 31209 10298 20223 30123 40133 69921 80280 83800 333 10304 20231 59009 83821
BBXX VXKF 26184 99462 70602 46/// /1902 10007 21017 40138 56014 7//// 8//// 22200 0//// 2////
BBXX VCBW 26184 99456 70735 46/// /2607 11018 21074 40203 50001 7//// 8//// 22252 00036 2////
BBXX CGSB 26184 99479 70695 46/// /2216 11033 21057 40162 50001 7//// 8//// 22241 00012 2////
BBXX VOLG 26184 99447 70618 46/// /1807 10047 20002 40127 53001 7//// 8//// 22224 0//// 2////
BBXX CGTF 26184 99476 70527 46/// /1306 11034 21098 40206 56012 7//// 8//// 22200 0//// 2////
BBXX CG2958 26184 99543 71303 46/// /1410 10060 20034 49999 56041 7//// 8//// 22200 0//// 2////
BBXX VCWL 26184 99468 70712 46/// /2504 11032 21085 40189 51003 7//// 8//// 22200 0//// 2////
BBXX CGHL 26184 99476 70527 46/// /2105 11031 21097 40206 56011 7//// 8//// 22200 0//// 2////
BBXX VAAP 26184 99501 70664 46/// /2407 11052 21104 40100 56013 7//// 8//// 22241 0//// 2////
BBXX VOFG 26184 99456 70614 46/// /1403 10032 20001 40134 56011 7//// 8//// 22200 0//// 2////
BBXX CGJK 26184 99484 71234 46/// /0105 10055 20044 40251 56006 7//// 8//// 22200 0//// 2////
BBXX VCSZ 26184 99455 70735 46/// /2407 11016 21045 40205 50003 7//// 8//// 22252 0//// 2////
BBXX VOPP 26184 99456 70735 46/// /2505 11019 21074 4//// 5//// 7//// 8//// 22200 0//// 2////
BBXX CGBN 26184 99447 70636 46/// /1703 10048 20021 40121 55008 7//// 8//// 22200 0//// 2////
BBXX 3FZK3 26184 99492 71229 46/// /1206 10038 20037 40253 55002 7//// 8//// 22200 0//// 2////
BBXX VAAZ 26184 99/// ///// 46/// /2417 11033 21083 40203 55007 7//// 8//// 22200 0//// 2////
BBXX CGBR 26184 99522 71281 46/// /0403 10060 20039 40101 56032 7//// 8//// 22200 0//// 2////
BBXX CGDT 26184 99468 70712 46/// /2409 11027 21081 40190 53004 7//// 8//// 22200 0//// 2////
BBXX CGCC 26184 99454 70735 46/// /2514 11021 21074 4//// 5//// 7//// 8//// 22241 00018 2////
BBXX CGBY 26184 99487 71235 46/// /1505 10055 20038 40253 55003 7//// 8//// 22200 0//// 2////
BBXX 41010 26181 99289 70785 46/// /0309 10219 40215 58013 91750 22200 00238 10603 20603 300// 40801 70017 333 91211 555 11095 22100
BBXX 41009 26181 99285 70802 46/// /0208 10230 20183 40219 58013 91750 22200 00246 10603 20602 300// 40801 70013 333 91210 555 11086 22090
BBXX 42057 26181 99168 70815 46/// /0809 10277 20219 40157 58018 91750 22200 00275 10704 20603 3//// 40703 70019 333 91210 555 11090 22096 31734 40711 61749 074091 074085 071088 071082 069088 071093 80710 91659
BBXX CGDG 26184 99447 70636 46/// /1603 10037 20090 40121 55008 7//// 8//// 22200 0//// 2////
AAXX 26184 81401 06/// /0507 10304 20226 30100 40106 60021 333 60007 59006 555 60005
AAXX 26184 81408 06/// /0907 10291 20233 30096 40104 60021 333 69967 59007 555 60005
BBXX VOPP 26184 99456 70735 46/// /2505 11019 21074 4//// 5//// 7//// 8//// 22200 0//// 2////
BBXX VCBW 26184 99456 70735 46/// /2607 11018 21074 40203 50001 7//// 8//// 22252 00036 2////
BBXX VAAP 26184 99501 70664 46/// /2407 11052 21104 40100 56013 7//// 8//// 22241 0//// 2////
BBXX VOLG 26184 99447 70618 46/// /1807 10047 20002 40127 53001 7//// 8//// 22224 0//// 2////
BBXX CGHL 26184 99476 70527 46/// /2105 11031 21097 40206 56011 7//// 8//// 22200 0//// 2////
BBXX CGBN 26184 99447 70636 46/// /1703 10048 20021 40121 55008 7//// 8//// 22200 0//// 2////
BBXX CGBR 26184 99522 71281 46/// /0403 10060 20039 40101 56032 7//// 8//// 22200 0//// 2////
BBXX CGJK 26184 99484 71234 46/// /0105 10055 20044 40251 56006 7//// 8//// 22200 0//// 2////
BBXX VAAZ 26184 99/// ///// 46/// /2417 11033 21083 40203 55007 7//// 8//// 22200 0//// 2////
BBXX VXKF 26184 99462 70602 46/// /1902 10007 21017 40138 56014 7//// 8//// 22200 0//// 2////
BBXX VOFG 26184 99456 70614 46/// /1403 10032 20001 40134 56011 7//// 8//// 22200 0//// 2////
BBXX CGTF 26184 99476 70527 46/// /1306 11034 21098 40206 56012 7//// 8//// 22200 0//// 2////
BBXX CGBY 26184 99487 71235 46/// /1505 10055 20038 40253 55003 7//// 8//// 22200 0//// 2////
BBXX VCSZ 26184 99455 70735 46/// /2407 11016 21045 40205 50003 7//// 8//// 22252 0//// 2////
BBXX CG2958 26184 99543 71303 46/// /1410 10060 20034 49999 56041 7//// 8//// 22200 0//// 2////
BBXX VCWL 26184 99468 70712 46/// /2504 11032 21085 40189 51003 7//// 8//// 22200 0//// 2////
BBXX CGDT 26184 99468 70712 46/// /2409 11027 21081 40190 53004 7//// 8//// 22200 0//// 2////
BBXX CGSB 26184 99479 70695 46/// /2216 11033 21057 40162 50001 7//// 8//// 22241 00012 2////
BBXX CGCC 26184 99454 70735 46/// /2514 11021 21074 4//// 5//// 7//// 8//// 22241 00018 2////
BBXX 3FZK3 26184 99492 71229 46/// /1206 10038 20037 40253 55002 7//// 8//// 22200 0//// 2////
BBXX 44039 26181 99411 70727 46/// /3210 10063 21034 40211 91745 22200 00089 10402 70010 333 91214
AAXX 26184 60060 32956 00408 10166 20124 40250 54000 333 10177
AAXX 26184 60105 32962 03208 10154 20063 40262 52001 333 10192
AAXX 26184 60107 32965 01804 10130 20025 40308 53013 333 10177
AAXX 26184 60127 32960 00906 10114 20031 39697 40303 53001 333 10140
AAXX 26184 60141 32960 00703 10093 20026 39600 40279 51008 333 10161
AAXX 26184 60185 32965 03203 10145 20113 40265 52005 333 10171
AAXX 26184 60191 32970 02602 10165 20065 40252 53003 333 10228
AAXX 26184 60210 32965 01604 10121 20005 39075 48591 53007 333 10163
AAXX 26184 60220 32960 00204 10159 20108 40254 51005 333 10174
AAXX 26184 60265 32970 03402 10138 21035 38955 48578 53001 333 10169
AAXX 26184 60106 NIL
AAXX 26184 60190 NIL
AAXX 26184 60195 NIL
AAXX 26184 60318 NIL
AAXX 26184 60096 32960 53512 10181 20118 40210 53008 80002 333 10220 85070
AAXX 26184 60101 32460 21015 10138 20057 40290 51009 82200 333 10174 82816
AAXX 26184 60115 32965 03604 10098 20022 40313 51007 91745 333 10144
AAXX 26184 60135 31430 10601 10111 20090 40262 53009 71000 81600 333 10176 81710
AAXX 26184 60155 32958 036// 10142 20107 40252 53004 333 10188
AAXX 26184 60156 17956 03506 10126 20092 40270 53010 60002 71010 333 10207
AAXX 26184 60150 NIL
AAXX 26184 60230 NIL
AAXX 26184 60252 NIL
AAXX 26184 64500 42360 82406 10275 20239 30079 40092 885// 333 10295 58000 83608 88630
AAXX 26184 60285 32960 10208 10176 20118 40233 56004 80002 333 10226 81070
AAXX 26184 60340 32958 00610 10113 20054 40320 53009 333 10156
AAXX 26181 14528 NIL
AAXX 26181 14537 NIL
AAXX 26181 14544 NIL
AAXX 26181 14557 11958 00202 11010 21027 30025 40414 52010 60002 71011
AAXX 26181 14640 NIL
AAXX 26184 41915 31950 00000 10134 20120 30125 40152 70500 333 58006 70000
AAXX 26184 41926 31940 00000 10118 20110 30134 40148 70500 333 58008 70000
AAXX 26184 41941 31940 00000 10135 20130 30141 40147 70500 333 58005 70000
AAXX 26184 41947 31940 00000 10156 20150 30142 40144 70544 333 58014 70000
AAXX 26184 41960 31915 00000 10168 20165 30147 40149 71000 333 58009 70000
AAXX 26184 41984 31940 00000 10165 20160 30128 40130 70500 333 59002 70000
AAXX 26181 45032 36/// /0701 10111 20080 30237 40254 54000
AAXX 26181 45035 36/// /9901 10135 20090 30210 40254 57001
AAXX 26181 45039 36/// /0503 10153 20107 30236 40252 57001
AAXX 26181 45044 36/// /0910 10155 20106 30151 40247 57001
AAXX 26181 45032 36/// /0701 10111 20080 30237 40254 54000
AAXX 26181 45035 36/// /9901 10135 20090 30210 40254 57001
AAXX 26181 45039 36/// /0503 10153 20107 30236 40252 57001
AAXX 26181 45044 36/// /0910 10155 20106 30151 40247 57001
BBXX C6SI6 26184 99338 11349 46/// /3121 10051 21022 40286 51010 7//// 8//// 22243 0//// 2////
AAXX 26184 17600 12765 10306 10109 20063 30258 40268 53013 60002 81500 333 10174 20088 81650
AAXX 26184 17601 12681 63503 10137 20066 30234 40265 53012 60002 868// 91750 333 10167 83840 86650
AAXX 26184 17607 NIL
AAXX 26184 17609 12770 73304 10099 20053 30269 40273 52012 60002 86530 333 10167 20087 86656
BBXX 42364 26181 99291 70881 46/// /1108 10217 20183 40207 58017 91800
BBXX 41046 26181 99238 70683 46/// /1101 10246 20152 40192 58025 91750 22200 00257 10803 20301 300// 40803 70014 333 91201 555 11008 22008 31654 41302 61749 111009 109012 117013 115013 129012 107012 81202 91710
BBXX 44011 26181 99411 70666 46/// /0212 10067 20060 40090 53009 91750 22200 00088 10504 20504 3//// 40801 70020 333 91215 555 11129 22137 31738 41918 61749 015123 001147 357140 356144 357142 000137
AAXX 26184 48601 11560 70204 10266 20206 30105 40109 60001 70522 82538 333 82625 84364 87276
AAXX 26184 48615 11560 81007 10258 20218 30122 40128 60001 70522 82547 333 82620 85364 87272
AAXX 26184 48620 11560 70601 10262 20250 30098 40107 60001 70522 82548 333 82630 84364 87276
AAXX 26184 48647 11557 70501 10275 20230 30081 40106 60001 70522 81542 333 81626 84364 87078
AAXX 26184 48657 11557 73408 10237 20225 30109 40127 60001 70522 83585 333 83626 85366
AAXX 26184 48665 12564 70408 10248 20219 30105 40115 60001 82542 333 82628 84364 86077
AAXX 26184 96413 11520 81804 10236 20232 30079 40106 60291 76366 8552/ 333 85620 88465
AAXX 26184 96421 11262 71703 10247 20240 30061 40097 60201 76166 8557/ 333 81705 84618 86365
AAXX 26184 96441 11062 71001 10252 20247 30060 40087 60001 71022 84531 333 81701 83616 85365
AAXX 26184 96449 12465 71303 10246 20239 30064 40083 69921 83571 333 83614 85365
AAXX 26184 96465 12465 70102 10266 20252 30048 40081 60001 81838 333 81812 83364 87279
AAXX 26184 96471 12468 70901 10252 20236 30078 40081 60001 82848 333 81814 83364 87276
AAXX 26184 96481 12462 70803 10249 20232 30067 40086 60001 8487/ 333 82817 86364
AAXX 26184 96491 11325 82806 10240 20236 30079 40091 60391 76362 8482/ 333 82707 83625 88468
BBXX 46061 26181 99602 71468 46/// /3510 10004 49829 57062 91750 22200 00050 10603 20603 300// 40802 70016 333 91212 555 11110 22116 31703 43612 61749 354103 358102 003103 000098 000105 005105
BBXX 46083 26181 99582 71380 46/// /1124 10015 20013 49755 56059 91750 22200 00067 10811 20608 300// 40807 70053 333 91229 555 11257 22275 31731 41231 61749 113238 114235 111228 109233 114227 115221 81226 91731
BBXX 46089 26181 99459 71258 46/// /1809 10088 20050 40237 56011 91750 22200 00091 11407 20803 327// 41406 70036 333 91211 555 11097 22103 31748 41911 61749 182091 188090 188088 184093 183086 186084
AAXX 26184 89514 32597 81129 11022 49815 57005 8602/ 333 88225
AAXX 26184 89642 40/// /1028 11004 21010 39643 49695 53019 333 01158 91158
AAXX 26184 71805 02570 71813 11001 21042 30162 40171 55014 69922 878// 333 11001 21040 43005 60007 82821 86633 90710 91121 93100 555 60005
BBXX VOKF 26184 99490 70669 46/// /2315 11047 21091 40127 55001 7//// 8//// 22200 0//// 2////
BBXX DBLK 26181 99640 30000 41498 83113 11011 21025 49708 52010 70222 875// 22200 05014 20201 ICE 64660
BBXX 51000 26181 99235 71541 46/// /0508 10219 40240 51013 91750 22200 00228 10905 20603 309// 40904 70025 333 91210 555 11086 22091 31713 40510 61749 045081 048080 056080 056082 059077 057079
AAXX 26181 01062 11570 40306 11022 21029 39680 49692 52006 69912 70187 84300 333 11007 91110
AAXX 26181 01152 16/// /1806 10029 21018 39864 49880 58032 6//// 333 10049 91119
AAXX 26181 01205 46/// /0000 10103 20087 39822 49866 55009 333 10121 91100
AAXX 26181 01238 41457 82012 10036 20013 38813 49939 56018 71876 8572/ 333 10037 91121
AAXX 26184 61968 16/// /0708 10279 20231 40118 60022 333 10322 59001 90710 91117 555 60005
AAXX 26184 61970 16/// ///// 10282 20244 40123 60002 333 10329 58006 555 60005
AAXX 26184 61980 11562 70707 10236 20213 40156 69902 76122 87800 333 10294 59006 82823 87646 90710 91119 924/7 555 69905
AAXX 26184 67005 14/// /0206 10287 20249 40118 60002 700// 333 10319 58002 90710 91112 555 60005
BBXX 44060 26181 99413 70721 46/// ///09 10060 40194 51010 91800 22200 00101 333 91212 555 11098 22103
BBXX 44008 26181 99405 70692 46/// /3413 10070 20037 40141 53020 91750 22200 00109 333 91217 555 11142 22150
BBXX 44172 26181 99445 70634 46/// ///// 1//// 91801 22200 00062 10603 20603 70013
BBXX 44097 26181 99410 70711 46/// ///// 1//// 91802 22200 00118 10504 20504 70018
AAXX 26184 78948 12582 70914 10276 20229 30138 40146 69901 70281 874// 333 05299 10283 20246 59003 79999 82820 87640 90920
AAXX 26184 SALC31 TLPL 261800 METAR TLPL 261800Z 09014KT 9999 FEW020 BKN040 28/23 Q1014
AAXX 26181 89061 179// 00000 10015 20009 39835 49842 52007 60023 77177 333 91002 91105
AAXX 26184 78982 11580 20916 10266 20235 30118 40123 57026 69961 70181 82201 333 59012 60007 82820
BBXX VEP717 26184 99467 70487 41698 62704 11007 2107/ 40211 57019 70122 86500 22200 06021 335// 40806 81028
AAXX 26181 89061 179// 00000 10015 20009 39835 49842 52007 60023 77177 333 91002 91105
BBXX 44100 26181 99363 70756 46/// ///// 1//// 91752 22200 00124 10704 20704 70019
BBXX 41110 26181 99341 70777 46/// ///// 1//// 91751 22200 00138 10901 20901 70005
BBXX 42099 26181 99273 70842 46/// ///// 1//// 91757 22200 00230 10402 20402 70009
BBXX 41113 26181 99284 70805 46/// ///// 1//// 91751 22200 00226 10901 20901 70007
BBXX 41112 26181 99307 70813 46/// ///// 1//// 91751 22200 00170 10502 20502 70012
BBXX 51204 26181 99213 71581 46/// ///// 1//// 91752 22200 00244 10603 20603 327// 41301 70015
BBXX 51201 26181 99217 71581 46/// ///// 1//// 91742 22200 00240 11304 21003 336// 41303 70021
BBXX 51202 26181 99214 71577 46/// ///// 1//// 91739 22200 00239 11306 20705 335// 41303 70030
BBXX 44099 26181 99369 70757 46/// ///// 1//// 91752 22200 00118 10402 20402 70012
BBXX 46232 26181 99325 71174 46/// ///// 1//// 91738 22200 00147 11302 21001 327// 41302 70011
BBXX 46247 26181 99378 71228 46/// ///// 1//// 91751 22200 00111 11705 20902 328// 41704 70023
BBXX 46243 26181 99462 71241 46/// ///// 1//// 91759 22200 00088 11406 20904 326// 41405 70031
BBXX 46236 26181 99368 71219 46/// ///// 1//// 91750 22200 00122 11504 21002 328// 41503 70020
BBXX 46229 26181 99438 71246 46/// ///// 1//// 91751 22200 00095 11408 21004 328// 41407 70040
BBXX 46217 26181 99342 71194 46/// ///// 1//// 91742 22200 00145 11302 21001 327// 41301 70009
BBXX 46225 26181 99329 71174 46/// ///// 1//// 91744 22200 00148 11301 21001 323// 41301 70007
BBXX 46213 26181 99403 71247 46/// ///// 1//// 91754 22200 00099 11507 21004 328// 41506 70034
BBXX 46215 26181 99352 71209 46/// ///// 1//// 91738 22200 00130 11504 20703 326// 41503 70021
BBXX 46219 26181 99332 71199 46/// ///// 1//// 91758 22200 00137 11504 20703 330// 41504 70022
BBXX 46224 26181 99332 71175 46/// ///// 1//// 91736 22200 00140 11501 21001 318// 41501 70007
BBXX 46214 26181 99379 71235 46/// ///// 1//// 91753 22200 00124 11507 21003 330// 41506 70033
AAXX 26184 48601 11560 70204 10266 20206 30105 40109 60001 70522 82538 333 82625 84364 87276
AAXX 26184 48615 11560 81007 10258 20218 30122 40128 60001 70522 82547 333 82620 85364 87272
AAXX 26184 48620 11560 70601 10262 20250 30098 40107 60001 70522 82548 333 82630 84364 87276
AAXX 26184 48647 11557 70501 10275 20230 30081 40106 60001 70522 81542 333 81626 84364 87078
AAXX 26184 48650 11560 70411 10268 20222 30085 40104 60001 70522 82542 333 82630 85364 85078
AAXX 26184 48657 11557 73408 10237 20225 30109 40127 60001 70522 83585 333 83626 85366
AAXX 26184 48665 12564 70408 10248 20219 30105 40115 60001 82542 333 82628 84364 86077
AAXX 26184 96413 11520 81804 10236 20232 30079 40106 60291 76366 8552/ 333 85620 88465
AAXX 26184 96421 11262 71703 10247 20240 30061 40097 60201 76166 8557/ 333 81705 84618 86365
AAXX 26184 96441 11062 71001 10252 20247 30060 40087 60001 71022 84531 333 81701 83616 85365
AAXX 26184 96449 12465 71303 10246 20239 30064 40083 69921 83571 333 83614 85365
AAXX 26184 96465 12465 70102 10266 20252 30048 40081 60001 81838 333 81812 83364 87279
AAXX 26184 96471 12468 70901 10252 20236 30078 40081 60001 82848 333 81814 83364 87276
AAXX 26184 96481 12462 70803 10249 20232 30067 40086 60001 8487/ 333 82817 86364
AAXX 26184 96491 11325 82806 10240 20236 30079 40091 60391 76362 8482/ 333 82707 83625 88468
AAXX 26184 86068 32670 32208 10350 20184 39927 40113 57039 82101 333 82840 82070
AAXX 26184 43533 11458 73603 10253 20228 30111 40114 60001 70522 82208 333 58007 82818 87277
AAXX 26184 43555 11459 52706 10283 20246 30114 40117 69901 72582 82201 333 58006 82818 84077
AAXX 26184 43577 12460 59901 10260 20234 30122 40124 60001 81202 333 58010 81818 85077
AAXX 26184 43588 12468 72703 10269 20235 30114 40116 60001 82208 333 58006 82818 87277
AAXX 26184 43599 12462 79901 10276 20247 30120 40122 60001 82202 333 58007 82818 87076
AAXX 26181 06206 46566 82211 10106 20079 30236 40289 53011 8//// 333 10109 88/27 91013 91116 91214
AAXX 26181 06207 45564 82314 10089 20071 30239 40294 51009 8//// 333 10089 88/26 91016 91117 91215
AAXX 26181 06239 45961 0//13 10103 20083 3//// 4//// 5//// 333 10104 91015 91118 91215
AAXX 26181 06252 46/// /2412 10113 20089 30258 40305 51008 222// 00097 10503 333 10115 91014 91115 91213
AAXX 26181 06260 15367 82305 10110 20094 30342 40344 51006 69902 8//// 333 10120 85/08 87/10 88/12 91010 91111 91206
AAXX 26181 06270 15565 82306 10098 20087 30317 40317 53008 60002 8//// 333 10114 88/25 91008 91113 91209
AAXX 26181 06290 17359 82204 10104 20096 30303 40344 53008 69992 71010 8//// 333 10106 82/07 84/08 86/09 91007 91108 91205
AAXX 26181 06201 45964 02212 10101 20087 30207 40260 50007 333 10102 91014 91116 91214
AAXX 26181 06203 45965 02412 10108 20095 30274 40325 52008 333 10110 91014 91114 91213
AAXX 26181 06204 45569 82314 10111 20093 30255 40306 53006 8//// 333 10116 88/24 91016 91117 91215
AAXX 26181 06205 45963 12215 10099 20078 30163 40223 50000 8//// 333 10104 81/66 91018 91119 91216
AAXX 26181 06208 45563 72211 10096 20081 30260 40310 51006 8//// 333 10100 87/24 91013 91114 91211
AAXX 26181 06211 45571 82112 10104 20082 30231 40287 53009 8//// 333 10108 87/27 88/30 91014 91117 91215
AAXX 26181 06212 45561 82312 1//// 2//// 30255 40319 53009 8//// 333 1//// 83/25 88/28 91013 91116 91213
AAXX 26181 06235 15261 82208 10091 20083 30323 40323 53007 60002 8//// 333 10105 85/05 88/31 91010 91115 91210
AAXX 26181 06240 15470 82307 10110 20096 30344 40339 52007 60002 8//// 333 10130 88/12 91008 91114 91210
AAXX 26181 06251 15565 82310 10096 20087 30308 40309 52005 60002 8//// 333 10099 88/28 91013 91114 91211
AAXX 26181 06258 46/// /2207 333 91008 91112 91211
AAXX 26181 06269 15471 82306 10109 20093 30343 40337 52009 60002 8//// 333 10126 86/11 88/14 91009 91111 91208
AAXX 26181 06280 15373 82308 10108 20092 30317 40321 51008 60002 8//// 333 10115 84/09 85/11 85/15 91011 91112 91208
AAXX 26181 06310 15461 82206 10099 20089 30345 40355 53007 69902 8//// 333 10102 81/10 86/13 88/16 91007 91113 91210
AAXX 26181 06344 15469 82207 10109 20095 30353 40346 53007 69902 8//// 333 10120 85/11 88/14 91009 91111 91208
AAXX 26181 06370 17113 82205 10097 20097 30333 40359 53006 60022 78151 8//// 333 10098 85/03 88/04 91007 91108 91206
AAXX 26181 06380 17250 82204 10090 20085 30228 40371 52004 69952 71000 8//// 333 10093 85/04 88/05 91006 91109 91207
AAXX 26184 43533 11458 73603 10253 20228 30111 40114 60001 70522 82208 333 58007 82818 87277
AAXX 26184 43555 11459 52706 10283 20246 30114 40117 69901 72582 82201 333 58006 82818 84077
AAXX 26184 43577 12460 59901 10260 20234 30122 40124 60001 81202 333 58010 81818 85077
AAXX 26184 43588 12468 72703 10269 20235 30114 40116 60001 82208 333 58006 82818 87277
AAXX 26184 43599 12462 79901 10276 20247 30120 40122 60001 82202 333 58007 82818 87076
AAXX 26184 91574 46/// ///// 29081 39932 49938 56011
AAXX 26184 91570 NIL
AAXX 26184 91598 NIL
AAXX 26184 91573 06/// /2312 10247 2//// 39942 4//// 53003 69921 333 58004 69927
AAXX 26184 91579 06/// /2810 10258 20215 30017 40025 53006 60001 333 59003 60007
AAXX 26184 91582 04970 /2806 10242 20217 39992 40026 53005 60002 700// 333 10291 20240 60007 90710 91112 555 60005
AAXX 26184 91583 06/// /2504 10226 20194 30008 40023 53004 60001 333 58002 60007
AAXX 26184 91587 06/// /3104 10236 20217 39978 40022 53006 60001 333 59008 60007
AAXX 26184 91590 04586 83110 10246 20192 39974 40016 53005 69902 700// 333 10279 20219 69907 90710 91120 555 69905
AAXX 26184 91592 06/// /2813 10233 20206 39930 40014 53004 60001 333 59006 60007
AAXX 26184 91596 06/// /3206 10221 20209 39907 40015 53006 60031 333 59008 60007
AAXX 26184 91577 NIL
AAXX 26184 16045 NIL
AAXX 26184 16090 11957 01203 10050 20047 30281 40367 53009 60002 71000 333 10122
AAXX 26184 16149 12965 03107 10087 20033 30341 40357 54000 60002 333 10100
AAXX 26184 16261 NIL
AAXX 26184 16453 12597 80809 10130 20081 30186 40266 52007 60002 8452/ 333 10170 55300 84620 87457 555 0200/
AAXX 26184 16560 NIL
AAXX 26181 06400 11466 72105 10107 20093 30354 40365 53010 69902 70152 875// 333 10121 82710 87613 91111 91208
AAXX 26181 06428 NIL
AAXX 26181 06451 11359 72303 10097 20083 30301 40370 53006 69902 70252 876// 333 10098 87708 91108 91205
AAXX 26181 06456 11007 92303 10077 20077 30004 40378 53004 69902 74622 876// 333 10078 85701 87702 91106 91204
AAXX 26181 06476 17/01 92202 10055 20054 39705 40384 52005 69962 73333 333 10060 91104 91202
AAXX 26181 06479 17221 /2204 10093 20089 30289 40370 53005 60022 71055 333 10095 83/03 87/05 91107 91205
AAXX 26181 06490 17125 82303 10070 20063 39797 40379 52004 69982 71043 333 10074 88/02 91106 91204
AAXX 26181 06590 11110 82402 10067 20063 39920 40383 51003 69902 71042 886// 333 10070 87702 91106 91204
AAXX 26181 06431 NIL
AAXX 26181 06432 NIL
AAXX 26181 06449 11245 82204 10085 20078 30142 40375 52004 69902 75155 877// 333 10086 87704 91108 91206
AAXX 26181 06450 11119 82304 10098 20085 30348 40364 53005 69972 75155 887// 333 10100 88703 91108 91204
AAXX 26181 06458 NIL
AAXX 26181 06465 NIL
AAXX 26181 06478 11256 82003 10084 20075 30148 40372 51004 69942 70252 876// 333 10086 42052 86705 91107 91206
AAXX 26181 06496 NIL
AAXX 26184 13600 12960 00408 10082 21006 30271 40324 52009 60002 333 10160
AAXX 26184 13610 12660 43612 10030 21015 39904 40345 54002 60002 84500 333 10054 84640
AAXX 26184 13611 12660 73608 10080 21018 30188 40281 52014 60002 87500 333 10115 87633
AAXX 26184 13619 12660 31804 11006 21025 39556 42916 52015 60002 83500 333 10030 83640
AAXX 26184 13622 12665 30402 10094 21029 30280 40288 52012 60002 83500 333 10138 83640
AAXX 26184 13624 12965 11402 10048 21028 30250 40290 52011 60002 81030 333 10150 81360
AAXX 26184 13625 12960 00000 10035 21015 30058 40298 52005 60002 333 10080
AAXX 26184 13629 12664 60402 10002 21035 39246 42886 54003 60002 86500 333 10034 86640
AAXX 26184 13601 12960 20000 10054 20024 30192 40296 52018 60002 82030 333 10104 82360
AAXX 26184 13602 NIL
AAXX 26184 13623 12960 30406 10070 21051 30315 40322 52015 60002 83030 333 10100 83360
AAXX 26184 16021 12860 73302 10020 21039 38110 48626 53005 60002 87070 333 10022 43015 87358 92852
AAXX 26184 16022 12788 70113 10028 21046 37988 48624 53005 60002 87070 333 10030 43012 87356 92832
AAXX 26184 16033 12862 70000 10010 21033 38941 48630 53008 60002 87050 333 10012 47022 87357 92802
AAXX 26184 16040 12865 80000 10008 21013 39433 42935 53008 60002 8802/ 333 10016 42001 88458
AAXX 26184 16052 12960 10614 11048 21118 36743 47193 55000 60002 80001 333 11048 49999
AAXX 26184 16061 12982 02202 10064 21047 39514 42940 53003 60002 333 10082
AAXX 26184 16098 12962 63601 10060 20001 30311 40364 53003 60002 86050 333 10100 86360
AAXX 26184 16138 11959 50000 10044 20016 30354 40366 53004 60002 71011 85030 333 10098 85359
AAXX 26184 16148 12970 62904 10068 20041 30349 40361 53001 60002 86030 333 10100 86361
AAXX 26184 16168 12980 50724 10060 21005 39547 42889 57002 60002 80001 333 10120
AAXX 26184 16172 NIL
AAXX 26184 16179 12575 52502 10046 21030 39651 42918 53003 60002 82150 333 10057 82825 84358
AAXX 26184 16224 12970 60113 10098 20041 30000 40325 53009 60002 86070 333 10128 86360
AAXX 26184 16232 12598 53510 10118 20033 30271 40326 55005 60002 82530 333 10118 82628 83357 555 0////
AAXX 26184 16245 12970 53600 10078 20035 30280 40307 53001 60002 80001 333 10152
AAXX 26184 16253 12975 00605 10080 20025 30290 40303 54000 60002 333 10146
AAXX 26184 16258 12462 33508 10020 21050 39295 42887 53004 60002 83500 333 10052 83612
AAXX 26184 16263 12968 00211 10012 21007 39025 48572 51005 60002 333 10028
AAXX 26184 16294 NIL
AAXX 26184 16337 12997 00424 10072 20025 39689 40272 52010 60002 333 10094 91137 555 0////
AAXX 26184 16344 11/00 90420 11014 21014 38374 48558 52004 69942 74974 333 11010 43050 89/00 95090 95190
AAXX 26184 16434 11/01 90506 10036 20035 39059 48548 52006 69962 74541 333 10064 89/00 95090 95190
AAXX 26184 16450 12260 61205 10060 20060 39150 48601 52008 60002 83240 333 10116 83805 85356
AAXX 26184 16459 11565 80511 10126 20060 30233 40269 52008 69922 70262 8457/ 333 10140 84625 84358
AAXX 26184 16546 12565 60000 10080 20058 30276 40305 53004 60002 83830 333 10132 81825 84356
AAXX 26184 16564 12497 50418 10098 20050 30155 40301 53004 60022 84830 333 10114 82818 83620 555 0////
AAXX 26184 16008 12965 03407 10010 21046 38689 48637 53001 60002 333 10038 43016 92871
AAXX 26184 16084 12980 72504 10010 21012 30192 40368 53004 60002 84015 333 10072 84463
AAXX 26184 16088 12960 52402 10043 20020 30241 40364 53007 60002 84031 333 10092 84361
AAXX 26184 16110 12898 72102 10100 20014 30351 40355 53006 60002 87070 333 10110 87357 555 0////
AAXX 26184 16134 12784 30232 11042 21085 37920 48613 53008 60002 83010 333 11038 44020 83456 92845
AAXX 26184 16153 12998 02903 10122 21013 30072 40341 58001 60002 333 10166 555 0////
AAXX 26184 16158 12960 41008 10102 20008 30329 40337 51001 60002 85001 333 10140
AAXX 26184 16206 12982 50418 10098 20029 30317 40326 52006 60002 83012 333 10134 83465
AAXX 26184 16219 42465 40336 11038 21038 38191 48582 55006 6///2 84500 333 11016 40006 84611 92873
AAXX 26184 16252 12465 63402 10028 20007 39357 42900 53003 60002 86500 333 10050 86618
AAXX 26184 16280 12999 00508 10100 20019 30075 40301 51003 60002 333 10118 555 0////
AAXX 26184 16310 NIL
AAXX 26184 16320 12460 30413 10108 20047 30283 40296 53005 60002 81130 333 10122 81815 83357 555 0////
AAXX 26184 16325 12997 03309 10090 20059 30295 40309 53008 60002 333 10122 98065 555 0////
AAXX 26184 16360 12897 33410 10082 20048 30158 40296 52014 60002 83030 333 10120 83358 555 0////
AAXX 26184 16400 12497 50108 10112 20054 39999 40293 53008 69922 84130 333 10152 55300 84816 555 0438/
AAXX 26184 16420 12697 10405 10134 20023 30207 40272 53008 60002 81200 333 10146 81835 555 0////
AAXX 26184 16429 11562 70306 10110 20094 30261 40272 53008 69942 76061 87270 333 10138 85822 87356
AAXX 26184 16470 12560 40803 10124 20089 30027 40267 53005 60002 84200 333 10134 55300 22/// 84623 95000
AAXX 26184 16480 11396 80625 10130 20125 30180 40242 52008 60032 76062 8677/ 333 10146 55300 85708 85615 88358 91038 555 0////
AAXX 26184 16522 12998 00704 10098 20060 30060 40309 54000 60002 333 10124 55300 555 0////
AAXX 26184 16539 NIL
AAXX 26184 16550 12698 23314 10100 20040 30126 40310 52008 69902 82100 333 10108 82835 555 0////
AAXX 26181 37905 42997 80901 10047 20025 40332 52001 886// 333 10058
AAXX 26181 37740 41/91 92901 10012 20012 39491 40325 52005 74547 333 10015
AAXX 26181 37989 42496 83201 10052 20038 40334 52002 72166 8872/ 333 10060
AAXX 26181 37989 42496 83201 10052 20038 40334 52002 72166 8872/ 333 10060
AAXX 26181 37740 41/91 92901 10012 20012 39494 40325 52005 74547 333 10015
AAXX 26181 37905 42997 80901 10047 20025 40332 52001 886// 333 10058
AAXX 26181 37985 41596 83201 10049 20040 30346 40331 52007 70262 885// 333 10060
AAXX 26181 37661 41093 92601 10017 20017 39546 40329 52003 74544 333 10038
AAXX 26181 37923 42996 00000 10026 20005 40304 53017 333 10075 555 53004
AAXX 26181 37864 32997 70000 10029 20004 40322 50002 87070 333 10060
AAXX 26181 37925 42997 80000 10056 20024 30355 40325 52007 8807/ 333 10074 555 53007
AAXX 26181 37675 42495 82902 10018 21004 39636 40314 52006 8802/
AAXX 26181 37851 42598 70000 10041 20015 30253 40227 52005 87500 333 10068
AAXX 26181 37849 41596 82302 10042 20030 30243 40364 51003 71052 885// 333 10047 555 53002
AAXX 26181 06407 12465 72105 10104 20083 30356 40362 53008 69922 875// 333 10120 87612 91111 91208
AAXX 26181 06447 NIL
AAXX 26184 61766 32960 80204 10290 20139 30062 40104 80002 333 10316 58013 88075
AAXX 26184 61769 31958 73603 10280 20188 3//// 4//// 70522 80001 333 10310 5//// 87075
AAXX 26181 10961 12789 30105 11030 21087 37214 47198 53005 60002 82032 333 11027 21067 49225 55300 20000 40860 82350 95150 444 16090
BBXX DBBH 26181 99376 70010 41/98 /0202 10129 20077 40341 52005 7//// 22200 04160
AAXX 26181 03951 17557 /2308 10107 20088 30256 40283 52006 69932 71081 87/// 333 10118 87/27
AAXX 26181 03953 11470 81907 10110 20081 30229 40266 51009 60022 70252 885// 333 10126 81716 88621 92437
AAXX 26181 03955 11268 82206 10090 20086 30082 40282 53012 60022 75065 886// 333 10108 82703 86706 87625
AAXX 26181 03956 17457 /2208 10094 20077 30207 40285 50006 69912 7101/ 88/// 333 10112 88/11
AAXX 26181 03962 32580 72209 10116 20082 30225 40249 51007 8353/ 333 10132 81623 83643 87365
AAXX 26181 03963 16/// /2114 10103 20094 30192 40220 53016 69972 333 10117 90710 91119
AAXX 26181 03966 16/// /2108 10110 20074 30154 40247 52007 60002 333 10125
AAXX 26181 03967 11482 62111 10098 20081 30129 40243 50006 69902 72165 865// 333 10127 81715 86637
AAXX 26181 03969 11580 32210 10103 20079 30139 40243 51002 69902 70151 83500 333 10131 81622 83635
AAXX 26181 03973 11259 82110 10096 20094 39958 40213 52011 60022 75165 887// 333 10107 88704 90710 91118
AAXX 26181 03976 NIL
AAXX 26181 03980 17557 /2316 10110 20102 30136 40161 53023 60032 7616/ 88/// 333 10135 88/20 90710 91122 91218
AAXX 26181 01015 46/// /2411 10021 21030 333 10045 91128
AAXX 26181 01023 11480 72203 11014 21018 39764 49859 58007 60042 72682 8686/ 333 10027 91118
AAXX 26181 01228 46/// /2619 10096 20084 39808 49815 56093 333 10096 91125
AAXX 26181 01340 16/// /2608 10066 20029 39164 40013 57013 60192 333 10076 91114
AAXX 26181 01425 16/// /1704 10099 20077 30048 40127 52004 60032 333 10103 91112
AAXX 26181 01442 11588 71407 10097 20064 39845 40098 55008 60012 72582 87900 333 10104 91114
AAXX 26181 01373 11687 80501 10040 20004 39798 40000 56020 60002 70222 8451/ 333 10073 91109
AAXX 26181 01046 16/// /2706 10000 21027 39819 49826 50011 6//// 333 10045 91116
AAXX 26181 01092 46/// /2709 10028 21001 333 10037 91119
AAXX 26181 01114 16/// /1004 10029 21039 39865 49875 58043 69972 333 10047 91116
AAXX 26181 01199 11580 62606 11036 21078 39382 49844 52022 60002 70221 86400 333 11007 91112
AAXX 26181 01245 11560 82505 10070 20021 39202 49883 56035 69992 76162 8802/ 333 10077 91116
AAXX 26181 01337 16/// /2603 10088 20061 39938 40003 58014 60212 333 10105 91110
AAXX 26181 01389 11787 81504 10030 20012 39671 49978 56048 60002 702// 8277/ 333 10040 91111
AAXX 26181 01436 11245 82515 10095 20079 60012 78082 889// 333 10098 91119
AAXX 26181 01135 16/// /1802 10008 21009 39741 49892 58043 60042 333 10026 4/010 91111
AAXX 26181 01192 16/// /2505 10007 21064 60032 333 10040 4/013 91119
AAXX 26181 01257 11060 82102 10019 20012 39712 49871 56075 60122 76362 886// 333 10045 91111
AAXX 26181 01370 16/// /2405 10039 20015 38879 40025 58024 69972 333 10040 4/027 91116
AAXX 26181 01419 16/// /2107 10083 20075 60152 333 10085 91114
AAXX 26181 01455 16/// /2102 10109 20054 39766 40068 56024 60002 333 10112 91112
AAXX 26181 01481 16/// /2004 10090 20072 30031 40063 56020 60002 333 10095 91111
AAXX 26181 01156 16/// /2503 10029 21034 39847 49857 58022 60012 333 10045 91123
AAXX 26181 01265 16/// /2201 10002 21030 39354 49930 56043 69962 333 10022 91114
AAXX 26181 01273 16/// /1504 10045 20010 39690 49882 56080 60052 333 10045 91111
AAXX 26181 01375 16/// /1905 11007 21017 6//// 333 10013 91115
AAXX 26181 01440 46/// /2517 10032 20031 38805 40071 58008
AAXX 26184 89532 42/80 62904 11011 21043 39886 49913 56011 81502
AAXX 26181 33135 11396 82705 10033 20020 30038 40220 52003 69912 71052 886// 333 10036 88707
AAXX 26181 33317 31396 82703 10023 20015 39952 40298 52008 71022 886// 333 10025 88709
AAXX 26181 33345 NIL
AAXX 26181 33393 11214 82605 10026 20013 39937 40340 52013 69902 75352 886// 333 10034 88706
AAXX 26181 33506 NIL
AAXX 26181 33587 11460 82802 10024 20011 30030 40300 54000 69902 78582 883// 333 10028 88914
AAXX 26181 33631 11/93 90000 10003 20000 30247 40398 53011 69902 74542 333 10013
AAXX 26181 33663 32597 73001 10036 21011 30220 40319 53002 875// 333 10063 87628
AAXX 26181 33658 32597 80000 10029 21013 30030 40339 52010 885// 333 10072 88632
AAXX 26181 33711 32497 82605 10006 21011 30078 40296 57003 886// 333 10012 88712
AAXX 26181 33791 32497 52607 10003 21008 30141 40297 56005 85600 333 10009 85718
AAXX 26181 33837 31958 02603 10004 21005 30285 40339 53007 71000 333 10028
AAXX 26181 33924 32497 82805 10050 20023 30329 40341 53007 886// 333 10054 88712
AAXX 26181 33946 32497 81804 11007 21035 30123 40353 52011 886// 333 10015 88715
AAXX 26181 34300 11397 82507 10003 21008 30022 40219 57015 69902 72162 885// 333 10003 86708
AAXX 26181 34504 32397 82609 10001 21014 30090 40275 57011 886// 333 10002 88709
AAXX 26181 34519 NIL
AAXX 26181 34601 31240 82908 10002 21001 30153 40294 57004 71022 88600 333 10002 88705
AAXX 26184 91408 11474 80911 10272 20246 30036 40074 57015 60031 72582 82371 333 56999 70033 555 92618
AAXX 26184 78397 112574 11901 10305 20212 30136 40152 60001 81800 333 01900 10310 20217 59004 81822
BBXX 51205 26181 99210 71564 46/// ///// 1//// 91748 22200 00233 11306 20905 333// 41304 70031
BBXX 46238 26181 99334 71195 46/// ///// 1//// 91750 22200 00139 11503 21002 329// 41503 70016
BBXX 46239 26181 99363 71221 46/// ///// 1//// 91751 22200 00129 11406 21003 329// 41405 70032
AAXX 26184 78397 112574 11901 10305 20212 30136 40152 60001 81800 333 01900 10310 20217 59004 81822
AAXX 26181 37682 32997 63402 11040 21045 38173 48521 52003 86030 333 11018
AAXX 26181 37717 115// 83203 11028 21051 38130 48559 52008 69930 70282 8655/ 333 11005
AAXX 26181 37788 NIL
AAXX 26181 37788 11496 60000 10008 20003 39280 40310 52009 60030 72876 866// 333 10012 86715
AAXX 26181 11010 32582 72902 10049 20030 30011 40402 52006 333 10071 81624 86628
AAXX 26181 11012 12674 22503 10041 20003 39918 40403 53006 69902 825// 333 10074 20040 55300
AAXX 26181 11022 12563 62805 10065 20026 39976 40371 53002 69902 86800 333 10081 20035 55300
AAXX 26181 11035 11682 82806 10077 20035 30119 40377 52006 69902 70262 875// 333 10077 20061 87634
AAXX 26181 11036 11584 82904 10076 20027 30151 40379 53003 69902 70262 333 10077 87632
AAXX 26181 11101 32960 21001 10005 21003 39859 40411 57001 82041 333 10067 21011 82360
AAXX 26181 11120 32970 49901 10004 21007 39686 40425 52010 333 10028 81360 84363
AAXX 26181 11126 16/// /3203 11014 21028 37881 48645 53005 60002 333 11001 21050 55300
AAXX 26181 11130 16/// /2101 10009 20000 39805 40420 53008 60002 333 10037 20000 55300
AAXX 26181 11146 NIL
AAXX 26181 11150 32480 31602 10025 21004 39850 40412 52007 333 10064 81615 83656
AAXX 26181 11155 11482 43104 11009 21038 38523 48643 52007 69902 70172 84500 333 10003 21025 55300 84615
AAXX 26181 11157 32675 79901 10021 20001 39610 40408 52008 8357/ 333 10042 81635 83642 87362
AAXX 26181 11172 NIL
AAXX 26181 11190 17662 82806 10083 20014 30138 40376 53002 69982 7//4/ 885// 333 10085 20053 55300
AAXX 26181 11204 16/// /3001 10006 21026 39576 40400 51014 60002 333 10043 21060 55300
AAXX 26181 11212 NIL
AAXX 26181 11231 32880 73101 11004 21019 39807 40406 52010 333 10003 82657 87360
AAXX 26181 11240 12865 79901 10012 21007 39941 40399 52011 69902 333 10032 81657 83661 85363
AAXX 26181 11244 16/// /0000 10024 21002 30055 40397 51009 69902 333 10043 21003 55300
AAXX 26181 11389 11550 82205 10059 20029 30057 40392 53003 69962 70262 885// 333 10064 20041 55300 91114
AAXX 26181 03976 11350 82212 10108 20106 30188 40200 53026 60062 76365 886// 333 10132 86707 88712 90710 91121
AAXX 26181 01281 16/// /3102 10006 21005 39720 49893 58065 60022 333 10034 91108
AAXX 26181 01447 16/// /3005 10087 20045 39396 40049 58007 69922 333 10090 91113
AAXX 26181 15015 01596 80601 11011 21017 39767 42936 52012 60002 71022 885// 333 10003 21023 3/001 42998 60007 91001 91101
AAXX 26181 15020 02997 02201 10014 21034 30135 40341 52010 60002 333 10055 21024 3/009 42998 60007 91003 91103
AAXX 26181 15090 02997 02502 10005 21023 30249 40346 53007 60002 333 10060 21012 34003 55300 10211 20004 3//// 60007 91003 91103 92600
AAXX 26181 15108 02998 03204 11059 21082 38193 48615 52013 60002 333 11048 21099 3//// 44018 60007 92843 444 37161
AAXX 26181 15120 02997 00900 11029 21029 39883 40410 52013 60002 333 10029 21060 34009 55300 10212 2//// 3//// 60007 91001 91103 92600
AAXX 26181 15150 02997 01500 10002 21046 30130 40353 52009 60002 333 10071 21004 31000 60007 91002 91104
AAXX 26181 15170 02597 73102 11037 21054 39568 42928 52014 60002 87500 333 10000 21038 3/100 47004 60007 91004 91108 92800
AAXX 26181 15200 01/92 91800 11027 21027 30252 40406 52011 60002 74344 333 11002 21036 34006 60007 91001 91103
AAXX 26181 15230 01996 03102 11031 21039 30098 40411 52014 60002 71000 333 10039 21033 34007 55300 10204 20004 3//// 60007 91002 91103
AAXX 26181 15260 02997 02301 11059 21064 39838 40412 50011 60002 333 10031 21059 3/002 42998 60007 91002 91104 92600
AAXX 26181 15280 02999 03606 11083 21149 37578 47105 52018 60002 333 11068 21099 3//// 49039 60007 92838
AAXX 26181 15292 01596 81501 11024 21024 30094 40407 51010 60002 71022 886// 333 10031 21024 34006 60007 91001 91101
AAXX 26181 15310 01996 02002 10019 21009 30271 40361 51006 60002 71000 333 10063 20003 34009 55300 10225 20004 3//// 60007 91005 91105
AAXX 26181 15335 02997 02402 10008 21004 30351 40358 51007 60002 333 10051 21013 34003 60007 91003 91103 92600
AAXX 26181 15346 01996 03503 11008 21017 30080 40385 52012 60002 71011 333 10043 21014 34005 60007 91004 91104 92600
AAXX 26181 15350 02997 02503 10010 21031 30238 40364 51010 60002 333 10075 21004 31008 60007 91004 91104
AAXX 26181 15360 02998 02604 10022 20000 30337 40352 52006 60002 222// 06038 20200 333 10043 20001 3//// 60007 91005 91105 92418
AAXX 26181 15410 02997 03101 10026 21027 30285 40385 53011 60002 333 10080 20006 31009 60007 91002 91105
AAXX 26181 15420 02997 02502 10010 21003 30257 40375 53008 60002 333 10053 20001 31006 55300 0//// 20000 3//// 60007 91003 91104
AAXX 26181 15450 01996 02601 11004 21019 30135 40383 53007 60002 71000 333 10039 21012 31006 55300 10194 20004 3//// 60007 91002 91103
AAXX 26181 15460 02997 02303 10011 21005 30348 40374 53007 60002 333 10033 20000 31005 60007 91004 91104
AAXX 26181 15470 01996 52401 11007 21007 30252 40385 53009 69912 71022 85070 333 10037 21007 31006 60007 91001 91103
AAXX 26181 15480 01996 02802 10012 20012 30355 40373 53012 60002 71011 222// 06054 2//// 333 10034 20001 34001 60007 91003 91104 92426
AAXX 26184 91408 11474 80911 10272 20246 30036 40074 57015 60031 72582 82371 333 56999 70033 555 92618
BBXX UFTA 26181 99845 71249 32997 22804 11330 21365 40269 57004 80001
AAXX 26184 91930 36/// ///// 10270 20224
AAXX 26184 91943 16/// /0308 10249 20210 30148 40150 50010 60012 333 10261 58016
AAXX 26181 89061 179// 00000 10015 20009 39835 49842 52007 60023 77177 333 91002 91105
AAXX 26184 78958 11575 31209 10298 20223 30123 40133 69921 80280 83800 333 10304 20231 59009 83821
AAXX 26184 68024 42660 60000 10264 20193 48514 53015 86973 333 10321
AAXX 26184 68029 42660 40908 10256 20206 48523 52022 83983 333 10310
AAXX 26184 68032 42660 51504 10290 20218 48522 52019 81980 333 10325 30122
AAXX 26184 68038 42660 70915 10237 20188 48534 52024 85983 333 10310
AAXX 26184 68040 42660 71005 10245 20196 48529 52014 84970 333 10300
AAXX 26184 68054 42560 70502 10225 20206 48557 53012 83973 333 10290
AAXX 26184 68070 41560 81110 10240 20212 48553 52028 79591 8696/ 333 10315
AAXX 26184 68148 42660 40902 10246 20209 48537 52014 82304 333 10294
AAXX 26184 68226 41660 70512 10267 20190 48513 52012 71722 83983 333 10321
AAXX 26184 68234 42560 80905 10215 20186 48528 51017 8508/ 333 10290
AAXX 26184 68240 42560 70201 10252 20190 48532 51011 82980 333 20287
AAXX 26184 68320 41660 70515 10222 20198 48534 52013 71799 84983 333 10317
AAXX 26184 68325 41560 80000 10205 20198 48542 52020 79596 85980 333 10277
AAXX 26184 70026 NIL
AAXX 26184 70133 NIL
AAXX 26184 70174 NIL
AAXX 26184 70200 NIL
AAXX 26184 70219 NIL
AAXX 26184 70231 NIL
AAXX 26184 70261 NIL
AAXX 26184 70267 NIL
AAXX 26184 70271 NIL
AAXX 26184 70273 NIL
AAXX 26184 70308 NIL
AAXX 26184 70316 NIL
AAXX 26184 70326 NIL
AAXX 26184 70340 NIL
AAXX 26184 70350 NIL
AAXX 26184 70361 NIL
AAXX 26184 70381 NIL
AAXX 26184 70398 NIL
AAXX 26184 70414 NIL
AAXX 26184 78526 NIL
AAXX 26184 78543 NIL
AAXX 26184 78255 42559 30706 10287 20179 30040 40189 57020 83200 333 10289 20207 83820
AAXX 26184 78317 NIL
AAXX 26184 78318 NIL
AAXX 26184 78325 NIL
AAXX 26184 78333 NIL
AAXX 26184 78338 NIL
AAXX 26184 78348 NIL
AAXX 26184 78349 NIL
AAXX 26184 78353 NIL
AAXX 26184 78360 NIL
AAXX 26184 78367 NIL
AAXX 26184 78369 NIL
BBXX WYR4481 26184 99473 70909 42218 10052 40000 70311 22213 20404
BBXX C6DM2 26183 99077 10982 417// 60924 10270 20228 40100 50/// 7//00 865// 22243 0//// 2//// 3//// 4//// 5//// 6//// 80240 ICE /////
BBXX WYP8657 26184 99468 70873 41/98 52019 10055 2//// 40058 5//// 70122 8//// 22273 00044 20502 3//// 4//// 5//// 6//// 8//// ICE /////
BBXX KAOU 26184 99007 10823 43/// /2720 10280 20237 40101 5//// 7//// 8//// 222// 04287 2//// 3//// 4//// 5//// 6//// 8//// ICE /////
BBXX NWS0029 26184 99415 70707 43/// /3314 10063 21036 40174 5//// 7//// 8//// 222// 04075 2//// 3//// 4//// 5//// 6//// 8//// ICE /////
BBXX NWS0003 26184 99539 71665 43/// /0000 11052 21079 40059 5//// 7//// 8//// 222// 0//// 2//// 3//// 4//// 5//// 6//// 8//// ICE /////
BBXX NWS0020 26184 99290 70554 43/// /2507 10205 20131 40165 5//// 7//// 8//// 222// 04230 2//// 3//// 4//// 5//// 6//// 8//// ICE /////
BBXX V7OQ6 26184 99367 70489 41/92 90306 10190 20175 40160 56030 74922 89/// 22264 00240 20202 33403 40306 50204 6//// 80180 ICE /////
BBXX C6TQ6 26184 99246 70877 41898 11813 10250 20222 40200 54000 70200 81//1 22244 00260 20302 31718 40302 50302 6//// 80230 ICE /////
BBXX C6XP7 26183 99192 70682 41399 31118 10260 20246 40150 54/// 7//00 82109 22234 00260 20302 326// 4//// 5//// 6//// 80250 ICE /////
BBXX WBO3345 26184 99202 70717 41597 20710 10267 20235 40150 57/// 70100 82183 22272 0//// 20402 308// 40402 5//// 6//// 80244 ICE /////
BBXX WKAB 26184 99131 10488 41398 12501 10234 20178 40175 52020 70100 81400 22224 00250 2//// 3//// 4//// 5//// 6//// 80197 ICE /////
BBXX C6XC2 26184 99058 11275 41398 80311 10240 20226 40080 57010 75152 8835/ 22284 00300 2//// 3//// 4//// 5//// 6//// 80230 ICE /////
BBXX KEY796 26183 99571 71703 41/97 83411 11078 21111 40064 58/// 702// 8//// 222// 01011 2//// 3//// 4//// 5//// 6//// 8//// ICE /////
AAXX 26184 91165 NIL
AAXX 26184 91182 NIL
AAXX 26184 91190 NIL
AAXX 26184 91212 NIL
AAXX 26184 91217 NIL
AAXX 26184 91285 NIL
AAXX 26184 91317 NIL
AAXX 26184 91334 11474 80710 10269 20240 30069 40072 57017 60051 70282 82371 333 56299 70071 555 92618
AAXX 26184 91348 NIL
AAXX 26184 91356 NIL
AAXX 26184 91366 NIL
AAXX 26184 91369 NIL
AAXX 26184 91371 NIL
AAXX 26184 91376 32474 80811 10274 20237 30093 40097 53007 85878 333 56229 70010 555 92618
AAXX 26184 91408 11474 80911 10272 20246 30036 40074 57015 60031 72582 82371 333 56999 70033 555 92618
AAXX 26184 91413 NIL
AAXX 26184 91425 NIL
AAXX 26184 91434 NIL
AAXX 26184 91765 NIL
AAXX 26181 45007 12558 61008 10161 20105 30240 40249 58002 60001 84501 333 59005 82625 83358
AAXX 26184 91222 NIL
AAXX 26184 91245 NIL
AAXX 26184 91323 NIL
AAXX 26184 91339 NIL
AAXX 26184 91343 NIL
AAXX 26184 91353 NIL
AAXX 26184 91442 NIL
BBXX UFJN 26181 99731 10475 41/98 62411 11020 49750 57010 80022 86/// 22200 0//// 20402
BBXX A8PX4 26184 99362 70033 41/98 71025 10157 20087 40311 52011 70362 8//// 22224 00161 2//// 80118
BBXX PHQW 26183 99433 70104 41598 62405 10137 20102 40320 5/010 70311 86500 22283 00139 2//// 80117 90805
BBXX PHAA 26183 99426 70107 41298 71606 10135 20105 40320 52015 70311 877// 22243 20201 330// 40602 80118 90805
BBXX DDSC2 26183 99380 70333 41298 62521 10188 20168 40148 52023 72500 85778 22254 00179 20403 319// 40706 80175
BBXX PIAG 26183 99463 70328 41/98 /0503 10116 40121 56015 70222 8/770 22263 00140 2//// 327// 41003
BBXX UBEF5 26181 99410 70098 41998 01203 10130 40332 54000 70200 80000 22283 00150 2//// 33200 40602
BBXX C6VR5 26183 99323 70195 41497 40908 10190 20072 40297 51/// 70311 84461 22244 04192 20802 302// 40902 80130
BBXX MGSM5 26183 99556 10025 41997 42628 10060 20036 40235 58005 70200 80003 22214 04083 20301 326// 40706 5//// 80050
BBXX MGRH9 26184 99293 31576 41/98 51715 10220 20197 40018 57001 76266 85/// 22273 00222 2//// 3//// 4//// 5//// 80205
BBXX AVMI 26183 99330 31517 41198 81626 10188 20/// 40138 56018 75003 881/2 22200 00214
AAXX 26181 45007 12558 61008 10161 20105 30240 40249 58002 60001 84501 333 59005 82625 83358
BBXX 44022 26181 99409 70737 46/// ///09 10065 21034 40218 53009 91800 22200 00084 333 91213 555 11103 22108
BBXX 46001 26181 99563 71480 46/// /3117 11017 49819 56012 91750 22200 00044 10809 20809 70044 333 91221 555 11186 22197 31706 43122 61749 307174 307172 305172 305171 301175 306172
BBXX 46042 26181 99368 71224 46/// /3505 10109 40268 53013 91750 22200 00129 11606 20501 330// 41605 70028 333 91207 555 11053 22055 31737 43508 61749 344051 355061 359057 007058 013059 007059
BBXX 46053 26181 99342 71198 46/// /0000 10139 40244 51019 91750 22200 00135 11302 327// 41302 70010 333 91201 555 11005 22005 31713 41901 61749 227004 205008 185006 199009 182008 173006
BBXX 41041 26181 99142 70460 46/// /0906 10267 20214 40149 58016 91750 22200 00265 10804 20502 3//// 40803 70019 333 91207 555 11063 22067 31707 41008 61749 092059 089061 093062 096062 094064 093063 81007 91707
AAXX 26184 03008 16/// /2727 10089 20075 39938 40007 53026 60062 91750 333 10110 90710 91149 91038
AAXX 26184 03010 46/// /2728 10081 20066 40041 52071 333 90710 91148
AAXX 26184 03014 46/// /2929 10057 20039 49996 53046 91750 333 8//// 90710 91142
AAXX 26184 03031 17435 /2824 10075 20063 39765 40089 53037 60302 762// 91750 333 10116 553// 20000 81/12 87/29 90710 91151
AAXX 26184 03034 17574 /2719 10088 20056 30086 40100 53053 60132 722// 91750 333 10119 81/23 86/58 90710 91134
AAXX 26184 03037 17670 /2612 10093 20082 30087 40109 53037 60192 723// 91750 333 10123 81/32 84/37 86/50 90710 91146
AAXX 26184 03039 46/// /2731 10032 20000 91750 333 10071 90710 91173
AAXX 26184 03041 46/// /2451 10046 20046 91750 333 10071 90710 91177 91077
AAXX 26184 03044 17580 /2821 10079 20054 39972 40071 53058 60032 761// 91750 333 10144 553// 20000 81/22 86/32 90710 91139 91033
AAXX 26184 03047 17537 /2218 10112 20085 39820 40118 53014 60192 762// 91750 333 10120 553// 20000 81/25 87/34 90710 91133 91031
AAXX 26184 03062 17781 /2426 10126 20090 30061 40066 53033 60022 761// 91750 333 10146 553// 20000 87/56 87/62 90710 91140 91037
AAXX 26184 03065 46/// /2482 10044 20044 91750 333 10061 90710 91199 91099 00111
AAXX 26184 03068 11580 72629 10129 20087 30052 40061 53010 69902 72162 83531 91750 333 10147 81626 83648 85362 90710 91144
AAXX 26184 03080 15684 /2423 10146 20070 39915 40081 55002 69902 91750 333 10148 85/41 87/50 90710 91137 91035
AAXX 26184 03088 17583 /2439 10124 20093 39942 40103 52005 69902 723// 91750 333 10125 553// 20000 85/21 86/35 90710 91157 91057
AAXX 26184 03094 15880 /2428 10143 20068 30059 40063 53011 60002 91750 333 10154 84/57 90710 91141 91039
AAXX 26184 03105 17439 /2127 10112 20101 30148 40165 53011 60012 761// 91750 333 10130 87/19 90710 91137 91037
AAXX 26184 03132 15564 /2024 10113 20095 30194 40207 50003 69902 91750 333 10122 87/25 90710 91132
AAXX 26184 03144 17450 /2324 10117 20095 30089 40131 53005 60022 761// 91750 333 10130 553// 20000 82/18 83/24 87/32 90710 91144 91037
AAXX 26184 03148 46/// /2331 10101 20093 91750 333 10117 90710 91161 91046
AAXX 26184 03153 15560 /2121 10097 20083 30077 40215 50005 69902 91750 333 10111 553// 20000 88/23 90710 91134
AAXX 26184 03155 16467 /2124 10109 20077 39879 40174 53001 69942 91750 333 10114 87/17 84/28 90710 91139 91036
AAXX 26184 03158 17460 /2229 10101 20091 30029 40165 55004 69902 704// 91750 333 10111 553// 20000 85/17 87/23 90710 91142
AAXX 26184 03210 16359 /1923 10090 20081 30092 40244 53003 60002 91750 333 10097 87/07 83/46 90710 91131
AAXX 26184 03212 15577 /2218 10115 20074 30133 40232 57006 69902 91750 333 10127 82/23 83/42 86/65 90710 91133
AAXX 26184 03214 15459 /2121 10095 20080 30241 40260 51002 60002 91750 333 10111 87/11 90710 91131 91031
AAXX 26184 03220 16676 ///// 10116 20085 30180 40214 5/005 60002 91750 333 10125 81/31 87/42
AAXX 26184 03225 16369 /2237 10087 20071 39925 40232 55006 69942 91750 333 10100 553// 20000 87/06 84/13 90710 91153 91053
AAXX 26184 03226 17260 /2328 10086 20081 39961 40238 55002 60002 710// 91750 333 10104 87/05 90710 91142 91040
AAXX 26184 03227 46/// /2364 10044 2//// 91750 333 10054 90710 91170
AAXX 26184 03230 16456 /2327 10101 20085 39939 40195 50000 69922 91750 333 10111 82/18 87/22 90710 91141 91041
AAXX 26184 03238 15682 /2318 10109 20074 30031 40204 52007 69902 91750 333 10119 82/33 87/40 90710 91136 91031
AAXX 26184 03261 16474 /2318 10114 20082 30216 40256 50001 60002 91750 333 10130 82/19 87/26 90710 91126
AAXX 26184 03265 15483 /2421 10117 20082 30222 40253 50003 60002 91750 333 10133 87/19 90710 91132 91032
AAXX 26184 03266 16585 /2419 10126 20077 30235 40252 58005 60002 91750 333 10136 88/27 90710 91127
AAXX 26184 03275 15580 /2322 10109 20068 30040 40232 51009 60002 91750 333 10120 87/24 83/31 90710 91142 91033
AAXX 26184 03281 16/// /2324 10100 20082 60002 91750 333 10112 90710 91136
AAXX 26184 03903 16458 /2220 10112 20099 30146 40204 52016 60002 91750 333 10128 553// 20000 87/13 84/24 90710 91135
AAXX 26184 03904 17429 /2120 10109 20095 30126 40186 51016 69922 704// 91750 333 10129 81/13 83/19 87/33 90710 91139
AAXX 26184 03907 17460 /2227 10114 20095 30165 40173 53014 69902 781// 91750 333 10137 55300 20000 82/16 87/30 90710 91138
AAXX 26184 03911 16470 /2215 10105 20087 39923 40196 51008 69922 91750 333 10114 87/12 90710 91129 91028
AAXX 26184 03915 16581 /2116 10124 20101 30110 40188 52009 60002 91750 333 10132 86/20 85/27 90710 91134 91028
AAXX 26184 03916 16483 /2511 10116 20088 39986 40175 53014 60002 91750 333 10124 553// 20000 85/17 87/25 90710 91131 91025
AAXX 26184 03923 17473 /2218 10108 20082 30009 40204 52008 69922 781// 91750 333 10119 86/15 86/23 90710 91129 91029
AAXX 26184 03301 16460 /2125 10094 20094 30206 40280 53008 60002 91750 333 10113 87/14 90710 91135
AAXX 26184 03305 17324 /2339 10082 20072 30002 40267 53005 60052 781// 91750 333 10104 83/06 85/13 86/24 90710 91156 91050
AAXX 26184 03313 16488 /2208 10105 20075 30184 40279 51006 60002 91750 333 10127 88/17
AAXX 26184 03316 15582 /2123 10107 20070 30262 40273 58001 69922 91750 333 10119 83/26 86/33 90710 91131
AAXX 26184 03318 16/// /2317 10096 20077 60002 91750 333 10114 90710 91127
AAXX 26184 03321 16582 /2213 10114 20073 30273 40286 53009 60002 91750 333 10138 553// 20000 88/23 91023
AAXX 26184 03330 15484 /2415 10087 20064 39928 40293 53003 69902 91750 333 10113 88/11 90710 91126
AAXX 26184 03344 15484 /2413 10096 20065 39941 40260 53004 60002 91750 333 10115 83/16 90710 91129 91024
AAXX 26184 03346 16/// /2323 10095 20073 60002 91750 333 10121 90710 91138
AAXX 26184 03348 15581 /2216 10104 20077 30176 40285 53005 60002 91750 333 10129 55300 20000 87/20 90710 91129
AAXX 26184 03355 15585 /2414 10129 20086 30255 40266 53004 60002 91750 333 10145 55300 20000 87/25 84/30
AAXX 26184 03373 16576 /2217 10113 20085 30209 40279 53002 60002 91750 333 10134 87/21 90710 91132
AAXX 26184 03379 16487 /2222 10107 20081 30214 40291 51006 60002 91750 333 10135 81/17 87/22 90710 91130
AAXX 26184 03382 15685 /2311 10125 20089 30249 40257 50004 60002 91750 333 10141 55300 20000 88/32
AAXX 26184 03385 46580 /2217 10117 20095 30267 40277 53007 91750 333 10137 88/25 90710 91128
AAXX 26184 03391 12482 72221 10113 20084 30284 40292 52006 60002 875// 91750 333 10132 82617 87630 90710 91128
AAXX 26184 03392 16580 /2225 10111 20089 30289 40293 52003 60002 91750 333 10132 88/27 90710 91131
AAXX 26184 03405 16472 /2332 10096 20085 30176 40294 53002 60002 91750 333 10111 553// 20000 87/16 90710 91141
AAXX 26184 03409 16/// /2321 10088 20069 60002 91750 333 10114 55300 2//// 90710 91130
AAXX 26184 03410 16260 /2322 10073 20071 39854 40295 53007 60022 91750 333 10098 553// 20000 86/05 86/13 90710 91136 91036
AAXX 26184 03469 15480 /2218 10111 20097 30296 40300 52005 60002 91750 333 10132 553// 20000 86/14 83/23 90710 91134
AAXX 26184 03488 15484 /2319 10115 20095 30274 40300 52007 60002 91750 333 10129 84/13 87/23 90710 91130
AAXX 26184 03503 17575 /2106 10095 20067 30235 40313 53004 69982 723// 91750 333 10123 87/21 83/27
AAXX 26184 03507 17466 /2216 10071 20064 39937 40316 55000 60032 751// 91750 333 10098 87/12 90710 91127 91026
AAXX 26184 03520 16577 /2419 10094 20057 30186 40308 50000 69922 91750 333 10123 553// 20000 87/22 90710 91128
AAXX 26184 03522 15580 /2006 10099 20060 30223 40317 52002 60002 91750 333 10135 87/23 91016
AAXX 26184 03529 15581 /2010 10098 20076 30279 40322 52003 69902 91750 333 10123 87/20
AAXX 26184 03544 15584 /2113 10095 20074 30175 40308 58003 60002 91750 333 10120 553// 20000 87/23 90710 91125 91025
AAXX 26184 03560 15483 /2313 10103 20079 30214 40319 51004 69902 91750 333 10122 553// 20000 81/19 87/23 91023
AAXX 26184 03604 16580 /2412 10105 20067 30259 40314 55000 60002 91750 333 10112 88/24 91023
AAXX 26184 03605 16561 /2322 10104 20073 30314 40323 53003 69942 91750 333 10106 88/25 90710 91128
AAXX 26184 03609 16/// /2218 10098 20078 30276 40330 53002 69922 91750 333 10103 90710 91127
AAXX 26184 03628 15580 /2314 10095 20063 30258 40331 53002 69942 91750 333 10121 55300 20000 87/25
AAXX 26184 03647 16359 /2215 10084 20079 30062 40322 52002 69942 91750 333 10104 553// 20000 84/07 87/12
AAXX 26184 03658 16579 /2111 10102 20066 30264 40334 53003 60002 91750 333 10120 87/20
AAXX 26184 03660 15482 /2311 10091 20065 30084 40336 53005 69902 91750 333 10114 87/17
AAXX 26184 03672 16481 /2312 10106 20070 30296 40336 53003 60002 91750 333 10129 85/15
AAXX 26184 03684 15578 /2311 10099 20076 30222 40330 52006 60002 91750 333 10127 82/23
AAXX 26184 03693 16980 /2310 10105 20081 30338 40341 53006 60002 91750 333 10127 8//99
AAXX 26184 03707 15580 /2007 10102 20066 30328 40335 53001 60002 91750 333 10112 88/24
AAXX 26184 03710 16470 /2313 10069 20065 39907 40336 53002 60012 91750 333 10092 553// 20000 88/13
AAXX 26184 03743 16480 /2208 10088 20068 30180 40344 52004 60002 91750 333 10110 81/13 87/21
AAXX 26184 03749 16479 /2310 10092 20066 30232 40344 51004 60002 91750 333 10112 88/19
AAXX 26184 03761 15580 /2111 10092 20048 30197 40344 52004 60002 91750 333 10113 55300 20000 88/22
AAXX 26184 03768 16580 /2313 10097 20058 30260 40341 51003 60002 91750 333 10127 87/21
AAXX 26184 03769 15477 /2208 10093 20070 30262 40345 53004 69902 91750 333 10115 55300 20000 81/16 85/26
AAXX 26184 03770 16/// ///// 10108 20068 60002 91750 333 10133
AAXX 26184 03781 15483 /2311 10087 20065 30134 40344 53004 60002 91750 333 10107 553// 20000 87/13
AAXX 26184 03823 17479 /2210 10085 20059 30094 40341 53004 69902 723// 91750 333 10095 553// 20000 88/19
AAXX 26184 03839 16/// ///// 10101 20062 60002 91750 333 10115 553// 20000
AAXX 26184 03857 15567 /2615 10102 20074 30285 40350 51002 60002 91750 333 10112 88/21
AAXX 26184 03862 17574 /2308 10101 20065 30335 40348 52001 69902 723// 91750 333 10117 55300 20000 81/21 88/26
AAXX 26184 03866 16/// /2416 10101 20060 30326 40351 51003 60002 91750 333 10111
AAXX 26184 03872 15582 /2414 10101 20069 30346 40351 52004 60002 91750 333 10116 553// 20000 88/24
AAXX 26184 03876 16/// /2309 10097 20081 30352 40354 51006 69922 91750 333 10115
AAXX 26184 03895 42582 72206 10088 20044 40369 52005 875// 333 10109 87625
BBXX 51003 26181 99193 71606 46/// /0809 10242 40195 53013 91750 22200 00253 10906 20504 3//// 40904 70028 333 91212 555 11096 22101 31745 40812 61749 078089 070087 062086 066092 064093 066089
BBXX C6XC2 26184 99058 11275 41398 80311 10240 20226 40080 57010 75152 8835/ 22284 00300 2//// 3//// 4//// 5//// 6//// 80230 ICE /////
BBXX C6SI6 26184 99338 11349 46/// /3121 10051 21022 40286 51010 7//// 8//// 22243 0//// 2////
BBXX BATFR28 26184 99064 10944 46/// /1111 10272 20250 40102 50003 22262 00294
BBXX A8IM7 26184 99324 11781 41/98 /2718 10190 20159 40150 54000 76200 8//// 22225 20304 3//// 4//// 5//// 80170
BBXX A8SI3 26183 99470 11526 43998 0//// 10020 2107/ 40090 52010 22254 00000 81010
BBXX A8HG2 26184 99463 11529 41798 12910 10020 40010 54000 70200 81500 22254 04020 20302 3//// 4//// 5////
BBXX ZCBZ5 26183 99162 10729 41897 32914 10257 20189 40142 58008 70100 83//5 22244 02275 20301 330// 40302 5//// 80213
BBXX 46070 26181 99551 11753 46/// /0705 11032 21056 40147 56010 91750 22200 00035 11205 20502 3//// 41204 70023 333 91208 555 11055 22057 31713 40611 61749 068055 047075 046081 050086 052080 047078 80610 91713
BBXX C6DM2 26183 99077 10982 417// 60924 10270 20228 40100 50/// 7//00 865// 22243 0//// 2//// 3//// 4//// 5//// 6//// 80240 ICE /////
BBXX WDB3161 26184 99274 11276 41398 60216 10140 2006/ 40280 57005 70222 867// 22244 00238 20802 302// 41004 5//// 6//// 80100 ICE /////
BBXX OYYK2 26180 99337 50733 41497 82305 10172 20133 40151 57007 70522 887// 22284 04160 29901 320// 40602 80150
BBXX 3FBC9 26184 99062 50885 41698 71719 10240 40098 56007 70222 86854 9//// 22233 00250 20304 316// 40407 5//// 6//// 80220
BBXX WCX7445 26184 99531 50709 43/// /2622 10132 2//// 40114 5//// 7//// 8//// 22200 00151 2//// 3//// 4//// 5//// 6//// ICE /////
BBXX WBP3210 26184 99568 50683 43/// /2831 10066 2//// 40077 5//// 7//// 8//// 22262 00079 2//// 3//// 4//// 5//// 6//// ICE /////
BBXX A8DE3 26183 99204 50707 41498 51908 10229 20188 40170 58006 70211 84461 22243 20202 320// 40606 80201
BBXX 32012 26181 99197 50856 46/// ///// 1//// 91750 22200 11104 70019
BBXX P3GY9 26184 99020 50393 41897 51224 10290 2024/ 40130 57015 70322 85293 22233 00280 20806 311// 41206 5//// 6//// 80250 ICE /////
BBXX PCGM 26183 99034 70451 41396 80915 10254 20208 40115 76362 887// 22213 04283 20302 30509 42006 51204 80222
BBXX VQKZ5 26183 99103 50798 41497 31412 10235 20204 40120 57010 70100 81105 22274 02238 20301 314// 40401 5//// 80215
BBXX MZDL7 26183 99439 50872 41/92 93421 10124 20118 40238 57006 74544 89/// 22233 00140 20402 3//// 4//// 5//// 80121
BBXX 3FMV6 26183 99344 30270 41597 80433 10250 20235 40077 52010 70322 86770 22223 06252 20609 80240
BBXX C6IO9 26183 99093 70269 41398 70221 10260 20246 40131 57024 70222 8577/ 22243 06245 20802 303// 40703 5//// 80250
BBXX WKAB 26184 99131 10488 41398 12501 10234 20178 40175 52020 70100 81400 22224 00250 2//// 3//// 4//// 5//// 6//// 80197 ICE /////
BBXX DBUT 26181 99035 70315 41598 31509 10285 20222 40186 54000 70211 82160 22255 21004 3//// 4//// 5//// 80240
BBXX TBWUK42 26184 99246 30562 41598 20911 10245 20191 40169 53011 70200 82100 22213 20403 3//// 4//// 5//// 80210
BBXX WRYD 26184 99217 10379 43997 03321 10225 2017/ 40190 54000 7//// 80/// 22235 00271 20803 33333 40000 50000 6/00/ 80190 ICE /////
BBXX BATFR19 26184 99067 30055 46/// /1916 10239 20209 40119 53009 22200 00254
BBXX BATFR55 26184 99105 30470 44598 31012 10279 20252 40118 70111 82241 22222 00287 208// 33131 410// 510//
BBXX BATFR08 26184 99202 30573 46/// /0811 10262 20212 40142 58007 22283 00274
BBXX 46089 26181 99459 71258 46/// /1809 10088 20050 40237 56011 91750 22200 00091 11407 20803 327// 41406 70036 333 91211 555 11097 22103 31748 41911 61749 182091 188090 188088 184093 183086 186084
BBXX 44011 26181 99411 70666 46/// /0212 10067 20060 40090 53009 91750 22200 00088 10504 20504 3//// 40801 70020 333 91215 555 11129 22137 31738 41918 61749 015123 001147 357140 356144 357142 000137
BBXX 41046 26181 99238 70683 46/// /1101 10246 20152 40192 58025 91750 22200 00257 10803 20301 300// 40803 70014 333 91201 555 11008 22008 31654 41302 61749 111009 109012 117013 115013 129012 107012 81202 91710
BBXX 42364 26181 99291 70881 46/// /1108 10217 20183 40207 58017 91800
BBXX 44039 26181 99411 70727 46/// /3210 10063 21034 40211 91745 22200 00089 10402 70010 333 91214
BBXX CGDG 26184 99447 70636 46/// /1603 10037 20090 40121 55008 7//// 8//// 22200 0//// 2////
BBXX ELQQ4 26184 99243 70821 439// 11409 10260 2025/ 40160 56030 7//// 8///1 22264 00240 2//// 3//// 4//// 5//// 6//// 80250 ICE /////
BBXX DANM 26184 99426 70416 41798 43418 10078 21060 40199 53020 70282 84100 22265 00140 20404 399// 4//06 80026
BBXX A8MH7 26184 99180 70870 41898 60913 10278 2022/ 40177 58003 70322 86159 22214 04260 20201 307// 40502 5//// 6//// 80238 ICE /////
BBXX 9HXD9 26184 99183 70649 41898 30308 10260 2//// 40140 54/// 70211 82131 22200 04290 20501 399// 4//// 5//// 6//// 8//// ICE /////
BBXX C6XP7 26183 99192 70682 41399 31118 10260 20246 40150 54/// 7//00 82109 22234 00260 20302 326// 4//// 5//// 6//// 80250 ICE /////
BBXX 41009 26181 99285 70802 46/// /0208 10230 20183 40219 58013 91750 22200 00246 10603 20602 300// 40801 70013 333 91210 555 11086 22090
BBXX 41010 26181 99289 70785 46/// /0309 10219 40215 58013 91750 22200 00238 10603 20603 300// 40801 70017 333 91211 555 11095 22100
BBXX 42057 26181 99168 70815 46/// /0809 10277 20219 40157 58018 91750 22200 00275 10704 20603 3//// 40703 70019 333 91210 555 11090 22096 31734 40711 61749 074091 074085 071088 071082 069088 071093 80710 91659
BBXX CGBY 26184 99487 71235 46/// /1505 10055 20038 40253 55003 7//// 8//// 22200 0//// 2////
BBXX CGHL 26184 99476 70527 46/// /2105 11031 21097 40206 56011 7//// 8//// 22200 0//// 2////
BBXX CGJK 26184 99484 71234 46/// /0105 10055 20044 40251 56006 7//// 8//// 22200 0//// 2////
BBXX CGDT 26184 99468 70712 46/// /2409 11027 21081 40190 53004 7//// 8//// 22200 0//// 2////
BBXX 3FZK3 26184 99492 71229 46/// /1206 10038 20037 40253 55002 7//// 8//// 22200 0//// 2////
BBXX CGBN 26184 99447 70636 46/// /1703 10048 20021 40121 55008 7//// 8//// 22200 0//// 2////
BBXX CGBR 26184 99522 71281 46/// /0403 10060 20039 40101 56032 7//// 8//// 22200 0//// 2////
BBXX VOPP 26184 99456 70735 46/// /2505 11019 21074 4//// 5//// 7//// 8//// 22200 0//// 2////
BBXX VCSZ 26184 99455 70735 46/// /2407 11016 21045 40205 50003 7//// 8//// 22252 0//// 2////
BBXX VOFG 26184 99456 70614 46/// /1403 10032 20001 40134 56011 7//// 8//// 22200 0//// 2////
BBXX CG2958 26184 99543 71303 46/// /1410 10060 20034 49999 56041 7//// 8//// 22200 0//// 2////
BBXX VAAP 26184 99501 70664 46/// /2407 11052 21104 40100 56013 7//// 8//// 22241 0//// 2////
BBXX VCWL 26184 99468 70712 46/// /2504 11032 21085 40189 51003 7//// 8//// 22200 0//// 2////
BBXX CGCC 26184 99454 70735 46/// /2514 11021 21074 4//// 5//// 7//// 8//// 22241 00018 2////
BBXX CGTF 26184 99476 70527 46/// /1306 11034 21098 40206 56012 7//// 8//// 22200 0//// 2////
BBXX VOLG 26184 99447 70618 46/// /1807 10047 20002 40127 53001 7//// 8//// 22224 0//// 2////
BBXX CGSB 26184 99479 70695 46/// /2216 11033 21057 40162 50001 7//// 8//// 22241 00012 2////
AAXX 26181 26554 12962 12905 10041 20001 39993 40157 51026 69912 80001 333 10080 91110
AAXX 26181 26666 12960 02703 10043 21008 39923 40138 52032 60022 333 10058 91111
AAXX 26181 26850 12460 62901 10045 20028 39929 40204 52027 69932 83730 333 10064 83712
AAXX 26181 26863 12960 52808 10037 20019 39927 40166 52023 69942 85030 333 10047 91112
AAXX 26181 26941 12560 62804 10068 20042 39998 40236 52019 69962 86500 333 10075 86631 91111
AAXX 26181 26951 12563 32705 10033 20026 30020 40222 52018 69932 83500 333 10055
AAXX 26181 33008 11460 72604 10077 20057 30100 40279 52016 69942 70262 87500 333 10078 87614
AAXX 26181 33019 31357 82304 10069 20058 30080 40256 52013 71022 886// 333 10070 86711 91110
AAXX 26181 33036 11361 72804 10053 20034 39992 40225 52010 69902 70252 875// 333 10053 86708 91111
AAXX 26181 33041 11460 82604 10050 20033 30040 40196 52008 69912 70252 886// 333 10050 88712
BBXX UFTA 26181 99845 71249 32997 22804 11330 21365 40269 57004 80001
BBXX 46239 26181 99363 71221 46/// ///// 1//// 91751 22200 00129 11406 21003 329// 41405 70032
BBXX 46238 26181 99334 71195 46/// ///// 1//// 91750 22200 00139 11503 21002 329// 41503 70016
BBXX 51205 26181 99210 71564 46/// ///// 1//// 91748 22200 00233 11306 20905 333// 41304 70031
BBXX DFZB2 26183 99207 71640 41498 60916 10229 20194 40230 50010 7//22 86200 22264 04240 20906 327// 41206 5//// 80205
BBXX WBO3345 26184 99202 70717 41597 20710 10267 20235 40150 57/// 70100 82183 22272 0//// 20402 308// 40402 5//// 6//// 80244 ICE /////
BBXX J8PE4 26183 99199 70676 415// 50912 10300 2023/ 40190 50010 70311 85188 22274 00290 20503 309// 40302 5//// 6//// 80250 ICE /////
BBXX 2AKI3 26184 99151 70740 41298 52227 10281 20219 40122 58015 70211 85100 22224 00278 20604 3//// 4//// 5//// 80239
BBXX DDAC2 26180 99302 71202 41098 30103 10150 20150 40220 54000 7//00 82190 22272 04160 2//// 335// 40405 5//// 80150
BBXX WDC3786 26184 99307 71229 41498 20120 10141 2012/ 40264 52002 7//00 82748 22224 00180 20402 301// 40604 5//// 6//// 80132 ICE /////
BBXX 46225 26181 99329 71174 46/// ///// 1//// 91744 22200 00148 11301 21001 323// 41301 70007
BBXX 46215 26181 99352 71209 46/// ///// 1//// 91738 22200 00130 11504 20703 326// 41503 70021
BBXX 46213 26181 99403 71247 46/// ///// 1//// 91754 22200 00099 11507 21004 328// 41506 70034
BBXX 46229 26181 99438 71246 46/// ///// 1//// 91751 22200 00095 11408 21004 328// 41407 70040
BBXX 46217 26181 99342 71194 46/// ///// 1//// 91742 22200 00145 11302 21001 327// 41301 70009
BBXX 44099 26181 99369 70757 46/// ///// 1//// 91752 22200 00118 10402 20402 70012
BBXX 46224 26181 99332 71175 46/// ///// 1//// 91736 22200 00140 11501 21001 318// 41501 70007
BBXX 46214 26181 99379 71235 46/// ///// 1//// 91753 22200 00124 11507 21003 330// 41506 70033
BBXX 46232 26181 99325 71174 46/// ///// 1//// 91738 22200 00147 11302 21001 327// 41302 70011
BBXX 46219 26181 99332 71199 46/// ///// 1//// 91758 22200 00137 11504 20703 330// 41504 70022
BBXX 46236 26181 99368 71219 46/// ///// 1//// 91750 22200 00122 11504 21002 328// 41503 70020
BBXX 46243 26181 99462 71241 46/// ///// 1//// 91759 22200 00088 11406 20904 326// 41405 70031
BBXX 46247 26181 99378 71228 46/// ///// 1//// 91751 22200 00111 11705 20902 328// 41704 70023
BBXX 44100 26181 99363 70756 46/// ///// 1//// 91752 22200 00124 10704 20704 70019
BBXX 42099 26181 99273 70842 46/// ///// 1//// 91757 22200 00230 10402 20402 70009
BBXX 41110 26181 99341 70777 46/// ///// 1//// 91751 22200 00138 10901 20901 70005
BBXX 41113 26181 99284 70805 46/// ///// 1//// 91751 22200 00226 10901 20901 70007
BBXX 41112 26181 99307 70813 46/// ///// 1//// 91751 22200 00170 10502 20502 70012
BBXX 44097 26181 99410 70711 46/// ///// 1//// 91802 22200 00118 10504 20504 70018
BBXX 44172 26181 99445 70634 46/// ///// 1//// 91801 22200 00062 10603 20603 70013
BBXX 44060 26181 99413 70721 46/// ///09 10060 40194 51010 91800 22200 00101 333 91212 555 11098 22103
BBXX 44008 26181 99405 70692 46/// /3413 10070 20037 40141 53020 91750 22200 00109 333 91217 555 11142 22150
BBXX VOKF 26184 99490 70669 46/// /2315 11047 21091 40127 55001 7//// 8//// 22200 0//// 2////
BBXX 46061 26181 99602 71468 46/// /3510 10004 49829 57062 91750 22200 00050 10603 20603 300// 40802 70016 333 91212 555 11110 22116 31703 43612 61749 354103 358102 003103 000098 000105 005105
BBXX 46083 26181 99582 71380 46/// /1124 10015 20013 49755 56059 91750 22200 00067 10811 20608 300// 40807 70053 333 91229 555 11257 22275 31731 41231 61749 113238 114235 111228 109233 114227 115221 81226 91731
BBXX VXKF 26184 99462 70602 46/// /1902 10007 21017 40138 56014 7//// 8//// 22200 0//// 2////
BBXX VCBW 26184 99456 70735 46/// /2607 11018 21074 40203 50001 7//// 8//// 22252 00036 2////
BBXX CZ9742 26184 99506 70969 46/// /2607 10036 21017 49929 56003 7//// 8//// 22200 0//// 2////
BBXX VCLM 26184 99468 70712 46/// /2408 11026 21076 40183 51002 7//// 8//// 22200 0//// 2////
BBXX CGDR 26184 99484 71234 46/// /3604 10049 20048 40266 51007 7//// 8//// 22200 0//// 2////
BBXX CGDX 26184 99468 70712 46/// /2410 11028 21083 40189 53004 7//// 8//// 22200 0//// 2////
BBXX VOKJ 26184 99466 70555 46/// /1520 11007 21048 40169 58009 7//// 8//// 22223 0//// 2////
BBXX CG2965 26184 99487 71235 46/// /1605 10053 20035 40254 55004 7//// 8//// 22200 0//// 2////
BBXX VRYO3 26184 99477 70699 46/// /0321 11018 21011 40148 51002 7//// 8//// 22254 00013 2////
BBXX CGUM 26184 99463 70604 46/// /1507 10012 21014 40137 56016 7//// 8//// 22242 0//// 2////
BBXX VCRG 26184 99474 70619 46/// /2005 10005 20003 40126 55010 7//// 8//// 22200 0//// 2////
BBXX 44007 26181 99435 70701 46/// /3409 10029 21024 40172 53016 91750 22200 00074 10301 20301 3//// 40601 70007 333 91211 555 11098 22103 31654 43411 61749 341092 339084 343084 339092 346096 342096
BBXX 46041 26181 99474 71247 46/// /1510 10072 40235 56012 91750 22200 00081 11408 20704 3//// 41407 70041 333 91212 555 11109 22115 31719 41413 61749 146103 147097 148100 146101 147097 148096
BBXX 46026 26181 99378 71228 46/// /0201 10099 40274 53014 91750 22200 00108 11604 20401 327// 41604 70022 333 91203 555 11011 22012 31659 43004 61749 002011 288015 273022 282023 281025 280026
BBXX 51101 26181 99243 71621 46/// /1008 10229 20181 40233 51007 91750 22200 00237 10905 20603 310// 40903 70023 333 91210 555 11085 22090 31746 41010 61749 096079 101077 102079 096078 086073 085070
BBXX 42039 26181 99288 70860 46/// /1009 10215 40201 58020 91750 22200 00233 10603 20603 70014 333 91210 555 11090 22095 31706 41010 61749 099083 094085 096087 091088 092086 096087 80909 91712
BBXX 41040 26181 99145 70530 46/// /0707 10266 20218 40144 56020 91750 22200 00272 10904 20603 3//// 40902 70018 333 91209 555 11079 22083 31741 40710 61749 068075 071071 070073 068074 068071 068070 80708 91741
BBXX 46077 26181 99579 71543 46/// /2708 11103 21147 49935 57009 91750 22200 00044 10603 20603 70013 333 91211 555 11087 22090 31739 42611 61749 269082 257076 251073 257071 245068 258070 82809 91746
BBXX 46082 26181 99597 71434 46/// ///// 10036 49790 58070 91750 22200 00064 10808 70039
BBXX 46035 26181 99571 71778 46/// /3410 1//// 40125 58028 91750 22200 11305 20604 300// 41304 70026 333 91212 555 11095 22101 31656 43514 61749 339094 009091 018090 014081 000088 335112 83412 91655
BBXX 46072 26181 99517 71722 46/// /0809 11006 21075 40046 56035 91750 22200 00040 11105 20402 3//// 41104 70023 333 91210 555 11096 22100 31657 41014 61749 077092 078092 070097 088094 094105 086107 80912 91657
BBXX A8KM9 26184 99216 71270 41398 40918 10190 20150 40220 52/// 70311 84778 22264 20404 308// 41004 80165
BBXX BATFR15 26184 99236 70504 44798 10105 10235 20165 40183 56016 70000 81111 22214 00255 307// 41502 5////
BBXX PHCQ 26183 99299 70902 41/91 /0000 10163 20150 40210 74542 8//// 22200 00087 20000 3//// 4//// 5//// 80155
BBXX A8EH3 26183 99543 71596 41497 73323 11045 21066 40025 53005 70377 877// 22265 04050 20403 82050
BBXX V7OQ6 26184 99367 70489 41/92 90306 10190 20175 40160 56030 74922 89/// 22264 00240 20202 33403 40306 50204 6//// 80180 ICE /////
BBXX 9HA2583 26184 99262 70726 41898 22710 10230 20230 40250 54/// 70211 82089 22244 04260 20302 3//// 4//// 5//// 6//// 80230 ICE /////
BBXX KIYI 26184 99582 71487 41293 83444 10005 2102/ 49780 56030 78672 886// 22274 0//// 20205 3//// 4//// 5//// 6//// 81005 ICE /////
BBXX PHBO 26183 99295 70540 41/98 52710 10242 20129 40174 56018 70311 84260 22214 20301 333// 40802 80176
BBXX 41101 26184 99146 70562 46/// /0613 10260 20216 40136 57018 22200 00270 10603 70016
BBXX VCXF 26184 99464 70484 41598 32603 11002 2106/ 40207 57010 70200 83100 22200 02018 20201 333// 40805 81022
BBXX BAREU05 26184 99467 70567 46/// ///// 40170 52004 22224
BBXX 44040 26181 99410 70736 46/// /3408 10068 21032 40220 91745 22200 10301 70005 333 91211 555 11103 22118
BBXX 44027 26181 99443 70673 46/// /3411 10015 21017 40137 53014 91750 22200 00079 10703 20402 3//// 40702 70015 333 91213 555 11112 22117 31742 43313 61749 336105 336090 334089 332096 333090 344084
BBXX 41008 26181 99314 70809 46/// /0509 10149 20087 40246 58015 91750 22200 00172 333 91212 555 11100 22105 31749 40412 61749 045095 045093 042095 046096 042095 040097
BBXX 44065 26181 99404 70737 46/// /3311 10073 21018 40215 53012 91750 22200 00099 10403 20402 70013 333 91213 555 11112 22118 31710 43215 61749 325105 327115 333113 324117 330122 329119 83313 91702
BBXX 41013 26181 99334 70777 46/// /0209 10123 20033 40252 58005 91750 22200 00199 10603 20603 314// 41001 70015 333 91212 555 11099 22103 31742 40312 61749 024094 027092 025089 025086 026089 024094
BBXX 44020 26181 99414 70702 46/// /3412 10053 20007 40162 51022 91750 22200 00069 10402 20402 70011 333 91214 555 11124 22133 31659 42514 61749 326114 262116 262113 261111 260113 263115
BBXX 44009 26181 99385 70747 46/// /3212 10081 40247 51006 91750 22200 00112 10503 20503 70015 333 91215 555 11128 22135 31650 43215 61749 321118 321120 320120 323114 326118 318120
BBXX 41004 26181 99325 70791 46/// /0508 10142 20043 40256 58006 91750 22200 00216 10603 20603 3//// 40901 70016 333 91211 555 11088 22092 31705 40312 61749 051083 031084 039082 036085 037094 033093
BBXX 44014 26181 99366 70748 46/// /3311 1//// 40246 51010 91750 22200 00138 10705 20705 70026 333 91214 555 11113 22113 31701 43415 61749 333111 329108 334112 332111 332120 337115
BBXX 44025 26181 99402 70732 46/// /3110 10075 21011 40204 51011 91750 22200 00109 10503 20503 316// 40801 70013 333 91213 555 11110 22116 31741 43213 61749 314106 320101 318106 320099 325102 321106
BBXX 46025 26181 99337 71191 46/// /0902 10149 20093 40239 52019 91750 22200 00150 11302 20401 328// 41302 70010 333 91203 555 11017 22017 31701 40903 61749 092016 102016 107016 113016 093024 092020
BBXX 46054 26181 99342 71204 46/// /3210 10127 40242 52018 91750 22200 00139 11505 20703 300// 41503 70023 333 91211 555 11102 22108 31710 43211 61749 318096 319097 319096 320095 321090 321091
BBXX 46028 26181 99357 71219 46/// /3209 10118 40255 53018 91750 22200 00132 11606 20603 331// 41604 70028 333 91211 555 11097 22102 31705 43211 61749 318091 317087 321090 319093 320091 318084
BBXX 46029 26181 99461 71245 46/// /1707 10083 20048 40249 56007 91750 22200 00093 11407 20602 330// 41407 70037 333 91209 555 11074 22078 31654 41610 61749 165070 167070 169078 166078 164075 167078
BBXX 46012 26181 99374 71229 46/// /3204 10106 40272 51014 91750 22200 00124 11606 20301 328// 41606 70028 333 91205 555 11039 22041 31732 43107 61749 321039 322053 315047 320044 317044 318049
BBXX 46087 26181 99485 71247 46/// /1208 10067 20054 40236 56012 91750 22200 00080 11407 20402 326// 41406 70033 333 91211 555 11089 22094 31726 41211 61749 119085 118077 116079 126077 126077 124077
BBXX 42036 26181 99285 70845 46/// /0808 10197 20187 40211 58019 91750 22200 00213 10402 20402 319// 40701 70009 333 91209 555 11083 22087 31719 40809 61749 085078 087073 085077 082078 080076 079074
BBXX 42056 26181 99198 70849 46/// /0905 10264 20226 40176 58013 91750 22200 00272 10702 20401 309// 40702 70012 333 91206 555 11050 22053 31654 41008 61749 095049 099051 099052 103055 094057 101062 81006 91654
BBXX 42058 26181 99149 70749 46/// /0810 10271 20213 40127 58019 91750 22200 00271 10906 20705 309// 40903 70029 333 91213 555 11104 22111 31652 40914 61749 079098 084110 080113 083111 086107 086109 80912 91705
BBXX 41001 26181 99347 70727 46/// ///// 10148 20067 40210 50000 91750 22200 00226 10808 70038
BBXX 41049 26181 99275 70630 46/// /2504 10221 20163 40187 56018 91750 22200 00237 10904 20301 300// 40904 70019 333 91205 555 11037 22039 31704 42205 61749 253036 243042 234039 230041 228040 224039 82404 91738
BBXX 42035 26181 99292 70944 46/// /2705 10103 20093 40218 58015 91750 22200 00148 10701 20301 315// 40701 70005 333 91207 555 11054 22056 31741 42607 61749 267053 256047 272038 268048 277044 277048
BBXX 42060 26181 99163 70635 46/// /0607 10268 20196 40158 58021 91750 22200 00274 10503 20502 300// 40802 70014 333 91208 555 11069 22073 31724 40808 61749 064065 070065 069068 067066 069064 063067 80707 91720
BBXX 42065 26181 99149 70750 46/// /0709 10274 20220 91750 22200 10905 20804 3//// 40903 70026 333 91210 555 11093 22099 31705 40711 61749 068087 070080 066082 068088 068090 065090 80710 91712
BBXX 42002 26181 99258 70937 46/// /3408 10200 20172 40218 58010 91750 22200 00241 10602 20602 308// 40701 70012 333 91210 555 11079 22084 31704 43410 61749 337079 330081 334086 335083 336088 333071
BBXX 42020 26181 99270 70967 46/// /3106 10124 20078 40242 58015 91750 22200 00212 10502 20502 306// 40701 70010 333 91208 555 11062 22064 31722 43009 61749 305062 306060 305067 308067 307066 304063
BBXX 42012 26181 99301 70876 46/// /1009 10185 20170 40207 58023 91750 22200 00197 10503 20503 70014 333 91211 555 11092 22098 31733 40911 61749 099088 097092 093090 092092 091090 085093
BBXX 41044 26181 99217 70587 46/// /1004 10250 20175 40181 58020 91750 22200 00263 10803 20401 300// 40802 70013 333 91205 555 11038 22040 31657 41105 61749 099036 093036 097037 099038 101040 096040 81005 91657
BBXX 41043 26181 99211 70650 46/// /0905 10250 20203 40185 58025 91750 22200 00261 10903 20502 300// 40903 70015 333 91206 555 11055 22057 31706 40807 61749 087052 083052 082052 085052 087052 086056 80806 91658
BBXX 41048 26181 99320 70696 46/// /3315 10187 20103 40180 55000 91750 22200 00225 10705 20705 70027 333 91217 555 11145 22153 31653 43220 61749 331145 329147 323142 323145 326154 322159 83217 91653
BBXX 44066 26181 99396 70726 46/// /3311 10083 20016 40200 51018 91750 22200 00142 10706 20706 70030 333 91214 555 11121 22127 31652 43416 61749 328115 332112 332117 332117 334123 336125
BBXX 42001 26181 99259 70897 46/// /2901 10244 20185 40203 58009 91750 22200 00252 10602 20401 3//// 40602 70010 333 91202 555 11008 22008 31747 43202 61749 293007 286003 232002 233002 167001 162003
BBXX 41047 26181 99275 70715 46/// /2607 10235 40202 58023 91750 22200 00249 10903 20601 308// 40903 70014 333 91208 555 11068 22071 31700 42808 61749 261067 265067 270069 271067 272068 273070 82708 91658
BBXX 41012 26181 99300 70805 46/// /0506 10206 40227 58018 91750 22200 00237 333 91208 555 11062 22064 31713 40409 61749 047059 049064 044065 040069 031063 032064
BBXX 41060 26181 99148 70510 46/// ///// 1//// 91750 22200 11004 70022
BBXX 46069 26181 99337 71202 46/// /3308 10133 40246 53018 91750 22200 00139 11605 20703 328// 41604 70023 333 91209 555 11080 22084 31659 43309 61749 329075 328075 328073 329072 327077 327074
BBXX 46013 26181 99382 71233 46/// /2805 10092 40277 53016 91750 22200 00114 11506 20501 3//// 41506 70032 333 91207 555 11052 22054 31718 42907 61749 283050 278046 280041 279048 289048 311027
BBXX 46086 26181 99325 71180 46/// /3402 10151 40241 51017 91750 22200 00150 11603 326// 41603 70015 333 91203 555 11023 22025 31700 43503 61749 341021 337022 338020 343021 353023 351026
BBXX 46050 26181 99442 71246 46/// /1704 10080 40263 55000 91750 22200 00097 11408 20301 329// 41408 70042 333 91205 555 11036 22037 31652 41306 61749 165035 171034 176031 168032 164037 154041
BBXX 46014 26181 99394 71240 46/// /3103 10096 40286 53025 91750 22200 00107 11606 20401 3//// 41606 70029 333 91204 555 11030 22031 31738 43105 61749 311029 307025 319014 317019 027006 081009
BBXX 46075 26181 99539 71608 46/// /3208 11026 21095 40043 58015 91750 22200 00043 11606 20604 300// 41604 70029 333 91211 555 11088 22092 31650 43112 61749 321085 307088 314083 320079 313073 306080 83010 91651
BBXX 46080 26181 99580 71500 46/// /3117 11033 21043 49841 56034 91750 22200 00054 10707 20707 70035 333 91219 555 11176 22186 31728 42320 61749 308165 307162 306161 303157 307155 310157 83118 91730
BBXX 46005 26181 99461 71310 46/// ///16 10101 40110 56031 91750 22200 00099 10909 20908 3//// 41105 70047 333 91219 555 11167 22178
BBXX 46027 26181 99419 71244 46/// /1102 10079 40279 53016 91750 22200 00092 11206 20401 330// 41206 70031 333 91204 555 11022 22022 31739 41104 61749 109020 101012 098006 105011 120010 108017
BBXX 46047 26181 99324 71195 46/// /3104 10135 40249 53017 91750 22200 00136 11604 20401 327// 41604 70019 333 91205 555 11038 22040 31655 43105 61749 307036 308034 313031 312035 308033 307036
BBXX 46006 26181 99408 71375 46/// /2113 10136 40171 53003 91750 22200 00121 11209 20907 3//// 41206 70047 333 91216 555 11139 22151 31654 42117 61749 210128 209127 212128 211129 213134 211135
BBXX 46084 26181 99566 71361 46/// ///// 10052 20046 49785 56053 91750 22200 00070 11215 70077
BBXX 46059 26181 99380 71300 46/// /2606 10128 40291 51008 91750 22200 00137 11407 20501 3//// 41407 70036 333 91208 555 11061 22064 31734 42708 61749 261059 258058 253053 248051 255048 245054
BBXX 46002 26181 99426 71305 46/// ///// 10117 40226 57008 91750 22200 00120 11308 70038
BBXX 46088 26181 99483 71232 46/// /1405 10057 40244 91750 22200 00078 10301 20301 70004 333 91206 555 11052 22054 31650 41206 61749 139050 131052 130049 131044 124045 127051
BBXX 46011 26181 99350 71210 46/// /3207 10127 40255 53017 91750 22200 00134 11605 20603 331// 41604 70025 333 91208 555 11075 22079 31740 43209 61749 321072 323070 323071 325068 328070 328070
BBXX 42040 26181 99292 70882 46/// /1110 10211 40198 58020 91750 22200 00224 333 91211 555 11098 22104 31658 41112 61749 107098 106095 104098 104098 101099 102104
BBXX 44005 26181 99432 70691 46/// /3411 10036 21007 40153 51015 91750 22200 00083 10503 20503 70013 333 91213 555 11114 22120 31720 43414 61749 342109 343111 338114 331109 334106 336102
BBXX 42019 26181 99279 70954 46/// /2907 10137 20106 40224 58010 91750 22200 10502 20502 311// 40701 70009 333 91208 555 11072 22076 31709 43009 61749 288066 284064 283064 283062 284061 283062
BBXX 42059 26181 99151 70675 46/// /0809 10273 20209 40144 58024 91750 22200 00278 10604 20604 70020 333 91211 555 11095 22101 31739 40811 61749 082089 082090 083083 077084 078083 074087 80810 91738
BBXX AA8IG4 26184 99074 70544 41598 40815 10295 20230 40110 57020 70200 84200 22273 04270 20502 305// 40802 80250
BBXX WDC6698 26184 99126 71501 43/// /0924 1//// 2//// 40130 5//// 7//// 8//// 222// 04249 2//// 3//// 4//// 5//// 6//// 8//// ICE /////
BBXX BATFR56 26184 99032 30822 46/// /2622 10252 20250 40111 56015 22213 00287
BBXX VRET5 26183 99344 31519 41198 61624 10200 2017/ 40060 5//// 75011 8/86/ 22254 00240 2//// 3//// 4//// 5//// 6//// 80180 ICE /////
BBXX BATFR53 26184 99188 51535 46/// /0212 10274 20217 40142 51013 22222 00282
BBXX CG2350 26184 99433 70798 46/// /2512 10028 21032 40232 58026 7//// 8//// 22200 0//// 2////
BBXX CG2960 26184 99429 70824 46/// /2012 10050 21017 40226 58041 7//// 8//// 22200 0//// 2////
BBXX CGDS 26184 99447 70755 46/// /2009 11006 21047 4//// 5//// 7//// 8//// 22200 0//// 2////
BBXX WBS5272 26184 99456 70842 41/98 62225 10066 2//// 40190 57002 70222 8//// 22232 0//// 20201 3//// 4//// 5//// 6//// 8//// ICE /////
BBXX WYR4481 26184 99473 70909 42218 10052 40000 70311 22213 20404
BBXX DBLK 26181 99640 30000 41498 83113 11011 21025 49708 52010 70222 875// 22200 05014 20201 ICE 64660
BBXX 42003 26181 99260 70856 46/// /1108 1//// 91750 22200 10502 20502 319// 40801 70009 333 91209 555 11083 22089 31733 41110 61749 116078 118086 121081 122085 119083 120083 81209 91733
BBXX 41036 26181 99342 70770 46/// ///// 10108 20004 40257 50000 91750 22200 00185 10402 70011
BBXX 42055 26181 99222 70940 46/// /3209 10221 20206 40198 58010 91750 22200 00251 10805 20504 333// 40802 70025 333 91211 555 11091 22095 31730 43311 61749 325085 329086 333084 333091 335083 338087 83410 91718
BBXX A81D9 26184 99327 71287 41298 40709 10155 20142 40293 57003 70311 8/166 22214 04150 29902 332// 41006 5//// 80147
BBXX WDD6126 26184 99340 70580 41598 72324 10195 2014/ 40110 57036 76066 85729 22254 00200 20304 333// 40706 5//// 6//// 80160 ICE /////
BBXX A8CC4 26184 99459 70549 41297 51419 10005 21052 40200 54000 70211 83768 22224 00020 20302 312// 40703 81015
BBXX WJBJ 26183 99290 70790 41298 60319 10220 2017/ 40207 57010 70222 8613/ 22274 00244 20403 307// 40504 5//// 6//// 80190 ICE /////
BBXX A8RL2 26183 99296 70452 41598 42208 10250 20179 40170 57020 70111 84145 22214 04243 20701 328// 40803 80205
BBXX WDD6127 26184 99475 70169 41698 21918 10130 2011/ 40257 52013 70111 8128/ 22214 00140 20405 3//// 4//// 5//// 6//// 80120 ICE /////
BBXX DBBH 26181 99376 70010 41/98 /0202 10129 20077 40341 52005 7//// 22200 04160
BBXX DBBA 26181 99535 10100 46/// /2506 10110 2//// 40305 52006 22210 00054
BBXX DBKR 26181 99541 10121 46/// -2405 10110 20109 40284 52003 22200 00053
BBXX DBBA 26181 99541 10121 46/// /2506 10114 20090 40284 52002 22220 00059
BBXX DBJM 26181 99540 10085 46/////2313 10085 20075 40303 52015 22222 00054
BBXX DBBU 26181 99542 10119 46/// /2412 10107 20098 40280 54000 22220 00060
BBXX DK7210 26181 99540 10066 46/// /2316 10106 20106 30268
AAXX 26184 91925 02580 41010 10290 20202 30080 40140 51015 60001 84800 333 56200 60007 82820 84650 90710 91128 555 60005 10928 58012
AAXX 26184 91929 04481 /0611 10267 20234 30133 40136 51016 60042 700// 333 10268 20242 60047 90710 91122 555 60005
AAXX 26184 91938 01570 30711 10290 20202 30139 40141 51013 60002 715// 81201 333 10290 20248 60007 81820 90710 91118 555 60005 10618 58009
AAXX 26184 91943 16/// /0308 10249 20210 30148 40150 50010 60012 333 10261 58016
AAXX 26184 91944 06/// /0715 10276 20199 30163 40166 51012 60002 333 10276 20249 60007 90710 91118 555 60005
AAXX 26184 91948 01482 30205 10251 20206 30092 40194 51004 69921 70286 83200 333 56200 60007 81818 83821 90710 91110 555 60005 11211 58008
AAXX 26184 91954 06/// /3612 10269 20236 30146 40149 50010 69921 333 69927 555 59006
AAXX 26184 91958 01581 50207 10265 20219 30163 40165 50007 60031 70186 85200 333 56800 60017 85820 90710 91124 555 60005 13424 59014
AAXX 26184 91945 NIL
BBXX UCKG 26181 99616 10031 41/95 92326 10070 49920 52007 78262 22241 00080 21515
AAXX 26181 26038 01/83 02603 10052 20000 30054 40095 50011 60002 70200 333 10089 20052 60007 80/// 91114 555 1/002 20052 3/002 50065 52002
AAXX 26181 26045 NIL
AAXX 26181 26058 NIL
AAXX 26181 26115 NIL
AAXX 26181 26135 NIL
AAXX 26181 26141 NIL
AAXX 26181 26231 01/66 02403 10045 20014 30102 40117 50001 60002 70200 333 10093 20044 60007 80/// 91110 555 1/000 20044 3/000 50066
AAXX 26181 26242 01/84 02704 10045 21023 30025 40112 51028 60002 70200 333 10083 20045 60007 80/// 91113 555 1/000 20045 3/000 50055 52002
AAXX 26181 26247 NIL
AAXX 26181 14240 11515 81101 10030 20025 30234 40397 50010 60012 76166 885// 333 10040
AAXX 26181 14258 11660 81501 10014 20014 30194 40391 52004 69952 72166 885// 333 10035 42001 88633
AAXX 26181 14445 12970 10606 10093 21085 30174 40332 52015 60002 81040 333 10116 81399 91117 91506 92313
AAXX 26184 78866 02587 11306 10279 20186 30156 40161 57025 60001 81400 333 59009 60007 81825
AAXX 26184 78792 32560 30608 10327 20209 30084 40097 57020 83200 333 010// 10327 20233 30/// 58000 83820
AAXX 26184 78793 32570 61808 10288 20242 30068 40099 57008 85201 333 10306 20212 30/// 568// 59004 85815
AAXX 26184 78795 32370 63606 10304 20227 30006 40106 57005 83201 333 10315 20212 30/// 56//0 57841 58005 83818 83080
BBXX PCBT 26183 99378 70277 41798 71920 10185 20163 40226 53013 70322 85078 22214 20504 399// 4//05 80171
BBXX A8CH2 26184 99432 70203 41297 71831 10140 40260 57005 7//22 8/700 22254 20404 328// 40906
BBXX PHIN 26184 99457 10403 41598 53216 10056 21006 40159 52002 70322 854// 22263 00140 20401 330// 40807 80030
AAXX 26184 78866 02587 11306 10279 20186 30156 40161 57025 60001 81400 333 59009 60007 81825
AAXX 26184 78792 32560 30608 10327 20209 30084 40097 57020 83200 333 010// 10327 20233 30/// 58000 83820
AAXX 26184 78793 32570 61808 10288 20242 30068 40099 57008 85201 333 10306 20212 30/// 568// 59004 85815
AAXX 26184 78795 32370 63606 10304 20227 30006 40106 57005 83201 333 10315 20212 30/// 56//0 57841 58005 83818 83080
AAXX 26184 16622 12560 21206 10034 21010 30355 40366 52015 60002 82100 333 10076 90730 91111 555 10000 40006 30000 10028 2//// 30020 4//// 5//// 40000 47798 44220 50000 50018
AAXX 26184 16641 12960 00910 10102 21009 30291 40296 52016 60002 333 10138 90730 91120 555 10000 40068 40000 47747 44195 50000 50058
AAXX 26184 16682 12560 40000 10060 20036 30240 40259 52011 69922 82250 333 10110 82825 84357 90730 91106 555 10000 40060 30000 10090 20105 30106 40110 50121 60175 40000 47710 44190 50000 50050 60000 60002 60120
AAXX 26184 16716 12570 10307 10084 21030 30303 40322 52013 60002 81100 333 10104 555 10000 40074 40000 47752 44150 50000 50042
AAXX 26184 16734 NIL
AAXX 26184 16743 NIL
AAXX 26184 16749 12560 20000 10090 20018 30259 40274 52013 60002 81130 333 10132 90730 91104 555 10000 40070 40000 47729 44230 50000 50060
AAXX 26184 16754 11460 82005 10090 20069 30239 40287 52012 60022 70362 8587/ 333 10102 82818 84630 88358 90730 91108 555 10000 40078 40000 47709 44185 50000 50080 60000 60019 60335 70000 77/// 7R///
AAXX 26181 76040 32960 02901 10135 20028 30249 40264 52012 91740 333 10200 20040 30/// 59031 98660
AAXX 26181 76055 32980 00903 10178 21013 30226 40245 52015 91740 333 10214 20071 30/// 58///
AAXX 26181 76113 32980 02401 10134 21037 39754 40123 52005 91745 333 10142 20026 30/// 58017
AAXX 26181 76122 32970 03602 10046 21032 38602 40320 52013 91750 333 10059 21076 30/// 59023
AAXX 26181 76225 32960 00701 10065 21049 38689 40288 50004 91745 333 10065 21057 30/// 58///
AAXX 26181 76256 32980 00402 10199 20049 30208 40222 52008 91745 333 10209 20078 30/// 58017
AAXX 26181 76305 32970 33404 10210 20023 30210 40218 52014 80005 91750 333 10215 20140 30/// 56004 58022 83070
AAXX 26181 76323 32970 00201 10088 21052 38345 40396 52002 91740 333 10088 21074 30/// 59018
AAXX 26181 76342 32962 00902 10132 20021 39566 40303 57003 91750 333 10136 20042 30/// 59051
AAXX 26181 76382 32980 01802 10120 20016 38975 40282 57007 91753 333 10126 20010 30/// 59034
AAXX 26181 76390 31868 12404 10094 20005 38260 40265 57001 70544 81050 91730 333 10106 21024 30/// 56070 59020 81356
AAXX 26181 76393 31910 21001 10138 20040 39653 40251 57023 70544 82030 91750 333 10148 20056 30/// 56050 59047
AAXX 26181 76402 31958 40000 10202 20046 30149 40208 52014 70544 80006 91745 333 10202 20036 30/// 56005 58017
AAXX 26181 76423 32580 41201 10118 21029 38179 40242 57008 81204 91740 333 10118 21022 30/// 56505 59021 81830 83067
AAXX 26181 76458 32970 22404 10198 20154 30164 40169 50001 80004 91740 333 10234 20114 30/// 58007 82072
AAXX 26181 76471 32580 52706 10185 20030 37606 40149 57006 82501 91800 333 10190 20059 30/// 56505 59005 82635 83075
AAXX 26181 76491 32960 23401 10144 20065 39872 40276 57016 80004 91745 333 10148 20090 30/// 56009 59041
AAXX 26181 76499 31860 60000 10168 20067 30230 40252 57019 70122 86070 91745 333 10170 20117 30/// 56090 58023 86357
AAXX 26181 76525 32780 72012 10114 20039 37496 40177 57001 83036 91740 333 10114 20070 30/// 56/55 58001 83356 84080
AAXX 26181 76539 32970 03601 10148 20084 38191 40233 57002 91750 333 10260 20052 30/// 59013
AAXX 26181 76543 32675 70302 10190 20078 30236 40269 58013 8155/ 91745 333 10190 20128 30/// 59030 81650 86358
AAXX 26181 76548 32875 82102 10168 20073 30259 40269 58008 8805/ 91735 333 10170 20134 30/// 5603/ 59027 88357
AAXX 26181 76556 32970 60000 10252 20134 39146 40175 51007 80006 91735 333 10260 20139 30/// 56003 58018 86070
AAXX 26181 76571 32975 42102 10210 20061 38198 40235 56004 80004 91748 333 10214 20042 30/// 56005 59001
AAXX 26181 76577 32570 83604 10197 20152 38073 40201 58004 81106 91740 333 10205 20080 30/// 56505 58001 81826 87081
AAXX 26181 76581 32970 72502 10153 20093 39109 40249 57012 87020 91750 333 10160 20062 30/// 56032 59016 87460
AAXX 26181 76585 32680 43001 10150 20119 30093 40254 58012 82270 91735 333 10165 20109 30/// 5628/ 58032 82833
AAXX 26181 76593 32370 43604 10270 20251 30186 40188 58014 82230 91750 333 10315 20216 30/// 5688/ 59011 82820 82330 91005 91536
AAXX 26181 76612 32962 41901 10222 20082 38506 40197 50000 80005 91750 333 10228 20075 30/// 56006 58/// 84272
AAXX 26181 76632 31665 22403 10180 20071 37658 40160 57005 70500 82400 91740 333 10186 20086 30/// 56300 58/// 59/// 82645 98565
AAXX 26181 76634 31570 23102 10220 20057 37876 40198 57007 70500 82200 91750 333 10225 20055 30/// 565// 58/// 82820
AAXX 26181 76644 32460 71102 10288 20220 30171 40183 57019 84536 91750 333 10296 20220 30/// 56339 59014 82820 82610
AAXX 26181 76647 32670 30502 10312 20208 30168 40198 58007 83200 91750 333 10315 20202 30/// 56200 59005 82842
AAXX 26181 76654 31930 61801 10288 20219 30163 40167 52009 70544 80002 91757 333 10290 20204 30/// 56009 58016 86072
AAXX 26181 76656 32975 80000 10225 20086 38536 40203 54000 80007 91750 333 10232 20062 30/// 56005 58/// 88280
AAXX 26181 76658 31960 53203 10301 20157 39651 40157 57008 70542 80006 91749 333 10308 20170 30/// 56001 58038 85070 98934
AAXX 26181 76662 32670 13002 10220 20090 38543 40210 52003 81300 91714 333 10230 20070 30/// 56/// 58014 81833
AAXX 26181 76665 32964 03601 10222 20080 38149 40194 57005 91755 333 10234 20069 30/// 58002
AAXX 26181 76675 32581 10502 10185 20010 37403 40232 569005 81200 91749 333 10193 21013 30/// 569// 59001 81826
AAXX 26181 76680 31957 00501 10192 20042 37783 40133 57006 70500 91755 333 10197 20090 30/// 59006
AAXX 26181 76681 31970 01801 10200 20072 37810 40222 57005 70500 91745 333 10200 20030 30/// 58005
AAXX 26181 76683 32670 12701 10184 20093 37855 40226 56011 81100 91745 333 10195 20040 30/// 56200 59006 81840 94010 94182
AAXX 26181 76685 32970 03601 10196 20059 37897 40184 57003 91745 333 10198 20078 30/// 59003
AAXX 26181 76687 11/01 91101 10141 20125 38728 40240 58003 69911 74554 89/// 91738 333 10160 20105 31/// 59004
AAXX 26181 76692 31556 83608 10210 20149 30219 40239 58001 70222 8655/ 91745 333 10210 20180 30/// 5688/ 58002 86622 91536 91110
AAXX 26181 76695 32560 30602 10298 20223 30169 40175 52014 83200 91750 333 10300 20200 30/// 561// 59009 83825
AAXX 26181 76698 32560 60401 10279 20231 30179 40191 57011 86200 91750 333 10299 20199 31/// 56200 59012 86820
AAXX 26181 76726 32970 02001 10236 20144 38431 40156 52019 91755 333 10236 20150 30/// 58026
AAXX 26181 76737 31465 73401 10174 20144 38820 40215 58006 70322 876// 91735 333 10190 20134 30/// 562// 59010 87710 91105 91514
AAXX 26181 76743 31356 83202 10239 20219 30194 40202 57004 70211 885// 91745 333 10305 20223 30/// 567// 88608
AAXX 26181 76750 01560 42702 10286 20227 30172 40182 57015 60021 75152 84200 91750 333 10297 20211 31/// 56100 59005 60017 84820
AAXX 26181 76762 32904 03602 10272 20222 38785 40168 58009 91743 333 10275 20134 30/// 58003 91204
AAXX 26181 76773 32570 12501 10234 20143 38450 40181 57012 81100 91748 333 10237 20071 30/// 56900 59001 81820
AAXX 26181 76775 31570 22302 10233 20090 38560 40214 52013 70300 82100 91745 333 10238 20082 30/// 56800 58004 81627 81824
AAXX 26181 76805 32970 02402 10313 20207 30130 40134 57017 91750 333 10326 20216 30/// 58///
AAXX 26181 76833 32970 03614 10302 20178 30151 40153 57003 91745 333 10302 20244 30/// 58014 92033
AAXX 26181 76840 32560 10207 10280 20190 30094 40150 57005 81100 91740 333 10288 20195 30/// 58/// 81827 91221 91502 90417
AAXX 26181 76843 32565 60805 10219 20160 39534 40181 56013 84630 91745 333 10236 20192 30/// 567// 58009 84820
AAXX 26181 76845 32460 60503 10155 20117 37975 40203 56008 86700 91747 333 10174 20090 30/// 56200 59003 84717 82713
AAXX 26181 76848 32470 70501 10178 20131 38411 40134 58005 87700 91850 333 10188 20134 30/// 56100 58000 87619
AAXX 26181 76855 32580 11301 10304 20224 30082 40131 56004 81200 91745 333 10324 20214 30/// 56900 58009 81820 92000
AAXX 26181 76160 32962 00202 10170 21029 39979 40231 52009 91730 333 10170 20095 30/// 58024
AAXX 26181 76243 32974 01903 10114 20029 39959 40266 57001 91730 333 10122 20018 30/// 59068
AAXX 26181 76311 32980 00000 10210 20028 39917 40206 50013 91745 333 10214 20038 30/// 58021
AAXX 26181 76405 32980 63605 10213 20130 30184 40204 50012 80001 91750 333 10213 20127 30/// 56005 58013 86270
AAXX 26181 76640 31458 73203 10160 20132 30265 40277 57008 70222 8452/ 91740 333 10170 20126 30/// 5689/ 59028 84612 83440
AAXX 26181 76741 31465 63209 10224 20193 30179 40198 58002 70733 83230 91735 333 10249 20190 30/// 5677/ 58001 83813 83398 91112 91532
BBXX LAHV 26181 99589 10057 43/// /1910 10103 20080 40092 222// 04088 1////
BBXX LDGJ 26181 99603 10053 43/// /1605 10113 20078 40026 5//// 222/0 04093 1//// 3//// 4//// 5////
BBXX LF4H 26184 99596 10022 46/// /2233 10106 20081 40005 57002 8//// 22200 06086 10808 70041 333 91142
BBXX LMEL 26181 99603 10053 43/// /1606 10113 20086 40027 5//// 222/0 04098 1//// 3//// 4//// 5////
AAXX 26184 63980 12482 73007 10276 20246 40117 60032 83932 333 10288 59006 81914 83816 85075 943// 91125
BBXX 3FZK3 26184 99492 71229 46/// /1206 10038 20037 40253 55002 7//// 8//// 22200 0//// 2////
BBXX 46001 26181 99563 71480 46/// /3117 11017 49819 56012 91750 22200 00044 10809 20809 70044 333 91221 555 11186 22197 31706 43122 61749 307174 307172 305172 305171 301175 306172
BBXX 46013 26181 99382 71233 46/// /2805 10092 40277 53016 91750 22200 00114 11506 20501 3//// 41506 70032 333 91207 555 11052 22054 31718 42907 61749 283050 278046 280041 279048 289048 311027
BBXX 46026 26181 99378 71228 46/// /0201 10099 40274 53014 91750 22200 00108 11604 20401 327// 41604 70022 333 91203 555 11011 22012 31659 43004 61749 002011 288015 273022 282023 281025 280026
BBXX 46050 26181 99442 71246 46/// /1704 10080 40263 55000 91750 22200 00097 11408 20301 329// 41408 70042 333 91205 555 11036 22037 31652 41306 61749 165035 171034 176031 168032 164037 154041
BBXX 46054 26181 99342 71204 46/// /3210 10127 40242 52018 91750 22200 00139 11505 20703 300// 41503 70023 333 91211 555 11102 22108 31710 43211 61749 318096 319097 319096 320095 321090 321091
BBXX CG2958 26184 99543 71303 46/// /1410 10060 20034 49999 56041 7//// 8//// 22200 0//// 2////
BBXX CG2965 26184 99487 71235 46/// /1605 10053 20035 40254 55004 7//// 8//// 22200 0//// 2////
BBXX CGBR 26184 99522 71281 46/// /0403 10060 20039 40101 56032 7//// 8//// 22200 0//// 2////
BBXX CGBY 26184 99487 71235 46/// /1505 10055 20038 40253 55003 7//// 8//// 22200 0//// 2////
BBXX CGDR 26184 99484 71234 46/// /3604 10049 20048 40266 51007 7//// 8//// 22200 0//// 2////
BBXX CGJK 26184 99484 71234 46/// /0105 10055 20044 40251 56006 7//// 8//// 22200 0//// 2////
AAXX 26184 47090 32970 00000 11061 21216 30308 40332 52005 333 92030
AAXX 26184 47095 32970 00000 11152 21197 30167 40375 53004
AAXX 26184 47097 329// /0001 11118 21174 30265 40370 52008
AAXX 26184 47098 329// /1102 11120 21172 30222 40368 53006
AAXX 26184 47099 329// /0000 11139 21176 30332 40372 53006
AAXX 26184 47100 32970 02502 11163 21226 39375 40380 58003
AAXX 26184 47102 32975 03403 11024 21080 30179 40366 53002
AAXX 26184 47104 32970 01405 11063 21222 30228 40331 52003
AAXX 26184 47106 329// /1806 11056 21204 30277 40329 50002
AAXX 26184 47112 32970 03602 11072 21171 30279 40369 53004 333 92011
AAXX 26184 47114 32970 00202 11120 21182 30172 40371 52010
AAXX 26184 47119 32970 00000 11112 21157 30324 40370 52007
AAXX 26184 47121 329// /2702 11134 21175 30058 40380 52011
AAXX 26184 47127 329// /0901 11126 21164 30220 40375 52007
AAXX 26184 47129 32968 00000 11092 21121 30335 40374 53003
AAXX 26184 47130 32970 02308 11050 21207 30268 40333 50003 333 92033
AAXX 26184 47131 32970 00000 11091 21135 30292 40368 52003
AAXX 26184 47135 329// /2711 11066 21165 30043 40361 56002
AAXX 26184 47136 32970 02901 11116 21168 30175 40362 52009
AAXX 26184 47137 329// /2709 11067 21199 30232 40358 51001
AAXX 26184 47140 32968 40001 11079 21110 30336 40367 56005 80001 333 92021
AAXX 26184 47143 32972 22703 11044 21190 30275 40359 55001 80001
AAXX 26184 47145 32970 00000 11116 21142 30334 40363 51004
AAXX 26184 47146 32970 00001 11077 21131 30293 40364 57008
AAXX 26184 47150 32970 00202 11071 21127 30345 40366 55002
AAXX 26184 47152 32973 20000 11057 21181 30293 40338 50005 80001
AAXX 26184 47154 329// /3205 11063 21171 30293 40357 54000
AAXX 26184 47155 32975 00907 11027 21200 30290 40338 51001
AAXX 26184 47156 32970 20505 11044 21145 30268 40363 55003 80001
AAXX 26184 47157 32972 43403 11086 21160 30054 40344 56002 80001
AAXX 26184 47162 32975 20506 11025 21173 30294 40336 57004 80001 333 92022
AAXX 26184 47169 32670 43611 10018 21060 30260 40357 53002 84500 333 92054
AAXX 26184 47170 32970 23407 11024 21207 30309 40355 53005 80001 333 92022
AAXX 26184 47171 329// /0001 11068 21134 30306 40365 55007
AAXX 26184 47172 329// /0001 11066 21126 30288 40359 55003
AAXX 26184 47173 329// /3606 11060 21163 30240 40358 57011
AAXX 26184 47174 32970 22905 11053 21174 30132 40347 55005 80001
AAXX 26184 47175 32570 23610 11059 21108 39749 40357 53003 81500 333 92023
AAXX 26184 47185 32670 43610 10025 21049 30249 40343 55002 84500 333 92033
AAXX 26184 47188 32675 33605 10001 21063 30318 40341 50005 83500 333 92022
AAXX 26184 47189 32670 63605 10054 20001 30258 40319 56006 86500 333 92022
AAXX 26184 47192 32973 30001 11068 21155 30306 40346 52001 80001
AAXX 26181 76040 32960 02901 10135 20028 30249 40264 52012 91740 33310200 20040 30/// 59031 98660
AAXX 26181 76055 32980 00903 10178 21013 30226 40245 52015 91740 33310214 20071 30/// 58///
AAXX 26181 76113 32980 02401 10134 21037 39754 40123 52005 91745 33310142 20026 30/// 58017
AAXX 26181 76122 32970 03602 10046 21032 38602 40320 52013 91750 33310059 21076 30/// 59023
AAXX 26181 76225 32960 00701 10065 21049 38689 40288 50004 91745 33310065 21057 30/// 58///
AAXX 26181 76256 32980 00402 10199 20049 30208 40222 52008 91745 33310209 20078 30/// 58017
AAXX 26181 76305 32970 33404 10210 20023 30210 40218 52014 80005 91750333 10215 20140 30/// 56004 58022 83070
AAXX 26181 76323 32970 00201 10088 21052 38345 40396 52002 91740 33310088 21074 30/// 59018
AAXX 26181 76342 32962 00902 10132 20021 39566 40303 57003 91750 33310136 20042 30/// 59051
AAXX 26181 76382 32980 01802 10120 20016 38975 40282 57007 91753 33310126 20010 30/// 59034
AAXX 26181 76390 31868 12404 10094 20005 38260 40265 57001 70544 8105091730 333 10106 21024 30/// 56070 59020 81356
AAXX 26181 76393 31910 21001 10138 20040 39653 40251 57023 70544 8203091750 333 10148 20056 30/// 56050 59047
AAXX 26181 76402 31958 40000 10202 20046 30149 40208 52014 70544 8000691745 333 10202 20036 30/// 56005 58017
AAXX 26181 76423 32580 41201 10118 21029 38179 40242 57008 81204 91740333 10118 21022 30/// 56505 59021 81830 83067
AAXX 26181 76458 32970 22404 10198 20154 30164 40169 50001 80004 91740333 10234 20114 30/// 58007 82072
AAXX 26181 76471 32580 52706 10185 20030 37606 40149 57006 82501 91800333 10190 20059 30/// 56505 59005 82635 83075
AAXX 26181 76491 32960 23401 10144 20065 39872 40276 57016 80004 91745333 10148 20090 30/// 56009 59041
AAXX 26181 76499 31860 60000 10168 20067 30230 40252 57019 70122 8607091745 333 10170 20117 30/// 56090 58023 86357
AAXX 26181 76525 32780 72012 10114 20039 37496 40177 57001 83036 91740333 10114 20070 30/// 56/55 58001 83356 84080
AAXX 26181 76539 32970 03601 10148 20084 38191 40233 57002 91750 33310260 20052 30/// 59013
AAXX 26181 76543 32675 70302 10190 20078 30236 40269 58013 8155/ 91745333 10190 20128 30/// 59030 81650 86358
AAXX 26181 76548 32875 82102 10168 20073 30259 40269 58008 8805/ 91735333 10170 20134 30/// 5603/ 59027 88357
AAXX 26181 76556 32970 60000 10252 20134 39146 40175 51007 80006 91735333 10260 20139 30/// 56003 58018 86070
AAXX 26181 76571 32975 42102 10210 20061 38198 40235 56004 80004 91748333 10214 20042 30/// 56005 59001
AAXX 26181 76577 32570 83604 10197 20152 38073 40201 58004 81106 91740333 10205 20080 30/// 56505 58001 81826 87081
AAXX 26181 76581 32970 72502 10153 20093 39109 40249 57012 87020 91750333 10160 20062 30/// 56032 59016 87460
AAXX 26181 76585 32680 43001 10150 20119 30093 40254 58012 82270 91735333 10165 20109 30/// 5628/ 58032 82833
AAXX 26181 76593 32370 43604 10270 20251 30186 40188 58014 82230 91750333 10315 20216 30/// 5688/ 59011 82820 82330 91005 91536
AAXX 26181 76612 32962 41901 10222 20082 38506 40197 50000 80005 91750333 10228 20075 30/// 56006 58/// 84272
AAXX 26181 76632 31665 22403 10180 20071 37658 40160 57005 70500 8240091740 333 10186 20086 30/// 56300 58/// 59/// 82645 98565
AAXX 26181 76634 31570 23102 10220 20057 37876 40198 57007 70500 8220091750 333 10225 20055 30/// 565// 58/// 82820
AAXX 26181 76644 32460 71102 10288 20220 30171 40183 57019 84536 91750333 10296 20220 30/// 56339 59014 82820 82610
AAXX 26181 76647 32670 30502 10312 20208 30168 40198 58007 83200 91750333 10315 20202 30/// 56200 59005 82842
AAXX 26181 76654 31930 61801 10288 20219 30163 40167 52009 70544 8000291757 333 10290 20204 30/// 56009 58016 86072
AAXX 26181 76656 32975 80000 10225 20086 38536 40203 54000 80007 91750333 10232 20062 30/// 56005 58/// 88280
AAXX 26181 76658 31960 53203 10301 20157 39651 40157 57008 70542 8000691749 333 10308 20170 30/// 56001 58038 85070 98934
AAXX 26181 76662 32670 13002 10220 20090 38543 40210 52003 81300 91714333 10230 20070 30/// 56/// 58014 81833
AAXX 26181 76665 32964 03601 10222 20080 38149 40194 57005 91755 33310234 20069 30/// 58002
AAXX 26181 76675 32581 10502 10185 20010 37403 40232 569005 81200 91749 333 10193 21013 30/// 569// 59001 81826
AAXX 26181 76680 31957 00501 10192 20042 37783 40133 57006 70500 91755333 10197 20090 30/// 59006
AAXX 26181 76681 31970 01801 10200 20072 37810 40222 57005 70500 91745333 10200 20030 30/// 58005
AAXX 26181 76683 32670 12701 10184 20093 37855 40226 56011 81100 91745333 10195 20040 30/// 56200 59006 81840 94010 94182
AAXX 26181 76685 32970 03601 10196 20059 37897 40184 57003 91745 33310198 20078 30/// 59003
AAXX 26181 76687 11/01 91101 10141 20125 38728 40240 58003 69911 7455489/// 91738 333 10160 20105 31/// 59004
AAXX 26181 76692 31556 83608 10210 20149 30219 40239 58001 70222 8655/91745 333 10210 20180 30/// 5688/ 58002 86622 91536 91110
AAXX 26181 76695 32560 30602 10298 20223 30169 40175 52014 83200 91750333 10300 20200 30/// 561// 59009 83825
AAXX 26181 76698 32560 60401 10279 20231 30179 40191 57011 86200 91750333 10299 20199 31/// 56200 59012 86820
AAXX 26181 76726 32970 02001 10236 20144 38431 40156 52019 91755 33310236 20150 30/// 58026
AAXX 26181 76737 31465 73401 10174 20144 38820 40215 58006 70322 876//91735 333 10190 20134 30/// 562// 59010 87710 91105 91514
AAXX 26181 76743 31356 83202 10239 20219 30194 40202 57004 70211 885//91745 333 10305 20223 30/// 567// 88608
AAXX 26181 76750 01560 42702 10286 20227 30172 40182 57015 60021 7515284200 91750 333 10297 20211 31/// 56100 59005 60017 84820
AAXX 26181 76762 32904 03602 10272 20222 38785 40168 58009 91743 33310275 20134 30/// 58003 91204
AAXX 26181 76773 32570 12501 10234 20143 38450 40181 57012 81100 91748333 10237 20071 30/// 56900 59001 81820
AAXX 26181 76775 31570 22302 10233 20090 38560 40214 52013 70300 8210091745 333 10238 20082 30/// 56800 58004 81627 81824
AAXX 26181 76805 32970 02402 10313 20207 30130 40134 57017 91750 33310326 20216 30/// 58///
AAXX 26181 76833 32970 03614 10302 20178 30151 40153 57003 91745 33310302 20244 30/// 58014 92033
AAXX 26181 76840 32560 10207 10280 20190 30094 40150 57005 81100 91740333 10288 20195 30/// 58/// 81827 91221 91502 90417
AAXX 26181 76843 32565 60805 10219 20160 39534 40181 56013 84630 91745333 10236 20192 30/// 567// 58009 84820
AAXX 26181 76845 32460 60503 10155 20117 37975 40203 56008 86700 91747333 10174 20090 30/// 56200 59003 84717 82713
AAXX 26181 76848 32470 70501 10178 20131 38411 40134 58005 87700 91850333 10188 20134 30/// 56100 58000 87619
AAXX 26181 76855 32580 11301 10304 20224 30082 40131 56004 81200 91745333 10324 20214 30/// 56900 58009 81820 92000
AAXX 26181 76160 32962 00202 10170 21029 39979 40231 52009 91730 33310170 20095 30/// 58024
AAXX 26181 76243 32974 01903 10114 20029 39959 40266 57001 91730 33310122 20018 30/// 59068
AAXX 26181 76311 32980 00000 10210 20028 39917 40206 50013 91745 33310214 20038 30/// 58021
AAXX 26181 76405 32980 63605 10213 20130 30184 40204 50012 80001 91750333 10213 20127 30/// 56005 58013 86270
AAXX 26181 76640 31458 73203 10160 20132 30265 40277 57008 70222 8452/91740 333 10170 20126 30/// 5689/ 59028 84612 83440
AAXX 26181 76741 31465 63209 10224 20193 30179 40198 58002 70733 8323091735 333 10249 20190 30/// 5677/ 58001 83813 83398 9111291532
AAXX 26184 47101 32968 00000 11133 21163 30268 40373 52007
AAXX 26184 47105 369// /2507 11057 21217 30299 40333 52002
AAXX 26184 47108 32970 02906 11081 21199 30254 40368 53005
AAXX 26184 47115 32568 60703 11013 21082 30031 40314 52010 86500
AAXX 26184 47133 32970 23202 11089 21130 30278 40370 54000 80001
AAXX 26184 47138 32970 22007 11042 21188 30337 40340 52008 81001 333 92033
AAXX 26184 47159 32975 13411 11033 21220 30244 40334 54000 80001 333 92024
AAXX 26184 47165 32970 20207 11029 21124 30310 40359 53002 80001 333 92023
AAXX 26184 47168 32970 03408 11030 21177 30254 40338 53002 333 92023
AAXX 26184 47184 32670 43608 10018 21062 30328 40354 54000 84500 333 92043
AAXX 26181 76040 32960 02901 10135 20028 30249 40264 52012 91740 333 10200 20040 30/// 59031 98660
AAXX 26181 76055 32980 00903 10178 21013 30226 40245 52015 91740 333 10214 20071 30/// 58///
AAXX 26181 76113 32980 02401 10134 21037 39754 40123 52005 91745 333 10142 20026 30/// 58017
AAXX 26181 76122 32970 03602 10046 21032 38602 40320 52013 91750 333 10059 21076 30/// 59023
AAXX 26181 76225 32960 00701 10065 21049 38689 40288 50004 91745 333 10065 21057 30/// 58///
AAXX 26181 76256 32980 00402 10199 20049 30208 40222 52008 91745 333 10209 20078 30/// 58017
AAXX 26181 76305 32970 33404 10210 20023 30210 40218 52014 80005 91750 333 10215 20140 30/// 56004 58022 83070
AAXX 26181 76323 32970 00201 10088 21052 38345 40396 52002 91740 333 10088 21074 30/// 59018
AAXX 26181 76342 32962 00902 10132 20021 39566 40303 57003 91750 333 10136 20042 30/// 59051
AAXX 26181 76382 32980 01802 10120 20016 38975 40282 57007 91753 333 10126 20010 30/// 59034
AAXX 26181 76390 31868 12404 10094 20005 38260 40265 57001 70544 81050 91730 333 10106 21024 30/// 56070 59020 81356
AAXX 26181 76393 31910 21001 10138 20040 39653 40251 57023 70544 82030 91750 333 10148 20056 30/// 56050 59047
AAXX 26181 76402 31958 40000 10202 20046 30149 40208 52014 70544 80006 91745 333 10202 20036 30/// 56005 58017
AAXX 26181 76423 32580 41201 10118 21029 38179 40242 57008 81204 91740 333 10118 21022 30/// 56505 59021 81830 83067
AAXX 26181 76458 32970 22404 10198 20154 30164 40169 50001 80004 91740 333 10234 20114 30/// 58007 82072
AAXX 26181 76471 32580 52706 10185 20030 37606 40149 57006 82501 91800 333 10190 20059 30/// 56505 59005 82635 83075
AAXX 26181 76491 32960 23401 10144 20065 39872 40276 57016 80004 91745 333 10148 20090 30/// 56009 59041
AAXX 26181 76499 31860 60000 10168 20067 30230 40252 57019 70122 86070 91745 333 10170 20117 30/// 56090 58023 86357
AAXX 26181 76525 32780 72012 10114 20039 37496 40177 57001 83036 91740 333 10114 20070 30/// 56/55 58001 83356 84080
AAXX 26181 76539 32970 03601 10148 20084 38191 40233 57002 91750 333 10260 20052 30/// 59013
AAXX 26181 76543 32675 70302 10190 20078 30236 40269 58013 8155/ 91745 333 10190 20128 30/// 59030 81650 86358
AAXX 26181 76548 32875 82102 10168 20073 30259 40269 58008 8805/ 91735 333 10170 20134 30/// 5603/ 59027 88357
AAXX 26181 76556 32970 60000 10252 20134 39146 40175 51007 80006 91735 333 10260 20139 30/// 56003 58018 86070
AAXX 26181 76571 32975 42102 10210 20061 38198 40235 56004 80004 91748 333 10214 20042 30/// 56005 59001
AAXX 26181 76577 32570 83604 10197 20152 38073 40201 58004 81106 91740 333 10205 20080 30/// 56505 58001 81826 87081
AAXX 26181 76581 32970 72502 10153 20093 39109 40249 57012 87020 91750 333 10160 20062 30/// 56032 59016 87460
AAXX 26181 76585 32680 43001 10150 20119 30093 40254 58012 82270 91735 333 10165 20109 30/// 5628/ 58032 82833
AAXX 26181 76593 32370 43604 10270 20251 30186 40188 58014 82230 91750 333 10315 20216 30/// 5688/ 59011 82820 82330 91005 91536
AAXX 26181 76612 32962 41901 10222 20082 38506 40197 50000 80005 91750 333 10228 20075 30/// 56006 58/// 84272
AAXX 26181 76632 31665 22403 10180 20071 37658 40160 57005 70500 82400 91740 333 10186 20086 30/// 56300 58/// 59/// 82645 98565
AAXX 26181 76634 31570 23102 10220 20057 37876 40198 57007 70500 82200 91750 333 10225 20055 30/// 565// 58/// 82820
AAXX 26181 76644 32460 71102 10288 20220 30171 40183 57019 84536 91750 333 10296 20220 30/// 56339 59014 82820 82610
AAXX 26181 76647 32670 30502 10312 20208 30168 40198 58007 83200 91750 333 10315 20202 30/// 56200 59005 82842
AAXX 26181 76654 31930 61801 10288 20219 30163 40167 52009 70544 80002 91757 333 10290 20204 30/// 56009 58016 86072
AAXX 26181 76656 32975 80000 10225 20086 38536 40203 54000 80007 91750 333 10232 20062 30/// 56005 58/// 88280
AAXX 26181 76658 31960 53203 10301 20157 39651 40157 57008 70542 80006 91749 333 10308 20170 30/// 56001 58038 85070 98934
AAXX 26181 76662 32670 13002 10220 20090 38543 40210 52003 81300 91714 333 10230 20070 30/// 56/// 58014 81833
AAXX 26181 76665 32964 03601 10222 20080 38149 40194 57005 91755 333 10234 20069 30/// 58002
AAXX 26181 76675 32581 10502 10185 20010 37403 40232 569005 81200 91749 333 10193 21013 30/// 569// 59001 81826
AAXX 26181 76680 31957 00501 10192 20042 37783 40133 57006 70500 91755 333 10197 20090 30/// 59006
AAXX 26181 76681 31970 01801 10200 20072 37810 40222 57005 70500 91745 333 10200 20030 30/// 58005
AAXX 26181 76683 32670 12701 10184 20093 37855 40226 56011 81100 91745 333 10195 20040 30/// 56200 59006 81840 94010 94182
AAXX 26181 76685 32970 03601 10196 20059 37897 40184 57003 91745 333 10198 20078 30/// 59003
AAXX 26181 76687 11/01 91101 10141 20125 38728 40240 58003 69911 74554 89/// 91738 333 10160 20105 31/// 59004
AAXX 26181 76692 31556 83608 10210 20149 30219 40239 58001 70222 8655/ 91745 333 10210 20180 30/// 5688/ 58002 86622 91536 91110
AAXX 26181 76695 32560 30602 10298 20223 30169 40175 52014 83200 91750 333 10300 20200 30/// 561// 59009 83825
AAXX 26181 76698 32560 60401 10279 20231 30179 40191 57011 86200 91750 333 10299 20199 31/// 56200 59012 86820
AAXX 26181 76726 32970 02001 10236 20144 38431 40156 52019 91755 333 10236 20150 30/// 58026
AAXX 26181 76737 31465 73401 10174 20144 38820 40215 58006 70322 876// 91735 333 10190 20134 30/// 562// 59010 87710 91105 91514
AAXX 26181 76743 31356 83202 10239 20219 30194 40202 57004 70211 885// 91745 333 10305 20223 30/// 567// 88608
AAXX 26181 76750 01560 42702 10286 20227 30172 40182 57015 60021 75152 84200 91750 333 10297 20211 31/// 56100 59005 60017 84820
AAXX 26181 76762 32904 03602 10272 20222 38785 40168 58009 91743 333 10275 20134 30/// 58003 91204
AAXX 26181 76773 32570 12501 10234 20143 38450 40181 57012 81100 91748 333 10237 20071 30/// 56900 59001 81820
AAXX 26181 76775 31570 22302 10233 20090 38560 40214 52013 70300 82100 91745 333 10238 20082 30/// 56800 58004 81627 81824
AAXX 26181 76805 32970 02402 10313 20207 30130 40134 57017 91750 333 10326 20216 30/// 58///
AAXX 26181 76833 32970 03614 10302 20178 30151 40153 57003 91745 333 10302 20244 30/// 58014 92033
AAXX 26181 76840 32560 10207 10280 20190 30094 40150 57005 81100 91740 333 10288 20195 30/// 58/// 81827 91221 91502 90417
AAXX 26181 76843 32565 60805 10219 20160 39534 40181 56013 84630 91745 333 10236 20192 30/// 567// 58009 84820
AAXX 26181 76845 32460 60503 10155 20117 37975 40203 56008 86700 91747 333 10174 20090 30/// 56200 59003 84717 82713
AAXX 26181 76848 32470 70501 10178 20131 38411 40134 58005 87700 91850 333 10188 20134 30/// 56100 58000 87619
AAXX 26181 76855 32580 11301 10304 20224 30082 40131 56004 81200 91745 333 10324 20214 30/// 56900 58009 81820 92000
AAXX 26181 76160 32962 00202 10170 21029 39979 40231 52009 91730 333 10170 20095 30/// 58024
AAXX 26181 76243 32974 01903 10114 20029 39959 40266 57001 91730 333 10122 20018 30/// 59068
AAXX 26181 76311 32980 00000 10210 20028 39917 40206 50013 91745 333 10214 20038 30/// 58021
AAXX 26181 76405 32980 63605 10213 20130 30184 40204 50012 80001 91750 333 10213 20127 30/// 56005 58013 86270
AAXX 26181 76640 31458 73203 10160 20132 30265 40277 57008 70222 8452/ 91740 333 10170 20126 30/// 5689/ 59028 84612 83440
AAXX 26181 76741 31465 63209 10224 20193 30179 40198 58002 70733 83230 91735 333 10249 20190 30/// 5677/ 58001 83813 83398 91112 91532
AAXX 26184 87692 32960 00714 10268 20134 30157 40182 57019 555 10181
AAXX 26181 15502 12965 00000 11018 21020 30340 40381 53011 60002 333 10070 21018 555 598//
AAXX 26181 15525 11958 30000 10004 20004 30103 40382 52008 60002 71011 83030 333 10040 20004 555 500//
AAXX 26181 15528 12962 42302 10008 21003 30166 40365 53008 60002 84030 333 10025 20004 555 592//
AAXX 26181 15535 12962 20000 10005 21006 30320 40369 52006 60002 82030 333 10028 21010 42001 555 592//
AAXX 26181 15549 12965 62701 10002 21012 39949 40386 52011 60002 86030 333 10017 21016 43003 555 590//
AAXX 26181 15552 12560 63404 10028 20001 30315 40366 52007 60002 85540 222// 2//00 333 10040 20002 555 582// 92013 92417
AAXX 26181 15614 11658 60000 10006 21011 39646 40382 52016 60002 71022 86800 333 10030 20000 44006 555 589//
AAXX 26181 15615 11989 00512 11115 21129 37168 47108 53013 60002 70242 333 11106 21124 92983 444 86269 555 589//
AAXX 26181 15626 11650 80000 11006 21031 30178 40377 52013 60002 71022 886// 333 10005 21046 43004 555 583//
AAXX 26181 15627 11/00 90910 11089 21100 37680 47101 58001 69942 74944 333 11086 21096 48019 93509 555 592// 92713
AAXX 26181 15640 11958 30000 11010 21032 30053 40383 52013 60002 71011 83030 333 10020 21062 555 585//
AAXX 26181 15655 11520 82302 10023 20004 30336 40371 52008 60002 71042 885// 222// 00064 309// 40801 333 10023 21024 555 587// 92022 92425
AAXX 26181 15712 12968 01402 10009 21017 30108 40371 53014 60002 333 10065 21048 41998 555 583//
AAXX 26181 15730 11650 80000 10010 20002 39966 40376 52015 60002 71042 8452/ 333 10012 21063 43008 555 594//
AAXX 26181 26509 32496 82508 10064 20060 30194 40203 58002 885// 333 10074 91012 91112 555 53018
AAXX 26181 26518 32369 72705 10055 20048 40202 52001 87800 333 10071 87608 91009 91112 555 53020
AAXX 26181 26524 32497 62303 10045 20038 30057 40191 51010 86500 333 10082 86613 91005 91110 555 53017
AAXX 26181 26531 12960 02603 10043 20026 40175 52018 69902 333 10086 91007 91109 555 53017
AAXX 26181 26629 32565 82505 10066 20048 30117 40213 52013 86501 333 10082 86620 91009 91113 555 53017
AAXX 26181 26633 12970 02803 10043 20026 30056 40188 51022 69932 333 10082 91006 91114 555 53018
AAXX 26181 26730 12467 62705 10055 20036 30019 40212 52021 69932 86600 333 10076 91009 91113 555 53017
AAXX 26181 38353 419// 80000 11006 21010 39339 40261 52004 75654 886// 333 10087
AAXX 26181 38613 429// 81401 10012 21030 40250 52012 8802/ 333 10100
AAXX 26181 38616 425// 70000 10009 21017 39204 40238 51007 87500 333 10057
AAXX 26181 38345 31596 82701 11020 21041 38800 48492 52006 71022 886// 333 10057
AAXX 26181 36911 429// 82701 11006 21009 39266 40253 52007 8802/ 333 10076
AAXX 26181 36974 329// 71101 11152 21179 37971 48551 57008 80001 333 11120
AAXX 26181 36982 429// 30000 11193 21226 36513 47170 58001 60062 83030 555 11111
AAXX 26181 38353 419// 80000 11006 21010 39339 40261 52004 75654 886// 333 10087
AAXX 26181 38613 429// 81401 10012 21030 40250 52012 8802/ 333 10100
AAXX 26181 38616 425// 70000 10009 21017 39204 40238 51007 87500 333 10057
AAXX 26181 38345 31596 82701 11020 21041 38800 48492 52006 71022 886// 333 10057
AAXX 26181 36911 429// 82701 11006 21009 39266 40253 52007 8802/ 333 10076
AAXX 26181 36974 329// 71101 11152 21179 37971 48551 57008 80001 333 11120
AAXX 26181 36982 429// 30000 11193 21226 36513 47170 58001 60062 83030 555 11111
AAXX 26184 78948 12582 70914 10276 20229 30138 40146 69901 70281 874// 333 05299 10283 20246 59003 79999 82820 87640 90920
AAXX 26184 16172 12967 00805 10064 21044 30045 40353 53005 60002 333 10116
AAXX 26184 78016 11348 82921 10158 20145 30127 40131 55024 60081 76122 8597/ 333 10213 20156 70084 90910
AAXX 26183 04013 21589 62513 11028 21059 49873 52045 77077 82220 333 11020 21056 60068 555 3//13
AAXX 26183 04064 21520 82305 11042 21062 49891 52028 78582 8593/ 333 11034 21065 69948 555 3//05
AAXX 26181 06414 16/// /2204 10102 20083 30329 40362 53008 69922 333 10106 91107 91205
AAXX 26181 06459 36/// /2204 10086 20086 30182 40379 52004 60002 333 10089 91108 91205
AAXX 26181 06494 36/// /2504 10059 20057 39562 40376 52004 60002 333 10059 91108 91205
BBXX TFBKF 26184 99635 70202 46/// ///// 22200 10709 70044
BBXX TFDRN 26184 99658 70212 46/// ///// 22200 10401 70007
BBXX TFGRS 26184 99663 70182 46/// ///// 22200 10503 70017
BBXX TFGRV 26184 99638 70225 46/// ///// 22200 10808 70042
BBXX TFGSK 26184 99641 70229 46/// ///// 22200 10810 70050
BBXX TFHFN 26184 99642 70152 46/// ///// 22200 10807 70035
BBXX TFKGR 26184 99657 70136 46/// ///// 22200 10604 70018
BBXX TFSRT 26184 99633 70203 46/// ///// 22200 10910 70048
BBXX TFSTD 26184 99664 70234 46/// ///// 22200 10605 70027
AAXX 26184 04005 21/20 92512 11045 21093 49809 52012 78583 333 11033 21058 60038 555 3/214
AAXX 26184 04018 21220 82924 11039 21051 49895 53056 78783 8796/ 333 11027 21047 60018 555 3//31 81704 87909
AAXX 26184 04030 21459 83211 11016 21066 49889 52050 78783 8737/ 333 11012 21036 69948 555 3//22 85914 87622
AAXX 26184 04048 NIL
AAXX 26184 04063 22682 21503 11054 21106 49842 52028 82500 333 11027 21054 69908 555 3//06
AAXX 26184 04077 NIL
AAXX 26184 04082 NIL
AAXX 26184 04097 32689 22105 11016 21133 49849 52024 81270 333 10015 21031 555 3/309
AAXX 26184 93004 16/// /0827 10168 20155 40129 57002 60001
AAXX 26184 93023 16/// /0614 10180 20139 40159 57001 60001
AAXX 26184 93069 16/// /0919 10177 20127 40168 57001 60001
AAXX 26184 93110 17/98 /0805 10135 20119 40176 57001 60001
AAXX 26184 93186 17698 /1204 10167 20139 40187 52001 60001
AAXX 26184 93196 16/// /1909 10129 20113 40196 52003 60001
AAXX 26184 93245 16597 /1002 10136 20118 40193 57003 60001
AAXX 26184 93292 17698 /3401 10152 20122 40194 52003 60001
AAXX 26184 93309 17497 /1402 10164 20157 40178 52001 69941
AAXX 26184 93334 16/// /0000 10114 20105 39240 52002 69961
AAXX 26184 93339 16/// /0109 10110 20101 39244 52001 69981
AAXX 26184 93373 17698 /2202 10134 20128 40181 52003 60001
AAXX 26184 93404 17698 /0902 10153 20135 40181 52003 60001
AAXX 26184 93420 17598 /0607 10162 20126 40176 52002 60001
AAXX 26184 93439 17598 /0213 10166 20122 40167 52004 60001
AAXX 26184 93498 16/// /0105 10138 20118 40175 57002 60001
AAXX 26184 93515 17498 /1603 10142 20131 40164 52001 60001
AAXX 26184 93527 16/// /3005 10150 20142 40168 52006 60001
AAXX 26184 93546 17598 /2401 10157 20137 40166 52003 60001
AAXX 26184 93597 16/// /3317 10149 20135 40148 52002 60001
AAXX 26184 93615 17598 /1504 10143 20128 40165 52001 60001
AAXX 26184 93678 16/96 /0104 10142 20142 40132 54000 60001
AAXX 26184 93709 16/// /0000 10099 20095 40162 52006 60001
AAXX 26184 93773 17292 /2605 10145 20144 40128 52002 60001
AAXX 26184 93781 17397 /0506 10153 20144 40132 57001 60001
AAXX 26184 93800 NIL
AAXX 26184 93805 NIL
AAXX 26184 93831 17/98 /0107 10095 20043 40136 57005 60001
AAXX 26184 93845 17/98 /0204 10105 20094 40107 57017 60001
AAXX 26184 93891 17397 /0000 10127 20118 40122 57009 60001
AAXX 26184 93909 16/// /3514 10143 20101 40096 57012 60001
AAXX 26184 93929 16/// /3325 10115 20113 40020 57022 60001
AAXX 26184 93947 16/// /3509 10114 20114 40043 57010 69941
AAXX 26184 93987 16/// /2108 10125 20100 40211 52003 60001
AAXX 26184 93994 NIL
AAXX 26181 26645 12997 22603 10044 20029 39932 40194 52026 69912 80002 333 10070 91112
AAXX 26181 26659 12962 32903 10046 20021 39952 40166 52028 69932 80001 333 10065 91111
AAXX 26181 26763 11960 02705 10046 20015 39918 40145 52027 69982 70262 333 10052 91110
AAXX 26181 26825 32460 72705 10070 20050 30053 40236 52023 69902 875// 333 87616 91110
AAXX 26181 26832 12560 72903 10065 20029 30033 40226 52018 69932 87500 333 10073 87622
AAXX 26181 26887 11597 52605 10038 20028 39939 40146 53005 69942 70262 85500 333 10038 91112
AAXX 26181 26961 12460 72606 10051 20032 30004 40197 52020 69932 85501 333 10053 85619 91113
AAXX 26181 33027 11497 82602 10055 20041 30071 40240 52016 69902 70262 83707 333 10062 91111
AAXX 26181 33088 11597 82904 10052 20045 30082 40276 52013 69902 70252 885// 333 10053
AAXX 26181 33177 NIL
AAXX 26181 33261 11396 82504 10022 20017 30017 40202 57005 69912 72582 889// 333 10023 87707
AAXX 26181 33275 11397 82608 10011 21003 39973 40201 57013 69902 70252 886// 333 10011 88707
AAXX 26181 33301 11296 82608 10029 20026 30009 40298 52010 69912 71052 886// 333 10029 88704
AAXX 26181 33325 31296 83103 10038 20023 30003 40276 52006 71022 885// 333 10038 86705
AAXX 26181 33377 11396 82504 10014 20006 30047 40246 57002 69942 75152 886// 333 10014 88708
AAXX 26181 33415 32497 72706 10028 20007 39911 40320 53011 86530 333 10037 86613
AAXX 26181 33429 32497 82806 10021 20011 39880 40315 53010 885// 333 10026 88611
AAXX 26181 33466 11457 82605 10030 20020 30082 40274 53004 69902 71062 885// 333 10033 86713
AAXX 26181 33526 32560 72903 10057 21002 39987 40334 52010 87500 333 10097 87630
AAXX 26181 33562 32497 82505 10024 20008 39931 40302 51009 886// 333 10025 88712
AAXX 26181 33614 32561 82403 10019 21003 30158 40265 57018 885// 333 10019 88624
AAXX 26181 33761 32498 82703 10010 21016 30089 40320 52001 886// 333 10024 88718
AAXX 26181 33902 31996 02303 10007 21004 30259 40328 51002 71011 333 10007
AAXX 26181 33983 32997 02905 11031 21045 30277 40341 53007 333 10004
AAXX 26181 34415 32497 82708 10002 21015 30135 40234 57016 886// 333 10006
AAXX 26181 34523 12497 82404 11014 21034 30161 40240 57021 69902 885// 333 11014 88618
AAXX 26181 34712 31596 82806 11032 21042 30209 40299 57006 71022 886// 333 11032 88723
AAXX 26184 17022 12562 71003 10045 20016 30190 40363 52011 60002 85520 333 10067 85630 87459 91108 92427
AAXX 26184 17031 11460 82809 10064 20038 30349 40356 52010 69942 70262 8552/ 333 10080 83715 85633 88459
AAXX 26184 17038 11458 71403 10073 20032 30300 40353 52009 69902 78082 87200 333 10082 84719 86830 92426
AAXX 26184 17050 12670 80102 10010 20003 30315 40381 52012 69902 8552/ 333 10023 85635 88460 91108 93100
AAXX 26184 17060 12960 00310 10055 21011 30318 40360 52011 60002 333 10077
AAXX 26184 17096 12560 20611 11023 21055 38300 48568 52010 69922 82500 333 11008 82630
AAXX 26184 17124 12960 00000 11027 21041 39395 40373 52017 60002 333 10027
AAXX 26184 17128 12670 51004 11002 21051 39214 40365 52014 60002 83130 333 10018 83835 84359
AAXX 26184 17170 NIL
AAXX 26184 17195 12570 71001 10010 21036 39081 48582 52013 60002 84550 333 10026 84630 87359
AAXX 26184 17199 12670 52507 10030 21038 39173 40295 52020 60002 83550 333 10079 83635 85360
AAXX 26184 17219 12965 00209 10039 21007 30151 40301 52018 60002 333 10082 91122
AAXX 26184 17240 12970 02102 11010 21056 39124 40323 52016 60002 333 10060 91106
AAXX 26184 17244 12670 73505 10003 21027 39108 48582 52015 60002 85520 333 10006 85635 87459
AAXX 26184 17280 11656 63101 10045 20039 39454 40261 52010 60002 71022 82530 333 10081 82640 86360
AAXX 26184 17350 12960 03604 10079 20027 30195 40276 52021 60002 333 10157
AAXX 26184 17026 11570 82301 10052 20039 30321 40362 52008 60062 70262 8552/ 333 10064 85625 88458 91111 92428
AAXX 26184 17034 11562 72002 10067 20027 30308 40356 52007 60042 78082 84270 333 10073 84830 87358 92427
AAXX 26184 17070 12965 60802 10002 21023 39455 40372 52014 60002 86050 333 10029 86360 91105
AAXX 26184 17084 12670 81003 10017 21032 39416 40361 52014 60002 8452/ 333 10039 84635 88460 91107
AAXX 26184 17090 12665 70202 11007 21059 38823 48582 52012 60002 85570 333 10022 85637 87360
AAXX 26184 17098 11556 80000 11050 21055 38266 48575 51009 60022 77177 8552/ 333 11011 85630 88457 93102
AAXX 26184 17150 12960 00210 10038 20005 30205 40335 52018 60002 333 10068 91126
AAXX 26184 17160 12670 80307 10005 21047 39139 48587 52016 60002 8552/ 333 10016 85640 88460 91114
AAXX 26184 17184 12970 03505 10043 20002 30202 40319 52019 60002 333 10082 91117
AAXX 26184 17189 12560 61110 11005 21031 39133 48570 52015 60002 86500 333 10022 86630
AAXX 26184 17210 12670 40000 10039 20031 39205 40265 52011 60032 82101 333 10057 82840 84070
AAXX 26184 17234 12970 00000 10048 20010 30226 40297 52017 60002 333 10105 91110
AAXX 26184 17260 11956 03503 10033 20010 39434 40279 52014 60002 71000 333 10123
AAXX 26184 17290 12970 30201 10070 20022 30255 40288 52014 60002 83030 333 10133 83360 91106 92408
AAXX 26184 17370 12670 20000 10114 20074 30270 40274 52019 60002 82200 333 10148 82840 92408
AAXX 26184 17024 3//// /1908 10044 20022 30278 40359 51003 60002 333 10069
AAXX 26184 17056 12970 03606 10032 20011 30361 40366 52014 60002 333 10072 91116 92448
AAXX 26184 17067 12670 71503 10049 20021 30337 40360 52015 69982 87200 333 10066 87840 91109 92408
AAXX 26184 17092 NIL
AAXX 26184 17112 12663 70313 10043 21004 30348 40351 51012 60002 84270 333 10062 84835 87360 91122 92427
AAXX 26184 17115 12560 40217 10050 20013 30288 40341 52012 60002 84100 333 10065 82720 84835
AAXX 26184 17116 12662 20403 10030 21008 30223 40351 52016 60002 82100 333 10070 82835 91115
AAXX 26184 17188 12960 03606 10004 21044 39215 40323 52013 60002 333 10036 91116
AAXX 26184 17202 12970 01701 10028 21023 39241 40289 52017 60002 333 10081
AAXX 26184 17248 12670 80803 10015 21039 39085 48575 52016 60002 8352/ 333 10022 83640 88460
AAXX 26184 17292 12970 00000 10046 20013 39511 40301 52015 60002 333 10107 91108
AAXX 26184 17300 12960 03503 10065 21001 30204 40278 52015 60002 333 10156
AAXX 26184 17310 12970 00603 10108 21019 30272 40279 52012 60002 333 10164 91107 92438
AAXX 26184 17330 12970 02807 10095 21010 30258 40277 52016 60002 333 10142
AAXX 26184 17042 11560 71002 10059 20044 30316 40357 52009 60062 78088 84250 333 10071 84830 87358 92437
AAXX 26184 17074 12665 51802 10000 21026 39387 40359 52011 60002 82550 333 10051 82635 85360
AAXX 26184 17086 12670 81202 10034 21029 39597 40338 52012 60002 8652/ 333 10050 86635 87460
AAXX 26184 17088 12970 02103 11015 21047 38898 48584 52015 60002 333 10027
AAXX 26184 17140 12665 80605 11020 21050 38808 48580 52012 60002 8552/ 333 11009 85638 88459
AAXX 26184 17155 12670 71303 11005 21042 39180 40357 52014 60002 84550 333 10008 84635 87359 91108
AAXX 26184 17203 12670 40000 10011 21043 38945 48586 52013 60002 84200 333 10070 84840
AAXX 26184 17237 12970 02401 10035 21012 39784 40312 52013 60002 333 10070 91104
AAXX 26184 17250 12675 80406 11001 21043 38902 48579 52013 60002 8452/ 333 10007 84640 88460
AAXX 26184 17270 12970 02903 10074 20014 39605 40265 52016 60002 333 10125
AAXX 26184 17295 12570 50603 10102 20071 30275 40282 52018 60002 83250 333 10150 83830 85360
AAXX 26184 17320 12970 03404 10096 20019 30268 40273 52013 60002 333 10161 92438
AAXX 26184 17375 12970 00102 10099 20020 30277 40280 52014 60002 333 10152 91110 92408
AAXX 26184 17500 NIL
AAXX 26184 17501 12560 52505 10122 20042 30250 40269 52012 60002 82130 333 10155 82830 84360 92437
AAXX 26184 17505 12560 51403 10089 20026 30166 40282 52012 60002 82130 333 10144 82830 84360
AAXX 26184 17507 NIL
AAXX 26184 17510 12560 60000 10107 20034 30240 40250 53015 60002 82130 333 10165 82830 84360 92417
AAXX 26184 17515 12560 50000 10072 20029 30111 40292 52013 60002 82130 333 10169 82830 84360
AAXX 26184 17521 NIL
AAXX 26184 17530 12560 50103 10064 20040 30222 40281 52012 60002 82130 333 10159 82830 84360
AAXX 26184 17535 12560 50104 10080 20037 30220 40257 52009 60002 82130 333 10155 82830 84360
AAXX 26184 17540 NIL
AAXX 26184 17547 NIL
AAXX 26184 17550 12560 50000 10090 20026 30121 40270 52012 60002 82130 333 10151 82830 84360 92437
AAXX 26184 17572 12560 6//// 10100 20027 30260 40285 52011 60002 82130 333 10148 82830 84360 92417
AAXX 26184 89577 46/// ///03 11345 35824 4//// 5////
AAXX 26184 89578 46/// /0806 11323 36896 4//// 5////
BBXX BATUK01 26184 99560 70032 46/// /2510 10134 20067 40140 55002 22200 00072
AAXX 26184 60106 32565 20410 10132 20070 40294 53006 82200 333 10156 82820
AAXX 26184 60318 32560 11007 10147 20077 40307 51007 81200 333 10178 81823
AAXX 26184 60252 32960 02408 10172 20055 40244 53003 333 10222 95800
AAXX 26184 16643 12660 10316 10084 20010 30295 40300 52009 60002 81230 333 10126 90730 91124 555 10000 40084 40000 47752 44210 50000 50054
AAXX 26184 16648 12560 79903 10056 20004 30249 40342 52013 60002 84850 333 10060 82820 84635 87358 90730 91106 555 10000 40026 30000 10056 2//// 30068 40062 5//// 6//// 40000 47715 44195 50000 50036
AAXX 26184 16650 12460 50514 10052 20000 30336 40340 52010 60002 85600 333 10064 82712 83625 90730 91126 555 10000 40046 30000 10038 20042 30054 40048 50096 60124 40000 47780 44190 50000 50032
AAXX 26184 16684 12560 60218 10072 21012 30299 40327 51008 60002 86500 333 10080 90730 91128 555 10000 40068 40000 47756 44210 50000 50040
AAXX 26184 16732 12565 70124 10106 20028 30280 40293 52011 60002 86830 333 10108 82820 85625 90730 91134 555 10000 40096 40000 47735 44150 50000 50072
AAXX 26184 16614 12565 10000 10002 21033 39563 40379 52035 60002 81100 333 10041 42998 90730 91109 555 10000 41051
AAXX 26184 16627 12560 40208 10024 21004 30351 40355 51006 60002 84500 333 10046 90730 91119 555 10000 41046 30000 10024 20028 30040 40044 50074 6//// 40000 47798 44240 50000 50014
AAXX 26184 16667 12565 20207 10084 20027 30303 40309 51012 60002 82100 333 10098 90730 91122 555 10000 40070 30000 20070 30084 40000 47759 44210 50000 50060
AAXX 26184 16675 NIL
AAXX 26184 16710 36/// /0208 10025 21035 39530 40330 52013 333 10066 90730 91120 555 10000 40017
AAXX 26184 16723 12760 29903 10078 20002 30269 40285 52011 60002 82050 333 10104 90730 91108 555 10000 40052 40000 47736 44230 50000 50048
AAXX 26184 16738 17/// /0117 10084 20017 30099 40304 52016 69952 7414/ 333 10099 90730 91133 555 10000 40072 60000 60005 61123
AAXX 26184 16746 11457 80000 10080 20071 30107 40295 51016 60052 76062 8762/ 333 10080 84710 87620 88458 90730 91106 555 10000 40072 40000 47609 44180 50000 50076 60000 60050 60750 70000 77R// 7R///
AAXX 26184 08001 12968 0//// 10108 20060 30239 40322 53011 60002 333 10152 924/7
AAXX 26184 08015 12965 32703 10091 20008 39918 40330 53006 60002 80005 333 10114
AAXX 26184 08023 12970 21306 10092 20063 30257 40330 53007 60002 80002 333 10125
AAXX 26184 08027 12970 31404 10074 20027 30016 40335 53007 60002 80001 333 10096
AAXX 26184 08045 02975 12602 10079 20008 30015 40333 53005 60002 80001 333 10136 60007
AAXX 26184 08141 12975 12701 10044 21008 39456 40341 53003 60002 80001 333 10090
AAXX 26184 08160 12960 21202 10055 21005 30041 40361 53006 60002 80001 333 10097
AAXX 26184 08181 02580 13002 10075 20009 30343 40350 53001 60002 81801 333 10138 60007
AAXX 26184 08221 05/80 /3403 10059 21004 39641 40346 53003 60002 333 10118 60007
AAXX 26184 08231 12970 01001 10069 20006 39230 48618 53007 60002 333 10124
AAXX 26184 08261 12980 10000 10060 20026 39853 40350 53003 60002 80001 333 10128
AAXX 26184 08284 02575 23301 10093 20041 30273 40350 52002 60002 81101 333 10159 60007
AAXX 26184 08306 12670 20801 10089 20053 30331 40337 51003 60002 82800 333 10152
AAXX 26184 08314 02575 60510 10122 20062 30223 40328 53004 60002 868// 333 10146 60007
AAXX 26184 08430 12570 40102 10108 20064 30260 40336 55002 60002 84800 333 10156
AAXX 26184 08482 12570 71212 10148 20094 30313 40322 53005 60002 85860 333 10174
AAXX 26184 60715 11558 63506 10115 20074 30279 40286 53006 60042 70286 84880 333 10154 58024 84826 83630 85358 91008 91126
AAXX 26184 60723 11560 40000 10104 20087 30110 40303 53005 60032 70161 83280 333 10143 83823
AAXX 26184 60725 11558 41104 10084 2//// 30125 40308 52004 60052 70181 84800 333 10118 82820 83630
AAXX 26184 60735 11560 43204 10112 20068 30199 40283 52008 69912 70381 84800 333 10155 83823
AAXX 26184 60745 12560 50506 10110 20040 39902 40279 53004 60002 85200 333 10144 85826
AAXX 26184 60748 12565 73206 10104 20043 39857 40283 50008 60002 848// 333 10137 84823 84640
AAXX 26184 60750 12560 33404 10122 20032 30248 40274 53008 60002 83800 333 10168 82820
AAXX 26184 60760 12560 50607 10138 20018 30169 40274 53007 60002 85200 333 10174 85830 91010 91114
AAXX 26184 60765 12558 40412 10122 20088 30264 40268 58008 60002 84800 333 10156 82820 83630 92446 925//
AAXX 26184 60767 12560 40104 10114 20039 30126 40272 52007 60002 84800 333 10164 82820 83630
AAXX 26184 60769 12560 30310 10144 20063 30258 40262 52005 60002 83830 333 10170 81820
AAXX 26184 06030 01459 82420 10089 20075 30162 40178 58001 69902 71062 885// 333 10092 20063 69907 81611 87613
AAXX 26184 06060 02360 82419 10101 20084 30152 40217 52006 6///2 886// 333 10112 20098 6///7 85709 87611 91030 91130
AAXX 26184 06070 05461 82513 10102 20076 30186 40217 52003 6///2 333 10110 20078 6///7 83/14 88/17 91024 91128
AAXX 26184 06120 36463 82317 10097 20090 30221 40247 52007 333 10106 20092 87/10 88/13 91027 91129
AAXX 26184 06180 02462 82618 10096 20077 30231 40237 52008 69902 886// 333 10103 20085 6///7 88711
AAXX 26184 06193 07242 82324 10071 20070 30225 40236 57007 69922 71031 333 10072 20066 55300 20000 69917 87/04 88/06
AAXX 26181 48823 32697 70000 10161 20106 30223 40226 58010 875// 333 59017 87696
AAXX 26181 26106 32997 22404 10053 20019 40163 52010 80001 333 10096 91117
AAXX 26181 26313 329// 02504 10065 20036 40142 5//// 333 10076 91110
AAXX 26181 26346 12997 02805 10037 21006 40125 52031 69932 333 10076 91123
AAXX 26181 26406 31496 82406 10067 20059 40181 57003 71022 886// 333 10076 88717 91010 91112
AAXX 26181 26416 33/// /2304 10042 20026 40173 57004 333 10081 91111
AAXX 26181 26424 32997 22504 10047 20025 40172 52006 82030 333 10094 91115
AAXX 26181 26544 12997 12805 10048 20012 40165 52024 69902 80001 333 10084 91115
AAXX 26181 48820 32798 70000 10142 20073 30222 40240 58008 875// 333 59012 87697
AAXX 26181 14241 11456 81101 10025 20014 30262 40398 53010 69962 76162 8472/ 333 10046
AAXX 26181 14284 11960 72501 10025 20013 30286 40400 51007 60002 87070 333 10036
AAXX 26181 14307 32982 80503 10092 20020 30284 40362 53008 8807/ 333 10118
AAXX 26181 14317 NIL
AAXX 26181 14431 12780 21505 10086 20000 30243 40339 51003 60002 81540 333 10132 81656
AAXX 26181 14444 33980 00405 10072 21067 30308 40338 52016 333 10127
AAXX 26181 14474 12980 00106 10077 21051 30131 40327 53013 60002 333 10124
AAXX 26181 13160 31696 82102 10024 20017 30283 40397 51008 71022 885// 333 10039
AAXX 26181 13262 32997 00000 11001 21025 30248 40340 52016 333 10062
AAXX 26181 13272 31920 00000 10003 21014 30275 40401 52010 710// 333 10058
AAXX 26181 13285 32697 00000 11014 21025 30292 40401 52014 333 10040
AAXX 26181 13289 31097 23007 11050 21059 39128 48596 51007 70341 82600 333 11028 4/004 91111
AAXX 26181 13376 32697 40000 10012 21012 30130 40406 53008 84500 333 10044
AAXX 26181 13388 12697 53501 10007 21008 30137 40398 52011 69902 82530 333 10034
AAXX 26181 13462 32970 00403 10073 21037 30294 40335 52017 333 10113
AAXX 26181 13473 NIL
AAXX 26181 13489 11496 20201 10000 21009 39847 40392 51012 69912 71071 82600 333 10018 4/997 93197
AAXX 26184 08055 12989 12504 10052 21036 39257 48604 53006 60002 80001 333 10126 95000
AAXX 26184 08075 12982 50403 10029 21016 39280 48598 53003 60002 80001 333 10099
AAXX 26184 08084 02965 40000 10029 21017 39913 40366 53007 60002 80001 333 10089 60007
AAXX 26184 08171 12970 11106 10056 21002 30119 40368 57002 60002 80001 333 10102
AAXX 26184 08184 02982 00000 10065 20006 30187 40348 53005 60002 333 10130 60007
AAXX 26184 08202 02965 11002 10026 21009 39395 42920 53006 60002 80001 333 10101 60007
AAXX 26184 08235 NIL
AAXX 26184 08238 12665 32303 10096 20055 30275 40337 54000 60002 81405 333 10150
AAXX 26184 08280 12970 11505 10060 20026 39499 40344 53002 60002 81031 333 10114
AAXX 26184 08330 12970 00704 10088 20017 30083 40319 52003 60002 333 10153
AAXX 26184 08348 12960 23001 10064 20054 39585 40342 54000 60002 80001 333 10100
AAXX 26184 08360 02580 20711 10127 20051 30301 40339 51003 60002 81530 333 10154 60007
AAXX 26184 08373 02668 13605 10110 20057 30313 40335 58001 60002 81500 333 10158 60007
AAXX 26184 08410 02982 00801 10117 20042 30200 40313 53003 60002 333 10174 60007
AAXX 26184 08419 02680 20000 10090 20042 39637 40318 53005 60002 82500 333 10150 60007
AAXX 26184 08451 02975 01210 10147 20086 30265 40298 53009 60002 333 10200 60007
AAXX 26184 08487 02570 60608 10129 20076 30303 40329 53004 60002 82870 333 10158 60007
AAXX 26184 16294 12998 00705 10110 20031 30104 40300 53006 60002 333 10144 555 0////
AAXX 26184 60710 11558 61402 10089 20078 30214 40296 53006 60092 70262 86800 333 10140 83820 84630
AAXX 26184 60714 11562 60408 1//// 2//// 30296 40302 53004 60012 86800 333 1//// 83820 84630
AAXX 26184 60720 NIL
AAXX 26184 60728 NIL
AAXX 26184 60729 NIL
AAXX 26184 60731 05857 13108 10110 20069 30274 40281 53007 69922 333 10157 20099 58026 60007 81/58 91010 91126
AAXX 26184 60732 NIL
AAXX 26184 60734 11557 73602 10075 20073 39760 40294 52006 60032 70362 878// 333 10100 83823 85630
AAXX 26184 60738 12558 6//// 10031 20031 39024 48573 53008 60002 86200 333 10047 86823
AAXX 26184 60739 11556 33404 10072 20042 39452 40292 53002 69952 70161 83202 333 10082 83830 94239
AAXX 26184 60740 11458 63512 10133 20063 30275 40277 53007 69962 70181 86900 333 10160 83816 81923 84626
AAXX 26184 60742 NIL
AAXX 26184 60764 12562 60306 10120 20038 30226 40278 53012 60002 86800 333 10166 84830 83633
AAXX 26184 60770 12965 23606 10124 20089 30127 40268 53004 69962 82080 333 10164 82360
AAXX 26184 60772 NIL
AAXX 26184 60775 11558 80704 10118 20052 39909 40269 53005 69922 70262 888// 333 10143 85823 84630
AAXX 26184 60780 12560 70306 10133 20047 39960 40269 52002 60002 8588/ 333 10153 82823 84633
AAXX 26181 13173 31/93 91601 11016 21021 30294 40400 52009 74544 333 10049
AAXX 26181 13180 31/91 93401 11015 21015 30289 40406 50010 74344 333 10007
AAXX 26181 13266 32997 01800 11004 21014 30286 40393 52008 333 10053
AAXX 26181 13369 32697 12803 11059 21071 39132 48574 52009 81500 333 11011 4/011
AAXX 26181 13383 31996 60000 11010 21022 30186 40341 52009 71000 86070 333 10036
AAXX 26181 13384 32997 03601 11013 21019 30242 40404 52013 333 10033
AAXX 26181 13389 11696 82701 10010 20001 30099 40394 52017 69922 71022 885// 333 10032 4/997
AAXX 26181 13477 NIL
AAXX 26183 41150 42962 03315 10197 20128 40200 333 10226 58043
AAXX 26181 13168 32697 41801 10011 20004 30286 40398 51012 84500 333 10048
AAXX 26181 13174 11594 81603 11015 21018 30291 40398 52011 69912 72842 886// 333 10009
AAXX 26181 13269 32998 02901 10000 21013 30181 40407 52012 333 10062
AAXX 26181 13274 31993 01301 10012 21006 30235 40404 52012 74644 333 10056
AAXX 26181 13278 31/91 90000 11012 21017 30170 40409 52009 74744 333 10041
AAXX 26181 13378 32998 00807 11056 21071 38380 48597 52010 333 11052 4/014 91011 91111
AAXX 26181 13397 12697 82502 10006 20001 39830 40393 52009 69972 885// 333 10020 93100
AAXX 26181 13457 32960 00403 10096 21037 30320 40327 52015 333 10138 91108
AAXX 26181 13481 NIL
AAXX 26181 15501 12970 00000 10005 21009 30326 40372 53010 60002 333 10056 20004 555 590//
AAXX 26181 15505 11958 00000 11002 21011 39993 40385 52002 69952 71011 333 10024 21005 43005 555 594//
AAXX 26181 15511 12961 02302 10023 20010 30337 40378 53008 60012 333 10048 20018 555 591//
AAXX 26181 15514 11958 02305 10022 20006 30330 40367 52004 60002 71011 333 10034 20007 555 589//
AAXX 26181 15530 11518 80000 10012 20004 30143 40392 52008 69922 71022 8652/ 333 10042 20005 43006 555 594//
AAXX 26181 15533 12968 00000 10004 21017 30318 40351 52008 69902 333 10030 21005 43002 555 586//
AAXX 26181 15550 12965 02302 10016 21007 30343 40364 52011 60002 333 10035 20007 555 585//
AAXX 26181 15561 12465 23204 10010 21013 30345 40353 52003 60002 82500 222// 00054 2//00 333 10036 20000 555 584// 92013 92417
AAXX 26181 15562 12970 03206 10026 21011 30296 40371 52004 60002 222// 2//01 333 10026 20000 555 577// 92024 92428
AAXX 26181 15600 11984 21402 11058 21059 38408 48609 52006 60002 70141 82030 333 11058 21060 48012 555 592//
AAXX 26181 15601 12665 82901 10020 21019 39724 40367 53021 60002 885// 333 10034 21022 42001 555 575//
AAXX 26181 15605 12968 02703 11017 21022 39497 40382 52005 60002 333 10004 21019 44006 555 596//
AAXX 26181 15613 11/00 90508 11094 21103 37790 47119 52014 60002 74944 333 11070 21094 48045 555 592// 92711
AAXX 26181 15628 11625 80000 11004 21016 30116 40387 52013 60002 71022 885// 333 10005 21058 43010 555 591//
AAXX 26181 15642 11615 80000 11012 21014 30197 40375 52012 60002 71022 885// 333 11010 21060 555 599//
AAXX 26181 15661 12570 80502 10048 20006 30329 40366 53013 60002 885// 222// 20000 333 10050 21015 555 574// 92012 92418
AAXX 26181 15726 11/01 93503 11067 21072 38351 48611 53014 60002 74944 333 11059 21074 44044 93504 555 596// 92713
AAXX 26181 14008 11999 02810 11028 21032 37607 47170 53006 60002 74722 333 11022 49095 92838 95190
AAXX 26181 14015 11756 80000 10013 20001 30026 40402 52012 60002 71022 8657/ 333 10015 86650
AAXX 26181 14023 11597 80000 10013 20008 30093 40402 52014 69912 72162 8752/ 333 10036 81722 87632
AAXX 26181 14024 11/91 91303 11001 21001 39250 48617 52009 60002 745// 333 10014 42011 92855 95090
AAXX 26181 14026 11697 81401 10028 20010 30062 40396 52012 69902 70262 885// 333 10047
AAXX 26181 14031 11996 81201 10038 20017 30159 40396 52011 69902 710// 8807/ 333 10052
AAXX 26181 14105 12898 71103 10075 20027 30359 40364 53008 60002 87070 333 10098
AAXX 26181 14121 11998 80000 10026 20017 30115 40392 52011 69912 76062 8807/ 333 10040 41998
AAXX 26181 14122 11658 80601 10026 20019 30195 40400 52011 69922 761// 885// 333 10042 82635 88645
AAXX 26184 60020 NIL
AAXX 26184 60030 02580 10112 10182 20123 30184 40240 53006 60002 81570 333 10205 60007 92418
AAXX 26184 60040 02568 10604 10188 20127 30228 40253 53004 60002 81100 333 10204 60007 92427
AAXX 26184 60338 12975 10711 10140 20079 30248 40315 53005 60002 81010 333 10170 92438
AAXX 26181 33345 11398 82704 10035 20020 30049 40258 52003 69902 70252 886// 333 10042 88707
AAXX 26181 33506 11497 82706 10006 21016 30040 40242 57010 69902 75152 886// 333 10007
AAXX 26181 33177 11496 82604 10046 20036 30060 40302 52010 69982 76162 8872/ 333 10048
AAXX 26124 91648 11498 73214 10274 20235 40088 60001 70222 83270 333 10286 5689/
AAXX 26184 91648 11498 73613 10283 20246 40075 60001 71422 83270 333 5689/
AAXX 26184 71102 NIL
AAXX 26184 71105 NIL
AAXX 26184 71107 NIL
AAXX 26184 71110 NIL
AAXX 26184 71111 17424 81537 10066 20057 39914 49922 56044 60091 76144 333 10066 20003 70098
AAXX 26184 71112 17/// ///// 60021 7//4/ 333 70032
AAXX 26184 71113 16/// /1501 10039 20028 30233 40257 55003 60001 333 10069 20027 70010
AAXX 26184 71115 16/// /1005 10001 21042 39660 40248 50009 60001 333 10063 21031 70003
AAXX 26184 71116 16/// /2913 10025 21073 39097 40196 51027 60001 333 10052 20005 70000
AAXX 26184 71118 16/// /3316 10003 21040 39321 40146 53055 60001 333 10068 20003 70000
AAXX 26184 71121 16964 02809 10002 21104 39332 40158 51030 60001 333 10048 21011 70000
AAXX 26184 71127 16/// /2706 11012 21101 39247 40153 51025 60001 333 10057 21015 70000
AAXX 26184 71130 17212 83610 11027 21035 39607 40065 51052 60001 771// 333 10004 21041 70000
AAXX 26184 71132 15866 80904 11189 21224 39865 40191 51025 60001 333 11133 21213 70010
AAXX 26184 71133 16/// /3418 11004 21027 39364 40068 53043 60001 333 10021 21033 7////
AAXX 26184 71139 17/// /3012 10001 21079 38697 40160 51037 60011 7//4/ 333 10017 21020 70014
AAXX 26184 71141 NIL
AAXX 26184 71142 15966 02928 10011 21051 39151 40116 51030 60001 333 10046 20007 70000
AAXX 26184 71143 NIL
AAXX 26184 71144 NIL
AAXX 26184 71147 NIL
AAXX 26184 71149 16/// /3413 10029 21023 60001 333 10059 20006 70000
AAXX 26184 71500 NIL
AAXX 26184 71501 NIL
AAXX 26184 71502 NIL
AAXX 26184 71503 NIL
AAXX 26184 71504 NIL
AAXX 26184 71505 46/// /0000 11127 21146 39233 49961 56044 6///1 333 11095 21179 7////
AAXX 26184 71506 NIL
AAXX 26184 71507 17/// /0203 11090 21102 69951 7//4/ 333 11036 21097 70052
AAXX 26184 71508 17/// ///// 10036 21024 30088 40228 58029 69971 7//4/ 333 10037 20021 70007
AAXX 26184 71509 NIL
AAXX 26184 71511 NIL
AAXX 26184 71512 17/// /2505 11037 21086 30086 40100 57006 60011 7//4/ 333 11036 21142 70010
AAXX 26184 71513 15666 62809 11039 21072 30084 40100 55003 60001 333 11023 21175 70000
AAXX 26184 71514 NIL
AAXX 26184 71515 NIL
AAXX 26184 71516 16/// /3026 10027 21022 60001 333 10049 21012 70006
AAXX 26184 71517 NIL
AAXX 26184 71518 NIL
AAXX 26184 71519 NIL
AAXX 26184 71520 NIL
AAXX 26184 71521 NIL
AAXX 26184 71522 NIL
AAXX 26184 71523 NIL
AAXX 26184 71524 16/// /2508 11025 21069 30188 40215 58011 60001 333 11025 21127 70040 555 10020
AAXX 26184 71525 NIL
AAXX 26184 71526 NIL
AAXX 26184 71527 15966 82010 10009 21048 39445 49943 58031 60001 333 10009 21037 70000
AAXX 26184 71528 NIL
AAXX 26184 71529 46/// /32// 11319 21354 39968 40211 53015 6///1 333 11225 21329 7////
AAXX 26184 71532 15566 82410 10008 21026 39855 40204 58024 69931 333 10008 21024 70011
AAXX 26184 71534 17564 32410 10024 21027 39937 40212 58031 69951 7//44 333 10025 20001 70020
AAXX 26184 71535 NIL
AAXX 26184 71536 NIL
AAXX 26184 71537 NIL
AAXX 26184 71539 NIL
AAXX 26184 71540 NIL
AAXX 26184 71541 NIL
AAXX 26184 71542 17/// /0903 11126 21139 69941 7//4/ 333 11085 21131 70004
AAXX 26184 71543 NIL
AAXX 26184 71544 NIL
AAXX 26184 71545 16/// ///// 10009 21024 60001 333 10039 21001 70004
AAXX 26184 71546 NIL
AAXX 26184 71547 NIL
AAXX 26184 71548 NIL
AAXX 26184 71549 NIL
AAXX 26184 71051 NIL
AAXX 26184 71055 NIL
AAXX 26184 71057 NIL
AAXX 26184 71059 460// ///// 11246 30092 40187 58002 6///1 333 11246 21316 7////
AAXX 26184 71061 16/// /2704 10006 21080 39362 40138 51023 60001 333 10048 21022 70000
AAXX 26184 71062 46/// /2604 10002 21110 39077 40146 51020 6///1 333 10036 21035 7////
AAXX 26184 71064 460// /2922 11254 39890 40115 53003 6///1 333 11248 21319 7////
AAXX 26184 71065 NIL
AAXX 26184 71067 NIL
AAXX 26184 71070 NIL
AAXX 26184 71073 NIL
AAXX 26184 71074 NIL
AAXX 26184 71075 16/// /0303 11242 21268 39538 40170 51028 60001 333 11147 21258 70000 555 10070
AAXX 26184 71078 NIL
AAXX 26184 71084 460// ///// 11261 30004 40054 52009 6///1 333 11260 21341 7////
AAXX 26184 71085 15966 62522 10006 21092 38826 40218 51020 60001 333 10020 21003 70000
AAXX 26184 71087 NIL
AAXX 26184 71088 460// /3208 11276 53007 6///1 333 11276 21307 7////
AAXX 26184 71089 NIL
AAXX 26184 71096 460// ///// 11230 39059 49797 55008 6///1 333 11226 21285 7////
AAXX 26184 71097 47764 32717 11150 39323 49791 52014 6///1 741// 333 11140 21168 7////
AAXX 26184 71098 43/// /0211 11049 21063 39616 49972 53013 6///1 333 11006 21065 7////
AAXX 26184 71099 43/// /3515 11170 21192 30015 40036 51026 6///1 333 11099 21170 7////
AAXX 26184 71401 16/// /1502 11030 21046 39594 40295 51018 60001 333 10002 21043 70000
AAXX 26184 71402 NIL
AAXX 26184 71404 NIL
AAXX 26184 71405 NIL
AAXX 26184 71406 NIL
AAXX 26184 71407 NIL
AAXX 26184 71408 NIL
AAXX 26184 71409 NIL
AAXX 26184 71410 17566 80310 11112 21139 39762 40044 51047 60001 771// 333 11030 21113
AAXX 26184 71413 NIL
AAXX 26184 71414 NIL
AAXX 26184 71415 17/// /1710 10010 20004 30110 40113 55009 60021 7//4/ 333 10010 21082 70022 555 10040
AAXX 26184 71417 NIL
AAXX 26184 71418 NIL
AAXX 26184 71419 46/// /1708 10040 20003 30124 40134 55008 6///1 333 10041 21060 7////
AAXX 26184 71423 NIL
AAXX 26184 71424 46/// /2122 6///1 333 7////
AAXX 26184 71425 NIL
AAXX 26184 71426 NIL
AAXX 26184 71427 NIL
AAXX 26184 71428 16/// /2418 11040 21084 30116 40122 56003 60001 333 11036 21112 70000
AAXX 26184 71429 NIL
AAXX 26184 71434 NIL
AAXX 26184 71436 15566 82507 10022 21024 39979 40217 58023 60001 333 10022 21012 70011
AAXX 26184 71437 NIL
AAXX 26184 71438 NIL
AAXX 26184 71439 NIL
AAXX 26184 71440 NIL
AAXX 26184 71442 NIL
AAXX 26184 71445 NIL
AAXX 26184 71446 NIL
AAXX 26184 71448 16/// /2607 10033 21042 39608 49931 56013 60001 333 10037 21010 70000
AAXX 26184 71449 NIL
AAXX 26184 71950 15766 81609 11005 21038 39447 40077 58029 60001 333 11004 21044 70000
AAXX 26184 71952 16/// /1201 11068 21075 39250 40116 58021 60001 333 11057 21153 70000
AAXX 26184 71954 46/// /0209 11104 21128 39712 40095 51049 6///1 333 11024 21104 7////
AAXX 26184 71956 NIL
AAXX 26184 71959 NIL
AAXX 26184 71960 460// /0707 11334 30070 40212 58003 6///1 333 11316 21345 7////
AAXX 26184 71962 16/// /2212 10042 21050 39548 49962 57027 60001 333 10043 21027 70000
AAXX 26184 71963 NIL
AAXX 26184 71967 NIL
AAXX 26184 71970 NIL
AAXX 26184 71971 NIL
AAXX 26184 71972 460// /2139 11166 39382 49844 53004 6///1 333 11153 21169 7////
AAXX 26184 71973 46/// /1903 11018 21064 39946 40136 56007 6///1 333 11012 21103 7////
AAXX 26184 71974 NIL
AAXX 26184 71975 460// /0705 11207 39052 49777 53009 6///1 333 11205 21212 7////
AAXX 26184 71976 NIL
AAXX 26184 71977 NIL
AAXX 26184 71978 NIL
AAXX 26184 71979 NIL
AAXX 26184 71980 46/// /0000 11144 21162 6///1 333 11112 21161 7////
AAXX 26184 71981 NIL
AAXX 26184 71982 NIL
AAXX 26184 71983 NIL
AAXX 26184 71984 16/// /0000 11318 21350 30199 40208 56001 60001 333 11312 21333 70000
AAXX 26184 71985 NIL
AAXX 26184 71986 NIL
AAXX 26184 71987 16/// /3214 11024 21043 30111 40121 53004 60001 333 11014 21109 70006
AAXX 26184 71988 17/// /3320 10033 21001 30122 40142 52015 69971 7//4/ 333 10041 21041 70105
AAXX 26184 71989 NIL
AAXX 26184 71990 NIL
AAXX 26184 71999 46/// ///// 10016 6///1 333 10081 20006 7////
AAXX 26184 71201 17/// ///// 10047 20026 60051 7//4/ 333 10063 20047 70070
AAXX 26184 71202 16/// ///// 10005 21079 60001 333 10045 20001 70000
AAXX 26184 71203 15766 12403 10011 21032 39732 40258 50004 60001 333 10052 21028 70000
AAXX 26184 71209 46/// /1714 10063 6///1 333 10073 20052 7////
AAXX 26184 71211 46/// /3607 10044 20025 30239 40251 51002 6///1 333 10060 20044 7////
AAXX 26184 71212 16/// /3204 11073 21123 39336 40159 50000 60001 333 11073 21137 70008 555 10010
AAXX 26184 71213 46/// /2115 11002 21030 39815 40118 58039 6///1 333 11002 21062 7////
AAXX 26184 71214 NIL
AAXX 26184 71215 NIL
AAXX 26184 71216 16/// /1501 10018 21007 39634 40258 51017 60001 333 10044 21007 7////
AAXX 26184 71217 NIL
AAXX 26184 71218 16/// /2901 11019 21022 39821 40256 50009 60001 333 10029 21041 70017
AAXX 26184 71219 46/// /1442 10046 20021 39980 49986 56041 6///1 333 10058 20031 7////
AAXX 26184 71220 46/// /1451 10037 20025 6///1 333 10048 20034 7////
AAXX 26184 71221 NIL
AAXX 26184 71222 16/// /2001 11113 21124 39044 40017 56052 60001 333 11077 21154 70008 555 10010
AAXX 26184 71223 NIL
AAXX 26184 71224 NIL
AAXX 26184 71225 NIL
AAXX 26184 71226 NIL
AAXX 26184 71227 NIL
AAXX 26184 71228 NIL
AAXX 26184 71229 NIL
AAXX 26184 71230 16/// /0000 11040 21089 39243 40141 55001 60001 333 10015 21056 70000
AAXX 26184 71231 16/// /2817 10041 21083 60001 333 10051 20011 70000
AAXX 26184 71232 16/// /2305 10001 21141 38677 40181 51017 60001 333 10028 21011 70000
AAXX 26184 71233 NIL
AAXX 26184 71234 16/// /2619 10035 21108 39003 40194 51019 60001 333 10036 21022 70000
AAXX 26184 71235 16/// /2907 10014 21123 60001 333 10024 21017 70000
AAXX 26184 71236 46/// /3007 10000 21098 6///1 333 10012 21008 7////
AAXX 26184 71237 46/// /2902 10010 21063 39361 40179 51036 6///1 333 10056 21034 7////
AAXX 26184 71238 16/// /2904 10014 21035 60001 333 10045 21001 70000
AAXX 26184 71239 16/// /2915 10047 21031 39508 49955 58002 60001 333 10049 20003 70000 555 10010
AAXX 26184 71240 16/// ///// 10026 21076 39300 40145 52034 60001 333 10055 21007 70000
AAXX 26184 71241 NIL
AAXX 26184 71242 NIL
AAXX 26184 71243 NIL
AAXX 26184 71244 16/// /2815 10020 21073 38965 40198 51029 60001 333 10021 21023 70000 555 10010
AAXX 26184 71245 46/// /2325 11099 21152 6///1 333 11076 21104 7////
AAXX 26184 71246 NIL
AAXX 26184 71247 15966 02811 10034 21059 39329 40186 51032 60001 333 10062 20015 70000
AAXX 26184 71248 16/// /0000 11042 21139 38869 40180 51021 60001 333 10037 21129 70000
AAXX 26184 71249 NIL
AAXX 26184 71726 NIL
AAXX 26184 71727 11574 20206 11084 21117 39972 40175 55006 69901 70377 81550 333 11059 21118 48026 70010 90933
AAXX 26184 71728 11580 60904 11109 21150 39945 40173 57010 69901 70277 81530 333 11061 21131 44004 70006 90961
AAXX 26184 71730 12474 82216 11004 21025 39726 40155 58036 60001 885// 333 11003 21052 47016 70003
AAXX 26184 71731 11474 82313 11019 21035 39713 40170 58033 69901 70282 885// 333 11019 21053 43006 70034 90951
AAXX 26184 71735 NIL
AAXX 26184 71738 12474 72118 10023 21032 39729 40082 58042 60001 81171 333 10025 21042 70004
AAXX 26184 71739 42574 72212 11004 21038 39711 40076 57035 6//// 70272 86572 333 11004 21083 4//// 7////
AAXX 26184 71749 16964 02313 10058 21053 39756 49999 57045 69951 333 10058 70005
AAXX 26184 71799 11374 81603 10053 20037 30227 40251 57005 69961 70262 83570 333 10061 20025 70020 90926
AAXX 26184 71800 NIL
AAXX 26184 71801 12674 71609 11045 21101 30022 40201 56010 60001 87500 333 11044 21120 79999
AAXX 26184 71803 11469 71912 11040 21073 39974 40166 56014 69901 78581 87500 333 11033 21133 46008 79999 90916
AAXX 26184 71807 NIL
AAXX 26184 71808 11448 82220 11021 21023 30041 40088 56009 60031 77171 885// 333 11020 21130 48024 70036 90931
AAXX 26184 71809 11574 62112 11005 21076 30109 40137 56014 60001 82570 333 11004 21143 79999
AAXX 26184 71810 16/// /2708 11042 21067 30032 40099 56001 60001 333 11042 21095 70000
AAXX 26184 71811 NIL
AAXX 26184 71813 17/// /2809 11039 21069 30080 40094 55003 69931 7//4/ 333 11023 21177 70003
AAXX 26184 71814 17/// /2118 11007 21013 30075 40085 56013 69931 7//4/ 333 11006 21210 70006
AAXX 26184 71815 12574 82010 10003 21042 30105 40136 57016 60001 8257/ 333 10004 21087 79999
AAXX 26184 71604 17/// /2208 11019 21030 69971 7//4/ 333 11018 21112 70007 555 10040
AAXX 26184 71605 17/// /3503 10027 20027 30100 40252 53002 60151 7//4/ 333 10049 20027 70305
AAXX 26184 71611 17/// /2809 11035 21086 60011 7//4/ 333 11020 21061 70030
AAXX 26184 71612 NIL
AAXX 26184 71614 16/// /2705 11016 21075 30142 40209 58004 60001 333 11016 21058 70430 555 10050
AAXX 26184 71616 16/// /2506 11027 21059 30083 40206 58002 60001 333 11027 21104 70040
AAXX 26184 71617 16/// /3405 11086 21131 30006 40181 58007 60001 333 11069 21102 70008
AAXX 26184 71618 NIL
AAXX 26184 71619 NIL
AAXX 26184 71622 NIL
AAXX 26184 71632 46/// /0206 11241 21279 39693 40149 51035 6///1 333 11097 21241 7////
AAXX 26184 71634 16/// /2805 11044 21076 39983 40140 53005 60001 333 11038 21144 70000
AAXX 26184 71638 17/// /1210 10040 20021 30133 40240 56004 60031 7//4/ 333 10055 20008 70100
AAXX 26184 71639 12574 62210 10030 21048 39977 40222 58029 60001 86531 333 10035 20004 70002
AAXX 26184 71642 11574 72320 10011 21029 39550 40098 58034 60001 73622 81178 333 10011 21062 70002
AAXX 26184 71812 46008 03219 11323 21368 30096 40110 53016 6///1 333 11316 7////
AAXX 26184 71819 15966 02013 11039 21072 30060 40102 55006 60001 333 11039 21151 70000
AAXX 26184 71820 16/// /2507 10017 21027 30105 40221 58018 60001 333 10022 21026 70019
AAXX 26184 71823 17424 82115 11138 21162 39633 40022 56040 69951 74544 333 11138 21188 70015
AAXX 26184 71824 NIL
AAXX 26184 71826 16/// /1002 11156 21218 39746 49789 52013 60001 333 11155 21184 70000
AAXX 26184 71829 17/// /2213 11054 21117 39963 40127 55001 69931 7//4/ 333 11052 21106 70006
AAXX 26184 71833 46/// /2410 10018 21035 6///1 333 10022 20001 7////
AAXX 26184 71835 17/// /1703 11005 21020 39469 49942 58028 69941 7//4/ 333 11003 21062 70004
AAXX 26184 71837 NIL
AAXX 26184 71839 NIL
AAXX 26184 71840 NIL
AAXX 26184 71846 NIL
AAXX 26184 71847 NIL
AAXX 26184 71848 NIL
AAXX 26184 71849 16/// /2810 10034 21015 39650 49938 58004 60001 333 10038 21006 70000
AAXX 26184 71250 NIL
AAXX 26184 71251 16/// /2712 10032 21080 39268 40196 51026 60001 333 10054 21016 70000
AAXX 26184 71252 NIL
AAXX 26184 71253 46/// /0802 11118 21133 6///1 333 11113 21124 7////
AAXX 26184 71254 16/// /2909 11012 21062 60001 333 10041 21025 70000
AAXX 26184 71255 16/// /0102 11100 21121 60001 333 11063 21102 70000
AAXX 26184 71256 46/// /07// 10011 21089 39219 40155 51016 6///1 333 10038 21041 7////
AAXX 26184 71257 NIL
AAXX 26184 71258 NIL
AAXX 26184 71259 NIL
AAXX 26184 71261 16/// /2013 10035 21022 39944 40207 58038 60001 333 10038 20010 70009
AAXX 26184 71263 13560 32315 10026 21035 39937 40230 58032 60001 82201 333 10031 20004 70004
AAXX 26184 71264 16/// /2005 10040 20013 30087 40119 55007 60001 333 10044 21091 70000
AAXX 26184 71265 15566 62513 10037 21035 30131 40226 58028 60001 333 10043 20020 70000
AAXX 26184 71266 NIL
AAXX 26184 71267 15966 02625 10034 21090 39105 40204 51022 60001 333 10041 20014 70000
AAXX 26184 71268 NIL
AAXX 26184 71269 NIL
AAXX 26184 71270 NIL
AAXX 26184 71271 16/// ///// 10000 21027 60001 333 10046 21008 70000
AAXX 26184 71272 15966 03307 11301 21335 39789 40162 51027 60001 333 11207 21311 70000
AAXX 26184 71273 NIL
AAXX 26184 71274 NIL
AAXX 26184 71275 NIL
AAXX 26184 71276 NIL
AAXX 26184 71277 NIL
AAXX 26184 71278 NIL
AAXX 26184 71279 16/// /2703 11064 21109 30042 40109 55005 60001 333 11062 21155 70011
AAXX 26184 71281 NIL
AAXX 26184 71282 46/// /2615 10012 21009 39940 40213 58026 6///1 333 10013 21004 7////
AAXX 26184 71283 NIL
AAXX 26184 71284 16/// ///// 11005 21074 60001 333 10041 21022 70000
AAXX 26184 71285 NIL
AAXX 26184 71286 NIL
AAXX 26184 71287 NIL
AAXX 26184 71288 NIL
AAXX 26184 71289 NIL
AAXX 26184 71290 15766 81512 11010 21051 39316 40151 57001 60001 333 10009 21034 70000
AAXX 26184 71291 16/// /1710 10023 21029 39705 49990 58046 60001 333 10024 21028 70000
AAXX 26184 71292 16566 83014 10014 39420 40021 51045 69951 333 10028 21036 70005
AAXX 26184 71294 16/// /2503 10002 21034 39793 40200 58023 60001 333 10002 70018 555 10030
AAXX 26184 71295 NIL
AAXX 26184 71296 NIL
AAXX 26184 71297 16/// /2608 10040 21030 60001 333 10042 20019 70000
AAXX 26184 71298 16/// /2211 10047 21006 30000 40234 58032 60001 333 10047 20009 70000
AAXX 26184 71299 NIL
AAXX 26184 71744 NIL
AAXX 26184 71750 16/// /2009 10034 21007 39803 40035 58048 60001 333 10038 21026 70000
AAXX 26184 71751 NIL
AAXX 26184 71752 NIL
AAXX 26184 71753 17/// /0503 10007 21002 30086 40115 55010 60011 7//4/ 333 10011 21142 70017
AAXX 26184 71754 16/// /3018 10034 21047 39428 40090 53033 60001 333 10034 21023 70000
AAXX 26184 71755 43/// /0414 11086 21104 39642 49985 53017 6///1 333 11019 21094 7////
AAXX 26184 71756 16/// /0000 11016 21027 39119 40226 55002 60001 333 11014 21032 70068 555 10070
AAXX 26184 71758 NIL
AAXX 26184 71760 NIL
AAXX 26184 71761 NIL
AAXX 26184 71762 NIL
AAXX 26184 71763 NIL
AAXX 26184 71765 16/// /1816 10047 21002 39943 40219 55005 60001 333 10051 20009 70015
AAXX 26184 71766 16/// /1207 10050 20021 30150 40222 56008 60001 333 10050 20000 70005
AAXX 26184 71767 16/// /2113 10023 21020 39920 40183 58038 60001 333 10024 21003 70021
AAXX 26184 71768 46/// /3004 11006 21059 39706 40265 50001 6///1 333 10017 21034 7////
AAXX 26184 71769 17/// /1224 10060 20038 30204 40220 56007 69981 7//4/ 333 10070 20052 70012
AAXX 26184 71770 46/// /1609 10018 21042 39498 40281 51020 6///1 333 10046 20000 7////
AAXX 26184 71771 NIL
AAXX 26184 71772 17/// /1417 10060 20044 30224 40230 56003 69921 7//4/ 333 10069 20057 70012
AAXX 26184 71773 16/// /1804 11087 21128 39114 49970 58047 60001 333 11070 21112 70000
AAXX 26184 71774 46/// ///// 10022 6///1 333 10041 20019 7////
AAXX 26184 71775 46/// /0601 10042 20032 30258 40264 55002 6///1 333 10042 20010 7////
AAXX 26184 71776 46/// /2508 10004 21021 39626 40279 51017 6///1 333 10026 21008 7////
AAXX 26184 71777 16/// ///// 11009 21010 39987 40243 55002 60001 333 10001 21016 70047
AAXX 26184 71778 46/// /3612 6///1 333 7////
AAXX 26184 71779 16/// /1503 11032 21058 39520 40190 58003 60001 333 10009 21086 70000
AAXX 26184 71780 17/// /0604 10053 20022 30222 40250 56011 60031 7//4/ 333 10069 20038 70140
AAXX 26184 71781 46/// /1128 10059 20036 30187 40212 56010 6///1 333 10077 20056 7////
AAXX 26184 71782 46/// /1807 11006 21059 38905 40245 51026 6///1 333 10014 21008 7////
AAXX 26184 71783 16/// /1002 10054 20036 30175 40249 56008 60001 333 10057 20042 70044
AAXX 26184 71784 17/// /0704 10027 20016 30044 40251 56001 60081 7//4/ 333 10050 20025 70121
AAXX 26184 71785 16/// /1606 10060 20029 30250 40266 55001 60001 333 10071 20044 70000
AAXX 26184 71786 46/// /2713 11060 21075 38380 40238 51014 6///1 333 11037 21070 7////
AAXX 26184 71787 17/// /3109 11034 21034 39630 40123 53007 69961 7//4/ 333 11006 21103 70056 555 10010
AAXX 26184 71788 NIL
AAXX 26184 71789 NIL
AAXX 26184 71791 NIL
AAXX 26184 71792 NIL
AAXX 26184 71793 NIL
AAXX 26184 71794 NIL
AAXX 26184 71795 NIL
AAXX 26184 71796 NIL
AAXX 26184 71797 NIL
AAXX 26184 71150 NIL
AAXX 26184 71151 NIL
AAXX 26184 71152 16/// /2114 10007 21040 30143 40156 56009 60001 333 10008 21087 70007
AAXX 26184 71153 16/// /2716 10023 21099 60001 333 10031 20000 70000
AAXX 26184 71154 16/// /2319 10006 21101 60001 333 10023 21007 70000
AAXX 26184 71155 NIL
AAXX 26184 71156 NIL
AAXX 26184 71157 46/// ///// 10012 21058 6///1 333 10050 21002 7////
AAXX 26184 71158 NIL
AAXX 26184 71159 NIL
AAXX 26184 71160 NIL
AAXX 26184 71161 17/// /2005 11002 21036 30062 40213 58014 60021 7//4/ 333 11002 21053 70037
AAXX 26184 71162 NIL
AAXX 26184 71163 46/// /0805 11227 21248 39825 40183 51013 6///1 333 11194 21227 7////
AAXX 26184 71164 NIL
AAXX 26184 71165 NIL
AAXX 26184 71166 NIL
AAXX 26184 71167 15966 02503 11021 21101 39063 40165 51009 60001 333 10030 21054 70000
AAXX 26184 71168 16/// /2512 10092 21051 39523 40102 50001 60001 333 10093 21048 70000
AAXX 26184 71170 16/// /2917 10024 21035 60001 333 10031 21006 70000
AAXX 26184 71171 NIL
AAXX 26184 71172 NIL
AAXX 26184 71175 NIL
AAXX 26184 71176 460// /2348 11236 39178 49872 53004 6///1 333 11205 21237 7////
AAXX 26184 71177 460// /2227 11218 38923 49945 53006 6///1 333 11165 21234 7////
AAXX 26184 71178 16/// /2015 11036 21088 30146 40179 56012 60001 333 11035 21118 70000
AAXX 26184 71179 460// /2022 11159 39176 40019 53003 6///1 333 11155 21233 7////
AAXX 26184 71180 16/// /1814 10007 21022 30101 40141 56017 60001 333 10011 21068 70000
AAXX 26184 71181 17219 61602 11022 21040 30118 40155 56012 60021 74544 333 11012 21129 70015
AAXX 26184 71183 16/// /2708 30171 58008 60001 333 70025
AAXX 26184 71184 46/// /2510 11024 21064 6///1 333 11024 21111 7////
AAXX 26184 71186 NIL
AAXX 26184 71187 15666 82707 10049 20020 30210 40258 55004 60001 333 10075 20031 70000
AAXX 26184 71189 NIL
AAXX 26184 71190 NIL
AAXX 26184 71191 17/// ///// 10008 21008 60051 7//4/ 333 10018 21078 70154 555 10060
AAXX 26184 71192 17562 81704 11033 21058 39524 40194 58003 60001 771// 333 10009 21085 70000
AAXX 26184 71193 16/// /2113 11008 21035 39711 40076 58034 60001 333 11008 21086 70000
AAXX 26184 71196 16/// /1703 11008 21034 39994 40196 58025 60001 333 11007 21080 70006 555 10020
AAXX 26184 71197 17164 81813 10010 21012 30094 40144 56017 60001 745// 333 10015 21072 70000
AAXX 26184 71198 46/// /2211 11019 21074 6///1 333 11018 21095 7////
AAXX 26184 71199 46/// /0901 11175 21192 39218 40074 56030 6///1 333 11151 21247 7////
AAXX 26184 71893 11380 81323 10061 20039 30187 40219 57010 69901 71562 8667/ 333 10062 21004 79999 90941
AAXX 26184 71894 17/// /1014 10058 20055 30190 40199 56015 60051 7//4/ 333 10067 20046 70070
AAXX 26184 71896 15766 81911 11014 21072 39333 40173 55007 60001 333 11008 21051 70000
AAXX 26184 71897 11356 81450 10057 20029 3//// 4//// 57041 60041 76166 8877X 333 10063 20048 70060 90999
AAXX 26184 71898 160// ///// 10043 56047 60051 333 10047 20019 70070
AAXX 26184 71899 11566 81717 10041 20036 3//// 4//// 56051 60021 76186 8752X 333 10045 20002 70058 90917
AAXX 26184 71902 12974 62711 11173 21245 30015 40024 53008 60001 81031 333 11113 21195 70000
AAXX 26184 71905 NIL
AAXX 26184 71906 11556 82315 11179 21216 39948 40000 56006 69921 77177 885// 333 11178 21219 44015 70008 90973
AAXX 26184 71907 17428 93504 11178 21204 39931 49964 56014 60001 745// 333 11175 21222 70000
AAXX 26184 71909 16964 03618 11218 21263 39782 49825 53019 60001 333 11126 21228 70000
AAXX 26184 71910 46564 32807 11217 21261 39818 49881 51019 6///1 333 11179 21217 7////
AAXX 26184 71911 46061 02307 11326 39933 49992 51004 6///1 333 11319 21368 7////
AAXX 26184 71912 12574 50113 11257 21302 39923 40114 51031 60001 82501 333 11113 21258 70048
AAXX 26184 71915 NIL
AAXX 26184 71917 11974 13304 11275 21339 30042 40056 52010 69901 77600 81070 333 11210 21336 48015 79999 90921
AAXX 26184 71922 11474 80309 11096 21119 39648 40122 52057 60021 77172 88500 333 11016 21096 47027 70022 90917 93102
AAXX 26184 71924 11974 30000 11234 21282 39906 49998 51011 69901 77671 83030 333 11204 21331 48038 79999 90973
AAXX 26184 71925 11566 33016 11265 21309 30052 40095 51005 69921 73677 83500 333 11243 21341 42021 70002 90923
AAXX 26184 71926 12580 13021 11311 21368 30060 40086 55000 60001 81500 333 11311 21341 70000
AAXX 26184 71928 16/// /1503 11051 21142 39008 40185 51023 60001 333 10022 21109 70000
AAXX 26184 71114 160// /2706 10048 20016 30211 40259 55003 60001 333 10078 20033 70075
AAXX 26184 71120 11474 73613 11030 21070 39484 40149 51074 69921 70272 87500 333 10015 21061 42002 70002 90935
AAXX 26184 71122 16/// /2406 11013 21126 38592 40208 51019 60001 333 21033 7//// 555 10030
AAXX 26184 71123 12874 12706 11019 21092 39296 40167 51028 60001 81071 333 10051 21040 79999
AAXX 26184 71125 11459 73414 11017 21030 39527 40116 53071 69981 77122 87500 333 47001 70008 90942 93101
AAXX 26184 71129 12674 72914 10024 21074 39293 40120 51027 60001 87500 333 10055 21003 70000
AAXX 26184 71131 16/// /2617 11025 21066 38904 40169 51035 60001 333 10005 21027 70004
AAXX 26184 71135 16/// /3118 10013 21040 39038 40122 52054 60001 333 10023 20001 70000
AAXX 26184 71137 NIL
AAXX 26184 71140 12974 42913 10018 21024 39476 49970 5/002 60001 84050 333 10020 21035 70000
AAXX 26184 71145 11448 80411 11119 21147 39729 40024 51034 60011 77122 885// 333 11007 21119 48038 70012 90962 93101
AAXX 26184 71148 16/// /2710 10046 21015 39398 49967 58010 60001 333 10056 21027 70000
AAXX 26184 71185 16564 31917 11019 30086 40110 56013 69951 333 11019 21091 70015
AAXX 26184 71188 12974 02702 11031 21104 30072 40115 55003 60001 333 11029 21185 79999
AAXX 26184 71200 16/// /0802 10051 20029 60001 333 10067 20043 70032
AAXX 26184 71207 17/// /1406 10036 20036 30180 40245 55000 69961 7//4/ 333 10036 20001 70163
AAXX 26184 71260 13/// ///// 10036 21004 39893 40130 58040 60001 333 10037 21007 70006
AAXX 26184 71864 NIL
AAXX 26184 71865 17/// /3006 10005 21019 39371 40045 51039 69971 7//4/ 333 10045 20001 70007
AAXX 26184 71866 46764 63014 10032 21049 39465 40074 52032 6///1 333 10037 21004 7////
AAXX 26184 71867 11358 80309 11088 21105 39732 40069 52055 69981 77122 885// 333 11007 21089 47022 70008 90962 93102
AAXX 26184 71868 16/// /0413 11026 21035 39599 40038 51049 60001 333 10005 21039 70015
AAXX 26184 71869 11562 80205 11006 21025 39542 40066 53042 69901 77122 885// 333 10001 21028 42003 70002 90910
AAXX 26184 71871 15566 83421 11006 21045 39324 40133 53062 60001 333 10040 21006 70000
AAXX 26184 71877 12586 22712 10024 21121 38915 40191 52023 60001 81571 333 10040 21032 70000
AAXX 26184 71878 12974 32602 11026 21114 39107 40187 52028 60001 80001 333 10051 21084 79999
AAXX 26184 71879 16964 02807 10012 21083 39354 40158 51031 60001 333 10057 21002 70000
AAXX 26184 71880 12782 71508 10013 21061 39136 40253 51023 60001 81570 333 10026 21012 79999
AAXX 26184 71882 160// /3302 11001 21001 39719 40266 51015 60001 333 10020 21012 70030
AAXX 26184 71883 NIL
AAXX 26184 71887 12986 80805 11003 21030 39814 40243 53004 60001 86071 333 10001 21058 70000
AAXX 26184 71889 12774 71714 10011 21049 39840 40265 50002 60001 81570 333 10025 21007 79999
AAXX 26184 71891 16964 01917 10047 20003 39945 40221 56005 60001 333 10051 20012 70025
AAXX 26184 71892 11462 80907 10045 20033 30252 40257 55002 60021 76182 885// 333 10054 20018 70034 90962
AAXX 26184 71397 11469 83104 10010 20008 30090 40125 53003 60011 75188 887// 333 10021 21079 43010 70030 90983
AAXX 26184 71400 16/64 /2005 11026 21056 60001 333 11022 21169 70000
AAXX 26184 71403 46/// /1810 10051 20011 30103 40123 55008 6///1 333 10051 21059 7////
AAXX 26184 71411 17/// /3006 10037 20031 30109 40122 53005 69971 7//4/ 333 10058 21055 70007
AAXX 26184 71412 17/// /2012 10008 20003 30110 40120 56010 60011 7//4/ 333 10009 21092 70014 555 10010
AAXX 26184 71421 NIL
AAXX 26184 71430 NIL
AAXX 26184 71431 16/// /2711 10029 21022 30116 40213 58021 60001 333 10031 20005 70003
AAXX 26184 71432 NIL
AAXX 26184 71433 NIL
AAXX 26184 71435 NIL
AAXX 26184 71441 46/// /2720 10075 21036 39649 49950 58010 6///1 333 10076 21006 7////
AAXX 26184 71443 17/// /0316 11009 21030 39605 40013 51048 60011 7//4/ 333 10032 21044 70013 555 10020
AAXX 26184 71444 NIL
AAXX 26184 71447 16/// /3014 10036 21023 39451 49988 53012 60001 333 10047 21027 70000
AAXX 26184 71467 16/// /3601 11294 21322 30067 40189 51001 60001 333 11286 21338 70000
AAXX 26184 71472 NIL
AAXX 26184 71474 16764 31908 11017 21072 38959 40214 53004 60001 333 11004 21043 70005
AAXX 26184 71510 16/// /3021 10035 21068 39383 40085 51027 60001 333 10042 20013 70000
AAXX 26184 71538 12974 12115 10057 21021 39997 40230 58036 60001 80001 333 10058 20016 70000
AAXX 26184 71600 16564 81213 10050 20022 30119 40125 56022 60001 333 10051 21033 70000
AAXX 26184 71601 NIL
AAXX 26184 71550 NIL
AAXX 26184 71551 NIL
AAXX 26184 71552 46/// /2412 10003 21020 6///1 333 10035 21021 7////
AAXX 26184 71553 NIL
AAXX 26184 71554 16/// /2418 11040 21090 30143 40149 55001 60001 333 11037 21105 70012
AAXX 26184 71555 16/// /2613 10008 21117 38625 40197 53022 60001 333 10018 21030 70000
AAXX 26184 71556 17/// /3215 10034 21013 39457 40056 51033 69931 7//4/ 333 10038 21026 70003
AAXX 26184 71557 46/// /0603 10030 21025 6///1 333 10040 21015 7////
AAXX 26184 71558 46/// ///// 11037 21072 30057 40094 55006 6///1 333 11037 21155 7////
AAXX 26184 71559 46/// /3221 10028 20003 39349 40044 53051 6///1 333 10046 20005 7////
AAXX 26184 71560 16/// /2716 10076 21035 39658 49943 56009 60001 333 10076 21016 70000
AAXX 26184 71563 NIL
AAXX 26184 71564 16/// /2813 10067 21036 39592 49946 56010 60001 333 10067 20022 70000
AAXX 26184 71565 NIL
AAXX 26184 71566 NIL
AAXX 26184 71567 NIL
AAXX 26184 71568 17/// /1408 10055 20027 30187 40199 56014 60031 7//4/ 333 10055 20028 70076
AAXX 26184 71569 16/// /3018 10018 21015 39363 40058 51051 60001 333 10067 21006 70000
AAXX 26184 71570 16/// /2606 10024 21042 39630 49935 55010 60001 333 10039 21010 70000
AAXX 26184 71571 NIL
AAXX 26184 71572 NIL
AAXX 26184 71573 16/// /2108 10030 21038 39938 40223 58036 60001 333 10032 20009 70000
AAXX 26184 71574 12574 23007 11038 21064 30062 40137 53006 60001 82500 333 11023 21140 79999
AAXX 26184 71575 NIL
AAXX 26184 71576 NIL
AAXX 26184 71577 NIL
AAXX 26184 71578 16/// /2311 11035 21090 60001 333 11035 21104 70050
AAXX 26184 71579 NIL
AAXX 26184 71580 11574 40000 11312 21343 39943 49981 53006 69901 77677 81570 333 11296 21367 42030 79999 90983
AAXX 26184 71581 NIL
AAXX 26184 71582 17566 81520 10055 20027 30054 40107 56030 69931 761// 333 10071 20014 70091
AAXX 26184 71583 NIL
AAXX 26184 71584 15966 62607 11052 21090 30047 40095 58008 60001 333 11052 21165 70000
AAXX 26184 71585 NIL
AAXX 26184 71586 17/// /0210 11097 21121 39645 40117 51055 69951 7//4/ 333 11017 21097 70005 555 10020
AAXX 26184 71587 NIL
AAXX 26184 71588 16/// /1605 11019 21076 60001 333 11019 21094 70000
AAXX 26184 71589 16/// /1907 11052 21073 30035 40172 56015 60001 333 11044 21156 70000
AAXX 26184 71590 16/// /3205 11047 21089 39960 40156 53003 60001 333 11047 21150 70003 555 10010
AAXX 26184 71592 NIL
AAXX 26184 71593 NIL
AAXX 26184 71596 NIL
AAXX 26184 71598 16/64 /2813 11036 21068 30120 40126 51003 60001 333 11029 21120 70014 555 10030
AAXX 26184 71599 NIL
AAXX 26184 71043 11783 20000 11280 21334 30089 40188 52002 69901 77677 82570 333 11245 21285 48031 70014 90983
AAXX 26184 71045 16/// /0805 11094 21128 39130 49994 58050 60001 333 11068 21159 70000
AAXX 26184 71050 46/// /0901 11106 21119 39077 40183 56013 6///1 333 11094 21140 7////
AAXX 26184 71051 NIL
AAXX 26184 71052 NIL
AAXX 26184 71066 11569 80000 11133 21171 39733 40166 53011 69901 70277 885// 333 11131 21146 44020 79999 90983
AAXX 26184 71068 11974 72103 11066 21075 39438 40135 51009 69901 72881 80001 333 10020 21079 43004 70012 90957
AAXX 26184 71069 16964 00502 11021 21021 39437 40143 51016 60001 333 10049 21043 70000
AAXX 26184 71076 16/// /1103 11185 21220 39775 40182 51025 60001 333 11138 21186 70006 555 10010
AAXX 26184 71077 16/// /3408 11086 21104 39609 40155 51056 60001 333 10006 21086 70023
AAXX 26184 71079 11774 20213 11220 21276 39829 40116 51037 69901 70277 81501 333 11028 21221 48008 70004 90963
AAXX 26184 71081 46964 03213 11329 21375 39885 49897 52008 6///1 333 11272 21336 7////
AAXX 26184 71082 NIL
AAXX 26184 71083 11912 03320 11339 21381 30020 40065 51014 69901 77677 333 11322 21341 48054 79999 90983
AAXX 26184 71090 46664 33115 11290 21334 39894 49930 55000 6///1 333 11287 21346 7////
AAXX 26184 71091 460// /0110 11273 39651 49864 51001 6///1 333 7////
AAXX 26184 71092 46964 30312 11244 39163 49835 53007 6///1 333 11244 21273 7////
AAXX 26184 71093 460// /3628 11256 39345 49850 56008 6///1 333 11256 21294 7////
AAXX 26184 71094 46037 /2109 11230 38869 49767 53014 6///1 333 11218 21245 7////
AAXX 26184 71095 46964 01804 11320 21368 39857 49940 52006 6///1 333 11257 21368 7////
AAXX 26184 71101 160// /1534 39913 56046 60051 333 70170
AAXX 26184 71104 12974 71407 11034 21091 39069 40194 58004 60001 86071 333 11005 21071 79999
AAXX 26184 71108 12682 70104 10039 20016 30187 40261 57001 60001 86530 333 10048 20006 70008
AAXX 26184 71109 11680 81210 10054 20010 30128 40155 58017 69941 70288 8557/ 333 10055 20022 70046 90952
AAXX 26184 71300 NIL
AAXX 26184 71301 16/// ///// 11003 21036 39698 40099 58033 60001 333 11003 21079 70000
AAXX 26184 71302 NIL
AAXX 26184 71303 46/// ///// 10060 21015 6///1 333 10061 20022 7////
AAXX 26184 71305 17466 81103 11121 21144 39873 40171 51023 60001 771// 333 11092 21124 70000
AAXX 26184 71306 17548 83406 11150 21171 39930 49963 56014 60001 771// 333 11147 21189 70000
AAXX 26184 71307 NIL
AAXX 26184 71308 16/// /1503 10018 20005 30047 40132 55006 60001 333 10019 21101 70000
AAXX 26184 71309 NIL
AAXX 26184 71310 16/// /1707 10003 21008 30082 40119 55008 60001 333 10003 21123 70000
AAXX 26184 71311 NIL
AAXX 26184 71312 NIL
AAXX 26184 71314 16/// /2607 10012 21032 39849 40205 58026 60001 333 10012 21017 70017
AAXX 26184 71315 16/// /0000 11048 21087 30086 40141 53002 60001 333 11048 21167 70003 555 10010
AAXX 26184 71316 16/// /3405 11032 21057 39465 40154 51046 60001 333 10041 21035 70000
AAXX 26184 71317 NIL
AAXX 26184 71318 16/// /3120 10012 21090 39209 40156 51040 60001 333 10040 21016 70000 555 10480
AAXX 26184 71319 NIL
AAXX 26184 71320 16/// /3112 11329 21361 39889 49889 52008 60001 333 11271 21335 70000
AAXX 26184 71321 NIL
AAXX 26184 71322 NIL
AAXX 26184 71323 NIL
AAXX 26184 71331 16/// /0307 11154 21193 60001 333 11010 21154 70000
AAXX 26184 71332 NIL
AAXX 26184 71334 NIL
AAXX 26184 71335 46964 02737 11198 55004 6///1 333 11135 21204 7////
AAXX 26184 71336 NIL
AAXX 26184 71337 46/// /1909 11035 21074 39887 40129 55009 6///1 333 11032 21144 7////
AAXX 26184 71338 47414 80413 11215 21250 39800 49807 56019 6///1 745// 333 11204 21267 7////
AAXX 26184 71339 17420 82109 11035 21061 30065 40080 55008 60001 745// 333 11028 21162 70000
AAXX 26184 71340 NIL
AAXX 26184 71341 NIL
AAXX 26184 71342 NIL
AAXX 26184 71343 NIL
AAXX 26184 71344 NIL
AAXX 26184 71345 NIL
AAXX 26184 71346 NIL
AAXX 26184 71347 NIL
AAXX 26184 71348 NIL
AAXX 26184 71349 NIL
AAXX 26184 71350 17/// /2005 10002 21004 30051 40117 55004 60011 7//4/ 333 10002 21116 70036 555 10030
AAXX 26184 71351 NIL
AAXX 26184 71352 16/// /2513 10003 21033 39757 40218 58032 60001 333 10007 21004 70006
AAXX 26184 71353 NIL
AAXX 26184 71354 NIL
AAXX 26184 71355 16/// /0903 11348 21384 30075 40165 55001 60001 333 11309 21355 70000
AAXX 26184 71356 16/// /3016 11316 21352 30018 40088 55000 60001 333 11312 21344 70000
AAXX 26184 71357 NIL
AAXX 26184 71358 NIL
AAXX 26184 71359 NIL
AAXX 26184 71360 NIL
AAXX 26184 71361 NIL
AAXX 26184 71362 NIL
AAXX 26184 71363 NIL
AAXX 26184 71364 NIL
AAXX 26184 71365 NIL
AAXX 26184 71368 15566 12312 10025 21031 39829 40224 57034 60001 333 10025 20000 70003
AAXX 26184 71369 15966 00403 11017 21025 39437 40144 51016 60001 333 10049 21040 70000
AAXX 26184 71370 NIL
AAXX 26184 71371 15966 02513 11019 21073 30176 40211 58007 60001 333 11018 21079 70023
AAXX 26184 71372 NIL
AAXX 26184 71373 NIL
AAXX 26184 71374 NIL
AAXX 26184 71375 NIL
AAXX 26184 71376 NIL
AAXX 26184 71377 16/// /2308 11024 21070 30163 40213 58009 60001 333 11023 21097 70024 555 10010
AAXX 26184 71378 17/// /2106 11054 21109 39970 40184 58010 60011 7//4/ 333 11047 21155 70050 555 10020
AAXX 26184 71379 16/// /1407 11094 21146 39973 40148 58015 60001 333 11062 21139 70003
AAXX 26184 71380 NIL
AAXX 26184 71381 NIL
AAXX 26184 71382 16/// /2301 11102 21128 39199 40161 51004 60001 333 11096 21121 70050
AAXX 26184 71383 NIL
AAXX 26184 71384 16/// /2507 11013 21086 30162 40170 58004 60001 333 11012 21133 70020
AAXX 26184 71385 NIL
AAXX 26184 71386 16/// /2903 11054 21099 39926 40136 53004 60001 333 11054 21140 70010
AAXX 26184 71387 NIL
AAXX 26184 71388 46/// /3105 11083 21132 39979 40173 58005 6///1 333 11063 21121 7////
AAXX 26184 71389 NIL
AAXX 26184 71390 NIL
AAXX 26184 71391 16/// ///// 11019 21049 60001 333 11019 21097 70024
AAXX 26184 71392 NIL
AAXX 26184 71393 NIL
AAXX 26184 71395 11559 81707 10014 20010 39941 40122 55008 60021 78088 887// 333 10015 21120 47013 70031 90973 93102
AAXX 26184 71398 15666 82213 10006 21021 39974 49985 56033 60001 333 10006 21161 70000
AAXX 26184 71399 NIL
AAXX 26184 71450 16/// /2921 10034 21056 39376 40090 51037 60001 333 10040 20008 70000
AAXX 26184 71451 16/// /0304 11188 21217 39712 40149 51047 60001 333 11030 21195 70000
AAXX 26184 71452 NIL
AAXX 26184 71453 16/// /2916 10042 21066 39254 40166 51036 60001 333 10059 20024 70000
AAXX 26184 71454 NIL
AAXX 26184 71455 46/// /3024 10029 21068 39312 40104 51036 6///1 333 10045 20011 7////
AAXX 26184 71456 NIL
AAXX 26184 71457 16/// /2708 10017 21051 39282 40174 51032 60001 333 10044 21023 70000
AAXX 26184 71458 16/// /3210 10013 21027 39380 40150 51055 60001 333 10055 21004 70000
AAXX 26184 71459 NIL
AAXX 26184 71460 16/// /2322 10021 21015 39928 40172 58034 60001 333 10022 21013 70000
AAXX 26184 71461 NIL
AAXX 26184 71462 NIL
AAXX 26184 71463 46/// /2719 10021 21053 30013 40240 58028 6///1 333 10027 20011 7////
AAXX 26184 71464 NIL
AAXX 26184 71465 NIL
AAXX 26184 71466 NIL
AAXX 26184 71468 NIL
AAXX 26184 71470 NIL
AAXX 26184 71471 15966 01606 11006 21066 39340 40131 54000 60001 333 10032 21014 70000
AAXX 26184 71473 16/// /1613 10040 20017 30220 40250 54000 60001 333 10050 20035 70004
AAXX 26184 71475 17/// /1902 10024 20022 30138 40233 56010 69981 7//4/ 333 10024 21006 70084
AAXX 26184 71476 NIL
AAXX 26184 71477 17/// /1549 10048 20036 60231 7//4/ 333 10049 21001 70270
AAXX 26184 71478 NIL
AAXX 26184 71479 NIL
AAXX 26184 71480 NIL
AAXX 26184 71481 NIL
AAXX 26184 71482 NIL
AAXX 26184 71483 NIL
AAXX 26184 71484 NIL
AAXX 26184 71485 16/// /1333 10065 20031 30114 40134 56015 60001 333 10066 20030 70016
AAXX 26184 71486 16/// /1403 11025 21077 38984 40197 53010 60001 333 10015 21040 70000
AAXX 26184 71487 16/// /2921 10022 21022 39242 40104 51057 60001 333 10042 20012 70000
AAXX 26184 71489 16/// /3014 10025 21042 39303 40086 51029 60001 333 10035 21004 70000
AAXX 26184 71490 NIL
AAXX 26184 71491 NIL
AAXX 26184 71492 NIL
AAXX 26184 71493 17/// /0000 10015 20011 30078 40117 55000 60071 7//4/ 333 10016 21076 70119 555 10050
AAXX 26184 71494 NIL
AAXX 26184 71495 NIL
AAXX 26184 71496 16/// /3115 10031 21044 39462 40068 52032 60001 333 10035 21005 70000
AAXX 26184 71497 46/// /0906 11221 21247 39886 40164 53013 6///1 333 11178 21256 7////
AAXX 26184 71498 NIL
AAXX 26184 71499 15666 80805 11182 21209 39513 40159 51038 60001 333 11077 21196 70005
AAXX 26184 71700 15466 83006 11014 21037 30116 40142 53004 60001 333 11010 21110 70028
AAXX 26184 71701 12474 72908 11015 21047 30079 40142 51005 60001 87500 333 11001 21085 70040
AAXX 26184 71702 16/// /3305 11005 21021 30102 40117 53001 60001 333 11001 21099 70005
AAXX 26184 71703 12674 63010 11065 21076 39853 40158 53003 60001 86500 333 11061 21139 70014
AAXX 26184 71704 15966 02213 10053 21021 39995 40218 58043 60001 333 10053 20013 70003
AAXX 26184 71710 17/// /2311 10003 21004 30109 40119 55006 60021 7//4/ 333 10003 21058 70020
AAXX 26184 71712 16/// /2306 11016 21060 30157 40220 58013 60001 333 11013 21063 70056
AAXX 26184 71713 NIL
AAXX 26184 71716 NIL
AAXX 26184 71717 NIL
AAXX 26184 71720 17/// /1112 10040 20024 30078 40233 56008 60041 7//4/ 333 10045 20004 70069
AAXX 26184 71721 16/// /2005 11034 21058 39947 40199 58018 60001 333 11034 21105 70030
AAXX 26184 71723 NIL
AAXX 26184 71724 NIL
AAXX 26184 71732 NIL
AAXX 26184 71733 16/// /2119 11004 21025 39718 40150 58037 60001 333 11004 21051 70000
AAXX 26184 71734 NIL
AAXX 26184 71736 NIL
AAXX 26184 71737 NIL
AAXX 26184 71741 16/// /1006 11002 21029 39811 40240 53005 60001 333 10013 21059 70000
AAXX 26184 71742 NIL
AAXX 26184 71743 NIL
AAXX 26184 71744 NIL
AAXX 26184 71745 NIL
AAXX 26184 71746 NIL
AAXX 26184 71747 NIL
AAXX 26184 71748 NIL
AAXX 26184 71665 16/// /2610 11173 21242 30009 40019 53008 60001 333 11118 21173 70000
AAXX 26184 71666 16/// /3007 11018 21048 30086 40131 53009 60001 333 11015 21125 70000
AAXX 26184 71667 NIL
AAXX 26184 71668 16/// /2909 11019 21050 30096 40140 53005 60001 333 11013 21111 70041 555 10060
AAXX 26184 71669 NIL
AAXX 26184 71670 16/// ///// 11016 21048 60001 333 11016 21122 70012
AAXX 26184 71671 17/// /3301 10015 20010 30056 40117 53003 69931 7//4/ 333 10026 21088 70007
AAXX 26184 71672 16/// /2507 10030 21024 39945 40212 58023 60001 333 10031 21001 70005
AAXX 26184 71673 NIL
AAXX 26184 71674 NIL
AAXX 26184 71675 17416 80310 11106 21125 39718 49998 51021 60031 7714/ 333 11013 21126 70116
AAXX 26184 71679 NIL
AAXX 26184 71680 NIL
AAXX 26184 71681 46/// /0402 10000 21044 6///1 333 10059 21054 7////
AAXX 26184 71682 NIL
AAXX 26184 71683 NIL
AAXX 26184 71684 15566 82016 11003 21035 39818 40122 58039 60001 333 11003 21064 70000
AAXX 26184 71685 17108 83303 10000 20000 39718 40266 51015 60001 730// 333 10019 21013 70018
AAXX 26184 71686 469// /1502 11100 21110 39044 40001 56052 6///1 333 11071 21134
AAXX 26184 71687 16/// /0101 10004 21005 39437 40228 55003 60001 333 10005 21005 70059 555 10010
AAXX 26184 71688 16/// /1303 11009 21015 39173 40218 55001 60001 333 11007 21020 70000 555 10080
AAXX 26184 71689 15366 83005 11097 21108 39708 40172 51037 60001 333 11026 21102 70026
AAXX 26184 71690 NIL
AAXX 26184 71691 15566 12611 11052 21109 30108 40136 55002 60001 333 11049 21116 70000
AAXX 26184 71692 NIL
AAXX 26184 71694 17/// /2308 10006 21026 39843 40210 58026 69941 7//4/ 333 10006 21029 70023 555 10010
AAXX 26184 71695 17/// /0311 11087 21110 39728 40064 53054 69951 7//4/ 333 11007 21087 70005 555 10030
AAXX 26184 71696 16/// /3115 11261 21289 30078 40116 51021 60001 333 11186 21264 70000
AAXX 26184 71697 15566 82510 10035 21035 30047 40220 58026 60001 333 10036 20000 70000
AAXX 26184 71699 17/// /3308 11003 21024 30131 40138 53010 60031 7//4/ 333 10029 21039 70048
AAXX 26184 71603 11366 83211 10027 20009 30078 40131 53007 60011 70288 885// 333 10042 20025 70038 90952
AAXX 26184 71607 17/// /3206 11019 21040 30118 40151 52010 69981 7//4/ 333 10002 21054 70040 555 10050
AAXX 26184 71609 11474 63411 11009 21040 30001 40136 53008 69901 70377 86500 333 10011 21063 70061 90953
AAXX 26184 71610 15466 62609 11042 21072 39904 40206 52002 60001 333 11028 21072 70019
AAXX 26184 71621 12574 82509 10030 21024 30112 40220 58022 60001 885// 333 10030 20000 70020
AAXX 26184 71623 NIL
AAXX 26184 71624 12574 52613 10037 21033 30010 40224 57029 60001 85500 333 10037 21004 70000
AAXX 26184 71625 16564 82103 11004 21041 30032 40195 58026 60001 333 11004 21079 70005
AAXX 26184 71627 12583 62709 11023 21078 30170 40216 58006 60001 84531 333 11023 21108 43009 70034
AAXX 26184 71628 13560 82208 11012 21051 30071 40215 58017 60001 88500 333 11012 21120 70082
AAXX 26184 71630 NIL
AAXX 26184 71631 17/// /2310 10001 21038 39704 40211 58033 69981 7//4/ 333 10002 21013 70026
AAXX 26184 71633 12574 52215 10023 21028 39921 40195 58036 60001 83501 333 10028 21005 70004
AAXX 26184 71705 11474 63007 11015 21037 30043 40132 53008 69961 70282 86100 333 11002 21099 48009 70006 90922 93102
AAXX 26184 71706 11132 82205 10005 20001 30065 40126 55006 60031 77177 887// 333 10005 21089 43019 70062 90983 93103
AAXX 26184 71707 12574 71607 10006 21021 30064 40142 56014 60001 86570 333 10006 21105 44006 79999
AAXX 26184 71709 11432 82211 10004 20000 30110 40123 55004 60031 77182 885// 333 10004 21062 46007 70032 90962 93103
AAXX 26184 71711 NIL
AAXX 26184 71714 16/// /2510 11038 21095 30107 40201 58003 60001 333 11038 21161 7//// 555 10040
AAXX 26184 71715 16/// /2206 11036 21076 39971 40156 57003 60001 333 11034 21096 70003
AAXX 26184 71718 11583 70000 11047 21085 30079 40146 50000 69901 70372 87500 333 11044 21106 48004 70014 90963
AAXX 26184 71719 NIL
AAXX 26184 71001 17540 83003 11178 21197 38996 49996 57038 60001 771// 333 11178 21291 70000
AAXX 26184 71002 15566 62406 11118 21156 39503 40054 56007 60001 333 11113 21176 70000
AAXX 26184 71003 17524 82013 11126 21152 39633 40022 56040 60001 771// 333 11126 21171 70000
AAXX 26184 71005 NIL
AAXX 26184 71006 NIL
AAXX 26184 71007 NIL
AAXX 26184 71008 NIL
AAXX 26184 71009 NIL
AAXX 26184 71010 NIL
AAXX 26184 71011 NIL
AAXX 26184 71012 NIL
AAXX 26184 71013 NIL
AAXX 26184 71014 NIL
AAXX 26184 71015 NIL
AAXX 26184 71016 NIL
AAXX 26184 71017 NIL
AAXX 26184 71018 NIL
AAXX 26184 71019 NIL
AAXX 26184 71020 NIL
AAXX 26184 71021 NIL
AAXX 26184 71022 17548 81424 10040 20022 39935 49978 56042 60051 76144 333 10045 20017 70073
AAXX 26184 71023 NIL
AAXX 26184 71024 16/// /0000 11129 21139 60001 333 11075 21137 70000
AAXX 26184 71026 NIL
AAXX 26184 71027 17/// /1905 10015 21020 30121 40131 56014 69971 7//4/ 333 10015 21089 70007 555 10010
AAXX 26184 71028 16/// /1511 10032 21062 39120 40158 56018 60001 333 10032 21028 70003
AAXX 26184 71029 16/// /3305 11250 21277 30112 40153 51001 60001 333 11224 21317 70004 555 10010
AAXX 26184 71030 17/64 /3110 11001 21021 30042 40132 53008 69991 7//4/ 333 10020 21034 70070
AAXX 26184 71032 46/// /0901 11019 21044 39409 40254 56001 6///1 333 10026 21072 7//// 555 10020
AAXX 26184 71033 46/// /0905 11197 21221 39512 40162 51037 6///1 333 11079 21214 7////
AAXX 26184 71035 NIL
AAXX 26184 71036 17228 83309 10005 20002 39617 49987 53041 69931 771// 333 10047 20005 70003
AAXX 26184 71039 46/// /2801 11178 6///1 333 11125 21216 7////
AAXX 26184 71040 46/// /3606 11088 21137 39963 40168 58008 6///1 333 11063 21109 7////
AAXX 26184 71041 15666 81503 10020 21003 39989 40133 56008 60001 333 10018 21125 70000
AAXX 26184 71042 17/// /1403 10051 20039 30258 40262 55002 69951 7//4/ 333 10052 20009 70005
AAXX 26184 71044 16/// /0606 11231 21267 39812 40145 58009 60001 333 11222 21270 70000
AAXX 26184 71046 460// /2704 11323 30193 40212 58007 6///1 333 11323 21356 7////
AAXX 26184 71047 16/// ///// 11005 21041 60001 333 10050 21007 70000
AAXX 26184 71048 NIL
AAXX 26184 71049 NIL
AAXX 26184 71060 NIL
AAXX 26184 71063 NIL
AAXX 26184 71930 NIL
AAXX 26184 71931 16/// /2118 11039 21081 30141 40153 55014 60001 333 11006 21129 70000
AAXX 26184 71934 11474 80000 11133 21154 39902 40167 51018 69901 77177 86571 333 11115 21138 47027 70008 90983
AAXX 26184 71935 11548 80604 11157 21174 39957 40173 50012 60011 77177 885// 333 11141 21158 47021 70016 90983 93103
AAXX 26184 71936 11674 60905 11239 21287 39922 40196 53015 69901 70377 83570 333 11195 21239 48021 70006 90962
AAXX 26184 71937 NIL
AAXX 26184 71938 11661 82413 11239 21275 30165 40196 51005 69921 77677 885// 333 11237 21320 46028 70002 90983 93101
AAXX 26184 71940 12982 71904 11030 21068 39339 40149 51006 60001 81071 333 10022 21042 70000
AAXX 26184 71943 12974 52410 11006 21082 39284 40121 51001 60001 82030 333 10011 21016 70000
AAXX 26184 71944 160// ///// 11013 58003 60001 333 10008 21038 70000
AAXX 26184 71945 12583 73203 11224 21275 39653 40144 55003 60001 81570 333 11166 21232 70004
AAXX 26184 71946 11674 70000 11244 21270 39947 40172 50008 69941 77177 86501 333 11195 21244 48043 70022 90983 93101
AAXX 26184 71948 46059 /2509 11316 30082 40203 55001 6///1 333 11312 21327 7////
AAXX 26184 71949 46/// /1008 11138 21165 39155 40035 56027 6///1 333 11059 21167 7////
AAXX 26184 71951 11128 91007 10006 20001 39797 40063 56033 60021 78588 887// 333 10022 20004 43020 70016 90973 93101
AAXX 26184 71957 46964 81102 11283 21355 30101 40195 57005 6///1 333 11283 21300 7////
AAXX 26184 71964 12786 8218 11091 21139 39118 49973 58046 60001 885// 333 11072 21113 70000
AAXX 26184 71966 16/// /0000 11314 21349 39608 40091 58018 60001 333 11227 21343 70000 555 10060
AAXX 26184 71968 460// /0105 11288 30131 40199 58006 6///1 333 11281 21305 7////
AAXX 26184 71900 46/// /26// 11117 21180 30015 40028 53008 6///1 333 11099 21164 7////
AAXX 26184 71903 NIL
AAXX 26184 71904 NIL
AAXX 26184 71914 16/// /1102 10041 20023 30029 40253 54000 60001 333 10048 20033 70004
AAXX 26184 71916 NIL
AAXX 26184 71918 460// ///// 11349 6///1 333 7////
AAXX 26184 71920 NIL
AAXX 26184 71921 NIL
AAXX 26184 71923 NIL
AAXX 26184 71927 17/// /2202 10048 20034 30192 40250 56004 69931 7//4/ 333 10048 21001 70022
AAXX 26184 71941 17466 82012 11039 21058 39714 40136 56046 60001 771// 333 11039 21086 70000
AAXX 26184 71947 15466 81914 11046 21057 39717 40068 58045 60001 333 11046 21132 70003
AAXX 26184 71816 12674 72412 11090 21158 30001 40064 55002 60001 81572 333 11089 21213 79999
AAXX 26184 71817 11566 82109 11034 21062 30066 40079 55008 69921 77122 8654/ 333 42012 70002 90910
AAXX 26184 71818 12574 62410 11070 21104 30043 40061 50003 60001 81118 333 11063 21165 70000
AAXX 26184 71822 11512 81914 11097 21112 39626 40110 58045 69901 77177 885// 333 11071 21148 47046 70036 90973
AAXX 26184 71825 11674 82309 11134 21185 39382 40069 55004 69901 70377 86501 333 11134 21179 47085 70018 90963
AAXX 26184 71827 11458 81711 11101 21108 39718 49966 57043 60021 77177 885// 333 11099 21185 47018 70024 90973 93102
AAXX 26184 71828 16458 62309 11166 21216 39382 40035 56010 60001 333 11139 21176 70005
AAXX 26184 71831 11974 82115 10019 21031 39756 40037 56029 69901 70277 8802/ 333 10021 21086 48040 79999 90921
AAXX 26184 71832 NIL
AAXX 26184 71834 11574 82216 10020 21027 39570 49994 57034 60001 73622 885// 333 10022 21049 79999
AAXX 26184 71841 NIL
AAXX 26184 71842 12974 81908 10008 21051 39483 49946 58031 60001 88077 333 10014 21036 79999
AAXX 26184 71844 NIL
AAXX 26184 71845 11574 81702 11006 21017 39479 49948 57027 60011 70276 8357/ 333 11003 21062 44018 70010 90922
AAXX 26184 71850 12974 81906 10003 21046 39448 49940 58029 60001 8807/ 333 10008 21021 70000
AAXX 26184 71852 16964 02811 10035 21012 39651 49939 57004 60001 333 10040 21004 70000
AAXX 26184 71854 12874 82106 10004 21043 39467 49932 57023 60001 8807/ 333 10005 21041 70000
AAXX 26184 71858 NIL
AAXX 26184 71861 17/// /3213 10011 20006 39304 40021 51049 69931 7//4/ 333 10046 21011 70003
AAXX 26184 71862 11574 83222 10027 20000 39355 40051 51053 69901 72111 87501 333 10045 20003 41001 79999 90921
AAXX 26184 71863 46664 63114 10023 21014 39376 40068 51052 6///1 333 10045 21018 7////
AAXX 26184 71395 11148 81608 11010 21014 39943 40125 56015 60011 78582 887// 333 10064 21112 47013 70009 90942 93101
AAXX 26184 71851 16/// /2911 10058 21029 39617 49944 56005 60001 333 10058 20010 70000
AAXX 26184 71857 NIL
AAXX 26184 71860 NIL
AAXX 26184 71876 15666 83018 10035 21034 39430 40092 53032 60001 333 10035 21017 70000
AAXX 26184 71885 NIL
AAXX 26184 71886 17/// /3013 10012 20000 39419 40020 51045 69931 7//4/ 333 10028 21038 70003
AAXX 26184 71888 NIL
AAXX 26184 71890 16/// /0510 11057 21120 30105 40133 55001 60001 333 11051 21115 70000
AAXX 26184 71895 NIL
AAXX 26184 71639 12574 62210 10030 21048 39977 40222 58028 60001 86531 333 10035 20004 70002
AAXX 26181 01180 16/// /2302 11011 21024 39807 49864 58014 60032 333 10028 91111
AAXX 26181 01450 16/// /2511 10033 20017 38907 40034 58015 60022 333 10051 91119
AAXX 26181 01046 11585 82706 10000 21027 39819 49826 50011 60092 70282 888// 333 10045 91116
AAXX 26181 01293 11X58 91502 10017 20007 39687 49892 56089 60102 76176 333 10041 91109
AAXX 26181 01441 16/// /2507 10052 20024 39079 40047 56011 60062 333 10061 91119
AAXX 26181 01262 46/// /1417 10027 20015 333 10063 91121
AAXX 26181 01393 16/// /2006 10035 20009 39159 49942 56046 6//// 333 10035 91113
AAXX 26181 01277 16/// /0803 10009 20001 60072 333 10045 91108
AAXX 26181 01476 16/// /2111 10094 20077 30066 40072 55009 6//// 333 10100 91115
AAXX 26181 01488 16/// /1801 10040 20032 60002 333 10068 4/012 91106
AAXX 26184 68328 41660 40710 10265 20196 48516 52013 71796 83983 333 10316
AAXX 26184 71397 11469 83104 10010 20008 30090 40125 53003 60011 75188 887// 333 10021 21079 43010 70030 90983
AAXX 26184 71400 16/64 /2005 11026 21056 60001 333 11022 21169 70000
AAXX 26184 71403 46/// /1810 10051 20011 30103 40123 55008 6///1 333 10051 21059 7////
AAXX 26184 71411 17/// /3006 10037 20031 30109 40122 53005 69971 7//4/ 333 10058 21055 70007
AAXX 26184 71412 17/// /2012 10008 20003 30110 40120 56010 60011 7//4/ 333 10009 21092 70014 555 10010
AAXX 26184 71421 NIL
AAXX 26184 71430 NIL
AAXX 26184 71431 16/// /2711 10029 21022 30116 40213 58021 60001 333 10031 20005 70003
AAXX 26184 71432 NIL
AAXX 26184 71433 NIL
AAXX 26184 71435 NIL
AAXX 26184 71441 46/// /2720 10075 21036 39649 49950 58010 6///1 333 10076 21006 7////
AAXX 26184 71443 17/// /0316 11009 21030 39605 40013 51048 60011 7//4/ 333 10032 21044 70013 555 10020
AAXX 26184 71444 NIL
AAXX 26184 71447 16/// /3014 10036 21023 39451 49988 53012 60001 333 10047 21027 70000
AAXX 26184 71467 16/// /3601 11294 21322 30067 40189 51001 60001 333 11286 21338 70000
AAXX 26184 71472 NIL
AAXX 26184 71474 16764 31908 11017 21072 38959 40214 53004 60001 333 11004 21043 70005
AAXX 26184 71510 16/// /3021 10035 21068 39383 40085 51027 60001 333 10042 20013 70000
AAXX 26184 71538 12974 12115 10057 21021 39997 40230 58036 60001 80001 333 10058 20016 70000
AAXX 26184 71600 16564 81213 10050 20022 30119 40125 56022 60001 333 10051 21033 70000
AAXX 26184 71601 NIL
AAXX 26184 71114 160// /2706 10048 20016 30211 40259 55003 60001 333 10078 20033 70075
AAXX 26184 71120 11474 73613 11030 21070 39484 40149 51074 69921 70272 87500 333 10015 21061 42002 70002 90935
AAXX 26184 71122 16/// /2406 11013 21126 38592 40208 51019 60001 333 21033 7//// 555 10030
AAXX 26184 71123 12874 12706 11019 21092 39296 40167 51028 60001 81071 333 10051 21040 79999
AAXX 26184 71125 11459 73414 11017 21030 39527 40116 53071 69981 77122 87500 333 47001 70008 90942 93101
AAXX 26184 71129 12674 72914 10024 21074 39293 40120 51027 60001 87500 333 10055 21003 70000
AAXX 26184 71131 16/// /2617 11025 21066 38904 40169 51035 60001 333 10005 21027 70004
AAXX 26184 71135 16/// /3118 10013 21040 39038 40122 52054 60001 333 10023 20001 70000
AAXX 26184 71137 NIL
AAXX 26184 71140 12974 42913 10018 21024 39476 49970 5/002 60001 84050 333 10020 21035 70000
AAXX 26184 71145 11448 80411 11119 21147 39729 40024 51034 60011 77122 885// 333 11007 21119 48038 70012 90962 93101
AAXX 26184 71148 16/// /2710 10046 21015 39398 49967 58010 60001 333 10056 21027 70000
AAXX 26184 71185 16564 31917 11019 30086 40110 56013 69951 333 11019 21091 70015
AAXX 26184 71188 12974 02702 11031 21104 30072 40115 55003 60001 333 11029 21185 79999
AAXX 26184 71200 16/// /0802 10051 20029 60001 333 10067 20043 70032
AAXX 26184 71207 17/// /1406 10036 20036 30180 40245 55000 69961 7//4/ 333 10036 20001 70163
AAXX 26184 71260 13/// ///// 10036 21004 39893 40130 58040 60001 333 10037 21007 70006
AAXX 26184 71726 NIL
AAXX 26184 71727 11574 20206 11084 21117 39972 40175 55006 69901 70377 81550 333 11059 21118 48026 70010 90933
AAXX 26184 71728 11580 60904 11109 21150 39945 40173 57010 69901 70277 81530 333 11061 21131 44004 70006 90961
AAXX 26184 71730 12474 82216 11004 21025 39726 40155 58036 60001 885// 333 11003 21052 47016 70003
AAXX 26184 71731 11474 82313 11019 21035 39713 40170 58033 69901 70282 885// 333 11019 21053 43006 70034 90951
AAXX 26184 71735 NIL
AAXX 26184 71738 12474 72118 10023 21032 39729 40082 58042 60001 81171 333 10025 21042 70004
AAXX 26184 71739 42574 72212 11004 21038 39711 40076 57035 6//// 70272 86572 333 11004 21083 4//// 7////
AAXX 26184 71749 16964 02313 10058 21053 39756 49999 57045 69951 333 10058 70005
AAXX 26184 71799 11374 81603 10053 20037 30227 40251 57005 69961 70262 83570 333 10061 20025 70020 90926
AAXX 26184 71800 NIL
AAXX 26184 71801 12674 71609 11045 21101 30022 40201 56010 60001 87500 333 11044 21120 79999
AAXX 26184 71803 11469 71912 11040 21073 39974 40166 56014 69901 78581 87500 333 11033 21133 46008 79999 90916
AAXX 26184 71807 NIL
AAXX 26184 71808 11448 82220 11021 21023 30041 40088 56009 60031 77171 885// 333 11020 21130 48024 70036 90931
AAXX 26184 71809 11574 62112 11005 21076 30109 40137 56014 60001 82570 333 11004 21143 79999
AAXX 26184 71810 16/// /2708 11042 21067 30032 40099 56001 60001 333 11042 21095 70000
AAXX 26184 71811 NIL
AAXX 26184 71813 17/// /2809 11039 21069 30080 40094 55003 69931 7//4/ 333 11023 21177 70003
AAXX 26184 71814 17/// /2118 11007 21013 30075 40085 56013 69931 7//4/ 333 11006 21210 70006
AAXX 26184 71815 12574 82010 10003 21042 30105 40136 57016 60001 8257/ 333 10004 21087 79999
AAXX 26184 71864 NIL
AAXX 26184 71865 17/// /3006 10005 21019 39371 40045 51039 69971 7//4/ 333 10045 20001 70007
AAXX 26184 71866 46764 63014 10032 21049 39465 40074 52032 6///1 333 10037 21004 7////
AAXX 26184 71867 11358 80309 11088 21105 39732 40069 52055 69981 77122 885// 333 11007 21089 47022 70008 90962 93102
AAXX 26184 71868 16/// /0413 11026 21035 39599 40038 51049 60001 333 10005 21039 70015
AAXX 26184 71869 11562 80205 11006 21025 39542 40066 53042 69901 77122 885// 333 10001 21028 42003 70002 90910
AAXX 26184 71871 15566 83421 11006 21045 39324 40133 53062 60001 333 10040 21006 70000
AAXX 26184 71877 12586 22712 10024 21121 38915 40191 52023 60001 81571 333 10040 21032 70000
AAXX 26184 71878 12974 32602 11026 21114 39107 40187 52028 60001 80001 333 10051 21084 79999
AAXX 26184 71879 16964 02807 10012 21083 39354 40158 51031 60001 333 10057 21002 70000
AAXX 26184 71880 12782 71508 10013 21061 39136 40253 51023 60001 81570 333 10026 21012 79999
AAXX 26184 71882 160// /3302 11001 21001 39719 40266 51015 60001 333 10020 21012 70030
AAXX 26184 71883 NIL
AAXX 26184 71887 12986 80805 11003 21030 39814 40243 53004 60001 86071 333 10001 21058 70000
AAXX 26184 71889 12774 71714 10011 21049 39840 40265 50002 60001 81570 333 10025 21007 79999
AAXX 26184 71891 16964 01917 10047 20003 39945 40221 56005 60001 333 10051 20012 70025
AAXX 26184 71892 11462 80907 10045 20033 30252 40257 55002 60021 76182 885// 333 10054 20018 70034 90962
AAXX 26184 71893 11380 81323 10061 20039 30187 40219 57010 69901 71562 8667/ 333 10062 21004 79999 90941
AAXX 26184 71894 17/// /1014 10058 20055 30190 40199 56015 60051 7//4/ 333 10067 20046 70070
AAXX 26184 71896 15766 81911 11014 21072 39333 40173 55007 60001 333 11008 21051 70000
AAXX 26184 71897 11356 81450 10057 20029 3//// 4//// 57041 60041 76166 8877X 333 10063 20048 70060 90999
AAXX 26184 71898 160// ///// 10043 56047 60051 333 10047 20019 70070
AAXX 26184 71899 11566 81717 10041 20036 3//// 4//// 56051 60021 76186 8752X 333 10045 20002 70058 90917
AAXX 26184 71902 12974 62711 11173 21245 30015 40024 53008 60001 81031 333 11113 21195 70000
AAXX 26184 71905 NIL
AAXX 26184 71906 11556 82315 11179 21216 39948 40000 56006 69921 77177 885// 333 11178 21219 44015 70008 90973
AAXX 26184 71907 17428 93504 11178 21204 39931 49964 56014 60001 745// 333 11175 21222 70000
AAXX 26184 71909 16964 03618 11218 21263 39782 49825 53019 60001 333 11126 21228 70000
AAXX 26184 71910 46564 32807 11217 21261 39818 49881 51019 6///1 333 11179 21217 7////
AAXX 26184 71911 46061 02307 11326 39933 49992 51004 6///1 333 11319 21368 7////
AAXX 26184 71912 12574 50113 11257 21302 39923 40114 51031 60001 82501 333 11113 21258 70048
AAXX 26184 71915 NIL
AAXX 26184 71917 11974 13304 11275 21339 30042 40056 52010 69901 77600 81070 333 11210 21336 48015 79999 90921
AAXX 26184 71922 11474 80309 11096 21119 39648 40122 52057 60021 77172 88500 333 11016 21096 47027 70022 90917 93102
AAXX 26184 71924 11974 30000 11234 21282 39906 49998 51011 69901 77671 83030 333 11204 21331 48038 79999 90973
AAXX 26184 71925 11566 33016 11265 21309 30052 40095 51005 69921 73677 83500 333 11243 21341 42021 70002 90923
AAXX 26184 71926 12580 13021 11311 21368 30060 40086 55000 60001 81500 333 11311 21341 70000
AAXX 26184 71928 16/// /1503 11051 21142 39008 40185 51023 60001 333 10022 21109 70000
AAXX 26184 71864 NIL
AAXX 26184 71865 17/// /3006 10005 21019 39371 40045 51039 69971 7//4/ 333 10045 20001 70007
AAXX 26184 71866 46764 63014 10032 21049 39465 40074 52032 6///1 333 10037 21004 7////
AAXX 26184 71867 11358 80309 11088 21105 39732 40069 52055 69981 77122 885// 333 11007 21089 47022 70008 90962 93102
AAXX 26184 71868 16/// /0413 11026 21035 39599 40038 51049 60001 333 10005 21039 70015
AAXX 26184 71869 11562 80205 11006 21025 39542 40066 53042 69901 77122 885// 333 10001 21028 42003 70002 90910
AAXX 26184 71871 15566 83421 11006 21045 39324 40133 53062 60001 333 10040 21006 70000
AAXX 26184 71877 12586 22712 10024 21121 38915 40191 52023 60001 81571 333 10040 21032 70000
AAXX 26184 71878 12974 32602 11026 21114 39107 40187 52028 60001 80001 333 10051 21084 79999
AAXX 26184 71879 16964 02807 10012 21083 39354 40158 51031 60001 333 10057 21002 70000
AAXX 26184 71880 12782 71508 10013 21061 39136 40253 51023 60001 81570 333 10026 21012 79999
AAXX 26184 71882 160// /3302 11001 21001 39719 40266 51015 60001 333 10020 21012 70030
AAXX 26184 71883 NIL
AAXX 26184 71887 12986 80805 11003 21030 39814 40243 53004 60001 86071 333 10001 21058 70000
AAXX 26184 71889 12774 71714 10011 21049 39840 40265 50002 60001 81570 333 10025 21007 79999
AAXX 26184 71891 16964 01917 10047 20003 39945 40221 56005 60001 333 10051 20012 70025
AAXX 26184 71892 11462 80907 10045 20033 30252 40257 55002 60021 76182 885// 333 10054 20018 70034 90962
AAXX 26184 71816 12674 72412 11090 21158 30001 40064 55002 60001 81572 333 11089 21213 79999
AAXX 26184 71817 11566 82109 11034 21062 30066 40079 55008 69921 77122 8654/ 333 42012 70002 90910
AAXX 26184 71818 12574 62410 11070 21104 30043 40061 50003 60001 81118 333 11063 21165 70000
AAXX 26184 71822 11512 81914 11097 21112 39626 40110 58045 69901 77177 885// 333 11071 21148 47046 70036 90973
AAXX 26184 71825 11674 82309 11134 21185 39382 40069 55004 69901 70377 86501 333 11134 21179 47085 70018 90963
AAXX 26184 71827 11458 81711 11101 21108 39718 49966 57043 60021 77177 885// 333 11099 21185 47018 70024 90973 93102
AAXX 26184 71828 16458 62309 11166 21216 39382 40035 56010 60001 333 11139 21176 70005
AAXX 26184 71831 11974 82115 10019 21031 39756 40037 56029 69901 70277 8802/ 333 10021 21086 48040 79999 90921
AAXX 26184 71832 NIL
AAXX 26184 71834 11574 82216 10020 21027 39570 49994 57034 60001 73622 885// 333 10022 21049 79999
AAXX 26184 71841 NIL
AAXX 26184 71842 12974 81908 10008 21051 39483 49946 58031 60001 88077 333 10014 21036 79999
AAXX 26184 71844 NIL
AAXX 26184 71845 11574 81702 11006 21017 39479 49948 57027 60011 70276 8357/ 333 11003 21062 44018 70010 90922
AAXX 26184 71850 12974 81906 10003 21046 39448 49940 58029 60001 8807/ 333 10008 21021 70000
AAXX 26184 71852 16964 02811 10035 21012 39651 49939 57004 60001 333 10040 21004 70000
AAXX 26184 71854 12874 82106 10004 21043 39467 49932 57023 60001 8807/ 333 10005 21041 70000
AAXX 26184 71858 NIL
AAXX 26184 71861 17/// /3213 10011 20006 39304 40021 51049 69931 7//4/ 333 10046 21011 70003
AAXX 26184 71862 11574 83222 10027 20000 39355 40051 51053 69901 72111 87501 333 10045 20003 41001 79999 90921
AAXX 26184 71863 46664 63114 10023 21014 39376 40068 51052 6///1 333 10045 21018 7////
AAXX 26184 71930 NIL
AAXX 26184 71931 16/// /2118 11039 21081 30141 40153 55014 60001 333 11006 21129 70000
AAXX 26184 71934 11474 80000 11133 21154 39902 40167 51018 69901 77177 86571 333 11115 21138 47027 70008 90983
AAXX 26184 71935 11548 80604 11157 21174 39957 40173 50012 60011 77177 885// 333 11141 21158 47021 70016 90983 93103
AAXX 26184 71936 11674 60905 11239 21287 39922 40196 53015 69901 70377 83570 333 11195 21239 48021 70006 90962
AAXX 26184 71937 NIL
AAXX 26184 71938 11661 82413 11239 21275 30165 40196 51005 69921 77677 885// 333 11237 21320 46028 70002 90983 93101
AAXX 26184 71940 12982 71904 11030 21068 39339 40149 51006 60001 81071 333 10022 21042 70000
AAXX 26184 71943 12974 52410 11006 21082 39284 40121 51001 60001 82030 333 10011 21016 70000
AAXX 26184 71944 160// ///// 11013 58003 60001 333 10008 21038 70000
AAXX 26184 71945 12583 73203 11224 21275 39653 40144 55003 60001 81570 333 11166 21232 70004
AAXX 26184 71946 11674 70000 11244 21270 39947 40172 50008 69941 77177 86501 333 11195 21244 48043 70022 90983 93101
AAXX 26184 71948 46059 /2509 11316 30082 40203 55001 6///1 333 11312 21327 7////
AAXX 26184 71949 46/// /1008 11138 21165 39155 40035 56027 6///1 333 11059 21167 7////
AAXX 26184 71951 11128 91007 10006 20001 39797 40063 56033 60021 78588 887// 333 10022 20004 43020 70016 90973 93101
AAXX 26184 71957 46964 81102 11283 21355 30101 40195 57005 6///1 333 11283 21300 7////
AAXX 26184 71964 12786 8218 11091 21139 39118 49973 58046 60001 885// 333 11072 21113 70000
AAXX 26184 71966 16/// /0000 11314 21349 39608 40091 58018 60001 333 11227 21343 70000 555 10060
AAXX 26184 71968 460// /0105 11288 30131 40199 58006 6///1 333 11281 21305 7////
AAXX 26184 71726 NIL
AAXX 26184 71727 11574 20206 11084 21117 39972 40175 55006 69901 70377 81550 333 11059 21118 48026 70010 90933
AAXX 26184 71728 11580 60904 11109 21150 39945 40173 57010 69901 70277 81530 333 11061 21131 44004 70006 90961
AAXX 26184 71730 12474 82216 11004 21025 39726 40155 58036 60001 885// 333 11003 21052 47016 70003
AAXX 26184 71731 11474 82313 11019 21035 39713 40170 58033 69901 70282 885// 333 11019 21053 43006 70034 90951
AAXX 26184 71735 NIL
AAXX 26184 71738 12474 72118 10023 21032 39729 40082 58042 60001 81171 333 10025 21042 70004
AAXX 26184 71739 42574 72212 11004 21038 39711 40076 57035 6//// 70272 86572 333 11004 21083 4//// 7////
AAXX 26184 71749 16964 02313 10058 21053 39756 49999 57045 69951 333 10058 70005
AAXX 26184 71799 11374 81603 10053 20037 30227 40251 57005 69961 70262 83570 333 10061 20025 70020 90926
AAXX 26184 71800 NIL
AAXX 26184 71801 12674 71609 11045 21101 30022 40201 56010 60001 87500 333 11044 21120 79999
AAXX 26184 71803 11469 71912 11040 21073 39974 40166 56014 69901 78581 87500 333 11033 21133 46008 79999 90916
AAXX 26184 71807 NIL
AAXX 26184 71808 11448 82220 11021 21023 30041 40088 56009 60031 77171 885// 333 11020 21130 48024 70036 90931
AAXX 26184 71809 11574 62112 11005 21076 30109 40137 56014 60001 82570 333 11004 21143 79999
AAXX 26184 71810 16/// /2708 11042 21067 30032 40099 56001 60001 333 11042 21095 70000
AAXX 26184 71811 NIL
AAXX 26184 71813 17/// /2809 11039 21069 30080 40094 55003 69931 7//4/ 333 11023 21177 70003
AAXX 26184 71814 17/// /2118 11007 21013 30075 40085 56013 69931 7//4/ 333 11006 21210 70006
AAXX 26184 71815 12574 82010 10003 21042 30105 40136 57016 60001 8257/ 333 10004 21087 79999
AAXX 26184 71043 11783 20000 11280 21334 30089 40188 52002 69901 77677 82570 333 11245 21285 48031 70014 90983
AAXX 26184 71045 16/// /0805 11094 21128 39130 49994 58050 60001 333 11068 21159 70000
AAXX 26184 71050 46/// /0901 11106 21119 39077 40183 56013 6///1 333 11094 21140 7////
AAXX 26184 71051 NIL
AAXX 26184 71052 NIL
AAXX 26184 71066 11569 80000 11133 21171 39733 40166 53011 69901 70277 885// 333 11131 21146 44020 79999 90983
AAXX 26184 71068 11974 72103 11066 21075 39438 40135 51009 69901 72881 80001 333 10020 21079 43004 70012 90957
AAXX 26184 71069 16964 00502 11021 21021 39437 40143 51016 60001 333 10049 21043 70000
AAXX 26184 71076 16/// /1103 11185 21220 39775 40182 51025 60001 333 11138 21186 70006 555 10010
AAXX 26184 71077 16/// /3408 11086 21104 39609 40155 51056 60001 333 10006 21086 70023
AAXX 26184 71079 11774 20213 11220 21276 39829 40116 51037 69901 70277 81501 333 11028 21221 48008 70004 90963
AAXX 26184 71081 46964 03213 11329 21375 39885 49897 52008 6///1 333 11272 21336 7////
AAXX 26184 71082 NIL
AAXX 26184 71083 11912 03320 11339 21381 30020 40065 51014 69901 77677 333 11322 21341 48054 79999 90983
AAXX 26184 71090 46664 33115 11290 21334 39894 49930 55000 6///1 333 11287 21346 7////
AAXX 26184 71091 460// /0110 11273 39651 49864 51001 6///1 333 7////
AAXX 26184 71092 46964 30312 11244 39163 49835 53007 6///1 333 11244 21273 7////
AAXX 26184 71093 460// /3628 11256 39345 49850 56008 6///1 333 11256 21294 7////
AAXX 26184 71094 46037 /2109 11230 38869 49767 53014 6///1 333 11218 21245 7////
AAXX 26184 71095 46964 01804 11320 21368 39857 49940 52006 6///1 333 11257 21368 7////
AAXX 26184 71101 160// /1534 39913 56046 60051 333 70170
AAXX 26184 71104 12974 71407 11034 21091 39069 40194 58004 60001 86071 333 11005 21071 79999
AAXX 26184 71108 12682 70104 10039 20016 30187 40261 57001 60001 86530 333 10048 20006 70008
AAXX 26184 71109 11680 81210 10054 20010 30128 40155 58017 69941 70288 8557/ 333 10055 20022 70046 90952
AAXX 26184 71114 160// /2706 10048 20016 30211 40259 55003 60001 333 10078 20033 70075
AAXX 26184 71120 11474 73613 11030 21070 39484 40149 51074 69921 70272 87500 333 10015 21061 42002 70002 90935
AAXX 26184 71122 16/// /2406 11013 21126 38592 40208 51019 60001 333 21033 7//// 555 10030
AAXX 26184 71123 12874 12706 11019 21092 39296 40167 51028 60001 81071 333 10051 21040 79999
AAXX 26184 71125 11459 73414 11017 21030 39527 40116 53071 69981 77122 87500 333 47001 70008 90942 93101
AAXX 26184 71129 12674 72914 10024 21074 39293 40120 51027 60001 87500 333 10055 21003 70000
AAXX 26184 71131 16/// /2617 11025 21066 38904 40169 51035 60001 333 10005 21027 70004
AAXX 26184 71135 16/// /3118 10013 21040 39038 40122 52054 60001 333 10023 20001 70000
AAXX 26184 71137 NIL
AAXX 26184 71140 12974 42913 10018 21024 39476 49970 5/002 60001 84050 333 10020 21035 70000
AAXX 26184 71145 11448 80411 11119 21147 39729 40024 51034 60011 77122 885// 333 11007 21119 48038 70012 90962 93101
AAXX 26184 71148 16/// /2710 10046 21015 39398 49967 58010 60001 333 10056 21027 70000
AAXX 26184 71185 16564 31917 11019 30086 40110 56013 69951 333 11019 21091 70015
AAXX 26184 71188 12974 02702 11031 21104 30072 40115 55003 60001 333 11029 21185 79999
AAXX 26184 71200 16/// /0802 10051 20029 60001 333 10067 20043 70032
AAXX 26184 71207 17/// /1406 10036 20036 30180 40245 55000 69961 7//4/ 333 10036 20001 70163
AAXX 26184 71260 13/// ///// 10036 21004 39893 40130 58040 60001 333 10037 21007 70006
AAXX 26184 71603 11366 83211 10027 20009 30078 40131 53007 60011 70288 885// 333 10042 20025 70038 90952
AAXX 26184 71607 17/// /3206 11019 21040 30118 40151 52010 69981 7//4/ 333 10002 21054 70040 555 10050
AAXX 26184 71609 11474 63411 11009 21040 30001 40136 53008 69901 70377 86500 333 10011 21063 70061 90953
AAXX 26184 71610 15466 62609 11042 21072 39904 40206 52002 60001 333 11028 21072 70019
AAXX 26184 71621 12574 82509 10030 21024 30112 40220 58022 60001 885// 333 10030 20000 70020
AAXX 26184 71623 NIL
AAXX 26184 71624 12574 52613 10037 21033 30010 40224 57029 60001 85500 333 10037 21004 70000
AAXX 26184 71625 16564 82103 11004 21041 30032 40195 58026 60001 333 11004 21079 70005
AAXX 26184 71627 12583 62709 11023 21078 30170 40216 58006 60001 84531 333 11023 21108 43009 70034
AAXX 26184 71628 13560 82208 11012 21051 30071 40215 58017 60001 88500 333 11012 21120 70082
AAXX 26184 71630 NIL
AAXX 26184 71631 17/// /2310 10001 21038 39704 40211 58033 69981 7//4/ 333 10002 21013 70026
AAXX 26184 71633 12574 52215 10023 21028 39921 40195 58036 60001 83501 333 10028 21005 70004
AAXX 26184 71705 11474 63007 11015 21037 30043 40132 53008 69961 70282 86100 333 11002 21099 48009 70006 90922 93102
AAXX 26184 71706 11132 82205 10005 20001 30065 40126 55006 60031 77177 887// 333 10005 21089 43019 70062 90983 93103
AAXX 26184 71707 12574 71607 10006 21021 30064 40142 56014 60001 86570 333 10006 21105 44006 79999
AAXX 26184 71709 11432 82211 10004 20000 30110 40123 55004 60031 77182 885// 333 10004 21062 46007 70032 90962 93103
AAXX 26184 71711 NIL
AAXX 26184 71714 16/// /2510 11038 21095 30107 40201 58003 60001 333 11038 21161 7//// 555 10040
AAXX 26184 71715 16/// /2206 11036 21076 39971 40156 57003 60001 333 11034 21096 70003
AAXX 26184 71718 11583 70000 11047 21085 30079 40146 50000 69901 70372 87500 333 11044 21106 48004 70014 90963
AAXX 26184 71719 NIL
AAXX 26184 71930 NIL
AAXX 26184 71931 16/// /2118 11039 21081 30141 40153 55014 60001 333 11006 21129 70000
AAXX 26184 71934 11474 80000 11133 21154 39902 40167 51018 69901 77177 86571 333 11115 21138 47027 70008 90983
AAXX 26184 71935 11548 80604 11157 21174 39957 40173 50012 60011 77177 885// 333 11141 21158 47021 70016 90983 93103
AAXX 26184 71936 11674 60905 11239 21287 39922 40196 53015 69901 70377 83570 333 11195 21239 48021 70006 90962
AAXX 26184 71937 NIL
AAXX 26184 71938 11661 82413 11239 21275 30165 40196 51005 69921 77677 885// 333 11237 21320 46028 70002 90983 93101
AAXX 26184 71940 12982 71904 11030 21068 39339 40149 51006 60001 81071 333 10022 21042 70000
AAXX 26184 71943 12974 52410 11006 21082 39284 40121 51001 60001 82030 333 10011 21016 70000
AAXX 26184 71944 160// ///// 11013 58003 60001 333 10008 21038 70000
AAXX 26184 71945 12583 73203 11224 21275 39653 40144 55003 60001 81570 333 11166 21232 70004
AAXX 26184 71946 11674 70000 11244 21270 39947 40172 50008 69941 77177 86501 333 11195 21244 48043 70022 90983 93101
AAXX 26184 71948 46059 /2509 11316 30082 40203 55001 6///1 333 11312 21327 7////
AAXX 26184 71949 46/// /1008 11138 21165 39155 40035 56027 6///1 333 11059 21167 7////
AAXX 26184 71951 11128 91007 10006 20001 39797 40063 56033 60021 78588 887// 333 10022 20004 43020 70016 90973 93101
AAXX 26184 71957 46964 81102 11283 21355 30101 40195 57005 6///1 333 11283 21300 7////
AAXX 26184 71964 12786 8218 11091 21139 39118 49973 58046 60001 885// 333 11072 21113 70000
AAXX 26184 71966 16/// /0000 11314 21349 39608 40091 58018 60001 333 11227 21343 70000 555 10060
AAXX 26184 71968 460// /0105 11288 30131 40199 58006 6///1 333 11281 21305 7////
AAXX 26184 71043 11783 20000 11280 21334 30089 40188 52002 69901 77677 82570 333 11245 21285 48031 70014 90983
AAXX 26184 71045 16/// /0805 11094 21128 39130 49994 58050 60001 333 11068 21159 70000
AAXX 26184 71050 46/// /0901 11106 21119 39077 40183 56013 6///1 333 11094 21140 7////
AAXX 26184 71051 NIL
AAXX 26184 71052 NIL
AAXX 26184 71066 11569 80000 11133 21171 39733 40166 53011 69901 70277 885// 333 11131 21146 44020 79999 90983
AAXX 26184 71068 11974 72103 11066 21075 39438 40135 51009 69901 72881 80001 333 10020 21079 43004 70012 90957
AAXX 26184 71069 16964 00502 11021 21021 39437 40143 51016 60001 333 10049 21043 70000
AAXX 26184 71076 16/// /1103 11185 21220 39775 40182 51025 60001 333 11138 21186 70006 555 10010
AAXX 26184 71077 16/// /3408 11086 21104 39609 40155 51056 60001 333 10006 21086 70023
AAXX 26184 71079 11774 20213 11220 21276 39829 40116 51037 69901 70277 81501 333 11028 21221 48008 70004 90963
AAXX 26184 71081 46964 03213 11329 21375 39885 49897 52008 6///1 333 11272 21336 7////
AAXX 26184 71082 NIL
AAXX 26184 71083 11912 03320 11339 21381 30020 40065 51014 69901 77677 333 11322 21341 48054 79999 90983
AAXX 26184 71090 46664 33115 11290 21334 39894 49930 55000 6///1 333 11287 21346 7////
AAXX 26184 71091 460// /0110 11273 39651 49864 51001 6///1 333 7////
AAXX 26184 71092 46964 30312 11244 39163 49835 53007 6///1 333 11244 21273 7////
AAXX 26184 71093 460// /3628 11256 39345 49850 56008 6///1 333 11256 21294 7////
AAXX 26184 71094 46037 /2109 11230 38869 49767 53014 6///1 333 11218 21245 7////
AAXX 26184 71095 46964 01804 11320 21368 39857 49940 52006 6///1 333 11257 21368 7////
AAXX 26184 71101 160// /1534 39913 56046 60051 333 70170
AAXX 26184 71104 12974 71407 11034 21091 39069 40194 58004 60001 86071 333 11005 21071 79999
AAXX 26184 71108 12682 70104 10039 20016 30187 40261 57001 60001 86530 333 10048 20006 70008
AAXX 26184 71109 11680 81210 10054 20010 30128 40155 58017 69941 70288 8557/ 333 10055 20022 70046 90952
AAXX 26184 71816 12674 72412 11090 21158 30001 40064 55002 60001 81572 333 11089 21213 79999
AAXX 26184 71817 11566 82109 11034 21062 30066 40079 55008 69921 77122 8654/ 333 42012 70002 90910
AAXX 26184 71818 12574 62410 11070 21104 30043 40061 50003 60001 81118 333 11063 21165 70000
AAXX 26184 71822 11512 81914 11097 21112 39626 40110 58045 69901 77177 885// 333 11071 21148 47046 70036 90973
AAXX 26184 71825 11674 82309 11134 21185 39382 40069 55004 69901 70377 86501 333 11134 21179 47085 70018 90963
AAXX 26184 71827 11458 81711 11101 21108 39718 49966 57043 60021 77177 885// 333 11099 21185 47018 70024 90973 93102
AAXX 26184 71828 16458 62309 11166 21216 39382 40035 56010 60001 333 11139 21176 70005
AAXX 26184 71831 11974 82115 10019 21031 39756 40037 56029 69901 70277 8802/ 333 10021 21086 48040 79999 90921
AAXX 26184 71832 NIL
AAXX 26184 71834 11574 82216 10020 21027 39570 49994 57034 60001 73622 885// 333 10022 21049 79999
AAXX 26184 71841 NIL
AAXX 26184 71842 12974 81908 10008 21051 39483 49946 58031 60001 88077 333 10014 21036 79999
AAXX 26184 71844 NIL
AAXX 26184 71845 11574 81702 11006 21017 39479 49948 57027 60011 70276 8357/ 333 11003 21062 44018 70010 90922
AAXX 26184 71850 12974 81906 10003 21046 39448 49940 58029 60001 8807/ 333 10008 21021 70000
AAXX 26184 71852 16964 02811 10035 21012 39651 49939 57004 60001 333 10040 21004 70000
AAXX 26184 71854 12874 82106 10004 21043 39467 49932 57023 60001 8807/ 333 10005 21041 70000
AAXX 26184 71858 NIL
AAXX 26184 71861 17/// /3213 10011 20006 39304 40021 51049 69931 7//4/ 333 10046 21011 70003
AAXX 26184 71862 11574 83222 10027 20000 39355 40051 51053 69901 72111 87501 333 10045 20003 41001 79999 90921
AAXX 26184 71863 46664 63114 10023 21014 39376 40068 51052 6///1 333 10045 21018 7////
AAXX 26181 33088 11597 82904 10052 20045 30082 40276 52013 69902 70252 885// 333 10053
AAXX 26181 33177 NIL
AAXX 26181 33261 11396 82504 10022 20017 30017 40202 57005 69912 72582 889// 333 10023 87707
AAXX 26181 33275 11397 82608 10011 21003 39973 40201 57013 69902 70252 886// 333 10011 88707
AAXX 26181 33301 11296 82608 10029 20026 30009 40298 52010 69912 71052 886// 333 10029 88704
AAXX 26181 33325 31296 83103 10038 20023 30003 40276 52006 71022 885// 333 10038 86705
AAXX 26181 33377 11396 82504 10014 20006 30047 40246 57002 69942 75152 886// 333 10014 88708
AAXX 26181 33415 32497 72706 10028 20007 39911 40320 53011 86530 333 10037 86613
AAXX 26181 33429 32497 82806 10021 20011 39880 40315 53010 885// 333 10026 88611
AAXX 26181 33466 11457 82605 10030 20020 30082 40274 53004 69902 71062 885// 333 10033 86713
AAXX 26181 33526 32560 72903 10057 21002 39987 40334 52010 87500 333 10097 87630
AAXX 26181 33562 32497 82505 10024 20008 39931 40302 51009 886// 333 10025 88712
AAXX 26181 33614 32561 82403 10019 21003 30158 40265 57018 885// 333 10019 88624
AAXX 26181 33761 32498 82703 10010 21016 30089 40320 52001 886// 333 10024 88718
AAXX 26181 33902 31996 02303 10007 21004 30259 40328 51002 71011 333 10007
AAXX 26181 33983 32997 02905 11031 21045 30277 40341 53007 333 10004
AAXX 26181 34415 32497 82708 10002 21015 30135 40234 57016 886// 333 10006
AAXX 26181 34523 12497 82404 11014 21034 30161 40240 57021 69902 885// 333 11014 88618
AAXX 26181 34712 31596 82806 11032 21042 30209 40299 57006 71022 886// 333 11032 88723
AAXX 26184 65352 31950 70000 10306 20097 3//// 4//// 70522 80002 333 10354 5//// 87076
AAXX 26184 65361 32960 70000 10272 20100 3//// 4//// 80002 333 10350 5//// 87076
AAXX 26184 65376 32958 70802 10295 20194 39639 40101 80002 333 10330 58000 87076
AAXX 26184 65387 32460 72206 10290 20262 30067 40085 82932 333 10345 58004 82816 81920 87073 94947 95877
BBXX 2ALE5 26183 99376 70098 41/98 30611 10150 20069 40273 58009 70200 83/6/ 22244 20303 80110
AAXX 26184 61401 NIL
AAXX 26184 61404 32960 60614 10211 20012 39789 40190 83032 333 10225 58002 83363 85073
AAXX 26184 61415 32958 60209 10221 20099 30173 40178 86070 333 10238 58007 86463
AAXX 26184 61421 32975 50810 10240 21020 39891 40153 85080 333 10252 58013 85363
AAXX 26184 61437 32960 60404 10252 20130 30025 40165 86072 333 10266 58003 86363
AAXX 26184 61442 32958 70812 10262 21044 30145 40148 83032 333 10280 58004 83363 86073
AAXX 26184 61450 32960 60810 10230 21010 39697 40159 80002 333 10265 59001 86073
AAXX 26184 61461 32960 50804 10272 21060 30067 40159 80002 333 10285 58010 85073
AAXX 26184 61489 32960 60804 10290 21020 30135 40142 82072 333 10298 58011 82363 85073
AAXX 26184 61492 32960 60806 10300 20020 30138 40158 80002 333 10315 58003 86073
AAXX 26184 61497 35958 70808 10273 21030 39889 4//// 80002 333 10301 59001 87073
AAXX 26184 61498 31957 70000 10264 20145 39992 40126 705// 80008 333 10290 58000 87273
AAXX 26184 61499 32960 60804 10266 21023 39881 40138 80002 333 10280 59001 86073
AAXX 26181 12120 11465 82510 10078 20078 30242 40249 55004 69922 70352 885// 333 10080 20062 91115 93092
AAXX 26181 12250 11258 82403 10091 20088 30202 40291 53004 69912 75162 886// 333 10096 20067 88705 93097
AAXX 26181 12295 11470 82704 10085 20071 30071 40256 52016 69912 70262 885// 333 10085 20046 88611 91111 93097
AAXX 26181 12330 11258 82505 10083 20079 30207 40317 51008 69902 75052 886// 333 10095 20070 88705 93097
AAXX 26181 12375 11240 82605 10082 20079 30163 40295 51011 69902 75152 886// 333 10085 20061 88704 91112 93097
AAXX 26181 12424 11480 82804 10084 20070 30189 40344 53008 69902 70262 875// 333 10090 20073 87612 93097
AAXX 26184 64600 32960 20000 10250 20132 39433 40080 80002 333 10337 55043 59002 82080
AAXX 26184 64601 31956 00808 10250 20100 38984 48497 70400 333 10317 59003
AAXX 26184 64605 32960 00000 10252 20133 39341 40077 333 10335 59001
AAXX 26184 64610 32960 00000 10265 20172 3//// 4//// 333 10350 5////
AAXX 26184 64650 32956 50000 10280 20171 39655 40063 333 10355 55095 58013 85080
AAXX 26184 64654 NIL
AAXX 26184 64655 32960 00000 10258 20167 39440 40082 333 10342 58001
AAXX 26184 64656 32960 00000 10270 20181 39529 40076 333 10341 58000
AAXX 26184 64659 NIL
AAXX 26184 64660 32960 00000 10280 20142 39546 40066 333 10354 58000
AAXX 26184 64662 32960 00000 10278 20192 39570 40063 333 10364 59001
AAXX 26184 64665 32960 00000 10256 20192 3//// 4//// 333 10360 5////
AAXX 26181 12160 12570 72404 10097 20083 30207 40260 52004 60002 875// 333 10102 20074 91109 93000
AAXX 26181 12205 11459 82306 10098 20097 30289 40297 54000 69912 71052 885// 333 10108 20091 93091
AAXX 26181 12465 11256 82506 10076 20072 30082 40319 51010 69942 71052 886// 333 10079 20049 88704 93092
AAXX 26181 12566 11230 82403 10047 20044 30053 40356 52011 69902 75165 875// 333 10055 20031 87706 93097
AAXX 26181 12105 11276 82306 10102 20091 30232 40275 54000 69902 70352 885// 333 10103 20092 85706 88614 91111 93097
AAXX 26181 12195 12565 22808 10071 20057 30003 40232 51008 69902 82500 333 10084 20051 91114 93000
AAXX 26181 12235 11231 82405 10092 20092 30067 40279 53003 69952 75152 886// 333 10092 20077 88705 91110 93092
AAXX 26181 12270 11458 72706 10087 20084 30095 40278 52009 69912 71022 875// 333 10090 20060 93000
AAXX 26181 12280 12482 82705 10093 20077 30095 40252 52011 69902 885// 333 10095 20062 91113 93000
AAXX 26181 12300 11125 82705 10086 20086 30223 40314 51004 69932 75152 886// 333 10092 20073 93091
AAXX 26181 12400 11325 82605 10080 20076 30093 40332 52007 69902 75165 886// 333 10081 20067 91011 91111 93097
AAXX 26181 12435 11458 82607 10078 20070 30151 40326 52008 69902 76122 875// 333 10079 20063 93097
AAXX 26181 12495 11123 82605 10058 20057 30012 40310 51012 69952 75355 886// 333 10058 20026 93091
AAXX 26181 12530 11456 82402 10071 20059 30145 40349 52009 69902 72022 886// 333 10080 20030 88710 93097
AAXX 26181 12570 11130 82504 10058 20057 30008 40333 52011 69962 75052 886// 333 10059 20027 93092
AAXX 26181 12580 11118 82206 10023 20022 30076 40345 52010 69932 75365 886// 333 10027 20017 88703 93093
AAXX 26184 65306 32960 50000 10325 20049 39779 40106 80002 333 10345 58009 85076
AAXX 26184 65319 32958 50000 10300 20116 39588 40099 80002 333 10358 59005 85076
AAXX 26184 65330 31915 50604 10296 20109 30669 40096 70522 80002 333 10350 58006 85076
AAXX 26184 65335 32958 53204 10316 20141 39868 40089 80002 333 10364 58003 85076
AAXX 26184 65344 32958 52206 10295 20254 30084 40095 80002 333 10311 58006 85076
AAXX 26181 01400 41997 32317 10104 20081 40163 57011 70300 80004 22200 06081 10708 70040 333 91119
AAXX 26181 01300 41496 82519 10102 20089 49955 52006 72162 88/// 22200 02078 10813 70066 333 91126
AAXX 26184 71893 11380 81323 10061 20039 30187 40219 57010 69901 71562 8667/ 333 10062 21004 70022 90941
AAXX 26181 45007 12558 61008 10161 20105 30240 40249 58002 60001 84531 333 59005 82625 83358
AAXX 26181 02019 07/31 /2905 11026 21034 39255 49871 58006 60052 72471 333 10004 21033 69955 90710 91110
AAXX 26181 02081 05/99 /2505 11039 21076 39458 49858 51020 60002 333 10008 21063 60005 90710 91111
AAXX 26181 02095 05983 /2303 11038 21066 39690 49893 53018 69902 333 10000 21038 60005 90710 91106
AAXX 26181 02101 45580 /1404 11029 21040 39365 49922 58034 8//// 333 11003 21037 83/32
AAXX 26181 02119 07999 /2802 11045 21065 39517 49903 58014 69912 70070 333 10022 21054 60005 87/66 90710 91105
AAXX 26181 02124 05/99 /1602 11048 21095 39403 49929 58014 69902 333 10010 21060 60005 90710 91103
AAXX 26181 02126 05983 /2105 11001 21033 39609 49946 58018 69902 333 10031 21037 60005 88/60 90710 91109
AAXX 26181 02151 35984 01802 11060 21068 39577 49914 57005 60002 333 10024 21073 60005 91002 90710 91104 90710 91203
AAXX 26181 02186 35983 02303 11006 21048 39914 49939 51018 60002 333 10041 21007 60005 91006 90710 91108 90710 91206
AAXX 26181 02197 07/62 /2902 11008 21045 39901 49920 51021 60002 70010 333 10019 21008 60005 90710 91107
AAXX 26181 02207 07643 /2107 10013 20013 39205 49894 56076 60082 76276 333 10014 21016 60015 88/46 90710 91116
AAXX 26181 02219 07/10 /1205 11016 21016 39255 49919 58049 60032 77287 333 11014 21026 69975 90710 91109
AAXX 26181 02226 47/50 /3508 10004 20002 39483 49934 58067 771// 8//// 333 10021 20000 89/22
AAXX 26181 02243 07/59 /2002 10008 21024 39701 49969 58027 69902 71010 333 10032 21034 60005 90710 91105
AAXX 26181 02269 05980 /2207 10039 20003 60002 333 10063 20032 60005 88/59 90710 91111
AAXX 26181 02287 05970 /2409 10029 20003 39978 49988 50002 60002 333 10055 20022 60005 88/61 90710 91114
AAXX 26181 02297 05/99 /2207 10006 21034 39925 49971 53010 60002 333 10041 20003 60005 90710 91110
AAXX 26181 02308 07483 /0901 10001 21006 39093 49947 56058 69972 70070 333 10004 21021 60005 88/12 90710 91106
AAXX 26181 02327 05/83 /1903 10038 20002 39530 49960 56071 60002 333 10038 20012 60005 90710 91107
AAXX 26181 02355 NIL
AAXX 26181 02366 45/84 /1302 10010 21019 39983 49989 58047 8//// 333 10059 21013
AAXX 26181 02407 05476 /2008 10064 20049 39639 40001 56042 60002 333 10065 20037 60005 87/10 90710 91113
AAXX 26181 02418 45467 /2306 10096 20075 39931 40060 56023 8//// 333 10097 20054 88/12
AAXX 26181 02435 45380 /2308 10075 20050 39835 40019 56051 8//// 333 10076 20041 81/09 85/11 87/15
AAXX 26181 02440 05473 /2204 10045 20018 60002 333 10068 20024 60005 88/13 90710 91110
AAXX 26181 02452 47124 /2408 10077 20076 76161 333 88/02 90710 91114
AAXX 26181 02456 05464 /2004 10064 20038 30005 40048 58044 60002 333 10088 20034 60005 88/15 90710 91107
AAXX 26181 02469 07/63 /2004 10072 20052 69902 70060 333 10090 20062 60005 90710 91108
AAXX 26181 02498 05863 /2109 10059 20039 30063 40080 58037 60002 333 10084 20053 60005 86/56 87/58 90710 91112
AAXX 26181 02518 464// /2209 10078 20070 333 10083 20067 88/15 90710 91114
AAXX 26181 02520 17359 82312 10087 20074 30044 40111 58011 69902 71085 333 10090 20064 60005 88/08 91016 90710 91116 90710 91213
AAXX 26181 02550 47245 /2311 10084 20084 39865 40138 58012 710// 8//// 333 10086 20057 88/04
AAXX 26181 02562 35484 82409 10101 20080 39992 40106 56023 60002 333 10104 20069 60005 88/14 91014 90710 91114 90710 91210
AAXX 26181 02563 07583 /2306 10087 20072 30077 40099 58044 60002 70010 333 10091 20058 60005 87/20 88/23 90710 91110
AAXX 26181 02565 07466 /2408 10099 20082 30027 40145 56017 60002 70010 333 10101 20074 60005 88/10 90710 91114
AAXX 26181 02589 07657 /2309 10067 20055 30089 40110 58028 69942 72361 333 10081 20063 69945 88/48 90710 91113
AAXX 26181 02590 45768 /2208 10079 20069 30071 40132 58024 8//// 333 10083 20060 82/56 85/59
AAXX 26181 02618 07/57 /2306 10085 20085 30025 40189 58004 60022 71086 333 10086 20064 60005 90710 91112
AAXX 26181 02664 35362 82406 10094 20083 30125 40196 58009 60002 333 10096 20072 60005 88/07 91009 90710 91109 90710 91206
AAXX 26181 02679 07103 /2310 10058 20058 30115 40160 58018 60002 73331 333 10075 20057 60005 89/01 90710 91115
AAXX 26181 45007 12558 61008 10161 20105 30240 40249 58002 60001 84531 333 59005 82625 83358
AAXX 26184 71893 11380 81323 10061 20039 30187 40219 57010 69901 71562 8667/ 333 10062 21004 70022 90941
AAXX 26184 78947 11564 70708 10257 20235 30144 40147 60011 72581 874// 333 05299 10279 20224 59005 86820 90916
AAXX 26184 68392 36/// /1011 10196 20175 30184 4//// 53017 333 10247 20196 91016 555
AAXX 26184 68382 36/// /0507 10210 20172 39407 48586 52013 333 10273 20210 91013 555 91022
AAXX 26184 68352 36/// /0810 10230 20021 39117 48569 52009 333 10282 20228 91019 555 91022
AAXX 26184 68386 16/// /2002 10233 20219 39757 48674 52012 60062 333 10304 20232 91003 555 20068 91029
AAXX 26181 33177 11496 82604 10046 20036 30060 40302 52010 69982 76162 8872/ 333 10048
BBXX A8IO2 26184 99422 70157 41298 81302 10160 20103 40286 52010 70300 87778 22254 04150 20501 325// 40803 5//// 80130
BBXX PHQX 26183 99349 70270 41/97 /1707 10199 20138 40253 53003 70311 8/285 22254 20302 3//// 4//03 5//// 80161
AAXX 26181 14106 12998 70000 10047 20015 30292 40363 52008 60002 87070 333 10076 95000
AAXX 26181 02464 45463 /1904 10076 20049 30057 40075 56042 8//// 333 10094 20068 88/12
AAXX 26181 02500 07240 /2313 10082 20076 30047 40089 55010 69902 71086 333 10083 20074 60005 82/06 90710 91119
AAXX 26181 02513 NIL
AAXX 26181 02615 07360 /2510 10079 20072 30239 40244 50003 60002 70010 333 10080 20070 60005 88/09 90710 91112
AAXX 26181 02635 07/58 /2505 10088 20079 60002 71011 333 10092 20079 60005 90710 91109
AAXX 26181 14023 11597 80000 10013 20008 30093 40402 52014 69912 72162 8752/ 333 10036 41998 81722 87632
AAXX 26181 06432 35/58 /2103 10090 20081 30296 40374 53006 333 10096 81/11 83/27 87/37 91106 91205
AAXX 26181 06458 35256 /2205 10092 20087 30215 40371 52004 333 10094 85/05 88/08 91108 91206
AAXX 26181 06465 15356 /2103 10094 20085 30300 40367 53005 69942 333 10096 85/06 87/08 91106 91204
AAXX 26181 06496 37/03 92403 10064 20064 39685 40372 53005 73430 333 10065 89/02 91106 91204
AAXX 26181 06428 35457 /2104 10099 20088 30318 40367 52009 333 10099 88/11 91107 91205
AAXX 26184 85032 31456 51908 10298 20233 39962 40122 57022 71522 85930 333 56440 58012 84817 81920
AAXX 26184 85043 31458 71706 10255 20228 39955 40116 57017 71522 86510 333 56440 58010 86612 87457
AAXX 26184 85104 32456 71405 10285 20237 39960 40121 57015 83530 333 56330 58010 83617 87358
AAXX 26184 85109 32565 70906 10285 20238 39962 40123 57013 84530 333 56330 58000 84620 87358
AAXX 26184 85114 32465 50000 10300 20240 39960 40123 57016 85200 333 56000 58010 85817
AAXX 26184 85116 32465 61404 10306 20235 39943 40121 57019 83230 333 56330 58003 83817 85358
AAXX 26184 85123 32465 61408 10303 20236 39955 40121 57026 84230 333 56330 59002 84817 85358
AAXX 26184 85139 12465 81406 10270 20229 39903 40097 57022 60011 8552/ 333 56339 59014 85615 88457
AAXX 26184 85153 32465 61410 10297 20226 39950 40132 57020 84250 333 56330 59005 84817 86358
AAXX 26184 85154 32570 40805 10308 20229 39950 40128 57022 83201 333 56206 59006 83820
AAXX 26184 78615 32482 60000 10266 20203 30056 40195 58014 83230 333 10270 20202 30/// 56290 57874 59008 83818 83358
AAXX 26184 78627 32582 80000 10174 20105 38194 50000 885// 333 10176 20066 30/// 561// 58006 88620
AAXX 26184 78637 11482 83608 10248 20217 30167 40183 58011 60021 70362 8495/ 333 20252 20208 31/// 5619/ 57884 59002 84818 85359
AAXX 26184 78641 32482 63614 10196 20138 38574 40170 58004 86100 333 10208 20140 30/// 56800 57817 58001 86818
AAXX 26184 78647 32982 01912 10314 20229 30133 40140 58020 333 10330 20190 30/// 59002
AAXX 26181 91925 02580 41010 10290 20202 30080 40140 51015 60001 84800 333 56200 60007 82820 84650 90710 91128 555 60005 10928 58012
AAXX 26181 91929 04481 /0611 10267 20234 30133 40136 51016 60042 700// 333 10268 20242 60047 90710 91122 555 60005
AAXX 26181 91938 01570 30711 10290 20202 30139 40141 51013 60002 715// 81201 333 10290 20248 60007 81820 90710 91118 555 60005 10618 58009
AAXX 26181 91943 16/// /0308 10249 20210 30148 40150 50010 60012 333 10261 58016
AAXX 26181 91944 06/// /0715 10276 20199 30163 40166 51012 60002 333 10276 20249 60007 90710 91118 555 60005
AAXX 26181 91948 01482 30205 10251 20206 30092 40194 51004 69921 70286 83200 333 56200 60007 81818 83821 90710 91110 555 60005 11211 58008
AAXX 26181 91954 06/// /3612 10269 20236 30146 40149 50010 69921 333 69927 555 59006
AAXX 26181 91958 01581 50207 10265 20219 30163 40165 50007 60031 70186 85200 333 56800 60017 85820 90710 91124 555 60005 13424 59014
AAXX 26181 91945 06/// /0514 10280 20220 30157 40162 50010 69941 333 69947
AAXX 26184 89564 45/// /1714 11012 21069 39841 49861 58010
AAXX 26184 89570 46/// /0808 11050 21084 39159 56013
AAXX 26184 89571 45/// /2107 10007 21034 39787 49815 56013
AAXX 26184 89573 NIL
AAXX 26184 89610 NIL
AAXX 26184 89611 45/// /0412 11010 21050 39691 49742 57011
AAXX 26184 89614 NIL
AAXX 26184 89615 46/// /0918 11081 21143 38861 58016
AAXX 26184 89807 NIL
AAXX 26184 89809 46/// /0713 11072 21086 39297 57016
AAXX 26183 91502 NIL
AAXX 26183 91507 31475 20000 10258 20241 40072 53001 71310 81931 333 56900 81815 81916
AAXX 26183 91520 31475 10000 10247 20235 40070 55001 71300 81900 333 56900 81815 81916
AAXX 26183 91541 NIL
AAXX 26184 94299 46/// /3509 10271 20235 30063 40073
AAXX 26184 94300 46/// /1816 10252 20196 30023 40033
AAXX 26184 94302 46/// /2316 10273 20167 30017 40023
AAXX 26184 94312 46/// /3107 10275 20245 30036 40045
AAXX 26184 94313 NIL
AAXX 26184 94317 46/// /1112 10278 20109 39482 40052
AAXX 26184 94319 46/// /1513 10285 20128 39720 40041
AAXX 26184 94324 NIL
AAXX 26184 94326 46/// /1505 10251 20099 39481 40082
AAXX 26184 94327 46/// /1504 10246 20127 39710 40074
AAXX 26184 94332 46/// /0000 10256 20215 39669 40045
AAXX 26184 94333 NIL
AAXX 26184 94341 46/// /3308 10277 20208 39817 40046
AAXX 26184 94346 46/// /1313 10271 20160 39819 40033
AAXX 26184 94363 46/// /1311 10254 20227 39835 40047
AAXX 26184 94366 NIL
AAXX 26184 94367 46/// /3308 10266 20246 30007 40048
AAXX 26184 94374 46/// /2204 10247 20225 30038 40054
AAXX 26184 94388 46/// /3405 10246 20227 30052 40057
AAXX 26184 94393 46/// /2701 10257 30044 40056 56006
AAXX 26184 94394 46/// /2415 10236 30044 40052 56002
AAXX 26184 94403 46/// /1509 10204 20037 30034 40075
AAXX 26184 94429 46/// /1011 10237 20025 39640 40093
AAXX 26184 94430 46/// /0912 10246 20045 39507 40075
AAXX 26184 94449 46/// /1213 10199 20066 39609 40128
AAXX 26184 94451 NIL
AAXX 26184 94461 46/// /1309 10212 20128 39417 40069
AAXX 26184 94462 46/// /1906 10215 20142 39542 40083
AAXX 26184 94477 NIL
AAXX 26184 94488 NIL
AAXX 26184 92001 NIL
AAXX 26184 92014 NIL
AAXX 26184 92044 11460 83409 10272 20240 30060 40072 5//// 60211 780// 8583/
AAXX 26184 92047 NIL
AAXX 26184 92100 NIL
BBXX ZMIQ 26183 99369 31770 41498 50613 10175 20111 40207 56004 70222 82368 22233 00196 20301 306// 40503 80140
BBXX PCAM 26183 99295 31560 41398 40907 10212 20190 40049 53007 70011 841// 22273 20301 308// 40804 80197
BBXX 3ECI3 26184 99412 31748 41497 40510 10165 20139 40153 54000 70300 84232 22200 00160 20401 304// 40801 80150
BBXX GRFP 26164 99217 31774 41/96 91030 10250 20235 40049 57053 7//// 8962/ 22244 00260 20303 399// 40304
BBXX ZCBU6 26164 99305 31563 41998 01210 10208 20187 40059 57016 70211 80000 22274 00218 20302 310// 40508 5//// 80195
BBXX 2ALD3 26183 99022 31442 41697 63615 10280 20267 40062 54000 70222 85799 22234 04290 20101 80270
BBXX VNSZ 26164 99386 31448 46/// /2421 10151 20084 30088 40114 52018 22276 04180 85114
BBXX C6FS9 26164 99346 31347 46/// /2009 10170 20136 30135 40172 57005 22273 04187 85149
BBXX 9HA2479 26164 99240 31647 46/// /3141 10241 20222 39937 49966 57029 22254 04254 85227
BBXX VNSZ 26174 99383 31448 46/// /2120 10152 20091 30090 40116 52022 22224 04179 85118
BBXX VNAH 26164 99384 31406 46/// /2513 10153 20104 30111 40135 57007 22223 04174 85125
BBXX C6FS9 26174 99344 31345 46/// /1910 10171 20132 30133 40170 57004 22273 04186 85147
BBXX 9HA2479 26174 99242 31645 46/// /3142 10240 20220 39933 49962 57018 22254 04254 85226
BBXX VROB 26174 99269 31536 46/// /3106 10236 20193 30026 40051 57009 22273 04256 85206
BBXX VNAH 26174 99384 31408 46/// /2211 10151 20101 30110 40134 57005 22223 04175 85123
BBXX VROB 26164 99271 31536 46/// /2908 10239 20184 30034 40059 57014 22283 04261 85202
BBXX VNSZ 26184 99381 31449 46/// /2218 10154 20090 30098 40124 52011 22285 04199 85118
AAXX 26184 94500 NIL
AAXX 26184 94510 46/// /0304 10219 20194 39713 40051
AAXX 26184 94515 46/// /3608 10207 20188 39711 40051
AAXX 26184 94552 46/// /3403 10181 20148 39591 40046
AAXX 26184 94578 46/// /0000 10208 20195 30038 40049
AAXX 26184 94584 46/// /2908 10219 20193 39945 40053
AAXX 26184 94601 46/// /0922 10183 20147 30154 40171
AAXX 26184 94610 NIL
AAXX 26184 94637 46/// /1107 10185 20045 39733 40152
AAXX 26184 94638 46/// /0105 10141 20117 30168 40200
AAXX 26184 94642 NIL
AAXX 26184 94643 NIL
AAXX 26184 94647 46/// /1507 10174 20092 30057 40176
AAXX 26184 94651 46/// /1508 10172 20110 30096 40172
AAXX 26184 94653 46/// /1508 10162 20114 30147 40165
AAXX 26184 94659 46/// /1713 10159 20100 39945 40136
AAXX 26184 94672 46/// /1505 10172 20121 30139 40149
AAXX 26184 94691 46/// /2114 10146 20085 39799 40119
AAXX 26184 94693 46/// /1908 10148 20106 30067 40128
AAXX 26184 94700 NIL
AAXX 26184 94703 46/// /2105 10194 20181 39939 40061
AAXX 26184 94710 46/// /0000 10173 20153 39823 40069
AAXX 26184 94729 46/// /0000 10098 20097 39232 40061
AAXX 26184 94750 46/// /2004 10168 20153 39960 40082
AAXX 26184 94767 46/// /2017 10198 20168 30067 40073
AAXX 26184 94776 46/// /2308 10200 20181 30045 40055
AAXX 26184 94791 NIL
AAXX 26184 94802 46/// /0504 10119 20109 30116 40198
AAXX 26184 94804 46/// /2010 10168 20121 30118 40155
AAXX 26184 94807 NIL
AAXX 26184 94821 46/// /2905 10114 20106 30056 40138
AAXX 26184 94842 46/// /2410 10140 20084 30025 40123
AAXX 26184 94847 NIL
AAXX 26184 94850 46/// /2307 10123 20062 30067 40112
AAXX 26184 94865 46/// /2407 10141 20120 30097 40121
AAXX 26184 94866 46/// /2107 10140 20114 39980 40119
AAXX 26184 94875 46/// /2208 10130 20109 39965 40098
AAXX 26184 94893 NIL
AAXX 26184 94907 46/// /2608 10134 20119 30097 40107
AAXX 26184 94910 46/// /0000 10152 20147 39827 40071
AAXX 26184 94926 46/// /1001 10142 20128 39424 40078
AAXX 26184 94935 46/// /2805 10128 20112 30067 40093
AAXX 26184 94954 46/// /2422 10130 20053 39996 40105
AAXX 26184 94956 46/// /2706 10123 20064 30072 40098
AAXX 26184 94975 46/// /3213 10123 20041 30039 40071
AAXX 26184 94983 NIL
AAXX 26184 94995 46/// /1207 10202 20188 30018 40026
AAXX 26184 94996 46/// /0517 10216 20208 39870 49997
AAXX 26184 94997 NIL
AAXX 26184 94998 46/// /2710 10073 20066 39864 49874
AAXX 26184 95111 46/// /0000 10264 20250 39998 40034
AAXX 26184 95205 46/// /2409 10293 20250 30027 40034
AAXX 26184 95322 NIL
AAXX 26184 95448 46/// /1305 10195 20019 39551 40101
AAXX 26184 95458 46/// /1716 10189 20070 39867 40123
AAXX 26184 95480 46/// /1713 10194 20093 30053 40111
AAXX 26184 95481 46/// /1410 10227 20095 30039 40083
AAXX 26184 95482 46/// /1510 10284 20139 30011 40065
AAXX 26184 95485 46/// /1809 10207 2//// 39883 40081
AAXX 26184 95492 46/// /1710 10243 20152 39916 40066
AAXX 26184 95527 46/// /0405 10205 20186 39797 40044
AAXX 26184 95634 46/// /1313 10175 20073 39753 40148
AAXX 26184 95637 46/// /1107 10147 20114 39850 40180
AAXX 26184 95646 46/// /1407 10114 20086 39987 40171
AAXX 26184 95666 NIL
AAXX 26184 95719 46/// /1508 10138 20138 39749 40071
AAXX 26184 95762 46/// /0000 10140 20122 39610 40054
AAXX 26184 95826 NIL
AAXX 26184 95839 46/// /2108 10117 20099 39973 40130
AAXX 26184 95864 NIL
AAXX 26184 95909 NIL
AAXX 26184 95954 NIL
AAXX 26184 95966 46/// /0000 10079 20039 39883 40081
AAXX 26184 96995 46/// /0000 10231 20225 39800 40094
AAXX 26184 96996 476// 41013 10271 20254 30053 40057 58010 7//44
AAXX 26184 94102 46/// /2519 10299 20277 30034 40043
AAXX 26184 94103 NIL
AAXX 26184 94120 46/// /2204 10261 20226 39992 40032
AAXX 26184 94122 46/// /2614 10277 20235 30024 40032
AAXX 26184 94131 46/// /1518 10222 20211 39853 40003
AAXX 26184 94132 NIL
AAXX 26184 94147 NIL
AAXX 26184 94150 46/// /3311 10276 20250 39980 40039
AAXX 26184 94151 46/// /0308 10277 20249 30020 4////
AAXX 26184 94170 46/// /0503 10248 20247 30043 40065
AAXX 26184 94200 NIL
AAXX 26184 94203 46/// /2311 10301 20256 30033 40043
AAXX 26184 94206 46/// /3505 10286 2//// 39895 40022
AAXX 26184 94207 46/// /2818 10290 30036 40044 56013
AAXX 26184 94211 NIL
AAXX 26184 94212 46/// /3602 10292 20151 39562 40022
AAXX 26184 94216 46/// /0000 10283 20249 39986 40036
AAXX 26184 94236 NIL
AAXX 26184 94238 46/// /0105 10262 20211 39632 40044
AAXX 26184 94248 NIL
AAXX 26184 94255 46/// /2702 10257 20211 39790 40046
AAXX 26184 94268 46/// /0502 10263 20257 30043 40055
AAXX 26184 94287 46/// /1203 10268 20245 30043 40052
AAXX 26184 94290 NIL
AAXX 26184 94294 46/// /3305 10270 20229 30043 40053
AAXX 26184 94296 NIL
AAXX 26184 94298 46/// /3407 10264 30061 40067 55003
AAXX 26184 95641 NIL
AAXX 26184 94102 46/// /2519 10299 20277 30034 40043
AAXX 26184 94103 NIL
AAXX 26184 94120 46/// /2204 10261 20226 39992 40032
AAXX 26184 94122 46/// /2614 10277 20235 30024 40032
AAXX 26184 94131 46/// /1518 10222 20211 39853 40003
AAXX 26184 94132 NIL
AAXX 26184 94147 NIL
AAXX 26184 94150 46/// /3311 10276 20250 39980 40039
AAXX 26184 94151 46/// /0308 10277 20249 30020 4////
AAXX 26184 94170 46/// /0503 10248 20247 30043 40065
AAXX 26184 94200 NIL
AAXX 26184 94203 46/// /2311 10301 20256 30033 40043
AAXX 26184 94206 46/// /3505 10286 2//// 39895 40022
AAXX 26184 94207 46/// /2818 10290 30036 40044 56013
AAXX 26184 94211 NIL
AAXX 26184 94212 46/// /3602 10292 20151 39562 40022
AAXX 26184 94216 46/// /0000 10283 20249 39986 40036
AAXX 26184 94236 NIL
AAXX 26184 94238 46/// /0105 10262 20211 39632 40044
AAXX 26184 94248 NIL
AAXX 26184 94255 46/// /2702 10257 20211 39790 40046
AAXX 26184 94268 46/// /0502 10263 20257 30043 40055
AAXX 26184 94287 46/// /1203 10268 20245 30043 40052
AAXX 26184 94290 NIL
AAXX 26184 94294 46/// /3305 10270 20229 30043 40053
AAXX 26184 94296 NIL
AAXX 26184 94298 46/// /3407 10264 30061 40067 55003
AAXX 26184 95641 NIL
AAXX 26181 48855 32597 80000 10181 20168 30196 40204 57010 888// 333 59003 85895 88697
AAXX 26181 48848 32597 83202 10160 20131 30211 40219 58008 888// 333 59002 82895 88697
AAXX 26184 68014 16/// /0704 10227 20165 38607 48524 53005 60012 333 10286 20227 91006 555 20012 91020
AAXX 26184 68110 16/// /2306 10267 20007 38275 48489 55000 69922 333 10321 20251 91010 555 20002 91019
AAXX 26184 68300 36/// /1919 10165 20147 39993 40143 52003 333 10237 20165 91024 555 91014
AAXX 26183 NIL
AAXX 26184 88963 32460 72720 10070 21002 39802 49831 56009 83670 333 56770 83710 87550 92407 94070 95000
AAXX 26184 88968 11465 61408 10002 21036 39898 49913 52020 60021 72272 84670 333 56550 84715 83360 90123 90934 92417 92731 92801 93002 93100 94072 95002
AAXX 26184 89034 11158 80206 11047 21074 39568 49885 52013 69901 72272 886// 333 56199 88703 90105 92416 92840 96010
AAXX 26184 89053 11120 72720 10022 20017 39862 49876 57015 60011 75065 87700 333 56600 87703 90017 90087 90255 90284 90317 90966 92414 94075 94479 95085 96010 96460 97526 98520
AAXX 26184 89055 31158 80211 10013 21010 39597 49838 56009 71022 83616 333 56855 83702 83460 87270 90002 90070 95177
AAXX 26184 89066 11456 81802 10018 21001 39806 49816 53009 60031 75175 886// 333 56799 85718 88722 90540 90648 90977 92407 93002 93197 94070 95020 96010 96483
AAXX 26184 94299 46/// /3509 10271 20235 30063 40073
AAXX 26184 94300 46/// /1816 10252 20196 30023 40033
AAXX 26184 94302 46/// /2316 10273 20167 30017 40023
AAXX 26184 94312 46/// /3107 10275 20245 30036 40045
AAXX 26184 94313 NIL
AAXX 26184 94317 46/// /1112 10278 20109 39482 40052
AAXX 26184 94319 46/// /1513 10285 20128 39720 40041
AAXX 26184 94324 NIL
AAXX 26184 94326 46/// /1505 10251 20099 39481 40082
AAXX 26184 94327 46/// /1504 10246 20127 39710 40074
AAXX 26184 94332 46/// /0000 10256 20215 39669 40045
AAXX 26184 94333 NIL
AAXX 26184 94341 46/// /3308 10277 20208 39817 40046
AAXX 26184 94346 46/// /1313 10271 20160 39819 40033
AAXX 26184 94363 46/// /1311 10254 20227 39835 40047
AAXX 26184 94366 NIL
AAXX 26184 94367 46/// /3308 10266 20246 30007 40048
AAXX 26184 94374 46/// /2204 10247 20225 30038 40054
AAXX 26184 94388 46/// /3405 10246 20227 30052 40057
AAXX 26184 94393 46/// /2701 10257 30044 40056 56006
AAXX 26184 94394 46/// /2415 10236 30044 40052 56002
AAXX 26184 94403 46/// /1509 10204 20037 30034 40075
AAXX 26184 94429 46/// /1011 10237 20025 39640 40093
AAXX 26184 94430 46/// /0912 10246 20045 39507 40075
AAXX 26184 94449 46/// /1213 10199 20066 39609 40128
AAXX 26184 94451 NIL
AAXX 26184 94461 46/// /1309 10212 20128 39417 40069
AAXX 26184 94462 46/// /1906 10215 20142 39542 40083
AAXX 26184 94477 NIL
AAXX 26184 94488 NIL
AAXX 26184 68004 36/// /0202 10285 20130 38535 48491 52008 333 10326 20285 91010 555 91017
AAXX 26184 68006 36/// /0104 10276 20193 38908 48495 52015 333 10342 20263 91006 555 91014
AAXX 26184 68018 36/// /1302 10263 20175 38907 48518 52018 333 10313 20263 91003 555 91017
AAXX 26184 68098 32989 02213 10185 20134 30029 40136 56003 333 10244 20185 91015 555 91013
AAXX 26184 68102 36/// /2303 10286 20051 38727 48483 52007 333 10330 20286 91005 555 91014
AAXX 26184 68112 36/// /0000 10241 20116 38333 48513 56002 333 10316 20241 91003 555 91021
AAXX 26184 68116 16/// /3402 10225 20185 38566 48514 57001 60012 333 10329 20202 91002 555 20018 91019
AAXX 26184 68212 36/// /2407 10340 21001 38880 48512 53006 333 10377 20334 91011 555 91015
AAXX 26184 68312 32889 12213 10302 20200 38930 48507 53002 81070 333 10377 20302 91022 555 91014
AAXX 26184 41241 NIL
AAXX 26184 41242 NIL
AAXX 26184 41244 NIL
AAXX 26184 41246 NIL
AAXX 26184 41251 32960 00502 10133 21039 38059 48167 333 10203 58012
AAXX 26184 41252 NIL
AAXX 26184 41253 36/// /9902 10173 20070 39794 40177 333 0E019 10301 58002
AAXX 26184 41254 36/// /9902 10125 21044 37983 47988 333 0E008 10211 58011
AAXX 26184 41255 NIL
AAXX 26184 41256 32960 02004 10217 20093 30152 40162 333 10262 59003
AAXX 26184 41257 36/// /0000 10189 20042 39690 40179 333 0E017 10292 58001
AAXX 26184 41258 36/// /2504 10243 20080 30148 40152 333 0E/// 10256 59006
AAXX 26184 41259 NIL
AAXX 26184 41262 NIL
AAXX 26184 41263 NIL
AAXX 26184 41264 NIL
AAXX 26184 41265 NIL
AAXX 26184 41267 35/// /2502 10211 20129 30146 40162 333 0E021 10254 59006
AAXX 26184 41268 NIL
AAXX 26184 41270 36/70 /2305 10203 20142 30106 40118 333 0E020 10260 59007
AAXX 26184 41275 NIL
AAXX 26184 41287 NIL
AAXX 26184 41288 36/// /0000 10204 20077 30145 40169 333 0E018 10275 59003
AAXX 26184 41290 NIL
AAXX 26184 41295 NIL
AAXX 26184 41304 NIL
AAXX 26184 41312 36/// /2902 10213 20123 30132 40172 333 0E/// 10264 58005
AAXX 26184 41314 32960 00602 10181 21022 39685 40197 333 10254 58008
AAXX 26184 41315 36/// /3512 10164 21029 39186 42823 333 0E/// 10227 58006
AAXX 26184 41316 32960 13206 10202 20069 30147 40173 80001 333 10269 58004 81075
AAXX 26181 48852 11597 82701 10161 20158 30202 40212 58009 69911 76162 888// 333 58001 86895 88697 96160
AAXX 26184 94500 NIL
AAXX 26184 94510 46/// /0304 10219 20194 39713 40051
AAXX 26184 94515 46/// /3608 10207 20188 39711 40051
AAXX 26184 94552 46/// /3403 10181 20148 39591 40046
AAXX 26184 94578 46/// /0000 10208 20195 30038 40049
AAXX 26184 94584 46/// /2908 10219 20193 39945 40053
AAXX 26184 94601 46/// /0922 10183 20147 30154 40171
AAXX 26184 94610 NIL
AAXX 26184 94637 46/// /1107 10185 20045 39733 40152
AAXX 26184 94638 46/// /0105 10141 20117 30168 40200
AAXX 26184 94642 NIL
AAXX 26184 94643 NIL
AAXX 26184 94647 46/// /1507 10174 20092 30057 40176
AAXX 26184 94651 46/// /1508 10172 20110 30096 40172
AAXX 26184 94653 46/// /1508 10162 20114 30147 40165
AAXX 26184 94659 46/// /1713 10159 20100 39945 40136
AAXX 26184 94672 46/// /1505 10172 20121 30139 40149
AAXX 26184 94691 46/// /2114 10146 20085 39799 40119
AAXX 26184 94693 46/// /1908 10148 20106 30067 40128
AAXX 26184 94700 NIL
AAXX 26184 94703 46/// /2105 10194 20181 39939 40061
AAXX 26184 94710 46/// /0000 10173 20153 39823 40069
AAXX 26184 94729 46/// /0000 10098 20097 39232 40061
AAXX 26184 94750 46/// /2004 10168 20153 39960 40082
AAXX 26184 94767 46/// /2017 10198 20168 30067 40073
AAXX 26184 94776 46/// /2308 10200 20181 30045 40055
AAXX 26184 94791 NIL
AAXX 26184 94802 46/// /0504 10119 20109 30116 40198
AAXX 26184 94804 46/// /2010 10168 20121 30118 40155
AAXX 26184 94807 NIL
AAXX 26184 94821 46/// /2905 10114 20106 30056 40138
AAXX 26184 94842 46/// /2410 10140 20084 30025 40123
AAXX 26184 94847 NIL
AAXX 26184 94850 46/// /2307 10123 20062 30067 40112
AAXX 26184 94865 46/// /2407 10141 20120 30097 40121
AAXX 26184 94866 46/// /2107 10140 20114 39980 40119
AAXX 26184 94875 46/// /2208 10130 20109 39965 40098
AAXX 26184 94893 NIL
AAXX 26184 94907 46/// /2608 10134 20119 30097 40107
AAXX 26184 94910 46/// /0000 10152 20147 39827 40071
AAXX 26184 94926 46/// /1001 10142 20128 39424 40078
AAXX 26184 94935 46/// /2805 10128 20112 30067 40093
AAXX 26184 94954 46/// /2422 10130 20053 39996 40105
AAXX 26184 94956 46/// /2706 10123 20064 30072 40098
AAXX 26184 94975 46/// /3213 10123 20041 30039 40071
AAXX 26184 94983 NIL
AAXX 26184 94995 46/// /1207 10202 20188 30018 40026
AAXX 26184 94996 46/// /0517 10216 20208 39870 49997
AAXX 26184 94997 NIL
AAXX 26184 94998 46/// /2710 10073 20066 39864 49874
AAXX 26184 95111 46/// /0000 10264 20250 39998 40034
AAXX 26184 95205 46/// /2409 10293 20250 30027 40034
AAXX 26184 95322 NIL
AAXX 26184 95448 46/// /1305 10195 20019 39551 40101
AAXX 26184 95458 46/// /1716 10189 20070 39867 40123
AAXX 26184 95480 46/// /1713 10194 20093 30053 40111
AAXX 26184 95481 46/// /1410 10227 20095 30039 40083
AAXX 26184 95482 46/// /1510 10284 20139 30011 40065
AAXX 26184 95485 46/// /1809 10207 2//// 39883 40081
AAXX 26184 95492 46/// /1710 10243 20152 39916 40066
AAXX 26184 95527 46/// /0405 10205 20186 39797 40044
AAXX 26184 95634 46/// /1313 10175 20073 39753 40148
AAXX 26184 95637 46/// /1107 10147 20114 39850 40180
AAXX 26184 95646 46/// /1407 10114 20086 39987 40171
AAXX 26184 95666 NIL
AAXX 26184 95719 46/// /1508 10138 20138 39749 40071
AAXX 26184 95762 46/// /0000 10140 20122 39610 40054
AAXX 26184 95826 NIL
AAXX 26184 95839 46/// /2108 10117 20099 39973 40130
AAXX 26184 95864 NIL
AAXX 26184 95909 NIL
AAXX 26184 95954 NIL
AAXX 26184 95966 46/// /0000 10079 20039 39883 40081
AAXX 26184 96995 46/// /0000 10231 20225 39800 40094
AAXX 26184 96996 476// 41013 10271 20254 30053 40057 58010 7//44
AAXX 26184 89564 45/// /1714 11012 21069 39841 49861 58010
AAXX 26184 89570 46/// /0808 11050 21084 39159 56013
AAXX 26184 89571 45/// /2107 10007 21034 39787 49815 56013
AAXX 26184 89573 NIL
AAXX 26184 89610 NIL
AAXX 26184 89611 45/// /0412 11010 21050 39691 49742 57011
AAXX 26184 89614 NIL
AAXX 26184 89615 46/// /0918 11081 21143 38861 58016
AAXX 26184 89807 NIL
AAXX 26184 89809 46/// /0713 11072 21086 39297 57016
AAXX 26184 92001 NIL
AAXX 26184 92014 NIL
AAXX 26184 92044 11460 83409 10272 20240 30060 40072 5//// 60211 780// 8583/
AAXX 26184 92047 NIL
AAXX 26184 92100 NIL
BBXX FHZI 26174 99666 31400 46/// /1028 10000 2//// 39676 49687 5//// 22200 05018
BBXX FHZI 26164 99666 31400 46/// /1029 10001 20001 39670 49681 57008 22200 05019 85001
AAXX 26184 41024 42960 03104 10230 20170 30155 40175 333 10280 58002 55088
AAXX 26184 41030 42960 00000 10238 20150 39890 40164 333 10324 58003 55///
AAXX 26184 41036 42960 00000 10180 20110 38603 48553 333 10260 58010 55095 555 04410 50162
AAXX 26184 41055 42960 01106 10190 20020 38402 48550 333 10250 58008 55098 555 04410 50172
AAXX 26184 41061 41957 00710 10193 20090 39480 40188 70500 333 10290 58026 55100
AAXX 26184 41084 42960 00000 10183 21010 38896 48549 333 10290 58012 55100 555 04410 50163
AAXX 26184 41112 42960 00000 10143 20130 37985 48552 333 10250 58007 55096 555 04410 50189
AAXX 26184 41114 42960 02402 10150 20130 38018 48551 333 10264 58007 55100 555 04410 50188
AAXX 26184 41128 42960 00000 10180 21040 38855 48560 333 10300 58014 55088 555 04410 50182
AAXX 26184 41136 42960 00507 10211 20010 39361 40178 333 10280 58015 55100
AAXX 26184 41140 42560 33004 10286 20230 30153 40162 83400 333 10318 58006 55/// 83630
AAXX 26184 40356 42960 02806 10060 20000 39258 48538 333 10120 58045 55070 555 04410 50260
AAXX 26184 40357 42960 03208 10097 20050 39601 40254 333 10183 58039 55///
AAXX 26184 40360 42960 02804 10088 20030 39658 40248 333 10164 58045 55088
AAXX 26184 40361 42960 02606 10098 20000 39471 40257 333 10163 58035 55///
AAXX 26184 40362 42960 00000 10084 21020 39722 40251 333 10175 58045 55///
AAXX 26184 40373 42960 03204 10120 21040 39814 40243 333 10194 58049 55///
AAXX 26184 40375 42960 00103 10100 21020 39350 40248 333 10170 58024 55090
AAXX 26184 40377 42960 00000 10113 20050 39760 40251 333 10187 58050 55///
AAXX 26184 40394 42960 00404 10094 21010 39103 48568 333 10160 58039 55097 555 04410 50250
AAXX 26184 40400 42960 03410 10204 20100 30176 40204 333 10270 59005 55096
AAXX 26184 40401 42960 03618 10170 21040 39511 40219 333 10230 58032 55///
AAXX 26184 40405 NIL
AAXX 26184 40416 42960 03208 10180 20110 30170 40190 333 10140 58053 55///
AAXX 26184 40417 42960 03211 10166 20090 30193 40208 333 10225 58057 55///
AAXX 26184 40420 42960 03305 10160 20050 30001 40211 333 10230 58057 55///
AAXX 26184 40430 42960 00000 10196 20020 39466 40191 333 10245 58021 55085
AAXX 26184 40435 NIL
AAXX 26184 40437 42960 03404 10133 20000 39524 40236 333 10260 58048 55085
AAXX 26184 40439 42960 02706 10204 20100 30158 40168 333 10270 59001 55096
AAXX 26184 94310 46/// /2715 10280 20249 30030 40041 57012
AAXX 26184 95283 46/// /3402 10250 20241 30057 40064
AAXX 26184 95288 46/// /0109 10283 30045 40060 56014
AAXX 26184 95675 46/// /1704
AAXX 26184 95872 46/// /1915
AAXX 26184 95961 35/// /2918 10139 30037 40078 57002
BBXX ZMIQ 26183 99369 31770 41498 50613 10175 20111 40207 56004 70222 82368 22233 00196 20301 306// 40503 80140
BBXX PCAM 26183 99295 31560 41398 40907 10212 20190 40049 53007 70011 841// 22273 20301 308// 40804 80197
BBXX 3ECI3 26184 99412 31748 41497 40510 10165 20139 40153 54000 70300 84232 22200 00160 20401 304// 40801 80150
BBXX GRFP 26164 99217 31774 41/96 91030 10250 20235 40049 57053 7//// 8962/ 22244 00260 20303 399// 40304
BBXX ZCBU6 26164 99305 31563 41998 01210 10208 20187 40059 57016 70211 80000 22274 00218 20302 310// 40508 5//// 80195
BBXX 2ALD3 26183 99022 31442 41697 63615 10280 20267 40062 54000 70222 85799 22234 04290 20101 80270
BBXX VNSZ 26164 99386 31448 46/// /2421 10151 20084 30088 40114 52018 22276 04180 85114
BBXX C6FS9 26164 99346 31347 46/// /2009 10170 20136 30135 40172 57005 22273 04187 85149
BBXX 9HA2479 26164 99240 31647 46/// /3141 10241 20222 39937 49966 57029 22254 04254 85227
BBXX VNSZ 26174 99383 31448 46/// /2120 10152 20091 30090 40116 52022 22224 04179 85118
BBXX VNAH 26164 99384 31406 46/// /2513 10153 20104 30111 40135 57007 22223 04174 85125
BBXX C6FS9 26174 99344 31345 46/// /1910 10171 20132 30133 40170 57004 22273 04186 85147
BBXX 9HA2479 26174 99242 31645 46/// /3142 10240 20220 39933 49962 57018 22254 04254 85226
BBXX VROB 26174 99269 31536 46/// /3106 10236 20193 30026 40051 57009 22273 04256 85206
BBXX VNAH 26174 99384 31408 46/// /2211 10151 20101 30110 40134 57005 22223 04175 85123
BBXX VROB 26164 99271 31536 46/// /2908 10239 20184 30034 40059 57014 22283 04261 85202
BBXX VNSZ 26184 99381 31449 46/// /2218 10154 20090 30098 40124 52011 22285 04199 85118
AAXX 26181 38141 32598 83101 11065 21141 30143 40310 52003 885// 333 11065
AAXX 26181 38149 42598 82601 11058 21101 30244 40325 52012 885// 333 11027
AAXX 26181 38178 425// 63005 11080 21197 39993 40297 52006 86500 333 11049
AAXX 26181 38262 326// 82704 11053 21103 30219 40305 52012 885// 333 11030
AAXX 26181 38264 42598 62903 11066 21103 30224 40323 52010 86500 333 11018 86631
AAXX 26181 38396 12997 23102 11082 21124 30190 40324 52011 69902 82030 333 11019
AAXX 26181 38403 426// 70000 11038 21110 30152 40277 52004 87500 333 11030
AAXX 26181 38413 425// 82702 11056 21097 39976 40282 52012 8252/ 333 11019
AAXX 26181 38457 11395 80000 10004 21007 39661 40264 52009 69932 77376 8802/ 333 10060
AAXX 26181 38462 115/5 82305 11021 21030 38767 48505 52009 6990/ 77177 8862/ 333 10048
AAXX 26181 38565 115// 80000 11030 21036 39682 40291 52011 74172 886// 333 10048
AAXX 26181 38579 115// 83102 10005 21003 39840 40270 52012 60032 77187 8852/ 333 10041
AAXX 26181 38583 11496 80000 10006 20003 39939 40270 52009 60042 77177 8872/ 333 10042
AAXX 26181 38611 41695 82001 10020 20017 39664 40246 52009 78088 889// 333 10060 83389
AAXX 26181 38618 115// 80000 10024 20008 39527 40227 52007 69900 76166 8802/ 333 10063
AAXX 26181 38683 11396 43202 11027 21053 30009 40299 52017 60120 71071 84700 333 10014 84709
AAXX 26181 38696 115// 82702 10002 21004 39390 40269 52013 69952 78588 889// 333 10071
AAXX 26181 38812 11495 83102 11006 21012 39811 40281 52016 60032 77172 882// 333 10047 88518
AAXX 26181 38927 11360 82309 10036 20026 39881 40266 52020 69902 78038 889// 333 10159 87707
AAXX 26181 37395 32697 80000 10060 20034 30193 40336 52010 8552/ 333 10074
AAXX 26181 37409 11/91 92706 11018 21018 38805 48516 57003 60030 74544 333 11002 95090
AAXX 26181 37432 11596 80000 10010 21013 39051 48574 52008 60030 76876 8872/ 333 10025
AAXX 26181 37514 12696 80000 10002 21015 39151 40344 52011 69900 88500 333 10027
AAXX 26181 37545 325// 60000 10058 20001 39802 40327 52021 86100 333 10081
AAXX 26181 37621 325// 80000 10037 20030 39668 40324 52011 885// 333 10065
AAXX 26181 37484 NIL
AAXX 26184 40550 35/62 /3205 10124 20028 40230 51010 333 55300 00000 10254 20000 30000 41046 51300 60000 55407 40000 90069 90401 91009 91117 91209 91305
AAXX 26184 40551 36/// /2510 10119 20015 333 90400 91013 91121 91215 91311
AAXX 26184 40552 35/65 /2912 10121 20013 40234 51013 333 55300 90069 90401 91015 91121 91215 91311
AAXX 26184 40553 35/63 /3008 10123 20021 40230 51013 333 55300 90069 90401 91009 91121 91215 91309
AAXX 26184 40568 36/// /2807 10127 20040 333 90400 91011 91119 91215 91309
AAXX 26184 40569 NIL
AAXX 26184 40570 35/70 /3207 10106 20005 40246 51013 333 55300 90069 90401 91009 91123 91215 91309
AAXX 26184 40571 NIL
AAXX 26184 40572 NIL
AAXX 26184 40573 36/// /3211 10117 20016 333 90401 91013 91121 91215 91311
AAXX 26184 40580 36/// /3104 10162 20043 333 553// 00000 10280 20000 30000 41079 51359 60000 55407 40000 90400 91009 91115 91205 91303
AAXX 26184 40581 36/// /1002 10163 20058 333 90400 91009 91111 91201 91301
AAXX 26184 40582 32960 03411 10165 20015 40229 51012 333 55300 00000 10278 20000 30000 41105 51383 60000 55407 40000 90401 91013 91119 91213 91311
AAXX 26184 40583 NIL
AAXX 26184 40585 46/// /2911 10164 20066 222// 1//// 3//// 4//// 70/// 333 90400 91017 91121 91213 91309
AAXX 26184 40586 36/// /2805 10154 20014 333 90400 91009 91117 91207 91305
AAXX 26184 40587 36/// /3109 10148 20017 333 553// 00000 10224 20000 30000 41072 51296 60000 55407 40000 90401 91011 91121 91215 91309
AAXX 26184 40588 35/69 /3111 10141 20067 40223 51011 333 55300 90069 90401 91013 91115 91211 91309
AAXX 26184 40589 NIL
AAXX 26184 40590 46/// /3212 10126 20017 333 90401 91013 91125 91219 91313
AAXX 26184 40591 NIL
AAXX 26184 40592 35/66 /3210 10154 20010 40229 50010 333 55300 00000 10286 20000 30000 41045 51331 60000 55407 40000 90069 90400 91015 91117 91211 91307
AAXX 26184 40593 36/// /3208 10158 20036 333 90401 91011 91115 91211 91307
AAXX 26184 40594 36/// /3106 10148 20017 333 90400 91011 91117 91211 91305
AAXX 26184 40596 46/// /3111 10186 20103 333 90400 91015 91121 91217 91313
AAXX 26184 91577 06/// /3106 10247 20198 30009 40029 53005 60001 333 58002 60007
AAXX 26184 64700 31935 20204 10260 20089 39772 70600 70600 80002 333 10330 59012 82075
AAXX 26184 64750 32960 60000 10290 20122 39670 40078 80002 333 10372 59003 86075
AAXX 26184 61202 32965 10602 10229 21080 39601 40160 80002 333 10255 58005 81075
AAXX 26184 61214 NIL
AAXX 26184 61223 32960 50604 10255 20020 39848 40147 82042 333 10299 58002 82365 84075
AAXX 26184 61226 32960 10606 10271 20091 39841 40141 80002 333 10305 59002 81075
AAXX 26184 61230 32960 50404 10285 20012 39842 40115 80002 333 10309 58004 85075
AAXX 26184 61233 32960 60404 10280 20000 3//// 4//// 80002 333 10320 5//// 86075
AAXX 26184 61235 32960 70410 10300 21020 3//// 4//// 80002 333 10325 5//// 87075
AAXX 26184 61240 32960 40000 10275 20087 39802 40130 80002 333 10310 58000 84075
AAXX 26184 61250 32960 10000 10272 20092 3//// 4//// 80002 333 10300 5//// 81075
AAXX 26184 61257 32960 60408 10305 21010 30059 40153 80002 333 10330 58004 86075
AAXX 26184 61265 32960 40404 10280 20053 39805 40114 80002 333 10325 59007 84075
AAXX 26184 61270 32960 50404 10324 20072 3//// 4//// 80002 333 10350 5//// 85075
AAXX 26184 61272 32960 50000 10271 20096 39792 40121 80002 333 10345 59005 85075
AAXX 26184 61277 32960 20000 10305 20034 39790 40110 80002 333 10338 59009 82075
AAXX 26184 61285 32960 50204 10327 20016 39956 40106 80002 333 10356 58003 85075
AAXX 26184 61291 32960 20604 10302 20035 39693 40109 80002 333 10330 59001 82075
AAXX 26184 61293 32960 70404 10302 20073 3//// 4//// 80002 333 10337 5//// 87075
AAXX 26184 61296 32960 60000 10305 20136 3//// 4//// 80002 333 10344 5//// 86075
AAXX 26184 61297 32960 73606 10307 20018 3//// 4//// 80002 333 10335 5//// 87075
AAXX 26184 78615 32482 60000 10266 20203 30056 40195 58014 83230 333 10270 20202 30/// 56290 57874 59008 83818 83358
AAXX 26184 78627 32582 80000 10174 20105 38194 50000 885// 333 10176 20066 30/// 561// 58006 88620
AAXX 26184 78637 11482 83608 10248 20217 30167 40183 58011 60021 70362 8495/ 333 20252 20208 31/// 5619/ 57884 59002 84818 85359
AAXX 26184 78641 32482 63614 10196 20138 38574 40170 58004 86100 333 10208 20140 30/// 56800 57817 58001 86818
AAXX 26184 78647 32982 01912 10314 20229 30133 40140 58020 333 10330 20190 30/// 59002
AAXX 26183 91551 31598 60000 10262 20252 40052 53001 70211 86900 333 563// 84820 82925
AAXX 26183 91553 NIL
AAXX 26183 91554 NIL
AAXX 26183 91555 11598 70000 10259 20253 40044 53003 69961 7029/ 878// 333 569// 69981 83820 87640
AAXX 26183 91557 11598 79902 10250 20238 40022 53006 60061 72522 8497/ 333 5699/ 60061 84820 81925 87461
AAXX 26183 91565 11598 72603 10260 20250 40062 53002 60041 70288 878// 333 566// 60041 82820 87640
AAXX 26183 91568 11598 72608 10274 20247 40032 64000 60041 72588 85800 333 566// 60041 83825 87640
AAXX 26183 91551 31598 60000 10262 20252 40052 53001 70211 86900 333 563// 84820 82925
AAXX 26183 91553 NIL
AAXX 26183 91554 NIL
AAXX 26183 91555 11598 70000 10259 20253 40044 53003 69961 7029/ 878// 333 569// 69981 83820 87640
AAXX 26183 91557 11598 79902 10250 20238 40022 53006 60061 72522 8497/ 333 5699/ 60061 84820 81925 87461
AAXX 26183 91565 11598 72603 10260 20250 40062 53002 60041 70288 878// 333 566// 60041 82820 87640
AAXX 26183 91568 11598 72608 10274 20247 40032 64000 60041 72588 85800 333 566// 60041 83825 87640
BBXX PBCK 26183 99084 31285 41/98 /3123 10282 20263 40046 56004 713// 8//// 22263 00310 20605 399// 4//04 80268 90805 6746
BBXX UANA 26181 99695 10457 41/95 92017 10008 49782 57001 77272 8//// 22231 00030 21015
BBXX MGSM5 26183 99557 10027 41997 42625 10060 20036 40234 58006 70200 80003 22214 04082 20301 327// 40706 5//// 80050
AAXX 26184 85041 11256 81805 10248 20230 39860 40125 52015 69931 75155 8672/ 333 56449 58022 86706 87455
AAXX 26184 85140 12870 71803 10264 20216 39935 40145 57019 60011 87050 333 56030 59015 87357
AAXX 26184 85141 12584 71806 10270 20234 39911 40142 57019 60011 84534 333 56333 59014 84630 84357 87070
AAXX 26184 85151 NIL
AAXX 26184 85152 32870 71606 10285 20227 39904 40135 57016 87050 333 56030 59006 87358
AAXX 26184 85201 31465 61113 10106 20055 36312 57008 71522 84933 333 56200 59006 83817 81920 86070
AAXX 26184 85230 NIL
AAXX 26184 85242 32484 60405 10154 20058 36568 57013 86300 333 56300 59009 85817 81920
AAXX 26181 50468 NIL
AAXX 26181 50953 NIL
AAXX 26181 51076 NIL
AAXX 26181 51243 NIL
AAXX 26181 51288 32980 01401 11120 21220 38345 57002 333 00001 11049
AAXX 26181 51463 NIL
AAXX 26181 51573 NIL
AAXX 26181 51709 NIL
AAXX 26181 52533 NIL
AAXX 26181 52652 NIL
AAXX 26181 52866 NIL
AAXX 26181 52983 NIL
AAXX 26181 53463 NIL
AAXX 26181 53513 NIL
AAXX 26181 53588 NIL
AAXX 26181 53772 NIL
AAXX 26181 53915 NIL
AAXX 26181 54218 NIL
AAXX 26181 54337 NIL
AAXX 26181 54342 NIL
AAXX 26181 54401 NIL
AAXX 26181 54471 NIL
AAXX 26181 54497 NIL
AAXX 26181 54511 NIL
AAXX 26181 54823 NIL
AAXX 26181 56080 NIL
AAXX 26181 56096 NIL
AAXX 26181 57083 NIL
BBXX 41038 26181 99341 70777 46/// /0306 10131 40256 58006 91800 22200 00138 333 91206
BBXX 41053 26181 99185 70661 46/// /0706 10265 40158 58021 91800 22200 00271 10802 70012 333 91208
AAXX 26184 43466 22970 33603 10247 20217 30100 40112 80001 333 58016 60007 83080
BBXX 44139 26181 99442 70571 46/// /1206 10029 40161 57023 22200 00049 10902 70009 333 91207
AAXX 26183 91802 NIL
AAXX 26183 91809 NIL
AAXX 26183 91831 36/// /0104 10251 20232 40130 52002
AAXX 26183 91841 36/// /3406 10229 20212 40125 52023 555 20052
AAXX 26183 91848 36/// /3510 10258 20234 49993 52010 555 20346
AAXX 26183 91843 11498 73217 10248 20236 40101 52014 60061 70822 8427/ 333 5679/ 84816 87410
AAXX 26181 48900 32497 41904 10240 20220 30119 40129 57008 84800 333 58001 81894 83696
AAXX 26181 48918 32498 80502 10252 20213 30125 40136 57006 889// 222// 00258 2//// 333 58003 81894 82995 86696
AAXX 26181 48917 32998 60501 10243 20188 30129 40135 57009 80008 222// 00270 333 58003 86299
AAXX 26181 48914 32998 70203 10246 20190 30130 40132 58009 80008 333 59002 87299
AAXX 26181 48919 11598 80511 10251 20241 30093 40115 58006 60061 70382 8322/ 22200 02263 333 58003 83895 88499
AAXX 26181 48916 32698 70203 10264 20196 30088 40135 58003 875// 333 58003 87696
BBXX 44139 26181 99442 70571 46/// /1206 10029 40161 57023 22200 00049 10902 70009 333 91207
BBXX 62087 26181 99547 10068 46/// /0505 10095 20088 4//// 5//// 22230 00084
BBXX 46035 26181 99571 71778 46/// /3410 1//// 40125 58028 91750 22200 11305 20604 300// 41304 70026 333 91212 555 11095 22101 31656 43514 61749 339094 009091 018090 014081 000088 335112 83412 91655
BBXX A8EH3 26183 99543 71596 41497 73323 11045 21066 40025 53005 70377 877// 22265 04050 20403 82050
BBXX DGDD 26181 99333 71780 41497 52411 10205 20190 40125 51005 70366 8/7// 22224 00200 21409 32215 41405 51003 80195
BBXX KEY796 26183 99571 71703 41/97 83411 11078 21111 40064 58/// 702// 8//// 222// 01011 2//// 3//// 4//// 5//// 6//// 8//// ICE /////
BBXX LAIG7 26184 99309 71589 41898 62315 10210 20180 40250 50010 70211 8688/ 22223 00218 20601 317// 41502 5//// 6//// 80190 ICE /////
BBXX NWS0003 26184 99539 71665 43/// /0000 11052 21079 40059 5//// 7//// 8//// 222// 0//// 2//// 3//// 4//// 5//// 6//// 8//// ICE /////
AAXX 26184 60645 36/// /0000 10174 21008 333 10207
BBXX 61002 26184 99421 10047 46/// ///14 10131 2//// 40348 52002 22200 00137 10502 70010
AAXX 26181 50468 32970 03401 11289 21319 30098 40330 52001 333 11144
AAXX 26181 52533 32980 02001 11126 21194 38575 40343 52001 333 00053 11004
AAXX 26181 53588 32970 82205 11103 21134 37814 57003 8802/ 333 11084
AAXX 26181 53772 31958 70000 11020 21113 39379 40335 57003 70400 80002 333 10010
AAXX 26181 53915 32770 83201 11036 21083 38715 40305 57006 885// 333 05202 10016
AAXX 26181 54337 31958 00000 11095 21121 30245 40333 57007 71000 333 11036
AAXX 26181 54342 32962 00403 11146 21182 30280 40346 57007 333 11064
AAXX 26181 54511 31957 70702 11042 21088 30293 40335 57010 71000 80002 333 10020
AAXX 26181 54823 32965 71603 10022 21054 30126 40342 57007 80002 333 10057
AAXX 26181 56080 32980 83201 11059 21165 37147 52002 8802/ 333 00102 10079
AAXX 26181 56096 32770 81102 10045 21026 38999 40258 54000 885// 333 05102 10084
AAXX 26181 57083 31920 32001 11023 21046 30199 40341 52001 71000 80002 333 10064
AAXX 26184 60619 36/// /0109 10106 20008 333 10145
AAXX 26184 60663 36/// /1103 10157 21053 333 10199
AAXX 26184 06670 32970 03202 10008 21014 39863 40399 57/// 333 10055 31/// 55300 20000 90766 93100 91109 91207
AAXX 26184 06700 32980 00000 11009 21028 39881 40402 52/// 333 10049 30/// 55300 20000 90766 93100 91108 91205
AAXX 26184 06680 02780 10615 10007 21071 37647 47199 51/// 60052 81040 333 10005 47310 55300 20000 60005 81356 90766 93100 91117 91215
AAXX 26184 06990 31960 01701 11010 21028 39834 40412 57/// 71000 333 10050 30/// 55300 20000 91110 91205
AAXX 26184 06760 32970 20000 10056 21037 39905 40366 52/// 80002 333 10091 30/// 55300 20000 82072 90766 93100 91105 91204
AAXX 26184 06720 33/// ///// 11033 21048 39799 40412 52/// 333 10021 55300 20000
AAXX 26184 65201 31458 71904 10282 20245 30063 40116 70522 82508 333 10335 56600 57632 58002 82612 86280 91106 94463
AAXX 26184 06610 32975 01904 10009 21019 39788 40400 52/// 333 10036 31/// 55300 20000 90766 93100 91106 91205
AAXX 26181 58150 32965 00902 10032 21032 30352 40356 57002 333 10065
AAXX 26181 58238 31950 80904 10045 20001 30290 40336 57001 70500 8807/ 333 10081
AAXX 26181 58251 32961 00702 10025 21009 30343 40348 57003 333 10074
AAXX 26181 58606 31758 80902 10072 21015 30236 40296 57003 70500 885// 333 10097
AAXX 26181 58752 32666 53202 10087 20025 30271 40318 57006 85500 333 10143
AAXX 26181 59287 32664 73602 10100 20069 30175 40262 54000 875// 333 10201
AAXX 26181 59431 32962 60000 10077 20050 30100 40249 57005 86030 333 10195
AAXX 26181 59644 32560 73601 10147 20095 30225 40242 57003 878// 333 10204
AAXX 26181 56187 31956 80401 10057 20025 39612 40275 52001 71000 8807/ 333 05200 10082
AAXX 26181 57461 31959 82901 10061 20010 30149 40316 52001 71000 8807/ 333 10086
AAXX 26181 57516 31720 83401 10074 20055 39953 40272 57002 71000 885// 333 05200 10083
AAXX 26181 57687 31756 82902 10064 20011 30216 40302 52003 70500 885// 333 10096
AAXX 26181 57816 32661 81402 10031 21035 38836 40258 57003 885// 333 05200 10057
AAXX 26181 58040 31958 03601 11026 21046 30344 40358 57001 71000 333 10049
AAXX 26181 58102 32962 00902 10008 21028 30291 40341 57004 333 10062
AAXX 26181 58221 31950 80903 10035 21003 30305 40334 57004 71000 8807/ 333 10074
AAXX 26181 58457 31750 70701 10062 20034 30279 40333 57002 71000 875// 333 10101
AAXX 26181 58847 32662 83204 10110 20033 30193 40297 57004 885// 333 10125
AAXX 26181 59117 32666 70401 10100 20062 30159 40267 57001 875// 333 10192
AAXX 26181 59316 32960 00701 10117 20076 30257 40262 57004 333 10168
AAXX 26181 59758 32464 70706 10177 20136 30148 40225 57006 871// 333 10196
AAXX 26184 67002 31570 70403 10269 20251 30099 40133 71322 86922 333 10327 58004 82922 85630 92408
AAXX 26184 67009 NIL
AAXX 26184 67025 NIL
AAXX 26184 67027 31580 62812 10300 20260 30086 40107 52027 71311 84963 333 10364 82820 83640 81920 94962 95832 555 81360 82073
AAXX 26184 67083 11465 51802 10228 20212 38768 48544 52026 69912 72996 85900 333 10313 81817 81917 85620 94967 95817
AAXX 26184 67095 11465 70000 10275 20239 30141 40147 52014 69912 72162 878// 333 10330 83817 86633
AAXX 26184 67113 NIL
AAXX 26184 67117 NIL
AAXX 26184 67137 NIL
AAXX 26184 67143 NIL
AAXX 26184 67161 NIL
AAXX 26184 67197 32480 61210 10254 20231 30155 40165 51008 878// 333 10302 83817 85633
AAXX 26181 56778 32562 72504 10088 20059 38142 52001 874// 333 00000 10134
AAXX 26181 57265 32962 83601 10041 21023 30205 40320 52002 8807/ 333 10074
AAXX 26181 57494 32968 80401 10050 21002 30274 40305 57003 8807/ 333 10078
AAXX 26181 58362 32975 80703 10069 20001 30332 40340 57002 8807/ 333 10096
AAXX 26181 59134 32962 00205 10124 20056 30106 40276 57004 333 10166
AAXX 26184 89002 41599 81027 11020 21044 39757 49811 52016 73633 888// 333 00950 92911
AAXX 26181 03966 15684 /2108 10110 20074 30154 40247 52007 60002 88/// 333 10125 83/44 88/50
AAXX 26181 51076 32980 01402 11157 21199 39392 40337 52001 333 00001 11069
AAXX 26181 51243 32965 02701 11206 21231 39750 40365 52003 333 00001 11155
AAXX 26181 51463 32961 02002 11131 21155 39153 40331 57006 333 00002 11090
AAXX 26181 51573 32970 00701 11113 21160 30325 40372 54000 333 00052 11058
AAXX 26181 51709 11862 72201 11087 21105 38774 40338 52002 69901 77070 86502 333 05102 11045
AAXX 26181 52652 32980 02002 11161 21212 38585 40352 52004 333 00056 11009
AAXX 26181 52983 32965 80201 11051 21108 38131 57010 8802/ 333 05103 10027
AAXX 26181 54401 32970 03603 11091 21186 39435 40344 57009 333 11011
AAXX 26181 50953 32965 01801 11213 21260 30158 40355 57004 333 11135
AAXX 26181 52866 32970 02501 11121 21170 37716 52008 333 00055 10038
AAXX 26181 53463 32980 00201 11092 21155 39038 40344 57004 333 05302 11029
AAXX 26181 53513 32965 43201 11108 21152 39043 40329 57006 80002 333 05402 11037
AAXX 26181 54218 32970 02702 11096 21201 39496 40339 57005 333 11015
AAXX 26181 54471 32960 41803 11028 21061 30334 40340 57004 80002 333 11026
AAXX 26181 54497 32565 70402 11097 21160 30357 40374 52004 875// 333 11041
AAXX 26181 26058 01/70 02907 10053 21003 30056 40063 51043 60002 70200 333 10080 20052 60007 80/// 91015 91122 555 1/002 20052 3/002 50051 52004
AAXX 26181 26045 27/82 02706 10051 21024 30072 40075 51032 70000 80/// 333 10092 20049 60007 80/// 91011 91117 555 1/000 20049 3/000 50063
AAXX 26181 26115 27957 12305 10064 20047 30102 40110 58013 71010 80/// 333 10091 20061 60007 80/60 91009 91111 555 1/004 20061 3/003 50075
AAXX 26181 26247 27/70 /2703 10044 20005 30048 40127 51024 70000 333 10087 20043 60007 91114 555 1/001 20043 3/001 50059
AAXX 26181 26141 01/84 02808 10037 21022 39944 40092 51032 60002 70200 333 10079 20033 60007 80/// 91012 91119 555 1/001 20033 3/001 50051 52002
AAXX 26181 26135 27/84 02702 10040 21011 30032 40107 51021 70000 80/// 333 10088 20039 60007 80/// 91115 555 1/000 20039 3/000 50061 52002
AAXX 26184 71452 46/// /3122 10025 21006 39353 40058 51056 6///1 333 10058 21005 7//// 555 10010
AAXX 26184 71456 16/// /0207 11021 21030 39462 40058 53040 60001 333 10015 21021 70003
AAXX 26184 71459 16/// /2922 10028 21074 39337 40145 51032 60001 333 10049 20013 70000
AAXX 26184 71465 46/// /2013 10042 21016 30018 40238 58032 6///1 333 10046 20014 7////
AAXX 26184 71470 16/// /2906 11300 21331 39532 40199 51016 60001 333 11279 21350 70000
AAXX 26184 71476 17/// /1646 39949 56049 60031 7//4/ 333 70054
AAXX 26184 71478 17/// /1659 10056 20047 39939 40074 56027 60051 7//4/ 333 10066 20041 70048
AAXX 26184 71479 16/// /1233 10061 20044 30001 40121 56023 60001 333 10069 20035 70000
AAXX 26184 71480 16/// /0202 11319 21352 30052 40181 51001 60001 333 11247 21320 70000 555 10010
AAXX 26184 71482 46/// /0403 10036 30082 40120 56030 6///1 333 10062 20018 7////
AAXX 26184 71484 16/// /1651 10047 20040 39937 49955 56041 60001 333 10065 20041 70000
AAXX 26184 71492 46/// ///00 11306 21336 39442 40178 51001 6///1 333 11284 21334 7////
AAXX 26184 71357 17/// /0413 11216 21235 39803 49810 56020 60021 7//4/ 333 11204 21266 70019 555 10040
AAXX 26184 71358 16/// /3214 11289 21320 39892 49928 55000 60001 333 11286 21352 70014
AAXX 26184 71362 16/// /0000 11134 21154 39895 40157 51017 60001 333 11112 21136 70005
AAXX 26184 71364 16/// /3102 11291 21322 30047 40189 57004 60001 333 11290 21304 70000 555 10010
AAXX 26184 71365 16/// /0101 11237 21256 39942 40165 53008 60001 333 11194 21244 70009
AAXX 26184 71370 46/// /1607 11033 21067 30045 40185 58011 6///1 333 11027 21131 7////
AAXX 26184 71381 46/// /0000 11088 21144 6///1 333 11070 21131 70000
AAXX 26184 71758 16/// /1507 10003 21018 30064 40142 56014 60001 333 10004 21103 70000
AAXX 26184 71771 46/// /1545 10068 20065 39904 49924 56035 6///1 333 10068 20036 7////
AAXX 26184 71920 17/// /3510 10041 20026 30114 40120 53005 60011 7//4/ 333 10063 21043 70011
AAXX 26184 71669 16/// /2604 11006 21126 38566 40196 53019 60001 333 10007 21025 70000
AAXX 26184 71726 16/// /2306 11065 21096 39614 40165 56017 60001 333 11065 21131 70003 555 10010
AAXX 26184 71800 17/// /1304 11034 21100 30166 40200 56010 69961 7//4/ 333 11023 21120 70006
AAXX 26184 71807 16/// /1614 11031 21076 30171 40190 58012 60001 333 11028 21095 70000
AAXX 26184 71074 46/// ///39 11273 21300 39957 40036 55000 6///1 333 11261 7////
AAXX 26184 71087 46/// /1202 11165 21187 39956 40168 53007 6///1 333 11165 21179 7////
AAXX 26184 71956 16/// /2218 10031 21012 39927 40160 58034 60001 333 10034 21008 70003
AAXX 26184 71959 16/// ///// 10021 21018 60001 333 10026 21075 70007
AAXX 26184 71970 17/// /3413 11021 21044 39524 40114 53072 69931 7//4/ 333 10023 21051 70003
AAXX 26184 71977 46/// /1402 11219 21219 39404 40141 58012 6///1 333 11210 21260 7////
AAXX 26184 71978 46/// /0304 11302 21333 39844 40176 56005 6///1 333 11285 21355 7////
AAXX 26184 71989 16/// /3517 11309 21340 30182 40199 51010 60001 333 11256 7//// 555 10010
AAXX 26184 71015 16/// ///// 11001 60001 333 10004 21022 70003
AAXX 26184 71017 16/// /3011 11285 21316 30045 40060 51012 60001 333 11258 21288 70000
AAXX 26184 71018 16/// ///03 11242 21274 39907 49996 51012 60001 333 11204 21332 70000
AAXX 26184 71019 46/// /3010 11062 21092 39848 40157 53005 6///1 333 11056 21139 7////
AAXX 26184 71020 46/// /3402 11235 21261 39878 40144 51013 6///1 333 11189 21249 7////
AAXX 26184 71021 46/// /0000 11272 21301 39777 40145 51014 6///1 333 11184 21273 7////
AAXX 26184 71063 16/// /2105 11008 21041 30110 40210 58018 60001 333 11008 21098 70036 555 10040
AAXX 26184 71619 17/// /2809 11042 21085 30062 40121 53001 60031 7//4/ 333 11041 21107 70070
AAXX 26184 71885 16/// ///// 10022 60001 333 10030 7////
AAXX 26184 71150 46/// /3215 11008 21015 39305 49977 53024 6///1 333 10026 21048 7////
AAXX 26184 71156 16/// /2401 11033 21103 39061 40163 51008 60001 333 10037 21058 70000
AAXX 26184 71159 16/// /1806 11004 21053 30058 40131 56015 60001 333 11004 21089 70000
AAXX 26184 71160 16/// /1702 11365 21410 39989 40221 51020 60001 333 11281 21387 70000 555 10010
AAXX 26184 71162 16/// /0816 11211 21239 39957 40176 53012 60001 333 11179 7////
AAXX 26184 71164 46/// /3402 11287 21319 30114 40200 58003 6///1 333 11268 21296 7////
AAXX 26184 71165 46/// ///00 11327 21363 39909 40211 53012 6///1 333 11218 21352 7////
AAXX 26184 71166 46/// /1302 39511 5/011 6///1 333 7////
AAXX 26184 71172 16/// ///// 10022 21024 39964 40183 58027 60001 333 10022 21017 70014
AAXX 26184 71858 17/// /0214 11085 21102 39751 40032 53055 60021 7//4/ 333 10009 21085 70020
AAXX 26184 71402 46/// /2008 11034 21074 30031 40148 56018 6///1 333 11034 21097 7////
AAXX 26184 71407 16/// /2718 11312 21350 39943 49965 58002 60001 333 11312 21337 70000
AAXX 26184 71442 16/// /3107 10023 21013 39632 49939 53010 60001 333 10032 21006 70000
AAXX 26184 71446 16/// /3027 10013 21067 39143 40118 51032 60001 333 10045 20006 70000
AAXX 26184 71449 16/// /2407 10030 21042 39556 49951 56017 60001 333 10030 21004 70000
AAXX 26184 71736 46/// ///// 10006 21093 6///1 333 10019 21004 7////
AAXX 26184 71742 46/// /1912 11040 21065 39976 40168 56014 6///1 333 11035 21135 7////
AAXX 26184 71744 16/// /3104 11017 21061 30093 40135 53002 60001 333 11012 21120 70004 555 10010
AAXX 26184 71747 17/// /2106 10025 21055 39506 49975 58034 60021 7//4/ 333 10065 21035 7////
AAXX 26184 71501 16/// /0000 11353 21396 30201 40203 58007 60001 333 11343 21374 70000
AAXX 26184 71515 17/// /3020 10015 21002 39351 40045 51051 69941 7//4/ 333 10032 21023 70004
AAXX 26184 71522 46/// /2605 11125 21165 39647 40148 57007 6///1 333 11102 21160 70000
AAXX 26184 71539 17/// /3025 10040 21039 39397 40087 51047 60011 7//4/ 333 10058 20008 70011
AAXX 26184 71250 16/// /1705 11043 21107 30051 40191 56011 60001 333 11039 21140 70000
AAXX 26184 71270 16/// /2207 10033 21031 39980 40201 58033 60001 333 10036 20006 70029
AAXX 26184 71295 16/// /2003 10013 21044 39494 49931 58031 60001 333 10013 21030 70000
AAXX 26184 71296 17/// /2308 10015 21029 39901 40211 58028 69931 7//4/ 333 10016 21005 70030 555 10020
AAXX 26184 71837 16/// ///// 10012 60001 333 10022 21029 70000
AAXX 26184 71840 46/// /2816 10064 21024 6///1 333 10065 20020 7////
AAXX 26184 71551 16/// /2919 10032 21049 39435 40078 51034 60001 333 10055 20026 70000
AAXX 26184 71553 16/// /3114 10001 21008 60001 333 10017 21043 70000
AAXX 26184 71571 16/// /2010 11031 21078 38928 40126 53001 60001 333 10005 21037 70000
AAXX 26184 71575 16/// /3007 11215 21245 39812 49877 51022 60001 333 11178 21215 70000
AAXX 26184 71577 46/// /2906 10037 21018 6///1 333 10037 21005 7////
AAXX 26184 71579 16/// /2706 10046 21029 39656 49933 56007 60001 333 10048 20000 70000
AAXX 26184 71581 16/// /2404 11007 21033 39696 40184 58028 60001 333 11007 70006
AAXX 26184 71585 16/// /3105 11098 21105 39700 40168 51038 60001 333 21102 7//// 555 10020
AAXX 26184 71599 17/// /3202 10005 20005 39928 40133 53011 60011 7//4/ 333 10011 21097 70020
AAXX 26184 71137 16/// /2918 10003 21046 39207 40155 51044 60001 333 10030 21032 70000
AAXX 26184 71309 16/// /2105 10007 21027 39972 49984 56033 60001 333 10007 21164 70006 555 10010
AAXX 26184 71311 17/// /3308 10001 21005 30099 40124 53003 69931 7//4/ 333 10008 21096 70003
AAXX 26184 71312 17/// /0310 11029 21037 39603 40060 51051 60021 7//4/ 333 10003 21042 70022
AAXX 26184 71317 17/// /0802 10004 21003 30070 40117 55012 69951 7//4/ 333 10007 21161 70011 555 10020
AAXX 26184 71321 16/// /3615 11217 21246 39798 49841 52019 60001 333 11126 21227 70000
AAXX 26184 71322 16/// /3418 11323 21354 30097 40111 53016 60001 333 11315 21332 7////
AAXX 26184 71334 46/// /3206 11304 21342 39817 40165 51029 6///1 333 11207 21316 7////
AAXX 26184 71915 12974 13609 11301 21342 39859 49943 50020 60001 81070 333 11223 21305 70000
AAXX 26184 71243 16/// /2716 10046 21095 39122 40201 51023 60001 333 10046 20020 70000
AAXX 26184 71246 16/// /1404 11048 21060 39474 40143 51006 60001 333 11006 21061 70026
AAXX 26184 71719 16/// /2805 11021 21062 30116 40122 53002 60001 333 11021 21114 70035 555 10100
AAXX 26184 71930 13974 30000 11014 21109 39223 40161 51015 69903 80001 333 10037 21039 47016 79999 90999
AAXX 26184 71472 17/// /1839 10074 20066 60041 7//4/ 333 10075 20034 70056
AAXX 26184 71110 17/// /1807 11018 21030 30111 40172 56009 69961 7//4/ 333 11012 21130 70006
AAXX 26184 71141 16/// /3315 11277 21304 39998 40025 53005 60001 333 11256 21333 70000
AAXX 26184 71147 16/// /2816 10066 21033 60001 333 10068 20017 70000
AAXX 26184 91753 02470 83208 10259 20234 30057 40089 53011 60022 8497/ 333 10266 20241 69927 82915 84815 87463 90710 91115 555 69905
AAXX 26184 91754 01480 63206 10256 20236 30031 40072 53004 60231 702// 82206 333 60047 82818 86276 555 60005
BBXX 41053 26181 99185 70661 46/// /0706 10265 40159 91750 333 91208
BBXX 41053 26181 99185 70661 46/// /0706 10265 40161 91740 333 91208
AAXX 26184 71726 16/// /2306 11065 21096 39614 40165 56017 60001 333 11065 21131 70003 555 10010
AAXX 26184 71800 17/// /1304 11034 21100 30166 40200 56010 69961 7//4/ 333 11023 21120 70006
AAXX 26184 71807 16/// /1614 11031 21076 30171 40190 58012 60001 333 11028 21095 70000
AAXX 26184 71858 17/// /0214 11085 21102 39751 40032 53055 60021 7//4/ 333 10009 21085 70020
BBXX 42085 26181 99179 70665 46/// /1108 10272 40149 58024 91800 22200 00274 10602 70009 333 91209
AAXX 26184 71719 16/// /2805 11021 21062 30116 40122 53002 60001 333 11021 21114 70035 555 10100
AAXX 26184 71472 17/// /1839 10074 20066 60041 7//4/ 333 10075 20034 70056
AAXX 26184 71930 13974 30000 11014 21109 39223 40161 51015 69903 80001 333 10037 21039 47016 79999 90999
AAXX 26184 71137 16/// /2918 10003 21046 39207 40155 51044 60001 333 10030 21032 70000
AAXX 26184 71915 12974 13609 11301 21342 39859 49943 50020 60001 81070 333 11223 21305 70000
AAXX 26184 71930 13974 30000 11014 21109 39223 40161 51015 69903 80001 333 10037 21039 47016 79999 90999
BBXX 42085 26181 99179 70665 46/// /1108 10271 40151 91750 333 91209
BBXX 42085 26181 99179 70665 46/// /1208 10272 40151 91740 333 91209
BBXX 44150 26181 99425 70640 46/// /0703 10080 40102 57009 22200 00102 10502 70008 333 91205
AAXX 26181 37279 /2494 70000 10061 20050 30184 40331 53009 87900 333 10080
AAXX 26181 37308 126// 80000 10028 20004 39668 40337 52006 69930 8451/ 333 10055
AAXX 26181 37531 325// 82805 10032 21003 39582 40324 52010 885// 333 10062
AAXX 26181 37553 326// 80000 10030 20025 39645 40307 52007 69900 885// 333 10037
AAXX 26181 37651 16/// ///00 10008 20008 3//// 4//// 5//// 60002 333 10019
AAXX 26181 37492 NIL
BBXX SBLW 26183 99213 71083 43/98 63618 10224 40185 51012 22274 00231 2//// 4////
BBXX SGW 26181 99340 71463 43/98 72308 10181 40262 51018 22224 00185 20403 41006
BBXX 44150 26181 99425 70640 46/// /0703 10080 40102 57009 22200 00102 10502 70008 333 91205
BBXX 9V8797 26184 99085 11085 43/96 80236 10244 40118 58009 22213 00245 2//// 4////
BBXX SHJC 26181 99060 10885 43/97 22514 11280 40089 54000 22264 00283 2//// 4////
BBXX SJCD 26181 99538 11769 43/97 20510 11017 40124 56012 22264 00035
AAXX 26184 68399 36/// /1009 10253 20206 30090 40199 52023 333 10328 20253 91045 555 91020
AAXX 26184 68379 36/// /0905 10237 20203 39875 48608 52015 333 10315 20237 91012 555 91020
AAXX 26181 48808 32498 80000 10065 20050 39958 40259 52006 888// 333 59011 83894 88696
AAXX 26181 48830 32798 70000 10096 20065 39920 40239 58006 875// 333 59019 87697
AAXX 26181 48826 32797 80202 10152 20094 30094 40233 58006 885// 333 59010 88697
AAXX 26181 48839 32697 80705 10181 20103 30160 40227 58007 885// 222// 00181 2//// 333 59012 88696
AAXX 26181 40706 12560 50602 10026 21021 38702 40267 52005 60001 83362 333 55004 20532 82630 81935 83067
AAXX 26181 40718 11530 83003 10072 20068 30338 40308 50000 60071 76166 8672/ 333 55000 85720 83625 88557
AAXX 26181 40732 11430 89901 10076 20072 30320 40295 54000 69991 75152 886// 333 55000 88710
AAXX 26181 40745 12460 81404 10017 21007 39105 40282 52013 60001 8572/ 333 55023 20541 85715 88458
AAXX 26181 40754 12660 61204 10084 21014 38857 40215 52007 60001 82430 333 55083 82640 84360
AAXX 26181 40766 12960 32903 10044 21024 38725 40230 52008 60001 83030 333 55074 83359
AAXX 26181 40800 12960 00000 10040 21037 38469 40205 53011 60001 333 55090 2////
AAXX 26181 40811 12960 03202 10154 20047 30187 40214 52014 60001 333 55090 20257
AAXX 26181 40841 12960 03002 10070 21029 38272 40176 52007 60001 333 55093 21441
AAXX 26181 40848 12965 03304 10098 21040 38535 40178 50003 60001 333 55096 21510
AAXX 26181 40856 11957 01702 10042 21135 38649 40170 50006 60001 70500 333 55090 2////
AAXX 26181 40875 11940 10203 10180 20160 30146 40158 51003 60001 71000 81030 333 55087 21348 81360
AAXX 26181 40706 12560 50602 10026 21021 38702 40267 52005 60001 83362 333 55004 20532 82630 81935 83067
AAXX 26181 40718 11530 83003 10072 20068 30338 40308 50000 60071 76166 8672/ 333 55000 85720 83625 88557
AAXX 26181 40732 11430 89901 10076 20072 30320 40295 54000 69991 75152 886// 333 55000 88710
AAXX 26181 40745 12460 81404 10017 21007 39105 40282 52013 60001 8572/ 333 55023 20541 85715 88458
AAXX 26181 40754 12660 61204 10084 21014 38857 40215 52007 60001 82430 333 55083 82640 84360
AAXX 26181 40766 12960 32903 10044 21024 38725 40230 52008 60001 83030 333 55074 83359
AAXX 26181 40800 12960 00000 10040 21037 38469 40205 53011 60001 333 55090 2////
AAXX 26181 40811 12960 03202 10154 20047 30187 40214 52014 60001 333 55090 20257
AAXX 26181 40841 12960 03002 10070 21029 38272 40176 52007 60001 333 55093 21441
AAXX 26181 40848 12965 03304 10098 21040 38535 40178 50003 60001 333 55096 21510
AAXX 26181 40856 11957 01702 10042 21135 38649 40170 50006 60001 70500 333 55090 2////
AAXX 26181 40875 11940 10203 10180 20160 30146 40158 51003 60001 71000 81030 333 55087 21348 81360
BBXX 44255 26181 99473 70573 46/// /1707 10011 40155 57004 22200 00036 10603 70013 333 91209
AAXX 26181 37575 41092 90902 10027 20011 39738 40342 52026 74564 333 10043
AAXX 26181 37675 42495 82902 10018 21004 39636 40314 52006 8802/ 333 10028 555 53004
AAXX 26181 37735 NIL
AAXX 26181 37749 41596 82302 10042 20030 30243 40364 51003 71052 885// 333 10047 555 53002
AAXX 26181 37756 42997 00000 11014 21040 39443 40382 52018 333 10031
AAXX 26181 37864 32997 70000 10029 20004 40322 50002 87070 333 10060
AAXX 26181 37985 41596 83201 10049 20040 30346 40331 52007 40262 885// 333 10060
AAXX 26181 06447 16/// /2305 10096 20083 30242 40369 52007 69922 333 10099 91109 91206
AAXX 26184 04211 45/84 /0714 11170 21230 39736 49902 57005 333 11166 21182
AAXX 26184 04220 07884 70810 11078 21126 39767 49819 57011 69922 70087 333 11075 21138 55300 20004 69917 81/59 83/62 85/63 87/68 91221
AAXX 26184 04221 45884 80923 11083 21193 39787 49825 57015 333 11083 21172 81/58 88/61 91128
AAXX 26184 04231 12889 70713 11042 21138 39757 49829 57002 6///2 85074 333 11039 21157 81358 85362 87070
AAXX 26184 04234 47/07 90811 11067 21086 39801 49811 52020 77288 333 11050 21097 89/05 91136
AAXX 26184 04241 472// 12921 11060 21069 39782 49821 52010 77277 333 11041 21095 81/05 91133
AAXX 26184 04250 07/06 92320 11042 21056 39726 49830 52018 60302 77277 333 11010 21112 55300 20616 60067 89/05 91154 91244
AAXX 26184 04254 47/04 92318 11053 21067 39735 49849 52026 77277 333 11034 21064 89/06 91151 91241
AAXX 26184 04260 47418 72018 11038 21061 39864 49908 52007 77175 333 11037 21074 87/13 91137 91035
AAXX 26184 04270 47/05 90503 11079 21089 39952 49992 54000 77277 333 11079 21135 89/05
AAXX 26184 04272 07718 7//// 11019 21044 39908 49980 54000 60052 77187 333 11018 21102 69977 87/50
AAXX 26184 04312 46/// ///// 11315 21357 30011 40054 52013
AAXX 26184 04320 47/// /3220 11163 21185 39876 49892 52013 771// 333 11155 21170 55300 91142 91040
AAXX 26184 04339 47/56 ///// 11109 21137 39761 49852 52023 78587 333 11093 21132 55300 20000
AAXX 26184 04360 06/// /2927 11121 21199 39844 49917 52037 6///2 333 11115 21149 55300 20000 6///7 91037 91146
AAXX 26184 04361 469// 10607 11116 21223 39866 49920 52047 333 11113 21153 81/73 91127
AAXX 26184 04390 07/09 92115 11028 21049 39913 40007 52020 60072 77177 333 11016 21060 60017 89/10 91127
BBXX 44255 26181 99473 70573 46/// /1707 10011 40155 57004 22200 00036 10603 70013 333 91209
AAXX 26181 06431 36/// /2103 10098 20094 30349 40361 53007 60002 333 10102 91107 91204
AAXX 26184 85223 31570 50204 10227 20115 37530 47176 57017 70411 84230 333 56000 59008 83827 81830 83357
AAXX 26184 85283 32584 20212 10203 20112 37225 47162 57014 82100 333 56100 59005 82820
AAXX 26184 85293 32584 40610 10153 20054 36380 57012 84500 333 56600 5//// 84620
AAXX 26184 85312 32684 41505 10280 20177 38800 57020 84100 333 56000 59030 84836
AAXX 26184 85345 32584 20000 10312 20185 39658 40112 57036 82100 333 56000 5//// 82825
AAXX 26184 85364 32570 21706 10268 20171 38152 48224 57024 82300 333 56000 59022 81833 81936
AAXX 26184 85365 32584 33604 10300 20271 39392 40097 57031 83500 333 56100 59048 83625
AAXX 26184 85394 32584 83604 10282 20224 39700 40129 57027 8253/ 333 56009 5//// 82623 88357
AAXX 26183 91551 31598 60000 10262 20252 40052 53001 70211 86900 333 563// 84820 82925= 20/96 91553 NIL
AAXX 26183 91554 11598 80000 10247 20237 40046 53004 69921 70228 888// 333 569// 69921 83820 88640=90/20 91555 11598 70000 10259 20253 40044 53003 69961 7029/ 878// 333 569// 69981 83820 87640= 20/97 91557 11598 79902 10250 20238 40022 53006 60061 72522 8497/ 333 5699/ 60061 84820 81925 87461
AAXX 26183 91565 11598 72603 10260 20250 40062 53002 60041 70288 878// 333 566// 60041 82820 87640=2.0 92/30 91568 11598 72608 10274 20247 40032 64000 60041 72588 85800 333 566// 60041 83825 87640= 0.2 85/40
AAXX 26183 91551 31598 60000 10262 20252 40052 53001 70211 86900 333 563// 84820 82925= 20/96 91553 NIL
AAXX 26183 91554 11598 80000 10247 20237 40046 53004 69921 70228 888// 333 569// 69921 83820 88640=90/20 91555 11598 70000 10259 20253 40044 53003 69961 7029/ 878// 333 569// 69981 83820 87640= 20/97 91557 11598 79902 10250 20238 40022 53006 60061 72522 8497/ 333 5699/ 60061 84820 81925 87461
AAXX 26183 91565 11598 72603 10260 20250 40062 53002 60041 70288 878// 333 566// 60041 82820 87640=2.0 92/30 91568 11598 72608 10274 20247 40032 64000 60041 72588 85800 333 566// 60041 83825 87640= 0.2 85/40
AAXX 26181 50136 11968 72001 11311 21349 39730 40337 57004 69951 77070 80002 333 11265
AAXX 26181 50745 32965 01603 11169 21249 30124 40325 57010 333 11141
AAXX 26181 50774 32960 03401 11267 21288 30013 40351 54000 333 11148
AAXX 26181 50788 32970 02507 11207 21234 30220 40314 52006 333 11139
AAXX 26181 51133 32980 20402 11090 21151 39589 40265 52005 80002 333 00102 11011
AAXX 26181 51431 32980 00401 11099 21135 39439 40272 57007 333 00302 10013
AAXX 26181 51747 32970 00000 11217 21248 38996 40391 52003 333 00001 11066
AAXX 26181 52203 32980 00401 11154 21195 39422 40367 52001 333 00153 11048
AAXX 26181 52418 32980 01801 11157 21196 38948 40359 57004 333 00051 11021
AAXX 26181 52681 32980 02201 11115 21175 38685 40333 57004 333 05200 11025
AAXX 26181 53564 32975 80000 11062 21115 39268 40339 57005 8802/ 333 05408 11042
AAXX 26181 53614 32962 62001 11077 21117 38969 40323 57001 80002 333 05301 11018
AAXX 26181 53646 32970 71403 11043 21113 38913 40305 57007 80002 333 05407 11011
AAXX 26181 53798 32960 70000 11015 21080 30240 40341 57007 80002 333 10036
AAXX 26181 53845 32965 80901 11021 21090 39151 40308 57002 8807/ 333 05303 10029
AAXX 26181 53959 32960 72903 10031 21098 39856 40307 57001 8703/ 333 10077
AAXX 26181 54094 32960 01801 11250 21298 30046 40379 52004 333 11141
AAXX 26181 54102 32980 01802 11221 21245 39085 40372 57007 333 11100
AAXX 26181 54161 32960 01601 11157 21225 30035 40353 57006 333 11111
AAXX 26181 54292 32965 02701 11184 21272 30019 40368 57002 333 11125
AAXX 26181 54374 32962 03602 11233 21268 39904 40419 52005 333 11136
AAXX 26181 54423 32970 03401 11127 21170 39816 40364 57006 333 11022
AAXX 26181 54618 32962 71401 11010 21104 30320 40338 57005 8703/ 333 10052
AAXX 26181 54843 32970 00000 11019 21061 30329 40358 57002 333 10041
AAXX 26181 54909 32963 50901 11007 21041 30275 40341 52001 80002 333 10048
AAXX 26181 56029 11680 82701 11056 21077 36457 52005 69931 70080 885// 333 00000 10036
AAXX 26181 57127 32960 80401 10064 21008 39664 40281 52002 8807/ 333 10095
AAXX 26181 57131 32962 73601 11010 21045 39810 40323 57001 8703/ 333 10050
AAXX 26180 44214 32998 01201 11206 21264 38287 40435 58001
AAXX 26180 44231 319// 00000 11254 21300 38759 40479 52002 70400
AAXX 26180 44259 32997 02804 11163 21201 39339 40304 53002 333 91111
AAXX 26180 44277 329// 12302 11219 21276 37800 40488 58005 80004
AAXX 26180 44288 32999 02803 11118 21235 38166 40348 58001
AAXX 26180 44292 32999 01101 11226 21251 38730 40410 58001
AAXX 26180 44304 329// 20000 11261 21292 39026 40393 58004 82040
AAXX 26180 44354 329// 00000 11220 21245 39150 40378 58004
AAXX 26180 44373 32999 32901 11174 21225 38556 40373 58001 81044
AAXX 26184 48300 31657 20000 10198 20168 39848 40167 57000 71000 82500 333 58008
AAXX 26184 48327 32560 60000 10205 20129 39820 40182 57003 84535 333 59003
AAXX 26184 48331 31957 00000 10155 20139 39958 40198 52000 71000 333 58001
AAXX 26184 48353 31920 00000 10124 20105 39895 40200 57000 71000 333 59012
AAXX 26184 48356 31940 00902 10150 20116 39993 40198 56011 71000 333 59014
AAXX 26184 48375 31957 00000 10180 20126 39925 40157 57004 71000 333 58001
AAXX 26184 48378 31550 30000 10173 20140 30128 40183 56000 71011 82505 333 58013
AAXX 26184 48381 31957 20205 10169 20105 39964 40189 57001 71000 80005 333 59014
AAXX 26184 48407 31958 30205 10173 20134 30022 40168 57004 71021 80001 333 59009
AAXX 26184 48431 32960 20303 10174 20123 39960 40181 57005 80005 333 59014
AAXX 26184 48456 NIL
AAXX 26184 48480 31957 10604 10230 20143 30135 40139 57010 70500 80001 333 59006
AAXX 26184 48500 31940 33508 10228 20143 30133 40140 57011 70511 80005 333 58009
AAXX 26184 48551 31440 80205 10255 20225 30120 40128 57004 71022 84877 333 58008
AAXX 26184 48565 32560 60912 10265 20220 30098 40108 52001 82246 333 58015
AAXX 26184 48569 31557 60000 10248 20207 30088 40129 57004 71022 82876 333 58003
AAXX 26184 48583 NIL
AAXX 26184 48310 31956 00000 10145 20134 39707 40180 57021 71000 333 58010
AAXX 26184 48325 31650 80000 10193 20159 39913 40162 57006 71022 83556 333 59001
AAXX 26184 48329 31550 62902 10191 20150 39842 40189 57002 71022 82545 333 58008
AAXX 26184 48352 31930 00000 10151 20103 39990 40200 57005 71000 333 59008
AAXX 26184 48357 31950 20000 10144 20122 30018 40195 57011 71000 80001 333 59017
AAXX 26184 48380 31956 00000 10174 20157 30082 40179 56004 71000 333 59001
AAXX 26184 48383 31957 00501 10155 20118 30022 40189 56009 71000 333 59009
AAXX 26184 48403 31950 00702 10180 20099 39964 40181 57004 70500 333 59017
AAXX 26184 48405 31958 20406 10165 20123 30017 40186 57001 71000 80005 333 59010
AAXX 26184 48420 31940 50204 10208 20161 30145 40149 57011 71011 80006 333 59009
AAXX 26184 48421 31950 00000 10180 20154 30044 40161 57006 71000 333 58002
AAXX 26184 48425 31930 00000 10195 20151 30159 40169 57009 71000 333 59001
AAXX 26184 48426 31957 00202 10211 20124 30150 40163 57011 70500 333 59009
AAXX 26184 48429 31956 40508 10212 20153 30144 40151 57013 71011 80005 333 59008
AAXX 26184 48430 31958 20000 10212 20125 30148 40155 57010 70500 80002 333 59007
AAXX 26184 48450 31956 00000 10212 20130 30131 40165 57005 70500 333 59001
AAXX 26184 48459 32960 00502 10215 20155 30143 40146 57010 333 59011
AAXX 26184 48465 31958 33606 10218 20151 30147 40152 57005 71011 80005 333 59002
AAXX 26184 48550 31558 70407 10254 20218 30122 40129 57005 71022 82146 333 58007 70013
AAXX 26184 48552 31456 80000 10242 20230 30127 40133 57006 71022 83807 333 58012 70022
AAXX 26184 48566 32560 30910 10264 20221 30091 40099 57007 82145 333 59001
AAXX 26184 48568 31458 80404 10263 20228 30117 40125 57004 71022 8387/ 333 58007 70002
AAXX 26184 61974 11460 71204 10256 20242 40110 60272 72582 86946 333 10326 55089 59002 81915 84816 83650 86275
AAXX 26184 61986 11458 70909 10253 20240 40127 69922 78022 86840 333 10325 59004 85817 83650
AAXX 26184 61988 12470 31309 10247 20211 40156 60002 83200 333 10290 55107 58000 83818 91123
AAXX 26184 61989 NIL
AAXX 26184 61990 11465 71106 10265 20213 40156 60002 71522 87800 333 10286 55035 59006 85817 83650
AAXX 26184 61995 11465 61306 10223 20203 39671 69902 71522 86840 333 10264 55053 59006 83817 84650
AAXX 26184 48302 NIL
AAXX 26184 48304 31556 60000 10150 20139 39721 40198 56001 71020 85550 333 58004
AAXX 26184 48334 31556 50000 10170 20153 39820 40194 52003 71000 83555 333 58014
AAXX 26184 48360 31957 02504 10127 20095 39923 40196 57002 71000 333 59008
AAXX 26184 48372 31956 20000 10176 20166 30118 40178 57010 71000 80001 333 59001
AAXX 26184 48373 31930 20000 10170 20161 30114 40179 57004 71000 80005 333 58002
AAXX 26184 48386 31920 00000 10189 20164 30125 40170 57004 71000 333 58009
AAXX 26184 48387 31935 00805 10139 20100 39194 40179 57002 71000 333 59006
AAXX 26184 48408 31957 20206 10169 20135 30014 40169 57005 71000 80001 333 59010
AAXX 26184 48415 31950 20509 10212 20130 30147 40159 56011 70500 80001 333 59009
AAXX 26184 48433 31950 20103 10174 20135 30006 40178 57003 71000 80005 333 59014
AAXX 26184 48437 31957 00303 10168 20124 39963 40181 57002 71000 333 59012
AAXX 26184 48440 31956 00000 10180 20163 30106 40157 57007 71000 333 59005
AAXX 26184 48451 31959 00000 10180 20163 30152 40164 57009 71000 333 59002
AAXX 26184 48454 NIL
AAXX 26184 48457 NIL
AAXX 26184 48463 NIL
AAXX 26184 48464 31950 03203 10195 20153 30136 40149 57005 71000 333 58008
AAXX 26184 48479 31940 00303 10218 20147 30095 40148 57008 70500 333 59001
AAXX 26184 48520 31956 40000 10215 20204 30122 40138 57001 71011 80005 333 58010
AAXX 26184 48554 31558 80000 10243 20236 30130 40134 57003 71022 82547 333 58016 70019
AAXX 26184 48563 31558 40506 10245 20213 30076 40112 57008 71011 82145 333 58008
AAXX 26184 48571 32560 61003 10259 20226 30110 40122 57004 82246 333 58011
AAXX 26184 48307 31550 50000 10142 20131 39805 40202 57002 71000 82256 333 58010
AAXX 26184 48324 32560 20000 10149 20133 39956 40185 55003 81105 333 58004
AAXX 26184 48333 31940 00000 10155 20128 39884 40198 57000 71000 333 59002
AAXX 26184 48350 31920 00000 10110 20106 39885 40202 57002 71000 333 59005
AAXX 26184 48355 31930 00000 10130 20115 39965 40196 56005 71000 333 59008
AAXX 26184 48358 31956 00000 10125 20115 30015 40201 57009 71000 333 59016
AAXX 26184 48384 31950 00000 10152 20125 39992 40191 56002 71000 333 59010
AAXX 26184 48401 31958 20000 10190 20143 30068 40179 57005 71000 80005 333 59003
AAXX 26184 48404 31956 00506 10165 20129 39998 40183 57005 71000 333 59003
AAXX 26184 48409 31958 10102 10172 20140 30019 40173 57005 71000 80001 333 59010
AAXX 26184 48419 31959 40108 10222 20144 30146 40154 56012 70511 80005 333 58003
AAXX 26184 48427 NIL
AAXX 26184 48435 31957 11110 10181 20095 39726 40175 58008 70500 80001 333 59009
AAXX 26184 48453 31957 40103 10227 20161 30147 40150 57011 71011 80005 333 59009
AAXX 26184 48458 31958 00502 10192 20140 30089 40172 57003 71000 333 59006
AAXX 26184 48474 31956 40000 10208 20150 30027 40153 57010 71011 80006 333 59002
AAXX 26184 48481 31958 11603 10216 20156 30115 40144 57009 71000 80001 333 58001
AAXX 26184 48555 31550 60000 10253 20219 30109 40151 55005 71022 85506 333 58011
AAXX 26184 48556 32560 60000 10247 20237 30107 40124 57005 82806 333 58015
AAXX 26184 48557 31558 60000 10240 20231 30078 40113 57011 71022 84806 333 59001
AAXX 26184 48560 31457 80000 10257 20238 30120 40125 56009 71022 82876 333 58017 70060
AAXX 26184 48574 32560 60000 10250 20235 30078 40107 57018 82106 333 59005
AAXX 26184 48581 NIL
AAXX 26181 44214 32998 01201 11206 21264 38287 40435 58001
AAXX 26181 44231 319// 00000 11254 21300 38759 40479 52002 70400
AAXX 26181 44259 32997 02804 11163 21201 39339 40304 53002 333 91111
AAXX 26181 44277 329// 12302 11219 21276 37800 40488 58005 80004
AAXX 26181 44288 32999 02803 11118 21235 38166 40348 58001
AAXX 26181 44292 32999 01101 11226 21251 38730 40410 58001
AAXX 26181 44304 329// 20000 11261 21292 39026 40393 58004 82040
AAXX 26181 44354 329// 00000 11220 21245 39150 40378 58004
AAXX 26181 44373 32999 32901 11174 21225 38556 40373 58001 81044
OOXX AAUNI 26184 99798 50833 56093 07671 46/// /2213 11009 21085 38908 49765 52014 91800
AAXX 26184 47407 11/60 71403 11063 21081 39970 40150 51008 69901 78582 872//
AAXX 26184 47409 11/60 82912 11026 21079 30056 40111 53017 60031 78588 883//
AAXX 26184 47418 12980 03410 11042 21106 30068 40119 51016 60001
AAXX 26184 47421 17/70 /3313 11003 21055 30122 40166 50010 69901 72470
AAXX 26184 47430 12/75 13304 11062 21083 30112 40169 52012 60001 81130
AAXX 26184 47570 17/70 /0901 11030 21050 39956 40227 53006 69951 70070
AAXX 26184 47575 11/50 82308 11005 21013 30173 40178 51012 60021 78582 883//
AAXX 26184 47584 11/65 51303 11032 21063 39992 40190 53009 69901 70381 85300
AAXX 26184 47604 11/65 62910 10025 21038 30223 40232 53009 69951 72682 86200
AAXX 26184 47605 11/50 82805 10008 21016 30232 40275 53014 60031 78582 882//
AAXX 26184 47610 11/70 70302 11034 21045 39726 40254 53007 69901 78582 86202
AAXX 26184 47624 12980 03203 11019 21055 30086 40232 53009 60001
AAXX 26184 47629 12980 02502 11025 21067 30178 40218 52005 60001
AAXX 26184 47636 12/65 20403 11006 21019 30189 40261 51009 60001 82200
AAXX 26184 47651 13/// /2811 10022 21041 30244 40267 53013 60001
AAXX 26184 47655 15/70 /2815 10014 21036 30178 40237 50004 60001
AAXX 26184 47675 17/70 /1105 10045 20007 30120 40214 53006 69901 76760
AAXX 26184 47741 11/65 73006 10030 21017 30268 40297 51013 60021 72682 872//
AAXX 26184 47746 11/70 71104 10016 21015 30268 40288 53011 69901 70382 872//
AAXX 26184 47750 11/65 73502 10008 21002 30254 40283 51013 60011 78582 872//
AAXX 26184 47765 11/70 70107 10014 21025 30241 40310 51013 69901 78511 872//
AAXX 26184 47772 12/70 23302 10025 21024 30180 40285 53012 60001 82131
AAXX 26184 47800 15/84 /3404 10014 21064 30317 40322 50000 60001
AAXX 26184 47815 12/75 31404 10019 21059 30302 40319 52009 60001 82501
AAXX 26184 47817 12980 70802 10011 21037 30273 40319 58003 60001 80002
AAXX 26184 47830 12/80 23004 11001 21033 30286 40305 50001 60001 81101
AAXX 26184 47887 12/75 71004 10021 21055 30264 40308 53007 60001 86202
AAXX 26184 47891 12/70 12706 10029 21041 30279 40297 52012 60001 81100
AAXX 26184 47895 12/80 22911 10029 21052 30280 40288 53007 60001 82101
AAXX 26184 47927 11/75 20514 10176 20095 30208 40258 58010 69901 70281 82200
AAXX 26184 47401 11/50 73312 11029 21074 30122 40137 52008 69901 78582 872//
AAXX 26184 47412 11/08 83308 11017 21030 30121 40154 51011 60021 78682 883//
AAXX 26184 47420 17/70 /3223 11015 21066 30060 40094 51021 69951 70070
AAXX 26184 47426 15/70 /3012 11024 21059 30088 40137 52021 60001
AAXX 26184 47582 11/60 72714 10018 21041 30173 40201 53009 60011 72682 873//
AAXX 26184 47590 11/70 22811 10009 21071 30138 40193 53005 69901 70281 82200
AAXX 26184 47600 17/70 /3313 10019 21050 30256 40265 53007 60021 77176
AAXX 26184 47648 12/80 12811 10018 21070 30183 40219 50007 60001 81200
AAXX 26184 47662 12980 03305 10023 21096 30180 40226 52008 60001
AAXX 26184 47678 17/70 /3111 10071 21011 30034 40226 50004 69901 70060
AAXX 26184 47740 17/83 /2706 10022 21054 30258 40294 53012 69901 70087
AAXX 26184 47778 15/70 /3308 10040 21026 30186 40273 53008 60001
AAXX 26184 47807 12/70 71305 10016 21045 30299 40318 50002 60001 82101
AAXX 26184 47827 12/82 73308 10027 21054 30264 40304 58006 60001 81102
AAXX 26184 47843 15/82 /2103 10041 21009 30287 40321 53003 60001
AAXX 26184 47893 12/65 22804 10002 21050 30290 40296 51009 60001 81201
AAXX 26184 47909 11/65 63408 10140 20059 30267 40277 58007 69901 70282 86200
AAXX 26184 47918 12/70 20512 10179 20101 30231 40249 58007 60001 82800
AAXX 26184 47936 12/80 10307 10146 20086 30208 40268 56006 60001 81130
AAXX 26184 47945 11/65 20208 10167 20079 30227 40252 56007 69901 70281 82800
AAXX 26184 47971 11/70 60209 10173 20102 30203 40213 55003 69901 70281 82230
AAXX 26184 47991 16/// /3507 10233 20182 30156 40166 56010 69901
AAXX 26184 40100 12560 50802 10139 20069 30233 40265 51009 60001 85200 918// 333 10185 85826 92427
AAXX 26184 40101 12560 20000 10049 21001 39171 48553 51011 60001 82400 918// 333 10101 82630
AAXX 26184 40103 32560 42002 10109 20066 40270 51009 84800 333 10166 82824 83640 555 10176
AAXX 26184 40102 NIL
AAXX 26181 40703 11415 80000 10002 21006 38990 40292 57016 60061 77377 8662/ 333 55000 83715 83635 88557
AAXX 26181 40712 11640 83403 10028 20003 38726 40257 52007 60001 71022 8532/ 333 55008 21276 82935 84640 88459
AAXX 26181 40729 12660 40000 11004 21015 38374 40259 51001 60001 83470 333 55024 20715 83635 83358
AAXX 26181 40736 11558 80000 10086 20073 30318 40292 50002 60041 75165 8462/ 333 55000 84720 88458
AAXX 26181 40739 12665 30000 10022 21035 38734 40256 51008 60001 83500 333 55066 83635
AAXX 26181 40743 12665 21503 10050 21018 39118 40258 51013 60001 82400 333 55047 82635
AAXX 26181 40762 12662 21003 10008 21041 38584 40233 51017 60001 82400 333 55042 82640
AAXX 26181 40768 12665 20000 11018 21083 38286 40248 51010 60001 82400 333 55089 21215 82640
AAXX 26181 40769 12960 00000 10020 21036 38326 40233 53006 60001 333 55075 21082
AAXX 26181 40785 12960 00000 10066 21015 39119 40223 51006 60001 333 55084
AAXX 26181 40809 12960 00603 10052 21101 38522 40189 50004 60001 333 55081 21231
AAXX 26181 40821 12960 02403 10076 21033 38820 40222 52008 60001 333 55093 21244
AAXX 26181 40831 12960 03003 10128 20065 30214 40222 51007 60001 333 55091
AAXX 26181 40703 11415 80000 10002 21006 38990 40292 57016 60061 77377 8662/ 333 55000 83715 83635 88557
AAXX 26181 40712 11640 83403 10028 20003 38726 40257 52007 60001 71022 8532/ 333 55008 21276 82935 84640 88459
AAXX 26181 40729 12660 40000 11004 21015 38374 40259 51001 60001 83470 333 55024 20715 83635 83358
AAXX 26181 40736 11558 80000 10086 20073 30318 40292 50002 60041 75165 8462/ 333 55000 84720 88458
AAXX 26181 40739 12665 30000 10022 21035 38734 40256 51008 60001 83500 333 55066 83635
AAXX 26181 40743 12665 21503 10050 21018 39118 40258 51013 60001 82400 333 55047 82635
AAXX 26181 40762 12662 21003 10008 21041 38584 40233 51017 60001 82400 333 55042 82640
AAXX 26181 40768 12665 20000 11018 21083 38286 40248 51010 60001 82400 333 55089 21215 82640
AAXX 26181 40769 12960 00000 10020 21036 38326 40233 53006 60001 333 55075 21082
AAXX 26181 40785 12960 00000 10066 21015 39119 40223 51006 60001 333 55084
AAXX 26181 40809 12960 00603 10052 21101 38522 40189 50004 60001 333 55081 21231
AAXX 26181 40821 12960 02403 10076 21033 38820 40222 52008 60001 333 55093 21244
AAXX 26181 40831 12960 03003 10128 20065 30214 40222 51007 60001 333 55091
AAXX 26180 44203 329// 20000 11333 21356 38451 40544 51003 80001
AAXX 26180 44207 329// 02702 11298 21335 38330 40482 54000
AAXX 26180 44212 32999 70000 11310 21340 39228 40522 56005 87070
AAXX 26180 44213 32999 00000 11333 21366 38850 40549 57002
AAXX 26180 44215 32998 00000 11290 21313 38441 40495 52002
AAXX 26180 44218 329// 01901 11277 21308 38644 40477 58001
AAXX 26180 44225 329// 00000 11388 21411 38312 40636 56002
AAXX 26180 44230 329// 00103 11231 21263 38827 40452 52002
AAXX 26180 44232 329// 00000 11268 21293 39157 40424 54003
AAXX 26180 44237 32999 01802 11190 21239 38498 40370 58006
AAXX 26180 44239 329// 03402 11208 21248 38817 40369 56001 555 99601
AAXX 26180 44241 329// 01803 11264 21288 39295 40387 53002
AAXX 26180 44256 32999 00000 11251 21269 39381 40328 51001
AAXX 26180 44265 329// 00000 11224 21256 38885 40412 58001
AAXX 26180 44272 329// 00000 11237 21292 38233 40416 58001
AAXX 26180 44275 32998 00000 11279 21290 37730 40503 58002
AAXX 26180 44282 32999 00000 11136 21258 38303 40340 58002
AAXX 26180 44284 32999 00000 11290 21321 37863 40582 54000
AAXX 26180 44285 32999 00000 11267 21297 38331 40470 58001
AAXX 26180 44287 32999 00304 11170 21249 38129 40414 58003
AAXX 26180 44294 329// 03604 11291 21321 38580 40481 57005
AAXX 26180 44298 329// 03202 11202 21208 38736 40368 57002
AAXX 26180 44302 329// 22707 11179 21216 39135 40336 58007 82040
AAXX 26180 44305 32999 02905 11207 21233 39086 40344 58006
AAXX 26180 44313 32999 01807 11172 21222 39439 40341 56003
AAXX 26180 44314 32998 02705 11159 21193 39162 40321 57013
AAXX 26180 44317 32998 02303 11156 21198 38974 40328 57004
AAXX 26180 44336 329// 00000 11245 21268 38713 40445 58002
AAXX 26180 44341 329// 00000 11212 21237 38620 40411 56004
AAXX 26180 44347 32999 00000 11177 21227 38737 40372 58002
AAXX 26180 44352 32999 00000 11199 21218 38951 40358 58001
AAXX 26180 44358 329// 00000 11230 21242 39141 40408 50001
AAXX 26181 01415 17450 82009 10101 20079 30086 40097 58004 6//// 700// 333 10106 91113
AAXX 26181 08501 12/// /2111 10191 20158 30104 40140 52011 60172 333 10192 91020 91120
AAXX 26181 08505 12465 81908 10184 20156 30162 40211 53002 60022 8784/ 333 10184 82812 86640
AAXX 26181 08509 32460 81511 10174 20155 30165 40230 52015 888// 333 10162 83810 85815
AAXX 26181 08512 32480 71708 10171 20121 30166 40250 52005 878// 333 10182 82818 86635 91112
AAXX 26181 08515 32584 71707 10174 20107 30139 40261 55000 87801 333 10189 81825 87642 910// 911//
AAXX 26181 08533 32/// /1208 10158 20083 30265 40294 52005 333 10170 91012 91112
AAXX 26181 08541 NIL
AAXX 26181 08545 31159 13601 10093 20038 30241 40326 52005 71000 81600 333 10160 81702
AAXX 26181 08548 32/// /0801 10118 20041 30113 40321 52004 333 10150
AAXX 26181 08554 32970 00703 10149 20066 30291 40301 52009 333 10177 91108
AAXX 26181 08558 32/// /0503 10094 20040 30012 40312 52005 333 10152
AAXX 26181 08560 32/// /1101 10103 20005 39558 40324 52005 333 10149
AAXX 26181 08567 32/// /0401 10066 20024 39660 40341 52003 333 10106
AAXX 26181 08570 31975 10902 10079 20031 39862 40332 53003 70200 80001 333 10120 81099
AAXX 26181 08575 32/// /0000 10077 21009 39510 40336 52002 333 10116
AAXX 26181 08579 32/// /2403 10132 20057 30183 40310 52003 333 10149
AAXX 26184 65501 32960 70000 10226 20026 39805 40121 80002 333 10310 59008 87076
AAXX 26184 65502 32960 70000 10286 21002 39734 40113 80002 333 10322 58001 87076
AAXX 26184 65503 31958 70204 10289 20038 39767 40112 70611 80002 333 10331 59002 87076
AAXX 26184 65505 32965 50404 10298 20030 39767 40105 80002 333 10340 59006 85076
AAXX 26184 65507 32960 70402 10292 20057 39756 40105 80002 333 10340 59008 87076
AAXX 26184 65510 31956 60204 10300 20043 39589 40102 70622 80002 333 10332 59001 86076
AAXX 26184 65516 32965 50000 10308 20015 39795 40102 80002 333 10345 59004 85076
AAXX 26184 65518 32965 73602 10280 20068 39729 40093 80002 333 10344 59010 87076
AAXX 26184 65522 32960 70000 10313 20060 39772 40101 81032 333 10344 58001 81363 87076
AAXX 26181 14008 11999 92810 11028 21032 37607 47170 53006 60002 74722 333 11022 49095 92838 95190
AAXX 26181 44203 329// 20000 11333 21356 38451 40544 51003 80001
AAXX 26181 44207 329// 02702 11298 21335 38330 40482 54000
AAXX 26181 44212 32999 70000 11310 21340 39228 40522 56005 87070
AAXX 26181 44213 32999 00000 11333 21366 38850 40549 57002
AAXX 26181 44215 32998 00000 11290 21313 38441 40495 52002
AAXX 26181 44218 329// 01901 11277 21308 38644 40477 58001
AAXX 26181 44225 329// 00000 11388 21411 38312 40636 56002
AAXX 26181 44230 329// 00103 11231 21263 38827 40452 52002
AAXX 26181 44232 329// 00000 11268 21293 39157 40424 54003
AAXX 26181 44237 32999 01802 11190 21239 38498 40370 58006
AAXX 26181 44239 329// 03402 11208 21248 38817 40369 56001 555 99601
AAXX 26181 44241 329// 01803 11264 21288 39295 40387 53002
AAXX 26181 44256 32999 00000 11251 21269 39381 40328 51001
AAXX 26181 44265 329// 00000 11224 21256 38885 40412 58001
AAXX 26181 44272 329// 00000 11237 21292 38233 40416 58001
AAXX 26181 44275 32998 00000 11279 21290 37730 40503 58002
AAXX 26181 44282 32999 00000 11136 21258 38303 40340 58002
AAXX 26181 44284 32999 00000 11290 21321 37863 40582 54000
AAXX 26181 44285 32999 00000 11267 21297 38331 40470 58001
AAXX 26181 44287 32999 00304 11170 21249 38129 40414 58003
AAXX 26181 44294 329// 03604 11291 21321 38580 40481 57005
AAXX 26181 44298 329// 03202 11202 21208 38736 40368 57002
AAXX 26181 44302 329// 22707 11179 21216 39135 40336 58007 82040
AAXX 26181 44305 32999 02905 11207 21233 39086 40344 58006
AAXX 26181 44313 32999 01807 11172 21222 39439 40341 56003
AAXX 26181 44314 32998 02705 11159 21193 39162 40321 57013
AAXX 26181 44317 32998 02303 11156 21198 38974 40328 57004
AAXX 26181 44336 329// 00000 11245 21268 38713 40445 58002
AAXX 26181 44341 329// 00000 11212 21237 38620 40411 56004
AAXX 26181 44347 32999 00000 11177 21227 38737 40372 58002
AAXX 26181 44352 32999 00000 11199 21218 38951 40358 58001
AAXX 26181 44358 329// 00000 11230 21242 39141 40408 50001
AAXX 26183 87007 32577 40202 10227 21043 36748 47147 58023 82923 333 56855 57923 81826 81943
AAXX 26183 87148 32470 30905 10306 20212 30021 40127 57023 83100 333 56000 83815
AAXX 26184 40405 42960 00204 10140 20040 39491 40242 333 10210 58051 55///
AAXX 26184 88883 46/// /2521 10128 20056 40136 52005
AAXX 26184 87022 NIL
AAXX 26184 87046 32562 50504 10263 20164 39114 48506 57020 83170 333 56490 83825 84360
AAXX 26184 87047 32565 63606 10243 20155 38805 48523 57015 86200 333 56200 57891 84820 84630
AAXX 26184 87097 32570 83607 20264 20212 39844 40153 57016 8357/ 333 56009 83630 88360
AAXX 26184 87121 32665 20905 10295 20174 39610 40113 57023 82100 333 56800 82840
AAXX 26184 87129 32665 40504 10314 20154 39897 40126 57030 83170 333 83840
AAXX 26184 87155 32565 50702 10301 20192 30078 40138 58017 84506 333 56605 84620 83270
AAXX 26184 87162 32570 53203 10325 20214 30058 40127 57024 84802 333 56304 84830
AAXX 26184 87166 32560 52906 10299 20207 30065 40137 57017 84802 333 56506 83825
AAXX 26184 87178 32670 50505 10321 20204 39988 40131 57023 85200 333 56200 57832 85840
AAXX 26184 87217 32970 62306 10336 20166 39610 40086 57029 80002 333 56000 86070
AAXX 26184 87222 32970 30209 10338 20135 39570 40073 57027 80006 333 56005 83270
AAXX 26184 87257 32565 50903 10312 20178 30037 40138 57024 83508 333 56706 83625 84270
AAXX 26184 87270 42565 71104 10282 20172 30085 40146 57019 81106 333 56306 81820 87270
AAXX 26184 87289 32562 41609 10290 20203 30065 40147 57021 84405 333 56506 84620
AAXX 26184 87311 32965 21812 10344 20069 39426 40077 57020 80005 333 56000 82270
AAXX 26184 87320 NIL
AAXX 26184 87328 32780 11406 10337 20127 39470 40102 57031 81100 333 56000 81850 95000
AAXX 26181 40701 11520 80000 10000 26005 38657 40294 52015 60041 77177 8662/ 333 55000 84720 84635 88557
AAXX 26181 40704 11658 71203 10000 21005 38677 40289 51011 69901 71072 84570 333 55000 20208 84640 87458
AAXX 26181 40708 11556 70604 11006 21012 38729 40289 52005 69931 71072 85620 333 55000 20167 85720 85458
AAXX 26181 40710 11665 51003 11012 21039 38360 40275 51006 69901 70171 83570 333 55002 83635 84457
AAXX 26181 40713 11560 61105 10026 21004 38705 40244 52008 60001 70286 85330 333 55021 82930 83635 84460
AAXX 26181 40719 11340 82703 10064 20060 30319 40308 50001 60031 72166 8662/ 333 55000 86708 88457
AAXX 26181 40731 12660 52701 10023 21017 38770 40236 51003 60001 81430 333 55071 21031 81640 85360
AAXX 26181 40738 11218 80000 10066 20062 30309 40311 58002 69961 75052 8662/ 333 55000 2//// 86705 88450
AAXX 26181 40740 12560 82702 10000 21003 38782 40261 52010 60001 8571/ 333 55000 85731 88460
AAXX 26181 40747 11660 60000 10052 21007 38660 40222 51013 69901 72582 86300 333 55055 20917 82935 84640
AAXX 26181 40757 12665 53601 10074 21003 38940 40230 51007 60001 81552 333 55076 21066 81635 83360
AAXX 26181 40763 12960 03605 10076 21026 38948 40224 51027 60001 333
AAXX 26181 40782 12960 00000 10026 21016 38910 40244 51008 60001 333 55080
AAXX 26181 40783 12968 01203 11002 21088 38005 40235 51006 60001 333 55092
AAXX 26181 40789 12965 00000 10050 21039 39246 40235 53001 60001 333 55085 20882
AAXX 26181 40798 12960 00000 11024 21100 37978 40224 51009 60001 333 55091 21314
AAXX 26181 40818 12970 00000 10012 21069 37992 40203 53011 60001 333 55093
AAXX 26181 40827 12965 00000 10070 21093 38854 40224 53018 60001 333 55086
AAXX 26181 40836 12965 01102 10040 21038 38213 40208 52005 60001 333 55094 21447
AAXX 26181 40851 12960 00000 10040 21076 38271 40170 51002 60001 333 55084
AAXX 26181 40853 12960 00000 10042 21164 37761 40167 53004 60001 333 55095
AAXX 26181 40854 12960 02702 10120 21026 38977 40162 52009 60001 333 55085
AAXX 26181 40857 12960 03509 10196 20108 30189 40198 52008 60001 222// 00/// 20403 333 55083
AAXX 26181 40859 12960 00203 10064 21114 38722 40167 52014 60001 333 55092
AAXX 26181 40878 12962 00000 10156 21018 38850 40171 51011 60001 333 55095
AAXX 26181 40879 12960 00000 10139 21013 39497 40178 52014 60001 333 55096
AAXX 26181 40883 11950 00000 10202 20169 30136 40159 51006 60001 71000 333 55089
AAXX 26181 40898 11956 02703 10228 20197 30128 40137 50004 60001 71000 222// 00236 10500 333 55084 2////
AAXX 26184 03896 16/// ///// 10094 60002 333 10113
AAXX 26184 70133 32766 80605 11211 21250 30088 40093 58008 91753 333 11200 21261 555 92618
AAXX 26184 70174 11548 80000 11211 21239 39829 40088 57006 69951 771// 91753 333 11200 21283 4/071 96010 555 92618
AAXX 26184 70200 32666 23605 11261 21294 30052 40058 58008 91753 333 11233 21294 555 92618
AAXX 26184 70219 11758 80000 11233 21261 39975 40034 58008 69931 771// 91753 333 11228 21261 4/003 555 92618
AAXX 26184 70231 32966 03303 11350 39898 40037 58017 91753 333 11233 21361 4/097 555 92618
AAXX 26184 70261 32466 40000 11294 21317 39848 40030 58012 91753 333 11189 21311 555 92618
AAXX 26184 70267 32966 41903 11283 21311 39524 40046 58016 91753 333 11200 21300 555 92618
AAXX 26184 70271 32766 80000 11217 21233 39341 49963 56040 91753 333 11172 21228 4/013 555 92618
AAXX 26184 70273 32466 83515 11111 21150 39848 49910 58042 91753 333 11111 21128 4/069 555 92618
AAXX 26184 70316 12664 63110 11067 21106 30006 40041 56025 69931 91753 333 11061 21100 555 92618
AAXX 26184 70326 32866 21405 11306 21333 39991 40006 58008 91754 333 11211 21306 555 92618
AAXX 26184 70340 11656 82509 11206 21239 39914 49981 58015 69901 771// 91753 333 11194 21217 555 92618
AAXX 26184 70350 32966 42714 11106 21167 39861 49901 56024 91753 333 11106 21117 91023 555 92618
AAXX 26184 70361 11432 80713 11006 21028 39789 49802 56042 69901 771// 91753 333 10006 21017 91019 96010 555 92618
AAXX 26184 70381 11448 81120 10000 21033 39875 49883 56071 69901 771// 91753 333 10011 21011 91031 555 92618
AAXX 26184 70414 35566 80120 11017 21056 30075 40114 58007 91756 333 10000 21028 91027 555 92618
AAXX 26181 22028 11580 72711 10012 21011 39717 49754 52008 69902 73631 82542 333 10012 91015 91118
AAXX 26181 22106 12598 82604 11002 21029 39709 49786 51019 60022 8295/ 333 10002 91007
AAXX 26181 22127 32598 23104 11042 21058 39589 49788 52011 82500 333 11006 91008
AAXX 26181 22324 11584 62701 11013 21018 39770 49819 52022 69942 70282 82931 333 10002 91002
AAXX 26181 22621 11470 83105 10006 21002 39718 49854 52061 60022 72687 889// 333 10008 87912 91111
AAXX 26181 22831 11496 82905 10013 20008 39779 49838 52057 60112 78082 889// 333 10024
AAXX 26181 22892 11997 03006 10033 21031 30002 40018 51052 69902 70281 333 10058 91116
AAXX 26181 26275 32998 02708 10049 21017 30017 40047 52052 333 10080 91015 91116
AAXX 26181 26389 11997 63007 10050 21029 39771 40030 53052 60032 70282 86030 333 10056 91118
AAXX 26181 26499 11698 62909 10047 21023 39781 40007 53035 60042 70282 86500 333 10048 86641 91016 91119
AAXX 26181 26695 11296 82907 10048 20007 39754 40058 52023 60032 76162 8672/ 333 10049 86706 91013 91116
AAXX 26181 26882 11984 42909 10040 20017 39840 40114 53005 69972 70161 84030 333 10040 91014 91116
AAXX 26184 82586 NIL
AAXX 26184 82678 NIL
AAXX 26184 82784 NIL
AAXX 26184 82791 NIL
AAXX 26184 82983 NIL
AAXX 26184 83096 32695 20906 10285 20222 30128 40135 82200 333 58004
AAXX 26184 83186 32598 41408 10319 20142 39574 40095 83202 333 59004
AAXX 26184 83236 NIL
AAXX 26184 83242 32497 61803 10324 20206 39636 40121 84720 333 59004
AAXX 26184 83288 32598 42302 10336 20197 39604 40084 82204 333 59004
AAXX 26184 83344 32498 63606 10267 20207 39169 40126 83290 333 58005
AAXX 26184 NIL
AAXX 26184 NIL
AAXX 26184 NIL
AAXX 26184 82143 NIL
AAXX 26184 82599 32570 51013 10290 20213 30054 40114 82104 333 59001
AAXX 26184 82824 21450 80107 10253 20235 30026 40128 76162 882// 333 59021 60011
AAXX 26184 82899 32570 61714 10277 20193 30120 40132 84230 333 58005
AAXX 26184 83117 NIL
AAXX 26184 83248 32470 20909 10300 20231 30121 40143 82200 333 59003
AAXX 26184 83746 NIL
AAXX 26184 82022 32570 50912 10320 20199 30006 40102 85200 333 59003
AAXX 26184 82193 21435 73306 10278 20248 30085 40103 76261 85230 333 58002 60031
AAXX 26184 82281 32570 40616 10313 20195 30034 40096 84200 333 58004
AAXX 26184 82332 32470 62803 10276 20240 30008 40101 85230 333 59001
AAXX 26184 82398 32570 51012 10282 20214 30054 40109 83130 333 59006
AAXX 26184 82400 32470 21210 10278 20222 30056 40120 82100 333 59007
AAXX 26184 82579 32570 42204 10364 20193 30007 40082 84100 333 59001
AAXX 26184 82917 22470 71703 1//// 2//// 39912 4//// 86530 333 59035 60011
AAXX 26184 82965 32470 73004 10286 20239 39778 40105 85201 333 59004
AAXX 26184 82993 32570 71311 10279 20195 30002 40138 83150 333 58003
AAXX 26184 83208 32570 60410 10295 20204 39435 48530 84230 333 59013
AAXX 26184 83349 32570 30406 10287 20236 30138 40144 81130 333 58000
AAXX 26184 83362 21570 63103 10240 20210 39910 40127 79196 84210 333 59023 60221
AAXX 26184 83378 NIL
AAXX 26184 83460 32570 30814 10269 20222 30090 40146 83100 333 58007
AAXX 26184 83497 NIL
AAXX 26184 83566 NIL
AAXX 26184 83599 NIL
AAXX 26184 83612 32970 62508 10331 20188 39492 48540 58023 85130
AAXX 26184 83649 32570 60610 10290 20207 30147 40152 56008 81151
AAXX 26184 83650 NIL
AAXX 26184 83780 21270 71413 10193 20164 39272 48560 58016 70262 87500 333 60071
AAXX 26184 83827 32570 50105 10277 20194 39872 40145 58015 85230
AAXX 26184 83840 21350 81012 10181 20162 39167 48560 58010 75052 887// 333 69921
AAXX 26184 83899 32970 71308 10231 20155 30200 40206 57010 87500
AAXX 26184 83925 NIL
AAXX 26184 83970 NIL
AAXX 26184 83971 32970 41114 10283 20172 30165 40169 57024 84500
AAXX 26184 NIL
AAXX 26184 NIL
AAXX 26184 NIL
AAXX 26181 30372 41999 80000 11354 21384 39428 40432 53021 70222 80005
AAXX 26181 30433 42999 03301 11210 21229 39703 40350 52006
AAXX 26181 30554 429// 03501 11397 21417 39176 40458 52006
AAXX 26181 30635 429// 01503 11216 21241 39720 40344 52008
AAXX 26181 30673 419// 80000 11302 21308 39479 40343 53002 77177 8801/
AAXX 26181 30692 42999 00000 11369 21391 39781 40357 58///
AAXX 26181 30758 41922 20000 11300 21330 39450 40377 52010 70571 80001
AAXX 26181 30802 42999 00000 11240 21246 38723 48490 58002
AAXX 26181 30823 42999 82901 11225 21243 39644 40340 52008 80002
AAXX 26181 30879 41996 80000 11307 21330 39494 40352 57002 77177 80007
AAXX 26181 30935 NIL
AAXX 26181 30949 42999 00000 11270 21288 39151 40365 58002
AAXX 26181 30965 429// 50000 11286 21310 39433 40358 52003 80002
AAXX 26181 31168 42999 30502 11212 21224 30250 40262 53008 80001
AAXX 26181 31300 41909 00000 11325 21342 39999 40329 53003 74840
AAXX 26181 31329 41997 80000 11271 21288 39583 40326 52004 77172 80007
AAXX 26181 31369 41496 82606 11134 21147 30116 40206 53006 78583 889// 333 88914 91110
AAXX 26181 31416 42999 01901 11298 21309 30172 40273 52009
AAXX 26181 31484 41999 02902 11225 21237 39915 40284 52004 70271
AAXX 26181 31512 429// 02801 11276 21314 30143 40331 52004
AAXX 26181 31538 42998 00000 11298 21309 39842 40332 52004
AAXX 26181 31707 42998 03201 11220 21253 30220 40320 52005
AAXX 26181 31735 42997 21401 11249 21276 30180 40278 53010 80001
AAXX 26181 31770 41567 82906 11121 21216 30136 40167 54000 73632 885// 333 91012
AAXX 26184 NIL
AAXX 26184 82392 NIL
AAXX 26184 82583 NIL
AAXX 26184 82594 NIL
AAXX 26184 82683 NIL
AAXX 26184 82780 NIL
AAXX 26184 82789 NIL
AAXX 26184 82795 NIL
AAXX 26184 82879 NIL
AAXX 26184 82893 NIL
AAXX 26184 82979 32498 50507 10327 20177 39655 40094 83150 333 58003
AAXX 26184 82986 32598 81410 10336 20211 39820 40101 83120 333 58003
AAXX 26184 83179 32598 40904 10363 20187 39636 40077 84200 333 58001
AAXX 26184 83192 32597 30911 10340 20145 39953 40115 82240 333 58002
AAXX 26184 83339 32497 21406 10289 20169 39149 40095 82100 333 58003
AAXX 26184 83498 32595 50905 10290 20250 30146 40151 84101 333 58001
AAXX 26184 78526 32666 60710 10272 20194 30146 40168 58022 91756 333 10283 20233 555 92618
AAXX 26184 78543 12564 20109 10278 20206 30082 40163 56023 69931 91753 333 10289 20244 555 92618
AAXX 26181 20107 11597 70000 11029 21091 39644 49737 52009 69902 70331 82531 333 10009 91001
AAXX 26181 22113 11584 52005 11001 21038 39707 49769 52020 69902 70281 82530 333 10013 91010 91113
AAXX 26181 22217 11980 70301 11049 21055 39794 49826 51016 69942 70244 87030 333 11002 91001 93601
AAXX 26181 22235 11467 72702 11024 21024 39608 49799 52016 60012 72884 87600 333 11014 87710 91004
AAXX 26181 22349 11596 81902 11008 21024 39784 49795 52008 60022 78582 889// 333 10011 91003
AAXX 26181 22408 11984 02803 11013 21030 39723 49870 52035 60022 70287 333 10003
AAXX 26181 22602 11474 63004 10008 21006 39685 49907 52045 60032 70272 86500 333 10008 86615 91111
AAXX 26181 22619 11259 83209 10013 21001 39716 49874 52065 60022 75152 886// 333 10016 88705 91015 91118
AAXX 26181 22721 11497 82904 10013 20005 39760 49859 52062 60062 78087 889// 333 10013 88916 91112
AAXX 26181 22802 11584 72805 10034 21013 39932 49954 52061 60022 70281 87900 333 10053 91012 91114
AAXX 26181 22820 11480 83007 10018 20005 39742 49878 52065 69932 72162 885// 333 10033 88613 91012 91114
AAXX 26181 26059 32997 03005 10049 21027 30035 40060 51051 333 10081 91116
AAXX 26181 26063 11597 73005 10044 21007 30006 40014 53056 69932 70262 87500 333 10066 87627 91113
AAXX 26181 26094 11958 82906 10033 20012 39876 49951 52063 60062 76162 8802/ 333 10045 91116
AAXX 26181 26157 32998 02905 10037 21019 30038 40087 52037 333 10075 91114
AAXX 26181 26167 12970 02804 10039 21041 39945 40057 52043 69902 333 10076 91113
AAXX 26181 26258 12998 03005 10054 21024 30048 40102 52042 69902 333 91116
AAXX 26181 26298 11997 02906 10035 21015 39763 49990 52049 60032 70251 333 10038 91118
AAXX 26181 26359 12974 02905 10048 21022 39982 40116 52037 69902 333 10086 91120
AAXX 26181 26702 11496 82703 10088 20078 30209 40235 58001 69902 72122 885// 333 10092 91009 91112
AAXX 26181 26781 11997 03005 10037 20008 39817 40108 52025 60012 70262 333 10044
AAXX 26181 27208 11497 83206 10038 20015 39780 49953 52049 60072 76162 8802/ 333 10042 91112
AAXX 26181 27402 11697 72708 10049 21001 39792 49968 52031 60032 70262 87500 333 10049 87636 91114
AAXX 26184 NIL
BBXX C6SW3 26184 99140 10738 41896 03510 10270 20213 40110 52030 71200 80000 22243 00280 20301 3//// 40301 50301 6//// 80230 ICE /////
BBXX V7NV4 26184 99302 11678 41596 72430 10210 20195 40110 53010 702// 84678 22263 00200 20203 324// 40510 5//// 6//// 80200 ICE /////
BBXX SCKB 26183 99472 70418 41597 63130 10030 21020 40150 55030 76055 8529/ 22253 00100 20814 301// 40814 5//// 6//// 80010 ICE /////
BBXX KQXZ 26184 99479 71336 41797 52328 10100 2004/ 49980 52030 7//21 846/1 22233 0//// 20506 321// 41207 5//// 6//// 80072 ICE /////
BBXX NWS0022 26184 99416 70714 43/// /3111 10083 21019 40180 5//// 7//// 8//// 222// 04110 2//// 3//// 4//// 5//// 6//// 8//// ICE /////
BBXX WFLH 26183 99278 71370 43598 40915 10206 20133 40283 51015 7//// 844// 22254 00183 21001 331// 41407 5//// 6//// 80161 ICE /////
BBXX V7MO2 26184 99262 70914 41597 62108 10230 20216 40203 57010 70222 856/2 22200 00230 20201 309// 40502 5//// 6//// 80220 ICE /////
AAXX 26181 22271 11496 81908 11023 21042 39793 49803 52003 69940 77173 8872/ 333 10002
AAXX 26181 22520 11598 73004 10004 21002 39817 49826 52037 60022 70282 87900 333 10014 87620
AAXX 26181 22550 11456 81201 11026 21049 39790 49800 52018 60010 77172 8802/ 333 21003 88518
AAXX 26181 22583 11356 81402 11057 21064 39762 49842 57015 69940 77175 8872/ 333 11046 88709
AAXX 26181 22768 11296 81603 11025 21038 39737 49792 58008 60020 77173 8872/ 333 11019 85706
AAXX 26181 22845 11396 83003 10007 20001 39649 49802 53027 60050 77173 8872/ 333 10000 86708
AAXX 26181 22887 11497 81805 11043 21059 39776 49846 57017 60010 77177 8672/ 333 11041 86713 91109
AAXX 26181 23205 NIL
AAXX 26181 23219 11998 82502 11108 21128 39827 49935 57012 69912 70272 8802/ 333 11087
AAXX 26181 23418 11460 81504 11118 21145 39864 49940 57014 69950 77173 8672/ 333 11104 86713
AAXX 26181 23606 12460 81505 11104 21110 39744 49920 57022 69970 8455/ 333 11102 84610
AAXX 26181 23711 11497 81204 11127 21147 39785 49964 57021 69990 78583 889// 333 11122 85710
AAXX 26181 23804 11497 81803 11066 21082 39751 49900 57013 69930 77173 8352/ 333 11073
AAXX 26181 27037 11497 82704 10015 20007 39687 49844 53012 60020 76176 8672/ 333 10008 86715
AAXX 26181 27199 11497 81803 11064 21076 39741 49940 57029 69900 77175 885// 333 11062 93400
AAXX 26181 27271 11996 81405 11043 21055 39735 49891 57037 60020 77173 8802/ 333 11047
AAXX 26181 27459 11296 82402 11025 21031 39725 49920 57036 60030 78583 889// 333 11033 87705
AAXX 26181 27730 11497 82305 10022 20009 39812 40005 57012 69980 76176 8802/ 333 11007 88511 91115
AAXX 26181 28676 119// 81901 11234 21257 30023 40162 54000 69900 77172 8802/ 333 11204
AAXX 26181 28766 119// 82001 11210 21220 39954 40159 57003 69900 71072 8802/ 333 11204
AAXX 26181 28867 11596 80000 11139 21159 39878 40164 58004 69950 77072 885// 333 11131
AAXX 26181 28879 313// 82203 11182 21204 39864 40171 54000 77772 886// 333 11150
AAXX 26181 28952 119// 02001 11201 21220 39967 40173 58005 69950 77671 333 11080
AAXX 26181 28966 315// 82002 11140 21157 39884 40183 52006 77172 885// 333 11153
AAXX 26181 29802 315// 80000 11131 21151 30009 40159 58009 77172 885// 333 11144
AAXX 26181 29807 325// 80000 11128 21157 30033 40156 57010 885// 333 11136
AAXX 26181 34691 32998 82305 11004 21016 30240 40227 57018 8802/ 333 11010
AAXX 26181 35067 115// 82003 11134 21155 39892 40182 52001 69930 77177 8802/ 333 11132
AAXX 26181 35078 315// 72505 11151 21172 39786 40186 52003 78581 87900 333 11170
AAXX 26181 35085 129// 22504 11190 21206 39675 40184 52005 69900 80001 333 11106
AAXX 26181 35108 115// 82305 11049 21062 30099 40146 57029 69900 77177 8802/ 333 11045
AAXX 26181 35188 119// 81902 11156 21180 39737 40196 52008 69930 77172 8802/ 333 11078
AAXX 26181 35217 115// 82207 11058 21089 30137 40177 57026 69900 73632 885// 333 11035
AAXX 26181 35229 115// 82203 11070 21083 39923 40204 57013 69960 70272 885// 333 11071
AAXX 26181 35302 115// 82808 11068 21080 30150 40170 57030 69900 77772 886// 333 11031
AAXX 26181 35357 115// 82504 11136 21156 39748 40204 52007 69920 71171 8802/ 333 11073
AAXX 26181 35394 11597 82304 11098 21119 39499 40198 52008 69940 77172 8802/ 333 11040 88520
AAXX 26181 35406 325// 82704 11060 21091 30199 40201 57017 885// 333 11040
AAXX 26181 35416 115// 82207 11059 21078 30090 40214 58022 69930 73673 886// 333 11055
AAXX 26181 35426 115// 82703 11077 21079 39929 40231 58020 69950 70272 885// 333 11090
AAXX 26181 35497 129// 82002 11105 21125 39392 40219 52008 60030 8802/ 333 11050
AAXX 26181 35532 32598 82302 11112 21147 39731 40246 57013 885// 333 11108
AAXX 26181 35671 32998 42603 11187 21216 39796 40259 52015 84040 333 11068
AAXX 26181 35700 12598 82105 11016 21027 30261 40237 57022 69920 885// 333 11009
AAXX 26181 35746 329// 02003 11182 21194 30203 40276 52002 333 11105
AAXX 26181 35796 11597 82604 11048 21068 39790 40233 52007 60020 77172 8802/ 333 11048
AAXX 26181 35849 32998 00000 11161 21180 30198 40290 52011 333 11080
AAXX 26181 35925 315// 82305 11034 21051 40292 58011 71022 886// 333 11052
AAXX 26181 35953 129// 02403 11195 21214 30149 40290 52012 69900 333 11058
AAXX 26181 35969 115// 82701 11069 21089 30099 40279 52012 69900 77172 8802/ 333 11066
AAXX 26181 36003 11597 81601 11054 21061 39994 40148 57007 69900 77177 8802/ 333 11063
AAXX 26181 36152 119// 82304 11028 21051 39973 40162 57001 69920 77172 8802/ 333 11007
AAXX 26181 36177 116// 51607 11042 21101 39949 40198 57003 60080 73683 82431 333 11040
AAXX 26181 36208 329// 70902 11052 21108 39237 40229 53001 82031 333 11032
AAXX 26181 36397 329// 01620 11080 21135 39638 40214 56002 333 11072 91024 91124
AAXX 26181 36428 329// 60502 11186 21212 39760 40297 57006 83035 333 11160 95090
AAXX 26181 36535 325// 80000 11130 21165 39634 40299 53002 8655/ 333 11136
AAXX 26181 36639 329// 20000 11163 21199 39640 40284 58001 80002 333 11087
AAXX 26181 36821 115// 80000 11004 21010 39748 40240 52006 69900 70282 889// 333 10027
AAXX 26181 36859 329// 03401 11078 21104 39465 40274 58001 333 11012
AAXX 26181 36864 326// 82904 11006 21021 39340 40239 52010 8557/ 333 10082
AAXX 26181 36870 329// 70000 11015 21042 39218 40241 52017 84032 333 10099
AAXX 26181 38001 32997 83204 10026 20002 30317 40287 57007 8807/ 333 10042
AAXX 26181 38062 119// 72802 11092 21122 30114 40284 52018 69900 70372 87060 333 11054
AAXX 26181 38069 329// 82601 11058 21076 30086 40285 52014 8802/ 333 11043
AAXX 26181 38196 NIL
AAXX 26181 38198 NIL
AAXX 26181 38222 32997 40000 10001 21023 39688 40252 52009 84030 333 10034
AAXX 26181 38232 32698 21402 11051 21070 30221 40324 58006 82400 333 11006
AAXX 26181 38328 NIL
AAXX 26181 38334 NIL
AAXX 26181 38341 31596 80602 11006 21012 39457 40253 52011 77172 8802/ 333 10054
AAXX 26181 38343 32697 80000 11005 21033 39399 40253 52009 885// 333 10046
AAXX 26181 38439 NIL
AAXX 26181 26997 11444 82702 10031 20023 39930 40151 57001 69952 71052 886// 333 10033 88710
AAXX 26181 27595 12497 81902 11051 21068 39845 49989 59995 69940 886// 333 11059
AAXX 26181 27612 115// 82902 10035 20017 39793 49983 53014 60062 72176 885// 333 10036
AAXX 26181 27707 11558 72904 10029 20016 39781 40072 53008 69972 71082 87500 333 10029 87625
AAXX 26181 27719 11497 82406 10029 20008 39794 40042 56006 69982 72582 883// 333 10029 91114
AAXX 26181 27786 11497 82009 11051 21068 39858 40021 57046 69920 73673 885// 333 11053 88612 91012 91114
AAXX 26181 27857 11496 82404 11017 21022 39854 40018 57044 69920 77173 8802/ 333 11024 88510 91112
AAXX 26181 27906 11496 62610 10021 20011 39871 40113 53009 69992 71082 86300 333 10021 91015 91118
AAXX 26181 27928 11596 72606 10014 20011 39882 40090 56005 69960 72176 86550 333 11005
AAXX 26181 27947 11420 82411 11006 21015 39902 40062 57036 69950 77373 8802/ 333 11018 88513 91016 91117 92981
AAXX 26181 27962 11495 82207 11030 21040 40050 57046 69930 76673 8802/ 333 11047 91012 91113 92980 93401
AAXX 26181 27983 31567 72405 11046 21066 39933 40065 57049 72272 875// 333 11058 87622
AAXX 26181 27995 11471 81903 11045 21061 40078 57050 69960 70272 8802/ 333 11062
AAXX 26181 28506 12997 82003 11080 21097 39914 40030 56043 69990 8802/ 333 11087
AAXX 26181 28704 11497 82110 11062 21076 39939 40036 58049 69940 77173 8802/ 333 11069 88512 91013 91113
AAXX 26181 28711 11497 82006 11093 21103 39677 40063 56037 69980 73683 884// 333 11109 88610 91012 91114
AAXX 26181 28807 11497 82205 11053 21074 30034 40086 57031 69940 72272 885// 333 11065 88610
AAXX 26181 34009 11596 82707 10008 21000 39839 40148 57014 69942 78083 889// 333 10008 91015
AAXX 26181 34110 32597 82609 10005 21006 39870 40151 57025 886// 333 10006 88721 91015 91116
AAXX 26181 34123 31496 82508 10000 21008 39939 40125 57025 78682 883// 333 11013 88911
AAXX 26181 34152 32384 82105 11034 21042 39945 40147 57006 886// 333 11036 88704 91010 91112
AAXX 26181 34163 31497 82307 11047 21057 40101 57056 73632 885// 333 11054 88620 91013 91113
AAXX 26181 34171 11360 82205 11039 21054 39901 40098 57056 69900 73673 886// 333 11041 88708
AAXX 26181 34186 31478 82407 11050 21060 39982 40124 57039 73632 887// 333 11050 88714
AAXX 26181 34247 31559 82506 11016 21036 30043 40160 57039 71022 885// 333 11037 88621
AAXX 26181 34336 32598 82306 11017 21034 30077 40184 57040 8432/ 333 11038 91015 91116
AAXX 26181 34391 41496 82507 11049 21052 30135 40167 57031 71022 886// 333 11035 88720 93504
AAXX 26181 35011 11584 82107 11061 21072 40128 57031 69900 73673 8577/ 333 11072
AAXX 26181 35121 12398 82504 11062 21070 30011 40162 57023 69920 885// 333 11071 86709
AAXX 26184 91165 32566 40613 10228 20172 30192 40229 52013 91753 333 10228 20222 555 92618
AAXX 26184 91182 32566 40613 10239 20172 30211 40215 53013 91753 333 10250 20233 555 92618
AAXX 26184 91190 32666 20406 10217 20167 30202 40222 51013 91754 555 92618
AAXX 26184 91212 32966 00510 10256 20228 31379 40113 56018 91754 333 20244 555 92618
AAXX 26184 91285 12566 62503 10194 20172 30212 40224 53015 69931 91753 555 92618
AAXX 26181 28676 119// 81901 11234 21257 30023 40162 54000 69900 77172 8802/ 333 11204
AAXX 26181 28766 119// 82001 11210 21220 39954 40159 57003 69900 71072 8802/ 333 11204
AAXX 26181 28867 11596 80000 11139 21159 39878 40164 58004 69950 77072 885// 333 11131
AAXX 26181 28879 313// 82203 11182 21204 39864 40171 54000 77772 886// 333 11150
AAXX 26181 28952 119// 02001 11201 21220 39967 40173 58005 69950 77671 333 11080
AAXX 26181 28966 315// 82002 11140 21157 39884 40183 52006 77172 885// 333 11153
AAXX 26181 29802 315// 80000 11131 21151 30009 40159 58009 77172 885// 333 11144
AAXX 26181 29807 325// 80000 11128 21157 30033 40156 57010 885// 333 11136
AAXX 26181 34691 32998 82305 11004 21016 30240 40227 57018 8802/ 333 11010
AAXX 26181 35067 115// 82003 11134 21155 39892 40182 52001 69930 77177 8802/ 333 11132
AAXX 26181 35078 315// 72505 11151 21172 39786 40186 52003 78581 87900 333 11170
AAXX 26181 35085 129// 22504 11190 21206 39675 40184 52005 69900 80001 333 11106
AAXX 26181 35108 115// 82305 11049 21062 30099 40146 57029 69900 77177 8802/ 333 11045
AAXX 26181 35188 119// 81902 11156 21180 39737 40196 52008 69930 77172 8802/ 333 11078
AAXX 26181 35217 115// 82207 11058 21089 30137 40177 57026 69900 73632 885// 333 11035
AAXX 26181 35229 115// 82203 11070 21083 39923 40204 57013 69960 70272 885// 333 11071
AAXX 26181 35302 115// 82808 11068 21080 30150 40170 57030 69900 77772 886// 333 11031
AAXX 26181 35357 115// 82504 11136 21156 39748 40204 52007 69920 71171 8802/ 333 11073
AAXX 26181 35394 11597 82304 11098 21119 39499 40198 52008 69940 77172 8802/ 333 11040 88520
AAXX 26181 35406 325// 82704 11060 21091 30199 40201 57017 885// 333 11040
AAXX 26181 35416 115// 82207 11059 21078 30090 40214 58022 69930 73673 886// 333 11055
AAXX 26181 35426 115// 82703 11077 21079 39929 40231 58020 69950 70272 885// 333 11090
AAXX 26181 35497 129// 82002 11105 21125 39392 40219 52008 60030 8802/ 333 11050
AAXX 26181 35532 32598 82302 11112 21147 39731 40246 57013 885// 333 11108
AAXX 26181 35671 32998 42603 11187 21216 39796 40259 52015 84040 333 11068
AAXX 26181 35700 12598 82105 11016 21027 30261 40237 57022 69920 885// 333 11009
AAXX 26181 35746 329// 02003 11182 21194 30203 40276 52002 333 11105
AAXX 26181 35796 11597 82604 11048 21068 39790 40233 52007 60020 77172 8802/ 333 11048
AAXX 26181 35849 32998 00000 11161 21180 30198 40290 52011 333 11080
AAXX 26181 35925 315// 82305 11034 21051 40292 58011 71022 886// 333 11052
AAXX 26181 35953 129// 02403 11195 21214 30149 40290 52012 69900 333 11058
AAXX 26181 35969 115// 82701 11069 21089 30099 40279 52012 69900 77172 8802/ 333 11066
AAXX 26181 36003 11597 81601 11054 21061 39994 40148 57007 69900 77177 8802/ 333 11063
AAXX 26181 36152 119// 82304 11028 21051 39973 40162 57001 69920 77172 8802/ 333 11007
AAXX 26181 36177 116// 51607 11042 21101 39949 40198 57003 60080 73683 82431 333 11040
AAXX 26181 36208 329// 70902 11052 21108 39237 40229 53001 82031 333 11032
AAXX 26181 36397 329// 01620 11080 21135 39638 40214 56002 333 11072 91024 91124
AAXX 26181 36428 329// 60502 11186 21212 39760 40297 57006 83035 333 11160 95090
AAXX 26181 36535 325// 80000 11130 21165 39634 40299 53002 8655/ 333 11136
AAXX 26181 36639 329// 20000 11163 21199 39640 40284 58001 80002 333 11087
AAXX 26181 36821 115// 80000 11004 21010 39748 40240 52006 69900 70282 889// 333 10027
AAXX 26181 36859 329// 03401 11078 21104 39465 40274 58001 333 11012
AAXX 26181 36864 326// 82904 11006 21021 39340 40239 52010 8557/ 333 10082
AAXX 26181 36870 329// 70000 11015 21042 39218 40241 52017 84032 333 10099
AAXX 26181 38001 32997 83204 10026 20002 30317 40287 57007 8807/ 333 10042
AAXX 26181 38062 119// 72802 11092 21122 30114 40284 52018 69900 70372 87060 333 11054
AAXX 26181 38069 329// 82601 11058 21076 30086 40285 52014 8802/ 333 11043
AAXX 26181 38196 NIL
AAXX 26181 38198 NIL
AAXX 26181 38222 32997 40000 10001 21023 39688 40252 52009 84030 333 10034
AAXX 26181 38232 32698 21402 11051 21070 30221 40324 58006 82400 333 11006
AAXX 26181 38328 NIL
AAXX 26181 38334 NIL
AAXX 26181 38341 31596 80602 11006 21012 39457 40253 52011 77172 8802/ 333 10054
AAXX 26181 38343 32697 80000 11005 21033 39399 40253 52009 885// 333 10046
AAXX 26181 38439 NIL
BBXX 44067 26181 99384 70770 46/// /0206 10086 40266 50000 91800
BBXX 41029 26181 99328 70796 46/// /0607 10124 91800 555 11095 22114
BBXX 44032 26181 99437 70694 46/30 /3111 10029 40158 53014 91804 22200 00081 10402 70010 333 91213 555 11132 22139
AAXX 26184 91245 32566 40709 10250 20240 30157 91755 555 92618
BBXX 46111 26181 99481 71227 46/// /1508 10066 40242 56012 91800 22200 00052
AAXX 26184 16310 12998 00212 10098 21032 30051 40277 51002 60002 333 10124 555 0////
AAXX 26181 08521 32470 73403 10179 20097 30193 40264 51006 87800 333 10195 83818 86633
AAXX 26181 08524 11470 32901 10151 20122 30169 40268 52008 60012 70181 83800 333 10178 81815 83633
AAXX 26181 40716 11658 60000 10030 20010 38968 40264 53007 60031 71082 86300 333 55012 83935 83840
AAXX 26181 40719 11340 82703 10064 20060 30319 40308 50001 60031 72166 8662/ 333 55000 86708 88457
AAXX 26181 40721 11408 83203 10038 20038 39738 40301 51004 60031 74454 8572/ 333 55000 85710 88457
AAXX 26181 40858 12960 03507 10194 20114 30187 40197 52010 60001 333 55085
AAXX 26181 40872 11958 03107 10190 20109 30173 40178 51010 60001 70700 222// 00/// 20301 333 55086
AAXX 26181 40877 12960 02107 10174 20121 39589 40129 52015 60001 333 55085
AAXX 26181 40898 11956 02703 10228 20197 30128 40137 50004 60001 71000 222// 00236 10500 333 55084 2////
AAXX 26184 43400 NIL
AAXX 26184 43404 NIL
AAXX 26184 43410 NIL
AAXX 26184 43413 NIL
AAXX 26184 43415 NIL
AAXX 26184 43418 22470 43211 10236 20218 3//// 4//// 81132 333 5//// 60007 81818 83080
AAXX 26184 43421 22460 50000 10222 20213 30015 40117 82101 333 58015 60007 82818 84080
AAXX 26184 43422 NIL
AAXX 26184 43424 22968 03601 10220 20211 30102 40105 333 58012 60007
AAXX 26184 43436 22970 02703 10247 20226 30100 40104 333 58012 60007
AAXX 26184 43441 NIL
AAXX 26184 43444 21465 60000 10210 20204 39580 40113 71022 82106 333 58013 60007 82818 86280
AAXX 26184 43467 22960 13609 10246 20216 30101 40106 80001 333 58015 60007 81080
AAXX 26184 43473 22970 00501 10106 20086 38125 48497 333 58009 60007
AAXX 26184 43475 NIL
AAXX 26184 43476 NIL
AAXX 26184 43479 NIL
AAXX 26184 43486 22470 20000 10240 20225 30008 40102 82100 333 58014 60007 82814
AAXX 26184 43495 22460 7//// 10250 20220 30097 40113 81101 333 58019 60007 81818 87080
AAXX 26184 43497 22472 71804 10268 20248 30076 40094 82276 333 58016 60007 82818 86278
AAXX 26181 45032 36/// /0001 10105 20081 30237 40255 54000
AAXX 26181 45035 36/// /3301 10136 20086 30211 40255 52001
AAXX 26181 45039 36/// /0503 10152 20107 30236 40252 54000
AAXX 26181 45044 36/// /0908 10154 20107 30150 40245 57001 333 91113
BBXX KABL 26184 99237 10364 41598 23523 10210 2013/ 40200 54000 70200 821// 22235 00246 20202 335// 40504 5//// 6//// 80160 ICE /////
BBXX OYGR2 26184 99133 10578 41398 20420 10248 20178 40142 58005 70200 817/0 22225 04270 20204 30000 80201
BBXX A8IQ2 26181 99313 30332 41498 60709 10245 20194 40195 57020 70322 8/872 22253 06250 20605 322// 40705 5//// 80210
BBXX PDKK 26183 99054 30013 41698 31512 10242 20217 40112 53010 70200 83400 22271 20501 318// 41503 80225
BBXX A8KH9 26184 99275 30465 41598 41023 10220 20220 40155 51160 70322 84442 22224 02200 20102 30102 40204 50306 80220
BBXX ZIPR7 26183 99229 30557 41598 61017 10250 20198 40156 57001 71511 865// 22214 00264 2//// 3//// 4//// 5//// 80216
BBXX PHKL 26183 99258 10350 41/98 /3410 10215 20109 40212 50003 70200 8//// 22233 00222 2//// 3//// 4//// 5//// 80152
BBXX UBAU 26181 99125 70175 41798 30502 10250 40173 57001 70210 83030 22211 04245 20100
BBXX PHPP 26184 99176 10695 41997 00117 10245 20194 40130 50006 702// 80000 22274 00285 2//02 80210
BBXX SJCD 26181 99538 11769 43/97 20510 11017 40124 56012 22264 00035
BBXX SHJC 26181 99060 10885 43/97 22514 11280 40089 54000 22264 00283 2//// 4////
BBXX 9V8797 26184 99085 11085 43/96 80236 10244 40118 58009 22213 00245 2//// 4////
BBXX OZDQ2 26180 99344 11400 41/98 ///// 10075 40204 56014 70011 8//// 22214 00150 2////
BBXX WCX8883 26184 99394 11646 41497 80918 10100 2006/ 40005 55015 72162 886// 22225 00160 20403 399// 40706 5//// 6//// 80080 ICE /////
BBXX C6SW3 26184 99140 10738 41896 03510 10270 20213 40110 52030 71200 80000 22243 00280 20301 3//// 40301 50301 6//// 80230 ICE /////
BBXX V7NV4 26184 99302 11678 41596 72430 10210 20195 40110 53010 702// 84678 22263 00200 20203 324// 40510 5//// 6//// 80200 ICE /////
BBXX DGTX 26183 99273 11294 41597 30117 10165 20104 40275 56005 70111 81145 22254 00250 20402 80130
BBXX DCPY2 26184 99136 11189 41/97 /1031 10270 20243 40110 54000 70111 8//// 22200 00270 2//// 80250
BBXX PCKU 26180 99154 11197 41/98 10210 10271 20199 40141 56013 7//00 8/0// 22243 04284 20302 80221
BBXX A8QR9 26183 99222 11214 41297 82506 10210 20203 40230 5/010 75855 8/77/ 22214 20608 80205
BBXX DDIG2 26184 99191 50715 41498 41515 10240 20194 40130 50000 7//11 8/100 22234 04240 20201 316// 41003 80210
BBXX WYP8657 26184 99468 70873 41/98 52019 10055 2//// 40058 5//// 70122 8//// 22273 00044 20502 3//// 4//// 5//// 6//// 8//// ICE /////
BBXX 44255 26181 99473 70573 46/// /1707 10011 40155 57004 22200 00036 10603 70013 333 91209
BBXX V7MO2 26184 99262 70914 41597 62108 10230 20216 40203 57010 70222 856/2 22200 00230 20201 309// 40502 5//// 6//// 80220 ICE /////
BBXX WDB9918 26184 99482 71334 41497 80230 10089 2007/ 49960 51010 76262 886// 22232 00083 21011 324// 40807 5//// 6//// 80083 ICE /////
BBXX 9HJF9 26184 99257 70801 41698 30906 1//// 2//// 40210 54000 7//00 83/// 22200 00240 2//// 3//// 4//// 5//// 6//// 8//// ICE /////
BBXX V7DI7 26183 99395 70649 41596 73539 10120 2010/ 49972 53060 78160 877// 22253 0//// 20204 335// 40406 5//// 6//// 80110 ICE /////
BBXX SGW 26181 99340 71463 43/98 72308 10181 40262 51018 22224 00185 20403 41006
BBXX SBLW 26183 99213 71083 43/98 63618 10224 40185 51012 22274 00231 2//// 4////
BBXX 44150 26181 99425 70640 46/// /0703 10080 40102 57009 22200 00102 10502 70008 333 91205
BBXX 42085 26181 99179 70665 46/// /1208 10272 40151 91740 333 91209
BBXX 42085 26181 99179 70665 46/// /1108 10271 40151 91750 333 91209
BBXX 42085 26181 99179 70665 46/// /1108 10272 40149 58024 91800 22200 00274 10602 70009 333 91209
BBXX 41053 26181 99185 70661 46/// /0706 10265 40159 91750 333 91208
BBXX 41053 26181 99185 70661 46/// /0706 10265 40161 91740 333 91208
BBXX 44139 26181 99442 70571 46/// /1206 10029 40161 57023 22200 00049 10902 70009 333 91207
BBXX 41053 26181 99185 70661 46/// /0706 10265 40158 58021 91800 22200 00271 10802 70012 333 91208
BBXX 41038 26181 99341 70777 46/// /0306 10131 40256 58006 91800 22200 00138 333 91206
BBXX DHEB 26183 99482 71384 41598 72734 10065 21006 49950 53038 70322 86878 22263 04100 20808 327// 41210 5//// 80035
BBXX SHIP 26184 99486 71335 41595 82341 10090 20071 40979 51007 76126 887// 91810 22224 00080 20508 323// 40508 80080
BBXX WFLH 26183 99278 71370 43598 40915 10206 20133 40283 51015 7//// 844// 22254 00183 21001 331// 41407 5//// 6//// 80161 ICE /////
BBXX VQAJ8 26183 99477 71256 41/98 81820 10080 20033 40220 57021 70022 8//// 22212 00108 20406 327// 40606 5//// 80060
BBXX LAHR7 26184 99541 71623 41297 73318 11015 2103/ 40070 5//// 70222 874// 22224 00040 2//// 3//// 4//// 5//// 6//// 81020 ICE /////
BBXX WJBU 26184 99336 71186 41198 11105 10167 2013/ 40250 52015 70200 811// 22233 0//// 20201 3//// 4//// 5//// 6//// 80144 ICE /////
BBXX J8AZ2 26183 99258 70772 41598 41209 10000 2000/ 40220 54000 7//11 83181 22263 0//// 20101 31309 40202 50302 6//// 80000 ICE /////
BBXX KQXZ 26184 99479 71336 41797 52328 10100 2004/ 49980 52030 7//21 846/1 22233 0//// 20506 321// 41207 5//// 6//// 80072 ICE /////
BBXX C6UB2 26184 99502 71386 41297 82840 10060 2002/ 49960 52080 71422 8792/ 22262 00060 21012 328// 40806 5//// 6//// 80040 ICE /////
BBXX WDE9193 26183 99236 70884 41897 11409 10240 2021/ 40176 57015 70200 81109 22232 0//// 20401 313// 41003 5//// 6//// 80220 ICE /////
BBXX SCKB 26183 99472 70418 41597 63130 10030 21020 40150 55030 76055 8529/ 22253 00100 20814 301// 40814 5//// 6//// 80010 ICE /////
BBXX C6KD6 26184 99368 70427 41598 80316 10162 20106 40177 53008 70222 8787/ 22214 02195 20806 331// 41206 80132
BBXX 46001 26181 99563 71480 46/// /3117 11017 49819 56012 91750 22200 00044 10809 20809 70044 333 91221 555 11186 22197 31706 43122 61749 307174 307172 305172 305171 301175 306172
BBXX 41041 26181 99142 70460 46/// /0906 10267 20214 40149 58016 91750 22200 00265 10804 20502 3//// 40803 70019 333 91207 555 11063 22067 31707 41008 61749 092059 089061 093062 096062 094064 093063 81007 91707
BBXX 46053 26181 99342 71198 46/// /0000 10139 40244 51019 91750 22200 00135 11302 327// 41302 70010 333 91201 555 11005 22005 31713 41901 61749 227004 205008 185006 199009 182008 173006
BBXX 44022 26181 99409 70737 46/// ///09 10065 21034 40218 53009 91800 22200 00084 333 91213 555 11103 22108
BBXX 46042 26181 99368 71224 46/// /3505 10109 40268 53013 91750 22200 00129 11606 20501 330// 41605 70028 333 91207 555 11053 22055 31737 43508 61749 344051 355061 359057 007058 013059 007059
BBXX A8IH2 26183 99262 71265 41599 50519 10200 20135 40270 53010 7//22 85161 22254 06200 22003 329// 41605 5//// 80160
BBXX A8OH4 26183 99205 70519 41598 30715 10240 20188 40160 58020 70100 81140 22224 04290 21003 307// 41004 80205
BBXX 9LD2206 26183 99160 70351 41397 51112 10255 20220 40170 56010 7//11 8377/ 22252 04258 20401 310// 40601 80230
BBXX VRFX8 26184 99435 70598 41498 81021 10070 20020 40100 56015 70222 8872/ 22214 0//// 20504 321// 40601 80050
BBXX DEDI 26183 99393 70674 41297 73545 10110 20061 40089 58/// 76022 87790 22214 00197 21406 334// 41206 80085
BBXX C6KD8 26183 99266 70504 41198 52904 10234 20162 40189 56011 70300 83361 22254 02240 2//// 305// 41004 5//// 80190
BBXX DGDD 26181 99333 71780 41497 52411 10205 20190 40125 51005 70366 8/7// 22224 00200 21409 32215 41405 51003 80195
BBXX KEY796 26183 99571 71703 41/97 83411 11078 21111 40064 58/// 702// 8//// 222// 01011 2//// 3//// 4//// 5//// 6//// 8//// ICE /////
BBXX NWS0020 26184 99290 70554 43/// /2507 10205 20131 40165 5//// 7//// 8//// 222// 04230 2//// 3//// 4//// 5//// 6//// 8//// ICE /////
BBXX NWS0003 26184 99539 71665 43/// /0000 11052 21079 40059 5//// 7//// 8//// 222// 0//// 2//// 3//// 4//// 5//// 6//// 8//// ICE /////
BBXX NWS0029 26184 99415 70707 43/// /3314 10063 21036 40174 5//// 7//// 8//// 222// 04075 2//// 3//// 4//// 5//// 6//// 8//// ICE /////
BBXX C6TQ6 26184 99246 70877 41898 11813 10250 20222 40200 54000 70200 81//1 22244 00260 20302 31718 40302 50302 6//// 80230 ICE /////
BBXX C6OT4 26184 99158 71213 41598 80921 10235 20188 40167 51003 72566 888// 22223 04254 21105 307// 41005 5//// 80205
BBXX 62087 26181 99547 10068 46/// /0505 10095 20088 4//// 5//// 22230 00084
BBXX UANA 26181 99695 10457 41/95 92017 10008 49782 57001 77272 8//// 22231 00030 21015
BBXX MGSM5 26183 99557 10027 41997 42625 10060 20036 40234 58006 70200 80003 22214 04082 20301 327// 40706 5//// 80050
BBXX 62023 26183 99514 70079 46/96 /2230 10096 2//// 40304 5//// 22200 10607 70035 333 91137 555 70056 80018
BBXX HZZD 26183 99396 70296 41396 81938 10170 2017/ 40158 51018 76566 88717 22233 0//// 20705 319// 40705 5//// 6//// 80170 ICE 0/0//
BBXX TFKGR 26184 99657 70136 46/// ///// 22200 10604 70018
BBXX TFBKF 26184 99635 70202 46/// ///// 22200 10709 70044
BBXX TFSRT 26184 99633 70203 46/// ///// 22200 10910 70048
BBXX TFSTD 26184 99664 70234 46/// ///// 22200 10605 70027
BBXX TFHFN 26184 99642 70152 46/// ///// 22200 10807 70035
BBXX TFDRN 26184 99658 70212 46/// ///// 22200 10401 70007
BBXX TFGRS 26184 99663 70182 46/// ///// 22200 10503 70017
BBXX TFGRV 26184 99638 70225 46/// ///// 22200 10808 70042
BBXX TFGSK 26184 99641 70229 46/// ///// 22200 10810 70050
BBXX LAHV 26181 99589 10057 43/// /1910 10103 20080 40092 222// 04088 1////
BBXX LDGJ 26181 99603 10053 43/// /1605 10113 20078 40026 5//// 222/0 04093 1//// 3//// 4//// 5////
BBXX LMEL 26181 99603 10053 43/// /1606 10113 20086 40027 5//// 222/0 04098 1//// 3//// 4//// 5////
BBXX LF4H 26184 99596 10022 46/// /2233 10106 20081 40005 57002 8//// 22200 06086 10808 70041 333 91142
BBXX PHIN 26184 99457 10403 41598 53216 10056 21006 40159 52002 70322 854// 22263 00140 20401 330// 40807 80030
BBXX A8CH2 26184 99432 70203 41297 71831 10140 40260 57005 7//22 8/700 22254 20404 328// 40906
BBXX PCBT 26183 99378 70277 41798 71920 10185 20163 40226 53013 70322 85078 22214 20504 399// 4//05 80171
BBXX UCKG 26181 99616 10031 41/95 92326 10070 49920 52007 78262 22241 00080 21515
BBXX PHQW 26183 99433 70104 41598 62405 10137 20102 40320 5/010 70311 86500 22283 00139 2//// 80117 90805
BBXX PHAA 26183 99426 70107 41298 71606 10135 20105 40320 52015 70311 877// 22243 20201 330// 40602 80118 90805
BBXX DDSC2 26183 99380 70333 41298 62521 10188 20168 40148 52023 72500 85778 22254 00179 20403 319// 40706 80175
BBXX A8PX4 26184 99362 70033 41/98 71025 10157 20087 40311 52011 70362 8//// 22224 00161 2//// 80118
BBXX PIAG 26183 99463 70328 41/98 /0503 10116 40121 56015 70222 8/770 22263 00140 2//// 327// 41003
BBXX MGSM5 26183 99556 10025 41997 42628 10060 20036 40235 58005 70200 80003 22214 04083 20301 326// 40706 5//// 80050
BBXX UBEF5 26181 99410 70098 41998 01203 10130 40332 54000 70200 80000 22283 00150 2//// 33200 40602
BBXX UFJN 26181 99731 10475 41/98 62411 11020 49750 57010 80022 86/// 22200 0//// 20402
BBXX C6VR5 26183 99323 70195 41497 40908 10190 20072 40297 51/// 70311 84461 22244 04192 20802 302// 40902 80130
BBXX PBCK 26183 99084 31285 41/98 /3123 10282 20263 40046 56004 713// 8//// 22263 00310 20605 399// 4//04 80268 90805 6746
BBXX VNSZ 26184 99381 31449 46/// /2218 10154 20090 30098 40124 52011 22285 04199 85118
BBXX 2ALD3 26183 99022 31442 41697 63615 10280 20267 40062 54000 70222 85799 22234 04290 20101 80270
BBXX 3ECI3 26184 99412 31748 41497 40510 10165 20139 40153 54000 70300 84232 22200 00160 20401 304// 40801 80150
BBXX PCAM 26183 99295 31560 41398 40907 10212 20190 40049 53007 70011 841// 22273 20301 308// 40804 80197
BBXX ZMIQ 26183 99369 31770 41498 50613 10175 20111 40207 56004 70222 82368 22233 00196 20301 306// 40503 80140
BBXX MGRH9 26184 99293 31576 41/98 51715 10220 20197 40018 57001 76266 85/// 22273 00222 2//// 3//// 4//// 5//// 80205
BBXX AVMI 26183 99330 31517 41198 81626 10188 20/// 40138 56018 75003 881/2 22200 00214
BBXX KAOU 26184 99007 10823 43/// /2720 10280 20237 40101 5//// 7//// 8//// 222// 04287 2//// 3//// 4//// 5//// 6//// 8//// ICE /////
AAXX 26181 45032 36/// /0001 10105 20081 30237 40255 54000
AAXX 26181 45035 36/// /3301 10136 20086 30211 40255 52001
AAXX 26181 45039 36/// /0503 10152 20107 30236 40252 54000
AAXX 26181 45044 36/// /0908 10154 20107 30150 40245 57001 333 91113
AAXX 26184 60351 12558 50000 10095 20085 40303 53002 60302 85200 333 10158 84820 83826 95900
AAXX 26184 60355 12558 61903 10119 20052 40295 51006 69961 86500 333 10143 86630 95990
AAXX 26184 60445 12460 40204 10029 20016 39116 48575 52007 60002 84200 333 10069 81710 84826 95990
AAXX 26184 60468 11460 73206 10055 20025 39329 48573 53007 60012 70262 878// 333 10090 81810 87823 95990
AAXX 26184 60507 12560 20506 10074 20032 40328 53004 60002 82200 333 10130 82830 95990
AAXX 26184 60511 12565 60206 10054 20026 39157 48573 52001 60002 86230 333 10097 86823 95990
AAXX 26184 60535 12565 60406 10050 20027 38910 48564 54000 60002 86200 333 10072 86826 95900
AAXX 26184 60536 12660 20204 10065 20031 39419 48575 51005 60002 82500 333 10108 82633 95990
AAXX 26184 60549 11660 53512 10044 21009 39011 48594 53006 60002 70211 85200 333 10071 85833 95990
AAXX 26184 60550 12560 60908 10039 21009 38745 48576 53005 60002 86500 333 10060 86623 95990
AAXX 26184 60555 12670 70000 10125 20051 40284 52001 60002 8323/ 333 10145 83840 85360
AAXX 26184 60559 12660 70000 10131 20043 40282 53002 60002 8323/ 333 10154 83840 84360
AAXX 26184 60581 12660 60506 10140 20035 40271 52004 60002 86500 333 10167 86640
AAXX 26184 60602 12960 00910 10134 20020 40268 53006 60002 333 10163 95990
AAXX 26184 60607 12960 00314 10144 21002 40260 53002 60002 333 10165
AAXX 26184 60640 12960 00412 10130 20002 40238 53007 60002 333 10175
AAXX 26184 60690 NIL
AAXX 26184 91945 06/// /0514 10280 20220 30157 40162 50010 69941 333 69947
AAXX 26184 60360 11558 72005 10102 20094 40297 51004 60032 70362 8787/ 333 10130 82826 85460 95990
AAXX 26184 60390 12570 60000 10112 20081 40322 53003 60002 82830 333 10161 82820 85359 95990
AAXX 26184 60402 11560 40000 10090 20082 40312 50002 60032 70161 84800 333 10105 82820 83640 95900
AAXX 26184 60419 12565 33004 10044 20012 40311 53001 69922 83800 333 10098 81820 83630 95990
AAXX 26184 60475 11560 80000 10061 20048 39326 48570 53007 69922 70362 888// 333 10082 83820 87833 95990
AAXX 26184 60490 12570 30204 10120 20075 40316 53002 60002 83500 333 10164 83620 95990
AAXX 26184 60525 12660 70000 10130 20028 40272 53003 60002 8623/ 333 10175 86840 83360 95990
AAXX 26184 60531 12970 00606 10108 20052 40324 53008 60002 333 10150 95990
AAXX 26184 60566 12660 70808 10118 20017 40289 51001 60002 872// 333 10146 87840
AAXX 26184 60571 12962 01306 10122 20017 39327 48567 53001 60002 333 0//00 95990
AAXX 26184 60580 12660 80310 10132 20071 40276 53006 60002 8523/ 333 10157 85840
AAXX 26184 60590 12660 70308 10120 20045 40273 51006 60002 872// 333 10150 87840
AAXX 26184 60611 12960 01102 10110 21005 40240 53004 60002 333 10156
AAXX 26184 60620 12960 20114 10147 21015 40250 53017 60002 80002 333 10188 82075
AAXX 26184 60630 12960 00710 10168 20018 40220 53009 60002 333 10206
AAXX 26184 60656 12970 20812 10170 20017 40235 56003 60002 80002 333 10190 82073
AAXX 26184 60670 12970 10000 10107 21038 39102 48529 53006 60002 80002 333 10162 81073 95990
AAXX 26184 60680 12980 23008 10127 21040 38663 48537 53008 60002 80002 333 10172 82073 95990
AAXX 26184 60351 12558 50000 10095 20085 40303 53002 60302 85200 333 10158 84820 83826 95900
AAXX 26184 60355 12558 61903 10119 20052 40295 51006 69961 86500 333 10143 86630 95990
AAXX 26184 60445 12460 40204 10029 20016 39116 48575 52007 60002 84200 333 10069 81710 84826 95990
AAXX 26184 60468 11460 73206 10055 20025 39329 48573 53007 60012 70262 878// 333 10090 81810 87823 95990
AAXX 26184 60507 12560 20506 10074 20032 40328 53004 60002 82200 333 10130 82830 95990
AAXX 26184 60511 12565 60206 10054 20026 39157 48573 52001 60002 86230 333 10097 86823 95990
AAXX 26184 60535 12565 60406 10050 20027 38910 48564 54000 60002 86200 333 10072 86826 95900
AAXX 26184 60536 12660 20204 10065 20031 39419 48575 51005 60002 82500 333 10108 82633 95990
AAXX 26184 60549 11660 53512 10044 21009 39011 48594 53006 60002 70211 85200 333 10071 85833 95990
AAXX 26184 60550 12560 60908 10039 21009 38745 48576 53005 60002 86500 333 10060 86623 95990
AAXX 26184 60555 12670 70000 10125 20051 40284 52001 60002 8323/ 333 10145 83840 85360
AAXX 26184 60559 12660 70000 10131 20043 40282 53002 60002 8323/ 333 10154 83840 84360
AAXX 26184 60581 12660 60506 10140 20035 40271 52004 60002 86500 333 10167 86640
AAXX 26184 60602 12960 00910 10134 20020 40268 53006 60002 333 10163 95990
AAXX 26184 60607 12960 00314 10144 21002 40260 53002 60002 333 10165
AAXX 26184 60640 12960 00412 10130 20002 40238 53007 60002 333 10175
AAXX 26184 60690 NIL
AAXX 26184 60360 11558 72005 10102 20094 40297 51004 60032 70362 8787/ 333 10130 82826 85460 95990
AAXX 26184 60390 12570 60000 10112 20081 40322 53003 60002 82830 333 10161 82820 85359 95990
AAXX 26184 60402 11560 40000 10090 20082 40312 50002 60032 70161 84800 333 10105 82820 83640 95900
AAXX 26184 60419 12565 33004 10044 20012 40311 53001 69922 83800 333 10098 81820 83630 95990
AAXX 26184 60475 11560 80000 10061 20048 39326 48570 53007 69922 70362 888// 333 10082 83820 87833 95990
AAXX 26184 60490 12570 30204 10120 20075 40316 53002 60002 83500 333 10164 83620 95990
AAXX 26184 60525 12660 70000 10130 20028 40272 53003 60002 8623/ 333 10175 86840 83360 95990
AAXX 26184 60531 12970 00606 10108 20052 40324 53008 60002 333 10150 95990
AAXX 26184 60566 12660 70808 10118 20017 40289 51001 60002 872// 333 10146 87840
AAXX 26184 60571 12962 01306 10122 20017 39327 48567 53001 60002 333 0//00 95990
AAXX 26184 60580 12660 80310 10132 20071 40276 53006 60002 8523/ 333 10157 85840
AAXX 26184 60590 12660 70308 10120 20045 40273 51006 60002 872// 333 10150 87840
AAXX 26184 60611 12960 01102 10110 21005 40240 53004 60002 333 10156
AAXX 26184 60620 12960 20114 10147 21015 40250 53017 60002 80002 333 10188 82075
AAXX 26184 60630 12960 00710 10168 20018 40220 53009 60002 333 10206
AAXX 26184 60656 12970 20812 10170 20017 40235 56003 60002 80002 333 10190 82073
AAXX 26184 60670 12970 10000 10107 21038 39102 48529 53006 60002 80002 333 10162 81073 95990
AAXX 26184 60680 12980 23008 10127 21040 38663 48537 53008 60002 80002 333 10172 82073 95990
BBXX A8HG2 26184 99463 11529 41798 12910 10020 40010 54000 70200 81500 22254 04020 20302 3//// 4//// 5////
BBXX A8IM7 26184 99324 11781 41/98 /2718 10190 20159 40150 54000 76200 8//// 22225 20304 3//// 4//// 5//// 80170
BBXX A8SI3 26183 99470 11526 43998 0//// 10020 21070 40090 52010 22254 00000 81010
BBXX SJCD 26181 99538 11769 43/97 20510 11017 40124 56012 22264 00035
AAXX 26181 38598 415// 82702 10012 20007 40259 52019 77172 8872/
AAXX 26181 38599 NIL
AAXX 26181 38725 426// 80000 11014 21054 48480 54000 85902
AAXX 26181 38734 414// 60702 11041 21050 47040 54000 70282 85903
AAXX 26181 38744 NIL
AAXX 26181 38836 NIL
AAXX 26181 38838 NIL
AAXX 26181 38844 41/// 92302 11038 21038 48490 52009 78584 333 96045
AAXX 26181 38846 NIL
AAXX 26181 38847 416// 80000 10071 20059 40236 52014 78082 889//
AAXX 26181 38932 NIL
AAXX 26181 38933 116// 81604 10069 20041 39721 40238 52024 69900 76162 8802/ 333 10136
AAXX 26181 38944 315// 81103 10061 20050 39598 40133 52015 78082 889// 333 10126
AAXX 26181 38954 116// 80000 11030 21031 37951 48540 56000 77070 8802/ 333 10002
AAXX 26181 38598 415// 82702 10012 20007 40259 52019 77172 8872/
AAXX 26181 38599 NIL
AAXX 26181 38725 426// 80000 11014 21054 48480 54000 85902
AAXX 26181 38734 414// 60702 11041 21050 47040 54000 70282 85903
AAXX 26181 38744 NIL
AAXX 26181 38836 NIL
AAXX 26181 38838 NIL
AAXX 26181 38844 41/// 92302 11038 21038 48490 52009 78584 333 96045
AAXX 26181 38846 NIL
AAXX 26181 38847 416// 80000 10071 20059 40236 52014 78082 889//
AAXX 26181 38932 NIL
AAXX 26181 38933 116// 81604 10069 20041 39721 40238 52024 69900 76162 8802/ 333 10136
AAXX 26181 38944 315// 81103 10061 20050 39598 40133 52015 78082 889// 333 10126
AAXX 26181 38954 116// 80000 11030 21031 37951 48540 56000 77070 8802/ 333 10002
BBXX 46207 26181 99509 71299 46/// /1622 10073 40021 57045 22200 00083 11013 70065 333 91227
AAXX 26181 01311 47657 82211 10102 20080 39965 40026 57013 700// 333 10102 91117
AAXX 26181 01494 17/56 /2008 10083 20072 30001 40065 55008 60002 700// 333 10084 91114
BBXX 3ERR2 26184 99635 10053 41496 82641 10089 20081 49803 57035 70262 887// 22200 06092 10911 70057 333 91153
BBXX LF3N 26184 99653 10073 41496 81521 10039 20028 49808 57087 76062 8772/ 22200 10908 70041
BBXX LF4B 26184 99606 10037 47/96 /2239 10109 49976 57013 710// 22200 00089 10810 70052 333 91147
BBXX LF4C 26184 99584 10019 41996 72336 10110 20089 40064 52002 70222 89/// 22200 00081 10709 70045 333 91146
BBXX LF5T 26184 99660 10081 41498 /1421 10035 21002 49810 57067 702// 22200 06081 10907 70036 333 91125
AAXX 26181 01025 17/57 42208 10011 21035 39827 49838 58003 60064 781// 333 10042 91124
AAXX 26181 40700 12660 80000 10046 20026 30233 40324 51004 60001 8452/ 333 55000 84635 88458
AAXX 26181 40723 11559 80000 10012 20007 38936 40237 51039 69931 75155 8662/ 333 55000 23715 86730 88558
AAXX 26181 40726 11557 82102 10028 20014 38692 40239 52017 69981 76161 8532/ 333 55046 82930 83635 88557
AAXX 26181 40727 11660 50000 10018 20008 38515 40248 51005 69921 70282 85500 333 55045 20925 85645
AAXX 26181 40734 11457 82302 10080 20071 30321 40295 50000 60051 70265 8732/ 333 55000 85710 82920 88457
AAXX 26181 40737 11460 80000 10082 20082 30277 40295 55001 60011 76066 8632/ 333 55000 2//// 84715 82920 88557
AAXX 26181 40741 11556 80000 10041 20037 39967 40315 53013 69911 76022 8672/ 333 55010 86720 88559
AAXX 26181 40780 12660 50000 10026 21004 38728 40250 52010 60001 81570 333 55084 20688 81640 84459
AAXX 26181 40791 12960 00000 10100 21070 39383 40212 58001 60001 333 55084
AAXX 26181 40792 12970 00000 10040 21074 38744 40216 50002 60001 333 55086
AAXX 26181 40794 12960 03103 10130 20031 30120 40219 51010 60001 333 55079 2////
AAXX 26181 40812 12960 00000 10140 20030 39827 40207 52020 60001 333 55088
AAXX 26181 40829 11950 02803 10052 21129 39625 40211 52026 60001 70500 333 55070
AAXX 26181 40833 12962 03205 10134 20047 30182 40215 51011 60001 91745 333 55087
AAXX 26181 40835 12970 00000 10120 20027 39361 40198 56004 60001 333 55090
AAXX 26181 40845 NIL
AAXX 26181 40882 11957 02806 10218 20176 30130 40165 51008 60001 70700 333 55087
AAXX 26181 40889 NIL
AAXX 26181 40890 NIL
AAXX 26181 40893 11950 03207 10222 20172 30140 40147 51006 60001 70700 222// 00/// 20501 333 55082
AAXX 26181 40897 NIL
BBXX 46207 26181 99509 71299 46/// /1622 10073 40021 57045 22200 00083 11013 70065 333 91227
AAXX 26181 40700 12660 80000 10046 20026 30233 40324 51004 60001 8452/ 333 55000 84635 88458
AAXX 26181 40723 11559 80000 10012 20007 38936 40237 51039 69931 75155 8662/ 333 55000 23715 86730 88558
AAXX 26181 40726 11557 82102 10028 20014 38692 40239 52017 69981 76161 8532/ 333 55046 82930 83635 88557
AAXX 26181 40727 11660 50000 10018 20008 38515 40248 51005 69921 70282 85500 333 55045 20925 85645
AAXX 26181 40734 11457 82302 10080 20071 30321 40295 50000 60051 70265 8732/ 333 55000 85710 82920 88457
AAXX 26181 40737 11460 80000 10082 20082 30277 40295 55001 60011 76066 8632/ 333 55000 2//// 84715 82920 88557
AAXX 26181 40741 11556 80000 10041 20037 39967 40315 53013 69911 76022 8672/ 333 55010 86720 88559
AAXX 26181 40780 12660 50000 10026 21004 38728 40250 52010 60001 81570 333 55084 20688 81640 84459
AAXX 26181 40791 12960 00000 10100 21070 39383 40212 58001 60001 333 55084
AAXX 26181 40792 12970 00000 10040 21074 38744 40216 50002 60001 333 55086
AAXX 26181 40794 12960 03103 10130 20031 30120 40219 51010 60001 333 55079 2////
AAXX 26181 40812 12960 00000 10140 20030 39827 40207 52020 60001 333 55088
AAXX 26181 40829 11950 02803 10052 21129 39625 40211 52026 60001 70500 333 55070
AAXX 26181 40833 12962 03205 10134 20047 30182 40215 51011 60001 91745 333 55087
AAXX 26181 40835 12970 00000 10120 20027 39361 40198 56004 60001 333 55090
AAXX 26181 40845 NIL
AAXX 26181 40882 11957 02806 10218 20176 30130 40165 51008 60001 70700 333 55087
AAXX 26181 40889 NIL
AAXX 26181 40890 NIL
AAXX 26181 40893 11950 03207 10222 20172 30140 40147 51006 60001 70700 222// 00/// 20501 333 55082
AAXX 26181 40897 NIL
AAXX 26183 87480 32665 60508 10288 20159 30124 40153 57020 84130 333 56650 84840 83360
AAXX 26184 87344 32562 43609 10312 20145 39597 40130 57019 81502 333 56707 81630 83070
AAXX 26184 87349 NIL
AAXX 26184 87371 32562 40505 10291 20160 30144 40164 57016 84500 333 56600 84625
AAXX 26184 87374 32665 40904 10274 20152 30069 40155 57017 84100 333 56800 84835
AAXX 26184 87395 NIL
AAXX 26184 87418 32965 61405 10317 20091 39321 40091 57020 86070 333 56020 86360
AAXX 26184 87436 32970 43207 10327 20123 39313 40096 57025 82074 333 56077 82630
AAXX 26184 87448 32965 40515 10356 20119 39570 40114 57017 84050 333 56060 84360
AAXX 26184 87453 32965 13617 10324 20116 39648 40122 57016 81070 333 56050 81360
AAXX 26184 87467 32970 00508 10304 20177 30010 40142 57017
AAXX 26184 87497 32665 41405 10279 20136 30145 40172 57017 82102 333 56207 82840
AAXX 26184 87506 32970 30504 10304 20052 38578 48504 57015 81074 333 56067 81360 95000
AAXX 26184 87509 32970 60907 10342 20081 39270 40085 57017 80008 333 56000 86270
AAXX 26184 87532 31960 03618 10335 20135 39960 40125 58021 70700
AAXX 26184 87534 32960 53612 10330 20122 39974 40133 57021 82076 333 56065 82360 85270
AAXX 26184 87548 32565 20207 10306 20096 30049 40144 57025 81105 333 56101 81825
AAXX 26184 87576 32760 10712 10284 20151 30150 40173 57019 81100 333 56600 81856
AAXX 26184 87582 32660 11110 10249 20152 30172 40178 57019 81100 333 56100 81835
AAXX 26184 87585 32560 10906 10270 20137 30144 40173 57017 81100 333 56200 81825
AAXX 26181 44210 32999 00000 11261 21279 38544 56001
AAXX 26181 44216 32999 03403 11327 21351 39077 40526 58004
AAXX 26181 44217 32998 00000 11257 21281 37848 40491 54000 333 91103
AAXX 26181 44219 329// 00000 11300 21323 38659 40501 57002
AAXX 26181 44221 329// 00000 11350 21374 38632 40546 58001
AAXX 26181 44224 329// 00000 11355 21383 38064 40583 56006
AAXX 26181 44229 32999 02703 11252 21284 37938 40478 58001
AAXX 26181 44242 329// 00000 11274 21301 39372 40401 52002
AAXX 26181 44243 329// 00000 11309 21343 39470 40419 53004
AAXX 26181 44254 329// 02504 11183 21217 39047 40309 56006
AAXX 26181 44257 329// 00000 11261 21289 38999 40406 50000
AAXX 26181 44263 32998 00000 11272 21318 38098 40557 53009
AAXX 26181 44266 329// 00000 11170 21239 37762 40360 52001
AAXX 26181 44286 329// 01801 11195 21243 38658 40380 54000
AAXX 26181 44291 319// 00000 11298 21328 38767 40480 54000 70400
AAXX 26181 44325 329// 00902 11248 21266 38906 40454 58001
AAXX 26181 44329 32998 02305 11183 21228 37784 40387 54000
AAXX 26181 44338 32999 02002 11190 21231 38490 40379 58001
AAXX 26181 44348 329// 00000 11150 21177 38707 40328 58016
AAXX 26181 44374 32999 02303 11158 21225 38277 40405 58002
AAXX 26181 44385 32999 00000 11093 21109 38947 40318 58015
AAXX 26181 44386 329// 00000 11145 21188 39090 40340 57002
AAXX 26181 40700 12660 80000 10046 20026 30233 40324 51004 60001 8452/ 333 55000 84635 88458
AAXX 26181 40723 11559 80000 10012 20007 38936 40237 51039 69931 75155 8662/ 333 55000 23715 86730 88558
AAXX 26181 40726 11557 82102 10028 20014 38692 40239 52017 69981 76161 8532/ 333 55046 82930 83635 88557
AAXX 26181 40727 11660 50000 10018 20008 38515 40248 51005 69921 70282 85500 333 55045 20925 85645
AAXX 26181 40734 11457 82302 10080 20071 30321 40295 50000 60051 70265 8732/ 333 55000 85710 82920 88457
AAXX 26181 40737 11460 80000 10082 20082 30277 40295 55001 60011 76066 8632/ 333 55000 2//// 84715 82920 88557
AAXX 26181 40741 11556 80000 10041 20037 39967 40315 53013 69911 76022 8672/ 333 55010 86720 88559
AAXX 26181 40780 12660 50000 10026 21004 38728 40250 52010 60001 81570 333 55084 20688 81640 84459
AAXX 26181 40791 12960 00000 10100 21070 39383 40212 58001 60001 333 55084
AAXX 26181 40792 12970 00000 10040 21074 38744 40216 50002 60001 333 55086
AAXX 26181 40794 12960 03103 10130 20031 30120 40219 51010 60001 333 55079 2////
AAXX 26181 40812 12960 00000 10140 20030 39827 40207 52020 60001 333 55088
AAXX 26181 40829 11950 02803 10052 21129 39625 40211 52026 60001 70500 333 55070
AAXX 26181 40833 12962 03205 10134 20047 30182 40215 51011 60001 91745 333 55087
AAXX 26181 40835 12970 00000 10120 20027 39361 40198 56004 60001 333 55090
AAXX 26181 40845 NIL
AAXX 26181 40882 11957 02806 10218 20176 30130 40165 51008 60001 70700 333 55087
AAXX 26181 40889 NIL
AAXX 26181 40890 NIL
AAXX 26181 40893 11950 03207 10222 20172 30140 40147 51006 60001 70700 222// 00/// 20501 333 55082
AAXX 26181 40897 NIL
AAXX 26181 48806 32997 00000 10072 20051 39457 40267 50001 333 58000
AAXX 26181 48803 32497 60000 10107 20099 30124 40243 50003 868// 333 59007 82894 86696
AAXX 26183 64800 NIL
AAXX 26183 64820 NIL
AAXX 26183 64860 32960 60000 10284 20083 39822 40093 80002 333 10342 59014 86080
AAXX 26183 64861 NIL
AAXX 26183 64870 31958 70602 10220 20082 38905 48500 70522 80002 333 10295 59007 87080
AAXX 26183 64871 NIL
AAXX 26183 64892 NIL
AAXX 26183 64893 NIL
AAXX 26183 64894 NIL
AAXX 26184 64910 31458 60000 10280 20253 30087 40096 70522 83502 333 10332 59002 83616 86080
AAXX 26184 64911 NIL
AAXX 26184 64950 NIL
AAXX 26181 34560 32397 72510 11043 21052 30029 40201 57034 87600 333 11029 87709
AAXX 26181 34720 11496 82505 11009 21014 30245 40286 58012 69900 77772 886// 333 11024
AAXX 26181 34730 11230 82508 11024 21031 30185 40281 57008 69900 77772 886// 333 11013 88705
AAXX 26181 34740 31596 82606 11014 21030 30185 40285 50000 71022 885// 333 10015
AAXX 26181 34824 31596 82803 11002 21014 30316 40321 53002 71022 8850/ 333 10013
AAXX 26181 34858 31996 62606 10013 21009 30169 40279 56014 71011 86030 333 10025
AAXX 26181 34866 32998 02605 11005 21019 30273 40264 58013 333 10026
AAXX 26181 34880 31396 82304 10012 20001 30281 40255 57013 71076 8672/ 333 10018 88409
AAXX 26181 37018 32598 80601 10050 20009 30263 40340 52004 8850/ 333 10088
AAXX 26181 37054 31496 82703 10019 20003 39914 40309 58008 71022 885// 333 10046
AAXX 26181 37472 31996 82501 10024 20001 30329 40306 58002 71022 8007/ 333 10049
AAXX 26181 22165 11496 81410 11003 21006 39719 49779 53002 69940 78582 889// 333 10000 91116
AAXX 26181 22676 11450 81302 11045 21054 39742 49820 57012 69930 77172 8872/ 333 11031
AAXX 26181 22837 NIL
AAXX 26181 22954 11298 82704 10008 20003 39572 49814 53014 60060 72273 887// 333 11012 86705
AAXX 26181 23405 12371 81504 11080 21098 39781 49882 57016 69900 886// 333 11073 88709
AAXX 26181 23412 11496 81304 11116 21136 39829 49928 57014 69950 77172 8872/ 333 11081 86514
AAXX 26181 23803 11699 81603 11093 21105 39749 49932 56024 69970 70272 885// 333 11098 88634
AAXX 26181 27066 11496 81803 11041 21053 39684 49861 57026 60020 77173 8677/ 333 11043 86713
AAXX 26181 27083 31450 81804 11063 21078 39677 49902 57027 77173 8802/ 333 11060
AAXX 26181 27113 11460 82704 10028 20018 39722 49864 53027 60050 78082 8633/ 333 10022 85916
AAXX 26181 27242 11397 82904 11007 21007 39729 49855 57014 60050 78582 889// 333 11022 87709 91112
AAXX 26181 27329 11562 83007 10030 20017 39779 49901 56005 60040 78083 889// 333 10010 91013
AAXX 26181 27355 11497 82003 11020 21026 39753 49917 57012 60080 77172 8872/ 333 11036
AAXX 26181 27373 11396 81806 11049 21062 39695 49914 57038 69930 75673 886// 333 11055 88709 91113 9298/ 93401
AAXX 26181 27665 11/93 92304 11036 21054 39702 49974 57038 60010 77373 333 11050 91115 9298/
AAXX 26181 27835 114// 72405 10016 21003 39878 40036 57024 69950 70273 875// 333 11008 87619 91115 92980
AAXX 26181 28009 11498 81804 11089 21100 39755 49970 57039 69970 73672 885// 333 11096
AAXX 26181 28411 11297 81406 11100 21113 39836 40037 57036 69950 77175 8872/ 333 11102 88706 93400
AAXX 26181 28418 11597 81603 11094 21110 39879 40051 57033 69980 70272 885// 333 11098 88623
AAXX 26181 22282 115// 82207 11025 21034 39803 49811 54000 69940 78583 889// 333 11014
AAXX 26181 22438 NIL
AAXX 26181 22471 11584 81403 11034 21051 39787 49811 57002 69900 78587 8693/ 333 11016 86921
AAXX 26181 22563 11396 81301 11034 21042 39768 49806 54000 60020 77373 8872/ 333 11020 86707
AAXX 26181 22641 11397 83402 11014 21016 39789 49804 52040 60040 78582 889// 333 10002 86709 91104
AAXX 26181 22695 NIL
AAXX 26181 22867 11498 81902 11017 21028 39685 49796 57010 60040 70273 886// 333 11025 88712 91107
AAXX 26181 22939 11597 72806 10022 20014 39697 49855 52039 60040 72588 87500 333 10015 84923
AAXX 26181 22996 11496 61805 11066 21082 39721 49912 57019 69900 78583 86900 333 11065
AAXX 26181 23324 11581 82102 11101 21121 39864 49943 57013 69900 70272 885// 333 11086 88630
AAXX 26181 27008 11998 72505 10028 20007 39737 49904 52051 60050 72162 87070 333 10031
AAXX 26181 27051 11396 81902 11024 21030 39667 49831 57007 60040 77177 8625/ 333 11038 84707
AAXX 26181 27225 11459 83006 10032 20008 39759 49886 53007 60030 76176 8872/ 333 10020 88716 91012 91112
AAXX 26181 27252 11496 82004 11032 21036 39684 49868 57030 60020 77177 8877/ 333 11042 88714 91117
AAXX 26181 27333 11350 82806 10009 20009 39726 49881 57019 60010 77173 887// 333 11010 88710 91012
AAXX 26181 27369 11595 81703 11036 21047 39774 49911 57037 60030 77172 8802/ 333 11042 88527
AAXX 26181 27393 11396 82008 11067 21075 39802 49972 57036 69900 77775 886// 333 11077 91112 93401
AAXX 26181 27479 11498 82107 11037 21059 39810 49944 57047 69900 73673 85903 333 11043 85917 91114
AAXX 26181 27532 11395 82607 10010 20005 39722 49931 57015 60020 77173 8872/ 333 11014 86709 91112
AAXX 26181 27648 11497 82405 10003 21008 39899 49966 57028 60020 78587 889// 333 10003 88913 91113
AAXX 26181 27675 32495 82210 11040 21049 39811 49982 57054 77173 8872/ 333 11043 88514
AAXX 26181 27679 11498 82008 11045 21054 39771 49996 57049 69900 73673 885// 333 11057 88620
AAXX 26181 28214 11596 81604 11097 21105 39783 40001 57036 69950 77172 8872/ 333 11104
BBXX BAREU05 26184 99467 70567 46/// ///// 40170 52004 22224
BBXX 41101 26184 99146 70562 46/// /0613 10260 20216 40136 57018 22200 00270 10603 70016
BBXX PHCQ 26183 99299 70902 41/91 /0000 10163 20150 40210 74542 8//// 22200 00087 20000 3//// 4//// 5//// 80155
BBXX BATFR15 26184 99236 70504 44798 10105 10235 20165 40183 56016 70000 81111 22214 00255 307// 41502 5////
BBXX A8EH3 26183 99543 71596 41497 73323 11045 21066 40025 53005 70377 877// 22265 04050 20403 82050
BBXX A8KM9 26184 99216 71270 41398 40918 10190 20150 40220 52/// 70311 84778 22264 20404 308// 41004 80165
BBXX BAREU56 26184 99326 10150 46/// ///// 40246 57001 22222
BBXX PCEO 26183 99448 70142 41599 82104 10130 20051 40316 54000 7//// 8/7// 22254 04137 20801 329// 41004 5//// 80090
BBXX DDZD2 26184 99333 10264 41/97 90817 10136 20100 40260 51025 75885 89/// 22225 00170 299// 80116
BBXX BAREU63 26184 99444 10089 46/// ///// 10112 29029 40335 22200
BBXX TESTFR9 26184 99499 70040 46/// /2222 10113 29076 40366 57017 22284
BBXX 61001 26184 99434 10078 46/// /0209 10139 20052 40334 57004 22200 00141 10501 70007
BBXX BAREU11 26184 99492 70100 46/// ///// 40316 52014 22224
BBXX BAREU62 26184 99364 10225 46/// ///// 40291 57004 22264
BBXX BATFR03 26184 99505 70011 46/// /2421 10100 20057 40361 58005 22213
BBXX BATFR13 26184 99468 70038 46/// /1013 10109 20064 40360 55003 22264 00140
BBXX BATFR09 26184 99388 10088 44498 70617 10124 20054 40316 53018 70222 84240 22223 00167 20304 60//0 ICE 0/0//
BBXX BATFR14 26184 99510 10022 46/// /2311 10112 20089 40358 53011 22200 00095
BBXX BATFR60 26184 99538 10065 46/// /2225 10089 20079 40305 53010 22222 00065
BBXX BATFR54 26184 99513 70059 46/// /2228 10114 20069 40310 56012 22282 00114
BBXX BATFR01 26184 99430 10061 46/// /0009 10142 20039 40337 53014 22272 00159
BBXX BATFR24 26184 99427 10095 46/// /3308 10129 20029 40340 22222 00150
BBXX BATFR11 26184 99376 10018 46/// ///// 10139 20064 40321 52005 22212 00172
BBXX BATFR52 26184 99499 70040 46/// /2226 10115 20067 40348 58017 22283 00119
BBXX BATEU04 26184 99610 70308 46/// /2634 10022 21066 4//// 22251
BBXX BATFR20 26184 99431 10054 46/// ///// 10132 21041 40342 22233
BBXX BATUK01 26184 99560 70032 46/// /2510 10134 20067 40140 55002 22200 00072
BBXX 2ALE5 26183 99376 70098 41/98 30611 10150 20069 40273 58009 70200 83/6/ 22244 20303 80110
BBXX PHQX 26183 99349 70270 41/97 /1707 10199 20138 40253 53003 70311 8/285 22254 20302 3//// 4//03 5//// 80161
BBXX A8IO2 26184 99422 70157 41298 81302 10160 20103 40286 52010 70300 87778 22254 04150 20501 325// 40803 5//// 80130
BBXX 61002 26184 99421 10047 46/// ///14 10131 2//// 40348 52002 22200 00137 10502 70010
BBXX A8SF7 26181 99034 70898 41/98 81809 10270 20241 40115 58015 7//11 8//// 22264 04240 20903 318// 41203 5//// 80250
BBXX IDDUK02 26184 99517 50578 46/// ///// 40128 222//
AAXX 26181 01271 17/50 90404 10042 20019 39851 49872 56093 60062 762// 333 10048 91110
AAXX 26181 60370 36/// /1301 10127 20084 333 10164
AAXX 26181 60371 16/-/ /3102 12128 00091 69922 333 10162
AAXX 26181 60372 NIL
AAXX 26181 60373 NIL
AAXX 26181 60374 NIL
AAXX 26181 60376 NIL
AAXX 26181 60379 NIL
AAXX 26181 60380 NIL
AAXX 26181 60381 NIL
AAXX 26181 60393 NIL
AAXX 26181 60394 NIL
AAXX 26181 60593 NIL
AAXX 26181 60595 NIL
AAXX 26181 60605 NIL
AAXX 26181 60613 NIL
AAXX 26181 60623 NIL
AAXX 26181 60624 NIL
AAXX 26181 60639 NIL
AAXX 26184 60645 36/// /0000 10174 21008 333 10207
AAXX 26184 60353 NIL
AAXX 26184 60367 12560 6//// 10124 20109 40267 57017 60022 86800 333 10155 83820 86840
AAXX 26184 60369 11560 70214 10140 20063 40310 53002 60012 76162 83282 333 10157 83826 91837
AAXX 26184 60401 NIL
AAXX 26184 60403 11558 60000 10070 20059 40306 53004 60042 70162 86800 333 10108 82826 86836 95990
AAXX 26184 60425 11560 70215 10130 20061 40319 53001 60002 70392 8693/ 333 10147 86830 81933 95990
AAXX 26184 60461 12570 30406 10145 20076 40317 53004 60002 83200 222// 20000 333 10153 83826 91838 95990
AAXX 26184 60467 12660 73408 10097 20042 40293 58003 60002 8683/ 333 10136 86833 95990
AAXX 26184 60492 12565 23604 10118 20097 40314 53005 60002 81230 333 10154 81830 95990
AAXX 26184 60515 12560 70000 10094 20048 40309 51003 60002 872// 333 10126 87830 95990
AAXX 26184 60517 12965 00604 10150 20075 40315 53007 60002 333 10173 95990
AAXX 26184 60522 12970 00606 10102 20021 40324 53007 60002 333 10137 95990
AAXX 26184 60557 11665 50412 10049 21012 38946 48575 53008 60002 70310 83280 333 10070 83833 83360 95990
AAXX 26184 60563 12660 70208 10075 21014 39379 48563 52008 60002 878// 333 10126 87830
AAXX 26184 60603 12660 30508 10134 20008 40268 53007 60002 83100 333 10180 83840
AAXX 26184 60638 12660 1//// 10124 20009 40247 53006 60002 81100 333 10166 81840
AAXX 26184 60686 NIL
BBXX BATFR08 26184 99202 30573 46/// /0811 10262 20212 40142 58007 22283 00274
BBXX BATFR19 26184 99067 30055 46/// /1916 10239 20209 40119 53009 22200 00254
BBXX BATFR55 26184 99105 30470 44598 31012 10279 20252 40118 70111 82241 22222 00287 208// 33131 410// 510//
BBXX BATFR53 26184 99188 51535 46/// /0212 10274 20217 40142 51013 22222 00282
BBXX BATFR56 26184 99032 30822 46/// /2622 10252 20250 40111 56015 22213 00287
AAXX 26184 60395 11660 80000 10105 20087 40307 54000 60042 76062 8427/ 333 10136 84840 85460 95990
AAXX 26184 60421 11560 70602 10053 20012 39237 48566 53006 69922 70262 872// 333 10102 87830 95990
AAXX 26184 60423 11660 60000 10050 20035 39294 48548 56002 60032 72162 86800 333 10072 82833 86640 95990
AAXX 26184 60430 11560 51008 10076 20040 40326 54000 60012 70162 85200 333 10116 85823 95990
AAXX 26184 60437 11458 63606 10045 20032 39069 48559 58002 60022 70262 86800 333 10080 81713 85823 95990
AAXX 26184 60444 11558 73608 10051 20033 39183 48578 53005 69922 70262 878// 333 10073 82826 86830 95990
AAXX 26184 60452 12565 4//// 10153 20081 40311 51002 60002 83200 222// 2//// 333 10158 83820 91847
AAXX 26184 60457 12563 10000 10114 20071 40316 53004 60002 81700 333 10157 81820 95990
AAXX 26184 60514 12560 40606 10059 20031 39385 48599 53004 60002 84500 333 10121 84626 95990
AAXX 26184 60518 12565 13604 10132 20079 40297 53004 60002 81500 222// 29901 333 10160 81620 91827 95990
AAXX 26184 60520 12560 20102 10090 20057 40317 53004 60002 82200 333 10131 82826 95990
AAXX 26184 60540 11560 40912 10064 20015 39108 48555 55001 60002 70310 84200 333 10087 84830 95990
AAXX 26184 60560 11660 10000 10064 21014 39033 48565 53005 60002 70300 81100 333 10112 81840 95990
AAXX 26181 14235 41/02 9//// 11002 21002 39190 48616 51006 69902 77074 333 10007 44020 93101
AAXX 26181 14246 11465 81901 10031 20019 30182 40394 52/// 69912 76026 887// 333 10057
AAXX 26181 14314 12675 60304 10103 20036 30284 40349 53/// 60002 84870 333 10123 92312 92428
AAXX 26181 14323 11681 70703 10064 20011 30335 40370 53/// 60002 702// 87500 333 10105 92322 92428
AAXX 26181 14324 11/00 90912 11042 21047 38501 48598 56/// 60002 749// 333 11028 44040
AAXX 26181 14328 NIL
AAXX 26181 14330 12560 83503 10017 21018 39674 40368 53/// 60002 885// 333 10030 43008 92842
AAXX 26181 14438 11982 20303 10072 21025 30244 40338 53/// 60002 701// 80002 333 10119 923//
AAXX 26181 14443 NIL
AAXX 26181 14447 12984 00603 10088 21028 30296 40328 53/// 60002 333 10140 92311
AAXX 26181 14472 12980 00104 10097 21057 30251 40318 51007 60002 333 10145 92312
AAXX 26181 08501 12/// /2111 10191 20158 30104 40140 52011 60172 333 10192 91020 91120 555 60035 90207 96764 90304
AAXX 26181 08505 12465 81908 10184 20156 30162 40211 53002 60022 8784/ 333 10184 82812 86640 555 60007
AAXX 26181 08506 12/// /2107 10178 20153 30138 40209 52003 60032 333 10180 91014 91117 555 60005
AAXX 26181 08509 32460 81511 10174 20155 30165 40230 52015 888// 333 10162 83810 85815 555 60007
AAXX 26181 08511 32/// /1905 10169 20149 30127 40234 52008 333 10184 91009 91112 555 60005
AAXX 26181 08512 32480 71708 10171 20121 30166 40250 52005 878// 333 10182 82818 86635 91112 555 60005
AAXX 26181 08515 32584 71707 10174 20107 30139 40261 55000 87801 333 10189 81825 87642 910// 911// 555 60007 912//
AAXX 26181 08521 32470 73403 10179 20097 30193 40264 51006 87800 333 10195 83818 86633 555 60007
AAXX 26181 08522 32/// /9901 10176 20092 30197 40266 52008 333 10202 555 60005
AAXX 26181 08524 11470 32901 10151 20122 30169 40268 52008 60012 70181 83800 333 10178 81815 83633 555 60005
AAXX 26181 08530 NIL
AAXX 26181 08531 32/// /1203 10132 20053 30277 40316 52007 333 10162 91105 555 60005
AAXX 26181 08532 NIL
AAXX 26181 08533 32/// /1208 10158 20083 30265 40294 52005 333 10170 91012 91112 555 60005
AAXX 26180 08534 32970 10303 10136 20089 30290 40308 53003 80001 333 10156 81070 555 60007
AAXX 26181 08535 32/// /0304 10138 20069 30217 40310 52003 333 10152 91006 91106 555 60005
AAXX 26181 08537 NIL
AAXX 26181 08540 32960 03601 10106 20054 30248 40318 53005 333 10166 555 60007
AAXX 26181 08541 NIL
AAXX 26181 08544 32960 03601 10092 20076 30299 40320 52007 333 10150 555 60007
AAXX 26181 08545 31159 13601 10093 20038 30241 40326 52005 71000 81600 333 10160 81702 555 60005
AAXX 26181 08548 32/// /0801 10118 20041 30113 40321 52004 333 10150 555 60005
AAXX 26181 08551 31959 09901 10072 20036 30267 40327 52005 71000 333 10122 555 60005
AAXX 26181 08554 32970 00703 10149 20066 30291 40301 52009 333 10177 91108 555 60005
AAXX 26181 08558 32/// /0503 10094 20040 30012 40312 52005 333 10152 555 60005
AAXX 26181 08560 32/// /1101 10103 20005 39558 40324 52005 333 10149 555 60005
AAXX 26181 08561 32970 00603 10120 20075 30076 40312 52008 333 10164 555 60007
AAXX 26181 08562 32/// /0502 10111 20060 30008 40306 52007 333 10156 555 60005
AAXX 26181 08567 32/// /0401 10066 20024 39660 40341 52003 333 10106 555 60005
AAXX 26181 08568 32/// /1503 10036 21058 38746 48611 52001 333 10095 91105 555 60005
AAXX 26181 08570 31975 10902 10079 20031 39862 40332 53003 70200 80001 333 10120 81099 555 60005
AAXX 26181 08571 32/// /0302 10094 20016 39608 40321 52003 333 10154 555 60005
AAXX 26181 08575 32/// /0000 10077 21009 39510 40336 52002 333 10116 555 60005
AAXX 26181 08579 32/// /2403 10132 20057 30183 40310 52003 333 10149 555 60005
AAXX 26184 17092 12660 52702 10021 21034 38949 48567 52016 60002 83540 333 10050 83640 85360
AAXX 26181 50844 32962 02002 11198 21249 40328 57011 333 11123
AAXX 26181 50854 32970 01101 11226 21288 40346 57008 333 11146
AAXX 26181 50968 32962 00000 11271 21302 40376 57001 333 11159
AAXX 26181 51379 32780 21402 11247 21281 40366 52004 82500 333 00151 11108
AAXX 26181 51467 32980 40201 11131 21176 38275 52002 80002 333 00004 11028
AAXX 26181 51495 32980 03603 11130 21180 40367 57003 333 00051 11058
AAXX 26181 53480 32980 00000 11141 21189 40353 57009 333 11040
AAXX 26181 53673 32961 72001 11051 21097 40347 57005 80002 333 11029
AAXX 26181 53698 32961 70000 11017 21087 40343 57003 80002 333 10011
AAXX 26181 53898 31940 00000 11033 21055 40341 57003 71000 333 10044
AAXX 26181 54308 32980 00000 11158 21209 40368 57005 333 11029
AAXX 26181 54602 31957 80000 11058 21089 40338 57005 71000 80007 333 10020
AAXX 26181 54725 32962 81602 11006 21092 40344 57008 80007 333 10055
AAXX 26181 54751 32970 01603 10003 21079 40352 57010 333 10023
AAXX 26181 54916 32960 00701 11019 21033 40355 52004 333 10059
AAXX 26181 57014 32765 81103 10013 21077 40282 54000 885// 333 05103 10046
AAXX 26181 57025 32961 63401 11016 21062 40313 57004 86030 333 10034
AAXX 26181 57046 32967 82503 11037 21089 37975 57001 8807/ 333 05151 11017
AAXX 26181 58208 32962 81103 10041 21027 40316 57005 8807/ 333 10082
AAXX 26184 68383 36/// /0000 10244 20189 39959 48617 52018 333 10321 20244 91000 555 91020
AAXX 26184 68299 16/// /1005 10145 20137 38989 48573 52010 60012 333 10191 20145 91009 555 20014 60125 91025
AAXX 26184 87078 32770 32302 10340 20178 39982 40131 57025 83100 333 56700 83850
AAXX 26184 87244 32770 63602 10310 20087 39748 4//// 5//// 81806 333 56806 82819 86270
AAXX 26184 87393 32570 41804 10284 20189 30093 40155 57025 84105 333 56000 84820
AAXX 26184 87416 32965 60000 10324 20079 39376 40097 57017 80009 333 56002 86170
AAXX 26184 87563 32965 00000 10292 20050 30093 40135 56024
AAXX 26184 87640 32965 03612 10307 20095 30048 4//// 57019
AAXX 26184 87688 32965 02710 10291 20079 30022 40157 57017
AAXX 26184 87774 32682 10000 10308 20091 39132 48507 5//// 81100 333 56000 81840
AAXX 26184 87852 32584 32712 10240 20082 39666 40161 58003 83100 333 56600 83820
AAXX 26184 87593 32960 00512 10254 20098 30156 40183 57019
AAXX 26184 87623 31959 00511 10355 20136 39901 40118 57021 70600
AAXX 26184 87641 32965 03205 10288 20168 39990 40162 57020
AAXX 26184 87645 32970 00508 10282 20040 39962 40168 57020
AAXX 26184 87648 32560 10510 10277 20101 30176 40186 57012 81100 333 56800 81825
AAXX 26184 87692 32960 00714 10268 20134 30157 40182 57019
AAXX 26184 87715 32965 02505 10360 20032 39790 40095 57017
AAXX 26184 87750 32965 03405 10335 20086 30034 40131 57023
AAXX 26184 87765 NIL
AAXX 26184 87784 32980 01412 10224 20131 30121 40144 54000
AAXX 26184 87800 32980 00000 10293 20093 39765 40154 57023
AAXX 26184 87803 32580 12512 10265 20061 39250 40138 58007 81100 333 56600 81830
AAXX 26184 87828 31970 00918 10220 20122 30110 40161 58003 70400
AAXX 26184 87860 31575 10909 10194 20135 30117 40172 52003 71000 81400 333 56200 81625
AAXX 26184 87904 32980 13210 10202 21014 39925 40168 58003 80001 333 56006 81070
AAXX 26184 87909 32980 31416 10158 20086 30120 40195 52017 80004 333 56000 83070
AAXX 26184 87925 32580 32521 10190 21036 30144 40167 56012 82101 333 56509 82830
AAXX 26184 87938 31570 72324 10093 20046 30054 40124 52009 71522 85570 333 56550 85625 86360
AAXX 26183 87791 32680 11415 10339 20099 30110 40118 57015 81100 333 56600 81840
AAXX 26183 87016 32460 40906 10294 20179 39705 40105 57025 84100 333 56400 84815
AAXX 26183 87896 32580 21613 10170 20103 30068 40164 55003 82200 333 56600 57872 82825
AAXX 26184 71903 17/// /1513 10042 20033 39819 49867 56038 60021 7//4/ 333 7////
AAXX 26184 89022 42560 72403 11014 21056 39860 49897 52012 8753/ 333 83624 86462
AAXX 26184 71550 16/// /3308 10003 21001 39617 49986 53041 60001 333 10048 20003 70000
AAXX 26184 71576 16/// /0000 11320 21355 39853 49942 52007 60001 333 11250 21365 70000
AAXX 26184 71421 16/// ///// 11103 21156 39365 40093 58008 60001 333 11097 21167 70003
AAXX 26184 71432 16/// /2613 10034 21021 30134 40232 58024 60001 333 10041 20031 70000
AAXX 26184 71435 16/// /2012 10031 21061 39383 49968 58039 60001 333 10033 21039 70000
AAXX 26184 71444 16/// /3305 10008 21025 39223 49970 53017 60001 333 10010 21076 70000
AAXX 26184 71269 16/// /2918 10021 21050 60001 333 10042 20005 70000
AAXX 26184 71285 46/// /3103 11007 21030 6///1 333 10043 21031 7////
AAXX 26184 71288 16/// /3114 11265 21291 30062 40088 51004 60001 333 11242 21338 70000
AAXX 26184 71299 16/// /2215 10014 21021 39757 40028 56030 60001 333 10017 21086 70000
AAXX 26184 71752 16/// /2609 10027 21034 30015 40235 58026 60001 333 10028 20011 70000
AAXX 26184 71151 16/// /2110 10002 21040 39440 49935 56027 60001 333 10007 21024 70000
AAXX 26184 71155 16/// ///// 11017 21077 60001 333 10049 21038 70000
AAXX 26184 71158 17/// /0209 11010 21017 39680 49951 53017 69981 7//4/ 333 10012 21025 70008
AAXX 26184 71186 46/// /2814 11072 21120 6///1 333 11063 21087 7////
AAXX 26184 71190 46/// /2913 11031 21098 6///1 333 11030 21067 7////
AAXX 26184 71361 17/// /0902 11156 21177 39948 40162 51012 69981 7//4/ 333 11140 21157 70008
AAXX 26184 71374 46/// /2128 11003 21018 6///1 333 11002 21143 7////
AAXX 26184 71387 17/// /2106 11095 21139 39770 40158 50000 69931 7//4/ 333 11084 21105 70003
AAXX 26184 71393 16/// ///// 10019 21118 38907 40183 51021 60001 333 10037 21031 70000
AAXX 26184 71503 46/// /0705 11221 21248 39897 40180 50002 6///1 333 11221 21232 7//// 555 10020
AAXX 26184 71506 46/// /0829 11252 21279 39165 40087 56019 6///1 333 11234 21273 7////
AAXX 26184 71511 16/// /3116 10032 21024 39424 40055 51033 60001 333 10039 21034 70000
AAXX 26184 71514 17/// /3014 10022 21020 39377 40070 51053 69941 7//4/ 333 10047 21017 70004
AAXX 26184 71300 16/// /2207 11007 21031 30089 40214 57017 60001 333 11006 21086 70067 555 10060
AAXX 26184 71302 16/// /1910 11013 21071 39344 40169 55006 60001 333 11005 21049 70000
AAXX 26184 71340 46/// /2305 11004 21045 6///1 333 10038 21018 7////
AAXX 26184 71341 16/// /2527 10016 21085 60001 333 10023 20002 70000
AAXX 26184 71342 16/// /3225 10019 21081 60001 333 10044 20000 70008
AAXX 26184 71344 16/// /3112 11017 21094 60001 333 10032 21034 70000
AAXX 26184 71348 16/// /2406 10007 21068 60001 333 10032 21051 70000
AAXX 26184 71349 16/// ///// 11039 21067 60001 333 10032 21041 70000
AAXX 26184 71737 16/// /2508 11060 21095 39645 40178 58014 60001 333 11046 21098 70003
AAXX 26184 71743 16/// /2307 11176 21200 39750 49973 57018 60001 333 11176 21236 70000
AAXX 26184 71748 16/// /2810 10034 21018 39651 49929 56003 60001 333 10034 21013 70000
AAXX 26184 71832 16/// /2008 10024 21025 39678 40002 58033 60001 333 10025 21080 70000 555 10010
AAXX 26184 71423 16/// /2712 11023 21034 30096 40105 53003 60001 333 11006 21094 70000
AAXX 26184 71434 16/// /3513 11113 21132 39919 49986 53030 60001 333 11089 70015
AAXX 26184 71437 46/// /2509 10033 21050 30125 40221 58035 6///1 333 10037 20027 7////
AAXX 26184 71454 17/// /0206 11058 21076 39390 40084 53056 60021 7//4/ 333 11001 21058 70016
AAXX 26184 71667 16/// /2314 10056 21056 39751 49993 56045 60001 333 10056 21014 70000
AAXX 26184 71682 16/// /0000 11277 21301 39929 40170 51014 60001 333 11194 21280 70003
AAXX 26184 71228 16/// /3216 10010 21033 60001 333 10059 21004 70000
AAXX 26184 71971 16/// /0903 11233 21267 39941 49988 53003 60001 333 11211 21303 70000
AAXX 26184 71976 46/// /2718 11266 21295 39270 49915 53007 6///1 333 11249 21269 7////
AAXX 26184 71107 16/// /2047 10065 20058 39860 49971 56043 60001 333 10065 20038 70000
AAXX 26184 71622 16/// ///// 10035 21038 39886 40228 58036 60001 333 10037 20004 70003
AAXX 26181 23909 11396 81804 11111 21124 39721 49975 57027 69960 73673 886// 333 11113
AAXX 26181 28044 32597 22002 11134 21153 39859 40029 57015 82500 333 11130
AAXX 26181 28116 11496 81503 11119 21133 39767 40007 57032 60020 77172 8872/ 333 11120
AAXX 26181 28240 11998 82403 11114 21143 39731 40066 57017 69902 70271 8807/ 333 11105
AAXX 26181 28522 11496 82005 11108 21119 39818 40085 57024 69930 77172 8802/ 333 11114
AAXX 26181 28621 11997 81804 11095 21102 39837 40077 57026 69960 77172 8807/ 333 11111
AAXX 26181 29023 NIL
AAXX 26181 29122 42999 31901 11189 21208 30055 40133 56001 80001
AAXX 26181 29328 42998 01902 11131 21168 30008 40154 57003
AAXX 26181 29348 42997 01902 11146 21180 30035 40188 56001
AAXX 26181 29405 42997 02002 11210 21229 39990 40148 54000
AAXX 26181 29418 42998 01903 11180 21206 39995 40165 52007
AAXX 26181 29430 42998 62301 11140 21175 39994 40179 58012 80005
AAXX 26181 29524 42998 31702 11120 21155 39992 40162 58005 80002
AAXX 26181 29605 42998 02101 11203 21215 30005 40158 58003
AAXX 26181 29631 41496 81802 11074 21100 39984 40175 57003 77172 8872/
AAXX 26181 29645 42597 61101 11162 21181 30020 40220 57002 84501
AAXX 26181 29706 42998 81802 11138 21165 30007 40161 58005 80002
AAXX 26181 29736 42598 81201 11121 21148 39949 40210 54000 85531
AAXX 26181 29937 NIL
AAXX 26181 36034 41998 61908 11039 21084 39911 40191 57004 73673 80002
AAXX 26181 36096 41996 80000 11304 21328 39575 40458 54000 77172 8807/ 333 95090
AAXX 26181 28049 32997 31805 11133 21145 39870 40040 57014 80001 333 11147
AAXX 26181 28144 11496 82102 11118 21142 39885 40048 57016 69920 77171 8572/ 333 11119
AAXX 26181 28319 11496 81903 11106 21119 39878 40048 57033 69960 77172 8802/ 333 11117
AAXX 26181 28321 11496 81404 11124 21130 39827 40038 57031 60010 77172 8802/ 333 11126
AAXX 26181 28334 11497 82202 11118 21131 39759 40074 57019 69960 77172 8802/ 333 11101
AAXX 26181 28434 11996 81303 11107 21128 39812 40079 57022 69900 77172 8802/ 333 11105
AAXX 26181 28552 12998 00000 11143 21158 30003 40121 57014 69920 333 11095
AAXX 26181 28666 11550 81902 11156 21172 39955 40140 57004 69900 77172 8802/ 333 11178
AAXX 26181 28825 11996 82003 11093 21108 39948 40126 57021 69900 77173 8802/ 333 11086
AAXX 26181 29111 42998 00000 11258 21281 30034 40130 57002
AAXX 26181 29209 42998 00000 11235 21254 39998 40135 58004
AAXX 26181 29551 42997 41301 11154 21188 30016 40209 57005 80001
AAXX 26181 29602 42998 82003 11193 21219 30007 40158 54000 80001
AAXX 26181 29636 42598 81401 11109 21137 39966 40192 57002 883//
AAXX 26181 29654 42999 31402 11059 21138 39592 40215 53002 82031
AAXX 26181 29712 42998 81701 11121 21148 30015 40165 54000 86071
AAXX 26181 29724 41596 81502 11064 21088 39959 40166 57006 78582 8637/
AAXX 26181 29726 42998 81601 11060 21099 30012 40183 57002 8807/
AAXX 26181 29814 41397 80000 11098 21110 30007 40158 57009 77172 8872/ 333 85708
AAXX 26181 29827 42697 81603 11029 21049 30012 40167 56005 889//
AAXX 26181 29923 41999 81703 11055 21069 39911 40192 57010 72272 8802/
AAXX 26181 29939 42997 80401 11110 21146 39922 40217 57005 87032
AAXX 26181 35026 /1495 82302 11130 21145 39510 40179 57014 69960 78582 889// 333 11100
AAXX 26181 36021 41598 81803 11027 21037 39980 40161 57009 78582 8395/
AAXX 26181 36022 41497 81707 11041 21053 39916 40181 58008 77173 8472/ 333 84711
AAXX 26181 36038 42599 81603 10005 21100 39756 40196 58011 885// 333 88624
AAXX 26181 36058 42999 80805 11118 21146 39717 40263 57007 80002
AAXX 26181 36064 42999 10503 11026 21122 39642 40241 58007 80001
AAXX 26181 36229 42999 30000 11238 21245 39098 40385 57004 82034
AAXX 26181 36259 42999 00000 11315 21352 38261 48559 53001
AAXX 26181 23914 /1496 81605 11144 21157 39745 40014 58029 69990 77173 8872/ 333 11141
AAXX 26181 23921 11597 72801 11159 21172 39886 40011 57016 69900 72682 84930 333 11170
AAXX 26181 23955 42984 01401 11287 21306 30055 40123 57002
AAXX 26181 23966 42999 00000 11233 21258 30002 40139 57003
AAXX 26181 28138 11596 82301 11146 21159 39470 40065 57021 69940 78582 883// 333 11149
AAXX 26181 28224 11496 81703 11120 21133 39822 40044 57028 60010 77172 88/2/ 333 11124
AAXX 26181 28255 32994 02602 11140 21154 39945 40080 57016 333 11131
AAXX 26181 28440 12597 71702 11121 21145 39724 40087 57023 69900 87300 333 11085
AAXX 26181 28645 12997 02001 11186 21192 39814 40131 57023 69900 333 93500 11087
AAXX 26181 28661 11996 02103 11154 21167 30038 40135 57007 69900 71011 333 11115
AAXX 26181 28722 11496 82004 11087 21110 39960 40095 57020 69940 77172 8802/ 333 11092
AAXX 26181 28748 12962 02304 11170 21182 39888 40144 57016 69900 333 11111
AAXX 26181 28838 32996 31901 11145 21151 39650 40153 57017 83030 333 11104
AAXX 26181 29231 42998 01601 11172 21191 30049 40152 54000
AAXX 26181 29313 42998 02201 11210 21225 30012 40144 53002
AAXX 26181 29612 42998 01702 11167 21193 30007 40168 54000
AAXX 26181 29638 41496 81404 11072 21106 30017 40186 57002 78587 889// 333 85919
AAXX 26181 29838 41996 81602 11065 21115 39964 40202 57004 77172 8802/
AAXX 26181 29846 41924 52101 11158 21177 39830 40239 57005 71011 85030
AAXX 26181 36061 42999 00000 11217 21235 39816 40260 57005
AAXX 26181 34357 32597 82506 11038 21045 30008 40168 58043 885// 333 11037
AAXX 26181 34363 31397 82207 11056 21061 39999 40156 58038 73633 886// 333 11037
AAXX 26181 34545 32498 82507 11037 21047 30112 40228 58027 886// 333 11033
AAXX 26181 34579 32998 52507 11025 21035 30172 40218 58009 80002 333 11010
AAXX 26181 34838 32997 83004 11001 21024 30209 40309 50002 8000/ 333 10023
AAXX 26181 34927 32997 02702 10001 21021 30294 40333 55001 333 10035
AAXX 26181 34949 32297 82609 10000 21007 39738 40300 55010 8665/ 333 10011 88705
AAXX 26181 37001 32597 60702 10004 21021 30300 40342 53009 86500 333 10022
AAXX 26181 37031 32497 82704 10010 21002 30114 40316 55007 885// 333 10023
AAXX 26181 37061 31559 72705 10023 21002 30126 40296 58005 71011 87500 333 10055
AAXX 26181 37085 32596 82302 10041 20016 30319 40347 58008 885// 333 10037
AAXX 26181 37107 31595 81701 10024 20011 39641 40337 52004 71022 884// 333 10051
AAXX 26181 37126 42998 52103 11074 21083 37975 48557 52003 80001 333 11031
AAXX 26181 37171 32796 80401 10040 20030 30317 40336 52004 885// 333 10098 88656
AAXX 26181 37228 11496 82801 10023 20006 39451 40301 50003 69900 71022 886// 333 10044
AAXX 26181 37470 32596 82001 10049 20015 30328 40305 57003 885// 333 10072
AAXX 26181 37663 32996 62701 10005 21038 39090 48552 50001 86030 333 10061
AAXX 26181 13463 32970 20503 10091 21033 30270 40331 52006 82200 333 10121 91115
AAXX 26181 13459 32970 13403 10028 21066 39558 40346 53012 81030 333 10057 46002 81399
AAXX 26181 13461 32970 20206 10096 21026 30320 40328 52013 82030 333 10138 82360 91111 92322 92428
AAXX 26181 13363 32665 20202 11017 21038 39436 48612 52012 82500 333 10019 43012
AAXX 26184 71832 16/// /2008 10024 21025 39678 40002 58033 60001 333 10025 21080 70000 555 10010
AAXX 26184 71421 16/// ///// 11103 21156 39365 40093 58008 60001 333 11097 21167 70003
AAXX 26184 71432 16/// /2613 10034 21021 30134 40232 58024 60001 333 10041 20031 70000
AAXX 26184 71435 16/// /2012 10031 21061 39383 49968 58039 60001 333 10033 21039 70000
AAXX 26184 71444 16/// /3305 10008 21025 39223 49970 53017 60001 333 10010 21076 70000
AAXX 26181 40650 12660 12703 10106 20043 40249 51012 60002 81500
AAXX 26181 40608 12960 00000 10064 20050 40251 52010 60072
AAXX 26181 40621 12960 23001 10130 20070 40252 52010 60002 80001
AAXX 26181 40629 12960 00000 10076 21002 40267 52021 60002
AAXX 26181 40634 12960 02702 10090 20045 40252 52022 60002
AAXX 26181 40665 12960 03103 10132 20065 40248 52010 60002
AAXX 26181 40672 12960 00000 10128 20045 40249 51008 60002
AAXX 26181 40674 12960 03304 10118 20041 40241 53008 60002
AAXX 26181 40689 12960 02707 10146 20069 40235 52011 60002
AAXX 26181 40691 12960 02103 10144 20056 40238 51008 60002
AAXX 26181 40676 12960 02905 10138 20052 40239 52013 60002
AAXX 26181 40690 12960 02703 10138 20077 40225 51010 60002
AAXX 26181 40638 12960 00000 10108 20030 40229 52004 60002
AAXX 26181 40670 12960 00000 10130 20067 40237 52005 60002
AAXX 26181 40642 12960 00000 10084 20003 40251 53010 60002
AAXX 26181 40664 12960 03203 10104 20035 40223 52013 60002
AAXX 26181 40656 12960 03502 10117 20061 40232 52018 60002
AAXX 26181 40662 12960 03602 10112 20026 40238 52017 60002
AAXX 26181 40643 12960 23001 10067 21004 40260 52011 60002 82030
AAXX 26181 38836 415// 80000 10048 20023 39281 40227 52013 78081 889// 111 10106
AAXX 26181 38744 415// 80000 11044 21053 38006 48520 52004 71682 889//
AAXX 26181 38836 415// 80000 10048 20023 39281 40227 52013 78081 889// 111 10106
AAXX 26184 61972 16/// /1616 10272 20234 40128 60002 333 10311 59009 90710 91129 555 60005
AAXX 26184 41241 36/// /1306 10247 20105 30120 40158 333 0E025 10278 59003
AAXX 26184 41244 36/// /3405 10181 20058 39835 48217 333 0E017 10261 58012
AAXX 26184 41287 36/// /2306 10172 20063 30120 40189 333 0E018 10299 59001
AAXX 26181 30935 42999 10000 11190 21235 39340 40350 52010 80001
AAXX 26181 28216 11897 81802 11125 21141 39732 40024 57035 60020 77177 8802/ 333 11132
AAXX 26181 28428 11496 81905 11110 21123 39883 40075 57029 69930 77172 8802/ 333 11116
AAXX 26181 28451 12996 02102 11140 21158 39936 40103 57016 69930 333 11095
AAXX 26181 28541 12982 30000 11135 21148 39595 40110 57019 69920 83030 333 11098
AAXX 26181 28655 12998 01902 11146 21160 39904 40139 57017 69930 333 11090
AAXX 26181 28756 31997 62002 11131 21143 39992 40148 57008 69920 70272 86020 333 11118
AAXX 26181 29557 42998 00000 11197 21223 39938 40226 57003
AAXX 26181 29625 41598 82202 11082 21114 39982 40166 57003 70281 885// 333 88625
AAXX 26181 29813 41497 81502 11075 21085 39963 40147 57010 78582 8597/
AAXX 26181 29822 42997 81603 11052 21073 30009 40175 57002 8807/
AAXX 26181 29915 41596 81602 11053 21063 39996 40156 57010 77172 885// 333 88631
AAXX 26181 36020 41498 21705 11031 21066 39982 40184 52008 70281 82900
AAXX 26181 14106 12998 70901 10047 20015 30292 40363 52008 60002 87070 333 10076 95000
AAXX 26181 40001 32570 40000 10063 20043 40254 53011 81130 333 10105 81826 84360
AAXX 26181 40007 31950 02901 10070 20050 40271 51015 71000 333 10122
AAXX 26181 40025 32960 00803 10076 20054 40266 52016 333 10164
AAXX 26181 40045 32970 02603 10072 20045 40256 51012 333 10141
AAXX 26181 40061 32970 02601 10078 20023 40262 52019 333 10144
AAXX 26181 40080 32565 12103 10057 20016 39536 40265 52017 81100 333 10143 81830
AAXX 26181 40087 NIL
AAXX 26181 40095 NIL
BBXX C6SI6 26184 99338 11349 46/// /3121 10051 21022 40286 51010 7//// 8//// 22243 0//// 2////
BBXX OZDQ2 26180 99344 11400 41/98 ///// 10075 40204 56014 70011 8//// 22214 00150 2////
AAXX 26181 38838 415// 80000 10080 20080 39535 40040 57020 78082
AAXX 26181 56146 32980 03602 11055 21170 36726 52012 333 00101 10096
AAXX 26181 56444 32980 02504 11039 21118 36827 52003 333 00100 10076
AAXX 26181 56492 11730 80401 10069 20054 39855 40274 57001 69901 76000 885// 333 05200 10080
AAXX 26181 56571 32980 00000 10058 20024 38397 52001 333 05202 10135
AAXX 26181 57799 32965 80000 10063 21011 30205 40296 52001 8807/ 333 10142
AAXX 26181 57866 32968 83401 10073 21027 30080 40292 52003 8807/ 333 10122
AAXX 26181 57957 32763 80402 10098 21038 30074 40275 52001 885// 333 10159
AAXX 26181 57993 32960 00701 10055 20016 30117 40288 52005 333 10154
AAXX 26181 58027 32960 70902 10020 21021 30285 40338 57007 8704/ 333 10062
AAXX 26181 58141 31957 50902 10012 21017 30332 40352 57002 71000 85040 333 10060
AAXX 26181 58265 32970 70903 10060 21001 30340 40348 57003 80002 333 10082
AAXX 26181 58472 32978 80405 10076 21004 30238 40335 57003 8807/ 333 10094
AAXX 26181 58477 32471 70403 10086 20015 30280 40326 57004 8114/ 333 10106
AAXX 26181 58527 32662 80401 10067 21044 30218 40296 57001 885// 333 10105
AAXX 26181 58633 32960 80402 10063 21016 30213 40316 52006 8807/ 333 10102
AAXX 26181 58666 32562 73608 10087 20056 30207 40312 57006 878// 333 10099
AAXX 26181 58725 32962 80000 10048 20007 30032 40301 52007 8807/ 333 10142
AAXX 26181 58921 31950 71401 10053 20030 30040 40294 52005 71000 8704/ 333 10157
AAXX 26181 59082 32964 71802 10058 20010 30126 40276 52002 8704/ 333 10168
AAXX 26181 59211 32960 03601 10076 20035 30038 40250 52002 333 10183
AAXX 26181 59265 31957 00403 10079 20030 30114 40255 57003 71000 333 10193
AAXX 26181 59293 32665 70202 10101 20040 30176 40263 52001 875// 333 10179
AAXX 26181 59501 32962 00702 10131 20080 30231 40253 57006 333 10176
AAXX 26181 59663 31658 70204 10134 21006 30141 40251 52001 70500 875// 333 10184
AAXX 26181 59838 32762 70703 10175 20134 30203 40213 57006 875// 333 10209
AAXX 26181 59948 32470 70408 10168 20150 39716 40208 57009 878// 333 10170
AAXX 26181 59981 32570 70707 10238 20199 30166 40173 57012 878// 333 10245
AAXX 26181 23226 11460 80902 11090 21110 39725 49944 57017 69900 77172 885// 333 11086 88613 93402
AAXX 26181 23701 11357 81702 11081 21091 39766 49897 57017 69900 77172 8872/ 333 11069 86509
AAXX 26181 28909 12499 81802 11056 21074 30007 40109 57027 69900 8452/ 333 11069
AAXX 26181 23205 11498 81905 11081 21108 39847 49862 57010 69900 70282 885// 333 11048 88618 91109
AAXX 26181 40009 32965 00000 10064 20043 40237 52018 333 10132
AAXX 26181 40016 NIL
AAXX 26181 40022 32965 00000 10098 20068 40255 52011 222// 20000 333 10165
AAXX 26181 40030 32970 00000 10073 20048 40266 52018 333 10150
AAXX 26181 40039 32970 00000 10088 20048 40252 51015 333 10132
AAXX 26181 40066 32570 33401 10095 20032 40259 51016 83200 1036 83826
AAXX 26181 40072 32970 00000 10084 20028 40265 52014 333 10150
AAXX 26181 40083 32570 33401 10032 20022 48531 52009 83500 333 10066 83630
BBXX BAREU06 26184 99359 70115 46/// ///// 40270 52005 22224
BBXX DMQN 26184 99346 70162 41498 80611 10180 20131 40281 50002 70322 85770 22254 04190 21201 3//// 4//// 5//// 80150
AAXX 26181 60381 36/// /0000 10125 20085 333 10167
AAXX 26181 60605 36/// /0706 10135 20013 333 10164
AAXX 26181 38599 1122382506 10003 21003 39732 40261 53008 69930 77187 885 333 10060 86703 82624
AAXX 26181 50353 32970 00401 11331 21367 30080 40332 52004 333 11212
AAXX 26181 50557 32970 00000 11288 21323 39999 40338 57005 333 11201
AAXX 26181 50756 32960 00000 11261 21292 30029 40362 57001 333 11182
AAXX 26181 50949 32965 01601 11203 21253 30158 40345 57009 333 11106
AAXX 26181 50963 32962 00401 11283 21319 30207 40361 57001 333 11153
AAXX 26181 50978 32980 02506 11202 21273 39965 40346 52005 333 11138
AAXX 26181 51087 32980 01601 11204 21232 39314 40362 52001 333 00001 11079
AAXX 26181 51156 32980 03202 11150 21210 38744 40336 52003 333 00052 11070
AAXX 26181 51644 32960 03601 11139 21160 39010 40361 57004 333 05100 11059
AAXX 26181 51656 11770 73601 11103 21125 39193 40364 57001 69901 77070 84502 333 05100 11071
AAXX 26181 51886 32980 70000 11128 21283 37123 57001 80002 333 00104 11053
AAXX 26181 52602 32980 00000 11197 21319 37288 52002 333 00101 11040
AAXX 26181 52713 32980 01802 11160 21255 36919 52004 333 00254 11034
AAXX 26181 52754 32980 02901 11151 21288 36786 52003 333 00157 11024
AAXX 26181 52818 32980 00000 11118 21221 37252 54000 333 00000 11032
AAXX 26181 52836 32980 21403 11128 21279 36904 57004 80002 333 00102 11026
AAXX 26181 52955 32980 01603 11122 21252 36978 57002 333 00104 10011
AAXX 26181 53068 32980 00701 11213 21244 39132 40380 57002 333 05353 11089
AAXX 26181 53276 32980 02206 11130 21189 38920 40335 57004 333 11032
AAXX 26181 54135 32980 01102 11156 21197 30098 40338 57009 333 11080
AAXX 26181 54236 32962 02701 11151 21192 30230 40344 57006 333 11068
AAXX 26181 54539 32965 70701 11044 21056 30330 40345 57014 80002 333 10023
AAXX 26181 54662 32970 02501 10001 21079 30239 40358 57002 333 10024
AAXX 26181 54753 32962 01803 11002 21068 30348 40355 57009 333 10022
AAXX 26181 54857 32966 01602 10026 21044 30267 40363 57005 333 10048
AAXX 26181 57067 32960 70401 10002 21082 39625 40327 57002 8703/ 333 10050
AAXX 26181 57178 32960 70202 10036 21058 30165 40329 57001 8703/ 333 10074
AAXX 26181 57245 32965 80901 10060 21042 39944 40303 52004 8807/ 333 00000 10094
AAXX 26181 57297 32960 73401 10033 21039 30169 40314 57007 8703/ 333 10078
AAXX 26181 38599 11223 82506 10003 21003 39732 40261 53008 69930 77187 885// 333 10060 86703 82624
AAXX 26181 40608 12960 00000 10064 20050 40251 52010 60072
AAXX 26181 40621 12960 23001 10130 20070 40252 52010 60002 80001
AAXX 26181 40629 12960 00000 10076 21002 40267 52021 60002
AAXX 26181 40634 12960 02702 10090 20045 40252 52022 60002
AAXX 26181 40638 12960 00000 10108 20030 40229 52004 60002
AAXX 26181 40642 12960 00000 10084 20003 40251 53010 60002
AAXX 26181 40643 12960 23001 10067 21004 40260 52011 60002 82030
AAXX 26181 40650 12660 12703 10106 20043 40249 51012 60002 81500
AAXX 26181 91945 06/// /0514 10280 20220 30157 40162 50010 69941 333 69947
AAXX 26184 40582 32960 03411 10165 20015 40229 51012 333 55300 00000 10278 20000 30000 41105 51383 60000 55407 40000 90401 91013 91119 91213 91311
AAXX 26184 41150 NIL
AAXX 26184 41168 NIL
AAXX 26184 41170 41956 03209 10200 20160 30185 40198 70600 333 10243 58023
AAXX 26184 41176 NIL
AAXX 26184 41184 41956 01102 10190 20169 40173 70500 333 10260 58008
AAXX 26184 41194 11957 09902 10204 20157 30178 40183 60001 70500 333 10240 58011
AAXX 26184 41196 41958 09902 10179 20146 30145 40184 70500 333 10249 58008
AAXX 26184 41198 41958 03117 10222 20143 40157 70600 333 10283 59003
AAXX 26184 41210 NIL
AAXX 26184 41216 NIL
AAXX 26184 41217 42960 00103 10174 20108 30147 40177 333 10250 58009
AAXX 26184 41218 42960 00203 10179 20053 39875 40186 333 10257 58010
AAXX 26184 41226 NIL
AAXX 26184 41244 36/// /3405 10181 20058 39835 48217 333 0E017 10261 58012
AAXX 26184 41246 NIL
AAXX 26184 41254 36/// /9902 10125 21044 37983 47988 333 0E008 10211 58011
AAXX 26184 41256 32960 02004 10217 20093 30152 40162 333 10262 59003
AAXX 26184 41258 36/// /2504 10243 20080 30148 40152 333 0E/// 10256 59006
AAXX 26184 41268 NIL
AAXX 26184 41312 36/// /2902 10213 20123 30132 40172 333 0E/// 10264 58005
AAXX 26184 41314 32960 00602 10181 21022 39685 40197 333 10254 58008
AAXX 26184 41316 32960 13206 10202 20069 30147 40173 80001 333 10269 58004 81075
AAXX 26184 41404 42960 00504 10132 21069 37902 48561 333 10256 58003
AAXX 26184 41407 NIL
AAXX 26184 41431 42560 50000 10256 20224 40162 82150 333 10294 30/// 58013 82830 83356
AAXX 26184 41466 41450 32606 10170 20136 38596 48502 71044 83600 333 10260 58009 83720
AAXX 26184 41477 NIL
AAXX 26184 41480 42560 10000 10244 20173 30165 40168 81500 333 10285 58003 81620
AAXX 26181 29998 42999 00000 11268 21287 38661 48510 52001
AAXX 26181 30385 42999 60000 11377 21393 39786 40406 52012 80006
AAXX 26181 30469 429// 80000 11397 21411 39538 40426 53022 80005
AAXX 26181 30636 429// 00000 11322 21334 39697 40388 52010
AAXX 26181 30650 42984 00000 11356 21377 39143 40424 52009
AAXX 26181 30664 42999 20000 11393 21417 39286 40442 52015 82040
AAXX 26181 30781 NIL
AAXX 26181 30777 41998 02702 11337 21366 39626 40370 52009 70171
AAXX 26181 30844 42699 52702 11165 21171 39288 40323 52003 83501
AAXX 26181 30925 429// 20000 11190 21209 39301 40343 52003 80001
AAXX 26181 31371 42999 00000 11358 21387 30033 40339 52003
AAXX 26181 31388 42984 00000 11329 21339 30028 40328 53004
AAXX 26181 31478 NIL
AAXX 26181 31532 41999 80000 11257 21268 39943 40322 52009 77171 80007
AAXX 26181 31594 42999 00000 11319 21337 30136 40331 53002
AAXX 26181 31655 42998 01802 11212 21224 30226 40277 52003
AAXX 26181 31754 41998 80000 11220 21246 39742 40287 53008 77172 80007
BBXX DDSB2 26183 99492 70100 41598 82222 10120 20083 40300 57010 7//22 8/4// 22224 29904 328// 40906 80100
BBXX 62303 26184 99516 70051 46/// /2319 10114 20076 40314 55003 22200 00113 10606 70031 333 90710 91126
BBXX 62301 26184 99524 70047 46/// /2220 10100 20073 40296 56001 22200 00088 10605 70024 333 90710 91126
BBXX 64046 26184 99605 70049 46/// /2928 10064 20030 49996 51058 22200 00079 10912 70061
BBXX 62001 26184 99452 70050 46/// /1014 10124 20086 40338 52006 22200 00139 10705 70027
BBXX 62163 26184 99475 70084 46/// /2011 10114 20065 40338 52002 22200 00126 10907 70036
BBXX 62029 26184 99487 70125 46/// /2118 10124 20085 40298 53007 22200 00127 10909 70044 333 90710 91126
BBXX 62442 26184 99490 70164 46/// /2023 1//// 2//// 40244 53006 22200 00124 333 90710 91132
BBXX 62081 26184 99510 70134 46/// ///// 10126 20103 40238 53007 22200 00121 10912 70058
BBXX 62105 26184 99554 70121 46/// /2920 10091 20060 40178 51057 22200 00106 10913 70067 333 90710 91132
BBXX 64045 26184 99591 70117 46/// /2730 10066 21003 40070 51050 22200 00100 10913 70063 333 90710 91151
BBXX A8TR7 26184 99306 70212 41298 80202 10225 20097 40305 55005 7//11 887// 22264 04210 20201 80150
BBXX 62027 26184 99491 70022 46/// /2209 1//// 2//// 40367 57003 22200 00111 11103 325// 70015
BBXX 63110 26183 99595 10015 41/96 /2243 10107 49993 700// 8//// 22200 10810 70050
BBXX 62169 26183 99614 10014 41/97 62640 10085 20074 49955 53005 72582 86/// 22200 20712 3//// 4//// 5//// 80080
BBXX 63055 26184 99606 10016 47295 /2430 10105 20087 49978 55002 704// 22200 10811 70054
BBXX 62112 26184 99584 70002 47696 /2134 10111 20083 40054 53004 700// 22200
BBXX PJAI 26184 99581 70014 47698 /2220 10123 20068 40064 52007 700// 22200
BBXX 62111 26184 99580 70003 46/// /2338 10115 20083 40092 53006 22200 10709 70044
BBXX 63056 26184 99597 10016 47696 /2136 10107 20081 40001 56008 700// 22200 10812 70060
BBXX 63110 26184 99595 10015 47996 /2234 10107 20079 49999 56003 704// 22200 10810 70052
BBXX 63057 26184 99592 10015 47996 /2343 10109 20078 40020 56003 700// 22200 10810 70052
BBXX 62128 26184 99587 10014 47996 /2243 10108 20083 40048 53003 700// 22200 10810 70050
BBXX 62129 26184 99584 10003 46/// ///// 10110 20083 40080 55000 22200
BBXX 63108 26184 99608 10017 47196 /2441 10103 20089 49969 55004 762// 22200 11309 70045
BBXX 63106 26184 99610 10017 46/// /2539 10102 49937 53007 22200
BBXX 63105 26184 99610 10017 47396 ///// 10103 20089 49938 53005 751// 22200
BBXX 63113 26184 99610 10017 46/// /2636 10103 20091 49968 53005 22200 10812 70062
BBXX 63112 26184 99611 10010 47/98 /2832 10089 20053 49943 53025 700// 22200 10913 70066
BBXX 63107 26184 99611 10017 46/// /2536 10101 49938 53009 22200
BBXX 63101 26184 99612 10009 46/// /2926 10092 20056 49941 53020 22200
BBXX 63103 26184 99612 10011 46/// /2834 10087 20058 49955 53017 22200 10914 70069
BBXX 63104 26184 99612 10016 47397 /2633 10091 20080 49931 53005 700// 22200
BBXX 63117 26184 99613 10011 47598 /2730 10106 20037 49942 53019 700// 22200
BBXX 63115 26184 99616 10013 47498 /2531 10080 20048 49933 53042 700// 22200 10915 70074
BBXX MWYG6 26184 99603 70040 47998 /2627 10065 700// 22200
BBXX 64041 26184 99607 70026 47497 /2531 10066 20064 49977 52064 700// 22200 10912 70059
BBXX 62164 26184 99572 10008 469// /2330 10121 20086 40129 53003 22200 00093 10709 70044
BBXX PJGO 26184 99571 10022 47997 /2234 10113 20086 40143 56003 700// 22200
BBXX 62133 26184 99571 10009 46/// /2239 10115 20072 40121 53002 22200 10709 70047
BBXX 62119 26184 99570 10019 47996 /2440 10115 20079 40149 56008 700// 22200 10811 70053
BBXX 62152 26184 99570 10018 47/97 /2123 10112 20078 40156 55003 700// 22200 10709 70044
BBXX 62154 26184 99564 10022 46/// /2231 10108 20080 40168 56007 22200
BBXX 62120 26184 99564 10021 47997 /2433 10112 40160 56009 700// 22200
BBXX 62132 26184 99564 10020 46/// /2531 10111 20078 40158 58010 22200
BBXX 62123 26184 99563 10022 47997 /2232 10110 20080 40163 57010 700// 22200
BBXX 62165 26184 99540 10009 47698 /2227 10107 20081 40260 58006 700// 22200 10504 70019
BBXX 62127 26184 99540 10007 47598 ///// 10110 20077 40266 53007 700// 22200 10402 70012
BBXX 62131 26184 99539 10012 46/// /20// 10101 20082 40269 52001 22200
BBXX 62149 26184 99537 10011 47598 /2220 10100 20082 40282 53006 751// 22200 10502 70012
BBXX 62148 26184 99536 10015 46/// /2229 10103 20077 40290 51005 22200
BBXX 62150 26184 99536 10007 47598 /2220 10104 20080 40288 51007 700// 22200 10502 70011
BBXX 62121 26184 99535 10027 46/// ///// 22200
BBXX 62144 26184 99534 10017 47598 /2219 10102 20077 40298 52007 700// 22200 10403 70014
BBXX 62145 26184 99531 10028 47598 /2119 10111 20075 40308 51012 700// 22200 10403 70015
BBXX 62142 26184 99530 10021 47598 /2320 10107 20078 40306 52009 700// 22200 10402 70010
BBXX 62113 26184 99584 10002 47996 /2235 10108 20081 40077 55002 700// 22200
BBXX ZQSD5 26184 99583 10007 46/// /2237 10115 20084 40063 55003 22200 10911 70057
BBXX 62114 26184 99583 10000 46/// /2139 10111 20084 40053 52004 22200
BBXX 62134 26184 99580 10014 47996 /2340 10110 20080 40082 55000 700// 22200 10710 70052
BBXX 62102 26184 99579 10018 46/// /2334 10111 20080 40090 54000 22200 10810 70051
BBXX 62117 26184 99579 10000 47997 /2240 10115 20083 40080 53002 700// 22200 10710 70048
BBXX 62143 26184 99577 10018 47997 /2438 10115 20082 40113 53007 700// 22200 10709 70044
BBXX 62146 26184 99572 10021 47/96 /2433 10111 20076 40143 55001 704// 22200 10810 70051
BBXX 62140 26184 99573 10013 46/// /24// 10113 20082 40117 53003 22200
BBXX 62122 26184 99573 10016 47997 /2234 10120 20077 40137 53005 700// 22200 10709 70046
BBXX 62153 26184 99573 10020 47996 /2337 10112 20082 40118 56008 700// 22200 10810 70049
BBXX 62104 26184 99574 10013 47997 /2432 10114 20082 40114 53007 700// 22200
BBXX 62116 26184 99576 10011 47997 /2443 10113 20080 40094 55004 700// 22200 10809 70047
BBXX 62155 26184 99577 10007 47997 /2343 10112 20085 40110 55000 700// 22200 10710 70048
BBXX 62118 26184 99577 10009 47996 /2240 10113 20081 40095 53002 704// 22200 10810 70048
BBXX 63119 26184 99583 10009 41597 82343 10110 20077 40053 54000 70222 885// 22200 20408 323// 40811 5////
BBXX 62170 26184 99514 10020 46/97 /2324 10111 20103 40354 53013 22200 00108 10601 70004 333 90710 91130
BBXX 62081 26184 99510 70134 46/// ///// 10125 20102 40238 53007 22200 00121 10912 70058
BBXX 62105 26184 99554 70121 46/// /2920 10091 20060 40178 51057 22200 00106 10913 70066 333 90710 91132
BBXX 62304 26184 99511 10018 46/98 /2318 10114 20093 40359 53012 22200 00108 10621 70103 333 90710 91128
BBXX 2AAY7 26183 99563 10019 41297 22350 10065 20042 40167 56020 70200 82700 22200 20306 324// 40614 80055
BBXX 62001 26184 99452 70050 46/// /1014 10124 20086 40258 52006 22200 00139 10705 70027
BBXX 62107 26184 99501 70061 46/// /2218 10117 20067 4//// 53002 22200 00115 10907 70033 333 90710 91129
BBXX 62303 26184 99516 70051 46/// /2320 10114 20076 40314 55003 22200 00113 106//
BBXX 62094 26184 99517 70067 46/// /2121 10110 20081 40298 55800 22200 00107 10646 70230
BBXX 62103 26184 99499 70029 46/99 /2317 10113 20065 40330 58002 22200 00120 11803 70016
BBXX 62095 26184 99531 70159 46/// /3210 1//// 2//// 40224 53043 22200 10911 70053
BBXX 62103 26184 99499 70029 46/99 /2515 10117 20058 40348 58004 22200 00120 10804 70018 333 90710 91125
AAXX 26184 83550 31597 4//// 10296 20218 30102 40131 70200 81102 333 58003
AAXX 26184 83698 32799 80000 10280 20215 30127 40141 58020 885//
AAXX 26184 83738 21697 81803 10212 20209 39611 40107 52003 76616 887// 333 60181
AAXX 26184 82586 32596 60907 10340 20240 39859 40094 86200 333 58007
AAXX 26184 82678 32596 51403 10338 20209 39966 40104 83232 333 58009
AAXX 26184 82784 32598 80503 10322 20245 39654 40102 84200 333 58002
AAXX 26184 82791 32599 60506 10342 20178 39810 40086 85220 333 59002
AAXX 26184 82983 32598 80908 10326 20205 39691 40099 8212/ 333 58008
BBXX 46088 26181 99483 71232 46/// /1406 10056 40239 91820 22200 00078 10301 20301 70004 333 91207 555 11060 22062 31810 41307 61819 137058 142053 140049 139050 131052 130049
BBXX 44033 26181 99441 70690 46/30 /3208 10033 40161 53014 91804 22200 00065 10601 70006 333 91210 555 11099 22104
BBXX 44034 26181 99441 70681 46/30 /3408 10014 40151 53018 91804 22200 00081 10603 70014 333 91210 555 11091 22095
BBXX 44039 26181 99411 70727 46/// /3111 10064 21032 40210 52005 91800 22200 00088 10402 70010 333 91214
BBXX 44060 26181 99413 70721 46/// ///09 10060 40195 91815 22200 00101 333 91211 555 11093 22098
AAXX 26184 86330 32598 60904 10282 20186 40148 57016 86500
AAXX 26184 86360 32697 21506 10290 20128 40151 57023 81101
AAXX 26184 86460 32598 50906 10282 20133 40165 57023 82109
AAXX 26184 86490 32698 21207 10291 20118 40161 57023 81105
AAXX 26184 86530 32697 30000 10284 20114 40160 57031 83101
AAXX 26184 86545 32597 10000 10270 20156 40178 57029 81200
AAXX 26184 86565 32498 40912 10250 20141 40182 57020 84200
AAXX 26184 86580 32997 11215 10234 20166 40189 57017 80005
AAXX 26184 83746 21335 82708 10233 20225 40160 58007 76162 8772/ 333 60131
AAXX 26181 40656 12960 03502 10117 20061 40232 52018 60002
AAXX 26181 40662 12960 03602 10112 20026 40238 52017 60002
AAXX 26181 40664 12960 03203 10104 20035 40223 52013 60002
AAXX 26181 40665 12960 03103 10132 20065 40248 52010 60002
AAXX 26181 40670 12960 00000 10130 20067 40237 52005 60002
AAXX 26181 40672 12960 00000 10128 20045 40249 51008 60002
AAXX 26181 40674 12960 03304 10118 20041 40241 53008 60002
AAXX 26181 40676 12960 02905 10138 20052 40239 52013 60002
AAXX 26181 40689 12960 02707 10146 20069 40235 52011 60002
AAXX 26181 40690 12960 02703 10138 20077 40225 51010 60002
AAXX 26181 40691 12960 02103 10144 20056 40238 51008 60002
AAXX 26181 23929 32977 21702 11191 21203 39979 40050 57017 80001 333 11166
AAXX 26181 28465 12998 01901 11179 21198 30049 40131 57009 69930 333 11152
AAXX 26181 28586 32997 32302 11225 21250 39987 40148 54000 80001 333 11190
AAXX 26181 22695 11396 81406 11068 21080 39704 49857 57023 69920 77172 8772/ 333 11054 87707
AAXX 26181 28383 11996 80000 11277 21301 30042 40135 57001 69900 77172 80007 333 11205
AAXX 26181 28696 32997 30000 11214 21233 30006 40158 54000 80001 333 11206
AAXX 26181 28588 31996 02301 11215 21233 39977 40149 58001 71000 333 11194
AAXX 26181 28791 32998 02302 11238 21256 39999 40158 54000 333 11200
AAXX 26181 22837 11470 72906 10022 20003 39789 49856 52052 60080 70282 87900 333 10026 86916
AAXX 26181 28688 31996 82301 11221 21247 39981 40155 54000 77171 8801/ 333 11188
AAXX 26181 38388 32998 00000 11109 21137 30255 40332 51004 333 11013
AAXX 26181 38392 22997 03203 11078 21119 30220 40330 52013 333 69900 11015
AAXX 26181 38507 32996 30702 11008 21053 30213 40320 52010 83030 333 10045
AAXX 26181 38511 22998 00502 11039 21080 30181 40331 52006 333 69900 10002
AAXX 26181 38545 32998 82703 11031 21099 30116 40299 52013 8807/ 333 11001
AAXX 26181 38647 22697 71104 10000 21030 30268 40312 52007 87500 333 69900 10016
AAXX 26181 38656 22698 83201 11004 21022 30208 40322 52014 885// 333 60010 10004
AAXX 26181 38687 21496 83204 11010 21028 30061 40306 52017 70272 885// 333 10018 60040 88615
AAXX 26181 38750 22597 80000 10057 20040 30336 40307 52005 885// 333 60030 10068
AAXX 26181 38763 21496 80902 11008 21018 30211 40321 52004 71052 886// 333 69950 10017 88710
AAXX 26181 38774 21495 83202 11004 21007 30143 40348 52011 75855 8872/ 333 60020 10024
AAXX 26181 38799 22597 82902 10010 20005 30076 40316 52025 885// 333 60040 10044
AAXX 26181 38806 21595 82901 10006 21003 30029 40299 52010 78588 889// 333 60050 10047
AAXX 26181 38880 21194 83502 10007 20001 30057 40323 50004 75154 886// 333 60020 88701 10043
AAXX 26181 38886 21496 83401 10028 20018 30078 40313 52012 77172 8872/ 333 69940 10051
AAXX 26181 38895 22496 83103 10028 20018 30012 40310 52011 887// 333 60030 10050
AAXX 26181 38911 21497 82803 10013 20005 39991 40295 52015 76166 8572/ 333 69900 10076
AAXX 26181 38915 21496 83103 10025 20020 39956 40289 52016 76166 8802/ 333 60010 10131
AAXX 26181 38974 21498 80000 10043 20028 39967 40310 52013 70262 8802/ 333 69900 88520 10084
AAXX 26181 38987 32596 81202 10020 20009 39542 40306 52009 885// 333 10066
BBXX SHIP 26184 99128 11493 41/97 20720 10279 20237 40102 57023 70350 8//// 22242 06285 11305 399// 4////
AAXX 26184 61017 32960 50000 10185 20026 39757 40171 80002 333 10255 59007 85080
AAXX 26184 61024 32960 21216 10215 21019 39579 40154 80002 333 10269 59005 82080
AAXX 26184 61036 32960 70000 10277 20043 39882 40121 80008 333 10312 58001 87280
AAXX 26184 61043 32960 70608 10255 21039 39685 40130 80008 333 10293 58003 87280
AAXX 26184 61045 31956 70402 10232 20005 39638 40141 7062/ 80008 333 10280 59002 87280
AAXX 26184 61049 32960 70000 10236 20000 39808 40131 80008 333 10285 58001 87280
AAXX 26184 61052 32960 30408 10284 20022 39865 40122 80002 333 10317 59002 83080
AAXX 26184 61075 31956 70000 10255 20037 30807 40118 70522 80008 333 10303 59003 87280
AAXX 26184 61080 31915 70604 10245 20066 39712 40136 70622 80008 333 10290 58000 87280
AAXX 26184 61090 31945 70202 10245 21008 39618 40132 70622 80008 333 10283 58001 87280
AAXX 26184 61091 32960 70000 10220 20103 39684 40146 80008 333 10275 59004 87280
AAXX 26184 61096 32960 73602 10246 20034 39747 40131 80008 333 10300 59006 87280
AAXX 26184 61099 32960 70206 10290 20064 39871 40099 80008 333 10330 58005 87280
AAXX 26184 04203 46/// /2505 11177 21224 39961 49979 52002
AAXX 26184 04205 45/84 /0000 11216 21256 39958 49982 52002 333 11176 21217
AAXX 26184 04208 46/// /0812 11169 21261 39874 49920 57006
AAXX 26184 04213 46/// /1421 11162 21233 39768 49882 57011 333 11161 21176
AAXX 26184 04214 46/// /0617 11113 21233 39810 49843 57017
AAXX 26184 04224 47883 70910 11076 21141 39785 49818 57010 72487 333 11071 21135 86/58 87/67
AAXX 26184 04228 NIL
AAXX 26184 04242 46/// /2716 11043 21055 39812 49828 52007
AAXX 26184 04253 46/// /1830 11034 21045 39865 49892 52009
AAXX 26184 04266 46/// /2020 11023 21053 39908 49946 52006
AAXX 26184 04285 46/// /2111 11013 21046 39987 40006 52011
AAXX 26184 04301 NIL
AAXX 26184 04313 46/// ///// 11202 21229 39878 49890 52005
AAXX 26184 04330 46/// /3209 11140 21172 39835 49852 52009
AAXX 26184 04351 46/// /3413 11143 21233 39854 49870 52033
AAXX 26184 04373 46/// /3507 11077 21172 39853 49947 52025
AAXX 26184 04382 46/// /2211 11029 21123 39927 49976 52021
AAXX 26184 04416 NIL
BBXX BAREU06 26184 99359 70115 46/// ///// 40270 52005 22224
BBXX DMQN 26184 99346 70162 41498 80611 10180 20131 40281 50002 70322 85770 22254 04190 21201 3//// 4//// 5//// 80150
AAXX 26181 22438 11568 83206 10006 21005 39789 49810 52036 69980 72682 889// 333 10005
BBXX TBWUK35 26184 99689 10122 41998 02315 10040 21044 49827 58024 70111 80000 22252 00090 2//// 80012
BBXX SHIP 26184 99167 71529 41497 30627 10233 20186 40174 52008 70111 82131 22232 04244 20405 30902 40806 50704
BBXX ELWZ5 26184 99426 11678 41297 52310 10070 20060 40015 56015 7//22 8/7// 22223 04125 2//// 3//// 4//// 5//// 80065
BBXX ZQDI9 26183 99290 11224 41598 60816 10132 20058 40308 54000 70222 81117 22213 00155 20402 3//// 4//// 5//// 80097
BBXX SHIP 26184 99273 11336 41398 60117 10150 20075 40295 53005 70311 85343 22283 00220 80110
BBXX SHIP 26184 99310 11480 41/97 72926 10130 20123 40169 50004 70121 8//// 91750 22224 00200 2//// 3//// 4//// 5//// 80120
BBXX 7JJA 26184 99338 11387 41697 53136 00 10070 20000 40220 52050 70711 848// 9//// 22253 0 2//06 331 4//04 5 6//// 80040 ICE /////
BBXX SHIP 26184 99158 11297 41297 60532 00/// 10260 20232 40137 57020 70222 8649/ 9//// 22243 00311 2//04 305// 40706 5//// 6//// 80240 THNKS/B.REGARDS MASTER PACIFIC GLORY INM C - 443272110
BBXX SHIP 26184 99284 11364 41598 33221 10140 20040 40242 56003 70122 8213/ 22212 00200 2//// 3//// 4//// 80090
BBXX DGXS 26184 99433 11433 41598 52924 10000 21042 40082 58008 70122 854// 22214 00040 20805 3//// 4//// 5//// 81015
BBXX SHIP 26184 99314 11279 41697 83315 10080 20037 40312 5/009 70222 8759/ 22283 00198 80060
BBXX SHIP 26184 99225 11228 41498 60415 10241 20180 40238 57023 70222 8543/ 22252 00241 80190
BBXX H9UY 26184 99278 11683 41798 42513 00/// 10240 40143 54/// 70100 84131 9//// 22263 04240 20403 328// 40605 5//// 6//// 80220
BBXX A8JX9 26183 99251 11263 41/98 /0225 10190 20124 40260 57010 70222 8//// 22254 29906 300// 4//00 5//// 80150
BBXX A8UE5 26184 99516 11664 41498 40827 10020 21041 40100 52015 7//// 848// 22214 04035 20806 3//// 4//// 5//// 80000
BBXX SHIP 26184 99124 31298 41/97 82512 10285 20273 40033 56009 71792 8//// 22213 04302 10802 80276
AAXX 26181 29937 42597 80901 11087 21120 39975 40201 57012 8357/
BBXX SHIP 26184 99124 31298 41/97 82512 10285 20273 40033 56009 71792 8//// 22213 04302 10802 80276
AAXX 26181 21432 41996 01811 11287 21318 30206 40227 57013 73830
AAXX 26181 21824 41991 82015 11273 21287 30232 40242 57013 73932 8805/ 333 91021 91122
AAXX 26181 21908 42999 51401 11344 21367 30127 40217 57004 80001
AAXX 26181 21921 42999 20000 11406 21438 30264 40316 53002 82030
AAXX 26181 21931 42998 02302 11388 21424 30242 40279 57010
AAXX 26181 21946 42999 02001 11371 21401 30246 40346 57005
AAXX 26181 21982 31998 53309 11188 21229 30294 40323 57009 73732 82031 333 21191 48013 91114
AAXX 26181 25062 32997 02404 11372 21415 30360 40364 57010 333 21373 48038 91106
AAXX 26181 25123 42996 01401 11394 21429 30334 40372 57005
AAXX 26181 25138 41999 00000 11402 21427 30227 40369 57005 77670 333 91103
AAXX 26181 25173 31996 03010 11270 21288 30325 40333 57008 73730 333 21274 48056 91114
AAXX 26181 25248 42998 00000 11470 21494 39881 40421 57008 333 91100
AAXX 26181 25282 31968 63408 11234 21246 30261 40268 57012 73631 86030 333 21236 46003 91114
AAXX 26181 25325 NIL
AAXX 26181 25356 32999 22902 11213 21280 30200 40307 57006 80001 333 21227 48017 55000 91004
AAXX 26181 25399 11438 83611 11194 21220 30127 40137 54000 60010 77373 8872/ 333 21200 48047 55000 91116
AAXX 26181 25428 41956 00000 11445 21475 39999 40396 58011 71000 333 91100
AAXX 26181 25551 32998 00000 11406 21432 30286 40322 57010 333 21418 47035 55003 91101
AAXX 26181 25563 32984 43410 11276 21299 30191 40279 58013 82041 333 21279 44030 55014 91113
AAXX 26181 25594 32998 03303 11208 21241 30087 40141 57012 333 21217 49040 91106
AAXX 26181 25677 31998 03409 11186 21205 30216 40222 57016 73630 333 21206 91111
AAXX 26181 31054 42999 00000 11465 21494 30071 40398 53006
AAXX 26181 31123 42998 00000 11407 21431 30008 40391 52006
AAXX 26181 01152 11886 81806 10029 21018 39864 49880 58032 60022 70322 82077 333 10049 91119
AAXX 26181 38599 1122382506 10003 21003 39732 40261 53008 69930 77187 885EE 333 10060 86703 82624
BBXX 46042 26181 99368 71224 46/// /3505 10109 40268 53013 91750 22200 00129 11606 20501 330// 41605 70028 333 91207 555 11053 22055 31737 43508 61749 344051 355061 359057 007058 013059 007059
BBXX 46207 26181 99509 71299 46/// /1622 10073 40021 57045 22200 00083 11013 70065 333 91227
BBXX A81D9 26184 99327 71287 41298 40709 10155 20142 40293 57003 70311 8/166 22214 04150 29902 332// 41006 5//// 80147
BBXX C6UB2 26184 99502 71386 41297 82840 10060 20020 49960 52080 71422 8792/ 22262 00060 21012 328// 40806 5//// 6//// 80040 ICE /////
BBXX DDAC2 26180 99302 71202 41098 30103 10150 20150 40220 54000 7//00 82190 22272 04160 2//// 335// 40405 5//// 80150
BBXX DHEB 26183 99482 71384 41598 72734 10065 21006 49950 53038 70322 86878 22263 04100 20808 327// 41210 5//// 80035
BBXX KIYI 26184 99582 71487 41293 83444 10005 21020 49780 56030 78672 886// 22274 0//// 20205 3//// 4//// 5//// 6//// 81005 ICE /////
BBXX KQXZ 26184 99479 71336 41797 52328 10100 20040 49980 52030 7//21 846/1 22233 0//// 20506 321// 41207 5//// 6//// 80072 ICE /////
BBXX SGW 26181 99340 71463 43/98 72308 10181 40262 51018 22224 00185 20403 41006
BBXX SHIP 26184 99486 71335 41595 82341 10090 20071 40979 51007 76126 887// 91810 22224 00080 20508 323// 40508 80080
BBXX VQAJ8 26183 99477 71256 41/98 81820 10080 20033 40220 57021 70022 8//// 22212 00108 20406 327// 40606 5//// 80060
BBXX WDB9918 26184 99482 71334 41497 80230 10089 20070 49960 51010 76262 886// 22232 00083 21011 324// 40807 5//// 6//// 80083 ICE /////
BBXX WDC3786 26184 99307 71229 41498 20120 10141 20120 40264 52002 7//00 82748 22224 00180 20402 301// 40604 5//// 6//// 80132 ICE /////
AAXX 26184 61600 32960 70406 10282 20051 30124 40129 80002 333 10304 58010 87073
AAXX 26184 61612 32960 50404 10285 20005 30127 40135 80002 333 10305 58011 85073
AAXX 26184 61627 32960 60204 10300 20019 3//// 4//// 80002 333 10326 5//// 86073
AAXX 26184 61630 32960 73604 10308 20090 30101 40120 80002 333 10347 58000 87073
AAXX 26184 61641 32960 73609 10244 20185 30096 40129 82032 333 10280 58009 82363 86073
AAXX 26184 61666 32962 60404 10320 20118 30100 40108 80002 333 10340 58000 86073
AAXX 26184 61679 32965 53606 10325 20128 30109 40117 80002 333 10353 58004 85073
AAXX 26184 61687 32965 50206 10330 20012 30050 40107 80002 333 10345 58003 85073
AAXX 26184 61695 32960 63602 10300 20130 30087 40113 82082 333 10329 58009 82363 86073
AAXX 26184 61697 32960 53204 10288 20174 30100 40115 80002 333 10322 58011 85073
AAXX 26184 61698 32960 70000 10317 20123 30098 40109 82032 333 10355 58016 82363 86073
AAXX 26184 61699 32960 40404 10323 20084 39903 40092 80002 333 10347 59003 84073
AAXX 26184 65528 NIL
AAXX 26184 65536 NIL
AAXX 26184 65545 NIL
AAXX 26184 65548 NIL
AAXX 26184 65555 NIL
AAXX 26184 65557 32458 3//// 10298 20239 39856 40094 83200 333 10/// 58004 83813 94919
AAXX 26184 65560 31940 0//// 10320 20202 39784 40090 71000 333 10360 58003
AAXX 26184 65562 NIL
AAXX 26184 65563 32956 10804 10285 20203 39857 40097 81030 333 10335 58004 81360
AAXX 26184 65578 32560 72406 10280 20259 30091 40108 86530 333 10320 58009 86620 85360
AAXX 26184 65585 NIL
AAXX 26184 65592 32460 6//// 10280 20241 30073 40095 82202 333 10304 58007 82813 85076 94904
AAXX 26184 65594 32460 52004 10282 20247 30068 40102 83230 333 10310 58003 83813 83360 94914
AAXX 26184 65599 32460 4//// 10275 20251 30018 40092 81170 333 10302 58007 81815 84360 94904
AAXX 26184 60676 36/// /0510 10110 21043 333 10142
AAXX 26181 60373 16/// /0603 10103 20102 60072 333 10148
AAXX 26181 60393 36/+/ /1001 10126 20079 333 10160
AAXX 26181 60379 36/// /3401 10120 20120 333 10173
AAXX 26181 14328 11456 80000 10012 20002 39982 40396 52/// 69932 7607/ 885// 333 10037 43005 93197
AAXX 26184 60621 36/// /3614 10143 21021 333 10187
AAXX 26184 60662 36/// /0000 10111 21079 333 10145
AAXX 26181 14216 12982 73502 10092 20027 30216 40371 52/// 60002 87070 333 10106 923// 924/8
AAXX 26181 14219 11515 82002 10002 20000 39340 48618 53/// 69922 76877 8802/ 333 10029 43008 93197
AAXX 26181 14232 11560 80301 10032 20027 30249 40390 51/// 69932 75056 887// 333 10047
AAXX 26181 14234 11665 81001 10025 20023 30143 40400 53/// 69972 760// 8802/ 333 10032
AAXX 26181 14236 11530 81401 10038 20029 30187 40392 52/// 69992 761// 885// 333 10055
AAXX 26181 14244 11456 80000 10023 20013 30273 40409 53/// 69962 761// 885// 333 10034
AAXX 26181 14248 11930 82302 10026 20021 30216 40398 54/// 60022 76162 8802/ 333 10035
AAXX 26181 14253 11510 81401 10016 20009 30218 40400 53/// 60012 751// 886// 333 10030 41997
AAXX 26181 14256 11540 82402 10012 20007 30063 40396 53008 69962 71062 8772/ 333 10026 42005
AAXX 26181 14280 12660 82702 10031 20019 30281 40395 51008 60002 885// 333 10043
AAXX 26181 14308 12970 80000 10057 21010 30000 40364 53/// 60002 8807/ 333 10114
AAXX 26181 14321 12682 80601 10113 20025 30333 40358 53/// 60002 885// 333 10153 92312 92428
AAXX 26181 14370 11556 80000 10022 20000 30274 40388 52008 60002 71022 886// 333 10036
AAXX 26181 14382 12660 82101 10022 20000 30273 40398 51007 60002 885// 333 10032
AAXX 26181 14428 12770 20702 10108 20002 30327 40334 50/// 60002 81540 333 10147 92301
AAXX 26181 14441 12984 00202 10083 21025 30281 40306 53/// 60002 333 10125 92311
AAXX 26181 14452 NIL
AAXX 26181 14454 12983 00406 10102 21068 30262 40323 51/// 60002 333 10136 92312 91114 91501
AAXX 26181 14462 12980 00208 10070 21057 30333 40339 52/// 60002 81070 333 10115
AAXX 26184 60664 36/// /0000 10101 21053 333 10161
AAXX 26184 60672 36/// /0505 10131 21073 333 10171
AAXX 26184 60691 36/// /0309 10188 21078 333 10238
AAXX 26184 60686 12960 20510 10202 21020 40184 53003 60002 80002 333 10248 82073
AAXX 26184 60667 36/// /0000 10131 21052 333 10168
AAXX 26184 60660 36/// /2908 10185 61047 333 10221
AAXX 26181 89064 16/// /1901 10020 29089 49862 57014 60031
AAXX 26184 60633 36/// /2905 10201 21065 333 10235
BBXX 46147 26181 99518 71312 46/// /1720 10079 49956 57036 22200 00078 11015 70076 333 91226
AAXX 26181 26059 12997 03005 10049 21027 30035 40060 51051 69902 333 10081 91116
BBXX 46147 26181 99518 71312 46/// /1720 10079 49956 57036 22200 00078 11015 70076 333 91226
AAXX 26181 25703 41996 20000 11435 21468 30085 40405 57007 77671 80001
AAXX 26181 25745 NIL
AAXX 26181 25913 42699 50606 11102 21155 30082 40236 53002 85500
AAXX 26181 25954 42998 00303 11160 21240 30139 40260 57008
AAXX 26181 25956 42999 00605 11227 21267 30250 40256 56008
AAXX 26181 31088 42599 60102 11178 21228 30245 40253 54000 82530
AAXX 26181 31873 42997 02602 11230 21262 30178 40326 52011
AAXX 26181 31909 41998 02908 11143 21225 30142 40225 50006 73630 333 91014 91114
AAXX 26181 31960 42998 03508 11155 21261 30075 40329 52004 333 91013 91114
AAXX 26181 31961 42998 00301 11228 21261 30291 40342 52007
AAXX 26181 32053 41495 83506 11088 21116 30053 40103 53007 78583 889// 333 88915 91012 91112
AAXX 26181 32061 41509 83307 11095 21102 30107 40148 53001 78683 889// 333 91011 91112
AAXX 26181 32098 41598 83508 11062 21137 30072 40082 58002 73631 82903 333 91012 91117
AAXX 26181 32150 42596 80105 11065 21116 30074 40104 53006 84302 333 91009 91109
AAXX 26181 32165 41596 53008 11016 21061 30025 40087 52026 78583 85900 333 91010 91116
AAXX 26181 32215 42596 80703 10008 21025 30031 40060 52004 888// 333 91005 91113
AAXX 26181 32252 NIL
AAXX 26181 32389 41698 80903 11048 21051 30162 40200 52000 70272 8357/
AAXX 26181 32477 42997 80502 11096 21108 30069 40102 53007 8805/
AAXX 26181 32583 41595 80705 11006 21040 30090 40120 53002 78583 889// 333 91012 91115 92982
AAXX 26181 32618 42698 11003 11059 21098 30162 40184 58009 81500
AAXX 26184 71430 16/// /2919 10034 21021 30122 40220 58022 60001 333 10037 21016 70030
AAXX 26184 71171 16/// /2710 10034 21034 30128 40226 58026 60001 333 10037 20025 70000
AAXX 26184 71189 46/// /2819 11061 21125 6///1 333 11053 21102 7////
AAXX 26184 71276 16/// ///11 11019 21051 60001 333 10039 21022 70000
AAXX 26184 71215 46/// /1707 10000 21053 39923 40275 53004 6///1 333 10017 21055 7////
AAXX 26184 71217 16/// /2408 10028 21086 60001 333 10042 21049 70000
AAXX 26184 71224 16/// /2618 10002 21071 60001 333 10005 21048 70000
AAXX 26184 71883 46/// /0000 11052 21054 39417 40252 51012 6///1 333 10012 21084 7////
AAXX 26184 71979 16/// ///// 11086 21131 38465 40140 56002 60001 333 11045 21111 70007 555 10010
AAXX 26184 71343 16/// /2623 10033 21092 60001 333 10037 21006 70000
AAXX 26184 71345 16/// /2716 10032 21077 60001 333 10035 21006 70000
AAXX 26184 71375 46/// /2615 11041 6///1 333 11022 21123 7////
AAXX 26184 71846 17/// /2603 11007 21011 39647 49959 58019 60011 7//4/ 333 11001 21103 70010
AAXX 26184 71430 16/// /2919 10034 21021 30122 40220 58022 60001 333 10037 21016 70030
AAXX 26184 71883 46/// /0000 11052 21054 39417 40252 51012 6///1 333 10012 21084 7////
AAXX 26184 08221 02980 03403 10059 21004 39641 40346 53003 60002 333 10118 60007
AAXX 26184 65306 32960 50404 10278 20079 39779 40111 80002 333 10339 59002 85076
AAXX 26184 93800 16/// /0516 10169 20129 40130 57011 60001
AAXX 26184 93805 16/// /3425 10173 20117 40096 57016 60001
AAXX 26184 93994 16/// /1207 10197 20137 40140 52005 60001
AAXX 26184 89002 41599 81027 11020 21044 39757 49811 52016 73633 888// 333 00950 92911
AAXX 26181 50434 11975 70000 11306 21343 39353 40353 57007 69911 77070 80002 333 11252
AAXX 26181 50527 32965 02001 11234 21259 39453 40335 57004 333 11224
AAXX 26181 50603 32980 02501 11301 21340 39589 40358 57002 333 11260
AAXX 26181 50632 11980 70701 11241 21267 39350 40325 57007 69901 77070 80002 333 11154
AAXX 26181 50727 32980 70000 11214 21244 39052 40344 57007 80002 333 11172
AAXX 26181 50915 32980 00000 11235 21273 39257 40357 57006 333 11120
AAXX 26181 51716 32965 03601 11121 21142 38966 40343 57001 333 05100 11027
AAXX 26181 51765 32980 00000 11150 21175 39293 40374 57001 333 05100 11057
AAXX 26181 51777 32970 71401 11139 21175 39240 40363 57003 80002 333 05101 11045
AAXX 26181 51811 32962 02701 11119 21145 38836 40345 54000 333 05151 11030
AAXX 26181 51828 32965 03201 11097 21138 38671 40327 52001 333 05100 11032
AAXX 26181 52267 32980 03202 11131 21220 39171 40349 57003 333 05252 11025
AAXX 26181 52323 32980 02702 11201 21235 38258 57002 333 00054 11054
AAXX 26181 52495 32980 00701 11144 21205 38736 40345 52002 333 05201 11021
AAXX 26181 53149 32980 02701 11108 21183 38827 40313 57006 333 05405 11024
AAXX 26181 53192 32980 02901 11231 21255 38945 40394 57006 333 11147
AAXX 26181 53231 32970 01605 11128 21195 38525 52002 333 05301 11025
AAXX 26181 53336 32980 10000 11128 21180 38763 40334 57008 80002 333 05302 11050
AAXX 26181 53391 32980 00401 11138 21183 38551 40341 57006 333 05304 11049
AAXX 26181 53529 11980 21801 11085 21109 38666 40316 57007 69921 70070 80002 333 05305 11015
AAXX 26181 53543 11980 82002 11066 21100 38583 40316 57001 69901 77070 8802/ 333 11032
AAXX 26181 53723 32970 20000 11082 21097 38702 40314 57004 80002 333 05203 11012
AAXX 26181 54012 32980 01401 11127 21187 39068 40324 57006 333 11101
AAXX 26181 54026 32980 03202 11167 21219 39971 40323 57010 333 11071
AAXX 26181 54027 32980 00000 11176 21224 39696 40332 57008 333 11071
AAXX 26181 54208 32980 00000 11197 21230 38815 40365 57006 333 11059
AAXX 26181 54776 32980 02203 11004 21072 30314 40374 52003 333 10007
AAXX 26181 56004 32980 02901 11196 21290 35803 57002 333 05101 11068
AAXX 26181 56033 32980 20401 11162 21291 36011 52002 80002 333 00053 11044
AAXX 26181 56046 32680 83204 11080 21142 36257 52007 889// 333 00153 10011
AAXX 26181 56193 NIL
AAXX 26181 56196 31840 80000 10057 20018 40278 57001 71000 885// 333 05200 10079
AAXX 26181 56287 31950 80000 10057 20034 40276 57002 71000 8807/ 333 05201 10086
AAXX 26181 56684 32570 11401 10066 20023 37908 57001 81100 333 05103 10115
AAXX 26181 56751 32780 22902 10076 20035 38041 54000 82400 333 00001 10162
AAXX 26181 56786 32560 71802 10075 20041 38131 52001 874// 333 00001 10127
AAXX 26181 56977 32662 82701 10096 20087 40223 57001 885// 333 00001 10144
AAXX 26181 57259 32965 81601 10038 21010 40313 52005 8807/ 333 10076
AAXX 26181 57279 32961 82501 10038 21004 40316 57003 8807/ 333 10092
AAXX 26181 57348 31858 83401 10083 21045 40283 52003 71000 885// 333 10105
AAXX 26181 57399 32960 80401 10050 21023 40307 57006 8807/ 333 10085
AAXX 26181 57554 32967 80000 10056 21030 40306 57001 8807/ 333 10086
AAXX 26181 57793 32962 81102 10070 21019 40298 52002 8807/ 333 10115
AAXX 26181 58345 31958 80904 10055 20011 40335 57003 71000 8807/ 333 10091
AAXX 26181 58506 32965 71602 10028 21108 40298 52001 8704/ 333 10049
AAXX 26181 58813 32967 72201 10055 20012 40289 52005 8704/ 333 10156
AAXX 26181 58834 32964 80901 10070 20029 40308 52002 8807/ 333 10149
AAXX 26181 58926 32965 01401 10061 20044 40297 52005 333 10180
AAXX 26181 58944 31450 83605 10118 20085 40280 57007 71000 885// 333 10122
AAXX 26181 59096 32665 72001 10092 20021 40268 57001 875// 333 10188
AAXX 26181 59102 32662 70000 10036 20026 40280 52005 87500 333 10179
AAXX 26181 59278 32962 02001 10118 20048 40257 57003 333 10179
AAXX 26181 59456 32870 70401 10127 20020 40244 52004 875// 333 10224
AAXX 26181 59493 32963 30201 10138 20082 40252 57002 83040 333 10173
AAXX 26181 59658 32765 70704 10166 20061 40236 57004 875// 333 10191
AAXX 26181 59673 32962 00203 10148 20078 40246 57004 333 10178
AAXX 26181 59845 32962 01401 10159 20130 40228 57007 333 10191
AAXX 26181 34519 31150 82606 11027 21034 39979 40265 57015 71022 886// 333 11027 88703
BBXX 46241 26181 99330 71173 46/// ///// 1//// 91741 22200 00143 11701 21001 326// 41701 70006
BBXX 46088 26181 99483 71232 46/// /1406 10056 40239 91820 22200 00078 10301 20301 70004 333 91207 555 11060 22062 31810 41307 61819 137058 142053 140049 139050 131052 130049
BBXX 46249 26181 99338 71197 46/// ///// 1//// 91810 22200 00144 11502 21001 321// 41502 70011
BBXX 46248 26181 99461 71247 46/// ///// 1//// 91804 22200 00097 11308 20904 328// 41307 70041
BBXX 46244 26181 99409 71244 46/// ///// 1//// 91805 22200 00099 11307 20904 329// 41306 70034
AAXX 26184 62002 11958 70610 10085 20074 39533 48569 520015 60032 76062 87020 333 0//11 10095 87460
AAXX 26184 62010 11560 72503 10117 20105 40263 52015 60032 70282 878// 333 0//12 10142 83820 86630
AAXX 26184 62012 11558 70000 10125 20106 30219 40250 54001 60192 72162 83520 333 0//12 10160 83630 84358
AAXX 26184 62124 32960 01508 10130 21003 39713 40232 53002 333 10169
AAXX 26184 62161 32960 00000 10140 20056 40241 53009 333 10120
AAXX 26181 11826 12560 80000 10028 20018 30172 40380 52007 69902 885// 333 10041 88620
BBXX 46240 26181 99366 71219 46/// ///// 1//// 91812 22200 00122 11502 21001 335// 41502 70012
BBXX 46237 26181 99378 71226 46/// ///// 1//// 91810 22200 00109 11505 21002 326// 41504 70023
BBXX 46212 26181 99408 71243 46/// ///// 1//// 91812 22200 00098 11506 21003 330// 41505 70031
BBXX 46131 26181 99499 71250 46/// /1111 1//// 40215 57009 22200 00078 10503 70014 333 91214
BBXX 46216 26181 99343 71198 46/// ///// 1//// 91757 22200 00145 11302 21001 327// 41301 70009
BBXX 46223 26181 99335 71178 46/// ///// 1//// 91800 22200 00150 11502 21001 319// 41501 70008
AAXX 26181 38846 414// 80503 10026 20026 38509 48480 52002 76162 8872/
AAXX 26181 80001 NIL
AAXX 26181 80002 01470 20604 10280 20237 69951 72050 81170 333 56290 69937 81818
AAXX 26181 80009 31560 20000 10312 20235 30089 40094 70500 81804 333 560/0 59003 81820
AAXX 26181 80022 31467 13103 10302 20239 30095 40097 70500 81101 333 569/0 59003 81815
AAXX 26181 80028 31560 12403 10311 20213 30069 40104 70500 81100 333 565// 59014 81820
AAXX 26181 80035 31565 31007 10312 20194 30110 40115 70500 81106 333 562/9 59015 81820
AAXX 26181 80036 31968 20507 10335 20186 70500 80002 333 56000 82070
AAXX 26181 80063 31566 70000 10322 20223 70522 81110 333 5600/ 81820 87462
AAXX 26181 80084 31559 83604 10302 20234 70522 83806 333 563/9 83825 85270
AAXX 26181 80091 31462 40000 10312 20233 70510 82205 333 560/9 82817 83070
AAXX 26181 80094 31468 42705 10246 20199 38800 70510 83871 333 56799 59010 83815
AAXX 26181 80097 32570 33603 10298 20216 39751 40097 82841 333 56999 59006 82822
AAXX 26181 80099 31466 30904 10306 20211 39937 40082 70500 83101 333 569/9 58010 83815
AAXX 26181 80110 31565 80204 10242 20148 38492 70522 333 56999 58001 83830 85358
AAXX 26181 80112 31570 80905 10191 20128 37897 70522 8387/ 333 56999 57895 59008 83820 86358
AAXX 26181 80139 NIL
AAXX 26181 80144 01240 80000 10246 20240 60081 75055 8521/ 333 5600/ 60077 85806 88457
AAXX 26181 80210 11463 62302 10256 20185 38649 69941 70552 83236 333 56550 57891 58000 83815 83358
AAXX 26181 80211 31565 70000 10254 20189 75022 84270 333 5612/ 57813 84822 84359
AAXX 26181 80214 31560 61502 10282 20218 39108 70522 82830 333 5655/ 59006 82823 84360
AAXX 26181 80222 31568 31406 10204 20102 37514 70521 84800 333 569// 59006 84825
AAXX 26181 80234 32562 51102 10308 20166 39617 40110 81131 333 56339 58002 81823 84359
AAXX 26181 80252 NIL
AAXX 26181 80259 31560 53603 10295 20189 39034 70521 83830 333 5629/ 59003 83820
AAXX 26181 80315 32665 20000 10325 20207 39576 40064 82200 333 566// 59005 82840
AAXX 26181 80342 32570 33203 10233 20183 38201 83100 333 563// 59005 83828
AAXX 26181 80370 31462 61105 10148 20102 71522 86800 333 563// 86818
AAXX 26181 80372 NIL
AAXX 26181 80398 11470 70000 10280 20248 30035 40130 69941 70252 86870 333 5699/ 58009 86815 87458
AAXX 26181 78310 12570 31303 10285 20212 30179 40189 57012 60001 81202 333 10299 20205 30/// 56909 59014 81820 92024
AAXX 26181 78315 01472 71203 10266 20210 30120 40186 58014 69901 72581 8687/ 333 10275 20187 30/// 56399 59016 69907 79999 85818 84621 555 11402
AAXX 26181 78318 11563 41204 10279 20197 30180 40184 57016 60001 70500 84200 333 10281 20208 30/// 56300 59012 84820 555 11302
AAXX 26181 78322 11459 41105 10286 20204 30173 40190 58019 60001 70500 84200 333 10290 20202 30/// 56900 59015 70005 84818
AAXX 26181 78324 11410 20904 10283 20222 30170 40181 58015 60001 70500 82200 333 10283 20222 30/// 56200 59014 70055 82817 555 10903
AAXX 26181 78325 11564 10906 10272 20162 30130 40188 58017 60001 70511 81200 333 10290 20214 30/// 56200 59015 81820 555 10901
AAXX 26181 78328 11/61 51104 10262 20213 30194 40/// 57014 60001 70511 82250 333 10265 20224 30/// 56920 59014 70001 828// 85358 92427 555 21100
AAXX 26181 78333 11410 42401 10282 20195 30176 40183 58019 60001 70500 84232 333 10288 20198 30/// 56599 59014 84819 555 12302
AAXX 26181 78344 11564 40604 10287 20192 30129 40177 58018 60001 70500 84240 333 10298 20200 30/// 56290 57815 59013 84820 555 10902
AAXX 26181 78345 12565 30503 10296 20217 30175 40178 57022 60001 83200 333 10297 20207 30/// 56900 59013 70004 83820
AAXX 26181 78348 11557 20504 10261 20195 30133 40185 58021 60001 70511 82240 333 10261 20229 30/// 56990 57855 59016 82820
AAXX 26181 78349 11566 70902 10288 20185 30074 40183 57025 60001 70522 878// 333 10288 20218 30/// 56299 57853 59023 83823 87625 555 10902
AAXX 26181 78351 12550 30406 10303 20175 30163 40165 58012 60001 83800 333 10308 20212 30/// 56900 59013 70002 81826 83633
AAXX 26181 78353 12570 31004 10284 20180 30168 40190 58021 60001 83/// 333 10284 20229 30/// 56900 59002 70012 82823
AAXX 26181 78355 12570 40506 10288 20183 30043 40178 56016 60001 84800 333 10289 20203 30/// 56900 59010 82823
AAXX 26181 78358 11540 20806 10277 20219 30159 40174 58021 60001 70500 82800 333 10277 20214 31/// 56900 59012 70021 81823
AAXX 26181 78360 11568 31308 10292 20207 30158 40169 58018 60001 70500 82801 333 10292 20217 30/// 56909 57887 59014 81820 92034
AAXX 26181 78363 11560 50303 10286 20188 30037 40151 56028 60001 70511 85200 333 10286 20195 30/// 56900 59008 85820
AAXX 26181 78365 11562 60910 10256 20221 30182 40187 58018 60001 70511 85860 333 10273 20245 30/// 56290 57844 59009 70005 84821 92045 555 10903
AAXX 26181 78369 NIL
BBXX 46231 26181 99327 71174 46/// ///// 1//// 91754 22200 00141 11302 21001 327// 41302 70009
BBXX 46222 26181 99336 71183 46/// ///// 1//// 91756 22200 00146 11302 21001 326// 41301 70009
BBXX 46218 26181 99345 71208 46/// ///// 1//// 91802 22200 00138 11506 20704 330// 41504 70029
BBXX 46131 26181 99499 71250 46/// /1111 1//// 40215 57009 22200 00078 10503 70014 333 91214
AAXX 26181 80001 NIL
AAXX 26181 80002 01470 20604 10280 20237 69951 72050 81170 333 56290 69937 81818
AAXX 26181 80009 31560 20000 10312 20235 30089 40094 70500 81804 333 560/0 59003 81820
AAXX 26181 80022 31467 13103 10302 20239 30095 40097 70500 81101 333 569/0 59003 81815
AAXX 26181 80028 31560 12403 10311 20213 30069 40104 70500 81100 333 565// 59014 81820
AAXX 26181 80035 31565 31007 10312 20194 30110 40115 70500 81106 333 562/9 59015 81820
AAXX 26181 80036 31968 20507 10335 20186 70500 80002 333 56000 82070
AAXX 26181 80063 31566 70000 10322 20223 70522 81110 333 5600/ 81820 87462
AAXX 26181 80084 31559 83604 10302 20234 70522 83806 333 563/9 83825 85270
AAXX 26181 80091 31462 40000 10312 20233 70510 82205 333 560/9 82817 83070
AAXX 26181 80094 31468 42705 10246 20199 38800 70510 83871 333 56799 59010 83815
AAXX 26181 80097 32570 33603 10298 20216 39751 40097 82841 333 56999 59006 82822
AAXX 26181 80099 31466 30904 10306 20211 39937 40082 70500 83101 333 569/9 58010 83815
AAXX 26181 80110 31565 80204 10242 20148 38492 70522 333 56999 58001 83830 85358
AAXX 26181 80112 31570 80905 10191 20128 37897 70522 8387/ 333 56999 57895 59008 83820 86358
AAXX 26181 80139 NIL
AAXX 26181 80144 01240 80000 10246 20240 60081 75055 8521/ 333 5600/ 60077 85806 88457
AAXX 26181 80210 11463 62302 10256 20185 38649 69941 70552 83236 333 56550 57891 58000 83815 83358
AAXX 26181 80211 31565 70000 10254 20189 75022 84270 333 5612/ 57813 84822 84359
AAXX 26181 80214 31560 61502 10282 20218 39108 70522 82830 333 5655/ 59006 82823 84360
AAXX 26181 80222 31568 31406 10204 20102 37514 70521 84800 333 569// 59006 84825
AAXX 26181 80234 32562 51102 10308 20166 39617 40110 81131 333 56339 58002 81823 84359
AAXX 26181 80252 NIL
AAXX 26181 80259 31560 53603 10295 20189 39034 70521 83830 333 5629/ 59003 83820
AAXX 26181 80315 32665 20000 10325 20207 39576 40064 82200 333 566// 59005 82840
AAXX 26181 80342 32570 33203 10233 20183 38201 83100 333 563// 59005 83828
AAXX 26181 80370 31462 61105 10148 20102 71522 86800 333 563// 86818
AAXX 26181 80372 NIL
AAXX 26181 80398 11470 70000 10280 20248 30035 40130 69941 70252 86870 333 5699/ 58009 86815 87458
AAXX 26184 62357 32560 40104 10148 20108 40256 52011 84500 333 10210
AAXX 26184 62423 32960 03503 10120 20017 40266 52006 333 10191
AAXX 26184 62403 32960 02704 10148 20027 40229 52007 333 10216
AAXX 26184 62305 32960 02501 10119 20063 40254 52013 333 10178
AAXX 26184 62306 32960 01304 10124 20091 40268 52011 333 10190
AAXX 26184 62318 12560 40000 10118 20102 40273 52018 60032 70261 84800 333 10164
AAXX 26184 62337 NIL
AAXX 26184 62366 31956 00304 10151 20087 40268 52015 70500 333 10185
AAXX 26184 62393 32960 03207 10118 20060 40259 53012 333 10188
AAXX 26184 62405 32960 00000 10132 20068 40229 52014 333 10214
AAXX 26184 62414 32960 03508 10158 21007 40230 52009 333 10212
AAXX 26184 62417 32560 52802 10162 20082 40255 52007 85500 333 10206
AAXX 26184 62440 32560 30304 10145 20110 40267 52015 83200 333 10198
AAXX 26184 62463 32960 03310 10164 20099 40238 52011 333 10212
AAXX 26184 62465 32960 02903 10178 20076 40220 52005 333 10214
AAXX 26184 62419 NIL
AAXX 26184 62458 32960 03505 10179 20043 40225 52010 333 10204
AAXX 26184 62420 32960 00000 10139 20061 40258 52006 333 10207
AAXX 26184 62432 32960 02902 10116 20048 40248 52007 333 10204
AAXX 26184 62435 32960 00204 10142 20058 40234 52009 333 10206
AAXX 26184 62455 32960 03505 10158 20061 40249 52017 333 10196
AAXX 26184 62476 32960 03614 10206 20115 40194 53010 333 10240
AAXX 26184 62309 32960 00101 10132 20106 40262 52014 333 10188
AAXX 26184 62325 32960 03602 10130 20105 40278 52018 333 10184
AAXX 26184 62332 32560 23606 10159 20112 40272 52013 82500 333 10188
AAXX 26184 62387 32960 00105 10140 20068 40253 52006 333 10196
AAXX 26184 62459 32960 00806 10160 20088 40229 52008 333 10208
AAXX 26184 62452 32560 20104 10088 20035 40285 52014 82500 333 10172
AAXX 26184 62458 32960 03505 10179 20043 40225 52010 333 10204
AAXX 26184 62420 32960 00000 10139 20061 40258 52006 333 10207
AAXX 26184 62432 32960 02902 10116 20048 40248 52007 333 10204
AAXX 26184 62435 32960 00204 10142 20058 40234 52009 333 10206
AAXX 26184 62455 32960 03505 10158 20061 40249 52017 333 10196
AAXX 26184 62476 32960 03614 10206 20115 40194 53010 333 10240
AAXX 26184 62305 32960 02501 10119 20063 40254 52013 333 10178
AAXX 26184 62306 32960 01304 10124 20091 40268 52011 333 10190
AAXX 26184 62318 12560 40000 10118 20102 40273 52018 60032 70261 84800 333 10164
AAXX 26184 62337 NIL
AAXX 26184 62366 31956 00304 10151 20087 40268 52015 70500 333 10185
AAXX 26184 62393 32960 03207 10118 20060 40259 53012 333 10188
AAXX 26184 62405 32960 00000 10132 20068 40229 52014 333 10214
AAXX 26184 62414 32960 03508 10158 21007 40230 52009 333 10212
AAXX 26184 62417 32560 52802 10162 20082 40255 52007 85500 333 10206
AAXX 26184 62440 32560 30304 10145 20110 40267 52015 83200 333 10198
AAXX 26184 62463 32960 03310 10164 20099 40238 52011 333 10212
AAXX 26184 62465 32960 02903 10178 20076 40220 52005 333 10214
AAXX 26184 62419 NIL
AAXX 26184 62309 32960 00101 10132 20106 40262 52014 333 10188
AAXX 26184 62325 32960 03602 10130 20105 40278 52018 333 10184
AAXX 26184 62332 32560 23606 10159 20112 40272 52013 82500 333 10188
AAXX 26184 62387 32960 00105 10140 20068 40253 52006 333 10196
AAXX 26184 62459 32960 00806 10160 20088 40229 52008 333 10208
AAXX 26184 62452 32560 20104 10088 20035 40285 52014 82500 333 10172
AAXX 26184 62357 32560 40104 10148 20108 40256 52011 84500 333 10210
AAXX 26184 62423 32960 03503 10120 20017 40266 52006 333 10191
AAXX 26184 62403 32960 02704 10148 20027 40229 52007 333 10216
AAXX 26184 41255 36/// /0303 10179 21005 39635 40194 333 0E018 10291 58004
AAXX 26181 60394 36/// /0000 10122 20092 333 10170
AAXX 26181 60613 36/// /0000 10134 :1014 ;33 10168
AAXX 26181 60374 16/// /0204 10123 20122 60082 333 10167
BBXX 41115 26181 99184 70673 46/// ///// 1//// 91805 22200 10602 20602 70009
BBXX 41114 26181 99276 70802 46/// ///// 1//// 91816 22200 00246 10902 20902 70008
BBXX 42362 26181 99278 70907 46/// /1405 10239 20194 40203 58017 91800
BBXX 42362 26181 99278 70907 46/// /1504 10244 20189 40200 91815
BBXX 42364 26181 99291 70881 46/// /1108 10211 20183 40200 91815
BBXX 46204 26181 99514 71288 46/// /1018 10059 40072 57029 22200 00083 10710 70051 333 91222
BBXX 46204 26181 99514 71288 46/// /1018 10059 40072 57029 22200 00083 10710 70051 333 91222
AAXX 26181 21802 41999 01406 11290 21306 30135 40161 57014 73630
AAXX 26181 24125 42998 00000 11405 21415 39934 40260 57010
AAXX 26181 24136 42999 00000 11461 21492 30179 40297 57005
AAXX 26181 24143 42999 02304 11374 21407 30268 40325 57001
AAXX 26181 24266 42998 02601 11496 21516 30169 40384 55000
AAXX 26181 24329 42998 20000 11458 21485 39971 40330 57008 82010
AAXX 26181 24343 42997 20000 11447 21476 30216 40358 52001 80001
AAXX 26181 24382 41994 20000 11470 21494 30085 40388 57005 71040 80001
AAXX 26181 24639 41993 22101 11410 21438 30194 40375 52003 74444 80001
AAXX 26181 24641 42999 00000 11435 21468 30205 40375 52012
AAXX 26181 24652 42997 31301 11405 21432 30225 40370 53005 80001
AAXX 26181 24656 42999 00000 11418 21449 30257 40378 52007
AAXX 26181 24671 42999 03301 11432 21461 39813 40415 53004
AAXX 26181 24688 41999 00000 11513 21551 39425 40555 54000 70400
AAXX 26181 24724 41997 82204 11342 21371 39754 40357 51002 77171 8807/
AAXX 26181 24738 41995 20000 11424 21437 30179 40388 52010 71000 80001
AAXX 26181 24768 42998 20000 11434 21470 30102 40380 53008 80001
AAXX 26181 24923 42999 20000 11402 21427 30045 40407 52008 80001
AAXX 26181 24944 42996 80000 11401 21421 30051 40393 52013 84031
AAXX 26181 24951 42999 00000 11411 21438 30187 40385 52014
AAXX 26181 24661 42999 00000 11431 21435 30059 40374 52001
AAXX 26181 24959 41993 80000 11374 21401 30214 40364 52008 74874 80005
AAXX 26181 24962 41996 20000 11428 21455 30165 40388 52007 71000 80001
AAXX 26181 24966 41996 00000 11461 21480 30122 40385 53008 71000
AAXX 26181 24967 42999 60000 11442 21475 30141 40405 52010 80001
AAXX 26181 25206 41997 00000 11446 21475 30329 40362 57007 70400
AAXX 26181 25400 41995 03501 11449 21476 30295 40361 57009 71000
AAXX 26181 30054 41998 20000 11412 21438 30132 40419 52009 70271 80001
AAXX 26181 30089 42999 80000 11420 21443 30150 40413 52016 80001
AAXX 26181 30393 42999 22102 11396 21416 39198 40415 52008 80001
AAXX 26181 30493 42999 00000 11420 21438 39189 40422 52007
AAXX 26181 31004 42999 00000 11344 21361 39426 40380 52014
AAXX 26181 31137 41998 80000 11438 21456 39208 40436 58004 77172 80005
BBXX 9HA2479 26184 99243 31642 46/// /3041 10241 20217 39939 49968 57007 22254 04253 85224
BBXX C6FS9 26184 99342 31343 46/// /1911 10171 20132 30134 40171 57001 22273 04188 85147
BBXX VROB 26184 99268 31534 46/// /3307 10234 20189 30028 40053 57008 22273 04247 85203
BBXX VNAH 26184 99385 31411 46/// /2413 10153 20086 30113 40137 57001 22223 04176 85116
BBXX V2OG2 26183 99224 31064 41798 22017 10231 20199 40126 56003 70200 82100 22273 20403 318// 40504 80209
BBXX VRWW8 26184 99283 31701 41/97 80624 10225 20211 40035 56018 70002 8//// 22273 00230 2//05 325// 4//// 5//// 80215
BBXX A8KO3 26180 99366 31268 41298 72308 10190 20175 40180 54000 70322 862// 22264 00170 20401 80180
AAXX 26184 91650 11599 83309 10267 2024/ 40076 53006 60031 70262 8687/ 333 5699/ 83820 83648 88460
AAXX 26184 91652 NIL
AAXX 26184 91656 NIL
AAXX 26184 91659 NIL
AAXX 26184 91660 NIL
AAXX 26184 91669 36/// /2504 10252 2//// 40069 52011 91815
AAXX 26184 91670 36/// /3000 10267 20241 40059
AAXX 26184 91676 14/// /3203 10262 20247 39991 40051 50004 60031
AAXX 26184 91680 11699 53005 10241 20237 40061 53007 69911 70308 84801 333 569/9 83830
AAXX 26184 91682 NIL
AAXX 26184 91683 11599 50000 10235 20231 40060 53005 60001 70122 84802 333 569/9 84820 85080
AAXX 26184 91691 14/// /0101 10245 20242 30061 40064 50006 60001
AAXX 26184 91693 NIL
AAXX 26184 91697 14/// /0502 10241 20233 30058 40063 50007 69951
AAXX 26184 91699 14/// /1107 10261 20235 30039 40071 50001 60001
AAXX 26181 30157 42998 20000 11324 21355 30098 40423 53013 80001
AAXX 26184 03008 11358 82727 10089 20075 40007 60062 75165 887// 91750 333 10110 88708 90710 91149 91038
BBXX 9HA2479 26184 99243 31642 46/// /3041 10241 20217 39939 49968 57007 22254 04253 85224
BBXX C6FS9 26184 99342 31343 46/// /1911 10171 20132 30134 40171 57001 22273 04188 85147
BBXX VROB 26184 99268 31534 46/// /3307 10234 20189 30028 40053 57008 22273 04247 85203
BBXX VNAH 26184 99385 31411 46/// /2413 10153 20086 30113 40137 57001 22223 04176 85116
BBXX V2OG2 26183 99224 31064 41798 22017 10231 20199 40126 56003 70200 82100 22273 20403 318// 40504 80209
BBXX VRWW8 26184 99283 31701 41/97 80624 10225 20211 40035 56018 70002 8//// 22273 00230 2//05 325// 4//// 5//// 80215
BBXX A8KO3 26180 99366 31268 41298 72308 10190 20175 40180 54000 70322 862// 22264 00170 20401 80180
AAXX 26184 83264 21797 82302 10236 20220 39684 40148 72100 8451/ 333 58017 60261
AAXX 26184 83358 32698 60000 10338 20221 39683 40077 84249 333 58002
AAXX 26184 83552 32598 5//// 10364 20206 39966 4//// 85300 333 59020
AAXX 26184 83565 32697 61402 10312 20219 39640 40098 84260 333 58018
AAXX 26184 83630 21397 70000 10236 20205 3//// 4//// 57019 72996 82970 333 60111
AAXX 26184 83702 32599 70904 10313 20202 39381 40121 58021 87300
AAXX 26184 83704 32698 50902 10303 20218 39695 40099 58010 85100
AAXX 26184 83726 32597 21404 10271 20181 39188 40143 58020 82120
AAXX 26184 87022 32560 70000 10292 20173 39603 40099 57031 87800 333 56700 83830 84635
BBXX 46242 26181 99332 71174 46/// ///// 1//// 91758 22200 00141 11501 21001 321// 41501 70006
BBXX 46221 26181 99339 71186 46/// ///// 1//// 91745 22200 00150 11302 21001 326// 41301 70009
BBXX 41036 26181 99342 70770 46/// ///// 10111 20005 40257 91820 22200 00185
BBXX 44098 26181 99428 70702 46/// ///// 1//// 91807 22200 00085 10402 20402 70011
BBXX 44022 26181 99409 70737 46/// ///10 10065 21035 40216 91815 22200 00084 333 91214 555 11108 22113
BBXX 44029 26181 99425 70706 46/30 /3209 10035 40174 53015 91804 22200 00081 10402 70010 333 91211 555 11107 22113
BBXX 44030 26181 99432 70704 46/// /3108 1//// 40169 51010 91804 22200 00080 10301 70006 333 91210 555 11097 22104
BBXX 44040 26181 99410 70736 46/// /3308 10070 21032 40221 91815 22200 10301 70005 333 91211 555 11098 22113
BBXX 3EUS 26183 99228 71098 41291 31305 10200 2017/ 40170 54/// 702// 827/7 222// 04200 2//// 3//// 4//// 5//// 6//// 80180 ICE /////
BBXX WAZV 26184 99566 71424 41497 81824 10050 2003/ 49635 57050 70222 887// 22273 00050 20706 313// 41009 5//// 6//// 80040 ICE /////
BBXX WAHP 26184 99405 70694 41498 73632 10090 20060 40175 52005 72022 875// 22264 00104 20603 328// 40802 5//// 6//// 80075 ICE /////
BBXX WXJ63 26183 99611 71464 41/97 82205 11020 21098 49855 5//// 702// 8//// 222// 00039 2//// 3//// 4//// 5//// 6//// 8//// ICE /////
BBXX WDE2719 26183 99607 71514 41/97 80335 11078 2//// 49880 54/// 702// 8//// 222// 01022 2//01 333// 4//01 5//// 6//// 8//// ICE /////
BBXX YJSW5 26184 99273 70899 41697 12007 10250 20207 40180 52003 70120 8///8 22200 00224 20701 309// 4//// 5//// 6//// 80220 ICE /////
BBXX 46114 26181 99364 71222 46/// ///// 1//// 91804 22200 00124 11506 20902 329// 41505 70029
AAXX 26181 38196 11498 81401 11051 21068 39258 40268 52009 69960 70272 885// 333 11012
AAXX 26181 38198 129// 32902 11066 21078 30019 40289 52017 69900 83040 333 10025
AAXX 26181 38328 315// 83302 11015 21017 39523 40267 52012 78584 889// 333 10044
AAXX 26181 38334 31495 82902 11010 21016 39278 40252 52009 77372 8802/ 333 10020
AAXX 26181 38439 11596 83403 11006 21015 39923 40269 52008 69900 77177 8802/ 333 10042
AAXX 26184 84658 31362 81104 10261 20242 39895 40133 70222 8862/ 333 5629/ 58004 84607 82630 82460
AAXX 26184 84542 31670 80305 10230 20079 37348 7022/ 8454/ 333 5699/ 58/// 84640 84465
AAXX 26184 84688 31459 80110 10141 20051 36671 70224 886// 333 568// 58020 83614 85640
AAXX 26184 84501 31016 81707 10186 20166 30087 40114 71022 886// 333 56000 59023 88701
AAXX 26184 84377 21358 82105 10244 20224 30029 40135 70256 86520 333 5600/ 58024 60121 86607 88456
AAXX 26184 84474 21560 70000 10254 20223 39802 7022/ 877// 333 5600/ 58/// 65981 87730
AAXX 26184 84390 31965 02013 10308 20219 39993 40091 70200 333 58///
AAXX 26184 84564 31560 6000 10260 20160 38157 7012/ 82200 333 5611/ 59016 82830 84364
AAXX 26184 84515 31460 81106 10278 20227 39956 40132 70222 8342/ 333 5699/ 58026 83615 85458
AAXX 26184 84720 31960 22210 10340 20204 39465 40130 70300 80001 333 56009 59025 82070
AAXX 26184 84444 31560 80713 10179 20130 37535 70224 8543/ 333 5699/ 58005 85630 87360
AAXX 26184 84370 31960 33310 10300 20201 30051 40091 70112 83030 333 56900 59039 83362
AAXX 26184 84686 31665 8//// 10172 20039 36882 70222 885/ 333 56990 59032 83636 85656
AAXX 26184 84531 31960 42015 10218 20161 30061 40078 70122 80001 333 56009 58/// 84074
AAXX 26184 84628 34360 71707 10229 20181 30088 40103 70242 82601 333 56401 59033 82709 85073
AAXX 26184 84534 21660 7//// 10292 20217 39390 40096 7021/ 8322/ 333 5699/ 58/// 60451 83840 87460
AAXX 26184 84425 31358 80103 10256 20234 39923 40131 75122 8523/ 333 5689/ 59013 85810 87360
AAXX 26181 38196 11498 81401 11051 21068 39258 40268 52009 69960 70272 885// 333 11012
AAXX 26181 38198 129// 32902 11066 21078 30019 40289 52017 69900 83040 333 10025
AAXX 26181 38328 315// 83302 11015 21017 39523 40267 52012 78584 889// 333 10044
AAXX 26181 38334 31495 82902 11010 21016 39278 40252 52009 77372 8802/ 333 10020
AAXX 26181 38439 11596 83403 11006 21015 39923 40269 52008 69900 77177 8802/ 333 10042
AAXX 26181 80400 NIL
AAXX 26181 80403 32470 20905 10322 20197 30103 40122 82200 333 30/// 56900 59020 82813 555 10125
AAXX 26181 80405 NIL
AAXX 26181 80407 32470 4//// 10321 20225 30047 4//// 84400 333 30/// 56900 5//// 84616 555 10122
AAXX 26181 80410 32470 21102 10274 20186 39449 40162 82400 333 30/// 56900 59001 82616 555 10162
AAXX 26181 80413 32470 11803 10322 20132 39653 40123 81200 333 30/// 56900 59012 81813 555 10153
AAXX 26181 80415 32470 10502 10280 20242 30079 40133 81500 333 30/// 56900 59011 81616 555 10135
AAXX 26181 80419 32470 3//// 10333 20179 30130 40157 83500 333 30/// 56900 58001 83610 555 10137
AAXX 26181 80421 32364 2//// 10322 20233 30112 40133 82800 333 30/// 56900 59002 82810 555 10130
AAXX 26181 80423 NIL
AAXX 26181 80428 32570 2704 10308 20193 39932 40117 82100 333 30/// 56900 59008 82820 555 10128
AAXX 26181 80432 NIL
AAXX 26181 80435 32470 6//// 10310 20187 30033 40108 862// 333 30/// 569// 59006 86813 555 10107
AAXX 26181 80438 32570 12304 10248 20147 38521 48518 81100 333 30/// 56900 59004 81823 555 10204
AAXX 26181 80444 32470 4//// 10320 2//// 30056 4//// 84200 333 30/// 56200 59008 555 10081
AAXX 26181 80447 32565 23401 10319 20202 39667 40086 82500 333 30/// 56900 59003 82620 555 10139
AAXX 26181 80448 32570 40703 10299 20211 3//// 4//// 84200 333 30/// 56900 5//// 84820
AAXX 26181 80450 32475 81402 10314 20211 30083 40138 83508 333 30/// 56909 59006 83616 85280 555 10135
AAXX 26181 80453 NIL
AAXX 26181 80457 NIL
AAXX 26181 80462 NIL
BBXX 51203 26181 99208 71570 46/// ///// 1//// 91813 22200 00246 11402 20901 331// 41401 70008
BBXX 52200 26181 99134 11448 46/// ///// 1//// 91815 22200 00286 11105 21004 309// 41102 70024
BBXX 51201 26181 99217 71581 46/// ///// 1//// 91812 22200 00240 11304 20803 335// 41302 70020
AAXX 26181 11826 12560 80000 10028 20018 30172 40380 52007 69902 885// 333 10041 88620
AAXX 26181 11993 12460 80801 10004 21002 30162 40389 52006 69902 886// 333 10015 41998 88714
AAXX 26184 42309 31994 00000 10108 20092 40156 71000 333 58010
AAXX 26184 42314 31595 40000 10146 20116 40170 70500 81530 333 58002 81620 84360
AAXX 26184 42398 31996 00000 10112 20111 40156 71000 333 58004
AAXX 26184 42410 31995 00000 10150 20150 40164 70500 333 58008
AAXX 26184 42415 31596 30000 10182 20144 40177 70522 81530 333 58006 81620 83360
AAXX 26184 42623 31595 40000 10134 20109 39280 40169 70511 84500 333 58007 84620
AAXX 26184 42724 31994 00000 10142 20124 40149 71000 333 58006
AAXX 26184 42886 31996 00201 10134 20099 40145 70500 333 59003
AAXX 26184 42895 32996 00000 10144 20080 40139 333 59002
AAXX 26184 42971 31995 20503 10166 20138 40132 70510 80001 333 59007 82075
AAXX 26184 42492 NIL
AAXX 26184 42587 NIL
AAXX 26184 42591 NIL
AAXX 26184 42701 NIL
AAXX 26184 42706 NIL
AAXX 26184 42798 NIL
AAXX 26184 42809 NIL
AAXX 26184 42977 NIL
AAXX 26184 43333 NIL
AAXX 26184 43368 NIL
BBXX ONDY 26184 99236 30528 41498 01413 10240 2020/ 40160 58010 70100 8//// 22213 00270 2//// 3//// 4//// 5//// 6//// 80210 ICE /////
BBXX SHIP 26184 99124 31298 41/97 82512 10285 20273 40033 56009 71792 8//// 22213 04302 10802 80276
BBXX A8SF7 26181 99034 70898 41/98 81809 10270 20241 40115 58015 7//11 8//// 22264 04240 20903 318// 41203 5//// 80250
BBXX IDDUK02 26184 99517 50578 46/// ///// 40128 222//
BBXX ELWR5 26183 99005 50821 41/98 /2015 10255 20197 40110 54000 70211 8/647 22281 04253 20502 320// 41004 80215
BBXX SKOZ 26184 99536 70247 43/97 73313 10035 40208 53019 22233 00103 2//// 4////
BBXX SHIP 26184 99158 11297 41297 60532 00/// 10260 20232 40137 57020 70222 8649/ 9//// 22243 00311 2//04 305// 40706 5//// 6//// 80240 THNKS/B/REGARDS MASTER PACIFIC GLORY INM C - 443272110
BBXX A8UE5 26184 99516 11664 41498 40827 10020 21041 40100 52015 7//// 848// 22214 04035 20806 3//// 4//// 5//// 80000
BBXX A8JX9 26183 99251 11263 41/98 /0225 10190 20124 40260 57010 70222 8//// 22254 29906 300// 4//00 5//// 80150
BBXX SHIP 26184 99273 11336 41398 60117 10150 20075 40295 53005 70311 85343 22283 00220 80110
BBXX 7JJA 26184 99338 11387 41697 53136 00 10070 20000 40220 52050 70711 848// 9//// 22253 0 2//06 331 4//04 5 6//// 80040 ICE /////
BBXX SHIP 26184 99225 11228 41498 60415 10241 20180 40238 57023 70222 8543/ 22252 00241 80190
BBXX SHIP 26184 99314 11279 41697 83315 10080 20037 40312 5/009 70222 8759/ 22283 00198 80060
BBXX H9UY 26184 99278 11683 41798 42513 00/// 10240 40143 54/// 70100 84131 9//// 22263 04240 20403 328// 40605 5//// 6//// 80220
BBXX ELWZ5 26184 99426 11678 41297 52310 10070 20060 40015 56015 7//22 8/7// 22223 04125 2//// 3//// 4//// 5//// 80065
BBXX ZQDI9 26183 99290 11224 41598 60816 10132 20058 40308 54000 70222 81117 22213 00155 20402 3//// 4//// 5//// 80097
BBXX SHIP 26184 99284 11364 41598 33221 10140 20040 40242 56003 70122 8213/ 22212 00200 2//// 3//// 4//// 80090
BBXX DGXS 26184 99433 11433 41598 52924 10000 21042 40082 58008 70122 854// 22214 00040 20805 3//// 4//// 5//// 81015
BBXX SHIP 26184 99158 11297 41297 60532 00/// 10260 20232 40137 57020 70222 8649/ 9//// 22243 00311 2//04 305// 40706 5//// 6//// 80240 THNKS/B.REGARDS MASTER PACIFIC GLORY INM C - 443272110
BBXX SHIP 26184 99310 11480 41/97 72926 10130 20123 40169 50004 70121 8//// 91750 22224 00200 2//// 3//// 4//// 5//// 80120
BBXX SHIP 26184 99128 11493 41/97 20720 10279 20237 40102 57023 70350 8//// 22242 06285 11305 399// 4////
BBXX C6SI4 26184 99352 11407 41496 33432 10020 2107/ 40210 5//// 70111 83/8/ 22253 00120 21406 334// 4//// 5//// 6//// 81010 ICE /////
BBXX 9HA2064 26183 99524 11632 41897 80930 10030 20006 40110 55010 700// 88973 22254 0//// 2//05 313// 4//// 5//// 6//// 80020 ICE /////
BBXX 46204 26181 99514 71288 46/// /1018 10059 40072 57029 22200 00083 10710 70051 333 91222
BBXX 41115 26181 99184 70673 46/// ///// 1//// 91805 22200 10602 20602 70009
BBXX 41114 26181 99276 70802 46/// ///// 1//// 91816 22200 00246 10902 20902 70008
BBXX 42362 26181 99278 70907 46/// /1504 10244 20189 40200 91815
BBXX 42362 26181 99278 70907 46/// /1405 10239 20194 40203 58017 91800
BBXX 42364 26181 99291 70881 46/// /1108 10211 20183 40200 91815
BBXX 46222 26181 99336 71183 46/// ///// 1//// 91756 22200 00146 11302 21001 326// 41301 70009
BBXX 46231 26181 99327 71174 46/// ///// 1//// 91754 22200 00141 11302 21001 327// 41302 70009
BBXX 46218 26181 99345 71208 46/// ///// 1//// 91802 22200 00138 11506 20704 330// 41504 70029
BBXX 46216 26181 99343 71198 46/// ///// 1//// 91757 22200 00145 11302 21001 327// 41301 70009
BBXX 46223 26181 99335 71178 46/// ///// 1//// 91800 22200 00150 11502 21001 319// 41501 70008
BBXX 46131 26181 99499 71250 46/// /1111 1//// 40215 57009 22200 00078 10503 70014 333 91214
BBXX 46212 26181 99408 71243 46/// ///// 1//// 91812 22200 00098 11506 21003 330// 41505 70031
BBXX 46240 26181 99366 71219 46/// ///// 1//// 91812 22200 00122 11502 21001 335// 41502 70012
BBXX 46237 26181 99378 71226 46/// ///// 1//// 91810 22200 00109 11505 21002 326// 41504 70023
BBXX 46249 26181 99338 71197 46/// ///// 1//// 91810 22200 00144 11502 21001 321// 41502 70011
BBXX 46244 26181 99409 71244 46/// ///// 1//// 91805 22200 00099 11307 20904 329// 41306 70034
BBXX 46248 26181 99461 71247 46/// ///// 1//// 91804 22200 00097 11308 20904 328// 41307 70041
BBXX 46241 26181 99330 71173 46/// ///// 1//// 91741 22200 00143 11701 21001 326// 41701 70006
BBXX YJSW5 26184 99273 70899 41697 12007 10250 20207 40180 52003 70120 8///8 22200 00224 20701 309// 4//// 5//// 6//// 80220 ICE /////
BBXX 46147 26181 99518 71312 46/// /1720 10079 49956 57036 22200 00078 11015 70076 333 91226
BBXX OZDL2 26184 99427 71495 41/98 /3112 10120 20062 40130 7//// 8//// 22224 00080 20202 309// 40204 80090
BBXX 46088 26181 99483 71232 46/// /1406 10056 40239 91820 22200 00078 10301 20301 70004 333 91207 555 11060 22062 31810 41307 61819 137058 142053 140049 139050 131052 130049
BBXX 44039 26181 99411 70727 46/// /3111 10064 21032 40210 52005 91800 22200 00088 10402 70010 333 91214
BBXX 44033 26181 99441 70690 46/30 /3208 10033 40161 53014 91804 22200 00065 10601 70006 333 91210 555 11099 22104
BBXX 44060 26181 99413 70721 46/// ///09 10060 40195 91815 22200 00101 333 91211 555 11093 22098
BBXX 44034 26181 99441 70681 46/30 /3408 10014 40151 53018 91804 22200 00081 10603 70014 333 91210 555 11091 22095
BBXX DDZI2 26183 99370 71571 41497 82321 10175 20134 40140 54000 70222 887// 22225 00165 20804 80150
BBXX WDF2960 26184 99255 71478 41498 30418 10228 20168 40232 52020 70100 82432 22264 0//// 20201 31034 40604 50604 6//// 80189 ICE /////
BBXX WAHP 26184 99405 70694 41498 73632 10090 20060 40175 52005 72022 875// 22264 00104 20603 328// 40802 5//// 6//// 80075 ICE /////
BBXX WAZV 26184 99566 71424 41497 81824 10050 2003/ 49635 57050 70222 887// 22273 00050 20706 313// 41009 5//// 6//// 80040 ICE /////
BBXX PBKH 26184 99233 71103 41996 50429 10200 20117 40198 50010 70300 8/09/ 22234 00200 20202 305// 40202 5////
BBXX 3EUS 26183 99228 71098 41291 31305 10200 2017/ 40170 54/// 702// 827/7 222// 04200 2//// 3//// 4//// 5//// 6//// 80180 ICE /////
BBXX MVQP8 26184 99286 70942 41297 83012 10130 20091 40241 56008 70200 887// 22200 00160 20503 330// 40503 5//// 80110
BBXX 46207 26181 99509 71299 46/// /1622 10073 40021 57045 22200 00083 11013 70065 333 91227
BBXX A8IN8 26183 99191 70767 41498 40725 10280 20239 40140 50025 70311 83140 22264 04300 20605 311// 40902 80250
BBXX 44032 26181 99437 70694 46/30 /3111 10029 40158 53014 91804 22200 00081 10402 70010 333 91213 555 11132 22139
BBXX 41029 26181 99328 70796 46/// /0607 10124 91800 555 11095 22114
BBXX 44067 26181 99384 70770 46/// /0206 10086 40266 50000 91800
BBXX 46111 26181 99481 71227 46/// /1508 10066 40242 56012 91800 22200 00052
BBXX NWS0022 26184 99416 70714 43/// /3111 10083 21019 40180 5//// 7//// 8//// 222// 04110 2//// 3//// 4//// 5//// 6//// 8//// ICE /////
BBXX SHIP 26184 99167 71529 41497 30627 10233 20186 40174 52008 70111 82131 22232 04244 20405 30902 40806 50704
BBXX DHEE 26183 99077 70830 41598 62608 10280 20239 40060 58050 70211 8548/ 22274 00290 20701 328// 40902 80250
BBXX 62131 26184 99539 10012 46/// /20// 10101 20082 40269 52001 22200
BBXX 62154 26184 99564 10022 46/// /2231 10108 20080 40168 56007 22200
BBXX 62132 26184 99564 10020 46/// /2531 10111 20078 40158 58010 22200
BBXX 62120 26184 99564 10021 47997 /2433 10112 40160 56009 700// 22200
BBXX PJGO 26184 99571 10022 47997 /2234 10113 20086 40143 56003 700// 22200
BBXX 62133 26184 99571 10009 46/// /2239 10115 20072 40121 53002 22200 10709 70047
BBXX 62152 26184 99570 10018 47/97 /2123 10112 20078 40156 55003 700// 22200 10709 70044
BBXX 62119 26184 99570 10019 47996 /2440 10115 20079 40149 56008 700// 22200 10811 70053
BBXX 62164 26184 99572 10008 469// /2330 10121 20086 40129 53003 22200 00093 10709 70044
BBXX 63104 26184 99612 10016 47397 /2633 10091 20080 49931 53005 700// 22200
BBXX 63103 26184 99612 10011 46/// /2834 10087 20058 49955 53017 22200 10914 70069
BBXX 64041 26184 99607 70026 47497 /2531 10066 20064 49977 52064 700// 22200 10912 70059
BBXX MWYG6 26184 99603 70040 47998 /2627 10065 700// 22200
BBXX 63115 26184 99616 10013 47498 /2531 10080 20048 49933 53042 700// 22200 10915 70074
BBXX 63105 26184 99610 10017 47396 ///// 10103 20089 49938 53005 751// 22200
BBXX 63106 26184 99610 10017 46/// /2539 10102 49937 53007 22200
BBXX 63113 26184 99610 10017 46/// /2636 10103 20091 49968 53005 22200 10812 70062
BBXX 63117 26184 99613 10011 47598 /2730 10106 20037 49942 53019 700// 22200
BBXX 63101 26184 99612 10009 46/// /2926 10092 20056 49941 53020 22200
BBXX 63107 26184 99611 10017 46/// /2536 10101 49938 53009 22200
BBXX 63112 26184 99611 10010 47/98 /2832 10089 20053 49943 53025 700// 22200 10913 70066
BBXX 63108 26184 99608 10017 47196 /2441 10103 20089 49969 55004 762// 22200 11309 70045
BBXX 62111 26184 99580 70003 46/// /2338 10115 20083 40092 53006 22200 10709 70044
BBXX 63056 26184 99597 10016 47696 /2136 10107 20081 40001 56008 700// 22200 10812 70060
BBXX 63055 26184 99606 10016 47295 /2430 10105 20087 49978 55002 704// 22200 10811 70054
BBXX 62129 26184 99584 10003 46/// ///// 10110 20083 40080 55000 22200
BBXX 62128 26184 99587 10014 47996 /2243 10108 20083 40048 53003 700// 22200 10810 70050
BBXX 63057 26184 99592 10015 47996 /2343 10109 20078 40020 56003 700// 22200 10810 70052
BBXX 62112 26184 99584 70002 47696 /2134 10111 20083 40054 53004 700// 22200
BBXX 62169 26183 99614 10014 41/97 62640 10085 20074 49955 53005 72582 86/// 22200 20712 3//// 4//// 5//// 80080
BBXX 63110 26183 99595 10015 41/96 /2243 10107 49993 700// 8//// 22200 10810 70050
BBXX 63110 26184 99595 10015 47996 /2234 10107 20079 49999 56003 704// 22200 10810 70052
BBXX PJAI 26184 99581 70014 47698 /2220 10123 20068 40064 52007 700// 22200
BBXX 64045 26184 99591 70117 46/// /2730 10066 21003 40070 51050 22200 00100 10913 70063 333 90710 91151
BBXX 62027 26184 99491 70022 46/// /2209 1//// 2//// 40367 57003 22200 00111 11103 325// 70015
BBXX A8TR7 26184 99306 70212 41298 80202 10225 20097 40305 55005 7//11 887// 22264 04210 20201 80150
BBXX 62081 26184 99510 70134 46/// ///// 10126 20103 40238 53007 22200 00121 10912 70058
BBXX 62442 26184 99490 70164 46/// /2023 1//// 2//// 40244 53006 22200 00124 333 90710 91132
BBXX 64046 26184 99605 70049 46/// /2928 10064 20030 49996 51058 22200 00079 10912 70061
BBXX 62029 26184 99487 70125 46/// /2118 10124 20085 40298 53007 22200 00127 10909 70044 333 90710 91126
BBXX 62105 26184 99554 70121 46/// /2920 10091 20060 40178 51057 22200 00106 10913 70067 333 90710 91132
BBXX DDSB2 26183 99492 70100 41598 82222 10120 20083 40300 57010 7//22 8/4// 22224 29904 328// 40906 80100
BBXX 62303 26184 99516 70051 46/// /2319 10114 20076 40314 55003 22200 00113 10606 70031 333 90710 91126
BBXX TBWUK35 26184 99689 10122 41998 02315 10040 21044 49827 58024 70111 80000 22252 00090 2//// 80012
BBXX DMQN 26184 99346 70162 41498 80611 10180 20131 40281 50002 70322 85770 22254 04190 21201 3//// 4//// 5//// 80150
BBXX BAREU06 26184 99359 70115 46/// ///// 40270 52005 22224
BBXX 62095 26184 99531 70159 46/// /3210 1//// 2//// 40224 53043 22200 10911 70053
BBXX 62103 26184 99499 70029 46/99 /2515 10117 20058 40348 58004 22200 00120 10804 70018 333 90710 91125
BBXX 62094 26184 99517 70067 46/// /2121 10110 20081 40298 55800 22200 00107 10646 70230
BBXX 62107 26184 99501 70061 46/// /2218 10117 20067 4//// 53002 22200 00115 10907 70033 333 90710 91129
BBXX 62001 26184 99452 70050 46/// /1014 10124 20086 40258 52006 22200 00139 10705 70027
BBXX 62304 26184 99511 10018 46/98 /2318 10114 20093 40359 53012 22200 00108 10621 70103 333 90710 91128
BBXX 62103 26184 99499 70029 46/99 /2317 10113 20065 40330 58002 22200 00120 11803 70016
BBXX 62303 26184 99516 70051 46/// /2320 10114 20076 40314 55003 22200 00113 106//
BBXX 2AAY7 26183 99563 10019 41297 22350 10065 20042 40167 56020 70200 82700 22200 20306 324// 40614 80055
BBXX 62105 26184 99554 70121 46/// /2920 10091 20060 40178 51057 22200 00106 10913 70066 333 90710 91132
BBXX 62081 26184 99510 70134 46/// ///// 10125 20102 40238 53007 22200 00121 10912 70058
BBXX 62170 26184 99514 10020 46/97 /2324 10111 20103 40354 53013 22200 00108 10601 70004 333 90710 91130
BBXX 63119 26184 99583 10009 41597 82343 10110 20077 40053 54000 70222 885// 22200 20408 323// 40811 5////
BBXX 62155 26184 99577 10007 47997 /2343 10112 20085 40110 55000 700// 22200 10710 70048
BBXX 62118 26184 99577 10009 47996 /2240 10113 20081 40095 53002 704// 22200 10810 70048
BBXX 62146 26184 99572 10021 47/96 /2433 10111 20076 40143 55001 704// 22200 10810 70051
BBXX 62153 26184 99573 10020 47996 /2337 10112 20082 40118 56008 700// 22200 10810 70049
BBXX 62122 26184 99573 10016 47997 /2234 10120 20077 40137 53005 700// 22200 10709 70046
BBXX 62104 26184 99574 10013 47997 /2432 10114 20082 40114 53007 700// 22200
BBXX 62116 26184 99576 10011 47997 /2443 10113 20080 40094 55004 700// 22200 10809 70047
BBXX 62140 26184 99573 10013 46/// /24// 10113 20082 40117 53003 22200
BBXX ZQSD5 26184 99583 10007 46/// /2237 10115 20084 40063 55003 22200 10911 70057
BBXX 62113 26184 99584 10002 47996 /2235 10108 20081 40077 55002 700// 22200
BBXX 62143 26184 99577 10018 47997 /2438 10115 20082 40113 53007 700// 22200 10709 70044
BBXX 62117 26184 99579 10000 47997 /2240 10115 20083 40080 53002 700// 22200 10710 70048
BBXX 62134 26184 99580 10014 47996 /2340 10110 20080 40082 55000 700// 22200 10710 70052
BBXX 62145 26184 99531 10028 47598 /2119 10111 20075 40308 51012 700// 22200 10403 70015
BBXX 62102 26184 99579 10018 46/// /2334 10111 20080 40090 54000 22200 10810 70051
BBXX 62114 26184 99583 10000 46/// /2139 10111 20084 40053 52004 22200
BBXX 62142 26184 99530 10021 47598 /2320 10107 20078 40306 52009 700// 22200 10402 70010
BBXX 62144 26184 99534 10017 47598 /2219 10102 20077 40298 52007 700// 22200 10403 70014
BBXX 62148 26184 99536 10015 46/// /2229 10103 20077 40290 51005 22200
BBXX 62121 26184 99535 10027 46/// ///// 22200
BBXX 62149 26184 99537 10011 47598 /2220 10100 20082 40282 53006 751// 22200 10502 70012
BBXX 62165 26184 99540 10009 47698 /2227 10107 20081 40260 58006 700// 22200 10504 70019
BBXX 62150 26184 99536 10007 47598 /2220 10104 20080 40288 51007 700// 22200 10502 70011
BBXX 62123 26184 99563 10022 47997 /2232 10110 20080 40163 57010 700// 22200
BBXX 62127 26184 99540 10007 47598 ///// 10110 20077 40266 53007 700// 22200 10402 70012
BBXX BATEU00 26184 99679 30168 46/// /3414 11016 21020 49750 53036 22232
BBXX 62301 26184 99524 70047 46/// /2220 10100 20073 40296 56001 22200 00088 10605 70024 333 90710 91126
BBXX 62001 26184 99452 70050 46/// /1014 10124 20086 40338 52006 22200 00139 10705 70027
BBXX 62163 26184 99475 70084 46/// /2011 10114 20065 40338 52002 22200 00126 10907 70036
BBXX WRYC 26184 99361 70044 41498 31121 10150 2012/ 40312 54000 70121 8216/ 22255 00158 20504 308// 40604 5//// 6//// 80130 ICE /////
BBXX BAREU62 26184 99364 10225 46/// ///// 40291 57004 22264
BBXX 61001 26184 99434 10078 46/// /0209 10139 20052 40334 57004 22200 00141 10501 70007
BBXX BATFR03 26184 99505 70011 46/// /2421 10100 20057 40361 58005 22213
BBXX 61002 26184 99421 10047 46/// ///14 10131 2//// 40348 52002 22200 00137 10502 70010
BBXX BAREU11 26184 99492 70100 46/// ///// 40316 52014 22224
BBXX PCEO 26183 99448 70142 41599 82104 10130 20051 40316 54000 7//// 8/7// 22254 04137 20801 329// 41004 5//// 80090
BBXX PHQX 26183 99349 70270 41/97 /1707 10199 20138 40253 53003 70311 8/285 22254 20302 3//// 4//03 5//// 80161
BBXX A8IO2 26184 99422 70157 41298 81302 10160 20103 40286 52010 70300 87778 22254 04150 20501 325// 40803 5//// 80130
BBXX 2ALE5 26183 99376 70098 41/98 30611 10150 20069 40273 58009 70200 83/6/ 22244 20303 80110
BBXX BATUK01 26184 99560 70032 46/// /2510 10134 20067 40140 55002 22200 00072
BBXX BATFR20 26184 99431 10054 46/// ///// 10132 21041 40342 22233
BBXX BAREU63 26184 99444 10089 46/// ///// 10112 29029 40335 22200
BBXX TESTFR9 26184 99499 70040 46/// /2222 10113 29076 40366 57017 22284
BBXX BATFR24 26184 99427 10095 46/// /3308 10129 20029 40340 22222 00150
BBXX BATFR52 26184 99499 70040 46/// /2226 10115 20067 40348 58017 22283 00119
BBXX BATEU04 26184 99610 70308 46/// /2634 10022 21066 4//// 22251
BBXX BATFR11 26184 99376 10018 46/// ///// 10139 20064 40321 52005 22212 00172
BBXX BATFR54 26184 99513 70059 46/// /2228 10114 20069 40310 56012 22282 00114
BBXX BATFR01 26184 99430 10061 46/// /0009 10142 20039 40337 53014 22272 00159
BBXX BATFR60 26184 99538 10065 46/// /2225 10089 20079 40305 53010 22222 00065
BBXX BATFR14 26184 99510 10022 46/// /2311 10112 20089 40358 53011 22200 00095
BBXX BATFR13 26184 99468 70038 46/// /1013 10109 20064 40360 55003 22264 00140
BBXX BATFR09 26184 99388 10088 44498 70617 10124 20054 40316 53018 70222 84240 22223 00167 20304 60//0 ICE 0/0//
BBXX DDZD2 26184 99333 10264 41/97 90817 10136 20100 40260 51025 75885 89/// 22225 00170 299// 80116
BBXX BAREU56 26184 99326 10150 46/// ///// 40246 57001 22222
BBXX WCZ5535 26184 99362 70030 41598 50921 10160 2010/ 40270 52005 7//00 851// 22223 00210 20204 3//// 4//// 5//// 6//// 80125 ICE /////
BBXX LF3N 26184 99653 10073 41496 81521 10039 20028 49808 57087 76062 8772/ 22200 10908 70041
BBXX LF5T 26184 99660 10081 41498 /1421 10035 21002 49810 57067 702// 22200 06081 10907 70036 333 91125
BBXX LF4C 26184 99584 10019 41996 72336 10110 20089 40064 52002 70222 89/// 22200 00081 10709 70045 333 91146
BBXX LF4B 26184 99606 10037 47/96 /2239 10109 49976 57013 710// 22200 00089 10810 70052 333 91147
BBXX 3ERR2 26184 99635 10053 41496 82641 10089 20081 49803 57035 70262 887// 22200 06092 10911 70057 333 91153
AAXX 26184 40250 NIL
AAXX 26184 40265 NIL
AAXX 26184 40296 32560 40000 10170 20118 40261 52008 84100 333 10224 84825
AAXX 26184 40310 NIL
AAXX 26181 80400 NIL
AAXX 26181 80403 32470 20905 10322 20197 30103 40122 82200 333 30/// 56900 59020 82813 555 10125
AAXX 26181 80405 NIL
AAXX 26181 80407 32470 4//// 10321 20225 30047 4//// 84400 333 30/// 56900 5//// 84616 555 10122
AAXX 26181 80410 32470 21102 10274 20186 39449 40162 82400 333 30/// 56900 59001 82616 555 10162
AAXX 26181 80413 32470 11803 10322 20132 39653 40123 81200 333 30/// 56900 59012 81813 555 10153
AAXX 26181 80415 32470 10502 10280 20242 30079 40133 81500 333 30/// 56900 59011 81616 555 10135
AAXX 26181 80419 32470 3//// 10333 20179 30130 40157 83500 333 30/// 56900 58001 83610 555 10137
AAXX 26181 80421 32364 2//// 10322 20233 30112 40133 82800 333 30/// 56900 59002 82810 555 10130
AAXX 26181 80423 NIL
AAXX 26181 80428 32570 2704 10308 20193 39932 40117 82100 333 30/// 56900 59008 82820 555 10128
AAXX 26181 80432 NIL
AAXX 26181 80435 32470 6//// 10310 20187 30033 40108 862// 333 30/// 569// 59006 86813 555 10107
AAXX 26181 80438 32570 12304 10248 20147 38521 48518 81100 333 30/// 56900 59004 81823 555 10204
AAXX 26181 80444 32470 4//// 10320 2//// 30056 4//// 84200 333 30/// 56200 59008 555 10081
AAXX 26181 80447 32565 23401 10319 20202 39667 40086 82500 333 30/// 56900 59003 82620 555 10139
AAXX 26181 80448 32570 40703 10299 20211 3//// 4//// 84200 333 30/// 56900 5//// 84820
AAXX 26181 80450 32475 81402 10314 20211 30083 40138 83508 333 30/// 56909 59006 83616 85280 555 10135
AAXX 26181 80453 NIL
AAXX 26181 80457 NIL
AAXX 26181 80462 NIL
AAXX 26181 0000077101SAVN21 SVMR 261800 METAR SVJC 261800Z AUTO 06017KT 9999 FEW013 32/20 Q1011
AAXX 26181 METAR SVLO 261800Z NIL
AAXX 26181 METAR SVGI 261800Z NIL
AAXX 26181 METAR SVMN 261800Z 27003KT 9999 FEW020 33/24 Q1011
AAXX 26181 METAR SVVL 261800Z 02005KT 9999 SCT023 28/17 Q1015
AAXX 26181 METAR SVGU 261800Z 07008KT 9999 FEW020 31/19 Q1012
AAXX 26181 METAR SVJM 261800Z /////KT 9999 FEW020 32/12 Q1013
AAXX 26181 METAR SVCZ 261800Z NIL
AAXX 26181 METAR SVVP 261800Z NIL
AAXX 26181 METAR SVVG 261800Z 27003KT 9999 SCT013 32/18 Q1010
AAXX 26181 METAR SVMD 261800Z 23007KT 9999 FEW023 25/17 Q1020
AAXX 26181 METAR SVCL 261800Z /////KT 9999 FEW013 33/// Q1012
AAXX 26181 METAR SVSA 261800Z 34002KT 9999 FEW020 32/20 Q1013
AAXX 26181 METAR SVGD 261800Z 07006KT 9999 SCT020 30/21 Q////
AAXX 26181 METAR SVSR 261800Z 14004KT 9999 SCT016 BKN300 31/21 Q1013
AAXX 26181 METAR SVTM 261800Z NIL
AAXX 26181 METAR SVPA 261800Z NIL
AAXX 26181 METAR SVSE 261800Z NIL
AAXX 26184 07299 02970 13202 10013 21002 30051 40396 52001 60002 80001 333 10086 21018 60007 81075 90710 91106 93100 555 60005
BBXX 46185 26181 99524 71298 46/// /1623 10062 40012 57043 22200 00073 11115 70075 333 91229
AAXX 26184 94996 45140 80515 10217 20208 39864 49998 55000 91830
AAXX 26181 55299 32980 00000 11116 21234 35839 54000 333 05101 11017
AAXX 26181 55591 32980 02703 11002 21170 36510 52010 333 00004 10089
AAXX 26181 56739 32576 22001 10092 20078 38381 52004 82400 333 00101 10168
AAXX 26181 56951 32670 81401 10115 20085 38537 57001 884// 333 00151 10179
AAXX 26181 56964 11565 80000 10110 20088 38752 40211 57001 69901 70080 884// 333 00000 10144
AAXX 26181 57328 31956 80000 10068 20043 39856 40277 52001 71000 8807/ 333 10089
AAXX 26181 57411 31920 80201 10067 20052 39897 40278 54000 71000 8807/ 333 10078
AAXX 26181 57447 31940 80000 10056 20050 39739 40298 54000 71000 8807/ 333 10072
AAXX 26181 57662 32861 82701 10067 21025 30262 40307 57001 885// 333 10083
AAXX 26181 57745 32960 81401 10061 21008 39958 40294 57001 8807/ 333 10094
AAXX 26181 57972 32963 00000 10057 21008 30067 40297 52010 333 10136
AAXX 26181 58203 32960 80903 10026 21039 30284 40327 57005 8807/ 333 10091
AAXX 26181 58314 32965 80000 10030 21001 30206 40316 57002 8807/ 333 10083
AAXX 26181 58424 31958 80403 10065 21061 30281 40307 57003 70500 8807/ 333 10083
AAXX 26181 59023 32961 62701 10077 20022 39947 40264 52002 86040 333 10150
AAXX 26181 59417 32565 71801 10100 20048 30089 40246 57005 878// 333 10194
AAXX 26181 59985 11570 70405 10233 20210 30169 40174 57009 69911 78080 872// 333 10250
AAXX 26181 59995 NIL
AAXX 26184 94996 45140 80515 10217 20208 39864 49998 55000 91830
BBXX 46185 26181 99524 71298 46/// /1623 10062 40012 57043 22200 00073 11115 70075 333 91229
AAXX 26181 24790 42999 00000 11455 21471 39503 40475 57002
AAXX 26181 24988 42999 53003 11194 21252 30004 40274 53001 80001
AAXX 26181 25378 32697 73108 11154 21224 30218 40253 57004 84550 333 21162 48004 91118
AAXX 26181 25503 42999 21102 11441 21469 30249 40402 57007 80001
AAXX 26181 25705 42999 02501 11418 21443 30002 40392 57013
AAXX 26181 25927 41698 20507 11114 21127 30245 40252 53001 73631 82300 333 91117
AAXX 26181 25932 42999 00903 11104 21177 30202 40242 57006 333 91112
AAXX 26181 31152 42997 00000 11431 21462 39909 40386 53003
AAXX 26181 31174 42999 00504 11286 21298 30261 40274 53007
AAXX 26181 31489 42998 00000 11271 21302 30139 40269 53006
AAXX 26181 31866 41999 03008 11121 21230 30180 40186 52006 73630 333 91014 91114
AAXX 26181 31959 42998 02402 11125 21197 30195 40240 53011 333 91116
AAXX 26181 31989 42999 02502 11094 21203 30212 40269 53009
AAXX 26181 32027 41593 83414 11097 21105 30149 40158 53004 78583 889// 333 91018 91121
AAXX 26181 32076 41598 83205 11054 21100 30037 40047 58013 73673 889// 333 91009 91110
AAXX 26181 32099 41593 83316 11050 21060 30034 40042 52004 78683 889// 333 91018 91121
AAXX 26181 32121 41493 83511 11066 21107 30088 40111 53005 78683 889// 333 91015 91119
AAXX 26181 32213 41598 80915 11003 21027 39984 40047 57001 73632 885// 333 91019 91123
AAXX 26181 32287 41999 21005 11027 21106 30141 40151 53003 73631 80001
AAXX 26181 32408 42999 00304 11099 21135 30173 40213 57002
AAXX 26181 32509 41698 60310 11017 21051 30135 40169 53010 73632 85403 333 91014 91118
AAXX 26181 32594 41596 70918 10002 21065 39996 40032 53017 73883 87300 333 91025 91128
AAXX 26181 80402 NIL
AAXX 26181 80412 NIL
AAXX 26181 80416 NIL
AAXX 26181 80420 32470 20505 10316 20184 30115 40121 82800 333 30/// 56900 59003 82813 555 10134
AAXX 26181 80425 32570 12702 10326 20236 30082 40113 81100 333 30/// 56900 58012 81820 555 10114
AAXX 26181 80426 32570 30202 10276 20172 39478 40123 83200 333 30/// 56900 59013 83823 555 10153
AAXX 26181 80427 32570 51102 10328 20237 39879 40130 852// 333 30/// 569// 59002 85823 555 10148
AAXX 26181 80431 32570 1//// 10316 20121 39635 40114 81100 333 30/// 56900 59004 81820 555 10137
AAXX 26181 80434 NIL
AAXX 26181 80437 32470 42701 10322 20181 30010 40095 84500 333 30/// 56900 59008 84613 555 10102
AAXX 26181 80440 32570 51104 10313 20188 39924 40134 8383/ 333 30/// 5699/ 58005 83823 555 10144
AAXX 26181 80442 32470 2//// 10329 2//// 30011 4//// 82100 333 30/// 56900 59003 82813 555 10122
AAXX 26181 80472 32470 20902 10312 20176 39646 40123 82200 333 30/// 56900 59005 82816 555 10148
AAXX 26181 80475 32560 30903 10322 20155 39775 40142 83100 333 30/// 56900 59007 83827 555 10157
AAXX 26181 80476 32370 2//// 10336 20248 30095 40125 82500 333 30/// 56900 59007 82610
AAXX 26181 80478 NIL
AAXX 26181 80479 NIL
AAXX 26181 80001 32570 20801 10288 20248 30129 40130 81206 333 562/0 58000 81820
AAXX 26181 80002 01470 20604 10280 20237 69951 72050 81170 333 56290 69937 81818
AAXX 26181 80009 31560 20000 10312 20235 30089 40094 70500 81804 333 560/0 59003 81820
AAXX 26181 80022 31467 13103 10302 20239 30095 40097 70500 81101 333 569/0 59003 81815
AAXX 26181 80028 31560 12403 10311 20213 30069 40104 70500 81100 333 565// 59014 81820
AAXX 26181 80035 31565 31007 10312 20194 30110 40115 70500 81106 333 562/9 59015 81820
AAXX 26181 80036 31968 20507 10335 20186 70500 80002 333 56000 82070
AAXX 26181 80063 31566 70000 10322 20223 70522 81110 333 5600/ 81820 87462
AAXX 26181 80084 31559 83604 10302 20234 70522 83806 333 563/9 83825 85270
AAXX 26181 80091 31462 40000 10312 20233 70510 82205 333 560/9 82817 83070
AAXX 26181 80094 31468 42705 10246 20199 38800 70510 83871 333 56799 59010 83815
AAXX 26181 80097 32570 33603 10298 20216 39751 40097 82841 333 56999 59006 82822
AAXX 26181 80099 31466 30904 10306 20211 39937 40082 70500 83101 333 569/9 58010 83815
AAXX 26181 80110 31565 80204 10242 20148 38492 70522 333 56999 58001 83830 85358
AAXX 26181 80112 31570 80905 10191 20128 37897 70522 8387/ 333 56999 57895 59008 83820 86358
AAXX 26181 80139 NIL
AAXX 26181 80144 01240 80000 10246 20240 60081 75055 8521/ 333 5600/ 60077 85806 88457
AAXX 26181 80210 11463 62302 10256 20185 38649 69941 70552 83236 333 56550 57891 58000 83815 83358
AAXX 26181 80211 31565 70000 10254 20189 75022 84270 333 5612/ 57813 84822 84359
AAXX 26181 80214 31560 61502 10282 20218 39108 70522 82830 333 5655/ 59006 82823 84360
AAXX 26181 80222 31568 31406 10204 20102 37514 70521 84800 333 569// 59006 84825
AAXX 26181 80234 32562 51102 10308 20166 39617 40110 81131 333 56339 58002 81823 84359
AAXX 26181 80252 NIL
AAXX 26181 80259 31560 53603 10295 20189 39034 70521 83830 333 5629/ 59003 83820
AAXX 26181 80315 32665 20000 10325 20207 39576 40064 82200 333 566// 59005 82840
AAXX 26181 80342 32570 33203 10233 20183 38201 83100 333 563// 59005 83828
AAXX 26181 80370 31462 61105 10148 20102 71522 86800 333 563// 86818
AAXX 26181 80372 NIL
AAXX 26181 80398 11470 70000 10280 20248 30035 40130 69941 70252 86870 333 5699/ 58009 86815 87458
AAXX 26184 17609 12770 73304 10099 20053 30269 40273 52012 60002 8653/ 333 10167 20087 86656
AAXX 26184 89132 NIL
AAXX 26184 89542 46/// /2202 11029 20014 49918 57010
AAXX 26184 89575 NIL
AAXX 26184 89657 NIL
AAXX 26184 06670 32970 03202 10008 21014 39863 40399 57004 333 10055 31/// 55300 20000 90766 93100 91109 91207
AAXX 26184 06700 32980 00000 11009 21028 39881 40402 52004 333 10049 30/// 55300 20000 90766 93100 91108 91205
AAXX 26184 06680 02780 10615 10007 21071 37647 47199 51002 60052 81040 333 10005 47310 55300 20000 60005 81356 90766 93100 91117 91215
AAXX 26184 06990 31960 01701 11010 21028 39834 40412 57001 71000 333 10050 30/// 55300 20000 91110 91205
AAXX 26184 06760 32970 20000 10056 21037 39905 40366 52008 80002 333 10091 30/// 55300 20000 82072 90766 93100 91105 91204
AAXX 26184 06720 33/// ///// 11033 21048 39799 40412 52007 333 10021 55300 20000
BBXX NIL
BBXX NIL
AAXX 26184 60593 36/// /0000 10126 333 10159
AAXX 26184 60376 16/// /1302 10128 20108 60012 333 10163
AAXX 26184 40255 32960 00000 10084 20049 39542 40274 52018 333 10128
AAXX 26184 40260 NIL
AAXX 26184 40270 31556 30000 10082 20052 39343 40258 52009 70500 333 10120
AAXX 26184 40272 31558 52804 10078 20052 39415 40267 52010 71000 85800 333 10130 82825 84630
AAXX 26184 40290 NIL
AAXX 26184 40340 32960 03610 10144 20059 40244 52014 333 10205
BBXX NIL
BBXX NIL
AAXX 26184 06610 32975 01904 10009 21019 39788 40400 52001 333 10036 31/// 55300 20000 90766 93100 91106 91205
BBXX NIL
AAXX 26184 40250 NIL
AAXX 26184 40265 NIL
AAXX 26184 40296 32560 40000 10170 20118 40261 52008 84100 333 10224 84825
AAXX 26184 40310 NIL
AAXX 26181 47008 42970 00501 11080 21225 30279 40336 52004
AAXX 26181 47014 42950 00000 11240 21258 39951 40403 52004
AAXX 26181 47016 42970 00000 11242 21281 39470 40394 58009
AAXX 26181 47020 42965 00000 11185 21211 39986 40404 52001
AAXX 26181 47025 42960 03202 11108 21233 30292 40323 52007
AAXX 26181 47035 42970 00000 11102 21207 30361 40370 54000
AAXX 26181 47041 42970 00502 11103 21200 30297 40326 53001
AAXX 26181 47055 42965 00000 11073 21143 30294 40343 54000
AAXX 26181 47058 42960 00000 11113 21141 30325 40377 58004
AAXX 26181 47069 42965 00000 11078 21139 30257 40363 58002
AAXX 26181 47090 32970 00000 11061 21216 30308 40332 52005 333 92030
AAXX 26181 47095 32970 00000 11152 21197 30167 40375 53004
AAXX 26181 47097 329// /0001 11118 21174 30265 40370 52008
AAXX 26181 47098 329// /1102 11120 21172 30222 40368 53006
AAXX 26181 47099 329// /0000 11139 21176 30332 40372 53006
AAXX 26181 47100 32970 02502 11163 21226 39375 40380 58003
AAXX 26181 47102 32975 03403 11024 21080 30179 40366 53002
AAXX 26181 47104 32970 01405 11063 21222 30228 40331 52003
AAXX 26181 47106 329// /1806 11056 21204 30277 40329 50002
AAXX 26181 47112 32970 03602 11072 21171 30279 40369 53004 333 92011
AAXX 26181 47114 32970 00202 11120 21182 30172 40371 52010
AAXX 26181 47119 32970 00000 11112 21157 30324 40370 52007
AAXX 26181 47121 329// /2702 11134 21175 30058 40380 52011
AAXX 26181 47127 329// /0901 11126 21164 30220 40375 52007
AAXX 26181 47129 32968 00000 11092 21121 30335 40374 53003
AAXX 26181 47130 32970 02308 11050 21207 30268 40333 50003 333 92033
AAXX 26181 47131 32970 00000 11091 21135 30292 40368 52003
AAXX 26181 47135 329// /2711 11066 21165 30043 40361 56002
AAXX 26181 47136 32970 02901 11116 21168 30175 40362 52009
AAXX 26181 47137 329// /2709 11067 21199 30232 40358 51001
AAXX 26181 47140 32968 40001 11079 21110 30336 40367 56005 80001 333 92021
AAXX 26181 47143 32972 22703 11044 21190 30275 40359 55001 80001
AAXX 26181 47145 32970 00000 11116 21142 30334 40363 51004
AAXX 26181 47146 32970 00001 11077 21131 30293 40364 57008
AAXX 26181 47150 32970 00202 11071 21127 30345 40366 55002
AAXX 26181 47152 32973 20000 11057 21181 30293 40338 50005 80001
AAXX 26181 47154 329// /3205 11063 21171 30293 40357 54000
AAXX 26181 47155 32975 00907 11027 21200 30290 40338 51001
AAXX 26181 47156 32970 20505 11044 21145 30268 40363 55003 80001
AAXX 26181 47157 32972 43403 11086 21160 30054 40344 56002 80001
AAXX 26181 47162 32975 20506 11025 21173 30294 40336 57004 80001 333 92022
AAXX 26181 47169 32670 43611 10018 21060 30260 40357 53002 84500 333 92054
AAXX 26181 47170 32970 23407 11024 21207 30309 40355 53005 80001 333 92022
AAXX 26181 47171 329// /0001 11068 21134 30306 40365 55007
AAXX 26181 47172 329// /0001 11066 21126 30288 40359 55003
AAXX 26181 47173 329// /3606 11060 21163 30240 40358 57011
AAXX 26181 47174 32970 22905 11053 21174 30132 40347 55005 80001
AAXX 26181 47175 32570 23610 11059 21108 39749 40357 53003 81500 333 92023
AAXX 26181 47185 32670 43610 10025 21049 30249 40343 55002 84500 333 92033
AAXX 26181 47188 32675 33605 10001 21063 30318 40341 50005 83500 333 92022
AAXX 26181 47189 32670 63605 10054 20001 30258 40319 56006 86500 333 92022
AAXX 26181 47192 32973 30001 11068 21155 30306 40346 52001 80001
AAXX 26184 71525 16/// /2613 10037 21056 60001 333 10056 20014 70000
AAXX 26184 71526 16/// /2910 11006 21098 60001 333 10047 21038 70000
AAXX 26184 71535 16/// /2618 10040 21075 60001 333 10057 20006 70000
AAXX 26184 71536 16/// /2623 10033 21091 60001 333 10033 21007 70000
AAXX 26184 71537 16/// /2510 10001 21056 60001 333 10049 21029 7////
AAXX 26184 71214 16/// /3228 10022 21045 60001 333 10057 20006 70000
AAXX 26184 71223 16/// /3127 10016 21071 60001 333 10047 20000 70000
AAXX 26184 71225 16/// /2618 10037 21093 60001 333 10047 20008 70000
AAXX 26184 71227 46/// /3109 10007 21021 6///1 333 10044 21001 7////
AAXX 26184 71229 46/// /0103 11077 21086 6///1 333 11024 21080 7//// 555 10060
AAXX 26184 71233 16/// /2602 10017 21116 60001 333 10051 21017 70000
AAXX 26184 71916 46/// /3117 11284 21308 30083 40140 55000 6///1 333 11218 21332 7////
AAXX 26184 71860 12683 62711 10019 21113 38784 40185 51020 60001 81571 333 10051 21036 70000
AAXX 26184 71462 46/// /2215 10032 21014 39934 6///1 333 7////
AAXX 26184 71464 46/// ///17 10031 30009 40225 58032 6///1 333 10031 20016 7////
AAXX 26184 71466 46/// ///// 10039 30005 40245 58029 6///1 333 10046 20027 7////
AAXX 26184 71010 16/// /3117 10013 21033 60001 333 10054 20002 70000
AAXX 26184 71679 16/// /1610 10003 21048 39080 40091 58024 60001 333 10010 21013 70000
AAXX 26184 71683 46/// /0103 11324 30063 40182 58007 6///1 333 11308 21356 7////
AAXX 26181 47003 42980 03204 11096 21233 30329 40333 53010
AAXX 26181 47005 42980 01802 11234 21259 38656 52009
AAXX 26181 47022 42975 03602 11176 21235 38897 54000
AAXX 26181 47028 42962 02303 11136 21179 30275 40378 52005
AAXX 26181 47031 42970 00000 11189 21215 39001 52003
AAXX 26181 47037 42970 00000 11130 21182 30239 40373 54000
AAXX 26181 47039 42960 00000 11156 21183 30179 40387 52006
AAXX 26181 47046 42969 00000 11102 21155 30295 40319 52003
AAXX 26181 47050 42965 00000 11120 21155 30330 40367 54000
AAXX 26181 47052 42965 00000 11186 21212 30007 40383 52006
AAXX 26181 47060 42965 00000 11076 21106 30307 40369 53002
AAXX 26181 47061 42980 00000 11068 21135 30284 40330 52012
AAXX 26181 47065 42970 00000 11100 21136 30306 40376 53005
AAXX 26181 47067 42965 00000 11120 21182 30262 40392 54000
AAXX 26181 47068 42960 01103 11152 21158 30321 40359 57001
AAXX 26181 47070 42970 00000 11103 21166 30278 40372 52005
AAXX 26181 47075 42980 00000 11157 21191 39842 40310 54000
AAXX 26184 71257 16/// /3007 11018 21088 60001 333 10043 21052 70000
AAXX 26184 71258 16/// /2307 11039 21134 60001 333 10032 21065 70000
AAXX 26184 71259 16/// /2506 11004 21060 60001 333 10037 21045 70000
AAXX 26184 71274 16/// /3410 11011 21040 60001 333 10042 21027 70000
AAXX 26184 71275 46/// /3213 11030 21059 6///1 333 10031 21034 7////
AAXX 26184 71278 16/// /3313 11002 21043 60001 333 10052 21003 70000
AAXX 26184 71286 16/// /3310 10000 21030 60001 333 10036 21011 70000
AAXX 26184 71287 16/// /0403 11016 21043 60001 333 10044 21022 70000
AAXX 26184 71289 16/// /2910 10009 21080 60001 333 10042 7////
AAXX 26184 71445 17/// /0326 11044 21058 39703 49978 51030 60021 7//4/ 333 10005 21044 70024 555 10070
AAXX 26184 71351 16/// /3006 10014 21070 60001 333 10048 20001 70000
AAXX 26184 71353 16/// /2907 11008 21120 60001 333 10030 21032 70000
AAXX 26184 71385 46/// /2426 11034 6///1 333 10008 7////
AAXX 26181 47101 32968 00000 11133 21163 30268 40373 52007
AAXX 26181 47105 369// /2507 11057 21217 30299 40333 52002
AAXX 26181 47108 32970 02906 11081 21199 30254 40368 53005
AAXX 26181 47115 32568 60703 11013 21082 30031 40314 52010 86500
AAXX 26181 47133 32970 23202 11089 21130 30278 40370 54000 80001
AAXX 26181 47138 32970 22007 11042 21188 30337 40340 52008 81001 333 92033
AAXX 26181 47159 32975 13411 11033 21220 30244 40334 54000 80001 333 92024
AAXX 26181 47165 32970 20207 11029 21124 30310 40359 53002 80001 333 92023
AAXX 26181 47168 32970 03408 11030 21177 30254 40338 53002 333 92023
AAXX 26181 47184 32670 43608 10018 21062 30328 40354 54000 84500 333 92043
AAXX 26184 67765 41681 61001 10224 20191 38687 48531 71798 81963 333 10290 58011 81930 85080
AAXX 26184 67775 41670 71901 10192 20184 38540 48545 71796 82273 333 10263 58018 81925 86460 87080
AAXX 26184 67779 NIL
AAXX 26184 67853 NIL
AAXX 26184 67861 NIL
AAXX 26184 67867 41380 71502 10196 20196 38608 48536 70296 83673 333 10275 58012 81920 83706 87459
AAXX 26184 67881 NIL
AAXX 26184 67965 41675 71604 10210 20176 38717 48542 71392 81973 333 10285 58015 81930 84459 85080
AAXX 26184 67975 41480 50000 10220 20184 38949 48539 70192 81572 333 10270 58009 81615 85460
AAXX 26184 67977 NIL
AAXX 26184 67983 NIL
AAXX 26184 67991 42980 71004 10268 20201 39603 48515 8707/ 333 10334 58003 87460
AAXX 26184 42027 32996 00000 11020 21025 38444 48533 333 59004
AAXX 26184 42101 31992 00000 10076 20072 40172 74144 333 58005
AAXX 26184 42111 31996 00501 10084 20063 39376 40174 70500 333 58005
AAXX 26184 42131 32996 00000 10050 20026 40180 333 59001
AAXX 26184 42165 31995 00502 10138 20031 40149 70500 333 59002
AAXX 26184 42182 31993 00000 10072 20063 40167 71100 333 59001
AAXX 26184 42189 31994 00000 10112 20086 40152 74144 333 58///
AAXX 26184 42328 32996 03403 10124 21058 40148 333 59003
AAXX 26184 42339 31995 00000 10138 20082 40139 70500 333 59006
AAXX 26184 42348 31995 00905 10148 20051 40155 70400 333 59001
AAXX 26184 42369 31994 00000 10090 20064 40161 71000 333 59001
AAXX 26184 42379 31995 00000 10102 20073 40151 71000 333 58002
AAXX 26184 42452 32996 02002 10168 20077 40153 333 58003
AAXX 26184 42475 31994 00000 10102 20073 40168 71000 333 58008
AAXX 26184 42071 NIL
AAXX 26184 42260 NIL
AAXX 26184 42361 NIL
AAXX 26181 23074 41997 81507 11150 21184 30049 40075 58009 77173 8802/ 333 91113
AAXX 26181 23274 41597 71603 11180 21206 30064 40102 57003 72272 8557/ 333 85630
AAXX 26181 23383 41897 80000 11268 21300 39807 40192 57028 77172 8802/
AAXX 26181 23472 41597 71704 11159 21186 30071 40122 53002 78771 85506
AAXX 26181 23678 419// 01203 11162 21181 30090 40151 53002 70231
AAXX 26181 23884 429// 00000 11227 21246 30110 40191 57009
AAXX 26181 23891 41996 80000 11324 21362 39942 57010 77171 84077
AAXX 26181 24507 429// 61202 11360 21390 30020 40298 57016 85071
AAXX 26181 24817 429// 00000 11358 21387 39950 40374 54000
AAXX 26181 24908 41997 80000 11393 21429 39993 40379 54000 77171 83037
AAXX 26181 29263 42978 01001 11159 21178 30128 40234 57014
AAXX 26181 29282 42976 00000 11286 21310 30123 40313 57007
AAXX 26181 29379 42998 00000 11288 21312 30055 40289 57002
AAXX 26181 29570 418// 70000 11189 21201 39879 40252 57009 71022 84031
AAXX 26181 29698 419// 20000 11265 21285 39754 40323 58003 70400 80002
AAXX 26181 30230 42998 33601 11385 21414 30024 40409 52006 80001
AAXX 26181 30252 419// 50000 11355 21377 30072 40439 52018 70172 80001
AAXX 26181 30309 41498 82601 11229 21248 39767 40336 58002 70342 82601
AAXX 26181 30328 429// 00000 11353 21377 39923 40415 52006
AAXX 26181 30521 429// 30000 11319 21337 39799 40395 52006 80001
AAXX 26181 30710 41993 00702 11188 21203 39703 40330 54000 74840
AAXX 26181 23973 42999 11703 11153 21172 30125 40190 57014 80001
AAXX 26181 23975 429// 01102 11186 21205 30063 40179 57019
AAXX 26181 23986 42999 01402 11156 21169 39564 40231 57012
AAXX 26181 23987 41999 01406 11147 21181 30124 40201 57018 73630
AAXX 26181 24606 419// 80000 11376 21405 30037 40349 57001 70271 80006
AAXX 26181 29253 429// 00000 11194 21220 30017 40201 57014
AAXX 26181 29471 41996 80000 11241 21260 30008 40258 57006 71011 80007
AAXX 26181 29481 42999 01501 11222 21241 30017 40276 57005
AAXX 26181 29553 42973 01603 11121 21165 39839 40219 57008
AAXX 26181 29562 42984 00000 11159 21186 39808 40249 57003
AAXX 26181 29581 429// 00000 11271 21295 30006 40292 58005
AAXX 26181 29594 42999 01001 11213 21232 39878 40296 57003
AAXX 26181 29653 42997 02002 11230 21249 39745 40272 57004
AAXX 26181 29675 42998 00000 11218 21236 39652 40293 53004
AAXX 26181 29676 42998 03601 11249 21268 39811 40276 57005
AAXX 26181 29752 429// 52503 11058 21167 38791 48442 57003 80009
AAXX 26181 29759 429// 30000 11098 21145 39194 40250 54000 80001
AAXX 26181 29766 42999 00000 11284 21296 39911 40307 58009
AAXX 26181 29789 NIL
AAXX 26181 29864 429// 03204 11220 21239 39593 40299 57004
AAXX 26181 29866 41/// 90000 11241 21260 39945 40297 53002 74711
AAXX 26181 29869 419// 80000 11254 21266 39892 40305 58004 71011 8802/ 333 95090
AAXX 26181 29956 42983 00000 11245 21264 39700 40314 54000
AAXX 26181 30337 42998 20000 11346 21368 39895 40413 52001 80001
AAXX 26181 30405 429// 00901 11224 21216 39752 40327 52001
AAXX 26181 30504 42997 00000 11204 21216 39621 40321 58002
AAXX 26181 30603 41996 03001 11242 21248 39705 40331 54000 71000
AAXX 26181 30612 429// 50000 11227 21239 39757 40339 52002 85030
AAXX 26181 30622 429// 00000 11324 21342 39664 40398 51002
AAXX 26181 30627 42999 80203 11186 21198 39342 40336 52004 80007
AAXX 26181 30703 429// 00000 11277 21283 39600 40348 58002
AAXX 26181 36307 42997 01401 11344 21368 39030 48532 57001
AAXX 26184 89050 41193 83514 10013 20013 49871 57014 76374 886// 333 99744
AAXX 26184 89512 32598 81344 11029 21082 39666 49815 57006 885// 333 11024
AAXX 26184 89574 42998 70000 11003 21040 49821 57010 87008
AAXX 26184 89592 42998 00000 11034 21071 49800 57014
AAXX 26184 89606 42998 02408 11335 21385 36337 47698 57004 333 11239
AAXX 26183 42071 31994 00000 10044 20034 40179 71000 333 58005
AAXX 26184 63729 12580 50000 10215 20199 38861 48/// 60022 81932
AAXX 26184 63791 31580 31210 10268 20158 39121 48509 71392 83900 333 10346 55300 59008 81926 83628
AAXX 26184 63862 32580 32710 10243 20150 38902 48518 82943 333 10300 59006 82625 81926
AAXX 26184 63870 31475 10910 10270 20248 30094 40112 71311 81900 333 10334 55300 59002 81818 81920
AAXX 26184 63881 32580 20000 10192 20158 38211 48/// 81903 33310252 59006 81620 81922
AAXX 26184 63887 32580 10000 10214 20127 38597 48514 81900 333 10293 55300 59002 81620 81921
AAXX 26184 63894 32580 20000 10270 20255 30059 40119 82900 333 10350 55300 59001 82824 81925
AAXX 26184 63932 02580 60000 10169 20167 38317 48516 60052 83930 333 10250 59008 60037 83821 81922 85359
AAXX 26184 63962 12580 20000 10220 20182 38961 48520 69972 82900 333 10304 59005 82621 81922
AAXX 26184 63971 32580 10278 20244 39989 40117 82230 333 10324 55300 58017 82820 86358
AAXX 26184 63733 NIL
AAXX 26184 63756 NIL
AAXX 26184 63801 NIL
AAXX 26184 63832 NIL
AAXX 26184 63866 NIL
AAXX 26184 62002 11958 70610 10085 20074 39533 48569 5//// 60032 76062 87020 333 0//11 10095 87460
AAXX 26184 62010 11560 72503 10117 20105 40263 52015 60032 70282 878// 333 0//12 10142 83820 86630
AAXX 26184 62012 11558 70000 10125 20106 30219 40250 54001 60192 72162 83520 333 0//12 10160 83630 84358
AAXX 26184 62124 32960 01508 10130 21003 39713 40232 53002 333 10169
AAXX 26184 62161 32960 00000 10140 20056 40241 53009 333 10120
AAXX 26184 65046 31908 60207 10220 20077 39596 40142 70622 80008 333 10258 59003 86280
AAXX 26184 65123 12960 73508 10290 20084 30068 40086 60001 80008 333 10347 59006 87280
AAXX 26184 65271 11956 60000 10289 20130 30998 40096 60001 70522 80008 333 10351 59002 86280
AAXX 26181 13492 NIL
AAXX 26181 13584 NIL
AAXX 26181 13585 42697 40201 11001 21019 39538 40367 52014 84500 333 10014 94000 47003 92233
AAXX 26181 13597 42998 00000 10020 21025 30293 40368 52011 333 10081 94046
AAXX 26181 13598 42698 63401 11018 21029 48577 52011 86500 333 10014 47010 94000
AAXX 26184 67765 41681 61001 10224 20191 38687 48531 71798 81963 333 10290 58011 81930 85080
AAXX 26184 67775 41670 71901 10192 20184 38540 48545 71796 82273 333 10263 58018 81925 86460 87080
AAXX 26184 67779 NIL
AAXX 26184 67853 NIL
AAXX 26184 67861 NIL
AAXX 26184 67867 41380 71502 10196 20196 38608 48536 70296 83673 333 10275 58012 81920 83706 87459
AAXX 26184 67881 NIL
AAXX 26184 67965 41675 71604 10210 20176 38717 48542 71392 81973 333 10285 58015 81930 84459 85080
AAXX 26184 67975 41480 50000 10220 20184 38949 48539 70192 81572 333 10270 58009 81615 85460
AAXX 26184 67977 NIL
AAXX 26184 67983 NIL
AAXX 26184 67991 42980 71004 10268 20201 39603 48515 8707/ 333 10334 58003 87460
AAXX 26181 51711 32980 62501 11169 21188 38017 57003 80002 333 00003 11075
AAXX 26181 51730 32970 00000 11151 21169 40360 57002 333 05151 11035
AAXX 26181 52112 32970 03401 11152 21196 40354 57010 333 00051 11064
AAXX 26181 52737 32980 00000 11150 21271 37096 52002 333 00155 11029
AAXX 26181 52787 32980 01405 11145 21196 37011 57007 333 00053 11001
AAXX 26181 53352 32980 01102 11153 21190 40342 57006 333 11027
AAXX 26181 53593 32960 02501 11097 21156 40342 57006 333 11028
AAXX 26181 53705 32965 42501 11062 21125 40311 57004 80002 333 05251 10017
AAXX 26181 53863 32961 60000 11051 21090 40344 57003 80002 333 10009
AAXX 26181 53975 32968 00901 11016 21141 40336 57003 333 10031
AAXX 26181 54273 32970 01401 11286 21324 40397 52001 333 11161
AAXX 26181 54324 32965 00000 11147 21171 40339 57005 333 11024
AAXX 26181 54405 32965 00201 11090 21164 40345 57008 333 11020
AAXX 26181 54436 32970 01101 11093 21123 40356 57011 333 10014
AAXX 26181 54808 32962 01801 11006 21031 40344 57002 333 10052
AAXX 26181 54826 31965 72208 11081 21124 38537 57001 70040 80002 333 11043
AAXX 26181 54836 32962 01101 11024 21062 40364 54000 333 10037
AAXX 26181 54863 32960 03401 11033 21084 40368 57005 333 10032
AAXX 26181 56018 32980 01801 11095 21143 36172 52001 333 05101 11009
AAXX 26181 56021 32980 00000 11155 21238 36065 57003 333 05102 11039
AAXX 26181 57071 32960 00404 11006 21064 40338 57003 333 10053
AAXX 2618/ 89108 46/// ///// 11221 36942 4//// 5////
AAXX 2618/ 89329 46/// ///// 11081 38744 4//// 5////
AAXX 2618/ 89314 46/// ///// 11061 38223 4//// 5////
AAXX 26184 41242 36/// /1917 10212 20153 30146 40170 333 0E020 10282 59001
AAXX 26184 41252 36/// /3108 10189 20055 39793 40083 333 0E017 10285 58006
AAXX 26184 68513 36/// /2705 10194 20170 30025 40136 53003 333 10247 20194 91007 555 91013
AAXX 26184 68514 32/// /2308 10260 20078 39652 48538 52017 333 10359 20260 91018 555 91012
AAXX 26184 68523 16/// /2213 10276 20036 39083 48513 53003 69982 333 10346 20276 91021 555 20008 91014
AAXX 26184 68527 36/// /2705 10296 20144 39052 48511 53004 333 10320 20296 91008 555 91014
AAXX 26184 68572 NIL
AAXX 26184 68575 NIL
AAXX 26184 68581 36/// /1206 10219 20205 39407 48560 53017 333 10290 20219 91011 555 91019
AAXX 26184 68583 36/// /0709 10248 20215 30063 40172 52011 333 10288 20248 91020 555 91017
AAXX 26184 68589 36/// /0403 10193 20128 38297 48555 53009 333 10248 20191 91007 555 91026
AAXX 26184 68613 36/// /3302 10182 20163 30030 40145 53007 333 10257 20182 91004 555 91014
AAXX 26184 68647 36/// /3407 10236 20124 38918 48523 52006 333 10266 20235 91014 555 91018
AAXX 26184 68651 16/// /1506 10183 20114 38574 48537 57006 60162 333 10197 20169 91009 555 20162 91022
AAXX 26184 68715 36/// /2205 10215 20152 30005 40130 52012 333 10316 20215 91012 555 91013
AAXX 26184 68717 36/// /2508 10238 20149 39985 40125 52020 333 10318 20238 91012 555 91013
AAXX 26184 68723 NIL
AAXX 26184 68737 11770 81811 10176 20147 39264 48533 52051 60022 79522 889// 333 10339 20176 91020 555 20028 60285 91018
AAXX 26184 68744 36/// /3506 10254 20144 39085 48513 52012 333 10306 20254 91010 555 91015
AAXX 26184 68747 36/// /3605 10285 20163 39583 48532 53005 333 10333 20285 91008 555 91011
AAXX 26184 68754 NIL
AAXX 26184 68817 NIL
AAXX 26184 68821 36/// /2804 10276 20134 39867 40097 52016 333 10327 20276 91010 555 91010
AAXX 26184 68835 NIL
AAXX 26184 68843 36/// /0806 10220 20184 39994 40091 52011 333 10309 20220 91010 555 91009
AAXX 26184 68849 NIL
AAXX 26184 68912 NIL
AAXX 26184 68918 36/// /1605 10209 20186 30124 40142 52011 333 10255 20209 91011 555 91014
AAXX 26184 68921 16/// /1908 10210 20187 30130 40133 53018 69922 333 10253 20210 91014 555 20002 91013
AAXX 26184 68925 NIL
AAXX 26184 68926 NIL
AAXX 26184 68935 NIL
AAXX 26184 68572 NIL
AAXX 26184 68575 NIL
AAXX 26184 68723 NIL
AAXX 26184 68754 NIL
AAXX 26184 68817 NIL
AAXX 26184 68835 NIL
AAXX 26184 68849 NIL
AAXX 26184 68912 NIL
AAXX 26184 68925 NIL
AAXX 26184 68926 NIL
AAXX 26184 68935 NIL
AAXX 26181 29023 42998 81801 11217 21242 30029 40132 57005 80001
AAXX 26181 50548 32980 00000 11315 21356 40340 57004 333 11192
AAXX 26181 50564 32970 00000 11303 21330 40342 54000 333 11145
AAXX 26181 51334 32970 00000 11196 21220 40356 57006 333 00002 11153
AAXX 26181 51818 32965 72701 11113 21136 40336 54000 80002 333 05151 11036
AAXX 26181 52378 32980 02002 11148 21210 40352 57001 333 05253 11029
AAXX 26181 53487 31958 23402 11116 21169 40346 57008 70400 80002 333 11038
AAXX 26181 53502 32980 02202 11135 21185 40356 52005 333 05251 11027
AAXX 26181 53923 32980 82002 11022 21087 40304 57005 8807/ 333 11003
AAXX 26181 54049 32970 01803 11156 21218 40341 57011 333 11108
AAXX 26181 54115 32980 02502 11092 21180 40310 57010 333 11048
AAXX 26181 54157 32962 22001 11190 21225 40353 57011 80002 333 11104
AAXX 26181 54186 32970 02701 11266 21309 40389 57003 333 11146
AAXX 26181 54311 32980 03403 11176 21211 40367 57006 333 11043
AAXX 26181 54346 32965 01102 11133 21183 40361 57004 333 11059
AAXX 26181 54377 32965 00203 11187 21228 40401 52004 333 11091
AAXX 26181 54386 32970 00201 11260 21306 40419 52010 333 11143
AAXX 26181 54493 32970 02001 11173 21208 40384 52001 333 11062
AAXX 26181 54587 NIL
AAXX 26181 54715 32962 72001 11002 21075 40342 57006 85032 333 10056
AAXX 26181 54929 32960 70000 11010 21032 40360 54000 80002 333 10040
AAXX 26181 54945 32972 02701 10001 21043 40364 57003 333 10048
AAXX 26181 56065 32980 13401 11096 21196 36621 57001 80002 333 00200 10041
AAXX 26181 57193 32960 00701 10011 21045 40332 54000 333 10073
AAXX 26181 57290 32962 80901 10019 21036 40325 57005 8807/ 333 10067
AAXX 26184 68174 31570 20505 10188 20145 38829 48552 53011 70500 81402 333 10264 20188 91007 555 91022
AAXX 26184 68191 16/// /1904 10246 20193 39677 48583 53008 60042 333 10289 20238 91006 555 20046 91018
AAXX 26184 68242 11565 81006 10173 20160 38748 48526 52007 60012 72166 8557/ 333 10254 20167 91008 555 20016 69945 91020
AAXX 26184 68262 16/// /0503 10206 20180 38738 48546 52015 60012 333 10277 20206 91006 555 20018 91022
AAXX 26184 68263 12780 63605 10195 20171 38522 48548 53011 60022 82570 333 10252 20194 91007 555 20028 91024
AAXX 26184 68267 32470 30713 10175 20140 38290 48562 52010 83100 333 10236 20175 91017 555 91026
AAXX 26184 68289 16/// /0204 10213 20159 39204 48576 53008 69962 333 10254 20213 91006 555 20006 91022
AAXX 26184 68350 16/// /2803 10189 20175 38707 48557 52015 69962 333 10280 20189 91006 555 20006 69965 91024
AAXX 26184 68368 11370 63607 10192 20181 38360 48550 53011 69981 71782 83370 333 10246 555 20008 91026
AAXX 26184 68403 36/// /2507 10207 20177 30135 40168 53005 333 10256 20207 91011 555 91016
AAXX 26184 68424 11782 30113 10261 20178 39168 48504 55000 69922 71300 81970 333 10345 20261 91018 555 20002 91013
AAXX 26184 68438 12782 10510 10210 20138 38828 48523 53002 69982 81900 333 10266 20210 91013 555 20008 91019
AAXX 26184 68442 12880 50404 10179 20166 38688 48539 57003 60062 85070 333 10254 20166 91006 555 20068 91022
AAXX 26184 68461 11580 81004 10167 20154 38367 48553 52010 60012 70266 8657/ 333 10265 20165 91006 555 20010 69925 91025
AAXX 26184 68512 32882 12611 10187 20111 39021 48518 53008 81080 333 10258 20187 91016 555 91017
AAXX 26184 68538 32782 20307 10256 20133 38722 48512 53005 81180 333 10297 20256 91013 555 91018
AAXX 26184 68587 NIL
AAXX 26184 68588 36/// /0309 10252 20209 30170 40186 53017 333 10302 20252 91018 555 91018
AAXX 26184 68591 NIL
AAXX 26184 68592 NIL
AAXX 26184 68618 32980 02413 10239 20034 39044 48521 53011 333 10319 20239 91017 555 91016
AAXX 26184 68633 36/// /0610 10210 20156 38516 48511 53005 333 10249 20210 91017 555 91019
AAXX 26184 68668 12670 63610 10236 20152 39278 48517 58003 69922 86500 333 10248 20230 91019 555 20002 91014
AAXX 26184 68714 36/// /2105 10217 20149 30090 40126 52007 333 10272 20217 91007 555 91012
AAXX 26184 68727 NIL
AAXX 26184 68752 NIL
AAXX 26184 68816 32475 21716 10206 20182 30082 40136 53019 82500 333 10278 91019 555 91013
AAXX 26184 68828 11770 60306 10216 20205 39883 40111 50006 60042 72162 84580 333 10267 555 91011
AAXX 26184 68842 11965 72208 10211 20187 30079 40148 51087 60052 79598 8237/ 333 10288 555 91014
AAXX 26184 68858 32960 40509 10235 20217 39952 40104 53011 84072 333 10298 555 91010
AAXX 26184 68906 32598 41003 10166 20124 30103 40167 56003 83502 222// 00128 333 10190 20158 91005 555 91016
AAXX 26184 68994 32598 43123 10098 20080 30152 40181 51004 83540 222// 00078 333 10196 20094 91034 555 91018
AAXX 26184 89004 32480 60812 11075 21093 38827 49836 53002 85530 333 11072 21088 91016 555
AAXX 26184 42559 32996 01102 10136 20078 40146 333 59001
AAXX 26184 42571 31996 00000 10098 20049 40160 70500 333 59003
AAXX 26184 42667 31996 00000 10168 20107 39544 40143 70500 333 59003
AAXX 26184 42754 31996 02305 10166 20075 39487 40133 70500 333 59003
AAXX 26184 42867 31996 02902 10154 20088 40142 70500 333 59002
AAXX 26184 42933 32996 00000 10190 20094 40135 333 59002
AAXX 26184 42675 NIL
AAXX 26184 42779 NIL
AAXX 26184 42874 NIL
AAXX 26184 43041 NIL
BBXX 46206 26181 99488 71260 46/// /1611 10082 40211 57009 22200 00078 11207 70033 333 91213
AAXX 26181 40001 32570 40000 10063 20043 40254 53011 81130 333 10105 81826 84360
AAXX 26181 40007 31950 02901 10070 20050 40271 51015 71000 333 10122
AAXX 26181 40025 32960 00803 10076 20054 40266 52016 333 10164
AAXX 26181 40045 32970 02603 10072 20045 40256 51012 333 10141
AAXX 26181 40061 32970 02601 10078 20023 40262 52019 333 10144
AAXX 26181 40080 32565 12103 10057 20016 39536 40265 52017 81100 333 10143 81830
AAXX 26181 40087 NIL
AAXX 26181 40095 NIL
AAXX 26181 40009 32965 00000 10064 20043 40237 52018 333 10132
AAXX 26181 40016 NIL
AAXX 26181 40022 32965 00000 10098 20068 40255 52011 222// 20000 333 10165
AAXX 26181 40030 32970 00000 10073 20048 40266 52018 333 10150
AAXX 26181 40039 32970 00000 10088 20048 40252 51015 333 10132
AAXX 26181 40066 32570 33401 10095 20032 40259 51016 83200 1036 83826
AAXX 26181 40072 32970 00000 10084 20028 40265 52014 333 10150
AAXX 26181 40083 32570 33401 10032 20022 48531 52009 83500 333 10066 83630
BBXX 46206 26181 99488 71260 46/// /1611 10082 40211 57009 22200 00078 11207 70033 333 91213
BBXX 46205 26181 99542 71343 46/// /1913 10078 49837 57012 22200 00075 11215 70075 333 91217
BBXX 46132 26181 99497 71279 46/// /1416 10077 40141 57021 22200 00086 11309 70044 333 91220
AAXX 26181 50658 31940 00000 11294 21315 40351 57005 70400 333 11195
AAXX 26181 50888 32980 01801 11189 21235 40321 52009 333 11131
AAXX 26181 50983 32970 02001 11203 21248 40325 52009 333 11136
AAXX 26181 51053 32977 00908 11079 21156 40298 57002 333 05106 11076
AAXX 26181 51542 32680 50402 11254 21281 37576 54000 81502 333 00109 11226
AAXX 26181 52436 32980 02001 11160 21202 38515 40349 57002 333 00052 11006
AAXX 26181 52908 32980 23401 11172 21290 35743 57001 80002 333 00002 11067
AAXX 26181 52996 31458 82501 11076 21080 37573 57003 72844 885// 333 00002 11038
AAXX 26181 53083 32980 00402 11212 21235 40373 57012 333 05406 11165
AAXX 26181 53764 32965 73402 11024 21100 40321 52001 80002 333 10019
AAXX 26181 53787 32970 00702 11071 21115 40339 57003 333 10009
AAXX 26181 54096 32970 02708 11201 21283 40344 52002 333 11165
AAXX 26181 54226 32980 02902 11179 21219 40339 57004 333 11041
AAXX 26181 54259 32965 00000 11213 21247 40379 57003 333 11085
AAXX 26181 54527 31958 01602 11024 21062 40337 57010 71000 333 10031
AAXX 26181 54534 32962 00402 11056 21070 40342 57014 333 10019
BBXX 46132 26181 99497 71279 46/// /1416 10077 40141 57021 22200 00086 11309 70044 333 91220
BBXX 46205 26181 99542 71343 46/// /1913 10078 49837 57012 22200 00075 11215 70075 333 91217
AAXX 26184 82594 32697 60510 10308 20221 30094 40102 82210 333 59006
AAXX 26184 82780 32598 50905 10353 20185 39862 40109 83240 333 58013
AAXX 26184 82795 32597 61406 10295 20191 39513 40121 84300 333 58000
AAXX 26184 82879 32598 51404 10364 20165 39826 40087 85200 333 58009
BBXX A8MH2 26184 99151 31454 41/97 42709 10270 40050 54000 70100 83144 22244 20201 30000 40000 50000
BBXX 62141 26183 99493 50591 41598 53122 10113 20099 40179 58001 70311 85576 22200 20502 330// 40602 5//// 80106
AAXX 26184 89020 46/// /2504 11016 21046 39851 49886 52011 91750
BBXX LEQZ3 26183 99463 11515 41/98 72719 10010 40020 54000 70211 22253 00100 80000 NNNN
BBXX A8CJ2 26184 99223 70774 41498 40522 10250 20214 40200 56015 70300 84100 22274 04261 20503 309// 41004 5//// 80225
BBXX PHHD 26181 99435 70593 41596 73017 10070 20049 40120 58041 71911 81576 22243 04050 20803 399// 40703 80060
BBXX LAXP4 26184 99262 70523 41698 22406 10260 2020/ 40197 57015 70100 82180 22253 00210 20201 330// 40503 80215 NNNN
AAXX 26181 30499 42999 02502 11383 21403 39618 40382 53004
AAXX 26181 30683 419// 80000 11302 21319 39613 40339 57001 77172 80007
AAXX 26181 30695 41997 83202 11342 21371 39960 40345 54000 77171 80007
AAXX 26181 31253 42999 00000 11336 21366 39817 40339 53002
AAXX 26181 31295 42999 00000 11304 21334 39818 40330 54000
AAXX 26181 31348 42999 03601 11332 21348 30076 40298 52002
AAXX 26181 31418 42984 00000 11222 21235 30002 40279 53006
AAXX 26181 31439 41996 80208 11149 21169 30154 40201 53003 77173 86026 333 91116
AAXX 26181 31442 42997 00000 11343 21371 39932 40337 57001
AAXX 26181 31445 42984 00000 11341 21365 30039 40330 54000
AAXX 26181 31474 41998 80000 11269 21300 39787 40321 52005 77171 80007
AAXX 26181 31521 32984 01102 11330 21348 30004 40336 53002
AAXX 26181 31527 42998 02301 11273 21298 39997 40334 53004
AAXX 26181 31534 42999 00000 11321 21344 39953 40344 54000
AAXX 26181 31587 42999 00000 11273 21292 30173 40336 52003
AAXX 26181 31632 NIL
AAXX 26181 31702 42998 00101 11283 21313 39967 40344 53003
AAXX 26181 31713 42999 02501 11239 21251 30185 40294 52012
AAXX 26181 31725 42998 02702 11250 21262 30203 40277 52008
AAXX 26181 31801 41997 80000 11173 21192 30027 40281 53007 77172 80007
AAXX 26181 31825 42984 03602 11155 21206 30009 40229 53009
AAXX 26181 31845 42998 82301 11180 21199 30120 40296 52005 8807/
AAXX 26181 31878 42980 82301 11191 21242 30199 40334 53008 8807/
AAXX 26181 31915 42998 02703 11176 21280 30050 40337 52003
AAXX 26181 31921 42999 02103 11223 21281 30229 40336 53006
AAXX 26181 31969 42/// /2907 11141 21267 30284 40337 52002 333 91121
AAXX 26181 31981 42999 82203 11233 21251 30085 40346 53010 80007
AAXX 26181 31987 42999 03604 11163 21214 30035 40315 52004
AAXX 26181 32069 41594 83414 11072 21089 30127 40132 58005 78683 889// 333 91016 91121
AAXX 26181 30455 429// 00000 11362 21384 38947 48456 52009
AAXX 26181 30731 415// 81302 11124 21137 39668 40307 52009 70272 8255/
AAXX 26181 30739 426// 20000 11305 21330 39454 40375 52006 81501
AAXX 26181 30741 429// 03305 11168 21174 38703 48484 52003
AAXX 26181 30745 429// 00601 11292 21316 39103 40384 52009
AAXX 26181 30764 42998 00000 11392 21425 39491 40422 52014
AAXX 26181 30829 42984 00000 11254 21272 39608 40370 52006
AAXX 26181 30838 41598 20000 11252 21271 39297 40378 52006 70280 82900
AAXX 26181 30846 41997 00000 11284 21315 39354 40366 52009 70411
AAXX 26181 30859 41998 80000 11282 21307 39425 40357 52005 77172 80007
AAXX 26181 30862 41968 02802 11322 21359 39534 40369 52010 70411
AAXX 26181 30957 429// 20000 11223 21230 39363 40334 52005 80002
AAXX 26181 30967 NIL
AAXX 26181 30975 41896 80000 11301 21339 39627 40354 57005 77171 8802/
AAXX 26184 68183 12670 72504 10213 20194 39480 48568 53005 60512 82570 333 10228 20212 91006 555 20510 91020
AAXX 26184 68188 16/// /0000 10200 20181 39245 48569 53002 60142 333 10218 20199 91003 555 20140 91022
AAXX 26184 68268 36/// /1303 10230 20192 38920 48563 52017 333 10304 20230 91009 555 91023
AAXX 26184 68272 36/// /1005 10236 20183 39109 48559 52011 333 10318 20225 91008 555 91020
AAXX 26184 68296 36/// /1506 1//// 2//// 38920 4//// 52002 333 1//// 2//// 91013 555
AAXX 26184 68322 36/// /1510 10274 20168 39109 48496 52011 333 10371 20274 91017 555 91012
AAXX 26184 68338 12580 60306 10191 20163 38787 48519 53001 60062 86960 333 10258 20181 91008 555 20068 91019
AAXX 26184 68345 NIL
AAXX 26184 68362 11660 80603 10176 20169 38548 48550 52010 60292 71799 85370 333 10273 20174 91007 555 20292 60325 91024
AAXX 26184 68400 16/// /0505 10255 20201 30109 40182 52015 69922 333 10339 20255 91010 555 20002 91018
AAXX 26184 68408 32280 82503 10188 20171 30145 40153 52011 886// 333 10218 20186 91005 555 91015
AAXX 26184 68416 32/// /2411 10296 20031 39016 48508 52010 333 10335 20296 91020 555 91014
AAXX 26184 68478 NIL
AAXX 26184 68488 NIL
AAXX 26184 68494 36/// /0605 10239 20190 30045 40175 53015 333 10312 20239 91010 555 91017
AAXX 26184 68524 31586 81904 10248 20153 39040 48503 52013 71322 83970 333 10362 20248 91009 555 91014
AAXX 26184 68546 16/// /1002 10172 20141 38684 48529 55000 60072 333 10217 20172 91003 555 20078 91021
AAXX 26184 68558 16/// /0903 10140 20118 38217 48534 57003 60152 333 10161 20139 91006 555 20158 91023
AAXX 26184 68570 16/// /1304 10176 20149 38548 48540 50000 69962 333 10248 20176 91010 555 20006 91023
AAXX 26184 68580 16/// /1106 10194 20184 38989 48553 52012 69922 333 10282 20194 91010 555 20002 91021
AAXX 26184 68614 32580 72804 10221 20173 30087 40127 52013 875// 333 10319 20221 91007 555 91012
AAXX 26184 68624 31882 32406 10253 20052 38729 48507 52011 70288 83200 333 10334 20211 91011 555 91017
AAXX 26184 68674 NIL
AAXX 26184 68712 36/// /1807 10159 20151 30061 40126 52010 333 10212 20159 91009 555 91012
AAXX 26184 68718 NIL
AAXX 26184 68722 32980 02308 10212 20011 38549 48507 52010 333 10299 20212 91017 555 91018
AAXX 26184 68814 NIL
AAXX 26184 68832 NIL
AAXX 26184 68916 36/// /0604 10197 20180 39880 40145 52012 333 10227 20197 91011 555 91015
AAXX 26184 68920 NIL
AAXX 26184 68928 NIL
AAXX 26184 68155 36/// /0703 10263 20183 39212 48552 52016 333 10315 20263 91008 555 91018
AAXX 26184 68171 NIL
AAXX 26184 68176 16/// /0905 10216 20176 39175 48560 53007 60282 333 10290 20215 91009 555 20282 91021
AAXX 26184 68181 NIL
AAXX 26184 68182 16/// /2802 10208 20191 39382 48567 53002 60052 333 10241 20203 91004 555 20056 91020
AAXX 26184 68185 NIL
AAXX 26184 68253 36/// /1403 10261 20184 39067 48547 53010 333 10316 20261 91007 555 91019
AAXX 26184 68255 16/// /2003 10198 20177 38889 48535 53007 60192 333 10272 20197 91005 555 20198 61305 91020
AAXX 26184 68271 36/// /3305 10221 20157 38944 48550 53006 333 10278 20221 91014 555 91021
AAXX 26184 68273 16/// /3606 10192 20187 38499 48553 53011 60022 333 10259 20191 91008 555 20020 69925 91024
AAXX 26184 68287 36/// /1203 10160 20152 38631 48565 52011 333 10205 20159 91006 555 91025
AAXX 26184 68291 NIL
AAXX 26184 68297 NIL
AAXX 26184 68329 36/// /0709 10263 20178 39085 48526 53007 333 10328 20261 91016 555 91016
AAXX 26184 68331 36/// /0504 10229 20174 38833 48520 55000 333 10276 20229 91005 555 91018
AAXX 26184 68335 16/// /3604 10212 20176 38944 48552 52005 60062 333 10226 20194 91007 555 20060 91021
AAXX 26184 68341 16/// /1406 10191 20174 38564 48549 52012 60072 333 10262 20190 91010 555 20076 69945 91023
AAXX 26184 68342 NIL
AAXX 26184 68343 NIL
AAXX 26184 68349 NIL
AAXX 26184 68353 16/// /1705 10192 20171 38555 48534 53017 69982 333 10262 20192 91007 555 20008 91022
AAXX 26184 68355 16/// /1005 10188 20169 38613 48547 52005 60022 333 10278 20187 91007 555 20024 69925 91023
AAXX 26184 68370 32470 80506 10204 20178 38408 48556 52011 885// 333 10251 2//// 555 91025
AAXX 26184 68377 36/// /0505 10245 20163 38788 48532 53016 333 10314 20244 91008 555 91020
AAXX 26184 68380 36/// /2606 10171 20149 3//// 4//// 5//// 333 10246 20171 91012 555
AAXX 26184 68387 36/// /0407 10229 20193 38899 48562 53006 333 10278 20229 91017 555 91023
AAXX 26184 68411 36/// /1810 10258 20124 39929 40132 53015 333 10338 20258 91021 555 91014
AAXX 26184 68429 36/// /0000 10237 20177 38682 48505 57000 333 10274 20237 91001 555 91017
AAXX 26184 68449 36/// /0000 10189 20154 38429 48542 52013 333 10270 20187 91002 555 91023
AAXX 26184 68471 36/// /3207 10174 20145 38366 48545 53007 333 10250 20173 91016 555 91024
AAXX 26184 68474 16/// /3106 10177 20140 38664 48555 52010 69942 333 10264 20177 91011 555 20004 69945 91024
AAXX 26184 68479 36/// /0811 10257 20149 38977 48550 53011 333 10308 20257 91018 555 91020
AAXX 26184 68481 36/// /0607 10252 20198 39823 40187 52017 333 10315 20252 91011 555 91020
AAXX 26184 68487 36/// /0804 10216 20182 39029 48554 52011 333 10279 20216 91009 555 91021
AAXX 26184 68491 NIL
AAXX 26184 68497 36/// /0606 10249 20208 30140 40184 52012 333 10311 20249 91012 555 91018
AAXX 26184 68587 NIL
AAXX 26184 68591 NIL
AAXX 26184 68592 NIL
AAXX 26184 68727 NIL
AAXX 26184 68752 NIL
AAXX 26184 45011 47556 /0308 10133 20098 40249 57004 71011 333 59004
AAXX 26184 83064 32598 60000 10310 20234 39814 40080 86370 333 58007
AAXX 26184 83332 32698 70000 10301 20192 39196 40084 83290 333 58002
AAXX 26184 83423 21697 80000 10242 20209 39296 40108 76192 8497/ 333 58004 60021
AAXX 26184 83470 32698 52704 10286 20192 39254 40099 83101 333 58009
AAXX 26184 82863 32598 50000 10330 20239 39876 40085 83340 333 58004
AAXX 26184 83228 21698 81416 10222 20184 39824 40100 72999 889// 333 58021 60031
AAXX 26184 83270 32798 50000 10304 20231 39649 40128 81530 333 58008
AAXX 26184 83309 21692 80000 10226 20221 39791 40116 71096 887// 333 58000 60321
AAXX 26184 83319 32697 60000 10314 20250 39772 40141 83460 333 58021
AAXX 26184 83368 32798 60000 10333 20211 39728 40085 86200 333 59003
AAXX 26184 83374 21597 80906 10230 20216 39556 40127 72196 885// 333 58024 60101
AAXX 26184 83405 32597 5//// 10344 20207 39956 40089 85200 333 58006
AAXX 26184 83526 32498 80000 10261 20207 39180 40111 885// 333 58002
AAXX 26184 82143 31598 60108 10300 20247 40098 7022/ 85280 222// 80260 333 58002
AAXX 26184 83695 32697 80000 10290 20215 30016 40152 54000 8675/
BBXX 44062 26181 99386 70764 46/// /3107 1//// 91820 22200 00085 333 91210
BBXX 44062 26181 99386 70764 46/// /3208 1//// 40253 91810 22200 00085 333 91210
BBXX 44062 26181 99386 70764 46/// /3208 10078 40254 50000 91800 22200 00085 10201 70005 333 91210
BBXX 44063 26181 99390 70764 46/// /3107 1//// 91820 333 91209
BBXX 44063 26181 99390 70764 46/// /3207 1//// 40272 91810 333 91209
BBXX 44063 26181 99390 70764 46/// /3308 10078 40272 51005 91800 22200 00082 1//00 70002 333 91210
BBXX 44041 26181 99372 70768 46/// /3306 1//// 91820 333 91207
BBXX 44041 26181 99372 70768 46/// /3505 1//// 40285 91810 333 91208
BBXX 44041 26181 99372 70768 46/// /3405 10090 40286 58013 91800 22200 00097 1//00 70002 333 91207
BBXX 44042 26181 99380 70763 46/// /3109 1//// 91820 333 91211
BBXX 44042 26181 99380 70763 46/// /3109 1//// 40261 91810 333 91211
BBXX 44042 26181 99380 70763 46/// /3109 10082 40261 50000 91800 22200 00086 10301 70007 333 91211
BBXX 44043 26181 99392 70764 46/// /3206 1//// 91820 333 91208
BBXX 44043 26181 99392 70764 46/// /3206 1//// 40259 91810 333 91207
BBXX 44043 26181 99392 70764 46/// /3106 10076 40258 51006 91800 22200 00068 10301 70004 333 91208
AAXX 26184 83378 21430 72411 10195 20180 38970 48530 79596 85910 333 58018 60351
AAXX 26184 83566 32670 61004 10264 20159 39210 48530 84230 333 58008
AAXX 26184 83599 31197 899// 10240 20226 40140 56013 71022 856// 222// 20402 80230
AAXX 26184 83650 42797 40806 10290 20245 40190 57008 7//// 8353/ 222// 02265 21203 80245
AAXX 26184 83925 32697 71109 10234 20163 40199 57011 7033/ 8750/ 222// 20401 80188
AAXX 26184 83970 41498 20911 10250 20159 30200 40204 57010 7030/ 82300 222// 02240 20502
BBXX 44059 26181 99368 70763 46/// /3406 1//// 91820 333 91209
BBXX 44059 26181 99368 70763 46/// /3505 1//// 40254 91810 333 91208
BBXX 44059 26181 99368 70763 46/// /3405 10090 40255 58009 91800 22200 00108 333 91208
BBXX 44057 26181 99395 70761 46/// /3206 1//// 91820 333 91209
BBXX 44057 26181 99395 70761 46/// /3207 1//// 40258 91810 333 91212
BBXX 44057 26181 99395 70761 46/// /3407 10071 40255 51009 91800 22200 00060 333 91209
BBXX 44058 26181 99376 70763 46/// /3109 1//// 91820 333 91211
BBXX 44058 26181 99376 70763 46/// /3009 10083 40261 50000 91800 22200 00092 10301 70005 333 91211
AAXX 26184 42634 32996 00000 10152 20056 40141 333 58001
AAXX 26184 42647 31996 23403 10180 20088 40141 70400 80001 333 58002 82075
AAXX 26184 42737 32996 00000 10156 20107 40148 333 58000
AAXX 26184 42840 32996 00000 10176 20110 40145 333 58010
AAXX 26184 42909 32996 03406 10198 20119 40139 333 58010
AAXX 26184 42921 32996 00000 10120 20077 40191 333 58003
AAXX 26184 43003 31995 03605 10200 20138 40132 70400 333 58010
AAXX 26184 43063 32996 00000 10140 20104 39504 40149 333 58002
AAXX 26184 43110 31996 03603 10220 20185 40125 70544 333 58005
AAXX 26184 43192 32996 00903 10222 20184 40121 333 58001
AAXX 26184 43014 NIL
AAXX 26184 43117 NIL
AAXX 26184 87320 32970 50508 10319 20167 39597 40114 57027 80002 333 56006 85070
BBXX 46092 26181 99368 71220 46/// /0802 10084 40266 52015 91757 22200 00124 555 11021 22021
BBXX 46181 26181 99538 71288 46/// /2200 10007 40066 57026 22200 00032 10300 70000 333 91200
AAXX 26184 68171 NIL
AAXX 26184 68181 NIL
AAXX 26184 68185 NIL
AAXX 26184 68291 NIL
AAXX 26184 68297 NIL
AAXX 26184 68342 NIL
AAXX 26184 68343 NIL
AAXX 26184 68349 NIL
AAXX 26184 68491 NIL
BBXX 46184 26181 99539 71389 46/// /2717 10036 49805 52034 22200 00063 11009 70046 333 91221
BBXX 46181 26181 99538 71288 46/// /2200 10007 40066 57026 22200 00032 10300 70000 333 91200
BBXX 46184 26181 99539 71389 46/// /2717 10036 49805 52034 22200 00063 11009 70046 333 91221
AAXX 26184 68345 NIL
AAXX 26184 68674 NIL
AAXX 26181 31913 NIL
AAXX 26181 32128 41598 70109 11062 21081 30077 40130 51006 78583 87300 333 91017 91119
AAXX 26184 91723 NIL
AAXX 26184 91759 NIL
AAXX 26184 91762 11598 83413 10259 20240 40098 53015 60031 71556 85870 333 82820 83640 88464
AAXX 26181 24856 42998 00000 11402 21427 30185 40367 52011
AAXX 26181 30679 NIL
AAXX 26181 30686 42999 30000 11326 21348 39926 40350 58002 80001
AAXX 26181 30961 41899 80000 11294 21311 39479 40360 53003 72272 8802/
AAXX 26181 30971 41999 02301 11298 21328 39253 40451 53004 70271
AAXX 26181 30978 41996 80000 11295 21326 39602 40366 57005 70272 8802/
AAXX 26181 31513 41996 00000 11286 21303 30070 40323 53002 70400
AAXX 26181 31624 NIL
AAXX 26181 31832 42962 00000 11274 21291 30215 40311 52011
AAXX 26184 43086 32996 00000 10164 20116 39940 40123 333 59006
AAXX 26184 43128 31996 00000 10164 20086 39515 40136 70500 333 59007
AAXX 26184 43150 31996 60508 10234 20158 30048 40123 70510 80002 333 59007 86075
AAXX 26184 43185 31596 20902 10222 20180 30112 40116 70500 81501 333 59005 81620
AAXX 26184 43189 32996 00000 10214 20165 30109 40118 333 59008
AAXX 26184 43198 32996 00000 10144 20084 39292 40139 333 59001
AAXX 26184 43201 32997 00902 10192 20081 39392 40119 333 59004
AAXX 26184 43213 32996 00000 10200 20100 39798 40121 333 59002
AAXX 26184 43226 32996 01404 10200 20160 30092 40122 333 58009
AAXX 26184 43233 32996 00000 10164 20095 39309 40134 333 59001
AAXX 26184 43237 32996 00000 10178 20120 39714 40116 333 59006
AAXX 26184 43245 32996 00502 10222 20187 30099 40126 333 58005
AAXX 26184 43279 31596 40000 10206 20184 30102 40120 70500 81501 333 58001 81620 83075
AAXX 26184 43284 32996 00203 10230 20192 39995 40112 333 58011
AAXX 26184 43295 32996 20000 10180 20088 39102 48502 80001 333 58000 82075
AAXX 26184 43311 32996 00000 10260 20221 40112 333 58011
AAXX 26184 43314 32996 00000 10250 20204 40108 333 58007
AAXX 26184 43329 32996 40000 10216 20191 30099 40112 80006 333 58001
AAXX 26184 43344 31496 40505 10212 20183 30018 40119 70522 81501 333 58003 81620 83075
AAXX 26184 43346 32596 70205 10244 20191 30100 40108 84532 333 58007 84620 86075
AAXX 26184 43353 32496 40000 10254 20212 40120 82501 333 56609 58017 82616 84072
AAXX 26184 43369 32596 10000 10244 20220 40117 81400 333 58008 81620
AAXX 26184 43371 32596 30000 10240 20210 30041 40114 80002 333 58009 83075
AAXX 26184 43321 NIL
BBXX 46232 26181 99325 71174 46/// ///// 1//// 91808 22200 00147 11302 20901 326// 41302 70011
BBXX 46247 26181 99378 71228 46/// ///// 1//// 91821 22200 00111 11404 21002 329// 41403 70021
BBXX 46246 26181 99500 71451 46/// ///// 1//// 91829 22200 00070 11113 21009 331// 41108 70064
BBXX 9HA2064 26183 99524 11632 41897 80930 10030 20006 40110 55010 700// 88973 22254 0//// 2//05 313// 4//// 5//// 6//// 80020 ICE /////
BBXX A8UE5 26184 99516 11664 41498 40827 10020 21041 40100 52015 7//// 848// 22214 04035 20806 3//// 4//// 5//// 80000
BBXX ELWZ5 26184 99426 11678 41297 52310 10070 20060 40015 56015 7//22 8/7// 22223 04125 2//// 3//// 4//// 5//// 80065
BBXX LEQZ3 26183 99463 11515 41/98 72719 10010 40020 54000 70211 22253 00100 80000 ////
BBXX V7NV4 26184 99302 11678 41596 72430 10210 20195 40110 53010 702// 84678 22263 00200 20203 324// 40510 5//// 6//// 80200 ICE /////
BBXX WCX8883 26184 99394 11646 41497 80918 10100 20060 40005 55015 72162 886// 22225 00160 20403 399// 40706 5//// 6//// 80080 ICE /////
BBXX DDZI2 26183 99370 71571 41497 82321 10175 20134 40140 54000 70222 887// 22225 00165 20804 80150
BBXX LAHR7 26184 99541 71623 41297 73318 11015 21030 40070 5//// 70222 874// 22224 00040 2//// 3//// 4//// 5//// 6//// 81020 ICE /////
BBXX 46246 26181 99500 71451 46/// ///// 1//// 91759 22200 00070 11112 21008 330// 41108 70058
AAXX 26181 56671 32780 70000 10070 20048 38224 52001 874// 333 00001 10146
AAXX 26181 57378 31958 80201 10052 20010 40310 57003 71000 8807/ 333 10069
AAXX 26181 57426 31756 80000 10055 20049 40276 54000 71000 885// 333 05100 10076
AAXX 26181 57476 32960 80201 10057 20012 40305 57002 8807/ 333 10082
AAXX 26181 57584 32960 73602 10063 20006 40306 57001 8704/ 333 10083
AAXX 26181 57598 32960 80000 10054 20013 40302 52003 8807/ 333 10098
AAXX 26181 57655 32960 80902 10070 21063 40301 52004 8807/ 333 10089
AAXX 26181 57713 NIL
AAXX 26181 57776 32975 71805 10023 21090 40291 57001 8704/ 333 10050
AAXX 26181 58321 31958 70702 10057 21012 40329 54000 70500 8704/ 333 10089
AAXX 26181 58437 32980 82206 11015 21085 38212 57005 8807/ 333 10026
AAXX 26181 58445 NIL
AAXX 26181 58556 32965 81801 10050 20002 40326 57003 8807/ 333 10104
AAXX 26181 58569 32972 83606 10074 20027 40321 57008 8807/ 333 10111
AAXX 26181 58646 32660 80000 10067 21001 40319 52002 885// 333 10133
AAXX 26181 58653 NIL
AAXX 26181 58660 NIL
AAXX 26181 58715 32960 80401 10064 21015 40293 52002 8807/ 333 10128
AAXX 26181 58730 32965 80000 10061 20008 40312 52008 8807/ 333 10139
AAXX 26181 58731 32965 80000 10053 20016 40307 52009 8807/ 333 10139
AAXX 26181 58754 32962 80000 10081 20030 40315 57006 8807/ 333 10142
AAXX 26181 58911 32670 80901 10058 20019 40287 52007 885// 333 10178
AAXX 26181 58931 31/00 91410 10014 20014 38412 54000 74544 333 10086
AAXX 26181 59254 32762 73201 10093 20026 40252 54000 875// 333 10195
AAXX 26181 59632 32760 70901 10136 20047 40240 57005 875// 333 10205
AAXX 26181 59855 11568 83402 10171 20142 40218 57011 69901 70060 888// 333 10183
BBXX 46004 26181 99509 71361 46/// /2614 10065 49925 52035 22200 00074 11212 70059 333 91219
BBXX 46004 26181 99509 71361 46/// /2614 10065 49925 52035 22200 00074 11212 70059 333 91219
AAXX 26184 40153 11558 73205 10067 20043 39174 48558 52011 60002 71020 8248/ 333 10116
AAXX 26184 40179 12570 33203 10154 20083 30227 40265 52012 60002 83100 333 10189
AAXX 26184 40180 12660 30901 10133 20085 30218 40268 52012 60002 83100 333 10181
AAXX 26184 40190 16/// ///// 10103 20096 39932 40272 52014 69942 333 10154
AAXX 26184 40199 12965 00205 10173 20055 30226 40249 52017 60002 333 10214
AAXX 26184 04048 21465 32738 11010 21057 49899 52055 72683 83900 333 11003 21028 69948 555 3/645
BBXX 46243 26181 99462 71241 46/// ///// 1//// 91829 22200 00088 11406 21004 326// 41405 70031
BBXX 46236 26181 99368 71219 46/// ///// 1//// 91820 22200 00122 11404 21002 328// 41404 70021
BBXX 46217 26181 99342 71194 46/// ///// 1//// 91812 22200 00146 11302 20701 327// 41301 70009
BBXX 46225 26181 99329 71174 46/// ///// 1//// 91814 22200 00149 11302 21001 326// 41301 70008
BBXX 46213 26181 99403 71247 46/// ///// 1//// 91824 22200 00099 11508 21004 329// 41507 70040
BBXX 46215 26181 99352 71209 46/// ///// 1//// 91808 22200 00130 11504 20803 326// 41503 70021
AAXX 26184 71067 16/// ///// 11010 21090 60001 333 10052 21012 70000
AAXX 26184 71461 16/// /2706 11019 21055 60001 333 10034 21040 70007
AAXX 26184 71468 46/// /2012 10027 21017 39653 49971 5/046 6///1 333 21019 7////
AAXX 26184 71483 16/// ///// 10012 21075 60001 333 10052 21021 70000
AAXX 26184 71011 16/// ///// 10005 21107 60001 333 10055 21020 70000
AAXX 26184 71359 16/// /3115 11011 21049 60001 333 10032 21016 70000
AAXX 26184 71283 16/// /2502 11049 21052 60001 333 10022 21067 70028
AAXX 26184 71673 16/// ///// 11013 21089 60001 333 10046 21015 70000
AAXX 26184 71690 16/// ///// 11045 21076 60001 333 10012 21066 70000
AAXX 26184 71221 16/// /2609 10000 21058 60001 333 10011 21075 70000
AAXX 26184 71226 16/// /2306 11004 21062 60001 333 10039 21021 70006
AAXX 26184 71242 16/// /2503 11013 21111 60001 333 10035 21061 70000
AAXX 26184 71405 16/// ///// 10009 21033 60001 333 10050 21001 70000
AAXX 26184 71417 16/// /1808 11026 21065 30081 40116 56013 60001 333 11017 21106 70000
AAXX 26184 71426 46/// /3114 11039 6///1 333 11036 21081 7////
AAXX 26184 71888 16/// ///// 10007 21029 60001 333 10050 21001 70000
AAXX 26184 71895 16/// ///// 11001 21084 60001 333 10049 21008 70004
AAXX 26184 71500 16/// /3010 10000 21089 60001 333 10046 21009 70000
AAXX 26184 71504 16/// ///// 11012 21089 60001 333 10051 21016 70000
AAXX 26184 71541 16/// /2206 11058 21076 60001 333 10026 21069 70009
AAXX 26184 71543 16/// /2103 11030 21078 60001 333 10007 21062 70000
AAXX 26184 71547 16/// /2408 11009 21073 60001 333 10015 21019 70000
AAXX 26184 71549 16/// ///// 11004 21039 60001 333 10033 21007 70000
AAXX 26184 71336 46/// ///16 11034 21091 30145 40168 55008 6///1 333 11034 21097 7////
AAXX 26184 71761 16/// ///// 11015 21048 60001 333 10052 21020 70000
AAXX 26184 71788 16/// /2615 10040 21077 60001 333 10058 20000 70000
AAXX 26184 71792 16/// ///// 11004 21081 60001 333 10036 21028 70000
BBXX 44039 26181 99411 70727 46/// /3011 10065 21031 40214 91753 22200 00088 10402 70010 333 91214
BBXX 44099 26181 99369 70757 46/// ///// 1//// 91822 22200 00119 10402 20402 70012
BBXX 41010 26181 99289 70785 46/// /0408 10218 40213 91820 22200 00238 10603 20603 300// 40901 70016 333 91210 555 11085 22089
BBXX 41009 26181 99285 70802 46/// /0308 10231 20183 40216 91820 22200 00246 10703 20502 300// 40702 70013 333 91209 555 11079 22083
BBXX 42361 26181 99276 70925 46/// ///06 10183 20156 40193 58020 91830 333 91209 555 11051 22055
BBXX 44100 26181 99363 70756 46/// ///// 1//// 91822 22200 00124 10604 20604 70018
BBXX 41110 26181 99341 70777 46/// ///// 1//// 91821 22200 00138 10901 20901 70005
BBXX 41113 26181 99284 70805 46/// ///// 1//// 91821 22200 00226 10901 20901 70007
BBXX 41112 26181 99307 70813 46/// ///// 1//// 91821 22200 00169 10502 20502 70012
BBXX 42362 26181 99278 70907 46/// /1604 10239 20183 40197 91830
BBXX 42363 26181 99282 70892 46/// /1304 10222 20172 40203 91830 333 91205
BBXX 42364 26181 99291 70881 46/// /1107 10211 20183 40200 91830
BBXX 42013 26181 99272 70829 46/// ///// 1//// 40213 91740 22200 00209
AAXX 26181 45032 36/// /3501 10105 20082 30235 40252 57002
AAXX 26181 45035 36/// /0002 10136 20093 30207 40251 57004
AAXX 26181 45039 36/// /0603 10152 20103 30235 40250 57001
AAXX 26181 45044 36/// /0807 10152 20102 30149 40245 57001 333 91112
AAXX 26181 45032 36/// /3501 10105 20082 30235 40252 57002
AAXX 26181 45035 36/// /0002 10136 20093 30207 40251 57004
AAXX 26181 45039 36/// /0603 10152 20103 30235 40250 57001
AAXX 26181 45044 36/// /0807 10152 20102 30149 40245 57001 333 91112
AAXX 26181 56144 32980 00000 11041 21160 36862 52011 333 00152 10097
AAXX 26181 56152 32980 02903 11098 21139 36302 52010 333 00103 10043
AAXX 26181 56167 32980 02501 11072 21128 37085 52017 333 00151 10136
AAXX 26181 56182 32780 70000 11040 21096 37189 52005 875// 333 00002 10100
AAXX 26181 56357 32980 00000 11085 21197 36462 52005 333 00151 10067
AAXX 26181 56586 32460 80000 11005 21012 38066 57003 885// 333 05201 10018
AAXX 26181 56748 32580 50902 10086 20066 38382 52001 85400 333 00152 10178
AAXX 26181 56763 32680 81402 10160 20072 40151 52003 884// 333 00151 10201
AAXX 26181 56768 32675 82201 10076 20061 38215 52001 884// 333 00000 10110
AAXX 26181 56838 32668 60701 10152 20127 40175 57001 86500 333 00200 10225
AAXX 26181 56886 32760 81101 10067 20045 38328 57002 884// 333 05104 10111
AAXX 26181 56946 32662 81601 10151 20124 40180 52004 884// 333 00101 10199
AAXX 26181 56959 32762 80000 10144 20133 40202 52002 884// 333 00100 10197
AAXX 26181 56969 32760 81401 10120 20106 40214 57002 885// 333 00002 10219
AAXX 26181 57731 32665 81401 10067 21019 40283 57001 885// 333 05100 10084
AAXX 26181 57766 32960 81101 10065 21016 40298 52002 8807/ 333 10110
AAXX 26181 57845 32960 80401 10063 21016 40278 57001 8807/ 333 10121
AAXX 26181 57853 32960 80402 10057 21015 40298 52002 8807/ 333 10097
AAXX 26181 57916 32662 80000 10082 20046 40249 57002 885// 333 05201 10143
AAXX 26181 57922 32765 82002 10059 21013 40259 57005 885// 333 05101 10092
AAXX 26181 57932 32763 80701 10086 20003 40270 54000 885// 333 05201 10134
AAXX 26181 58338 32960 80905 10066 21006 40318 54000 8807/ 333 10108
AAXX 26181 59007 32963 00000 10058 20011 40234 57003 333 10131
AAXX 26181 59046 31957 02201 10084 20035 40259 57001 71000 333 10182
AAXX 26181 59058 32960 00000 10053 20010 40269 52003 333 10195
AAXX 26181 59072 32962 72201 10049 20007 40280 52003 8704/ 333 10176
AAXX 26181 59087 32760 83601 10085 20029 40266 57001 885// 333 10181
AAXX 26181 59209 32462 52901 10064 20017 40245 57001 85800 333 10166
BBXX 46146 26181 99493 71237 46/// /1009 10055 40243 57002 22200 00070 10402 70008 333 91211
BBXX 46146 26181 99493 71237 46/// /1009 10055 40243 57002 22200 00070 10402 70008 333 91211
BBXX 44258 26181 99445 70634 46/// /1805 10057 40120 57004 22200 00061 10503 70014 333 91206
BBXX 44258 26181 99445 70634 46/// /1805 10057 40120 57004 22200 00061 10503 70014 333 91206
AAXX 26184 96009 31457 81307 10254 20239 30069 40104 57002 70292 83921 333 56000 57903 81917 82618 85460 80962
AAXX 26184 96011 11458 60501 10258 20248 30080 40106 58001 69991 71322 83932 333 56000 57903 81919 83620 80960
AAXX 26184 96035 01450 72306 10254 20239 30071 40109 57005 69921 70596 85576 333 56000 69917 85616
AAXX 26184 96073 31550 70000 10250 20237 30090 40101 56007 70522 83522 333 56000 83620
AAXX 26184 96091 32459 80308 10262 20239 30096 40119 57008 83528 333 56000 83613 85460
AAXX 26184 96109 32457 70000 10256 20229 30062 40101 58005 83572 333 56000 83618
AAXX 26184 96145 01420 83611 10260 20236 30108 40110 58015 69901 72162 8652/ 333 56809 69907 86615 88460
AAXX 26184 96147 NIL
AAXX 26184 96163 32560 30000 10244 20384 30085 40087 57009 81131 333 56000 81820 80825
AAXX 26184 96179 NIL
AAXX 26184 96195 31450 70000 10254 20243 30083 40119 57009 70522 83531 333 56000 83613
AAXX 26184 96221 31420 80000 10248 20243 30090 40105 57013 71022 82577 333 56999 82617 88280
AAXX 26184 96237 32457 80000 10250 20242 30063 40105 57010 83578 333 56000 83618 84460 86280
AAXX 26184 96249 01558 73005 10257 20248 30036 40097 57013 69921 72162 85932 333 56600 57981 57881 69927 81920 84820 80981
AAXX 26184 96253 32557 60000 10238 20227 30048 40069 57009 82832 333 56000 57800 81820 83081 80800
AAXX 26184 96295 32460 80000 10254 20231 30003 40106 51011 8552/ 333 56000 85613 88462
AAXX 26184 96509 32458 60000 10256 20244 30076 40087 57007 84271 333 56000 57801 84815 80860
AAXX 26184 96581 01350 80000 10245 20242 30100 40107 57006 60091 72166 8617/ 333 56609 60017 86808 83361 88462 80860
AAXX 26184 96633 32458 72705 10253 20248 30078 40086 57010 83571 333 56000 83618 85460
AAXX 26184 96645 31430 80000 10236 20235 30065 40097 57014 71022 85572 333 56000 85612
AAXX 26184 96655 NIL
AAXX 26184 96685 01456 80000 10251 20247 30069 40093 57018 60061 76066 86511 333 56000 60067 86615
AAXX 26184 96749 31556 60000 10268 20241 30088 40102 56020 71522 82521 333 56000 82622 84461
AAXX 26184 96781 NIL
AAXX 26184 96805 32558 40000 10258 20246 30096 40105 56010 82271 333 56000 57802 82820 80860
AAXX 26184 96839 11550 70000 10242 20233 30088 40095 57023 60111 70262 84176 333 56000 84820
AAXX 26184 96935 11560 70000 10252 20239 30086 40092 57018 69951 70262 84571 333 56000 84620
AAXX 26184 97008 01420 80000 10260 20248 30059 40069 57006 60151 76362 8652/ 333 56009 60157 86617 88458
AAXX 26184 97016 32560 40000 10268 20231 30065 40067 57014 82831 333 56000 57801 82820 80860
AAXX 26184 97126 NIL
AAXX 26184 97182 01460 80606 10246 20236 30075 40079 57022 60031 70262 8481/ 333 56009 69987 57800 84818 84458 808//
AAXX 26184 97240 31457 63203 10244 20241 39978 40092 57007 70522 82171 333 56000 82816
AAXX 26184 97310 NIL
AAXX 26184 97320 32560 23306 10274 20254 30055 40068 57012 81101 333 56000 81820
AAXX 26184 97378 32560 50000 10270 20262 39909 40071 56005 82101 333 56000 82820
AAXX 26184 97406 32460 50000 10252 20249 30040 40065 57014 83141 333 56000 57802 83818 80860
AAXX 26184 97570 11456 83303 10246 20237 30061 40068 57028 76062 888// 333 56099 57801 87815 80858
AAXX 26184 97630 32310 40000 10250 20238 39911 40071 56016 83831 333 56600 82611
AAXX 26184 97700 NIL
AAXX 26184 97722 32565 30000 10246 20234 30060 40075 57018 83232 333 56000 57806 83820 80850
AAXX 26184 97014 11559 60000 10248 20236 39991 40084 57016 60011 70262 83871 333 56500 82820
AAXX 26184 97028 NIL
AAXX 26184 97048 11456 60000 10246 20243 30040 40064 58021 69901 70262 84972 333 56000 57901 81917 83614 80980
AAXX 26184 97072 NIL
AAXX 26184 97086 32560 72704 10267 20240 30069 40093 52001 83571 333 56000 83620 85460
AAXX 26184 97096 32460 60000 10246 20227 30065 40086 59019 82231 333 56000 57803 82816 84460 80860
AAXX 26184 97120 11459 60000 10244 20230 30050 40083 56023 60051 71562 83871 333 56000 57802 82818 84360 80860
AAXX 26184 97146 NIL
AAXX 26184 97180 01458 70805 10244 20244 30069 40087 58022 60021 70262 82272 333 56000 60027 82819 84359
AAXX 26184 97192 NIL
AAXX 26184 97230 01458 82515 10274 20246 30078 40085 57008 69911 76062 86832 333 56600 57861 69917 83815 84616 80860
AAXX 26184 97260 NIL
AAXX 26184 97270 NIL
AAXX 26184 97300 NIL
AAXX 26184 97340 32560 82103 10274 20260 30063 40077 58010 82232 333 56000 82820 87989
AAXX 26184 97372 32458 62603 10270 20262 39952 40072 57012 84231 333 56000 84817
AAXX 26184 97430 01460 60000 10258 20246 30047 40076 57016 69901 70162 84232 333 56700 57872 69907 84818 80860
AAXX 26184 97460 32460 40000 10240 20226 30046 40060 57007 83836 333 56000 57802 82817 80857
AAXX 26184 97502 01450 80000 10262 20256 30060 40063 57021 69901 72166 8662/ 333 56009 69907 86612
AAXX 26184 97530 NIL
AAXX 26184 97560 32460 80106 10265 20248 30052 40067 53009 84977 84977 333 56000 57902 57804 82917 83620 86361 88279 80980 80860
AAXX 26184 97686 NIL
AAXX 26184 97690 NIL
AAXX 26184 97724 31559 43403 10248 20241 30052 40068 57014 70510 81141 333 56700 81820 80856
AAXX 26184 97748 NIL
AAXX 26184 97760 32440 60203 10272 20250 30059 40068 57018 83232 333 56000 57801 83816 80860
AAXX 26184 97796 NIL
AAXX 26184 97810 NIL
AAXX 26184 97900 32562 42904 10272 20241 30023 40051 57017 81205 333 56600 57861 81820 84275 80825
AAXX 26184 97980 NIL
AAXX 26184 96001 NIL
AAXX 26184 96015 32440 60000 10266 20261 30100 40107 54000 83579 333 56000 83613
AAXX 26184 96033 11440 60000 10258 20243 30108 40114 58002 69901 70562 83926 333 56000 57903 81920 83617 80980
AAXX 26184 96075 32450 60000 10242 20239 30094 40100 57003 83571 333 56000 83617
AAXX 26184 96087 32458 60312 10264 20234 30080 40113 56011 83531 333 56800 83614 84360
AAXX 26184 96171 31450 70000 10252 20232 30085 40109 52001 70522 85522 333 56000 85613
AAXX 26184 96207 31410 80000 10213 20204 39245 40167 52000 71422 84931 333 56000 57901 81914 83616 80950
AAXX 26184 96525 32458 80000 10258 20247 30083 40090 57014 82235 333 56000 82815 83280
AAXX 26184 96529 32450 40000 10242 20239 30083 40107 58011 82131 333 56000 82818
AAXX 26184 96559 01320 82704 10238 20235 30081 40119 55000 60011 76162 8692/ 333 56609 57962 57864 60017 81913 85808 88461 80973 80845
AAXX 26184 96607 12456 70000 10254 20244 30084 40099 57014 60021 85221 333 56000 85814
AAXX 26184 96615 01456 83304 10260 20245 30092 40107 57009 69971 70262 8412/ 333 56009 57803 69977 84812 88462 80856
AAXX 26184 96737 31450 70000 10262 20247 30057 40088 58012 70522 84521 333 56000 84617 83460
AAXX 26184 96739 NIL
AAXX 26184 96741 32557 83404 10288 20245 30096 40100 57016 8257/ 333 56009 82620 86460
AAXX 26184 96745 NIL
AAXX 26184 96751 31550 70000 10205 20194 39043 48920 57012 70522 85571 333 56600 85620
AAXX 26184 96791 32457 80000 10250 20238 30043 40118 56011 84511 333 56000 84617 86460
AAXX 26184 96797 01457 70000 10256 20244 30096 40099 58013 69951 70262 82971 333 56000 57902 69907 81918 83460 80980
AAXX 26184 96837 NIL
AAXX 26184 96925 32465 82710 10282 20244 30082 40087 57024 84272 333 56600 57860 84817 85460 80860
AAXX 26184 96933 01958 32906 10256 20238 30087 40091 57015 60051 70196 83011 333 56000 69907 83460
AAXX 26184 96937 01458 83508 10260 20241 30086 40091 57020 60051 70296 85828 333 56000 57800 69947 83819 86460 80860
AAXX 26184 96973 31458 52810 10260 20239 30087 40092 57010 71791 83931 333 56000 57902 81919 80976 82820 80850
AAXX 26184 96987 32560 40000 10258 20234 30026 40085 57012 82531 333 56000 82620
BBXX KS007 26184 99267 70801 43/// ///// 10238 40170 22200
BBXX KS098 26184 99446 71241 43/// /0404 10044 40266 22200 06000
BBXX KS088 26184 99267 70801 43/// /0700 10243 40206 22200 06241
BBXX KS094 26184 99137 70610 43/// /0711 10255 40148 22200 06264
BBXX 44140 26181 99429 70515 46/// /0908 10085 40196 5//// 22200 00076 11204 70022 333 91210
AAXX 26181 98134 NIL
AAXX 26181 98223 32562 10402 10220 20184 40149 58006 81100 333 56999 81820
AAXX 26181 98232 31565 80904 10220 20203 40193 58008 71522 8557/ 333 56999 85620 88358
AAXX 26181 98325 32458 31804 10240 20212 40138 58009 81201 333 56999 81817
AAXX 26181 98328 31461 41102 10132 20119 38537 40123 58010 70544 81201 333 56999 82814 84079
AAXX 26181 98330 32475 10403 10245 20224 30112 40144 58011 81200 333 56999 81818
AAXX 26181 98336 11467 50404 10218 20195 30170 40175 58012 60011 70162 82270 333 56199 82815 84357
AAXX 26181 98429 31560 80401 10258 20209 40138 58011 70544 83830 333 56999 83823 85360
AAXX 26181 98430 31558 60000 10239 20208 40136 58003 70544 82870 333 56999 82820 84358
AAXX 26181 98431 31458 80602 10252 20216 30091 40138 56011 70322 8485/ 333 56999 84818 88359
AAXX 26181 98440 11420 80405 10252 20220 30138 40143 57009 69921 71582 8527/ 333 56199 85815 88358
AAXX 26181 98444 11460 50307 10254 20225 30097 40116 58015 69941 70282 82278 333 56199 82818 83459 85270
AAXX 26181 98526 32570 80402 10250 20239 40106 58013 81237 333 56999 81820 85358 88274
AAXX 26181 98531 31568 70610 10280 20207 30097 40101 54013 70544 82408 333 56199 82620 87275
AAXX 26181 98536 11465 80406 10242 20226 39918 40117 57012 69961 70282 8327/ 333 56199 83818 88357
AAXX 26181 98543 11468 70202 10253 20240 30094 40105 58010 69921 70202 83208 333 56999 83818 87272
AAXX 26181 98550 11458 83601 10250 20239 40090 58012 60491 76066 8322/ 333 56999 83818 88457
AAXX 26181 98618 32570 60708 10278 20248 40097 58015 82208 333 56999 82820 86274
AAXX 26181 98630 32470 80206 10260 20244 40127 58011 8422/ 222// 2//03 333 56199 84818 88458
AAXX 26181 98637 NIL
AAXX 26181 98646 11550 83402 10238 20236 30093 40121 56009 60891 76366 8582/ 333 56799 85820 88458
AAXX 26181 98653 11465 70000 10257 20248 30038 40083 58003 60011 71582 82270 333 56999 82818 87358
AAXX 26181 98741 11458 80402 10244 20243 40090 57010 60061 76166 8462/ 333 56199 84617 88457
AAXX 26181 98747 11405 80000 10230 20228 39899 40104 50003 60171 76166 8362/ 333 56999 83717 88457
AAXX 26181 98753 11450 83601 10240 20233 40109 50000 60351 76166 8482/ 333 56899 84616 88458
AAXX 26181 98755 11465 80406 10261 20246 40098 58003 60651 78088 8452/ 333 56999 84616 88458
AAXX 26181 98836 32460 80000 10260 20247 40086 58013 8327/ 333 56399 83818 88362
BBXX 44140 26181 99429 70515 46/// /0908 10085 40196 5//// 22200 00076 11204 70022 333 91210
BBXX 46036 26181 99484 71339 46/// /2211 10094 40013 52022 22200 00081 11112 70060 333 91213
BBXX 46036 26181 99484 71339 46/// /2211 10094 40013 52022 22200 00081 11112 70060 333 91213
AAXX 26184 82141 32598 53607 10299 20247 30092 40104 85200 333 58001
AAXX 26184 82145 32598 50905 10326 20227 30058 40099 83240 333 58002
AAXX 26184 82181 32498 30708 10327 20205 39983 40121 83300 333 58007
AAXX 26184 82198 21495 50710 10319 20213 30038 40089 70262 84260 333 58005 60011
AAXX 26184 82353 32598 61802 10319 20225 39967 40050 84230 333 58004
AAXX 26184 82361 21497 50204 10314 20243 30064 40101 70262 85300 333 59006 69961
AAXX 26184 82476 32595 40804 10355 20207 39966 40083 84100 333 59004
AAXX 26184 82861 32597 60906 10325 20231 39894 40062 84201 333 59004
BBXX 62303 26184 99516 70051 46/// /2319 10114 20076 40314 55003 22200 00113 10606 70031 333 90710 91126
BBXX 62001 26184 99452 70050 46/// /1014 10124 20086 40338 52006 22200 00139 10705 70027
BBXX 62081 26184 99510 70134 46/// ///// 10126 20103 40238 53007 22200 00121 10912 70058
BBXX 62105 26184 99554 70121 46/// /2920 10091 20060 40178 51057 22200 00106 10913 70067 333 90710 91132
BBXX 63110 26183 99595 10015 41/96 /2243 10107 49993 700// 8//// 22200 10810 70050
BBXX 63106 26184 99610 10017 46/// /2539 10102 49937 53007 22200
BBXX 63105 26184 99610 10017 47396 ///// 10103 20089 49938 53005 751// 22200
BBXX 62103 26184 99499 70029 46/99 /2317 10113 20065 40330 58002 22200 00120 11803 70016
BBXX 2AUO5 26183 99608 10018 41/96 /2438 10101 49965 53002 76366 8//// 22251 20416 324// 41016
BBXX 62305 26184 99504 10000 46/98 /2419 10113 20076 40371 51009 22200 00119 10601 70007
BBXX 62094 26184 99517 70067 46/// /2221 10110 20081 4//// 55040 22200 00107 10606 70030 333 90710 91131
BBXX 62301 26184 99524 70048 46/// ///20 1//// 2//// 40300 58001 22200 00087 106//
BBXX 62095 26184 99531 70159 46/// /3110 10091 20040 40214 52039 22200 00110 10911 70054
BBXX MYSU5 26184 99535 10052 41/98 72836 10095 20074 40314 56005 70222 8//// 22223 00080 20504 3//// 4//// 5//// 80085
AAXX 26184 82098 32597 40509 10322 20234 30086 40103 83340 333 58004
AAXX 26184 82246 32497 41402 10304 20245 39911 40108 82230 333 59003
AAXX 26184 82445 32597 60506 10308 20242 30063 40115 83280 333 58004
AAXX 26184 82460 21597 60504 10310 20244 30061 40090 72962 86500 333 58007 69981
AAXX 26184 82562 32598 53602 10317 20248 39960 40067 84201 333 59025
AAXX 26184 82571 32497 61804 10328 20240 39911 40083 84510 333 58002
AAXX 26184 82765 21598 71801 10268 20226 39890 40131 70261 83270 333 58003 60021
AAXX 26181 20046 NIL
AAXX 26181 20069 NIL
AAXX 26181 20087 41996 71412 11262 21294 39946 49957 57007 73873 85031 333 91116
AAXX 26181 20292 NIL
AAXX 26181 20353 46/// /1510 11029 21048 39810 49814 57012 333 91112
AAXX 26181 20667 31498 82004 11020 21023 39871 49878 52004 70275 886// 333 11026
AAXX 26181 20674 41895 82010 11093 21100 39858 49918 53001 77173 8802/ 333 91114 92983
AAXX 26181 20744 11996 82009 11011 21024 39763 49780 56002 69960 77187 8807/ 333 11004
AAXX 26181 20891 41497 71704 11222 21240 30059 40104 57007 78582 8693/ 333 86913 91105
AAXX 26181 23022 11496 82106 11096 21112 39839 49900 57010 69900 78583 889// 333 11049 91115
AAXX 26181 23032 11497 81806 11076 21089 39901 49932 58009 69950 73633 885// 333 11065 88619
AAXX 26181 23058 NIL
AAXX 26181 23242 12497 82104 11108 21128 39981 49997 57004 60010 885// 333 11099 88614
AAXX 26181 23256 11398 81804 11168 21187 30003 40040 54000 69930 77173 885// 333 11126 84709 91112
AAXX 26181 23330 11297 82302 11125 21131 39961 49983 57010 69900 70272 8477/ 333 11116 84706 93522
AAXX 26181 23445 11597 81305 11129 21149 39998 40024 57004 69920 70272 885// 333 11101 88623
AAXX 26181 23552 11997 01301 11207 21226 30036 40073 57002 69920 70171 333 11174
AAXX 26181 23631 32998 52001 11221 21240 39966 40010 57015 80001 333 11149
AAXX 26181 23662 11997 81201 11226 21244 30064 40112 52003 69900 77872 80002 333 11187
AAXX 26181 23724 32998 80902 11173 21192 39921 49989 57016 80007 333 11185
AAXX 26181 23734 32998 01401 11217 21229 39939 40038 57013 333 11148
AAXX 26181 23849 41350 81901 11170 21190 40098 57005 71022 886// 333 88708
AAXX 26181 23867 32999 00000 11275 21300 30046 40125 57005 333 11183
AAXX 26181 23933 11997 61602 11218 21239 30016 40077 57012 69930 70272 80005 333 11164
AAXX 26181 28064 32998 81802 11174 21186 39977 40074 57013 80001 333 11177
AAXX 26181 28275 12997 80000 11217 21235 30054 40118 57004 69920 80002 333 11163
AAXX 26181 28493 12997 01901 11229 21248 30037 40139 53001 69900 333 11187
AAXX 26181 28698 12997 80000 11218 21236 39986 40154 58001 69900 80001 333 11210
AAXX 26184 63708 32570 50220 10238 20179 48498 8395/ 333 58007 81923 83624
AAXX 26184 63740 32570 60607 10203 20164 48521 86500 333 10251 58005 86620
AAXX 26184 63820 32580 11305 10284 20249 40115 81100 333 10335 59001 81823
AAXX 26184 63612 NIL
AAXX 26184 63661 NIL
AAXX 26184 63671 NIL
AAXX 26184 63688 NIL
AAXX 26184 63695 NIL
AAXX 26184 63714 NIL
AAXX 26184 63723 NIL
AAXX 26184 63772 NIL
AAXX 26184 63793 NIL
AAXX 26183 63612 32980 10704 10298 20181 40101 80002 333 10365 59001 81080
AAXX 26183 63661 32580 70000 10207 20136 48535 8117/ 333 10283 58000 81820 87359
AAXX 26183 63671 32980 01805 10267 20221 333 10323
AAXX 26183 63723 32980 01104 10318 20216 40100 333 10375 58012
AAXX 26183 63772 32580 10906 10276 20249 81903 333 10335 81924
AAXX 26183 63793 31480 11812 10264 20180 40093 71300 81903 333 10344 58000 81918
AAXX 26181 23426 11984 71803 11130 21150 39953 49978 57013 69900 70272 87010 333 11099
AAXX 26181 23625 32998 81303 11170 21189 39949 49984 57013 8807/ 333 11116
AAXX 26181 28076 12997 40000 11193 21199 30023 40100 57012 69900 80001 333 11164
AAXX 26181 28367 12984 01901 11161 21174 39977 40113 57015 69900 333 11107
AAXX 26181 28382 11998 00000 11261 21279 30055 40133 57004 69900 70271 333 11205
AAXX 26181 28481 12997 01901 11243 21242 30035 40143 57003 69900 333 11190
AAXX 26181 28491 31997 30000 11248 21273 30017 40137 57002 77670 80001 333 11198
AAXX 26181 28573 31996 81902 11216 21228 30034 40147 57001 77171 8801/ 333 11194
AAXX 26181 28593 32997 01802 11231 21249 30039 40145 53003 333 11199
AAXX 26181 28786 12997 02702 11222 21240 39990 40162 54000 69900 333 11194
AAXX 26181 28797 32997 82502 11207 21226 39990 40161 58003 80001 333 11186
AAXX 26181 28799 32997 32201 11185 21211 30004 40159 57005 80005 333 10186
AAXX 26184 78318 11563 41204 10279 20197 30180 40184 57016 60001 70500 84200 333 10281 20208 30/// 56300 59012 84820 555 11302
AAXX 26184 78325 11564 10906 10272 20162 30130 40188 58017 60001 70511 81200 333 10290 20214 30/// 56200 59015 81820 555 10901
AAXX 26184 78333 11410 42401 10282 20195 30176 40183 58019 60001 70500 84232 333 10288 20198 30/// 56599 59014 84819 555 12302
AAXX 26184 78348 11557 20504 10261 20195 30133 40185 58021 60001 70511 82240 333 10261 20229 30/// 56990 57855 59016 82820
AAXX 26184 78349 11566 70902 10288 20185 30074 40183 57025 60001 70522 878// 333 10288 20218 30/// 56299 57853 59023 83823 87625 555 10902
AAXX 26184 78353 12570 31004 10284 20180 30168 40190 58021 60001 83/// 333 10284 20229 30/// 56900 59002 70012 82823
AAXX 26184 78360 11568 31308 10292 20207 30158 40169 58018 60001 70500 82801 333 10292 20217 30/// 56909 57887 59014 81820 92034
BBXX C6FR6 26184 99164 10728 41/// /3315 10260 2//// 40150 5//// 7//// 8//// 22233 0//// 2//// 3//// 4//// 5//// 6//// 8//// ICE /////
BBXX WRAH 26183 99263 70721 41898 29902 10260 2//// 40195 56007 70111 82100 22264 00250 20100 312// 41105 5//// 6//// 8//// ICE /////
BBXX WDA2768 26184 99458 70871 43/// /0323 00/// 10023 21017 40120 57047 7//// 8//// 22200 0//// 2//// 3//// 4//// 5//// 6//// 80007 ICE /////
BBXX VRIO2 26184 99345 30176 41397 51417 10220 20190 40090 54010 70111 84298 22273 00210 21002 326// 41002 5//// 6//// 80200 ICE /////
BBXX C6XC6 26184 99077 70829 41897 62609 10278 2//// 40090 57020 70322 863// 22272 00280 2//// 3//// 4//// 5//// 6//// 8//// ICE /////
BBXX 51202 26181 99214 71577 46/// ///// 1//// 91809 22200 00240 10805 20805 336// 41302 70027
BBXX 51205 26181 99210 71564 46/// ///// 1//// 91818 22200 00233 11306 20905 334// 41303 70028
BBXX 46239 26181 99363 71221 46/// ///// 1//// 91821 22200 00130 11507 20903 328// 41506 70033
BBXX 46219 26181 99332 71199 46/// ///// 1//// 91828 22200 00137 11705 20703 331// 41704 70025
BBXX 46224 26181 99332 71175 46/// ///// 1//// 91806 22200 00141 11501 21001 319// 41501 70007
BBXX 46214 26181 99379 71235 46/// ///// 1//// 91823 22200 00124 11506 21003 329// 41505 70031
BBXX 44060 26181 99413 70721 46/// ///09 10060 40196 91830 22200 00101 333 91211 555 11098 22103
BBXX 44022 26181 99409 70737 46/// ///09 10066 21036 40219 91830 22200 00084 333 91212 555 11098 22103
BBXX 44040 26181 99410 70736 46/// /3209 10070 21031 40220 91819 22200 10301 70005 333 91212 555 11108 22124
AAXX 26184 60650 36/// /3212 10163 21021 /33 10209
AAXX 26184 60679 36/// /3609 10018 21110 333 10074
AAXX 26184 60661 36/// /0406 101/5 21080 333 10199
BBXX LEQZ3 26183 99463 11515 41/98 72719 10010 40020 54000 70211 22253 00100 80000 NNNN
BBXX C6FR6 26184 99164 10728 41/// /3315 10260 2//// 40150 5//// 7//// 8//// 22233 0//// 2//// 3//// 4//// 5//// 6//// 8//// ICE /////
BBXX SHIP 26184 99168 10707 41998 09913 10250 2019/ 40140 54000 70200 80000 22233 00220 21001 30014 41001 5//// 6//// 80210 ICE /////
BBXX VRIO2 26184 99345 30176 41397 51417 10220 20190 40090 54010 70111 84298 22273 00210 21002 326// 41002 5//// 6//// 80200 ICE /////
BBXX 3EPD8 26184 99087 70289 41398 70527 10254 20218 40127 52000 7//22 8/72/ 22283 04269 29906 399// 4//04 80230
BBXX ELUC5 26183 99126 51023 41998 01218 10240 20240 40150 54000 70222 80000 22224 06200 20703 30000 80240
BBXX 62141 26183 99493 50591 41598 53122 10113 20099 40179 58001 70311 85576 22200 20502 330// 40602 5//// 80106
BBXX 46036 26181 99484 71339 46/// /2211 10094 40013 52022 22200 00081 11112 70060 333 91213
BBXX 44140 26181 99429 70515 46/// /0908 10085 40196 5//// 22200 00076 11204 70022 333 91210
BBXX KS094 26184 99137 70610 43/// /0711 10255 40148 22200 06264
BBXX KS098 26184 99446 71241 43/// /0404 10044 40266 22200 06000
BBXX KS007 26184 99267 70801 43/// ///// 10238 40170 22200
BBXX KS088 26184 99267 70801 43/// /0700 10243 40206 22200 06241
BBXX 44258 26181 99445 70634 46/// /1805 10057 40120 57004 22200 00061 10503 70014 333 91206
BBXX 46146 26181 99493 71237 46/// /1009 10055 40243 57002 22200 00070 10402 70008 333 91211
BBXX 41113 26181 99284 70805 46/// ///// 1//// 91821 22200 00226 10901 20901 70007
BBXX 41009 26181 99285 70802 46/// /0308 10231 20183 40216 91820 22200 00246 10703 20502 300// 40702 70013 333 91209 555 11079 22083
BBXX 42364 26181 99291 70881 46/// /1107 10211 20183 40200 91830
BBXX 42363 26181 99282 70892 46/// /1304 10222 20172 40203 91830 333 91205
BBXX 44100 26181 99363 70756 46/// ///// 1//// 91822 22200 00124 10604 20604 70018
BBXX 41112 26181 99307 70813 46/// ///// 1//// 91821 22200 00169 10502 20502 70012
BBXX 42362 26181 99278 70907 46/// /1604 10239 20183 40197 91830
BBXX 42361 26181 99276 70925 46/// ///06 10183 20156 40193 58020 91830 333 91209 555 11051 22055
BBXX 41110 26181 99341 70777 46/// ///// 1//// 91821 22200 00138 10901 20901 70005
BBXX 41010 26181 99289 70785 46/// /0408 10218 40213 91820 22200 00238 10603 20603 300// 40901 70016 333 91210 555 11085 22089
BBXX 42013 26181 99272 70829 46/// ///// 1//// 40213 91740 22200 00209
BBXX 44099 26181 99369 70757 46/// ///// 1//// 91822 22200 00119 10402 20402 70012
BBXX 44039 26181 99411 70727 46/// /3011 10065 21031 40214 91753 22200 00088 10402 70010 333 91214
BBXX 46236 26181 99368 71219 46/// ///// 1//// 91820 22200 00122 11404 21002 328// 41404 70021
BBXX 46213 26181 99403 71247 46/// ///// 1//// 91824 22200 00099 11508 21004 329// 41507 70040
BBXX 46225 26181 99329 71174 46/// ///// 1//// 91814 22200 00149 11302 21001 326// 41301 70008
BBXX 46217 26181 99342 71194 46/// ///// 1//// 91812 22200 00146 11302 20701 327// 41301 70009
BBXX 46243 26181 99462 71241 46/// ///// 1//// 91829 22200 00088 11406 21004 326// 41405 70031
BBXX 46215 26181 99352 71209 46/// ///// 1//// 91808 22200 00130 11504 20803 326// 41503 70021
BBXX 46004 26181 99509 71361 46/// /2614 10065 49925 52035 22200 00074 11212 70059 333 91219
BBXX 46246 26181 99500 71451 46/// ///// 1//// 91759 22200 00070 11112 21008 330// 41108 70058
BBXX 46246 26181 99500 71451 46/// ///// 1//// 91829 22200 00070 11113 21009 331// 41108 70064
BBXX 46247 26181 99378 71228 46/// ///// 1//// 91821 22200 00111 11404 21002 329// 41403 70021
BBXX 46232 26181 99325 71174 46/// ///// 1//// 91808 22200 00147 11302 20901 326// 41302 70011
BBXX 46184 26181 99539 71389 46/// /2717 10036 49805 52034 22200 00063 11009 70046 333 91221
BBXX 46181 26181 99538 71288 46/// /2200 10007 40066 57026 22200 00032 10300 70000 333 91200
BBXX 46092 26181 99368 71220 46/// /0802 10084 40266 52015 91757 22200 00124 555 11021 22021
BBXX 44059 26181 99368 70763 46/// /3505 1//// 40254 91810 333 91208
BBXX 44059 26181 99368 70763 46/// /3405 10090 40255 58009 91800 22200 00108 333 91208
BBXX 44058 26181 99376 70763 46/// /3009 10083 40261 50000 91800 22200 00092 10301 70005 333 91211
BBXX 44057 26181 99395 70761 46/// /3207 1//// 40258 91810 333 91212
BBXX 44058 26181 99376 70763 46/// /3109 1//// 91820 333 91211
BBXX 44057 26181 99395 70761 46/// /3407 10071 40255 51009 91800 22200 00060 333 91209
BBXX 44057 26181 99395 70761 46/// /3206 1//// 91820 333 91209
BBXX 44059 26181 99368 70763 46/// /3406 1//// 91820 333 91209
BBXX WDA2768 26184 99458 70871 43/// /0323 00/// 10023 21017 40120 57047 7//// 8//// 22200 0//// 2//// 3//// 4//// 5//// 6//// 80007 ICE /////
BBXX 44043 26181 99392 70764 46/// /3106 10076 40258 51006 91800 22200 00068 10301 70004 333 91208
BBXX 44043 26181 99392 70764 46/// /3206 1//// 40259 91810 333 91207
BBXX 44042 26181 99380 70763 46/// /3109 10082 40261 50000 91800 22200 00086 10301 70007 333 91211
BBXX 44043 26181 99392 70764 46/// /3206 1//// 91820 333 91208
BBXX 44042 26181 99380 70763 46/// /3109 1//// 40261 91810 333 91211
BBXX 44062 26181 99386 70764 46/// /3208 10078 40254 50000 91800 22200 00085 10201 70005 333 91210
BBXX 44062 26181 99386 70764 46/// /3208 1//// 40253 91810 22200 00085 333 91210
BBXX 44063 26181 99390 70764 46/// /3107 1//// 91820 333 91209
BBXX 44063 26181 99390 70764 46/// /3207 1//// 40272 91810 333 91209
BBXX 44041 26181 99372 70768 46/// /3306 1//// 91820 333 91207
BBXX 44063 26181 99390 70764 46/// /3308 10078 40272 51005 91800 22200 00082 1//00 70002 333 91210
BBXX 44041 26181 99372 70768 46/// /3505 1//// 40285 91810 333 91208
BBXX 44041 26181 99372 70768 46/// /3405 10090 40286 58013 91800 22200 00097 1//00 70002 333 91207
BBXX 44042 26181 99380 70763 46/// /3109 1//// 91820 333 91211
BBXX 44062 26181 99386 70764 46/// /3107 1//// 91820 22200 00085 333 91210
BBXX LAXP4 26184 99262 70523 41698 22406 10260 2020/ 40197 57015 70100 82180 22253 00210 20201 330// 40503 80215 NNNN
BBXX A8CJ2 26184 99223 70774 41498 40522 10250 20214 40200 56015 70300 84100 22274 04261 20503 309// 41004 5//// 80225
BBXX PHHD 26181 99435 70593 41596 73017 10070 20049 40120 58041 71911 81576 22243 04050 20803 399// 40703 80060
BBXX 46205 26181 99542 71343 46/// /1913 10078 49837 57012 22200 00075 11215 70075 333 91217
BBXX 46132 26181 99497 71279 46/// /1416 10077 40141 57021 22200 00086 11309 70044 333 91220
BBXX 46206 26181 99488 71260 46/// /1611 10082 40211 57009 22200 00078 11207 70033 333 91213
BBXX WRAH 26183 99263 70721 41898 29902 10260 2//// 40195 56007 70111 82100 22264 00250 20100 312// 41105 5//// 6//// 8//// ICE /////
BBXX 46185 26181 99524 71298 46/// /1623 10062 40012 57043 22200 00073 11115 70075 333 91229
BBXX WDE2719 26183 99607 71514 41/97 80335 11078 2//// 49880 54/// 702// 8//// 222// 01022 2//01 333// 4//01 5//// 6//// 8//// ICE /////
BBXX WXJ63 26183 99611 71464 41/97 82205 11020 21098 49855 5//// 702// 8//// 222// 00039 2//// 3//// 4//// 5//// 6//// 8//// ICE /////
BBXX 46114 26181 99364 71222 46/// ///// 1//// 91804 22200 00124 11506 20902 329// 41505 70029
BBXX 46221 26181 99339 71186 46/// ///// 1//// 91745 22200 00150 11302 21001 326// 41301 70009
BBXX 46242 26181 99332 71174 46/// ///// 1//// 91758 22200 00141 11501 21001 321// 41501 70006
BBXX 44040 26181 99410 70736 46/// /3308 10070 21032 40221 91815 22200 10301 70005 333 91211 555 11098 22113
BBXX 44098 26181 99428 70702 46/// ///// 1//// 91807 22200 00085 10402 20402 70011
BBXX 41036 26181 99342 70770 46/// ///// 10111 20005 40257 91820 22200 00185
BBXX 44029 26181 99425 70706 46/30 /3209 10035 40174 53015 91804 22200 00081 10402 70010 333 91211 555 11107 22113
BBXX 44030 26181 99432 70704 46/// /3108 1//// 40169 51010 91804 22200 00080 10301 70006 333 91210 555 11097 22104
BBXX 44022 26181 99409 70737 46/// ///10 10065 21035 40216 91815 22200 00084 333 91214 555 11108 22113
BBXX C6VF5 26184 99390 10194 41597 21223 10120 2004/ 40280 56020 7//00 82100 22234 00180 2//// 3//// 4//// 5//// 6//// 80080 ICE /////
BBXX SKOZ 26184 99536 70247 43/97 73313 10035 40208 53019 22233 00103 2//// 4////
BBXX C6XC6 26184 99077 70829 41897 62609 10278 2//// 40090 57020 70322 863// 22272 00280 2//// 3//// 4//// 5//// 6//// 8//// ICE /////
BBXX A8MH2 26184 99151 31454 41/97 42709 10270 40050 54000 70100 83144 22244 20201 30000 40000 50000
BBXX V2OG2 26183 99224 31064 41798 22017 10231 20199 40126 56003 70200 82100 22273 20403 318// 40504 80209
BBXX 9HA2479 26184 99243 31642 46/// /3041 10241 20217 39939 49968 57007 22254 04253 85224
BBXX VROB 26184 99268 31534 46/// /3307 10234 20189 30028 40053 57008 22273 04247 85203
BBXX VRWW8 26184 99283 31701 41/97 80624 10225 20211 40035 56018 70002 8//// 22273 00230 2//05 325// 4//// 5//// 80215
BBXX C6FS9 26184 99342 31343 46/// /1911 10171 20132 30134 40171 57001 22273 04188 85147
BBXX VNAH 26184 99385 31411 46/// /2413 10153 20086 30113 40137 57001 22223 04176 85116
BBXX A8KO3 26180 99366 31268 41298 72308 10190 20175 40180 54000 70322 862// 22264 00170 20401 80180
BBXX V7FS3 26183 99017 11025 41/97 /0417 10290 40080 50/// 703// 8/441 22234 00280 2//// 3//// 4//// 5////
AAXX 26184 91723 NIL
AAXX 26184 91964 36/// /0910 10234 20213 40209 52003
AAXX 26184 89528 46/// /3335 11202 36671 4//// 5////
OOXX AAEMI 26184 99785 31731 57083 00521 46/// /3105 11025 21067 39820 49884 5//// 91750
OOXX AABRI 26184 99839 51342 60134 05251 46/// /0408 11056 21157 39237 49856 5//// 91740
BBXX A8CS2 26183 99277 10437 41998 00112 10200 20130 40230 52010 70200 80000 22234 2//// 3//// 4//// 5//// 80160
BBXX V7DS3 26183 99299 11687 41/98 /2422 10220 20212 40130 54000 70311 8/778 22223 06220 20606 80215
BBXX 46004 26181 99509 71361 46/// /2614 10065 49925 52035 22200 00074 11212 70059 333 91219
BBXX 46036 26181 99484 71339 46/// /2211 10094 40013 52022 22200 00081 11112 70060 333 91213
BBXX 46181 26181 99538 71288 46/// /2200 10007 40066 57026 22200 00032 10300 70000 333 91200
BBXX 46185 26181 99524 71298 46/// /1623 10062 40012 57043 22200 00073 11115 70075 333 91229
BBXX 46204 26181 99514 71288 46/// /1018 10059 40072 57029 22200 00083 10710 70051 333 91222
BBXX 46205 26181 99542 71343 46/// /1913 10078 49837 57012 22200 00075 11215 70075 333 91217
BBXX 46206 26181 99488 71260 46/// /1611 10082 40211 57009 22200 00078 11207 70033 333 91213
BBXX KS098 26184 99446 71241 43/// /0404 10044 40266 22200 06000
BBXX OZDL2 26184 99427 71495 41/98 /3112 10120 20062 40130 7//// 8//// 22224 00080 20202 309// 40204 80090
BBXX WAZV 26184 99566 71424 41497 81824 10050 20030 49635 57050 70222 887// 22273 00050 20706 313// 41009 5//// 6//// 80040 ICE /////
BBXX 7JJA 26184 99338 11387 41697 53136 00 10070 20000 40220 52050 70711 848// 9//// 22253 0 2//06 331 4//04 5 6//// 80040 ICE /////
BBXX C6SI4 26184 99352 11407 41496 33432 10020 21070 40210 5//// 70111 83/8/ 22253 00120 21406 334// 4//// 5//// 6//// 81010 ICE /////
BBXX DGXS 26184 99433 11433 41598 52924 10000 21042 40082 58008 70122 854// 22214 00040 20805 3//// 4//// 5//// 81015
BBXX SHIP 26184 99314 11279 41697 83315 10080 20037 40312 5/009 70222 8759/ 22283 00198 80060
BBXX SHIP 26184 99310 11480 41/97 72926 10130 20123 40169 50004 70121 8//// 91750 22224 00200 2//// 3//// 4//// 5//// 80120
BBXX 44137 26181 99423 70620 46/// /0705 10091 40086 57027 22200 00096 10702 70009 333 91206
BBXX 44137 26181 99423 70620 46/// /0705 10091 40086 57027 22200 00096 10702 70009 333 91206
AAXX 26184 71490 16/// /3020 11298 21325 39815 40159 53007 60001 333 11279 21339 70000
AAXX 26184 71923 16/// ///10 11324 21353 39692 40168 51014 60001 333 11315 21338 70000
AAXX 26184 71592 16/// /0610 11243 21293 39926 49940 53009 60001 333 11222 21320 70000
AAXX 26184 71049 46/// /3116 11301 39972 49997 58001 6///1 333 11301 21325 7////
AAXX 26184 71963 16/// /2711 11307 21337 39752 40184 53015 60001 333 11297 21371 70000
OOXX AAERI 26184 99849 51288 60048 09901 46/// /0814 11075 21109 38776 49893 5//// 91750
OOXX AALAU 26184 99775 31708 57070 00371 46/// ///02 11008 21086 39794 49839 5//// 91750
OOXX AAERC 26184 99815 31639 60713 00451 46/// /1714 11022 21034 39767 49822 52004 91740
OOXX AAMIZ 26184 99707 30443 58304 22602 46/// /1206 11200 2//// 37452 49725 5//// 91750
OOXX AAVIT 26184 99785 31778 57087 00501 46/// /3207 11052 21060 39798 49860 5//// 91750
OOXX AAPEG 26184 99779 31666 57186 00051 46/// /0205 11008 21054 39830 49836 52002 91750
BBXX BATFR56 26184 99032 30822 46/// /2622 10252 20250 40111 56015 22213 00287
BBXX ONCE 26184 99049 31076 41497 83314 10270 2024/ 40120 5//// 70298 887// 22214 00295 2//// 3//// 4//// 5//// 6//// 80250 ICE /////
BBXX PDKK 26183 99054 30013 41698 31512 10242 20217 40112 53010 70200 83400 22271 20501 318// 41503 80225
BBXX BATFR19 26184 99067 30055 46/// /1916 10239 20209 40119 53009 22200 00254
BBXX BATFR55 26184 99105 30470 44598 31012 10279 20252 40118 70111 82241 22222 00287 208// 33131 410// 510//
BBXX BATFR08 26184 99202 30573 46/// /0811 10262 20212 40142 58007 22283 00274
BBXX ZIPR7 26183 99229 30557 41598 61017 10250 20198 40156 57001 71511 865// 22214 00264 2//// 3//// 4//// 5//// 80216
BBXX TBWUK42 26184 99246 30562 41598 20911 10245 20191 40169 53011 70200 82100 22213 20403 3//// 4//// 5//// 80210
BBXX A8KH9 26184 99275 30465 41598 41023 10220 20220 40155 51160 70322 84442 22224 02200 20102 30102 40204 50306 80220
BBXX A8IQ2 26181 99313 30332 41498 60709 10245 20194 40195 57020 70322 8/872 22253 06250 20605 322// 40705 5//// 80210
BBXX DBBT 26181 99339 30184 46/// /3202 10189 20161 40128 52015 22220 00144
BBXX 3FMV6 26183 99344 30270 41597 80433 10250 20235 40077 52010 70322 86770 22223 06252 20609 80240
AAXX 26184 64500 42360 82406 10275 20239 30079 40092 885// 333 10295 58000 83608 88630
AAXX 26184 64501 32360 82010 10266 20237 3//// 4//// 885// 333 10290 5//// 83608 88630
AAXX 26184 64550 32458 8//// 10259 20232 30/// 40/// 885// 333 10300 5//// 84611 88616
AAXX 26184 64551 32460 73606 10295 20238 30069 40098 8353/ 333 10310 59005 83610 86360
AAXX 26184 64570 11458 60000 10217 20210 39600 40110 60022 72896 83510 333 10295 59001 83613 86460
BBXX A8CS2 26183 99277 10437 41998 00112 10200 20130 40230 52010 70200 80000 22234 2//// 3//// 4//// 5//// 80160
BBXX ZCDQ5 26183 99342 10291 43498 10311 10110 20100 40270 54000 70001 4777/ 22234 00100 20201 3//// 4//// 5//// 80110
BBXX 44138 26181 99443 70536 46/// /1408 10041 40177 57019 22200 00090 11103 70015 333 91210
BBXX 44138 26181 99443 70536 46/// /1408 10041 40177 57019 22200 00090 11103 70015 333 91210
AAXX 26181 31152 42997 00000 11431 21462 39909 40386 53003
AAXX 26181 31163 NIL
AAXX 26181 31285 NIL
AAXX 26181 31561 42999 00000 11237 21250 30241 40272 53006
AAXX 26181 31683 41699 63202 11099 21146 30116 40193 53006 70272 86500
AAXX 26181 32010 41495 83206 11049 21052 30088 40137 53009 78583 889// 333 88913 91011 91114
AAXX 26184 41263 36/// /0000 10182 21017 39492 40184 333 0E018 10281 58006
AAXX 26181 13262 32997 00000 11001 21025 30248 40405 52016 333 10062
AAXX 26181 37832 32997 70000 10043 20026 40326 52001 87/20 333 10054
AAXX 26181 37729 41496 82004 11021 21024 38569 52011 77177 887// 333 10035 53004
AAXX 26181 37470 32596 82001 10049 20015 30328 40305 57003 885// 333 10072
AAXX 26181 37472 31996 82501 10024 20001 30329 40306 58002 71022 8007/ 333 10049
AAXX 26181 38111 32697 82103 10048 20012 30334 40305 58004 885// 333 10031
AAXX 26181 38750 22597 80000 10057 20040 30336 40307 52005 885// 333 60030 10068
AAXX 26184 83437 32599 60505 10306 20190 39390 40097 83204 333 59003
AAXX 26184 83579 21599 63602 10202 20180 39018 40139 70362 87700 333 58014 60011
AAXX 26184 83592 32597 63606 10271 20197 39460 40134 84262 333 58013
AAXX 26184 94210 35/// /2616 10290 30032 40037 57014
AAXX 26184 94289 46/// /3612 10284 30051 40058 56009 91815
AAXX 26184 94379 46/// /3115 10267 30046 40055 55005 91826
AAXX 26184 83766 32597 61402 10300 20200 39510 40153 5//// 86800
AAXX 26184 83836 21497 80904 10216 20172 39187 40158 58015 70362 888// 333 69921
AAXX 26184 83881 32497 53204 10316 20202 39840 40121 58018 85200
AAXX 26184 83980 31596 40510 10280 20178 39880 40157 57019 70511 84200
AAXX 26184 83997 32597 30917 10235 20156 30171 40215 57013 83200
AAXX 26184 82106 21597 81404 10302 20263 3//// 4//// 70352 8429/ 333 5//// 69961
AAXX 26184 82113 32696 30504 10325 20241 3//// 4//// 82440 333 5////
AAXX 26184 82212 21697 71402 10288 20230 30034 40116 70362 886// 333 58011 60101
AAXX 26184 82336 32598 70502 10318 20241 3//// 4//// 83173 333 5////
AAXX 26184 82533 32297 61802 10290 20237 3//// 4//// 86600 333 5////
AAXX 26184 82704 32896 80000 10263 20224 39894 40088 8807/ 333 58008
AAXX 26184 82723 32197 70502 10277 20234 30058 40140 87700 333 58016
AAXX 26184 91532 45/// /0606 10266 20233 30085 40093 52001
AAXX 26184 82042 32698 50504 10317 20268 3//// 4//// 83400 333 5////
AAXX 26184 82240 32596 40000 10312 20243 3//// 4//// 82230 333 5////
AAXX 26184 82317 21193 60000 10254 20231 3//// 4//// 75152 86700 333 5//// 69911
AAXX 26184 82610 32595 80000 10283 20242 3//// 4//// 887// 333 5////
AAXX 26184 82807 32295 83602 10285 20233 3//// 4//// 887// 333 5////
AAXX 26184 94290 46/// /3516 10280 30051 40060 56009 91824
AAXX 26184 94290 46/// /3516 10280 30051 40060 56009 91824
BBXX 4XFB 26184 99332 10320 41498 33406 10170 20120 40240 54000 70300 83100 22234 00190 20401 3//// 4//// 5//// 80130
BBXX ZCAO7 26184 99114 11269 41/97 80925 10242 20232 40085 57014 70382 8//// 22243 00297 2//// 80235
BBXX 3FMH7 26184 99315 71666 41598 32520 00/// 10210 20195 40226 53003 70311 82139 9//// 22263 00210 1//// 20403 330// 41207 5//// 6//// 80200
AAXX 26181 55228 32980 02901 11085 21269 36005 52007 333 05106 11014
AAXX 26181 55578 32980 00000 11094 21231 36365 52009 333 00052 10068
AAXX 26181 55664 32980 00000 11110 21222 36007 52006 333 00052 10034
AAXX 26181 55773 32970 03601 11114 21242 36022 57003 333 00053 10009
AAXX 26181 56116 32680 20000 11078 21148 36345 52005 81102 333 00051 10041
AAXX 26181 56137 32980 02902 11046 21192 36803 52008 333 00152 10097
AAXX 26181 56172 32980 02201 11036 21094 37337 52011 333 00000 10113
AAXX 26181 56247 32980 01103 10056 21190 37433 52012 333 00201 10177
AAXX 26181 56312 32680 81602 10016 21154 37113 52004 884// 333 00005 10099
AAXX 26181 56462 32980 03201 11028 21106 37138 52007 333 00051 10151
AAXX 26181 56651 32980 00902 10011 21020 37660 52001 333 00156 10138
AAXX 26181 56691 31359 81402 10024 20018 37785 57002 71000 886// 333 05103 10028
AAXX 26181 56985 32560 71603 10086 20040 38752 40218 52003 874// 333 00001 10145
AAXX 26181 57633 32762 83601 10046 21060 39496 40298 57003 885// 333 05100 10063
AAXX 26181 57902 31458 83601 10043 20020 38671 40247 57004 71000 885// 333 05151 10077
AAXX 26181 55279 32980 01605 11128 21236 35685 57002 333 05100 11028
AAXX 26181 55472 32980 00000 11149 21314 35721 52002 333 00052 11015
AAXX 26181 55696 32980 01603 11018 21266 36357 57001 333 00004 10061
AAXX 26181 56079 32780 33201 11033 21133 36669 52009 83500 333 00202 10062
AAXX 26181 56106 32680 52701 11059 21146 36198 52001 85900 333 05103 10023
AAXX 26181 56257 32980 02901 11038 21201 36278 52005 333 00151 10062
AAXX 26181 56374 32480 81802 11031 21084 37428 57002 884// 333 05102 10018
AAXX 26181 56385 31/00 93201 11070 21073 37001 57003 74944 333 05102 11046
AAXX 26181 56954 11559 80401 10129 20124 40204 57002 69901 71080 884// 333 00152 10178
AAXX 26181 56966 32765 81103 10156 20058 40214 52005 885// 333 00001 10187
AAXX 26181 57237 32965 80000 10045 21005 40284 52002 8807/ 333 10087
AAXX 26181 57306 31958 83201 10064 20049 40281 52001 71000 8807/ 333 10088
AAXX 26181 57604 31730 83401 10066 20059 40272 57002 71000 885// 333 10075
AAXX 26181 57707 31350 80000 10006 20002 38527 57005 71000 886// 333 05200 10011
AAXX 26181 57832 32664 80402 10047 21038 39528 40286 52002 885// 333 05101 10070
AAXX 26181 31285 42999 20000 11282 21307 30225 40314 54000 80001
AAXX 26181 38334 31495 82902 11010 21016 39278 40252 52009 77372 8802/ 333 10020
AAXX 26181 38439 11596 83403 11006 21015 39923 40269 52008 69900 77177 8802/ 333 10042
AAXX 26181 38328 315// 83302 11015 21017 39523 40267 52012 78584 889// 333 10044
AAXX 26181 38196 11498 81401 11051 21068 39258 40268 52009 69960 70272 885// 333 11012
AAXX 26181 38198 129// 32902 11066 21078 30019 40289 52017 69900 83040 333 10025
AAXX 26181 38334 31495 82902 11010 21016 39278 40252 52009 77372 8802/ 333 10020
AAXX 26181 38198 129// 32902 11066 21078 30019 40289 52017 69900 83040 333 10025
AAXX 26181 38328 315// 83302 11015 21017 39523 40267 52012 78584 889// 333 10044
AAXX 2618/ 48969 NIL
AAXX 2618/ 48962 NIL
AAXX 2618/ 48990 NIL
AAXX 2618/ 48986 NIL
AAXX 2618/ 48995 NIL
AAXX 2618/ 48967 NIL
AAXX 2618/ 48992 NIL
AAXX 2618/ 48965 NIL
AAXX 2618/ 48985 NIL
AAXX 2618/ 48970 NIL
AAXX 2618/ 48991 NIL
AAXX 2618/ 48964 NIL
AAXX 2618/ 48997 NIL
AAXX 2618/ 48968 NIL
AAXX 2618/ 48973 NIL
AAXX 2618/ 48966 NIL
AAXX 2618/ 48983 NIL
AAXX 2618/ 48972 NIL
AAXX 2618/ 48998 NIL
AAXX 2618/ 48993 NIL
AAXX 2618/ 48971 NIL
AAXX 2618/ 48963 NIL
AAXX 2618/ 48987 NIL
AAXX 26184 71981 16/// /2709 10029 21113 60001 333 10029 21051 70000
AAXX 26184 71982 16/// /2402 10010 21116 60001 333 10028 21073 70000
AAXX 26184 71986 16/// /3121 10015 21072 60001 333 10041 21015 70000
AAXX 26184 71990 17/// /3501 11214 21236 38427 40076 58006 60021 7//4/ 333 11143 21255 70084 555 10150
AAXX 26184 71048 16/// /3029 10027 21086 60001 333 10041 20007 70000
AAXX 26184 71277 46/// /2307 11011 21072 6///1 333 10028 7////
AAXX 26184 71354 16/// /3211 10003 21027 60001 333 10045 20001 70000
AAXX 26184 71406 17/// /2027 11029 21033 30076 40086 56015 69981 7//4/ 333 11026 21102 70008
AAXX 26184 71418 46/// /1812 10006 21023 30090 40123 56015 6///1 333 10006 21064 7////
BBXX FLAO 2618/ 99764 70847 46/// ///// 11253 49989 52004
AAXX 26181 78458 32566 50805 10282 20222 40184 57025 85700 333 10285 20195 30/// 56200 59013 85625
AAXX 26181 78460 31458 70905 10260 20199 40179 57021 71520 85530 333 10270 20171 30/// 56210 59011 85618 84357
AAXX 26181 78467 21566 40905 10264 20222 40180 57011 70181 84200 333 10277 20200 31/// 56200 59012 69916 84820
AAXX 26181 78479 31458 70703 10250 20216 40158 57014 71666 85270 333 10275 20215 31/// 56100 59014 85818 87457
AAXX 26181 78482 32566 51305 10290 20198 40178 57030 82250 333 10305 20185 30/// 56400 59012 82823 85360
AAXX 26181 78485 31558 60403 10276 20204 40162 57032 71662 86830 333 10280 20194 30/// 56100 59012 86620
AAXX 26181 78486 31566 43302 10274 20217 40152 57026 70161 84200 333 10282 20215 31/// 56300 59009 84822
AAXX 26181 78488 32566 50205 10274 20219 40170 57022 85200 333 10280 20180 30/// 56100 59016 85822
AAXX 26181 78458 32566 50805 10282 20222 40184 57025 85700 333 10285 20195 30/// 56200 59013 85625
AAXX 26181 78460 31458 70905 10260 20199 40179 57021 71520 85530 333 10270 20171 30/// 56210 59011 85618 84357
AAXX 26181 78467 21566 40905 10264 20222 40180 57011 70181 84200 333 10277 20200 31/// 56200 59012 69916 84820
AAXX 26181 78479 31458 70703 10250 20216 40158 57014 71666 85270 333 10275 20215 31/// 56100 59014 85818 87457
AAXX 26181 78482 32566 51305 10290 20198 40178 57030 82250 333 10305 20185 30/// 56400 59012 82823 85360
AAXX 26181 78485 31558 60403 10276 20204 40162 57032 71662 86830 333 10280 20194 30/// 56100 59012 86620
AAXX 26181 78486 31566 43302 10274 20217 40152 57026 70161 84200 333 10282 20215 31/// 56300 59009 84822
AAXX 26181 78488 32566 50205 10274 20219 40170 57022 85200 333 10280 20180 30/// 56100 59016 85822
BBXX 41052 26181 99183 70648 46/// /0706 10264 40150 57022 91800 22200 00270 10702 70008 333 91207
BBXX 41053 26181 99185 70661 46/// /0706 10265 40156 91830 333 91207
BBXX 41053 26181 99185 70661 46/// /0706 10265 40156 91820 333 91207
BBXX 41053 26181 99185 70661 46/// /0706 10264 40157 91810 333 91208
BBXX 42085 26181 99179 70665 46/// /1108 10273 40146 91830 333 91210
BBXX 42085 26181 99179 70665 46/// /1108 10274 40147 91820 333 91210
BBXX 42085 26181 99179 70665 46/// /1107 10273 40148 91810 333 91210
AAXX 26184 65001 31940 70000 10270 20156 3//// 4//// 70522 80008 333 10350 5//// 87280
AAXX 26184 65101 31956 73407 10293 20134 39707 40091 70522 80008 333 10342 59002 87280
AAXX 26184 65123 12960 73508 10290 20084 30068 40086 60001 80008 333 10347 59006 87280
AAXX 26184 65145 31962 70905 10290 20120 3//// 4//// 70522 80007 333 10335 5//// 87280
AAXX 26184 65213 12962 71605 10307 20221 3//// 4//// 60001 80008 333 10344 5//// 87280
AAXX 26184 65215 12962 70000 10298 20191 3//// 4//// 69991 80008 333 10350 87280
AAXX 26184 65112 31956 72504 10296 20078 3//// 4//// 70522 80008 333 10348 5//// 87280
AAXX 26184 65205 32958 73605 10296 20257 3//// 40091 80008 333 10313 58005 87280
BBXX 44056 26181 99362 70757 46/// ///// 1//// 91750 22200 00119 10603 20603 70016
AAXX 26184 89657 46/// /1504 11040 20039 49923 54001
AAXX 26181 13383 31996 60000 11010 21022 30186 40401 52009 71000 86070 333 10036
BBXX PBHZ 26183 99464 70358 41497 62910 10079 20017 40141 56017 70211 85860 22213 04165 20301 33507 40904 51402 80051
AAXX 26184 89332 46/// ///02 10001 39234 49833 5//// 91750
AAXX 26184 89667 46/// /0205 11008 39830 49840 52002 91750
AAXX 26184 89734 46/// /3112 11264 36000 4//// 52003 91750
AAXX 26184 89744 46/// /3405 11261 36433 4//// 52003 91750
AAXX 26184 89769 46/// /0803 11014 39778 49830 5//// 91750
AAXX 26184 89799 46/// /3108 11234 36768 4//// 57001 91750
AAXX 26184 89832 46/// /0519 11020 39372 49659 5//// 91750
AAXX 26184 89834 46/// /1228 11102 37980 4//// 52006 91750
AAXX 26184 89865 46/// ///// 10022 3//// 4//// 5//// 91750
AAXX 26184 89869 46/// /2709 11010 39741 49818 52003 91750
AAXX 26184 89872 46/// /0403 11034 39782 49838 5//// 91750
AAXX 26184 89879 46/// /0000 10004 39770 49807 5//// 91750
BBXX A8RL4 26184 99304 50151 41496 82222 10190 40140 57020 7//// 886// 22233 00190 20302 319// 40502
AAXX 26184 83384 32597 51401 10306 20210 39531 40099 83630 333 59004
AAXX 26184 83386 32598 60506 10317 20201 39564 40084 82346 333 59004
AAXX 26184 83388 32497 70908 10308 20175 39425 40079 865/1 333 58014
AAXX 26184 83393 32599 33602 10310 20177 39408 40115 82311 333 58006
AAXX 26184 83442 32597 60000 10330 20198 39752 40090 81156 333 58009
AAXX 26184 83479 31598 82304 10236 20201 39331 40124 75095 889// 333 58011
AAXX 26184 83483 32597 61401 10320 20209 39545 40099 82242 333 58008
AAXX 26184 83531 21597 82303 10192 20185 39099 40138 72996 889// 333 58008 60091
AAXX 26184 83538 31596 60000 10241 20147 38718 40091 70542 86200 333 58005
AAXX 26184 83574 32794 70902 10308 20195 39572 40172 5//// 87400
AAXX 26184 83582 32597 80502 10266 20211 39355 40116 57004 88700
AAXX 26184 83595 32597 71802 10310 20194 30048 40132 8575/ 333 58020
AAXX 26184 83692 21694 82304 10193 20191 39118 40152 53004 72162 882// 333 69941
AAXX 26184 83811 32497 81402 10242 20174 39258 40157 58010 8427/
AAXX 26184 83844 21596 814// 10216 20202 30176 40183 5//// 75165 8572/ 333 60071
AAXX 26184 83887 32597 70510 10230 20161 39126 40173 57014 87500
AAXX 26184 83907 32497 52304 10323 20208 39857 40135 58020 85200
AAXX 26184 83914 31596 60508 10294 20162 39384 40139 57012 70510 86200
AAXX 26184 83919 31595 60906 10210 20149 39009 40188 57006 71521 86500
AAXX 26184 83927 32597 40502 10282 20197 30070 40142 57010 84200
AAXX 26184 83936 31496 61406 10310 20180 30038 40158 57018 70541 86200
AAXX 26184 83948 31596 80506 10235 20171 30194 40200 57010 70522 888//
AAXX 26184 83964 32597 41402 10247 20162 39688 40177 57010 84200
AAXX 26184 83995 32497 20914 10246 20141 30146 40149 58020 82100
BBXX 42360 26181 99267 70905 46/// /2102 10242 91800 22200 00248 10602 70009 333 91202
BBXX 41033 26181 99323 70804 46/// /0609 10131 40258 58013 91800 555 11115 22137
BBXX 44024 26181 99423 70659 46/24 /3506 10062 40105 53008 91804 22200 00082 10502 70012 333 91207 555 11068 22071
BBXX WHKM 26184 99018 30674 41197 12313 10270 20243 40120 52010 7//00 814// 22233 0//// 2//// 3//// 4//// 5//// 6//// 80250 ICE /////
BBXX ZCAO7 26184 99114 11269 41/97 80925 10242 20232 40085 57014 70382 8//// 22243 00297 2//// 80235
BBXX V7DS3 26183 99299 11687 41/98 /2422 10220 20212 40130 54000 70311 8/778 22223 06220 20606 80215
BBXX WHKM 26184 99018 30674 41197 12313 10270 20243 40120 52010 7//00 814// 22233 0//// 2//// 3//// 4//// 5//// 6//// 80250 ICE /////
BBXX A8CS2 26183 99277 10437 41998 00112 10200 20130 40230 52010 70200 80000 22234 2//// 3//// 4//// 5//// 80160
BBXX 4XFB 26184 99332 10320 41498 33406 10170 20120 40240 54000 70300 83100 22234 00190 20401 3//// 4//// 5//// 80130
BBXX ZCDQ5 26183 99342 10291 43498 10311 10110 20100 40270 54000 70001 4777/ 22234 00100 20201 3//// 4//// 5//// 80110
BBXX MYSU5 26184 99535 10052 41/98 72836 10095 20074 40314 56005 70222 8//// 22223 00080 20504 3//// 4//// 5//// 80085
BBXX 62301 26184 99524 70048 46/// ///20 1//// 2//// 40300 58001 22200 00087 106//
BBXX 62094 26184 99517 70067 46/// /2221 10110 20081 4//// 55040 22200 00107 10606 70030 333 90710 91131
BBXX 62095 26184 99531 70159 46/// /3110 10091 20040 40214 52039 22200 00110 10911 70054
BBXX 2AUO5 26183 99608 10018 41/96 /2438 10101 49965 53002 76366 8//// 22251 20416 324// 41016
BBXX 62305 26184 99504 10000 46/98 /2419 10113 20076 40371 51009 22200 00119 10601 70007
BBXX ZCBU3 26184 99420 31636 41398 30230 10165 20142 40111 50004 70311 8314/ 22274 00160 20402 305// 40504 5//// 80152
BBXX ZCBU3 26184 99420 31636 41398 30230 10165 20142 40111 50004 70311 8314/ 22274 00160 20402 307// 40504 5//// 80152
BBXX V7FS3 26183 99017 11025 41/97 /0417 10290 40080 50/// 703// 8/441 22234 00280 2//// 3//// 4//// 5////
BBXX 44056 26181 99362 70757 46/// ///// 1//// 91750 22200 00119 10603 20603 70016
BBXX 41053 26181 99185 70661 46/// /0706 10264 40157 91810 333 91208
BBXX 41053 26181 99185 70661 46/// /0706 10265 40156 91830 333 91207
BBXX 42085 26181 99179 70665 46/// /1108 10273 40146 91830 333 91210
BBXX 42085 26181 99179 70665 46/// /1107 10273 40148 91810 333 91210
BBXX 42085 26181 99179 70665 46/// /1108 10274 40147 91820 333 91210
BBXX 41053 26181 99185 70661 46/// /0706 10265 40156 91820 333 91207
BBXX 41052 26181 99183 70648 46/// /0706 10264 40150 57022 91800 22200 00270 10702 70008 333 91207
BBXX FLAO 2618/ 99764 70847 46/// ///// 11253 49989 52004
BBXX 3FMH7 26184 99315 71666 41598 32520 00/// 10210 20195 40226 53003 70311 82139 9//// 22263 00210 1//// 20403 330// 41207 5//// 6//// 80200
BBXX 44138 26181 99443 70536 46/// /1408 10041 40177 57019 22200 00090 11103 70015 333 91210
BBXX 44137 26181 99423 70620 46/// /0705 10091 40086 57027 22200 00096 10702 70009 333 91206
BBXX 46214 26181 99379 71235 46/// ///// 1//// 91823 22200 00124 11506 21003 329// 41505 70031
BBXX 46219 26181 99332 71199 46/// ///// 1//// 91828 22200 00137 11705 20703 331// 41704 70025
BBXX 46224 26181 99332 71175 46/// ///// 1//// 91806 22200 00141 11501 21001 319// 41501 70007
BBXX 44040 26181 99410 70736 46/// /3209 10070 21031 40220 91819 22200 10301 70005 333 91212 555 11108 22124
BBXX 44060 26181 99413 70721 46/// ///09 10060 40196 91830 22200 00101 333 91211 555 11098 22103
BBXX 44022 26181 99409 70737 46/// ///09 10066 21036 40219 91830 22200 00084 333 91212 555 11098 22103
BBXX 51205 26181 99210 71564 46/// ///// 1//// 91818 22200 00233 11306 20905 334// 41303 70028
BBXX 46239 26181 99363 71221 46/// ///// 1//// 91821 22200 00130 11507 20903 328// 41506 70033
AAXX 2618/ 89828 46/// ///// 11340 36520 4//// 5//// 91840
AAXX 26181 45032 36/// /9901 10104 20082 30234 40252 57001
AAXX 26181 45035 36/// /0203 10134 20097 30207 40251 54000
AAXX 26181 45039 36/// /0902 10150 20102 30235 40250 54000
AAXX 26181 45044 36/// /0808 10152 20103 30148 40243 57001
AAXX 26181 45032 36/// /9901 10104 20082 30234 40252 57001
AAXX 26181 45035 36/// /0203 10134 20097 30207 40251 54000
AAXX 26181 45039 36/// /0902 10150 20102 30235 40250 54000
AAXX 26181 45044 36/// /0808 10152 20103 30148 40243 57001
AAXX 26184 47420 17/70 /3223 11015 21066 30060 40094 51021 69901 70070
BBXX MTDU5 26183 99014 10898 41397 82215 10280 20259 40110 51015 70222 8/7// 22214 04288 20902 80265
BBXX 9MBW7 26184 99380 11388 41698 73035 10003 20/// 40160 54003 70303 87/// 22243 00140 2//// 80001
BBXX PCSV 26183 99309 30356 41597 61412 10220 20146 40225 58/// 70222 83175 22253 04232 20603 32013 40604 50804 80173
BBXX VRFX2 26184 99311 11314 41/98 30222 10070 20027 40280 54000 70200 83/// 22215 00180 2//// 80050
BBXX DDYL2 26183 99144 10529 41/98 /0516 10235 20183 40160 52015 70000 8//// 22264 00240 2//// 80200
BBXX 9MCN8 26184 99064 11152 41498 30228 10279 20253 40085 5//// 70121 81/// 22213 00290 2//// 80261
BBXX ELYP7 26184 99144 11197 41498 40717 10265 20235 40120 58010 70211 835// 22243 00/// 20804 80243
BBXX S6JT 26184 99541 71609 41597 73130 11030 21051 40045 51015 70222 848// 22264 04040 20804 80135
BBXX DGZS2 26183 99270 11214 41498 80722 10145 20081 40300 50/// 702// 8677/ 22254 00180 20603 80110
BBXX VRGW2 26184 99075 11094 41/96 80515 10260 20246 40112 58011 70200 8//// 22254 04270 21406 80250
BBXX A8HJ8 26183 99012 11034 41/96 /0210 10257 20233 40118 52008 70222 8//// 222// 00/// 20201 80240
BBXX A8RV7 26184 99098 11314 41/97 /0828 10280 20239 40090 55010 70222 8//// 22273 00300 20604 306// 40806 80250
BBXX TBWUK37 26183 99182 11200 41598 20132 10240 20176 40148 56010 70322 8214/ 22244 04280 21207 301// 41407 80200
BBXX MTDU5 26183 99014 10898 41397 82215 10280 20259 40110 51015 70222 8/7// 22214 04288 20902 80265
BBXX 9MBW7 26184 99380 11388 41698 73035 10003 20/// 40160 54003 70303 87/// 22243 00140 2//// 80001
BBXX PCSV 26183 99309 30356 41597 61412 10220 20146 40225 58/// 70222 83175 22253 04232 20603 32013 40604 50804 80173
BBXX VRFX2 26184 99311 11314 41/98 30222 10070 20027 40280 54000 70200 83/// 22215 00180 2//// 80050
BBXX DDYL2 26183 99144 10529 41/98 /0516 10235 20183 40160 52015 70000 8//// 22264 00240 2//// 80200
BBXX 9MCN8 26184 99064 11152 41498 30228 10279 20253 40085 5//// 70121 81/// 22213 00290 2//// 80261
BBXX ELYP7 26184 99144 11197 41498 40717 10265 20235 40120 58010 70211 835// 22243 00/// 20804 80243
BBXX S6JT 26184 99541 71609 41597 73130 11030 21051 40045 51015 70222 848// 22264 04040 20804 80135
BBXX DGZS2 26183 99270 11214 41498 80722 10145 20081 40300 50/// 702// 8677/ 22254 00180 20603 80110
BBXX VRGW2 26184 99075 11094 41/96 80515 10260 20246 40112 58011 70200 8//// 22254 04270 21406 80250
BBXX A8HJ8 26183 99012 11034 41/96 /0210 10257 20233 40118 52008 70222 8//// 222// 00/// 20201 80240
BBXX A8RV7 26184 99098 11314 41/97 /0828 10280 20239 40090 55010 70222 8//// 22273 00300 20604 306// 40806 80250
BBXX TBWUK37 26183 99182 11200 41598 20132 10240 20176 40148 56010 70322 8214/ 22244 04280 21207 301// 41407 80200
AAXX 26184 89062 41782 70318 10019 21013 39755 49795 52007 70270 8707/ 333 87356
AAXX 26184 71793 16/// ///// 10013 21091 60001 333 10041 21008 70000
AAXX 26184 71974 46/// /3117 11274 21297 30130 40174 51008 6///1 333 11217 21275 7////
AAXX 26184 71073 17/// /2004 11006 21100 69941 7//4/ 333 10028 21070 70004
AAXX 26184 89646 46/// /0112 11170 29092 37601 4//// 5////
AAXX 26184 89648 46/// /2505 11260 29063 37199 4//// 5////
AAXX 26184 89659 46/// /3116 11213 29071 37713 4//// 5////
AAXX 26184 89661 46/// ///03 10025 29017 39245 4//// 5////
AAXX 26184 89662 42980 02825 10052 21166 39747 49851 54000 222 ICE 98015 333 20042
AAXX 26184 89666 46/// /3404 10007 29046 39646 4//// 5////
AAXX 26184 71848 46/// ///// 10012 21081 6///1 333 10044 21025 7////
AAXX 26184 71565 16/// /0501 11039 21122 60001 333 10025 21075 70000
AAXX 26184 71566 16/// /2807 10011 21099 60001 333 10051 21013 7////
AAXX 26184 71567 16/// /3116 11022 21059 60001 333 10044 21073 70000
AAXX 26184 71399 16/// ///// 10018 21092 60001 333 10041 21005 70000
AAXX 26184 71495 16/// /2611 11008 21115 60001 333 10027 21057 70000
AAXX 26184 71012 16/// /3127 10016 21041 60001 333 10056 20000 70000
AAXX 26184 71060 16/// /2505 10000 21133 38625 40202 51012 60001 333 10003 21033 70000
AAXX 26184 94997 46/// ///// 10002 39864 49879 5////
AAXX 26184 94997 46/// ///// 10002 39864 49879 5////
AAXX 26181 89063 41/95 92002 10009 20009 39840 49851 53020 77372 333 44126
AAXX 26184 97700 32460 32204 10253 20246 30050 40064 57007 82201 333 56000 57804 82817 80850
AAXX 26184 97270 31450 50000 10258 20246 30076 40080 56011 70511 83131 333 56000 83815
AAXX 26184 89667 46/// /0305 11031 29067 39833 4//// 5//// 91830
AAXX 26184 89667 46/// /0205 11006 39831 4//// 5////
AAXX 2618/ 89667 46/// ///// 39833 4//// 5//// 91820
AAXX 2618/ 89667 46/// ///// 10007 39832 4//// 5//// 91810
AAXX 2618/ 89872 46/// ///// 11034 39789 4//// 5//// 91830
AAXX 2618/ 89866 46/// ///// 10001 39724 4//// 5//// 91830
AAXX 2618/ 89329 46/// ///// 11085 38746 4//// 5//// 91830
AAXX 2618/ 89799 46/// ///// 11240 4//// 5//// 91840
AAXX 2618/ 89327 46/// ///// 11020 39565 4//// 5//// 91830
AAXX 2618/ 89769 46/// ///// 11014 39814 4//// 5//// 91830
AAXX 2618/ 89879 46/// ///// 10004 39787 4//// 5//// 91830
AAXX 26184 89062 41782 70318 10019 21013 39755 49795 52007 70270 8707/ 333 87356
BBXX 63110 26184 99595 10015 47996 /2234 10107 20079 49999 56003 704// 22200 10810 70052
BBXX 63106 26184 99610 10017 46/// /2539 10102 49937 53007 22200
BBXX 63113 26184 99610 10017 46/// /2636 10103 20091 49968 53005 22200 10812 70062
BBXX 62081 26184 99510 70134 46/// ///// 10125 20102 40238 53007 22200 00121 10912 70058
BBXX 62105 26184 99554 70121 46/// /2920 10091 20060 40178 51057 22200 00106 10913 70066 333 90710 91132
BBXX 62303 26184 99516 70051 46/// /2320 10114 20076 40314 55003 22200 00113 106//
BBXX 62094 26184 99517 70067 46/// /2121 10110 20081 40298 55800 22200 00107 10646 70230
BBXX 62001 26184 99452 70050 46/// /1014 10124 20086 40258 52006 22200 00139 10705 70027
BBXX 62095 26184 99531 70159 46/// /3210 1//// 2//// 40224 53043 22200 10911 70053
BBXX 62103 26184 99499 70029 46/99 /2515 10117 20058 40348 58004 22200 00120 10804 70018 333 90710 91125
BBXX DPLE 26183 99492 70178 41/97 82134 10120 20111 40220 56/// 75052 88/// 22264 00130 2//// 80115
BBXX CFO383 26184 99439 70602 47598 /1114 10044 2003/ 40121 5//// 700// 8//// 22200 00068 10503 2//// 3//// 70015 80037 91016
BBXX CFO383 26184 99439 70602 47598 /1114 10044 2003/ 40121 5//// 700// 8//// 22200 00068 10503 2//// 3//// 70015 80037 91016
BBXX MINUK05 2618/ 99571 70021 46/// ///// 10133 40099 52006
BBXX MINUK04 2618/ 99555 10084 46/// ///// 10085 4//// 57012
BBXX MINUK01 2618/ 99600 70011 46/// ///// 10083 49994 52034
AAXX 26184 89050 41193 83514 10013 20013 49871 57014 76374 886// 333 99744
AAXX 26184 89512 32598 81344 11029 21082 39666 49815 57006 885// 333 11024
AAXX 26184 89574 42998 70000 11003 21040 49821 57010 87008 89592 42998 00000 11034 21071 49800 57014
AAXX 26184 89606 42998 02408 11335 21385 36337 47698 57004 333 11239
BBXX VRDW2 26184 99158 31165 41398 22818 10285 20264 40066 58013 70200 81640 22243 04290 20803 80270
BBXX VRDW2 26184 99158 31165 41398 22818 10285 20264 40066 58013 70200 81640 22243 04290 20803 80270
AAXX 26184 71502 46/// /0903 11318 21345 30164 40181 5/004 6///1 333 11305 21318 7////
AAXX 26184 71509 16/// /2619 10040 21083 60001 333 10044 20021 70000
AAXX 26184 71517 16/// /2726 10026 21087 60001 333 10033 20008 70000
AAXX 26184 71518 16/// /2714 10046 21076 60001 333 10058 21034 70000
AAXX 26184 71519 16/// /2711 10048 21073 60001 333 10055 20005 70000
AAXX 26184 71520 16/// /1911 11154 21171 39400 40086 58025 60001 333 11124 21180 70000
AAXX 26184 71521 16/// ///// 11122 21177 60001 333 11109 21162 70000
AAXX 26184 71523 16/// ///// 11090 21117 39747 40129 58022 60001 333 11076 21133 70000
AAXX 26184 71528 16/// /2819 10038 21083 60001 333 10039 21032 70000
AAXX 26184 71383 16/// ///// 11134 21183 39490 40111 56016 60001 333 11106 21157 70000
AAXX 26184 71433 46/// /2126 10038 20001 39837 40067 58055 6///1 333 10039 20000 7////
AAXX 26184 71051 16/// ///// 10026 21077 60001 333 10036 21002 70000
AAXX 26184 71057 16/// ///// 11007 21101 60001 333 10044 21072 70000
AAXX 26184 71070 16/// ///// 10032 21074 60001 333 10042 21011 70000
AAXX 26184 71089 16/// ///// 10016 21040 60001 333 10077 20000 70000
AAXX 26184 71102 16/// ///// 10003 21044 60001 333 10050 21009 70000
AAXX 26184 71105 16/// ///// 10028 21077 60001 333 10057 21021 7////
AAXX 26184 71409 16/// ///// 10034 21074 60001 333 10049 20011 7////
AAXX 26184 71789 16/// ///// 10029 21088 60001 333 10035 21009 70000
AAXX 26184 71791 16/// /3224 11002 21047 60001 333 10057 21002 70000
AAXX 26184 71794 16/// ///// 10009 21041 60001 333 10058 21005 70000
AAXX 26184 71795 16/// ///// 10031 21055 60001 333 10058 20021 70000
AAXX 26184 71796 46/// ///// 10016 21042 6///1 333 10053 20008 7////
AAXX 26184 71797 16/// ///// 11003 21038 60001 333 10035 21004 70000
AAXX 26184 71841 16/// /1903 10018 21057 39572 49965 58036 60001 333 10018 21040 70000
AAXX 26184 71006 16/// /3118 10018 21080 60001 333 10050 20010 70000
AAXX 26184 71007 16/// ///// 10039 21106 60001 333 10039 21034 7////
AAXX 26184 71008 16/// /2608 11012 21071 60001 333 10052 21053 70000
AAXX 26184 71009 16/// /3005 11019 21088 60001 333 10039 21073 70000
AAXX 26184 71035 16/// ///// 11032 21110 60001 333 10049 21069 70000
AAXX 26184 71841 16/// /1903 10018 21057 39572 49965 58036 60001 333 10018 21040 70000
AAXX 26184 71433 46/// /2126 10038 20001 39837 40067 58055 6///1 333 10039 20000 7////
BBXX 51204 26181 99213 71581 46/// ///// 1//// 91822 22200 00244 11303 20803 332// 41301 70014
BBXX 46241 26181 99330 71173 46/// ///// 1//// 91811 22200 00144 11301 21001 327// 41301 70006
BBXX 46229 26181 99438 71246 46/// ///// 1//// 91821 22200 00095 11508 21004 329// 41507 70042
BBXX 46216 26181 99343 71198 46/// ///// 1//// 91827 22200 00146 11202 20601 326// 41201 70009
BBXX 46223 26181 99335 71178 46/// ///// 1//// 91830 22200 00151 11501 21001 319// 41501 70007
BBXX 46231 26181 99327 71174 46/// ///// 1//// 91824 22200 00142 11302 21001 326// 41302 70010
BBXX 46222 26181 99336 71183 46/// ///// 1//// 91826 22200 00146 11302 21001 326// 41301 70009
BBXX 46242 26181 99332 71174 46/// ///// 1//// 91828 22200 00142 11501 20901 321// 41501 70006
BBXX 46221 26181 99339 71186 46/// ///// 1//// 91815 22200 00150 11302 21001 328// 41301 70010
BBXX LEQZ3 26183 99463 11515 41/98 72719 10010 40020 54000 70211 22253 00100 80000
AAXX 26184 89063 41/95 92002 10009 20009 39840 49851 53020 77372 333 44126
AAXX 26184 91413 32469 70610 10276 20227 30073 40098 56014 82171 333 56199 555 92618
BBXX ONCT 26184 99154 70772 41898 30821 10280 2024/ 40110 56010 70200 831// 22233 04280 20504 308// 4//// 5//// 6//// 80250 ICE /////
AAXX 26184 96745 01556 70000 10272 20234 30102 40107 57011 69911 76062 84521 333 56000 69917 84620 87460
BBXX VRIB2 26184 99093 11095 41/97 80326 10245 20239 40127 57005 70262 8//// 22214 0//// 2//// 3//// 4//// 80240
BBXX SHIP 26184 99254 11203 41/98 60528 10150 20116 40251 52040 70222 86/// 22255 00120 2//// 3//// 4//// 80130
BBXX VRGW2 26184 99075 11094 41/96 80515 10260 20246 40112 58011 70200 8//// 22254 04270 21406 80250
BBXX SHIP 26184 99064 11152 41498 30228 10279 20253 40085 5//// 70121 81/// 22213 00290 2//// 80261
BBXX DGZS2 26183 99270 11214 41498 80722 10145 20081 40300 50/// 702// 8677/ 22254 00180 20603 80110
BBXX ELYP7 26184 99144 11197 41498 40717 10265 20235 40120 58010 70211 835// 22243 00/// 20804 80243
BBXX VRFX2 26184 99311 11314 41/98 30222 10070 20027 40280 54000 70200 83/// 22215 00180 2//// 80050
BBXX SHIP 26184 99380 11388 41698 73035 10003 20/// 40160 54003 70303 87/// 22243 00140 2//// 80001
BBXX TBWUK37 26183 99182 11200 41598 20132 10240 20176 40148 56010 70322 8214/ 22244 04280 21207 301// 41407 80200
BBXX A8RV7 26184 99098 11314 41/97 /0828 10280 20239 40090 55010 70222 8//// 22273 00300 20604 306// 40806 80250
BBXX DDYL2 26183 99144 10529 41/98 /0516 10235 20183 40160 52015 70000 8//// 22264 00240 2//// 80200
BBXX PCSV 26183 99309 30356 41597 61412 10220 20146 40225 58/// 70222 83175 22253 04232 20603 32013 40604 50804 80173
BBXX A8RL4 26184 99304 50151 41496 82222 10190 40140 57020 7//// 886// 22233 00190 20302 319// 40502
BBXX 46221 26181 99339 71186 46/// ///// 1//// 91815 22200 00150 11302 21001 328// 41301 70010
BBXX 46242 26181 99332 71174 46/// ///// 1//// 91828 22200 00142 11501 20901 321// 41501 70006
BBXX 46223 26181 99335 71178 46/// ///// 1//// 91830 22200 00151 11501 21001 319// 41501 70007
BBXX 46231 26181 99327 71174 46/// ///// 1//// 91824 22200 00142 11302 21001 326// 41302 70010
BBXX 46222 26181 99336 71183 46/// ///// 1//// 91826 22200 00146 11302 21001 326// 41301 70009
BBXX 46216 26181 99343 71198 46/// ///// 1//// 91827 22200 00146 11202 20601 326// 41201 70009
BBXX 46229 26181 99438 71246 46/// ///// 1//// 91821 22200 00095 11508 21004 329// 41507 70042
BBXX 46241 26181 99330 71173 46/// ///// 1//// 91811 22200 00144 11301 21001 327// 41301 70006
BBXX CFO383 26184 99439 70602 47598 /1114 10044 2003/ 40121 5//// 700// 8//// 22200 00068 10503 2//// 3//// 70015 80037 91016
BBXX ONCT 26184 99154 70772 41898 30821 10280 2024/ 40110 56010 70200 831// 22233 04280 20504 308// 4//// 5//// 6//// 80250 ICE /////
BBXX S6JT 26184 99541 71609 41597 73130 11030 21051 40045 51015 70222 848// 22264 04040 20804 80135
BBXX 42360 26181 99267 70905 46/// /2102 10242 91800 22200 00248 10602 70009 333 91202
BBXX 41033 26181 99323 70804 46/// /0609 10131 40258 58013 91800 555 11115 22137
BBXX 44024 26181 99423 70659 46/24 /3506 10062 40105 53008 91804 22200 00082 10502 70012 333 91207 555 11068 22071
BBXX PBHZ 26183 99464 70358 41497 62910 10079 20017 40141 56017 70211 85860 22213 04165 20301 33507 40904 51402 80051
BBXX VRDW2 26184 99158 31165 41398 22818 10285 20264 40066 58013 70200 81640 22243 04290 20803 80270
BBXX MTDU5 26183 99014 10898 41397 82215 10280 20259 40110 51015 70222 8/7// 22214 04288 20902 80265
BBXX A8HJ8 26183 99012 11034 41/96 /0210 10257 20233 40118 52008 70222 8//// 222// 00/// 20201 80240
BBXX MINUK01 2618/ 99600 70011 46/// ///// 10083 49994 52034
BBXX MINUK04 2618/ 99555 10084 46/// ///// 10085 4//// 57012
BBXX MINUK05 2618/ 99571 70021 46/// ///// 10133 40099 52006
BBXX DPLE 26183 99492 70178 41/97 82134 10120 20111 40220 56/// 75052 88/// 22264 00130 2//// 80115
AAXX 26184 91413 32469 70610 10276 20227 30073 40098 56014 82171 333 56199 555 92618
AAXX 26184 91413 32469 70610 10276 20227 30073 40098 56014 82171 333 56199 555 92618
AAXX 26184 97748 31460 63305 10276 20238 30056 40058 51003 70522 82232 333 56700 57874 82815 84075 80850
AAXX 26183 63695 12480 30000 10165 20150 69902 81930 333 10242 81919 83359
BBXX 3FMH7 26184 99315 71666 41598 32520 00/// 10210 20195 40226 53003 70311 82139 9//// 22263 00210 1//// 20403 330// 41207 5//// 6//// 80200
BBXX S6JT 26184 99541 71609 41597 73130 11030 21051 40045 51015 70222 848// 22264 04040 20804 80135
AAXX 26184 89262 46/// /0513 10002 21016 39774 49817 5//// 91800
AAXX 26184 89272 46/// /1203 11075 21199 38022 49627 5//// 91800
AAXX 26184 89257 46/// /3307 11021 21054 39758 49827 5//// 91800
AAXX 26184 71904 16/// ///// 10003 21116 60001 333 10053 21054 70000
AAXX 26184 71540 16/// /2803 11065 21126 60001 333 10057 21103 70000
AAXX 26184 71544 16/// ///// 10001 21037 60001 333 10036 21005 70000
AAXX 26184 71548 16/// ///// 11030 21063 60001 333 10048 21033 70000
AAXX 26184 71346 16/// /2621 10043 21083 60001 333 10051 21006 70000
AAXX 26184 71481 16/// /2606 10001 21095 60001 333 10045 21025 70000
AAXX 26184 71498 16/// /2711 10002 21088 60001 333 10045 21040 70000
AAXX 26184 71055 46/// /3402 11364 21401 39829 40187 51001 6///1 333 11364 21388 7////
AAXX 26184 71065 16/// ///// 11010 21054 60001 333 10046 21024 70000
AAXX 26184 71857 16/// ///// 11006 21046 60001 333 10028 21061 7////
AAXX 26184 71674 46/// ///// 10012 21082 6///1 333 10048 20003 7////
AAXX 26184 71249 16/// /3019 11022 21103 60001 333 10039 21040 70000
AAXX 26184 71360 16/// ///// 10006 21046 60001 333 10055 20004 70000
AAXX 26184 71380 16/// /3011 10005 21096 60001 333 10046 21019 70000
AAXX 26184 71014 16/// /2805 11005 21104 60001 333 10039 21030 70000
AAXX 26184 71414 16/// ///// 11040 21074 60001 333 10035 21065 70000
AAXX 26184 71440 16/// ///// 11001 21093 60001 333 10045 21050 70000
AAXX 26184 71857 16/// ///// 11006 21046 60001 333 10028 21061 7////
AAXX 26184 71249 16/// /3019 11022 21103 60001 333 10039 21040 70000
AAXX 26184 71360 16/// ///// 10006 21046 60001 333 10055 20004 70000
AAXX 26184 71380 16/// /3011 10005 21096 60001 333 10046 21019 70000
AAXX 26184 71674 46/// ///// 10012 21082 6///1 333 10048 20003 7////
AAXX 26184 71055 46/// /3402 11364 21401 39829 40187 51001 6///1 333 11364 21388 7////
AAXX 26184 71065 16/// ///// 11010 21054 60001 333 10046 21024 70000
AAXX 26184 71014 16/// /2805 11005 21104 60001 333 10039 21030 70000
AAXX 26184 71904 16/// ///// 10003 21116 60001 333 10053 21054 70000
AAXX 26184 71414 16/// ///// 11040 21074 60001 333 10035 21065 70000
AAXX 26184 71440 16/// ///// 11001 21093 60001 333 10045 21050 70000
AAXX 26184 71481 16/// /2606 10001 21095 60001 333 10045 21025 70000
AAXX 26184 71498 16/// /2711 10002 21088 60001 333 10045 21040 70000
AAXX 26184 71346 16/// /2621 10043 21083 60001 333 10051 21006 70000
AAXX 26184 71540 16/// /2803 11065 21126 60001 333 10057 21103 70000
AAXX 26184 71544 16/// ///// 10001 21037 60001 333 10036 21005 70000
AAXX 26184 71548 16/// ///// 11030 21063 60001 333 10048 21033 70000
AAXX 26184 89065 46/// /0210 11005 21017 39713 49790 5//// 91800
AAXX 26184 89667 46/// /0305 11034 29070 39833 4//// 5//// 91840
AAXX 2618/ 89108 46/// ///// 11221 36942 4//// 5//// 91840
AAXX 2618/ 89879 46/// ///// 10004 39788 4//// 5//// 91840
AAXX 2618/ 89872 46/// ///// 11035 39788 4//// 5//// 91840
AAXX 2618/ 89869 46/// ///// 11006 39754 4//// 5//// 91840
AAXX 2618/ 89866 46/// ///// 11010 39724 4//// 5//// 91840
AAXX 2618/ 89769 46/// ///// 11023 39815 4//// 5//// 91840
AAXX 2618/ 89314 46/// ///// 11053 38225 4//// 5//// 91840
AAXX 26181 58968 11557 80903 10143 20130 30254 40262 58007 69901 75152 887//
AAXX 26181 58974 46/// /0510 10160 20097 30140 40266 58008
AAXX 26181 59358 31920 03602 10154 20117 30209 40241 58003 71000
AAXX 26181 59559 32562 40307 10193 20130 30197 40226 58004 84200
AAXX 26181 59792 32460 60508 10207 20174 30211 40216 57009 85420
AAXX 26181 59997 11458 80507 10262 20248 30108 40116 57014 6007/ 78088 8382/
BBXX PCSV 26183 99309 30356 41597 61412 10220 20146 40225 58/// 70222 83175 22253 04232 20603 32013 40604 50804 80173
AAXX 26181 59158 32960 00000 10136 20109 30133 40237 58002
AAXX 26181 59562 32660 73402 10172 20123 30231 40243 58010 875//
AAXX 26181 59567 46/// /0306 10179 20141 39852 40235 57008
AAXX 26181 01329 11115 82219 10097 20085 39950 40009 56024 6//// 76366 888// 333 91124
AAXX 26184 89628 46/// /3151 36835 4//// 5////
AAXX 26184 89065 46/// /0210 11005 21017 39713 49790 5//// 91800
BBXX ZCBZ4 26183 99050 10981 41/// 10410 10280 20237 40119 50010 70222 8//// 22274 20403 30404 40302 50201 80250
BBXX VQHO7 26184 99097 70526 41598 21023 10280 20226 40115 57030 70280 82100 22234 00280 20405 312// 40406 5//// 80243
BBXX ELUC5 26183 99126 51023 41998 01218 10240 20240 40150 54000 70222 80000 22224 06200 20703 30000 80240
AAXX 26184 88903 45/// /3117 10022 21033 39883 49883 51014
AAXX 26184 89013 46/// /2811 11159 21204 37533 49501 52004 91750
AAXX 26184 89065 46/// /0210 11007 21018 39713 49790 5//// 91750
AAXX 26184 89257 46/// /3307 11021 21054 39757 49826 5//// 91750
AAXX 26184 89262 46/// /0512 10001 21016 39773 49816 5//// 91750
AAXX 26184 89266 46/// /3507 11028 21047 39699 49836 5//// 91800
AAXX 26184 89272 46/// /1003 11074 21210 38021 49626 52006 91750
BBXX A8UL6 26183 99342 11754 41396 82612 10190 20167 40100 54000 76166 897// 22264 04210 2//// 327// 4//08 5//// 80175
BBXX ZCBZ4 26183 99050 10981 41/// 10410 10280 20237 40119 50010 70222 8//// 22274 20403 30404 40302 50201 80250
BBXX VQIB9 26183 99214 30569 41998 01416 10250 20196 40155 52001 70100 80000 22254 00277 2//// 3//// 4//// 5//// 80215
BBXX ZQCP3 26183 99247 10584 41997 02725 10220 20172 40195 54000 70200 80000 22263 00250 20305 3//// 4//// 5//// 80190
AAXX 26184 87349 32970 13610 10302 20142 39758 40143 58017 80005 333 56008 81270
AAXX 26184 89807 46/// /2126 11020 29064 39671 4//// 5//// 91830 333 90700 91132
AAXX 2618/ 89767 46/// ///// 11059 39728 4//// 5////
AAXX 26184 89016 46/// /2003 29062 39448 4//// 5////
AAXX 26184 89003 46/// /3233 29064 38988 4//// 5////
AAXX 26184 89507 46/// /1404 29044 36816 4//// 5////
AAXX 26184 89807 46/// /2126 11020 29064 39671 4//// 5//// 91830 333 90700 91132
OOXX MXP44 26161 99280 71140 ///// 00041 26/// /1422 10119 29054 30195 91610 333 60000
OOXX MXP44 26161 99280 71140 ///// 00041 26/// /1422 10125 29054 30196 91620 333 60000
OOXX MXP44 26161 99280 71140 ///// 00041 26/// /1422 10129 29054 30198 91630 333 60000
OOXX MXP44 26161 99280 71140 ///// 00041 26/// /1422 10128 29054 30200 91640 333 60000
OOXX MXP44 26161 99280 71140 ///// 00041 26/// /1422 10133 29054 30201 91650 333 60000
OOXX MXP44 26171 99280 71140 ///// 00041 26/// /1422 10143 29055 30200 91700 333 60000
OOXX MXP44 26171 99280 71140 ///// 00041 26/// /1422 10152 29055 30200 91710 333 60000
OOXX MXP44 26171 99280 71140 ///// 00041 26/// /1422 10153 29055 30200 91720 333 60000
OOXX MXP44 26171 99280 71140 ///// 00041 26/// /1422 10160 29055 30200 91730 333 60000
OOXX MXP44 26171 99280 71140 ///// 00041 26/// /1422 10168 29055 30201 91740 333 60000
OOXX MXP44 26171 99280 71140 ///// 00041 26/// /1422 10172 29055 30203 91750 333 60000
OOXX MXP44 26181 99280 71140 ///// 00041 26/// /1422 10175 29055 30203 91800 333 60000
AAXX 26184 71005 16/// ///// 10003 21044 60001 333 10068 20003 70006
AAXX 26184 71005 16/// ///// 10003 21044 60001 333 10068 20003 70006
AAXX 26184 91844 46/// /2502 10247 40099 22200 00273
BBXX 9MBW7 26184 99380 11388 41698 73035 10003 20/// 40160 54003 70303 87/// 22243 00140 2//// 80001
BBXX SHIP 26184 99380 11388 41698 73035 10003 20/// 40160 54003 70303 87/// 22243 00140 2//// 80001
BBXX VRFX2 26184 99311 11314 41/98 30222 10070 20027 40280 54000 70200 83/// 22215 00180 2//// 80050
BBXX VQIB9 26183 99214 30569 41998 01416 10250 20196 40155 52001 70100 80000 22254 00277 2//// 3//// 4//// 5//// 80215
BBXX TBWUK17 26183 99280 30500 41297 61515 10223 20205 40217 52012 70122 86717 22263 04239 20404 31010 40503 50305 80211
BBXX MYJU 26183 99203 10388 41/98 13421 10250 20188 40174 57/// 70200 8///5 22233 00280 2//// 3//// 4//// 5//// 80210
BBXX MSTM6 26184 99290 10328 41998 03623 10180 20095 40246 54000 70200 80000 22244 00190 2//// 80135
BBXX A8HD5 26181 99144 11140 41597 63612 10260 20199 40160 54000 71022 83875 22213 04240 20403 30200 40505 5//// 80220
BBXX TBWUK17 26183 99280 30500 41297 61515 10223 20205 40217 52012 70122 86717 22263 04239 20404 31010 40503 50305 80211
BBXX MRGU3 26183 99360 70069 41998 01030 10159 20085 40266 51005 70200 80000 22223 04169 20608 310// 41008 80121
AAXX 26181 01329 11115 82219 10097 20085 39950 40009 56024 60432 76366 888// 333 10098 91124
AAXX 26181 01469 16/// /0000 10100 2//// 39847 40014 56018 6//// 333 10100 91113
AAXX 26184 41259 36/// /2910 10079 21101 37149 40328 333 0E/// 10147 58001
BBXX 62303 26184 99516 70051 46/// /2319 10114 20076 40314 55003 22200 00113 10606 70031 333 90710 91126
BBXX 62001 26184 99452 70050 46/// /1014 10124 20086 40338 52006 22200 00139 10705 70027
BBXX 62081 26184 99510 70134 46/// ///// 10126 20103 40238 53007 22200 00121 10912 70058
BBXX 62105 26184 99554 70121 46/// /2920 10091 20060 40178 51057 22200 00106 10913 70067 333 90710 91132
BBXX 63110 26183 99595 10015 41/96 /2243 10107 49993 700// 8//// 22200 10810 70050
BBXX 63106 26184 99610 10017 46/// /2539 10102 49937 53007 22200
BBXX 63105 26184 99610 10017 47396 ///// 10103 20089 49938 53005 751// 22200
BBXX 62103 26184 99499 70029 46/99 /2317 10113 20065 40330 58002 22200 00120 11803 70016
BBXX 62094 26184 99517 70067 46/// /2221 10110 20081 4//// 55040 22200 00107 10606 70030 333 90710 91131
BBXX 62095 26184 99531 70159 46/// /3110 10091 20040 40214 52039 22200 00110 10911 70054
AAXX 26184 91413 32469 70610 10276 20227 30073 40098 56014 82171 333 56199 555 92618
BBXX MSTM6 26184 99290 10328 41998 03623 10180 20095 40246 54000 70200 80000 22244 00190 2//// 80135
BBXX MYJU 26183 99203 10388 41/98 13421 10250 20188 40174 57/// 70200 8///5 22233 00280 2//// 3//// 4//// 5//// 80210
BBXX TBWUK17 26183 99280 30500 41297 61515 10223 20205 40217 52012 70122 86717 22263 04239 20404 31010 40503 50305 80211
BBXX ZQCP3 26183 99247 10584 41997 02725 10220 20172 40195 54000 70200 80000 22263 00250 20305 3//// 4//// 5//// 80190
BBXX VQIB9 26183 99214 30569 41998 01416 10250 20196 40155 52001 70100 80000 22254 00277 2//// 3//// 4//// 5//// 80215
BBXX VQHO7 26184 99097 70526 41598 21023 10280 20226 40115 57030 70280 82100 22234 00280 20405 312// 40406 5//// 80243
BBXX MRGU3 26183 99360 70069 41998 01030 10159 20085 40266 51005 70200 80000 22223 04169 20608 310// 41008 80121
BBXX BSH03 26181 99540 10081 46/// ///// 22200 00064 20704 70019
BBXX BSH02 26181 99542 10079 46/// ///// 22200 00073 20805 70025
BBXX BSH05 26181 99549 10082 46/// ///// 22200 20704 70020
BBXX A8HD5 26181 99144 11140 41597 63612 10260 20199 40160 54000 71022 83875 22213 04240 20403 30200 40505 5//// 80220
BBXX A8UL6 26183 99342 11754 41396 82612 10190 20167 40100 54000 76166 897// 22264 04210 2//// 327// 4//08 5//// 80175
BBXX ZCBZ4 26183 99050 10981 41/// 10410 10280 20237 40119 50010 70222 8//// 22274 20403 30404 40302 50201 80250
OOXX CAP14 26161 99487 71234 ///// 00431 26/// /1701 10046 29085 30183 91630 333 60000
OOXX CAP14 26161 99487 71234 ///// 00431 26/// /0000 10045 29085 30183 91640 333 60000
OOXX CAP14 26161 99487 71234 ///// 00431 26/// /0000 10046 29085 30182 91650 333 60000
OOXX CAP14 26171 99487 71234 ///// 00431 26/// /0000 10047 29086 30183 91700 333 60000
OOXX CAP14 26171 99487 71234 ///// 00431 26/// /0000 10046 29086 30184 91710 333 60000
OOXX CAP14 26171 99487 71234 ///// 00431 26/// /0000 10047 29086 30183 91720 333 60000
OOXX CAP14 26171 99487 71234 ///// 00431 26/// /0000 10049 29086 30184 91730 333 60000
OOXX CAP14 26171 99487 71234 ///// 00431 26/// /1901 10050 29085 30184 91740 333 60000
OOXX CAP14 26171 99487 71234 ///// 00431 26/// /1301 10050 29085 30183 91750 333 60000
OOXX CAP14 26181 99487 71234 ///// 00431 26/// /1501 10051 29084 30180 91800 333 60000
OOXX CAP14 26181 99487 71234 ///// 00431 26/// /1402 10053 29084 30178 91810 333 60000
OOXX CAP14 26181 99487 71234 ///// 00431 26/// /1402 10054 29083 30175 91820 333 60000
OOXX MYP42 26161 99045 11014 ///// 15551 26/// /0701 10161 29095 38444 91604 333 60000
OOXX MYP42 26161 99045 11014 ///// 15551 26/// /0105 10162 29096 38444 91614 333 60000
OOXX MYP42 26161 99045 11014 ///// 15551 26/// /0501 10162 29095 38444 91624 333 60000
OOXX MYP42 26161 99045 11014 ///// 15551 26/// /0202 10161 29095 38440 91634 333 60000
OOXX MYP42 26161 99045 11014 ///// 15551 26/// /1502 10161 29095 38434 91644 333 60000
OOXX MYP42 26161 99045 11014 ///// 15551 26/// /1413 10165 29094 38445 91654 333 60000
OOXX MYP42 26171 99045 11014 ///// 15551 26/// /0104 10163 29093 38445 91704 333 60000
OOXX MYP42 26171 99045 11014 ///// 15551 26/// /1005 10166 29093 38453 91714 333 60000
OOXX MYP42 26171 99045 11014 ///// 15551 26/// /0705 10167 29093 38444 91724 333 60000
OOXX MYP42 26171 99045 11014 ///// 15551 26/// /0205 10165 29094 38447 91734 333 60000
OOXX MYP42 26171 99045 11014 ///// 15551 26/// /0112 10164 29094 38436 91744 333 60000
OOXX MYP42 26171 99045 11014 ///// 15551 26/// /0805 10165 29094 38427 91754 333 60000
OOXX RUP58 26161 99442 11320 ///// 01121 26/// /1301 11183 29046 30151 91652 333 60000
OOXX RUP58 26171 99442 11320 ///// 01121 26/// /1301 11182 29046 30152 91702 333 60000
OOXX RUP58 26171 99442 11320 ///// 01121 26/// /1201 11182 29046 30153 91712 333 60000
OOXX RUP58 26171 99442 11320 ///// 01121 26/// /1101 11179 29045 30154 91722 333 60000
OOXX RUP58 26171 99442 11320 ///// 01121 26/// /1201 11182 29045 30155 91732 333 60000
OOXX RUP58 26171 99442 11320 ///// 01121 26/// /1401 11182 29045 30156 91742 333 60000
OOXX RUP58 26171 99442 11320 ///// 01121 26/// /1002 11182 29045 30157 91752 333 60000
OOXX RUP58 26181 99442 11320 ///// 01121 26/// /1102 11180 29044 30156 91802 333 60000
OOXX RUP58 26181 99442 11320 ///// 01121 26/// /1201 11186 29046 30155 91812 333 60000
OOXX RUP58 26181 99442 11320 ///// 01121 26/// /1101 11183 29045 30155 91822 333 60000
OOXX RUP58 26181 99442 11320 ///// 01121 26/// /1201 11181 29044 30155 91832 333 60000
OOXX RUP58 26181 99442 11320 ///// 01121 26/// /1101 11177 29043 30155 91842 333 60000
OOXX AUP06 26161 99192 31468 ///// 00071 26/// /3201 10273 29076 30042 91653 333 60000
OOXX AUP06 26171 99192 31468 ///// 00071 26/// /0000 10275 29076 30041 91703 333 60000
OOXX AUP06 26171 99192 31468 ///// 00071 26/// /0000 10273 29077 30039 91713 333 60000
OOXX AUP06 26171 99192 31468 ///// 00071 26/// /0000 10270 29080 30040 91723 333 60000
OOXX AUP06 26171 99192 31468 ///// 00071 26/// /0000 10269 29080 30038 91733 333 60000
OOXX AUP06 26171 99192 31468 ///// 00071 26/// /0000 10274 29076 30039 91743 333 60000
OOXX AUP06 26171 99192 31468 ///// 00071 26/// /3302 10270 29078 30038 91753 333 60000
OOXX AUP06 26181 99192 31468 ///// 00071 26/// /3303 10270 29077 30039 91803 333 60000
OOXX AUP06 26181 99192 31468 ///// 00071 26/// /3403 10271 29078 30040 91813 333 60000
OOXX AUP06 26181 99192 31468 ///// 00071 26/// /3503 10271 29078 30039 91823 333 60000
OOXX AUP06 26181 99192 31468 ///// 00071 26/// /3402 10270 29080 30040 91833 333 60000
OOXX AUP06 26181 99192 31468 ///// 00071 26/// /3502 10268 29081 30040 91843 333 60000
OOXX RUP54 26161 99586 10494 ///// 01271 26/// /0000 11068 29089 39792 91647 333 60120
OOXX RUP54 26161 99586 10494 ///// 01271 26/// /0000 11067 29089 39791 91657 333 60120
OOXX RUP54 26171 99586 10494 ///// 01271 26/// /0000 11067 29089 39790 91707 333 60120
OOXX RUP54 26171 99586 10494 ///// 01271 26/// /0000 11066 29089 39789 91717 333 60120
OOXX RUP54 26171 99586 10494 ///// 01271 26/// /0000 11066 29089 39787 91727 333 60120
OOXX RUP54 26171 99586 10494 ///// 01271 26/// /0000 11066 29089 39784 91737 333 60120
OOXX RUP54 26171 99586 10494 ///// 01271 26/// /0000 11066 29089 39782 91747 333 60120
OOXX RUP54 26171 99586 10494 ///// 01271 26/// /0000 11066 29089 39781 91757 333 60120
OOXX RUP54 26181 99586 10494 ///// 01271 26/// /0000 11066 29089 39778 91807 333 60120
OOXX RUP54 26181 99586 10494 ///// 01271 26/// /0000 11066 29089 39777 91817 333 60120
OOXX KIP39 26161 99020 51574 ///// 00181 26/// /1402 10243 29091 30111 91630 333 60000
OOXX KIP39 26161 99020 51574 ///// 00181 26/// /1302 10244 29091 30112 91640 333 60000
OOXX KIP39 26161 99020 51574 ///// 00181 26/// /1302 10245 29091 30112 91650 333 60000
OOXX KIP39 26171 99020 51574 ///// 00181 26/// /1302 10246 29091 30111 91700 333 60000
OOXX KIP39 26171 99020 51574 ///// 00181 26/// /1302 10249 29091 30114 91710 333 60000
OOXX KIP39 26171 99020 51574 ///// 00181 26/// /1303 10252 29090 30114 91720 333 60000
OOXX KIP39 26171 99020 51574 ///// 00181 26/// /1303 10255 29088 30115 91730 333 60000
OOXX KIP39 26171 99020 51574 ///// 00181 26/// /1303 10258 29087 30116 91740 333 60000
OOXX KIP39 26171 99020 51574 ///// 00181 26/// /1203 10260 29086 30117 91750 333 60000
OOXX KIP39 26181 99020 51574 ///// 00181 26/// /1203 10263 29084 30119 91800 333 60000
OOXX KIP39 26181 99020 51574 ///// 00181 26/// /1204 10262 29083 30121 91810 333 60000
OOXX KIP39 26181 99020 51574 ///// 00181 26/// /1203 10268 29082 30123 91820 333 60000
OOXX NZP46 26161 99438 51765 ///// 00221 26/// /2106 10128 29099 30196 91630 333 60000
OOXX NZP46 26161 99438 51765 ///// 00221 26/// /2105 10129 29098 30196 91640 333 60000
OOXX NZP46 26161 99438 51765 ///// 00221 26/// /2205 10130 29098 30197 91650 333 60000
OOXX NZP46 26171 99438 51765 ///// 00221 26/// /2106 10130 29097 30196 91700 333 60000
OOXX NZP46 26171 99438 51765 ///// 00221 26/// /2106 10131 29097 30197 91710 333 60000
OOXX NZP46 26171 99438 51765 ///// 00221 26/// /2106 10131 29096 30197 91720 333 60000
OOXX NZP46 26171 99438 51765 ///// 00221 26/// /2106 10132 29097 30197 91730 333 60000
OOXX NZP46 26171 99438 51765 ///// 00221 26/// /2106 10132 29097 30197 91740 333 60000
OOXX NZP46 26171 99438 51765 ///// 00221 26/// /2106 10133 29096 30197 91750 333 60000
OOXX NZP46 26181 99438 51765 ///// 00221 26/// /2005 10133 29097 30197 91800 333 60000
OOXX NZP46 26181 99438 51765 ///// 00221 26/// /2005 10133 29098 30198 91810 333 60000
OOXX NZP46 26181 99438 51765 ///// 00221 26/// /2004 10133 29097 30198 91820 333 60000
OOXX MRP43 26161 99181 70159 ///// 00101 26/// /0506 10261 29013 30140 91650 333 60000
OOXX MRP43 26171 99181 70159 ///// 00101 26/// /0505 10261 29013 30140 91700 333 60000
OOXX MRP43 26171 99181 70159 ///// 00101 26/// /0605 10260 29013 30138 91710 333 60000
OOXX MRP43 26171 99181 70159 ///// 00101 26/// /0705 10258 29013 30138 91720 333 60000
OOXX MRP43 26171 99181 70159 ///// 00101 26/// /0605 10257 29014 30138 91730 333 60000
OOXX MRP43 26171 99181 70159 ///// 00101 26/// /0605 10256 29014 30138 91740 333 60000
OOXX MRP43 26171 99181 70159 ///// 00101 26/// /0605 10254 29014 30139 91750 333 60000
OOXX MRP43 26181 99181 70159 ///// 00101 26/// /0605 10253 29014 30138 91800 333 60000
OOXX MRP43 26181 99181 70159 ///// 00101 26/// /0605 10251 29014 30140 91810 333 60000
OOXX MRP43 26181 99181 70159 ///// 00101 26/// /0605 10249 29014 30141 91820 333 60000
OOXX MRP43 26181 99181 70159 ///// 00101 26/// /0504 10248 29014 30147 91830 333 60000
OOXX MRP43 26181 99181 70159 ///// 00101 26/// /0504 10245 29014 30147 91840 333 60000
OOXX FRP29 26161 99210 30556 ///// 00751 26/// /2210 10257 29086 39871 91609 333 60000
OOXX FRP29 26161 99210 30556 ///// 00751 26/// /2110 10251 29090 39871 91619 333 60000
OOXX FRP29 26161 99210 30556 ///// 00751 26/// /2008 10246 29093 39872 91629 333 69920
OOXX FRP29 26161 99210 30556 ///// 00751 26/// /1906 10244 29094 39873 91639 333 60000
OOXX FRP29 26161 99210 30556 ///// 00751 26/// /1906 10243 29094 39871 91649 333 60000
OOXX FRP29 26161 99210 30556 ///// 00751 26/// /1806 10244 29093 39874 91659 333 60000
OOXX FRP29 26171 99210 30556 ///// 00751 26/// /1805 10243 29093 39875 91709 333 69920
OOXX FRP29 26171 99210 30556 ///// 00751 26/// /1903 10242 29092 39875 91719 333 60000
OOXX FRP29 26171 99210 30556 ///// 00751 26/// /1402 10243 29092 39872 91729 333 60000
OOXX FRP29 26171 99210 30556 ///// 00751 26/// /1603 10243 29093 39874 91739 333 60000
OOXX FRP29 26171 99210 30556 ///// 00751 26/// /1903 10243 29093 39875 91749 333 69920
OOXX FRP29 26171 99210 30556 ///// 00751 26/// /1704 10243 29093 39874 91759 333 69940
OOXX AUP09 26161 99124 31309 ///// 00321 26/// ///// 1//// 29/// 3//// 91614 333 6///0
OOXX AUP09 26161 99124 31309 ///// 00321 26/// ///// 1//// 29/// 3//// 91624 333 6///0
OOXX AUP09 26161 99124 31309 ///// 00321 26/// ///// 1//// 29/// 3//// 91634 333 6///0
OOXX AUP09 26161 99124 31309 ///// 00321 26/// ///// 1//// 29/// 3//// 91644 333 6///0
OOXX AUP09 26161 99124 31309 ///// 00321 26/// ///// 1//// 29/// 3//// 91654 333 6///0
OOXX AUP09 26171 99124 31309 ///// 00321 26/// ///// 1//// 29/// 3//// 91704 333 6///0
OOXX AUP09 26171 99124 31309 ///// 00321 26/// ///// 1//// 29/// 3//// 91714 333 6///0
OOXX AUP09 26171 99124 31309 ///// 00321 26/// ///// 1//// 29/// 3//// 91724 333 6///0
OOXX AUP09 26171 99124 31309 ///// 00321 26/// ///// 1//// 29/// 3//// 91734 333 6///0
OOXX AUP09 26171 99124 31309 ///// 00321 26/// ///// 1//// 29/// 3//// 91744 333 6///0
OOXX AUP09 26171 99124 31309 ///// 00321 26/// ///// 1//// 29/// 3//// 91754 333 6///0
OOXX AUP09 26181 99124 31309 ///// 00321 26/// ///// 1//// 29/// 3//// 91804 333 6///0
OOXX AUP04 26171 99377 31451 ///// 00311 26/// /1301 10144 29085 30055 91707 333 60000
OOXX AUP04 26171 99377 31451 ///// 00311 26/// /1401 10144 29086 30056 91717 333 60000
OOXX AUP04 26171 99377 31451 ///// 00311 26/// /1401 10143 29086 30056 91727 333 60000
OOXX AUP04 26171 99377 31451 ///// 00311 26/// /1801 10144 29086 30057 91737 333 60000
OOXX AUP04 26171 99377 31451 ///// 00311 26/// /1601 10144 29087 30058 91747 333 60000
OOXX AUP04 26171 99377 31451 ///// 00311 26/// /2001 10144 29087 30060 91757 333 60000
OOXX AUP04 26181 99377 31451 ///// 00311 26/// /1301 10144 29086 30061 91807 333 60000
OOXX AUP04 26181 99377 31451 ///// 00311 26/// /1401 10144 29086 30062 91817 333 60000
OOXX AUP04 26181 99377 31451 ///// 00311 26/// /1501 10144 29086 30063 91827 333 60000
OOXX AUP04 26181 99377 31451 ///// 00311 26/// /1701 10143 29086 30064 91837 333 60000
OOXX AUP04 26181 99377 31451 ///// 00311 26/// /2001 10142 29085 30065 91847 333 60000
OOXX AUP04 26181 99377 31451 ///// 00311 26/// /1801 10142 29085 30066 91857 333 60000
OOXX GBP67 26161 99159 50057 ///// 04381 26/// /0904 10185 29076 39670 91620 333 60000
OOXX GBP67 26161 99159 50057 ///// 04381 26/// /0904 10183 29078 39672 91630 333 60000
OOXX GBP67 26161 99159 50057 ///// 04381 26/// /0804 10182 29080 39671 91640 333 60000
OOXX GBP67 26161 99159 50057 ///// 04381 26/// /0804 10180 29080 39671 91650 333 60000
OOXX GBP67 26171 99159 50057 ///// 04381 26/// /0804 10181 29079 39671 91700 333 60000
OOXX GBP67 26171 99159 50057 ///// 04381 26/// /0804 10179 29080 39674 91710 333 60000
OOXX GBP67 26171 99159 50057 ///// 04381 26/// /0904 10177 29083 39676 91720 333 60000
OOXX GBP67 26171 99159 50057 ///// 04381 26/// /0904 10176 29087 39674 91730 333 60000
OOXX GBP67 26171 99159 50057 ///// 04381 26/// /0804 10172 29090 39676 91740 333 60000
OOXX GBP67 26171 99159 50057 ///// 04381 26/// /0804 10171 29089 39676 91750 333 60000
OOXX GBP67 26181 99159 50057 ///// 04381 26/// /0904 10170 29086 39676 91800 333 60000
OOXX GBP67 26181 99159 50057 ///// 04381 26/// /1004 10167 29086 39678 91810 333 60000
OOXX RUP59 26161 99539 10848 ///// 02121 26/// /0000 11134 29072 39910 91640 333 60000
OOXX RUP59 26161 99539 10848 ///// 02121 26/// /0000 11135 29073 39911 91650 333 60000
OOXX RUP59 26171 99539 10848 ///// 02121 26/// /0000 11134 29072 39910 91700 333 60000
OOXX RUP59 26171 99539 10848 ///// 02121 26/// /0000 11134 29072 39910 91710 333 60000
OOXX RUP59 26171 99539 10848 ///// 02121 26/// /0000 11137 29073 39909 91720 333 60000
OOXX RUP59 26171 99539 10848 ///// 02121 26/// /2701 11135 29073 39910 91730 333 60000
OOXX RUP59 26171 99539 10848 ///// 02121 26/// /2601 11128 29075 39908 91740 333 60000
OOXX RUP59 26171 99539 10848 ///// 02121 26/// /2901 11107 29069 39907 91750 333 60000
OOXX RUP59 26181 99539 10848 ///// 02121 26/// /3301 11097 29064 39906 91800 333 60000
OOXX RUP59 26181 99539 10848 ///// 02121 26/// /3401 11092 29063 39903 91810 333 60000
OOXX RUP59 26181 99539 10848 ///// 02121 26/// /3501 11087 29062 39905 91820 333 60000
OOXX RUP59 26181 99539 10848 ///// 02121 26/// /3401 11086 29062 39905 91830 333 60000
OOXX ARP01 26161 99345 50585 ///// 00311 26/// /1101 10116 29034 30163 91610 333 60000
OOXX ARP01 26161 99345 50585 ///// 00311 26/// /1101 10116 29034 30163 91620 333 60000
OOXX ARP01 26161 99345 50585 ///// 00311 26/// /1101 10116 29034 30162 91630 333 60000
OOXX ARP01 26161 99345 50585 ///// 00311 26/// /1101 10118 29034 30160 91640 333 60000
OOXX ARP01 26161 99345 50585 ///// 00311 26/// /1101 10118 29034 30159 91650 333 60000
OOXX ARP01 26171 99345 50585 ///// 00311 26/// /1101 10118 29034 30158 91700 333 60000
OOXX ARP01 26171 99345 50585 ///// 00311 26/// /1101 10119 29034 30157 91710 333 60000
OOXX ARP01 26171 99345 50585 ///// 00311 26/// /1101 10118 29033 30157 91720 333 60000
OOXX ARP01 26171 99345 50585 ///// 00311 26/// /1101 10119 29033 30156 91730 333 60000
OOXX ARP01 26171 99345 50585 ///// 00311 26/// /1101 10121 29032 30155 91740 333 60000
OOXX ARP01 26171 99345 50585 ///// 00311 26/// /1601 10119 29033 30154 91750 333 60000
OOXX ARP01 26181 99345 50585 ///// 00311 26/// /1801 10120 29033 30153 91800 333 60000
OOXX RUP60 26161 99531 11588 ///// 00651 26/// /0513 11010 29082 30030 91652 333 60000
OOXX RUP60 26171 99531 11588 ///// 00651 26/// /0510 11009 29079 30029 91702 333 60000
OOXX RUP60 26171 99531 11588 ///// 00651 26/// /0309 11004 29073 30028 91712 333 60000
OOXX RUP60 26171 99531 11588 ///// 00651 26/// /0412 11011 29081 30028 91722 333 60000
OOXX RUP60 26171 99531 11588 ///// 00651 26/// /0410 11009 29078 30027 91732 333 60000
OOXX RUP60 26171 99531 11588 ///// 00651 26/// /0410 11012 29082 30030 91742 333 60000
OOXX RUP60 26171 99531 11588 ///// 00651 26/// /0512 11009 29078 30026 91752 333 60000
OOXX RUP60 26181 99531 11588 ///// 00651 26/// /0411 11009 29079 30028 91802 333 60000
OOXX RUP60 26181 99531 11588 ///// 00651 26/// /0512 11011 29081 30029 91812 333 60000
OOXX RUP60 26181 99531 11588 ///// 00651 26/// /0314 11009 29079 30028 91822 333 60000
OOXX RUP60 26181 99531 11588 ///// 00651 26/// /0510 11015 29085 30030 91832 333 60000
OOXX RUP60 26181 99531 11588 ///// 00651 26/// /0309 11014 29085 30031 91842 333 60000
OOXX CAP17 26161 99476 70527 ///// 01331 26/// /1102 11033 29052 30057 91600 333 60000
OOXX CAP17 26161 99476 70527 ///// 01331 26/// /1002 11035 29055 30057 91610 333 60000
OOXX CAP17 26161 99476 70527 ///// 01331 26/// /1101 11030 29052 30057 91620 333 60000
OOXX CAP17 26161 99476 70527 ///// 01331 26/// /1101 11030 29052 30056 91630 333 60000
OOXX CAP17 26161 99476 70527 ///// 01331 26/// /1101 11029 29051 30055 91640 333 60000
OOXX CAP17 26161 99476 70527 ///// 01331 26/// /0000 11031 29053 30056 91650 333 60000
OOXX CAP17 26171 99476 70527 ///// 01331 26/// /1301 11030 29057 30056 91700 333 60000
OOXX CAP17 26171 99476 70527 ///// 01331 26/// /1302 11032 29059 30056 91710 333 60000
OOXX CAP17 26171 99476 70527 ///// 01331 26/// /1301 11030 29060 30056 91720 333 60000
OOXX CAP17 26171 99476 70527 ///// 01331 26/// /1301 11031 29058 30056 91730 333 60000
OOXX CAP17 26171 99476 70527 ///// 01331 26/// /1301 11031 29060 30056 91740 333 60000
OOXX CAP17 26171 99476 70527 ///// 01331 26/// /1201 11032 29061 30056 91750 333 60000
OOXX AUP07 26161 99/// ///// ///// ///// 26/// /2706 10072 29095 39872 91649 333 60000
OOXX AUP07 26161 99/// ///// ///// ///// 26/// /2805 10070 29095 39871 91659 333 60000
OOXX AUP07 26171 99/// ///// ///// ///// 26/// /2805 10070 29095 39869 91709 333 60000
OOXX AUP07 26171 99/// ///// ///// ///// 26/// /2806 10071 29095 39870 91719 333 60000
OOXX AUP07 26171 99/// ///// ///// ///// 26/// /2805 10071 29095 39869 91729 333 60000
OOXX AUP07 26171 99/// ///// ///// ///// 26/// /2805 10071 29095 39867 91739 333 60000
OOXX AUP07 26171 99/// ///// ///// ///// 26/// /2705 10071 29095 39867 91749 333 60000
OOXX AUP07 26171 99/// ///// ///// ///// 26/// /2806 10072 29095 39867 91759 333 60000
OOXX AUP07 26181 99/// ///// ///// ///// 26/// /2705 10074 29095 39865 91809 333 60000
OOXX AUP07 26181 99/// ///// ///// ///// 26/// /2805 10073 29095 39866 91819 333 60000
OOXX AUP07 26181 99/// ///// ///// ///// 26/// /2705 10073 29095 39862 91829 333 60000
OOXX AUP07 26181 99/// ///// ///// ///// 26/// /2805 10074 29095 39861 91839 333 60000
AAXX 26184 91559 46/// /0000 10243 40030 22200 00288
AAXX 26184 42779 32996 00000 10124 20035 39439 40160 333 59004
AAXX 26184 42874 32996 00000 10160 20072 40136 333 59009
AAXX 26184 43041 32996 00000 10118 20071 39510 40151 333 59005
AAXX 26184 71319 16/// /2703 11071 21108 39268 40145 51001 60001 333 11071 21139 70008
AAXX 26184 71723 17/// /2207 11032 21073 30191 40201 58006 60011 7//4/ 333 11027 21127 70039
AAXX 26184 71967 16/// /2310 11037 21072 30110 40218 58004 60001 333 11036 21103 70020 555 10020
AAXX 26184 71494 16/// /2605 11070 21083 39655 40187 51003 60001 333 11041 21093 70013 555 10030
AAXX 26184 71373 16/// /2606 11032 21077 60001 333 11005 21055 70034
AAXX 26184 71389 46/// /2604 11014 21045 6///1 333 11013 21153 7////
AAXX 26184 71390 46/// /2704 11059 6///1 333 11059 21121 7////
AAXX 26184 71427 16/// /2414 11040 21089 30117 40125 55002 60001 333 11039 21091 70000
AAXX 26184 71429 16/// /1203 11032 21072 30094 40114 51005 60001 333 11030 21094 70010
AAXX 26184 71319 16/// /2703 11071 21108 39268 40145 51001 60001 333 11071 21139 70008
AAXX 26184 71494 16/// /2605 11070 21083 39655 40187 51003 60001 333 11041 21093 70013 555 10030
AAXX 26184 71373 16/// /2606 11032 21077 60001 333 11005 21055 70034
AAXX 26184 71389 46/// /2604 11014 21045 6///1 333 11013 21153 7////
AAXX 26184 71390 46/// /2704 11059 6///1 333 11059 21121 7////
AAXX 26184 71967 16/// /2310 11037 21072 30110 40218 58004 60001 333 11036 21103 70020 555 10020
AAXX 26184 71723 17/// /2207 11032 21073 30191 40201 58006 60011 7//4/ 333 11027 21127 70039
AAXX 26184 71427 16/// /2414 11040 21089 30117 40125 55002 60001 333 11039 21091 70000
AAXX 26184 71429 16/// /1203 11032 21072 30094 40114 51005 60001 333 11030 21094 70010
AAXX 26184 89610 46/// /0415 11050 39544 4//// 5//// 333 90700 91117
AAXX 26184 89610 46/// /0415 11050 39544 4//// 5//// 333 90700 91117
AAXX 26184 89610 46/// /0415 11050 39544 4//// 5//// 333 90700 91117
AAXX 26184 91531 46/// /0605 1//// 40075 22200 00273
AAXX 26184 42361 31994 00000 10080 20063 40163 71044 333 58001
AAXX 26184 43321 31595 30000 10186 20125 39671 40128 70500 81501 333 59003
AAXX 26184 42492 31993 00000 10108 20100 40151 74444 333 58000
AAXX 26184 42591 31994 01404 10084 20076 40165 71000 333 58003
AAXX 26184 42701 31995 00000 10108 20055 39414 40170 70500 333 58005
AAXX 26184 42798 31995 00000 10118 20081 40149 70500 333 59001
AAXX 26184 42809 31995 00000 10142 20124 40144 70500 333 58006
AAXX 26184 43333 21495 81116 10270 20241 40083 70562 8642/ 333 56299 58016 6037/ 84614 85816 88454
AAXX 26184 71016 16/// ///// 10005 60001 333 10016 21015 70003
AAXX 26184 71023 160// /3209 11064 21077 39367 40145 51069 60001 333 10011 21065 70000
AAXX 26184 71746 16/// /2112 10053 21028 39989 40212 58043 60001 333 10056 20014 70000
BBXX 41052 26181 99183 70648 46/// /0706 10263 40152 91750 333 91207
BBXX 41052 26181 99183 70648 46/// /0506 10262 40153 91740 333 91207
BBXX 44056 26181 99362 70757 46/// ///// 1//// 91820 22200 00119 10603 20603 70014
BBXX 41052 26181 99183 70648 46/// /0705 10264 40150 91810 333 91207
BBXX 41052 26181 99183 70648 46/// /0705 10265 40148 91830 333 91207
BBXX 41052 26181 99183 70648 46/// /0805 10265 40149 91820 333 91207
BBXX 44055 26181 99391 70753 46/// ///// 1//// 91830 22200 00090 10402 70008
BBXX 46109 26181 99481 71234 46/// /1601 10054 40243 91757 22200 00075
BBXX 46110 26181 99481 71230 46/// /2103 10047 40242 91758
BBXX WHKM 26184 99018 30674 41197 12313 10270 20243 40120 52010 7//00 814// 22233 0//// 2//// 3//// 4//// 5//// 6//// 80250
BBXX V2OG2 26183 99224 31064 41798 22017 10231 20199 40126 56003 70200 82100 22273 20403 318// 40504 80209
BBXX ONDY 26184 99236 30528 41498 01413 10240 2020/ 40160 58010 70100 8//// 22213 00270 2//// 3//// 4//// 5//// 6//// 80210
BBXX VRIO2 26184 99345 30176 41397 51417 10220 20190 40090 54010 70111 84298 22273 00210 21002 326// 41002 5//// 6//// 80200
AAXX 26184 91642 46/// /0000 1//// 40077 22200 0////
BBXX BAREU63 26184 99444 10089 46/// ///// 10112 29029 40335 22200
BBXX 61001 26184 99434 10078 46/// /0209 10139 20052 40334 57004 22200 00141 10501 70007
BBXX BATFR20 26184 99431 10054 46/// ///// 10132 21041 40342 22233
BBXX BATFR01 26184 99430 10061 46/// /0009 10142 20039 40337 53014 22272 00159
BBXX BATFR24 26184 99427 10095 46/// /3308 10129 20029 40340 22222 00150
BBXX 61002 26184 99421 10047 46/// ///14 10131 2//// 40348 52002 22200 00137 10502 70010
BBXX C6VF5 26184 99390 10194 41597 21223 10120 2004/ 40280 56020 7//00 82100 22234 00180 2//// 3//// 4//// 5//// 6//// 80080
BBXX BATFR09 26184 99388 10088 44498 70617 10124 20054 40316 53018 70222 84240 22223 00167 20304 60//0 ICE 0/0//
BBXX BATFR11 26184 99376 10018 46/// ///// 10139 20064 40321 52005 22212 00172
BBXX BAREU62 26184 99364 10225 46/// ///// 40291 57004 22264
BBXX ZCDQ5 26183 99342 10291 43498 10311 10110 20100 40270 54000 70001 22234 00100 20201 3//// 4//// 5//// 80110
BBXX DDZD2 26184 99333 10264 41/97 90817 10136 20100 40260 51025 75885 89/// 22225 00170 299// 80116
BBXX BAREU56 26184 99326 10150 46/// ///// 40246 57001 22222
AAXX 2618/ 89868 46/// ///// 11014 39757 4//// 5////
AAXX 2618/ 89828 46/// ///// 11333 36522 4//// 5////
AAXX 2618/ 89879 46/// ///// 10006 39787 4//// 5////
AAXX 2618/ 89869 46/// ///// 11010 39752 4//// 5////
AAXX 2618/ 89332 46/// ///// 10001 39235 4//// 5////
AAXX 2618/ 89769 46/// ///// 10008 39810 4//// 5////
AAXX 2618/ 89872 46/// ///// 11041 39788 4//// 5////
AAXX 2618/ 89866 46/// ///// 11003 39721 4//// 5////
AAXX 2618/ 89329 46/// ///// 11084 38745 4//// 5//// 91810
AAXX 2618/ 89799 46/// ///// 11229 4//// 5////
BBXX 64045 26184 99591 70117 46/// /2730 10066 21003 40070 51050 22200 00100 10913 70063 333 90710 91151
BBXX 62112 26184 99584 70002 47696 /2134 10111 20083 40054 53004 700// 22200
BBXX 62113 26184 99584 10002 47996 /2235 10108 20081 40077 55002 700// 22200
BBXX 62129 26184 99584 10003 46/// ///// 10110 20083 40080 55000 22200
BBXX 62114 26184 99583 10000 46/// /2139 10111 20084 40053 52004 22200
BBXX PJAI 26184 99581 70014 47698 /2220 10123 20068 40064 52007 700// 22200
BBXX 62111 26184 99580 70003 46/// /2338 10115 20083 40092 53006 22200 10709 70044
BBXX 62117 26184 99579 10000 47997 /2240 10115 20083 40080 53002 700// 22200 10710 70048
BBXX BATUK01 26184 99560 70032 46/// /2510 10134 20067 40140 55002 22200 00072
BBXX 62105 26184 99554 70121 46/// /2920 10091 20060 40178 51057 22200 00106 10913 70067 333 90710 91132
BBXX SKOZ 26184 99536 70247 43/97 73313 10035 40208 53019 22233 00103 2//// 4////
BBXX 62095 26184 99531 70159 46/// /3210 1//// 2//// 40224 53043 22200 10911 70053
BBXX 62301 26184 99524 70048 46/// ///20 1//// 2//// 40300 58001 22200 00087 106//
BBXX 62301 26184 99524 70047 46/// /2220 10100 20073 40296 56001 22200 00088 10605 70024 333 90710 91126
BBXX 62094 26184 99517 70067 46/// /2121 10110 20081 40298 55800 22200 00107 10646 70230
BBXX 62303 26184 99516 70051 46/// /2319 10114 20076 40314 55003 22200 00113 10606 70031 333 90710 91126
BBXX 62023 26183 99514 70079 46/96 /2230 10096 2//// 40304 5//// 22200 10607 70035 333 91137 555 70056 80018
BBXX BATFR54 26184 99513 70059 46/// /2228 10114 20069 40310 56012 22282 00114
BBXX 62081 26184 99510 70134 46/// ///// 10126 20103 40238 53007 22200 00121 10912 70058
BBXX BATFR03 26184 99505 70011 46/// /2421 10100 20057 40361 58005 22213
BBXX 62305 26184 99504 10000 46/98 /2419 10113 20076 40371 51009 22200 00119 10601 70007
BBXX 62107 26184 99501 70061 46/// /2218 10117 20067 4//// 53002 22200 00115 10907 70033 333 90710 91129
BBXX TESTFR9 26184 99499 70040 46/// /2222 10113 29076 40366 57017 22284
BBXX 62103 26184 99499 70029 46/99 /2317 10113 20065 40330 58002 22200 00120 11803 70016
BBXX BAREU11 26184 99492 70100 46/// ///// 40316 52014 22224
BBXX 62027 26184 99491 70022 46/// /2209 1//// 2//// 40367 57003 22200 00111 11103 325// 70015
BBXX 62442 26184 99490 70164 46/// /2023 1//// 2//// 40244 53006 22200 00124 333 90710 91132
BBXX 62029 26184 99487 70125 46/// /2118 10124 20085 40298 53007 22200 00127 10909 70044 333 90710 91126
BBXX WDD6127 26184 99475 70169 41698 21918 10130 2011/ 40257 52013 70111 8128/ 22214 00140 20405 3//// 4//// 5//// 6//// 80120
BBXX 62163 26184 99475 70084 46/// /2011 10114 20065 40338 52002 22200 00126 10907 70036
BBXX BATFR13 26184 99468 70038 46/// /1013 10109 20064 40360 55003 22264 00140
BBXX 62001 26184 99452 70050 46/// /1014 10124 20086 40338 52006 22200 00139 10705 70027
BBXX PCEO 26183 99448 70142 41599 82104 10130 20051 40316 54000 7//// 8/7// 22254 04137 20801 329// 41004 5//// 80090
BBXX PHQW 26183 99433 70104 41598 62405 10137 20102 40320 5/010 70311 86500 22283 00139 2//// 80117
BBXX A8CH2 26184 99432 70203 41297 71831 10140 40260 57005 7//22 8/700 22254 20404 328// 40906
BBXX PHAA 26183 99426 70107 41298 71606 10135 20105 40320 52015 70311 877// 22243 20201 330// 40602 80118
BBXX A8IO2 26184 99422 70157 41298 81302 10160 20103 40286 52010 70300 87778 22254 04150 20501 325// 40803 5//// 80130
BBXX UBEF5 26181 99410 70098 41998 01203 10130 40332 54000 70200 80000 22283 00150 2//// 33200 40602
BBXX HZZD 26183 99396 70296 41396 81938 10170 2017/ 40158 51018 76566 88717 22233 0//// 20705 319// 40705 5//// 6//// 80170
BBXX PCBT 26183 99378 70277 41798 71920 10185 20163 40226 53013 70322 85078 22214 20504 399// 4//05 80171
BBXX 2ALE5 26183 99376 70098 41/98 30611 10150 20069 40273 58009 70200 83/6/ 22244 20303 80110
BBXX DBBH 26181 99376 70010 41/98 /0202 10129 20077 40341 52005 7//// 22200 04160
BBXX A8PX4 26184 99362 70033 41/98 71025 10157 20087 40311 52011 70362 8//// 22224 00161 2//// 80118
BBXX WCZ5535 26184 99362 70030 41598 50921 10160 2010/ 40270 52005 7//00 851// 22223 00210 20204 3//// 4//// 5//// 6//// 80125
BBXX WRYC 26184 99361 70044 41498 31121 10150 2012/ 40312 54000 70121 8216/ 22255 00158 20504 308// 40604 5//// 6//// 80130
BBXX BAREU06 26184 99359 70115 46/// ///// 40270 52005 22224
AAXX 26184 89108 46/// /0315 11221 36941 4//// 54000 91830
AAXX 26184 89314 46/// /0809 11052 38211 4//// 5//// 91830
AAXX 26184 89327 46/// /0000 11016 39526 49802 5//// 91840
AAXX 26184 89329 46/// /0406 11085 38742 49808 52005 91840
AAXX 26184 89376 46/// /2911 11021 39762 49828 52012 91830
AAXX 26184 89828 46/// /1604 11330 36493 4//// 5//// 91830
AAXX 26184 89866 46/// /1204 11010 39689 49820 52006 91830
AAXX 26184 89868 46/// /2911 11012 39748 49814 5//// 91840
AAXX 26184 89873 46/// /1518 11024 39762 49838 5//// 91830
BBXX C6VG8 26184 99344 70759 41/// /3628 10110 2//// 40230 5//// 7//// 8//// 22255 00220 20206 315// 40306 5//// 6//// 8//// ICE /////
BBXX WC5932 26184 99427 70877 43/// /2319 00/// 10051 21011 40206 57045 7//// 8//// 22284 0//// 2//// 3//// 4//// 5//// 6//// 80026 ICE /////
BBXX V7HP4 26184 99107 70875 41897 30827 10280 20224 40150 56020 7//22 83198 22273 04260 2//// 3//// 4//// 5//// 6//// 80240 ICE /////
AAXX 26184 96655 11456 70000 10246 20242 30079 40114 57001 69911 71562 85572 333 56000 85612
AAXX 26181 48870 32498 73401 10218 20184 30161 40168 58015 878// 333 59005 83894 87696
AAXX 26181 48877 32598 52903 10234 20181 30150 40155 57011 82101 333 58001 82895
AAXX 26181 48887 32798 73201 10247 20204 30123 40129 58008 875// 333 58010 87697
AAXX 26181 48920 32598 70209 10258 20245 30099 40102 58014 879// 333 58005 83895 82996 86697
BBXX A8UL6 26183 99342 11754 41396 82612 10190 20167 40100 54000 76166 897// 22264 04210 2//// 327// 4//08 5//// 80175
AAXX 26184 71363 16/// /3115 11289 21320 39948 40005 51011 60001 333 11286 21364 70000
AAXX 26184 71026 16/// /3006 10027 21073 39323 40177 51031 60001 333 20016 7////
BBXX MINFR05 2618/ 99147 70173 46/// ///// 10235 40132 57001
BBXX MINUK03 2618/ 99548 70010 46/// ///// 10115 40142 57076
AAXX 26184 89807 46/// /2127 11020 29063 39671 4//// 5//// 333 90700 91133
AAXX 26184 89807 46/// /2127 11020 29063 39671 4//// 5//// 333 90700 91133
AAXX 26184 92036 46/// /3602 10277 40059 22200 00317
BBXX 63110 26184 99595 10015 47996 /2234 10107 20079 49999 56003 704// 22200 10810 70052
BBXX 63106 26184 99610 10017 46/// /2539 10102 49937 53007 22200
BBXX 63113 26184 99610 10017 46/// /2636 10103 20091 49968 53005 22200 10812 70062
BBXX 62081 26184 99510 70134 46/// ///// 10125 20102 40238 53007 22200 00121 10912 70058
BBXX 62105 26184 99554 70121 46/// /2920 10091 20060 40178 51057 22200 00106 10913 70066 333 90710 91132
BBXX 62303 26184 99516 70051 46/// /2320 10114 20076 40314 55003 22200 00113 106//
BBXX 62094 26184 99517 70067 46/// /2121 10110 20081 40298 55800 22200 00107 10646 70230
BBXX 62001 26184 99452 70050 46/// /1014 10124 20086 40258 52006 22200 00139 10705 70027
BBXX 62095 26184 99531 70159 46/// /3210 1//// 2//// 40224 53043 22200 10911 70053
BBXX 62103 26184 99499 70029 46/99 /2515 10117 20058 40348 58004 22200 00120 10804 70018 333 90710 91125
BBXX 44055 26181 99391 70753 46/// ///// 1//// 91830 22200 00090 10402 70008
BBXX 46109 26181 99481 71234 46/// /1601 10054 40243 91757 22200 00075
BBXX 46110 26181 99481 71230 46/// /2103 10047 40242 91758
BBXX 41052 26181 99183 70648 46/// /0805 10265 40149 91820 333 91207
BBXX 41052 26181 99183 70648 46/// /0705 10265 40148 91830 333 91207
BBXX 41052 26181 99183 70648 46/// /0706 10263 40152 91750 333 91207
BBXX 41052 26181 99183 70648 46/// /0506 10262 40153 91740 333 91207
BBXX 41052 26181 99183 70648 46/// /0705 10264 40150 91810 333 91207
BBXX 44056 26181 99362 70757 46/// ///// 1//// 91820 22200 00119 10603 20603 70014
AAXX 26184 93713 46/// /0000 10134 40148 22200 00158
BBXX WC5932 26184 99427 70877 43/// /2319 00/// 10051 21011 40206 57045 7//// 8//// 22284 0//// 2//// 3//// 4//// 5//// 6//// 80026 ICE /////
BBXX 66022 26181 99541 10142 46/// /2309 10091 30270 22200 00040
AAXX 26184 97690 01450 82807 10254 20239 39969 40071 57008 60011 76022 85867 333 56000 57800 60017 84815 88279
OOXX AAPIG 26184 99758 51003 56251 08502 46/// /0707 11092 21222 38831 49802 52015 91750
BBXX 42043 26181 99290 70949 46/// /2907 1//// 40210 91830 22200 00142 333 91209
BBXX 42043 26181 99290 70949 46/// /2905 1//// 40218 91800 22200 00143 333 91207
AAXX 26184 48427 31956 00106 10204 20146 30149 40157 57009 71000 333 59006
BBXX 42046 26181 99279 70940 46/// /2806 1//// 40211 91830 22200 00219 333 91208
BBXX 42046 26181 99279 70940 46/// /3007 1//// 40213 58017 91800 22200 00219 333 91209
AAXX 26184 89614 46/// /0513 11083 29078 38906 4//// 5//// 91830 333 90700 91117
BBXX 46094 26181 99446 71243 46/// /1406 10074 91830
BBXX 46094 26181 99446 71243 46/// /1404 10075 91820
BBXX 46094 26181 99446 71243 46/// /1304 10075 91810
BBXX 46094 26181 99446 71243 46/// /1205 10076 91800
AAXX 26184 89614 46/// /0513 11083 29078 38906 4//// 5//// 91830 333 90700 91117
BBXX 46094 26181 99446 71243 46/// /1505 10075 91750
BBXX 46094 26181 99446 71243 46/// /1404 10075 91740
BBXX ZSAF 26184 99702 50030 41393 81002 11023 21054 49772 56001 73873 885// 22229 05006 20000 30000 40000 50000 ICE 47900
BBXX FHZI 26184 99666 31400 46/// /1030 11000 2//// 39687 49698 5//// 22200 05018
BBXX ZMENA 26184 99436 31727 46/// ///// 10154 20135 40130 57002 22200
BBXX ZMFR 26184 99413 31748 43/// /0218 10164 20132 40169 52003 22200 00186
BBXX V2QD4 26183 99411 31762 41898 30216 10160 20144 40178 51010 70111 824/5 22213 00170 20402 305// 41003
BBXX ZMENA 26184 99436 31727 46/// ///// 10154 20135 40130 57002 22200
BBXX ZMFR 26184 99413 31748 43/// /0218 10164 20132 40169 52003 22200 00186
BBXX V2QD4 26183 99411 31762 41898 30216 10160 20144 40178 51010 70111 824/5 22213 00170 20402 305// 41003
BBXX MINUK01 2618/ 99600 70011 46/// ///// 10083 49994 52034
BBXX MINUK05 2618/ 99571 70021 46/// ///// 10133 40099 52006
BBXX DPLE 26183 99492 70178 41/97 82134 10120 20111 40220 56/// 75052 88/// 22264 00130 2//// 80115
BBXX MRGU3 26183 99360 70069 41998 01030 10159 20085 40266 51005 70200 80000 22223 04169 20608 310// 41008 80121
BBXX MINFR05 2618/ 99147 70173 46/// ///// 10235 40132 57001
BBXX V7HP4 26184 99107 70875 41897 30827 10280 20224 40150 56020 7//22 83198 22273 04260 2//// 3//// 4//// 5//// 6//// 80240 ICE /////
BBXX MINUK03 2618/ 99548 70010 46/// ///// 10115 40142 57076
BBXX 46094 26181 99446 71243 46/// /1404 10075 91740
BBXX 46094 26181 99446 71243 46/// /1505 10075 91750
BBXX 46094 26181 99446 71243 46/// /1205 10076 91800
BBXX 46094 26181 99446 71243 46/// /1406 10074 91830
BBXX 46094 26181 99446 71243 46/// /1304 10075 91810
BBXX 46094 26181 99446 71243 46/// /1404 10075 91820
BBXX 42046 26181 99279 70940 46/// /3007 1//// 40213 58017 91800 22200 00219 333 91209
BBXX 42046 26181 99279 70940 46/// /2806 1//// 40211 91830 22200 00219 333 91208
BBXX 42043 26181 99290 70949 46/// /2905 1//// 40218 91800 22200 00143 333 91207
BBXX 42043 26181 99290 70949 46/// /2907 1//// 40210 91830 22200 00142 333 91209
BBXX C6VG8 26184 99344 70759 41/// /3628 10110 2//// 40230 5//// 7//// 8//// 22255 00220 20206 315// 40306 5//// 6//// 8//// ICE /////
AAXX 26184 42587 31995 00000 10100 20066 40158 70500 333 58002
BBXX MINUK03 2618/ 99548 70010 46/// ///// 10115 40142 57076
BBXX SKEC 26181 99563 10124 46/// ///// 10074 40175 57016 22238 00063
AAXX 26181 15150 02997 01500 10002 21046 30130 40353 52009 60002 333 10071 21004 31000 60007 91002 91104
AAXX 26181 98132 31465 20904 10209 20160 40249 58003 70544 81230 333 56299 81817
AAXX 26181 98133 NIL
AAXX 26181 98222 31975 10403 10230 20186 40140 58002 70544 80001 333 56999 81080
AAXX 26181 98233 31570 53601 10204 20188 40183 58006 70544 85500 333 56999 85620
AAXX 26181 98324 31462 50702 10254 20206 40136 58006 70544 81268 333 56999 81816 85280
AAXX 26181 98327 31665 73505 10217 20181 39979 40155 54000 70544 81130 333 56999 81842 87360
AAXX 26181 98334 32460 53603 10221 20202 39964 40170 58012 81270 333 56999 81818 84358
AAXX 26181 98425 32557 80402 10261 20198 40129 58018 8482/ 333 56999 84620 88459
AAXX 26181 98426 31568 70606 10243 20183 40140 56009 70544 81170 333 56999 81820 87358
AAXX 26181 98427 11475 83608 10237 20218 39943 40122 58012 60021 72566 8327/ 333 56199 83818 88356
AAXX 26181 98428 32458 73604 10260 20223 40135 58004 82861 333 56899 82618 83359
AAXX 26181 98432 31568 40403 10250 20222 40132 58014 70544 82202 333 56999 82820
AAXX 26181 98433 11462 80410 10200 20175 39408 40135 57007 69921 70382 8487/ 333 56199 84612 88357
AAXX 26181 98434 11468 83602 10250 20208 30152 40160 58009 69951 70182 84270 333 56199 84818 87358
AAXX 26181 98435 NIL
AAXX 26181 98442 NIL
AAXX 26181 98446 32470 70202 10254 20238 30090 40136 58012 83208 333 56199 83818 87270
AAXX 26181 98447 32470 70206 10235 20223 39850 40116 5//// 83202 333 56199 83818 87070
AAXX 26181 98538 11460 80208 10252 20238 30105 40110 57007 60011 71562 83267 333 56119 83811 84357 88272
AAXX 26181 98546 11458 80407 10271 20257 30096 40104 57014 71582 60011 84907 333 56999 84915 88275
AAXX 26181 98548 11458 80402 10250 20243 30090 40096 58007 60041 76162 8452/ 333 56999 84816 88457
AAXX 26181 98553 11440 80406 10250 20242 30097 40101 58005 60351 76586 8597/ 333 56999 85915 88357
AAXX 26181 98558 11450 80618 10259 20259 40090 58009 60231 76266 8492/ 333 56999 84915 88457 pc. 98642 11458 80000 10250 20242 30092 40101 58009 60021 76066 8552/ 333 56999 85615 88457
AAXX 26181 98642 NIL
AAXX 26181 98644 11450 80201 10245 20235 30100 40109 58009 60321 76166 8552/ 333 56999 85616 88457
AAXX 26181 98648 11440 80301 10242 20240 30024 40106 58006 60611 76066 8392/ 333 56299 83912 88457
AAXX 26181 98746 11458 81603 10241 20216 40067 58026 60021 70586 8397/ 333 56999 83918 88358
AAXX 26181 98751 11458 83401 10205 20198 39435 40111 58006 60631 76266 8662/ 333 56999 86715 88456
AAXX 26181 98752 11458 80000 10248 20240 40100 57013 60451 72166 8357/ 333 56999 83616 88357
AAXX 26181 98851 11468 83203 10240 20212 39938 40087 58005 60051 71566 8357/ 333 56999 83618 88358
BBXX 62303 26184 99516 70051 46/// /2319 10114 20076 40314 55003 22200 00113 10606 70031 333 90710 91126
BBXX 62001 26184 99452 70050 46/// /1014 10124 20086 40338 52006 22200 00139 10705 70027
BBXX 62081 26184 99510 70134 46/// ///// 10126 20103 40238 53007 22200 00121 10912 70058
BBXX 62105 26184 99554 70121 46/// /2920 10091 20060 40178 51057 22200 00106 10913 70067 333 90710 91132
BBXX 63110 26183 99595 10015 41/96 /2243 10107 49993 700// 8//// 22200 10810 70050
BBXX 63106 26184 99610 10017 46/// /2539 10102 49937 53007 22200
BBXX 63105 26184 99610 10017 47396 ///// 10103 20089 49938 53005 751// 22200
BBXX 62103 26184 99499 70029 46/99 /2317 10113 20065 40330 58002 22200 00120 11803 70016
BBXX 62094 26184 99517 70067 46/// /2221 10110 20081 4//// 55040 22200 00107 10606 70030 333 90710 91131
BBXX 62095 26184 99531 70159 46/// /3110 10091 20040 40214 52039 22200 00110 10911 70054
BBXX A8PF6 26184 99301 70616 41797 32224 10220 20174 40160 57010 7//00 831// 22243 0//// 20404 322// 4//// 5//// 6//// 80190 ICE /////
BBXX SKEC 26181 99563 10124 46/// ///// 10074 40175 57016 22238 00063
BBXX FHZI 26184 99666 31400 46/// /1030 11000 2//// 39687 49698 5//// 22200 05018
BBXX ZSAF 26184 99702 50030 41393 81002 11023 21054 49772 56001 73873 885// 22229 05006 20000 30000 40000 50000 ICE 47900
BBXX ZMENA 26184 99436 31727 46/// ///// 10154 20135 40130 57002 22200
BBXX V2QD4 26183 99411 31762 41898 30216 10160 20144 40178 51010 70111 824/5 22213 00170 20402 305// 41003
BBXX ZMFR 26184 99413 31748 43/// /0218 10164 20132 40169 52003 22200 00186
BBXX S6IH 26180 99201 70647 415// 41105 10280 20221 40190 57010 70200 83242 22223 04254 20401 305// 40802 5//// 80240
BBXX A8PF6 26184 99301 70616 41797 32224 10220 20174 40160 57010 7//00 831// 22243 0//// 20404 322// 4//// 5//// 6//// 80190 ICE /////
AAXX 26184 41268 36/// /2601 10191 20131 30143 47995 333 0E021 10285 59007
BBXX MINFR00 2618/ 99034 70902 46/// ///// 10240 40111 57014
AAXX 26184 71408 46/// /1718 10000 21054 30079 40159 57008 6///1 333 10000 21087 7////
BBXX 42013 26181 99272 70829 46/// ///// 1//// 40207 91820 22200 00211
BBXX 42013 26181 99272 70829 46/// ///// 1//// 40209 58020 91800 22200 00210
AAXX 26184 41268 36/// /2601 10191 20131 30143 47995 333 0E021 10285 59007
BBXX 42369 26181 99272 70903 46/// /0000 1//// 91740 22200 10502 70009
BBXX 42370 26181 99273 70905 46/// ///// 10232 91740 22200 10502 70009
BBXX 42376 26181 99291 70879 46/// /0911 10210 40184 91740 22200 10503 70013
BBXX 42887 26181 99282 70885 46/// /1205 10230 91740 22200 10502 70012
AAXX 26184 62600 32970 00405 10180 20030 30007 40228 333 10218 59001
AAXX 26184 62641 32970 03210 10220 20145 30143 40191 333 10264 58007
AAXX 26184 62650 32970 00111 10195 20010 39917 40193 333 10247 58000
AAXX 26184 62680 31968 03610 10245 20105 39751 40146 70600 333 10310 58017
AAXX 26184 62721 32970 73609 10280 20080 39705 40141 80007 333 10325 56009 58005 87275
AAXX 26184 62730 32970 00406 10275 20135 39597 40156 333 10338 59003
AAXX 26184 62751 32970 60205 10248 20046 39672 40131 80007 333 10346 56009 58003 87275
AAXX 26184 62771 32970 70106 10260 20065 39498 40138 80007 333 10285 56009 58003 87275
AAXX 26184 62781 32970 70204 10235 20055 39502 40136 80007 333 10310 56009 58003 87275
AAXX 26184 62790 32970 70208 10250 21010 39419 40140 80007 333 10296 56009 58005 87275
AAXX 26184 62805 32970 73604 10280 20130 39555 40076 80007 333 10360 56009 59002 87275
AAXX 26184 62809 32970 70204 10266 20112 39613 40120 80007 333 10320 56009 58004 87275
BBXX 42887 26181 99282 70885 46/// /1205 10230 91740 22200 10502 70012
BBXX 42376 26181 99291 70879 46/// /0911 10210 40184 91740 22200 10503 70013
BBXX 42369 26181 99272 70903 46/// /0000 1//// 91740 22200 10502 70009
BBXX 42370 26181 99273 70905 46/// ///// 10232 91740 22200 10502 70009
BBXX 42013 26181 99272 70829 46/// ///// 1//// 40209 58020 91800 22200 00210
BBXX 42013 26181 99272 70829 46/// ///// 1//// 40207 91820 22200 00211
BBXX MINFR00 2618/ 99034 70902 46/// ///// 10240 40111 57014
BBXX 63110 26184 99595 10015 47996 /2234 10107 20079 49999 56003 704// 22200 10810 70052
BBXX 63106 26184 99610 10017 46/// /2539 10102 49937 53007 22200
BBXX 63113 26184 99610 10017 46/// /2636 10103 20091 49968 53005 22200 10812 70062
BBXX 62081 26184 99510 70134 46/// ///// 10125 20102 40238 53007 22200 00121 10912 70058
BBXX 62105 26184 99554 70121 46/// /2920 10091 20060 40178 51057 22200 00106 10913 70066 333 90710 91132
BBXX 62303 26184 99516 70051 46/// /2320 10114 20076 40314 55003 22200 00113 106//
BBXX 62094 26184 99517 70067 46/// /2121 10110 20081 40298 55800 22200 00107 10646 70230
BBXX 62001 26184 99452 70050 46/// /1014 10124 20086 40258 52006 22200 00139 10705 70027
BBXX 62095 26184 99531 70159 46/// /3210 1//// 2//// 40224 53043 22200 10911 70053
BBXX 62103 26184 99499 70029 46/99 /2515 10117 20058 40348 58004 22200 00120 10804 70018 333 90710 91125
AAXX 26184 87765 32960 02707 10283 20030 39206 48519 57013 333 96120 96104 99357
AAXX 26184 85832 12780 23105 10262 20089 40158 56011 60001 82201 333 56600 82850
AAXX 26184 85836 12960 02309 10272 20102 40208 57012 60001
AAXX 26184 85864 12680 12605 10247 20100 40173 56001 60001 81100 333 56600 81836
AAXX 26184 85874 12682 22914 10238 20092 39563 40157 57003 60001 82200 333 56600 82840
AAXX 26184 85886 12670 13317 10262 20183 40157 56014 60001 81200 333 56600 81840
AAXX 26184 85934 12580 72522 10153 20019 40165 52008 60001 83131 333 56556 83820 83070
AAXX 26184 89054 11105 83116 10018 20010 49877 57025 60011 75065 886// 333 56799 88703 96040
AAXX 26184 89056 11/03 93308 10013 20010 49869 57013 60003 74544 333 89/01
AAXX 26184 89057 11340 82609 10014 21020 49870 57010 60023 76822 8672/ 333 56669 86707 88520
AAXX 26184 89058 11415 83210 10017 20011 39853 49874 57015 60011 76074 8272/
AAXX 26184 89059 12460 81905 10007 21003 49855 57014 60003 886// 333 74099 88713
AAXX 26184 89251 11112 83217 10014 20009 49861 57015 76062 8672/
AAXX 26184 85972 11495 83030 10078 20083 40078 52008 60001 71522 887// 333 56799 88716 91530 91140
AAXX 26184 85406 12970 02112 10233 20167 40116 58021 60001
AAXX 26184 85418 12565 52409 10229 20164 40135 57017 60001 83501 333 56000 83622
AAXX 26184 85432 12970 52524 10268 20083 37746 48393 57017 60001 83202 333 56606 83858 84072
AAXX 26184 85442 12470 41811 10221 20157 40124 57018 60001 84500 333 56400 81611 83620
AAXX 26184 85467 12980 02409 10234 20122 40134 58013 60001
AAXX 26184 85469 41565 53305 10237 20186 40207 52005 72521 85200 333 56200 85820
AAXX 26184 85488 12462 52912 10209 20135 40134 58011 60001 82504 333 56007 81610 85075
AAXX 26184 85574 12960 61812 10315 20063 39574 40095 57015 60001 82039 333 56066 82368 85170
AAXX 26184 85577 12960 61904 10315 20075 39527 40101 57014 60001 84031 333 56066 84366
AAXX 26184 85585 12498 71917 10182 20149 40185 58004 60001 87600 333 56400 83715 84616
AAXX 26184 85586 12960 52711 10196 20125 40155 57011 60001 80001 333 56006 87075
AAXX 26184 85629 12980 51808 10306 20123 40105 57018 60001 80004 333 56006 85070
AAXX 26184 85672 12980 01808 10322 20132 40121 58019 60001 333
AAXX 26184 85682 12960 00406 10199 20141 40153 58009 60001
AAXX 26184 85743 12960 09906 10274 20128 40156 58014 60001
AAXX 26184 85766 12975 01506 10246 20163 40174 57017 60001
AAXX 26184 85782 12560 11813 10242 20144 40191 57010 60001 81100 333 56000 81830
AAXX 26184 85799 42980 01312 10189 20150 40201 58004 60001 70222
AAXX 26184 85830 NIL
AAXX 26184 85892 12670 12609 10246 20059 40153 57008 60001 81100 333 56600 81840
AAXX 26181 14015 11756 80000 10013 20001 30026 40402 52012 69902 71072 8657/ 333 10015 86650
AAXX 2618/ 89869 46/// ///// 11010 39753 4//// 5//// 91830
AAXX 2618/ 89329 46/// ///// 11085 38746 4//// 5//// 91840
AAXX 2618/ 89327 46/// ///// 11016 39554 4//// 5//// 91840
AAXX 2618/ 89828 46/// ///// 11333 36521 4//// 5//// 91830
AAXX 2618/ 89332 46/// ///// 10010 39235 4//// 5//// 91840
AAXX 26184 91375 46/// /0506 10265 40095 22200 00279
AAXX 26184 91165 32566 40613 10228 20172 30192 40229 52013 91753
AAXX 26184 91212 32966 00510 10256 20228 31379 40113 56018 91754
AAXX 26184 91245 32566 40709 10250 20240 30157 91755
AAXX 26184 91285 12566 62503 10194 20172 30212 40224 53015 69931 91753
AAXX 26184 91334 11474 80710 10269 20240 30069 40072 57017 60051 70282 82371
AAXX 26184 91376 32474 80811 10274 20237 30093 40097 53007 85878
AAXX 26184 91408 11474 80911 10272 20246 30036 40074 57015 60031 72582 82371
AAXX 26184 91413 32469 70610 10276 20227 30073 40098 56014 82171
AAXX 26184 91155 NIL
AAXX 26184 91203 NIL
AAXX 26184 91217 NIL
AAXX 26184 91232 NIL
AAXX 26184 91250 NIL
AAXX 26184 91275 NIL
AAXX 26184 91317 NIL
AAXX 26184 91324 NIL
AAXX 26184 91339 NIL
AAXX 26184 91348 NIL
AAXX 26184 91353 NIL
AAXX 26184 91356 NIL
AAXX 26184 91366 NIL
AAXX 26184 91367 NIL
AAXX 26184 91369 NIL
AAXX 26184 91371 NIL
AAXX 26184 91378 NIL
AAXX 26184 91425 NIL
AAXX 26184 91434 NIL
AAXX 26184 91601 NIL
AAXX 26184 91610 NIL
BBXX 42369 26181 99272 70903 46/// /2101 1//// 91800 22200 10502 70009
BBXX 42370 26181 99273 70905 46/// ///// 10232 91800 22200 10502 70009
BBXX 42376 26181 99291 70879 46/// /1009 10211 40180 58033 91800 22200 10503 70014
BBXX 42887 26181 99282 70885 46/// /1205 10229 91800 22200 10502 70011
BBXX 62303 26184 99516 70051 46/// /2319 10114 20076 40314 55003 22200 00113 10606 70031 333 90710 91126
BBXX 62001 26184 99452 70050 46/// /1014 10124 20086 40338 52006 22200 00139 10705 70027
BBXX 62081 26184 99510 70134 46/// ///// 10126 20103 40238 53007 22200 00121 10912 70058
BBXX 62105 26184 99554 70121 46/// /2920 10091 20060 40178 51057 22200 00106 10913 70067 333 90710 91132
BBXX 63110 26183 99595 10015 41/96 /2243 10107 49993 700// 8//// 22200 10810 70050
BBXX 63106 26184 99610 10017 46/// /2539 10102 49937 53007 22200
BBXX 63105 26184 99610 10017 47396 ///// 10103 20089 49938 53005 751// 22200
BBXX 62103 26184 99499 70029 46/99 /2317 10113 20065 40330 58002 22200 00120 11803 70016
BBXX 62094 26184 99517 70067 46/// /2221 10110 20081 4//// 55040 22200 00107 10606 70030 333 90710 91131
BBXX 62095 26184 99531 70159 46/// /3110 10091 20040 40214 52039 22200 00110 10911 70054
AAXX 26184 91165 32566 40613 10228 20172 30192 40229 52013 91753
AAXX 26184 91212 32966 00510 10256 20228 31379 40113 56018 91754
AAXX 26184 91285 12566 62503 10194 20172 30212 40224 53015 69931 91753
AAXX 26184 91334 11474 80710 10269 20240 30069 40072 57017 60051 70282 82371
AAXX 26184 91376 32474 80811 10274 20237 30093 40097 53007 85878
AAXX 26184 91408 11474 80911 10272 20246 30036 40074 57015 60031 72582 82371
AAXX 26184 91413 32469 70610 10276 20227 30073 40098 56014 82171
AAXX 26184 91245 32566 40709 10250 20240 30157 91755
BBXX VRXL7 26183 99095 70364 41397 60609 10290 2022/ 40130 56010 7//22 86420 22253 00270 20204 309// 4//// 5//// 6//// 80240 ICE /////
BBXX 42376 26181 99291 70879 46/// /1009 10211 40180 58033 91800 22200 10503 70014
BBXX 42887 26181 99282 70885 46/// /1205 10229 91800 22200 10502 70011
BBXX 42369 26181 99272 70903 46/// /2101 1//// 91800 22200 10502 70009
BBXX 42370 26181 99273 70905 46/// ///// 10232 91800 22200 10502 70009
BBXX VRXL7 26183 99095 70364 41397 60609 10290 2022/ 40130 56010 7//22 86420 22253 00270 20204 309// 4//// 5//// 6//// 80240 ICE /////
AAXX 26184 71724 16/// /2310 11022 21074 30188 40196 58008 60001 333 11020 21108 70031
AAXX 26184 71307 16/// /2212 10048 21013 39983 40237 58037 60001 333 10051 20005 70000
AAXX 26184 71425 16/// /2913 11032 21082 30076 40113 56006 60001 333 11030 21105 70000
AAXX 26184 71612 16/// /2403 11014 21077 30125 40217 58005 60001 333 11013 21077 70050
AAXX 26184 71376 16/// /2403 11040 21069 39911 40213 56017 60001 333 11035 21092 70040
AAXX 26181 01218 16/// /1005 10092 20071 39869 49890 56036 60092 333 10119 91112
AAXX 2618/ 89868 46/// ///// 11013 39759 4//// 5//// 91840
AAXX 26184 87395 32565 20000 10280 20158 30105 40150 57027 82100 333 56200 82825
BBXX 42045 26181 99262 70965 46/// /2806 10111 40227 91830 22200 00213 333 91208
BBXX 42045 26181 99262 70965 46/// /2706 10112 40239 91800 22200 00213 333 91208
BBXX 42363 26181 99282 70892 46/// /1403 10222 20178 40207 91815 333 91204
BBXX 42363 26181 99282 70892 46/// /1403 10222 20178 40207 91815 333 91204
BBXX 42045 26181 99262 70965 46/// /2706 10112 40239 91800 22200 00213 333 91208
BBXX 42045 26181 99262 70965 46/// /2806 10111 40227 91830 22200 00213 333 91208
BBXX 63110 26184 99595 10015 47996 /2234 10107 20079 49999 56003 704// 22200 10810 70052
BBXX 63106 26184 99610 10017 46/// /2539 10102 49937 53007 22200
BBXX 63113 26184 99610 10017 46/// /2636 10103 20091 49968 53005 22200 10812 70062
BBXX 62081 26184 99510 70134 46/// ///// 10125 20102 40238 53007 22200 00121 10912 70058
BBXX 62105 26184 99554 70121 46/// /2920 10091 20060 40178 51057 22200 00106 10913 70066 333 90710 91132
BBXX 62303 26184 99516 70051 46/// /2320 10114 20076 40314 55003 22200 00113 106//
BBXX 62094 26184 99517 70067 46/// /2121 10110 20081 40298 55800 22200 00107 10646 70230
BBXX 62001 26184 99452 70050 46/// /1014 10124 20086 40258 52006 22200 00139 10705 70027
BBXX 62095 26184 99531 70159 46/// /3210 1//// 2//// 40224 53043 22200 10911 70053
BBXX 62103 26184 99499 70029 46/99 /2515 10117 20058 40348 58004 22200 00120 10804 70018 333 90710 91125
BBXX 42369 26181 99272 70903 46/// /2101 1//// 91820 22200 10502 70009
BBXX 42370 26181 99273 70905 46/// ///// 10232 91820 22200 10502 70009
BBXX 42376 26181 99291 70879 46/// /1009 10211 40180 91820 22200 10503 70014
BBXX 42887 26181 99282 70885 46/// /1305 10229 91820 22200 10502 70012
BBXX 42376 26181 99291 70879 46/// /1009 10211 40180 91820 22200 10503 70014
BBXX 42370 26181 99273 70905 46/// ///// 10232 91820 22200 10502 70009
BBXX 42369 26181 99272 70903 46/// /2101 1//// 91820 22200 10502 70009
BBXX 42887 26181 99282 70885 46/// /1305 10229 91820 22200 10502 70012
BBXX 52243 26181 99193 11666 46/// ///// 1//// 91800 22200 00266
BBXX 51179 26181 99143 51708 46/// ///// 1//// 91800 22200 00288
BBXX 51178 26181 99142 51695 46/// ///// 1//// 91800 22200 00284
BBXX 52246 26181 99152 11457 46/// ///// 1//// 91800 22200 00280
BBXX 52245 26181 99181 11458 46/// ///// 1//// 91800 22200 00277
BBXX 51174 26181 99142 51697 46/// ///// 1//// 91800 22200 00287
BBXX 52244 26181 99200 11452 46/// ///// 1//// 91800 22200 00267
BBXX 51173 26181 99260 71739 46/// ///// 1//// 91800 22200 00248
BBXX 51172 26181 99284 71783 46/// ///// 1//// 91800 22200 00230
BBXX 51171 26181 99064 71623 46/// ///// 1//// 91800 22200 00277
BBXX 51170 26181 99168 71695 46/// ///// 1//// 91800 22200 00256
BBXX 51169 26181 99004 51600 46/// ///// 1//// 91800 22200 00258
BBXX 52248 26181 99135 11448 46/// ///// 1//// 91800 22200 00284
AAXX 26184 41515 02695 50000 10050 21090 38559 48521 60003 83520 333 56990 59012 60007 83650 82458
AAXX 26184 41560 22696 31803 10035 21067 38280 48512 60003 82320 333 58006 60007
AAXX 26184 41571 119// 00000 10060 20013 39586 40194 60003 70500 333 58014
AAXX 26184 41594 316// 00000 10075 20035 39957 40184 70500 333 59013
AAXX 26184 41685 32993 00000 10085 21070 38916 48491 333 59007
AAXX 26184 41710 01995 00000 10100 21150 39372 40163 60003 70600 333 58010 60007
AAXX 26184 41718 11995 00000 10090 20045 30055 40163 60003 70400 333 59001
AAXX 26184 41739 02996 00000 10110 21008 39033 48483 60003 333 59012 60007
AAXX 26184 41744 32996 00000 10125 21036 38770 48492 333 59010
AAXX 26184 41749 01995 03102 10120 20068 30134 40170 60003 70400 333 59003 60007
AAXX 26184 41529 12995 00000 10056 20025 39790 40185 60003 333 58000
AAXX 26184 41598 11995 00000 10060 20036 39891 40175 60003 71000 333 58006
AAXX 26184 41620 32995 02305 10075 21067 38582 48484 333 59011
AAXX 26184 41624 02995 03102 10090 20045 39960 40168 60003 333 58004 60007
AAXX 26184 41640 01995 00000 10100 20057 39903 40160 60003 70400 333 59013 60007
AAXX 26184 41660 119// 01306 10025 21046 38432 48514 60003 70500 333 59003
AAXX 26184 41675 11995 00000 10080 20046 30024 40168 60003 70400 333 58006
AAXX 26184 41712 12996 02702 10100 21087 39204 48506 60003 333 58005
AAXX 26184 41715 01996 00000 10110 20068 30095 40162 60003 70500 333 59003 60007
AAXX 26184 41756 NIL
AAXX 26184 41764 31996 00000 10135 20049 30100 40151 60003 70400 333 58001 60007
AAXX 26184 41768 02996 00000 10110 20079 30153 40160 60003 333 58007 60007
AAXX 26184 41780 01996 00000 10170 20125 30127 40155 70500 333 59005 60007
AAXX 26184 41529 12995 00000 10056 20025 39790 40185 60003 333 58000
AAXX 26184 41598 11995 00000 10060 20036 39891 40175 60003 71000 333 58006
AAXX 26184 41620 32995 02305 10075 21067 38582 48484 333 59011
AAXX 26184 41624 02995 03102 10090 20045 39960 40168 60003 333 58004 60007
AAXX 26184 41640 01995 00000 10100 20057 39903 40160 60003 70400 333 59013 60007
AAXX 26184 41660 119// 01306 10025 21046 38432 48514 60003 70500 333 59003
AAXX 26184 41675 11995 00000 10080 20046 30024 40168 60003 70400 333 58006
AAXX 26184 41712 12996 02702 10100 21087 39204 48506 60003 333 58005
AAXX 26184 41715 01996 00000 10110 20068 30095 40162 60003 70500 333 59003 60007
AAXX 26184 41756 NIL
AAXX 26184 41764 31996 00000 10135 20049 30100 40151 60003 70400 333 58001 60007
AAXX 26184 41768 02996 00000 10110 20079 30153 40160 60003 333 58007 60007
AAXX 26184 41780 01996 00000 10170 20125 30127 40155 70500 333 59005 60007
AAXX 26184 41506 02995 00000 10030 21024 48525 60003 333 59008 60007
AAXX 26184 41508 22996 00000 10044 21055 48534 60003 333 59001 60007
AAXX 26184 41523 12996 00000 10045 21020 48514 60003 333 59007 60007
AAXX 26184 41535 12997 00000 10035 21003 48483 60003 333 58000
AAXX 26184 41536 NIL
AAXX 26184 41573 12996 03602 10040 21094 48505 60007 333 58004
AAXX 26184 41600 01994 00000 10060 20048 39872 40182 60003 71000 333 58011 60007
AAXX 26184 41630 11996 00000 10065 20029 40178 60003 70400 333 58002
AAXX 26184 41678 12996 00000 10110 20068 40175 60003 333 58006 60007
AAXX 26184 41696 02996 00000 10030 21140 38011 48533 60003 333 58001 60007
AAXX 26184 41697 02996 00000 10092 20032 40167 60003 333 59003 60007
AAXX 26184 41700 11995 00000 10095 20038 40159 60003 70400 333 58001
AAXX 26184 41725 02996 00000 10110 20043 40154 60003 333 59006 60007
AAXX 26184 41746 02996 00000 10110 20079 40172 60003 333 58003 60007
AAXX 26184 41759 12696 52302 10210 20169 30153 40159 60002 85500 333 56900 59003 85630
AAXX 26184 41785 02996 00000 10145 20097 40151 60003 333 59003 60007
BBXX 62303 26184 99516 70051 46/// /2319 10114 20076 40314 55003 22200 00113 10606 70031 333 90710 91126
BBXX 62001 26184 99452 70050 46/// /1014 10124 20086 40338 52006 22200 00139 10705 70027
BBXX 62081 26184 99510 70134 46/// ///// 10126 20103 40238 53007 22200 00121 10912 70058
BBXX 62105 26184 99554 70121 46/// /2920 10091 20060 40178 51057 22200 00106 10913 70067 333 90710 91132
BBXX 63110 26183 99595 10015 41/96 /2243 10107 49993 700// 8//// 22200 10810 70050
BBXX 63106 26184 99610 10017 46/// /2539 10102 49937 53007 22200
BBXX 63105 26184 99610 10017 47396 ///// 10103 20089 49938 53005 751// 22200
BBXX 62103 26184 99499 70029 46/99 /2317 10113 20065 40330 58002 22200 00120 11803 70016
BBXX 62094 26184 99517 70067 46/// /2221 10110 20081 4//// 55040 22200 00107 10606 70030 333 90710 91131
BBXX 62095 26184 99531 70159 46/// /3110 10091 20040 40214 52039 22200 00110 10911 70054
BBXX 52248 26181 99135 11448 46/// ///// 1//// 91800 22200 00284
BBXX 52244 26181 99200 11452 46/// ///// 1//// 91800 22200 00267
BBXX 52245 26181 99181 11458 46/// ///// 1//// 91800 22200 00277
BBXX 52246 26181 99152 11457 46/// ///// 1//// 91800 22200 00280
BBXX 52243 26181 99193 11666 46/// ///// 1//// 91800 22200 00266
BBXX 51170 26181 99168 71695 46/// ///// 1//// 91800 22200 00256
BBXX 51171 26181 99064 71623 46/// ///// 1//// 91800 22200 00277
BBXX 51172 26181 99284 71783 46/// ///// 1//// 91800 22200 00230
BBXX 51173 26181 99260 71739 46/// ///// 1//// 91800 22200 00248
BBXX 51169 26181 99004 51600 46/// ///// 1//// 91800 22200 00258
BBXX 51174 26181 99142 51697 46/// ///// 1//// 91800 22200 00287
BBXX 51178 26181 99142 51695 46/// ///// 1//// 91800 22200 00284
BBXX 51179 26181 99143 51708 46/// ///// 1//// 91800 22200 00288
AAXX 26184 97796 01450 80000 10248 20239 30020 40070 57013 60011 76066 8697/ 333 56009 57900 69907 82911 86612 80980
BBXX 63110 26184 99595 10015 47996 /2234 10107 20079 49999 56003 704// 22200 10810 70052
BBXX 63106 26184 99610 10017 46/// /2539 10102 49937 53007 22200
BBXX 63113 26184 99610 10017 46/// /2636 10103 20091 49968 53005 22200 10812 70062
BBXX 62081 26184 99510 70134 46/// ///// 10125 20102 40238 53007 22200 00121 10912 70058
BBXX 62105 26184 99554 70121 46/// /2920 10091 20060 40178 51057 22200 00106 10913 70066 333 90710 91132
BBXX 62303 26184 99516 70051 46/// /2320 10114 20076 40314 55003 22200 00113 106//
BBXX 62094 26184 99517 70067 46/// /2121 10110 20081 40298 55800 22200 00107 10646 70230
BBXX 62001 26184 99452 70050 46/// /1014 10124 20086 40258 52006 22200 00139 10705 70027
BBXX 62095 26184 99531 70159 46/// /3210 1//// 2//// 40224 53043 22200 10911 70053
BBXX 62103 26184 99499 70029 46/99 /2515 10117 20058 40348 58004 22200 00120 10804 70018 333 90710 91125
AAXX 26181 98642 11458 80000 10250 20242 30092 40101 58009 60021 76066 8552/ 333 56999 85615 88457
AAXX 26181 10338 01360 82404 10102 20091 30260 40333 53006 69902 70252 875// 333 10107 20091 31009 55300 20000 30000 69907 85709 87613
AAXX 26181 08509 32460 81511 10174 20155 30165 40230 52015 888// 333 10162 83810 85815 91017 91119
AAXX 26181 08509 32460 81511 10174 20155 30165 40230 52015 888// 333 10162 83810 85815 91017 91119 555 60007 90400 91211
AAXX 26181 01218 11675 81005 10092 20071 39869 49890 56036 60092 70282 882// 333 10119 91112
AAXX 26181 29789 42999 00000 11234 21240 39073 40363 58002
AAXX 26184 97810 32458 73008 10281 20257 30046 40055 56008 83232 333 56700 57872 83819 80848
AAXX 26181 01392 11469 31303 10072 20043 39787 40009 56032 60002 70121 83800
AAXX 26184 89266 46/// /0105 11021 21044 39701 49838 5//// 91840
AAXX 26184 89257 46/// /3408 11019 21049 39761 49830 52014 91840
AAXX 26184 89272 46/// /1204 11076 21193 38023 49629 52007 91840
AAXX 26184 97686 31450 70000 10166 20151 38346 40078 57003 70522 85836 333 56000 85808 87360
AAXX 26181 20292 41998 01703 11289 21320 30009 40030 57015 70280 333 91105
AAXX 26181 20069 41430 81610 11066 21086 39855 49868 58001 77173 8452/ 333 84619 91113 92982
AAXX 26181 20046 31997 81103 11065 21070 39776 49807 58003 77172 8802/ 333 11054
BBXX 62303 26184 99516 70051 46/// /2319 10114 20076 40314 55003 22200 00113 10606 70031 333 90710 91126
BBXX 62001 26184 99452 70050 46/// /1014 10124 20086 40338 52006 22200 00139 10705 70027
BBXX 62081 26184 99510 70134 46/// ///// 10126 20103 40238 53007 22200 00121 10912 70058
BBXX 62105 26184 99554 70121 46/// /2920 10091 20060 40178 51057 22200 00106 10913 70067 333 90710 91132
BBXX 63110 26183 99595 10015 41/96 /2243 10107 49993 700// 8//// 22200 10810 70050
BBXX 63106 26184 99610 10017 46/// /2539 10102 49937 53007 22200
BBXX 63105 26184 99610 10017 47396 ///// 10103 20089 49938 53005 751// 22200
BBXX 62103 26184 99499 70029 46/99 /2317 10113 20065 40330 58002 22200 00120 11803 70016
BBXX 62094 26184 99517 70067 46/// /2221 10110 20081 4//// 55040 22200 00107 10606 70030 333 90710 91131
BBXX 62095 26184 99531 70159 46/// /3110 10091 20040 40214 52039 22200 00110 10911 70054
AAXX 26184 71713 16/// /2310 11037 21077 60001 333 11036 21104 70000
AAXX 26181 32027 /1593 83615 11107 21113 30153 40162 52004 78583 889// 333 91018 91121
AAXX 26181 25745 42698 20801 11331 21360 30269 40328 57008 82500
AAXX 26184 97530 01450 80000 10256 20253 30072 40077 57008 60031 71562 8582/ 333 56009 57801 60037 82814 84615 88460 80833
AAXX 26183 91553 11598 79902 10275 20249 40050 57010 60021 70228 879// 333 568// 60021 85820 81925 87640
AAXX 26183 91553 11598 79902 10275 20249 40050 57010 60021 70228 879// 333 568// 60021 85820 81925 87640
BBXX 63110 26184 99595 10015 47996 /2234 10107 20079 49999 56003 704// 22200 10810 70052
BBXX 63106 26184 99610 10017 46/// /2539 10102 49937 53007 22200
BBXX 63113 26184 99610 10017 46/// /2636 10103 20091 49968 53005 22200 10812 70062
BBXX 62081 26184 99510 70134 46/// ///// 10125 20102 40238 53007 22200 00121 10912 70058
BBXX 62105 26184 99554 70121 46/// /2920 10091 20060 40178 51057 22200 00106 10913 70066 333 90710 91132
BBXX 62303 26184 99516 70051 46/// /2320 10114 20076 40314 55003 22200 00113 106//
BBXX 62094 26184 99517 70067 46/// /2121 10110 20081 40298 55800 22200 00107 10646 70230
BBXX 62001 26184 99452 70050 46/// /1014 10124 20086 40258 52006 22200 00139 10705 70027
BBXX 62095 26184 99531 70159 46/// /3210 1//// 2//// 40224 53043 22200 10911 70053
BBXX 62103 26184 99499 70029 46/99 /2515 10117 20058 40348 58004 22200 00120 10804 70018 333 90710 91125
BBXX 42047 26181 99279 70936 46/// /2707 10146 20117 40205 91830 22200 00223 333 91208
BBXX 42047 26181 99279 70936 46/// /2707 10144 20113 40209 91800 22200 00223 333 91208
AAXX 26184 97192 32430 50703 10256 20250 30043 40100 57009 83221 333 56000 57803 83816 80857
BBXX A8ZS7 26184 99278 50384 41598 51219 10220 20189 40200 57010 70322 84610 22274 04210 20404 80200
BBXX DAJT 26184 99348 30180 41598 61620 10208 20189 40090 53015 70322 8/4// 22264 04210 2//04 80195
BBXX ELWO6 26183 99462 70137 41296 82409 10128 40305 56012 71022 886// 22253 299// 328// 41005
BBXX A8RU5 26184 99075 10762 41/98 /3005 10270 20213 40123 54000 70211 22274 2//00 80230
BBXX ELZU3 26180 99367 70590 41197 82011 10180 20148 40079 57070 76022 8572/ 22223 00215 20503 399// 40902 80160
BBXX A8ZS7 26184 99278 50384 41598 51219 10220 20189 40200 57010 70322 84610 22274 04210 20404 80200
BBXX DAJT 26184 99348 30180 41598 61620 10208 20189 40090 53015 70322 8/4// 22264 04210 2//04 80195
BBXX A8RU5 26184 99075 10762 41/98 /3005 10270 20213 40123 54000 70211 22274 2//00 80230
BBXX ELWO6 26183 99462 70137 41296 82409 10128 40305 56012 71022 886// 22253 299// 328// 41005
BBXX ELZU3 26180 99367 70590 41197 82011 10180 20148 40079 57070 76022 8572/ 22223 00215 20503 399// 40902 80160
BBXX 42047 26181 99279 70936 46/// /2707 10144 20113 40209 91800 22200 00223 333 91208
BBXX 42047 26181 99279 70936 46/// /2707 10146 20117 40205 91830 22200 00223 333 91208
BBXX DAJT 26184 99348 30180 41598 61620 10208 20189 40090 53015 70322 8/4// 22264 04210 2//04 80195
BBXX ELWO6 26183 99462 70137 41296 82409 10128 40305 56012 71022 886// 22253 299// 328// 41005
BBXX 62303 26184 99516 70051 46/// /2319 10114 20076 40314 55003 22200 00113 10606 70031 333 90710 91126
BBXX 62001 26184 99452 70050 46/// /1014 10124 20086 40338 52006 22200 00139 10705 70027
BBXX 62081 26184 99510 70134 46/// ///// 10126 20103 40238 53007 22200 00121 10912 70058
BBXX 62105 26184 99554 70121 46/// /2920 10091 20060 40178 51057 22200 00106 10913 70067 333 90710 91132
BBXX 63110 26183 99595 10015 41/96 /2243 10107 49993 700// 8//// 22200 10810 70050
BBXX 63106 26184 99610 10017 46/// /2539 10102 49937 53007 22200
BBXX 63105 26184 99610 10017 47396 ///// 10103 20089 49938 53005 751// 22200
BBXX 62103 26184 99499 70029 46/99 /2317 10113 20065 40330 58002 22200 00120 11803 70016
BBXX 62094 26184 99517 70067 46/// /2221 10110 20081 4//// 55040 22200 00107 10606 70030 333 90710 91131
BBXX 62095 26184 99531 70159 46/// /3110 10091 20040 40214 52039 22200 00110 10911 70054
AAXX 26184 97028 32560 60000 10248 20236 30079 40085 56005 83521 333 56000 83620 85460
AAXX 26184 41529 12995 00000 10056 20025 39790 40185 60003 333 58000
AAXX 26184 41598 11995 00000 10060 20036 39891 40175 60003 71000 333 58006
AAXX 26184 41620 32995 02305 10075 21067 38582 48484 333 59011
AAXX 26184 41624 02995 03102 10090 20045 39960 40168 60003 333 58004 60007
AAXX 26184 41640 01995 00000 10100 20057 39903 40160 60003 70400 333 59013 60007
AAXX 26184 41660 119// 01306 10025 21046 38432 48514 60003 70500 333 59003
AAXX 26184 41675 11995 00000 10080 20046 30024 40168 60003 70400 333 58006
AAXX 26184 41712 12996 02702 10100 21087 39204 48506 60003 333 58005
AAXX 26184 41715 01996 00000 10110 20068 30095 40162 60003 70500 333 59003 60007
AAXX 26184 41756 NIL
AAXX 26184 41764 31996 00000 10135 20049 30100 40151 60003 70400 333 58001 60007
AAXX 26184 41768 02996 00000 10110 20079 30153 40160 60003 333 58007 60007
AAXX 26184 41780 01996 00000 10170 20125 30127 40155 70500 333 59005 60007
AAXX 26184 96179 32460 73605 10260 20233 30073 40110 57004 83208 333 56000 57802 83817 80850
BBXX 63110 26184 99595 10015 47996 /2234 10107 20079 49999 56003 704// 22200 10810 70052
BBXX 63106 26184 99610 10017 46/// /2539 10102 49937 53007 22200
BBXX 63113 26184 99610 10017 46/// /2636 10103 20091 49968 53005 22200 10812 70062
BBXX 62081 26184 99510 70134 46/// ///// 10125 20102 40238 53007 22200 00121 10912 70058
BBXX 62105 26184 99554 70121 46/// /2920 10091 20060 40178 51057 22200 00106 10913 70066 333 90710 91132
BBXX 62303 26184 99516 70051 46/// /2320 10114 20076 40314 55003 22200 00113 106//
BBXX 62094 26184 99517 70067 46/// /2121 10110 20081 40298 55800 22200 00107 10646 70230
BBXX 62001 26184 99452 70050 46/// /1014 10124 20086 40258 52006 22200 00139 10705 70027
BBXX 62095 26184 99531 70159 46/// /3210 1//// 2//// 40224 53043 22200 10911 70053
BBXX 62103 26184 99499 70029 46/99 /2515 10117 20058 40348 58004 22200 00120 10804 70018 333 90710 91125
BBXX MINFR09 2618/ 99009 31526 46/// ///// 40083 57008
BBXX 62303 26184 99516 70051 46/// /2319 10114 20076 40314 55003 22200 00113 10606 70031 333 90710 91126
BBXX 62001 26184 99452 70050 46/// /1014 10124 20086 40338 52006 22200 00139 10705 70027
BBXX 62081 26184 99510 70134 46/// ///// 10126 20103 40238 53007 22200 00121 10912 70058
BBXX 62105 26184 99554 70121 46/// /2920 10091 20060 40178 51057 22200 00106 10913 70067 333 90710 91132
BBXX 63110 26183 99595 10015 41/96 /2243 10107 49993 700// 8//// 22200 10810 70050
BBXX 63106 26184 99610 10017 46/// /2539 10102 49937 53007 22200
BBXX 63105 26184 99610 10017 47396 ///// 10103 20089 49938 53005 751// 22200
BBXX 62103 26184 99499 70029 46/99 /2317 10113 20065 40330 58002 22200 00120 11803 70016
BBXX 62094 26184 99517 70067 46/// /2221 10110 20081 4//// 55040 22200 00107 10606 70030 333 90710 91131
BBXX 62095 26184 99531 70159 46/// /3110 10091 20040 40214 52039 22200 00110 10911 70054
BBXX MINFR09 2618/ 99009 31526 46/// ///// 40083 57008
AAXX 26184 71392 16/// /2407 11040 21088 60001 333 11038 21110 70032
AAXX 26184 42675 31996 00000 10110 20077 40161 70500 333 58001
AAXX 26184 43117 32996 00000 10184 20085 40128 333 59005
AAXX 26184 42706 31995 00000 10134 20099 40144 70500 333 59002
BBXX 63110 26184 99595 10015 47996 /2234 10107 20079 49999 56003 704// 22200 10810 70052
BBXX 63106 26184 99610 10017 46/// /2539 10102 49937 53007 22200
BBXX 63113 26184 99610 10017 46/// /2636 10103 20091 49968 53005 22200 10812 70062
BBXX 62081 26184 99510 70134 46/// ///// 10125 20102 40238 53007 22200 00121 10912 70058
BBXX 62105 26184 99554 70121 46/// /2920 10091 20060 40178 51057 22200 00106 10913 70066 333 90710 91132
BBXX 62303 26184 99516 70051 46/// /2320 10114 20076 40314 55003 22200 00113 106//
BBXX 62094 26184 99517 70067 46/// /2121 10110 20081 40298 55800 22200 00107 10646 70230
BBXX 62001 26184 99452 70050 46/// /1014 10124 20086 40258 52006 22200 00139 10705 70027
BBXX 62095 26184 99531 70159 46/// /3210 1//// 2//// 40224 53043 22200 10911 70053
BBXX 62103 26184 99499 70029 46/99 /2515 10117 20058 40348 58004 22200 00120 10804 70018 333 90710 91125
BBXX A8VL8 26184 99079 11094 41596 80329 10260 20232 40110 54/// 78082 887// 22212 0//// 2//// 3//// 4//// 5//// 6//// 80240 ICE /////
BBXX 52249 26181 99052 31503 46/// ///// 1//// 91800 22200 00307
BBXX MINFR03 2618/ 99190 10729 46/// ///// 10240 40133 52006
AAXX 2618/ 68902 46/// ///// 40138 52004
BBXX 62303 26184 99516 70051 46/// /2319 10114 20076 40314 55003 22200 00113 10606 70031 333 90710 91126
BBXX 62001 26184 99452 70050 46/// /1014 10124 20086 40338 52006 22200 00139 10705 70027
BBXX 62081 26184 99510 70134 46/// ///// 10126 20103 40238 53007 22200 00121 10912 70058
BBXX 62105 26184 99554 70121 46/// /2920 10091 20060 40178 51057 22200 00106 10913 70067 333 90710 91132
BBXX 63110 26183 99595 10015 41/96 /2243 10107 49993 700// 8//// 22200 10810 70050
BBXX 63106 26184 99610 10017 46/// /2539 10102 49937 53007 22200
BBXX 63105 26184 99610 10017 47396 ///// 10103 20089 49938 53005 751// 22200
BBXX 62103 26184 99499 70029 46/99 /2317 10113 20065 40330 58002 22200 00120 11803 70016
BBXX 62094 26184 99517 70067 46/// /2221 10110 20081 4//// 55040 22200 00107 10606 70030 333 90710 91131
BBXX 62095 26184 99531 70159 46/// /3110 10091 20040 40214 52039 22200 00110 10911 70054
BBXX MINFR03 2618/ 99190 10729 46/// ///// 10240 40133 52006
BBXX A8VL8 26184 99079 11094 41596 80329 10260 20232 40110 54/// 78082 887// 22212 0//// 2//// 3//// 4//// 5//// 6//// 80240 ICE /////
BBXX 52249 26181 99052 31503 46/// ///// 1//// 91800 22200 00307
AAXX 26184 97980 01450 80000 10260 20248 30066 40073 54000 60201 76062 86842 333 56000 60067 84816 82620
BBXX 63110 26184 99595 10015 47996 /2234 10107 20079 49999 56003 704// 22200 10810 70052
BBXX 63106 26184 99610 10017 46/// /2539 10102 49937 53007 22200
BBXX 63113 26184 99610 10017 46/// /2636 10103 20091 49968 53005 22200 10812 70062
BBXX 62081 26184 99510 70134 46/// ///// 10125 20102 40238 53007 22200 00121 10912 70058
BBXX 62105 26184 99554 70121 46/// /2920 10091 20060 40178 51057 22200 00106 10913 70066 333 90710 91132
BBXX 62303 26184 99516 70051 46/// /2320 10114 20076 40314 55003 22200 00113 106//
BBXX 62094 26184 99517 70067 46/// /2121 10110 20081 40298 55800 22200 00107 10646 70230
BBXX 62001 26184 99452 70050 46/// /1014 10124 20086 40258 52006 22200 00139 10705 70027
BBXX 62095 26184 99531 70159 46/// /3210 1//// 2//// 40224 53043 22200 10911 70053
BBXX 62103 26184 99499 70029 46/99 /2515 10117 20058 40348 58004 22200 00120 10804 70018 333 90710 91125
AAXX 26181 78090 15/// /0000 10337 30205 40208 69901 91800 222// 00270
BBXX 62303 26184 99516 70051 46/// /2319 10114 20076 40314 55003 22200 00113 10606 70031 333 90710 91126
BBXX 62001 26184 99452 70050 46/// /1014 10124 20086 40338 52006 22200 00139 10705 70027
BBXX 62081 26184 99510 70134 46/// ///// 10126 20103 40238 53007 22200 00121 10912 70058
BBXX 62105 26184 99554 70121 46/// /2920 10091 20060 40178 51057 22200 00106 10913 70067 333 90710 91132
BBXX 63110 26183 99595 10015 41/96 /2243 10107 49993 700// 8//// 22200 10810 70050
BBXX 63106 26184 99610 10017 46/// /2539 10102 49937 53007 22200
BBXX 63105 26184 99610 10017 47396 ///// 10103 20089 49938 53005 751// 22200
BBXX 62103 26184 99499 70029 46/99 /2317 10113 20065 40330 58002 22200 00120 11803 70016
BBXX 62094 26184 99517 70067 46/// /2221 10110 20081 4//// 55040 22200 00107 10606 70030 333 90710 91131
BBXX 62095 26184 99531 70159 46/// /3110 10091 20040 40214 52039 22200 00110 10911 70054
AAXX 26184 71732 16/// /1708 11001 21030 60001 333 11001 21042 70024 555 10020
AAXX 26184 71824 46/// /2006 11088 21107 6///1 333 11088 21145 7////
AAXX 26184 71323 16/// /2804 11042 21079 39893 40180 51001 60001 333 11040 21113 70030
BBXX 63110 26184 99595 10015 47996 /2234 10107 20079 49999 56003 704// 22200 10810 70052
BBXX 63106 26184 99610 10017 46/// /2539 10102 49937 53007 22200
BBXX 63113 26184 99610 10017 46/// /2636 10103 20091 49968 53005 22200 10812 70062
BBXX 62081 26184 99510 70134 46/// ///// 10125 20102 40238 53007 22200 00121 10912 70058
BBXX 62105 26184 99554 70121 46/// /2920 10091 20060 40178 51057 22200 00106 10913 70066 333 90710 91132
BBXX 62303 26184 99516 70051 46/// /2320 10114 20076 40314 55003 22200 00113 106//
BBXX 62094 26184 99517 70067 46/// /2121 10110 20081 40298 55800 22200 00107 10646 70230
BBXX 62001 26184 99452 70050 46/// /1014 10124 20086 40258 52006 22200 00139 10705 70027
BBXX 62095 26184 99531 70159 46/// /3210 1//// 2//// 40224 53043 22200 10911 70053
BBXX 62103 26184 99499 70029 46/99 /2515 10117 20058 40348 58004 22200 00120 10804 70018 333 90710 91125
AAXX 26184 89573 35980 60000 10001 21049 39798 49820 57009 82032
AAXX 26184 89573 35980 60000 10001 21049 39798 49820 57009 82032
AAXX 26181 98133 11458 80706 10/// 20/// 40192 5//// 69921 71684 8522/ 333 56299 85818 88459
AAXX 26184 96739 32458 80000 10263 20243 30070 40119 57005 8552/ 333 56009 85618
AAXX 26181 48845 32498 82001 10148 20119 30221 40228 57005 888// 333 59009 83894 88697
AAXX 26181 48840 32498 83201 10158 20105 30220 40226 58006 888// 333 59005 83894 88696
AAXX 26184 91693 11598 70000 10242 2022/ 40058 57002 60001 70322 8587/ 333 5699/ 83822 84648
BBXX 62303 26184 99516 70051 46/// /2319 10114 20076 40314 55003 22200 00113 10606 70031 333 90710 91126
BBXX 62001 26184 99452 70050 46/// /1014 10124 20086 40338 52006 22200 00139 10705 70027
BBXX 62081 26184 99510 70134 46/// ///// 10126 20103 40238 53007 22200 00121 10912 70058
BBXX 62105 26184 99554 70121 46/// /2920 10091 20060 40178 51057 22200 00106 10913 70067 333 90710 91132
BBXX 63110 26183 99595 10015 41/96 /2243 10107 49993 700// 8//// 22200 10810 70050
BBXX 63106 26184 99610 10017 46/// /2539 10102 49937 53007 22200
BBXX 63105 26184 99610 10017 47396 ///// 10103 20089 49938 53005 751// 22200
BBXX 62103 26184 99499 70029 46/99 /2317 10113 20065 40330 58002 22200 00120 11803 70016
BBXX 62094 26184 99517 70067 46/// /2221 10110 20081 4//// 55040 22200 00107 10606 70030 333 90710 91131
BBXX 62095 26184 99531 70159 46/// /3110 10091 20040 40214 52039 22200 00110 10911 70054
AAXX 26181 23803 42699 81402 11093 21105 39747 49930 53002 885// 333 88636
AAXX 26184 48583 31457 80000 10244 20223 30122 40128 57004 71022 82246 333 58015 70014
AAXX 26184 91723 NIL
AAXX 26184 91964 36/// /0910 10234 20213 40209 52003
BBXX 63110 26184 99595 10015 47996 /2234 10107 20079 49999 56003 704// 22200 10810 70052
BBXX 63106 26184 99610 10017 46/// /2539 10102 49937 53007 22200
BBXX 63113 26184 99610 10017 46/// /2636 10103 20091 49968 53005 22200 10812 70062
BBXX 62081 26184 99510 70134 46/// ///// 10125 20102 40238 53007 22200 00121 10912 70058
BBXX 62105 26184 99554 70121 46/// /2920 10091 20060 40178 51057 22200 00106 10913 70066 333 90710 91132
BBXX 62303 26184 99516 70051 46/// /2320 10114 20076 40314 55003 22200 00113 106//
BBXX 62094 26184 99517 70067 46/// /2121 10110 20081 40298 55800 22200 00107 10646 70230
BBXX 62001 26184 99452 70050 46/// /1014 10124 20086 40258 52006 22200 00139 10705 70027
BBXX 62095 26184 99531 70159 46/// /3210 1//// 2//// 40224 53043 22200 10911 70053
BBXX 62103 26184 99499 70029 46/99 /2515 10117 20058 40348 58004 22200 00120 10804 70018 333 90710 91125
AAXX 26184 71618 15466 33114 11279 21311 30120 40160 51020 60001 333 11242 21279 70000
BBXX 62303 26184 99516 70051 46/// /2319 10114 20076 40314 55003 22200 00113 10606 70031 333 90710 91126
BBXX 62001 26184 99452 70050 46/// /1014 10124 20086 40338 52006 22200 00139 10705 70027
BBXX 62081 26184 99510 70134 46/// ///// 10126 20103 40238 53007 22200 00121 10912 70058
BBXX 62105 26184 99554 70121 46/// /2920 10091 20060 40178 51057 22200 00106 10913 70067 333 90710 91132
BBXX 63110 26183 99595 10015 41/96 /2243 10107 49993 700// 8//// 22200 10810 70050
BBXX 63106 26184 99610 10017 46/// /2539 10102 49937 53007 22200
BBXX 63105 26184 99610 10017 47396 ///// 10103 20089 49938 53005 751// 22200
BBXX 62103 26184 99499 70029 46/99 /2317 10113 20065 40330 58002 22200 00120 11803 70016
BBXX 62094 26184 99517 70067 46/// /2221 10110 20081 4//// 55040 22200 00107 10606 70030 333 90710 91131
BBXX 62095 26184 99531 70159 46/// /3110 10091 20040 40214 52039 22200 00110 10911 70054
BBXX VRDT5 26183 99089 11298 41/// /0720 10290 2028/ 40100 56010 7//// 8//// 22233 00290 2//// 3//// 4//// 5//// 6//// 80280 ICE /////
BBXX VRDT5 26183 99089 11298 41/// /0720 10290 2028/ 40100 56010 7//// 8//// 22233 00290 2//// 3//// 4//// 5//// 6//// 80280 ICE /////
AAXX 26184 71372 16/// /2507 11029 21066 60001 333 11028 21075 70036
AAXX 26184 83738 21697 81803 10212 20209 39661 40159 52003 76616 887// 333 60181
AAXX 26184 82425 32597 83204 10292 20241 3//// 4//// 86304 333 5////
BBXX 63110 26184 99595 10015 47996 /2234 10107 20079 49999 56003 704// 22200 10810 70052
BBXX 63106 26184 99610 10017 46/// /2539 10102 49937 53007 22200
BBXX 63113 26184 99610 10017 46/// /2636 10103 20091 49968 53005 22200 10812 70062
BBXX 62081 26184 99510 70134 46/// ///// 10125 20102 40238 53007 22200 00121 10912 70058
BBXX 62105 26184 99554 70121 46/// /2920 10091 20060 40178 51057 22200 00106 10913 70066 333 90710 91132
BBXX 62303 26184 99516 70051 46/// /2320 10114 20076 40314 55003 22200 00113 106//
BBXX 62094 26184 99517 70067 46/// /2121 10110 20081 40298 55800 22200 00107 10646 70230
BBXX 62001 26184 99452 70050 46/// /1014 10124 20086 40258 52006 22200 00139 10705 70027
BBXX 62095 26184 99531 70159 46/// /3210 1//// 2//// 40224 53043 22200 10911 70053
BBXX 62103 26184 99499 70029 46/99 /2515 10117 20058 40348 58004 22200 00120 10804 70018 333 90710 91125
AAXX 26181 30781 41997 80000 11319 21344 39828 40361 57004 77177 8801/
BBXX PCAM 26183 99295 31560 41398 40907 10212 20190 40049 53007 70011 841// 22273 20301 308// 40804 80197
BBXX PCAM 26183 99295 31560 41398 40907 10212 20190 40049 53007 70011 841// 22273 20301 308// 40804 80197
BBXX UGSN 26181 99514 11409 42/97 /3218 11110 40160 52001 22200 00014 2//// ICE 40092
AAXX 26184 48581 31540 50000 10241 20215 30088 40130 57002 71011 81101 333 58002
AAXX 26184 41264 36/70 /3303 10191 21054 39785 40158 333 0E019 10283 58005
BBXX UGSN 26181 99514 11409 42/97 /3218 11110 40160 52001 22200 00014 2//// ICE 40092
BBXX 62303 26184 99516 70051 46/// /2319 10114 20076 40314 55003 22200 00113 10606 70031 333 90710 91126
BBXX 62001 26184 99452 70050 46/// /1014 10124 20086 40338 52006 22200 00139 10705 70027
BBXX 62081 26184 99510 70134 46/// ///// 10126 20103 40238 53007 22200 00121 10912 70058
BBXX 62105 26184 99554 70121 46/// /2920 10091 20060 40178 51057 22200 00106 10913 70067 333 90710 91132
BBXX 63110 26183 99595 10015 41/96 /2243 10107 49993 700// 8//// 22200 10810 70050
BBXX 63106 26184 99610 10017 46/// /2539 10102 49937 53007 22200
BBXX 63105 26184 99610 10017 47396 ///// 10103 20089 49938 53005 751// 22200
BBXX 62103 26184 99499 70029 46/99 /2317 10113 20065 40330 58002 22200 00120 11803 70016
BBXX 62094 26184 99517 70067 46/// /2221 10110 20081 4//// 55040 22200 00107 10606 70030 333 90710 91131
BBXX 62095 26184 99531 70159 46/// /3110 10091 20040 40214 52039 22200 00110 10911 70054
BBXX UGWJ 26181 99133 30703 42/98 52005 10292 40148 54000 22252 00287 20201
AAXX 26181 01366 46/// /2416 10013 20003 38365 49941 58020 333 10029 91127
BBXX UGWJ 26181 99133 30703 42/98 52005 10292 40148 54000 22252 00287 20201
BBXX ONAN 26184 99245 11454 41598 70114 10210 2016/ 40180 54000 7//22 8724/ 22263 00230 20603 335// 40906 5//// 6//// 80180 ICE /////
BBXX ONAN 26184 99245 11454 41598 70114 10210 2016/ 40180 54000 7//22 8724/ 22263 00230 20603 335// 40906 5//// 6//// 80180 ICE /////
AAXX 26184 71734 16/// /2114 11023 21051 39715 40110 58038 60001 333 11023 21081 70010
AAXX 26184 67009 32580 11606 10260 20246 39996 40115 51006 81900 333 10292 81820 81920 94976/8 95816/8 555 81640
AAXX 26184 67009 32580 11606 10260 20246 39996 40115 51006 81900 333 10292 81820 81920 94976 94978 95816 95818 555 81640
AAXX 26184 67009 32580 11606 10260 20246 39996 40115 51006 81900 333 10292 81820 81920 555 81640
AAXX 26181 10393 01582 82406 10092 20074 30201 40329 51007 69902 70265 875// 333 10094 20079 31007 55300 20000 30000 69907 87622
AAXX 26184 60190 32980 02803 10173 20068 40245 53006 333 10219
AAXX 26184 41756 01594 52704 10205 20189 30076 40140 60003 71004 85400 333 56900 59009 60007 85625
AAXX 26184 41756 01594 52704 10205 20189 30076 40140 60003 71004 85400 333 56900 59009 60007 85625
BBXX A8CB7 26183 99349 30208 41/9/ /1818 10210 20203 40110 52010 71022 22264 06250 21004 313// 41104 80205
BBXX A8CB7 26183 99349 30208 41/9/ /1818 10210 20203 40110 52010 71022 22264 06250 21004 313// 41104 80205
BBXX A8CB7 26183 99349 30208 41/9/ /1818 10210 20203 40110 52010 71022 22264 06250 21004 313// 41104 80205
AAXX 26181 10544 01/01 92606 10025 20025 39266 48618 51007 69902 75154 333 10029 2//// 3//// 44015 55300 69907 96045
AAXX 26181 10946 15971 21202 11008 21018 39540 40412 52001 60002 333 10060 21026 3/104 55300 20000 30000 82/63
AAXX 26181 10980 12789 52302 11007 21035 38300 48644 53005 60002 85030 333 10004 21041 3/104 44086 55300 20000 30000 85350
AAXX 26181 10004 46/60 /2312 10096 20087 30288 40288 52010 222// 00076 333 10102 20092 55300 91116 91213
AAXX 26181 02513 07/58 /2005 10090 20078 30148 40153 58011 69952 71086 333 10094 20077 60005 90710 91111
AAXX 26184 71273 16/// /3511 11018 21056 39459 40122 53079 60001 333 10034 21053 70000
AAXX 26181 10763 01360 82802 10063 20050 39994 40387 53004 69902 75162 885// 333 10074 20050 31004 55300 20000 30000 69907 83707 87610
BBXX DEFY 26183 99232 70636 41598 30510 10292 20234 40139 57005 70200 83182 22261 02278 80250
BBXX DEFY 26183 99232 70636 41598 30510 10292 20234 40139 57005 70200 83182 22261 02278 80250
AAXX 26184 44454 42558 10000 10058 20056 38684 48516 81100 333 58009
AAXX 26184 44454 42558 10000 10058 20056 38684 48516 81100 333 58009
AAXX 26181 11968 11120 82302 11011 21019 30094 40390 52008 69902 72877 886// 333 11009 43002 88702
AAXX 26181 11968 11120 82302 11011 21019 30094 40390 52008 69902 72877 886// 333 11009 43002 88702
AAXX 26181 26629 12565 82805 10066 20048 30117 40213 52013 69932 86501 333 10082 86620 91009 91113 555 53017
AAXX 26181 10544 01/01 92606 10025 20025 39266 48618 51007 69902 75154 333 10029 20013 3/001 44015 55300 69907 96045
AAXX 26181 10641 07/// ///// 1//// 2//// 3//// 4//// 5//// 6///2 7//// 333 1//// 2//// 3//// 55300 6///7
AAXX 26181 10044 46/// /2413 10096 20077 30240 40272 51007 222// 00048 333 10103 20083 55300 91117 91213
AAXX 26181 10124 46/// ///// 10097 2//// 30253 10291 53009 222// 00057 333 10100 20089 53/// 911// 912//
