BBXX WCX2417 07184 99435 70874 41/// 72530 11011 2//// 40146 57/// 70222 8//// 22243 0//// 2//04 3//// 4//// 5//// 6//// 8//// ICE /////
AAXX 07184 40310 32960 01701 10086 210049 38980 48519 52006 333 10130
AAXX 07184 67341 32580 31008 10249 20188 40088 52007 82501 333 10290 94350
BBXX ZMFR 07174 99521 31670 43/// /24// 10062 20025 40021 52028 22200 00087
BBXX ZMENA 07174 99368 31748 46/// ///// 10147 20121 40104 52012 22200
BBXX 44172 07181 99445 70634 46/// ///// 1//// 91731 22200 00083 10602 20602 314// 41101 70012
BBXX 44097 07181 99410 70711 46/// ///// 1//// 91732 22200 00131 10703 20703 317// 41101 70016
BBXX 46218 07181 99345 71208 46/// ///// 1//// 91732 22200 00140 11202 20801 330// 41201 70010
BBXX V7MO2 07184 99262 70914 41697 73523 10140 20063 40256 52004 7//22 872// 22200 00240 20406 333// 40607 5//// 6//// 80100 ICE /////
BBXX WYR4481 07184 99469 70917 41/98 23310 11011 40130 70111 22223 20302
AAXX 07184 40270 31950 00000 10090 21089 39310 40225 52007 70500 333 10175
BBXX 42363 07181 99282 70892 46/// /3213 10117 20017 40251 91745 333 91213
BBXX 42364 07181 99291 70881 46/// /3006 10111 20044 40234 91745
BBXX NWS0021 07184 99322 70645 43/// /1406 10220 20122 40204 5//// 7//// 8//// 222// 04232 2//// 3//// 4//// 5//// 6//// 8//// ICE /////
BBXX WFLG 07183 99228 71542 41598 31019 10211 20178 40188 55000 70200 83100 22254 00211 20302 33011 40904 50804 6//// 80189 ICE /////
AAXX 07184 08495 12468 61005 10161 20131 30276 40284 53002 60002 81604 91750 333 10179 81712 86075
BBXX 46249 07181 99338 71197 46/// ///// 1//// 91747 22200 00145 11301 20901 324// 41301 70006
BBXX 46248 07181 99461 71247 46/// ///// 1//// 91734 22200 00085 11303 21002 329// 41302 70015
BBXX 46244 07181 99409 71244 46/// ///// 1//// 91735 22200 00103 11302 21001 330// 41302 70011
BBXX 46240 07181 99366 71219 46/// ///// 1//// 91742 22200 00115 11201 21001 335// 41201 70005
BBXX 46237 07181 99378 71226 46/// ///// 1//// 91740 22200 00111 11301 21001 326// 41301 70007
BBXX 46212 07181 99408 71243 46/// ///// 1//// 91742 22200 00093 11302 21001 330// 41301 70009
BBXX 46217 07181 99342 71194 46/// ///// 1//// 91742 22200 00147 11201 20901 327// 41201 70005
BBXX 46211 07181 99469 71242 46/// ///// 1//// 91736 22200 00085 11302 21002 328// 41302 70012
BBXX DBKV 07181 99281 70154 46/// /0903 10203 20125 40234 52001 22200 00208
AAXX 07184 40255 32960 00000 10088 20012 39493 40218 54003 333 10175
BBXX DBFR 07181 99554 10157 46/// /1710 10046 20025 49920 57010 22241 00070
BBXX DBBU 07181 99542 10119 46/// /2/13 10045 20044 49913 52011 22261 00068
AAXX 07184 61902 12582 21314 10247 20174 40119 69902 82801 333 10278 58004 81822
BBXX BAREU61 07184 99413 10022 46/// /3614 10152 29056 40264 22243
AAXX 07184 78954 11482 70907 10272 20244 30039 40103 69901 70262 87800 333 10295 20234 58016 83818 87630
AAXX 07184 78954 11482 70907 10272 20244 30039 40103 69901 70262 87800 333 10295 20234 58016 83818 87630
BBXX 41115 07181 99184 70673 46/// ///// 1//// 91735 22200 11103 20902 302// 41102 70016
BBXX 41114 07181 99276 70802 46/// ///// 1//// 91746 22200 00242 11102 20902 308// 41101 70011
BBXX 41012 07181 99300 70805 46/// /2010 10226 40131 58037 91750 22200 00226 11003 20402 307// 41002 70016 333 91212 555 11106 22113 31744 42012 61749 199099 201086 202089 204094 204092 205096
BBXX 46088 07181 99483 71232 46/// /0404 10058 40315 52008 91750 22200 00083 1//00 70002 333 91204 555 11036 22037 31746 40504 61749 039034 046025 048017 087025 085024 079021
BBXX 44060 07181 99413 70721 46/// ///01 10120 40072 91745 22200 00124 333 91202 555 11010 22010
BBXX 44022 07181 99409 70737 46/// ///03 10102 20095 40062 91745 22200 00113 333 91203 555 11026 22026
BBXX 46114 07181 99364 71222 46/// ///// 1//// 91734 22200 00113 11502 20802 326// 41501 70010
BBXX 46060 07181 99606 71468 46/// /1211 10027 40287 57029 91750 22200 00060 333 91213 555 11116 22122 31703 41213 61749 119108 118104 116106 120109 121108 122109 81212 91715
BBXX 51203 07181 99208 71570 46/// ///// 1//// 91743 22200 00252 11302 20901 325// 41301 70009
BBXX 52200 07181 99134 11448 46/// ///// 1//// 91745 22200 00287 11004 21004 308// 41101 70021
BBXX 51201 07181 99217 71581 46/// ///// 1//// 91742 22200 00246 11304 21003 333// 41303 70019
AAXX 07184 68906 32698 50203 10126 20030 30242 40308 58002 84570 222// 00122 318// 40701 333 10134 20106 91009 555 91030
AAXX 07184 89577 46/// /0905 11392 35678 4//// 5////
AAXX 07184 89578 46/// /0804 11361 36718 4//// 5////
BBXX DHDH 07184 99240 10365 41998 03221 10240 20216 40150 54000 70000 80000 22233 20304 80223
BBXX MSTM6 07183 99371 10034 41398 22710 10162 20145 40298 53015 70100 811// 22264 06177 20202 3//// 4//// 5//// 80152
BBXX A8YW2 07184 99316 50105 41698 40921 10215 20106 40275 54000 70211 82150 22223 00170 20303 317// 40602 80155
BBXX PFFH 07183 99361 10148 41/98 /2928 10180 40220 54000 70011 8//// 22213 00185 2////
AAXX 07184 68994 11394 83023 10099 20097 39969 49997 57010 60182 74755 886// 333 10115 20095 91031 555 20180 69925 90999
BBXX A8UT7 07184 99095 70167 41697 30505 10290 20220 40063 52003 70100 82414 22273 20501 313// 41003 80240
AAXX 07184 91643 11498 50205 10265 20245 40073 58303 60171 71422 8326/ 333 5619/ 83818 85621
AAXX 07184 16597 31665 13114 10151 20097 30157 40244 51014 70281 81200 333 10179 81830 91126 91529
BBXX TESTFR9 07184 99508 70011 46/// /2937 10080 29060 40175 52013 22283
BBXX BAREU63 07184 99442 10092 46/// /3608 10153 29075 40136 22232
AAXX 07181 13579 12970 00201 10010 21018 39358 40215 52012 69932 333 10091
AAXX 07181 13586 32970 00000 10008 21018 39893 40193 53007 333 10104
AAXX 07184 91376 11474 60808 10277 20239 30064 40068 53003 69901 72511 83801 333 562/9 555 90718
AAXX 07184 61901 169// /1311 10167 20141 39657 40165 56003 60002 91750 333 10204 8//99 555 7/090
AAXX 07184 91376 11474 60808 10277 20239 30064 40068 53003 69901 72511 83801 333 562/9 555 90718
AAXX 07184 89664 11558 80811 11037 21064 39707 49748 53010 69904 77122 887// 333 56499 83620 88730 90910 91518 93197
AAXX 07184 78384 12560 10411 10278 20226 40149 60001 81800 333 10285 20245 58013 70000 81820
AAXX 07184 78383 NIL
BBXX 44025 07181 99402 70732 46/// /2007 10133 20129 40057 56040 91750 22200 00119 11003 20602 313// 41002 70013 333 91208 555 11072 22081 31710 41810 61749 200066 191072 181077 179084 181082 182078
BBXX 41008 07181 99314 70809 46/// /1910 10193 20175 40112 58041 91750 22200 00179 10502 20502 300// 41001 70012 333 91213 555 11106 22116 31749 42013 61749 193099 193096 198093 200092 201087 198092
BBXX 44014 07181 99366 70748 46/// /1808 10209 20169 40089 58046 91750 22200 00155 11103 20602 309// 41102 70014 333 91209 555 11079 22079 31703 41910 61749 181079 183083 184083 186083 188085 186077
BBXX 41004 07181 99325 70791 46/// /2112 10222 20177 40107 58043 91750 22200 00221 10604 20603 3//// 40902 70018 333 91214 555 11124 22133 31717 42214 61749 212118 212117 213114 214108 214112 213109
BBXX 44009 07181 99385 70747 46/// /1911 10150 40068 56043 91750 22200 00129 10504 20503 300// 40901 70018 333 91212 555 11116 22127 31737 41913 61749 190106 190106 190106 188109 189106 192105
BBXX 44027 07181 99443 70673 46/// /3607 10059 20051 40093 57015 91750 22200 00092 10602 20602 3//// 41001 70010 333 91209 555 11078 22081 31718 43610 61749 359075 356079 359081 357084 003074 021060
BBXX 41013 07181 99334 70777 46/// /2011 10233 20187 40100 58039 91750 22200 00234 10604 20604 312// 41001 70020 333 91213 555 11118 22126 31714 42014 61749 202111 204113 205114 205113 206117 208109
BBXX 44065 07181 99404 70737 46/// /2303 10123 20123 40057 58038 91750 22200 00119 10902 20301 312// 40902 70012 333 91206 555 11034 22038 31735 41907 61749 233029 197030 207021 227017 260030 283038 81906 91735
BBXX 44020 07181 99414 70702 46/// /2105 10120 20120 40078 58022 91750 22200 00100 10301 20301 70004 333 91206 555 11050 22053 31651 42509 61749 220047 250047 247049 248058 249061 252070
BBXX 44018 07181 99421 70696 46/// /1904 10108 20108 40075 58022 91750 22200 00097 10902 20401 3//// 40902 70012 333 91204 555 11040 22046 31718 41906 61749 188035 190038 195046 191049 193037 190039
BBXX 42002 07181 99258 70937 46/// /3512 10146 20064 40275 58005 91750 22200 00248 10806 20806 70030 333 91216 555 11122 22130 31717 40116 61749 349124 355125 353125 356125 001119 353125
BBXX 41047 07181 99275 70715 46/// /1108 10247 40181 58018 91750 22200 00253 11005 20603 308// 41004 70025 333 91210 555 11083 22088 31725 41111 61749 109083 109084 107085 112090 108088 112086 81110 91712
BBXX 41043 07181 99211 70650 46/// /0806 10264 20227 40133 58022 91750 22200 00272 11005 20502 300// 41004 70024 333 91207 555 11062 22065 31707 40808 61749 083059 088058 088059 084063 081064 086062 80807 91713
BBXX 41036 07181 99342 70770 46/// ///// 10200 20164 40105 57040 91750 22200 00178 10603 70017
BBXX 44066 07181 99396 70726 46/// /2010 10159 20146 40070 57048 91750 22200 00134 11103 20603 3//// 41102 70016 333 91211 555 11106 22117 31710 42012 61749 202097 200095 200091 198091 199090 200087
BBXX 41001 07181 99347 70727 46/// ///// 10230 20161 40143 58032 91750 22200 00226 10504 70019
BBXX 41049 07181 99275 70630 46/// /0707 10231 20145 40190 56016 91750 22200 00250 11005 20703 300// 41003 70023 333 91208 555 11078 22082 31702 40910 61749 073074 076061 078071 081077 082073 088076 80909 91702
BBXX 42020 07181 99270 70967 46/// /3409 10105 20037 40303 58006 91750 22200 00243 10704 20704 70019 333 91212 555 11098 22102 31743 43612 61749 343092 352091 342091 344090 341092 348091
BBXX 41044 07181 99217 70587 46/// /0510 10266 20219 40114 58017 91750 22200 00269 10906 20604 300// 40904 70030 333 91212 555 11103 22109 31651 40413 61749 049098 049094 049100 049103 050105 049105 80511 91651
BBXX 41048 07181 99320 70696 46/// /1906 10227 20153 40195 58024 91750 22200 00232 10903 20501 3//// 40903 70016 333 91207 555 11058 22061 31716 42008 61749 189058 193058 184058 194061 189063 185061 81907 91709
BBXX 42065 07181 99149 70750 46/// /0104 10254 20214 91750 22200 10702 20401 3//// 40702 70010 333 91207 555 11043 22045 31740 40408 61749 019044 002025 343027 358021 351024 344020 80406 91741
BBXX 42012 07181 99301 70876 46/// /3110 10085 20046 40216 50000 91750 22200 00201 10703 20703 70017 333 91213 555 11106 22111 31730 43114 61749 307104 315110 311109 309110 304117 303116
BBXX 42001 07181 99259 70897 46/// /3211 10176 20095 40237 58003 91750 22200 00241 10806 20806 70031 333 91214 555 11115 22121 31709 43215 61749 319111 311117 313118 310116 313118 317102
BBXX 42035 07181 99292 70944 46/// /3108 10048 20014 40299 50000 91750 22200 00166 10402 20402 70008 333 91210 555 11088 22091 31730 43212 61749 312084 311088 307088 306090 313082 303085
BBXX 42058 07181 99149 70749 46/// /0504 10268 20211 40108 58019 91750 22200 00279 10702 20401 303// 40702 70011 333 91205 555 11044 22045 31735 40606 61749 051042 063043 083037 087030 087029 090034 80605 91735
BBXX 42060 07181 99163 70635 46/// /0606 10272 20224 40113 58018 91750 22200 00282 11102 20401 300// 41102 70012 333 91207 555 11063 22066 31728 40608 61749 063060 064062 064062 063064 068060 069058 80607 91713
BBXX 42036 07181 99285 70845 46/// /3014 10186 20161 40167 54000 91750 22200 00223 10604 20604 70022 333 91216 555 11144 22152 31703 42917 61749 295136 293137 297134 296136 295137 294140
BBXX 42056 07181 99198 70849 46/// /0306 10262 20211 40166 58011 91750 22200 00277 10702 20501 309// 40701 70010 333 91207 555 11066 22069 31734 40408 61749 031063 030063 022061 026061 023065 029063 80407 91734
BBXX 44005 07181 99432 70691 46/// /0408 10080 20080 40076 58025 91750 22200 00093 10903 20502 3//// 40902 70013 333 91209 555 11086 22091 31743 40309 61749 036080 041079 035080 042078 043073 036075
BBXX 42040 07181 99292 70882 46/// /3112 10098 40228 50000 91750 22200 00223 10605 20605 70025 333 91215 555 11117 22122 31655 43117 61749 314117 313121 304119 311127 310124 312127
BBXX 42003 07181 99260 70856 46/// /3212 1//// 91750 22200 10403 20403 313// 40701 70014 333 91214 555 11131 22140 31734 43215 61749 322120 324120 321123 321119 319112 319117 83213 91720
BBXX 42055 07181 99222 70940 46/// /3613 10208 20157 40234 50000 91750 22200 00253 10908 20907 335// 41505 70041 333 91216 555 11133 22140 31715 43617 61749 001125 357129 356126 356133 359131 003128 83614 91717
BBXX 42059 07181 99151 70675 46/// /0906 10277 20231 40102 58023 91750 22200 00284 11102 20401 3//// 41102 70010 333 91207 555 11060 22063 31705 41007 61749 088057 088056 092057 091058 096059 096057 81006 91708
BBXX 46105 07181 99590 71522 46/// ///// 1//// 91750 22200 10809 70044
BBXX 46070 07181 99551 11753 46/// /3512 10008 21011 49888 53031 91750 22200 00046 11210 20505 3//// 41208 70049 333 91214 555 11122 22129 31707 40114 61749 352114 355110 352109 351114 359111 358118 83612 91654
BBXX 32012 07181 99197 50856 46/// ///// 1//// 91750 22200 11406 70031
BBXX 46002 07181 99426 71305 46/// ///// 10112 40324 53005 91750 22200 00125 11204 70018
BBXX 46006 07181 99408 71375 46/// /0706 10103 40342 53010 91750 22200 00126 11303 20502 3//// 41303 70017 333 91209 555 11065 22068 31707 40609 61749 075063 064067 056065 068062 066071 066062
BBXX 46084 07181 99566 71361 46/// /1704 10052 21012 40336 55000 91750 22200 00077 10803 20401 300// 40803 70015 333 91205 555 11037 22038 31734 41705 61749 172036 177038 180039 174037 174034 165029
BBXX 46075 07181 99539 71608 46/// /2008 10059 20057 40032 52010 91750 22200 00058 11411 20705 300// 41410 70055 333 91211 555 11090 22096 31715 41914 61749 199085 198100 193087 193097 185090 184084 82011 91737
BBXX 46005 07181 99461 71310 46/// ///06 10091 40349 53008 91750 22200 00103 11103 20301 3//// 41103 70014 333 91207 555 11059 22062
BBXX 46059 07181 99380 71300 46/// /0304 10113 40290 53007 91750 22200 00151 11203 20401 3//// 41203 70014 333 91206 555 11045 22046 31740 40207 61749 025045 026040 029027 042028 046045 040051
BBXX 46080 07181 99580 71500 46/// /1214 10047 20046 40153 57044 91750 22200 00053 10807 20705 3//// 40805 70037 333 91216 555 11146 22155 31653 41218 61749 120136 118137 117136 119132 118138 116139 81215 91654
AAXX 07184 78384 12560 10411 10278 20226 40149 60001 81800 333 10285 20245 58013 70000 81820
AAXX 07184 78383 NIL
AAXX 07184 89664 11558 80811 11037 21064 39707 49748 53010 69904 77122 887// 333 56499 83620 88730 90910 91518 93197
BBXX LAJS6 07184 99485 11624 41597 82716
BBXX V7DI8 07183 99336 11248 41/95 /0417 10100 2006/ 40240 58010 76166 8//// 22200 00170 2//// 3//// 4//// 5//// 6//// 80080 ICE /////
BBXX C6DM2 07183 99055 11001 418// 50505 10270 20243 40090 50010 7//00 851// 22221 0//// 2//// 3//// 4//// 5//// 6//// 80250 ICE /////
BBXX A8UT7 07184 99095 70167 41697 30505 10290 20220 40063 52003 70100 82414 22273 20501 313// 41003 80240
BBXX DHDH 07184 99240 10365 41998 03221 10240 20216 40150 54000 70000 80000 22233 20304 80223
BBXX A8YW2 07184 99316 50105 41698 40921 10215 20106 40275 54000 70211 82150 22223 00170 20303 317// 40602 80155
BBXX ONCE 07184 99096 50286 41998 01226 10260 2020/ 40110 57010 70204 80400 22234 00268 20402 311// 40806 5//// 6//// 80220 ICE /////
BBXX DBKV 07181 99281 70154 46/// /0903 10203 20125 40234 52001 22200 00208
BBXX DBBT 07181 99424 30114 46/// /2115 10072 21000 40209 52037 22251 00130
BBXX A8CH2 07184 99233 70595 41298 80427 10255 40125 56005 70362 887// 22214 04260 21005
BBXX WBN3016 07184 99237 70745 41/// /0815 10261 2//// 40129 56004 714// 8//// 22232 0//// 20504 30813 40703 50502 6//// 8//// ICE /////
BBXX C6YA7 07184 99274 71666 41497 80810 10195 2017/ 40170 54000 78022 8894/ 22223 0//// 20402 330// 41004 5//// 6//// 80180 ICE /////
BBXX MHNO6 07183 99348 70406 41298 81017 10206 20195 40167 57015 72511 8572/ 22253 00223 20502 313// 40903 5////
BBXX 44060 07181 99413 70721 46/// ///01 10120 40072 91745 22200 00124 333 91202 555 11010 22010
BBXX 44022 07181 99409 70737 46/// ///03 10102 20095 40062 91745 22200 00113 333 91203 555 11026 22026
BBXX 46088 07181 99483 71232 46/// /0404 10058 40315 52008 91750 22200 00083 1//00 70002 333 91204 555 11036 22037 31746 40504 61749 039034 046025 048017 087025 085024 079021
BBXX 46114 07181 99364 71222 46/// ///// 1//// 91734 22200 00113 11502 20802 326// 41501 70010
BBXX 46060 07181 99606 71468 46/// /1211 10027 40287 57029 91750 22200 00060 333 91213 555 11116 22122 31703 41213 61749 119108 118104 116106 120109 121108 122109 81212 91715
BBXX 41115 07181 99184 70673 46/// ///// 1//// 91735 22200 11103 20902 302// 41102 70016
BBXX 41114 07181 99276 70802 46/// ///// 1//// 91746 22200 00242 11102 20902 308// 41101 70011
BBXX 41012 07181 99300 70805 46/// /2010 10226 40131 58037 91750 22200 00226 11003 20402 307// 41002 70016 333 91212 555 11106 22113 31744 42012 61749 199099 201086 202089 204094 204092 205096
BBXX WZJC 07184 99274 70918 41498 63230 10128 2005/ 40239 50010 70222 864// 22273 00222 20607 3//// 4//// 5//// 6//// 80089 ICE /////
BBXX LADQ4 07184 99433 70557 41499 71919 10160 2011/ 40285 56010 70222 8694/ 22224 00080 2//// 319// 41202 5//// 6//// 80130
BBXX LAYG5 07184 99543 71396 41591 81420 10070 21050 40290 56010 70322 88/// 22263 00100 21003 314// 4//// 5//// 80060
BBXX DQVJ 07181 99532 71576 41/94 /1111 10065 20055 40065 58005 75866 8//// 22263 04058 20501 308// 41005 5//// 80060
BBXX WSLH 07184 99307 71496 41498 21508 10210 2015/ 40230 52020 71500 823// 22215 00200 20901 332// 41305 5//// 6//// 80170 ICE /////
BBXX DGTX 07183 99265 71143 41699 30218 10166 20058 40190 52010 70100 82171 22274 00220 20404 80109
BBXX LADR4 07184 99205 71560 41898 50717 00/// 10220 2019/ 40170 51010 70211 85341 22253 00260 20404 3//// 4//// 5//// 6//// 80200
BBXX 46211 07181 99469 71242 46/// ///// 1//// 91736 22200 00085 11302 21002 328// 41302 70012
BBXX 46212 07181 99408 71243 46/// ///// 1//// 91742 22200 00093 11302 21001 330// 41301 70009
BBXX 46240 07181 99366 71219 46/// ///// 1//// 91742 22200 00115 11201 21001 335// 41201 70005
BBXX 46217 07181 99342 71194 46/// ///// 1//// 91742 22200 00147 11201 20901 327// 41201 70005
BBXX 46237 07181 99378 71226 46/// ///// 1//// 91740 22200 00111 11301 21001 326// 41301 70007
BBXX 46249 07181 99338 71197 46/// ///// 1//// 91747 22200 00145 11301 20901 324// 41301 70006
BBXX 46248 07181 99461 71247 46/// ///// 1//// 91734 22200 00085 11303 21002 329// 41302 70015
BBXX 46244 07181 99409 71244 46/// ///// 1//// 91735 22200 00103 11302 21001 330// 41302 70011
BBXX 9HA2583 07184 99172 70627 41498 40515 1//// 2//// 40140 51/// 7//11 84499 22200 0//// 2//// 3//// 4//// 5//// 6//// 8//// ICE /////
BBXX WDE5381 07184 99184 71061 41/// 09902 10244 2020/ 40140 54000 700// 80/// 22274 0//// 20000 336// 41505 5//// 6//// 80211 ICE /////
BBXX C6UB2 07184 99351 71774 43/// /2724 10160 2013/ 40240 5//// 7//// 8//// 22223 00190 2//// 3//// 4//// 5//// 6//// 80140 ICE /////
BBXX ELZU9 07183 99335 70514 41498 23512 10210 20164 40155 57015 70100 82100 22224 04238 20502 3//// 4//// 5//// 80180
BBXX 9VVP 07184 99174 71026 41497 30508 10290 20235 40145 50003 7//00 8361/ 2222/ 00280 20501 309// 40801 5//// 6//// 80250 ICE /////
BBXX KGTY 07184 99543 71388 41896 81227 10056 2003/ 40270 5//// 763// 887// 22234 00050 20605 32724 41005 50806 6//// 80044 ICE /////
BBXX NWS0021 07184 99322 70645 43/// /1406 10220 20122 40204 5//// 7//// 8//// 222// 04232 2//// 3//// 4//// 5//// 6//// 8//// ICE /////
BBXX 42364 07181 99291 70881 46/// /3006 10111 20044 40234 91745
BBXX 42363 07181 99282 70892 46/// /3213 10117 20017 40251 91745 333 91213
BBXX DGHJ 07183 99002 70940 41998 21615 10231 20193 40121 56015 70311 82030 22273 00180 20202 320// 40803 5//// 80205
BBXX ELZA8 07183 99231 50419 41898 70706 10265 20208 40125 58005 70222 87/78 22254 04250 20401 311// 40902 80225
BBXX TFEA 07181 99656 70111 42/98 70214 11008 49945 22232 00041
BBXX TFNA 07181 99657 70277 41/97 80614 11065 49970 77072 22232 01010
BBXX V7PW3 07183 99338 10268 41596 72620 10178 20147 40175 57010 71798 814// 22224 00194 20304 80160
BBXX WDD3825 07184 99455 70155 43798 82713 10140 2011/ 40280 5//// 7//// 8//4/ 22254 00160 29902 332// 41204 5//// 6//// 80120 ICE /////
BBXX DBFR 07181 99554 10157 46/// /1710 10046 20025 49920 57010 22241 00070
BBXX DBBU 07181 99542 10119 46/// /2/13 10045 20044 49913 52011 22261 00068
BBXX KABP 07183 99374 10112 41498 13029 10170 2013/ 40271 58002 70280 812// 22234 00192 2//// 3//// 4//// 5//// 6//// 80145 ICE /////
BBXX ZCBZ5 07183 99022 11064 41496 70408 10276 20239 40079 54000 70222 832/1 22264 02283 20201 336// 40502 5//// 80250
BBXX 46053 07181 99342 71198 46/// /1301 10134 40231 52003 91750 22200 00142 333 91201 555 11006 22006 31721 41203 61749 138005 136010 130018 126018 126020 122019
BBXX 46014 07181 99394 71240 46/// /0101 10087 40269 54000 91750 22200 00104 11202 3//// 41202 70010 333 91202 555 11008 22008 31657 40303 61749 003009 000008 022016 021019 031018 032021
BBXX 46011 07181 99350 71210 46/// /0000 10123 40240 55000 91750 22200 00136 11102 20401 327// 41102 70010 333 91201 555 11001 22001 31722 41102 61749 140002 128005 110007 120007 085006 058004
BBXX 46047 07181 99324 71195 46/// /3305 10134 40233 52004 91750 22200 00146 11302 20401 329// 41302 70009 333 91206 555 11048 22050 31724 43406 61749 333046 326044 332046 333044 330044 330045
BBXX 46027 07181 99419 71244 46/// /0702 10081 40267 54000 91750 22200 00093 11302 20401 327// 41302 70012 333 91202 555 11015 22016 31656 40303 61749 061016 050021 048024 046021 039025 028028
BBXX 46086 07181 99325 71180 46/// /3603 10145 40225 52006 91750 22200 00149 11301 20301 315// 41301 70007 333 91203 555 11027 22028 31715 43404 61749 357026 344028 339027 346031 353030 355031
BBXX 46088 07181 99483 71232 46/// /0404 10058 40315 91750 22200 00083 1//00 70002 333 91204 555 11036 22037 31746 40504 61749 039034 046025 048017 087025 085024 079021
BBXX 46050 07181 99442 71246 46/// /0306 10076 40304 52005 91750 22200 00103 11203 20501 330// 41202 70013 333 91207 555 11060 22062 31650 40309 61749 034057 035052 037053 028060 019069 021071
BBXX 46069 07181 99337 71202 46/// /3303 10130 40236 53005 91750 22200 00134 11302 20401 332// 41302 70009 333 91204 555 11031 22032 31655 43404 61749 330031 324033 319033 323036 325035 330035
BBXX 46013 07181 99382 71233 46/// /1001 10098 40264 52003 91750 22200 00107 11102 3//// 41102 70010 333 91202 555 11014 22015 31651 41002 61749 097014 092015 091012 092013 088016 093018
BBXX 46012 07181 99374 71229 46/// /3605 10107 40258 54000 91750 22200 00122 11202 20301 325// 41202 70009 333 91206 555 11057 22059 31713 43607 61749 004054 004056 008056 004055 002054 002048
BBXX 46087 07181 99485 71247 46/// /0805 10070 20065 40312 51007 91750 22200 00083 11102 20501 328// 41102 70012 333 91206 555 11057 22059 31744 40906 61749 080053 076051 079046 076043 073036 073036
BBXX 46029 07181 99461 71245 46/// /3503 10080 20075 40311 53004 91750 22200 00078 11202 20401 330// 41202 70012 333 91204 555 11033 22036 31749 43504 61749 352031 355022 266005 267014 265020 258017
BBXX 46054 07181 99342 71204 46/// /3203 10127 40235 53006 91750 22200 00139 10802 20401 300// 40802 70010 333 91204 555 11035 22036 31651 43205 61749 318034 317034 322035 324041 321040 314044
BBXX 46028 07181 99357 71219 46/// /3506 10126 40240 55000 91750 22200 00132 11202 20501 333// 41202 70011 333 91207 555 11058 22061 31710 43407 61749 349055 354055 350058 344060 334056 321051
BBXX 46025 07181 99337 71191 46/// /0000 10147 40231 52003 91750 22200 00152 11501 20401 329// 41501 70005 333 91201 555 11003 22003 31721 43102 61749 322003 320008 313012 297014 311010 331011
BBXX C6DM2 07183 99055 11001 418// 50505 10270 20243 40090 50010 7//00 851// 22221 0//// 2//// 3//// 4//// 5//// 6//// 80250 ICE /////
BBXX 9HA2583 07184 99172 70627 41498 40515 1//// 2//// 40140 51/// 7//11 84499 22200 0//// 2//// 3//// 4//// 5//// 6//// 8//// ICE /////
BBXX WZJC 07184 99274 70918 41498 63230 10128 2005/ 40239 50010 70222 864// 22273 00222 20607 3//// 4//// 5//// 6//// 80089 ICE /////
BBXX NWS0022 07184 99416 70714 43/// /1607 10142 20134 40066 5//// 7//// 8//// 222// 04135 2//// 3//// 4//// 5//// 6//// 8//// ICE /////
BBXX WBN3016 07184 99237 70745 41/// /0815 10261 2//// 40129 56004 714// 8//// 22232 0//// 20504 30813 40703 50502 6//// 8//// ICE /////
BBXX WDC6698 07184 99095 71443 43/// /1212 10273 2//// 40100 5//// 7//// 8//// 222// 04258 2//// 3//// 4//// 5//// 6//// 8//// ICE /////
BBXX WDD2876 07184 99475 70878 41/98 83320 11011 2//// 40088 54/// 70272 8//// 22263 00061 2//03 3//// 4//// 5//// 6//// 8//// ICE /////
BBXX KEY796 07183 99571 71703 41/97 81819 10039 20033 49814 55/// 761// 8//// 222// 00028 2//// 3//// 4//// 5//// 6//// 8//// ICE /////
AAXX 07184 89009 41748 82711 11246 36783 58001 77672 80007 333 88256
AAXX 07181 76040 32960 03302 10122 21011 30249 40264 52001 80002 91745 333 10166 20010 30/// 56003 59028 82078 98660
AAXX 07181 76055 32980 03310 10161 21158 30213 40232 57004 91740 333 10172 20085 30/// 59047
AAXX 07181 76243 32973 31802 10118 21015 30004 40317 57009 80006 91740 333 10124 21035 30/// 56006 58021 83070
AAXX 07181 76256 32980 33206 10146 21003 30190 40204 52005 83/3/ 91745 333 10160 20070 30/// 56/5/ 59029 83360
AAXX 07181 76305 32970 13405 10188 20064 30186 40194 52007 81030 91740 333 10191 20115 30/// 56050 59020 81358
AAXX 07181 76323 32970 11801 10112 21036 38229 40359 57012 80001 91755 333 10117 21052 30/// 58015
AAXX 07181 76342 32962 00302 10120 20029 39593 40343 57016 91750 333 10128 21002 30/// 58012
AAXX 07181 76390 31968 42105 10117 21026 38286 40292 57001 70544 80001 91730 333 10130 21025 30/// 56008 58051 84070
AAXX 07181 76402 31958 00000 10204 20059 30126 40184 52005 70544 91745 333 10205 20056 30/// 59011
AAXX 07181 76423 32975 51201 10132 21050 38198 40257 58006 80005 91745 333 10147 21012 30/// 56009 58037 85067
AAXX 07181 76471 32980 30903 10152 21091 37724 40206 57001 80001 91750 333 10257 20022 30/// 56001 58027 83075
AAXX 07181 76491 32860 33601 10136 20035 39913 40321 57011 81034 91745 333 10145 20078 30/// 56099 58052 81362 82077
AAXX 07181 76499 32960 03403 10165 20007 30281 40303 57008 91740 333 10166 20089 30/// 58058
AAXX 07181 76525 32460 40904 10076 20042 37497 40203 52004 84600 91745 333 10078 20053 30/// 563// 58024 84714
AAXX 07181 76539 31560 80301 10110 20058 38205 40247 52012 70544 886// 91745 333 10120 20080 30/// 562// 58035 88721
AAXX 07181 76548 32875 80202 10156 20021 30301 40311 50007 88070 91740 333 10158 20120 30/// 56050 58076 88358
AAXX 07181 76556 32970 20000 10242 20090 39131 40169 50007 80001 91730 333 10254 20105 30/// 56005 58008 82070
AAXX 07181 76571 32870 43602 10162 20077 38194 40210 57008 80004 91750 333 10166 20074 30/// 56005 58030
AAXX 07181 76577 32970 82304 10191 20154 38061 40185 58003 80004 91740 333 10199 20070 30/// 56005 58017 88081
AAXX 07181 76581 12575 81403 10093 20064 39137 40286 57005 69901 82720 91750 333 10102 20060 30/// 56220 58079 82730 86460
AAXX 07181 76625 32450 50907 10166 20087 38154 40152 57013 85400 91740 333 10166 20097 30/// 56200 58013 85620
AAXX 07181 76632 31950 01104 10154 20084 37646 40147 57009 70500 91750 333 10182 20084 30/// 58015 98550
AAXX 07181 76658 31940 12702 10277 20161 39642 40149 57009 70540 80001 91745 333 10288 20172 30/// 56001 59001 81070 98924
AAXX 07181 76662 31970 22801 10226 20109 38475 40177 57005 70540 80004 91740 333 10238 20060 30/// 5600/ 58013 82070
AAXX 07181 76681 31950 00501 10206 20095 37794 40172 58010 70540 91740 333 10206 20052 30/// 58014
AAXX 07181 76683 31965 11201 10182 20079 37846 40223 56017 70544 80005 91745 333 10190 20064 30/// 56005 58012 81080
AAXX 07181 76743 31457 83202 10251 20225 30184 40192 58014 70222 885// 91745 333 10260 20230 30/// 561// 58039 88613
AAXX 07181 76750 32560 73204 10273 20223 30170 40180 57012 84620 91750 333 10281 20208 31/// 56880 58026 84820 83357
AAXX 07181 76762 32904 33601 10270 20210 38772 40157 56008 80002 91735 333 10274 20128 30/// 56006 58009 83070
AAXX 07181 76773 32570 20906 10214 20090 38444 40198 57012 81204 91745 333 10218 20041 30/// 56209 58016 81820
AAXX 07181 76775 31462 32702 10239 20086 38552 40211 57013 70300 83200 91730 333 10241 20074 30/// 56800 57683 58016 82620 81820
AAXX 07181 76833 32970 03614 10294 20234 30141 40143 57017 91745 333 10294 20241 30/// 58025 92001
AAXX 07181 76840 32550 23603 10294 20186 30098 40153 57007 82100 91740 333 10300 20167 30/// 568// 58040 82827
AAXX 07181 76843 32565 70202 10228 20179 39530 40174 57012 83770 91745 333 0/79/ 10234 20188 30/// 58037 83820 84360
AAXX 07181 76903 31682 22101 10320 20206 39993 40123 57018 70400 82200 91735 333 10329 20222 30/// 56200 58014 81834 81650
AAXX 07181 76311 32980 00000 10214 20067 39876 40161 56007 91750 333 10216 20052 30/// 59023
AAXX 07181 76412 31966 00000 10186 20099 30145 40191 52001 70544 91738 333 10194 20070 30/// 58001
BBXX VRZT9 07183 99278 70969 416// 30009 10100 2004/ 40340 56020 7//00 83485 22200 0//// 20502 3//// 40502 5//// 6//// 80070 ICE /////
AAXX 07184 78062 12569 51803 10278 20213 40165 60001 85200 333 59017 85825 90908
AAXX 07184 78700 32578 10404 10330 20203 30136 40141 58012 81100 333 10330 20218 30/// 56000 58006 81832
AAXX 07184 78703 11562 73612 10271 20225 30160 40162 58014 60041 70565 82270 333 10273 20210 31/// 56800 58017 82825 87457
AAXX 07184 78704 11565 60000 10274 20215 30169 40174 56005 60161 71565 82930 333 10276 20212 31/// 56000 58041 81922 81822 85358
AAXX 07184 78705 01568 82207 10240 20223 30152 40170 58009 60081 72164 8442/ 333 10251 20218 31/// 56309 58026 60055 84826 88458
AAXX 07184 78706 01559 72912 10259 20238 30167 40172 57022 60111 75155 85270 333 10262 20210 32/// 56200 58023 60070 85826 87458
AAXX 07184 78707 31560 82704 10214 20194 39422 40179 71544 8552/ 333 10226 20148 30/// 56099 58027 85620 88457
AAXX 07184 78708 31565 70405 10269 20239 30134 40164 58017 70544 83270 333 10269 20216 30/// 56000 58025 83825 87358
AAXX 07184 78711 11570 70407 10288 20236 30129 40144 58010 69971 70565 86230 333 10288 20228 31/// 56100 58011 86826 83359
AAXX 07184 78714 31568 70802 10253 20191 70544 84230 333 10253 20173 30/// 56220 84828 87358
AAXX 07184 78717 11560 73605 10202 20182 3898040166 56010 60011 70255 87100 333 10202 20160 31/// 56800 58018 87822
AAXX 07184 78718 31660 43610 10236 71544 84430 333 10246 20196 30/// 56800 84835
AAXX 07184 78719 32570 70412 10170 20130 38364 40145 58009 87100 333 10170 20108 30/// 56100 58010 87820
AAXX 07184 78720 31563 63618 10245 20166 39046 40123 58017 70544 86130 333 10245 20170 30/// 56800 59007 86828
AAXX 07184 78724 32578 40324 10346 20210 30053 40110 58021 84100 333 10346 20220 30/// 56100 58007 84834
BBXX BAREU08 07184 99098 70788 46/// ///// 40112 57023 22223
AAXX 07184 40272 32960 00000 10066 21111 39378 40239 52008 333 10174
BBXX BAREU05 07184 99444 10087 46/// ///// 40147 52005 22281
AAXX 0718/ 89828 46/// ///// 11400 36399 4//// 5////
AAXX 07184 89667 46/// /1520 11037 29079 39742 4//// 5////
AAXX 07184 89009 41748 82711 11246 36783 58001 77672 80007 333 88256
AAXX 07184 78062 12569 51803 10278 20213 40165 60001 85200 333 59017 85825 90908
AAXX 07181 76040 32960 03302 10122 21011 30249 40264 52001 80002 91745 333 10166 20010 30/// 56003 59028 82078 98660
AAXX 07181 76055 32980 03310 10161 21158 30213 40232 57004 91740 333 10172 20085 30/// 59047
AAXX 07181 76243 32973 31802 10118 21015 30004 40317 57009 80006 91740 333 10124 21035 30/// 56006 58021 83070
AAXX 07181 76256 32980 33206 10146 21003 30190 40204 52005 83/3/ 91745 333 10160 20070 30/// 56/5/ 59029 83360
AAXX 07181 76305 32970 13405 10188 20064 30186 40194 52007 81030 91740 333 10191 20115 30/// 56050 59020 81358
AAXX 07181 76323 32970 11801 10112 21036 38229 40359 57012 80001 91755 333 10117 21052 30/// 58015
AAXX 07181 76342 32962 00302 10120 20029 39593 40343 57016 91750 333 10128 21002 30/// 58012
AAXX 07181 76390 31968 42105 10117 21026 38286 40292 57001 70544 80001 91730 333 10130 21025 30/// 56008 58051 84070
AAXX 07181 76402 31958 00000 10204 20059 30126 40184 52005 70544 91745 333 10205 20056 30/// 59011
AAXX 07181 76423 32975 51201 10132 21050 38198 40257 58006 80005 91745 333 10147 21012 30/// 56009 58037 85067
AAXX 07181 76471 32980 30903 10152 21091 37724 40206 57001 80001 91750 333 10257 20022 30/// 56001 58027 83075
AAXX 07181 76491 32860 33601 10136 20035 39913 40321 57011 81034 91745 333 10145 20078 30/// 56099 58052 81362 82077
AAXX 07181 76499 32960 03403 10165 20007 30281 40303 57008 91740 333 10166 20089 30/// 58058
AAXX 07181 76525 32460 40904 10076 20042 37497 40203 52004 84600 91745 333 10078 20053 30/// 563// 58024 84714
AAXX 07181 76539 31560 80301 10110 20058 38205 40247 52012 70544 886// 91745 333 10120 20080 30/// 562// 58035 88721
AAXX 07181 76548 32875 80202 10156 20021 30301 40311 50007 88070 91740 333 10158 20120 30/// 56050 58076 88358
AAXX 07181 76556 32970 20000 10242 20090 39131 40169 50007 80001 91730 333 10254 20105 30/// 56005 58008 82070
AAXX 07181 76571 32870 43602 10162 20077 38194 40210 57008 80004 91750 333 10166 20074 30/// 56005 58030
AAXX 07181 76577 32970 82304 10191 20154 38061 40185 58003 80004 91740 333 10199 20070 30/// 56005 58017 88081
AAXX 07181 76581 12575 81403 10093 20064 39137 40286 57005 69901 82720 91750 333 10102 20060 30/// 56220 58079 82730 86460
AAXX 07181 76625 32450 50907 10166 20087 38154 40152 57013 85400 91740 333 10166 20097 30/// 56200 58013 85620
AAXX 07181 76632 31950 01104 10154 20084 37646 40147 57009 70500 91750 333 10182 20084 30/// 58015 98550
AAXX 07181 76658 31940 12702 10277 20161 39642 40149 57009 70540 80001 91745 333 10288 20172 30/// 56001 59001 81070 98924
AAXX 07181 76662 31970 22801 10226 20109 38475 40177 57005 70540 80004 91740 333 10238 20060 30/// 5600/ 58013 82070
AAXX 07181 76681 31950 00501 10206 20095 37794 40172 58010 70540 91740 333 10206 20052 30/// 58014
AAXX 07181 76683 31965 11201 10182 20079 37846 40223 56017 70544 80005 91745 333 10190 20064 30/// 56005 58012 81080
AAXX 07181 76743 31457 83202 10251 20225 30184 40192 58014 70222 885// 91745 333 10260 20230 30/// 561// 58039 88613
AAXX 07181 76750 32560 73204 10273 20223 30170 40180 57012 84620 91750 333 10281 20208 31/// 56880 58026 84820 83357
AAXX 07181 76762 32904 33601 10270 20210 38772 40157 56008 80002 91735 333 10274 20128 30/// 56006 58009 83070
AAXX 07181 76773 32570 20906 10214 20090 38444 40198 57012 81204 91745 333 10218 20041 30/// 56209 58016 81820
AAXX 07181 76775 31462 32702 10239 20086 38552 40211 57013 70300 83200 91730 333 10241 20074 30/// 56800 57683 58016 82620 81820
AAXX 07181 76833 32970 03614 10294 20234 30141 40143 57017 91745 333 10294 20241 30/// 58025 92001
AAXX 07181 76840 32550 23603 10294 20186 30098 40153 57007 82100 91740 333 10300 20167 30/// 568// 58040 82827
AAXX 07181 76843 32565 70202 10228 20179 39530 40174 57012 83770 91745 333 0/79/ 10234 20188 30/// 58037 83820 84360
AAXX 07181 76903 31682 22101 10320 20206 39993 40123 57018 70400 82200 91735 333 10329 20222 30/// 56200 58014 81834 81650
AAXX 07181 76311 32980 00000 10214 20067 39876 40161 56007 91750 333 10216 20052 30/// 59023
AAXX 07181 76412 31966 00000 10186 20099 30145 40191 52001 70544 91738 333 10194 20070 30/// 58001
AAXX 07181 76040 32960 03302 10122 21011 30249 40264 52001 80002 91745333 10166 20010 30/// 56003 59028 82078 98660
AAXX 07181 76055 32980 03310 10161 21158 30213 40232 57004 91740 33310172 20085 30/// 59047
AAXX 07181 76243 32973 31802 10118 21015 30004 40317 57009 80006 91740333 10124 21035 30/// 56006 58021 83070
AAXX 07181 76256 32980 33206 10146 21003 30190 40204 52005 83/3/ 91745333 10160 20070 30/// 56/5/ 59029 83360
AAXX 07181 76305 32970 13405 10188 20064 30186 40194 52007 81030 91740333 10191 20115 30/// 56050 59020 81358
AAXX 07181 76323 32970 11801 10112 21036 38229 40359 57012 80001 91755333 10117 21052 30/// 58015
AAXX 07181 76342 32962 00302 10120 20029 39593 40343 57016 91750 33310128 21002 30/// 58012
AAXX 07181 76390 31968 42105 10117 21026 38286 40292 57001 70544 8000191730 333 10130 21025 30/// 56008 58051 84070
AAXX 07181 76402 31958 00000 10204 20059 30126 40184 52005 70544 91745333 10205 20056 30/// 59011
AAXX 07181 76423 32975 51201 10132 21050 38198 40257 58006 80005 91745333 10147 21012 30/// 56009 58037 85067
AAXX 07181 76471 32980 30903 10152 21091 37724 40206 57001 80001 91750333 10257 20022 30/// 56001 58027 83075
AAXX 07181 76491 32860 33601 10136 20035 39913 40321 57011 81034 91745333 10145 20078 30/// 56099 58052 81362 82077
AAXX 07181 76499 32960 03403 10165 20007 30281 40303 57008 91740 33310166 20089 30/// 58058
AAXX 07181 76525 32460 40904 10076 20042 37497 40203 52004 84600 91745333 10078 20053 30/// 563// 58024 84714
AAXX 07181 76539 31560 80301 10110 20058 38205 40247 52012 70544 886//91745 333 10120 20080 30/// 562// 58035 88721
AAXX 07181 76548 32875 80202 10156 20021 30301 40311 50007 88070 91740333 10158 20120 30/// 56050 58076 88358
AAXX 07181 76556 32970 20000 10242 20090 39131 40169 50007 80001 91730333 10254 20105 30/// 56005 58008 82070
AAXX 07181 76571 32870 43602 10162 20077 38194 40210 57008 80004 91750333 10166 20074 30/// 56005 58030
AAXX 07181 76577 32970 82304 10191 20154 38061 40185 58003 80004 91740333 10199 20070 30/// 56005 58017 88081
AAXX 07181 76581 12575 81403 10093 20064 39137 40286 57005 69901 8272091750 333 10102 20060 30/// 56220 58079 82730 86460
AAXX 07181 76625 32450 50907 10166 20087 38154 40152 57013 85400 91740333 10166 20097 30/// 56200 58013 85620
AAXX 07181 76632 31950 01104 10154 20084 37646 40147 57009 70500 91750333 10182 20084 30/// 58015 98550
AAXX 07181 76658 31940 12702 10277 20161 39642 40149 57009 70540 8000191745 333 10288 20172 30/// 56001 59001 81070 98924
AAXX 07181 76662 31970 22801 10226 20109 38475 40177 57005 70540 8000491740 333 10238 20060 30/// 5600/ 58013 82070
AAXX 07181 76681 31950 00501 10206 20095 37794 40172 58010 70540 91740333 10206 20052 30/// 58014
AAXX 07181 76683 31965 11201 10182 20079 37846 40223 56017 70544 8000591745 333 10190 20064 30/// 56005 58012 81080
AAXX 07181 76743 31457 83202 10251 20225 30184 40192 58014 70222 885//91745 333 10260 20230 30/// 561// 58039 88613
AAXX 07181 76750 32560 73204 10273 20223 30170 40180 57012 84620 91750333 10281 20208 31/// 56880 58026 84820 83357
AAXX 07181 76762 32904 33601 10270 20210 38772 40157 56008 80002 91735333 10274 20128 30/// 56006 58009 83070
AAXX 07181 76773 32570 20906 10214 20090 38444 40198 57012 81204 91745333 10218 20041 30/// 56209 58016 81820
AAXX 07181 76775 31462 32702 10239 20086 38552 40211 57013 70300 8320091730 333 10241 20074 30/// 56800 57683 58016 82620 81820
AAXX 07181 76833 32970 03614 10294 20234 30141 40143 57017 91745 33310294 20241 30/// 58025 92001
AAXX 07181 76840 32550 23603 10294 20186 30098 40153 57007 82100 91740333 10300 20167 30/// 568// 58040 82827
AAXX 07181 76843 32565 70202 10228 20179 39530 40174 57012 83770 91745333 0/79/ 10234 20188 30/// 58037 83820 84360
AAXX 07181 76903 31682 22101 10320 20206 39993 40123 57018 70400 8220091735 333 10329 20222 30/// 56200 58014 81834 81650
AAXX 07181 76311 32980 00000 10214 20067 39876 40161 56007 91750 33310216 20052 30/// 59023
AAXX 07181 76412 31966 00000 10186 20099 30145 40191 52001 70544 91738333 10194 20070 30/// 58001
AAXX 07184 89514 32597 40205 11046 49840 57003 81504 333 81630 84060
AAXX 07184 78062 12569 51803 10278 20213 40165 60001 85200 333 59017 85825 90908
AAXX 07184 89514 32597 40205 11046 49840 57003 81504 333 81630 84060
AAXX 07184 89664 11558 80811 11037 21064 39707 49748 53010 69904 77122 887// 333 56499 83620 88730 90910 91518 93197
BBXX 46002 07181 99426 71305 46/// ///// 10112 40324 53005 91750 22200 00125 11204 70018
BBXX 46005 07181 99461 71310 46/// ///06 10091 40349 53008 91750 22200 00103 11103 20301 3//// 41103 70014 333 91207 555 11059 22062
BBXX 46006 07181 99408 71375 46/// /0706 10103 40342 53010 91750 22200 00126 11303 20502 3//// 41303 70017 333 91209 555 11065 22068 31707 40609 61749 075063 064067 056065 068062 066071 066062
BBXX 46012 07181 99374 71229 46/// /3605 10107 40258 54000 91750 22200 00122 11202 20301 325// 41202 70009 333 91206 555 11057 22059 31713 43607 61749 004054 004056 008056 004055 002054 002048
BBXX 46013 07181 99382 71233 46/// /1001 10098 40264 52003 91750 22200 00107 11102 3//// 41102 70010 333 91202 555 11014 22015 31651 41002 61749 097014 092015 091012 092013 088016 093018
BBXX 46014 07181 99394 71240 46/// /0101 10087 40269 54000 91750 22200 00104 11202 3//// 41202 70010 333 91202 555 11008 22008 31657 40303 61749 003009 000008 022016 021019 031018 032021
BBXX 46029 07181 99461 71245 46/// /3503 10080 20075 40311 53004 91750 22200 00078 11202 20401 330// 41202 70012 333 91204 555 11033 22036 31749 43504 61749 352031 355022 266005 267014 265020 258017
BBXX 46050 07181 99442 71246 46/// /0306 10076 40304 52005 91750 22200 00103 11203 20501 330// 41202 70013 333 91207 555 11060 22062 31650 40309 61749 034057 035052 037053 028060 019069 021071
BBXX KGTY 07184 99543 71388 41896 81227 10056 20030 40270 5//// 763// 887// 22234 00050 20605 32724 41005 50806 6//// 80044 ICE /////
BBXX LAYG5 07184 99543 71396 41591 81420 10070 21050 40290 56010 70322 88/// 22263 00100 21003 314// 4//// 5//// 80060
BBXX WSLH 07184 99307 71496 41498 21508 10210 20150 40230 52020 71500 823// 22215 00200 20901 332// 41305 5//// 6//// 80170 ICE /////
AAXX 07184 81405 04586 /0809 10305 20239 30070 40079 60001 700// 333 60007 58009 555 60005
AAXX 07184 81405 04586 /0809 10305 20239 30070 40079 60001 700// 333 60007 58009 555 60005
AAXX 07184 40250 32960 01204 10088 21119 39412 40226 54001 333 10170
AAXX 07184 40260 32960 00000 10080 21148 39420 40220 54000 333 10168
AAXX 07184 78583 32470 53411 10281 20222 40173 60001 85800 333 01100 58028 83818 85648
AAXX 07184 85836 12970 02808 10253 20041 39878 40222 57022 60001
AAXX 07184 85862 12980 02415 10182 20083 40215 58020 60001
AAXX 07184 85864 12980 01705 10206 20060 40187 57021 60001
AAXX 07184 85874 12980 03013 10199 20010 39578 40182 58017
AAXX 07184 85886 12970 03311 10224 20118 40182 57016 60001
AAXX 07184 85892 12980 02113 10196 20050 40189 57020 60001 333
AAXX 07184 85934 12580 72520 10111 20046 40122 52018 60001 87200 333 56600 87825
AAXX 07184 85968 12665 73020 10106 20040 40028 52010 60001 87200 333 56700 87840
AAXX 07184 85406 12980 02113 10222 20126 40135 57009 60001
AAXX 07184 85418 12970 32220 10211 20127 40145 57009 60001 80001 333 56000 83080
AAXX 07184 85442 12470 21913 10199 20121 40142 57009 60001 82500 333 56400 81618
AAXX 07184 85469 42560 50708 10229 20169 40253 51002 85200 333 56200 85820
AAXX 07184 85488 12965 22711 10193 20126 40159 57007 60001 80001 333 56000 82075
AAXX 07184 85574 12760 21512 10263 20118 39595 40127 57015 60001 82500 333 56700 82656
AAXX 07184 85585 11498 72113 10181 20124 40225 51004 69941 70182 87800 333 56400 83816 84620
AAXX 07184 85586 12958 02609 10193 20113 40184 58004 60001
AAXX 07184 85629 12570 33006 10252 20139 40139 57014 60001 83200 333 56500 83830
AAXX 07184 85672 13570 12006 10273 20120 40141 57011 60001 81200 333 56000 81830
AAXX 07184 85682 12960 00213 10198 20129 40164 57001 60001
AAXX 07184 85703 12960 02112 10280 20130 40148 57006 60001
AAXX 07184 85799 12560 21409 10186 20124 40204 57013 60001 82100 333 56400 82830
BBXX BAREU54 07184 99162 70731 46/// ///// 40103 57018 22213
BBXX BATFR02 07184 99500 70006 46/// /2931 10104 20032 40191 22244 00139
BBXX BAREU12 07184 99540 10075 46/// ///// 49907 52003 22264
BBXX BAREU04 07184 99455 70577 46/// ///// 40107 57012 22224
BBXX DBJM 07181 99542 10079 46/// /2913/10086 20040 49917 52010 22231 00081
BBXX BAREU62 07184 99383 10248 46/// ///// 40130 52005 22214
BBXX DBFH 0/181 99555 10084 46/// /1101 10040 20031 49895 56019 22210 00059
BBXX DBEB 07181 99538 10081 41/// /3014 10053 20052 49919 52009 7//// 22200 00058
BBXX BAREU06 07184 99360 70065 46/// ///// 40282 57000 22264
BBXX DBBI 07181 99536 10086 46/// /2607 10044 20044 49929 57003 22202 00057
BBXX /BKR 07181/99547 10127 46/// /26/0 10050 20050 49897 5400/ 22200 00068
BBXX DBND 07185 /9/// ///// 46/// ///// 10046 20036 49929 52006/ 22220 00067
BBXX 61001 07184 99434 10078 46/// /2633 10161 20100 40134 52008 22200 00163 10807 70035 555 1/046
BBXX DEIR 07184 99178 30108 41398 31620 10184 20149 40124 52004 7//11 83640 22243 04216 20503 318// 41004 80162
BBXX 2BLY5 07183 99182 70197 41398 70811 10230 20103 40234 57017 7//// 84768 22253 00250 20202 303// 40404 80160
BBXX DBBA 07181 99536 10086 46/// ///// 10044 20037 49929 52005 22220 00061
BBXX 41101 07184 99146 70562 46/// /1505 10271 20225 40094 57022 22200 00279 11003 70016
BBXX A8IM7 07184 99243 11504 41/97 /3629 10230 20208 40150 50150 75455 8//// 22264 04290 299// 3//// 4//// 5//// 80215
BBXX DBCK 07181 99/// ///// 46/// ///// 10046 20046 49930 52005 22220 00058
AAXX 07184 85782 12560 41808 10200 20118 40199 57010 60001 84500 333 56000 84620
AAXX 07184 85743 12960 02209 10242 20130 40165 58018 60001
AAXX 07184 78384 12560 10411 10278 20226 40149 60001 81800 333 10285 20245 58013 70000 81820
AAXX 07184 78383 12460 20409 10285 20225 40149 60001 82200 333 10297 20253 58010 70000 82818
AAXX 07184 48698 01460 73502 10259 20249 30072 40090 60001 70522 81132 333 60007 81818 87080
AAXX 07184 48698 01460 73502 10259 20249 30072 40090 60001 70522 81132 333 60007 81818 87080
AAXX 07181 12772 31675 81806 10024 21004 39811 40099 58027 70122 8251/ 333 10052 4/000 82636
AAXX 07181 12822 16/// /1905 10054 20021 39927 40070 57022 69982 333 10074
AAXX 07181 12843 31962 81903 10026 20002 39924 40097 57020 76122 8802/ 333 10074 4/000
AAXX 07181 12882 31980 71805 10027 20006 39983 40117 58022 70322 8707/ 333 10060 4/000
AAXX 07181 12925 36/// /1903 10034 20008 39925 40099 56018 333 10063
AAXX 07181 12942 31957 81802 10020 20020 39865 40114 57020 72844 8807/ 333 10028 4/000
AAXX 07181 12982 31925 81605 10011 20001 30018 40122 58018 71011 80007 333 10061 4/000
AAXX 07184 97180 12457 50802 10260 20257 30053 40071 56014 60001 82532 333 56000 81619 85360 85080
AAXX 07184 91348 11470 81005 10256 20243 30020 40073 55005 60021 78088 86201 333 562/9 70488 555 90718
AAXX 07184 85406 12980 02113 10222 20126 40135 57009 60001
AAXX 07184 85418 12970 32220 10211 20127 40145 57009 60001 80001 333 56000 83080
AAXX 07184 85442 12470 21913 10199 20121 40142 57009 60001 82500 333 56400 81618
AAXX 07184 85469 42560 50708 10229 20169 40253 51002 85200 333 56200 85820
AAXX 07184 85488 12965 22711 10193 20126 40159 57007 60001 80001 333 56000 82075
AAXX 07184 91772 11398 50305 10275 20233 4//// 60021 70262 81106 333 561/9 81707 85080
AAXX 07184 91776 31498 40818 1//// 2//// 4//// 60001 70200 84200 333 562// 84818
AAXX 07184 91779 31498 20706 10245 20226 40105 53006 60001 70200 82200 333 561// 82817
AAXX 07184 91784 31599 10000 10250 20243 40108 53015 60001 70200 81100 333 569// 81814
AAXX 07184 91792 31498 21203 10238 20229 40120 53010 60001 70200 82100 333 563// 82815
AAXX 07184 91772 11398 50305 10275 20233 4//// 60021 70262 81106 333 561/9 81707 85080
AAXX 07184 91776 31498 40818 1//// 2//// 4//// 60001 70200 84200 333 562// 84818
AAXX 07184 91779 31498 20706 10245 20226 40105 53006 60001 70200 82200 333 561// 82817
AAXX 07184 91784 31599 10000 10250 20243 40108 53015 60001 70200 81100 333 569// 81814
AAXX 07184 91792 31498 21203 10238 20229 40120 53010 60001 70200 82100 333 563// 82815
AAXX 07184 91348 11470 81005 10256 20243 30020 40073 55005 60021 78088 86201 333 562/9 70488 555 90718
BBXX 44007 07181 99435 70701 46/// /0207 10054 20050 40088 58029 91750 22200 00089 10902 20401 3//// 40901 70009 333 91207 555 11068 22071 31747 40207 61749 021064 022057 017060 012059 022056 024056
BBXX 44013 07181 99423 70707 46/// /0308 10086 20082 40074 58021 91750 22200 00102 10402 20402 300// 40901 70008 333 91210 555 11088 22093 31739 40310 61749 027083 027082 025078 025076 026077 031072
AAXX 07184 78858 12480 40208 10286 20241 30057 40113 60001 82830 333 10286 20230 58018 82818 84358
AAXX 07184 78982 -2586 30909 10303 20242 30085 40090 57023 60001 83231 333 58009 60007 83820
AAXX 07184 96315 11460 62102 10238 20236 40070 60013 71022 81842 333 81814 85080
AAXX 07184 96323 NIL
AAXX 07184 78925 14586 61005 10297 20239 40107 56022 60001 700// 333 10298 20228 58014
AAXX 07181 10004 46/59 /2921 10067 20039 39935 49935 53031 222// 00100 333 10095 20054 55300 91129 91223
AAXX 07181 10015 01568 72813 10068 20035 39905 49915 53014 60052 72587 879// 222// 02075 333 10081 20045 31004 55300 20000 30000 60017 82823 82927 85650 91121 91217 96487 96484 96463
AAXX 07181 10020 07577 42403 10043 20034 39866 49898 53015 60092 70065 333 10057 20026 3/002 55300 20000 30000 69927 82/26 84/50 91120 91214
AAXX 07181 10035 01570 52104 10030 20024 39849 49907 52008 60052 76165 85500 333 10038 20010 32001 55300 20000 30000 41092 69947 85625
AAXX 07181 10055 01483 72610 10046 20034 39896 49906 53014 60042 70165 84831 333 10046 20020 32002 55300 20000 30000 69927 81810 84656 91115 91213
AAXX 07181 10147 01460 82505 10036 20026 39914 49932 53010 60102 76362 877// 333 10054 20026 32001 55300 20000 30000 41177 60027 87710 91114
AAXX 07181 10162 07470 72506 10034 20027 39845 49927 51018 60052 72365 333 10034 20011 3/001 55300 20000 30000 60017 86/11 87/16 87/21
AAXX 07181 10184 01235 82103 10009 20005 39904 49912 56001 60022 76962 877// 333 10033 20008 31101 55300 20000 30000 60017 87704
AAXX 07181 10200 01460 82816 10048 20036 39959 49957 53027 60112 76398 887// 333 10069 20029 32002 55300 20000 30000 60077 87711 91125 91217 96496 96487
AAXX 07181 10224 01460 82613 10048 20031 39950 49956 51014 60062 78182 873// 333 10061 20038 32003 55300 20000 30000 60037 82811 87916 91120 91214
AAXX 07181 10270 06460 72606 10042 20028 39892 49947 53022 60082 222// 06053 333 10045 20008 3/101 55300 60027 87/15 87/19 91115
AAXX 07181 10338 01480 82709 10053 20023 39903 49975 51014 60032 78086 878// 333 10060 20036 32003 55300 20000 30000 69967 83816 86630 91116
AAXX 07181 10361 01586 52506 10044 20016 39872 49975 51025 60032 72562 85800 333 10065 20023 31001 55300 20000 30000 69907 82830 84650 91116
AAXX 07181 10393 01483 82709 10048 20024 39823 49949 53014 60062 72162 878// 333 10050 20003 31101 55300 20000 30000 60037 84819 87629 91116
AAXX 07181 10400 01775 72708 10073 20005 30013 40062 52032 60042 70381 875// 333 10085 20031 31002 55300 20000 30000 69907 87656 91125 91214
AAXX 07181 10438 07681 62103 10040 20007 39747 40028 53019 60082 72376 333 10057 20019 3/001 55300 69917 81/40 86/56 91116
AAXX 07181 10469 01583 52407 10033 20011 39835 40000 51034 60022 70386 85800 333 10064 20016 31001 55300 69907 81821 85650 91118 91212
AAXX 07181 10488 01683 52709 10042 20005 39716 49997 52030 60032 70162 85500 333 10059 20006 31000 55300 20000 30000 40977 69907 85646 91116
AAXX 07181 10506 01481 62707 10024 20000 39509 40097 51036 60122 72681 86800 333 10059 20011 31000 55300 20000 30000 69967 82815 86633 91120 91213 96283 96488 96483 96481
AAXX 07181 10548 01482 62708 10029 21007 39504 40047 51031 60052 72586 86800 333 10042 20004 31000 55300 20000 30000 69927 81815 86621 91120 91212
AAXX 07181 10637 01586 62808 10062 21005 39946 40084 51034 60112 70398 85830 333 10100 20043 31002 55300 69907 81830 85656 91121 91214 94909 96495 96488 96481
AAXX 07181 10685 01483 72706 10012 21008 39365 40043 53034 60062 70297 8457/ 333 10023 20000 3/100 44004 55300 20000 30000 69907 84613 86359 91114 96495 96473 96468 96458
AAXX 07181 10738 01486 62507 10067 20008 39640 40109 51029 60072 72161 82871 333 10076 20046 31003 55300 69907 81818 85359 91118 91213 96463
AAXX 07181 10763 01386 22906 10027 20004 39691 40077 51027 60082 72986 81831 333 10079 20023 31001 55300 20000 30000 60027 81809 91119 91212 96489 96487
AAXX 07181 10788 07688 62503 10031 20018 39642 40077 51038 60042 72365 333 10071 20009 3/000 55300 20000 30000 69937 85/41 86/50 86/56 91118 91212
AAXX 07181 10852 07688 72709 10054 20023 39531 40100 53020 60062 70076 333 10074 20034 3/002 55300 20000 30000 69927 82/37 87/57 87/59 91118 91213
AAXX 07181 10946 07/56 /2809 10023 20008 39295 40135 53032 60122 76376 333 10064 20013 3/000 55300 20000 30000 60057 91119
AAXX 07184 67315 32980 01407 10253 20198 40094 52010 333 10295
AAXX 07184 78925 14586 61005 10297 20239 40107 56022 60001 700// 333 10298 20228 58014
AAXX 07181 01001 11565 53508 11087 21135 39995 40007 53016 69922 70272 83230 333 11072 91113
AAXX 07181 01008 16/// /0704 11024 21063 39813 49846 51005 6//// 333 11022 91110
AAXX 07181 01010 11585 73007 10010 21065 39916 49932 53021 69912 70282 8686/ 333 10010 91111
AAXX 07181 01026 11587 61904 11016 21044 39787 49928 52021 69922 71582 83362 333 10007 91107
AAXX 07181 01055 46/// /2616 10030 21040 39867 49884 50030 333 10047 91122
AAXX 07181 01062 NIL
AAXX 07181 01098 11480 72307 11001 21029 39888 49906 52029 69932 70182 86810 333 10001 91115
AAXX 07181 01115 11470 82402 10013 21006 39885 49906 53024 69942 76162 8272/ 333 10040 91111
AAXX 07181 01152 11586 70904 11002 21017 39898 49914 53023 69902 72681 878// 333 10026 91108
AAXX 07181 01205 NIL
AAXX 07181 01212 16/// /0103 10024 21054 39940 49956 52017 6//// 333 10041 91107
AAXX 07181 01271 16/// /2504 11014 21050 39917 49938 53021 60042 333 10014 48010 91108
AAXX 07181 01288 11670 32903 11061 21094 39193 49950 52025 60022 70181 81131 333 11030 91112
AAXX 07181 01300 NIL
AAXX 07181 01317 11982 11602 11031 21046 39933 49948 53029 60002 70100 80001 333 10000 91104
AAXX 07181 01367 16/// /3004 11095 21109 39515 49972 53022 6//// 333 11081 91106
AAXX 07181 01384 11688 53501 11064 21076 39682 49932 53024 69942 70300 8550/ 333 11029 91104
AAXX 07181 01403 11986 0//// 11002 21027 39878 49948 53033 60002 70110
AAXX 07181 01415 16/// /1601 11023 21040 39934 49945 53034 6//// 333 10006 91109
AAXX 07181 01482 46/// /3505 1//// 2//// 39922 49930 53022 333 91109
AAXX 07181 01492 NIL
AAXX 07181 01003 NIL
AAXX 07181 01007 11989 81306 11042 21107 39849 49858 50008 60002 70222 81047 333 11034 91116
AAXX 07181 01028 11450 61807 11009 21015 39748 49767 52006 60022 70287 85330 333 10001 91112
AAXX 07181 01047 31788 51401 11164 21184 39561 49939 52023 70211 85070 333 11075
AAXX 07181 01049 16/// /1302 11045 21078 39921 49925 52028 60012 333 11028 91105
AAXX 07181 01078 11375 62609 10026 21037 39878 49891 53027 60002 70122 85310 333 10032 91118
AAXX 07181 01102 46/// /3203 10032 21052 39890 49909 53018 333 10048 91113
AAXX 07181 01160 NIL
AAXX 07181 01218 NIL
AAXX 07181 01238 46/// /1303 11115 21148 38805 49930 53019 333 11085 91105
AAXX 07181 01241 11586 62609 10026 21023 39918 49929 51012 69922 70221 85862 333 10045 91111
AAXX 07181 01281 NIL
AAXX 07181 01338 16/// /0903 11021 21052 39900 49967 53024 60002 333 11015 91108
AAXX 07181 01359 NIL
AAXX 07181 01397 16/// /1201 11130 21140 39490 49946 53024 60002 333 11066 91102
AAXX 07181 01400 NIL
AAXX 07181 01427 11584 20702 11002 21073 39927 49943 53040 60002 70121 82800 333 10034 91106
AAXX 07181 01447 NIL
AAXX 07181 01448 46/// /0206 11009 21050 39927 49937 53028 333 10016 91109
AAXX 07184 78897 11481 51703 10269 20240 40106 56020 60031 72586 85800 333 0285/ 10294 20231 58018 70032 81818 84823
AAXX 07184 85574 12760 21512 10263 20118 39595 40127 57015 60001 82500 333 56700 82656
AAXX 07184 85585 11498 72113 10181 20124 40225 51004 69941 70182 87800 333 56400 83816 84620
AAXX 07184 85586 12958 02609 10193 20113 40184 58004 60001
AAXX 07184 85629 12570 33006 10252 20139 40139 57014 60001 83200 333 56500 83830
AAXX 07184 85672 13570 12006 10273 20120 40141 57011 60001 81200 333 56000 81830
AAXX 07184 85682 12960 00213 10198 20129 40164 57001 60001
AAXX 07184 85703 12960 02112 10280 20130 40148 57006 60001
AAXX 07184 85799 12560 21409 10186 20124 40204 57013 60001 82100 333 56400 82830
AAXX 07184 85836 12970 02808 10253 20041 39878 40222 57022 60001
AAXX 07184 85862 12980 02415 10182 20083 40215 58020 60001
AAXX 07184 85864 12980 01705 10206 20060 40187 57021 60001
AAXX 07184 85874 12980 03013 10199 20010 39578 40182 58017
AAXX 07184 85886 12970 03311 10224 20118 40182 57016 60001
AAXX 07184 85892 12980 02113 10196 20050 40189 57020 60001 333
AAXX 07184 85934 12580 72520 10111 20046 40122 52018 60001 87200 333 56600 87825
AAXX 07184 85968 12665 73020 10106 20040 40028 52010 60001 87200 333 56700 87840
AAXX 07184 91334 11474 80608 10261 20234 30063 40066 55002 60021 70282 84371 333 56199 70183 555 90718
AAXX 07184 85743 12960 02209 10242 20130 40165 58018 60001
AAXX 07184 85782 12560 41808 10200 20118 40199 57010 60001 84500 333 56000 84620
AAXX 07184 78897 11481 51703 10269 20240 40106 56020 60031 72586 85800 333 0285/ 10294 20231 58018 70032 81818 84823
AAXX 07184 91334 11474 80608 10261 20234 30063 40066 55002 60021 70282 84371 333 56199 70183 555 90718
BBXX CGDS 07184 99447 70755 46/// /3402 10013 20002 4//// 5//// 7//// 8//// 22200 0//// 2////
BBXX BATFR20 07184 99432 10053 46/// /2833 10152 20097 40209 22243
BBXX BATFR54 07184 99535 70039 46/// /2731 10082 20022 40134 53033 22232 00102
BBXX BATEU07 07184 99377 31334 46/// /1217 10149 40096 56014 22223
BBXX PHQX 07183 99201 70735 41498 30307 10285 20214 40125 56005 70222 83462 22214 20302 304// 40803 5//// 80235
BBXX BATFR60 07184 99495 70036 46/// /2827 10114 20059 40211 53018 22213 00125
BBXX OXHY2 07184 99414 70097 41/98 52403 10149 20131 40314 53010 70222 846// 22284 00165 21001 334// 41003 5//// 80138
AAXX 07181 10007 NIL
AAXX 07181 10044 46/// /2210 10037 20018 39871 49902 52009 222// 00062 333 10043 20012 55300 91114 91212
AAXX 07181 10046 11465 72304 10037 20024 39873 49912 52010 60052 70362 875// 333 10041 20014 32000 83710 87620
AAXX 07181 10091 07356 82207 10020 20016 39852 49903 56004 60012 75776 333 10030 20005 3/100 55300 20000 30000 69927 87/07 87/26 88/35 91114 91211
AAXX 07181 10113 01559 82922 10054 20033 39920 49939 53020 60072 78098 888// 333 10073 20039 31004 55300 20000 30000 60017 84822 87635 91128 90226 91218 91222 96495 96487
AAXX 07181 10124 46/// /2717 10045 20046 39879 49917 53012 222// 00064 333 10069 20026 553// 91126 91220
AAXX 07181 10131 07580 72706 10049 20030 39908 49923 53007 60202 76187 333 10056 20021 3/002 55300 20000 30000 60027 84/21 87/38 87/50 91119 91213
AAXX 07181 10170 01382 82505 10040 20029 39898 49914 53013 60042 72176 876// 333 10042 20012 32000 55300 20000 30000 60027 87707 91113
AAXX 07181 10264 06371 82605 10033 20025 39824 49930 51020 60092 333 10036 20014 3/001 55300 20000 30000 60027 81/07 87/12 88/20 91114
AAXX 07181 10291 01356 82507 10015 20010 39859 49927 53003 60062 76376 877// 333 10041 20005 31100 55300 20000 30000 60057 87707
AAXX 07181 10315 01475 52512 10067 20016 39948 40012 53024 60092 72982 85900 333 10077 20050 32004 55300 20000 30000 69907 81915 85640 91120 91214
AAXX 07181 10379 01584 82609 10047 20024 39829 49950 52028 60052 76062 888// 333 10051 20003 31102 55300 20000 30000 41179 69937 86822 88633 91119 91211
AAXX 07181 10382 01365 82807 10048 20027 39905 49950 52032 60062 76162 875// 333 10053 20012 31101 55300 20000 30000 69957 82708 87616 91117 91211
AAXX 07181 10384 06/// /2708 10052 20028 39888 49947 53025 60062 333 10054 20009 3/101 55300 20000 30000 69957 91114
AAXX 07181 10427 01375 82713 11006 21006 39029 48339 53024 60062 78787 873// 333 10001 21012 3/101 48033 55300 20000 30000 69907 87907 91123 91215 96488 96487 96486 96470 96441
AAXX 07181 10430 01575 82510 10059 20009 39822 40013 53018 60052 70286 888// 333 10063 20044 31003 55300 20000 30000 69917 81820 85633 87646 91118 91212 96488 96487 96480
AAXX 07181 10439 11665 52707 10057 21004 39817 40036 52027 60022 70381 85500 333 10070 20027 31002 85645 91115
AAXX 07181 10453 11/90 92623 11030 21030 38641 48283 53018 60082 74984 333 11017 21040 3/104 49045 55300 91136 91227 96039 96285 96488 96486 96473 96449 96439
AAXX 07181 10496 01486 72607 10048 20020 39882 49966 53016 60042 70162 875// 333 10053 20011 31100 55300 20000 30000 69947 87617 91113
AAXX 07181 10499 01581 72707 10026 20009 39691 49981 53010 60052 72987 8457/ 333 10038 20005 32101 55300 20000 30000 60027 84632 87360 91116 91211
AAXX 07181 10505 03582 32710 10048 20000 39804 40087 53028 60102 8//// 333 10071 20022 3/001 55300 20000 30000 69947 83/31 83/50 91123 90245 91218 90345 91218
AAXX 07181 10513 01482 42607 10056 20009 39956 40078 52033 60042 78081 84300 333 10085 20049 31004 55300 20000 30000 69907 82918 83640 91124 91213 96481
AAXX 07181 10532 07582 72307 10034 20006 39814 40064 53027 60062 70076 333 10065 20017 3/001 55300 20000 30000 69937 87/23 87/50 87/62 91121 91213
AAXX 07181 10544 01/02 92609 11016 21016 38965 48348 51028 60062 74187 333 10005 21018 3/102 44014 55300 60017 91121 91214 96036 96488 96475 96473 96471 96469
AAXX 07181 10554 01682 32711 10022 21003 39633 40023 51024 60032 70398 83500 333 10057 20011 31000 4/998 55300 20000 30000 60017 83646 91124 91215 96496 96488 96480 96418
AAXX 07181 10567 01584 22709 10028 21002 39642 40019 51028 60012 70186 82800 333 10054 20002 31100 55300 20000 30000 69917 81821 91120 91212 96481 96461
AAXX 07181 10578 11/01 92717 11029 21032 38609 48315 53024 60082 77174 333 11023 21041 3/104 48027 55300 20000 30000 96049 96037 96449 96441 96438
BBXX BATFR12 07184 99484 70071 46/// /2811 10197 20100 40246 53016 22200 00147
BBXX BATEU09 07184 99428 10095 46/// /2759 10162 20087 40103 22241 00184
BBXX BATFR05 07184 99054 70001 46/// /2010 10279 20237 40098 53006 22200 00255
BBXX BATFR10 07184 99369 10003 44/98 02805 40283 55/// 70200 22263 00184
BBXX BATFR04 07184 99595 70112 46/// /3510 10034 21003 49988 22252 00102
BBXX FVNM 07184 99103 71092 46/// /1115 10269 20210 40126 50002 22200 00269
BBXX BATFR52 07184 99508 70011 46/// /2835 10082 20002 40177 53022 22272 00105
BBXX BATEU01 07184 99488 70213 44596 72528 10139 20109 40199 56019 70022 872// 22264 00124 21006 32529 41006 51504
BBXX BATFR56 07184 99038 10999 46/// /3309 10287 20230 40089 58008 22273 00299
BBXX BATFR16 07184 99359 70389 44598 61424 10195 40198 55006 70322 86270 22214 00217 21406 308// 41406 5////
BBXX BATFR27 07184 99494 70036 46/// /3027 10110 20054 40210 51067 22245 00137
BBXX BATFR09 07184 99366 70094 44497 81004 10147 20094 40289 55002 70311 8642/ 22233 00194 20100 326// 40302 5////
BBXX BATEU05 07184 99583 10056 46/// /1007 10039 21053 49943 53045 22273
BBXX BATEU08 07184 99595 70395 46/// /3524 11018 21118 40058 53022 22223
BBXX BATFR14 07184 99367 70300 44598 60917 10177 20149 40253 56020 70222 86272 22254 00182 20302 31011 40704 51006 60000 ICE 0/0//
BBXX BATFR06 07184 99453 70015 46/// /2916 10150 20084 40273 53014 22261 00162
BBXX BATEU06 07184 99501 70160 46/// /2424 10119 20074 40207 57002 22223 00134
BBXX BATFR03 07184 99498 70005 46/// /3129 10107 20024 40178 22283
BBXX BATFR47 07184 99240 51330 46/// /0811 10237 20179 40183 51008 22222
AAXX 07181 10609 01583 63105 10059 20009 39783 40114 53035 60052 72581 86800 333 10085 20056 31004 55300 20000 30000 69907 83825 86650 91118
AAXX 07181 10616 01565 72907 10039 21020 39495 40098 51035 60062 70182 879// 333 10063 20023 32001 55300 60017 81930 85638 87656 91122 91211 96484
AAXX 07181 10641 07984 82503 10036 20011 39935 40083 51037 60142 70065 333 10097 20035 3/001 55300 69957 88/61 91121 91211
AAXX 07181 10655 01582 63104 10034 20014 39749 40080 53032 60112 72598 84830 333 10085 20031 31001 55300 20000 30000 69957 83826 83656 91120 91214 96487
AAXX 07181 10675 07588 72906 10042 20008 39779 40072 53035 60092 72376 333 10079 20028 3/002 55300 20000 30000 69927 81/24 87/58 87/61 91124 91213
AAXX 07181 10688 07/57 /2811 10015 20003 39541 40069 53035 60082 72487 333 10049 20006 3/000 55300 20000 30000 60017 91119 91211
AAXX 07181 10708 11680 12608 10066 20014 39733 40119 53029 60082 70161 81531 333 10083 20057 31004 55300 20000 30000 81634 91120 91213
AAXX 07181 10729 07457 82906 10061 20023 39992 40114 53042 60062 76260 333 10098 20056 3/004 55300 20000 30000 69907 81/12 87/42 88/50 91116
AAXX 07181 10731 11681 72507 10084 20037 39969 40112 51032 60112 70261 8757/ 333 10092 20064 31006 55300 20000 30000 87643 91117 91211
AAXX 07181 10742 07983 02608 10062 20025 39759 40090 51025 60082 70065 333 10078 20042 3/004 55300 20000 30000 69907 91118 91211
AAXX 07181 10776 01584 32603 10026 20016 39628 40076 51034 60042 72586 83800 333 10063 20010 32001 55300 20000 30000 69987 81830 83650 91117
AAXX 07181 10791 01/00 92812 11037 21039 38393 48346 53019 60212 77174 333 11016 21049 48045 55300 60037 92912 96049 96036
AAXX 07181 10805 01481 52307 10078 20035 39953 40144 53029 60052 72186 82871 333 10103 20069 31006 55300 20000 30000 69907 81813 91115
AAXX 07181 10815 07485 82709 10025 20010 39182 48421 52026 60262 72476 333 10040 20012 3/001 4/004 55300 20000 30000 69907 83/15 87/24 88/50 91125 91215
AAXX 07181 10836 01589 82714 10036 20010 39228 40098 53021 60042 70387 888// 333 10057 20015 31001 4/998 55300 20000 30000 69907 86823 83657 91130 90258 91218 90348 91222 96488 96469 96441
AAXX 07181 10870 01584 52608 10056 20031 39556 40089 53016 60062 72562 83870 333 10079 20016 31001 55300 60017 82823 84359 91120 91215 96280 96463 96461
AAXX 07181 10895 01382 63006 10022 20012 39506 40081 53030 60072 72787 8387/ 333 10053 21002 3/000 42/// 55300 20000 30000 69917 81809 86360 91120 91213 96287 96285 96278 96485 96483 96461
AAXX 07181 10908 01/00 92820 11021 21021 38436 48436 50025 60172 77387 333 10004 21022 3/102 49015 55300 20000 30000 60067 89/01 91139 91231 96049 96038 96288 96469
AAXX 07181 10929 01358 82804 10051 20046 39615 40149 53038 60062 76366 8452/ 333 10079 20047 32004 55300 20000 30000 60057 82707 84620 88540 91121 91211
AAXX 07181 10948 07/48 /3606 10049 20025 39186 48436 51019 60122 76265 333 10073 20004 3/000 4/007 55300 20000 30000 60047 91114
AAXX 07181 10961 11/00 93316 11082 21082 36969 47926 53001 60112 77174 333 11080 21114 48070 55300 20000 41064 91135 90225 91218 91221 96049
AAXX 07181 10962 01/65 82808 10000 21001 38958 48404 53035 60042 79398 877// 333 10039 21003 3/100 43004 55300 20000 30000 60047 827// 87701 91127 91215 96071 96296 96288 96286 96273 96247
AAXX 07181 10980 11/01 92821 11051 21054 38052 48407 53024 60062 77187 333 11017 21051 3/105 48019 55300 20000 30000 91147 91229 96049 96039 96288 96488 96471 96449 96441 96439
BBXX CGDS 07184 99447 70755 46/// /3402 10013 20002 4//// 5//// 7//// 8//// 22200 0//// 2////
AAXX 07181 45032 36/// /3302 10208 20155 30152 40169 57001
AAXX 07181 45035 36/// /3305 10204 20167 30129 40171 57003
AAXX 07181 45039 36/// /3403 10213 20158 30151 40166 57002
AAXX 07181 45044 36/// /3508 10203 20171 30063 40155 57002 333 91113
AAXX 07181 45032 36/// /3302 10208 20155 30152 40169 57001
AAXX 07181 45035 36/// /3305 10204 20167 30129 40171 57003
AAXX 07181 45039 36/// /3403 10213 20158 30151 40166 57002
AAXX 07181 45044 36/// /3508 10203 20171 30063 40155 57002 333 91113
AAXX 07181 11816 11660 62405 10032 20016 39900 40065 57020 60022 72162 84540 333 10045 84638 86358
AAXX 07181 11826 11458 81604 10021 20008 39848 40050 57034 60032 72122 886// 333 10044 86713 88621
AAXX 07181 11903 11450 89901 10010 20010 39688 40073 57036 60002 76162 885// 333 10027 41998 83711 88620
AAXX 07181 11934 11450 82405 11003 21024 39235 42682 57025 69902 77122 8657/ 333 10016 47997 81713 85633 88459
AAXX 07181 11968 12670 82105 10018 21004 39806 40090 57025 60002 8551/ 333 10030 85635 88458
AAXX 07184 78862 12480 40307 10284 20231 30083 40106 60001 83830 333 10293 20234 58010 83818
AAXX 07184 TAF TKPN 071600Z 0718/0818 06008KT 9999 SCT020 BKN280 PROB30 TEMPO 0718/0818 06010G20KT SHRA BKN015 BKN036
AAXX 07184 TAF TQPF 071600Z 0718/0818 06008KT 9999 SCT020 BKN280 PROB30 TEMPO 0718/0818 06010G20KT SHRA BKN015 BKN036
AAXX 07184 TAF TUPJ 071600Z 0718/0818 06008KT 9999 SCT020 BKN280 PROB30 TEMPO 0718/0818 06010G20KT SHRA BKN015 BKN036
AAXX 07184 TEMPO 0600/0624 SHRA BKN015=+TSRA SCT012CB
AAXX 07184 TAF TUPJ 041000Z 04012/0512 07008KT 9999 SCT016 BKN038 SCT270 TEMPO 0412/0512 SHRA BKN015 PROB40 TEMPO 0418/0512 5000 SHRA BKN014 BKN036 PROB30 0420/0512 4000 TSRA FEW012CB
AAXX 07184 918 4000 TSRA FEW012CB
AAXX 07184 N015 BKN036 PROB40 TEMPO 0704/0724 3000 +TSRA SCT011CB BKN012 BECMG 0712/0714 14008KT
AAXX 07184 21/2712 07017G28KT 5000 SHRA BKN015 BKN036 PROB TEMPO 2700/2712 4000 TSRA FEW013CB
AAXX 07184 PROB30 TEMPO 0800/0806 4000 TSRA FEW012CB PROB40 TEMPO 0800/0824 2000 +SHRA/TSRA SCT010CB BKN012 BKN250
AAXX 07184 07005 04/70 /2821 10078 20005 30068 40159 51038 69922 700// 333 10111 20077 60007 90710 91134 555 60005
AAXX 07184 07015 02980 02817 10066 20001 30075 40133 51037 60032 333 10101 20065 60007 90710 91127 93100 555 60005
AAXX 07184 07020 01562 5//// 1//// 2//// 30181 4//// 53036 6///2 70162 84201 333 1//// 2//// 6///7 84830 555 6///5
AAXX 07184 07027 01580 72715 10080 20051 30121 40203 53032 60022 70186 85801 333 10121 20080 69907 82830 84650 90710 91121 93100 555 60005
AAXX 07184 07037 04882 /2806 10059 20045 30000 40187 53034 60062 700// 333 10098 20057 60027 90710 91116 555 60005
AAXX 07184 07070 04970 /2813 10072 20017 30048 40160 53034 60062 700// 333 10108 20071 69907 90710 91127 555 60005
AAXX 07184 07110 01570 62806 10087 20058 30121 40238 53024 60022 70386 85802 333 10120 20087 60007 83826 83633 90710 91110 555 60005
AAXX 07184 07117 01462 42815 10111 20060 30151 40222 51028 60022 70161 84300 333 10124 20099 60007 90710 91128 92447 555 60005
AAXX 07184 07130 04669 /2806 10083 20054 30176 40229 53027 60012 700// 333 10128 20080 69907 90710 91110 555 60005
AAXX 07184 07139 06/// /2808 10083 20052 30035 40211 52032 60012 333 10110 20083 69927 90710 91114 555 69925
AAXX 07184 07149 01775 32812 10081 20050 30080 40190 53034 60042 70186 82501 333 10115 20081 69907 82650 90710 91118 93100 555 60005
AAXX 07184 07168 04/70 /2714 10080 20055 30043 40187 51033 60022 700// 333 10108 20073 60027 90710 91120 555 60005
AAXX 07184 07181 04486 82613 10064 20044 39742 40156 53027 60062 700// 333 10085 20060 69907 90710 91122 555 69905
AAXX 07184 07190 04686 /2614 10087 20025 39950 40133 53021 60062 700// 333 10108 20064 60007 90710 91126 555 60005
AAXX 07184 07207 01560 72912 10123 20095 69942 71682 87700 222// 327// 333 10140 20114 69927 90710 91122 92447 555 60005
AAXX 07184 07222 01770 32705 10091 20075 30209 40241 51024 60022 70186 83500 333 10137 20091 60017 83650 90710 91112 555 60005
AAXX 07184 07240 02580 22508 10098 20077 30087 40224 51029 60022 82800 333 10124 20098 60007 81830 90710 91118 93100 555 60005
AAXX 07184 07255 04670 /2710 10106 20078 30020 40221 51026 69922 700// 333 10117 20094 69927 90710 91121 555 60005
AAXX 07184 07280 04586 82507 10100 20063 39923 40197 53022 60022 700// 333 10113 20080 69967 90710 91118 555 60005
AAXX 07184 07299 01456 83014 10075 20053 39834 40164 53030 60072 76262 878// 333 10103 20069 60047 82815 85620 87650 90710 91126 93100 555 69995
AAXX 07184 07314 06/// /2817 10137 20103 30231 40259 51016 60012 333 10143 20127 60007 90710 91127 555 60005
AAXX 07184 07335 04570 82907 10103 20094 30100 40246 51024 69922 760// 333 10130 20103 69927 90710 91122 555 69925
AAXX 07184 07434 04469 82607 10089 20081 39771 40255 51020 60042 700// 333 10095 20080 69967 90710 91115 555 69905
AAXX 07184 07460 01570 73007 10106 20065 39848 40239 53021 69942 76062 875// 333 10123 20098 69947 85626 87646 90710 91118 93100 555 69945
AAXX 07184 07471 04570 82811 10079 20050 39262 48844 51013 69922 700// 333 10096 20061 69927 90710 91122 555 69905
AAXX 07184 07481 01662 81908 10087 20073 39943 40234 51014 60062 72162 885// 333 10088 20070 69987 83633 87650 90710 91113 93100 555 69925
AAXX 07184 07510 01570 72407 10121 20108 30212 40278 53013 60012 70165 878// 333 10149 20120 69987 81823 86640 87650 90710 91111 93100 555 60005
AAXX 07184 07535 06/// /2705 10105 20099 39958 40273 53015 60022 333 10122 20091 69927 90710 91112 555 60005
AAXX 07184 07558 06/// /3021 10084 20070 39412 40255 53009 60012 333 10089 20065 60017 91031 90710 91134 555 69985
AAXX 07184 07577 04/70 /0205 10093 20072 30148 40239 52007 60002 700// 333 10106 20060 60007 90710 91109 555 60005
AAXX 07184 07591 04/// /0000 10055 20043 39192 4//// 57002 60082 761// 333 10055 20022 69987 90710 91107 555 69905
AAXX 07184 07607 04558 82907 10120 20101 30223 40295 53011 60032 761// 333 10148 20109 69907 90710 91116 555 69905
AAXX 07184 07621 02670 72706 10122 20069 39861 40296 51010 60002 875// 333 10153 20093 60007 87643 90710 91111 93100 555 60005
AAXX 07184 07627 06/// /3303 10101 20047 39800 40294 51013 60002 333 10162 20083 60007 90710 91109 555 60005
AAXX 07184 07630 01380 72714 10117 20099 30103 40285 51011 69962 72586 878// 333 10142 20105 69967 81809 83820 87650 90710 91121 93100 555 69945
AAXX 07184 07643 02886 42309 10130 20087 30239 40249 52009 6///2 84500 333 10163 20104 6///7 84656 90710 91120 555 6///5
AAXX 07184 07650 02986 03018 10131 20090 30192 40231 52005 60002 333 10157 20047 60007 90710 91124 93100 555 60005
AAXX 07184 07661 02575 22720 10135 20077 30050 40211 53013 60002 82100 333 10149 20102 60007 82826 90710 91138 555 60005
AAXX 07184 07690 02684 12719 10168 20051 30115 40148 51011 60002 81101 333 10184 20077 60007 81833 90710 91131 93100 555 60005
AAXX 07184 07747 02682 13111 10157 20077 30209 40262 51016 60002 81800 333 10203 20133 60007 81840 90710 91126 555 60005
AAXX 07184 07761 02565 72914 10163 20092 30210 40221 53003 69902 87800 333 10170 20148 60007 82830 87638 90710 91135 93100 555 60005
AAXX 07184 07790 02665 50905 10162 20055 30157 40171 50001 60002 81141 333 10194 20118 60007 81840 84358 90710 91112 93100 555 60005
AAXX 07184 86011 32670 43610 10344 20239 39919 40074 57029 83805 333 83840 83270
AAXX 07184 86033 32670 50608 10330 20213 39985 40078 57029 83204 333 83834 82270
AAXX 07184 86065 01470 81403 10258 20215 39870 40105 57011 60201 72199 8557/ 333 69947 85620 88457
AAXX 07184 86068 02470 71806 10236 20227 39902 40095 57030 60221 85570 333 60177 85615 87458
AAXX 07184 86086 32570 73602 10322 20216 39988 40075 57007 84260 333 84833 84357
AAXX 07184 86097 31570 70000 10310 20189 39451 40074 57026 71792 86906 333 85827 81940 87270
AAXX 07184 86128 31670 82410 10306 20241 39972 40082 57019 71722 8691/ 333 85835 81940 88457
AAXX 07184 86134 31570 82908 10264 20213 39998 40084 57020 71522 8327/ 333 82833 81840 88457
AAXX 07184 86170 32570 71702 10284 20233 39981 40082 57016 83206 333 83833 86270
AAXX 07184 86185 31470 73608 10306 20239 39991 40082 57024 71721 87300 333 87710 81940
AAXX 07184 86192 01210 80000 10284 20202 39886 40102 56010 60021 76522 885// 333 60027 88606
AAXX 07184 86210 32670 60910 10320 20215 39736 40066 57023 84205 333 84840 86270
AAXX 07184 86218 32570 72106 10310 20222 39992 40086 57025 84870 333 84833 87457
AAXX 07184 86221 32570 60000 10318 20219 39976 40107 57020 86800 333 86825
AAXX 07184 86233 32570 71804 10314 20220 39915 40099 56011 87800 333 87620
AAXX 07184 86234 32470 80315 10274 20210 39869 40049 58006 86507 333 82618 86625 88070
AAXX 07184 86246 32570 73303 10272 20240 39808 40089 57017 86976 333 86627 82940 87357
AAXX 07184 86251 32570 80000 10310 20207 39901 40064 57025 888// 333 86633 82840
AAXX 07184 86255 32570 80504 10310 20243 30040 40106 57016 885// 333 88824
AAXX 07184 86260 32570 60000 10330 20193 39932 40078 56021 85806 333 83620 82830 81170
AAXX 07184 86268 32570 70904 10326 20214 39938 40097 57023 82256 333 82833 85357 87270
AAXX 07184 86285 32670 50000 10322 20217 39811 40084 58025 85200 333 85840
AAXX 07184 86297 32570 63303 10330 20229 39968 40069 57027 83804 333 83830 83070
AAXX 07184 78862 12480 40307 10284 20231 30083 40106 60001 83830 333 10293 20234 58010 83818
AAXX 07184 TAF TKPN 071600Z 0718/0818 06008KT 9999 SCT020 BKN280 PROB30 TEMPO 0718/0818 06010G20KT SHRA BKN015 BKN036
AAXX 07184 TAF TQPF 071600Z 0718/0818 06008KT 9999 SCT020 BKN280 PROB30 TEMPO 0718/0818 06010G20KT SHRA BKN015 BKN036
AAXX 07184 TAF TUPJ 071600Z 0718/0818 06008KT 9999 SCT020 BKN280 PROB30 TEMPO 0718/0818 06010G20KT SHRA BKN015 BKN036
AAXX 07184 TEMPO 0600/0624 SHRA BKN015=+TSRA SCT012CB
AAXX 07184 TAF TUPJ 041000Z 04012/0512 07008KT 9999 SCT016 BKN038 SCT270 TEMPO 0412/0512 SHRA BKN015 PROB40 TEMPO 0418/0512 5000 SHRA BKN014 BKN036 PROB30 0420/0512 4000 TSRA FEW012CB
AAXX 07184 918 4000 TSRA FEW012CB
AAXX 07184 N015 BKN036 PROB40 TEMPO 0704/0724 3000 +TSRA SCT011CB BKN012 BECMG 0712/0714 14008KT
AAXX 07184 21/2712 07017G28KT 5000 SHRA BKN015 BKN036 PROB TEMPO 2700/2712 4000 TSRA FEW013CB
AAXX 07184 PROB30 TEMPO 0800/0806 4000 TSRA FEW012CB PROB40 TEMPO 0800/0824 2000 +SHRA/TSRA SCT010CB BKN012 BKN250
AAXX 07184 78862 12480 40307 10284 20231 30083 40106 60001 83830 333 10293 20234 58010 83818
AAXX 07184 TAF TKPN 071600Z 0718/0818 06008KT 9999 SCT020 BKN280 PROB30 TEMPO 0718/0818 06010G20KT SHRA BKN015 BKN036
AAXX 07184 TAF TQPF 071600Z 0718/0818 06008KT 9999 SCT020 BKN280 PROB30 TEMPO 0718/0818 06010G20KT SHRA BKN015 BKN036
AAXX 07184 TAF TUPJ 071600Z 0718/0818 06008KT 9999 SCT020 BKN280 PROB30 TEMPO 0718/0818 06010G20KT SHRA BKN015 BKN036
AAXX 07184 TEMPO 0600/0624 SHRA BKN015=+TSRA SCT012CB
AAXX 07184 TAF TUPJ 041000Z 04012/0512 07008KT 9999 SCT016 BKN038 SCT270 TEMPO 0412/0512 SHRA BKN015 PROB40 TEMPO 0418/0512 5000 SHRA BKN014 BKN036 PROB30 0420/0512 4000 TSRA FEW012CB
AAXX 07184 918 4000 TSRA FEW012CB
AAXX 07184 N015 BKN036 PROB40 TEMPO 0704/0724 3000 +TSRA SCT011CB BKN012 BECMG 0712/0714 14008KT
AAXX 07184 21/2712 07017G28KT 5000 SHRA BKN015 BKN036 PROB TEMPO 2700/2712 4000 TSRA FEW013CB
AAXX 07184 PROB30 TEMPO 0800/0806 4000 TSRA FEW012CB PROB40 TEMPO 0800/0824 2000 +SHRA/TSRA SCT010CB BKN012 BKN250
AAXX 07184 61901 169// /1311 10167 20141 39657 40165 56003 60002 91750 333 10204 8//99 555 7/090
AAXX 07184 61902 12582 21314 10247 20174 40119 69902 82801 333 10278 58004 81822
AAXX 07184 88878 46/// /2521 10110 20046 40112 52035
AAXX 07184 88883 46/// /2423 10115 20044 40117 52024 555 1//34
AAXX 07184 88889 12686 42420 10138 20013 30027 40110 53031 60001 84100 91750 333 84838 91028 90710 91128
AAXX 07181 01015 NIL
AAXX 07181 01023 11889 10000 11137 21145 39845 49944 52021 60002 70200 81078 333 11065 91102
AAXX 07181 01033 46/// /2407 10019 21056 39886 49917 53023 333 10034 91114
AAXX 07181 01059 11989 11603 11058 21082 39912 49921 53025 60002 70200 80008 333 11047 91107
AAXX 07181 01089 16/// /2006 11033 21049 39819 49926 53027 6//// 333 11028 91110
AAXX 07181 01167 31685 63202 11023 21042 39926 49930 53024 70321 83111 333 11005 91103
AAXX 07181 01180 NIL
AAXX 07181 01210 41687 21803 10003 21016 39930 49957 53019 70120 81208 333 10015 91108
AAXX 07181 01228 NIL
AAXX 07181 01240 16/// /2912 10047 21019 39890 49909 57002 6//// 333 10048 91118
AAXX 07181 01304 46/// /0803 10020 21025 39914 49945 53020 333 10032 91106
AAXX 07181 01311 46/// /0000 11045 21052 39884 49948 53027 333 11007 91104
AAXX 07181 01340 NIL
AAXX 07181 01355 16/// ///// 11054 21085 39970 49975 53024 60002 333 11047
AAXX 07181 01360 NIL
AAXX 07181 01392 11878 60000 11091 21100 39707 49941 52025 60002 70321 86030 333 11031 91102
AAXX 07181 01406 46/// /1403 10010 21035 39925 49943 53029 333 10029 91105
AAXX 07181 01411 16/// /0701 10014 21031 39920 49946 53035 6//// 333 10025 91107
AAXX 07181 01425 NIL
AAXX 07181 01433 46/// /0000 11078 21112 38686 49962 53025 333 11049 91109
AAXX 07181 01442 11989 13503 11042 21076 39693 49955 52029 69932 70100 80001 333 11027 91107
AAXX 07181 01450 NIL
AAXX 07181 01452 NIL
AAXX 07181 01473 11670 63301 11073 21081 39734 49947 53023 60002 70320 86130 333 11027 91102
AAXX 07181 01494 16/// /3501 11046 21052 39865 49931 53020 69932 333 11009 91105
AAXX 07181 01121 46/// /1903 10015 21004 39894 49906 53021 333 10039 91105
AAXX 07181 01135 16/// /0000 11025 21029 39761 49914 53020 6//// 333 11024 4/005 91102
AAXX 07181 01143 16/// /2103 11062 21072 60002 333 10019 91105
AAXX 07181 01150 16/// /0802 11047 21070 60002 333 11041 91104
AAXX 07181 01192 NIL
AAXX 07181 01225 46/// /2406 10044 21024 39939 49943 52014 333 10050 91110
AAXX 07181 01230 16/// /0000 11188 21204 60002 333 11095 4/052 91102
AAXX 07181 01232 16/// /1201 11056 21062 39887 49968 52022 69962 333 11046 4/032 91104
AAXX 07181 01234 16/// /2104 11033 21042 69972 333 10000 91107
AAXX 07181 01253 16/// /2102 11032 21049 69932 333 11003 4/034 91104
AAXX 07181 01254 16/// /1501 11070 21080 60042 333 11036 4/022 91102
AAXX 07181 01257 NIL
AAXX 07181 01277 NIL
AAXX 07181 01291 16/// /3201 11025 21029 60012 333 10000 4/020 91102
AAXX 07181 01332 16/// /0201 11102 21118 60002 333 11077 91102
AAXX 07181 01366 46/// /0901 11162 21186 38323 40005 52017 333 11087 91110
AAXX 07181 01370 NIL
AAXX 07181 01376 16/// /3103 11051 21082 60002 333 11042 91109
AAXX 07181 01383 46/// /3401 11105 21110 39630 49955 53021 333 11089 91105
AAXX 07181 01386 16/// ///// 11086 21098 60002 333 11047
AAXX 07181 01416 16/// ///// 11010 21056 60002 333 10008
AAXX 07181 01419 NIL
AAXX 07181 01430 16/// ///// 11020 21058 60002 333 11001
AAXX 07181 01434 16/// /0000 11166 21185 38981 49957 53023 60002 333 11107 91102
AAXX 07181 01455 NIL
AAXX 07181 01468 16/// /3201 11092 21101 69982 333 11018 91104
AAXX 07181 01470 16/// /3401 11065 21078 39828 49945 53025 60002 333 11020 4/004 91104
AAXX 07181 01476 NIL
AAXX 07181 01481 16/// /3601 11051 21064 39899 49932 52021 60002 333 11006 91106
AAXX 07181 01488 NIL
AAXX 07181 01037 NIL
AAXX 07181 01046 NIL
AAXX 07181 01058 16/// /1402 11137 21152 39466 49950 52024 60002 333 11059 4/014 91105
AAXX 07181 01065 NIL
AAXX 07181 01092 NIL
AAXX 07181 01107 16/// /0212 10032 20032 39920 49925 53023 60002 333 10036 91117
AAXX 07181 01114 16/// /0804 11020 21034 39897 49908 53022 60002 333 10020 91105
AAXX 07181 01144 41886 70210 10024 21039 70322 84036 333 10031 91112
AAXX 07181 01199 NIL
AAXX 07181 01245 NIL
AAXX 07181 01259 16/// /1902 10026 21027 39892 49914 53010 60002 333 10053 91113
AAXX 07181 01262 NIL
AAXX 07181 01278 11485 70000 11005 21014 39825 49927 52019 60032 70272 8583/ 333 10009
AAXX 07181 01293 11665 73001 11016 21022 39727 49936 53023 60032 70272 83170 333 11004 91103
AAXX 07181 01329 NIL
AAXX 07181 01337 NIL
AAXX 07181 01344 16/// ///// 11115 21141 60002 333 11073 4/041
AAXX 07181 01364 16/// /2801 11225 21247 38831 40039 50019 60002 333 11166 4/029 91103
AAXX 07181 01373 11689 10000 11097 21110 39759 49964 52022 60002 70200 81100 333 11071 91101
AAXX 07181 01374 NIL
AAXX 07181 01380 16/// /2902 11104 21123 6//// 333 11044 4/011 91110
AAXX 07181 01389 NIL
AAXX 07181 01393 NIL
AAXX 07181 01424 11989 0//// 11072 21086 39954 49958 52027 60002 70200 333 11063
AAXX 07181 01431 16/// /2801 11155 21170 39287 49991 53028 60002 333 11106 91106
AAXX 07181 01436 NIL
AAXX 07181 01465 11982 13608 10003 21039 39918 49936 53028 60002 70210 80001 333 10014 91113
AAXX 07181 01471 11989 32802 11053 21089 60002 70221 83055 333 11035 91104
AAXX 07181 01483 NIL
AAXX 07184 03005 11471 62509 10028 21012 39846 49946 52013 69902 70182 82832 91750 333 10034 44004 55300 20000 81818 83363
AAXX 07184 03017 17561 /2708 10023 20008 39942 49974 51026 60052 785// 91750 333 10043 4/002 55300 20000 82/29 84/46 85/68
AAXX 07184 03023 17665 /2822 10064 20000 30023 40028 53021 69942 723// 91750 333 10071 83/47 90710 91138 91034
AAXX 07184 03026 17574 /2619 10030 20000 39989 40008 51033 60032 741// 91750 333 10048 55300 20000 81/24 85/50 90710 91129 91029
AAXX 07184 03063 15784 /2104 10006 21023 39748 40029 51034 69962 91750 333 10030 4/005 55300 20000 81/50
AAXX 07184 03066 15985 /2513 10027 20000 30005 40011 51032 60122 91750 333 10029 55300 20000 85/69
AAXX 07184 03075 17776 /2308 10018 21004 39939 49984 51028 60022 723// 91750 333 10054 82/50 84/66
AAXX 07184 03091 15982 /2814 10029 21003 39930 40010 51047 60022 91750 333 10040 55300 20000 81/69
AAXX 07184 03100 17674 /2923 10056 20007 30040 40056 51029 60022 723// 91750 333 10069 55300 20000 81/44 90710 91142
AAXX 07184 03111 16667 /3123 10046 20026 30069 40081 51037 60032 91750 333 10073 82/33 84/50 90710 91138 91035
AAXX 07184 03134 15780 /2611 10033 20007 39988 40061 51038 69982 91750 333 10058 55300 20000 82/50
AAXX 07184 03136 17460 /3009 10047 20018 30041 40074 51035 60042 781// 91750 333 10073 55300 20000 81/18 83/32 90710 91130 91019
AAXX 07184 03162 17984 /2912 10019 21012 39781 40071 51042 60032 723// 91750 333 10037 4/008 55300 20000 8//99 90710 91127 91024
AAXX 07184 03166 15984 /2513 10026 20001 39978 40049 51042 69902 91750 333 10055 55300 20000 8//99
AAXX 07184 03171 12584 12712 10032 21017 30021 40033 51049 60002 81100 91750 333 10062 55300 20000 81820
AAXX 07184 03204 12680 12818 10067 21005 30095 40115 52037 60002 81100 91750 333 10072 55300 20000 81830 90710 91130 91028
AAXX 07184 03240 15984 /2920 10042 21010 30013 40042 51053 69902 91750 333 10068 55300 20000 8//99 90710 91134
AAXX 07184 03257 12480 12822 10041 21007 30028 40069 51043 60022 81800 91750 333 10054 55300 20000 81816 90710 91134 91034
AAXX 07184 03292 169// /2818 10043 20002 30035 40054 51050 60002 91750 333 10065 8//99 90710 91129 91029
AAXX 07184 03302 12680 22719 10074 20011 30129 40141 51033 60002 82800 91750 333 10078 55300 20000 82832 90710 91128
AAXX 07184 03354 15769 /2711 10051 20007 39968 40112 53041 60032 91750 333 10060 55300 20000 84/50 90710 91129
AAXX 07184 03377 11682 12715 10051 21008 30010 40095 52042 69942 70181 81500 91750 333 10064 55300 20000 81638 90710 91129
AAXX 07184 03414 11682 12712 10054 21009 30047 40136 53038 69902 70281 81500 91750 333 10073 55300 20000 81635
AAXX 07184 03462 15782 /2718 10052 21023 30025 40115 53043 69962 91750 333 10073 55300 20000 81/50 90710 91134
AAXX 07184 03482 11682 12719 10054 21005 30076 40102 53042 69902 70181 81500 91750 333 10071 81645 90710 91129
AAXX 07184 03502 15970 /2924 10074 20001 30005 40168 52026 69922 91750 333 10079 55300 20000 8//99 90710 91135
AAXX 07184 03535 15979 /2508 10052 21018 30013 40132 53040 69902 91750 333 10073 55300 20000 8//99 90710 91127
AAXX 07184 03590 11684 12816 10052 21021 30000 40111 53039 60012 70180 81100 91750 333 10076 55300 20000 81830 90710 91132
AAXX 07184 03649 12684 12606 10052 21016 30054 40156 52043 69902 81402 91750 333 10084 55300 2//// 81830
AAXX 07184 03716 15979 /2916 10077 20022 30109 40169 51035 60032 91750 333 10092 55300 20000 8//99 90710 91130
AAXX 07184 03740 16974 /2613 10052 21007 39988 40167 51043 60002 91750 333 10078 55300 2//// 8//99
AAXX 07184 03746 12980 22813 10051 21010 30016 40172 53041 60002 80001 91750 333 10082 82080
AAXX 07184 03772 15980 /2712 10064 21013 30119 40149 53042 60002 91750 333 10098 55300 20000 8//99
AAXX 07184 03796 46/// /2714 10058 21015 39992 40136 51040 91750 333 10093
AAXX 07184 03803 17568 /3014 10098 20070 30180 40218 51022 69922 723// 91750 333 10116 83/29
AAXX 07184 03808 11566 63115 10093 20029 30100 40207 51023 60012 70182 83801 91750 333 10106 55300 20000 83827 86072 90710 91125
AAXX 07184 03809 11465 52913 10081 20047 30114 40208 51026 69922 72581 85800 91750 333 10114 81712 83818
AAXX 07184 03827 17972 /2911 10074 20041 30136 40199 51030 60012 723// 91750 333 10103 8//99
AAXX 07184 03840 17777 /2810 10053 20023 39876 40186 51031 69922 723// 91750 333 10074 82/50
AAXX 07184 03853 11565 52810 10052 20026 30153 40178 52031 60012 72581 85800 91750 333 10092 55300 20000 82822 84640
AAXX 07184 03874 46/// /2922 10079 20014 30159 40170 51041 91750 333 10097 90710 91132
AAXX 07184 03882 15975 /2608 10055 21004 30092 40156 53041 69902 91750 333 10093 55300 20000 8//99
AAXX 07184 03894 11580 33019 10098 20049 40208 52031 69982 70181 83401 333 10119 82828 90710 91129
AAXX 07184 03917 15781 /2411 10033 20004 30035 40114 52031 60022 91750 333 10058 55300 20000 83/50 90710 91126
AAXX 07181 78221 11564 33503 10250 20198 30150 40177 57020 60004 70200 83200 333 83820
AAXX 07181 78224 31559 29904 10276 20159 30098 40171 58021 70544 82100 333 82825
AAXX 07181 78229 42560 33505 10268 20195 30098 40174 57020 83200 333 83820
AAXX 07181 78239 41559 30506 10273 20210 30153 40156 57020 70500 83800 333 10273 20210 83820
AAXX 07181 12345 42560 40706 10286 20205 30120 40150 57010 84100 333 84825
AAXX 07181 78243 42559 60304 10262 20186 30043 40166 57019 86200 333 86820
AAXX 07181 78255 42459 40205 10282 20203 30004 40153 57020 84831 333 10283 20201 84820
AAXX 07181 78264 12560 20604 10314 20187 30051 40126 57020 60004 82000 333 10300 82825
AAXX 07181 78265 31559 50206 10251 20212 30038 40138 57020 70544 85200 333 10289 20187 84825
AAXX 07181 78256 11559 30303 10298 20164 30080 40145 57022 60004 70544 83000 333 10296 20249 83825
AAXX 07181 78259 31559 50202 10289 20173 30060 40145 57025 70544 85200 333 10308 20209 85820
AAXX 07181 78268 11560 30303 10276 20244 30131 40140 57019 60001 70111 83200 333 83820
AAXX 07184 89664 11558 80811 11037 21064 39707 49748 53010 69904 77122 887// 333 01635 56499 83620 88730 90910 91518 93197
AAXX 07181 01025 16/// /1906 11009 21039 39919 49930 52022 69902 333 10020 91108
AAXX 07181 01052 16/// /2208 10006 21031 39805 49903 53026 69942 333 10031 91117
AAXX 07181 01122 16/// /2001 11036 21042 39822 49912 53019 60002 333 11024 91103
AAXX 07181 01132 16/// /0901 11025 21032 39527 49916 53020 60002 333 11020 4/063 91103
AAXX 07181 01156 NIL
AAXX 07181 01203 46/// /0904 10018 21034 39901 49950 53021 333 10031 91113
AAXX 07181 01233 16/// /0302 11078 21103 69932 333 11062 91104
AAXX 07181 01265 NIL
AAXX 07181 01273 NIL
AAXX 07181 01307 46/// /1105 10004 21040 39915 49943 53024 333 10017 91106
AAXX 07181 01321 16/// /1502 11084 21090 39704 49966 53019 60002 333 11040 91103
AAXX 07181 01327 16/// /2301 11071 21096 60002 333 11046 91103
AAXX 07181 01350 16/// /2601 11218 21231 38544 49947 52020 60002 333 11137 91104
AAXX 07181 01361 16/// /0000 11201 21224 38929 40027 53020 60002 333 11080 4/126 91102
AAXX 07181 01375 NIL
AAXX 07181 01378 16/// /0403 11070 21090 39647 49945 52025 60002 333 11067 91106
AAXX 07181 01385 16/// /3301 11065 21075 39666 49944 53026 60002 333 11054 91102
AAXX 07181 01412 16/// /0903 11015 21062 39915 49945 53039 60002 333 10013 91106
AAXX 07181 01422 16/// /1103 11015 21048 60002 333 11005 91106
AAXX 07181 01440 NIL
AAXX 07181 01441 NIL
AAXX 07181 01467 NIL
AAXX 07181 01469 NIL
AAXX 07181 01477 16/// /3401 11036 21055 60002 333 11010 4/015 91105
AAXX 07181 01480 16/// /3303 11060 21081 60002 333 11009 91106
AAXX 07181 01484 16/// /3602 11122 21137 39776 49939 52025 60002 333 11013 91105
AAXX 07181 01490 16/// /3602 11046 21053 60002 333 11043 91107
AAXX 07181 01495 16/// /0301 11024 21048 39917 49930 53022 60002 333 10007 91106
AAXX 07181 02741 17999 12003 10017 21006 39886 49901 52009 60032 70084 81/// 91739 333 10035 20016
AAXX 07181 02755 37281 81506 11015 21020 39862 49958 52011 70000 88/// 91739 333 11006 21065
AAXX 07181 02805 37899 71702 11081 21097 39796 49931 52026 70082 87/// 91739 333 11062 21107
AAXX 07181 02807 47360 82003 11048 21053 39759 49943 700// 88/// 91800 333 11035 21048
AAXX 07181 02836 37282 82001 11043 21046 39716 49940 52019 70087 88/// 91739 333 11043 21055
AAXX 07181 02845 47276 80901 11041 21042 39692 49943 52017 70087 88/// 91739 333 11035 21053
AAXX 07181 02849 47599 82004 11014 21026 39673 49947 52021 74174 88/// 91739 333 11013 21061
AAXX 07181 02866 37283 81803 11015 21018 39813 49963 52022 70000 88/// 91739 333 11011 21021
AAXX 07181 02897 47499 71602 11026 21037 39801 49985 700// 87/// 91800 333 11017 21026
AAXX 07181 02913 47481 81304 10006 21005 39882 49934 761// 88/// 333 10006 21044
AAXX 07181 02917 47299 81304 11030 21038 39869 49993 785// 88/// 91800 333 11019 21030
AAXX 07181 02924 47373 71602 11003 21008 39752 49949 52004 77174 87/// 91739 333 11002 21034
AAXX 07181 02926 47281 81406 10010 20007 39903 49915 52005 700// 88/// 91800 333 10013 21036
AAXX 07181 02935 37274 71303 11013 21017 39795 49969 52006 70087 87/// 91739 333 11013 21023
AAXX 07181 02939 37399 82103 11018 21027 39810 40005 52016 70084 88/// 91739 333 11016 21030
AAXX 07181 02944 47215 91305 10002 20002 39791 49938 762// 91800 333 10007 21032
AAXX 07181 02947 47575 81201 11013 21013 49991 52008 70020 88/// 91751 333 11013 21074
AAXX 07181 02963 46/// /1603 10004 20003 49938 333 1//// 2////
AAXX 07181 02974 37480 81605 10023 20003 39899 49965 52004 74085 88/// 91739 333 10025 21049
AAXX 07181 02976 46/// /1908 10030 20009 39972 49988 52005 91739 333 10036 20004
AAXX 07181 02981 17375 72013 10040 20023 39907 49917 52005 60032 78186 85/// 91739 333 10053 20027
AAXX 07181 02982 46/// /1914 10046 20025 39927 49935 52005 91739 333 10051 20033
AAXX 07184 91503 31470 20000 10242 24213 50052 55007 70500 81202 333 56900 81816
AAXX 07184 91517 31475 42006 10250 20246 40055 54440 71522 84908 333 56209 81815 81916 83625
AAXX 07184 91503 31470 20000 10242 24213 50052 55007 70500 81202 333 56900 81816
AAXX 07184 91517 31475 42006 10250 20246 40055 54440 71522 84908 333 56209 81815 81916 83625
BBXX 42039 07181 99288 70860 46/// /3115 10149 40185 51004 91750 22200 00234 10707 20707 70035 333 91219 555 11160 22168 31725 43119 61749 307150 307151 305146 305150 303147 304154 83117 91725
BBXX 41040 07181 99145 70530 46/// /1104 10276 20240 40100 56021 91750 22200 00277 11004 20401 3//// 41004 70020 333 91205 555 11041 22043 31713 41105 61749 114040 113038 113039 111043 111042 113044 81105 91714
BBXX 44040 07181 99410 70736 46/// /0403 10103 20103 40071 91745 22200 1//00 70000 333 91204 555 11031 22036
BBXX 46001 07181 99563 71480 46/// /1611 10063 40170 58030 91750 22200 00052 10907 20605 300// 40904 70034 333 91213 555 11117 22126 31658 41513 61749 156107 153107 152107 150105 147105 145109
BBXX 46082 07181 99597 71434 46/// ///// 10034 20034 40312 58014 91750 22200 00063 10503 70017
BBXX 46072 07181 99517 71722 46/// /2213 10055 20040 49870 53017 91750 22200 00054 11011 20506 3//// 41009 70054 333 91216 555 11137 22147 31744 42116 61749 220128 220123 224124 221118 222126 220123 82314 91725
BBXX 46035 07181 99571 71778 46/// /2611 1//// 49768 53017 91750 22200 11108 20805 300// 41107 70042 333 91214 555 11112 22119 31724 42615 61749 260111 268111 263116 270112 267118 271112 82713 91702
BBXX 46077 07181 99579 71543 46/// /0611 10040 20028 40106 58024 91750 22200 00046 11003 20503 3//// 41001 70016 333 91213 555 11119 22126 31700 40715 61749 061111 064117 062113 064113 066113 068119 80612 91728
BBXX 51101 07181 99243 71621 46/// /0905 10235 20183 40183 53013 91750 22200 00244 11204 20401 335// 41204 70020 333 91207 555 11056 22058 31719 41008 61749 096051 115050 115058 088059 099052 093052
BBXX 46072 07181 99517 71722 46/// /2213 10055 20040 49870 53017 91750 22200 00054 11011 20506 3//// 41009 70054 333 91216 555 11137 22147 31744 42116 61749 220128 220123 224124 221118 222126 220123 82314 91725
BBXX 46026 07181 99378 71228 46/// /0801 10106 40261 54000 91750 22200 00114 11202 331// 41202 70008 333 91202 555 11009 22009 31655 43002 61749 065009 308010 316010 329008 306011 317013
BBXX 46041 07181 99474 71247 46/// /1004 10066 40308 54000 91750 22200 00098 11103 20401 3//// 41103 70013 333 91205 555 11039 22040 31747 41105 61749 105038 102041 101032 109035 106030 116027
BBXX 51004 07181 99175 71524 46/// /0708 10237 20189 91750 555 11090 22096
BBXX 51002 07181 99171 71578 46/// /0709 10246 40140 53014 91750 22200 00250 333 91211 555 11097 22103 31727 40811 61749 073090 073091 071094 067090 065088 065090
BBXX 51100 07181 99236 71539 46/// /0706 10225 40191 53017 91750 22200 00236 11304 20502 332// 41304 70022 333 91207 555 11064 22067 31704 40708 61749 072061 069061 071062 069066 065067 060064
BBXX 45008 07181 99443 70824 46/// /2508 10008 39899 40116 58029 91750 22200 00065 10402 20402 70010 333 91210 555 11087 22091 61749 249082 244082 252079 249078 251077 255083
BBXX 45002 07181 99453 70864 46/// /2807 11026 21073 39903 40122 50000 91750 22200 10603 20603 70014 333 91210 555 11078 22083 31714 42811 61749 283074 278072 275070 278073 276075 278076
AAXX 07184 78016 32664 71107 10210 20125 30217 40221 57019 87500 333 10215 20189 70000
AAXX 07184 78906 11478 73403 10282 20236 40102 40107 69901 70262 86841 333 10291 20226 58012 82817 86640 90930
AAXX 07184 40340 32960 03508 10132 21013 40205 52013 333 10210
AAXX 07181 14648 12770 13201 10049 20026 30066 40188 52006 60002 81500 333 10102 81656
AAXX 07181 14652 12984 12319 11053 21078 37881 48453 58006 60002 80002 333 11049 81080
AAXX 07181 14542 NIL
AAXX 07184 78062 12569 51803 10278 20213 40165 60001 85200 333 59017 85825 90908
AAXX 07181 14528 NIL
AAXX 07181 14537 NIL
AAXX 07181 14544 NIL
AAXX 07181 14557 12960 00402 10005 21011 39784 40162 58006 60002
AAXX 07181 14640 NIL
AAXX 07181 10505 01583 62710 10048 20000 39804 40087 53028 60102 72598 86800 333 10071 20022 32001 55300 20000 30000 69947 82826 86636 91123 90245 91218 90345 91218 96488
AAXX 07183 91802 NIL
AAXX 07183 91809 NIL
AAXX 07183 91831 36/// /0708 10260 20219 40153 52011 555 2////
AAXX 07183 91841 NIL
AAXX 07183 91848 36/// /1202 10249 20238 40045 52008 555 20000
AAXX 07183 91843 31499 20702 10264 20237 40153 53017 60001 70200 82200 333 561// 82816
AAXX 07184 78906 11478 73403 10282 20236 40102 40107 69901 70262 86841 333 10291 20226 58012 82817 86640 90930
AAXX 07184 78016 32664 71107 10210 20125 30217 40221 57019 87500 333 10215 20189 70000
AAXX 07184 78016 32664 71107 10210 20125 30217 40221 57019 87500 333 10215 20189 70000
AAXX 07184 78906 11478 73403 10282 20236 40102 40107 69901 70262 86841 333 10291 20226 58012 82817 86640 90930
BBXX CGDR 07184 99505 71280 46/// /3302 10045 20044 40342 53002 7//// 8//// 22200 0//// 2////
BBXX VCRG 07184 99474 70619 46/// /0515 10042 20040 40109 56022 7//// 8//// 22200 0//// 2////
BBXX CGBR 07184 99543 71303 46/// /0201 10000 21007 40352 50001 7//// 8//// 22211 00074 2////
BBXX CG2350 07184 99433 70798 46/// /2406 10017 21018 40124 58029 7//// 8//// 22200 0//// 2////
BBXX 44039 07181 99411 70727 46/// /0902 10124 20124 40078 91745 22200 00112 1//00 70001 333 91202
AAXX 07184 89664 11558 80811 11037 21064 39707 49748 53010 69904 77122 887// 333 01635 56499 83620 88730 90910 91518 93197
AAXX 07184 78762 32670 71208 10243 20156 39092 40108 57015 84240 333 10264 20177 30/// 5633/ 58015 84645 84360
AAXX 07184 78905 11478 70902 10268 20222 30090 40113 69911 70282 87860 333 10287 20230 58015 82818 86640 90960
AAXX 07184 78762 32670 71208 10243 20156 39092 40108 57015 84240 333 10264 20177 30/// 5633/ 58015 84645 84360
AAXX 07184 78905 11478 70902 10268 20222 30090 40113 69911 70282 87860 333 10287 20230 58015 82818 86640 90960
AAXX 07184 81401 06/// /0605 10301 20233 30072 40078 6///1 333 6///7 555 60005
AAXX 07184 81408 06/// /0906 10330 20212 30063 40071 60001 333 60007 58007 555 60005
BBXX CGDR 07184 99505 71280 46/// /3302 10045 20044 40342 53002 7//// 8//// 22200 0//// 2////
BBXX VCRG 07184 99474 70619 46/// /0515 10042 20040 40109 56022 7//// 8//// 22200 0//// 2////
BBXX CGBR 07184 99543 71303 46/// /0201 10000 21007 40352 50001 7//// 8//// 22211 00074 2////
BBXX CG2350 07184 99433 70798 46/// /2406 10017 21018 40124 58029 7//// 8//// 22200 0//// 2////
AAXX 07184 81401 06/// /0605 10301 20233 30072 40078 6///1 333 6///7 555 60005
AAXX 07184 81408 06/// /0906 10330 20212 30063 40071 60001 333 60007 58007 555 60005
AAXX 07181 76040 32960 03302 10122 21011 30249 40264 52001 80002 91745 333 10166 20010 30/// 56003 59028 82078 98660
AAXX 07181 76055 32980 03310 10161 21158 30213 40232 57004 91740 333 10172 20085 30/// 59047
AAXX 07181 76113 32980 00301 10122 21050 39722 40200 57001 91745 333 10128 20024 30/// 59032
AAXX 07181 76220 32858 20000 10030 21030 38193 40342 57017 82060 91740 333 10030 21096 31/// 56060 58024
AAXX 07181 76225 32960 00901 10087 21010 38696 40302 57011 91745 333 10087 21061 30/// 58012
AAXX 07181 76243 32973 31802 10118 21015 30004 40317 57009 80006 91740 333 10124 21035 30/// 56006 58021 83070
AAXX 07181 76256 32980 33206 10146 21003 30190 40204 52005 83/3/ 91745 333 10160 20070 30/// 56/5/ 59029 83360
AAXX 07181 76305 32970 13405 10188 20064 30186 40194 52007 81030 91740 333 10191 20115 30/// 56050 59020 81358
AAXX 07181 76323 32970 11801 10112 21036 38229 40359 57012 80001 91755 333 10117 21052 30/// 58015
AAXX 07181 76342 32962 00302 10120 20029 39593 40343 57016 91750 333 10128 21002 30/// 58012
AAXX 07181 76373 32970 30000 10126 21095 38253 40210 58007 80004 91750 333 10137 21052 30/// 56009 58031 83067
AAXX 07181 76390 31968 42105 10117 21026 38286 40292 57001 70544 80001 91730 333 10130 21025 30/// 56008 58051 84070
AAXX 07181 76393 31910 61202 10116 20036 39699 40304 57012 70544 80001 91750 333 10132 20036 30/// 56005 58035 86070
AAXX 07181 76402 31958 00000 10204 20059 30126 40184 52005 70544 91745 333 10205 20056 30/// 59011
AAXX 07181 76423 32975 51201 10132 21050 38198 40257 58006 80005 91745 333 10147 21012 30/// 56009 58037 85067
AAXX 07181 76458 32970 62503 10233 20147 30157 40161 58001 80006 91740 333 10243 20114 30/// 56//9 58006 86070
AAXX 07181 76471 32980 30903 10152 21091 37724 40206 57001 80001 91750 333 10257 20022 30/// 56001 58027 83075
AAXX 07181 76491 32860 33601 10136 20035 39913 40321 57011 81034 91745 333 10145 20078 30/// 56099 58052 81362 82077
AAXX 07181 76499 32960 03403 10165 20007 30281 40303 57008 91740 333 10166 20089 30/// 58058
AAXX 07181 76525 32460 40904 10076 20042 37497 40203 52004 84600 91745 333 10078 20053 30/// 563// 58024 84714
AAXX 07181 76539 31560 80301 10110 20058 38205 40247 52012 70544 886// 91745 333 10120 20080 30/// 562// 58035 88721
AAXX 07181 76543 32675 82901 10148 20056 30291 40324 55009 8457/ 91736 333 10150 20117 30/// 5688/ 58081 84650 84358
AAXX 07181 76548 32875 80202 10156 20021 30301 40311 50007 88070 91740 333 10158 20120 30/// 56050 58076 88358
AAXX 07181 76556 32970 20000 10242 20090 39131 40169 50007 80001 91730 333 10254 20105 30/// 56005 58008 82070
AAXX 07181 76571 32870 43602 10162 20077 38194 40210 57008 80004 91750 333 10166 20074 30/// 56005 58030
AAXX 07181 76577 32970 82304 10191 20154 38061 40185 58003 80004 91740 333 10199 20070 30/// 56005 58017 88081
AAXX 07181 76581 12575 81403 10093 20064 39137 40286 57005 69901 82720 91750 333 10102 20060 30/// 56220 58079 82730 86460
AAXX 07181 76585 32980 80000 10133 20088 30142 40304 58008 8802/ 91740 333 10135 20099 31/// 56/8/ 58078 88458
AAXX 07181 76593 01370 53607 10250 20231 30200 40202 58006 69901 70205 82460 91750 333 10282 20216 30/// 5688/ 58035 69907 82620 83330
AAXX 07181 76625 32450 50907 10166 20087 38154 40152 57013 85400 91740 333 10166 20097 30/// 56200 58013 85620
AAXX 07181 76632 31950 01104 10154 20084 37646 40147 57009 70500 91750 333 10182 20084 30/// 58015 98550
AAXX 07181 76634 31165 12902 10134 20086 37879 40240 57009 70511 81700 91750 333 10136 20048 30/// 560// 58018 81791
AAXX 07181 76644 32465 43605 10270 20224 30181 40194 57012 83201 91750 333 10289 20216 30/// 568/9 58034 83810 91005 91536
AAXX 07181 76654 31956 02301 10287 20207 30154 40158 57002 70544 91755 333 10289 20216 30/// 59002
AAXX 07181 76658 31940 12702 10277 20161 39642 40149 57009 70540 80001 91745 333 10288 20172 30/// 56001 59001 81070 98924
AAXX 07181 76662 31970 22801 10226 20109 38475 40177 57005 70540 80004 91740 333 10238 20060 30/// 5600/ 58013 82070
AAXX 07181 76665 32962 03601 10225 20120 38137 40173 57010 91750 333 10235 20077 30/// 58030
AAXX 07181 76680 31956 00803 10195 20076 37765 40101 57012 70400 91750 333 10196 20090 30/// 58014
AAXX 07181 76681 31950 00501 10206 20095 37794 40172 58010 70540 91740 333 10206 20052 30/// 58014
AAXX 07181 76683 31965 11201 10182 20079 37846 40223 56017 70544 80005 91745 333 10190 20064 30/// 56005 58012 81080
AAXX 07181 76687 31460 83601 10142 20099 38741 40248 50001 71044 885// 91735 333 10147 20120 30/// 561// 58042 81717 87619
AAXX 07181 76692 31456 83608 10209 20138 30227 40246 58001 70733 8727/ 91745 333 10227 20200 30/// 5688/ 58065 82817 85640 91117 91536
AAXX 07181 76698 32560 30101 10279 20251 30170 40182 57016 83200 91755 333 10293 20210 30/// 56800 58027 83820
AAXX 07181 76726 32970 01801 10218 20097 38428 40168 57010 91750 333 10218 20126 30/// 58010
AAXX 07181 76737 01365 80000 10146 20136 38834 40233 50004 69981 75052 8672/ 91735 333 10184 20140 31/// 5629/ 58043 69987 86707 91105 91514
AAXX 07181 76743 31457 83202 10251 20225 30184 40192 58014 70222 885// 91745 333 10260 20230 30/// 561// 58039 88613
AAXX 07181 76750 32560 73204 10273 20223 30170 40180 57012 84620 91750 333 10281 20208 31/// 56880 58026 84820 83357
AAXX 07181 76762 32904 33601 10270 20210 38772 40157 56008 80002 91735 333 10274 20128 30/// 56006 58009 83070
AAXX 07181 76773 32570 20906 10214 20090 38444 40198 57012 81204 91745 333 10218 20041 30/// 56209 58016 81820
AAXX 07181 76775 31462 32702 10239 20086 38552 40211 57013 70300 83200 91730 333 10241 20074 30/// 56800 57683 58016 82620 81820
AAXX 07181 76805 32970 40201 10312 20204 30131 40137 58012 80001 91750 333 10326 20200 30/// 56//7 59005 82162 82063
AAXX 07181 76833 32970 03614 10294 20234 30141 40143 57017 91745 333 10294 20241 30/// 58025 92001
AAXX 07181 76840 32550 23603 10294 20186 30098 40153 57007 82100 91740 333 10300 20167 30/// 568// 58040 82827
AAXX 07181 76843 32565 70202 10228 20179 39530 40174 57012 83770 91745 333 0/79/ 10234 20188 30/// 58037 83820 84360
AAXX 07181 76845 32460 70403 10132 20109 37976 40205 58005 87600 91748 333 10154 20090 30/// 56100 58025 87710
AAXX 07181 76848 11670 43602 10203 20102 38405 40136 57008 69901 70250 84200 91750 333 10205 20103 30/// 56100 58020 84842
AAXX 07181 76903 31682 22101 10320 20206 39993 40123 57018 70400 82200 91735 333 10329 20222 30/// 56200 58014 81834 81650
AAXX 07181 76253 32782 20503 10164 20078 30124 40214 54002 82/3/ 91755 333 10170 20120 30/// 59028 82357 92002
AAXX 07181 76311 32980 00000 10214 20067 39876 40161 56007 91750 333 10216 20052 30/// 59023
AAXX 07181 76412 31966 00000 10186 20099 30145 40191 52001 70544 91738 333 10194 20070 30/// 58001
AAXX 07181 76640 31458 83603 10150 20113 30310 40322 52005 70222 8372/ 91740 333 10164 20114 31/// 5679/ 58084 83715 85440
AAXX 07181 76647 32670 43603 10307 20200 30164 40194 57016 84200 91750 333 10309 20200 30/// 56800 58031 84844
AAXX 07181 76741 01340 83615 10208 20196 30175 40193 57006 60071 76066 85720 91730 333 10232 20186 32/// 5688/ 58046 60037 83710 82811 91117 91536
AAXX 07181 76855 32980 02003 10308 20206 30074 40123 58006 91745 333 10320 20194 30/// 58002 92000
BBXX CGDG 07184 99444 70549 46/// /1807 10126 20137 40161 58025 7//// 8//// 22281 00143 2////
BBXX CGTF 07184 99476 70527 46/// /3208 10032 20029 40158 56024 7//// 8//// 22200 0//// 2////
BBXX CGJV 07184 99447 70636 46/// /1101 10092 20091 40100 56027 7//// 8//// 22200 0//// 2////
BBXX VAAZ 07184 99511 70498 46/// /0110 11011 21061 40206 53009 7//// 8//// 22231 0//// 2////
BBXX CGSB 07184 99468 70712 46/// /0708 11001 21022 40123 58032 7//// 8//// 22200 0//// 2////
BBXX VAAP 07184 99445 70632 46/// /2207 10078 20077 40090 58020 7//// 8//// 22263 0//// 2////
BBXX CG2965 07184 99487 71235 46/// /2302 10052 20044 40324 51007 7//// 8//// 22200 0//// 2////
BBXX VRYO3 07184 99456 70735 46/// /0000 10019 20030 40107 58028 7//// 8//// 22200 0//// 2////
BBXX 3FZK3 07184 99394 11367 46/// /3314 10020 21018 40179 53004 7//// 8//// 22213 0//// 2////
BBXX C6SI6 07184 99554 11709 46/// /3422 11017 21036 49972 52036 7//// 8//// 22253 0//// 2////
BBXX CGDT 07184 99490 70669 46/// /0507 11014 21024 40143 56026 7//// 8//// 22200 0//// 2////
BBXX VCSZ 07184 99486 70684 46/// /0713 11002 21002 40117 58023 7//// 8//// 22213 0//// 2////
BBXX CGJK 07184 99484 71234 46/// /0205 10061 20050 40321 51007 7//// 8//// 22200 0//// 2////
BBXX VCWL 07184 99456 70735 46/// /0000 10013 20001 40112 57030 7//// 8//// 22200 0//// 2////
BBXX CGBN 07184 99447 70636 46/// /0301 10091 20089 40086 56028 7//// 8//// 22200 0//// 2////
BBXX VOPP 07184 99456 70735 46/// /1901 10011 20010 4//// 5//// 7//// 8//// 22200 0//// 2////
BBXX VCLM 07184 99621 70747 46/// /1731 11084 21120 49822 56011 7//// 8//// 22200 0//// 2////
BBXX CGCC 07184 99468 70712 46/// /0509 11005 21028 40123 58031 7//// 8//// 22200 00054 2////
BBXX CG2958 07184 99487 71235 46/// /2402 10054 20051 40332 51007 7//// 8//// 22200 0//// 2////
BBXX VOKJ 07184 99478 70699 46/// /3405 11013 21030 40121 58030 7//// 8//// 22254 0//// 2////
BBXX CGDX 07184 99468 70712 46/// /0609 10002 21019 40122 58032 7//// 8//// 22200 0//// 2////
BBXX VXKF 07184 99467 70599 46/// /1015 10043 20043 40096 56030 7//// 8//// 22254 0//// 2////
AAXX 07181 01492 11585 20000 11039 21054 39811 49931 52023 60002 70300 81571 333 11009 91105
AAXX 07181 01218 11989 00000 11047 21055 39944 49966 51020 60002 70120 333 11012 91102
AAXX 07181 01359 11689 32703 11093 21128 39036 49974 52020 60002 70210 83200 333 11079 91106
AAXX 07181 11423 NIL
AAXX 07181 11487 01684 42707 10026 21004 39422 40046 53029 60022 70187 81440 333 10047 60005 81633 84359 91013 91123
AAXX 07181 11518 01684 62508 10029 20005 39583 40023 53021 60022 70162 83570 333 10045 60005 83645 85365 91113
AAXX 07181 11603 01465 72707 10027 20000 39517 49999 53010 60062 72176 87500 333 10027 42001 69955 83618 86630 91012 91111
AAXX 07181 11659 01465 72708 10033 20022 39383 40020 53001 60022 70172 875// 333 10033 60005 87618 91013 91111
AAXX 07181 11723 01362 82203 10033 20017 39731 40030 56021 60032 76062 887// 333 10042 69905 88709 91112
AAXX 07181 11782 01562 82110 10027 20004 39703 40009 55037 69982 76876 885// 333 10044 69955 88629 91117
AAXX 07181 01367 11989 03004 11095 21109 39515 49972 53022 60002 70210 333 11081 91106
AAXX 07184 17600 11560 71705 10181 20102 30181 40191 56002 69902 72982 878// 333 10210 20139 82820 85650
AAXX 07184 17601 12575 72406 10178 20122 30159 40190 58002 60002 85230 91750 333 10202 81828 84835
AAXX 07184 17607 NIL
AAXX 07184 17609 12562 72404 10168 20115 30188 40192 50002 60002 81870 333 10209 20123 81830 85358
AAXX 07181 76040 32960 03302 10122 21011 30249 40264 52001 80002 91745333 10166 20010 30/// 56003 59028 82078 98660
AAXX 07181 76055 32980 03310 10161 21158 30213 40232 57004 91740 33310172 20085 30/// 59047
AAXX 07181 76113 32980 00301 10122 21050 39722 40200 57001 91745 33310128 20024 30/// 59032
AAXX 07181 76220 32858 20000 10030 21030 38193 40342 57017 82060 91740333 10030 21096 31/// 56060 58024
AAXX 07181 76225 32960 00901 10087 21010 38696 40302 57011 91745 33310087 21061 30/// 58012
AAXX 07181 76243 32973 31802 10118 21015 30004 40317 57009 80006 91740333 10124 21035 30/// 56006 58021 83070
AAXX 07181 76256 32980 33206 10146 21003 30190 40204 52005 83/3/ 91745333 10160 20070 30/// 56/5/ 59029 83360
AAXX 07181 76305 32970 13405 10188 20064 30186 40194 52007 81030 91740333 10191 20115 30/// 56050 59020 81358
AAXX 07181 76323 32970 11801 10112 21036 38229 40359 57012 80001 91755333 10117 21052 30/// 58015
AAXX 07181 76342 32962 00302 10120 20029 39593 40343 57016 91750 33310128 21002 30/// 58012
AAXX 07181 76373 32970 30000 10126 21095 38253 40210 58007 80004 91750333 10137 21052 30/// 56009 58031 83067
AAXX 07181 76390 31968 42105 10117 21026 38286 40292 57001 70544 8000191730 333 10130 21025 30/// 56008 58051 84070
AAXX 07181 76393 31910 61202 10116 20036 39699 40304 57012 70544 8000191750 333 10132 20036 30/// 56005 58035 86070
AAXX 07181 76402 31958 00000 10204 20059 30126 40184 52005 70544 91745333 10205 20056 30/// 59011
AAXX 07181 76423 32975 51201 10132 21050 38198 40257 58006 80005 91745333 10147 21012 30/// 56009 58037 85067
AAXX 07181 76458 32970 62503 10233 20147 30157 40161 58001 80006 91740333 10243 20114 30/// 56//9 58006 86070
AAXX 07181 76471 32980 30903 10152 21091 37724 40206 57001 80001 91750333 10257 20022 30/// 56001 58027 83075
AAXX 07181 76491 32860 33601 10136 20035 39913 40321 57011 81034 91745333 10145 20078 30/// 56099 58052 81362 82077
AAXX 07181 76499 32960 03403 10165 20007 30281 40303 57008 91740 33310166 20089 30/// 58058
AAXX 07181 76525 32460 40904 10076 20042 37497 40203 52004 84600 91745333 10078 20053 30/// 563// 58024 84714
AAXX 07181 76539 31560 80301 10110 20058 38205 40247 52012 70544 886//91745 333 10120 20080 30/// 562// 58035 88721
AAXX 07181 76543 32675 82901 10148 20056 30291 40324 55009 8457/ 91736333 10150 20117 30/// 5688/ 58081 84650 84358
AAXX 07181 76548 32875 80202 10156 20021 30301 40311 50007 88070 91740333 10158 20120 30/// 56050 58076 88358
AAXX 07181 76556 32970 20000 10242 20090 39131 40169 50007 80001 91730333 10254 20105 30/// 56005 58008 82070
AAXX 07181 76571 32870 43602 10162 20077 38194 40210 57008 80004 91750333 10166 20074 30/// 56005 58030
AAXX 07181 76577 32970 82304 10191 20154 38061 40185 58003 80004 91740333 10199 20070 30/// 56005 58017 88081
AAXX 07181 76581 12575 81403 10093 20064 39137 40286 57005 69901 8272091750 333 10102 20060 30/// 56220 58079 82730 86460
AAXX 07181 76585 32980 80000 10133 20088 30142 40304 58008 8802/ 91740333 10135 20099 31/// 56/8/ 58078 88458
AAXX 07181 76593 01370 53607 10250 20231 30200 40202 58006 69901 7020582460 91750 333 10282 20216 30/// 5688/ 58035 69907 8262083330
AAXX 07181 76625 32450 50907 10166 20087 38154 40152 57013 85400 91740333 10166 20097 30/// 56200 58013 85620
AAXX 07181 76632 31950 01104 10154 20084 37646 40147 57009 70500 91750333 10182 20084 30/// 58015 98550
AAXX 07181 76634 31165 12902 10134 20086 37879 40240 57009 70511 8170091750 333 10136 20048 30/// 560// 58018 81791
AAXX 07181 76644 32465 43605 10270 20224 30181 40194 57012 83201 91750333 10289 20216 30/// 568/9 58034 83810 91005 91536
AAXX 07181 76654 31956 02301 10287 20207 30154 40158 57002 70544 91755333 10289 20216 30/// 59002
AAXX 07181 76658 31940 12702 10277 20161 39642 40149 57009 70540 8000191745 333 10288 20172 30/// 56001 59001 81070 98924
AAXX 07181 76662 31970 22801 10226 20109 38475 40177 57005 70540 8000491740 333 10238 20060 30/// 5600/ 58013 82070
AAXX 07181 76665 32962 03601 10225 20120 38137 40173 57010 91750 33310235 20077 30/// 58030
AAXX 07181 76680 31956 00803 10195 20076 37765 40101 57012 70400 91750333 10196 20090 30/// 58014
AAXX 07181 76681 31950 00501 10206 20095 37794 40172 58010 70540 91740333 10206 20052 30/// 58014
AAXX 07181 76683 31965 11201 10182 20079 37846 40223 56017 70544 8000591745 333 10190 20064 30/// 56005 58012 81080
AAXX 07181 76687 31460 83601 10142 20099 38741 40248 50001 71044 885//91735 333 10147 20120 30/// 561// 58042 81717 87619
AAXX 07181 76692 31456 83608 10209 20138 30227 40246 58001 70733 8727/91745 333 10227 20200 30/// 5688/ 58065 82817 85640 9111791536
AAXX 07181 76698 32560 30101 10279 20251 30170 40182 57016 83200 91755333 10293 20210 30/// 56800 58027 83820
AAXX 07181 76726 32970 01801 10218 20097 38428 40168 57010 91750 33310218 20126 30/// 58010
AAXX 07181 76737 01365 80000 10146 20136 38834 40233 50004 69981 750528672/ 91735 333 10184 20140 31/// 5629/ 58043 69987 8670791105 91514
AAXX 07181 76743 31457 83202 10251 20225 30184 40192 58014 70222 885//91745 333 10260 20230 30/// 561// 58039 88613
AAXX 07181 76750 32560 73204 10273 20223 30170 40180 57012 84620 91750333 10281 20208 31/// 56880 58026 84820 83357
AAXX 07181 76762 32904 33601 10270 20210 38772 40157 56008 80002 91735333 10274 20128 30/// 56006 58009 83070
AAXX 07181 76773 32570 20906 10214 20090 38444 40198 57012 81204 91745333 10218 20041 30/// 56209 58016 81820
AAXX 07181 76775 31462 32702 10239 20086 38552 40211 57013 70300 8320091730 333 10241 20074 30/// 56800 57683 58016 82620 81820
AAXX 07181 76805 32970 40201 10312 20204 30131 40137 58012 80001 91750333 10326 20200 30/// 56//7 59005 82162 82063
AAXX 07181 76833 32970 03614 10294 20234 30141 40143 57017 91745 33310294 20241 30/// 58025 92001
AAXX 07181 76840 32550 23603 10294 20186 30098 40153 57007 82100 91740333 10300 20167 30/// 568// 58040 82827
AAXX 07181 76843 32565 70202 10228 20179 39530 40174 57012 83770 91745333 0/79/ 10234 20188 30/// 58037 83820 84360
AAXX 07181 76845 32460 70403 10132 20109 37976 40205 58005 87600 91748333 10154 20090 30/// 56100 58025 87710
AAXX 07181 76848 11670 43602 10203 20102 38405 40136 57008 69901 7025084200 91750 333 10205 20103 30/// 56100 58020 84842
AAXX 07181 76903 31682 22101 10320 20206 39993 40123 57018 70400 8220091735 333 10329 20222 30/// 56200 58014 81834 81650
AAXX 07181 76253 32782 20503 10164 20078 30124 40214 54002 82/3/ 91755333 10170 20120 30/// 59028 82357 92002
AAXX 07181 76311 32980 00000 10214 20067 39876 40161 56007 91750 33310216 20052 30/// 59023
AAXX 07181 76412 31966 00000 10186 20099 30145 40191 52001 70544 91738333 10194 20070 30/// 58001
AAXX 07181 76640 31458 83603 10150 20113 30310 40322 52005 70222 8372/91740 333 10164 20114 31/// 5679/ 58084 83715 85440
AAXX 07181 76647 32670 43603 10307 20200 30164 40194 57016 84200 91750333 10309 20200 30/// 56800 58031 84844
AAXX 07181 76741 01340 83615 10208 20196 30175 40193 57006 60071 7606685720 91730 333 10232 20186 32/// 5688/ 58046 60037 8371082811 91117 91536
AAXX 07181 76855 32980 02003 10308 20206 30074 40123 58006 91745 33310320 20194 30/// 58002 92000
AAXX 07184 91408 11471 81605 10267 20252 30017 40055 57017 60041 72598 8692/ 333 56999 70104 555 90718
AAXX 07184 87692 32960 00711 10218 20163 30122 40148 57019 555 10146
AAXX 07184 41170 429664 03107 10165 20040 30194 40207 333 10212 58012
AAXX 07184 91408 11471 81605 10267 20252 30017 40055 57017 60041 72598 8692/ 333 56999 70104 555 90718
AAXX 07184 64500 32460 62410 10276 20246 30071 40084 83930 333 10296 58004 83610 81920 85360 94942 95832
BBXX CGHL 07184 99476 70527 46/// /3408 10031 20028 40158 56024 7//// 8//// 22200 0//// 2////
AAXX 07181 89061 379// 03302 10050 21030 39720 49727 52035 73011 333 91003 91112
AAXX 07184 60060 32958 60410 10193 20070 40247 54001 80002 333 10223 86070 95300
AAXX 07184 60105 32456 43208 10147 20119 40280 55001 81202 333 10182 81816 84070
AAXX 07184 60107 32460 32402 10126 20110 40284 56004 81602 333 10174 81713 83070 95300
AAXX 07184 60127 32960 00000 10137 20077 39684 40283 52003 333 10197
AAXX 07184 60141 32960 30000 10102 20056 39609 40286 52006 80002 333 10195 83073
AAXX 07184 60185 32965 60607 10177 20102 40269 55002 80002 333 10210 86070
AAXX 07184 60190 32968 32203 10160 20094 40256 56002 80002 333 10207 83071
AAXX 07184 60191 32970 20000 10150 20115 40268 56003 80002 333 10215 82073
AAXX 07184 60195 32965 32204 10150 21027 38592 48606 56005 80002 333 10180 83073 95500
AAXX 07184 60210 32970 32403 10162 21034 39098 48615 53002 80002 333 10208 83070
AAXX 07184 60220 32960 43606 10172 20118 40264 56005 80002 333 10188 84073
AAXX 07184 60265 32970 20202 10168 21033 38980 48606 55000 80002 333 10199 82073
AAXX 07184 60106 NIL
AAXX 07184 60318 NIL
AAXX 07184 60150 32960 43202 10133 20088 39622 40280 53004 80002 333 10183 84070
AAXX 07184 60155 32960 604// 10157 20129 40264 58003 80002 333 10186 86070
AAXX 07184 60096 NIL
AAXX 07184 60101 NIL
AAXX 07184 60115 NIL
AAXX 07184 60135 NIL
AAXX 07184 60156 NIL
AAXX 07184 60230 NIL
AAXX 07184 60252 NIL
AAXX 07184 61766 32958 50603 10330 20171 30045 40088 70522 80001 333 10332 58004 85075
AAXX 07184 61769 NIL
AAXX 07184 333 NIL
AAXX 07181 11812 36/// /2107 11001 21001 39357 42676 57026 333 10016
AAXX 07181 11813 11260 82205 10018 20014 39713 40065 57021 60022 76022 885// 333 10037 83705 88620
AAXX 07181 11816 11660 62405 10032 20016 39900 40065 57020 60022 72162 84540 333 10045 84638 86358
AAXX 07181 11819 16/// /1803 10021 20010 39836 40054 57035 60022 333 10041
AAXX 07181 11826 11458 81604 10021 20008 39848 40050 57034 60032 72122 886// 333 10044 86713 88621
AAXX 07181 11841 11360 82604 10023 21004 39667 40045 56035 69942 76876 885// 333 10042 83707 88616
AAXX 07181 11855 11256 81606 10032 20019 39898 40065 57028 60022 76166 885// 333 10044 83705 88621
AAXX 07181 11856 16/// /2006 10024 20010 39753 40074 57029 60022 333 10032
AAXX 07181 11858 11570 81804 10038 20023 39921 40073 57022 60012 76166 885// 333 10069 88626 91151
AAXX 07181 11867 11560 82006 10029 21006 39742 40060 57031 69932 76162 885// 333 10046 88624
AAXX 07181 11880 11560 81903 10042 20017 39907 40079 57028 69922 76122 885// 333 10047 88623 91010
AAXX 07181 11900 16/// /1203 10021 21000 39737 40075 57034 69922 333 10039
AAXX 07181 11903 11450 89901 10010 20010 39688 40073 57036 60002 76162 885// 333 10027 41998 83711 88620
AAXX 07181 11916 11/00 92124 11095 21111 37781 48302 58046 60012 77144 333 11091 48007 89/00 91029 91131 93598 96049
AAXX 07181 11918 11670 72011 10020 21037 39189 42639 58060 69902 77182 8557/ 333 10022 47002 85633 91020 91120
AAXX 07181 11927 12662 80501 10014 21002 39821 40086 57027 60002 885// 333 10045 88640
AAXX 07181 11930 11/60 72309 11114 21115 37199 47855 57033 60022 77172 875// 333 11110 48018 876// 91023 91123 444 76//2
AAXX 07181 11933 11/20 89901 11042 21050 38534 48356 57024 69942 77087 887// 333 11028 48009 827// 88703 444 27//1
AAXX 07181 11934 11450 82405 11003 21024 39235 42682 57025 69902 77122 8657/ 333 10016 47997 81713 85633 88459
AAXX 07181 11938 11562 72309 11020 21031 39000 42685 57023 69962 78522 874// 333 11016 44004 87823
AAXX 07181 11952 16/// /1806 10002 21037 39226 42682 57029 60002 333 10021 91011
AAXX 07181 11958 36/// /1917 11049 21057 38616 48354 57029 333 11031
AAXX 07181 11968 12670 82105 10018 21004 39806 40090 57025 60002 8551/ 333 10030 85635 88458
AAXX 07181 11976 12565 71603 10016 21005 39818 40085 57024 60002 875// 333 10017 87626
AAXX 07181 11978 12665 61503 10020 20004 39963 40095 57023 60002 84501 333 10041 84640
AAXX 07181 11993 12465 81903 10029 20008 39879 40098 57025 60002 8367/ 333 10031 83714 88357
AAXX 07184 60285 32960 60412 10197 20047 40236 55001 80002 333 10248 86070
AAXX 07184 60340 NIL
AAXX 07184 89642 40/// /1117 11059 21076 39695 49748 56021
AAXX 07184 78862 12480 40307 10284 20231 30083 40106 60001 83830 333 10293 20234 58010 83818
AAXX 07184 TAF TKPN 071600Z 0718/0818 06008KT 9999 SCT020 BKN280 PROB30 TEMPO 0718/0818 06010G20KT SHRA BKN015 BKN036
AAXX 07184 TAF TQPF 071600Z 0718/0818 06008KT 9999 SCT020 BKN280 PROB30 TEMPO 0718/0818 06010G20KT SHRA BKN015 BKN036
AAXX 07184 TAF TUPJ 071600Z 0718/0818 06008KT 9999 SCT020 BKN280 PROB30 TEMPO 0718/0818 06010G20KT SHRA BKN015 BKN036
AAXX 07184 TEMPO 0600/0624 SHRA BKN015=+TSRA SCT012CB
AAXX 07184 TAF TUPJ 041000Z 04012/0512 07008KT 9999 SCT016 BKN038 SCT270 TEMPO 0412/0512 SHRA BKN015 PROB40 TEMPO 0418/0512 5000 SHRA BKN014 BKN036 PROB30 0420/0512 4000 TSRA FEW012CB
AAXX 07184 918 4000 TSRA FEW012CB
AAXX 07184 N015 BKN036 PROB40 TEMPO 0704/0724 3000 +TSRA SCT011CB BKN012 BECMG 0712/0714 14008KT
AAXX 07184 21/2712 07017G28KT 5000 SHRA BKN015 BKN036 PROB TEMPO 2700/2712 4000 TSRA FEW013CB
AAXX 07184 PROB30 TEMPO 0800/0806 4000 TSRA FEW012CB PROB40 TEMPO 0800/0824 2000 +SHRA/TSRA SCT010CB BKN012 BKN250
AAXX 07181 89061 379// 03302 10050 21030 39720 49727 52035 73011 333 91003 91112
BBXX VOLG 07184 99/// ///// 46/// /1906 10088 20087 40103 58016 7//// 8//// 22200 0//// 2////
AAXX 07181 33135 32997 51703 10011 21021 39944 40125 57007 82031 333 10027
AAXX 07181 33317 12997 31802 11002 21016 39772 40115 58009 69972 83030 333 10018
AAXX 07181 33345 32998 01903 10008 21021 39932 40141 53002 333 10059
AAXX 07181 33393 12960 71203 11006 21033 39699 40097 57018 60032 87030 333 10033
AAXX 07181 33506 32996 20000 11008 21014 39971 40172 58001 80001 333 10042
AAXX 07181 33587 31956 00000 11010 21019 39888 40158 54000 71011 333 10046
AAXX 07181 33631 32597 81205 10032 20000 39969 40114 57019 8257/ 333 10040
AAXX 07181 33663 32597 21201 10031 20005 30041 40138 57005 82500 333 10044
AAXX 07181 33658 32997 01902 10010 21042 39826 40130 57006 333 10064
AAXX 07181 33711 31993 01502 11026 21026 39953 40170 54000 74841 333 10038
AAXX 07181 33791 31/01 90502 11022 21022 30013 40169 50001 74542 333 10030
AAXX 07181 33837 31930 00000 10020 20017 30109 40162 58002 71011 333 10053
AAXX 07181 33924 32597 80503 10058 20037 30145 40157 54000 82178 333 10074
AAXX 07181 33946 11238 80507 10042 20037 39925 40148 50001 60012 71022 886// 333 10054 88704
AAXX 07181 34300 32997 70000 10002 21012 39983 40179 51004 83031 333 10035
AAXX 07181 34504 32397 60702 10001 21005 39985 40168 52002 82630 333 10042
AAXX 07181 34519 12360 80203 10030 20015 39878 40155 52003 69902 886// 333 10039 88707
AAXX 07181 34601 32660 60702 10009 20003 30029 40168 52001 86500 333 10042 86633
AAXX 07184 41170 429664 03107 10165 20040 30194 40207 333 10215 58012
AAXX 07184 78958 11462 71313 10278 20248 30093 40103 60061 71522 878// 333 10300 20230 58011 85817 87634
AAXX 07184 16045 NIL
AAXX 07184 16090 11930 00000 10042 20039 30053 40137 56001 60002 71011 333 10096
AAXX 07184 16149 12970 02206 10140 20066 30113 40129 56013 60002 333 10146
AAXX 07184 16261 12970 00000 10110 20071 30101 40174 53002 60002 333 10170 55300
AAXX 07184 16453 12597 33405 10152 20062 30149 40228 52016 60002 83800 333 10192 55300 81822 83624 555 0////
AAXX 07184 16560 12570 63206 10150 20095 30251 40257 52011 60002 86800 333 10192 82820 85630
AAXX 07184 16245 12565 10907 10128 20087 30161 40187 56003 60002 81100 333 10172 81830
AAXX 07184 65338 32958 51804 10303 20207 39893 40079 80002 333 10361 59001 85076
AAXX 07184 08594 31459 40714 10247 20200 40120 70620 81502 333 10266 58000 81614 84070
AAXX 07184 08589 32560 10710 10265 20198 40111 81500 333 10285 59001 81617
AAXX 07184 08583 31558 10514 10266 20165 40172 70600 81500 333 10281 59002 81622
AAXX 07184 16008 NIL
AAXX 07184 16084 12975 02403 10030 20012 39965 40135 53002 60002 333 10110
AAXX 07184 16088 11935 02301 10036 20036 30013 40134 58003 60002 71000 333 10100
AAXX 07184 16110 12798 50000 10090 20034 30124 40128 57007 60002 85030 333 10124 85356 555 0////
AAXX 07184 16134 12984 02424 11002 21044 37786 48467 53004 60002 333 10006 95060
AAXX 07184 16153 12999 00111 10106 20073 39880 40145 54000 60002 333 10150 555 0////
AAXX 07184 16158 12560 52315 10150 20104 30155 40162 54004 60002 85100 333 10150 85825
AAXX 07184 16206 12665 71408 10138 20117 30164 40173 57004 60002 82570 333 10176 82640 83356
AAXX 07184 16219 41/00 90524 10002 21022 38114 48502 58002 6///2 74944 333 10002 89/00 95090 95190
AAXX 07184 16252 12870 13604 10078 20008 39241 42799 58002 60002 81040 333 10122 81357 95010
AAXX 07184 16280 12997 03006 10140 20106 39972 40193 52001 60002 333 10152 555 0////
AAXX 07184 16310 12897 32204 10122 20071 39973 40196 52014 60002 83030 333 10148 83357 555 0////
AAXX 07184 16320 12960 02703 10110 20081 30175 40187 51004 60002 333 10152 555 0////
AAXX 07184 16325 12997 02308 10118 20090 30160 40174 52010 60002 333 10170 98060 555 0////
AAXX 07184 16360 12997 03511 10118 20054 30049 40185 51002 60002 333 10148 555 0////
AAXX 07184 16400 12497 43017 10156 20085 39942 40231 52010 69962 83270 333 10176 55300 83816 555 0767/
AAXX 07184 16420 12597 50107 10164 20094 30149 40214 52018 60042 85200 333 10178 85825 555 0////
AAXX 07184 16429 12462 43015 10162 20101 30230 40241 51008 60002 84800 333 10176 82818 83630
AAXX 07184 16470 12560 22915 10160 20131 30020 40256 52004 60002 82100 333 10166 55300 22/// 82820 95000
AAXX 07184 16480 12497 23106 10148 20100 30150 40211 51020 60002 82200 333 10202 82815 555 0////
AAXX 07184 16522 12597 32718 10160 20150 39985 40227 56004 60002 83200 333 10166 55300 83820 555 0////
AAXX 07184 16539 11598 63015 10156 20150 30139 40253 52008 69902 70262 86200 333 10170 86820 555 0////
AAXX 07184 16550 12597 22922 10162 20055 30031 40210 50005 60002 82100 333 10192 82830 555 0////
AAXX 07184 71805 01110 81410 10066 20066 30087 40096 58038 60262 72162 887// 333 10071 20064 60047 88702 90710 91114 93100 555 69985
AAXX 07184 64550 32460 6//// 10260 20231 30/// 40/// 86500 333 10315 5//// 84616 85626
BBXX DBLK 07181 99419 30024 41698 72309 10074 20002 40290 52013 71582 878// 22252 04111 20503 322// 41107
AAXX 07184 16021 12960 03105 11018 21073 37908 48429 54000 60002 333 11004 42001 92872
AAXX 07184 16022 12884 32418 11014 21084 37780 48419 52002 60002 83020 333 11010 83457
AAXX 07184 16033 11420 82603 10002 21012 38722 48432 57002 60052 77122 885// 333 10016 43004 88610 92822 93104
AAXX 07184 16040 12665 52903 10030 21017 39197 42732 53001 60002 85200 333 10042 85840
AAXX 07184 16052 11/01 92822 11094 21095 36578 47005 53007 60022 77174 333 11088 49999 55300 89/01 93199 96045
AAXX 07184 16061 12984 03017 10100 20052 39302 42756 53002 60002 333 10106
AAXX 07184 16098 12960 03502 10030 20015 30081 40133 56005 60002 333 10090
AAXX 07184 16138 11930 00000 10050 20050 30123 40134 56001 60002 71000 333 10112
AAXX 07184 16148 12965 02610 10130 20066 30115 40127 56006 60002 333 10148
AAXX 07184 16168 NIL
AAXX 07184 16172 12562 72108 10120 20071 39880 40177 55000 60002 86850 333 10136 83822 83630
AAXX 07184 16179 12580 42126 10108 20051 39450 42751 56004 60002 83240 333 10110 83827
AAXX 07184 16224 12960 11706 10098 20076 39865 40185 50001 60002 80001 333 10144
AAXX 07184 16232 12998 11910 10136 20028 30104 40157 57005 60002 80001 333 10170 55300 555 0////
AAXX 07184 16245 NIL
AAXX 07184 16253 12572 31904 10120 20087 30184 40196 53006 60002 83101 333 10170 83825
AAXX 07184 16258 12970 02108 10074 21029 39179 42785 58001 60002 333 10092
AAXX 07184 16263 12980 02517 10048 20038 38921 48485 50001 60002 333 10070
AAXX 07184 16294 NIL
AAXX 07184 16337 12598 52614 10106 20066 39628 40201 52009 60002 85200 333 10122 83820 555 0////
AAXX 07184 16344 11/00 93206 10010 20010 38324 48508 51006 60022 74544 333 10020 89/00 95090 95190
AAXX 07184 16434 11256 33610 10068 20058 39032 48530 53012 60002 71011 83200 333 10098 81805 83813 95010 95100
AAXX 07184 16450 12461 23004 10094 20094 39125 48586 52017 60002 82200 333 10122 82810
AAXX 07184 16459 12564 62405 10150 20083 30184 40220 52020 60002 83270 333 10190 83830 85358
AAXX 07184 16546 11462 73402 10158 20116 30227 40255 53009 60002 72162 87800 333 10198 82818 85635
AAXX 07184 16564 12498 33033 10162 20089 30086 40227 58001 60002 83140 333 10188 83818 555 0////
AAXX 07184 13600 12663 10904 10090 20074 30133 40186 52011 60002 81200 333 10132 81840
AAXX 07184 13610 11330 80000 10062 20041 39753 40181 52004 60002 71022 885// 333 10070 88606
AAXX 07184 13611 NIL
AAXX 07184 13619 NIL
AAXX 07184 13622 12665 20000 10090 20056 30173 40180 52008 69922 82500 333 10160 82640
AAXX 07184 13624 12965 11404 10056 20041 30144 40183 52014 60022 81030 333 10170 81360
AAXX 07184 13625 NIL
AAXX 07184 13629 NIL
AAXX 07184 13601 12660 30000 10104 20081 30067 40168 52012 60022 83100 333 10156 83840
AAXX 07184 13602 NIL
AAXX 07184 13623 NIL
AAXX 07184 48601 11559 70302 10263 20249 30083 40087 69901 70562 82572 333 82625 85364 87077
AAXX 07184 48615 11560 70000 10245 20228 30089 40095 60001 70522 83542 333 83620 87074
AAXX 07184 48620 11560 70000 10248 20241 30077 40086 69901 71062 83542 333 83630 84365 87078
AAXX 07184 48647 11340 73102 10265 20254 30062 40087 69921 71362 83952 333 81707 81917 86364
AAXX 07184 48657 11562 70302 10234 20227 30073 40091 60001 71022 82531 333 82625 86078
AAXX 07184 48665 12564 70303 10253 20243 30085 40095 60001 81542 333 81630 83364 86078
AAXX 07184 96413 11058 72602 10234 20227 30058 40085 60491 76162 8451/ 333 82701 84620 87465
AAXX 07184 96421 12465 71403 10236 20222 30044 40080 60001 83531 333 83618 85365
AAXX 07184 96441 12468 71104 10250 20235 30047 40074 60001 83531 333 83616 85365
AAXX 07184 96449 12465 71202 10242 20239 30052 40071 60001 8457/ 333 84614 87365
AAXX 07184 96465 12465 70000 10245 20238 30033 40066 60001 81838 333 81812 84364 87279
AAXX 07184 96471 11466 71004 10245 20218 30062 40065 60001 70522 82848 333 81814 83364 87277
AAXX 07184 96481 12462 73101 10233 20217 30045 40064 69921 8287/ 333 81817 86364
AAXX 07184 96491 11465 72604 10240 20231 30052 40064 69901 70162 82842 333 81815 83364 87277
AAXX 07184 48300 NIL
AAXX 07184 48327 32960 00000 10208 20186 39784 40145 54000 333 58005
AAXX 07184 48331 32960 60000 10224 20204 39894 40126 57002 86050 333 59008
AAXX 07184 48353 32660 40000 10225 20207 39831 40123 57002 81531 333 59007
AAXX 07184 48356 NIL
AAXX 07184 48375 32560 60000 10210 20181 39889 40117 57001 82136 333 58007
AAXX 07184 48378 31556 50000 10256 20232 30058 40111 56002 71022 82535 333 59007
AAXX 07184 48381 32960 20204 10237 20195 39903 40121 56003 82045 333 59003
AAXX 07184 48407 31959 50202 10235 20196 39963 40106 56003 71022 81046 333 59003
AAXX 07184 48431 32560 70000 10230 20212 39904 40119 52001 84576 333 58002 79999
AAXX 07184 48456 NIL
AAXX 07184 48480 31557 80504 10262 20217 30093 40097 57004 71022 84876 333 58007
AAXX 07184 48500 31956 20000 10243 20213 30091 40098 57005 71000 80005 333 58000
AAXX 07184 48551 31556 20000 10238 20226 30093 40101 57004 71000 82205 333 58007
AAXX 07184 48565 32560 20905 10265 20233 30077 40087 57001 81141 333 59002
AAXX 07184 48569 31558 50000 10236 20205 30056 40096 57005 71011 81206 333 59004
AAXX 07184 48583 NIL
AAXX 07184 48310 31957 00000 10181 20171 39673 40138 53001 71000 333 59006
AAXX 07184 48325 31956 20000 10190 20182 39881 40129 54000 71000 80005 333 58000
AAXX 07184 48329 31950 00000 10201 20191 39785 40130 57003 71000 333 59014
AAXX 07184 48352 32960 00000 10230 20207 39923 40126 52003 333 59004
AAXX 07184 48357 32960 30000 10216 20191 39955 40126 57005 81031 333 58002
AAXX 07184 48380 32960 50000 10240 20211 30021 40116 57003 80006 333 59006
AAXX 07184 48383 32960 10801 10222 20185 39962 40124 57005 80001 333 58018
AAXX 07184 48403 32960 50000 10240 20201 39908 40120 57003 81046 333 58004
AAXX 07184 48405 32960 50000 10235 20209 39953 40117 52001 82035 333 59003 79999
AAXX 07184 48420 31950 70000 10260 20223 30099 40104 56002 71022 86036 333 58003 70003
AAXX 07184 48421 31950 20000 10225 20199 30000 40115 57004 71000 80005 333 59001
AAXX 07184 48425 NIL
AAXX 07184 48426 31557 60000 10270 20218 30095 40108 57001 71022 82156 333 58001
AAXX 07184 48429 11560 50905 10276 20201 30098 40105 57002 69903 70281 81136 333 59002 79999
AAXX 07184 48430 31958 20000 10255 20222 30097 40104 56001 71000 80005 333 58000
AAXX 07184 48450 31556 20000 10262 20214 30076 40109 52006 71000 82500 333 59003
AAXX 07184 48459 32962 60000 10265 20225 30097 40100 57004 86050 333 59001
AAXX 07184 48465 11558 60000 10273 20240 30100 40104 57006 69963 71062 83506 333 58002 70006
AAXX 07184 48550 31558 53203 10260 20231 30088 40095 57001 71011 81105 333 58000
AAXX 07184 48552 32460 30000 10235 20224 30092 40098 57003 81205 333 58004
AAXX 07184 48566 NIL
AAXX 07184 48568 32460 40000 10265 20228 30088 40096 57003 82831 333 58000
AAXX 07184 61968 16/// /0703 10255 20230 40100 60002 333 10294 59004 90710 91107 555 60005
AAXX 07184 61970 16/// ///// 10261 20209 40098 60002 333 10307 59016 555 60005
AAXX 07184 61980 12562 51804 10235 20198 40116 60002 82802 333 10291 59010 81823 85080 90710 91107 924/7 555 60005
AAXX 07184 67005 14/// /3005 10269 20236 40101 60002 700// 333 10314 59003 90710 91110 555 60005
AAXX 07184 48302 NIL
AAXX 07184 48304 31958 00000 10173 20165 39672 40144 57001 71000 333 58000
AAXX 07184 48334 31958 00000 10210 20194 39762 40128 57001 71000 333 59005
AAXX 07184 48360 32960 50000 10217 20195 39862 40126 57003 80006 333 59002
AAXX 07184 48372 NIL
AAXX 07184 48373 31930 20000 10237 20203 30044 40106 57006 71000 80001 333 59011
AAXX 07184 48386 31950 70000 10258 20243 30055 40099 57010 71022 85036 333 59013
AAXX 07184 48387 NIL
AAXX 07184 48408 NIL
AAXX 07184 48415 32960 70603 10266 20220 30095 40106 57001 86056 333 59001
AAXX 07184 48433 31956 20000 10231 20182 39946 40113 57002 71000 80005 333 59002 70004
AAXX 07184 48437 32960 00402 10227 20209 39905 40118 52002 333 58001 70010
AAXX 07184 48440 31958 50000 10240 20222 30052 40102 57006 71022 82036 333 59001
AAXX 07184 48451 32560 70000 10261 20233 30099 40110 57005 86870 333 59001
AAXX 07184 48454 NIL
AAXX 07184 48457 NIL
AAXX 07184 48463 NIL
AAXX 07184 48464 NIL
AAXX 07184 48479 31558 80000 10250 20212 30050 40102 57006 71022 8252/ 333 58003 70027
AAXX 07184 48520 31958 40000 10238 20226 30088 40104 56001 71011 80005 333 58001
AAXX 07184 48554 31458 50000 10245 20238 30094 40098 57001 71011 82225 333 58004
AAXX 07184 48563 32560 30000 10248 20221 30055 40091 57001 82242 333 58001
AAXX 07184 48571 32560 40000 10262 20214 30083 40094 57005 82101 333 58000
AAXX 07184 48307 31950 00000 10184 20177 39747 40135 51002 71000 333 59010
AAXX 07184 48324 31956 00000 10200 20187 39902 40126 57002 71000 333 59005
AAXX 07184 48333 31956 20000 10200 20186 39831 40138 52004 71000 82050 333 58005
AAXX 07184 48350 31660 70000 10210 20202 39823 40127 57002 71022 87500 333 59004
AAXX 07184 48355 NIL
AAXX 07184 48358 NIL
AAXX 07184 48384 NIL
AAXX 07184 48401 31550 40000 10247 20211 30009 40117 57002 71011 82536 333 59001
AAXX 07184 48404 32961 50702 10234 20200 39938 40117 56000 83036 333 58002 79999
AAXX 07184 48409 NIL
AAXX 07184 48419 31558 80000 10277 20222 30097 40105 56000 71022 85545 333 58001
AAXX 07184 48427 NIL
AAXX 07184 48435 31958 21006 10236 20192 39679 40118 52002 71010 82045 333 59002
AAXX 07184 48453 NIL
AAXX 07184 48458 32960 80000 10238 20226 30040 40121 57002 82036 333 58003 70006
AAXX 07184 48474 31956 40000 10255 20217 39982 40105 57005 71021 82045 333 58002
AAXX 07184 48481 NIL
AAXX 07184 48555 31550 20000 10230 20215 30082 40125 55008 71000 82505 333 58004
AAXX 07184 48556 NIL
AAXX 07184 48557 31557 40000 10225 20220 30058 40093 57007 71011 81105 333 59001
AAXX 07184 48560 31557 50000 10251 20239 30090 40095 56010 71011 82245 333 58001
AAXX 07184 48574 32560 50000 10260 20238 30056 40085 57024 82146 333 58000
AAXX 07184 48581 NIL
AAXX 07181 01062 11470 80405 11010 21015 39787 49800 52002 69932 78587 883// 333 11002 91110
AAXX 07181 01205 46/// ///// 10036 21032 39908 49953 53020 333 10049
AAXX 07184 48601 11559 70302 10263 20249 30083 40087 69901 70562 82572 333 82625 85364 87077
AAXX 07184 48615 11560 70000 10245 20228 30089 40095 60001 70522 83542 333 83620 87074
AAXX 07184 48620 11560 70000 10248 20241 30077 40086 69901 71062 83542 333 83630 84365 87078
AAXX 07184 48647 11340 73102 10265 20254 30062 40087 69921 71362 83952 333 81707 81917 86364
AAXX 07184 48650 11458 71201 10261 20241 30067 40086 60001 71322 82942 333 81917 84364 86078
AAXX 07184 48657 11562 70302 10234 20227 30073 40091 60001 71022 82531 333 82625 86078
AAXX 07184 48665 12564 70303 10253 20243 30085 40095 60001 81542 333 81630 83364 86078
AAXX 07184 96413 11058 72602 10234 20227 30058 40085 60491 76162 8451/ 333 82701 84620 87465
AAXX 07184 96421 12465 71403 10236 20222 30044 40080 60001 83531 333 83618 85365
AAXX 07184 96441 12468 71104 10250 20235 30047 40074 60001 83531 333 83616 85365
AAXX 07184 96449 12465 71202 10242 20239 30052 40071 60001 8457/ 333 84614 87365
AAXX 07184 96465 12465 70000 10245 20238 30033 40066 60001 81838 333 81812 84364 87279
AAXX 07184 96471 11466 71004 10245 20218 30062 40065 60001 70522 82848 333 81814 83364 87277
AAXX 07184 96481 12462 73101 10233 20217 30045 40064 69921 8287/ 333 81817 86364
AAXX 07184 96491 11465 72604 10240 20231 30052 40064 69901 70162 82842 333 81815 83364 87277
AAXX 07181 01160 41989 30108 10014 21045 39910 49927 53024 70200 80001 333 10015 91110
AAXX 07181 01281 16/// /0000 11020 21027 39746 49921 53019 60002 333 11002 91102
BBXX 41010 07181 99289 70785 46/// /2008 10239 40156 58029 91750 22200 00242 11103 20602 300// 41103 70016 333 91209 555 11082 22087
BBXX 42057 07181 99168 70815 46/// /0210 10280 20214 40140 58013 91750 22200 00280 10703 20703 70016 333 91211 555 11095 22101 31653 40312 61749 021094 022091 021094 016089 015094 023099 80310 91654
BBXX 41009 07181 99285 70802 46/// /2007 10235 20160 40161 58028 91750 22200 00249 11003 20301 300// 41003 70015 333 91208 555 11072 22075
BBXX 42363 07181 99282 70892 46/// /3212 10117 20011 40251 50004 91800 333 91213
BBXX 42364 07181 99291 70881 46/// /3109 10111 20050 40231 58003 91800
BBXX 41046 07181 99238 70683 46/// /0909 10257 20217 40151 58016 91750 22200 00263 10906 20605 300// 40904 70031 333 91211 555 11098 22104 31706 40812 61749 088092 084089 088093 084093 084096 087090 80810 91707
BBXX 44011 07181 99411 70666 46/// /1906 10131 20131 40110 57032 91750 22200 00104 10704 20502 3//// 40703 70020 333 91207 555 11071 22082 31740 40107 61749 192063 190062 188061 195060 194051 188040
BBXX 41041 07181 99142 70460 46/// /1207 10273 20224 40104 56020 91750 22200 00268 10904 20603 3//// 40903 70021 333 91209 555 11078 22083 31716 41109 61749 115073 117072 121073 121076 119073 119072 81208 91715
BBXX 46061 07181 99602 71468 46/// /0913 10029 40273 58030 91750 22200 00061 10504 20504 300// 40901 70019 333 91216 555 11138 22145 31749 40916 61749 090130 094125 096126 095128 096123 097124
BBXX 46083 07181 99582 71380 46/// /1407 10023 21021 40334 56004 91750 22200 00065 10903 20402 300// 40902 70014 333 91208 555 11070 22075 31709 41309 61749 136067 135066 131073 131073 131073 133067 81308 91709
AAXX 07181 06206 47561 42816 10086 20019 39930 49982 51043 72286 8//// 333 10092 83/31 84/39 91020 91130 91225
AAXX 07181 06207 47563 72719 10071 20004 39918 49971 53041 78085 8//// 333 10079 82/30 83/37 87/50 91022 91131 91223
AAXX 07181 06239 47468 6//15 10072 20030 3//// 4//// 5//// 72186 8//// 333 10086 82/17 84/20 86/34 91018 91125 91221
AAXX 07181 06252 46/// /2921 10078 20018 39955 40001 51048 222// 00100 10911 333 10084 91024 91128 91223
AAXX 07181 06260 17667 72809 10077 20004 30052 40054 53035 60062 70298 8//// 333 10085 83/34 85/40 87/47 91018 91119 91210
AAXX 07181 06270 17664 52814 10070 20017 39989 49989 53037 60052 72386 8//// 333 10074 82/35 83/40 85/50 91020 91126 91215
AAXX 07181 06290 17668 82612 10068 20012 39980 40020 53032 60072 72385 8//// 333 10077 82/34 83/41 88/56 91018 91119 91212
AAXX 07181 06201 47562 72819 10074 20023 39926 49978 51038 72385 8//// 333 10082 82/28 83/37 86/48 91023 91134 91226
AAXX 07181 06203 45560 42818 10082 20021 39995 40046 51036 8//// 333 10094 82/30 84/40 91024 91127 91222
AAXX 07181 06204 45566 72922 10081 20015 39966 40017 51042 8//// 333 10085 82/29 85/33 87/41 91028 91131 91225
AAXX 07181 06205 47471 73010 10065 20019 39879 49937 52037 75785 8//// 333 10079 81/14 83/22 86/26 91012 91119 91215
AAXX 07181 06208 47662 42919 10086 20003 39909 49958 53037 70185 8//// 333 10087 81/35 84/50 91023 91130 91224
AAXX 07181 06211 45566 72721 10077 20010 39942 49997 51044 8//// 333 10086 83/28 84/34 86/42 91025 91129 91226
AAXX 07181 06212 47566 72821 1//// 2//// 39960 40023 53045 70280 8//// 333 1//// 82/27 84/33 86/40 91025 91130 91224
AAXX 07181 06235 17563 72916 10080 20012 30024 40024 53041 60032 70380 8//// 333 10086 83/30 84/36 85/45 91023 91127 91219
AAXX 07181 06240 15666 62816 10075 20017 30055 40050 53038 60062 8//// 333 10084 82/36 84/42 86/47 91022 91125 91218
AAXX 07181 06251 17563 72817 10076 20018 39988 49989 53037 60022 70285 8//// 333 10080 83/33 85/38 86/45 91023 91127 91220
AAXX 07181 06258 46/// /2817 333 91022 91128 91221
AAXX 07181 06269 17561 72711 10067 20027 30036 40030 51035 60042 78185 8//// 333 10078 86/32 87/36 87/41 91019 91121 91215
AAXX 07181 06280 17565 62711 10066 20019 39976 49980 53028 60052 70285 8//// 333 10073 82/31 85/35 86/56 91018 91123 91213
AAXX 07181 06310 15669 72815 10086 20005 30086 40096 53036 69932 8//// 333 10099 81/40 84/46 87/50 91021 91124 91218
AAXX 07181 06344 15670 72813 10079 20009 30075 40068 53035 60022 8//// 333 10086 82/37 83/43 87/50 91019 91122 91214
AAXX 07181 06370 17679 62709 10073 20001 30050 40075 51032 60032 72280 8//// 333 10081 82/44 87/50 91014 91118 91210
AAXX 07181 06380 17679 82707 10065 20002 39955 40095 51031 60082 72286 8//// 333 10077 87/42 88/49 91016 91117 91210
BBXX 46089 07181 99459 71258 46/// /3608 10089 20056 40320 53005 91750 22200 00099 11103 20502 332// 41102 70015 333 91209 555 11082 22086 31735 43610 61749 001077 001077 359078 000076 355073 000069
BBXX 46042 07181 99368 71224 46/// /0702 10106 40254 54000 91750 22200 00122 11202 331// 41202 70009 333 91202 555 11015 22016 31716 40803 61749 071015 077013 066016 075019 084016 075014
AAXX 07184 91574 46/// ///// 29091 30006 40012 50007
AAXX 07184 91570 NIL
AAXX 07184 91598 NIL
AAXX 07184 91573 06/// /0410 10228 20220 39968 40065 50003 60661 333 59015 60347
AAXX 07184 91579 06/// /0806 10250 20241 30061 40069 53001 60011 333 58000 69967
AAXX 07184 91582 04465 81005 10253 20239 30037 40071 55000 60002 700// 333 10265 20250 60007 90710 91111 555 60005
AAXX 07184 91583 06/// /1402 10236 20231 30061 40076 53007 60741 333 58006 60287
AAXX 07184 91587 06/// ///// 10240 20233 30029 40074 55001 69921 333 58004 60007
AAXX 07184 91590 04986 80000 10225 20208 30026 40069 53003 60002 700// 333 10264 20223 60007 90710 91103 555 60005
AAXX 07184 91592 06/// /0910 10241 20204 39990 40074 53001 60001 333 59003 60007
AAXX 07184 91596 06/// /1106 10221 20196 39976 40085 53002 60001 333 58011 60007
AAXX 07184 91577 NIL
BBXX 51000 07181 99235 71541 46/// /0706 10226 40186 53017 91750 22200 00234 11305 20502 332// 41304 70024 333 91208 555 11068 22071 31715 40708 61749 070063 067065 063066 066069 065068 070064
BBXX 51003 07181 99193 71606 46/// /0708 10248 40146 53011 91750 22200 00257 11305 20603 3//// 41304 70023 333 91209 555 11083 22087 31723 40610 61749 066077 067076 062081 062077 063075 061079
AAXX 07181 10453 11/90 92623 11030 21030 38641 48283 53018 60082 74987 333 11017 21040 3/104 49045 55300 91136 91227 96039 96285 96488 96486 96473 96449 96439
BBXX 44060 07181 99413 70721 46/// ///01 10121 40069 56038 91800 22200 00124 333 91202 555 11010 22010
BBXX 44008 07181 99405 70692 46/// /2204 10156 20146 40097 58027 91750 22200 00137 10704 20401 319// 40704 70019 333 91205 555 11047 22056 31747 42205 61749 220041 226039 227040 234040 234040 238041
BBXX 44172 07181 99445 70634 46/// ///// 1//// 91801 22200 00083 10602 20602 314// 41101 70012
BBXX DBBH 07181 99539 10087 41497 82810 10055 20027 49924 52007 76062 888// 22262 04052
BBXX 44098 07181 99428 70702 46/// ///// 1//// 91737 22200 00099 11002 21002 311// 41101 70012
AAXX 07181 03951 17958 /2808 10088 20050 30167 40193 52013 69912 72285 80/// 333 10103 83/70
AAXX 07181 03953 11570 82707 10090 20032 30155 40192 51009 69972 70381 85802 333 10095 81828 84645 88072 92447
AAXX 07181 03955 11480 22404 10048 20025 39986 40187 51015 69912 70181 81801 333 10078 81818
AAXX 07181 03956 17668 /2606 10053 20018 30094 40172 50025 69912 7808/ 85/// 333 10074 85/44
AAXX 07181 03962 11470 42604 10063 20032 30146 40170 51015 60012 72581 84300 333 10082 82918 83640
AAXX 07181 03963 16/// /2713 10082 2//// 30123 40152 52010 60022 333 10086 90710 91120 91309 90408 91314
AAXX 07181 03966 15968 /2504 10040 20021 30065 40160 52013 69912 333 10067
AAXX 07181 03967 32982 02307 10037 20016 30035 40151 51026 333 10057
AAXX 07181 03969 32580 22509 10037 20017 30038 40144 51025 82800 333 10060 81826
AAXX 07181 03973 11475 32303 10016 20016 39886 40147 51014 60032 72587 83300 333 10047 81917
AAXX 07181 03976 NIL
AAXX 07181 03980 17660 /2811 10066 20019 30066 40091 52024 60032 70385 83/// 333 10075 83/30 90710 91119
AAXX 07181 06407 12672 52814 10085 20005 30111 40117 52036 60002 85831 333 10096 83840 83656 91122 91217
AAXX 07181 06447 NIL
AAXX 07181 06431 NIL
AAXX 07181 06432 15/74 02607 10064 21009 30050 40127 53036 60052 333 10098 91118 91212
AAXX 07181 06449 12680 42706 10059 21021 39893 40123 52037 69902 84801 333 10088 81845 84656 91118 91209
AAXX 07181 06450 11670 62807 10076 20009 30082 40098 52035 60022 72522 86800 333 10093 82840 85656 91117 91212
AAXX 07181 06458 17782 /2608 10069 20001 39958 40112 51041 60012 72185 333 10091 81/50 87/57 91118 91213
AAXX 07181 06465 17675 /2707 10070 21002 30031 40097 51036 60052 781// 333 10088 81/44 83/50 85/56 91118 91211
AAXX 07181 06478 11680 32607 10055 20004 39885 40106 52035 69992 70381 82802 333 10086 82842 91117 91213
AAXX 07181 06496 17573 /2706 10020 21008 39418 40099 51031 60102 721// 333 10050 81/31 83/38 91119 91211
AAXX 07181 06400 32578 52712 10086 21015 30114 40125 53038 84831 333 10105 82830 83650 91121 91215
AAXX 07181 06428 15777 /2806 10076 21013 30069 40118 52036 69942 333 10096 83/50 91115 91209
AAXX 07181 06451 11575 72710 10073 21009 30041 40108 51037 60012 72511 868// 333 10091 81825 86657 91120 91215
AAXX 07181 06456 12680 22809 10053 21006 39761 40131 53039 60042 82201 333 10084 82838 91118 91213
AAXX 07181 06476 15578 72807 10032 21015 39456 40124 52034 60042 333 10062 81/26 83/29 85/34 91117 91209
AAXX 07181 06479 11775 52406 10064 20003 30009 40089 52032 60032 70298 85501 333 10094 85650 91118 91211
AAXX 07181 06490 17577 32806 10033 21008 39531 40106 52029 60112 70064 333 10055 82/30 83/37 91117 91209
AAXX 07181 06590 11358 72910 10036 20021 39664 40120 52035 60072 78086 878// 333 10070 83707 84812 86627 91119 91211
BBXX 44097 07181 99410 70711 46/// ///// 1//// 91802 22200 00131 10903 20903 316// 41101 70016
AAXX 07181 11423 01470 72710 11002 21004 39167 42675 51030 60092 78587 878// 333 10006 44019 69945 81810 87613 91015 91117
AAXX 07181 11010 01682 72407 10058 20033 39691 40068 53012 60112 72162 333 10067 69935 82633 84646 86359 91119 91213
AAXX 07181 11012 17/// /2308 10049 20033 39605 40073 53017 60092 7408/ 333 10066 20010 55300 91115
AAXX 07181 11022 11560 62605 10049 20021 39653 40038 55007 60012 78062 86800 333 10050 21012 55300 85825
AAXX 07181 11035 11670 82405 10064 20045 39793 40044 57016 60022 76062 8657/ 333 10068 20022 86640 87360
AAXX 07181 11036 01675 71907 10051 20022 39831 40054 57014 60022 78086 333 10061 69915 83642 83657 86358
AAXX 07181 11101 11460 82703 10073 20053 39629 40155 52031 60012 76366 887// 333 10092 20036 88719
AAXX 07181 11120 01157 82804 10010 20005 39413 40129 52001 60082 76376 333 10012 69965 81703 83615 86625
AAXX 07181 11126 17/// /3014 11041 21041 37653 48415 52006 69962 7408/ 333 11041 21079 55300 91127
AAXX 07181 11130 17/// /0403 10038 20027 39533 40124 53026 60172 7408/ 333 10038 20006 55300
AAXX 07181 11146 11/00 92613 11108 21204 36834 47930 52002 60092 77174 89/00 333 91122 92613
AAXX 07181 11150 01360 82609 10047 20013 39566 40107 52033 60112 76396 333 10059 60045 81709 85625 88645 91017 91117 91210
AAXX 07181 11155 11/01 93019 11038 21052 38249 48384 53016 60242 77574 333 11003 21055 55300 89/02 91138
AAXX 07181 11157 11125 89901 10004 20002 39324 40103 53001 60192 76977 885// 333 10006 82703 84662 88675
AAXX 07181 11172 NIL
AAXX 07181 11190 11665 82505 10050 20013 39836 40070 58005 69932 72522 885// 333 10056 21003 55300
AAXX 07181 11204 17/// /0901 10010 20004 39331 40132 58009 60022 7404/ 333 10013 21045 55300
AAXX 07181 11212 31/00 92514 11065 21076 37741 48421 55002 74943 333 11059 91119 92610
AAXX 07181 11231 32458 79901 11009 21013 39540 40124 57010 333 10006 81710 84362 85470
AAXX 07181 11240 32765 79901 10002 21009 39640 40085 55014 333 10025 83656 87462
AAXX 07181 11244 16/// /3401 10011 21007 39752 40085 58017 60002 333 10040 21042 55300
AAXX 07181 11389 11550 82108 10055 20033 39730 40054 57006 60032 70262 885// 333 10058 20011 55300 91114
BBXX 46247 07181 99378 71228 46/// ///// 1//// 91751 22200 00117 11302 20701 330// 41301 70008
BBXX 46243 07181 99462 71241 46/// ///// 1//// 91759 22200 00084 11102 21001 327// 41101 70010
BBXX 46236 07181 99368 71219 46/// ///// 1//// 91750 22200 00116 11102 20801 328// 41101 70008
BBXX 46229 07181 99438 71246 46/// ///// 1//// 91751 22200 00108 11203 20602 329// 41202 70015
BBXX 46225 07181 99329 71174 46/// ///// 1//// 91744 22200 00155 11501 20901 320// 41501 70005
BBXX 46213 07181 99403 71247 46/// ///// 1//// 91754 22200 00103 11302 21002 331// 41302 70011
BBXX 46215 07181 99352 71209 46/// ///// 1//// 91738 22200 00136 11301 20901 325// 41301 70007
AAXX 07184 85032 32465 53210 10315 20231 39920 40080 57040 83230 333 56770 58010 83817 85358
AAXX 07184 85043 32465 63606 10326 20235 39908 40069 57035 86900 333 56800 59022 85817 81920
AAXX 07184 85104 11458 60904 10261 20248 39905 40065 57034 60021 71798 85904 333 56706 59007 84817 81920 86070 96015
AAXX 07184 85109 11558 60906 10270 20246 39912 40072 57028 60101 71792 85904 333 56206 59008 84820 81923 86070 96015
AAXX 07184 85114 11430 83010 10250 20250 39922 40085 57025 60201 79596 8792/ 333 56779 59009 86615 81923 88457
AAXX 07184 85116 31458 62204 10338 20237 39888 40065 57041 71522 86900 333 56500 59027 85817 81923
AAXX 07184 85123 31558 73212 10303 20246 39902 40066 57033 71522 84904 333 56706 58000 83820 81925 86070
AAXX 07184 85139 31458 63506 10340 20255 39840 40030 57038 71522 84904 333 56706 59008 83817 81923 86070
AAXX 07184 85153 31458 63206 10256 20223 39894 40077 57024 71522 85901 333 56706 59006 84817 81923 86070
AAXX 07184 85154 11458 73008 10272 20228 39892 40069 57030 69931 71582 85906 333 56706 59011 83817 82920 87270
BBXX 46218 07181 99345 71208 46/// ///// 1//// 91802 22200 00140 11302 20802 330// 41302 70011
AAXX 07184 85041 32570 63008 10310 20244 39808 40071 57032 85231 333 56706 58000 85820 85070
AAXX 07184 85140 11458 30000 10282 20256 39876 40084 57024 60011 71582 83200 333 56700 59010 83817
AAXX 07184 85141 32484 43608 10317 20257 39848 40076 57025 84101 333 56700 59005 84817 84070
AAXX 07184 85151 NIL
AAXX 07184 85152 32584 43304 10326 20243 39838 40073 57030 84200 333 56700 59010 84820
AAXX 07184 85201 11465 62212 10140 20043 36281 57012 69911 71798 85332 333 56000 58003 83817 82920 83070
AAXX 07184 85230 NIL
AAXX 07184 85242 32584 40000 10208 21011 36534 57019 84200 333 56100 58004 83820 81823
BBXX 44099 07181 99369 70757 46/// ///// 1//// 91752 22200 00138 11002 21002 309// 41101 70011
OOXX AAUNI 07184 99798 50833 56093 07671 46/// /1402 11076 21202 38919 49799 57002 91800
AAXX 07181 01037 16/// /1602 11115 21125 39931 49937 52025 60002 333 11016 91104
AAXX 07181 01065 11689 60000 11097 21109 39773 49939 53023 60012 70221 86500 333 11083 91101
AAXX 07181 01092 46/// /2506 10006 21060 333 10017 91113
AAXX 07181 01245 11670 50401 11056 21085 39244 49959 53018 69922 70122 85400 333 11027 91104
AAXX 07181 01329 11985 30203 11011 21050 39892 49953 53028 60002 70221 80005 333 11002 91115
AAXX 07181 01337 16/// /0601 11099 21116 39906 49975 53027 60002 333 11091 91103
AAXX 07181 01389 11987 10801 11118 21134 39631 49955 53025 60002 70282 80002 333 11080 91104
AAXX 07181 01436 11485 20202 11001 21070 60002 70210 81361 333 10027 91111
AAXX 07181 01015 46/// /1705 10002 21030 333 10026 91111
AAXX 07181 01228 46/// /3009 10044 21024 39925 49932 53007 333 10044 91112
AAXX 07181 01340 16/// /1403 11103 21133 39084 49982 53022 60002 333 11098 91106
AAXX 07181 01425 16/// /3402 11059 21066 39872 49954 52033 6//// 333 11038 91103
AAXX 07181 01156 16/// /0604 10002 21039 39924 49933 53024 60002 333 10002 91109
AAXX 07181 01265 16/// /0000 11158 21174 39370 49984 53023 60002 333 11118 91103
AAXX 07181 01273 16/// /1402 11030 21046 39746 49944 53021 60042 333 10006 91105
AAXX 07181 01375 16/// /3207 11080 21105 6//// 333 11055 91112
AAXX 07181 01440 46/// /0402 11098 21110 38658 49969 52025 333 11074 91105
AAXX 07181 01467 46/// /0102 11005 21049 39931 49936 53023 333 10008 91105
AAXX 07181 01469 16/// /3602 11056 21075 39771 49947 52024 60002 333 11029 91104
AAXX 07181 01046 11989 31504 11031 21081 39923 49930 53026 60002 70110 80004 333 11005 91108
AAXX 07181 01380 11889 12902 11104 21123 60002 70210 81040 333 11044 4/011 91110
AAXX 07184 89532 42/65 22904 11051 21085 39860 49887 53010 82830
AAXX 07181 01192 16/// /2701 11044 21087 60002 333 11010 4/005 91103
AAXX 07181 01257 11482 31903 11010 21041 39779 49941 52018 60022 70300 83160 333 10008 91106
AAXX 07181 01277 16/// /0000 11026 21033 60022 333 10005 91101
AAXX 07181 01370 16/// /3001 11086 21118 38849 40047 53019 60002 333 11045 4/011 91109
AAXX 07181 01419 16/// /0403 11046 21067 60002 333 11022 91105
AAXX 07181 01455 16/// /0501 11076 21092 39638 49957 53027 60002 333 11027 91102
AAXX 07181 37682 32997 03601 11104 21140 38148 48540 54000 333 10010
AAXX 07181 37717 329// 00000 11050 21095 38093 48524 57001 333 10013
AAXX 07181 37788 41995 00000 11054 21087 39247 40299 54000 71000 333 10052
BBXX 44100 07181 99363 70756 46/// ///// 1//// 91752 22200 00148 11202 20902 308// 41201 70011
BBXX 41110 07181 99341 70777 46/// ///// 1//// 91751 22200 00159 10602 20602 312// 41101 70012
BBXX 42099 07181 99273 70842 46/// ///// 1//// 91757 22200 00245 10402 20402 70009
BBXX 41113 07181 99284 70805 46/// ///// 1//// 91751 22200 00226 11102 20901 310// 41101 70008
BBXX 41112 07181 99307 70813 46/// ///// 1//// 91751 22200 00172 11002 21002 310// 41201 70011
AAXX 07184 78947 12580 71205 10274 20236 30107 40110 60001 70222 878// 333 06299 10287 20240 58015 79999 81918 87642
AAXX 07181 76040 32960 03302 10122 21011 30249 40264 52001 80002 91745 333 10166 20010 30/// 56003 59028 82078 98660
AAXX 07181 76055 32980 03310 10161 21158 30213 40232 57004 91740 333 10172 20085 30/// 59047
AAXX 07181 76113 32980 00301 10122 21050 39722 40200 57001 91745 333 10128 20024 30/// 59032
AAXX 07181 76122 32580 51102 10056 20004 38594 40316 57006 81227 91750 333 10066 21074 30/// 56599 59008 81835
AAXX 07181 76123 06/// /1107 10066 21054 3//// 4//// 5//// 69922 7//// 8//// 91750 333 0//// 10066 21082 56/// 57/// 5//// 69927 8//// 8//// 8//// 8//// 9//// 9//// 9//// 444 ///// 555
AAXX 07181 76220 32858 20000 10030 21030 38193 40342 57017 82060 91740 333 10030 21096 31/// 56060 58024
AAXX 07181 76225 32960 00901 10087 21010 38696 40302 57011 91745 333 10087 21061 30/// 58012
AAXX 07181 76226 06/// /1001 10099 21048 38689 40223 58012 60002 7//// 8//// 91750 333 0//// 10100 21071 30/// 4//// 54/// 56/// 57/// 58010 60007 8//// 8//// 8//// 9//// 9//// 9//// 44
AAXX 07181 76242 06/// /2004 10136 21035 39999 40245 58013 60002 7//// 8//// 91750 333 0//// 10136 21028 30/// 4//// 54/// 56/// 57/// 58011 60007 8//// 8//// 8//// 9//// 9//// 9//// 44
AAXX 07181 76243 32973 31802 10118 21015 30004 40317 57009 80006 91740 333 10124 21035 30/// 56006 58021 83070
AAXX 07181 76256 32980 33206 10146 21003 30190 40204 52005 83/3/ 91745 333 10160 20070 30/// 56/5/ 59029 83360
AAXX 07181 76258 32870 13206 10168 20015 30133 40180 54000 81030 91750 333 10170 20034 30/// 56050 59023
AAXX 07181 76305 32970 13405 10188 20064 30186 40194 52007 81030 91740 333 10191 20115 30/// 56050 59020 81358
AAXX 07181 76323 32970 11801 10112 21036 38229 40359 57012 80001 91755 333 10117 21052 30/// 58015
AAXX 07181 76342 32962 00302 10120 20029 39593 40343 57016 91750 333 10128 21002 30/// 58012
AAXX 07181 76373 32970 30000 10126 21095 38253 40210 58007 80004 91750 333 10137 21052 30/// 56009 58031 83067
AAXX 07181 76382 32980 10201 10128 20047 38990 40289 57002 80004 91750 333 10138 20031 56003 30/// 58049 81076
AAXX 07181 76390 31968 42105 10117 21026 38286 40292 57001 70544 80001 91730 333 10130 21025 30/// 56008 58051 84070
AAXX 07181 76393 31910 61202 10116 20036 39699 40304 57012 70544 80001 91750 333 10132 20036 30/// 56005 58035 86070
AAXX 07181 76402 31958 00000 10204 20059 30126 40184 52005 70544 91745 333 10205 20056 30/// 59011
AAXX 07181 76423 32975 51201 10132 21050 38198 40257 58006 80005 91745 333 10147 21012 30/// 56009 58037 85067
AAXX 07181 76458 32970 62503 10233 20147 30157 40161 58001 80006 91740 333 10243 20114 30/// 56//9 58006 86070
AAXX 07181 76471 32980 30903 10152 21091 37724 40206 57001 80001 91750 333 10257 20022 30/// 56001 58027 83075
AAXX 07181 76490 06/// /0502 10150 20005 39896 40295 58015 60002 7//// 8//// 91750 333 0//// 10150 20077 30/// 54/// 56/// 57/// 58047 60007 8//// 8//// 8//// 8//// 9//// 9//// 9//// 44
AAXX 07181 76491 32860 33601 10136 20035 39913 40321 57011 81034 91745 333 10145 20078 30/// 56099 58052 81362 82077
AAXX 07181 76499 32960 03403 10165 20007 30281 40303 57008 91740 333 10166 20089 30/// 58058
AAXX 07181 76519 32960 60602 10204 21080 38384 40210 57003 80002 91750 333 10207 20014 30/// 56006 58021 86070
AAXX 07181 76525 32460 40904 10076 20042 37497 40203 52004 84600 91745 333 10078 20053 30/// 563// 58024 84714
AAXX 07181 76538 06/// /0503 10120 20068 38204 40211 58003 60002 7//// 8//// 91750 333 0//// 10120 20082 30/// 4//// 54/// 56/// 57/// 58038 60007 8//// 8//// 8//// 9//// 9//// 9//// 44
AAXX 07181 76539 31560 80301 10110 20058 38205 40247 52012 70544 886// 91745 333 10120 20080 30/// 562// 58035 88721
AAXX 07181 76543 32675 82901 10148 20056 30291 40324 55009 8457/ 91736 333 10150 20117 30/// 5688/ 58081 84650 84358
AAXX 07181 76547 06/// /0203 10161 20019 30287 40299 58011 60002 7//// 8//// 91750 333 0//// 10162 20123 56/// 57/// 58077 60007 8//// 8//// 8//// 8//// 9//// 9//// 9//// 444 ///// 555
AAXX 07181 76548 32875 80202 10156 20021 30301 40311 50007 88070 91740 333 10158 20120 30/// 56050 58076 88358
AAXX 07181 76556 32970 20000 10242 20090 39131 40169 50007 80001 91730 333 10254 20105 30/// 56005 58008 82070
AAXX 07181 76571 32870 43602 10162 20077 38194 40210 57008 80004 91750 333 10166 20074 30/// 56005 58030
AAXX 07181 76577 32970 82304 10191 20154 38061 40185 58003 80004 91740 333 10199 20070 30/// 56005 58017 88081
AAXX 07181 76578 06/// /2305 10193 20047 38057 40120 58005 60002 7//// 8//// 91750 333 0//// 10193 20072 30/// 4//// 54/// 56/// 57/// 58016 60007 8//// 8//// 8//// 9//// 9//// 9//// 44
AAXX 07181 76581 12575 81403 10093 20064 39137 40286 57005 69901 82720 91750 333 10102 20060 30/// 56220 58079 82730 86460
AAXX 07181 76585 32980 80000 10133 20088 30142 40304 58008 8802/ 91740 333 10135 20099 31/// 56/8/ 58078 88458
AAXX 07181 76586 06/// /0801 10141 20067 30143 40304 58008 60002 7//// 8//// 91750 333 0//// 10142 20096 30/// 4//// 54/// 56/// 57/// 58077 60007 8//// 8//// 8//// 9//// 9//// 9//// 44
AAXX 07181 76592 06/// /3612 10250 20200 30199 40199 58008 60002 7//// 8//// 91750 333 0//// 10282 20216 30/// 4//// 54/// 56/// 57/// 58036 60007 8//// 8//// 8//// 9//// 9//// 9//// 44
AAXX 07181 76593 01370 53607 10250 20231 30200 40202 58006 69901 70205 82460 91750 333 10282 20216 30/// 5688/ 58035 69907 82620 83330
AAXX 07181 76625 32450 50907 10166 20087 38154 40152 57013 85400 91740 333 10166 20097 30/// 56200 58013 85620
AAXX 07181 76632 31950 01104 10154 20084 37646 40147 57009 70500 91750 333 10182 20084 30/// 58015 98550
AAXX 07181 76634 31165 12902 10134 20086 37879 40240 57009 70511 81700 91750 333 10136 20048 30/// 560// 58018 81791
AAXX 07181 76641 06/// /1002 10156 20086 30291 40303 58006 60002 7//// 8//// 91750 333 0//// 10161 20128 30/// 4//// 54/// 56/// 57/// 58081 60007 8//// 8//// 8//// 8//// 9//// 9//// 9/
AAXX 07181 76644 32465 43605 10270 20224 30181 40194 57012 83201 91750 333 10289 20216 30/// 568/9 58034 83810 91005 91536
AAXX 07181 76645 06/// /3406 10271 20208 30184 40197 58013 60002 7//// 8//// 91750 333 0//// 10288 20219 30/// 4//// 54/// 56/// 57/// 58031 60007 8//// 8//// 8//// 9//// 9//// 9//// 44
AAXX 07181 76648 06/// /3503 10310 20181 30150 40180 58019 60002 7//// 8//// 91750 333 0//// 10313 20201 30/// 4//// 54/// 56/// 57/// 58027 60007 8//// 8//// 8//// 8//// 9//// 9//// 9/
AAXX 07181 76654 31956 02301 10287 20207 30154 40158 57002 70544 91755 333 10289 20216 30/// 59002
AAXX 07181 76656 31975 11302 10242 20115 38519 40180 57010 70244 80008 91750 333 10250 20060 30/// 56005 58010 81280
AAXX 07181 76658 31940 12702 10277 20161 39642 40149 57009 70540 80001 91745 333 10288 20172 30/// 56001 59001 81070 98924
AAXX 07181 76662 31970 22801 10226 20109 38475 40177 57005 70540 80004 91740 333 10238 20060 30/// 5600/ 58013 82070
AAXX 07181 76665 32962 03601 10225 20120 38137 40173 57010 91750 333 10235 20077 30/// 58030
AAXX 07181 76675 31570 30503 10196 2001 37391 40191 57007 70544 80004 91754 333 10204 20007 30/// 56//9 58011 98470
AAXX 07181 76680 31956 00803 10195 20076 37765 40101 57012 70400 91750 333 10196 20090 30/// 58014
AAXX 07181 76681 31950 00501 10206 20095 37794 40172 58010 70540 91740 333 10206 20052 30/// 58014
AAXX 07181 76683 31965 11201 10182 20079 37846 40223 56017 70544 80005 91745 333 10190 20064 30/// 56005 58012 81080
AAXX 07181 76684 06/// /1103 10197 20039 37847 40130 58017 60002 7//// 8//// 91750 333 0//// 10197 20055 30/// 4//// 54/// 56/// 57/// 58014 60007 8//// 8//// 8//// 9//// 9//// 9//// 44
AAXX 07181 76687 31460 83601 10142 20099 38741 40248 50001 71044 885// 91735 333 10147 20120 30/// 561// 58042 81717 87619
AAXX 07181 76692 31456 83608 10209 20138 30227 40246 58001 70733 8727/ 91745 333 10227 20200 30/// 5688/ 58065 82817 85640 91117 91536
AAXX 07181 76693 06/// /3408 10209 20143 30225 40244 58004 60002 7//// 8//// 91750 333 0//// 10227 20199 30/// 4//// 56/// 57/// 58064 60007 8//// 8//// 8//// 8//// 9//// 9//// 9//// 44
AAXX 07181 76695 32460 43305 10272 20228 30177 40183 57011 83250 91750 333 10276 20190 30/// 5680/ 58032 83815 81360 91008 91533
AAXX 07181 76698 32560 30101 10279 20251 30170 40182 57016 83200 91755 333 10293 20210 30/// 56800 58027 83820
AAXX 07181 76726 32970 01801 10218 20097 38428 40168 57010 91750 333 10218 20126 30/// 58010
AAXX 07181 76727 06/// /1601 10228 20053 38417 40108 58010 60002 7//// 8//// 91750 333 0//// 10234 20130 30/// 4//// 54/// 56/// 57/// 58013 60007 8//// 8//// 8//// 9//// 9//// 9//// 44
AAXX 07181 76737 01365 80000 10146 20136 38834 40233 50004 69981 75052 8672/ 91735 333 10184 20140 31/// 5629/ 58043 69987 86707 91105 91514
AAXX 07181 76738 06/// /1502 10141 20133 38835 40236 58001 60012 7//// 8//// 333 10154 20139 30/// 56/// 57/// 58044 60017 8//// 8//// 8//// 8//// 9//// 9//// 9//// 444 ///// 555 30188
AAXX 07181 76743 31457 83202 10251 20225 30184 40192 58014 70222 885// 91745 333 10260 20230 30/// 561// 58039 88613
AAXX 07181 76750 32560 73204 10273 20223 30170 40180 57012 84620 91750 333 10281 20208 31/// 56880 58026 84820 83357
AAXX 07181 76751 06/// /3402 10267 20226 30170 40180 58012 60002 7//// 8//// 91750 333 0//// 10283 20212 30/// 4//// 54/// 56/// 57/// 58026 60007 8//// 8//// 8//// 9//// 9//// 9//// 44
AAXX 07181 76762 32904 33601 10270 20210 38772 40157 56008 80002 91735 333 10274 20128 30/// 56006 58009 83070
AAXX 07181 76772 06/// /1008 10215 20088 38448 40141 58011 60002 7//// 8//// 91750 333 0//// 10224 20056 30/// 4//// 56/// 57/// 58017 60007 8//// 8//// 8//// 9//// 9//// 9//// 444 ////
AAXX 07181 76773 32570 20906 10214 20090 38444 40198 57012 81204 91745 333 10218 20041 30/// 56209 58016 81820
AAXX 07181 76775 31462 32702 10239 20086 38552 40211 57013 70300 83200 91730 333 10241 20074 30/// 56800 57683 58016 82620 81820
AAXX 07181 76776 06/// /3602 10236 20079 38533 40130 58017 60002 7//// 8//// 91750 333 0//// 10237 20068 30/// 4//// 56/// 57/// 58016 60007 8//// 8//// 8//// 9//// 9//// 9//// 444 ////
AAXX 07181 76805 32970 40201 10312 20204 30131 40137 58012 80001 91750 333 10326 20200 30/// 56//7 59005 82162 82063
AAXX 07181 76806 06/// /0101 10319 20203 30129 40133 58014 60002 7//// 8//// 91750 333 10324 20198 30/// 56/// 57/// 59004 60007 8//// 8//// 8//// 8//// 9//// 9//// 9//// 555 30274
AAXX 07181 76833 32970 03614 10294 20234 30141 40143 57017 91745 333 10294 20241 30/// 58025 92001
AAXX 07181 76840 32550 23603 10294 20186 30098 40153 57007 82100 91740 333 10300 20167 30/// 568// 58040 82827
AAXX 07181 76843 32565 70202 10228 20179 39530 40174 57012 83770 91745 333 0/79/ 10234 20188 30/// 58037 83820 84360
AAXX 07181 76845 32460 70403 10132 20109 37976 40205 58005 87600 91748 333 10154 20090 30/// 56100 58025 87710
AAXX 07181 76848 11670 43602 10203 20102 38405 40136 57008 69901 70250 84200 91750 333 10205 20103 30/// 56100 58020 84842
AAXX 07181 76902 06/// /2102 10325 20207 39990 40125 58020 60002 7//// 8//// 91750 333 0//// 10326 20219 30/// 4//// 54/// 56/// 57/// 58012 60007 8//// 8//// 8//// 8//// 9//// 9//// 9/
AAXX 07181 76903 31682 22101 10320 20206 39993 40123 57018 70400 82200 91735 333 10329 20222 30/// 56200 58014 81834 81650
AAXX 07181 76253 32782 20503 10164 20078 30124 40214 54002 82/3/ 91755 333 10170 20120 30/// 59028 82357 92002
AAXX 07181 76311 32980 00000 10214 20067 39876 40161 56007 91750 333 10216 20052 30/// 59023
AAXX 07181 76405 32680 13604 10219 20133 30164 40186 57001 81200 91750 333 10219 20170 30/// 56800 59015 81840
AAXX 07181 76412 31966 00000 10186 20099 30145 40191 52001 70544 91738 333 10194 20070 30/// 58001
AAXX 07181 76640 31458 83603 10150 20113 30310 40322 52005 70222 8372/ 91740 333 10164 20114 31/// 5679/ 58084 83715 85440
AAXX 07181 76647 32670 43603 10307 20200 30164 40194 57016 84200 91750 333 10309 20200 30/// 56800 58031 84844
AAXX 07181 76741 01340 83615 10208 20196 30175 40193 57006 60071 76066 85720 91730 333 10232 20186 32/// 5688/ 58046 60037 83710 82811 91117 91536
AAXX 07181 76855 32980 02003 10308 20206 30074 40123 58006 91745 333 10320 20194 30/// 58002 92000
AAXX 07181 45007 11537 63407 10207 20171 30164 40173 58005 60001 70522 86501 333 59006 82622 84656
AAXX 07181 45007 11537 63407 10207 20171 30164 40173 58005 60001 70522 86501 333 59006 82622 84656
AAXX 07181 76040 32960 03302 10122 21011 30249 40264 52001 80002 91745 333 10166 20010 30/// 56003 59028 82078 98660
AAXX 07181 76055 32980 03310 10161 21158 30213 40232 57004 91740 333 10172 20085 30/// 59047
AAXX 07181 76113 32980 00301 10122 21050 39722 40200 57001 91745 333 10128 20024 30/// 59032
AAXX 07181 76122 32580 51102 10056 20004 38594 40316 57006 81227 91750 333 10066 21074 30/// 56599 59008 81835
AAXX 07181 76123 06/// /1107 10066 21054 3//// 4//// 5//// 69922 7//// 8//// 91750 333 0//// 10066 21082 56/// 57/// 5//// 69927 8//// 8//// 8//// 8//// 9//// 9//// 9//// 444 ///// 555
AAXX 07181 76220 32858 20000 10030 21030 38193 40342 57017 82060 91740 333 10030 21096 31/// 56060 58024
AAXX 07181 76225 32960 00901 10087 21010 38696 40302 57011 91745 333 10087 21061 30/// 58012
AAXX 07181 76226 06/// /1001 10099 21048 38689 40223 58012 60002 7//// 8//// 91750 333 0//// 10100 21071 30/// 4//// 54/// 56/// 57/// 58010 60007 8//// 8//// 8//// 9//// 9//// 9//// 44
AAXX 07181 76242 06/// /2004 10136 21035 39999 40245 58013 60002 7//// 8//// 91750 333 0//// 10136 21028 30/// 4//// 54/// 56/// 57/// 58011 60007 8//// 8//// 8//// 9//// 9//// 9//// 44
AAXX 07181 76243 32973 31802 10118 21015 30004 40317 57009 80006 91740 333 10124 21035 30/// 56006 58021 83070
AAXX 07181 76256 32980 33206 10146 21003 30190 40204 52005 83/3/ 91745 333 10160 20070 30/// 56/5/ 59029 83360
AAXX 07181 76258 32870 13206 10168 20015 30133 40180 54000 81030 91750 333 10170 20034 30/// 56050 59023
AAXX 07181 76305 32970 13405 10188 20064 30186 40194 52007 81030 91740 333 10191 20115 30/// 56050 59020 81358
AAXX 07181 76323 32970 11801 10112 21036 38229 40359 57012 80001 91755 333 10117 21052 30/// 58015
AAXX 07181 76342 32962 00302 10120 20029 39593 40343 57016 91750 333 10128 21002 30/// 58012
AAXX 07181 76373 32970 30000 10126 21095 38253 40210 58007 80004 91750 333 10137 21052 30/// 56009 58031 83067
AAXX 07181 76382 32980 10201 10128 20047 38990 40289 57002 80004 91750 333 10138 20031 56003 30/// 58049 81076
AAXX 07181 76390 31968 42105 10117 21026 38286 40292 57001 70544 80001 91730 333 10130 21025 30/// 56008 58051 84070
AAXX 07181 76393 31910 61202 10116 20036 39699 40304 57012 70544 80001 91750 333 10132 20036 30/// 56005 58035 86070
AAXX 07181 76402 31958 00000 10204 20059 30126 40184 52005 70544 91745 333 10205 20056 30/// 59011
AAXX 07181 76423 32975 51201 10132 21050 38198 40257 58006 80005 91745 333 10147 21012 30/// 56009 58037 85067
AAXX 07181 76458 32970 62503 10233 20147 30157 40161 58001 80006 91740 333 10243 20114 30/// 56//9 58006 86070
AAXX 07181 76471 32980 30903 10152 21091 37724 40206 57001 80001 91750 333 10257 20022 30/// 56001 58027 83075
AAXX 07181 76490 06/// /0502 10150 20005 39896 40295 58015 60002 7//// 8//// 91750 333 0//// 10150 20077 30/// 54/// 56/// 57/// 58047 60007 8//// 8//// 8//// 8//// 9//// 9//// 9//// 44
AAXX 07181 76491 32860 33601 10136 20035 39913 40321 57011 81034 91745 333 10145 20078 30/// 56099 58052 81362 82077
AAXX 07181 76499 32960 03403 10165 20007 30281 40303 57008 91740 333 10166 20089 30/// 58058
AAXX 07181 76519 32960 60602 10204 21080 38384 40210 57003 80002 91750 333 10207 20014 30/// 56006 58021 86070
AAXX 07181 76525 32460 40904 10076 20042 37497 40203 52004 84600 91745 333 10078 20053 30/// 563// 58024 84714
AAXX 07181 76538 06/// /0503 10120 20068 38204 40211 58003 60002 7//// 8//// 91750 333 0//// 10120 20082 30/// 4//// 54/// 56/// 57/// 58038 60007 8//// 8//// 8//// 9//// 9//// 9//// 44
AAXX 07181 76539 31560 80301 10110 20058 38205 40247 52012 70544 886// 91745 333 10120 20080 30/// 562// 58035 88721
AAXX 07181 76543 32675 82901 10148 20056 30291 40324 55009 8457/ 91736 333 10150 20117 30/// 5688/ 58081 84650 84358
AAXX 07181 76547 06/// /0203 10161 20019 30287 40299 58011 60002 7//// 8//// 91750 333 0//// 10162 20123 56/// 57/// 58077 60007 8//// 8//// 8//// 8//// 9//// 9//// 9//// 444 ///// 555
AAXX 07181 76548 32875 80202 10156 20021 30301 40311 50007 88070 91740 333 10158 20120 30/// 56050 58076 88358
AAXX 07181 76556 32970 20000 10242 20090 39131 40169 50007 80001 91730 333 10254 20105 30/// 56005 58008 82070
AAXX 07181 76571 32870 43602 10162 20077 38194 40210 57008 80004 91750 333 10166 20074 30/// 56005 58030
AAXX 07181 76577 32970 82304 10191 20154 38061 40185 58003 80004 91740 333 10199 20070 30/// 56005 58017 88081
AAXX 07181 76578 06/// /2305 10193 20047 38057 40120 58005 60002 7//// 8//// 91750 333 0//// 10193 20072 30/// 4//// 54/// 56/// 57/// 58016 60007 8//// 8//// 8//// 9//// 9//// 9//// 44
AAXX 07181 76581 12575 81403 10093 20064 39137 40286 57005 69901 82720 91750 333 10102 20060 30/// 56220 58079 82730 86460
AAXX 07181 76585 32980 80000 10133 20088 30142 40304 58008 8802/ 91740 333 10135 20099 31/// 56/8/ 58078 88458
AAXX 07181 76586 06/// /0801 10141 20067 30143 40304 58008 60002 7//// 8//// 91750 333 0//// 10142 20096 30/// 4//// 54/// 56/// 57/// 58077 60007 8//// 8//// 8//// 9//// 9//// 9//// 44
AAXX 07181 76592 06/// /3612 10250 20200 30199 40199 58008 60002 7//// 8//// 91750 333 0//// 10282 20216 30/// 4//// 54/// 56/// 57/// 58036 60007 8//// 8//// 8//// 9//// 9//// 9//// 44
AAXX 07181 76593 01370 53607 10250 20231 30200 40202 58006 69901 70205 82460 91750 333 10282 20216 30/// 5688/ 58035 69907 82620 83330
AAXX 07181 76625 32450 50907 10166 20087 38154 40152 57013 85400 91740 333 10166 20097 30/// 56200 58013 85620
AAXX 07181 76632 31950 01104 10154 20084 37646 40147 57009 70500 91750 333 10182 20084 30/// 58015 98550
AAXX 07181 76634 31165 12902 10134 20086 37879 40240 57009 70511 81700 91750 333 10136 20048 30/// 560// 58018 81791
AAXX 07181 76641 06/// /1002 10156 20086 30291 40303 58006 60002 7//// 8//// 91750 333 0//// 10161 20128 30/// 4//// 54/// 56/// 57/// 58081 60007 8//// 8//// 8//// 8//// 9//// 9//// 9/
AAXX 07181 76644 32465 43605 10270 20224 30181 40194 57012 83201 91750 333 10289 20216 30/// 568/9 58034 83810 91005 91536
AAXX 07181 76645 06/// /3406 10271 20208 30184 40197 58013 60002 7//// 8//// 91750 333 0//// 10288 20219 30/// 4//// 54/// 56/// 57/// 58031 60007 8//// 8//// 8//// 9//// 9//// 9//// 44
AAXX 07181 76648 06/// /3503 10310 20181 30150 40180 58019 60002 7//// 8//// 91750 333 0//// 10313 20201 30/// 4//// 54/// 56/// 57/// 58027 60007 8//// 8//// 8//// 8//// 9//// 9//// 9/
AAXX 07181 76654 31956 02301 10287 20207 30154 40158 57002 70544 91755 333 10289 20216 30/// 59002
AAXX 07181 76656 31975 11302 10242 20115 38519 40180 57010 70244 80008 91750 333 10250 20060 30/// 56005 58010 81280
AAXX 07181 76658 31940 12702 10277 20161 39642 40149 57009 70540 80001 91745 333 10288 20172 30/// 56001 59001 81070 98924
AAXX 07181 76662 31970 22801 10226 20109 38475 40177 57005 70540 80004 91740 333 10238 20060 30/// 5600/ 58013 82070
AAXX 07181 76665 32962 03601 10225 20120 38137 40173 57010 91750 333 10235 20077 30/// 58030
AAXX 07181 76675 31570 30503 10196 2001 37391 40191 57007 70544 80004 91754 333 10204 20007 30/// 56//9 58011 98470
AAXX 07181 76680 31956 00803 10195 20076 37765 40101 57012 70400 91750 333 10196 20090 30/// 58014
AAXX 07181 76681 31950 00501 10206 20095 37794 40172 58010 70540 91740 333 10206 20052 30/// 58014
AAXX 07181 76683 31965 11201 10182 20079 37846 40223 56017 70544 80005 91745 333 10190 20064 30/// 56005 58012 81080
AAXX 07181 76684 06/// /1103 10197 20039 37847 40130 58017 60002 7//// 8//// 91750 333 0//// 10197 20055 30/// 4//// 54/// 56/// 57/// 58014 60007 8//// 8//// 8//// 9//// 9//// 9//// 44
AAXX 07181 76687 31460 83601 10142 20099 38741 40248 50001 71044 885// 91735 333 10147 20120 30/// 561// 58042 81717 87619
AAXX 07181 76692 31456 83608 10209 20138 30227 40246 58001 70733 8727/ 91745 333 10227 20200 30/// 5688/ 58065 82817 85640 91117 91536
AAXX 07181 76693 06/// /3408 10209 20143 30225 40244 58004 60002 7//// 8//// 91750 333 0//// 10227 20199 30/// 4//// 56/// 57/// 58064 60007 8//// 8//// 8//// 8//// 9//// 9//// 9//// 44
AAXX 07181 76695 32460 43305 10272 20228 30177 40183 57011 83250 91750 333 10276 20190 30/// 5680/ 58032 83815 81360 91008 91533
AAXX 07181 76698 32560 30101 10279 20251 30170 40182 57016 83200 91755 333 10293 20210 30/// 56800 58027 83820
AAXX 07181 76726 32970 01801 10218 20097 38428 40168 57010 91750 333 10218 20126 30/// 58010
AAXX 07181 76727 06/// /1601 10228 20053 38417 40108 58010 60002 7//// 8//// 91750 333 0//// 10234 20130 30/// 4//// 54/// 56/// 57/// 58013 60007 8//// 8//// 8//// 9//// 9//// 9//// 44
AAXX 07181 76737 01365 80000 10146 20136 38834 40233 50004 69981 75052 8672/ 91735 333 10184 20140 31/// 5629/ 58043 69987 86707 91105 91514
AAXX 07181 76738 06/// /1502 10141 20133 38835 40236 58001 60012 7//// 8//// 333 10154 20139 30/// 56/// 57/// 58044 60017 8//// 8//// 8//// 8//// 9//// 9//// 9//// 444 ///// 555 30188
AAXX 07181 76743 31457 83202 10251 20225 30184 40192 58014 70222 885// 91745 333 10260 20230 30/// 561// 58039 88613
AAXX 07181 76750 32560 73204 10273 20223 30170 40180 57012 84620 91750 333 10281 20208 31/// 56880 58026 84820 83357
AAXX 07181 76751 06/// /3402 10267 20226 30170 40180 58012 60002 7//// 8//// 91750 333 0//// 10283 20212 30/// 4//// 54/// 56/// 57/// 58026 60007 8//// 8//// 8//// 9//// 9//// 9//// 44
AAXX 07181 76762 32904 33601 10270 20210 38772 40157 56008 80002 91735 333 10274 20128 30/// 56006 58009 83070
AAXX 07181 76772 06/// /1008 10215 20088 38448 40141 58011 60002 7//// 8//// 91750 333 0//// 10224 20056 30/// 4//// 56/// 57/// 58017 60007 8//// 8//// 8//// 9//// 9//// 9//// 444 ////
AAXX 07181 76773 32570 20906 10214 20090 38444 40198 57012 81204 91745 333 10218 20041 30/// 56209 58016 81820
AAXX 07181 76775 31462 32702 10239 20086 38552 40211 57013 70300 83200 91730 333 10241 20074 30/// 56800 57683 58016 82620 81820
AAXX 07181 76776 06/// /3602 10236 20079 38533 40130 58017 60002 7//// 8//// 91750 333 0//// 10237 20068 30/// 4//// 56/// 57/// 58016 60007 8//// 8//// 8//// 9//// 9//// 9//// 444 ////
AAXX 07181 76805 32970 40201 10312 20204 30131 40137 58012 80001 91750 333 10326 20200 30/// 56//7 59005 82162 82063
AAXX 07181 76806 06/// /0101 10319 20203 30129 40133 58014 60002 7//// 8//// 91750 333 10324 20198 30/// 56/// 57/// 59004 60007 8//// 8//// 8//// 8//// 9//// 9//// 9//// 555 30274
AAXX 07181 76833 32970 03614 10294 20234 30141 40143 57017 91745 333 10294 20241 30/// 58025 92001
AAXX 07181 76840 32550 23603 10294 20186 30098 40153 57007 82100 91740 333 10300 20167 30/// 568// 58040 82827
AAXX 07181 76843 32565 70202 10228 20179 39530 40174 57012 83770 91745 333 0/79/ 10234 20188 30/// 58037 83820 84360
AAXX 07181 76845 32460 70403 10132 20109 37976 40205 58005 87600 91748 333 10154 20090 30/// 56100 58025 87710
AAXX 07181 76848 11670 43602 10203 20102 38405 40136 57008 69901 70250 84200 91750 333 10205 20103 30/// 56100 58020 84842
AAXX 07181 76902 06/// /2102 10325 20207 39990 40125 58020 60002 7//// 8//// 91750 333 0//// 10326 20219 30/// 4//// 54/// 56/// 57/// 58012 60007 8//// 8//// 8//// 8//// 9//// 9//// 9/
AAXX 07181 76903 31682 22101 10320 20206 39993 40123 57018 70400 82200 91735 333 10329 20222 30/// 56200 58014 81834 81650
AAXX 07181 76253 32782 20503 10164 20078 30124 40214 54002 82/3/ 91755 333 10170 20120 30/// 59028 82357 92002
AAXX 07181 76311 32980 00000 10214 20067 39876 40161 56007 91750 333 10216 20052 30/// 59023
AAXX 07181 76405 32680 13604 10219 20133 30164 40186 57001 81200 91750 333 10219 20170 30/// 56800 59015 81840
AAXX 07181 76412 31966 00000 10186 20099 30145 40191 52001 70544 91738 333 10194 20070 30/// 58001
AAXX 07181 76640 31458 83603 10150 20113 30310 40322 52005 70222 8372/ 91740 333 10164 20114 31/// 5679/ 58084 83715 85440
AAXX 07181 76647 32670 43603 10307 20200 30164 40194 57016 84200 91750 333 10309 20200 30/// 56800 58031 84844
AAXX 07181 76741 01340 83615 10208 20196 30175 40193 57006 60071 76066 85720 91730 333 10232 20186 32/// 5688/ 58046 60037 83710 82811 91117 91536
AAXX 07181 76855 32980 02003 10308 20206 30074 40123 58006 91745 333 10320 20194 30/// 58002 92000
AAXX 07184 48356 32960 20000 10220 20197 39931 40130 57002 82030 333 58000
AAXX 07181 15015 02998 21603 10004 21028 39527 42740 58007 60002 80001 333 10047 21029 34005 60007 91005 91105 92600
AAXX 07181 15020 02997 02204 10042 21025 39932 40132 57003 60002 333 10099 21005 30014 60007 91007 91107
AAXX 07181 15090 01492 80602 11001 21001 30052 40147 58006 60002 74441 886// 333 10037 21034 34004 55300 10048 20002 3//// 60007 91003 91103
AAXX 07181 15108 02999 02708 11084 21084 38019 48456 58008 60002 333 11061 21086 3//// 43005 60007 92820
AAXX 07181 15120 01494 80601 11012 21012 39644 40156 58005 60002 71011 886// 333 10012 21050 34006 55300 10015 2//// 3//// 60007 91003 91104
AAXX 07181 15150 02997 01602 10010 20010 39936 40154 55004 60002 333 10051 21015 34007 60007 91004 91104
AAXX 07181 15170 01596 82002 11021 21026 39364 42759 57008 60002 71022 885// 333 11007 21021 31000 60007 91003 91103
AAXX 07181 15200 02997 41503 10023 20011 39989 40136 58017 60002 80002 333 10062 21029 31010 60007 91004 91104
AAXX 07181 15230 02997 02301 11023 21029 39864 40168 55002 60002 333 10058 21044 30009 55300 10201 20004 3//// 60007 91001 91102
AAXX 07181 15260 02997 01104 11025 21025 39616 40170 57003 60002 333 10061 21045 34/// 60007 91005 91105 92600
AAXX 07181 15280 01999 02708 11124 21181 37420 47945 58001 60002 73633 333 11107 21131 3//// 48022 60007 92912 92815
AAXX 07181 15292 02998 01502 10018 21023 39860 40161 55003 60002 333 10082 21032 30010 60007 91004 91104
AAXX 07181 15310 01995 21901 10026 20025 30073 40161 58002 60002 71011 80001 333 10077 20024 31010 55300 10237 20004 3//// 60007 91001 91104
AAXX 07181 15335 01496 52700 10017 20017 30157 40164 55001 60002 71022 85600 333 10063 20016 31010 60007 91001 91101
AAXX 07181 15346 02997 03502 10008 21004 39874 40172 54001 60002 333 10090 20000 31011 60007 91003 91103
AAXX 07181 15350 02997 02403 10022 20022 30042 40165 58003 60002 333 10077 20020 31011 60007 91004 91104
AAXX 07181 15360 01496 83302 10052 20046 30144 40159 52002 69992 71022 886// 222// 06086 20200 333 10065 20046 3//// 60007 91003 91103 92416
AAXX 07181 15410 02997 00000 10012 21004 30077 40176 55001 60002 333 10092 21013 30015 60007 91001 91101
AAXX 07181 15420 02997 02502 10020 20017 30052 40166 58002 69922 333 10068 20013 31011 55300 0//// 20000 3//// 60007 91002 91103
AAXX 07181 15450 02997 02201 10026 20019 39931 40171 57002 60002 333 10088 20017 31013 55300 10215 20004 3//// 60007 91002 91103
AAXX 07181 15460 01596 82602 10053 20038 30142 40167 50002 60012 71022 8457/ 333 10058 20044 31008 60007 91004 91104
AAXX 07181 15470 02997 02301 10021 20020 30044 40173 52002 60002 333 10071 21007 31009 60007 91002 91104
AAXX 07181 15480 01497 83301 10058 20051 30147 40165 50006 69902 70265 886// 222// 06086 2//// 333 10072 20047 31011 60007 91003 91103 92417
AAXX 07181 26038 01364 71605 10014 20007 39928 49969 52005 69902 72585 87600 333 10014 21008 60007 87708 91009 91109 555 1/000 21008 3/104 50003 52102
AAXX 07181 26135 01360 81703 10008 21001 39916 49990 52008 60002 75155 886// 333 10009 21008 60007 88707 555 1/000 21008 3/101 51002 52101
AAXX 07181 26141 01363 81804 10002 21008 39847 49995 52008 69902 70287 875// 333 10003 21011 60007 87607 91109 555 1/100 21011 3/101 51005 52101
AAXX 07181 26231 01372 81806 10026 20016 39969 49984 53009 69972 72582 883// 333 10028 20007 69987 88908 91009 91111 555 1/002 20007 3/000 50014
AAXX 07181 26242 01363 81804 10012 21005 39920 40007 52007 69912 72276 886// 333 10013 21000 60007 88709 555 1/000 21000 3/100 50006 52100
AAXX 07181 26045 NIL
AAXX 07181 26058 NIL
AAXX 07181 26115 NIL
AAXX 07181 26247 NIL
AAXX 07184 48433 31956 20000 10231 20195 39946 40113 57002 71000 80005 333 59002 70004
AAXX 07181 76040 32960 03302 10122 21011 30249 40264 52001 80002 91745333 10166 20010 30/// 56003 59028 82078 98660
AAXX 07181 76055 32980 03310 10161 21158 30213 40232 57004 91740 33310172 20085 30/// 59047
AAXX 07181 76113 32980 00301 10122 21050 39722 40200 57001 91745 33310128 20024 30/// 59032
AAXX 07181 76122 32580 51102 10056 20004 38594 40316 57006 81227 91750333 10066 21074 30/// 56599 59008 81835
AAXX 07181 76123 06/// /1107 10066 21054 3//// 4//// 5//// 69922 7////8//// 91750 333 0//// 10066 21082 56/// 57/// 5//// 699278//// 8//// 8//// 8//// 9//// 9//// 9//// 444 ///// 555
AAXX 07181 76220 32858 20000 10030 21030 38193 40342 57017 82060 91740333 10030 21096 31/// 56060 58024
AAXX 07181 76225 32960 00901 10087 21010 38696 40302 57011 91745 33310087 21061 30/// 58012
AAXX 07181 76226 06/// /1001 10099 21048 38689 40223 58012 60002 7////8//// 91750 333 0//// 10100 21071 30/// 4//// 54/// 56///57/// 58010 60007 8//// 8//// 8//// 9//// 9//// 9//// 44
AAXX 07181 76242 06/// /2004 10136 21035 39999 40245 58013 60002 7////8//// 91750 333 0//// 10136 21028 30/// 4//// 54/// 56///57/// 58011 60007 8//// 8//// 8//// 9//// 9//// 9//// 44
AAXX 07181 76243 32973 31802 10118 21015 30004 40317 57009 80006 91740333 10124 21035 30/// 56006 58021 83070
AAXX 07181 76256 32980 33206 10146 21003 30190 40204 52005 83/3/ 91745333 10160 20070 30/// 56/5/ 59029 83360
AAXX 07181 76258 32870 13206 10168 20015 30133 40180 54000 81030 91750333 10170 20034 30/// 56050 59023
AAXX 07181 76305 32970 13405 10188 20064 30186 40194 52007 81030 91740333 10191 20115 30/// 56050 59020 81358
AAXX 07181 76323 32970 11801 10112 21036 38229 40359 57012 80001 91755333 10117 21052 30/// 58015
AAXX 07181 76342 32962 00302 10120 20029 39593 40343 57016 91750 33310128 21002 30/// 58012
AAXX 07181 76373 32970 30000 10126 21095 38253 40210 58007 80004 91750333 10137 21052 30/// 56009 58031 83067
AAXX 07181 76382 32980 10201 10128 20047 38990 40289 57002 80004 91750333 10138 20031 56003 30/// 58049 81076
AAXX 07181 76390 31968 42105 10117 21026 38286 40292 57001 70544 8000191730 333 10130 21025 30/// 56008 58051 84070
AAXX 07181 76393 31910 61202 10116 20036 39699 40304 57012 70544 8000191750 333 10132 20036 30/// 56005 58035 86070
AAXX 07181 76402 31958 00000 10204 20059 30126 40184 52005 70544 91745333 10205 20056 30/// 59011
AAXX 07181 76423 32975 51201 10132 21050 38198 40257 58006 80005 91745333 10147 21012 30/// 56009 58037 85067
AAXX 07181 76458 32970 62503 10233 20147 30157 40161 58001 80006 91740333 10243 20114 30/// 56//9 58006 86070
AAXX 07181 76471 32980 30903 10152 21091 37724 40206 57001 80001 91750333 10257 20022 30/// 56001 58027 83075
AAXX 07181 76490 06/// /0502 10150 20005 39896 40295 58015 60002 7////8//// 91750 333 0//// 10150 20077 30/// 54/// 56/// 57///58047 60007 8//// 8//// 8//// 8//// 9//// 9//// 9//// 44
AAXX 07181 76491 32860 33601 10136 20035 39913 40321 57011 81034 91745333 10145 20078 30/// 56099 58052 81362 82077
AAXX 07181 76499 32960 03403 10165 20007 30281 40303 57008 91740 33310166 20089 30/// 58058
AAXX 07181 76519 32960 60602 10204 21080 38384 40210 57003 80002 91750333 10207 20014 30/// 56006 58021 86070
AAXX 07181 76525 32460 40904 10076 20042 37497 40203 52004 84600 91745333 10078 20053 30/// 563// 58024 84714
AAXX 07181 76538 06/// /0503 10120 20068 38204 40211 58003 60002 7////8//// 91750 333 0//// 10120 20082 30/// 4//// 54/// 56///57/// 58038 60007 8//// 8//// 8//// 9//// 9//// 9//// 44
AAXX 07181 76539 31560 80301 10110 20058 38205 40247 52012 70544 886//91745 333 10120 20080 30/// 562// 58035 88721
AAXX 07181 76543 32675 82901 10148 20056 30291 40324 55009 8457/ 91736333 10150 20117 30/// 5688/ 58081 84650 84358
AAXX 07181 76547 06/// /0203 10161 20019 30287 40299 58011 60002 7////8//// 91750 333 0//// 10162 20123 56/// 57/// 58077 600078//// 8//// 8//// 8//// 9//// 9//// 9//// 444 ///// 555
AAXX 07181 76548 32875 80202 10156 20021 30301 40311 50007 88070 91740333 10158 20120 30/// 56050 58076 88358
AAXX 07181 76556 32970 20000 10242 20090 39131 40169 50007 80001 91730333 10254 20105 30/// 56005 58008 82070
AAXX 07181 76571 32870 43602 10162 20077 38194 40210 57008 80004 91750333 10166 20074 30/// 56005 58030
AAXX 07181 76577 32970 82304 10191 20154 38061 40185 58003 80004 91740333 10199 20070 30/// 56005 58017 88081
AAXX 07181 76578 06/// /2305 10193 20047 38057 40120 58005 60002 7////8//// 91750 333 0//// 10193 20072 30/// 4//// 54/// 56///57/// 58016 60007 8//// 8//// 8//// 9//// 9//// 9//// 44
AAXX 07181 76581 12575 81403 10093 20064 39137 40286 57005 69901 8272091750 333 10102 20060 30/// 56220 58079 82730 86460
AAXX 07181 76585 32980 80000 10133 20088 30142 40304 58008 8802/ 91740333 10135 20099 31/// 56/8/ 58078 88458
AAXX 07181 76586 06/// /0801 10141 20067 30143 40304 58008 60002 7////8//// 91750 333 0//// 10142 20096 30/// 4//// 54/// 56///57/// 58077 60007 8//// 8//// 8//// 9//// 9//// 9//// 44
AAXX 07181 76592 06/// /3612 10250 20200 30199 40199 58008 60002 7////8//// 91750 333 0//// 10282 20216 30/// 4//// 54/// 56///57/// 58036 60007 8//// 8//// 8//// 9//// 9//// 9//// 44
AAXX 07181 76593 01370 53607 10250 20231 30200 40202 58006 69901 7020582460 91750 333 10282 20216 30/// 5688/ 58035 69907 8262083330
AAXX 07181 76625 32450 50907 10166 20087 38154 40152 57013 85400 91740333 10166 20097 30/// 56200 58013 85620
AAXX 07181 76632 31950 01104 10154 20084 37646 40147 57009 70500 91750333 10182 20084 30/// 58015 98550
AAXX 07181 76634 31165 12902 10134 20086 37879 40240 57009 70511 8170091750 333 10136 20048 30/// 560// 58018 81791
AAXX 07181 76641 06/// /1002 10156 20086 30291 40303 58006 60002 7////8//// 91750 333 0//// 10161 20128 30/// 4//// 54/// 56///57/// 58081 60007 8//// 8//// 8//// 8//// 9//// 9//// 9/
AAXX 07181 76644 32465 43605 10270 20224 30181 40194 57012 83201 91750333 10289 20216 30/// 568/9 58034 83810 91005 91536
AAXX 07181 76645 06/// /3406 10271 20208 30184 40197 58013 60002 7////8//// 91750 333 0//// 10288 20219 30/// 4//// 54/// 56///57/// 58031 60007 8//// 8//// 8//// 9//// 9//// 9//// 44
AAXX 07181 76648 06/// /3503 10310 20181 30150 40180 58019 60002 7////8//// 91750 333 0//// 10313 20201 30/// 4//// 54/// 56///57/// 58027 60007 8//// 8//// 8//// 8//// 9//// 9//// 9/
AAXX 07181 76654 31956 02301 10287 20207 30154 40158 57002 70544 91755333 10289 20216 30/// 59002
AAXX 07181 76656 31975 11302 10242 20115 38519 40180 57010 70244 8000891750 333 10250 20060 30/// 56005 58010 81280
AAXX 07181 76658 31940 12702 10277 20161 39642 40149 57009 70540 8000191745 333 10288 20172 30/// 56001 59001 81070 98924
AAXX 07181 76662 31970 22801 10226 20109 38475 40177 57005 70540 8000491740 333 10238 20060 30/// 5600/ 58013 82070
AAXX 07181 76665 32962 03601 10225 20120 38137 40173 57010 91750 33310235 20077 30/// 58030
AAXX 07181 76675 31570 30503 10196 2001 37391 40191 57007 70544 80004 91754 333 10204 20007 30/// 56//9 58011 98470
AAXX 07181 76680 31956 00803 10195 20076 37765 40101 57012 70400 91750333 10196 20090 30/// 58014
AAXX 07181 76681 31950 00501 10206 20095 37794 40172 58010 70540 91740333 10206 20052 30/// 58014
AAXX 07181 76683 31965 11201 10182 20079 37846 40223 56017 70544 8000591745 333 10190 20064 30/// 56005 58012 81080
AAXX 07181 76684 06/// /1103 10197 20039 37847 40130 58017 60002 7////8//// 91750 333 0//// 10197 20055 30/// 4//// 54/// 56///57/// 58014 60007 8//// 8//// 8//// 9//// 9//// 9//// 44
AAXX 07181 76687 31460 83601 10142 20099 38741 40248 50001 71044 885//91735 333 10147 20120 30/// 561// 58042 81717 87619
AAXX 07181 76692 31456 83608 10209 20138 30227 40246 58001 70733 8727/91745 333 10227 20200 30/// 5688/ 58065 82817 85640 9111791536
AAXX 07181 76693 06/// /3408 10209 20143 30225 40244 58004 60002 7////8//// 91750 333 0//// 10227 20199 30/// 4//// 56/// 57///58064 60007 8//// 8//// 8//// 8//// 9//// 9//// 9//// 44
AAXX 07181 76695 32460 43305 10272 20228 30177 40183 57011 83250 91750333 10276 20190 30/// 5680/ 58032 83815 81360 91008 91533
AAXX 07181 76698 32560 30101 10279 20251 30170 40182 57016 83200 91755333 10293 20210 30/// 56800 58027 83820
AAXX 07181 76726 32970 01801 10218 20097 38428 40168 57010 91750 33310218 20126 30/// 58010
AAXX 07181 76727 06/// /1601 10228 20053 38417 40108 58010 60002 7////8//// 91750 333 0//// 10234 20130 30/// 4//// 54/// 56///57/// 58013 60007 8//// 8//// 8//// 9//// 9//// 9//// 44
AAXX 07181 76737 01365 80000 10146 20136 38834 40233 50004 69981 750528672/ 91735 333 10184 20140 31/// 5629/ 58043 69987 8670791105 91514
AAXX 07181 76738 06/// /1502 10141 20133 38835 40236 58001 60012 7////8//// 333 10154 20139 30/// 56/// 57/// 58044 60017 8////8//// 8//// 8//// 9//// 9//// 9//// 444 ///// 555 30188
AAXX 07181 76743 31457 83202 10251 20225 30184 40192 58014 70222 885//91745 333 10260 20230 30/// 561// 58039 88613
AAXX 07181 76750 32560 73204 10273 20223 30170 40180 57012 84620 91750333 10281 20208 31/// 56880 58026 84820 83357
AAXX 07181 76751 06/// /3402 10267 20226 30170 40180 58012 60002 7////8//// 91750 333 0//// 10283 20212 30/// 4//// 54/// 56///57/// 58026 60007 8//// 8//// 8//// 9//// 9//// 9//// 44
AAXX 07181 76762 32904 33601 10270 20210 38772 40157 56008 80002 91735333 10274 20128 30/// 56006 58009 83070
AAXX 07181 76772 06/// /1008 10215 20088 38448 40141 58011 60002 7////8//// 91750 333 0//// 10224 20056 30/// 4//// 56/// 57///58017 60007 8//// 8//// 8//// 9//// 9//// 9//// 444 ////
AAXX 07181 76773 32570 20906 10214 20090 38444 40198 57012 81204 91745333 10218 20041 30/// 56209 58016 81820
AAXX 07181 76775 31462 32702 10239 20086 38552 40211 57013 70300 8320091730 333 10241 20074 30/// 56800 57683 58016 82620 81820
AAXX 07181 76776 06/// /3602 10236 20079 38533 40130 58017 60002 7////8//// 91750 333 0//// 10237 20068 30/// 4//// 56/// 57///58016 60007 8//// 8//// 8//// 9//// 9//// 9//// 444 ////
AAXX 07181 76805 32970 40201 10312 20204 30131 40137 58012 80001 91750333 10326 20200 30/// 56//7 59005 82162 82063
AAXX 07181 76806 06/// /0101 10319 20203 30129 40133 58014 60002 7////8//// 91750 333 10324 20198 30/// 56/// 57/// 59004 600078//// 8//// 8//// 8//// 9//// 9//// 9//// 555 30274
AAXX 07181 76833 32970 03614 10294 20234 30141 40143 57017 91745 33310294 20241 30/// 58025 92001
AAXX 07181 76840 32550 23603 10294 20186 30098 40153 57007 82100 91740333 10300 20167 30/// 568// 58040 82827
AAXX 07181 76843 32565 70202 10228 20179 39530 40174 57012 83770 91745333 0/79/ 10234 20188 30/// 58037 83820 84360
AAXX 07181 76845 32460 70403 10132 20109 37976 40205 58005 87600 91748333 10154 20090 30/// 56100 58025 87710
AAXX 07181 76848 11670 43602 10203 20102 38405 40136 57008 69901 7025084200 91750 333 10205 20103 30/// 56100 58020 84842
AAXX 07181 76902 06/// /2102 10325 20207 39990 40125 58020 60002 7////8//// 91750 333 0//// 10326 20219 30/// 4//// 54/// 56///57/// 58012 60007 8//// 8//// 8//// 8//// 9//// 9//// 9/
AAXX 07181 76903 31682 22101 10320 20206 39993 40123 57018 70400 8220091735 333 10329 20222 30/// 56200 58014 81834 81650
AAXX 07181 76253 32782 20503 10164 20078 30124 40214 54002 82/3/ 91755333 10170 20120 30/// 59028 82357 92002
AAXX 07181 76311 32980 00000 10214 20067 39876 40161 56007 91750 33310216 20052 30/// 59023
AAXX 07181 76405 32680 13604 10219 20133 30164 40186 57001 81200 91750333 10219 20170 30/// 56800 59015 81840
AAXX 07181 76412 31966 00000 10186 20099 30145 40191 52001 70544 91738333 10194 20070 30/// 58001
AAXX 07181 76640 31458 83603 10150 20113 30310 40322 52005 70222 8372/91740 333 10164 20114 31/// 5679/ 58084 83715 85440
AAXX 07181 76647 32670 43603 10307 20200 30164 40194 57016 84200 91750333 10309 20200 30/// 56800 58031 84844
AAXX 07181 76741 01340 83615 10208 20196 30175 40193 57006 60071 7606685720 91730 333 10232 20186 32/// 5688/ 58046 60037 8371082811 91117 91536
AAXX 07181 76855 32980 02003 10308 20206 30074 40123 58006 91745 33310320 20194 30/// 58002 92000
AAXX 07184 48355 32960 00000 10210 20194 39906 40127 56003 333 58002
BBXX VEP717 07184 99467 70487 41/91 91612 10041 2004/ 40186 50004 74545 89/// 22200 06035 20401 316// 40903 80041
BBXX UFTA 07181 99850 71234 11996 81304 11230 21256 49945 58002 69932 77172 84037
AAXX 07181 33815 32997 02002 10014 20002 39934 40145 58007 333 10066 555 80008
AAXX 07181 01003 11650 80508 11009 21042 39798 49810 52007 69901 77173 8452/ 333 91116
AAXX 07181 01447 16/// /0000 11109 21124 39278 49973 52025 60002 333 11081 91100
AAXX 07184 91930 36/// ///// 10282 20212
AAXX 07184 91943 16/// /1109 10281 20201 30131 40133 51015 60012 333 10282 59017
AAXX 07184 89061 379// 03302 10050 21030 39720 49727 52035 73011 333 91003 91112
AAXX 07184 70026 NIL
AAXX 07184 70133 NIL
AAXX 07184 70174 NIL
AAXX 07184 70200 NIL
AAXX 07184 70219 NIL
AAXX 07184 70231 NIL
AAXX 07184 70261 NIL
AAXX 07184 70267 NIL
AAXX 07184 70271 NIL
AAXX 07184 70273 NIL
AAXX 07184 70308 NIL
AAXX 07184 70316 NIL
AAXX 07184 70326 NIL
AAXX 07184 70340 NIL
AAXX 07184 70350 NIL
AAXX 07184 70361 NIL
AAXX 07184 70381 NIL
AAXX 07184 70398 NIL
AAXX 07184 70414 NIL
BBXX 51205 07181 99210 71564 46/// ///// 1//// 91748 22200 00244 11204 20803 334// 41202 70021
BBXX 46238 07181 99334 71195 46/// ///// 1//// 91750 22200 00151 11402 20401 324// 41401 70008
BBXX 46239 07181 99363 71221 46/// ///// 1//// 91751 22200 00130 11202 20802 331// 41201 70011
AAXX 07184 68024 41660 60000 10265 20180 48490 53020 71322 81980 333 10318
AAXX 07184 68029 42560 53302 10300 20188 48491 52011 83973 333 10320
AAXX 07184 68030 42960 30000 10252 20205 48484 52016 81074 333 10312
AAXX 07184 68032 42660 61703 10283 20222 48492 52019 84986 333 10334 30095
AAXX 07184 68038 42960 20000 10290 20170 48482 52016 81082 333 30360
AAXX 07184 68040 42960 51805 10280 20180 48485 52018 85070 333 10345
AAXX 07184 68070 42960 30903 10298 20166 48489 53016 80002 333 10353
AAXX 07184 68148 42960 40000 10260 20182 48485 52013 83082 333 10333
AAXX 07184 68234 41660 80000 10214 20197 48509 52036 79596 889// 333 10346
AAXX 07184 68240 41660 62703 10262 20148 48495 52025 71322 81983 333 10350
AAXX 07184 68320 41660 71810 10250 20173 48508 52016 71399 84983 333 10367
AAXX 07184 68328 42660 72307 10260 20076 48512 52023 83982 333 10332
BBXX 41038 07181 99341 70777 46/// /2106 10185 40093 58039 91800 22200 00159 333 91207
BBXX 44022 07181 99409 70737 46/// ///02 10104 20097 40062 58042 91800 22200 00113 333 91203 555 11026 22026
AAXX 07184 78526 NIL
AAXX 07184 78543 NIL
AAXX 07181 26554 11560 72004 10010 21016 39893 40057 52002 69902 72682 875// 333 10011 87623
AAXX 07181 26666 12460 71803 10005 21034 39872 40089 52004 69902 87500 333 10009 87616
AAXX 07181 26850 11358 82002 10000 21011 39802 40077 54000 69902 77172 885// 333 10009 88708
AAXX 07181 26863 31458 81805 11002 21014 39857 40097 58005 71022 886// 333 10001 88712
AAXX 07181 26941 31457 81603 10010 21007 39832 40071 57004 71022 887// 333 10020
AAXX 07181 26951 31458 82104 10005 21009 39884 40085 57001 71022 886// 333 10010 88710
AAXX 07181 33008 11556 12003 10008 21012 39882 40062 57012 69952 71081 81500 333 10024
AAXX 07181 33019 11956 61302 11004 21013 39908 40085 57006 69902 72671 86030 333 10019
AAXX 07181 33036 11258 72202 10002 21009 39875 40110 54000 60032 71082 875// 333 10002 87705 93701
AAXX 07181 33041 11558 71602 10004 21005 39956 40114 57006 69922 72287 875// 333 10012 87624
AAXX 07184 78255 42459 40205 10282 20203 30004 40153 57020 84831 333 10283 20201 84820
AAXX 07184 78317 NIL
AAXX 07184 78318 NIL
AAXX 07184 78325 NIL
AAXX 07184 78333 NIL
AAXX 07184 78338 NIL
AAXX 07184 78348 NIL
AAXX 07184 78349 NIL
AAXX 07184 78353 NIL
AAXX 07184 78360 NIL
AAXX 07184 78367 NIL
AAXX 07184 78369 NIL
AAXX 07184 91222 NIL
AAXX 07184 91245 NIL
AAXX 07184 91323 NIL
AAXX 07184 91339 NIL
AAXX 07184 91343 NIL
AAXX 07184 91353 NIL
AAXX 07184 91442 NIL
BBXX ZCDF4 07183 99217 70767 41598 40619 10260 20232 40151 57011 72511 83470 22234 00260 20301 309// 40502 5//// 80241
BBXX VRCQ2 07183 99325 10274 41/98 /2719 10200 20153 40210 54/// 702// 8//// 22224 0//// 2//// 3//// 4//// 5//// 6//// 80170 ICE /////
BBXX KAOU 07184 99020 10900 43/// /0605 10286 20238 40082 5//// 7//// 8//// 222// 04296 2//// 3//// 4//// 5//// 6//// 8//// ICE /////
BBXX NWS0029 07184 99194 70294 43/// /0611 10233 20162 40135 5//// 7//// 8//// 222// 04252 2//// 3//// 4//// 5//// 6//// 8//// ICE /////
BBXX NWS0020 07184 99352 10215 43/// /3131 10176 20107 40179 5//// 7//// 8//// 222// 04191 2//// 3//// 4//// 5//// 6//// 8//// ICE /////
BBXX WDF5483 07184 99417 70825 43/98 33012 10011 2//// 40149 5//// 7//// 8//// 22222 0//// 2//01 3//// 4//// 5//// 6//// 8//// ICE /////
BBXX C6FR6 07184 99283 10345 41/// /0126 10190 2//// 40180 56010 7//// 8//// 22212 0//// 2//// 3//// 4//// 5//// 6//// 8//// ICE /////
BBXX NWS0009 07184 99212 71580 43/// /0311 10241 20186 40158 5//// 7//// 8//// 222// 04256 2//// 3//// 4//// 5//// 6//// 8//// ICE /////
BBXX C6FZ9 07184 99250 70773 41/// /0205 1//// 2//// 40130 5//// 7//// 8//// 222// 0//// 2//// 3//// 4//// 5//// 6//// 8//// ICE /////
BBXX NWS0003 07184 99611 71773 43/// /0921 10019 20015 49726 5//// 7//// 8//// 222// 04011 2//// 3//// 4//// 5//// 6//// 8//// ICE /////
BBXX C6FM8 07184 99261 70781 41798 31002 10250 20207 40180 54000 7//00 83200 22263 04257 2//// 3//// 4//// 5//// 6//// 85220 ICE /////
BBXX WDD2451 07184 99607 71513 41498 80125 10000 2//// 40210 57010 70222 889// 22241 0//// 20201 3//// 4//// 5//// 61//3 8//// ICE /////
BBXX PDGS 07184 99101 50788 41397 71610 10220 40130 57015 70222 8/61/ 22273 00197 20301
BBXX WDE8293 07184 99082 10753 41597 20805 10285 20229 40085 52020 70500 821// 22275 00300 20101 303// 40303 5//// 6//// 80245 ICE /////
BBXX WXJ63 07183 99611 71464 41/96 80603 11053 21084 40309 5//// 770// 8//// 222// 00050 2//// 3//// 4//// 5//// 6//// 8//// ICE /////
BBXX 51204 07181 99213 71581 46/// ///// 1//// 91752 22200 00249 11303 21002 331// 41302 70013
BBXX 51202 07181 99214 71577 46/// ///// 1//// 91739 22200 00243 11104 20903 303// 41102 70018
AAXX 07184 91165 NIL
AAXX 07184 91182 NIL
AAXX 07184 91190 NIL
AAXX 07184 91212 NIL
AAXX 07184 91217 NIL
AAXX 07184 91285 NIL
AAXX 07184 91317 NIL
AAXX 07184 91334 11474 80608 10261 20234 30063 40066 55002 60021 70282 84371 333 56199 70183 555 90718
AAXX 07184 91348 11470 81005 10256 20243 30020 40073 55005 60021 78088 86201 333 562/9 70488 555 90718
AAXX 07184 91356 NIL
AAXX 07184 91366 NIL
AAXX 07184 91369 NIL
AAXX 07184 91371 NIL
AAXX 07184 91376 11474 60808 10277 20239 30064 40068 53003 69901 72511 83801 333 562/9 555 90718
AAXX 07184 91408 11471 81605 10267 20252 30017 40055 57017 60041 72598 8692/ 333 56999 70104 555 90718
AAXX 07184 91413 NIL
AAXX 07184 91425 NIL
AAXX 07184 91434 NIL
AAXX 07184 91765 NIL
BBXX 46219 07181 99332 71199 46/// ///// 1//// 91758 22200 00139 11302 20901 329// 41301 70010
BBXX 46224 07181 99332 71175 46/// ///// 1//// 91736 22200 00155 11501 21001 319// 41501 70005
BBXX 46214 07181 99379 71235 46/// ///// 1//// 91757 22200 00118 11302 20702 330// 41301 70011
BBXX PGRQ 07184 99364 10181 41598 13422 10179 2//// 40207 52015 70100 81100 22272 00194 20203 327// 40404
BBXX DGWD2 07183 99501 70019 41/98 /2933 10105 20032 40172 52045 70222 8//// 22263 00130 2//// 80070
BBXX DHEE 07183 99495 70083 41/98 32822 10120 20039 40230 52030 70211 8//// 22253 00130 2//// 80080
BBXX UCKG 07181 99579 10048 41/98 93410 10060 49958 52046 72122 22213 00100 20303
BBXX TBWUK35 07184 99658 10060 41598 43007 10031 21017 49939 51020 70371 84200 22254 00100 20404 303// 40607 80014
BBXX C6KD8 07183 99429 70246 41/98 82110 10150 20125 40300 56008 70311 8/77/ 22214 02155 20401 334// 41304 5//// 80136
BBXX DFRZ 07183 99419 70237 41598 42706 10155 20121 40300 54000 70322 84444 22254 00130 20601 80135
BBXX UFJN 07181 99699 10301 41/98 8//// 11040 49928 52020 70021 88/// 22200 0//// 2////
BBXX A8KC6 07184 99201 51646 41598 61912 10250 20220 40140 51020 703// 8644/ 22254 04300 20602 321// 40602 5//// 80230 46379 1738071222
BBXX MGRH9 07183 99346 31683 41498 82112 10169 20095 40140 53004 70322 885// 22223 00167 20303 323// 40906 5//// 80130
BBXX PCQL 07183 99128 31148 41/98 /2810 10280 20233 40085 56005 70111 8//// 22283 04266 299// 80246
AAXX 07184 03301 16680 /2815 10063 20013 30069 40143 51035 60002 91750 333 10073 81/39 84/46
AAXX 07184 03305 15680 /2625 10057 21004 39881 40145 52032 69902 91750 333 10057 83/30 86/48 90710 91139 91037
AAXX 07184 03313 16775 /2714 10060 20006 30035 40129 51034 60022 91750 333 10070 82/50 90710 91128 91025
AAXX 07184 03316 15668 /2831 10072 20024 30109 40120 51039 69922 91750 333 10077 81/32 90710 91140
AAXX 07184 03318 16/// /2925 10073 20006 60002 91750 333 10076 90710 91136 91035
AAXX 07184 03321 16679 /2815 10067 20006 30116 40129 51037 69982 91750 333 10076 553// 20000 86/45 90710 91126
AAXX 07184 03330 17568 /2912 10034 20017 39755 40120 51042 60022 723// 91750 333 10047 86/26 83/42 90710 91126 91022
AAXX 07184 03344 15670 /2812 10033 21006 39775 40096 51048 60032 91750 333 10050 82/43 83/56 90710 91125 91022
AAXX 07184 03346 16/// /2825 10038 21003 60002 91750 333 10049 90710 91144
AAXX 07184 03348 17673 /2914 10060 20005 30009 40117 51045 69922 723// 91750 333 10068 55300 20000 81/36 84/44 90710 91131
AAXX 07184 03355 17981 /2923 10041 20011 30073 40085 51055 60032 781// 91750 333 10073 55300 20000 83/62 90710 91144
AAXX 07184 03373 16666 /2916 10048 20001 30019 40089 51046 69922 91750 333 10069 86/35 90710 91128
AAXX 07184 03379 16980 /2723 10051 20004 30026 40103 53045 69942 91750 333 10070 8//99 90710 91137 91037
AAXX 07184 03382 15986 /2714 10037 20004 30060 40069 51046 69942 91750 333 10064 55300 20000 81/64 90710 91125
AAXX 07184 03385 46980 /2718 10043 20007 30064 40074 52045 91750 333 10076 8//99 90710 91137 91030
AAXX 07184 03391 11680 22819 10055 21003 30086 40094 52045 69902 70381 81830 91750 333 10072 81830 90710 91133
AAXX 07184 03392 16973 /2719 10047 20006 30083 40086 53045 69922 91750 333 10069 8//99 90710 91133
AAXX 07184 03405 16680 /2824 10072 20011 30043 40160 51028 60002 91750 333 10077 553// 20000 81/40 83/45 90710 91139
AAXX 07184 03409 16/// /2615 10059 20000 69922 91750 333 10063 55300 2//// 90710 91125
AAXX 07184 03410 16676 /2621 10040 21006 39700 40140 52033 60002 91750 333 10046 553// 20000 83/35 84/50 90710 91132 91031
AAXX 07184 03469 15972 /2717 10047 20012 30093 40097 53040 69962 91750 333 10070 553// 20000 8//99 90710 91130
AAXX 07184 03488 15674 /2730 10058 20002 30052 40078 53039 69942 91750 333 10070 81/39 90710 91140
AAXX 07184 03503 15672 /2910 10073 20017 30084 40161 53027 60012 91750 333 10081 82/34
AAXX 07184 03507 17575 /2505 10038 20006 39789 40166 51034 69982 723// 91750 333 10061 81/28
AAXX 07184 03520 16975 /2911 10061 21001 30025 40147 52031 69942 91750 333 10078 553// 20000 8//99
AAXX 07184 03522 15971 /2714 10064 20007 30055 40148 51027 69982 91750 333 10083 8//99 90710 91127
AAXX 07184 03529 15780 /2712 10062 21007 30107 40150 52036 69902 91750 333 10086 82/50
AAXX 07184 03544 15975 /2615 10049 21011 39997 40130 51037 69902 91750 333 10073 553// 20000 8//99
AAXX 07184 03560 15774 /2614 10051 21007 30019 40124 52040 60002 91750 333 10080 553// 20000 81/50
AAXX 07184 03604 16672 /3014 10076 20028 30122 40176 51024 69942 91750 333 10096 81/42 84/56 90710 91127 91024
AAXX 07184 03605 16666 /2916 10075 20024 30167 40175 51023 69962 91750 333 10092 82/44 90710 91125
AAXX 07184 03609 16/// /2612 10075 20025 30130 40183 51033 60032 91750 333 10090
AAXX 07184 03628 15980 /2614 10060 20007 30094 40168 51038 60002 91750 333 10089 55300 20000 8//99
AAXX 07184 03647 16965 /2819 10045 21006 39887 40145 52043 69922 91750 333 10068 553// 20000 8//99 90710 91128
AAXX 07184 03658 12680 22710 10059 21018 30082 40152 53040 60002 82100 91750 333 10084 82845
AAXX 07184 03660 15982 /2912 10048 21011 39893 40144 53039 60002 91750 333 10072 8//99
AAXX 07184 03672 12983 02815 10067 21034 30106 40147 53040 60002 91750 333 10093
AAXX 07184 03684 15780 /2716 10054 21011 30014 40121 52038 60002 91750 333 10077 82/50 90710 91125
AAXX 07184 03693 16980 /2718 10073 21009 30124 40126 51036 60002 91750 333 10093 8//99 90710 91127
AAXX 07184 03707 17672 /3021 10085 20035 30177 40184 52024 69962 723// 91750 333 10103 82/34 90710 91128
AAXX 07184 03710 16575 /2912 10035 20022 39757 40185 51036 60042 91750 333 10075 553// 20000 81/20 90710 91127
AAXX 07184 03743 16980 /2710 10052 21012 30007 40170 52041 69922 91750 333 10079 8//99
AAXX 07184 03749 12582 12813 10055 21005 30054 40166 51041 69902 81101 91750 333 10083 81825
AAXX 07184 03761 12680 12615 10057 21018 30014 40159 53039 60002 81500 91750 333 10080 55300 20000 81635
AAXX 07184 03768 16966 /2809 10061 21013 30079 40159 53044 60002 91750 333 10085 8//99
AAXX 07184 03769 15981 /2506 10058 21008 30073 40156 53043 69922 91750 333 10089 55300 20000 8//99
AAXX 07184 03770 16/// ///// 10070 21008 60022 91750 333 10095
AAXX 07184 03781 15983 /2614 10050 21012 39940 40150 53038 60002 91750 333 10077 553// 20000 8//99 90710 91126
AAXX 07184 03797 15980 /2719 10066 21014 30071 40131 51039 60002 91750 333 10088 55300 20000 8//99 90710 91127
AAXX 07184 03839 16/// ///// 10071 20031 60012 91750 333 10102 553// 20000
AAXX 07184 03857 15666 /3122 10094 20042 30121 40184 52043 69902 91750 333 10109 81/30 90710 91136
AAXX 07184 03862 17774 /2909 10061 20021 30168 40180 53041 60022 723// 91750 333 10093 55300 20000 82/56
AAXX 07184 03866 16/// /2821 10089 20019 30150 40174 53041 60002 91750 333 10106 90710 91133
AAXX 07184 03872 15973 /2815 10071 20006 30163 40168 53041 60002 91750 333 10095 553// 20000 8//99 90710 91125
AAXX 07184 03876 16/// /2811 10060 20004 30160 40163 53041 60002 91750 333 10099
AAXX 07184 03895 41575 53020 10103 20051 40210 52032 72582 85930 333 10119 81920 84830 90710 91131
AAXX 07184 03896 16/// ///// 10102 60032 333 10125
AAXX 07184 63980 11470 72606 10250 20235 40106 60012 78082 87830 333 10305 58004 87816 943// 91121
AAXX 07184 03002 17684 /2701 10001 21012 39926 49944 51013 60032 720// 91750 333 10043 85/45
AAXX 07184 03008 16/// /2815 10050 21007 39885 49955 53022 60002 91750 333 10056 90710 91125
AAXX 07184 03010 46/// /2620 10060 20016 49975 53023 333 90710 91134
AAXX 07184 03014 46/// /2823 10045 21003 49948 52013 91750 333 8//// 90710 91129
AAXX 07184 03031 17544 /2718 10016 21014 39696 40025 51036 60082 772// 91750 333 10026 553// 20000 81/22 85/50 90710 91126
AAXX 07184 03034 17382 /3411 10030 20015 30005 40018 51035 60022 781// 91750 333 10070 84/07 90710 91128
AAXX 07184 03037 17580 /2005 10037 20010 30013 40035 52030 60022 782// 91750 333 10061 81/23 84/56
AAXX 07184 03039 46/// /2722 11015 21045 91750 333 11011 90710 91131
AAXX 07184 03041 46/// ///// 11045 21046 91750 333 11033 90710 91131 91026
AAXX 07184 03044 17683 /2816 10020 21007 39899 49999 50032 60042 781// 91750 333 10033 553// 20000 81/30 85/65 90710 91127 91026
AAXX 07184 03047 17682 /2213 10031 21018 39740 40044 51030 60092 723// 91750 333 10036 553// 20000 81/42 91023
AAXX 07184 03062 17582 /2509 10027 21008 30007 40012 53034 60142 781// 91750 333 10035 553// 20000 82/29 84/39
AAXX 07184 03065 46/// /2736 11055 21062 91750 333 11045 90710 91149 91046
AAXX 07184 03068 11481 22512 10019 21001 30000 40008 52031 60102 72587 81833 91750 333 10037 42001 81710
AAXX 07184 03072 46/// /2831 11034 21045 91750 333 11021 90710 91158 91053
AAXX 07184 03080 15/83 /3005 10004 21021 39846 40020 51049 60032 91750 333 10036
AAXX 07184 03088 15982 /2810 10022 21020 39853 40018 51051 69922 91750 333 10037 553// 20000 81/67
AAXX 07184 03094 15561 /2723 10053 20025 39990 49995 53047 60052 91750 333 10063 82/22 84/50 90710 91134
AAXX 07184 03105 17663 /2924 10064 20008 30061 40078 51028 60032 723// 91750 333 10071 83/43 90710 91132
AAXX 07184 03132 17670 /2818 10054 20016 30083 40097 51039 60032 723// 91750 333 10066 81/31 90710 91128 91028
AAXX 07184 03144 15984 /2208 10027 21014 30000 40043 51042 69902 91750 333 10055 553// 20000 8//99
AAXX 07184 03148 46/// /2722 11012 21012 91750 333 10010 90710 91132
AAXX 07184 03153 17583 /3010 10020 20007 39947 40087 51040 60112 723// 91750 333 10052 553// 20000 81/27
AAXX 07184 03155 16972 /2620 10012 20003 39763 40065 52034 69922 91750 333 10033 8//99 90710 91130
AAXX 07184 03158 15984 /2814 10028 21003 39908 40046 51055 69902 91750 333 10050 553// 20000 8//99 90710 91127
AAXX 07184 03210 16566 /2931 10059 20004 39937 40089 51042 60042 91750 333 10061 81/28 83/32 90710 91143 91043
AAXX 07184 03212 17459 /2806 10040 20018 39995 40095 51044 60162 782// 91750 333 10059 83/16 84/35
AAXX 07184 03214 15667 /2823 10071 20013 30083 40102 51044 69902 91750 333 10073 81/33 86/44 90710 91141
AAXX 07184 03220 16481 ///// 10028 20015 30048 40083 51054 60022 91750 333 10051 82/18
AAXX 07184 03224 15277 /2616 10004 21001 39721 40073 52048 60022 91750 333 10022 81/03 84/06 85/15
AAXX 07184 03225 16575 /2815 10030 21006 39780 40089 51045 60132 91750 333 10045 553// 20000 81/24 90710 91131 91028
AAXX 07184 03226 15683 /3210 10022 20000 39806 40086 51045 60122 91750 333 10041 84/37 85/50
AAXX 07184 03227 46/// /2834 11025 2//// 91750 333 11017 90710 91142
AAXX 07184 03230 16984 /3108 10022 21016 39802 40062 51053 60012 91750 333 10049 81/64 91019
AAXX 07184 03238 15980 /2716 10020 20002 39884 40060 51055 69922 91750 333 10042 8//99 90710 91129
AAXX 07184 03261 11475 12822 10044 21010 30033 40074 52048 60052 70281 81900 91750 333 10057 81915 90710 91131
AAXX 07184 03265 15981 /2818 10051 21003 30040 40070 51045 60022 91750 333 10061 8//99 90710 91131 91030
AAXX 07184 03266 16981 /2810 10042 21006 30060 40077 53050 60062 91750 333 10062 8//99 90710 91125
AAXX 07184 03275 15976 /2824 10030 21013 39858 40053 51053 69902 91750 333 10048 8//99 90710 91138 91037
AAXX 07184 03281 16/// /2925 10021 21004 60002 91750 333 10038 90710 91143
AAXX 07184 03903 16575 /2706 10040 20018 30068 40127 51025 60022 91750 333 10070 553// 20000 81/20 90710 91125
AAXX 07184 03904 17769 /2208 10030 20004 30052 40113 51024 60022 723// 91750 333 10065 81/50
AAXX 07184 03907 17447 /2719 10048 20018 30097 40105 51034 60042 782// 91750 333 10066 55300 20000 83/16 90710 91130 91030
AAXX 07184 03911 16980 /2707 10017 20005 39835 40113 51030 60022 91750 333 10042 8//99
AAXX 07184 03915 16680 /2408 10036 20016 30025 40105 51032 60032 91750 333 10056 81/37 85/58
AAXX 07184 03916 16980 /2606 10023 20008 39902 40096 51033 60052 91750 333 10055 553// 20000 8//99
AAXX 07184 03923 15664 /2608 10026 20001 39922 40121 51029 69962 91750 333 10045 81/33
AAXX 07184 16294 12998 02506 10138 20094 30010 40203 52010 60002 333 10164 555 0////
BBXX DBLK 07181 99419 30024 41698 72309 10074 20002 40290 52013 71582 878// 22252 04111 20503 322// 41107
BBXX 3FMV6 07183 99299 30149 41598 81815 10190 20138 40170 52020 70286 87770 22238 06188 21002 80160
BBXX ONDY 07184 99098 30091 41699 62112 10230 2020/ 40130 54000 70211 866// 22284 00260 2//// 3//// 4//// 5//// 6//// 80210 ICE /////
BBXX C6VF5 07184 99137 10424 41997 01727 10270 2021/ 40130 57020 7//00 8/000 22234 00280 2//// 3//// 4//// 5//// 6//// 80230 ICE /////
BBXX BATFR05 07184 99054 70001 46/// /2010 10279 20237 40098 53006 22200 00255
BBXX C6FR6 07184 99283 10345 41/// /0126 10190 2//// 40180 56010 7//// 8//// 22212 0//// 2//// 3//// 4//// 5//// 6//// 8//// ICE /////
BBXX 2BLY5 07183 99182 70197 41398 70811 10230 20103 40234 57017 7//// 84768 22253 00250 20202 303// 40404 80160
BBXX DEIR 07184 99178 30108 41398 31620 10184 20149 40124 52004 7//11 83640 22243 04216 20503 318// 41004 80162
BBXX PDGS 07184 99101 50788 41397 71610 10220 40130 57015 70222 8/61/ 22273 00197 20301
BBXX 5BDK2 07184 99199 50710 43/// 01409 10240 2018/ 40180 5//// 7//// 8//// 22233 00220 2//// 3//// 4//// 5//// 6//// 80200 ICE /////
BBXX A8SG3 07184 99134 50769 41397 71717 10195 20172 40120 56010 70522 85778 22244 04180 21206 318// 41004 80180
BBXX WBP3210 07184 99570 50659 43/// /3139 10067 2//// 49965 5//// 7//// 8//// 22261 00056 2//// 3//// 4//// 5//// 6//// ICE /////
BBXX WCX7445 07184 99578 50638 43/// /2831 10063 2//// 49886 5//// 7//// 8//// 22232 00054 2//// 3//// 4//// 5//// 6//// ICE /////
BBXX 32012 07181 99197 50856 46/// ///// 1//// 91750 22200 11406 70031
BBXX PCGM 07183 99049 50350 41698 41316 10275 20231 40093 70322 84400 22283 04280 20202 80243
AAXX 07184 65352 31930 73202 10318 20054 3//// 4//// 70522 80002 333 10375 5//// 87076
AAXX 07184 65361 NIL
AAXX 07184 65376 32957 71402 10298 20171 39640 40098 80002 333 10341 58006 87076
AAXX 07184 65387 32460 62204 10288 20259 30064 40082 81502 333 10336 58007 81816 86073
BBXX 41046 07181 99238 70683 46/// /0909 10257 20217 40151 58016 91750 22200 00263 10906 20605 300// 40904 70031 333 91211 555 11098 22104 31706 40812 61749 088092 084089 088093 084093 084096 087090 80810 91707
BBXX 42364 07181 99291 70881 46/// /3109 10111 20050 40231 58003 91800
BBXX 42057 07181 99168 70815 46/// /0210 10280 20214 40140 58013 91750 22200 00280 10703 20703 70016 333 91211 555 11095 22101 31653 40312 61749 021094 022091 021094 016089 015094 023099 80310 91654
BBXX 42363 07181 99282 70892 46/// /3212 10117 20011 40251 50004 91800 333 91213
BBXX 44011 07181 99411 70666 46/// /1906 10131 20131 40110 57032 91750 22200 00104 10704 20502 3//// 40703 70020 333 91207 555 11071 22082 31740 40107 61749 192063 190062 188061 195060 194051 188040
BBXX CGHL 07184 99476 70527 46/// /3408 10031 20028 40158 56024 7//// 8//// 22200 0//// 2////
BBXX OUIY2 07184 99526 71557 41/// 81814 10043 2003/ 40193 56015 76355 88/// 22273 00050 20404 327// 40706 5//// 6//// 80036 ICE /////
BBXX C6FZ9 07184 99250 70773 41/// /0205 1//// 2//// 40130 5//// 7//// 8//// 222// 0//// 2//// 3//// 4//// 5//// 6//// 8//// ICE /////
BBXX WSRL 07184 99295 71505 41398 31212 10210 2016/ 40214 52012 7//00 832// 22214 00228 2//// 30832 40705 50805 6//// 80175 ICE /////
BBXX C6JS 07183 99405 70456 41497 51312 10190 2018/ 40165 54000 70300 89/// 22224 20603 3//// 4//// 5//// 80180
BBXX WKWB 07184 99212 71111 41498 46009 10227 2017/ 40170 51010 70111 84100 22272 00236 20100 334// 40502 80182
BBXX CGSB 07184 99468 70712 46/// /0708 11001 21022 40123 58032 7//// 8//// 22200 0//// 2////
BBXX CGBN 07184 99447 70636 46/// /0301 10091 20089 40086 56028 7//// 8//// 22200 0//// 2////
BBXX VCWL 07184 99456 70735 46/// /0000 10013 20001 40112 57030 7//// 8//// 22200 0//// 2////
BBXX VXKF 07184 99467 70599 46/// /1015 10043 20043 40096 56030 7//// 8//// 22254 0//// 2////
BBXX CGCC 07184 99468 70712 46/// /0509 11005 21028 40123 58031 7//// 8//// 22200 00054 2////
BBXX VAAP 07184 99445 70632 46/// /2207 10078 20077 40090 58020 7//// 8//// 22263 0//// 2////
BBXX VOPP 07184 99456 70735 46/// /1901 10011 20010 4//// 5//// 7//// 8//// 22200 0//// 2////
BBXX VCLM 07184 99621 70747 46/// /1731 11084 21120 49822 56011 7//// 8//// 22200 0//// 2////
BBXX CG2965 07184 99487 71235 46/// /2302 10052 20044 40324 51007 7//// 8//// 22200 0//// 2////
BBXX CGDG 07184 99444 70549 46/// /1807 10126 20137 40161 58025 7//// 8//// 22281 00143 2////
BBXX VOKJ 07184 99478 70699 46/// /3405 11013 21030 40121 58030 7//// 8//// 22254 0//// 2////
BBXX CGJV 07184 99447 70636 46/// /1101 10092 20091 40100 56027 7//// 8//// 22200 0//// 2////
BBXX CG2958 07184 99487 71235 46/// /2402 10054 20051 40332 51007 7//// 8//// 22200 0//// 2////
BBXX CGDT 07184 99490 70669 46/// /0507 11014 21024 40143 56026 7//// 8//// 22200 0//// 2////
BBXX CGDX 07184 99468 70712 46/// /0609 10002 21019 40122 58032 7//// 8//// 22200 0//// 2////
BBXX VAAZ 07184 99511 70498 46/// /0110 11011 21061 40206 53009 7//// 8//// 22231 0//// 2////
BBXX CGTF 07184 99476 70527 46/// /3208 10032 20029 40158 56024 7//// 8//// 22200 0//// 2////
BBXX VRYO3 07184 99456 70735 46/// /0000 10019 20030 40107 58028 7//// 8//// 22200 0//// 2////
BBXX CGJK 07184 99484 71234 46/// /0205 10061 20050 40321 51007 7//// 8//// 22200 0//// 2////
BBXX VCSZ 07184 99486 70684 46/// /0713 11002 21002 40117 58023 7//// 8//// 22213 0//// 2////
BBXX CGDR 07184 99505 71280 46/// /3302 10045 20044 40342 53002 7//// 8//// 22200 0//// 2////
BBXX CGBR 07184 99543 71303 46/// /0201 10000 21007 40352 50001 7//// 8//// 22211 00074 2////
BBXX 44039 07181 99411 70727 46/// /0902 10124 20124 40078 91745 22200 00112 1//00 70001 333 91202
BBXX WDE8293 07184 99082 10753 41597 20805 10285 20229 40085 52020 70500 821// 22275 00300 20101 303// 40303 5//// 6//// 80245 ICE /////
BBXX TBWUK36 07183 99121 11124 41397 80322 10272 20248 40081 54000 70222 887// 22213 00280 20505 304// 40504 5//// 80255
BBXX WHIA 07183 99106 10846 41398 40413 10280 2022/ 40100 52020 70200 841// 22213 0//// 20200 304// 40402 5//// 6//// 80240 ICE /////
BBXX C6SI6 07184 99554 11709 46/// /3422 11017 21036 49972 52036 7//// 8//// 22253 0//// 2////
BBXX 3FZK3 07184 99394 11367 46/// /3314 10020 21018 40179 53004 7//// 8//// 22213 0//// 2////
BBXX A8IM7 07184 99243 11504 41/97 /3629 10230 20208 40150 50150 75455 8//// 22264 04290 299// 3//// 4//// 5//// 80215
BBXX 46070 07181 99551 11753 46/// /3512 10008 21011 49888 53031 91750 22200 00046 11210 20505 3//// 41208 70049 333 91214 555 11122 22129 31707 40114 61749 352114 355110 352109 351114 359111 358118 83612 91654
BBXX WCX8883 07184 99368 11422 41/// 83413 10110 2007/ 40140 54010 78022 88/// 22254 00160 2//// 3//// 4//// 5//// 6//// 80090 ICE /////
BBXX ONFE 07184 99059 10863 41898 40518 10280 2024/ 40110 54000 70111 82208 22223 00290 2//// 3//// 4//// 5//// 6//// 80250 ICE /////
BBXX KDBG 07184 99310 11294 41/96 80226 10150 2011/ 40132 5//// 76062 88/// 22265 00236 2//// 3//// 4//// 5//// 6//// 80128 ICE /////
AAXX 07184 65306 32960 50404 10292 20078 39776 40108 80002 333 10364 58006 85076
AAXX 07184 65319 31940 50000 10300 20128 39588 40099 70522 80002 333 10368 58003 85076
AAXX 07184 65330 31925 50404 10317 20093 39653 40087 70522 80002 333 10365 58006 85076
AAXX 07184 65335 32960 51402 10312 20197 39869 40092 80002 333 10370 58010 85076
AAXX 07184 65344 32458 52206 10289 20245 30077 40088 81502 333 10312 58002 81613 85076
AAXX 07184 78988 02484 60907 10288 20245 30084 40094 57023 60001 82230 333 58010 60007 82818 86360
AAXX 07184 78990 01459 /0000 10298 20219 30097 57022 60001 70000 333 58014 60007
AAXX 07184 78873 NIL
BBXX UFTA 07181 99850 71234 11996 81304 11230 21256 49945 58002 69932 77172 84037
BBXX 44100 07181 99363 70756 46/// ///// 1//// 91752 22200 00148 11202 20902 308// 41201 70011
BBXX 41112 07181 99307 70813 46/// ///// 1//// 91751 22200 00172 11002 21002 310// 41201 70011
BBXX 41113 07181 99284 70805 46/// ///// 1//// 91751 22200 00226 11102 20901 310// 41101 70008
BBXX 41110 07181 99341 70777 46/// ///// 1//// 91751 22200 00159 10602 20602 312// 41101 70012
BBXX 42099 07181 99273 70842 46/// ///// 1//// 91757 22200 00245 10402 20402 70009
BBXX A8OK7 07184 99167 70752 41598 30507 10291 20239 40121 55008 70211 8/160 22223 20501 305// 4//01 5//// 80253
BBXX WDD2451 07184 99607 71513 41498 80125 10000 2//// 40210 57010 70222 889// 22241 0//// 20201 3//// 4//// 5//// 61//3 8//// ICE /////
BBXX C6FM8 07184 99261 70781 41798 31002 10250 20207 40180 54000 7//00 83200 22263 04257 2//// 3//// 4//// 5//// 6//// 85220 ICE /////
BBXX 44099 07181 99369 70757 46/// ///// 1//// 91752 22200 00138 11002 21002 309// 41101 70011
BBXX 46218 07181 99345 71208 46/// ///// 1//// 91802 22200 00140 11302 20802 330// 41302 70011
BBXX 46243 07181 99462 71241 46/// ///// 1//// 91759 22200 00084 11102 21001 327// 41101 70010
BBXX 46225 07181 99329 71174 46/// ///// 1//// 91744 22200 00155 11501 20901 320// 41501 70005
BBXX 46215 07181 99352 71209 46/// ///// 1//// 91738 22200 00136 11301 20901 325// 41301 70007
BBXX 46213 07181 99403 71247 46/// ///// 1//// 91754 22200 00103 11302 21002 331// 41302 70011
BBXX 46236 07181 99368 71219 46/// ///// 1//// 91750 22200 00116 11102 20801 328// 41101 70008
BBXX 46229 07181 99438 71246 46/// ///// 1//// 91751 22200 00108 11203 20602 329// 41202 70015
BBXX 46247 07181 99378 71228 46/// ///// 1//// 91751 22200 00117 11302 20701 330// 41301 70008
BBXX 44097 07181 99410 70711 46/// ///// 1//// 91802 22200 00131 10903 20903 316// 41101 70016
BBXX 44098 07181 99428 70702 46/// ///// 1//// 91737 22200 00099 11002 21002 311// 41101 70012
BBXX 44008 07181 99405 70692 46/// /2204 10156 20146 40097 58027 91750 22200 00137 10704 20401 319// 40704 70019 333 91205 555 11047 22056 31747 42205 61749 220041 226039 227040 234040 234040 238041
BBXX 44172 07181 99445 70634 46/// ///// 1//// 91801 22200 00083 10602 20602 314// 41101 70012
BBXX 44060 07181 99413 70721 46/// ///01 10121 40069 56038 91800 22200 00124 333 91202 555 11010 22010
BBXX 46042 07181 99368 71224 46/// /0702 10106 40254 54000 91750 22200 00122 11202 331// 41202 70009 333 91202 555 11015 22016 31716 40803 61749 071015 077013 066016 075019 084016 075014
BBXX 46089 07181 99459 71258 46/// /3608 10089 20056 40320 53005 91750 22200 00099 11103 20502 332// 41102 70015 333 91209 555 11082 22086 31735 43610 61749 001077 001077 359078 000076 355073 000069
BBXX 46061 07181 99602 71468 46/// /0913 10029 40273 58030 91750 22200 00061 10504 20504 300// 40901 70019 333 91216 555 11138 22145 31749 40916 61749 090130 094125 096126 095128 096123 097124
BBXX 46083 07181 99582 71380 46/// /1407 10023 21021 40334 56004 91750 22200 00065 10903 20402 300// 40902 70014 333 91208 555 11070 22075 31709 41309 61749 136067 135066 131073 131073 131073 133067 81308 91709
BBXX 41010 07181 99289 70785 46/// /2008 10239 40156 58029 91750 22200 00242 11103 20602 300// 41103 70016 333 91209 555 11082 22087
BBXX 41041 07181 99142 70460 46/// /1207 10273 20224 40104 56020 91750 22200 00268 10904 20603 3//// 40903 70021 333 91209 555 11078 22083 31716 41109 61749 115073 117072 121073 121076 119073 119072 81208 91715
BBXX 41009 07181 99285 70802 46/// /2007 10235 20160 40161 58028 91750 22200 00249 11003 20301 300// 41003 70015 333 91208 555 11072 22075
AAXX 07184 78866 01587 30609 10288 20222 30109 40114 57018 60001 83830 333 58020 60007 83823
BBXX VCRG 07184 99474 70619 46/// /0515 10042 20040 40109 56022 7//// 8//// 22200 0//// 2////
BBXX 46041 07181 99474 71247 46/// /1004 10066 40308 54000 91750 22200 00098 11103 20401 3//// 41103 70013 333 91205 555 11039 22040 31747 41105 61749 105038 102041 101032 109035 106030 116027
BBXX 46026 07181 99378 71228 46/// /0801 10106 40261 54000 91750 22200 00114 11202 331// 41202 70008 333 91202 555 11009 22009 31655 43002 61749 065009 308010 316010 329008 306011 317013
BBXX 42039 07181 99288 70860 46/// /3115 10149 40185 51004 91750 22200 00234 10707 20707 70035 333 91219 555 11160 22168 31725 43119 61749 307150 307151 305146 305150 303147 304154 83117 91725
BBXX 41040 07181 99145 70530 46/// /1104 10276 20240 40100 56021 91750 22200 00277 11004 20401 3//// 41004 70020 333 91205 555 11041 22043 31713 41105 61749 114040 113038 113039 111043 111042 113044 81105 91714
BBXX 51101 07181 99243 71621 46/// /0905 10235 20183 40183 53013 91750 22200 00244 11204 20401 335// 41204 70020 333 91207 555 11056 22058 31719 41008 61749 096051 115050 115058 088059 099052 093052
BBXX 46077 07181 99579 71543 46/// /0611 10040 20028 40106 58024 91750 22200 00046 11003 20503 3//// 41001 70016 333 91213 555 11119 22126 31700 40715 61749 061111 064117 062113 064113 066113 068119 80612 91728
BBXX 46035 07181 99571 71778 46/// /2611 1//// 49768 53017 91750 22200 11108 20805 300// 41107 70042 333 91214 555 11112 22119 31724 42615 61749 260111 268111 263116 270112 267118 271112 82713 91702
BBXX 46001 07181 99563 71480 46/// /1611 10063 40170 58030 91750 22200 00052 10907 20605 300// 40904 70034 333 91213 555 11117 22126 31658 41513 61749 156107 153107 152107 150105 147105 145109
BBXX 46082 07181 99597 71434 46/// ///// 10034 20034 40312 58014 91750 22200 00063 10503 70017
BBXX 44040 07181 99410 70736 46/// /0403 10103 20103 40071 91745 22200 1//00 70000 333 91204 555 11031 22036
BBXX 46072 07181 99517 71722 46/// /2213 10055 20040 49870 53017 91750 22200 00054 11011 20506 3//// 41009 70054 333 91216 555 11137 22147 31744 42116 61749 220128 220123 224124 221118 222126 220123 82314 91725
BBXX BATEU08 07184 99595 70395 46/// /3524 11018 21118 40058 53022 22223
BBXX BATFR16 07184 99359 70389 44598 61424 10195 40198 55006 70322 86270 22214 00217 21406 308// 41406 5////
BBXX PHQX 07183 99201 70735 41498 30307 10285 20214 40125 56005 70222 83462 22214 20302 304// 40803 5//// 80235
BBXX 44013 07181 99423 70707 46/// /0308 10086 20082 40074 58021 91750 22200 00102 10402 20402 300// 40901 70008 333 91210 555 11088 22093 31739 40310 61749 027083 027082 025078 025076 026077 031072
BBXX 44007 07181 99435 70701 46/// /0207 10054 20050 40088 58029 91750 22200 00089 10902 20401 3//// 40901 70009 333 91207 555 11068 22071 31747 40207 61749 021064 022057 017060 012059 022056 024056
BBXX WDD6126 07184 99382 70646 41698 62319 10220 2015/ 40168 57022 70322 85146 22224 00211 20203 321// 40302 5//// 6//// 80175 ICE /////
BBXX 41101 07184 99146 70562 46/// /1505 10271 20225 40094 57022 22200 00279 11003 70016
BBXX BAREU04 07184 99455 70577 46/// ///// 40107 57012 22224
BBXX BAREU54 07184 99162 70731 46/// ///// 40103 57018 22213
BBXX BAREU08 07184 99098 70788 46/// ///// 40112 57023 22223
BBXX VRZT9 07183 99278 70969 416// 30009 10100 2004/ 40340 56020 7//00 83485 22200 0//// 20502 3//// 40502 5//// 6//// 80070 ICE /////
BBXX NWS0022 07184 99416 70714 43/// /1607 10142 20134 40066 5//// 7//// 8//// 222// 04135 2//// 3//// 4//// 5//// 6//// 8//// ICE /////
BBXX KEY796 07183 99571 71703 41/97 81819 10039 20033 49814 55/// 761// 8//// 222// 00028 2//// 3//// 4//// 5//// 6//// 8//// ICE /////
BBXX 46050 07181 99442 71246 46/// /0306 10076 40304 52005 91750 22200 00103 11203 20501 330// 41202 70013 333 91207 555 11060 22062 31650 40309 61749 034057 035052 037053 028060 019069 021071
BBXX 46069 07181 99337 71202 46/// /3303 10130 40236 53005 91750 22200 00134 11302 20401 332// 41302 70009 333 91204 555 11031 22032 31655 43404 61749 330031 324033 319033 323036 325035 330035
BBXX 46011 07181 99350 71210 46/// /0000 10123 40240 55000 91750 22200 00136 11102 20401 327// 41102 70010 333 91201 555 11001 22001 31722 41102 61749 140002 128005 110007 120007 085006 058004
BBXX 46013 07181 99382 71233 46/// /1001 10098 40264 52003 91750 22200 00107 11102 3//// 41102 70010 333 91202 555 11014 22015 31651 41002 61749 097014 092015 091012 092013 088016 093018
BBXX 46025 07181 99337 71191 46/// /0000 10147 40231 52003 91750 22200 00152 11501 20401 329// 41501 70005 333 91201 555 11003 22003 31721 43102 61749 322003 320008 313012 297014 311010 331011
BBXX 46054 07181 99342 71204 46/// /3203 10127 40235 53006 91750 22200 00139 10802 20401 300// 40802 70010 333 91204 555 11035 22036 31651 43205 61749 318034 317034 322035 324041 321040 314044
BBXX 46028 07181 99357 71219 46/// /3506 10126 40240 55000 91750 22200 00132 11202 20501 333// 41202 70011 333 91207 555 11058 22061 31710 43407 61749 349055 354055 350058 344060 334056 321051
BBXX 46087 07181 99485 71247 46/// /0805 10070 20065 40312 51007 91750 22200 00083 11102 20501 328// 41102 70012 333 91206 555 11057 22059 31744 40906 61749 080053 076051 079046 076043 073036 073036
BBXX 46029 07181 99461 71245 46/// /3503 10080 20075 40311 53004 91750 22200 00078 11202 20401 330// 41202 70012 333 91204 555 11033 22036 31749 43504 61749 352031 355022 266005 267014 265020 258017
BBXX 46027 07181 99419 71244 46/// /0702 10081 40267 54000 91750 22200 00093 11302 20401 327// 41302 70012 333 91202 555 11015 22016 31656 40303 61749 061016 050021 048024 046021 039025 028028
BBXX 46012 07181 99374 71229 46/// /3605 10107 40258 54000 91750 22200 00122 11202 20301 325// 41202 70009 333 91206 555 11057 22059 31713 43607 61749 004054 004056 008056 004055 002054 002048
BBXX 46086 07181 99325 71180 46/// /3603 10145 40225 52006 91750 22200 00149 11301 20301 315// 41301 70007 333 91203 555 11027 22028 31715 43404 61749 357026 344028 339027 346031 353030 355031
BBXX 46014 07181 99394 71240 46/// /0101 10087 40269 54000 91750 22200 00104 11202 3//// 41202 70010 333 91202 555 11008 22008 31657 40303 61749 003009 000008 022016 021019 031018 032021
BBXX 46053 07181 99342 71198 46/// /1301 10134 40231 52003 91750 22200 00142 333 91201 555 11006 22006 31721 41203 61749 138005 136010 130018 126018 126020 122019
BBXX 46047 07181 99324 71195 46/// /3305 10134 40233 52004 91750 22200 00146 11302 20401 329// 41302 70009 333 91206 555 11048 22050 31724 43406 61749 333046 326044 332046 333044 330044 330045
BBXX 46088 07181 99483 71232 46/// /0404 10058 40315 91750 22200 00083 1//00 70002 333 91204 555 11036 22037 31746 40504 61749 039034 046025 048017 087025 085024 079021
BBXX 44018 07181 99421 70696 46/// /1904 10108 20108 40075 58022 91750 22200 00097 10902 20401 3//// 40902 70012 333 91204 555 11040 22046 31718 41906 61749 188035 190038 195046 191049 193037 190039
BBXX 42059 07181 99151 70675 46/// /0906 10277 20231 40102 58023 91750 22200 00284 11102 20401 3//// 41102 70010 333 91207 555 11060 22063 31705 41007 61749 088057 088056 092057 091058 096059 096057 81006 91708
BBXX 41013 07181 99334 70777 46/// /2011 10233 20187 40100 58039 91750 22200 00234 10604 20604 312// 41001 70020 333 91213 555 11118 22126 31714 42014 61749 202111 204113 205114 205113 206117 208109
BBXX 44020 07181 99414 70702 46/// /2105 10120 20120 40078 58022 91750 22200 00100 10301 20301 70004 333 91206 555 11050 22053 31651 42509 61749 220047 250047 247049 248058 249061 252070
BBXX 44065 07181 99404 70737 46/// /2303 10123 20123 40057 58038 91750 22200 00119 10902 20301 312// 40902 70012 333 91206 555 11034 22038 31735 41907 61749 233029 197030 207021 227017 260030 283038 81906 91735
BBXX 42055 07181 99222 70940 46/// /3613 10208 20157 40234 50000 91750 22200 00253 10908 20907 335// 41505 70041 333 91216 555 11133 22140 31715 43617 61749 001125 357129 356126 356133 359131 003128 83614 91717
BBXX 42003 07181 99260 70856 46/// /3212 1//// 91750 22200 10403 20403 313// 40701 70014 333 91214 555 11131 22140 31734 43215 61749 322120 324120 321123 321119 319112 319117 83213 91720
BBXX 42056 07181 99198 70849 46/// /0306 10262 20211 40166 58011 91750 22200 00277 10702 20501 309// 40701 70010 333 91207 555 11066 22069 31734 40408 61749 031063 030063 022061 026061 023065 029063 80407 91734
BBXX 44005 07181 99432 70691 46/// /0408 10080 20080 40076 58025 91750 22200 00093 10903 20502 3//// 40902 70013 333 91209 555 11086 22091 31743 40309 61749 036080 041079 035080 042078 043073 036075
BBXX 42040 07181 99292 70882 46/// /3112 10098 40228 50000 91750 22200 00223 10605 20605 70025 333 91215 555 11117 22122 31655 43117 61749 314117 313121 304119 311127 310124 312127
BBXX 42060 07181 99163 70635 46/// /0606 10272 20224 40113 58018 91750 22200 00282 11102 20401 300// 41102 70012 333 91207 555 11063 22066 31728 40608 61749 063060 064062 064062 063064 068060 069058 80607 91713
BBXX 44027 07181 99443 70673 46/// /3607 10059 20051 40093 57015 91750 22200 00092 10602 20602 3//// 41001 70010 333 91209 555 11078 22081 31718 43610 61749 359075 356079 359081 357084 003074 021060
BBXX 42058 07181 99149 70749 46/// /0504 10268 20211 40108 58019 91750 22200 00279 10702 20401 303// 40702 70011 333 91205 555 11044 22045 31735 40606 61749 051042 063043 083037 087030 087029 090034 80605 91735
BBXX 42036 07181 99285 70845 46/// /3014 10186 20161 40167 54000 91750 22200 00223 10604 20604 70022 333 91216 555 11144 22152 31703 42917 61749 295136 293137 297134 296136 295137 294140
BBXX 42035 07181 99292 70944 46/// /3108 10048 20014 40299 50000 91750 22200 00166 10402 20402 70008 333 91210 555 11088 22091 31730 43212 61749 312084 311088 307088 306090 313082 303085
BBXX 42001 07181 99259 70897 46/// /3211 10176 20095 40237 58003 91750 22200 00241 10806 20806 70031 333 91214 555 11115 22121 31709 43215 61749 319111 311117 313118 310116 313118 317102
BBXX 42020 07181 99270 70967 46/// /3409 10105 20037 40303 58006 91750 22200 00243 10704 20704 70019 333 91212 555 11098 22102 31743 43612 61749 343092 352091 342091 344090 341092 348091
BBXX 42012 07181 99301 70876 46/// /3110 10085 20046 40216 50000 91750 22200 00201 10703 20703 70017 333 91213 555 11106 22111 31730 43114 61749 307104 315110 311109 309110 304117 303116
BBXX 42065 07181 99149 70750 46/// /0104 10254 20214 91750 22200 10702 20401 3//// 40702 70010 333 91207 555 11043 22045 31740 40408 61749 019044 002025 343027 358021 351024 344020 80406 91741
BBXX 41049 07181 99275 70630 46/// /0707 10231 20145 40190 56016 91750 22200 00250 11005 20703 300// 41003 70023 333 91208 555 11078 22082 31702 40910 61749 073074 076061 078071 081077 082073 088076 80909 91702
AAXX 07184 65351 31950 70406 10310 20088 3//// 4//// 70522 80002 333 10350 5//// 87076
AAXX 07184 65355 32960 70000 10280 20097 39586 40097 80002 333 10350 58009 87073
AAXX 07184 65357 32960 60804 10308 20106 39704 40092 80002 333 10375 58001 86076
AAXX 07184 65380 32960 70000 10283 20239 3//// 4//// 80002 333 10348 5//// 87076
AAXX 07181 06380 17679 82707 10065 20002 39955 40095 51031 60082 72298 8//// 333 10077 87/42 88/49 91016 91117 91210
AAXX 07183 61701 32960 00000 10302 20173 40098 80000 333 10340 58000
AAXX 07183 61705 32960 00000 10325 20207 4//// 80000 333 10352 5////
AAXX 07183 61707 NIL
AAXX 07183 61711 NIL
AAXX 07183 61712 NIL
AAXX 07183 61717 NIL
AAXX 07183 61720 NIL
AAXX 07183 61721 32960 00000 10337 20155 4//// 80000 333 10359 5////
AAXX 07183 61722 32960 50905 10318 20132 4//// 80002 333 10345 5//// 85073
AAXX 07183 61731 32960 20000 10310 20157 4//// 80002 333 10374 5//// 82074
AAXX 07183 61733 NIL
AAXX 07184 04005 21470 70503 11024 21065 49935 52004 78588 87800 333 11023 21084 60058 555 3/304
AAXX 07184 04018 22584 80810 11034 21083 49942 57010 8112/ 333 11021 21066 69918 555 3//10 81823 88460
AAXX 07184 04030 32684 70605 11056 21104 49947 57009 86827 333 11052 21084 555 3//06 82836 86642 87457
AAXX 07184 04048 32589 71024 10003 21043 49932 58021 81518 333 10003 21050 555 3/424
AAXX 07184 04063 32782 11407 11104 21154 49963 58001 81400 333 11075 21115 555 3//09
AAXX 07184 04077 NIL
AAXX 07184 04082 NIL
AAXX 07184 04097 32689 23006 11034 21105 49971 58002 82200 333 11017 21034 555 3/417
AAXX 07184 78906 11478 73403 10282 20236 40102 40107 69901 70262 86841 333 10291 20226 58012 82817 86640 90930
BBXX TFBKF 07184 99635 70202 46/// ///// 22200 10803 70016
BBXX TFBLK 07184 99657 70248 46/// ///// 22200 10706 70030
BBXX TFDRN 07184 99658 70212 46/// ///// 22200 10702 70012
BBXX TFGRS 07184 99663 70182 46/// ///// 22200 10604 70021
BBXX TFGRV 07184 99638 70225 46/// ///// 22200 10805 70023
BBXX TFGSK 07184 99641 70229 46/// ///// 22200 10804 70020
BBXX TFHFN 07184 99642 70152 46/// ///// 22200 10804 70019
BBXX TFKGR 07184 99657 70136 46/// ///// 22200 10705 70026
BBXX TFSRT 07184 99633 70203 46/// ///// 22200 10906 70028
BBXX TFSTD 07184 99664 70234 46/// ///// 22200 10606 70032
AAXX 07181 06370 17679 62709 10073 20001 30050 40075 51032 60032 72298 8//// 333 10081 82/44 87/50 91014 91118 91210
AAXX 07181 06414 16/// /2706 10067 21008 30088 40121 52035 69922 333 10095 91120 91212
AAXX 07181 06459 16/// /2708 10060 20022 39928 40122 52039 60042 333 10089 91123 91215
AAXX 07181 06494 16/// /2706 10010 21007 39296 40104 52028 60082 333 10038 91120 91210
AAXX 07184 78905 11478 70902 10268 20222 30090 40113 69911 70282 87860 333 10287 20230 58015 82818 86640 90960
BBXX CG2350 07184 99433 70798 46/// /2406 10017 21018 40124 58029 7//// 8//// 22200 0//// 2////
BBXX 45002 07181 99453 70864 46/// /2807 11026 21073 39903 40122 50000 91750 22200 10603 20603 70014 333 91210 555 11078 22083 31714 42811 61749 283074 278072 275070 278073 276075 278076
BBXX 45008 07181 99443 70824 46/// /2508 10008 39899 40116 58029 91750 22200 00065 10402 20402 70010 333 91210 555 11087 22091 61749 249082 244082 252079 249078 251077 255083
BBXX CGDS 07184 99447 70755 46/// /3402 10013 20002 4//// 5//// 7//// 8//// 22200 0//// 2////
BBXX WDD2876 07184 99475 70878 41/98 83320 11011 2//// 40088 54/// 70272 8//// 22263 00061 2//03 3//// 4//// 5//// 6//// 8//// ICE /////
BBXX 41048 07181 99320 70696 46/// /1906 10227 20153 40195 58024 91750 22200 00232 10903 20501 3//// 40903 70016 333 91207 555 11058 22061 31716 42008 61749 189058 193058 184058 194061 189063 185061 81907 91709
BBXX 41044 07181 99217 70587 46/// /0510 10266 20219 40114 58017 91750 22200 00269 10906 20604 300// 40904 70030 333 91212 555 11103 22109 31651 40413 61749 049098 049094 049100 049103 050105 049105 80511 91651
BBXX 41001 07181 99347 70727 46/// ///// 10230 20161 40143 58032 91750 22200 00226 10504 70019
BBXX 46105 07181 99590 71522 46/// ///// 1//// 91750 22200 10809 70044
BBXX 46005 07181 99461 71310 46/// ///06 10091 40349 53008 91750 22200 00103 11103 20301 3//// 41103 70014 333 91207 555 11059 22062
BBXX 46080 07181 99580 71500 46/// /1214 10047 20046 40153 57044 91750 22200 00053 10807 20705 3//// 40805 70037 333 91216 555 11146 22155 31653 41218 61749 120136 118137 117136 119132 118138 116139 81215 91654
BBXX 46059 07181 99380 71300 46/// /0304 10113 40290 53007 91750 22200 00151 11203 20401 3//// 41203 70014 333 91206 555 11045 22046 31740 40207 61749 025045 026040 029027 042028 046045 040051
BBXX 46006 07181 99408 71375 46/// /0706 10103 40342 53010 91750 22200 00126 11303 20502 3//// 41303 70017 333 91209 555 11065 22068 31707 40609 61749 075063 064067 056065 068062 066071 066062
BBXX 46084 07181 99566 71361 46/// /1704 10052 21012 40336 55000 91750 22200 00077 10803 20401 300// 40803 70015 333 91205 555 11037 22038 31734 41705 61749 172036 177038 180039 174037 174034 165029
BBXX 46075 07181 99539 71608 46/// /2008 10059 20057 40032 52010 91750 22200 00058 11411 20705 300// 41410 70055 333 91211 555 11090 22096 31715 41914 61749 199085 198100 193087 193097 185090 184084 82011 91737
BBXX 46002 07181 99426 71305 46/// ///// 10112 40324 53005 91750 22200 00125 11204 70018
BBXX 41043 07181 99211 70650 46/// /0806 10264 20227 40133 58022 91750 22200 00272 11005 20502 300// 41004 70024 333 91207 555 11062 22065 31707 40808 61749 083059 088058 088059 084063 081064 086062 80807 91713
BBXX 41008 07181 99314 70809 46/// /1910 10193 20175 40112 58041 91750 22200 00179 10502 20502 300// 41001 70012 333 91213 555 11106 22116 31749 42013 61749 193099 193096 198093 200092 201087 198092
BBXX 44014 07181 99366 70748 46/// /1808 10209 20169 40089 58046 91750 22200 00155 11103 20602 309// 41102 70014 333 91209 555 11079 22079 31703 41910 61749 181079 183083 184083 186083 188085 186077
BBXX 44066 07181 99396 70726 46/// /2010 10159 20146 40070 57048 91750 22200 00134 11103 20603 3//// 41102 70016 333 91211 555 11106 22117 31710 42012 61749 202097 200095 200091 198091 199090 200087
BBXX 44025 07181 99402 70732 46/// /2007 10133 20129 40057 56040 91750 22200 00119 11003 20602 313// 41002 70013 333 91208 555 11072 22081 31710 41810 61749 200066 191072 181077 179084 181082 182078
BBXX 42002 07181 99258 70937 46/// /3512 10146 20064 40275 58005 91750 22200 00248 10806 20806 70030 333 91216 555 11122 22130 31717 40116 61749 349124 355125 353125 356125 001119 353125
BBXX 41047 07181 99275 70715 46/// /1108 10247 40181 58018 91750 22200 00253 11005 20603 308// 41004 70025 333 91210 555 11083 22088 31725 41111 61749 109083 109084 107085 112090 108088 112086 81110 91712
BBXX 44009 07181 99385 70747 46/// /1911 10150 40068 56043 91750 22200 00129 10504 20503 300// 40901 70018 333 91212 555 11116 22127 31737 41913 61749 190106 190106 190106 188109 189106 192105
BBXX 41004 07181 99325 70791 46/// /2112 10222 20177 40107 58043 91750 22200 00221 10604 20603 3//// 40902 70018 333 91214 555 11124 22133 31717 42214 61749 212118 212117 213114 214108 214112 213109
AAXX 07184 78016 32664 71107 10210 20125 30217 40221 57019 87500 333 10215 20189 70000
BBXX DDAC2 07180 99150 70977 41/98 13403 40120 54000 7//00 81100 22234 20202 3//// 4//// 5//// 3//// 4//// 5//// 80246
BBXX FVNM 07184 99103 71092 46/// /1115 10269 20210 40126 50002 22200 00269
BBXX VRZN7 07184 99058 71574 41697 71018 10270 2021/ 40095 52012 70311 84182 22273 04286 20502 314// 40905 5//// 6//// 85231
BBXX WDC6698 07184 99095 71443 43/// /1212 10273 2//// 40100 5//// 7//// 8//// 222// 04258 2//// 3//// 4//// 5//// 6//// 8//// ICE /////
BBXX 41036 07181 99342 70770 46/// ///// 10200 20164 40105 57040 91750 22200 00178 10603 70017
BBXX ZCDF4 07183 99217 70767 41598 40619 10260 20232 40151 57011 72511 83470 22234 00260 20301 309// 40502 5//// 80241
BBXX A8EH5 07181 99453 71392 41398 80907 10098 20071 40372 52002 70352 8571/ 22273 00089 20402 328// 41603 5//// 80084
BBXX WAHV 07184 99343 10240 41697 53133 10160 2014/ 40180 54000 78100 842// 22225 00176 21005 3//// 4//// 5//// 6//// 80150 ICE /////
BBXX DBBH 07181 99539 10087 41497 82810 10055 20027 49924 52007 76062 888// 22262 04052
BBXX HZZB 07183 99372 10040 41998 12813 10169 2016/ 40294 56005 70200 80/// 22223 0//// 20502 327// 40802 5//// 6//// 80163 ICE /////
BBXX HZRX 07183 99363 70232 41697 70705 /// 10200 20185 40261 57002 70222 87202 22263 10150 20203 30707 40102 5//// 6//// 80180 ///// /////
BBXX DBBA 07181 99536 10086 46/// ///// 10044 20037 49929 52005 22220 00061
BBXX DBBI 07181 99536 10086 46/// /2607 10044 20044 49929 57003 22202 00057
BBXX DBEA 07181 99540 10085 46/// +2912 10059 20027 49914 52009 22240 00057
BBXX DBEB 07181 99538 10081 41/// /3014 10053 20052 49919 52009 7//// 22200 00058
BBXX DBJM 07181 99542 10079 46/// /2913/10086 20040 49917 52010 22231 00081
BBXX ZCBW2 07183 99342 10253 41497 42428 10170 20100 40160 56025 71382 82911 22263 00200 20506 325// 40906 5//// 80130
BBXX VRCQ2 07183 99325 10274 41/98 /2719 10200 20153 40210 54/// 702// 8//// 22224 0//// 2//// 3//// 4//// 5//// 6//// 80170 ICE /////
BBXX BATFR47 07184 99240 51330 46/// /0811 10237 20179 40183 51008 22222
BBXX BATFR56 07184 99038 10999 46/// /3309 10287 20230 40089 58008 22273 00299
BBXX BATEU07 07184 99377 31334 46/// /1217 10149 40096 56014 22223
AAXX 07184 16622 11960 03610 10100 20025 30156 40167 52011 69952 70160 333 10110 90730 91118 555 10000 40066 30000 10098 2//// 30100 4//// 5//// 40000 47649 44230 50000 50068 60000 60005 60300 70000 77/// 7R///
AAXX 07184 16641 12560 13011 10130 20043 30174 40179 53014 60002 81200 333 10160 90730 91116 555 10000 40100 40000 47660 44200 50000 50090
AAXX 07184 16682 12560 23212 10148 20051 30142 40160 52012 60132 81140 333 10158 90730 91123 555 10000 40124 30000 10125 20140 30140 40144 50148 60195 40000 47638 44210 50000 50102 60000 60130 60450
AAXX 07184 16716 11560 43304 10144 20076 30122 40140 53012 60022 70161 84800 333 10178 82820 83635 555 10000 40120 40000 47620 44185 50000 50110 60000 60017 60110 70000 77/// 7R///
AAXX 07184 16734 11570 53220 10154 20076 30110 40171 52011 60062 70252 84250 333 10185 84820 85360 90730 91124 555 60000 60062 60405 70000 77/// 7D///
AAXX 07184 16743 NIL
AAXX 07184 16749 11460 72008 10156 20127 30113 40127 57012 60012 70162 86820 333 10192 82818 86620 87457 90730 91113 555 10000 40150 40000 47618 44230 50000 50140 60000 60012 60100 70000 77/// 7RY//
AAXX 07184 16754 11560 22312 10134 20107 30102 40149 52002 60082 70196 82200 333 10186 90730 91123 555 10000 40134 40000 47608 44200 50000 50120 60000 60080 60400 70000 77/// 7RV//
AAXX 07181 38353 429// 31402 11064 21092 39405 40357 58013 83040 333 11029
AAXX 07181 38613 429// 00201 11050 21078 40345 58010 333 11002
AAXX 07181 38616 129// 01401 11061 21088 39283 40356 56001 69900 333 11004
AAXX 07181 38345 32998 01001 11077 21117 38857 48538 57009 333 11006
AAXX 07181 36911 429// 60902 11068 21073 39341 40359 58011 86010 333 11039
AAXX 07181 36974 329// 00601 11124 21144 38044 48612 52006 333 11030
AAXX 07181 36982 429// 20202 11221 21254 36561 47240 58001 80001 333 11118
AAXX 07184 78866 01587 30609 10288 20222 30109 40114 57018 60001 83830 333 58020 60007 83823
AAXX 07184 78988 02484 60907 10288 20245 30084 40094 57023 60001 82230 333 58010 60007 82818 86360
AAXX 07184 78990 01459 /0000 10298 20219 30097 57022 60001 70000 333 58014 60007
AAXX 07184 78873 NIL
AAXX 07184 78866 01587 30609 10288 20222 30109 40114 57018 60001 83830 333 58020 60007 83823
BBXX PJFF 07184 99442 70209 41197 82507 10170 20161 40290 54000 70222 888// 22214 20301 334// 41003 80164
AAXX 07184 78988 02484 60907 10288 20245 30084 40094 57023 60001 82230 333 58010 60007 82818 86360
AAXX 07184 78990 01459 /0000 10298 20219 30097 57022 60001 70000 333 58014 60007
AAXX 07184 78873 NIL
AAXX 07184 78767 11565 83008 10261 20200 3140 40142 58010 69901 71552 83170 333 10268 20210 30/// 56000 58020 83830 85360
AAXX 07184 78774 32970 22305 10320 20158 30014 40106 58016 82030 333 10322 20174 30/// 56200 58011 82364
BBXX OWFD2 07181 99321 70153 41298 40910 10200 20193 40260 54000 70211 8371/ 22214 04200 20402 310// 40402 80195
AAXX 07184 78774 32970 22305 10320 20158 30014 40106 58016 82030 333 10322 20174 30/// 56200 58011 82364
AAXX 07184 78767 11565 83008 10261 20200 3140 40142 58010 69901 71552 83170 333 10268 20210 30/// 56000 58020 83830 85360
AAXX 07184 47101 31950 80000 11001 21017 30138 40237 55007 71022 8802/
AAXX 07184 47105 369// /2504 10052 21063 30178 40210 55008
AAXX 07184 47108 31940 82906 10026 21021 30126 40234 58004 70522 8802/
AAXX 07184 47115 41420 80712 10054 20052 39923 40196 53005 76362 8672/ 333 92044
AAXX 07184 47133 31956 80000 10041 21010 30150 40236 55001 70522 8801/
AAXX 07184 47138 32663 82504 10071 21015 30203 40206 55004 8452/ 333 92022
AAXX 07184 47159 32660 83412 10072 21033 30119 40205 50004 8552/ 333 92024
AAXX 07184 47165 41657 80502 10063 20010 30180 40227 56001 72162 8352/ 333 92021
AAXX 07184 47168 41561 83205 10078 20007 30131 40210 56005 76066 8572/ 333 92022
AAXX 07184 47184 41562 81601 10090 20067 30195 40220 51005 76166 8572/ 333 92021
AAXX 07181 26509 11570 81808 10038 20004 39977 49986 57001 60042 70288 885// 333 10046 88620 91013 91115 555 53015
AAXX 07181 26518 12670 71805 10003 21008 40002 58002 69972 86502 333 10008 91007 91108 555 4/011 53010
AAXX 07181 26524 12497 61602 10008 20003 39877 40010 52002 69932 86500 333 10014 91005 91108 555 4/003 53011
AAXX 07181 26531 11661 81703 10010 21001 40022 52006 69902 70252 885// 333 10019 88639 91006 91108 555 53009
AAXX 07181 26629 11496 71804 10008 21000 39932 40028 57002 69902 71072 87500 333 10018 87619 91007 91108 555 53009
AAXX 07181 26633 11456 81702 10012 21005 39905 40036 52002 69902 77176 8872/ 333 10014 88710 91004 91107 555 4/997 53007
AAXX 07181 26730 11330 81903 10004 21002 39852 40045 58003 69902 77176 8802/ 333 10010 88507 91006 91108 555 53011
AAXX 07184 16614 12570 13205 10050 21013 39403 40192 52017 60012 81100 333 10104 90730 91114 555 10000 40040 60000 60013 60150
AAXX 07184 16627 11458 70906 10068 20068 30153 40156 52026 60052 76065 86770 333 10130 82712 86620 87358 90730 91120 555 10000 40068 30000 10096 20102 30110 40110 50112 6//// 40000 47646 44230 50000 50068 60000 60048 60530 70000 77R// 7RD//
AAXX 07184 16667 11560 73006 10128 20109 30102 40107 51002 69902 70262 85850 333 10180 82820 84625 86359 90730 91117 555 10000 40128 30000 20140 30150 40000 47606 44200 50000 50118 60000 65555 60100 70000 77/// 7R///
AAXX 07184 16675 17/// /3012 10128 20044 30145 40158 52022 60022 741// 333 10183 90730 91119 555 10000 40109 60000 60024 60235
AAXX 07184 16710 36/// /9902 10068 20021 39402 40178 52015 333 10128 90730 91115 555 10000 40067
AAXX 07184 16723 11460 79903 10140 20118 30103 40119 52003 60252 76196 86670 333 10170 82715 85625 87358 90730 91123 555 10000 40140 40000 47613 44240 50000 50128 60000 60248 60745 70000 77R// 7TR//
AAXX 07184 16738 17/// /2611 10147 20103 39945 40142 52009 69902 7414/ 333 10182 90730 91122 555 10000 40139 60000 65555 60120
AAXX 07184 16746 11560 42616 10136 20106 39975 40156 51008 60082 70196 84800 333 10180 82820 83625 90730 91130 555 10000 40126 40000 47512 44200 50000 50120 60000 60081 60250 70000 77/// 7TRVP
AAXX 07184 16643 12560 20000 10130 20068 30179 40185 52019 60002 82200 333 10170 90730 91120 555 10000 40112 40000 47669 44240 50000 50100
AAXX 07184 16648 12560 20000 10074 20047 30070 40160 52020 69932 82150 333 10140 90730 91104 555 10000 40050 30000 10076 2//// 30078 40086 5//// 6//// 40000 47583 44210 50000 50062 60000 60003 60145
AAXX 07184 16650 11457 70318 10098 20068 30129 40133 52022 60112 76166 85870 333 10158 81818 84620 87358 90730 91127 555 10000 40098 30000 10126 20124 30124 40122 50120 60140 40000 47628 44230 50000 50084 60000 60106 60630 70000 77R// 7R///
AAXX 07184 16684 11458 73610 10112 20088 30096 40125 52014 60062 76162 84670 333 10178 84710 83820 87357 90730 91128 555 10000 40112 40000 47604 44220 50000 50100 60000 60062 60305 70000 77R// 7R///
AAXX 07184 16732 11465 53020 10154 20109 30120 40133 53005 60032 70192 82250 333 10176 82818 84358 90730 91126 555 10000 40152 40000 47613 44140 50000 50130 60000 60025 60020 70000 77/// 7TR//
AAXX 07184 47090 32665 80001 10049 21069 30188 40210 57008 8252/ 333 92021
AAXX 07184 47095 31940 80000 11016 21025 30046 40241 57006 710// 8802/
AAXX 07184 47097 329// /3203 10031 21028 30133 40231 58002
AAXX 07184 47098 329// /3602 10002 21021 30097 40235 57006
AAXX 07184 47099 329// /0000 10000 21001 30203 40241 56002
AAXX 07184 47100 31957 82503 11037 21064 39290 40235 55004 71022 8801/
AAXX 07184 47102 32662 52911 10009 21035 30082 40265 53005 85500
AAXX 07184 47104 32670 81803 10039 21058 30112 40210 55007 8152/
AAXX 07184 47106 329// /2903 10053 21062 30156 40206 55007
AAXX 07184 47112 31956 83606 10039 21018 30150 40235 58002 70522 8802/ 333 92012
AAXX 07184 47114 31958 80000 10010 21020 30042 40229 57007 71022 8801/
AAXX 07184 47119 31950 83404 10042 20000 30190 40233 54000 70522 8801/
AAXX 07184 47121 329// /0000 10003 21016 39927 40228 57011
AAXX 07184 47127 329// /0001 10016 21008 30088 40233 56003
AAXX 07184 47129 31958 83406 10061 20004 30204 40240 50002 70522 8802/
AAXX 07184 47130 32970 82503 10041 21014 30141 40203 58009 8802/ 333 92032
AAXX 07184 47131 31957 83601 10045 21015 30161 40232 50006 70522 8802/
AAXX 07184 47135 329// /2709 10037 21005 39925 40227 55005
AAXX 07184 47136 31950 82701 10034 21015 30043 40217 56005 70542 8801/
AAXX 07184 47137 329// /2707 10044 21024 30103 40222 55001
AAXX 07184 47140 31958 80001 10045 20008 30204 40233 58004 71022 8802/ 333 92011
AAXX 07184 47143 31658 82905 10067 21030 30143 40222 56002 70522 8552/
AAXX 07184 47145 31959 83203 10049 21017 30200 40227 54000 70522 8802/
AAXX 07184 47146 31950 83404 10051 21003 30167 40234 55001 70522 8801/
AAXX 07184 47150 31957 80204 10053 21001 30212 40231 57010 70522 8802/
AAXX 07184 47152 32662 83606 10068 21016 30162 40205 55004 8352/
AAXX 07184 47154 329// /2905 10056 21015 30161 40222 57004
AAXX 07184 47155 31659 80905 10081 21047 30162 40208 58004 70522 8352/
AAXX 07184 47156 32662 80505 10061 20004 30140 40230 50005 8452/
AAXX 07184 47157 31959 82703 10044 21016 39936 40208 57003 70522 8802/
AAXX 07184 47162 41558 80702 10062 20026 30169 40210 57004 76166 8672/ 333 92021
AAXX 07184 47169 41665 83610 10095 20058 30131 40224 57008 72166 8352/ 333 92043
AAXX 07184 47170 41557 82902 10065 20021 30180 40224 50005 76066 8372/ 333 92021
AAXX 07184 47171 329// /0701 10048 20005 30178 40234 50001
AAXX 07184 47172 329// /2901 10057 20006 30159 40226 50001
AAXX 07184 47173 329// /0001 10047 21005 30116 40228 54000
AAXX 07184 47174 32662 83207 10062 21012 30016 40219 50001 8252/
AAXX 07184 47175 41561 83608 10032 20013 39647 40226 50003 72162 8452/ 333 92023
AAXX 07184 47185 41561 80211 10093 20060 30124 40215 55001 76166 8572/ 333 92024
AAXX 07184 47188 41562 80502 10085 20064 30194 40216 52007 76166 8572/ 333 92021
AAXX 07184 47189 41561 83402 10103 20092 30143 40203 50001 76166 8572/ 333 92022
AAXX 07184 47192 31658 83601 10059 20006 30175 40213 57006 70522 8352/
AAXX 07184 78397 111574 71804 10293 20224 30105 40121 60001 70511 87800 333 01800 10311 20237 58015 81822 87630
AAXX 07184 93004 16/// /2214 10148 20129 40128 52008 60001
AAXX 07184 93023 16/// /2303 10145 20122 40125 52012 60001
AAXX 07184 93069 16/// /2410 10164 20128 40114 52019 60001
AAXX 07184 93110 17598 /1907 10163 20133 40112 52018 60001
AAXX 07184 93186 17/98 /2005 10144 20118 40103 52021 60001
AAXX 07184 93196 16/// /1513 10145 20126 40096 52026 60001
AAXX 07184 93245 16498 /0502 10105 20099 40111 52017 60001
AAXX 07184 93292 17596 /3302 10135 20126 40106 52022 60001
AAXX 07184 93309 17/98 /1604 10113 20109 40110 52017 60001
AAXX 07184 93334 16/// /0903 10036 20034 39167 52019 60001
AAXX 07184 93339 16/// /0602 10049 20044 39172 52020 60001
AAXX 07184 93373 17/98 /1703 10124 20103 40110 52024 60001
AAXX 07184 93404 17698 /0303 10101 20095 40114 52019 60001
AAXX 07184 93420 17598 /1101 10102 20083 40113 52017 60001
AAXX 07184 93439 17698 /0303 10114 20085 40112 52018 60001
AAXX 07184 93498 16/// /2509 10108 20078 40107 52020 60001
AAXX 07184 93515 17598 /1902 10126 20125 40117 52019 60001
AAXX 07184 93527 16/// /2810 10144 20129 40109 52014 60001
AAXX 07184 93546 17598 /2604 10123 20119 40108 52018 60001
AAXX 07184 93597 16/// /1507 10122 20096 40109 52018 60001
AAXX 07184 93615 17697 /0605 10138 20120 40113 52019 60001
AAXX 07184 93678 16498 /0000 10100 20083 40111 52019 60001
AAXX 07184 93709 16/// /0000 10140 20119 40105 52019 60001
AAXX 07184 93773 17496 /1901 10093 20085 40109 52019 60001
AAXX 07184 93781 17498 /2803 10103 20082 40106 52016 60001
AAXX 07184 93800 NIL
AAXX 07184 93805 NIL
AAXX 07184 93831 17598 /1716 10089 20062 40105 52022 60001
AAXX 07184 93845 17698 /2512 10105 20074 40113 52015 60001
AAXX 07184 93891 17698 /2406 10097 20061 40107 52014 60001
AAXX 07184 93909 16/// /2818 10086 20075 40104 52013 60001
AAXX 07184 93929 16/// /2110 10082 20037 40056 52016 69921
AAXX 07184 93947 16/// /2617 10058 20015 49998 52024 69981
AAXX 07184 93987 16/// /2719 10118 20110 49992 52010 60001
AAXX 07184 93994 NIL
AAXX 07181 14240 11956 22002 10049 20022 39946 40103 57021 60002 71022 81071 333 10049
AAXX 07181 14258 12970 21804 10082 21003 39920 40107 57010 60002 82071 333 10105
AAXX 07181 14445 12670 21203 10117 20069 30007 40161 50001 60002 81130 333 10141 81896 81399 92311
AAXX 07184 78397 111574 71804 10293 20224 30105 40121 60001 70511 87800 333 01800 10311 20237 58015 81822 87630
AAXX 07184 08001 11468 62206 10142 20124 30215 40297 53003 60022 70152 85770 333 10152 924/7
AAXX 07184 08015 12570 50804 10128 20105 39896 40301 53004 60002 85800 333 10163
AAXX 07184 08023 11670 73011 10145 20116 30233 40304 53010 69902 72122 87800 333 10157
AAXX 07184 08027 12480 82702 10122 20111 39981 40292 54000 60002 885// 333 10145
AAXX 07184 08045 01210 82101 10126 20118 30005 40316 53005 60012 71054 8466/ 333 10135 69957
AAXX 07184 08141 NIL
AAXX 07184 08160 12980 02711 10118 20050 39987 40298 53008 60002 333 10154
AAXX 07184 08181 02580 10105 10127 20046 30266 40272 53015 60002 81100 333 10186 60007
AAXX 07184 08221 NIL
AAXX 07184 08231 NIL
AAXX 07184 08261 11/05 91203 10076 20067 39835 40328 56002 60002 74544 333 10086 89/01
AAXX 07184 08284 02682 12602 10149 20074 30196 40271 53005 60002 81500 333 10200 60007
AAXX 07184 08306 12570 12702 10147 20111 30275 40281 53007 60002 81501 333 10187
AAXX 07184 08314 02570 13303 10126 20087 30175 40279 52012 60002 81100 333 10172 60007
AAXX 07184 08430 12980 00000 10142 20082 30210 40285 56005 60002 333 10206
AAXX 07184 08482 12982 10000 10134 20111 30280 40289 53008 60002 80001 333 10200
BBXX LDGJ 07181 99692 10179 43/// /1704 11033 21062 49939 5//// 222/1 04050 1//// 3//// 4//// 5////
BBXX LF4H 07184 99596 10022 46/98 10100 10050 20014 49948 52031 8//// 22200 06086 10804 70022 333 91114
BBXX LGWS 07181 99288 70116 43/// /0509 10190 20152 40235 5//// 222/0 04175 1//// 3//// 4//// 5////
BBXX LMEL 07181 99603 10053 43/// /2101 11021 21032 49946 5//// 222/2 04083 1//// 3//// 4//// 5////
AAXX 07181 26645 11496 81902 10004 21005 39787 40049 57002 60012 77172 8872/ 333 10004 88711
AAXX 07181 26659 12460 71903 10001 21020 39863 40080 52004 69902 875// 333 10005 87617
AAXX 07181 26763 12460 81904 11001 21024 39869 40099 52002 69902 886// 333 10003 88713
AAXX 07181 26825 11556 61904 10003 21003 39857 40042 57005 69932 71082 86500 333 10013 86623
AAXX 07181 26832 11358 81702 10010 21004 39861 40055 57004 69942 72186 8667/ 333 10016 86708
AAXX 07181 26887 11596 81702 11007 21020 39914 40123 53004 69932 71022 885// 333 10000 88626
AAXX 07181 26961 32360 81802 11001 21015 39901 40096 57006 885// 333 10006 88708
AAXX 07181 33027 32597 71902 10006 21008 39937 40107 53003 87500 333 10015
AAXX 07184 91925 01465 62903 10260 20242 30063 40123 51021 60091 72586 86800 333 56100 60097 81810 85818 90710 91125 555 60055 10725 59006
AAXX 07184 91929 04/86 /1110 10283 20225 30134 40137 50012 60072 700// 333 10284 20246 69927 90710 91117 555 69925
AAXX 07184 91938 01581 23502 10283 20223 30140 40142 51015 60002 702// 82801 333 10284 20246 60007 81820 90710 91104 555 60005 10805 59015
AAXX 07184 91944 06/// /0709 10273 20199 30143 40146 51015 60002 333 10274 20243 60007 90710 91114 555 60005
AAXX 07184 91948 02481 70704 10255 20194 30074 40176 51013 60001 85801 333 56205 60007 84816 83640 90710 91116 555 60005 11120 59008
AAXX 07184 91954 06/// /2504 1//// 2//// 30154 4//// 51015 69921 333 69927 555 59017
AAXX 07184 91958 01475 80411 10215 20187 30178 40180 52008 60021 72162 888// 333 56299 60017 84818 88646 90710 91126 555 69905 10826 59030
AAXX 07184 91943 NIL
AAXX 07184 91945 NIL
AAXX 07183 91551 11598 40000 10254 20248 4//// 5//// 60071 72518 84900 333 563// 60071 83820 81925
AAXX 07183 91553 31598 50000 10255 20248 40064 54000 70222 83901 333 563/9 82820 81925 85080
AAXX 07183 91554 31598 60000 10235 20229 40061 56008 70222 81101 333 569/9 81825 86080
AAXX 07183 91555 NIL
AAXX 07183 91557 31598 30000 10230 20227 40049 52010 70321 81901 333 569/9 81820 81925 83080
AAXX 07183 91565 31598 10000 10245 20238 40060 54000 70111 81800 333 562// 81822
AAXX 07183 91568 31598 70000 10226 20223 40071 56002 70511 81101 333 569/9 81825 87080
AAXX 07184 91487 NIL
AAXX 07184 91490 NIL
AAXX 07184 91533 NIL
AAXX 07184 91601 NIL
AAXX 07184 91610 11599 70812 10272 20237 40064 53010 60001 70200 84239 333 56299
AAXX 07184 82818 83340
AAXX 07184 91623 NIL
AAXX 07184 91629 NIL
AAXX 07184 91701 11499 31002 10272 2025/ 60001 70222 83200 333 562// 83818
AAXX 07181 14241 12970 42303 10013 20001 39971 40104 57018 60002 82032 333 10028
AAXX 07181 14284 11960 71606 10032 20021 30009 40119 57019 60002 70242 80006 333 10045
AAXX 07181 14307 32970 20902 10073 20055 30052 40129 57015 80002 333 10127
AAXX 07181 14317 NIL
AAXX 07181 14431 12660 11103 10062 20053 30062 40157 58006 60002 81100 333 10141
AAXX 07181 14444 32970 23502 10083 20059 30141 40170 52002 82030 333 10157
AAXX 07181 14474 12975 00502 10087 20002 39992 40184 51006 60002 333 10146
AAXX 07184 91487 NIL
AAXX 07184 91490 NIL
AAXX 07184 91533 NIL
AAXX 07184 91601 NIL
AAXX 07184 91610 11599 70812 10272 20237 40064 53010 60001 70200 84239 333 56299
AAXX 07184 82818 83340
AAXX 07184 91623 NIL
AAXX 07184 91629 NIL
AAXX 07184 91701 11499 31002 10272 2025/ 60001 70222 83200 333 562// 83818
AAXX 07183 91551 11598 40000 10254 20248 4//// 5//// 60071 72518 84900 333 563// 60071 83820 81925
AAXX 07183 91553 31598 50000 10255 20248 40064 54000 70222 83901 333 563/9 82820 81925 85080
AAXX 07183 91554 31598 60000 10235 20229 40061 56008 70222 81101 333 569/9 81825 86080
AAXX 07183 91555 NIL
AAXX 07183 91557 31598 30000 10230 20227 40049 52010 70321 81901 333 569/9 81820 81925 83080
AAXX 07183 91565 31598 10000 10245 20238 40060 54000 70111 81800 333 562// 81822
AAXX 07183 91568 31598 70000 10226 20223 40071 56002 70511 81101 333 569/9 81825 87080
AAXX 07183 64810 NIL
AAXX 07183 64820 32460 72408 10280 20248 30086 40095 82572 333 10307 58000 83613 84363 86070
BBXX BATUK01 07184 99560 70032 46/// /2604 10032 21018 40046 51041 22200 00047
AAXX 07184 60106 32965 33406 10137 20124 40287 53006 80002 333 10197 83070
AAXX 07184 60318 32560 60703 10133 20119 40286 55000 84202 333 10181 84820 83070
AAXX 07181 15502 12970 00000 11026 21032 30128 40169 58001 60002 333 10104 21026 555 595//
AAXX 07181 15525 12962 02002 10015 20007 39904 40176 58007 60002 333 10070 20009 555 594//
AAXX 07181 15528 11915 00000 10016 20011 39969 40163 54000 60002 71011 333 10061 20016 555 596//
AAXX 07181 15535 12568 60000 10026 20018 30109 40157 58003 60002 86900 333 10060 20026 555 595//
AAXX 07181 15549 12570 72902 10019 20006 39751 40176 54000 60002 87600 333 10060 20019 555 591//
AAXX 07181 15552 12565 83202 10063 20032 30105 40154 52001 60002 8652/ 222// 2//00 333 10082 20063 555 580// 92012 92417
AAXX 07181 15614 12968 20000 10022 21061 39463 40181 52003 60002 80001 333 10065 20018 555 554//
AAXX 07181 15615 11984 20210 11144 21161 37054 47984 53003 69932 70141 82011 333 11060 21144 555 587//
AAXX 07181 15626 11670 50000 10050 20045 39963 40153 52007 69922 70162 85500 333 10080 20042 555 597//
AAXX 07181 15627 11989 23610 11092 21142 37551 47969 51000 69912 70141 82051 333 11064 21105 41/// 555 567//
AAXX 07181 15640 12970 63605 10060 21018 39845 40160 54000 60002 81015 333 10084 20053 555 557//
AAXX 07181 15655 12970 83404 10071 20030 30125 40158 52007 60002 8801/ 222// 00082 20501 333 10090 20060 555 575// 92023 92428
AAXX 07181 15712 12980 23403 10069 21023 39903 40155 53008 60002 82030 333 10103 20068 555 552//
AAXX 07181 15730 11670 80504 10053 20053 39762 40157 52005 60022 70486 85877 333 10077 20050 555 50000 69935 71848
AAXX 07181 14008 11/91 90506 11071 21085 37392 47937 53001 60002 74722 333 11068 91111 47075 92868 95173 444 68288
AAXX 07181 14015 12665 20201 10009 20002 39763 40130 58004 60002 82530 333 10026 82640
AAXX 07181 14023 12698 32606 10078 20010 39803 40096 58011 60002 81538 333 10081 81640
AAXX 07181 14024 12499 32411 10024 20000 38999 48399 57009 60002 81148 333 10031 91117 95000
AAXX 07181 14026 12998 51906 10077 21003 39756 40074 57015 60002 81038 333 10084
AAXX 07181 14031 12997 62204 10080 20013 39853 40080 57017 60002 82036 333 10083
AAXX 07181 14105 12697 61001 10058 20040 30121 40126 58009 60002 86500 333 10111 86640
AAXX 07181 14106 11996 12701 10054 20041 30056 40125 58009 60002 71020 80002 333 10096 95090
AAXX 07181 14121 12998 13002 10046 20011 39833 40101 57014 60002 81030 333 10078
AAXX 07181 26247 01247 81703 10006 20004 39931 40011 52009 69932 76162 8872/ 333 10008 21005 69957 88507 555 1/100 21005 3/101 50003
AAXX 07184 17024 11556 70000 10109 20097 30049 40125 58006 60012 76022 84550 333 10170 84628 87358 91107 92436
AAXX 07184 17056 11565 83306 10079 20077 30138 40142 52008 60032 76122 8552/ 333 10128 85628 88458 91114 92427
AAXX 07184 17067 11558 71602 10108 20104 30092 40114 57006 60092 78188 87200 333 10129 87830 92406
AAXX 07184 17092 12960 00000 11068 21098 38888 48501 58001 60002 333 10057
AAXX 07184 17112 NIL
AAXX 07184 17115 11356 80221 10089 20078 30064 40115 51002 60202 78082 8722/ 333 10136 84707 86830 88460
AAXX 07184 17116 11557 73503 10102 20099 39992 40112 55002 60162 78088 84250 333 10170 84829 87359 91105
AAXX 07184 17188 11430 80905 10074 20072 39060 40117 57018 60162 76166 8652/ 333 10082 82715 86635 88459 91108 96010
AAXX 07184 17202 12670 12406 11047 21093 39196 40271 50001 60002 81500 333 10073 81635
AAXX 07184 17248 12675 62004 10110 21005 38963 48475 57010 60002 83570 333 10152 83640 86360
AAXX 07184 17292 11558 71303 10096 20094 39374 40126 57022 60252 78088 85270 333 10117 85830 87359 91112
AAXX 07184 17300 11440 73501 10122 20102 30074 40145 57016 60022 78022 87900 333 10146 81915 86825
AAXX 07184 17310 11670 60604 10151 20123 30168 40175 57010 60152 72988 83270 333 10162 83835 85359 91110 92438
AAXX 07184 17330 12670 70000 10134 20067 30175 40193 58006 60002 84270 333 10183 84840 87360
AAXX 07183 04013 22589 52705 11027 21050 49952 57001 82270 333 11010 21044 69918 555 3//13
AAXX 07183 04064 32688 33602 11086 21115 49964 52004 82248 333 11056 21086 555 3//05
AAXX 07184 17042 12970 01318 10152 21092 30118 40157 57004 60002 333 10182 92428
AAXX 07184 17074 11570 61301 10056 20047 39198 40142 55011 69922 70262 84520 333 10154 84630 86459 91113
AAXX 07184 17086 12665 51002 10051 21024 39433 40159 57005 60002 85500 333 10135 85635
AAXX 07184 17088 12670 62902 10024 21097 38801 48496 52005 60002 84550 333 10100 84640 86360
AAXX 07184 17140 11657 82104 10076 21006 38675 48465 57010 69912 76111 8552/ 333 10113 85638 88459
AAXX 07184 17155 11550 80903 10057 20053 39000 40113 57014 60382 76166 8552/ 333 10078 85630 88458 91122
AAXX 07184 17203 12970 00000 11008 21096 38920 48560 50006 60002 333 10078
AAXX 07184 17237 11670 81604 10132 20066 39613 40108 57021 60042 70286 8552/ 333 10168 85635 88459 91121
AAXX 07184 17250 12975 72704 10083 21032 38791 48483 57008 60002 87070 333 10139 87360
AAXX 07184 17270 12970 03002 10069 21058 39565 40228 52007 60002 333 10152
AAXX 07184 17295 11460 71404 10144 20120 30134 40141 58008 60072 72598 84970 333 10194 81918 83825 86358
AAXX 07184 17320 11657 73404 10128 20118 30185 40190 56004 60152 78222 84270 333 10158 84833 87357 92426
AAXX 07184 17375 NIL
AAXX 07184 17026 11670 71602 10117 20097 30088 40126 57014 69922 72511 84270 333 10195 84833 87460 91108 92428
AAXX 07184 17034 12970 40000 10134 21009 30093 40138 57011 60002 84030 333 10182 84360 92428
AAXX 07184 17070 11557 73001 10083 20054 39255 40113 55013 69942 78082 84250 333 10123 84830 87358 91111
AAXX 07184 17084 12670 83101 10066 21009 39244 40161 57010 60002 8452/ 333 10145 84635 88460 91114
AAXX 07184 17090 12965 33502 10045 21098 38721 48491 53001 60002 83030 333 10123 83360
AAXX 07184 17098 NIL
AAXX 07184 17150 11460 73509 10096 20077 39985 40107 58003 60472 78088 85250 333 10133 82715 84835 86360 91121
AAXX 07184 17160 12670 61804 10090 20018 38993 48467 57007 60002 84250 333 10146 84838 86360 91117
AAXX 07184 17184 11558 80000 10110 20107 39999 40109 55002 60242 79582 8692/ 333 10132 82930 84833 88458 91113
AAXX 07184 17189 11660 71917 10084 20034 38970 48445 57012 69932 76062 84570 333 10110 84635 87360
AAXX 07184 17210 12970 02202 10054 21079 39178 40231 51002 60002 333 10122
AAXX 07184 17234 11560 73203 10115 20108 30053 40121 55006 60292 79582 85970 333 10132 81930 84833 87359 91111
AAXX 07184 17260 12660 70000 10082 20044 39390 40226 51001 60002 84250 333 10145 84840 87360
AAXX 07184 17290 11670 73010 10150 20109 30098 40129 55010 60212 72582 84270 333 10184 84835 87359 91120 92438
AAXX 07184 17370 12665 52301 10157 20069 30196 40200 50000 60002 83230 333 10176 83835 85360 92417
AAXX 07184 17500 NIL
AAXX 07184 17501 12560 61503 10171 20099 30169 40188 58001 60002 86200 333 10196 81825 85830 92437
AAXX 07184 17505 12560 61005 10156 20097 30086 40199 57001 60002 86200 333 10200 81825 85830
AAXX 07184 17507 NIL
AAXX 07184 17510 11558 70000 10156 20120 30160 40170 56005 60012 78082 85830 333 10195 82625 83830 92416
AAXX 07184 17515 11560 60000 10160 20096 30038 40212 53004 69902 78022 86200 333 10222 81825 85830
AAXX 07184 17521 1 1560 62205 10144 20112 30053 40053 52005 69902 72522 85230 333 10211 82825 83830
AAXX 07184 17530 12560 60000 10151 20118 30144 40200 53001 60002 86200 333 10214 81825 85830
AAXX 07184 17535 12560 60000 10156 20117 30144 40180 57004 60002 86200 333 10206 81825 85830
AAXX 07184 17540 NIL
AAXX 07184 17547 NIL
AAXX 07184 17550 11560 60000 10143 20126 30047 40192 50001 60022 78082 86200 333 10190 81825 85830 92427
AAXX 07184 17572 11560 7//// 10150 20119 30179 40204 56003 60032 70382 85830 333 10185 82625 83830 92417
AAXX 07184 17022 11558 72202 10103 20096 39960 40124 57008 60082 78022 85270 333 10135 85828 87358 91108 92426
AAXX 07184 17031 12670 52204 10087 20075 30122 40128 58004 60002 82150 333 10214 82836 85360
AAXX 07184 17038 12665 50701 10129 20008 30092 40142 57012 60002 82150 333 10184 82835 84360 92428
AAXX 07184 17050 11670 80102 10074 20028 30093 40156 51008 69922 70262 8552/ 333 10111 85635 88460 91110
AAXX 07184 17060 11457 73613 10100 20094 30086 40126 58002 60142 78022 87200 333 10136 83712 85825
AAXX 07184 17096 11956 00000 11168 21178 38263 48544 57006 60002 71000 333 11063
AAXX 07184 17124 11519 70802 10064 20060 39207 40121 58013 60092 76082 85550 333 10084 85630 87359 96010
AAXX 07184 17128 11634 80302 10051 20049 39045 40154 57017 60032 76122 8552/ 333 10113 85635 88458 96010
AAXX 07184 17170 NIL
AAXX 07184 17195 12670 60000 10037 21074 38957 48476 57005 60002 82250 333 10138 82840 85362
AAXX 07184 17199 12970 02302 10010 21048 39119 40249 50000 60002 333 10063
AAXX 07184 17219 11565 70106 10122 20108 39969 40111 55000 60392 70298 84250 333 10155 84830 87360
AAXX 07184 17240 11560 71304 10079 20041 38994 40142 55014 69922 78022 85250 333 10100 85830 87360 91114
AAXX 07184 17244 12670 51710 10066 20013 38965 48461 57010 60002 83550 333 10121 83640 85360
AAXX 07184 17280 12960 02906 11014 21089 39421 40247 50003 60002 333 10109
AAXX 07184 17350 12660 70805 10127 20047 30115 40194 57007 60002 83250 333 10178 83835 87360
AAXX 07181 26106 11/97 71605 10018 21005 40008 52008 69942 70252 87500 333 10022 91110
AAXX 07181 26313 33/// /2204 10015 20007 49976 52005 333 10019
AAXX 07181 26346 32397 81903 11001 21002 40026 52008 886// 333 11001 88707
AAXX 07181 26406 11597 31405 10016 20004 49977 52005 60032 70181 82330 333 10053 91112
AAXX 07181 26416 33/// /1804 10004 21007 49996 52008 333 10008
AAXX 07181 26424 11/97 51905 10002 21009 40004 52007 69982 70282 83031 333 10017
AAXX 07181 26544 11497 81803 10011 21003 40041 52003 69912 72682 883// 333 10013 84915 91110
AAXX 07184 85223 32584 53510 10265 20083 37470 47115 57028 83933 333 56080 59002 82827 81930 85070
AAXX 07184 85283 32584 50415 10222 20116 37170 47103 57026 85903 333 56100 59012 84823 81933
AAXX 07184 85293 NIL
AAXX 07184 85312 32884 70000 10270 20192 38760 57014 87020 333 56000 58010 87457
AAXX 07184 85345 11458 80000 10235 20207 39628 40081 57024 60231 71662 8552/ 333 56449 59005 85613 88457
AAXX 07184 85364 31570 71508 10220 20165 38130 48239 57016 71522 85540 333 56000 58002 85627 86457
AAXX 07184 85365 11358 80000 10234 20204 39365 40114 57021 60171 71562 8652/ 333 56449 59005 83607 86612 88457
AAXX 07184 85394 12484 81810 10238 20220 39780 40117 57028 60081 8652/ 333 56409 58000 86613 88457
AAXX 07184 48358 31559 50000 10210 20194 39953 40132 56003 71011 81536 333 59005
AAXX 07184 48408 32960 20202 10231 20203 39956 40107 57005 80001 333 59001
AAXX 07181 12120 12570 61705 10024 21002 39934 49941 57025 60002 81538 333 10040 20012 93000
AAXX 07181 12250 12666 61404 10015 21007 39878 49967 57032 69902 83506 333 10035 20014 91109 93000
AAXX 07181 12295 11944 01803 11010 21011 39853 40040 57012 69932 71076 333 10014 21010 93092
AAXX 07181 12330 11232 81705 10007 20004 39835 49944 56032 60022 76862 877// 333 10042 20007 87704 91111 93002
AAXX 07181 12375 12770 71403 10019 21007 39880 40012 57031 69922 875// 333 10039 20007 93000
AAXX 07181 12424 11498 82206 10044 20014 39819 49970 56022 69932 76022 875// 333 10048 20014 83615 91112 93093
AAXX 07181 12160 12560 41405 10012 21006 39922 49975 57026 60002 82502 333 10033 20009 93000
AAXX 07181 12205 11332 82502 10005 20001 39910 49918 55008 60042 76882 8772/ 333 10041 20005 91113 93004
AAXX 07181 12465 12560 71404 10016 21003 39754 49988 57037 69902 8257/ 333 10042 20008 93000
AAXX 07181 12566 12780 71402 10042 21018 39719 40012 58041 60002 8457/ 333 10049 21008 91109 93000
AAXX 07181 12105 11563 81505 10032 20003 39882 49924 57023 69902 76122 885// 333 10035 20010 91010 91110 93097
AAXX 07181 12195 11456 72105 10003 21004 39799 40029 57005 69942 71022 875// 333 10012 20000 93000
AAXX 07181 12235 11658 81406 10021 20000 39735 49945 57030 60002 71022 885// 333 10021 20009 93000
AAXX 07181 12270 12961 61504 10002 21009 39815 49999 57026 69912 8605/ 333 10026 21001 93000
AAXX 07181 12280 12560 51605 10007 21003 39854 40012 58013 69902 85500 333 10027 20007 93000
AAXX 07181 12300 11360 82805 10025 20018 39836 49925 55017 60042 76122 8572/ 333 10041 21002 91108 93004
AAXX 07181 12400 11365 82507 10038 20028 39716 49950 55010 60042 78082 879// 333 10038 21007 91112 93004
AAXX 07181 12435 11427 81706 10011 21007 39796 49969 56037 60022 76961 875// 333 10046 20009 91011 91111 93001
AAXX 07181 12495 11662 81704 10006 21012 39753 40049 58024 69912 77081 885// 333 10014 21014 93097
AAXX 07181 12530 11560 81806 10020 20013 39789 49989 56038 60012 78022 889// 333 10039 20009 91113 93001
AAXX 07181 12570 11663 81506 10012 21017 39704 40025 57036 69902 72672 8597/ 333 10032 21030 93097
AAXX 07181 12580 12880 71705 10018 21015 39795 40057 57031 60002 875// 333 10032 20001 93000
AAXX 07184 08055 12960 02910 10062 20040 39233 48585 53008 60002 333 10116 95090
AAXX 07184 08075 12981 00602 10042 20033 39260 48585 53007 60002 333 10100
AAXX 07184 08084 02680 12705 10099 20043 39872 40310 52013 60002 81100 333 10146 60007
AAXX 07184 08171 12983 02104 10114 20063 30037 40279 53002 60002 333 10173
AAXX 07184 08184 02760 13002 10116 20077 30101 40257 51011 60002 81200 333 10178 60007
AAXX 07184 08202 02965 22002 10074 20036 39373 42903 53009 60002 80001 333 10148 60007
AAXX 07184 08235 NIL
AAXX 07184 08238 12980 12301 10144 20064 30195 40255 53001 60002 81030 333 10206
AAXX 07184 08280 12970 11203 10076 20049 39464 40301 55006 60002 80001 333 10126
AAXX 07184 08330 12370 50804 10081 20057 30075 40311 54000 60002 85601 333 10100
AAXX 07184 08348 11956 03302 10067 20066 39563 40318 56003 60002 71000 333 10090
AAXX 07184 08360 02980 00000 10116 20081 30247 40285 53001 60002 333 10184 60007
AAXX 07184 08373 02968 00000 10128 20102 30261 40283 53004 60002 333 10190 60007
AAXX 07184 08410 06/// /0000 10123 20076 30177 40289 55000 60002 333 10177 60007
AAXX 07184 08419 02975 31903 10094 20067 39618 40297 53004 60002 80001 333 10164 60007
AAXX 07184 08451 02970 10202 10126 20098 30249 40282 55001 60002 80001 333 10195 60007
AAXX 07184 08487 06/// /0101 10146 20110 30264 40290 53004 60002 333 10193 60007
AAXX 07181 01300 41598 20805 10051 21036 49951 52020 70120 81/// 22200 02063 10805 70025 333 91109
AAXX 07181 01400 41498 50210 10066 20027 49945 52053 70282 852// 22200 06090 10706 70032 333 91111
AAXX 07184 78388 112580 20710 10290 20214 30116 40125 60001 82200 333 02200 10309 20223 58011 82824
AAXX 07184 48453 32960 60000 10270 20226 30099 40102 57003 84036 333 58003 79999
AAXX 07184 06030 01003 70202 10006 20002 39905 49921 52025 69942 74242 87601 333 10035 20006 6///7 83701 85702
AAXX 07184 06060 01121 70605 10016 20011 39843 49908 52023 69902 76852 87731 333 10025 20003 6///7 84703 87605
AAXX 07184 06070 07361 80104 10031 20020 39878 49908 52015 60022 75265 333 10040 20019 60027 83/09 88/11
AAXX 07184 06120 36241 72503 10027 20027 39873 49899 52013 333 10033 20021 81/04 83/08 85/15 87/50
AAXX 07184 06180 01365 81307 10036 20026 39891 49897 52002 60022 75065 885// 333 10046 20032 69917 82708 87615
AAXX 07184 06193 07556 81704 10022 20014 39902 49914 57008 60012 76186 333 10044 20020 55300 20000 60017 81/26 88/48 91223
AAXX 07184 78388 112580 20710 10290 20214 30116 40125 60001 82200 333 02200 10309 20223 58011 82824
AAXX 07184 71397 11110 80802 10070 20070 30059 40093 56022 69981 76065 887// 333 10073 20050 70068 90983
AAXX 07184 71400 NIL
AAXX 07184 71403 46/// /1404 10078 20075 30073 40093 56031 6///1 333 10093 20076 7////
AAXX 07184 71411 16/// /2203 10090 20089 30081 40093 58016 60001 333 10111 20089 70135
AAXX 07184 71412 16/// /3404 10059 20055 30076 40085 56027 60001 333 10060 20045 70042
AAXX 07184 71421 NIL
AAXX 07184 71430 NIL
AAXX 07184 71431 16/// /3203 10019 21026 30009 40105 58035 60001 333 10021 20007 70000
AAXX 07184 71432 NIL
AAXX 07184 71433 NIL
AAXX 07184 71435 NIL
AAXX 07184 71441 46/// /3116 11030 21082 39846 40159 58004 6///1 333 11011 21112 7////
AAXX 07184 71443 16/// /2214 11093 21165 39745 40168 58004 60001 333 11055 21114 70000
AAXX 07184 71444 NIL
AAXX 07184 71447 NIL
AAXX 07184 71467 16/// /2912 11264 21289 30139 40260 51007 60001 333 11263 21292 70000
AAXX 07184 71472 NIL
AAXX 07184 71474 16964 00000 11077 21089 39065 40352 53007 60001 333 11076 21120 70000
AAXX 07184 71510 16/// /3222 11069 21154 39516 40239 53003 60001 333 11023 21132 70000
AAXX 07184 71538 12674 62809 10014 21062 39912 40144 58024 60001 86502 333 10017 21011 79999
AAXX 07184 71600 17004 92117 10111 20109 30114 40120 55017 60011 743// 333 10119 20095 70020
AAXX 07184 71601 NIL
AAXX 07184 71603 11248 81806 10098 20098 30039 40091 56021 60021 78044 887// 333 10106 20093 70172 90921
AAXX 07184 71607 17/// /0104 10032 20026 30074 40107 58014 69941 7//4/ 333 10033 20023 70109
AAXX 07184 71609 11232 80209 10040 20029 39965 40099 58023 69951 76152 887// 333 10044 20030 70097 90937
AAXX 07184 71610 17259 81401 10011 20007 39802 40098 58039 60001 710// 333 10013 20001 70000
AAXX 07184 71621 NIL
AAXX 07184 71623 NIL
AAXX 07184 71624 12574 82305 10009 21022 39909 40122 58027 60001 885// 333 10012 21006 70002
AAXX 07184 71625 16564 80000 11014 21091 39958 40120 58029 60001 333 11013 21043 70000
AAXX 07184 71627 11458 80000 10017 21014 30065 40110 57033 69901 72672 886// 333 10018 21004 79999 90917
AAXX 07184 71628 11474 82804 11008 21030 39976 40118 58013 69901 70272 885// 333 11005 21016 42001 70002 90936
AAXX 07184 71630 NIL
AAXX 07184 71631 16/// /2906 11022 21061 39615 40119 58021 60001 333 11014 21032 70000
AAXX 07184 71633 12574 82310 11004 21062 39845 40119 58021 60001 885// 333 10005 21029 70002
AAXX 07184 71705 11124 80409 10036 20032 30027 40114 55005 60011 78065 887// 333 10039 20025 70118 90983
AAXX 07184 71706 11124 80105 10044 20043 30049 40109 55022 69941 75185 887// 333 10044 20037 70110 90983
AAXX 07184 71707 11232 80000 10058 20051 30017 40093 58027 69921 75164 887// 333 10059 20044 70160 90927
AAXX 07184 71709 11159 80612 10036 20033 30084 40097 58033 60031 76152 887// 333 10036 20016 70088 90952
AAXX 07184 71711 NIL
AAXX 07184 71714 46/// /0705 11001 30036 6///1 333 7////
AAXX 07184 71715 17/// /3503 11016 21025 39932 40115 58026 60011 7//4/ 333 11014 21046 70012
AAXX 07184 71718 11566 80906 11001 21018 30062 40128 57024 69921 77177 885// 333 11001 21053 47006 70002 90973
AAXX 07184 71719 NIL
AAXX 07184 71043 11680 21102 11268 21314 30265 40365 55004 69901 77600 81501 333 11198 21295 48019 79999 90942
AAXX 07184 71045 16/// /0704 11205 21225 39480 40402 54000 60001 333 11189 21257 70000
AAXX 07184 71050 NIL
AAXX 07184 71051 NIL
AAXX 07184 71052 NIL
AAXX 07184 71066 12974 03014 11163 21255 39899 40339 53011 60001 333 11100 21168 79999
AAXX 07184 71068 12974 13607 11117 21178 39625 40346 51020 60001 80002 333 11066 21143 70000
AAXX 07184 71069 16964 03013 11111 21155 39586 40317 51011 60001 333 11058 21113 70000
AAXX 07184 71076 16/// /3217 11180 21232 39748 40154 53008 60001 333 11126 21180 70000
AAXX 07184 71077 16/// /3118 11127 21184 39664 40222 51019 60001 333 11089 21129 70000
AAXX 07184 71079 11674 22817 11134 21208 39768 40052 51008 60001 73611 82500 333 11086 21134 48005 70004
AAXX 07184 71081 47211 81130 11077 21085 39791 49803 53006 6///1 745// 333 11073 21131 7////
AAXX 07184 71082 NIL
AAXX 07184 71083 11966 22313 11233 21271 39709 49751 57018 69901 77671 80001 333 11214 21239 48053 70006 90927
AAXX 07184 71090 46964 03506 11236 21271 30039 40075 51006 6///1 333 11236 21327 7////
AAXX 07184 71091 460// /0941 11131 39690 49897 55006 6///1 333 7////
AAXX 07184 71092 47402 80932 11190 39298 49969 58007 6///1 745// 333 11169 21228 7////
AAXX 07184 71093 460// /0913 11191 39517 40020 51003 6///1 333 11159 21204 7////
AAXX 07184 71094 46004 /2124 11150 39105 40013 51004 6///1 333 11148 21205 7////
AAXX 07184 71095 47424 30827 11211 21260 39970 40052 5/002 6///1 745// 333 11169 21271 7////
AAXX 07184 71101 160// /2606 30345 53004 60001 333 70000
AAXX 07184 71104 11974 00000 11109 21109 39207 40366 53013 60001 70144 81071 333 11053 21162 70000
AAXX 07184 71108 11456 80102 10028 20021 30251 40325 50007 60011 72055 885// 333 10029 20009 70028 90983
AAXX 07184 71109 12680 22305 10034 21006 30314 40341 53002 60001 81501 333 10040 20014 70002
AAXX 07184 71114 17664 80804 10025 20016 30280 40329 53009 69951 7//44 333 10025 21007 70025
AAXX 07184 71120 11574 13113 11103 21171 39584 40263 52015 69901 70181 81500 333 11076 21112 42003 79999 90961
AAXX 07184 71122 16/// /0506 11061 21103 38632 40283 51009 60001 333 11060 21158 70000
AAXX 07184 71123 11574 13017 11088 21164 39412 40306 50009 69901 73681 81171 333 11032 21091 44005 70008 90951
AAXX 07184 71125 11574 12926 11088 21153 39629 40231 51007 69901 70381 81100 333 42997 79999 90951
AAXX 07184 71129 12674 43117 11065 21161 39408 40259 50010 60001 81570 333 11022 21069 70000
AAXX 07184 71131 16/// /3608 11070 21084 38968 40253 51013 60001 333 11029 21074 70000
AAXX 07184 71135 16/// /3109 11059 21124 39130 40238 50006 60001 333 11021 21073 70000
AAXX 07184 71137 16/// /0209 11054 21067 39286 40250 51012 60001 333 11003 21055 70000
AAXX 07184 71140 11574 73114 11069 21156 39686 40199 52014 69921 73671 81570 333 11042 21122 46997 70002 90931
AAXX 07184 71145 11974 82713 11110 21143 39766 40063 52002 69901 73677 86071 333 11056 21117 70024 90967
AAXX 07184 71148 16/// /3114 11058 21091 39593 40184 52007 60001 333 11023 21127 70000
AAXX 07184 71182 16964 01003 11191 21232 39615 40188 56036 60001 333 11190 21334 70000
AAXX 07184 71185 17964 01006 11012 30132 40156 58034 60001 745// 333 11010 21032 70025
AAXX 07184 71188 NIL
AAXX 07184 71200 17/// /0206 10046 20040 69981 7//4/ 333 10059 20045 70010
AAXX 07184 71207 16/// /3102 10004 30258 40324 53008 60001 333 10005 21023 70000
AAXX 07184 71260 13/// ///// 11018 21080 39859 40098 58012 60001 333 11018 21058 70000
AAXX 07184 71726 17/// /2605 11049 21076 39558 40106 56018 69931 7//4/ 333 11045 21128 70014
AAXX 07184 71727 11474 81007 11012 21038 39914 40113 56024 69901 77182 885// 333 11012 21048 47001 79999 90916
AAXX 07184 71728 11480 80803 11034 21050 39881 40105 57030 69901 70282 885// 333 11030 21093 44001 70004 90920
AAXX 07184 71730 11674 72110 11021 21051 39669 40100 58026 69901 70272 87500 333 11019 21126 79999
AAXX 07184 71731 11566 81604 11038 21062 39649 40106 58027 69901 77182 885// 333 11038 21082 41997 79999 90937
AAXX 07184 71735 NIL
AAXX 07184 71738 11469 82705 11024 21053 39715 40070 56004 60011 77182 885// 333 11017 21129 43008 70010 90952
AAXX 07184 71739 41574 82105 11051 21070 39696 40067 57019 6//// 77122 885// 333 11205 21051 4//// 7//// 90913
AAXX 07184 71749 16964 03014 11023 21111 39859 40107 50001 69951 333 11022 21090 70005
AAXX 07184 71799 11374 80404 10051 20037 30302 40326 53011 69901 75152 87501 333 10053 20031 70002 90917
AAXX 07184 71800 17/// /2008 10058 20058 30110 40143 56016 60021 7//4/ 333 10060 20037 70017
AAXX 07184 71801 11/08 90811 10018 20018 39983 40157 57013 60131 76164 333 10064 20016 70138 90973
AAXX 07184 71803 11248 80613 11009 21018 39979 40168 56027 60021 77177 887// 333 10000 21012 43004 70046 90983 93102
AAXX 07184 71807 NIL
AAXX 07184 71808 12574 70613 11074 21106 30152 40200 56024 60001 87500 333 11073 21122 70044
AAXX 07184 71809 11216 80412 11014 21020 30131 40159 57025 60011 77177 885// 333 11001 21018 41001 70022 90983 93101
AAXX 07184 71810 16/// /0811 11056 21073 30087 40155 56032 60001 333 11056 21090 70000
AAXX 07184 71811 NIL
AAXX 07184 71813 NIL
AAXX 07184 71814 16/// /0214 11061 21071 30157 40167 56028 60001 333 11060 21132 70000
AAXX 07184 71815 11474 80812 10016 21005 30084 40115 57039 69901 78082 885// 333 10030 20013 70090 90915
AAXX 07184 71816 12574 10000 11163 21220 30154 40229 56027 60001 81501 333 11141 21241 70000
AAXX 07184 71817 NIL
AAXX 07184 71818 12674 12007 11094 21149 30207 40226 57011 60001 81500 333 11030 21146 70000
AAXX 07184 71822 11456 72007 11092 21105 39616 40105 58020 69921 77175 87500 333 11092 21204 47019 77002 90956
AAXX 07184 71825 12774 80000 11220 21254 39454 40171 57035 70341 885// 333 11220 21338 79999
AAXX 07184 71827 11456 81812 11097 21111 39757 40005 58011 60011 77177 88500 333 11090 21197 47017 70010 90973 93101
AAXX 07184 71828 16964 01509 11215 21263 39472 40144 56030 60001 333 11214 21288 70000
AAXX 07184 71831 11432 82704 11049 21061 39778 40063 50001 60011 77177 885// 333 11048 21187 47016 70016 90973 93101
AAXX 07184 71832 NIL
AAXX 07184 71834 11474 63105 11057 21095 39648 40080 50005 69901 70271 82870 333 11045 21108 48007 70004 90933
AAXX 07184 71841 NIL
AAXX 07184 71842 11574 33010 11065 21129 39634 40111 51004 69901 70277 83500 333 11057 21078 48003 79999 90966
AAXX 07184 71844 17464 62709 11097 21125 39749 40030 58005 60001 745// 333 11085 21148 70005
AAXX 07184 71845 11469 72808 11074 21115 39588 40068 50000 69901 77171 86501 333 11071 21141 43010 70010 90917
AAXX 07184 71850 11574 82907 11050 21106 39623 40129 58004 69901 77111 83570 333 11032 21108 48003 70002 90921
AAXX 07184 71852 16564 62812 11048 21082 39858 40156 50001 60001 333 11021 21105 70000
AAXX 07184 71854 11574 32810 11062 21142 39626 40104 58004 69901 70371 83500 333 11047 21080 48009 70006 90946
AAXX 07184 71858 NIL
AAXX 07184 71861 17/// /3108 11089 21182 39467 40212 50011 60481 7//4/ 333 11056 21102 70475
AAXX 07184 71862 12774 63211 11052 21091 39510 40227 50012 60001 82571 333 11028 21068 70000
AAXX 07184 71863 46664 62912 11070 21109 39519 40235 50009 6///1 333 11044 21102 7////
AAXX 07184 71864 NIL
AAXX 07184 71865 16/// /2810 11085 21141 39509 40206 58008 60001 333 11057 21111 70000
AAXX 07184 71866 46764 33221 11079 21130 39604 40234 53003 6///1 333 11040 21127 7////
AAXX 07184 71867 11348 83022 11099 21145 39776 40116 57006 69901 77111 88700 333 11061 21111 44012 79999 90910
AAXX 07184 71868 NIL
AAXX 07184 71869 12574 22815 11080 21124 39664 40200 58005 60001 81501 333 11024 21118 70000
AAXX 07184 71871 15966 03122 11095 21167 39433 40265 51009 60001 333 11061 21154 70000
AAXX 07184 71877 11336 80213 11065 21091 39001 40312 52025 69941 77177 885// 333 11029 21065 46003 70004 90973
AAXX 07184 71878 11774 73313 11082 21127 39210 40319 51017 69941 77177 87500 333 11044 21086 48014 70012 90983 93101
AAXX 07184 71879 16964 03116 11081 21163 39475 40305 51012 60001 333 11029 21089 70000
AAXX 07184 71880 12582 70000 11081 21091 39167 40315 51014 60001 87500 333 11081 21136 70000
AAXX 07184 71882 16564 80000 11033 21043 39768 40324 50003 60001 333 11033 21067 70000
AAXX 07184 71883 46/// /0000 11054 21063 39503 40358 53013 6///1 333 11053 21138 7////
AAXX 07184 71887 12482 83203 11016 21051 39917 40352 51006 60001 88500 333 11015 21034 70000
AAXX 07184 71889 12466 80105 10008 21022 39901 40332 51013 60001 88600 333 10008 21068 70000
AAXX 07184 71891 16664 80103 11010 21030 30065 40349 53008 60001 333 11009 21052 70000
AAXX 07184 71892 12159 80000 10043 20037 30324 40329 53011 60001 886// 333 10043 20026 79999
AAXX 07184 06011 07780 12720 10021 21053 39856 49924 52025 60142 70086 333 10026 20003 55300 20000 69917 81/50 91133
AAXX 07184 71102 NIL
AAXX 07184 71105 NIL
AAXX 07184 71107 NIL
AAXX 07184 71110 NIL
AAXX 07184 71111 16866 82506 10030 20007 30344 40352 53003 60001 333 10043 20022 70000
AAXX 07184 71112 16/// ///// 60001 333 70002
AAXX 07184 71113 17/// /3302 10026 20025 30298 40322 53005 69941 7//4/ 333 10026 21003 70032
AAXX 07184 71115 16/// /2901 11020 21032 39729 40328 51006 60001 333 11019 21064 70003
AAXX 07184 71116 16/// /3603 11022 21035 39147 40265 51015 60001 333 11016 21035 70000
AAXX 07184 71118 16/// /3115 11091 21176 39429 40281 51015 60001 333 11035 21099 70000
AAXX 07184 71121 16964 03011 11087 21189 39453 40303 51014 60001 333 11036 21094 70000
AAXX 07184 71127 16/// /3014 11089 21174 39367 40316 53012 60001 333 11038 21094 70000
AAXX 07184 71130 15966 02625 11076 21160 39700 40166 57016 60001 333 11043 21119 70015
AAXX 07184 71132 15664 82917 11159 21216 39788 40108 51009 60001 333 11097 21167 70000
AAXX 07184 71133 46/// /3014 11090 21151 39485 40208 50007 6///1 333 11048 21136 7////
AAXX 07184 71139 NIL
AAXX 07184 71141 NIL
AAXX 07184 71142 17636 83020 11070 21085 39262 40255 51011 60001 771// 333 11032 21070 70000
AAXX 07184 71143 NIL
AAXX 07184 71144 NIL
AAXX 07184 71147 NIL
AAXX 07184 71149 16/// /3015 11056 21202 60001 333 11031 21065 70000
AAXX 07184 71930 13774 13015 11095 21165 39354 40321 53007 69963 81501 333 11051 21110 43014 70008 90999
AAXX 07184 71931 16/// /0823 11007 21017 30141 40153 58022 60001 333 10043 21008 70000
AAXX 07184 71934 11516 83017 11171 21210 39952 40219 51008 60011 77177 885// 333 11120 21177 44013 70022 90973 93102
AAXX 07184 71935 12974 12818 11179 21245 30081 40299 52010 60001 80001 333 11127 21184 70000
AAXX 07184 71936 11474 13017 11196 21252 39969 40242 52021 60001 73611 81500 333 11189 21202 70000
AAXX 07184 71937 NIL
AAXX 07184 71938 NIL
AAXX 07184 71940 12782 20000 11135 21171 39521 40363 51010 60001 81501 333 11051 21181 70004
AAXX 07184 71943 12974 10000 11152 21194 39490 40369 53016 60001 80001 333 11103 21155 79999
AAXX 07184 71944 160// ///// 11153 51012 60001 333 11060 21175 70000
AAXX 07184 71945 12983 12705 11216 21268 39878 40374 50002 60001 81030 333 11063 21220 70000
AAXX 07184 71946 12974 22702 11237 21263 30136 40363 50005 60001 80001 333 11130 21237 79999
AAXX 07184 71948 46964 02714 11252 30177 40297 51011 6///1 333 11236 21252 7////
AAXX 07184 71949 46/// /1103 11233 21256 39441 40363 58007 6///1 333 11128 21242 7////
AAXX 07184 71951 12280 13605 11044 21054 30091 40368 53006 60001 81800 333 11019 21071 70000
AAXX 07184 71957 46964 00907 11249 21317 30229 40323 58018 6///1 333 11222 21290 7////
AAXX 07184 71958 43/// /0302 11210 21250 39387 40383 53003 6///1 333 11139 21224 7////
AAXX 07184 71964 11232 81707 11186 21218 39461 40377 58012 69901 71071 886// 333 11184 21277 47026 79999 90920
AAXX 07184 71966 16/// /0603 11242 21271 39861 40352 58005 60001 333 11204 21249 70000
AAXX 07184 71968 47028 /2022 11213 30220 40288 57017 6///1 745// 333 11205 21268 7////
AAXX 07184 71150 46/// /3017 11099 21175 39493 40192 51015 6///1 333 11064 21121 7////
AAXX 07184 71151 NIL
AAXX 07184 71152 16/// /0719 10026 20011 30098 40111 58016 60001 333 10060 20025 70075
AAXX 07184 71153 NIL
AAXX 07184 71154 16/// /3504 11054 21063 60001 333 10001 21080 70009
AAXX 07184 71155 NIL
AAXX 07184 71156 NIL
AAXX 07184 71157 NIL
AAXX 07184 71158 NIL
AAXX 07184 71159 NIL
AAXX 07184 71160 NIL
AAXX 07184 71161 16/// /3303 10004 21002 39961 40110 58020 60001 333 10006 21008 70000
AAXX 07184 71162 NIL
AAXX 07184 71163 46/// /3014 11217 21244 39925 40286 51018 6///1 333 11189 21217 7////
AAXX 07184 71164 NIL
AAXX 07184 71165 NIL
AAXX 07184 71166 NIL
AAXX 07184 71167 15766 63006 11096 21155 39200 40339 53010 60001 333 11055 21105 70000
AAXX 07184 71168 NIL
AAXX 07184 71170 NIL
AAXX 07184 71171 46/// /2902 10022 21032 30022 40119 58021 6///1 333 10027 20012 7////
AAXX 07184 71172 16/// ///// 10004 21057 39886 40104 58019 60001 333 10008 21043 70000 555 11440
AAXX 07184 71175 NIL
AAXX 07184 71176 460// /1718 11106 39364 40055 56015 6///1 333 11104 21152 7////
AAXX 07184 71177 460// /2012 11139 39102 40130 56016 6///1 333 11127 21187 7////
AAXX 07184 71178 NIL
AAXX 07184 71179 460// /1313 11149 39338 40194 57016 6///1 333 11139 21176 7////
AAXX 07184 71180 16/// /3203 10054 20034 30065 40104 56031 60001 333 10057 20030 70033
AAXX 07184 71181 NIL
AAXX 07184 71183 16/// /2901 30065 58034 60001 333 70000
AAXX 07184 71184 46/// /0000 10010 21006 6///1 333 10010 21001 7////
AAXX 07184 71186 NIL
AAXX 07184 71187 15666 80804 10023 20019 30280 40329 53009 60001 333 10023 21006 70000
AAXX 07184 71189 NIL
AAXX 07184 71190 NIL
AAXX 07184 71191 16/// ///// 10054 20046 60001 333 10054 20038 70170
AAXX 07184 71192 17128 83104 11100 21105 39692 40389 53011 60001 710// 333 11090 21123 70000
AAXX 07184 71193 16/// /2107 11053 21065 39695 40066 57019 60001 333 11053 21210 70000
AAXX 07184 71196 NIL
AAXX 07184 71197 16364 80816 10035 20020 30061 40110 56027 60001 333 10049 20035 70055
AAXX 07184 71198 46/// /3605 10002 21010 6///1 333 10006 21006 7////
AAXX 07184 71199 46/// /0000 11269 21297 39498 40396 56002 6///1 333 11240 21280 7////
AAXX 07184 71893 12674 62804 10037 21011 30299 40331 52008 60001 82501 333 10048 20012 79999
AAXX 07184 71894 16/// /3503 10033 20033 30311 40320 53009 60001 333 10060 20024 70000
AAXX 07184 71896 15964 01903 11141 21153 39504 40379 51015 60001 333 11071 21174 70000
AAXX 07184 71897 12474 20505 10018 20006 3//// 4//// 55001 60001 82800 333 10020 20009 70000
AAXX 07184 71898 160// ///// 11022 53004 60001 333 11007 21034 70000
AAXX 07184 71899 12785 61407 10024 21052 3//// 4//// 58001 60001 82530 333 10050 20019 79999
AAXX 07184 71902 12974 02403 11124 21174 30171 40180 56025 60001 333 11109 21171 70000
AAXX 07184 71905 NIL
AAXX 07184 71906 19999 69999 11116 21211 39995 40046 56029 69999 333 11111 22222 71111
AAXX 07184 71907 17314 92719 11075 21095 39868 49900 51034 60001 745// 333 11037 21075 70050
AAXX 07184 71909 17564 31723 11063 21114 39896 49939 56017 60011 74544 333 11056 21220 70020
AAXX 07184 71910 46458 81819 11055 21066 39723 49783 53001 6///1 333 11052 21088 7////
AAXX 07184 71911 47300 8//// 11107 39711 49766 51025 6///1 741// 333 11105 21192 7////
AAXX 07184 71912 11474 82909 11152 21202 39827 40013 50004 60011 72277 885// 333 11097 21159 48011 70026 90912 93101
AAXX 07184 71915 11266 72305 11248 21287 39688 49770 51028 69901 77622 82501 333 11228 21248 48046 79999 90931
AAXX 07184 71917 11974 30000 11370 21413 30137 40152 52010 69901 77677 83030 333 11346 21392 47013 79999 90983
AAXX 07184 71922 11574 11116 11116 21256 39686 40165 52016 69901 72211 81500 333 11097 21117 43019 79999 90921
AAXX 07184 71924 NIL
AAXX 07184 71925 11500 80134 11153 21171 39953 49994 53036 60001 73933 885// 333 11138 21187 70004
AAXX 07184 71926 12566 63414 11245 21297 39711 49735 55003 60001 86500 333 11219 21270 44040 70000
AAXX 07184 71928 16/// /3208 11091 21120 39114 40317 51014 60001 333 11047 21095 70000 555 10020
AAXX 07184 71001 NIL
AAXX 07184 71002 NIL
AAXX 07184 71003 NIL
AAXX 07184 71005 NIL
AAXX 07184 71006 NIL
AAXX 07184 71007 NIL
AAXX 07184 71008 NIL
AAXX 07184 71009 NIL
AAXX 07184 71010 NIL
AAXX 07184 71011 NIL
AAXX 07184 71012 NIL
AAXX 07184 71013 NIL
AAXX 07184 71014 NIL
AAXX 07184 71015 NIL
AAXX 07184 71016 NIL
AAXX 07184 71017 NIL
AAXX 07184 71018 NIL
AAXX 07184 71019 NIL
AAXX 07184 71020 NIL
AAXX 07184 71021 NIL
AAXX 07184 71022 15966 00602 11020 21027 30307 40352 53003 60001 333 11004 21029 70000
AAXX 07184 71023 17964 02915 11116 21167 39438 40233 50002 60001 745// 333 11103 21138 70000
AAXX 07184 71024 16/// /2910 11161 21230 60001 333 11118 21163 70000
AAXX 07184 71026 NIL
AAXX 07184 71027 17/// /0302 10054 20051 30086 40096 56028 69971 7//4/ 333 10061 20040 70087
AAXX 07184 71028 16/// /3101 11053 21074 39294 40370 53006 60001 333 11053 21081 70000
AAXX 07184 71029 16/// /3412 11215 21236 30172 40213 51023 60001 333 11212 21225 70006 555 10230
AAXX 07184 71030 17/60 /0105 10046 20044 30002 40091 56017 69981 7//4/ 333 10061 20045 70070
AAXX 07184 71032 46/// /0000 11065 21075 39477 40343 52011 6///1 333 11065 21111 7////
AAXX 07184 71033 46/// /2917 11183 21229 39490 40139 53009 6///1 333 11118 21185 7////
AAXX 07184 71035 NIL
AAXX 07184 71036 15966 02821 11064 21162 39790 40173 50002 60001 333 11051 21074 70000
AAXX 07184 71039 46/// /0000 11308 6///1 333 11293 21312 7////
AAXX 07184 71040 46/// /0805 11014 21036 39903 40103 58024 6///1 333 11013 21049 7////
AAXX 07184 71041 17/06 /0203 10070 20069 39958 40098 56016 69931 730// 333 10102 20058 70081
AAXX 07184 71042 16/// /0000 10039 20035 30317 40321 53010 60001 333 10039 20013 70000
AAXX 07184 71044 16/// /2401 11340 21377 39989 40336 56016 60001 333 11298 21350 70000
AAXX 07184 71046 460// /0807 11293 30262 40280 58021 6///1 333 11216 21332 7////
AAXX 07184 71047 NIL
AAXX 07184 71048 NIL
AAXX 07184 71049 NIL
AAXX 07184 71060 NIL
AAXX 07184 71063 NIL
AAXX 07184 71250 NIL
AAXX 07184 71251 17/// /0107 11037 21050 39344 40293 51025 69971 7//4/ 333 11006 21039 70007
AAXX 07184 71252 NIL
AAXX 07184 71253 46/// /3006 11154 21243 6///1 333 11103 21157 7////
AAXX 07184 71254 16/// /3116 11085 21152 60001 333 11040 21100 70000
AAXX 07184 71255 16/// /3116 11129 21208 60001 333 11085 21129 70000
AAXX 07184 71256 46/// /3014 11090 21154 39349 40318 52006 6///1 333 11050 21107 7////
AAXX 07184 71257 NIL
AAXX 07184 71258 NIL
AAXX 07184 71259 NIL
AAXX 07184 71261 16/// /2808 11004 21065 39861 40124 58025 60001 333 10012 21011 70000
AAXX 07184 71263 12574 82306 10005 21022 39837 40128 58022 60001 885// 333 10007 21004 41997 79999
AAXX 07184 71264 16/// /2002 10090 20087 30062 40093 56026 60001 333 10110 20077 70102
AAXX 07184 71265 15566 82507 10017 21023 30029 40123 58027 60001 333 10018 20007 70000
AAXX 07184 71266 NIL
AAXX 07184 71267 17348 80307 11034 21035 39172 40294 51036 60001 771// 333 11005 21045 70000
AAXX 07184 71268 NIL
AAXX 07184 71269 NIL
AAXX 07184 71270 16/// /2806 10002 21048 39897 40119 58019 60001 333 10011 21016 70000
AAXX 07184 71271 NIL
AAXX 07184 71272 15566 63016 11189 21254 39625 49984 58003 60001 333 11133 21204 70000
AAXX 07184 71273 16/// /2914 11090 21150 39556 40236 51009 60001 333 11063 21109 70000
AAXX 07184 71274 NIL
AAXX 07184 71275 NIL
AAXX 07184 71276 NIL
AAXX 07184 71277 NIL
AAXX 07184 71278 NIL
AAXX 07184 71279 16/// /0205 11092 21168 30095 40163 56032 60001 333 11091 21142 70000
AAXX 07184 71281 NIL
AAXX 07184 71282 46/// /2712 10009 21015 39849 40121 56025 6///1 333 10012 21014 7////
AAXX 07184 71283 NIL
AAXX 07184 71284 NIL
AAXX 07184 71285 NIL
AAXX 07184 71286 NIL
AAXX 07184 71287 NIL
AAXX 07184 71288 NIL
AAXX 07184 71289 NIL
AAXX 07184 71290 17966 01402 11140 21157 39508 40377 52013 60001 771// 333 11050 21164 70000
AAXX 07184 71291 16/// /2907 11027 21097 39800 40093 50003 60001 333 11026 21100 70013 555 10010
AAXX 07184 71292 NIL
AAXX 07184 71294 16/// /1601 11021 21049 39708 40113 58023 60001 333 11018 70000
AAXX 07184 71295 NIL
AAXX 07184 71296 NIL
AAXX 07184 71297 16/// /2403 10015 21013 60001 333 10017 20003 70000
AAXX 07184 71298 16/// /3106 10011 21049 39909 40143 57024 60001 333 10014 21011 70000
AAXX 07184 71299 NIL
AAXX 07184 71051 NIL
AAXX 07184 71055 NIL
AAXX 07184 71057 NIL
AAXX 07184 71059 460// ///// 11214 30159 40254 51012 6///1 333 11203 21221 7////
AAXX 07184 71061 16/// /3010 11090 21164 39493 40305 52013 60001 333 11039 21098 70000
AAXX 07184 71062 46/// /3011 11085 21147 39195 40303 51010 6///1 333 11045 21105 7//// 555 10030
AAXX 07184 71064 460// ///// 11184 39842 40061 53029 6///1 333 11166 21205 7////
AAXX 07184 71065 NIL
AAXX 07184 71067 NIL
AAXX 07184 71070 NIL
AAXX 07184 71073 NIL
AAXX 07184 71074 16/// ///01 11311 21342 30063 40144 52007 60001 333 11282 21311 7////
AAXX 07184 71075 16/// /3015 11196 21239 39458 40079 53006 60001 333 11117 21198 70000
AAXX 07184 71078 NIL
AAXX 07184 71084 460// ///// 11135 39818 49865 51034 6///1 333 11127 21279 7////
AAXX 07184 71085 15466 82505 11055 21061 38873 40290 51034 60001 333 11014 21091 70000
AAXX 07184 71087 NIL
AAXX 07184 71088 460// ///// 11090 54000 6///1 333 11089 21157 7////
AAXX 07184 71089 NIL
AAXX 07184 71096 460// ///// 11177 39278 40020 56007 6///1 333 11172 21197 7////
AAXX 07184 71097 47402 82132 11097 39544 40019 55010 6///1 745// 333 11093 21157 7////
AAXX 07184 71098 43/// /2708 11105 21142 39703 40067 58006 6///1 333 11061 21121 7////
AAXX 07184 71099 43/// /2409 11123 21158 39959 49979 55006 6///1 333 11079 21163 7////
AAXX 07184 71500 NIL
AAXX 07184 71501 NIL
AAXX 07184 71502 NIL
AAXX 07184 71503 NIL
AAXX 07184 71504 NIL
AAXX 07184 71505 46/// /0601 11261 21296 39602 40387 56011 6///1 333 11261 21292 7////
AAXX 07184 71506 NIL
AAXX 07184 71507 NIL
AAXX 07184 71508 16/// ///// 10019 21019 39986 40125 58029 60001 333 10019 20006 70000
AAXX 07184 71509 NIL
AAXX 07184 71511 NIL
AAXX 07184 71512 16/// /0704 11065 21135 30155 40169 56035 60001 333 11065 21134 70000
AAXX 07184 71513 15466 80412 11068 21088 30150 40166 56028 60001 333 11068 21130 70000
AAXX 07184 71514 NIL
AAXX 07184 71515 16/// /3013 11076 21132 39500 40220 50008 60001 333 11046 21107 70000
AAXX 07184 71516 NIL
AAXX 07184 71517 NIL
AAXX 07184 71518 NIL
AAXX 07184 71519 NIL
AAXX 07184 71520 NIL
AAXX 07184 71521 NIL
AAXX 07184 71522 NIL
AAXX 07184 71523 NIL
AAXX 07184 71524 16/// /0000 10001 21013 30096 40122 56030 60001 333 10002 21011 70000
AAXX 07184 71525 NIL
AAXX 07184 71526 NIL
AAXX 07184 71527 17566 82710 11050 21100 39603 40115 58002 60001 771// 333 11038 21112 70000
AAXX 07184 71528 NIL
AAXX 07184 71529 46/// /3226 11182 21235 39927 40163 51017 6///1 333 11160 21185 7////
AAXX 07184 71532 17566 82505 11003 21028 39768 40115 56023 60001 771// 333 11002 21028 70000
AAXX 07184 71534 16564 82506 10003 21042 39846 40120 58025 60001 333 10005 21023 70000
AAXX 07184 71535 NIL
AAXX 07184 71536 NIL
AAXX 07184 71537 NIL
AAXX 07184 71539 NIL
AAXX 07184 71540 NIL
AAXX 07184 71541 NIL
AAXX 07184 71542 NIL
AAXX 07184 71543 NIL
AAXX 07184 71544 NIL
AAXX 07184 71545 NIL
AAXX 07184 71546 NIL
AAXX 07184 71547 NIL
AAXX 07184 71548 NIL
AAXX 07184 71549 NIL
AAXX 07184 71350 16/// /0206 10042 20037 30034 40099 56026 60001 333 10042 20034 70127
AAXX 07184 71351 NIL
AAXX 07184 71352 NIL
AAXX 07184 71353 NIL
AAXX 07184 71354 NIL
AAXX 07184 71355 16/// /2803 11240 21264 30030 40118 53010 60001 333 11172 21240 70000
AAXX 07184 71356 16/// /3513 11257 21286 39671 49737 56004 60001 333 11218 21283 70000 555 10150
AAXX 07184 71357 NIL
AAXX 07184 71358 16/// /3604 11235 21259 30037 40073 50006 60001 333 11235 21330 70000
AAXX 07184 71359 NIL
AAXX 07184 71360 NIL
AAXX 07184 71361 NIL
AAXX 07184 71362 NIL
AAXX 07184 71363 NIL
AAXX 07184 71364 NIL
AAXX 07184 71365 NIL
AAXX 07184 71368 15566 82507 11003 21035 39733 40125 58020 60001 333 10000 21019 70000
AAXX 07184 71369 15966 03015 11105 21155 39586 40318 51013 60001 333 11057 21108 70000
AAXX 07184 71370 46/// /1003 11010 21017 39966 40103 58034 6///1 333 11009 21025 7////
AAXX 07184 71371 17259 81101 10009 21003 30077 40111 56032 60001 710// 333 10009 21005 70000
AAXX 07184 71372 16/// /0101 10013 20001 60001 333 10013 21003 70000
AAXX 07184 71373 NIL
AAXX 07184 71374 NIL
AAXX 07184 71375 NIL
AAXX 07184 71376 17/// /1903 11003 21006 39817 40111 56023 60021 7//4/ 333 11001 21004 70020
AAXX 07184 71377 16/// /0501 10014 21001 30060 40109 56030 60001 333 10015 21003 70000
AAXX 07184 71378 16/// /1705 11004 21031 39893 40103 58033 60001 333 11003 21053 70000
AAXX 07184 71379 16/// /3602 11066 21085 39919 40093 56025 60001 333 11066 21120 70000
AAXX 07184 71380 NIL
AAXX 07184 71381 NIL
AAXX 07184 71382 NIL
AAXX 07184 71383 NIL
AAXX 07184 71384 NIL
AAXX 07184 71385 NIL
AAXX 07184 71386 17/// /1604 11009 21032 39921 40129 56021 60041 7//4/ 333 11008 21041 70040
AAXX 07184 71387 NIL
AAXX 07184 71388 NIL
AAXX 07184 71389 46/// /1003 10000 21021 6///1 333 10001 21019 7////
AAXX 07184 71390 46/// /0307 11074 6///1 333 11074 21108 7////
AAXX 07184 71391 16/// ///// 11019 21039 60001 333 11001 21020 70011
AAXX 07184 71392 NIL
AAXX 07184 71393 NIL
AAXX 07184 71395 11/02 91604 10085 20085 39921 40097 56026 60001 74544 333 10102 20059 70114
AAXX 07184 71398 17466 82710 11043 21062 30024 40035 58002 60001 771// 333 11043 21172 70000
AAXX 07184 71399 NIL
AAXX 07184 71900 46/// /21// 11118 21159 30188 40201 58017 6///1 333 11117 21145 7////
AAXX 07184 71903 NIL
AAXX 07184 71904 NIL
AAXX 07184 71914 16/// /0102 10033 20024 30098 40324 53009 60001 333 10040 20024 70008
AAXX 07184 71916 NIL
AAXX 07184 71918 460// ///// 11090 6///1 333 7////
AAXX 07184 71920 NIL
AAXX 07184 71921 NIL
AAXX 07184 71923 NIL
AAXX 07184 71927 16/// /0202 10051 20027 30266 40325 53011 60001 333 10052 20026 70000
AAXX 07184 71941 15466 62007 11047 21074 39676 40101 58034 60001 333 11047 21167 70000
AAXX 07184 71947 17666 81910 11084 21091 39722 40078 56026 60001 771// 333 11084 21225 70000
AAXX 07184 71851 16/// /3110 11039 21101 39826 40166 50004 60001 333 11033 21074 70003
AAXX 07184 71857 NIL
AAXX 07184 71860 11348 83605 11073 21096 38868 40310 51024 69941 77177 885// 333 11040 21073 70004 90952 93101
AAXX 07184 71876 15966 03017 11073 21129 39570 40253 51013 60001 333 11043 21115 70000
AAXX 07184 71885 NIL
AAXX 07184 71888 NIL
AAXX 07184 71895 NIL
AAXX 07184 71700 15366 80108 10019 20010 30091 40117 58011 69931 333 10021 20014 70056
AAXX 07184 71701 11124 80206 10017 20014 30054 40116 57013 69921 75166 887// 333 10020 20014 70078 90983
AAXX 07184 71702 17/// /0310 10035 20028 30095 40110 55008 69951 7//4/ 333 10038 20032 70064
AAXX 07184 71703 11448 80703 10000 21007 39820 40119 58023 60011 77122 8677/ 333 10002 21016 42001 70052 90999
AAXX 07184 71704 17666 83110 10006 21061 39912 40135 58027 69931 7004/ 333 10009 21019 70003
AAXX 07184 71710 17/// /0611 10030 20024 30084 40093 56031 60021 7//4/ 333 10030 20014 70068
AAXX 07184 71712 16/// /2202 10024 20008 30052 40113 56023 60001 333 10024 20003 70000
AAXX 07184 71713 17/// /0104 11017 21027 60011 7//4/ 333 11016 21028 70010
AAXX 07184 71716 NIL
AAXX 07184 71717 NIL
AAXX 07184 71720 16/// /2903 10033 20020 30174 40330 52007 60001 333 10037 20014 70010
AAXX 07184 71721 NIL
AAXX 07184 71723 16/// /0202 11002 21020 30101 40111 56032 60001 333 11001 21013 70000
AAXX 07184 71724 NIL
AAXX 07184 71732 NIL
AAXX 07184 71733 16/// /2109 11021 21048 39661 40097 58027 60001 333 11019 21128 70000
AAXX 07184 71734 17/// /2210 11045 21084 39684 40083 58035 60011 7//4/ 333 11045 21160 70012
AAXX 07184 71736 NIL
AAXX 07184 71737 NIL
AAXX 07184 71741 16/// /3203 11015 21049 39914 40349 51007 60001 333 11015 21031 70000
AAXX 07184 71742 NIL
AAXX 07184 71743 NIL
AAXX 07184 71744 NIL
AAXX 07184 71745 NIL
AAXX 07184 71746 NIL
AAXX 07184 71747 NIL
AAXX 07184 71748 NIL
AAXX 07184 71950 15966 01501 11120 21129 39720 40380 53010 60001 333 11063 21144 70000
AAXX 07184 71952 16/// /1402 11177 21196 39481 40385 51007 60001 333 11154 21213 70000
AAXX 07184 71954 NIL
AAXX 07184 71956 NIL
AAXX 07184 71959 NIL
AAXX 07184 71960 460// /2410 11270 30186 40327 56007 6///1 333 11240 21271 7////
AAXX 07184 71962 16/// /2713 11031 21094 39711 40138 58005 60001 333 11028 21116 70000
AAXX 07184 71963 NIL
AAXX 07184 71967 17/// /0000 10003 21002 30017 40123 58029 69941 7//4/ 333 10003 21011 70004
AAXX 07184 71970 NIL
AAXX 07184 71971 16/// /0711 11199 21277 30083 40130 53007 60001 333 11170 21274 70000
AAXX 07184 71972 460// /1705 11103 39553 40017 56026 6///1 333 11101 21118 7////
AAXX 07184 71973 46/// /0805 11010 21021 39950 40139 58025 6///1 333 10001 21012 7////
AAXX 07184 71974 NIL
AAXX 07184 71975 460// /1421 11122 39292 40025 56013 6///1 333 11121 21191 7////
AAXX 07184 71976 NIL
AAXX 07184 71977 NIL
AAXX 07184 71978 NIL
AAXX 07184 71979 NIL
AAXX 07184 71980 NIL
AAXX 07184 71981 NIL
AAXX 07184 71982 NIL
AAXX 07184 71983 NIL
AAXX 07184 71984 16/// /2811 11243 21267 30299 40308 51005 60001 333 11222 21243 70000
AAXX 07184 71985 NIL
AAXX 07184 71986 NIL
AAXX 07184 71987 17/// /0416 10023 20017 30111 40120 55010 60011 7//4/ 333 10030 20021 70056
AAXX 07184 71988 NIL
AAXX 07184 71989 16/// /0803 11313 21344 30179 40196 51004 60001 333 11287 21329 70000
AAXX 07184 71990 NIL
AAXX 07184 71999 46/// ///// 11005 6///1 333 11005 21048 7////
AAXX 07184 71450 NIL
AAXX 07184 71451 16/// /2912 11153 21229 39681 40118 51014 60001 333 11097 21162 70000
AAXX 07184 71452 NIL
AAXX 07184 71453 16/// /3507 11053 21068 39344 40281 51021 60001 333 11013 21053 70000
AAXX 07184 71454 16/// /3014 11098 21193 39475 40183 58004 60001 333 11065 21116 70000
AAXX 07184 71455 46/// /3123 11066 21131 39431 40247 53009 6///1 333 11030 21093 7////
AAXX 07184 71456 NIL
AAXX 07184 71457 17/// /0310 11057 21070 39373 40287 51029 60011 7//4/ 333 11021 21057 70011 555 10060
AAXX 07184 71458 16/// /3115 11082 21163 39494 40292 51012 60001 333 11045 21115 70000
AAXX 07184 71459 16/// /3112 11066 21097 39448 40278 51021 60001 333 11016 21066 70000
AAXX 07184 71460 16/// /2511 10002 21071 39862 40105 58025 60001 333 10004 21066 70000
AAXX 07184 71461 NIL
AAXX 07184 71462 NIL
AAXX 07184 71463 NIL
AAXX 07184 71464 NIL
AAXX 07184 71465 NIL
AAXX 07184 71466 NIL
AAXX 07184 71468 NIL
AAXX 07184 71470 NIL
AAXX 07184 71471 15966 02002 11182 21201 39542 40379 53015 60001 333 11124 21223 70000
AAXX 07184 71473 16/// /0210 10026 20018 30291 40322 51008 60001 333 10032 20019 70008
AAXX 07184 71475 16/// /0000 10024 20019 30239 40335 53010 60001 333 10024 20004 70002
AAXX 07184 71476 NIL
AAXX 07184 71477 46/// /0105 10007 21028 6///1 333 10033 21006 7////
AAXX 07184 71478 NIL
AAXX 07184 71479 NIL
AAXX 07184 71480 NIL
AAXX 07184 71481 NIL
AAXX 07184 71482 NIL
AAXX 07184 71483 NIL
AAXX 07184 71484 NIL
AAXX 07184 71485 16/// /3314 10049 21003 30317 40338 53004 60001 333 10059 20044 70002
AAXX 07184 71486 16/// /2901 11112 21129 39072 40316 52009 60001 333 11030 21159 70000
AAXX 07184 71487 NIL
AAXX 07184 71489 16/// /3010 11090 21153 39435 40258 51014 60001 333 11037 21131 70000
AAXX 07184 71490 NIL
AAXX 07184 71491 17/// /20// 11298 21327 69931 7//4/ 333 11129 21315 70003
AAXX 07184 71492 NIL
AAXX 07184 71493 17/// /3506 10055 20048 30054 40092 56018 69931 7//4/ 333 10063 20046 70130
AAXX 07184 71494 16/// /1704 11009 21009 39580 40102 56029 60001 333 11006 21021 70003
AAXX 07184 71495 NIL
AAXX 07184 71496 16/// /3320 11079 21128 39600 40227 53002 60001 333 11039 21126 70000
AAXX 07184 71497 46/// /1804 11198 21222 30090 40370 58011 6///1 333 11101 21202 7////
AAXX 07184 71498 NIL
AAXX 07184 71499 15562 82917 11167 21214 39489 40135 52010 60001 333 11111 21170 70000
AAXX 07184 71665 16/// /2404 11122 21195 30166 40176 58023 60001 333 11118 21171 70006
AAXX 07184 71666 47/// /0308 10031 20028 30071 40116 50000 6///1 7//4/ 333 10036 7////
AAXX 07184 71667 NIL
AAXX 07184 71668 16/// /3605 10017 20004 30075 40119 56008 60001 333 10018 20012 70059
AAXX 07184 71669 NIL
AAXX 07184 71670 17/// ///// 10018 20015 69981 7//4/ 333 10025 20014 70110
AAXX 07184 71671 NIL
AAXX 07184 71672 16/// /2603 10007 21037 39847 40112 58026 60001 333 10007 21007 70000
AAXX 07184 71673 NIL
AAXX 07184 71674 NIL
AAXX 07184 71675 17566 62710 11095 21127 39748 40029 58005 60051 77144 333 11087 21142 70183
AAXX 07184 71679 16/// /0405 11094 21103 39301 40357 53006 60001 333 11067 21103 70000
AAXX 07184 71680 NIL
AAXX 07184 71681 46/// /0204 11037 21073 6///1 333 11025 21043 7////
AAXX 07184 71682 NIL
AAXX 07184 71683 NIL
AAXX 07184 71684 15566 82310 11023 21071 39782 40089 57033 60001 333 11022 21171 70000
AAXX 07184 71685 15566 83001 11033 21036 39767 40323 50003 60001 333 11033 21065 70000
AAXX 07184 71686 NIL
AAXX 07184 71687 16/// /0301 11017 21028 39517 40319 53011 60001 333 11017 21051 70000
AAXX 07184 71688 16/// /0000 11020 21024 39246 40304 53009 60001 333 11020 21036 70000
AAXX 07184 71689 15666 13020 11128 21206 39784 40257 51022 60001 333 11089 21128 70000
AAXX 07184 71690 NIL
AAXX 07184 71691 15466 80815 11023 21040 30109 40137 56026 60001 333 11022 21057 70000
AAXX 07184 71692 NIL
AAXX 07184 71694 16/// /2305 11002 21043 39762 40128 56021 60001 333 11002 21040 70000
AAXX 07184 71695 16/// /2915 11099 21147 39773 40113 57006 60001 333 11061 21116 70000
AAXX 07184 71696 16/// /2719 11191 21246 39903 49940 58013 60001 333 11150 21200 70016
AAXX 07184 71697 15566 82907 10013 21038 39943 40115 58033 60001 333 10019 21004 70000
AAXX 07184 71699 17/// /0104 10041 20035 30091 40098 56021 69971 7//4/ 333 10044 20032 70078
AAXX 07184 71812 47916 02625 11201 21233 39807 49821 58032 6///1 745// 333 11195 21220 7////
AAXX 07184 71819 15566 80509 11054 21076 30161 40203 58020 60001 333 11054 21093 70003
AAXX 07184 71820 16/// /3505 10019 21007 39993 40108 58027 60001 333 10021 20000 70000
AAXX 07184 71823 17964 02014 11117 21149 39660 40051 58031 69951 7//44 333 11117 21221 70005
AAXX 07184 71824 46/// /2003 11096 21105 6///1 333 11092 21220 7////
AAXX 07184 71826 16/// /1020 11081 21124 39951 49993 56013 60001 333 11081 21180 70000
AAXX 07184 71829 16/// /0507 11032 21059 39969 40133 56026 60001 333 11031 21080 70000
AAXX 07184 71833 NIL
AAXX 07184 71835 16/// /2913 11073 21116 39580 40064 50001 60001 333 11071 21141 70000
AAXX 07184 71837 NIL
AAXX 07184 71839 NIL
AAXX 07184 71840 46/// /3014 11045 21086 6///1 333 11022 21084 7////
AAXX 07184 71846 NIL
AAXX 07184 71847 NIL
AAXX 07184 71848 NIL
AAXX 07184 71849 16/// /2711 11048 21084 39857 40161 50001 60001 333 11022 21103 70000
AAXX 07184 71550 NIL
AAXX 07184 71551 NIL
AAXX 07184 71552 46/// /3217 11054 21099 6///1 333 11023 21078 7////
AAXX 07184 71553 NIL
AAXX 07184 71554 17/// /1105 10012 21016 30118 40124 56026 60011 7//4/ 333 10013 21037 70020
AAXX 07184 71555 17/// /3613 11069 21085 38686 40296 51027 69931 7//4/ 333 11042 21069 70003
AAXX 07184 71556 NIL
AAXX 07184 71557 46/// /2601 11043 21056 6///1 333 11043 21102 7////
AAXX 07184 71558 NIL
AAXX 07184 71559 46/// /3215 11050 21086 39507 40223 51012 6///1 333 11028 21067 7////
AAXX 07184 71560 16/// /2915 11032 21086 39853 40157 58004 60001 333 11008 21122 70000
AAXX 07184 71563 NIL
AAXX 07184 71564 NIL
AAXX 07184 71565 NIL
AAXX 07184 71566 NIL
AAXX 07184 71567 NIL
AAXX 07184 71568 16/// /3312 10043 20001 30322 40335 52007 60001 333 10058 20037 70006
AAXX 07184 71569 16/// /2916 11061 21104 39504 40222 51011 60001 333 11041 21085 70000
AAXX 07184 71570 NIL
AAXX 07184 71571 NIL
AAXX 07184 71572 NIL
AAXX 07184 71573 NIL
AAXX 07184 71574 11212 80403 11012 21016 30072 40146 58012 60021 77177 8802/ 333 10001 21019 43011 70118 90983 93103
AAXX 07184 71575 NIL
AAXX 07184 71576 16/// /0728 11210 21256 39967 40054 53004 60001 333 11167 21270 70000 555 10050
AAXX 07184 71577 NIL
AAXX 07184 71578 16/// /0707 11001 21028 60001 333 11001 21014 70000
AAXX 07184 71579 16/// /3004 11044 21091 39862 40150 58001 60001 333 11015 21079 70000
AAXX 07184 71580 NIL
AAXX 07184 71581 NIL
AAXX 07184 71582 15162 83001 10005 20005 30307 40362 51021 60001 333 10008 21015 70000
AAXX 07184 71583 NIL
AAXX 07184 71584 15766 30707 11063 21129 30121 40170 58030 60001 333 11063 21121 70000
AAXX 07184 71585 NIL
AAXX 07184 71586 16/// /3119 11117 21232 39683 40160 51017 60001 333 11097 21118 70000
AAXX 07184 71587 NIL
AAXX 07184 71588 16/// /0911 10000 21045 60001 333 10000 21017 70000
AAXX 07184 71589 NIL
AAXX 07184 71590 17/// /1302 10007 21018 39923 40115 58023 69951 7//4/ 333 10008 21019 70021
AAXX 07184 71592 NIL
AAXX 07184 71593 NIL
AAXX 07184 71596 NIL
AAXX 07184 71598 17/08 /0315 11003 21011 30141 40147 56008 60021 7//4/ 333 10002 21012 70030 555 10020
AAXX 07184 71599 NIL
AAXX 07184 71744 NIL
AAXX 07184 71750 NIL
AAXX 07184 71751 NIL
AAXX 07184 71752 NIL
AAXX 07184 71753 16/// /0902 10075 20069 30059 40088 56028 60001 333 10076 20061 70134
AAXX 07184 71754 16/// /3118 11083 21149 39566 40249 51013 60001 333 11046 21126 70000
AAXX 07184 71755 43/// /2612 11105 21130 39699 40047 58003 6///1 333 11071 21110 7////
AAXX 07184 71756 16/// /0000 11034 21039 39194 40314 53011 60001 333 11030 21038 70000
AAXX 07184 71758 NIL
AAXX 07184 71760 NIL
AAXX 07184 71761 NIL
AAXX 07184 71762 NIL
AAXX 07184 71763 NIL
AAXX 07184 71765 16/// /0103 11012 21031 30063 40347 53009 60001 333 10880 21727 70000
AAXX 07184 71766 16/// /2703 10043 20017 30254 40327 53009 60001 333 10045 20032 70000
AAXX 07184 71767 16/// /2407 11006 21070 39849 40112 58026 60001 333 11004 21042 70000
AAXX 07184 71768 46/// /3102 11004 21034 39768 40333 51014 6///1 333 11004 21054 7////
AAXX 07184 71769 16/// /3010 10051 20017 30302 40318 53011 60001 333 10057 20040 70000
AAXX 07184 71770 16/// /2201 11037 21062 39518 40314 51008 60001 333 11031 21051 70000
AAXX 07184 71771 NIL
AAXX 07184 71772 16/// /3014 10056 20030 30309 40315 53010 60001 333 10060 20039 70002
AAXX 07184 71773 16/// /1905 11188 21201 39457 40372 58010 60001 333 11188 21265 70000
AAXX 07184 71774 46/// ///// 10020 6///1 333 10032 20008 7////
AAXX 07184 71775 46/// /0201 10032 20030 30324 40330 53008 6///1 333 10032 20000 7////
AAXX 07184 71776 46/// /2208 11028 21053 39652 40312 50010 6///1 333 11020 21052 7////
AAXX 07184 71777 16/// ///// 11029 21033 30084 40345 53011 60001 333 11029 21062 70000
AAXX 07184 71778 46/// /0313 6///1 333 7////
AAXX 07184 71779 16/// /3202 11103 21111 39690 40386 53013 60001 333 11091 21128 70000
AAXX 07184 71780 17/// /0903 10056 20042 30294 40322 53007 69921 7//4/ 333 10059 20039 70002
AAXX 07184 71781 46/// /3113 10057 21005 30296 40321 53008 6///1 333 10058 20039 7////
AAXX 07184 71782 46/// /0000 11102 21117 38929 40302 50014 6///1 333 11071 21148 7////
AAXX 07184 71783 17/// /0205 10047 20035 30248 40323 53010 60011 7//4/ 333 10059 20043 70018
AAXX 07184 71784 16/// /0000 10032 20028 30109 40318 53010 60001 333 10032 20015 70000
AAXX 07184 71785 17/// /0702 10042 20032 30317 40333 53009 69921 7//4/ 333 10044 20018 70020
AAXX 07184 71786 46/// /2509 11117 21130 38407 40297 53002 6///1 333 11095 21117 7////
AAXX 07184 71787 17/// /0205 10021 20021 39615 40102 58007 60021 7//4/ 333 10024 20007 70168
AAXX 07184 71788 NIL
AAXX 07184 71789 NIL
AAXX 07184 71791 NIL
AAXX 07184 71792 NIL
AAXX 07184 71793 NIL
AAXX 07184 71794 NIL
AAXX 07184 71795 NIL
AAXX 07184 71796 NIL
AAXX 07184 71797 NIL
AAXX 07184 71201 17/// ///// 10043 20025 69921 7//4/ 333 10045 20030 70002
AAXX 07184 71202 16/// ///// 11081 21162 60001 333 11031 21091 70000
AAXX 07184 71203 15464 80901 11013 21030 39801 40338 51014 60001 333 11013 21069 70000
AAXX 07184 71209 46/// /1101 10041 6///1 333 10041 20020 7////
AAXX 07184 71211 46/// /0208 10037 20012 30311 40323 53010 6///1 333 10038 20017 7////
AAXX 07184 71212 NIL
AAXX 07184 71213 46/// /2410 11021 21064 39779 40085 57033 6///1 333 11020 21172 7////
AAXX 07184 71214 NIL
AAXX 07184 71215 46/// /0702 11015 21031 39966 40322 51011 6///1 333 11014 21073 7////
AAXX 07184 71216 16/// /1103 11017 21039 39677 40311 50007 60001 333 11017 21050 70000 555 10010
AAXX 07184 71217 NIL
AAXX 07184 71218 16/// /3202 11010 21032 39894 40334 51006 60001 333 11009 21025 70000
AAXX 07184 71219 46/// /0610 10015 21023 30338 40344 52002 6///1 333 10020 20004 7////
AAXX 07184 71220 46/// /1005 10016 21020 6///1 333 10031 20012 7////
AAXX 07184 71221 NIL
AAXX 07184 71222 16/// /0502 11210 21232 39377 40403 53003 60001 333 11139 21226 70000
AAXX 07184 71223 NIL
AAXX 07184 71224 NIL
AAXX 07184 71225 NIL
AAXX 07184 71226 NIL
AAXX 07184 71227 NIL
AAXX 07184 71228 NIL
AAXX 07184 71229 NIL
AAXX 07184 71230 16/// /0801 11137 21194 39421 40354 53010 60001 333 11067 21175 70009
AAXX 07184 71231 17/// /0310 11043 21059 69981 7//4/ 333 11007 21043 70014
AAXX 07184 71232 17/// /0708 11071 21110 38747 40287 51018 69931 7//4/ 333 11038 21116 70003
AAXX 07184 71233 NIL
AAXX 07184 71234 16/// /3610 11038 21053 39076 40294 51032 60001 333 11013 21040 70000
AAXX 07184 71235 16/// /0108 11073 21083 60001 333 11039 21074 70000
AAXX 07184 71236 46/// /1410 11026 21081 6///1 333 11007 21081 7////
AAXX 07184 71237 46/// /3305 11058 21087 39459 40298 51025 6///1 333 11026 21061 7////
AAXX 07184 71238 46/// /3107 11081 21177 6///1 333 7////
AAXX 07184 71239 16/// /3116 11049 21088 39709 40180 51004 60001 333 11021 21125 70000
AAXX 07184 71240 16/// /0000 11062 21160 39408 40277 51011 60001 333 11021 21073 70000
AAXX 07184 71241 NIL
AAXX 07184 71242 17/// /3113 11093 21148 69951 7//4/ 333 11041 21093 70009
AAXX 07184 71243 NIL
AAXX 07184 71244 16/// /3006 11062 21073 39011 40274 51022 60001 333 11059 21117 70000
AAXX 07184 71245 NIL
AAXX 07184 71246 NIL
AAXX 07184 71247 16328 8//// 11041 21052 39410 40286 52025 69951 333 11013 21042 70008
AAXX 07184 71248 16/// /0105 11085 21109 38965 40309 51021 60001 333 11042 21085 70000
AAXX 07184 71249 NIL
AAXX 07184 71401 17/// /1501 11049 21060 39611 40317 51009 60011 7//4/ 333 11029 21083 70010
AAXX 07184 71402 NIL
AAXX 07184 71404 NIL
AAXX 07184 71405 NIL
AAXX 07184 71406 NIL
AAXX 07184 71407 NIL
AAXX 07184 71408 NIL
AAXX 07184 71409 NIL
AAXX 07184 71410 15966 02910 11094 21169 39805 40088 50000 60001 333 11061 21116 70003
AAXX 07184 71413 NIL
AAXX 07184 71414 NIL
AAXX 07184 71415 16/// /2002 10061 20055 30088 40091 56030 60001 333 10062 20054 70041
AAXX 07184 71417 NIL
AAXX 07184 71418 NIL
AAXX 07184 71419 46/// /0905 10068 20067 30086 40096 58019 6///1 333 10102 20067 7////
AAXX 07184 71423 NIL
AAXX 07184 71424 46/// /0514 6///1 333 7////
AAXX 07184 71425 NIL
AAXX 07184 71426 NIL
AAXX 07184 71427 NIL
AAXX 07184 71428 16/// /2201 11011 21033 30131 40137 56025 60001 333 11007 21031 70000
AAXX 07184 71429 NIL
AAXX 07184 71434 NIL
AAXX 07184 71436 15566 82502 10004 21014 39881 40117 58026 60001 333 10004 21006 70003
AAXX 07184 71437 46/// /2204 10021 21028 30028 40124 58024 6///1 333 10022 20005 7////
AAXX 07184 71438 NIL
AAXX 07184 71439 NIL
AAXX 07184 71440 NIL
AAXX 07184 71442 16/// /3114 11066 21152 39831 40151 50004 60001 333 11048 21077 70000
AAXX 07184 71445 NIL
AAXX 07184 71446 16/// /3220 11069 21094 39251 40254 52018 60001 333 11028 21069 70000
AAXX 07184 71448 16/// /2912 11045 21105 39803 40137 58002 60001 333 11026 21082 70000
AAXX 07184 71449 16/// /2609 11030 21096 39738 40145 58006 60001 333 11022 21097 70000
AAXX 07184 71300 NIL
AAXX 07184 71301 17/// ///// 11043 21070 39670 40077 57029 69961 7//4/ 333 11043 21197 70013
AAXX 07184 71302 16/// /1902 11136 21146 39515 40374 52015 60001 333 11070 21164 70000
AAXX 07184 71303 NIL
AAXX 07184 71305 15566 13017 11168 21233 39926 40236 53004 60001 333 11087 21171 70000
AAXX 07184 71306 17916 /2721 11060 21077 39865 49897 51033 60001 771// 333 11029 21062 70000
AAXX 07184 71307 NIL
AAXX 07184 71308 16/// /3503 10069 20066 30016 40100 55020 60001 333 10075 20059 70082
AAXX 07184 71309 NIL
AAXX 07184 71310 16/// /0105 10040 20035 30063 40100 56023 60001 333 10041 20032 70081
AAXX 07184 71311 NIL
AAXX 07184 71312 16/// /2824 11079 21160 39700 40166 57012 60001 333 11044 21126 70000
AAXX 07184 71314 NIL
AAXX 07184 71315 17/// /0707 11017 21025 30094 40148 58012 69931 7//4/ 333 11009 21019 70054 555 10060
AAXX 07184 71316 16/// /3114 11105 21176 39573 40283 53011 60001 333 11073 21122 70000
AAXX 07184 71317 NIL
AAXX 07184 71318 16/// /3219 11079 21165 39310 40283 51010 60001 333 11030 21095 70000 555 10370
AAXX 07184 71319 NIL
AAXX 07184 71320 NIL
AAXX 07184 71321 NIL
AAXX 07184 71322 NIL
AAXX 07184 71323 16/// /1201 10000 21012 39816 40098 56033 60001 333 10001 21016 70010
AAXX 07184 71331 16/// /3012 11129 21209 60001 333 11093 21130 70000
AAXX 07184 71332 NIL
AAXX 07184 71334 46/// /3015 11192 21256 39650 49985 58005 6///1 333 11135 21205 7////
AAXX 07184 71335 46964 02016 11126 56019 6///1 333 11097 21146 7////
AAXX 07184 71336 46/// ///20 10020 20017 30117 40139 55016 6///1 333 10061 20016 7////
AAXX 07184 71337 46/// /0809 11034 21039 39931 40172 58025 6///1 333 11026 21039 7////
AAXX 07184 71338 46864 60000 11189 21234 30019 40026 56010 6///1 333 11174 21234 7////
AAXX 07184 71339 16964 02802 11103 21146 30206 40221 58017 60001 333 11099 21173 70020
AAXX 07184 71340 NIL
AAXX 07184 71341 NIL
AAXX 07184 71342 NIL
AAXX 07184 71343 NIL
AAXX 07184 71344 NIL
AAXX 07184 71345 NIL
AAXX 07184 71346 NIL
AAXX 07184 71347 NIL
AAXX 07184 71348 NIL
AAXX 07184 71349 NIL
AAXX 07184 71604 NIL
AAXX 07184 71605 16/// /0000 10037 20037 30166 40319 53008 60001 333 10038 20012 70000
AAXX 07184 71611 NIL
AAXX 07184 71612 NIL
AAXX 07184 71614 16/// /1001 10018 21001 30038 40104 56027 60001 333 10018 21002 70003
AAXX 07184 71616 16/// /0701 10001 21009 39993 40114 56036 60001 333 10002 21018 70010
AAXX 07184 71617 16/// /1108 11016 21036 39947 40117 58024 60001 333 11015 21063 70000
AAXX 07184 71618 45666 82722 11191 21245 39906 49944 58013 6///1 333 11150 21199
AAXX 07184 71619 16/// /0406 11017 21034 30087 40146 56013 60001 333 11013 21027 70030
AAXX 07184 71622 NIL
AAXX 07184 71632 46/// /3125 11168 21217 39614 40063 53002 6///1 333 11100 21169 7////
AAXX 07184 71634 17/// /0103 11005 21011 39990 40145 58012 69951 7//4/ 333 11003 21017 70064 555 10010
AAXX 07184 71638 16/// /3402 10034 20025 30212 40320 53010 60001 333 10034 20015 70000
AAXX 07184 71639 12474 82703 10008 21044 39878 40121 58025 60001 885// 333 10009 21013 70002
AAXX 07184 71642 NIL
BBXX A8TG2 07184 99325 71486 41898 51216 10180 20146 40200 54000 703// 82262 22224 20204 310// 40204 5//// 80160
AAXX 07184 13600 12663 10904 10090 20074 30133 40186 52011 60002 81200 333 10132 81840
AAXX 07184 13610 11330 80000 10062 20041 39753 40181 52004 60002 71022 885// 333 10070 88606
AAXX 07184 13622 12665 20000 10090 20056 30173 40180 52008 69922 82500 333 10160 82640
AAXX 07184 13601 12660 30000 10104 20081 30067 40168 52012 60022 83100 333 10156 83840
AAXX 07184 17375 11558 73103 10143 20141 30148 40150 57010 60332 79598 85970 333 10170 81925 84827 92436
AAXX 07184 13624 12965 11404 10056 20041 30144 40183 52014 60022 81030 333 10170 81360
AAXX 07184 71043 11680 21102 11268 21314 30265 40365 55004 69901 77600 81501 333 11198 21295 48019 79999 90942
AAXX 07184 71045 16/// /0704 11205 21225 39480 40402 54000 60001 333 11189 21257 70000
AAXX 07184 71050 NIL
AAXX 07184 71051 NIL
AAXX 07184 71052 NIL
AAXX 07184 71066 12974 03014 11163 21255 39899 40339 53011 60001 333 11100 21168 79999
AAXX 07184 71068 12974 13607 11117 21178 39625 40346 51020 60001 80002 333 11066 21143 70000
AAXX 07184 71069 16964 03013 11111 21155 39586 40317 51011 60001 333 11058 21113 70000
AAXX 07184 71076 16/// /3217 11180 21232 39748 40154 53008 60001 333 11126 21180 70000
AAXX 07184 71077 16/// /3118 11127 21184 39664 40222 51019 60001 333 11089 21129 70000
AAXX 07184 71079 11674 22817 11134 21208 39768 40052 51008 60001 73611 82500 333 11086 21134 48005 70004
AAXX 07184 71081 47211 81130 11077 21085 39791 49803 53006 6///1 745// 333 11073 21131 7////
AAXX 07184 71082 NIL
AAXX 07184 71083 11966 22313 11233 21271 39709 49751 57018 69901 77671 80001 333 11214 21239 48053 70006 90927
AAXX 07184 71090 46964 03506 11236 21271 30039 40075 51006 6///1 333 11236 21327 7////
AAXX 07184 71091 460// /0941 11131 39690 49897 55006 6///1 333 7////
AAXX 07184 71092 47402 80932 11190 39298 49969 58007 6///1 745// 333 11169 21228 7////
AAXX 07184 71093 460// /0913 11191 39517 40020 51003 6///1 333 11159 21204 7////
AAXX 07184 71094 46004 /2124 11150 39105 40013 51004 6///1 333 11148 21205 7////
AAXX 07184 71095 47424 30827 11211 21260 39970 40052 5/002 6///1 745// 333 11169 21271 7////
AAXX 07184 71101 160// /2606 30345 53004 60001 333 70000
AAXX 07184 71104 11974 00000 11109 21109 39207 40366 53013 60001 70144 81071 333 11053 21162 70000
AAXX 07184 71108 11456 80102 10028 20021 30251 40325 50007 60011 72055 885// 333 10029 20009 70028 90983
AAXX 07184 71109 12680 22305 10034 21006 30314 40341 53002 60001 81501 333 10040 20014 70002
AAXX 07184 71603 11248 81806 10098 20098 30039 40091 56021 60021 78044 887// 333 10106 20093 70172 90921
AAXX 07184 71607 17/// /0104 10032 20026 30074 40107 58014 69941 7//4/ 333 10033 20023 70109
AAXX 07184 71609 11232 80209 10040 20029 39965 40099 58023 69951 76152 887// 333 10044 20030 70097 90937
AAXX 07184 71610 17259 81401 10011 20007 39802 40098 58039 60001 710// 333 10013 20001 70000
AAXX 07184 71621 NIL
AAXX 07184 71623 NIL
AAXX 07184 71624 12574 82305 10009 21022 39909 40122 58027 60001 885// 333 10012 21006 70002
AAXX 07184 71625 16564 80000 11014 21091 39958 40120 58029 60001 333 11013 21043 70000
AAXX 07184 71627 11458 80000 10017 21014 30065 40110 57033 69901 72672 886// 333 10018 21004 79999 90917
AAXX 07184 71628 11474 82804 11008 21030 39976 40118 58013 69901 70272 885// 333 11005 21016 42001 70002 90936
AAXX 07184 71630 NIL
AAXX 07184 71631 16/// /2906 11022 21061 39615 40119 58021 60001 333 11014 21032 70000
AAXX 07184 71633 12574 82310 11004 21062 39845 40119 58021 60001 885// 333 10005 21029 70002
AAXX 07184 71705 11124 80409 10036 20032 30027 40114 55005 60011 78065 887// 333 10039 20025 70118 90983
AAXX 07184 71706 11124 80105 10044 20043 30049 40109 55022 69941 75185 887// 333 10044 20037 70110 90983
AAXX 07184 71707 11232 80000 10058 20051 30017 40093 58027 69921 75164 887// 333 10059 20044 70160 90927
AAXX 07184 71709 11159 80612 10036 20033 30084 40097 58033 60031 76152 887// 333 10036 20016 70088 90952
AAXX 07184 71711 NIL
AAXX 07184 71714 46/// /0705 11001 30036 6///1 333 7////
AAXX 07184 71715 17/// /3503 11016 21025 39932 40115 58026 60011 7//4/ 333 11014 21046 70012
AAXX 07184 71718 11566 80906 11001 21018 30062 40128 57024 69921 77177 885// 333 11001 21053 47006 70002 90973
AAXX 07184 71719 NIL
AAXX 07184 71726 17/// /2605 11049 21076 39558 40106 56018 69931 7//4/ 333 11045 21128 70014
AAXX 07184 71727 11474 81007 11012 21038 39914 40113 56024 69901 77182 885// 333 11012 21048 47001 79999 90916
AAXX 07184 71728 11480 80803 11034 21050 39881 40105 57030 69901 70282 885// 333 11030 21093 44001 70004 90920
AAXX 07184 71730 11674 72110 11021 21051 39669 40100 58026 69901 70272 87500 333 11019 21126 79999
AAXX 07184 71731 11566 81604 11038 21062 39649 40106 58027 69901 77182 885// 333 11038 21082 41997 79999 90937
AAXX 07184 71735 NIL
AAXX 07184 71738 11469 82705 11024 21053 39715 40070 56004 60011 77182 885// 333 11017 21129 43008 70010 90952
AAXX 07184 71739 41574 82105 11051 21070 39696 40067 57019 6//// 77122 885// 333 11205 21051 4//// 7//// 90913
AAXX 07184 71749 16964 03014 11023 21111 39859 40107 50001 69951 333 11022 21090 70005
AAXX 07184 71799 11374 80404 10051 20037 30302 40326 53011 69901 75152 87501 333 10053 20031 70002 90917
AAXX 07184 71800 17/// /2008 10058 20058 30110 40143 56016 60021 7//4/ 333 10060 20037 70017
AAXX 07184 71801 11/08 90811 10018 20018 39983 40157 57013 60131 76164 333 10064 20016 70138 90973
AAXX 07184 71803 11248 80613 11009 21018 39979 40168 56027 60021 77177 887// 333 10000 21012 43004 70046 90983 93102
AAXX 07184 71807 NIL
AAXX 07184 71808 12574 70613 11074 21106 30152 40200 56024 60001 87500 333 11073 21122 70044
AAXX 07184 71809 11216 80412 11014 21020 30131 40159 57025 60011 77177 885// 333 11001 21018 41001 70022 90983 93101
AAXX 07184 71810 16/// /0811 11056 21073 30087 40155 56032 60001 333 11056 21090 70000
AAXX 07184 71811 NIL
AAXX 07184 71813 NIL
AAXX 07184 71814 16/// /0214 11061 21071 30157 40167 56028 60001 333 11060 21132 70000
AAXX 07184 71815 11474 80812 10016 21005 30084 40115 57039 69901 78082 885// 333 10030 20013 70090 90915
AAXX 07184 71864 NIL
AAXX 07184 71865 16/// /2810 11085 21141 39509 40206 58008 60001 333 11057 21111 70000
AAXX 07184 71866 46764 33221 11079 21130 39604 40234 53003 6///1 333 11040 21127 7////
AAXX 07184 71867 11348 83022 11099 21145 39776 40116 57006 69901 77111 88700 333 11061 21111 44012 79999 90910
AAXX 07184 71868 NIL
AAXX 07184 71869 12574 22815 11080 21124 39664 40200 58005 60001 81501 333 11024 21118 70000
AAXX 07184 71871 15966 03122 11095 21167 39433 40265 51009 60001 333 11061 21154 70000
AAXX 07184 71877 11336 80213 11065 21091 39001 40312 52025 69941 77177 885// 333 11029 21065 46003 70004 90973
AAXX 07184 71878 11774 73313 11082 21127 39210 40319 51017 69941 77177 87500 333 11044 21086 48014 70012 90983 93101
AAXX 07184 71879 16964 03116 11081 21163 39475 40305 51012 60001 333 11029 21089 70000
AAXX 07184 71880 12582 70000 11081 21091 39167 40315 51014 60001 87500 333 11081 21136 70000
AAXX 07184 71882 16564 80000 11033 21043 39768 40324 50003 60001 333 11033 21067 70000
AAXX 07184 71883 46/// /0000 11054 21063 39503 40358 53013 6///1 333 11053 21138 7////
AAXX 07184 71887 12482 83203 11016 21051 39917 40352 51006 60001 88500 333 11015 21034 70000
AAXX 07184 71889 12466 80105 10008 21022 39901 40332 51013 60001 88600 333 10008 21068 70000
AAXX 07184 71891 16664 80103 11010 21030 30065 40349 53008 60001 333 11009 21052 70000
AAXX 07184 71892 12159 80000 10043 20037 30324 40329 53011 60001 886// 333 10043 20026 79999
AAXX 07184 71397 11110 80802 10070 20070 30059 40093 56022 69981 76065 887// 333 10073 20050 70068 90983
AAXX 07184 71400 NIL
AAXX 07184 71403 46/// /1404 10078 20075 30073 40093 56031 6///1 333 10093 20076 7////
AAXX 07184 71411 16/// /2203 10090 20089 30081 40093 58016 60001 333 10111 20089 70135
AAXX 07184 71412 16/// /3404 10059 20055 30076 40085 56027 60001 333 10060 20045 70042
AAXX 07184 71421 NIL
AAXX 07184 71430 NIL
AAXX 07184 71431 16/// /3203 10019 21026 30009 40105 58035 60001 333 10021 20007 70000
AAXX 07184 71432 NIL
AAXX 07184 71433 NIL
AAXX 07184 71435 NIL
AAXX 07184 71441 46/// /3116 11030 21082 39846 40159 58004 6///1 333 11011 21112 7////
AAXX 07184 71443 16/// /2214 11093 21165 39745 40168 58004 60001 333 11055 21114 70000
AAXX 07184 71444 NIL
AAXX 07184 71447 NIL
AAXX 07184 71467 16/// /2912 11264 21289 30139 40260 51007 60001 333 11263 21292 70000
AAXX 07184 71472 NIL
AAXX 07184 71474 16964 00000 11077 21089 39065 40352 53007 60001 333 11076 21120 70000
AAXX 07184 71510 16/// /3222 11069 21154 39516 40239 53003 60001 333 11023 21132 70000
AAXX 07184 71538 12674 62809 10014 21062 39912 40144 58024 60001 86502 333 10017 21011 79999
AAXX 07184 71600 17004 92117 10111 20109 30114 40120 55017 60011 743// 333 10119 20095 70020
AAXX 07184 71601 NIL
AAXX 07184 71816 12574 10000 11163 21220 30154 40229 56027 60001 81501 333 11141 21241 70000
AAXX 07184 71817 NIL
AAXX 07184 71818 12674 12007 11094 21149 30207 40226 57011 60001 81500 333 11030 21146 70000
AAXX 07184 71822 11456 72007 11092 21105 39616 40105 58020 69921 77175 87500 333 11092 21204 47019 77002 90956
AAXX 07184 71825 12774 80000 11220 21254 39454 40171 57035 70341 885// 333 11220 21338 79999
AAXX 07184 71827 11456 81812 11097 21111 39757 40005 58011 60011 77177 88500 333 11090 21197 47017 70010 90973 93101
AAXX 07184 71828 16964 01509 11215 21263 39472 40144 56030 60001 333 11214 21288 70000
AAXX 07184 71831 11432 82704 11049 21061 39778 40063 50001 60011 77177 885// 333 11048 21187 47016 70016 90973 93101
AAXX 07184 71832 NIL
AAXX 07184 71834 11474 63105 11057 21095 39648 40080 50005 69901 70271 82870 333 11045 21108 48007 70004 90933
AAXX 07184 71841 NIL
AAXX 07184 71842 11574 33010 11065 21129 39634 40111 51004 69901 70277 83500 333 11057 21078 48003 79999 90966
AAXX 07184 71844 17464 62709 11097 21125 39749 40030 58005 60001 745// 333 11085 21148 70005
AAXX 07184 71845 11469 72808 11074 21115 39588 40068 50000 69901 77171 86501 333 11071 21141 43010 70010 90917
AAXX 07184 71850 11574 82907 11050 21106 39623 40129 58004 69901 77111 83570 333 11032 21108 48003 70002 90921
AAXX 07184 71852 16564 62812 11048 21082 39858 40156 50001 60001 333 11021 21105 70000
AAXX 07184 71854 11574 32810 11062 21142 39626 40104 58004 69901 70371 83500 333 11047 21080 48009 70006 90946
AAXX 07184 71858 NIL
AAXX 07184 71861 17/// /3108 11089 21182 39467 40212 50011 60481 7//4/ 333 11056 21102 70475
AAXX 07184 71862 12774 63211 11052 21091 39510 40227 50012 60001 82571 333 11028 21068 70000
AAXX 07184 71863 46664 62912 11070 21109 39519 40235 50009 6///1 333 11044 21102 7////
AAXX 07184 71114 17664 80804 10025 20016 30280 40329 53009 69951 7//44 333 10025 21007 70025
AAXX 07184 71120 11574 13113 11103 21171 39584 40263 52015 69901 70181 81500 333 11076 21112 42003 79999 90961
AAXX 07184 71122 16/// /0506 11061 21103 38632 40283 51009 60001 333 11060 21158 70000
AAXX 07184 71123 11574 13017 11088 21164 39412 40306 50009 69901 73681 81171 333 11032 21091 44005 70008 90951
AAXX 07184 71125 11574 12926 11088 21153 39629 40231 51007 69901 70381 81100 333 42997 79999 90951
AAXX 07184 71129 12674 43117 11065 21161 39408 40259 50010 60001 81570 333 11022 21069 70000
AAXX 07184 71131 16/// /3608 11070 21084 38968 40253 51013 60001 333 11029 21074 70000
AAXX 07184 71135 16/// /3109 11059 21124 39130 40238 50006 60001 333 11021 21073 70000
AAXX 07184 71137 16/// /0209 11054 21067 39286 40250 51012 60001 333 11003 21055 70000
AAXX 07184 71140 11574 73114 11069 21156 39686 40199 52014 69921 73671 81570 333 11042 21122 46997 70002 90931
AAXX 07184 71145 11974 82713 11110 21143 39766 40063 52002 69901 73677 86071 333 11056 21117 70024 90967
AAXX 07184 71148 16/// /3114 11058 21091 39593 40184 52007 60001 333 11023 21127 70000
AAXX 07184 71182 16964 01003 11191 21232 39615 40188 56036 60001 333 11190 21334 70000
AAXX 07184 71185 17964 01006 11012 30132 40156 58034 60001 745// 333 11010 21032 70025
AAXX 07184 71188 NIL
AAXX 07184 71200 17/// /0206 10046 20040 69981 7//4/ 333 10059 20045 70010
AAXX 07184 71207 16/// /3102 10004 30258 40324 53008 60001 333 10005 21023 70000
AAXX 07184 71260 13/// ///// 11018 21080 39859 40098 58012 60001 333 11018 21058 70000
AAXX 07184 71102 NIL
AAXX 07184 71105 NIL
AAXX 07184 71107 NIL
AAXX 07184 71110 NIL
AAXX 07184 71111 16866 82506 10030 20007 30344 40352 53003 60001 333 10043 20022 70000
AAXX 07184 71112 16/// ///// 60001 333 70002
AAXX 07184 71113 17/// /3302 10026 20025 30298 40322 53005 69941 7//4/ 333 10026 21003 70032
AAXX 07184 71115 16/// /2901 11020 21032 39729 40328 51006 60001 333 11019 21064 70003
AAXX 07184 71116 16/// /3603 11022 21035 39147 40265 51015 60001 333 11016 21035 70000
AAXX 07184 71118 16/// /3115 11091 21176 39429 40281 51015 60001 333 11035 21099 70000
AAXX 07184 71121 16964 03011 11087 21189 39453 40303 51014 60001 333 11036 21094 70000
AAXX 07184 71127 16/// /3014 11089 21174 39367 40316 53012 60001 333 11038 21094 70000
AAXX 07184 71130 15966 02625 11076 21160 39700 40166 57016 60001 333 11043 21119 70015
AAXX 07184 71132 15664 82917 11159 21216 39788 40108 51009 60001 333 11097 21167 70000
AAXX 07184 71133 46/// /3014 11090 21151 39485 40208 50007 6///1 333 11048 21136 7////
AAXX 07184 71139 NIL
AAXX 07184 71141 NIL
AAXX 07184 71142 17636 83020 11070 21085 39262 40255 51011 60001 771// 333 11032 21070 70000
AAXX 07184 71143 NIL
AAXX 07184 71144 NIL
AAXX 07184 71147 NIL
AAXX 07184 71149 16/// /3015 11056 21202 60001 333 11031 21065 70000
AAXX 07184 71893 12674 62804 10037 21011 30299 40331 52008 60001 82501 333 10048 20012 79999
AAXX 07184 71894 16/// /3503 10033 20033 30311 40320 53009 60001 333 10060 20024 70000
AAXX 07184 71896 15964 01903 11141 21153 39504 40379 51015 60001 333 11071 21174 70000
AAXX 07184 71897 12474 20505 10018 20006 3//// 4//// 55001 60001 82800 333 10020 20009 70000
AAXX 07184 71898 160// ///// 11022 53004 60001 333 11007 21034 70000
AAXX 07184 71899 12785 61407 10024 21052 3//// 4//// 58001 60001 82530 333 10050 20019 79999
AAXX 07184 71902 12974 02403 11124 21174 30171 40180 56025 60001 333 11109 21171 70000
AAXX 07184 71905 NIL
AAXX 07184 71906 19999 69999 11116 21211 39995 40046 56029 69999 333 11111 22222 71111
AAXX 07184 71907 17314 92719 11075 21095 39868 49900 51034 60001 745// 333 11037 21075 70050
AAXX 07184 71909 17564 31723 11063 21114 39896 49939 56017 60011 74544 333 11056 21220 70020
AAXX 07184 71910 46458 81819 11055 21066 39723 49783 53001 6///1 333 11052 21088 7////
AAXX 07184 71911 47300 8//// 11107 39711 49766 51025 6///1 741// 333 11105 21192 7////
AAXX 07184 71912 11474 82909 11152 21202 39827 40013 50004 60011 72277 885// 333 11097 21159 48011 70026 90912 93101
AAXX 07184 71915 11266 72305 11248 21287 39688 49770 51028 69901 77622 82501 333 11228 21248 48046 79999 90931
AAXX 07184 71917 11974 30000 11370 21413 30137 40152 52010 69901 77677 83030 333 11346 21392 47013 79999 90983
AAXX 07184 71922 11574 11116 11116 21256 39686 40165 52016 69901 72211 81500 333 11097 21117 43019 79999 90921
AAXX 07184 71924 NIL
AAXX 07184 71925 11500 80134 11153 21171 39953 49994 53036 60001 73933 885// 333 11138 21187 70004
AAXX 07184 71926 12566 63414 11245 21297 39711 49735 55003 60001 86500 333 11219 21270 44040 70000
AAXX 07184 71928 16/// /3208 11091 21120 39114 40317 51014 60001 333 11047 21095 70000 555 10020
AAXX 07184 71250 NIL
AAXX 07184 71251 17/// /0107 11037 21050 39344 40293 51025 69971 7//4/ 333 11006 21039 70007
AAXX 07184 71252 NIL
AAXX 07184 71253 46/// /3006 11154 21243 6///1 333 11103 21157 7////
AAXX 07184 71254 16/// /3116 11085 21152 60001 333 11040 21100 70000
AAXX 07184 71255 16/// /3116 11129 21208 60001 333 11085 21129 70000
AAXX 07184 71256 46/// /3014 11090 21154 39349 40318 52006 6///1 333 11050 21107 7////
AAXX 07184 71257 NIL
AAXX 07184 71258 NIL
AAXX 07184 71259 NIL
AAXX 07184 71261 16/// /2808 11004 21065 39861 40124 58025 60001 333 10012 21011 70000
AAXX 07184 71263 12574 82306 10005 21022 39837 40128 58022 60001 885// 333 10007 21004 41997 79999
AAXX 07184 71264 16/// /2002 10090 20087 30062 40093 56026 60001 333 10110 20077 70102
AAXX 07184 71265 15566 82507 10017 21023 30029 40123 58027 60001 333 10018 20007 70000
AAXX 07184 71266 NIL
AAXX 07184 71267 17348 80307 11034 21035 39172 40294 51036 60001 771// 333 11005 21045 70000
AAXX 07184 71268 NIL
AAXX 07184 71269 NIL
AAXX 07184 71270 16/// /2806 10002 21048 39897 40119 58019 60001 333 10011 21016 70000
AAXX 07184 71271 NIL
AAXX 07184 71272 15566 63016 11189 21254 39625 49984 58003 60001 333 11133 21204 70000
AAXX 07184 71273 16/// /2914 11090 21150 39556 40236 51009 60001 333 11063 21109 70000
AAXX 07184 71274 NIL
AAXX 07184 71275 NIL
AAXX 07184 71276 NIL
AAXX 07184 71277 NIL
AAXX 07184 71278 NIL
AAXX 07184 71279 16/// /0205 11092 21168 30095 40163 56032 60001 333 11091 21142 70000
AAXX 07184 71281 NIL
AAXX 07184 71282 46/// /2712 10009 21015 39849 40121 56025 6///1 333 10012 21014 7////
AAXX 07184 71283 NIL
AAXX 07184 71284 NIL
AAXX 07184 71285 NIL
AAXX 07184 71286 NIL
AAXX 07184 71287 NIL
AAXX 07184 71288 NIL
AAXX 07184 71289 NIL
AAXX 07184 71290 17966 01402 11140 21157 39508 40377 52013 60001 771// 333 11050 21164 70000
AAXX 07184 71291 16/// /2907 11027 21097 39800 40093 50003 60001 333 11026 21100 70013 555 10010
AAXX 07184 71292 NIL
AAXX 07184 71294 16/// /1601 11021 21049 39708 40113 58023 60001 333 11018 70000
AAXX 07184 71295 NIL
AAXX 07184 71296 NIL
AAXX 07184 71297 16/// /2403 10015 21013 60001 333 10017 20003 70000
AAXX 07184 71298 16/// /3106 10011 21049 39909 40143 57024 60001 333 10014 21011 70000
AAXX 07184 71299 NIL
AAXX 07184 71665 16/// /2404 11122 21195 30166 40176 58023 60001 333 11118 21171 70006
AAXX 07184 71666 47/// /0308 10031 20028 30071 40116 50000 6///1 7//4/ 333 10036 7////
AAXX 07184 71667 NIL
AAXX 07184 71668 16/// /3605 10017 20004 30075 40119 56008 60001 333 10018 20012 70059
AAXX 07184 71669 NIL
AAXX 07184 71670 17/// ///// 10018 20015 69981 7//4/ 333 10025 20014 70110
AAXX 07184 71671 NIL
AAXX 07184 71672 16/// /2603 10007 21037 39847 40112 58026 60001 333 10007 21007 70000
AAXX 07184 71673 NIL
AAXX 07184 71674 NIL
AAXX 07184 71675 17566 62710 11095 21127 39748 40029 58005 60051 77144 333 11087 21142 70183
AAXX 07184 71679 16/// /0405 11094 21103 39301 40357 53006 60001 333 11067 21103 70000
AAXX 07184 71680 NIL
AAXX 07184 71681 46/// /0204 11037 21073 6///1 333 11025 21043 7////
AAXX 07184 71682 NIL
AAXX 07184 71683 NIL
AAXX 07184 71684 15566 82310 11023 21071 39782 40089 57033 60001 333 11022 21171 70000
AAXX 07184 71685 15566 83001 11033 21036 39767 40323 50003 60001 333 11033 21065 70000
AAXX 07184 71686 NIL
AAXX 07184 71687 16/// /0301 11017 21028 39517 40319 53011 60001 333 11017 21051 70000
AAXX 07184 71688 16/// /0000 11020 21024 39246 40304 53009 60001 333 11020 21036 70000
AAXX 07184 71689 15666 13020 11128 21206 39784 40257 51022 60001 333 11089 21128 70000
AAXX 07184 71690 NIL
AAXX 07184 71691 15466 80815 11023 21040 30109 40137 56026 60001 333 11022 21057 70000
AAXX 07184 71692 NIL
AAXX 07184 71694 16/// /2305 11002 21043 39762 40128 56021 60001 333 11002 21040 70000
AAXX 07184 71695 16/// /2915 11099 21147 39773 40113 57006 60001 333 11061 21116 70000
AAXX 07184 71696 16/// /2719 11191 21246 39903 49940 58013 60001 333 11150 21200 70016
AAXX 07184 71697 15566 82907 10013 21038 39943 40115 58033 60001 333 10019 21004 70000
AAXX 07184 71699 17/// /0104 10041 20035 30091 40098 56021 69971 7//4/ 333 10044 20032 70078
AAXX 07184 71744 NIL
AAXX 07184 71750 NIL
AAXX 07184 71751 NIL
AAXX 07184 71752 NIL
AAXX 07184 71753 16/// /0902 10075 20069 30059 40088 56028 60001 333 10076 20061 70134
AAXX 07184 71754 16/// /3118 11083 21149 39566 40249 51013 60001 333 11046 21126 70000
AAXX 07184 71755 43/// /2612 11105 21130 39699 40047 58003 6///1 333 11071 21110 7////
AAXX 07184 71756 16/// /0000 11034 21039 39194 40314 53011 60001 333 11030 21038 70000
AAXX 07184 71758 NIL
AAXX 07184 71760 NIL
AAXX 07184 71761 NIL
AAXX 07184 71762 NIL
AAXX 07184 71763 NIL
AAXX 07184 71765 16/// /0103 11012 21031 30063 40347 53009 60001 333 10880 21727 70000
AAXX 07184 71766 16/// /2703 10043 20017 30254 40327 53009 60001 333 10045 20032 70000
AAXX 07184 71767 16/// /2407 11006 21070 39849 40112 58026 60001 333 11004 21042 70000
AAXX 07184 71768 46/// /3102 11004 21034 39768 40333 51014 6///1 333 11004 21054 7////
AAXX 07184 71769 16/// /3010 10051 20017 30302 40318 53011 60001 333 10057 20040 70000
AAXX 07184 71770 16/// /2201 11037 21062 39518 40314 51008 60001 333 11031 21051 70000
AAXX 07184 71771 NIL
AAXX 07184 71772 16/// /3014 10056 20030 30309 40315 53010 60001 333 10060 20039 70002
AAXX 07184 71773 16/// /1905 11188 21201 39457 40372 58010 60001 333 11188 21265 70000
AAXX 07184 71774 46/// ///// 10020 6///1 333 10032 20008 7////
AAXX 07184 71775 46/// /0201 10032 20030 30324 40330 53008 6///1 333 10032 20000 7////
AAXX 07184 71776 46/// /2208 11028 21053 39652 40312 50010 6///1 333 11020 21052 7////
AAXX 07184 71777 16/// ///// 11029 21033 30084 40345 53011 60001 333 11029 21062 70000
AAXX 07184 71778 46/// /0313 6///1 333 7////
AAXX 07184 71779 16/// /3202 11103 21111 39690 40386 53013 60001 333 11091 21128 70000
AAXX 07184 71780 17/// /0903 10056 20042 30294 40322 53007 69921 7//4/ 333 10059 20039 70002
AAXX 07184 71781 46/// /3113 10057 21005 30296 40321 53008 6///1 333 10058 20039 7////
AAXX 07184 71782 46/// /0000 11102 21117 38929 40302 50014 6///1 333 11071 21148 7////
AAXX 07184 71783 17/// /0205 10047 20035 30248 40323 53010 60011 7//4/ 333 10059 20043 70018
AAXX 07184 71784 16/// /0000 10032 20028 30109 40318 53010 60001 333 10032 20015 70000
AAXX 07184 71785 17/// /0702 10042 20032 30317 40333 53009 69921 7//4/ 333 10044 20018 70020
AAXX 07184 71786 46/// /2509 11117 21130 38407 40297 53002 6///1 333 11095 21117 7////
AAXX 07184 71787 17/// /0205 10021 20021 39615 40102 58007 60021 7//4/ 333 10024 20007 70168
AAXX 07184 71788 NIL
AAXX 07184 71789 NIL
AAXX 07184 71791 NIL
AAXX 07184 71792 NIL
AAXX 07184 71793 NIL
AAXX 07184 71794 NIL
AAXX 07184 71795 NIL
AAXX 07184 71796 NIL
AAXX 07184 71797 NIL
AAXX 07184 71851 16/// /3110 11039 21101 39826 40166 50004 60001 333 11033 21074 70003
AAXX 07184 71857 NIL
AAXX 07184 71860 11348 83605 11073 21096 38868 40310 51024 69941 77177 885// 333 11040 21073 70004 90952 93101
AAXX 07184 71876 15966 03017 11073 21129 39570 40253 51013 60001 333 11043 21115 70000
AAXX 07184 71885 NIL
AAXX 07184 71888 NIL
AAXX 07184 71895 NIL
AAXX 07184 71201 17/// ///// 10043 20025 69921 7//4/ 333 10045 20030 70002
AAXX 07184 71202 16/// ///// 11081 21162 60001 333 11031 21091 70000
AAXX 07184 71203 15464 80901 11013 21030 39801 40338 51014 60001 333 11013 21069 70000
AAXX 07184 71209 46/// /1101 10041 6///1 333 10041 20020 7////
AAXX 07184 71211 46/// /0208 10037 20012 30311 40323 53010 6///1 333 10038 20017 7////
AAXX 07184 71212 NIL
AAXX 07184 71213 46/// /2410 11021 21064 39779 40085 57033 6///1 333 11020 21172 7////
AAXX 07184 71214 NIL
AAXX 07184 71215 46/// /0702 11015 21031 39966 40322 51011 6///1 333 11014 21073 7////
AAXX 07184 71216 16/// /1103 11017 21039 39677 40311 50007 60001 333 11017 21050 70000 555 10010
AAXX 07184 71217 NIL
AAXX 07184 71218 16/// /3202 11010 21032 39894 40334 51006 60001 333 11009 21025 70000
AAXX 07184 71219 46/// /0610 10015 21023 30338 40344 52002 6///1 333 10020 20004 7////
AAXX 07184 71220 46/// /1005 10016 21020 6///1 333 10031 20012 7////
AAXX 07184 71221 NIL
AAXX 07184 71222 16/// /0502 11210 21232 39377 40403 53003 60001 333 11139 21226 70000
AAXX 07184 71223 NIL
AAXX 07184 71224 NIL
AAXX 07184 71225 NIL
AAXX 07184 71226 NIL
AAXX 07184 71227 NIL
AAXX 07184 71228 NIL
AAXX 07184 71229 NIL
AAXX 07184 71230 16/// /0801 11137 21194 39421 40354 53010 60001 333 11067 21175 70009
AAXX 07184 71231 17/// /0310 11043 21059 69981 7//4/ 333 11007 21043 70014
AAXX 07184 71232 17/// /0708 11071 21110 38747 40287 51018 69931 7//4/ 333 11038 21116 70003
AAXX 07184 71233 NIL
AAXX 07184 71234 16/// /3610 11038 21053 39076 40294 51032 60001 333 11013 21040 70000
AAXX 07184 71235 16/// /0108 11073 21083 60001 333 11039 21074 70000
AAXX 07184 71236 46/// /1410 11026 21081 6///1 333 11007 21081 7////
AAXX 07184 71237 46/// /3305 11058 21087 39459 40298 51025 6///1 333 11026 21061 7////
AAXX 07184 71238 46/// /3107 11081 21177 6///1 333 7////
AAXX 07184 71239 16/// /3116 11049 21088 39709 40180 51004 60001 333 11021 21125 70000
AAXX 07184 71240 16/// /0000 11062 21160 39408 40277 51011 60001 333 11021 21073 70000
AAXX 07184 71241 NIL
AAXX 07184 71242 17/// /3113 11093 21148 69951 7//4/ 333 11041 21093 70009
AAXX 07184 71243 NIL
AAXX 07184 71244 16/// /3006 11062 21073 39011 40274 51022 60001 333 11059 21117 70000
AAXX 07184 71245 NIL
AAXX 07184 71246 NIL
AAXX 07184 71247 16328 8//// 11041 21052 39410 40286 52025 69951 333 11013 21042 70008
AAXX 07184 71248 16/// /0105 11085 21109 38965 40309 51021 60001 333 11042 21085 70000
AAXX 07184 71249 NIL
AAXX 07184 71350 16/// /0206 10042 20037 30034 40099 56026 60001 333 10042 20034 70127
AAXX 07184 71351 NIL
AAXX 07184 71352 NIL
AAXX 07184 71353 NIL
AAXX 07184 71354 NIL
AAXX 07184 71355 16/// /2803 11240 21264 30030 40118 53010 60001 333 11172 21240 70000
AAXX 07184 71356 16/// /3513 11257 21286 39671 49737 56004 60001 333 11218 21283 70000 555 10150
AAXX 07184 71357 NIL
AAXX 07184 71358 16/// /3604 11235 21259 30037 40073 50006 60001 333 11235 21330 70000
AAXX 07184 71359 NIL
AAXX 07184 71360 NIL
AAXX 07184 71361 NIL
AAXX 07184 71362 NIL
AAXX 07184 71363 NIL
AAXX 07184 71364 NIL
AAXX 07184 71365 NIL
AAXX 07184 71368 15566 82507 11003 21035 39733 40125 58020 60001 333 10000 21019 70000
AAXX 07184 71369 15966 03015 11105 21155 39586 40318 51013 60001 333 11057 21108 70000
AAXX 07184 71370 46/// /1003 11010 21017 39966 40103 58034 6///1 333 11009 21025 7////
AAXX 07184 71371 17259 81101 10009 21003 30077 40111 56032 60001 710// 333 10009 21005 70000
AAXX 07184 71372 16/// /0101 10013 20001 60001 333 10013 21003 70000
AAXX 07184 71373 NIL
AAXX 07184 71374 NIL
AAXX 07184 71375 NIL
AAXX 07184 71376 17/// /1903 11003 21006 39817 40111 56023 60021 7//4/ 333 11001 21004 70020
AAXX 07184 71377 16/// /0501 10014 21001 30060 40109 56030 60001 333 10015 21003 70000
AAXX 07184 71378 16/// /1705 11004 21031 39893 40103 58033 60001 333 11003 21053 70000
AAXX 07184 71379 16/// /3602 11066 21085 39919 40093 56025 60001 333 11066 21120 70000
AAXX 07184 71380 NIL
AAXX 07184 71381 NIL
AAXX 07184 71382 NIL
AAXX 07184 71383 NIL
AAXX 07184 71384 NIL
AAXX 07184 71385 NIL
AAXX 07184 71386 17/// /1604 11009 21032 39921 40129 56021 60041 7//4/ 333 11008 21041 70040
AAXX 07184 71387 NIL
AAXX 07184 71388 NIL
AAXX 07184 71389 46/// /1003 10000 21021 6///1 333 10001 21019 7////
AAXX 07184 71390 46/// /0307 11074 6///1 333 11074 21108 7////
AAXX 07184 71391 16/// ///// 11019 21039 60001 333 11001 21020 70011
AAXX 07184 71392 NIL
AAXX 07184 71393 NIL
AAXX 07184 71395 11/02 91604 10085 20085 39921 40097 56026 60001 74544 333 10102 20059 70114
AAXX 07184 71398 17466 82710 11043 21062 30024 40035 58002 60001 771// 333 11043 21172 70000
AAXX 07184 71399 NIL
AAXX 07184 71700 15366 80108 10019 20010 30091 40117 58011 69931 333 10021 20014 70056
AAXX 07184 71701 11124 80206 10017 20014 30054 40116 57013 69921 75166 887// 333 10020 20014 70078 90983
AAXX 07184 71702 17/// /0310 10035 20028 30095 40110 55008 69951 7//4/ 333 10038 20032 70064
AAXX 07184 71703 11448 80703 10000 21007 39820 40119 58023 60011 77122 8677/ 333 10002 21016 42001 70052 90999
AAXX 07184 71704 17666 83110 10006 21061 39912 40135 58027 69931 7004/ 333 10009 21019 70003
AAXX 07184 71710 17/// /0611 10030 20024 30084 40093 56031 60021 7//4/ 333 10030 20014 70068
AAXX 07184 71712 16/// /2202 10024 20008 30052 40113 56023 60001 333 10024 20003 70000
AAXX 07184 71713 17/// /0104 11017 21027 60011 7//4/ 333 11016 21028 70010
AAXX 07184 71716 NIL
AAXX 07184 71717 NIL
AAXX 07184 71720 16/// /2903 10033 20020 30174 40330 52007 60001 333 10037 20014 70010
AAXX 07184 71721 NIL
AAXX 07184 71723 16/// /0202 11002 21020 30101 40111 56032 60001 333 11001 21013 70000
AAXX 07184 71724 NIL
AAXX 07184 71732 NIL
AAXX 07184 71733 16/// /2109 11021 21048 39661 40097 58027 60001 333 11019 21128 70000
AAXX 07184 71734 17/// /2210 11045 21084 39684 40083 58035 60011 7//4/ 333 11045 21160 70012
AAXX 07184 71736 NIL
AAXX 07184 71737 NIL
AAXX 07184 71741 16/// /3203 11015 21049 39914 40349 51007 60001 333 11015 21031 70000
AAXX 07184 71742 NIL
AAXX 07184 71743 NIL
AAXX 07184 71744 NIL
AAXX 07184 71745 NIL
AAXX 07184 71746 NIL
AAXX 07184 71747 NIL
AAXX 07184 71748 NIL
AAXX 07184 71001 NIL
AAXX 07184 71002 NIL
AAXX 07184 71003 NIL
AAXX 07184 71005 NIL
AAXX 07184 71006 NIL
AAXX 07184 71007 NIL
AAXX 07184 71008 NIL
AAXX 07184 71009 NIL
AAXX 07184 71010 NIL
AAXX 07184 71011 NIL
AAXX 07184 71012 NIL
AAXX 07184 71013 NIL
AAXX 07184 71014 NIL
AAXX 07184 71015 NIL
AAXX 07184 71016 NIL
AAXX 07184 71017 NIL
AAXX 07184 71018 NIL
AAXX 07184 71019 NIL
AAXX 07184 71020 NIL
AAXX 07184 71021 NIL
AAXX 07184 71022 15966 00602 11020 21027 30307 40352 53003 60001 333 11004 21029 70000
AAXX 07184 71023 17964 02915 11116 21167 39438 40233 50002 60001 745// 333 11103 21138 70000
AAXX 07184 71024 16/// /2910 11161 21230 60001 333 11118 21163 70000
AAXX 07184 71026 NIL
AAXX 07184 71027 17/// /0302 10054 20051 30086 40096 56028 69971 7//4/ 333 10061 20040 70087
AAXX 07184 71028 16/// /3101 11053 21074 39294 40370 53006 60001 333 11053 21081 70000
AAXX 07184 71029 16/// /3412 11215 21236 30172 40213 51023 60001 333 11212 21225 70006 555 10230
AAXX 07184 71030 17/60 /0105 10046 20044 30002 40091 56017 69981 7//4/ 333 10061 20045 70070
AAXX 07184 71032 46/// /0000 11065 21075 39477 40343 52011 6///1 333 11065 21111 7////
AAXX 07184 71033 46/// /2917 11183 21229 39490 40139 53009 6///1 333 11118 21185 7////
AAXX 07184 71035 NIL
AAXX 07184 71036 15966 02821 11064 21162 39790 40173 50002 60001 333 11051 21074 70000
AAXX 07184 71039 46/// /0000 11308 6///1 333 11293 21312 7////
AAXX 07184 71040 46/// /0805 11014 21036 39903 40103 58024 6///1 333 11013 21049 7////
AAXX 07184 71041 17/06 /0203 10070 20069 39958 40098 56016 69931 730// 333 10102 20058 70081
AAXX 07184 71042 16/// /0000 10039 20035 30317 40321 53010 60001 333 10039 20013 70000
AAXX 07184 71044 16/// /2401 11340 21377 39989 40336 56016 60001 333 11298 21350 70000
AAXX 07184 71046 460// /0807 11293 30262 40280 58021 6///1 333 11216 21332 7////
AAXX 07184 71047 NIL
AAXX 07184 71048 NIL
AAXX 07184 71049 NIL
AAXX 07184 71060 NIL
AAXX 07184 71063 NIL
AAXX 07184 71900 46/// /21// 11118 21159 30188 40201 58017 6///1 333 11117 21145 7////
AAXX 07184 71903 NIL
AAXX 07184 71904 NIL
AAXX 07184 71914 16/// /0102 10033 20024 30098 40324 53009 60001 333 10040 20024 70008
AAXX 07184 71916 NIL
AAXX 07184 71918 460// ///// 11090 6///1 333 7////
AAXX 07184 71920 NIL
AAXX 07184 71921 NIL
AAXX 07184 71923 NIL
AAXX 07184 71927 16/// /0202 10051 20027 30266 40325 53011 60001 333 10052 20026 70000
AAXX 07184 71941 15466 62007 11047 21074 39676 40101 58034 60001 333 11047 21167 70000
AAXX 07184 71947 17666 81910 11084 21091 39722 40078 56026 60001 771// 333 11084 21225 70000
AAXX 07184 71150 46/// /3017 11099 21175 39493 40192 51015 6///1 333 11064 21121 7////
AAXX 07184 71151 NIL
AAXX 07184 71152 16/// /0719 10026 20011 30098 40111 58016 60001 333 10060 20025 70075
AAXX 07184 71153 NIL
AAXX 07184 71154 16/// /3504 11054 21063 60001 333 10001 21080 70009
AAXX 07184 71155 NIL
AAXX 07184 71156 NIL
AAXX 07184 71157 NIL
AAXX 07184 71158 NIL
AAXX 07184 71159 NIL
AAXX 07184 71160 NIL
AAXX 07184 71161 16/// /3303 10004 21002 39961 40110 58020 60001 333 10006 21008 70000
AAXX 07184 71162 NIL
AAXX 07184 71163 46/// /3014 11217 21244 39925 40286 51018 6///1 333 11189 21217 7////
AAXX 07184 71164 NIL
AAXX 07184 71165 NIL
AAXX 07184 71166 NIL
AAXX 07184 71167 15766 63006 11096 21155 39200 40339 53010 60001 333 11055 21105 70000
AAXX 07184 71168 NIL
AAXX 07184 71170 NIL
AAXX 07184 71171 46/// /2902 10022 21032 30022 40119 58021 6///1 333 10027 20012 7////
AAXX 07184 71172 16/// ///// 10004 21057 39886 40104 58019 60001 333 10008 21043 70000 555 11440
AAXX 07184 71175 NIL
AAXX 07184 71176 460// /1718 11106 39364 40055 56015 6///1 333 11104 21152 7////
AAXX 07184 71177 460// /2012 11139 39102 40130 56016 6///1 333 11127 21187 7////
AAXX 07184 71178 NIL
AAXX 07184 71179 460// /1313 11149 39338 40194 57016 6///1 333 11139 21176 7////
AAXX 07184 71180 16/// /3203 10054 20034 30065 40104 56031 60001 333 10057 20030 70033
AAXX 07184 71181 NIL
AAXX 07184 71183 16/// /2901 30065 58034 60001 333 70000
AAXX 07184 71184 46/// /0000 10010 21006 6///1 333 10010 21001 7////
AAXX 07184 71186 NIL
AAXX 07184 71187 15666 80804 10023 20019 30280 40329 53009 60001 333 10023 21006 70000
AAXX 07184 71189 NIL
AAXX 07184 71190 NIL
AAXX 07184 71191 16/// ///// 10054 20046 60001 333 10054 20038 70170
AAXX 07184 71192 17128 83104 11100 21105 39692 40389 53011 60001 710// 333 11090 21123 70000
AAXX 07184 71193 16/// /2107 11053 21065 39695 40066 57019 60001 333 11053 21210 70000
AAXX 07184 71196 NIL
AAXX 07184 71197 16364 80816 10035 20020 30061 40110 56027 60001 333 10049 20035 70055
AAXX 07184 71198 46/// /3605 10002 21010 6///1 333 10006 21006 7////
AAXX 07184 71199 46/// /0000 11269 21297 39498 40396 56002 6///1 333 11240 21280 7////
AAXX 07184 71950 15966 01501 11120 21129 39720 40380 53010 60001 333 11063 21144 70000
AAXX 07184 71952 16/// /1402 11177 21196 39481 40385 51007 60001 333 11154 21213 70000
AAXX 07184 71954 NIL
AAXX 07184 71956 NIL
AAXX 07184 71959 NIL
AAXX 07184 71960 460// /2410 11270 30186 40327 56007 6///1 333 11240 21271 7////
AAXX 07184 71962 16/// /2713 11031 21094 39711 40138 58005 60001 333 11028 21116 70000
AAXX 07184 71963 NIL
AAXX 07184 71967 17/// /0000 10003 21002 30017 40123 58029 69941 7//4/ 333 10003 21011 70004
AAXX 07184 71970 NIL
AAXX 07184 71971 16/// /0711 11199 21277 30083 40130 53007 60001 333 11170 21274 70000
AAXX 07184 71972 460// /1705 11103 39553 40017 56026 6///1 333 11101 21118 7////
AAXX 07184 71973 46/// /0805 11010 21021 39950 40139 58025 6///1 333 10001 21012 7////
AAXX 07184 71974 NIL
AAXX 07184 71975 460// /1421 11122 39292 40025 56013 6///1 333 11121 21191 7////
AAXX 07184 71976 NIL
AAXX 07184 71977 NIL
AAXX 07184 71978 NIL
AAXX 07184 71979 NIL
AAXX 07184 71980 NIL
AAXX 07184 71981 NIL
AAXX 07184 71982 NIL
AAXX 07184 71983 NIL
AAXX 07184 71984 16/// /2811 11243 21267 30299 40308 51005 60001 333 11222 21243 70000
AAXX 07184 71985 NIL
AAXX 07184 71986 NIL
AAXX 07184 71987 17/// /0416 10023 20017 30111 40120 55010 60011 7//4/ 333 10030 20021 70056
AAXX 07184 71988 NIL
AAXX 07184 71989 16/// /0803 11313 21344 30179 40196 51004 60001 333 11287 21329 70000
AAXX 07184 71990 NIL
AAXX 07184 71999 46/// ///// 11005 6///1 333 11005 21048 7////
AAXX 07184 71930 13774 13015 11095 21165 39354 40321 53007 69963 81501 333 11051 21110 43014 70008 90999
AAXX 07184 71931 16/// /0823 11007 21017 30141 40153 58022 60001 333 10043 21008 70000
AAXX 07184 71934 11516 83017 11171 21210 39952 40219 51008 60011 77177 885// 333 11120 21177 44013 70022 90973 93102
AAXX 07184 71935 12974 12818 11179 21245 30081 40299 52010 60001 80001 333 11127 21184 70000
AAXX 07184 71936 11474 13017 11196 21252 39969 40242 52021 60001 73611 81500 333 11189 21202 70000
AAXX 07184 71937 NIL
AAXX 07184 71938 NIL
AAXX 07184 71940 12782 20000 11135 21171 39521 40363 51010 60001 81501 333 11051 21181 70004
AAXX 07184 71943 12974 10000 11152 21194 39490 40369 53016 60001 80001 333 11103 21155 79999
AAXX 07184 71944 160// ///// 11153 51012 60001 333 11060 21175 70000
AAXX 07184 71945 12983 12705 11216 21268 39878 40374 50002 60001 81030 333 11063 21220 70000
AAXX 07184 71946 12974 22702 11237 21263 30136 40363 50005 60001 80001 333 11130 21237 79999
AAXX 07184 71948 46964 02714 11252 30177 40297 51011 6///1 333 11236 21252 7////
AAXX 07184 71949 46/// /1103 11233 21256 39441 40363 58007 6///1 333 11128 21242 7////
AAXX 07184 71951 12280 13605 11044 21054 30091 40368 53006 60001 81800 333 11019 21071 70000
AAXX 07184 71957 46964 00907 11249 21317 30229 40323 58018 6///1 333 11222 21290 7////
AAXX 07184 71958 43/// /0302 11210 21250 39387 40383 53003 6///1 333 11139 21224 7////
AAXX 07184 71964 11232 81707 11186 21218 39461 40377 58012 69901 71071 886// 333 11184 21277 47026 79999 90920
AAXX 07184 71966 16/// /0603 11242 21271 39861 40352 58005 60001 333 11204 21249 70000
AAXX 07184 71968 47028 /2022 11213 30220 40288 57017 6///1 745// 333 11205 21268 7////
AAXX 07184 71812 47916 02625 11201 21233 39807 49821 58032 6///1 745// 333 11195 21220 7////
AAXX 07184 71819 15566 80509 11054 21076 30161 40203 58020 60001 333 11054 21093 70003
AAXX 07184 71820 16/// /3505 10019 21007 39993 40108 58027 60001 333 10021 20000 70000
AAXX 07184 71823 17964 02014 11117 21149 39660 40051 58031 69951 7//44 333 11117 21221 70005
AAXX 07184 71824 46/// /2003 11096 21105 6///1 333 11092 21220 7////
AAXX 07184 71826 16/// /1020 11081 21124 39951 49993 56013 60001 333 11081 21180 70000
AAXX 07184 71829 16/// /0507 11032 21059 39969 40133 56026 60001 333 11031 21080 70000
AAXX 07184 71833 NIL
AAXX 07184 71835 16/// /2913 11073 21116 39580 40064 50001 60001 333 11071 21141 70000
AAXX 07184 71837 NIL
AAXX 07184 71839 NIL
AAXX 07184 71840 46/// /3014 11045 21086 6///1 333 11022 21084 7////
AAXX 07184 71846 NIL
AAXX 07184 71847 NIL
AAXX 07184 71848 NIL
AAXX 07184 71849 16/// /2711 11048 21084 39857 40161 50001 60001 333 11022 21103 70000
AAXX 07184 71401 17/// /1501 11049 21060 39611 40317 51009 60011 7//4/ 333 11029 21083 70010
AAXX 07184 71402 NIL
AAXX 07184 71404 NIL
AAXX 07184 71405 NIL
AAXX 07184 71406 NIL
AAXX 07184 71407 NIL
AAXX 07184 71408 NIL
AAXX 07184 71409 NIL
AAXX 07184 71410 15966 02910 11094 21169 39805 40088 50000 60001 333 11061 21116 70003
AAXX 07184 71413 NIL
AAXX 07184 71414 NIL
AAXX 07184 71415 16/// /2002 10061 20055 30088 40091 56030 60001 333 10062 20054 70041
AAXX 07184 71417 NIL
AAXX 07184 71418 NIL
AAXX 07184 71419 46/// /0905 10068 20067 30086 40096 58019 6///1 333 10102 20067 7////
AAXX 07184 71423 NIL
AAXX 07184 71424 46/// /0514 6///1 333 7////
AAXX 07184 71425 NIL
AAXX 07184 71426 NIL
AAXX 07184 71427 NIL
AAXX 07184 71428 16/// /2201 11011 21033 30131 40137 56025 60001 333 11007 21031 70000
AAXX 07184 71429 NIL
AAXX 07184 71434 NIL
AAXX 07184 71436 15566 82502 10004 21014 39881 40117 58026 60001 333 10004 21006 70003
AAXX 07184 71437 46/// /2204 10021 21028 30028 40124 58024 6///1 333 10022 20005 7////
AAXX 07184 71438 NIL
AAXX 07184 71439 NIL
AAXX 07184 71440 NIL
AAXX 07184 71442 16/// /3114 11066 21152 39831 40151 50004 60001 333 11048 21077 70000
AAXX 07184 71445 NIL
AAXX 07184 71446 16/// /3220 11069 21094 39251 40254 52018 60001 333 11028 21069 70000
AAXX 07184 71448 16/// /2912 11045 21105 39803 40137 58002 60001 333 11026 21082 70000
AAXX 07184 71449 16/// /2609 11030 21096 39738 40145 58006 60001 333 11022 21097 70000
AAXX 07184 71550 NIL
AAXX 07184 71551 NIL
AAXX 07184 71552 46/// /3217 11054 21099 6///1 333 11023 21078 7////
AAXX 07184 71553 NIL
AAXX 07184 71554 17/// /1105 10012 21016 30118 40124 56026 60011 7//4/ 333 10013 21037 70020
AAXX 07184 71555 17/// /3613 11069 21085 38686 40296 51027 69931 7//4/ 333 11042 21069 70003
AAXX 07184 71556 NIL
AAXX 07184 71557 46/// /2601 11043 21056 6///1 333 11043 21102 7////
AAXX 07184 71558 NIL
AAXX 07184 71559 46/// /3215 11050 21086 39507 40223 51012 6///1 333 11028 21067 7////
AAXX 07184 71560 16/// /2915 11032 21086 39853 40157 58004 60001 333 11008 21122 70000
AAXX 07184 71563 NIL
AAXX 07184 71564 NIL
AAXX 07184 71565 NIL
AAXX 07184 71566 NIL
AAXX 07184 71567 NIL
AAXX 07184 71568 16/// /3312 10043 20001 30322 40335 52007 60001 333 10058 20037 70006
AAXX 07184 71569 16/// /2916 11061 21104 39504 40222 51011 60001 333 11041 21085 70000
AAXX 07184 71570 NIL
AAXX 07184 71571 NIL
AAXX 07184 71572 NIL
AAXX 07184 71573 NIL
AAXX 07184 71574 11212 80403 11012 21016 30072 40146 58012 60021 77177 8802/ 333 10001 21019 43011 70118 90983 93103
AAXX 07184 71575 NIL
AAXX 07184 71576 16/// /0728 11210 21256 39967 40054 53004 60001 333 11167 21270 70000 555 10050
AAXX 07184 71577 NIL
AAXX 07184 71578 16/// /0707 11001 21028 60001 333 11001 21014 70000
AAXX 07184 71579 16/// /3004 11044 21091 39862 40150 58001 60001 333 11015 21079 70000
AAXX 07184 71580 NIL
AAXX 07184 71581 NIL
AAXX 07184 71582 15162 83001 10005 20005 30307 40362 51021 60001 333 10008 21015 70000
AAXX 07184 71583 NIL
AAXX 07184 71584 15766 30707 11063 21129 30121 40170 58030 60001 333 11063 21121 70000
AAXX 07184 71585 NIL
AAXX 07184 71586 16/// /3119 11117 21232 39683 40160 51017 60001 333 11097 21118 70000
AAXX 07184 71587 NIL
AAXX 07184 71588 16/// /0911 10000 21045 60001 333 10000 21017 70000
AAXX 07184 71589 NIL
AAXX 07184 71590 17/// /1302 10007 21018 39923 40115 58023 69951 7//4/ 333 10008 21019 70021
AAXX 07184 71592 NIL
AAXX 07184 71593 NIL
AAXX 07184 71596 NIL
AAXX 07184 71598 17/08 /0315 11003 21011 30141 40147 56008 60021 7//4/ 333 10002 21012 70030 555 10020
AAXX 07184 71599 NIL
AAXX 07184 71450 NIL
AAXX 07184 71451 16/// /2912 11153 21229 39681 40118 51014 60001 333 11097 21162 70000
AAXX 07184 71452 NIL
AAXX 07184 71453 16/// /3507 11053 21068 39344 40281 51021 60001 333 11013 21053 70000
AAXX 07184 71454 16/// /3014 11098 21193 39475 40183 58004 60001 333 11065 21116 70000
AAXX 07184 71455 46/// /3123 11066 21131 39431 40247 53009 6///1 333 11030 21093 7////
AAXX 07184 71456 NIL
AAXX 07184 71457 17/// /0310 11057 21070 39373 40287 51029 60011 7//4/ 333 11021 21057 70011 555 10060
AAXX 07184 71458 16/// /3115 11082 21163 39494 40292 51012 60001 333 11045 21115 70000
AAXX 07184 71459 16/// /3112 11066 21097 39448 40278 51021 60001 333 11016 21066 70000
AAXX 07184 71460 16/// /2511 10002 21071 39862 40105 58025 60001 333 10004 21066 70000
AAXX 07184 71461 NIL
AAXX 07184 71462 NIL
AAXX 07184 71463 NIL
AAXX 07184 71464 NIL
AAXX 07184 71465 NIL
AAXX 07184 71466 NIL
AAXX 07184 71468 NIL
AAXX 07184 71470 NIL
AAXX 07184 71471 15966 02002 11182 21201 39542 40379 53015 60001 333 11124 21223 70000
AAXX 07184 71473 16/// /0210 10026 20018 30291 40322 51008 60001 333 10032 20019 70008
AAXX 07184 71475 16/// /0000 10024 20019 30239 40335 53010 60001 333 10024 20004 70002
AAXX 07184 71476 NIL
AAXX 07184 71477 46/// /0105 10007 21028 6///1 333 10033 21006 7////
AAXX 07184 71478 NIL
AAXX 07184 71479 NIL
AAXX 07184 71480 NIL
AAXX 07184 71481 NIL
AAXX 07184 71482 NIL
AAXX 07184 71483 NIL
AAXX 07184 71484 NIL
AAXX 07184 71485 16/// /3314 10049 21003 30317 40338 53004 60001 333 10059 20044 70002
AAXX 07184 71486 16/// /2901 11112 21129 39072 40316 52009 60001 333 11030 21159 70000
AAXX 07184 71487 NIL
AAXX 07184 71489 16/// /3010 11090 21153 39435 40258 51014 60001 333 11037 21131 70000
AAXX 07184 71490 NIL
AAXX 07184 71491 17/// /20// 11298 21327 69931 7//4/ 333 11129 21315 70003
AAXX 07184 71492 NIL
AAXX 07184 71493 17/// /3506 10055 20048 30054 40092 56018 69931 7//4/ 333 10063 20046 70130
AAXX 07184 71494 16/// /1704 11009 21009 39580 40102 56029 60001 333 11006 21021 70003
AAXX 07184 71495 NIL
AAXX 07184 71496 16/// /3320 11079 21128 39600 40227 53002 60001 333 11039 21126 70000
AAXX 07184 71497 46/// /1804 11198 21222 30090 40370 58011 6///1 333 11101 21202 7////
AAXX 07184 71498 NIL
AAXX 07184 71499 15562 82917 11167 21214 39489 40135 52010 60001 333 11111 21170 70000
AAXX 07184 71300 NIL
AAXX 07184 71301 17/// ///// 11043 21070 39670 40077 57029 69961 7//4/ 333 11043 21197 70013
AAXX 07184 71302 16/// /1902 11136 21146 39515 40374 52015 60001 333 11070 21164 70000
AAXX 07184 71303 NIL
AAXX 07184 71305 15566 13017 11168 21233 39926 40236 53004 60001 333 11087 21171 70000
AAXX 07184 71306 17916 /2721 11060 21077 39865 49897 51033 60001 771// 333 11029 21062 70000
AAXX 07184 71307 NIL
AAXX 07184 71308 16/// /3503 10069 20066 30016 40100 55020 60001 333 10075 20059 70082
AAXX 07184 71309 NIL
AAXX 07184 71310 16/// /0105 10040 20035 30063 40100 56023 60001 333 10041 20032 70081
AAXX 07184 71311 NIL
AAXX 07184 71312 16/// /2824 11079 21160 39700 40166 57012 60001 333 11044 21126 70000
AAXX 07184 71314 NIL
AAXX 07184 71315 17/// /0707 11017 21025 30094 40148 58012 69931 7//4/ 333 11009 21019 70054 555 10060
AAXX 07184 71316 16/// /3114 11105 21176 39573 40283 53011 60001 333 11073 21122 70000
AAXX 07184 71317 NIL
AAXX 07184 71318 16/// /3219 11079 21165 39310 40283 51010 60001 333 11030 21095 70000 555 10370
AAXX 07184 71319 NIL
AAXX 07184 71320 NIL
AAXX 07184 71321 NIL
AAXX 07184 71322 NIL
AAXX 07184 71323 16/// /1201 10000 21012 39816 40098 56033 60001 333 10001 21016 70010
AAXX 07184 71331 16/// /3012 11129 21209 60001 333 11093 21130 70000
AAXX 07184 71332 NIL
AAXX 07184 71334 46/// /3015 11192 21256 39650 49985 58005 6///1 333 11135 21205 7////
AAXX 07184 71335 46964 02016 11126 56019 6///1 333 11097 21146 7////
AAXX 07184 71336 46/// ///20 10020 20017 30117 40139 55016 6///1 333 10061 20016 7////
AAXX 07184 71337 46/// /0809 11034 21039 39931 40172 58025 6///1 333 11026 21039 7////
AAXX 07184 71338 46864 60000 11189 21234 30019 40026 56010 6///1 333 11174 21234 7////
AAXX 07184 71339 16964 02802 11103 21146 30206 40221 58017 60001 333 11099 21173 70020
AAXX 07184 71340 NIL
AAXX 07184 71341 NIL
AAXX 07184 71342 NIL
AAXX 07184 71343 NIL
AAXX 07184 71344 NIL
AAXX 07184 71345 NIL
AAXX 07184 71346 NIL
AAXX 07184 71347 NIL
AAXX 07184 71348 NIL
AAXX 07184 71349 NIL
AAXX 07184 71604 NIL
AAXX 07184 71605 16/// /0000 10037 20037 30166 40319 53008 60001 333 10038 20012 70000
AAXX 07184 71611 NIL
AAXX 07184 71612 NIL
AAXX 07184 71614 16/// /1001 10018 21001 30038 40104 56027 60001 333 10018 21002 70003
AAXX 07184 71616 16/// /0701 10001 21009 39993 40114 56036 60001 333 10002 21018 70010
AAXX 07184 71617 16/// /1108 11016 21036 39947 40117 58024 60001 333 11015 21063 70000
AAXX 07184 71618 45666 82722 11191 21245 39906 49944 58013 6///1 333 11150 21199
AAXX 07184 71619 16/// /0406 11017 21034 30087 40146 56013 60001 333 11013 21027 70030
AAXX 07184 71622 NIL
AAXX 07184 71632 46/// /3125 11168 21217 39614 40063 53002 6///1 333 11100 21169 7////
AAXX 07184 71634 17/// /0103 11005 21011 39990 40145 58012 69951 7//4/ 333 11003 21017 70064 555 10010
AAXX 07184 71638 16/// /3402 10034 20025 30212 40320 53010 60001 333 10034 20015 70000
AAXX 07184 71639 12474 82703 10008 21044 39878 40121 58025 60001 885// 333 10009 21013 70002
AAXX 07184 71642 NIL
AAXX 07184 71051 NIL
AAXX 07184 71055 NIL
AAXX 07184 71057 NIL
AAXX 07184 71059 460// ///// 11214 30159 40254 51012 6///1 333 11203 21221 7////
AAXX 07184 71061 16/// /3010 11090 21164 39493 40305 52013 60001 333 11039 21098 70000
AAXX 07184 71062 46/// /3011 11085 21147 39195 40303 51010 6///1 333 11045 21105 7//// 555 10030
AAXX 07184 71064 460// ///// 11184 39842 40061 53029 6///1 333 11166 21205 7////
AAXX 07184 71065 NIL
AAXX 07184 71067 NIL
AAXX 07184 71070 NIL
AAXX 07184 71073 NIL
AAXX 07184 71074 16/// ///01 11311 21342 30063 40144 52007 60001 333 11282 21311 7////
AAXX 07184 71075 16/// /3015 11196 21239 39458 40079 53006 60001 333 11117 21198 70000
AAXX 07184 71078 NIL
AAXX 07184 71084 460// ///// 11135 39818 49865 51034 6///1 333 11127 21279 7////
AAXX 07184 71085 15466 82505 11055 21061 38873 40290 51034 60001 333 11014 21091 70000
AAXX 07184 71087 NIL
AAXX 07184 71088 460// ///// 11090 54000 6///1 333 11089 21157 7////
AAXX 07184 71089 NIL
AAXX 07184 71096 460// ///// 11177 39278 40020 56007 6///1 333 11172 21197 7////
AAXX 07184 71097 47402 82132 11097 39544 40019 55010 6///1 745// 333 11093 21157 7////
AAXX 07184 71098 43/// /2708 11105 21142 39703 40067 58006 6///1 333 11061 21121 7////
AAXX 07184 71099 43/// /2409 11123 21158 39959 49979 55006 6///1 333 11079 21163 7////
AAXX 07184 71500 NIL
AAXX 07184 71501 NIL
AAXX 07184 71502 NIL
AAXX 07184 71503 NIL
AAXX 07184 71504 NIL
AAXX 07184 71505 46/// /0601 11261 21296 39602 40387 56011 6///1 333 11261 21292 7////
AAXX 07184 71506 NIL
AAXX 07184 71507 NIL
AAXX 07184 71508 16/// ///// 10019 21019 39986 40125 58029 60001 333 10019 20006 70000
AAXX 07184 71509 NIL
AAXX 07184 71511 NIL
AAXX 07184 71512 16/// /0704 11065 21135 30155 40169 56035 60001 333 11065 21134 70000
AAXX 07184 71513 15466 80412 11068 21088 30150 40166 56028 60001 333 11068 21130 70000
AAXX 07184 71514 NIL
AAXX 07184 71515 16/// /3013 11076 21132 39500 40220 50008 60001 333 11046 21107 70000
AAXX 07184 71516 NIL
AAXX 07184 71517 NIL
AAXX 07184 71518 NIL
AAXX 07184 71519 NIL
AAXX 07184 71520 NIL
AAXX 07184 71521 NIL
AAXX 07184 71522 NIL
AAXX 07184 71523 NIL
AAXX 07184 71524 16/// /0000 10001 21013 30096 40122 56030 60001 333 10002 21011 70000
AAXX 07184 71525 NIL
AAXX 07184 71526 NIL
AAXX 07184 71527 17566 82710 11050 21100 39603 40115 58002 60001 771// 333 11038 21112 70000
AAXX 07184 71528 NIL
AAXX 07184 71529 46/// /3226 11182 21235 39927 40163 51017 6///1 333 11160 21185 7////
AAXX 07184 71532 17566 82505 11003 21028 39768 40115 56023 60001 771// 333 11002 21028 70000
AAXX 07184 71534 16564 82506 10003 21042 39846 40120 58025 60001 333 10005 21023 70000
AAXX 07184 71535 NIL
AAXX 07184 71536 NIL
AAXX 07184 71537 NIL
AAXX 07184 71539 NIL
AAXX 07184 71540 NIL
AAXX 07184 71541 NIL
AAXX 07184 71542 NIL
AAXX 07184 71543 NIL
AAXX 07184 71544 NIL
AAXX 07184 71545 NIL
AAXX 07184 71546 NIL
AAXX 07184 71547 NIL
AAXX 07184 71548 NIL
AAXX 07184 71549 NIL
AAXX 07181 48855 11597 73201 10224 20218 30125 40133 57006 60021 70262 878// 333 58003 82895 87697
AAXX 07181 48848 11496 83203 10206 20200 30138 40146 58007 60121 76362 8682/ 333 58004 86894 86697 88499 9616 2
AAXX 07181 48852 11597 82901 10213 20210 30125 40135 58009 69901 70262 888// 333 58001 86895 88697
AAXX 07184 60020 NIL
AAXX 07184 60030 02960 80106 10200 20117 30170 40226 53002 60002 83577 333 10228 60007 92427
AAXX 07184 60040 02565 60307 10206 20135 30221 40245 53002 60002 81836 333 10229 60007 92436
AAXX 07184 60338 12980 00000 10146 20120 30214 40280 57001 60002 333 10192 92418
AAXX 07181 34523 11597 83001 10041 20029 30083 40162 52010 60052 70362 885// 333 10058 88622
AAXX 07181 33088 12997 31802 11005 21014 39907 40102 57006 69942 80001 333 10014
AAXX 07181 33177 31996 51302 10002 21006 39846 40087 57008 71011 83041 333 10032
AAXX 07181 33261 32997 71702 11005 21023 39965 40152 52001 86031 333 10037
AAXX 07181 33275 31995 61401 11016 21024 39939 40169 52003 71022 80001 333 10024
AAXX 07181 33301 12597 71604 11011 21015 39819 40107 57008 60022 83530 333 10011
AAXX 07181 33325 32997 12001 10000 21027 39856 40128 53002 81030 333 10045
AAXX 07181 33377 31996 01801 11004 21016 39966 40165 53001 71011 333 10022
AAXX 07181 33415 12997 52004 11003 21044 39713 40120 57003 69902 80001 333 10052
AAXX 07181 33429 32997 22204 11012 21044 39694 40127 57005 80001 333 10050
AAXX 07181 33466 32962 21804 10005 21021 39959 40150 54000 80001 333 10038
AAXX 07181 33526 32660 52002 11017 21058 39772 40120 57006 82530 333 10072
AAXX 07181 33562 32997 41703 11008 21033 39771 40141 56002 83031 333 10034
AAXX 07181 33614 31935 00000 11005 21011 30062 40169 52003 71042 333 10011
AAXX 07181 33761 31996 09902 11002 21011 39928 40157 57007 71011 333 10040
AAXX 07181 33902 31995 03501 10007 21001 30091 40158 51001 71011 333 10054
AAXX 07181 33983 83504 10046 20036 30081 40143 58007 60042 78082 889// 333 10080 86704
AAXX 07181 34415 32997 60000 10010 20002 30074 40172 52006 86030 333 10041
AAXX 07181 34523 NIL
AAXX 07181 34712 11496 80302 10049 20042 30065 40151 54000 60022 71062 886// 333 10070 88719
AAXX 07181 01199 16/// /3101 11145 21158 39474 49960 51023 6//// 333 11095 91102
AAXX 07181 01262 46/// /2708 10023 21011 333 10046 91115
AAXX 07181 01374 31889 12901 11054 21089 70110 81040 333 11020
AAXX 07181 01393 16/// /3204 11042 21069 39130 49933 52025 6//// 333 11028 91110
AAXX 07181 01450 16/// /0901 11090 21114 38798 49964 52022 69932 333 11037 91106
AAXX 07181 01476 16/// /3102 11012 21045 39932 49939 53025 6//// 333 10009 91105
AAXX 07181 01488 16/// /3001 11064 21072 60002 333 11022 4/019 91105
AAXX 07181 01441 16/// /0502 11188 21205 38959 40009 53026 60002 333 11147 91103
AAXX 07181 02019 05/99 /2601 11067 21097 39308 49932 52017 69912 333 11028 21087 60005 90710 91103
AAXX 07181 02081 07/62 /0901 11120 21131 39534 49945 53023 69912 77170 333 11119 21185 69905 90710 91101
AAXX 07181 02095 05380 /3302 11070 21077 39736 49942 52019 60002 333 11032 21071 60005 88/07 90710 91104
AAXX 07181 02101 45571 /0000 11092 21103 39362 49927 52016 8//// 333 11067 21107 87/27 88/38
AAXX 07181 02119 07560 /3401 11090 21098 39545 49936 52018 69912 70087 333 11090 21159 60005 81/32 88/48 90710 91101
AAXX 07181 02124 07637 /0000 11095 21104 39400 49931 53017 69972 77187 333 11091 21142 69925 89/47 90710 91102
AAXX 07181 02126 072// /1201 11072 21079 39584 49925 53018 69952 72487 333 11050 21072 69925 88/05 90710 91103
AAXX 07181 02151 17383 80000 11122 21127 39599 49941 53018 69952 70087 333 11121 21180 60005 88/07 91000 90710 91100 90710 91200
AAXX 07181 02186 31270 73101 11042 21046 39910 49935 51018 60002 77122 875// 333 11032 21046 60005 84703 87635 91001 90710 91104 90710 91202
AAXX 07181 02197 07/58 /1001 11040 21040 39920 49938 51017 69902 71010 333 11020 21067 60005 90710 91103
AAXX 07181 02207 07580 /2502 11039 21049 39230 49928 52023 60032 72487 333 11023 21040 69905 87/25 87/41 90710 91108
AAXX 07181 02219 07/58 /2702 11028 21028 39248 49911 52020 60012 78087 333 11021 21029 69925 90710 91105
AAXX 07181 02226 47684 /0102 11035 21038 39460 49914 52022 724// 8//// 333 11013 21042 88/46
AAXX 07181 02243 07/61 /3400 11094 21101 39650 49923 52015 60002 70010 333 60005 90710 91102
AAXX 07181 02269 07257 /0205 11018 21019 69952 72487 333 10015 21022 69905 87/06 87/22 90710 91106
AAXX 07181 02287 07278 /1604 10003 21007 39913 49922 52012 69962 70087 333 10022 21010 60005 88/06 90710 91107
AAXX 07181 02297 07270 /2001 11004 21004 39886 49932 53014 69922 72487 333 11004 21052 69915 85/06 87/11 90710 91104
AAXX 07181 02308 07482 /3001 11040 21059 39063 49922 52022 69922 72487 333 11039 21093 69905 81/17 84/24 86/34 88/// 90710 91104
AAXX 07181 02327 07/58 /2602 11059 21069 39481 49918 52016 69942 77175 333 11059 21133 69905 90710 91105
AAXX 07181 02355 07530 /3204 11021 21022 39885 49897 52012 69942 77171 333 10004 21021 69915 83/25 87/34 90710 91106
AAXX 07181 02366 45/83 /3105 11063 21073 39899 49905 53004 8//// 333 11054 21100
AAXX 07181 02407 07681 /3400 11096 21101 39546 49919 52019 60022 70087 333 11021 21098 60005 86/36 90710 91102
AAXX 07181 02418 45484 /3402 11009 21021 39787 49918 52025 8//// 333 10007 21009 88/13
AAXX 07181 02435 47069 /2701 11026 21035 39717 49905 52022 771// 8//// 333 11010 21028 81/01 88/11
AAXX 07181 02440 07473 /2901 11023 21030 60042 78587 333 11021 21028 69915 88/16 90710 91103
AAXX 07181 02452 07283 /3203 11018 21018 60052 70087 333 11002 21019 60005 87/06 90710 91105
AAXX 07181 02456 07360 /1701 10005 20001 39848 49890 52012 60032 77187 333 10010 21025 69915 86/06 87/13 88/16 90710 91102
AAXX 07181 02469 07/64 /2204 10018 21005 60022 76186 333 10025 20005 69905 90710 91106
AAXX 07181 02498 07583 /2211 10040 20005 39886 49903 52007 60022 70086 333 10044 20025 60005 81/26 87/62 90710 91115
AAXX 07181 02518 464// /0504 10040 20021 333 10056 20039 86/15 87/38 90710 91106
AAXX 07181 02520 35484 83103 10004 21016 39853 49920 53019 60002 333 10020 21015 60005 81/13 88/17 91004 90710 91104 90710 91203
AAXX 07181 02550 47457 /2301 10003 20003 39645 49919 52015 740// 8//// 333 10017 21001 81/13 88/22
AAXX 07181 02562 12584 32303 11006 21015 39799 49914 51020 69902 83500 333 10017 21009 60005 83626 91004 90710 91105 90710 91204
AAXX 07181 02563 07/99 /2205 10016 20004 39895 49917 53017 69902 72386 333 10031 20016 69905 90710 91108
AAXX 07181 02565 07558 /1301 11017 21019 39808 49928 53009 69932 71086 333 10026 21022 60005 88/21 90710 91101
AAXX 07181 02589 07466 /2209 10033 20018 39900 49922 52007 60022 78186 333 10046 20028 69915 86/14 87/49 90710 91116
AAXX 07181 02590 45483 /2106 10032 20008 39875 49936 52010 8//// 333 10041 20023 82/17 85/39
AAXX 07181 02618 07/50 /0400 10013 20013 39752 49915 53009 60022 71086 333 10036 20012 60005 90710 91102
AAXX 07181 02664 07362 81604 10034 20021 39850 49921 56004 69902 72384 333 10037 20025 69905 86/08 87/11 88/16 91006 90710 91106 90710 91204
AAXX 07181 02679 05483 /2108 10040 20014 39899 49943 52003 60002 333 10051 20034 60005 85/18 90710 91114
AAXX 07184 65201 31458 71904 10285 20235 30061 40114 70552 82208 333 10335 56500 57832 58010 82812 86280 91108 94919
AAXX 07184 64600 32960 00000 10258 20174 39427 40072 333 10330 55084 59004
AAXX 07184 64601 31957 00808 10215 20071 38983 48494 70400 333 10308 59001
AAXX 07184 64605 32960 00000 10250 20145 39340 40079 333 10333 58002
AAXX 07184 64610 32960 00000 10220 20146 3//// 4//// 333 10350 5////
AAXX 07184 64650 32956 03002 10260 20200 39658 40061 333 10345 55098 59005
AAXX 07184 64654 32960 00804 10248 20110 39527 40096 333 10343 59002
AAXX 07184 64655 32960 00000 10240 20175 39435 40084 333 10326 59012
AAXX 07184 64656 32960 00000 10245 20175 39522 40076 333 10316 59011
AAXX 07184 64659 NIL
AAXX 07184 64660 32960 00000 10255 20159 39542 40069 333 10334 59007
AAXX 07184 64662 32960 00000 10239 20171 39570 40072 333 10341 59005
AAXX 07184 64665 32960 80000 10238 20185 3//// 4//// 80002 333 10342 5//// 88080
AAXX 07181 15501 12970 00000 10021 20013 30121 40166 55001 60002 333 10073 21006 555 595//
AAXX 07181 15505 12975 01402 10026 21004 39796 40176 57001 60002 333 10075 21005 555 581//
AAXX 07181 15511 12970 00503 10044 20013 30140 40180 58002 60002 333 10095 20016 555 580//
AAXX 07181 15514 12968 02303 10049 20019 30139 40175 54000 60002 333 10075 20038 555 581//
AAXX 07181 15530 12664 82502 10050 20026 39939 40180 51003 60002 8352/ 333 10077 20036 555 584//
AAXX 07181 15533 12970 21401 10046 20029 30109 40141 54000 60002 81051 333 10068 20030 555 589//
AAXX 07181 15550 12968 82301 10052 20027 30136 40156 52005 69972 8807/ 333 10058 20050 555 584//
AAXX 07181 15561 12470 73204 10062 20038 30142 40149 52004 60002 86530 222// 00096 2//00 333 10078 20054 555 585// 92014 92418
AAXX 07181 15562 12474 63204 10062 20041 30087 40160 53011 60002 86500 222// 2//00 333 10076 20056 555 586// 92013 92418
AAXX 07181 15600 11989 20000 11039 21187 38268 48476 52004 60002 70241 82031 333 10010 21058 47003 555 531//
AAXX 07181 15601 12980 00000 10012 21028 39534 40166 51004 60002 333 10092 20012 555 575//
AAXX 07181 15605 12970 02704 11021 21024 39323 40193 54000 60002 333 10042 21021 555 598//
AAXX 07181 15613 41984 13208 11085 21183 37663 47002 52004 69922 70241 81030 333 11057 21094 46002 555 545//
AAXX 07181 15628 12970 12703 10033 21008 39904 40166 52004 60002 80001 333 10092 20024 555 575//
AAXX 07181 15642 12680 80503 10058 20026 39990 40159 52006 60002 885// 333 10082 20058 555 580//
AAXX 07181 15661 12570 83406 10080 20038 30109 40145 54000 60002 885// 222// 20501 333 10080 20064 555 575// 92024 92428
AAXX 07181 15726 11257 83604 11045 21054 38205 48472 53005 60052 70274 886// 333 10003 21045 47006 555 593// 71852
AAXX 07181 03976 11562 72707 10074 20037 30124 40136 51011 60022 78081 873// 333 10077 84920 82820
AAXX 07184 43466 22970 00506 10258 20222 30080 40092 333 59004 60007
AAXX 07181 13160 32997 71803 10032 20027 30013 40123 57020 80006 333 10052
AAXX 07181 13262 32997 00000 10020 20003 39990 40141 57010 333 10108
AAXX 07181 13272 31957 21603 10038 21001 30021 40142 57011 71000 80002 333 10080
AAXX 07181 13285 31996 00901 10000 21009 30056 40162 56002 71000 333 10046
AAXX 07181 13289 32998 02104 10015 21100 38950 48452 56004 333 10042 4/005
AAXX 07181 13376 31/93 9//// 10014 20012 39911 40180 55003 74342 333 10027
AAXX 07181 13388 32597 80701 10025 20006 39938 40191 54000 885// 333 10036
AAXX 07181 13462 32570 13602 10070 20053 30149 40189 52014 81500 333 10143 81630
AAXX 07181 13473 NIL
AAXX 07181 13489 32997 00000 10012 20002 39664 40197 53006 333 10082
AAXX 07181 02464 47363 /2004 10019 20000 39879 49897 52013 781// 8//// 333 10028 20009 81/10 83/35
AAXX 07181 02500 05/99 /0204 11013 21039 39886 49929 52021 69902 333 10013 21015 60005 90710 91107
AAXX 07181 02513 05/80 /0000 10005 21014 39914 49918 53023 69992 333 10050 20003 60005 90710 91102
AAXX 07181 02615 07362 /1803 10044 20037 39892 49896 57005 60032 78186 333 10046 20031 69905 88/08 90710 91108
AAXX 07181 02635 07/58 /1302 10028 20017 60022 76186 333 10042 20027 69925 90710 91104
AAXX 07184 60715 12558 62506 10154 20118 30268 40275 53010 69902 82282 333 10194 58053 82823 83359 91009 91129
AAXX 07184 60723 11560 50000 10141 20131 30099 40289 53003 69982 70161 83280 333 10184 83823 83360
AAXX 07184 60725 12562 23002 10144 2//// 30114 40293 53005 60002 82200 333 10165 82820
AAXX 07184 60735 12560 43204 10172 20100 30195 40277 52008 60002 84200 333 10205 84823
AAXX 07184 60745 12660 32206 10154 20056 39912 40283 51010 69922 83500 333 10214 83633
AAXX 07184 60748 12565 41004 10144 20094 39863 40283 51009 60002 84800 333 10206 82823 83640
AAXX 07184 60750 12560 33501 10170 20076 30255 40280 51010 60002 83200 333 10216 83823
AAXX 07184 60760 12960 02507 10157 20035 30181 40286 51013 60002 333 10216
AAXX 07184 60765 12558 22204 10188 20112 30281 40285 51010 60002 82500 333 10217 82630 92426 925//
AAXX 07184 60767 12560 21202 10141 20093 30141 40287 53011 60002 82200 333 10223 82820
AAXX 07184 60769 12560 21308 10159 20113 30271 40275 53008 60002 82200 333 10204 82820
AAXX 07181 37575 42998 01802 10008 21035 39636 40240 52010 333 10090
AAXX 07181 37675 42995 02302 10023 21020 39524 40192 52002 333 10125 555 53002
AAXX 07181 37735 42996 00000 11001 21038 39789 40176 52006 333 10092
AAXX 07181 37749 42998 00501 10012 21008 30144 40264 52008 333 10093 555 53004
AAXX 07181 37756 42997 03003 11007 21032 39355 40282 52008 333 10063
AAXX 07181 37864 32597 31904 10057 20046 40223 50003 83500 333 10105
AAXX 07181 37985 42596 41801 10035 20025 30235 40220 58004 84540 333 10089
AAXX 07181 33506 32996 20000 11008 21014 39971 40172 58001 71011 80001 333 10042
AAXX 07184 61202 32965 30000 10264 21063 39601 40156 80002 333 10296 58009 83075
AAXX 07184 61214 NIL
AAXX 07184 61223 32960 50404 10270 20033 39843 40141 80002 333 10310 58008 85075
AAXX 07184 61226 NIL
AAXX 07184 61230 32960 40606 10302 21019 39831 40100 81042 333 10332 58005 81365 84075
AAXX 07184 61233 32960 70404 10295 21001 3//// 4//// 80002 333 10325 5//// 87075
AAXX 07184 61235 32960 60810 10325 21045 3//// 4//// 80002 333 10348 5//// 86075
AAXX 07184 61240 31959 70000 10295 20015 39797 40121 70622 80002 333 10340 58015 87075
AAXX 07184 61250 32960 20000 10300 20094 3//// 4//// 80002 333 10336 5//// 82075
AAXX 07184 61257 32960 40608 10328 20062 30046 40139 70611 80002 333 10343 58009 84075
AAXX 07184 61265 32965 30206 10296 20032 39807 40113 80002 333 10350 58003 83075
AAXX 07184 61270 32960 20404 10316 20100 3//// 4//// 80002 333 10347 5//// 82075
AAXX 07184 61272 32960 30000 10300 20102 39794 40117 80002 333 10352 58014 83075
AAXX 07184 61277 32960 30804 10313 20033 39790 40109 80002 333 10352 58005 83075
AAXX 07184 61285 32960 60804 10338 20046 39949 40097 82052 333 10365 58012 82365 86075
AAXX 07184 61291 32960 40602 10309 20043 39689 40096 80002 333 10335 58007 84075
AAXX 07184 61293 32960 70604 10308 20081 3//// 4//// 80002 333 10340 5//// 87075
AAXX 07184 61296 32960 60404 10295 20132 3//// 4//// 80002 333 10342 5//// 86075
AAXX 07184 61297 32960 70206 10300 20052 3//// 4//// 80002 333 10334 5//// 87075
BBXX MINFR03 0718/ 99297 30312 46/// ///// 10235 40067 52017
BBXX PHCQ 07183 99390 70495 41298 80705 10220 20166 40162 56005 70252 87770 22264 04208 20402 324// 41203 5//// 80185
AAXX 07181 13173 31995 01603 10008 20003 30033 40136 57016 71042 333 10061
AAXX 07181 13180 32997 21607 10020 20018 30043 40156 58007 82030 333 10052
AAXX 07181 13266 31996 01003 10020 20015 30033 40136 57017 71000 333 10072
AAXX 07181 13369 31/92 91401 11063 21066 38968 48433 53001 74544 333 10007 4/017
AAXX 07181 13383 32697 81102 10027 20015 39974 40182 55000 885// 333 10033
AAXX 07181 13384 31696 81401 10012 20006 30028 40184 52002 71022 885// 333 10035
AAXX 07181 13389 31596 80000 10028 20009 39902 40189 54000 71022 888// 333 10040
AAXX 07181 13477 NIL
AAXX 07181 14122 12970 32403 10024 20004 39908 40108 57013 60002 80008 333 10076
BBXX A8QJ7 07184 99021 50298 41598 21309 10280 20221 40079 56015 7//00 82200 22253 20502 3//// 4//// 5//// 80240
AAXX 07181 13168 32998 71103 10027 20015 30020 40129 58020 87010 333 10077
AAXX 07181 13174 31/92 91605 10004 20002 30026 40129 58016 74541 333 10071
AAXX 07181 13269 32997 00000 10010 21008 39935 40155 57009 333 10109
AAXX 07181 13274 31996 01604 10048 20015 39982 40145 57013 71000 333 10079
AAXX 07181 13278 32697 32502 10012 20002 39942 40174 50000 83500 333 10085
AAXX 07181 13378 32998 02404 11042 21081 38234 48456 54000 333 10006 4/013
AAXX 07181 13397 31496 82501 10014 20001 39646 40197 53006 71022 886// 333 10032
AAXX 07181 13457 42970 00000 10053 20044 30181 40188 52012 333 10151
AAXX 07181 13481 NIL
AAXX 07184 13623 12970 00000 10085 20070 30177 40183 52019 60002 333 10130
AAXX 07183 78970 11440 80000 10240 20231 30073 40098 60171 76186 8482/ 333 02299 10293 20235 58015 81812 84636 88458 90946
AAXX 07183 78962 11462 70000 10264 20219 30098 41006 60171 76086 8687/ 333 02299 10270 20213 58012 82818 85635 87360 90916
AAXX 07184 60710 11560 62714 10157 20128 30200 40279 51003 60022 76062 86800 333 10175 83820 84630
AAXX 07184 60714 12468 42804 10142 2//// 30279 40285 51008 69922 84800 333 10193 83816
AAXX 07184 60720 12560 32904 10160 20124 30232 40266 50007 60002 83200 333 10196 83820
AAXX 07184 60728 NIL
AAXX 07184 60729 NIL
AAXX 07184 60731 05960 /2207 10158 20108 30271 40278 52015 69922 333 10205 20139 58050 60007 91009 91129
AAXX 07184 60732 12560 42404 10129 20097 39670 40280 56003 69962 84800 333 10156 82820 83626
AAXX 07184 60734 12558 70000 10120 20104 39758 40284 51001 60002 84282 333 10170 84823 83360
AAXX 07184 60738 NIL
AAXX 07184 60739 12556 33306 10134 20070 39464 40285 51009 60002 83202 333 10177 83830 94239
AAXX 07184 60740 12465 52205 10173 20102 30275 40277 51010 60002 85200 333 10204 85816
AAXX 07184 60742 NIL
AAXX 07184 60764 NIL
AAXX 07184 60770 12975 00902 10162 20116 30145 40284 53011 60002 333 10225
AAXX 07184 60772 NIL
AAXX 07184 60775 12975 00000 10151 20053 39931 40288 53008 60002 333 10205
AAXX 07184 60780 12960 00306 10162 20022 39980 40280 52004 60002 333 10219
AAXX 07181 33088 12997 31802 11005 21014 39907 40102 57006 69942 80001 333 10014
AAXX 07181 33177 31996 51302 10002 21006 39846 40087 57008 71011 83041 333 10032
AAXX 07181 33261 32997 71702 11005 21023 39965 40152 52001 86031 333 10037
AAXX 07181 33275 31995 61401 11016 21024 39939 40169 52003 71022 80001 333 10024
AAXX 07181 33301 12597 71604 11011 21015 39819 40107 57008 60022 83530 333 10011
AAXX 07181 33325 32997 12001 10000 21027 39856 40128 53002 81030 333 10045
AAXX 07181 33377 31996 01801 11004 21016 39966 40165 53001 71011 333 10022
AAXX 07181 33415 12997 52004 11003 21044 39713 40120 57003 69902 80001 333 10052
AAXX 07181 33429 32997 22204 11012 21044 39694 40127 57005 80001 333 10050
AAXX 07181 33466 32962 21804 10005 21021 39959 40150 54000 80001 333 10038
AAXX 07181 33526 32660 52002 11017 21058 39772 40120 57006 82530 333 10072
AAXX 07181 33562 32997 41703 11008 21033 39771 40141 56002 83031 333 10034
AAXX 07181 33614 31935 00000 11005 21011 30062 40169 52003 71042 333 10011
AAXX 07181 33761 31996 09902 11002 21011 39928 40157 57007 71011 333 10040
AAXX 07181 33902 31995 03501 10007 21001 30091 40158 51001 71011 333 10054
AAXX 07181 33983 83504 10046 20036 30081 40143 58007 60042 78082 889// 333 10080 86704
AAXX 07181 34415 32997 60000 10010 20002 30074 40172 52006 86030 333 10041
AAXX 07181 34523 NIL
AAXX 07181 34712 11496 80302 10049 20042 30065 40151 54000 60022 71062 886// 333 10070 88719
AAXX 07181 34523 11597 83001 10041 20029 30083 40162 52010 60052 70362 885// 333 10058 88622
AAXX 07184 06610 01458 82113 10076 20057 39602 40187 5//// 60052 76162 8672/ 333 10077 32/// 553// 20000 69995 86717 88527 90766 93100
AAXX 07181 48845 11497 83601 10201 20198 30154 40161 58002 60021 76162 888// 333 58007 85894 88696 96160
AAXX 07184 06670 01459 82715 10069 20046 39640 40152 5//// 60112 76362 8472/ 333 10079 32/// 553// 20000 60045 81713 83719 87531 90766 93100
AAXX 07184 06700 01458 82112 10081 20065 39722 40217 5//// 60122 76366 8472/ 333 10085 32/// 553// 20000 69955 82710 84625 88535 90766 93100
AAXX 07184 06680 01/01 92435 11054 21055 37418 47948 5//// 60522 77374 333 11052 47085 553// 20000 60075 90766 93122
AAXX 07184 06990 01550 83001 10047 20030 39602 40154 5//// 60172 76362 887// 333 10045 32/// 553// 20000 60015 88722
AAXX 07184 06760 32880 60103 10086 20017 39695 40141 5//// 8607/ 333 10110 30/// 553// 20000 81358 86469 90766 93100
AAXX 07184 06720 01360 80702 10068 20054 39611 40189 5//// 60072 76066 8372/ 333 10070 32/// 553// 20000 69925 84707 88517 90766 93100
AAXX 07184 41859 31930 00000 10185 20180 30105 40144 70500 333 58011 70000
AAXX 07184 41883 31930 00000 10195 20175 30113 40134 70500 333 58007 70000
AAXX 07184 41891 31930 00000 10195 20180 30086 40126 70500 333 59001 70000
AAXX 07184 41907 31910 00000 10180 20170 30121 40137 70500 333 58006 70000
AAXX 07184 41923 31940 00000 10196 20180 30117 40127 70500 333 58007 70000
AAXX 07184 41936 41936 31916 00000 10182 20170 40139 70500 333 58013 70000
AAXX 07184 41943 31930 00000 10190 20180 30126 40134 70500 333 58005 70000
AAXX 07184 41950 31940 00000 10187 20180 30127 40130 70500 333 58010 70000
AAXX 07184 41978 31932 00000 10205 20190 30117 40124 70500 333 58008 70000
AAXX 07184 41992 31930 30000 10228 20210 30117 40120 70511 83030 333 56090 58009 70000 83362
AAXX 07184 91929 04/86 /1110 10283 20225 30134 40137 50012 60072 700// 333 10284 20246 69927 90710 91117 555 69925
AAXX 07184 91948 02481 70704 10255 20194 30074 40176 51013 60001 85801 333 56205 60007 84816 83640 90710 91116 555 60005 11120 59008
AAXX 07184 91954 06/// /2504 1//// 2//// 30154 4//// 51015 69921 333 69927 555 59017
AAXX 07184 91945 36/// /0908 10283 20206 30145 40150 51010
AAXX 07184 91925 01465 62903 10260 20242 30063 40123 51021 60091 72586 86800 333 56100 60097 81810 85818 90710 91125 555 60055 10725 59006
AAXX 07184 91938 01581 23502 10283 20223 30140 40142 51015 60002 702// 82801 333 10284 20246 60007 81820 90710 91104 555 60005 10805 59015
AAXX 07184 91944 06/// /0709 10273 20199 30143 40146 51015 60002 333 10274 20243 60007 90710 91114 555 60005
AAXX 07184 91958 01475 80411 10215 20187 30178 40180 52008 60021 72162 888// 333 56299 60017 84818 88646 90710 91126 555 69905 10826 59030
AAXX 07184 94500 NIL
AAXX 07184 94510 46/// /1807 10171 20161 39717 40055
AAXX 07184 94515 46/// /1307 10158 20148 39710 40050
AAXX 07184 94552 46/// /1504 10162 20151 39599 40054
AAXX 07184 94578 46/// /1905 10188 20182 30048 40059
AAXX 07184 94584 46/// /1427 10191 20179 39924 40032
AAXX 07184 94601 46/// /1322 10183 20151 30060 40077
AAXX 07184 94610 46/// /1907 10178 20138 30018 40041
AAXX 07184 94637 46/// /1605 10155 20121 39579 49992
AAXX 07184 94638 46/// /1109 10160 20144 30013 40044
AAXX 07184 94642 NIL
AAXX 07184 94643 NIL
AAXX 07184 94647 46/// /0710 10156 20147 39937 40055
AAXX 07184 94651 46/// /3602 10164 20159 39991 40066
AAXX 07184 94653 46/// /2506 10184 20159 30028 40046
AAXX 07184 94659 46/// /3405 10262 21045 39849 40039
AAXX 07184 94672 46/// /2001 10154 20071 30036 40046
AAXX 07184 94691 46/// /0210 10197 20109 39750 40069
AAXX 07184 94693 46/// /0408 10183 20112 30009 40069
AAXX 07184 94700 NIL
AAXX 07184 94703 46/// /0906 10140 20134 39956 40078
AAXX 07184 94710 46/// /0000 10123 20088 39833 40079
AAXX 07184 94729 46/// /1605 10117 20115 39266 40097
AAXX 07184 94750 46/// /0000 10147 20145 30009 40132
AAXX 07184 94767 46/// /0408 10162 20160 30121 40127
AAXX 07184 94776 46/// /0602 10163 20152 30106 40116
AAXX 07184 94791 NIL
AAXX 07184 94802 46/// /1312 10158 20146 39992 40073
AAXX 07184 94804 46/// /1307 10172 20127 30025 40062
AAXX 07184 94807 NIL
AAXX 07184 94821 46/// /2304 10105 20103 39985 40066
AAXX 07184 94842 46/// /0915 10147 20138 39982 40080
AAXX 07184 94847 NIL
AAXX 07184 94850 46/// /0814 10142 20131 30049 40094
AAXX 07184 94865 46/// /3204 10126 20118 30068 40092
AAXX 07184 94866 46/// /0108 10120 20099 39953 40091
AAXX 07184 94875 46/// /0903 10123 20091 39967 40100
AAXX 07184 89564 45/// /1107 11052 21130 39717 49736 55000
AAXX 07184 89570 46/// /0909 11148 21169 39070 56004
AAXX 07184 89571 45/// /3303 11039 21093 39705 49733 56003
AAXX 07184 89573 NIL
AAXX 07184 89610 NIL
AAXX 07184 89611 45/// /1115 11022 21107 39569 49620 58006
AAXX 07184 89614 NIL
AAXX 07184 89615 46923 71131 11108 21133 38734 57006
AAXX 07184 89807 NIL
AAXX 07184 89809 46/// /1028 11065 21103 39163 57008
AAXX 07184 94893 NIL
AAXX 07184 94907 46/// /2404 10125 20121 30091 40101
AAXX 07184 94910 46/// /0709 10165 20101 39862 40107
AAXX 07184 94926 46/// /1505 10122 20111 39466 40122
AAXX 07184 94935 46/// /3303 10137 20116 30093 40119
AAXX 07184 94954 46/// /0918 10138 20133 30003 40112
AAXX 07184 94956 46/// /0503 10102 20085 30107 40133
AAXX 07184 94975 46/// /3307 10121 20104 30105 40137
AAXX 07184 94983 46/// /0511 10143 20135 30109 40134
AAXX 07184 94995 46/// /1306 10185 20124 30115 40123
AAXX 07184 94996 46/// /1106 10170 20096 39991 40119
AAXX 07184 94997 NIL
AAXX 07184 94998 46/// /2413 10041 21017 30024 40035
AAXX 07184 95111 46/// /0903 10270 20259 30003 40039
AAXX 07184 95205 46/// /2509 10261 20203 30043 40050
AAXX 07184 95322 NIL
AAXX 07184 95448 46/// /3105 10216 20074 39435 49979
AAXX 07184 95458 46/// /3305 10283 20009 39782 40035
AAXX 07184 95480 46/// /0107 10257 20063 30000 40058
AAXX 07184 95481 46/// /0511 10209 20118 30020 40064
AAXX 07184 95482 46/// /0205 10207 20073 30010 40064
AAXX 07184 95485 46/// /0108 10163 20140 39876 40074
AAXX 07184 95492 46/// /3301 10146 20131 39930 40081
AAXX 07184 95527 46/// /1705 10164 20158 39833 40080
AAXX 07184 95634 46/// /3104 10179 20179 39621 40010
AAXX 07184 95637 46/// /1605 10163 20144 39704 40029
AAXX 07184 95646 46/// /1221 10142 20139 39851 40033
AAXX 07184 95666 NIL
AAXX 07184 95719 46/// /1308 10141 20136 39778 40101
AAXX 07184 95762 46/// /1806 10146 20131 39638 40084
AAXX 07184 95826 NIL
AAXX 07184 95839 46/// /0608 10126 20058 39916 40072
AAXX 07184 95864 NIL
AAXX 07184 95909 NIL
AAXX 07184 95954 NIL
AAXX 07184 95966 46/// /0000 10114 20095 39939 40138
AAXX 07184 96995 46/// /2603 10235 20231 39796 40090
AAXX 07184 96996 47/// /3508 10266 20248 30056 40060 58011 7//44
AAXX 07184 94299 46/// /3308 10279 20250 30033 40043
AAXX 07184 94300 46/// /2210 10221 20167 30051 40061
AAXX 07184 94302 46/// /2408 10233 20166 30060 40066
AAXX 07184 94312 46/// /2709 10238 20190 30037 40046
AAXX 07184 94313 NIL
AAXX 07184 94317 46/// /2905 10228 20043 39439 40005
AAXX 07184 94319 46/// /3110 10230 20158 39699 40020
AAXX 07184 94324 NIL
AAXX 07184 94326 46/// /3504 10267 20108 39429 40027
AAXX 07184 94327 46/// /3604 10204 20079 39688 40051
AAXX 07184 94332 46/// /0000 10159 20131 39669 40045
AAXX 07184 94333 NIL
AAXX 07184 94341 46/// /1206 10194 20109 39827 40056
AAXX 07184 94346 46/// /0000 10163 20144 39840 40054
AAXX 07184 94363 46/// /1606 10178 20168 39829 40041
AAXX 07184 94366 NIL
AAXX 07184 94367 46/// /2905 10237 20234 39991 40032
AAXX 07184 94374 46/// /1204 10201 20168 30028 40044
AAXX 07184 94388 46/// /1816 10224 20194 30028 40033
AAXX 07184 94393 46/// /0000 10263 30018 40030 55001
AAXX 07184 94394 46/// /3128 10248 30005 40013 55003
AAXX 07184 94403 46/// /2105 10189 20165 30002 40043
AAXX 07184 94429 46/// /2510 10196 20138 39566 40016
AAXX 07184 94430 46/// /2311 10220 20105 39440 40005
AAXX 07184 94449 46/// /2806 10218 20087 39468 49980
AAXX 07184 94451 NIL
AAXX 07184 94461 46/// /0704 10232 20152 39347 49995
AAXX 07184 94462 46/// /0807 10210 20184 39485 40023
AAXX 07184 94477 NIL
AAXX 07184 94488 NIL
AAXX 07184 94299 46/// /3308 10279 20250 30033 40043
AAXX 07184 94300 46/// /2210 10221 20167 30051 40061
AAXX 07184 94302 46/// /2408 10233 20166 30060 40066
AAXX 07184 94312 46/// /2709 10238 20190 30037 40046
AAXX 07184 94313 NIL
AAXX 07184 94317 46/// /2905 10228 20043 39439 40005
AAXX 07184 94319 46/// /3110 10230 20158 39699 40020
AAXX 07184 94324 NIL
AAXX 07184 94326 46/// /3504 10267 20108 39429 40027
AAXX 07184 94327 46/// /3604 10204 20079 39688 40051
AAXX 07184 94332 46/// /0000 10159 20131 39669 40045
AAXX 07184 94333 NIL
AAXX 07184 94341 46/// /1206 10194 20109 39827 40056
AAXX 07184 94346 46/// /0000 10163 20144 39840 40054
AAXX 07184 94363 46/// /1606 10178 20168 39829 40041
AAXX 07184 94366 NIL
AAXX 07184 94367 46/// /2905 10237 20234 39991 40032
AAXX 07184 94374 46/// /1204 10201 20168 30028 40044
AAXX 07184 94388 46/// /1816 10224 20194 30028 40033
AAXX 07184 94393 46/// /0000 10263 30018 40030 55001
AAXX 07184 94394 46/// /3128 10248 30005 40013 55003
AAXX 07184 94403 46/// /2105 10189 20165 30002 40043
AAXX 07184 94429 46/// /2510 10196 20138 39566 40016
AAXX 07184 94430 46/// /2311 10220 20105 39440 40005
AAXX 07184 94449 46/// /2806 10218 20087 39468 49980
AAXX 07184 94451 NIL
AAXX 07184 94461 46/// /0704 10232 20152 39347 49995
AAXX 07184 94462 46/// /0807 10210 20184 39485 40023
AAXX 07184 94477 NIL
AAXX 07184 94488 NIL
AAXX 07184 NIL
AAXX 07184 89564 45/// /1107 11052 21130 39717 49736 55000
AAXX 07184 89570 46/// /0909 11148 21169 39070 56004
AAXX 07184 89571 45/// /3303 11039 21093 39705 49733 56003
AAXX 07184 89573 NIL
AAXX 07184 89610 NIL
AAXX 07184 89611 45/// /1115 11022 21107 39569 49620 58006
AAXX 07184 89614 NIL
AAXX 07184 89615 46923 71131 11108 21133 38734 57006
AAXX 07184 89807 NIL
AAXX 07184 89809 46/// /1028 11065 21103 39163 57008
AAXX 07184 40356 NIL
AAXX 07184 40357 42960 01204 10092 21120 39578 40235 333 10185 58005 55///
AAXX 07184 40360 42960 01202 10078 21040 39609 40206 333 10156 59009 55096
AAXX 07184 40361 42960 11105 10090 21180 39442 40228 80001 333 10174 58004 55///
AAXX 07184 40362 42960 00000 10057 21180 39698 40230 333 10170 58012 55///
AAXX 07184 40373 42960 00000 10090 20010 39797 40229 333 10190 58017 55///
AAXX 07184 40375 42960 00000 10106 21090 39312 40210 333 10204 59007 55091
AAXX 07184 40377 42960 00305 10105 21060 39738 40232 333 10182 58013 55///
AAXX 07184 40394 42960 03304 10114 21040 39075 48545 333 10198 58010 55097 555 04410 50212
AAXX 07184 40400 42960 03507 10218 20130 30138 40166 333 10284 58000 55097
AAXX 07184 40401 42960 03503 10180 21060 39483 40183 333 10270 58004
AAXX 07184 40405 42960 00406 10130 20000 39469 40224 333 10210 58019 55///
AAXX 07184 40416 42960 03106 10120 21030 30172 40192 333 10200 58010 55///
AAXX 07184 40417 42960 02907 10103 21040 30193 40208 333 10182 58010 55///
AAXX 07184 40420 42960 03206 10104 20000 39999 40211 333 10200 58011 55///
AAXX 07184 40430 42960 03104 10216 20050 39440 40156 333 10284 58007 55081
AAXX 07184 40435 NIL
AAXX 07184 40437 42960 00104 10122 21060 39512 40224 333 10194 58018 55094
AAXX 07184 40439 42960 22706 10240 20120 30126 40136 80001 333 10304 58003 55090 82070
AAXX 07184 94102 46/// /2619 10289 20249 30032 40041
AAXX 07184 94103 NIL
AAXX 07184 94120 46/// /1403 10260 20234 30001 40041
AAXX 07184 94122 NIL
AAXX 07184 94131 46/// /0000 10251 20235 39894 40044
AAXX 07184 94132 NIL
AAXX 07184 94147 NIL
AAXX 07184 94150 NIL
AAXX 07184 94151 46/// /3604 10285 20243 30022 4////
AAXX 07184 94170 46/// /3501 10262 20256 30022 40044
AAXX 07184 94200 NIL
AAXX 07184 94203 46/// /2810 10276 20198 30043 40053
AAXX 07184 94206 46/// /3007 10256 20211 39910 40037
AAXX 07184 94207 46/// /2515 10267 30043 40051 58020
AAXX 07184 94211 NIL
AAXX 07184 94212 46/// /3102 10261 20214 39564 40024
AAXX 07184 94216 46/// /3504 10268 20249 39984 40034
AAXX 07184 94236 NIL
AAXX 07184 94238 46/// /3508 10270 20125 39619 40031
AAXX 07184 94248 NIL
AAXX 07184 94255 46/// /0705 10224 20102 39788 40043
AAXX 07184 94268 46/// /0000 10248 20244 30027 40039
AAXX 07184 94287 46/// /1701 10241 20218 30028 40037
AAXX 07184 94290 NIL
AAXX 07184 94294 46/// /0000 10228 20211 30035 40045
AAXX 07184 94296 35/// /0000 10272 30027 40037 57003
AAXX 07184 94298 46/// /2906 10268 30030 40036 55001
AAXX 07184 95641 NIL
AAXX 07183 NIL
AAXX 07184 94893 NIL
AAXX 07184 94907 46/// /2404 10125 20121 30091 40101
AAXX 07184 94910 46/// /0709 10165 20101 39862 40107
AAXX 07184 94926 46/// /1505 10122 20111 39466 40122
AAXX 07184 94935 46/// /3303 10137 20116 30093 40119
AAXX 07184 94954 46/// /0918 10138 20133 30003 40112
AAXX 07184 94956 46/// /0503 10102 20085 30107 40133
AAXX 07184 94975 46/// /3307 10121 20104 30105 40137
AAXX 07184 94983 46/// /0511 10143 20135 30109 40134
AAXX 07184 94995 46/// /1306 10185 20124 30115 40123
AAXX 07184 94996 46/// /1106 10170 20096 39991 40119
AAXX 07184 94997 NIL
AAXX 07184 94998 46/// /2413 10041 21017 30024 40035
AAXX 07184 95111 46/// /0903 10270 20259 30003 40039
AAXX 07184 95205 46/// /2509 10261 20203 30043 40050
AAXX 07184 95322 NIL
AAXX 07184 95448 46/// /3105 10216 20074 39435 49979
AAXX 07184 95458 46/// /3305 10283 20009 39782 40035
AAXX 07184 95480 46/// /0107 10257 20063 30000 40058
AAXX 07184 95481 46/// /0511 10209 20118 30020 40064
AAXX 07184 95482 46/// /0205 10207 20073 30010 40064
AAXX 07184 95485 46/// /0108 10163 20140 39876 40074
AAXX 07184 95492 46/// /3301 10146 20131 39930 40081
AAXX 07184 95527 46/// /1705 10164 20158 39833 40080
AAXX 07184 95634 46/// /3104 10179 20179 39621 40010
AAXX 07184 95637 46/// /1605 10163 20144 39704 40029
AAXX 07184 95646 46/// /1221 10142 20139 39851 40033
AAXX 07184 95666 NIL
AAXX 07184 95719 46/// /1308 10141 20136 39778 40101
AAXX 07184 95762 46/// /1806 10146 20131 39638 40084
AAXX 07184 95826 NIL
AAXX 07184 95839 46/// /0608 10126 20058 39916 40072
AAXX 07184 95864 NIL
AAXX 07184 95909 NIL
AAXX 07184 95954 NIL
AAXX 07184 95966 46/// /0000 10114 20095 39939 40138
AAXX 07184 96995 46/// /2603 10235 20231 39796 40090
AAXX 07184 96996 47/// /3508 10266 20248 30056 40060 58011 7//44
AAXX 07184 94102 46/// /2619 10289 20249 30032 40041
AAXX 07184 94103 NIL
AAXX 07184 94120 46/// /1403 10260 20234 30001 40041
AAXX 07184 94122 NIL
AAXX 07184 94131 46/// /0000 10251 20235 39894 40044
AAXX 07184 94132 NIL
AAXX 07184 94147 NIL
AAXX 07184 94150 NIL
AAXX 07184 94151 46/// /3604 10285 20243 30022 4////
AAXX 07184 94170 46/// /3501 10262 20256 30022 40044
AAXX 07184 94200 NIL
AAXX 07184 94203 46/// /2810 10276 20198 30043 40053
AAXX 07184 94206 46/// /3007 10256 20211 39910 40037
AAXX 07184 94207 46/// /2515 10267 30043 40051 58020
AAXX 07184 94211 NIL
AAXX 07184 94212 46/// /3102 10261 20214 39564 40024
AAXX 07184 94216 46/// /3504 10268 20249 39984 40034
AAXX 07184 94236 NIL
AAXX 07184 94238 46/// /3508 10270 20125 39619 40031
AAXX 07184 94248 NIL
AAXX 07184 94255 46/// /0705 10224 20102 39788 40043
AAXX 07184 94268 46/// /0000 10248 20244 30027 40039
AAXX 07184 94287 46/// /1701 10241 20218 30028 40037
AAXX 07184 94290 NIL
AAXX 07184 94294 46/// /0000 10228 20211 30035 40045
AAXX 07184 94296 35/// /0000 10272 30027 40037 57003
AAXX 07184 94298 46/// /2906 10268 30030 40036 55001
AAXX 07184 95641 NIL
AAXX 07184 41241 36/// /2702 10219 20062 30133 40171 333 0E025 10246 59001
AAXX 07184 41242 36/// /1702 10194 20118 30157 40182 333 0E022 10271 59002
AAXX 07184 41244 36/// /3003 10177 20123 39835 48216 333 0E018 10238 58009
AAXX 07184 41246 32560 43209 10235 20163 30163 40167 82530 333 10267 59001 82625 83360
AAXX 07184 41251 32960 00402 10098 20007 38037 40166 333 10148 59005
AAXX 07184 41252 NIL
AAXX 07184 41253 36/// /0000 10195 20131 39796 40180 333 0E021 10262 59000
AAXX 07184 41254 NIL
AAXX 07184 41255 36/// /1201 10197 20054 39625 40181 333 0E023 10279 59001
AAXX 07184 41256 32960 21402 10222 20133 30158 40168 80001 333 10260 59002 82070
AAXX 07184 41257 36/// /9902 10193 20133 39691 40180 333 0E019 10260 59002
AAXX 07184 41258 NIL
AAXX 07184 41259 36/// /2716 10042 21132 37115 40283 333 0E/// 10082 59008
AAXX 07184 41262 NIL
AAXX 07184 41263 36/// /0000 10191 20034 39482 40174 333 0E019 10267 58001
AAXX 07184 41264 36/70 /2305 10183 20054 39779 40152 333 0E022 10284 59001
AAXX 07184 41265 36/// /1610 10197 20154 39626 40178 333 0E025 10270 5////
AAXX 07184 41267 35/84 /3008 10232 20104 30152 40167 333 0E023 10259 59002
AAXX 07184 41268 NIL
AAXX 07184 41270 36/70 /0304 10231 20137 30111 40123 333 0E023 10261 59003
AAXX 07184 41275 NIL
AAXX 07184 41287 36/// /2509 10204 20062 30119 40188 333 0E023 10291 58000
AAXX 07184 41288 36/// ///// 10231 20182 30146 40170 333 0E023 10281 58001
AAXX 07184 41290 NIL
AAXX 07184 41295 36/// /2905 10183 20080 39990 40168 333 0E022 10270 58004
AAXX 07184 41304 NIL
AAXX 07184 41312 36/// /0112 10257 20028 30128 40167 333 0E057 10301 58008
AAXX 07184 41314 32960 09901 10175 21027 39687 40200 333 10244 58004
AAXX 07184 41315 NIL
AAXX 07184 41316 32960 00113 10247 21019 30145 40171 333 10295 58009
BBXX PCAM 07183 99328 31709 41/98 41907 10174 20135 40138 52010 70211 842// 22233 00208 20201 322// 41004 80150
BBXX ZCAS2 07183 99122 31214 41598 22104 10285 20219 40040 57/// 70100 81117 22254 00308 20201 322// 40201 80240
BBXX ZMIQ 07183 99374 31781 41398 71114 10155 20118 40119 53015 70222 877// 22273 20401 399// 40402 80135
BBXX C6HS4 07183 99055 30791 41697 23109 10285 20265 40094 5/030 71022 82400 22233 20402 80270
BBXX VNSZ 07164 99385 31447 46/// /0913 10160 20142 30050 40076 57024 22275 04167 85149
BBXX 3ECI3 07184 99322 51768 41497 32017 10190 20156 40101 54000 70111 83242 22253 00200 20402 327// 41004 80170
BBXX VNSZ 07174 99383 31448 46/// /0813 10167 20138 30049 40075 57018 22224 04172 85149
BBXX VROB 07164 99068 31470 46/// /3506 10255 20230 30042 40067 57018 22200 04307 85237
BBXX FHZI 07164 99582 31413 46/// /2817 10030 20026 39762 49773 57009 22283 04021 85028
BBXX 9HA2479 07174 99227 31662 46/// /1217 10239 20209 30042 40071 57018 22273 04257 85218
BBXX C6FS9 07174 99193 31468 46/// /1603 10248 20230 30015 40050 57015 22200 04284 85235
BBXX VROB 07174 99068 31470 46/// /1701 10263 20235 30037 40062 57020 22200 04308 85242
BBXX FHZI 07174 99580 31414 46/// /2816 10031 20027 39770 49781 52015 22282 04019 85029
BBXX MPRZ 07164 99239 31642 41998 51025 10230 20183 40067 58020 70022 8505/ 22254 20806 318// 40806 80200
BBXX S6CW 07183 99252 31648 41798 60922 10225 20150 40079 56012 70322 84164 22284 00231 21602 80180
BBXX VNSZ 07184 99381 31449 46/// /0213 10167 20150 30044 40070 57010 22285 04184 85156
BBXX 9HA2479 07184 99225 31661 46/// /1217 10241 20213 30048 40077 57005 22283 04258 85221
BBXX C6FS9 07184 99193 31468 46/// /2301 10245 20231 30015 40050 57009 22200 04286 85235
BBXX VRWW8 07184 99113 31492 41/98 72809 10280 20253 40047 52010 70202 8//// 22234 00300 2//// 3//// 4//// 5//// 80260
BBXX YJZC5 07183 99254 31581 41/97 81025 10215 20207 40053 57/// 76362 8//// 22263 299// 312// 40406 80210
BBXX VRAE2 07184 99021 31413 41/// 83306 10290 20248 40051 56023 75850 8//// 22234 04310 2//// 80260
AAXX 07184 94500 NIL
AAXX 07184 94510 46/// /1807 10171 20161 39717 40055
AAXX 07184 94515 46/// /1307 10158 20148 39710 40050
AAXX 07184 94552 46/// /1504 10162 20151 39599 40054
AAXX 07184 94578 46/// /1905 10188 20182 30048 40059
AAXX 07184 94584 46/// /1427 10191 20179 39924 40032
AAXX 07184 94601 46/// /1322 10183 20151 30060 40077
AAXX 07184 94610 46/// /1907 10178 20138 30018 40041
AAXX 07184 94637 46/// /1605 10155 20121 39579 49992
AAXX 07184 94638 46/// /1109 10160 20144 30013 40044
AAXX 07184 94642 NIL
AAXX 07184 94643 NIL
AAXX 07184 94647 46/// /0710 10156 20147 39937 40055
AAXX 07184 94651 46/// /3602 10164 20159 39991 40066
AAXX 07184 94653 46/// /2506 10184 20159 30028 40046
AAXX 07184 94659 46/// /3405 10262 21045 39849 40039
AAXX 07184 94672 46/// /2001 10154 20071 30036 40046
AAXX 07184 94691 46/// /0210 10197 20109 39750 40069
AAXX 07184 94693 46/// /0408 10183 20112 30009 40069
AAXX 07184 94700 NIL
AAXX 07184 94703 46/// /0906 10140 20134 39956 40078
AAXX 07184 94710 46/// /0000 10123 20088 39833 40079
AAXX 07184 94729 46/// /1605 10117 20115 39266 40097
AAXX 07184 94750 46/// /0000 10147 20145 30009 40132
AAXX 07184 94767 46/// /0408 10162 20160 30121 40127
AAXX 07184 94776 46/// /0602 10163 20152 30106 40116
AAXX 07184 94791 NIL
AAXX 07184 94802 46/// /1312 10158 20146 39992 40073
AAXX 07184 94804 46/// /1307 10172 20127 30025 40062
AAXX 07184 94807 NIL
AAXX 07184 94821 46/// /2304 10105 20103 39985 40066
AAXX 07184 94842 46/// /0915 10147 20138 39982 40080
AAXX 07184 94847 NIL
AAXX 07184 94850 46/// /0814 10142 20131 30049 40094
AAXX 07184 94865 46/// /3204 10126 20118 30068 40092
AAXX 07184 94866 46/// /0108 10120 20099 39953 40091
AAXX 07184 94875 46/// /0903 10123 20091 39967 40100
AAXX 07184 68014 36/// /2306 10222 20158 38589 48506 53002 333 10304 20222 91008 555 91018
AAXX 07184 68110 16/// /1504 10172 20159 38286 48508 53015 60122 333 10283 20169 91009 555 20122 61145 91020
AAXX 07184 68300 36/// /1819 10157 20105 39993 40144 52007 333 10239 20155 91025 555 91014
BBXX PCAM 07183 99328 31709 41/98 41907 10174 20135 40138 52010 70211 842// 22233 00208 20201 322// 41004 80150
BBXX ZCAS2 07183 99122 31214 41598 22104 10285 20219 40040 57/// 70100 81117 22254 00308 20201 322// 40201 80240
BBXX ZMIQ 07183 99374 31781 41398 71114 10155 20118 40119 53015 70222 877// 22273 20401 399// 40402 80135
BBXX C6HS4 07183 99055 30791 41697 23109 10285 20265 40094 5/030 71022 82400 22233 20402 80270
BBXX VNSZ 07164 99385 31447 46/// /0913 10160 20142 30050 40076 57024 22275 04167 85149
BBXX 3ECI3 07184 99322 51768 41497 32017 10190 20156 40101 54000 70111 83242 22253 00200 20402 327// 41004 80170
BBXX VNSZ 07174 99383 31448 46/// /0813 10167 20138 30049 40075 57018 22224 04172 85149
BBXX VROB 07164 99068 31470 46/// /3506 10255 20230 30042 40067 57018 22200 04307 85237
BBXX FHZI 07164 99582 31413 46/// /2817 10030 20026 39762 49773 57009 22283 04021 85028
BBXX 9HA2479 07174 99227 31662 46/// /1217 10239 20209 30042 40071 57018 22273 04257 85218
BBXX C6FS9 07174 99193 31468 46/// /1603 10248 20230 30015 40050 57015 22200 04284 85235
BBXX VROB 07174 99068 31470 46/// /1701 10263 20235 30037 40062 57020 22200 04308 85242
BBXX FHZI 07174 99580 31414 46/// /2816 10031 20027 39770 49781 52015 22282 04019 85029
BBXX MPRZ 07164 99239 31642 41998 51025 10230 20183 40067 58020 70022 8505/ 22254 20806 318// 40806 80200
BBXX S6CW 07183 99252 31648 41798 60922 10225 20150 40079 56012 70322 84164 22284 00231 21602 80180
BBXX VNSZ 07184 99381 31449 46/// /0213 10167 20150 30044 40070 57010 22285 04184 85156
BBXX 9HA2479 07184 99225 31661 46/// /1217 10241 20213 30048 40077 57005 22283 04258 85221
BBXX C6FS9 07184 99193 31468 46/// /2301 10245 20231 30015 40050 57009 22200 04286 85235
BBXX VRWW8 07184 99113 31492 41/98 72809 10280 20253 40047 52010 70202 8//// 22234 00300 2//// 3//// 4//// 5//// 80260
BBXX YJZC5 07183 99254 31581 41/97 81025 10215 20207 40053 57/// 76362 8//// 22263 299// 312// 40406 80210
BBXX VRAE2 07184 99021 31413 41/// 83306 10290 20248 40051 56023 75850 8//// 22234 04310 2//// 80260
AAXX 07184 68004 16/// /0402 10228 20180 38534 48489 52016 69962 333 10296 20210 91005 555 20006 91016
AAXX 07184 68006 36/// /2002 10277 20180 38894 48481 52006 333 10317 20277 91003 555 91012
AAXX 07184 68010 36/// /1802 10219 20202 38898 48499 52011 333 10324 20204 91005 555 91015
AAXX 07184 68018 36/// /1204 10269 20172 38885 48497 52021 333 10327 20268 91005 555 91014
AAXX 07184 68098 32989 02113 10213 20117 30023 40129 53006 333 10271 20211 91016 555 91013
AAXX 07184 68102 36/// /0000 10242 20160 38725 48478 52010 333 10304 20229 91002 555 91014
AAXX 07184 68112 11588 72105 10175 20153 38340 48524 53007 60052 71322 83980 333 10228 20168 91006 555 20056 60565 91022
AAXX 07184 68116 16/// /1702 10218 20192 38567 48515 52012 60072 333 10299 20203 91007 555 20072 91019
AAXX 07184 68212 16/// /0202 10216 20188 38913 48528 52017 69952 333 10311 20213 91006 555 20005 69925 91019
AAXX 07184 68312 36/// /2114 10282 20019 38937 48511 53005 333 10311 20273 91019 555 91015
AAXX 07181 38141 32998 00901 11088 21132 30177 40346 54000 333 11080
AAXX 07181 38149 42998 00301 11079 21115 30257 40340 58002 333 11042
AAXX 07181 38178 414// 81302 11071 21096 30047 40351 58003 74642 886// 333 11064
AAXX 07181 38262 329// 00502 11104 21148 30256 40345 58004 333 11052
AAXX 07181 38264 42998 00502 11096 21108 30236 40335 57002 333 11031
AAXX 07181 38396 NIL
AAXX 07181 38403 429// 00903 11069 21148 30190 40318 53002 333 11026
AAXX 07181 38413 429// 80901 11046 21057 30021 40327 53001 8802/ 333 11047
AAXX 07181 38457 31594 60000 11032 21042 39709 40323 57002 71011 82540 333 10004
AAXX 07181 38462 NIL
AAXX 07181 38565 329// 00000 11042 21054 39705 40318 58006 333 10016
AAXX 07181 38579 325// 81001 11006 21018 39887 40321 57003 885// 333 11001
AAXX 07181 38583 31596 80401 11012 21018 39995 40331 54000 71022 886// 333 11012
AAXX 07181 38611 12797 80201 10016 21015 39750 40339 57006 69902 885// 333 10020 85086
AAXX 07181 38618 129// 80000 10008 21015 39605 40315 57008 69900 8805/ 333 10022
AAXX 07181 38683 41996 03403 11027 21043 30018 40308 58005 71000 333 10030
AAXX 07181 38696 329// 00901 11041 21059 39420 40318 52001 333 10040
AAXX 07181 38812 41996 00000 11017 21028 39823 40295 58004 71000 333 10071
AAXX 07181 38927 31950 00601 10005 21006 39903 40293 58001 71000 333 10090
AAXX 07184 41024 42960 03610 10256 20190 30118 40137 333 10304 59003 55082
AAXX 07184 41030 42960 00000 10270 20150 39858 40128 333 10356 59003 55///
AAXX 07184 41036 42560 29903 10188 20110 38583 48533 82400 333 10245 58001 55075 82630 555 04410 50145
AAXX 07184 41055 42560 30910 10170 20000 38386 48534 83400 333 10250 58004 55100 83630 555 04410 50156
AAXX 07184 41061 42960 01105 10150 20030 39480 40194 333 10230 58012 55100
AAXX 07184 41084 NIL
AAXX 07184 41112 42960 00000 10136 20130 37967 48534 333 10212 58005 55091 555 04410 50175
AAXX 07184 41114 42960 02404 10154 20120 37999 48532 333 10220 58003 55100 555 04410 50170
AAXX 07184 41128 42960 00000 10150 21040 38853 48555 333 10244 58012 55075 555 04410 50193
AAXX 07184 41136 42960 00709 10176 21010 39361 40181 333 10250 58010 55097
AAXX 07184 41140 42560 32105 10285 20230 30127 40133 81120 333 10330 58001 55/// 81830 83460
AAXX 07184 91375 NIL
AAXX 07184 91519 NIL
AAXX 07184 91531 NIL
AAXX 07184 91532 45/// /0506 10270 20227 30058 40066 52001
AAXX 07184 91559 NIL
AAXX 07184 91611 NIL
AAXX 07184 91642 NIL
AAXX 07184 91679 NIL
AAXX 07184 91689 NIL
AAXX 07184 91756 NIL
AAXX 07184 91844 NIL
AAXX 07184 92036 NIL
AAXX 07184 93713 NIL
AAXX 07184 94310 46/// /2722 10256 20191 30034 40045 57015
AAXX 07184 95283 46/// /2703 10248 20241 30034 40041
AAXX 07184 95288 46/// /3313 10285 30024 40039 56008
AAXX 07184 95675 46/// /0101
AAXX 07184 95872 46/// /3206
AAXX 07184 95961 35/// /0704 10107 30092 40133 57005
AAXX 07183 91502 31470 10000 10252 20246 40054 5//// 71300 81903 333 56000 81814 81915
AAXX 07183 91507 31480 20904 10245 20238 40056 55000 70510 81902 333 56000 81814 81915
AAXX 07183 91520 11475 60000 10241 20235 40058 55000 69911 71511 83933 333 56999 81814 81915
AAXX 07183 91541 NIL
BBXX 2ALD3 07183 99249 11442 41/98 /0703 10230 20177 40161 58/// 70322 8//// 22284 04210 2//// 80195
AAXX 07184 40550 35/70 /3105 10072 21085 40219 51009 333 55300 00000 10281 20000 30000 40918 51199 60000 55407 40000 90069 90400 91009 91113 91205 91303
AAXX 07184 40551 36/// /2511 10078 21087 333 90400 91011 91115 91211 91309
AAXX 07184 40552 35/70 /2913 10085 21096 40222 51009 333 55300 90069 90401 91015 91115 91213 91311
AAXX 07184 40553 35/70 /2805 10076 21084 40219 51009 333 55300 90069 90401 91005 91115 91211 91307
AAXX 07184 40568 36/// /2807 10078 21038 333 90401 91009 91113 91211 91309
AAXX 07184 40569 NIL
AAXX 07184 40570 35/70 /2907 10075 21126 40233 50011 333 55300 90069 90400 91007 91115 91211 91307
AAXX 07184 40571 NIL
AAXX 07184 40572 NIL
AAXX 07184 40573 36/// /2807 10069 21110 333 90401 91009 91115 91211 91307
AAXX 07184 40580 46/// /2803 10131 21071 333 553// 00000 10310 20000 30000 40919 51229 60000 55407 40000 90400 91005 91109 91205 91303
AAXX 07184 40581 36/// /3403 10146 20005 333 90400 91009 91111 91201 91301
AAXX 07184 40582 32960 02804 10078 21088 40220 51010 333 55300 00000 10260 20000 30000 40959 51218 60000 55407 40000 90401 91005 91113 91211 91305
AAXX 07184 40583 NIL
AAXX 07184 40585 36/// /2912 10153 20031 222// 1//// 3//// 4//// 70/// 333 90401 91015 91117 91213 91309
AAXX 07184 40586 36/// /2303 10088 21090 333 90400 91005 91109 91203 91303
AAXX 07184 40587 36/// /2406 10077 21087 333 553// 00000 10269 20000 30000 40911 51181 60000 55407 40000 90400 91007 91113 91209 91305
AAXX 07184 40588 35/64 /3008 10091 20018 40215 51008 333 55300 90069 90400 91009 91113 91209 91307
AAXX 07184 40589 NIL
AAXX 07184 40590 36/// /3106 10087 21092 333 90400 91007 91115 91211 91307
AAXX 07184 40591 NIL
AAXX 07184 40592 35/70 /3204 10089 21057 40222 51009 333 55300 00000 10291 20000 30000 40925 51216 60000 55407 40000 90069 90400 91005 91113 91207 91303
AAXX 07184 40593 36/// /3107 10124 21027 333 90401 91009 91109 91207 91305
AAXX 07184 40594 36/// /3004 10096 21037 333 90400 91007 91109 91205 91303
AAXX 07184 40596 46/// /3212 10177 20010 333 90400 91017 91119 91213 91311
AAXX 07181 37395 32997 50905 10090 21027 30034 40174 57006 85030 333 10158
AAXX 07181 37409 32598 20904 11005 21088 38773 48491 57005 82530 333 10059 95090
AAXX 07181 37432 32997 00000 11023 21070 38978 48506 52005 333 11056
AAXX 07181 37514 32996 00000 11045 21088 39069 40274 53008 333 10061
AAXX 07181 37545 329// 00000 11010 21028 39699 40232 54000 333 10076
AAXX 07181 37621 329// 00000 10012 21072 39558 40214 58010 333 10090
AAXX 07181 37484 NIL
AAXX 07183 91502 31470 10000 10252 20246 40054 5//// 71300 81903 333 56000 81814 81915
AAXX 07183 91507 31480 20904 10245 20238 40056 55000 70510 81902 333 56000 81814 81915
AAXX 07183 91520 11475 60000 10241 20235 40058 55000 69911 71511 83933 333 56999 81814 81915
AAXX 07183 91541 NIL
AAXX 07184 91577 06/// /0508 10240 20221 30034 40055 56014 60181 333 59019 60117
AAXX 07184 78951 11472 71208 10285 20228 30097 40112 69901 70382 87840 333 10292 20231 58015 79999 83818 86638
AAXX 07184 78948 11372 71208 10284 20241 30100 40108 71582 8487/ 333 05220 10299 20224 58016 70001 81709 84820 90915
AAXX 07184 78988 02484 60907 10288 20245 30084 40094 57023 60001 82230 333 58010 60007 82818 86360
AAXX 07184 78990 01459 /0000 10298 20219 30097 57022 60001 70000 333 58014 60007
AAXX 07184 78873 NIL
BBXX 61002 07184 99421 10047 46/// ///22 10162 2//// 40254 52004 22200 00160 10502 70012 555 1/029
AAXX 07184 60645 36/// /0000 10235 21024 333 10289
AAXX 07184 60612 36/// /0409 10198 21058 333 10264
AAXX 07184 08141 12960 02803 10072 20045 39435 40308 53010 60002 333 10125
AAXX 07184 60621 36/// /0512 10212 21015 333 10269
AAXX 07184 60619 36/// /0313 10157 21006 333 10207
BBXX 62087 07181 99547 10068 46/// /1405 10072 20042 4//// 5//// 22230 00094
AAXX 07184 60663 36/// /1003 10214 21068 333 10251
AAXX 07181 50468 32970 03403 11193 21229 30142 40371 57005 333 11146
AAXX 07181 50953 32970 03602 11190 21233 30170 40365 52010 333 11103
AAXX 07181 51076 NIL
AAXX 07181 51243 NIL
AAXX 07181 51288 NIL
AAXX 07181 51463 NIL
AAXX 07181 51573 NIL
AAXX 07181 51709 NIL
AAXX 07181 52533 NIL
AAXX 07181 52652 NIL
AAXX 07181 52866 11970 82701 11073 21106 37793 57001 69921 77070 8802/ 333 00152 11010
AAXX 07181 52983 NIL
AAXX 07181 53463 32980 02903 11135 21215 39134 40474 57002 333 00557 11066
AAXX 07181 53513 32970 01101 11145 21172 39168 40481 57007 333 00355 11041
AAXX 07181 53588 NIL
AAXX 07181 53772 NIL
AAXX 07181 53915 NIL
AAXX 07181 54218 32970 32201 11149 21211 39557 40418 52006 80002 333 11045
AAXX 07181 54337 NIL
AAXX 07181 54342 NIL
AAXX 07181 54401 NIL
AAXX 07181 54471 32960 00205 11098 21161 30358 40364 52007 333 11020
AAXX 07181 54497 32665 23407 11065 21140 30279 40296 52005 82500 333 10028
AAXX 07181 54511 NIL
AAXX 07181 54823 32961 00703 11013 21053 30147 40365 52010 333 10050
AAXX 07181 56080 NIL
AAXX 07181 56096 NIL
AAXX 07181 57083 NIL
AAXX 07181 56187 32961 83601 10075 20050 39669 40330 57004 8807/ 333 00451 10111
AAXX 07181 56778 NIL
AAXX 07181 57265 NIL
AAXX 07181 57461 11956 73201 10079 20078 30172 40339 52001 69911 71060 8704/ 333 10092
AAXX 07181 57494 NIL
AAXX 07181 57516 11456 80201 10090 20078 30005 40323 57003 60011 76066 887// 333 00552 10110
AAXX 07181 57687 11330 83404 10071 20048 30231 40318 52004 60011 76066 8772/ 333 10072
AAXX 07181 57816 11459 80205 10046 20037 38879 40301 52008 60011 76066 885// 333 00452 10069
AAXX 07181 58040 11662 80206 10042 21004 30297 40311 52018 69911 70060 885// 333 10093
AAXX 07181 58102 32962 83403 10037 20017 30297 40347 52012 8801/ 333 10064
AAXX 07181 58150 NIL
AAXX 07181 58221 NIL
AAXX 07181 58238 NIL
AAXX 07181 58251 NIL
AAXX 07181 58362 NIL
AAXX 07181 58457 11465 83203 10081 20066 30207 40260 52012 60061 76066 885// 333 10138
AAXX 07181 58606 NIL
AAXX 07181 58752 NIL
AAXX 07181 58847 NIL
AAXX 07181 59117 32663 83602 10187 20125 30091 40195 52007 885// 333 10247
AAXX 07181 59134 NIL
AAXX 07181 59287 32662 73605 10165 20130 30105 40190 52001 875// 333 10230
AAXX 07181 59316 32660 80902 10209 20197 30169 40174 54000 885// 333 10260
AAXX 07181 59431 NIL
AAXX 07181 59644 32560 83606 10157 20128 30173 40190 52001 888// 333 10223
AAXX 07181 59758 NIL
AAXX 07184 78951 11472 71208 10285 20228 30097 40112 69901 70382 87840 333 10292 20231 58015 79999 83818 86638
BBXX MNDC9 07184 99201 31098 41498 62513 10240 20194 40089 52012 70222 83109 22244 04252 2//02 80210
BBXX PEBT 07183 99390 10235 41597 50124 10130 20105 40140 53012 7//22 855// 22223 02150 20503 334// 40501 5//// 80116
BBXX UANA 07181 99730 10312 41/97 32512 10033 49842 50002 70110 83100 22232 04051 20605
AAXX 07184 78951 11472 71208 10285 20228 30097 40112 69901 70382 87840 333 10292 20231 58015 79999 83818 86638
AAXX 07184 78774 32970 22305 10320 20158 30014 40106 58016 82030 333 10322 20174 30/// 56020 58011 82364
AAXX 07181 15260 02997 01104 11025 21025 39616 40170 57003 60002 333 10061 21045 34007 60007 91005 91105 92600
AAXX 07184 78774 32970 22305 10320 20158 30014 40106 58016 82030 333 10322 20174 30/// 56020 58011 82364
AAXX 07181 48840 11497 83401 10197 20194 30157 40163 54000 60021 76065 888// 333 58006 85894 88696 96160
BBXX 42067 07181 99300 70886 46/// ///// 10064 20041 40235 91740 22200 00189 10502 70010
BBXX 41053 07181 99185 70661 46/// /0606 10275 40110 57019 91800 22200 00282 11104 70019 333 91207
AAXX 07184 61401 NIL
AAXX 07184 61404 31950 61017 10236 21028 39784 40180 70722 83082 333 10250 58006 83363 85073
AAXX 07184 61415 31956 50000 10238 20074 30149 40154 70622 85070 333 10262 58005 85463
AAXX 07184 61421 33958 60810 10254 21060 39875 40130 80002 333 10272 59003 86080
AAXX 07184 61437 31956 60804 10272 20083 30016 40154 70622 80002 333 10288 58005 86073
AAXX 07184 61442 32958 60607 10293 21030 30129 40132 83082 333 10310 58005 83363 85073
AAXX 07184 61450 NIL
AAXX 07184 61461 32960 60804 10290 21046 30051 40138 80002 333 10300 58008 86073
AAXX 07184 61489 31957 60000 10285 20056 30120 40127 70622 86070 333 10315 59002 86363
AAXX 07184 61492 32958 50810 10300 20022 30114 40133 80002 333 10310 59003 85073
AAXX 07184 61497 35958 60806 10285 21006 39885 4//// 80002 333 10315 58003 86073
AAXX 07184 61498 31930 63606 10280 20092 30004 40137 705// 80002 333 10300 58014 86073
AAXX 07184 61499 32958 40404 10280 20005 39878 40134 80001 333 10310 58004 84073
AAXX 07181 26115 27363 71905 10040 20027 39935 49943 53010 78280 86/// 333 10060 20026 69997 86/09 91012 91112 555 1/002 20026 3/001 50043
AAXX 07181 26045 01465 71703 10009 21002 39990 49993 52008 69902 70222 87500 333 10013 21009 60007 87615 91108 555 1/100 21009 3/101 50005
AAXX 07181 26058 27467 81602 10011 21008 30003 40011 52005 70000 88/// 333 10014 20002 60007 88/16 555 1/100 20002 3/101 50003 52100
BBXX 44139 07181 99442 70571 46/// /2110 10108 40143 57026 22200 00082 10504 70018 333 91213
AAXX 0718/ 89108 46/// ///// 11181 36886 4//// 5////
AAXX 0718/ 89879 46/// ///// 11010 39660 4//// 5////
AAXX 0718/ 89872 46/// ///// 11050 39683 4//// 5////
AAXX 0718/ 89869 46/// ///// 11054 39680 4//// 5////
AAXX 0718/ 89866 46/// ///// 11034 39638 4//// 5////
AAXX 0718/ 89329 46/// ///// 11090 38675 4//// 5////
AAXX 0718/ 89799 46/// ///// 11266 4//// 5////
AAXX 0718/ 89868 46/// ///// 11066 39678 4//// 5////
AAXX 0718/ 89332 46/// ///// 11055 39124 4//// 5////
AAXX 0718/ 89769 46/// ///// 11056 39700 4//// 5////
AAXX 0718/ 89314 46/// ///// 11091 38159 4//// 5////
AAXX 07184 89667 46/// /1618 11037 29079 39746 4//// 5////
AAXX 0718/ 89828 46/// ///// 11398 36399 4//// 5////
AAXX 0718/ 89108 46/// ///// 11189 36886 4//// 5////
AAXX 0718/ 89869 46/// ///// 11054 39681 4//// 5////
AAXX 0718/ 89866 46/// ///// 11030 39639 4//// 5////
AAXX 0718/ 89329 46/// ///// 11095 38675 4//// 5////
AAXX 0718/ 89769 46/// ///// 11056 39698 4//// 5////
AAXX 0718/ 89314 46/// ///// 11091 38160 4//// 5////
AAXX 07184 60340 32970 00604 10125 20091 40293 53004 333 10182
BBXX 44139 07181 99442 70571 46/// /2110 10108 40143 57026 22200 00082 10504 70018 333 91213
BBXX MINUK04 0718/ 99519 10013 46/// ///// 10070 4//// 57066
AAXX 07184 61017 32960 50406 10260 21025 39757 40172 80002 333 10304 58008 85080
AAXX 07184 61024 32960 51012 10254 20026 39580 40147 80002 333 10316 58009 85080
AAXX 07184 61036 31950 70000 10300 20045 39876 40113 7052/ 80008 333 10341 58004 87280
AAXX 07184 61043 32960 70410 10288 21080 39683 40123 80008 333 10328 58013 87280
AAXX 07184 61045 31917 70404 10264 21031 39640 40141 7062/ 80008 333 10310 58015 87280
AAXX 07184 61049 32960 70804 10255 20066 39807 40129 80008 333 10322 58007 87280
AAXX 07184 61052 31935 50606 10300 21044 39862 40119 70611 80002 333 10345 58005 85080
AAXX 07184 61075 31940 70402 10292 20026 39809 40117 7062/ 80008 333 10357 58015 87280
AAXX 07184 61080 31950 70000 10265 20007 39712 40133 70622 80008 333 10327 58013 87280
AAXX 07184 61090 31958 70206 10275 21065 39622 40132 70622 80008 333 10314 58018 87280
AAXX 07184 61091 32960 70000 10252 20074 39684 40142 80008 333 10320 58004 87280
AAXX 07184 61096 32960 73606 10275 21047 39749 40133 80008 333 10333 58014 87280
AAXX 07184 61099 32960 70208 10310 20058 39865 40092 80008 333 10360 58004 87280
AAXX 07184 89002 41/91 91037 11083 21095 39649 49703 57013 73933 89/// 333 00952 92992 96111
AAXX 07184 78922 46/// /1503 10280 20222 30062 40106 56020
BBXX 46001 07181 99563 71480 46/// /1611 10063 40170 58030 91750 22200 00052 10907 20605 300// 40904 70034 333 91213 555 11117 22126 31658 41513 61749 156107 153107 152107 150105 147105 145109
BBXX 46026 07181 99378 71228 46/// /0801 10106 40261 54000 91750 22200 00114 11202 331// 41202 70008 333 91202 555 11009 22009 31655 43002 61749 065009 308010 316010 329008 306011 317013
BBXX 46028 07181 99357 71219 46/// /3506 10126 40240 55000 91750 22200 00132 11202 20501 333// 41202 70011 333 91207 555 11058 22061 31710 43407 61749 349055 354055 350058 344060 334056 321051
BBXX 46042 07181 99368 71224 46/// /0702 10106 40254 54000 91750 22200 00122 11202 331// 41202 70009 333 91202 555 11015 22016 31716 40803 61749 071015 077013 066016 075019 084016 075014
BBXX 46054 07181 99342 71204 46/// /3203 10127 40235 53006 91750 22200 00139 10802 20401 300// 40802 70010 333 91204 555 11035 22036 31651 43205 61749 318034 317034 322035 324041 321040 314044
BBXX A8EH5 07181 99453 71392 41398 80907 10098 20071 40372 52002 70352 8571/ 22273 00089 20402 328// 41603 5//// 80084
BBXX A8TG2 07184 99325 71486 41898 51216 10180 20146 40200 54000 703// 82262 22224 20204 310// 40204 5//// 80160
BBXX CG2958 07184 99487 71235 46/// /2402 10054 20051 40332 51007 7//// 8//// 22200 0//// 2////
BBXX CG2965 07184 99487 71235 46/// /2302 10052 20044 40324 51007 7//// 8//// 22200 0//// 2////
BBXX CGBR 07184 99543 71303 46/// /0201 10000 21007 40352 50001 7//// 8//// 22211 00074 2////
BBXX CGDR 07184 99505 71280 46/// /3302 10045 20044 40342 53002 7//// 8//// 22200 0//// 2////
BBXX CGJK 07184 99484 71234 46/// /0205 10061 20050 40321 51007 7//// 8//// 22200 0//// 2////
BBXX 46035 07181 99571 71778 46/// /2611 1//// 49768 53017 91750 22200 11108 20805 300// 41107 70042 333 91214 555 11112 22119 31724 42615 61749 260111 268111 263116 270112 267118 271112 82713 91702
BBXX C6UB2 07184 99351 71774 43/// /2724 10160 20130 40240 5//// 7//// 8//// 22223 00190 2//// 3//// 4//// 5//// 6//// 80140 ICE /////
BBXX DQVJ 07181 99532 71576 41/94 /1111 10065 20055 40065 58005 75866 8//// 22263 04058 20501 308// 41005 5//// 80060
BBXX KEY796 07183 99571 71703 41/97 81819 10039 20033 49814 55/// 761// 8//// 222// 00028 2//// 3//// 4//// 5//// 6//// 8//// ICE /////
BBXX OUIY2 07184 99526 71557 41/// 81814 10043 20030 40193 56015 76355 88/// 22273 00050 20404 327// 40706 5//// 6//// 80036 ICE /////
BBXX 3FZK3 07184 99394 11367 46/// /3314 10020 21018 40179 53004 7//// 8//// 22213 0//// 2////
BBXX KDBG 07184 99310 11294 41/96 80226 10150 20110 40132 5//// 76062 88/// 22265 00236 2//// 3//// 4//// 5//// 6//// 80128 ICE /////
BBXX V7DI8 07183 99336 11248 41/95 /0417 10100 20060 40240 58010 76166 8//// 22200 00170 2//// 3//// 4//// 5//// 6//// 80080 ICE /////
BBXX WCX8883 07184 99368 11422 41/// 83413 10110 20070 40140 54010 78022 88/// 22254 00160 2//// 3//// 4//// 5//// 6//// 80090 ICE /////
AAXX 07184 71104 11974 10000 11109 21109 39207 40366 53013 60001 70141 81071 333 11053 21162 70000
BBXX SKOZ 07184 99472 70155 43/97 62316 10120 40260 50001 22253 00139 2//// 4////
AAXX 07184 71104 11974 10000 11109 21109 39207 40366 53013 60001 70141 81071 333 11053 21162 70000
AAXX 07181 48820 11497 80202 10188 20180 30170 40178 50003 60021 76162 8672/ 333 58010 86894 88697 96160
AAXX 07184 61017 32960 50406 10260 21025 39757 40172 80002 333 10304 58008 85080
AAXX 07184 61024 32960 51012 10254 20026 39580 40147 80002 333 10316 58009 85080
AAXX 07184 61036 31950 70000 10300 20045 39876 40113 7052/ 80008 333 10341 58004 87280
AAXX 07184 61043 32960 70410 10288 21080 39683 40123 80008 333 10328 58013 87280
AAXX 07184 61045 31917 70404 10264 21031 39640 40141 7062/ 80008 333 10310 58015 87280
AAXX 07184 61049 32960 70804 10255 20066 39807 40129 80008 333 10322 58007 87280
AAXX 07184 61052 31935 50606 10300 21044 39862 40119 70611 80002 333 10345 58005 85080
AAXX 07184 61075 31940 70402 10292 20026 39809 40117 7062/ 80008 333 10357 58015 87280
AAXX 07184 61080 31950 70000 10265 20007 39712 40133 70622 80008 333 10327 58013 87280
AAXX 07184 61090 31958 70206 10275 21065 39622 40132 70622 80008 333 10314 58018 87280
AAXX 07184 61091 32960 70000 10252 20074 39684 40142 80008 333 10320 58004 87280
AAXX 07184 61096 32960 73606 10275 21047 39749 40133 80008 333 10333 58014 87280
AAXX 07184 61099 32960 70208 10310 20058 39865 40092 80008 333 10360 58004 87280
AAXX 07184 41252 36/// /3114 10189 20118 39792 40082 333 0E019 10263 5////
AAXX 07184 41254 36/// /9902 10082 21021 37959 47964 333 0E007 10150 59008
AAXX 07184 41258 26/// /1602 10241 20126 30157 40162 333 0E/// 10255 59002 70000
BBXX 41053 07181 99185 70661 46/// /0706 10275 40110 91750 333 91208
BBXX 41053 07181 99185 70661 46/// /0606 10275 40111 91740 333 91208
AAXX 07181 33506 32996 20000 11008 21014 39971 40172 58001 80001 333 10042
AAXX 07181 33506 32996 20000 11008 21014 39971 40172 58001 71011 80001 333 10042
AAXX 07184 13601 12660 30000 10104 20081 30067 40168 52012 60022 83100 333 10156 83840
AAXX 07184 13610 11330 80000 10062 20041 39753 40181 52004 60002 71022 885// 333 10070 88606
AAXX 07184 13600 12663 10904 10090 20074 30133 40186 52011 60002 81200 333 10132 81840
AAXX 07184 13624 12965 11404 10056 20041 30144 40183 52014 60022 81030 333 10170 81360
AAXX 07184 13622 12665 20000 10090 20056 30173 40180 52008 69922 82500 333 10160 82640
AAXX 07184 91753 04986 /0608 10271 20231 30055 40087 53005 60032 700// 333 10271 20243 60007 90710 91113 555 60005
AAXX 07184 91754 36/// /0302 10251 20232 30046 40087 53014 555 60005 69924 20246 10317
AAXX 07184 71837 16/// ///// 11046 60001 333 11041 21096 70000
AAXX 07184 71839 16/// ///// 11046 60001 333 11043 21073 70003
AAXX 07184 71110 17/// /0613 10041 20041 30051 40111 58025 60151 7//4/ 333 10073 20041 70228
AAXX 07184 71139 16/// /3507 11085 21096 38754 40250 53014 60001 333 11051 21086 70000
AAXX 07184 71141 16/// /0230 11155 21170 39946 49972 53023 60001 333 11129 21189 70000
AAXX 07184 71147 16/// /3012 11044 21085 60001 333 11023 21100 70000
AAXX 07184 71920 17/// /2109 10094 20094 30091 40097 56022 60011 7//4/ 333 10101 20090 70336
AAXX 07184 71501 16/// /0603 11289 21321 30278 40280 58019 60001 333 11222 21291 70000 555 10010
AAXX 07184 71511 16/// /3011 11080 21110 39566 40220 57004 60001 333 11032 21105 70000
AAXX 07184 71516 16/// /2810 11046 21101 60001 333 11013 21066 70000
AAXX 07184 71522 46/// /0000 11077 21092 39620 40121 56027 6///1 333 7////
AAXX 07184 71832 16/// /2506 11059 21078 39732 40061 51003 60001 333 11046 21157 70000
AAXX 07184 71551 16/// /3115 11067 21133 39571 40245 53007 60001 333 11014 21103 70000
AAXX 07184 71553 16/// /2813 11104 21171 60001 333 11071 21118 70000
AAXX 07184 71556 16/// /2205 11079 21116 39603 40225 58003 60001 333 11032 21126 70000
AAXX 07184 71564 16/// /3011 11043 21082 39796 40171 53003 60001 333 11012 21076 70000
AAXX 07184 71577 46/// /3110 11049 21126 6///1 333 11017 21080 7////
AAXX 07184 71581 16/// /2501 11022 21049 39624 40109 56022 60001 333 11022 70000
AAXX 07184 71585 16/// /3120 11129 21204 39775 40254 51021 60001 333 11088 21129 70000
AAXX 07184 71599 17/// /1701 10112 20112 39893 40092 58019 60011 7//4/ 333 10116 20105 70096
AAXX 07184 71954 46/// /3012 11102 21158 39728 40112 58001 6///1 333 11085 21113 7////
AAXX 07184 71956 16/// /2414 10005 21052 39859 40092 58025 60001 333 10018 21057 70000
AAXX 07184 71959 16/// ///// 10092 20073 60001 333 10092 20056 70146
AAXX 07184 71970 16/// /3021 11088 21156 39622 40226 50005 60001 333 11063 21142 70000
AAXX 07184 71977 46/// /2901 11341 21343 39557 40329 57017 6///1 333 11299 21349 7////
AAXX 07184 71978 46/// /2512 11260 21303 39957 40290 58014 6///1 333 11225 21300 7////
AAXX 07184 71300 17/// /3503 11005 21020 39990 40113 58022 69931 7//4/ 333 10002 21009 70003
AAXX 07184 71309 17/// /2606 11043 21068 30022 40034 58002 69971 7//4/ 333 11042 21170 70007 555 10020
AAXX 07184 71311 16/// /0107 10048 20041 30084 40108 55010 60001 333 10052 20040 70165
AAXX 07184 71317 16/// /0103 10062 20057 30045 40091 56025 60001 333 10063 20053 70053
AAXX 07184 71319 16/// /0000 11037 21038 39231 40100 58025 60001 333 11037 21074 70005
AAXX 07184 71321 16/// /1621 11063 21106 39913 49956 56016 60001 333 11056 21220 70000
AAXX 07184 71332 16/// /3534 11204 21225 30157 40187 52015 60001 333 11193 21210 70007 555 10800
AAXX 07184 71402 46/// /0619 11018 21027 30062 40178 56018 6///1 333 11007 21018 7////
AAXX 07184 71407 16/// /0730 11071 21081 39700 49720 52015 60001 333 11071 21146 70003
AAXX 07184 71429 16/// /0213 11021 21039 30124 40143 56013 60001 333 11008 21025 70020
AAXX 07184 71450 16/// /3018 11060 21129 39503 40239 53004 60001 333 11029 21100 70000
AAXX 07184 71452 46/// /3113 11050 21083 39501 40227 51012 6///1 333 11028 21071 7////
AAXX 07184 71456 16/// /2815 11101 21135 39579 40192 58010 60001 333 11060 21146 70000
AAXX 07184 71465 46/// /3006 10007 21054 39914 40132 58024 6///1 333 10009 21004 7////
AAXX 07184 71470 17/// /3231 11231 21255 39474 40121 51023 60031 7//4/ 333 11224 21243 70041
AAXX 07184 71476 16/// /0611 30342 51004 60001 333 70000
AAXX 07184 71480 17/// /1104 11271 21298 30228 40358 58005 69931 7//4/ 333 11197 21331 70003
AAXX 07184 71484 16/// /0703 10031 21021 30325 40344 53003 60001 333 10049 20019 70000
AAXX 07184 71487 16/// /2811 11057 21098 39354 40241 50008 60001 333 11024 21079 70000
AAXX 07184 71492 46/// ///09 11279 21306 39541 40278 51007 6///1 333 11267 21280 7//// 555 10150
AAXX 07184 71667 16/// /3015 11023 21113 39855 40103 50003 60001 333 11022 21091 70000
AAXX 07184 71669 17/// /0402 11067 21081 38629 40294 51024 69941 7//4/ 333 11042 7////
AAXX 07184 71671 17/// /0203 10066 20066 30029 40089 56019 69931 7//4/ 333 10069 20055 70054
AAXX 07184 71087 46/// /2909 11190 21235 30102 40317 53013 6///1 333 11128 21190 7////
AAXX 07184 71721 16/// /3105 11027 21075 39870 40118 56022 60001 333 11020 21042 70000
AAXX 07184 71724 17/// /0204 11003 21020 30100 40108 58036 60011 7//4/ 333 11001 21010 70010
AAXX 07184 71736 46/// ///// 11054 21066 6///1 333 11015 21092 7//// 555 10010
AAXX 07184 71742 46/// /0613 11010 21011 39981 40169 56026 6///1 333 11001 21013 7////
AAXX 07184 71750 16/// /3303 11032 21071 39841 40076 50002 60001 333 11007 21120 70007 555 10010
AAXX 07184 71752 16/// /3302 10017 21026 39905 40123 58021 60001 333 10018 20002 70000
AAXX 07184 71771 46/// /2904 10045 21030 30330 40351 51004 6///1 333 10048 20033 7////
AAXX 07184 71155 16/// ///// 11086 21152 60001 333 11034 21091 70000 555 10010
AAXX 07184 71156 16/// /2903 11100 21158 39198 40337 53009 60001 333 11057 21101 70000
AAXX 07184 71157 46/// ///// 11082 21148 6///1 333 11034 21089 7////
AAXX 07184 71158 16/// /2918 11086 21143 39841 40121 50002 60001 333 11036 21104 70003
AAXX 07184 71159 16/// /0810 10008 21012 30037 40109 58040 60001 333 10021 20006 70031
AAXX 07184 71160 16/// /3134 11181 21202 39895 40116 52014 60001 333 11177 21197 70000
AAXX 07184 71164 46/// /1003 11321 21355 30280 40368 56011 6///1 333 11245 21330 7////
AAXX 07184 71165 46/// ///13 11211 21251 39980 40278 53020 6///1 333 11181 21217 7////
AAXX 07184 71166 46/// /2405 39712 52002 6///1 333 7////
AAXX 07184 71170 16/// /3018 11056 21123 60001 333 11051 21112 70000
AAXX 07184 71196 16/// /1103 11013 21064 39918 40118 58027 60001 333 11013 21042 70000
AAXX 07184 71212 16/// /1601 11016 21025 39288 40093 58023 60001 333 11007 21041 70003 555 10010
AAXX 07184 71243 16/// /0108 11030 21040 39188 40301 51029 60001 333 10003 21033 70000
AAXX 07184 71246 16/// /2908 11121 21177 39630 40321 51009 60001 333 11083 21154 70000
AAXX 07184 71885 16/// ///// 11041 60001 333 11040 70000
AAXX 07184 71015 17/// ///// 11051 69931 7//4/ 333 11031 21085 70003
AAXX 07184 71017 16/// /3104 11234 21257 30117 40132 53016 60001 333 11174 21238 70000
AAXX 07184 71018 16/// ///18 11239 21274 30010 40099 53009 60001 333 11185 21241 70027
AAXX 07184 71019 46/// /0704 10005 20004 39814 40117 58023 6///1 333 10005 21016 7////
AAXX 07184 71020 46/// /3501 11223 21245 30071 40340 57008 6///1 333 11122 21237 7////
AAXX 07184 71021 46/// /0000 11265 21294 39974 40346 58010 6///1 333 11118 21271 7////
AAXX 07184 71063 16/// /3005 11007 21027 30014 40113 58025 60001 333 11001 21008 70000
AAXX 07184 71357 16/// /0602 11187 21218 30022 40029 56011 60001 333 11172 21238 70000
AAXX 07184 71361 16/// /3218 11178 21225 30072 40289 53011 60001 333 11125 21184 70000
AAXX 07184 71363 17/// /0343 11133 21147 39731 49784 53021 60171 7//4/ 333 11113 21259 70228
AAXX 07184 71364 16/// /1206 11231 21263 30176 40317 57017 60001 333 11224 21263 70000 555 10010
AAXX 07184 71365 16/// /2904 11235 21256 30130 40355 50005 60001 333 11132 21240 70000
AAXX 07184 71373 16/// /2802 10004 21004 60001 333 10004 21005 70012
AAXX 07184 71381 46/// /1208 11014 21036 6///1 333 7////
AAXX 07184 71250 17/// /0607 10024 20019 30007 40143 56017 60081 7//4/ 333 10056 20023 70086
AAXX 07184 71295 16/// /2807 11067 21114 39656 40106 50000 60001 333 11039 21107 70000
AAXX 07184 71299 16/// /2706 11050 21061 39779 40057 58001 60001 333 11050 21174 70000 555 10020
AAXX 07184 71938 11800 83439 11202 21241 30166 40197 51016 69901 73973 8804/ 333 11190 21214 70008 90943
BBXX 44150 07181 99425 70640 46/// /2405 10116 40119 57017 22200 00106 10803 70014 333 91205
AAXX 07184 71444 16/// /2907 11089 21193 39397 40170 50008 60001 333 11061 21145 70000
AAXX 07184 71447 16/// /3319 11048 21126 39649 40205 51013 60001 333 11025 21098 70000
AAXX 07184 71472 16/// /1205 10038 21005 30335 40353 53001 60001 333 10046 20032 70000
AAXX 07184 71621 11574 73606 10013 21033 30011 40118 57029 69901 70272 81572 333 10016 20005 79999 90940
AAXX 07184 71719 16/// /0317 11006 21017 30140 40146 56017 60001 333 10003 21015 70006 555 10020
BBXX 42085 07181 99179 70665 46/// /1108 10281 40100 91750 333 91209
BBXX 42085 07181 99179 70665 46/// /1108 10281 40102 91740 333 91210
BBXX 41052 07181 99183 70648 46/// /0806 10278 40104 91750 333 91207
BBXX 41052 07181 99183 70648 46/// /0806 10278 40105 91740 333 91207
BBXX 41052 07181 99183 70648 46/// /0806 10277 40103 57018 91800 22200 00281 333 91207
AAXX 07184 71868 16/// /2712 11083 21168 39702 40151 58017 60001 333 11044 21113 70000
BBXX 42085 07181 99179 70665 46/// /1108 10283 40099 58024 91800 22200 00285 10402 70008 333 91209
BBXX SLKQ 07181 99193 11209 43/98 20707 10259 40111 58019 22253 00267 2////4////
BBXX SBLI 07181 99175 71049 43/98 20503 10264 40154 50001 22274 00276 2//// 4//// 426621110
BBXX 41037 07181 99340 70775 46/// /2207 10212 40099 58041 91800 22200 00180 333 91208
AAXX 07184 41170 42964 03107 10165 20040 30194 40207 333 10218 58012
AAXX 07184 71110 17/// /0613 10041 20041 30051 40111 58025 60151 7//4/ 333 10073 20041 70228
AAXX 07184 71139 16/// /3507 11085 21096 38754 40250 53014 60001 333 11051 21086 70000
AAXX 07184 71141 16/// /0230 11155 21170 39946 49972 53023 60001 333 11129 21189 70000
AAXX 07184 71147 16/// /3012 11044 21085 60001 333 11023 21100 70000
AAXX 07184 71551 16/// /3115 11067 21133 39571 40245 53007 60001 333 11014 21103 70000
AAXX 07184 71553 16/// /2813 11104 21171 60001 333 11071 21118 70000
AAXX 07184 71556 16/// /2205 11079 21116 39603 40225 58003 60001 333 11032 21126 70000
AAXX 07184 71564 16/// /3011 11043 21082 39796 40171 53003 60001 333 11012 21076 70000
AAXX 07184 71577 46/// /3110 11049 21126 6///1 333 11017 21080 7////
AAXX 07184 71581 16/// /2501 11022 21049 39624 40109 56022 60001 333 11022 70000
AAXX 07184 71585 16/// /3120 11129 21204 39775 40254 51021 60001 333 11088 21129 70000
AAXX 07184 71599 17/// /1701 10112 20112 39893 40092 58019 60011 7//4/ 333 10116 20105 70096
AAXX 07184 71501 16/// /0603 11289 21321 30278 40280 58019 60001 333 11222 21291 70000 555 10010
AAXX 07184 71511 16/// /3011 11080 21110 39566 40220 57004 60001 333 11032 21105 70000
AAXX 07184 71516 16/// /2810 11046 21101 60001 333 11013 21066 70000
AAXX 07184 71522 46/// /0000 11077 21092 39620 40121 56027 6///1 333 7////
AAXX 07184 71920 17/// /2109 10094 20094 30091 40097 56022 60011 7//4/ 333 10101 20090 70336
AAXX 07184 71832 16/// /2506 11059 21078 39732 40061 51003 60001 333 11046 21157 70000
AAXX 07184 71954 46/// /3012 11102 21158 39728 40112 58001 6///1 333 11085 21113 7////
AAXX 07184 71956 16/// /2414 10005 21052 39859 40092 58025 60001 333 10018 21057 70000
AAXX 07184 71959 16/// ///// 10092 20073 60001 333 10092 20056 70146
AAXX 07184 71970 16/// /3021 11088 21156 39622 40226 50005 60001 333 11063 21142 70000
AAXX 07184 71977 46/// /2901 11341 21343 39557 40329 57017 6///1 333 11299 21349 7////
AAXX 07184 71978 46/// /2512 11260 21303 39957 40290 58014 6///1 333 11225 21300 7////
BBXX 44150 07181 99425 70640 46/// /2405 10116 40119 57017 22200 00106 10803 70014 333 91205
AAXX 07184 71938 11800 83439 11202 21241 30166 40197 51016 69901 73973 8804/ 333 11190 21214 70008 90943
AAXX 07184 71837 16/// ///// 11046 60001 333 11041 21096 70000
AAXX 07184 71839 16/// ///// 11046 60001 333 11043 21073 70003
AAXX 07184 71868 16/// /2712 11083 21168 39702 40151 58017 60001 333 11044 21113 70000
AAXX 07184 71621 11574 73606 10013 21033 30011 40118 57029 69901 70272 81572 333 10016 20005 79999 90940
AAXX 07184 71719 16/// /0317 11006 21017 30140 40146 56017 60001 333 10003 21015 70006 555 10020
AAXX 07184 71444 16/// /2907 11089 21193 39397 40170 50008 60001 333 11061 21145 70000
AAXX 07184 71447 16/// /3319 11048 21126 39649 40205 51013 60001 333 11025 21098 70000
AAXX 07184 71472 16/// /1205 10038 21005 30335 40353 53001 60001 333 10046 20032 70000
AAXX 07184 71015 17/// ///// 11051 69931 7//4/ 333 11031 21085 70003
AAXX 07184 71017 16/// /3104 11234 21257 30117 40132 53016 60001 333 11174 21238 70000
AAXX 07184 71018 16/// ///18 11239 21274 30010 40099 53009 60001 333 11185 21241 70027
AAXX 07184 71019 46/// /0704 10005 20004 39814 40117 58023 6///1 333 10005 21016 7////
AAXX 07184 71020 46/// /3501 11223 21245 30071 40340 57008 6///1 333 11122 21237 7////
AAXX 07184 71021 46/// /0000 11265 21294 39974 40346 58010 6///1 333 11118 21271 7////
AAXX 07184 71063 16/// /3005 11007 21027 30014 40113 58025 60001 333 11001 21008 70000
AAXX 07184 71250 17/// /0607 10024 20019 30007 40143 56017 60081 7//4/ 333 10056 20023 70086
AAXX 07184 71295 16/// /2807 11067 21114 39656 40106 50000 60001 333 11039 21107 70000
AAXX 07184 71299 16/// /2706 11050 21061 39779 40057 58001 60001 333 11050 21174 70000 555 10020
AAXX 07184 71212 16/// /1601 11016 21025 39288 40093 58023 60001 333 11007 21041 70003 555 10010
AAXX 07184 71243 16/// /0108 11030 21040 39188 40301 51029 60001 333 10003 21033 70000
AAXX 07184 71246 16/// /2908 11121 21177 39630 40321 51009 60001 333 11083 21154 70000
AAXX 07184 71357 16/// /0602 11187 21218 30022 40029 56011 60001 333 11172 21238 70000
AAXX 07184 71361 16/// /3218 11178 21225 30072 40289 53011 60001 333 11125 21184 70000
AAXX 07184 71363 17/// /0343 11133 21147 39731 49784 53021 60171 7//4/ 333 11113 21259 70228
AAXX 07184 71364 16/// /1206 11231 21263 30176 40317 57017 60001 333 11224 21263 70000 555 10010
AAXX 07184 71365 16/// /2904 11235 21256 30130 40355 50005 60001 333 11132 21240 70000
AAXX 07184 71373 16/// /2802 10004 21004 60001 333 10004 21005 70012
AAXX 07184 71381 46/// /1208 11014 21036 6///1 333 7////
AAXX 07184 71885 16/// ///// 11041 60001 333 11040 70000
AAXX 07184 71450 16/// /3018 11060 21129 39503 40239 53004 60001 333 11029 21100 70000
AAXX 07184 71452 46/// /3113 11050 21083 39501 40227 51012 6///1 333 11028 21071 7////
AAXX 07184 71456 16/// /2815 11101 21135 39579 40192 58010 60001 333 11060 21146 70000
AAXX 07184 71465 46/// /3006 10007 21054 39914 40132 58024 6///1 333 10009 21004 7////
AAXX 07184 71470 17/// /3231 11231 21255 39474 40121 51023 60031 7//4/ 333 11224 21243 70041
AAXX 07184 71476 16/// /0611 30342 51004 60001 333 70000
AAXX 07184 71480 17/// /1104 11271 21298 30228 40358 58005 69931 7//4/ 333 11197 21331 70003
AAXX 07184 71484 16/// /0703 10031 21021 30325 40344 53003 60001 333 10049 20019 70000
AAXX 07184 71487 16/// /2811 11057 21098 39354 40241 50008 60001 333 11024 21079 70000
AAXX 07184 71492 46/// ///09 11279 21306 39541 40278 51007 6///1 333 11267 21280 7//// 555 10150
AAXX 07184 71300 17/// /3503 11005 21020 39990 40113 58022 69931 7//4/ 333 10002 21009 70003
AAXX 07184 71309 17/// /2606 11043 21068 30022 40034 58002 69971 7//4/ 333 11042 21170 70007 555 10020
AAXX 07184 71311 16/// /0107 10048 20041 30084 40108 55010 60001 333 10052 20040 70165
AAXX 07184 71317 16/// /0103 10062 20057 30045 40091 56025 60001 333 10063 20053 70053
AAXX 07184 71319 16/// /0000 11037 21038 39231 40100 58025 60001 333 11037 21074 70005
AAXX 07184 71321 16/// /1621 11063 21106 39913 49956 56016 60001 333 11056 21220 70000
AAXX 07184 71332 16/// /3534 11204 21225 30157 40187 52015 60001 333 11193 21210 70007 555 10800
AAXX 07184 71087 46/// /2909 11190 21235 30102 40317 53013 6///1 333 11128 21190 7////
AAXX 07184 71155 16/// ///// 11086 21152 60001 333 11034 21091 70000 555 10010
AAXX 07184 71156 16/// /2903 11100 21158 39198 40337 53009 60001 333 11057 21101 70000
AAXX 07184 71157 46/// ///// 11082 21148 6///1 333 11034 21089 7////
AAXX 07184 71158 16/// /2918 11086 21143 39841 40121 50002 60001 333 11036 21104 70003
AAXX 07184 71159 16/// /0810 10008 21012 30037 40109 58040 60001 333 10021 20006 70031
AAXX 07184 71160 16/// /3134 11181 21202 39895 40116 52014 60001 333 11177 21197 70000
AAXX 07184 71164 46/// /1003 11321 21355 30280 40368 56011 6///1 333 11245 21330 7////
AAXX 07184 71165 46/// ///13 11211 21251 39980 40278 53020 6///1 333 11181 21217 7////
AAXX 07184 71166 46/// /2405 39712 52002 6///1 333 7////
AAXX 07184 71170 16/// /3018 11056 21123 60001 333 11051 21112 70000
AAXX 07184 71196 16/// /1103 11013 21064 39918 40118 58027 60001 333 11013 21042 70000
AAXX 07184 71721 16/// /3105 11027 21075 39870 40118 56022 60001 333 11020 21042 70000
AAXX 07184 71724 17/// /0204 11003 21020 30100 40108 58036 60011 7//4/ 333 11001 21010 70010
AAXX 07184 71736 46/// ///// 11054 21066 6///1 333 11015 21092 7//// 555 10010
AAXX 07184 71742 46/// /0613 11010 21011 39981 40169 56026 6///1 333 11001 21013 7////
AAXX 07184 71667 16/// /3015 11023 21113 39855 40103 50003 60001 333 11022 21091 70000
AAXX 07184 71669 17/// /0402 11067 21081 38629 40294 51024 69941 7//4/ 333 11042 7////
AAXX 07184 71671 17/// /0203 10066 20066 30029 40089 56019 69931 7//4/ 333 10069 20055 70054
AAXX 07184 71402 46/// /0619 11018 21027 30062 40178 56018 6///1 333 11007 21018 7////
AAXX 07184 71407 16/// /0730 11071 21081 39700 49720 52015 60001 333 11071 21146 70003
AAXX 07184 71429 16/// /0213 11021 21039 30124 40143 56013 60001 333 11008 21025 70020
AAXX 07184 71750 16/// /3303 11032 21071 39841 40076 50002 60001 333 11007 21120 70007 555 10010
AAXX 07184 71752 16/// /3302 10017 21026 39905 40123 58021 60001 333 10018 20002 70000
AAXX 07184 71771 46/// /2904 10045 21030 30330 40351 51004 6///1 333 10048 20033 7////
AAXX 07184 85293 31584 60612 10161 20067 36342 57014 71522 84904 333 56600 58006 83620 81923
AAXX 07181 48823 11497 83402 10186 20183 30169 40172 51005 60031 76066 8772/ 333 58008 87894 88499 96160
AAXX 07181 48803 32497 80000 10211 20194 30061 40175 51005 888// 333 59004 83894 88696
AAXX 07181 56778 32565 52201 10088 20080 38145 52002 85800 333 00152 10200
AAXX 07181 58150 11350 83407 10077 20058 30274 40278 52014 60031 76066 8772/ 333 10109
AAXX 07181 58251 11340 83408 10087 20073 30257 40262 52003 60031 76066 8772/ 333 10107
AAXX 07181 58606 11456 80202 10075 20069 30227 40287 52009 60021 76066 885// 333 10110
AAXX 07181 58752 32676 83203 10175 20126 30154 40199 52007 885// 333 10188
AAXX 07181 58847 32666 82001 10191 20169 30087 40187 52004 885// 333 10243
AAXX 07181 59134 32660 80901 10195 20169 30016 40180 57002 885// 333 10274
AAXX 07181 59758 32464 70704 10209 20185 30085 40161 57006 878// 333 10229
AAXX 07181 52533 32980 02002 11115 21144 38657 40449 57014 333 05151 11040
AAXX 07181 52652 32980 02002 11128 21128 38669 40442 57014 333 05152 11026
AAXX 07181 52983 11965 82901 11054 21081 38225 57005 69901 70070 8802/ 333 00100 11032
AAXX 07181 53588 32465 53406 11187 21223 37826 57006 85100 333 11070
AAXX 07181 53772 32960 02703 11040 21165 39441 40405 57002 333 10028
AAXX 07181 53915 32980 02903 11055 21089 38818 40433 57003 333 00254 10004
AAXX 07181 54337 32960 03604 11095 21180 30289 40377 52007 333 11009
AAXX 07181 54342 32965 03603 11121 21175 30293 40359 52007 333 11027
AAXX 07181 54511 32980 03406 11037 21192 30342 40384 52006 333 10051
AAXX 07181 56080 11970 83602 11084 21114 37199 57005 69921 77070 8807/ 333 00051 11019
AAXX 07181 56096 32775 70401 10042 21064 39078 40346 57010 875// 333 00251 10093
AAXX 07181 57083 31930 70201 10035 21001 30230 40371 52005 71000 83032 333 10089
AAXX 07181 57265 32960 22902 10062 20007 30235 40349 52007 80001 333 10100
AAXX 07181 57494 32968 70203 10066 20054 30289 40320 52001 8704/ 333 10068
AAXX 07181 58221 11420 83403 10061 20049 30283 40312 52010 69961 76066 8372/ 333 10077
AAXX 07181 58238 11440 83204 10077 20062 30238 40283 52013 60031 76066 8372/ 333 10116
AAXX 07181 58362 11568 83203 10117 20096 30231 40239 52003 60051 76066 8572/ 333 10139
AAXX 07181 59431 11457 80202 10137 20123 30082 40229 52008 60011 76060 887// 333 10175
AAXX 07181 51076 32980 00701 11169 21212 39511 40469 57004 333 05305 11058
AAXX 07181 51243 32970 03202 11101 21130 39859 40455 57006 333 05254 11052
AAXX 07181 51288 32980 00903 11110 21228 38455 57004 333 05104 11047
AAXX 07181 51463 32765 70902 11097 21112 39273 40452 57003 83502 333 05253 11064
AAXX 07181 51573 32975 01101 11020 21105 30382 40428 57004 333 00100 10039
AAXX 07181 51709 11865 62902 11071 21093 38878 40442 57002 69901 72270 83502 333 00156 11008
AAXX 07181 54401 32965 62502 11124 21214 39524 40451 52002 80002 333 10007
AAXX 07184 04211 45/82 /0713 11121 21145 39950 40116 52009 333 11110 21136
AAXX 07184 04220 07884 70810 11107 21136 30051 40105 52001 69902 70087 333 11102 21123 55300 20004 6///7 87/59
AAXX 07184 04221 45/84 /0810 11133 21231 30075 40114 57001 333 11117 21150 91131
AAXX 07184 04231 12984 30709 11188 21217 30034 40112 52001 69932 83500 333 11128 21188 83656
AAXX 07184 04234 47560 70814 11060 21119 30073 40083 52007 78587 333 11056 21103 87/26 87/56
AAXX 07184 04241 47411 80708 11071 21081 30071 40112 52018 77477 333 11069 21085 81/15 83/23 85/29 88/29 91219
AAXX 07184 04250 07/09 91716 11059 21066 30007 40115 52012 60122 77287 333 11053 21071 55300 20011 60067 89/03
AAXX 07184 04254 47/05 91913 11063 21083 30011 40129 52013 77377 333 11044 21073 89/06
AAXX 07184 04260 45584 41403 11083 21219 30102 40147 52011 333 11071 21116 82/24 84/46
AAXX 07184 04270 45/62 /0605 11119 21235 30088 40129 52019 333 11084 21150
AAXX 07184 04272 25/84 0//// 11098 21151 30046 40122 52017 333 6///7
AAXX 07184 04312 46/// /2309 11273 21323 30062 40105 52015
AAXX 07184 04320 45984 72708 11220 21308 30090 40106 52016 333 10029 21321 85/62 87/64
AAXX 07184 04339 45/84 ///// 11212 21317 30008 40105 52020 333 11195 21235 55300 20000
AAXX 07184 04360 06/// /2607 11161 21254 39985 40060 52013 6///2 333 11139 21172 55300 20000 6///7
AAXX 07184 04361 467// 12602 11170 21270 30008 40064 52014 333 11144 21182 81///
AAXX 07184 04390 05/84 02708 11065 21183 39996 40092 52018 6///2 333 11041 21077 6///7
AAXX 07181 40706 11950 00603 11040 21087 38694 40299 50004 60001 70500 333 55087 21032
AAXX 07181 40718 12960 01502 10082 20073 30255 40226 51003 60001 333 55069
AAXX 07181 40732 12560 42402 10086 20059 30240 40215 50007 60001 84500 333 55046 84630
AAXX 07181 40745 11940 01203 10006 21021 39080 40265 53014 60001 71000 333 55062 21097
AAXX 07181 40754 12960 02502 10034 21025 38868 40247 52007 60001 333 55075
AAXX 07181 40766 12960 00000 10004 21097 38737 40268 52005 60001 333 55093 20126
AAXX 07181 40800 12960 00000 10010 21032 38484 40249 52013 60001 333 55073 2////
AAXX 07181 40811 12960 03102 10132 20027 30172 40200 51007 60001 333 55095 21304
AAXX 07181 40841 12965 00000 10012 21100 38284 40249 52018 60001 333 55098 21535
AAXX 07181 40848 12960 00000 10028 21024 38547 40224 51015 60001 333 55088 21506
AAXX 07181 40856 12965 00000 11016 21118 38657 40230 50002 60001 333 55097 21456
AAXX 07181 40875 12962 03003 10135 20014 30157 40168 51010 60001 333 55085 20714
AAXX 07181 37279 32894 70901 10112 20032 30023 40164 58008 87050 333 10196
AAXX 07181 37531 329// 00000 11082 21092 39502 40272 52008 333 10035 47006
AAXX 07181 37553 329// 01801 11015 21059 39549 40217 53004 333 10098
AAXX 07181 37651 16/// ///00 11016 21044 3//// 4//// 5//// 60002 333 10115
AAXX 07181 37308 NIL
AAXX 07181 37492 NIL
BBXX 44255 07181 99473 70573 46/// /0612 10038 40098 57023 22200 00050 10503 70017 333 912//
AAXX 07184 48372 31556 60000 10239 20226 30052 40110 57005 71022 82536 333 59009
AAXX 07184 48464 31558 80000 10255 20239 30083 40095 57002 71022 85776 333 59001
AAXX 07184 48300 31956 00000 10206 20193 39817 40134 51003 71000 333 58003
AAXX 07181 38396 42997 00502 11078 21092 30203 40337 58002 333 11049
AAXX 07181 50136 32970 00000 11321 21359 39840 40445 52003 333 11180
AAXX 07181 50745 32966 03201 11197 21231 30195 40397 54000 333 11109
AAXX 07181 50774 32960 00000 11268 21291 30036 40374 52006 333 11133
AAXX 07181 50788 32970 02505 11209 21236 30219 40313 54000 333 11126
AAXX 07181 51133 32980 00402 11079 21151 39706 40388 57003 333 05205 10007
AAXX 07181 51431 32968 80201 11068 21083 39525 40365 52004 8802/ 333 05302 11052
AAXX 07181 51747 32970 20000 11137 21189 39085 40449 52004 80002 333 00154 10028
AAXX 07181 52203 32980 03201 11086 21156 39490 40415 57010 333 00001 10029
AAXX 07181 52418 32980 03401 11109 21143 39023 40428 57004 333 00052 10001
AAXX 07181 52681 32980 00702 11095 21185 38790 40447 57012 333 00153 11010
AAXX 07181 53564 32980 00401 11091 21148 39367 40447 57002 333 00659 11006
AAXX 07181 53614 32980 00702 11071 21163 39086 40448 57008 333 00355 11001
AAXX 07181 53646 32970 03401 11118 21163 39017 40449 57002 333 00458 11029
AAXX 07181 53798 32960 50000 10003 21024 30277 40378 52001 85030 333 10032
AAXX 07181 53845 32965 02701 11045 21113 39251 40428 57003 333 00557 10023
AAXX 07181 53959 32970 21403 10005 21095 39947 40404 52003 80002 333 10081
AAXX 07181 54094 32960 00000 11192 21225 30016 40340 52012 333 11073
AAXX 07181 54102 32975 72004 11211 21239 39175 40484 57001 80002 333 11157
AAXX 07181 54161 32960 00203 11175 21223 30048 40365 52007 333 11061
AAXX 07181 54292 11660 73604 11120 21182 39972 40309 52023 69901 77000 82532 333 11037
AAXX 07181 54374 32962 03601 11137 21166 39828 40318 52008 333 11010
AAXX 07181 54423 32980 03203 11109 21205 39856 40401 52007 333 10009
AAXX 07181 54618 32961 53601 11025 21110 30351 40369 52004 80002 333 10051
AAXX 07181 54843 11668 83403 10029 21002 30301 40330 52005 69901 76000 885// 333 10064
AAXX 07181 54909 32961 73603 10021 21006 30289 40355 52011 8703/ 333 10055
AAXX 07181 56029 32980 00000 11085 21139 36471 54000 333 00458 10094
AAXX 07181 57127 32960 80000 10046 20046 39740 40366 52002 8807/ 333 10075
AAXX 07181 57131 32970 70703 10033 21049 39900 40409 52003 8703/ 333 10090
AAXX 07184 48384 31958 20000 10219 20203 39932 40125 55000 71000 80005 333 58001
BBXX 44255 07181 99473 70573 46/// /0612 10038 40098 57023 22200 00050 10503 70017 333 912//
AAXX 07181 40703 12960 00000 11040 21061 38955 40281 51002 60001 333 55062
AAXX 07181 40712 11930 02703 11052 21069 38721 40291 51002 60001 71000 333 55074 21144
AAXX 07181 40729 12960 01103 11040 21096 38369 40269 51006 60001 333 55074
AAXX 07181 40736 12960 00000 10072 20054 30245 40219 50002 60001 333 55083
AAXX 07181 40739 12965 00000 11016 21068 38725 40270 50006 60001 333 55082
AAXX 07181 40743 12965 00202 10008 21018 39113 40264 51004 60001 333 55087
AAXX 07181 40762 12962 03002 11034 21089 38581 40255 53002 60001 333 55086
AAXX 07181 40768 12960 01502 11028 21066 38295 40275 50005 60001 333 55070 21351
AAXX 07181 40769 11958 00000 11004 21057 38329 40262 51008 60001 70500 333 55074 2////
AAXX 07181 40785 12960 00000 10020 21012 39132 40260 52011 60001 333 55088
AAXX 07181 40809 12962 01203 11031 21195 38533 40255 51009 60001 333 55098 21392
AAXX 07181 40821 12960 00000 10018 21048 38835 40269 51008 60001 333 55094 21330
AAXX 07181 40831 12960 02802 10082 21006 30206 40214 52011 60001 333 55093
AAXX 07184 47401 11/70 20312 11042 21149 30127 40142 57004 69901 70281 81202
AAXX 07184 47412 11/60 82605 11024 21097 30115 40148 58009 69901 70282 882//
AAXX 07184 47420 15/70 /2714 11019 21084 30069 40103 58006 60001
AAXX 07184 47426 15/70 /3404 11018 21101 30090 40139 58006 60001
AAXX 07184 47582 11/60 81304 10026 20007 30136 40163 56019 69901 78082 882//
AAXX 07184 47590 12/70 80702 10045 20003 30102 40156 56011 60001 81537
AAXX 07184 47600 17/59 /0706 10065 20042 30151 40159 56017 60061 76160
AAXX 07184 47648 11/65 70113 10118 20083 30101 40135 56013 69901 70262 875//
AAXX 07184 47662 12/60 73304 10087 20023 30093 40138 56021 60001 81232
AAXX 07184 47678 15/70 /2408 10161 20127 39952 40136 56022 60001
AAXX 07184 47740 17/62 /3005 10106 20062 30129 40163 56004 69951 72386
AAXX 07184 47778 15/70 /3303 10136 20053 30065 40148 58016 60001
AAXX 07184 47807 11/60 82302 10103 20086 30174 40192 58006 60021 76166 8457/
AAXX 07184 47827 11/60 83506 10119 20110 30120 40158 56025 60091 78162 8627/
AAXX 07184 47843 17/50 /3606 10109 20095 30154 40187 58010 60051 76165
AAXX 07184 47893 11/60 82903 10107 20086 30164 40170 55009 69901 76162 8117/
AAXX 07184 47909 11/70 81705 10224 20167 30126 40136 58028 69901 72162 8227/
AAXX 07184 47918 12/70 21808 10244 20225 30130 40147 58012 60001 82100
AAXX 07184 47936 11/75 71612 10233 20197 30081 40139 58024 69901 70282 8223/
AAXX 07184 47945 12/70 21407 10222 20184 30134 40158 58012 60001 82230
AAXX 07184 47971 12/75 13103 10169 20144 30161 40171 58009 60001 81100
AAXX 07184 47991 16/// /2108 10249 20206 30127 40137 55000 60001
AAXX 07184 47407 11/65 51406 11061 21088 39963 40143 58005 69951 72681 85200
AAXX 07184 47409 11/60 73515 11023 21056 30064 40119 53008 60021 78511 872//
AAXX 07184 47418 12/80 13010 11037 21095 30079 40130 50002 60001 81200
AAXX 07184 47421 17/70 /3012 11022 21105 30111 40156 58010 60051 72470
AAXX 07184 47430 11/60 73206 11020 21037 30099 40155 56016 69901 78582 872//
AAXX 07184 47570 17/57 /0102 10037 20030 39901 40164 58017 69901 71060
AAXX 07184 47575 11/60 72206 10012 21022 30157 40162 56015 69901 72682 8427/
AAXX 07184 47584 12/65 71204 10011 21034 39960 40154 58014 60001 81102
AAXX 07184 47604 11/58 81502 10060 20039 30156 40165 58017 60031 78088 882//
AAXX 07184 47605 11/58 80708 10081 20066 30101 40142 56020 60041 78022 882//
AAXX 07184 47610 11/65 80903 10050 20032 39647 40154 58016 69901 70282 8127/
AAXX 07184 47624 12/65 71401 10048 20009 30001 40142 56014 60001 875//
AAXX 07184 47629 12/70 83402 10046 20030 30103 40142 58016 60001 885//
AAXX 07184 47636 12/65 70602 10095 20068 30082 40151 55014 60001 86032
AAXX 07184 47651 13/// /3103 10120 20052 30130 40152 55013 60001
AAXX 07184 47655 15/70 /2805 10096 20054 30077 40134 58020 60001
AAXX 07184 47675 17/34 /0803 10098 20094 30042 40133 58014 60001 71000
AAXX 07184 47741 11/50 82506 10095 20083 30145 40173 56007 60031 78088 882//
AAXX 07184 47746 11/65 81106 10093 20074 30146 40165 56011 69951 76186 8177/
AAXX 07184 47750 11/65 82404 10101 20072 30130 40158 55009 69901 78082 882//
AAXX 07184 47765 11/60 80203 10099 20075 30114 40180 56004 60011 76162 8457/
AAXX 07184 47772 12970 83202 10123 20043 30064 40164 55007 60001 8007/
AAXX 07184 47800 17/50 /3503 10088 20077 30198 40203 51003 60011 76186
AAXX 07184 47815 11/58 82001 10101 20080 30171 40187 56006 60021 76122 8657/
AAXX 07184 47817 11360 80403 10104 20088 30136 40180 57019 60031 76162 8277/
AAXX 07184 47830 11/58 83103 10111 20105 30150 40168 56018 60111 76366 8687/
AAXX 07184 47887 11/58 80902 10105 20081 30141 40183 55002 69951 76122 8377/
AAXX 07184 47891 11/60 82606 10114 20069 30155 40172 55010 69901 76022 8802/
AAXX 07184 47895 11970 83106 10113 20065 30157 40165 56015 69901 76122 8802/
AAXX 07184 47927 12/75 21905 10231 20221 30100 40148 58009 60001 82200
AAXX 07184 41315 36/// /3516 10160 21029 39186 42823 333 0E/// 10209 58003
AAXX 07184 08487 02980 00101 10146 20110 30264 40290 53004 60002 333 10193 60007
AAXX 07184 13623 12970 00000 10085 20070 30177 40183 52019 60002 333 10130
AAXX 07181 06447 16/// /2806 10072 21012 39987 40112 51039 60012 333 10093 91121 91211
AAXX 07181 06431 16/// /2908 10082 20005 30093 40105 53035 69992 333 10097 91119 91212
AAXX 07181 08501 12/// /1305 10166 20126 30230 40266 57010 60012 333 10179 91008 91108
AAXX 07181 08505 32475 41206 10172 20122 30216 40266 57013 83802 333 10180 81816 83070
AAXX 07181 08509 11560 51305 10158 20135 30211 40276 57016 69992 72162 83844 333 10166 82820
AAXX 07181 08512 NIL
AAXX 07181 08515 11475 71008 10162 20145 30140 40263 57011 69912 72552 878// 222// 333 10180 83818 81820 85630 910// 911//
AAXX 07181 08533 32/// /0102 10111 20096 30262 40292 54000 333 10184
AAXX 07181 08541 32/// /1201 10133 20085 30176 40296 52003 333 10163
AAXX 07181 08545 31562 43302 10124 20094 30228 40313 52002 70122 84500 333 10167 84632
AAXX 07181 08548 12/// /0102 10121 20097 30100 40307 52002 69912 333 10148
AAXX 07181 08554 32965 23102 10135 20106 30283 40293 54000 80002 333 10164 82080
AAXX 07181 08558 12/// /0802 10077 20073 30001 40302 52004 69912 333 10140
AAXX 07181 08560 31975 23303 10089 20067 39544 40313 53004 70200 80002 333 10147 82099
AAXX 07181 08567 32/// /1101 10084 20071 39643 40318 52006 333 10133
AAXX 07181 08570 31975 11203 10089 20068 39841 40308 53002 70200 80001 333 10151 81099
AAXX 07181 08575 32/// /9902 10098 20057 39486 40304 52006 333 10129 91106
AAXX 07181 08579 NIL
AAXX 07181 40716 12960 00000 11008 21065 38957 40276 51013 60001 333 55074
AAXX 07181 40719 11920 00000 10044 20039 30230 40220 58001 60001 71000 333 55071
AAXX 07181 40721 12960 01502 10036 21019 39680 40239 53003 60001 333 55089
AAXX 07181 40858 12960 00000 10154 20078 30186 40197 51012 60001 333 55090
AAXX 07181 40872 12960 03106 10186 20071 30171 40176 52028 60001 222// 00/// 20301 333 55096
AAXX 07181 40877 12960 00000 10086 21039 39610 40164 52008 60001 333 55098
AAXX 07181 40898 12960 03002 10214 20090 30148 40157 50012 60001 222// 00253 10500 333 55094
AAXX 07180 44214 32998 43503 11168 21277 38415 40352 52005 84040
AAXX 07180 44231 319// 00000 11261 21311 38876 40624 52004 70400
AAXX 07180 44259 41997 72902 11173 21198 39474 40452 51007 70272 83074
AAXX 07180 44277 326// 71804 11193 21234 37903 40593 53001 82554
AAXX 07180 44288 32899 52901 11165 21245 38270 40525 57004 85040
AAXX 07180 44292 329// 50802 11246 21270 38848 40568 58003 80006
AAXX 07180 44304 329// 00000 11298 21328 39151 40562 52003
AAXX 07180 44354 329// 00000 11251 21275 39266 40531 53003
AAXX 07180 44373 32999 22303 11186 21260 38666 40516 56012 80001
AAXX 07180 44203 329// 20000 11319 21343 38567 40685 52005 80001
AAXX 07180 44207 329// 10000 11268 21307 38440 40592 52003 80004
AAXX 07180 44212 415// 80000 11152 21172 39329 40554 52001 70272 8471/
AAXX 07180 44213 41999 50000 11245 21265 38978 40635 52006 70272 85070
AAXX 07180 44215 32698 72702 11185 21211 38571 40558 52019 87500
AAXX 07180 44218 329// 70000 11165 21191 38772 40542 52011 87070
AAXX 07180 44225 NIL
AAXX 07180 44230 329// 40103 11238 21269 38952 40605 52005 80008
AAXX 07180 44232 329// 60000 11284 21313 39293 40587 52008 86070 555 99601
AAXX 07180 44237 32999 12302 11245 21285 38518 40569 58004 81040
AAXX 07180 44239 329// 71701 11215 21263 38943 40517 51003 87010 555 99602 99905
AAXX 07180 44241 329// 40000 11278 21303 39446 40564 52005 84080
AAXX 07180 44256 32999 62703 11186 21205 39505 40432 50004 86010
AAXX 07180 44265 329// 20000 11243 21275 38995 40566 58001 80004
AAXX 07180 44272 419// 10000 11227 21259 38349 40561 52001 77672 80008
AAXX 07180 44275 329// 60000 11199 21225 37808 40510 57008 80008
AAXX 07180 44282 32999 32703 11146 21225 38413 40486 52004 80007
AAXX 07180 44284 328// 71801 11257 21283 37945 40649 57007 87010
AAXX 07180 44285 32899 21501 11281 21317 38441 40623 54000 82040
AAXX 07180 44287 328// 60103 11213 21261 38224 40581 57009 86050
AAXX 07180 44294 329// 00103 11268 21291 38629 40597 57004
AAXX 07180 44298 329// 03604 11254 21254 38850 40535 54000
AAXX 07180 44302 329// 62905 11254 21285 39279 4//// 51003 86050
AAXX 07180 44305 32999 82903 11245 21272 39199 40493 58002 8807/
AAXX 07180 44313 32999 30000 11271 21301 39521 40467 52008 83040
AAXX 07180 44314 41998 53202 11192 2//// 39284 40470 52007 70272 83077
AAXX 07180 44317 419// 83207 11196 21229 39062 40472 57002 70272 8801/
AAXX 07180 44336 329// 00000 11275 21299 38834 4//// 57009
AAXX 07180 44341 329// 00000 11223 21256 38738 40564 58004
AAXX 07180 44347 32999 00000 11222 21247 38852 40531 56014
AAXX 07180 44352 32999 00000 11251 21275 39058 40516 54000
AAXX 07180 44358 329// 00000 11244 21256 39249 40539 50002
AAXX 07184 66160 35560 62309 10260 20217 40086 83101 333 10302 59001
AAXX 07184 86330 32598 41004 10330 20155 40090 57016 84205
AAXX 07184 86360 32597 22210 10319 20110 40110 58013 81105
AAXX 07184 86460 32998 11810 10300 20054 40125 58009 80004
AAXX 07184 86490 32998 11519 10320 20061 40130 58016 81100
AAXX 07183 86530 32998 11916 10300 20084 40125 57016 80005 86545 32997 01812 10276 20131 40140 57009
AAXX 07181 48887 11597 70709 10254 20239 30092 40098 50002 69921 78082 879// 333 59003 82995 85697 91116 9150 7 96161
AAXX 07181 48920 11495 81402 10263 20252 30072 40075 58013 60051 78182 889// 333 59010 83894 88995 96165
AAXX 07181 48870 11498 73603 10256 20240 30101 40108 58011 60021 70262 878// 333 59010 83894 87697
AAXX 07181 48877 32598 73603 10258 20216 30096 40101 57013 878// 333 59007 83895 87697
AAXX 07181 48900 32497 41004 10260 20210 30080 40090 57015 84800 333 59015 81894 84696
AAXX 07181 48917 11598 60000 10248 20236 30081 40087 57009 60051 72582 869// 222// 00282 333 59001 87895 8699 5
AAXX 07181 48918 32498 70501 10264 20238 30087 40098 58005 85208 222// 00283 2//// 333 59003 82894 83895 8629 9
AAXX 07181 48914 32598 70501 10254 20244 30090 40092 58007 82208 333 59002 82895 87299
AAXX 07181 48892 11498 80202 10252 20246 30071 40076 58005 60071 72582 889// 333 59017 81894 82995 86697
AAXX 07180 44210 32999 20000 11206 21218 38675 51008 82070
AAXX 07180 44216 41599 70000 11171 21197 39195 40568 54000 77072 84570
AAXX 07180 44217 32998 00000 11207 21240 37969 40591 53004
AAXX 07180 44219 NIL
AAXX 07180 44221 NIL
AAXX 07180 44224 419// 00000 11233 21245 38188 40405 51005 70171
AAXX 07180 44229 32999 23203 11238 21270 38030 40585 53003 82040
AAXX 07180 44242 329// 50000 11276 21302 39512 40557 52004 85040
AAXX 07180 44243 329// 00000 11317 21350 39615 40582 53005
AAXX 07180 44254 329// 02502 11249 21271 39191 40506 51004
AAXX 07180 44257 329// 00000 11312 21357 39133 40567 51003
AAXX 07180 44263 32998 12702 11245 21292 38186 40642 54000 80004
AAXX 07180 44266 329// 30000 11167 21236 37859 40494 58006 83080
AAXX 07180 44286 329// 51602 11243 21285 38777 40555 52004 85070
AAXX 07180 44291 319// 22701 11308 21338 38887 40631 53001 77600 80004 333 96004
AAXX 07180 44325 329// 60000 11178 21204 39009 40525 58005 80007
AAXX 07180 44329 328// 72305 11165 21224 37858 40495 56006 87010
AAXX 07180 44338 32999 70202 11168 21210 38602 40498 57006 80007
AAXX 07180 44348 329// 03205 11192 21204 38813 40474 56006
AAXX 07180 44374 32999 22003 11167 21228 38378 40541 58011 80006
AAXX 07180 44385 32999 02302 11150 21210 39079 40502 58009
AAXX 07180 44386 329// 00000 11231 21255 39213 40524 56006
AAXX 07181 48919 32598 70203 10270 20238 30070 40092 58009 82208 22200 02280 333 59009 82895 87299
AAXX 07181 48916 11598 70902 10252 20240 30043 40090 58001 60081 70382 879// 333 59003 85995
AAXX 07181 28676 329// 02103 11116 21155 30284 40419 52005 333 11075
AAXX 07181 28766 329// 02004 11124 21164 30218 40421 52005 333 11081
AAXX 07181 28867 32998 02302 11160 21187 30145 40442 58003 333 11100
AAXX 07181 28879 329// 01904 11128 21161 30141 40450 52003 333 11058
AAXX 07181 28952 329// 11802 11160 21179 30227 40435 52001 81040 333 11074
AAXX 07181 28966 329// 01601 11190 21213 30151 40464 52009 333 11105
AAXX 07181 29802 319// 02403 11136 21156 30264 40418 53005 71000 333 11075
AAXX 07181 29807 329// 00000 11140 21167 30313 40441 52002 333 11072
AAXX 07181 34691 32998 81607 11014 21036 30264 40251 53002 8807/ 333 10026
AAXX 07181 35067 329// 00601 11235 21264 30155 40465 54000 333 11100
AAXX 07181 35078 329// 00501 11248 21271 30057 40484 58001 333 11144
AAXX 07181 35085 329// 00000 11201 21218 39951 40477 58002 333 11074
AAXX 07181 35108 325// 71805 11099 21136 30243 40291 58004 87500 333 11071
AAXX 07181 35188 319// 03602 11124 21137 39994 40459 58004 70400 333 11076
AAXX 07181 35217 319// 01407 11125 21145 30274 40316 54000 70130 333 11088
AAXX 07181 35229 329// 00000 11170 21182 30093 40391 57006 333 11089
AAXX 07181 35302 329// 51807 11100 21127 30268 40288 57001 80001 333 11071
AAXX 07181 35357 329// 00503 11165 21184 39963 40434 57008 333 11110
AAXX 07181 35394 32998 00603 11115 21132 39718 40438 57006 333 11055
AAXX 07181 35406 329// 01505 11101 21145 30299 40302 52002 333 11070
AAXX 07181 35416 32997 01405 11148 21176 30221 40351 57002 333 11095
AAXX 07181 35426 329// 00902 11164 21185 30079 40395 58001 333 11114
AAXX 07181 35497 329// 00504 11077 21126 39561 40393 57013 333 11055
AAXX 07181 35532 31998 01412 11142 21169 39871 40400 52007 73633 333 11112
AAXX 07181 35671 32998 50403 11130 21153 39941 40400 57011 85040 333 11138
AAXX 07181 35700 32998 01407 11078 21114 30313 40288 58003 333 11035
AAXX 07181 35746 329// 00104 11140 21167 30315 40388 57006 333 11100
AAXX 07181 35796 32997 00406 11115 21164 39923 40384 57001 333 11043
AAXX 07181 35849 32998 00502 11146 21173 30280 40373 58007 333 11080
AAXX 07181 35925 319// 81405 11101 21114 40347 58001 71011 8802/ 333 11074
AAXX 07181 35953 329// 00503 11138 21158 30228 40367 57009 333 11060
AAXX 07181 35969 329// 20503 11118 21153 30185 40370 57007 82030 333 11041
AAXX 07181 36003 32998 00000 11158 21168 30287 40451 52009 333 11043
AAXX 07181 36152 329// 01402 11174 21216 30255 40461 53005 333 11080
AAXX 07181 36177 329// 01101 11196 21211 30204 40475 57002 333 11133
AAXX 07181 36208 329// 00901 11158 21185 39420 40476 57001 333 11072
AAXX 07181 36397 329// 01802 11156 21200 39857 40464 58004 333 11117
AAXX 07181 36428 329// 03602 11218 21239 39929 40482 57008 333 11127 95090
AAXX 07181 36535 329// 00000 11274 21304 39798 40516 57003 333 11163
AAXX 07181 36639 329// 00000 11225 21265 39748 40416 57004 333 11086
AAXX 07181 36821 315// 70000 11069 21082 39851 40360 58004 71022 87900 333 11053
AAXX 07181 36859 329// 81802 11047 21060 39549 40355 52003 8802/ 333 11032
AAXX 07181 36864 115// 82701 11062 21085 39422 40351 58002 69920 71072 886// 333 11051
AAXX 07181 36870 113// 80000 11062 21070 39296 40347 58004 69900 77777 886// 333 11046
AAXX 07181 38001 32997 30506 10016 21022 30271 40241 54000 83030 333 10047
AAXX 07181 38062 329// 00402 11107 21143 30175 40348 58010 333 11037
AAXX 07181 38069 329// 01801 11103 21123 30140 40344 58007 333 11009
AAXX 07181 38196 NIL
AAXX 07181 38198 NIL
AAXX 07181 38222 32597 80000 11030 21057 39769 40345 58007 885// 333 11020
AAXX 07181 38232 32998 00703 11035 21049 30197 40300 52005 333 10000
AAXX 07181 38328 NIL
AAXX 07181 38334 NIL
AAXX 07181 38341 11996 80000 11068 21073 39517 40339 58016 69900 71071 8807/ 333 11044
AAXX 07181 38343 32697 81601 11072 21101 39467 40350 57005 885// 333 11045
AAXX 07181 38439 NIL
AAXX 07181 28676 329// 02103 11116 21155 30284 40419 52005 333 11075
AAXX 07181 28766 329// 02004 11124 21164 30218 40421 52005 333 11081
AAXX 07181 28867 32998 02302 11160 21187 30145 40442 58003 333 11100
AAXX 07181 28879 329// 01904 11128 21161 30141 40450 52003 333 11058
AAXX 07181 28952 329// 11802 11160 21179 30227 40435 52001 81040 333 11074
AAXX 07181 28966 329// 01601 11190 21213 30151 40464 52009 333 11105
AAXX 07181 29802 319// 02403 11136 21156 30264 40418 53005 71000 333 11075
AAXX 07181 29807 329// 00000 11140 21167 30313 40441 52002 333 11072
AAXX 07181 34691 32998 81607 11014 21036 30264 40251 53002 8807/ 333 10026
AAXX 07181 35067 329// 00601 11235 21264 30155 40465 54000 333 11100
AAXX 07181 35078 329// 00501 11248 21271 30057 40484 58001 333 11144
AAXX 07181 35085 329// 00000 11201 21218 39951 40477 58002 333 11074
AAXX 07181 35108 325// 71805 11099 21136 30243 40291 58004 87500 333 11071
AAXX 07181 35188 319// 03602 11124 21137 39994 40459 58004 70400 333 11076
AAXX 07181 35217 319// 01407 11125 21145 30274 40316 54000 70130 333 11088
AAXX 07181 35229 329// 00000 11170 21182 30093 40391 57006 333 11089
AAXX 07181 35302 329// 51807 11100 21127 30268 40288 57001 80001 333 11071
AAXX 07181 35357 329// 00503 11165 21184 39963 40434 57008 333 11110
AAXX 07181 35394 32998 00603 11115 21132 39718 40438 57006 333 11055
AAXX 07181 35406 329// 01505 11101 21145 30299 40302 52002 333 11070
AAXX 07181 35416 32997 01405 11148 21176 30221 40351 57002 333 11095
AAXX 07181 35426 329// 00902 11164 21185 30079 40395 58001 333 11114
AAXX 07181 35497 329// 00504 11077 21126 39561 40393 57013 333 11055
AAXX 07181 35532 31998 01412 11142 21169 39871 40400 52007 73633 333 11112
AAXX 07181 35671 32998 50403 11130 21153 39941 40400 57011 85040 333 11138
AAXX 07181 35700 32998 01407 11078 21114 30313 40288 58003 333 11035
AAXX 07181 35746 329// 00104 11140 21167 30315 40388 57006 333 11100
AAXX 07181 35796 32997 00406 11115 21164 39923 40384 57001 333 11043
AAXX 07181 35849 32998 00502 11146 21173 30280 40373 58007 333 11080
AAXX 07181 35925 319// 81405 11101 21114 40347 58001 71011 8802/ 333 11074
AAXX 07181 35953 329// 00503 11138 21158 30228 40367 57009 333 11060
AAXX 07181 35969 329// 20503 11118 21153 30185 40370 57007 82030 333 11041
AAXX 07181 36003 32998 00000 11158 21168 30287 40451 52009 333 11043
AAXX 07181 36152 329// 01402 11174 21216 30255 40461 53005 333 11080
AAXX 07181 36177 329// 01101 11196 21211 30204 40475 57002 333 11133
AAXX 07181 36208 329// 00901 11158 21185 39420 40476 57001 333 11072
AAXX 07181 36397 329// 01802 11156 21200 39857 40464 58004 333 11117
AAXX 07181 36428 329// 03602 11218 21239 39929 40482 57008 333 11127 95090
AAXX 07181 36535 329// 00000 11274 21304 39798 40516 57003 333 11163
AAXX 07181 36639 329// 00000 11225 21265 39748 40416 57004 333 11086
AAXX 07181 36821 315// 70000 11069 21082 39851 40360 58004 71022 87900 333 11053
AAXX 07181 36859 329// 81802 11047 21060 39549 40355 52003 8802/ 333 11032
AAXX 07181 36864 115// 82701 11062 21085 39422 40351 58002 69920 71072 886// 333 11051
AAXX 07181 36870 113// 80000 11062 21070 39296 40347 58004 69900 77777 886// 333 11046
AAXX 07181 38001 32997 30506 10016 21022 30271 40241 54000 83030 333 10047
AAXX 07181 38062 329// 00402 11107 21143 30175 40348 58010 333 11037
AAXX 07181 38069 329// 01801 11103 21123 30140 40344 58007 333 11009
AAXX 07181 38196 NIL
AAXX 07181 38198 NIL
AAXX 07181 38222 32597 80000 11030 21057 39769 40345 58007 885// 333 11020
AAXX 07181 38232 32998 00703 11035 21049 30197 40300 52005 333 10000
AAXX 07181 38328 NIL
AAXX 07181 38334 NIL
AAXX 07181 38341 11996 80000 11068 21073 39517 40339 58016 69900 71071 8807/ 333 11044
AAXX 07181 38343 32697 81601 11072 21101 39467 40350 57005 885// 333 11045
AAXX 07181 38439 NIL
AAXX 07181 01271 17/82 02504 11014 21050 39917 49938 53021 60042 700// 333 10014 48010 91108
AAXX 07181 01415 17/71 01601 11023 21040 39934 49945 53034 6//// 700// 333 10006 91109
AAXX 07184 97180 32457 50802 10260 20257 30053 40071 56014 82532 333 56000 81619 85360 85080
BBXX 41037 07181 99340 70775 46/// /2207 10212 40099 91800 22200 00180 333 91208
AAXX 07183 87007 32580 50508 10203 21011 36698 47084 57025 85800 333 56000 83620
AAXX 07183 87148 11558 81405 10232 20229 39990 40097 56011 60041 79592 8697/ 333 56409 57900 85620 81935 88360
AAXX 07184 87022 41456 81808 10212 20200 39586 40086 56015 60081 71552 887// 333 56499 84715 88718
AAXX 07184 87046 11458 81808 10198 20184 39098 48484 57020 69901 75052 8462/ 333 56499 84710 88540 90012 94075 94472 98362 98758
AAXX 07184 87047 11130 80706 10174 20158 38789 48504 57013 60021 75165 887// 333 56199 83703 85710 88620
AAXX 07184 87097 32570 83606 10286 20220 39789 40096 57020 84206 333 56406 57842 83630 81840 86270
AAXX 07184 87121 32665 61406 10282 20183 39602 40106 57020 86100 333 56500 86835
AAXX 07184 87129 NIL
AAXX 07184 87155 32565 82005 10292 20219 30037 40097 56016 86976 333 56576 57900 84630 82956 86360 86270
AAXX 07184 87162 32570 80904 10309 20217 30011 40079 57031 82207 333 56106 57821 82830 88270
AAXX 07184 87166 NIL
AAXX 07184 87178 32670 63206 10320 20201 39936 40078 57031 83270 333 56300 57832 83840 86360
AAXX 07184 87217 42770 60000 10288 20176 39617 40095 57015 84903 333 56700 83856 81957 82070
AAXX 07184 87222 42770 23607 10297 20149 39573 40097 57029 82200 333 56600 57898
AAXX 07184 87257 32565 61407 10322 20162 30012 40112 57017 84182 333 56266 84830 84360
AAXX 07184 87270 31560 71409 10310 20170 30042 40104 57016 70411 81276 333 56276 57801 81825 85360
AAXX 07184 87289 32562 61814 10338 20175 30013 40093 57021 84276 333 56386 57894 84830 85270
AAXX 07184 87311 32665 82005 10283 20121 39438 40102 57012 8317/ 333 56069 83848 85360
AAXX 07184 87320 NIL
AAXX 07184 87328 11658 80506 10225 20170 39494 40139 56007 60011 79592 8697/ 333 56119 57920 83840 83950 88360 95090
AAXX 07181 30372 42999 00000 11336 21359 39524 40530 58003
AAXX 07181 30433 42999 00000 11188 21207 39822 40471 52004
AAXX 07181 30554 429// 00000 11339 21356 39299 40564 58001
AAXX 07181 30635 418// 81403 11173 21199 39848 40469 52003 77172 8802/
AAXX 07181 30673 42999 02001 11296 21307 39603 40476 52001
AAXX 07181 30692 42998 00502 11305 21324 39862 40428 58///
AAXX 07181 30758 41943 00201 11299 21330 39588 40525 52007 70511
AAXX 07181 30802 42999 20000 11232 21244 38842 48590 52004 81031
AAXX 07181 30823 42999 22801 11234 21259 39793 40503 52004 80002
AAXX 07181 30879 42999 00000 11293 21311 39614 40478 52003
AAXX 07181 30935 42999 83002 11172 21191 39482 40498 52006 8807/
AAXX 07181 30949 42999 00000 11275 21287 39293 40528 52012
AAXX 07181 30965 429// 10000 11319 21344 39563 40514 52005 80002
AAXX 07181 31168 42999 80504 11135 21229 30224 40236 57016 80001
AAXX 07181 31300 42984 00000 11215 21227 30050 40367 57006
AAXX 07181 31329 42999 00000 11346 21367 39627 40398 56001
AAXX 07181 31369 41596 62605 11164 21183 30131 40221 57018 78582 83902 333 91010 91110
AAXX 07181 31416 42999 23301 11223 21249 30175 40273 57009 80001
AAXX 07181 31484 42999 00000 11282 21294 39934 40312 58007
AAXX 07181 31512 429// 03301 11191 21240 30183 40366 57007
AAXX 07181 31538 42998 00000 11282 21294 39857 40344 58004
AAXX 07181 31707 42998 22910 11184 21243 30221 40321 57003 80001
AAXX 07181 31735 42997 02303 11202 21232 30185 40282 58005
AAXX 07181 31770 42566 83206 11094 21157 30165 40197 52003 885// 333 91112
AAXX 07181 40701 12960 00000 11040 21094 38630 40294 54000 60001 333 55085
AAXX 07181 40704 12970 02805 11002 21093 38637 40240 51005 60001 333 55091 21144
AAXX 07181 40708 12960 00000 10000 21074 38686 40227 51005 60001 333 55091 21174
AAXX 07181 40710 12980 09901 11092 21140 38354 40327 52009 60001 333 55079
AAXX 07181 40713 11950 01002 11044 21091 38700 40279 50006 60001 70500 333 55087
AAXX 07181 40731 12960 00000 11026 21048 38773 40271 51004 60001 333 55074 21107
AAXX 07181 40740 12960 01003 11120 21134 38755 40295 51007 60001 333 55075
AAXX 07181 40747 12960 00000 11026 21074 38668 40271 52009 60001 333 55077 21103
AAXX 07181 40757 12960 03501 10010 21015 38941 40258 51002 60001 333 55087 21197
AAXX 07181 40763 12965 00000 11006 21029 38957 40261 52006 60001 333 55091
AAXX 07181 40782 12968 01702 10020 21067 38916 40257 51009 60001 333 55083
AAXX 07181 40783 12970 01105 11006 21122 38016 40258 51008 60001 333 55091
AAXX 07181 40789 12962 00000 10034 21026 39255 40260 51008 60001 333 55091 21230
AAXX 07181 40798 12960 00000 11052 21138 37990 40290 52011 60001 333 55090 21444
AAXX 07181 40818 12970 00000 11008 21068 38006 40257 51012 60001 333 55094
AAXX 07181 40827 12965 00000 10020 21101 38878 40284 51010 60001 333 55095
AAXX 07181 40836 12970 00902 10020 21062 38217 40237 52011 60001 333 55095 21499
AAXX 07181 40851 12960 00102 11004 21121 38287 40241 52014 60001 333 55093
AAXX 07181 40853 12960 00000 10016 21096 37750 40183 51004 60001 333 55097
AAXX 07181 40854 12960 02602 10054 21097 38986 40211 50005 60001 333 55086
AAXX 07181 40857 12960 00302 10152 20085 30192 40202 51010 60001 222// 00/// 20301 333 55087
AAXX 07181 40859 12965 00000 10054 21017 38730 40185 53011 60001 333 55097
AAXX 07181 40878 12965 00203 10055 21136 38863 40229 51003 60001 333 55100
AAXX 07181 40879 12960 00602 10097 21174 39509 40201 51010 60001 333 55100
AAXX 07181 40883 11957 03602 10192 20058 30145 40168 51008 60001 70500 333 55065
AAXX 07184 41858 31906 00000 10185 20180 30099 40146 74440 333 58013 70000
AAXX 07184 41863 32950 00000 10180 20170 30096 40141 70500 333 58008 70000
AAXX 07184 41886 31925 00000 10180 20170 30115 40136 71040 333 58010 70000
AAXX 07184 41895 32950 02701 10196 20190 30115 40138 333 58009 70000
AAXX 07184 41909 31945 00000 10178 20170 30114 40126 70540 333 58008 70000
AAXX 07184 41915 31940 00000 10160 20150 30108 40135 70500 333 58008 70000
AAXX 07184 41926 31940 00000 10170 20160 30123 40137 70500 333 58003 70000
AAXX 07184 41929 NIL
AAXX 07184 41933 31940 00000 10192 20180 30123 40132 70500 333 58007 70000
AAXX 07184 41939 31940 00000 10187 20180 40140 70544 333 58003 70000
AAXX 07184 41941 31940 00000 10209 20190 30132 40138 70500 333 58009 70000
AAXX 07184 41946 31940 00000 10190 20180 30133 40138 70500 333 58011 70000
AAXX 07184 41947 31940 00000 10200 20190 30136 40138 70544 333 58016 70000
AAXX 07184 41951 31940 00000 10186 20186 30124 40129 70500 333 58008 70000
AAXX 07184 41953 31940 00000 10200 20190 30127 40132 70500 333 58003 70000
AAXX 07184 41958 31940 00000 10200 20190 30131 40133 70500 333 58012 70000
AAXX 07184 41960 31935 00000 10194 20190 30138 40140 70500 333 58011 70000
AAXX 07184 41963 NIL
AAXX 07184 41964 NIL
AAXX 07184 41965 NIL
AAXX 07184 41966 NIL
AAXX 07184 41984 31940 00000 10193 20180 30104 40126 70500 333 85012 70000
AAXX 07184 41989 NIL
AAXX 07184 41998 NIL
AAXX 07184 82022 32570 51006 10329 20210 39969 40064 83260 333 59008
AAXX 07184 82193 32570 53512 10307 20251 30045 40064 85200 333 59008
AAXX 07184 82281 32570 40417 10320 20180 30003 40064 84200 333 58007
AAXX 07184 82332 32570 61305 10338 20234 39967 40059 83201 333 58001
AAXX 07184 82398 32970 00914 10287 20197 30050 40079 333 59017
AAXX 07184 82400 32470 31212 10275 20225 30026 40090 83100 333 59003
AAXX 07184 82579 32570 41504 10361 20190 39982 40058 81101 333 58008
AAXX 07184 82917 32570 63206 10320 20253 39866 40084 85230 333 59011
AAXX 07184 82965 31560 62904 10309 20232 39729 40053 71511 83201 333 59013
AAXX 07184 82993 32570 21012 10290 20188 39967 40103 82100 333 59001
AAXX 07184 83208 21570 72504 10247 20227 39392 48510 71762 85930 333 59003 60011
AAXX 07184 83349 22570 50605 10283 20223 30116 40122 84201 333 59002 60021
AAXX 07184 83362 21560 73503 10266 20173 39850 40064 79196 85134 333 59002 60051
AAXX 07184 83378 32670 20609 10279 20121 38931 48490 82200 333 59006
AAXX 07184 83460 32570 61013 10258 20212 30066 40122 82230 333 58003
AAXX 07184 83497 NIL
AAXX 07184 83566 32570 61108 10231 20175 39194 48510 84130 333 58003
AAXX 07184 83599 NIL
AAXX 07184 83612 32970 63107 10311 20180 39446 48510 58033 85201
AAXX 07184 83649 21564 70710 10264 20231 30126 40131 56014 71062 855 70 333 60011
AAXX 07184 83650 NIL
AAXX 07184 83780 21350 71712 10213 20190 39224 48510 56011 72162 87500 333 69911
AAXX 07184 83827 32570 73602 10284 20209 39816 40089 56018 84230
AAXX 07184 83840 32970 61110 10247 20183 39103 48510 57019 86200
AAXX 07184 83899 32570 60114 10265 20209 30104 40110 56016 84230
AAXX 07184 83925 NIL
AAXX 07184 83970 NIL
AAXX 07184 83971 32570 51608 10299 20203 30090 40094 56019 84201
AAXX 07184 NIL
AAXX 07184 82392 NIL
AAXX 07184 82583 NIL
AAXX 07184 82594 NIL
AAXX 07184 82683 NIL
AAXX 07184 82780 NIL
AAXX 07184 82789 NIL
AAXX 07184 82795 NIL
AAXX 07184 82879 NIL
AAXX 07184 82893 NIL
AAXX 07184 82979 32498 30905 10339 20128 39616 40054 83100 333 59004
AAXX 07184 82986 32797 60905 10333 20180 39781 40059 86200 333 59011
AAXX 07184 83179 32598 31406 10345 20117 39611 40050 83200 333 58004
AAXX 07184 83192 32597 70904 10298 20140 39941 40105 85320 333 58001
AAXX 07184 83339 32497 31408 10267 20126 39123 40072 82220 333 58002
AAXX 07184 83498 32595 40906 10279 20242 30131 40136 82101 333 58003
AAXX 07184 NIL
AAXX 07184 NIL
AAXX 07181 40701 12960 00000 11040 21094 38630 40294 54000 60001 333 55085
AAXX 07181 40704 12970 02805 11002 21093 38637 40240 51005 60001 333 55091 21144
AAXX 07181 40708 12960 00000 10000 21074 38686 40227 51005 60001 333 55091 21174
AAXX 07181 40710 12980 09901 11092 21140 38354 40327 52009 60001 333 55079
AAXX 07181 40713 11950 01002 11044 21091 38700 40279 50006 60001 70500 333 55087
AAXX 07181 40731 12960 00000 11026 21048 38773 40271 51004 60001 333 55074 21107
AAXX 07181 40740 12960 01003 11120 21134 38755 40295 51007 60001 333 55075
AAXX 07181 40747 12960 00000 11026 21074 38668 40271 52009 60001 333 55077 21103
AAXX 07181 40757 12960 03501 10010 21015 38941 40258 51002 60001 333 55087 21197
AAXX 07181 40763 12965 00000 11006 21029 38957 40261 52006 60001 333 55091
AAXX 07181 40782 12968 01702 10020 21067 38916 40257 51009 60001 333 55083
AAXX 07181 40783 12970 01105 11006 21122 38016 40258 51008 60001 333 55091
AAXX 07181 40789 12962 00000 10034 21026 39255 40260 51008 60001 333 55091 21230
AAXX 07181 40798 12960 00000 11052 21138 37990 40290 52011 60001 333 55090 21444
AAXX 07181 40818 12970 00000 11008 21068 38006 40257 51012 60001 333 55094
AAXX 07181 40827 12965 00000 10020 21101 38878 40284 51010 60001 333 55095
AAXX 07181 40836 12970 00902 10020 21062 38217 40237 52011 60001 333 55095 21499
AAXX 07181 40851 12960 00102 11004 21121 38287 40241 52014 60001 333 55093
AAXX 07181 40853 12960 00000 10016 21096 37750 40183 51004 60001 333 55097
AAXX 07181 40854 12960 02602 10054 21097 38986 40211 50005 60001 333 55086
AAXX 07181 40857 12960 00302 10152 20085 30192 40202 51010 60001 222// 00/// 20301 333 55087
AAXX 07181 40859 12965 00000 10054 21017 38730 40185 53011 60001 333 55097
AAXX 07181 40878 12965 00203 10055 21136 38863 40229 51003 60001 333 55100
AAXX 07181 40879 12960 00602 10097 21174 39509 40201 51010 60001 333 55100
AAXX 07181 40883 11957 03602 10192 20058 30145 40168 51008 60001 70500 333 55065
AAXX 07184 NIL
AAXX 07184 NIL
BBXX C6XC6 07184 99394 10025 419// 02813 10166 2//// 40270 5/000 7//// 8//// 22252 0//// 2//// 3//// 4//// 5//// 6//// 8//// ICE /////
BBXX A8TG2 07184 99325 71486 41898 51216 10180 20146 40200 54000 703// 82262 22224 20204 310// 40204 5//// 80160
BBXX ONAN 07184 99071 51231 41496 41013 10240 2021/ 4//// 54/// 70221 832// 22273 00250 20804 3//// 40803 5//// 6//// 80220 ICE /////
BBXX C6VG7 07184 99184 70771 414// 30607 10280 2//// 40120 5/010 7//11 83/6/ 22200 0//// 20101 3//// 40101 50101 6//// 8//// ICE /////
BBXX WCOB 07184 99260 70751 41496 80821 10270 20228 40175 57015 75052 887// 22263 0//// 20202 308// 40806 5//// 6//// 80240 ICE /////
BBXX C6FY5 07184 99227 50398 41597 70412 10270 2021/ 40140 54/// 78022 8729/ 22213 04250 20201 309// 40704 5//// 6//// 80230 ICE /////
BBXX WFLH 07183 99324 71234 43598 23313 10150 20090 40268 54/// 7//// 82/4/ 22223 00139 20501 303// 41004 5//// 6//// 80117 ICE /////
BBXX KIRH 07183 99226 70706 41898 51113 10300 20256 40129 58015 7//22 852// 22274 00244 20505 308// 40705 5//// 6//// 80267 ICE /////
BBXX PFRO 07184 99319 70490 415// 33218 10220 20153 40150 5/000 7//// 8/56/ 22264 00230 20504 310// 40504 80180
BBXX WCZ5238 07184 99181 51178 41998 31521 10250 20191 40195 52010 70200 8/008 22274 00240 20304 315// 40605 5//// 6//// 80210 ICE /////
BBXX ZCBU2 07183 99201 31741 41298 70109 10260 20246 40073 56010 72522 877// 22264 00280 20101 316// 40403 5//// 80250
BBXX C6UA2 07184 99299 31536 41497 71130 10210 20164 40090 56020 7//11 83/7/ 22284 00250 21005 318// 42003 5//// 6//// 80180 ICE /////
BBXX 44067 07181 99384 70770 46/// /0501 10136 40037 91800
BBXX 41029 07181 99328 70796 46/// /2106 1//// 91800 555 11088 22106
BBXX 45003 07181 99454 70828 46/// /2006 10012 39887 91750 555 11066 22070
BBXX 46111 07181 99481 71227 46/// /2001 10055 40317 53009 91800 22200 00065
BBXX 46112 07181 99481 71227 46/// /2102 10051 40318 53008 91800
AAXX 07181 20107 11597 70109 11030 21054 39754 49849 52008 69902 73632 87500 333 11028 91012 91114
AAXX 07181 22113 12484 71904 11059 21085 39879 49943 52024 69902 87600 333 11048 86712 91009 91111
AAXX 07181 22217 11475 80000 11063 21071 39934 49966 52017 69902 72687 889// 333 11063 86917 91001
AAXX 07181 22235 32682 82202 11027 21034 39769 49963 52016 885// 333 11016 88635 91004
AAXX 07181 22349 11498 62902 11001 21007 39968 49980 52020 60012 70282 86900 333 10014 91004 91110
AAXX 07181 22408 11484 82202 11019 21043 39837 49988 52014 69902 70282 883// 333 11010 88914
AAXX 07181 22602 12372 82202 11038 21046 39771 49998 52018 69942 889// 333 11006 84909
AAXX 07181 22619 32482 72102 11017 21022 39836 49997 52010 87500 333 11003 87613
AAXX 07181 22721 11698 70000 11003 21009 39917 40018 52014 69902 70272 87500 333 10006 87641
AAXX 07181 22802 32584 72101 11005 21014 39993 40016 52017 87500 333 10012
AAXX 07181 22820 32484 71602 11009 21016 39888 40127 52013 69902 86330 333 21003
AAXX 07181 26059 NIL
AAXX 07181 26063 12597 72202 10013 21022 30024 40032 52014 69902 87500 333 10018 87621
AAXX 07181 26094 11460 82003 11004 21013 39976 40053 52015 60032 77172 8802/ 333 10010 88519 93704
AAXX 07181 26157 NIL
AAXX 07181 26167 NIL
AAXX 07181 26258 12598 81903 10013 21001 39982 40038 52013 69902 889// 333 10013
AAXX 07181 26298 12597 71903 11013 21043 39854 40087 52008 69902 87500 333 10003
AAXX 07181 26359 11580 71703 10014 21008 39918 40052 52004 69902 70272 875// 333 10016
AAXX 07181 26702 31996 61601 10002 21025 39970 49996 57010 71022 80001 333 10031 91003 91106
AAXX 07181 26781 11497 72003 11007 21022 39811 40107 52004 69902 70282 875// 333 11004 87612
AAXX 07181 27208 11597 71802 11004 21051 39921 40099 51008 69902 70282 87400 333 10014
AAXX 07181 27402 32697 71902 10003 21034 39932 40114 52010 87500 333 10006 87643
AAXX 07181 22271 NIL
AAXX 07181 22520 11598 82402 11012 21035 39988 49997 52039 69902 70282 885// 333 10000 88629
AAXX 07181 22550 12470 82204 10012 21026 30013 40023 52018 69940 885// 333 10015 88616
AAXX 07181 22583 NIL
AAXX 07181 22768 11597 81903 11005 21042 30025 40082 52014 69900 70282 885// 333 10013 88623
AAXX 07181 22845 NIL
AAXX 07181 22887 32697 71902 11014 21037 30040 40111 52013 83530 333 10005 91104
AAXX 07181 23205 NIL
AAXX 07181 23219 11998 62306 11003 21018 39974 40079 52013 60012 70272 86030 333 10006
AAXX 07181 23418 32670 71805 11003 21041 30039 40113 52016 87500 333 10018 87639
AAXX 07181 23606 32560 81905 11007 21067 39945 40117 52004 885// 333 10008 88628
AAXX 07181 23711 11496 81402 11001 21009 39969 40143 54000 69900 78582 889// 333 10004
AAXX 07181 23804 32997 80000 11014 21022 39978 40128 52005 8805/ 333 10008
AAXX 07181 27037 32698 72003 11017 21038 39942 40106 52012 87500 333 10001 87641
AAXX 07181 27199 11396 81902 10002 21001 39949 40147 52018 60050 77172 8872/ 333 10013 93704
AAXX 07181 27271 31597 72102 11008 21012 39987 40145 52021 70242 87500 333 10008
AAXX 07181 27459 12498 30000 11012 21021 39960 40158 52017 69940 81601 333 10017
AAXX 07181 27730 32997 21601 11031 21045 39962 40161 52010 80001 333 10004
AAXX 07181 26997 31957 31901 11013 21027 39917 40141 57004 71011 80001 333 10022
AAXX 07181 27595 11396 81703 11026 21033 30043 40195 52027 60090 77172 8872/ 333 10002 93402
AAXX 07181 27612 329// 21801 11005 21032 39945 40141 52011 82030 333 10006
AAXX 07181 27707 31856 61802 11013 21024 39840 40139 54000 71011 86070 333 10001
AAXX 07181 27719 32997 01601 11022 21035 39906 40162 51002 333 10023
AAXX 07181 27786 11496 81807 11020 21026 30030 40195 52006 60010 77173 8872/ 333 10018 88712 91112 93400
AAXX 07181 27857 11396 81301 10003 20000 39997 40162 52004 60040 75152 886// 333 10015 88709
AAXX 07181 27906 31996 51403 11023 21029 39908 40155 52003 71011 80001 333 10017
AAXX 07181 27928 31996 31801 11017 21025 39958 40170 52004 71011 80001 333 10013
AAXX 07181 27947 11210 83202 10000 21003 30006 40168 52009 60020 71042 886// 333 10028 88703
AAXX 07181 27962 11396 81604 10004 21002 40167 53005 60120 78387 883// 333 10017 88607
AAXX 07181 27983 11467 81603 11032 21039 30092 40225 51005 69930 72462 886// 333 11016 88710 93402
AAXX 07181 27995 11472 71705 11050 21063 40243 52003 69900 70272 87500 333 11016 88712
AAXX 07181 28506 11996 81902 11028 21041 30110 40226 52013 69980 77273 8802/ 333 10008 91110
AAXX 07181 28704 11396 81809 11046 21055 30133 40233 52002 69940 77173 8802/ 333 11007 88509 91013 91114
AAXX 07181 28711 31397 81807 11065 21085 39874 40264 52002 73632 886// 333 11030 88709 91012 91114
AAXX 07181 28807 11497 81604 11063 21082 30212 40265 51002 69900 70252 885// 333 11016 88611
AAXX 07181 34009 32997 61902 11011 21024 39856 40167 52005 80001 333 10021
AAXX 07181 34110 32997 80000 11020 21026 39893 40178 52006 80001 333 10019
AAXX 07181 34123 12997 63401 11009 21024 39984 40172 52008 69900 86030 333 10017
AAXX 07181 34152 11230 80000 10002 21001 39960 40159 52007 60070 78586 889// 333 10024 86705 93702
AAXX 07181 34163 11498 81603 10008 20005 40179 54000 60030 78088 889// 333 10015 88920
AAXX 07181 34171 11230 81708 10006 20005 39888 40183 53003 60030 76874 8872/ 333 10010 88503 91012 91112
AAXX 07181 34186 31575 81709 11041 21046 30091 40234 52002 70242 885// 333 11023 88620 91013 91114 93407
AAXX 07181 34247 11561 83501 10017 20009 30051 40166 52007 60040 72162 885// 333 10048 88623
AAXX 07181 34336 11498 80102 10025 20017 30060 40164 52008 60030 70282 8632/ 333 10056
AAXX 07181 34391 32997 01606 11045 21058 30215 40247 52001 333 11013
AAXX 07181 35011 32984 81504 11097 21143 40316 52004 80001 333 11065
AAXX 07181 35121 32998 31403 11133 21154 30199 40357 54000 80001 333 11072
AAXX 07181 22028 11582 62805 11056 21090 39898 49936 52029 69902 70271 81542 333 11040 91008 91118
AAXX 07181 22106 12998 70000 11094 21101 39869 49950 52026 69902 87070 333 11064
AAXX 07181 22127 32998 70000 11156 21175 39754 49965 52021 86031 333 11070 91001 93604
AAXX 07181 22324 11425 82504 11006 21009 39920 49969 52023 69922 78682 889// 333 11006 91004
AAXX 07181 22621 12482 82702 11030 21050 39869 40009 52015 69902 885// 333 11002 88616
AAXX 07181 22831 11597 61501 11007 21014 39980 40040 52011 60012 72682 83930 333 10010
AAXX 07181 22892 11997 81805 10011 21006 39997 40013 52010 60022 70282 8807/ 333 10014
AAXX 07181 26275 11497 81503 10006 21011 30028 40059 52004 69992 77071 885// 333 10018 88616
AAXX 07181 26389 11496 81802 11008 21027 39820 40086 52007 69902 78581 889// 333 10000
AAXX 07181 26499 32597 71804 11006 21040 39882 40115 52006 87500 333 10002 87627
AAXX 07181 26695 11397 81803 11002 21016 39815 40127 52001 69902 70372 886// 333 10003 88709
AAXX 07181 26882 11469 72104 11010 21020 39846 40126 52007 69952 70282 87800 333 11003 87614
AAXX 07181 40701 12960 00000 11040 21094 38630 40294 54000 60001 333 55085
AAXX 07181 40704 12970 02805 11002 21093 38637 40240 51005 60001 333 55091 21144
AAXX 07181 40708 12960 00000 10000 21074 38686 40227 51005 60001 333 55091 21174
AAXX 07181 40710 12980 09901 11092 21140 38354 40327 52009 60001 333 55079
AAXX 07181 40713 11950 01002 11044 21091 38700 40279 50006 60001 70500 333 55087
AAXX 07181 40731 12960 00000 11026 21048 38773 40271 51004 60001 333 55074 21107
AAXX 07181 40740 12960 01003 11120 21134 38755 40295 51007 60001 333 55075
AAXX 07181 40747 12960 00000 11026 21074 38668 40271 52009 60001 333 55077 21103
AAXX 07181 40757 12960 03501 10010 21015 38941 40258 51002 60001 333 55087 21197
AAXX 07181 40763 12965 00000 11006 21029 38957 40261 52006 60001 333 55091
AAXX 07181 40782 12968 01702 10020 21067 38916 40257 51009 60001 333 55083
AAXX 07181 40783 12970 01105 11006 21122 38016 40258 51008 60001 333 55091
AAXX 07181 40789 12962 00000 10034 21026 39255 40260 51008 60001 333 55091 21230
AAXX 07181 40798 12960 00000 11052 21138 37990 40290 52011 60001 333 55090 21444
AAXX 07181 40818 12970 00000 11008 21068 38006 40257 51012 60001 333 55094
AAXX 07181 40827 12965 00000 10020 21101 38878 40284 51010 60001 333 55095
AAXX 07181 40836 12970 00902 10020 21062 38217 40237 52011 60001 333 55095 21499
AAXX 07181 40851 12960 00102 11004 21121 38287 40241 52014 60001 333 55093
AAXX 07181 40853 12960 00000 10016 21096 37750 40183 51004 60001 333 55097
AAXX 07181 40854 12960 02602 10054 21097 38986 40211 50005 60001 333 55086
AAXX 07181 40857 12960 00302 10152 20085 30192 40202 51010 60001 222// 00/// 20301 333 55087
AAXX 07181 40859 12965 00000 10054 21017 38730 40185 53011 60001 333 55097
AAXX 07181 40878 12965 00203 10055 21136 38863 40229 51003 60001 333 55100
AAXX 07181 40879 12960 00602 10097 21174 39509 40201 51010 60001 333 55100
AAXX 07181 40883 11957 03602 10192 20058 30145 40168 51008 60001 70500 333 55065
BBXX SLKQ 07181 99193 11209 43/98 20707 10259 40111 58019 22253 00267 2////4////
BBXX DGBE 07183 99463 11547 41/93 81410 11010 21033 40067 57045 77372 8//// 22254 00030 2//// 82018
BBXX 2ALD3 07183 99249 11442 41/98 /0703 10230 20177 40161 58/// 70322 8//// 22284 04210 2//// 80195
BBXX A8IQ2 07180 99103 11108 41/98 80505 10260 20239 40100 54000 70222 8/540 22253 00270 20501 302// 41003 5//// 80245
BBXX A8NO8 07184 99140 11120 41/98 30321 10250 20222 40110 54000 7//11 8/1// 22245 04280 20505 30000 80230
BBXX MGPU2 07184 99338 11610 41297 71626 10200 20200 40052 57090 76022 8677/ 22273 00200 20918 3//// 4//// 5//// 80200
BBXX A8QR9 07181 99058 10815 41697 41822 10270 20250 40100 50/// 70211 83444 22264 204// 80255
BBXX A8EH7 07184 99159 11292 41497 70723 10255 20241 40110 58010 76262 8671/ 22283 00300 20708 30799 41007 5//// 80245
BBXX UCJU 07181 99740 10794 41/98 91508 11107 49993 57007 70222 22200 ICE52092
BBXX 2AKI2 07183 99312 30110 41598 61834 10150 20083 40220 51020 70711 85173 22224 00181 20502 321// 40605 5//// 80116
BBXX WDE8288 07184 99125 10472 41/97 /0716 10270 2021/ 40142 52025 700// 8//// 22225 0//// 20502 308// 40803 5//// 6//// 80230 ICE /////
BBXX A8QJ7 07184 99021 50298 41598 21309 10280 20221 40079 56015 7//00 82200 22253 20502 3//// 4//// 5//// 80240
BBXX MINFR03 0718/ 99297 30312 46/// ///// 10235 40067 52017
BBXX LGWS 07181 99288 70116 43/// /0509 10190 20152 40235 5//// 222/0 04175 1//// 3//// 4//// 5////
BBXX DGZR2 07183 99144 10532 41497 20717 10245 20186 40150 51002 70222 8/1// 22224 00270 20203 80205
BBXX PCIH 07183 99099 50015 41397 71512 10220 20175 40130 53001 70222 22275 00220 20302 313// 40703 80190
BBXX PHQW 07183 99064 70139 41398 81610 10280 20242 40088 53003 7//22 887// 22233 00290 20000 316// 40603 80252 90077
BBXX A8RL3 07181 99253 30546 41191 61010 10230 40130 54000 70311 854// 22213 00280 2//03 3//// 4//04 5////
BBXX A8JS5 07184 99214 70180 41297 70112 10200 40160 40200 56000 70322 84718 22244 04203 20301 336// 40802 5////
BBXX PCDE 07183 99390 30504 41/98 80711 10178 20139 40262 52011 7//22 8//// 22223 2//// 322// 40605 80154
BBXX DDJR2 07184 99239 30532 41498 41316 10255 20218 40060 52020 70200 84266 22254 06260 21005 318// 41004 5//// 80230
BBXX PHPP 07184 99119 10455 41597 30713 10256 20195 40146 52020 702// 83100 22224 00285 2//01 80214
BBXX NWS0029 07184 99194 70294 43/// /0611 10233 20162 40135 5//// 7//// 8//// 222// 04252 2//// 3//// 4//// 5//// 6//// 8//// ICE /////
BBXX 44255 07181 99473 70573 46/// /0612 10038 40098 57023 22200 00050 10503 70017 333 912//
BBXX 3FBC9 07184 99309 71793 41697 50624 10190 40170 54000 70222 85865 9//// 22223 00230 20302 333// 41008 5//// 6//// 80170
BBXX OYYK2 07180 99305 70513 41598 53409 10210 20178 40169 54000 70222 84442 22254 04220 20402 303// 40803 80190
BBXX WGEB 07184 99308 71700 416// 22706 10211 2015/ 40215 52015 7//11 82800 22225 00222 20401 3//// 4//06 5//// 6//// 80172 ICE /////
BBXX 3FQS8 07184 99154 70768 41198 30418 00/// 10274 2026/ 40110 54000 70200 83231 22214 00290 20301 302// 40301 5//// 6//// 80263 /////
BBXX A8CN8 07180 99408 71333 41/98 80515 10105 20086 40335 54000 70222 84723 22235 06125 20201 327// 40404 5//// 80095
BBXX WFLH 07183 99324 71234 43598 23313 10150 20090 40268 54/// 7//// 82/4/ 22223 00139 20501 303// 41004 5//// 6//// 80117 ICE /////
BBXX KIRH 07183 99226 70706 41898 51113 10300 20256 40129 58015 7//22 852// 22274 00244 20505 308// 40705 5//// 6//// 80267 ICE /////
BBXX PFRO 07184 99319 70490 415// 33218 10220 20153 40150 5/000 7//// 8/56/ 22264 00230 20504 310// 40504 80180
BBXX WDB9918 07184 99386 71250 41898 63205 10122 2009/ 40275 54000 70222 862// 22273 00122 2//// 332// 40601 5//// 6//// 80106 ICE /////
BBXX 41037 07181 99340 70775 46/// /2207 10212 40099 58041 91800 22200 00180 333 91208
BBXX 41052 07181 99183 70648 46/// /0806 10277 40103 57018 91800 22200 00281 333 91207
BBXX 42085 07181 99179 70665 46/// /1108 10281 40102 91740 333 91210
BBXX 42085 07181 99179 70665 46/// /1108 10281 40100 91750 333 91209
BBXX 42085 07181 99179 70665 46/// /1108 10283 40099 58024 91800 22200 00285 10402 70008 333 91209
BBXX 41052 07181 99183 70648 46/// /0806 10278 40104 91750 333 91207
BBXX 41052 07181 99183 70648 46/// /0806 10278 40105 91740 333 91207
BBXX 44150 07181 99425 70640 46/// /2405 10116 40119 57017 22200 00106 10803 70014 333 91205
BBXX 41053 07181 99185 70661 46/// /0606 10275 40111 91740 333 91208
BBXX 41053 07181 99185 70661 46/// /0706 10275 40110 91750 333 91208
BBXX 44139 07181 99442 70571 46/// /2110 10108 40143 57026 22200 00082 10504 70018 333 91213
BBXX 41053 07181 99185 70661 46/// /0606 10275 40110 57019 91800 22200 00282 11104 70019 333 91207
BBXX 42067 07181 99300 70886 46/// ///// 10064 20041 40235 91740 22200 00189 10502 70010
BBXX A8OF7 07184 99282 70610 41498 40713 10250 20161 40190 56020 70211 82461 22254 04240 20601 309// 41504 5//// 80195
BBXX DDSD2 07183 99098 70788 41597 70310 10300 20231 40105 58035 70311 8618/ 22223 00287 20302 305// 40403 5//// 80250
BBXX 4XFV 07183 99494 71443 43/98 91920 10080 00/// 20070 40330 56010 7022/ 89/// 22274 0//// 20704 432// 40806 5//// 6//// 8////
BBXX SHIP 07184 99318 71586 41497 83606 10180 20148 40200 54000 7//22 8824/ 22223 00210 20804 307// 4//// 50401 6//// 80160 ICE /////
BBXX SHIP 07184 99375 71447 41498 70812 10165 20123 40281 52010 70222 86550 91755 22223 00185 20402 309// 40804 80140
BBXX OXBB2 07181 99130 70752 41798 50617 10280 20224 40090 57/// 70122 85104 22215 00280 20103 80240
BBXX WCOB 07184 99260 70751 41496 80821 10270 20228 40175 57015 75052 887// 22263 0//// 20202 308// 40806 5//// 6//// 80240 ICE /////
BBXX PHCQ 07183 99390 70495 41298 80705 10220 20166 40162 56005 70252 87770 22264 04208 20402 324// 41203 5//// 80185
BBXX A8PX5 07184 99544 71744 41/97 /1533 10050 20028 49810 54000 70211 8//5/ 22264 04040 20906 3//// 4//// 5//// 80040
BBXX WDE9193 07183 99268 70898 41697 53424 10150 2008/ 40228 57009 70122 82270 22232 0//// 20503 332// 41208 5//// 6//// 80110 ICE /////
BBXX VQKZ5 07183 99176 70688 41498 50309 10300 20235 40117 57022 70211 83188 22254 02302 20301 303// 40301 5//// 80255
BBXX MGSG6 07183 99539 10003 41598 13047 10060 20009 40053 52040 70100 81100 22281 04128 20407 330// 40508 5//// 80040
BBXX SKOZ 07184 99472 70155 43/97 62316 10120 40260 50001 22253 00139 2//// 4////
BBXX MINUK04 0718/ 99519 10013 46/// ///// 10070 4//// 57066
BBXX PEBT 07183 99390 10235 41597 50124 10130 20105 40140 53012 7//22 855// 22223 02150 20503 334// 40501 5//// 80116
BBXX UANA 07181 99730 10312 41/97 32512 10033 49842 50002 70110 83100 22232 04051 20605
BBXX 62087 07181 99547 10068 46/// /1405 10072 20042 4//// 5//// 22230 00094
BBXX 62023 07183 99514 70079 46/97 /2719 10098 2//// 40202 5//// 22200 10605 70027 555 70050 80003 91129
BBXX SHIP 07183 99407 10275 41497 80326 10090 2005/ 40120 54000 76166 88271 22213 00120 2//// 3//// 4//// 5//// 6//// 80070 ICE /////
BBXX C6XC6 07184 99394 10025 419// 02813 10166 2//// 40270 5/000 7//// 8//// 22252 0//// 2//// 3//// 4//// 5//// 6//// 8//// ICE /////
BBXX LF4H 07184 99596 10022 46/98 10100 10050 20014 49948 52031 8//// 22200 06086 10804 70022 333 91114
BBXX LDGJ 07181 99692 10179 43/// /1704 11033 21062 49939 5//// 222/1 04050 1//// 3//// 4//// 5////
BBXX LMEL 07181 99603 10053 43/// /2101 11021 21032 49946 5//// 222/2 04083 1//// 3//// 4//// 5////
BBXX OWFD2 07181 99321 70153 41298 40910 10200 20193 40260 54000 70211 8371/ 22214 04200 20402 310// 40402 80195
BBXX PJFF 07184 99442 70209 41197 82507 10170 20161 40290 54000 70222 888// 22214 20301 334// 41003 80164
BBXX TFGRS 07184 99663 70182 46/// ///// 22200 10604 70021
BBXX TFGRV 07184 99638 70225 46/// ///// 22200 10805 70023
BBXX TFGSK 07184 99641 70229 46/// ///// 22200 10804 70020
BBXX TFSRT 07184 99633 70203 46/// ///// 22200 10906 70028
BBXX TFSTD 07184 99664 70234 46/// ///// 22200 10606 70032
BBXX TFHFN 07184 99642 70152 46/// ///// 22200 10804 70019
BBXX TFBLK 07184 99657 70248 46/// ///// 22200 10706 70030
BBXX TFKGR 07184 99657 70136 46/// ///// 22200 10705 70026
BBXX TFDRN 07184 99658 70212 46/// ///// 22200 10702 70012
BBXX TFBKF 07184 99635 70202 46/// ///// 22200 10803 70016
BBXX DHEE 07183 99495 70083 41/98 32822 10120 20039 40230 52030 70211 8//// 22253 00130 2//// 80080
BBXX DFRZ 07183 99419 70237 41598 42706 10155 20121 40300 54000 70322 84444 22254 00130 20601 80135
BBXX UCKG 07181 99579 10048 41/98 93410 10060 49958 52046 72122 22213 00100 20303
BBXX TBWUK35 07184 99658 10060 41598 43007 10031 21017 49939 51020 70371 84200 22254 00100 20404 303// 40607 80014
BBXX PGRQ 07184 99364 10181 41598 13422 10179 2//// 40207 52015 70100 81100 22272 00194 20203 327// 40404
BBXX UFJN 07181 99699 10301 41/98 8//// 11040 49928 52020 70021 88/// 22200 0//// 2////
BBXX C6KD8 07183 99429 70246 41/98 82110 10150 20125 40300 56008 70311 8/77/ 22214 02155 20401 334// 41304 5//// 80136
BBXX DGWD2 07183 99501 70019 41/98 /2933 10105 20032 40172 52045 70222 8//// 22263 00130 2//// 80070
BBXX NWS0020 07184 99352 10215 43/// /3131 10176 20107 40179 5//// 7//// 8//// 222// 04191 2//// 3//// 4//// 5//// 6//// 8//// ICE /////
BBXX SBLI 07181 99175 71049 43/98 20503 10264 40154 50001 22274 00276 2//// 4//// NNNN 426621110
BBXX H9UY 07184 99093 70910 41898 20715 00/// 10260 40104 53/// 70200 82141 9//// 22273 04260 20302 323// 40303 5//// 6//// 80240
BBXX A8KX4 07184 99104 70886 41998 10415 10270 20218 40100 57015 70300 81040 22234 04258 20202 30000 80235
BBXX WDF5483 07184 99417 70825 43/98 33012 10011 2//// 40149 5//// 7//// 8//// 22222 0//// 2//01 3//// 4//// 5//// 6//// 8//// ICE /////
BBXX WCZ5238 07184 99181 51178 41998 31521 10250 20191 40195 52010 70200 8/008 22274 00240 20304 315// 40605 5//// 6//// 80210 ICE /////
BBXX DFCW2 07183 99200 50752 41898 61709 10215 20117 40135 54000 70122 85075 22244 04196 20802 319// 41303 5//// 80156
BBXX DDSB2 07183 99172 50760 41398 71614 10225 20203 40150 57010 70322 821/8 22284 20203 318// 40304 80210
BBXX C6FY5 07184 99227 50398 41597 70412 10270 2021/ 40140 54/// 78022 8729/ 22213 04250 20201 309// 40704 5//// 6//// 80230 ICE /////
BBXX DFFA2 07183 99319 50727 41597 72216 10200 20126 40165 58005 70122 8/47/ 22245 00170 20402 323// 40806 5//// 80155
BBXX DFCX2 07183 99008 50936 41998 01409 10238 20197 40132 57013 70200 80000 22274 06200 20401
AAXX 07184 82586 NIL
AAXX 07184 82678 NIL
AAXX 07184 82784 NIL
AAXX 07184 82791 NIL
AAXX 07184 82983 NIL
AAXX 07184 83096 32695 10905 10287 20230 30095 40102 81100 333 59007
AAXX 07184 83186 32598 41805 10317 20157 39544 40067 84200 333 58000
AAXX 07184 83236 NIL
AAXX 07184 83242 32497 61804 10308 20168 39600 40085 86700 333 58005
AAXX 07184 83288 32598 40901 10321 20200 39590 40075 84100 333 59007
AAXX 07184 83344 32498 51403 10245 20195 39146 40110 83238 333 58001
AAXX 07184 NIL
AAXX 07184 82143 NIL
AAXX 07184 82599 32570 31020 10291 20203 30030 40090 83200 333 59002
AAXX 07184 82824 32570 53602 10332 20239 39966 40066 85200 333 59018
AAXX 07184 82899 32570 30910 10284 20194 30090 40102 83200 333 58000
AAXX 07184 83117 NIL
AAXX 07184 83248 32470 31106 10281 20210 30095 40117 83200 333 59002
AAXX 07184 83746 31560 61310 10270 20209 30096 40106 58014 70522 84530
AAXX 07184 70133 11758 81028 11122 21139 30082 40086 56044 69981 738// 91753 333 11122 21261 91034 555 90718
AAXX 07184 70174 32966 23607 11228 21255 39991 40258 58030 91753 333 11222 21344 4/061 555 90718
AAXX 07184 70200 11304 /0925 11050 21056 39964 49968 58045 60041 775// 91753 333 11050 21167 4/041 91032 96038 555 90718
AAXX 07184 70219 11564 81519 10017 21006 39904 49962 57017 69951 761// 91753 333 10022 21005 91026 555 90718
AAXX 07184 70231 11412 /3303 11067 21083 39975 40106 58043 60021 771// 91753 333 11067 21117 4/079 96010 555 90718
AAXX 07184 70261 32764 63603 11128 21156 30021 40202 58037 91753 333 11128 21244 555 90718
AAXX 07184 70267 12966 81020 11117 21156 39723 40234 56037 69901 91753 333 11117 21183 91029 555 90718
AAXX 07184 70271 32766 80000 11161 21183 39693 40329 56014 91753 333 11161 21189 555 90718
AAXX 07184 70273 12666 83305 11044 21072 30162 40222 58047 69901 91753 333 11044 21067 4/025 555 90718
AAXX 07184 70316 11562 81522 10050 20044 39931 49967 50004 69931 761// 91753 333 10067 20039 91028 555 90718
AAXX 07184 70326 11666 81612 10050 20006 30021 40033 53002 69981 761// 91754 333 10050 21032 555 90718
AAXX 07184 70340 11458 80930 10022 20000 30032 40095 55023 69901 771// 91753 333 10039 21043 4/003 91043 96010 555 90718
AAXX 07184 70350 11248 80912 10044 20039 30074 40117 58050 60061 761// 91753 333 10044 21077 96010 555 90718
AAXX 07184 70361 32966 20703 11033 21078 30324 40333 58004 91753 333 11033 21083 555 90718
AAXX 07184 70381 32466 60000 11039 21044 30345 40356 55003 91753 333 11017 21050 555 90718
AAXX 07184 70414 37366 82716 10033 20022 39869 49904 52025 761// 91756 333 10039 20028 555 90718
AAXX 07184 NIL
AAXX 07184 NIL
BBXX C6UA2 07184 99299 31536 41497 71130 10210 20164 40090 56020 7//11 83/7/ 22284 00250 21005 318// 42003 5//// 6//// 80180 ICE /////
BBXX ZCBU2 07183 99201 31741 41298 70109 10260 20246 40073 56010 72522 877// 22264 00280 20101 316// 40403 5//// 80250
BBXX MNDC9 07184 99201 31098 41498 62513 10240 20194 40089 52012 70222 83109 22244 04252 2//02 80210
BBXX YJZC5 07183 99254 31581 41/97 81025 10215 20207 40053 57/// 76362 8//// 22263 299// 312// 40406 80210
BBXX VRWW8 07184 99113 31492 41/98 72809 10280 20253 40047 52010 70202 8//// 22234 00300 2//// 3//// 4//// 5//// 80260
BBXX VRAE2 07184 99021 31413 41/// 83306 10290 20248 40051 56023 75850 8//// 22234 04310 2//// 80260
BBXX C6FS9 07184 99193 31468 46/// /2301 10245 20231 30015 40050 57009 22200 04286 85235
BBXX VNSZ 07184 99381 31449 46/// /0213 10167 20150 30044 40070 57010 22285 04184 85156
BBXX 9HA2479 07184 99225 31661 46/// /1217 10241 20213 30048 40077 57005 22283 04258 85221
BBXX SHIP 07183 99252 31648 41798 60922 10225 20150 40079 56012 70322 84164 22284 00231 21602 80180
BBXX 3ECI3 07184 99322 51768 41497 32017 10190 20156 40101 54000 70111 83242 22253 00200 20402 327// 41004 80170
BBXX C6HS4 07183 99055 30791 41697 23109 10285 20265 40094 5/030 71022 82400 22233 20402 80270
BBXX ZMIQ 07183 99374 31781 41398 71114 10155 20118 40119 53015 70222 877// 22273 20401 399// 40402 80135
BBXX ZCAS2 07183 99122 31214 41598 22104 10285 20219 40040 57/// 70100 81117 22254 00308 20201 322// 40201 80240
BBXX PCAM 07183 99328 31709 41/98 41907 10174 20135 40138 52010 70211 842// 22233 00208 20201 322// 41004 80150
BBXX A8HJ8 07183 99012 11034 41/96 /0407 10267 20247 40089 52009 70200 8//// 22200 20000 30000 80252
BBXX ONAN 07184 99071 51231 41496 41013 10240 2021/ 4//// 54/// 70221 832// 22273 00250 20804 3//// 40803 5//// 6//// 80220 ICE /////
BBXX PCQL 07183 99128 31148 41/98 /2810 10280 20233 40085 56005 70111 8//// 22283 04266 299// 80246
BBXX MGRH9 07183 99346 31683 41498 82112 10169 20095 40140 53004 70322 885// 22223 00167 20303 323// 40906 5//// 80130
BBXX A8KC6 07184 99201 51646 41598 61912 10250 20220 40140 51020 703// 8644/ 22254 04300 20602 321// 40602 5//// 80230 46379 1738071222
BBXX KAOU 07184 99020 10900 43/// /0605 10286 20238 40082 5//// 7//// 8//// 222// 04296 2//// 3//// 4//// 5//// 6//// 8//// ICE /////
BBXX ONAI 07184 99108 70615 41497 70916 10270 2023/ 40090 57030 72121 86272 22263 00290 2//// 3//// 4//// 5//// 6//// 80240 ICE /////
BBXX A8TG2 07184 99325 71486 41898 51216 10180 20146 40200 54000 703// 82262 22224 20204 310// 40204 5//// 80160
BBXX WJBJ 07183 99276 70771 41298 21610 10245 2022/ 40160 57010 70200 82100 22234 00248 20402 309// 40605 5//// 6//// 80230 ICE /////
BBXX MZDL7 07183 99317 71193 41997 00210 10150 20092 40259 56005 70200 80000 22231 00170 20000 399// 40303 5//// 80120
BBXX PDNN 07183 99289 70775 41498 21720 10241 20212 40164 57018 70111 82200 22262 02250 20202 308// 40904 80221 90077
BBXX A8MW6 07184 99253 70432 41597 81709 10220 20175 40150 50020 76286 878// 22214 00280 29901 311// 40304 5//// 80190
BBXX DILE 07183 99148 70769 41298 50810 10290 20220 40105 58010 70222 83162 22214 04280 20302 307// 40303 80240
BBXX PCBT 07183 99262 70448 41298 71516 10238 20199 40149 56032 70222 85718 22254 20502 305// 40904 80211
BBXX DDSC2 07183 99298 70531 41598 60521 10240 20164 40180 57005 70300 84468 22214 00237 20604 336// 40706 80190
BBXX C6KD6 07184 99186 70637 41598 40613 10284 20226 40121 58/// 70011 84400 22254 02290 20804 302// 41204 80244
BBXX DEDI 07184 99243 70814 41598 60706 10240 20196 40185 56005 76062 82522 22263 00281 20201 30000 80210
BBXX C6KD5 07183 99176 70689 41598 20512 10280 20221 40108 57010 70200 81141 22214 02283 21104 305// 40903 5//// 80240
BBXX 46224 07181 99332 71175 46/// ///// 1//// 91736 22200 00155 11501 21001 319// 41501 70005
BBXX 46214 07181 99379 71235 46/// ///// 1//// 91757 22200 00118 11302 20702 330// 41301 70011
BBXX 46219 07181 99332 71199 46/// ///// 1//// 91758 22200 00139 11302 20901 329// 41301 70010
BBXX NWS0009 07184 99212 71580 43/// /0311 10241 20186 40158 5//// 7//// 8//// 222// 04256 2//// 3//// 4//// 5//// 6//// 8//// ICE /////
BBXX NWS0003 07184 99611 71773 43/// /0921 10019 20015 49726 5//// 7//// 8//// 222// 04011 2//// 3//// 4//// 5//// 6//// 8//// ICE /////
BBXX WXJ63 07183 99611 71464 41/96 80603 11053 21084 40309 5//// 770// 8//// 222// 00050 2//// 3//// 4//// 5//// 6//// 8//// ICE /////
BBXX 41038 07181 99341 70777 46/// /2106 10185 40093 58039 91800 22200 00159 333 91207
BBXX 46239 07181 99363 71221 46/// ///// 1//// 91751 22200 00130 11202 20802 331// 41201 70011
BBXX 44022 07181 99409 70737 46/// ///02 10104 20097 40062 58042 91800 22200 00113 333 91203 555 11026 22026
BBXX 51205 07181 99210 71564 46/// ///// 1//// 91748 22200 00244 11204 20803 334// 41202 70021
BBXX 46238 07181 99334 71195 46/// ///// 1//// 91750 22200 00151 11402 20401 324// 41401 70008
AAXX 07181 38598 426// 80912 10030 21002 40316 57006 885// 333 91018
AAXX 07181 38599 31696 80608 10020 21017 39787 40316 58001 71022 8655/ 333 10034 86637
AAXX 07181 38725 429// 00902 11040 21240 48520 58002
AAXX 07181 38734 429// 00910 11073 21175 47060 52003
AAXX 07181 38744 426// 20702 11131 21174 38069 48600 51005 82500
AAXX 07181 38836 329// 00000 11041 21067 39326 40311 54000 333 10071
AAXX 07181 38838 429// 00000 10004 21016 39606 40301 52005
AAXX 07181 38844 429// 01403 11046 21179 48520 52009
AAXX 07181 38846 429// 00404 11087 21137 38553 48520 53007
AAXX 07181 38847 NIL
AAXX 07181 38932 NIL
AAXX 07181 38933 329// 00000 10004 21023 39767 40300 53007 333 10092
AAXX 07181 38944 329// 00000 10000 21021 39655 40205 52001 333 10076
AAXX 07181 38954 329// 00000 11035 21107 37988 48580 52011 333 10043
AAXX 07181 38598 426// 80912 10030 21002 40316 57006 885// 333 91018
AAXX 07181 38599 31696 80608 10020 21017 39787 40316 58001 71022 8655/ 333 10034 86637
AAXX 07181 38725 429// 00902 11040 21240 48520 58002
AAXX 07181 38734 429// 00910 11073 21175 47060 52003
AAXX 07181 38744 426// 20702 11131 21174 38069 48600 51005 82500
AAXX 07181 38836 329// 00000 11041 21067 39326 40311 54000 333 10071
AAXX 07181 38838 429// 00000 10004 21016 39606 40301 52005
AAXX 07181 38844 429// 01403 11046 21179 48520 52009
AAXX 07181 38846 429// 00404 11087 21137 38553 48520 53007
AAXX 07181 38847 NIL
AAXX 07181 38932 NIL
AAXX 07181 38933 329// 00000 10004 21023 39767 40300 53007 333 10092
AAXX 07181 38944 329// 00000 10000 21021 39655 40205 52001 333 10076
AAXX 07181 38954 329// 00000 11035 21107 37988 48580 52011 333 10043
AAXX 07184 17112 11558 70107 10094 20088 30139 40141 52022 60002 76022 84570 333 10129 84630 87359 92416
AAXX 07181 26157 11497 71805 10013 21001 39968 40018 53006 69902 70282 875// 333 10015 87616
AAXX 07184 60351 12560 20000 10140 20116 40287 53009 60002 82230 333 10202 82820 95990
AAXX 07184 60355 12560 41802 10166 20107 40283 53011 60002 84800 333 10203 82830 83840 95990
AAXX 07184 60445 12960 03008 10096 20052 39125 48590 53005 60002 333 10141 95990
AAXX 07184 60468 12960 00000 10100 20047 39331 48581 51006 60002 333 10161 95900
AAXX 07184 60507 12970 10000 10122 20103 40304 54000 60002 80002 333 10194 81073 95990
AAXX 07184 60511 12960 02004 10095 20064 39163 48584 53005 60002 333 10170 95990
AAXX 07184 60535 12970 00000 10090 20048 38940 48597 54000 60002 333 10122 95900
AAXX 07184 60536 12960 00000 10120 20074 39414 48584 53004 60002 333 10192 95990
AAXX 07184 60549 11960 00000 10118 20022 39022 48610 53003 60002 70200 333 10156 95990
AAXX 07184 60550 12960 00000 10095 20065 38774 48606 50000 60002 333 10155 95990
AAXX 07184 60555 12970 00000 10148 20053 40291 51004 60002 333 10210
AAXX 07184 60559 12960 00000 10146 20047 40289 51003 60002 333 10211
AAXX 07184 60581 12960 00000 10160 20089 40288 52004 60002 333 10198
AAXX 07184 60602 12960 10000 10180 20033 40283 53003 60002 81030 333 10207 81360 95990
AAXX 07184 60607 NIL
AAXX 07184 60640 12960 00210 10193 20004 40263 53011 60002 333 10247
AAXX 07184 60690 NIL
AAXX 07184 78526 32566 40510 10283 20222 30099 40119 58020 91756 333 10294 20250 555 90718
AAXX 07184 78543 12566 60311 10283 20222 30035 40114 58019 60021 91753 555 90718
AAXX 07184 60360 12560 12606 10150 20121 40288 53005 60022 81230 333 10188 81826 95990
AAXX 07184 60390 12960 01304 10128 20109 40308 53005 60002 333 10204 95990
AAXX 07184 60402 12560 20000 10130 20115 40300 53013 60002 82200 333 10223 82820 95990
AAXX 07184 60419 12565 10402 10103 20061 40306 53007 60002 81800 333 10165 81830 95990
AAXX 07184 60475 12965 12606 10105 20077 39330 48583 51004 60002 81030 333 10172 81360 95990
AAXX 07184 60490 12970 10404 10144 20112 40289 53002 60002 80001 333 10205 81073 95990
AAXX 07184 60525 12960 03308 10160 20069 40272 54000 60002 333 10210 95900
AAXX 07184 60531 12970 20000 10129 20116 40294 53001 60002 80002 333 10186 82073 95990
AAXX 07184 60566 12960 00000 10156 20056 40303 53001 60002 333 10200
AAXX 07184 60571 12962 40000 10144 20067 39356 48595 53004 60002 80002 333 10190 84073 95990
AAXX 07184 60580 12960 00306 10150 20081 40287 53003 60002 333 10207
AAXX 07184 60590 12960 00104 10160 20083 40300 53006 60002 333 0//00 10206
AAXX 07184 60611 12960 00904 10163 21032 40260 52008 60002 333 10230
AAXX 07184 60620 12958 00214 10228 2//// 40241 53005 60002 333 10270
AAXX 07184 60630 12960 00614 10217 20031 40235 54000 60001 333 10280
AAXX 07184 60656 12958 60814 10213 20013 40238 55001 60002 80002 333 10242 86073
AAXX 07184 60670 NIL
AAXX 07184 60680 12970 01011 10183 21071 38697 48573 53009 60002 333 10228 95990
AAXX 07184 60351 12560 20000 10140 20116 40287 53009 60002 82230 333 10202 82820 95990
AAXX 07184 60355 12560 41802 10166 20107 40283 53011 60002 84800 333 10203 82830 83840 95990
AAXX 07184 60445 12960 03008 10096 20052 39125 48590 53005 60002 333 10141 95990
AAXX 07184 60468 12960 00000 10100 20047 39331 48581 51006 60002 333 10161 95900
AAXX 07184 60507 12970 10000 10122 20103 40304 54000 60002 80002 333 10194 81073 95990
AAXX 07184 60511 12960 02004 10095 20064 39163 48584 53005 60002 333 10170 95990
AAXX 07184 60535 12970 00000 10090 20048 38940 48597 54000 60002 333 10122 95900
AAXX 07184 60536 12960 00000 10120 20074 39414 48584 53004 60002 333 10192 95990
AAXX 07184 60549 11960 00000 10118 20022 39022 48610 53003 60002 70200 333 10156 95990
AAXX 07184 60550 12960 00000 10095 20065 38774 48606 50000 60002 333 10155 95990
AAXX 07184 60555 12970 00000 10148 20053 40291 51004 60002 333 10210
AAXX 07184 60559 12960 00000 10146 20047 40289 51003 60002 333 10211
AAXX 07184 60581 12960 00000 10160 20089 40288 52004 60002 333 10198
AAXX 07184 60602 12960 10000 10180 20033 40283 53003 60002 81030 333 10207 81360 95990
AAXX 07184 60607 NIL
AAXX 07184 60640 12960 00210 10193 20004 40263 53011 60002 333 10247
AAXX 07184 60690 NIL
AAXX 07184 60360 12560 12606 10150 20121 40288 53005 60022 81230 333 10188 81826 95990
AAXX 07184 60390 12960 01304 10128 20109 40308 53005 60002 333 10204 95990
AAXX 07184 60402 12560 20000 10130 20115 40300 53013 60002 82200 333 10223 82820 95990
AAXX 07184 60419 12565 10402 10103 20061 40306 53007 60002 81800 333 10165 81830 95990
AAXX 07184 60475 12965 12606 10105 20077 39330 48583 51004 60002 81030 333 10172 81360 95990
AAXX 07184 60490 12970 10404 10144 20112 40289 53002 60002 80001 333 10205 81073 95990
AAXX 07184 60525 12960 03308 10160 20069 40272 54000 60002 333 10210 95900
AAXX 07184 60531 12970 20000 10129 20116 40294 53001 60002 80002 333 10186 82073 95990
AAXX 07184 60566 12960 00000 10156 20056 40303 53001 60002 333 10200
AAXX 07184 60571 12962 40000 10144 20067 39356 48595 53004 60002 80002 333 10190 84073 95990
AAXX 07184 60580 12960 00306 10150 20081 40287 53003 60002 333 10207
AAXX 07184 60590 12960 00104 10160 20083 40300 53006 60002 333 0//00 10206
AAXX 07184 60611 12960 00904 10163 21032 40260 52008 60002 333 10230
AAXX 07184 60620 12958 00214 10228 2//// 40241 53005 60002 333 10270
AAXX 07184 60630 12960 00614 10217 20031 40235 54000 60001 333 10280
AAXX 07184 60656 12958 60814 10213 20013 40238 55001 60002 80002 333 10242 86073
AAXX 07184 60670 NIL
AAXX 07184 60680 12970 01011 10183 21071 38697 48573 53009 60002 333 10228 95990
AAXX 07184 91943 16/// /1109 10281 20201 30131 40133 51015 60012 333 10282 59017
AAXX 07184 91945 36/// /0908 10283 20206 30145 40150 51010
BBXX 46207 07181 99509 71299 46/// /3204 10070 40349 52005 22200 00085 11004 70018 333 91205
AAXX 07184 91165 32566 60612 10233 20178 30135 40171 53011 91753 555 90718
AAXX 07184 91182 32566 40410 10233 20178 30161 40166 53020 91753 333 10239 20206 555 90718
AAXX 07184 91190 32566 20510 10228 20161 30148 40167 91754 333 10228 91015 555 90718
AAXX 07184 91212 12966 01006 10261 20233 31346 40083 56006 69901 91754 555 90718
AAXX 07184 91285 31448 82703 10200 20180 30154 761// 91759 333 96010 555 90718
BBXX 46207 07181 99509 71299 46/// /3204 10070 40349 52005 22200 00085 11004 70018 333 91205
AAXX 07184 43400 NIL
AAXX 07184 43404 NIL
AAXX 07184 43410 NIL
AAXX 07184 43413 NIL
AAXX 07184 43415 NIL
AAXX 07184 43418 22470 60506 10269 20207 3//// 4//// 82132 333 5//// 60007 82818 84360
AAXX 07184 43421 21460 20000 10234 20219 30004 40106 82100 333 59007 60007 82818
AAXX 07184 43422 NIL
AAXX 07184 43424 22968 00403 10228 20213 30091 40093 333 59005 60007
AAXX 07184 43436 22470 10503 10278 20228 30095 40098 81100 333 59004 60007 81818
AAXX 07184 43441 NIL
AAXX 07184 43444 22970 10000 10201 20189 39571 40103 80001 333 59002 60007 81080
AAXX 07184 43467 22960 00206 10260 20205 30086 40091 333 59005 60007
AAXX 07184 43473 21220 60000 10128 20119 38123 48492 74544 86100 333 59003 60007 86804
AAXX 07184 43475 NIL
AAXX 07184 43476 NIL
AAXX 07184 43479 NIL
AAXX 07184 43486 22470 60000 10248 20230 39993 40087 861// 333 59005 60007 86814
AAXX 07184 43495 22460 7//// 10270 20235 30077 40093 84271 333 59009 60007 84818 87458
AAXX 07184 43497 22472 60906 10260 20215 30070 40086 82231 333 58002 60007 82818 85358
AAXX 07181 48839 32497 80211 10197 20179 30099 40165 54000 888// 222// 00215 2//// 333 58017 85894 88696
AAXX 07181 48826 11595 80000 10187 20185 30037 40175 54000 69971 71062 888// 333 58010 81895 88697
AAXX 07181 48808 11496 80000 10163 20148 39920 40209 52008 69901 76062 888// 333 58020 83894 88696 96010 9616 0
AAXX 07181 48830 11497 83603 10151 20144 39897 40210 51011 69941 76062 8672/ 333 58022 86894 88499 96160
AAXX 07184 86330 32598 41004 10330 20155 40090 57016 84205
AAXX 07184 86360 32597 22210 10319 20110 40110 58013 81105
AAXX 07184 86460 32998 11810 10300 20054 40125 58009 80004
AAXX 07184 86490 32998 11519 10320 20061 40130 58016 81100
AAXX 07183 86530 32998 11916 10300 20084 40125 57016 80005 86545 32997 01812 10276 20131 40140 57009
AAXX 07184 41515 02995 00000 10095 21032 38568 48530 60003 333 58006 60007
AAXX 07184 41560 22696 31803 10025 21038 38286 48519 60003 82320 333 58002 60007
AAXX 07184 41571 119// 00000 10115 20065 39593 40192 60003 70500 333 58022
AAXX 07184 41594 319// 00000 10130 20091 39955 40178 70500 333 58021
AAXX 07184 41685 32993 00000 10095 20029 38925 48500 333 58011
AAXX 07184 41710 02997 00502 10055 21173 39390 40196 60003 333 59016 60007
AAXX 07184 41718 11996 00504 10140 20080 30058 40164 60003 70400 333 58025
AAXX 07184 41739 02996 03606 10090 21022 39054 48498 60003 333 59030 60007
AAXX 07184 41744 32996 00000 10105 21034 38783 48503 333 58006
AAXX 07184 41749 21995 03106 10180 20106 30123 40156 60003 70400 333 58023 60007
AAXX 07184 41506 02995 00000 10050 20001 48548 60003 333 58018 60007
AAXX 07184 41508 22996 00000 10035 21034 48558 60003 333 58016 60007
AAXX 07184 41523 02996 00000 10065 21010 48540 60003 333 56000 58024 60007
AAXX 07184 41535 12997 00000 10060 21016 48508 60003 333 58016
AAXX 07184 41536 NIL
AAXX 07184 41573 12696 33602 10075 20021 48522 69903 83400 333 58018 60007
AAXX 07184 41600 02696 20000 10145 20097 39865 40165 60003 82500 333 58010 60007
AAXX 07184 41630 11996 03604 10145 20117 40175 60003 70400 333 58021
AAXX 07184 41678 11995 00502 10175 20140 40170 60003 70500 333 58027 60007
AAXX 07184 41696 02996 00000 11010 21111 38016 48550 60003 333 58000 60007
AAXX 07184 41697 02996 00000 10133 20062 40173 60003 333 58021 60007
AAXX 07184 41700 11995 00000 10150 20092 40156 60003 70400 333 58025
AAXX 07184 41725 02996 00502 10180 20083 40161 60003 333 58020 60007
AAXX 07184 41746 02996 00000 10160 20114 40174 60003 333 58034 60007
AAXX 07184 41759 12996 00000 10195 20067 30153 40159 60002 333 58000
AAXX 07184 41785 02996 00502 10195 20134 40147 60003 333 58013 60007
AAXX 07184 41529 12995 00000 10094 20063 39812 40204 60003 333 58027
AAXX 07184 41598 11996 30000 10145 20107 39893 40169 60003 70511 83030 333 58018
AAXX 07184 41620 32995 01805 10060 21051 38627 48526 333 59017
AAXX 07184 41624 02995 00502 10130 20068 39971 40177 333 60003 58024 60007
AAXX 07184 41640 01995 00000 10170 20125 39911 40162 60003 70500 333 58019 60007
AAXX 07184 41660 NIL
AAXX 07184 41675 11996 00000 10140 20068 30027 40171 60003 70400 333 58023
AAXX 07184 41712 12996 00502 10045 21100 39233 48518 60003 333 59016
AAXX 07184 41715 01996 00000 10160 20114 30103 40169 60003 70500 333 58022 60007
AAXX 07184 41756 01995 00000 10170 20059 30085 40151 60003 70600 333 59008 60007
AAXX 07184 41764 32996 00206 10190 20096 30091 40141 60003 333 58013 60007
AAXX 07184 41768 02996 03602 10165 20120 30135 40142 60002 333 58013 60007
AAXX 07184 41780 02996 00502 10200 20088 30124 40152 60003 333 58016 60007
AAXX 07184 91245 31458 60910 10250 20250 30117 716// 91755 555 90718
AAXX 07184 40103 32558 10000 10136 20093 40209 50001 81200 333 10195 81824
AAXX 07184 40100 NIL
AAXX 07184 40101 NIL
AAXX 07184 40102 NIL
AAXX 07184 41515 02995 00000 10095 21032 38568 48530 60003 333 58006 60007
AAXX 07184 41560 22696 31803 10025 21038 38286 48519 60003 82320 333 58002 60007
AAXX 07184 41571 119// 00000 10115 20065 39593 40192 60003 70500 333 58022
AAXX 07184 41594 319// 00000 10130 20091 39955 40178 70500 333 58021
AAXX 07184 41685 32993 00000 10095 20029 38925 48500 333 58011
AAXX 07184 41710 02997 00502 10055 21173 39390 40196 60003 333 59016 60007
AAXX 07184 41718 11996 00504 10140 20080 30058 40164 60003 70400 333 58025
AAXX 07184 41739 02996 03606 10090 21022 39054 48498 60003 333 59030 60007
AAXX 07184 41744 32996 00000 10105 21034 38783 48503 333 58006
AAXX 07184 41749 21995 03106 10180 20106 30123 40156 60003 70400 333 58023 60007
AAXX 07181 01311 47/80 /0000 11045 21052 39884 49948 53027 700// 333 11007 91104
AAXX 07181 01494 17/84 03501 11046 21052 39865 49931 53020 69932 700// 333 11009 91105
AAXX 07183 87480 32962 20915 10306 20073 30102 40131 57015 80001 333 56006 82070
AAXX 07183 87532 32670 13605 10324 20125 39958 40123 57012 81100 333 56800 81840
AAXX 07181 34560 31296 81808 10037 20033 30017 40184 52008 71022 886// 333 10050 88703
AAXX 07181 34720 11/93 90202 10056 20052 30106 40146 50002 60080 74564 333 10057
AAXX 07181 34730 11225 81703 10071 20064 30056 40147 54000 60120 78086 8632/ 333 10082 85704
AAXX 07181 34740 11596 81103 10030 20021 30069 40166 58003 69950 78082 889// 333 10045
AAXX 07181 34824 11995 01101 10053 20048 30134 40139 58007 60010 72162 333 10096
AAXX 07181 34858 31596 81703 10036 20020 30074 40183 57003 71022 886// 333 10048
AAXX 07181 34866 32498 81305 10043 20035 30206 40197 54001 8667/ 333 10071
AAXX 07181 34880 31596 81003 10024 20005 30253 40226 58005 71022 8652/ 333 10044 88622
AAXX 07181 37018 32998 61602 10132 21015 30070 40144 58007 80031 333 10134
AAXX 07181 37054 31995 81401 11021 21023 39801 40197 57005 71022 8001/ 333 10002
AAXX 07181 37472 31994 83003 11017 21024 30224 40201 56009 71011 8007/ 333 10090
AAXX 07181 22165 NIL
AAXX 07181 22676 11884 21603 11016 21036 39997 40075 52014 69910 70281 82030 333 10015
AAXX 07181 22837 11459 71703 10001 21013 39974 40044 52013 69900 78582 87900 333 10008 86917
AAXX 07181 22954 11497 81804 11024 21033 39839 40092 52013 69930 78582 889// 333 11008 84710
AAXX 07181 23405 12976 82104 11007 21049 39968 40068 52004 69900 8805/ 333 10005
AAXX 07181 23412 12599 81804 11004 21038 39989 40086 52016 69930 885// 333 10008 88632
AAXX 07181 23803 31597 81502 11002 21008 39952 40133 57002 77172 8802/ 333 10002 88525
AAXX 07181 27066 32998 01701 11046 21049 39955 40137 52017 333 11013
AAXX 07181 27083 11484 82502 11005 21008 39905 40130 52012 69900 70272 885// 333 11005
AAXX 07181 27113 11660 62104 11005 21036 39940 40088 52012 69900 70282 83530 333 10001
AAXX 07181 27242 32598 83002 11014 21037 39997 40127 52019 8396/ 333 10000
AAXX 07181 27329 32981 81902 11010 21032 30007 40134 52014 8805/ 333 10002
AAXX 07181 27355 32997 22302 11024 21027 39983 40151 52023 80002 333 11002
AAXX 07181 27373 11195 82002 10002 20002 39930 40151 52022 60020 71072 886// 333 10009 88703
AAXX 07181 27665 11/93 92501 10002 20002 39895 40168 52013 60040 74722 333 10002
AAXX 07181 27835 31996 61601 11033 21041 30009 40171 52004 71022 80006 333 10013
AAXX 07181 28009 11496 82004 10001 21005 39934 40146 53004 60040 78582 889// 333 10010 93703
AAXX 07181 28411 11496 81912 11033 21047 30022 40221 52008 60020 78583 883// 333 10008 88710 91116
AAXX 07181 28418 11496 81805 11033 21061 30059 40229 53006 69970 78583 889// 333 11008 88914
AAXX 07181 22282 125// 82309 11009 21022 39971 49979 51017 69960 885// 333 11003
AAXX 07181 22438 NIL
AAXX 07181 22471 11484 72106 10007 21010 39985 40009 52015 69900 70282 87500 333 10005 87617
AAXX 07181 22563 11497 82103 10003 21005 39993 40031 52017 60030 72682 889// 333 10007 86912
AAXX 07181 22641 NIL
AAXX 07181 22695 32498 82204 11024 21046 39942 40097 52010 885// 333 10006 88615
AAXX 07181 22867 12598 71802 11013 21036 39973 40087 52016 69900 87500 333 10003 87622 91106
AAXX 07181 22939 11597 71906 11008 21033 39912 40075 52012 69950 70287 875// 333 11002 87629
AAXX 07181 22996 11598 71701 11004 21007 39935 40126 52006 69950 70282 8352/ 333 10004
AAXX 07181 23324 11579 82204 10004 21026 30021 40098 52019 60020 70283 885// 333 10015 88622
AAXX 07181 27008 11598 81804 11006 21037 39906 40078 52016 69930 70282 885// 333 10000
AAXX 07181 27051 32697 71902 11034 21045 39939 40109 52016 82531 333 10003
AAXX 07181 27225 32464 82103 11002 21045 39982 40114 52014 885// 333 10001 88618
AAXX 07181 27252 31996 62002 11060 21068 39947 40139 52018 71022 80001 333 11020
AAXX 07181 27333 32884 82102 11024 21043 39974 40134 52015 8807/ 333 11004
AAXX 07181 27369 11995 32102 11010 21013 30016 40155 52022 69900 71011 83010 333 10013
AAXX 07181 27393 11396 82008 11021 21027 30103 40275 52020 60090 77173 8872/ 333 10005 91114
AAXX 07181 27479 11398 82401 10008 20003 30023 40157 52018 60050 70272 887// 333 10009 88709
AAXX 07181 27532 32997 52102 11013 21036 39934 40151 52015 85030 333 11005
AAXX 07181 27648 31996 02001 11036 21041 39996 40169 52012 71011 333 10003
AAXX 07181 27675 31496 82002 10006 20003 30001 40171 52022 71072 885// 333 10010 88616
AAXX 07181 27679 12498 81703 10004 21002 39943 40169 52015 885// 333 10016 88619
AAXX 07181 28214 11496 82007 11019 21028 39967 40181 52009 60060 73673 8872/ 333 10006 93706
BBXX 3ERR2 07184 99635 10053 41598 52703 10040 21036 49952 52013 70320 851// 22200 06098 11005 70024 333 91117
BBXX LF3F 07184 99643 10078 43/// /3216 10051 21045 49930 52018 22200 04092 10805 70027 333 91124
BBXX LF3N 07184 99653 10073 41597 60221 10027 21010 49926 52022 70222 8//// 22200 00091 10706 70030
BBXX LF4B 07184 99606 10037 47/98 /0504 10037 49950 52024 700// 22200 00054 10804 70019 333 91117
BBXX LF4C 07184 99584 10019 41599 73115 10067 20004 49960 52039 70282 89/// 22200 00077 10805 70027 333 91118
BBXX LF5T 07184 99660 10081 41798 40428 10030 20016 49919 52025 75011 849// 22200 06083 10808 70040 333 91139
AAXX 07184 87344 32560 72912 10259 20150 39596 40131 57009 84970 333 56000 57970 82630 82940 83360
AAXX 07184 87349 32568 70906 10270 20163 39738 40124 57023 83872 333 56120 81830 82630 83360
AAXX 07184 87371 32962 10907 10314 20124 30116 40137 58008 80004 333 56004 81070
AAXX 07184 87374 32965 20910 10314 20023 30034 40120 57016 80005 333 56006 82270
AAXX 07184 87395 32665 21410 10314 20137 30073 40116 57012 82100 333 56300 82835
AAXX 07184 87418 32665 20906 10300 20092 39321 40094 57019 81506 333 56606 81640
AAXX 07184 87436 11665 70203 10205 20177 39332 40138 57013 60061 71796 87900 333 56800 57963 85840 82945
AAXX 07184 87448 32662 70504 10304 20157 39572 40119 57017 85870 333 56770 82635 83840 83360
AAXX 07184 87453 32565 60712 10284 20154 39642 40118 57020 83870 333 56670 82625 83360
AAXX 07184 87467 32970 20911 10315 20075 39986 40117 57021 80001 333 56007 82070
AAXX 07184 87497 32965 01407 10309 20109 30112 40139 57013
AAXX 07184 87506 31570 61415 10264 20086 38580 48506 56015 71791 85903 333 56506 57900 84825 81930 95035
AAXX 07184 87509 32670 30915 10302 20068 39276 40101 57015 83300 333 56600 57952 81940
AAXX 07184 87534 32960 03606 10321 20071 39968 40125 57017
AAXX 07184 87548 32562 31609 10324 20083 30040 40134 58015 83100 333 56300 83820
AAXX 07184 87576 32760 29910 10312 20146 30116 40139 57016 82100 333 56300 82856
AAXX 07184 87582 32960 00911 10254 20186 30140 40147 57013
AAXX 07184 87585 32960 00506 10280 20190 30112 40140 57015
AAXX 07181 01025 17/82 11906 11009 21039 39919 49930 52022 69902 724// 333 10020 91108
AAXX 07184 41529 12995 00000 10094 20063 39812 40204 60003 333 58027
AAXX 07184 41598 11996 30000 10145 20107 39893 40169 60003 70511 83030 333 58018
AAXX 07184 41620 32995 01805 10060 21051 38627 48526 333 59017
AAXX 07184 41624 02995 00502 10130 20068 39971 40177 333 60003 58024 60007
AAXX 07184 41640 01995 00000 10170 20125 39911 40162 60003 70500 333 58019 60007
AAXX 07184 41660 NIL
AAXX 07184 41675 11996 00000 10140 20068 30027 40171 60003 70400 333 58023
AAXX 07184 41712 12996 00502 10045 21100 39233 48518 60003 333 59016
AAXX 07184 41715 01996 00000 10160 20114 30103 40169 60003 70500 333 58022 60007
AAXX 07184 41756 01995 00000 10170 20059 30085 40151 60003 70600 333 59008 60007
AAXX 07184 41764 32996 00206 10190 20096 30091 40141 60003 333 58013 60007
AAXX 07184 41768 02996 03602 10165 20120 30135 40142 60002 333 58013 60007
AAXX 07184 41780 02996 00502 10200 20088 30124 40152 60003 333 58016 60007
AAXX 07181 45032 36/// /3303 10207 20154 30150 40167 57002
AAXX 07181 45035 36/// /3305 10203 20165 30128 40170 57001
AAXX 07181 45039 36/// /3403 10212 20158 30149 40163 57002
AAXX 07181 45044 36/// /0010 10202 20171 30060 40152 57003
AAXX 07181 08521 32465 71103 10193 20133 30193 40264 53002 87800 333 84816 84630
AAXX 07181 08524 32470 71105 10180 20140 30170 40268 57002 86871 333 10196 84815 83630 91009 91110
AAXX 07181 45032 36/// /3303 10207 20154 30150 40167 57002
AAXX 07181 45035 36/// /3305 10203 20165 30128 40170 57001
AAXX 07181 45039 36/// /3403 10212 20158 30149 40163 57002
AAXX 07181 45044 36/// /0010 10202 20171 30060 40152 57003
AAXX 07183 64800 NIL
AAXX 07183 64820 NIL
AAXX 07183 64860 32960 50802 10295 20056 39819 40089 80002 333 10365 58010 85080
AAXX 07183 64861 NIL
AAXX 07183 64870 32960 70402 10210 20055 38905 48497 80002 333 10310 58002 87080
AAXX 07183 64871 NIL
AAXX 07183 64892 NIL
AAXX 07183 64893 NIL
AAXX 07183 64894 NIL
AAXX 07183 64910 32460 52204 10278 20247 30086 40095 85300 333 10333 58004 85616 81920 94945 95835
AAXX 07183 64911 NIL
AAXX 07183 64950 NIL
AAXX 07184 61226 31958 50606 10285 20036 39840 40137 70622 80002 333 10332 58016 85075
AAXX 07184 64700 31958 20408 10263 20049 39770 40111 70600 80002 333 10350 58009 82075
AAXX 07184 64750 32960 53602 10261 20087 39672 40074 80002 333 10353 59002 85075
AAXX 07181 08512 32480 71006 10158 20122 30180 40265 57010 85832 333 10181 82818 84650 85070 91008 91109
AAXX 07184 65501 32960 70000 10391 20027 39806 40121 80002 333 10341 58010 87076
AAXX 07184 65502 31958 70000 10301 20022 39730 40106 70622 80002 333 10343 58009 87076
AAXX 07184 65503 31940 70604 10298 20040 39763 40107 70622 80002 333 10353 58006 87076
AAXX 07184 65505 32960 70404 10305 20089 39768 40106 80002 333 10351 58008 87076
AAXX 07184 65507 32960 50404 10297 20057 39757 40105 80002 333 10349 58007 85076
AAXX 07184 65510 31940 60604 10300 20062 39589 40099 70622 80002 333 10336 58005 86076
AAXX 07184 65516 31958 60000 10309 20049 39792 40097 70622 80002 333 10353 58007 86076
AAXX 07184 65518 32960 70402 10290 20057 39731 40093 80002 333 10352 58009 87076
AAXX 07184 65522 31956 70000 10320 20055 39764 40092 70622 80002 333 10357 58004 87076
AAXX 07181 08579 32/// /36// 10132 20083 30174 40300 52003 333 10155
AAXX 07181 50844 32962 03602 11199 21232 40398 52001 333 11094
AAXX 07181 50854 32965 03202 11196 21235 40383 52005 333 11105
AAXX 07181 50968 32962 02501 11215 21236 40360 52010 333 11084
AAXX 07181 51379 32980 01803 11151 21178 40460 54000 333 05251 11030
AAXX 07181 51467 32980 00201 11093 21180 38379 57002 333 05151 11010
AAXX 07181 51495 32980 03606 11063 21160 40426 57010 333 00051 10008
AAXX 07181 53480 32980 02502 11166 21220 40466 52001 333 11086
AAXX 07181 53673 32980 00403 11078 21150 40416 52001 333 10013
AAXX 07181 53698 31958 23401 11015 21064 40380 52003 71000 80002 333 10054
AAXX 07181 53898 31920 60901 10016 20000 40372 52003 71000 86030 333 10037
AAXX 07181 54308 32980 13207 11141 21230 40423 52006 81040 333 11031
AAXX 07181 54602 32961 22701 11030 21115 40376 52005 80002 333 10051
AAXX 07181 54725 32965 03605 11018 21079 40363 52008 333 10052
AAXX 07181 54751 32570 73610 10002 21054 40325 57001 87400 333 10069
AAXX 07181 54916 32962 03403 10025 21004 40345 52014 333 10073
AAXX 07181 57014 32970 61401 10002 21048 40393 57001 86030 333 00200 10044
AAXX 07181 57025 32968 03601 11004 21050 40402 57005 333 10065
AAXX 07181 57046 32967 73204 11111 21121 38034 57005 8703/ 333 00356 11047
AAXX 07181 58208 11759 83403 10052 20039 40332 52011 69901 71060 885// 333 10058
BBXX A8YW2 07184 99316 50105 41698 40921 10215 20106 40275 54000 70211 82150 22223 00170 20303 317// 40602 80155
BBXX DHDH 07184 99240 10365 41998 03221 10240 20216 40150 54000 70000 80000 22233 20304 80223
BBXX A8UT7 07184 99095 70167 41697 30505 10290 20220 40063 52003 70100 82414 22273 20501 313// 41003 80240
BBXX DEIR 07184 99178 30108 41398 31620 10184 20149 40124 52004 7//11 83640 22243 04216 20503 318// 41004 80162
BBXX 2BLY5 07183 99182 70197 41398 70811 10230 20103 40234 57017 7//// 84768 22253 00250 20202 303// 40404 80160
BBXX BATFR05 07184 99054 70001 46/// /2010 10279 20237 40098 53006 22200 00255
BBXX A8QJ7 07184 99021 50298 41598 21309 10280 20221 40079 56015 7//00 82200 22253 20502 3//// 4//// 5//// 80240
BBXX BATEU07 07184 99377 31334 46/// /1217 10149 40096 56014 22223
BBXX BATFR56 07184 99038 10999 46/// /3309 10287 20230 40089 58008 22273 00299
BBXX BATFR47 07184 99240 51330 46/// /0811 10237 20179 40183 51008 22222
BBXX BAREU08 07184 99098 70788 46/// ///// 40112 57023 22223
BBXX BAREU54 07184 99162 70731 46/// ///// 40103 57018 22213
BBXX BAREU04 07184 99455 70577 46/// ///// 40107 57012 22224
BBXX 41101 07184 99146 70562 46/// /1505 10271 20225 40094 57022 22200 00279 11003 70016
BBXX PHQX 07183 99201 70735 41498 30307 10285 20214 40125 56005 70222 83462 22214 20302 304// 40803 5//// 80235
BBXX BATFR16 07184 99359 70389 44598 61424 10195 40198 55006 70322 86270 22214 00217 21406 308// 41406 5////
BBXX FVNM 07184 99103 71092 46/// /1115 10269 20210 40126 50002 22200 00269
BBXX BATEU08 07184 99595 70395 46/// /3524 11018 21118 40058 53022 22223
BBXX PHCQ 07183 99390 70495 41298 80705 10220 20166 40162 56005 70252 87770 22264 04208 20402 324// 41203 5//// 80185
BBXX BAREU11 07184 99173 50761 46/// ///// 40152 57010 22281
BBXX BAREU61 07184 99413 10022 46/// /3614 10152 29056 40264 22243
BBXX MSTM6 07183 99371 10034 41398 22710 10162 20145 40298 53015 70100 811// 22264 06177 20202 3//// 4//// 5//// 80152
BBXX PFFH 07183 99361 10148 41/98 /2928 10180 40220 54000 70011 8//// 22213 00185 2////
BBXX BAREU63 07184 99442 10092 46/// /3608 10153 29075 40136 22232
BBXX TESTFR9 07184 99508 70011 46/// /2937 10080 29060 40175 52013 22283
BBXX BAREU05 07184 99444 10087 46/// ///// 40147 52005 22281
BBXX BAREU12 07184 99540 10075 46/// ///// 49907 52003 22264
BBXX BAREU62 07184 99383 10248 46/// ///// 40130 52005 22214
BBXX BATFR02 07184 99500 70006 46/// /2931 10104 20032 40191 22244 00139
BBXX BAREU06 07184 99360 70065 46/// ///// 40282 57000 22264
BBXX 61001 07184 99434 10078 46/// /2633 10161 20100 40134 52008 22200 00163 10807 70035 555 1/046
BBXX OXHY2 07184 99414 70097 41/98 52403 10149 20131 40314 53010 70222 846// 22284 00165 21001 334// 41003 5//// 80138
BBXX BATFR20 07184 99432 10053 46/// /2833 10152 20097 40209 22243
BBXX BATFR54 07184 99535 70039 46/// /2731 10082 20022 40134 53033 22232 00102
BBXX BATFR12 07184 99484 70071 46/// /2811 10197 20100 40246 53016 22200 00147
BBXX BATFR60 07184 99495 70036 46/// /2827 10114 20059 40211 53018 22213 00125
BBXX BATFR09 07184 99366 70094 44497 81004 10147 20094 40289 55002 70311 8642/ 22233 00194 20100 326// 40302 5////
BBXX BATFR04 07184 99595 70112 46/// /3510 10034 21003 49988 22252 00102
BBXX BATEU09 07184 99428 10095 46/// /2759 10162 20087 40103 22241 00184
BBXX BATFR27 07184 99494 70036 46/// /3027 10110 20054 40210 51067 22245 00137
BBXX BATFR10 07184 99369 10003 44/98 02805 40283 55/// 70200 22263 00184
BBXX BATFR52 07184 99508 70011 46/// /2835 10082 20002 40177 53022 22272 00105
BBXX BATFR14 07184 99367 70300 44598 60917 10177 20149 40253 56020 70222 86272 22254 00182 20302 31011 40704 51006 60000 ICE 0/0//
BBXX BATFR03 07184 99498 70005 46/// /3129 10107 20024 40178 22283
BBXX BATEU01 07184 99488 70213 44596 72528 10139 20109 40199 56019 70022 872// 22264 00124 21006 32529 41006 51504
BBXX BATEU06 07184 99501 70160 46/// /2424 10119 20074 40207 57002 22223 00134
BBXX BATFR06 07184 99453 70015 46/// /2916 10150 20084 40273 53014 22261 00162
BBXX BATEU05 07184 99583 10056 46/// /1007 10039 21053 49943 53045 22273
BBXX BATUK01 07184 99560 70032 46/// /2604 10032 21018 40046 51041 22200 00047
BBXX 61002 07184 99421 10047 46/// ///22 10162 2//// 40254 52004 22200 00160 10502 70012 555 1/029
AAXX 07181 38847 429// 00000 10000 21004 40308 51001
AAXX 07184 60395 12965 00000 10145 20119 40293 50004 60002 333 10194 95990
AAXX 07184 60421 12665 10000 10113 20078 39247 48584 50004 60002 81200 333 10165 81833 95990
AAXX 07184 60423 12665 23209 10098 20090 39300 48564 53001 60002 82200 333 10145 82840 95900
AAXX 07184 60430 12965 00000 10112 20080 40313 54000 60002 333 10169 95990
AAXX 07184 60437 12570 10000 10088 20053 39079 48574 55000 60002 81100 333 10136 81826 95990
AAXX 07184 60444 12965 10000 10101 20058 39189 48591 55002 60002 80002 333 10167 81073 95900
AAXX 07184 60452 12965 0//// 10161 20112 40286 55001 60002 222// 20000 333 10186 91836
AAXX 07184 60457 12965 10000 10115 20105 40287 58003 60002 80001 333 10198 81073 95990
AAXX 07184 60514 12960 00000 10105 20086 39383 48611 53003 60002 333 10165 95990
AAXX 07184 60518 12965 20000 10154 20129 40270 53001 60002 80002 222// 20000 333 10180 82073 91807 95990
AAXX 07184 60520 12960 20000 10100 20073 40299 53001 60002 80001 333 10190 82073 95990
AAXX 07184 60540 11970 00000 10114 20022 39129 48412 56005 60002 70200 333 10143 95990
AAXX 07184 60560 11960 10000 10116 20027 39069 48603 54000 60002 70200 80001 333 10187 81073 95990
AAXX 07184 60353 NIL
AAXX 07184 60367 11558 7//// 10150 20113 40289 53008 60032 72162 878// 333 10180 83820 87833
AAXX 07184 60369 12960 00000 10165 20063 40293 53003 60002 333 10209 91837
AAXX 07184 60401 NIL
AAXX 07184 60403 12960 33003 10160 20089 40291 51002 69922 83030 333 10192 83360 95990
AAXX 07184 60425 12970 10000 10141 20109 40297 51002 60002 80002 333 10190 81073 95990
AAXX 07184 60461 12970 00000 10155 20125 40286 57004 60002 222// 20000 333 10199 91808 95990
AAXX 07184 60467 12970 02804 10118 20078 40306 53006 60002 333 10182 95990
AAXX 07184 60492 12960 03604 10148 20122 40280 58010 60002 333 10175 95990
AAXX 07184 60515 12960 00000 10132 20072 40301 53004 60002 333 10190 95990
AAXX 07184 60517 12970 30000 10152 20114 40288 53001 60002 80002 333 10176 83073 95990
AAXX 07184 60522 12970 10000 10125 20109 40298 53004 60002 80001 333 10179 81073 95990
AAXX 07184 60557 11965 10000 10096 20048 38962 48596 53004 60002 70200 80002 333 10163 81073 95990
AAXX 07184 60563 12960 00000 10125 20039 39400 48594 55000 60002 333 10180
AAXX 07184 60603 12960 03610 10165 20022 40282 52011 60002 333 10217
AAXX 07184 60638 NIL
AAXX 07184 60686 12960 33005 10224 21022 40182 57001 60002 80002 333 10270 83073
AAXX 07181 60370 36/// /2901 10148 20108 333 10198
AAXX 07181 60371 36/// /1701 10140 20108 333 10195
AAXX 07181 60372 36/// /0000 10123 20097 333 10168
AAXX 07181 60373 NIL
AAXX 07181 60374 NIL
AAXX 07181 60376 NIL
AAXX 07181 60379 NIL
AAXX 07181 60380 NIL
AAXX 07181 60381 NIL
AAXX 07181 60393 NIL
AAXX 07181 60394 NIL
AAXX 07181 60593 NIL
AAXX 07181 60595 NIL
AAXX 07181 60605 NIL
AAXX 07181 60613 NIL
AAXX 07181 60623 NIL
AAXX 07184 60624 36/// /0000 10218 21013 333 10258
AAXX 07184 60639 NIL
AAXX 07184 60645 36/// /0000 10235 21024 333 10289
AAXX 07181 10015 01568 72813 10068 20035 39905 49915 53014 60052 78087 879// 222// 02075 333 10081 20045 31004 55300 20000 30000 60017 82823 82927 85650 91121 91217 96487 96484 96463
AAXX 07184 08231 12970 00000 10099 20030 39196 48595 53006 60002 333 10176
AAXX 07181 40700 12960 02403 11016 21030 30130 40222 51002 60001 333 55082
AAXX 07181 40723 12960 00000 11040 21087 38950 40277 53002 60001 333 55076 21343
AAXX 07181 40726 12960 00000 11018 21057 38694 40278 52008 60001 333 55063
AAXX 07181 40727 12960 00000 11048 21104 38514 40287 52012 60001 333 55090 20970
AAXX 07181 40734 12965 01902 10046 20041 30247 40221 51003 60001 333 55088
AAXX 07181 40737 12960 00000 10022 20017 30205 40223 51002 60001 333 55078 2////
AAXX 07181 40741 12960 00000 10020 20013 39942 40290 51004 60001 333 55087
AAXX 07181 40780 12960 00000 10018 21121 38723 40247 51007 60001 333 55090 21285
AAXX 07181 40791 12965 00000 10060 21055 39400 40245 51012 60001 333 55094
AAXX 07181 40792 12970 00902 10006 21038 38754 40245 51004 60001 333 55096
AAXX 07181 40794 12960 02702 10084 20038 30108 40208 52011 60001 91750 333 55087 21249
AAXX 07181 40812 12960 00000 10124 20036 39816 40197 52012 60001 333 55092
AAXX 07181 40829 12962 00000 10024 21062 39653 40249 51004 60001 333 55093
AAXX 07181 40833 12960 00000 10112 20017 30175 40208 52011 60001 333 55092
AAXX 07181 40835 12970 00000 10104 21008 39365 40208 52010 60001 333 55094
AAXX 07181 40845 NIL
AAXX 07181 40882 11958 20000 10196 20137 30136 40171 52009 60001 70521 82030 333 55050 82359
AAXX 07181 40889 NIL
AAXX 07181 40890 NIL
AAXX 07181 40893 11958 03205 10228 20095 30152 40158 51006 60001 70500 222// 00/// 20401 333 55088
AAXX 07181 40897 NIL
AAXX 07184 40153 12660 11004 10081 21022 39133 48525 52002 60002 81400 333 10142
AAXX 07184 40179 12960 01203 10130 20104 30170 40208 52007 60002 333 10206
AAXX 07184 40180 12960 09902 10129 20082 30162 40212 52008 60002 333 10217
AAXX 07184 40190 16/// ///// 10117 20081 39875 40212 52008 60002 333 10211
AAXX 07184 40199 12965 00304 10154 21045 30177 40200 52013 60002 333 10217
AAXX 07181 26167 11456 81902 10001 21005 39927 40040 52005 69952 78582 889// 333 10007 88918
AAXX 07181 14235 12760 6//// 10027 21003 38945 48405 57014 60002 86030 333 10032
AAXX 07181 14246 11975 61901 10026 20000 39887 40094 57/// 60002 700// 80001 333 10077
AAXX 07181 14314 12670 12408 10140 20045 30070 40134 57/// 60002 81200 333 10153 92323 92438
AAXX 07181 14323 11781 61703 10138 20063 30096 40130 57/// 60002 702// 86500 333 10140 92322 92428
AAXX 07181 14324 NIL
AAXX 07181 14328 NIL
AAXX 07181 14330 12560 62102 10080 20035 39476 40139 56/// 60002 86800 333 10089
AAXX 07181 14438 11975 01202 10109 20066 30065 40156 58/// 60002 701// 333 10149 923//
AAXX 07181 14443 NIL
AAXX 07181 14447 12984 10501 10096 20064 30136 40167 54/// 60002 81030 333 10165 92311
AAXX 07181 14472 12670 23301 10105 20046 30106 40171 52006 60002 82200 333 10153 92312
AAXX 07181 08501 12/// /1305 10166 20126 30230 40266 57010 60012 333 10179 91008 91108 555 60005
AAXX 07181 08505 32475 41206 10172 20122 30216 40266 57013 83802 333 10180 81816 83070 555 60007
AAXX 07181 08506 32/// /1805 10163 20120 30199 40271 57013 333 10175 91009 91109 555 60005
AAXX 07181 08509 11560 51305 10158 20135 30211 40276 57016 69992 72162 83844 333 10166 82820 555 69947
AAXX 07181 08511 12/// /0903 10158 20118 30166 40274 57012 69912 333 10166 91107 555 60005
AAXX 07181 08512 32480 71006 10158 20122 30180 40265 57010 85832 333 10181 82818 84650 85070 91008 91109 555 60005
AAXX 07181 08515 11475 71008 10162 20145 30140 40263 57011 69912 72552 878// 222// 333 10180 83818 81820 85630 910// 911// 555 69917
AAXX 07181 08521 32465 71103 10193 20133 30193 40264 53002 87800 333 84816 84630 555 60007
AAXX 07181 08522 32568 70903 10186 20130 30195 40264 57002 87830 222// 312// 40402 333 10203 83823 85633 91005 91106 555 60005
AAXX 07181 08524 32470 71105 10180 20140 30170 40268 57002 86871 333 10196 84815 83630 91009 91110 555 60005
AAXX 07181 08530 NIL
AAXX 07181 08531 32/// /0207 10148 20117 30265 40304 57001 333 10158 555 60005
AAXX 07181 08532 NIL
AAXX 07181 08533 32/// /0102 10111 20096 30262 40292 54000 333 10184 555 60005
AAXX 07181 08534 32970 30000 10124 20095 30279 40297 53002 80001 333 10170 83070 555 60007
AAXX 07181 08535 NIL
AAXX 07181 08537 NIL
AAXX 07181 08540 32960 43502 10116 20098 30233 40303 53002 80001 333 10170 84071 555 60007
AAXX 07181 08541 32/// /1201 10133 20085 30176 40296 52003 333 10163 555 60005
AAXX 07181 08544 32560 43603 10138 20117 30285 40306 51005 84500 333 10166 84630 555 60007
AAXX 07181 08545 31562 43302 10124 20094 30228 40313 52002 70122 84500 333 10167 84632 555 60005
AAXX 07181 08548 12/// /0102 10121 20097 30100 40307 52002 69912 333 10148 555 60005
AAXX 07181 08551 11563 70000 10129 20113 30256 40315 52004 69902 72162 875// 333 10150 87621 555 69905
AAXX 07181 08554 32965 23102 10135 20106 30283 40293 54000 80002 333 10164 82080 555 60005
AAXX 07181 08558 12/// /0802 10077 20073 30001 40302 52004 69912 333 10140 555 60005
AAXX 07181 08560 31975 23303 10089 20067 39544 40313 53004 70200 80002 333 10147 82099 555 60005
AAXX 07181 08561 32570 51202 10092 20084 30063 40301 53001 81206 333 10145 81625 85072 555 60007
AAXX 07181 08562 12/// /1002 10091 20083 39996 40296 54000 69912 333 10135 555 60005
AAXX 07181 08567 32/// /1101 10084 20071 39643 40318 52006 333 10133 555 60005
AAXX 07181 08568 32/// /2802 10072 21074 38735 48603 52002 333 10144 555 60005
AAXX 07181 08570 31975 11203 10089 20068 39841 40308 53002 70200 80001 333 10151 81099 555 60005
AAXX 07181 08571 32/// /3502 10085 20072 39592 40307 54000 333 10119 555 60005
AAXX 07181 08575 32/// /9902 10098 20057 39486 40304 52006 333 10129 91106 555 60005
AAXX 07181 08579 32/// /36// 10132 20083 30174 40300 52003 333 10155 555 60005
AAXX 07183 NIL
AAXX 07184 87593 32560 10908 10265 20174 30113 40140 57017 81100 333 56300 81820
AAXX 07184 87623 32980 13607 10331 20119 39904 40121 57013 81100 333 56800 81859
AAXX 07184 87641 32665 42708 10317 20157 39961 40131 57015 84100 333 56700 84845
AAXX 07184 87645 32570 52308 10318 20100 39926 40128 57020 85800 333 56400 83830
AAXX 07184 87648 32960 00000 10282 20176 30137 40148 57004
AAXX 07184 87692 32960 00711 10218 20163 30122 40148 57019
AAXX 07184 87715 31659 21102 10323 20084 39809 40114 57008 70400 82100 333 56200 82845 96104
AAXX 07184 87750 31960 22012 10311 20121 30034 40131 55001 70710 82050 333 56050 82360
AAXX 07184 87765 32960 02305 10260 21030 39212 48517 57015 333 96120
AAXX 07184 87784 32980 01624 10212 20105 30169 40193 52008
AAXX 07184 87791 32980 01830 10230 20109 30168 40176 52031
AAXX 07184 87800 32980 00000 10260 20087 39779 40170 57017
AAXX 07184 87803 NIL
AAXX 07184 87828 32980 21119 10200 20032 30161 40212 51009 80002 333 56007 82070
AAXX 07184 87860 32980 00516 10181 20009 30149 40204 58008
AAXX 07184 87904 32980 42719 10156 21004 39926 40172 50001 80005 333 56006 84270
AAXX 07184 87909 NIL
AAXX 07184 87925 NIL
AAXX 07184 87938 NIL
AAXX 07184 87078 11470 80000 10250 20224 39954 40103 57025 60031 75065 887// 333 56499 88715
AAXX 07184 87244 31469 81802 10270 20198 39730 4//// 5//// 71791 8572/ 333 56229 85719 85522
AAXX 07184 87393 32470 51406 10332 20165 30037 40099 57023 84806 333 56306 82617 83827
AAXX 07184 87416 32665 22305 10298 20099 39373 40100 58021 82101 333 56105 82840
AAXX 07184 87563 32565 21802 10320 20060 30077 40118 56020 82100 333 56000 82825
AAXX 07184 87640 32965 02706 10321 20154 30026 4//// 57012
AAXX 07184 87688 32965 32713 10320 20093 39990 40124 57011 83060 333 56060 83360
AAXX 07184 87774 32682 31405 10278 20093 39140 48509 5//// 82105 333 56001 82840 83270
AAXX 07184 87852 32984 02318 10201 21094 39676 40181 57016
AAXX 07184 87896 NIL
AAXX 07184 89022 42684 72503 11078 21163 39758 49796 57011 8753/ 333 87643 99123
AAXX 07184 89062 42784 40205 10031 21062 39689 49729 52005 83531 333 83650
AAXX 07183 87016 11204 80908 10214 20189 39679 40082 57024 60111 75866 8872/ 333 56499 85704 88520
AAXX 07181 34357 11497 81905 10038 20033 39997 40152 51007 60060 78082 889// 333 10036
AAXX 07181 34363 31/93 91810 10008 20008 30036 40191 52002 74542 333 10023
AAXX 07181 34545 11498 82103 10046 20041 30048 40159 52005 60040 70262 8802/ 333 10053
AAXX 07181 34579 31596 71504 10011 20001 30177 40222 54001 71022 8750/ 333 10020
AAXX 07181 34838 11597 60101 10074 20054 30054 40150 57008 60030 70282 83940 333 10116
AAXX 07181 34927 32597 80401 10099 20035 30109 40146 52004 889// 333 10143
AAXX 07181 34949 32998 50101 10033 21011 39625 40173 57002 85030 333 10121
AAXX 07181 37001 31497 80701 10107 20082 30089 40129 58012 70282 889// 333 10128
AAXX 07181 37031 31997 81602 10051 21010 39967 40163 57002 70282 8805/ 333 10089
AAXX 07181 37061 11431 83601 10032 20026 30014 40182 57008 69930 71022 886// 333 10035
AAXX 07181 37085 32596 81105 10067 20052 30212 40239 57002 8850/ 333 10090
AAXX 07181 37107 32698 83501 10044 20002 39497 40178 57005 86501 333 10068
AAXX 07181 37126 42999 81501 10009 21182 37924 48491 58004 84031 333 10060
AAXX 07181 37171 32996 70606 10091 20017 30132 40150 57006 87030 333 10137
AAXX 07181 37228 32997 21901 10020 21077 39335 40178 56006 81041 333 10150
AAXX 07181 37470 32996 03302 10069 20032 30197 40174 58008 333 10098
AAXX 07181 37663 32996 02602 10006 21080 39006 48477 54000 333 10134
AAXX 07184 61974 12470 62002 10244 20226 40100 60002 86800 333 10311 55092 58000 83818 84650
AAXX 07184 61986 12470 21408 10273 20244 40092 60002 82800 333 10295 59009 82819
AAXX 07184 61988 12470 71311 10250 20220 40105 69902 87800 333 10284 55058 58002 86818 91129
AAXX 07184 61989 NIL
AAXX 07184 61990 11468 51603 10252 20219 40116 60002 85802 333 10290 55102 59014 85817
AAXX 07184 61995 12470 31405 10215 20195 39637 60002 81242 333 10289 55098 59012 81818
AAXX 07184 71320 16/// /1028 11077 21083 39795 49798 53006 60001 333 11073 21129 70006
AAXX 07184 71340 16/// /3110 11094 21162 60001 333 11049 21117 70000
AAXX 07184 71341 16/// /3610 11024 21045 60001 333 11024 21085 70000
AAXX 07184 71342 17/// /3214 11073 21119 69991 7//4/ 333 11022 21076 70009
AAXX 07184 71344 17/// /3608 11084 21095 60011 7//4/ 333 11042 21085 7////
AAXX 07184 71347 16/// /2905 11124 21177 60001 333 11069 21158 70000
AAXX 07184 71348 46/// /2706 11099 21173 6///1 333 7////
AAXX 07184 71349 46/// ///// 11113 21172 6///1 333 7////
AAXX 07184 71362 17/// /2911 11171 21196 39945 40210 52008 69971 7//4/ 333 11113 21174 70014
AAXX 07184 71374 46/// /0427 11037 21043 6///1 333 11036 21102 7////
AAXX 07184 71387 16/// /1902 11015 21035 39717 40096 57027 60001 333 11014 21104 70000
AAXX 07184 71393 16/// ///// 11066 21090 38995 40306 52024 60001 333 11030 21066 70000
AAXX 07184 71151 16/// /3010 11051 21102 39615 40124 58002 60001 333 11033 21108 70000
AAXX 07184 71168 16/// /0000 10009 21041 39612 40218 50020 60001 333 10010 21140 70000
AAXX 07184 71186 46/// /0819 11010 21033 6///1 333 11008 21032 7////
AAXX 07184 71190 46/// /2809 11006 21027 6///1 333 11005 21036 7////
AAXX 07184 71421 46/// ///// 11115 21175 39454 40196 5/033 6///1 333 11115 21250 7////
AAXX 07184 71435 16/// /2509 11050 21118 39502 40104 58004 60001 333 11044 21120 70000 555 10010
AAXX 07184 71107 16/// /0302 10051 21011 30240 40356 51006 60001 333 10051 20025 70000
AAXX 07184 71228 16/// /3214 11079 21166 60001 333 11034 21103 7////
AAXX 07184 71622 16/// ///// 11002 21049 39791 40131 58019 60001 333 10007 21013 70000
AAXX 07184 71642 11474 82108 11050 21064 39519 40071 58014 69941 77172 885// 333 11050 21195 43009 70004 90942
AAXX 07184 71833 46/// /2505 11004 21039 6///1 333 11003 21031 7////
AAXX 07184 71026 17/// /0105 11047 21065 39405 40281 53026 69931 7//4/ 333 21047 7//// 555 10040
AAXX 07184 71503 46/// /2603 11273 21304 30060 40349 51006 6///1 333 11206 21274 7//// 555 10010
AAXX 07184 71506 46/// /0803 11212 21238 39355 40288 56017 6///1 333 11209 21235 7////
AAXX 07184 71514 16/// /2812 11070 21104 39518 40235 50009 60001 333 11044 21100 70000
AAXX 07184 71539 16/// /2909 11053 21099 39532 40244 50006 60001 333 11022 21082 70000
AAXX 07184 71423 16/// /0519 10010 20002 30126 40135 56030 60001 333 10011 21031 70000
AAXX 07184 71434 16/// /2309 11131 21178 39932 49998 50000 60001 333 11068 70009
AAXX 07184 71976 46/// /1831 11132 21146 39238 49863 56014 6///1 333 11132 21180 7////
AAXX 07184 71269 17/// /3515 11059 21075 69951 7//4/ 333 11020 21061 70005
AAXX 07184 71285 46/// /3212 11107 21167 6///1 333 11063 21122 7////
AAXX 07184 71296 16/// /2606 11002 21037 39806 40114 58026 60001 333 10002 70000
AAXX 07184 71188 11512 80000 11034 21046 30116 40159 57021 60031 77177 885// 333 11029 21041 47003 70068 90973
AAXX 07184 71550 16/// /2719 11072 21168 39792 40176 50004 60001 333 11051 21075 70000 555 10010
AAXX 07184 71570 16/// /3010 11045 21120 39823 40139 58002 60001 333 11026 21073 70004
AAXX 07184 71580 11100 80236 11129 21149 39796 49831 52023 60021 77173 887// 333 11111 21165 48034 70122 90983 93102
AAXX 07184 71737 16/// /1704 11001 21015 39562 40085 58032 60001 333 11001 21048 70003
AAXX 07184 71743 16/// /1920 11105 21132 39741 49960 55007 60001 333 11102 21176 70000
AAXX 07184 71746 46/// /3208 10007 21063 39906 40128 58027 6///1 333 10009 21019 7////
AAXX 07184 71747 16/// /2809 11033 21105 39639 40120 58007 60001 333 11002 21111 7////
AAXX 07184 71748 16/// /3112 11047 21125 39855 40146 51003 60001 333 11019 21096 70000
AAXX 07184 71482 46/// /0507 10026 30310 40349 53004 6///1 333 10028 20013 7////
AAXX 07184 71682 16/// /2301 11249 21267 30121 40366 58007 60001 333 11150 21255 70003
AAXX 07181 40001 32970 03102 10016 21083 40233 53006 333 10151
AAXX 07181 40007 32560 60701 10077 20036 40218 58001 83550 333 10135 83630 86360
AAXX 07181 40025 11560 51103 10134 20104 40202 58001 69922 70262 86800 333 10200 82826 84630
AAXX 07181 40045 32970 00000 10046 21010 40236 52004 333 10168
AAXX 07181 40061 32970 00000 10060 20011 40226 51006 333 10156
AAXX 07181 40080 32970 00000 10036 21039 39495 40237 54000 333 10152
AAXX 07181 40087 NIL
AAXX 07181 40095 NIL
AAXX 07181 40009 32565 30000 10055 20006 40201 50003 83500 333 10145 83630
AAXX 07181 40016 NIL
AAXX 07181 40022 32565 61005 10162 20119 40195 58005 86800 222 20000 333 10198 83830 085632
AAXX 07181 40030 NIL
AAXX 07181 40039 32970 30000 10079 20033 40213 51002 83030 333 10168 83360
AAXX 07181 40066 32570 10000 10132 20102 40201 53002 81400 333 10198 81626
AAXX 07181 40072 32970 00000 10074 20004 40241 53004 333 10158
AAXX 07181 40083 32970 00000 10034 21109 48506 54000 333 10130
AAXX 07184 13610 11330 80000 10062 20041 39753 40181 52004 60002 71022 885// 333 10070 88606
AAXX 07184 13601 12660 30000 10104 20081 30067 40168 52012 60022 83100 333 10156 83840
AAXX 07181 13463 32970 00901 10076 20064 30127 40187 52014 333 10144
AAXX 07181 13459 32670 13601 10024 20023 39426 40206 52015 81200 333 10112 81896
AAXX 07181 13461 32670 10503 10102 20073 30182 40190 52011 81200 333 10166 81840 92322 92428
AAXX 07181 13363 32430 83602 11008 21011 39260 48467 53003 886// 333 10012 43010
AAXX 07184 13622 12665 20000 10090 20056 30173 40180 52008 69922 82500 333 10160 82640
AAXX 07184 13625 12760 13204 10088 20031 39937 40169 52006 69922 81100 333 10138 81856
AAXX 07184 13624 12965 11404 10056 20041 30144 40183 52014 60022 81030 333 10170 81360
AAXX 07184 61972 16/// /2205 10259 20216 40090 60002 333 10308 59028 90710 91110 555 60005
AAXX 07184 13600 12663 10904 10090 20074 30133 40186 52011 60002 81200 333 10132 81840
AAXX 07184 71421 46/// ///// 11115 21175 39454 40196 5/033 6///1 333 11115 21250 7////
AAXX 07184 71435 16/// /2509 11050 21118 39502 40104 58004 60001 333 11044 21120 70000 555 10010
AAXX 07184 71188 11512 80000 11034 21046 30116 40159 57021 60031 77177 885// 333 11029 21041 47003 70068 90973
AAXX 07184 71682 16/// /2301 11249 21267 30121 40366 58007 60001 333 11150 21255 70003
BBXX C6SI6 07184 99554 11709 46/// /3422 11017 21036 49972 52036 7//// 8//// 22253 0//// 2////
BBXX DGBE 07183 99463 11547 41/93 81410 11010 21033 40067 57045 77372 8//// 22254 00030 2//// 82018
BBXX MGPU2 07184 99338 11610 41297 71626 10200 20200 40052 57090 76022 8677/ 22273 00200 20918 3//// 4//// 5//// 80200
BBXX 46232 07181 99325 71174 46/// ///// 1//// 91738 22200 00144 11301 20801 327// 41301 70006
BBXX 46241 07181 99330 71173 46/// ///// 1//// 91741 22200 00143 11401 20501 324// 41401 70005
BBXX 46249 07181 99338 71197 46/// ///// 1//// 91817 22200 00147 11401 20901 320// 41401 70006
BBXX 46248 07181 99461 71247 46/// ///// 1//// 91804 22200 00087 11303 21002 329// 41302 70014
BBXX 46244 07181 99409 71244 46/// ///// 1//// 91805 22200 00103 11102 21001 331// 41102 70011
BBXX 46240 07181 99366 71219 46/// ///// 1//// 91812 22200 00115 11201 20801 334// 41201 70006
BBXX 46237 07181 99378 71226 46/// ///// 1//// 91810 22200 00112 11401 21001 325// 41401 70007
BBXX 46212 07181 99408 71243 46/// ///// 1//// 91812 22200 00094 11302 21001 330// 41301 70010
BBXX 46217 07181 99342 71194 46/// ///// 1//// 91812 22200 00148 10801 20801 325// 41301 70005
BBXX 46216 07181 99343 71198 46/// ///// 1//// 91757 22200 00147 11301 21001 70004
AAXX 07181 23226 11356 82310 11008 21027 39864 40078 52024 60020 77187 887// 333 11003 86708
AAXX 07181 23701 12984 71802 11032 21056 39981 40112 51003 69900 84041 333 10010
AAXX 07181 28909 32999 81605 11082 21124 30190 40296 54000 80007 333 11034
BBXX 46223 07181 99335 71178 46/// ///// 1//// 91800 22200 00155 11401 21001 320// 41401 70004
BBXX 46231 07181 99327 71174 46/// ///// 1//// 91754 22200 00156 11301 21001 322// 41301 70005
BBXX 46222 07181 99336 71183 46/// ///// 1//// 91756 22200 00155 11301 20401 70004
BBXX 46242 07181 99332 71174 46/// ///// 1//// 91756 22200 00150 11401 20401 322// 41401 70005
AAXX 07184 60595 36/// /0000 11451 333 11451
AAXX 07184 60381 36/// /1101 10142 20123 333 10210
AAXX 07184 60639 36/// /3614 10192 21023 333 10233
AAXX 07184 60605 36/// /1005 10177 20009 333 10215
AAXX 07184 13623 12970 00000 10085 20070 30177 40183 52019 60002 333 10130
BBXX 46211 07181 99469 71242 46/// ///// 1//// 91806 22200 00085 11302 21002 329// 41301 70011
AAXX 07181 56146 32980 00401 11008 21144 36752 52014 333 00601 10146
AAXX 07181 56444 32678 80000 10014 21035 36832 57008 884// 333 00101 10085
AAXX 07181 56492 11765 80000 10095 20071 39916 40333 54000 69901 76060 885// 333 00551 10106
AAXX 07181 56571 32680 83605 10099 21006 38450 52013 884// 333 00552 10189
AAXX 07181 57799 11460 82903 10081 20080 30191 40282 52006 60031 76066 887// 333 10136
AAXX 07181 57866 11463 80203 10063 20045 30108 40322 52007 60041 76066 887// 333 10088
AAXX 07181 57957 11463 80205 10082 20050 30089 40293 52011 69921 76066 885// 333 10132
AAXX 07181 57993 11760 83402 10104 20092 30090 40258 52002 69921 76060 885// 333 10180
AAXX 07181 58027 31950 63403 10044 20027 30268 40321 52016 71000 80002 333 10067
AAXX 07181 58141 11350 80205 10055 20033 30281 40301 52015 60021 76066 8172/ 333 10100
AAXX 07181 58265 11450 83204 10106 20097 30235 40243 57004 60061 76066 8672/ 333 10128
AAXX 07181 58472 11480 83613 10120 20099 30123 40217 52005 60071 76066 8577/ 333 10146
AAXX 07181 58477 11357 83204 10124 20108 30171 40215 52004 60101 76066 887// 333 10166
AAXX 07181 58527 11560 83402 10082 20079 30201 40279 52007 60051 76066 885// 333 10132
AAXX 07181 58633 11665 81803 10106 20097 30149 40250 52016 60131 76066 885// 333 10156
AAXX 07181 58666 11468 83412 10126 20118 30092 40194 52003 60011 76060 885// 333 10165 91118 91534
AAXX 07181 58725 11658 82902 10098 20082 39985 40248 52011 60021 76060 885// 333 10179
AAXX 07181 58921 11658 83204 10131 20115 39982 40229 52018 69951 76060 885// 333 10194
AAXX 07181 59082 11668 82902 10105 20072 30100 40248 52005 69901 72160 885// 333 10184
AAXX 07181 59211 32962 82902 10157 20123 30030 40238 52012 8807/ 333 10182
AAXX 07181 59265 11770 83602 10129 20074 30086 40226 52003 69901 70060 885// 333 10182
AAXX 07181 59293 32563 80207 10171 20109 30115 40200 52004 888// 333 10218
AAXX 07181 59501 32962 70403 10218 20170 30142 40163 57004 8704/ 333 10262
AAXX 07181 59663 32660 83404 10177 20150 30071 40178 57002 885// 333 10224
AAXX 07181 59838 32965 70407 10226 20200 30135 40145 57002 8704/ 333 10276
AAXX 07181 59948 32370 70708 10199 20189 39662 40143 57007 86202 333 10235
AAXX 07181 59981 11570 70403 10256 20235 30109 40116 57010 69901 72580 878// 333 10288
AAXX 07181 48806 32498 81401 10187 20182 39403 40180 50009 888// 333 58003 84894 88696
AAXX 07184 71188 11512 80000 11034 21046 30116 40159 57021 60031 77177 885// 333 11029 21041 47006 70068 90973 93103
AAXX 07181 23205 11497 72304 11011 21040 30007 40022 52020 69980 78582 87300 333 11004 86912 91108
AAXX 07184 71188 11512 80000 11034 21046 30116 40159 57021 60031 77177 885// 333 11029 21041 47006 70068 90973 93103
BBXX A8GH5 07183 99141 70225 41998 01217 10260 20226 40120 54000 70200 80000 22214 20402 312// 40804 80236
AAXX 07184 89016 46/89 /3311 11079 29076 39348 4//// 5////
AAXX 07184 89003 46/89 /3231 11127 29061 38923 4//// 5////
AAXX 07184 89507 46/89 /1013 11275 29065 36721 4//// 5////
AAXX 07184 04203 46/// /1605 11166 21215 30139 40157 52009
AAXX 07184 04205 45/84 /3401 11238 21313 30143 40167 52008 333 11222 21248
AAXX 07184 04208 46/// /1017 11142 21200 30075 40122 52012
AAXX 07184 04213 46/// /1420 11133 21197 30004 40119 52007 333 11128 21139
AAXX 07184 04214 46/// /1420 11088 21147 30059 40092 52004
AAXX 07184 04224 45884 60910 11102 21149 30068 40102 54000 333 11101 21118 84/57 86/59
AAXX 07184 04228 NIL
AAXX 07184 04242 46/// /2310 11047 21097 30103 40120 52022
AAXX 07184 04253 46/// /1010 11082 21156 30121 40148 52011
AAXX 07184 04266 46/// /3221 11039 21093 30098 40137 52017
AAXX 07184 04285 46/// /3414 11048 21124 30088 40107 52021
AAXX 07184 04301 46/// /2511 11206 21248 30097 40102 52014
AAXX 07184 04313 46/// /0124 11179 21236 30064 40076 52007
AAXX 07184 04330 46/// /2801 11272 21341 30088 40106 52020
AAXX 07184 04351 46/// /3412 11173 21284 30035 40052 52007
AAXX 07184 04373 46/// /3324 11108 21211 39975 40070 52034
AAXX 07184 04382 46/// /3117 11057 21165 30031 40080 52022
AAXX 07184 04416 NIL
AAXX 07184 89528 46/// /0000 4//// 5////
AAXX 07184 89628 46/// /3126 36741 4//// 5////
AAXX 07181 10035 01570 52104 10030 20024 39849 49907 52008 60052 72165 85500 333 10038 20010 32001 55300 20000 30000 41092 69947 85625
BBXX ZNQO3 07181 99193 10663 41998 03406 10255 20185 40148 51/// 70100 80000 22264 04281 2//// 3//// 4//// 5//// 80210
BBXX OXHV2 07184 99238 10365 41797 43523 10249 20177 40152 52011 70500 83079 22273 00250 20503 30000 80201
BBXX S6TV 07184 99098 10675 41697 30428 10284 20249 40106 51010 70111 82251 22264 00320 20401 303// 40602 5//// 80259
AAXX 07181 50353 32970 00201 11242 21269 30135 40380 57005 333 11142
AAXX 07181 50557 32970 01402 11297 21329 30062 40400 57002 333 11149
AAXX 07181 50756 32960 03402 11226 21261 30055 40385 52001 333 11160
AAXX 07181 50949 32965 03603 11181 21234 30193 40379 52004 333 11084
AAXX 07181 50963 32962 02903 11214 21242 30201 40351 52011 333 11105
AAXX 07181 50978 32980 02503 11202 21238 39953 40332 52005 333 11096
AAXX 07181 51087 32980 00000 11210 21238 39434 40504 57002 333 05203 11112
AAXX 07181 51156 32980 02901 11131 21220 38854 40451 57004 333 05102 11047
AAXX 07181 51644 32960 32901 11033 21106 39100 40410 57002 80002 333 00051 10041
AAXX 07181 51656 32965 00000 11055 21082 39276 40425 54000 333 00052 10015
AAXX 07181 51886 32980 10000 11126 21216 37166 52001 80002 333 00152 11022
AAXX 07181 52602 32980 20901 11148 21249 37320 57001 80002 333 00101 10002
AAXX 07181 52713 32980 00401 11121 21224 36952 57003 333 00102 11015
AAXX 07181 52754 32980 00000 11158 21186 36827 54000 333 00156 11007
AAXX 07181 52818 32980 02001 11096 21178 37283 57011 333 00153 10002
AAXX 07181 52836 32980 01802 11117 21171 36940 57008 333 00152 11006
AAXX 07181 52955 32980 61402 11133 21171 37017 52004 80002 333 00157 10012
AAXX 07181 53068 32980 02902 11234 21262 39245 40522 57004 333 00454 11171
AAXX 07181 53276 32980 52706 11189 21216 39024 40506 52001 80002 333 11140
AAXX 07181 54135 32980 73603 11122 21215 30158 40398 52007 80002 333 11069
AAXX 07181 54236 32970 03603 11128 21187 30269 40382 52012 333 11046
AAXX 07181 54539 11760 80701 11026 21036 30345 40360 52007 60041 77170 8752/ 333 10023
AAXX 07181 54662 32970 03606 11062 21157 30219 40339 52007 333 10029
AAXX 07181 54753 32665 80205 10013 21048 30321 40328 52002 885// 333 10057
AAXX 07181 54857 11970 30208 10015 21024 30213 40308 52005 69931 70060 83030 333 10085
AAXX 07181 57067 32960 30401 10012 21094 39686 40388 52002 83030 333 10071
AAXX 07181 57178 31970 00902 10020 21027 30194 40359 52010 70040 333 10079
AAXX 07181 57245 31958 71601 10039 20038 30006 40369 57001 71000 8703/ 333 00351 10081
AAXX 07181 57297 31630 80203 10041 20010 30204 40350 52015 71000 885// 333 10064
AAXX 07181 91943 16/// /1109 10281 20201 30131 40133 51015 60012 333 10282 59017
AAXX 07181 91945 36/// /0908 10283 20206 30145 40150 51010
AAXX 07181 89062 42784 40205 10031 21062 39689 49729 52005 83531 333 83650
BBXX 46221 07181 99339 71186 46/// ///// 1//// 91745 22200 00153 11401 20701 322// 41401 70005
BBXX 63110 07183 99595 10015 41/98 /2615 10075 20035 49939 70022 8//// 22200 10905 70025
BBXX 62027 07184 99491 70022 46/// /3323 1//// 2//// 40209 52031 22200 00133 11106 330// 70032 333 90710 91130
BBXX VQKZ6 07184 99422 70200 41598 80819 10150 20113 40308 54000 70322 84818 22254 02115 20302 327// 40605 5//// 80136
BBXX 64045 07184 99591 70117 46/// /2715 10056 21003 49992 52015 22200 00101 10911 70055 333 90710 91128
BBXX 62105 07184 99554 70122 46/// /2922 10083 20043 40094 50002 22200 00109 10811 70057 333 90710 91136
BBXX 62081 07184 99510 70134 46/// ///// 10110 20084 40200 57004 22200 00121 10910 70050
BBXX 62442 07184 99490 70164 46/// /2419 1//// 2//// 40234 55004 22200 00132
BBXX 62029 07184 99487 70125 46/// /2613 10125 20092 40240 50003 22200 00136 10910 70048
BBXX 62163 07184 99475 70084 46/// /3114 10115 20088 40260 53013 22200 00135 10809 70043
BBXX 62001 07184 99452 70050 46/// /2815 10144 20089 40284 52016 22200 00154 10908 70042
BBXX 64046 07184 99606 70049 46/// /3124 10057 20015 49942 53025 22200 00101 10708 70039
BBXX 62301 07184 99524 70047 46/// /2821 10089 20034 40162 53024 22200 00112 10606 70031 333 90710 91130
BBXX 62303 07184 99516 70051 46/// /3021 10102 20043 40176 50020 22200 00121 10707 70033 333 90710 91129
BBXX AMOUK16 07184 99522 70061 46/// ///// 10076 20027 30162 40164 52012 91750
BBXX AMOUK12 07184 99533 70046 46/// ///// 10080 20021 30107 40151 52035 91750
BBXX AMOUK08 07184 99501 70061 46/// ///// 10118 20068 30205 40206 52020 91750
BBXX AMOUK19 07184 99601 70011 46/// ///// 10054 20010 39943 49944 52018 91750
BBXX AMOUK03 07184 99513 10032 46/// ///// 10089 20021 30067 40096 52037 91750
BBXX AMOUK13 07184 99525 10018 46/// ///// 10064 21006 30076 40086 52039 91750
BBXX AMOUK10 07184 99508 70011 46/// ///// 10082 2//// 30172 4//// 52030 91750
BBXX AMOUK09 07184 99521 10024 46/// ///// 10083 20007 30058 40072 52017 91750
BBXX AMOUK14 07184 99536 70042 46/// ///// 10080 20010 30089 40121 52043 91750
BBXX AMOUK11 07184 99533 70050 46/// ///// 10079 20023 30078 40121 52010 91750
BBXX AMOUK27 07184 99579 70052 46/// ///// 10032 20012 30017 40020 52028 91750
BBXX AMOUK06 07184 99507 70014 46/// ///// 10091 20017 30154 40171 52028 91750
BBXX AMOUK02 07184 99535 70030 46/// ///// 10076 20015 30081 40114 52006 91750
BBXX AMOUK05 07184 99519 10041 46/// ///// 10083 20003 30021 40059 52035 91750
BBXX 62120 07184 99564 10021 47598 /0118 10058 20024 49969 700// 22200
BBXX 62132 07184 99564 10020 46/// /3305 10093 20034 49959 53050 22200
BBXX 62123 07184 99563 10022 47599 /3621 10065 20028 49959 52057 700// 22200
BBXX 62111 07184 99580 70003 46/// /3419 10054 20010 49984 51045 22200 10705 70024
BBXX PJAI 07184 99581 70014 47598 /2919 10072 20009 49987 53038 700// 22200
BBXX 62112 07184 99584 70002 47498 /2909 10051 20001 49973 52034 700// 22200
BBXX 63055 07184 99606 10016 47999 /1302 10059 21020 49945 52025 700// 22200 10804 70022
BBXX 63108 07184 99608 10017 47998 /0905 10048 21028 49939 51022 700// 22200 10805 70024
BBXX 63106 07184 99610 10017 46/// /1010 10057 49946 52020 22200
BBXX 63105 07184 99610 10017 47698 ///// 10053 21024 49946 52019 700// 22200
BBXX 63113 07184 99610 10017 46/// /1009 10068 21025 49944 52019 22200 10705 70024
BBXX 63112 07184 99611 10010 47/98 /1408 10059 21033 49945 52022 700// 22200 10705 70025
BBXX 63107 07184 99611 10017 46/// /0910 10055 49944 52020 22200
BBXX 63101 07184 99612 10009 46/// /1311 10061 21010 49945 52017 22200
BBXX 63103 07184 99612 10011 46/// /1309 10058 21023 49946 52019 22200 10805 70024
BBXX 63104 07184 99612 10016 47998 /1010 10055 21030 49946 52018 700// 22200
BBXX 63117 07184 99613 10011 47699 /1211 10056 21022 49946 52016 700// 22200
BBXX 63115 07184 99616 10013 47998 /0910 10058 21021 49944 51015 700// 22200 10805 70025
BBXX 62165 07184 99540 10009 47998 /2835 10070 20002 40055 52047 700// 22200 10709 70044
BBXX MWYG6 07184 99603 70040 47998 /2729 10068 700// 22200
BBXX 62144 07184 99534 10017 47598 /2837 10067 20005 40080 52038 700// 22200 10608 70040
BBXX 64041 07184 99607 70026 47598 /2215 10052 21003 49936 51011 700// 22200 10907 70037
BBXX 62145 07184 99531 10028 47597 /2738 10073 20007 40068 53036 700// 22200 10710 70048
BBXX 62142 07184 99530 10021 46597 /2940 10076 20009 40048 52040 22200 10608 70041
BBXX 62127 07184 99540 10007 47598 ///// 10062 20006 40042 52047 700// 22200 10708 70042
BBXX 62131 07184 99539 10012 46/// /30// 10069 20010 40034 52043 22200
BBXX 62149 07184 99537 10011 47998 /2835 10067 20014 40046 52044 700// 22200 10708 70040
BBXX 62164 07184 99572 10008 47697 /3117 10071 20016 49985 52067 740// 22200 00102 10706 70029
BBXX 62146 07184 99572 10021 47/99 /3509 10061 20001 49964 52065 700// 22200 10806 70028
BBXX 62140 07184 99573 10013 46/// /34// 10071 20008 49969 52059 22200
BBXX 62122 07184 99573 10016 47699 /3412 10067 20002 49968 52061 700// 22200 10806 70030
BBXX 62153 07184 99573 10020 47699 /3414 10066 21009 49968 52060 700// 22200 10805 70027
BBXX 62104 07184 99574 10013 47698 /3313 10074 20005 49969 52058 700// 22200
BBXX 62116 07184 99576 10011 47598 /3317 10069 20005 49970 52052 700// 22200 10705 70025
BBXX 62155 07184 99577 10007 47699 /3011 10064 20003 49974 52050 751// 22200 10705 70025
BBXX 62118 07184 99577 10009 47798 /3412 10053 21003 49964 52049 700// 22200 10805 70025
BBXX 62143 07184 99577 10018 47598 /3211 10065 21002 49969 52054 700// 22200 10805 70027
BBXX 62117 07184 99579 10000 47598 /2816 10065 20018 49974 52042 700// 22200 10704 70020
BBXX 62102 07184 99579 10018 46/// ///// 22200
BBXX 62134 07184 99580 10014 47698 /3114 10064 21005 49966 52043 700// 22200 10705 70025
BBXX 62114 07184 99583 10000 46/// /2915 10065 21019 49970 52035 22200
BBXX ZQSD5 07184 99583 10007 46/// /3109 10081 21021 49973 52039 22200
BBXX 62113 07184 99584 10002 47699 /3112 10083 21032 49965 52035 700// 22200
BBXX 62129 07184 99584 10003 46/// ///// 10064 21037 49965 52037 22200
BBXX 62128 07184 99587 10014 47599 /2917 10054 21006 49962 52038 700// 22200 10805 70027
BBXX 63057 07184 99592 10015 47498 /3010 10056 20007 49949 52031 700// 22200 10805 70024
BBXX 62148 07184 99536 10015 46/// /2840 10068 20010 40060 52037 22200
BBXX 63056 07184 99597 10016 47598 /0000 10056 20013 49936 52030 700// 22200 10805 70026
BBXX PJGO 07184 99571 10022 47898 /3414 10065 20013 49964 52061 700// 22200
BBXX 62133 07184 99571 10009 46/// /3413 10064 21004 49977 52067 22200
BBXX 62119 07184 99570 10019 47998 /3308 10056 20012 49969 52072 700// 22200 10706 70028
BBXX 62150 07184 99536 10007 47998 /2833 10063 20005 40073 52040 700// 22200 10607 70033
BBXX 62152 07184 99570 10018 47/98 /3307 10065 20016 49972 52071 700// 22200 10606 70030
BBXX 62121 07184 99535 10027 46/// /2837 10073 20009 40021 52044 22200
BBXX 62154 07184 99564 10022 46/// /0119 10061 20020 49954 53058 22200
BBXX 62305 07184 99504 10000 46/98 /3037 10102 20022 40175 52032 22200 00131 10705 70024 333 90710 91147
BBXX 62304 07184 99511 10018 46/98 /2729 10090 21005 40129 51036 22200 00123 10603 70015 333 90710 91143
BBXX 62170 07184 99514 10020 46/97 /2839 10091 20008 40114 52040 22200 00120 10604 70018 333 90710 91152
BBXX 62094 07184 99517 70067 46/// /2820 10097 20041 40188 51028 22200 00116 10505 70025 333 90710 91127
BBXX 62092 07184 99512 70105 46/// /2716 10111 20060 40202 51011 22200 00121 11012 70062
BBXX 62095 07184 99530 70159 46/// /2215 10098 20074 40132 57027 22200 00118 10909 70047
BBXX 62107 07184 99501 70061 46/// /3122 10113 20051 40211 52021 22200 00124 10806 70031 333 90710 91132
BBXX JPBN 07184 99353 11490 41/98 20110 10142 20008 40132 58023 70211 82201 22241 00203 1//// 20301 399// 4//03
BBXX JGQH 07184 99299 11370 41/97 72408 10196 20119 40170 57012 70222 8527/ 22241 00228 10802 20201 399// 4//02 70012
BBXX JGQH 07184 99299 11370 41/97 72408 10196 20119 40170 57012 70222 8527/ 22241 00228 10802 20201 399// 4//02 70012
BBXX JPBN 07184 99353 11490 41/98 20110 10142 20008 40132 58023 70211 82201 22241 00203 1//// 20301 399// 4//03
AAXX 07181 29998 42999 00000 11284 21284 38774 48595 52002
AAXX 07181 30385 42999 00201 11268 21281 39869 40466 58003
AAXX 07181 30469 429// 00000 11383 21396 39661 40555 52007
AAXX 07181 30636 NIL
AAXX 07181 30650 42984 00000 11342 21359 39272 40563 52005
AAXX 07181 30664 42999 00000 11348 21365 39406 40554 52007
AAXX 07181 30781 42999 00000 11338 21362 39952 40497 52006
AAXX 07181 30777 42998 02502 11311 21334 39754 40499 52004
AAXX 07181 30844 42599 72502 11160 21173 39428 40476 52003 875// 333 87630
AAXX 07181 30925 429// 00000 11214 21226 39436 40504 53009
AAXX 07181 31371 42999 03601 11306 21330 30100 44102 57002
AAXX 07181 31388 42984 00000 11314 21324 30058 40356 57006
AAXX 07181 31478 NIL
AAXX 07181 31532 42999 00000 11327 21344 39970 40362 58005
AAXX 07181 31594 42999 03501 11270 21282 30154 40345 56002
AAXX 07181 31655 42997 21802 11224 21242 30231 40283 54000 82051
AAXX 07181 31754 42999 00000 11290 21301 39752 40314 52004
AAXX 07184 40582 32960 02804 10078 21088 40220 51010 333 55300 00000 10260 20000 30000 40959 51218 60000 55407 40000 90401 91005 91113 91211 91305
AAXX 07184 41150 NIL
AAXX 07184 41168 NIL
AAXX 07184 41170 429664 03107 10165 20040 30194 40207 333 10215 58012
AAXX 07184 41176 NIL
AAXX 07184 41184 NIL
AAXX 07184 41194 NIL
AAXX 07184 41196 NIL
AAXX 07184 41198 NIL
AAXX 07184 41210 NIL
AAXX 07184 41216 NIL
AAXX 07184 41217 NIL
AAXX 07184 41218 NIL
AAXX 07184 41226 NIL
AAXX 07184 41244 36/// /3003 10177 20123 39835 48216 333 0E018 10238 58009
AAXX 07184 41246 32560 43209 10235 20163 30163 40167 82530 333 10267 59001 82625 83360
AAXX 07184 41254 36/// /9902 10082 21021 37959 47964 333 0E007 10150 59008
AAXX 07184 41256 32960 21402 10222 20133 30158 40168 80001 333 10260 59002 82070
AAXX 07184 41258 26/// /1602 10241 20126 30157 40162 333 0E/// 10255 59002 70000
AAXX 07184 41268 NIL
AAXX 07184 41312 36/// /0112 10257 20028 30128 40167 333 0E057 10301 58008
AAXX 07184 41314 32960 09901 10175 21027 39687 40200 333 10244 58004
AAXX 07184 41316 32960 00113 10247 21019 30145 40171 333 10295 58009
AAXX 07184 41404 42960 00303 10132 21054 37889 48547 333 10243 58002
AAXX 07184 41407 NIL
AAXX 07184 41431 42960 00000 10264 20231 30120 40133 333 10300 58005
AAXX 07184 41466 42760 11404 10176 20120 38576 48478 81050 333 10264 59008 81356
AAXX 07184 41477 NIL
AAXX 07184 41480 42460 30907 10266 20191 30162 40165 83501 333 10300 58010 83618
AAXX 07181 23909 11396 82004 11009 21016 39899 40148 57003 60020 77172 8571/ 333 10010
AAXX 07181 28044 32597 82005 10008 21033 30053 40217 52002 885// 333 10028
AAXX 07181 28116 11496 81403 11018 21026 39948 40183 52003 60040 78582 889// 333 10008 93402
AAXX 07181 28240 31998 61705 11012 21077 39933 40261 52003 73632 86030 333 10025
AAXX 07181 28522 11997 52006 11044 21098 30015 40281 53001 69920 70232 85030 333 11022
AAXX 07181 28621 32997 71606 11053 21118 30035 40276 54000 80002 333 11032
AAXX 07181 29023 41396 82503 11028 21041 30216 40315 52015 71022 886// 333 88707
AAXX 07181 29122 41499 82205 11024 21040 30261 40335 52011 70232 885// 333 88614
AAXX 07181 29328 42398 82403 11058 21069 30242 40387 52015 886// 333 88707
AAXX 07181 29348 41997 82503 11051 21065 30227 40377 52016 70232 8801/
AAXX 07181 29405 42997 12303 11058 21073 30233 40386 52007 80001
AAXX 07181 29418 42398 82203 11065 21070 30225 40391 52004 886//
AAXX 07181 29430 42498 11077 21091 30216 40400 52017 886// 333 86713
AAXX 07181 29524 42498 82204 11084 21090 30233 40404 52010 885//
AAXX 07181 29605 42998 02202 11123 21129 30259 40411 52004
AAXX 07181 29631 42997 82404 11086 21093 30223 40418 52006 80001
AAXX 07181 29645 42998 21703 11059 21085 30223 40417 52002 80001
AAXX 07181 29706 42998 02503 11160 21173 30269 40429 52005
AAXX 07181 29736 42998 01501 11148 21161 30173 40443 52006
AAXX 07181 29937 42997 02201 11131 21158 30224 40462 52002
AAXX 07181 36034 42998 02802 11177 21196 30170 40473 58001
AAXX 07181 36096 41997 70000 11273 21292 39723 40607 52011 70272 83032 333 95090
AAXX 07181 28216 11597 81606 11041 21063 39915 40204 52011 60030 77177 8872/ 333 10001
AAXX 07181 28428 11998 82107 11032 21095 30083 40273 53002 69930 73632 80001 333 11011
AAXX 07181 28451 32996 22802 11060 21113 30153 40320 52003 80001 333 11006
AAXX 07181 28541 32984 51502 11030 21127 39809 40314 58002 85030 333 10022
AAXX 07181 28655 32998 72207 11089 21137 30135 40370 52007 80002 333 11046
AAXX 07181 28756 32997 21904 11137 21158 30253 40413 52006 80001 333 11087
AAXX 07181 29557 42698 62705 11020 21059 30112 40385 53005 86500
AAXX 07181 29625 42598 82503 11090 21097 30230 40419 52006 885// 333 88626
AAXX 07181 29813 42999 02201 11154 21167 30227 40422 52007
AAXX 07181 29822 42997 01801 11141 21154 30262 40439 52003
AAXX 07181 29915 42998 02401 11152 21165 30267 40438 53006
AAXX 07181 36020 42998 02102 11130 21143 30222 40437 53003
AAXX 07184 83550 31597 4//// 10292 20227 30084 40113 70201 82204 333 58001
AAXX 07184 83552 32598 6//// 10323 20237 39924 4//// 86300 333 59002
AAXX 07184 83623 32996 7//// 1//// 2//// 39507 4//// 58034 86540
AAXX 07184 83630 21295 80506 10203 20186 3//// 4//// 56016 76166 8577/ 333 60091
AAXX 07184 83698 32799 80000 10296 20228 30120 40134 56010 887//
AAXX 07184 83702 32499 80502 10309 20211 39340 40077 58018 88900
AAXX 07184 83704 32698 50502 10300 20219 39675 40076 58006 85100
AAXX 07184 83738 21698 83204 10240 20224 39610 40103 56005 75050 887// 333 69931
AAXX 07184 82586 32598 43609 10340 20214 39834 40068 84200 333 59005
AAXX 07184 82678 32596 40902 10356 20182 39930 40068 83101 333 58017
AAXX 07184 82784 32598 41403 10334 20243 39611 40055 84100 333 58004
AAXX 07184 82791 32599 42304 10352 20168 39777 40051 84200 333 58000
AAXX 07184 82983 32598 41406 10334 20191 39659 40066 84100 333 58007
BBXX 41115 07181 99184 70673 46/// ///// 1//// 91805 22200 11003 21003 301// 41102 70016
BBXX 41114 07181 99276 70802 46/// ///// 1//// 91816 22200 00242 11003 21002 308// 41101 70013
BBXX 44098 07181 99428 70702 46/// ///// 1//// 91807 22200 00099 10902 20902 311// 41101 70012
BBXX 44032 07181 99437 70694 46/26 /0306 10062 40083 58022 91804 22200 00095 11103 70014 333 91208 555 11074 22078
BBXX 51205 07181 99210 71564 46/// ///// 1//// 91818 22200 00245 11305 20804 332// 41303 70023
BBXX 46114 07181 99364 71222 46/// ///// 1//// 91804 22200 00112 11102 20802 329// 41102 70011
BBXX 46088 07181 99483 71232 46/// /0304 10059 40318 91820 22200 00083 10701 70003 333 91205 555 11043 22044 31819 40205 61819 029041 037035 038034 039034 046025 048017
BBXX SHIP 07184 99031 30919 41498 32807 10270 20260 40090 57002 70200 83/// 22233 06293 11003 399// 4////
AAXX 07181 38388 32998 00000 11043 21085 30239 40313 52002 333 10022
AAXX 07181 38392 31193 91004 11072 21081 30227 40337 52004 74341 333 11020 89/02
AAXX 07181 38507 32996 01203 10008 21028 30143 40249 52006 333 10081
AAXX 07181 38511 32998 00706 11020 21029 30142 40289 58005 333 10017
AAXX 07181 38545 32998 00000 11050 21086 30138 40324 57002 333 11023
AAXX 07181 38647 32497 50908 10026 21010 30205 40248 57002 85600 333 10031
AAXX 07181 38656 32998 00903 11010 21035 30183 40297 54000 333 10047
AAXX 07181 38687 31996 00502 11019 21028 30066 40311 58003 71000 333 10008
AAXX 07181 38750 32997 00202 10042 20011 30264 40235 52002 333 10117
AAXX 07181 38763 32997 00907 10026 21001 30149 40257 52001 333 10027
AAXX 07181 38774 31495 81104 10028 20004 30082 40283 54000 71022 886// 333 10030
AAXX 07181 38799 32597 80903 11010 21020 30067 40310 52006 885// 333 11005
AAXX 07181 38806 31/92 90000 11019 21022 30039 40311 52003 74544 333 10016
AAXX 07181 38880 32497 80905 10027 20003 30019 40282 50002 886// 333 10030 88712
AAXX 07181 38886 31598 81003 10016 21003 30052 40288 52004 71022 885// 333 10077
AAXX 07181 38895 32996 80803 11006 21012 30001 40303 54000 8802/ 333 10035
AAXX 07181 38911 31/92 93601 11014 21014 39999 40307 54000 74544 333 11005
AAXX 07181 38915 31993 80401 10000 21005 39970 40305 54000 74444 8801/ 333 10013
AAXX 07181 38974 32998 80503 10011 20000 39934 40279 52002 83078 333 10074
AAXX 07181 38987 32996 02101 10000 21012 39516 40286 52007 333 10071
AAXX 07181 23914 11397 81805 11019 21021 39919 40179 52002 60040 77372 8872/ 333 10007
AAXX 07181 23921 11698 72001 11004 21042 30074 40193 53003 69900 70282 85530 333 10036
AAXX 07181 23955 41584 82404 11024 21043 30233 40296 52009 70282 883// 333 84620
AAXX 07181 23966 41499 82203 11028 21044 30151 40280 52018 70282 889//
AAXX 07181 28138 11599 82503 11036 21027 39661 40241 54000 60030 70273 82507 333 11010
AAXX 07181 28224 11597 82007 11020 21062 30004 40222 53006 69960 73632 8352/ 333 10003 91012 91113
AAXX 07181 28255 32594 82302 11032 21085 30153 40286 52004 83301 333 10008
AAXX 07181 28440 32997 62103 11018 21093 39943 40300 54000 80005 333 10016
AAXX 07181 28645 32997 22003 11076 21131 30050 40360 52002 80001 333 11047
AAXX 07181 28661 32997 62107 11095 21133 30285 40382 52008 83032 333 11039
AAXX 07181 28722 31997 61807 11065 21121 30166 40303 53001 73632 86050 333 11037
AAXX 07181 28748 32965 21804 11118 21146 30137 40395 52004 80001 333 11041
AAXX 07181 28838 31996 82101 11173 21185 39889 40409 52003 77171 8807/ 333 11095
AAXX 07181 29231 42498 82203 11043 21052 30260 40360 52020 889// 333 88911
AAXX 07181 29313 42498 82203 11046 21052 30246 40373 52013 885// 333 88613
AAXX 07181 29612 42398 81802 11089 21096 30251 40410 52005 886// 333 88707
AAXX 07181 29638 42598 62103 11089 21100 30250 40425 52006 86900
AAXX 07181 29838 42997 01901 11116 21144 30206 40455 52005
AAXX 07181 29846 42560 82103 11037 21081 30045 40444 51003 8495/
AAXX 07181 36061 42999 20000 11144 21150 30039 40480 53002 80001
BBXX 51203 07181 99208 71570 46/// ///// 1//// 91813 22200 00252 10802 20802 328// 41301 70010
BBXX 52200 07181 99134 11448 46/// ///// 1//// 91815 22200 00287 11004 21004 308// 41101 70021
BBXX 51201 07181 99217 71581 46/// ///// 1//// 91812 22200 00246 11304 21003 333// 41303 70020
AAXX 07181 22845 11496 82104 11009 21022 39910 40068 52013 69900 77172 8672/ 333 10002 86711
BBXX SHIP 07184 99233 11227 41398 70815 10240 20219 40148 55007 70302 86//6 22214 00256 2//// 3//// 4//// 80225
BBXX SHIP 07184 99315 11498 41598 63616 10180 20122 40140 56006 70222 85/// 91800 22264 00220 2//// 3//// 4//// 80145
BBXX A8LG9 07184 99500 11735 41598 13144 10025 20001 49990 52070 70161 81500 22253 00020 2//// 3//// 4//12 5//// 80015
BBXX SHIP 07184 99264 11708 41397 31211 10245 20209 40166 55003 70211 82140 22263 06254 20302 33611 41006 50503 80220
BBXX SHIP 07184 99279 11338 41398 61408 10210 20164 40204 57008 70211 85343 22284 00230 80180
BBXX SHIP 07184 99374 11756 41/// 91325 10130 20073 40156 52010 70311 89/// 22264 00190 80100
BBXX SHIP 07184 99229 11600 41/97 50912 10258 20221 40131 57010 70311 8//// 22200 04264
BBXX 7JJA 07184 99116 11123 41797 83405 00 10270 40080 57005 71388 86827 9//// 22213 0 2//02 3 4 5 6//// 80260 ICE/////
BBXX DDYL2 07183 99358 11209 41/98 /0232 10052 21023 40280 52010 72162 8//// 22200 00130 2//// 80022
BBXX SHIP 07184 99243 11340 41698 51116 10210 20180 40157 57010 702// 8423/ 22244 00249 80190
BBXX SHIP 07184 99189 11439 41/// 40819 10264 40112 57002 70211 8//// 22273 00279
BBXX SHIP 07184 99124 11309 41397 70918 10270 20243 40056 56014 72022 8646/ 22283 00293 399// 4//// 5//// 80250
BBXX SHIP 07184 99222 11302 41498 80825 10240 20212 40129 57003 70311 8//// 22284 00245 2//// 3//// 4//// 80220
AAXX 07184 60650 36/// /0415 10221 21024 333 10262
AAXX 07184 60667 36/// /0000 10187 21073 333 10247
AAXX 07181 60373 36/// /0101 10141 20140 333 10178
AAXX 07181 60623 36/// /0000 10180 21154 333 10236
AAXX 07181 60393 36/// /0000 10150 20123 333 10205
BBXX DFWV2 07184 99230 71165 41598 20418 10205 20132 40190 52015 70200 8/146 22273 04190 2//05 335// 4//03 5//// 80160
AAXX 07184 60677 36/// /0000 10185 21058 333 10228
AAXX 07181 89064 11250 71603 10014 29089 49743 52068 69981 70277 8767/
AAXX 07184 60692 36/// /0409 10270 21089 333 10317
BBXX C6XQ2 07184 99115 50347 41597 50911 10270 20202 40118 54000 70200 83145 22243 04270 20503 309// 40704 5//// 80225
AAXX 07184 60691 36/// /0509 10242 21117 333 10311
AAXX 07184 60633 36/// /0506 10231 21140 333 10293
AAXX 07184 60662 36/// /0000 10167 21080 333 10211
AAXX 07184 60661 36/// /0315 10199 21059 333 10261
BBXX PBEO 07183 99376 10098 41597 63022 10177 20124 40270 52019 70311 844// 22262 02188 20403 332// 40703 80145
AAXX 07184 60679 36/// /0718 10073 21101 333 10111
AAXX 07184 16168 12270 12310 10100 20067 39435 42795 56006 60002 81500 333 10142 81605
AAXX 07184 60672 36/// /0910 10199 21074 333 10218
AAXX 07181 30636 429// 20000 11279 21291 39826 40515 52002 82030
AAXX 07184 60676 36/// /0510 10182 21072 333 10222
AAXX 07184 60664 36/// /0000 10172 21068 333 10237
BBXX SHIP 07184 99438 70347 41598 62021 10154 20136 40232 54000 70222 8286/ 22223 00150 20504 80143
BBXX SHIP 07184 99295 30781 41498 60918 10210 20147 40203 50002 70222 8549/ 22224 00204 80170
BBXX SHIP 07184 99075 30883 41497 82712 10263 20241 40077 58004 70282 85812 22262 00280 11006 20303 327// 40604 85247
BBXX VQIC2 07184 99342 31703 41598 71907 10165 20148 40148 53011 71922 8777/ 22223 00200 20602 323// 42003 5//// 80155
BBXX SHIP 07184 99295 30781 41498 60918 10210 20147 40203 50002 70222 8549/ 22224 00204 80170
BBXX SHIP 07184 99075 30883 41497 82712 10263 20241 40077 58004 70282 85812 22262 00280 11006 20303 327// 40604 85247
BBXX VQIC2 07184 99342 31703 41598 71907 10165 20148 40148 53011 71922 8777/ 22223 00200 20602 323// 42003 5//// 80155
BBXX SHIP 07184 99100 31144 41/97 42114 40050 56021 70211 84/// 22242 00292 10219
AAXX 07181 14216 12675 71202 10104 20067 39981 40132 57/// 60002 87500 333 10130 923// 924/8
AAXX 07181 14219 12570 71809 10058 20013 39102 48421 58/// 60002 87500 333 10065
AAXX 07181 14232 12984 20901 10021 20016 39975 40113 57/// 60002 81041 333 10087
AAXX 07181 14234 11975 50402 10026 20014 39857 40107 57/// 60002 700// 80002 333 10061
AAXX 07181 14236 11940 23203 10052 20018 39904 40102 57/// 60002 710// 82040 333 10053
AAXX 07181 14244 12970 41501 10038 20022 39979 40110 57/// 60002 82031 333 10067
AAXX 07181 14248 11656 13202 10011 20006 39933 40111 54/// 60002 7100/ 81500 333 10038
AAXX 07181 14253 12560 22301 10046 20009 39930 40105 57/// 60002 82400 333 10067
AAXX 07181 14256 12970 42204 10065 21005 39776 40094 57019 60002 82032 333 10081
AAXX 07181 14280 11920 01703 10032 20023 30005 40115 57017 60002 710// 333 10065
AAXX 07181 14308 12970 00501 10037 20017 39777 40135 57/// 60002 333 10120
AAXX 07181 14321 12680 61308 10129 20082 30115 40139 57/// 60002 86800 333 10145 92334 92448
AAXX 07181 14370 11910 00000 10017 20005 30014 40125 57014 60002 71000 333 10076
AAXX 07181 14382 11650 71804 10054 20018 30000 40121 57014 60002 710// 87500 333 10054
AAXX 07181 14428 12970 11003 10106 20069 30141 40148 58/// 60002 81040 333 10145 92312
AAXX 07181 14441 12982 23401 10104 20069 30136 40161 54/// 69912 80001 333 10160 92311
AAXX 07181 14452 NIL
AAXX 07181 14454 12680 20702 10115 20049 30104 40164 54/// 60002 81408 333 10161 92311
AAXX 07181 14462 12980 10000 10065 20046 30172 40178 53/// 60002 81070 333 10143
BBXX ZMENA 07184 99368 31748 46/// ///// 10163 20127 40112 52018 22281
BBXX V2QD4 07183 99342 31727 41397 61913 10180 20164 40133 51010 70311 86868 22263 00190 20301 326// 40803
AAXX 07184 93800 16/// /2003 10099 20057 40111 52020 60001
AAXX 07184 93805 16/// /2107 10103 20069 40130 52013 60001
AAXX 07184 93994 16/// /3310 10219 20205 40099 52003 60001
BBXX ZMENA 07184 99368 31748 46/// ///// 10163 20127 40112 52018 22281
BBXX V2QD4 07183 99342 31727 41397 61913 10180 20164 40133 51010 70311 86868 22263 00190 20301 326// 40803
AAXX 07181 22583 12484 71802 11001 21016 39975 40055 52014 69950 875// 333 10007 87618
AAXX 07181 21432 NIL
AAXX 07181 21824 41995 32209 11200 21214 30213 40222 57005 73831 81031
AAXX 07181 21908 42999 20000 11265 21283 30117 40205 57014 80001
AAXX 07181 21921 41997 80000 11264 21295 30214 40262 57023 77071 80007
AAXX 07181 21931 42998 82702 11190 21223 30214 40248 54000 8801/
AAXX 07181 21946 41496 82404 11215 21233 30123 40207 57013 77172 8553/ 333 85610
AAXX 07181 21982 11998 30502 11185 21204 30133 40162 57011 69932 70273 83030 333 21190 49015 91104
AAXX 07181 25062 11597 62804 11175 21204 30178 40182 57015 69902 70232 86500 333 21247 47010 91106
AAXX 07181 25123 41996 81202 11297 21328 30201 40237 57012 77171 84074
AAXX 07181 25138 41699 50501 11388 21417 30106 40246 57015 70272 82501 333 91102
AAXX 07181 25173 32599 63104 11212 21244 30169 40174 57017 86500 333 21287 48046 91107
AAXX 07181 25248 41997 80000 11415 21443 39727 40247 57023 77171 8801/ 333 91101
AAXX 07181 25282 11556 80210 11148 21154 30105 40111 57030 60030 77273 885// 333 21235 46004 55000 91113
AAXX 07181 25325 NIL
AAXX 07181 25356 32999 63202 11198 21247 39985 40090 57028 80004 333 21393 48019 55000 91004
AAXX 07181 25399 11431 80808 11086 21101 39982 49991 57046 60050 77373 8872/ 333 21150 48047 55000 91111
AAXX 07181 25428 41923 70000 11430 21461 39881 40269 57017 77872 82036 333 91100
AAXX 07181 25551 32998 03202 11286 21310 30066 40100 57019 333 21323 47024 55000 91103
AAXX 07181 25563 11410 83614 11154 21173 39918 49998 57030 60032 77373 8872/ 333 21276 48018 55005 91119
AAXX 07181 25594 11594 80412 11052 21052 39857 49907 57027 60012 77173 885// 333 21114 48022 91118
AAXX 07181 25677 NIL
AAXX 07181 31054 41998 80000 11358 21386 30113 40427 57010 77172 8802/
AAXX 07181 31123 42998 23101 11360 21390 30098 40476 58015 80001
AAXX 07184 13624 12965 11404 10056 20041 30144 40183 52014 60022 81030 333 10170 81360
AAXX 07184 13610 11330 80000 10062 20041 39753 40181 52004 60002 71022 885// 333 10070 88606
AAXX 07184 13622 12665 20000 10090 20056 30173 40180 52008 69922 82500 333 10160 82640
AAXX 07184 13625 12760 13204 10088 20031 39937 40169 52006 69922 81100 333 10138 81856
BBXX C6XQ2 07184 99115 50347 41597 50911 10270 20202 40118 54000 70200 83145 22243 04270 20503 309// 40704 5//// 80225
BBXX A8AD7 07183 99275 70164 41695 80110 10245 20152 40120 55010 70322 8/678 22243 02255 2//// 30000 80185
BBXX A8LH7 07183 99255 70155 41298 60517 10220 20190 40195 57005 70322 84645 22214 29903 30000 40000 50000 80200
BBXX 2AQK7 07183 99042 70049 41397 61911 10272 20239 40100 53007 7//88 8677/ 22223 20301 31800 40402 5//// 80249
AAXX 07184 61600 32960 70604 10312 20129 30104 40109 80002 333 10340 58002 87073
AAXX 07184 61612 32960 60000 10295 20051 30115 40123 80002 333 10320 58012 86073
AAXX 07184 61627 32960 40804 10330 20049 3//// 4//// 80002 333 10355 5//// 84073
AAXX 07184 61630 32960 00804 10318 20109 30097 40116 333 10346 58014
AAXX 07184 61641 32957 53407 10267 20195 30076 40109 80002 333 10315 58002 85073
AAXX 07184 61666 32962 60000 10342 20135 30090 40098 80002 333 10365 58010 86073
AAXX 07184 61679 32962 30804 10335 20192 30104 40112 80002 333 10362 58013 83073
AAXX 07184 61687 32960 10206 10341 20148 30044 40101 81030 333 10363 58007 81363
AAXX 07184 61695 32960 00802 10308 20170 30072 40098 333 10335 58003
AAXX 07184 61697 32960 00404 10305 20180 30082 40096 333 10335 58000
AAXX 07184 61698 32960 00000 10330 20160 30086 40097 333 10366 58007
AAXX 07184 61699 32958 31004 10327 20086 39896 40084 80002 333 10356 58009 83073
BBXX A8AD7 07183 99275 70164 41695 80110 10245 20152 40120 55010 70322 8/678 22243 02255 2//// 30000 80185
BBXX DDLK 07183 99445 70402 41295 82518 10150 20147 40176 57024 71022 886// 22264 20703 325// 40904 80148
BBXX A8LH7 07183 99255 70155 41298 60517 10220 20190 40195 57005 70322 84645 22214 29903 30000 40000 50000 80200
BBXX 2AQK7 07183 99042 70049 41397 61911 10272 20239 40100 53007 7//88 8677/ 22223 20301 31800 40402 5//// 80249
AAXX 07184 13601 12660 30000 10104 20081 30067 40168 52012 60022 83100 333 10156 83840
AAXX 07180 44225 419// 00000 11300 21314 38418 40658 53002 70171
AAXX 07184 13600 12663 10904 10090 20074 30133 40186 52011 60002 81200 333 10132 81840
BBXX MINFR05 0718/ 99514 10026 46/// ///// 10085 40105 52034
BBXX MINUK05 0718/ 99587 70034 46/// ///// 10073 49975 52021
BBXX DFWV2 07184 99230 71165 41598 20418 10205 20132 40190 52015 70200 8/146 22273 04190 2//05 335// 4//03 5//// 80160
BBXX DDLK 07183 99445 70402 41295 82518 10150 20147 40176 57024 71022 886// 22264 20703 325// 40904 80148
BBXX PBEO 07183 99376 10098 41597 63022 10177 20124 40270 52019 70311 844// 22262 02188 20403 332// 40703 80145
BBXX SHIP 07184 99438 70347 41598 62021 10154 20136 40232 54000 70222 8286/ 22223 00150 20504 80143
BBXX A8IF4 07183 99377 71527 41498 53615 10170 20137 40220 52010 70211 81468 22263 06170 2//// 317// 41404 80150
BBXX DGWE2 07183 99183 10647 41998 00112 10245 20169 40150 54000 70200 80000 22234 00280 29901 80195
AAXX 07184 62305 32960 02209 10139 20049 40221 54000 333 10188
AAXX 07184 62306 32960 12409 10130 20053 40218 52001 80001 333 10208
AAXX 07184 62318 32560 22703 10167 20129 40218 52006 82500 333 10220
AAXX 07184 62337 NIL
AAXX 07184 62366 31920 03003 10170 20088 40222 52010 70500 333 10198
AAXX 07184 62393 32960 03107 10138 20083 40219 51008 333 10194
AAXX 07184 62405 32960 01702 10156 20066 40190 52013 333 10240
AAXX 07184 62414 32960 03507 10182 20003 40192 52011 333 10241
AAXX 07184 62417 32960 03102 10128 20071 40236 52009 333 10212
AAXX 07184 62440 32960 00503 10156 20119 40216 52007 333 10208
AAXX 07184 62463 32960 23313 10173 20097 40195 52014 80002 333 10226
AAXX 07184 62465 32960 03207 10194 20113 40179 52009 333 10222
AAXX 07184 62419 NIL
BBXX 2ALE5 07183 99048 70040 41698 32110 10278 20242 40093 53005 70300 833// 22221 20401 318// 40802 80253
AAXX 07184 65557 32460 5//// 10268 20233 39856 40095 85200 333 10/// 58008 85813 94919
AAXX 07184 65560 32960 2//// 10292 20216 39782 40089 80002 333 10332 58008 82076
AAXX 07184 65562 32958 5//// 10306 20218 3//// 4//// 80002 333 10345 5//// 83080
AAXX 07184 65563 32460 40000 10280 20237 39856 40095 82230 333 10312 58008 82813 84360 94915
AAXX 07184 65578 11460 60000 10260 20246 30/// 40/// 60072 72996 86900 333 10315 5//// 81916 86620 94945 95875
AAXX 07184 65585 32460 6//// 10285 20242 3//// 4//// 83902 333 10318 5//// 83815 81926 85076 94931 94938 95838
AAXX 07184 65592 11460 7//// 10262 20259 30069 40091 60042 70396 875// 333 10300 58004 87615
AAXX 07184 65594 11460 70000 10264 20237 30068 40102 60162 70396 84202 333 10297 58011 84613 87080 94904
AAXX 07184 65599 11460 7//// 10260 20241 30018 40092 60042 70399 92972 333 10292 58014 82913 85076 94964 94967 95837
AAXX 07181 14324 11/00 92710 10000 20000 38360 48465 56/// 60002 749// 333 10002 42002
AAXX 07181 14328 12565 42410 10111 20033 39700 40087 58/// 60002 84800 333 10115
AAXX 07181 10895 01382 63006 10022 20012 39506 40081 53030 60072 72787 8387/ 333 10053 21002 3/000 42003 55300 20000 30000 69917 81809 86360 91120 91213 96287 96285 96278 96485 96483 96461
AAXX 07184 91487 NIL
AAXX 07184 91490 NIL
AAXX 07184 91533 NIL
AAXX 07184 91601 NIL
AAXX 07184 91610 11599 70812 10272 20237 40064 53010 60001 70200 84239 333 56299 82818 83340
AAXX 07184 91623 NIL
AAXX 07184 91629 NIL
AAXX 07184 91701 11499 31002 10272 2025/ 60001 70222 83200 333 562// 83818
AAXX 0718/ 89799 46/// ///// 11266 4//// 5////
AAXX 0718/ 89332 46/// ///// 11053 39124 4//// 5////
BBXX 46147 07181 99518 71312 46/// /2601 10059 40352 52005 22200 00084 11004 70019 333 91202
BBXX 46147 07181 99518 71312 46/// /2601 10059 40352 52005 22200 00084 11004 70019 333 91202
AAXX 07180 44219 419// 80000 11172 21198 38778 40546 51015 77172 8802/
AAXX 07181 26059 11496 81503 10008 21015 39994 40019 51003 69902 78582 889// 333 10019 86918
AAXX 07184 41268 36/// /3303 10222 20128 30150 48130 333 0E024 10269 59002
AAXX 07181 25703 41697 80000 11354 21383 39984 40289 57016 77172 83537
AAXX 07181 25745 NIL
AAXX 07181 25913 42999 10802 11157 21217 30007 40162 57007 80001
AAXX 07181 25954 42998 03605 11212 21269 39900 40021 57013
AAXX 07181 25956 42999 01002 11184 21225 39949 49955 57023
AAXX 07181 31088 42999 30105 11161 21231 30192 40200 57014 80001
AAXX 07181 31873 42597 82701 11210 21228 30162 40309 52004 8157/
AAXX 07181 31909 42998 02806 11152 21233 30144 40227 52003 333 91112
AAXX 07181 31960 42998 03508 11160 21187 30044 40298 52010 333 91015 91116
AAXX 07181 31961 42998 00402 11208 21227 30266 40317 52011
AAXX 07181 32053 42997 43104 11126 21161 30111 40163 57004 80005 333 91007 91109
AAXX 07181 32061 41560 80506 11101 21129 30147 40188 57006 78583 889// 333 91009 91115
AAXX 07181 32098 41998 20104 11098 21129 30145 40155 53005 73631 80003 333 91007 91110
AAXX 07181 32150 42996 20101 11156 21183 30115 40146 57005 80001 333 91002 91105
AAXX 07181 32165 42598 52805 11013 21064 30025 40087 57013 85100 333 91008 91112
AAXX 07181 32215 42996 00000 11088 21142 30058 40088 57012 333 91001 91103
AAXX 07181 32252 NIL
AAXX 07181 32389 42999 70000 11181 21200 30030 40069 57015 87030
AAXX 07181 32477 42997 51102 11094 21110 30030 40063 57009 85070
AAXX 07181 32583 42999 32805 11087 21106 30048 40079 57007 80001
AAXX 07181 32618 41598 80208 11032 21063 30017 40039 57006 70283 884// 333 91112
AAXX 07181 78458 32566 20605 10286 20238 40135 57019 82200 333 10288 20202 31/// 56000 58010 82820
AAXX 07181 78460 31560 31004 10272 20226 40121 57020 70544 82230 333 10293 20180 30/// 56100 58005 82825
AAXX 07181 78467 32466 10404 10284 20229 40123 57016 81200 333 10284 20176 31/// 56000 58001 81818
AAXX 07181 78479 32566 30905 10284 20227 40108 57008 83200 333 10292 20205 30/// 56200 58018 83822
AAXX 07181 78482 32566 31104 10308 20211 40134 57021 83200 333 10313 20180 30/// 56000 58023 83824
AAXX 07181 78485 32566 41703 10307 20174 40117 57007 84900 333 10310 20188 30/// 56300 58032 81925 83830
AAXX 07181 78486 32566 32102 10296 20221 40108 57018 83200 333 10305 20220 30/// 56000 58008 83826
AAXX 07181 78488 32566 40904 10302 20229 40119 57024 84200 333 10307 20170 30/// 56200 58010 84824
AAXX 07181 78458 32566 20605 10286 20238 40135 57019 82200 333 10288 20202 31/// 56000 58010 82820
AAXX 07181 78460 31560 31004 10272 20226 40121 57020 70544 82230 333 10293 20180 30/// 56100 58005 82825
AAXX 07181 78467 32466 10404 10284 20229 40123 57016 81200 333 10284 20176 31/// 56000 58001 81818
AAXX 07181 78479 32566 30905 10284 20227 40108 57008 83200 333 10292 20205 30/// 56200 58018 83822
AAXX 07181 78482 32566 31104 10308 20211 40134 57021 83200 333 10313 20180 30/// 56000 58023 83824
AAXX 07181 78485 32566 41703 10307 20174 40117 57007 84900 333 10310 20188 30/// 56300 58032 81925 83830
AAXX 07181 78486 32566 32102 10296 20221 40108 57018 83200 333 10305 20220 30/// 56000 58008 83826
AAXX 07181 78488 32566 40904 10302 20229 40119 57024 84200 333 10307 20170 30/// 56200 58010 84824
AAXX 07181 08535 32/// /0402 10144 20088 30207 40300 52003 333 10158 91105 555 60005
AAXX 07184 89002 41/91 91037 11083 21095 39649 49703 57013 73933 89/// 333 00952 92992 96111
AAXX 07181 37308 329// 00000 11014 21029 39562 40235 53003 333 10065
AAXX 07181 78310 12570 70102 10263 20203 30171 40181 50002 60001 87800 333 10278 20193 30/// 56900 58015 81820 86360 92012
AAXX 07181 78315 12575 10401 10276 20140 30102 40167 58021 60001 81100 333 10284 20179 30/// 56900 58006 81820
AAXX 07181 78318 11560 13503 10270 20189 30170 40174 58015 60001 70500 81800 333 10276 20174 30/// 56900 58005 81820
AAXX 07181 78322 11559 30203 10296 20137 30151 40168 58021 60001 70500 83200 333 10298 20157 30/// 56900 58006 83820
AAXX 07181 78324 11/10 20403 10255 20209 30156 40167 57015 60001 70500 82200 333 10255 20202 30/// 56900 58012 828//
AAXX 07181 78325 11563 30201 10260 20188 30113 40171 58019 60001 70500 82230 333 10266 20195 30/// 56990 58009 82820
AAXX 07181 78328 11461 50504 10266 20201 30170 40/// 58010 60001 70511 85200 333 10270 20211 30/// 56100 58008 85818 92427 555 10403
AAXX 07181 78333 11410 20202 10290 20179 30148 40155 58021 60001 70500 82200 333 10290 20183 30/// 56800 58003 82818 555 13601
AAXX 07181 78344 11564 40102 10287 20188 30105 40153 58022 60001 70500 84200 333 10287 20189 30/// 56900 57883 58006 84820
AAXX 07181 78345 NIL
AAXX 07181 78348 11557 20502 10264 20201 30106 40158 58019 60001 70500 82200 333 10264 20210 30/// 56100 57843 59001 82821 555 10502
AAXX 07181 78349 11562 60303 10284 20184 30046 40155 57021 60001 70511 86200 333 10289 20193 30/// 56100 57832 59001 86820 555 10502
AAXX 07181 78351 12550 40305 10295 20183 30140 40142 58003 60001 84800 333 10300 20187 30/// 56900 58009 83830
AAXX 07181 78353 11565 40702 10280 20208 30133 40155 58012 60001 71500 84800 333 10282 20224 31/// 56200 57872 58004 70002 83823 555 10703
AAXX 07181 78355 12570 50305 10276 20214 30008 40148 58016 60001 85800 333 10276 20199 31/// 56100 59001 70007 84823 555 10403
AAXX 07181 78358 11540 40406 10285 20214 30121 40136 58016 60001 70511 84800 333 10288 20207 31/// 56900 58002 70002 82823
AAXX 07181 78360 12570 30607 10293 20212 30122 40133 58019 60001 83800 333 10296 20220 30/// 56100 58007 79999 83820 92034 555 10403
AAXX 07181 78363 11560 63101 10280 20193 39998 40112 58026 60001 70511 86200 333 10280 20208 30/// 56100 58001 86820 555 10501
AAXX 07181 78365 01558 51102 10263 20235 30141 40146 58013 60021 72581 85800 333 10275 20221 32/// 56200 57842 58007 60027 70050 84820 92022 555 11101
AAXX 07181 78369 NIL
AAXX 07184 71979 16/// ///// 11110 21150 38586 40304 53006 60001 333 11075 21165 7////
AAXX 07184 71846 17/// /2607 11067 21090 39729 40047 58007 69941 7//4/ 333 11065 21137 70007
AAXX 07184 71589 17/// /0806 11004 21004 30019 40152 58031 60081 7//4/ 333 10021 21006 70104 555 10030
AAXX 07184 71217 17/// /3411 11040 21055 69961 7//4/ 333 11018 21040 70006
AAXX 07184 71224 16/// /2503 11074 21079 60001 333 11074 21126 70000
AAXX 07184 71432 16/// /2902 10027 21036 30028 40125 56022 60001 333 10029 20019 70000
AAXX 07184 71276 16/// ///17 11105 21174 60001 333 11071 21120 70000
AAXX 07184 71906 11974 62016 11116 21211 39995 40046 56029 60001 73611 80001 333 11114 22177 79999
AAXX 07184 71189 46/// /0805 11017 21047 6///1 333 11017 21038 7////
AAXX 07184 71050 46/// /2501 11134 21151 39244 40375 50005 6///1 333 11105 21169 7////
AAXX 07184 71858 16/// /3010 11076 21159 39833 40118 58009 60001 333 11048 21105 70000
AAXX 07184 71303 46/// ///// 10024 21049 6///1 333 10025 21003 7////
AAXX 07184 71343 16/// /0108 11037 21047 60001 333 11013 21037 70000
AAXX 07184 71345 16/// /0104 11028 21042 60001 333 11028 21058 70000
AAXX 07184 71807 17/// /0409 10042 20038 30122 40141 56013 60181 7//4/ 333 10059 20036 70223
BBXX 46183 07181 99536 71311 46/// /0402 10044 40349 52002 22200 00082 11001 70003 333 91204
AAXX 07184 71050 46/// /2501 11134 21151 39244 40375 50005 6///1 333 11105 21169 7////
AAXX 07184 71906 11974 62016 11116 21211 39995 40046 56029 60001 73611 80001 333 11114 22177 79999
AAXX 07184 71807 17/// /0409 10042 20038 30122 40141 56013 60181 7//4/ 333 10059 20036 70223
AAXX 07184 71432 16/// /2902 10027 21036 30028 40125 56022 60001 333 10029 20019 70000
AAXX 07184 71858 16/// /3010 11076 21159 39833 40118 58009 60001 333 11048 21105 70000
AAXX 07184 71979 16/// ///// 11110 21150 38586 40304 53006 60001 333 11075 21165 7////
AAXX 07184 71846 17/// /2607 11067 21090 39729 40047 58007 69941 7//4/ 333 11065 21137 70007
AAXX 07181 50434 32980 20000 11383 21426 39470 40489 52003 80002 333 11200
AAXX 07181 50527 32970 71102 11309 21340 39583 40485 52004 80002 333 11221
AAXX 07181 50603 11980 02701 11261 21292 39713 40478 52004 69901 70070 333 11198
AAXX 07181 50632 32980 00401 11259 21285 39451 40442 52001 333 11161
AAXX 07181 50727 11580 72001 11259 21295 39143 40458 52004 69911 72270 83502 333 11171
AAXX 07181 50915 11680 72703 11154 21195 39346 40437 54000 69911 77070 85502 333 11141
AAXX 07181 51716 32965 32901 11035 21060 39067 40424 57001 80002 333 00151 10002
AAXX 07181 51765 32980 00000 11107 21135 39376 40433 52003 333 00155 10043
AAXX 07181 51777 32962 01801 11082 21125 39330 40438 52006 333 00154 10016
AAXX 07181 51811 11962 62701 11047 21061 38944 40435 54000 69901 72270 84032 333 00254 11004
AAXX 07181 51828 11865 72702 11024 21054 38782 40420 52004 69941 72270 85502 333 00352 10007
AAXX 07181 52267 32980 01101 11112 21216 39284 40469 57008 333 00100 11032
AAXX 07181 52323 32980 02505 11194 21229 38340 57010 333 05100 11055
AAXX 07181 52495 32980 00000 11169 21203 38842 40492 57011 333 00257 11058
AAXX 07181 53149 32980 02904 11191 21207 38937 40511 57005 333 00351 11159
AAXX 07181 53192 11680 73202 11221 21245 39037 40511 52001 69901 77000 82502 333 11179
AAXX 07181 53231 32980 01404 11198 21234 38629 57010 333 00257 11119
AAXX 07181 53336 32980 03204 11154 21195 38872 40492 57009 333 00352 11113
AAXX 07181 53391 32980 23205 11197 21221 38620 40484 52002 80002 333 00356 11136
AAXX 07181 53529 32980 00201 11132 21191 38773 40464 57006 333 00357 11034
AAXX 07181 53543 32980 10202 11151 21182 38667 40465 57002 80002 333 11075
AAXX 07181 53723 32970 23201 11112 21159 38810 40458 57005 80002 333 00357 11033
AAXX 07181 54012 11970 72704 11171 21202 39149 40442 57005 69911 77077 80002 333 11155
AAXX 07181 54026 32980 70201 11118 21186 30049 40400 52004 80002 333 11058
AAXX 07181 54027 32980 02902 11135 21210 39772 40409 57001 333 11076
AAXX 07181 54208 11680 72904 11206 21242 38880 40470 52004 69911 77070 85502 333 11104
AAXX 07181 54776 11580 73417 10018 21023 30230 40289 52007 69901 70060 874// 333 10075 91121 91536
AAXX 07181 56004 32980 30000 11123 21246 35830 57008 80002 333 00200 10007
AAXX 07181 56033 32680 70201 11141 21225 36040 54000 81502 333 00253 11025
AAXX 07181 56046 32780 70402 11080 21159 36277 57001 82502 333 00254 10029
AAXX 07181 56193 NIL
AAXX 07181 56196 32970 23401 10068 20005 40334 52001 80002 333 00551 10119
AAXX 07181 56287 32965 80000 10077 20066 40338 57005 8807/ 333 00300 10107
AAXX 07181 56684 32560 80703 10028 20009 37960 52005 885// 333 00456 10114
AAXX 07181 56751 32780 22702 10094 20068 38039 57002 82400 333 00101 10191
AAXX 07181 56786 11560 83404 10059 20041 38160 52009 69901 78080 884// 333 00354 10197
AAXX 07181 56977 31/02 92701 10127 20127 40174 57001 74540 333 00052 10224
AAXX 07181 57259 32970 00000 10022 20022 40371 52007 333 10070
AAXX 07181 57279 32961 60203 10051 21009 40351 52009 86030 333 10069
AAXX 07181 57348 32865 83602 10097 20051 40323 54000 885// 333 10106
AAXX 07181 57399 32960 83606 10067 20031 40322 52004 8807/ 333 10068
AAXX 07181 57554 11562 80000 10065 20056 40345 52003 69911 70060 885// 333 10071
AAXX 07181 57793 11330 82703 10068 20068 40297 52007 60061 76066 887// 333 10098
AAXX 07181 58345 11456 82902 10078 20067 40275 52008 60061 76066 8572/ 333 10121
AAXX 07181 58506 11/00 93601 10002 20001 40301 52003 60031 76064 333 10096
AAXX 07181 58813 11460 80201 10088 20087 40265 52003 60031 76066 887// 333 10146
AAXX 07181 58834 11760 82001 10154 20131 40221 52014 69901 70060 885// 333 10195
AAXX 07181 58926 32661 80701 10181 20159 40191 54000 885// 333 10225
AAXX 07181 58944 32562 83601 10185 20168 40187 57001 885// 333 10210
AAXX 07181 59096 32562 80701 10151 20103 40219 52006 885// 333 10199
AAXX 07181 59102 11660 80203 10127 20101 40226 52005 69901 70060 885// 333 10208
AAXX 07181 59278 11757 82903 10153 20137 40203 52002 69911 76060 885// 333 10210
AAXX 07181 59456 32868 73402 10171 20124 40185 54000 875// 333 10248
AAXX 07181 59493 31950 73602 10199 20167 40173 57002 70500 8704/ 333 10269
AAXX 07181 59658 32660 73604 10188 20147 40167 57006 875// 333 10245
AAXX 07181 59673 32562 70210 10189 20160 40167 57007 878// 333 10220
AAXX 07181 59845 11458 80902 10207 20195 40163 57004 69911 71060 888// 333 10258
AAXX 07184 71589 17/// /0806 11004 21004 30019 40152 58031 60081 7//4/ 333 10021 21006 70104 555 10030
AAXX 07184 71189 46/// /0805 11017 21047 6///1 333 11017 21038 7////
AAXX 07184 71217 17/// /3411 11040 21055 69961 7//4/ 333 11018 21040 70006
AAXX 07184 71224 16/// /2503 11074 21079 60001 333 11074 21126 70000
AAXX 07184 71276 16/// ///17 11105 21174 60001 333 11071 21120 70000
AAXX 07184 71303 46/// ///// 10024 21049 6///1 333 10025 21003 7////
AAXX 07184 71343 16/// /0108 11037 21047 60001 333 11013 21037 70000
AAXX 07184 71345 16/// /0104 11028 21042 60001 333 11028 21058 70000
BBXX 46183 07181 99536 71311 46/// /0402 10044 40349 52002 22200 00082 11001 70003 333 91204
BBXX 46145 07181 99544 71324 46/// /0904 10038 40350 57003 22200 00072 11002 70009 333 91205
BBXX 46145 07181 99544 71324 46/// /0904 10038 40350 57003 22200 00072 11002 70009 333 91205
AAXX 07181 01238 41989 11303 11115 21148 38805 49930 53019 70220 80008 333 11085 91105
AAXX 07184 84132 11565 72202 10272 20239 39883 60031 76164 87300 333 58005 555 10031 30082
AAXX 07184 84142 31258 72306 10194 20159 71044 87600 555 30080
AAXX 07184 84173 31670 61402 10201 20086 70544 83634 555 30048
AAXX 07184 84072 31565 80410 10182 20097 37288 70544 8431/ 333 58004 555 30057
AAXX 07184 84105 31568 63606 10301 20216 39999 70542 84110 333 58000 555 30064
AAXX 07184 84143 31665 61804 10198 20079 37389 70544 82259 555 30046
AAXX 07184 84270 31570 50000 10220 20097 70544 85500 555 30045
AAXX 07184 84202 31575 81402 10317 20182 30133 70544 81107 333 58004 555 30045
AAXX 07184 84135 32675 32710 10316 20211 30054 82250 333 58008 555 30054
AAXX 07184 84179 31560 73602 10240 20194 39057 71544 85330 333 58019 555 30075
AAXX 07184 84008 32680 11814 10267 20190 30117 40127 81100 00198 333 58005 555 30063
AAXX 07184 84076 31565 83602 10200 20103 70544 8341/ 555 30053
AAXX 07184 84056 31270 72302 10200 20012 70544 87800 555 30028
AAXX 07184 84050 31570 82708 10290 20193 70544 85260 555 30056
AAXX 07184 84036 31568 83604 10189 20110 71522 8451/ 555 30055
AAXX 07184 84226 32680 71806 10160 20096 85250 555 30065
AAXX 07184 84140 31680 22302 10316 20189 30008 40093 70544 82100 333 58004 555 30047
AAXX 07184 84160 31565 50904 10183 20095 37255 70544 84230 333 58009 555 30056
AAXX 07184 84088 11120 80000 10120 20089 37058 60041 79594 889// 333 58008 555 10037 30081
AAXX 07184 84045 31559 82306 10127 20093 71544 8635/ 555 30080
AAXX 07184 84204 31675 30000 10332 20183 70544 81109 555 30041
AAXX 07184 84001 31565 10708 10275 20195 30095 40115 70544 81100 333 58006
AAXX 07184 84010 32580 11614 10265 20209 8110
AAXX 07184 84018 31580 32813 10272 20221 30103 40110 70544 81230 333 58010
AAXX 07184 84063 11465 80000 10268 20233 39750 40080 69901 70264 8422/ 333 58019 555 1 T
AAXX 07184 84069 31558 73403 10254 20190 70544 86230
AAXX 07184 84071 32670 80105 10178 20089 37270 47122 8321/ 333 58008
AAXX 07184 84099 12575 70904 10290 20232 3//// 40090 69981 84130 555 10008
AAXX 07184 84101 31562 12910 10270 20223 30087 40101 70544 81100 333 59002
AAXX 07184 84117 31560 12710 10263 20211 30088 40111 70544 81100 333 58011
AAXX 07184 84123 31565 62204 10190 20104 37282 47123 70544 82230 333 58015
AAXX 07184 84137 31570 13012 10306 20188 70544 81100
AAXX 07184 84147 31662 62106 10203 20123 70544 82331
AAXX 07184 84151 12565 60000 10272 20244 69931 83220 555 10003
AAXX 07184 84163 11562 82301 10207 20196 38946 48496 69931 71662 8552/ 333 58021 555 10003
AAXX 07184 84176 32680 40304 10220 20097 84200
AAXX 07184 84200 31965 22709 10241 20197 70544 81031
AAXX 07184 84203 31660 20903 10317 20144 30080 40085 70544 81101 333 59001
AAXX 07184 84217 11575 50407 10240 20189 69971 70564 82230 555 10007
AAXX 07184 84239 31680 61204 10198 20079 37535 47148 70142 82230 333 58008
AAXX 07184 84252 31970 33406 10291 20215 30088 40096 70544 83030 333 59003
AAXX 07184 84265 31680 51206 10291 20110 38743 4//// 70544 82230 333 59004
BBXX FLAO 0718/ 99764 70847 46/// ///// 11243 40133 52008
BBXX MINUK03 0718/ 99525 10045 46/// ///// 10073 40017 52030
AAXX 07181 60379 16/// /0000 10129 20129 69922 333 10200
AAXX 07181 60380 36/// /0501 10118 20100 333 10188
AAXX 07181 60394 16/// /1101 10127 20110 69922 333 10205
AAXX 07181 60374 36/// /1103 10132 20131 333 10182
AAXX 07181 60613 36/// /3508 10175 21028 333 10232
BBXX DGWE2 07183 99183 10647 41998 00112 10245 20169 40150 54000 70200 80000 22234 00280 29901 80195
BBXX 2ALE5 07183 99048 70040 41698 32110 10278 20242 40093 53005 70300 833// 22221 20401 318// 40802 80253
BBXX A8IF4 07183 99377 71527 41498 53615 10170 20137 40220 52010 70211 81468 22263 06170 2//// 317// 41404 80150
AAXX 07181 22271 31598 72106 11002 21019 39969 49979 52023 70272 87500 333 10014
BBXX 46131 07181 99499 71250 46/// /3006 1//// 40329 52008 22200 00074 10300 70002 333 91208
BBXX 46131 07181 99499 71250 46/// /3006 1//// 40329 52008 22200 00074 10300 70002 333 91208
AAXX 07181 01494 11485 13501 11046 21052 39865 49931 53020 69932 70200 81500 333 11009 91105
AAXX 07184 84132 11565 72202 10272 20239 39883 60031 76164 87300 333 58005 555 10031 30082
AAXX 07184 84072 31565 80410 10182 20097 37288 70544 8431/ 333 58004 555 30057
AAXX 07184 84105 31568 63606 10301 20216 39999 70542 84110 333 58000 555 30064
AAXX 07184 84143 31665 61804 10198 20079 37389 70544 82259 555 30046
AAXX 07184 84270 31570 50000 10220 20097 70544 85500 555 30045
AAXX 07184 84202 31575 81402 10317 20182 30133 70544 81107 333 58004 555 30045
AAXX 07184 84135 32675 32710 10316 20211 30054 82250 333 58008 555 30054
AAXX 07184 84179 31560 73602 10240 20194 39057 71544 85330 333 58019 555 30075
AAXX 07184 84008 32680 11814 10267 20190 30117 40127 81100 00198 333 58005 555 30063
AAXX 07184 84076 31565 83602 10200 20103 70544 8341/ 555 30053
AAXX 07184 84056 31270 72302 10200 20012 70544 87800 555 30028
AAXX 07184 84050 31570 82708 10290 20193 70544 85260 555 30056
AAXX 07184 84036 31568 83604 10189 20110 71522 8451/ 555 30055
AAXX 07184 84226 32680 71806 10160 20096 85250 555 30065
AAXX 07184 84140 31680 22302 10316 20189 30008 40093 70544 82100 333 58004 555 30047
AAXX 07184 84160 31565 50904 10183 20095 37255 70544 84230 333 58009 555 30056
AAXX 07184 84088 11120 80000 10120 20089 37058 60041 79594 889// 333 58008 555 10037 30081
AAXX 07184 84045 31559 82306 10127 20093 71544 8635/ 555 30080
AAXX 07184 84204 31675 30000 10332 20183 70544 81109 555 30041
AAXX 07184 84001 31565 10708 10275 20195 30095 40115 70544 81100 333 58006
AAXX 07184 84010 32580 11614 10265 20209 8110
AAXX 07184 84018 31580 32813 10272 20221 30103 40110 70544 81230 333 58010
AAXX 07184 84063 11465 80000 10268 20233 39750 40080 69901 70264 8422/ 333 58019 555 1 T
AAXX 07184 84069 31558 73403 10254 20190 70544 86230
AAXX 07184 84071 32670 80105 10178 20089 37270 47122 8321/ 333 58008
AAXX 07184 84099 12575 70904 10290 20232 3//// 40090 69981 84130 555 10008
AAXX 07184 84101 31562 12910 10270 20223 30087 40101 70544 81100 333 59002
AAXX 07184 84117 31560 12710 10263 20211 30088 40111 70544 81100 333 58011
AAXX 07184 84123 31565 62204 10190 20104 37282 47123 70544 82230 333 58015
AAXX 07184 84137 31570 13012 10306 20188 70544 81100
AAXX 07184 84147 31662 62106 10203 20123 70544 82331
AAXX 07184 84163 11562 82301 10207 20196 38946 48496 69931 71662 8552/ 333 58021 555 10003
AAXX 07184 84176 32680 40304 10220 20097 84200
AAXX 07184 84200 31965 22709 10241 20197 70544 81031
AAXX 07184 84203 31660 20903 10317 20144 30080 40085 70544 81101 333 59001
AAXX 07184 84217 11575 50407 10240 20189 69971 70564 82230 555 10007
AAXX 07184 84239 31680 61204 10198 20079 37535 47148 70142 82230 333 58008
AAXX 07184 84252 31970 33406 10291 20215 30088 40096 70544 83030 333 59003
AAXX 07184 84265 31680 51206 10291 20110 38743 4//// 70544 82230 333 59004
BBXX 46204 07181 99514 71288 46/// /3107 10057 40343 52004 22200 00084 11003 70015 333 91209
AAXX 07184 13623 12970 00000 10085 20070 30177 40183 52019 60002 333 10130
AAXX 07184 13600 12663 10904 10090 20074 30133 40186 52011 60002 81200 333 10132 81840
AAXX 07184 13610 11330 80000 10062 20041 39753 40181 52004 60002 71022 885// 333 10070 88606
AAXX 07184 13622 12665 20000 10090 20056 30173 40180 52008 69922 82500 333 10160 82640
BBXX 46204 07181 99514 71288 46/// /3107 10057 40343 52004 22200 00084 11003 70015 333 91209
BBXX 45137 07181 99455 70810 46/// /2306 10008 39884 40101 57023 22200 00064 10502 70009 333 91208
BBXX 45137 07181 99455 70810 46/// /2306 10008 39884 40101 57023 22200 00064 10502 70009 333 91208
AAXX 07181 38196 32998 30000 11078 21100 39308 40335 58008 80002 333 11017
AAXX 07181 38198 31/// 90000 11094 21101 30072 40346 58007 74944 333 11041
AAXX 07181 38328 31/// 91301 11064 21064 39572 40335 56003 74942 333 10002
AAXX 07181 38334 32998 01004 11060 21123 39322 40324 58013 333 10000
AAXX 07181 38439 11596 83603 11035 21046 39978 40330 58007 69900 71022 885// 333 11014
BBXX 42363 07181 99282 70892 46/// /3213 10117 20017 40247 91815 333 91213
BBXX 42364 07181 99291 70881 46/// /3108 10106 20044 40231 91815
BBXX 41036 07181 99342 70770 46/// ///// 10197 20165 40098 91820 22200 00178
BBXX ZDLP 07183 99668 50690 41396 82706 10001 21016 49728 51010 70222 8411/ 22253 05001 20000 302// 40301 5//// 81005 ICE //1//
AAXX 07184 41268 36/// /3303 10222 20128 30150 48130 333 0E024 10269 59002
AAXX 07184 06670 01459 82715 10069 20046 39640 40152 52023 60112 76362 8472/ 333 10079 32/// 55300 20000 60045 81713 83719 87531 90766 93100 91147 91226
AAXX 07184 06700 01458 82112 10081 20065 39722 40217 52012 60122 76366 8472/ 333 10085 32/// 55300 20000 69955 82710 84625 88535 90766 93100 91124 91217
AAXX 07184 06680 01/01 92435 11054 21055 37418 47948 52009 60522 77374 333 11052 47085 55300 20000 60075 90766 93122 91175 91245
AAXX 07184 06990 01550 83001 10047 20030 39602 40154 52012 60172 76362 887// 333 10045 32/// 55300 20000 60015 88722 91122 91214
AAXX 07184 06760 32880 60103 10086 20017 39695 40141 52004 8607/ 333 10110 30/// 55300 20000 81358 86469 90766 93100 91110 91205
AAXX 07184 06720 01360 80702 10068 20054 39611 40189 52006 60072 76066 8372/ 333 10070 32/// 55300 20000 69925 84707 88517 90766 93100 91107 91204
AAXX 07181 30157 41997 81602 11182 21208 30175 40484 58006 77172 80007
AAXX 07184 42309 31995 20000 10174 20160 40132 70500 82030 333 58004
AAXX 07184 42314 31595 20000 10174 20160 40146 70500 82530 333 58000 81620
AAXX 07184 42398 31996 00000 10159 20154 40147 71000 333 58008
AAXX 07184 42410 31594 30000 10190 20174 40143 70500 82530 333 59003 82620
AAXX 07184 42415 31996 20000 10186 20166 40165 70500 82030 333 58007 82360
AAXX 07184 42623 31495 20000 10142 20128 39270 40155 70500 82500 333 58005 82618
AAXX 07184 42809 31995 00000 10200 20174 40136 70500 333 58011
AAXX 07184 42886 31996 03601 10180 20138 40149 70500 333 58013
AAXX 07184 42895 31996 00000 10192 20155 40140 70500 333 58015
AAXX 07184 42971 31995 23602 10206 20174 40137 70500 80001 333 58015 88075
AAXX 07184 42492 NIL
AAXX 07184 42587 NIL
AAXX 07184 42591 NIL
AAXX 07184 42701 NIL
AAXX 07184 42706 NIL
AAXX 07184 42724 NIL
AAXX 07184 42798 NIL
AAXX 07184 42977 NIL
AAXX 07184 43333 NIL
AAXX 07184 43368 NIL
AAXX 07184 40356 42960 01804 10080 21190 39233 48520 333 10150 59002 55090 555 04410 50235
AAXX 07181 21802 42999 01902 11299 21323 30172 40199 57011
AAXX 07181 24125 41998 82502 11200 21212 39924 40222 57016 77172 80007
AAXX 07181 24136 41999 81901 11326 21355 30134 40247 57017 70271 80005
AAXX 07181 24143 42999 81805 11244 21276 30228 40282 57021 8807/
AAXX 07181 24266 42998 30000 11395 21422 30118 40323 57016 80001
AAXX 07181 24329 41997 80000 11250 21274 39950 40278 57028 77172 8802/
AAXX 07181 24343 42998 81604 11293 21317 30183 40316 57021 83038
AAXX 07181 24382 42999 00000 11378 21405 30036 40326 57004
AAXX 07181 24639 42999 82404 11223 21241 30220 40387 57013 80007
AAXX 07181 24641 42999 62202 11224 21249 30211 40367 57012 80001
AAXX 07181 24652 41997 80000 11320 21343 30253 40393 57004 77172 80007
AAXX 07181 24656 42999 81001 11324 21361 30286 40402 57010 80007
AAXX 07181 24671 42999 60000 11378 21399 39809 40396 57014 80001
AAXX 07181 24688 41999 80000 11410 21444 39375 40446 57015 77171 8807/
AAXX 07181 24724 41997 82104 11253 21277 39797 40380 57021 77172 8807/
AAXX 07181 24738 42998 81501 11212 21224 30212 40404 57013 8803/
AAXX 07181 24768 42998 72301 11312 21345 30125 40390 57012 80001
AAXX 07181 24923 41699 62405 11199 21232 30104 40438 57009 73673 82531 333 91110
AAXX 07181 24944 41996 82702 11288 21303 30119 40448 57010 70272 80001
AAXX 07181 24951 41999 82804 11252 21277 30238 40244 57009 73633 8802/
AAXX 07181 24661 42999 80000 11323 21352 30086 40388 57013 82037
AAXX 07181 24959 41997 80000 11329 21357 30246 40394 57009 77172 82035
AAXX 07181 24962 41997 82401 11310 21340 30188 40400 57008 77172 80007
AAXX 07181 24966 41998 80000 11347 21370 30151 40402 57009 77172 83037
AAXX 07181 24967 41998 80000 11324 21355 30179 40431 57007 77172 8801/
AAXX 07181 25206 41998 82001 11284 21308 30219 40249 57006 77172 80007
AAXX 07181 25400 42998 51801 11309 21332 30195 40257 57005 80001
AAXX 07181 30054 41998 81902 11232 21264 30211 40478 57010 70272 82047
AAXX 07181 30089 42999 00000 11324 21342 30225 40484 57005
AAXX 07181 30393 41998 80000 11256 21274 39312 40470 57008 77172 84037
AAXX 07181 30493 42999 02702 11216 21248 39295 40436 58008
AAXX 07181 31004 41997 80000 11224 21242 39537 40453 57003 77172 80007
AAXX 07181 31137 41999 20000 11403 21426 35292 40511 57003 70271 80001
AAXX 07181 28049 32597 81907 10014 21038 30068 40233 55001 8255/ 333 10024
AAXX 07181 28144 11598 82003 10008 21056 30080 40239 55001 69900 70282 8557/ 333 10023
AAXX 07181 28319 12498 82004 11037 21066 30064 40232 52002 60030 885// 333 11003
AAXX 07181 28321 11596 81606 11033 21057 30010 40218 52003 60020 77173 8552/ 333 10001
AAXX 07181 28334 11497 82304 11017 21055 39952 40261 58005 69930 70383 883// 333 10005
AAXX 07181 28434 32998 71305 11013 21088 30013 40276 58005 84301 333 10011
AAXX 07181 28552 32598 32302 11072 21119 30233 40351 52003 82502 333 11030
AAXX 07181 28666 31999 01906 11115 21148 30209 40396 52008 73631 333 11026
AAXX 07181 28825 32997 22004 11073 21117 30158 40338 52006 80001 333 11018
AAXX 07181 29111 42498 82404 11025 21044 30242 40332 52008 886// 333 88712
AAXX 07181 29209 42598 82003 11043 21055 30235 40366 52015 885//
AAXX 07181 29551 41497 82205 11040 21070 30202 40390 52006 73632 85302
AAXX 07181 29602 42998 01802 11111 21117 30260 40410 52006
AAXX 07181 29636 42598 72303 11069 21086 30190 40418 52005 87300
AAXX 07181 29654 41599 81705 11059 21070 39788 40424 52009 70283 8595/
AAXX 07181 29712 42498 21902 11143 21156 30268 40423 52011 82700
AAXX 07181 29724 42997 02203 11140 21153 30211 40429 52004
AAXX 07181 29726 42998 82302 11103 21123 30255 40433 52003 8807/
AAXX 07181 29814 42999 02001 11157 21170 30281 40439 52011
AAXX 07181 29827 42997 02301 11148 21154 30276 40443 52002
AAXX 07181 29923 42999 02201 11130 21143 30159 40456 52002
AAXX 07181 29939 42997 00000 11107 21135 30161 40463 54000
AAXX 07181 35026 31996 32301 11118 21134 39712 40392 52002 71000 80001 333 11059
AAXX 07181 36021 42999 02402 11122 21135 30256 40449 52002
AAXX 07181 36022 42998 01901 11157 21170 30179 40463 52004
AAXX 07181 36038 42999 01001 11212 21237 39998 40489 58005
AAXX 07181 36058 42999 01104 11104 21124 39931 40485 54000
AAXX 07181 36064 42999 00404 11018 21097 39851 40463 54000
AAXX 07181 36229 42999 00000 11220 21224 39273 40575 52002
AAXX 07181 36259 42699 50000 11208 21233 38403 48673 52004 82901
BBXX 9KWP 07183 99269 31101 41497 31920 10210 20178 40086 58005 70111 82132 22274 2//// 80190
BBXX VROB 07184 99068 31470 46/// /3207 10254 20229 30034 40059 57019 22200 04308 85236
BBXX FHZI 07184 99578 31414 46/// /2815 10030 20026 39781 49792 52024 22283 04020 85028
AAXX 07184 91650 NIL
AAXX 07184 91652 NIL
AAXX 07184 91656 NIL
AAXX 07184 91659 11599 20000 10252 2024/ 40090 53010 60001 70120 82801 333 569/9 81828
AAXX 07184 91660 36/// /3600 1//// 2//// 40087
AAXX 07184 91669 36/// /15// 10240 20240 40094 52009
AAXX 07184 91670 36/// /0600 10260 20222 40083
AAXX 07184 91676 14/// /1002 10263 20233 30024 40084 50013 60001
AAXX 07184 91680 11699 51405 10230 20217 40087 53005 60001 70321 82831 333 56999 81830 85080
AAXX 07184 91682 NIL
AAXX 07184 91683 11599 40000 10226 20225 40094 53010 60001 70110 84801 333 569/9 84823
AAXX 07184 91691 14/// /0301 10228 20224 30095 40098 50009 60001
AAXX 07184 91693 NIL
AAXX 07184 91697 14/// /0901 10243 20211 30092 40097 50008 60001
AAXX 07184 91699 14/// /0603 10250 20216 30075 40107 50007 60001
BBXX 9KWP 07183 99269 31101 41497 31920 10210 20178 40086 58005 70111 82132 22274 2//// 80190
BBXX VROB 07184 99068 31470 46/// /3207 10254 20229 30034 40059 57019 22200 04308 85236
BBXX FHZI 07184 99578 31414 46/// /2815 10030 20026 39781 49792 52024 22283 04020 85028
BBXX 44033 07181 99441 70690 46/20 /0107 10055 40095 56018 91804 22200 00092 10601 70006 333 91208 555 11079 22083
BBXX 44034 07181 99441 70681 46/30 /0307 10052 40091 58020 91804 22200 00094 10602 70009 333 91208 555 11078 22081
BBXX 44039 07181 99411 70727 46/// /0501 10124 20124 40076 57037 91800 22200 00112 1//00 70001 333 91202
BBXX 44060 07181 99413 70721 46/// ///02 10123 40065 91815 22200 00124 333 91202 555 11015 22015
BBXX 44022 07181 99409 70737 46/// ///02 10105 20099 40063 91815 22200 00113 333 91203 555 11015 22015
BBXX 44040 07181 99410 70736 46/// /0301 10104 20104 40068 91815 22200 1//00 70000 333 91202 555 11015 22015
BBXX 46088 07181 99483 71232 46/// /0304 10059 40318 91820 22200 00083 10701 70003 333 91205 555 11043 22044 31819 40205 61819 029041 037035 038034 039034 046025 048017
BBXX 46087 07181 99485 71247 46/// /0905 10071 20067 40316 91820 22200 00083 333 91206 555 11050 22052 31802 41006 61819 086048 091051 084052 080053 076051 079046
AAXX 07184 06610 01458 82113 10076 20057 39602 40187 52008 60052 76162 8672/ 333 10077 32/// 55300 20000 69995 86717 88527 90766 93100 91134 91217
BBXX V7HC6 07184 99273 70907 41698 63423 10120 20061 40249 50009 70222 8623/ 22200 00231 20405 33233 40707 50606 6//// 80090 ICE /////
BBXX LAOW5 07184 99055 70847 41499 53020 10270 20228 40120 51020 70311 85283 22254 00270 20304 32524 40202 50102 6//// 80240 ICE /////
BBXX WKAE 07183 99458 70536 41697 82113 10082 20080 40144 56023 76162 8802/ 22214 00050 20202 3//// 4//// 5//// 6//// 80081 ICE /////
AAXX 07181 60376 36/// /0000 10141 20141 333 10194
AAXX 07181 60593 36/// /0000 10176 333 10221
AAXX 07184 61017 32960 50406 10260 21025 39757 40172 80002 333 10304 58008 85080
AAXX 07184 61024 32960 51012 10254 20026 39580 40147 80002 333 10316 58009 85080 P091
AAXX 07184 61036 31950 70000 10300 20045 39876 40113 7052/ 80008 333 10341 58004 87280
AAXX 07184 61043 32960 70410 10288 21080 39683 40123 80008 333 10328 58013 87280
AAXX 07184 61045 31917 70404 10264 21031 39640 40141 7062/ 80008 333 10310 58015 87280
AAXX 07184 61049 32960 70804 10255 20066 39807 40129 80008 333 10322 58007 87280
AAXX 07184 61052 31935 50606 10300 21044 39862 40119 70611 80002 333 10345 58005 85080
AAXX 07184 61075 31940 70402 10292 20026 39809 40117 7062/ 80008 333 10357 58015 87280
AAXX 07184 61080 31950 70000 10265 20007 39712 40133 70622 80008 333 10327 58013 87280
AAXX 07184 61090 31958 70206 10275 21065 39622 40132 70622 80008 333 10314 58018 87280
AAXX 07184 61091 32960 70000 10252 20074 39684 40142 80008 333 10320 58004 87280
AAXX 07184 61096 32960 73606 10275 21047 39749 40133 80008 333 10333 58014 87280
AAXX 07184 61099 32960 70208 10310 20058 39865 40092 80008 333 10360 58004 87280
BBXX MINUK01 0718/ 99571 70021 46/// ///// 10040 40025 52050
AAXX 07184 RTD 78792 11460 80000 10254 20223 30098 40111 57013 60021 72164 83270 333 060// 10280 20231 31/// 58015 83816 85358
AAXX 07181 40650 12960 03103 10050 21013 40226 51006 60002
AAXX 07181 40608 12960 00000 10034 21024 40229 52005 60002
AAXX 07181 40621 12960 10000 10085 20020 40257 52004 60002 80001
AAXX 07181 40629 12960 00000 10048 21013 40247 53008 60002
AAXX 07181 40634 12960 00000 10079 20038 40233 53004 60002
AAXX 07181 40637 12960 00000 10077 20022 40228 52009 60002
AAXX 07181 40665 12960 03202 10118 20031 40228 50014 60002
AAXX 07181 40670 12960 00000 10086 21023 40222 51006 60002
AAXX 07181 40672 12960 00000 10070 20017 40235 52008 60002
AAXX 07181 40674 12960 00000 10072 21043 40227 52007 60002
AAXX 07181 40689 12960 02702 10106 21009 40222 52009 60002
AAXX 07181 40690 12960 02702 10090 21020 40215 52009 60002
AAXX 07181 40642 12960 00000 10055 21058 40267 52002 60002
AAXX 07181 40680 12960 03002 10112 20026 40212 53009 60002
AAXX 07181 40656 12960 00000 10082 21020 40208 52006 60002
AAXX 07181 40666 12960 00000 10085 21023 40217 52011 60002
AAXX 07181 40664 12960 03303 10092 20014 40203 52006 60002
AAXX 07181 40676 12960 02903 10122 21047 40224 51010 60002
AAXX 07181 40691 12960 00000 10102 21001 40236 52012 60002
BBXX DGWE2 07183 99183 10647 41998 00112 10245 20169 40150 54000 70200 80000 22234 00280 29901 80195
BBXX 2ALE5 07183 99048 70040 41698 32110 10278 20242 40093 53005 70300 833// 22221 20401 318// 40802 80253
BBXX A8LH7 07183 99255 70155 41298 60517 10220 20190 40195 57005 70322 84645 22214 29903 30000 40000 50000 80200
BBXX A8AD7 07183 99275 70164 41695 80110 10245 20152 40120 55010 70322 8/678 22243 02255 2//// 30000 80185
BBXX 2AQK7 07183 99042 70049 41397 61911 10272 20239 40100 53007 7//88 8677/ 22223 20301 31800 40402 5//// 80249
BBXX C6XQ2 07184 99115 50347 41597 50911 10270 20202 40118 54000 70200 83145 22243 04270 20503 309// 40704 5//// 80225
BBXX ZNQO3 07181 99193 10663 41998 03406 10255 20185 40148 51/// 70100 80000 22264 04281 2//// 3//// 4//// 5//// 80210
BBXX OXHV2 07184 99238 10365 41797 43523 10249 20177 40152 52011 70500 83079 22273 00250 20503 30000 80201
BBXX S6TV 07184 99098 10675 41697 30428 10284 20249 40106 51010 70111 82251 22264 00320 20401 303// 40602 5//// 80259
BBXX A8GH5 07183 99141 70225 41998 01217 10260 20226 40120 54000 70200 80000 22214 20402 312// 40804 80236
BBXX A8SI3 07183 99519 11651 43698 6//// 10000 2102/ 40140 57010 22214 00020 81020
BBXX SHIP 07184 99279 11338 41398 61408 10210 20164 40204 57008 70211 85343 22284 00230 80180
BBXX SHIP 07184 99264 11708 41397 31211 10245 20209 40166 55003 70211 82140 22263 06254 20302 33611 41006 50503 80220
BBXX SHIP 07184 99315 11498 41598 63616 10180 20122 40140 56006 70222 85/// 91800 22264 00220 2//// 3//// 4//// 80145
BBXX A8LG9 07184 99500 11735 41598 13144 10025 20001 49990 52070 70161 81500 22253 00020 2//// 3//// 4//12 5//// 80015
BBXX SHIP 07184 99229 11600 41/97 50912 10258 20221 40131 57010 70311 8//// 22200 04264
BBXX SHIP 07184 99374 11756 41/// 91325 10130 20073 40156 52010 70311 89/// 22264 00190 80100
BBXX SHIP 07184 99222 11302 41498 80825 10240 20212 40129 57003 70311 8//// 22284 00245 2//// 3//// 4//// 80220
BBXX SHIP 07184 99124 11309 41397 70918 10270 20243 40056 56014 72022 8646/ 22283 00293 399// 4//// 5//// 80250
BBXX SHIP 07184 99189 11439 41/// 40819 10264 40112 57002 70211 8//// 22273 00279
BBXX SHIP 07184 99243 11340 41698 51116 10210 20180 40157 57010 702// 8423/ 22244 00249 80190
BBXX SHIP 07184 99233 11227 41398 70815 10240 20219 40148 55007 70302 86//6 22214 00256 2//// 3//// 4//// 80225
BBXX DDYL2 07183 99358 11209 41/98 /0232 10052 21023 40280 52010 72162 8//// 22200 00130 2//// 80022
BBXX 7JJA 07184 99116 11123 41797 83405 00 10270 40080 57005 71388 86827 9//// 22213 0 2//02 3 4 5 6//// 80260 ICE/////
BBXX JGQH 07184 99299 11370 41/97 72408 10196 20119 40170 57012 70222 8527/ 22241 00228 10802 20201 399// 4//02 70012
BBXX JPBN 07184 99353 11490 41/98 20110 10142 20008 40132 58023 70211 82201 22241 00203 1//// 20301 399// 4//03
BBXX UFLC 07180 99541 11441 41/98 93608 11055 40175 57004 70172 89/// 22253 06024 20503
BBXX MINUK03 0718/ 99525 10045 46/// ///// 10073 40017 52030
BBXX PBEO 07183 99376 10098 41597 63022 10177 20124 40270 52019 70311 844// 22262 02188 20403 332// 40703 80145
BBXX SHIP 07184 99438 70347 41598 62021 10154 20136 40232 54000 70222 8286/ 22223 00150 20504 80143
BBXX MINUK05 0718/ 99587 70034 46/// ///// 10073 49975 52021
BBXX MINFR05 0718/ 99514 10026 46/// ///// 10085 40105 52034
BBXX 62107 07184 99501 70061 46/// /3122 10113 20051 40211 52021 22200 00124 10806 70031 333 90710 91132
BBXX 62095 07184 99530 70159 46/// /2215 10098 20074 40132 57027 22200 00118 10909 70047
BBXX 62092 07184 99512 70105 46/// /2716 10111 20060 40202 51011 22200 00121 11012 70062
BBXX 62094 07184 99517 70067 46/// /2820 10097 20041 40188 51028 22200 00116 10505 70025 333 90710 91127
BBXX 62170 07184 99514 10020 46/97 /2839 10091 20008 40114 52040 22200 00120 10604 70018 333 90710 91152
BBXX 62304 07184 99511 10018 46/98 /2729 10090 21005 40129 51036 22200 00123 10603 70015 333 90710 91143
BBXX 62305 07184 99504 10000 46/98 /3037 10102 20022 40175 52032 22200 00131 10705 70024 333 90710 91147
BBXX 62154 07184 99564 10022 46/// /0119 10061 20020 49954 53058 22200
BBXX 62121 07184 99535 10027 46/// /2837 10073 20009 40021 52044 22200
BBXX 62152 07184 99570 10018 47/98 /3307 10065 20016 49972 52071 700// 22200 10606 70030
BBXX 62150 07184 99536 10007 47998 /2833 10063 20005 40073 52040 700// 22200 10607 70033
BBXX 62119 07184 99570 10019 47998 /3308 10056 20012 49969 52072 700// 22200 10706 70028
BBXX 62133 07184 99571 10009 46/// /3413 10064 21004 49977 52067 22200
BBXX PJGO 07184 99571 10022 47898 /3414 10065 20013 49964 52061 700// 22200
BBXX 62112 07184 99584 70002 47498 /2909 10051 20001 49973 52034 700// 22200
BBXX 62132 07184 99564 10020 46/// /3305 10093 20034 49959 53050 22200
BBXX 62123 07184 99563 10022 47599 /3621 10065 20028 49959 52057 700// 22200
BBXX AMOUK05 07184 99519 10041 46/// ///// 10083 20003 30021 40059 52035 91750
BBXX PJAI 07184 99581 70014 47598 /2919 10072 20009 49987 53038 700// 22200
BBXX 62111 07184 99580 70003 46/// /3419 10054 20010 49984 51045 22200 10705 70024
BBXX 63056 07184 99597 10016 47598 /0000 10056 20013 49936 52030 700// 22200 10805 70026
BBXX 62120 07184 99564 10021 47598 /0118 10058 20024 49969 700// 22200
BBXX 62148 07184 99536 10015 46/// /2840 10068 20010 40060 52037 22200
BBXX 63057 07184 99592 10015 47498 /3010 10056 20007 49949 52031 700// 22200 10805 70024
BBXX 62129 07184 99584 10003 46/// ///// 10064 21037 49965 52037 22200
BBXX 62128 07184 99587 10014 47599 /2917 10054 21006 49962 52038 700// 22200 10805 70027
BBXX 62113 07184 99584 10002 47699 /3112 10083 21032 49965 52035 700// 22200
BBXX ZQSD5 07184 99583 10007 46/// /3109 10081 21021 49973 52039 22200
BBXX 62114 07184 99583 10000 46/// /2915 10065 21019 49970 52035 22200
BBXX 62134 07184 99580 10014 47698 /3114 10064 21005 49966 52043 700// 22200 10705 70025
BBXX 62102 07184 99579 10018 46/// ///// 22200
BBXX 62155 07184 99577 10007 47699 /3011 10064 20003 49974 52050 751// 22200 10705 70025
BBXX 62117 07184 99579 10000 47598 /2816 10065 20018 49974 52042 700// 22200 10704 70020
BBXX 62143 07184 99577 10018 47598 /3211 10065 21002 49969 52054 700// 22200 10805 70027
BBXX 62118 07184 99577 10009 47798 /3412 10053 21003 49964 52049 700// 22200 10805 70025
BBXX 62116 07184 99576 10011 47598 /3317 10069 20005 49970 52052 700// 22200 10705 70025
BBXX 62104 07184 99574 10013 47698 /3313 10074 20005 49969 52058 700// 22200
BBXX 62153 07184 99573 10020 47699 /3414 10066 21009 49968 52060 700// 22200 10805 70027
BBXX 62122 07184 99573 10016 47699 /3412 10067 20002 49968 52061 700// 22200 10806 70030
BBXX BAREU11 07184 99173 50761 46/// ///// 40152 57010 22281
BBXX 46204 07181 99514 71288 46/// /3107 10057 40343 52004 22200 00084 11003 70015 333 91209
BBXX 46131 07181 99499 71250 46/// /3006 1//// 40329 52008 22200 00074 10300 70002 333 91208
BBXX FLAO 0718/ 99764 70847 46/// ///// 11243 40133 52008
BBXX 46145 07181 99544 71324 46/// /0904 10038 40350 57003 22200 00072 11002 70009 333 91205
BBXX 46183 07181 99536 71311 46/// /0402 10044 40349 52002 22200 00082 11001 70003 333 91204
BBXX WKAE 07183 99458 70536 41697 82113 10082 20080 40144 56023 76162 8802/ 22214 00050 20202 3//// 4//// 5//// 6//// 80081 ICE /////
BBXX OYCY2 07184 99413 71551 41594 22207 10110 2011/ 40250 52020 742// 82//9 22224 00150 20302 310// 40806 5//// 6//// 80110 ICE /////
BBXX 46147 07181 99518 71312 46/// /2601 10059 40352 52005 22200 00084 11004 70019 333 91202
BBXX A8IF4 07183 99377 71527 41498 53615 10170 20137 40220 52010 70211 81468 22263 06170 2//// 317// 41404 80150
BBXX DDLK 07183 99445 70402 41295 82518 10150 20147 40176 57024 71022 886// 22264 20703 325// 40904 80148
BBXX A8IP3 07183 99310 70528 41598 43514 10250 20175 40172 58010 70200 82566 22254 04230 20401 335// 40804 80200
BBXX A8NQ5 07183 99495 70379 41297 82720 10110 20072 40110 57/// 70322 887// 22224 04111 20304 80090
BBXX DFWV2 07184 99230 71165 41598 20418 10205 20132 40190 52015 70200 8/146 22273 04190 2//05 335// 4//03 5//// 80160
BBXX 46088 07181 99483 71232 46/// /0304 10059 40318 91820 22200 00083 10701 70003 333 91205 555 11043 22044 31819 40205 61819 029041 037035 038034 039034 046025 048017
BBXX 51205 07181 99210 71564 46/// ///// 1//// 91818 22200 00245 11305 20804 332// 41303 70023
BBXX 46114 07181 99364 71222 46/// ///// 1//// 91804 22200 00112 11102 20802 329// 41102 70011
BBXX 41114 07181 99276 70802 46/// ///// 1//// 91816 22200 00242 11003 21002 308// 41101 70013
BBXX 44098 07181 99428 70702 46/// ///// 1//// 91807 22200 00099 10902 20902 311// 41101 70012
BBXX 41115 07181 99184 70673 46/// ///// 1//// 91805 22200 11003 21003 301// 41102 70016
BBXX 44032 07181 99437 70694 46/26 /0306 10062 40083 58022 91804 22200 00095 11103 70014 333 91208 555 11074 22078
BBXX 46221 07181 99339 71186 46/// ///// 1//// 91745 22200 00153 11401 20701 322// 41401 70005
BBXX WKAP 07183 99278 70924 41198 63324 10110 2007/ 40273 58010 70222 86140 22234 00230 20201 33533 40605 50403 6//// 80090 ICE /////
BBXX 46211 07181 99469 71242 46/// ///// 1//// 91806 22200 00085 11302 21002 329// 41301 70011
BBXX 46231 07181 99327 71174 46/// ///// 1//// 91754 22200 00156 11301 21001 322// 41301 70005
BBXX 46242 07181 99332 71174 46/// ///// 1//// 91756 22200 00150 11401 20401 322// 41401 70005
BBXX 46222 07181 99336 71183 46/// ///// 1//// 91756 22200 00155 11301 20401 70004
BBXX 46223 07181 99335 71178 46/// ///// 1//// 91800 22200 00155 11401 21001 320// 41401 70004
BBXX 46216 07181 99343 71198 46/// ///// 1//// 91757 22200 00147 11301 21001 70004
BBXX 46237 07181 99378 71226 46/// ///// 1//// 91810 22200 00112 11401 21001 325// 41401 70007
BBXX 46217 07181 99342 71194 46/// ///// 1//// 91812 22200 00148 10801 20801 325// 41301 70005
BBXX 46240 07181 99366 71219 46/// ///// 1//// 91812 22200 00115 11201 20801 334// 41201 70006
BBXX 46212 07181 99408 71243 46/// ///// 1//// 91812 22200 00094 11302 21001 330// 41301 70010
BBXX 46241 07181 99330 71173 46/// ///// 1//// 91741 22200 00143 11401 20501 324// 41401 70005
BBXX 46248 07181 99461 71247 46/// ///// 1//// 91804 22200 00087 11303 21002 329// 41302 70014
BBXX 46249 07181 99338 71197 46/// ///// 1//// 91817 22200 00147 11401 20901 320// 41401 70006
BBXX 46244 07181 99409 71244 46/// ///// 1//// 91805 22200 00103 11102 21001 331// 41102 70011
BBXX 46232 07181 99325 71174 46/// ///// 1//// 91738 22200 00144 11301 20801 327// 41301 70006
BBXX WDD6127 07184 99336 70737 41598 41926 10260 2022/ 40138 57037 70211 8229/ 22264 00250 20506 3//// 4//// 5//// 6//// 80230 ICE /////
BBXX 46207 07181 99509 71299 46/// /3204 10070 40349 52005 22200 00085 11004 70018 333 91205
BBXX 44067 07181 99384 70770 46/// /0501 10136 40037 91800
BBXX 41029 07181 99328 70796 46/// /2106 1//// 91800 555 11088 22106
BBXX 46111 07181 99481 71227 46/// /2001 10055 40317 53009 91800 22200 00065
BBXX 46112 07181 99481 71227 46/// /2102 10051 40318 53008 91800
BBXX C6VG7 07184 99184 70771 414// 30607 10280 2//// 40120 5/010 7//11 83/6/ 22200 0//// 20101 3//// 40101 50101 6//// 8//// ICE /////
BBXX 41037 07181 99340 70775 46/// /2207 10212 40099 91800 22200 00180 333 91208
BBXX 45137 07181 99455 70810 46/// /2306 10008 39884 40101 57023 22200 00064 10502 70009 333 91208
BBXX 45003 07181 99454 70828 46/// /2006 10012 39887 91750 555 11066 22070
BBXX LAOW5 07184 99055 70847 41499 53020 10270 20228 40120 51020 70311 85283 22254 00270 20304 32524 40202 50102 6//// 80240 ICE /////
BBXX V2QD4 07183 99342 31727 41397 61913 10180 20164 40133 51010 70311 86868 22263 00190 20301 326// 40803
BBXX ZMENA 07184 99368 31748 46/// ///// 10163 20127 40112 52018 22281
BBXX SHIP 07184 99100 31144 41/97 42114 40050 56021 70211 84/// 22242 00292 10219
BBXX SHIP 07184 99295 30781 41498 60918 10210 20147 40203 50002 70222 8549/ 22224 00204 80170
BBXX VQIC2 07184 99342 31703 41598 71907 10165 20148 40148 53011 71922 8777/ 22223 00200 20602 323// 42003 5//// 80155
BBXX SHIP 07184 99075 30883 41497 82712 10263 20241 40077 58004 70282 85812 22262 00280 11006 20303 327// 40604 85247
BBXX SHIP 07184 99031 30919 41498 32807 10270 20260 40090 57002 70200 83/// 22233 06293 11003 399// 4////
BBXX 62140 07184 99573 10013 46/// /34// 10071 20008 49969 52059 22200
BBXX 62146 07184 99572 10021 47/99 /3509 10061 20001 49964 52065 700// 22200 10806 70028
BBXX 62164 07184 99572 10008 47697 /3117 10071 20016 49985 52067 740// 22200 00102 10706 70029
BBXX 62149 07184 99537 10011 47998 /2835 10067 20014 40046 52044 700// 22200 10708 70040
BBXX 62131 07184 99539 10012 46/// /30// 10069 20010 40034 52043 22200
BBXX 62163 07184 99475 70084 46/// /3114 10115 20088 40260 53013 22200 00135 10809 70043
BBXX 62145 07184 99531 10028 47597 /2738 10073 20007 40068 53036 700// 22200 10710 70048
BBXX 62127 07184 99540 10007 47598 ///// 10062 20006 40042 52047 700// 22200 10708 70042
BBXX 62142 07184 99530 10021 46597 /2940 10076 20009 40048 52040 22200 10608 70041
BBXX 64041 07184 99607 70026 47598 /2215 10052 21003 49936 51011 700// 22200 10907 70037
BBXX 62165 07184 99540 10009 47998 /2835 10070 20002 40055 52047 700// 22200 10709 70044
BBXX 62144 07184 99534 10017 47598 /2837 10067 20005 40080 52038 700// 22200 10608 70040
BBXX MWYG6 07184 99603 70040 47998 /2729 10068 700// 22200
BBXX 63115 07184 99616 10013 47998 /0910 10058 21021 49944 51015 700// 22200 10805 70025
BBXX 63117 07184 99613 10011 47699 /1211 10056 21022 49946 52016 700// 22200
BBXX 63104 07184 99612 10016 47998 /1010 10055 21030 49946 52018 700// 22200
BBXX 63103 07184 99612 10011 46/// /1309 10058 21023 49946 52019 22200 10805 70024
BBXX 63101 07184 99612 10009 46/// /1311 10061 21010 49945 52017 22200
BBXX 63107 07184 99611 10017 46/// /0910 10055 49944 52020 22200
BBXX 63112 07184 99611 10010 47/98 /1408 10059 21033 49945 52022 700// 22200 10705 70025
BBXX 63106 07184 99610 10017 46/// /1010 10057 49946 52020 22200
BBXX 63113 07184 99610 10017 46/// /1009 10068 21025 49944 52019 22200 10705 70024
BBXX 63105 07184 99610 10017 47698 ///// 10053 21024 49946 52019 700// 22200
BBXX 63108 07184 99608 10017 47998 /0905 10048 21028 49939 51022 700// 22200 10805 70024
BBXX 63055 07184 99606 10016 47999 /1302 10059 21020 49945 52025 700// 22200 10804 70022
BBXX AMOUK02 07184 99535 70030 46/// ///// 10076 20015 30081 40114 52006 91750
BBXX AMOUK06 07184 99507 70014 46/// ///// 10091 20017 30154 40171 52028 91750
BBXX AMOUK11 07184 99533 70050 46/// ///// 10079 20023 30078 40121 52010 91750
BBXX AMOUK27 07184 99579 70052 46/// ///// 10032 20012 30017 40020 52028 91750
BBXX AMOUK14 07184 99536 70042 46/// ///// 10080 20010 30089 40121 52043 91750
BBXX AMOUK09 07184 99521 10024 46/// ///// 10083 20007 30058 40072 52017 91750
BBXX AMOUK13 07184 99525 10018 46/// ///// 10064 21006 30076 40086 52039 91750
BBXX AMOUK10 07184 99508 70011 46/// ///// 10082 2//// 30172 4//// 52030 91750
BBXX AMOUK03 07184 99513 10032 46/// ///// 10089 20021 30067 40096 52037 91750
BBXX AMOUK19 07184 99601 70011 46/// ///// 10054 20010 39943 49944 52018 91750
BBXX AMOUK12 07184 99533 70046 46/// ///// 10080 20021 30107 40151 52035 91750
BBXX AMOUK08 07184 99501 70061 46/// ///// 10118 20068 30205 40206 52020 91750
BBXX AMOUK16 07184 99522 70061 46/// ///// 10076 20027 30162 40164 52012 91750
BBXX 62303 07184 99516 70051 46/// /3021 10102 20043 40176 50020 22200 00121 10707 70033 333 90710 91129
BBXX 62301 07184 99524 70047 46/// /2821 10089 20034 40162 53024 22200 00112 10606 70031 333 90710 91130
BBXX 64046 07184 99606 70049 46/// /3124 10057 20015 49942 53025 22200 00101 10708 70039
BBXX 62001 07184 99452 70050 46/// /2815 10144 20089 40284 52016 22200 00154 10908 70042
BBXX 62029 07184 99487 70125 46/// /2613 10125 20092 40240 50003 22200 00136 10910 70048
BBXX 62442 07184 99490 70164 46/// /2419 1//// 2//// 40234 55004 22200 00132
BBXX IDDUK02 07184 99668 50691 46/// ///// 49732 222//
BBXX 3ERR2 07184 99635 10053 41598 52703 10040 21036 49952 52013 70320 851// 22200 06098 11005 70024 333 91117
BBXX 62105 07184 99554 70122 46/// /2922 10083 20043 40094 50002 22200 00109 10811 70057 333 90710 91136
BBXX 63110 07183 99595 10015 41/98 /2615 10075 20035 49939 70022 8//// 22200 10905 70025
BBXX 62027 07184 99491 70022 46/// /3323 1//// 2//// 40209 52031 22200 00133 11106 330// 70032 333 90710 91130
BBXX 62081 07184 99510 70134 46/// ///// 10110 20084 40200 57004 22200 00121 10910 70050
BBXX 64045 07184 99591 70117 46/// /2715 10056 21003 49992 52015 22200 00101 10911 70055 333 90710 91128
BBXX VQKZ6 07184 99422 70200 41598 80819 10150 20113 40308 54000 70322 84818 22254 02115 20302 327// 40605 5//// 80136
BBXX 61002 07184 99421 10047 46/// ///22 10162 2//// 40254 52004 22200 00160 10502 70012 555 1/029
BBXX BATUK01 07184 99560 70032 46/// /2604 10032 21018 40046 51041 22200 00047
BBXX BATEU05 07184 99583 10056 46/// /1007 10039 21053 49943 53045 22273
BBXX BATFR06 07184 99453 70015 46/// /2916 10150 20084 40273 53014 22261 00162
BBXX BATEU01 07184 99488 70213 44596 72528 10139 20109 40199 56019 70022 872// 22264 00124 21006 32529 41006 51504
BBXX BATEU06 07184 99501 70160 46/// /2424 10119 20074 40207 57002 22223 00134
BBXX BATFR03 07184 99498 70005 46/// /3129 10107 20024 40178 22283
BBXX BATFR14 07184 99367 70300 44598 60917 10177 20149 40253 56020 70222 86272 22254 00182 20302 31011 40704 51006 60000 ICE 0/0//
BBXX BATFR52 07184 99508 70011 46/// /2835 10082 20002 40177 53022 22272 00105
BBXX BATFR10 07184 99369 10003 44/98 02805 40283 55/// 70200 22263 00184
BBXX BATEU09 07184 99428 10095 46/// /2759 10162 20087 40103 22241 00184
BBXX BATFR27 07184 99494 70036 46/// /3027 10110 20054 40210 51067 22245 00137
BBXX BATFR04 07184 99595 70112 46/// /3510 10034 21003 49988 22252 00102
BBXX BATFR09 07184 99366 70094 44497 81004 10147 20094 40289 55002 70311 8642/ 22233 00194 20100 326// 40302 5////
BBXX BATFR60 07184 99495 70036 46/// /2827 10114 20059 40211 53018 22213 00125
BBXX BATFR12 07184 99484 70071 46/// /2811 10197 20100 40246 53016 22200 00147
BBXX BATFR20 07184 99432 10053 46/// /2833 10152 20097 40209 22243
BBXX BATFR54 07184 99535 70039 46/// /2731 10082 20022 40134 53033 22232 00102
BBXX OXHY2 07184 99414 70097 41/98 52403 10149 20131 40314 53010 70222 846// 22284 00165 21001 334// 41003 5//// 80138
BBXX BAREU61 07184 99413 10022 46/// /3614 10152 29056 40264 22243
BBXX PFFH 07183 99361 10148 41/98 /2928 10180 40220 54000 70011 8//// 22213 00185 2////
BBXX 61001 07184 99434 10078 46/// /2633 10161 20100 40134 52008 22200 00163 10807 70035 555 1/046
BBXX BAREU06 07184 99360 70065 46/// ///// 40282 57000 22264
BBXX BATFR02 07184 99500 70006 46/// /2931 10104 20032 40191 22244 00139
BBXX BAREU62 07184 99383 10248 46/// ///// 40130 52005 22214
BBXX BAREU12 07184 99540 10075 46/// ///// 49907 52003 22264
BBXX BAREU05 07184 99444 10087 46/// ///// 40147 52005 22281
BBXX TESTFR9 07184 99508 70011 46/// /2937 10080 29060 40175 52013 22283
BBXX BAREU63 07184 99442 10092 46/// /3608 10153 29075 40136 22232
BBXX MSTM6 07183 99371 10034 41398 22710 10162 20145 40298 53015 70100 811// 22264 06177 20202 3//// 4//// 5//// 80152
BBXX LF3N 07184 99653 10073 41597 60221 10027 21010 49926 52022 70222 8//// 22200 00091 10706 70030
BBXX LF5T 07184 99660 10081 41798 40428 10030 20016 49919 52025 75011 849// 22200 06083 10808 70040 333 91139
BBXX LF4C 07184 99584 10019 41599 73115 10067 20004 49960 52039 70282 89/// 22200 00077 10805 70027 333 91118
BBXX LF4B 07184 99606 10037 47/98 /0504 10037 49950 52024 700// 22200 00054 10804 70019 333 91117
BBXX LF3F 07184 99643 10078 43/// /3216 10051 21045 49930 52018 22200 04092 10805 70027 333 91124
AAXX 07184 87129 32565 51803 10308 20190 39884 40111 57023 85200 333 84630 81840
BBXX MFLM9 07183 99123 31307 41498 22402 10284 20256 40043 57004 70300 811// 22200 00303 20101 323// 40101 5//// 80264
AAXX 07184 RTD 78792 11460 80000 10254 20223 30098 40111 57013 60021 72164 83270 333 060// 10280 20231 31/// 58015 83816 85358
AAXX 07184 RTD 78792 11460 80000 10254 20223 30098 40111 57013 60021 72164 83270 333 060// 10280 20231 31/// 58015 83816 85358
AAXX 07184 94996 45/// /1108 10179 20096 39987 40123 53001 91830
AAXX 07181 55299 32980 00201 11113 21199 35867 57006 333 00153 10055
AAXX 07181 55591 32980 00901 10011 21172 36520 52008 333 00201 10171
AAXX 07181 56739 32578 33601 10107 20085 38370 57003 83400 333 00051 10209
AAXX 07181 56951 32675 61401 10124 20096 38526 57001 81440 333 00051 10237
AAXX 07181 56964 32568 60000 10146 20135 38730 40154 57001 86400 333 00152 10240
AAXX 07181 57328 11860 80401 10086 20061 39897 40318 57003 69901 70060 885// 333 10096
AAXX 07181 57411 31959 71801 10086 20064 39946 40327 57001 71000 8704/ 333 10103
AAXX 07181 57447 11965 80401 10078 20064 39774 40331 52004 69901 70060 8807/ 333 10086
AAXX 07181 57662 11758 82901 10074 20044 30284 40329 57004 69911 71060 885// 333 10077
AAXX 07181 57745 11760 80402 10071 20024 39997 40335 52006 69911 70060 885// 333 10074
AAXX 07181 57972 11456 83401 10063 20056 30079 40311 52005 60051 76066 887// 333 10092
AAXX 07181 58203 31650 83604 10052 20020 30296 40339 52009 71000 885// 333 10062
AAXX 07181 58314 11550 83202 10057 20054 30213 40323 52011 69961 76066 885// 333 10063
AAXX 07181 58424 11756 80403 10063 20045 30281 40307 52008 60021 71060 885// 333 10089
AAXX 07181 59023 32568 80204 10132 20065 39952 40265 52012 888// 333 10177
AAXX 07181 59417 11450 80901 10155 20144 30062 40217 52010 60011 76060 887// 333 10186
AAXX 07181 59985 32570 60405 10253 20240 30111 40116 57011 86200 333 10295
AAXX 07181 59995 NIL
AAXX 07184 94996 45/// /1108 10179 20096 39987 40123 53001 91830
BBXX 46185 07181 99524 71298 46/// /0005 10048 40349 52005 22200 00074 11502 70008 333 91206
AAXX 07184 48425 31940 40000 10252 20224 30101 40111 57002 71011 82035 333 59001
AAXX 07184 48566 32560 20000 10262 20222 30090 40099 57004 81105 333 58001
AAXX 07184 89050 41495 72914 10015 20012 49732 52074 71073 87400
AAXX 07184 89512 32998 80703 11057 21107 39699 49850 57003 82031 333 11045
AAXX 07184 89574 42598 60501 11061 21080 49729 57002 85530
AAXX 07184 89592 42998 31307 11081 21135 49689 57002 83030
AAXX 07184 89606 42998 81104 11351 21415 36193 47854 53002 80001 333 11280
AAXX 07184 48387 31957 11002 10155 20150 39162 40138 57004 71000 81040 333 59001
BBXX 46185 07181 99524 71298 46/// /0005 10048 40349 52005 22200 00074 11502 70008 333 91206
AAXX 07181 24790 42999 60000 11388 21401 39440 40378 57006 80001
AAXX 07181 24988 42999 23201 11258 21276 39953 40229 57015 80001
AAXX 07181 25378 31694 83214 11143 21186 30005 40039 57020 60052 77373 8552/ 333 21150 48006 91124
AAXX 07181 25503 41996 80902 11342 21364 30138 40282 57014 77372 8802/
AAXX 07181 25705 41698 80000 11306 21329 39907 40275 57009 77172 84537
AAXX 07181 25927 42998 43108 11210 21250 30140 40147 57014 80001 333 91111
AAXX 07181 25932 42999 02801 11175 21244 30077 40117 53002
AAXX 07181 31152 NIL
AAXX 07181 31174 42999 13004 11125 21160 30247 40259 57008 80001
AAXX 07181 31489 42998 00000 11252 21277 30155 40284 57002
AAXX 07181 31866 42999 33306 11106 21179 30190 40196 58005 84040
AAXX 07181 31959 42998 02805 11140 21211 30178 40223 57003 333 91113
AAXX 07181 31989 42999 03501 11125 21220 30191 40248 53001
AAXX 07181 32027 41998 73213 11129 21149 30178 40187 57015 73632 84032 333 91017 91118
AAXX 07181 32076 41998 63404 11077 21132 30133 40143 54000 70272 86070 333 91005 91109
AAXX 07181 32099 41595 63613 11038 21050 30101 40109 57008 78583 86900 333 91017 91119
AAXX 07181 32121 42997 80204 11082 21134 30127 40150 54000 86032 333 91008 91108
AAXX 07181 32213 42998 62003 11042 21092 30017 40081 57014 80001
AAXX 07181 32287 41999 80706 11128 21163 30072 40083 57009 73632 80007
AAXX 07181 32408 42698 71501 11144 21171 30018 40058 57009 82501
AAXX 07181 32509 42998 03103 11113 21171 30024 40059 57007 333 91114
AAXX 07181 32594 41598 71808 11036 21084 30035 40071 57014 73682 85302 333 91010 91111
BBXX NIL
BBXX NIL
AAXX 07184 40255 32960 00000 10088 20012 39493 40218 54003 333 10175
AAXX 07184 40260 32960 00000 10080 21148 39420 40220 54000 333 10168
AAXX 07184 40270 31950 00000 10090 21089 39310 40225 52007 70500 333 10175
AAXX 07184 40272 32960 00000 10066 21111 39378 40239 52008 333 10174
AAXX 07184 40290 NIL
AAXX 07184 40340 32960 03508 10132 21013 40205 52013 333 10210
BBXX NIL
AAXX 07184 40250 32960 01204 10088 21119 39412 40226 54001 333 10170
AAXX 07184 40265 NIL
AAXX 07184 40296 NIL
AAXX 07184 40310 32960 01701 10086 210049 38980 48519 52006 333 10130
BBXX NIL
BBXX NIL
AAXX 07180 44221 429// 00000 11300 21317 38760 40660 52010
AAXX 07184 42027 22596 71401 10042 20024 38481 48567 83520 333 58052 6005/
AAXX 07184 42101 31695 20000 10170 20160 40157 70500 82500 333 58010 82635
AAXX 07184 42111 31995 00000 10144 20100 39385 40165 70500 333 58014
AAXX 07184 42165 31995 00502 10178 20143 40140 70500 333 58023
AAXX 07184 42182 31994 00000 10178 20165 40150 71000 333 58011
AAXX 07184 42328 32996 00204 10192 20089 40141 333 58014
AAXX 07184 42339 31995 03602 10220 20089 40134 70500 333 58021
AAXX 07184 42348 31995 00904 10214 20126 40135 70500 333 58013
AAXX 07184 42361 31995 00000 10168 20144 40147 70500 333 58012
AAXX 07184 42369 31/91 90000 10168 20161 40162 74544 89/// 333 58011
AAXX 07184 42379 31994 00000 10176 20148 40151 71040 333 58012
AAXX 07184 42452 32996 00000 10222 20144 40132 333 58010
AAXX 07184 42475 31992 00000 10170 20153 40157 74400 333 58016
AAXX 07184 42071 NIL
AAXX 07184 42131 NIL
AAXX 07184 42189 NIL
AAXX 07184 42260 NIL
AAXX 07183 42071 31996 00000 10132 20109 40165 70500 333 58016
AAXX 07184 71010 16/// /3217 11080 21160 60001 333 11027 21092 70000
AAXX 07184 71214 16/// /3317 11077 21174 60001 333 11017 21077 70000
AAXX 07184 71223 16/// /3118 11069 21151 60001 333 11026 21076 70000
AAXX 07184 71225 16/// /3408 11031 21041 60001 333 11009 21038 70000
AAXX 07184 71227 46/// /3219 11081 21160 6///1 333 11039 21095 7////
AAXX 07184 71525 17/// /0111 11047 21049 60011 7//4/ 333 11013 21049 70015
AAXX 07184 71526 17/// /0409 11075 21082 69951 7//4/ 333 11031 21076 70005
AAXX 07184 71535 17/// /0106 11037 21043 69971 7//4/ 333 11004 21040 70007
AAXX 07184 71536 16/// /0206 11035 21036 60001 333 11022 21070 70000
AAXX 07184 71537 17/// /0110 11069 21080 60021 7//4/ 333 11023 21069 70021
AAXX 07184 71351 16/// /3212 11078 21164 60001 333 11034 21088 7////
AAXX 07184 71353 17/// /3115 11096 21148 69941 7//4/ 333 11043 21098 7////
AAXX 07184 71375 46/// /0811 11065 6///1 333 11064 21122 7////
AAXX 07184 71385 46/// /0605 10003 6///1 333 10007 21031 7////
AAXX 07181 22641 12999 81701 10000 21015 30008 40024 52024 69960 8808/ 333 10015 91106
AAXX 07184 71916 46/// /3206 11294 21318 30155 40213 53014 6///1 333 11260 21295 7////
AAXX 07184 71751 46/// /3021 11014 21089 39830 40090 50005 6///1 333 11013 21074 7////
AAXX 07184 71445 16/// /3021 11085 21152 39831 40111 58004 60001 333 11029 21093 70000 555 10070
AAXX 07184 71683 46/// /0203 11226 30183 40300 56015 6///1 333 11223 21247 7////
AAXX 07184 71462 46/// /2714 10012 21043 39869 40095 6///1 333 7////
AAXX 07184 71464 46/// ///07 10016 39898 40112 58019 6///1 333 10028 20012 7////
AAXX 07184 71257 17/// /3310 11078 21106 69991 7//4/ 333 11037 21081 70009
AAXX 07184 71258 17/// /3310 11091 21113 69951 7//4/ 333 11048 21092 70009
AAXX 07184 71259 17/// /3411 11068 21101 60011 7//4/ 333 11024 21072 70014
AAXX 07184 71274 16/// /3312 11107 21169 60001 333 11076 21116 70000
AAXX 07184 71275 46/// /2915 11104 21165 6///1 333 11081 21136 7////
AAXX 07184 71278 16/// /3215 11086 21163 60001 333 11050 7////
AAXX 07184 71286 16/// /3119 11092 21164 60001 333 11051 21108 7////
AAXX 07184 71287 17/// /3114 11102 21166 69941 7//4/ 333 11070 21113 70004
AAXX 07184 71289 16/// /3117 11081 21144 60001 333 11031 21092 70008
AAXX 07184 71906 11974 62016 11116 21211 39995 40046 56029 60001 73611 80001 333 11114 22177 79999
AAXX 07184 63729 32980 1000 10200 20184 38859 48/// 80002 333 10260 55300 59008 81070
AAXX 07184 63733 32580 60000 10222 20196 38856 48496 81931 333 10267 55300 59009 81922 86359
AAXX 07184 63791 32580 11210 20190 39107 48496 82931 333 55300 59008 81925
AAXX 07184 63801 32580 40000 10215 20194 39194 48511 81931 333 10282 5925 85821 81922
AAXX 07184 63832 32580 20000 10230 20183 38812 48488 81300 333 10276 59008 81820
AAXX 07184 63862 32580 31580 30000 10226 20179 38883 48498 69992 81133 333 0//51 59008 81822 81076
AAXX 07184 63866 32580 7000 10250 20206 39504 48/// 8357/ 333 10320 59005 83620 87359
AAXX 07184 63870 31480 10000 10260 2O253 30082 40106 71311 81200 333 10310 55300 59004 81818
AAXX 07184 63881 02480 53003 10163 20154 38193 48/// 60202 83973 333 10225 59011 69907 83618 81920 84357
AAXX 07184 63887 12480 60000 10195 20160 38577 48496 60072 83230 333 10253 55300 59005 83819 86358
AAXX 07184 63894 12580 20000 10260 20205 30043 40103 69952 8293/ 333 0//18 10320 55300 59009 82820 81921 87357
AAXX 07184 63932 12580 80000 10170 20170 38303 48501 60052 8392/ 333 10235 59003 83821 81923 88458
AAXX 07184 63962 11580 70000 10222 20206 38931 48491 60062 71796 8393/ 333 0//93 10290 59023 83622 81924 87358
AAXX 07184 63971 63971 32580 70000 10260 20240 39972 40101 8293/ 333 10318 55300 59010 82822 81923 86358
AAXX 07184 63756 NIL
AAXX 07184 71906 11974 62016 11116 21211 39995 40046 56029 60001 73611 80001 333 11114 22177 79999
AAXX 07181 47008 42570 63208 11030 21122 30197 40253 52003 86500
AAXX 07181 47014 42950 40000 11146 21173 39877 40312 53005 84040
AAXX 07181 47016 11570 60000 11092 21155 39375 40263 53012 69901 72272 86500
AAXX 07181 47020 42565 63203 11064 21109 39895 40290 53011 86500
AAXX 07181 47025 11540 83607 11019 21021 30220 40250 53002 60051 77177 8802/
AAXX 07181 47035 42970 03602 11061 21105 30279 40288 54000
AAXX 07181 47041 41560 20000 11012 21030 30197 40225 54000 71042 82500
AAXX 07181 47055 42965 70000 10027 21042 30183 40229 57003 87030
AAXX 07181 47058 42960 23203 11015 21052 30213 40262 54000 80002
AAXX 07181 47069 41656 73405 10019 21025 30145 40247 58004 71022 87502
AAXX 07181 51711 32780 32502 11112 21137 38124 57001 81502 333 00053 11034
AAXX 07181 51730 32975 72701 11078 21094 40425 52001 80002 333 00156 10040
AAXX 07181 52112 32980 22901 11104 21163 40461 57001 80002 333 00053 11016
AAXX 07181 52737 32980 00000 11121 21195 37125 57007 333 00154 10001
AAXX 07181 52787 32980 71807 11142 21150 37075 57008 80002 333 00052 11083
AAXX 07181 53352 32980 03201 11171 21194 40499 57006 333 11115
AAXX 07181 53593 32970 00404 11125 21189 40441 52006 333 11012
AAXX 07181 53705 32980 10000 11067 21101 40441 57007 80002 333 00256 10004
AAXX 07181 53863 32975 02203 11033 21113 40408 57002 333 10027
AAXX 07181 53975 32970 03201 11008 21115 40383 52002 333 10066
AAXX 07181 54273 32670 73202 11146 21190 40342 52013 875// 333 11046
AAXX 07181 54324 11970 03606 11093 21198 40391 52013 69901 70070 333 11013
AAXX 07181 54405 32980 02707 11110 21206 40421 57002 333 11002
AAXX 07181 54436 32980 00704 11056 21156 40378 52008 333 10014
AAXX 07181 54808 32960 03603 11002 21023 40366 52007 333 10041
AAXX 07181 54826 31960 00211 11113 21125 38505 57006 72844 333 11004
AAXX 07181 54836 11663 33403 10010 21042 40336 52005 69901 70060 83500 333 10056
AAXX 07181 54863 11970 00207 10005 21053 40308 52007 69901 70060 333 10062
AAXX 07181 56018 32980 60000 11083 21232 36195 57001 80002 333 00456 10070
AAXX 07181 56021 32780 70901 11104 21217 36082 57012 86502 333 00253 10022
AAXX 07181 57071 32961 23202 10015 21068 40367 54000 80002 333 10104
AAXX 07184 71751 46/// /3021 11014 21089 39830 40090 50005 6///1 333 11013 21074 7////
AAXX 07184 71462 46/// /2714 10012 21043 39869 40095 6///1 333 7////
AAXX 07184 71464 46/// ///07 10016 39898 40112 58019 6///1 333 10028 20012 7////
AAXX 07181 47090 32665 80001 10049 21069 30188 40210 57008 8252/ 333 92021
AAXX 07181 47095 31940 80000 11016 21025 30046 40241 57006 710// 8802/
AAXX 07181 47097 329// /3203 10031 21028 30133 40231 58002
AAXX 07181 47098 329// /3602 10002 21021 30097 40235 57006
AAXX 07181 47099 329// /0000 10000 21001 30203 40241 56002
AAXX 07181 47100 31957 82503 11037 21064 39290 40235 55004 71022 8801/
AAXX 07181 47102 32662 52911 10009 21035 30082 40265 53005 85500
AAXX 07181 47104 32670 81803 10039 21058 30112 40210 55007 8152/
AAXX 07181 47106 329// /2903 10053 21062 30156 40206 55007
AAXX 07181 47112 31956 83606 10039 21018 30150 40235 58002 70522 8802/ 333 92012
AAXX 07181 47114 31958 80000 10010 21020 30042 40229 57007 71022 8801/
AAXX 07181 47119 31950 83404 10042 20000 30190 40233 54000 70522 8801/
AAXX 07181 47121 329// /0000 10003 21016 39927 40228 57011
AAXX 07181 47127 329// /0001 10016 21008 30088 40233 56003
AAXX 07181 47129 31958 83406 10061 20004 30204 40240 50002 70522 8802/
AAXX 07181 47130 32970 82503 10041 21014 30141 40203 58009 8802/ 333 92032
AAXX 07181 47131 31957 83601 10045 21015 30161 40232 50006 70522 8802/
AAXX 07181 47135 329// /2709 10037 21005 39925 40227 55005
AAXX 07181 47136 31950 82701 10034 21015 30043 40217 56005 70542 8801/
AAXX 07181 47137 329// /2707 10044 21024 30103 40222 55001
AAXX 07181 47140 31958 80001 10045 20008 30204 40233 58004 71022 8802/ 333 92011
AAXX 07181 47143 31658 82905 10067 21030 30143 40222 56002 70522 8552/
AAXX 07181 47145 31959 83203 10049 21017 30200 40227 54000 70522 8802/
AAXX 07181 47146 31950 83404 10051 21003 30167 40234 55001 70522 8801/
AAXX 07181 47150 31957 80204 10053 21001 30212 40231 57010 70522 8802/
AAXX 07181 47152 32662 83606 10068 21016 30162 40205 55004 8352/
AAXX 07181 47154 329// /2905 10056 21015 30161 40222 57004
AAXX 07181 47155 31659 80905 10081 21047 30162 40208 58004 70522 8352/
AAXX 07181 47156 32662 80505 10061 20004 30140 40230 50005 8452/
AAXX 07181 47157 31959 82703 10044 21016 39936 40208 57003 70522 8802/
AAXX 07181 47162 41558 80702 10062 20026 30169 40210 57004 76166 8672/ 333 92021
AAXX 07181 47169 41665 83610 10095 20058 30131 40224 57008 72166 8352/ 333 92043
AAXX 07181 47170 41557 82902 10065 20021 30180 40224 50005 76066 8372/ 333 92021
AAXX 07181 47171 329// /0701 10048 20005 30178 40234 50001
AAXX 07181 47172 329// /2901 10057 20006 30159 40226 50001
AAXX 07181 47173 329// /0001 10047 21005 30116 40228 54000
AAXX 07181 47174 32662 83207 10062 21012 30016 40219 50001 8252/
AAXX 07181 47175 41561 83608 10032 20013 39647 40226 50003 72162 8452/ 333 92023
AAXX 07181 47185 41561 80211 10093 20060 30124 40215 55001 76166 8572/ 333 92024
AAXX 07181 47188 41562 80502 10085 20064 30194 40216 52007 76166 8572/ 333 92021
AAXX 07181 47189 41561 83402 10103 20092 30143 40203 50001 76166 8572/ 333 92022
AAXX 07181 47192 31658 83601 10059 20006 30175 40213 57006 70522 8352/
AAXX 07184 71010 16/// /3217 11080 21160 60001 333 11027 21092 70000
AAXX 07184 71214 16/// /3317 11077 21174 60001 333 11017 21077 70000
AAXX 07184 71223 16/// /3118 11069 21151 60001 333 11026 21076 70000
AAXX 07184 71225 16/// /3408 11031 21041 60001 333 11009 21038 70000
AAXX 07184 71227 46/// /3219 11081 21160 6///1 333 11039 21095 7////
AAXX 07184 71257 17/// /3310 11078 21106 69991 7//4/ 333 11037 21081 70009
AAXX 07184 71258 17/// /3310 11091 21113 69951 7//4/ 333 11048 21092 70009
AAXX 07184 71259 17/// /3411 11068 21101 60011 7//4/ 333 11024 21072 70014
AAXX 07184 71274 16/// /3312 11107 21169 60001 333 11076 21116 70000
AAXX 07184 71275 46/// /2915 11104 21165 6///1 333 11081 21136 7////
AAXX 07184 71278 16/// /3215 11086 21163 60001 333 11050 7////
AAXX 07184 71286 16/// /3119 11092 21164 60001 333 11051 21108 7////
AAXX 07184 71287 17/// /3114 11102 21166 69941 7//4/ 333 11070 21113 70004
AAXX 07184 71289 16/// /3117 11081 21144 60001 333 11031 21092 70008
AAXX 07184 71683 46/// /0203 11226 30183 40300 56015 6///1 333 11223 21247 7////
AAXX 07184 71525 17/// /0111 11047 21049 60011 7//4/ 333 11013 21049 70015
AAXX 07184 71526 17/// /0409 11075 21082 69951 7//4/ 333 11031 21076 70005
AAXX 07184 71535 17/// /0106 11037 21043 69971 7//4/ 333 11004 21040 70007
AAXX 07184 71536 16/// /0206 11035 21036 60001 333 11022 21070 70000
AAXX 07184 71537 17/// /0110 11069 21080 60021 7//4/ 333 11023 21069 70021
AAXX 07184 71445 16/// /3021 11085 21152 39831 40111 58004 60001 333 11029 21093 70000 555 10070
AAXX 07184 71351 16/// /3212 11078 21164 60001 333 11034 21088 7////
AAXX 07184 71353 17/// /3115 11096 21148 69941 7//4/ 333 11043 21098 7////
AAXX 07184 71375 46/// /0811 11065 6///1 333 11064 21122 7////
AAXX 07184 71385 46/// /0605 10003 6///1 333 10007 21031 7////
AAXX 07184 71916 46/// /3206 11294 21318 30155 40213 53014 6///1 333 11260 21295 7////
AAXX 07181 47101 31950 80000 11001 21017 30138 40237 55007 71022 8802/
AAXX 07181 47105 369// /2504 10052 21063 30178 40210 55008
AAXX 07181 47108 31940 82906 10026 21021 30126 40234 58004 70522 8802/
AAXX 07181 47115 41420 80712 10054 20052 39923 40196 53005 76362 8672/ 333 92044
AAXX 07181 47133 31956 80000 10041 21010 30150 40236 55001 70522 8801/
AAXX 07181 47138 32663 82504 10071 21015 30203 40206 55004 8452/ 333 92022
AAXX 07181 47159 32660 83412 10072 21033 30119 40205 50004 8552/ 333 92024
AAXX 07181 47165 41657 80502 10063 20010 30180 40227 56001 72162 8352/ 333 92021
AAXX 07181 47168 41561 83205 10078 20007 30131 40210 56005 76066 8572/ 333 92022
AAXX 07181 47184 41562 81601 10090 20067 30195 40220 51005 76166 8572/ 333 92021
AAXX 07181 47003 42980 83604 11067 21133 30276 40280 52013 81032
AAXX 07181 47005 42980 81401 11169 21181 38603 57002 8803/
AAXX 07181 47022 11475 80000 11110 21123 38836 57008 69911 70372 82502
AAXX 07181 47028 42962 03202 11047 21103 30182 40281 58004
AAXX 07181 47031 42970 00000 11125 21131 38937 58006
AAXX 07181 47037 42970 03202 11035 21083 30136 40264 53002
AAXX 07181 47039 42560 82901 11022 21069 30050 40247 54000 885//
AAXX 07181 47046 11550 80509 10009 21005 30204 40227 53002 69901 77072 8753/
AAXX 07181 47050 42965 00000 11020 21066 30222 40257 52005
AAXX 07181 47052 42965 00000 11040 21059 39909 40260 57004
AAXX 07181 47060 41950 43605 10000 21024 30197 40257 53002 71022 84010
AAXX 07181 47061 42680 80000 10027 20000 30181 40225 54000 885//
AAXX 07181 47065 41540 83203 10001 21023 30194 40261 58002 71022 885//
AAXX 07181 47067 41950 80000 10006 21017 30141 40264 57002 71022 8801/
AAXX 07181 47068 42560 83604 10017 21034 30218 40254 54000 87502
AAXX 07181 47070 41560 83203 10022 21008 30157 40246 57003 71022 885//
AAXX 07181 47075 42970 80000 11014 21025 39729 40167 57008 8805/
AAXX 07184 45011 47545 /3409 10184 20154 40171 57004 71011 333 59011
AAXX 07184 45011 47545 /3409 10184 20154 40171 57004 71011 333 59011
AAXX 07184 67765 NIL
AAXX 07184 67775 42980 01405 10226 20121 38486 48490 333 10295 59015
AAXX 07184 67779 NIL
AAXX 07184 67853 NIL
AAXX 07184 67861 NIL
AAXX 07184 67867 42975 10000 10210 20125 38556 48484 80002 333 10293 59015 81080
AAXX 07184 67881 NIL
AAXX 07184 67965 41770 31302 10245 20100 38661 48489 70511 83500 333 10330 59020 83657
AAXX 07184 67975 41965 11103 10242 20142 38858 48493 70511 80002 333 10311 59021 81080
AAXX 07184 67977 NIL
AAXX 07184 67983 41970 11802 10203 20151 38862 48488 70500 80001 333 10270 59024 81080
AAXX 07184 67991 42980 00000 10300 20165 39536 48462 333 10357 59027
AAXX 07184 67755 NIL
AAXX 07184 67771 NIL
AAXX 07184 67773 NIL
AAXX 07184 67774 NIL
AAXX 07184 67785 NIL
AAXX 07184 67789 NIL
AAXX 07184 67855 NIL
AAXX 07184 67857 NIL
AAXX 07184 67863 NIL
AAXX 07184 67871 NIL
AAXX 07184 67875 NIL
AAXX 07184 67891 NIL
AAXX 07184 67895 NIL
AAXX 07184 67897 NIL
AAXX 07184 67899 NIL
AAXX 07184 67951 NIL
AAXX 07184 67963 NIL
AAXX 07184 67967 NIL
AAXX 07184 67971 41970 11404 10280 20143 3//// 48/// 70500 80002 333 10343 5//// 81080
AAXX 07184 67976 NIL
AAXX 07184 67979 NIL
AAXX 07184 68513 36/// /1512 10173 20111 30054 40166 53006 333 10223 20173 91016 555 91016
AAXX 07184 68514 NIL
AAXX 07184 68523 36/// /2211 10210 20038 39099 48516 53007 333 10290 20210 91021 555 91016
AAXX 07184 68527 36/// /2402 10224 20116 39062 48507 52011 333 10339 20221 91003 555 91015
AAXX 07184 68572 31780 62207 10200 20146 38391 48498 52020 70399 86200 333 10305 20199 91010 555 91018
AAXX 07184 68575 36/// /0000 10231 20193 39051 48486 53008 333 10336 20231 91004 555 91012
AAXX 07184 68581 36/// /1402 10251 20216 39319 48486 53011 333 10326 20251 91003 555 91009
AAXX 07184 68583 36/// /0705 10237 20205 39959 40067 52010 333 10285 20237 91010 555 91007
AAXX 07184 68589 36/// /1905 10198 20124 38242 48498 53013 333 10292 20195 91008 555 91019
AAXX 07184 68613 36/// /2208 10166 20126 30069 40185 52013 333 10217 20151 91012 555 91018
AAXX 07184 68647 NIL
AAXX 07184 68651 36/// /1408 10170 20158 38552 48514 53019 333 10315 20170 91013 555 91019
AAXX 07184 68715 36/// /2304 10164 20118 30053 40181 52013 333 10237 20163 91011 555 91018
AAXX 07184 68717 36/// /1808 10165 20102 30035 40180 52017 333 10239 20165 91016 555 91018
AAXX 07184 68723 36/// /2709 10220 20060 39376 48515 52020 333 10288 20220 91018 555 91014
AAXX 07184 68737 32870 71810 10244 20122 39200 48489 52012 875// 333 10344 20244 91018 555 91011
AAXX 07184 68744 32580 41311 10179 20134 39064 48478 52026 80007 333 10360 20179 91016 555 91012
AAXX 07184 68747 36/// /1508 10184 20149 39612 48522 53036 333 10307 20184 91014 555 91014
AAXX 07184 68754 16/// /2002 10151 20143 39133 48512 53026 69942 333 10285 20151 91008 555 20004 69925 91017
AAXX 07184 68817 36/// /2507 10175 20097 30170 40183 52017 333 10196 20159 91013 555 91018
AAXX 07184 68821 36/// /3014 10165 20102 39916 40157 52018 333 10242 20161 91022 555 91015
AAXX 07184 68835 36/// /2502 10192 20125 30028 40142 53023 333 10263 20192 91005 555 91014
AAXX 07184 68843 36/// /2707 10194 20149 30034 40132 53022 333 10231 20194 91011 555 91013
AAXX 07184 68849 36/// /1910 10152 20127 39406 48508 53022 333 10233 20152 91016 555 91015
AAXX 07184 68912 16/// /2009 10142 20102 30171 40180 52017 69942 333 10172 20142 91012 555 20004 91018
AAXX 07184 68918 16/// /2509 10165 20115 30151 40170 53017 69942 333 10238 20154 91016 555 20004 91017
AAXX 07184 68921 36/// /2410 10160 20131 30153 40156 53016 333 10253 20153 91017 555 91015
AAXX 07184 68925 16/// /2503 10135 20112 39805 40174 53015 60032 333 10191 20134 91009 555 20034 91017
AAXX 07184 68926 32560 72707 10187 20101 39976 40154 52038 875// 333 10294 20187 91017 555 91015
AAXX 07184 68935 16/// /2508 10174 20143 30084 40148 52020 69922 333 10225 20174 91014 555 20002 91014
AAXX 07184 62600 32970 00210 10210 20035 39976 40191 333 10245 58006
AAXX 07184 62640 31968 03613 10235 20055 39767 40126 333 10300 58000
AAXX 07184 62641 32570 73508 10245 20180 30109 40157 333 82570 10267 56990 58000 82630 87365
AAXX 07184 62650 32970 03606 10190 21060 39884 40159 333 10280 59006
AAXX 07184 62680 31965 03607 10256 20104 39720 40114 333 70600 10318 58006
AAXX 07184 62721 32970 73609 10270 20090 39678 40114 333 80007 10320 56009 58000 87275
AAXX 07184 62730 31968 00407 10280 20150 39572 40130 333 70600 10347 59001
AAXX 07184 62750 32970 73407 10260 20115 39660 40085 333 80007 10322 56009 59001 87275
AAXX 07184 62751 32970 03202 10244 20046 39645 40106 333 10345 59001
AAXX 07184 62752 32970 00205 10300 20136 39418 40077 333 10367 59001
AAXX 07184 62600 32970 00210 10210 20035 39976 40191 333 10245 58006
AAXX 07184 62640 31968 03613 10235 20055 39767 40126 333 10300 58000
AAXX 07184 62641 32570 73508 10245 20180 30109 40157 333 82570 10267 56990 58000 82630 87365
AAXX 07184 62650 32970 03606 10190 21060 39884 40159 333 10280 59006
AAXX 07184 62680 31965 03607 10256 20104 39720 40114 333 70600 10318 58006
AAXX 07184 62721 32970 73609 10270 20090 39678 40114 333 80007 10320 56009 58000 87275
AAXX 07184 62730 31968 00407 10280 20150 39572 40130 333 70600 10347 59001
AAXX 07184 62750 32970 73407 10260 20115 39660 40085 333 80007 10322 56009 59001 87275
AAXX 07184 62751 32970 03202 10244 20046 39645 40106 333 10345 59001
AAXX 07184 62752 32970 00205 10300 20136 39418 40077 333 10367 59001
AAXX 07181 38462 429// 00000 11088 21160 38819 48540 58007 333 11002
AAXX 07184 68514 NIL
AAXX 07184 68647 NIL
AAXX 07181 50548 32980 00201 11278 21310 40416 57001 333 11127
AAXX 07181 50564 32970 02502 11253 21280 40387 52001 333 11156
AAXX 07181 51334 11670 83401 11044 21059 40443 57008 69901 77077 885// 333 05152 11029
AAXX 07181 51818 11862 73401 11029 21043 40427 52001 69921 77070 875// 333 00251 11009
AAXX 07181 52378 32980 00702 11132 21212 40479 57010 333 00152 11034
AAXX 07181 53487 32970 03403 11144 21199 40446 52001 333 11031
AAXX 07181 53502 32980 00000 11136 21186 40480 57011 333 00355 11018
AAXX 07181 53923 32980 03402 11056 21102 40429 57003 333 11006
AAXX 07181 54049 32970 03602 11194 21240 40384 52009 333 11085
AAXX 07181 54115 32680 62502 11152 21228 40425 52003 82502 333 11084
AAXX 07181 54157 32962 03402 11151 21207 40371 52010 333 11052
AAXX 07181 54186 32970 02903 11179 21222 40321 52006 333 11063
AAXX 07181 54311 32980 03405 11179 21265 40424 52006 333 11066
AAXX 07181 54346 32965 03403 11120 21176 40352 52007 333 11017
AAXX 07181 54377 32965 00203 11097 21133 40303 52006 333 10015
AAXX 07181 54386 11565 52202 11104 21155 40266 54000 69911 70070 85500 333 11018
AAXX 07181 54493 32962 03405 11080 21129 40303 54000 333 10007
AAXX 07181 54587 NIL
AAXX 07181 54715 32970 00402 11013 21087 40370 52007 333 10043
AAXX 07181 54929 32980 03601 10041 21005 40325 52015 333 10072
AAXX 07181 54945 11565 73602 10033 21005 40314 52011 69901 70060 87500 333 10095
AAXX 07181 56065 32975 70000 11115 21132 36654 54000 80008 333 00154 11021
AAXX 07181 57193 31958 83604 10039 20008 40359 52012 71000 8807/ 333 10080
AAXX 07181 57290 32962 80202 10041 20011 40357 52011 8807/ 333 10075
BBXX 46208 07181 99525 71327 46/// /1704 10051 40351 57001 22200 00078 11003 70017 333 91205
BBXX 46208 07181 99525 71327 46/// /1704 10051 40351 57001 22200 00078 11003 70017 333 91205
AAXX 07184 62357 32960 03602 10160 20118 40216 52003 333 10220
AAXX 07184 62423 32960 03504 10140 20079 40239 52012 333 10214
AAXX 07184 62403 32960 02707 10164 20062 40193 52016 333 10220
AAXX 07184 62309 32960 02504 10138 20058 40210 52001 333 10213
AAXX 07184 62325 32960 00000 10164 20141 40215 54000 333 10212
AAXX 07184 62332 32960 03002 10174 20116 40215 52004 333 10205
AAXX 07184 62387 32960 43303 10133 20064 40215 52005 84040 333 10204
AAXX 07184 62459 32960 00308 10160 20079 40191 52012 333 10218
AAXX 07184 62452 32960 00305 10098 20032 40229 52013 333 10176
AAXX 07184 62458 32960 03306 10184 20060 40178 52010 333 10222
AAXX 07184 62420 32960 00000 10152 20075 40229 52008 333 10217
AAXX 07184 62432 32960 03501 10180 20085 40214 52008 333 10258
AAXX 07184 62435 32960 03604 10168 20048 40198 52008 333 10226
AAXX 07184 62455 32960 03406 10162 20042 40200 52012 333 10217
AAXX 07184 62476 32960 03610 10218 20172 40151 51008 333 10260
AAXX 07184 62357 32960 03602 10160 20118 40216 52003 333 10220
AAXX 07184 62423 32960 03504 10140 20079 40239 52012 333 10214
AAXX 07184 62403 32960 02707 10164 20062 40193 52016 333 10220
AAXX 07184 62458 32960 03306 10184 20060 40178 52010 333 10222
AAXX 07184 62420 32960 00000 10152 20075 40229 52008 333 10217
AAXX 07184 62432 32960 03501 10180 20085 40214 52008 333 10258
AAXX 07184 62435 32960 03604 10168 20048 40198 52008 333 10226
AAXX 07184 62455 32960 03406 10162 20042 40200 52012 333 10217
AAXX 07184 62476 32960 03610 10218 20172 40151 51008 333 10260
AAXX 07184 62309 32960 02504 10138 20058 40210 52001 333 10213
AAXX 07184 62325 32960 00000 10164 20141 40215 54000 333 10212
AAXX 07184 62332 32960 03002 10174 20116 40215 52004 333 10205
AAXX 07184 62387 32960 43303 10133 20064 40215 52005 84040 333 10204
AAXX 07184 62459 32960 00308 10160 20079 40191 52012 333 10218
AAXX 07184 62452 32960 00305 10098 20032 40229 52013 333 10176
AAXX 07184 42559 32996 00000 10204 20138 40133 333 58011
AAXX 07184 42571 32996 00000 10156 20111 40155 333 58011
AAXX 07184 42667 32996 01803 10190 20140 39551 40147 333 58010
AAXX 07184 42675 31996 00902 10190 20101 40152 70500 333 58003
AAXX 07184 42754 31996 01406 10216 20121 39497 40134 70500 333 58015
AAXX 07184 42779 32996 00000 10156 20081 39451 40165 333 58009
AAXX 07184 42867 31995 00000 10184 20142 40142 70500 333 58011
AAXX 07184 42874 32996 00902 10184 20102 40146 333 58013
AAXX 07184 42933 32996 00000 10210 20141 40137 333 58012
AAXX 07184 43041 32996 00000 10148 20107 39521 40156 333 58010
AAXX 07183 64800 NIL
AAXX 07183 64820 NIL
AAXX 07183 64860 32960 50802 10295 20056 39819 40089 80002 333 10365 58010 85080
AAXX 07183 64861 NIL
AAXX 07183 64870 32960 70402 10210 20055 38905 48497 80002 333 10310 58002 87080
AAXX 07183 64871 NIL
AAXX 07183 64892 NIL
AAXX 07183 64893 NIL
AAXX 07183 64894 NIL
AAXX 07184 64910 32460 52204 10278 20247 30086 40095 85300 333 10333 58004 85616 81920 94945 95835
AAXX 07184 64911 NIL
AAXX 07184 64950 NIL
BBXX 46206 07181 99488 71260 46/// /0602 10072 40319 52007 22200 00093 11103 70017 333 91203
AAXX 07184 68174 31665 50610 10245 20155 38758 48487 53011 70522 81170 333 10333 20243 91014 555 91014
AAXX 07184 68191 36/// /1103 10270 20155 39596 48516 53008 333 10329 20270 91004 555 91010
AAXX 07184 68242 31660 73507 10209 20144 38711 48492 53023 75022 8397/ 333 10330 20203 91012 555 91016
AAXX 07184 68262 36/// /2502 10283 20120 38668 48481 53008 333 10331 20283 91004 555 91014
AAXX 07184 68263 32880 22705 10246 20120 38457 48481 53008 82070 333 10311 20244 91006 555 91016
AAXX 07184 68267 NIL
AAXX 07184 68289 36/// /3502 10233 20157 39127 48506 53010 333 10273 20233 91017 555 91014
AAXX 07184 68350 36/// /3204 10266 20125 38638 48492 53006 333 10356 20265 91008 555 91016
AAXX 07184 68368 43980 52306 10235 20074 38302 48493 53011 84072 333 10294 555 91019
AAXX 07184 68403 NIL
AAXX 07184 68424 12882 40000 10212 20076 39184 48509 56001 69942 84070 333 10303 20197 91002 555 20004 91014
AAXX 07184 68438 32782 71907 10205 20161 38802 48497 53013 81973 333 10318 20204 91008 555 91016
AAXX 07184 68442 32882 72416 10227 20136 38635 48489 53012 85073 333 10323 20227 91024 555 91016
AAXX 07184 68461 31780 30903 10215 20075 38303 48485 53008 71322 81963 333 10287 20213 91005 555 91017
AAXX 07184 68512 32982 02013 10133 20069 39028 48515 53010 333 10225 20133 91020 555 91018
AAXX 07184 68538 31764 73115 10223 20058 38711 48498 53013 70522 8117/ 333 10320 20223 91021 555 91016
AAXX 07184 68587 36/// /2209 10209 20188 30075 40087 53022 333 10239 20209 91015 555 91008
AAXX 07184 68588 36/// /0210 10238 20204 30062 40078 53008 333 10296 20238 91017 555 91007
AAXX 07184 68591 36/// /2112 10239 20208 39918 40095 53021 333 10272 20239 91021 555 91010
AAXX 07184 68592 NIL
AAXX 07184 68618 32980 02313 10158 20060 39061 48522 53008 333 10239 20158 91017 555 91018
AAXX 07184 68633 36/// /2808 10236 21004 38485 48479 52007 333 10310 20236 91013 555 91016
AAXX 07184 68668 32570 81810 10199 20162 39275 48504 53018 885// 333 10364 20199 91015 555 91014
AAXX 07184 68714 36/// /2112 10168 20102 30142 40179 52014 333 10216 20163 91019 555 91017
AAXX 07184 68727 NIL
AAXX 07184 68752 36/// /1909 10188 20149 39463 48520 53025 333 10280 20188 91011 555 91015
AAXX 07184 68816 12670 72308 10159 20118 30125 40180 53022 69982 875// 333 10217 91013 555 91018
AAXX 07184 68828 32470 72313 10174 20137 39917 40149 53029 875// 333 10217 555 91015
AAXX 07184 68842 32670 72511 10187 20133 30068 40138 52030 87500 333 10233 555 91013
AAXX 07184 68858 11320 82411 10190 20180 39976 40131 53031 69962 76266 885// 333 10244 555 91013
AAXX 07184 68906 32698 50203 10126 20030 30242 40308 58002 84570 222// 00122 318// 40701 333 10134 20106 91009 555 91030
AAXX 07184 68994 11394 83023 10099 20097 39969 49997 57010 60182 74755 886// 333 10115 20095 91031 555 20180 69925 90999
AAXX 07184 89004 31000 80827 11137 21143 38746 49771 57010 77377 886// 333 11136 21151 91032 555
BBXX 46206 07181 99488 71260 46/// /0602 10072 40319 52007 22200 00093 11103 70017 333 91203
AAXX 07181 50658 32962 03403 11209 21248 40386 52003 333 11141
AAXX 07181 50888 32980 00000 11195 21225 40316 57001 333 11105
AAXX 07181 50983 32970 03404 11193 21228 40311 52001 333 11117
AAXX 07181 51053 32980 00903 11135 21187 40464 57006 333 05302 11090
AAXX 07181 51542 32980 01101 11209 21236 37627 52002 333 05100 11070
AAXX 07181 52436 32980 00701 11146 21157 38590 40448 57013 333 05153 11045
AAXX 07181 52908 32980 12702 11175 21299 35769 57009 80002 333 00157 11018
AAXX 07181 52996 31958 73601 11109 21115 37650 57006 71000 8703/ 333 00251 11079
AAXX 07181 53083 32980 70201 11202 21229 40491 52002 80002 333 00452 11167
AAXX 07181 53764 32970 02902 11057 21135 40425 52003 333 10017
AAXX 07181 53787 32970 00403 11082 21131 40388 57005 333 10016
AAXX 07181 54096 32670 42705 11196 21237 40316 52006 84500 333 11094
AAXX 07181 54226 32680 63403 11129 21201 40398 52006 86500 333 11068
AAXX 07181 54259 32965 03402 11131 21176 40349 52008 333 11022
AAXX 07181 54527 32965 03609 11029 21169 40375 52009 333 10035
AAXX 07181 54534 32962 03603 11048 21102 40365 52010 333 10019
AAXX 07184 68267 NIL
AAXX 07184 68403 NIL
AAXX 07184 68592 NIL
AAXX 07184 68727 NIL
BBXX 46205 07181 99542 71343 46/// /1507 10057 40340 57001 22200 00079 10903 70015 333 91208
BBXX 46205 07181 99542 71343 46/// /1507 10057 40340 57001 22200 00079 10903 70015 333 91208
AAXX 07181 40656 12960 00000 10082 21020 40208 52006 60002
AAXX 07181 40664 12960 03303 10092 20014 40203 52006 60002
AAXX 07181 40665 12960 03202 10118 20031 40228 50014 60002
AAXX 07181 40666 12960 00000 10085 21023 40217 52011 60002
AAXX 07181 40670 12960 00000 10086 21023 40222 51006 60002
AAXX 07181 40672 12960 00000 10070 20017 40235 52008 60002
AAXX 07181 40674 12960 00000 10072 21043 40227 52007 60002
AAXX 07181 40676 12960 02903 10122 21047 40224 51010 60002
AAXX 07181 40680 12960 03002 10112 20026 40212 53009 60002
AAXX 07181 40689 12960 02702 10106 21009 40222 52009 60002
AAXX 07181 40690 12960 02702 10090 21020 40215 52009 60002
AAXX 07181 40691 12960 00000 10102 21001 40236 52012 60002
AAXX 07181 40608 12960 00000 10034 21024 40229 52005 60002
AAXX 07181 40621 12960 10000 10085 20020 40257 52004 60002 80001
AAXX 07181 40629 12960 00000 10048 21013 40247 53008 60002
AAXX 07181 40634 12960 00000 10079 20038 40233 53004 60002
AAXX 07181 40637 12960 00000 10077 20022 40228 52009 60002
AAXX 07181 40642 12960 00000 10055 21058 40267 52002 60002
AAXX 07181 40650 12960 03103 10050 21013 40226 51006 60002
AAXX 07184 89020 46/// /2305 11081 21157 39750 49785 57013 91750
BBXX ZDLS1 07183 99283 30130 41297 81425 10171 20152 40176 52010 72552 8/7// 22232 04178 20702 317// 41004 80160
BBXX A8QL5 07181 99265 70171 41697 41111 10220 20151 40213 57/// 70511 815/8 22254 04230 20302 307// 40503 80176
BBXX AMOUK15 07184 99263 30077 46/// ///// 10175 20157 30176 40200 54002 91750
BBXX TBWUK30 07183 99064 70134 41298 21909 10286 20278 40073 54000 70200 8/141 22274 06281 20202 320// 40302 5//// 80280
BBXX ZCBU2 07183 99201 31741 41298 70109 10260 20246 40073 56010 72522 877// 22264 00280 20101 316// 40403 5//// 80250
AAXX 07184 41084 42960 03302 10170 21030 38887 48538 333 10266 58010 55096 555 04410 50160
BBXX VQOG5 07184 99059 10869 41497 20417 10280 20244 40088 54000 70181 82200 22223 00280 2//03 3//// 4//// 5//// 80255
BBXX A8MV6 07183 99177 11192 41998 10425 10270 20241 40100 56010 70000 80008 22253 04290 20705 33699 41005 5//// 80250
BBXX 62141 07184 99493 50590 41697 22325 10110 40159 52030 72100 82147 22200 20608 32323 40505 50608
BBXX VQHO7 07184 99365 50503 41498 41309 10210 20169 40093 56005 70155 84100 22214 00191 20302 335// 40404 5//// 80185
BBXX ZCDM6 07183 99125 70700 41698 50709 10285 20250 40131 53/// 70211 82460 22200 00285 2//// 30000 4//// 5//// 80260
BBXX A8SI9 07183 99547 71613 43497 82420 10060 2006/ 40050 56020 887// 22264 00077 20404 323// 41207 80060
BBXX PJKV 07183 99400 70413 41598 71621 10185 20163 40191 50003 70222 81568 22214 20502 314// 40804 5//// 80172
BBXX ZCDF4 07183 99217 70767 41598 40619 10260 20232 40151 57011 72511 83470 22234 00260 20301 309// 40502 5//// 80241
BBXX MYSU5 07184 99465 70440 41297 83315 10065 20051 40187 53013 70222 887// 22263 00070 20602 312// 40804 5//// 80059
BBXX GDTT 07184 99154 70663 41498 30708 10300 20273 40109 58/// 7//11 83145 22213 00300 20202 305// 40202 80280
AAXX 07181 30499 NIL
AAXX 07181 30683 429// 00000 11281 21298 39714 40441 57001
AAXX 07181 30695 42999 02701 11306 21329 30044 40426 53002
AAXX 07181 31253 42999 03202 11310 21341 39880 40399 57003
AAXX 07181 31295 42999 00000 11247 21265 39895 40400 57005
AAXX 07181 31348 42999 00000 11300 21305 30084 40303 57004
AAXX 07181 31418 42984 00000 11207 21247 30009 40284 57012
AAXX 07181 31439 41998 60504 11151 21185 30181 40228 58009 73632 84011
AAXX 07181 31442 42997 00000 11227 21252 39983 40372 57005
AAXX 07181 31445 42984 03002 11221 21247 30079 40357 57007
AAXX 07181 31474 42999 00000 11339 21368 39813 40365 57005
AAXX 07181 31521 32984 02901 11257 21275 30031 40355 57007
AAXX 07181 31527 42998 03202 11236 21276 30020 40354 56002
AAXX 07181 31534 41998 82702 11230 21243 39959 40334 57004 77171 80007
AAXX 07181 31587 42999 02901 11242 21260 30205 40366 54000
AAXX 07181 31632 NIL
AAXX 07181 31702 42998 00302 11299 21330 39987 40368 57003
AAXX 07181 31713 42999 00000 11267 21279 30188 40297 58003
AAXX 07181 31725 42998 03202 11200 21219 30211 40283 58006
AAXX 07181 31801 41999 20000 11252 21271 30044 40296 52004 70272 81041
AAXX 07181 31825 42984 60000 11224 21242 30021 40247 51004 80009
AAXX 07181 31845 42998 50000 11269 21307 30129 40312 52006 85030
AAXX 07181 31878 42984 02501 11249 21272 30178 40316 53006
AAXX 07181 31915 42998 02802 11205 21254 30033 40323 52006
AAXX 07181 31921 42997 82903 11177 21227 30210 40317 53004 80005
AAXX 07181 31969 42997 20404 11106 21179 30238 40290 52015 80002
AAXX 07181 31981 42999 60000 11256 21281 30056 40319 53012 80001
AAXX 07181 31987 42999 03605 11158 21228 39999 40278 53002
AAXX 07181 32069 42598 10202 11098 21129 30174 40179 53002 81900 333 91003 91108
AAXX 07184 83064 32698 30000 10339 20196 39783 40047 82202 333 58001
AAXX 07184 83235 32698 20000 10334 20158 39394 40051 82200 333 58005
AAXX 07184 83332 32698 63602 10312 20144 39170 40053 85210 333 59002
AAXX 07184 83423 32698 83603 10293 20181 39263 40060 8591/ 333 59007
AAXX 07184 83470 32698 60904 10284 20212 39221 40063 86200 333 59001
AAXX 07184 82098 32597 20707 10330 20233 30048 40065 82200 333 58004
AAXX 07184 82445 31495 81801 10328 20253 30039 40091 71794 8499/ 333 58007
AAXX 07184 82460 32597 61402 10371 20229 30041 40070 86200 333 59017
AAXX 07184 82562 32598 63605 10326 20244 39921 40027 86200 333 58007
AAXX 07184 82571 32497 40504 10316 20237 39890 40062 82230 333 58011
AAXX 07184 82765 32598 61103 10336 20233 39844 40080 83218 333 58001
AAXX 07184 83695 21695 80000 10246 20232 39996 40133 54000 75165 887// 333 60021
AAXX 07184 82594 32697 40510 10314 20200 30059 40067 82101 333 59001
AAXX 07184 82780 32598 31403 10361 20146 39825 40071 83100 333 58009
AAXX 07184 82795 32597 10508 10284 20170 39486 40094 81100 333 59001
AAXX 07184 82879 32598 40506 10360 20152 39793 40053 84100 333 58004
AAXX 07184 82893 32798 60903 10274 20192 39193 40085 86200 333 59006
AAXX 07184 82863 32598 30904 10346 20182 39843 40050 82240 333 58001
AAXX 07184 83228 32799 20903 10349 20171 39798 40045 81202 333 59001
AAXX 07184 83368 32798 60000 10310 20236 39693 40052 84201 333 59001
AAXX 07184 83374 21598 82306 10271 20227 39508 40072 70252 885// 333 59002 69961
AAXX 07184 83526 21498 80000 10249 20220 39153 40082 70362 885// 333 58001 60071
AAXX 07184 82141 32598 23607 10304 20257 30058 40070 82100 333 58003
AAXX 07184 82145 32598 40503 10330 20233 30022 40063 84200 333 59004
AAXX 07184 82181 32497 60706 10334 20222 39948 40086 82260 333 59015
AAXX 07184 82198 32495 50907 10322 20205 30023 40074 84260 333 58009
AAXX 07184 82353 32598 61802 10333 20238 39947 40030 84230 333 58002
AAXX 07184 82361 32497 30503 10318 20252 30040 40077 83200 333 58017
AAXX 07184 82476 32595 51605 10376 20190 39946 40063 85200 333 58009
AAXX 07184 82861 32597 40906 10345 20231 39864 40030 84100 333 59004
AAXX 07181 23074 41497 81509 11106 21126 30001 40026 57019 78583 889// 333 88917 91113
AAXX 07181 23274 41296 81806 11080 21086 30041 40077 57008 78583 889// 333 86706
AAXX 07181 23383 41896 81701 11155 21189 39821 40189 57024 77173 8802/ 333 91112
AAXX 07181 23472 41497 81904 11052 21069 30089 40138 53001 78583 889//
AAXX 07181 23678 414// 82001 11018 21023 30158 40216 53006 70273 889//
AAXX 07181 23884 419// 82101 11049 21059 30191 40266 53009 77172 8802/
AAXX 07181 23891 41996 83501 11176 21210 39973 57017 77177 8807/
AAXX 07181 24507 419// 81302 11225 21243 30021 40284 57035 77172 8802/
AAXX 07181 24817 415// 81702 11238 21256 39997 40402 57021 77172 8652/
AAXX 07181 24908 41497 81902 11147 21167 30024 40374 57017 77177 8472/ 333 84710
AAXX 07181 29263 41476 82103 11040 21045 30230 40332 54000 72687 8595/ 333 85915
AAXX 07181 29282 41967 80802 11113 21126 30188 40368 57019 77177 8807/
AAXX 07181 29379 41497 81903 11060 21071 30049 40364 57017 78588 889//
AAXX 07181 29570 41596 82307 11029 21060 30011 40366 57009 78583 889// 333 91114
AAXX 07181 29698 429// 81301 11166 21181 39900 40455 58003 86072
AAXX 07181 30230 42998 30000 11343 21365 30127 40507 57010 80001
AAXX 07181 30252 419// 70901 11186 21205 30144 40488 57004 77172 86031
AAXX 07181 30309 41999 81503 11155 21168 39886 40443 57009 70272 82035
AAXX 07181 30328 429// 00000 11308 21332 30045 40534 58005
AAXX 07181 30521 429// 00000 11313 21330 39937 40539 56005
AAXX 07181 30710 41493 60501 11207 21221 39861 40503 52005 74441 86600
AAXX 07184 68155 36/// /1604 10315 20106 39142 48495 53012 333 10373 20315 91008 555 91010
AAXX 07184 68171 NIL
AAXX 07184 68176 36/// /0905 10262 20157 39097 48494 53016 333 10363 20262 91012 555 91012
AAXX 07184 68181 NIL
AAXX 07184 68182 NIL
AAXX 07184 68185 36/// /1303 10202 20130 38481 48413 58002 333 10307 20202 91005 555 91008
AAXX 07184 68253 NIL
AAXX 07184 68255 36/// /2203 10268 20107 38818 48474 53006 333 10329 20264 91006 555 91012
AAXX 07184 68271 36/// /0305 10272 20148 38871 48484 53013 333 10371 20272 91012 555 91013
AAXX 07184 68273 36/// /0809 10240 20145 38434 48487 52016 333 10338 20240 91012 555 91017
AAXX 07184 68287 36/// /3302 10163 20156 38564 48499 52011 333 10227 20163 91003 555 91018
AAXX 07184 68291 36/// /1702 10242 20180 39496 48503 53008 333 10316 20237 91005 555 91010
AAXX 07184 68297 NIL
AAXX 07184 68329 36/// /1704 10219 20055 39081 48514 52003 333 10317 20219 91007 555 91016
AAXX 07184 68331 36/// /2009 10223 20031 38831 48518 53005 333 10303 20223 91014 555 91018
AAXX 07184 68335 36/// /1703 10229 20146 38907 48518 53018 333 10326 20229 91007 555 91017
AAXX 07184 68341 16/// /2608 10211 20141 38523 48508 53007 60032 333 10321 20208 91013 555 20036 91019
AAXX 07184 68342 NIL
AAXX 07184 68343 36/// /2507 10253 20127 38761 48490 53013 333 10328 20253 91014 555 91015
AAXX 07184 68349 NIL
AAXX 07184 68353 36/// /2502 10250 20110 38488 48466 53008 333 10320 20250 91003 555 91014
AAXX 07184 68355 36/// /1707 10252 20071 38545 48480 53008 333 10333 20252 91009 555 91015
AAXX 07184 68370 NIL
AAXX 07184 68377 36/// /2809 10261 20178 38721 48466 53013 333 10358 20261 91015 555 91012
AAXX 07184 68380 36/// /2602 10189 20142 3//// 4//// 5//// 333 10315 20189 91005 555
AAXX 07184 68387 NIL
AAXX 07184 68411 36/// /1612 10233 20083 39945 40150 53016 333 10315 20233 91017 555 91015
AAXX 07184 68429 NIL
AAXX 07184 68449 36/// /3402 10227 20093 38363 48473 53003 333 10301 20227 91003 555 91016
AAXX 07184 68471 36/// /1607 10214 20109 38304 48479 52010 333 10293 20208 91013 555 91017
AAXX 07184 68474 16/// /0000 10163 20134 38598 48489 56004 60022 333 10319 20163 91002 555 20024 91016
AAXX 07184 68479 36/// /1005 10257 20152 38912 48485 53020 333 10350 20257 91008 555 91013
AAXX 07184 68481 36/// /0000 10244 20191 39725 40086 52012 333 10313 20244 91002 555 91010
AAXX 07184 68487 16/// /2004 10245 20196 38953 48484 52008 69962 333 10333 20245 91004 555 20006 91012
AAXX 07184 68491 36/// /0207 10240 20198 30075 40084 52007 333 10300 20240 91013 555 91008
AAXX 07184 68497 36/// /0510 10250 20199 30031 40074 52013 333 10330 20250 91017 555 91007
AAXX 07181 23973 41995 81805 11060 21068 30215 40278 53003 77373 8801/
AAXX 07181 23975 415// 82604 11027 21034 30177 40287 52013 77087 8597/
AAXX 07181 23986 41596 82003 11092 21103 39646 40302 53002 78587 8532/
AAXX 07181 23987 41495 81303 11074 21087 30225 40300 53002 78583 889// 333 92980
AAXX 07181 24606 418// 80000 11266 21290 30034 40332 57028 70272 8805/
AAXX 07181 29253 415// 82304 11035 21043 30154 40327 53006 78582 889//
AAXX 07181 29471 41498 81902 11038 21046 30130 40364 57004 70283 889// 333 88917
AAXX 07181 29481 41997 81902 11062 21066 30125 40372 57014 77177 8802/
AAXX 07181 29553 42972 82703 11033 21057 30008 40382 53009 8802/
AAXX 07181 29562 41584 82104 11030 21050 39953 40379 57003 70282 889//
AAXX 07181 29581 415// 72004 11054 21068 30124 40389 57014 78582 8397/
AAXX 07181 29594 42599 83301 11108 21128 30009 40416 58011 889//
AAXX 07181 29653 42597 71502 11032 21060 39899 40394 53003 87200
AAXX 07181 29675 41998 80000 11060 21083 39807 40419 58005 70272 8802/
AAXX 07181 29676 41596 80000 11118 21131 39953 40400 58015 78582 889//
AAXX 07181 29752 414// 82506 11067 21083 38955 48589 52007 78583 8797/ 333 91117
AAXX 07181 29759 415// 40702 11058 21080 39363 40421 58001 78581 84900 333 91112
AAXX 07181 29766 41896 80902 11049 21059 30071 40438 54000 77172 8802/
AAXX 07181 29789 42999 80000 11185 21191 39205 40487 58002 80007
AAXX 07181 29864 419// 80000 11055 21073 39754 40425 54000 70272 8807/
AAXX 07181 29866 419// 81702 11037 21042 30105 40434 52002 77172 8802/
AAXX 07181 29869 429// 80601 11058 21062 30075 40464 52008 8802/ 333 95090
AAXX 07181 29956 41636 82504 11041 21056 39883 40461 52003 78582 889//
AAXX 07181 30337 42998 22401 11316 21339 30010 40526 58005 80001
AAXX 07181 30405 419// 80000 11252 21271 39892 40483 57003 77172 84035
AAXX 07181 30504 42997 71701 11189 21201 39767 40474 58003 86032
AAXX 07181 30603 41997 80000 11199 21205 39851 40476 57001 70272 80007
AAXX 07181 30612 429// 51401 11257 21268 39906 40503 54000 80001
AAXX 07181 30622 429// 00000 11303 21321 39808 40547 52010
AAXX 07181 30627 42999 00401 11232 21250 39484 40513 52004
AAXX 07181 30703 416// 70000 11186 21192 39746 40478 57003 70372 82550
AAXX 07181 36307 41897 61102 11245 21262 39151 48647 51008 70272 80002
AAXX 07181 30455 429// 00000 11318 21335 39069 48554 52004
AAXX 07181 30731 429// 80201 11102 21130 39798 40440 52004 8807/
AAXX 07181 30739 426// 80602 11212 21231 39593 40492 52006 889//
AAXX 07181 30741 429// 82501 11160 21166 38827 48612 52006 8807/
AAXX 07181 30745 419// 80000 11238 21256 39236 40506 52004 74442 80005
AAXX 07181 30764 42998 00000 11343 21371 39611 40534 52007
AAXX 07181 30829 42984 23002 11234 21253 39756 40523 52005 80001
AAXX 07181 30838 42998 60000 11275 21287 39440 40548 52007 82042
AAXX 07181 30846 42999 00000 11255 21287 39489 40503 51002
AAXX 07181 30859 42999 00000 11269 21287 39556 40495 52004
AAXX 07181 30862 42972 00000 11283 21307 39659 40493 52005
AAXX 07181 30957 429// 72102 11242 21254 39508 40503 52007 87030
AAXX 07181 30967 NIL
AAXX 07181 30975 42998 00000 11372 21415 39759 40518 52007
AAXX 07184 68183 NIL
AAXX 07184 68188 36/// /0902 10228 20188 39170 48504 53007 333 10299 20228 91004 555 91013
AAXX 07184 68268 36/// /2603 10275 20096 38843 48493 52012 333 10374 20275 91004 555 91014
AAXX 07184 68272 NIL
AAXX 07184 68296 32975 00000 10250 20168 39774 48506 52011 333 1//// 20250 91002 555 91008
AAXX 07184 68322 12582 41403 10228 20110 39135 48512 52017 69922 84100 333 10278 20225 91005 555 20002 91015
AAXX 07184 68338 36/// /1807 10232 20120 38748 48484 52015 333 10331 20232 91014 555 91014
AAXX 07184 68345 36/// /2313 10266 20101 38646 48492 53008 333 10338 20266 91021 555 91016
AAXX 07184 68362 32680 73502 10239 20100 38476 48478 52011 81153 333 10329 20239 91002 555 91015
AAXX 07184 68400 12970 00404 10240 20178 30016 40088 52018 69942 333 10328 20240 91008 555 20004 91009
AAXX 07184 68408 36/// /1507 10167 20136 30169 40177 52011 333 10222 20167 91012 555 91017
AAXX 07184 68416 36/// /1912 10236 20047 39027 48509 52014 333 10297 20236 91020 555 91015
AAXX 07184 68478 11589 43303 10224 20184 38836 48481 52010 69962 70199 84500 333 10335 20223 91006 555 20006 69945 91013
AAXX 07184 68488 32480 40102 10212 20174 39223 48481 52006 81402 333 10297 20212 91006 555 91011
AAXX 07184 68494 NIL
AAXX 07184 68524 11986 30503 10201 20103 39041 48496 53003 69922 70266 83070 333 10294 20199 91005 555 20002 91014
AAXX 07184 68546 36/// /3602 10240 20090 38617 48466 53007 333 10338 20238 91004 555 91013
AAXX 07184 68558 36/// /3105 10216 20079 38169 48477 52006 333 10295 20216 91006 555 91017
AAXX 07184 68570 31360 31505 10226 20105 38489 48481 52020 72911 83900 333 10320 20226 91011 555 91016
AAXX 07184 68580 36/// /2202 10211 20188 38912 48481 52007 333 10319 20211 91003 555 91013
AAXX 07184 68614 32560 72307 10182 20133 30130 40171 52013 875// 333 10251 20182 91014 555 91017
AAXX 07184 68624 32982 12510 10200 21021 38735 48509 52015 80006 333 10290 20200 91015 555 91018
AAXX 07184 68674 36/// /2413 10238 20215 30069 48533 52023 333 10312 20237 91020 555 91010
AAXX 07184 68712 12470 81809 10150 20114 30109 40175 52011 69962 885// 333 10193 20147 91012 555 20006 91017
AAXX 07184 68718 36/// /2707 10179 20110 39913 40159 52022 333 10259 20178 91013 555 91016
AAXX 07184 68722 36/// /2307 10137 20046 38547 48504 52008 333 10231 20137 91017 555 91018
AAXX 07184 68814 36/// /2309 10156 20114 30179 40187 53012 333 10216 20155 91013 555 91018
AAXX 07184 68832 36/// /1910 10160 20092 39175 48493 52030 333 10299 20160 91021 555 91014
AAXX 07184 68916 11266 82210 10146 20088 39909 40180 52018 69962 70254 885// 333 10184 20133 91022 555 20006 91018
AAXX 07184 68920 12470 72311 10162 20120 30149 40162 52017 60012 877// 333 10229 20154 91019 555 20012 69985 91016
AAXX 07184 68928 36/// /2312 10196 20138 39993 40152 52022 333 10244 20196 91024 555 91015
BBXX 44029 07181 99425 70706 46/30 /0208 10079 40075 58021 91804 22200 00097 10502 70008 333 91209 555 11095 22100
BBXX 44061 07181 99388 70770 46/// /0102 1//// 91820 333 91204
BBXX 44061 07181 99388 70770 46/// /0203 1//// 40041 91810 333 91204
BBXX 44061 07181 99388 70770 46/// /3602 10121 40044 56047 91800 22200 00087 333 91204
BBXX 44059 07181 99368 70763 46/// /2108 1//// 91820 333 91213
BBXX 44059 07181 99368 70763 46/// /2307 1//// 40047 91810 333 91210
BBXX 44059 07181 99368 70763 46/// /2308 10221 40051 58051 91800 22200 00140 333 91211
BBXX 44057 07181 99395 70761 46/// /3402 1//// 91820 333 91203
BBXX 44057 07181 99395 70761 46/// /3402 1//// 40043 91810 333 91202
BBXX 44057 07181 99395 70761 46/// /3602 10116 40044 58043 91800 22200 00084 333 91203
BBXX 44058 07181 99376 70763 46/// /1806 1//// 91820 333 91207
BBXX 44058 07181 99376 70763 46/// /1806 1//// 40047 91810 333 91209
BBXX 44058 07181 99376 70763 46/// /1907 10170 40050 57045 91800 22200 00120 10301 70006 333 91210
BBXX 46092 07181 99368 71220 46/// /1105 10079 40251 91757 22200 00115 555 11051 22057
BBXX 44062 07181 99386 70764 46/// /0103 1//// 91820 22200 00108 333 91204
BBXX 44062 07181 99386 70764 46/// /0204 1//// 40024 91810 22200 00108 333 91205
BBXX 44062 07181 99386 70764 46/// /0103 10112 40025 58044 91800 22200 00108 1//00 70002 333 91205
BBXX 44063 07181 99390 70764 46/// /0504 1//// 91820 333 91205
BBXX 44063 07181 99390 70764 46/// /0504 1//// 40063 91810 333 91205
BBXX 44063 07181 99390 70764 46/// /0604 10116 40065 56043 91800 22200 00105 1//00 70001 333 91204
BBXX 44041 07181 99372 70768 46/// /2206 1//// 91820 333 91208
BBXX 44041 07181 99372 70768 46/// /2206 1//// 40070 91810 333 91209
BBXX 44041 07181 99372 70768 46/// /2208 10202 40073 56041 91800 22200 00126 10301 70003 333 91211
BBXX 44042 07181 99380 70763 46/// /2208 1//// 91820 333 91212
BBXX 44042 07181 99380 70763 46/// /2207 1//// 40036 91810 333 91210
BBXX 44042 07181 99380 70763 46/// /2207 10184 40040 91800 22200 00119 10301 70006 333 91209
BBXX 44043 07181 99392 70764 46/// /0302 1//// 91820 333 91203
BBXX 44043 07181 99392 70764 46/// /0403 1//// 40038 91810 333 91203
BBXX 44043 07181 99392 70764 46/// /0503 10108 40038 58048 91800 22200 00099 1//00 70001 333 91203
BBXX 42363 07181 99282 70892 46/// /3311 10117 20006 40247 91830 333 91212
BBXX 42364 07181 99291 70881 46/// /3209 10106 20044 40231 91830
AAXX 07184 17098 12960 00000 11121 21145 38226 48545 58002 60002 333 11009
AAXX 07184 67002 NIL
AAXX 07184 67009 NIL
AAXX 07184 67025 NIL
AAXX 07184 67027 31580 73404 10275 20250 30079 40100 52027 71300 879// 333 10320 83820 85640 81920 94963 95813
AAXX 07184 67083 11460 71204 10175 20167 38741 48514 52026 60072 79599 8497/ 333 10259 81817 84917 84466 94979 95839=7.1 67095 32475 70000 10255 20236 30112 40119 51015 8683/ 333 10307 83817 85633 83360
AAXX 07184 67113 NIL
AAXX 07184 67117 NIL
AAXX 07184 67137 NIL
AAXX 07184 67157 NIL
AAXX 07184 67161 NIL
AAXX 07184 67197 32480 30814 10242 20223 30103 40113 52018 82202 333 10279 82817 555 82073
BBXX 46181 07181 99538 71288 46/// /0406 10001 40358 52004 22200 00041 10200 70001 333 91208
BBXX 46184 07181 99539 71389 46/// /2405 10071 40302 52009 22200 00068 10704 70020 333 91206
BBXX DDYL2 07183 99358 11209 41/98 /0232 10052 21023 40280 52010 72162 8//// 22200 00130 2//// 80022
BBXX JPBN 07184 99353 11490 41/98 20110 10142 20008 40132 58023 70211 82201 22241 00203 1//// 20301 399// 4//03
BBXX SHIP 07184 99315 11498 41598 63616 10180 20122 40140 56006 70222 85/// 91800 22264 00220 2//// 3//// 4//// 80145
BBXX UFLC 07180 99541 11441 41/98 93608 11055 40175 57004 70172 89/// 22253 06024 20503
BBXX 46181 07181 99538 71288 46/// /0406 10001 40358 52004 22200 00041 10200 70001 333 91208
BBXX 46184 07181 99539 71389 46/// /2405 10071 40302 52009 22200 00068 10704 70020 333 91206
AAXX 07184 68171 NIL
AAXX 07184 68181 NIL
AAXX 07184 68182 NIL
AAXX 07184 68253 NIL
AAXX 07184 68297 NIL
AAXX 07184 68342 NIL
AAXX 07184 68349 NIL
AAXX 07184 68370 NIL
AAXX 07184 68387 NIL
AAXX 07184 68429 NIL
BBXX YJUF7 07184 99452 70565 41/94 92032 10091 2009/ 40137 56007 75182 89/// 22261 00030 20503 315// 40802 80091
BBXX YJUF7 07184 99452 70565 41/94 92032 10091 2009/ 40137 56007 75182 89/// 22261 00030 20503 315// 40802 80091
AAXX 07184 42634 32996 00000 10200 20122 40127 333 58005
AAXX 07184 42647 31996 00000 10196 20145 40130 70500 333 58010
AAXX 07184 42737 32996 00502 10220 20171 40125 333 58001
AAXX 07184 42840 32996 03602 10238 20184 40120 333 58003
AAXX 07184 42909 31996 03604 10242 20192 40126 70500 333 58007
AAXX 07184 42921 32996 00000 10180 20143 40176 333 58009
AAXX 07184 43003 31995 00000 10236 20196 40117 70500 333 58010
AAXX 07184 43014 32996 00902 10198 20154 39480 40133 333 58010
AAXX 07184 43063 32996 00000 10176 20139 39495 40131 333 58004
AAXX 07184 43110 31995 00503 10240 20200 40113 70544 333 58005
AAXX 07184 43117 32996 00902 10204 20114 40127 333 58008
AAXX 07184 43192 NIL
AAXX 07181 24856 41997 82402 11248 21273 30221 40391 57008 77172 8802/
AAXX 07181 30679 NIL
AAXX 07181 30686 41999 00000 11316 21345 30021 40447 54000 74000
AAXX 07181 30961 42899 30000 11282 21300 39609 40497 52005 83040
AAXX 07181 30971 42999 02101 11322 21359 39387 40513 52004
AAXX 07181 30978 42999 00000 11325 21348 39713 40496 51001
AAXX 07181 31513 42999 03401 11240 21258 30108 40357 57008
AAXX 07181 31624 NIL
AAXX 07181 31832 42964 80000 11259 21277 30208 40304 54000 80001
AAXX 07181 31913 NIL
AAXX 07181 32128 42599 10000 11096 21148 30104 40158 56003 81500 333 91002 91105
AAXX 07184 91723 NIL
AAXX 07184 91759 11598 41104 10252 20246 40108 53019 60021 70500 82202 333 82820 84079
AAXX 07184 91762 11598 31404 10258 20232 40106 53019 60001 71500 82901 333 82822 83078 81920
AAXX 07181 45032 36/// /3303 10207 20152 30149 40166 57001
AAXX 07181 45035 36/// /3305 10202 20165 30126 40168 57002
AAXX 07181 45039 36/// /3502 10211 20158 30149 40163 54000
AAXX 07181 45044 36/// /0010 10201 20170 30060 40152 54000
AAXX 07181 45032 36/// /3303 10207 20152 30149 40166 57001
AAXX 07181 45035 36/// /3305 10202 20165 30126 40168 57002
AAXX 07181 45039 36/// /3502 10211 20158 30149 40163 54000
AAXX 07181 45044 36/// /0010 10201 20170 30060 40152 54000
AAXX 07181 14443 32698 323// 10132 20090 30082 40173 57001 83420 333 10154 92301
AAXX 07184 60670 12970 00113 10176 21063 39136 48578 53015 60002 333 10250 95990
BBXX 46004 07181 99509 71361 46/// /2508 10075 40353 52009 22200 00080 11204 70021 333 91211
AAXX 07181 21432 42998 02403 11223 21255 30133 40154 52006
BBXX 46145 07181 99544 71324 46/// /0904 10038 40350 57003 22200 00072 11002 70009 333 91205
BBXX 46181 07181 99538 71288 46/// /0406 10001 40358 52004 22200 00041 10200 70001 333 91208
BBXX 46183 07181 99536 71311 46/// /0402 10044 40349 52002 22200 00082 11001 70003 333 91204
BBXX 46185 07181 99524 71298 46/// /0005 10048 40349 52005 22200 00074 11502 70008 333 91206
BBXX 46204 07181 99514 71288 46/// /3107 10057 40343 52004 22200 00084 11003 70015 333 91209
BBXX 46205 07181 99542 71343 46/// /1507 10057 40340 57001 22200 00079 10903 70015 333 91208
BBXX 46206 07181 99488 71260 46/// /0602 10072 40319 52007 22200 00093 11103 70017 333 91203
BBXX 46207 07181 99509 71299 46/// /3204 10070 40349 52005 22200 00085 11004 70018 333 91205
BBXX 46208 07181 99525 71327 46/// /1704 10051 40351 57001 22200 00078 11003 70017 333 91205
BBXX 4XFV 07183 99494 71443 43/98 91920 10080 00/// 20070 40330 56010 7022/ 89/// 22274 0//// 20704 432// 40806 5//// 6//// 8////
BBXX A8CN8 07180 99408 71333 41/98 80515 10105 20086 40335 54000 70222 84723 22235 06125 20201 327// 40404 5//// 80095
BBXX SHIP 07184 99375 71447 41498 70812 10165 20123 40281 52010 70222 86550 91755 22223 00185 20402 309// 40804 80140
BBXX WDB9918 07184 99386 71250 41898 63205 10122 20090 40275 54000 70222 862// 22273 00122 2//// 332// 40601 5//// 6//// 80106 ICE /////
BBXX WFLH 07183 99324 71234 43598 23313 10150 20090 40268 54/// 7//// 82/4/ 22223 00139 20501 303// 41004 5//// 6//// 80117 ICE /////
AAXX 07181 56671 32780 72701 10121 20080 38229 52001 8113/ 333 00006 10199
AAXX 07181 57378 11962 73603 10072 20000 40339 52006 69901 70060 8703/ 333 10080
AAXX 07181 57426 11758 80401 10078 20067 40314 57003 69901 71060 885// 333 00551 10093
AAXX 07181 57476 11960 80000 10072 20060 40335 52009 69901 70060 8807/ 333 10077
AAXX 07181 57584 11956 80202 10069 20051 40330 52005 69901 71060 8807/ 333 10070
AAXX 07181 57598 11457 82201 10063 20057 40311 52004 60041 76166 8572/ 333 10101
AAXX 07181 57655 11960 80000 10068 20050 40338 52004 69911 76060 8802/ 333 10074
AAXX 07181 57713 NIL
AAXX 07181 57776 11/00 93406 11014 21017 40327 52006 60071 76664 333 10072 93456
AAXX 07181 58321 11440 83403 10064 20058 40317 52010 69961 76066 887// 333 10076
AAXX 07181 58437 11/00 93608 11020 21020 38190 52001 60051 74964 333 10078 93442
AAXX 07181 58445 NIL
AAXX 07181 58556 11470 83403 10093 20077 40253 52011 60041 76066 885// 333 10144
AAXX 07181 58569 11468 83205 10109 20100 40210 52006 60021 76060 887// 333 10158
AAXX 07181 58646 11650 81101 10129 20110 40232 52006 69941 76066 885// 333 10155
AAXX 07181 58653 NIL
AAXX 07181 58660 NIL
AAXX 07181 58715 11350 83203 10077 20062 40276 52004 60061 76066 885// 333 10122
AAXX 07181 58730 11262 82903 10115 20094 40234 52012 60021 76160 8272/ 333 10174
AAXX 07181 58731 11260 80202 10099 20087 40240 52010 60031 76060 885// 333 10162
AAXX 07181 58754 32662 80201 10166 20151 40192 52005 885// 333 10198
AAXX 07181 58911 11578 83202 10115 20074 40238 52004 69901 70060 885// 333 10200
AAXX 07181 58931 11/00 93607 10101 20101 38384 57003 69921 75454 333 10172
AAXX 07181 59254 32760 80701 10149 20113 40226 52004 885// 333 10189
AAXX 07181 59632 11561 83605 10148 20116 40209 52007 69901 70060 888// 333 10191
AAXX 07181 59855 32568 83402 10225 20197 40155 57009 888// 333 10269
BBXX 3FBC9 07184 99309 71793 41697 50624 10190 40170 54000 70222 85865 9//// 22223 00230 20302 333 // 41008 5//// 6//// 80170
BBXX A8IF4 07183 99377 71527 41498 53615 10170 20137 40220 52010 70211 81468 22263 06170 2//// 317// 41404 80150
BBXX A8PX5 07184 99544 71744 41/97 /1533 10050 20028 49810 54000 70211 8//5/ 22264 04040 20906 3//// 4//// 5//// 80040
BBXX A8SI9 07183 99547 71613 43497 82420 10060 20060 40050 56020 887// 22264 00077 20404 323// 41207 80060
BBXX OYCY2 07184 99413 71551 41594 22207 10110 20110 40250 52020 742// 82//9 22224 00150 20302 310// 40806 5//// 6//// 80110 ICE /////
BBXX SHIP 07184 99318 71586 41497 83606 10180 20148 40200 54000 7//22 8824/ 22223 00210 20804 307// 4//// 50401 6//// 80160 ICE /////
BBXX WGEB 07184 99308 71700 416// 22706 10211 20150 40215 52015 7//11 82800 22225 00222 20401 3//// 4//06 5//// 6//// 80172 ICE /////
BBXX VCXF 07184 99464 70484 41/90 91509 10050 2005/ 40184 57002 74744 89/// 22200 02036 20200 316// 40804 80050
BBXX 46004 07181 99509 71361 46/// /2508 10075 40353 52009 22200 00080 11204 70021 333 91211
AAXX 07183 67775 42/80 01405 10226 20121 38486 48490 333 10295
AAXX 07183 67867 42975 10000 10210 20125 38556 48484 80002 333 10293 81080
AAXX 07183 67965 41870 31302 10245 20100 38661 48489 70511 83500 333 10330 83657
AAXX 07183 67975 41965 11103 10242 20142 38858 48493 70511 80002 333 10311 81080
AAXX 07183 67983 41970 11802 10203 20151 38862 48488 70500 80001 333 10270 81080
AAXX 07183 67991 42/80 00000 10300 20165 39536 48462 333 10357
BBXX VCXF 07184 99464 70484 41/90 91509 10050 2005/ 40184 57002 74744 89/// 22200 02036 20200 316// 40804 80050
AAXX 07184 43086 32996 00000 10178 20151 39945 40128 333 58011
AAXX 07184 43128 31996 00903 10210 20162 39525 40138 70500 333 58010
AAXX 07184 43150 31596 20203 10254 20202 30055 40130 70500 82500 333 58007 82620
AAXX 07184 43185 31596 23602 10232 20185 30114 40118 70500 81530 333 58004 81620
AAXX 07184 43189 32596 20000 10258 20189 30117 40126 81501 333 58007
AAXX 07184 43198 32996 00902 10174 20137 39228 40124 333 58004
AAXX 07184 43201 32997 00903 10208 20131 39390 40114 333 58004
AAXX 07184 43213 32996 00000 10226 20164 39801 40121 333 58004
AAXX 07184 43226 32996 00901 10240 20176 30078 40108 333 58001
AAXX 07184 43233 32996 00705 10210 20137 39306 40119 333 58004
AAXX 07184 43237 32996 20903 10210 20178 39722 40120 80001 333 58003 82070
AAXX 07184 43245 22596 20702 10246 20216 30093 40120 81501 333 58002 6990/
AAXX 07184 43279 32596 53602 10256 20204 30102 40120 85400 333 58001 84620
AAXX 07184 43284 32996 03603 10246 20210 39974 40089 333 59005
AAXX 07184 43295 31996 00703 10190 20151 39101 48503 70500 333 58001
AAXX 07184 43311 32596 20902 10254 20224 40097 81501 333 58003 81625
AAXX 07184 43314 32996 00000 10250 20223 40093 333 59009
AAXX 07184 43321 31495 13605 10204 20164 39673 40126 70500 81500 333 58000
AAXX 07184 43329 32596 40000 10238 20191 30096 40109 83501 333 59003
AAXX 07184 43344 31995 20205 10232 20198 30020 40121 70500 80001 333 58002 82075
AAXX 07184 43346 32596 70512 10270 20210 30099 40106 84502 333 59004 84620 85075
AAXX 07184 43353 31496 20704 10268 20190 40106 70500 82801 333 56609 58004 82614
AAXX 07184 43369 32596 30906 10278 20231 40098 82430 333 58006 82620 83360
AAXX 07184 43371 32996 00000 10240 20203 30028 40101 333 59003
AAXX 07180 44203 329// 20000 11319 21343 38567 40685 52005 80001
AAXX 07180 44207 329// 10000 11268 21307 38440 40592 52003 80004
AAXX 07180 44212 415// 80000 11152 21172 39329 40554 52001 70272 8471/
AAXX 07180 44213 41999 50000 11245 21265 38978 40635 52006 70272 85070
AAXX 07180 44215 32698 72702 11185 21211 38571 40558 52019 87500
AAXX 07180 44218 329// 70000 11165 21191 38772 40542 52011 87070
AAXX 07180 44225 419// 00000 11300 21314 38418 40658 53002 70171
AAXX 07180 44230 329// 40103 11238 21269 38952 40605 52005 80008
AAXX 07180 44232 329// 60000 11284 21313 39293 40587 52008 86070 555 99601
AAXX 07180 44237 32999 12302 11245 21285 38518 40569 58004 81040
AAXX 07180 44239 329// 71701 11215 21263 38943 40517 51003 87010 555 99602 99905
AAXX 07180 44241 329// 40000 11278 21303 39446 40564 52005 84080
AAXX 07180 44256 32999 62703 11186 21205 39505 40432 50004 86010
AAXX 07180 44265 329// 20000 11243 21275 38995 40566 58001 80004
AAXX 07180 44272 419// 10000 11227 21259 38349 40561 52001 77672 80008
AAXX 07180 44275 329// 60000 11199 21225 37808 40510 57008 80008
AAXX 07180 44282 32999 32703 11146 21225 38413 40486 52004 80007
AAXX 07180 44284 328// 71801 11257 21283 37945 40649 57007 87010
AAXX 07180 44285 32899 21501 11281 21317 38441 40623 54000 82040
AAXX 07180 44287 328// 60103 11213 21261 38224 40581 57009 86050
AAXX 07180 44294 329// 00103 11268 21291 38629 40597 57004
AAXX 07180 44298 329// 03604 11254 21254 38850 40535 54000
AAXX 07180 44302 329// 62905 11254 21285 39279 4//// 51003 86050
AAXX 07180 44305 32999 82903 11245 21272 39199 40493 58002 8807/
AAXX 07180 44313 32999 30000 11271 21301 39521 40467 52008 83040
AAXX 07180 44314 41998 53202 11192 2//// 39284 40470 52007 70272 83077
AAXX 07180 44317 419// 83207 11196 21229 39062 40472 57002 70272 8801/
AAXX 07180 44336 329// 00000 11275 21299 38834 4//// 57009
AAXX 07180 44341 329// 00000 11223 21256 38738 40564 58004
AAXX 07180 44347 32999 00000 11222 21247 38852 40531 56014
AAXX 07180 44352 32999 00000 11251 21275 39058 40516 54000
AAXX 07180 44358 329// 00000 11244 21256 39249 40539 50002
AAXX 07184 60638 12960 0//// 10194 20034 40262 53007 60002 333 10236
AAXX 07184 71673 16/// ///// 11091 21155 60001 333 11039 21097 70009
AAXX 07184 71690 16/// ///// 11130 21168 60001 333 11048 21148 70004
AAXX 07184 71988 46/// /3508 10087 20087 30076 40095 58015 6///1 333 10093 20084 7////
AAXX 07184 71011 17/// ///// 11080 21140 69951 7//4/ 333 11031 21084 70016
AAXX 07184 71049 16/// /3014 11193 39656 49679 53003 60001 333 11191 21231 70003
AAXX 07184 71405 17/// ///// 11082 21169 69941 7//4/ 333 11036 21091 70004
AAXX 07184 71417 17/// /0908 11034 21042 30157 40192 56023 60021 7//4/ 333 11033 21059 70046
AAXX 07184 71426 46/// /0304 11006 6///1 333 11006 21042 7////
AAXX 07184 71500 16/// /3017 11091 21173 60001 333 11043 21099 70000
AAXX 07184 71504 16/// ///// 11087 21166 60001 333 11038 21098 70009
AAXX 07184 71541 16/// /3506 11118 21171 60001 333 11068 21131 70000
AAXX 07184 71543 16/// /0403 11171 21201 60001 333 11068 21221 70004
AAXX 07184 71546 16/// /2505 11114 21170 60001 333 11064 21144 70004
AAXX 07184 71547 16/// /2707 11142 21173 60001 333 11085 21148 70004
AAXX 07184 71067 16/// ///// 11091 21171 60001 333 11038 21094 70000
AAXX 07184 71359 16/// /3014 11094 21162 60001 333 11066 21132 70000
AAXX 07184 71558 46/// ///// 11054 21076 30157 40195 58020 6///1 333 11054 21094 7////
AAXX 07184 71461 16/// /2809 11103 21164 60001 333 11054 21124 70000
AAXX 07184 71468 17/// /2919 11022 21067 39757 40082 58003 69931 7//4/ 333 21093 70015
AAXX 07184 71483 16/// ///// 11088 21180 60001 333 11047 21096 70000
AAXX 07184 71788 17/// /0208 11041 21049 69941 7//4/ 333 11005 21042 70019
AAXX 07184 71792 17/// ///// 11087 21142 69941 7//4/ 333 11041 21094 70008
AAXX 07184 71221 17/// /3106 11120 21177 69991 7//4/ 333 11098 21197 70019
AAXX 07184 71226 16/// /3208 11098 21167 60001 333 11058 21106 70000
AAXX 07184 71229 46/// /3110 11119 21174 6///1 333 11093 21138 7////
AAXX 07184 71283 16/// /0105 11119 21177 60001 333 11070 21135 7////
AAXX 07184 71288 16/// /0234 11152 21165 39960 49985 53035 60001 333 11137 21185 70000
AAXX 07184 71924 12974 20626 11237 21288 30009 40101 53010 60001 82031 333 11185 21241 48037 70000
AAXX 07184 71153 16/// /0000 11047 21050 60001 333 11047 21091 70000
AAXX 07184 71888 16/// ///// 11089 21166 60001 333 11051 21111 70000
AAXX 07184 71895 16/// ///// 11088 21165 60001 333 11034 21097 70008
AAXX 07184 17195 12670 60000 10037 21074 38957 48476 57005 60002 82150 333 10138 82840 86362
AAXX 07184 17112 11558 70107 10094 20088 30139 40141 52022 60042 76022 84570 333 10129 84630 87359 92416
AAXX 07184 71924 12974 20626 11237 21288 30009 40101 53010 60001 82031 333 11185 21241 48037 70000
AAXX 07184 71067 16/// ///// 11091 21171 60001 333 11038 21094 70000
AAXX 07184 71153 16/// /0000 11047 21050 60001 333 11047 21091 70000
AAXX 07184 71283 16/// /0105 11119 21177 60001 333 11070 21135 7////
AAXX 07184 71288 16/// /0234 11152 21165 39960 49985 53035 60001 333 11137 21185 70000
AAXX 07184 71359 16/// /3014 11094 21162 60001 333 11066 21132 70000
AAXX 07184 71988 46/// /3508 10087 20087 30076 40095 58015 6///1 333 10093 20084 7////
AAXX 07184 71500 16/// /3017 11091 21173 60001 333 11043 21099 70000
AAXX 07184 71504 16/// ///// 11087 21166 60001 333 11038 21098 70009
AAXX 07184 71541 16/// /3506 11118 21171 60001 333 11068 21131 70000
AAXX 07184 71543 16/// /0403 11171 21201 60001 333 11068 21221 70004
AAXX 07184 71546 16/// /2505 11114 21170 60001 333 11064 21144 70004
AAXX 07184 71547 16/// /2707 11142 21173 60001 333 11085 21148 70004
AAXX 07184 71011 17/// ///// 11080 21140 69951 7//4/ 333 11031 21084 70016
AAXX 07184 71049 16/// /3014 11193 39656 49679 53003 60001 333 11191 21231 70003
AAXX 07184 71673 16/// ///// 11091 21155 60001 333 11039 21097 70009
AAXX 07184 71690 16/// ///// 11130 21168 60001 333 11048 21148 70004
AAXX 07184 71461 16/// /2809 11103 21164 60001 333 11054 21124 70000
AAXX 07184 71468 17/// /2919 11022 21067 39757 40082 58003 69931 7//4/ 333 21093 70015
AAXX 07184 71483 16/// ///// 11088 21180 60001 333 11047 21096 70000
BBXX 46146 07181 99493 71237 46/// /3103 10053 40330 52010 22200 00062 10300 70002 333 91204
AAXX 07184 71888 16/// ///// 11089 21166 60001 333 11051 21111 70000
AAXX 07184 71895 16/// ///// 11088 21165 60001 333 11034 21097 70008
AAXX 07184 71405 17/// ///// 11082 21169 69941 7//4/ 333 11036 21091 70004
AAXX 07184 71417 17/// /0908 11034 21042 30157 40192 56023 60021 7//4/ 333 11033 21059 70046
AAXX 07184 71426 46/// /0304 11006 6///1 333 11006 21042 7////
AAXX 07181 56144 32980 00000 11011 21157 36871 52007 333 00551 10159
AAXX 07181 56152 32980 00000 11107 21144 36331 52003 333 00460 10097
AAXX 07181 56167 32980 02901 11021 21084 37095 52015 333 00400 10183
AAXX 07181 56182 32780 72201 11016 21062 37242 57005 875// 333 00151 10036
AAXX 07181 56357 32980 02501 11056 21113 36476 57001 333 00251 10114
AAXX 07181 56586 11460 83602 10007 21019 38132 52003 69901 76066 885// 333 00353 10044
AAXX 07181 56748 32580 41601 10102 20081 38374 57001 84400 333 00053 10201
AAXX 07181 56763 32980 00000 10145 20111 40132 52002 333 00155 10266
AAXX 07181 56768 32680 60000 10109 20101 38209 54000 86400 333 00152 10191
AAXX 07181 56838 32670 62201 10159 20141 40151 52001 86800 333 00000 10270
AAXX 07181 56886 31730 81602 10101 20095 38339 52006 71000 884// 333 00203 10218
AAXX 07181 56946 32680 60000 10130 20127 40160 54000 86400 333 00052 10245
AAXX 07181 56959 32965 02501 10163 20163 40150 52003 333 00153 10288
AAXX 07181 56969 31457 70901 10159 20156 40166 52002 71000 876// 333 00000 10261
AAXX 07181 57731 11462 80000 10078 20044 40327 52007 69911 76060 885// 333 00500 10097
AAXX 07181 57766 11460 83401 10070 20043 40328 52006 60021 76066 8772/ 333 10076
AAXX 07181 57845 11758 83603 10066 20034 40309 52005 69961 76066 885// 333 10082
AAXX 07181 57853 11456 80000 10060 20030 40331 52005 60011 76066 8772/ 333 10090
AAXX 07181 57916 32668 81401 10127 20086 40271 52012 885// 333 00754 10171
AAXX 07181 57922 32668 83604 10051 20025 40292 52006 885// 333 00554 10111
AAXX 07181 57932 11673 80203 10095 20030 40309 52008 69901 70060 885// 333 00753 10123
AAXX 07181 58338 11440 82904 10073 20064 40289 52006 60051 76166 8772/ 333 10106
AAXX 07181 59007 32663 80403 10094 20068 40231 52006 885// 333 10170
AAXX 07181 59046 11462 83403 10090 20081 40270 52008 60011 76060 885// 333 10174
AAXX 07181 59058 11460 83204 10101 20075 40255 52007 69901 76060 885// 333 10166
AAXX 07181 59072 11668 83604 10087 20051 40274 52006 69901 76060 885// 333 10139
AAXX 07181 59087 32760 83404 10133 20095 40218 52006 885// 333 10203
AAXX 07181 59209 11460 82702 10124 20101 40229 52010 69901 76066 887// 333 10183
AAXX 07184 71558 46/// ///// 11054 21076 30157 40195 58020 6///1 333 11054 21094 7////
AAXX 07184 71788 17/// /0208 11041 21049 69941 7//4/ 333 11005 21042 70019
AAXX 07184 71792 17/// ///// 11087 21142 69941 7//4/ 333 11041 21094 70008
AAXX 07184 71221 17/// /3106 11120 21177 69991 7//4/ 333 11098 21197 70019
AAXX 07184 71226 16/// /3208 11098 21167 60001 333 11058 21106 70000
AAXX 07184 71229 46/// /3110 11119 21174 6///1 333 11093 21138 7////
AAXX 07181 30499 42999 02503 11284 21295 39711 40450 57002
BBXX 46146 07181 99493 71237 46/// /3103 10053 40330 52010 22200 00062 10300 70002 333 91204
BBXX 46247 07181 99378 71228 46/// ///// 1//// 91821 22200 00118 11402 20701 325// 41401 70009
BBXX 46246 07181 99500 71451 46/// ///// 1//// 91759 22200 00076 11004 21003 324// 41102 70020
BBXX 44258 07181 99445 70634 46/// /1501 10080 40097 57024 22200 00082 10602 70012 333 91201
BBXX KS088 07184 99267 70801 43/// /1404 10267 40160 22200 06235
BBXX KS094 07184 99187 70644 43/// /0711 10272 40126 22252 06268
BBXX KS098 07184 99446 71240 43/// /2506 10040 40304 22200 06000
BBXX KS078 07184 99395 31601 43/// /2831 10158 40184 22223
BBXX 46246 07181 99500 71451 46/// ///// 1//// 91829 22200 00076 11004 21004 326// 41102 70020
BBXX 46243 07181 99462 71241 46/// ///// 1//// 91829 22200 00085 11002 21002 326// 41302 70012
BBXX 46236 07181 99368 71219 46/// ///// 1//// 91820 22200 00116 11102 20801 329// 41101 70008
BBXX 46229 07181 99438 71246 46/// ///// 1//// 91821 22200 00108 11103 20602 330// 41102 70015
BBXX 46225 07181 99329 71174 46/// ///// 1//// 91814 22200 00156 11401 21001 322// 41401 70005
BBXX 46213 07181 99403 71247 46/// ///// 1//// 91824 22200 00104 11302 21002 331// 41302 70012
BBXX 46215 07181 99352 71209 46/// ///// 1//// 91808 22200 00136 11202 20801 326// 41201 70008
BBXX 41010 07181 99289 70785 46/// /2008 10239 40152 91820 22200 00242 10903 20602 300// 40902 70015 333 91209 555 11083 22088
BBXX 41009 07181 99285 70802 46/// /2007 10236 20162 40153 91820 22200 00249 10903 20301 300// 40903 70015 333 91208 555 11073 22076
BBXX 42361 07181 99276 70925 46/// ///13 10139 20017 40254 58010 91830 333 91217 555 11104 22111
BBXX 44100 07181 99363 70756 46/// ///// 1//// 91822 22200 00148 11102 21002 310// 41101 70011
BBXX 41110 07181 99341 70777 46/// ///// 1//// 91821 22200 00160 10602 20602 312// 41101 70012
BBXX 42099 07181 99273 70842 46/// ///// 1//// 91827 22200 00245 10402 20402 70012
BBXX 41113 07181 99284 70805 46/// ///// 1//// 91821 22200 00226 11002 21002 310// 41101 70009
BBXX 41112 07181 99307 70813 46/// ///// 1//// 91821 22200 00172 10902 20902 312// 41101 70011
BBXX 44258 07181 99445 70634 46/// /1501 10080 40097 57024 22200 00082 10602 70012 333 91201
BBXX 42013 07181 99272 70829 46/// ///// 1//// 40173 91740 22200 00212
BBXX 44039 07181 99411 70727 46/// /0101 10125 20125 40073 91753 22200 00112 1//00 70001 333 91202
BBXX 44099 07181 99369 70757 46/// ///// 1//// 91822 22200 00139 11102 21002 310// 41101 70011
BBXX 44030 07181 99432 70704 46/// /0307 1//// 40081 58028 91804 22200 00094 11102 70012 333 91208 555 11083 22089
BBXX 44140 07181 99429 70515 46/// /2802 10138 40200 57007 22200 00111 11003 70013 333 91203
AAXX 07184 84455 31460 80000 10280 20220 39800 40152 70222 8353/ 333 5600/ 58020 83617 86360
AAXX 07184 84515 31460 60000 10298 20227 39915 40090 70234 86500 333 56000 59011 86620
AAXX 07184 84673 31665 40705 10253 20088 37321 70122 84100 333 56900 58000 84846
AAXX 07184 84658 31462 53007 10325 20253 39834 40069 70300 851// 333 560// 59014 85810
AAXX 07184 84474 31560 70000 10297 20236 39759 7022/ 87700 333 56900 58015 87730
AAXX 07184 84773 31962 01610 10240 20167 30118 40143 70200 333 58005
AAXX 07184 84370 31960 43310 10280 20209 30056 40091 70112 84030 333 56900 58002 84362
AAXX 07184 84390 31965 01814 10280 20161 30002 40104 70200 333 58009
AAXX 07184 84452 31960 51716 10262 20179 30090 40120 70122 82011 333 56099 59009 82462 83275
AAXX 07184 84628 34460 72007 10230 20178 30111 40127 70242 82601 333 56401 59005 82713 85073
AAXX 07184 84534 31560 6//// 10300 20217 39360 40060 7011/ 8222/ 333 5699/ 58030 82830 85465
AAXX 07184 84782 31965 02211 10240 20130 39622 40128 70200 333 58009
AAXX 07184 84720 31960 02906 10328 20196 39490 40154 70100 333 59002
AAXX 07184 84691 31960 52606 10257 20187 30113 40120 70224 80001 333 56000 59007 85073
AAXX 07184 84752 32960 02612 10192 20047 37529 70200 333 58007
AAXX 07184 84444 31560 8//// 10180 20123 37518 70242 8443/ 333 5699/ 58007 84630 86361
AAXX 07184 84425 21215 80306 10230 20230 39921 40139 76322 886// 333 568// 58013 60171 88706
AAXX 07184 84401 31960 52008 10298 20176 30070 40113 70222 8503/ 333 5600/ 59007 85360
AAXX 07184 84377 31558 82403 10292 20237 39978 40081 71622 85120 333 5600/ 58003 85820 85460
AAXX 07184 84688 31461 82806 10120 20064 36662 70223 886// 333 569// 58009 83620 86656
AAXX 07184 84686 31765 69905 10209 20014 36850 70120 83501 333 56909 59001 83650 83073
AAXX 07184 84472 31560 83506 10190 20104 37394 70322 885// 333 56900 59003 84733 88640
AAXX 07184 84501 31660 21710 10199 20160 30098 40123 70221 82500 333 56000 58006 82640
AAXX 07184 84531 31960 41917 10215 20155 30094 40111 70222 8403/ 333 5609/ 58001 84362
AAXX 07184 84735 31560 49903 10201 20030 36419 70222 84100 333 56900 58002 84825
AAXX 07184 84564 31560 10510 10250 20160 38132 7022/ 8552/ 333 5611/ 59028 85630 83465
AAXX 07184 96009 32456 70000 10252 20245 30056 40091 58001 82872 333 56000 57803 81817 81620 84360 80859
AAXX 07184 96011 32460 70000 10256 20235 30067 40093 57003 83532 333 56000 83619
AAXX 07184 96035 NIL
AAXX 07184 96073 31450 70000 10256 20245 30073 40084 56002 70522 83972 333 56000 57901 83913 80958
AAXX 07184 96091 32458 50000 10246 20234 30074 40097 56003 82221 333 56000 57804 82817 84080 80860
AAXX 07184 96109 32957 40000 10253 20237 30038 40077 50000 82032 333 56000 82360
AAXX 07184 96145 NIL
AAXX 07184 96147 NIL
AAXX 07184 96163 32560 80000 10248 20233 30090 40092 52001 85521 333 56000 85620
AAXX 07184 96179 32460 70000 10256 20238 30045 40082 57004 83238 333 56000 57802 83817 80850
AAXX 07184 96195 31456 60000 10256 20244 30055 40091 57007 70522 84221 333 56000 82613
AAXX 07184 96221 01458 81604 10257 20251 30074 40089 50002 69951 76192 8352/ 333 56999 69957 83615 85462
AAXX 07184 96237 32457 60000 10237 20228 30040 40082 56009 83232 333 56000 57801 83817 83360 80860
AAXX 07184 96249 32560 60000 10236 20228 30024 40085 57005 82232 333 56000 57802 82820 80863
AAXX 07184 96253 32558 60000 10243 20231 30056 40077 54000 83832 333 56000 57800 82820 83360 80800
AAXX 07184 96295 NIL
AAXX 07184 96509 NIL
AAXX 07184 96581 32456 60000 10244 20235 30079 40086 57008 81131 333 56000 81813 84362 80858
AAXX 07184 96633 32558 73003 10248 20240 30057 40065 57011 82571 333 56000 83620 85460
AAXX 07184 96645 31440 60000 10242 20238 30048 40080 57012 71022 84532 333 56000 84613
AAXX 07184 96655 32457 70000 10253 20245 30065 40099 57016 84571 333 56000 84610 85462
AAXX 07184 96685 32460 70502 10246 20235 30054 40080 57017 83511 333 56000 83617 86462
AAXX 07184 96749 31550 52003 10244 20232 30077 40090 58001 70511 82532 333 56000 82625 83362
AAXX 07184 96781 NIL
AAXX 07184 96805 01558 70000 10266 20236 30092 40101 50001 69901 76021 86271 333 56000 57801 69907 86820 80860
AAXX 07184 96839 31450 72993 19269 20236 30075 40082 58010 71322 84972 333 56000 57901 81919 83620 80980
AAXX 07184 96935 NIL
BBXX 44140 07181 99429 70515 46/// /2802 10138 40200 57007 22200 00111 11003 70013 333 91203
AAXX 07184 96001 NIL
AAXX 07184 96015 01440 70000 10242 20239 30080 40087 57001 69901 70261 84579 333 56000 69907 84613
AAXX 07184 96033 31450 50000 10268 20241 30089 40095 57004 70521 82926 333 56000 57902 81920 82617 80980
AAXX 07184 96075 32456 50000 10248 20245 30078 40084 52000 83571 333 56000 83617
AAXX 07184 96087 31458 60304 10266 20238 30056 40089 58004 70522 82531 333 56000 82615 83360
AAXX 07184 96171 31550 50000 10250 20236 30059 40083 51003 70521 82521 333 56000 82622
AAXX 07184 96207 31410 70000 10227 20212 39227 40148 52003 70522 84531 333 56000 84615
AAXX 07184 96525 32458 62006 10239 20228 30061 40068 57014 83975 333 56000 57900 81915 83615 85460 809//
AAXX 07184 96529 01550 50000 10234 20231 30060 40084 58040 69921 70261 82131 333 56000 69927 82820
AAXX 07184 96559 31330 61805 10240 20234 30044 40082 50010 70521 84170 333 56400 57844 84808 84462 80848
AAXX 07184 96607 32458 50000 10260 20242 30064 40079 57012 82221 333 56000 82815
AAXX 07184 96615 32456 30000 10250 20238 30079 40093 58008 81131 333 56300 57833 81812 80856
AAXX 07184 96737 32457 40000 10250 20238 30044 40074 58003 82531 333 56000 82617
AAXX 07184 96739 NIL
AAXX 07184 96741 NIL
AAXX 07184 96745 NIL
AAXX 07184 96751 11456 70000 10183 20159 39025 48920 57007 69901 70262 85531 333 56200 85617 82360
AAXX 07184 96791 12558 60000 10254 20248 30034 40108 55002 69901 84521 333 56000 84820
AAXX 07184 96797 11458 60000 10260 20245 30079 40084 57007 60071 70192 82971 333 56000 57902 81918 81620 84360 80980
AAXX 07184 96837 NIL
AAXX 07184 96925 32465 70000 10256 20236 30075 40080 56010 82272 333 56000 57800 82817 85080 80860
AAXX 07184 96933 11460 72704 10252 20222 30078 40082 57011 69961 70262 82571 333 56600 82619 85460
AAXX 07184 96937 NIL
AAXX 07184 96973 31458 63002 10258 20243 30069 40074 57008 71322 84931 333 56000 57902 81919 80976 83820 80850
AAXX 07184 96987 32458 60000 10258 20246 30020 40080 57007 84238 333 56000 57802 84818 80860
AAXX 07184 97008 01456 80000 10238 20232 30045 40056 57010 60121 72162 8652/ 333 56009 60037 86617
AAXX 07184 97016 NIL
AAXX 07184 97126 32456 83201 10250 20234 30012 40073 57019 8152/ 333 56009 81620 88460
AAXX 07184 97182 NIL
AAXX 07184 97240 NIL
AAXX 07184 97310 32560 50000 10260 20234 30048 40060 57014 83221 333 56000 57802 83820 83460 80840
AAXX 07184 97320 32560 70000 10256 20229 30043 40056 57021 83226 333 56000 57801 83820 80850
AAXX 07184 97378 32565 40000 10240 20240 39935 40098 51008 81102 333 56000 81820 83080
AAXX 07184 97406 01456 80000 10240 20240 30025 40050 57016 60051 76166 84972 333 56000 57901 57801 60037 81917 83816 86460 80975 80860
AAXX 07184 97570 11460 82703 10252 20235 30063 40070 51004 69907 76022 889// 333 56000 81914 88616
AAXX 07184 97630 31310 80105 10236 20234 39902 40062 56023 71522 8477/ 333 56009 57802 82809 82613 88460 80870
AAXX 07184 97700 01457 80000 10251 20243 30036 40050 57015 69991 72162 8487/ 333 56000 57804 57603 69947 81817 83618 85458 80850 80656
AAXX 07184 97722 NIL
AAXX 07184 97014 11560 60302 10232 20224 39972 40065 57022 69961 70262 83471 333 56000 83821
AAXX 07184 97028 NIL
AAXX 07184 97048 32457 50000 10229 20224 30030 40054 57014 81231 333 56000 57805 81818 83360 80860
AAXX 07184 97072 31557 60000 10240 20221 39980 40080 58016 70522 82521 333 56000 82620 84459
AAXX 07184 97086 32560 52705 10252 20235 30054 40079 56013 82571 333 56000 82620
AAXX 07184 97096 32460 60000 10246 20230 30056 40077 57015 82251 333 56000 57803 82818 84360 80857
AAXX 07184 97120 32460 60000 10244 20230 30035 40068 57016 81231 333 56000 57803 81818 85360 80860
AAXX 07184 97146 NIL
AAXX 07184 97180 32457 50802 10260 20257 30053 40071 56014 82532 333 56000 81619 85360 85080
AAXX 07184 97192 11440 70000 10250 20244 30024 40081 57015 69901 70362 82521 333 56000 82616 84460
AAXX 07184 97230 32460 70000 10263 20246 30068 40075 57012 82132 333 56000 82817 85080
AAXX 07184 97260 NIL
AAXX 07184 97270 31450 50000 10250 20238 30063 40068 57016 70522 81371 333 56000 83815
AAXX 07184 97300 NIL
AAXX 07184 97340 NIL
AAXX 07184 97372 NIL
AAXX 07184 97430 01460 71005 10256 20241 30031 40061 57020 69911 70262 83232 333 56700 57871 69917 84818 80860
AAXX 07184 97460 NIL
AAXX 07184 97502 11450 71604 10250 20236 30059 40063 56017 69941 71562 86931 333 56000 57901 84910 86812 80960
AAXX 07184 97530 31450 80000 10244 20238 30040 40044 57028 86832 333 56000 57802 84815 83360 80833
AAXX 07184 97560 01457 82414 10256 20232 30040 40055 57016 69901 76162 8487/ 333 56000 57803 69907 84818 88360 80859
AAXX 07184 97686 NIL
AAXX 07184 97690 32450 80000 10258 20243 39949 40051 57020 84837 333 56000 57801 83816 88279 80856
AAXX 07184 97724 01456 83303 10245 20234 30044 40061 57021 60061 76166 8212/ 333 56519 57851 60057 82818 88458 80850
AAXX 07184 97748 31458 82708 10270 20247 30058 40060 51001 71622 8597/ 333 56609 57960 82913 83814 85458 80940 80850
AAXX 07184 97760 11440 73205 10251 20248 30055 40064 57022 69921 71562 83932 333 56000 57901 81915 82816 80968
AAXX 07184 97796 31450 70000 10244 20235 30019 40069 57015 70522 83531 333 56000 83610 86460
AAXX 07184 97810 NIL
AAXX 07184 97900 32562 70000 10264 20249 30017 40046 58023 82270 333 56700 57872 82820 86275 80830
AAXX 07184 97980 NIL
BBXX CFO383 07184 99439 70602 47192 /2219 10114 2012/ 40119 5//// 753// 8/ // 22200 00094 10604 2//// 3//// 70018 80117 333 91023
BBXX 46036 07181 99484 71339 46/// /3006 10086 40370 52008 22200 00087 10904 70020 333 91207
BBXX CFO383 07184 99439 70602 47192 /2219 10114 2012/ 40119 5//// 753// 8/ // 22200 00094 10604 2//// 3//// 70018 80117 333 91023
BBXX 46036 07181 99484 71339 46/// /3006 10086 40370 52008 22200 00087 10904 70020 333 91207
BBXX AMOUK08 07184 99501 70061 46/// ///// 10118 20068 30205 40206 52020 91750
BBXX 63106 07184 99610 10017 46/// /1010 10057 49946 52020 22200
BBXX 63105 07184 99610 10017 47698 ///// 10053 21024 49946 52019 700// 22200
BBXX DEDM 07184 99503 70313 41/96 82336 10115 20106 40085 57030 75052 84720 22263 04130 20604 323// 41005 80110
BBXX 46238 07181 99334 71195 46/// ///// 1//// 91820 22200 00151 11301 21001 329// 41301 70007
BBXX 46239 07181 99363 71221 46/// ///// 1//// 91821 22200 00130 11202 20802 330// 41201 70011
AAXX 07184 82106 32698 60504 10304 20246 3//// 4//// 84220 333 5////
AAXX 07184 82113 32696 60506 10342 20229 3//// 4//// 85402 333 5////
AAXX 07184 82212 32698 60504 10308 20252 30018 40099 86800 333 59008
AAXX 07184 82336 31698 50000 10334 20231 3//// 4//// 70540 83570 333 5////
AAXX 07184 82425 32597 61402 10316 20296 3//// 4//// 84304 333 5////
AAXX 07184 82533 32497 62302 10326 20262 3//// 4//// 86260 333 5////
AAXX 07184 82723 32598 52304 10325 20252 30008 40090 85200 333 58009
AAXX 07184 83766 32597 60000 10280 20203 39456 40097 5//// 83530
AAXX 07184 83836 32497 81402 10274 20181 39124 40077 56022 83943
AAXX 07184 83881 32597 63203 10320 20199 39803 40078 58014 83324
AAXX 07184 83980 31592 21810 10285 20184 39834 40107 57011 70510 82100
AAXX 07184 83997 32997 01814 10258 20152 30100 40143 58009
AAXX 07184 82042 32198 60504 10329 20291 3//// 4//// 83632 333 5////
AAXX 07184 82240 32596 40000 10341 20250 3//// 4//// 8////
AAXX 07184 82317 32594 60000 10320 20261 3//// 4//// 85260 333 5////
AAXX 07184 82610 32495 40000 10340 20265 3//// 4//// 83430 333 5////
AAXX 07184 82807 21695 80000 10275 20242 3//// 4//// 72962 885// 333 5//// 60121
AAXX 07184 83264 21797 42302 10306 20240 39629 40086 72100 82214 333 59007 60021
AAXX 07184 83358 21598 80000 10255 20229 39657 40054 70162 885// 333 58000 60081
AAXX 07184 83117 31/91 81501 10230 20216 40127 56016 7102/ 88/// 222// 02190 20101 80220
AAXX 07183 63671 32980 00000 10275 20231 333 10325
AAXX 07183 63723 32980 30503 10277 20220 40089 83030 333 10341 59006 83359
AAXX 07183 63793 32580 60908 10256 20224 40072 83530 333 10322 59013 83821 85658
AAXX 07184 63661 32980 33605 10178 20145 48524 81074 333 10260 59005 81359
AAXX 07184 63688 32480 60906 10137 20118 48/// 82902 333 10237 59002 81918 86078
AAXX 07184 63708 12580 70000 10203 20187 48487 60012 8197/ 333 10283 59006 81920 87358
AAXX 07184 63772 12580 10804 10260 20250 60022 81500 333 10322 81821
AAXX 07184 63820 32580 40806 10279 20252 40098 84930 333 10330 59012 84823 81924
AAXX 07184 63612 NIL
AAXX 07184 63671 NIL
AAXX 07184 63695 NIL
AAXX 07184 63714 NIL
AAXX 07184 63723 NIL
AAXX 07184 63740 NIL
AAXX 07184 63793 NIL
AAXX 07184 78318 11560 13503 10270 20189 30170 40174 58015 60001 70500 81800 333 10276 20174 30/// 56900 58005 81820
AAXX 07184 78325 11563 30201 10260 20188 30113 40171 58019 60001 70500 82230 333 10266 20195 30/// 56990 58009 82820
AAXX 07184 78333 11410 20202 10290 20179 30148 40155 58021 60001 70500 82200 333 10290 20183 30/// 56800 58003 82818 555 13601
AAXX 07184 78348 11557 20502 10264 20201 30106 40158 58019 60001 70500 82200 333 10264 20210 30/// 56100 57843 59001 82821 555 10502
AAXX 07184 78349 11562 60303 10284 20184 30046 40155 57021 60001 70511 86200 333 10289 20193 30/// 56100 57832 59001 86820 555 10502
AAXX 07184 78353 11565 40702 10280 20208 30133 40155 58012 60001 71500 84800 333 10282 20224 31/// 56200 57872 58004 70002 83823 555 10703
AAXX 07184 78360 12570 30607 10293 20212 30122 40133 58019 60001 83800 333 10296 20220 30/// 56100 58007 79999 83820 92034 555 10403
BBXX 51204 07181 99213 71581 46/// ///// 1//// 91822 22200 00249 11303 20902 331// 41302 70014
BBXX 51202 07181 99214 71577 46/// ///// 1//// 91809 22200 00243 11004 21003 303// 41202 70019
BBXX 46219 07181 99332 71199 46/// ///// 1//// 91828 22200 00139 11302 20901 330// 41301 70009
BBXX 46224 07181 99332 71175 46/// ///// 1//// 91806 22200 00155 11401 21001 322// 41401 70005
BBXX 46214 07181 99379 71235 46/// ///// 1//// 91827 22200 00118 11402 20701 328// 41402 70011
BBXX 44060 07181 99413 70721 46/// ///01 10121 40062 91830 22200 00125 333 91202 555 11010 22010
BBXX 44022 07181 99409 70737 46/// ///02 10106 20100 40061 91830 22200 00113 333 91203 555 11015 22015
BBXX 44040 07181 99410 70736 46/// /0201 10106 20106 40068 91819 22200 1//00 70000 333 91203 555 11015 22015
BBXX AMOUK15 07184 99263 30077 46/// ///// 10175 20157 30176 40200 54002 91750
BBXX ZDLS1 07183 99283 30130 41297 81425 10171 20152 40176 52010 72552 8/7// 22232 04178 20702 317// 41004 80160
BBXX A8QL5 07181 99265 70171 41697 41111 10220 20151 40213 57/// 70511 815/8 22254 04230 20302 307// 40503 80176
BBXX TBWUK30 07183 99064 70134 41298 21909 10286 20278 40073 54000 70200 8/141 22274 06281 20202 320// 40302 5//// 80280
BBXX 62141 07184 99493 50590 41697 22325 10110 40159 52030 72100 82147 22200 20608 32323 40505 50608
BBXX VQHO7 07184 99365 50503 41498 41309 10210 20169 40093 56005 70155 84100 22214 00191 20302 335// 40404 5//// 80185
BBXX ONDE 07183 99361 11410 41998 33510 10110 20092 40110 56010 7//11 83/69 22200 00170 20503 335// 4//// 5//// 6//// 80100 ICE /////
BBXX PBOF 07183 99338 11288 41/97 83318 10120 20051 40200 54000 76062 8//// 22263 04220 2//// 80085 90078
BBXX DGZL 07183 99062 10916 41398 70413 10270 20243 40090 50000 70322 8773/ 22264 00290 2//// 80250
BBXX UGOS 07181 99538 11438 41/// /3518 11060 40133 54000 77072 22282 00005 20604 30300 41307 61100
BBXX UIFC 07181 99367 11311 41/97 91008 10111 40242 54000 70220 22253 00149 20201 30400 40302
BBXX A8MV6 07183 99177 11192 41998 10425 10270 20241 40100 56010 70000 80008 22253 04290 20705 33699 41005 5//// 80250
BBXX VQOG5 07184 99059 10869 41497 20417 10280 20244 40088 54000 70181 82200 22223 00280 2//03 3//// 4//// 5//// 80255
BBXX ZDLP 07183 99668 50690 41396 82706 10001 21016 49728 51010 70222 8411/ 22253 05001 20000 302// 40301 5//// 81005 ICE //1//
BBXX 46036 07181 99484 71339 46/// /3006 10086 40370 52008 22200 00087 10904 70020 333 91207
BBXX CFO383 07184 99439 70602 47192 /2219 10114 2012/ 40119 5//// 753// 8/ // 22200 00094 10604 2//// 3//// 70018 80117 333 91023
BBXX 44140 07181 99429 70515 46/// /2802 10138 40200 57007 22200 00111 11003 70013 333 91203
BBXX 44030 07181 99432 70704 46/// /0307 1//// 40081 58028 91804 22200 00094 11102 70012 333 91208 555 11083 22089
BBXX 44099 07181 99369 70757 46/// ///// 1//// 91822 22200 00139 11102 21002 310// 41101 70011
BBXX 44039 07181 99411 70727 46/// /0101 10125 20125 40073 91753 22200 00112 1//00 70001 333 91202
BBXX 42013 07181 99272 70829 46/// ///// 1//// 40173 91740 22200 00212
BBXX 41112 07181 99307 70813 46/// ///// 1//// 91821 22200 00172 10902 20902 312// 41101 70011
BBXX 42099 07181 99273 70842 46/// ///// 1//// 91827 22200 00245 10402 20402 70012
BBXX 41113 07181 99284 70805 46/// ///// 1//// 91821 22200 00226 11002 21002 310// 41101 70009
BBXX 44100 07181 99363 70756 46/// ///// 1//// 91822 22200 00148 11102 21002 310// 41101 70011
BBXX 41110 07181 99341 70777 46/// ///// 1//// 91821 22200 00160 10602 20602 312// 41101 70012
BBXX 41009 07181 99285 70802 46/// /2007 10236 20162 40153 91820 22200 00249 10903 20301 300// 40903 70015 333 91208 555 11073 22076
BBXX 42361 07181 99276 70925 46/// ///13 10139 20017 40254 58010 91830 333 91217 555 11104 22111
BBXX 41010 07181 99289 70785 46/// /2008 10239 40152 91820 22200 00242 10903 20602 300// 40902 70015 333 91209 555 11083 22088
BBXX 46215 07181 99352 71209 46/// ///// 1//// 91808 22200 00136 11202 20801 326// 41201 70008
BBXX 46213 07181 99403 71247 46/// ///// 1//// 91824 22200 00104 11302 21002 331// 41302 70012
BBXX 46236 07181 99368 71219 46/// ///// 1//// 91820 22200 00116 11102 20801 329// 41101 70008
BBXX 46225 07181 99329 71174 46/// ///// 1//// 91814 22200 00156 11401 21001 322// 41401 70005
BBXX 46229 07181 99438 71246 46/// ///// 1//// 91821 22200 00108 11103 20602 330// 41102 70015
BBXX 46246 07181 99500 71451 46/// ///// 1//// 91829 22200 00076 11004 21004 326// 41102 70020
BBXX 46243 07181 99462 71241 46/// ///// 1//// 91829 22200 00085 11002 21002 326// 41302 70012
BBXX 44258 07181 99445 70634 46/// /1501 10080 40097 57024 22200 00082 10602 70012 333 91201
BBXX KS088 07184 99267 70801 43/// /1404 10267 40160 22200 06235
BBXX KS098 07184 99446 71240 43/// /2506 10040 40304 22200 06000
BBXX KS094 07184 99187 70644 43/// /0711 10272 40126 22252 06268
BBXX 46246 07181 99500 71451 46/// ///// 1//// 91759 22200 00076 11004 21003 324// 41102 70020
BBXX 46247 07181 99378 71228 46/// ///// 1//// 91821 22200 00118 11402 20701 325// 41401 70009
BBXX 46146 07181 99493 71237 46/// /3103 10053 40330 52010 22200 00062 10300 70002 333 91204
BBXX VCXF 07184 99464 70484 41/90 91509 10050 2005/ 40184 57002 74744 89/// 22200 02036 20200 316// 40804 80050
BBXX 46004 07181 99509 71361 46/// /2508 10075 40353 52009 22200 00080 11204 70021 333 91211
BBXX WABS 07184 99374 71243 41498 53513 10133 20093 40270 52003 70311 851// 22273 0//// 20402 333// 40605 5//// 6//// 80111 ICE /////
BBXX YJUF7 07184 99452 70565 41/94 92032 10091 2009/ 40137 56007 75182 89/// 22261 00030 20503 315// 40802 80091
BBXX A8UN3 07184 99414 70601 41498 52020 10190 40160 55/// 70222 8/7// 22264 04170 20603 310// 40702 5////
BBXX 46184 07181 99539 71389 46/// /2405 10071 40302 52009 22200 00068 10704 70020 333 91206
BBXX 46181 07181 99538 71288 46/// /0406 10001 40358 52004 22200 00041 10200 70001 333 91208
BBXX 44059 07181 99368 70763 46/// /2108 1//// 91820 333 91213
BBXX 44059 07181 99368 70763 46/// /2308 10221 40051 58051 91800 22200 00140 333 91211
BBXX 9HA2066 07184 99345 71583 418// 53609 10160 20160 40230 51/// 7//// 85//2 22224 00160 21406 332// 40906 5//// 6//// 80160 ICE /////
BBXX 9HXC9 07184 99172 70627 41598 30712 10277 20199 40091 56003 7//00 83200 22200 06287 20000 3//// 40000 5//// 6//// 80223 ICE /////
BBXX WDA2768 07184 99470 70917 43/// /0108 00/// 10002 21067 40135 55001 7//// 8//// 22200 0//// 2//// 3//// 4//// 5//// 6//// 81021 ICE /////
BBXX WC5932 07184 99436 70877 43/// /2923 00/// 11015 21072 40142 57002 7//// 8//// 22243 0//// 2//// 3//// 4//// 5//// 6//// 81035 ICE /////
BBXX WDB9951 07184 99483 70354 41296 82241 10147 20132 40115 55030 78162 887// 22264 00120 20807 322// 40909 5//// 6//// 80138 ICE /////
BBXX ONDE 07183 99361 11410 41998 33510 10110 20092 40110 56010 7//11 83/69 22200 00170 20503 335// 4//// 5//// 6//// 80100 ICE /////
BBXX WDE2719 07183 99607 71514 41/97 80425 11039 2//// 40180 57/// 702// 8//// 222// 01006 2//01 333// 4//01 5//// 6//// 8//// ICE /////
BBXX WABS 07184 99374 71243 41498 53513 10133 20093 40270 52003 70311 851// 22273 0//// 20402 333// 40605 5//// 6//// 80111 ICE /////
BBXX WQZ7791 07184 99420 70816 41/98 /0000 11177 2//// 40000 56000 70100 8//// 222// 0//// 2//00 3//// 4//// 5//// 6//// 8//// ICE /////
BBXX 44057 07181 99395 70761 46/// /3602 10116 40044 58043 91800 22200 00084 333 91203
BBXX 44059 07181 99368 70763 46/// /2307 1//// 40047 91810 333 91210
BBXX 44057 07181 99395 70761 46/// /3402 1//// 91820 333 91203
BBXX 44057 07181 99395 70761 46/// /3402 1//// 40043 91810 333 91202
BBXX 44061 07181 99388 70770 46/// /3602 10121 40044 56047 91800 22200 00087 333 91204
BBXX 44058 07181 99376 70763 46/// /1907 10170 40050 57045 91800 22200 00120 10301 70006 333 91210
BBXX 44058 07181 99376 70763 46/// /1806 1//// 91820 333 91207
BBXX 44058 07181 99376 70763 46/// /1806 1//// 40047 91810 333 91209
BBXX 44042 07181 99380 70763 46/// /2207 10184 40040 91800 22200 00119 10301 70006 333 91209
BBXX 44043 07181 99392 70764 46/// /0302 1//// 91820 333 91203
BBXX 42364 07181 99291 70881 46/// /3209 10106 20044 40231 91830
BBXX 44043 07181 99392 70764 46/// /0503 10108 40038 58048 91800 22200 00099 1//00 70001 333 91203
BBXX 42363 07181 99282 70892 46/// /3311 10117 20006 40247 91830 333 91212
BBXX 44043 07181 99392 70764 46/// /0403 1//// 40038 91810 333 91203
BBXX 44042 07181 99380 70763 46/// /2207 1//// 40036 91810 333 91210
BBXX 44061 07181 99388 70770 46/// /0102 1//// 91820 333 91204
BBXX 44042 07181 99380 70763 46/// /2208 1//// 91820 333 91212
BBXX 44062 07181 99386 70764 46/// /0103 1//// 91820 22200 00108 333 91204
BBXX 44041 07181 99372 70768 46/// /2206 1//// 40070 91810 333 91209
BBXX 44061 07181 99388 70770 46/// /0203 1//// 40041 91810 333 91204
BBXX 44062 07181 99386 70764 46/// /0103 10112 40025 58044 91800 22200 00108 1//00 70002 333 91205
BBXX 44029 07181 99425 70706 46/30 /0208 10079 40075 58021 91804 22200 00097 10502 70008 333 91209 555 11095 22100
BBXX 44063 07181 99390 70764 46/// /0504 1//// 91820 333 91205
BBXX 44062 07181 99386 70764 46/// /0204 1//// 40024 91810 22200 00108 333 91205
BBXX 44063 07181 99390 70764 46/// /0504 1//// 40063 91810 333 91205
BBXX 44041 07181 99372 70768 46/// /2208 10202 40073 56041 91800 22200 00126 10301 70003 333 91211
BBXX 44063 07181 99390 70764 46/// /0604 10116 40065 56043 91800 22200 00105 1//00 70001 333 91204
BBXX 44041 07181 99372 70768 46/// /2206 1//// 91820 333 91208
BBXX 46092 07181 99368 71220 46/// /1105 10079 40251 91757 22200 00115 555 11051 22057
BBXX ZCDM6 07183 99125 70700 41698 50709 10285 20250 40131 53/// 70211 82460 22200 00285 2//// 30000 4//// 5//// 80260
BBXX A8SI9 07183 99547 71613 43497 82420 10060 2006/ 40050 56020 887// 22264 00077 20404 323// 41207 80060
BBXX MYSU5 07184 99465 70440 41297 83315 10065 20051 40187 53013 70222 887// 22263 00070 20602 312// 40804 5//// 80059
BBXX GDTT 07184 99154 70663 41498 30708 10300 20273 40109 58/// 7//11 83145 22213 00300 20202 305// 40202 80280
BBXX PJKV 07183 99400 70413 41598 71621 10185 20163 40191 50003 70222 81568 22214 20502 314// 40804 5//// 80172
BBXX 46205 07181 99542 71343 46/// /1507 10057 40340 57001 22200 00079 10903 70015 333 91208
BBXX 46206 07181 99488 71260 46/// /0602 10072 40319 52007 22200 00093 11103 70017 333 91203
BBXX 46208 07181 99525 71327 46/// /1704 10051 40351 57001 22200 00078 11003 70017 333 91205
BBXX 9HXC9 07184 99172 70627 41598 30712 10277 20199 40091 56003 7//00 83200 22200 06287 20000 3//// 40000 5//// 6//// 80223 ICE /////
BBXX A8CI8 07184 99450 70423 41/94 /0107 10141 40162 55010 74944 8//// 22263 04110 20804
BBXX WDB9951 07184 99483 70354 41296 82241 10147 20132 40115 55030 78162 887// 22264 00120 20807 322// 40909 5//// 6//// 80138 ICE /////
BBXX 46185 07181 99524 71298 46/// /0005 10048 40349 52005 22200 00074 11502 70008 333 91206
BBXX V7HC6 07184 99273 70907 41698 63423 10120 20061 40249 50009 70222 8623/ 22200 00231 20405 33233 40707 50606 6//// 80090 ICE /////
BBXX 46087 07181 99485 71247 46/// /0905 10071 20067 40316 91820 22200 00083 333 91206 555 11050 22052 31802 41006 61819 086048 091051 084052 080053 076051 079046
BBXX 44033 07181 99441 70690 46/20 /0107 10055 40095 56018 91804 22200 00092 10601 70006 333 91208 555 11079 22083
BBXX 44060 07181 99413 70721 46/// ///02 10123 40065 91815 22200 00124 333 91202 555 11015 22015
BBXX 44040 07181 99410 70736 46/// /0301 10104 20104 40068 91815 22200 1//00 70000 333 91202 555 11015 22015
BBXX 44034 07181 99441 70681 46/30 /0307 10052 40091 58020 91804 22200 00094 10602 70009 333 91208 555 11078 22081
BBXX 44022 07181 99409 70737 46/// ///02 10105 20099 40063 91815 22200 00113 333 91203 555 11015 22015
BBXX 44039 07181 99411 70727 46/// /0501 10124 20124 40076 57037 91800 22200 00112 1//00 70001 333 91202
BBXX 42363 07181 99282 70892 46/// /3213 10117 20017 40247 91815 333 91213
BBXX 41036 07181 99342 70770 46/// ///// 10197 20165 40098 91820 22200 00178
BBXX 42364 07181 99291 70881 46/// /3108 10106 20044 40231 91815
BBXX 9HA2066 07184 99345 71583 418// 53609 10160 20160 40230 51/// 7//// 85//2 22224 00160 21406 332// 40906 5//// 6//// 80160 ICE /////
BBXX KS078 07184 99395 31601 43/// /2831 10158 40184 22223
BBXX MFLM9 07183 99123 31307 41498 22402 10284 20256 40043 57004 70300 811// 22200 00303 20101 323// 40101 5//// 80264
BBXX FHZI 07184 99578 31414 46/// /2815 10030 20026 39781 49792 52024 22283 04020 85028
BBXX 9KWP 07183 99269 31101 41497 31920 10210 20178 40086 58005 70111 82132 22274 2//// 80190
BBXX VROB 07184 99068 31470 46/// /3207 10254 20229 30034 40059 57019 22200 04308 85236
BBXX SHIP 07184 99435 70876 41/97 92811 11030 40135 70222 22243 01042 22 22
BBXX WDA2768 07184 99470 70917 43/// /0108 00/// 10002 21067 40135 55001 7//// 8//// 22200 0//// 2//// 3//// 4//// 5//// 6//// 81021 ICE /////
BBXX WC5932 07184 99436 70877 43/// /2923 00/// 11015 21072 40142 57002 7//// 8//// 22243 0//// 2//// 3//// 4//// 5//// 6//// 81035 ICE /////
BBXX MINUK01 0718/ 99571 70021 46/// ///// 10040 40025 52050
BBXX WQVY 07184 99336 10251 41697 43037 10180 2013/ 40162 54000 70111 84200 22263 0//// 20404 3//// 4//// 5//// 6//// 80150 ICE /////
AAXX 07184 04082 32988 13405 11065 21127 49972 52010 81400 333 11022 21079 555 3//13 81560
AAXX 07184 42492 31/90 90000 10178 20171 40149 74744 333 58015
AAXX 07184 42587 31995 00000 10154 20129 40141 70500 333 58003
AAXX 07184 42591 31993 02902 10162 20162 40155 74240 333 58014
AAXX 07184 42701 31995 00000 10154 20111 39414 40157 70500 333 58011
AAXX 07184 42724 31995 00000 10180 20163 40136 70500 333 58009
AAXX 07184 42798 31995 00000 10170 20142 40142 70500 333 58014
AAXX 07184 43333 21495 60906 10264 20232 40096 70511 85401 333 56209 58004 84616 84818
AAXX 07184 91723 NIL
AAXX 07184 91964 NIL
AAXX 07184 63756 12580 40000 10212 20190 38858 48493 60022 8193/ 333 0//19 59009 81822 81923 84359
BBXX SHIP 07184 99031 30919 41498 32807 10270 20260 40090 57002 70200 83/// 22233 06293 11003 399// 4////
BBXX C6HS4 07183 99055 30791 41697 23109 10285 20265 40094 5/030 71022 82400 22233 20402 80270
BBXX SHIP 07184 99075 30883 41497 82712 10263 20241 40077 58004 70282 85812 22262 00280 11006 20303 327// 40604 85247
BBXX ONDY 07184 99098 30091 41699 62112 10230 2020/ 40130 54000 70211 866// 22284 00260 2//// 3//// 4//// 5//// 6//// 80210 /////
BBXX DEIR 07184 99178 30108 41398 31620 10184 20149 40124 52004 7//11 83640 22243 04216 20503 318// 41004 80162
BBXX MNDC9 07184 99201 31098 41498 62513 10240 20194 40089 52012 70222 83109 22244 04252 2//02 80210
BBXX DDJR2 07184 99239 30532 41498 41316 10255 20218 40060 52020 70200 84266 22254 06260 21005 318// 41004 5//// 80230
BBXX A8RL3 07181 99253 30546 41191 61010 10230 40130 54000 70311 854// 22213 00280 2//03 3//// 4//04 5////
BBXX SHIP 07184 99295 30781 41498 60918 10210 20147 40203 50002 70222 8549/ 22224 00204 80170
BBXX MINFR03 0718/ 99297 30312 46/// ///// 10235 40067 52017
BBXX 3FMV6 07183 99299 30149 41598 81815 10190 20138 40170 52020 70286 87770 22238 06188 21002 80160
BBXX 2AKI2 07183 99312 30110 41598 61834 10150 20083 40220 51020 70711 85173 22224 00181 20502 321// 40605 5//// 80116
BBXX PCDE 07183 99390 30504 41/98 80711 10178 20139 40262 52011 7//22 8//// 22223 2//// 322// 40605 80154
BBXX DBLK 07181 99419 30024 41698 72309 10074 20002 40290 52013 71582 878// 22252 04111 20503 322// 41107
BBXX DBBT 07181 99424 30114 46/// /2115 10072 21000 40209 52037 22251 00130
AAXX 07181 31152 NIL
AAXX 07181 31163 NIL
AAXX 07181 31285 42999 30000 11270 21309 30260 40348 57004 80008
AAXX 07181 31561 42998 03602 11165 21234 30245 40274 54000
AAXX 07181 31683 42699 60000 11137 21164 30139 40217 52002 82501
AAXX 07181 32010 41498 63205 11105 21118 30108 40158 57012 70281 82902 333 91007 91109
BBXX A8LG9 07184 99500 11735 41598 13144 10025 20001 49990 52070 70161 81500 22253 00020 2//// 3//// 4//12 5//// 80015
BBXX A8SI3 07183 99519 11651 43698 6//// 10000 21020 40140 57010 22214 00020 81020
BBXX SHIP 07184 99374 11756 41/// 91325 10130 20073 40156 52010 70311 89/// 22264 00190 80100
BBXX 44137 07181 99423 70620 46/// /2306 10132 40133 57023 22200 00112 10604 70021 333 91207
BBXX 44137 07181 99423 70620 46/// /2306 10132 40133 57023 22200 00112 10604 70021 333 91207
AAXX 07181 37661 42998 02001 10020 21023 39463 40239 52015 333 10080
AAXX 07181 37985 42596 41801 10035 20025 30235 40220 58004 84540 333 10089
AAXX 07181 37925 42997 00000 10048 20038 30247 40217 53003 333 10120 555 53003
AAXX 07181 37989 42996 60000 10071 20059 40233 52003 86030 333 10100
AAXX 07181 37851 42998 02503 10064 20030 30164 40237 52010 333 10108 91113
AAXX 07181 37740 42998 00901 10009 21011 39408 40233 52006 333 10078
AAXX 07181 37905 42997 00000 11017 21026 40225 54000 333 10015
AAXX 07181 37675 42995 02302 10023 21020 39524 40192 52002 333 10125 555 53002
AAXX 07181 37749 42998 00501 10012 21008 30144 40264 52008 333 10093 555 53004
AAXX 07181 37864 32597 31904 10057 20046 40223 50003 83500 333 10105
AAXX 07181 37735 42996 00000 11001 21038 39789 40176 52006 333 10092
AAXX 07181 37832 32997 02801 11016 21028 40228 52012 333 10101
AAXX 07181 37470 32996 03302 10069 20032 30197 40174 58008 333 10098
AAXX 07181 37472 31994 83003 11017 21024 30224 40201 56009 71011 8807/ 333 10090
AAXX 07181 38111 32997 01108 10006 21017 30279 40250 52005 333 10052
AAXX 07181 38750 32997 00202 10042 20011 30264 40235 52002 333 10117
AAXX 07184 71592 16/// /0611 11182 21247 30011 40024 53007 60001 333 11146 21189 70000
AAXX 07184 71490 17/// /3443 11154 21165 39545 49861 53021 69961 7//4/ 333 11152 21230 70016
AAXX 07184 71963 17/// /3240 11199 21217 39560 49970 53016 69931 7//4/ 333 11198 21234 70006
AAXX 07184 71923 16/// ///44 11203 21220 39458 49909 58016 60001 333 11203 21228 70000
AAXX 07184 71761 16/// ///// 11099 21172 60001 333 11070 21113 70000
AAXX 07184 71761 16/// ///// 11099 21172 60001 333 11070 21113 70000
AAXX 07184 71963 17/// /3240 11199 21217 39560 49970 53016 69931 7//4/ 333 11198 21234 70006
AAXX 07184 71592 16/// /0611 11182 21247 30011 40024 53007 60001 333 11146 21189 70000
AAXX 07184 71490 17/// /3443 11154 21165 39545 49861 53021 69961 7//4/ 333 11152 21230 70016
AAXX 07184 71923 16/// ///44 11203 21220 39458 49909 58016 60001 333 11203 21228 70000
BBXX MRGU3 07183 99124 10464 41597 20612 10255 20202 40160 58041 70200 82100 22265 04259 20401 30699 40301 5//// 80220
AAXX 07184 62771 32970 73409 10240 21010 39480 40124 333 80007 10305 56009 58000 87275
AAXX 07184 62772 32970 03105 10258 20150 39671 40100 333 10326 58011
AAXX 07184 62781 32970 70202 10225 20065 39489 40123 333 80007 10310 56009 58003 87275
AAXX 07184 62790 32970 70506 10230 21010 39395 40118 333 80007 10306 56009 59010 87275
AAXX 07184 62795 32970 73605 10290 20120 39585 40077 333 80007 10370 56009 58003 87275
AAXX 07184 62805 32970 73203 10280 20120 39536 40055 333 80007 10365 56009 59005 87275
AAXX 07184 62809 32970 73605 10244 20084 39603 40113 333 80007 10317 56009 58002 87275
AAXX 07184 62810 32970 70506 10270 20090 39/// 40/// 333 80007 10337 56009 5//// 87275
AAXX 07184 62771 32970 73409 10240 21010 39480 40124 333 80007 10305 56009 58000 87275
AAXX 07184 62772 32970 03105 10258 20150 39671 40100 333 10326 58011
AAXX 07184 62781 32970 70202 10225 20065 39489 40123 333 80007 10310 56009 58003 87275
AAXX 07184 62790 32970 70506 10230 21010 39395 40118 333 80007 10306 56009 59010 87275
AAXX 07184 62795 32970 73605 10290 20120 39585 40077 333 80007 10370 56009 58003 87275
AAXX 07184 62805 32970 73203 10280 20120 39536 40055 333 80007 10365 56009 59005 87275
AAXX 07184 62809 32970 73605 10244 20084 39603 40113 333 80007 10317 56009 58002 87275
AAXX 07184 62810 32970 70506 10270 20090 39/// 40/// 333 80007 10337 56009 5//// 87275
AAXX 07183 42131 32996 20901 10170 20150 40148 82030 333 58019
AAXX 07184 94210 35/// /2409 10268 30043 40048 57018
AAXX 07184 94289 46/// /3210 10286 30030 40037 56002 91815
AAXX 07184 94379 46/// /1813 10240 30024 40033 55001 91826
AAXX 07184 94290 46/// /3011 10284 30030 40039 55003 91824
AAXX 07181 23929 32679 82104 10020 21011 30156 40222 52003 885// 333 10028
AAXX 07181 28383 11997 01802 11075 21097 30265 40354 52007 69900 70271 333 11010
AAXX 07181 28465 32998 01903 11102 21122 30277 40359 52006 333 11036
AAXX 07181 28586 32997 02204 11099 21141 30239 40397 52004 333 11029
AAXX 07181 28588 32998 02303 11102 21155 30227 40396 52003 333 11040
AAXX 07181 28688 32997 02303 11110 21154 30246 40417 52003 333 11050
AAXX 07181 28696 32997 02203 11114 21142 30267 40417 52003 333 11042
AAXX 07181 28791 32998 02304 11123 21150 30268 40423 52003 333 11065
AAXX 07181 23426 32984 82104 11040 21074 30105 40129 52014 80001 333 10014
AAXX 07181 23625 32998 62001 11023 21042 30119 40153 52006 80006 333 10017
AAXX 07181 28076 32697 61901 11031 21038 30200 40273 52005 86500 333 11010
AAXX 07181 28367 32984 02003 11070 21103 30198 40332 54000 333 11006
AAXX 07181 28382 32998 31701 11075 21092 30279 40353 52011 80001 333 11019
AAXX 07181 28481 32997 02204 11088 21122 30264 40369 52007 333 11012
AAXX 07181 28491 32997 02302 11083 21111 30256 40372 52006 333 11020
AAXX 07181 28573 32997 02005 11119 21146 30273 40384 52013 333 11024
AAXX 07181 28593 32997 02103 11099 21125 30288 40393 52006 333 11033
AAXX 07181 28786 32997 02703 11106 21150 30259 40427 52004 333 11054
AAXX 07181 28797 32997 02402 11114 21142 30256 40424 58007 333 11075
AAXX 07181 28799 32997 02301 11136 21149 30277 40434 52007 333 11070
AAXX 07181 20046 NIL
AAXX 07181 20069 NIL
AAXX 07181 20087 41497 81506 11162 21188 30077 40088 53001 77173 8257/
AAXX 07181 20292 NIL
AAXX 07181 20353 46/// /1606 11053 21076 39955 49959 52005 333 91111
AAXX 07181 20667 32998 80601 11077 21087 39964 49971 52016 8805/ 333 11066
AAXX 07181 20674 41897 81808 11108 21114 39932 49992 56003 77173 8802/ 333 91113 92980
AAXX 07181 20744 11598 71205 11016 21046 39942 49960 52011 69920 70273 83530 333 11012
AAXX 07181 20891 42998 01203 11269 21293 30100 40144 57028 333 91104
AAXX 07181 23022 11496 82107 11019 21027 39946 40005 52011 60010 78583 8795/ 333 11015 91112
AAXX 07181 23032 11597 72307 11017 21038 39991 40021 51033 60010 73683 87500 333 11018 87631
AAXX 07181 23058 NIL
AAXX 07181 23242 11494 72713 11014 21022 30055 40070 52065 69920 73832 85530 333 11001 85614 91119
AAXX 07181 23256 11296 82514 11013 21018 30008 40043 52023 60040 73883 8567/ 333 10000 85704 91019 91120
AAXX 07181 23330 12997 02004 11040 21059 30085 40106 52019 69900 333 10011
AAXX 07181 23445 12997 02106 11026 21045 30123 40149 52037 60020 333 10015 91112
AAXX 07181 23552 12497 52406 10000 21030 30128 40162 52030 60010 85500 333 10017 85618 91114
AAXX 07181 23631 32998 81904 11026 21042 30122 40163 52010 86031 333 10005
AAXX 07181 23662 12598 82503 10007 21022 30149 40193 52024 69990 855// 333 10004 88624
AAXX 07181 23724 32998 81902 10002 21015 30097 40161 58002 80007 333 10026
AAXX 07181 23734 32698 81400 11016 21024 30113 40206 52014 885// 333 10012
AAXX 07181 23849 41496 82205 11020 21037 40261 52012 72222 8802/ 333 88514
AAXX 07181 23867 11496 82203 11020 21038 30209 40282 52018 69930 77173 8802/ 333 11010
AAXX 07181 23933 11997 81903 11001 21025 30185 40242 52007 69920 70272 8807/ 333 10012
AAXX 07181 28064 32598 82002 10013 21042 30162 40254 52005 885// 333 10025
AAXX 07181 28275 32997 02102 11048 21092 30256 40318 52008 333 11016
AAXX 07181 28493 32997 81602 11099 21107 30274 40372 52008 80001 333 11030
AAXX 07181 28698 32997 02201 11124 21144 30254 40420 52007 333 11047
AAXX 07184 94290 46/// /3011 10284 30030 40039 55003 91824
BBXX 44056 07181 99362 70757 46/// ///// 1//// 91750 22200 00145 11002 21002 308// 41101 70010
BBXX SHIP 07184 99100 31144 41/97 42114 40050 56021 70211 84/// 22242 00292 10219
AAXX 07181 55279 32980 02208 11014 21291 35717 52001 333 00151 10040
AAXX 07181 55472 32980 03203 11048 21238 35762 52007 333 00100 10049
AAXX 07181 55696 32980 00000 11025 21068 36377 52009 333 00100 10158
AAXX 07181 56079 32980 63401 11070 21099 36716 52001 86040 333 00000 10002
AAXX 07181 56106 32780 20000 11076 21189 36223 57001 82100 333 00353 10081
AAXX 07181 56257 32980 01101 11019 21086 36295 57001 333 00352 10109
AAXX 07181 56374 11480 80903 11026 21057 37491 57001 69901 70080 884// 333 00352 10016
AAXX 07181 56385 31/00 90000 11069 21070 37065 57005 74944 333 00251 11038
AAXX 07181 56954 32965 10000 10139 20139 40158 52002 81040 333 00153 10270
AAXX 07181 56966 32768 13402 10175 20151 40156 52005 81400 333 00052 10289
AAXX 07181 57237 32965 43205 10062 21034 40333 54000 84040 333 10092
AAXX 07181 57306 32965 83401 10087 20007 40325 57002 8807/ 333 10132
AAXX 07181 57604 32864 82201 10092 20065 40327 54000 885// 333 10101
AAXX 07181 57707 32463 83404 10024 20003 38591 52004 886// 333 00453 10060
AAXX 07181 57832 11663 80202 10047 20032 39569 40332 52003 69901 70060 885// 333 00500 10057
AAXX 07181 55228 32980 02705 11058 21263 36053 52007 333 00101 10019
AAXX 07181 55578 32980 02203 10076 21246 36386 52009 333 00151 10151
AAXX 07181 55664 32980 03601 11044 21186 36043 52003 333 00101 10106
AAXX 07181 55773 32370 80000 11058 21065 36046 52002 886// 333 00100 10101
AAXX 07181 56116 32980 00000 11048 21122 36357 54000 333 00351 10110
AAXX 07181 56137 32980 00000 11022 21167 36808 52007 333 00552 10157
AAXX 07181 56172 32980 00000 11012 21042 37381 52003 333 00253 10135
AAXX 07181 56247 32980 00701 10062 21078 37439 52010 333 00300 10188
AAXX 07181 56312 32680 82201 10062 21032 37112 57002 884// 333 00100 10150
AAXX 07181 56462 32680 13202 11009 21036 37170 52001 81102 333 00100 10147
AAXX 07181 56651 32680 42002 10071 20016 37667 52002 84400 333 00152 10157
AAXX 07181 56691 11363 83604 11012 21020 37842 52004 69911 76666 887// 333 00353 10024 93427
AAXX 07181 56985 32962 01802 10151 20111 38736 40155 52001 333 00102 10249
AAXX 07181 57633 11462 80201 10053 20036 39538 40342 52004 69921 76066 887// 333 00500 10067
AAXX 07181 57902 11462 80402 10065 20062 38708 40281 52004 69961 70060 886// 333 00557 10135
AAXX 0718/ 48969 NIL
AAXX 0718/ 48962 NIL
AAXX 0718/ 48990 NIL
AAXX 0718/ 48986 NIL
AAXX 0718/ 48995 NIL
AAXX 0718/ 48967 NIL
AAXX 0718/ 48992 NIL
AAXX 0718/ 48965 NIL
AAXX 0718/ 48985 NIL
AAXX 0718/ 48970 NIL
AAXX 0718/ 48991 NIL
AAXX 0718/ 48964 NIL
AAXX 0718/ 48997 NIL
AAXX 0718/ 48968 NIL
AAXX 0718/ 48973 NIL
AAXX 0718/ 48966 NIL
AAXX 0718/ 48983 NIL
AAXX 0718/ 48972 NIL
AAXX 0718/ 48998 NIL
AAXX 0718/ 48993 NIL
AAXX 0718/ 48971 NIL
AAXX 0718/ 48963 NIL
AAXX 0718/ 48987 NIL
AAXX 07181 13492 NIL
AAXX 07181 13584 NIL
AAXX 07181 13585 12998 00302 10032 20015 39374 40179 52012 69972 333 10099 94009
AAXX 07181 13597 42998 03605 10092 21006 30071 40142 51008 333 10120 94000
AAXX 07181 13598 42998 01101 11010 21019 48441 52005 333 10068 94000
AAXX 07184 71277 46/// /2709 11096 21172 6///1 333 11058 21113 7////
AAXX 07184 71048 17/// /3015 11066 21111 69941 7//4/ 333 11018 21071 70004
AAXX 07184 71354 16/// /3117 11088 21162 60001 333 11049 21104 70000
AAXX 07184 71406 16/// /0714 11047 21062 30176 40186 56020 60001 333 11047 21069 70007
AAXX 07184 71418 46/// /1117 10039 20031 30061 40093 55030 6///1 333 10047 20034 7////
AAXX 07184 71981 17/// /0207 11060 21075 60011 7//4/ 333 11031 21060 70010
AAXX 07184 71982 17/// /3610 11061 21084 69951 7//4/ 333 11032 21065 70005
AAXX 07184 71986 17/// /3514 11075 21092 69991 7//4/ 333 11020 21076 70009
AAXX 07184 71990 17/// /2209 11180 21201 38637 40314 56004 69931 7//4/ 333 11158 21190 70006
AAXX 07184 71354 16/// /3117 11088 21162 60001 333 11049 21104 70000
AAXX 07184 71406 16/// /0714 11047 21062 30176 40186 56020 60001 333 11047 21069 70007
AAXX 07184 71418 46/// /1117 10039 20031 30061 40093 55030 6///1 333 10047 20034 7////
AAXX 07184 71277 46/// /2709 11096 21172 6///1 333 11058 21113 7////
AAXX 07184 71048 17/// /3015 11066 21111 69941 7//4/ 333 11018 21071 70004
AAXX 07184 71981 17/// /0207 11060 21075 60011 7//4/ 333 11031 21060 70010
AAXX 07184 71982 17/// /3610 11061 21084 69951 7//4/ 333 11032 21065 70005
AAXX 07184 71986 17/// /3514 11075 21092 69991 7//4/ 333 11020 21076 70009
AAXX 07184 71990 17/// /2209 11180 21201 38637 40314 56004 69931 7//4/ 333 11158 21190 70006
AAXX 07184 87320 11670 60000 10296 20146 39578 40096 57041 69901 70262 84150 333 56110 84840 82360
OOXX AAERI 07184 99849 51288 60048 09901 46/// /0727 11080 21099 38702 49812 52007 91750
OOXX AAERC 07184 99815 31639 60713 00451 46/// /2012 11034 21056 39701 49756 5//// 91750
OOXX AAVIT 07184 99785 31778 57087 00501 46/// /1610 11078 21102 39681 49743 52015 91750
AAXX 07184 89257 46/// /2106 11109 21134 39775 49846 5//// 91800
AAXX 07184 89272 46/// /0411 11075 21119 37987 49585 5//// 91800
OOXX AAMIZ 07184 99707 30443 58304 22602 46/// /2504 11135 2//// 37356 49543 5//// 91750
OOXX AAPEG 07184 99779 31666 57186 00051 46/// /1618 11037 21069 39746 49752 5//// 91800
OOXX AAKOM 07184 99795 51121 56392 18332 46/// /0310 11149 21203 37786 49674 52005 91750
OOXX AAEMI 07184 99785 31731 57083 00521 46/// /1707 11072 21116 39715 49780 5//// 91800
OOXX AALAU 07184 99775 31708 57070 00371 46/// /2118 11070 21080 39690 49736 5//// 91750
OOXX AABRI 07184 99839 51342 60134 05251 46/// /0613 11066 21163 39201 49820 5//// 91750
AAXX 07181 80001 32470 40301 10290 20232 30119 40120 83230 333 5620/ 58011 83818
AAXX 07181 80002 NIL
AAXX 07181 80009 11560 71302 10270 20237 30093 40098 69901 75122 83974 333 56500 57921 58014 83920 85358
AAXX 07181 80022 01458 80802 10274 20248 30096 40098 60011 75552 83451 333 56190 58003 60017 83812 85457
AAXX 07181 80028 31460 70203 10291 20235 30072 40107 70522 83535 333 56199 58013 83615 85270
AAXX 07181 80035 01465 70000 10254 20240 30102 40107 60091 75152 84270 333 5602/ 57811 58016 60097 83818 87458
AAXX 07181 80036 31468 50502 10313 20231 70500 81238 333 56000 57992 81815 83270
AAXX 07181 80063 31566 73203 10278 20243 70522 83410 333 5600/ 83620 85460
AAXX 07181 80084 11325 80000 10232 20224 60261 76365 8551/ 333 5609/ 85607 88457
AAXX 07181 80091 11465 70402 10276 20231 69921 70552 84230 333 5690/ 57853 84815 83360
AAXX 07181 80094 01357 82103 10198 20189 38800 60011 72055 8687/ 333 5659/ 58014 69967 86808
AAXX 07181 80097 NIL
AAXX 07181 80099 31440 83502 10246 20243 39912 40054 76122 8583/ 333 5699/ 58022 85810 83457
AAXX 07181 80110 01563 81003 10225 20148 38497 69921 71655 8427/ 333 5600/ 57893 58007 69927 84830 86358
AAXX 07181 80112 21570 70304 10183 20122 37890 71522 85271 333 56100 57893 58006 85820 83358
AAXX 07181 80139 NIL
AAXX 07181 80144 11456 72004 10276 20231 69911 70552 85270 333 5600/ 85815 87358
AAXX 07181 80149 NIL
AAXX 07181 80210 31465 52701 10242 20184 38670 70522 84231 333 56900 57891 58007 84816
AAXX 07181 80211 31458 70000 10240 20176 71542 84270 333 5683/ 57883 84820 84359
AAXX 07181 80214 01440 81303 10227 20223 39108 69921 79596 8697/ 333 5650/ 57911 58012 69927 81910 85815
AAXX 07181 80222 31562 72902 10178 20103 37500 71522 8425/ 333 5699/ 57893 58006 81610 83815 85357
AAXX 07181 80234 11459 80902 10240 20210 39605 40100 60011 71522 8457/ 333 5629/ 58028 84617 85458 80241 NIL
AAXX 07181 80259 31560 51602 10280 20195 39040 70522 84830 333 5636/ 58006 84820 83360
AAXX 07181 80315 11564 41902 10282 20201 39577 40076 60031 70152 83150 333 5644/ 58012 83825
AAXX 07181 80342 32568 53603 10208 20160 38201 84830 333 5631/ 58004 84823
AAXX 07181 80370 32570 61204 10164 20096 84850 333 5633/ 84820
AAXX 07181 80398 01470 70000 10276 20239 30000 40095 69921 72052 83870 333 5633/ 59013 69927 83815 87458
BBXX 45143 07181 99449 70806 46/// /2507 10009 39892 40109 57026 22200 00076 10401 70007 333 91209
BBXX 45143 07181 99449 70806 46/// /2507 10009 39892 40109 57026 22200 00076 10401 70007 333 91209
AAXX 07184 89657 46/// /1000 11020 20137 49783 52002
BBXX 42360 07181 99267 70905 46/// /3312 10147 91800 22200 00252 10807 70033 333 91217
BBXX 42023 07181 99261 70831 46/// /1903 1//// 91830 333 91204
BBXX 42023 07181 99261 70831 46/// /1903 1//// 91800 333 91204
AAXX 07184 89013 46/// /0914 11245 21290 37571 49618 52001 91750
AAXX 07184 89065 46/// /3402 11000 21037 39648 49724 5//// 91800
AAXX 07184 89108 46/// ///02 11189 36880 4//// 52001 91750
AAXX 07184 89257 46/// /2106 11108 21134 39776 49847 5//// 91750
AAXX 07184 89262 46/// /1820 11024 21041 39713 49756 5//// 91800
AAXX 07184 89266 46/// /1712 11086 21103 39691 49831 5//// 91800
AAXX 07184 89272 46/// /0512 11075 21119 37987 49585 5//// 91750
AAXX 07184 89314 46/// /0816 11091 38153 4//// 5//// 91800
AAXX 07184 89329 46/// /0215 11095 38673 49735 5//// 91750
AAXX 07184 89332 46/// /0509 11055 39124 49728 52005 91750
AAXX 07184 89345 46/// /0406 11059 38783 49479 52016 91750
AAXX 07184 89376 46/// /1406 11094 39671 49739 5//// 91750
AAXX 07184 89667 46/// /1618 11037 39746 49756 5//// 91800
AAXX 07184 89734 46/// /1704 11353 35896 4//// 5//// 91800
AAXX 07184 89744 46/// /0000 11328 36278 4//// 5//// 91800
AAXX 07184 89769 46/// /1816 11056 39687 49739 5//// 91750
AAXX 07184 89799 46/// /1407 11266 36677 4//// 52002 91750
AAXX 07184 89828 46/// /1102 11398 36366 4//// 5//// 91750
AAXX 07184 89832 46/// /0713 11084 39412 49707 57024 91750
AAXX 07184 89834 46/// /1319 11188 37977 4//// 57016 91750
AAXX 07184 89865 46/// /0000 1//// 3//// 4//// 5//// 91800
AAXX 07184 89866 46/// /0000 11030 39618 49749 5//// 91800
AAXX 07184 89869 46/// /2009 11054 39673 49751 5//// 91750
AAXX 07184 89872 46/// /2117 11050 39679 49734 52011 91750
AAXX 07184 89873 46/// /1620 11047 39677 49753 5//// 91750
AAXX 07184 89879 46/// ///01 11010 39646 49682 5//// 91750
BBXX A8UL5 07183 99338 30286 41798 72118 10220 20183 40103 52030 70322 8481/ 22224 20303 305// 40405 5//// 80195
BBXX MGSM3 07184 99159 11319 41597 70730 10280 20250 40049 57016 70020 87400 22233 04290 20705 30910 41004 51204 80250
BBXX PHHD 07181 99304 70763 41296 61911 10241 20199 40168 58020 7//// 857// 22213 04210 20202 30000 80212
BBXX 41053 07181 99185 70661 46/// /0606 10275 40105 91830 333 91207
BBXX 41053 07181 99185 70661 46/// /0706 10275 40107 91820 333 91207
BBXX 41053 07181 99185 70661 46/// /0705 10275 40108 91810 333 91208
BBXX 41052 07181 99183 70648 46/// /0706 10278 40100 91830 333 91208
BBXX 41052 07181 99183 70648 46/// /0706 10277 40101 91820 333 91208
BBXX 41052 07181 99183 70648 46/// /0706 10277 40102 91810 333 91208
BBXX 42085 07181 99179 70665 46/// /1108 10283 40096 91830 333 91210
BBXX 42085 07181 99179 70665 46/// /1108 10283 40097 91820 333 91210
BBXX 42085 07181 99179 70665 46/// /1108 10283 40098 91810 333 91209
BBXX 44024 07181 99423 70659 46/10 /2005 10111 40099 58021 91804 22200 00099 11103 70016 333 91206 555 11066 22074
AAXX 07184 83925 32295 80718 10200 20191 40098 57014 7162/ 8887// 222// 20803 80194
AAXX 07184 83970 41397 10305 10250 20208 30110 40114 54000 7010/ 81100 222// 02230 20401 80220
AAXX 07184 83437 32599 33604 10302 20166 39369 40073 83201 333 58000
AAXX 07184 83579 21599 73603 10238 20187 39000 40103 70362 87700 333 58010 60061
AAXX 07184 83592 32597 63605 10279 20207 39432 40102 84222 333 59007
AAXX 07184 83811 32597 72702 10308 20175 39201 40077 58026 84490
AAXX 07184 83844 32597 505// 10267 20224 30102 40109 56012 82260
AAXX 07184 83887 21597 80906 10206 20176 39072 40110 57014 70396 885// 333 60101
AAXX 07184 83907 21497 71407 10245 20217 39826 40104 58010 71796 87900 333 60151
AAXX 07184 83914 21596 80504 10243 20177 39336 40091 57017 71752 8392/ 333 69901
AAXX 07184 83919 21596 62707 10224 20178 38963 40132 54000 71596 84830 333 60031
AAXX 07184 83927 32997 50902 10332 20204 30008 40078 57003 85200
AAXX 07184 83936 32497 42303 10328 20200 39980 40098 57012 84200
AAXX 07184 83948 21594 63204 10235 20201 30099 40105 56010 72996 8497/ 333 60021
AAXX 07184 83964 31596 41802 10308 20156 39618 40092 57014 70500 82201
AAXX 07184 83995 32597 21410 10244 20190 30123 40126 54000 82200
AAXX 07184 83270 31898 50000 10298 20237 39619 40096 72990 81038 333 59001
AAXX 07184 83309 31595 60000 10344 20252 39754 40070 70511 82352 333 59006
AAXX 07184 83319 21797 63205 10316 20248 39729 40096 70352 83235 333 58004 69921
AAXX 07184 83405 32597 5//// 10340 20259 39911 40041 85200 333 58003
AAXX 07184 83384 32597 40901 10332 20178 39518 40086 83270 333 59010
AAXX 07184 83386 32598 20905 10311 20182 39548 40069 81244 333 58001
AAXX 07184 83388 32497 51404 10306 20180 39396 40050 85200 333 59010
AAXX 07184 83393 32599 31404 10282 20155 39388 40098 82209 333 58001
AAXX 07184 83442 32597 20502 10318 20204 39734 40068 81262 333 58010
AAXX 07184 83479 32598 50508 10293 20166 39306 40094 85200 333 59001
AAXX 07184 83483 32598 50504 10322 20191 39519 40069 83216 333 58004
AAXX 07184 83531 21597 83602 10220 20199 39074 40103 72162 886// 333 59001 60011
AAXX 07184 83538 32497 80509 10243 20154 38694 40062 83407 333 58004
AAXX 07184 83574 32594 50902 10298 20212 39556 40156 5//// 85060
AAXX 07184 83582 32597 83601 10238 20205 39352 40116 57012 88700
AAXX 07184 83595 21597 60502 10290 20248 30031 40115 70366 84250 333 58007 60081
AAXX 07184 83692 32699 60502 10238 20199 39106 40130 58007 86200
BBXX TBWUK48 07183 99218 10680 41997 03107 10220 20153 40134 54000 70200 80000 22234 04270 20802 327// 40701 80180
BBXX MRGU3 07183 99124 10464 41597 20612 10255 20202 40160 58041 70200 82100 22265 04259 20401 30699 40301 5//// 80220
BBXX ONFP 07184 99321 30020 43593 71524 10160 2009/ 40290 52020 70322 87842 22233 04170 20605 31818 40707 50706 6//// 80120 ICE /////
BBXX WRAH 07184 99261 10548 41498 33409 10230 2//// 40153 51002 7//10 828// 22224 00266 20402 3//// 4//// 5//// 6//// 8//// ICE /////
AAXX 07184 65055 32960 70000 10250 20230 30418 40093 80008 333 10335 58008 87280
AAXX 07184 65101 32965 70305 10300 20156 39703 40087 80008 333 10360 58004 87280
AAXX 07184 65112 32970 72504 10305 20106 3//// 4//// 80008 333 10362 5//// 87280
AAXX 07184 65125 32960 71102 10282 20100 30715 40118 80008 333 10364 58003 87280
AAXX 07184 65203 31957 71805 10281 20231 3//// 4//// 70522 80008 333 10320 5//// 87280
AAXX 07184 65222 31958 71802 10285 20219 3//// 4//// 70522 80008 333 10340 5//// 87280
AAXX 07184 65236 32965 72702 10287 20240 30000 4//// 80008 333 10347 5//// 87280
AAXX 07184 65264 32960 52004 10294 20237 30020 40091 80008 333 10332 58017 85280
AAXX 07184 65271 11958 70000 10284 20170 30990 40088 60001 70522 80008 333 10354 59010 87280
BBXX WDC 07184 99435 70876 41/97 92811 11030 40135 70222 22243 01040
BBXX ONFP 07184 99321 30020 43593 71524 10160 2009/ 40290 52020 70322 87842 22233 04170 20605 31818 40707 50706 6//// 80120 ICE /////
BBXX WRAH 07184 99261 10548 41498 33409 10230 2//// 40153 51002 7//10 828// 22224 00266 20402 3//// 4//// 5//// 6//// 8//// ICE /////
BBXX 9V7645 07184 99127 70919 417// 30504 10285 20244 40105 56005 70000 83183 22234 00290 20202 33232 40202 50102 6//// 80255 ICE /////
BBXX 45143 07181 99449 70806 46/// /2507 10009 39892 40109 57026 22200 00076 10401 70007 333 91209
BBXX WQZ7791 07184 99420 70816 41/98 /0000 11177 2//// 40000 56000 70100 8//// 222// 0//// 2//00 3//// 4//// 5//// 6//// 8//// ICE /////
BBXX 42023 07181 99261 70831 46/// /1903 1//// 91800 333 91204
BBXX 42023 07181 99261 70831 46/// /1903 1//// 91830 333 91204
BBXX 42360 07181 99267 70905 46/// /3312 10147 91800 22200 00252 10807 70033 333 91217
BBXX 44056 07181 99362 70757 46/// ///// 1//// 91750 22200 00145 11002 21002 308// 41101 70010
BBXX SHIP 07184 99478 71455 41798 81717 10100 2008/ 40385 57010 70252 88620 22274 00170 20202 320// 40604 5//// 6//// 80090 ICE /////
BBXX 44137 07181 99423 70620 46/// /2306 10132 40133 57023 22200 00112 10604 70021 333 91207
BBXX WDE2719 07183 99607 71514 41/97 80425 11039 2//// 40180 57/// 702// 8//// 222// 01006 2//01 333// 4//01 5//// 6//// 8//// ICE /////
BBXX 46224 07181 99332 71175 46/// ///// 1//// 91806 22200 00155 11401 21001 322// 41401 70005
BBXX 46214 07181 99379 71235 46/// ///// 1//// 91827 22200 00118 11402 20701 328// 41402 70011
BBXX 46219 07181 99332 71199 46/// ///// 1//// 91828 22200 00139 11302 20901 330// 41301 70009
BBXX 44060 07181 99413 70721 46/// ///01 10121 40062 91830 22200 00125 333 91202 555 11010 22010
BBXX 44022 07181 99409 70737 46/// ///02 10106 20100 40061 91830 22200 00113 333 91203 555 11015 22015
BBXX 44040 07181 99410 70736 46/// /0201 10106 20106 40068 91819 22200 1//00 70000 333 91203 555 11015 22015
BBXX 46238 07181 99334 71195 46/// ///// 1//// 91820 22200 00151 11301 21001 329// 41301 70007
BBXX 46239 07181 99363 71221 46/// ///// 1//// 91821 22200 00130 11202 20802 330// 41201 70011
BBXX 9V7645 07184 99127 70919 417// 30504 10285 20244 40105 56005 70000 83183 22234 00290 20202 33232 40202 50102 6//// 80255 ICE /////
BBXX DEDM 07184 99503 70313 41/96 82336 10115 20106 40085 57030 75052 84720 22263 04130 20604 323// 41005 80110
AAXX 07181 31152 42997 82003 11306 21366 39941 40401 57008 8802/
AAXX 07181 47008 42570 63208 11030 21122 30197 40253 52003 86500
AAXX 07181 47014 42950 40000 11146 21173 39877 40312 53005 84040
AAXX 07181 47016 11570 60000 11092 21155 39375 40263 53012 69901 72272 86500
AAXX 07181 47020 42565 63203 11064 21109 39895 40290 53011 86500
AAXX 07181 47025 11540 83607 11019 21021 30220 40250 53002 60051 77177 8802/
AAXX 07181 47035 42970 03602 11061 21105 30279 40288 54000
AAXX 07181 47041 41560 20000 11012 21030 30197 40225 54000 71042 82500
AAXX 07181 47055 42965 70000 10027 21042 30183 40229 57003 87030
AAXX 07181 47058 42960 23203 11015 21052 30213 40262 54000 80002
AAXX 07181 47069 41656 73405 10019 21025 30145 40247 58004 71022 87502
AAXX 07181 47003 42980 83604 11067 21133 30276 40280 52013 81032
AAXX 07181 47005 42980 81401 11169 21181 38603 57002 8803/
AAXX 07181 47022 11475 80000 11110 21123 38836 57008 69911 70372 82502
AAXX 07181 47028 42962 03202 11047 21103 30182 40281 58004
AAXX 07181 47031 42970 00000 11125 21131 38937 58006
AAXX 07181 47037 42970 03202 11035 21083 30136 40264 53002
AAXX 07181 47039 42560 82901 11022 21069 30050 40247 54000 885//
AAXX 07181 47046 11550 80509 10009 21005 30204 40227 53002 69901 77072 8753/
AAXX 07181 47050 42965 00000 11020 21066 30222 40257 52005
AAXX 07181 47052 42965 00000 11040 21059 39909 40260 57004
AAXX 07181 47060 41950 43605 10000 21024 30197 40257 53002 71022 84010
AAXX 07181 47061 42680 80000 10027 20000 30181 40225 54000 885//
AAXX 07181 47065 41540 83203 10001 21023 30194 40261 58002 71022 885//
AAXX 07181 47067 41950 80000 10006 21017 30141 40264 57002 71022 8801/
AAXX 07181 47068 42560 83604 10017 21034 30218 40254 54000 87502
AAXX 07181 47070 41560 83203 10022 21008 30157 40246 57003 71022 885//
AAXX 07181 47075 42970 80000 11014 21025 39729 40167 57008 8805/
AAXX 07181 45032 36/// /3403 10205 20153 30149 40166 54000
AAXX 07181 45035 36/// /3305 10201 20164 30127 40169 52001
AAXX 07181 45039 36/// /3403 10210 20156 30148 40162 57001
AAXX 07181 45044 36/// /0010 10200 20168 30059 40151 57001
AAXX 07181 45032 36/// /3403 10205 20153 30149 40166 54000
AAXX 07181 45035 36/// /3305 10201 20164 30127 40169 52001
AAXX 07181 45039 36/// /3403 10210 20156 30148 40162 57001
AAXX 07181 45044 36/// /0010 10200 20168 30059 40151 57001
BBXX ONDE 07183 99361 11410 41998 33510 10110 20092 40110 56010 7//11 83/69 22200 00170 20503 335// 4//// 5//// 6//// 80100 ICE /////
BBXX PBOF 07183 99338 11288 41/97 83318 10120 20051 40200 54000 76062 8//// 22263 04220 2//// 80085 90078
BBXX UGOS 07181 99538 11438 41/// /3518 11060 40133 54000 77072 22282 00005 20604 30300 41307 61100
BBXX UIFC 07181 99367 11311 41/97 91008 10111 40242 54000 70220 22253 00149 20201 30400 40302
AAXX 07181 31152 42997 82003 11306 21366 39941 40401 57008 8802/
BBXX 3FHX2 07183 99345 11301 41/98 90114 10110 20070 40195 55000 75801 89/// 22200 00/// 2////
BBXX VVPG 07183 99191 10726 41798 43406 10280 20264 40102 51005 70201 84021 22200 00/// 2////
BBXX A80K4 07183 99058 10883 41597 30607 10270 20243 40000 51010 70222 82117 22264 00/// 2//// 80250
BBXX VRGW2 07184 99015 11029 41298 50614 10270 20257 40111 58012 70322 8/212 22234 04300 20501 80261
BBXX VRBQ6 07184 99236 11266 41598 30611 10250 20222 40164 54000 70110 83/// 22214 00260 2//// 80230
BBXX DQXQ 07184 99285 11223 41/97 83422 10143 20126 40190 54000 70262 88/2/ 22243 00180 299// 80133
BBXX DQVN 07183 99297 11225 41/98 /3217 10150 20133 40190 51010 76366 8//// 22200 00170 20402 80140
BBXX DDDI2 07184 99035 10920 41/98 60216 10290 20249 40090 52015 71311 8//// 22254 04300 2//// 80260
BBXX 9VMB6 07183 99363 10153 41897 43021 10180 20130 40240 54/// 7//11 81/86 22273 04220 20703 80150
BBXX 9VDD2 07184 99504 71484 41497 81819 10085 20060 40265 57040 70222 88/2/ 22274 06050 20403 320// 40704 80070
BBXX DDYZ2 07184 99138 10547 41597 40526 10245 20217 40155 52010 70311 82444 22264 04270 20302 304// 40506 80225
AAXX 07184 89646 46/// /0103 11336 29071 37492 4//// 5////
AAXX 07184 89648 46/// /2309 11339 29069 37052 4//// 5////
AAXX 07184 89659 46/// /3218 11283 29069 37554 4//// 5////
AAXX 07184 89661 46/// /0603 11058 29037 39125 4//// 5////
AAXX 07184 89666 46/// /1710 11034 29083 39564 4//// 5////
AAXX 07184 71974 46/// /2609 11265 21289 30174 40219 51011 6///1 333 11246 21277 7////
AAXX 07184 71013 17/// ///// 11077 21116 60011 7//4/ 333 11035 21084 70015
AAXX 07184 71060 17/// /1003 11102 21109 38723 40343 51009 69981 7//4/ 333 11047 21102 70008
AAXX 07184 71073 17/// /0213 11065 21075 60011 7//4/ 333 11032 21065 70010
AAXX 07184 71817 12974 32702 11103 21146 30207 40221 57015 60001 81041 333 70000
AAXX 07184 71848 17/// ///// 11044 21053 60011 7//4/ 333 11020 21045 70012
AAXX 07184 71495 16/// /0411 11087 21100 60001 333 11045 21087 70000
AAXX 07184 71793 16/// ///// 11072 21138 60001 333 11039 21085 70000
AAXX 07184 71399 16/// ///// 11075 21112 60001 333 11029 21077 70000
AAXX 07184 71565 17/// /2915 11091 21133 69971 7//4/ 333 11046 21091 70007
AAXX 07184 71566 16/// /3011 11087 21172 60001 333 11040 21103 70004
AAXX 07184 71567 46/// /3014 11102 21161 6///1 333 11065 21139 7////
BBXX 46004 07181 99509 71361 46/// /2508 10075 40353 52009 22200 00080 11204 70021 333 91211
BBXX 46036 07181 99484 71339 46/// /3006 10086 40370 52008 22200 00087 10904 70020 333 91207
BBXX 9VDD2 07184 99504 71484 41497 81819 10085 20060 40265 57040 70222 88/2/ 22274 06050 20403 320// 40704 80070
BBXX KS098 07184 99446 71240 43/// /2506 10040 40304 22200 06000
BBXX SHIP 07184 99478 71455 41798 81717 10100 20080 40385 57010 70252 88620 22274 00170 20202 320// 40604 5//// 6//// 80090 ICE /////
BBXX WABS 07184 99374 71243 41498 53513 10133 20093 40270 52003 70311 851// 22273 0//// 20402 333 // 40605 5//// 6//// 80111 ICE /////
AAXX 07184 71974 46/// /2609 11265 21289 30174 40219 51011 6///1 333 11246 21277 7////
AAXX 07184 71848 17/// ///// 11044 21053 60011 7//4/ 333 11020 21045 70012
AAXX 07184 71399 16/// ///// 11075 21112 60001 333 11029 21077 70000
AAXX 07184 71013 17/// ///// 11077 21116 60011 7//4/ 333 11035 21084 70015
AAXX 07184 71060 17/// /1003 11102 21109 38723 40343 51009 69981 7//4/ 333 11047 21102 70008
AAXX 07184 71793 16/// ///// 11072 21138 60001 333 11039 21085 70000
AAXX 07184 71817 12974 32702 11103 21146 30207 40221 57015 60001 81041 333 70000
AAXX 07184 71073 17/// /0213 11065 21075 60011 7//4/ 333 11032 21065 70010
AAXX 07184 71495 16/// /0411 11087 21100 60001 333 11045 21087 70000
AAXX 07184 71565 17/// /2915 11091 21133 69971 7//4/ 333 11046 21091 70007
AAXX 07184 71566 16/// /3011 11087 21172 60001 333 11040 21103 70004
AAXX 07184 71567 46/// /3014 11102 21161 6///1 333 11065 21139 7////
AAXX 07184 68587 36/// /2209 10209 20188 30076 40088 52026 333 10239 20209 91015 555 91008
BBXX 46232 07181 99325 71174 46/// ///// 1//// 91808 22200 00145 11301 20901 325// 41301 70006
BBXX 46241 07181 99330 71173 46/// ///// 1//// 91811 22200 00144 11301 21001 325// 41301 70005
BBXX C60M8 07180 99360 70151 41/98 80908 10180 20136 40297 57/// 70222 8/727 22253 04183 20805 335// 40905 5//// 80155
BBXX 46216 07181 99343 71198 46/// ///// 1//// 91827 22200 00148 11401 21001 325// 41401 70004
BBXX 46223 07181 99335 71178 46/// ///// 1//// 91830 22200 00155 11501 21001 319// 41501 70004
BBXX 46231 07181 99327 71174 46/// ///// 1//// 91824 22200 00157 11401 21001 322// 41401 70005
BBXX 46222 07181 99336 71183 46/// ///// 1//// 91826 22200 00155 11201 20401 325// 41201 70004
BBXX 46242 07181 99332 71174 46/// ///// 1//// 91826 22200 00151 11401 20401 322// 41401 70004
BBXX BATFR04 07184 99595 70112 46/// /3510 10034 21003 49988 22252 00102
BBXX 64045 07184 99591 70117 46/// /2715 10056 21003 49992 52015 22200 00101 10911 70055 333 90710 91128
BBXX MINUK05 0718/ 99587 70034 46/// ///// 10073 49975 52021
BBXX 62112 07184 99584 70002 47498 /2909 10051 20001 49973 52034 700// 22200
BBXX 62113 07184 99584 10002 47699 /3112 10083 21032 49965 52035 700// 22200
BBXX 62129 07184 99584 10003 46/// ///// 10064 21037 49965 52037 22200
BBXX 62114 07184 99583 10000 46/// /2915 10065 21019 49970 52035 22200
BBXX PJAI 07184 99581 70014 47598 /2919 10072 20009 49987 53038 700// 22200
BBXX 62111 07184 99580 70003 46/// /3419 10054 20010 49984 51045 22200 10705 70024
BBXX AMOUK27 07184 99579 70052 46/// ///// 10032 20012 30017 40020 52028 91750
BBXX 62117 07184 99579 10000 47598 /2816 10065 20018 49974 52042 700// 22200 10704 70020
BBXX MINUK01 0718/ 99571 70021 46/// ///// 10040 40025 52050
BBXX BATUK01 07184 99560 70032 46/// /2604 10032 21018 40046 51041 22200 00047
BBXX 62105 07184 99554 70122 46/// /2922 10083 20043 40094 50002 22200 00109 10811 70057 333 90710 91136
BBXX MGSG6 07183 99539 10003 41598 13047 10060 20009 40053 52040 70100 81100 22281 04128 20407 330// 40508 5//// 80040
BBXX AMOUK14 07184 99536 70042 46/// ///// 10080 20010 30089 40121 52043 91750
BBXX BATFR54 07184 99535 70039 46/// /2731 10082 20022 40134 53033 22232 00102
BBXX AMOUK02 07184 99535 70030 46/// ///// 10076 20015 30081 40114 52006 91750
BBXX AMOUK11 07184 99533 70050 46/// ///// 10079 20023 30078 40121 52010 91750
BBXX AMOUK12 07184 99533 70046 46/// ///// 10080 20021 30107 40151 52035 91750
BBXX 62095 07184 99530 70159 46/// /2215 10098 20074 40132 57027 22200 00118 10909 70047
BBXX 62301 07184 99524 70047 46/// /2821 10089 20034 40162 53024 22200 00112 10606 70031 333 90710 91130
BBXX AMOUK16 07184 99522 70061 46/// ///// 10076 20027 30162 40164 52012 91750
BBXX 62094 07184 99517 70067 46/// /2820 10097 20041 40188 51028 22200 00116 10505 70025 333 90710 91127
BBXX 62303 07184 99516 70051 46/// /3021 10102 20043 40176 50020 22200 00121 10707 70033 333 90710 91129
BBXX 62023 07183 99514 70079 46/97 /2719 10098 2//// 40202 5//// 22200 10605 70027 555 70050 80003 91129
BBXX 62092 07184 99512 70105 46/// /2716 10111 20060 40202 51011 22200 00121 11012 70062
BBXX 62081 07184 99510 70134 46/// ///// 10110 20084 40200 57004 22200 00121 10910 70050
BBXX TESTFR9 07184 99508 70011 46/// /2937 10080 29060 40175 52013 22283
BBXX AMOUK06 07184 99507 70014 46/// ///// 10091 20017 30154 40171 52028 91750
BBXX 62305 07184 99504 10000 46/98 /3037 10102 20022 40175 52032 22200 00131 10705 70024 333 90710 91147
BBXX BATEU06 07184 99501 70160 46/// /2424 10119 20074 40207 57002 22223 00134
BBXX AMOUK08 07184 99501 70061 46/// ///// 10118 20068 30205 40206 52020 91750
BBXX DGWD2 07183 99501 70019 41/98 /2933 10105 20032 40172 52045 70222 8//// 22263 00130 2//// 80070
BBXX BATFR02 07184 99500 70006 46/// /2931 10104 20032 40191 22244 00139
BBXX BATFR03 07184 99498 70005 46/// /3129 10107 20024 40178 22283
BBXX DHEE 07183 99495 70083 41/98 32822 10120 20039 40230 52030 70211 8//// 22253 00130 2//// 80080
BBXX BATFR60 07184 99495 70036 46/// /2827 10114 20059 40211 53018 22213 00125
BBXX BATFR27 07184 99494 70036 46/// /3027 10110 20054 40210 51067 22245 00137
BBXX 62027 07184 99491 70022 46/// /3323 1//// 2//// 40209 52031 22200 00133 11106 330// 70032 333 90710 91130
BBXX 62442 07184 99490 70164 46/// /2419 1//// 2//// 40234 55004 22200 00132
BBXX BATEU01 07184 99488 70213 44596 72528 10139 20109 40199 56019 70022 872// 22264 00124 21006 32529 41006 51504
BBXX 62029 07184 99487 70125 46/// /2613 10125 20092 40240 50003 22200 00136 10910 70048
BBXX BATFR12 07184 99484 70071 46/// /2811 10197 20100 40246 53016 22200 00147
BBXX 62163 07184 99475 70084 46/// /3114 10115 20088 40260 53013 22200 00135 10809 70043
BBXX SKOZ 07184 99472 70155 43/97 62316 10120 40260 50001 22253 00139 2//// 4////
BBXX WDD3825 07184 99455 70155 43798 82713 10140 2011/ 40280 5//// 7//// 8//4/ 22254 00160 29902 332// 41204 5//// 6//// 80120 /////
BBXX BATFR06 07184 99453 70015 46/// /2916 10150 20084 40273 53014 22261 00162
BBXX 62001 07184 99452 70050 46/// /2815 10144 20089 40284 52016 22200 00154 10908 70042
BBXX PJFF 07184 99442 70209 41197 82507 10170 20161 40290 54000 70222 888// 22214 20301 334// 41003 80164
BBXX C6KD8 07183 99429 70246 41/98 82110 10150 20125 40300 56008 70311 8/77/ 22214 02155 20401 334// 41304 5//// 80136
BBXX VQKZ6 07184 99422 70200 41598 80819 10150 20113 40308 54000 70322 84818 22254 02115 20302 327// 40605 5//// 80136
BBXX DFRZ 07183 99419 70237 41598 42706 10155 20121 40300 54000 70322 84444 22254 00130 20601 80135
BBXX OXHY2 07184 99414 70097 41/98 52403 10149 20131 40314 53010 70222 846// 22284 00165 21001 334// 41003 5//// 80138
BBXX BATFR10 07184 99369 10003 44/98 02805 40283 55/// 70200 22263 00184
BBXX BATFR14 07184 99367 70300 44598 60917 10177 20149 40253 56020 70222 86272 22254 00182 20302 31011 40704 51006 60000 ICE 0/0//
BBXX BATFR09 07184 99366 70094 44497 81004 10147 20094 40289 55002 70311 8642/ 22233 00194 20100 326// 40302 5////
BBXX HZRX 07183 99363 70232 41697 70705 10200 20185 40261 57002 70222 87202 22263 10150 20203 30707 40102 5//// 6//// 80180 ///// /////
BBXX BAREU06 07184 99360 70065 46/// ///// 40282 57000 22264
BBXX BAREU05 07184 99444 10087 46/// ///// 40147 52005 22281
BBXX BAREU63 07184 99442 10092 46/// /3608 10153 29075 40136 22232
BBXX 61001 07184 99434 10078 46/// /2633 10161 20100 40134 52008 22200 00163 10807 70035 555 1/046
BBXX BATFR20 07184 99432 10053 46/// /2833 10152 20097 40209 22243
BBXX BATEU09 07184 99428 10095 46/// /2759 10162 20087 40103 22241 00184
BBXX 61002 07184 99421 10047 46/// ///22 10162 2//// 40254 52004 22200 00160 10502 70012 555 1/029
BBXX BAREU61 07184 99413 10022 46/// /3614 10152 29056 40264 22243
BBXX SHIP 07183 99407 10275 41497 80326 10090 2005/ 40120 54000 76166 88271 22213 00120 2//// 3//// 4//// 5//// 6//// 80070 /////
BBXX C6XC6 07184 99394 10025 419// 02813 10166 2//// 40270 5/000 7//// 8//// 22252 0//// 2//// 3//// 4//// 5//// 6//// 8//// /////
BBXX PEBT 07183 99390 10235 41597 50124 10130 20105 40140 53012 7//22 855// 22223 02150 20503 334// 40501 5//// 80116
BBXX BAREU62 07184 99383 10248 46/// ///// 40130 52005 22214
BBXX PBEO 07183 99376 10098 41597 63022 10177 20124 40270 52019 70311 844// 22262 02188 20403 332// 40703 80145
BBXX KABP 07183 99374 10112 41498 13029 10170 2013/ 40271 58002 70280 812// 22234 00192 2//// 3//// 4//// 5//// 6//// 80145 /////
BBXX HZZB 07183 99372 10040 41998 12813 10169 2016/ 40294 56005 70200 80/// 22223 0//// 20502 327// 40802 5//// 6//// 80163 /////
BBXX MSTM6 07183 99371 10034 41398 22710 10162 20145 40298 53015 70100 811// 22264 06177 20202 3//// 4//// 5//// 80152
BBXX BATFR10 07184 99369 10003 44/98 02805 40283 55/// 70200 22263 00184
BBXX PGRQ 07184 99364 10181 41598 13422 10179 2//// 40207 52015 70100 81100 22272 00194 20203 327// 40404
BBXX PFFH 07183 99361 10148 41/98 /2928 10180 40220 54000 70011 8//// 22213 00185 2////
BBXX NWS0020 07184 99352 10215 43/// /3131 10176 20107 40179 5//// 7//// 8//// 222// 04191 2//// 3//// 4//// 5//// 6//// 8//// /////
BBXX WAHV 07184 99343 10240 41697 53133 10160 2014/ 40180 54000 78100 842// 22225 00176 21005 3//// 4//// 5//// 6//// 80150 /////
BBXX ZCBW2 07183 99342 10253 41497 42428 10170 20100 40160 56025 71382 82911 22263 00200 20506 325// 40906 5//// 80130
BBXX V7PW3 07183 99338 10268 41596 72620 10178 20147 40175 57010 71798 814// 22224 00194 20304 80160
BBXX WQVY 07184 99336 10251 41697 43037 10180 2013/ 40162 54000 70111 84200 22263 0//// 20404 3//// 4//// 5//// 6//// 80150 /////
BBXX VRCQ2 07183 99325 10274 41/98 /2719 10200 20153 40210 54/// 702// 8//// 22224 0//// 2//// 3//// 4//// 5//// 6//// 80170 /////
BBXX 44039 07181 99411 70727 46/// /0102 10127 20127 40070 91830 22200 00112 1//00 70001 333 91203
AAXX 07181 89063 42999 22901 10032 21012 39711 49722 52027 82031 333 44124
AAXX 07184 97182 32566 50000 10270 20247 30061 40065 57013 83831 333 56000 57800 82820 83360 808//
AAXX 07184 96937 12558 60000 10254 20230 30075 40080 57020 60021 82532 333 56000 82820 84360
BBXX C60M8 07180 99360 70151 41/98 80908 10180 20136 40297 57/// 70222 8/727 22253 04183 20805 335// 40905 5//// 80155
AAXX 07184 89065 46/// /3402 11000 21037 39648 49724 5//// 91800
AAXX 07184 63714 32480 10000 10178 20134 48483 81400 333 10255 59008 81619
BBXX 63106 07184 99610 10017 46/// /1010 10057 49946 52020 22200
BBXX 63113 07184 99610 10017 46/// /1009 10068 21025 49944 52019 22200 10705 70024
BBXX 62107 07184 99501 70061 46/// /3122 10113 20051 40211 52021 22200 00124 10806 70031 333 90710 91132
BBXX 2AUO5 07183 99606 10016 41297 49902 10061 21025 49952 52028 7//// 8/7// 22211 2//// 80030
BBXX A8JC5 07184 99399 70230 41598 51007 10147 20130 40280 57010 70311 8494/ 22264 00173 20101 335// 40504 5//// 80137
AAXX 07184 64400 11458 60802 10242 20224 30074 40093 60762 70396 86800 333 10275 58002 81810 86617
AAXX 07183 64401 32560 10000 10236 20220 39720 40092 81500 333 10270 58004 81620
AAXX 07184 64450 11558 71602 10270 20242 39721 40072 69902 72162 8197/ 333 10303 58000 81930 87363 94957 95837
AAXX 07183 64453 11460 70000 10210 20195 39/// 40/// 60042 72996 8397/ 333 10270 5//// 83612 81926 86462 94942 95812
AAXX 07183 64456 31460 81804 10260 20233 39/// 40/// 71799 889// 333 10320 5//// 87613 81926 94942 95832
AAXX 07183 64458 32960 30000 10296 20232 39676 40062 80002 333 10334 58000 83080
AAXX 07183 64459 32960 20000 10264 20241 39724 40084 80002 333 10326 58002 82080
AAXX 07183 64460 NIL
AAXX 07183 64402 31458 50000 10235 20219 39517 40089 71322 84903 333 10296 58009 83613 81926 83080 94941 95831
AAXX 07183 64452 11460 82202 10240 20228 39/// 40/// 60062 71796 8692/ 333 10334 5//// 85613 82930 88463 94979 95839
AAXX 07183 64454 11956 80000 10250 20205 39670 40083 60142 76162 8802/ 333 10295 58019 88460
AAXX 07183 64402 31458 50000 10235 20219 39517 40089 71322 84903 333 10296 58009 83613 81926 83080 94941 95831
AAXX 07183 64403 NIL
AAXX 07183 64405 NIL
AAXX 07183 64452 11460 82202 10240 20228 39/// 40/// 60062 71796 8692/ 333 10334 5//// 85613 82930 88463 94979 95839
AAXX 07183 64454 11956 80000 10250 20205 39670 40083 60142 76162 8802/ 333 10295 58019 88460
AAXX 07183 64462 NIL
AAXX 07183 64463 NIL
AAXX 07184 63729 32980 10200 20184 38859 48/// 80002 333 10260 55300 59008 81070
AAXX 07184 63733 32580 60000 10222 20196 38856 48496 81931 333 10267 55300 59009 81922 86359
AAXX 07184 63791 32580 11210 20190 39107 48496 82931 333 55300 59008 81925
AAXX 07184 63801 32580 40000 10215 20194 39194 48511 81931 333 10282 85821 81922
AAXX 07184 63832 32580 20000 10230 20183 38812 48488 81300 333 10276 59008 81820
AAXX 07184 63862 32580 31580 10226 20179 38883 48498 69992 81133 333 0//51 59008 81822 81076
AAXX 07184 63866 32580 10250 20206 39504 48/// 8357/ 333 10320 59005 83620 87359
AAXX 07184 63870 31480 10000 2O253 30082 40106 71311 81200 333 10310 55300 59004 81818
AAXX 07184 63881 02480 53003 10163 20154 38193 48/// 60202 83973 333 10225 59011 69907 83618 81920 84357
AAXX 07184 63887 12480 60000 10195 20160 38577 48496 60072 83230 333 10253 55300 59005 83819 86358
AAXX 07184 63894 12580 20000 10260 20205 30043 40103 69952 8293/ 333 0//18 10320 55300 59009 82820 81921 87357
AAXX 07184 63932 12580 80000 10170 20170 38303 48501 60052 8392/ 333 10235 59003 83821 81923 88458
AAXX 07184 63962 11580 70000 10222 20206 38931 48491 60062 71796 8393/ 333 0//93 10290 59023 83622 81924 87358
AAXX 07184 63971 63971 32580 70000 10260 20240 39972 40101 8293/ 333 10318 55300 59010 82822 81923 86358
AAXX 07184 63756 NIL
AAXX 07184 68575 36/// /0000 10228 20194 39052 48486 52011 333 10336 20227 91003 555 91012
AAXX 07184 68581 36/// /1502 10250 20217 39320 48486 52010 333 10326 20250 91003 555 91010
AAXX 07184 68589 36/// /1906 10197 20125 38243 48500 52015 333 10292 20195 91008 555 91019
AAXX 07184 68588 36/// /0110 10238 20204 30066 40082 52015 333 10296 20238 91015 555 91008
AAXX 07184 68591 36/// /2112 10239 20208 39919 40096 52026 333 10272 20239 91019 555 91010
BBXX 46221 07181 99339 71186 46/// ///// 1//// 91815 22200 00154 11401 20601 322// 41401 70005
AAXX 07184 61017 32960 50406 10260 21025 39757 40172 80002 333 10304 58008 85080
AAXX 07184 61024 32960 51012 10254 20026 39580 40147 80002 333 10316 58009 85080
AAXX 07184 61036 31950 70000 10300 20045 39876 40113 7052/ 80008 333 10341 58004 87280
AAXX 07184 61043 32960 70410 10288 21080 39683 40123 80008 333 10328 58013 87280
AAXX 07184 61045 31917 70404 10264 21031 39640 40141 7062/ 80008 333 10310 58015 87280
AAXX 07184 61049 32960 70804 10255 20066 39807 40129 80008 333 10322 58007 87280
AAXX 07184 61052 31935 50606 10300 21044 39862 40119 70611 80002 333 10345 58005 85080
AAXX 07184 61075 31940 70402 10292 20026 39809 40117 7062/ 80008 333 10357 58015 87280
AAXX 07184 61080 31950 70000 10265 20007 39712 40133 70622 80008 333 10327 58013 87280
AAXX 07184 61090 31958 70206 10275 21065 39622 40132 70622 80008 333 10314 58018 87280
AAXX 07184 61091 32960 70000 10252 20074 39684 40142 80008 333 10320 58004 87280
AAXX 07184 61096 32960 73606 10275 21047 39749 40133 80008 333 10333 58014 87280
AAXX 07184 61099 32960 70208 10310 20058 39865 40092 80008 333 10360 58004 87280
BBXX 9HA2066 07184 99345 71583 418// 53609 10160 20160 40230 51/// 7//// 85//2 22224 00160 21406 332// 40906 5//// 6//// 80160 ICE /////
AAXX 07184 67002 NIL
AAXX 07184 67009 NIL
AAXX 07184 67025 NIL
AAXX 07184 67027 31580 73404 10275 20250 30079 40100 52027 71300 879// 333 10320 83820 85640 81920 94963 95813
AAXX 07184 67083 11460 71204 10175 20167 38741 48514 52026 60072 79599 8497/ 333 10259 81817 84917 84466 94979 95839
AAXX 07184 67095 32475 70000 10255 20236 30112 40119 51015 8683/ 333 10307 83817 85633 83360
AAXX 07184 67113 NIL
AAXX 07184 67117 NIL
AAXX 07184 67137 NIL
AAXX 07184 67157 NIL
AAXX 07184 67161 NIL
AAXX 07184 67197 32480 30814 10242 20223 30103 40113 52018 82202 333 10279 82817 555 82073
AAXX 07184 71433 46/// /3118 11002 21012 39841 40072 56007 6///1 333 10003 21047 7////
AAXX 07184 71409 17/// ///// 11044 21053 69961 7//4/ 333 11011 21045 70010
AAXX 07184 71502 16/// /1713 11263 21283 30262 40279 58017 60001 333 11217 21264 70000
AAXX 07184 71509 16/// /0108 11030 21032 60001 333 10001 21033 70000
AAXX 07184 71517 16/// /0208 11033 21033 60001 333 11032 21112 70000
AAXX 07184 71518 17/// /3611 11037 21038 60011 7//4/ 333 11010 21037 70019
AAXX 07184 71519 17/// /0206 11041 21045 69991 7//4/ 333 11007 21043 70020
AAXX 07184 71520 16/// /1609 11125 21138 39410 56024 60001 333 7////
AAXX 07184 71521 16/// ///// 11100 21116 60001 333 7////
AAXX 07184 71523 16/// ///// 11077 21084 39709 56021 60001 333 7////
AAXX 07184 71528 17/// /0106 11032 21033 69991 7//4/ 333 11007 21036 70009
AAXX 07184 71102 16/// ///// 11094 21162 60001 333 11055 21152 70000
AAXX 07184 71105 17/// ///// 11050 21061 69941 7//4/ 333 11014 21050 7////
AAXX 07184 71789 16/// ///// 11034 21038 60001 333 11010 21034 70000
AAXX 07184 71791 16/// /3120 11089 21171 60001 333 11048 21115 70000
AAXX 07184 71794 16/// ///// 11085 21175 60001 333 11031 21091 70000
AAXX 07184 71795 17/// ///// 11051 21060 60011 7//4/ 333 11017 21056 70067
AAXX 07184 71796 16/// ///// 11076 21163 60001 333 11021 21079 7////
AAXX 07184 71006 16/// /3321 11075 21160 60001 333 11026 21078 70000
AAXX 07184 71007 17/// ///// 11034 21043 69971 7//4/ 333 11013 21037 70012
AAXX 07184 71008 17/// /0308 11063 21077 69991 7//4/ 333 11028 21063 70013
AAXX 07184 71009 16/// /0109 11078 21092 60001 333 11037 21079 70005
AAXX 07184 71012 16/// /3120 11082 21176 60001 333 11020 21083 70000
AAXX 07184 71035 17/// ///// 11076 21095 69961 7//4/ 333 11039 21077 70006
AAXX 07184 71383 47/// ///// 11109 21127 39484 56031 6///1 7//4/ 333 7////
AAXX 07184 71841 16/// /2911 11042 21105 39678 40079 58004 60001 333 11042 21132 7//// 555 10010
AAXX 07184 71051 16/// ///// 11027 21046 60001 333 11012 21044 7////
AAXX 07184 71057 17/// ///// 11050 21065 69951 7//4/ 333 11026 21051 70005
AAXX 07184 71070 16/// ///// 11034 21043 60001 333 11013 21038 70000
AAXX 07184 71089 16/// ///// 11082 21170 60001 333 11024 21094 70000
AAXX 07184 71433 46/// /3118 11002 21012 39841 40072 56007 6///1 333 10003 21047 7////
AAXX 07184 71841 16/// /2911 11042 21105 39678 40079 58004 60001 333 11042 21132 7//// 555 10010
AAXX 07181 26424 11997 51905 10002 21009 40004 52007 69982 70282 83031 333 10017
AAXX 07184 96145 32456 50000 10250 20236 30084 40087 56004 83131 333 56800 83817
AAXX 07184 89063 42999 22901 10032 21012 39711 49722 52027 82031 333 44124
BBXX SHIP 07184 99477 31685 41/98 72720 10116 40073 70222 22273
BBXX SHIP 07184 99477 31685 41/98 72720 10116 40073 70222 22273
BBXX DDYZ2 07184 99138 10547 41597 40526 10245 20217 40155 52010 70311 82444 22264 04270 20302 304// 40506 80225
BBXX A8UL5 07183 99338 30286 41798 72118 10220 20183 40103 52030 70322 8481/ 22224 20303 305// 40405 5//// 80195
BBXX SHIP 07184 99236 11266 41598 30611 10250 20222 40164 54000 70110 83/// 22214 00260 2//// 80230
BBXX A80K4 07183 99058 10883 41597 30607 10270 20243 40000 51010 70222 82117 22264 00/// 2//// 80250
BBXX DQVN 07183 99297 11225 41/98 /3217 10150 20133 40190 51010 76366 8//// 22200 00170 20402 80140
BBXX DQXQ 07184 99285 11223 41/97 83422 10143 20126 40190 54000 70262 88/2/ 22243 00180 299// 80133
BBXX VVPG 07183 99191 10726 41798 43406 10280 20264 40102 51005 70201 84021 22200 00/// 2////
BBXX 3FHX2 07183 99345 11301 41/98 90114 10110 20070 40195 55000 75801 89/// 22200 00/// 2////
BBXX 3ECJ7 07184 99075 10765 415// 63519 10270 20197 40100 52010 7//// 8/478 222// 0//// 20202 3//// 40202 5//// 6//// 80220 ICE /////
BBXX MGSM3 07184 99159 11319 41597 70730 10280 20250 40049 57016 70020 87400 22233 04290 20705 30910 41004 51204 80250
BBXX WDC 07184 99435 70876 41/97 92811 11030 40135 70222 22243 01040
BBXX WAAT 07184 99165 70998 43998 10407 10294 2021/ 40130 57010 7//// 80//9 22263 0//// 20000 303// 40601 5//// 6//// 80239 ICE /////
BBXX A8JC5 07184 99399 70230 41598 51007 10147 20130 40280 57010 70311 8494/ 22264 00173 20101 335// 40504 5//// 80137
BBXX 2AUO5 07183 99606 10016 41297 49902 10061 21025 49952 52028 7//// 8/7// 22211 2//// 80030
BBXX C60M8 07180 99360 70151 41/98 80908 10180 20136 40297 57/// 70222 8/727 22253 04183 20805 335// 40905 5//// 80155
BBXX 9VMB6 07183 99363 10153 41897 43021 10180 20130 40240 54/// 7//11 81/86 22273 04220 20703 80150
BBXX DDDI2 07184 99035 10920 41/98 60216 10290 20249 40090 52015 71311 8//// 22254 04300 2//// 80260
BBXX VRGW2 07184 99015 11029 41298 50614 10270 20257 40111 58012 70322 8/212 22234 04300 20501 80261
BBXX 46221 07181 99339 71186 46/// ///// 1//// 91815 22200 00154 11401 20601 322// 41401 70005
BBXX WDB9949 07184 99355 71625 41498 62212 10175 2014/ 40211 52006 70222 8687/ 22224 00160 20802 3//// 4//// 5//// 6//// 80155 ICE /////
BBXX 44039 07181 99411 70727 46/// /0102 10127 20127 40070 91830 22200 00112 1//00 70001 333 91203
BBXX 46231 07181 99327 71174 46/// ///// 1//// 91824 22200 00157 11401 21001 322// 41401 70005
BBXX 46242 07181 99332 71174 46/// ///// 1//// 91826 22200 00151 11401 20401 322// 41401 70004
BBXX 46216 07181 99343 71198 46/// ///// 1//// 91827 22200 00148 11401 21001 325// 41401 70004
BBXX 46222 07181 99336 71183 46/// ///// 1//// 91826 22200 00155 11201 20401 325// 41201 70004
BBXX 46223 07181 99335 71178 46/// ///// 1//// 91830 22200 00155 11501 21001 319// 41501 70004
BBXX 46241 07181 99330 71173 46/// ///// 1//// 91811 22200 00144 11301 21001 325// 41301 70005
BBXX 46232 07181 99325 71174 46/// ///// 1//// 91808 22200 00145 11301 20901 325// 41301 70006
BBXX 9VDD2 07184 99504 71484 41497 81819 10085 20060 40265 57040 70222 88/2/ 22274 06050 20403 320// 40704 80070
BBXX 42085 07181 99179 70665 46/// /1108 10283 40096 91830 333 91210
BBXX 42085 07181 99179 70665 46/// /1108 10283 40098 91810 333 91209
BBXX 41053 07181 99185 70661 46/// /0706 10275 40107 91820 333 91207
BBXX 44024 07181 99423 70659 46/10 /2005 10111 40099 58021 91804 22200 00099 11103 70016 333 91206 555 11066 22074
BBXX 42085 07181 99179 70665 46/// /1108 10283 40097 91820 333 91210
BBXX 41052 07181 99183 70648 46/// /0706 10277 40102 91810 333 91208
BBXX 41053 07181 99185 70661 46/// /0606 10275 40105 91830 333 91207
BBXX 41052 07181 99183 70648 46/// /0706 10277 40101 91820 333 91208
BBXX 41053 07181 99185 70661 46/// /0705 10275 40108 91810 333 91208
BBXX 41052 07181 99183 70648 46/// /0706 10278 40100 91830 333 91208
BBXX PHHD 07181 99304 70763 41296 61911 10241 20199 40168 58020 7//// 857// 22213 04210 20202 30000 80212
BBXX 3ECJ7 07184 99075 10765 415// 63519 10270 20197 40100 52010 7//// 8/478 222// 0//// 20202 3//// 40202 5//// 6//// 80220 ICE /////
AAXX 07184 68479 36/// /1110 10254 20155 38913 48486 52017 333 10350 20254 91017 555 91013
AAXX 07184 68487 16/// /1804 10243 20196 38953 48484 52005 69962 333 10333 20243 91004 555 20006 91012
AAXX 07184 97016 11560 70000 10245 20219 30055 40057 57016 70262 83271 333 56000 57801 83820 84459 80860
AAXX 07184 71360 16/// ///// 11088 21172 60001 333 11040 21120 70000
AAXX 07184 71380 17/// /3117 11092 21151 69941 7//4/ 333 11036 21097 70010
AAXX 07184 71055 46/// /1807 11287 21312 39976 40328 58005 6///1 333 11225 21291 7////
AAXX 07184 71065 16/// ///// 11091 21171 60001 333 11061 21150 70000
AAXX 07184 71249 17/// /3214 11080 21096 69991 7//4/ 333 11037 21083 70009
AAXX 07184 71014 17/// /3113 11089 21144 69951 7//4/ 333 11033 21089 7////
AAXX 07184 71346 17/// /0107 11032 21038 69971 7//4/ 333 11002 21033 70007
AAXX 07184 71797 16/// ///// 11096 21159 60001 333 11072 21131 70000
AAXX 07184 71413 17/// ///// 11076 21118 69951 7//4/ 333 11031 21085 70005
AAXX 07184 71414 16/// ///// 11097 21171 60001 333 11076 21142 70000
AAXX 07184 71440 17/// ///// 11078 21086 69991 7//4/ 333 11035 21078 70014
AAXX 07184 71857 16/// ///// 11093 21164 60001 333 11053 21136 70004
AAXX 07184 71904 17/// ///// 11084 21117 69961 7//4/ 333 11041 21086 70006
AAXX 07184 71674 16/// ///// 11078 21162 60001 333 11026 21090 70004
AAXX 07184 71540 16/// /3209 11086 21120 60001 333 11043 21089 70009
AAXX 07184 71544 16/// ///// 11094 21160 60001 333 11054 21107 70000
AAXX 07184 71548 16/// ///// 11101 21174 60001 333 11062 21115 70000
AAXX 07184 71481 16/// /3011 11094 21173 60001 333 11046 21106 70011
AAXX 07184 71498 17/// /0108 11069 21077 69941 7//4/ 333 11031 21070 70004
AAXX 07184 94150 46/// /0000 10247 20241 39982 40041
AAXX 07184 94150 46/// /0000 10247 20241 39982 40041
AAXX 07183 41150 42965 02910 10164 20066 40204 333 10187 58012
AAXX 07184 88903 45/// /1403 10060 20025 30065 40065 58024
AAXX 07181 15015 02998 21603 10004 21028 39527 42740 58007 69902 80001 333 10047 21029 34005 60007 91005 91105 92600
BBXX C6W2032 07183 99150 70184 41996 40508 10280 2021/ 40110 56/// 70544 84//1 22243 00230 20301 315// 40301 50301 6//// 80230 ICE /////
AAXX 07183 64810 32460 62408 10280 20244 30063 40089 83530 333 10320 55/// 58018 83613 86363
OOXX FRP31 07151 99052 70527 ///// 00091 26/// /0506 10288 29067 30179 91557 333 60000
OOXX FRP31 07161 99052 70527 ///// 00091 26/// /0506 10292 29068 30178 91607 333 60000
OOXX FRP31 07161 99052 70527 ///// 00091 26/// /0306 10292 29068 30177 91617 333 60000
OOXX FRP31 07161 99052 70527 ///// 00091 26/// /0407 10288 29071 30177 91627 333 60000
OOXX FRP31 07161 99052 70527 ///// 00091 26/// /0408 10289 29072 30173 91637 333 60000
OOXX FRP31 07161 99052 70527 ///// 00091 26/// /0407 10293 29071 30172 91647 333 60000
OOXX FRP31 07161 99052 70527 ///// 00091 26/// /0407 10286 29072 30170 91657 333 60000
OOXX FRP31 07171 99052 70527 ///// 00091 26/// /0306 10291 29072 30169 91707 333 60000
OOXX FRP31 07171 99052 70527 ///// 00091 26/// /0407 10288 29073 30167 91717 333 60000
OOXX FRP31 07171 99052 70527 ///// 00091 26/// /0407 10286 29073 30166 91727 333 60000
OOXX FRP31 07171 99052 70527 ///// 00091 26/// /0306 10286 29074 30163 91737 333 60000
OOXX FRP31 07171 99052 70527 ///// 00091 26/// /0306 10287 29074 30163 91747 333 60000
BBXX UCAD 07181 99656 10069 41/97 90314 10040 49930 52013 70221 88/// 22212 00080 20506
AAXX 07181 11423 01470 72710 11002 21004 39167 42675 51030 60092 78587 878// 333 10006 43019 69945 81810 87613 91015 91117
AAXX 0718/ 89767 46/// ///// 11216 39632 4//// 5////
AAXX 0718/ 89667 46/// ///// 4//// 5//// 91840
AAXX 0718/ 89667 46/// ///// 4//// 5//// 91830
AAXX 07184 89667 46/// /1516 11035 39747 4//// 5//// 91820
AAXX 07184 89667 46/// /1617 11036 39746 4//// 5//// 91810
AAXX 07184 89807 46/// /1826 11049 29064 39565 4//// 5//// 91830 333 90700 91133
AAXX 07184 94997 46/// ///// 10025 30123 40138 5////
AAXX 07184 89614 46/// /1030 11107 29100 38776 4//// 5//// 91830 333 90700 91140
AAXX 07184 89614 46/// /1030 11107 29100 38776 4//// 5//// 91830 333 90700 91140
AAXX 07184 89807 46/// /1826 11049 29064 39565 4//// 5//// 91830 333 90700 91133
AAXX 07184 94997 46/// ///// 10025 30123 40138 5////
AAXX 07184 60590 12960 00104 10160 20083 40300 53006 60002 333 0//00 10206
AAXX 07184 METAR DAUG 071800Z 00000KT CAVOK 15/05 Q1030
AAXX 07184 METAR DAUI 071800Z 06014KT CAVOK 22/03 Q1024
AAXX 07184 METAR DAUK 071800Z 00000KT CAVOK 15/05 Q1029
AAXX 07184 METAR DAUL 071800Z 00000KT CAVOK 11/06 Q1030
AAXX 07184 METAR DAUO 071800Z 00000KT CAVOK 15/05 Q1028
AAXX 07184 METAR DAUT 071800Z NIL
AAXX 07184 METAR DAUU 071800Z 03006KT CAVOK 15/08 Q1028
AAXX 07184 91844 46/// /0403 10256 40148 22200 00263
AAXX 07181 59158 32660 53502 10203 20178 30061 40161 54000 85500
AAXX 07181 59562 32565 43301 10234 20190 30131 40142 58013 82101
AAXX 07181 59567 46/// /0406 10219 20215 39774 40149 58011
AAXX 07181 58968 32560 80000 10214 20187 30159 40167 50001 885//
AAXX 07181 58974 46/// /3510 10183 20173 30049 40173 52002
AAXX 07181 59358 31611 80103 10214 20197 30130 40162 58006 71022 886//
AAXX 07181 59559 32565 40201 10236 20218 30113 40141 58011 84200
AAXX 07181 59792 32460 40407 10242 20229 30132 40137 58007 83130
BBXX 3FHX2 07183 99345 11301 41/98 90114 10110 20070 40195 55000 75801 89/// 22200 00/// 2////
BBXX UFML 07181 99458 11418 42998 33208 11060 40119 54000 83350 22263 00081 20503
AAXX 07184 78615 31482 53304 10266 20222 30048 40190 58018 70342 85200 333 10270 20206 30/// 56800 57883 58030 85818
AAXX 07184 78627 32582 60000 10198 20081 38180 58010 86200 333 10212 20062 30/// 57875 58016 86825
AAXX 07184 78637 32582 33606 10274 20227 30152 40172 58011 81230 333 10276 20218 30/// 56290 57844 58024 81820
AAXX 07184 78641 32482 43622 10210 20123 38561 40150 58008 84500 333 10218 20140 30/// 56800 58008 84617
AAXX 07184 78647 31982 01808 10308 20228 30122 40129 58025 70240 333 10310 20200 30/// 58015
AAXX 07184 78615 31482 53304 10266 20222 30048 40190 58018 70342 85200 333 10270 20206 30/// 56800 57883 58030 85818
AAXX 07184 78627 32582 60000 10198 20081 38180 58010 86200 333 10212 20062 30/// 57875 58016 86825
AAXX 07184 78637 32582 33606 10274 20227 30152 40172 58011 81230 333 10276 20218 30/// 56290 57844 58024 81820
AAXX 07184 78641 32482 43622 10210 20123 38561 40150 58008 84500 333 10218 20140 30/// 56800 58008 84617
AAXX 07184 78647 31982 01808 10308 20228 30122 40129 58025 70240 333 10310 20200 30/// 58015
AAXX 07184 91648 11599 20613 10272 20242 40073 60001 70200 80200 333 561//
AAXX 07124 91648 11599 30709 10274 20241 40065 60031 70126 81100 333 10322 562//
AAXX 0718/ 89828 46/// ///// 11398 36400 4//// 5//// 91840
AAXX 0718/ 89108 46/// ///// 11199 36886 4//// 5//// 91840
AAXX 0718/ 89872 46/// ///// 11050 39687 4//// 5//// 91840
AAXX 0718/ 89869 46/// ///// 11053 39684 4//// 5//// 91840
AAXX 0718/ 89866 46/// ///// 11029 39641 4//// 5//// 91840
AAXX 0718/ 89799 46/// ///// 11264 4//// 5//// 91840
AAXX 0718/ 89332 46/// ///// 11053 39127 4//// 5//// 91840
AAXX 0718/ 89769 46/// ///// 11058 39707 4//// 5//// 91840
AAXX 0718/ 89314 46/// ///// 11085 38163 4//// 5//// 91840
AAXX 07184 78615 31482 53304 10266 20222 30048 40190 58018 70342 85200 333 10270 20206 30/// 56800 57883 58030 85818
AAXX 07184 78627 32582 60000 10198 20081 38180 58010 86200 333 10212 20062 30/// 57875 58016 86825
AAXX 07184 78637 32582 33606 10274 20227 30152 40172 58011 81230 333 10276 20218 30/// 56290 57844 58024 81820
AAXX 07184 78641 32482 43622 10210 20123 38561 40150 58008 84500 333 10218 20140 30/// 56800 58008 84617
AAXX 07184 78647 31982 01808 10308 20228 30122 40129 58025 70240 333 10310 20200 30/// 58015
BBXX AMOUK08 07184 99501 70061 46/// ///// 10118 20068 30205 40206 52020 91750
BBXX 63055 07184 99606 10016 47999 /1302 10059 21020 49945 52025 700// 22200 10804 70022
BBXX 63106 07184 99610 10017 46/// /1010 10057 49946 52020 22200
BBXX 63105 07184 99610 10017 47698 ///// 10053 21024 49946 52019 700// 22200
BBXX SHIP 07184 99344 10353 42597 22207 10188 20117 40196 5//// 82200 222// 02210 20200 333 82828
BBXX SHIP 07184 99364 70063 42598 50406 10158 20124 40286 5//// 8//// 222// 02173 20301
AAXX 07184 91413 11469 89905 10257 20243 30046 40071 56008 69951 70282 84371 333 56999 70053 555 90718
AAXX 07184 41184 42960 01403 10185 20112 40167 333 10270 58004
AAXX 07184 41194 12660 43403 10227 20125 30171 40176 60001 84500 333 10257 58003 84640
AAXX 07184 41198 42560 23109 10226 20126 40171 82500 333 10280 58001 82630
AAXX 07184 41217 42960 02806 10206 20137 30147 40176 333 10240 58006
AAXX 07184 41218 42960 03005 10171 20123 39874 40185 333 10247 58007
BBXX A8VL8 07184 99304 30353 41298 20522 10240 20196 40120 54000 7//00 828// 22233 00220 20204 331// 40204 5//// 6//// 80210 ICE /////
AAXX 07184 91413 11469 89905 10257 20243 30046 40071 56008 69951 70282 84371 333 56999 70053 555 90718
AAXX 07184 91413 11469 89905 10257 20243 30046 40071 56008 69951 70282 84371 333 56999 70053 555 90718
BBXX C6W2032 07183 99150 70184 41996 40508 10280 2021/ 40110 56/// 70544 84//1 22243 00230 20301 315// 40301 50301 6//// 80230 ICE /////
BBXX A8VL8 07184 99304 30353 41298 20522 10240 20196 40120 54000 7//00 828// 22233 00220 20204 331// 40204 5//// 6//// 80210 ICE /////
BBXX UFML 07181 99458 11418 42998 33208 11060 40119 54000 83350 22263 00081 20503
BBXX SHIP 07184 99477 31685 41/98 72720 10116 40073 70222 22273
BBXX BSH03 07181 99540 10081 46/// ///// 22200 00083 20807 70034
BBXX BSH02 07181 99542 10079 46/// ///// 22200 00086 21008 70038
BBXX UCAD 07181 99656 10069 41/97 90314 10040 49930 52013 70221 88/// 22212 00080 20506
OOXX NZP46 07161 99438 51765 ///// 00221 26/// /3008 10124 29096 39978 91620 333 60000
OOXX NZP46 07161 99438 51765 ///// 00221 26/// /3008 10124 29096 39978 91630 333 60000
OOXX NZP46 07161 99438 51765 ///// 00221 26/// /3008 10124 29097 39979 91640 333 60000
OOXX NZP46 07161 99438 51765 ///// 00221 26/// /3008 10123 29098 39979 91650 333 60000
OOXX NZP46 07171 99438 51765 ///// 00221 26/// /2908 10124 29098 39980 91700 333 60000
OOXX NZP46 07171 99438 51765 ///// 00221 26/// /2908 10123 29098 39981 91710 333 60000
OOXX NZP46 07171 99438 51765 ///// 00221 26/// /2907 10122 29099 39981 91720 333 60000
OOXX NZP46 07171 99438 51765 ///// 00221 26/// /2907 10122 29098 39983 91730 333 60000
OOXX NZP46 07171 99438 51765 ///// 00221 26/// /2807 10120 29099 39983 91740 333 69920
OOXX NZP46 07171 99438 51765 ///// 00221 26/// /2807 10121 29099 39984 91750 333 60000
OOXX NZP46 07181 99438 51765 ///// 00221 26/// /2708 10120 29098 39986 91800 333 60000
OOXX NZP46 07181 99438 51765 ///// 00221 26/// /2707 10120 29099 39988 91810 333 60000
OOXX MXP44 07161 99280 71140 ///// 00041 26/// /1422 10114 29054 30181 91610 333 60000
OOXX MXP44 07161 99280 71140 ///// 00041 26/// /1422 10123 29054 30181 91620 333 60000
OOXX MXP44 07161 99280 71140 ///// 00041 26/// /1422 10136 29054 30183 91630 333 60000
OOXX MXP44 07161 99280 71140 ///// 00041 26/// /1422 10138 29055 30184 91640 333 60000
OOXX MXP44 07161 99280 71140 ///// 00041 26/// /1422 10142 29055 30183 91650 333 60000
OOXX MXP44 07171 99280 71140 ///// 00041 26/// /1422 10152 29055 30183 91700 333 60000
OOXX MXP44 07171 99280 71140 ///// 00041 26/// /1422 10158 29055 30182 91710 333 60000
OOXX MXP44 07171 99280 71140 ///// 00041 26/// /1422 10154 29055 30181 91720 333 60000
OOXX MXP44 07171 99280 71140 ///// 00041 26/// /1422 10153 29055 30180 91730 333 60000
OOXX MXP44 07171 99280 71140 ///// 00041 26/// /1422 10155 29055 30179 91740 333 60000
OOXX MXP44 07171 99280 71140 ///// 00041 26/// /1422 10158 29055 30179 91750 333 60000
OOXX MXP44 07181 99280 71140 ///// 00041 26/// /1422 10162 29055 30177 91800 333 60000
OOXX GBP67 07161 99159 50057 ///// 04381 26/// /0903 10174 29082 39662 91600 333 60000
OOXX GBP67 07161 99159 50057 ///// 04381 26/// /0803 10173 29083 39661 91610 333 60000
OOXX GBP67 07161 99159 50057 ///// 04381 26/// /0903 10173 29082 39661 91620 333 60000
OOXX GBP67 07161 99159 50057 ///// 04381 26/// /0903 10173 29080 39661 91630 333 60000
OOXX GBP67 07161 99159 50057 ///// 04381 26/// /0903 10176 29083 39660 91640 333 60000
OOXX GBP67 07161 99159 50057 ///// 04381 26/// /0903 10172 29085 39661 91650 333 60000
OOXX GBP67 07171 99159 50057 ///// 04381 26/// /0903 10172 29085 39660 91700 333 60000
OOXX GBP67 07171 99159 50057 ///// 04381 26/// /0903 10169 29086 39661 91710 333 60000
OOXX GBP67 07171 99159 50057 ///// 04381 26/// /0903 10168 29087 39661 91720 333 60000
OOXX GBP67 07171 99159 50057 ///// 04381 26/// /0903 10167 29087 39662 91730 333 60000
OOXX GBP67 07171 99159 50057 ///// 04381 26/// /0903 10166 29089 39662 91740 333 60000
OOXX GBP67 07171 99159 50057 ///// 04381 26/// /0903 10167 29088 39664 91750 333 60000
OOXX AUP07 07161 99/// ///// ///// ///// 26/// /2408 10038 29069 30022 91655 333 60000
OOXX AUP07 07171 99/// ///// ///// ///// 26/// /2407 10039 29071 30024 91705 333 60000
OOXX AUP07 07171 99/// ///// ///// ///// 26/// /2408 10039 29071 30025 91715 333 60000
OOXX AUP07 07171 99/// ///// ///// ///// 26/// /2408 10040 29070 30025 91725 333 60000
OOXX AUP07 07171 99/// ///// ///// ///// 26/// /2408 10040 29070 30026 91735 333 60000
OOXX AUP07 07171 99/// ///// ///// ///// 26/// /2408 10041 29068 30027 91745 333 60000
OOXX AUP07 07171 99/// ///// ///// ///// 26/// /2408 10041 29064 30027 91755 333 60000
OOXX AUP07 07181 99/// ///// ///// ///// 26/// /2407 10041 29067 30027 91805 333 60000
OOXX AUP07 07181 99/// ///// ///// ///// 26/// /2607 10041 29071 30028 91815 333 60000
OOXX AUP07 07181 99/// ///// ///// ///// 26/// /2807 10042 29073 30029 91825 333 60000
OOXX AUP07 07181 99/// ///// ///// ///// 26/// /3007 10043 29074 30029 91835 333 60000
OOXX AUP07 07181 99/// ///// ///// ///// 26/// /2707 10043 29071 30029 91845 333 60000
OOXX ARP01 07161 99345 50585 ///// 00311 26/// /1101 10114 29036 30129 91610 333 60000
OOXX ARP01 07161 99345 50585 ///// 00311 26/// /1101 10113 29036 30127 91620 333 60000
OOXX ARP01 07161 99345 50585 ///// 00311 26/// /1102 10112 29036 30127 91630 333 60000
OOXX ARP01 07161 99345 50585 ///// 00311 26/// /1101 10113 29036 30126 91640 333 60000
OOXX ARP01 07161 99345 50585 ///// 00311 26/// /1101 10114 29036 30125 91650 333 60000
OOXX ARP01 07171 99345 50585 ///// 00311 26/// /1101 10115 29036 30125 91700 333 60000
OOXX ARP01 07171 99345 50585 ///// 00311 26/// /0000 10115 29036 30124 91710 333 60000
OOXX ARP01 07171 99345 50585 ///// 00311 26/// /1101 10115 29036 30124 91720 333 69920
OOXX ARP01 07171 99345 50585 ///// 00311 26/// /1101 10116 29036 30124 91730 333 60000
OOXX ARP01 07171 99345 50585 ///// 00311 26/// /1101 10117 29037 30123 91740 333 60000
OOXX ARP01 07171 99345 50585 ///// 00311 26/// /1101 10118 29037 30122 91750 333 60000
OOXX ARP01 07181 99345 50585 ///// 00311 26/// /1101 10118 29037 30121 91800 333 60000
OOXX CAP16 07171 99624 71145 ///// 02061 26/// /0307 11196 29061 39817 91700 333 60000
OOXX CAP16 07171 99624 71145 ///// 02061 26/// /0307 11197 29061 39818 91710 333 60000
OOXX CAP16 07171 99624 71145 ///// 02061 26/// /0307 11197 29061 39821 91720 333 60000
OOXX CAP16 07171 99624 71145 ///// 02061 26/// /0307 11196 29061 39823 91730 333 60000
OOXX CAP16 07171 99624 71145 ///// 02061 26/// /0406 11196 29061 39823 91740 333 60000
OOXX CAP16 07171 99624 71145 ///// 02061 26/// /0307 11194 29061 39821 91750 333 60000
OOXX CAP16 07181 99624 71145 ///// 02061 26/// /0408 11193 29061 39821 91800 333 60000
OOXX CAP16 07181 99624 71145 ///// 02061 26/// /0307 11192 29060 39824 91810 333 60000
OOXX CAP16 07181 99624 71145 ///// 02061 26/// /0307 11191 29060 39816 91820 333 60000
OOXX CAP16 07181 99624 71145 ///// 02061 26/// /0307 11190 29061 39824 91830 333 60000
OOXX CAP16 07181 99624 71145 ///// 02061 26/// /0308 11189 29060 39826 91840 333 60000
OOXX CAP16 07181 99624 71145 ///// 02061 26/// /0307 11189 29060 39830 91850 333 60000
OOXX SEP63 07161 99594 10180 ///// 00401 26/// /0602 10029 29083 39840 91610 333 60000
OOXX SEP63 07161 99594 10180 ///// 00401 26/// /0202 10020 29089 39840 91620 333 60000
OOXX SEP63 07161 99594 10180 ///// 00401 26/// /0302 10016 29091 39840 91630 333 60000
OOXX SEP63 07161 99594 10180 ///// 00401 26/// /0303 10016 29089 39840 91640 333 60000
OOXX SEP63 07161 99594 10180 ///// 00401 26/// /0203 10021 29085 39840 91650 333 60000
OOXX SEP63 07171 99594 10180 ///// 00401 26/// /0203 10024 29083 39840 91700 333 60000
OOXX SEP63 07171 99594 10180 ///// 00401 26/// /0703 10025 29081 39840 91710 333 60000
OOXX SEP63 07171 99594 10180 ///// 00401 26/// /0404 10026 29082 39840 91720 333 60000
OOXX SEP63 07171 99594 10180 ///// 00401 26/// /0603 10026 29082 39850 91730 333 60000
OOXX SEP63 07171 99594 10180 ///// 00401 26/// /0803 10025 29083 39850 91740 333 60000
OOXX SEP63 07171 99594 10180 ///// 00401 26/// /0903 10025 29081 39850 91750 333 60000
OOXX SEP63 07181 99594 10180 ///// 00401 26/// /0403 10025 29081 39850 91800 333 60000
OOXX FJP26 07161 99178 31775 ///// 00311 26/// /1301 10234 29091 30046 91610 333 60000
OOXX FJP26 07161 99178 31775 ///// 00311 26/// /1302 10234 29091 30046 91620 333 60000
OOXX FJP26 07161 99178 31775 ///// 00311 26/// /1102 10233 29091 30046 91630 333 60000
OOXX FJP26 07161 99178 31775 ///// 00311 26/// /0901 10233 29091 30045 91640 333 60000
OOXX FJP26 07161 99178 31775 ///// 00311 26/// /0601 10233 29091 30046 91650 333 60000
OOXX FJP26 07171 99178 31775 ///// 00311 26/// /0601 10231 29091 30047 91700 333 60000
OOXX FJP26 07171 99178 31775 ///// 00311 26/// /0602 10231 29091 30047 91710 333 60000
OOXX FJP26 07171 99178 31775 ///// 00311 26/// /0901 10230 29092 30048 91720 333 60000
OOXX FJP26 07171 99178 31775 ///// 00311 26/// /1001 10229 29092 30049 91730 333 60000
OOXX FJP26 07171 99178 31775 ///// 00311 26/// /1102 10230 29091 30050 91740 333 60000
OOXX FJP26 07171 99178 31775 ///// 00311 26/// /1302 10231 29090 30052 91750 333 60000
OOXX FJP26 07181 99178 31775 ///// 00311 26/// /1302 10232 29090 30052 91800 333 60000
OOXX AUP09 07161 99124 31309 ///// 00321 26/// ///// 1//// 29/// 3//// 91614 333 6///0
OOXX AUP09 07161 99124 31309 ///// 00321 26/// ///// 1//// 29/// 3//// 91624 333 6///0
OOXX AUP09 07161 99124 31309 ///// 00321 26/// ///// 1//// 29/// 3//// 91634 333 6///0
OOXX AUP09 07161 99124 31309 ///// 00321 26/// ///// 1//// 29/// 3//// 91644 333 6///0
OOXX AUP09 07161 99124 31309 ///// 00321 26/// ///// 1//// 29/// 3//// 91654 333 6///0
OOXX AUP09 07171 99124 31309 ///// 00321 26/// ///// 1//// 29/// 3//// 91704 333 6///0
OOXX AUP09 07171 99124 31309 ///// 00321 26/// ///// 1//// 29/// 3//// 91714 333 6///0
OOXX AUP09 07171 99124 31309 ///// 00321 26/// ///// 1//// 29/// 3//// 91724 333 6///0
OOXX AUP09 07171 99124 31309 ///// 00321 26/// ///// 1//// 29/// 3//// 91734 333 6///0
OOXX AUP09 07171 99124 31309 ///// 00321 26/// ///// 1//// 29/// 3//// 91744 333 6///0
OOXX AUP09 07171 99124 31309 ///// 00321 26/// ///// 1//// 29/// 3//// 91754 333 6///0
OOXX AUP09 07181 99124 31309 ///// 00321 26/// ///// 1//// 29/// 3//// 91804 333 6///0
OOXX RUP54 07161 99586 10494 ///// 01271 26/// /0702 11013 29092 39981 91627 333 60120
OOXX RUP54 07161 99586 10494 ///// 01271 26/// /0602 11012 29092 39984 91637 333 60120
OOXX RUP54 07161 99586 10494 ///// 01271 26/// /0802 11012 29092 39986 91647 333 60120
OOXX RUP54 07161 99586 10494 ///// 01271 26/// /0701 11012 29092 39987 91657 333 60120
OOXX RUP54 07171 99586 10494 ///// 01271 26/// /0801 11012 29092 39989 91707 333 60120
OOXX RUP54 07171 99586 10494 ///// 01271 26/// /0801 11012 29092 39989 91717 333 60120
OOXX RUP54 07171 99586 10494 ///// 01271 26/// /0702 11012 29092 39989 91727 333 60120
OOXX RUP54 07171 99586 10494 ///// 01271 26/// /0701 11012 29092 39993 91737 333 60120
OOXX RUP54 07171 99586 10494 ///// 01271 26/// /0802 11012 29092 39994 91747 333 60120
OOXX RUP54 07171 99586 10494 ///// 01271 26/// /0702 11012 29092 39994 91757 333 60120
OOXX RUP54 07181 99586 10494 ///// 01271 26/// /0501 11013 29092 39995 91807 333 60120
OOXX RUP54 07181 99586 10494 ///// 01271 26/// /0501 11013 29092 39998 91817 333 60120
OOXX MRP43 07161 99181 70159 ///// 00101 26/// /0503 10294 29012 30121 91640 333 60000
OOXX MRP43 07161 99181 70159 ///// 00101 26/// /0504 10294 29012 30121 91650 333 60000
OOXX MRP43 07171 99181 70159 ///// 00101 26/// /0604 10294 29012 30120 91700 333 60000
OOXX MRP43 07171 99181 70159 ///// 00101 26/// /0603 10292 29012 30122 91710 333 60000
OOXX MRP43 07171 99181 70159 ///// 00101 26/// /0603 10288 29012 30121 91720 333 60000
OOXX MRP43 07171 99181 70159 ///// 00101 26/// /0503 10287 29013 30120 91730 333 60000
OOXX MRP43 07171 99181 70159 ///// 00101 26/// /0603 10285 29013 30122 91740 333 60000
OOXX MRP43 07171 99181 70159 ///// 00101 26/// /0503 10282 29013 30122 91750 333 60000
OOXX MRP43 07181 99181 70159 ///// 00101 26/// /0503 10279 29013 30121 91800 333 60000
OOXX MRP43 07181 99181 70159 ///// 00101 26/// /0603 10275 29013 30124 91810 333 60000
OOXX MRP43 07181 99181 70159 ///// 00101 26/// /0502 10274 29013 30123 91820 333 60000
OOXX MRP43 07181 99181 70159 ///// 00101 26/// /0503 10271 29014 30126 91830 333 60000
OOXX ISP34 07161 99641 70219 ///// 01301 26/// /1903 11053 29001 39880 91610 333 6///0
OOXX ISP34 07161 99641 70219 ///// 01301 26/// /1703 11052 29001 39880 91620 333 6///0
OOXX ISP34 07161 99641 70219 ///// 01301 26/// /1603 11055 29001 39879 91630 333 6///0
OOXX ISP34 07161 99641 70219 ///// 01301 26/// /1703 11055 29001 39878 91640 333 6///0
OOXX ISP34 07161 99641 70219 ///// 01301 26/// /1703 11055 29001 39877 91650 333 6///0
OOXX ISP34 07171 99641 70219 ///// 01301 26/// /1603 11054 29001 39877 91700 333 6///0
OOXX ISP34 07171 99641 70219 ///// 01301 26/// /1403 11052 29001 39876 91710 333 6///0
OOXX ISP34 07171 99641 70219 ///// 01301 26/// /1503 11052 29001 39877 91720 333 6///0
OOXX ISP34 07171 99641 70219 ///// 01301 26/// /1303 11050 29001 39876 91730 333 6///0
OOXX ISP34 07171 99641 70219 ///// 01301 26/// /1203 11049 29001 39876 91740 333 6///0
OOXX ISP34 07171 99641 70219 ///// 01301 26/// /1103 11046 29001 39875 91750 333 6///0
OOXX ISP34 07181 99641 70219 ///// 01301 26/// /1002 11047 29001 39874 91800 333 6///0
OOXX RUP60 07161 99531 11588 ///// 00651 26/// /2705 11124 29077 39986 91652 333 60000
OOXX RUP60 07171 99531 11588 ///// 00651 26/// /3002 11134 29076 39986 91702 333 60000
OOXX RUP60 07171 99531 11588 ///// 00651 26/// /2505 11142 29079 39986 91712 333 60000
OOXX RUP60 07171 99531 11588 ///// 00651 26/// /3303 11151 29080 39985 91722 333 60000
OOXX RUP60 07171 99531 11588 ///// 00651 26/// /2505 11156 29081 39985 91732 333 60000
OOXX RUP60 07171 99531 11588 ///// 00651 26/// /0104 11161 29082 39984 91742 333 60000
OOXX RUP60 07171 99531 11588 ///// 00651 26/// /1405 11160 29085 39984 91752 333 60000
OOXX RUP60 07181 99531 11588 ///// 00651 26/// /3004 11158 29083 39983 91802 333 60000
OOXX RUP60 07181 99531 11588 ///// 00651 26/// /3303 11157 29082 39983 91812 333 60000
OOXX RUP60 07181 99531 11588 ///// 00651 26/// /3001 11162 29081 39983 91822 333 60000
OOXX RUP60 07181 99531 11588 ///// 00651 26/// /3106 11169 29082 39982 91832 333 60000
OOXX RUP60 07181 99531 11588 ///// 00651 26/// /3202 11164 29084 39982 91842 333 60000
OOXX AUP04 07171 99377 31451 ///// 00311 26/// /3401 10144 29083 30035 91705 333 60000
OOXX AUP04 07171 99377 31451 ///// 00311 26/// /3301 10141 29084 30035 91715 333 60000
OOXX AUP04 07171 99377 31451 ///// 00311 26/// /3301 10140 29085 30035 91725 333 60000
OOXX AUP04 07171 99377 31451 ///// 00311 26/// /3401 10137 29085 30035 91735 333 60000
OOXX AUP04 07171 99377 31451 ///// 00311 26/// /3501 10135 29088 30035 91745 333 60000
OOXX AUP04 07171 99377 31451 ///// 00311 26/// /3401 10133 29088 30035 91755 333 60000
OOXX AUP04 07181 99377 31451 ///// 00311 26/// /0101 10135 29087 30035 91805 333 60000
OOXX AUP04 07181 99377 31451 ///// 00311 26/// /3201 10133 29086 30035 91815 333 60000
OOXX AUP04 07181 99377 31451 ///// 00311 26/// /3301 10132 29087 30035 91825 333 60000
OOXX AUP04 07181 99377 31451 ///// 00311 26/// /3501 10131 29087 30035 91835 333 60000
OOXX AUP04 07181 99377 31451 ///// 00311 26/// /0201 10133 29087 30035 91845 333 60000
OOXX AUP04 07181 99377 31451 ///// 00311 26/// /3401 10127 29087 30035 91855 333 60000
OOXX RUP58 07161 99442 11320 ///// 01121 26/// /1002 11176 29069 30125 91642 333 60000
OOXX RUP58 07161 99442 11320 ///// 01121 26/// /1002 11179 29068 30125 91652 333 60000
OOXX RUP58 07171 99442 11320 ///// 01121 26/// /1501 11183 29067 30126 91702 333 60000
OOXX RUP58 07171 99442 11320 ///// 01121 26/// /1801 11185 29068 30129 91712 333 60000
OOXX RUP58 07171 99442 11320 ///// 01121 26/// /1101 11184 29067 30129 91722 333 60000
OOXX RUP58 07171 99442 11320 ///// 01121 26/// /0000 11185 29067 30131 91732 333 60000
OOXX RUP58 07171 99442 11320 ///// 01121 26/// /2001 11187 29067 30132 91742 333 60000
OOXX RUP58 07171 99442 11320 ///// 01121 26/// /0000 11189 29069 30133 91752 333 60000
OOXX RUP58 07181 99442 11320 ///// 01121 26/// /0401 11187 29068 30134 91802 333 60000
OOXX RUP58 07181 99442 11320 ///// 01121 26/// /0401 11187 29067 30134 91812 333 60000
OOXX RUP58 07181 99442 11320 ///// 01121 26/// /0000 11188 29068 30133 91822 333 60000
OOXX RUP58 07181 99442 11320 ///// 01121 26/// /0601 11190 29068 30133 91832 333 60000
OOXX KIP39 07161 99020 51574 ///// 00181 26/// /1303 10254 29081 30086 91630 333 60000
OOXX KIP39 07161 99020 51574 ///// 00181 26/// /1303 10254 29081 30086 91640 333 60000
OOXX KIP39 07161 99020 51574 ///// 00181 26/// /1203 10255 29081 30086 91650 333 60000
OOXX KIP39 07171 99020 51574 ///// 00181 26/// /1203 10256 29081 30088 91700 333 60000
OOXX KIP39 07171 99020 51574 ///// 00181 26/// /1203 10257 29081 30089 91710 333 60000
OOXX KIP39 07171 99020 51574 ///// 00181 26/// /1203 10257 29081 30092 91720 333 60000
OOXX KIP39 07171 99020 51574 ///// 00181 26/// /1204 10260 29080 30092 91730 333 60000
OOXX KIP39 07171 99020 51574 ///// 00181 26/// /1204 10260 29080 30095 91740 333 60000
OOXX KIP39 07171 99020 51574 ///// 00181 26/// /1204 10261 29080 30094 91750 333 60000
OOXX KIP39 07181 99020 51574 ///// 00181 26/// /1204 10263 29079 30097 91800 333 60000
OOXX KIP39 07181 99020 51574 ///// 00181 26/// /1204 10266 29079 30097 91810 333 60000
OOXX KIP39 07181 99020 51574 ///// 00181 26/// /1204 10267 29078 30102 91820 333 60000
OOXX CKP23 07161 99212 51598 ///// 00051 26/// /1202 10244 29094 30131 91640 333 60000
OOXX CKP23 07161 99212 51598 ///// 00051 26/// /1301 10248 29093 30132 91650 333 60000
OOXX CKP23 07171 99212 51598 ///// 00051 26/// /1201 10254 29091 30131 91700 333 60000
OOXX CKP23 07171 99212 51598 ///// 00051 26/// /1101 10257 29090 30131 91710 333 60000
OOXX CKP23 07171 99212 51598 ///// 00051 26/// /1101 10260 29088 30131 91720 333 60000
OOXX CKP23 07171 99212 51598 ///// 00051 26/// /1002 10260 29089 30131 91730 333 60000
OOXX CKP23 07171 99212 51598 ///// 00051 26/// /1002 10263 29087 30131 91740 333 60000
OOXX CKP23 07171 99212 51598 ///// 00051 26/// /0802 10264 29087 30131 91750 333 60000
OOXX CKP23 07181 99212 51598 ///// 00051 26/// /1002 10268 29086 30132 91800 333 60000
OOXX CKP23 07181 99212 51598 ///// 00051 26/// /0602 10269 29085 30133 91810 333 60000
OOXX CKP23 07181 99212 51598 ///// 00051 26/// /0603 10268 29084 30135 91820 333 60000
OOXX CKP23 07181 99212 51598 ///// 00051 26/// /0702 10269 29085 30137 91830 333 60000
AAXX 07184 91559 46/// /0000 10246 40054 22200 00281
AAXX 07184 40100 12560 11202 10155 20111 30177 40209 52001 69921 81200 918// 333 10212 81826 92427
AAXX 07184 71384 16/// /0909 11001 21021 30108 40116 58031 60001 333 10002 21015 70000
AAXX 07184 71388 46/// /0904 11006 21025 39919 40108 57025 6///1 333 11006 21039 7////
AAXX 07184 71425 16/// /1115 11028 21043 30112 40149 56031 60001 333 11027 21040 70000
AAXX 07184 71427 16/// /0410 11053 21078 30137 40145 56024 60001 333 11051 21079 70000
AAXX 07184 60115 32970 21903 10126 20085 40288 53003 80002 333 10193 82073
AAXX 07184 60230 12956 52304 10166 20053 40259 55000 60002 80002 91749 333 10249 85070
AAXX 07184 71384 16/// /0909 11001 21021 30108 40116 58031 60001 333 10002 21015 70000
AAXX 07184 71388 46/// /0904 11006 21025 39919 40108 57025 6///1 333 11006 21039 7////
AAXX 07184 71425 16/// /1115 11028 21043 30112 40149 56031 60001 333 11027 21040 70000
AAXX 07184 71427 16/// /0410 11053 21078 30137 40145 56024 60001 333 11051 21079 70000
AAXX 07184 91531 46/// /0405 1//// 40049 22200 00272
AAXX 07184 60135 32550 50703 10122 20104 40276 50001 82502 333 10180 82620 85070
AAXX 07184 60156 32960 70307 10144 20110 40283 53001 83032 333 10186 83360 85070
AAXX 07184 48481 32560 60000 10252 20227 30060 40088 57017 81106 333 59011
AAXX 07184 82246 32497 60502 10320 20261 39889 40085 84240 333 59005
BBXX VRBL4 07183 99108 11105 41397 80519 10235 2023/ 40110 56010 70322 886// 22253 00230 20403 305// 40403 5//// 6//// 80230 ICE /////
BBXX WDB9949 07184 99355 71625 41498 62212 10175 20140 40211 52006 70222 8687/ 22224 00160 20802 3//// 4//// 5//// 6//// 80155 ICE /////
AAXX 07184 71400 17/60 /0505 11007 21010 69971 7//4/ 333 11005 21013 70027
AAXX 07184 71016 16/// ///// 11049 60001 333 11023 21117 70000
AAXX 07184 71758 16/// /3401 10053 20053 30017 40094 58027 60001 333 10053 20039 70155
BBXX 44056 07181 99362 70757 46/// ///// 1//// 91820 22200 00145 11002 21002 308// 41101 70009
AAXX 07184 71400 17/60 /0505 11007 21010 69971 7//4/ 333 11005 21013 70027
BBXX 46109 07181 99481 71234 46/// /0804 10063 40318 91757 22200 00083
BBXX 46110 07181 99481 71230 46/// /1302 10057 40318 91758
AAXX 07184 71758 16/// /3401 10053 20053 30017 40094 58027 60001 333 10053 20039 70155
AAXX 07184 71016 16/// ///// 11049 60001 333 11023 21117 70000
AAXX 07184 91642 46/// /0000 1//// 40066 22200 0////
BBXX 46094 07181 99446 71243 46/// /0404 10059 91830
BBXX 46094 07181 99446 71243 46/// /0503 10060 91820
BBXX 46094 07181 99446 71243 46/// /0403 10061 91810
BBXX 46094 07181 99446 71243 46/// /0403 10060 91800
BBXX 46094 07181 99446 71243 46/// /0504 10058 91750
BBXX 46094 07181 99446 71243 46/// /0504 10057 91740
BBXX SHIP 07184 99478 71455 41798 81717 10100 20081 40385 57010 70252 86620 22274 00170 20202 321// 40604 80090
BBXX 44055 07181 99391 70753 46/// ///// 1//// 91830 22200 00110 1//00 70002
AAXX 07184 91413 11469 89905 10257 20243 30046 40071 56008 69951 70282 84371 333 56999 70053 555 90718
BBXX C6YA5 07183 99414 50729 41997 41415 10153 2//// 40180 56010 7//// 82//1 22200 00170 20501 3//// 4//// 5//// 6//// 8//// ICE /////
BBXX VRHO2 07184 99428 71300 41898 80113 10110 20092 40300 51010 75052 86771 22274 00120 20801 30102 40801 50901 6//// 80100 ICE /////
BBXX C6YA5 07183 99414 50729 41997 41415 10153 2//// 40180 56010 7//// 82//1 22200 00170 20501 3//// 4//// 5//// 6//// 8//// ICE /////
BBXX 66022 07181 99541 10142 46/// /1907 10025 39900 22200 00055
BBXX SHIP 07184 99344 10353 42597 22207 10188 20117 40196 5//// 82200 222// 02210 20200 333 82828
BBXX SHIP 07184 99364 70063 42598 50406 10158 20124 40286 5//// 8//// 222// 02173 20301
BBXX 44055 07181 99391 70753 46/// ///// 1//// 91830 22200 00110 1//00 70002
BBXX SHIP 07184 99478 71455 41798 81717 10100 20081 40385 57010 70252 86620 22274 00170 20202 321// 40604 80090
BBXX 46094 07181 99446 71243 46/// /0504 10058 91750
BBXX 46094 07181 99446 71243 46/// /0504 10057 91740
BBXX 46094 07181 99446 71243 46/// /0404 10059 91830
BBXX 46094 07181 99446 71243 46/// /0403 10060 91800
BBXX 46094 07181 99446 71243 46/// /0503 10060 91820
BBXX 46094 07181 99446 71243 46/// /0403 10061 91810
BBXX VRHO2 07184 99428 71300 41898 80113 10110 20092 40300 51010 75052 86771 22274 00120 20801 30102 40801 50901 6//// 80100 ICE /////
BBXX 46109 07181 99481 71234 46/// /0804 10063 40318 91757 22200 00083
BBXX 46110 07181 99481 71230 46/// /1302 10057 40318 91758
BBXX 44056 07181 99362 70757 46/// ///// 1//// 91820 22200 00145 11002 21002 308// 41101 70009
BBXX VRBL4 07183 99108 11105 41397 80519 10235 2023/ 40110 56010 70322 886// 22253 00230 20403 305// 40403 5//// 6//// 80230 ICE /////
AAXX 07184 78764 31560 60912 10228 20152 39030 40155 57012 71520 86200 333 10243 20176 30/// 562// 58020 82620 84635
AAXX 07184 78764 31560 60912 10228 20152 39030 40155 57012 71520 86200 333 10243 20176 30/// 562// 58020 82620 84635
AAXX 07181 01008 11465 70704 11024 21063 39813 49846 51005 60002 77072 875// 333 11022 91110
AAXX 07184 71322 17/// /2721 11199 21217 39807 49820 58032 69931 7//4/ 333 11194 21220 70010
AAXX 07184 71575 17/// /2018 11055 21074 39716 49779 53001 69951 7//4/ 333 11052 21087 70016
AAXX 07184 71322 17/// /2721 11199 21217 39807 49820 58032 69931 7//4/ 333 11194 21220 70010
AAXX 07184 92036 46/// /9901 10259 40048 22200 00315
AAXX 07184 41660 119// 01306 10000 21042 38450 48542 60003 70500 333 59004
AAXX 07184 41660 119// 01306 10000 21042 38450 48542 60003 70500 333 59004
BBXX 63106 07184 99610 10017 46/// /1010 10057 49946 52020 22200
BBXX 63113 07184 99610 10017 46/// /1009 10068 21025 49944 52019 22200 10705 70024
BBXX 62107 07184 99501 70061 46/// /3122 10113 20051 40211 52021 22200 00124 10806 70031 333 90710 91132
BBXX 2AUO5 07183 99606 10016 41297 49902 10061 21025 49952 52028 7//// 8/7// 22211 2//// 80030
BBXX 63119 07184 99578 70022 41498 82927 10038 20007 40004 52051 70222 887// 22200 20302 329// 40404 5////
AAXX 07184 16008 11110 83606 11002 21011 38449 48413 57016 60032 77077 887// 333 10008 43005 88702 92801 93102
AAXX 07184 93713 46/// /0000 10141 40091 22200 00151
AAXX 07184 89610 46/// /0437 11056 39412 4//// 5//// 333 90700 91145
AAXX 07184 89610 46/// /0437 11056 39412 4//// 5//// 333 90700 91145
AAXX 07184 89610 46/// /0437 11056 39412 4//// 5//// 333 90700 91145
AAXX 07184 71181 17161 81011 10036 20027 30059 40095 58028 60191 74344 333 10068 20033 70320
AAXX 07184 71181 17161 81011 10036 20027 30059 40095 58028 60191 74344 333 10068 20033 70320
BBXX A8LK5 07183 99417 10035 41/98 22221 10184 20110 40310 57020 70200 8//// 22253 00190 80140
OOXX AAPIG 07184 99758 51003 56251 08502 46/// /0921 11115 21155 38778 49752 54000 91750
AAXX 07184 91689 46/// /3504 10248 40088 22200 00273
AAXX 07183 63695 32480 20000 10179 20164 82430 333 10246 82618
BBXX A8PF6 07184 99410 70209 416// 50309 10170 20137 40310 57010 7//22 857// 222// 0//// 20000 303// 40804 5//// 6//// 80150 ICE /////
AAXX 07184 63705 32565 23603 10214 20189 38845 48500 81105 333 10254 59009 81823 555 10196
BBXX 63119 07184 99578 70022 41498 82927 10038 20007 40004 52051 70222 887// 22200 20302 329// 40404 5////
BBXX A8JC5 07184 99399 70230 41598 51007 10147 20130 40280 57010 70311 8494/ 22264 00173 20101 335// 40504 5//// 80137
BBXX SHIP 07184 99364 70063 42598 50406 10158 20124 40286 5//// 8//// 222// 02173 20301
BBXX C60M8 07180 99360 70151 41/98 80908 10180 20136 40297 57/// 70222 8/727 22253 04183 20805 335// 40905 5//// 80155
BBXX A8LK5 07183 99417 10035 41/98 22221 10184 20110 40310 57020 70200 8//// 22253 00190 80140
BBXX 9VMB6 07183 99363 10153 41897 43021 10180 20130 40240 54/// 7//11 81/86 22273 04220 20703 80150
BBXX A8LK5 07183 99417 10035 41/98 22221 10184 20110 40310 57020 70200 8//// 22253 00190 80140
BBXX 63119 07184 99578 70022 41498 82927 10038 20007 40004 52051 70222 887// 22200 20302 329// 40404 5////
AAXX 07181 11146 11/00 92613 11108 21204 36834 47930 52002 60092 77174 333 89/00 91122 91122 92613
AAXX 07184 88963 11356 52342 10017 21029 39618 49647 53016 69901 72273 84570 333 56960 82708 83625 85550 90120 90220 90281 90310 90525 90630 92436 94070 95000 96015 96137
AAXX 07184 88968 11340 83224 10018 20002 39801 49816 57033 70041 72272 887// 333 56799 88708 90122 90267 90292 90931 92435 92732 92821 93004 93102 94070 95070 96010
AAXX 07184 89034 32970 01406 11076 21093 39496 49815 56011 333 92408 92851
AAXX 07184 89053 11350 72520 10030 20015 39722 49735 52060 69921 71072 84710 333 56970 84708 86457 90068 90084 90325 90915 92426 92801 94073 94477 95093 96470 97526 98550
AAXX 07184 89055 11115 82344 11018 21032 39412 49649 52013 69901 73674 8667/ 333 56569 86702 85360 90008 90091 90243 90276 92730 92813 92913 95198 96010
AAXX 07184 89066 32970 53604 10040 21028 39733 49741 52007 85070 333 56010 85360 92407 92734 92881 94030
BBXX 42044 07181 99262 70971 46/// /3404 10100 20050 40302 91800 22200 00200 333 91210
BBXX 42045 07181 99262 70965 46/// /3306 10107 40289 91800 22200 00223 333 91210
BBXX 42046 07181 99279 70940 46/// /3309 1//// 40277 91830 22200 00229 333 91212
BBXX 42046 07181 99279 70940 46/// /3409 1//// 40279 57013 91800 22200 00229 333 91212
BBXX SKEC 07181 99591 10197 46/// ///// 10042 49877 57002 22241 00078
BBXX 42047 07181 99279 70936 46/// /3310 10090 20038 40275 91800 22200 00231 333 91212
AAXX 07184 04418 NIL
AAXX 07184 04425 NIL
AAXX 07184 04432 NIL
AAXX 07184 04436 NIL
AAXX 07184 04464 46/// /2106 11321 21352 333 553// 20004
AAXX 07184 04485 NIL
AAXX 07184 04488 46/// /2611 11425 21460 37289 52008 333 553// 20000
BBXX VRHO2 07184 99428 71300 41898 80113 10110 20092 40300 51010 75052 86771 22274 00120 20801 30102 40801 50901 6//// 80100 ICE /////
AAXX 07184 17600 11560 71705 10181 20102 30181 40191 56002 69902 72982 878// 333 10210 20138 82820 85650
BBXX SHIP 07184 99431 10070 41497 12725 10175 20120 40190 51020 70100 81100 22243 00170 20503 80145 333 81810
BBXX AMOUK15 07184 99263 30077 46/// ///// 10175 20157 30176 40200 54002 91750
BBXX ZDLS1 07183 99283 30130 41297 81425 10171 20152 40176 52010 72552 8/7// 22232 04178 20702 317// 41004 80160
BBXX ONFP 07184 99321 30020 43593 71524 10160 2009/ 40290 52020 70322 87842 22233 04170 20605 31818 40707 50706 6//// 80120 /////
BBXX A8UL5 07183 99338 30286 41798 72118 10220 20183 40103 52030 70322 8481/ 22224 20303 305// 40405 5//// 80195
BBXX AMOUK08 07184 99501 70061 46/// ///// 10118 20068 30205 40206 52020 91750
BBXX 63055 07184 99606 10016 47999 /1302 10059 21020 49945 52025 700// 22200 10804 70022
BBXX 63106 07184 99610 10017 46/// /1010 10057 49946 52020 22200
BBXX 63105 07184 99610 10017 47698 ///// 10053 21024 49946 52019 700// 22200
BBXX 42013 07181 99272 70829 46/// ///// 1//// 40166 91820 22200 00213
BBXX 42013 07181 99272 70829 46/// ///// 1//// 40169 58019 91800 22200 00213
BBXX SHIP 07184 99431 10070 41497 12725 10175 20120 40190 51020 70100 81100 22243 00170 20503 80145 333 81810
BBXX SKEC 07181 99591 10197 46/// ///// 10042 49877 57002 22241 00078
BBXX A8PF6 07184 99410 70209 416// 50309 10170 20137 40310 57010 7//22 857// 222// 0//// 20000 303// 40804 5//// 6//// 80150 ICE /////
BBXX 42047 07181 99279 70936 46/// /3310 10090 20038 40275 91800 22200 00231 333 91212
BBXX 42045 07181 99262 70965 46/// /3306 10107 40289 91800 22200 00223 333 91210
BBXX 42046 07181 99279 70940 46/// /3409 1//// 40279 57013 91800 22200 00229 333 91212
BBXX 42044 07181 99262 70971 46/// /3404 10100 20050 40302 91800 22200 00200 333 91210
BBXX 42046 07181 99279 70940 46/// /3309 1//// 40277 91830 22200 00229 333 91212
BBXX WZD2465 07184 99467 70848 41/96 /2430 11027 2//// 4//// 73872 8//// 22273 0//// 20402 3//// 4//// 5//// 6//// 8//// ICE /////
BBXX A8VL8 07184 99304 30353 41298 20522 10240 20196 40120 54000 7//00 828// 22233 00220 20204 331// 40204 5//// 6//// 80210 /////
BBXX SHIP 07184 99431 10070 41497 12725 10175 20120 40190 51020 70100 81100 22243 00170 20503 80145 333 81810
BBXX SHIP 07184 99431 10070 41497 12725 10175 20120 40190 51020 70100 81100 22243 00170 20503 80145 333 81810
AAXX 07184 71799 11374 80404 10051 20037 30302 40326 53011 69901 75155 87501 333 10053 20031 70002 90917
AAXX 07184 71799 11374 80404 10051 20037 30302 40326 53011 69901 75155 87501 333 10053 20031 70002 90917
AAXX 07184 63740 32580 30414 10191 20159 48504 81930 333 10261 59006 81920 83358
AAXX 07184 71408 46/// /0630 10031 20028 30021 40100 5/032 6///1 333 20025 7////
AAXX 07184 71408 46/// /0630 10031 20028 30021 40100 5/032 6///1 333 20025 7////
AAXX 07181 98132 31462 50903 10250 20241 40157 58022 70544 85200 333 56299 85817
AAXX 07181 98133 NIL
AAXX 07181 98222 31575 20401 10242 20211 40090 58010 70544 81201 333 56999 81820
AAXX 07181 98233 31570 70000 10230 20206 40109 58012 70544 87500 333 56999 87620
AAXX 07181 98324 31462 70902 10268 20236 40070 57020 70544 82268 333 56999 82816 83358 87280
AAXX 07181 98327 31668 73203 10236 20183 39917 40091 57018 70544 82170 333 56999 81842 87360
AAXX 07181 98334 32460 80000 10238 20213 39900 40103 57019 8227/ 333 56999 82817 88357
AAXX 07181 98425 32558 40902 10268 20230 40085 58013 84270 333 56999 82820 84358
AAXX 07181 98426 11560 70604 10262 20187 40084 57016 70544 81170 333 56999 81820 87358
AAXX 07181 98427 11462 83603 10242 20228 39890 40067 58030 60101 76166 8382/ 333 56199 83818 88456
AAXX 07181 98428 32458 61804 10263 20233 40080 58016 82461 333 56999 82618 83080
AAXX 07181 98432 31568 60402 10260 20233 40082 58015 70544 83272 333 56999 83820
AAXX 07181 98433 32460 70403 10215 20196 39358 40076 57016 84270 333 56999 84812 86357
AAXX 07181 98434 11468 73602 10260 20243 30081 40089 58020 60011 72522 84870 333 56199 84817 86358
AAXX 07181 98435 11465 80402 10260 20244 40073 5//// 60091 72566 8427/ 333 56999 84817 88357
AAXX 07181 98442 NIL
AAXX 07181 98446 11465 80902 10254 20249 30044 40090 58009 60211 76366 84207 333 56299 84818 88270
AAXX 07181 98447 11465 80405 10236 20228 39830 40094 5//// 60121 76196 8482/ 333 56199 84816 88456
AAXX 07181 98538 11462 83605 10260 20240 30059 40054 57013 60011 71562 83267 333 56229 83811 84357
AAXX 07181 98546 11575 70000 10240 20235 30061 40069 57009 60071 70182 83268 333 56999 83820 87275
AAXX 07181 98548 11466 50000 10247 20240 30067 40073 56006 69941 70181 82208 333 56299 82816 84272
AAXX 07181 98553 11464 81401 10250 20243 30063 40067 56011 60031 71584 83977 333 56999 83915 85358 88272
AAXX 07181 98558 11458 82302 10260 20258 39995 40063 58019 60051 76182 8492/ 333 56999 84915 88457
AAXX 07181 98642 11462 80000 10260 20254 30046 40055 58019 60331 70262 8527/ 333 56199 85815 88358
AAXX 07181 98644 11462 80000 10260 20248 30048 40057 58020 69981 70286 82267 333 56999 82817 86358 88272
AAXX 07181 98648 11465 73601 10226 20212 39980 40062 57021 60041 71584 83968 333 56299 82912 86270
AAXX 07181 98746 11460 81901 10242 20211 40075 58025 60021 71386 82977 333 56999 82918 85358 87275
AAXX 07181 98751 11460 80000 10210 20207 39388 40058 57024 60011 70266 8597/ 333 56999 85915 88356
AAXX 07181 98752 11460 80000 10242 20234 40056 58039 60151 72162 82277 333 56999 82818 84358 88275
AAXX 07181 98851 32470 70000 10238 20207 39908 40057 58017 82270 333 56999 82818 87358
BBXX WZD2465 07184 99467 70848 41/96 /2430 11027 2//// 4//// 73872 8//// 22273 0//// 20402 3//// 4//// 5//// 6//// 8//// ICE /////
BBXX S6SR 07184 99519 50653 41/// /2919 10110 20092 40150 51050 7//// 83//8 22213 00080 2//// 3//// 4//// 5//// 6//// 80100 ICE /////
BBXX 42013 07181 99272 70829 46/// ///// 1//// 40166 91820 22200 00213
BBXX 42013 07181 99272 70829 46/// ///// 1//// 40169 58019 91800 22200 00213
BBXX CFK9698 07184 99500 70668 43/98 80620 11004 2//// 41009 54000 70022 8//// 222// 0//// 20302 3//// 4//// 5//// 6//// 8//// ICE /////
BBXX S6SR 07184 99519 50653 41/// /2919 10110 20092 40150 51050 7//// 83//8 22213 00080 2//// 3//// 4//// 5//// 6//// 80100 ICE /////
BBXX ZCBZ4 07184 99061 11074 41/98 /0203 10278 20257 40110 5//// 70200 8//// 22253 00300 20400 305// 40402 80262
BBXX ZCBZ4 07184 99061 11074 41/98 /0203 10278 20257 40110 5//// 70200 8//// 22253 00300 20400 305// 40402 80262
BBXX 63106 07184 99610 10017 46/// /1010 10057 49946 52020 22200
BBXX 63113 07184 99610 10017 46/// /1009 10068 21025 49944 52019 22200 10705 70024
BBXX 62107 07184 99501 70061 46/// /3122 10113 20051 40211 52021 22200 00124 10806 70031 333 90710 91132
BBXX 2AUO5 07183 99606 10016 41297 49902 10061 21025 49952 52028 7//// 8/7// 22211 2//// 80030
AAXX 07184 87803 32980 00000 10243 20043 39258 40154 57016
BBXX SHIP 07184 99366 31748 41/98 32310 10168 40108 70122 22293
BBXX PFDH 07183 99367 70092 41/98 /9901 10149 20098 40289 55001 70211 8//// 22274 00185 20000 80120
BBXX SHIP 07184 99366 31748 41/98 32310 10168 40108 70122 22293
BBXX CFK9698 07184 99500 70668 43/98 80620 11004 2//// 41009 54000 70022 8//// 222// 0//// 20302 3//// 4//// 5//// 6//// 8//// ICE /////
BBXX ZCBZ4 07184 99061 11074 41/98 /0203 10278 20257 40110 5//// 70200 8//// 22253 00300 20400 305// 40402 80262
AAXX 07184 89262 46/// /1820 11024 21042 39714 49757 5//// 91810
BBXX PFDH 07183 99367 70092 41/98 /9901 10149 20098 40289 55001 70211 8//// 22274 00185 20000 80120
AAXX 07184 89868 46/// /1908 11060 39676 49743 52011 91840
AAXX 07184 91375 46/// /0510 10276 40066 22200 00285
AAXX 07184 16450 11461 23004 10094 20094 39125 48586 52017 60002 70261 82200 333 10122 82810
AAXX 07184 91165 32566 60612 10233 20178 30135 40171 53011 91753
AAXX 07184 91212 12966 01006 10261 20233 31346 40083 56006 69901 91754
AAXX 07184 91245 31458 60910 10250 20250 30117 716// 91755
AAXX 07184 91285 31448 82703 10200 20180 30154 761// 91759
AAXX 07184 91334 11474 80608 10261 20234 30063 40066 55002 60021 70282 84371
AAXX 07184 91348 11470 81005 10256 20243 30020 40073 55005 60021 78088 86201
AAXX 07184 91376 11474 60808 10277 20239 30064 40068 53003 69901 72511 83801
AAXX 07184 91408 11471 81605 10267 20252 30017 40055 57017 60041 72598 8692/
AAXX 07184 91413 11469 89905 10257 20243 30046 40071 56008 69951 70282 84371
AAXX 07184 91610 11599 70812 10272 20237 40064 53010 60001 70200 84239
AAXX 07184 91155 NIL
AAXX 07184 91203 NIL
AAXX 07184 91217 NIL
AAXX 07184 91232 NIL
AAXX 07184 91250 NIL
AAXX 07184 91275 NIL
AAXX 07184 91317 NIL
AAXX 07184 91324 NIL
AAXX 07184 91339 NIL
AAXX 07184 91353 NIL
AAXX 07184 91356 NIL
AAXX 07184 91366 NIL
AAXX 07184 91367 NIL
AAXX 07184 91369 NIL
AAXX 07184 91371 NIL
AAXX 07184 91378 NIL
AAXX 07184 91425 NIL
AAXX 07184 91434 NIL
AAXX 07184 91601 NIL
AAXX 07184 03008 12486 72815 10050 21007 49955 60002 82802 91750 333 10056 41998 81818 87075 90710 91125
BBXX AMOUK08 07184 99501 70061 46/// ///// 10118 20068 30205 40206 52020 91750
BBXX 63055 07184 99606 10016 47999 /1302 10059 21020 49945 52025 700// 22200 10804 70022
BBXX 63106 07184 99610 10017 46/// /1010 10057 49946 52020 22200
BBXX 63105 07184 99610 10017 47698 ///// 10053 21024 49946 52019 700// 22200
BBXX SHIP 07184 99366 31748 41/98 32310 10168 40108 70122 22293
BBXX PFDH 07183 99367 70092 41/98 /9901 10149 20098 40289 55001 70211 8//// 22274 00185 20000 80120
AAXX 07184 71732 16/// /1507 11027 21053 60001 333 11027 21079 70000
AAXX 07184 71392 16/// /0708 11006 21024 60001 333 11004 21018 70000
AAXX 07184 71430 16/// /3408 10017 21021 30014 40111 58030 60001 333 10021 20008 70000
AAXX 07184 71307 16/// /3207 10006 21050 39886 40138 58024 60001 333 10009 21008 70000
BBXX A8PQ4 07183 99215 10680 41497 30505 10230 2017/ 40120 54/// 70110 82//8 22273 04300 2//// 3//// 4//// 5//// 6//// 80190 ICE /////
AAXX 07184 97980 01440 70000 10258 20249 30035 40042 57018 60071 79196 86943 333 56000 57903 60077 83916 83617 80959
AAXX 07184 71430 16/// /3408 10017 21021 30014 40111 58030 60001 333 10021 20008 70000
AAXX 0718/ 68902 46/// ///// 40252 57002
AAXX 07184 91165 32566 60612 10233 20178 30135 40171 53011 91753
AAXX 07184 91212 12966 01006 10261 20233 31346 40083 56006 69901 91754
AAXX 07184 91285 31448 82703 10200 20180 30154 761// 91759
AAXX 07184 91334 11474 80608 10261 20234 30063 40066 55002 60021 70282 84371
AAXX 07184 91348 11470 81005 10256 20243 30020 40073 55005 60021 78088 86201
AAXX 07184 91376 11474 60808 10277 20239 30064 40068 53003 69901 72511 83801
AAXX 07184 91408 11471 81605 10267 20252 30017 40055 57017 60041 72598 8692/
AAXX 07184 91413 11469 89905 10257 20243 30046 40071 56008 69951 70282 84371
AAXX 07184 91245 31458 60910 10250 20250 30117 716// 91755
BBXX A8PQ4 07183 99215 10680 41497 30505 10230 2017/ 40120 54/// 70110 82//8 22273 04300 2//// 3//// 4//// 5//// 6//// 80190 ICE /////
AAXX 07184 97460 01459 70000 10246 20237 30038 40052 57012 69921 72162 84376 333 56000 57901 69927 81917 83817 80959 80858
BBXX 63106 07184 99610 10017 46/// /1010 10057 49946 52020 22200
BBXX 63113 07184 99610 10017 46/// /1009 10068 21025 49944 52019 22200 10705 70024
BBXX 62107 07184 99501 70061 46/// /3122 10113 20051 40211 52021 22200 00124 10806 70031 333 90710 91132
BBXX 2AUO5 07183 99606 10016 41297 49902 10061 21025 49952 52028 7//// 8/7// 22211 2//// 80030
AAXX 07181 25677 11/91 93220 11124 21124 39894 49900 57019 60032 73933 333 21174 91021 91122 92992
BBXX 52243 07181 99193 11666 46/// ///// 1//// 91800 22200 00267
BBXX 51179 07181 99143 51708 46/// ///// 1//// 91800 22200 00286
BBXX 51178 07181 99142 51695 46/// ///// 1//// 91800 22200 00282
BBXX 52246 07181 99152 11457 46/// ///// 1//// 91800 22200 00282
BBXX 51176 07181 99278 71758 46/// ///// 1//// 91800 22200 00226
BBXX 52245 07181 99181 11458 46/// ///// 1//// 91800 22200 00281
BBXX 51174 07181 99142 51697 46/// ///// 1//// 91800 22200 00283
BBXX 52244 07181 99200 11452 46/// ///// 1//// 91800 22200 00270
BBXX 51173 07181 99260 71739 46/// ///// 1//// 91800 22200 00237
BBXX 51172 07181 99284 71783 46/// ///// 1//// 91800 22200 00233
BBXX 51171 07181 99064 71623 46/// ///// 1//// 91800 22200 00281
BBXX 51170 07181 99168 71695 46/// ///// 1//// 91800 22200 00264
BBXX 51169 07181 99004 51600 46/// ///// 1//// 91800 22200 00252
BBXX 52248 07181 99135 11448 46/// ///// 1//// 91800 22200 00284
AAXX 07184 13619 12665 33204 10060 20015 39405 42793 52008 69902 83500 333 10102 83643
AAXX 07184 13629 12668 21404 10046 20010 39111 42766 52012 60042 82500 333 10080 82640
BBXX 42043 07181 99290 70949 46/// /3509 1//// 40284 91830 22200 00166 333 91211
BBXX 42043 07181 99290 70949 46/// /3409 1//// 40291 91800 22200 00167 333 91212
BBXX 42044 07181 99262 70971 46/// /3505 10099 20050 40297 91830 22200 00200 333 91209
BBXX 42047 07181 99279 70936 46/// /3309 10092 20044 40270 91830 22200 00231 333 91212
BBXX AMOUK08 07184 99501 70061 46/// ///// 10118 20068 30205 40206 52020 91750
BBXX 63055 07184 99606 10016 47999 /1302 10059 21020 49945 52025 700// 22200 10804 70022
BBXX 63106 07184 99610 10017 46/// /1010 10057 49946 52020 22200
BBXX 63105 07184 99610 10017 47698 ///// 10053 21024 49946 52019 700// 22200
BBXX 52244 07181 99200 11452 46/// ///// 1//// 91800 22200 00270
BBXX 52248 07181 99135 11448 46/// ///// 1//// 91800 22200 00284
BBXX 52245 07181 99181 11458 46/// ///// 1//// 91800 22200 00281
BBXX 52246 07181 99152 11457 46/// ///// 1//// 91800 22200 00282
BBXX 52243 07181 99193 11666 46/// ///// 1//// 91800 22200 00267
BBXX UEYO 07181 99583 11495 42/97 /0209 11070 40147 54000 70200 22213 00010 20503
BBXX 42047 07181 99279 70936 46/// /3309 10092 20044 40270 91830 22200 00231 333 91212
BBXX 42044 07181 99262 70971 46/// /3505 10099 20050 40297 91830 22200 00200 333 91209
BBXX 42043 07181 99290 70949 46/// /3509 1//// 40284 91830 22200 00166 333 91211
BBXX 42043 07181 99290 70949 46/// /3409 1//// 40291 91800 22200 00167 333 91212
BBXX 51172 07181 99284 71783 46/// ///// 1//// 91800 22200 00233
BBXX 51176 07181 99278 71758 46/// ///// 1//// 91800 22200 00226
BBXX 51173 07181 99260 71739 46/// ///// 1//// 91800 22200 00237
BBXX 51169 07181 99004 51600 46/// ///// 1//// 91800 22200 00252
BBXX 51179 07181 99143 51708 46/// ///// 1//// 91800 22200 00286
BBXX 51174 07181 99142 51697 46/// ///// 1//// 91800 22200 00283
BBXX 51178 07181 99142 51695 46/// ///// 1//// 91800 22200 00282
BBXX 51171 07181 99064 71623 46/// ///// 1//// 91800 22200 00281
BBXX 51170 07181 99168 71695 46/// ///// 1//// 91800 22200 00264
BBXX A8PF6 07184 99410 70209 416// 50309 10170 20137 40310 57010 7//22 857// 222// 0//// 20000 303// 40804 5//// 6//// 80150 /////
BBXX SHIP 07184 99227 30514 41497 31118 10260 20218 40170 54000 70200 82200 22252 04260 20803 318// 40501 5//// 80230
BBXX SHIP 07184 99227 30514 41497 31118 10260 20218 40170 54000 70200 82200 22252 04260 20803 318// 40501 5//// 80230
BBXX SHIP 07184 99227 30514 41497 31118 10260 20218 40170 54000 70200 82200 22252 04260 20803 318// 40501 5//// 80230
AAXX 0718/ 89327 46/// ///// 11029 39453 4//// 5////
AAXX 07181 01008 11465 70704 11024 21063 39813 49846 51005 69902 77072 875// 333 11022 91110
BBXX SHIP 07184 99227 30514 41497 31118 10260 20218 40170 54000 70200 82200 22252 04260 20803 318// 40501 5//// 80230
AAXX 07184 13611 12665 22704 10126 20079 30055 40145 52006 60022 82500 333 10154 82636
BBXX UEYO 07181 99583 11495 42/97 /0209 11070 40147 54000 70200 22213 00010 20503
AAXX 07181 02974 11480 81605 10023 20003 39899 49965 52004 69902 78382 885// 333 10025 21049 43///
AAXX 07181 02805 32499 71702 11081 21097 39796 49931 52026 70222 81410 333 11062 21107 47///
AAXX 07181 02805 32499 71702 11081 21097 39796 49931 52026 70222 81410 333 11062 21107 47///
BBXX 63106 07184 99610 10017 46/// /1010 10057 49946 52020 22200
BBXX 63113 07184 99610 10017 46/// /1009 10068 21025 49944 52019 22200 10705 70024
BBXX 62107 07184 99501 70061 46/// /3122 10113 20051 40211 52021 22200 00124 10806 70031 333 90710 91132
BBXX 2AUO5 07183 99606 10016 41297 49902 10061 21025 49952 52028 7//// 8/7// 22211 2//// 80030
AAXX 07184 97260 32560 61503 10248 20230 30056 40063 57013 82501 333 56000 82620 85080
BBXX SHIP 07184 99190 31472 41/98 32404 10280 40030 70200 22234
BBXX SHIP 07184 99190 31472 41/98 32404 10280 40030 70200 22234
BBXX SHIP 07184 99190 31472 41/98 32404 10280 40030 70200 22234
BBXX SHIP 07184 99190 31472 41/98 32404 10280 40030 70200 22234
BBXX SHIP 07184 99190 31472 41/98 32404 10280 40030 70200 22234
BBXX SHIP 07184 99190 31472 41/98 32404 10280 40030 70200 22234
BBXX SHIP 07184 99190 31472 41/98 32404 10280 40030 70200 22234
BBXX SHIP 07184 99190 31472 41/98 32404 10280 40030 70200 22234
BBXX SHIP 07184 99190 31472 41/98 32404 10280 40030 70200 22234
BBXX SHIP 07184 99190 31472 41/98 32404 10280 40030 70200 22234
AAXX 07181 24817 415// 82003 11218 21236 39969 40370 57028 77172 8652/
AAXX 07184 96745 32457 60000 10266 20230 30079 40084 57006 82521 333 56000 82620 85460
AAXX 07181 20046 11497 81205 11056 21067 39965 49997 53005 69900 77173 885// 333 11037
BBXX AMOUK08 07184 99501 70061 46/// ///// 10118 20068 30205 40206 52020 91750
BBXX 63055 07184 99606 10016 47999 /1302 10059 21020 49945 52025 700// 22200 10804 70022
BBXX 63106 07184 99610 10017 46/// /1010 10057 49946 52020 22200
BBXX 63105 07184 99610 10017 47698 ///// 10053 21024 49946 52019 700// 22200
BBXX SHIP 07184 99190 31472 41/98 32404 10280 40030 70200 22234
AAXX 07184 17375 11558 73103 10143 20141 30148 40150 57010 60332 79598 85970 333 10170 81925 84827 87358 92436
AAXX 07184 71612 16/// /2002 10012 21004 30021 40112 56033 60001 333 10015 21006 70000
AAXX 07184 97372 32458 40000 10247 20238 39950 40071 57008 82101 333 56000 82818 80480
AAXX 07184 40101 12957 00000 10089 20026 39135 48530 51007 60001 918// 333 10168
AAXX 07181 25745 42698 60000 11292 21315 30055 40112 57014 86500
BBXX 63106 07184 99610 10017 46/// /1010 10057 49946 52020 22200
BBXX 63113 07184 99610 10017 46/// /1009 10068 21025 49944 52019 22200 10705 70024
BBXX 62107 07184 99501 70061 46/// /3122 10113 20051 40211 52021 22200 00124 10806 70031 333 90710 91132
BBXX 2AUO5 07183 99606 10016 41297 49902 10061 21025 49952 52028 7//// 8/7// 22211 2//// 80030
AAXX 07181 25677 11/91 93220 11124 21124 39894 49900 57019 60032 73933 333 21174 91021 91122 92992
AAXX 07184 97686 11350 80000 10170 20159 38334 40066 56003 69931 71522 85747 333 56000 84709 87360
AAXX 07181 98232 31570 52701 10250 20/// 40121 58010 70242 82270 333 56999 82820 83358
AAXX 07181 25282 11556 80210 11148 21154 30105 40111 57030 69960 77173 885// 333 21235 46004 55000 91113
AAXX 07184 89262 46/// /1820 11024 21041 39713 49756 5//// 91800
BBXX 42045 07181 99262 70965 46/// /3306 10107 40288 91830 22200 00223 333 91209
AAXX 07184 97028 32560 50000 10230 20218 30056 40062 53001 82411 333 56000 82620 83460
BBXX AMOUK08 07184 99501 70061 46/// ///// 10118 20068 30205 40206 52020 91750
BBXX 63055 07184 99606 10016 47999 /1302 10059 21020 49945 52025 700// 22200 10804 70022
BBXX 63106 07184 99610 10017 46/// /1010 10057 49946 52020 22200
BBXX 63105 07184 99610 10017 47698 ///// 10053 21024 49946 52019 700// 22200
AAXX 07184 87909 32980 20521 10190 20034 30094 40168 57012 80006 333 56005 82270
BBXX 42045 07181 99262 70965 46/// /3306 10107 40288 91830 22200 00223 333 91209
AAXX 07184 87938 32680 72522 10107 20037 39978 40048 52012 85570 333 56550 85635 84360
AAXX 07184 87925 32680 72316 10192 21019 30114 40138 56005 81148 333 56500 57343 81835 87270
AAXX 07184 96935 11556 50000 10245 20229 30077 40083 56009 60181 70162 82171 333 56000 82820 84360
BBXX 63106 07184 99610 10017 46/// /1010 10057 49946 52020 22200
BBXX 63113 07184 99610 10017 46/// /1009 10068 21025 49944 52019 22200 10705 70024
BBXX 62107 07184 99501 70061 46/// /3122 10113 20051 40211 52021 22200 00124 10806 70031 333 90710 91132
BBXX 2AUO5 07183 99606 10016 41297 49902 10061 21025 49952 52028 7//// 8/7// 22211 2//// 80030
AAXX 07184 42706 31995 00000 10188 20158 40137 70500 333 58017
AAXX 07184 96741 32556 70000 10274 20237 30072 40076 57010 83571 333 56000 83622
AAXX 07184 48409 31958 10202 10232 20204 39958 40107 57009 71000 80001 333 59007
AAXX 07184 48427 31950 60000 10237 20214 30089 40097 57002 71022 80006 333 59013
AAXX 07184 71245 46/// /0506 11136 21151 6///1 333 11078 21142 7////
AAXX 07184 71284 16/// ///// 11093 21167 60001 333 11044 21105 70000
AAXX 07181 24951 41999 82804 11252 21277 30238 40444 57009 73633 8802/
AAXX 07184 71005 16/// ///// 11089 21171 60001 333 11050 21114 70000
AAXX 07184 71047 16/// ///// 11092 21167 60001 333 11054 21112 70000
AAXX 07184 71271 16/// ///// 11101 21169 60001 333 11063 21110 70000
AAXX 07184 71542 16/// /2810 11159 21213 60001 333 11106 21160 70010
AAXX 07184 71545 16/// ///// 11088 21167 60001 333 11049 21110 70000
AAXX 07184 71005 16/// ///// 11089 21171 60001 333 11050 21114 70000
AAXX 07184 71047 16/// ///// 11092 21167 60001 333 11054 21112 70000
AAXX 07184 71542 16/// /2810 11159 21213 60001 333 11106 21160 70010
AAXX 07184 71545 16/// ///// 11088 21167 60001 333 11049 21110 70000
AAXX 07184 71271 16/// ///// 11101 21169 60001 333 11063 21110 70000
BBXX AMOUK08 07184 99501 70061 46/// ///// 10118 20068 30205 40206 52020 91750
BBXX 63055 07184 99606 10016 47999 /1302 10059 21020 49945 52025 700// 22200 10804 70022
BBXX 63106 07184 99610 10017 46/// /1010 10057 49946 52020 22200
BBXX 63105 07184 99610 10017 47698 ///// 10053 21024 49946 52019 700// 22200
AAXX 07181 20069 41572 71209 11078 21109 30014 40027 57004 73773 875// 333 87632 91112
AAXX 07181 20292 41998 62105 11182 21215 30116 40136 58002 70272 83031 333 91108
AAXX 07184 97240 31458 50000 10262 20254 39962 40076 57015 70511 83131 333 56000 83816
AAXX 07184 71078 17548 83022 11165 21219 39611 40063 53001 60001 771// 333 11099 21166 70000
AAXX 07183 63612 32980 00000 10276 20204 40103 333 10343 59003
AAXX 07184 71573 16/// /2704 10007 21025 39838 40122 58019 60001 333 10007 21007 70000
AAXX 07184 71573 16/// /2704 10007 21025 39838 40122 58019 60001 333 10007 21007 70000
BBXX 63106 07184 99610 10017 46/// /1010 10057 49946 52020 22200
BBXX 63113 07184 99610 10017 46/// /1009 10068 21025 49944 52019 22200 10705 70024
BBXX 62107 07184 99501 70061 46/// /3122 10113 20051 40211 52021 22200 00124 10806 70031 333 90710 91132
BBXX 2AUO5 07183 99606 10016 41297 49902 10061 21025 49952 52028 7//// 8/7// 22211 2//// 80030
BBXX 52249 07181 99052 31503 46/// ///// 1//// 91800 22200 00307
BBXX 42047 07181 99279 70936 46/// /3309 10092 20044 40270 91830 22200 00231 333 91212
BBXX 42047 07181 99279 70936 46/// /3310 10090 20038 40275 91800 22200 00231 333 91212
AAXX 07183 91555 31598 30000 10256 20256 40062 53001 70222 83900 333 569// 82823 81925
AAXX 07183 91555 31598 30000 10256 20256 40062 53001 70222 83900 333 569// 82823 81925
BBXX AMOUK08 07184 99501 70061 46/// ///// 10118 20068 30205 40206 52020 91750
BBXX 63055 07184 99606 10016 47999 /1302 10059 21020 49945 52025 700// 22200 10804 70022
BBXX 63106 07184 99610 10017 46/// /1010 10057 49946 52020 22200
BBXX 63105 07184 99610 10017 47698 ///// 10053 21024 49946 52019 700// 22200
BBXX 52249 07181 99052 31503 46/// ///// 1//// 91800 22200 00307
BBXX A8AT8 07184 99117 11125 41797 72309 10260 20232 40130 57010 70322 87/// 22253 00270 2//// 3//// 4//// 5//// 6//// 80240 ICE /////
BBXX A8AT8 07184 99117 11125 41797 72309 10260 20232 40130 57010 70322 87/// 22253 00270 2//// 3//// 4//// 5//// 6//// 80240 ICE /////
AAXX 07183 87896 32980 01418 10140 20017 30109 40206 52004 333 18205
BBXX 63106 07184 99610 10017 46/// /1010 10057 49946 52020 22200
BBXX 63113 07184 99610 10017 46/// /1009 10068 21025 49944 52019 22200 10705 70024
BBXX 62107 07184 99501 70061 46/// /3122 10113 20051 40211 52021 22200 00124 10806 70031 333 90710 91132
BBXX 2AUO5 07183 99606 10016 41297 49902 10061 21025 49952 52028 7//// 8/7// 22211 2//// 80030
BBXX MINFR09 0718/ 99201 31098 46/// ///// 40094 57012
AAXX 07181 78090 15/// /0000 10259 30152 40155 69901 91800 222// 00152
BBXX MINFR09 0718/ 99201 31098 46/// ///// 40094 57012
AAXX 07184 71233 17/// /2908 11086 21161 69951 7//4/ 333 11038 21100 70009
AAXX 07184 71352 16/// /2809 11011 21034 39662 40120 58020 60001 333 11007 21022 70000
AAXX 07184 71233 17/// /2908 11086 21161 69951 7//4/ 333 11038 21100 70009
AAXX 07184 71352 16/// /2809 11011 21034 39662 40120 58020 60001 333 11007 21022 70000
BBXX AMOUK08 07184 99501 70061 46/// ///// 10118 20068 30205 40206 52020 91750
BBXX 63055 07184 99606 10016 47999 /1302 10059 21020 49945 52025 700// 22200 10804 70022
BBXX 63106 07184 99610 10017 46/// /1010 10057 49946 52020 22200
BBXX 63105 07184 99610 10017 47698 ///// 10053 21024 49946 52019 700// 22200
BBXX UGPK 08001 99500 11464 43/98 70511 11050 40100 56070 22221 00020 2//35 3//04
BBXX 63106 07184 99610 10017 46/// /1010 10057 49946 52020 22200
BBXX 63113 07184 99610 10017 46/// /1009 10068 21025 49944 52019 22200 10705 70024
BBXX 62107 07184 99501 70061 46/// /3122 10113 20051 40211 52021 22200 00124 10806 70031 333 90710 91132
BBXX 2AUO5 07183 99606 10016 41297 49902 10061 21025 49952 52028 7//// 8/7// 22211 2//// 80030
AAXX 07184 48407 31959 50202 10235 20196 39963 40106 56003 71022 81046 333 59003
AAXX 07184 48583 31559 50000 10241 20217 30085 40091 57002 71022 82105 333 59001
BBXX AMOUK08 07184 99501 70061 46/// ///// 10118 20068 30205 40206 52020 91750
BBXX 63055 07184 99606 10016 47999 /1302 10059 21020 49945 52025 700// 22200 10804 70022
BBXX 63106 07184 99610 10017 46/// /1010 10057 49946 52020 22200
BBXX 63105 07184 99610 10017 47698 ///// 10053 21024 49946 52019 700// 22200
AAXX 07181 48921 NIL
AAXX 07181 48924 NIL
AAXX 07181 48925 NIL
AAXX 07181 48926 NIL
AAXX 07181 48927 NIL
AAXX 07181 48928 NIL
AAXX 07181 48930 31340 70000 10195 20187 39792 40144 57001 71044 83870 333 59005
AAXX 07181 48935 NIL
AAXX 07181 48938 NIL
AAXX 07181 48940 31610 43401 10230 20199 39914 40110 57007 71044 84500 333 59003
AAXX 07181 48941 NIL
AAXX 07181 48944 NIL
AAXX 07181 48945 NIL
AAXX 07181 48946 NIL
AAXX 07181 48947 NIL
AAXX 07181 48948 NIL
AAXX 07181 48952 NIL
AAXX 07181 48953 NIL
AAXX 07181 48955 31957 33602 10242 20200 39980 40099 57006 71044 80002 333 59005
AAXX 07181 48956 NIL
AAXX 07181 48957 NIL
AAXX 07181 30521 429// 00000 11313 21330 39937 40539 53005
AAXX 07184 89573 44770 60406 11060 21099 39705 49727 57002 70070 86500
AAXX 07184 89573 44770 60406 11060 21099 39705 49727 57002 70070 86500
AAXX 07184 91723 NIL
AAXX 07184 91964 NIL
BBXX 63106 07184 99610 10017 46/// /1010 10057 49946 52020 22200
BBXX 63113 07184 99610 10017 46/// /1009 10068 21025 49944 52019 22200 10705 70024
BBXX 62107 07184 99501 70061 46/// /3122 10113 20051 40211 52021 22200 00124 10806 70031 333 90710 91132
BBXX 2AUO5 07183 99606 10016 41297 49902 10061 21025 49952 52028 7//// 8/7// 22211 2//// 80030
BBXX SHIP 07184 99124 31229 41/97 42310 10292 20221 40039 70211 222// 0//// 20201 324// 40201 5////
BBXX SHIP 07184 99124 31229 41/97 42310 10292 20221 40039 70211 222// 0//// 20201 324// 40201 5////
AAXX 07181 31532 32999 00000 11319 21337 39966 40356 53003 333 21343 47015 55068
AAXX 07184 71507 16/// /2708 11141 21181 60001 333 11105 21159 70004
BBXX AMOUK08 07184 99501 70061 46/// ///// 10118 20068 30205 40206 52020 91750
BBXX 63055 07184 99606 10016 47999 /1302 10059 21020 49945 52025 700// 22200 10804 70022
BBXX 63106 07184 99610 10017 46/// /1010 10057 49946 52020 22200
BBXX 63105 07184 99610 10017 47698 ///// 10053 21024 49946 52019 700// 22200
BBXX SHIP 07184 99124 31229 41/97 42310 10292 20221 40039 70211 222// 0//// 20201 324// 40201 5////
AAXX 07181 31371 42999 03601 11306 21330 30100 40401 57002
AAXX 07184 48556 32560 20000 10245 20233 30076 40092 57007 81105 333 59003
AAXX 07184 48581 31556 30000 10223 20217 30061 40103 53001 71011 82241 333 58002
BBXX 63106 07184 99610 10017 46/// /1010 10057 49946 52020 22200
BBXX 63113 07184 99610 10017 46/// /1009 10068 21025 49944 52019 22200 10705 70024
BBXX 62107 07184 99501 70061 46/// /3122 10113 20051 40211 52021 22200 00124 10806 70031 333 90710 91132
BBXX 2AUO5 07183 99606 10016 41297 49902 10061 21025 49952 52028 7//// 8/7// 22211 2//// 80030
AAXX 07184 48001 NIL
AAXX 07184 48004 NIL
AAXX 07184 48008 31910 00000 10185 20155 40123 71000 333 59011
AAXX 07184 48010 NIL
AAXX 07184 48018 32920 00000 10200 20185 40124 333 58003
AAXX 07184 48019 NIL
AAXX 07184 48020 NIL
AAXX 07184 48025 NIL
AAXX 07184 48035 NIL
AAXX 07184 48037 NIL
AAXX 07184 48042 32556 10000 10223 20185 40121 81400 333 56900 58001
AAXX 07184 48045 NIL
AAXX 07184 48048 NIL
AAXX 07184 48053 32940 03602 10210 20195 40124 333 58006
AAXX 07184 48057 NIL
AAXX 07184 48060 32410 40000 10170 20135 40147 82930 333 56560 58010
AAXX 07184 48062 31540 40000 10230 20210 40120 74042 83830 333 56990 58003
AAXX 07184 48071 /2450 10000 10265 20240 40124 81200 333 56900 59008
AAXX 07184 48077 NIL
AAXX 07184 48078 NIL
AAXX 07184 48080 32550 50000 10220 20205 40112 83870 333 56990 58008
AAXX 07184 48094 32950 00000 10230 20230 40119 333 58007
AAXX 07184 48097 32956 03601 10250 20205 40112 333 59002
AAXX 07184 48108 31596 40000 10235 20211 40110 70522 82105 333 56209 59001
AAXX 07184 48109 32496 20000 10270 20240 40095 81530 333 56990 58013
AAXX 07184 48110 31595 50402 10255 20224 40105 705// 81256 333 56999 58002
AAXX 07184 48112 32597 80902 10262 20229 40084 83876 333 56299 59002
AAXX 07184 48001 NIL
AAXX 07184 48004 NIL
AAXX 07184 48008 31910 00000 10185 20155 40123 71000 333 59011
AAXX 07184 48010 NIL
AAXX 07184 48018 32920 00000 10200 20185 40124 333 58003
AAXX 07184 48019 NIL
AAXX 07184 48020 NIL
AAXX 07184 48025 NIL
AAXX 07184 48035 NIL
AAXX 07184 48037 NIL
AAXX 07184 48042 32556 10000 10223 20185 40121 81400 333 56900 58001
AAXX 07184 48045 NIL
AAXX 07184 48048 NIL
AAXX 07184 48053 32940 03602 10210 20195 40124 333 58006
AAXX 07184 48057 NIL
AAXX 07184 48060 32410 40000 10170 20135 40147 82930 333 56560 58010
AAXX 07184 48062 31540 40000 10230 20210 40120 74042 83830 333 56990 58003
AAXX 07184 48071 /2450 10000 10265 20240 40124 81200 333 56900 59008
AAXX 07184 48077 NIL
AAXX 07184 48078 NIL
AAXX 07184 48080 32550 50000 10220 20205 40112 83870 333 56990 58008
AAXX 07184 48094 32950 00000 10230 20230 40119 333 58007
AAXX 07184 48097 32956 03601 10250 20205 40112 333 59002
AAXX 07184 48108 31596 40000 10235 20211 40110 70522 82105 333 56209 59001
AAXX 07184 48109 32496 20000 10270 20240 40095 81530 333 56990 58013
AAXX 07184 48110 31595 50402 10255 20224 40105 705// 81256 333 56999 58002
AAXX 07184 48112 32597 80902 10262 20229 40084 83876 333 56299 59002
BBXX AMOUK08 07184 99501 70061 46/// ///// 10118 20068 30205 40206 52020 91750
BBXX 63055 07184 99606 10016 47999 /1302 10059 21020 49945 52025 700// 22200 10804 70022
BBXX 63106 07184 99610 10017 46/// /1010 10057 49946 52020 22200
BBXX 63105 07184 99610 10017 47698 ///// 10053 21024 49946 52019 700// 22200
BBXX 42047 07181 99279 70936 46/// /3309 10092 20044 40270 91830 22200 00231 333 91212
AAXX 07184 71822 11456 72007 11092 21105 39616 40105 58020 69921 77175 87500 333 11092 21204 47019 70002 90956
AAXX 07184 71822 11456 72007 11092 21105 39616 40105 58020 69921 77175 87500 333 11092 21204 47019 70002 90956
AAXX 07181 38932 429// 00000 11001 21006 40301 51002
AAXX 07184 03784 46/// /2715 10076 21008 30134 40137 53040 91750 333 10095 90710 91131
BBXX VRAC9 07184 99174 10719 41396 30911 10300 2026/ 40100 54/// 7//00 83/6/ 22274 00300 2//// 3//// 4//// 5//// 6//// 80270 ICE /////
BBXX VRAC9 07184 99174 10719 41396 30911 10300 2026/ 40100 54/// 7//00 83/6/ 22274 00300 2//// 3//// 4//// 5//// 6//// 80270 ICE /////
AAXX 07184 67009 31570 70000 10257 20226 39988 40106 51017 71522 879// 333 10330 86820 81920 83640 94971/6 95811/6
AAXX 07184 67009 31570 70000 10257 20226 39988 40106 51017 71522 879// 333 10330 86820 81920 83640 94971 95811
AAXX 07184 67009 31570 70000 10257 20226 39988 40106 51017 71522 879// 333 10330 86820 81920 83640 94971 94976 95811 95816
AAXX 07181 10055 01483 72610 10046 20034 39896 49906 53014 60042 72065 84831 333 10046 20020 32002 55300 20000 30000 69927 81810 84656 91115 91213
BBXX VRZN8 07184 99160 51527 41297 31214 10280 2024/ 40143 5//// 70200 8348/ 22213 00280 20902 314// 41203 5//// 6//// 80250 ICE /////
AAXX 07181 10338 01480 82709 10053 20023 39903 49975 51014 6///2 78086 878// 333 10060 20036 32003 55300 20000 30000 69967 83816 86630 91116
AAXX 07181 10015 01568 72813 10068 20035 39905 49915 53014 60052 78086 879// 222// 02075 333 10081 20045 31004 55300 20000 30000 60017 82823 82927 85650 91121 91217 96487 96484 96463
AAXX 07181 10567 01584 22709 10028 21002 39642 40019 51028 60012 72586 82800 333 10054 20002 31100 55300 20000 30000 69917 81821 91120 91212 96481 96461
BBXX A8ZS7 07184 99033 10926 41698 60712 10290 20258 40095 54000 7//22 8/9// 22254 04280 20401
BBXX A8RV8 07184 99090 11092 41398 80320 10250 20236 40085 56/// 76022
BBXX A8TG2 07184 99325 71486 41898 51216 10180 20146 40200 54000 703// 82262 22224 20204 310// 40204 80160
BBXX DFVY2 07184 99243 70218 41997 01215 10222 20157 40165 57014 70200 22254 00220 10802 70010 80180
BBXX A8RU5 07184 99281 11234 41297 83335 10175 20167 40158 51008 76362 8/7// 22214 20708 80170
BBXX DEFY 07183 99136 70480 41598 81111 10279 20241 40096 57023 70222 8221/ 22252 02273 80251
BBXX A8CB7 07183 99194 11134 41396 40421 10240 20226 40130 54000 71000 84333 22244 06220 21004 30403 40904 51005 80230
BBXX DFVY2 07184 99243 70218 41997 01215 10222 20157 40165 57014 70200 22254 00220 10802 70010 80180
BBXX A8RV8 07184 99090 11092 41398 80320 10250 20236 40085 56/// 76022
BBXX A8CB7 07183 99194 11134 41396 40421 10240 20226 40130 54000 71000 84333 22244 06220 21004 30403 40904 51005 80230
BBXX A8RU5 07184 99281 11234 41297 83335 10175 20167 40158 51008 76362 8/7// 22214 20708 80170
BBXX A8ZS7 07184 99033 10926 41698 60712 10290 20258 40095 54000 7//22 8/9// 22254 04280 20401
BBXX DEFY 07183 99136 70480 41598 81111 10279 20241 40096 57023 70222 8221/ 22252 02273 80251
BBXX A8TG2 07184 99325 71486 41898 51216 10180 20146 40200 54000 703// 82262 22224 20204 310// 40204 80160
BBXX SCKB 07183 99515 70230 41597 82330 10140 20105 40100 57050 75052 88/2/ 22264 00110 21108 327// 41808 5//// 6//// 80120 ICE /////
BBXX SCKB 07183 99515 70230 41597 82330 10140 20105 40100 57050 75052 88/2/ 22264 00110 21108 327// 41808 5//// 6//// 80120 ICE /////
BBXX SCKB 07183 99515 70230 41597 82330 10140 20105 40100 57050 75052 88/2/ 22264 00110 21108 327// 41808 5//// 6//// 80120 /////
AAXX 07181 10361 01586 52506 10044 20016 39872 49975 51025 60032 72586 85800 333 10065 20023 31001 55300 20000 30000 69907 82830 84650 91116
AAXX 07184 71463 46/// /3504 10011 21052 39904 40129 58024 6///1 333 10021 21001 7////
BBXX A8CB9 07183 99094 30785 41/98 62718 10270 20241 40090 51010 70362 22254 04290 80250
BBXX A8CB9 07183 99094 30785 41/98 62718 10270 20241 40090 51010 70362 22254 04290 80250
BBXX A8CB9 07183 99094 30785 41/98 62718 10270 20241 40090 51010 70362 22254 04290 80250
BBXX 63106 07184 99610 10017 46/// /1010 10057 49946 52020 22200
BBXX 63113 07184 99610 10017 46/// /1009 10068 21025 49944 52019 22200 10705 70024
BBXX 62107 07184 99501 70061 46/// /3122 10113 20051 40211 52021 22200 00124 10806 70031 333 90710 91132
BBXX 2AUO5 07183 99606 10016 41297 49902 10061 21025 49952 52028 7//// 8/7// 22211 2//// 80030
BBXX ZCDN2 07184 99504 70007 41/98 63141 40182 52020 7//// 8//// 22262 00110 20206 326// 40206 5////
BBXX ZCDN2 07184 99504 70007 41/98 63141 40182 52020 7//// 8//// 22262 00110 20206 326// 40206 5////
BBXX ZCDN2 07184 99504 70007 41/98 63141 40182 52020 7//// 8//// 22262 00110 20206 326// 40206 5////
BBXX A8IZ2 07184 99403 70496 41297 80114 10180 20160 40165 57035 75003 8879/ 22264 20303 314// 40808 80170
BBXX A8IZ2 07184 99403 70496 41297 80114 10180 20160 40165 57035 75003 8879/ 22264 20303 314// 40808 80170
AAXX 07184 44454 41550 10000 10092 20082 38690 48524 71022 81100 333 58008
AAXX 07184 03823 15671 /2913 10067 20030 39950 40195 51023 60022 91750 333 10090 553// 20000 81/40
AAXX 07184 67327 32980 01408 10225 20173 40096 52011 333 10303
AAXX 07184 67331 32970 02806 10294 20206 40096 52032 333 10327
AAXX 07184 67346 32965 10000 10/// 20/// 40104 52019 80004 333 10332 94300
AAXX 07184 67323 32980 00000 10240 20196 40091 52006 333 10295 94320
AAXX 07184 67280 32975 0//// 10281 20194 40070 333 10365 59049 94300
AAXX 07184 67273 32580 50000 10268 20213 40055 85200 333 10305 59014 94320
AAXX 07184 71604 17/// /1208 10025 20025 69961 7//4/ 333 10030 20009 70115
AAXX 18004 62010 32560 63305 10167 20110 40279 53020 86400 333 10219 86630
AAXX 07184 40310 32960 03009 10084 20018 38971 48512 54000 333 10160
