BBXX ZMFR 04174 99428 51783 43/// /3411 10159 20153 40144 57005 22251 00156
BBXX ZMENA 04174 99375 31761 46/// ///// 10190 20158 40169 57006 22281
BBXX 46218 04181 99345 71208 46/// ///// 1//// 91732 22200 00134 11304 21002 329// 41304 70022
BBXX ZCDM8 04183 99332 30158 41598 42121 10210 20153 40172 54000 70111 82469 22243 00213 20303 323// 40607 5//// 80176
AAXX 04184 40270 31550 50000 10094 21006 39288 40200 54000 70500 83430 333 10145 83835 82360
BBXX WCAJ 04184 99489 71279 41697 51925 10100 20081 40040 52020 7//// 8/6// 22233 00080 20204 31818 40810 5//// 6//// 80090 ICE /////
BBXX V7MO2 04184 99262 70914 41697 51504 10180 20091 40294 58003 70322 854// 22200 00230 20201 3//// 40502 5//// 6//// 80130 ICE /////
BBXX C6DM2 04183 99055 11001 418// 50513 10270 20228 40110 50010 7//22 85/3/ 22271 0//// 2//// 3//// 4//// 5//// 6//// 80240 ICE /////
AAXX 04184 08495 11959 00904 10152 20127 30296 40304 52006 60002 70500 91750 333 10178
AAXX 04184 40255 32960 50000 10100 20028 39481 40210 54000 85030 333 10154 85360
BBXX BAREU56 04184 99429 10060 46/// ///// 40213 57014 22222
BBXX DBBT 04181 99339 30184 46/// /2406 10212 20137 40171 52009 22220 00167
BBXX DBKV 04181 99247 70182 46/// /0709 10199 20122 40209 52007 22211 00200
BBXX DBBU 04181 99544 10137 46/// /2414 10051 20024 40005 57013 22211 00053
BBXX DBFR 04181 99535 10086 46/// /2408 10062 20045 40048 57021 22260 00056
BBXX 46249 04181 99338 71197 46/// ///// 1//// 91737 22200 00143 11303 21002 326// 41303 70017
BBXX 46240 04181 99366 71219 46/// ///// 1//// 91742 22200 00117 11303 21001 335// 41302 70013
BBXX 46212 04181 99408 71243 46/// ///// 1//// 91742 22200 00107 11206 21004 328// 41205 70030
BBXX 46217 04181 99342 71194 46/// ///// 1//// 91742 22200 00145 11303 20902 327// 41302 70014
BBXX 51203 04181 99208 71570 46/// ///// 1//// 91743 22200 00245 11502 21001 330// 41502 70012
BBXX 52200 04181 99134 11448 46/// ///// 1//// 91745 22200 00286 11103 21002 308// 41101 70013
BBXX 46211 04181 99469 71242 46/// ///// 1//// 91736 22200 00085 11411 20806 326// 41409 70056
BBXX 41115 04181 99184 70673 46/// ///// 1//// 91735 22200 11101 21001 301// 41101 70006
AAXX 04184 91334 11474 80710 10269 20246 30081 40084 55008 60021 70282 82171 333 56299 70056 555 90418
AAXX 04184 91334 11474 80710 10269 20246 30081 40084 55008 60021 70282 82171 333 56299 70056 555 90418
BBXX 44097 04181 99410 70711 46/// ///// 1//// 91732 22200 00107 10602 20602 70012
BBXX 42362 04181 99278 70907 46/// /0000 10172 20067 40305 91745
BBXX 42363 04181 99282 70892 46/// /2402 10189 20061 40315 91745 333 91202
BBXX 42364 04181 99291 70881 46/// /3413 10100 21006 40319 91745
BBXX 41012 04181 99300 70805 46/// /3103 10102 40286 58019 91750 22200 00221 10802 20401 305// 40802 70009 333 91205 555 11030 22030 31705 43406 61749 313028 309029 308032 329029 324036 313030
BBXX 46114 04181 99364 71222 46/// ///// 1//// 91734 22200 00117 11305 21003 328// 41304 70027
BBXX 46060 04181 99606 71468 46/// /2908 11022 49780 55000 91750 22200 00045 333 91210 555 11086 22090
BBXX 44060 04181 99413 70721 46/// ///06 11053 40191 91745 22200 00084 333 91208 555 11062 22062
BBXX 44022 04181 99409 70737 46/// ///04 11049 21148 40203 91745 22200 00057 333 91206 555 11041 22041
BBXX 44025 04181 99402 70732 46/// /2807 11039 21082 40199 58030 91750 22200 00095 10502 20502 70008 333 91209 555 11070 22072 31657 42809 61749 286068 292069 287063 284063 291067 279069
AAXX 04184 78774 32670 22810 10297 20153 30044 40134 58018 82200 333 10309 20218 30/// 56200 59003 82835
AAXX 04184 78774 32670 22810 10297 20153 30044 40134 58018 82200 333 10309 20218 30/// 56200 59003 82835
AAXX 04184 16597 12465 13103 10115 20093 30122 40210 51002 69902 81800 333 10163 81817
AAXX 0418/ 89866 46/// ///// 11035 39735 4//// 5////
AAXX 04184 68994 11398 83026 10085 20045 39877 49905 52011 60032 72055 87507 222// 00064 333 10104 20082 91038 555 20032 90990
AAXX 04184 78954 11478 40915 10286 20230 30070 40134 60001 71500 84800 333 10295 20241 59002 84816
AAXX 04184 78954 11478 40915 10286 20230 30070 40134 60001 71500 84800 333 10295 20241 59002 84816
AAXX 04184 68906 11595 83126 10198 20170 39916 49978 58007 60272 76166 8152/ 222// 00138 20501 333 10199 20176 91063 555 20278 60225 90997
AAXX 04184 78062 12665 70104 10165 20083 40264 60001 87800 333 58024 85830 87645 90908
AAXX 04184 78062 12665 70104 10165 20083 40264 60001 87800 333 58024 85830 87645 90908
AAXX 04184 68382 16/// /0202 10244 20143 39350 48542 53007 69962 333 10300 20244 91003 555 20006 69965 91016
AAXX 04184 91772 31498 63305 10272 20254 4//// 60001 70222 8671/ 333 5679/ 82817 84640 86460
AAXX 04184 91776 NIL
AAXX 04184 91779 11398 73210 10259 20243 40111 53015 60101 76062 8581/ 333 5679/ 82707 84635 87460
AAXX 04184 91784 11398 83008 10263 20252 40101 53011 60061 78088 858// 333 568// 82709 85816 88630
AAXX 04184 91792 11398 81304 10240 20237 40106 50005 60521 78088 884// 333 562// 82708 84816 88640
BBXX WZJC 04184 99277 70923 41498 21609 10200 2012/ 40270 57024 70110 824// 22273 00228 20202 3//// 4//// 5//// 6//// 80150 ICE /////
BBXX C6TQ6 04184 99174 70881 41898 30219 10240 20211 40260 54000 70211 83131 22200 00260 20402 30236 40402 50402 6//// 80220 ICE /////
BBXX PINX 04184 99192 70804 41497 60332 10210 2//// 40190 57025 70222 852/1 22223 00270 20403 303// 40907 5//// 6//// 8//// ICE /////
BBXX WRAH 04184 99256 70867 41598 50613 10190 2//// 40275 52005 7//00 851// 22234 00237 20102 336// 40404 5//// 6//// 8//// ICE /////
BBXX NWS0022 04184 99416 70714 43/// /2503 11015 21167 40173 5//// 7//// 8//// 222// 04085 2//// 3//// 4//// 5//// 6//// 8//// ICE /////
BBXX WFLG 04183 99250 71492 41397 80313 10206 20197 40255 52020 72052 8889/ 22254 00189 20603 329// 41006 5//// 6//// 80200 ICE /////
AAXX 04184 91772 31498 63305 10272 20254 4//// 60001 70222 8671/ 333 5679/ 82817 84640 86460
AAXX 04184 91776 NIL
AAXX 04184 91779 11398 73210 10259 20243 40111 53015 60101 76062 8581/ 333 5679/ 82707 84635 87460
AAXX 04184 91784 11398 83008 10263 20252 40101 53011 60061 78088 858// 333 568// 82709 85816 88630
AAXX 04184 91792 11398 81304 10240 20237 40106 50005 60521 78088 884// 333 562// 82708 84816 88640
BBXX 2BLY5 04183 99108 70309 41397 80312 10250 20238 40128 54000 7//55 8/2// 22214 04265 2//// 30000 80242
BBXX WKPN 04184 99218 10379 41997 03615 10230 2017/ 40140 52015 702// 80400 222// 00274 20406 33317 40755 52848 63/// 85190 ICE /////
BBXX DBBT 04181 99339 30184 46/// /2406 10212 20137 40171 52009 22220 00167
BBXX DBKV 04181 99247 70182 46/// /0709 10199 20122 40209 52007 22211 00200
BBXX ONAI 04184 99011 50397 41697 70919 10410 2031/ 40115 56015 703// 87200 22274 00283 2//// 3//// 4//// 5//// 6//// 80330 ICE /////
BBXX C6LU3 04183 99281 70545 41498 61418 10240 2023/ 40210 57025 70221 85881 22254 20404 3//// 4//// 80230
BBXX 9VVP 04184 99415 71266 41295 81822 10120 20111 40260 56010 75155 8862/ 22274 00120 20605 328// 41008 5//// 6//// 80115 ICE /////
BBXX SHIP 04183 99380 71676 41/98 /2718 10150 20116 40070 51020 70222 8//// 22224 00135 2//// 3//// 4//// 80130
BBXX 9VAW8 04184 99241 70825 41798 10113 10150 20053 40260 55010 70100 81100 22233 04245 20502 30101 40502 50502 6//// 80100 ICE /////
BBXX KCGH 04183 99221 70705 41498 60323 10261 2015/ 40165 5//// 7//22 84100 22274 00256 20605 333// 4//// 5//// 6//// 80194 ICE /////
BBXX 44060 04181 99413 70721 46/// ///06 11053 40191 91745 22200 00084 333 91208 555 11062 22062
BBXX 44025 04181 99402 70732 46/// /2807 11039 21082 40199 58030 91750 22200 00095 10502 20502 70008 333 91209 555 11070 22072 31657 42809 61749 286068 292069 287063 284063 291067 279069
BBXX 44022 04181 99409 70737 46/// ///04 11049 21148 40203 91745 22200 00057 333 91206 555 11041 22041
BBXX 42364 04181 99291 70881 46/// /3413 10100 21006 40319 91745
BBXX 41012 04181 99300 70805 46/// /3103 10102 40286 58019 91750 22200 00221 10802 20401 305// 40802 70009 333 91205 555 11030 22030 31705 43406 61749 313028 309029 308032 329029 324036 313030
BBXX 42362 04181 99278 70907 46/// /0000 10172 20067 40305 91745
BBXX 42363 04181 99282 70892 46/// /2402 10189 20061 40315 91745 333 91202
BBXX 46114 04181 99364 71222 46/// ///// 1//// 91734 22200 00117 11305 21003 328// 41304 70027
BBXX 46060 04181 99606 71468 46/// /2908 11022 49780 55000 91750 22200 00045 333 91210 555 11086 22090
BBXX 44097 04181 99410 70711 46/// ///// 1//// 91732 22200 00107 10602 20602 70012
BBXX LAIG7 04184 99201 71089 41697 30115 10270 2021/ 40210 51020 70110 82/66 22223 00237 20201 301// 40302 5//// 6//// 80230 ICE /////
BBXX PINX 04184 99192 70804 41497 60332 10210 2//// 40190 57025 70222 852/1 22223 00270 20403 303// 40907 5//// 6//// 8//// ICE /////
BBXX WRAH 04184 99256 70867 41598 50613 10190 2//// 40275 52005 7//00 851// 22234 00237 20102 336// 40404 5//// 6//// 8//// ICE /////
BBXX V7OQ7 04184 99361 70430 41/95 11513 10240 2020/ 40230 56080 70111 8///1 22263 00200 20502 31820 40803 50804 6//// 80210 ICE /////
BBXX 41115 04181 99184 70673 46/// ///// 1//// 91735 22200 11101 21001 301// 41101 70006
BBXX 46211 04181 99469 71242 46/// ///// 1//// 91736 22200 00085 11411 20806 326// 41409 70056
BBXX 46217 04181 99342 71194 46/// ///// 1//// 91742 22200 00145 11303 20902 327// 41302 70014
BBXX 46240 04181 99366 71219 46/// ///// 1//// 91742 22200 00117 11303 21001 335// 41302 70013
BBXX 46212 04181 99408 71243 46/// ///// 1//// 91742 22200 00107 11206 21004 328// 41205 70030
BBXX 46249 04181 99338 71197 46/// ///// 1//// 91737 22200 00143 11303 21002 326// 41303 70017
BBXX DDJS2 04183 99464 71392 41297 62436 10078 21004 40020 52018 70261 85784 22274 00110 20910 323// 40608 5//// 80046
BBXX LAJS6 04184 99545 71576 41797 32225 11010 2103/ 49985 56015 70122 833// 22263 00040 20806 305// 41005 81020
BBXX WSLH 04184 99240 71473 41498 41209 10222 2017/ 40250 5//// 70200 8318/ 22225 00194 20101 330// 40906 5//// 6//// 80189 ICE /////
BBXX ICGU 04184 99184 70646 41797 51612 10330 20218 40170 54/// 70311 859// 22200 04270 2//// 3//// 4//// 5//// 6//// 85250 ICE /////
BBXX WZJC 04184 99277 70923 41498 21609 10200 2012/ 40270 57024 70110 824// 22273 00228 20202 3//// 4//// 5//// 6//// 80150 ICE /////
BBXX DANV 04184 99055 10818 41697 61310 10270 20257 40120 52010 70311 8/3// 22223 04250 20201 80260
BBXX A8SU4 04184 99067 11077 41297 70411 10260 20238 40115 52010 70552 8592/ 22213 00240 20302 304// 40504 5//// 80245
BBXX WDB3161 04184 99311 11303 41498 80407 10070 2000/ 40230 57005 70222 887// 22235 00210 20804 332// 41005 5//// 6//// 80040 ICE /////
BBXX DBFR 04181 99535 10086 46/// /2408 10062 20045 40048 57021 22260 00056
BBXX DBBU 04181 99544 10137 46/// /2414 10051 20024 40005 57013 22211 00053
BBXX KSPH 04183 99335 10255 413// 81509 10150 2012/ 40200 5//// 72552 887// 22273 0//// 29901 315// 4//02 5//// 6//// 80130 ICE /////
BBXX ZCDF8 04184 99435 31625 41598 42028 10140 20123 40129 51020 70111 8/4// 22264 00150 20304 329// 40305 5//// 80130
BBXX SHIP 04183 99054 31256 41/97 62514 10260 2025/ 40090 58010 70152 8//// 22284 00292 2//// 3//// 4//// 5//// 6//// 80250 ICE /////
BBXX 32012 04181 99197 50856 46/// ///// 1//// 91750 22200 11103 70016
BBXX 46002 04181 99426 71305 46/// ///// 10130 40167 53025 91750 22200 00118 11309 70046
BBXX 46006 04181 99408 71375 46/// /2813 10096 40182 53045 91750 22200 00120 11212 20807 3//// 41210 70062 333 91219 555 11142 22151 31742 42819 61749 281135 250134 258118 238128 237124 234132
BBXX 46084 04181 99566 71361 46/// ///// 10058 20054 49819 51037 91750 22200 00072 11107 70034
BBXX 46075 04181 99539 71608 46/// /1817 10012 21031 49917 58051 91750 22200 00037 11107 20807 300// 41103 70037 333 91221 555 11181 22193 31745 41721 61749 177170 181160 179161 181149 181154 179147 81818 91744
BBXX 46005 04181 99461 71310 46/// ///10 10097 40080 53024 91750 22200 00098 11310 20805 3//// 41308 70048 333 91212 555 11104 22111
BBXX 46059 04181 99380 71300 46/// /2506 10143 40265 53025 91750 22200 00139 11308 20502 3//// 41307 70038 333 91208 555 11059 22064 31650 42510 61749 248056 248061 257060 256054 258070 257078
BBXX 46080 04181 99580 71500 46/// /3017 11039 21075 49851 53010 91750 22200 00045 11011 20708 3//// 41007 70054 333 91221 555 11182 22193 31749 42921 61749 298172 301167 305161 304162 305163 303164 83018 91742
BBXX 41047 04181 99275 70715 46/// /3506 10169 40233 56022 91750 22200 00249 11109 20402 333// 41109 70045 333 91209 555 11058 22060 31719 43612 61749 348062 342074 357071 353092 351078 355083 83510 91713
BBXX 42002 04181 99258 70937 46/// /1507 10213 20122 40272 58009 91750 22200 00245 10502 20502 3//// 40601 70010 333 91208 555 11068 22072 31718 41510 61749 149068 141072 157074 154077 160066 165065
BBXX 41043 04181 99211 70650 46/// /3402 10252 20214 40182 58033 91750 22200 00265 11004 20401 300// 41004 70020 333 91203 555 11017 22018 31658 43003 61749 341016 345016 333014 314013 335016 317016 83502 91744
BBXX 41036 04181 99342 70770 46/// ///// 10017 21079 40271 58034 91750 22200 00192 10802 70008
BBXX 44066 04181 99396 70726 46/// /2907 11026 21047 40200 58025 91750 22200 00131 10503 20503 3//// 40901 70014 333 91210 555 11076 22079 31715 42812 61749 290073 288081 297080 284084 290084 287083
BBXX 46070 04181 99551 11753 46/// /0714 11042 21061 40027 57004 91750 22200 00028 10806 20806 3//// 41101 70030 333 91217 555 11146 22153 31734 40617 61749 064137 065135 071124 072084 046022 036022 80615 91734
BBXX 46105 04181 99590 71522 46/// ///// 1//// 91750 22200 10908 70038
BBXX 41049 04181 99275 70630 46/// /3308 10200 20118 40186 56019 91750 22200 00231 11309 20504 300// 41308 70045 333 91210 555 11084 22088 31715 43212 61749 333080 338086 334087 329086 332080 334085 83410 91720
BBXX 41001 04181 99347 70727 46/// ///// 10085 20024 40227 58022 91750 22200 00216 11005 70027
BBXX 42020 04181 99270 70967 46/// /2004 10206 20157 40253 50000 91750 22200 00218 10502 20401 315// 40502 70010 333 91205 555 11043 22044 31650 41708 61749 196041 192044 191044 190049 185050 174065
BBXX 41044 04181 99217 70587 46/// /1607 10258 20203 40178 56025 91750 22200 00258 11005 20603 300// 41004 70025 333 91208 555 11070 22075 31725 41509 61749 157067 152066 155071 150073 149072 148070 81508 91725
BBXX 41048 04181 99320 70696 46/// /3309 10138 20050 40213 58012 91750 22200 00215 11212 20705 3//// 41211 70058 333 91212 555 11093 22097 31650 43114 61749 327093 327089 322099 316094 313100 321109 83212 91651
BBXX 42065 04181 99170 70817 46/// /0109 10236 20151 91750 22200 10805 20805 70025 333 91212 555 11096 22103 31724 43612 61749 013091 015091 006099 012097 018094 014089 80111 91717
BBXX 42012 04181 99301 70876 46/// /0603 10107 20057 40303 58009 91750 22200 00182 10301 20301 70003 333 91205 555 11035 22036 31656 40606 61749 059034 057038 054040 059042 060041 061047
BBXX 42001 04181 99259 70897 46/// /1302 10184 20084 40293 58015 91750 22200 00242 10702 20401 3//// 40702 70012 333 91203 555 11018 22019 31726 41604 61749 135018 109019 161023 148015 137011 105013
BBXX 42035 04181 99292 70944 46/// /0201 10167 20159 40266 58006 91750 22200 00157 10602 20401 320// 40602 70010 333 91202 555 11016 22019 31742 40102 61749 017013 001012 002011 017010 054003 126002
BBXX 41060 04181 99148 70510 46/// ///// 1//// 91750 22200 11006 70031
BBXX 42058 04181 99149 70749 46/// /0508 10266 20221 40144 58021 91750 22200 00272 10704 20703 308// 41001 70018 333 91210 555 11087 22092 31727 40510 61749 054082 054085 054085 055088 050085 048086 80509 91656
BBXX 42060 04181 99163 70635 46/// /0705 10264 20209 40154 58025 91750 22200 00274 11003 20401 300// 41002 70013 333 91206 555 11053 22055 31732 40706 61749 074050 071051 072052 072050 074048 077049 80806 91732
BBXX 42036 04181 99285 70845 46/// /0402 10107 20035 40297 58018 91750 22200 00201 10401 20401 326// 40601 70004 333 91203 555 11015 22016 31701 41005 61749 039017 058031 095031 076029 062033 086033
BBXX 42056 04181 99198 70849 46/// /0307 10211 20146 40243 58014 91750 22200 00265 11105 20703 335// 41103 70024 333 91209 555 11078 22081 31654 40511 61749 026074 033066 036071 028073 034079 032081 80409 91654
BBXX 42059 04181 99151 70675 46/// /0705 10270 20214 40149 58026 91750 22200 00278 10703 20401 3//// 40703 70016 333 91206 555 11049 22051 31714 40806 61749 076046 076048 074047 073048 080049 078046 80805 91710
BBXX 44005 04181 99432 70691 46/// /3110 11052 21118 40138 58020 91750 22200 00078 10503 20503 3//// 41001 70014 333 91213 555 11102 22106 31745 43113 61749 311098 312097 315094 319091 317083 310085
BBXX 42040 04181 99292 70882 46/// /2601 10148 40303 58006 91750 22200 00219 10401 70003 333 91203 555 11014 22014 31737 42504 61749 257016 256022 076001 147004 003004 307009
BBXX 42055 04181 99222 70940 46/// /1306 10231 20126 40253 58014 91750 22200 00248 10803 20601 305// 40802 70013 333 91207 555 11063 22066 31707 41108 61749 132059 116062 119062 111065 113063 111062 81208 91718
BBXX 42003 04181 99260 70856 46/// /0603 1//// 91750 22200 10702 20401 332// 40702 70010 333 91205 555 11034 22036 31704 40606 61749 061031 051028 056038 074034 061039 079036 80705 91704
BBXX 41004 04181 99325 70791 46/// /2802 10065 21059 91750 22200 00193 10502 20401 3//// 40501 70008 333 91203 555 11017 22018 31654 40504 61749 291019 264011 277018 347015 274007 354018
BBXX 44009 04181 99385 70747 46/// /3105 11038 40243 58031 91750 22200 00089 10502 20401 300// 40501 70008 333 91207 555 11056 22057 31710 43109 61749 311054 312060 305058 307061 310057 307059
BBXX 44014 04181 99366 70748 46/// ///07 1//// 40243 58028 91750 22200 00191 10704 20603 335// 40703 70019 333 91209 555 11071 22071
BBXX 44027 04181 99443 70673 46/// /3208 11098 21130 40113 56019 91750 22200 00073 10402 20402 70011 333 91211 555 11082 22085 31705 43313 61749 317080 315080 313087 313089 314093 310094
BBXX 44065 04181 99404 70737 46/// /2806 11052 21118 40203 58034 91750 22200 00085 10301 20301 70005 333 91208 555 11062 22064 31702 42910 61749 286061 283063 287065 288064 287073 288066 82808 91703
BBXX 41013 04181 99334 70777 46/// /2903 10027 21079 40279 58029 91750 22200 00149 11102 20301 310// 41102 70010 333 91205 555 11031 22031 31729 43106 61749 299028 305030 306034 295033 320029 326032
BBXX 44020 04181 99414 70702 46/// /2804 11063 21115 40170 91750 22200 00051 10301 20301 70003 333 91206 555 11044 22046 31705 42507 61749 278041 259043 260045 258050 260046 264039
BBXX 46014 04181 99394 71240 46/// /0501 10116 40307 53014 91750 22200 00112 11205 3//// 41205 70023 333 91203 555 11012 22015 31700 42804 61749 051008 314001 276007 269015 273026 284026
BBXX 46011 04181 99350 71210 46/// /3106 10132 40262 51016 91750 22200 00128 11405 20601 328// 41405 70024 333 91207 555 11063 22068 31711 43008 61749 309059 306058 303057 302060 302059 306055
BBXX 46047 04181 99324 71195 46/// /3205 10138 40253 51016 91750 22200 00135 11404 20401 329// 41404 70022 333 91206 555 11051 22055 31657 43106 61749 318047 316048 316047 316046 315046 314048
BBXX 46027 04181 99419 71244 46/// /1606 10112 40281 53006 91750 22200 00099 11106 20602 327// 41105 70028 333 91208 555 11070 22078 31744 41608 61749 160064 160061 158055 154058 149063 149064
BBXX 46086 04181 99325 71180 46/// /3403 10153 40245 53019 91750 22200 00150 11505 20401 330// 41505 70024 333 91204 555 11034 22038 31708 43204 61749 344030 342029 344026 332034 323036 324032
BBXX 46050 04181 99442 71246 46/// /1916 10100 40213 56003 91750 22200 00096 11209 21007 325// 41205 70043 333 91221 555 11175 22188 31744 41921 61749 185161 185156 184153 183138 184146 185146
BBXX 46088 04181 99483 71232 46/// /1702 10097 40154 91750 22200 00077 10401 20401 70004 333 91203 555 11029 22034 31738 41305 61749 165026 106035 138032 170025 155023 129028
BBXX 46069 04181 99337 71202 46/// /3204 10137 40253 51015 91750 22200 00138 11405 20401 329// 41405 70026 333 91205 555 11044 22047 31707 43108 61749 318043 314048 310053 314058 310060 310059
BBXX 46012 04181 99374 71229 46/// /3308 10123 40289 53016 91750 22200 00122 11305 20302 329// 41304 70023 333 91210 555 11089 22095 31650 43211 61749 331083 327085 327084 327086 329083 327088
BBXX 46013 04181 99382 71233 46/// /3303 10114 40297 51016 91750 22200 00110 11405 20401 3//// 41405 70023 333 91203 555 11028 22032 31705 43105 61749 330026 317030 320032 321035 316037 315033
BBXX 46087 04181 99485 71247 46/// /1913 10104 20103 40150 53021 91750 22200 00086 11307 20602 324// 41307 70035 333 91216 555 11137 22149 31719 42017 61749 189128 191132 190133 190133 187137 187131
BBXX 46029 04181 99461 71245 46/// /1814 10100 20098 40190 52007 91750 22200 00093 11210 20806 326// 41208 70050 333 91217 555 11151 22162 31738 41818 61749 181140 181134 179134 182131 178137 180138
BBXX 46054 04181 99342 71204 46/// /3105 10132 40253 51017 91750 22200 00128 11305 20501 300// 41305 70025 333 91206 555 11055 22060 31748 43106 61749 305051 305047 304044 302039 302033 308036
BBXX 46028 04181 99357 71219 46/// /3308 10131 40262 51019 91750 22200 00130 11405 20502 329// 41404 70023 333 91209 555 11080 22086 31719 43310 61749 325075 328076 332083 337081 337075 338079
BBXX 46025 04181 99337 71191 46/// /3302 10153 20136 40242 51015 91750 22200 00150 11303 20401 328// 41303 70014 333 91203 555 11027 22030 31652 43203 61749 326024 321021 334019 330020 325024 327027
AAXX 04184 81405 02560 50513 10287 20231 30102 40111 69941 8387/ 333 69947 58001 81823 83650 555 60005
AAXX 04184 81405 02560 50513 10287 20231 30102 40111 69941 8387/ 333 69947 58001 81823 83650 555 60005
AAXX 04181 76055 32980 03312 10222 21037 30217 40236 52014 91740 333 10292 20136 30/// 58008
AAXX 04181 76061 32981 03603 10174 20070 30182 40257 52016 91740 333 10176 20130 30/// 58006
AAXX 04181 76122 32970 03611 10130 20011 38639 40310 52019 91750 333 10132 21009 30/// 58006
AAXX 04181 76225 32960 00202 10154 21020 38714 40264 52016 91735 333 10154 20032 30/// 59009
AAXX 04181 76256 32980 03203 10250 20058 30199 40213 52009 91745 333 10266 20159 30/// 59014
AAXX 04181 76305 32970 40402 10258 20072 30199 40207 52004 82014 91740 333 10262 20180 30/// 56056 59010 82460
AAXX 04181 76323 32970 20201 10182 21028 38253 40327 52008 80002 91740 333 10182 20040 30/// 59028 82268
AAXX 04181 76373 32670 30000 10155 21024 38272 40233 57010 81470 91750 333 10163 21023 30/// 56909 58031 81627 82357
AAXX 04181 76382 32980 70701 10184 20094 38977 40257 52002 80006 91750 333 10202 20064 30/// 56007 59045 87076
AAXX 04181 76390 32970 11805 10182 21013 38291 40251 52001 80004 91730 333 10194 20040 30/// 56008 59036 81070
AAXX 04181 76393 32950 10401 10230 20078 39638 40227 57006 81030 91755 333 10238 20070 30/// 56080 59098
AAXX 04181 76402 31957 00000 10246 20162 30147 40204 52002 70544 91745 333 10246 20120 30/// 59004
AAXX 04181 76423 32680 40000 10162 20004 38213 40266 57011 81054 91750 333 10170 20016 30/// 56099 59034 81357 83067
AAXX 04181 76458 32964 02602 10235 20175 30185 40189 57003 91745 333 10268 20148 30/// 59004
AAXX 04181 76491 32960 03601 10210 20095 39855 40262 57004 91750 333 10216 20026 30/// 59106
AAXX 04181 76499 32960 01103 10266 20125 30208 40230 57007 91740 333 10267 20058 30/// 59105
AAXX 04181 76519 32560 13401 10156 20033 38427 40291 57001 80002 91745 333 10162 20030 30/// 56006 59018 81070
AAXX 04181 76525 32980 13004 10102 21053 37518 40234 52004 80001 91740 333 10102 20050 30/// 56//5 59021 81080
AAXX 04181 76548 32975 02002 10224 20138 30255 40265 58008 91745 333 10228 20128 30/// 59087
AAXX 04181 76556 32970 11603 10264 20057 39168 40202 52004 80008 91435 333 10266 20124 30/// 59013 81270
AAXX 04181 76571 32975 00000 10168 20032 38221 40268 56007 91748 333 10172 20030 30/// 59028
AAXX 04181 76577 32970 12304 10151 20106 38092 40257 58005 80005 91740 333 10157 20040 30/// 56005 59024
AAXX 04181 76612 32962 31001 10192 20046 38533 40242 58005 80001 91750 333 10199 20070 30/// 56005 59024 83072
AAXX 04181 76625 32950 02901 10151 20039 38193 40242 56008 91740 333 10151 20055 30/// 59028
AAXX 04181 76662 32670 63401 10182 20081 38516 40238 57004 81104 91735 333 10194 20056 30/// 56/0/ 59025 81833 85070
AAXX 04181 76683 32668 60901 10164 20080 37860 40275 56016 81137 91745 333 10175 20012 30/// 56225 59029 81840 81360 84280 99021
AAXX 04181 76685 31550 43601 10180 20019 37909 40241 57006 70544 81105 91750 333 10182 20030 30/// 56909 59021 81827 83277
AAXX 04181 76743 31/58 50001 10227 20188 30239 40247 57016 70211 85//1 91750 333 10250 20187 30/// 56//0 59038 850//
AAXX 04181 76750 32560 73602 10250 20134 30243 40254 57018 84230 91750 333 10258 20134 30/// 56110 59009 84820 83357
AAXX 04181 76773 31968 72301 10186 20098 38473 40233 57016 70544 80006 91748 333 10188 20025 30/// 56009 59024 87268
AAXX 04181 76775 31970 40901 10199 20052 38576 40266 57017 70300 80004 91730 333 10202 20042 30/// 56002 59027
AAXX 04181 76833 32970 03612 10266 20172 30187 40189 57012 91745 333 10266 20210 30/// 59014 92001
AAXX 04181 76840 32950 10305 10266 20152 30125 40182 57008 80004 91745 333 10280 20210 30/// 56006 59014 81070
AAXX 04181 76843 32565 10202 10227 20117 39561 40219 57019 81100 91730 333 10239 20135 30/// 569// 59034 81830
AAXX 04181 76903 32580 42803 10320 20212 30032 40162 57012 84200 91740 333 10332 20220 30/// 56600 58019 84833
AAXX 04181 76243 32974 03604 10144 20044 39963 40268 52020 91730 333 10156 20028 30/// 59072
AAXX 04181 76253 32982 00505 10244 20084 30138 40228 51009 91755 333 10265 20120 30/// 59003 92002
AAXX 04181 76311 32980 00000 10246 20101 39909 40191 52003 91745 333 10251 20101 30/// 59012
AAXX 04181 76405 32980 00000 10260 20144 30194 40216 52009 91750 333 10262 20138 30/// 59002
AAXX 04181 76412 31966 02201 10252 20122 30161 40205 52017 70544 91745 333 10256 20130 30/// 58012
AAXX 04181 76585 32680 10000 10191 20139 30086 40247 58014 81100 91740 333 10210 20094 30/// 562// 59096 81833
AAXX 04181 76656 32975 43601 10205 20070 38561 40232 58003 80008 91750 333 10212 20065 30/// 56005 59024 84280
AAXX 04181 76855 32580 62201 10310 20224 30099 40149 50003 81238 91745 333 10318 20198 30/// 56999 58001 81820 82359 92001
BBXX 46002 04181 99426 71305 46/// ///// 10130 40167 53025 91750 22200 00118 11309 70046
BBXX 46005 04181 99461 71310 46/// ///10 10097 40080 53024 91750 22200 00098 11310 20805 3//// 41308 70048 333 91212 555 11104 22111
BBXX 46006 04181 99408 71375 46/// /2813 10096 40182 53045 91750 22200 00120 11212 20807 3//// 41210 70062 333 91219 555 11142 22151 31742 42819 61749 281135 250134 258118 238128 237124 234132
BBXX 46012 04181 99374 71229 46/// /3308 10123 40289 53016 91750 22200 00122 11305 20302 329// 41304 70023 333 91210 555 11089 22095 31650 43211 61749 331083 327085 327084 327086 329083 327088
BBXX 46013 04181 99382 71233 46/// /3303 10114 40297 51016 91750 22200 00110 11405 20401 3//// 41405 70023 333 91203 555 11028 22032 31705 43105 61749 330026 317030 320032 321035 316037 315033
BBXX 46014 04181 99394 71240 46/// /0501 10116 40307 53014 91750 22200 00112 11205 3//// 41205 70023 333 91203 555 11012 22015 31700 42804 61749 051008 314001 276007 269015 273026 284026
BBXX 46028 04181 99357 71219 46/// /3308 10131 40262 51019 91750 22200 00130 11405 20502 329// 41404 70023 333 91209 555 11080 22086 31719 43310 61749 325075 328076 332083 337081 337075 338079
BBXX 46050 04181 99442 71246 46/// /1916 10100 40213 56003 91750 22200 00096 11209 21007 325// 41205 70043 333 91221 555 11175 22188 31744 41921 61749 185161 185156 184153 183138 184146 185146
BBXX 9VVP 04184 99415 71266 41295 81822 10120 20111 40260 56010 75155 8862/ 22274 00120 20605 328// 41008 5//// 6//// 80115 ICE /////
BBXX DDJS2 04183 99464 71392 41297 62436 10078 21004 40020 52018 70261 85784 22274 00110 20910 323// 40608 5//// 80046
BBXX WCAJ 04184 99489 71279 41697 51925 10100 20081 40040 52020 7//// 8/6// 22233 00080 20204 31818 40810 5//// 6//// 80090 ICE /////
AAXX 04181 76055 32980 03312 10222 21037 30217 40236 52014 91740 33310292 20136 30/// 58008
AAXX 04181 76061 32981 03603 10174 20070 30182 40257 52016 91740 33310176 20130 30/// 58006
AAXX 04181 76122 32970 03611 10130 20011 38639 40310 52019 91750 33310132 21009 30/// 58006
AAXX 04181 76225 32960 00202 10154 21020 38714 40264 52016 91735 33310154 20032 30/// 59009
AAXX 04181 76256 32980 03203 10250 20058 30199 40213 52009 91745 33310266 20159 30/// 59014
AAXX 04181 76305 32970 40402 10258 20072 30199 40207 52004 82014 91740333 10262 20180 30/// 56056 59010 82460
AAXX 04181 76323 32970 20201 10182 21028 38253 40327 52008 80002 91740333 10182 20040 30/// 59028 82268
AAXX 04181 76373 32670 30000 10155 21024 38272 40233 57010 81470 91750333 10163 21023 30/// 56909 58031 81627 82357
AAXX 04181 76382 32980 70701 10184 20094 38977 40257 52002 80006 91750333 10202 20064 30/// 56007 59045 87076
AAXX 04181 76390 32970 11805 10182 21013 38291 40251 52001 80004 91730333 10194 20040 30/// 56008 59036 81070
AAXX 04181 76393 32950 10401 10230 20078 39638 40227 57006 81030 91755333 10238 20070 30/// 56080 59098
AAXX 04181 76402 31957 00000 10246 20162 30147 40204 52002 70544 91745333 10246 20120 30/// 59004
AAXX 04181 76423 32680 40000 10162 20004 38213 40266 57011 81054 91750333 10170 20016 30/// 56099 59034 81357 83067
AAXX 04181 76458 32964 02602 10235 20175 30185 40189 57003 91745 33310268 20148 30/// 59004
AAXX 04181 76491 32960 03601 10210 20095 39855 40262 57004 91750 33310216 20026 30/// 59106
AAXX 04181 76499 32960 01103 10266 20125 30208 40230 57007 91740 33310267 20058 30/// 59105
AAXX 04181 76519 32560 13401 10156 20033 38427 40291 57001 80002 91745333 10162 20030 30/// 56006 59018 81070
AAXX 04181 76525 32980 13004 10102 21053 37518 40234 52004 80001 91740333 10102 20050 30/// 56//5 59021 81080
AAXX 04181 76548 32975 02002 10224 20138 30255 40265 58008 91745 33310228 20128 30/// 59087
AAXX 04181 76556 32970 11603 10264 20057 39168 40202 52004 80008 91435333 10266 20124 30/// 59013 81270
AAXX 04181 76571 32975 00000 10168 20032 38221 40268 56007 91748 33310172 20030 30/// 59028
AAXX 04181 76577 32970 12304 10151 20106 38092 40257 58005 80005 91740333 10157 20040 30/// 56005 59024
AAXX 04181 76612 32962 31001 10192 20046 38533 40242 58005 80001 91750333 10199 20070 30/// 56005 59024 83072
AAXX 04181 76625 32950 02901 10151 20039 38193 40242 56008 91740 33310151 20055 30/// 59028
AAXX 04181 76662 32670 63401 10182 20081 38516 40238 57004 81104 91735333 10194 20056 30/// 56/0/ 59025 81833 85070
AAXX 04181 76683 32668 60901 10164 20080 37860 40275 56016 81137 91745333 10175 20012 30/// 56225 59029 81840 81360 84280 99021
AAXX 04181 76685 31550 43601 10180 20019 37909 40241 57006 70544 8110591750 333 10182 20030 30/// 56909 59021 81827 83277
AAXX 04181 76743 31/58 50001 10227 20188 30239 40247 57016 70211 85//191750 333 10250 20187 30/// 56//0 59038 850//
AAXX 04181 76750 32560 73602 10250 20134 30243 40254 57018 84230 91750333 10258 20134 30/// 56110 59009 84820 83357
AAXX 04181 76773 31968 72301 10186 20098 38473 40233 57016 70544 8000691748 333 10188 20025 30/// 56009 59024 87268
AAXX 04181 76775 31970 40901 10199 20052 38576 40266 57017 70300 8000491730 333 10202 20042 30/// 56002 59027
AAXX 04181 76833 32970 03612 10266 20172 30187 40189 57012 91745 33310266 20210 30/// 59014 92001
AAXX 04181 76840 32950 10305 10266 20152 30125 40182 57008 80004 91745333 10280 20210 30/// 56006 59014 81070
AAXX 04181 76843 32565 10202 10227 20117 39561 40219 57019 81100 91730333 10239 20135 30/// 569// 59034 81830
AAXX 04181 76903 32580 42803 10320 20212 30032 40162 57012 84200 91740333 10332 20220 30/// 56600 58019 84833
AAXX 04181 76243 32974 03604 10144 20044 39963 40268 52020 91730 33310156 20028 30/// 59072
AAXX 04181 76253 32982 00505 10244 20084 30138 40228 51009 91755 33310265 20120 30/// 59003 92002
AAXX 04181 76311 32980 00000 10246 20101 39909 40191 52003 91745 33310251 20101 30/// 59012
AAXX 04181 76405 32980 00000 10260 20144 30194 40216 52009 91750 33310262 20138 30/// 59002
AAXX 04181 76412 31966 02201 10252 20122 30161 40205 52017 70544 91745333 10256 20130 30/// 58012
AAXX 04181 76585 32680 10000 10191 20139 30086 40247 58014 81100 91740333 10210 20094 30/// 562// 59096 81833
AAXX 04181 76656 32975 43601 10205 20070 38561 40232 58003 80008 91750333 10212 20065 30/// 56005 59024 84280
AAXX 04181 76855 32580 62201 10310 20224 30099 40149 50003 81238 91745333 10318 20198 30/// 56999 58001 81820 82359 92001
AAXX 04184 89009 42361 30606 11278 36826 56003 81608 333 81708 83258
BBXX A8TG2 04183 99250 71390 41798 50908 10250 20151 40250 52020 70222 82545 22263 20102 307// 40102 5//// 80190
AAXX 04184 78858 12479 51312 10276 20230 30098 40154 60001 85801 333 10286 20238 59002 82817 85650
AAXX 04184 78905 12478 41210 10275 20207 30128 40151 60001 84200 333 10300 20223 59004 84818
AAXX 04184 85406 12970 32014 10241 20167 40140 58012 60001 83010 333 56000 83470
AAXX 04184 85418 12970 32319 10240 20172 40149 57013 60001 83030 333 56000 83363
AAXX 04184 85442 12565 61912 10225 20159 40149 57013 60001 82550 333 56570 82620 8365
AAXX 04184 85467 12560 32510 10240 20140 40166 57007 60001 80001 333 56001 83070
AAXX 04184 85469 42565 61111 10232 20145 40200 52007 86800 333 56200 83820 85630
AAXX 04184 85488 12965 02810 10215 20138 40167 58008 60001
AAXX 04184 78905 12478 41210 10275 20207 30128 40151 60001 84200 333 10300 20223 59004 84818
AAXX 04184 89009 42361 30606 11278 36826 56003 81608 333 81708 83258
AAXX 04183 91802 NIL
AAXX 04183 91809 NIL
AAXX 04183 91831 36/// /2904 ///// ///// 10259 20234 40149 53002
AAXX 04183 91841 NIL
AAXX 04183 91843 31598 62106 10265 20221 40126 53018 60001 70322 82101 333 565/9 82823 86079
AAXX 04183 91848 36/// /2303 10251 20209 49973 52003 555 20186
AAXX 04184 78862 11478 70814 10263 20213 30129 40152 69901 71581 87800 333 10282 20217 59003 81818 86636
AAXX 04184 TAF TKPN 041000Z 0412/0512 09010KT 9999 SCT020 SCT040 TEMPO 0416/0512 SHRA PROB30 TEMPO 0500/0510 00000KT
AAXX 04184 TAF TQPF 041000Z 0412/0512 08010KT 9999 SCT020 SCT040 TEMPO 0414/0512 SHRA PROB30 TEMPO 0500/0510 00000KT
AAXX 04184 TAF TUPJ 041000Z 0412/0512 05012KT 9999 SCT018 SCT035 TEMPO 0412/0512 SHRA PROB30 TEMPO 0412/0422 VRB02KT 5000 +SHRA FEW015CB BKN018
AAXX 04184 032200Z 0400/0424 09014KT 9999 SCT022 SCT038 BKN270 TEMPO 0400/0424 4000 SHRA BKN013 BKN036 BKN260
AAXX 04184 BKN038 SCT270 TEMPO 0412/0512 SHRA BKN015 PROB40 TEMPO 0418/0512 5000 SHRA BKN014 BKN036 PROB30 0420/0512 4000 TSRA FEW012CB
AAXX 04184 918 4000 TSRA FEW012CB
AAXX 04184 N015 BKN036 PROB40 TEMPO 0704/0724 3000 +TSRA SCT011CB BKN012 BECMG 0712/0714 14008KT
AAXX 04184 21/2712 07017G28KT 5000 SHRA BKN015 BKN036 PROB TEMPO 2700/2712 4000 TSRA FEW013CB
AAXX 04184 PROB30 TEMPO 0800/0806 4000 TSRA FEW012CB PROB40 TEMPO 0800/0824 2000 +SHRA/TSRA SCT010CB BKN012 BKN250
AAXX 04184 85832 12980 79902 10264 20082 40136 56014 60001 80004 333 56006 87070
AAXX 04184 85874 12980 73216 10243 20100 39526 40117 58027 60001 80004 333 56006 87070
AAXX 04184 85886 12970 52927 10280 20206 40097 57039 60001 80004 333 56006 85070
AAXX 04184 85892 12980 02712 10272 20067 40109 57023 60001 333
AAXX 04184 85934 11480 82519 10171 20098 40016 54000 69901 70382 8553/ 333 56569 85619 88358
AAXX 04184 85968 12660 52626 10197 20046 49927 55013 60001 85108 333 56606 85843 84266
AAXX 04184 89056 11358 82706 10011 20002 49870 57010 60003 70542 886// 333 56699 85706 88608
AAXX 04184 89057 12460 83303 10042 20003 49870 57010 60003 885// 333 56599 88617
AAXX 04184 89058 32475 71402 10042 20002 39850 49871 57011 878// 333 20003
AAXX 04184 89059 12960 72005 10016 21033 49865 57009 69903 8703/ 333 74069 87360
AAXX 04184 89251 32465 83409 10022 20006 49859 57010 8651/
AAXX 04184 78862 11478 70814 10263 20213 30129 40152 69901 71581 87800 333 10282 20217 59003 81818 86636
AAXX 04184 TAF TKPN 041000Z 0412/0512 09010KT 9999 SCT020 SCT040 TEMPO 0416/0512 SHRA PROB30 TEMPO 0500/0510 00000KT
AAXX 04184 TAF TQPF 041000Z 0412/0512 08010KT 9999 SCT020 SCT040 TEMPO 0414/0512 SHRA PROB30 TEMPO 0500/0510 00000KT
AAXX 04184 TAF TUPJ 041000Z 0412/0512 05012KT 9999 SCT018 SCT035 TEMPO 0412/0512 SHRA PROB30 TEMPO 0412/0422 VRB02KT 5000 +SHRA FEW015CB BKN018
AAXX 04184 032200Z 0400/0424 09014KT 9999 SCT022 SCT038 BKN270 TEMPO 0400/0424 4000 SHRA BKN013 BKN036 BKN260
AAXX 04184 BKN038 SCT270 TEMPO 0412/0512 SHRA BKN015 PROB40 TEMPO 0418/0512 5000 SHRA BKN014 BKN036 PROB30 0420/0512 4000 TSRA FEW012CB
AAXX 04184 918 4000 TSRA FEW012CB
AAXX 04184 N015 BKN036 PROB40 TEMPO 0704/0724 3000 +TSRA SCT011CB BKN012 BECMG 0712/0714 14008KT
AAXX 04184 21/2712 07017G28KT 5000 SHRA BKN015 BKN036 PROB TEMPO 2700/2712 4000 TSRA FEW013CB
AAXX 04184 PROB30 TEMPO 0800/0806 4000 TSRA FEW012CB PROB40 TEMPO 0800/0824 2000 +SHRA/TSRA SCT010CB BKN012 BKN250
AAXX 04184 85574 12960 02212 10305 20121 39596 40117 58014 60001
AAXX 04184 85577 12960 02207 10306 20118 39545 40125 58025 60001
AAXX 04184 85585 12998 21705 10241 20138 40179 58003 60001 80001 333 56002 82075
AAXX 04184 85586 11457 82707 10190 20137 40186 58002 60001 70522 885// 333 56099 88617
AAXX 04184 85629 12770 13603 10296 20160 40137 55009 60001 81200 333 56200 81850
AAXX 04184 85672 13970 03303 10294 20138 40142 58006 60001 333
AAXX 04184 85682 11458 73611 10189 20140 40172 51004 60001 70522 87500 333 56700 87613
AAXX 04184 85743 11950 02405 10310 20101 40139 57007 60001 70400
AAXX 04184 85766 11960 61503 10283 20152 40147 57006 60001 70400 86030 333 56060 86360
AAXX 04184 85799 12960 51511 10222 20145 40171 51002 60001 82039 333 56056 82363 85170
AAXX 04184 78384 12560 70614 10232 20149 40223 60001 85502 333 10239 20206 58006 70000 85625 87070
AAXX 04184 78383 12560 70511 10234 20152 40219 60001 86502 333 10255 20295 58008 70000 86630
AAXX 04184 78925 12675 30812 10283 20211 40145 56026 60001 83200 333 10293 20238 59001 83836
AAXX 04184 78925 12675 30812 10283 20211 40145 56026 60001 83200 333 10293 20238 59001 83836
AAXX 04184 78906 11578 32503 10299 20223 30135 40140 60001 70411 83201 333 10306 20209 58001 70000 83820
AAXX 04184 78583 32570 60207 10241 20159 40245 84832 333 01111 59009 81822 83645 85078
AAXX 04184 78925 12675 30812 10283 20211 40145 56026 60001 83200 333 10293 20238 59001 83836
AAXX 04184 78906 11578 32503 10299 20223 30135 40140 60001 70411 83201 333 10306 20209 58001 70000 83820
AAXX 04184 85836 12970 72506 10256 20096 40186 57018 60001 870/4 333 56067 87070
AAXX 04184 97180 32457 70603 10241 20241 30078 40096 56011 82272 333 56000 82819 85359
AAXX 04184 08594 31459 70715 10230 20169 40149 70622 84231 333 10250 59010 84615 85360
AAXX 04184 08589 31550 70112 10247 20140 40142 70522 81504 333 10270 59005 81620 87070
AAXX 04184 08583 31958 70614 10235 20156 40161 70621 87080 333 10263 59003 87359
AAXX 04184 78062 12665 70104 10165 20083 40264 60001 87800 333 58024 85830 87645 90908
AAXX 04181 12772 31568 72807 10069 20010 39854 40139 52005 70162 875// 333 10069 4/000 87630
AAXX 04181 12822 16/// /2803 10064 20005 30038 40183 52021 69942 333 10091
AAXX 04181 12843 11970 72802 10055 20040 39998 40170 53011 69982 70182 82048 333 10055 4/000
AAXX 04181 12882 31557 82504 10060 20045 30012 40145 52005 76062 8557/ 333 10073 4/000 85626
AAXX 04181 12925 16/// /0000 10065 20053 30023 40196 53018 60022 333 10121
AAXX 04181 12942 11570 80000 10070 20021 39949 40196 51028 69962 76062 8372/ 333 10103 4/000 83720
AAXX 04181 12982 31470 83303 10069 20047 30075 40177 53021 76086 8557/ 333 10086 4/000 82716 85650
BBXX 44007 04181 99435 70701 46/// /2805 11061 21161 40149 58026 91750 22200 00072 10901 3//// 40901 70003 333 91206 555 11046 22048 31745 42806 61749 282045 285038 283035 282040 277034 281036
AAXX 04184 68352 36/// /1035 10256 20043 39069 48528 53016 333 10320 20255 91134 555 91016
BBXX CGDS 04184 99429 70792 46/// /3022 11016 21058 40127 58044 7//// 8//// 22200 0//// 2////
AAXX 04184 78016 11664 53117 10155 20071 30177 40181 55002 69951 71582 85800 333 10160 20117 70168 90935
AAXX 04181 01001 11570 83407 10009 21009 39779 49790 52005 69942 72272 8681/
AAXX 04181 01008 11458 71208 11018 21046 30028 40062 53011 69922 77177 875// 333 11005 91111
AAXX 04181 01010 11989 61109 10005 21061 39828 49844 57004 60002 70222 81038 333 10024 91116
AAXX 04181 01026 11889 31704 11018 21084 39729 49870 57007 60002 70200 82038 333 4/015
AAXX 04181 01055 46/// /1210 11028 21066 39918 49936 56002
AAXX 04181 01062 NIL
AAXX 04181 01098 11489 11407 11052 21101 39964 49982 58020 60002 70110 81100 333 11034 91112
AAXX 04181 01115 16/// /1214 10038 21034 39755 49775 58010 6//// 333 10045 91121
AAXX 04181 01152 11888 71009 10018 21062 39782 49797 58010 60002 70222 85078 333 10030 91117
AAXX 04181 01205 NIL
AAXX 04181 01212 16/// /2110 10026 20013 39739 49755 58019 6//// 333 10050 91121
AAXX 04181 01271 16/// /0000 10005 21008 39714 49735 58004 6//// 333 10019 91106
AAXX 04181 01288 11445 82402 11028 21044 39008 49742 52002 60042 77172 85720 333 11024 91111
AAXX 04181 01300 NIL
AAXX 04181 01317 41581 61704 10025 21010 39795 49810 58029 70298 85863
AAXX 04181 01367 NIL
AAXX 04181 01384 11989 22105 11016 21044 39545 49789 50011 60032 70100 82070 333 10024 91109
AAXX 04181 01403 11570 42508 10039 20001 39763 49831 58031 60022 70281 84900 333 10053 91121
AAXX 04181 01415 16/// /2704 10050 21002 39835 49846 58029 6//// 333 10064 91117
AAXX 04181 01482 46/// /2612 10040 21011 39807 49814 58011 333 10059 91121
AAXX 04181 01492 NIL
AAXX 04181 01003 NIL
AAXX 04181 01007 11789 81011 11013 21055 30050 40059 52008 60002 70222 885// 333 10000 42/// 91116
AAXX 04181 01028 NIL
AAXX 04181 01047 11680 81403 11075 21095 39547 49920 56007 69912 77172 8802/ 333 11020
AAXX 04181 01049 NIL
AAXX 04181 01078 11375 61211 11043 21095 39959 49972 57012 60002 70122 85240
AAXX 04181 01102 46/// /1012 10027 21024 39722 49741 58008 333 10047 91117
AAXX 04181 01160 NIL
AAXX 04181 01218 NIL
AAXX 04181 01238 41565 72204 11056 21089 38643 49747 58004 70273 83720 333 11035 91116
AAXX 04181 01241 11258 81201 10008 20004 39716 49727 57006 60052 76876 887// 333 10017 91104
AAXX 04181 01281 NIL
AAXX 04181 01338 16/// /2105 10005 21006 39731 49797 58019 60052 333 10042 91113
AAXX 04181 01359 NIL
AAXX 04181 01397 NIL
AAXX 04181 01400 NIL
AAXX 04181 01427 11565 72611 10056 20030 39842 49857 58021 60022 78082 87900 333 10070 91125
AAXX 04181 01447 NIL
AAXX 04181 01448 46/// /2806 10038 20010 39850 49860 58018 333 10058 91119
AAXX 04184 78016 11664 53117 10155 20071 30177 40181 55002 69951 71582 85800 333 10160 20117 70168 90935
AAXX 04184 78016 11664 53117 10155 20071 30177 40181 55002 69951 71582 85800 333 10160 20117 70168 90935
AAXX 04184 85574 12960 02212 10305 20121 39596 40117 58014 60001
AAXX 04184 85577 12960 02207 10306 20118 39545 40125 58025 60001
AAXX 04184 85585 12998 21705 10241 20138 40179 58003 60001 80001 333 56002 82075
AAXX 04184 85586 11457 82707 10190 20137 40186 58002 60001 70522 885// 333 56099 88617
AAXX 04184 85629 12770 13603 10296 20160 40137 55009 60001 81200 333 56200 81850
AAXX 04184 85672 13970 03303 10294 20138 40142 58006 60001 333
AAXX 04184 85682 11458 73611 10189 20140 40172 51004 60001 70522 87500 333 56700 87613
AAXX 04184 85743 11950 02405 10310 20101 40139 57007 60001 70400
AAXX 04184 85766 11960 61503 10283 20152 40147 57006 60001 70400 86030 333 56060 86360
AAXX 04184 85799 12960 51511 10222 20145 40171 51002 60001 82039 333 56056 82363 85170
AAXX 04184 85406 12970 32014 10241 20167 40140 58012 60001 83010 333 56000 83470
AAXX 04184 85418 12970 32319 10240 20172 40149 57013 60001 83030 333 56000 83363
AAXX 04184 85442 12565 61912 10225 20159 40149 57013 60001 82550 333 56570 82620 8365
AAXX 04184 85467 12560 32510 10240 20140 40166 57007 60001 80001 333 56001 83070
AAXX 04184 85469 42565 61111 10232 20145 40200 52007 86800 333 56200 83820 85630
AAXX 04184 85488 12965 02810 10215 20138 40167 58008 60001
AAXX 04184 85832 12980 79902 10264 20082 40136 56014 60001 80004 333 56006 87070
AAXX 04184 85874 12980 73216 10243 20100 39526 40117 58027 60001 80004 333 56006 87070
AAXX 04184 85886 12970 52927 10280 20206 40097 57039 60001 80004 333 56006 85070
AAXX 04184 85892 12980 02712 10272 20067 40109 57023 60001 333
AAXX 04184 85934 11480 82519 10171 20098 40016 54000 69901 70382 8553/ 333 56569 85619 88358
AAXX 04184 85968 12660 52626 10197 20046 49927 55013 60001 85108 333 56606 85843 84266
AAXX 04184 89056 11358 82706 10011 20002 49870 57010 60003 70542 886// 333 56699 85706 88608
AAXX 04184 89057 12460 83303 10042 20003 49870 57010 60003 885// 333 56599 88617
AAXX 04184 89058 32475 71402 10042 20002 39850 49871 57011 878// 333 20003
AAXX 04184 89059 12960 72005 10016 21033 49865 57009 69903 8703/ 333 74069 87360
AAXX 04184 89251 32465 83409 10022 20006 49859 57010 8651/
AAXX 04181 10004 46/60 /2417 10072 20052 30012 40012 58035 222// 00073 333 10080 20053 55300 91122 91218
AAXX 04181 10015 01558 82516 10071 20041 30006 40016 58026 69922 72162 8581/ 222// 02062 333 10075 20060 31005 55300 20000 30000 69907 83820 85630 88459 91122 91217
AAXX 04181 10020 075// 72513 10064 20044 39940 49972 58027 69952 7//65 333 10074 20050 3/004 55300 20000 30000 69947 83/27 87/45 87/59 91123 91215
AAXX 04181 10035 01570 72408 10059 20031 39942 40000 58021 60012 70282 875// 333 10065 20040 32003 55300 20000 30000 41077 69937 87622 91118 91211
AAXX 04181 10055 01472 72310 10053 20031 39992 40002 58012 69912 72181 878// 333 10060 20047 31003 55300 20000 30000 69907 82816 87620 91124 91217
AAXX 04181 10147 01575 72408 10060 20031 30025 40043 58017 60032 72582 875// 333 10061 20038 32003 55300 20000 30000 41180 69907 87620 91116 96480
AAXX 04181 10162 07472 72410 10048 20019 39955 40038 58015 60022 76186 333 10055 20030 3/002 55300 20000 30000 69907 82/19 87/26 87/33 91118 91211
AAXX 04181 10184 01568 72306 10049 20016 30012 40020 50000 69902 70361 83154 333 10062 20047 31003 55300 20000 30000 69907 83822 85363 87072 91117
AAXX 04181 10200 07480 72308 10066 20035 30055 40053 58029 69942 72265 333 10071 20042 3/003 55300 20000 30000 69907 85/13 87/21 87/38 91116
AAXX 04181 10224 03/// /2411 10061 20028 30061 40067 58020 60022 8//// 333 10071 20039 3/003 55300 20000 30000 69997 91117 91212
AAXX 04181 10270 06960 02305 10034 20015 30020 40076 58004 60032 222// 06042 333 10059 20034 3/002 55300 69977 91119
AAXX 04181 10338 11575 72408 10061 20016 30018 40091 58013 69912 70282 868// 333 10068 20045 31003 55300 20000 30000 81828 86645 91115
AAXX 04181 10361 01580 32406 10052 20003 30000 40104 58004 69902 72581 83800 333 10070 20045 31002 55300 20000 30000 69907 81833 83650 91115
AAXX 04181 10393 11684 72407 10052 20001 39966 40093 51013 69902 70381 875// 333 10064 20046 31003 55300 20000 30000 87638 91117 91211
AAXX 04181 10400 11581 52208 10067 20027 30092 40142 58023 60012 70282 83831 333 10072 20043 31003 55300 20000 30000 82833 83648 91113
AAXX 04181 10438 07681 61904 10046 20006 39858 40141 58012 60042 72365 333 10057 20026 3/101 55300 69907 81/39 86/50
AAXX 04181 10469 12784 52309 10043 20000 39960 40127 50002 60002 82504 333 10066 20038 31002 55300 82650 84080 91116 91212
AAXX 04181 10488 01684 72407 10048 21009 39852 40136 51010 69902 70361 875// 333 10065 20043 31002 55300 20000 30000 41091 69907 87636 91116 91211
AAXX 04181 10506 03/78 /2407 10035 20009 39582 40172 58022 69902 8//// 333 10038 20025 3/001 55300 20000 30000 69907
AAXX 04181 10548 11681 52306 10033 21019 39620 40169 58001 69982 70381 84501 333 10047 20013 31001 55300 20000 30000 84648 84072 91117 91211 96486
AAXX 04181 10637 01682 82107 10057 21000 30052 40192 58008 69902 70382 85557 333 10083 20053 31003 55300 69907 85638 85366 88275 91113 99022
AAXX 04181 10685 07484 62406 10020 21018 39486 40171 52007 60012 72487 333 10044 20009 3/100 55300 20000 30000 69907 82/14 86/50 86/67 91114
AAXX 04181 10738 01982 72205 10033 21009 39756 40236 56007 69962 70382 80002 333 10061 20032 31001 55300 69907 87076 91115
AAXX 04181 10763 11780 72406 10042 21007 39817 40206 51010 69902 70381 875// 333 10065 20040 31003 55300 20000 30000 87650 91115
AAXX 04181 10788 15888 22308 10038 21005 39773 40213 51008 60012 333 10067 20036 3/002 55300 20000 30000 82/56 91113
AAXX 04181 10852 13788 42507 10030 21013 39657 40239 51005 60022 8//// 333 10051 20025 3/000 55300 20000 30000 81/50 84/75 91115 91211
AAXX 04181 10946 17584 22405 10016 21014 39408 40261 50000 60112 70087 333 10057 20005 3/102 55300 20000 30000 82/25 91113
AAXX 04184 78897 11582 40609 10281 20216 40147 56027 69941 72586 84200 333 0222/ 10281 20206 59004 70006 83826
AAXX 04184 78866 02584 60908 10283 20202 30151 40156 57025 60001 82460 333 58000 60007 82821 86357
AAXX 04184 78948 11578 41014 10289 20216 30131 40139 60001 70511 83201 333 02206 10296 20258 59001 83829
AAXX 04184 78897 11582 40609 10281 20216 40147 56027 69941 72586 84200 333 0222/ 10281 20206 59004 70006 83826
AAXX 04184 07005 04/70 /2319 10084 20051 30095 40186 56024 69942 700// 333 10094 20062 69907 90710 91128 555 69905
AAXX 04184 07015 01570 82415 10081 20047 30110 40168 56026 69902 76086 875// 333 10093 20044 69907 87620 90710 91122 93100 555 69905
AAXX 04184 07020 06/// /2532 10111 20072 30175 40202 56030 69902 333 10111 20099 60007 91042 90710 91151 555 60005
AAXX 04184 07027 01580 82218 10090 20052 30136 40218 56027 69942 70162 885// 333 10101 20051 69907 85629 87644 90710 91127 93100 555 60005
AAXX 04184 07037 04469 82315 10074 20052 30032 40218 56019 69902 700// 333 10089 20049 69907 90710 91125 555 69905
AAXX 04184 07070 04570 82413 10077 20037 30108 40220 55013 69902 700// 333 10090 20050 69907 90710 91122 555 60005
AAXX 04184 07110 01470 82518 10098 20074 30144 40260 56016 69902 76062 885// 333 10106 20064 69907 85615 87623 90710 91134 93100 555 69905
AAXX 04184 07117 01460 82418 10100 20071 30161 40232 56025 69902 72582 88800 333 10110 20086 60007 91031 90710 91139 92447 555 60005
AAXX 04184 07130 04683 82410 10097 20055 30209 40262 56022 60002 700// 333 10112 20045 60007 90710 91121 555 60005
AAXX 04184 07139 06/// /2313 10083 20037 30066 40243 56025 60002 333 10096 20036 60007 90710 91124 555 60005
AAXX 04184 07149 02680 72312 10080 20040 30124 40235 56021 60002 8453/ 333 10098 20043 60007 84646 87363 90710 91121 93100 555 60005
AAXX 04184 07168 04/70 /2215 10075 20037 30104 40249 58012 69902 700// 333 10089 20050 69907 90710 91122 555 69905
AAXX 04184 07181 04584 82217 10054 20024 39821 40240 58015 60002 700// 333 10068 20044 60007 90710 91124 555 60005
AAXX 04184 07190 04784 72010 10055 20001 30057 40244 58006 60012 700// 333 10085 20045 60007 90710 91116 555 60005
AAXX 04184 07207 02565 72822 10115 20066 60002 8485/ 222// 328// 333 10119 20097 60007 91034 90710 91137 92457 555 60005
AAXX 04184 07222 01670 72609 10103 20066 30258 40290 55009 69902 70386 86501 333 10119 20054 60007 86636 85075 90710 91115 555 60005
AAXX 04184 07240 02670 72108 10082 20040 30138 40276 58013 60002 8351/ 333 10102 20051 60007 83640 86468 90710 91116 93100 555 60005
AAXX 04184 07255 04668 /2408 10075 20044 30082 40287 58007 60002 700// 333 10097 20058 60007 90710 91114 555 60005
AAXX 04184 07280 04782 /1908 10045 20008 30004 40286 58001 60002 700// 333 10086 20045 60007 90710 91112 555 60005
AAXX 04184 07299 02575 62307 10054 20002 39939 40275 53003 60012 83832 333 10076 20048 60007 82830 85363 85073 90710 91117 93100 555 60005
AAXX 04184 07314 06/// /2615 10114 20069 30287 40315 55010 60002 333 10120 20104 60007 90710 91121 555 60005
AAXX 04184 07335 04981 82309 10075 20053 30153 40302 55009 60002 700// 333 10106 20050 60007 90710 91113 555 60005
AAXX 04184 07434 04565 82106 10062 20028 39823 40315 58005 60002 700// 333 10084 20043 60007 90710 91108 555 60005
AAXX 04184 07460 02680 52403 10065 20008 39907 40307 58003 69902 81501 333 10088 20049 60007 81633 85073 90710 91106 93100 555 60005
AAXX 04184 07471 04558 /2901 10000 21019 39320 48893 52008 69902 700// 333 10056 20000 60007 90710 91105 555 60005
AAXX 04184 07481 02780 51406 10054 20017 30017 40314 51008 69942 81501 333 10095 20050 60007 81656 85075 90710 91110 93100 555 60005
AAXX 04184 07510 04569 82305 10102 20069 30261 40328 58005 69942 700// 333 10123 20089 60007 90710 91109 555 60005
AAXX 04184 07535 06/// /2002 10068 20034 30007 40329 50002 60002 333 10106 20064 60007 90710 91106 555 60005
AAXX 04184 07558 06/// /3018 10037 20009 39458 40321 50011 69922 333 10071 20036 60007 90710 91126 555 60005
AAXX 04184 07577 04/70 /0507 10074 20004 30211 40303 51018 69982 700// 333 10109 20038 60007 90710 91114 555 60005
AAXX 04184 07591 04/// /3602 10010 21041 39215 4//// 51013 60012 700// 333 10085 21023 60007 90710 91107 555 60005
AAXX 04184 07607 04669 /2604 10095 20069 30268 40341 57006 60002 700// 333 10132 20089 60007 90710 91107 555 60005
AAXX 04184 07621 02580 12606 10079 20047 39909 40354 53003 60042 81400 333 10123 20070 60007 81630 90710 91110 93100 555 60005
AAXX 04184 07627 06/// /3305 10069 20039 39845 40347 55002 60022 333 10110 20069 60007 90710 91108 555 60005
AAXX 04184 07630 02780 72906 10096 20050 30156 40341 53004 69942 875// 333 10121 20086 60007 87650 90710 91109 93100 555 60005
AAXX 04184 07643 02986 03012 10106 21003 30282 40292 51010 60002 333 10149 20072 60007 90710 91118 555 60005
AAXX 04184 07650 02986 03231 10102 21022 30215 40254 50008 60002 333 10132 20046 60007 91042 90710 91142 93100 555 60005
AAXX 04184 07661 02970 32834 10101 21029 30054 40217 50018 60002 83070 333 10137 20101 60007 83358 90710 91148 555 60005
AAXX 04184 07690 02580 13207 10093 20057 30163 40197 51027 60002 81131 333 10157 20055 60007 81830 90710 91109 93100 555 60005
AAXX 04184 07747 02775 33316 10118 20025 30248 40302 50006 60002 83100 333 10162 20116 60007 83850 91028 90710 91128 93100 555 60005
AAXX 04184 07761 01670 10508 10093 20049 30166 40177 55001 69902 70161 81500 333 10154 20051 60007 81640 90710 91110 93100 555 60005
AAXX 04184 07790 02575 33112 10139 20067 30158 40172 53028 60002 83800 333 10150 20040 60007 81830 83650 90710 91129 93100 555 60005
AAXX 04181 01015 NIL
AAXX 04181 01023 11589 71006 11027 21079 39780 49875 58002 60002 70222 81578 333 11001 91114
AAXX 04181 01033 46/// /1205 10011 21083 39835 49866 56008
AAXX 04181 01059 11689 71807 11069 21102 39937 49947 58011 69902 70272 8255/ 333 11039 91111
AAXX 04181 01089 16/// /1203 11112 21183 39864 49974 57017 6//// 333 11093 91108
AAXX 04181 01167 31787 71405 10018 21094 39825 49829 58007 70222 81178 333 10035 91111
AAXX 04181 01180 NIL
AAXX 04181 01210 41480 72308 10030 20002 39732 49758 58024 78082 8596/ 333 10053 91114
AAXX 04181 01228 NIL
AAXX 04181 01240 16/// /1504 10028 20007 39704 49723 57008 6//// 333 10029 91107
AAXX 04181 01304 46/// ///// 10031 20005 39746 49777 58025 333 10053
AAXX 04181 01311 46/// /1503 10016 20001 39750 49811 58029 333 10049 91113
AAXX 04181 01340 NIL
AAXX 04181 01355 16/// ///// 10012 21009 39793 49798 58018 6////
AAXX 04181 01360 NIL
AAXX 04181 01392 11678 72302 10001 21036 39555 49777 50011 60002 70122 8514/ 333 10021 91107
AAXX 04181 01406 46/// /1909 10057 20001 39795 49813 58033 333 10065 91124
AAXX 04181 01411 16/// /2507 10058 20006 39813 49838 58029 6//// 333 10066 91120
AAXX 04181 01425 NIL
AAXX 04181 01433 46/// /2703 11050 21061 38582 49828 58016 333 11030 91115
AAXX 04181 01442 NIL
AAXX 04181 01450 NIL
AAXX 04181 01452 11580 62203 10018 20000 39839 49860 58016 60002 70381 83835 333 10052 91112
AAXX 04181 01473 11980 22101 11007 21040 39606 49812 58004 60002 70121 80006 333 10040 91108
AAXX 04181 01494 16/// /2302 10016 21038 39749 49814 58002 60002 333 10044 91113
AAXX 04181 01121 46/// /1111 10026 21053 39760 49772 58005 333 10040 91117
AAXX 04181 01135 NIL
AAXX 04181 01143 16/// /1004 10006 21069 60002 333 10026 91111
AAXX 04181 01150 16/// /2902 11013 21069 60002 333 4/059
AAXX 04181 01192 NIL
AAXX 04181 01225 46/// /2614 10036 20015 39723 49727 58010 333 91119
AAXX 04181 01230 16/// /0000 11086 21094 60102 333 4/055
AAXX 04181 01232 16/// /1101 11004 21007 39685 49763 58021 60212 333 4/007
AAXX 04181 01234 16/// /2006 10005 21001 60042 333 10008 91109
AAXX 04181 01253 16/// /1102 11002 21022 60072
AAXX 04181 01254 16/// /0101 10002 21005 60022
AAXX 04181 01257 NIL
AAXX 04181 01277 NIL
AAXX 04181 01291 16/// /3001 11005 21017 60002 333 4/042
AAXX 04181 01332 16/// /0000 10003 21010 60092 333 10043 91110
AAXX 04181 01366 46/// /2506 11088 21101 38186 49790 58014
AAXX 04181 01370 NIL
AAXX 04181 01376 16/// /3005 10019 21065 69972 333 10043 91116
AAXX 04181 01383 46/// /0000 11023 21036 39455 49765 51004 333 11004 91100
AAXX 04181 01386 16/// ///// 10011 21041 6////
AAXX 04181 01416 16/// ///// 10039 20008 6////
AAXX 04181 01419 NIL
AAXX 04181 01430 16/// ///// 10033 20015 6////
AAXX 04181 01434 16/// /2802 11037 21060 38865 49813 58015 60052 333 11012 91110
AAXX 04181 01455 NIL
AAXX 04181 01468 16/// /2603 10007 21034 60002 333 10018 91109
AAXX 04181 01470 16/// /2301 10005 21041 39707 49820 58010 60002 333 4/008
AAXX 04181 01476 NIL
AAXX 04181 01481 NIL
AAXX 04181 01488 NIL
AAXX 04181 01025 16/// /2401 11009 21083 39861 49872 57006 60002 333 10014 91111
AAXX 04181 01052 16/// /1108 11048 21088 39822 49921 58007 60002 333 11013 91114
AAXX 04181 01122 16/// /2304 10013 21054 39682 49769 58002 6//// 333 10031 91112
AAXX 04181 01132 16/// /0102 11003 21055 39373 49753 58004 60002 333 4/062
AAXX 04181 01156 NIL
AAXX 04181 01203 46/// /2109 10036 20005 39717 49764 58016 333 10054 91120
AAXX 04181 01233 16/// /0501 11030 21068 60032 333 11016 91113
AAXX 04181 01265 NIL
AAXX 04181 01273 NIL
AAXX 04181 01307 NIL
AAXX 04181 01321 16/// /1301 11009 21011 39531 49781 58024 60092
AAXX 04181 01327 11270 82804 11011 21028 60072 72682 889// 333 10007 91109
AAXX 04181 01350 16/// /2812 11059 21064 38420 49774 57011 69942 333 11040 91118
AAXX 04181 01361 16/// /2601 11055 21074 38763 49779 58010 60052 333 4/086
AAXX 04181 01375 NIL
AAXX 04181 01378 16/// /1001 11020 21042 39478 49766 57003 60002 333 10006 91105
AAXX 04181 01385 16/// /2502 10000 21034 39509 49775 50002 60002
AAXX 04181 01412 16/// /2908 10054 20021 39819 49847 58030 60022 333 10066 91122
AAXX 04181 01422 16/// /1503 10029 20001 69972 333 10062 91114
AAXX 04181 01440 NIL
AAXX 04181 01441 NIL
AAXX 04181 01467 NIL
AAXX 04181 01469 NIL
AAXX 04181 01477 16/// /2901 11005 21037 60002 333 4/028
AAXX 04181 01480 16/// /3403 10013 21051 60002 333 10047 91117
AAXX 04181 01484 16/// /1902 11001 21042 39644 49798 50004 60002 333 10025 91108
AAXX 04181 01490 16/// /2603 11033 21040 60002 333 11013 91108
AAXX 04181 01495 16/// /2507 10041 21014 39804 49817 58005 60002
AAXX 04184 96315 31260 71402 10247 20245 40092 60173 72598 82878 333 81704 85364
AAXX 04184 96323 NIL
AAXX 04184 96315 31260 71402 10247 20245 40092 60173 72598 82878 333 81704 85364
AAXX 04184 96323 NIL
AAXX 04181 01037 NIL
AAXX 04181 01046 NIL
AAXX 04181 01058 16/// /1204 11092 21112 39464 49940 57008 60002 333 11051 4/016 91109
AAXX 04181 01065 NIL
AAXX 04181 01092 NIL
AAXX 04181 01107 16/// /1013 10028 21039 39785 49789 58008 69922 333 10039 91118
AAXX 04181 01114 NIL
AAXX 04181 01144 41886 70912 10021 21067 70221 84046 333 10029 91119
AAXX 04181 01199 NIL
AAXX 04181 01245 NIL
AAXX 04181 01259 16/// /1005 10016 21027 39707 49729 57008 60002 333 10025 91109
AAXX 04181 01262 NIL
AAXX 04181 01278 NIL
AAXX 04181 01293 11X15 90000 11010 21014 39530 49734 57002 60052 77377 333 11005 91101
AAXX 04181 01329 NIL
AAXX 04181 01337 NIL
AAXX 04181 01344 16/// ///// 11025 21036 6//// 333 4/080
AAXX 04181 01364 NIL
AAXX 04181 01373 16/// /0000 11057 21064 39598 49799 57003 60002 333 10023 91107
AAXX 04181 01374 NIL
AAXX 04181 01380 16/// /2808 11050 21086 6//// 333 11034 4/052 91117
AAXX 04181 01389 NIL
AAXX 04181 01393 NIL
AAXX 04181 01424 11460 8//// 10022 21007 39829 49832 58021 60052 70262 8672/ 333 10054
AAXX 04181 01431 16/// /1401 11021 21040 39190 49850 58019 60062 333 10004 91110
AAXX 04181 01436 NIL
AAXX 04181 01465 11982 32508 10033 20007 39832 49850 58020 60002 70300 80002 333 10065 91117
AAXX 04181 01471 11789 22301 11037 21066 60002 70120 82100 333 10016 91111
AAXX 04181 01483 NIL
AAXX 04184 78866 02584 60908 10283 20202 30151 40156 57025 60001 82460 333 58000 60007 82821 86357
AAXX 04184 78948 11578 41014 10289 20216 30131 40139 60001 70511 83201 333 02206 10296 20258 59001 83829
AAXX 04184 78866 02584 60908 10283 20202 30151 40156 57025 60001 82460 333 58000 60007 82821 86357
AAXX 04181 11816 11965 72905 10062 21001 30015 40180 52021 60022 70266 80002 333 10075 87070
AAXX 04181 11826 11982 72604 10045 20005 39969 40171 52019 60032 70266 80008 333 10061 87270
AAXX 04181 11903 11562 89902 10031 20031 39771 40156 52012 60022 70364 885// 333 10035 42002 88632
AAXX 04181 11934 11580 72509 10019 21015 39304 42743 53016 69902 70162 81570 333 10058 81620 87463
AAXX 04181 11968 11245 80000 10033 20029 39850 40134 50006 69902 71054 886// 333 10033 88704
AAXX 04184 65001 31925 72703 10285 20156 3//// 4//// 70522 80008 333 10341 5//// 87280
AAXX 04184 65124 32970 70902 10292 20064 3//// 4//// 80008 333 10345 5//// 87280
AAXX 04184 65201 31935 61904 10275 20214 30059 40112 70522 80008 333 10341 56000 59009 86280 91108 65210 31948 70608 10276 20201 3//// 4//// 70522 80008 333 10341 5//// 87280
AAXX 04184 88889 11789 62631 10227 20069 39923 40003 57011 69901 70262 81572 91750 333 81656 83360 91041 90710 91143
AAXX 04181 63333 42980 00000 10162 20070 38183 40209 333 10258 59002
AAXX 04181 63340 42980 03201 10172 20065 37950 40173 333 10270 58000
AAXX 04181 63450 NIL
AAXX 04181 63451 42980 0//// 1//// 2//// 38149 4//// 333 10273 59003
AAXX 04181 63471 42880 23601 1//// 2//// 38879 4//// 82030 333 10300 58000
AAXX 04184 03005 11357 82117 10034 20025 39662 49760 57074 60032 76386 887// 91750 333 10049 55300 20000 88708
AAXX 04184 03017 17456 /2524 10048 20040 39735 49766 55082 60142 762// 91750 333 10053 55300 20000 83/14 87/22 90710 91135 91035
AAXX 04184 03023 17362 /2831 10077 20056 39823 49828 56051 60112 761// 91750 333 10086 81/07 86/31 90710 91148 91041
AAXX 04184 03026 17450 /2925 10049 20033 39780 49798 55050 60162 762// 91750 333 10074 55300 20000 86/14 84/50 90710 91141 91037
AAXX 04184 03063 17557 /2107 10031 20025 39548 49821 58081 60132 763// 91750 333 10031 4/003 55300 20000 87/24
AAXX 04184 03066 17669 /2214 10057 20037 39800 49806 57077 60012 762// 91750 333 10059 55300 20000 82/39 87/50
AAXX 04184 03075 17560 /2015 10044 20035 39736 49779 57080 60082 761// 91750 333 10045 87/27 90710 91126
AAXX 04184 03091 15682 /2312 10055 20016 39747 49825 56082 69902 91750 333 10067 55300 20000 88/45
AAXX 04184 03100 17457 /2733 10094 20082 39846 49861 56066 60102 723// 91750 333 10094 55300 20000 85/18 83/50 90710 91151 91045
AAXX 04184 03111 16459 /2533 10090 20076 39903 49915 58067 60172 91750 333 10091 87/18 90710 91147 91045
AAXX 04184 03134 16/// /2524 10083 20071 3//// 4//// 5//// 60192 91750 333 10084 55300 20000 90710 91144 91044
AAXX 04184 03136 17436 /2427 10080 20068 39880 49913 58072 60092 761// 91750 333 10082 55300 20000 87/15 90710 91143
AAXX 04184 03162 17461 /2220 10046 20033 39651 49935 58062 60112 762// 91750 333 10046 55300 20000 87/10 86/23 90710 91134 91032
AAXX 04184 03166 17456 /2324 10068 20054 39809 49878 58080 60092 762// 91750 333 10068 55300 20000 84/19 87/35 90710 91142 91035
AAXX 04184 03171 11482 82527 10064 20041 39835 49847 58087 69902 76162 8651/ 91750 333 10064 55300 20000 84618 86630 88461 90710 91142
AAXX 04184 03204 11462 82533 10090 20057 39986 40005 57043 6///2 76165 885// 91750 333 10091 55300 20000 81618 85622 88635 90710 91148 91044
AAXX 04184 03240 17984 /2328 10069 20039 39866 49894 58086 69902 723// 91750 333 10075 55300 20000 87/68 90710 91146 91043
AAXX 04184 03257 17566 /2528 10075 20046 39932 49972 58064 69922 761// 91750 333 10078 55300 20000 87/27 90710 91143 91043
AAXX 04184 03292 164// /2315 10071 20049 39974 49992 57055 69922 91750 333 10072 87/18 90710 91128 91025
AAXX 04184 03302 11460 82424 10088 20071 30039 40051 56037 60022 76265 885// 91750 333 10092 55300 20000 81618 83623 88628 90710 91137
AAXX 04184 03354 17566 /2517 10073 20047 39906 40048 57045 69942 781// 91750 333 10081 55300 20000 87/24 84/50 90710 91130 91028
AAXX 04184 03377 11584 82422 10083 20044 39957 40041 56042 69902 70362 8652/ 91750 333 10083 55300 20000 84623 85640 88459 90710 91134
AAXX 04184 03414 17667 /2525 10078 20056 39978 40066 56034 69942 761// 91750 333 10087 55300 20000 85/31 83/36 90710 91138 91035
AAXX 04184 03462 17581 /2420 10080 20041 39973 40062 57046 69902 781// 91750 333 10084 55300 20000 82/29 85/59 90710 91134 91034
AAXX 04184 03482 15671 /2222 10075 20046 30041 40067 58047 60002 91750 333 10076 86/35 85/57 90710 91131
AAXX 04184 03502 15461 /2635 10088 20065 39946 40108 58028 69982 91750 333 10089 55300 20000 81/18 84/21 86/28 90710 91146 91046
AAXX 04184 03535 15584 /2312 10081 20048 39953 40070 58041 69902 91750 333 10081 55300 20000 81/23 87/57 90710 91125 91025
AAXX 04184 03590 11357 82219 10062 20055 39978 40088 58047 69922 75965 885// 91750 333 10071 55300 20000 85708 88615 90710 91127
AAXX 04184 03649 11470 82615 10084 20063 30003 40103 58038 69922 75865 885// 91750 333 10086 55300 2//// 84617 87628 90710 91131 91025
AAXX 04184 03716 17247 /2728 10086 20076 30070 40130 58025 69982 762// 91750 333 10097 55300 20000 81/05 86/30 90710 91147 91041
AAXX 04184 03740 16356 /2424 10076 20064 39943 40120 58031 69922 91750 333 10085 55300 2//// 87/09 83/19 90710 91142 91037
AAXX 04184 03746 11470 82518 10077 20057 39978 40132 58037 69902 72186 885// 91750 333 10078 85710 88621 90710 91129
AAXX 04184 03772 15478 /2319 10087 20056 30086 40117 58041 69922 91750 333 10087 55300 20000 87/19 90710 91130
AAXX 04184 03796 46/// /2526 10081 20061 39993 40135 58035 91750 333 10083 90710 91136 91036
AAXX 04184 03803 NIL
AAXX 04184 03808 11464 82725 10097 20061 30090 40196 56022 69922 76062 885// 91750 333 10099 55300 20000 81710 87618 90710 91139 91036
AAXX 04184 03809 11358 82725 10100 20056 30106 40199 57018 69922 72186 885// 91750 333 10102 81706 84710 88622 90710 91146 91046
AAXX 04184 03827 17448 /2726 10089 20074 30123 40185 56023 69922 782// 91750 333 10100 81/14 86/23 90710 91143 91036
AAXX 04184 03840 17356 /2521 10071 20064 39844 40151 58027 69942 761// 91750 333 10077 87/08 85/22 90710 91141 91041
AAXX 04184 03853 11465 72519 10092 20073 40147 69942 75065 8753/ 91750 333 10096 55300 20000 82710 86622 90710 91129
AAXX 04184 03874 46/// /2633 10094 20066 30124 40135 58043 91750 333 10096 90710 91145
AAXX 04184 03882 17560 /2513 10086 20062 30081 40144 57037 69902 723// 91750 333 10089 55300 20000 81/20 83/27 86/43 90710 91128 91025
AAXX 04184 03894 NIL
AAXX 04184 03917 17568 /2321 10078 20057 39896 49972 58047 60092 761// 91750 333 10079 55300 20000 87/20 90710 91137 91037
AAXX 04181 33815 32997 02103 10041 20018 39917 40126 57007 333 10088 555 80014
BBXX 44040 04181 99410 70736 46/// /2703 11055 21137 40208 91745 22200 1//00 70001 333 91206 555 11036 22036
BBXX 46082 04181 99597 71434 46/// ///// 10036 49769 53015 91750 22200 00056 10906 70031
BBXX 46072 04181 99517 71722 46/// /3209 11019 21092 40004 55000 91750 22200 00040 11206 20705 3//// 41204 70029 333 91213 555 11097 22101 31719 43013 61749 323092 319091 312095 309097 306089 305086 83011 91720
BBXX 46035 04181 99571 71778 46/// /3509 1//// 40046 57004 91750 22200 10904 20703 300// 40903 70022 333 91211 555 11086 22092 31738 43413 61749 348087 336084 325084 347067 345075 359080 83311 91738
BBXX 46077 04181 99579 71543 46/// /2710 11058 21146 49910 53005 91750 22200 00030 10603 20603 70015 333 91212 555 11107 22112 31655 42613 61749 270101 266093 266091 262098 263100 261101 82611 91656
BBXX 46072 04181 99517 71722 46/// /3209 11019 21092 40004 55000 91750 22200 00040 11206 20705 3//// 41204 70029 333 91213 555 11097 22101 31719 43013 61749 323092 319091 312095 309097 306089 305086 83011 91720
BBXX 46026 04181 99378 71228 46/// /3306 10122 40292 51019 91750 22200 00113 11304 20601 327// 41304 70019 333 91208 555 11070 22077 31714 42808 61749 317063 281062 282060 286059 283049 287053
BBXX 46041 04181 99474 71247 46/// /1813 10100 40163 53014 91750 22200 00094 11310 20506 3//// 41308 70051 333 91215 555 11134 22144 31716 41916 61749 176124 178121 174129 175128 174126 175127
BBXX 42039 04181 99288 70860 46/// /1002 10125 40299 58010 91750 22200 00225 10301 20301 70004 333 91204 555 11018 22019 31736 41104 61749 094017 088017 079022 061011 044018 028016 80703 91727
BBXX 41040 04181 99145 70530 46/// /0809 10262 20213 40144 56026 91750 22200 00270 11106 20704 3//// 41104 70029 333 91210 555 11090 22096 31749 40710 61749 079085 082080 084079 087080 081080 084078 80709 91749
BBXX 51004 04181 99175 71524 46/// /0709 10247 20197 91750 555 11091 22097
BBXX 51002 04181 99171 71578 46/// /0809 10243 40206 53014 91750 22200 00243 333 91211 555 11092 22098 31736 40912 61749 079086 080091 085084 083088 074092 076088
BBXX 51100 04181 99236 71539 46/// /0507 10223 40250 52020 91750 22200 00233 11609 20602 332// 41608 70044 333 91209 555 11079 22083 31738 40710 61749 051074 051080 056075 057077 053073 051068
AAXX 04181 76055 32980 03312 10222 21037 30217 40236 52014 91740 333 10292 20136 30/// 58008
AAXX 04181 76061 32981 03603 10174 20070 30182 40257 52016 91740 333 10176 20130 30/// 58006
AAXX 04181 76122 32970 03611 10130 20011 38639 40310 52019 91750 333 10132 21009 30/// 58006
AAXX 04181 76220 32958 00000 10076 20015 38229 40359 52001 91750 333 10076 21064 30/// 59026
AAXX 04181 76225 32960 00202 10154 21020 38714 40264 52016 91735 333 10154 20032 30/// 59009
AAXX 04181 76256 32980 03203 10250 20058 30199 40213 52009 91745 333 10266 20159 30/// 59014
AAXX 04181 76258 32970 03403 10230 20071 30153 40199 50002 91750 333 10232 20092 30/// 56000 59015
AAXX 04181 76305 32970 40402 10258 20072 30199 40207 52004 82014 91740 333 10262 20180 30/// 56056 59010 82460
AAXX 04181 76323 32970 20201 10182 21028 38253 40327 52008 80002 91740 333 10182 20040 30/// 59028 82268
AAXX 04181 76373 32670 30000 10155 21024 38272 40233 57010 81470 91750 333 10163 21023 30/// 56909 58031 81627 82357
AAXX 04181 76382 32980 70701 10184 20094 38977 40257 52002 80006 91750 333 10202 20064 30/// 56007 59045 87076
AAXX 04181 76390 32970 11805 10182 21013 38291 40251 52001 80004 91730 333 10194 20040 30/// 56008 59036 81070
AAXX 04181 76393 32950 10401 10230 20078 39638 40227 57006 81030 91755 333 10238 20070 30/// 56080 59098
AAXX 04181 76402 31957 00000 10246 20162 30147 40204 52002 70544 91745 333 10246 20120 30/// 59004
AAXX 04181 76423 32680 40000 10162 20004 38213 40266 57011 81054 91750 333 10170 20016 30/// 56099 59034 81357 83067
AAXX 04181 76458 32964 02602 10235 20175 30185 40189 57003 91745 333 10268 20148 30/// 59004
AAXX 04181 76471 32980 00101 10166 21067 37748 40229 57005 91755 333 10172 20029 30/// 59032
AAXX 04181 76491 32960 03601 10210 20095 39855 40262 57004 91750 333 10216 20026 30/// 59106
AAXX 04181 76499 32960 01103 10266 20125 30208 40230 57007 91740 333 10267 20058 30/// 59105
AAXX 04181 76519 32560 13401 10156 20033 38427 40291 57001 80002 91745 333 10162 20030 30/// 56006 59018 81070
AAXX 04181 76525 32980 13004 10102 21053 37518 40234 52004 80001 91740 333 10102 20050 30/// 56//5 59021 81080
AAXX 04181 76539 31962 01501 10130 20014 38217 40309 57012 70544 91745 333 10155 21030 30/// 59042
AAXX 04181 76543 32975 01703 10245 20113 30227 40260 58016 91745 333 10247 20126 31/// 59094
AAXX 04181 76548 32975 02002 10224 20138 30255 40265 58008 91745 333 10228 20128 30/// 59087
AAXX 04181 76556 32970 11603 10264 20057 39168 40202 52004 80008 91435 333 10266 20124 30/// 59013 81270
AAXX 04181 76571 32975 00000 10168 20032 38221 40268 56007 91748 333 10172 20030 30/// 59028
AAXX 04181 76577 32970 12304 10151 20106 38092 40257 58005 80005 91740 333 10157 20040 30/// 56005 59024
AAXX 04181 76581 32970 03003 10170 20086 39130 40283 57021 91750 333 10180 20020 30/// 59089
AAXX 04181 76593 32370 30505 10234 20202 30263 40265 57018 81130 91750 333 10246 20134 30/// 5611/ 59025 81820 82330 91006 91505
AAXX 04181 76612 32962 31001 10192 20046 38533 40242 58005 80001 91750 333 10199 20070 30/// 56005 59024 83072
AAXX 04181 76625 32950 02901 10151 20039 38193 40242 56008 91740 333 10151 20055 30/// 59028
AAXX 04181 76632 31550 62003 10134 20064 37665 40218 57001 70522 83409 91745 333 10142 20042 30/// 56305 59032 83628 83170 98550
AAXX 04181 76634 31570 43204 10186 20061 37886 40263 57012 71011 81104 91750 333 10192 20014 30/// 560/3 59045 81827 83077 99020
AAXX 04181 76644 32460 30202 10246 20119 30247 40259 57031 81181 91750 333 10250 20105 30/// 56119 58023 81810
AAXX 04181 76654 31956 12302 10308 20163 30194 40198 52004 70544 80001 91755 333 10308 20221 30/// 5600/ 58013 81070
AAXX 04181 76658 31560 31802 10299 20129 39678 40185 56013 70541 81202 91748 333 10310 20173 30/// 56101 59003 81824 82070 94022 98924
AAXX 04181 76662 32670 63401 10182 20081 38516 40238 57004 81104 91735 333 10194 20056 30/// 56/0/ 59025 81833 85070
AAXX 04181 76665 31962 43401 10180 20068 38168 40238 57013 70300 80006 91750 333 10190 20050 30/// 56005 59020
AAXX 04181 76675 31565 52902 10161 20011 37407 40204 57008 70544 81204 91753 333 10167 21013 30/// 569/9 59023 81826 98465
AAXX 04181 76681 31950 20000 10172 20085 37818 40221 57013 70510 82030 91745 333 10172 20020 30/// 58/// 82458
AAXX 04181 76683 32668 60901 10164 20080 37860 40275 56016 81137 91745 333 10175 20012 30/// 56225 59029 81840 81360 84280 99021
AAXX 04181 76685 31550 43601 10180 20019 37909 40241 57006 70544 81105 91750 333 10182 20030 30/// 56909 59021 81827 83277
AAXX 04181 76695 32960 30303 10233 20109 30242 40248 57020 83005 91748 333 10238 20104 56//0 59030 83077 91006 91505
AAXX 04181 76698 32560 30401 10247 20165 30146 40258 57019 83200 91755 333 10255 20120 30/// 56100 59010 83820
AAXX 04181 76743 31/58 50001 10227 20188 30239 40247 57016 70211 85//1 91750 333 10250 20187 30/// 56//0 59038 850//
AAXX 04181 76750 32560 73602 10250 20134 30243 40254 57018 84230 91750 333 10258 20134 30/// 56110 59009 84820 83357
AAXX 04181 76762 32704 63303 10216 20171 38811 40214 58015 83024 91750 333 10218 20130 30/// 56066 59028 83450 83060 91206
AAXX 04181 76773 31968 72301 10186 20098 38473 40233 57016 70544 80006 91748 333 10188 20025 30/// 56009 59024 87268
AAXX 04181 76775 31970 40901 10199 20052 38576 40266 57017 70300 80004 91730 333 10202 20042 30/// 56002 59027
AAXX 04181 76833 32970 03612 10266 20172 30187 40189 57012 91745 333 10266 20210 30/// 59014 92001
AAXX 04181 76840 32950 10305 10266 20152 30125 40182 57008 80004 91745 333 10280 20210 30/// 56006 59014 81070
AAXX 04181 76843 32565 10202 10227 20117 39561 40219 57019 81100 91730 333 10239 20135 30/// 569// 59034 81830
AAXX 04181 76845 32960 00603 10172 20087 37978 40261 56017 91745 333 10178 20028 30/// 59034
AAXX 04181 76848 32970 00502 10176 20018 38424 40185 58020 91755 333 10176 20073 30/// 59026
AAXX 04181 76903 32580 42803 10320 20212 30032 40162 57012 84200 91740 333 10332 20220 30/// 56600 58019 84833
AAXX 04181 76160 32962 00201 10224 20029 39970 40219 52007 91730 333 10224 20105 30/// 59010
AAXX 04181 76243 32974 03604 10144 20044 39963 40268 52020 91730 333 10156 20028 30/// 59072
AAXX 04181 76253 32982 00505 10244 20084 30138 40228 51009 91755 333 10265 20120 30/// 59003 92002
AAXX 04181 76311 32980 00000 10246 20101 39909 40191 52003 91745 333 10251 20101 30/// 59012
AAXX 04181 76405 32980 00000 10260 20144 30194 40216 52009 91750 333 10262 20138 30/// 59002
AAXX 04181 76412 31966 02201 10252 20122 30161 40205 52017 70544 91745 333 10256 20130 30/// 58012
AAXX 04181 76585 32680 10000 10191 20139 30086 40247 58014 81100 91740 333 10210 20094 30/// 562// 59096 81833
AAXX 04181 76656 32975 43601 10205 20070 38561 40232 58003 80008 91750 333 10212 20065 30/// 56005 59024 84280
AAXX 04181 76855 32580 62201 10310 20224 30099 40149 50003 81238 91745 333 10318 20198 30/// 56999 58001 81820 82359 92001
BBXX VCRG 04184 99474 70619 46/// /3118 11043 21077 40003 57028 7//// 8//// 22200 0//// 2////
BBXX CG2350 04184 99433 70798 46/// /2421 11005 21065 40113 58041 7//// 8//// 22200 0//// 2////
BBXX CGUM 04184 99447 70636 46/// /3114 11071 21111 40049 56013 7//// 8//// 22200 0//// 2////
AAXX 04181 11423 NIL
AAXX 04181 11487 01582 72507 10027 21005 39555 40188 52013 60032 72682 874// 333 10048 69905 82628 87643 91012 91118
AAXX 04181 11518 02684 22406 10033 21009 39723 40169 52017 60002 82500 333 10065 60005 81643 91117
AAXX 04181 11603 01680 62606 10035 21026 39658 40146 51012 69942 70182 86500 333 10063 60005 82636 85656 91115
AAXX 04181 11659 NIL
AAXX 04181 11723 01980 12705 10036 21014 39868 40171 52016 60022 70161 81030 333 10070 60005 81360 91115
AAXX 04181 11782 01570 22306 10021 21002 39844 40155 52019 60062 70181 81508 333 10071 60005 81630 91112
AAXX 04181 02741 17399 82608 10020 20014 39695 49711 52032 60122 722// 88/// 91739 333 10048 20018
AAXX 04181 02755 37461 70907 11001 21019 39679 49772 57026 77170 87/// 91739 333 10003 21005
AAXX 04181 02805 17556 80102 11090 21116 39829 49965 57013 69922 77170 88/// 91739 333 11065 21092
AAXX 04181 02807 47499 80405 11093 21108 39757 49944 700// 88/// 91800 333 11058 21093
AAXX 04181 02836 37450 71003 11077 21090 39689 49916 57017 77187 87/// 91739 333 11048 21078
AAXX 04181 02845 47381 80609 11064 21073 39628 49879 57022 70087 88/// 91739 333 11040 21064
AAXX 04181 02849 47473 71203 11081 21096 39636 49915 57025 77187 87/// 91739 333 11052 21081
AAXX 04181 02866 37482 80806 11042 21052 39699 49848 57027 70000 88/// 91739 333 11030 21044
AAXX 04181 02897 47458 71008 11027 21040 39635 49816 771// 87/// 91800 333 11022 21028
AAXX 04181 02913 47459 70807 10013 20000 39659 49710 761// 87/// 333 10017 20008
AAXX 04181 02917 47359 81006 11010 21014 39669 49790 771// 88/// 91800 333 11002 21012
AAXX 04181 02924 47221 80902 10003 20003 39525 49717 57030 77187 88/// 91739 333 10004 21005
AAXX 04181 02926 17264 81304 10019 20016 39651 49663 57012 60042 752// 88/// 91800 333 10023 20004
AAXX 04181 02935 17264 81206 10001 20000 39574 49744 57032 60042 77487 88/// 91739 333 10005 21006
AAXX 04181 02939 17382 81205 11021 21026 39646 49838 57036 60022 77174 88/// 91739 333 11019 21031
AAXX 04181 02944 47149 81206 10018 20014 39544 49686 761// 88/// 91800 333 10020 20001
AAXX 04181 02947 47243 71205 10007 20006 49765 57036 76787 87/// 91751 333 10008 21003
AAXX 04181 02963 46/// /1807 10021 20018 49686 333 1//// 2////
AAXX 04181 02974 17361 81810 10029 20016 39659 49723 57029 60052 78186 88/// 91739 333 10035 20001
AAXX 04181 02976 46/// /1912 10038 20025 39742 49758 57040 91739 333 10040 20011
AAXX 04181 02981 47465 82617 10040 2//// 39711 49721 52030 70086 88/// 91739 333 10056 20035
AAXX 04181 02982 46/// /2619 10036 20028 39712 49719 52010 91739 333 10054 20035
AAXX 04184 86011 32670 41806 10386 20154 39942 40094 57015 84200 333 84835
AAXX 04184 86033 NIL
AAXX 04184 86065 32670 50505 10372 20147 39867 40094 57020 82105 333 82840 84070
AAXX 04184 86068 NIL
AAXX 04184 86086 32570 30000 10366 20150 30001 40087 57025 83200 333 83833
AAXX 04184 86097 32570 73505 10332 20131 39473 40092 57018 84806 333 84827 87270
AAXX 04184 86128 NIL
AAXX 04184 86134 32670 52504 10358 20175 30013 40096 57018 81206 333 81840 85270
AAXX 04184 86170 32970 62002 10366 20100 39987 40085 57021 80006 333 86270
AAXX 04184 86185 32970 40000 10364 20130 30010 40100 57020 80006 333 84270
AAXX 04184 86192 32570 20504 10364 20126 39871 40081 57029 82100 333 82820
AAXX 04184 86210 32670 41804 10248 20087 39752 40080 57013 82204 333 82840 82070
AAXX 04184 86218 32670 41206 10372 20096 30016 40018 57011 81103 333 81840
AAXX 04184 86221 32670 41802 10354 20138 39997 40126 57014 84100 333 84840
AAXX 04184 86233 32670 41804 10356 20136 39920 40101 57017 81106 333 81840 83270
AAXX 04184 86234 32570 41805 10358 20106 39878 40053 56013 81104 333 81830 84070
AAXX 04184 86246 32570 21906 10374 20144 39816 40087 57018 82100 333 82833
AAXX 04184 86251 NIL
AAXX 04184 86255 32670 31806 10354 20179 30044 40109 57036 81208 333 81840 82070
AAXX 04184 86260 32570 42006 10344 20144 39954 40100 57015 84420 333 82627 82840
AAXX 04184 86268 32670 42502 10356 20136 39948 40105 56009 84100 333 84840
AAXX 04184 86285 NIL
AAXX 04184 86297 32670 12308 10344 20162 39959 40059 58015 81100 333 81836
AAXX 04181 02741 17399 82608 10020 20014 39695 49711 52032 60122 722// 88/// 91739 333 10048 20018
AAXX 04181 02755 37461 70907 11001 21019 39679 49772 57026 77170 87/// 91739 333 10003 21005
AAXX 04181 02805 17556 80102 11090 21116 39829 49965 57013 69922 77170 88/// 91739 333 11065 21092
AAXX 04181 02807 47499 80405 11093 21108 39757 49944 700// 88/// 91800 333 11058 21093
AAXX 04181 02836 37450 71003 11077 21090 39689 49916 57017 77187 87/// 91739 333 11048 21078
AAXX 04181 02845 47381 80609 11064 21073 39628 49879 57022 70087 88/// 91739 333 11040 21064
AAXX 04181 02849 47473 71203 11081 21096 39636 49915 57025 77187 87/// 91739 333 11052 21081
AAXX 04181 02866 37482 80806 11042 21052 39699 49848 57027 70000 88/// 91739 333 11030 21044
AAXX 04181 02897 47458 71008 11027 21040 39635 49816 771// 87/// 91800 333 11022 21028
AAXX 04181 02913 47459 70807 10013 20000 39659 49710 761// 87/// 333 10017 20008
AAXX 04181 02917 47359 81006 11010 21014 39669 49790 771// 88/// 91800 333 11002 21012
AAXX 04181 02924 47221 80902 10003 20003 39525 49717 57030 77187 88/// 91739 333 10004 21005
AAXX 04181 02926 17264 81304 10019 20016 39651 49663 57012 60042 752// 88/// 91800 333 10023 20004
AAXX 04181 02935 17264 81206 10001 20000 39574 49744 57032 60042 77487 88/// 91739 333 10005 21006
AAXX 04181 02939 17382 81205 11021 21026 39646 49838 57036 60022 77174 88/// 91739 333 11019 21031
AAXX 04181 02944 47149 81206 10018 20014 39544 49686 761// 88/// 91800 333 10020 20001
AAXX 04181 02947 47243 71205 10007 20006 49765 57036 76787 87/// 91751 333 10008 21003
AAXX 04181 02963 46/// /1807 10021 20018 49686 333 1//// 2////
AAXX 04181 02974 17361 81810 10029 20016 39659 49723 57029 60052 78186 88/// 91739 333 10035 20001
AAXX 04181 02976 46/// /1912 10038 20025 39742 49758 57040 91739 333 10040 20011
AAXX 04181 02981 47465 82617 10040 2//// 39711 49721 52030 70086 88/// 91739 333 10056 20035
AAXX 04181 02982 46/// /2619 10036 20028 39712 49719 52010 91739 333 10054 20035
AAXX 04184 78951 12572 30912 10290 20211 30127 40142 60001 83200 333 10297 20241 58002 70001 83823
AAXX 04181 76055 32980 03312 10222 21037 30217 40236 52014 91740 33310292 20136 30/// 58008
AAXX 04181 76061 32981 03603 10174 20070 30182 40257 52016 91740 33310176 20130 30/// 58006
AAXX 04181 76122 32970 03611 10130 20011 38639 40310 52019 91750 33310132 21009 30/// 58006
AAXX 04181 76220 32958 00000 10076 20015 38229 40359 52001 91750 33310076 21064 30/// 59026
AAXX 04181 76225 32960 00202 10154 21020 38714 40264 52016 91735 33310154 20032 30/// 59009
AAXX 04181 76256 32980 03203 10250 20058 30199 40213 52009 91745 33310266 20159 30/// 59014
AAXX 04181 76258 32970 03403 10230 20071 30153 40199 50002 91750 33310232 20092 30/// 56000 59015
AAXX 04181 76305 32970 40402 10258 20072 30199 40207 52004 82014 91740333 10262 20180 30/// 56056 59010 82460
AAXX 04181 76323 32970 20201 10182 21028 38253 40327 52008 80002 91740333 10182 20040 30/// 59028 82268
AAXX 04181 76373 32670 30000 10155 21024 38272 40233 57010 81470 91750333 10163 21023 30/// 56909 58031 81627 82357
AAXX 04181 76382 32980 70701 10184 20094 38977 40257 52002 80006 91750333 10202 20064 30/// 56007 59045 87076
AAXX 04181 76390 32970 11805 10182 21013 38291 40251 52001 80004 91730333 10194 20040 30/// 56008 59036 81070
AAXX 04181 76393 32950 10401 10230 20078 39638 40227 57006 81030 91755333 10238 20070 30/// 56080 59098
AAXX 04181 76402 31957 00000 10246 20162 30147 40204 52002 70544 91745333 10246 20120 30/// 59004
AAXX 04181 76423 32680 40000 10162 20004 38213 40266 57011 81054 91750333 10170 20016 30/// 56099 59034 81357 83067
AAXX 04181 76458 32964 02602 10235 20175 30185 40189 57003 91745 33310268 20148 30/// 59004
AAXX 04181 76471 32980 00101 10166 21067 37748 40229 57005 91755 33310172 20029 30/// 59032
AAXX 04181 76491 32960 03601 10210 20095 39855 40262 57004 91750 33310216 20026 30/// 59106
AAXX 04181 76499 32960 01103 10266 20125 30208 40230 57007 91740 33310267 20058 30/// 59105
AAXX 04181 76519 32560 13401 10156 20033 38427 40291 57001 80002 91745333 10162 20030 30/// 56006 59018 81070
AAXX 04181 76525 32980 13004 10102 21053 37518 40234 52004 80001 91740333 10102 20050 30/// 56//5 59021 81080
AAXX 04181 76539 31962 01501 10130 20014 38217 40309 57012 70544 91745333 10155 21030 30/// 59042
AAXX 04181 76543 32975 01703 10245 20113 30227 40260 58016 91745 33310247 20126 31/// 59094
AAXX 04181 76548 32975 02002 10224 20138 30255 40265 58008 91745 33310228 20128 30/// 59087
AAXX 04181 76556 32970 11603 10264 20057 39168 40202 52004 80008 91435333 10266 20124 30/// 59013 81270
AAXX 04181 76571 32975 00000 10168 20032 38221 40268 56007 91748 33310172 20030 30/// 59028
AAXX 04181 76577 32970 12304 10151 20106 38092 40257 58005 80005 91740333 10157 20040 30/// 56005 59024
AAXX 04181 76581 32970 03003 10170 20086 39130 40283 57021 91750 33310180 20020 30/// 59089
AAXX 04181 76593 32370 30505 10234 20202 30263 40265 57018 81130 91750333 10246 20134 30/// 5611/ 59025 81820 82330 91006 91505
AAXX 04181 76612 32962 31001 10192 20046 38533 40242 58005 80001 91750333 10199 20070 30/// 56005 59024 83072
AAXX 04181 76625 32950 02901 10151 20039 38193 40242 56008 91740 33310151 20055 30/// 59028
AAXX 04181 76632 31550 62003 10134 20064 37665 40218 57001 70522 8340991745 333 10142 20042 30/// 56305 59032 83628 83170 98550
AAXX 04181 76634 31570 43204 10186 20061 37886 40263 57012 71011 8110491750 333 10192 20014 30/// 560/3 59045 81827 83077 99020
AAXX 04181 76644 32460 30202 10246 20119 30247 40259 57031 81181 91750333 10250 20105 30/// 56119 58023 81810
AAXX 04181 76654 31956 12302 10308 20163 30194 40198 52004 70544 8000191755 333 10308 20221 30/// 5600/ 58013 81070
AAXX 04181 76658 31560 31802 10299 20129 39678 40185 56013 70541 8120291748 333 10310 20173 30/// 56101 59003 81824 82070 9402298924
AAXX 04181 76662 32670 63401 10182 20081 38516 40238 57004 81104 91735333 10194 20056 30/// 56/0/ 59025 81833 85070
AAXX 04181 76665 31962 43401 10180 20068 38168 40238 57013 70300 8000691750 333 10190 20050 30/// 56005 59020
AAXX 04181 76675 31565 52902 10161 20011 37407 40204 57008 70544 8120491753 333 10167 21013 30/// 569/9 59023 81826 98465
AAXX 04181 76681 31950 20000 10172 20085 37818 40221 57013 70510 8203091745 333 10172 20020 30/// 58/// 82458
AAXX 04181 76683 32668 60901 10164 20080 37860 40275 56016 81137 91745333 10175 20012 30/// 56225 59029 81840 81360 84280 99021
AAXX 04181 76685 31550 43601 10180 20019 37909 40241 57006 70544 8110591750 333 10182 20030 30/// 56909 59021 81827 83277
AAXX 04181 76695 32960 30303 10233 20109 30242 40248 57020 83005 91748333 10238 20104 56//0 59030 83077 91006 91505
AAXX 04181 76698 32560 30401 10247 20165 30146 40258 57019 83200 91755333 10255 20120 30/// 56100 59010 83820
AAXX 04181 76743 31/58 50001 10227 20188 30239 40247 57016 70211 85//191750 333 10250 20187 30/// 56//0 59038 850//
AAXX 04181 76750 32560 73602 10250 20134 30243 40254 57018 84230 91750333 10258 20134 30/// 56110 59009 84820 83357
AAXX 04181 76762 32704 63303 10216 20171 38811 40214 58015 83024 91750333 10218 20130 30/// 56066 59028 83450 83060 91206
AAXX 04181 76773 31968 72301 10186 20098 38473 40233 57016 70544 8000691748 333 10188 20025 30/// 56009 59024 87268
AAXX 04181 76775 31970 40901 10199 20052 38576 40266 57017 70300 8000491730 333 10202 20042 30/// 56002 59027
AAXX 04181 76833 32970 03612 10266 20172 30187 40189 57012 91745 33310266 20210 30/// 59014 92001
AAXX 04181 76840 32950 10305 10266 20152 30125 40182 57008 80004 91745333 10280 20210 30/// 56006 59014 81070
AAXX 04181 76843 32565 10202 10227 20117 39561 40219 57019 81100 91730333 10239 20135 30/// 569// 59034 81830
AAXX 04181 76845 32960 00603 10172 20087 37978 40261 56017 91745 33310178 20028 30/// 59034
AAXX 04181 76848 32970 00502 10176 20018 38424 40185 58020 91755 33310176 20073 30/// 59026
AAXX 04181 76903 32580 42803 10320 20212 30032 40162 57012 84200 91740333 10332 20220 30/// 56600 58019 84833
AAXX 04181 76160 32962 00201 10224 20029 39970 40219 52007 91730 33310224 20105 30/// 59010
AAXX 04181 76243 32974 03604 10144 20044 39963 40268 52020 91730 33310156 20028 30/// 59072
AAXX 04181 76253 32982 00505 10244 20084 30138 40228 51009 91755 33310265 20120 30/// 59003 92002
AAXX 04181 76311 32980 00000 10246 20101 39909 40191 52003 91745 33310251 20101 30/// 59012
AAXX 04181 76405 32980 00000 10260 20144 30194 40216 52009 91750 33310262 20138 30/// 59002
AAXX 04181 76412 31966 02201 10252 20122 30161 40205 52017 70544 91745333 10256 20130 30/// 58012
AAXX 04181 76585 32680 10000 10191 20139 30086 40247 58014 81100 91740333 10210 20094 30/// 562// 59096 81833
AAXX 04181 76656 32975 43601 10205 20070 38561 40232 58003 80008 91750333 10212 20065 30/// 56005 59024 84280
AAXX 04181 76855 32580 62201 10310 20224 30099 40149 50003 81238 91745333 10318 20198 30/// 56999 58001 81820 82359 92001
AAXX 04181 76055 32980 03312 10222 21037 30217 40236 52014 91740 333 10292 20136 30/// 58008
AAXX 04181 76061 32981 03603 10174 20070 30182 40257 52016 91740 333 10176 20130 30/// 58006
AAXX 04181 76122 32970 03611 10130 20011 38639 40310 52019 91750 333 10132 21009 30/// 58006
AAXX 04181 76220 32958 00000 10076 20015 38229 40359 52001 91750 333 10076 21064 30/// 59026
AAXX 04181 76225 32960 00202 10154 21020 38714 40264 52016 91735 333 10154 20032 30/// 59009
AAXX 04181 76256 32980 03203 10250 20058 30199 40213 52009 91745 333 10266 20159 30/// 59014
AAXX 04181 76258 32970 03403 10230 20071 30153 40199 50002 91750 333 10232 20092 30/// 56000 59015
AAXX 04181 76305 32970 40402 10258 20072 30199 40207 52004 82014 91740 333 10262 20180 30/// 56056 59010 82460
AAXX 04181 76323 32970 20201 10182 21028 38253 40327 52008 80002 91740 333 10182 20040 30/// 59028 82268
AAXX 04181 76373 32670 30000 10155 21024 38272 40233 57010 81470 91750 333 10163 21023 30/// 56909 58031 81627 82357
AAXX 04181 76382 32980 70701 10184 20094 38977 40257 52002 80006 91750 333 10202 20064 30/// 56007 59045 87076
AAXX 04181 76390 32970 11805 10182 21013 38291 40251 52001 80004 91730 333 10194 20040 30/// 56008 59036 81070
AAXX 04181 76393 32950 10401 10230 20078 39638 40227 57006 81030 91755 333 10238 20070 30/// 56080 59098
AAXX 04181 76402 31957 00000 10246 20162 30147 40204 52002 70544 91745 333 10246 20120 30/// 59004
AAXX 04181 76423 32680 40000 10162 20004 38213 40266 57011 81054 91750 333 10170 20016 30/// 56099 59034 81357 83067
AAXX 04181 76458 32964 02602 10235 20175 30185 40189 57003 91745 333 10268 20148 30/// 59004
AAXX 04181 76471 32980 00101 10166 21067 37748 40229 57005 91755 333 10172 20029 30/// 59032
AAXX 04181 76491 32960 03601 10210 20095 39855 40262 57004 91750 333 10216 20026 30/// 59106
AAXX 04181 76499 32960 01103 10266 20125 30208 40230 57007 91740 333 10267 20058 30/// 59105
AAXX 04181 76519 32560 13401 10156 20033 38427 40291 57001 80002 91745 333 10162 20030 30/// 56006 59018 81070
AAXX 04181 76525 32980 13004 10102 21053 37518 40234 52004 80001 91740 333 10102 20050 30/// 56//5 59021 81080
AAXX 04181 76539 31962 01501 10130 20014 38217 40309 57012 70544 91745 333 10155 21030 30/// 59042
AAXX 04181 76543 32975 01703 10245 20113 30227 40260 58016 91745 333 10247 20126 31/// 59094
AAXX 04181 76548 32975 02002 10224 20138 30255 40265 58008 91745 333 10228 20128 30/// 59087
AAXX 04181 76556 32970 11603 10264 20057 39168 40202 52004 80008 91435 333 10266 20124 30/// 59013 81270
AAXX 04181 76571 32975 00000 10168 20032 38221 40268 56007 91748 333 10172 20030 30/// 59028
AAXX 04181 76577 32970 12304 10151 20106 38092 40257 58005 80005 91740 333 10157 20040 30/// 56005 59024
AAXX 04181 76581 32970 03003 10170 20086 39130 40283 57021 91750 333 10180 20020 30/// 59089
AAXX 04181 76593 32370 30505 10234 20202 30263 40265 57018 81130 91750 333 10246 20134 30/// 5611/ 59025 81820 82330 91006 91505
AAXX 04181 76612 32962 31001 10192 20046 38533 40242 58005 80001 91750 333 10199 20070 30/// 56005 59024 83072
AAXX 04181 76625 32950 02901 10151 20039 38193 40242 56008 91740 333 10151 20055 30/// 59028
AAXX 04181 76632 31550 62003 10134 20064 37665 40218 57001 70522 83409 91745 333 10142 20042 30/// 56305 59032 83628 83170 98550
AAXX 04181 76634 31570 43204 10186 20061 37886 40263 57012 71011 81104 91750 333 10192 20014 30/// 560/3 59045 81827 83077 99020
AAXX 04181 76644 32460 30202 10246 20119 30247 40259 57031 81181 91750 333 10250 20105 30/// 56119 58023 81810
AAXX 04181 76654 31956 12302 10308 20163 30194 40198 52004 70544 80001 91755 333 10308 20221 30/// 5600/ 58013 81070
AAXX 04181 76658 31560 31802 10299 20129 39678 40185 56013 70541 81202 91748 333 10310 20173 30/// 56101 59003 81824 82070 94022 98924
AAXX 04181 76662 32670 63401 10182 20081 38516 40238 57004 81104 91735 333 10194 20056 30/// 56/0/ 59025 81833 85070
AAXX 04181 76665 31962 43401 10180 20068 38168 40238 57013 70300 80006 91750 333 10190 20050 30/// 56005 59020
AAXX 04181 76675 31565 52902 10161 20011 37407 40204 57008 70544 81204 91753 333 10167 21013 30/// 569/9 59023 81826 98465
AAXX 04181 76681 31950 20000 10172 20085 37818 40221 57013 70510 82030 91745 333 10172 20020 30/// 58/// 82458
AAXX 04181 76683 32668 60901 10164 20080 37860 40275 56016 81137 91745 333 10175 20012 30/// 56225 59029 81840 81360 84280 99021
AAXX 04181 76685 31550 43601 10180 20019 37909 40241 57006 70544 81105 91750 333 10182 20030 30/// 56909 59021 81827 83277
AAXX 04181 76695 32960 30303 10233 20109 30242 40248 57020 83005 91748 333 10238 20104 56//0 59030 83077 91006 91505
AAXX 04181 76698 32560 30401 10247 20165 30146 40258 57019 83200 91755 333 10255 20120 30/// 56100 59010 83820
AAXX 04181 76743 31/58 50001 10227 20188 30239 40247 57016 70211 85//1 91750 333 10250 20187 30/// 56//0 59038 850//
AAXX 04181 76750 32560 73602 10250 20134 30243 40254 57018 84230 91750 333 10258 20134 30/// 56110 59009 84820 83357
AAXX 04181 76762 32704 63303 10216 20171 38811 40214 58015 83024 91750 333 10218 20130 30/// 56066 59028 83450 83060 91206
AAXX 04181 76773 31968 72301 10186 20098 38473 40233 57016 70544 80006 91748 333 10188 20025 30/// 56009 59024 87268
AAXX 04181 76775 31970 40901 10199 20052 38576 40266 57017 70300 80004 91730 333 10202 20042 30/// 56002 59027
AAXX 04181 76833 32970 03612 10266 20172 30187 40189 57012 91745 333 10266 20210 30/// 59014 92001
AAXX 04181 76840 32950 10305 10266 20152 30125 40182 57008 80004 91745 333 10280 20210 30/// 56006 59014 81070
AAXX 04181 76843 32565 10202 10227 20117 39561 40219 57019 81100 91730 333 10239 20135 30/// 569// 59034 81830
AAXX 04181 76845 32960 00603 10172 20087 37978 40261 56017 91745 333 10178 20028 30/// 59034
AAXX 04181 76848 32970 00502 10176 20018 38424 40185 58020 91755 333 10176 20073 30/// 59026
AAXX 04181 76903 32580 42803 10320 20212 30032 40162 57012 84200 91740 333 10332 20220 30/// 56600 58019 84833
AAXX 04181 76160 32962 00201 10224 20029 39970 40219 52007 91730 333 10224 20105 30/// 59010
AAXX 04181 76243 32974 03604 10144 20044 39963 40268 52020 91730 333 10156 20028 30/// 59072
AAXX 04181 76253 32982 00505 10244 20084 30138 40228 51009 91755 333 10265 20120 30/// 59003 92002
AAXX 04181 76311 32980 00000 10246 20101 39909 40191 52003 91745 333 10251 20101 30/// 59012
AAXX 04181 76405 32980 00000 10260 20144 30194 40216 52009 91750 333 10262 20138 30/// 59002
AAXX 04181 76412 31966 02201 10252 20122 30161 40205 52017 70544 91745 333 10256 20130 30/// 58012
AAXX 04181 76585 32680 10000 10191 20139 30086 40247 58014 81100 91740 333 10210 20094 30/// 562// 59096 81833
AAXX 04181 76656 32975 43601 10205 20070 38561 40232 58003 80008 91750 333 10212 20065 30/// 56005 59024 84280
AAXX 04181 76855 32580 62201 10310 20224 30099 40149 50003 81238 91745 333 10318 20198 30/// 56999 58001 81820 82359 92001
AAXX 04184 78958 11462 71010 10266 20237 30121 40131 60021 72582 874// 333 10289 20220 58001 82816 87438
AAXX 04184 48310 32560 31402 10233 20202 39674 40131 57003 83500 333 58001
AAXX 04184 48325 31956 00000 10202 20191 39894 40142 52002 71000 333 58013
AAXX 04184 48329 31950 00000 10223 20208 39788 40130 52001 71000 333 58010
AAXX 04184 48352 NIL
AAXX 04184 48357 32962 20000 10180 20130 30004 40179 57003 80001 333 58031
AAXX 04184 48380 31556 80000 10265 20217 30039 40133 56004 71022 84557 333 58011
AAXX 04184 48383 31957 00601 10175 20130 30007 40172 56001 71010 333 58029
AAXX 04184 48403 31557 60905 10237 20186 39940 40153 52007 71011 82536 333 58025
AAXX 04184 48405 32960 30505 10196 20142 39987 40154 57003 80005 333 58024
AAXX 04184 48420 11940 80000 10256 20244 30125 40130 57003 60043 71062 86056 333 58003 70036
AAXX 04184 48421 31556 60000 10245 20215 30023 40138 57001 71022 82535 333 58008
AAXX 04184 48425 01550 80000 10256 20235 30129 40139 52004 69903 76062 84556 333 58010 69906 79999
AAXX 04184 48426 31557 80000 10257 20227 30119 40132 58006 71022 83576 333 58006 70003
AAXX 04184 48429 11558 71003 10262 20225 30131 40138 57001 60063 71096 82876 333 58008 70055
AAXX 04184 48430 31558 60000 10267 20226 30126 40133 56008 71022 82556 333 58003
AAXX 04184 48450 31550 40000 10257 20216 30110 40143 52007 71011 81505 333 58015
AAXX 04184 48459 NIL
AAXX 04184 48465 32561 62102 10262 20233 30127 40131 57005 82546 333 58004
AAXX 04184 48550 31558 41206 10267 20230 30123 40130 57002 71011 82145 333 58003
AAXX 04184 48552 11458 50000 10233 20227 30127 40133 57003 60033 71061 81206 333 58006 70033
AAXX 04184 48566 32960 20107 10259 20223 30107 40115 57004 80001 333 58006
AAXX 04184 48568 32460 60703 10266 20228 30121 40128 57002 83836 333 58003
AAXX 04184 48300 31458 50000 10218 20206 39822 40138 52004 71011 85606 333 58010
AAXX 04184 48327 32960 00000 10235 20196 39789 40147 52001 333 58020
AAXX 04184 48331 NIL
AAXX 04184 48353 31650 80000 10230 20164 39855 40147 57002 71022 82536 333 58016
AAXX 04184 48356 32960 01402 10175 20128 39973 40176 56005 333 58026
AAXX 04184 48375 32560 30000 10250 20217 39895 40121 57002 83500 333 58005
AAXX 04184 48378 31556 31604 10249 20208 30078 40131 56005 71021 81545 333 58006
AAXX 04184 48381 32960 01005 10220 20162 39935 40156 52003 333 58026
AAXX 04184 48407 31559 70206 10220 20143 39991 40134 57014 70522 81136 333 58008
AAXX 04184 48431 01958 40000 10248 20197 39927 40142 57005 69903 71061 82035 333 58017 69907 79999
AAXX 04184 48456 NIL
AAXX 04184 48480 NIL
AAXX 04184 48500 31558 81405 10243 20234 30126 40133 57006 71022 8557/ 333 58005 70005
AAXX 04184 48551 31550 20000 10236 20227 30119 40127 57001 71000 81105 333 59003
AAXX 04184 48565 32560 61007 10267 20219 30101 40111 57002 81156 333 59003
AAXX 04184 48569 31558 40000 10238 20204 30090 40131 57000 71011 82246 333 58001
AAXX 04184 48583 NIL
AAXX 04184 78951 12572 30912 10290 20211 30127 40142 60001 83200 333 10297 20241 58002 70001 83823
AAXX 04181 01367 16/// /0701 11042 21060 39350 49790 58006 6//// 333 10015 91109
AAXX 04181 01492 11789 12402 10006 21046 39680 49796 50001 60002 70120 81570
AAXX 04181 01028 11680 40915 11017 21037 39963 49983 53003 69902 70187 84800
AAXX 04181 01049 16/// /2502 11055 21098 39931 49935 58006 60002 333 11014 91111
AAXX 04181 01160 41889 80711 10020 21054 39798 49815 56012 70221 8801/
AAXX 04181 01397 16/// /1901 11032 21046 39329 49760 52006 60002 333 11001 91105
BBXX CZ9742 04184 99506 70969 46/// /3103 11008 21062 4//// 5//// 7//// 8//// 22200 0//// 2////
AAXX 04184 81401 06/// /0509 10302 20229 30100 40106 60001 333 60007 59001 555 60005
AAXX 04184 81408 06/// /0404 10281 20245 30096 40104 60021 333 60027 59001 555 60005
BBXX VXKF 04184 99470 70596 46/// /3344 11025 21036 49913 56063 7//// 8//// 22253 0//// 2////
BBXX 3FZK3 04184 99496 71272 46/// /1725 10093 20094 40106 55004 7//// 8//// 22273 0//// 2////
BBXX CGHL 04184 99476 70527 46/// /2209 10090 20089 49876 56104 7//// 8//// 22200 0//// 2////
BBXX VCSZ 04184 99501 70602 46/// /0217 11070 21078 49990 56035 7//// 8//// 22253 0//// 2////
BBXX CG2960 04184 99429 70824 46/// /1802 11006 21070 40119 58040 7//// 8//// 22200 0//// 2////
BBXX C6SI6 04184 99527 11769 46/// /2514 11023 21100 40015 56020 7//// 8//// 22223 0//// 2////
BBXX CGDX 04184 99468 70712 46/// /2416 11166 21218 40158 56032 7//// 8//// 22200 0//// 2////
BBXX VAAP 04184 99446 70627 46/// /3216 11058 21096 40019 56037 7//// 8//// 22223 0//// 2////
BBXX VOKJ 04184 99455 70735 46/// /1705 11125 21182 40152 58046 7//// 8//// 22200 0//// 2////
BBXX VOPP 04184 99456 70735 46/// /2006 11133 21184 4//// 5//// 7//// 8//// 22200 0//// 2////
BBXX CGDG 04184 99447 70636 46/// /3122 11073 21097 40049 56014 7//// 8//// 22200 0//// 2////
BBXX VRYO3 04184 99456 70735 46/// /1708 11131 21188 40151 58045 7//// 8//// 22200 0//// 2////
BBXX CGBY 04184 99487 71235 46/// /0904 10090 20083 40161 51013 7//// 8//// 22200 0//// 2////
BBXX VOKF 04184 99490 70669 46/// /2520 11113 21144 40084 57022 7//// 8//// 22200 0//// 2////
BBXX VCLM 04184 99468 70712 46/// /2409 11168 21209 40155 56031 7//// 8//// 22200 0//// 2////
BBXX VCWL 04184 99468 70712 46/// /2403 11170 21216 40163 56030 7//// 8//// 22200 0//// 2////
BBXX CGCC 04184 99463 70725 46/// /2210 11155 21191 40161 56040 7//// 8//// 22200 0//// 2////
BBXX CGSB 04184 99479 70695 46/// /2126 11157 21187 40126 56037 7//// 8//// 22233 00005 2////
BBXX CGBN 04184 99447 70636 46/// /3124 11068 21104 40048 56013 7//// 8//// 22200 0//// 2////
BBXX CGDR 04184 99543 71303 46/// /1908 10102 20078 49946 51020 7//// 8//// 22200 00167 2////
BBXX CGJV 04184 99462 70636 46/// /3128 11077 21103 40049 58025 7//// 8//// 22233 00005 2////
AAXX 04184 48302 NIL
AAXX 04184 48304 NIL
AAXX 04184 48334 31558 60000 10214 20202 39763 40130 57012 71022 83255 333 58016
AAXX 04184 48360 31958 50702 10228 20178 39891 40154 57005 71022 80006 333 58016
AAXX 04184 48372 31556 60000 10257 20239 30073 40131 57004 71022 82536 333 58012
AAXX 04184 48373 31530 60000 10250 20220 30067 40130 57002 71011 82536 333 58009
AAXX 04184 48386 31940 00000 10248 20185 30090 40134 57001 71000 333 58010
AAXX 04184 48387 31930 00000 10175 20168 39179 40149 57004 71000 333 58021
AAXX 04184 48408 31958 30204 10211 20157 39993 40145 57007 71011 83031 333 58013
AAXX 04184 48415 NIL
AAXX 04184 48433 NIL
AAXX 04184 48437 NIL
AAXX 04184 48440 31957 30000 10232 20203 30085 40135 57002 71000 80005 333 58008
AAXX 04184 48451 32560 80000 10254 20236 30126 40137 57004 8452/ 333 58008
AAXX 04184 48454 NIL
AAXX 04184 48457 NIL
AAXX 04184 48463 NIL
AAXX 04184 48464 NIL
AAXX 04184 48479 NIL
AAXX 04184 48520 31958 40000 10228 20216 30120 40135 56001 71011 80005 333 58020
AAXX 04184 48554 31458 60000 10246 20237 30126 40130 57005 71022 81146 333 58004 70027
AAXX 04184 48563 NIL
AAXX 04184 48571 32560 30804 10255 20222 30114 40126 57004 82201 333 58000
AAXX 04184 78958 11462 71010 10266 20237 30121 40131 60021 72582 874// 333 10289 20220 58001 82816 87438
AAXX 04184 48307 01550 50000 10197 20187 39760 40147 52009 69913 72161 82256 333 58017 69916 70001
AAXX 04184 48324 31550 60000 10239 20224 39914 40135 56001 71022 83535 333 58010 79999
AAXX 04184 48333 NIL
AAXX 04184 48350 32660 71304 10225 20171 39847 40150 57002 86506 333 58019
AAXX 04184 48355 32960 00000 10170 20134 39947 40174 57009 333 58027
AAXX 04184 48358 31959 20000 10175 20140 30002 40183 51001 71000 80005 333 58015
AAXX 04184 48384 NIL
AAXX 04184 48401 31958 20000 10252 20213 30036 40144 52011 71000 80005 333 58010
AAXX 04184 48404 NIL
AAXX 04184 48409 31958 20104 10215 20166 39999 40150 52002 71000 80005 333 58021
AAXX 04184 48419 31557 80000 10260 20231 30120 40129 57009 71022 83845 333 58003 70028
AAXX 04184 48427 NIL
AAXX 04184 48435 31556 60000 10240 20185 39700 40139 57001 71022 82546 333 58011 70001
AAXX 04184 48453 11559 60000 10260 20237 30127 40130 57007 69993 71022 81136 333 58006 70009
AAXX 04184 48458 32560 80000 10250 20232 30068 40149 57005 884// 333 58006
AAXX 04184 48474 31956 30000 10235 20218 30010 40135 57004 71010 82035 333 58005
AAXX 04184 48481 11558 50000 10239 20230 30107 40136 57006 60043 71061 82531 333 58011 70040
AAXX 04184 48555 31550 20000 10250 20235 30108 40151 55000 71000 81101 333 58004
AAXX 04184 48556 NIL
AAXX 04184 48557 31558 40000 10230 20222 30080 40116 57010 71011 82105 333 59003
AAXX 04184 48560 31557 50000 10260 20243 30118 40123 56016 71011 82245 333 59001
AAXX 04184 48574 NIL
AAXX 04184 48581 NIL
AAXX 04184 81401 06/// /0509 10302 20229 30100 40106 60001 333 60007 59001 555 60005
AAXX 04184 81408 06/// /0404 10281 20245 30096 40104 60021 333 60027 59001 555 60005
AAXX 04184 78905 12478 41210 10275 20207 30128 40151 60001 84200 333 10300 20223 59004 84818
BBXX CG2958 04184 99509 71279 46/// /1810 10109 20092 40057 51011 7//// 8//// 22261 0//// 2////
BBXX CGDT 04184 99463 70725 46/// /2210 11150 21183 40160 56041 7//// 8//// 22200 0//// 2////
BBXX CGTF 04184 99476 70527 46/// /1308 10086 20085 49876 56104 7//// 8//// 22200 0//// 2////
BBXX VOFG 04184 99456 70614 46/// /3320 11025 21062 49988 55015 7//// 8//// 22200 0//// 2////
BBXX VOLG 04184 99457 70599 46/// /3029 11028 21030 49934 53006 7//// 8//// 22253 0//// 2////
BBXX VCBW 04184 99468 70712 46/// /2608 11166 21206 40158 56030 7//// 8//// 22200 0//// 2////
BBXX VAAZ 04184 99/// ///// 46/// /0801 10058 20055 49855 56108 7//// 8//// 22200 0//// 2////
BBXX CGBR 04184 99534 71292 46/// /1117 10096 20095 49977 53009 7//// 8//// 22200 00071 2////
AAXX 04184 78862 11478 70814 10263 20213 30129 40152 69901 71581 87800 333 10282 20217 59003 81818 86636
AAXX 04184 TAF TKPN 041000Z 0412/0512 09010KT 9999 SCT020 SCT040 TEMPO 0416/0512 SHRA PROB30 TEMPO 0500/0510 00000KT
AAXX 04184 TAF TQPF 041000Z 0412/0512 08010KT 9999 SCT020 SCT040 TEMPO 0414/0512 SHRA PROB30 TEMPO 0500/0510 00000KT
AAXX 04184 TAF TUPJ 041000Z 0412/0512 05012KT 9999 SCT018 SCT035 TEMPO 0412/0512 SHRA PROB30 TEMPO 0412/0422 VRB02KT 5000 +SHRA FEW015CB BKN018
AAXX 04184 032200Z 0400/0424 09014KT 9999 SCT022 SCT038 BKN270 TEMPO 0400/0424 4000 SHRA BKN013 BKN036 BKN260
AAXX 04184 BKN038 SCT270 TEMPO 0412/0512 SHRA BKN015 PROB40 TEMPO 0418/0512 5000 SHRA BKN014 BKN036 PROB30 0420/0512 4000 TSRA FEW012CB
AAXX 04184 918 4000 TSRA FEW012CB
AAXX 04184 N015 BKN036 PROB40 TEMPO 0704/0724 3000 +TSRA SCT011CB BKN012 BECMG 0712/0714 14008KT
AAXX 04184 21/2712 07017G28KT 5000 SHRA BKN015 BKN036 PROB TEMPO 2700/2712 4000 TSRA FEW013CB
AAXX 04184 PROB30 TEMPO 0800/0806 4000 TSRA FEW012CB PROB40 TEMPO 0800/0824 2000 +SHRA/TSRA SCT010CB BKN012 BKN250
AAXX 04184 17600 12570 10306 10119 20076 30198 40208 50005 60002 81100 333 10186 20113 81820
AAXX 04184 17601 12/80 /3502 10120 20095 30173 40205 51006 60002 91750 333 10179
AAXX 04184 17607 NIL
AAXX 04184 17609 12670 33103 10104 20085 30206 40210 51007 60002 83800 333 10182 20104 83834
AAXX 04181 11659 02780 72907 10026 20001 39520 40168 52016 60032 87500 333 10057 60005 87650 91114
AAXX 04184 60150 32960 20000 10136 20057 39643 40303 52009 80002 333 10183 82070
AAXX 04184 60155 32958 432// 10147 20126 40292 56001 80002 333 10167 84070
AAXX 04184 60096 NIL
AAXX 04184 60101 NIL
AAXX 04184 60115 NIL
AAXX 04184 60135 NIL
AAXX 04184 60156 NIL
AAXX 04184 60230 NIL
AAXX 04184 60252 NIL
AAXX 04184 60105 32956 03210 10141 20122 40301 58001 333 10165
AAXX 04184 60107 32565 12604 10117 20096 40302 58007 81200 333 10161 81820 95300
AAXX 04184 60190 32972 32202 10161 20065 40278 51001 80002 333 10197 83071
AAXX 04184 60191 32970 30000 10160 20058 40286 54000 80002 333 10215 83073
AAXX 04184 60210 32970 32202 10155 21087 39108 48626 53004 80002 333 10201 83070
AAXX 04184 60220 32558 60212 10164 20096 40292 55003 82502 333 10174 82626 84073
AAXX 04184 60060 NIL
AAXX 04184 60106 NIL
AAXX 04184 60127 NIL
AAXX 04184 60141 NIL
AAXX 04184 60185 NIL
AAXX 04184 60195 NIL
AAXX 04184 60265 NIL
AAXX 04184 60318 NIL
AAXX 04184 64500 32460 42408 10275 20239 30084 40097 82502 333 10286 59002 82610 83073
AAXX 04181 45007 11556 70305 10098 20032 30249 40259 50001 69931 70262 8453/ 333 58020 81622 83628 85362
AAXX 04181 45007 11556 70305 10098 20032 30249 40259 50001 69931 70262 8453/ 333 58020 81622 83628 85362
AAXX 04181 45032 36/// /3504 10081 20021 30244 40262 52001
AAXX 04181 45035 36/// /0304 10092 20033 30218 40262 57001
AAXX 04181 45039 36/// /0003 10089 20043 30239 40255 52001
AAXX 04181 45044 36/// /0007 10091 20058 30149 40247 57001
AAXX 04181 10506 01482 82407 10035 20009 39582 40172 58022 69902 72582 86802 333 10038 20025 31001 55300 20000 30000 69907 84811 84630 87075
AAXX 04181 45032 36/// /3504 10081 20021 30244 40262 52001
AAXX 04181 45035 36/// /0304 10092 20033 30218 40262 57001
AAXX 04181 45039 36/// /0003 10089 20043 30239 40255 52001
AAXX 04181 45044 36/// /0007 10091 20058 30149 40247 57001
AAXX 04184 78397 1 CHECK TEXT NEW ENDING ADDED KATLYTAA
AAXX 04184 68386 36/// /3302 10273 20184 39694 48632 52011 333 10341 20270 91004 555 91023
BBXX 41010 04181 99289 70785 46/// /3504 10140 40270 58020 91750 22200 00232 10904 20401 300// 40904 70021 333 91206 555 11042 22043
BBXX 41009 04181 99285 70802 46/// /3205 10133 20062 40280 58023 91750 22200 00219 10803 20401 300// 40802 70013 333 91207 555 11049 22050
BBXX 42057 04181 99168 70815 46/// /0211 10241 20165 40206 58017 91750 22200 00273 10806 20806 70031 333 91212 555 11105 22110 31737 40113 61749 020103 013102 014097 021098 025095 027096 80311 91748
BBXX 41046 04181 99238 70683 46/// /0208 10213 20126 40200 58022 91750 22200 00252 11307 20603 300// 41307 70037 333 91210 555 11085 22089 31701 43611 61749 019082 017081 014081 015087 004084 007084 80110 91713
BBXX 44011 04181 99411 70666 46/// /2809 11006 21054 40130 55000 91750 22200 00086 10806 20806 3//// 41202 70029 333 91212 555 11098 22102 31743 40912 61749 284094 294091 301088 301092 296091 303092
AAXX 04184 78397 1 CHECK TEXT NEW ENDING ADDED KATLYTAA
AAXX 04184 48698 01566 60103 10251 20242 30101 40119 60001 71022 81101 333 60007 81820 86081
AAXX 04184 48698 01566 60103 10251 20242 30101 40119 60001 71022 81101 333 60007 81820 86081
AAXX 04181 89061 179// 03302 10022 20011 39872 49879 57005 69933 73041 333 91002 91102
AAXX 04184 78767 11458 83105 10227 20198 30180 40182 57020 60061 76265 87720 333 10239 20189 32/// 56700 58010 87610
BBXX A8GH5 04183 99137 50349 416// 50515 10285 20199 40140 56015 70222 84462 22254 04270 20301 305// 40603 80225
AAXX 04184 63980 12480 62502 10250 20213 40120 60112 82832 333 10284 58019 82815 84358 85075 943// 91120
AAXX 04181 01218 11787 60000 10001 21006 39747 49768 58024 60142 70182 82288
AAXX 04181 01359 11689 12407 11026 21075 38893 49793 57012 60002 70183 81200 333 10008 91116
AAXX 04181 01367 11785 50701 11042 21060 39350 49790 58006 60002 70122 85010 333 10015 91109
AAXX 04181 01062 11580 71210 11026 21044 30071 40084 54000 69902 70282 873//
AAXX 04184 78767 11458 83105 10227 20198 30180 40182 57020 60061 76265 87720 333 10239 20189 32/// 56700 58010 87610
AAXX 04181 89061 179// 03302 10022 20011 39872 49879 57005 69933 73041 333 91002 91102
AAXX 04184 78767 11458 83105 10227 20198 30180 40182 57020 60061 76265 87720 333 10239 20189 32/// 56700 58010 87610
AAXX 04184 41170 42968 23109 10165 20092 30182 40195 80001 333 10217 58009 82074
AAXX 04184 61968 16/// /3104 1//// 20066 4//// 60002 333 1//// 58008 90710 91111 555 60005
AAXX 04184 61976 16/// /1112 10276 20202 40128 60002 333 10324 58017 90710 91119 555 60005
AAXX 04184 61980 12560 21115 10255 20201 40144 60002 81802 333 10309 58016 81823 90710 91122 924/7 555 60005
AAXX 04184 67005 14/// /0602 10247 20233 40103 60402 700// 333 10315 58008 90710 91105 555 69905
BBXX 41041 04181 99142 70460 46/// /0809 10261 20195 40144 56020 91750 22200 00262 11006 20704 3//// 41004 70029 333 91211 555 11097 22104 31746 40911 61749 079092 079092 075086 078090 077089 077087 80810 91746
AAXX 04184 91503 01470 80000 10251 20247 40067 53008 60231 76086 8392/ 333 56990 60227 82815 81916 88459
AAXX 04184 91517 01460 81803 10245 20238 40066 57001 60241 76186 8492/ 333 56999 60217 81815 81918 83630 88460
AAXX 04184 16008 NIL
AAXX 04184 16084 11935 21702 11008 21025 30028 40203 52022 60002 71041 80001 333 10024
AAXX 04184 16088 11906 00000 10002 21007 30081 40203 52024 60002 74621 333 10028
AAXX 04184 16110 11698 70605 10080 20058 30181 40185 53014 69902 70352 83530 333 10100 83635 84358 555 0////
AAXX 04184 16134 11960 01818 11046 21072 37792 48484 53006 69922 72874 333 10002 44997
AAXX 04184 16153 12998 00408 10102 21003 39910 40176 52029 60002 333 10140 555 0////
AAXX 04184 16158 11560 22104 10062 20050 30171 40178 52027 60052 70165 82100 333 10096 55300 82825
AAXX 04184 16206 11560 83509 10106 20084 30152 40161 53012 69902 78252 8654/ 333 10134 83630 83640
AAXX 04184 16219 41/00 90316 11006 21014 38097 48486 53001 6///2 74944 333 10012 41003 89/00 92831 95090 95190
AAXX 04184 16252 12865 52502 10074 20027 39223 42783 53003 60002 83038 333 10110 83358
AAXX 04184 16280 11597 82307 10116 20113 39946 40168 57014 60032 76162 885// 333 10140 88620 555 0////
AAXX 04184 16310 11897 60506 10118 20110 39950 40172 56008 60012 70362 86050 333 10162 86358 555 0////
AAXX 04184 16320 11457 51607 10110 20089 30164 40176 55002 60002 71011 84830 333 10154 81810 83625 555 0////
AAXX 04184 16325 12597 30208 10128 20114 30152 40166 56006 60002 83500 333 10150 83630 98065 555 0////
AAXX 04184 16360 12597 41907 10128 20110 30039 40174 56009 60002 84200 333 10144 84825 555 0////
AAXX 04184 16400 12498 22806 10124 20081 39914 40205 56004 60002 82270 333 10156 55300 82817 555 0216/
AAXX 04184 16420 12597 60000 10140 20094 30125 40190 56007 60002 84860 333 10172 82825 84630 85358 555 0////
AAXX 04184 16429 11562 82908 10130 20107 30197 40209 57003 69922 76062 8783/ 333 10150 84820 83625
AAXX 04184 16470 12460 63018 10140 20112 39988 40225 56002 60002 86800 333 10140 55300 22/// 84816 84646 95010
AAXX 04184 16480 11497 52704 10132 20107 30128 40190 50001 60022 70261 85800 333 10168 83812 84615 555 0////
AAXX 04184 16522 12497 53227 10122 20069 39965 40210 53005 60002 85200 333 10144 55300 85818 555 0////
AAXX 04184 16539 12497 43330 10130 20100 30101 40216 55001 60002 84200 333 10150 84818 555 0////
AAXX 04184 16550 12598 33012 10142 20050 39982 40160 57013 60002 83200 333 10182 83830 555 0////
AAXX 04184 48601 11559 70204 10269 20232 30110 40114 60001 70522 82532 333 82625 84364 87077
AAXX 04184 48615 11564 71005 10253 20226 30125 40131 60001 70522 83542 333 83620 87075
AAXX 04184 48620 11259 73501 10245 20237 30105 40114 6///1 71092 82552 333 81705 85364 85078
AAXX 04184 48647 11556 70101 10265 20232 30086 40111 60001 70522 81531 333 81626 87078
AAXX 04184 48650 11560 60308 10257 20213 30093 40112 60001 70522 81542 333 81630 85078
AAXX 04184 48657 11562 70203 10237 20228 30111 40129 60001 70522 82531 333 82625 86078
AAXX 04184 48665 12564 70405 10241 20226 30112 40122 60001 81542 333 81628 84364 86078
AAXX 04184 96413 11458 71404 10242 20237 30082 40109 60091 79596 8492/ 333 81915 84620 87465
AAXX 04184 96421 11156 73201 10249 20244 30068 40104 69901 71022 85531 333 82703 83618 86365
AAXX 04184 96441 11468 70000 10236 20231 30070 40097 69921 70362 82531 333 82614 84365 85080
AAXX 04184 96449 11465 71505 10240 20236 30077 40096 60031 70262 8457/ 333 84614 87365
AAXX 04184 96465 12465 71902 10266 20249 30059 40092 60001 82872 333 82812 85364 87079
AAXX 04184 96471 12464 70702 10244 20228 30093 40096 69901 84848 333 82814 83640 87277
AAXX 04184 96481 12462 70501 10244 20229 30078 40097 60001 83842 333 81817 83364 86078
AAXX 04184 96491 NIL
AAXX 04184 91503 01470 80000 10251 20247 40067 53008 60231 76086 8392/ 333 56990 60227 82815 81916 88459
AAXX 04184 91517 01460 81803 10245 20238 40066 57001 60241 76186 8492/ 333 56999 60217 81815 81918 83630 88460
AAXX 04184 85836 12970 72506 10256 20096 40186 57018 60001 870/4 333 56067 87070
AAXX 04184 85041 32570 73607 10296 20244 39836 40101 57024 86201 333 56806 59003 86820 85070
AAXX 04184 85140 32470 33203 10334 20246 39916 40123 57019 81130 333 56770 58016 81817 83358
AAXX 04184 85141 32584 43304 10330 20281 39882 40110 57027 81130 333 56770 58005 81820 84357
AAXX 04184 85151 NIL
AAXX 04184 85152 32584 13405 10327 20248 39872 40104 52018 81100 333 56700 58004 81820
AAXX 04184 85201 31465 31014 10136 20046 36303 57016 71510 83300 333 56200 58003 82817 81920
AAXX 04184 85230 NIL
AAXX 04184 85242 32484 50509 10174 20026 36564 57016 85200 333 56200 58002 85817
BBXX 51101 04181 99243 71621 46/// /0705 10209 20186 40236 53011 91750 22200 00236 11510 20401 333// 41510 70052 333 91207 555 11055 22057 31713 41110 61749 076053 082054 108049 103058 080055 085061
BBXX 46061 04181 99602 71468 46/// /3308 11011 49780 55000 91750 22200 00046 11003 20602 300// 41002 70016 333 91210 555 11086 22090 31705 43212 61749 332082 323086 323083 320086 317088 314085
BBXX 46083 04181 99582 71380 46/// /1706 10056 20048 49796 53023 91750 22200 00061 11106 20603 300// 41105 70028 333 91208 555 11068 22073 31722 41608 61749 168064 166068 165068 166064 165062 168056 81607 91721
AAXX 04184 91574 46/// ///// 29088 39930 49936 56006
AAXX 04184 91570 NIL
AAXX 04184 91598 NIL
AAXX 04184 91579 06/// /0000 10253 20246 30035 40043 53001 60021 333 59026 60027
AAXX 04184 91582 04462 71502 10249 20240 30009 40043 55000 69902 700// 333 10254 20244 69907 90710 91106 555 69905
AAXX 04184 91583 06/// /0000 10233 20228 30036 40051 53001 60001 333 59020 60007
AAXX 04184 91587 06/// /0000 10243 20234 39998 40042 55000 60021 333 59032 60027
AAXX 04184 91590 04586 70102 10234 20224 30009 40051 53002 69902 700// 333 10279 20233 69907 90710 91104 555 69905
AAXX 04184 91592 06/// /0303 10239 20223 39969 40053 53003 60001 333 59026 60007
AAXX 04184 91596 06/// /1304 10226 20214 39944 40052 55001 60021 333 59031 60007
AAXX 04184 91573 NIL
AAXX 04184 91577 NIL
AAXX 04181 06206 46459 8//17 10070 20043 39959 40012 58051 8//// 333 10079 82/10 85/13 87/15 91021 91121 91217
AAXX 04181 06207 47427 82418 1//// 2//// 39968 40023 57043 78180 8//// 333 1//// 83/11 85/14 86/17 91022 91122 91219
AAXX 04181 06239 47359 8//19 10068 20044 39897 49958 58049 75186 8//// 333 10076 81/09 85/11 87/14 91024 91124 91220
AAXX 04181 06252 46/// /2416 10075 20049 39991 40037 58052 222// 00077 10706 333 10077 91019 91120 91217
AAXX 04181 06260 17568 82405 10070 20034 30102 40104 58033 69972 75100 8//// 333 10081 82/22 86/27 87/31 91009 91114 91208
AAXX 04181 06270 17458 82310 10062 20046 30053 40053 58040 69922 75200 8//// 333 10071 84/10 87/13 88/17 91016 91116 91211
AAXX 04181 06290 15565 82207 10066 20030 30060 40101 58028 69972 8//// 333 10072 83/21 85/25 87/29 91011 91115 91208
BBXX 46089 04181 99459 71258 46/// /1912 10105 20104 40170 53011 91750 22200 00092 11311 20807 323// 41308 70053 333 91214 555 11125 22135 31715 41816 61749 185116 184122 185115 184119 185118 184121
BBXX 46053 04181 99342 71198 46/// /2302 10142 40253 51016 91750 22200 00141 11403 324// 41403 70017 333 91203 555 11023 22025 31749 42403 61749 231021 225019 224017 222014 219011 233011
AAXX 04181 06201 47350 82315 10067 20050 39932 49984 58054 75286 8//// 333 10075 81/09 84/11 87/14 91017 91120 91216
AAXX 04181 06203 47456 72418 10077 20042 30027 40078 58045 78185 8//// 333 10087 81/19 83/31 85/40 91022 91122 91218
AAXX 04181 06204 464// 82318 10076 20050 39990 40041 58048 8//// 333 10079 81/14 83/19 85/22 91021 91122 91219
AAXX 04181 06205 47456 82419 10062 20051 39878 49936 58060 710// 8//// 333 10077 84/10 87/13 88/17 91022 91123 91219
AAXX 04181 06208 47458 82411 10063 20038 39995 40044 58038 75110 8//// 333 10075 82/11 83/14 86/20 91013 91115 91213
AAXX 04181 06211 464// 82217 10071 20048 39957 40013 58052 8//// 333 10075 82/12 84/15 85/19 91021 91123 91219
AAXX 04181 06212 47456 72417 1//// 2//// 39991 40054 58046 752// 8//// 333 1//// 83/17 85/22 86/26 91021 91121 91217
AAXX 04181 06235 17457 82412 10066 20048 30062 40062 58045 69982 75380 8//// 333 10078 82/13 84/16 85/19 91017 91119 91214
AAXX 04181 06240 17563 82308 10066 20044 30099 40094 58036 6///2 72380 8//// 333 10079 83/26 87/30 88/37 91010 91118 91212
AAXX 04181 06251 17457 82513 10062 20051 30041 40042 58045 69952 75300 8//// 333 10074 82/11 84/15 86/19 91018 91119 91213
AAXX 04181 06258 46/// /2415 333 91018 91121 91217
AAXX 04181 06269 17461 82512 10062 20037 30097 40091 57034 69972 75885 8//// 333 10076 82/14 84/16 86/24 91015 91115 91212
AAXX 04181 06280 17461 82311 10064 20040 30056 40060 58034 60032 70280 8//// 333 10071 82/17 84/19 88/22 91016 91116 91211
AAXX 04181 06310 15662 72313 10083 20051 30117 40127 58032 60002 8//// 333 10084 81/37 83/44 86/50 91016 91116 91213
AAXX 04181 06344 17864 82310 10078 20043 30114 40107 58037 60002 72385 8//// 333 10082 88/57 91015 91116 91210
AAXX 04181 06370 17567 72308 10070 20035 30108 40134 58027 69912 72180 8//// 333 10081 84/26 85/32 86/40 91011 91114 91209
AAXX 04181 06380 17571 82309 10066 20031 30019 40160 56022 69932 72200 8//// 333 10068 82/25 85/29 86/33 91013 91113 91209
BBXX 44008 04181 99405 70692 46/// /3007 11038 21070 40175 57008 91750 22200 00101 10704 20503 330// 40703 70019 333 91210 555 11073 22075 31742 43010 61749 300073 312073 310075 303074 304074 307067
BBXX 44097 04181 99410 70711 46/// ///// 1//// 91802 22200 00107 10502 20502 70011
BBXX 51000 04181 99235 71541 46/// /0508 10215 40245 53020 91750 22200 00232 11510 20603 331// 41509 70049 333 91210 555 11080 22084 31746 40610 61749 053072 024062 021075 025078 029081 032079
BBXX 51003 04181 99193 71606 46/// /0608 10247 40210 53015 91750 22200 00250 11607 20502 3//// 41607 70037 333 91209 555 11085 22091 31730 40610 61749 063080 062080 060080 061081 062077 070077
AAXX 04181 11423 01583 62708 11001 21012 39288 42781 50005 60022 70182 85804 333 10023 43997 69905 82823 84650 91015 91116
BBXX 44099 04181 99369 70757 46/// ///// 1//// 91752 22200 00108 10602 20602 70009
BBXX 44039 04181 99411 70727 46/// /2707 11051 21116 40206 91745 22200 00075 10401 70006 333 91210
AAXX 04184 89532 42/75 41909 10012 21033 39683 49709 55000 82532
AAXX 04181 01046 11689 41511 11022 21088 39893 49901 57006 60002 70211 83440 333 10004 91116
AAXX 04181 01037 16/// /1304 11025 21077 39896 49902 58003 60002 333 10010 91111
AAXX 04181 01065 11689 80702 11086 21110 39785 49951 57011 69932 70282 888// 333 11052 91109
AAXX 04181 01114 16/// /0704 10023 21078 39769 49779 58010 60002
AAXX 04181 01245 11670 62302 11031 21060 39055 49750 58003 60022 70172 86700
AAXX 04181 01337 16/// /3501 10005 21008 39744 49809 58022 60032 333 10030 91105
AAXX 04181 01364 16/// /2504 11044 21065 38686 49790 50012 60002 333 4/060
AAXX 04181 01389 11887 81001 11033 21040 39467 49775 50006 6//// 70222 8802/ 333 11003
AAXX 04181 01156 16/// /0908 10023 21055 39803 49813 55009 60002 333 10037 91115
AAXX 04181 01273 16/// /0000 11007 21017 39540 49733 58004 60042 333 10006 91102
AAXX 04181 01228 46/// /2606 10029 20005 39717 49724 58010 333 10034 91108
AAXX 04181 01442 11889 11403 10006 21016 39593 49848 58019 60032 70181 81062
BBXX 46232 04181 99325 71174 46/// ///// 1//// 91738 22200 00146 11404 21002 328// 41403 70018
BBXX 46229 04181 99438 71246 46/// ///// 1//// 91751 22200 00099 11309 21007 326// 41306 70046
BBXX 46225 04181 99329 71174 46/// ///// 1//// 91744 22200 00148 11502 21001 328// 41502 70012
BBXX 46213 04181 99403 71247 46/// ///// 1//// 91754 22200 00106 11205 21004 328// 41204 70027
BBXX 46215 04181 99352 71209 46/// ///// 1//// 91738 22200 00138 11304 21003 326// 41303 70021
BBXX 46224 04181 99332 71175 46/// ///// 1//// 91736 22200 00148 11502 21001 327// 41502 70012
BBXX 46214 04181 99379 71235 46/// ///// 1//// 91750 22200 00117 11305 21003 328// 41304 70024
BBXX 44100 04181 99363 70756 46/// ///// 1//// 91752 22200 00112 10802 20802 70012
BBXX 42099 04181 99273 70842 46/// ///// 1//// 91757 22200 00215 10502 20502 70008
AAXX 04181 01135 16/// /0704 10005 21057 39625 49774 58006 60002 333 4/031
AAXX 04181 01192 16/// /1002 11021 21100 60002 333 4/015
AAXX 04181 01257 11250 82202 10001 21002 39575 49733 57005 60042 78582 883//
AAXX 04181 01370 16/// /0301 11063 21100 38690 49856 58010 60002 333 4/042
AAXX 04181 01419 16/// /2502 10007 21000 60062
AAXX 04181 01455 16/// /3302 10008 21056 39529 49835 58014 60002
AAXX 04181 01481 16/// /2503 10021 21042 39784 49815 57009 6////
BBXX 51205 04181 99210 71564 46/// ///// 1//// 91748 22200 00243 11408 21003 332// 41407 70040
BBXX 46238 04181 99334 71195 46/// ///// 1//// 91750 22200 00139 11304 21002 329// 41303 70019
BBXX 46239 04181 99363 71221 46/// ///// 1//// 91751 22200 00125 11305 21003 328// 41304 70024
OOXX AAUNI 04184 99798 50833 56093 07671 46/// /2316 11071 21183 38977 49861 5//// 91800
AAXX 04181 78221 11564 40406 10191 20090 30231 40258 57020 60004 70200 84500 333 83630
AAXX 04181 78224 31560 10408 10189 20058 30181 40257 58027 70204 81100 333 81830
AAXX 04181 78229 42559 61001 10183 20100 30178 40253 57030 86400 333 86625
AAXX 04181 78239 11559 60307 10202 20097 30236 40239 57020 60004 70500 86800 333 10209 20158 85820
AAXX 04181 12345 42660 60706 10208 20106 30193 40240 57024 86500 333 86535
AAXX 04181 78243 42559 70707 10180 20092 30123 40247 57022 87290 333 83830 87357
AAXX 04181 78255 42559 40607 10223 20094 30085 40235 57020 83131 333 10225 20131 83820
AAXX 04181 78264 31560 10206 10268 20106 30121 40197 57020 70200 81200 333 10268 20174 81825
AAXX 04181 78265 41560 50407 10236 20109 30114 40214 57030 70324 85100 333 10242 20105 85825
AAXX 04181 78256 11559 20407 10252 20091 30160 40220 57029 60004 70544 82100 333 10251 20174 82830
AAXX 04181 78259 NIL
AAXX 04181 78268 11560 70304 10226 20180 30201 40220 57024 60001 70222 87200 333 87830
AAXX 04181 11010 11581 72508 10049 21013 39835 40219 52015 60032 70282 333 10072 81625 86656 91121 91214
AAXX 04181 11012 11663 82508 10034 20002 39748 40226 52014 60052 76273 8872/ 333 10080 20018 55300 91120
AAXX 04181 11022 11567 22507 10047 21024 39784 40174 52014 69912 70181 82101 333 10082 20034 55300 82825 91120
AAXX 04181 11035 12980 22705 10053 20010 39928 40183 52018 69902 80002 333 10107 20047 82074 91117
AAXX 04181 11036 12784 62806 10055 21001 39961 40186 52017 69902 333 10089 82656 86074 91115 91210
AAXX 04181 11101 12560 71603 10037 20002 39741 40280 52003 60032 70282 84532 333 10066 20026 84625
AAXX 04181 11120 12782 20703 10015 21022 39529 40253 52015 69922 333 10046 81850
AAXX 04181 11126 17/// /3208 11106 21108 37731 48516 52008 60012 7//8/ 333 11003 21106 55300 91119
AAXX 04181 11130 17/// /1501 10014 20005 39649 40253 52008 60022 7//8/ 333 10041 20009 55300
AAXX 04181 11146 11/00 90207 11142 21158 36889 47993 50001 60082 77374 333 11061 21142 55300 89/00 91119 92611
AAXX 04181 11150 11580 62806 10046 21043 39692 40240 52017 60032 70182 333 10072 81826 86856 91114 91210
AAXX 04181 11155 11/15 83109 11060 21080 38364 48495 53018 60102 74084 888// 333 10023 21061 55300 858// 91134
AAXX 04181 11157 11460 79903 10038 21049 39442 40202 53019 69932 72166 875// 333 10061 81615 83628 85645 91118 91210
AAXX 04181 11172 NIL
AAXX 04181 11190 12660 82808 10068 21026 39952 40187 52019 69902 886// 333 10104 20032 55300 91120
AAXX 04181 11204 16/// /0101 10011 21037 39408 40216 51016 60002 333 10030 21029 55300
AAXX 04181 11212 11/65 52601 11065 21086 37806 48487 51013 60022 73774 84730 333 11017 817// 83720 555 16139 17080
AAXX 04181 11231 11150 63103 10011 20006 39628 40213 51021 69912 71082 333 10034 81702 86074
AAXX 04181 11240 11858 89901 10014 20006 39751 40199 52024 69902 70262 333 10029 83657 85366
AAXX 04181 11244 17/// /3201 10023 20013 39862 40197 51024 69932 7//4/ 333 10053 21021 55300
AAXX 04181 11389 11550 62207 10041 20008 39869 40200 51012 69982 70262 865// 333 10074 20035 55300 91116
AAXX 04184 78906 11578 32503 10299 20223 30135 40140 60001 70411 83201 333 10306 20209 58001 70000 83820
AAXX 04184 60285 32960 30209 10206 20118 40264 56001 82032 333 10242 82360
AAXX 04184 60340 NIL
AAXX 04184 48601 11559 70204 10269 20232 30110 40114 60001 70522 82532 333 82625 84364 87077
AAXX 04184 48615 11564 71005 10253 20226 30125 40131 60001 70522 83542 333 83620 87075
AAXX 04184 48620 11259 73501 10245 20237 30105 40114 6///1 71092 82552 333 81705 85364 85078
AAXX 04184 48647 11556 70101 10265 20232 30086 40111 60001 70522 81531 333 81626 87078
AAXX 04184 48657 11562 70203 10237 20228 30111 40129 60001 70522 82531 333 82625 86078
AAXX 04184 48665 12564 70405 10241 20226 30112 40122 60001 81542 333 81628 84364 86078
AAXX 04184 96413 11458 71404 10242 20237 30082 40109 60091 79596 8492/ 333 81915 84620 87465
AAXX 04184 96421 11156 73201 10249 20244 30068 40104 69901 71022 85531 333 82703 83618 86365
AAXX 04184 96441 11468 70000 10236 20231 30070 40097 69921 70362 82531 333 82614 84365 85080
AAXX 04184 96449 11465 71505 10240 20236 30077 40096 60031 70262 8457/ 333 84614 87365
AAXX 04184 96465 12465 71902 10266 20249 30059 40092 60001 82872 333 82812 85364 87079
AAXX 04184 96471 12464 70702 10244 20228 30093 40096 69901 84848 333 82814 83640 87277
AAXX 04184 96481 12462 70501 10244 20229 30078 40097 60001 83842 333 81817 83364 86078
AAXX 04184 96491 11463 73001 10249 20242 30089 40101 69981 76166 82858 333 81710 83364 87276
AAXX 04184 89514 32999 02305 10029 49751 57013 333
AAXX 04184 89514 32999 02305 10029 49751 57013 333
AAXX 04181 01205 46/// /2411 10041 20010 39710 49755 58028 333 10064 91118
AAXX 04181 33135 11696 82205 10031 20023 39912 40091 57005 69942 78082 8632/ 333 10041
AAXX 04181 33317 NIL
AAXX 04181 33345 11397 82004 10028 20015 39901 40107 58012 69902 70252 886// 333 10035 88708
AAXX 04181 33393 11360 82506 10048 20036 39727 40118 52010 60032 78082 889// 333 10075 86709
AAXX 04181 33506 31596 82004 10026 20018 39955 40153 57009 71022 885// 333 10040
AAXX 04181 33587 NIL
AAXX 04181 33631 11295 80000 10047 20042 39992 40136 53004 60072 72165 886// 333 10054 88705
AAXX 04181 33663 32597 81301 10053 20036 30018 40114 57009 8452/ 333 10056
AAXX 04181 33658 32997 63301 10044 20027 39810 40110 57007 86030 333 10071
AAXX 04181 33711 31/92 92004 10026 20026 39939 40152 57007 74542 333 10050
AAXX 04181 33791 NIL
AAXX 04181 33837 31946 02304 10055 20046 30091 40143 57012 71041 333 10068
AAXX 04181 33924 32597 82103 10082 20058 30165 40177 57001 881// 333 10105
AAXX 04181 33946 32997 02202 10050 20033 39965 40187 58003 333 10120
AAXX 04181 34300 31238 81905 10016 20008 39973 40166 58005 71022 886// 333 10024 88705
AAXX 04181 34504 32397 81903 10034 20024 39989 40170 57010 886// 333 10053 88707
AAXX 04181 34519 11250 81902 10003 21003 39918 40199 58001 69902 72854 886// 333 10013 88705
AAXX 04181 34601 32260 81905 10034 20033 30044 40182 57008 886// 333 10069 88706
AAXX 04184 48574 32560 60000 10247 20235 30097 40127 57004 82246 333 58002
BBXX UFTA 04181 99845 71193 11995 83309 11238 21268 40175 57002 69902 73832 82031
AAXX 04181 48921 NIL
AAXX 04181 48924 NIL
AAXX 04181 48925 NIL
AAXX 04181 48926 NIL
AAXX 04181 48927 NIL
AAXX 04181 48928 NIL
AAXX 04181 48930 NIL
AAXX 04181 48935 NIL
AAXX 04181 48938 NIL
AAXX 04181 48940 31620 60902 10214 20158 39951 40148 57001 71044 86500 333 58031
AAXX 04181 48941 NIL
AAXX 04181 48944 NIL
AAXX 04181 48945 NIL
AAXX 04181 48946 NIL
AAXX 04181 48947 NIL
AAXX 04181 48948 NIL
AAXX 04181 48952 NIL
AAXX 04181 48953 NIL
AAXX 04181 48955 31758 51401 10235 20170 30020 40139 57006 71044 83530 333 58015
AAXX 04181 48957 NIL
AAXX 04181 15015 01597 82402 10055 20042 39529 42746 57010 69962 72162 885// 333 10059 20021 32005 69937 91003 91104
AAXX 04181 15020 02997 42203 10090 20030 39914 40111 57006 60002 84070 333 10139 20012 31017 60007 91005 91107
AAXX 04181 15090 02997 00601 10025 20018 30033 40127 58004 60002 333 10093 21017 34007 55300 10165 20004 3//// 60007 91002 91103 92600
AAXX 04181 15108 01/91 93224 11025 21025 38024 48452 58002 60002 74544 333 11024 21042 3//// 44018 60007 91034 92727 92873
AAXX 04181 15120 01595 80900 10010 20010 39648 40155 57012 60002 71042 886// 333 10015 21023 3/005 41998 55300 10049 2//// 3//// 60007 91002 91102
AAXX 04181 15150 02997 02101 10018 20007 39919 40136 50001 60002 333 10117 20004 30014 60007 91001 91103
AAXX 04181 15170 02997 01201 11025 21025 39359 42755 57006 60002 333 10092 21043 3/002 42998 60007 91002 91103
AAXX 04181 15200 01597 82501 10074 20058 30016 40161 53008 69912 72162 8457/ 333 10103 20024 31011 69917 91002 91104
AAXX 04181 15230 02997 63201 10043 20032 39869 40166 53003 60002 86050 333 10085 20015 30010 55300 10027 20002 3//// 60007 91001 91103
AAXX 04181 15260 02998 00501 10002 21003 39618 40167 57005 60002 333 10063 21026 31009 60007 91002 91102
AAXX 04181 15280 02999 02314 11051 21120 37447 47985 57014 60002 333 11034 21054 3//// 49033 60007 91020 92848
AAXX 04181 15292 02598 81302 10064 20027 39869 40166 52006 60002 8557/ 333 10143 21013 31014 60007 91004 91104
AAXX 04181 15310 02997 02002 10049 20033 30062 40149 55000 60002 333 10086 20008 31012 55300 10217 20004 3//// 60007 91005 91108
AAXX 04181 15335 02997 01101 10047 20035 30140 40147 57007 60002 333 10124 21031 31012 60007 91003 91103
AAXX 04181 15346 02997 03501 10026 20009 39864 40160 54001 60002 333 10128 21017 31013 60007 91003 91103
AAXX 04181 15350 02997 02303 10027 20012 30029 40151 57002 60002 333 10111 20008 31010 60007 91004 91105
AAXX 04181 15360 02997 02109 10063 20049 30132 40146 57006 60002 222// 06046 20402 333 10071 20013 3//// 60007 91010 91110 92427
AAXX 04181 15410 02997 00000 10034 20019 30066 40163 54001 60002 333 10122 21011 30016 60007 91001 91102
AAXX 04181 15420 02997 02402 10043 20034 30040 40153 57003 60002 333 10087 21049 31011 55300 0//// 20000 3//// 60007 91003 91103
AAXX 04181 15450 02997 11803 10051 20028 39920 40158 57002 60002 81040 333 10106 21018 31007 55300 10157 20004 3//// 60007 91004 91104
AAXX 04181 15460 02997 01701 10029 20023 30130 40155 57004 60002 333 10122 21017 34012 60007 91001 91101 92600
AAXX 04181 15470 01996 02401 10022 20022 30032 40161 54000 60002 71000 333 10092 21041 31012 60007 91002 91102
AAXX 04181 15480 01996 02101 10070 20046 30143 40160 58005 60002 71000 222// 06070 2//// 333 10124 20018 31010 60007 91003 91103 92417
AAXX 04184 78016 11664 53117 10155 20071 30177 40181 55002 69951 71582 85800 333 10160 20117 70168 90935
AAXX 04184 91930 36/// ///// 10299 20233
AAXX 04184 91943 36/// /0305 10279 20217 30154 40156 51012 333 10279 59002
AAXX 04181 89061 179// 03302 10022 20011 39872 49879 57005 69933 73041 333 91002 91102
AAXX 04184 91413 11469 89905 10253 20233 30090 40115 57005 69931 70282 84878 333 56999 70020 555 90418
AAXX 04184 89664 11561 81409 11032 21062 39802 49844 55003 69903 77171 885// 333 56499 82620 85630 87656 90931 91397
AAXX 04184 78615 32982 40908 10230 20149 30122 40268 58016 84030 333 10236 20124 30/// 56090 59014 84359
AAXX 04184 78627 32582 11804 10178 20072 38208 58017 81200 333 10182 20013 30/// 56200 57885 59014 81825
AAXX 04184 78637 11482 80000 10196 20184 30234 40250 58009 60011 70362 8555/ 333 10238 20180 32/// 5619/ 59001 82616 83618 86358
AAXX 04184 78641 32582 23618 10176 20081 38595 40218 58012 82500 333 10190 20096 30/// 56800 59001 82620
AAXX 04184 78647 32982 01608 10316 20172 30153 40160 58020 333 10330 20210 30/// 58015
AAXX 04184 70026 NIL
AAXX 04184 70133 NIL
AAXX 04184 70174 NIL
AAXX 04184 70200 NIL
AAXX 04184 70219 NIL
AAXX 04184 70231 NIL
AAXX 04184 70261 NIL
AAXX 04184 70267 NIL
AAXX 04184 70271 NIL
AAXX 04184 70273 NIL
AAXX 04184 70308 NIL
AAXX 04184 70316 NIL
AAXX 04184 70326 NIL
AAXX 04184 70340 NIL
AAXX 04184 70350 NIL
AAXX 04184 70361 NIL
AAXX 04184 70381 NIL
AAXX 04184 70398 NIL
AAXX 04184 70414 NIL
AAXX 04184 68024 42660 10904 10309 20140 48509 52014 81980 333 10378
AAXX 04184 68029 42960 11004 10262 20181 48507 52015 81070 333 10324
AAXX 04184 68030 42960 00904 10264 20142 48507 52016 333 10334
AAXX 04184 68032 42960 10909 10318 20162 48513 52016 81080 333 10366
AAXX 04184 68040 42960 10905 10303 20124 48517 52015 81070 333 10368
AAXX 04184 68054 42960 01105 10264 20130 48545 53015 333 10337
AAXX 04184 68070 42960 00905 10295 20164 48532 52015 333 10342
AAXX 04184 68148 42960 00506 10278 20161 48524 52011 333 10353
AAXX 04184 68226 42960 20000 10335 20121 48506 53010 82080 333 10386
AAXX 04184 68234 42660 30904 10306 20153 48517 52015 83400 333 10375
AAXX 04184 68240 42660 10506 10281 20097 47520 51014 81400 333 10361
AAXX 04184 68320 42960 10000 10315 20164 48519 52012 81080 333 10381
AAXX 04184 68325 42960 20000 10295 20148 48516 52013 82070 333 10352
AAXX 04184 96491 11463 73001 10249 20242 30089 40101 69981 76166 82858 333 81710 83364 87276
AAXX 04184 16008 12960 00304 11028 21131 38560 48517 52018 69902 333 10022 43032 92810
AAXX 04181 26554 12960 22005 10029 21010 39792 49953 58012 60012 82030 333 10034 91111
AAXX 04181 26666 12660 62003 10032 20011 39780 49993 57003 60022 86500 333 10033 86635 91110
AAXX 04181 26850 12560 62303 10035 21009 39748 40019 53006 69942 82501 333 10045
AAXX 04181 26863 11356 72005 10031 20023 39791 40026 58008 60012 71022 87700 333 10033 87608
AAXX 04181 26941 12960 62204 10042 21003 39803 40038 53006 69902 86030 333 10065 91110
AAXX 04181 26951 12462 72306 10048 20036 39839 40036 58001 60012 875// 333 10056 87619 91110
AAXX 04181 33008 11962 32404 10044 20012 39886 40064 52005 60022 70281 83030 333 10075
AAXX 04181 33019 11459 82003 10050 20036 39888 40062 54000 69982 72162 886// 333 10066 86713
AAXX 04181 33036 11259 82102 10047 20033 39838 40067 57003 60012 75185 886// 333 10054 88704
AAXX 04181 33041 11356 81803 10032 20027 39912 40067 57006 60022 76162 8872/ 333 10041 88708
AAXX 04184 03008 16/// /2019 10045 20031 39681 49749 58094 60062 91750 333 10061 90710 91131
AAXX 04184 03010 46/// /2828 10064 20045 49761 56056 333 90710 91141
AAXX 04184 03014 46/// /1921 11010 21035 49748 58088 91750 333 8//// 90710 91127
AAXX 04184 03031 17566 /2717 10044 20026 39481 49800 56073 60202 762// 91750 333 10051 553// 20000 87/26 85/37 90710 91127
AAXX 04184 03034 17331 /2827 10067 20052 39799 49812 56058 60172 762// 91750 333 10079 81/09 87/22 90710 91146 91046
AAXX 04184 03037 17549 /2520 10079 20069 39801 49822 56076 60122 762// 91750 333 10079 81/29 86/37 90710 91128
AAXX 04184 03039 46/// /2739 10024 21007 91750 333 10025 90710 91155 91051
AAXX 04184 03041 46/// /2457 10006 20006 91750 333 10010 90710 91181 91074
AAXX 04184 03044 17559 /2510 10057 20041 39685 49781 56070 60092 762// 91750 333 10058 553// 20000 87/28 90710 91127 91027
AAXX 04184 03047 17456 /2413 10073 20048 39543 49837 58080 60202 763// 91750 333 10079 553// 20000 81/17 87/33 90710 91137 91025
AAXX 04184 03062 17665 /2208 10049 20035 39795 49800 56074 60032 762// 91750 333 10054 553// 20000 83/35 84/42 87/50
AAXX 04184 03065 46/// ///// 11012 21014 91750 333 11011 91000
AAXX 04184 03068 11665 82415 10052 20031 39797 49805 56077 60022 75865 885// 91750 333 10059 86641 88656 90710 91128
AAXX 04184 03080 17676 /2313 10057 20025 39655 49822 56081 69902 781// 91750 333 10064 83/33 87/57 90710 91129
AAXX 04184 03088 15484 /2523 10049 20035 39674 49834 58083 69902 91750 333 10050 553// 20000 88/11 90710 91133
AAXX 04184 03094 17677 /2320 10061 20028 39794 49799 58088 69962 781// 91750 333 10061 87/39 90710 91127
AAXX 04184 03105 17440 /2535 10094 20078 39888 49905 58071 60142 723// 91750 333 10094 87/17 83/30 90710 91147 91047
AAXX 04184 03132 17572 /2530 10081 20064 39940 49953 58065 60042 723// 91750 333 10081 84/20 85/50 90710 91143 91041
AAXX 04184 03144 17458 /2219 10073 20059 39804 49846 58096 60082 762// 91750 333 10073 553// 20000 84/10 86/38 90710 91135
AAXX 04184 03148 46/// /2544 10047 20043 91750 333 10050 90710 91169 91058
AAXX 04184 03153 17458 /2529 10068 20058 39817 49953 58061 60102 761// 91750 333 10069 553// 20000 87/12 90710 91146 91046
AAXX 04184 03155 16456 /2332 10059 20042 39608 49900 58078 61242 91750 333 10059 83/12 85/17 85/35 90710 91145 91043
AAXX 04184 03210 16367 /2529 10070 20059 39830 49980 58059 60092 91750 333 10070 82/09 85/16 86/50 90710 91145 91045
AAXX 04184 03212 17559 /2622 10078 20053 39881 49979 58055 60182 762// 91750 333 10079 84/21 87/31 90710 91143 91038
AAXX 04184 03214 17550 /2525 10078 20065 39984 40003 58053 60132 761// 91750 333 10079 87/27 90710 91139 91037
AAXX 04184 03220 16469 ///// 10072 20062 39924 49958 58055 60052 91750 333 10073 82/13 87/22
AAXX 04184 03225 16450 /2520 10060 20037 39674 49976 58053 60142 91750 333 10062 553// 20000 81/11 86/25 86/33 90710 91135 91032
AAXX 04184 03226 17564 /2413 10056 20043 39705 49979 58048 60042 761// 91750 333 10058 87/23
AAXX 04184 03227 46/// /2547 10009 2//// 91750 333 10009 90710 91155
AAXX 04184 03230 16466 /2426 10051 20038 39667 49921 58066 60032 91750 333 10054 81/13 87/18 90710 91142 91040
AAXX 04184 03238 17465 /2519 10055 20043 39756 49927 58054 60032 761// 91750 333 10061 85/18 86/32 90710 91143 91031
AAXX 04184 03261 11470 82414 10074 20048 39954 49994 58051 60012 76162 885// 91750 333 10075 85618 88645 90710 91133 91024
AAXX 04184 03265 17583 /2316 10078 20047 39962 49992 58050 69902 781// 91750 333 10078 86/21 86/27 90710 91131
AAXX 04184 03266 16579 /2422 10075 20046 39980 49997 57050 60012 91750 333 10077 86/23 86/30 90710 91136
AAXX 04184 03275 15580 /2430 10064 20029 39766 49956 58060 60002 91750 333 10064 81/28 86/64 90710 91149 91046
AAXX 04184 03281 16/// /2423 10056 20040 60002 91750 333 10056 90710 91135
AAXX 04184 03903 16462 /2518 10089 20075 39938 49994 58043 60142 91750 333 10089 553// 20000 81/17 86/25 90710 91137 91028
AAXX 04184 03904 17457 /2526 10088 20073 39919 49978 58039 60162 751// 91750 333 10089 81/13 85/17 90710 91144 91036
AAXX 04184 03907 17559 /2431 10087 20069 39935 49942 58056 60132 723// 91750 333 10090 55300 20000 81/20 87/24 90710 91141
AAXX 04184 03911 16472 /2521 10071 20063 39705 49975 58043 60162 91750 333 10071 84/10 87/17 90710 91137 91031
AAXX 04184 03915 16576 /2416 10082 20082 39882 49959 58049 60112 91750 333 10083 87/27 90710 91130 91029
AAXX 04184 03916 16582 /2911 10077 20066 39740 49927 58064 60182 91750 333 10077 553// 20000 87/23 84/30 90710 91131 91023
AAXX 04184 03923 17459 /2615 10071 20057 39801 49995 58034 60112 762// 91750 333 10072 82/11 86/17 90710 91135 91028
AAXX 04184 03301 16556 /2423 10081 20081 39981 40054 56037 60032 91750 333 10083 87/24 90710 91135
AAXX 04184 03305 17444 /2432 10070 20047 39793 40054 57035 60162 762// 91750 333 10072 85/15 85/29 90710 91147
AAXX 04184 03313 16662 /2620 10085 20053 39952 40045 56042 60022 91750 333 10087 81/34 87/41 90710 91138 91038
AAXX 04184 03316 17550 /2531 10082 20065 30024 40035 56045 60032 762// 91750 333 10086 87/27 90710 91144
AAXX 04184 03318 16/// /2426 10076 20067 60112 91750 333 10077 90710 91139
AAXX 04184 03321 16662 /2616 10081 20061 30036 40049 56041 60012 91750 333 10087 553// 20000 87/39 90710 91132 91027
AAXX 04184 03330 17456 /2517 10053 20045 39694 40055 56033 60032 762// 91750 333 10061 87/10 90710 91131 91028
AAXX 04184 03344 17435 /2525 10059 20044 39695 40010 56029 60142 762// 91750 333 10060 88/16 90710 91145 91041
AAXX 04184 03346 16/// /2629 10053 20045 60032 91750 333 10056 90710 91149 91042
AAXX 04184 03348 17559 /2418 10069 20057 39936 40043 56039 60032 762// 91750 333 10075 55300 20000 83/22 87/31 90710 91128
AAXX 04184 03355 17568 /2525 10077 20054 39997 40008 56051 69922 781// 91750 333 10081 55300 20000 87/22 83/35 90710 91138 91038
AAXX 04184 03373 16568 /2425 10076 20047 39961 40031 56046 60002 91750 333 10079 86/28 90710 91137
AAXX 04184 03379 11580 72423 10076 20046 39969 40046 58044 69902 72162 875// 91750 333 10078 87622 90710 91135
AAXX 04184 03382 17568 /2420 10074 20051 39989 49997 58058 69922 781// 91750 333 10078 55300 20000 86/27 86/36 90710 91135 91035
AAXX 04184 03385 46580 /2326 10082 20044 30013 40023 58050 91750 333 10083 81/27 84/33 87/40 90710 91138 91038
AAXX 04184 03391 11682 72420 10078 20040 30034 40042 56048 69902 70162 86572 91750 333 10084 84630 85656 86360 90710 91131
AAXX 04184 03392 16675 /2221 10071 20048 30038 40042 58050 60002 91750 333 10072 82/33 85/57 86/67 90710 91128
AAXX 04184 03405 16567 /2535 10086 20074 39956 40071 58040 69942 91750 333 10086 553// 20000 81/20 85/24 90710 91144
AAXX 04184 03409 16/// /2520 10071 20058 60062 91750 333 10077 55300 2//// 90710 91138 91033
AAXX 04184 03410 16450 /2424 10058 20052 39627 40060 58031 60132 91750 333 10060 553// 20000 83/10 87/17 90710 91142 91040
AAXX 04184 03469 15684 /2425 10081 20048 30052 40055 56045 69922 91750 333 10081 553// 20000 82/40 84/58 90710 91132
AAXX 04184 03488 17776 /2325 10075 20041 30022 40047 58054 69902 723// 91750 333 10076 81/56 83/59 87/66 90710 91135 91035
AAXX 04184 03503 17450 /2515 10083 20073 30028 40105 58029 60032 782// 91750 333 10090 83/10 86/14 90710 91128 91025
AAXX 04184 03507 17249 /2415 10062 20062 39741 40113 58018 6///2 762// 91750 333 10065 84/04 87/11 90710 91132 91027
AAXX 04184 03520 16564 /2724 10081 20056 39967 40087 57041 60012 91750 333 10087 553// 20000 83/26 85/50 90710 91138 91035
AAXX 04184 03522 17571 /2521 10085 20067 30005 40098 58037 60022 761// 91750 333 10092 83/22 86/50 90710 91135 91034
AAXX 04184 03529 17566 /2416 10082 20062 30053 40096 57037 69982 781// 91750 333 10096 85/25 85/42 90710 91133 91026
AAXX 04184 03544 17584 /2414 10078 20051 39946 40076 58041 69922 723// 91750 333 10083 553// 20000 83/22 87/58 90710 91134 91030
AAXX 04184 03560 17580 /2313 10074 20058 39977 40081 58044 69942 723// 91750 333 10076 553// 20000 81/21 84/25 86/39 91024
AAXX 04184 03604 16468 /2731 10094 20075 30072 40125 58022 60022 91750 333 10099 81/17 87/45 90710 91147 91044
AAXX 04184 03605 16460 /2635 10093 20077 30122 40130 58026 60012 91750 333 10098 85/17 83/39 90710 91148 91045
AAXX 04184 03609 16/// /2535 10089 20074 30079 40131 58028 60012 91750 333 10096 90710 91149 91046
AAXX 04184 03628 17450 /2525 10082 20071 30047 40119 58031 60012 782// 91750 333 10090 55300 20000 81/10 84/16 86/23 90710 91149 91039
AAXX 04184 03647 16461 /2520 10071 20052 39841 40096 58037 6///2 91750 333 1//// 553// 20000 85/10 85/19 90710 91133 91030
AAXX 04184 03658 11475 82418 10086 20056 30039 40109 58042 60012 70286 885// 91750 333 10088 87618 87625 90710 91131 91028
AAXX 04184 03660 17480 /2712 10074 20055 39856 40103 58043 69962 723// 91750 333 10074 87/14 83/24 90710 91133 91023
AAXX 04184 03672 11480 82417 10085 20051 30071 40112 58043 69902 70262 885// 91750 333 10085 81618 85620 87628 90710 91128 91028
AAXX 04184 03684 17359 /2317 10067 20057 39990 40096 58046 69922 751// 91750 333 10074 87/08 85/23 90710 91126
AAXX 04184 03693 16468 /2316 10081 20059 30109 40111 58048 60002 91750 333 10085 81/17 87/21 90710 91131
AAXX 04184 03710 16259 /2728 10065 20065 39724 40146 56021 60022 91750 333 10067 553// 20000 85/03 86/14 90710 91142 91041
AAXX 04184 03743 16480 /2416 10075 20064 39969 40131 58036 69922 91750 333 10077 86/12 83/20 90710 91129 91028
AAXX 04184 03749 11475 72416 10076 20062 30021 40132 58039 69922 72186 875// 91750 333 10078 81712 85618 87622 90710 91125
AAXX 04184 03761 11470 82219 10071 20052 39978 40122 58045 69902 76062 885// 91750 333 10079 55300 20000 83712 88620 90710 91134
AAXX 04184 03768 16461 /2519 10080 20056 30043 40123 58042 60002 91750 333 10082 87/16 90710 91137
AAXX 04184 03769 17580 /2212 10083 20057 30045 40127 58045 6///2 723// 91750 333 10083 55300 20000 87/21
AAXX 04184 03770 16/// ///// 10086 20059 60002 91750 333 10086
AAXX 04184 03781 17483 /2219 10073 20053 39913 40120 58047 69922 723// 91750 333 10074 553// 20000 87/18 83/60 90710 91131 91029
AAXX 04184 03797 17672 /2320 10083 20050 30067 40127 58039 69922 723// 91750 333 10083 55300 20000 84/40 85/46 90710 91133 91033
AAXX 04184 03823 17456 /2823 10083 20060 39932 40176 58025 69922 761// 91750 333 10088 553// 20000 82/12 87/29 90710 91141 91040
AAXX 04184 03839 16/// ///// 10097 20064 60002 91750 333 10101 553// 20000
AAXX 04184 03857 17661 /2733 10099 20075 30097 40161 56033 69922 704// 91750 333 10101 85/33 85/42 90710 91149
AAXX 04184 03862 17468 /2517 10089 20066 30137 40149 58034 69922 723// 91750 333 10096 55300 20000 81/17 87/30 90710 91129
AAXX 04184 03866 16/// /2635 10097 20072 30130 40155 57032 60002 91750 333 10100 90710 91144
AAXX 04184 03872 15673 /2528 10095 20066 30138 40143 58038 69902 91750 333 10098 553// 20000 84/39 83/61 90710 91137
AAXX 04184 03876 16/// /2523 10094 20066 30142 40144 57041 60002 91750 333 10095 90710 91135 91035
AAXX 04184 78526 NIL
AAXX 04184 78543 NIL
AAXX 04184 78255 42559 40607 10223 20094 30085 40235 57020 83131 333 10225 20131 83820
AAXX 04184 78317 NIL
AAXX 04184 78318 NIL
AAXX 04184 78325 NIL
AAXX 04184 78333 NIL
AAXX 04184 78338 NIL
AAXX 04184 78348 NIL
AAXX 04184 78349 NIL
AAXX 04184 78353 NIL
AAXX 04184 78360 NIL
AAXX 04184 78367 NIL
AAXX 04184 78369 NIL
BBXX A8TG2 04183 99250 71390 41798 50908 10250 20151 40250 52020 70222 82545 22263 20102 307// 40102 5//// 80190
BBXX C6XC2 04184 99284 11261 41498 83522 10080 20038 40270 54000 70222 8899/ 22244 00200 2//// 3//// 4//// 5//// 6//// 80060 ICE /////
BBXX NWS0029 04184 99415 70707 43/// /3108 11057 21161 40172 5//// 7//// 8//// 222// 04058 2//// 3//// 4//// 5//// 6//// 8//// ICE /////
BBXX KAOU 04184 99071 10978 43/// /0716 10278 20229 40108 5//// 7//// 8//// 222// 04313 2//// 3//// 4//// 5//// 6//// 8//// ICE /////
BBXX NWS0003 04184 99539 71665 43/// /0000 11030 21064 49904 5//// 7//// 8//// 222// 0//// 2//// 3//// 4//// 5//// 6//// 8//// ICE /////
BBXX NWS0020 04184 99261 70801 43/// /0107 10155 20068 40261 5//// 7//// 8//// 222// 04194 2//// 3//// 4//// 5//// 6//// 8//// ICE /////
BBXX PBAD 04181 99216 70706 41498 60112 10230 20126 40190 58/// 70022 86200 22274 00270 20203 332// 40607 5//// 80170
BBXX VRJI2 04183 99020 50311 41598 21414 10270 2024/ 40120 54000 70200 82100 22233 04270 21002 31415 41203 51203 6/00/ 80250 ICE 0////
BBXX KIRH 04183 99224 70705 41398 40524 10233 20146 40205 57010 7//// 8128/ 22274 00228 20706 302// 41407 5//// 6//// 80178 ICE /////
AAXX 04184 91222 NIL
AAXX 04184 91245 NIL
AAXX 04184 91323 NIL
AAXX 04184 91339 NIL
AAXX 04184 91343 NIL
AAXX 04184 91353 NIL
AAXX 04184 91442 NIL
AAXX 04184 91165 NIL
AAXX 04184 91182 NIL
AAXX 04184 91190 NIL
AAXX 04184 91212 NIL
AAXX 04184 91217 NIL
AAXX 04184 91285 NIL
AAXX 04184 91317 NIL
AAXX 04184 91334 11474 80710 10269 20246 30081 40084 55008 60021 70282 82171 333 56299 70056 555 90418
AAXX 04184 91348 NIL
AAXX 04184 91356 NIL
AAXX 04184 91366 NIL
AAXX 04184 91369 NIL
AAXX 04184 91371 NIL
AAXX 04184 91376 NIL
AAXX 04184 91408 NIL
AAXX 04184 91413 NIL
AAXX 04184 91425 NIL
AAXX 04184 91434 NIL
AAXX 04184 91765 NIL
BBXX 51201 04181 99217 71581 46/// ///// 1//// 91742 22200 00240 11308 20903 332// 41307 70040
BBXX 51202 04181 99214 71577 46/// ///// 1//// 91740 22200 00238 11704 20803 335// 41703 70021
BBXX 46001 04181 99563 71480 46/// /3114 11007 49864 53030 91750 22200 00040 11011 20608 300// 41007 70053 333 91217 555 11151 22160 31653 42318 61749 314143 314145 315145 317146 313145 319146
BBXX 42362 04181 99278 70907 46/// /3601 10172 20067 40305 58007 91800
BBXX 42363 04181 99282 70892 46/// /2802 10189 20061 40312 58003 91800 333 91202
BBXX 42364 04181 99291 70881 46/// /3413 10100 21006 40319 54000 91800
BBXX 41038 04181 99341 70777 46/// /1602 10058 40267 58039 91800 22200 00125 333 91203
BBXX 44060 04181 99413 70721 46/// ///07 11050 40190 56026 91800 22200 00082 333 91209 555 11072 22072
BBXX 44022 04181 99409 70737 46/// ///04 11048 21152 40200 58036 91800 22200 00057 333 91206 555 11041 22041
AAXX 04184 78615 32982 40908 10230 20149 30122 40268 58016 84030 333 10236 20124 30/// 56090 59014 84359
AAXX 04184 78627 32582 11804 10178 20072 38208 58017 81200 333 10182 20013 30/// 56200 57885 59014 81825
AAXX 04184 78637 11482 80000 10196 20184 30234 40250 58009 60011 70362 8555/ 333 10238 20180 32/// 5619/ 59001 82616 83618 86358
AAXX 04184 78641 32582 23618 10176 20081 38595 40218 58012 82500 333 10190 20096 30/// 56800 59001 82620
AAXX 04184 78647 32982 01608 10316 20172 30153 40160 58020 333 10330 20210 30/// 58015
BBXX 46042 04181 99368 71224 46/// /3408 10126 40277 53019 91750 22200 00123 11305 20302 331// 41304 70024 333 91210 555 11088 22094 31721 43510 61749 341082 341081 343080 347078 348080 349079
BBXX PHAM 04184 99495 70011 41/97 /2732 10107 20073 40195 56025 72588 8//// 22200 20508 80089 91153
BBXX PDHW 04183 99475 70293 41297 82326 10120 20062 40310 54000 70222 887// 22223 00120 20706 325// 40904 80090
BBXX TBWUK35 04184 99570 10040 41297 82436 10070 20066 49869 57090 76186 887// 22283 00090 20507 325// 40808 80068
BBXX MGRH9 04184 99266 31532 41/98 /0000 10230 20183 40120 50004 7//// 8//// 22200 00245 2//// 3//// 4//// 5//// 80200
BBXX ELYP7 04184 99306 31135 41497 83612 10222 20218 40073 58027 70222 877// 22243 20502 320// 40906 80219
BBXX A8KX4 04184 99258 51779 41297 81016 10227 20193 40100 54000 76086 8772/ 22274 04253 20503 309// 40904 80204
BBXX PCAM 04183 99383 31489 41597 22216 10159 20091 40180 56015 70200 8117/ 22253 20403 323// 40604 80121
BBXX PFBF 04183 99145 51735 41297 83504 10276 20254 40112 53015 78088 8/8// 22263 02286 20606 336// 40608 5//// 80260
AAXX 04184 89664 11561 81409 11032 21062 39802 49844 55003 69903 77171 885// 333 56499 82620 85630 87656 90931 91397
AAXX 04184 91413 11469 89905 10253 20233 30090 40115 57005 69931 70282 84878 333 56999 70020 555 90418
BBXX A8OK7 04184 99029 70479 41398 60617 10284 20247 40121 55004 70322 8/778 22273 20705 303// 40904 5//// 80257
BBXX A8DE3 04183 99451 50646 41998 13410 10203 20180 40169 58003 70200 80004 22282 20202 304// 40605 80188
BBXX 32012 04181 99197 50856 46/// ///// 1//// 91750 22200 11103 70016
BBXX A8GH5 04183 99137 50349 416// 50515 10285 20199 40140 56015 70222 84462 22254 04270 20301 305// 40603 80225
BBXX VRJI2 04183 99020 50311 41598 21414 10270 2024/ 40120 54000 70200 82100 22233 04270 21002 31415 41203 51203 6/00/ 80250 ICE 0////
BBXX ONFE 04184 99248 10598 436// /2918 10230 2015/ 40140 54000 7//// 8/881 22274 00220 2//// 3//// 4//// 5//// 6//// 80180 ICE 0/0//
BBXX OVYB2 04181 99204 30509 41298 81209 10276 20236 40159 52005 70222 8477/ 22214 00290 20402 31100 41004 5//// 80248
BBXX C6SI6 04184 99527 11769 46/// /2514 11023 21100 40015 56020 7//// 8//// 22223 0//// 2////
BBXX ONDY 04184 99058 10970 41597 30815 10280 2024/ 40130 51015 70211 834// 22233 00296 2//// 3//// 4//// 5//// 6//// 80250 ICE /////
BBXX C6XC2 04184 99284 11261 41498 83522 10080 20038 40270 54000 70222 8899/ 22244 00200 2//// 3//// 4//// 5//// 6//// 80060 ICE /////
BBXX 46070 04181 99551 11753 46/// /0714 11042 21061 40027 57004 91750 22200 00028 10806 20806 3//// 41101 70030 333 91217 555 11146 22153 31734 40617 61749 064137 065135 071124 072084 046022 036022 80615 91734
BBXX HZGN 04183 99111 10751 41497 53409 10280 20245 40128 51012 70122 82132 22284 02285 20300 334// 40502 5//// 80254
BBXX UFTA 04181 99845 71193 11995 83309 11238 21268 40175 57002 69902 73832 82031
BBXX WPGK 04184 99283 70727 41298 83209 10156 2007/ 40210 56023 70322 88977 22284 00239 20407 334// 40505 5//// 6//// 80111 ICE /////
BBXX KIRH 04183 99224 70705 41398 40524 10233 20146 40205 57010 7//// 8128/ 22274 00228 20706 302// 41407 5//// 6//// 80178 ICE /////
BBXX C6VQ8 04184 99230 70833 41599 20518 10170 2//// 40260 56010 70200 82/8/ 22253 00260 20303 303// 40504 5//// 6//// 8//// ICE /////
BBXX SHIP 04184 99536 71795 41/98 60812 11020 21106 40045 53050 70222 8//// 22263 00030 2//// 81263
BBXX WSRL 04183 99255 71540 41498 40515 10215 2013/ 40245 51020 702// 8/008 22274 0//// 2//// 333// 41109 5//// 6//// 80165 ICE 0/0//
BBXX VREX8 04184 99543 71742 41496 40519 11040 2108/ 40070 57050 7//22 841// 22214 0//// 29904 30505 4//05 5//// 64//4 81050 ICE 0/0//
BBXX 46238 04181 99334 71195 46/// ///// 1//// 91750 22200 00139 11304 21002 329// 41303 70019
BBXX 46239 04181 99363 71221 46/// ///// 1//// 91751 22200 00125 11305 21003 328// 41304 70024
BBXX 51205 04181 99210 71564 46/// ///// 1//// 91748 22200 00243 11408 21003 332// 41407 70040
BBXX 42099 04181 99273 70842 46/// ///// 1//// 91757 22200 00215 10502 20502 70008
BBXX 46224 04181 99332 71175 46/// ///// 1//// 91736 22200 00148 11502 21001 327// 41502 70012
BBXX 46214 04181 99379 71235 46/// ///// 1//// 91750 22200 00117 11305 21003 328// 41304 70024
BBXX 44100 04181 99363 70756 46/// ///// 1//// 91752 22200 00112 10802 20802 70012
BBXX 46232 04181 99325 71174 46/// ///// 1//// 91738 22200 00146 11404 21002 328// 41403 70018
BBXX 46215 04181 99352 71209 46/// ///// 1//// 91738 22200 00138 11304 21003 326// 41303 70021
BBXX 46229 04181 99438 71246 46/// ///// 1//// 91751 22200 00099 11309 21007 326// 41306 70046
BBXX 46225 04181 99329 71174 46/// ///// 1//// 91744 22200 00148 11502 21001 328// 41502 70012
BBXX 46213 04181 99403 71247 46/// ///// 1//// 91754 22200 00106 11205 21004 328// 41204 70027
BBXX 44099 04181 99369 70757 46/// ///// 1//// 91752 22200 00108 10602 20602 70009
BBXX 44039 04181 99411 70727 46/// /2707 11051 21116 40206 91745 22200 00075 10401 70006 333 91210
BBXX 44097 04181 99410 70711 46/// ///// 1//// 91802 22200 00107 10502 20502 70011
BBXX 44008 04181 99405 70692 46/// /3007 11038 21070 40175 57008 91750 22200 00101 10704 20503 330// 40703 70019 333 91210 555 11073 22075 31742 43010 61749 300073 312073 310075 303074 304074 307067
BBXX 51101 04181 99243 71621 46/// /0705 10209 20186 40236 53011 91750 22200 00236 11510 20401 333// 41510 70052 333 91207 555 11055 22057 31713 41110 61749 076053 082054 108049 103058 080055 085061
BBXX 46061 04181 99602 71468 46/// /3308 11011 49780 55000 91750 22200 00046 11003 20602 300// 41002 70016 333 91210 555 11086 22090 31705 43212 61749 332082 323086 323083 320086 317088 314085
BBXX 46053 04181 99342 71198 46/// /2302 10142 40253 51016 91750 22200 00141 11403 324// 41403 70017 333 91203 555 11023 22025 31749 42403 61749 231021 225019 224017 222014 219011 233011
BBXX 46083 04181 99582 71380 46/// /1706 10056 20048 49796 53023 91750 22200 00061 11106 20603 300// 41105 70028 333 91208 555 11068 22073 31722 41608 61749 168064 166068 165068 166064 165062 168056 81607 91721
BBXX 46089 04181 99459 71258 46/// /1912 10105 20104 40170 53011 91750 22200 00092 11311 20807 323// 41308 70053 333 91214 555 11125 22135 31715 41816 61749 185116 184122 185115 184119 185118 184121
BBXX 41041 04181 99142 70460 46/// /0809 10261 20195 40144 56020 91750 22200 00262 11006 20704 3//// 41004 70029 333 91211 555 11097 22104 31746 40911 61749 079092 079092 075086 078090 077089 077087 80810 91746
BBXX TBWUK42 04184 99042 10922 41698 30000 10285 20236 40114 51015 70000 83500 22213 20000 399// 40201 5//// 80251
BBXX ZCBH7 04184 99045 11062 41597 30215 10282 20271 40151 51021 70322 8/272 22213 04282 20202 305// 40202 5//// 80274
BBXX 41009 04181 99285 70802 46/// /3205 10133 20062 40280 58023 91750 22200 00219 10803 20401 300// 40802 70013 333 91207 555 11049 22050
BBXX 42057 04181 99168 70815 46/// /0211 10241 20165 40206 58017 91750 22200 00273 10806 20806 70031 333 91212 555 11105 22110 31737 40113 61749 020103 013102 014097 021098 025095 027096 80311 91748
BBXX 41010 04181 99289 70785 46/// /3504 10140 40270 58020 91750 22200 00232 10904 20401 300// 40904 70021 333 91206 555 11042 22043
BBXX 41046 04181 99238 70683 46/// /0208 10213 20126 40200 58022 91750 22200 00252 11307 20603 300// 41307 70037 333 91210 555 11085 22089 31701 43611 61749 019082 017081 014081 015087 004084 007084 80110 91713
BBXX 44011 04181 99411 70666 46/// /2809 11006 21054 40130 55000 91750 22200 00086 10806 20806 3//// 41202 70029 333 91212 555 11098 22102 31743 40912 61749 284094 294091 301088 301092 296091 303092
BBXX CGDT 04184 99463 70725 46/// /2210 11150 21183 40160 56041 7//// 8//// 22200 0//// 2////
BBXX VOFG 04184 99456 70614 46/// /3320 11025 21062 49988 55015 7//// 8//// 22200 0//// 2////
BBXX CGTF 04184 99476 70527 46/// /1308 10086 20085 49876 56104 7//// 8//// 22200 0//// 2////
BBXX CG2958 04184 99509 71279 46/// /1810 10109 20092 40057 51011 7//// 8//// 22261 0//// 2////
BBXX VOLG 04184 99457 70599 46/// /3029 11028 21030 49934 53006 7//// 8//// 22253 0//// 2////
BBXX VCBW 04184 99468 70712 46/// /2608 11166 21206 40158 56030 7//// 8//// 22200 0//// 2////
BBXX CGBR 04184 99534 71292 46/// /1117 10096 20095 49977 53009 7//// 8//// 22200 00071 2////
BBXX A8ID9 04184 99243 71266 41698 70909 10180 20139 40260 52010 70211 87702 22254 04190 20201 332// 40502 5//// 80155
BBXX CGJV 04184 99462 70636 46/// /3128 11077 21103 40049 58025 7//// 8//// 22233 00005 2////
BBXX CGSB 04184 99479 70695 46/// /2126 11157 21187 40126 56037 7//// 8//// 22233 00005 2////
BBXX CGDR 04184 99543 71303 46/// /1908 10102 20078 49946 51020 7//// 8//// 22200 00167 2////
BBXX VCWL 04184 99468 70712 46/// /2403 11170 21216 40163 56030 7//// 8//// 22200 0//// 2////
BBXX VOKJ 04184 99455 70735 46/// /1705 11125 21182 40152 58046 7//// 8//// 22200 0//// 2////
BBXX CGCC 04184 99463 70725 46/// /2210 11155 21191 40161 56040 7//// 8//// 22200 0//// 2////
BBXX VAAP 04184 99446 70627 46/// /3216 11058 21096 40019 56037 7//// 8//// 22223 0//// 2////
BBXX VOPP 04184 99456 70735 46/// /2006 11133 21184 4//// 5//// 7//// 8//// 22200 0//// 2////
BBXX CGDX 04184 99468 70712 46/// /2416 11166 21218 40158 56032 7//// 8//// 22200 0//// 2////
BBXX VCLM 04184 99468 70712 46/// /2409 11168 21209 40155 56031 7//// 8//// 22200 0//// 2////
BBXX VOKF 04184 99490 70669 46/// /2520 11113 21144 40084 57022 7//// 8//// 22200 0//// 2////
BBXX VCSZ 04184 99501 70602 46/// /0217 11070 21078 49990 56035 7//// 8//// 22253 0//// 2////
BBXX CGBN 04184 99447 70636 46/// /3124 11068 21104 40048 56013 7//// 8//// 22200 0//// 2////
BBXX VRYO3 04184 99456 70735 46/// /1708 11131 21188 40151 58045 7//// 8//// 22200 0//// 2////
BBXX CGHL 04184 99476 70527 46/// /2209 10090 20089 49876 56104 7//// 8//// 22200 0//// 2////
BBXX CGDG 04184 99447 70636 46/// /3122 11073 21097 40049 56014 7//// 8//// 22200 0//// 2////
BBXX CGBY 04184 99487 71235 46/// /0904 10090 20083 40161 51013 7//// 8//// 22200 0//// 2////
BBXX CZ9742 04184 99506 70969 46/// /3103 11008 21062 4//// 5//// 7//// 8//// 22200 0//// 2////
BBXX VXKF 04184 99470 70596 46/// /3344 11025 21036 49913 56063 7//// 8//// 22253 0//// 2////
BBXX 3FZK3 04184 99496 71272 46/// /1725 10093 20094 40106 55004 7//// 8//// 22273 0//// 2////
BBXX CGUM 04184 99447 70636 46/// /3114 11071 21111 40049 56013 7//// 8//// 22200 0//// 2////
BBXX VCRG 04184 99474 70619 46/// /3118 11043 21077 40003 57028 7//// 8//// 22200 0//// 2////
BBXX 46035 04181 99571 71778 46/// /3509 1//// 40046 57004 91750 22200 10904 20703 300// 40903 70022 333 91211 555 11086 22092 31738 43413 61749 348087 336084 325084 347067 345075 359080 83311 91738
BBXX 46082 04181 99597 71434 46/// ///// 10036 49769 53015 91750 22200 00056 10906 70031
BBXX 46041 04181 99474 71247 46/// /1813 10100 40163 53014 91750 22200 00094 11310 20506 3//// 41308 70051 333 91215 555 11134 22144 31716 41916 61749 176124 178121 174129 175128 174126 175127
BBXX 46077 04181 99579 71543 46/// /2710 11058 21146 49910 53005 91750 22200 00030 10603 20603 70015 333 91212 555 11107 22112 31655 42613 61749 270101 266093 266091 262098 263100 261101 82611 91656
BBXX 41040 04181 99145 70530 46/// /0809 10262 20213 40144 56026 91750 22200 00270 11106 20704 3//// 41104 70029 333 91210 555 11090 22096 31749 40710 61749 079085 082080 084079 087080 081080 084078 80709 91749
BBXX 46026 04181 99378 71228 46/// /3306 10122 40292 51019 91750 22200 00113 11304 20601 327// 41304 70019 333 91208 555 11070 22077 31714 42808 61749 317063 281062 282060 286059 283049 287053
BBXX 42039 04181 99288 70860 46/// /1002 10125 40299 58010 91750 22200 00225 10301 20301 70004 333 91204 555 11018 22019 31736 41104 61749 094017 088017 079022 061011 044018 028016 80703 91727
BBXX 46072 04181 99517 71722 46/// /3209 11019 21092 40004 55000 91750 22200 00040 11206 20705 3//// 41204 70029 333 91213 555 11097 22101 31719 43013 61749 323092 319091 312095 309097 306089 305086 83011 91720
BBXX 44040 04181 99410 70736 46/// /2703 11055 21137 40208 91745 22200 1//00 70001 333 91206 555 11036 22036
BBXX 44007 04181 99435 70701 46/// /2805 11061 21161 40149 58026 91750 22200 00072 10901 3//// 40901 70003 333 91206 555 11046 22048 31745 42806 61749 282045 285038 283035 282040 277034 281036
BBXX WBWK 04183 99278 71564 41297 73209 10200 2015/ 40260 52010 70222 8662/ 22262 0//// 20201 331// 40812 5//// 6//// 80167 ICE /////
BBXX DQVK 04183 99237 70733 41598 60115 10215 20134 40220 57010 70322 8446/ 22200 00260 20504 3//// 4//// 5//// 80165
BBXX PBAD 04181 99216 70706 41498 60112 10230 20126 40190 58/// 70022 86200 22274 00270 20203 332// 40607 5//// 80170
BBXX 4XFV 04183 99322 71371 43298 83119 00/// 10170 2014/ 40280 52040 7//// 876// 22224 0//// 20504 327// 40807 5//// 6//// 80150 ICE /////
BBXX 46029 04181 99461 71245 46/// /1814 10100 20098 40190 52007 91750 22200 00093 11210 20806 326// 41208 70050 333 91217 555 11151 22162 31738 41818 61749 181140 181134 179134 182131 178137 180138
BBXX 46025 04181 99337 71191 46/// /3302 10153 20136 40242 51015 91750 22200 00150 11303 20401 328// 41303 70014 333 91203 555 11027 22030 31652 43203 61749 326024 321021 334019 330020 325024 327027
BBXX 46054 04181 99342 71204 46/// /3105 10132 40253 51017 91750 22200 00128 11305 20501 300// 41305 70025 333 91206 555 11055 22060 31748 43106 61749 305051 305047 304044 302039 302033 308036
BBXX 46028 04181 99357 71219 46/// /3308 10131 40262 51019 91750 22200 00130 11405 20502 329// 41404 70023 333 91209 555 11080 22086 31719 43310 61749 325075 328076 332083 337081 337075 338079
BBXX 46087 04181 99485 71247 46/// /1913 10104 20103 40150 53021 91750 22200 00086 11307 20602 324// 41307 70035 333 91216 555 11137 22149 31719 42017 61749 189128 191132 190133 190133 187137 187131
BBXX 46027 04181 99419 71244 46/// /1606 10112 40281 53006 91750 22200 00099 11106 20602 327// 41105 70028 333 91208 555 11070 22078 31744 41608 61749 160064 160061 158055 154058 149063 149064
BBXX 46013 04181 99382 71233 46/// /3303 10114 40297 51016 91750 22200 00110 11405 20401 3//// 41405 70023 333 91203 555 11028 22032 31705 43105 61749 330026 317030 320032 321035 316037 315033
BBXX 46086 04181 99325 71180 46/// /3403 10153 40245 53019 91750 22200 00150 11505 20401 330// 41505 70024 333 91204 555 11034 22038 31708 43204 61749 344030 342029 344026 332034 323036 324032
BBXX 46069 04181 99337 71202 46/// /3204 10137 40253 51015 91750 22200 00138 11405 20401 329// 41405 70026 333 91205 555 11044 22047 31707 43108 61749 318043 314048 310053 314058 310060 310059
BBXX 46050 04181 99442 71246 46/// /1916 10100 40213 56003 91750 22200 00096 11209 21007 325// 41205 70043 333 91221 555 11175 22188 31744 41921 61749 185161 185156 184153 183138 184146 185146
BBXX 46047 04181 99324 71195 46/// /3205 10138 40253 51016 91750 22200 00135 11404 20401 329// 41404 70022 333 91206 555 11051 22055 31657 43106 61749 318047 316048 316047 316046 315046 314048
BBXX 46011 04181 99350 71210 46/// /3106 10132 40262 51016 91750 22200 00128 11405 20601 328// 41405 70024 333 91207 555 11063 22068 31711 43008 61749 309059 306058 303057 302060 302059 306055
BBXX 46012 04181 99374 71229 46/// /3308 10123 40289 53016 91750 22200 00122 11305 20302 329// 41304 70023 333 91210 555 11089 22095 31650 43211 61749 331083 327085 327084 327086 329083 327088
BBXX 44020 04181 99414 70702 46/// /2804 11063 21115 40170 91750 22200 00051 10301 20301 70003 333 91206 555 11044 22046 31705 42507 61749 278041 259043 260045 258050 260046 264039
BBXX 46088 04181 99483 71232 46/// /1702 10097 40154 91750 22200 00077 10401 20401 70004 333 91203 555 11029 22034 31738 41305 61749 165026 106035 138032 170025 155023 129028
BBXX 46014 04181 99394 71240 46/// /0501 10116 40307 53014 91750 22200 00112 11205 3//// 41205 70023 333 91203 555 11012 22015 31700 42804 61749 051008 314001 276007 269015 273026 284026
BBXX 41013 04181 99334 70777 46/// /2903 10027 21079 40279 58029 91750 22200 00149 11102 20301 310// 41102 70010 333 91205 555 11031 22031 31729 43106 61749 299028 305030 306034 295033 320029 326032
BBXX 44065 04181 99404 70737 46/// /2806 11052 21118 40203 58034 91750 22200 00085 10301 20301 70005 333 91208 555 11062 22064 31702 42910 61749 286061 283063 287065 288064 287073 288066 82808 91703
BBXX 44014 04181 99366 70748 46/// ///07 1//// 40243 58028 91750 22200 00191 10704 20603 335// 40703 70019 333 91209 555 11071 22071
BBXX 44009 04181 99385 70747 46/// /3105 11038 40243 58031 91750 22200 00089 10502 20401 300// 40501 70008 333 91207 555 11056 22057 31710 43109 61749 311054 312060 305058 307061 310057 307059
BBXX 44027 04181 99443 70673 46/// /3208 11098 21130 40113 56019 91750 22200 00073 10402 20402 70011 333 91211 555 11082 22085 31705 43313 61749 317080 315080 313087 313089 314093 310094
BBXX 41004 04181 99325 70791 46/// /2802 10065 21059 91750 22200 00193 10502 20401 3//// 40501 70008 333 91203 555 11017 22018 31654 40504 61749 291019 264011 277018 347015 274007 354018
BBXX 46105 04181 99590 71522 46/// ///// 1//// 91750 22200 10908 70038
BBXX 41036 04181 99342 70770 46/// ///// 10017 21079 40271 58034 91750 22200 00192 10802 70008
BBXX 42002 04181 99258 70937 46/// /1507 10213 20122 40272 58009 91750 22200 00245 10502 20502 3//// 40601 70010 333 91208 555 11068 22072 31718 41510 61749 149068 141072 157074 154077 160066 165065
BBXX 44066 04181 99396 70726 46/// /2907 11026 21047 40200 58025 91750 22200 00131 10503 20503 3//// 40901 70014 333 91210 555 11076 22079 31715 42812 61749 290073 288081 297080 284084 290084 287083
BBXX 46005 04181 99461 71310 46/// ///10 10097 40080 53024 91750 22200 00098 11310 20805 3//// 41308 70048 333 91212 555 11104 22111
BBXX 46075 04181 99539 71608 46/// /1817 10012 21031 49917 58051 91750 22200 00037 11107 20807 300// 41103 70037 333 91221 555 11181 22193 31745 41721 61749 177170 181160 179161 181149 181154 179147 81818 91744
BBXX 41043 04181 99211 70650 46/// /3402 10252 20214 40182 58033 91750 22200 00265 11004 20401 300// 41004 70020 333 91203 555 11017 22018 31658 43003 61749 341016 345016 333014 314013 335016 317016 83502 91744
BBXX 41049 04181 99275 70630 46/// /3308 10200 20118 40186 56019 91750 22200 00231 11309 20504 300// 41308 70045 333 91210 555 11084 22088 31715 43212 61749 333080 338086 334087 329086 332080 334085 83410 91720
BBXX 41001 04181 99347 70727 46/// ///// 10085 20024 40227 58022 91750 22200 00216 11005 70027
BBXX 46059 04181 99380 71300 46/// /2506 10143 40265 53025 91750 22200 00139 11308 20502 3//// 41307 70038 333 91208 555 11059 22064 31650 42510 61749 248056 248061 257060 256054 258070 257078
BBXX 46080 04181 99580 71500 46/// /3017 11039 21075 49851 53010 91750 22200 00045 11011 20708 3//// 41007 70054 333 91221 555 11182 22193 31749 42921 61749 298172 301167 305161 304162 305163 303164 83018 91742
BBXX 42055 04181 99222 70940 46/// /1306 10231 20126 40253 58014 91750 22200 00248 10803 20601 305// 40802 70013 333 91207 555 11063 22066 31707 41108 61749 132059 116062 119062 111065 113063 111062 81208 91718
BBXX 42003 04181 99260 70856 46/// /0603 1//// 91750 22200 10702 20401 332// 40702 70010 333 91205 555 11034 22036 31704 40606 61749 061031 051028 056038 074034 061039 079036 80705 91704
BBXX 42040 04181 99292 70882 46/// /2601 10148 40303 58006 91750 22200 00219 10401 70003 333 91203 555 11014 22014 31737 42504 61749 257016 256022 076001 147004 003004 307009
BBXX 44005 04181 99432 70691 46/// /3110 11052 21118 40138 58020 91750 22200 00078 10503 20503 3//// 41001 70014 333 91213 555 11102 22106 31745 43113 61749 311098 312097 315094 319091 317083 310085
BBXX 42056 04181 99198 70849 46/// /0307 10211 20146 40243 58014 91750 22200 00265 11105 20703 335// 41103 70024 333 91209 555 11078 22081 31654 40511 61749 026074 033066 036071 028073 034079 032081 80409 91654
BBXX 42059 04181 99151 70675 46/// /0705 10270 20214 40149 58026 91750 22200 00278 10703 20401 3//// 40703 70016 333 91206 555 11049 22051 31714 40806 61749 076046 076048 074047 073048 080049 078046 80805 91710
BBXX 42036 04181 99285 70845 46/// /0402 10107 20035 40297 58018 91750 22200 00201 10401 20401 326// 40601 70004 333 91203 555 11015 22016 31701 41005 61749 039017 058031 095031 076029 062033 086033
BBXX 42058 04181 99149 70749 46/// /0508 10266 20221 40144 58021 91750 22200 00272 10704 20703 308// 41001 70018 333 91210 555 11087 22092 31727 40510 61749 054082 054085 054085 055088 050085 048086 80509 91656
BBXX 42060 04181 99163 70635 46/// /0705 10264 20209 40154 58025 91750 22200 00274 11003 20401 300// 41002 70013 333 91206 555 11053 22055 31732 40706 61749 074050 071051 072052 072050 074048 077049 80806 91732
BBXX 41060 04181 99148 70510 46/// ///// 1//// 91750 22200 11006 70031
BBXX 42035 04181 99292 70944 46/// /0201 10167 20159 40266 58006 91750 22200 00157 10602 20401 320// 40602 70010 333 91202 555 11016 22019 31742 40102 61749 017013 001012 002011 017010 054003 126002
BBXX 42012 04181 99301 70876 46/// /0603 10107 20057 40303 58009 91750 22200 00182 10301 20301 70003 333 91205 555 11035 22036 31656 40606 61749 059034 057038 054040 059042 060041 061047
BBXX 42001 04181 99259 70897 46/// /1302 10184 20084 40293 58015 91750 22200 00242 10702 20401 3//// 40702 70012 333 91203 555 11018 22019 31726 41604 61749 135018 109019 161023 148015 137011 105013
BBXX 42065 04181 99170 70817 46/// /0109 10236 20151 91750 22200 10805 20805 70025 333 91212 555 11096 22103 31724 43612 61749 013091 015091 006099 012097 018094 014089 80111 91717
BBXX 41048 04181 99320 70696 46/// /3309 10138 20050 40213 58012 91750 22200 00215 11212 20705 3//// 41211 70058 333 91212 555 11093 22097 31650 43114 61749 327093 327089 322099 316094 313100 321109 83212 91651
BBXX 46084 04181 99566 71361 46/// ///// 10058 20054 49819 51037 91750 22200 00072 11107 70034
BBXX 41044 04181 99217 70587 46/// /1607 10258 20203 40178 56025 91750 22200 00258 11005 20603 300// 41004 70025 333 91208 555 11070 22075 31725 41509 61749 157067 152066 155071 150073 149072 148070 81508 91725
BBXX 42020 04181 99270 70967 46/// /2004 10206 20157 40253 50000 91750 22200 00218 10502 20401 315// 40502 70010 333 91205 555 11043 22044 31650 41708 61749 196041 192044 191044 190049 185050 174065
BBXX 46002 04181 99426 71305 46/// ///// 10130 40167 53025 91750 22200 00118 11309 70046
BBXX 46006 04181 99408 71375 46/// /2813 10096 40182 53045 91750 22200 00120 11212 20807 3//// 41210 70062 333 91219 555 11142 22151 31742 42819 61749 281135 250134 258118 238128 237124 234132
BBXX 41047 04181 99275 70715 46/// /3506 10169 40233 56022 91750 22200 00249 11109 20402 333// 41109 70045 333 91209 555 11058 22060 31719 43612 61749 348062 342074 357071 353092 351078 355083 83510 91713
BBXX NWS0022 04184 99416 70714 43/// /2503 11015 21167 40173 5//// 7//// 8//// 222// 04085 2//// 3//// 4//// 5//// 6//// 8//// ICE /////
BBXX C6TQ6 04184 99174 70881 41898 30219 10240 20211 40260 54000 70211 83131 22200 00260 20402 30236 40402 50402 6//// 80220 ICE /////
BBXX VRCI9 04184 99539 71547 41498 13415 11010 21039 49990 52045 70110 814// 22264 00038 20604 332// 40906 81020
BBXX VSXC9 04184 99289 70495 41598 42421 10260 20202 40260 56010 70211 842// 22264 20401 318// 40506 80220
BBXX A8TG2 04183 99250 71390 41798 50908 10250 20151 40250 52020 70222 82545 22263 20102 307// 40102 5//// 80190
BBXX A8FU7 04181 99106 70794 41498 60209 10280 20252 40155 56015 70211 85100 22245 00273 29902 308// 4//02 5//// 80260
BBXX A8SE8 04184 99271 70521 41498 31623 10240 20185 40210 56010 7//00 82470 22214 00255 20705 80205
BBXX WFLG 04183 99250 71492 41397 80313 10206 20197 40255 52020 72052 8889/ 22254 00189 20603 329// 41006 5//// 6//// 80200 ICE /////
BBXX 9HJF9 04184 99230 70838 41698 50420 1//// 2//// 40260 54000 7//00 85/// 22214 00180 20404 3//// 40306 50306 6//// 8//// ICE /////
BBXX 9HXD9 04184 99204 70869 41598 60615 10227 2//// 40220 56010 70322 85181 22200 00279 2//// 3//// 4//// 5//// 6//// 8//// ICE /////
BBXX ELWR5 04183 99135 70745 41698 30520 10275 20211 40150 54000 70211 82245 22214 04280 20704 305// 41004 80230
BBXX CG2960 04184 99429 70824 46/// /1802 11006 21070 40119 58040 7//// 8//// 22200 0//// 2////
BBXX CG2350 04184 99433 70798 46/// /2421 11005 21065 40113 58041 7//// 8//// 22200 0//// 2////
BBXX CGDS 04184 99429 70792 46/// /3022 11016 21058 40127 58044 7//// 8//// 22200 0//// 2////
BBXX TBWUK47 04184 99359 70272 41398 61915 10170 20138 40281 56004 70211 82770 22264 04205 20203 332// 40406 80152
BBXX PDZS 04183 99629 50606 41397 82505 10026 21003 49880 57012 70222 886// 22241 02025 20201 300// 4//// 5//// 80014
BBXX WBP3210 04184 99691 51357 43/// /2521 11012 2//// 49647 5//// 7//// 8//// 22252 01010 2//// 3//// 4//// 5//// 6//// ICE /////
BBXX WCX7445 04184 99648 50641 43/// /2705 10020 2//// 49825 5//// 7//// 8//// 22261 00000 2//// 3//// 4//// 5//// 6//// ICE /////
BBXX 5BDK2 04184 99071 70805 43/// 10524 10280 2025/ 40170 56020 7//// 8//// 22263 00270 20602 311// 41002 511// 6//// 80260 ICE /////
BBXX WJBJ 04183 99078 70842 41398 52612 10280 2024/ 40122 57010 70222 85231 22264 00287 20101 327// 40202 5//// 6//// 80250 ICE /////
AAXX 04184 89664 11561 81409 11032 21062 39802 49844 55003 69903 77171 885// 333 56499 82620 85630 87656 90931 91397
BBXX V2AN5 04181 99296 11224 41896 23507 10041 21041 40319 58011 70200 81017 22200 20301 335// 40503 5//// 80010
AAXX 04184 16622 12460 11005 10032 20022 30195 40206 51002 60002 81600 333 10090 90730 91107 555 10000 41018 30000 10044 2//// 30054 4//// 5//// 40000 47676 44210 50000 50028
AAXX 04184 16641 NIL
AAXX 04184 16682 12560 10000 10074 20061 30167 40186 57004 60002 81100 333 10144 90730 91106 555 10000 40026 30000 10095 20105 30106 40100 50106 60165 40000 47655 44190 50000 50068
AAXX 04184 16716 12565 50000 10106 20082 30173 40191 56002 60002 85800 333 10142 82825 84630 555 10000 40074 40000 47658 44180 50000 50094
AAXX 04184 16734 NIL
AAXX 04184 16743 NIL
AAXX 04184 16749 12460 51803 10116 20061 30182 40196 57001 60002 84850 333 10146 81818 84625 90730 91106 555 10000 40090 40000 47670 44220 50000 50090
AAXX 04184 16754 12560 32006 10084 20053 30150 40198 57001 60002 82240 333 10146 82820 83358 90730 91109 555 10000 40056 40000 47643 44190 50000 50070
AAXX 04184 91925 02582 10508 10289 20206 30099 40159 51013 60001 81200 333 56100 60007 81830 90710 91116 555 60005 10216 58004
AAXX 04184 91929 04585 /0105 10284 20224 30139 40142 51009 69922 700// 333 10284 20238 69927 90710 91108 555 60005
AAXX 04184 91938 01570 10608 10287 20212 30142 40144 51008 60012 701// 81200 333 10287 20243 60007 81820 90710 91112 555 60005 10712 59014
AAXX 04184 91943 36/// /0305 10279 20217 30154 40156 51012 333 10279 59002
AAXX 04184 91944 06/// /0110 10280 20208 30146 40149 50004 60002 333 10280 20257 60007 90710 91112 555 60005
AAXX 04184 91948 02582 23605 10272 20195 30057 40158 50002 60001 82100 333 56200 60007 82820 90710 91114 555 60005 13414 59013
AAXX 04184 91954 06/// /2917 10259 20239 30109 40112 51012 60061 333 60067 555 59036
AAXX 04184 91958 01450 83117 10236 20219 30088 40090 51006 60061 76186 888// 333 56799 60067 86813 88640 90710 91142 555 60065 13145 59061
AAXX 04184 91945 NIL
BBXX 531076 04181 99560 10056 41296 72718 10060 49957 58040 75152 8777/ 22271 04110 20810 3//// 4//// 5////
AAXX 04184 47101 32960 00001 11133 21155 30199 40303 52015
AAXX 04184 47105 369// /2509 11052 21170 30219 40253 52014
AAXX 04184 47108 32960 02703 11091 21146 30186 40299 52009
AAXX 04184 47115 41565 63605 11006 21065 39942 40222 51010 78582 86800 333 92042
AAXX 04184 47133 41558 63401 11058 21093 30215 40305 52015 78588 86800
AAXX 04184 47138 32965 02506 11039 21111 30256 40259 52009 333 92032
AAXX 04184 47159 32962 03609 11045 21138 30164 40254 50003 333 92023
AAXX 04184 47165 41550 60504 11015 21030 30245 40294 52007 78582 86800 333 92032
AAXX 04184 47168 32970 03415 11028 21103 30197 40280 52012 333 92024
AAXX 04184 47184 41564 73411 10029 21018 30264 40290 51004 78588 87800 333 92054
AAXX 04184 47090 32965 02705 11050 21178 30225 40248 52013 333 92042
AAXX 04184 47095 31950 00001 11154 21177 30098 40305 52011 71000
AAXX 04184 47097 329// /2502 11105 21149 30199 40303 52014
AAXX 04184 47098 329// /0001 11127 21149 30154 40300 52012
AAXX 04184 47099 329// /0000 11143 21158 30261 40301 52010
AAXX 04184 47100 32962 02304 11157 21185 39307 40302 52021
AAXX 04184 47102 32670 62908 11043 21099 30111 40298 53006 86500
AAXX 04184 47104 32967 01407 11068 21165 30149 40252 52015
AAXX 04184 47106 329// /2008 11045 21152 30199 40251 52012
AAXX 04184 47112 32965 03406 11060 21131 30209 40298 52009 333 92012
AAXX 04184 47114 31958 00902 11108 21148 30103 40300 52015 70500
AAXX 04184 47119 31957 02001 11099 21125 30256 40301 52011 71000
AAXX 04184 47121 329// /2901 11125 21140 39984 40302 52016
AAXX 04184 47127 329// /0902 11111 21140 30152 40305 52013
AAXX 04184 47129 32670 63406 11030 21084 30266 40303 53007 86500
AAXX 04184 47130 32962 02306 11054 21154 30186 40251 52011 333 92032
AAXX 04184 47131 32665 22702 11073 21127 30227 40302 52011 81500
AAXX 04184 47135 329// /2508 11064 21099 39979 40295 52017
AAXX 04184 47136 32962 00201 11079 21131 30101 40284 52010
AAXX 04184 47137 329// /2506 11066 21130 30168 40294 52016
AAXX 04184 47140 32663 60902 11053 21088 30271 40301 52011 85500 333 92011
AAXX 04184 47143 32961 02904 11048 21116 30211 40294 52011
AAXX 04184 47145 32660 42002 11104 21130 30265 40293 52008 84500
AAXX 04184 47146 32668 63604 11040 21106 30233 40302 52013 85500
AAXX 04184 47150 32670 60204 11043 21091 30275 40295 52009 86500
AAXX 04184 47152 32965 03411 11039 21125 30214 40259 52015
AAXX 04184 47154 329// /3602 11060 21117 30226 40290 52011
AAXX 04184 47155 32963 01109 11034 21116 30224 40272 50009
AAXX 04184 47156 32665 50503 11045 21061 30204 40298 52011 85500
AAXX 04184 47157 32965 03403 11094 21126 39995 40284 52012
AAXX 04184 47162 32970 00507 11030 21107 30231 40273 51011 333 92023
AAXX 04184 47169 41665 53418 10016 21031 30194 40291 54000 72682 85500 333 92064
AAXX 04184 47170 41665 53405 11009 21044 30244 40289 50002 72682 85500 333 92022
AAXX 04184 47171 329// /1102 11067 21085 30243 40301 51012
AAXX 04184 47172 329// /0001 11050 21066 30224 40294 52014
AAXX 04184 47173 329// /0001 11106 21120 30185 40305 52017
AAXX 04184 47174 32662 33205 11053 21085 30076 40289 51011 83500
AAXX 04184 47175 32568 63413 11038 21052 39690 40289 50003 86500 333 92035
AAXX 04184 47185 32570 63224 10041 21036 30191 40284 53004 86800 333 92056
AAXX 04184 47188 32570 53204 10022 21023 30257 40280 50001 85800 333 92032
AAXX 04184 47189 32570 63605 10015 21024 30209 40271 56003 85800 333 92033
AAXX 04184 47192 32962 00701 11083 21117 30242 40282 50011
AAXX 04181 38353 429// 02501 11026 21074 39289 40214 52003 333 10071
AAXX 04181 38613 429// 60201 11022 21061 40210 51008 80002 333 10035
AAXX 04181 38616 425// 71401 11030 21080 39157 40203 51008 86501 333 10028
AAXX 04181 38345 32998 80000 11057 21100 38767 48462 52001 8802/ 333 10046
AAXX 04181 36911 429// 80901 11024 21034 39213 40199 52003 80006 333 10077
AAXX 04181 36974 329// 01201 11174 21200 37568 48547 52024 333 11115
AAXX 04181 36982 429// 10000 11221 21271 36472 47136 53002 80001 333 11130
BBXX LAHV 04181 99589 10057 43/// /2503 10052 20005 49838 222// 04081 1////
BBXX LDGJ 04181 99603 10053 43/// /1304 10030 21007 49808 5//// 222/0 04063 1//// 3//// 4//// 5////
BBXX LF4H 04184 99596 10022 46/// /2111 10043 20010 49799 57054 8//// 22200 06080 10706 70031 333 91127
BBXX LMEL 04181 99603 10053 43/// /1205 10027 21008 49806 5//// 222/0 04066 1//// 3//// 4//// 5////
AAXX 04181 76055 32980 03312 10222 21037 30217 40236 52014 91740 333 10292 20136 30/// 58008
AAXX 04181 76056 06/// /3310 10235 21067 30227 40250 51013 60002 7//// 8//// 91750 333 0//// 10235 20136 30/// 4//// 54/// 56/// 57/// 58011 60007 8//// 8//// 8//// 9//// 9//// 9//// 44
AAXX 04181 76061 32981 03603 10174 20070 30182 40257 52016 91740 333 10176 20130 30/// 58006
AAXX 04181 76122 32970 03611 10130 20011 38639 40310 52019 91750 333 10132 21009 30/// 58006
AAXX 04181 76123 06/// 03503 10155 21063 3//// 4//// 5//// 60002 7//// 8//// 91750 333 0//// 10155 21022 56/// 57/// 5//// 60007 8//// 8//// 8//// 8//// 9//// 9//// 9//// 444 ///// 555
AAXX 04181 76220 32958 00000 10076 20015 38229 40359 52001 91750 333 10076 21064 30/// 59026
AAXX 04181 76225 32960 00202 10154 21020 38714 40264 52016 91735 333 10154 20032 30/// 59009
AAXX 04181 76256 32980 03203 10250 20058 30199 40213 52009 91745 333 10266 20159 30/// 59014
AAXX 04181 76258 32970 03403 10230 20071 30153 40199 50002 91750 333 10232 20092 30/// 56000 59015
AAXX 04181 76305 32970 40402 10258 20072 30199 40207 52004 82014 91740 333 10262 20180 30/// 56056 59010 82460
AAXX 04181 76323 32970 20201 10182 21028 38253 40327 52008 80002 91740 333 10182 20040 30/// 59028 82268
AAXX 04181 76373 32670 30000 10155 21024 38272 40233 57010 81470 91750 333 10163 21023 30/// 56909 58031 81627 82357
AAXX 04181 76382 32980 70701 10184 20094 38977 40257 52002 80006 91750 333 10202 20064 30/// 56007 59045 87076
AAXX 04181 76390 32970 11805 10182 21013 38291 40251 52001 80004 91730 333 10194 20040 30/// 56008 59036 81070
AAXX 04181 76393 32950 10401 10230 20078 39638 40227 57006 81030 91755 333 10238 20070 30/// 56080 59098
AAXX 04181 76402 31957 00000 10246 20162 30147 40204 52002 70544 91745 333 10246 20120 30/// 59004
AAXX 04181 76423 32680 40000 10162 20004 38213 40266 57011 81054 91750 333 10170 20016 30/// 56099 59034 81357 83067
AAXX 04181 76458 32964 02602 10235 20175 30185 40189 57003 91745 333 10268 20148 30/// 59004
AAXX 04181 76471 32980 00101 10166 21067 37748 40229 57005 91755 333 10172 20029 30/// 59032
AAXX 04181 76490 06/// /0402 10221 20049 39837 40224 58007 60002 7//// 8//// 91750 333 0//// 10224 20040 30/// 54/// 56/// 57/// 59101 60007 8//// 8//// 8//// 8//// 9//// 9//// 9//// 44
AAXX 04181 76491 32960 03601 10210 20095 39855 40262 57004 91750 333 10216 20026 30/// 59106
AAXX 04181 76499 32960 01103 10266 20125 30208 40230 57007 91740 333 10267 20058 30/// 59105
AAXX 04181 76519 32560 13401 10156 20033 38427 40291 57001 80002 91745 333 10162 20030 30/// 56006 59018 81070
AAXX 04181 76525 32980 13004 10102 21053 37518 40234 52004 80001 91740 333 10102 20050 30/// 56//5 59021 81080
AAXX 04181 76538 06/// /1203 10167 20008 38214 40188 58009 60002 7//// 8//// 91750 333 0//// 10167 21016 30/// 4//// 54/// 56/// 57/// 59041 60007 8//// 8//// 8//// 9//// 9//// 9//// 44
AAXX 04181 76539 31962 01501 10130 20014 38217 40309 57012 70544 91745 333 10155 21030 30/// 59042
AAXX 04181 76543 32975 01703 10245 20113 30227 40260 58016 91745 333 10247 20126 31/// 59094
AAXX 04181 76547 06/// /2002 10233 20129 30238 40250 58013 60002 7//// 8//// 91750 333 0//// 10235 20131 56/// 57/// 59088 60007 8//// 8//// 8//// 8//// 9//// 9//// 9//// 444 ///// 555
AAXX 04181 76548 32975 02002 10224 20138 30255 40265 58008 91745 333 10228 20128 30/// 59087
AAXX 04181 76556 32970 11603 10264 20057 39168 40202 52004 80008 91435 333 10266 20124 30/// 59013 81270
AAXX 04181 76571 32975 00000 10168 20032 38221 40268 56007 91748 333 10172 20030 30/// 59028
AAXX 04181 76577 32970 12304 10151 20106 38092 40257 58005 80005 91740 333 10157 20040 30/// 56005 59024
AAXX 04181 76578 06/// /2003 10155 20006 38087 40188 58009 60002 7//// 8//// 91750 333 0//// 10155 20040 30/// 4//// 54/// 56/// 57/// 59022 60007 8//// 8//// 8//// 9//// 9//// 9//// 44
AAXX 04181 76581 32970 03003 10170 20086 39130 40283 57021 91750 333 10180 20020 30/// 59089
AAXX 04181 76592 06/// /0511 10237 20101 30264 40264 58018 60002 7//// 8//// 91750 333 0//// 10246 20137 30/// 4//// 54/// 56/// 57/// 59024 60007 8//// 8//// 8//// 9//// 9//// 9//// 44
AAXX 04181 76593 32370 30505 10234 20202 30263 40265 57018 81130 91750 333 10246 20134 30/// 5611/ 59025 81820 82330 91006 91505
AAXX 04181 76612 32962 31001 10192 20046 38533 40242 58005 80001 91750 333 10199 20070 30/// 56005 59024 83072
AAXX 04181 76625 32950 02901 10151 20039 38193 40242 56008 91740 333 10151 20055 30/// 59028
AAXX 04181 76632 31550 62003 10134 20064 37665 40218 57001 70522 83409 91745 333 10142 20042 30/// 56305 59032 83628 83170 98550
AAXX 04181 76634 31570 43204 10186 20061 37886 40263 57012 71011 81104 91750 333 10192 20014 30/// 560/3 59045 81827 83077 99020
AAXX 04181 76641 06/// /2301 10237 20154 30243 40255 58018 60002 7//// 8//// 91750 333 0//// 10239 20132 30/// 4//// 54/// 56/// 57/// 59090 60007 8//// 8//// 8//// 8//// 9//// 9//// 9/
AAXX 04181 76644 32460 30202 10246 20119 30247 40259 57031 81181 91750 333 10250 20105 30/// 56119 58023 81810
AAXX 04181 76645 06/// /0703 10245 20106 30251 40264 58024 60002 7//// 8//// 91750 333 0//// 10246 20099 30/// 4//// 54/// 56/// 57/// 59024 60007 8//// 8//// 8//// 9//// 9//// 9//// 44
AAXX 04181 76648 06/// /0203 10259 20100 30225 40256 58019 60002 7//// 8//// 91750 333 0//// 10266 20105 30/// 4//// 54/// 56/// 57/// 59019 60007 8//// 8//// 8//// 8//// 9//// 9//// 9/
AAXX 04181 76654 31956 12302 10308 20163 30194 40198 52004 70544 80001 91755 333 10308 20221 30/// 5600/ 58013 81070
AAXX 04181 76658 31560 31802 10299 20129 39678 40185 56013 70541 81202 91748 333 10310 20173 30/// 56101 59003 81824 82070 94022 98924
AAXX 04181 76662 32670 63401 10182 20081 38516 40238 57004 81104 91735 333 10194 20056 30/// 56/0/ 59025 81833 85070
AAXX 04181 76665 31962 43401 10180 20068 38168 40238 57013 70300 80006 91750 333 10190 20050 30/// 56005 59020
AAXX 04181 76675 31565 52902 10161 20011 37407 40204 57008 70544 81204 91753 333 10167 21013 30/// 569/9 59023 81826 98465
AAXX 04181 76680 31560 50502 10154 20059 37791 40184 57010 70334 82801 91750 333 10155 20055 30/// 56808 59030 82825 83060
AAXX 04181 76681 31950 20000 10172 20085 37818 40221 57013 70510 82030 91745 333 10172 20020 30/// 58/// 82458
AAXX 04181 76683 32668 60901 10164 20080 37860 40275 56016 81137 91745 333 10175 20012 30/// 56225 59029 81840 81360 84280 99021
AAXX 04181 76684 02/// ///// 1//// 2//// 3//// 4//// 5//// 6//// 7//// 8//// 9//// 333 0//// 1//// 2//// 30/// 4//// 54/// 56/// 57/// 5//// 6//// 8//// 8//// 8//// 9//// 9//// 9//// 44
AAXX 04181 76685 31550 43601 10180 20019 37909 40241 57006 70544 81105 91750 333 10182 20030 30/// 56909 59021 81827 83277
AAXX 04181 76687 31568 50901 10165 20087 38749 40287 58007 70211 83205 91738 333 10167 20050 30/// 563/6 59054 82832 81630 82070
AAXX 04181 76692 31556 72402 10222 20148 30248 40267 57002 70222 865/1 91745 333 10227 20164 30/// 563/5 59062 86623
AAXX 04181 76695 32960 30303 10233 20109 30242 40248 57020 83005 91748 333 10238 20104 56//0 59030 83077 91006 91505
AAXX 04181 76698 32560 30401 10247 20165 30146 40258 57019 83200 91755 333 10255 20120 30/// 56100 59010 83820
AAXX 04181 76727 06/// /1501 10190 20028 38443 40163 58014 60002 7//// 8//// 91750 333 0//// 10201 20083 30/// 4//// 54/// 56/// 57/// 59021 60007 8//// 8//// 8//// 9//// 9//// 9//// 44
AAXX 04181 76737 31480 41402 10164 20111 38842 40267 57010 70322 82207 91735 333 10172 20069 30/// 56209 59055 82813 91104 91514 99021
AAXX 04181 76738 06/// /1402 10171 20092 38842 40229 58012 60002 7//// 8//// 333 10176 20064 30/// 56/// 57/// 59056 60007 8//// 8//// 8//// 8//// 9//// 9//// 9//// 444 ///// 555 30179
AAXX 04181 76743 31/58 50001 10227 20188 30239 40247 57016 70211 85//1 91750 333 10250 20187 30/// 56//0 59038 850//
AAXX 04181 76750 32560 73602 10250 20134 30243 40254 57018 84230 91750 333 10258 20134 30/// 56110 59009 84820 83357
AAXX 04181 76751 06/// /0103 10240 20137 30243 40254 58018 60002 7//// 8//// 91750 333 0//// 10251 20134 30/// 4//// 54/// 56/// 57/// 59009 60007 8//// 8//// 8//// 9//// 9//// 9//// 44
AAXX 04181 76762 32704 63303 10216 20171 38811 40214 58015 83024 91750 333 10218 20130 30/// 56066 59028 83450 83060 91206
AAXX 04181 76772 06/// /1501 10202 20055 38473 40179 58018 60002 7//// 8//// 91750 333 0//// 10205 20027 30/// 4//// 56/// 57/// 59026 60007 8//// 8//// 8//// 9//// 9//// 9//// 444 ////
AAXX 04181 76773 31968 72301 10186 20098 38473 40233 57016 70544 80006 91748 333 10188 20025 30/// 56009 59024 87268
AAXX 04181 76775 31970 40901 10199 20052 38576 40266 57017 70300 80004 91730 333 10202 20042 30/// 56002 59027
AAXX 04181 76776 06/// /1001 10197 20039 38556 40180 58023 60002 7//// 8//// 91750 333 0//// 10197 20033 30/// 4//// 56/// 57/// 59030 60007 8//// 8//// 8//// 9//// 9//// 9//// 444 ////
AAXX 04181 76805 32570 70201 10294 20216 30167 40172 58003 81206 91750 333 10362 20220 30/// 566/6 58022 81830 84265 82068
AAXX 04181 76806 06/// /3601 10300 20204 30174 40178 58006 60002 7//// 8//// 91750 333 10301 20214 30/// 56/// 57/// 58019 60007 8//// 8//// 8//// 8//// 9//// 9//// 9//// 555 30272
AAXX 04181 76833 32970 03612 10266 20172 30187 40189 57012 91745 333 10266 20210 30/// 59014 92001
AAXX 04181 76840 32950 10305 10266 20152 30125 40182 57008 80004 91745 333 10280 20210 30/// 56006 59014 81070
AAXX 04181 76843 32565 10202 10227 20117 39561 40219 57019 81100 91730 333 10239 20135 30/// 569// 59034 81830
AAXX 04181 76845 32960 00603 10172 20087 37978 40261 56017 91745 333 10178 20028 30/// 59034
AAXX 04181 76848 32970 00502 10176 20018 38424 40185 58020 91755 333 10176 20073 30/// 59026
AAXX 04181 76902 06/// /2702 10303 20192 30028 40164 58015 60002 7//// 8//// 91750 333 0//// 10325 20225 30/// 4//// 54/// 56/// 57/// 58017 60007 8//// 8//// 8//// 8//// 9//// 9//// 9/
AAXX 04181 76903 32580 42803 10320 20212 30032 40162 57012 84200 91740 333 10332 20220 30/// 56600 58019 84833
AAXX 04181 76160 32962 00201 10224 20029 39970 40219 52007 91730 333 10224 20105 30/// 59010
AAXX 04181 76243 32974 03604 10144 20044 39963 40268 52020 91730 333 10156 20028 30/// 59072
AAXX 04181 76253 32982 00505 10244 20084 30138 40228 51009 91755 333 10265 20120 30/// 59003 92002
AAXX 04181 76311 32980 00000 10246 20101 39909 40191 52003 91745 333 10251 20101 30/// 59012
AAXX 04181 76405 32980 00000 10260 20144 30194 40216 52009 91750 333 10262 20138 30/// 59002
AAXX 04181 76412 31966 02201 10252 20122 30161 40205 52017 70544 91745 333 10256 20130 30/// 58012
AAXX 04181 76585 32680 10000 10191 20139 30086 40247 58014 81100 91740 333 10210 20094 30/// 562// 59096 81833
AAXX 04181 76640 31458 41402 10202 20155 30262 40274 57011 70111 8323/ 91740 333 10214 20132 30/// 5629/ 59092 83820
AAXX 04181 76647 32670 30502 10253 20124 30242 40273 57015 82230 91750 333 10255 20105 30/// 561/0 59015 82850
AAXX 04181 76656 32975 43601 10205 20070 38561 40232 58003 80008 91750 333 10212 20065 30/// 56005 59024 84280
AAXX 04181 76741 31370 51403 10234 20167 30222 40239 57009 70544 83230 91730 333 10256 20166 30/// 56/// 59042 83810
AAXX 04181 76855 32580 62201 10310 20224 30099 40149 50003 81238 91745 333 10318 20198 30/// 56999 58001 81820 82359 92001
AAXX 04181 15502 12970 20000 10002 20002 30128 40168 53003 60002 82050 333 10114 21028 555 500//
AAXX 04181 15525 12970 02302 10050 20036 39903 40171 53004 60002 333 10140 20014 555 590//
AAXX 04181 15528 12969 01401 10066 20035 39953 40143 55000 60002 333 10140 20012 555 581//
AAXX 04181 15535 12970 00000 10058 20024 30102 40149 57004 60002 333 10135 20028 555 579//
AAXX 04181 15549 12970 01602 10063 20022 39750 40168 57005 60002 333 10122 20028 555 575//
AAXX 04181 15552 12960 00000 10040 20025 30116 40166 57002 60002 222// 2//00 314// 4//00 333 10145 20034 555 590// 92012 92417
AAXX 04181 15614 11956 00000 11028 21036 39478 40211 52004 60002 71000 333 10032 21065 44004 555 593//
AAXX 04181 15615 11988 02706 11072 21125 37100 47035 57003 60002 70200 333 11007 21072 555 566//
AAXX 04181 15626 11920 00000 11026 21036 30005 40202 53003 60002 71000 333 10020 21082 43003 555 593//
AAXX 04181 15627 11989 03206 11019 21068 37640 47074 57010 60002 70200 333 10009 21019 44033 555 569//
AAXX 04181 15640 11903 00000 10012 21016 39876 40198 54000 60002 74640 333 10085 20001 555 581//
AAXX 04181 15655 12968 02506 10043 20033 30142 40176 53002 60002 222// 00077 20000 333 10094 20007 555 593// 92015 92417
AAXX 04181 15712 12962 03203 10014 21002 39940 40198 56000 60002 333 10071 21050 41001 555 589//
AAXX 04181 15730 11930 00000 10041 20019 39788 40186 56006 60002 71011 333 10098 21051 41/// 555 585//
AAXX 04181 14240 11665 83201 10071 20061 30038 40194 52030 60012 76062 885// 333 10124
AAXX 04181 14258 11660 80304 10070 20051 30006 40196 52033 69922 76122 8802/ 333 10130
AAXX 04181 14445 11570 60602 10115 20071 30015 40169 53004 69912 7026/ 86800 333 10135 86695 92311
AAXX 04181 76055 32980 03312 10222 21037 30217 40236 52014 91740 333 10292 20136 30/// 58008
AAXX 04181 76056 06/// /3310 10235 21067 30227 40250 51013 60002 7//// 8//// 91750 333 0//// 10235 20136 30/// 4//// 54/// 56/// 57/// 58011 60007 8//// 8//// 8//// 9//// 9//// 9//// 44
AAXX 04181 76061 32981 03603 10174 20070 30182 40257 52016 91740 333 10176 20130 30/// 58006
AAXX 04181 76122 32970 03611 10130 20011 38639 40310 52019 91750 333 10132 21009 30/// 58006
AAXX 04181 76123 06/// 03503 10155 21063 3//// 4//// 5//// 60002 7//// 8//// 91750 333 0//// 10155 21022 56/// 57/// 5//// 60007 8//// 8//// 8//// 8//// 9//// 9//// 9//// 444 ///// 555
AAXX 04181 76220 32958 00000 10076 20015 38229 40359 52001 91750 333 10076 21064 30/// 59026
AAXX 04181 76225 32960 00202 10154 21020 38714 40264 52016 91735 333 10154 20032 30/// 59009
AAXX 04181 76256 32980 03203 10250 20058 30199 40213 52009 91745 333 10266 20159 30/// 59014
AAXX 04181 76258 32970 03403 10230 20071 30153 40199 50002 91750 333 10232 20092 30/// 56000 59015
AAXX 04181 76305 32970 40402 10258 20072 30199 40207 52004 82014 91740 333 10262 20180 30/// 56056 59010 82460
AAXX 04181 76323 32970 20201 10182 21028 38253 40327 52008 80002 91740 333 10182 20040 30/// 59028 82268
AAXX 04181 76373 32670 30000 10155 21024 38272 40233 57010 81470 91750 333 10163 21023 30/// 56909 58031 81627 82357
AAXX 04181 76382 32980 70701 10184 20094 38977 40257 52002 80006 91750 333 10202 20064 30/// 56007 59045 87076
AAXX 04181 76390 32970 11805 10182 21013 38291 40251 52001 80004 91730 333 10194 20040 30/// 56008 59036 81070
AAXX 04181 76393 32950 10401 10230 20078 39638 40227 57006 81030 91755 333 10238 20070 30/// 56080 59098
AAXX 04181 76402 31957 00000 10246 20162 30147 40204 52002 70544 91745 333 10246 20120 30/// 59004
AAXX 04181 76423 32680 40000 10162 20004 38213 40266 57011 81054 91750 333 10170 20016 30/// 56099 59034 81357 83067
AAXX 04181 76458 32964 02602 10235 20175 30185 40189 57003 91745 333 10268 20148 30/// 59004
AAXX 04181 76471 32980 00101 10166 21067 37748 40229 57005 91755 333 10172 20029 30/// 59032
AAXX 04181 76490 06/// /0402 10221 20049 39837 40224 58007 60002 7//// 8//// 91750 333 0//// 10224 20040 30/// 54/// 56/// 57/// 59101 60007 8//// 8//// 8//// 8//// 9//// 9//// 9//// 44
AAXX 04181 76491 32960 03601 10210 20095 39855 40262 57004 91750 333 10216 20026 30/// 59106
AAXX 04181 76499 32960 01103 10266 20125 30208 40230 57007 91740 333 10267 20058 30/// 59105
AAXX 04181 76519 32560 13401 10156 20033 38427 40291 57001 80002 91745 333 10162 20030 30/// 56006 59018 81070
AAXX 04181 76525 32980 13004 10102 21053 37518 40234 52004 80001 91740 333 10102 20050 30/// 56//5 59021 81080
AAXX 04181 76538 06/// /1203 10167 20008 38214 40188 58009 60002 7//// 8//// 91750 333 0//// 10167 21016 30/// 4//// 54/// 56/// 57/// 59041 60007 8//// 8//// 8//// 9//// 9//// 9//// 44
AAXX 04181 76539 31962 01501 10130 20014 38217 40309 57012 70544 91745 333 10155 21030 30/// 59042
AAXX 04181 76543 32975 01703 10245 20113 30227 40260 58016 91745 333 10247 20126 31/// 59094
AAXX 04181 76547 06/// /2002 10233 20129 30238 40250 58013 60002 7//// 8//// 91750 333 0//// 10235 20131 56/// 57/// 59088 60007 8//// 8//// 8//// 8//// 9//// 9//// 9//// 444 ///// 555
AAXX 04181 76548 32975 02002 10224 20138 30255 40265 58008 91745 333 10228 20128 30/// 59087
AAXX 04181 76556 32970 11603 10264 20057 39168 40202 52004 80008 91435 333 10266 20124 30/// 59013 81270
AAXX 04181 76571 32975 00000 10168 20032 38221 40268 56007 91748 333 10172 20030 30/// 59028
AAXX 04181 76577 32970 12304 10151 20106 38092 40257 58005 80005 91740 333 10157 20040 30/// 56005 59024
AAXX 04181 76578 06/// /2003 10155 20006 38087 40188 58009 60002 7//// 8//// 91750 333 0//// 10155 20040 30/// 4//// 54/// 56/// 57/// 59022 60007 8//// 8//// 8//// 9//// 9//// 9//// 44
AAXX 04181 76581 32970 03003 10170 20086 39130 40283 57021 91750 333 10180 20020 30/// 59089
AAXX 04181 76592 06/// /0511 10237 20101 30264 40264 58018 60002 7//// 8//// 91750 333 0//// 10246 20137 30/// 4//// 54/// 56/// 57/// 59024 60007 8//// 8//// 8//// 9//// 9//// 9//// 44
AAXX 04181 76593 32370 30505 10234 20202 30263 40265 57018 81130 91750 333 10246 20134 30/// 5611/ 59025 81820 82330 91006 91505
AAXX 04181 76612 32962 31001 10192 20046 38533 40242 58005 80001 91750 333 10199 20070 30/// 56005 59024 83072
AAXX 04181 76625 32950 02901 10151 20039 38193 40242 56008 91740 333 10151 20055 30/// 59028
AAXX 04181 76632 31550 62003 10134 20064 37665 40218 57001 70522 83409 91745 333 10142 20042 30/// 56305 59032 83628 83170 98550
AAXX 04181 76634 31570 43204 10186 20061 37886 40263 57012 71011 81104 91750 333 10192 20014 30/// 560/3 59045 81827 83077 99020
AAXX 04181 76641 06/// /2301 10237 20154 30243 40255 58018 60002 7//// 8//// 91750 333 0//// 10239 20132 30/// 4//// 54/// 56/// 57/// 59090 60007 8//// 8//// 8//// 8//// 9//// 9//// 9/
AAXX 04181 76644 32460 30202 10246 20119 30247 40259 57031 81181 91750 333 10250 20105 30/// 56119 58023 81810
AAXX 04181 76645 06/// /0703 10245 20106 30251 40264 58024 60002 7//// 8//// 91750 333 0//// 10246 20099 30/// 4//// 54/// 56/// 57/// 59024 60007 8//// 8//// 8//// 9//// 9//// 9//// 44
AAXX 04181 76648 06/// /0203 10259 20100 30225 40256 58019 60002 7//// 8//// 91750 333 0//// 10266 20105 30/// 4//// 54/// 56/// 57/// 59019 60007 8//// 8//// 8//// 8//// 9//// 9//// 9/
AAXX 04181 76654 31956 12302 10308 20163 30194 40198 52004 70544 80001 91755 333 10308 20221 30/// 5600/ 58013 81070
AAXX 04181 76658 31560 31802 10299 20129 39678 40185 56013 70541 81202 91748 333 10310 20173 30/// 56101 59003 81824 82070 94022 98924
AAXX 04181 76662 32670 63401 10182 20081 38516 40238 57004 81104 91735 333 10194 20056 30/// 56/0/ 59025 81833 85070
AAXX 04181 76665 31962 43401 10180 20068 38168 40238 57013 70300 80006 91750 333 10190 20050 30/// 56005 59020
AAXX 04181 76675 31565 52902 10161 20011 37407 40204 57008 70544 81204 91753 333 10167 21013 30/// 569/9 59023 81826 98465
AAXX 04181 76680 31560 50502 10154 20059 37791 40184 57010 70334 82801 91750 333 10155 20055 30/// 56808 59030 82825 83060
AAXX 04181 76681 31950 20000 10172 20085 37818 40221 57013 70510 82030 91745 333 10172 20020 30/// 58/// 82458
AAXX 04181 76683 32668 60901 10164 20080 37860 40275 56016 81137 91745 333 10175 20012 30/// 56225 59029 81840 81360 84280 99021
AAXX 04181 76684 02/// ///// 1//// 2//// 3//// 4//// 5//// 6//// 7//// 8//// 9//// 333 0//// 1//// 2//// 30/// 4//// 54/// 56/// 57/// 5//// 6//// 8//// 8//// 8//// 9//// 9//// 9//// 44
AAXX 04181 76685 31550 43601 10180 20019 37909 40241 57006 70544 81105 91750 333 10182 20030 30/// 56909 59021 81827 83277
AAXX 04181 76687 31568 50901 10165 20087 38749 40287 58007 70211 83205 91738 333 10167 20050 30/// 563/6 59054 82832 81630 82070
AAXX 04181 76692 31556 72402 10222 20148 30248 40267 57002 70222 865/1 91745 333 10227 20164 30/// 563/5 59062 86623
AAXX 04181 76695 32960 30303 10233 20109 30242 40248 57020 83005 91748 333 10238 20104 56//0 59030 83077 91006 91505
AAXX 04181 76698 32560 30401 10247 20165 30146 40258 57019 83200 91755 333 10255 20120 30/// 56100 59010 83820
AAXX 04181 76727 06/// /1501 10190 20028 38443 40163 58014 60002 7//// 8//// 91750 333 0//// 10201 20083 30/// 4//// 54/// 56/// 57/// 59021 60007 8//// 8//// 8//// 9//// 9//// 9//// 44
AAXX 04181 76737 31480 41402 10164 20111 38842 40267 57010 70322 82207 91735 333 10172 20069 30/// 56209 59055 82813 91104 91514 99021
AAXX 04181 76738 06/// /1402 10171 20092 38842 40229 58012 60002 7//// 8//// 333 10176 20064 30/// 56/// 57/// 59056 60007 8//// 8//// 8//// 8//// 9//// 9//// 9//// 444 ///// 555 30179
AAXX 04181 76743 31/58 50001 10227 20188 30239 40247 57016 70211 85//1 91750 333 10250 20187 30/// 56//0 59038 850//
AAXX 04181 76750 32560 73602 10250 20134 30243 40254 57018 84230 91750 333 10258 20134 30/// 56110 59009 84820 83357
AAXX 04181 76751 06/// /0103 10240 20137 30243 40254 58018 60002 7//// 8//// 91750 333 0//// 10251 20134 30/// 4//// 54/// 56/// 57/// 59009 60007 8//// 8//// 8//// 9//// 9//// 9//// 44
AAXX 04181 76762 32704 63303 10216 20171 38811 40214 58015 83024 91750 333 10218 20130 30/// 56066 59028 83450 83060 91206
AAXX 04181 76772 06/// /1501 10202 20055 38473 40179 58018 60002 7//// 8//// 91750 333 0//// 10205 20027 30/// 4//// 56/// 57/// 59026 60007 8//// 8//// 8//// 9//// 9//// 9//// 444 ////
AAXX 04181 76773 31968 72301 10186 20098 38473 40233 57016 70544 80006 91748 333 10188 20025 30/// 56009 59024 87268
AAXX 04181 76775 31970 40901 10199 20052 38576 40266 57017 70300 80004 91730 333 10202 20042 30/// 56002 59027
AAXX 04181 76776 06/// /1001 10197 20039 38556 40180 58023 60002 7//// 8//// 91750 333 0//// 10197 20033 30/// 4//// 56/// 57/// 59030 60007 8//// 8//// 8//// 9//// 9//// 9//// 444 ////
AAXX 04181 76805 32570 70201 10294 20216 30167 40172 58003 81206 91750 333 10362 20220 30/// 566/6 58022 81830 84265 82068
AAXX 04181 76806 06/// /3601 10300 20204 30174 40178 58006 60002 7//// 8//// 91750 333 10301 20214 30/// 56/// 57/// 58019 60007 8//// 8//// 8//// 8//// 9//// 9//// 9//// 555 30272
AAXX 04181 76833 32970 03612 10266 20172 30187 40189 57012 91745 333 10266 20210 30/// 59014 92001
AAXX 04181 76840 32950 10305 10266 20152 30125 40182 57008 80004 91745 333 10280 20210 30/// 56006 59014 81070
AAXX 04181 76843 32565 10202 10227 20117 39561 40219 57019 81100 91730 333 10239 20135 30/// 569// 59034 81830
AAXX 04181 76845 32960 00603 10172 20087 37978 40261 56017 91745 333 10178 20028 30/// 59034
AAXX 04181 76848 32970 00502 10176 20018 38424 40185 58020 91755 333 10176 20073 30/// 59026
AAXX 04181 76902 06/// /2702 10303 20192 30028 40164 58015 60002 7//// 8//// 91750 333 0//// 10325 20225 30/// 4//// 54/// 56/// 57/// 58017 60007 8//// 8//// 8//// 8//// 9//// 9//// 9/
AAXX 04181 76903 32580 42803 10320 20212 30032 40162 57012 84200 91740 333 10332 20220 30/// 56600 58019 84833
AAXX 04181 76160 32962 00201 10224 20029 39970 40219 52007 91730 333 10224 20105 30/// 59010
AAXX 04181 76243 32974 03604 10144 20044 39963 40268 52020 91730 333 10156 20028 30/// 59072
AAXX 04181 76253 32982 00505 10244 20084 30138 40228 51009 91755 333 10265 20120 30/// 59003 92002
AAXX 04181 76311 32980 00000 10246 20101 39909 40191 52003 91745 333 10251 20101 30/// 59012
AAXX 04181 76405 32980 00000 10260 20144 30194 40216 52009 91750 333 10262 20138 30/// 59002
AAXX 04181 76412 31966 02201 10252 20122 30161 40205 52017 70544 91745 333 10256 20130 30/// 58012
AAXX 04181 76585 32680 10000 10191 20139 30086 40247 58014 81100 91740 333 10210 20094 30/// 562// 59096 81833
AAXX 04181 76640 31458 41402 10202 20155 30262 40274 57011 70111 8323/ 91740 333 10214 20132 30/// 5629/ 59092 83820
AAXX 04181 76647 32670 30502 10253 20124 30242 40273 57015 82230 91750 333 10255 20105 30/// 561/0 59015 82850
AAXX 04181 76656 32975 43601 10205 20070 38561 40232 58003 80008 91750 333 10212 20065 30/// 56005 59024 84280
AAXX 04181 76741 31370 51403 10234 20167 30222 40239 57009 70544 83230 91730 333 10256 20166 30/// 56/// 59042 83810
AAXX 04181 76855 32580 62201 10310 20224 30099 40149 50003 81238 91745 333 10318 20198 30/// 56999 58001 81820 82359 92001
AAXX 04181 76055 32980 03312 10222 21037 30217 40236 52014 91740 33310292 20136 30/// 58008
AAXX 04181 76056 06/// /3310 10235 21067 30227 40250 51013 60002 7////8//// 91750 333 0//// 10235 20136 30/// 4//// 54/// 56///57/// 58011 60007 8//// 8//// 8//// 9//// 9//// 9//// 44
AAXX 04181 76061 32981 03603 10174 20070 30182 40257 52016 91740 33310176 20130 30/// 58006
AAXX 04181 76122 32970 03611 10130 20011 38639 40310 52019 91750 33310132 21009 30/// 58006
AAXX 04181 76123 06/// 03503 10155 21063 3//// 4//// 5//// 60002 7////8//// 91750 333 0//// 10155 21022 56/// 57/// 5//// 600078//// 8//// 8//// 8//// 9//// 9//// 9//// 444 ///// 555
AAXX 04181 76220 32958 00000 10076 20015 38229 40359 52001 91750 33310076 21064 30/// 59026
AAXX 04181 76225 32960 00202 10154 21020 38714 40264 52016 91735 33310154 20032 30/// 59009
AAXX 04181 76256 32980 03203 10250 20058 30199 40213 52009 91745 33310266 20159 30/// 59014
AAXX 04181 76258 32970 03403 10230 20071 30153 40199 50002 91750 33310232 20092 30/// 56000 59015
AAXX 04181 76305 32970 40402 10258 20072 30199 40207 52004 82014 91740333 10262 20180 30/// 56056 59010 82460
AAXX 04181 76323 32970 20201 10182 21028 38253 40327 52008 80002 91740333 10182 20040 30/// 59028 82268
AAXX 04181 76373 32670 30000 10155 21024 38272 40233 57010 81470 91750333 10163 21023 30/// 56909 58031 81627 82357
AAXX 04181 76382 32980 70701 10184 20094 38977 40257 52002 80006 91750333 10202 20064 30/// 56007 59045 87076
AAXX 04181 76390 32970 11805 10182 21013 38291 40251 52001 80004 91730333 10194 20040 30/// 56008 59036 81070
AAXX 04181 76393 32950 10401 10230 20078 39638 40227 57006 81030 91755333 10238 20070 30/// 56080 59098
AAXX 04181 76402 31957 00000 10246 20162 30147 40204 52002 70544 91745333 10246 20120 30/// 59004
AAXX 04181 76423 32680 40000 10162 20004 38213 40266 57011 81054 91750333 10170 20016 30/// 56099 59034 81357 83067
AAXX 04181 76458 32964 02602 10235 20175 30185 40189 57003 91745 33310268 20148 30/// 59004
AAXX 04181 76471 32980 00101 10166 21067 37748 40229 57005 91755 33310172 20029 30/// 59032
AAXX 04181 76490 06/// /0402 10221 20049 39837 40224 58007 60002 7////8//// 91750 333 0//// 10224 20040 30/// 54/// 56/// 57///59101 60007 8//// 8//// 8//// 8//// 9//// 9//// 9//// 44
AAXX 04181 76491 32960 03601 10210 20095 39855 40262 57004 91750 33310216 20026 30/// 59106
AAXX 04181 76499 32960 01103 10266 20125 30208 40230 57007 91740 33310267 20058 30/// 59105
AAXX 04181 76519 32560 13401 10156 20033 38427 40291 57001 80002 91745333 10162 20030 30/// 56006 59018 81070
AAXX 04181 76525 32980 13004 10102 21053 37518 40234 52004 80001 91740333 10102 20050 30/// 56//5 59021 81080
AAXX 04181 76538 06/// /1203 10167 20008 38214 40188 58009 60002 7////8//// 91750 333 0//// 10167 21016 30/// 4//// 54/// 56///57/// 59041 60007 8//// 8//// 8//// 9//// 9//// 9//// 44
AAXX 04181 76539 31962 01501 10130 20014 38217 40309 57012 70544 91745333 10155 21030 30/// 59042
AAXX 04181 76543 32975 01703 10245 20113 30227 40260 58016 91745 33310247 20126 31/// 59094
AAXX 04181 76547 06/// /2002 10233 20129 30238 40250 58013 60002 7////8//// 91750 333 0//// 10235 20131 56/// 57/// 59088 600078//// 8//// 8//// 8//// 9//// 9//// 9//// 444 ///// 555
AAXX 04181 76548 32975 02002 10224 20138 30255 40265 58008 91745 33310228 20128 30/// 59087
AAXX 04181 76556 32970 11603 10264 20057 39168 40202 52004 80008 91435333 10266 20124 30/// 59013 81270
AAXX 04181 76571 32975 00000 10168 20032 38221 40268 56007 91748 33310172 20030 30/// 59028
AAXX 04181 76577 32970 12304 10151 20106 38092 40257 58005 80005 91740333 10157 20040 30/// 56005 59024
AAXX 04181 76578 06/// /2003 10155 20006 38087 40188 58009 60002 7////8//// 91750 333 0//// 10155 20040 30/// 4//// 54/// 56///57/// 59022 60007 8//// 8//// 8//// 9//// 9//// 9//// 44
AAXX 04181 76581 32970 03003 10170 20086 39130 40283 57021 91750 33310180 20020 30/// 59089
AAXX 04181 76592 06/// /0511 10237 20101 30264 40264 58018 60002 7////8//// 91750 333 0//// 10246 20137 30/// 4//// 54/// 56///57/// 59024 60007 8//// 8//// 8//// 9//// 9//// 9//// 44
AAXX 04181 76593 32370 30505 10234 20202 30263 40265 57018 81130 91750333 10246 20134 30/// 5611/ 59025 81820 82330 91006 91505
AAXX 04181 76612 32962 31001 10192 20046 38533 40242 58005 80001 91750333 10199 20070 30/// 56005 59024 83072
AAXX 04181 76625 32950 02901 10151 20039 38193 40242 56008 91740 33310151 20055 30/// 59028
AAXX 04181 76632 31550 62003 10134 20064 37665 40218 57001 70522 8340991745 333 10142 20042 30/// 56305 59032 83628 83170 98550
AAXX 04181 76634 31570 43204 10186 20061 37886 40263 57012 71011 8110491750 333 10192 20014 30/// 560/3 59045 81827 83077 99020
AAXX 04181 76641 06/// /2301 10237 20154 30243 40255 58018 60002 7////8//// 91750 333 0//// 10239 20132 30/// 4//// 54/// 56///57/// 59090 60007 8//// 8//// 8//// 8//// 9//// 9//// 9/
AAXX 04181 76644 32460 30202 10246 20119 30247 40259 57031 81181 91750333 10250 20105 30/// 56119 58023 81810
AAXX 04181 76645 06/// /0703 10245 20106 30251 40264 58024 60002 7////8//// 91750 333 0//// 10246 20099 30/// 4//// 54/// 56///57/// 59024 60007 8//// 8//// 8//// 9//// 9//// 9//// 44
AAXX 04181 76648 06/// /0203 10259 20100 30225 40256 58019 60002 7////8//// 91750 333 0//// 10266 20105 30/// 4//// 54/// 56///57/// 59019 60007 8//// 8//// 8//// 8//// 9//// 9//// 9/
AAXX 04181 76654 31956 12302 10308 20163 30194 40198 52004 70544 8000191755 333 10308 20221 30/// 5600/ 58013 81070
AAXX 04181 76658 31560 31802 10299 20129 39678 40185 56013 70541 8120291748 333 10310 20173 30/// 56101 59003 81824 82070 9402298924
AAXX 04181 76662 32670 63401 10182 20081 38516 40238 57004 81104 91735333 10194 20056 30/// 56/0/ 59025 81833 85070
AAXX 04181 76665 31962 43401 10180 20068 38168 40238 57013 70300 8000691750 333 10190 20050 30/// 56005 59020
AAXX 04181 76675 31565 52902 10161 20011 37407 40204 57008 70544 8120491753 333 10167 21013 30/// 569/9 59023 81826 98465
AAXX 04181 76680 31560 50502 10154 20059 37791 40184 57010 70334 8280191750 333 10155 20055 30/// 56808 59030 82825 83060
AAXX 04181 76681 31950 20000 10172 20085 37818 40221 57013 70510 8203091745 333 10172 20020 30/// 58/// 82458
AAXX 04181 76683 32668 60901 10164 20080 37860 40275 56016 81137 91745333 10175 20012 30/// 56225 59029 81840 81360 84280 99021
AAXX 04181 76684 02/// ///// 1//// 2//// 3//// 4//// 5//// 6//// 7////8//// 9//// 333 0//// 1//// 2//// 30/// 4//// 54/// 56///57/// 5//// 6//// 8//// 8//// 8//// 9//// 9//// 9//// 44
AAXX 04181 76685 31550 43601 10180 20019 37909 40241 57006 70544 8110591750 333 10182 20030 30/// 56909 59021 81827 83277
AAXX 04181 76687 31568 50901 10165 20087 38749 40287 58007 70211 8320591738 333 10167 20050 30/// 563/6 59054 82832 81630 82070
AAXX 04181 76692 31556 72402 10222 20148 30248 40267 57002 70222 865/191745 333 10227 20164 30/// 563/5 59062 86623
AAXX 04181 76695 32960 30303 10233 20109 30242 40248 57020 83005 91748333 10238 20104 56//0 59030 83077 91006 91505
AAXX 04181 76698 32560 30401 10247 20165 30146 40258 57019 83200 91755333 10255 20120 30/// 56100 59010 83820
AAXX 04181 76727 06/// /1501 10190 20028 38443 40163 58014 60002 7////8//// 91750 333 0//// 10201 20083 30/// 4//// 54/// 56///57/// 59021 60007 8//// 8//// 8//// 9//// 9//// 9//// 44
AAXX 04181 76737 31480 41402 10164 20111 38842 40267 57010 70322 8220791735 333 10172 20069 30/// 56209 59055 82813 91104 9151499021
AAXX 04181 76738 06/// /1402 10171 20092 38842 40229 58012 60002 7////8//// 333 10176 20064 30/// 56/// 57/// 59056 60007 8////8//// 8//// 8//// 9//// 9//// 9//// 444 ///// 555 30179
AAXX 04181 76743 31/58 50001 10227 20188 30239 40247 57016 70211 85//191750 333 10250 20187 30/// 56//0 59038 850//
AAXX 04181 76750 32560 73602 10250 20134 30243 40254 57018 84230 91750333 10258 20134 30/// 56110 59009 84820 83357
AAXX 04181 76751 06/// /0103 10240 20137 30243 40254 58018 60002 7////8//// 91750 333 0//// 10251 20134 30/// 4//// 54/// 56///57/// 59009 60007 8//// 8//// 8//// 9//// 9//// 9//// 44
AAXX 04181 76762 32704 63303 10216 20171 38811 40214 58015 83024 91750333 10218 20130 30/// 56066 59028 83450 83060 91206
AAXX 04181 76772 06/// /1501 10202 20055 38473 40179 58018 60002 7////8//// 91750 333 0//// 10205 20027 30/// 4//// 56/// 57///59026 60007 8//// 8//// 8//// 9//// 9//// 9//// 444 ////
AAXX 04181 76773 31968 72301 10186 20098 38473 40233 57016 70544 8000691748 333 10188 20025 30/// 56009 59024 87268
AAXX 04181 76775 31970 40901 10199 20052 38576 40266 57017 70300 8000491730 333 10202 20042 30/// 56002 59027
AAXX 04181 76776 06/// /1001 10197 20039 38556 40180 58023 60002 7////8//// 91750 333 0//// 10197 20033 30/// 4//// 56/// 57///59030 60007 8//// 8//// 8//// 9//// 9//// 9//// 444 ////
AAXX 04181 76805 32570 70201 10294 20216 30167 40172 58003 81206 91750333 10362 20220 30/// 566/6 58022 81830 84265 82068
AAXX 04181 76806 06/// /3601 10300 20204 30174 40178 58006 60002 7////8//// 91750 333 10301 20214 30/// 56/// 57/// 58019 600078//// 8//// 8//// 8//// 9//// 9//// 9//// 555 30272
AAXX 04181 76833 32970 03612 10266 20172 30187 40189 57012 91745 33310266 20210 30/// 59014 92001
AAXX 04181 76840 32950 10305 10266 20152 30125 40182 57008 80004 91745333 10280 20210 30/// 56006 59014 81070
AAXX 04181 76843 32565 10202 10227 20117 39561 40219 57019 81100 91730333 10239 20135 30/// 569// 59034 81830
AAXX 04181 76845 32960 00603 10172 20087 37978 40261 56017 91745 33310178 20028 30/// 59034
AAXX 04181 76848 32970 00502 10176 20018 38424 40185 58020 91755 33310176 20073 30/// 59026
AAXX 04181 76902 06/// /2702 10303 20192 30028 40164 58015 60002 7////8//// 91750 333 0//// 10325 20225 30/// 4//// 54/// 56///57/// 58017 60007 8//// 8//// 8//// 8//// 9//// 9//// 9/
AAXX 04181 76903 32580 42803 10320 20212 30032 40162 57012 84200 91740333 10332 20220 30/// 56600 58019 84833
AAXX 04181 76160 32962 00201 10224 20029 39970 40219 52007 91730 33310224 20105 30/// 59010
AAXX 04181 76243 32974 03604 10144 20044 39963 40268 52020 91730 33310156 20028 30/// 59072
AAXX 04181 76253 32982 00505 10244 20084 30138 40228 51009 91755 33310265 20120 30/// 59003 92002
AAXX 04181 76311 32980 00000 10246 20101 39909 40191 52003 91745 33310251 20101 30/// 59012
AAXX 04181 76405 32980 00000 10260 20144 30194 40216 52009 91750 33310262 20138 30/// 59002
AAXX 04181 76412 31966 02201 10252 20122 30161 40205 52017 70544 91745333 10256 20130 30/// 58012
AAXX 04181 76585 32680 10000 10191 20139 30086 40247 58014 81100 91740333 10210 20094 30/// 562// 59096 81833
AAXX 04181 76640 31458 41402 10202 20155 30262 40274 57011 70111 8323/91740 333 10214 20132 30/// 5629/ 59092 83820
AAXX 04181 76647 32670 30502 10253 20124 30242 40273 57015 82230 91750333 10255 20105 30/// 561/0 59015 82850
AAXX 04181 76656 32975 43601 10205 20070 38561 40232 58003 80008 91750333 10212 20065 30/// 56005 59024 84280
AAXX 04181 76741 31370 51403 10234 20167 30222 40239 57009 70544 8323091730 333 10256 20166 30/// 56/// 59042 83810
AAXX 04181 76855 32580 62201 10310 20224 30099 40149 50003 81238 91745333 10318 20198 30/// 56999 58001 81820 82359 92001
AAXX 04184 87692 32960 02909 10322 20170 30122 40147 57023 555 10146
AAXX 04184 78388 111575 40913 10253 20174 30175 40184 69901 70581 84800 333 01200 10271 20219 58003 81822 83635 90934
AAXX 04184 DUPE
AAXX 04181 26038 01358 82006 10023 20015 39710 49749 55010 60052 76162 8872/ 333 10034 20007 60027 88507 91011 91114 555 1/002 20007 3/000 50017 52100
AAXX 04181 26045 NIL
AAXX 04181 26058 NIL
AAXX 04181 26115 NIL
AAXX 04181 26135 01238 82204 10016 20011 39716 49788 55012 60052 76166 8872/ 333 10032 20007 60057 88506 91009 91112 555 1/000 20007 3/000 50015 52100
AAXX 04181 26141 01257 82010 10015 20007 39633 49778 56027 60022 76186 8872/ 333 10023 21001 60017 88507 91014 91117 555 1/100 21001 3/100 50009 52100
AAXX 04181 26231 01468 82310 10045 20029 39780 49794 53000 60052 76162 889// 333 10046 20032 60057 88914 91017 91121 555 1/002 20032 3/100 50027
AAXX 04181 26242 01364 82008 10026 20010 39734 49819 56023 69982 76386 8872/ 333 10034 20006 69967 88510 91015 91116 555 1/001 20006 3/100 50018 52000
AAXX 04181 26247 NIL
AAXX 04181 26509 11497 82311 10057 20022 39919 49928 52009 69902 70282 888// 333 10060 91019 91122 555 53022
AAXX 04181 26518 11570 82507 10036 20021 49934 53006 60062 78086 889// 333 10040 88922 91014 91118 555 53018
AAXX 04181 26524 11497 82105 10020 20015 39788 49919 53005 60032 78082 883// 333 10047 88713 91012 91116 555 53016
AAXX 04181 26531 11670 62308 10039 20016 49913 56004 60022 72162 86500 333 10052 86635 91015 91118 555 53018
AAXX 04181 26629 32670 82308 10046 21005 39875 49970 58006 885// 333 10050 88639 91013 91114 555 53014
AAXX 04181 26633 12670 72105 10041 21008 39818 49946 58013 69912 87500 333 10053 87634 91010 91113 555 53013
AAXX 04181 26730 32770 72207 10035 21006 39800 49992 57001 87500 333 10050 91011 91111 555 53012
AAXX 04183 78970 11467 70712 10298 20223 30097 40122 69921 71581 87820 333 02290 10320 20243 59002 82818 85638 90915
AAXX 04183 78962 NIL
AAXX 04183 91551 NIL
AAXX 04183 91553 NIL
AAXX 04183 91554 31598 40000 10237 20234 40054 53004 70222 81201 333 569/9 81825 84080
AAXX 04183 91555 11598 10000 10256 20249 40054 53003 69931 70122 81101 333 569/9 66921 81822
AAXX 04183 91557 11598 32904 10265 20251 40051 53003 60011 70222 83800 333 567// 60011 83820
AAXX 04183 91565 NIL
AAXX 04183 91568 11598 80000 10253 20249 40040 56003 60101 72599 8482/ 333 5689/ 84823 88460
AAXX 04184 78388 111575 40913 10253 20174 30175 40184 69901 70581 84800 333 01200 10271 20219 58003 81822 83635 90934
AAXX 04184 DUPE
AAXX 04184 16614 12560 20000 10010 21025 39416 40217 53006 60002 82200 333 10069 42998 90730 91107 555 10000 41082
AAXX 04184 16627 11458 40000 10052 20047 30199 40203 53004 60002 71011 84500 333 10086 90730 91107 555 10000 41020 30000 10046 20048 30054 40054 50066 6//// 40000 47683 44240 50000 50050 70000 77Y// 7/Y//
AAXX 04184 16667 11459 62405 10084 20053 30203 40209 51001 60002 71000 86800 333 10130 82818 85625 90730 91109 555 10000 40054 30000 20084 30094 40000 47683 44210 50000 50070 70000 77Y// 7/Y//
AAXX 04184 16675 NIL
AAXX 04184 16710 36/// /9901 10032 20007 39429 40219 52005 333 10124 90730 91109 555 10000 41052
AAXX 04184 16723 12560 60000 10104 20061 30186 40202 55000 60002 82250 333 10140 82825 86358 90730 91104 555 10000 40068 40000 47673 44220 50000 50084
AAXX 04184 16738 NIL
AAXX 04184 16746 12560 60000 10100 20061 30013 40198 54000 60002 82236 333 10146 82825 83358 86068 90730 91106 555 10000 40072 40000 47537 44170 50000 50082
AAXX 04184 43533 12460 20705 10267 20230 30120 40123 60001 81201 333 58013 81818
AAXX 04184 43555 12465 21108 10279 20231 30122 40125 60001 82101 333 58010 82818
AAXX 04184 43577 12468 20904 10270 20224 30129 40131 60001 81201 333 58012 81818
AAXX 04184 43588 12465 30704 10270 20233 30128 40130 60001 82202 333 58015 82818
AAXX 04184 43599 12465 20000 10264 20235 30127 40129 60001 82201 333 58019 82819
AAXX 04181 26645 32597 72204 10028 21011 39717 49974 57008 87500 333 10041 87630
AAXX 04181 26659 12962 82103 10024 20008 39782 49995 53003 69972 8801/ 333 10030
AAXX 04181 26763 11358 81905 10029 20021 39783 40009 57007 60022 71022 886// 333 10029 88708 91111
AAXX 04181 26825 32964 62107 10045 21009 39837 40018 53007 86030 333 10062 91010 91111
AAXX 04181 26832 32660 72205 10045 21009 39825 40015 53004 875// 333 10059 87646 91111
AAXX 04181 26887 11396 81804 10026 20018 39847 40053 58007 69952 76162 8872/ 333 10027 88708
AAXX 04181 26961 12960 72204 10047 20028 39845 40036 57002 69932 87030 333 10050
AAXX 04181 33027 11496 82303 10051 20042 39901 40067 54000 60032 76186 8772/ 333 10069
AAXX 04184 16643 12560 70000 10104 20096 30196 40202 50000 60002 84820 333 10134 82820 84625 87458 90730 91103 555 10000 40064 40000 47678 44210 50000 50100
AAXX 04184 16648 11957 00000 10018 21010 30103 40196 54000 60002 71000 333 10106 90730 91104 555 10000 41040 30000 10036 2//// 30050 40052 5//// 6//// 40000 47608 44210 50000 50008 70000 77Y// 7/Y//
AAXX 04184 16650 12560 33504 10068 20045 30185 40189 57004 60002 83500 333 10132 90730 91105 555 10000 40020 30000 10058 20064 30076 40074 50086 60116 40000 47668 44210 50000 50058
AAXX 04184 16684 12570 20000 10082 20046 30155 40183 56003 60002 82100 333 10130 90730 91105 555 10000 40074 40000 47646 44200 50000 50066
AAXX 04184 16732 12568 31205 10104 20030 30191 40203 56006 60002 83200 333 10138 90730 91108 555 10000 40072 40000 47668 44150 50000 50072
AAXX 04183 91551 NIL
AAXX 04183 91553 NIL
AAXX 04183 91554 31598 40000 10237 20234 40054 53004 70222 81201 333 569/9 81825 84080
AAXX 04183 91555 11598 10000 10256 20249 40054 53003 69931 70122 81101 333 569/9 66921 81822
AAXX 04183 91557 11598 32904 10265 20251 40051 53003 60011 70222 83800 333 567// 60011 83820
AAXX 04183 91565 NIL
AAXX 04183 91568 11598 80000 10253 20249 40040 56003 60101 72599 8482/ 333 5689/ 84823 88460
AAXX 04184 68399 36/// /0704 10274 20208 30010 40117 52020 333 10366 20274 91029 555 91012
AAXX 04184 68379 36/// /0507 10268 20207 39815 48566 52012 333 10358 20268 91014 555 91014
AAXX 04184 68398 36/// /3609 10225 20197 39371 48522 52010 333 10316 20225 91014 555 91014
AAXX 04184 68299 36/// /0410 10170 20117 38944 48534 52011 333 10235 20170 91015 555 91020
AAXX 04184 43533 12460 20705 10267 20230 30120 40123 60001 81201 333 58013 81818
AAXX 04184 43555 12465 21108 10279 20231 30122 40125 60001 82101 333 58010 82818
AAXX 04184 43577 12468 20904 10270 20224 30129 40131 60001 81201 333 58012 81818
AAXX 04184 43588 12465 30704 10270 20233 30128 40130 60001 82202 333 58015 82818
AAXX 04184 43599 12465 20000 10264 20235 30127 40129 60001 82201 333 58019 82819
BBXX 3FZK3 04184 99496 71272 46/// /1725 10093 20094 40106 55004 7//// 8//// 22273 0//// 2////
BBXX 46001 04181 99563 71480 46/// /3114 11007 49864 53030 91750 22200 00040 11011 20608 300// 41007 70053 333 91217 555 11151 22160 31653 42318 61749 314143 314145 315145 317146 313145 319146
BBXX 46026 04181 99378 71228 46/// /3306 10122 40292 51019 91750 22200 00113 11304 20601 327// 41304 70019 333 91208 555 11070 22077 31714 42808 61749 317063 281062 282060 286059 283049 287053
BBXX 46029 04181 99461 71245 46/// /1814 10100 20098 40190 52007 91750 22200 00093 11210 20806 326// 41208 70050 333 91217 555 11151 22162 31738 41818 61749 181140 181134 179134 182131 178137 180138
BBXX 46042 04181 99368 71224 46/// /3408 10126 40277 53019 91750 22200 00123 11305 20302 331// 41304 70024 333 91210 555 11088 22094 31721 43510 61749 341082 341081 343080 347078 348080 349079
BBXX 46054 04181 99342 71204 46/// /3105 10132 40253 51017 91750 22200 00128 11305 20501 300// 41305 70025 333 91206 555 11055 22060 31748 43106 61749 305051 305047 304044 302039 302033 308036
BBXX CG2958 04184 99509 71279 46/// /1810 10109 20092 40057 51011 7//// 8//// 22261 0//// 2////
BBXX CGBR 04184 99534 71292 46/// /1117 10096 20095 49977 53009 7//// 8//// 22200 00071 2////
BBXX CGBY 04184 99487 71235 46/// /0904 10090 20083 40161 51013 7//// 8//// 22200 0//// 2////
BBXX CGDR 04184 99543 71303 46/// /1908 10102 20078 49946 51020 7//// 8//// 22200 00167 2////
BBXX DPCK 04183 99517 71312 41/97 /1924 10090 20071 49970 5/025 7//50 8//// 22274 00070 21208 31899 41408 5//// 80080
AAXX 04184 93004 16/// /0809 10167 20167 40178 52001 60001
AAXX 04184 93023 16/// /0000 10158 20150 40191 52002 60001
AAXX 04184 93069 16/// /3011 10186 20160 40184 52002 6///1
AAXX 04184 93110 17497 /1503 10174 20166 40180 52002 69941
AAXX 04184 93186 17/98 /2406 10169 20154 40176 52003 60001
AAXX 04184 93196 16/// /2917 10187 20172 40160 54000 60011
AAXX 04184 93245 16598 /2408 10135 20100 40182 52001 60001
AAXX 04184 93292 17/98 /3308 10190 20135 40143 54000 60001
AAXX 04184 93309 17698 /2811 10167 20116 40175 52001 60001
AAXX 04184 93334 16/// /2901 10083 20074 39224 52005 60001
AAXX 04184 93339 16/// /1602 10080 20075 39230 52004 60001
AAXX 04184 93373 17/98 /1701 10170 20121 40133 57001 60001
AAXX 04184 93404 17698 /3310 10152 20116 40165 52002 60001
AAXX 04184 93420 17598 /0116 10165 20115 40155 57001 60001
AAXX 04184 93439 17598 /3624 10164 20119 40126 57003 60001
AAXX 04184 93498 16/// /3235 10156 20106 40095 57001 60001
AAXX 04184 93515 17698 /1604 10134 20128 40159 57004 60001
AAXX 04184 93527 16/// /2720 10164 20129 40131 54000 60001
AAXX 04184 93546 17/98 /1905 10162 20114 40123 57002 60001
AAXX 04184 93597 16/// /3528 10156 20141 40080 57012 60001
AAXX 04184 93615 17797 /1603 10147 20126 40157 57004 60001
AAXX 04184 93678 16/98 /1201 10188 20142 40058 57004 60001
AAXX 04184 93709 16/// /0000 10126 20116 40148 57009 60001
AAXX 04184 93773 17998 /2003 10171 20130 40044 52014 60001
AAXX 04184 93781 17/97 /0903 10148 20147 40052 57002 60001
AAXX 04184 93800 NIL
AAXX 04184 93805 NIL
AAXX 04184 93831 17899 /2605 10146 20051 40078 57004 60001
AAXX 04184 93845 17597 /2815 10150 20111 40061 52031 60001
AAXX 04184 93891 17/98 /0905 10162 20065 40049 52005 60001
AAXX 04184 93909 16/// /2831 10115 20113 40041 52058 60021
AAXX 04184 93929 16/// /2526 10091 20066 49953 52061 60021
AAXX 04184 93947 16/// /2830 10084 20077 49853 52020 60031
AAXX 04184 93987 16/// /2804 10138 20127 40150 52005 60001
AAXX 04184 93994 NIL
AAXX 04181 01281 16/// ///// 1//// 2//// 39577 49748 58006 60012
AAXX 04181 01447 16/// /3502 11068 21073 39163 49839 58015 60002 333 10003 91107
AAXX 04181 33088 11597 82904 10050 20041 39891 40081 58001 60022 76162 8872/ 333 10072
AAXX 04181 33177 11597 81802 10047 20038 39861 40098 52002 60052 70282 83907 333 10076
AAXX 04181 33261 11396 82004 10031 20021 39925 40109 57011 69902 72582 889// 333 10032 87707
AAXX 04181 33275 31295 81906 10021 20013 39901 40127 57014 71022 886// 333 10021 88704
AAXX 04181 33301 11497 82606 10045 20038 39812 40093 52002 60022 78082 8735/ 333 10063 86913
AAXX 04181 33325 11596 82103 10037 20014 39829 40098 58010 69972 78082 883// 333 10051 86921
AAXX 04181 33377 11296 82002 10032 20022 39935 40130 57010 69912 71022 886// 333 10035 88705
AAXX 04181 33415 11697 82503 10040 20030 39711 40110 53002 69982 78082 8437/ 333 10040
AAXX 04181 33429 11697 82302 10038 20033 39683 40107 57007 69982 78082 883// 333 10041 86933
AAXX 04181 33466 11342 81905 10029 20021 39936 40125 57009 69902 71052 886// 333 10033 88708
AAXX 04181 33526 11560 73003 10073 20019 39770 40107 53002 69902 70262 85530 333 10095 85630
AAXX 04181 33562 11241 81804 10024 20019 39751 40115 58009 69932 72582 889// 333 10025 86705
AAXX 04181 33614 32361 81803 10032 20014 30046 40152 57011 886// 333 10050 88709
AAXX 04181 33761 31/92 91804 10036 20036 39917 40142 57007 74542 333 10040
AAXX 04181 33902 31596 81601 10063 20052 30089 40155 57011 71011 885// 333 10082
AAXX 04181 33983 32497 71706 10078 20046 30141 40202 58003 875// 333 10093 87615
AAXX 04181 34415 32497 82302 10011 20006 30087 40185 58005 886// 333 10033
AAXX 04181 34523 NIL
AAXX 04181 34712 32598 81801 10021 20018 30119 40206 58003 886// 333 10033 88720
AAXX 04184 68328 42660 20702 10335 20171 48505 52011 81460 333 10394
AAXX 04184 17022 12962 11103 10059 21005 30033 40202 57004 60002 81040 333 10117 81360 91106 92427
AAXX 04184 17031 12970 01002 10026 20002 30201 40208 58008 60002 333 10145
AAXX 04184 17038 12970 01804 10056 21006 30173 40225 57008 60002 333 10102 92428
AAXX 04184 17050 11/05 90102 10042 20040 30129 40193 57003 69932 74544 333 10046 89/02 91106
AAXX 04184 17060 12960 02506 10068 20049 30160 40201 52002 60002 333 10095
AAXX 04184 17096 12960 03002 11157 21157 38270 48551 50000 60002 333 11032
AAXX 04184 17124 11112 81207 11008 21010 39300 40260 55002 69902 74122 88600 333 10002 88702
AAXX 04184 17128 11926 39902 11046 21046 39124 40293 52003 60002 71000 80001 333 10035 83070
AAXX 04184 17170 NIL
AAXX 04184 17195 12970 00205 11008 21037 39003 48508 58001 60002 333 10061
AAXX 04184 17199 12970 02002 10019 21037 39131 40258 51005 60002 333 10072
AAXX 04184 17219 11957 30000 10060 20040 30059 40206 53002 60002 71000 83030 333 10134 83360
AAXX 04184 17240 11902 02601 11027 21038 39062 40265 53002 60002 74844 333 11008
AAXX 04184 17244 11420 40404 11035 21038 39026 48504 50002 60002 74041 84600 333 10035 84712
AAXX 04184 17280 12970 03004 10013 21019 39421 40238 50006 60002 333 10105
AAXX 04184 17350 12960 00404 10051 20045 30129 40210 51003 60002 333 10160
AAXX 04181 06407 11560 82408 10085 20043 30141 40147 56031 69902 72162 875// 333 10085 85625 86656 91116 91211
AAXX 04181 06447 NIL
AAXX 04184 17024 12970 01813 10036 21006 30120 40200 57008 60002 333 10136 91116 92438
AAXX 04184 17056 11958 02902 10037 20036 30199 40204 53001 60002 71000 333 10101 91109 92416
AAXX 04184 17067 12970 02602 10052 20012 30175 40197 58002 60002 333 10094 92408
AAXX 04184 17092 12960 01001 11026 21069 38911 48525 52007 60002 333 10059
AAXX 04184 17112 12670 31003 10067 20049 30200 40203 53098 60002 83200 333 10114 83835 91108 92418
AAXX 04184 17115 12960 00000 10014 20007 30152 40206 53005 60002 333 10104
AAXX 04184 17116 12960 00000 10032 20012 30087 40214 53002 60002 333 10117 91105
AAXX 04184 17188 11957 02803 10011 21022 39138 40237 53002 60002 71000 333 10110 91105
AAXX 04184 17202 12970 02205 11025 21033 39209 40281 52006 60002 333 10068
AAXX 04184 17248 11902 00000 11016 21026 39012 48504 53003 60002 74400 333 10064
AAXX 04184 17292 12670 50000 10054 20046 39444 40224 53003 60002 83230 333 10133 83835 85360 91107
AAXX 04184 17300 12960 03507 10066 20041 30133 40206 52006 60002 333 10168
AAXX 04184 17310 3//// /0502 10115 20044 30205 40212 52007 60002 333 10174
AAXX 04184 17330 12970 02903 10094 20047 30199 40217 52011 60002 333 10180
AAXX 04181 13160 32697 80107 10081 20039 30085 40194 52035 885// 333 10116 91014 91114
AAXX 04181 13262 11698 83601 10099 20059 30037 40185 52026 69932 76162 8802/ 333 10141
AAXX 04181 13272 11760 73303 10088 20058 30050 40170 52013 69922 76162 87500 333 10146 87640
AAXX 04181 13285 32698 80701 10068 20038 30058 40161 53002 885// 333 10124
AAXX 04181 13289 32498 62804 10054 20011 38960 48467 54000 85500 333 10096
AAXX 04181 13376 31694 73001 10032 20018 39918 40186 53004 71042 87500 333 10035
AAXX 04181 13388 32697 70701 10053 20012 39922 40173 51001 87500 333 10104
AAXX 04181 13462 32760 50000 10057 20030 30152 40193 55000 84530 333 10099 84650
AAXX 04181 13473 NIL
AAXX 04181 13489 31995 00000 10015 21009 39673 40204 53008 71000 333 10096
AAXX 04184 17026 12970 01505 10091 20044 30162 40201 57012 60002 333 10134 91110 92418
AAXX 04184 17034 12970 00000 10070 20021 30174 40221 57006 60002 333 10101 92428
AAXX 04184 17070 12962 22801 10021 20003 39337 40239 52003 60002 80001 333 10087 82070 91103
AAXX 04184 17084 12970 01801 11018 21031 39318 40271 50000 60002 333 10060 91107
AAXX 04184 17090 12965 00000 11036 21059 38762 48523 53001 60002 333 10021
AAXX 04184 17098 12660 43005 11126 21134 38224 48546 52006 60002 84500 333 11023 84640
AAXX 04184 17150 11/01 90000 11019 21022 30090 40220 53004 60002 74944 333 10014 89/01
AAXX 04184 17160 12970 01801 11016 21029 39053 48504 53002 60002 333 10077 91105
AAXX 04184 17184 12970 00000 10036 20025 30101 40217 50005 60002 333 10104 91103
AAXX 04184 17189 11/01 9//// 11035 21035 39049 48494 58001 60002 74944 333 11009 89/01
AAXX 04184 17210 11920 00000 10027 21013 39181 40245 53008 60002 71000 333 10078
AAXX 04184 17234 12970 00000 10068 20044 30140 40210 53001 60002 333 10140 91104
AAXX 04184 17260 12960 00000 10007 21005 39392 40241 51008 60002 333 10128
AAXX 04184 17290 12970 30402 10118 20069 30174 40206 55000 60002 83030 333 10164 83360 91105 92408
AAXX 04184 17370 12965 00000 10113 20053 30206 40210 50002 60002 333 10154 92417
AAXX 04181 26106 11/97 81906 10040 20024 49874 52004 60022 78082 889// 333 10056 91010 91118
AAXX 04181 26313 12/// 82509 10056 20014 49823 52020 60042 889// 333 10061 91017 91119
AAXX 04181 26346 11497 72108 10024 21003 49869 57021 69942 70282 85610 333 10024 85717 91012 91114
AAXX 04181 26406 11997 22310 10054 20018 49886 52015 69932 70181 82030 333 10060 91017 91123
AAXX 04181 26416 33/// /2509 10047 20002 49879 52013 333 10049 91014 91119
AAXX 04181 26424 11497 82408 10049 20020 49883 52009 60052 78082 889// 333 10052 91014 91118
AAXX 04181 26544 12597 82208 10037 21009 49936 57012 69912 883// 333 10043 91013 91115
AAXX 04181 26247 01260 82009 10031 20017 39760 49838 57016 69972 76162 8872/ 333 10042 20017 69957 88507 91018 91118 555 1/001 20017 3/100 50020
AAXX 04181 14241 11780 81402 10069 20050 30061 40192 51027 69982 76062 885// 333 10121
AAXX 04181 14284 12670 83413 10082 20031 30084 40193 52031 60002 8257/ 333 10115
AAXX 04181 14307 11665 80601 10083 20066 30110 40187 52019 69982 72166 8457/ 333 10116
AAXX 04181 14317 NIL
AAXX 04181 14431 11670 60302 10087 20077 30083 40177 53011 60012 72162 82572 333 10140 82740
AAXX 04181 14444 NIL
AAXX 04181 14474 12565 70805 10092 20061 39988 40179 55003 69942 81570 333 10111
AAXX 04181 12105 11580 72307 10048 20013 39972 40015 51009 69952 72581 879// 333 10060 20039 91012 91118 93095
AAXX 04181 12195 12777 82408 10039 21005 39771 49997 55004 69902 885// 333 10047 20037 91014 91114 93000
AAXX 04181 12235 11580 72409 10038 20008 39814 40024 51009 69912 70382 875// 333 10048 20026 91118 93091
AAXX 04181 12270 12582 62608 10043 20006 39860 40042 53008 60002 865// 333 10063 20040 91115 93000
AAXX 04181 12280 12580 62306 10045 20001 39854 40010 52004 69942 86300 333 10053 20037 91112 93000
AAXX 04181 12300 11582 72806 10041 20018 39986 40076 51014 69902 78082 879// 333 10061 20041 91113 93097
AAXX 04181 12400 11682 72506 10048 20002 39864 40100 53011 69932 70381 875// 333 10065 20040 91118 93093
AAXX 04181 12435 12675 72307 10046 20004 39920 40093 51015 60002 875// 333 10071 20046 91117 93000
AAXX 04181 12495 11768 72405 10036 20023 39797 40091 51009 60042 70362 82508 333 10056 20034 91112 93001
AAXX 04181 12530 11660 22504 10041 21003 39927 40128 51017 60022 70181 82500 333 10071 20039 91111 93001
AAXX 04181 12570 11668 82404 10025 20006 39792 40114 53015 60082 70386 885// 333 10071 20023 91114 93095
AAXX 04181 12580 11560 72807 10036 20026 39865 40127 52022 60042 78062 873// 333 10061 20036 91014 91114 93003
AAXX 04181 12160 12580 72206 10044 20009 39954 40007 53015 60002 875// 333 10063 20035 91115 93000
AAXX 04181 12205 12581 32408 10046 20013 30037 40045 50004 60002 83500 333 10066 20046 91121 93000
AAXX 04181 12465 12781 72508 10051 21001 39854 40088 52014 60002 875// 333 10069 20050 91116 93000
AAXX 04181 12566 11680 82406 10040 20017 39836 40133 52021 60082 70386 875// 333 10073 20037 93002
AAXX 04181 12120 12570 72514 10053 20025 39972 49979 50006 69902 872// 333 10060 20051 91019 91123 93000
AAXX 04181 12250 12582 72405 10050 20011 39957 40046 52009 60002 875// 333 10066 20043 91010 91113 93000
AAXX 04181 12295 12773 82504 10047 21003 39851 40034 51005 60002 885// 333 10065 20044 91110 93000
AAXX 04181 12330 11670 42506 10038 20020 39972 40081 52014 69902 70181 84500 333 10068 20037 91117 93097
AAXX 04181 12375 12680 72606 10058 21001 39936 40066 52008 69902 875// 333 10078 20056 91012 91112 93000
AAXX 04181 12424 11699 72607 10052 20000 39969 40122 51015 69902 70182 875// 333 10086 20042 91115 93097
AAXX 04181 06400 11560 82412 10091 20053 30139 40150 56030 69902 76222 875// 333 10092 81626 83640 87650 91117 91212
AAXX 04181 06428 NIL
AAXX 04181 06451 12565 82307 10075 20033 30090 40158 56027 60002 8457/ 333 10078 82629 84650 87361 91113 91210
AAXX 04181 06456 11460 82408 10052 20038 39817 40188 56018 69962 78082 878// 333 10064 81711 83814 87617 91113 91209
AAXX 04181 06476 17260 82506 10027 20018 39521 40195 58016 69912 70065 333 10037 83/04 87/05 88/07 91113 91207
AAXX 04181 06479 11563 72308 10070 20031 30071 40151 56025 69922 76022 875// 333 10079 81627 83634 87640 91113 91209
AAXX 04181 06490 17471 82407 10038 20017 39602 40179 58018 69902 741// 333 10041 83/11 87/15 87/20 91113 91208
AAXX 04181 06590 11462 72208 10044 20027 39740 40199 57021 60012 76022 875// 333 10052 87615 91117 91208
AAXX 04184 06011 05584 70416 10029 21008 39690 49758 57027 69942 333 10039 21001 55300 20000 6///7 81/23 87/65
AAXX 04184 61974 12470 50605 10287 20229 40117 60002 82832 333 10318 55070 58010 82818 83075
AAXX 04184 61986 12470 21304 10272 20246 40125 60002 82200 333 10306 58014 82819
AAXX 04184 61988 12470 61316 10256 20208 40137 69902 70182 85802 333 10298 55118 58016 84817 83075 91130
AAXX 04184 61989 NIL
AAXX 04184 61990 12470 51110 10267 20220 40146 60002 85801 333 10297 55079 58016 85817
AAXX 04184 61995 11465 61109 10225 20210 39663 69902 72511 86202 333 10273 55099 58016 86817
AAXX 04181 06431 NIL
AAXX 04181 06432 NIL
AAXX 04181 06449 11466 82209 10061 20036 39949 40179 56021 69922 72102 888// 333 10072 84818 85624 91114 91209
AAXX 04181 06450 11565 82306 10080 20034 30130 40146 56030 69902 72122 83430 333 10081 83628 86361 91113 91208
AAXX 04181 06458 NIL
AAXX 04181 06465 NIL
AAXX 04181 06478 12575 82208 10055 20031 39952 40174 56017 60002 8653/ 333 10065 86630 91116 91211
AAXX 04181 06496 NIL
AAXX 04184 06030 01460 72617 10040 20025 39876 49892 57021 60012 78081 87931 333 10071 20034 60017 81918 86642 91136
AAXX 04184 06060 01565 62418 10059 20034 39858 49922 57028 69942 70286 86800 333 10069 20043 69947 82822 84635 91033 91142 91229
AAXX 04184 06070 07463 52409 10041 20012 39897 49926 57021 69942 78188 333 10066 20038 69907 81/17 83/50 85/71 91138 91221
AAXX 04184 06120 42580 52312 10050 20032 39936 49962 57020 84832 333 10059 20026 83820 91141 91224
AAXX 04184 06180 01481 72521 10043 20013 39946 49952 58003 69982 72162 83571 333 10068 20040 6///7 81818 83339 87075 91139
AAXX 04184 06193 07460 52533 10051 20029 39944 49956 52002 69932 70085 333 10057 20050 55300 20000 69917 81/18 83/29 85/68 91148
AAXX 04184 60020 NIL
AAXX 04184 60030 02975 13506 10199 20041 30200 40256 56001 60002 81040 333 10216 60007 92428
AAXX 04184 60040 02570 20313 10191 20137 30253 40278 53002 60002 81530 333 10223 60007 92437
AAXX 04184 60338 12962 00000 10138 20127 30240 40307 50000 60002 333 10171 92417
AAXX 04184 17042 12970 21210 10086 21030 30190 40230 57009 60002 82030 333 10111 82360 92438
AAXX 04184 17074 12662 21902 11026 21035 39280 40262 51002 60002 82200 333 10070 82833 91105
AAXX 04184 17086 12970 00905 11007 21034 39501 40250 57001 60002 333 10071
AAXX 04184 17088 12970 00000 11017 21065 38831 48519 52007 60002 333 10045
AAXX 04184 17140 12965 00602 11014 21032 38728 48507 58001 60002 333 10079
AAXX 04184 17155 11909 00101 11018 21020 39085 40254 58002 60002 74640 333 10052 91107
AAXX 04184 17203 12970 00000 11009 21062 38919 48559 52009 60002 333 10079
AAXX 04184 17237 12970 02302 10057 20001 39698 40217 5//// 60002 333 10117 91104
AAXX 04184 17250 12975 00404 11009 21037 38832 48518 52003 60002 333 10077
AAXX 04184 17270 12970 02902 10065 20010 39566 40226 51005 60002 333 10148
AAXX 04184 17295 12560 50203 10107 20086 30198 40205 50000 60002 82130 333 10164 82830 84360
AAXX 04184 17320 12970 03404 10105 20066 30206 40211 52007 60002 333 10167 92438
AAXX 04184 17375 12970 03502 10106 20092 30204 40206 52005 60002 333 10176 91109 92408
AAXX 04184 60106 32965 03404 10136 20058 40300 53005 333 10220
AAXX 04184 17500 NIL
AAXX 04184 17501 12560 23006 10127 20064 30190 40209 52007 60002 82100 333 10164 82830 92427
AAXX 04184 17505 12560 20705 10105 20078 30106 40221 52007 60002 82100 333 10172 82830
AAXX 04184 17507 NIL
AAXX 04184 17510 12560 20000 10120 20077 30180 40190 53005 60002 82100 333 10180 82830 92417
AAXX 04184 17515 12560 2//// 10071 20053 30053 40234 52010 60002 82100 333 10182 82830
AAXX 04184 17521 12560 42205 10097 20075 30069 40208 52009 60002 84100 333 10167 84825
AAXX 04184 17530 12560 20000 10087 20068 30163 40221 53008 60002 82100 333 10176 82830
AAXX 04184 17535 12560 20104 10094 20064 30161 40198 53007 60002 82100 333 10175 82830
AAXX 04184 17540 12560 12104 10136 20085 30203 40227 52006 60002 81100 333 10176 81830 92427
AAXX 04184 17547 42560 10403 10122 20069 39968 40213 52008 60002 81100 333 81830 92427
AAXX 04184 17550 12560 20000 10105 20076 30064 40212 52008 60002 82100 333 10166 82830 92427
AAXX 04184 17572 12560 2//// 10112 20065 30197 40222 52006 60002 82100 333 10165 82830 92417
AAXX 04184 85032 32465 53408 10297 20233 39962 40122 57026 83230 333 56770 58012 83817 85358
AAXX 04184 85043 32465 63506 10295 20239 39953 40114 57018 85530 333 56770 58003 85615 86358
AAXX 04184 85104 32565 43207 10320 20247 39949 40108 57021 84200 333 56700 58007 84820
AAXX 04184 85109 32565 53210 10325 20245 39948 40107 57017 85200 333 56700 58003 85820
AAXX 04184 85114 32465 42706 10322 20233 39948 40112 57017 84200 333 56700 58007 84817
AAXX 04184 85116 32465 53406 10320 20243 39937 40114 57021 85200 333 56700 58012 85817
AAXX 04184 85123 32465 52906 10330 20233 39934 40098 57026 83201 333 56706 58004 83817 84070
AAXX 04184 85139 32465 33204 10323 20257 39878 40070 57018 81130 333 56660 58009 81817 83358
AAXX 04184 85153 32465 33205 10330 20251 39924 40107 57016 83200 333 56700 58006 83817
AAXX 04184 85154 32470 33007 10330 20244 39930 40109 57022 83201 333 56700 58010 83817
AAXX 04184 71950 17766 31409 10030 20020 39357 49976 53023 60021 7004/ 333 10037 20012 70145
AAXX 04184 71952 16/// /1005 10044 20017 39157 49993 52026 60001 333 10050 20000 70045
AAXX 04184 71954 NIL
AAXX 04184 71956 NIL
AAXX 04184 71959 NIL
AAXX 04184 71960 460// /0711 11321 30014 40155 58008 6///1 333 11283 21321 7////
AAXX 04184 71962 16/// /2705 11033 21069 39711 40140 58011 60001 333 11033 21124 70087
AAXX 04184 71963 NIL
AAXX 04184 71967 16/// /2109 11138 21190 30063 40173 56038 60001 333 11135 21193 70000
AAXX 04184 71970 NIL
AAXX 04184 71971 NIL
AAXX 04184 71972 460// ///// 11188 39602 40078 51002 6///1 333 11175 21206 7////
AAXX 04184 71973 46/// /0107 11046 21056 39745 49932 58058 6///1 333 11029 21050 7////
AAXX 04184 71974 NIL
AAXX 04184 71975 460// /2513 11293 39294 40055 53008 6///1 333 11282 21294 7////
AAXX 04184 71976 NIL
AAXX 04184 71977 NIL
AAXX 04184 71978 NIL
AAXX 04184 71979 NIL
AAXX 04184 71980 46/// ///// 11184 21206 6///1 333 11184 21305 7//// 555 10030
AAXX 04184 71981 NIL
AAXX 04184 71982 NIL
AAXX 04184 71983 NIL
AAXX 04184 71984 16/// /0000 11304 21334 30161 40170 56005 60001 333 11256 21320 70000
AAXX 04184 71985 NIL
AAXX 04184 71986 NIL
AAXX 04184 71987 16/// /3120 11066 21096 30030 40040 56015 60001 333 11059 21110 70000
AAXX 04184 71988 17/// /3017 11088 21103 30092 40112 55005 69961 7//4/ 333 11079 21095 70012
AAXX 04184 71989 NIL
AAXX 04184 71990 NIL
AAXX 04184 71999 46/// ///// 10068 6///1 333 10106 20058 7////
AAXX 04184 71816 11240 80000 11089 21094 39974 40036 55026 69921 76877 887// 333 11084 21116 43095 70004 90983
AAXX 04184 71817 12974 12405 11099 21127 30039 40052 52029 60001 81040 333 42011 70000
AAXX 04184 71818 11356 80713 11037 21050 30004 40022 55021 69961 75672 887// 333 11012 21068 44022 70012 90917
AAXX 04184 71822 11432 81805 11178 21214 39566 40065 57033 60011 77122 887// 333 11178 21310 43048 70010 90962 93101
AAXX 04184 71825 11466 80000 11162 21196 39363 40054 56034 69921 77172 88500 333 11160 21187 48116 70004 90937
AAXX 04184 71827 NIL
AAXX 04184 71828 17564 80602 11166 21188 39398 40058 56036 60001 745// 333 11166 21244 70005
AAXX 04184 71831 11362 82809 11073 21104 39767 40052 50001 69921 70372 885// 333 11069 21082 48053 70020 90931
AAXX 04184 71832 NIL
AAXX 04184 71834 11374 82906 11055 21091 39645 40078 57010 69901 77177 885// 333 11055 21163 48035 79999 90973
AAXX 04184 71841 NIL
AAXX 04184 71842 12474 73006 11069 21086 39645 40124 50004 60001 87500 333 11069 21115 70000
AAXX 04184 71844 NIL
AAXX 04184 71845 11474 82907 11065 21088 39608 40090 58001 69901 77177 885// 333 11064 21142 44024 79999 90973
AAXX 04184 71850 12774 72505 11041 21076 39631 40139 50000 60001 86570 333 11040 21091 70000
AAXX 04184 71852 16964 02506 11001 21044 39841 40138 58003 60001 333 10002 21096 70000
AAXX 04184 71854 12974 12204 11063 21095 39639 40120 58006 60001 81070 333 11063 21113 70000
AAXX 04184 71858 NIL
AAXX 04184 71861 16/// /2807 10005 21037 39412 40145 57007 60001 333 10005 21079 70000
AAXX 04184 71862 12974 32709 10038 21014 39463 40170 50007 60001 81071 333 10038 21067 70000
AAXX 04184 71863 46964 32105 11022 21051 39451 40158 50002 6///1 333 11018 21075 7////
AAXX 04184 71051 NIL
AAXX 04184 71055 NIL
AAXX 04184 71057 NIL
AAXX 04184 71059 460// ///// 11241 30091 40186 58005 6///1 333 11223 21281 7////
AAXX 04184 71061 16/// /3301 10023 21012 39259 40030 56023 60001 333 10045 21035 70009
AAXX 04184 71062 46/// /2106 10097 21021 38977 40018 57008 6///1 333 10103 20013 7////
AAXX 04184 71064 460// /3015 11294 39952 40181 56005 6///1 333 11282 21336 7////
AAXX 04184 71065 NIL
AAXX 04184 71067 NIL
AAXX 04184 71070 NIL
AAXX 04184 71073 NIL
AAXX 04184 71074 NIL
AAXX 04184 71075 16/// /0502 11147 21164 39537 40160 50012 60001 333 11119 21151 70000
AAXX 04184 71078 NIL
AAXX 04184 71084 460// ///// 11315 30081 40132 56002 6///1 333 11314 21343 7////
AAXX 04184 71085 15966 02640 10095 21038 38783 40150 58004 60001 333 10095 20026 70000
AAXX 04184 71087 NIL
AAXX 04184 71088 460// /1912 11337 53004 6///1 333 11303 21342 7////
AAXX 04184 71089 NIL
AAXX 04184 71096 460// ///// 11304 39274 40040 53011 6///1 333 11288 21315 7////
AAXX 04184 71097 46164 31404 11244 39581 40075 53007 6///1 333 11244 21274 7////
AAXX 04184 71098 43/// /3311 11061 21094 39743 40107 51006 6///1 333 11055 21108 7////
AAXX 04184 71099 43/// /3114 11182 21258 30033 40054 51032 6///1 333 11096 21183 7////
AAXX 04184 71930 13974 72004 10035 21002 39120 40042 57022 60023 82072 333 10035 21039 43016 70022 90999
AAXX 04184 71931 NIL
AAXX 04184 71934 12974 81204 11158 21188 39851 40118 58026 60001 8807/ 333 11158 21226 79999
AAXX 04184 71935 12774 70816 11120 21158 39859 40072 57043 60001 83701 333 11115 21222 70000
AAXX 04184 71936 12974 70610 11247 21285 39870 40145 58023 60001 87070 333 11247 21292 70000
AAXX 04184 71937 NIL
AAXX 04184 71938 11974 02305 11336 21369 30175 40207 50005 69901 72277 333 11284 21336 79999 90933
AAXX 04184 71940 11782 72703 11003 21003 39212 40008 57006 69901 70262 82571 333 10035 21012 40997 70011 90950
AAXX 04184 71943 11974 62010 10038 20000 39158 49978 56008 60031 70266 86071 333 10044 21009 41002 70042 90942
AAXX 04184 71944 160// ///// 10032 53012 60081 333 10033 20002 70270
AAXX 04184 71945 11558 80303 11114 21144 39502 49976 57023 60021 77122 885// 333 11087 21141 47016 70058 90962 93103
AAXX 04184 71946 11469 91107 11138 21170 39837 40056 58028 69901 77177 885// 333 11138 21256 48042 79999 90942
AAXX 04184 71948 46050 /0811 11209 30058 40175 58001 6///1 333 11199 21226 7////
AAXX 04184 71949 46/// /0402 11117 21133 39041 49912 58015 6///1 333 11099 21200 7////
AAXX 04184 71951 NIL
AAXX 04184 71957 46964 00706 11267 21344 30013 40106 58022 6///1 333 11266 21336 7////
AAXX 04184 71964 11582 83406 11162 21184 39025 49886 56015 69901 70272 8257/ 333 11147 21179 70022 90953
AAXX 04184 71966 17/// /0000 11269 21300 39481 49963 56020 69981 7//4/ 333 11269 21360 70162 555 10050
AAXX 04184 71968 460// /0707 11340 30041 40110 58004 6///1 333 11331 21365 7////
AAXX 04184 71893 11262 81421 10086 20077 30077 40108 56001 60141 76166 8657/ 333 10086 20071 76166 90983
AAXX 04184 71894 17/// /1521 10095 20095 30100 40109 53013 60031 7//4/ 333 10096 20081 71526
AAXX 04184 71896 15866 61818 10058 20006 39217 40034 53021 60001 333 10067 20038 70000
AAXX 04184 71897 11266 81830 10090 20075 3//// 4//// 52020 60131 780XX 888XX 333 10096 20054 70164 90945
AAXX 04184 71898 160// ///// 10092 51022 60001 333 10112 20069 70125
AAXX 04184 71899 11466 62615 10059 20052 3//// 4//// 52040 60011 72582 82276 333 10087 20059 70126 90916
AAXX 04184 71902 11674 83008 11111 21173 30072 40081 57023 69901 77177 885// 333 11076 21111 47050 70014 90973
AAXX 04184 71905 NIL
AAXX 04184 71906 12974 70000 11205 21253 30017 40069 57030 60001 87020 333 11205 21268 79999
AAXX 04184 71907 17440 81010 11187 21224 39944 49977 56008 60001 745// 333 11166 21254 70010
AAXX 04184 71909 16964 00302 11272 21323 30035 40081 55002 60001 333 21336 70000
AAXX 04184 71910 46964 02702 11273 21312 39986 40051 55000 6///1 333 11261 21294 7////
AAXX 04184 71911 47811 82410 11335 30022 40082 58003 6///1 745// 333 11335 21424 7////
AAXX 04184 71912 11574 73512 11141 21188 39950 40137 51015 69901 72277 87500 333 11050 21142 48019 79999 90912
AAXX 04184 71915 NIL
AAXX 04184 71917 11974 31411 11371 21424 39998 40013 52018 69901 77677 80008 333 11346 21395 47015 79999 90983
AAXX 04184 71922 12674 71005 11045 21075 39662 40135 58004 60001 87500 333 11044 21082 70000
AAXX 04184 71924 11474 30108 11338 21380 39910 40003 50001 69901 77177 83500 333 11301 21367 48038 79999 90983
AAXX 04184 71925 11558 22813 11316 21360 30121 40165 56004 69901 77677 82500 333 11310 21345 44021 79999 90983
AAXX 04184 71926 11948 03128 11313 21367 30131 40157 53008 69901 77677 333 11269 21323 44043 79999 90913
AAXX 04184 71928 16/// /1406 10006 21059 38915 40065 57019 60001 333 10076 21041 70000
AAXX 04184 71726 17/// /1804 11162 21183 39521 40091 56046 60031 7//4/ 333 11162 21327 70034
AAXX 04184 71727 11982 60904 11178 21219 39914 40120 57044 69901 70377 86050 333 11158 21219 48048 70004 90963
AAXX 04184 71728 11680 81809 11176 21237 39876 40107 57050 69901 77111 885// 333 11175 21232 44002 70010 90910
AAXX 04184 71730 11248 82410 11052 21052 39636 40071 58019 69961 76875 887// 333 11052 21216 44014 70014 90983
AAXX 04184 71731 11324 82307 11080 21091 39614 40079 58025 60031 77177 887// 333 11080 21227 48026 70034 90983 93104
AAXX 04184 71735 NIL
AAXX 04184 71738 12574 83307 11057 21095 39718 40074 55001 60001 885// 333 11015 21172 79999
AAXX 04184 71739 41440 82910 11065 21085 39675 40044 57012 6//// 77152 887// 333 11061 21202 4//// 7//// 90973
AAXX 04184 71749 16564 32707 11053 21092 39871 40124 58014 60001 333 11053 21165 70005
AAXX 04184 71799 11258 81303 10095 20090 30141 40165 53021 60071 76122 885// 333 10098 20064 70154 90962
AAXX 04184 71800 NIL
AAXX 04184 71801 11/10 91722 10081 20081 39700 49868 57101 60101 76364 333 10081 21002 70158 90917
AAXX 04184 71803 11212 80518 11011 21020 39703 49887 58102 60121 77972 887// 333 11002 21014 44005 70116 90962 93104
AAXX 04184 71807 17/// /1527 10109 20097 39805 49823 56087 60051 7//4/ 333 10113 20009 70086
AAXX 04184 71808 12574 80412 11069 21105 39938 49985 58047 60001 885// 333 11047 21110 79999
AAXX 04184 71809 11104 90310 11042 21053 39911 49938 58056 60161 78672 333 11016 21050 47019 70160 90942 93116
AAXX 04184 71810 16/// /3006 11092 21128 39969 40037 58026 60001 333 11088 21147 70000
AAXX 04184 71811 NIL
AAXX 04184 71813 16/// /3208 11092 21132 39991 40005 57029 60001 333 11067 21120 70000
AAXX 04184 71814 16/// /3609 11084 21114 39983 49993 56036 60001 333 11063 21110 70000
AAXX 04184 71815 11/16 93512 11035 21038 39894 49924 57068 60061 78522 333 11022 21039 47008 70056 90931 93108
AAXX 04184 71603 11532 83215 11084 21118 30048 40102 55007 69981 78588 885// 333 11082 21101 47004 70012 90983 93103
AAXX 04184 71607 16/// /3107 11098 21183 30075 40109 56025 60001 333 11098 21160 70000
AAXX 04184 71609 12574 53211 11103 21175 39952 40090 57012 60001 85500 333 11095 21161 70000
AAXX 04184 71610 15966 12307 11140 21199 39850 40159 56036 60001 333 11138 21191 70000
AAXX 04184 71621 11459 82213 11024 21062 30009 40118 57048 69901 78587 885// 333 11024 21165 79999 90936
AAXX 04184 71623 NIL
AAXX 04184 71624 12574 72613 11015 21094 39896 40113 56040 60001 86870 333 11001 21156 70000
AAXX 04184 71625 17211 81305 11140 21165 39941 40110 56045 60001 745// 333 11139 21258 70000
AAXX 04184 71627 11574 81605 11124 21201 30107 40154 58047 69901 77072 8657/ 333 11123 21188 41997 79999 90921
AAXX 04184 71628 11460 81204 11122 21155 39990 40137 57048 69901 77111 84500 333 11122 21244 4-6009 79999 909/5
AAXX 04184 71630 NIL
AAXX 04184 71631 16/// /2310 11053 21081 39592 40103 58032 60001 333 11051 21175 70000
AAXX 04184 71633 12574 82410 11012 21039 39814 40090 57026 60001 885// 333 11012 21145 70002
AAXX 04184 71705 11574 23012 11091 21140 39976 40066 57012 69941 72681 81530 333 11091 21158 42001 70004 90976 93101
AAXX 04184 71706 11424 83014 11072 21098 39973 40035 56014 69961 78577 885// 333 11050 21116 47001 70006 90973 93101
AAXX 04184 71707 11420 83216 11035 21056 39876 49952 55019 60211 77173 887// 333 11014 21042 44023 70248 90973 93122
AAXX 04184 71709 11562 83320 11043 21082 39981 49994 56029 69921 78522 885// 333 11041 21073 41997 70002 90962
AAXX 04184 71711 NIL
AAXX 04184 71714 16/// /2609 11172 21228 30079 40176 57026 60001 333 11172 21217 70000
AAXX 04184 71715 16/// /2108 11162 21214 39932 40121 57023 60001 333 11150 21191 70000
AAXX 04184 71718 11556 82111 11148 21169 30040 40108 57024 69981 78522 885// 333 11117 21149 47010 70008 90952 93101
AAXX 04184 71719 NIL
AAXX 04184 71201 17/// ///// 10084 20068 60161 7//4/ 333 10113 20074 70374
AAXX 04184 71202 16/// ///// 10030 21010 60001 333 10032 21039 70007
AAXX 04184 71203 15966 81604 10051 20021 39686 40210 51014 60001 333 10056 21016 70000
AAXX 04184 71209 46/// /1519 10086 6///1 333 10106 20073 7////
AAXX 04184 71211 46/// /2313 10103 20075 30135 40147 51010 6///1 333 10125 20063 7////
AAXX 04184 71212 NIL
AAXX 04184 71213 46/// /2305 11073 21087 39744 40051 58024 6///1 333 11073 21244 7////
AAXX 04184 71214 NIL
AAXX 04184 71215 46/// /1603 10048 20007 39886 40233 53007 6///1 333 10050 20011 7////
AAXX 04184 71216 16/// /1403 10016 20011 39603 40227 58001 60001 333 10026 21002 70061
AAXX 04184 71217 NIL
AAXX 04184 71218 16/// /1304 10069 20014 39763 40192 53010 60001 333 10074 20021 70000
AAXX 04184 71219 46/// /1421 10074 20045 39944 49950 51022 6///1 333 10099 20048 7////
AAXX 04184 71220 46/// /1632 10086 20059 6///1 333 10106 20054 7////
AAXX 04184 71221 NIL
AAXX 04184 71222 16/// /0302 11066 21079 38910 49867 53015 60001 333 11063 21151 70003
AAXX 04184 71223 NIL
AAXX 04184 71224 NIL
AAXX 04184 71225 NIL
AAXX 04184 71226 NIL
AAXX 04184 71227 NIL
AAXX 04184 71228 NIL
AAXX 04184 71229 NIL
AAXX 04184 71230 16/// /2401 10023 21008 39120 40000 55001 60001 333 10051 21004 70006
AAXX 04184 71231 16/// /2212 10108 21023 60001 333 10108 20049 70000
AAXX 04184 71232 16/// /2616 10099 21025 38646 40116 50011 60001 333 10101 20048 70000
AAXX 04184 71233 NIL
AAXX 04184 71234 16/// /2414 10134 21029 38957 40126 58009 60001 333 10134 20038 70000
AAXX 04184 71235 16/// /2107 10123 21017 60001 333 10133 20015 70000
AAXX 04184 71236 16/// /3020 10074 21034 60001 333 10074 20025 7////
AAXX 04184 71237 46/// /2102 10099 20011 39287 40090 58005 6///1 333 10100 20013 7////
AAXX 04184 71238 16/// /2003 10043 21013 60001 333 10043 21019 70000
AAXX 04184 71239 16/// /2707 10005 21034 39674 40138 58009 60001 333 10005 21068 70000
AAXX 04184 71240 16/// ///// 10052 21005 39275 40118 56008 60001 333 10063 21034 70000
AAXX 04184 71241 NIL
AAXX 04184 71242 16/// /1905 10051 21004 60001 333 10051 21022 70000
AAXX 04184 71243 NIL
AAXX 04184 71244 NIL
AAXX 04184 71245 NIL
AAXX 04184 71246 NIL
AAXX 04184 71247 15966 02321 10125 21015 39293 40136 50000 60001 333 10125 20034 70000
AAXX 04184 71248 17/// /2611 10133 21036 38788 40064 56018 69971 7//4/ 333 10133 21035 70007
AAXX 04184 71249 NIL
AAXX 04184 71150 NIL
AAXX 04184 71151 NIL
AAXX 04184 71152 17/// /0337 11002 21015 39813 49826 56110 60041 7//4/ 333 10009 21019 70044
AAXX 04184 71153 NIL
AAXX 04184 71154 16/// /2340 10114 21029 60001 333 10114 20038 70007
AAXX 04184 71155 NIL
AAXX 04184 71156 NIL
AAXX 04184 71157 NIL
AAXX 04184 71158 NIL
AAXX 04184 71159 17/// /3408 11039 21043 39847 49919 56068 60041 7//4/ 333 11029 21043 70043
AAXX 04184 71160 NIL
AAXX 04184 71161 16/// /1807 11089 21130 39974 40128 57047 60001 333 11089 21215 70000
AAXX 04184 71162 NIL
AAXX 04184 71163 46/// /0808 11236 21258 39766 40128 58024 6///1 333 11233 21352 7////
AAXX 04184 71164 NIL
AAXX 04184 71165 NIL
AAXX 04184 71166 NIL
AAXX 04184 71167 15966 02303 11001 21023 38976 40067 55006 60001 333 10038 21037 70003
AAXX 04184 71168 16/// /2610 10064 21021 39611 40195 58025 60001 333 10065 21054 70000
AAXX 04184 71170 NIL
AAXX 04184 71171 17/// /2515 10003 21066 30010 40110 58040 69941 7//4/ 333 10006 21135 70004
AAXX 04184 71172 NIL
AAXX 04184 71175 17/// /3216 11028 21053 39934 49969 55015 60021 7//4/ 333 11008 7////
AAXX 04184 71176 460// /1503 11190 39362 40063 55007 6///1 333 11178 21213 7////
AAXX 04184 71177 460// /1912 11138 39031 40049 58015 6///1 333 11133 21140 7////
AAXX 04184 71178 NIL
AAXX 04184 71179 460// ///// 11079 39201 40028 56023 6///1 333 11071 21105 7////
AAXX 04184 71180 17/// /3422 11028 21033 39893 49932 56055 60041 7//4/ 333 11027 21038 70037 555 10020
AAXX 04184 71181 17256 81619 10098 20093 39729 49764 56108 60131 7//44 333 10100 21003 70180
AAXX 04184 71183 16/// /1606 30110 58046 60001 333 70000
AAXX 04184 71184 46/// /1908 11127 21188 6///1 333 11127 21182 7////
AAXX 04184 71186 NIL
AAXX 04184 71187 17248 81105 10056 20053 30129 40177 50002 60001 762// 333 10058 20044 70000
AAXX 04184 71189 NIL
AAXX 04184 71190 NIL
AAXX 04184 71191 16/// ///// 11093 21148 60001 333 11093 21151 70000
AAXX 04184 71192 15966 01310 10075 20012 39403 40053 53012 60001 333 10079 20051 70000
AAXX 04184 71193 16/// /2910 11068 21082 39674 40042 58011 60001 333 11064 21217 70000
AAXX 04184 71196 16/// /1206 11141 21158 39899 40107 56045 60001 333 11141 21259 70000
AAXX 04184 71197 17420 63220 11030 21044 39874 49923 56052 60031 74544 333 11017 21034 70025
AAXX 04184 71198 46/// /2211 11138 21181 6///1 333 11138 21193 7////
AAXX 04184 71199 NIL
AAXX 04184 71250 NIL
AAXX 04184 71251 16/// /2327 10131 21013 39229 40140 50000 60001 333 10131 20070 70000
AAXX 04184 71252 NIL
AAXX 04184 71253 46/// /0403 11111 21119 6///1 333 11111 21137 7//// 555 10030
AAXX 04184 71254 16/// /1607 10014 21009 60001 333 10014 21042 70000
AAXX 04184 71255 16/// /3302 11085 21104 60001 333 11074 21087 70000
AAXX 04184 71256 46/// /2006 10036 20016 39115 40041 56023 6///1 333 10036 21029 7////
AAXX 04184 71257 NIL
AAXX 04184 71258 NIL
AAXX 04184 71259 NIL
AAXX 04184 71261 16/// /2212 11015 21051 39838 40103 58033 60001 333 11014 21143 70000
AAXX 04184 71263 11560 72517 11016 21074 39821 40117 58039 69901 70282 8557/ 333 10000 21158 4-4002 79999 909/5
AAXX 04184 71264 16/// /3113 11066 21109 30016 40048 55007 60001 333 11048 21107 70000
AAXX 04184 71265 15666 32517 10002 21082 30016 40112 58043 60001 333 10005 21134 70000
AAXX 04184 71266 NIL
AAXX 04184 71267 15966 02515 10113 21013 39083 40165 58002 60001 333 10113 20017 70000
AAXX 04184 71268 12466 82710 11043 21057 39668 40078 58014 60001 885// 333 11043 21172 70004
AAXX 04184 71269 NIL
AAXX 04184 71270 NIL
AAXX 04184 71271 16/// ///// 10044 21013 60001 333 10047 21007 70007
AAXX 04184 71272 15966 03206 11204 21235 39801 40166 53016 60001 333 11110 21211 70000
AAXX 04184 71273 16/// /1704 11020 21031 39427 40090 58013 60001 333 11020 21114 70000
AAXX 04184 71274 NIL
AAXX 04184 71275 NIL
AAXX 04184 71276 NIL
AAXX 04184 71277 NIL
AAXX 04184 71278 NIL
AAXX 04184 71279 16/// /3105 11109 21154 39991 40059 58028 60001 333 11109 21204 70000
AAXX 04184 71281 NIL
AAXX 04184 71282 46/// /2418 11033 21052 39831 40107 56033 6///1 333 11031 21188 7////
AAXX 04184 71283 NIL
AAXX 04184 71284 16/// ///// 10023 21018 60001 333 10033 21020 70017
AAXX 04184 71285 NIL
AAXX 04184 71286 NIL
AAXX 04184 71287 NIL
AAXX 04184 71288 NIL
AAXX 04184 71289 NIL
AAXX 04184 71290 17966 61511 10030 20012 39189 40007 52011 60091 70044 333 10037 20003 70233
AAXX 04184 71291 16/// /2806 11049 21081 39807 40103 58008 60001 333 11049 21157 70000
AAXX 04184 71292 15966 02503 11037 21054 39526 40140 58002 60001 333 11026 21084 70000
AAXX 04184 71294 16/// /2004 11098 21115 39691 40108 58039 60001 333 11097 70000
AAXX 04184 71295 NIL
AAXX 04184 71296 NIL
AAXX 04184 71297 16/// /2611 11003 21072 60001 333 10000 21152 70000
AAXX 04184 71298 16/// /2513 11008 21064 39895 40132 58030 60001 333 11007 21084 70000 555 10010
AAXX 04184 71299 NIL
AAXX 04184 71665 17/// /2910 11111 21160 30067 40077 58022 69961 7//4/ 333 11076 21111 70012 555 10010
AAXX 04184 71666 16/// /2907 11092 21144 30018 40064 58010 60001 333 11091 21155 70000
AAXX 04184 71667 NIL
AAXX 04184 71668 16/// /2811 11107 21170 30048 40093 56027 60001 333 11104 21153 70000
AAXX 04184 71669 NIL
AAXX 04184 71670 16/// ///// 11083 21143 60001 333 11083 21154 70000
AAXX 04184 71671 16/// /2809 11085 21101 30000 40061 56014 60001 333 11080 21122 70000
AAXX 04184 71672 16/// /2308 11025 21092 39834 40105 56045 60001 333 11024 21227 70000
AAXX 04184 71673 NIL
AAXX 04184 71674 NIL
AAXX 04184 71675 17666 83311 11104 21144 39797 40080 51025 60021 7714/ 333 11059 21143 70113
AAXX 04184 71679 17/// /0903 10031 20015 39009 40007 51031 69991 7//4/ 333 10046 20015 70051
AAXX 04184 71680 NIL
AAXX 04184 71681 46/// /2206 10101 20036 6///1 333 10112 21015 7////
AAXX 04184 71682 NIL
AAXX 04184 71683 NIL
AAXX 04184 71684 17658 82206 11073 21091 39748 40056 58023 60001 771// 333 11073 21241 70000
AAXX 04184 71685 15466 81411 10039 20021 39662 40204 56011 60001 333 10040 21019 70061
AAXX 04184 71686 469// /0303 11060 21073 38911 49853 53016 6///1 333 11056 21133
AAXX 04184 71687 17/// /3501 10012 20007 39357 40140 51014 60211 7//4/ 333 10042 20004 70315
AAXX 04184 71688 17/// /0803 10008 20007 39100 40133 53004 60111 7//4/ 333 10034 21001 70110
AAXX 04184 71689 17428 81108 11049 21062 39616 40075 58011 60001 771// 333 11042 21076 70000
AAXX 04184 71690 NIL
AAXX 04184 71691 15566 32807 11134 21188 30070 40098 56025 60001 333 11129 21192 70000
AAXX 04184 71692 NIL
AAXX 04184 71694 16/// /1906 11061 21075 39734 40107 56035 60001 333 11061 21247 70000
AAXX 04184 71695 16/// /3302 11057 21091 39810 40149 53011 60001 333 11042 21063 70000
AAXX 04184 71696 16/// /3311 11208 21228 30093 40131 51016 60001 333 11151 21208 70000
AAXX 04184 71697 15666 82512 11013 21077 39937 40112 56040 60001 333 11010 21160 70000
AAXX 04184 71699 16/// /3007 11095 21162 30091 40099 56016 60001 333 11093 21153 70000 555 10010
AAXX 04184 71125 11974 70000 11053 21060 39509 40100 57014 60001 70241 86072 333 70000
AAXX 04184 71114 160// /1105 10056 20051 30129 40177 50001 60121 333 10058 20043 70290
AAXX 04184 71120 12974 71502 11031 21057 39425 40085 58018 60001 80006 333 11018 21068 70000
AAXX 04184 71122 16/// /2506 10049 21017 38575 40168 58009 60001 333 10051 7////
AAXX 04184 71123 11974 71511 10030 21021 39149 40056 58025 69921 70266 81078 333 10033 21043 44006 70006 90960
AAXX 04184 71125 11974 80000 11053 21060 39509 40100 57014 60001 70241 86072 333 70000
AAXX 04184 71129 12874 41808 10029 21008 39291 40120 58007 60001 82071 333 10029 21036 70000
AAXX 04184 71131 16/// /2616 10032 21016 38907 40164 58003 60001 333 10032 21026 70000
AAXX 04184 71135 16/// /2511 10037 21036 39086 40173 50000 60001 333 10038 21007 70000
AAXX 04184 71137 NIL
AAXX 04184 71140 12974 32707 11022 21040 39639 40147 5/004 60001 80001 333 11022 21097 70000
AAXX 04184 71145 11574 73412 11077 21132 39829 40127 51013 69921 77177 87500 333 11047 21110 48032 70002 90963
AAXX 04184 71148 NIL
AAXX 04184 71185 17011 90311 11048 39931 49955 57053 60001 745// 333 11021 21049 70000
AAXX 04184 71188 11574 73012 11081 21139 30001 40044 57025 69901 70172 87500 333 11077 21145 43018 79999 90922
AAXX 04184 71200 17/// /2403 10093 20076 60061 7//4/ 333 10098 20072 70074
AAXX 04184 71207 17/// /1506 10079 20064 30080 40144 53002 60341 7//4/ 333 10084 20043 7////
AAXX 04184 71260 13/// ///// 11020 21043 39848 40087 57008 69941 333 11020 21144 44018 70004
AAXX 04184 71700 15966 02609 11100 21172 30070 40096 56025 60001 333 11097 21153 70000
AAXX 04184 71701 12574 22709 11101 21170 30030 40094 56025 60001 82500 333 11101 21160 70000
AAXX 04184 71702 16/// /3118 11083 21111 30028 40043 56007 60001 333 11065 21128 70000
AAXX 04184 71703 11674 23112 11153 21194 39801 40111 56024 69901 70171 81570 333 11150 21197 43007 79999 90929
AAXX 04184 71704 17966 02111 11005 21072 39892 40117 58037 69951 7004/ 333 11004 21125 70073
AAXX 04184 71710 16/// /3320 11041 21078 39980 49990 56030 60001 333 11038 21069 70000
AAXX 04184 71712 16/// /0805 11110 21164 30082 40147 58049 60001 333 11110 21192 70000
AAXX 04184 71713 16/// /2419 11162 21212 60001 333 11162 21194 70000
AAXX 04184 71716 NIL
AAXX 04184 71717 NIL
AAXX 04184 71720 17/// /1217 10086 20074 39973 40125 51006 60061 7//4/ 333 10096 20069 70350
AAXX 04184 71721 16/// /1809 11149 21172 39857 40116 56042 60001 333 11149 21266 70000
AAXX 04184 71723 NIL
AAXX 04184 71724 NIL
AAXX 04184 71732 NIL
AAXX 04184 71733 16/// /2406 11051 21053 39629 40072 58018 60001 333 11051 21234 70000
AAXX 04184 71734 NIL
AAXX 04184 71736 NIL
AAXX 04184 71737 NIL
AAXX 04184 71741 16/// /1116 10081 20018 39736 40155 53006 60001 333 10081 20041 70000
AAXX 04184 71742 46/// /0417 11012 21014 39705 49888 58101 6///1 333 10000 21015 7////
AAXX 04184 71743 NIL
AAXX 04184 71744 16/// /3107 11085 21148 30026 40068 56030 60001 333 11082 21161 70000
AAXX 04184 71745 NIL
AAXX 04184 71746 NIL
AAXX 04184 71747 NIL
AAXX 04184 71748 NIL
AAXX 04184 71102 NIL
AAXX 04184 71105 NIL
AAXX 04184 71107 NIL
AAXX 04184 71110 NIL
AAXX 04184 71111 16666 3//// 10064 20050 39919 49927 53018 69981 333 10105 20060 70149
AAXX 04184 71112 17/// ///// 60101 7//4/ 333 70280
AAXX 04184 71113 17/// /2502 10067 20064 30147 40170 53002 60141 7//4/ 333 10080 20055 70290
AAXX 04184 71115 NIL
AAXX 04184 71116 16/// /2520 10126 21031 39094 40179 53019 60001 333 10126 20037 70000
AAXX 04184 71118 16/// /1706 10009 21022 39264 40090 58012 60001 333 10012 21042 70000
AAXX 04184 71121 16964 01905 10034 21046 39234 40051 58021 60001 333 10035 21006 70005
AAXX 04184 71127 16/// /1504 10018 21026 39145 40041 58023 60001 333 10045 20000 70008
AAXX 04184 71130 15966 01203 11074 21085 39676 40140 58003 60001 333 11029 21104 70000
AAXX 04184 71132 15966 11003 11206 21225 39845 40170 50004 60001 333 11113 21228 70000
AAXX 04184 71133 NIL
AAXX 04184 71139 16/// /2418 10075 21030 38702 40147 51005 60001 333 10084 20028 70000
AAXX 04184 71141 NIL
AAXX 04184 71142 15966 02011 10057 20003 39182 40146 58006 60001 333 10057 20013 70000
AAXX 04184 71143 NIL
AAXX 04184 71144 NIL
AAXX 04184 71147 16/// /3203 10025 21027 60001 333 10025 21071 70000
AAXX 04184 71149 NIL
AAXX 04184 71397 11440 83107 11090 21109 30044 40079 56011 60031 78588 885// 333 11084 21121 47003 70026 90983 93103
AAXX 04184 71400 17/04 /0209 11019 21019 60091 7//4/ 333 11015 21027 70085
AAXX 04184 71403 46/// /3220 11041 21078 39997 40017 55003 6///1 333 11016 21062 7////
AAXX 04184 71411 16/// /3111 11076 21133 30068 40081 55003 60001 333 11062 21099 70000
AAXX 04184 71412 16/// /3323 11030 21060 39982 49992 56025 60001 333 11030 21062 70000
AAXX 04184 71421 NIL
AAXX 04184 71430 16/// /2222 11018 21053 30024 40123 56046 60001 333 11016 21169 70000
AAXX 04184 71431 16/// /2419 11010 21042 30004 40102 56049 60001 333 11006 21162 70000
AAXX 04184 71432 NIL
AAXX 04184 71433 NIL
AAXX 04184 71435 NIL
AAXX 04184 71441 46/// /2205 10013 21028 39819 40130 58017 6///1 333 10014 21061 7////
AAXX 04184 71443 16/// /2105 11043 21074 39721 40138 50001 60001 333 11028 21074 70000
AAXX 04184 71444 16/// /2101 11015 21049 39375 40144 58002 60001 333 11008 21126 70000
AAXX 04184 71447 NIL
AAXX 04184 71467 16/// /1008 11244 21267 30073 40193 55001 60001 333 11211 21279 70000
AAXX 04184 71472 NIL
AAXX 04184 71474 17564 32012 10042 20013 38902 40130 51021 69951 74344 333 10070 20000 70005
AAXX 04184 71510 16/// /2206 10019 21018 39414 40123 58013 60001 333 10019 21063 70000
AAXX 04184 71538 12974 22410 11004 21088 39896 40130 58031 60001 80001 333 11001 21078 79999
AAXX 04184 71600 174// 83229 11006 21015 39960 49966 50019 60051 74544 333 10042 21006 70160
AAXX 04184 71601 NIL
AAXX 04184 71744 NIL
AAXX 04184 71750 16/// /3502 11053 21091 39845 40081 58007 60001 333 11033 21175 70004 555 10010
AAXX 04184 71751 NIL
AAXX 04184 71752 NIL
AAXX 04184 71753 16/// /2907 11068 21111 30001 40030 55014 60001 333 11064 21095 70000 555 10010
AAXX 04184 71754 16/// /1406 10010 21033 39456 40125 56012 60001 333 10010 21099 70000
AAXX 04184 71755 43/// /3307 11080 21107 39747 40096 51019 6///1 333 11051 21127 7////
AAXX 04184 71756 17/// /0102 10014 20013 39043 40134 51011 60221 7//4/ 333 10036 20001 70304
AAXX 04184 71758 NIL
AAXX 04184 71760 NIL
AAXX 04184 71761 NIL
AAXX 04184 71762 NIL
AAXX 04184 71763 NIL
AAXX 04184 71765 17/// /1916 10063 20050 39882 40155 53015 60101 7//4/ 333 10093 20061 70101
AAXX 04184 71766 17/// /1308 10090 20083 30047 40118 51009 60151 7//4/ 333 10103 20071 70604
AAXX 04184 71767 16/// /2710 11013 21046 39821 40084 58018 60001 333 11013 21157 70000
AAXX 04184 71768 46/// /1305 10064 20006 39661 40210 51017 6///1 333 10077 20010 7////
AAXX 04184 71769 17/// /1124 10085 20077 30103 40119 51010 60091 7//4/ 333 10103 20073 70200
AAXX 04184 71770 16/// /1104 10017 20016 39487 40271 58005 60001 333 10019 7////
AAXX 04184 71771 NIL
AAXX 04184 71772 17/// /1320 10090 20085 30126 40132 50011 60071 7//4/ 333 10103 20077 70190
AAXX 04184 71773 16/// /3504 11164 21178 39022 49883 56015 60001 333 11144 21172 70021 555 10030
AAXX 04184 71774 46/// ///// 10079 6///1 333 10095 20055 7////
AAXX 04184 71775 17/// /1603 10095 20077 30169 40175 53011 60131 7//4/ 333 10095 20069 70277
AAXX 04184 71776 46/// /0703 10028 20017 39607 40258 56008 6///1 333 10028 20005 7////
AAXX 04184 71777 17/// ///// 10025 20023 39899 40152 51019 60221 7//4/ 333 10030 21002 70348
AAXX 04184 71778 46/// /3602 6///1 333 7////
AAXX 04184 71779 16/// /1110 10076 20009 39400 40049 53012 60001 333 10081 20050 70000
AAXX 04184 71780 NIL
AAXX 04184 71781 46/// /1131 10085 20074 30083 40107 52010 6///1 333 10101 20074 7////
AAXX 04184 71782 46/// /1704 10062 21013 38908 40235 58003 6///1 333 10064 20022 7////
AAXX 04184 71783 17/// /2102 10088 20081 30086 40159 53014 60081 7//4/ 333 10095 20064 70104
AAXX 04184 71784 17/// /0705 10080 20069 39964 40168 51015 60181 7//4/ 333 10115 20076 70438
AAXX 04184 71785 17/// /1612 10104 20076 30161 40177 53010 60081 7//4/ 333 10141 20080 70194
AAXX 04184 71786 46/// /2717 11016 21022 38363 40206 58014 6///1 333 11016 21054 7////
AAXX 04184 71787 17/// /3010 11138 21156 39560 40064 58010 60021 7//4/ 333 11136 21192 70020
AAXX 04184 71788 NIL
AAXX 04184 71789 NIL
AAXX 04184 71791 NIL
AAXX 04184 71792 NIL
AAXX 04184 71793 NIL
AAXX 04184 71794 NIL
AAXX 04184 71795 NIL
AAXX 04184 71796 NIL
AAXX 04184 71797 NIL
AAXX 04184 71604 16/// /3116 11082 21085 60001 333 11063 21089 70000
AAXX 04184 71605 17/// /1903 10085 20085 30006 40155 53008 60331 7//4/ 333 10100 20062 70988
AAXX 04184 71611 16/// /2105 11125 21180 60001 333 11125 21188 70000
AAXX 04184 71612 16/// /1804 11125 21184 30060 40155 58047 60001 333 11123 21188 70000
AAXX 04184 71614 NIL
AAXX 04184 71616 16/// /2010 11146 21187 30037 40163 57038 60001 333 11145 21217 70000
AAXX 04184 71617 16/// /1105 11171 21223 39948 40129 56047 60001 333 11169 21204 70000
AAXX 04184 71618 17366 83416 11205 21224 30099 40138 51017 60001 771// 333 11150 21205 70003
AAXX 04184 71619 16/// /3109 11087 21148 39995 40055 56030 60001 333 11086 21170 70000
AAXX 04184 71622 NIL
AAXX 04184 71632 46/// /0304 11121 21156 39706 40156 51014 6///1 333 11077 21124 7////
AAXX 04184 71634 16/// /3007 11101 21143 39915 40073 56027 60001 333 11095 21171 70000
AAXX 04184 71638 17/// /1313 10095 20075 30039 40143 51011 60091 7//4/ 333 10116 20086 70180
AAXX 04184 71639 11574 72310 11014 21101 39863 40110 58042 69901 70172 85570 333 11010 21164 45997 79999 90960
AAXX 04184 71642 11474 83106 11047 21065 39507 40059 50059 69901 77177 885// 333 11046 21194 48032 70002 90993
AAXX 04184 71001 15566 81202 11214 21238 38932 49924 55007 69911 333 11214 21327 70002
AAXX 04184 71002 17536 83005 11131 21154 39493 40045 56027 60001 771// 333 11130 21149 70000
AAXX 04184 71003 17528 81914 11164 21199 39616 40009 60001 771// 333 70000
AAXX 04184 71005 NIL
AAXX 04184 71006 NIL
AAXX 04184 71007 NIL
AAXX 04184 71008 NIL
AAXX 04184 71009 NIL
AAXX 04184 71010 NIL
AAXX 04184 71011 NIL
AAXX 04184 71012 NIL
AAXX 04184 71013 NIL
AAXX 04184 71014 NIL
AAXX 04184 71015 NIL
AAXX 04184 71016 NIL
AAXX 04184 71017 NIL
AAXX 04184 71018 NIL
AAXX 04184 71019 NIL
AAXX 04184 71020 NIL
AAXX 04184 71021 NIL
AAXX 04184 71022 15566 81415 10090 20058 39901 49944 51023 60001 333 10111 20069 70166
AAXX 04184 71023 NIL
AAXX 04184 71024 16/// /1011 11107 21118 60001 333 11095 21110 70007 555 10010
AAXX 04184 71026 NIL
AAXX 04184 71027 16/// /3510 11034 21069 39950 49960 55023 60001 333 11022 21044 70000
AAXX 04184 71028 17/// /1105 10033 20031 39049 40074 52017 60131 7//4/ 333 10050 20022 70274
AAXX 04184 71029 17/// /0508 11275 21304 30138 40179 56003 69991 7//4/ 333 11271 21296 70031
AAXX 04184 71030 16/64 /3008 11106 21155 30004 40096 56017 60001 333 11105 21142 70000 555 10010
AAXX 04184 71032 NIL
AAXX 04184 71033 46/// /0805 11129 21141 39496 40142 58004 6///1 333 11115 21145 7////
AAXX 04184 71035 NIL
AAXX 04184 71036 15966 02906 10009 21040 39757 40134 58002 60001 333 10013 21069 70000
AAXX 04184 71039 NIL
AAXX 04184 71040 46/// /0805 11178 21233 39903 40111 57044 6///1 333 11178 21204 7////
AAXX 04184 71041 17466 83213 11040 21075 39847 49989 55011 60001 771// 333 11025 21052 70000
AAXX 04184 71042 17/// /1505 10089 20082 30166 40170 53021 60081 7//4/ 333 10112 20073 70289
AAXX 04184 71044 16/// /1103 11308 21343 39729 40069 58016 60001 333 11234 21393 70000
AAXX 04184 71046 460// /1023 11307 30079 40097 56013 6///1 333 11307 21370 7////
AAXX 04184 71047 NIL
AAXX 04184 71048 NIL
AAXX 04184 71049 NIL
AAXX 04184 71060 NIL
AAXX 04184 71063 NIL
AAXX 04184 71145 11574 73412 11077 21132 39829 40127 51013 69921 77177 87500 333 11047 21110 48032 70002 90973
AAXX 04184 71851 16/// /2803 10021 21029 39797 40133 58009 60001 333 10021 21050 70000
AAXX 04184 71857 NIL
AAXX 04184 71860 12683 32716 10132 21012 38719 40093 57021 60001 81571 333 10134 21013 70000
AAXX 04184 71876 15966 01407 10013 21016 39459 40129 56013 60001 333 10013 21080 70000
AAXX 04184 71885 NIL
AAXX 04184 71886 16/// /2503 11037 21077 39525 40139 58002 60001 333 11027 21084 70000
AAXX 04184 71888 NIL
AAXX 04184 71890 16/// /0507 11136 21199 30066 40094 56025 60001 333 11134 21198 70000
AAXX 04184 71895 NIL
AAXX 04184 71450 NIL
AAXX 04184 71451 16/// /0504 11121 21137 39720 40157 50008 60001 333 11086 21164 70000
AAXX 04184 71452 46/// /2606 10035 21016 39444 40162 50004 6///1 333 10035 21078 7//// 555 10010
AAXX 04184 71453 NIL
AAXX 04184 71454 NIL
AAXX 04184 71455 NIL
AAXX 04184 71456 NIL
AAXX 04184 71457 16/// /2315 10120 21002 39228 40103 58002 60001 333 10120 20038 70000
AAXX 04184 71458 16/// /1707 11005 21027 39300 40070 58018 60001 333 11005 21064 70000
AAXX 04184 71459 NIL
AAXX 04184 71460 16/// /2710 11017 21042 39837 40080 58014 60001 333 11014 21185 70000
AAXX 04184 71461 NIL
AAXX 04184 71462 NIL
AAXX 04184 71463 46/// /2427 11019 21079 39895 40123 58040 6///1 333 11018 21143 7////
AAXX 04184 71464 NIL
AAXX 04184 71465 NIL
AAXX 04184 71466 NIL
AAXX 04184 71468 NIL
AAXX 04184 71470 NIL
AAXX 04184 71471 17966 62209 10071 20021 39211 49984 58008 69951 7004/ 333 10071 20000 70020
AAXX 04184 71473 17/// /1722 10076 20058 30131 40161 53014 60051 7//4/ 333 10098 20071 70080
AAXX 04184 71475 17/// /0908 10096 20090 30029 40122 51007 60151 7//4/ 333 10104 20030 71076
AAXX 04184 71476 NIL
AAXX 04184 71477 16/// /1618 10068 20056 60001 333 10082 20057 70192
AAXX 04184 71478 NIL
AAXX 04184 71479 NIL
AAXX 04184 71480 NIL
AAXX 04184 71481 NIL
AAXX 04184 71482 NIL
AAXX 04184 71483 NIL
AAXX 04184 71484 NIL
AAXX 04184 71485 17/// /1221 10082 20071 30034 40054 51017 60041 7//4/ 333 10085 20066 70092
AAXX 04184 71486 17/// /1605 10040 20020 38908 40097 55002 69931 7//4/ 333 10065 20028 70003
AAXX 04184 71487 NIL
AAXX 04184 71489 NIL
AAXX 04184 71490 NIL
AAXX 04184 71491 NIL
AAXX 04184 71492 NIL
AAXX 04184 71493 16/// /3007 11085 21127 30021 40060 55011 60001 333 11083 21144 70000
AAXX 04184 71494 16/// /2208 11164 21211 39595 40139 56028 60001 333 11163 21225 70000
AAXX 04184 71495 NIL
AAXX 04184 71496 16/// /2207 11014 21042 39517 40134 58005 60001 333 11011 21088 70000
AAXX 04184 71497 46/// /0613 11153 21172 39744 40014 58031 6///1 333 11133 21153 7////
AAXX 04184 71498 NIL
AAXX 04184 71499 15666 80806 11121 21135 39496 40139 58005 60001 333 11108 21137 70000
AAXX 04184 71401 17/// /1704 10004 21002 39565 40261 58006 69961 7//4/ 333 10007 21019 70051 555 10020
AAXX 04184 71402 NIL
AAXX 04184 71404 NIL
AAXX 04184 71405 NIL
AAXX 04184 71406 NIL
AAXX 04184 71407 NIL
AAXX 04184 71408 NIL
AAXX 04184 71409 NIL
AAXX 04184 71410 15466 83507 11071 21100 39861 40145 53007 60001 333 11063 21098 70000
AAXX 04184 71413 NIL
AAXX 04184 71414 NIL
AAXX 04184 71415 16/// /3125 11038 21063 30010 40013 55021 60001 333 11033 21074 70000 555 10010
AAXX 04184 71417 NIL
AAXX 04184 71418 NIL
AAXX 04184 71419 46/// /3229 11018 21052 39970 49980 55007 6///1 333 10002 21036 7////
AAXX 04184 71423 NIL
AAXX 04184 71424 46/// /2222 6///1 333 7////
AAXX 04184 71425 16/// /3015 11091 21132 30015 40052 58029 60001 333 11075 21118 70000
AAXX 04184 71426 NIL
AAXX 04184 71427 16/// /2810 11125 21165 30078 40086 56022 60001 333 11120 21160 70000
AAXX 04184 71428 NIL
AAXX 04184 71429 NIL
AAXX 04184 71434 NIL
AAXX 04184 71436 15666 82410 11017 21072 39869 40110 56044 60001 333 11017 21174 70000
AAXX 04184 71437 46/// /2411 11001 21076 30012 40109 56042 6///1 333 10001 21140 7////
AAXX 04184 71438 NIL
AAXX 04184 71439 NIL
AAXX 04184 71440 NIL
AAXX 04184 71442 NIL
AAXX 04184 71445 NIL
AAXX 04184 71446 NIL
AAXX 04184 71448 NIL
AAXX 04184 71449 NIL
AAXX 04184 71812 46964 33214 11282 21321 30131 40145 51012 6///1 333 11192 21282 7////
AAXX 04184 71819 15566 80707 11048 21078 39946 49987 58046 60001 333 11037 21079 70000
AAXX 04184 71820 16/// /2018 11032 21058 30005 40123 58048 60001 333 11031 21168 70000
AAXX 04184 71823 17528 81915 11187 21227 39616 40011 57037 69951 74544 333 11186 21269 70005
AAXX 04184 71824 46/// /2005 11166 21189 6///1 333 11166 21317 7////
AAXX 04184 71826 16/// /0000 11318 21361 30043 40090 53014 60001 333 11300 21324 70000
AAXX 04184 71829 16/// /2509 11139 21193 39919 40086 56025 60001 333 11136 21170 70000
AAXX 04184 71833 46/// /2609 11033 21090 6///1 333 11030 21183 7////
AAXX 04184 71835 16/// /3010 11064 21088 39599 40085 58001 60001 333 11064 21141 70000
AAXX 04184 71837 NIL
AAXX 04184 71839 NIL
AAXX 04184 71840 46/// /2612 10023 21020 6///1 333 10024 21044 7////
AAXX 04184 71846 16/// /2709 11052 21065 39733 40051 58002 60001 333 11052 21172 70000
AAXX 04184 71847 NIL
AAXX 04184 71848 NIL
AAXX 04184 71849 16/// /2506 11001 21049 39840 40140 58002 60001 333 10001 21094 70000
AAXX 04184 71900 46/// /01// 11066 21084 30048 40061 58026 6///1 333 11042 21073 7////
AAXX 04184 71903 NIL
AAXX 04184 71904 NIL
AAXX 04184 71914 17/// /0403 10079 20068 39949 40169 53016 60091 7//4/ 333 10099 20075 70120
AAXX 04184 71916 NIL
AAXX 04184 71918 460// ///// 11353 6///1 333 7////
AAXX 04184 71920 17/// /3120 11067 21105 30091 40097 55005 69971 7//4/ 333 11059 21096 70007 555 10030
AAXX 04184 71921 NIL
AAXX 04184 71923 NIL
AAXX 04184 71927 NIL
AAXX 04184 71941 17462 82009 11114 21132 39633 40064 56029 60001 771// 333 11114 21266 70002
AAXX 04184 71947 17436 82007 11118 21133 39678 40035 56022 60001 771// 333 11118 21280 70001
AAXX 04184 71350 16/// /2910 11072 21088 39957 40024 56014 60001 333 11053 21119 70000
AAXX 04184 71351 NIL
AAXX 04184 71352 16/// /2411 11042 21083 39643 40108 58035 60001 333 11042 21188 70012
AAXX 04184 71353 NIL
AAXX 04184 71354 NIL
AAXX 04184 71355 16/// /2806 11248 21274 39948 40036 55006 60001 333 11247 21327 70000
AAXX 04184 71356 16/// /3220 11323 21359 30091 40161 53010 60001 333 11274 21327 70000 555 10090
AAXX 04184 71357 NIL
AAXX 04184 71358 17/// /1808 11272 21302 39978 40014 53004 60011 7//4/ 333 11255 21333 70020
AAXX 04184 71359 NIL
AAXX 04184 71360 NIL
AAXX 04184 71361 NIL
AAXX 04184 71362 NIL
AAXX 04184 71363 NIL
AAXX 04184 71364 NIL
AAXX 04184 71365 NIL
AAXX 04184 71368 15566 82514 11027 21081 39714 40112 58038 60001 333 11024 21180 70000
AAXX 04184 71369 17966 80905 10006 21001 39332 40032 56029 69951 7004/ 333 10006 21041 70010
AAXX 04184 71370 46/// /2006 11172 21210 30002 40145 56042 6///1 333 11172 21242 7////
AAXX 04184 71371 15966 61708 11119 21160 30119 40155 58047 60001 333 11119 21174 70000
AAXX 04184 71372 NIL
AAXX 04184 71373 16/// /1805 11126 21176 60001 333 11125 21189 70000
AAXX 04184 71374 NIL
AAXX 04184 71375 NIL
AAXX 04184 71376 NIL
AAXX 04184 71377 NIL
AAXX 04184 71378 16/// /1704 11188 21240 39916 40136 56047 60001 333 11188 21291 70000
AAXX 04184 71379 16/// /1307 11193 21237 39911 40089 56050 60001 333 11193 21256 70000
AAXX 04184 71380 NIL
AAXX 04184 71381 NIL
AAXX 04184 71382 NIL
AAXX 04184 71383 NIL
AAXX 04184 71384 16/// /2410 11161 21212 30136 40144 56027 60001 333 11155 21247 70000
AAXX 04184 71385 NIL
AAXX 04184 71386 NIL
AAXX 04184 71387 NIL
AAXX 04184 71388 NIL
AAXX 04184 71389 46/// /2504 11164 21216 6///1 333 11153 21230 7////
AAXX 04184 71390 46/// /3205 11102 6///1 333 11100 21129 7////
AAXX 04184 71391 16/// ///// 11165 21196 60001 333 11164 21238 70000
AAXX 04184 71392 16/// /2606 11172 21220 60001 333 11172 21208 70000
AAXX 04184 71393 NIL
AAXX 04184 71395 11466 63116 11079 21116 39861 40042 55008 69931 78522 86100 333 11075 21119 45997 70003 90962
AAXX 04184 71398 17466 82713 11071 21089 39999 40011 56007 60001 771// 333 11071 21227 70000
AAXX 04184 71399 NIL
AAXX 04184 71707 11420 83216 11035 21056 39876 49952 55019 60211 77173 887// 333 11014 21042 44023 70248 90973 93121
AAXX 04184 71550 NIL
AAXX 04184 71551 NIL
AAXX 04184 71552 NIL
AAXX 04184 71553 16/// /1902 11044 21069 60001 333 11044 21100 70000
AAXX 04184 71554 16/// /2514 11132 21158 30105 40111 56024 60001 333 11114 21149 70000
AAXX 04184 71555 16/// /2636 10115 21030 38563 40104 58031 60001 333 10115 20017 70000
AAXX 04184 71556 16/// /2006 11018 21037 39533 40146 58003 60001 333 11018 21075 70000 555 10010
AAXX 04184 71557 46/// /1702 10051 20027 6///1 333 10074 20015 7////
AAXX 04184 71558 46/// ///// 11048 21081 39942 49979 58046 6///1 333 11038 21083 7////
AAXX 04184 71559 46/// /2609 10040 21019 39459 40164 50005 6///1 333 10040 21064 7////
AAXX 04184 71560 16/// /2008 11013 21040 39830 40135 58015 60001 333 11013 21086 7////
AAXX 04184 71563 NIL
AAXX 04184 71564 NIL
AAXX 04184 71565 NIL
AAXX 04184 71566 NIL
AAXX 04184 71567 NIL
AAXX 04184 71568 17/// /1310 10092 20069 30078 40090 51013 60101 7//4/ 333 10102 20063 70626
AAXX 04184 71569 16/// /2407 10010 21023 39435 40141 50006 60001 333 10014 21073 70000
AAXX 04184 71570 16/// /3103 11022 21077 39825 40141 58004 60001 333 11021 21098 70000
AAXX 04184 71571 NIL
AAXX 04184 71572 NIL
AAXX 04184 71573 16/// /2403 11014 21073 39825 40113 57036 60001 333 11012 21176 70003
AAXX 04184 71574 12574 63010 11102 21145 39996 40071 56025 60001 86500 333 11089 21160 79999
AAXX 04184 71575 16/// /3002 11273 21301 39980 40048 54000 60001 333 11261 21293 70000
AAXX 04184 71576 16/// /0000 11310 21345 39917 40006 52010 60001 333 11309 21380 70000
AAXX 04184 71577 46/// /3303 11010 21063 6///1 333 11009 21052 7////
AAXX 04184 71578 NIL
AAXX 04184 71579 16/// /2304 11002 21055 39845 40131 58004 60001 333 11002 21043 70000
AAXX 04184 71580 NIL
AAXX 04184 71581 NIL
AAXX 04184 71582 17464 81916 10096 20082 39987 40039 53019 60081 70044 333 10115 20075 70553
AAXX 04184 71583 NIL
AAXX 04184 71584 15966 03407 11093 21138 39984 40032 56028 60001 333 11088 21138 70000
AAXX 04184 71585 NIL
AAXX 04184 71586 NIL
AAXX 04184 71587 NIL
AAXX 04184 71588 NIL
AAXX 04184 71589 NIL
AAXX 04184 71590 16/// /3003 11138 21203 39910 40108 56030 60001 333 11138 21221 70000
AAXX 04184 71592 NIL
AAXX 04184 71593 NIL
AAXX 04184 71596 NIL
AAXX 04184 71598 16/64 /2917 11080 21129 30045 40051 56030 60001 333 11073 21124 70000
AAXX 04184 71599 NIL
AAXX 04184 71500 NIL
AAXX 04184 71501 NIL
AAXX 04184 71502 NIL
AAXX 04184 71503 NIL
AAXX 04184 71504 NIL
AAXX 04184 71505 46/// /0000 11209 21236 39164 49899 56008 6///1 333 11165 21254 7////
AAXX 04184 71506 NIL
AAXX 04184 71507 NIL
AAXX 04184 71508 16/// ///// 10007 21067 39975 40116 58042 60001 333 10007 21143 70009
AAXX 04184 71509 NIL
AAXX 04184 71511 NIL
AAXX 04184 71512 16/// /3204 11080 21117 30029 40043 56026 60001 333 11080 21150 70000
AAXX 04184 71513 15966 03309 11091 21133 39995 40011 56028 60001 333 11067 21120 70000
AAXX 04184 71514 NIL
AAXX 04184 71515 16/// /2806 10010 21030 39439 40146 58004 60001 333 10010 21069 70000
AAXX 04184 71516 16/// /2612 10077 21029 60001 333 10077 21007 70000
AAXX 04184 71517 NIL
AAXX 04184 71518 NIL
AAXX 04184 71519 NIL
AAXX 04184 71520 NIL
AAXX 04184 71521 NIL
AAXX 04184 71522 NIL
AAXX 04184 71523 NIL
AAXX 04184 71524 16/// /2104 11138 21177 30136 40164 58045 60001 333 11138 21210 70000
AAXX 04184 71525 NIL
AAXX 04184 71526 NIL
AAXX 04184 71527 15966 12710 11054 21077 39614 40130 58005 60001 333 11052 21109 70000
AAXX 04184 71528 NIL
AAXX 04184 71529 46/// /0000 11280 21315 39932 40173 50006 6///1 333 11218 21295 7////
AAXX 04184 71532 17559 82007 11061 21073 39746 40101 56034 60001 771// 333 11061 21238 70000
AAXX 04184 71534 16564 62209 11041 21070 39828 40107 56037 60001 333 11040 21277 70005
AAXX 04184 71535 NIL
AAXX 04184 71536 NIL
AAXX 04184 71537 NIL
AAXX 04184 71539 NIL
AAXX 04184 71540 NIL
AAXX 04184 71541 NIL
AAXX 04184 71542 17/// /1017 11107 21122 69981 7//4/ 333 11087 21114 70016
AAXX 04184 71543 NIL
AAXX 04184 71544 NIL
AAXX 04184 71545 16/// ///// 10004 21016 60001 333 10004 21035 70026
AAXX 04184 71546 NIL
AAXX 04184 71547 NIL
AAXX 04184 71548 NIL
AAXX 04184 71549 NIL
AAXX 04184 71043 NIL
AAXX 04184 71045 17/// /0000 11097 21108 39010 49864 56020 60011 7//4/ 333 11084 21183 70013 555 10020
AAXX 04184 71050 NIL
AAXX 04184 71051 NIL
AAXX 04184 71052 NIL
AAXX 04184 71066 11316 90909 11101 21136 39601 40024 56051 69941 77177 885// 333 11075 21115 48027 70020 90983 93101
AAXX 04184 71068 11674 70000 10015 20010 39316 40000 58028 60021 70286 82570 333 10020 21037 42004 70046 90921
AAXX 04184 71069 17964 31005 10003 20003 39331 40030 57030 69951 7//44 333 10003 21039 70005
AAXX 04184 71076 16/// /0607 11184 21205 39743 40153 50000 60001 333 11184 21260 70000
AAXX 04184 71077 16/// /1205 11027 21054 39565 40109 56003 60001 333 11027 21090 70000
AAXX 04184 71079 11574 73208 11091 21137 39865 40149 53013 69901 77172 86501 333 11041 21119 48009 79999 90917
AAXX 04184 71081 46964 02304 11372 21415 30033 40046 58003 6///1 333 11370 21406 7////
AAXX 04184 71082 NIL
AAXX 04184 71083 11969 23418 11304 21347 30078 40122 50012 69901 77677 80001 333 11231 21306 48060 70004 90983
AAXX 04184 71090 46964 01808 11267 21323 39980 40016 53004 6///1 333 21332 7////
AAXX 04184 71091 460// /1112 11368 39839 40061 51013 6///1 333 7////
AAXX 04184 71092 46048 81907 11355 39355 40056 53014 6///1 333 11323 21355 7////
AAXX 04184 71093 460// ///// 11299 39516 40035 53012 6///1 333 11294 21311 7////
AAXX 04184 71094 46064 /2110 11322 39071 40010 53010 6///1 333 11308 21324 7////
AAXX 04184 71095 46440 82103 11311 21353 39922 40006 52010 6///1 333 11309 21379 7////
AAXX 04184 71101 160// /1609 39917 51016 60001 333 70005
AAXX 04184 71104 12974 61506 10056 20004 38990 40087 51014 60001 83071 333 10056 20028 70000
AAXX 04184 71108 11466 81716 10099 20073 30104 40176 53013 60081 76182 8172/ 333 10141 20061 70190 90942
AAXX 04184 71109 11469 72103 10085 20072 30039 40065 53017 60071 78066 87800 333 10090 20067 70376 90983
AAXX 04184 71864 NIL
AAXX 04184 71865 16/// /2508 11002 21043 39450 40132 58002 60001 333 10022 21048 70000
AAXX 04184 71866 46964 02106 11013 21042 39520 40140 58006 6///1 333 11012 21087 7////
AAXX 04184 71867 12574 73202 11058 21082 39812 40151 53010 60001 82520 333 11042 21064 70000
AAXX 04184 71868 NIL
AAXX 04184 71869 12166 70703 11092 21098 39603 40137 58001 60001 85671 333 11043 21124 70000
AAXX 04184 71871 15966 01910 11015 21044 39285 40091 58015 60001 333 10009 21068 70000
AAXX 04184 71877 12686 51005 10056 20000 38848 40109 58020 60001 81571 333 10083 21002 70000
AAXX 04184 71878 12974 61606 10059 21003 39015 40080 58018 60001 81071 333 10062 21040 70000
AAXX 04184 71879 16964 01604 10039 21016 39254 40051 58019 60001 333 10043 21020 70005
AAXX 04184 71880 12882 61310 10065 20006 39136 40245 58005 60001 333 10065 20028 70000
AAXX 04184 71882 160// /1510 10041 20018 39664 40206 56011 69951 333 10041 21019 70105
AAXX 04184 71883 NIL
AAXX 04184 71887 12786 81218 10082 20016 39739 40158 53013 60001 82572 333 10082 20038 70000
AAXX 04184 71889 12674 81515 10066 21002 39799 40218 52018 60001 82572 333 10078 20018 79999
AAXX 04184 71891 16440 62017 10064 20060 39883 40156 53015 60121 333 10093 20062 70115
AAXX 04184 71892 11466 81312 10088 20072 30160 40165 53014 60101 76162 8757/ 333 10113 20079 70282 90972
AAXX 04184 71300 NIL
AAXX 04184 71301 16/// ///// 11086 21091 39637 40045 56020 60001 333 11086 21231 70013
AAXX 04184 71302 16/// /1817 10059 20007 39228 40031 53020 60001 333 10072 20045 70003
AAXX 04184 71303 46/// ///// 10003 21066 6///1 333 10004 21113 7////
AAXX 04184 71305 15566 80911 11109 21141 39803 40101 58026 60001 333 11107 21170 70000
AAXX 04184 71306 17558 81014 11160 21186 39943 49976 56006 60001 771// 333 11138 21224 70000
AAXX 04184 71307 16/// /2412 11012 21069 39874 40128 58034 60001 333 11010 21146 70003
AAXX 04184 71308 16/// /3215 11036 21063 39919 40003 55011 60001 333 11023 21049 70000
AAXX 04184 71309 NIL
AAXX 04184 71310 16/// /3115 11047 21084 39977 40014 56019 60001 333 11046 21081 70000
AAXX 04184 71311 16/// /3114 11094 21131 30039 40064 55012 60001 333 11089 21143 70000 555 10010
AAXX 04184 71312 16/// /1403 11077 21088 39673 40137 56004 60001 333 11032 21108 70000
AAXX 04184 71314 16/// /2307 11045 21090 39740 40100 56036 60001 333 11045 21225 70000
AAXX 04184 71315 16/// /2712 11112 21162 30021 40076 56031 60001 333 11105 21164 70000
AAXX 04184 71316 16/// /1803 11010 21022 39377 40060 58019 60001 333 11010 21057 70000
AAXX 04184 71317 NIL
AAXX 04184 71318 16/// /1910 10021 21017 39146 40091 58022 60001 333 10021 21052 70000
AAXX 04184 71319 NIL
AAXX 04184 71320 NIL
AAXX 04184 71321 16/// /0102 11274 21305 30051 40097 55002 60001 333 11273 21334 70000
AAXX 04184 71322 46/// /3313 11281 21311 30131 40144 51011 6///1 333 11190 21281 7//// 555 10100
AAXX 04184 71323 NIL
AAXX 04184 71331 16/// /0702 11099 21126 60001 333 11079 21136 70000
AAXX 04184 71332 NIL
AAXX 04184 71334 46/// /3205 11210 21245 39828 40169 53018 6///1 333 11111 21221 7////
AAXX 04184 71335 46764 8//// 11155 39435 40065 56012 6///1 333 11127 21161 7////
AAXX 04184 71336 46/// ///20 10056 20053 39804 49826 56121 6///1 333 10056 20005 7////
AAXX 04184 71337 46/// /0310 11034 21038 39692 49927 58075 6///1 333 11027 21042 7////
AAXX 04184 71338 46964 31808 11317 21360 30055 40063 53013 6///1 333 11274 21334 7////
AAXX 04184 71339 16364 80404 11071 21097 39990 40005 56034 60001 333 11053 21117 70000
AAXX 04184 71340 NIL
AAXX 04184 71341 NIL
AAXX 04184 71342 NIL
AAXX 04184 71343 NIL
AAXX 04184 71344 NIL
AAXX 04184 71345 NIL
AAXX 04184 71346 NIL
AAXX 04184 71347 NIL
AAXX 04184 71348 NIL
AAXX 04184 71349 NIL
AAXX 04184 71816 11240 80000 11089 21094 39974 40036 55026 69921 76877 887// 333 11084 21116 43095 70004 90983
AAXX 04184 71817 12974 12405 11099 21127 30039 40052 52029 60001 81040 333 42011 70000
AAXX 04184 71818 11356 80713 11037 21050 30004 40022 55021 69961 75672 887// 333 11012 21068 44022 70012 90917
AAXX 04184 71822 11432 81805 11178 21214 39566 40065 57033 60011 77122 887// 333 11178 21310 43048 70010 90962 93101
AAXX 04184 71825 11466 80000 11162 21196 39363 40054 56034 69921 77172 88500 333 11160 21187 48116 70004 90937
AAXX 04184 71827 NIL
AAXX 04184 71828 17564 80602 11166 21188 39398 40058 56036 60001 745// 333 11166 21244 70005
AAXX 04184 71831 11362 82809 11073 21104 39767 40052 50001 69921 70372 885// 333 11069 21082 48053 70020 90931
AAXX 04184 71832 NIL
AAXX 04184 71834 11374 82906 11055 21091 39645 40078 57010 69901 77177 885// 333 11055 21163 48035 79999 90973
AAXX 04184 71841 NIL
AAXX 04184 71842 12474 73006 11069 21086 39645 40124 50004 60001 87500 333 11069 21115 70000
AAXX 04184 71844 NIL
AAXX 04184 71845 11474 82907 11065 21088 39608 40090 58001 69901 77177 885// 333 11064 21142 44024 79999 90973
AAXX 04184 71850 12774 72505 11041 21076 39631 40139 50000 60001 86570 333 11040 21091 70000
AAXX 04184 71852 16964 02506 11001 21044 39841 40138 58003 60001 333 10002 21096 70000
AAXX 04184 71854 12974 12204 11063 21095 39639 40120 58006 60001 81070 333 11063 21113 70000
AAXX 04184 71858 NIL
AAXX 04184 71861 16/// /2807 10005 21037 39412 40145 57007 60001 333 10005 21079 70000
AAXX 04184 71862 12974 32709 10038 21014 39463 40170 50007 60001 81071 333 10038 21067 70000
AAXX 04184 71863 46964 32105 11022 21051 39451 40158 50002 6///1 333 11018 21075 7////
AAXX 04184 71950 17766 31409 10030 20020 39357 49976 53023 60021 7004/ 333 10037 20012 70145
AAXX 04184 71952 16/// /1005 10044 20017 39157 49993 52026 60001 333 10050 20000 70045
AAXX 04184 71954 NIL
AAXX 04184 71956 NIL
AAXX 04184 71959 NIL
AAXX 04184 71960 460// /0711 11321 30014 40155 58008 6///1 333 11283 21321 7////
AAXX 04184 71962 16/// /2705 11033 21069 39711 40140 58011 60001 333 11033 21124 70087
AAXX 04184 71963 NIL
AAXX 04184 71967 16/// /2109 11138 21190 30063 40173 56038 60001 333 11135 21193 70000
AAXX 04184 71970 NIL
AAXX 04184 71971 NIL
AAXX 04184 71972 460// ///// 11188 39602 40078 51002 6///1 333 11175 21206 7////
AAXX 04184 71973 46/// /0107 11046 21056 39745 49932 58058 6///1 333 11029 21050 7////
AAXX 04184 71974 NIL
AAXX 04184 71975 460// /2513 11293 39294 40055 53008 6///1 333 11282 21294 7////
AAXX 04184 71976 NIL
AAXX 04184 71977 NIL
AAXX 04184 71978 NIL
AAXX 04184 71979 NIL
AAXX 04184 71980 46/// ///// 11184 21206 6///1 333 11184 21305 7//// 555 10030
AAXX 04184 71981 NIL
AAXX 04184 71982 NIL
AAXX 04184 71983 NIL
AAXX 04184 71984 16/// /0000 11304 21334 30161 40170 56005 60001 333 11256 21320 70000
AAXX 04184 71985 NIL
AAXX 04184 71986 NIL
AAXX 04184 71987 16/// /3120 11066 21096 30030 40040 56015 60001 333 11059 21110 70000
AAXX 04184 71988 17/// /3017 11088 21103 30092 40112 55005 69961 7//4/ 333 11079 21095 70012
AAXX 04184 71989 NIL
AAXX 04184 71990 NIL
AAXX 04184 71999 46/// ///// 10068 6///1 333 10106 20058 7////
AAXX 04184 71201 17/// ///// 10084 20068 60161 7//4/ 333 10113 20074 70374
AAXX 04184 71202 16/// ///// 10030 21010 60001 333 10032 21039 70007
AAXX 04184 71203 15966 81604 10051 20021 39686 40210 51014 60001 333 10056 21016 70000
AAXX 04184 71209 46/// /1519 10086 6///1 333 10106 20073 7////
AAXX 04184 71211 46/// /2313 10103 20075 30135 40147 51010 6///1 333 10125 20063 7////
AAXX 04184 71212 NIL
AAXX 04184 71213 46/// /2305 11073 21087 39744 40051 58024 6///1 333 11073 21244 7////
AAXX 04184 71214 NIL
AAXX 04184 71215 46/// /1603 10048 20007 39886 40233 53007 6///1 333 10050 20011 7////
AAXX 04184 71216 16/// /1403 10016 20011 39603 40227 58001 60001 333 10026 21002 70061
AAXX 04184 71217 NIL
AAXX 04184 71218 16/// /1304 10069 20014 39763 40192 53010 60001 333 10074 20021 70000
AAXX 04184 71219 46/// /1421 10074 20045 39944 49950 51022 6///1 333 10099 20048 7////
AAXX 04184 71220 46/// /1632 10086 20059 6///1 333 10106 20054 7////
AAXX 04184 71221 NIL
AAXX 04184 71222 16/// /0302 11066 21079 38910 49867 53015 60001 333 11063 21151 70003
AAXX 04184 71223 NIL
AAXX 04184 71224 NIL
AAXX 04184 71225 NIL
AAXX 04184 71226 NIL
AAXX 04184 71227 NIL
AAXX 04184 71228 NIL
AAXX 04184 71229 NIL
AAXX 04184 71230 16/// /2401 10023 21008 39120 40000 55001 60001 333 10051 21004 70006
AAXX 04184 71231 16/// /2212 10108 21023 60001 333 10108 20049 70000
AAXX 04184 71232 16/// /2616 10099 21025 38646 40116 50011 60001 333 10101 20048 70000
AAXX 04184 71233 NIL
AAXX 04184 71234 16/// /2414 10134 21029 38957 40126 58009 60001 333 10134 20038 70000
AAXX 04184 71235 16/// /2107 10123 21017 60001 333 10133 20015 70000
AAXX 04184 71236 16/// /3020 10074 21034 60001 333 10074 20025 7////
AAXX 04184 71237 46/// /2102 10099 20011 39287 40090 58005 6///1 333 10100 20013 7////
AAXX 04184 71238 16/// /2003 10043 21013 60001 333 10043 21019 70000
AAXX 04184 71239 16/// /2707 10005 21034 39674 40138 58009 60001 333 10005 21068 70000
AAXX 04184 71240 16/// ///// 10052 21005 39275 40118 56008 60001 333 10063 21034 70000
AAXX 04184 71241 NIL
AAXX 04184 71242 16/// /1905 10051 21004 60001 333 10051 21022 70000
AAXX 04184 71243 NIL
AAXX 04184 71244 NIL
AAXX 04184 71245 NIL
AAXX 04184 71246 NIL
AAXX 04184 71247 15966 02321 10125 21015 39293 40136 50000 60001 333 10125 20034 70000
AAXX 04184 71248 17/// /2611 10133 21036 38788 40064 56018 69971 7//4/ 333 10133 21035 70007
AAXX 04184 71249 NIL
AAXX 04184 71603 11532 83215 11084 21118 30048 40102 55007 69981 78588 885// 333 11082 21101 47004 70012 90983 93103
AAXX 04184 71607 16/// /3107 11098 21183 30075 40109 56025 60001 333 11098 21160 70000
AAXX 04184 71609 12574 53211 11103 21175 39952 40090 57012 60001 85500 333 11095 21161 70000
AAXX 04184 71610 15966 12307 11140 21199 39850 40159 56036 60001 333 11138 21191 70000
AAXX 04184 71621 11459 82213 11024 21062 30009 40118 57048 69901 78587 885// 333 11024 21165 79999 90936
AAXX 04184 71623 NIL
AAXX 04184 71624 12574 72613 11015 21094 39896 40113 56040 60001 86870 333 11001 21156 70000
AAXX 04184 71625 17211 81305 11140 21165 39941 40110 56045 60001 745// 333 11139 21258 70000
AAXX 04184 71627 11574 81605 11124 21201 30107 40154 58047 69901 77072 8657/ 333 11123 21188 41997 79999 90921
AAXX 04184 71628 11460 81204 11122 21155 39990 40137 57048 69901 77111 84500 333 11122 21244 4-6009 79999 909/5
AAXX 04184 71630 NIL
AAXX 04184 71631 16/// /2310 11053 21081 39592 40103 58032 60001 333 11051 21175 70000
AAXX 04184 71633 12574 82410 11012 21039 39814 40090 57026 60001 885// 333 11012 21145 70002
AAXX 04184 71705 11574 23012 11091 21140 39976 40066 57012 69941 72681 81530 333 11091 21158 42001 70004 90976 93101
AAXX 04184 71706 11424 83014 11072 21098 39973 40035 56014 69961 78577 885// 333 11050 21116 47001 70006 90973 93101
AAXX 04184 71707 11420 83216 11035 21056 39876 49952 55019 60211 77173 887// 333 11014 21042 44023 70248 90973 93122
AAXX 04184 71709 11562 83320 11043 21082 39981 49994 56029 69921 78522 885// 333 11041 21073 41997 70002 90962
AAXX 04184 71711 NIL
AAXX 04184 71714 16/// /2609 11172 21228 30079 40176 57026 60001 333 11172 21217 70000
AAXX 04184 71715 16/// /2108 11162 21214 39932 40121 57023 60001 333 11150 21191 70000
AAXX 04184 71718 11556 82111 11148 21169 30040 40108 57024 69981 78522 885// 333 11117 21149 47010 70008 90952 93101
AAXX 04184 71719 NIL
AAXX 04184 71930 13974 72004 10035 21002 39120 40042 57022 60023 82072 333 10035 21039 43016 70022 90999
AAXX 04184 71931 NIL
AAXX 04184 71934 12974 81204 11158 21188 39851 40118 58026 60001 8807/ 333 11158 21226 79999
AAXX 04184 71935 12774 70816 11120 21158 39859 40072 57043 60001 83701 333 11115 21222 70000
AAXX 04184 71936 12974 70610 11247 21285 39870 40145 58023 60001 87070 333 11247 21292 70000
AAXX 04184 71937 NIL
AAXX 04184 71938 11974 02305 11336 21369 30175 40207 50005 69901 72277 333 11284 21336 79999 90933
AAXX 04184 71940 11782 72703 11003 21003 39212 40008 57006 69901 70262 82571 333 10035 21012 40997 70011 90950
AAXX 04184 71943 11974 62010 10038 20000 39158 49978 56008 60031 70266 86071 333 10044 21009 41002 70042 90942
AAXX 04184 71944 160// ///// 10032 53012 60081 333 10033 20002 70270
AAXX 04184 71945 11558 80303 11114 21144 39502 49976 57023 60021 77122 885// 333 11087 21141 47016 70058 90962 93103
AAXX 04184 71946 11469 91107 11138 21170 39837 40056 58028 69901 77177 885// 333 11138 21256 48042 79999 90942
AAXX 04184 71948 46050 /0811 11209 30058 40175 58001 6///1 333 11199 21226 7////
AAXX 04184 71949 46/// /0402 11117 21133 39041 49912 58015 6///1 333 11099 21200 7////
AAXX 04184 71951 NIL
AAXX 04184 71957 46964 00706 11267 21344 30013 40106 58022 6///1 333 11266 21336 7////
AAXX 04184 71964 11582 83406 11162 21184 39025 49886 56015 69901 70272 8257/ 333 11147 21179 70022 90953
AAXX 04184 71966 17/// /0000 11269 21300 39481 49963 56020 69981 7//4/ 333 11269 21360 70162 555 10050
AAXX 04184 71968 460// /0707 11340 30041 40110 58004 6///1 333 11331 21365 7////
AAXX 04184 71893 11262 81421 10086 20077 30077 40108 56001 60141 76166 8657/ 333 10086 20071 76166 90983
AAXX 04184 71894 17/// /1521 10095 20095 30100 40109 53013 60031 7//4/ 333 10096 20081 71526
AAXX 04184 71896 15866 61818 10058 20006 39217 40034 53021 60001 333 10067 20038 70000
AAXX 04184 71897 11266 81830 10090 20075 3//// 4//// 52020 60131 780XX 888XX 333 10096 20054 70164 90945
AAXX 04184 71898 160// ///// 10092 51022 60001 333 10112 20069 70125
AAXX 04184 71899 11466 62615 10059 20052 3//// 4//// 52040 60011 72582 82276 333 10087 20059 70126 90916
AAXX 04184 71902 11674 83008 11111 21173 30072 40081 57023 69901 77177 885// 333 11076 21111 47050 70014 90973
AAXX 04184 71905 NIL
AAXX 04184 71906 12974 70000 11205 21253 30017 40069 57030 60001 87020 333 11205 21268 79999
AAXX 04184 71907 17440 81010 11187 21224 39944 49977 56008 60001 745// 333 11166 21254 70010
AAXX 04184 71909 16964 00302 11272 21323 30035 40081 55002 60001 333 21336 70000
AAXX 04184 71910 46964 02702 11273 21312 39986 40051 55000 6///1 333 11261 21294 7////
AAXX 04184 71911 47811 82410 11335 30022 40082 58003 6///1 745// 333 11335 21424 7////
AAXX 04184 71912 11574 73512 11141 21188 39950 40137 51015 69901 72277 87500 333 11050 21142 48019 79999 90912
AAXX 04184 71915 NIL
AAXX 04184 71917 11974 31411 11371 21424 39998 40013 52018 69901 77677 80008 333 11346 21395 47015 79999 90983
AAXX 04184 71922 12674 71005 11045 21075 39662 40135 58004 60001 87500 333 11044 21082 70000
AAXX 04184 71924 11474 30108 11338 21380 39910 40003 50001 69901 77177 83500 333 11301 21367 48038 79999 90983
AAXX 04184 71925 11558 22813 11316 21360 30121 40165 56004 69901 77677 82500 333 11310 21345 44021 79999 90983
AAXX 04184 71926 11948 03128 11313 21367 30131 40157 53008 69901 77677 333 11269 21323 44043 79999 90913
AAXX 04184 71928 16/// /1406 10006 21059 38915 40065 57019 60001 333 10076 21041 70000
AAXX 04184 71726 17/// /1804 11162 21183 39521 40091 56046 60031 7//4/ 333 11162 21327 70034
AAXX 04184 71727 11982 60904 11178 21219 39914 40120 57044 69901 70377 86050 333 11158 21219 48048 70004 90963
AAXX 04184 71728 11680 81809 11176 21237 39876 40107 57050 69901 77111 885// 333 11175 21232 44002 70010 90910
AAXX 04184 71730 11248 82410 11052 21052 39636 40071 58019 69961 76875 887// 333 11052 21216 44014 70014 90983
AAXX 04184 71731 11324 82307 11080 21091 39614 40079 58025 60031 77177 887// 333 11080 21227 48026 70034 90983 93104
AAXX 04184 71735 NIL
AAXX 04184 71738 12574 83307 11057 21095 39718 40074 55001 60001 885// 333 11015 21172 79999
AAXX 04184 71739 41440 82910 11065 21085 39675 40044 57012 6//// 77152 887// 333 11061 21202 4//// 7//// 90973
AAXX 04184 71749 16564 32707 11053 21092 39871 40124 58014 60001 333 11053 21165 70005
AAXX 04184 71799 11258 81303 10095 20090 30141 40165 53021 60071 76122 885// 333 10098 20064 70154 90962
AAXX 04184 71800 NIL
AAXX 04184 71801 11/10 91722 10081 20081 39700 49868 57101 60101 76364 333 10081 21002 70158 90917
AAXX 04184 71803 11212 80518 11011 21020 39703 49887 58102 60121 77972 887// 333 11002 21014 44005 70116 90962 93104
AAXX 04184 71807 17/// /1527 10109 20097 39805 49823 56087 60051 7//4/ 333 10113 20009 70086
AAXX 04184 71808 12574 80412 11069 21105 39938 49985 58047 60001 885// 333 11047 21110 79999
AAXX 04184 71809 11104 90310 11042 21053 39911 49938 58056 60161 78672 333 11016 21050 47019 70160 90942 93116
AAXX 04184 71810 16/// /3006 11092 21128 39969 40037 58026 60001 333 11088 21147 70000
AAXX 04184 71811 NIL
AAXX 04184 71813 16/// /3208 11092 21132 39991 40005 57029 60001 333 11067 21120 70000
AAXX 04184 71814 16/// /3609 11084 21114 39983 49993 56036 60001 333 11063 21110 70000
AAXX 04184 71815 11/16 93512 11035 21038 39894 49924 57068 60061 78522 333 11022 21039 47008 70056 90931 93108
AAXX 04184 71930 13974 72004 10035 21002 39120 40042 57022 60023 82072 333 10035 21039 43016 70022 90999
AAXX 04184 71931 NIL
AAXX 04184 71934 12974 81204 11158 21188 39851 40118 58026 60001 8807/ 333 11158 21226 79999
AAXX 04184 71935 12774 70816 11120 21158 39859 40072 57043 60001 83701 333 11115 21222 70000
AAXX 04184 71936 12974 70610 11247 21285 39870 40145 58023 60001 87070 333 11247 21292 70000
AAXX 04184 71937 NIL
AAXX 04184 71938 11974 02305 11336 21369 30175 40207 50005 69901 72277 333 11284 21336 79999 90933
AAXX 04184 71940 11782 72703 11003 21003 39212 40008 57006 69901 70262 82571 333 10035 21012 40997 70011 90950
AAXX 04184 71943 11974 62010 10038 20000 39158 49978 56008 60031 70266 86071 333 10044 21009 41002 70042 90942
AAXX 04184 71944 160// ///// 10032 53012 60081 333 10033 20002 70270
AAXX 04184 71945 11558 80303 11114 21144 39502 49976 57023 60021 77122 885// 333 11087 21141 47016 70058 90962 93103
AAXX 04184 71946 11469 91107 11138 21170 39837 40056 58028 69901 77177 885// 333 11138 21256 48042 79999 90942
AAXX 04184 71948 46050 /0811 11209 30058 40175 58001 6///1 333 11199 21226 7////
AAXX 04184 71949 46/// /0402 11117 21133 39041 49912 58015 6///1 333 11099 21200 7////
AAXX 04184 71951 NIL
AAXX 04184 71957 46964 00706 11267 21344 30013 40106 58022 6///1 333 11266 21336 7////
AAXX 04184 71964 11582 83406 11162 21184 39025 49886 56015 69901 70272 8257/ 333 11147 21179 70022 90953
AAXX 04184 71966 17/// /0000 11269 21300 39481 49963 56020 69981 7//4/ 333 11269 21360 70162 555 10050
AAXX 04184 71968 460// /0707 11340 30041 40110 58004 6///1 333 11331 21365 7////
AAXX 04184 71051 NIL
AAXX 04184 71055 NIL
AAXX 04184 71057 NIL
AAXX 04184 71059 460// ///// 11241 30091 40186 58005 6///1 333 11223 21281 7////
AAXX 04184 71061 16/// /3301 10023 21012 39259 40030 56023 60001 333 10045 21035 70009
AAXX 04184 71062 46/// /2106 10097 21021 38977 40018 57008 6///1 333 10103 20013 7////
AAXX 04184 71064 460// /3015 11294 39952 40181 56005 6///1 333 11282 21336 7////
AAXX 04184 71065 NIL
AAXX 04184 71067 NIL
AAXX 04184 71070 NIL
AAXX 04184 71073 NIL
AAXX 04184 71074 NIL
AAXX 04184 71075 16/// /0502 11147 21164 39537 40160 50012 60001 333 11119 21151 70000
AAXX 04184 71078 NIL
AAXX 04184 71084 460// ///// 11315 30081 40132 56002 6///1 333 11314 21343 7////
AAXX 04184 71085 15966 02640 10095 21038 38783 40150 58004 60001 333 10095 20026 70000
AAXX 04184 71087 NIL
AAXX 04184 71088 460// /1912 11337 53004 6///1 333 11303 21342 7////
AAXX 04184 71089 NIL
AAXX 04184 71096 460// ///// 11304 39274 40040 53011 6///1 333 11288 21315 7////
AAXX 04184 71097 46164 31404 11244 39581 40075 53007 6///1 333 11244 21274 7////
AAXX 04184 71098 43/// /3311 11061 21094 39743 40107 51006 6///1 333 11055 21108 7////
AAXX 04184 71099 43/// /3114 11182 21258 30033 40054 51032 6///1 333 11096 21183 7////
AAXX 04184 71816 11240 80000 11089 21094 39974 40036 55026 69921 76877 887// 333 11084 21116 43095 70004 90983
AAXX 04184 71817 12974 12405 11099 21127 30039 40052 52029 60001 81040 333 42011 70000
AAXX 04184 71818 11356 80713 11037 21050 30004 40022 55021 69961 75672 887// 333 11012 21068 44022 70012 90917
AAXX 04184 71822 11432 81805 11178 21214 39566 40065 57033 60011 77122 887// 333 11178 21310 43048 70010 90962 93101
AAXX 04184 71825 11466 80000 11162 21196 39363 40054 56034 69921 77172 88500 333 11160 21187 48116 70004 90937
AAXX 04184 71827 NIL
AAXX 04184 71828 17564 80602 11166 21188 39398 40058 56036 60001 745// 333 11166 21244 70005
AAXX 04184 71831 11362 82809 11073 21104 39767 40052 50001 69921 70372 885// 333 11069 21082 48053 70020 90931
AAXX 04184 71832 NIL
AAXX 04184 71834 11374 82906 11055 21091 39645 40078 57010 69901 77177 885// 333 11055 21163 48035 79999 90973
AAXX 04184 71841 NIL
AAXX 04184 71842 12474 73006 11069 21086 39645 40124 50004 60001 87500 333 11069 21115 70000
AAXX 04184 71844 NIL
AAXX 04184 71845 11474 82907 11065 21088 39608 40090 58001 69901 77177 885// 333 11064 21142 44024 79999 90973
AAXX 04184 71850 12774 72505 11041 21076 39631 40139 50000 60001 86570 333 11040 21091 70000
AAXX 04184 71852 16964 02506 11001 21044 39841 40138 58003 60001 333 10002 21096 70000
AAXX 04184 71854 12974 12204 11063 21095 39639 40120 58006 60001 81070 333 11063 21113 70000
AAXX 04184 71858 NIL
AAXX 04184 71861 16/// /2807 10005 21037 39412 40145 57007 60001 333 10005 21079 70000
AAXX 04184 71862 12974 32709 10038 21014 39463 40170 50007 60001 81071 333 10038 21067 70000
AAXX 04184 71863 46964 32105 11022 21051 39451 40158 50002 6///1 333 11018 21075 7////
AAXX 04181 01265 16/// /0000 11070 21085 39180 49761 57001 60012 333 11039 91105
AAXX 04181 01375 16/// /3001 11067 21084 6////
AAXX 04181 01440 46/// /2910 11052 21058 38561 49833 56014 333 11041 91119
AAXX 04181 01441 16/// /2403 11045 21074 38844 49822 58013 60052 333 11014 91114
AAXX 04181 01469 16/// /1703 10000 21044 39629 49798 50001 60002 333 10031 91107
AAXX 04181 01277 16/// /0000 11001 21012 69942
AAXX 04181 01476 16/// /2406 10034 21019 39820 49826 56009 6//// 333 10069 91116
AAXX 04181 01092 46/// /1905 11077 21119 333 11050 91113
AAXX 04181 01199 11575 80807 11082 21095 39452 49926 57009 60002 70273 885// 333 11046 91110
AAXX 04181 01262 46/// /1112 10020 21016
AAXX 04181 01278 11665 81001 11002 21015 39631 49731 57004 69912 77072 8802/ 333 10030
AAXX 04181 01374 31889 30301 11042 21061 70110 83070 333 10000
AAXX 04181 01393 16/// /3102 11043 21065 38961 49751 52004 6//// 333 11028 91111
AAXX 04181 01436 11375 82613 10054 20029 60022 72581 8477/ 333 10066 91127
AAXX 04181 01373 11689 30000 11057 21064 39598 49799 57003 60002 70120 83100 333 10023 91107
AAXX 04181 01380 11270 72808 11050 21086 60012 70272 876// 333 11034 4/052 91117
AAXX 04184 71707 11420 83216 11035 21056 39876 49952 55019 60211 77173 887// 333 11014 21042 44023 70248 90973 93121
AAXX 04184 71145 11574 73412 11077 21132 39829 40127 51013 69921 77177 87500 333 11047 21110 48032 70002 90973
AAXX 04181 01015 46/// /1712 11001 21060
AAXX 04181 01180 11675 61306 10002 21077 39788 49845 55005 60002 70222 83110 333 10024 91113
AAXX 04181 01340 16/// /2703 11031 21040 38953 49813 58014 60062 333 11013 91113
AAXX 04181 01425 16/// /3301 10006 21002 39774 49853 58028 60052 333 10060 91109
AAXX 04181 01450 16/// /2405 11072 21093 38686 49829 58008 6//// 333 11026 91114
AAXX 04184 71125 11974 70000 11053 21060 39509 40100 57014 60001 70241 86072 333 70000
AAXX 04184 71603 11532 83215 11084 21118 30048 40102 55007 69981 78588 885// 333 11082 21101 47004 70012 90983 93103
AAXX 04184 71607 16/// /3107 11098 21183 30075 40109 56025 60001 333 11098 21160 70000
AAXX 04184 71609 12574 53211 11103 21175 39952 40090 57012 60001 85500 333 11095 21161 70000
AAXX 04184 71610 15966 12307 11140 21199 39850 40159 56036 60001 333 11138 21191 70000
AAXX 04184 71621 11459 82213 11024 21062 30009 40118 57048 69901 78587 885// 333 11024 21165 79999 90936
AAXX 04184 71623 NIL
AAXX 04184 71624 12574 72613 11015 21094 39896 40113 56040 60001 86870 333 11001 21156 70000
AAXX 04184 71625 17211 81305 11140 21165 39941 40110 56045 60001 745// 333 11139 21258 70000
AAXX 04184 71627 11574 81605 11124 21201 30107 40154 58047 69901 77072 8657/ 333 11123 21188 41997 79999 90921
AAXX 04184 71628 11460 81204 11122 21155 39990 40137 57048 69901 77111 84500 333 11122 21244 4-6009 79999 909/5
AAXX 04184 71630 NIL
AAXX 04184 71631 16/// /2310 11053 21081 39592 40103 58032 60001 333 11051 21175 70000
AAXX 04184 71633 12574 82410 11012 21039 39814 40090 57026 60001 885// 333 11012 21145 70002
AAXX 04184 71705 11574 23012 11091 21140 39976 40066 57012 69941 72681 81530 333 11091 21158 42001 70004 90976 93101
AAXX 04184 71706 11424 83014 11072 21098 39973 40035 56014 69961 78577 885// 333 11050 21116 47001 70006 90973 93101
AAXX 04184 71707 11420 83216 11035 21056 39876 49952 55019 60211 77173 887// 333 11014 21042 44023 70248 90973 93122
AAXX 04184 71709 11562 83320 11043 21082 39981 49994 56029 69921 78522 885// 333 11041 21073 41997 70002 90962
AAXX 04184 71711 NIL
AAXX 04184 71714 16/// /2609 11172 21228 30079 40176 57026 60001 333 11172 21217 70000
AAXX 04184 71715 16/// /2108 11162 21214 39932 40121 57023 60001 333 11150 21191 70000
AAXX 04184 71718 11556 82111 11148 21169 30040 40108 57024 69981 78522 885// 333 11117 21149 47010 70008 90952 93101
AAXX 04184 71719 NIL
AAXX 04184 71726 17/// /1804 11162 21183 39521 40091 56046 60031 7//4/ 333 11162 21327 70034
AAXX 04184 71727 11982 60904 11178 21219 39914 40120 57044 69901 70377 86050 333 11158 21219 48048 70004 90963
AAXX 04184 71728 11680 81809 11176 21237 39876 40107 57050 69901 77111 885// 333 11175 21232 44002 70010 90910
AAXX 04184 71730 11248 82410 11052 21052 39636 40071 58019 69961 76875 887// 333 11052 21216 44014 70014 90983
AAXX 04184 71731 11324 82307 11080 21091 39614 40079 58025 60031 77177 887// 333 11080 21227 48026 70034 90983 93104
AAXX 04184 71735 NIL
AAXX 04184 71738 12574 83307 11057 21095 39718 40074 55001 60001 885// 333 11015 21172 79999
AAXX 04184 71739 41440 82910 11065 21085 39675 40044 57012 6//// 77152 887// 333 11061 21202 4//// 7//// 90973
AAXX 04184 71749 16564 32707 11053 21092 39871 40124 58014 60001 333 11053 21165 70005
AAXX 04184 71799 11258 81303 10095 20090 30141 40165 53021 60071 76122 885// 333 10098 20064 70154 90962
AAXX 04184 71800 NIL
AAXX 04184 71801 11/10 91722 10081 20081 39700 49868 57101 60101 76364 333 10081 21002 70158 90917
AAXX 04184 71803 11212 80518 11011 21020 39703 49887 58102 60121 77972 887// 333 11002 21014 44005 70116 90962 93104
AAXX 04184 71807 17/// /1527 10109 20097 39805 49823 56087 60051 7//4/ 333 10113 20009 70086
AAXX 04184 71808 12574 80412 11069 21105 39938 49985 58047 60001 885// 333 11047 21110 79999
AAXX 04184 71809 11104 90310 11042 21053 39911 49938 58056 60161 78672 333 11016 21050 47019 70160 90942 93116
AAXX 04184 71810 16/// /3006 11092 21128 39969 40037 58026 60001 333 11088 21147 70000
AAXX 04184 71811 NIL
AAXX 04184 71813 16/// /3208 11092 21132 39991 40005 57029 60001 333 11067 21120 70000
AAXX 04184 71814 16/// /3609 11084 21114 39983 49993 56036 60001 333 11063 21110 70000
AAXX 04184 71815 11/16 93512 11035 21038 39894 49924 57068 60061 78522 333 11022 21039 47008 70056 90931 93108
AAXX 04184 71665 17/// /2910 11111 21160 30067 40077 58022 69961 7//4/ 333 11076 21111 70012 555 10010
AAXX 04184 71666 16/// /2907 11092 21144 30018 40064 58010 60001 333 11091 21155 70000
AAXX 04184 71667 NIL
AAXX 04184 71668 16/// /2811 11107 21170 30048 40093 56027 60001 333 11104 21153 70000
AAXX 04184 71669 NIL
AAXX 04184 71670 16/// ///// 11083 21143 60001 333 11083 21154 70000
AAXX 04184 71671 16/// /2809 11085 21101 30000 40061 56014 60001 333 11080 21122 70000
AAXX 04184 71672 16/// /2308 11025 21092 39834 40105 56045 60001 333 11024 21227 70000
AAXX 04184 71673 NIL
AAXX 04184 71674 NIL
AAXX 04184 71675 17666 83311 11104 21144 39797 40080 51025 60021 7714/ 333 11059 21143 70113
AAXX 04184 71679 17/// /0903 10031 20015 39009 40007 51031 69991 7//4/ 333 10046 20015 70051
AAXX 04184 71680 NIL
AAXX 04184 71681 46/// /2206 10101 20036 6///1 333 10112 21015 7////
AAXX 04184 71682 NIL
AAXX 04184 71683 NIL
AAXX 04184 71684 17658 82206 11073 21091 39748 40056 58023 60001 771// 333 11073 21241 70000
AAXX 04184 71685 15466 81411 10039 20021 39662 40204 56011 60001 333 10040 21019 70061
AAXX 04184 71686 469// /0303 11060 21073 38911 49853 53016 6///1 333 11056 21133
AAXX 04184 71687 17/// /3501 10012 20007 39357 40140 51014 60211 7//4/ 333 10042 20004 70315
AAXX 04184 71688 17/// /0803 10008 20007 39100 40133 53004 60111 7//4/ 333 10034 21001 70110
AAXX 04184 71689 17428 81108 11049 21062 39616 40075 58011 60001 771// 333 11042 21076 70000
AAXX 04184 71690 NIL
AAXX 04184 71691 15566 32807 11134 21188 30070 40098 56025 60001 333 11129 21192 70000
AAXX 04184 71692 NIL
AAXX 04184 71694 16/// /1906 11061 21075 39734 40107 56035 60001 333 11061 21247 70000
AAXX 04184 71695 16/// /3302 11057 21091 39810 40149 53011 60001 333 11042 21063 70000
AAXX 04184 71696 16/// /3311 11208 21228 30093 40131 51016 60001 333 11151 21208 70000
AAXX 04184 71697 15666 82512 11013 21077 39937 40112 56040 60001 333 11010 21160 70000
AAXX 04184 71699 16/// /3007 11095 21162 30091 40099 56016 60001 333 11093 21153 70000 555 10010
AAXX 04184 71893 11262 81421 10086 20077 30077 40108 56001 60141 76166 8657/ 333 10086 20071 76166 90983
AAXX 04184 71894 17/// /1521 10095 20095 30100 40109 53013 60031 7//4/ 333 10096 20081 71526
AAXX 04184 71896 15866 61818 10058 20006 39217 40034 53021 60001 333 10067 20038 70000
AAXX 04184 71897 11266 81830 10090 20075 3//// 4//// 52020 60131 780XX 888XX 333 10096 20054 70164 90945
AAXX 04184 71898 160// ///// 10092 51022 60001 333 10112 20069 70125
AAXX 04184 71899 11466 62615 10059 20052 3//// 4//// 52040 60011 72582 82276 333 10087 20059 70126 90916
AAXX 04184 71902 11674 83008 11111 21173 30072 40081 57023 69901 77177 885// 333 11076 21111 47050 70014 90973
AAXX 04184 71905 NIL
AAXX 04184 71906 12974 70000 11205 21253 30017 40069 57030 60001 87020 333 11205 21268 79999
AAXX 04184 71907 17440 81010 11187 21224 39944 49977 56008 60001 745// 333 11166 21254 70010
AAXX 04184 71909 16964 00302 11272 21323 30035 40081 55002 60001 333 21336 70000
AAXX 04184 71910 46964 02702 11273 21312 39986 40051 55000 6///1 333 11261 21294 7////
AAXX 04184 71911 47811 82410 11335 30022 40082 58003 6///1 745// 333 11335 21424 7////
AAXX 04184 71912 11574 73512 11141 21188 39950 40137 51015 69901 72277 87500 333 11050 21142 48019 79999 90912
AAXX 04184 71915 NIL
AAXX 04184 71917 11974 31411 11371 21424 39998 40013 52018 69901 77677 80008 333 11346 21395 47015 79999 90983
AAXX 04184 71922 12674 71005 11045 21075 39662 40135 58004 60001 87500 333 11044 21082 70000
AAXX 04184 71924 11474 30108 11338 21380 39910 40003 50001 69901 77177 83500 333 11301 21367 48038 79999 90983
AAXX 04184 71925 11558 22813 11316 21360 30121 40165 56004 69901 77677 82500 333 11310 21345 44021 79999 90983
AAXX 04184 71926 11948 03128 11313 21367 30131 40157 53008 69901 77677 333 11269 21323 44043 79999 90913
AAXX 04184 71928 16/// /1406 10006 21059 38915 40065 57019 60001 333 10076 21041 70000
AAXX 04184 71851 16/// /2803 10021 21029 39797 40133 58009 60001 333 10021 21050 70000
AAXX 04184 71857 NIL
AAXX 04184 71860 12683 32716 10132 21012 38719 40093 57021 60001 81571 333 10134 21013 70000
AAXX 04184 71876 15966 01407 10013 21016 39459 40129 56013 60001 333 10013 21080 70000
AAXX 04184 71885 NIL
AAXX 04184 71886 16/// /2503 11037 21077 39525 40139 58002 60001 333 11027 21084 70000
AAXX 04184 71888 NIL
AAXX 04184 71890 16/// /0507 11136 21199 30066 40094 56025 60001 333 11134 21198 70000
AAXX 04184 71895 NIL
AAXX 04184 71250 NIL
AAXX 04184 71251 16/// /2327 10131 21013 39229 40140 50000 60001 333 10131 20070 70000
AAXX 04184 71252 NIL
AAXX 04184 71253 46/// /0403 11111 21119 6///1 333 11111 21137 7//// 555 10030
AAXX 04184 71254 16/// /1607 10014 21009 60001 333 10014 21042 70000
AAXX 04184 71255 16/// /3302 11085 21104 60001 333 11074 21087 70000
AAXX 04184 71256 46/// /2006 10036 20016 39115 40041 56023 6///1 333 10036 21029 7////
AAXX 04184 71257 NIL
AAXX 04184 71258 NIL
AAXX 04184 71259 NIL
AAXX 04184 71261 16/// /2212 11015 21051 39838 40103 58033 60001 333 11014 21143 70000
AAXX 04184 71263 11560 72517 11016 21074 39821 40117 58039 69901 70282 8557/ 333 10000 21158 4-4002 79999 909/5
AAXX 04184 71264 16/// /3113 11066 21109 30016 40048 55007 60001 333 11048 21107 70000
AAXX 04184 71265 15666 32517 10002 21082 30016 40112 58043 60001 333 10005 21134 70000
AAXX 04184 71266 NIL
AAXX 04184 71267 15966 02515 10113 21013 39083 40165 58002 60001 333 10113 20017 70000
AAXX 04184 71268 12466 82710 11043 21057 39668 40078 58014 60001 885// 333 11043 21172 70004
AAXX 04184 71269 NIL
AAXX 04184 71270 NIL
AAXX 04184 71271 16/// ///// 10044 21013 60001 333 10047 21007 70007
AAXX 04184 71272 15966 03206 11204 21235 39801 40166 53016 60001 333 11110 21211 70000
AAXX 04184 71273 16/// /1704 11020 21031 39427 40090 58013 60001 333 11020 21114 70000
AAXX 04184 71274 NIL
AAXX 04184 71275 NIL
AAXX 04184 71276 NIL
AAXX 04184 71277 NIL
AAXX 04184 71278 NIL
AAXX 04184 71279 16/// /3105 11109 21154 39991 40059 58028 60001 333 11109 21204 70000
AAXX 04184 71281 NIL
AAXX 04184 71282 46/// /2418 11033 21052 39831 40107 56033 6///1 333 11031 21188 7////
AAXX 04184 71283 NIL
AAXX 04184 71284 16/// ///// 10023 21018 60001 333 10033 21020 70017
AAXX 04184 71285 NIL
AAXX 04184 71286 NIL
AAXX 04184 71287 NIL
AAXX 04184 71288 NIL
AAXX 04184 71289 NIL
AAXX 04184 71290 17966 61511 10030 20012 39189 40007 52011 60091 70044 333 10037 20003 70233
AAXX 04184 71291 16/// /2806 11049 21081 39807 40103 58008 60001 333 11049 21157 70000
AAXX 04184 71292 15966 02503 11037 21054 39526 40140 58002 60001 333 11026 21084 70000
AAXX 04184 71294 16/// /2004 11098 21115 39691 40108 58039 60001 333 11097 70000
AAXX 04184 71295 NIL
AAXX 04184 71296 NIL
AAXX 04184 71297 16/// /2611 11003 21072 60001 333 10000 21152 70000
AAXX 04184 71298 16/// /2513 11008 21064 39895 40132 58030 60001 333 11007 21084 70000 555 10010
AAXX 04184 71299 NIL
AAXX 04184 71150 NIL
AAXX 04184 71151 NIL
AAXX 04184 71152 17/// /0337 11002 21015 39813 49826 56110 60041 7//4/ 333 10009 21019 70044
AAXX 04184 71153 NIL
AAXX 04184 71154 16/// /2340 10114 21029 60001 333 10114 20038 70007
AAXX 04184 71155 NIL
AAXX 04184 71156 NIL
AAXX 04184 71157 NIL
AAXX 04184 71158 NIL
AAXX 04184 71159 17/// /3408 11039 21043 39847 49919 56068 60041 7//4/ 333 11029 21043 70043
AAXX 04184 71160 NIL
AAXX 04184 71161 16/// /1807 11089 21130 39974 40128 57047 60001 333 11089 21215 70000
AAXX 04184 71162 NIL
AAXX 04184 71163 46/// /0808 11236 21258 39766 40128 58024 6///1 333 11233 21352 7////
AAXX 04184 71164 NIL
AAXX 04184 71165 NIL
AAXX 04184 71166 NIL
AAXX 04184 71167 15966 02303 11001 21023 38976 40067 55006 60001 333 10038 21037 70003
AAXX 04184 71168 16/// /2610 10064 21021 39611 40195 58025 60001 333 10065 21054 70000
AAXX 04184 71170 NIL
AAXX 04184 71171 17/// /2515 10003 21066 30010 40110 58040 69941 7//4/ 333 10006 21135 70004
AAXX 04184 71172 NIL
AAXX 04184 71175 17/// /3216 11028 21053 39934 49969 55015 60021 7//4/ 333 11008 7////
AAXX 04184 71176 460// /1503 11190 39362 40063 55007 6///1 333 11178 21213 7////
AAXX 04184 71177 460// /1912 11138 39031 40049 58015 6///1 333 11133 21140 7////
AAXX 04184 71178 NIL
AAXX 04184 71179 460// ///// 11079 39201 40028 56023 6///1 333 11071 21105 7////
AAXX 04184 71180 17/// /3422 11028 21033 39893 49932 56055 60041 7//4/ 333 11027 21038 70037 555 10020
AAXX 04184 71181 17256 81619 10098 20093 39729 49764 56108 60131 7//44 333 10100 21003 70180
AAXX 04184 71183 16/// /1606 30110 58046 60001 333 70000
AAXX 04184 71184 46/// /1908 11127 21188 6///1 333 11127 21182 7////
AAXX 04184 71186 NIL
AAXX 04184 71187 17248 81105 10056 20053 30129 40177 50002 60001 762// 333 10058 20044 70000
AAXX 04184 71189 NIL
AAXX 04184 71190 NIL
AAXX 04184 71191 16/// ///// 11093 21148 60001 333 11093 21151 70000
AAXX 04184 71192 15966 01310 10075 20012 39403 40053 53012 60001 333 10079 20051 70000
AAXX 04184 71193 16/// /2910 11068 21082 39674 40042 58011 60001 333 11064 21217 70000
AAXX 04184 71196 16/// /1206 11141 21158 39899 40107 56045 60001 333 11141 21259 70000
AAXX 04184 71197 17420 63220 11030 21044 39874 49923 56052 60031 74544 333 11017 21034 70025
AAXX 04184 71198 46/// /2211 11138 21181 6///1 333 11138 21193 7////
AAXX 04184 71199 NIL
AAXX 04184 71043 NIL
AAXX 04184 71045 17/// /0000 11097 21108 39010 49864 56020 60011 7//4/ 333 11084 21183 70013 555 10020
AAXX 04184 71050 NIL
AAXX 04184 71051 NIL
AAXX 04184 71052 NIL
AAXX 04184 71066 11316 90909 11101 21136 39601 40024 56051 69941 77177 885// 333 11075 21115 48027 70020 90983 93101
AAXX 04184 71068 11674 70000 10015 20010 39316 40000 58028 60021 70286 82570 333 10020 21037 42004 70046 90921
AAXX 04184 71069 17964 31005 10003 20003 39331 40030 57030 69951 7//44 333 10003 21039 70005
AAXX 04184 71076 16/// /0607 11184 21205 39743 40153 50000 60001 333 11184 21260 70000
AAXX 04184 71077 16/// /1205 11027 21054 39565 40109 56003 60001 333 11027 21090 70000
AAXX 04184 71079 11574 73208 11091 21137 39865 40149 53013 69901 77172 86501 333 11041 21119 48009 79999 90917
AAXX 04184 71081 46964 02304 11372 21415 30033 40046 58003 6///1 333 11370 21406 7////
AAXX 04184 71082 NIL
AAXX 04184 71083 11969 23418 11304 21347 30078 40122 50012 69901 77677 80001 333 11231 21306 48060 70004 90983
AAXX 04184 71090 46964 01808 11267 21323 39980 40016 53004 6///1 333 21332 7////
AAXX 04184 71091 460// /1112 11368 39839 40061 51013 6///1 333 7////
AAXX 04184 71092 46048 81907 11355 39355 40056 53014 6///1 333 11323 21355 7////
AAXX 04184 71093 460// ///// 11299 39516 40035 53012 6///1 333 11294 21311 7////
AAXX 04184 71094 46064 /2110 11322 39071 40010 53010 6///1 333 11308 21324 7////
AAXX 04184 71095 46440 82103 11311 21353 39922 40006 52010 6///1 333 11309 21379 7////
AAXX 04184 71101 160// /1609 39917 51016 60001 333 70005
AAXX 04184 71104 12974 61506 10056 20004 38990 40087 51014 60001 83071 333 10056 20028 70000
AAXX 04184 71108 11466 81716 10099 20073 30104 40176 53013 60081 76182 8172/ 333 10141 20061 70190 90942
AAXX 04184 71109 11469 72103 10085 20072 30039 40065 53017 60071 78066 87800 333 10090 20067 70376 90983
AAXX 04184 71700 15966 02609 11100 21172 30070 40096 56025 60001 333 11097 21153 70000
AAXX 04184 71701 12574 22709 11101 21170 30030 40094 56025 60001 82500 333 11101 21160 70000
AAXX 04184 71702 16/// /3118 11083 21111 30028 40043 56007 60001 333 11065 21128 70000
AAXX 04184 71703 11674 23112 11153 21194 39801 40111 56024 69901 70171 81570 333 11150 21197 43007 79999 90929
AAXX 04184 71704 17966 02111 11005 21072 39892 40117 58037 69951 7004/ 333 11004 21125 70073
AAXX 04184 71710 16/// /3320 11041 21078 39980 49990 56030 60001 333 11038 21069 70000
AAXX 04184 71712 16/// /0805 11110 21164 30082 40147 58049 60001 333 11110 21192 70000
AAXX 04184 71713 16/// /2419 11162 21212 60001 333 11162 21194 70000
AAXX 04184 71716 NIL
AAXX 04184 71717 NIL
AAXX 04184 71720 17/// /1217 10086 20074 39973 40125 51006 60061 7//4/ 333 10096 20069 70350
AAXX 04184 71721 16/// /1809 11149 21172 39857 40116 56042 60001 333 11149 21266 70000
AAXX 04184 71723 NIL
AAXX 04184 71724 NIL
AAXX 04184 71732 NIL
AAXX 04184 71733 16/// /2406 11051 21053 39629 40072 58018 60001 333 11051 21234 70000
AAXX 04184 71734 NIL
AAXX 04184 71736 NIL
AAXX 04184 71737 NIL
AAXX 04184 71741 16/// /1116 10081 20018 39736 40155 53006 60001 333 10081 20041 70000
AAXX 04184 71742 46/// /0417 11012 21014 39705 49888 58101 6///1 333 10000 21015 7////
AAXX 04184 71743 NIL
AAXX 04184 71744 16/// /3107 11085 21148 30026 40068 56030 60001 333 11082 21161 70000
AAXX 04184 71745 NIL
AAXX 04184 71746 NIL
AAXX 04184 71747 NIL
AAXX 04184 71748 NIL
AAXX 04184 71401 17/// /1704 10004 21002 39565 40261 58006 69961 7//4/ 333 10007 21019 70051 555 10020
AAXX 04184 71402 NIL
AAXX 04184 71404 NIL
AAXX 04184 71405 NIL
AAXX 04184 71406 NIL
AAXX 04184 71407 NIL
AAXX 04184 71408 NIL
AAXX 04184 71409 NIL
AAXX 04184 71410 15466 83507 11071 21100 39861 40145 53007 60001 333 11063 21098 70000
AAXX 04184 71413 NIL
AAXX 04184 71414 NIL
AAXX 04184 71415 16/// /3125 11038 21063 30010 40013 55021 60001 333 11033 21074 70000 555 10010
AAXX 04184 71417 NIL
AAXX 04184 71418 NIL
AAXX 04184 71419 46/// /3229 11018 21052 39970 49980 55007 6///1 333 10002 21036 7////
AAXX 04184 71423 NIL
AAXX 04184 71424 46/// /2222 6///1 333 7////
AAXX 04184 71425 16/// /3015 11091 21132 30015 40052 58029 60001 333 11075 21118 70000
AAXX 04184 71426 NIL
AAXX 04184 71427 16/// /2810 11125 21165 30078 40086 56022 60001 333 11120 21160 70000
AAXX 04184 71428 NIL
AAXX 04184 71429 NIL
AAXX 04184 71434 NIL
AAXX 04184 71436 15666 82410 11017 21072 39869 40110 56044 60001 333 11017 21174 70000
AAXX 04184 71437 46/// /2411 11001 21076 30012 40109 56042 6///1 333 10001 21140 7////
AAXX 04184 71438 NIL
AAXX 04184 71439 NIL
AAXX 04184 71440 NIL
AAXX 04184 71442 NIL
AAXX 04184 71445 NIL
AAXX 04184 71446 NIL
AAXX 04184 71448 NIL
AAXX 04184 71449 NIL
AAXX 04184 71397 11440 83107 11090 21109 30044 40079 56011 60031 78588 885// 333 11084 21121 47003 70026 90983 93103
AAXX 04184 71400 17/04 /0209 11019 21019 60091 7//4/ 333 11015 21027 70085
AAXX 04184 71403 46/// /3220 11041 21078 39997 40017 55003 6///1 333 11016 21062 7////
AAXX 04184 71411 16/// /3111 11076 21133 30068 40081 55003 60001 333 11062 21099 70000
AAXX 04184 71412 16/// /3323 11030 21060 39982 49992 56025 60001 333 11030 21062 70000
AAXX 04184 71421 NIL
AAXX 04184 71430 16/// /2222 11018 21053 30024 40123 56046 60001 333 11016 21169 70000
AAXX 04184 71431 16/// /2419 11010 21042 30004 40102 56049 60001 333 11006 21162 70000
AAXX 04184 71432 NIL
AAXX 04184 71433 NIL
AAXX 04184 71435 NIL
AAXX 04184 71441 46/// /2205 10013 21028 39819 40130 58017 6///1 333 10014 21061 7////
AAXX 04184 71443 16/// /2105 11043 21074 39721 40138 50001 60001 333 11028 21074 70000
AAXX 04184 71444 16/// /2101 11015 21049 39375 40144 58002 60001 333 11008 21126 70000
AAXX 04184 71447 NIL
AAXX 04184 71467 16/// /1008 11244 21267 30073 40193 55001 60001 333 11211 21279 70000
AAXX 04184 71472 NIL
AAXX 04184 71474 17564 32012 10042 20013 38902 40130 51021 69951 74344 333 10070 20000 70005
AAXX 04184 71510 16/// /2206 10019 21018 39414 40123 58013 60001 333 10019 21063 70000
AAXX 04184 71538 12974 22410 11004 21088 39896 40130 58031 60001 80001 333 11001 21078 79999
AAXX 04184 71600 174// 83229 11006 21015 39960 49966 50019 60051 74544 333 10042 21006 70160
AAXX 04184 71601 NIL
AAXX 04184 71450 NIL
AAXX 04184 71451 16/// /0504 11121 21137 39720 40157 50008 60001 333 11086 21164 70000
AAXX 04184 71452 46/// /2606 10035 21016 39444 40162 50004 6///1 333 10035 21078 7//// 555 10010
AAXX 04184 71453 NIL
AAXX 04184 71454 NIL
AAXX 04184 71455 NIL
AAXX 04184 71456 NIL
AAXX 04184 71457 16/// /2315 10120 21002 39228 40103 58002 60001 333 10120 20038 70000
AAXX 04184 71458 16/// /1707 11005 21027 39300 40070 58018 60001 333 11005 21064 70000
AAXX 04184 71459 NIL
AAXX 04184 71460 16/// /2710 11017 21042 39837 40080 58014 60001 333 11014 21185 70000
AAXX 04184 71461 NIL
AAXX 04184 71462 NIL
AAXX 04184 71463 46/// /2427 11019 21079 39895 40123 58040 6///1 333 11018 21143 7////
AAXX 04184 71464 NIL
AAXX 04184 71465 NIL
AAXX 04184 71466 NIL
AAXX 04184 71468 NIL
AAXX 04184 71470 NIL
AAXX 04184 71471 17966 62209 10071 20021 39211 49984 58008 69951 7004/ 333 10071 20000 70020
AAXX 04184 71473 17/// /1722 10076 20058 30131 40161 53014 60051 7//4/ 333 10098 20071 70080
AAXX 04184 71475 17/// /0908 10096 20090 30029 40122 51007 60151 7//4/ 333 10104 20030 71076
AAXX 04184 71476 NIL
AAXX 04184 71477 16/// /1618 10068 20056 60001 333 10082 20057 70192
AAXX 04184 71478 NIL
AAXX 04184 71479 NIL
AAXX 04184 71480 NIL
AAXX 04184 71481 NIL
AAXX 04184 71482 NIL
AAXX 04184 71483 NIL
AAXX 04184 71484 NIL
AAXX 04184 71485 17/// /1221 10082 20071 30034 40054 51017 60041 7//4/ 333 10085 20066 70092
AAXX 04184 71486 17/// /1605 10040 20020 38908 40097 55002 69931 7//4/ 333 10065 20028 70003
AAXX 04184 71487 NIL
AAXX 04184 71489 NIL
AAXX 04184 71490 NIL
AAXX 04184 71491 NIL
AAXX 04184 71492 NIL
AAXX 04184 71493 16/// /3007 11085 21127 30021 40060 55011 60001 333 11083 21144 70000
AAXX 04184 71494 16/// /2208 11164 21211 39595 40139 56028 60001 333 11163 21225 70000
AAXX 04184 71495 NIL
AAXX 04184 71496 16/// /2207 11014 21042 39517 40134 58005 60001 333 11011 21088 70000
AAXX 04184 71497 46/// /0613 11153 21172 39744 40014 58031 6///1 333 11133 21153 7////
AAXX 04184 71498 NIL
AAXX 04184 71499 15666 80806 11121 21135 39496 40139 58005 60001 333 11108 21137 70000
AAXX 04184 71864 NIL
AAXX 04184 71865 16/// /2508 11002 21043 39450 40132 58002 60001 333 10022 21048 70000
AAXX 04184 71866 46964 02106 11013 21042 39520 40140 58006 6///1 333 11012 21087 7////
AAXX 04184 71867 12574 73202 11058 21082 39812 40151 53010 60001 82520 333 11042 21064 70000
AAXX 04184 71868 NIL
AAXX 04184 71869 12166 70703 11092 21098 39603 40137 58001 60001 85671 333 11043 21124 70000
AAXX 04184 71871 15966 01910 11015 21044 39285 40091 58015 60001 333 10009 21068 70000
AAXX 04184 71877 12686 51005 10056 20000 38848 40109 58020 60001 81571 333 10083 21002 70000
AAXX 04184 71878 12974 61606 10059 21003 39015 40080 58018 60001 81071 333 10062 21040 70000
AAXX 04184 71879 16964 01604 10039 21016 39254 40051 58019 60001 333 10043 21020 70005
AAXX 04184 71880 12882 61310 10065 20006 39136 40245 58005 60001 333 10065 20028 70000
AAXX 04184 71882 160// /1510 10041 20018 39664 40206 56011 69951 333 10041 21019 70105
AAXX 04184 71883 NIL
AAXX 04184 71887 12786 81218 10082 20016 39739 40158 53013 60001 82572 333 10082 20038 70000
AAXX 04184 71889 12674 81515 10066 21002 39799 40218 52018 60001 82572 333 10078 20018 79999
AAXX 04184 71891 16440 62017 10064 20060 39883 40156 53015 60121 333 10093 20062 70115
AAXX 04184 71892 11466 81312 10088 20072 30160 40165 53014 60101 76162 8757/ 333 10113 20079 70282 90972
AAXX 04184 71001 15566 81202 11214 21238 38932 49924 55007 69911 333 11214 21327 70002
AAXX 04184 71002 17536 83005 11131 21154 39493 40045 56027 60001 771// 333 11130 21149 70000
AAXX 04184 71003 17528 81914 11164 21199 39616 40009 60001 771// 333 70000
AAXX 04184 71005 NIL
AAXX 04184 71006 NIL
AAXX 04184 71007 NIL
AAXX 04184 71008 NIL
AAXX 04184 71009 NIL
AAXX 04184 71010 NIL
AAXX 04184 71011 NIL
AAXX 04184 71012 NIL
AAXX 04184 71013 NIL
AAXX 04184 71014 NIL
AAXX 04184 71015 NIL
AAXX 04184 71016 NIL
AAXX 04184 71017 NIL
AAXX 04184 71018 NIL
AAXX 04184 71019 NIL
AAXX 04184 71020 NIL
AAXX 04184 71021 NIL
AAXX 04184 71022 15566 81415 10090 20058 39901 49944 51023 60001 333 10111 20069 70166
AAXX 04184 71023 NIL
AAXX 04184 71024 16/// /1011 11107 21118 60001 333 11095 21110 70007 555 10010
AAXX 04184 71026 NIL
AAXX 04184 71027 16/// /3510 11034 21069 39950 49960 55023 60001 333 11022 21044 70000
AAXX 04184 71028 17/// /1105 10033 20031 39049 40074 52017 60131 7//4/ 333 10050 20022 70274
AAXX 04184 71029 17/// /0508 11275 21304 30138 40179 56003 69991 7//4/ 333 11271 21296 70031
AAXX 04184 71030 16/64 /3008 11106 21155 30004 40096 56017 60001 333 11105 21142 70000 555 10010
AAXX 04184 71032 NIL
AAXX 04184 71033 46/// /0805 11129 21141 39496 40142 58004 6///1 333 11115 21145 7////
AAXX 04184 71035 NIL
AAXX 04184 71036 15966 02906 10009 21040 39757 40134 58002 60001 333 10013 21069 70000
AAXX 04184 71039 NIL
AAXX 04184 71040 46/// /0805 11178 21233 39903 40111 57044 6///1 333 11178 21204 7////
AAXX 04184 71041 17466 83213 11040 21075 39847 49989 55011 60001 771// 333 11025 21052 70000
AAXX 04184 71042 17/// /1505 10089 20082 30166 40170 53021 60081 7//4/ 333 10112 20073 70289
AAXX 04184 71044 16/// /1103 11308 21343 39729 40069 58016 60001 333 11234 21393 70000
AAXX 04184 71046 460// /1023 11307 30079 40097 56013 6///1 333 11307 21370 7////
AAXX 04184 71047 NIL
AAXX 04184 71048 NIL
AAXX 04184 71049 NIL
AAXX 04184 71060 NIL
AAXX 04184 71063 NIL
AAXX 04184 71604 16/// /3116 11082 21085 60001 333 11063 21089 70000
AAXX 04184 71605 17/// /1903 10085 20085 30006 40155 53008 60331 7//4/ 333 10100 20062 70988
AAXX 04184 71611 16/// /2105 11125 21180 60001 333 11125 21188 70000
AAXX 04184 71612 16/// /1804 11125 21184 30060 40155 58047 60001 333 11123 21188 70000
AAXX 04184 71614 NIL
AAXX 04184 71616 16/// /2010 11146 21187 30037 40163 57038 60001 333 11145 21217 70000
AAXX 04184 71617 16/// /1105 11171 21223 39948 40129 56047 60001 333 11169 21204 70000
AAXX 04184 71618 17366 83416 11205 21224 30099 40138 51017 60001 771// 333 11150 21205 70003
AAXX 04184 71619 16/// /3109 11087 21148 39995 40055 56030 60001 333 11086 21170 70000
AAXX 04184 71622 NIL
AAXX 04184 71632 46/// /0304 11121 21156 39706 40156 51014 6///1 333 11077 21124 7////
AAXX 04184 71634 16/// /3007 11101 21143 39915 40073 56027 60001 333 11095 21171 70000
AAXX 04184 71638 17/// /1313 10095 20075 30039 40143 51011 60091 7//4/ 333 10116 20086 70180
AAXX 04184 71639 11574 72310 11014 21101 39863 40110 58042 69901 70172 85570 333 11010 21164 45997 79999 90960
AAXX 04184 71642 11474 83106 11047 21065 39507 40059 50059 69901 77177 885// 333 11046 21194 48032 70002 90993
AAXX 04184 71114 160// /1105 10056 20051 30129 40177 50001 60121 333 10058 20043 70290
AAXX 04184 71120 12974 71502 11031 21057 39425 40085 58018 60001 80006 333 11018 21068 70000
AAXX 04184 71122 16/// /2506 10049 21017 38575 40168 58009 60001 333 10051 7////
AAXX 04184 71123 11974 71511 10030 21021 39149 40056 58025 69921 70266 81078 333 10033 21043 44006 70006 90960
AAXX 04184 71125 11974 80000 11053 21060 39509 40100 57014 60001 70241 86072 333 70000
AAXX 04184 71129 12874 41808 10029 21008 39291 40120 58007 60001 82071 333 10029 21036 70000
AAXX 04184 71131 16/// /2616 10032 21016 38907 40164 58003 60001 333 10032 21026 70000
AAXX 04184 71135 16/// /2511 10037 21036 39086 40173 50000 60001 333 10038 21007 70000
AAXX 04184 71137 NIL
AAXX 04184 71140 12974 32707 11022 21040 39639 40147 5/004 60001 80001 333 11022 21097 70000
AAXX 04184 71145 11574 73412 11077 21132 39829 40127 51013 69921 77177 87500 333 11047 21110 48032 70002 90963
AAXX 04184 71148 NIL
AAXX 04184 71185 17011 90311 11048 39931 49955 57053 60001 745// 333 11021 21049 70000
AAXX 04184 71188 11574 73012 11081 21139 30001 40044 57025 69901 70172 87500 333 11077 21145 43018 79999 90922
AAXX 04184 71200 17/// /2403 10093 20076 60061 7//4/ 333 10098 20072 70074
AAXX 04184 71207 17/// /1506 10079 20064 30080 40144 53002 60341 7//4/ 333 10084 20043 7////
AAXX 04184 71260 13/// ///// 11020 21043 39848 40087 57008 69941 333 11020 21144 44018 70004
AAXX 04184 71102 NIL
AAXX 04184 71105 NIL
AAXX 04184 71107 NIL
AAXX 04184 71110 NIL
AAXX 04184 71111 16666 3//// 10064 20050 39919 49927 53018 69981 333 10105 20060 70149
AAXX 04184 71112 17/// ///// 60101 7//4/ 333 70280
AAXX 04184 71113 17/// /2502 10067 20064 30147 40170 53002 60141 7//4/ 333 10080 20055 70290
AAXX 04184 71115 NIL
AAXX 04184 71116 16/// /2520 10126 21031 39094 40179 53019 60001 333 10126 20037 70000
AAXX 04184 71118 16/// /1706 10009 21022 39264 40090 58012 60001 333 10012 21042 70000
AAXX 04184 71121 16964 01905 10034 21046 39234 40051 58021 60001 333 10035 21006 70005
AAXX 04184 71127 16/// /1504 10018 21026 39145 40041 58023 60001 333 10045 20000 70008
AAXX 04184 71130 15966 01203 11074 21085 39676 40140 58003 60001 333 11029 21104 70000
AAXX 04184 71132 15966 11003 11206 21225 39845 40170 50004 60001 333 11113 21228 70000
AAXX 04184 71133 NIL
AAXX 04184 71139 16/// /2418 10075 21030 38702 40147 51005 60001 333 10084 20028 70000
AAXX 04184 71141 NIL
AAXX 04184 71142 15966 02011 10057 20003 39182 40146 58006 60001 333 10057 20013 70000
AAXX 04184 71143 NIL
AAXX 04184 71144 NIL
AAXX 04184 71147 16/// /3203 10025 21027 60001 333 10025 21071 70000
AAXX 04184 71149 NIL
AAXX 04184 71043 NIL
AAXX 04184 71045 17/// /0000 11097 21108 39010 49864 56020 60011 7//4/ 333 11084 21183 70013 555 10020
AAXX 04184 71050 NIL
AAXX 04184 71051 NIL
AAXX 04184 71052 NIL
AAXX 04184 71066 11316 90909 11101 21136 39601 40024 56051 69941 77177 885// 333 11075 21115 48027 70020 90983 93101
AAXX 04184 71068 11674 70000 10015 20010 39316 40000 58028 60021 70286 82570 333 10020 21037 42004 70046 90921
AAXX 04184 71069 17964 31005 10003 20003 39331 40030 57030 69951 7//44 333 10003 21039 70005
AAXX 04184 71076 16/// /0607 11184 21205 39743 40153 50000 60001 333 11184 21260 70000
AAXX 04184 71077 16/// /1205 11027 21054 39565 40109 56003 60001 333 11027 21090 70000
AAXX 04184 71079 11574 73208 11091 21137 39865 40149 53013 69901 77172 86501 333 11041 21119 48009 79999 90917
AAXX 04184 71081 46964 02304 11372 21415 30033 40046 58003 6///1 333 11370 21406 7////
AAXX 04184 71082 NIL
AAXX 04184 71083 11969 23418 11304 21347 30078 40122 50012 69901 77677 80001 333 11231 21306 48060 70004 90983
AAXX 04184 71090 46964 01808 11267 21323 39980 40016 53004 6///1 333 21332 7////
AAXX 04184 71091 460// /1112 11368 39839 40061 51013 6///1 333 7////
AAXX 04184 71092 46048 81907 11355 39355 40056 53014 6///1 333 11323 21355 7////
AAXX 04184 71093 460// ///// 11299 39516 40035 53012 6///1 333 11294 21311 7////
AAXX 04184 71094 46064 /2110 11322 39071 40010 53010 6///1 333 11308 21324 7////
AAXX 04184 71095 46440 82103 11311 21353 39922 40006 52010 6///1 333 11309 21379 7////
AAXX 04184 71101 160// /1609 39917 51016 60001 333 70005
AAXX 04184 71104 12974 61506 10056 20004 38990 40087 51014 60001 83071 333 10056 20028 70000
AAXX 04184 71108 11466 81716 10099 20073 30104 40176 53013 60081 76182 8172/ 333 10141 20061 70190 90942
AAXX 04184 71109 11469 72103 10085 20072 30039 40065 53017 60071 78066 87800 333 10090 20067 70376 90983
AAXX 04184 71864 NIL
AAXX 04184 71865 16/// /2508 11002 21043 39450 40132 58002 60001 333 10022 21048 70000
AAXX 04184 71866 46964 02106 11013 21042 39520 40140 58006 6///1 333 11012 21087 7////
AAXX 04184 71867 12574 73202 11058 21082 39812 40151 53010 60001 82520 333 11042 21064 70000
AAXX 04184 71868 NIL
AAXX 04184 71869 12166 70703 11092 21098 39603 40137 58001 60001 85671 333 11043 21124 70000
AAXX 04184 71871 15966 01910 11015 21044 39285 40091 58015 60001 333 10009 21068 70000
AAXX 04184 71877 12686 51005 10056 20000 38848 40109 58020 60001 81571 333 10083 21002 70000
AAXX 04184 71878 12974 61606 10059 21003 39015 40080 58018 60001 81071 333 10062 21040 70000
AAXX 04184 71879 16964 01604 10039 21016 39254 40051 58019 60001 333 10043 21020 70005
AAXX 04184 71880 12882 61310 10065 20006 39136 40245 58005 60001 333 10065 20028 70000
AAXX 04184 71882 160// /1510 10041 20018 39664 40206 56011 69951 333 10041 21019 70105
AAXX 04184 71883 NIL
AAXX 04184 71887 12786 81218 10082 20016 39739 40158 53013 60001 82572 333 10082 20038 70000
AAXX 04184 71889 12674 81515 10066 21002 39799 40218 52018 60001 82572 333 10078 20018 79999
AAXX 04184 71891 16440 62017 10064 20060 39883 40156 53015 60121 333 10093 20062 70115
AAXX 04184 71892 11466 81312 10088 20072 30160 40165 53014 60101 76162 8757/ 333 10113 20079 70282 90972
AAXX 04181 33317 11496 82102 10043 20028 39762 40099 57004 60012 78088 889// 333 10050 88914
AAXX 04181 33587 31/07 90000 10034 20034 39868 40133 57009 74742 333 10034
AAXX 04181 33791 31219 81805 10030 20027 30003 40156 57016 72842 886// 333 10030 88703
AAXX 04184 71550 NIL
AAXX 04184 71551 NIL
AAXX 04184 71552 NIL
AAXX 04184 71553 16/// /1902 11044 21069 60001 333 11044 21100 70000
AAXX 04184 71554 16/// /2514 11132 21158 30105 40111 56024 60001 333 11114 21149 70000
AAXX 04184 71555 16/// /2636 10115 21030 38563 40104 58031 60001 333 10115 20017 70000
AAXX 04184 71556 16/// /2006 11018 21037 39533 40146 58003 60001 333 11018 21075 70000 555 10010
AAXX 04184 71557 46/// /1702 10051 20027 6///1 333 10074 20015 7////
AAXX 04184 71558 46/// ///// 11048 21081 39942 49979 58046 6///1 333 11038 21083 7////
AAXX 04184 71559 46/// /2609 10040 21019 39459 40164 50005 6///1 333 10040 21064 7////
AAXX 04184 71560 16/// /2008 11013 21040 39830 40135 58015 60001 333 11013 21086 7////
AAXX 04184 71563 NIL
AAXX 04184 71564 NIL
AAXX 04184 71565 NIL
AAXX 04184 71566 NIL
AAXX 04184 71567 NIL
AAXX 04184 71568 17/// /1310 10092 20069 30078 40090 51013 60101 7//4/ 333 10102 20063 70626
AAXX 04184 71569 16/// /2407 10010 21023 39435 40141 50006 60001 333 10014 21073 70000
AAXX 04184 71570 16/// /3103 11022 21077 39825 40141 58004 60001 333 11021 21098 70000
AAXX 04184 71571 NIL
AAXX 04184 71572 NIL
AAXX 04184 71573 16/// /2403 11014 21073 39825 40113 57036 60001 333 11012 21176 70003
AAXX 04184 71574 12574 63010 11102 21145 39996 40071 56025 60001 86500 333 11089 21160 79999
AAXX 04184 71575 16/// /3002 11273 21301 39980 40048 54000 60001 333 11261 21293 70000
AAXX 04184 71576 16/// /0000 11310 21345 39917 40006 52010 60001 333 11309 21380 70000
AAXX 04184 71577 46/// /3303 11010 21063 6///1 333 11009 21052 7////
AAXX 04184 71578 NIL
AAXX 04184 71579 16/// /2304 11002 21055 39845 40131 58004 60001 333 11002 21043 70000
AAXX 04184 71580 NIL
AAXX 04184 71581 NIL
AAXX 04184 71582 17464 81916 10096 20082 39987 40039 53019 60081 70044 333 10115 20075 70553
AAXX 04184 71583 NIL
AAXX 04184 71584 15966 03407 11093 21138 39984 40032 56028 60001 333 11088 21138 70000
AAXX 04184 71585 NIL
AAXX 04184 71586 NIL
AAXX 04184 71587 NIL
AAXX 04184 71588 NIL
AAXX 04184 71589 NIL
AAXX 04184 71590 16/// /3003 11138 21203 39910 40108 56030 60001 333 11138 21221 70000
AAXX 04184 71592 NIL
AAXX 04184 71593 NIL
AAXX 04184 71596 NIL
AAXX 04184 71598 16/64 /2917 11080 21129 30045 40051 56030 60001 333 11073 21124 70000
AAXX 04184 71599 NIL
AAXX 04184 71812 46964 33214 11282 21321 30131 40145 51012 6///1 333 11192 21282 7////
AAXX 04184 71819 15566 80707 11048 21078 39946 49987 58046 60001 333 11037 21079 70000
AAXX 04184 71820 16/// /2018 11032 21058 30005 40123 58048 60001 333 11031 21168 70000
AAXX 04184 71823 17528 81915 11187 21227 39616 40011 57037 69951 74544 333 11186 21269 70005
AAXX 04184 71824 46/// /2005 11166 21189 6///1 333 11166 21317 7////
AAXX 04184 71826 16/// /0000 11318 21361 30043 40090 53014 60001 333 11300 21324 70000
AAXX 04184 71829 16/// /2509 11139 21193 39919 40086 56025 60001 333 11136 21170 70000
AAXX 04184 71833 46/// /2609 11033 21090 6///1 333 11030 21183 7////
AAXX 04184 71835 16/// /3010 11064 21088 39599 40085 58001 60001 333 11064 21141 70000
AAXX 04184 71837 NIL
AAXX 04184 71839 NIL
AAXX 04184 71840 46/// /2612 10023 21020 6///1 333 10024 21044 7////
AAXX 04184 71846 16/// /2709 11052 21065 39733 40051 58002 60001 333 11052 21172 70000
AAXX 04184 71847 NIL
AAXX 04184 71848 NIL
AAXX 04184 71849 16/// /2506 11001 21049 39840 40140 58002 60001 333 10001 21094 70000
AAXX 04184 71350 16/// /2910 11072 21088 39957 40024 56014 60001 333 11053 21119 70000
AAXX 04184 71351 NIL
AAXX 04184 71352 16/// /2411 11042 21083 39643 40108 58035 60001 333 11042 21188 70012
AAXX 04184 71353 NIL
AAXX 04184 71354 NIL
AAXX 04184 71355 16/// /2806 11248 21274 39948 40036 55006 60001 333 11247 21327 70000
AAXX 04184 71356 16/// /3220 11323 21359 30091 40161 53010 60001 333 11274 21327 70000 555 10090
AAXX 04184 71357 NIL
AAXX 04184 71358 17/// /1808 11272 21302 39978 40014 53004 60011 7//4/ 333 11255 21333 70020
AAXX 04184 71359 NIL
AAXX 04184 71360 NIL
AAXX 04184 71361 NIL
AAXX 04184 71362 NIL
AAXX 04184 71363 NIL
AAXX 04184 71364 NIL
AAXX 04184 71365 NIL
AAXX 04184 71368 15566 82514 11027 21081 39714 40112 58038 60001 333 11024 21180 70000
AAXX 04184 71369 17966 80905 10006 21001 39332 40032 56029 69951 7004/ 333 10006 21041 70010
AAXX 04184 71370 46/// /2006 11172 21210 30002 40145 56042 6///1 333 11172 21242 7////
AAXX 04184 71371 15966 61708 11119 21160 30119 40155 58047 60001 333 11119 21174 70000
AAXX 04184 71372 NIL
AAXX 04184 71373 16/// /1805 11126 21176 60001 333 11125 21189 70000
AAXX 04184 71374 NIL
AAXX 04184 71375 NIL
AAXX 04184 71376 NIL
AAXX 04184 71377 NIL
AAXX 04184 71378 16/// /1704 11188 21240 39916 40136 56047 60001 333 11188 21291 70000
AAXX 04184 71379 16/// /1307 11193 21237 39911 40089 56050 60001 333 11193 21256 70000
AAXX 04184 71380 NIL
AAXX 04184 71381 NIL
AAXX 04184 71382 NIL
AAXX 04184 71383 NIL
AAXX 04184 71384 16/// /2410 11161 21212 30136 40144 56027 60001 333 11155 21247 70000
AAXX 04184 71385 NIL
AAXX 04184 71386 NIL
AAXX 04184 71387 NIL
AAXX 04184 71388 NIL
AAXX 04184 71389 46/// /2504 11164 21216 6///1 333 11153 21230 7////
AAXX 04184 71390 46/// /3205 11102 6///1 333 11100 21129 7////
AAXX 04184 71391 16/// ///// 11165 21196 60001 333 11164 21238 70000
AAXX 04184 71392 16/// /2606 11172 21220 60001 333 11172 21208 70000
AAXX 04184 71393 NIL
AAXX 04184 71395 11466 63116 11079 21116 39861 40042 55008 69931 78522 86100 333 11075 21119 45997 70003 90962
AAXX 04184 71398 17466 82713 11071 21089 39999 40011 56007 60001 771// 333 11071 21227 70000
AAXX 04184 71399 NIL
AAXX 04184 71500 NIL
AAXX 04184 71501 NIL
AAXX 04184 71502 NIL
AAXX 04184 71503 NIL
AAXX 04184 71504 NIL
AAXX 04184 71505 46/// /0000 11209 21236 39164 49899 56008 6///1 333 11165 21254 7////
AAXX 04184 71506 NIL
AAXX 04184 71507 NIL
AAXX 04184 71508 16/// ///// 10007 21067 39975 40116 58042 60001 333 10007 21143 70009
AAXX 04184 71509 NIL
AAXX 04184 71511 NIL
AAXX 04184 71512 16/// /3204 11080 21117 30029 40043 56026 60001 333 11080 21150 70000
AAXX 04184 71513 15966 03309 11091 21133 39995 40011 56028 60001 333 11067 21120 70000
AAXX 04184 71514 NIL
AAXX 04184 71515 16/// /2806 10010 21030 39439 40146 58004 60001 333 10010 21069 70000
AAXX 04184 71516 16/// /2612 10077 21029 60001 333 10077 21007 70000
AAXX 04184 71517 NIL
AAXX 04184 71518 NIL
AAXX 04184 71519 NIL
AAXX 04184 71520 NIL
AAXX 04184 71521 NIL
AAXX 04184 71522 NIL
AAXX 04184 71523 NIL
AAXX 04184 71524 16/// /2104 11138 21177 30136 40164 58045 60001 333 11138 21210 70000
AAXX 04184 71525 NIL
AAXX 04184 71526 NIL
AAXX 04184 71527 15966 12710 11054 21077 39614 40130 58005 60001 333 11052 21109 70000
AAXX 04184 71528 NIL
AAXX 04184 71529 46/// /0000 11280 21315 39932 40173 50006 6///1 333 11218 21295 7////
AAXX 04184 71532 17559 82007 11061 21073 39746 40101 56034 60001 771// 333 11061 21238 70000
AAXX 04184 71534 16564 62209 11041 21070 39828 40107 56037 60001 333 11040 21277 70005
AAXX 04184 71535 NIL
AAXX 04184 71536 NIL
AAXX 04184 71537 NIL
AAXX 04184 71539 NIL
AAXX 04184 71540 NIL
AAXX 04184 71541 NIL
AAXX 04184 71542 17/// /1017 11107 21122 69981 7//4/ 333 11087 21114 70016
AAXX 04184 71543 NIL
AAXX 04184 71544 NIL
AAXX 04184 71545 16/// ///// 10004 21016 60001 333 10004 21035 70026
AAXX 04184 71546 NIL
AAXX 04184 71547 NIL
AAXX 04184 71548 NIL
AAXX 04184 71549 NIL
AAXX 04184 71744 NIL
AAXX 04184 71750 16/// /3502 11053 21091 39845 40081 58007 60001 333 11033 21175 70004 555 10010
AAXX 04184 71751 NIL
AAXX 04184 71752 NIL
AAXX 04184 71753 16/// /2907 11068 21111 30001 40030 55014 60001 333 11064 21095 70000 555 10010
AAXX 04184 71754 16/// /1406 10010 21033 39456 40125 56012 60001 333 10010 21099 70000
AAXX 04184 71755 43/// /3307 11080 21107 39747 40096 51019 6///1 333 11051 21127 7////
AAXX 04184 71756 17/// /0102 10014 20013 39043 40134 51011 60221 7//4/ 333 10036 20001 70304
AAXX 04184 71758 NIL
AAXX 04184 71760 NIL
AAXX 04184 71761 NIL
AAXX 04184 71762 NIL
AAXX 04184 71763 NIL
AAXX 04184 71765 17/// /1916 10063 20050 39882 40155 53015 60101 7//4/ 333 10093 20061 70101
AAXX 04184 71766 17/// /1308 10090 20083 30047 40118 51009 60151 7//4/ 333 10103 20071 70604
AAXX 04184 71767 16/// /2710 11013 21046 39821 40084 58018 60001 333 11013 21157 70000
AAXX 04184 71768 46/// /1305 10064 20006 39661 40210 51017 6///1 333 10077 20010 7////
AAXX 04184 71769 17/// /1124 10085 20077 30103 40119 51010 60091 7//4/ 333 10103 20073 70200
AAXX 04184 71770 16/// /1104 10017 20016 39487 40271 58005 60001 333 10019 7////
AAXX 04184 71771 NIL
AAXX 04184 71772 17/// /1320 10090 20085 30126 40132 50011 60071 7//4/ 333 10103 20077 70190
AAXX 04184 71773 16/// /3504 11164 21178 39022 49883 56015 60001 333 11144 21172 70021 555 10030
AAXX 04184 71774 46/// ///// 10079 6///1 333 10095 20055 7////
AAXX 04184 71775 17/// /1603 10095 20077 30169 40175 53011 60131 7//4/ 333 10095 20069 70277
AAXX 04184 71776 46/// /0703 10028 20017 39607 40258 56008 6///1 333 10028 20005 7////
AAXX 04184 71777 17/// ///// 10025 20023 39899 40152 51019 60221 7//4/ 333 10030 21002 70348
AAXX 04184 71778 46/// /3602 6///1 333 7////
AAXX 04184 71779 16/// /1110 10076 20009 39400 40049 53012 60001 333 10081 20050 70000
AAXX 04184 71780 NIL
AAXX 04184 71781 46/// /1131 10085 20074 30083 40107 52010 6///1 333 10101 20074 7////
AAXX 04184 71782 46/// /1704 10062 21013 38908 40235 58003 6///1 333 10064 20022 7////
AAXX 04184 71783 17/// /2102 10088 20081 30086 40159 53014 60081 7//4/ 333 10095 20064 70104
AAXX 04184 71784 17/// /0705 10080 20069 39964 40168 51015 60181 7//4/ 333 10115 20076 70438
AAXX 04184 71785 17/// /1612 10104 20076 30161 40177 53010 60081 7//4/ 333 10141 20080 70194
AAXX 04184 71786 46/// /2717 11016 21022 38363 40206 58014 6///1 333 11016 21054 7////
AAXX 04184 71787 17/// /3010 11138 21156 39560 40064 58010 60021 7//4/ 333 11136 21192 70020
AAXX 04184 71788 NIL
AAXX 04184 71789 NIL
AAXX 04184 71791 NIL
AAXX 04184 71792 NIL
AAXX 04184 71793 NIL
AAXX 04184 71794 NIL
AAXX 04184 71795 NIL
AAXX 04184 71796 NIL
AAXX 04184 71797 NIL
AAXX 04184 71300 NIL
AAXX 04184 71301 16/// ///// 11086 21091 39637 40045 56020 60001 333 11086 21231 70013
AAXX 04184 71302 16/// /1817 10059 20007 39228 40031 53020 60001 333 10072 20045 70003
AAXX 04184 71303 46/// ///// 10003 21066 6///1 333 10004 21113 7////
AAXX 04184 71305 15566 80911 11109 21141 39803 40101 58026 60001 333 11107 21170 70000
AAXX 04184 71306 17558 81014 11160 21186 39943 49976 56006 60001 771// 333 11138 21224 70000
AAXX 04184 71307 16/// /2412 11012 21069 39874 40128 58034 60001 333 11010 21146 70003
AAXX 04184 71308 16/// /3215 11036 21063 39919 40003 55011 60001 333 11023 21049 70000
AAXX 04184 71309 NIL
AAXX 04184 71310 16/// /3115 11047 21084 39977 40014 56019 60001 333 11046 21081 70000
AAXX 04184 71311 16/// /3114 11094 21131 30039 40064 55012 60001 333 11089 21143 70000 555 10010
AAXX 04184 71312 16/// /1403 11077 21088 39673 40137 56004 60001 333 11032 21108 70000
AAXX 04184 71314 16/// /2307 11045 21090 39740 40100 56036 60001 333 11045 21225 70000
AAXX 04184 71315 16/// /2712 11112 21162 30021 40076 56031 60001 333 11105 21164 70000
AAXX 04184 71316 16/// /1803 11010 21022 39377 40060 58019 60001 333 11010 21057 70000
AAXX 04184 71317 NIL
AAXX 04184 71318 16/// /1910 10021 21017 39146 40091 58022 60001 333 10021 21052 70000
AAXX 04184 71319 NIL
AAXX 04184 71320 NIL
AAXX 04184 71321 16/// /0102 11274 21305 30051 40097 55002 60001 333 11273 21334 70000
AAXX 04184 71322 46/// /3313 11281 21311 30131 40144 51011 6///1 333 11190 21281 7//// 555 10100
AAXX 04184 71323 NIL
AAXX 04184 71331 16/// /0702 11099 21126 60001 333 11079 21136 70000
AAXX 04184 71332 NIL
AAXX 04184 71334 46/// /3205 11210 21245 39828 40169 53018 6///1 333 11111 21221 7////
AAXX 04184 71335 46764 8//// 11155 39435 40065 56012 6///1 333 11127 21161 7////
AAXX 04184 71336 46/// ///20 10056 20053 39804 49826 56121 6///1 333 10056 20005 7////
AAXX 04184 71337 46/// /0310 11034 21038 39692 49927 58075 6///1 333 11027 21042 7////
AAXX 04184 71338 46964 31808 11317 21360 30055 40063 53013 6///1 333 11274 21334 7////
AAXX 04184 71339 16364 80404 11071 21097 39990 40005 56034 60001 333 11053 21117 70000
AAXX 04184 71340 NIL
AAXX 04184 71341 NIL
AAXX 04184 71342 NIL
AAXX 04184 71343 NIL
AAXX 04184 71344 NIL
AAXX 04184 71345 NIL
AAXX 04184 71346 NIL
AAXX 04184 71347 NIL
AAXX 04184 71348 NIL
AAXX 04184 71349 NIL
AAXX 04184 71900 46/// /01// 11066 21084 30048 40061 58026 6///1 333 11042 21073 7////
AAXX 04184 71903 NIL
AAXX 04184 71904 NIL
AAXX 04184 71914 17/// /0403 10079 20068 39949 40169 53016 60091 7//4/ 333 10099 20075 70120
AAXX 04184 71916 NIL
AAXX 04184 71918 460// ///// 11353 6///1 333 7////
AAXX 04184 71920 17/// /3120 11067 21105 30091 40097 55005 69971 7//4/ 333 11059 21096 70007 555 10030
AAXX 04184 71921 NIL
AAXX 04184 71923 NIL
AAXX 04184 71927 NIL
AAXX 04184 71941 17462 82009 11114 21132 39633 40064 56029 60001 771// 333 11114 21266 70002
AAXX 04184 71947 17436 82007 11118 21133 39678 40035 56022 60001 771// 333 11118 21280 70001
AAXX 04181 02019 07/99 /1211 11056 21086 39241 49860 55003 69902 70010 333 11027 21058 60005 90710 91118
AAXX 04181 02081 07/78 /0804 11070 21078 39502 49907 57010 69932 78587 333 11035 21070 69905 90710 91107
AAXX 04181 02095 05374 /0606 11054 21068 39677 49881 58018 60002 333 11027 21054 60005 87/09 88/24 90710 91109
AAXX 04181 02101 47/17 /1011 11031 21069 39223 49772 57010 771// 8//// 333 11008 21031 89/25
AAXX 04181 02119 07477 /0703 11041 21051 39460 49842 57010 69972 72174 333 11023 21044 69905 88/17 90710 91108
AAXX 04181 02124 07131 /0706 11047 21073 39291 49811 58010 69942 77187 333 11024 21058 69925 85/03 87/09 88/13 90710 91112
AAXX 04181 02126 07429 /0505 11026 21040 39438 49771 58007 69982 77177 333 11005 21026 69935 88/13 90710 91110
AAXX 04181 02151 17383 80805 11045 21050 39508 49842 56013 69912 77154 333 11019 21045 60005 88/09 91008 90710 91109 90710 91206
AAXX 04181 02186 07446 80807 11023 21035 39788 49813 58016 69902 74140 333 10008 21024 69905 87/11 88/16 91012 90710 91113 90710 91208
AAXX 04181 02197 07/60 /0606 11032 21049 39815 49834 58020 60002 70010 333 11010 21032 60005 90710 91110
AAXX 04181 02207 07422 /2300 11032 21034 39042 49724 57002 60062 77177 333 11024 21033 69935 81/17 88/27 90710 91102
AAXX 04181 02219 07/59 /0906 11028 21045 39087 49739 57002 60012 77177 333 11014 21029 69905 90710 91113
AAXX 04181 02226 47911 /0402 11016 21016 39273 49716 52001 771// 8//// 333 11003 21017
AAXX 04181 02243 07/63 /0502 11011 21017 39461 49724 57003 60022 70074 333 11002 21016 60005 90710 91105
AAXX 04181 02269 07247 /0406 10008 20008 60072 77187 333 10027 20004 60025 88/03 90710 91110
AAXX 04181 02287 07477 /0910 10012 20000 39715 49724 58017 60032 72487 333 10014 20003 69905 88/10 90710 91115
AAXX 04181 02297 07477 /1014 10004 20004 39709 49754 58018 60012 72387 333 10013 20000 69905 81/10 87/13 90710 91118
AAXX 04181 02308 07212 /3102 11037 21041 38887 49729 52003 69992 77187 333 11034 21048 69905 89/06 90710 91104
AAXX 04181 02327 07/99 /2702 11047 21051 39302 49729 52005 60012 70071 333 11008 21071 60005 90710 91105
AAXX 04181 02355 07258 /3004 10006 20005 39686 49698 51003 60062 76776 333 10027 20003 69995 81/06 83/12 85/24 88/// 90710 91108
AAXX 04181 02366 47481 /3405 10007 20002 39696 49702 57005 751// 8//// 333 10018 20005 81/12 83/46
AAXX 04181 02407 07983 /2604 11007 21017 39391 49752 52005 69952 70087 333 10002 21007 60005 87/59 90710 91109
AAXX 04181 02418 45984 /2505 10021 21040 39665 49793 51009 8//// 333 10027 20007
AAXX 04181 02435 45784 /2504 10007 21020 39561 49745 53006 8//// 333 10011 20001 81/56
AAXX 04181 02440 07/99 /2603 11012 21022 60022 70087 333 10007 21013 60005 90710 91106
AAXX 04181 02452 07699 /2606 10017 21031 69972 70070 333 10019 20004 60005 88/44 90710 91114
AAXX 04181 02456 07499 /2504 10007 21003 39690 49731 51017 60062 70086 333 10028 20006 60005 84/11 90710 91108
AAXX 04181 02469 07/99 /2608 10024 21004 60022 70086 333 10042 20018 60005 90710 91112
AAXX 04181 02498 05599 /2515 10034 20008 39726 49743 51022 60042 333 10055 20028 60005 87/20 90710 91122
AAXX 04181 02518 464// /2514 10044 20025 333 10065 20042 90710 91120
AAXX 04181 02520 15980 02510 10040 21002 39763 49829 58002 69902 333 10059 20035 60005 91014 90710 91115 90710 91211
AAXX 04181 02550 47381 /2408 10024 21007 39579 49850 50001 781// 8//// 333 10045 20023 81/08
AAXX 04181 02562 15983 02609 10032 21010 39704 49817 51015 60022 333 10049 20028 60005 91014 90710 91115 90710 91210
AAXX 04181 02563 05/81 /2509 10041 21013 39787 49808 51021 69902 333 10060 20040 60005 90710 91116
AAXX 04181 02565 07/63 /2408 10038 21011 39736 49853 50010 69932 70086 333 10058 20037 60005 90710 91118
AAXX 04181 02589 07676 /2615 10048 21002 39768 49789 51018 69952 70086 333 10060 20040 60005 81/38 90710 91125
AAXX 04181 02590 45979 /2512 10046 21004 39773 49833 51022 8//// 333 10059 20045
AAXX 04181 02618 07/60 /2608 10038 20008 39730 49891 58005 69912 70010 333 10059 20037 60005 90710 91116
AAXX 04181 02664 07578 62407 10043 20006 39842 49913 50005 69922 72387 333 10066 20038 69905 81/22 85/46 91012 90710 91112 90710 91207
AAXX 04181 02679 25/81 /2616 10047 20001 39821 49865 53017 333 60005 90710 91121
AAXX 04181 10224 01380 72411 10061 20028 30061 40067 58020 60022 76081 875// 333 10071 20039 33003 55300 20000 30000 69997 81709 87623 91117 91212 96487
AAXX 04184 08001 NIL
AAXX 04184 08015 11/06 91103 10104 20099 39945 40356 54000 60012 74544 333 10152 89/26
AAXX 04184 08023 11456 82205 10110 20098 30285 40358 58001 69922 71052 887// 333 10130
AAXX 04184 08027 12370 32905 10090 20061 30039 40356 50000 60052 83800 333 10114
AAXX 04184 08045 01440 73202 10119 20111 30057 40371 58002 60072 74064 875// 333 10131 69907
AAXX 04184 08141 12960 02002 10066 20057 39482 40361 50004 60002 333 10080
AAXX 04184 08160 12680 12916 10118 20052 30026 40338 53015 60002 81501 333 10155
AAXX 04184 08181 02980 01204 10122 20062 30284 40290 53016 60002 333 10167 60007
AAXX 04184 08221 02980 01803 10076 20023 39651 40352 50013 60002 333 10133 60007
AAXX 04184 08231 12970 03304 10097 20034 39228 48623 50010 60002 333 10143
AAXX 04184 08261 12975 02302 10090 20046 39876 40368 53010 60002 333 10144
AAXX 04184 08284 02982 03212 10179 20031 30222 40297 51021 60002 333 10234 60007
AAXX 04184 08306 12970 01101 10111 20076 30288 40294 53023 60002 333 10176
AAXX 04184 08314 02570 33612 10115 20074 30182 40287 50013 60002 8313/ 333 10155 60007
AAXX 04184 08430 12970 02402 10182 20029 30227 40301 52006 60002 333 10220
AAXX 04184 08482 12970 09902 10138 20115 30300 40309 53002 60002 333 10174
AAXX 04184 65352 31940 70000 10315 20058 3//// 4//// 70522 80002 333 10350 5//// 87076
AAXX 04184 65361 32958 70000 10277 20058 3//// 4//// 80002 333 10345 5//// 87076
AAXX 04184 65376 31930 70000 10295 20102 39636 40094 70522 80002 333 10326 59010 87076
AAXX 04184 65387 32958 71804 10290 20245 30059 40077 80002 333 10345 59009 87073
AAXX 04184 08055 12970 12812 10080 20068 39280 48633 53004 60002 80002 333 10134 95090
AAXX 04184 08075 11115 80000 10046 20043 39309 48628 52005 60002 71022 886// 333 10052
AAXX 04184 08084 02672 72605 10109 20054 39915 40354 52010 60002 86571 333 10144 60007
AAXX 04184 08171 12986 02715 10128 20009 30044 40285 53006 60002 333 10174
AAXX 04184 08184 06/// /2102 10103 20063 30126 40284 5//// 60002 333 10164 60007
AAXX 04184 08202 02965 01902 10075 20056 39424 42948 51015 60002 333 10146 60007
AAXX 04184 08235 12470 2//// 10089 20037 39264 48609 51014 60002 82500 333 10128
AAXX 04184 08238 12880 10205 10164 20025 30205 40265 51014 60002 81130 333 10203
AAXX 04184 08280 12975 03010 10094 20032 39501 40336 53015 60002 333 10142
AAXX 04184 08330 12970 00603 10087 20037 30116 40353 52007 60002 333 10144
AAXX 04184 08348 12961 03502 10083 20051 39603 40357 53010 60002 333 10128
AAXX 04184 08360 02981 13404 10159 20069 30260 40297 53016 60002 80001 333 10215 60007
AAXX 04184 08373 06/// /0000 10127 20095 30275 40297 53019 60002 333 10181 60007
AAXX 04184 08410 02970 10602 10119 20048 30207 40320 53004 60002 80001 333 10176 60007
AAXX 04184 08419 02975 01703 10082 20009 39639 40323 53006 60002 333 10173 60007
AAXX 04184 08451 02975 00804 10143 20064 30273 40306 53004 60002 333 10202 60007
AAXX 04184 08487 02580 13401 10129 20110 30282 40308 53001 60002 81800 333 10163 60007
AAXX 04124 91636 11599 50715 10285 20250 40103 60001 70222 83230 333 10320 5629/
AAXX 04124 91648 11499 70314 10276 20248 40095 60031 70228 83278 333 10281 56199
AAXX 04184 91643 11498 40112 10276 20240 40095 55010 60001 71500 83206 333 568/9
AAXX 04184 91636 11499 50718 10274 20254 40093 60001 70222 83230 333 5629/
AAXX 04184 91648 11498 70413 10274 20246 40088 60031 71488 83370 333 5659/
AAXX 0418/ 89828 46/// ///// 11338 36475 4//// 5////
AAXX 0418/ 89108 46/// ///// 11223 36914 4//// 5////
AAXX 0418/ 89879 46/// ///// 10015 39748 4//// 5////
AAXX 0418/ 89872 46/// ///// 11034 39782 4//// 5////
AAXX 0418/ 89869 46/// ///// 11053 39778 4//// 5////
AAXX 0418/ 89329 46/// ///// 11096 38676 4//// 5////
AAXX 0418/ 89799 46/// ///// 11250 4//// 5////
AAXX 0418/ 89868 46/// ///// 11046 39776 4//// 5////
AAXX 0418/ 89332 46/// ///// 11049 39120 4//// 5////
AAXX 0418/ 89769 46/// ///// 11046 39804 4//// 5////
AAXX 0418/ 89314 46/// ///// 11130 38170 4//// 5////
AAXX 04184 89667 46/// /1410 11044 29084 39844 4//// 5////
AAXX 0418/ 89869 46/// ///// 11049 39777 4//// 5////
AAXX 0418/ 89866 46/// ///// 11029 39734 4//// 5////
AAXX 04084 85223 32580 41308 10249 20075 37515 47169 57025 83501 333 56000 58001 83827 58001
AAXX 04084 85283 32584 20512 10195 20094 37223 47162 57021 82100 333 56100 58018 82820
AAXX 04084 85293 32584 20912 10140 20058 36383 57011 82500 333 56600 58011 82620
AAXX 04084 85312 32684 21605 10295 20147 38790 57010 82100 333 56000 58012 82836
AAXX 04084 85345 32584 20000 10354 20208 39641 40093 57022 82100 333 56000 58007 82825
AAXX 04084 85364 32670 21508 10268 20143 38172 48194 57014 82100 333 56000 58009 82833
AAXX 04084 85365 32584 40000 10338 20194 39380 40116 57020 80001 333 56000 58004 84070
AAXX 04084 85394 32584 53606 10352 20223 39675 40094 57020 82201 333 56000 58004 82823 85070
AAXX 04181 33088 11597 82904 10050 20041 39891 40081 58001 60022 76162 8872/ 333 10072
AAXX 04181 33177 11597 81802 10047 20038 39861 40098 52002 60052 70282 83907 333 10076
AAXX 04181 33261 11396 82004 10031 20021 39925 40109 57011 69902 72582 889// 333 10032 87707
AAXX 04181 33275 31295 81906 10021 20013 39901 40127 57014 71022 886// 333 10021 88704
AAXX 04181 33301 11497 82606 10045 20038 39812 40093 52002 60022 78082 8735/ 333 10063 86913
AAXX 04181 33325 11596 82103 10037 20014 39829 40098 58010 69972 78082 883// 333 10051 86921
AAXX 04181 33377 11296 82002 10032 20022 39935 40130 57010 69912 71022 886// 333 10035 88705
AAXX 04181 33415 11697 82503 10040 20030 39711 40110 53002 69982 78082 8437/ 333 10040
AAXX 04181 33429 11697 82302 10038 20033 39683 40107 57007 69982 78082 883// 333 10041 86933
AAXX 04181 33466 11342 81905 10029 20021 39936 40125 57009 69902 71052 886// 333 10033 88708
AAXX 04181 33526 11560 73003 10073 20019 39770 40107 53002 69902 70262 85530 333 10095 85630
AAXX 04181 33562 11241 81804 10024 20019 39751 40115 58009 69932 72582 889// 333 10025 86705
AAXX 04181 33614 32361 81803 10032 20014 30046 40152 57011 886// 333 10050 88709
AAXX 04181 33761 31/92 91804 10036 20036 39917 40142 57007 74542 333 10040
AAXX 04181 33902 31596 81601 10063 20052 30089 40155 57011 71011 885// 333 10082
AAXX 04181 33983 32497 71706 10078 20046 30141 40202 58003 875// 333 10093 87615
AAXX 04181 34415 32497 82302 10011 20006 30087 40185 58005 886// 333 10033
AAXX 04181 34523 NIL
AAXX 04181 34712 32598 81801 10021 20018 30119 40206 58003 886// 333 10033 88720
AAXX 04184 60101 169// /1304 10139 20107 40307 52003 60002 333 10203
AAXX 04184 60115 12970 10000 10128 20083 40311 52006 60002 81001 333 10205 81073
AAXX 04184 60135 32950 20000 10109 20088 40303 53007 80002 333 10180 82070
AAXX 04184 60230 15957 42501 10174 20010 40287 51007 60002 80002 333 10248 84070
AAXX 04184 60252 15560 42105 10174 20040 40275 51009 60002 80002 333 10260 82620 83070
AAXX 04184 60127 32960 00904 10152 20044 39708 40306 53008 333 10201
AAXX 04181 40650 12960 03102 10076 20022 40217 50006 60002
AAXX 04181 40608 12960 03602 10065 20030 40184 58002 60002
AAXX 04181 40629 12960 00000 10050 20030 40231 54000 60002
AAXX 04181 40680 12960 02702 10104 20024 40192 53010 60002
AAXX 04181 4068912960030041013020053402095201260002
AAXX 04181 40691 12960 02102 10114 20033 40222 52016 60002
AAXX 04181 40643 12960 01802 10050 20002 40246 52006 60002
AAXX 04181 40666 12960 03105 10102 20041 40217 53004 60002
AAXX 04181 40634 12960 02803 10060 20011 40234 52008 60002
AAXX 04181 40642 12960 00000 10066 21009 40234 52007 60002
AAXX 04181 40656 12960 00000 10104 20058 40200 51004 60002
AAXX 04181 40665 12960 03303 10107 20071 40219 52009 60002
AAXX 04181 40670 12960 00000 10106 20035 40211 51004 60002
AAXX 04181 40674 12960 00000 10100 20031 40215 51007 60002
AAXX 04181 40676 12960 02703 10120 20028 40214 53010 60002
AAXX 04181 4067212960 00000 10109 20052 40229 51012 60002
AAXX 04184 64600 31956 00000 10241 20165 39447 40095 71000 333 10322 55058 59004
AAXX 04184 64601 31920 00610 10240 20037 38996 48507 70500 333 10305 58000
AAXX 04184 64605 32960 00000 10245 20105 39353 40093 333 10322 59002
AAXX 04184 64610 NIL
AAXX 04184 64650 31940 61203 10268 20201 39686 40095 70411 80002 333 10338 55077 59002 86080
AAXX 04184 64654 32960 80000 10242 20106 39536 40104 80002 333 10360 58016 88080
AAXX 04184 64655 32960 30000 10238 20143 39448 40096 80002 333 10330 58001 83080
AAXX 04184 64656 32960 60000 10252 20205 39540 40092 80002 333 10326 59002 86080
AAXX 04184 64659 NIL
AAXX 04184 64660 32960 00000 10272 20171 39548 40072 333 10326 59009
AAXX 04184 64662 32960 60000 10275 20217 39582 40079 80002 333 10326 59006 86080
AAXX 04184 64665 32960 00000 10256 20221 3//// 4//// 333 10320 5////
AAXX 04181 01300 41597 62805 10045 20003 49778 57039 78082 869// 22200 02057 10807 70033 333 91116
AAXX 04181 01400 41496 82416 10070 20050 49874 57070 76162 8772/ 22200 06076 333 91120
AAXX 04181 48919 32498 70512 10261 20229 30107 40129 58003 83908 22200 02262 333 59005 81894 83995 87499
AAXX 04181 48916 32998 60902 10256 20222 30080 40127 58003 80008 333 58004 87299
AAXX 04181 48820 11497 80502 10090 20067 30240 40248 58008 69931 76066 888// 333 58033 85894 88697 96160
AAXX 04181 48823 11497 83603 10092 20071 30242 40245 58003 69901 70252 888// 333 58038 83894 88696
AAXX 04181 48900 32497 30502 10232 20220 30118 40128 54000 83800 333 59004 81894 83696
AAXX 04181 48918 32498 70703 10244 20211 30127 40138 57004 82208 222// 00254 2//// 333 58000 81894 87299
AAXX 04181 48917 32598 60000 10241 20228 30106 40112 57008 82208 222// 00281 333 59012 82895 86299
AAXX 04181 48914 32998 71101 10241 20225 30131 40133 58004 80008 333 58005 87299
AAXX 04181 48845 11497 83202 10117 20110 30227 40234 58002 60021 70262 888// 333 58054 85894 88696
AAXX 04181 02464 45584 /2507 10032 21001 39745 49762 51019 8//// 333 10044 20023 81/24 88/29
AAXX 04181 02500 05/69 /2610 10042 21002 39780 49822 58008 69902 333 10061 20042 60005 90710 91115
AAXX 04181 02513 05/63 /2408 10054 20024 39855 49860 58010 60002 333 10072 20053 60005 90710 91115
AAXX 04181 02615 05469 /2513 10045 20020 39959 49964 58002 69962 333 10064 20045 60005 81/16 82/20 90710 91119
AAXX 04181 02635 07/77 /2609 10043 20015 69932 70086 333 10065 20043 60005 90710 91115
AAXX 04184 61401 NIL
AAXX 04184 61404 31950 61021 10240 21039 39799 40196 70711 86080 333 10246 58002 86363
AAXX 04184 61415 32958 42808 10241 20085 30174 40179 84030 333 10277 58000 84363
AAXX 04184 61421 32960 50416 10275 21040 39915 40170 85080 333 10290 59035 85363
AAXX 04184 61437 32960 60806 10286 20138 30065 40200 86052 333 10300 58018 86363
AAXX 04184 61442 32958 50911 10304 21134 30145 40148 85080 333 10315 59007 85363
AAXX 04184 61450 31950 00810 10260 20000 39702 40161 70600 333 10295 58000
AAXX 04184 61461 NIL
AAXX 04184 61489 31950 60000 10308 21038 30136 40143 70522 86070 333 10324 58008 86363
AAXX 04184 61492 31950 60808 10300 21075 30170 40190 70622 80002 333 10315 59004 86073
AAXX 04184 61497 34920 60814 10267 21043 39900 4//// 707// 80002 333 10294 59001 86073
AAXX 04184 61498 31940 50405 10280 20134 30010 40143 705// 80002 333 10310 58011 85073
AAXX 04184 61499 31940 50808 10270 21050 39890 40147 70611 80002 333 10290 58006 85073
AAXX 04181 34523 11597 82102 10019 21009 30123 40200 52004 69902 70352 885// 333 10023 88630
AAXX 04181 06447 36/// /2406 10073 20033 30033 40159 56027 60002 333 10079 91114 91207
AAXX 04184 40643 12960 01802 10050 20002 40246 52006 60002
AAXX 04184 40608 12960 03602 10065 20030 40184 58002 60002
AAXX 04184 40629 12960 00000 10050 20030 40231 54000 60002
AAXX 04184 40634 12960 02803 10060 20011 40234 52008 60002
AAXX 04184 40642 12960 00000 10066 21009 40234 52007 60002
AAXX 04184 40650 12960 03102 10076 20022 40217 50006 60002
AAXX 04184 91925 02582 10508 10289 20206 30099 40159 51013 60001 81200 333 56100 60007 81830 90710 91116 555 60005 10216 58004
AAXX 04184 91929 04585 /0105 10284 20224 30139 40142 51009 69922 700// 333 10284 20238 69927 90710 91108 555 60005
AAXX 04184 91938 01570 10608 10287 20212 30142 40144 51008 60012 701// 81200 333 10287 20243 60007 81820 90710 91112 555 60005 10712 59014
AAXX 04184 91943 36/// /0305 10279 20217 30154 40156 51012 333 10279 59002= 91944 06/// /0110 10280 20208 30146 40149 50004 60002 333 10280 20257 60007 90710 91112 555 60005
AAXX 04184 91948 02582 23605 10272 20195 30057 40158 50002 60001 82100 333 56200 60007 82820 90710 91114 555 60005 13414 59013
AAXX 04184 91954 06/// /2917 10259 20239 30109 40112 51012 60061 333 60067 555 59036
AAXX 04184 91958 01450 83117 10236 20219 30088 40090 51006 60061 76186 888// 333 56799 60067 86813 88640 90710 91142 555 60065 13145 59061
AAXX 04184 91945 36/// /3412 10283 20228 30144 40149 51010
AAXX 04184 40672 12960 00000 10109 20052 40229 51012 60002
AAXX 04184 40656 12960 00000 10104 20058 40200 51004 60002
AAXX 04184 40665 12960 03303 10107 20071 40219 52009 60002
AAXX 04184 40666 12960 03105 10102 20041 40217 53004 60002
AAXX 04184 40670 12960 00000 10106 20035 40211 51004 60002
AAXX 04184 40674 12960 00000 10100 20031 40215 51007 60002
AAXX 04184 40676 12960 02703 10120 20028 40214 53010 60002
AAXX 04184 40680 12960 02702 10104 20024 40192 53010 60002
AAXX 04184 40691 12960 02102 10114 20033 40222 52016 60002
AAXX 04184 89564 45/// /0927 10007 21015 39687 49706 53009
AAXX 04184 89570 46/// /0742 11037 21042 39159 53003
AAXX 04184 89571 45/// /0335 10002 21020 39785 49813 56004
AAXX 04184 89573 NIL
AAXX 04184 89610 NIL
AAXX 04184 89611 45/// /0509 11038 21098 39776 49828 52002
AAXX 04184 89614 NIL
AAXX 04184 89615 46/// /1218 11081 21151 38933 54000
AAXX 04184 89807 NIL
AAXX 04184 89809 46/// /0916 11079 21092 39374 55000
AAXX 04184 94893 NIL
AAXX 04184 94907 46/// /2507 10099 20087 30172 40182
AAXX 04184 94910 46/// /0904 10142 20085 39888 40131
AAXX 04184 94926 46/// /0609 10145 20109 39503 40158
AAXX 04184 94935 46/// /2904 10143 20107 30156 40183
AAXX 04184 94954 46/// /2423 10133 20046 30062 40172
AAXX 04184 94956 46/// /2710 10130 20072 30142 40168
AAXX 04184 94975 46/// /3209 10115 20025 30127 40159
AAXX 04184 94983 NIL
AAXX 04184 94995 46/// /1304 10191 20119 30144 40152
AAXX 04184 94996 46/// /1013 10208 20184 39993 40121
AAXX 04184 94997 NIL
AAXX 04184 94998 46/// /2422 10039 20016 39864 49874
AAXX 04184 95111 NIL
AAXX 04184 95205 46/// /1405 10241 20229 30083 40090
AAXX 04184 95322 NIL
AAXX 04184 95448 46/// /1108 10227 20169 39565 40112
AAXX 04184 95458 46/// /1809 10256 20081 39867 40122
AAXX 04184 95480 46/// /1509 10272 20117 30058 40115
AAXX 04184 95481 46/// /1409 10314 20136 30048 40091
AAXX 04184 95482 46/// /3306 10319 20062 30020 40074
AAXX 04184 95485 46/// /1911 10274 2//// 39900 40097
AAXX 04184 95492 46/// /1406 10290 20116 39932 40081
AAXX 04184 95527 46/// /0709 10216 20181 39856 40103
AAXX 04184 95634 46/// /0510 10207 20146 39710 40100
AAXX 04184 95637 46/// /1205 10175 20153 39784 40109
AAXX 04184 95646 46/// /1010 10164 20118 39983 40167
AAXX 04184 95666 NIL
AAXX 04184 95719 46/// /1113 10220 20169 39800 40122
AAXX 04184 95762 46/// /1509 10213 20154 39674 40119
AAXX 04184 95826 NIL
AAXX 04184 95839 46/// /1805 10092 20052 30020 40176
AAXX 04184 95864 NIL
AAXX 04184 95909 NIL
AAXX 04184 95954 NIL
AAXX 04184 95966 46/// /0000 10102 20060 39961 40159
AAXX 04184 96995 46/// /2001 10236 20232 39813 40108
AAXX 04184 96996 45/// /1801 10260 20241 30107 40111 58010
AAXX 04184 94102 46/// /1803 10273 20264 30076 40085
AAXX 04184 94103 NIL
AAXX 04184 94120 46/// /0704 10264 20248 30043 40083
AAXX 04184 94122 46/// /1004 10237 20220 30069 40077
AAXX 04184 94131 46/// /0000 10261 20230 39933 40084
AAXX 04184 94132 NIL
AAXX 04184 94147 NIL
AAXX 04184 94150 46/// /0000 10237 20230 30024 40083
AAXX 04184 94151 46/// /0504 10258 20221 30066 4////
AAXX 04184 94170 46/// /1005 10249 20211 30068 40090
AAXX 04184 94200 NIL
AAXX 04184 94203 46/// /1006 10261 20238 30079 40089
AAXX 04184 94206 NIL
AAXX 04184 94207 46/// /3507 10291 30065 40073 58034
AAXX 04184 94211 NIL
AAXX 04184 94212 46/// /2803 10243 20230 39613 40076
AAXX 04184 94216 46/// /3403 10248 20239 30033 40083
AAXX 04184 94236 NIL
AAXX 04184 94238 46/// /1806 10253 20203 39661 40075
AAXX 04184 94248 NIL
AAXX 04184 94255 46/// /3505 10255 20199 39821 40077
AAXX 04184 94268 46/// /0205 10252 20219 30081 40093
AAXX 04184 94287 46/// /1408 10224 20209 30100 40109
AAXX 04184 94290 NIL
AAXX 04184 94294 46/// /1503 10231 20200 30108 40118
AAXX 04184 94296 NIL
AAXX 04184 94298 46/// /1415 10253 30091 40097 56007
AAXX 04184 95641 NIL
BBXX UCKZ 04181 99635 30786 41296 83513 10003 21004 49802 53006 76064 886// 22223 00007 2//// ICE 2/3/0
AAXX 04184 94500 NIL
AAXX 04184 94510 46/// /0504 10206 20133 39755 40093
AAXX 04184 94515 46/// /0000 10160 20137 39754 40093
AAXX 04184 94552 46/// /0905 10184 20143 39653 40109
AAXX 04184 94578 46/// /2403 10198 20172 30116 40127
AAXX 04184 94584 46/// /0507 10226 20164 30008 40117
AAXX 04184 94601 46/// /1024 10196 20161 30078 40095
AAXX 04184 94610 46/// /0106 10216 20150 30060 40083
AAXX 04184 94637 46/// /0910 10207 20118 39704 40119
AAXX 04184 94638 46/// /1009 10159 20132 30124 40155
AAXX 04184 94642 NIL
AAXX 04184 94643 NIL
AAXX 04184 94647 46/// /1108 10176 20120 30055 40174
AAXX 04184 94651 46/// /1408 10168 20131 30106 40182
AAXX 04184 94653 46/// /1508 10146 20104 30155 40173
AAXX 04184 94659 46/// /1713 10190 20096 39946 40136
AAXX 04184 94672 46/// /1109 10161 20093 30171 40181
AAXX 04184 94691 46/// /1910 10196 20037 39815 40134
AAXX 04184 94693 46/// /1410 10164 20071 30095 40156
AAXX 04184 94700 NIL
AAXX 04184 94703 46/// /0906 10261 20149 39967 40088
AAXX 04184 94710 46/// /1506 10246 20132 39857 40103
AAXX 04184 94729 46/// /0607 10160 20137 39306 40136
AAXX 04184 94750 46/// /2206 10167 20147 30053 40175
AAXX 04184 94767 46/// /1712 10208 20154 30167 40173
AAXX 04184 94776 46/// /1910 10210 20172 30151 40161
AAXX 04184 94791 NIL
AAXX 04184 94802 46/// /0813 10177 20153 30054 40135
AAXX 04184 94804 46/// /1315 10160 20090 30151 40189
AAXX 04184 94807 NIL
AAXX 04184 94821 46/// /0000 10079 20064 30114 40196
AAXX 04184 94842 46/// /2108 10138 20058 30091 40190
AAXX 04184 94847 NIL
AAXX 04184 94850 46/// /2309 10127 20038 30131 40176
AAXX 04184 94865 46/// /1507 10150 20075 30156 40180
AAXX 04184 94866 46/// /2405 10127 20081 30040 40178
AAXX 04184 94875 46/// /2009 10117 20066 30018 40149
AAXX 04184 94299 46/// /1417 10260 20208 30090 40100
AAXX 04184 94300 46/// /2310 10230 20173 30096 40106
AAXX 04184 94302 46/// /2011 10234 20191 30093 40099
AAXX 04184 94312 46/// /3508 10288 20248 30082 40091
AAXX 04184 94313 NIL
AAXX 04184 94317 46/// /3208 10275 20168 39515 40084
AAXX 04184 94319 46/// /2510 10279 20180 39746 40068
AAXX 04184 94324 NIL
AAXX 04184 94326 46/// /2605 10252 20193 39483 40082
AAXX 04184 94327 46/// /2204 10276 20194 39720 40083
AAXX 04184 94332 46/// /0000 10196 20133 39701 40077
AAXX 04184 94333 NIL
AAXX 04184 94341 46/// /0000 10201 20091 39862 40093
AAXX 04184 94346 46/// /0206 10198 20086 39874 40089
AAXX 04184 94363 46/// /0505 10199 20182 39896 40109
AAXX 04184 94366 NIL
AAXX 04184 94367 46/// /2307 10201 20187 30070 40111
AAXX 04184 94374 46/// /0000 10195 20187 30100 40116
AAXX 04184 94388 46/// /0805 10235 20177 30112 40117
AAXX 04184 94393 46/// /1517 10248 30084 40096 56008
AAXX 04184 94394 46/// /1211 10228 30102 40110 56008
AAXX 04184 94403 46/// /0208 10205 20178 30049 40089
AAXX 04184 94429 46/// /0714 10240 20184 39629 40077
AAXX 04184 94430 46/// /0810 10265 20162 39512 40077
AAXX 04184 94449 46/// /1514 10200 20197 39627 40143
AAXX 04184 94451 NIL
AAXX 04184 94461 46/// /1207 10234 20135 39438 40088
AAXX 04184 94462 46/// /2002 10232 20142 39562 40101
AAXX 04184 94477 NIL
AAXX 04184 94488 NIL
AAXX 04184 88963 32960 31609 10033 21014 39838 49868 57008 83070 333 56050 83360 92407 94032 95000
AAXX 04184 88968 11320 83218 10002 21001 39860 49875 57023 69951 77172 8572/ 333 56009 85708 88525 90010 90095 90212 90291 90910 92424 92731 92801 93001 93100 94075 95065 96010
AAXX 04184 89034 11215 80000 11028 21038 39553 49867 57008 69941 77174 886// 333 56099 88704 90014 90093 90114 90323 90962 92404 92800 93101 96028 96110 97500
AAXX 04184 89053 32462 62706 10046 20026 39865 49878 57011 86700 333 56700 86712 92417 94073 95093
AAXX 04184 89055 32462 60705 10000 21023 39632 49875 57008 84630 333 56160 84712 83360 92730 92840 95177
AAXX 04184 89066 32570 41808 10010 21022 39902 49911 56001 82670 333 56110 82730 83360 92407 94070
AAXX 04183 NIL
AAXX 04181 06431 36/// /2306 10078 20045 30132 40144 56031 60002 333 10079 91112 91207
AAXX 04181 06432 35/63 /2208 10072 20041 30092 40169 56029 333 10084 81/35 85/50 91112 91208
AAXX 04181 06458 37767 /2308 10071 20038 30010 40165 56024 70085 333 10075 83/50 87/63 91112 91209
AAXX 04181 06465 35565 /2206 10077 20031 30088 40154 56026 333 10077 81/34 87/50 91113 91209
AAXX 04181 06496 37470 /2308 10027 20011 39487 40171 58019 78186 333 10032 83/10 85/15 87/19 91112 91208
AAXX 04181 06428 35661 /2306 10081 20036 30105 40154 58030 333 10083 83/41 88/49 91112 91208
AAXX 04183 91502 01460 80000 10255 20249 40068 53003 60141 78098 889// 333 56199 60137 83814 81915 87628
AAXX 04183 91507 NIL
AAXX 04183 91520 NIL
AAXX 04183 91541 NIL
AAXX 04184 94893 NIL
AAXX 04184 94907 46/// /2507 10099 20087 30172 40182
AAXX 04184 94910 46/// /0904 10142 20085 39888 40131
AAXX 04184 94926 46/// /0609 10145 20109 39503 40158
AAXX 04184 94935 46/// /2904 10143 20107 30156 40183
AAXX 04184 94954 46/// /2423 10133 20046 30062 40172
AAXX 04184 94956 46/// /2710 10130 20072 30142 40168
AAXX 04184 94975 46/// /3209 10115 20025 30127 40159
AAXX 04184 94983 NIL
AAXX 04184 94995 46/// /1304 10191 20119 30144 40152
AAXX 04184 94996 46/// /1013 10208 20184 39993 40121
AAXX 04184 94997 NIL
AAXX 04184 94998 46/// /2422 10039 20016 39864 49874
AAXX 04184 95111 NIL
AAXX 04184 95205 46/// /1405 10241 20229 30083 40090
AAXX 04184 95322 NIL
AAXX 04184 95448 46/// /1108 10227 20169 39565 40112
AAXX 04184 95458 46/// /1809 10256 20081 39867 40122
AAXX 04184 95480 46/// /1509 10272 20117 30058 40115
AAXX 04184 95481 46/// /1409 10314 20136 30048 40091
AAXX 04184 95482 46/// /3306 10319 20062 30020 40074
AAXX 04184 95485 46/// /1911 10274 2//// 39900 40097
AAXX 04184 95492 46/// /1406 10290 20116 39932 40081
AAXX 04184 95527 46/// /0709 10216 20181 39856 40103
AAXX 04184 95634 46/// /0510 10207 20146 39710 40100
AAXX 04184 95637 46/// /1205 10175 20153 39784 40109
AAXX 04184 95646 46/// /1010 10164 20118 39983 40167
AAXX 04184 95666 NIL
AAXX 04184 95719 46/// /1113 10220 20169 39800 40122
AAXX 04184 95762 46/// /1509 10213 20154 39674 40119
AAXX 04184 95826 NIL
AAXX 04184 95839 46/// /1805 10092 20052 30020 40176
AAXX 04184 95864 NIL
AAXX 04184 95909 NIL
AAXX 04184 95954 NIL
AAXX 04184 95966 46/// /0000 10102 20060 39961 40159
AAXX 04184 96995 46/// /2001 10236 20232 39813 40108
AAXX 04184 96996 45/// /1801 10260 20241 30107 40111 58010
AAXX 04184 41241 NIL
AAXX 04184 41242 36/// /1910 10209 20099 30143 40167 333 0E022 10260 58019
AAXX 04184 41244 NIL
AAXX 04184 41246 32660 23411 10216 20140 30150 40155 81530 333 10294 58015 81630
AAXX 04184 41251 36/// /2708 10162 21087 3//// 49922 333 0E015 10198 58011
AAXX 04184 41252 NIL
AAXX 04184 41253 36/// /2802 10192 20153 39784 40167 333 0E021 10279 58011
AAXX 04184 41254 NIL
AAXX 04184 41255 NIL
AAXX 04184 41256 31959 32104 10225 20163 30144 40154 70500 80001 333 10258 58011 83075
AAXX 04184 41257 36/// /0502 10199 20162 39678 40167 333 0E020 10283 58004
AAXX 04184 41258 36/// /2604 10240 20148 30140 40145 333 0E/// 10255 58009
AAXX 04184 41259 36/// /2816 10071 21229 37129 40302 333 0E/// 10099 59001
AAXX 04184 41262 NIL
AAXX 04184 41263 36/// /2302 10209 20028 39470 40161 333 0E020 10299 59006
AAXX 04184 41264 NIL
AAXX 04184 41265 36/// /0904 10226 20073 39604 40156 333 0E022 10298 59015
AAXX 04184 41267 35/64 /3208 10235 20183 30135 40151 333 0E023 10266 59001
AAXX 04184 41268 36/// /0402 10225 20192 30133 48013 333 0E024 10296 59003
AAXX 04184 41270 36/69 /3403 10218 20185 30096 40108 333 0E022 10296 59005
AAXX 04184 41275 NIL
AAXX 04184 41287 36/// /2809 10218 20104 30109 40161 333 0E022 10308 59001
AAXX 04184 41288 NIL
AAXX 04184 41290 NIL
AAXX 04184 41295 NIL
AAXX 04184 41304 NIL
AAXX 04184 41312 36/// /2705 10215 20170 30115 40154 333 0E/// 10254 58003
AAXX 04184 41314 32960 00307 10198 20076 39673 40180 333 10278 58018
AAXX 04184 41315 NIL
AAXX 04184 41316 32960 03104 10212 20146 30130 40156 333 10255 58003
AAXX 04184 89564 45/// /0927 10007 21015 39687 49706 53009
AAXX 04184 89570 46/// /0742 11037 21042 39159 53003
AAXX 04184 89571 45/// /0335 10002 21020 39785 49813 56004
AAXX 04184 89573 NIL
AAXX 04184 89610 NIL
AAXX 04184 89611 45/// /0509 11038 21098 39776 49828 52002
AAXX 04184 89614 NIL
AAXX 04184 89615 46/// /1218 11081 21151 38933 54000
AAXX 04184 89807 NIL
AAXX 04184 89809 46/// /0916 11079 21092 39374 55000
AAXX 04184 94102 46/// /1803 10273 20264 30076 40085
AAXX 04184 94103 NIL
AAXX 04184 94120 46/// /0704 10264 20248 30043 40083
AAXX 04184 94122 46/// /1004 10237 20220 30069 40077
AAXX 04184 94131 46/// /0000 10261 20230 39933 40084
AAXX 04184 94132 NIL
AAXX 04184 94147 NIL
AAXX 04184 94150 46/// /0000 10237 20230 30024 40083
AAXX 04184 94151 46/// /0504 10258 20221 30066 4////
AAXX 04184 94170 46/// /1005 10249 20211 30068 40090
AAXX 04184 94200 NIL
AAXX 04184 94203 46/// /1006 10261 20238 30079 40089
AAXX 04184 94206 NIL
AAXX 04184 94207 46/// /3507 10291 30065 40073 58034
AAXX 04184 94211 NIL
AAXX 04184 94212 46/// /2803 10243 20230 39613 40076
AAXX 04184 94216 46/// /3403 10248 20239 30033 40083
AAXX 04184 94236 NIL
AAXX 04184 94238 46/// /1806 10253 20203 39661 40075
AAXX 04184 94248 NIL
AAXX 04184 94255 46/// /3505 10255 20199 39821 40077
AAXX 04184 94268 46/// /0205 10252 20219 30081 40093
AAXX 04184 94287 46/// /1408 10224 20209 30100 40109
AAXX 04184 94290 NIL
AAXX 04184 94294 46/// /1503 10231 20200 30108 40118
AAXX 04184 94296 NIL
AAXX 04184 94298 46/// /1415 10253 30091 40097 56007
AAXX 04184 95641 NIL
AAXX 04181 48840 32498 80503 10108 20074 30230 40236 58002 888// 333 58041 83894 88696
AAXX 04184 40356 42960 00706 10060 20010 39217 48503 333 10130 59027 55102 555 04410 50217
AAXX 04184 40357 42960 01405 10081 20020 39567 40222 333 10157 59026 55///
AAXX 04184 40360 42960 00304 10074 20030 39602 40213 333 10162 59038 55094
AAXX 04184 40361 42960 00603 10102 20000 39425 40207 333 10172 59029 55///
AAXX 04184 40362 42960 00000 10080 21030 39687 40218 333 10151 59016 55///
AAXX 04184 40373 42960 00000 10104 21020 39785 40216 333 10168 58001 55///
AAXX 04184 40375 42960 00000 10116 20000 39283 40178 333 10190 59037 55090
AAXX 04184 40377 42960 00000 10102 20030 39730 40224 333 10162 59004 55///
AAXX 04184 40394 42960 21406 10112 20000 39053 48521 80002 333 10174 59029 55085 82070 555 04410 50197
AAXX 04184 40400 42960 00204 10196 20100 30129 40157 333 10260 59025 55088
AAXX 04184 40401 41958 50000 10160 21020 39453 40155 70600 80001 333 10210 59034 85070
AAXX 04184 40405 42960 00607 10140 20060 39452 40205 333 10200 59019 55///
AAXX 04184 40416 42960 43006 10130 20070 30163 40183 84010 333 10200 58006 55/// 84460
AAXX 04184 40417 42960 02907 10117 20040 30183 40198 333 10104 58003 55///
AAXX 04184 40420 42960 03105 10122 20020 39991 40202 333 10204 58004 55///
AAXX 04184 40430 42960 20000 10186 20030 39427 40149 80001 333 10252 59016 55077 82070
AAXX 04184 40435 NIL
AAXX 04184 40437 42960 00503 10126 20010 39499 40214 333 10185 59006 55090
AAXX 04184 40439 42960 32708 10216 20080 30124 40134 81031 333 10274 59017 55093 81360
AAXX 04184 68014 36/// ///// 1//// 2//// 3//// 4//// 5//// 333 1//// 2//// 555
AAXX 04184 68110 36/// /2509 10298 20047 38283 48495 53007 333 10379 20298 91015 555 91020
AAXX 04184 68300 36/// /1819 10168 20122 39974 40124 52013 333 10250 20168 91025 555 91012
AAXX 04184 94299 46/// /1417 10260 20208 30090 40100
AAXX 04184 94300 46/// /2310 10230 20173 30096 40106
AAXX 04184 94302 46/// /2011 10234 20191 30093 40099
AAXX 04184 94312 46/// /3508 10288 20248 30082 40091
AAXX 04184 94313 NIL
AAXX 04184 94317 46/// /3208 10275 20168 39515 40084
AAXX 04184 94319 46/// /2510 10279 20180 39746 40068
AAXX 04184 94324 NIL
AAXX 04184 94326 46/// /2605 10252 20193 39483 40082
AAXX 04184 94327 46/// /2204 10276 20194 39720 40083
AAXX 04184 94332 46/// /0000 10196 20133 39701 40077
AAXX 04184 94333 NIL
AAXX 04184 94341 46/// /0000 10201 20091 39862 40093
AAXX 04184 94346 46/// /0206 10198 20086 39874 40089
AAXX 04184 94363 46/// /0505 10199 20182 39896 40109
AAXX 04184 94366 NIL
AAXX 04184 94367 46/// /2307 10201 20187 30070 40111
AAXX 04184 94374 46/// /0000 10195 20187 30100 40116
AAXX 04184 94388 46/// /0805 10235 20177 30112 40117
AAXX 04184 94393 46/// /1517 10248 30084 40096 56008
AAXX 04184 94394 46/// /1211 10228 30102 40110 56008
AAXX 04184 94403 46/// /0208 10205 20178 30049 40089
AAXX 04184 94429 46/// /0714 10240 20184 39629 40077
AAXX 04184 94430 46/// /0810 10265 20162 39512 40077
AAXX 04184 94449 46/// /1514 10200 20197 39627 40143
AAXX 04184 94451 NIL
AAXX 04184 94461 46/// /1207 10234 20135 39438 40088
AAXX 04184 94462 46/// /2002 10232 20142 39562 40101
AAXX 04184 94477 NIL
AAXX 04184 94488 NIL
AAXX 04184 94500 NIL
AAXX 04184 94510 46/// /0504 10206 20133 39755 40093
AAXX 04184 94515 46/// /0000 10160 20137 39754 40093
AAXX 04184 94552 46/// /0905 10184 20143 39653 40109
AAXX 04184 94578 46/// /2403 10198 20172 30116 40127
AAXX 04184 94584 46/// /0507 10226 20164 30008 40117
AAXX 04184 94601 46/// /1024 10196 20161 30078 40095
AAXX 04184 94610 46/// /0106 10216 20150 30060 40083
AAXX 04184 94637 46/// /0910 10207 20118 39704 40119
AAXX 04184 94638 46/// /1009 10159 20132 30124 40155
AAXX 04184 94642 NIL
AAXX 04184 94643 NIL
AAXX 04184 94647 46/// /1108 10176 20120 30055 40174
AAXX 04184 94651 46/// /1408 10168 20131 30106 40182
AAXX 04184 94653 46/// /1508 10146 20104 30155 40173
AAXX 04184 94659 46/// /1713 10190 20096 39946 40136
AAXX 04184 94672 46/// /1109 10161 20093 30171 40181
AAXX 04184 94691 46/// /1910 10196 20037 39815 40134
AAXX 04184 94693 46/// /1410 10164 20071 30095 40156
AAXX 04184 94700 NIL
AAXX 04184 94703 46/// /0906 10261 20149 39967 40088
AAXX 04184 94710 46/// /1506 10246 20132 39857 40103
AAXX 04184 94729 46/// /0607 10160 20137 39306 40136
AAXX 04184 94750 46/// /2206 10167 20147 30053 40175
AAXX 04184 94767 46/// /1712 10208 20154 30167 40173
AAXX 04184 94776 46/// /1910 10210 20172 30151 40161
AAXX 04184 94791 NIL
AAXX 04184 94802 46/// /0813 10177 20153 30054 40135
AAXX 04184 94804 46/// /1315 10160 20090 30151 40189
AAXX 04184 94807 NIL
AAXX 04184 94821 46/// /0000 10079 20064 30114 40196
AAXX 04184 94842 46/// /2108 10138 20058 30091 40190
AAXX 04184 94847 NIL
AAXX 04184 94850 46/// /2309 10127 20038 30131 40176
AAXX 04184 94865 46/// /1507 10150 20075 30156 40180
AAXX 04184 94866 46/// /2405 10127 20081 30040 40178
AAXX 04184 94875 46/// /2009 10117 20066 30018 40149
BBXX PCDE 04183 99358 31297 41298 62202 10160 20132 40220 58020 7//11 8/700 22263 20402 322// 40404 80143
BBXX 9KWP 04183 99064 30899 41498 12909 10280 20252 40121 54000 70000 81142 22234 06290 2//// 80260
BBXX VMAL 04184 99359 31247 41/98 80814 10175 20111 40237 56022 70222 8//// 22263 20202 80140
BBXX VNSZ 04164 99384 31447 46/// /2110 10147 20060 30169 40196 57013 22275 04188 85102
BBXX VNSZ 04174 99383 31448 46/// /1610 10145 20072 30164 40191 57016 22224 04208 85106
BBXX C6FS9 04174 99274 31531 46/// /0504 10226 20184 30095 40131 57016 22200 85198
BBXX 9HA2479 04174 99155 31674 46/// /3106 10277 20239 30028 40056 57005 22273 04290 85249
BBXX A8KO3 04180 99018 31087 41798 73106 10280 20253 40100 54000 70311 964// 22274 00290 20000 80260
BBXX C6FS9 04164 99274 31531 46/// /3103 10223 20178 30096 40132 57021 22200 04257 85193
BBXX 9HA2479 04164 99156 31675 46/// /3108 10274 20249 30029 40057 57008 22273 04290 85255
BBXX VNAH 04164 99383 31416 46/// /1707 10150 20047 30178 40202 57019 22200 04196 85098
BBXX FHZI 04164 99429 31473 46/// /3413 10128 20036 30150 40161 57014 22200 04179 85083
BBXX VNSZ 04184 99380 31449 46/// /1410 10148 20063 30167 40194 57003 22285 04211 85103
BBXX VNAH 04174 99383 31416 46/// /1805 10147 20040 30175 40199 57020 22200 85093
BBXX VROB 04174 99068 31470 46/// /3006 10248 20226 30051 40076 57027 22200 04307 85232
BBXX FHZI 04174 99429 31473 46/// /3409 10122 20037 30149 40160 57012 22200 04179 85080
BBXX VRDB3 04184 99164 31530 41/98 21711 10270 20243 40091 52010 70200 82/// 22235 00230 2//// 3//// 4//// 80250
BBXX VRAE3 04184 99195 31626 41697 51307 10260 20255 40052 56010 70202 83561 22234 00270 2//// 315// 40402 5//// 80265
BBXX VRRC 04184 99169 31546 41298 11421 10250 20199 40089 56/// 70200 81145 22243 20102 312// 40102 80215
BBXX VRWS3 04183 99388 31455 41698 32210 10150 20092 40183 51/// 70211 82960 22274 04200 299// 80120
AAXX 04184 68004 36/// /0502 10310 20078 38535 48491 52012 333 10369 20310 91004 555 91017
AAXX 04184 68006 36/// /0000 10318 20108 38896 48489 52008 333 10380 20318 91002 555 91012
AAXX 04184 68018 36/// /2705 10269 20186 38893 48505 52012 333 10361 20269 91007 555 91015
AAXX 04184 68102 36/// /2109 10306 20039 38730 48488 52020 333 10381 20306 91014 555 91014
AAXX 04184 68116 36/// /0604 10304 20090 38566 48516 52003 333 10381 20297 91006 555 91019
AAXX 04184 68212 36/// /2405 10362 20015 38880 48515 52013 333 10416 20362 91007 555 91015
AAXX 04184 68312 36/// /2215 10314 20020 38939 48518 53007 333 10383 20314 91021 555 91015
AAXX 04184 06610 02968 62305 10026 21013 39700 40302 52010 69912 82032 333 10074 32/// 55300 20000 60005 82364 85073 90766 93100 91117 91210
AAXX 04184 08001 11365 82403 10128 20112 30279 40362 56001 69992 70252 887// 333 10144 924/7
AAXX 04184 06670 02675 42407 10039 21019 39752 40276 52005 60012 83531 333 10066 31/// 55300 20000 60005 83646 90766 93100 91127 91212
AAXX 04184 06700 01684 22406 10033 21014 39803 40311 52013 60032 70281 81801 333 10084 31/// 55300 20000 60005 81635 90766 93100 91115 91209
AAXX 04184 06680 01/01 92628 11106 21114 37496 47018 58002 60312 74543 333 11042 43365 55300 20000 60015 90766 93102 91150 91231
AAXX 04184 06990 01450 81904 10035 21013 39714 40275 52005 60042 76162 887// 333 10073 31/// 55300 20000 60005 88715 91123 91212
AAXX 04184 06760 32984 00004 10083 21112 39764 40214 52023 333 10119 30/// 55300 20000 90766 93100 91120 91205
AAXX 04184 06720 02775 11001 10023 21023 39715 40309 51028 60042 81500 333 10073 43007 55300 20000 60005 81656 90766 93100 91117 91211
AAXX 04184 41024 42960 03406 10236 20180 30123 40143 333 10270 59013 55085
AAXX 04184 41030 42960 03402 10236 20170 39864 40137 333 10320 59008 55///
AAXX 04184 41036 42960 00000 10164 20120 38572 48522 333 10242 59013 55098 555 04410 50124
AAXX 04184 41055 42960 01203 10165 20110 38375 48522 333 10256 59010 55097 555 04410 50151
AAXX 04184 41061 42960 01008 10151 20080 39471 40184 333 10220 58016 55088
AAXX 04184 41084 41958 00000 10180 20090 38871 48524 70600 333 10278 59003 55095 555 04410 50141
AAXX 04184 41112 41958 00000 10133 20120 37965 48529 71000 333 10214 59005 55/// 555 04410 50159
AAXX 04184 41114 42960 02703 10135 20110 38000 48540 333 10240 59002 55097 555 04410 50201
AAXX 04184 41128 42960 00904 10162 20070 38844 48547 333 10250 58016 55083 555 04410 50184
AAXX 04184 41136 42960 00507 10174 20100 39355 40175 333 10240 58027 55098
AAXX 04184 41140 42960 02804 10274 20200 30125 40132 333 10330 59015 55///
AAXX 04184 68298 36/// /0809 1//// 2//// 39494 4//// 52013 333 1//// 2//// 91012 555 91016
AAXX 04184 91375 NIL
AAXX 04184 91519 NIL
AAXX 04184 91531 NIL
AAXX 04184 91532 45/// /0508 10264 20233 30083 40091 52002
AAXX 04184 91559 NIL
AAXX 04184 91611 NIL
AAXX 04184 91642 NIL
AAXX 04184 91679 NIL
AAXX 04184 91689 NIL
AAXX 04184 91756 NIL
AAXX 04184 91844 NIL
AAXX 04184 92036 NIL
AAXX 04184 93713 NIL
BBXX PCDE 04183 99358 31297 41298 62202 10160 20132 40220 58020 7//11 8/700 22263 20402 322// 40404 80143
BBXX 9KWP 04183 99064 30899 41498 12909 10280 20252 40121 54000 70000 81142 22234 06290 2//// 80260
BBXX VMAL 04184 99359 31247 41/98 80814 10175 20111 40237 56022 70222 8//// 22263 20202 80140
BBXX VNSZ 04164 99384 31447 46/// /2110 10147 20060 30169 40196 57013 22275 04188 85102
BBXX VNSZ 04174 99383 31448 46/// /1610 10145 20072 30164 40191 57016 22224 04208 85106
BBXX C6FS9 04174 99274 31531 46/// /0504 10226 20184 30095 40131 57016 22200 85198
BBXX 9HA2479 04174 99155 31674 46/// /3106 10277 20239 30028 40056 57005 22273 04290 85249
BBXX A8KO3 04180 99018 31087 41798 73106 10280 20253 40100 54000 70311 964// 22274 00290 20000 80260
BBXX C6FS9 04164 99274 31531 46/// /3103 10223 20178 30096 40132 57021 22200 04257 85193
BBXX 9HA2479 04164 99156 31675 46/// /3108 10274 20249 30029 40057 57008 22273 04290 85255
BBXX VNAH 04164 99383 31416 46/// /1707 10150 20047 30178 40202 57019 22200 04196 85098
BBXX FHZI 04164 99429 31473 46/// /3413 10128 20036 30150 40161 57014 22200 04179 85083
BBXX VNSZ 04184 99380 31449 46/// /1410 10148 20063 30167 40194 57003 22285 04211 85103
BBXX VNAH 04174 99383 31416 46/// /1805 10147 20040 30175 40199 57020 22200 85093
BBXX VROB 04174 99068 31470 46/// /3006 10248 20226 30051 40076 57027 22200 04307 85232
BBXX FHZI 04174 99429 31473 46/// /3409 10122 20037 30149 40160 57012 22200 04179 85080
BBXX VRDB3 04184 99164 31530 41/98 21711 10270 20243 40091 52010 70200 82/// 22235 00230 2//// 3//// 4//// 80250
BBXX VRAE3 04184 99195 31626 41697 51307 10260 20255 40052 56010 70202 83561 22234 00270 2//// 315// 40402 5//// 80265
BBXX VRRC 04184 99169 31546 41298 11421 10250 20199 40089 56/// 70200 81145 22243 20102 312// 40102 80215
BBXX VRWS3 04183 99388 31455 41698 32210 10150 20092 40183 51/// 70211 82960 22274 04200 299// 80120
AAXX 04184 94310 46/// /3318 10285 20237 30062 40073 57039
AAXX 04184 95283 46/// /1502 10251 20207 30096 40103
AAXX 04184 95288 46/// /1316 10269 30082 40097 56006
AAXX 04184 95675 46/// /1209
AAXX 04184 95872 46/// /1309
AAXX 04184 95961 35/// /3021 10136 30113 40154 57020
AAXX 04184 40550 35/70 /3205 10097 20008 40206 51010 333 55300 00000 10250 20000 30000 41001 51251 60000 55407 40000 90069 90400 91011 91117 91209 91305
AAXX 04184 40551 36/// /2408 10085 21001 333 90401 91009 91121 91215 91309
AAXX 04184 40552 35/70 /2913 10100 20001 40208 51009 333 55300 90069 90400 91015 91123 91217 91311
AAXX 04184 40553 35/69 /3106 10097 20015 40205 51011 333 55300 90069 90400 91007 91119 91215 91309
AAXX 04184 40568 36/// /2909 10101 20034 333 90400 91011 91119 91215 91309
AAXX 04184 40569 NIL
AAXX 04184 40570 35/70 /2705 10083 21012 40220 51009 333 55300 90069 90400 91007 91117 91213 91307
AAXX 04184 40571 NIL
AAXX 04184 40572 NIL
AAXX 04184 40573 36/// /3109 10080 20004 333 90400 91009 91119 91215 91309
AAXX 04184 40580 36/// /2903 10137 20037 333 553// 00000 10285 20000 30000 41016 51301 60000 55407 40000 90400 91005 91117 91207 91303
AAXX 04184 40581 36/// /0702 10146 20053 333 90400 91007 91111 91203 91301
AAXX 04184 40582 32960 03206 10120 20017 40206 51009 333 55300 00000 10279 20000 30000 41021 51300 60000 55407 40000 90400 91007 91123 91215 91309
AAXX 04184 40583 NIL
AAXX 04184 40585 46/// /2910 10146 20062 222// 1//// 3//// 4//// 70/// 333 90400 91015 91119 91213 91309
AAXX 04184 40586 36/// /2607 10113 20008 333 90400 91011 91117 91207 91305
AAXX 04184 40587 36/// /2707 10096 20011 333 553// 00000 10236 20000 30000 40996 51233 60000 55407 40000 90400 91009 91121 91213 91307
AAXX 04184 40588 35/70 /3210 10133 20050 40201 51009 333 55300 90069 90401 91013 91119 91215 91309
AAXX 04184 40589 NIL
AAXX 04184 40590 36/// /3107 10084 20009 333 90400 91007 91123 91217 91309
AAXX 04184 40591 NIL
AAXX 04184 40592 35/67 /3005 10108 20021 40209 50010 333 55300 00000 10278 20000 30000 40992 51269 60000 55407 40000 90069 90400 91007 91119 91211 91305
AAXX 04184 40593 36/// /3108 10126 20030 333 90401 91011 91115 91211 91309
AAXX 04184 40594 36/// /3106 10126 20021 333 90400 91011 91113 91209 91305
AAXX 04184 40596 46/// /3115 10167 20076 333 90400 91019 91123 91215 91313
AAXX 04181 38141 12598 80000 11042 21084 30114 40279 52006 69900 885// 333 11022
AAXX 04181 38149 42598 82701 11033 21080 30197 40278 52003 69900 885// 333 10005
AAXX 04181 38178 425// 83604 11063 21164 39961 40261 52010 885// 333 11034
AAXX 04181 38262 314// 71703 11024 21051 30180 40264 52003 77172 886// 333 11004
AAXX 04181 38264 41998 72801 11021 21027 30180 40277 52008 69940 70282 8707/ 333 10002
AAXX 04181 38396 11294 83102 11025 21034 30147 40277 52006 69932 77572 8872/ 333 11005 83706
AAXX 04181 38403 414// 80203 11039 21101 30116 40249 52007 77377 8872/ 333 11007
AAXX 04181 38413 419// 82903 11031 21097 39930 40232 52007 77172 8802/ 333 11004
AAXX 04181 38457 31/93 91801 10013 20002 39601 40198 52010 74544 333 10082
AAXX 04181 38462 429// 00000 11052 21116 38739 48478 52019 333 10045
AAXX 04181 38565 116// 81802 11006 21021 39617 40216 51008 69912 74174 885// 333 11003
AAXX 04181 38579 415// 70000 10014 20011 39784 40210 52009 70262 87500 333 10055
AAXX 04181 38583 31/92 92701 10007 20004 39883 40212 52011 74742 333 10045
AAXX 04181 38611 41393 80000 10000 21011 39629 40214 52018 74444 887// 333 11014 80987
AAXX 04181 38618 31/// 92401 11019 21019 39491 40200 52020 74742 333 10049
AAXX 04181 38683 11396 82705 11025 21034 39952 40240 52024 60080 78587 847// 883// 333 10014 84707 88936
AAXX 04181 38696 /15// 80201 10002 21009 39343 40218 52015 60012 78588 889// 333 10065
AAXX 04181 38812 11295 82406 11022 21025 39782 40254 52019 60102 75182 884// 333 10060 85705
AAXX 04181 38927 11360 82309 10002 21004 39858 40246 52017 69992 78588 889// 333 10085 87707
AAXX 04181 37395 32797 70000 10052 20017 30103 40246 57004 84530 333 10070
AAXX 04181 37409 31/92 92704 11021 21021 38810 48520 52002 74544 333 11008 95090
AAXX 04181 37432 32697 20000 11039 21061 38983 48504 52008 82500 333 10036
AAXX 04181 37514 32696 60000 10010 21058 39074 40253 53011 86500 333 10035
AAXX 04181 37545 325// 80000 10004 21010 39727 40257 52010 8802/ 333 10058
AAXX 04181 37621 326// 70000 11000 21037 39597 40258 52007 80030 333 10055
AAXX 04181 37484 NIL
AAXX 04184 91577 06/// /0502 10229 20210 30034 40055 53001 60001 333 59017 60007
BBXX AVMI 04183 99330 31517 41298 21612 10200 20/// 40254 54000 70100 82111 22200 00200
AAXX 04181 50468 NIL
AAXX 04181 50953 32970 02001 11176 21198 30089 40282 52004 333 11114
AAXX 04181 51076 NIL
AAXX 04181 51243 NIL
AAXX 04181 51288 32980 70901 11113 21199 38315 57003 80002 333 05204 11057
AAXX 04181 51463 NIL
AAXX 04181 51573 NIL
AAXX 04181 51709 NIL
AAXX 04181 52533 NIL
AAXX 04181 52652 NIL
AAXX 04181 52866 NIL
AAXX 04181 52983 NIL
AAXX 04181 53463 NIL
AAXX 04181 53513 NIL
AAXX 04181 53588 NIL
AAXX 04181 53772 NIL
AAXX 04181 53915 NIL
AAXX 04181 54218 NIL
AAXX 04181 54337 NIL
AAXX 04181 54342 NIL
AAXX 04181 54401 NIL
AAXX 04181 54471 NIL
AAXX 04181 54497 NIL
AAXX 04181 54511 NIL
AAXX 04181 54823 NIL
AAXX 04181 56080 NIL
AAXX 04181 56096 NIL
AAXX 04181 57083 NIL
AAXX 04184 60715 12560 42810 10141 20085 30233 40240 58002 60002 83280 333 10166 59004 83826 91018 91129
AAXX 04184 60723 12560 52708 10132 20100 30073 40263 57002 60002 84280 333 10149 84823
AAXX 04184 60725 11562 72904 10125 2//// 30095 40275 54000 69902 78082 878// 333 10148 84820 84630
AAXX 04184 60735 12560 23106 10141 20076 30166 40249 53001 60002 82200 333 10173 82823
AAXX 04184 60745 12960 03410 10131 20024 39884 40258 52006 60002 333 10176
AAXX 04184 60748 12560 22302 10112 20057 39837 40261 53006 60002 82200 333 10162 82823
AAXX 04184 60750 12560 33304 10148 20039 30226 40251 53007 60002 82232 333 10173 82823
AAXX 04184 60760 12960 02710 10126 21021 30159 40265 53007 60002 333 10174 91013 91120
AAXX 04184 60765 12558 23612 10152 20109 30250 40254 56004 60002 82200 333 10171 82820 92446 925//
AAXX 04184 60767 12560 22106 10111 20014 30113 40260 52003 60002 82500 333 10172 82630
AAXX 04184 60769 12560 23610 10149 20086 30242 40246 53006 60002 82580 333 10174 81626
AAXX 04181 38696 115// 80201 10002 21009 39343 40218 52015 60012 78588 889// 333 10065
AAXX 04184 65125 31930 62204 10295 20067 30722 40125 70522 80008 333 10353 58001 86280
AAXX 04184 65252 31925 70000 10282 2019239954 40087 70522 80008 333 10322 59014 87280
AAXX 04181 37575 42698 53002 11009 21044 39673 40282 52003 85550 333 10002
AAXX 04181 37675 42995 70000 11007 21016 39591 40272 52012 87058 333 10015 555 53004
AAXX 04181 37735 42697 80000 10018 21007 39807 40192 52005 885// 333 10030
AAXX 04181 37749 42998 63603 10014 21018 30182 40303 52005 86030 333 10059 555 53006
AAXX 04181 37756 42997 83102 10003 21058 39388 40310 51007 8807/ 333 11004
AAXX 04181 37864 32997 70000 10020 21001 40268 52008 87070 333 10056
AAXX 04181 37985 42996 03201 10018 20005 30271 40256 54000 333 10077
BBXX 44139 04181 99442 70571 46/// /2825 10031 49892 52080 22200 00057 11311 70056 333 91232
BBXX 44139 04181 99442 70571 46/// /2825 10031 49892 52080 22200 00057 11311 70056 333 91232
BBXX VCXF 04184 99464 70484 41/90 91742 10078 2008/ 49998 57054 74764 89/// 22200 02030 20605 320// 40807 80078
AAXX 04181 34523 11597 82102 10019 21009 30123 40200 52004 69902 70352 885// 333 10023 88630
AAXX 04184 48480 11556 70000 10251 20242 30123 40127 57007 60013 71022 84846 333 58004 70011
BBXX VCXF 04184 99464 70484 41/90 91742 10078 2008/ 49998 57054 74764 89/// 22200 02030 20605 320// 40807 80078
BBXX A8ME3 04180 99355 11230 41498 73311 10025 21064 40315 50000 702// 8/8// 22283 04105 20404 333 // 40706 5////
BBXX DEHY 04184 99329 11355 41/98 63223 10090 21016 40185 54000 70222 8//// 22214 00210 2//// 80045
BBXX DGTX 04183 99337 11365 41597 23025 10050 21026 40180 54000 70100 81141 22214 00170 20402 80020
BBXX WDB3161 04184 99311 11303 41498 80407 10070 20000 40230 57005 70222 887// 22235 00210 20804 332// 41005 5//// 6//// 80040 ICE /////
BBXX 46035 04181 99571 71778 46/// /3509 1//// 40046 57004 91750 22200 10904 20703 300// 40903 70022 333 91211 555 11086 22092 31738 43413 61749 348087 336084 325084 347067 345075 359080 83311 91738
BBXX LAJS6 04184 99545 71576 41797 32225 11010 21030 49985 56015 70122 833// 22263 00040 20806 305// 41005 81020
BBXX NWS0003 04184 99539 71665 43/// /0000 11030 21064 49904 5//// 7//// 8//// 222// 0//// 2//// 3//// 4//// 5//// 6//// 8//// ICE /////
BBXX SHIP 04183 99380 71676 41/98 /2718 10150 20116 40070 51020 70222 8//// 22224 00135 2//// 3//// 4//// 80130
BBXX SHIP 04184 99536 71795 41/98 60812 11020 21106 40045 53050 70222 8//// 22263 00030 2//// 81263
BBXX VRCI9 04184 99539 71547 41498 13415 11010 21039 49990 52045 70110 814// 22264 00038 20604 332// 40906 81020
BBXX VREX8 04184 99543 71742 41496 40519 11040 21080 40070 57050 7//22 841// 22214 0//// 29904 30505 4//05 5//// 64//4 81050 ICE 0/0//
AAXX 04184 48459 11557 60000 10256 20247 30130 40132 57004 60233 71022 82556 333 58012 70231
AAXX 04181 01488 16/// /2703 11021 21039 60002 333 10022 4/021 91110
AAXX 04181 26045 01481 81908 10029 20018 39764 49767 58033 60012 76162 8872/ 333 10035 20005 69947 88514 91013 91116 555 1/001 20005 3/100 50018
AAXX 04181 26058 27470 81804 10031 20010 39800 49807 56032 78180 88/// 333 10035 20004 69917 88/19 91011 91112 555 1/100 20004 3/100 50015 52100
AAXX 04181 26115 01458 82512 10043 20022 39755 49763 53030 60032 76162 8872/ 333 10058 20041 69977 88512 91018 91121 555 1/003 20041 3/003 50044
AAXX 04184 48427 01550 80000 10240 20236 30124 40132 57008 60073 72162 82506 333 58011 60077 70066
AAXX 04184 89577 46/// /2702 11366 35834 4//// 5////
AAXX 04184 89578 46/// /0605 11313 36906 4//// 5////
AAXX 04184 71447 16/// /2704 10031 21018 39599 40147 58001 60001 333 10032 21054 70000
AAXX 04184 71472 17/// /1827 10078 20059 69981 7//4/ 333 10101 20068 70074
AAXX 04184 71858 16/// /0602 11049 21084 39859 40145 51005 60001 333 11046 21082 70000
AAXX 04184 71110 17/// /1421 10082 20080 39717 49775 56101 60051 7//4/ 333 10083 21001 70114
AAXX 04184 71133 46/// /1703 11026 21054 39394 40106 58009 6///1 333 11026 21119 7////
AAXX 04184 71149 16/// /1403 10034 21084 60001 333 10040 21061 70000
AAXX 04184 71885 46/// ///// 10121 6///1 333 7////
AAXX 04184 71954 46/// /3601 11076 21097 39772 40155 53007 6///1 333 11060 21083 7////
AAXX 04184 71956 16/// /2907 11011 21044 39841 40074 58013 60001 333 11011 21161 70000
AAXX 04184 71970 16/// /3601 11052 21057 39506 40097 58014 60001 333 11038 21126 70000
AAXX 04184 71977 46/// /0000 11326 21326 39337 40092 58017 6///1 333 11303 21349 7////
AAXX 04184 71978 46/// /2001 11350 21387 39759 40093 56008 6///1 333 11307 21363 7////
AAXX 04184 71989 16/// /3315 11314 21346 30167 40184 58017 60001 333 11314 21358 70000 555 10020
AAXX 04184 71015 16/// ///// 10079 60001 333 10087 20019 70000
AAXX 04184 71017 16/// /3217 11262 21289 30058 40073 56006 60001 333 11261 21335 70000
AAXX 04184 71019 46/// /3010 11142 21196 39795 40109 56024 6///1 333 11141 21193 7////
AAXX 04184 71020 46/// /0303 11175 21194 39763 40024 56023 6///1 333 11166 21197 7//// 555 10030
AAXX 04184 71021 46/// /1209 11153 21178 39656 40014 56026 6///1 333 11142 21230 7//// 555 10030
AAXX 04184 71032 46/// /0000 11011 21014 39363 40204 51030 6///1 333 11005 21062 7//// 555 10060
AAXX 04184 71039 46/// /1701 11250 6///1 333 11204 21295 7////
AAXX 04184 71063 16/// /0505 11149 21172 30033 40139 56048 60001 333 11148 21234 70000
AAXX 04184 71552 46/// /2504 11029 21056 6///1 333 11029 21087 7////
AAXX 04184 71564 16/// /2907 10028 21026 39762 40130 58017 60001 333 10028 21038 70000
AAXX 04184 71578 16/// /2413 11170 21231 60001 333 11169 21207 70000
AAXX 04184 71580 11432 82822 11306 21337 30020 40058 58007 69901 77177 8853/ 333 11302 21405 46030 79999 90942
AAXX 04184 71581 16/// /2403 11081 21099 39592 40090 56040 60001 333 11081 70000
AAXX 04184 71585 17/// /1108 11049 21060 39607 40067 58011 69931 7//4/ 333 11042 7////
AAXX 04184 71588 16/// /3003 11042 21052 60001 333 11032 21050 70000
AAXX 04184 71589 17/// /0503 11006 21006 39736 49866 56103 60111 7//4/ 333 11005 21010 70108 555 10020
AAXX 04184 71599 17/// /3303 11103 21132 39880 40088 56006 69961 7//4/ 333 11095 21125 70012 555 10010
AAXX 04184 71719 16/// /3109 11062 21112 30041 40047 56025 60001 333 11061 21128 70000
AAXX 04184 71357 16/// /1908 11315 21347 30058 40065 53012 60001 333 11273 21331 70000
AAXX 04184 71361 16/// /1009 11119 21157 39848 40060 58044 60001 333 11114 21221 70000
AAXX 04184 71362 16/// /0903 11161 21183 39845 40110 58027 60001 333 11161 21212 70000
AAXX 04184 71365 16/// /1305 11136 21167 39830 40048 58029 60001 333 11136 21256 70000
AAXX 04184 71377 16/// /1505 11128 21182 30099 40150 57047 60001 333 11127 21191 70000
AAXX 04184 71381 47/// /0103 6///1 7//4/ 333 21211 7////
AAXX 04184 71388 46/// /0905 11183 21230 39922 40119 56043 6///1 333 11179 21209 7////
AAXX 04184 71393 16/// ///// 10055 21004 38839 40099 58022 60001 333 10088 21001 70000
AAXX 04184 71402 46/// /0627 11013 21019 39799 49912 58081 6///1 333 11001 21020 7////
AAXX 04184 71407 16/// /2423 11326 21366 30045 40067 53011 60001 333 11318 21369 70000
AAXX 04184 71442 16/// /2702 11017 21063 39823 40141 50002 60001 333 11015 21061 70000
AAXX 04184 71446 16/// /2313 10053 21009 39168 40143 58006 60001 333 10053 20009 70000
AAXX 04184 71448 16/// /2702 11007 21077 39802 40137 58005 60001 333 11007 21110 70000
AAXX 04184 71449 16/// /2203 11002 21049 39726 40133 58020 60001 333 11002 21090 70000
AAXX 04184 71837 16/// ///// 10111 60001 333 10112 20018 70000
AAXX 04184 71839 16/// ///// 10127 60001 333 10127 20024 70006
AAXX 04184 71614 16/// /1404 11108 21174 30072 40140 58050 60001 333 11107 21192 70000
AAXX 04184 71622 16/// ///// 11029 21081 39772 40117 58039 60001 333 11028 21172 70003
AAXX 04184 71868 16/// /0701 11042 21107 39691 40137 58002 60001 333 11018 21076 70000
AAXX 04184 71250 17/// /1712 10084 20078 39728 49860 56091 60081 7//4/ 333 10088 20001 70119
AAXX 04184 71295 16/// /2805 11050 21082 39668 40121 58008 60001 333 11050 21122 70000
AAXX 04184 71299 16/// /2913 11074 21101 39770 40048 51001 60001 333 11070 21211 7////
AAXX 04184 71450 16/// /2309 10023 21023 39422 40143 58007 60001 333 10024 21069 70000
AAXX 04184 71453 16/// /2522 10157 21017 39230 40126 58010 60001 333 10157 20040 70000
AAXX 04184 71455 46/// /2208 10030 21005 39345 40143 58005 6///1 333 10030 21025 7////
AAXX 04184 71456 16/// /2004 11073 21093 39535 40141 55000 60001 333 11032 21102 70000
AAXX 04184 71459 16/// /1607 10052 21003 39322 40127 57013 60001 333 10052 21006 70000
AAXX 04184 71465 46/// /2315 11007 21056 39905 40125 58033 6///1 333 11006 21111 7////
AAXX 04184 71470 17/// /0705 11323 21356 39526 40187 55002 69931 7//4/ 333 11250 21333 70003
AAXX 04184 71476 16/// /1729 39920 51027 60001 333 70416
AAXX 04184 71480 16/// /0000 11254 21283 39929 40056 58021 60001 333 11208 21337 70000
AAXX 04184 71484 16/// /1728 10084 20070 39915 49933 51015 60001 333 10096 20074 70000
AAXX 04184 71487 16/// /2410 10047 21010 39287 40153 58002 60001 333 10047 21008 70000
AAXX 04184 71489 16/// /2005 10010 21024 39320 40118 56009 60001 333 10010 21074 70000
AAXX 04184 71492 46/// ///16 11225 21249 39419 40136 57008 6///1 333 11198 21238 7////
AAXX 04184 71150 46/// /2102 11040 21066 39453 40143 57009 6///1 333 11038 21102 7////
AAXX 04184 71155 16/// ///// 10028 20004 60001 333 10031 21042 70007
AAXX 04184 71156 16/// /2404 11010 21027 38973 40065 55007 60001 333 10023 21040 70000
AAXX 04184 71157 46/// ///// 10038 20006 6///1 333 10039 21014 7////
AAXX 04184 71158 16/// /2803 11068 21091 39853 40134 58001 60001 333 11052 21110 70000
AAXX 04184 71160 16/// /1401 11274 21309 39954 40180 50008 60001 333 11201 21280 70000
AAXX 04184 71162 16/// /0817 11190 21214 39903 40121 56028 60001 333 11187 21211 70000
AAXX 04184 71164 46/// /3602 11290 21323 30021 40107 58026 6///1 333 11266 21387 7////
AAXX 04184 71166 46/// /0406 11115 21126 39378 49992 56039 6///1 333 11102 21213 7////
AAXX 04184 71170 16/// /2606 11009 21045 60001 333 11008 21081 70000
AAXX 04184 71137 16/// /2103 10041 21015 39231 40178 50006 60001 333 10044 21040 70000
AAXX 04184 71723 16/// /2109 11141 21194 30150 40160 56044 60001 333 11138 21196 70000
AAXX 04184 71732 17/// /1507 11056 21074 60011 7//4/ 333 11055 21213 70012 555 10020
AAXX 04184 71734 16/// /2106 11096 21118 39648 40051 58023 60001 333 11096 21248 70011
AAXX 04184 71747 16/// /2806 11014 21047 39643 40127 58017 60001 333 11014 7////
AAXX 04184 71243 16/// /2724 10128 21020 39094 40145 58006 60001 333 10128 20035 70000
AAXX 04184 71246 47/// /0103 11016 21021 39366 40026 5/032 6///1 7//4/ 333 10005 21114 7////
AAXX 04184 71074 16/// ///18 11250 21274 39927 40006 58006 60001 333 11250 21324 7//// 555 10020
AAXX 04184 71087 46/// /0906 11129 21163 39852 40062 5/043 6///1 333 7////
AAXX 04184 71758 47/// /3118 11040 21043 39874 49951 5/016 6///1 7//4/ 333 7////
AAXX 04184 71501 16/// /1309 11291 21322 30114 40116 56002 60001 333 11290 21332 70000
AAXX 04184 71522 46/// /1503 11197 21233 39589 40095 56041 6///1 333 11180 21215 70000
AAXX 04184 71317 16/// /3211 11077 21123 39996 40044 55014 60001 333 11071 21119 70000
AAXX 04184 71332 16/// /2306 11331 21367 30165 40196 58005 60001 333 11284 21333 70000
AAXX 04184 71951 11358 81908 10045 20042 39712 49975 51025 60061 76166 8857/ 333 10045 20001 43058 70400 90983
AAXX 04184 71043 11659 82603 11279 21326 39966 40064 57020 69901 77177 84571 333 11259 21344 48034 79999 90983
AAXX 04184 71667 16/// /2707 11053 21099 39865 40116 58014 60001 333 11053 21165 70000
AAXX 04184 71954 46/// /3601 11076 21097 39772 40155 53007 6///1 333 11060 21083 7////
AAXX 04184 71956 16/// /2907 11011 21044 39841 40074 58013 60001 333 11011 21161 70000
AAXX 04184 71970 16/// /3601 11052 21057 39506 40097 58014 60001 333 11038 21126 70000
AAXX 04184 71977 46/// /0000 11326 21326 39337 40092 58017 6///1 333 11303 21349 7////
AAXX 04184 71978 46/// /2001 11350 21387 39759 40093 56008 6///1 333 11307 21363 7////
AAXX 04184 71989 16/// /3315 11314 21346 30167 40184 58017 60001 333 11314 21358 70000 555 10020
AAXX 04184 91753 02470 73606 10275 20241 30079 40111 53015 69962 82831 333 10285 20261 60007 82816 85367 90710 91114 555 60005
AAXX 04184 91754 01470 83404 10277 20237 30059 40100 53014 60001 702// 8592/ 333 60007 81810 81915 84818 88460 555 60005
AAXX 04184 71357 16/// /1908 11315 21347 30058 40065 53012 60001 333 11273 21331 70000
AAXX 04184 71361 16/// /1009 11119 21157 39848 40060 58044 60001 333 11114 21221 70000
AAXX 04184 71362 16/// /0903 11161 21183 39845 40110 58027 60001 333 11161 21212 70000
AAXX 04184 71365 16/// /1305 11136 21167 39830 40048 58029 60001 333 11136 21256 70000
AAXX 04184 71377 16/// /1505 11128 21182 30099 40150 57047 60001 333 11127 21191 70000
AAXX 04184 71381 47/// /0103 6///1 7//4/ 333 21211 7////
AAXX 04184 71388 46/// /0905 11183 21230 39922 40119 56043 6///1 333 11179 21209 7////
AAXX 04184 71393 16/// ///// 10055 21004 38839 40099 58022 60001 333 10088 21001 70000
AAXX 04184 71719 16/// /3109 11062 21112 30041 40047 56025 60001 333 11061 21128 70000
AAXX 04184 71951 11358 81908 10045 20042 39712 49975 51025 60061 76166 8857/ 333 10045 20001 43058 70400 90983
AAXX 04184 71858 16/// /0602 11049 21084 39859 40145 51005 60001 333 11046 21082 70000
AAXX 04184 71043 11659 82603 11279 21326 39966 40064 57020 69901 77177 84571 333 11259 21344 48034 79999 90983
AAXX 04184 71137 16/// /2103 10041 21015 39231 40178 50006 60001 333 10044 21040 70000
AAXX 04184 71868 16/// /0701 11042 21107 39691 40137 58002 60001 333 11018 21076 70000
AAXX 04184 71552 46/// /2504 11029 21056 6///1 333 11029 21087 7////
AAXX 04184 71564 16/// /2907 10028 21026 39762 40130 58017 60001 333 10028 21038 70000
AAXX 04184 71578 16/// /2413 11170 21231 60001 333 11169 21207 70000
AAXX 04184 71580 11432 82822 11306 21337 30020 40058 58007 69901 77177 8853/ 333 11302 21405 46030 79999 90942
AAXX 04184 71581 16/// /2403 11081 21099 39592 40090 56040 60001 333 11081 70000
AAXX 04184 71585 17/// /1108 11049 21060 39607 40067 58011 69931 7//4/ 333 11042 7////
AAXX 04184 71588 16/// /3003 11042 21052 60001 333 11032 21050 70000
AAXX 04184 71589 17/// /0503 11006 21006 39736 49866 56103 60111 7//4/ 333 11005 21010 70108 555 10020
AAXX 04184 71599 17/// /3303 11103 21132 39880 40088 56006 69961 7//4/ 333 11095 21125 70012 555 10010
AAXX 04184 71110 17/// /1421 10082 20080 39717 49775 56101 60051 7//4/ 333 10083 21001 70114
AAXX 04184 71133 46/// /1703 11026 21054 39394 40106 58009 6///1 333 11026 21119 7////
AAXX 04184 71149 16/// /1403 10034 21084 60001 333 10040 21061 70000
AAXX 04184 71447 16/// /2704 10031 21018 39599 40147 58001 60001 333 10032 21054 70000
AAXX 04184 71472 17/// /1827 10078 20059 69981 7//4/ 333 10101 20068 70074
AAXX 04184 71885 46/// ///// 10121 6///1 333 7////
AAXX 04184 71243 16/// /2724 10128 21020 39094 40145 58006 60001 333 10128 20035 70000
AAXX 04184 71246 47/// /0103 11016 21021 39366 40026 5/032 6///1 7//4/ 333 10005 21114 7////
AAXX 04184 71614 16/// /1404 11108 21174 30072 40140 58050 60001 333 11107 21192 70000
AAXX 04184 71622 16/// ///// 11029 21081 39772 40117 58039 60001 333 11028 21172 70003
AAXX 04184 71837 16/// ///// 10111 60001 333 10112 20018 70000
AAXX 04184 71839 16/// ///// 10127 60001 333 10127 20024 70006
AAXX 04184 71667 16/// /2707 11053 21099 39865 40116 58014 60001 333 11053 21165 70000
AAXX 04184 71758 47/// /3118 11040 21043 39874 49951 5/016 6///1 7//4/ 333 7////
AAXX 04184 71501 16/// /1309 11291 21322 30114 40116 56002 60001 333 11290 21332 70000
AAXX 04184 71522 46/// /1503 11197 21233 39589 40095 56041 6///1 333 11180 21215 70000
AAXX 04184 71402 46/// /0627 11013 21019 39799 49912 58081 6///1 333 11001 21020 7////
AAXX 04184 71407 16/// /2423 11326 21366 30045 40067 53011 60001 333 11318 21369 70000
AAXX 04184 71442 16/// /2702 11017 21063 39823 40141 50002 60001 333 11015 21061 70000
AAXX 04184 71446 16/// /2313 10053 21009 39168 40143 58006 60001 333 10053 20009 70000
AAXX 04184 71448 16/// /2702 11007 21077 39802 40137 58005 60001 333 11007 21110 70000
AAXX 04184 71449 16/// /2203 11002 21049 39726 40133 58020 60001 333 11002 21090 70000
AAXX 04184 71317 16/// /3211 11077 21123 39996 40044 55014 60001 333 11071 21119 70000
AAXX 04184 71332 16/// /2306 11331 21367 30165 40196 58005 60001 333 11284 21333 70000
AAXX 04184 71074 16/// ///18 11250 21274 39927 40006 58006 60001 333 11250 21324 7//// 555 10020
AAXX 04184 71087 46/// /0906 11129 21163 39852 40062 5/043 6///1 333 7////
AAXX 04184 71250 17/// /1712 10084 20078 39728 49860 56091 60081 7//4/ 333 10088 20001 70119
AAXX 04184 71295 16/// /2805 11050 21082 39668 40121 58008 60001 333 11050 21122 70000
AAXX 04184 71299 16/// /2913 11074 21101 39770 40048 51001 60001 333 11070 21211 7////
AAXX 04184 71450 16/// /2309 10023 21023 39422 40143 58007 60001 333 10024 21069 70000
AAXX 04184 71453 16/// /2522 10157 21017 39230 40126 58010 60001 333 10157 20040 70000
AAXX 04184 71455 46/// /2208 10030 21005 39345 40143 58005 6///1 333 10030 21025 7////
AAXX 04184 71456 16/// /2004 11073 21093 39535 40141 55000 60001 333 11032 21102 70000
AAXX 04184 71459 16/// /1607 10052 21003 39322 40127 57013 60001 333 10052 21006 70000
AAXX 04184 71465 46/// /2315 11007 21056 39905 40125 58033 6///1 333 11006 21111 7////
AAXX 04184 71470 17/// /0705 11323 21356 39526 40187 55002 69931 7//4/ 333 11250 21333 70003
AAXX 04184 71476 16/// /1729 39920 51027 60001 333 70416
AAXX 04184 71480 16/// /0000 11254 21283 39929 40056 58021 60001 333 11208 21337 70000
AAXX 04184 71484 16/// /1728 10084 20070 39915 49933 51015 60001 333 10096 20074 70000
AAXX 04184 71487 16/// /2410 10047 21010 39287 40153 58002 60001 333 10047 21008 70000
AAXX 04184 71489 16/// /2005 10010 21024 39320 40118 56009 60001 333 10010 21074 70000
AAXX 04184 71492 46/// ///16 11225 21249 39419 40136 57008 6///1 333 11198 21238 7////
AAXX 04184 71150 46/// /2102 11040 21066 39453 40143 57009 6///1 333 11038 21102 7////
AAXX 04184 71155 16/// ///// 10028 20004 60001 333 10031 21042 70007
AAXX 04184 71156 16/// /2404 11010 21027 38973 40065 55007 60001 333 10023 21040 70000
AAXX 04184 71157 46/// ///// 10038 20006 6///1 333 10039 21014 7////
AAXX 04184 71158 16/// /2803 11068 21091 39853 40134 58001 60001 333 11052 21110 70000
AAXX 04184 71160 16/// /1401 11274 21309 39954 40180 50008 60001 333 11201 21280 70000
AAXX 04184 71162 16/// /0817 11190 21214 39903 40121 56028 60001 333 11187 21211 70000
AAXX 04184 71164 46/// /3602 11290 21323 30021 40107 58026 6///1 333 11266 21387 7////
AAXX 04184 71166 46/// /0406 11115 21126 39378 49992 56039 6///1 333 11102 21213 7////
AAXX 04184 71170 16/// /2606 11009 21045 60001 333 11008 21081 70000
AAXX 04184 71015 16/// ///// 10079 60001 333 10087 20019 70000
AAXX 04184 71017 16/// /3217 11262 21289 30058 40073 56006 60001 333 11261 21335 70000
AAXX 04184 71019 46/// /3010 11142 21196 39795 40109 56024 6///1 333 11141 21193 7////
AAXX 04184 71020 46/// /0303 11175 21194 39763 40024 56023 6///1 333 11166 21197 7//// 555 10030
AAXX 04184 71021 46/// /1209 11153 21178 39656 40014 56026 6///1 333 11142 21230 7//// 555 10030
AAXX 04184 71032 46/// /0000 11011 21014 39363 40204 51030 6///1 333 11005 21062 7//// 555 10060
AAXX 04184 71039 46/// /1701 11250 6///1 333 11204 21295 7////
AAXX 04184 71063 16/// /0505 11149 21172 30033 40139 56048 60001 333 11148 21234 70000
AAXX 04184 71723 16/// /2109 11141 21194 30150 40160 56044 60001 333 11138 21196 70000
AAXX 04184 71732 17/// /1507 11056 21074 60011 7//4/ 333 11055 21213 70012 555 10020
AAXX 04184 71734 16/// /2106 11096 21118 39648 40051 58023 60001 333 11096 21248 70011
AAXX 04184 71747 16/// /2806 11014 21047 39643 40127 58017 60001 333 11014 7////
BBXX 44067 04181 99384 70770 46/// /2803 11006 40222 57048 91800
BBXX 44032 04181 99437 70694 46/30 /2908 11062 40135 56021 91804 22200 00079 10301 70007 333 91211 555 11091 22094
BBXX 44150 04181 99425 70640 46/// /3212 11027 40080 52003 22200 00095 10806 70030 333 91216
BBXX 44150 04181 99425 70640 46/// /3212 11027 40080 52003 22200 00095 10806 70030 333 91216
AAXX 04184 04211 45/84 /1106 11203 21247 39861 40031 52022 333 11198 21240
AAXX 04184 04220 07569 72013 11159 21190 39999 40054 52034 60022 77877 333 10313 21214 55300 20004 69947 81/25 85/31 87/36 91135 91226
AAXX 04184 04221 45684 31017 11189 21314 30014 40054 52029 333 11183 21244 83/45
AAXX 04184 04231 45/84 00607 11363 21415 30009 40093 52034 333 11335 21381
AAXX 04184 04234 47457 80902 11188 21235 30055 40066 52031 77777 333 11186 21221 81/15 88/35
AAXX 04184 04241 47557 70906 11131 21167 30022 40064 52035 77177 333 11124 21146 81/27 87/31
AAXX 04184 04250 07683 80704 11100 21144 39943 40052 52018 69902 72287 333 11098 21113 55300 20022 69907 85/38 88/46
AAXX 04184 04254 47681 80805 11096 21166 39949 40067 52030 78587 333 11092 21126 88/39
AAXX 04184 04260 47483 50507 11082 21173 30012 40057 52028 70088 333 11067 21082 81/19 85///
AAXX 04184 04270 47505 82022 11045 21073 39957 49996 52027 77277 333 11008 21046 85/20 88/25 91118 91030
AAXX 04184 04272 07680 5//// 11066 21094 39935 40008 52036 60082 72487 333 11020 21066 69907 85/43
AAXX 04184 04312 46/// /0803 11185 21210 30009 40052 52005
AAXX 04184 04320 NIL
AAXX 04184 04339 47/61 ///// 11048 21081 39835 49925 52008 78587 333 11047 21071 55300 20000
AAXX 04184 04360 06/// /2705 11059 21100 39888 49959 52020 6///2 333 11026 21064 55300 20000 6///7
AAXX 04184 04361 469// 82005 11049 21124 39910 49963 52018 333 11018 21067 88/59
AAXX 04184 04390 06/// ///// 39891 52022 60062 333 60017
AAXX 04184 60710 11562 62821 10145 20095 30179 40259 58001 69942 70361 86800 333 10156 83820 84630
AAXX 04184 60714 12460 63119 10151 20097 30243 40249 50000 60002 85880 333 10165 83816 83630
AAXX 04184 60720 12560 62910 10142 20101 30194 40228 58008 60002 86800 333 10167 84820 83630
AAXX 04184 60728 NIL
AAXX 04184 60729 NIL
AAXX 04184 60731 05960 02712 10130 20083 30237 40244 53002 60002 333 10170 20100 59011 60007 91017 91129
AAXX 04184 60732 NIL
AAXX 04184 60734 12558 52804 10096 20082 39730 40260 56001 60002 85800 333 10130 84823
AAXX 04184 60738 NIL
AAXX 04184 60739 NIL
AAXX 04184 60740 12460 23014 10148 20090 30244 40246 53005 60002 82800 333 10168 82816
AAXX 04184 60742 NIL
AAXX 04184 60764 12962 02808 10136 20036 30210 40262 53007 60002 333 10178
AAXX 04184 60770 12575 43206 10136 20072 30116 40256 53006 60002 84200 333 10168 84830
AAXX 04184 60772 NIL
AAXX 04184 60775 12975 03104 10113 20026 39908 40269 53007 60002 333 10145
AAXX 04184 60780 12960 03310 10113 20031 39963 40272 58014 60002 333 10153
AAXX 04184 91643 11498 40112 10276 20240 40095 55010 60001 71500 83206 333 568/9 83818 84280
AAXX 04184 91636 11499 50718 10274 20254 40093 60001 70222 83230 333 5629/
AAXX 04184 91648 11498 70413 10274 20246 40088 60031 71488 83370 333 5659/
AAXX 04184 60340 32970 00606 10125 20084 40314 55000 333 10183
AAXX 04181 48870 32498 83201 10233 20210 30154 40161 56019 888// 333 58003 83894 88696
AAXX 04181 48877 32798 62702 10224 20190 30146 40151 56008 81508 333 58001 81697 86299
AAXX 04181 48887 32998 70501 10234 20190 30125 40131 58004 80008 333 58005 87299
AAXX 04181 48920 32598 70210 10260 20244 30109 40112 57014 84808 333 59003 82895 84697 87299
AAXX 04181 48892 32598 70206 10261 20239 30114 40119 57004 82208 333 58001 82895 87299
BBXX 44255 04181 99473 70573 46/// /0115 10011 49808 5//// 22200 00032 10605 70026 333 91219
AAXX 04184 16641 11360 50000 10100 20096 30186 40191 56003 69942 70162 84730 333 10128 83708 83816 90730 91103 555 10000 40038 40000 47672 44220 50000 50098 60000 60004 60050 70000 77/// 7R///
AAXX 04181 56187 11461 80701 10031 20016 39612 40280 57013 60021 76060 8277/ 333 05500 10079
AAXX 04181 56778 11558 80402 10065 20058 38116 57010 60011 71098 884// 333 05151 10071
AAXX 04181 57461 32962 72901 10014 21039 30161 40330 57013 8704/ 333 10073
AAXX 04181 57516 11730 81801 10050 20013 39965 40287 57012 69901 71060 885// 333 05500 10059
AAXX 04181 57687 11465 82202 10029 21032 30245 40332 57007 69901 76876 887// 333 10077
AAXX 04181 57816 11658 80203 11034 21042 38843 40306 57014 69901 76660 885// 333 05352 11016 93427
AAXX 04181 58102 32970 01401 11032 21158 30296 40347 57009 333 10036
AAXX 04181 58221 32960 00201 11035 21132 30317 40347 57007 333 10041
AAXX 04181 58457 32960 80402 10011 21138 30278 40333 57012 8807/ 333 10053
AAXX 04181 58606 32763 80703 10038 21114 30258 40318 57010 885// 333 10072
AAXX 04181 58847 11559 80702 10037 20006 30205 40312 57001 60021 76060 885// 333 10075
AAXX 04181 59316 11660 81601 10092 20058 30256 40261 57007 69901 72160 885// 333 10129
AAXX 04181 59644 11456 80205 10062 20056 30238 40256 57008 69971 76060 887// 333 10088
AAXX 04181 59758 11462 80404 10129 20111 30150 40228 57007 69961 76066 887// 333 10187
AAXX 04181 58040 32961 02501 11074 21123 30327 40341 57004 333 10008
AAXX 04181 58150 31958 02701 11063 21102 30342 40346 57002 71000 333 10016
AAXX 04181 58251 31957 62701 11057 21094 30338 40343 52002 71000 80002 333 10023
AAXX 04181 59117 32662 83602 10058 20008 30172 40283 57007 885// 333 10089
AAXX 04181 53463 32980 03401 11156 21222 39037 40378 57007 333 05652 11082
AAXX 04181 53513 32970 00701 11163 21212 39038 40343 57012 333 05801 11060
AAXX 04181 54218 32970 03201 11110 21220 39453 40300 57005 333 11049
AAXX 04181 54337 32960 00401 11116 21160 30208 40296 57003 333 11024
AAXX 04181 54471 32960 01403 11121 21172 30298 40304 57010 333 11058
AAXX 04181 54497 32965 00000 11126 21188 30295 40312 52009 333 11049
AAXX 04181 54823 32980 01402 11066 21177 30117 40339 57009 333 10004
AAXX 04181 52866 32970 00000 11155 21197 37689 57004 333 05501 11005
AAXX 04181 53588 32980 03205 11096 21251 37777 57003 333 11094
AAXX 04181 53772 31956 01401 11105 21194 39374 40355 57004 70400 333 11028
AAXX 04181 54342 31958 00701 11201 21221 30244 40311 57001 71000 333 11098
AAXX 04181 54511 32965 02701 11061 21184 30265 40307 57010 333 10009
AAXX 04181 57083 32962 01601 11040 21145 30183 40326 57012 333 10044
AAXX 04181 57265 32961 03601 11020 21064 30210 40326 57010 333 10065
AAXX 04181 57494 32965 71102 10014 21090 30299 40330 57009 8703/ 333 10066
AAXX 04181 58238 32962 73601 11035 21099 30289 40336 57017 80002 333 10042
AAXX 04181 58362 32980 53603 10002 21090 30325 40334 57010 80002 333 10036
AAXX 04181 58752 32666 80702 10047 21098 30274 40322 57004 885// 333 10090
AAXX 04181 59134 32660 80405 10070 21012 30109 40283 57003 885// 333 10100
AAXX 04181 59287 32668 70206 10060 20005 30189 40278 57003 875// 333 10098
AAXX 04181 59431 11464 80202 10054 20041 30129 40282 57006 60051 76066 887// 333 10083
AAXX 04181 50468 32970 03403 11238 21257 30045 40273 52006 333 11141
AAXX 04181 51076 32980 50701 11173 21225 39358 40306 57002 80002 333 05300 11056
AAXX 04181 51243 32970 03201 11191 21214 39713 40322 54000 333 05351 11136
AAXX 04181 51463 32962 01101 11146 21173 39123 40303 52002 333 05200 11098
AAXX 04181 51573 32970 00000 11092 21153 30268 40315 57011 333 05601 11044
AAXX 04181 52533 32980 02502 11161 21221 38541 40332 57011 333 05501 11056
AAXX 04181 52652 32980 01402 11203 21255 38554 40346 57016 333 05551 11063
AAXX 04181 52983 32975 62901 11133 21157 38108 57008 80002 333 05602 11016
AAXX 04181 53915 32980 02902 11105 21149 38704 40323 57010 333 05702 11013
AAXX 04181 54401 32970 00000 11148 21231 39361 40347 57004 333 11054
AAXX 04181 56080 32980 72701 11151 21181 37113 57006 80002 333 05505 11022
AAXX 04181 56096 32975 31402 10002 21075 38982 40257 57008 80002 333 05702 10064
AAXX 04184 43400 NIL
AAXX 04184 43404 NIL
AAXX 04184 43410 NIL
AAXX 04184 43413 22470 30507 10268 20254 30117 40120 83100 333 58004 60007 83818
AAXX 04184 43415 NIL
AAXX 04184 43418 22470 50505 10266 20249 3//// 4//// 82231 333 5//// 60002 82818
AAXX 04184 43421 22460 62701 10256 20244 30018 40120 86100 333 58013 60007 86818
AAXX 04184 43422 NIL
AAXX 04184 43424 22968 10000 10252 20246 30108 40110 80001 333 58004 60007 81080
AAXX 04184 43436 22470 50506 10276 20259 30117 40120 84130 333 58006 60007 84818 82360
AAXX 04184 43441 NIL
AAXX 04184 43444 22470 70000 10232 20217 39587 40116 871// 333 58006 60007 87818
AAXX 04184 43467 22460 31401 10271 20247 30107 40112 83101 333 58002 60007 83816
AAXX 04184 43473 21470 80902 10106 20099 38141 48514 70282 8522/ 333 58001 69937 85810 87460
AAXX 04184 43475 NIL
AAXX 04184 43476 NIL
AAXX 04184 43479 NIL
AAXX 04184 43486 22470 31403 10256 20226 30016 40110 83100 333 58009 60007 83812
AAXX 04184 43495 21460 4//// 10270 20250 30104 40120 70382 83230 333 58003 60007 83818
AAXX 04184 43497 22476 40504 10260 20243 30094 40112 84100 333 58004 60007 84818
BBXX 44255 04181 99473 70573 46/// /0115 10011 49808 5//// 22200 00032 10605 70026 333 91219
AAXX 04181 50136 32970 22001 11348 21391 39744 40351 52016 80002 333 11220
AAXX 04181 50745 32963 72501 11173 21199 30079 40278 52006 80008 333 11101
AAXX 04181 50774 32960 00000 11247 21270 39941 40274 52005 333 11124
AAXX 04181 50788 32970 02503 11207 21234 30126 40219 52013 333 11147
AAXX 04181 51133 32980 00201 11119 21156 39570 40250 54000 333 05200 10012
AAXX 04181 51431 NIL
AAXX 04181 51747 NIL
AAXX 04181 52203 32980 10402 11122 21210 39373 40303 57009 80002 333 05503 11023
AAXX 04181 52418 32980 21401 11161 21225 38913 40323 57015 80002 333 05401 11026
AAXX 04181 52681 32980 03601 11166 21231 38663 40338 57011 333 05752 11056
AAXX 04181 53564 32970 00000 11179 21224 39281 40379 57003 333 05651 11049
AAXX 04181 53614 32980 03402 11123 21166 38962 40332 57013 333 05802 11043
AAXX 04181 53646 32970 01103 11126 21218 38916 40347 57013 333 05705 11063
AAXX 04181 53798 32961 01801 11045 21138 30221 40322 57013 333 10018
AAXX 04181 53845 32965 02701 11123 21187 39158 40352 57009 333 05701 11016
AAXX 04181 53959 32965 02201 11100 21161 39864 40333 57012 333 10014
AAXX 04181 54094 32960 71602 11205 21241 39958 40284 52011 80002 333 11121
AAXX 04181 54102 32980 51602 11191 21223 39058 40350 57002 85030 333 11164
AAXX 04181 54161 32960 02503 11169 21201 39982 40298 52003 333 11102
AAXX 04181 54292 32965 02702 11153 21209 39940 40282 52007 333 11102
AAXX 04181 54374 32962 03601 11221 21250 39829 40336 52006 333 11099
AAXX 04181 54423 32980 00901 11150 21205 39776 40326 57002 333 11034
AAXX 04181 54618 32962 62002 11057 21181 30306 40325 57008 80002 333 10009
AAXX 04181 54843 32966 00000 11092 21146 30308 40338 57008 333 11004
AAXX 04181 54909 32962 01602 11044 21140 30266 40333 57008 333 10027
AAXX 04181 56029 32980 00000 11134 21182 36426 52001 333 00052 11013
AAXX 04181 57127 32960 81801 10020 21007 39665 40294 57014 8807/ 333 10038
AAXX 04181 57131 32968 03201 11055 21122 39817 40338 57009 333 10013
AAXX 04180 44214 32998 03601 11217 21284 38256 40408 54000
AAXX 04180 44231 319// 00000 11260 21313 38749 40472 52009 70400
AAXX 04180 44259 31997 02202 11240 21271 39358 40359 53018 70230
AAXX 04180 44277 329// 02302 11229 21342 37759 40445 57006 333 91109
AAXX 04180 44288 32999 03003 11109 21196 38144 40311 53003
AAXX 04180 44292 319// 02901 11254 21285 38727 40424 52009 70400
AAXX 04180 44304 329// 72302 11238 21270 39034 40381 52013 87070
AAXX 04180 44354 329// 03202 11220 21260 39122 40345 54000
AAXX 04180 44373 32999 00000 11184 21232 38519 40336 58008
AAXX 04181 40706 12960 00000 11042 21080 38689 40297 51009 60001 333 55088 20589
AAXX 04181 40718 12960 00000 10062 20038 30283 40253 51014 60001 333 55086
AAXX 04181 40732 12560 22202 10050 20030 30267 40242 50002 60001 82400 333 55070 82625
AAXX 04181 40745 11340 81302 11043 21044 39082 40285 52011 60011 77172 8672/ 333 55000 20113 86708 88557
AAXX 04181 40754 12960 00000 10026 21087 38850 40239 52006 60001 333 55092
AAXX 04181 40766 12960 00000 10014 21040 38723 40247 51008 60001 333 55080 21285
AAXX 04181 40800 12962 00000 10014 21129 38470 40221 51006 60001 333 55091 2////
AAXX 04181 40811 12960 02804 10134 20058 30159 40187 51008 60001 333 55000 21273
AAXX 04181 40841 12960 03602 10018 21089 38278 40222 52015 60001 333 55096 21554
AAXX 04181 40848 12962 03004 10040 21062 38525 40201 52008 60001 333 55095 21528
AAXX 04181 40856 11915 03505 10056 21111 38657 40187 51021 60001 70600 333 55086 2////
AAXX 04181 40875 11958 03303 10155 20097 30141 40153 52021 60001 70500 333 55086 21402
AAXX 04180 44203 329// 00000 11353 21377 38435 40552 54000
AAXX 04180 44207 329// 00000 11240 21280 38328 40426 52006
AAXX 04180 44212 329// 01803 11374 21401 39203 40523 57012
AAXX 04180 44213 32999 00000 11361 21399 38828 40544 57002
AAXX 04180 44215 32998 00000 11320 21350 38413 40485 52006
AAXX 04180 44218 329// 21601 11298 21328 38614 40458 57001 82040
AAXX 04180 44225 329// 00000 11370 21391 38279 40565 57007
AAXX 04180 44230 329// 03604 11225 21260 38833 40454 52008
AAXX 04180 44232 329// 00000 11304 21333 39173 40462 52011
AAXX 04180 44237 32999 02301 11213 21253 38495 40386 52008
AAXX 04180 44239 329// 03301 11246 21285 38838 40406 53009
AAXX 04180 44241 329// 00000 11319 21343 39337 40460 52014
AAXX 04180 44256 32999 12703 11260 21277 39392 40342 52013 80004
AAXX 04180 44265 329// 70000 11187 21228 38849 40358 56009 87050
AAXX 04180 44272 329// 00000 11213 21261 38189 40338 57005
AAXX 04180 44275 32998 00000 11290 21295 37698 40475 57004
AAXX 04180 44282 32999 02901 11173 21223 38297 40366 52013
AAXX 04180 44284 32999 00000 11275 21301 37827 40514 57007
AAXX 04180 44285 32999 00000 11257 21294 38320 40446 52011
AAXX 04180 44287 32999 00204 11171 21220 38095 40363 57008
AAXX 04180 44294 329// 00407 11178 21216 38567 40372 52004
AAXX 04180 44298 NIL
AAXX 04180 44302 319// 12704 11257 21288 39157 40406 52001 70230 81040
AAXX 04180 44305 32999 62704 11245 21282 39082 40360 52012 86030
AAXX 04180 44313 32999 51803 11248 21280 39417 40349 53006 85070
AAXX 04180 44314 32998 03602 11209 21242 39167 40356 52012
AAXX 04180 44317 32998 03205 11202 21235 38952 40328 53002
AAXX 04180 44336 329// 00101 11205 21234 38685 40380 53001
AAXX 04180 44341 329// 00601 11203 21235 38597 40376 53002
AAXX 04180 44347 32999 00000 11160 21230 38704 40311 58005
AAXX 04180 44352 32999 60000 11163 21197 38931 40312 53002 80008
AAXX 04180 44358 329// 00000 11142 21260 39114 40380 54000
AAXX 04184 64700 32960 33208 10254 20022 39784 40126 80002 333 10305 59012 83075
AAXX 04184 64750 32960 60000 10250 20108 39624 40096 80002 333 10360 58000 86075
AAXX 04181 48826 31596 80202 10090 20084 30103 40245 58002 71022 888// 333 58034 82895 88697
AAXX 04181 48839 11497 80210 10110 20094 30166 40234 58006 69911 70262 888// 222// 00150 2//// 333 58029 8389 4 88696 91116 91502
AAXX 04184 47407 11/20 81708 11056 21076 39820 49997 53001 69901 78588 883//
AAXX 04184 47409 11/65 72917 11019 21066 39854 49908 50000 69901 78522 872//
AAXX 04184 47418 12/70 72717 11027 21105 39876 49926 56006 60001 8707/
AAXX 04184 47421 17/07 /3107 11039 21057 39988 40032 53004 60011 77170
AAXX 04184 47430 12/65 22808 11062 21115 39980 40036 53011 60001 82200
AAXX 04184 47570 17/70 /2811 11016 21063 39842 40109 51008 69951 70070
AAXX 04184 47575 11/20 72717 11025 21050 30048 40053 51010 60051 78582 873//
AAXX 04184 47584 11/50 72806 11032 21057 39874 40069 53012 69901 78581 873//
AAXX 04184 47604 11/60 62915 10021 21042 30114 40123 51010 69951 72781 86200
AAXX 04184 47605 11/60 73006 10009 21004 30133 40176 51015 60021 78582 872//
AAXX 04184 47610 11/60 83101 11029 21039 39628 40149 51011 69951 78588 882//
AAXX 04184 47624 12/75 13109 10006 21074 39976 40119 51012 60001 81200
AAXX 04184 47629 12980 02704 11003 21071 30060 40100 51010 60001
AAXX 04184 47636 12/65 62907 10010 21026 30099 40170 51016 60001 83230
AAXX 04184 47651 13/// /2813 10022 21031 30150 40173 51008 69901
AAXX 04184 47655 15/70 /2818 10022 21041 30089 40148 51017 60001
AAXX 04184 47675 15/70 /2611 10055 21031 30025 40118 51021 60001
AAXX 04184 47741 11/58 82306 10014 20003 30180 40208 53004 60021 78398 883//
AAXX 04184 47746 11/58 82208 10019 21012 30178 40198 53005 69901 78582 883//
AAXX 04184 47750 11/60 21903 10004 21004 30160 40189 50007 60051 78582 82200
AAXX 04184 47765 11/60 70104 10009 21007 30158 40226 51011 60011 70282 87200
AAXX 04184 47772 12/80 22706 10026 21017 30094 40198 53012 60001 82200
AAXX 04184 47800 15/80 /3310 10018 21070 30252 40257 53015 60001
AAXX 04184 47815 12/65 22204 10020 21066 30222 40239 51008 60001 82200
AAXX 04184 47817 12/80 60105 10041 21044 30206 40251 50009 60001 86200
AAXX 04184 47830 12970 03003 11005 21049 30220 40239 50004 60001
AAXX 04184 47887 11/70 33206 10037 21052 30186 40229 51013 69901 70281 81531
AAXX 04184 47891 11/70 72706 10037 21014 30194 40212 52011 69901 72582 872//
AAXX 04184 47895 12/75 22807 10029 21020 30198 40206 53009 60001 82100
AAXX 04184 47927 11/65 80108 10141 20089 30199 40249 58002 69901 72162 888//
AAXX 04184 47401 11/20 83621 10004 21012 39947 49962 52017 60011 78588 883//
AAXX 04184 47412 11/65 83006 11042 21104 39979 40012 50000 69951 72682 8327/
AAXX 04184 47420 15/70 /2617 11038 21090 39864 49898 56008 60001
AAXX 04184 47426 17/70 /2916 11045 21097 39945 49994 53007 69901 70070
AAXX 04184 47582 11/56 82815 11014 21044 30060 40088 51009 69951 78582 883//
AAXX 04184 47590 11/70 32102 11006 21056 30021 40076 51010 69901 70181 83300
AAXX 04184 47600 17/70 /3213 10019 21030 30156 40164 51014 60011 77176
AAXX 04184 47648 12980 02811 10021 21057 30069 40104 51019 60001
AAXX 04184 47662 12980 03005 10035 21113 30071 40116 52015 60001
AAXX 04184 47678 17/70 /2817 10071 21021 39945 40135 51016 69951 72360
AAXX 04184 47740 17/65 /2604 10011 21003 30162 40198 50003 69951 78587
AAXX 04184 47778 15/70 /3011 10038 21037 30108 40194 53012 60001
AAXX 04184 47807 12/70 72405 10044 21048 30230 40249 51011 60001 872//
AAXX 04184 47827 11/70 73405 10040 21022 30206 40246 50007 69901 70281 874//
AAXX 04184 47843 15/82 /3307 10046 21032 30228 40262 50004 60001
AAXX 04184 47893 11/65 50902 10016 21023 30209 40215 52010 69901 70282 85200
AAXX 04184 47909 11/65 72906 10117 20049 30231 40241 53005 69951 72582 878//
AAXX 04184 47918 11/60 80207 10134 20099 30227 40245 58006 69901 70262 8787/
AAXX 04184 47936 11/70 83613 10140 20049 30182 40242 58002 69901 70262 888//
AAXX 04184 47945 11/65 83510 10162 20072 30190 40215 58003 69901 70262 888//
AAXX 04184 47971 11/65 61407 10189 20131 30129 40139 51002 69901 72582 86200
AAXX 04184 47991 16/// /2508 10227 20178 30124 40134 55008 60001
AAXX 04181 48808 11497 80000 10068 20064 39965 40266 58005 69991 76062 888// 333 58011 83894 88696 96160
AAXX 04181 48830 11497 83603 10054 20045 39943 40269 58002 60061 76165 8672/ 333 58020 86894 88499 96161
AAXX 04184 41241 36/// /1506 10212 20083 30117 40155 333 0E024 10266 58019
AAXX 04184 86330 32998 11310 10290 20094 40138 58010 80001
AAXX 04184 86360 32998 11515 10312 20073 40145 56013 80005
AAXX 04184 86460 32998 11308 10300 20092 40153 57011 80005
AAXX 04184 86490 32998 11210 10325 20054 40153 57016 80004
AAXX 04184 86530 32597 11807 10290 20094 40150 57014 81105
AAXX 04184 86545 32997 11514 10284 20132 40165 57008 80005
AAXX 04184 86565 32598 12106 10246 20134 40162 58003 81100
AAXX 04184 86580 32997 01206 10236 20186 40172 58006
AAXX 04184 68383 36/// /0000 10277 20185 39893 48572 52015 333 10358 20276 91000 555 91013
AAXX 04184 40100 12560 10803 10146 20084 30172 40204 51006 60001 81200 918// 333 10192 81826 92427
AAXX 04184 40101 12957 03306 10070 20006 39127 48519 51009 60001 918// 333 10143
AAXX 04184 40103 32560 20000 10125 20081 40213 52007 82100 333 10173 82824 555 10185
AAXX 04184 40102 NIL
AAXX 04184 62010 11230 83413 10128 20109 40230 51015 60162 76266 8275/ OXX29 10143 82705 84620 87633
AAXX 04181 48803 11497 81802 10108 20097 30121 40240 55002 69911 72162 888// 333 58039 85894 88696
AAXX 04184 62010 11230 83413 10128 20109 40230 51015 60162 76266 8275/ OXX29 10143 82705 84620 87633
AAXX 04184 43466 21470 70000 10274 20248 30098 40110 71322 8690/ 333 58005 60007 86818 81920
AAXX 04181 80402 NIL
AAXX 04181 80412 NIL
AAXX 04181 80416 NIL
AAXX 04181 80420 NIL
AAXX 04181 80425 32470 22702 10324 20221 30086 40117 82400 333 30/// 56900 59003 82613 555 10118
AAXX 04181 80426 32570 70502 10271 20202 39496 40139 8553/ 333 30/// 5699/ 58006 85630 555 10171
AAXX 04181 80427 32570 40502 10320 20243 39873 40124 84500 333 30/// 56900 58003 84820 555 10142
AAXX 04181 80431 NIL
AAXX 04181 80434 NIL
AAXX 04181 80437 11470 82502 10264 20251 30035 40122 60021 75022 885// 333 31/// 569// 58015 88613 555 10127
AAXX 04181 80440 32570 31604 10334 20208 39911 40121 83100 333 30/// 56900 58012 83823 555 10131
AAXX 04181 80442 32470 8//// 10324 2//// 30006 4//// 83208 333 30/// 56909 59004 83813 87460 555 10117
AAXX 04181 80472 32465 80903 10333 20229 39642 40115 83208 333 30/// 56209 58008 83816 85275 555 10144
AAXX 04181 80475 11460 80502 10254 20234 39805 40152 60061 70265 887// 333 32/// 569// 59039 88720 555 10190
AAXX 04181 80476 32370 1//// 10324 20252 30104 40134 81500 333 30/// 56900 58004 81610
AAXX 04181 80478 NIL
AAXX 04181 80479 NIL
AAXX 04181 80400 NIL
AAXX 04181 80403 11470 80705 10310 20220 30125 40144 69911 70225 8323/ 333 30/// 5699/ 58006 83813 85356 555 10146
AAXX 04181 80405 NIL
AAXX 04181 80407 NIL
AAXX 04181 80410 32470 30903 10297 20227 39451 40127 83200 333 30/// 56900 58002 83816 555 10164
AAXX 04181 80413 32470 52503 10294 20157 39635 40123 8252/ 333 30/// 56999 59002 82616 555 10153
AAXX 04181 80415 32470 50201 10290 20246 30077 40131 855// 333 30/// 569// 58000 85616 555 10133
AAXX 04181 80419 NIL
AAXX 04181 80421 12364 7//// 10302 20214 30103 40125 69911 8287/ 333 30/// 5699/ 58004 82810 85458 555 10120
AAXX 04181 80423 32470 4//// 10305 20186 30085 40102 83210 333 30/// 56290 58002 83810 555 10101
AAXX 04181 80428 32470 40901 10327 20230 39935 40118 84500 333 30/// 56900 58005 84617 555 10131
AAXX 04181 80432 NIL
AAXX 04181 80435 NIL
AAXX 04181 80438 32570 72306 10250 20165 38527 48524 8451/ 333 30/// 5699/ 59011 84623 83460 555 10211
AAXX 04181 80444 NIL
AAXX 04181 80447 11450 70000 10242 20216 39690 40114 69931 70255 877// 333 31/// 569// 58007 87713 555 10163
AAXX 04181 80448 32570 40504 10313 20211 3//// 4//// 84500 333 30/// 56900 84620
AAXX 04181 80450 32475 81103 10318 20242 30062 40117 85508 333 30/// 56209 59001 85616 555 10114
AAXX 04181 80453 NIL
AAXX 04181 80457 32470 3//// 10341 20148 30020 40104 82508 333 30/// 56909 58000 82613 555 10105
AAXX 04181 80462 NIL
AAXX 04181 40703 12960 00000 11026 21058 38956 40276 52007 60001 333 55086
AAXX 04181 40712 12966 02702 11042 21074 38714 40277 53005 60001 333 55088 21133
AAXX 04181 40729 12960 00603 11060 21112 38363 40295 51006 60001 333 55066 21234
AAXX 04181 40736 12960 20000 10062 20033 30271 40245 58005 60001 82030 333 55078 82360
AAXX 04181 40739 12965 03603 11040 21121 38713 40267 50009 60001 333 55085
AAXX 04181 40743 12665 20000 11028 21071 39112 40278 51004 60001 82500 333 55026 82635
AAXX 04181 40762 12965 13605 11055 21110 38566 40255 52022 60001 81030 333 55007 81359
AAXX 04181 40768 12965 00000 11047 21077 38284 40267 52008 60001 333 55090 21307
AAXX 04181 40769 12960 00000 11010 21104 38321 40253 51002 60001 333 55085 21258
AAXX 04181 40785 12960 00000 10022 21089 39119 40243 51004 60001 333 55088
AAXX 04181 40809 12660 10000 11050 21087 38528 40260 51007 60001 81400 333 55040 20794
AAXX 04181 40821 12960 02402 10018 21143 38828 40262 50000 60001 333 55093 21308
AAXX 04181 40831 12960 02803 10102 20043 30194 40202 50014 60001 333 55087
AAXX 04181 40703 12960 00000 11026 21058 38956 40276 52007 60001 333 55086
AAXX 04181 40712 12966 02702 11042 21074 38714 40277 53005 60001 333 55088 21133
AAXX 04181 40729 12960 00603 11060 21112 38363 40295 51006 60001 333 55066 21234
AAXX 04181 40736 12960 20000 10062 20033 30271 40245 58005 60001 82030 333 55078 82360
AAXX 04181 40739 12965 03603 11040 21121 38713 40267 50009 60001 333 55085
AAXX 04181 40743 12665 20000 11028 21071 39112 40278 51004 60001 82500 333 55026 82635
AAXX 04181 40762 12965 13605 11055 21110 38566 40255 52022 60001 81030 333 55007 81359
AAXX 04181 40768 12965 00000 11047 21077 38284 40267 52008 60001 333 55090 21307
AAXX 04181 40769 12960 00000 11010 21104 38321 40253 51002 60001 333 55085 21258
AAXX 04181 40785 12960 00000 10022 21089 39119 40243 51004 60001 333 55088
AAXX 04181 40809 12660 10000 11050 21087 38528 40260 51007 60001 81400 333 55040 20794
AAXX 04181 40821 12960 02402 10018 21143 38828 40262 50000 60001 333 55093 21308
AAXX 04181 40831 12960 02803 10102 20043 30194 40202 50014 60001 333 55087
AAXX 04184 64500 32460 42408 10275 20239 30084 40097 82502 333 10286 59002 82610 83073
AAXX 04184 CHECK TEXT NEW ENDING ADDED GOOOYFYX
AAXX 04181 28676 126// 61501 11218 21247 30061 40199 52007 69900 82570 333 11179
AAXX 04181 28766 329// 32402 11245 21275 30003 40212 52013 80001 333 11218
AAXX 04181 28867 32998 00000 11243 21282 39930 40229 52008 333 11211
AAXX 04181 28879 329// 02404 11196 21225 39909 40220 52011 333 11120
AAXX 04181 28952 129// 03201 11233 21258 30022 40232 52010 69900 333 11162
AAXX 04181 28966 329// 61802 11220 21238 39926 40235 52010 86050 333 11192
AAXX 04181 29802 325// 81302 11113 21136 30059 40208 53001 885// 333 11144
AAXX 04181 29807 325// 81801 11090 21119 30086 40209 52001 885// 333 11099
AAXX 04181 34691 31996 81803 11032 21052 30228 40215 53003 77172 8802/ 333 11040
AAXX 04181 35067 329// 41201 11224 21248 39944 40246 52010 84030 333 11170
AAXX 04181 35078 NIL
AAXX 04181 35085 329// 02404 11174 21192 39727 40235 52008 333 11106
AAXX 04181 35108 125// 82102 11099 21121 30171 40219 52002 69900 885// 333 11074
AAXX 04181 35188 125// 81702 11125 21154 39788 40244 52010 69900 885// 333 11073 88630
AAXX 04181 35217 115// 72002 11090 21106 30193 40234 53013 69940 70172 87500 333 11082
AAXX 04181 35229 115// 80000 11112 21124 39966 40253 52006 69930 77171 885// 333 11078
AAXX 04181 35302 129// 52001 11135 21155 30204 40224 52004 69940 85050 333 11086
AAXX 04181 35357 125// 80000 11090 21115 39786 40236 52007 69920 885// 333 11065
AAXX 04181 35394 11997 62102 11067 21079 39543 40237 52004 69930 77172 86010 333 11045
AAXX 04181 35406 115// 82303 11051 21072 30235 40237 52011 69930 77172 8802/ 333 11043
AAXX 04181 35416 115// 82404 11041 21083 30131 40255 52008 69920 73673 886// 333 11045
AAXX 04181 35426 129// 82502 11054 21068 39959 40260 51008 69940 8802/ 333 11043
AAXX 04181 35497 329// 00000 11079 21118 39421 40242 52002 333 11041
AAXX 04181 35532 12498 83003 11070 21108 39758 40261 52011 60030 8802/ 333 11046
AAXX 04181 35671 12598 83502 11073 21098 39802 40245 52007 69930 885// 333 11050
AAXX 04181 35700 12998 01904 11030 21072 30275 40251 52004 69900 333 11012
AAXX 04181 35746 125// 73003 11050 21057 30202 40271 52010 69900 87500 333 11041
AAXX 04181 35796 32997 00405 11152 21186 39806 40268 52004 333 11092
AAXX 04181 35849 32598 70000 11060 21075 30187 40276 52009 87500 333 11036
AAXX 04181 35925 329// 70000 11124 21137 40288 52009 71022 87010 333 11024
AAXX 04181 35953 325// 82602 11096 21117 30133 40269 52012 885// 333 11060
AAXX 04181 35969 129// 83402 11073 21094 30071 40250 52002 60020 8807/ 333 11036
AAXX 04181 36003 11197 81902 11125 21146 30062 40221 53002 69900 77072 8807/ 333 11101
AAXX 04181 36152 329// 51402 11172 21206 30038 40239 52003 85030 333 11093
AAXX 04181 36177 329// 31002 11086 21151 39997 40252 52002 82031 333 11047
AAXX 04181 36208 NIL
AAXX 04181 36397 329// 51616 11094 21156 39664 40245 58003 83011 333 11054 91020 91120
AAXX 04181 36428 NIL
AAXX 04181 36535 329// 00000 11240 21280 39639 40335 52001 333 11130
AAXX 04181 36639 329// 20000 11171 21202 39620 40265 52001 80001 333 11050
AAXX 04181 36821 319// 00000 11118 21130 39730 40243 52002 71000 333 11016
AAXX 04181 36859 329// 00301 11096 21121 39430 40242 52002 333 10013
AAXX 04181 36864 329// 20000 11098 21110 39311 40241 52003 80001 333 10033
AAXX 04181 36870 329// 00000 11040 21065 39183 40213 52002 333 10038
AAXX 04181 38001 32597 30505 11009 21041 30286 40256 54000 83500 333 10006
AAXX 04181 38062 325// 80203 11080 21116 30085 40255 52006 885// 333 11040
AAXX 04181 38069 129// 63004 11063 21082 30037 40236 52006 69940 80007 333 11032
AAXX 04181 38196 32998 53402 10012 21029 39213 40192 51003 80002 333 10055
AAXX 04181 38198 329// 82705 11041 21050 39947 40213 52008 80007 333 10030
AAXX 04181 38222 32997 00000 11088 21116 39640 40221 52011 333 10022
AAXX 04181 38232 32998 13202 11055 21070 30169 40272 52007 81080 333 10024
AAXX 04181 38328 31/// 92401 11015 21015 39469 40209 52014 74541 333 10095
AAXX 04181 38334 32997 60901 11010 21035 39228 40200 52008 83032 333 10058
AAXX 04181 38341 31995 80000 11013 21019 39418 40214 52009 71022 8807/ 333 10053
AAXX 04181 38343 32697 73202 11018 21049 39350 40204 52007 82530 333 10028
AAXX 04181 38439 31/92 93101 11002 21002 39869 40213 52013 74744 333 10037
AAXX 04181 28676 126// 61501 11218 21247 30061 40199 52007 69900 82570 333 11179
AAXX 04181 28766 329// 32402 11245 21275 30003 40212 52013 80001 333 11218
AAXX 04181 28867 32998 00000 11243 21282 39930 40229 52008 333 11211
AAXX 04181 28879 329// 02404 11196 21225 39909 40220 52011 333 11120
AAXX 04181 28952 129// 03201 11233 21258 30022 40232 52010 69900 333 11162
AAXX 04181 28966 329// 61802 11220 21238 39926 40235 52010 86050 333 11192
AAXX 04181 29802 325// 81302 11113 21136 30059 40208 53001 885// 333 11144
AAXX 04181 29807 325// 81801 11090 21119 30086 40209 52001 885// 333 11099
AAXX 04181 34691 31996 81803 11032 21052 30228 40215 53003 77172 8802/ 333 11040
AAXX 04181 35067 329// 41201 11224 21248 39944 40246 52010 84030 333 11170
AAXX 04181 35078 NIL
AAXX 04181 35085 329// 02404 11174 21192 39727 40235 52008 333 11106
AAXX 04181 35108 125// 82102 11099 21121 30171 40219 52002 69900 885// 333 11074
AAXX 04181 35188 125// 81702 11125 21154 39788 40244 52010 69900 885// 333 11073 88630
AAXX 04181 35217 115// 72002 11090 21106 30193 40234 53013 69940 70172 87500 333 11082
AAXX 04181 35229 115// 80000 11112 21124 39966 40253 52006 69930 77171 885// 333 11078
AAXX 04181 35302 129// 52001 11135 21155 30204 40224 52004 69940 85050 333 11086
AAXX 04181 35357 125// 80000 11090 21115 39786 40236 52007 69920 885// 333 11065
AAXX 04181 35394 11997 62102 11067 21079 39543 40237 52004 69930 77172 86010 333 11045
AAXX 04181 35406 115// 82303 11051 21072 30235 40237 52011 69930 77172 8802/ 333 11043
AAXX 04181 35416 115// 82404 11041 21083 30131 40255 52008 69920 73673 886// 333 11045
AAXX 04181 35426 129// 82502 11054 21068 39959 40260 51008 69940 8802/ 333 11043
AAXX 04181 35497 329// 00000 11079 21118 39421 40242 52002 333 11041
AAXX 04181 35532 12498 83003 11070 21108 39758 40261 52011 60030 8802/ 333 11046
AAXX 04181 35671 12598 83502 11073 21098 39802 40245 52007 69930 885// 333 11050
AAXX 04181 35700 12998 01904 11030 21072 30275 40251 52004 69900 333 11012
AAXX 04181 35746 125// 73003 11050 21057 30202 40271 52010 69900 87500 333 11041
AAXX 04181 35796 32997 00405 11152 21186 39806 40268 52004 333 11092
AAXX 04181 35849 32598 70000 11060 21075 30187 40276 52009 87500 333 11036
AAXX 04181 35925 329// 70000 11124 21137 40288 52009 71022 87010 333 11024
AAXX 04181 35953 325// 82602 11096 21117 30133 40269 52012 885// 333 11060
AAXX 04181 35969 129// 83402 11073 21094 30071 40250 52002 60020 8807/ 333 11036
AAXX 04181 36003 11197 81902 11125 21146 30062 40221 53002 69900 77072 8807/ 333 11101
AAXX 04181 36152 329// 51402 11172 21206 30038 40239 52003 85030 333 11093
AAXX 04181 36177 329// 31002 11086 21151 39997 40252 52002 82031 333 11047
AAXX 04181 36208 NIL
AAXX 04181 36397 329// 51616 11094 21156 39664 40245 58003 83011 333 11054 91020 91120
AAXX 04181 36428 NIL
AAXX 04181 36535 329// 00000 11240 21280 39639 40335 52001 333 11130
AAXX 04181 36639 329// 20000 11171 21202 39620 40265 52001 80001 333 11050
AAXX 04181 36821 319// 00000 11118 21130 39730 40243 52002 71000 333 11016
AAXX 04181 36859 329// 00301 11096 21121 39430 40242 52002 333 10013
AAXX 04181 36864 329// 20000 11098 21110 39311 40241 52003 80001 333 10033
AAXX 04181 36870 329// 00000 11040 21065 39183 40213 52002 333 10038
AAXX 04181 38001 32597 30505 11009 21041 30286 40256 54000 83500 333 10006
AAXX 04181 38062 325// 80203 11080 21116 30085 40255 52006 885// 333 11040
AAXX 04181 38069 129// 63004 11063 21082 30037 40236 52006 69940 80007 333 11032
AAXX 04181 38196 32998 53402 10012 21029 39213 40192 51003 80002 333 10055
AAXX 04181 38198 329// 82705 11041 21050 39947 40213 52008 80007 333 10030
AAXX 04181 38222 32997 00000 11088 21116 39640 40221 52011 333 10022
AAXX 04181 38232 32998 13202 11055 21070 30169 40272 52007 81080 333 10024
AAXX 04181 38328 31/// 92401 11015 21015 39469 40209 52014 74541 333 10095
AAXX 04181 38334 32997 60901 11010 21035 39228 40200 52008 83032 333 10058
AAXX 04181 38341 31995 80000 11013 21019 39418 40214 52009 71022 8807/ 333 10053
AAXX 04181 38343 32697 73202 11018 21049 39350 40204 52007 82530 333 10028
AAXX 04181 38439 31/92 93101 11002 21002 39869 40213 52013 74744 333 10037
AAXX 04183 64800 NIL
AAXX 04183 64820 NIL
AAXX 04183 64860 31930 70000 10274 20088 39831 40102 70522 80002 333 10332 59012 87080
AAXX 04183 64861 NIL
AAXX 04183 64870 NIL
AAXX 04183 64871 NIL
AAXX 04183 64892 NIL
AAXX 04183 64893 NIL
AAXX 04183 64894 NIL
AAXX 04183 64910 NIL
AAXX 04183 64911 NIL
AAXX 04183 64950 NIL
AAXX 04184 91376 32474 80610 10274 20240 30095 40098 53005 83871 333 56119 70066 555 90418
AAXX 04181 40716 12962 00000 11008 21058 38954 40273 52014 60001 333 55093
AAXX 04181 40719 12960 00000 10040 20020 30262 40251 58001 60001 333 55087
AAXX 04181 40721 12960 01003 11008 21027 39710 40283 56002 60001 333 55025
AAXX 04181 40858 12960 03603 10156 20098 30170 40181 51011 60001 333 55095
AAXX 04181 40872 11958 03107 10158 20063 30157 40162 53011 60001 70700 222// 00/// 20302 333 55094
AAXX 04181 40877 12960 00000 10180 20001 39587 40125 52030 60001 333 55090
AAXX 04181 40898 11958 02906 10232 20160 30118 40127 52018 60001 70500 222// 00233 10501 333 55087
BBXX KEY796 04183 99571 71703 41/97 80120 11133 21150 49987 52/// 771// 8//// 222// 01017 2//// 3//// 4//// 5//// 6//// 8//// ICE /////
BBXX WE4805 04184 99470 70915 41/99 92420 11022 2//// 40142 54000 70202 88461 22201 00028 20601 3//// 4//// 5//// 6//// 8//// ICE /////
BBXX WXJ63 04183 99611 71464 41/93 90512 11068 21079 49797 57/// 773// 8//// 222// 00050 2//// 3//// 4//// 5//// 6//// 8//// ICE /////
BBXX WDF2728 04184 99275 70829 41998 00409 10117 2101/ 40290 57010 7//00 80/// 22223 0//// 20301 303// 40702 5//// 6//// 80061 ICE /////
BBXX V7HD2 04184 99311 30310 41397 71202 10260 2023/ 40120 54000 7//22 876// 22212 00255 20100 312// 41103 5//// 6//// 80240 ICE /////
AAXX 04184 87022 32660 41606 10340 20135 39580 40074 57019 83104 333 56305 83835
AAXX 04184 87046 32665 50506 10324 20104 39105 48507 57019 81108 333 56009 81835 85270
AAXX 04184 87047 31462 50507 10279 20153 38800 48522 57015 70522 82233 333 56100 57893 82817
AAXX 04184 87097 32570 21808 10354 20114 39798 40101 57019 82100 333 56600 82830
AAXX 04184 87121 32665 72304 10326 20166 39600 40095 56015 81106 333 56806 81840 87270
AAXX 04184 87129 32965 50905 10367 20113 39884 40107 57021 80005 333 85270
AAXX 04184 87155 31560 71410 10373 20152 30054 40113 57016 70422 81106 333 56706 81830 87270
AAXX 04184 87162 32570 71609 10369 20150 30037 40105 57017 81108 333 56306 81830 86270
AAXX 04184 87166 32560 51410 10360 20134 30042 40113 57016 81106 333 56207 81830 85270
AAXX 04184 87178 32570 32009 10355 20118 39964 40105 57015 82101 333 56006 82830 83070
AAXX 04184 87217 32970 41411 10388 20151 39594 40061 57024 80002 333 56005 84070
AAXX 04184 87222 32770 60221 10365 20092 39565 40059 58013 82173 333 56066 82850 84360
AAXX 04184 87257 32665 51109 10361 20149 30024 40123 56009 82208 333 56067 82845 85270
AAXX 04184 87270 32965 31415 10332 20113 30074 40136 57011 80006 333 56006 83270
AAXX 04184 87289 32562 21616 10305 20142 30056 40136 57009 81105 333 56307 81820
AAXX 04184 87311 32765 41418 10330 20139 39434 40080 57016 82370 333 56000 57990 82950 84360
AAXX 04184 87320 32970 30718 10368 20129 39584 40088 57016 81032 333 56057 81367 82070
AAXX 04184 87328 32680 61805 10372 20073 39472 40089 57019 83870 333 56060 82640 83360 95000
AAXX 04184 65001 31925 72703 10285 2015
AAXX 04180 44210 32999 00000 11265 21283 38539 51010
AAXX 04180 44216 32999 03202 11381 21403 39043 40505 57009
AAXX 04180 44217 32998 20000 11262 21294 37812 40438 57010 80001
AAXX 04180 44219 329// 00000 11336 21359 38628 40499 57004
AAXX 04180 44221 329// 00000 11372 21392 38603 40527 57002
AAXX 04180 44224 329// 00000 11327 21357 38029 40508 58004
AAXX 04180 44229 32999 02301 11274 21304 37904 40446 56004
AAXX 04180 44242 329// 01102 11318 21350 39408 40461 52012
AAXX 04180 44243 329// 00000 11358 21398 39508 40483 53011
AAXX 04180 44254 329// 01803 11273 21298 39078 40391 51016
AAXX 04180 44257 329// 01601 11248 21274 39013 40414 53012
AAXX 04180 44263 32998 20000 11276 21321 38048 40502 57003 80004
AAXX 04180 44266 329// 03603 11168 21259 37711 40293 57012
AAXX 04180 44286 329// 01801 11251 21279 38664 40418 52010
AAXX 04180 44291 319// 01402 11294 21323 38764 40474 52010 70400
AAXX 04180 44325 329// 00503 11260 21291 38804 40426 57001
AAXX 04180 44329 32998 02305 11162 21340 37737 40337 57014
AAXX 04180 44338 32999 03406 11082 21210 38453 40246 57004
AAXX 04180 44348 329// 00000 11148 21175 38685 40292 56007
AAXX 04180 44374 32999 01803 11167 21301 38249 40378 58006
AAXX 04180 44385 32999 02305 11106 21215 38916 40288 56006
AAXX 04180 44386 329// 00000 11173 21223 39061 40321 57005
AAXX 04183 87007 32570 50708 10190 21026 36746 47149 57020 82244 333 56255 57358 82828 85070
AAXX 04183 87148 32570 60905 10376 20159 39994 40100 57019 82276 333 56010 57800 82830 83360 86270
AAXX 04184 70133 32264 41004 11367 30038 40044 91753 333 11356 21372 555 90418
AAXX 04184 70174 11766 81503 11317 21350 39752 40019 56021 69901 771// 91753 333 11306 21439 4/074 555 90418
AAXX 04184 70200 32966 40000 11356 30032 40037 58012 91753 333 11356 21389 555 90418
AAXX 04184 70219 32966 00211 11361 39955 40017 56016 91753 333 11356 21367 555 90418
AAXX 04184 70231 11528 80000 11417 39891 40036 56008 69901 771// 91753 333 11417 21483 4/097 96010 555 90418
AAXX 04184 70261 31756 80000 11333 21367 39811 49997 56009 710// 91753 333 11333 21417 555 90418
AAXX 04184 70267 11664 80000 11300 21328 39469 40005 56012 69901 771// 91753 333 11300 21350 555 90418
AAXX 04184 70271 11558 80000 11211 21233 39283 49907 56018 60011 771// 91753 333 11211 21233 96010 555 90418
AAXX 04184 70273 32966 61505 11194 21217 39825 49887 55002 91753 333 11167 21228 4/069 555 90418
AAXX 04184 70316 12666 82314 11033 21061 39844 49881 58016 60061 91753 333 11011 21128 555 90418
AAXX 04184 70326 32266 40503 11333 21367 39971 49985 58009 91754 333 11283 21344 555 90418
AAXX 04184 70340 32966 03413 11278 21328 39911 49980 55003 91753 333 11250 21283 555 90418
AAXX 04184 70350 32966 62716 11067 21150 39868 49908 53017 91753 333 11061 21083 91023 555 90418
AAXX 04184 70361 11666 80000 10011 21006 39782 49792 53002 69901 761// 91753 333 10022 21088 555 90418
AAXX 04184 70381 11316 80000 10000 20000 39821 49831 53050 60041 771// 91753 333 10022 21027 4/013 96010 555 90418
AAXX 04184 70414 35966 03310 11050 21089 39991 40029 56014 91756 333 11039 21067 555 90418
AAXX 04184 78526 32666 40106 10278 20211 30139 40161 58026 91756 333 10283 20239 555 90418
AAXX 04184 78543 32566 83312 10230 20220 30078 91802 555 90418
AAXX 04181 30372 42999 80000 11337 21359 39435 40433 52013 83046
AAXX 04181 30433 42999 02401 11172 21206 39734 40373 52007
AAXX 04181 30554 429// 00000 11365 21382 39200 40456 52010
AAXX 04181 30635 429// 01302 11240 21252 39768 40402 52017
AAXX 04181 30673 42999 00000 11315 21321 39510 40382 52014
AAXX 04181 30692 42998 00202 11333 21350 39775 40341 52///
AAXX 04181 30758 41961 00000 11327 21358 48482 40424 52017 70411
AAXX 04181 30802 42999 03201 11270 21276 38747 48512 51001
AAXX 04181 30823 42999 02702 11268 21293 39690 40402 52010
AAXX 04181 30879 41996 70000 11242 21267 39494 40329 52008 77177 8707/
AAXX 04181 30935 42999 60000 11282 21307 39376 40430 52016 80002
AAXX 04181 30949 42999 00000 11208 21227 39168 40353 52005
AAXX 04181 30965 419// 01302 11348 21365 39444 40395 53019 70271
AAXX 04181 31168 42999 60502 11187 21220 30217 40229 53010 80001
AAXX 04181 31300 41907 00000 11278 21291 39961 40285 52006 74840
AAXX 04181 31329 42999 80000 11311 21334 39538 40291 53005 80007
AAXX 04181 31369 41496 83307 11120 21140 30091 40179 53012 78582 8696/ 333 86915
AAXX 04181 31416 41998 83504 11141 21147 30119 40213 53010 77172 8802/
AAXX 04181 31484 41996 80000 11194 21206 39866 40228 53011 77372 8802/
AAXX 04181 31512 429// 02702 11241 21274 30086 40270 52006
AAXX 04181 31538 42998 80000 11249 21268 39765 40241 53003 80007
AAXX 04181 31707 42998 03203 11177 21217 30127 40225 52010
AAXX 04181 31735 41995 80000 11196 21219 30102 40197 52012 77172 85037
AAXX 04181 31770 41510 83404 11081 21099 30041 40072 52017 78682 889//
BBXX 41037 04181 99340 70775 46/// /3003 10041 40230 58028 91800 22200 00188 333 91204
BBXX 41008 04181 99314 70809 46/// /2803 10050 21034 40294 57023 91750 22200 00147 10901 20401 300// 40901 70005 333 91204 555 11027 22027 31740 42905 61749 282028 293030 293032 285027 313015 331012
AAXX 04181 26499 11397 82005 10014 20003 39768 49995 57011 69972 75075 886// 333 10021 88707
AAXX 04184 91165 12466 80409 10228 20194 30199 40234 52014 69931 91753 333 10228 20178 555 90418
AAXX 04184 91182 32561 62703 10231 20189 30222 40227 53018 91753 555 90418
AAXX 04184 91190 32566 20804 10222 20172 30208 40229 53014 91754 333 10244 20211 555 90418
AAXX 04184 91212 32966 00505 10250 20228 31379 40114 56015 91754 333 10289 20239 555 90418
AAXX 04184 91285 32566 42406 10189 20150 30222 40235 53019 91753 333 10228 555 90418
AAXX 04184 91413 11469 89905 10253 20233 30090 40115 57005 69931 70282 84878 333 56999 70020 555 90418
AAXX 04181 22028 32682 11705 11156 21183 39953 49993 57029 81500 333 11117 91006 91111
AAXX 04181 22106 11598 70402 11145 21172 39886 49968 57024 69932 72682 87900 333 11114 91005
AAXX 04181 22127 32698 70702 11156 21175 39769 49980 57027 83530 333 11143 91004
AAXX 04181 22324 11459 80601 11107 21127 39900 49951 57024 69992 78582 889// 333 11095 91003
AAXX 04181 22621 12275 81203 11041 21046 39772 49912 57022 69932 886// 333 11038 88706
AAXX 04181 22831 11996 81002 11043 21049 39855 49916 57035 69972 77172 8802/ 333 11042
AAXX 04181 22892 11497 81710 10019 20011 39780 49796 58043 60062 78082 883// 333 10022 87713 91012 91114
AAXX 04181 26275 11498 32005 10027 20003 39881 49911 57024 60012 70176 83500 333 10034
AAXX 04181 26389 11496 82103 10014 20003 39699 49960 57011 60022 71082 886// 333 10015
AAXX 04181 26499 NIL
AAXX 04181 26695 11296 82205 10016 20013 39720 40027 57013 69982 75176 886// 333 10017 88704
AAXX 04181 26882 11350 82105 10020 20015 39768 40043 57011 69942 75165 886// 333 10020 88707
AAXX 04184 91245 32566 21106 10250 20230 30140 91750 555 90418
AAXX 04181 38598 426// 80000 10020 21014 40202 52008 83533
AAXX 04181 38599 NIL
AAXX 04181 38725 429// 70000 11032 21056 48450 51003 80002
AAXX 04181 38734 415// 80902 11062 21077 47990 52006 70182 85903
AAXX 04181 38744 416// 80000 11082 21096 37979 48510 51002 77172 8492/
AAXX 04181 38836 NIL
AAXX 04181 38838 415// 82303 10043 20020 39532 40209 52028 70282 889//
AAXX 04181 38844 41/// 92702 11034 21034 48520 52003 78584 333 96045
AAXX 04181 38846 414// 80403 11004 21004 38475 48450 52005 77177 8872/
AAXX 04181 38847 NIL
AAXX 04181 38932 NIL
AAXX 04181 38933 127// 81802 10062 20036 39686 40203 52005 69900 885// 333 10088
AAXX 04181 38944 115// 80202 10052 20045 39560 40095 52004 60010 70282 889// 333 10105
AAXX 04181 38954 112// 80000 11037 21042 37897 48490 51001 77071 8802/ 333 11004 69950
AAXX 04181 38598 426// 80000 10020 21014 40202 52008 83533
AAXX 04181 38599 NIL
AAXX 04181 38725 429// 70000 11032 21056 48450 51003 80002
AAXX 04181 38734 415// 80902 11062 21077 47990 52006 70182 85903
AAXX 04181 38744 416// 80000 11082 21096 37979 48510 51002 77172 8492/
AAXX 04181 38836 NIL
AAXX 04181 38838 415// 82303 10043 20020 39532 40209 52028 70282 889//
AAXX 04181 38844 41/// 92702 11034 21034 48520 52003 78584 333 96045
AAXX 04181 38846 414// 80403 11004 21004 38475 48450 52005 77177 8872/
AAXX 04181 38847 NIL
AAXX 04181 38932 NIL
AAXX 04181 38933 127// 81802 10062 20036 39686 40203 52005 69900 885// 333 10088
AAXX 04181 38944 115// 80202 10052 20045 39560 40095 52004 60010 70282 889// 333 10105
AAXX 04181 38954 112// 80000 11037 21042 37897 48490 51001 77071 8802/ 333 11004 69950
AAXX 04181 20107 11497 71207 11014 21070 39962 40057 53010 69902 78583 87900 333 11001 91010 91112
AAXX 04181 22003 NIL
AAXX 04181 22004 NIL
AAXX 04181 22100 NIL
AAXX 04181 22140 NIL
AAXX 04181 22113 32982 20702 11164 21183 39917 49984 57024 80001 333 11103 91003
AAXX 04181 22212 11560 83202 11135 21148 39802 49973 57022 69902 78582 8695/ 333 11117 85920 91003
AAXX 04181 22213 NIL
AAXX 04181 22217 11339 80502 11114 21134 39919 49952 58026 60012 78582 889// 333 11085 86708 91004
AAXX 04181 22235 11665 70902 11130 21143 39773 49975 57023 69942 78582 84901 333 11127 91004
AAXX 04181 22249 11976 80501 11123 21136 39786 49981 57031 69952 77187 8802/ 333 11122 91002
AAXX 04181 22312 11462 80804 11090 21106 39923 49946 57023 69992 78583 889// 333 11077 91008 91110
AAXX 04181 22334 11466 80707 11082 21101 39937 49944 57025 69962 78583 889// 333 11075 91008 91110
AAXX 04181 22349 11596 81204 11061 21072 39954 49966 57025 60022 78583 889// 333 11057 91005 91110
AAXX 04181 22408 32382 80902 11050 21060 39744 49894 57031 886// 333 11050 88709
AAXX 04181 22602 11358 81104 11032 21036 39636 49860 57033 69902 77172 885// 333 11032 88608
AAXX 04181 22619 11458 81308 11024 21030 39719 49878 57035 69922 77173 8802/ 333 11019 88510 91013 91113
AAXX 04181 22721 11/93 91102 11037 21039 39790 49891 57037 60032 77572 333 11012
AAXX 04181 22802 11450 81404 10013 20010 39812 49835 57035 60062 78082 889// 333 10013 93700
AAXX 04181 22820 11340 81504 11028 21035 39739 49877 57036 60022 77172 885// 333 11021 88607
AAXX 04181 26059 11597 81904 10032 20006 39801 49825 58031 60022 72522 889// 333 10037 86624 91113
AAXX 04181 26063 11497 81702 10027 20006 39834 49841 57032 69992 70272 885// 333 10027 88616
AAXX 04181 26094 11470 81804 10009 20004 39827 49902 57018 60012 70272 886// 333 10009 88714
AAXX 04181 26157 12597 71910 10036 21001 39779 49827 57030 60022 87500 333 10036 87630 91116
AAXX 04181 26167 11470 81804 10024 20003 39764 49873 58023 70262 886// 333 10026 88713
AAXX 04181 26258 12998 52004 10026 21007 39826 49880 57019 60012 85030 333 10028 91111
AAXX 04181 26298 11496 82003 10008 20003 39726 49955 57012 60022 77772 886// 333 10008
AAXX 04181 26359 11977 32004 10025 21008 39793 49925 57016 60022 70281 83060 333 10028 91111
AAXX 04181 26702 11497 72505 10057 21003 39949 49975 53010 69902 70282 87500 333 10070 91011 91115
AAXX 04181 26781 11296 82104 10019 20016 39727 40017 58008 60012 71062 8802/ 333 10020 88504
AAXX 04181 27208 11496 82003 10008 20000 39786 49962 57016 60012 77173 8802/ 333 10012 92980
AAXX 04181 27402 11397 81903 10013 20008 39811 49990 57016 69952 70272 886// 333 10013 88707
BBXX 46111 04181 99481 71227 46/// /1810 10105 40166 53024 91800 22200 00050
AAXX 04181 22271 31496 81102 11129 21149 39994 40005 57026 77172 8572/ 333 11185
AAXX 04181 22520 11495 81206 11026 21042 39902 49911 57026 69922 77173 8802/ 333 11023 88512
AAXX 04181 22550 11365 81702 11068 21092 39956 49966 57022 60030 70272 886// 333 11065 88707
AAXX 04181 22583 11957 81402 11087 21098 39945 40028 57022 60010 77177 8807/ 333 11080
AAXX 04181 22768 12497 81503 11049 21066 39933 49989 58022 69960 885// 333 11056 88613
AAXX 04181 22845 11496 81503 11044 21053 39794 49952 57029 69950 77172 8672/ 333 11043 86716
AAXX 04181 22887 11597 71604 11064 21080 39962 40033 57012 60030 70272 875// 333 11062 88623 91106
AAXX 04181 23205 NIL
AAXX 04181 23219 32998 30000 11216 21234 30047 40163 57013 80001 333 11137
AAXX 04181 23418 32965 81403 11175 21194 30061 40140 57015 80001 333 11160
AAXX 04181 23606 11460 81204 11169 21188 39933 40118 57020 69920 70272 8452/ 333 11119 84616
AAXX 04181 23711 11998 61201 11188 21214 39970 40157 57013 69920 70272 80008 333 11173
AAXX 04181 23804 11997 81703 11081 21095 39921 40073 57007 69980 77172 8802/ 333 11088
AAXX 04181 27037 11497 81604 11035 21046 39824 49986 57030 69920 77172 8672/ 333 11037 86712
AAXX 04181 27199 11498 81902 11081 21095 39894 40098 58008 60020 77173 8671/ 333 11068
AAXX 04181 27271 11497 71303 11052 21066 39910 40068 58006 60040 70272 87500 333 11047
AAXX 04181 27459 11298 82201 11036 21047 39886 40085 58013 69970 70272 886// 333 11040 88706
AAXX 04181 27730 31497 82005 10005 21014 39883 40078 57017 77172 8802/ 333 10002 88512
AAXX 04181 26997 31424 82105 10021 20018 39861 40081 57014 71022 886// 333 10023 88710
AAXX 04181 27595 11497 81701 11081 21090 39984 40134 55002 60020 70272 8860/ 333 11085 88712
AAXX 04181 27612 113// 82001 10016 20005 39831 40023 57018 69962 71072 887// 333 10016
AAXX 04181 27707 31445 82506 10012 20007 39760 40053 57011 71022 886// 333 10012 88714
AAXX 04181 27719 32597 81805 10015 21001 39826 40077 57008 885// 333 10015
AAXX 04181 27786 11496 81906 11070 21087 39985 40151 52006 60010 71072 885// 333 11073 88616
AAXX 04181 27857 12497 82204 11002 21014 39963 40127 58008 60050 883// 333 11013 88919
AAXX 04181 27906 32597 81606 10014 20003 39849 40091 57009 8552/ 333 10018
AAXX 04181 27928 32597 82104 10013 21004 39904 40112 58016 8455/ 333 10024
AAXX 04181 27947 11697 72005 11001 21037 39978 40140 54000 69940 70162 84530 333 10012
AAXX 04181 27962 11497 82204 11022 21034 40154 53003 60030 70272 885// 333 11028 88614
AAXX 04181 27983 11467 81802 11070 21083 30037 40171 52007 60040 70272 886// 333 11070 88718
AAXX 04181 27995 11470 81903 11077 21091 40183 54000 60020 70272 8802/ 333 88514
AAXX 04181 28506 11996 81802 11093 21114 30042 40160 57002 69930 77172 8801/ 333 11065
AAXX 04181 28704 31498 81906 11097 21114 30065 40164 57002 73673 8802/ 333 11099 88516
AAXX 04181 28711 12397 81803 11133 21145 39790 40187 57004 69920 85631 333 11087 88707
AAXX 04181 28807 11497 81902 11090 21110 30134 40188 58003 69970 72272 885// 333 11101 88614
AAXX 04181 34009 31294 82005 10009 20004 39808 40115 57013 71022 886// 333 10015
AAXX 04181 34110 32897 82305 10006 21005 39863 40144 58010 8805/ 333 10017
AAXX 04181 34123 32997 72103 10014 21011 39958 40143 58009 87030 333 10023
AAXX 04181 34152 11270 81902 11003 21006 39968 40167 58001 60020 70272 886// 333 11002 88706
AAXX 04181 34163 11495 82202 11021 21024 40176 52006 60020 71022 885// 333 11034 88620
AAXX 04181 34171 11340 81903 11036 21044 39977 40175 52009 69980 71073 886// 333 10052 88708
AAXX 04181 34186 11368 82004 11081 21091 30053 40198 52007 69980 70272 8872/ 333 11078 88709
AAXX 04181 34247 12564 72302 10010 21013 30067 40183 52004 69900 87500 333 10018 87622
AAXX 04181 34336 32998 72202 10013 21009 30087 40192 52007 87070 333 10020
AAXX 04181 34391 11496 81805 11070 21079 30170 40202 54000 69900 77177 887// 333 11096 88517
AAXX 04181 35011 11984 80602 11122 21142 40217 52001 69920 70272 8801/ 333 11129
AAXX 04181 35121 11998 82201 11143 21161 30088 40245 52011 69920 77871 8802/ 333 11077
AAXX 04184 91376 32474 80610 10274 20240 30095 40098 53005 83871 333 56119 70066 555 90418
BBXX V7HD2 04184 99311 30310 41397 71202 10260 2023/ 40120 54000 7//22 876// 22212 00255 20100 312// 41103 5//// 6//// 80240 ICE /////
BBXX WRYD 04184 99230 10671 43897 62620 10230 2019/ 40150 52025 7//// 82161 22234 00242 20602 32626 40602 50502 6/00/ 80200 ICE /////
BBXX C6VF5 04184 99233 10593 43999 03510 10230 2019/ 40140 5//// 7//// 80000 22274 00250 2//// 3//// 4//// 5//// 6//// 80200 ICE /////
BBXX PHOB 04184 99257 10571 41/98 10124 10240 20211 40138 50020 70000 81/00 22274 00232 2//// 3//// 4//// 5//// 80220
BBXX PDKK 04183 99212 50315 41598 53513 10264 20210 40158 56007 70211 81102 22254 20402 306// 40702 80226
BBXX UBAU 04181 99128 70174 41998 30704 10260 40168 54000 70210 83001 22200 04225 20201
BBXX OXOR2 04184 99226 10374 41498 43411 10236 20204 40152 50012 702// 8//45 22274 00263 20402 80214
BBXX A8XA3 04183 99047 30117 41998 52206 10272 40125 53001 70300 8503/ 22200 20000
BBXX A8RL4 04184 99337 30272 41597 61405 10250 40150 57020 7//// 864// 22254 00260 20201 320// 40709 40605 80230
BBXX PHPP 04184 99176 10403 41/97 20304 10250 20210 40131 51013 70200 821// 22274 00290 2//00 30000 80222
BBXX SHIP 04184 99057 10928 41397 89904 10270 2023/ 40100 56010 76022 886// 22273 00300 2//// 3//// 4//// 5//// 6//// 80240 ICE /////
BBXX OYGR2 04184 99088 11092 41396 70325 10260 20210 40119 58007 70222 86778 22215 04256 20403 80225
BBXX DGTX 04183 99337 11365 41597 23025 10050 21026 40180 54000 70100 81141 22214 00170 20402 80020
BBXX A8KH9 04184 99058 10965 41/98 60712 10280 20232 40100 52020 70022 84/78 22224 20402 30000 4//// 5//// 80245
BBXX PHKL 04183 99056 10831 41498 39903 10280 20253 40114 50004 70211 82240 22223 00282 2//// 3//// 4//// 5//// 80260
BBXX V2AN5 04181 99296 11224 41896 23507 10041 21041 40319 58011 70200 81017 22200 20301 335// 40503 5//// 80010
BBXX MTFH5 04183 99161 10827 41497 20502 10281 20224 40137 51001 70200 82/// 22214 2//// 3//// 4//// 5//// 80240
BBXX DEHY 04184 99329 11355 41/98 63223 10090 21016 40185 54000 70222 8//// 22214 00210 2//// 80045
BBXX A8QR9 04180 99182 11169 41397 81304 10235 20228 40180 56/// 71911 8/77/ 22254 20605 80230
BBXX KAOU 04184 99071 10978 43/// /0716 10278 20229 40108 5//// 7//// 8//// 222// 04313 2//// 3//// 4//// 5//// 6//// 8//// ICE /////
BBXX 44255 04181 99473 70573 46/// /0115 10011 49808 5//// 22200 00032 10605 70026 333 91219
BBXX S6JU 04184 99524 71549 41998 12817 11005 21030 40030 52050 70100 81//5 22264 04000 20301 32018 40708 50706 6//// 81005 ICE /////
BBXX A8PX5 04184 99262 71184 41597 60117 10181 20181 40240 50/// 70100 8647/ 22234 04181 20203 3//// 4//// 5//// 80181
BBXX 44150 04181 99425 70640 46/// /3212 11027 40080 52003 22200 00095 10806 70030 333 91216
BBXX 44032 04181 99437 70694 46/30 /2908 11062 40135 56021 91804 22200 00079 10301 70007 333 91211 555 11091 22094
BBXX 44067 04181 99384 70770 46/// /2803 11006 40222 57048 91800
BBXX VCXF 04184 99464 70484 41/90 91742 10078 2008/ 49998 57054 74764 89/// 22200 02030 20605 320// 40807 80078
BBXX 44139 04181 99442 70571 46/// /2825 10031 49892 52080 22200 00057 11311 70056 333 91232
BBXX DGNB 04183 99323 70751 41397 73420 10092 20088 40258 57025 70222 8/772 22224 00220 20905 336// 41006 80090
BBXX DGOS 04183 99270 70730 41298 83217 10168 20098 40225 58015 70222 8477/ 22264 21204 332// 41407 80128
BBXX WDD3826 04184 99318 70625 41698 73037 10170 2012/ 40170 5//// 7//22 872// 22263 00190 20406 329// 40811 5//// 6//// 80140 ICE /////
BBXX WDF2728 04184 99275 70829 41998 00409 10117 2101/ 40290 57010 7//00 80/// 22223 0//// 20301 303// 40702 5//// 6//// 80061 ICE /////
BBXX SHIP 04184 99533 71486 41596 73335 10010 20016 49906 51018 70222 867// 91800 22262 00040 21208 332// 40908 80010
BBXX 3FQO4 04184 99213 71102 41999 10507 00/// 10245 20215 40200 54000 70100 81//8 22234 00210 20201 33029 40301 50301 6//// 80225 ICE /////
BBXX ICGU 04184 99184 70646 41797 61510 10320 20223 40170 54/// 70311 869// 22200 04270 2//// 3//// 4//// 5//// 6//// 85250 ICE /////
BBXX VQKR7 04184 99322 71171 41998 33014 10185 20106 40235 51012 70200 80008 22200 04130 20402 33400 40402 80142
BBXX WGAX 04184 99373 70699 43297 83029 10070 2002/ 40151 57025 7//// 882// 22214 00233 20505 332// 41404 5//// 6//// 80045 ICE /////
BBXX DMRX 04183 99227 70744 41498 53515 10245 20152 40225 55012 70111 8556/ 22284 00270 20402 80185
BBXX PHDL 04183 99369 70397 41/98 /0911 10185 20136 40280 57030 70211 8//// 22214 00200 29901 80155 91153
BBXX DPCK 04183 99517 71312 41/97 /1924 10090 20071 49970 5/025 7//50 8//// 22274 00070 21208 31899 41408 5//// 80080
BBXX DGDD 04181 99208 71076 41998 03607 10240 20204 40200 50010 70200 80000 22235 04230 20601 332// 40503 5//// 80215
BBXX C6KD5 04183 99345 70359 41298 80510 10175 20089 40282 56004 70322 86773 22254 02179 21406 332// 41306 5//// 80130
BBXX A8IP3 04183 99338 70356 41398 80204 10182 20110 40274 54000 70222 86879 22254 04200 20500 331// 41004 80140
BBXX LAJK7 04184 99264 70719 41598 73118 10190 2014/ 40240 57010 70222 8687/ 22263 00260 20608 332// 40808 5//// 6//// 80160
BBXX DILE 04183 99400 70399 41198 51815 10170 20146 40280 57020 70322 84772 22264 04180 20404 333// 40405 80155
BBXX C6KD4 04183 99174 70694 41698 40118 10260 20223 40167 58021 70311 83475 22214 02272 20604 399// 41003 80235
BBXX PJFF 04184 99208 70638 41599 30915 10275 20225 40170 54000 70200 83300 22214 04270 20301 328// 41003 80239
BBXX DDSD2 04183 99279 70493 41597 61515 10245 20194 40220 58018 70311 85165 22254 04240 20404 311// 40606 5//// 80210
BBXX 46042 04181 99368 71224 46/// /3408 10126 40277 53019 91750 22200 00123 11305 20302 331// 41304 70024 333 91210 555 11088 22094 31721 43510 61749 341082 341081 343080 347078 348080 349079
BBXX 42363 04181 99282 70892 46/// /2802 10189 20061 40312 58003 91800 333 91202
BBXX 44060 04181 99413 70721 46/// ///07 11050 40190 56026 91800 22200 00082 333 91209 555 11072 22072
BBXX 42362 04181 99278 70907 46/// /3601 10172 20067 40305 58007 91800
BBXX 41038 04181 99341 70777 46/// /1602 10058 40267 58039 91800 22200 00125 333 91203
BBXX 42364 04181 99291 70881 46/// /3413 10100 21006 40319 54000 91800
BBXX 44022 04181 99409 70737 46/// ///04 11048 21152 40200 58036 91800 22200 00057 333 91206 555 11041 22041
BBXX 46001 04181 99563 71480 46/// /3114 11007 49864 53030 91750 22200 00040 11011 20608 300// 41007 70053 333 91217 555 11151 22160 31653 42318 61749 314143 314145 315145 317146 313145 319146
BBXX NWS0029 04184 99415 70707 43/// /3108 11057 21161 40172 5//// 7//// 8//// 222// 04058 2//// 3//// 4//// 5//// 6//// 8//// ICE /////
BBXX NWS0020 04184 99261 70801 43/// /0107 10155 20068 40261 5//// 7//// 8//// 222// 04194 2//// 3//// 4//// 5//// 6//// 8//// ICE /////
BBXX NWS0003 04184 99539 71665 43/// /0000 11030 21064 49904 5//// 7//// 8//// 222// 0//// 2//// 3//// 4//// 5//// 6//// 8//// ICE /////
BBXX DGAF 04183 99178 71028 41697 50406 10270 20221 40185 51020 70211 8/573 22274 00280 20000 326// 41402 80235
BBXX A8HY8 04184 99130 50362 41897 50709 10277 2//// 40140 56019 70310 83268 22254 0//// 20301 307// 40502 5//// 6//// ICE /////
BBXX C6YM6 04184 99138 50357 41298 50410 10280 2021/ 40150 54000 7//10 83/// 22214 00280 2//// 3//// 4//// 5//// 6//// 80230 ICE /////
BBXX DFCW2 04184 99202 50752 41/99 13616 10235 20199 40140 54000 70200 80005 22244 04230 2//// 317// 41202 5//// 80210
BBXX AVMI 04183 99330 31517 41298 21612 10200 20/// 40254 54000 70100 82111 22200 00200
BBXX VRWS3 04183 99388 31455 41698 32210 10150 20092 40183 51/// 70211 82960 22274 04200 299// 80120
BBXX VRRC 04184 99169 31546 41298 11421 10250 20199 40089 56/// 70200 81145 22243 20102 312// 40102 80215
BBXX SHIP 04184 99164 31530 41/98 21711 10270 20243 40091 52010 70200 82/// 22235 00230 2//// 3//// 4//// 80250
BBXX VRAE3 04184 99195 31626 41697 51307 10260 20255 40052 56010 70202 83561 22234 00270 2//// 315// 40402 5//// 80265
BBXX VNSZ 04184 99380 31449 46/// /1410 10148 20063 30167 40194 57003 22285 04211 85103
BBXX A8KO3 04180 99018 31087 41798 73106 10280 20253 40100 54000 70311 964// 22274 00290 20000 80260
BBXX VMAL 04184 99359 31247 41/98 80814 10175 20111 40237 56022 70222 8//// 22263 20202 80140
BBXX 9KWP 04183 99064 30899 41498 12909 10280 20252 40121 54000 70000 81142 22234 06290 2//// 80260
BBXX PCDE 04183 99358 31297 41298 62202 10160 20132 40220 58020 7//11 8/700 22263 20402 322// 40404 80143
BBXX SHIP 04184 99600 31149 41597 82728 10008 21006 49910 57017 70222 888// 22252 00026 11308 20405 32620 40510 85002
BBXX 3FMV6 04183 99013 30740 41398 30208 10260 20215 40107 51010 70200 83243 22284 06260 20101 80230
BBXX PFBF 04183 99145 51735 41297 83504 10276 20254 40112 53015 78088 8/8// 22263 02286 20606 336// 40608 5//// 80260
BBXX A8KX4 04184 99258 51779 41297 81016 10227 20193 40100 54000 76086 8772/ 22274 04253 20503 309// 40904 80204
BBXX ELYP7 04184 99306 31135 41497 83612 10222 20218 40073 58027 70222 877// 22243 20502 320// 40906 80219
BBXX PCAM 04183 99383 31489 41597 22216 10159 20091 40180 56015 70200 8117/ 22253 20403 323// 40604 80121
BBXX MGRH9 04184 99266 31532 41/98 /0000 10230 20183 40120 50004 7//// 8//// 22200 00245 2//// 3//// 4//// 5//// 80200
BBXX UCKZ 04181 99635 30786 41296 83513 10003 21004 49802 53006 76064 886// 22223 00007 2//// ICE 2/3/0
BBXX WAHV 04183 99375 70225 43499 61410 10170 2014/ 40341 53007 86200 22264 00180 20302 33330 41706 51206 80150
BBXX LDGJ 04181 99603 10053 43/// /1304 10030 21007 49808 5//// 222/0 04063 1//// 3//// 4//// 5////
BBXX LAHV 04181 99589 10057 43/// /2503 10052 20005 49838 222// 04081 1////
BBXX LMEL 04181 99603 10053 43/// /1205 10027 21008 49806 5//// 222/0 04066 1//// 3//// 4//// 5////
BBXX LF4H 04184 99596 10022 46/// /2111 10043 20010 49799 57054 8//// 22200 06080 10706 70031 333 91127
BBXX 531076 04181 99560 10056 41296 72718 10060 49957 58040 75152 8777/ 22271 04110 20810 3//// 4//// 5////
BBXX TBWUK35 04184 99570 10040 41297 82436 10070 20066 49869 57090 76186 887// 22283 00090 20507 325// 40808 80068
BBXX PHAM 04184 99495 70011 41/97 /2732 10107 20073 40195 56025 72588 8//// 22200 20508 80089 91153
BBXX PDHW 04183 99475 70293 41297 82326 10120 20062 40310 54000 70222 887// 22223 00120 20706 325// 40904 80090
AAXX 04184 60360 12560 42811 10135 20101 40275 53008 60002 84800 333 10161 82826 83640 95990
AAXX 04184 60390 12570 32405 10130 20105 40317 53012 60002 83802 333 10173 83820 95990
AAXX 04184 60402 12460 10000 10105 20084 40299 53010 60002 81200 333 10189 81816 95990
AAXX 04184 60419 12594 13205 10073 20029 40295 53009 60002 81500 333 10117 81626 95990
AAXX 04184 60475 12665 33204 10066 20051 39311 48558 55001 60002 83230 333 10103 83840 95990
AAXX 04184 60490 12965 03604 10130 20111 40308 55001 60002 333 10185 95990
AAXX 04184 60525 12960 03210 10155 20004 40253 54001 60002 333 10195 95990
AAXX 04184 60531 12970 00000 10113 20069 40316 50001 60002 333 10189 95990
AAXX 04184 60566 12960 0//// 10136 21002 40299 54000 60002 333 10178
AAXX 04184 60571 12965 20000 10150 20031 39365 48601 53002 60001 80001 333 10188 82073 95900
AAXX 04184 60580 12960 00000 10118 20027 40284 55001 60002 333 10175
AAXX 04184 60590 12960 00000 10115 20049 40310 53005 60002 333 10161
AAXX 04184 60611 12960 03608 10108 21021 40271 53008 60002 333 10158
AAXX 04184 60620 12960 20411 10175 21014 40286 53006 60002 80002 333 10207 82075
AAXX 04184 60630 12970 00613 10176 20005 40265 55000 60002 333 10210
AAXX 04184 60656 12970 40812 10190 20021 40269 54000 60002 84080 333 10210 84360
AAXX 04184 60670 12960 13512 10123 21018 39128 48555 53012 60002 80002 333 10171 81073 95990
AAXX 04184 60680 12970 22203 10147 21089 38685 48559 53008 60002 80002 333 10199 82073 95990
AAXX 04184 60351 12560 63012 10145 20112 40286 53014 60002 86800 333 10174 84820 84633 95990
AAXX 04184 60355 12660 42704 10141 20074 40276 53012 60002 84200 333 10179 84833 95990
AAXX 04184 60445 12960 13008 10073 20009 39113 48577 53007 60002 80002 333 10118 81073 95990
AAXX 04184 60468 12560 23608 10066 20016 39316 48565 53001 60002 82200 333 10122 82826 95990
AAXX 04184 60507 12960 00000 10109 20063 40325 53002 60002 333 10174 95990
AAXX 04184 60511 12965 13011 10083 20005 39166 48583 55000 60002 80002 333 10145 81071 95990
AAXX 04184 60535 12970 03604 10080 20019 38925 48581 56002 60002 333 10102 95900
AAXX 04184 60536 12960 00000 10082 20047 39427 48587 56002 60002 333 10175 95990
AAXX 04184 60549 11960 00000 10104 20008 39028 48611 54000 60002 70200 333 10148 95990
AAXX 04184 60550 12960 00202 10088 21007 38776 48607 52002 60002 333 10116 95990
AAXX 04184 60555 12970 00000 10110 20043 40282 53001 60002 333 10172
AAXX 04184 60559 12960 00000 10115 20030 40267 58005 60002 333 10176
AAXX 04184 60581 12960 00000 10120 20035 56004 60002 333 10172
AAXX 04184 60602 12960 31004 10157 20030 40303 53003 60002 82032 333 10186 82360 95990
AAXX 04184 60607 12960 30108 10144 21014 40178 53002 60002 80002 333 10178 83075
AAXX 04184 60640 12960 00108 10129 21043 40279 53007 60002 333 10170
AAXX 04184 60690 NIL
AAXX 04184 60351 12560 63012 10145 20112 40286 53014 60002 86800 333 10174 84820 84633 95990
AAXX 04184 60355 12660 42704 10141 20074 40276 53012 60002 84200 333 10179 84833 95990
AAXX 04184 60445 12960 13008 10073 20009 39113 48577 53007 60002 80002 333 10118 81073 95990
AAXX 04184 60468 12560 23608 10066 20016 39316 48565 53001 60002 82200 333 10122 82826 95990
AAXX 04184 60507 12960 00000 10109 20063 40325 53002 60002 333 10174 95990
AAXX 04184 60511 12965 13011 10083 20005 39166 48583 55000 60002 80002 333 10145 81071 95990
AAXX 04184 60535 12970 03604 10080 20019 38925 48581 56002 60002 333 10102 95900
AAXX 04184 60536 12960 00000 10082 20047 39427 48587 56002 60002 333 10175 95990
AAXX 04184 60549 11960 00000 10104 20008 39028 48611 54000 60002 70200 333 10148 95990
AAXX 04184 60550 12960 00202 10088 21007 38776 48607 52002 60002 333 10116 95990
AAXX 04184 60555 12970 00000 10110 20043 40282 53001 60002 333 10172
AAXX 04184 60559 12960 00000 10115 20030 40267 58005 60002 333 10176
AAXX 04184 60581 12960 00000 10120 20035 56004 60002 333 10172
AAXX 04184 60602 12960 31004 10157 20030 40303 53003 60002 82032 333 10186 82360 95990
AAXX 04184 60607 12960 30108 10144 21014 40178 53002 60002 80002 333 10178 83075
AAXX 04184 60640 12960 00108 10129 21043 40279 53007 60002 333 10170
AAXX 04184 60690 NIL
AAXX 04184 60360 12560 42811 10135 20101 40275 53008 60002 84800 333 10161 82826 83640 95990
AAXX 04184 60390 12570 32405 10130 20105 40317 53012 60002 83802 333 10173 83820 95990
AAXX 04184 60402 12460 10000 10105 20084 40299 53010 60002 81200 333 10189 81816 95990
AAXX 04184 60419 12594 13205 10073 20029 40295 53009 60002 81500 333 10117 81626 95990
AAXX 04184 60475 12665 33204 10066 20051 39311 48558 55001 60002 83230 333 10103 83840 95990
AAXX 04184 60490 12965 03604 10130 20111 40308 55001 60002 333 10185 95990
AAXX 04184 60525 12960 03210 10155 20004 40253 54001 60002 333 10195 95990
AAXX 04184 60531 12970 00000 10113 20069 40316 50001 60002 333 10189 95990
AAXX 04184 60566 12960 0//// 10136 21002 40299 54000 60002 333 10178
AAXX 04184 60571 12965 20000 10150 20031 39365 48601 53002 60001 80001 333 10188 82073 95900
AAXX 04184 60580 12960 00000 10118 20027 40284 55001 60002 333 10175
AAXX 04184 60590 12960 00000 10115 20049 40310 53005 60002 333 10161
AAXX 04184 60611 12960 03608 10108 21021 40271 53008 60002 333 10158
AAXX 04184 60620 12960 20411 10175 21014 40286 53006 60002 80002 333 10207 82075
AAXX 04184 60630 12970 00613 10176 20005 40265 55000 60002 333 10210
AAXX 04184 60656 12970 40812 10190 20021 40269 54000 60002 84080 333 10210 84360
AAXX 04184 60670 12960 13512 10123 21018 39128 48555 53012 60002 80002 333 10171 81073 95990
AAXX 04184 60680 12970 22203 10147 21089 38685 48559 53008 60002 80002 333 10199 82073 95990
AAXX 04181 40701 12962 00000 11044 21108 38626 40294 52005 60001 333 55085
AAXX 04181 40704 12975 03004 11026 21107 38637 40274 52009 60001 333 55090 20776
AAXX 04181 40708 12960 02603 11088 21107 38690 40300 51007 60001 333 55071 21097
AAXX 04181 40710 12980 09901 11070 21111 38344 40303 53005 60001 333 55083
AAXX 04181 40713 12962 00903 11028 21093 38697 40274 52007 60001 333 55088
AAXX 04181 40719 12960 00000 10040 20020 30262 40251 58001 60001 333 55087
AAXX 04181 40731 12965 00000 11026 21099 38760 40255 51002 60001 333 55095 21180
AAXX 04181 40738 12960 00000 10004 20000 30266 40268 57012 60001 333 55042
AAXX 04181 40740 12960 40000 11116 21139 38759 40289 52011 60001 80001 333 55000 84070
AAXX 04181 40747 12962 00000 11016 21051 38661 40257 52014 60001 333 55079 21070
AAXX 04181 40757 12965 03201 11008 21080 38928 40252 51005 60001 333 55089 21225
AAXX 04181 40763 12965 03603 11010 21076 38953 40263 52018 60001 333 55030
AAXX 04181 40782 12965 01302 10004 21048 38899 40240 51010 60001 333 55078
AAXX 04181 40783 12965 01204 11038 21152 37996 40251 51004 60001 333 55092
AAXX 04181 40789 12965 00000 10014 21080 39254 40262 51008 60001 333 55084 20632
AAXX 04181 40798 12960 00000 11076 21170 37973 40276 52007 60001 333 55093 21411
AAXX 04181 40818 12970 01902 11024 21158 37986 40238 51009 60001 333 55094
AAXX 04181 40827 12965 03004 10024 21113 38855 40248 51012 60001 333 55057
AAXX 04181 40836 12965 00000 10020 21112 38195 40220 52010 60001 333 55088 21606
AAXX 04181 40851 12960 00000 11006 21106 38279 40222 51014 60001 333 55096
AAXX 04181 40853 12960 03303 10014 21150 37750 40193 51011 60001 333 55097
AAXX 04181 40854 11905 03504 10066 21083 38991 40205 52025 60001 70500 333 55086
AAXX 04181 40857 12960 03602 10150 20100 30178 40188 52012 60001 222// 00/// 20401 333 55090
AAXX 04181 40859 12962 00000 10050 21090 38713 40163 53018 60001 333 55097
AAXX 04181 40878 12965 00103 10133 21009 38843 40167 52022 60001 333 55096
AAXX 04181 40879 11958 03305 10166 21035 39482 40157 51015 60001 70500 333 55087
AAXX 04181 40883 11956 00000 10168 20077 30127 40150 52014 60001 70500 333 55094
AAXX 04181 40898 11958 02906 10232 20160 30118 40127 52018 60001 70500 222// 00233 10501 333 55087
AAXX 04184 91945 36/// /3412 10283 20228 30144 40149 51010
AAXX 04181 45032 36/// /3604 10080 20021 30243 40260 57001 333 91109
AAXX 04181 45035 36/// /0304 10091 20034 30217 40261 57001
AAXX 04181 45039 36/// /3403 10085 20039 30237 40252 57002
AAXX 04181 45044 36/// /0006 10091 20059 30149 40247 54000
BBXX A8GP6 04183 99326 31135 41/97 /0718 10220 20206 40060 56020 70211 8//// 22284 04212 20404 318// 40504 80210
BBXX PBFM 04183 99441 70190 41297 82113 10150 20138 40380 52026 70222 887// 22214 20401 332// 41206 80143
AAXX 04181 45032 36/// /3604 10080 20021 30243 40260 57001 333 91109
AAXX 04181 45035 36/// /0304 10091 20034 30217 40261 57001
AAXX 04181 45039 36/// /3403 10085 20039 30237 40252 57002
AAXX 04181 45044 36/// /0006 10091 20059 30149 40247 54000
AAXX 04184 84204 11665 81404 10254 20232 60151 72164 8481/ 555 10148 30088
AAXX 04184 84050 31565 81808 10264 20221 70544 887// 555 30077
AAXX 04184 84088 11570 73602 10142 20082 37082 69911 72055 87700 333 58007 555 10001 30077
AAXX 04184 84202 11560 81802 10244 20211 30186 69911 71445 8772/ 333 58016 555 10001 30082
AAXX 04184 84270 31565 63608 10202 20123 74042 86500 555 30060
AAXX 04184 84008 11510 80000 10243 20229 30145 40155 60021 76162 8352/ 00234 333 58004 555 10020 30092
AAXX 04184 84140 32580 71704 10272 20225 30048 40133 85230 333 59003 555 30075
AAXX 04184 84036 31570 80404 10169 20124 70542 8641/ 555 30075
AAXX 04184 84179 11470 60000 10258 20206 39067 60151 72169 83230 333 58006 555 10149 30073
AAXX 04184 84132 11670 73204 10277 20229 39894 69911 72164 87300 333 58010 555 10001 30075
AAXX 04184 84135 32675 80000 10283 20220 30090 8721/ 333 58004 555 30069
AAXX 04184 84143 32570 51804 10180 20088 37411 84202 333 58013 555 30055
AAXX 04184 84056 11270 82704 10160 20092 69971 72054 8441/ 555 10007 30064
AAXX 04184 84105 31565 70904 10278 20232 31003 70542 84210 333 59001 555 30076
AAXX 04184 84160 11575 60904 10174 20091 37276 69941 75045 84530 333 59015 555 10004 30058
AAXX 04184 84173 11665 71402 10167 20093 69911 70545 85630 555 10001 30068
AAXX 04184 84076 11565 83202 10184 20148 60011 72055 86402 555 10011 30079
AAXX 04184 84226 11/00 90000 10110 20110 60011 74744 89/// 555 10014 30100
AAXX 04184 84072 11565 81402 10169 20101 37319 60011 72054 8353/ 333 58012 555 10014 30064
AAXX 04184 84142 11110 83154 10172 20169 60021 76066 887// 555 10020 30098
AAXX 04184 84045 11356 80000 10121 20106 60071 74046 8321/ 555 10073 30090
BBXX 3ERR2 04184 99635 10053 41598 22715 10041 21020 49734 57018 70182 83100 22200 06096 10706 70028 333 91136
BBXX LF3F 04184 99643 10078 43/// /0505 10035 20015 49722 57011 22200 04084 10805 70025 333 91111
BBXX LF3N 04184 99653 10073 41498 71013 10038 20010 49728 57012 70262 8//// 22200 00090 10706 70029
BBXX LF4B 04184 99606 10037 47/98 /2615 10054 49793 57036 785// 22200 00050 10708 70038 333 91131
BBXX LF4C 04184 99584 10019 41496 82422 10067 20047 49810 57071 76186 887// 22200 00069 10707 70034 333 91136
BBXX LF5T 04184 99660 10081 43697 /1215 10039 21006 49738 57012 22200 10704 70022 333 91125
AAXX 04181 80400 NIL
AAXX 04181 80403 11470 80705 10310 20220 30125 40144 69911 70225 8323/ 333 30/// 5699/ 58006 83813 85356 555 10146
AAXX 04181 80405 NIL
AAXX 04181 80407 NIL
AAXX 04181 80410 32470 30903 10297 20227 39451 40127 83200 333 30/// 56900 58002 83816 555 10164
AAXX 04181 80413 32470 52503 10294 20157 39635 40123 8252/ 333 30/// 56999 59002 82616 555 10153
AAXX 04181 80415 32470 50201 10290 20246 30077 40131 855// 333 30/// 569// 58000 85616 555 10133
AAXX 04181 80419 NIL
AAXX 04181 80421 12364 7//// 10302 20214 30103 40125 69911 8287/ 333 30/// 5699/ 58004 82810 85458 555 10120
AAXX 04181 80423 32470 4//// 10305 20186 30085 40102 83210 333 30/// 56290 58002 83810 555 10101
AAXX 04181 80428 32470 40901 10327 20230 39935 40118 84500 333 30/// 56900 58005 84617 555 10131
AAXX 04181 80432 NIL
AAXX 04181 80435 NIL
AAXX 04181 80438 32570 72306 10250 20165 38527 48524 8451/ 333 30/// 5699/ 59011 84623 83460 555 10211
AAXX 04181 80444 NIL
AAXX 04181 80447 11450 70000 10242 20216 39690 40114 69931 70255 877// 333 31/// 569// 58007 87713 555 10163
AAXX 04181 80448 32570 40504 10313 20211 3//// 4//// 84500 333 30/// 56900 84620
AAXX 04181 80450 32475 81103 10318 20242 30062 40117 85508 333 30/// 56209 59001 85616 555 10114
AAXX 04181 80453 NIL
AAXX 04181 80457 32470 3//// 10341 20148 30020 40104 82508 333 30/// 56909 58000 82613 555 10105
AAXX 04181 80462 NIL
AAXX 04181 01025 17/84 02401 11009 21083 39861 49872 57006 60002 700// 333 10014 91111
AAXX 04181 01311 47680 61503 10016 20001 39750 49811 58029 700// 333 10049 91113
AAXX 04181 01494 17/84 02302 10016 21038 39749 49814 58002 60002 700// 333 10044 91113
BBXX 46207 04181 99509 71299 46/// /1913 10095 40006 52016 22200 00080 11110 70051 333 91215
AAXX 04184 64910 31415 70000 10275 20235 30097 40106 70522 81402 333 10322 59005 81616 87080 94945 95835
AAXX 04184 61202 32965 60606 10231 21057 39624 40183 80005 333 10262 59001 86075
AAXX 04184 61214 NIL
AAXX 04184 61223 31920 60608 10245 21001 3//// 4//// 70611 80002 333 10270 5//// 86075
AAXX 04184 61226 31958 60610 10260 20097 39857 40156 70622 80002 333 10290 59002 86075
AAXX 04184 61230 32960 50810 10296 21051 39848 40119 80002 333 10312 58003 85075
AAXX 04184 61233 31959 60806 10280 21018 3//// 4//// 70611 80002 333 10311 5//// 86075
AAXX 04184 61235 31956 70414 10310 21020 3//// 4//// 70611 80002 333 10330 5//// 87075
AAXX 04184 61240 31958 50000 10267 20006 39812 40140 70611 80002 333 10300 59003 85075
AAXX 04184 61250 32960 40000 10255 20021 3//// 4//// 80002 333 10288 5//// 84075
AAXX 04184 61257 31930 20408 10318 21031 30056 40150 70511 80002 333 10335 59001 82075
AAXX 04184 61265 32960 13610 10280 21000 39821 40130 80002 333 10318 59002 81075
AAXX 04184 61270 32960 50404 10310 20041 3//// 4//// 80002 333 10337 5//// 85075
AAXX 04184 61272 NIL
AAXX 04184 61277 31958 20406 10297 20031 39803 40124 70600 80002 333 10331 59004 82075
AAXX 04184 61285 31959 60000 10316 20021 39961 40110 70622 80002 333 10336 58006 86075
AAXX 04184 61291 31958 20608 10300 20067 39695 40104 70600 80002 333 10325 59004 82075
AAXX 04184 61293 32960 40408 10307 20071 3//// 4//// 80002 333 10328 5//// 84075
AAXX 04184 61296 32965 60000 10304 20116 3//// 4//// 80002 333 10345 5//// 86075
AAXX 04184 61297 32960 70406 10305 20040 3//// 4//// 80002 333 10328 5//// 87075
AAXX 04184 NIL
AAXX 04184 NIL
AAXX 04184 NIL
AAXX 04184 NIL
AAXX 04184 83384 NIL
AAXX 04184 83386 NIL
AAXX 04184 83388 NIL
AAXX 04184 83393 NIL
AAXX 04184 83442 NIL
AAXX 04184 83479 NIL
AAXX 04184 83483 NIL
AAXX 04184 83531 NIL
AAXX 04184 83538 NIL
AAXX 04184 83574 NIL
AAXX 04184 83582 NIL
AAXX 04184 83595 NIL
AAXX 04184 83687 NIL
AAXX 04184 83692 NIL
AAXX 04184 83695 32698 70904 10282 20207 39987 40123 57018 877//
AAXX 04184 83718 NIL
AAXX 04184 NIL
AAXX 04184 NIL
AAXX 04184 NIL
AAXX 04184 83437 NIL
AAXX 04184 83550 31497 7//// 10294 20247 30063 40092 70211 83970 333 58006
AAXX 04184 83552 32498 4//// 10350 20172 39932 4//// 84300 333 59005
AAXX 04184 83565 21497 82008 10304 20188 39630 40087 76266 88/2/ 333 58022 60131
AAXX 04184 83579 NIL
AAXX 04184 83592 NIL
AAXX 04184 83623 NIL
AAXX 04184 83630 32597 52304 10279 20165 3//// 4//// 57029 82330
AAXX 04184 83676 NIL
AAXX 04184 83698 32799 40503 10278 20211 30114 40128 56004 84500
AAXX 04184 83702 32499 72306 10331 20152 39356 40086 58008 84906
AAXX 04184 83704 32698 60502 10334 20195 39679 40077 58012 86200
AAXX 04184 83716 NIL
AAXX 04184 83726 32597 70902 10307 20151 39166 40115 58027 87300
AAXX 04184 83738 NIL
AAXX 04184 82143 NIL
AAXX 04184 82599 32570 71013 10282 20215 30050 40110 85101 333 59003
AAXX 04184 82824 32570 52306 10330 20229 30008 40108 83230 333 59003
AAXX 04184 82899 32570 40710 10294 20207 30105 40117 83201 333 59005
AAXX 04184 83117 NIL
AAXX 04184 83248 32970 30811 10306 20246 30100 40122 80001 333 59014
AAXX 04184 83746 31565 21213 10279 20196 30108 40118 57014 70511 82200
AAXX 04184 NIL
AAXX 04184 82022 32570 60813 10338 20179 30003 40098 85130 333 59000
AAXX 04184 82193 21570 73606 10275 20248 30080 40098 72996 86230 333 58010 60041
AAXX 04184 82281 32570 50313 10306 20203 30033 40095 85200 333 59001
AAXX 04184 82332 31457 73613 10263 20230 30015 40108 71722 87930 333 58015
AAXX 04184 82398 32570 50914 10279 20216 30077 40106 85100 333 58011
AAXX 04184 82400 32570 31210 10274 20230 30048 4//// 83100 333 59000
AAXX 04184 82579 32570 53104 10348 20233 30006 40082 84250 333 59011
AAXX 04184 82917 21450 70000 10225 20215 39904 40128 72162 85530 333 59005 60221
AAXX 04184 82965 21470 80712 10262 20239 39787 40115 70262 88274 333 59016 60191
AAXX 04184 82993 32570 20914 10323 20232 39978 40113 82100 333 58006
AAXX 04184 83208 32570 73109 10287 20215 39425 48550 85230 333 58006
AAXX 04184 83349 32570 50209 10294 20245 30114 40120 82210 333 58007
AAXX 04184 83362 32570 51903 10336 20176 39874 40087 85100 333 59031
AAXX 04184 83378 32570 53405 10258 20160 38951 48510 85200 333 58004
AAXX 04184 83460 21556 60510 10267 20220 30059 40115 71562 83130 333 58015 60011
AAXX 04184 83497 NIL
AAXX 04184 83566 21570 70410 10232 20174 39196 48510 72162 86230 333 59021 69951
AAXX 04184 83599 NIL
AAXX 04184 83612 21970 43408 10318 20176 39475 48520 57016 72161 84200 333 60041
AAXX 04184 83649 21564 71506 10230 20204 30123 40128 57011 71062 84530 333 69971
AAXX 04184 83650 NIL
AAXX 04184 83780 NIL
AAXX 04184 83827 32570 11004 10357 20068 39822 40094 58021 81100
AAXX 04184 83840 32970 42610 10290 20068 39107 48520 58014 84500
AAXX 04184 83899 32470 71610 10236 20194 30131 4//// 53005 87200
AAXX 04184 83925 NIL
AAXX 04184 83970 NIL
AAXX 04184 83971 32970 31910 10274 20130 30141 40145 56006 83500
AAXX 04181 48855 11597 83202 10188 20166 30180 40188 57005 60011 76062 888// 333 58016 83895 88697 96160
AAXX 04181 48848 11497 83202 10144 20140 30212 40220 58006 69931 76062 888// 333 58040 85894 88697 96160
AAXX 04181 08501 12/// /0403 10157 20136 30263 40299 57004 60012 333 10167 91006 91107
AAXX 04181 08505 12470 61103 10174 20124 30236 40285 53005 69932 83842 333 10191 82816 84070
AAXX 04181 08509 11360 51310 10164 20150 30239 40304 52010 69962 72581 85800 333 10182 81708 83820 91112
AAXX 04181 08512 12470 51207 10172 20153 30224 40309 52010 69942 84801 333 10175 84815 91111
AAXX 04181 08515 11465 41308 10168 20142 30187 40309 52012 60022 70281 82231 333 10183 82814 910// 911//
AAXX 04181 08533 32/// /0205 10139 20092 30299 40328 52004 333 10178 91108
AAXX 04181 08541 32/// /0104 10124 20075 30220 40341 52006 333 10176
AAXX 04181 08545 NIL
AAXX 04181 08548 32/// /0301 10130 20111 30155 40364 52008 333 10155 91106
AAXX 04181 08554 32965 03603 10156 20058 30315 40324 52001 333 10190
AAXX 04181 08558 12/// /0203 10115 20068 30045 40344 52007 69912 333 10162 91106
AAXX 04181 08560 32/// /3602 10102 20074 39598 40367 52009 333 10141
AAXX 04181 08567 32/// /1801 10092 20087 39692 40368 52005 333 10127
AAXX 04181 08570 31575 10203 10139 20079 39887 40348 52012 70200 81100 333 10176 81818 91107
AAXX 04181 08575 32/// /2804 10104 20068 39535 40355 54000 333 10140 91007 91107
AAXX 04181 08579 NIL
AAXX 04181 48852 11497 82902 10160 20153 30193 40203 57004 60041 76166 888// 333 58033 86894 88697 96160
AAXX 04183 87480 32965 00909 10298 20137 30128 40156 57011
AAXX 04183 87532 32970 13613 10358 20136 39964 40127 57019 81070 333 56050 81360
AAXX 04184 87344 32962 30513 10337 20127 39600 40128 57015 82069 333 56066 82360
AAXX 04184 87349 NIL
AAXX 04184 87371 32962 01110 10331 20078 30133 40154 57013
AAXX 04184 87374 32965 00910 10322 20067 30062 40148 57012
AAXX 04184 87395 32965 01814 10306 20085 30104 40148 57016
AAXX 04184 87418 32765 30907 10331 20102 39333 40092 58012 81272 333 56677 57864 81850 83070
AAXX 04184 87436 32670 61106 10314 20117 39350 40126 52004 86470 333 56880 86640 83360
AAXX 04184 87448 32565 72706 10356 20147 39572 40109 57016 84970 333 56560 57942 83625 81940 83360
AAXX 04184 87453 32965 30222 10327 20132 39650 40119 57015 83072 333 56066 83360
AAXX 04184 87467 NIL
AAXX 04184 87497 32965 01405 10308 20112 30134 40162 57013
AAXX 04184 87506 32670 50508 10295 20078 38598 48525 57016 85903 333 56606 57971 84835 82950 83070 95035
AAXX 04184 87509 42570 61410 10338 20150 39290 40101 58016 83870 333 56550 82825 83635 82355 82460
AAXX 04184 87534 32960 40510 10340 20114 39984 40140 57019 84070 333 56060 84360
AAXX 04184 87548 32902 00510 10334 20059 30068 40161 57015
AAXX 04184 87576 32960 10508 10296 20134 30145 40168 57011 80001 333 56000 81070
AAXX 04184 87582 32960 10909 10261 20167 30166 40173 57015 80001 333 56004 81070
AAXX 04184 87585 32960 10502 10283 20092 30142 40171 57009 80006 333 56006 81270
AAXX 04181 34560 11497 83304 10004 20000 30030 40199 52013 60010 70242 885// 333 10004 88614
AAXX 04181 34720 12597 82102 10014 20004 30171 40212 54000 69950 885// 333 10031
AAXX 04181 34730 11340 82203 10015 20003 30121 40215 52002 60020 71022 886// 333 10043 88707
AAXX 04181 34740 11495 80101 10016 20014 30121 40219 50004 69990 75152 886// 333 10048
AAXX 04181 34824 31596 81401 10038 20029 30204 40209 54001 71022 885// 333 10062
AAXX 04181 34858 11495 83402 10023 20017 30113 40222 52008 60050 71054 886// 333 10042
AAXX 04181 34866 11998 83003 10024 20022 30222 40214 52011 60040 70266 8007/ 333 10030
AAXX 04181 34880 11396 81603 10001 20001 30246 40219 54000 69920 77172 8872/ 333 11012 88507
AAXX 04181 37018 31598 30701 10067 20031 30153 40229 57003 70181 8390/ 333 10081
AAXX 04181 37054 12697 80000 10010 20008 39849 40242 54001 60010 885// 333 10028
AAXX 04181 37472 11596 81401 10027 20014 30270 40246 58002 69900 76162 8872/ 333 10038
AAXX 04181 22165 32598 60702 11145 21151 39945 40010 57022 82530 333 11128
AAXX 04181 22676 11584 81203 11072 21081 39933 40012 57016 60020 70272 885// 333 11067
AAXX 04181 22837 11457 81405 11029 21046 39845 49916 57038 69900 77172 8572/ 333 11033 85710
AAXX 04181 22954 11396 81503 11047 21053 39729 49981 57030 60010 77172 8872/ 333 11046 86707
AAXX 04181 23405 11367 81206 11123 21143 39980 40083 57020 69930 73673 8661/ 333 11106 86708
AAXX 04181 23412 32999 41003 11176 21202 30038 40141 57016 80001 333 11166
AAXX 04181 23803 12999 01302 11145 21165 39932 40122 57016 69900 333 11114
AAXX 04181 27066 11496 81602 11054 21064 39867 40047 57009 60040 77177 8672/ 333 11057 86713
AAXX 04181 27083 11484 81803 11076 21094 39843 40073 57008 60030 70272 8802/ 333 11068
AAXX 04181 27113 11321 81705 11021 21027 39817 49962 58034 69900 77372 8672/ 333 11037 84707
AAXX 04181 27242 32498 82503 11034 21042 39895 40025 57024 69930 889// 333 11035 88711
AAXX 04181 27329 31536 81903 11004 21013 39885 40011 57021 78622 889// 333 11017
AAXX 04181 27355 12497 81604 11034 21038 39894 40060 58018 60020 885// 333 11042
AAXX 04181 27373 11396 81604 11057 21068 39861 40084 58008 60030 70272 886// 333 11062 88709
AAXX 04181 27665 12497 81802 11038 21050 39841 40117 58001 60020 8872/ 333 11048 86710
AAXX 04181 27835 31496 82004 11001 21012 39948 40108 57006 71022 886// 333 10009 88714
AAXX 04181 28009 11996 81802 11077 21095 39906 40123 57012 69980 77173 8801/ 333 11081
AAXX 04181 28411 11396 81201 11134 21147 39964 40170 57006 69900 77372 8551/ 333 11113
AAXX 04181 28418 12997 81201 11131 21144 30004 40180 58003 69930 80003 333 11123
AAXX 04181 22282 119// 81806 11061 21076 30012 40020 57010 69940 77072 8802/ 333 11078
AAXX 04181 22438 NIL
AAXX 04181 22471 11950 81305 11076 21094 39963 49987 57028 60010 77177 8802/ 333 11080
AAXX 04181 22563 11396 81803 11070 21083 39944 49983 57024 60020 77177 8872/ 333 11070 86709
AAXX 04181 22641 12399 81203 11053 21067 39926 49942 57025 69970 886// 333 11054 88709 91107
AAXX 04181 22695 11396 81406 11093 21105 39890 40049 57020 69960 77173 8672/ 333 11084 86708
AAXX 04181 22867 12498 81401 11044 21060 39880 49995 57021 69920 886// 333 11044 88711 91105
AAXX 04181 22939 31396 81606 11034 21045 39777 49940 57033 77373 8872/ 333 11039 84708
AAXX 04181 22996 11495 81803 11084 21103 39881 40077 57013 60020 77372 8352/ 333 11079
AAXX 04181 23324 32981 32502 11187 21206 30073 40156 57012 83030 333 11087
AAXX 04181 27008 11397 81604 11007 21011 39760 49929 57023 60020 77172 8872/ 333 11021
AAXX 04181 27051 12497 81703 11046 21055 39839 40008 57030 60010 8655/ 333 11045 84912
AAXX 04181 27225 31459 81804 11014 21028 39858 49988 57032 77172 8872/ 333 11021 88717
AAXX 04181 27252 11496 81803 11046 21052 39852 40041 57020 69960 71022 885// 333 11042 88616
AAXX 04181 27333 11357 81906 11022 21034 39868 40026 57017 69920 77173 887// 333 11030 88709
AAXX 04181 27369 12997 82003 11043 21052 39941 40081 58006 60030 8801/ 333 11040
AAXX 04181 27393 11497 82006 11084 21094 39945 40118 57006 69940 77173 8677/ 333 11077
AAXX 04181 27479 11598 82103 11042 21058 39967 40103 58001 60030 77172 885// 333 11045 88624
AAXX 04181 27532 11496 81803 11012 21019 39835 40050 57015 69900 77172 8877/ 333 11022
AAXX 04181 27648 12997 81702 11015 21032 39923 40093 58014 60010 8803/ 333 11015
AAXX 04181 27675 32497 82104 11038 21050 39952 40125 52007 60040 885// 333 11041 88616
AAXX 04181 27679 12598 82205 11038 21053 39901 40129 52004 60020 885// 333 11045 88623
AAXX 04181 28214 31996 81204 11093 21105 39919 40139 57015 77172 8802/ 333 11100
BBXX 46207 04181 99509 71299 46/// /1913 10095 40006 52016 22200 00080 11110 70051 333 91215
AAXX 04181 01271 17/32 90000 10005 21008 39714 49735 58004 6//// 767// 333 10019 91106
AAXX 04181 01415 17/59 72704 10050 21002 39835 49846 58029 6//// 740// 333 10064 91117
BBXX C6SI6 04184 99527 11769 46/// /2514 11023 21100 40015 56020 7//// 8//// 22223 0//// 2////
AAXX 04181 40700 12960 40000 11016 21030 30173 40266 53009 60001 80006 333 55041 84267
AAXX 04181 40723 12960 00000 11108 21117 38959 40316 54000 60001 333 55010 25546
AAXX 04181 40726 12960 00000 10002 21064 38685 40256 51004 60001 333 55083
AAXX 04181 40727 12960 00000 11048 21081 38510 40279 51010 60001 333 55091 20871
AAXX 04181 40734 12970 01902 10040 20014 30273 40247 51004 60001 333 55086
AAXX 04181 40737 12965 03002 10016 20005 30229 40248 56001 60001 333 55069 2////
AAXX 04181 40741 11557 83403 11012 21016 39956 40310 51011 69911 71072 8572/ 333 55000 85720 88458
AAXX 04181 40780 12960 01003 10010 21041 38703 40226 53006 60001 333 55089 21288
AAXX 04181 40791 12960 00000 10016 21033 39412 40264 52007 60001 333 55066
AAXX 04181 40792 12962 10302 11024 21050 38748 40257 51007 60001 81030 333 55029 81360
AAXX 04181 40794 12960 03102 10096 20036 30087 40187 51012 60001 91750 333 55086 21238
AAXX 04181 40812 12960 00000 10120 20056 39801 40183 52015 60001 333 55079
AAXX 04181 40829 11957 03412 10062 21018 39635 40217 52044 60001 70700 333 55081
AAXX 04181 40833 12960 03402 10112 20050 30163 40197 52013 60001 333 55089
AAXX 04181 40835 12960 02602 10088 20024 39343 40189 51009 60001 333 55093
AAXX 04181 40845 NIL
AAXX 04181 40882 NIL
AAXX 04181 40889 NIL
AAXX 04181 40890 NIL
AAXX 04181 40893 11956 03307 10218 20129 30135 40142 51015 60001 70700 222// 00/// 20402 333 55074
AAXX 04181 40897 14956 32502 10200 20141 30122 40136 51019 60001 70510 80001 333 55088 83068
AAXX 04181 50844 32962 00201 11208 21244 40275 52003 333 11094
AAXX 04181 50854 32965 01801 11203 21229 40280 52002 333 11105
AAXX 04181 50968 32962 01801 11207 21226 40299 52008 333 11144
AAXX 04181 51379 32980 01603 11216 21253 40313 57005 333 05352 11077
AAXX 04181 51467 32980 10701 11165 21193 38203 57004 80002 333 05501 11053
AAXX 04181 51495 32980 03604 11120 21213 40311 57013 333 05500 11041
AAXX 04181 53480 32980 00000 11185 21259 40366 57003 333 11093
AAXX 04181 53673 32961 02901 11130 21186 40353 57006 333 11038
AAXX 04181 53698 32965 03401 11055 21156 40321 57007 333 10035
AAXX 04181 53898 32963 00000 11081 21124 40323 57013 333 10027
AAXX 04181 54308 32980 03601 11184 21248 40337 57001 333 11056
AAXX 04181 54602 32961 02202 11104 21175 40314 57011 333 10018
AAXX 04181 54725 32965 02204 11053 21171 40335 57008 333 10002
AAXX 04181 54751 32975 02703 11021 21104 40321 57001 333 11006
AAXX 04181 54916 32962 00000 11091 21113 40341 57012 333 10010
AAXX 04181 57014 32965 81602 11030 21110 40288 57010 8807/ 333 05806 10027
AAXX 04181 57025 32970 80901 11045 21126 40323 57012 8807/ 333 11012
AAXX 04181 57046 32974 00201 11080 21198 37947 57012 333 05507 11062
AAXX 04181 58208 32960 01102 11023 21068 40337 57012 333 10048
AAXX 04181 08521 NIL
AAXX 04181 08524 32470 40903 10166 20108 30222 40320 52004 83802 333 10188 82815 91007 91109
AAXX 04184 89022 42499 22206 11037 21064 39809 49846 57013 81608 333 81715
AAXX 04184 89062 42480 71810 11004 21034 39860 49901 57001 875// 333 81710 87620
AAXX 04183 87896 32980 00518 10284 20134 39998 40092 58025
AAXX 04184 87016 NIL
AAXX 04184 87078 32970 51802 10400 20252 39953 40099 57025 80006 333 56003 85270
AAXX 04184 87244 32578 40208 10349 20184 39744 4//// 5//// 81206 333 56206 57826 81824 84270
AAXX 04184 87393 32970 11108 10306 20123 30082 40145 57013 80005 333 56000 81270
AAXX 04184 87416 32765 11802 10328 20107 39389 40101 58003 81300 333 56800 57918 81950
AAXX 04184 87563 32965 02702 10333 20088 30090 40132 56017
AAXX 04184 87640 32965 03605 10338 20088 30045 4//// 57013
AAXX 04184 87688 32470 12310 10360 20098 30006 40137 57013 81100 333 56800 81816
AAXX 04184 87774 32682 33213 10352 20103 39125 48503 5//// 82108 333 56107 82840
AAXX 04184 87852 32984 32319 10273 20050 39613 40102 57027 81074 333 56077 81360 83070
AAXX 04183 87791 32680 30213 10384 20122 30109 40117 57027 83500 333 56600 83640
AAXX 04184 87593 32960 01107 10262 20174 30145 40172 57009
AAXX 04184 87623 31959 00210 10370 20145 39909 40125 57020 70700
AAXX 04184 87641 32965 02708 10342 20124 39981 40151 57020
AAXX 04184 87645 32470 22706 10326 20072 39948 40150 57023 82100 333 56400 82815
AAXX 04184 87648 32960 00504 10312 20121 30158 40169 57012
AAXX 04184 87692 32960 02909 10322 20170 30122 40147 57023
AAXX 04184 87715 32665 20508 10398 20101 39785 40086 57025 82100 333 56700 82845
AAXX 04184 87750 32565 12306 10372 20094 30038 40132 57016 81100 333 56000 81828
AAXX 04184 87765 NIL
AAXX 04184 87784 32580 41413 10300 20139 30090 40113 57020 84200 333 56600 57887 84830
AAXX 04184 87800 31910 01806 10281 20128 39730 40128 57020 70410
AAXX 04184 87803 31970 72513 10279 20082 39224 40107 57019 70420 85076 333 56066 85360 86270
AAXX 04184 87828 32980 10206 10352 20039 30054 40105 57025 80001 333 56000 81070
AAXX 04184 87860 32980 20716 10273 20067 30058 40112 57020 80006 333 56006 82270
AAXX 04184 87904 32680 52525 10254 20064 39824 40060 57020 81440 333 56660 57348 81640
AAXX 04184 87909 32580 12515 10337 20056 39985 40056 57032 81100 333 56500 81830
AAXX 04184 87925 32670 62727 10270 20037 39998 40020 57012 70722 333 56666 57300 82835 83636
AAXX 04184 87938 32680 62332 10156 20049 39878 49947 52007 84130 333 56550 84840 83360
AAXX 04184 71976 46/// /1005 11281 21312 39375 40031 56014 6///1 333 11263 21310 7//// 555 10010
AAXX 04184 71478 16/// /1836 10088 20082 39893 40027 51014 60001 333 10097 20078 70000
AAXX 04184 71479 16/// /1630 10089 20087 39944 40063 53013 60001 333 10097 20073 70000
AAXX 04184 71682 17/// /0203 11163 21172 39810 40044 56025 60011 7//4/ 333 11162 21221 70020
AAXX 04184 71752 16/// /2309 11014 21065 39898 40120 58038 60001 333 11014 21142 70000 555 10010
AAXX 04184 71771 46/// /1821 10092 20048 39910 49930 53017 6///1 333 10118 20078 7////
AAXX 04184 71421 16/// ///// 11158 21171 39323 40057 56024 60001 333 11158 21213 70000
AAXX 04184 71435 16/// /2607 11051 21082 39505 40108 58021 60001 333 11051 21114 70000
AAXX 04184 71903 47/// /2311 10065 20058 39838 49886 51027 6///1 7//4/ 333 10085 20057 7////
AAXX 04184 71269 16/// /2320 10102 21010 60001 333 10102 20036 70000
AAXX 04184 71270 16/// /2307 11025 21063 39873 40100 56032 60001 333 11024 21151 70000
AAXX 04184 71285 46/// /1403 11012 21025 6///1 333 11012 21075 7////
AAXX 04184 71288 16/// /2816 11316 21348 30132 40158 56004 60001 333 11312 21344 70000
AAXX 04184 71296 16/// /2208 11040 21074 39790 40103 56035 60001 333 11040 70000
AAXX 04184 71736 46/// ///// 10096 21028 6///1 333 10096 20023 7////
AAXX 04184 71737 16/// /1703 11150 21187 39562 40110 56047 60001 333 11150 21314 70000
AAXX 04184 71743 16/// /1519 11196 21221 39775 40000 56030 60001 333 11196 21298 7////
AAXX 04184 71746 16/// /2109 11004 21078 39886 40110 58037 60001 333 11003 21125 70003 555 10010
AAXX 04184 71551 16/// /2406 10047 21003 39476 40125 55008 60001 333 10047 21024 70000
AAXX 04184 71151 16/// /2505 11043 21071 39622 40133 50001 60001 333 11043 21091 70000
AAXX 04184 71165 46/// ///00 11275 21304 39854 40156 58017 6///1 333 11267 21356 7////
AAXX 04184 71186 46/// /2807 11159 21224 6///1 333 11157 21189 7////
AAXX 04184 71190 46/// /2810 11111 21171 6///1 333 11111 21142 7////
AAXX 04184 71228 16/// /1607 10007 21024 60001 333 10007 21057 70000
AAXX 04184 71364 16/// /0711 11256 21290 39960 40099 58022 60001 333 11256 21297 70000
AAXX 04184 71374 46/// /0115 11079 21111 6///1 333 11052 21081 7////
AAXX 04184 71387 16/// /2303 11181 21218 39699 40100 58049 60001 333 11176 21213 70000
AAXX 04184 71018 16/// ///08 11338 21372 39911 40002 50000 60001 333 11302 21367 70000
AAXX 04184 71832 16/// /2308 11073 21094 39725 40055 58008 60001 333 11068 21195 70000
AAXX 04184 71503 46/// /0515 11199 21234 39815 40098 58020 6///1 333 11199 21325 7////
AAXX 04184 71506 46/// /0855 11212 21245 39034 49933 58039 6///1 333 11205 21241 7////
AAXX 04184 71514 16/// /2004 11016 21053 39452 40158 50002 60001 333 11016 21074 70000
AAXX 04181 11157 11460 79903 10038 21049 39442 40202 52021 69932 72166 875// 333 10061 81615 83628 85645 91118 91210
AAXX 04184 71421 16/// ///// 11158 21171 39323 40057 56024 60001 333 11158 21213 70000
AAXX 04184 71435 16/// /2607 11051 21082 39505 40108 58021 60001 333 11051 21114 70000
AAXX 04181 08579 32/// /2404 10144 20106 30224 40350 52007 333 10183 91009 91109
AAXX 04181 23914 11998 51802 11181 21194 39900 40177 58004 69900 77171 85070 333 11136
AAXX 04181 23921 11998 20000 11195 21214 30055 40184 58010 69920 70181 80001 333 11140
AAXX 04181 23955 42984 81203 11191 21207 30161 40228 57007 80002
AAXX 04181 23966 42999 51501 11182 21201 30148 40285 57011 80002
AAXX 04181 28138 12999 00000 11212 21231 39588 40206 54000 69900 333 11163
AAXX 04181 28224 11897 61502 11175 21190 39950 40180 57007 69900 77172 83075 333 11159
AAXX 04181 28255 32994 03201 11225 21247 30035 40176 52002 333 11195
AAXX 04181 28440 12997 02802 11168 21193 39824 40199 52002 69900 333 11152
AAXX 04181 28645 32997 00000 11216 21228 39898 40221 52007 333 11140
AAXX 04181 28661 32997 81903 11213 21233 30099 40199 53013 85031 333 11187
AAXX 04181 28722 11996 71802 11184 21195 30066 40208 52001 69900 77172 87070 333 11145
AAXX 04181 28748 32961 60901 11208 21227 39959 40221 52005 80001 333 11144
AAXX 04181 28838 32996 00201 11230 21243 39712 40236 52010 333 11157
AAXX 04181 29231 41496 60802 11172 21191 30150 40254 57001 78582 84901
AAXX 04181 29313 42998 50601 11216 21227 30096 40229 57002 80001
AAXX 04181 29612 42598 71503 11171 21183 30062 40225 58002 87300
AAXX 04181 29638 42998 81502 11139 21174 30070 40245 54000 83031
AAXX 04181 29838 42597 41601 11127 21162 30009 40255 57003 82531
AAXX 04181 29846 41910 31801 11180 21180 39867 40282 58002 71000 80001
AAXX 04181 36061 42999 00000 11243 21261 39861 40311 54000
AAXX 04184 71300 16/// /1906 11092 21123 39999 40127 56054 60001 333 11092 21221 70000
AAXX 04184 71309 16/// /2706 11070 21091 39999 40011 55005 60001 333 11070 21225 70012 555 10060
AAXX 04184 71340 16/// /1108 10002 21014 60001 333 10005 21045 70020
AAXX 04184 71341 16/// ///// 10102 21029 60001 333 10105 20020 70000
AAXX 04184 71342 16/// /2111 10049 21002 60001 333 10052 20003 70000
AAXX 04184 71344 16/// /2217 10075 21010 60001 333 10077 20016 70000
AAXX 04184 71347 17/// /1208 10022 20019 60041 7//4/ 333 10035 21008 70077
AAXX 04184 71348 17/// /1203 10019 20016 60031 7//4/ 333 10030 20001 70050
AAXX 04184 71349 16/// ///// 11040 21044 60001 333 11029 21087 70000
AAXX 04181 23909 11497 81603 11125 21137 39878 40138 57011 69920 77172 8651/ 333 11120
AAXX 04181 28044 12997 73101 11182 21200 30004 40180 57004 69900 80001 333 11126
AAXX 04181 28116 11896 71201 11141 21158 39912 40158 57010 69930 77172 87020 333 11135
AAXX 04181 28240 12998 02101 11206 21226 39849 40202 54000 69900 333 11151
AAXX 04181 28522 11996 81803 11177 21192 39928 40206 54000 69930 77172 8802/ 333 11150
AAXX 04181 28621 32997 71603 11148 21165 39944 40192 58006 80002 333 11151
AAXX 04181 28719 11950 818// 11145 21159 39747 40214 52003 69930 77172 8802/ 333 11130
AAXX 04181 29023 42998 81304 11163 21182 30158 40260 57002 80002
AAXX 04181 29122 42999 81002 11183 21195 30167 40246 58003 80002
AAXX 04181 29328 42998 30000 11230 21251 30090 40243 57002 80009
AAXX 04181 29348 41997 31102 11146 21166 30116 40270 54000 70231 80001
AAXX 04181 29405 42497 81502 11149 21162 30051 40206 57001 8533/
AAXX 04181 29418 42998 60000 11169 21188 30055 40225 53002 86030
AAXX 04181 29430 42998 00000 11174 21186 30073 40262 53001
AAXX 04181 29524 42998 80000 11213 21225 30060 40237 53005 80001
AAXX 04181 29605 42598 81402 11156 21169 30056 40207 52001 885//
AAXX 04181 29631 42997 81702 11150 21170 30046 40242 53001 80009
AAXX 04181 29645 41996 31701 11216 21228 30073 40277 53003 70400 80001
AAXX 04181 29706 42998 81702 11138 21158 30061 40215 53001 8802/
AAXX 04181 29736 41996 00000 11238 21263 30002 40277 53002 71000
AAXX 04181 29937 42997 50000 11182 21215 30024 40263 58002 80005
AAXX 04181 36034 42998 22104 11120 21172 39963 40253 58004 80001
AAXX 04181 36096 41996 00000 11336 21359 39576 40472 54000 77600 333 95090
AAXX 04184 71423 16/// /3315 11068 21084 39990 49999 56025 60001 333 11047 21101 70000
AAXX 04184 71434 16/// /3016 11160 21201 39937 40004 53015 60001 333 11096 70021
AAXX 04184 71107 16/// /1731 10074 20066 39861 49971 53017 60001 333 10091 20074 70000
AAXX 04181 28049 32997 53402 11169 21185 39995 40170 57004 85050 333 11138
AAXX 04181 28144 11998 32802 11226 21246 30010 40183 57002 69920 70271 80001 333 11133
AAXX 04181 28319 11896 81301 11153 21169 30008 40183 58010 69930 77172 8802/ 333 11155
AAXX 04181 28321 11997 71802 11179 21198 39960 40180 58007 69900 77172 87010 333 11190
AAXX 04181 28334 12997 40000 11252 21275 39877 40213 54000 69920 8407/ 333 11200
AAXX 04181 28434 12998 00000 11251 21275 39929 40215 58001 69900 333 11186
AAXX 04181 28552 11998 82801 11205 21224 30075 40198 52006 69900 77072 8801/ 333 11164
AAXX 04181 28666 11999 22003 11238 21261 30005 40197 53012 69900 70271 80001 333 11216
AAXX 04181 28825 11994 71901 11192 21208 30039 40226 52003 69900 77171 87010 333 11167
AAXX 04181 29111 42998 81002 11192 21209 30129 40223 57004 80005
AAXX 04181 29209 42998 71102 11185 21197 30075 40211 57004 78030
AAXX 04181 29551 42997 00801 11171 21190 30088 40283 58001
AAXX 04181 29602 41997 81502 11156 21175 30061 40210 52001 77172 8802/
AAXX 04181 29636 42998 00000 11213 21219 30027 40265 54000
AAXX 04181 29654 42999 62901 11116 21136 39630 40270 52003 80001
AAXX 04181 29712 42998 21602 11161 21180 30073 40226 52003 82070
AAXX 04181 29724 42997 80000 11191 21210 30023 40241 58003 83035
AAXX 04181 29726 42998 30000 11212 21237 30067 40250 57001 82071
AAXX 04181 29814 42699 81402 11127 21147 30065 40219 57004 885// 333 88638
AAXX 04181 29827 42697 40501 11153 21166 30077 40240 54000 82530
AAXX 04181 29923 42999 31602 11131 21166 39963 40254 58004 83030
AAXX 04181 29939 42997 80701 11234 21252 39969 40280 52001 80005
AAXX 04181 35026 31996 00000 11176 21195 39567 40252 52006 71011 333 11123
AAXX 04181 36021 42999 71801 11106 21124 30048 40236 53004 84032
AAXX 04181 36022 42998 81703 11103 21147 39970 40243 54000 8805/
AAXX 04181 36038 42999 30000 11154 21181 39804 40273 52003 83030
AAXX 04181 36058 42999 01003 11155 21174 39760 40315 52008
AAXX 04181 36064 42999 03502 11104 21132 39677 40296 52002
AAXX 04181 36229 42999 00000 11295 21312 39111 40432 52004
AAXX 04181 36259 42999 00000 11317 21348 38228 48533 52002
AAXX 04184 71832 16/// /2308 11073 21094 39725 40055 58008 60001 333 11068 21195 70000
AAXX 04181 34357 32598 82501 10009 21007 30033 40191 52010 885// 333 10011
AAXX 04181 34363 11295 82903 11012 21012 30034 40190 52010 60010 71042 886// 333 11026 93608
AAXX 04181 34545 12598 82802 10007 20000 30096 40210 52010 60010 885// 333 10016
AAXX 04181 34579 31595 81902 11003 21003 30147 40192 52004 69900 71072 8850/ 333 11014
AAXX 04181 34838 31697 60101 10036 20030 30121 40219 52003 70252 86500 333 10066
AAXX 04181 34927 32997 42401 10054 20020 30180 40217 57002 80001 333 10095
AAXX 04181 34949 12598 82804 10031 20016 39673 40224 50003 69900 8555/ 333 10038 88626
AAXX 04181 37001 32997 21810 10084 20052 30164 40205 57005 80030 333 10086
AAXX 04181 37031 32997 81503 10031 20014 30028 40226 52003 8805/ 333 10054
AAXX 04181 37061 11557 82102 10019 20008 30061 40231 52003 60040 71082 885// 333 10016
AAXX 04181 37085 11596 81902 10020 20014 30262 40290 51004 60020 72176 8872/ 333 10011
AAXX 04181 37107 32998 10701 10007 21004 39553 40246 57001 81080 333 10030
AAXX 04181 37126 41397 83004 11041 21043 37932 48507 52001 70282 883// 333 11016
AAXX 04181 37171 32996 70503 10043 20026 30213 40232 57006 87030 333 10096
AAXX 04181 37228 11597 81801 10013 20002 39393 40242 58002 60020 78082 883// 333 10020
AAXX 04181 37470 32496 81802 10034 21011 30282 40259 52004 889// 333 10051
AAXX 04181 37663 32996 82901 11025 21060 39051 48511 52015 8807/ 333 11003
AAXX 04184 71423 16/// /3315 11068 21084 39990 49999 56025 60001 333 11047 21101 70000
AAXX 04184 71434 16/// /3016 11160 21201 39937 40004 53015 60001 333 11096 70021
AAXX 04184 71300 16/// /1906 11092 21123 39999 40127 56054 60001 333 11092 21221 70000
AAXX 04184 71309 16/// /2706 11070 21091 39999 40011 55005 60001 333 11070 21225 70012 555 10060
AAXX 04184 71340 16/// /1108 10002 21014 60001 333 10005 21045 70020
AAXX 04184 71341 16/// ///// 10102 21029 60001 333 10105 20020 70000
AAXX 04184 71342 16/// /2111 10049 21002 60001 333 10052 20003 70000
AAXX 04184 71344 16/// /2217 10075 21010 60001 333 10077 20016 70000
AAXX 04184 71347 17/// /1208 10022 20019 60041 7//4/ 333 10035 21008 70077
AAXX 04184 71348 17/// /1203 10019 20016 60031 7//4/ 333 10030 20001 70050
AAXX 04184 71349 16/// ///// 11040 21044 60001 333 11029 21087 70000
AAXX 04184 71503 46/// /0515 11199 21234 39815 40098 58020 6///1 333 11199 21325 7////
AAXX 04184 71506 46/// /0855 11212 21245 39034 49933 58039 6///1 333 11205 21241 7////
AAXX 04184 71514 16/// /2004 11016 21053 39452 40158 50002 60001 333 11016 21074 70000
AAXX 04184 71107 16/// /1731 10074 20066 39861 49971 53017 60001 333 10091 20074 70000
AAXX 04181 38836 115// 80000 10033 20026 39256 40205 52007 60110 72584 889// 333 10048
AAXX 04181 38599 31795 82407 10015 21013 39676 40200 52007 71022 83931 333 10024
AAXX 04181 38599 31795 82407 10015 21013 39676 40200 52007 71022 83931 333 10024
AAXX 04184 60395 12665 40000 10135 20106 40303 52014 60002 84200 333 10170 84840 95990
AAXX 04184 60421 12560 20000 10060 20047 39229 48560 51001 60002 82200 333 10103 82830 95990
AAXX 04184 60423 12665 62712 10078 20062 39281 48540 56001 69912 86800 333 10091 82833 85640 95990
AAXX 04184 60430 12960 10000 10096 20069 40316 53001 60002 80002 333 10138 81070 95990
AAXX 04184 60437 12970 12806 10070 20058 39072 48564 54000 60002 80001 333 10107 81070 95900
AAXX 04184 60444 12970 03208 10088 20012 39176 48576 53002 60002 333 10150 95990
AAXX 04184 60452 12965 0//// 10155 20114 40305 55000 60002 222// 20000 333 10171 91826
AAXX 04184 60457 12563 10000 10110 20098 40307 56010 60002 81100 333 10175 81020 95990
AAXX 04184 60514 12960 32606 10111 20059 39376 48599 55000 60002 80002 333 10156 83073 95990
AAXX 04184 60518 12965 00000 10135 20103 40290 58004 60002 222// 20000 333 10176 91807 95900
AAXX 04184 60520 12960 00000 10107 20072 40316 50001 60002 333 10200 95990
AAXX 04184 60540 11970 00206 10094 21013 39136 48585 53006 60002 70200 333 10158 95990
AAXX 04184 60560 11960 01004 10134 21031 39052 48591 53003 60002 70200 333 10179 95990
AAXX 04184 61017 32960 40404 10190 20001 39765 40182 80002 333 10233 59009 84080
AAXX 04184 61024 32960 51212 10213 21028 39591 40167 80001 333 10262 59009 85080
AAXX 04184 61036 32960 70404 10266 20054 39893 40133 80008 333 10301 59002 87280
AAXX 04184 61043 32960 50610 10248 21043 39696 40142 80002 333 10290 59004 85080
AAXX 04184 61045 32965 50000 10215 20015 39648 40154 80002 333 10260 59007 85080
AAXX 04184 61049 32960 70000 10228 20006 39822 40147 80008 333 10273 59002 87280
AAXX 04184 61052 32960 20606 10273 21003 39878 40136 80002 333 10305 58008 82080
AAXX 04184 61075 32960 51002 10267 20023 39824 40135 80002 333 10315 59005 85080
AAXX 04184 61080 32960 70604 10240 20042 39724 40151 80008 333 10283 59005 87280
AAXX 04184 61090 32962 63608 10232 21013 39635 40195 80008 333 10272 59002 86280
AAXX 04184 61091 32960 50000 10230 20096 39697 40163 80002 333 10278 59012 85080
AAXX 04184 61096 32960 73604 10235 21006 39765 40152 80002 333 10287 59003 87280
AAXX 04184 61099 32965 30206 10286 20044 39882 40111 80001 333 10320 59008 83080
AAXX 04184 41252 36/// /3208 10169 20072 39791 40081 333 0E019 10259 58013
AAXX 04184 41315 36/// /3619 10190 20072 39175 42812 333 0E/// 10254 58011
AAXX 04184 60353 NIL
AAXX 04184 60367 12565 6//// 10130 20091 40268 58017 60002 86800 333 10160 83820 84640
AAXX 04184 60369 12560 40000 10160 20081 40303 53010 60002 82280 333 10178 82826 91827
AAXX 04184 60401 NIL
AAXX 04184 60403 12660 62808 10118 20059 40288 53010 60002 86200 333 10159 86836 95990
AAXX 04184 60425 12970 10000 10124 20095 40309 53002 60002 80002 333 10162 81073 95990
AAXX 04184 60461 12970 00000 10130 20099 40309 55002 60002 222// 20000 333 10163 91808 95990
AAXX 04184 60467 12670 10000 10114 20057 40286 55001 60002 81100 333 10166 81833 95990
AAXX 04184 60492 12960 00000 10147 20119 40303 55004 60002 333 10180 95990
AAXX 04184 60515 12960 00000 10133 20027 40283 57005 60002 333 10182 95990
AAXX 04184 60517 12960 01605 10140 20100 40306 58008 60002 333 10161 95970
AAXX 04184 60522 12975 00000 10133 20056 40324 53005 60002 333 10209 95990
AAXX 04184 60557 11970 00000 10090 20015 38971 48602 53004 60002 70200 333 10144 95990
AAXX 04184 60563 12960 03410 10117 21007 39391 48582 51002 60002 333 10169
AAXX 04184 60603 12960 03608 10132 21006 40308 52017 60002 333 10170
AAXX 04184 60638 12960 03606 10124 20000 40284 53009 60002 333 10163
AAXX 04184 60686 NIL
AAXX 04181 22003 32999 01803 11119 21146 39979 49989 57024 333 11084 91005
AAXX 04181 22140 11597 80906 11075 21119 39962 49977 57026 69902 70282 889// 333 11075 91007
AAXX 04181 22100 11799 80701 11115 21135 39812 49961 57020 69922 70282 885// 333 11065 88656 91002
AAXX 04181 22213 11468 80101 11126 21132 39792 49965 57026 60022 78582 889// 333 11103 85922 91002
AAXX 04181 22004 31565 50501 11119 21181 39855 49972 57024 70422 82501 333 11064 91005
AAXX 04181 28216 11898 61401 11162 21177 39865 40166 57009 69900 70172 86010 333 11140
AAXX 04181 28428 11596 81803 11177 21190 30001 40201 58005 69920 71072 885// 333 11171
AAXX 04181 28451 32996 02702 11205 21224 30017 40190 52002 333 11138
AAXX 04181 28541 32983 70000 11171 21183 39681 40208 52004 87030 333 11142
AAXX 04181 28655 32998 02901 11198 21216 39968 40209 52008 333 11155
AAXX 04181 28756 32997 01902 11237 21259 30053 40217 52013 333 11202
AAXX 04181 29557 42998 10000 11217 21235 39995 40287 58002 80001
AAXX 04181 29625 42998 22101 11165 21178 30044 40235 54000 80001
AAXX 04181 29813 42999 81502 11148 21161 30025 40215 53001 8805/
AAXX 04181 29822 42997 81403 11147 21167 30067 40240 54000 8801/
AAXX 04181 29915 42998 81502 11111 21139 30056 40220 53002 83032
AAXX 04181 36020 42998 71703 11102 21130 30022 40230 53004 87030
AAXX 04181 56146 11880 82202 11070 21089 36706 52003 69971 72270 8141/ 333 05153 10002
AAXX 04181 56444 11980 02702 11086 21107 36787 57001 69901 70080 333 00055 10026
AAXX 04181 56492 32970 80000 10049 20019 39857 40278 57019 8807/ 333 05600 10073
AAXX 04181 56571 11680 73602 10017 20002 38405 57007 69901 70060 878// 333 05353 10064
AAXX 04181 57799 11462 82702 10000 21001 30251 40345 52005 60031 77070 885// 333 10060
AAXX 04181 57866 11760 80202 10005 21009 30115 40334 57002 60031 76076 885// 333 10028
AAXX 04181 57957 11457 80403 10025 21006 30104 40313 57007 69971 72176 885// 333 10042
AAXX 04181 57993 11760 83202 10010 21003 30151 40326 57001 60091 77976 885// 333 10064
AAXX 04181 58027 32966 00901 11070 21130 30280 40335 57008 333 10021
AAXX 04181 58141 31956 00000 11062 21115 30325 40345 57003 70500 333 10025
AAXX 04181 58265 32963 63203 11006 21074 30335 40341 57005 80002 333 10026
AAXX 04181 58472 32975 83408 10010 21055 30225 40324 57011 8807/ 333 10021
AAXX 04181 58477 32968 63602 10016 21105 30273 40320 57013 86040 333 10050
AAXX 04181 58527 32960 80401 10030 21121 30243 40322 57002 8807/ 333 10076
AAXX 04181 58633 32965 80403 10024 21080 30222 40327 57005 8807/ 333 10071
AAXX 04181 58666 32965 63609 10027 21059 30213 40320 57005 86040 333 10044
AAXX 04181 58725 11658 81101 10007 21007 30047 40322 52001 60021 77070 885// 333 10067
AAXX 04181 58921 11440 80202 10038 20031 30041 40300 57007 60071 76066 887// 333 10061
AAXX 04181 59082 11650 83403 10019 20009 30158 40313 57005 60041 76066 885// 333 10058
AAXX 04181 59211 31558 81101 10070 20047 30066 40283 57009 71000 8647/ 333 10092
AAXX 04181 59265 11356 80202 10042 20030 30137 40282 57012 60061 76066 885// 333 10069
AAXX 04181 59293 32765 83604 10046 21023 30205 40295 52005 885// 333 10080
AAXX 04181 59501 11762 83603 10082 20035 30234 40256 52003 69911 76060 885// 333 10150
AAXX 04181 59663 32661 80208 10088 20022 30137 40248 57005 885// 333 10137
AAXX 04181 59838 11460 70409 10141 20123 30196 40207 57005 69981 70060 878// 333 10189
AAXX 04181 59948 32370 70715 10166 20137 39697 40186 57005 878// 333 10196 91120 91504
AAXX 04181 59981 32570 40706 10231 20199 30164 40171 57007 84800 333 10256
AAXX 04181 23226 32660 81003 11115 21177 39943 40169 57011 885// 333 11074 88643
AAXX 04181 23701 11357 81403 10101 21114 39944 40079 57021 69980 77172 8671/ 333 11086 86708
AAXX 04181 28909 12999 81502 11125 21138 30098 40203 58006 69920 8801/ 333 11136
AAXX 04181 23205 11498 81704 11115 21143 30068 40084 57017 60010 70272 886// 333 11120 88711 91108
AAXX 04184 71893 11262 81421 10086 20077 30077 40108 56001 60141 76166 8657/ 333 10086 20071 70634 90983
AAXX 04184 71893 11262 81421 10086 20077 30077 40108 56001 60141 76166 8657/ 333 10086 20071 70634 90983
AAXX 04181 50353 32970 00000 11304 21338 30042 40289 52010 333 11157
AAXX 04181 50557 32970 02701 11267 21298 39955 40289 52007 333 11160
AAXX 04181 50756 32960 00000 11247 21264 39962 40291 52002 333 11163
AAXX 04181 50949 32965 02001 11178 21223 30101 40286 52002 333 11102
AAXX 04181 50963 32962 02203 11218 21243 30128 40278 52008 333 11147
AAXX 04181 50978 32980 02707 11167 21214 39874 40246 52010 333 11101
AAXX 04181 51087 NIL
AAXX 04181 51156 NIL
AAXX 04181 51644 NIL
AAXX 04181 51656 32975 00000 11105 21139 39155 40317 57009 333 05400 11045
AAXX 04181 51886 32980 60702 11149 21324 37078 57008 80002 333 05302 11065
AAXX 04181 52602 32980 00000 11216 21368 37234 57008 333 05300 11026
AAXX 04181 52713 32980 00000 11198 21294 36868 57008 333 05300 11047
AAXX 04181 52754 32980 03603 11167 21234 36749 57007 333 05301 11059
AAXX 04181 52818 32980 21102 11114 21245 37198 57009 80002 333 05303 11052
AAXX 04181 52836 32980 21403 11154 21265 36856 57015 80002 333 05203 11029
AAXX 04181 52955 32980 01601 11178 21221 36937 57004 333 05302 11020
AAXX 04181 53068 32980 01601 11247 21288 39104 40342 57003 333 05751 11078
AAXX 04181 53276 32980 02205 11147 21240 38901 40331 57003 333 11085
AAXX 04181 54135 32980 01802 11191 21224 30057 40299 54000 333 11095
AAXX 04181 54236 32970 01601 11189 21212 30188 40303 57001 333 11079
AAXX 04181 54539 32970 02501 11071 21170 30300 40315 57004 333 11004
AAXX 04181 54662 32975 02001 11064 21119 30197 40318 57002 333 11051
AAXX 04181 54753 32965 02703 11020 21101 30320 40327 52001 333 11009
AAXX 04181 54857 32980 03404 11040 21124 30239 40337 57006 333 11008
AAXX 04181 57067 32968 02001 11091 21143 39620 40337 57009 333 10036
AAXX 04181 57178 32972 00201 11036 21113 30172 40339 57009 333 10054
AAXX 04181 57245 32970 80902 10008 21039 39939 40303 57007 8807/ 333 05702 10081
AAXX 04181 57297 32962 62901 11030 21079 30189 40337 57007 86030 333 10050
AAXX 04184 84501 31960 61907 10238 20181 30122 40148 70210 8603/ 333 56000 58007 86364
AAXX 04184 84691 31360 42810 10266 20222 30139 40146 70244 81601 333 56000 58015 81709 83073
AAXX 04184 84455 31460 50504 10300 20220 39820 40172 70222 82130 333 56100 58010 82820 83360
AAXX 04184 84773 31862 31211 10270 20192 30120 40145 70122 83030 333 56090 58016 83357
AAXX 04184 84564 31560 10620 10260 20151 38150 7012/ 81200 333 56000 59018 81830
AAXX 04184 84370 31460 83306 10280 20232 30084 40124 70222 885// 333 56000 59009 88624
AAXX 04184 84377 31560 52903 10312 20240 30004 40107 70224 85200 333 56800 58010 85820
AAXX 04184 84474 31660 40000 10302 20237 39791 7022/ 84100 333 56900 58023 87730 56900 58019 84840
AAXX 04184 84425 31460 80000 10250 20236 39965 40184 70222 8353/ 333 5689/ 48021 83613 87360
AAXX 04184 84531 31962 51913 10254 20182 30105 40122 70222 85030 333 56090 58014 85362
AAXX 04184 84472 21560 83103 10168 20108 37419 70320 887// 333 56900 58009 60011 83725 87740
AAXX 04184 84735 31460 30606 10160 20026 36454 70120 832// 333 569// 58009 83813
AAXX 04184 84390 31560 82209 10300 20205 30036 40135 70211 84530 333 5655/ 58011 84330 84357
AAXX 04184 84444 21560 80820 10170 20115 37543 70264 8443/ 333 5699/ 58002 60041 84630 84361
BBXX 41052 04181 99183 70648 46/// /3302 10263 40145 57027 91800 22200 00271 333 91203
BBXX 41053 04181 99185 70661 46/// /0203 10264 40152 58027 91800 22200 00276 10902 70011 333 91204
BBXX 46249 04181 99338 71197 46/// ///// 1//// 91807 22200 00143 11403 21002 326// 41403 70017
BBXX 46248 04181 99461 71247 46/// ///// 1//// 91804 22200 00095 11310 20907 325// 41308 70052
BBXX 46244 04181 99409 71244 46/// ///// 1//// 91805 22200 00107 11305 21003 327// 41304 70027
AAXX 04181 91945 36/// /3412 10283 20228 30144 40149 51010
AAXX 04184 89062 42480 71810 11004 21034 39860 49901 57001 875// 333 81710 87620
BBXX 41052 04181 99183 70648 46/// /3202 10262 40147 91750 333 91203
BBXX 41052 04181 99183 70648 46/// /3202 10263 40147 91740 333 91203
AAXX 04184 40582 32960 03206 10120 20017 40206 51009 333 55300 00000 10279 20000 30000 41021 51300 60000 55407 40000 90400 91007 91123 91215 91309
AAXX 04184 41150 NIL
AAXX 04184 41168 NIL
AAXX 04184 41170 42968 23109 10165 20092 30182 40195 80001 333 10217 58009 82074
AAXX 04184 41176 NIL
AAXX 04184 41184 42660 21705 10172 20114 40162 82100 333 10252 58019 82840
AAXX 04184 41194 12660 12707 10208 20124 30165 40170 60001 81500 333 10240 58016 81635
AAXX 04184 41196 42960 32305 10195 20116 30132 40171 80001 333 10245 58016 83075
AAXX 04184 41198 42960 02620 10204 20108 40153 333 10276 58012
AAXX 04184 41210 NIL
AAXX 04184 41216 NIL
AAXX 04184 41217 42660 22908 10190 20130 30141 40170 82500 333 10230 58015 82630
AAXX 04184 41218 42560 79901 10163 20115 39870 40182 875// 333 10243 58023 87623
AAXX 04184 41226 NIL
AAXX 04184 41244 NIL
AAXX 04184 41246 32660 23411 10216 20140 30150 40155 81530 333 10294 58015 81630
AAXX 04184 41254 NIL
AAXX 04184 41256 31959 32104 10225 20163 30144 40154 70500 80001 333 10258 58011 83075
AAXX 04184 41258 36/// /2604 10240 20148 30140 40145 333 0E/// 10255 58009
AAXX 04184 41268 36/// /0402 10225 20192 30133 48013 333 0E024 10296 59003
AAXX 04184 41312 36/// /2705 10215 20170 30115 40154 333 0E/// 10254 58003
AAXX 04184 41314 32960 00307 10198 20076 39673 40180 333 10278 58018
AAXX 04184 41316 32960 03104 10212 20146 30130 40156 333 10255 58003
AAXX 04184 41404 42960 09902 10140 21011 37888 48543 333 10247 59004
AAXX 04184 41407 NIL
AAXX 04184 41431 NIL
AAXX 04184 41466 12960 00000 10174 20130 38583 48484 333 10284 58005
AAXX 04184 41477 NIL
AAXX 04184 41480 42558 11203 10251 20185 30153 40156 70544 81500 333 10290 58000 81620
BBXX 41053 04181 99185 70661 46/// /0203 10264 40153 91750 333 91205
BBXX 41053 04181 99185 70661 46/// /0303 10264 40154 91740 333 91204
AAXX 04181 28383 11996 61001 11213 21231 30087 40179 52002 69900 71072 80001 333 11175
BBXX 64045 04184 99591 70117 46/// /2831 10072 20037 49808 53005 22200 00100 10812 70058 333 90710 91148
BBXX 62105 04184 99554 70121 46/// /2736 10113 20094 49960 55016 22200 00106 11017 70083 333 90710 91149
BBXX 62081 04184 99510 70134 46/// ///// 10114 20075 40194 57010 22200 00118 10812 70061
BBXX 62442 04184 99490 70164 46/// /2527 1//// 2//// 40282 57013 22200 00120 333 90710 91136
BBXX 62029 04184 99487 70125 46/// /2628 10113 20077 40278 55013 22200 00123 10811 70053 333 90710 91137
BBXX 62163 04184 99475 70084 46/// /2627 10104 20063 40302 58004 22200 00123 10809 70047 333 90710 91136
BBXX 62001 04184 99452 70050 46/// /2516 10126 20075 40342 58004 22200 00134 11009 70047
BBXX 64046 04184 99606 70049 46/// /2818 10071 20039 49716 56076 22200 00076 10909 70046
BBXX 62301 04184 99524 70047 46/// /2528 10091 20066 40100 57024 22200 00084 10708 70039 333 90710 91146
BBXX 62303 04184 99516 70051 46/// /2627 10104 20079 40132 58018 22200 00107 10810 70048 333 90710 91142
BBXX 63055 04184 99606 10016 47998 /2508 10056 21026 49780 57050 700// 22200 10605 70026
BBXX 62112 04184 99584 70002 47495 /2225 10056 20040 49799 57086 762// 22200
BBXX PJAI 04184 99581 70014 47597 /2320 10074 20033 49798 57085 761// 22200
BBXX 62111 04184 99580 70003 46/// /2333 10064 20037 49821 57086 22200 10606 70029
BBXX 63056 04184 99597 10016 47698 /2012 10049 20003 49787 57051 700// 22200 10707 70033
BBXX 63110 04184 99595 10015 47499 /2213 10053 20011 49793 57062 700// 22200 10706 70032
BBXX 63057 04184 99592 10015 47498 /2319 10054 20010 49797 57064 700// 22200 10707 70033
BBXX 62128 04184 99587 10014 47396 /2221 10052 20029 49809 57065 761// 22200 10707 70035
BBXX 62129 04184 99584 10003 46/// ///// 10059 20037 49814 57076 22200
BBXX 62113 04184 99584 10002 47498 /2126 10057 20034 49814 57075 700// 22200
BBXX 63108 04184 99608 10017 47698 /2609 10040 21019 49773 57046 700// 22200 10905 70026
BBXX 63106 04184 99610 10017 46/// /2809 10046 49776 57041 22200
BBXX 63105 04184 99610 10017 47998 ///// 10052 21001 49776 57042 700// 22200
BBXX 63113 04184 99610 10017 46/// /3005 10047 20001 49777 57054 22200 10707 70033
BBXX 63112 04184 99611 10010 46/// /2607 10058 21027 49771 57042 22200 10807 70036
BBXX 63107 04184 99611 10017 46/// /2706 10050 49775 57041 22200
BBXX 63101 04184 99612 10009 46/// /2907 10058 20001 49771 22200
BBXX 63103 04184 99612 10011 46/// /2907 10052 21011 49773 57047 22200 10807 70035
BBXX 63104 04184 99612 10016 47598 /2909 10052 20006 49773 57037 700// 22200
BBXX 63117 04184 99613 10011 47599 /3010 10048 21013 49772 57041 700// 22200
BBXX 63115 04184 99616 10013 47598 /2811 10044 21025 49772 57033 700// 22200 10808 70041
BBXX MWYG6 04184 99603 70040 47998 /2018 10065 700// 22200
BBXX 64041 04184 99607 70026 47495 /1113 10039 20018 49741 57074 763// 22200 10808 70038
BBXX PJGO 04184 99571 10022 47/96 /2333 10058 49863 57070 762// 22200
BBXX 62133 04184 99571 10009 46/// /2531 10066 20038 49847 57074 22200 10708 70042
BBXX 62119 04184 99570 10019 47497 /2634 10066 20037 49874 57071 700// 22200 10709 70044
BBXX 62152 04184 99570 10018 47/97 /2217 10065 20039 49874 57069 740// 22200 10710 70048
BBXX 62154 04184 99564 10022 46/// /2431 10070 20047 49884 57069 22200
BBXX 62120 04184 99564 10021 47496 /2534 10068 20068 49876 57074 751// 22200
BBXX 62132 04184 99564 10020 46/// /2628 10070 20040 49878 57072 22200
BBXX 62123 04184 99563 10022 47496 /2435 10070 20042 49879 57072 762// 22200
BBXX 62165 04184 99540 10009 47698 /2330 10077 20045 49999 57058 700// 22200 10606 70029
BBXX 62127 04184 99540 10007 47598 ///// 10074 20045 49996 57057 700// 22200 10505 70023
BBXX 62131 04184 99539 10012 46/// /22// 10075 20057 40002 57057 22200
BBXX 62149 04184 99537 10011 47698 /2229 10066 20064 40016 57054 700// 22200 10505 70023
BBXX 62148 04184 99536 10015 46/// /2235 10074 20039 40032 58045 22200
BBXX 62145 04184 99531 10028 47596 /2029 10069 20036 40045 57051 761// 22200 10606 70032
BBXX 62150 04184 99536 10007 47598 /2326 10076 20041 40024 57058 700// 22200 10504 70021
BBXX 62121 04184 99535 10027 46/// /2235 10067 20040 22200
BBXX 62144 04184 99534 10017 47897 /2335 10075 20037 40040 57056 700// 22200 10505 70025
BBXX ZQSD5 04184 99583 10007 46/// /2324 10060 20042 49818 57075 22200 10709 70047
BBXX 62114 04184 99583 10000 46/// /2126 10060 20040 49800 57081 22200
BBXX 62134 04184 99580 10014 47497 /2326 10067 20038 49828 57072 762// 22200 10607 70036
BBXX 62102 04184 99579 10018 46/// /2425 10064 20037 49831 57067 22200 10708 70041
BBXX 62117 04184 99579 10000 47495 /2127 10068 20039 49817 57080 762// 22200 10606 70032
BBXX 62143 04184 99577 10018 47496 /2530 10068 20045 49844 57077 762// 22200 10708 70039
BBXX 62118 04184 99577 10009 47495 /2233 10076 20044 49827 57071 762// 22200 10708 70040
BBXX 62155 04184 99577 10007 47396 /2332 10068 20046 49840 57073 762// 22200 10708 70040
BBXX 62116 04184 99576 10011 47497 /2431 10066 20042 49832 57073 761// 22200 10708 70040
BBXX 62104 04184 99574 10013 47497 /2527 10072 20042 49839 57071 740// 22200
BBXX 62153 04184 99573 10020 47497 /2428 10069 20048 49848 57069 761// 22200 10709 70044
BBXX 62122 04184 99573 10016 47497 /2330 10071 20045 49861 57068 762// 22200 10709 70044
BBXX 62142 04184 99530 10021 47597 /2329 10077 20036 40044 57053 700// 22200 10505 70023
BBXX 62140 04184 99573 10013 46/// /25// 10064 20051 49839 57070 22200
BBXX 62146 04184 99572 10021 47/96 /2532 10065 20042 49873 57066 752// 22200 10709 70043
BBXX 62164 04184 99572 10008 47496 /2325 10084 20047 49854 57073 761// 22200 00089 10708 70042
BBXX V2NA1 04184 99380 70300 41297 70517 10174 20138 40286 57006 71522 877// 22264 04160 20603 333// 41007 80152
BBXX 2AUO5 04183 99606 10017 41598 52511 10069 20002 49778 57049 70211 854// 22261 20401 329// 40905 80043
BBXX PCGM 04183 99476 70105 41597 72720 10122 20081 40310 55010 701// 855// 22213 04132 20804 399// 41207 80100
BBXX 62103 04184 99499 70029 46/98 /2740 10109 20074 40184 57022 22200 00115 10808 70039 333 90710 91158
BBXX PHBO 04183 99499 70028 41/97 82334 10111 20067 40177 56033 70262 8/7// 22264 20808 325// 41008 80090
BBXX A8IV9 04184 99362 10145 41497 53310 10160 20135 40210 54000 70222 83277 22224 20902 80145
BBXX ZCDN9 04184 99363 70121 41998 01223 10159 20086 40329 52009 70111 80000 22213 00176 20204 305// 41006 5////
BBXX 63119 04184 99583 10009 41397 82532 10056 20016 49794 57040 70262 8/678 22200 20608 327// 40809 5//// 80040
AAXX 04181 29998 42000 01901 11346 21326 38666 48515 52006
AAXX 04181 30385 42999 80000 11326 21342 39771 40378 52007 80007
AAXX 04181 30469 429// 00000 11397 21411 39559 40449 52031
AAXX 04181 30636 429// 00000 11326 21342 39734 40429 52014
AAXX 04181 30650 42984 00000 11335 21353 39178 40454 52017
AAXX 04181 30664 42999 00000 11360 21378 39303 40443 52014
AAXX 04181 30781 NIL
AAXX 04181 30777 42998 02502 11323 21346 39647 40390 52022
AAXX 04181 30844 42999 22502 11294 21305 39324 40420 52022 80001
AAXX 04181 30925 429// 00000 11228 21247 39342 40405 52013
AAXX 04181 31371 42999 00000 11326 21355 30001 40302 52007
AAXX 04181 31388 42984 00000 11349 21365 39974 40274 53008
AAXX 04181 31478 NIL
AAXX 04181 31532 41997 80000 11281 21298 39887 40268 52005 77172 84027
AAXX 04181 31594 42998 00101 11228 21292 30062 40252 52006
AAXX 04181 31655 11996 82002 11211 21223 30138 40189 53009 77172 8802/
AAXX 04181 31754 41998 80000 11214 21239 39656 40196 52011 77172 80007
AAXX 04181 23929 32978 83301 11205 21224 30105 40178 57004 8807/ 333 11146
AAXX 04181 28465 11996 82001 11204 21223 30099 40183 52006 69900 77171 8802/ 333 11193
AAXX 04181 28791 32998 22201 11175 21187 30041 40197 52003 80001 333 11157
AAXX 04181 28688 12997 42001 11198 21217 30019 40191 52003 69900 80002 333 11177
AAXX 04181 28588 12998 31801 11213 21231 30014 40187 52001 69900 80002 333 11173
AAXX 04181 28696 32997 81301 11153 21180 30052 40201 58002 8805/ 333 11158
BBXX SHIP 04184 99023 31454 41/97 22619 10284 20242 40072 57015 70211 8//// 22212 06300 10903 20202 329// 40802
BBXX 41110 04181 99341 70777 46/// ///// 1//// 91751 22200 00127 11101 21001 310// 41101 70006
BBXX 41113 04181 99284 70805 46/// ///// 1//// 91751 22200 00189 10801 20801 70005
AAXX 04181 28586 32997 01401 11251 21269 30037 40202 52014 333 11187
AAXX 04181 38388 21998 60000 11055 21073 30212 40286 52004 80003 333 69990 10009
AAXX 04181 38392 21395 89902 11020 21032 30172 40279 52008 77377 8802/ 333 69970 10011 88506
AAXX 04181 38507 21496 71302 10008 21003 30159 40265 53004 70372 83650 333 60060 10037
AAXX 04181 38511 31595 80000 10005 21001 30119 40264 52008 77377 8802/ 333 10053
AAXX 04181 38545 21597 83204 11032 21042 30079 40262 52015 77172 8802/ 333 60050 11004
AAXX 04181 38647 32997 70000 10016 21006 30214 40257 57001 87070 333 10056
AAXX 04181 38656 22998 00000 11032 21033 30171 40285 52003 333 60030 10010
AAXX 04181 38687 21496 82704 11026 21039 30020 40265 52016 77072 8802/ 333 60060 11008 88513
AAXX 04181 38750 32997 01202 10027 20017 30294 40265 58002 333 10081
AAXX 04181 38763 22597 61601 11010 21046 30164 40274 52001 83530 333 69970 10043
AAXX 04181 38774 22995 21802 11034 21048 30100 40307 58003 80004 333 69960 10015
AAXX 04181 38799 22596 82702 11016 21021 30049 40291 52024 77177 8872/ 333 60020 10004
AAXX 04181 38806 21596 83203 11017 21031 39999 40270 52021 77177 8802/ 333 60080 10004
AAXX 04181 38880 21996 01302 11043 21059 30030 40300 50001 71022 333 60040 11002
AAXX 04181 38886 21495 83102 11012 21022 30063 40302 52010 71072 8652/ 333 10008
AAXX 04181 38895 21496 82802 11014 21022 39997 40300 52015 77172 8802/ 333 60030 10003
AAXX 04181 38911 21597 82804 11008 21024 39968 40274 52025 77177 8802/ 333 60040 10036
AAXX 04181 38915 21597 83205 11004 21019 39934 40271 52021 70272 885// 333 60070 10054
AAXX 04181 38974 21598 83202 11013 21022 39954 40304 52010 8672/ 333 60040 86826 10009
AAXX 04181 38987 21494 80101 11036 21050 39536 40318 52011 77377 8802/ 333 60080 10019
AAXX 04181 22438 11540 81305 11055 21069 39905 49927 57025 69920 78582 889// 333 11050
AAXX 04181 38847 3//// /2601 10048 20024 39410 40180 333 10089
BBXX 46241 04181 99330 71173 46/// ///// 1//// 91741 22200 00145 11302 21001 327// 41302 70011
BBXX 46236 04181 99368 71219 46/// ///// 1//// 91750 22200 00117 11305 21003 327// 41304 70023
BBXX 46237 04181 99378 71226 46/// ///// 1//// 91741 22200 00110 11305 21002 326// 41304 70023
BBXX 46217 04181 99342 71194 46/// ///// 1//// 91812 22200 00145 11303 21002 327// 41302 70014
BBXX 46216 04181 99343 71198 46/// ///// 1//// 91757 22200 00141 11303 21002 327// 41303 70017
BBXX 46223 04181 99335 71178 46/// ///// 1//// 91800 22200 00152 11403 21002 327// 41402 70014
BBXX 46211 04181 99469 71242 46/// ///// 1//// 91806 22200 00085 11311 20906 326// 41308 70053
BBXX 46231 04181 99327 71174 46/// ///// 1//// 91754 22200 00148 11403 21001 329// 41403 70015
BBXX 46222 04181 99336 71183 46/// ///// 1//// 91756 22200 00148 11503 21002 327// 41503 70015
BBXX 46219 04181 99332 71199 46/// ///// 1//// 91758 22200 00142 11406 20902 329// 41405 70028
BBXX 46242 04181 99332 71174 46/// ///// 1//// 91758 22200 00151 11402 21001 325// 41401 70009
AAXX 0418/ 89108 46/// ///// 11221 36915 4//// 5////
AAXX 0418/ 89329 46/// ///// 11096 38676 4//// 5////
AAXX 0418/ 89799 46/// ///// 11250 4//// 5////
AAXX 04181 80001 01467 80405 10236 20227 30169 40170 60251 75165 8227/ 333 5620/ 58006 60157 82816 88458
AAXX 04181 80002 01470 80106 10244 20223 60041 72055 8212/ 333 5689/ 60047 82817 88458
AAXX 04181 80009 31560 22502 10308 20244 30113 40118 70500 82801 333 56090 58000 82820
AAXX 04181 80022 31465 33404 10292 20238 30121 40123 70511 81131 333 56990 58004 81817 84359
AAXX 04181 80028 31560 20405 10296 20228 30099 40134 70500 81501 333 561/9 58000 82620
AAXX 04181 80035 01462 50203 10268 20235 30138 40143 69901 75022 85100 333 561// 58000 69907 85818
AAXX 04181 80036 31568 20480 10325 20202 70500 82800 333 560// 82820
AAXX 04181 80063 31462 80000 10286 20237 70522 8442/ 333 5600/ 84618 88459
AAXX 04181 80084 31565 43304 10296 20235 70511 84800 333 563// 84825
AAXX 04181 80091 31458 70000 10283 20245 70522 84820 333 5690/ 84610 85460
AAXX 04181 80094 31462 82703 10220 20190 38823 74022 8687/ 333 5679/ 58002 86815 83357
AAXX 04181 80097 11450 80000 10247 20225 39776 40125 60181 74052 8483/ 333 5699/ 58007 84812 84359
AAXX 04181 80342 11430 70603 10176 20164 38229 69931 74052 85830 333 5643/ 59005 85810 85358
AAXX 04181 80110 31570 80403 10244 20118 38517 70522 8488/ 333 5600/ 57896 58004 84833 88358
AAXX 04181 80112 31570 80804 10185 20119 37913 70521 888// 333 56099 57896 59001 84820 84633
AAXX 04181 80139 32570 10605 10341 20222 81100 333 56200 81823
AAXX 04181 80144 01457 70000 10276 20237 60051 70552 87200 333 560// 69937 87815
AAXX 04181 80149 NIL
AAXX 04181 80210 31463 62901 10234 20180 38676 70422 83231 333 56890 57891 58006 83815 83259
AAXX 04181 80211 31565 80000 10238 20187 70522 85220 333 5635/ 57831 85820 84459
AAXX 04181 80214 01460 81703 10232 20212 39138 60031 70552 8782/ 333 5650/ 58016 60037 87815
AAXX 04181 80222 31567 82104 10187 20102 37524 70522 85855 333 56399 58002 85827 83458
AAXX 04181 80234 32562 50000 10308 20173 39615 40110 82532 333 56239 58007 82623 83270
AAXX 04181 80241 NIL
AAXX 04181 80259 11560 61803 10268 20180 39064 60011 70552 83837 333 56359 58005 83820 83360
AAXX 04181 80315 31564 62001 10293 20214 39610 40105 71522 82275 333 56449 58022 82820 84362
AAXX 04181 80342 11430 70603 10176 20164 38229 69931 74052 85830 333 5643/ 59005 85810 85358
AAXX 04181 80370 01470 70000 10152 20086 60011 70352 84870 333 5634/ 69927 84818 85457
AAXX 04181 80398 32470 71902 10298 20260 30022 40122 85830 333 5699/ 59001 85815 87358
BBXX SHIP 04183 99275 11337 41/98 23025 10140 20140 40248 51003 8//// 22283 00210 80140
BBXX SHIP 04184 99296 11388 41398 63032 10140 20085 40146 55003 70322 85/// 22282 00211 20708 335// 40910 5//// 80110
BBXX ZQDI9 04183 99230 11175 41296 80533 10100 20056 40256 57010 75852 8562/ 22253 00165 20603 303// 4//06 5//// 80080
BBXX SHIP 04184 99079 11267 41698 42711 10250 20229 40101 5/018 702// 83330 22244 00284 80235
BBXX A8JX9 04183 99285 11278 41/98 93430 10137 20055 40240 56010 70022 8//// 22214 29910 3//// 4//// 5//// 80095
BBXX SHIP 04184 99327 11292 41697 73318 10090 20049 40255 51009 70222 87453 22250 00168 20202 333// 40202 80070
BBXX SHIP 04184 99059 11318 41/97 60320 10268 20257 40090 56012 76022 85/// 22212 06289 10606 80260
AAXX 04181 80001 01467 80405 10236 20227 30169 40170 60251 75165 8227/ 333 5620/ 58006 60157 82816 88458
AAXX 04181 80002 01470 80106 10244 20223 60041 72055 8212/ 333 5689/ 60047 82817 88458
AAXX 04181 80009 31560 22502 10308 20244 30113 40118 70500 82801 333 56090 58000 82820
AAXX 04181 80022 31465 33404 10292 20238 30121 40123 70511 81131 333 56990 58004 81817 84359
AAXX 04181 80028 31560 20405 10296 20228 30099 40134 70500 81501 333 561/9 58000 82620
AAXX 04181 80035 01462 50203 10268 20235 30138 40143 69901 75022 85100 333 561// 58000 69907 85818
AAXX 04181 80036 31568 20480 10325 20202 70500 82800 333 560// 82820
AAXX 04181 80063 31462 80000 10286 20237 70522 8442/ 333 5600/ 84618 88459
AAXX 04181 80084 31565 43304 10296 20235 70511 84800 333 563// 84825
AAXX 04181 80091 31458 70000 10283 20245 70522 84820 333 5690/ 84610 85460
AAXX 04181 80094 31462 82703 10220 20190 38823 74022 8687/ 333 5679/ 58002 86815 83357
AAXX 04181 80097 11450 80000 10247 20225 39776 40125 60181 74052 8483/ 333 5699/ 58007 84812 84359
AAXX 04181 80342 11430 70603 10176 20164 38229 69931 74052 85830 333 5643/ 59005 85810 85358
AAXX 04181 80110 31570 80403 10244 20118 38517 70522 8488/ 333 5600/ 57896 58004 84833 88358
AAXX 04181 80112 31570 80804 10185 20119 37913 70521 888// 333 56099 57896 59001 84820 84633
AAXX 04181 80139 32570 10605 10341 20222 81100 333 56200 81823
AAXX 04181 80144 01457 70000 10276 20237 60051 70552 87200 333 560// 69937 87815
AAXX 04181 80149 NIL
AAXX 04181 80210 31463 62901 10234 20180 38676 70422 83231 333 56890 57891 58006 83815 83259
AAXX 04181 80211 31565 80000 10238 20187 70522 85220 333 5635/ 57831 85820 84459
AAXX 04181 80214 01460 81703 10232 20212 39138 60031 70552 8782/ 333 5650/ 58016 60037 87815
AAXX 04181 80222 31567 82104 10187 20102 37524 70522 85855 333 56399 58002 85827 83458
AAXX 04181 80234 32562 50000 10308 20173 39615 40110 82532 333 56239 58007 82623 83270
AAXX 04181 80241 NIL
AAXX 04181 80259 11560 61803 10268 20180 39064 60011 70552 83837 333 56359 58005 83820 83360
AAXX 04181 80315 31564 62001 10293 20214 39610 40105 71522 82275 333 56449 58022 82820 84362
AAXX 04181 80342 11430 70603 10176 20164 38229 69931 74052 85830 333 5643/ 59005 85810 85358
AAXX 04181 80370 01470 70000 10152 20086 60011 70352 84870 333 5634/ 69927 84818 85457
AAXX 04181 80398 32470 71902 10298 20260 30022 40122 85830 333 5699/ 59001 85815 87358
BBXX 41114 04181 99276 70802 46/// ///// 1//// 91816 22200 00207 10902 20902 305// 41101 70012
BBXX 44098 04181 99428 70702 46/// ///// 1//// 91807 22200 00080 10602 20602 310// 41101 70010
BBXX 42085 04181 99179 70665 46/// /1404 10270 40147 57029 91800 22200 00274 10702 70009 333 91205
BBXX 42085 04181 99179 70665 46/// /1404 10268 40148 91750 333 91205
BBXX 42085 04181 99179 70665 46/// /1305 10269 40149 91740 333 91206
BBXX SHIP 04184 99466 71416 41597 62333 10050 20050 40016 51085 70301 8733/ 91750 22224 00080 20406 325// 40808 5//// 80050
BBXX SHIP 04184 99547 71362 41698 61240 10070 20027 49831 51010 70222 85516 91800 22263 00070 20804 326// 40804 80050
BBXX DDAC2 04180 99537 71788 41498 60706 11038 21047 40030 54000 7//22 84460 22263 04032 20402 331// 40703 5//// 81041
BBXX SHIP 04184 99321 71377 41598 80210 10180 20148 40268 52026 7158 2 886// 22263 00230 20303 330// 40807 80160
BBXX SHIP 04184 99116 51233 41497 21016 10258 20196 40175 52011 70300 82230 22234 04252 20302 30712 40702 50702
BBXX 46221 04181 99339 71186 46/// ///// 1//// 91745 22200 00149 11403 21002 327// 41403 70016
BBXX SHIP 04184 99116 51233 41497 21016 10258 20196 40175 52011 70300 82230 22234 04252 20302 30712 40702 50702
BBXX 46114 04181 99364 71222 46/// ///// 1//// 91804 22200 00117 11305 21003 328// 41304 70024
AAXX 04181 51709 32962 32501 11103 21136 38752 40321 57008 80002 333 05401 11043
AAXX 04181 51087 32980 60000 11203 21244 39278 40328 54000 80002 333 05304 11090
AAXX 04181 51156 32780 53601 11154 21196 38706 40291 57002 82502 333 05351 11083
AAXX 04181 51644 32960 03601 11146 21168 38976 40321 57015 333 05551 11041
AAXX 04181 51431 32980 00401 11108 21130 39405 40235 52004 333 05151 10008
AAXX 04181 51747 32965 00000 11220 21263 38965 40353 57005 333 05452 11038
AAXX 04184 93800 16/// /0526 10143 20137 40095 57004 60181
AAXX 04184 93805 16/// /2816 10127 20119 40085 52054 60161
AAXX 04184 93994 16/// /1209 10198 20158 40151 52004 60001
BBXX ZMFR 04184 99428 51782 43/// /3411 10161 20153 40145 52005 22200 00156
BBXX ZMENA 04184 99372 31760 46/// ///// 10186 20162 40173 52002 22282
AAXX 04184 82678 21596 81802 10252 20234 39964 40104 70262 85200 333 58024 60091
AAXX 04184 82784 32598 63202 10336 20253 39633 40079 83200 333 58004
AAXX 04184 82791 32599 61406 10358 20188 39802 40076 86400 333 58013
AAXX 04184 82983 32598 60906 10342 20232 39665 40067 83204 333 58001
AAXX 04184 83096 32695 20906 10287 20239 30105 40112 82100 333 58009
AAXX 04184 83186 32598 51409 10322 20165 39555 40074 84530 333 58017
AAXX 04184 83242 32497 71402 10285 20228 39626 40113 87700 333 58013
AAXX 04184 83288 21598 82302 10241 20216 39628 40122 70366 8351/ 333 58012 60011
AAXX 04184 83344 21598 72703 10233 20203 39161 40125 70365 83610 333 58010 60061
AAXX 04184 83064 32698 60000 10277 20222 39833 40104 86600 333 58017
AAXX 04184 83332 21696 83202 10225 20197 39207 40118 70362 885// 333 59009 60031
AAXX 04184 83423 32698 62702 10293 20196 39283 40086 85260 333 58009
AAXX 04184 83470 32698 63206 10256 20193 39249 40096 86100 333 58020
BBXX ZMFR 04184 99428 51782 43/// /3411 10161 20153 40145 52005 22200 00156
BBXX ZMENA 04184 99372 31760 46/// ///// 10186 20162 40173 52002 22282
AAXX 04184 17310 12970 00602 10115 20045 30206 40213 52007 60002 333 10174 91107 92428
AAXX 04181 21432 42998 70902 11249 21274 30173 40194 53003 87030
AAXX 04181 21824 42998 32001 11269 21284 30142 40152 53002 82031
AAXX 04181 21908 NIL
AAXX 04181 21921 41997 80000 11343 21371 30092 40142 56002 77171 8802/
AAXX 04181 21931 41998 02302 11336 21365 30098 40133 58026 70271
AAXX 04181 21946 42999 01903 11368 21411 30106 40195 53005
AAXX 04181 21982 32998 73609 11204 21229 30136 40165 58024 87040 333 21240 48012 91112
AAXX 04181 25062 32999 02304 11396 21435 30203 40207 57013 333 21398 47039 91107
AAXX 04181 25123 42996 61401 11341 21371 30159 40196 56005 82015
AAXX 04181 25138 42999 40000 11383 21409 30069 40208 57006 82031 333 91104
AAXX 04181 25173 31998 23107 11294 21311 30180 40185 57016 73630 82030 333 21295 48057 91112
AAXX 04181 25248 42998 00000 11468 21494 39734 40262 57006 333 91100
AAXX 04181 25282 31971 83409 11252 21264 30124 40131 57023 73632 8805/ 333 21286 46003 55000 91112
AAXX 04181 25325 NIL
AAXX 04181 25356 NIL
AAXX 04181 25399 11459 60000 11288 21318 30058 40068 57019 69900 78581 86900 333 21309 48037 55000 91102
AAXX 04181 25428 41918 30000 11462 21492 39853 40245 57004 71011 80001 333 91101
AAXX 04181 25551 32998 30000 11465 21501 30171 40207 57007 80001 333 21469 47035 55000 91101
AAXX 04181 25563 32965 43307 11374 21401 30081 40170 58014 80001 333 21382 44030 55000 91108
AAXX 04181 25594 32998 03501 11282 21306 30031 40086 57012 333 21292 49040 91103
AAXX 04181 25677 31998 03207 11254 21272 30124 40130 57013 73631 333 21274 91109
AAXX 04181 31054 42999 00000 11404 21432 39996 40312 54000
AAXX 04181 31123 42998 00000 11383 21409 39998 40376 52003
AAXX 04181 14216 11570 80302 10085 20059 30035 40187 52/// 69932 760// 887// 333 10121 923// 924/8
AAXX 04181 14219 11610 82102 10016 20014 39172 48476 51/// 60012 72166 8351/ 333 10055 41998
AAXX 04181 14232 11465 81703 10074 20066 30055 40191 51/// 60012 761// 8372/ 333 10126
AAXX 04181 14234 NIL
AAXX 04181 14236 11670 80301 10080 20060 39991 40189 53/// 69932 701// 885// 333 10118
AAXX 04181 14244 11770 80802 10078 20056 30070 40199 51/// 69952 761// 8802/ 333 10133
AAXX 04181 14248 11960 83202 10067 20044 30015 40190 52/// 69912 76062 8802/ 333 10106
AAXX 04181 14253 11650 82701 10072 20051 30016 40191 52/// 69962 761// 8802/ 333 10116
AAXX 04181 14256 11570 81004 10054 20045 39872 40194 51031 60022 76162 8672/ 333 10101
AAXX 04181 14280 12560 83405 10074 20045 30081 40191 52032 60002 8352/ 333 10106
AAXX 04181 14308 11/05 90000 10068 20060 39831 40186 53/// 69922 747// 333 10086
AAXX 04181 14321 11666 80301 10104 20075 30161 40186 53/// 60012 7216/ 885// 333 10132 92301 92417
AAXX 04181 14370 11560 80105 10093 20050 30077 40186 52029 69902 76162 8672/ 333 10125
AAXX 04181 14382 11565 80105 10086 20047 30063 40182 52028 69932 70262 886// 333 10131
AAXX 04181 14428 12470 70602 10105 20076 30166 40173 53/// 60002 86830 333 10133 92312
AAXX 04181 14441 11570 73602 10116 20090 30136 40160 53/// 60002 700// 82270 333 10160 92312
AAXX 04181 14452 NIL
AAXX 04181 14454 11664 83401 10122 20096 30105 40164 54/// 69902 760// 885// 333 10133 92311
AAXX 04181 14462 11565 80000 10086 20074 30172 40178 57/// 60022 7036/ 885// 333 10094
AAXX 04181 34171 11340 81903 11036 21044 39977 40175 52009 69980 71073 886// 333 11052 88708
AAXX 04184 61600 32960 70604 10312 20058 30120 40125 85082 333 10332 59001 85363 87073
AAXX 04184 61612 32950 60804 10310 21022 30126 40136 85082 333 10335 58000 85363
AAXX 04184 61627 32958 60802 10314 20013 3//// 4//// 80002 333 10340 5//// 86073
AAXX 04184 61630 32956 80402 10309 20071 30110 40129 80002 333 10350 58007 88073
AAXX 04184 61641 32957 70207 10255 20144 30092 40125 83032 333 10258 59005 83363 87073
AAXX 04184 61666 32962 70804 10322 20059 30106 40114 80002 333 10345 58006 87073
AAXX 04184 61679 32958 70604 10320 20112 30109 40117 80002 333 10348 58001 87073
AAXX 04184 61687 32930 70408 10326 21003 30055 40112 70622 83032 333 10344 58005 83363 86073
AAXX 04184 61695 32958 73602 10291 20139 30095 40121 85082 333 10305 58014 85363 83073
AAXX 04184 61697 32958 50406 10290 20120 30102 40117 70622 80002 333 10305 58007 85073
AAXX 04184 61698 32960 70604 10328 20080 30098 40109 87070 333 10355 58008 87363
AAXX 04184 61699 32958 72404 10322 20091 39908 40096 80002 333 10332 58006 87073
BBXX 46207 04181 99509 71299 46/// /1913 10095 40006 52016 22200 00080 11110 70051 333 91215
BBXX 4XFV 04183 99322 71371 43298 83119 00/// 10170 20140 40280 52040 7//// 876// 22224 0//// 20504 327// 40807 5//// 6//// 80150 ICE /////
BBXX SBLW 04183 99507 71324 43/96 71837 10088 49956 58019 22273 00084 21008 41009
BBXX SHIP 04184 99547 71362 41698 61240 10070 20027 49831 51010 70222 85516 91800 22263 00070 20804 326// 40804 80050
BBXX SHIP 04184 99466 71416 41597 62333 10050 20050 40016 51085 70301 8733/ 91750 22224 00080 20406 325// 40808 5//// 80050
BBXX SHIP 04184 99533 71486 41596 73335 10010 20016 49906 51018 70222 867// 91800 22262 00040 21208 332// 40908 80010
BBXX SHIP 04184 99321 71377 41598 80210 10180 20148 2 40268 52026 7158 886// 22263 00230 20303 330// 40807 80160
AAXX 04184 48331 31457 80000 10212 20203 39905 40139 57009 71022 8657/ 333 58010 70011
AAXX 04184 48480 11556 70000 10251 20242 30123 40127 57007 60013 71062 84846 333 58004 70011
BBXX 46147 04181 99518 71312 46/// /1913 10089 49963 52017 22200 00077 11211 70057 333 91216
AAXX 04184 48352 31658 70905 10205 20156 39962 40167 52005 71011 84536 333 58034
BBXX 46147 04181 99518 71312 46/// /1913 10089 49963 52017 22200 00077 11211 70057 333 91216
AAXX 04184 48433 31956 30404 10225 20173 39980 40148 57003 71011 82045 333 58018
AAXX 04184 48404 32961 00906 10196 20152 39973 40155 58001 333 58025
AAXX 04181 08560 31475 63602 10102 20074 39598 40367 53009 70122 85800 333 10141 82815 85617
AAXX 04184 71432 16/// /2309 10000 21057 30016 40115 58043 60001 333 10005 21125 70000
AAXX 04184 71915 11974 13310 11351 21399 39982 40068 53008 69901 77677 80001 333 11293 21357 48042 79999 90983
AAXX 04184 71026 16/// /2320 10124 21024 39287 40128 58001 60001 333 20030 7////
AAXX 04184 71217 16/// /2114 10121 21019 60001 333 10121 20040 70000
AAXX 04184 71224 16/// /2520 10089 21025 60001 333 10089 20026 70000
AAXX 04184 71979 16/// ///// 10058 21027 38400 40021 51017 60001 333 10082 21049 70000
AAXX 04184 71343 16/// /1812 10088 21015 60001 333 10093 20037 70000
AAXX 04184 71276 16/// ///09 11010 21037 60001 333 11010 21050 70000
AAXX 04184 71189 46/// /2818 11149 21201 6///1 333 11145 21183 7////
AAXX 04184 71883 46/// /2801 10013 20012 39335 40157 56006 6///1 333 10015 21019 7////
AAXX 04181 25703 41999 00000 11473 21501 39948 40268 57001 77670
AAXX 04181 25745 NIL
AAXX 04181 25913 41597 80704 11125 21131 30015 40169 57005 78582 889//
AAXX 04181 25954 42998 00000 11234 21282 30038 40161 57001
AAXX 04181 25956 42999 00805 11276 21314 30144 40150 57007
AAXX 04181 31088 42999 30105 11223 21271 30192 40200 53001 82041
AAXX 04181 31873 41997 82703 11218 21240 30077 40223 52015 77171 8801/
AAXX 04181 31909 42998 62911 11140 21234 30020 40102 53016 80005 333 91018 91118
AAXX 04181 31960 42998 03510 11134 21195 39972 40221 53010 333 91014 91114
AAXX 04181 31961 42997 03503 11179 21229 30189 40239 52016
AAXX 04181 32053 41395 83404 11049 21062 30044 40093 53013 78683 889// 333 87708 91007 91112
AAXX 04181 32061 41525 83508 11080 21090 30041 40080 53019 78583 889// 333 91012 91113
AAXX 04181 32098 41393 80106 11024 21033 30014 40024 52012 78683 889// 333 91010 91112
AAXX 04181 32150 41492 83607 11014 21022 39932 49961 53017 78683 889// 333 91013 91114
AAXX 04181 32165 41597 72912 11012 21032 39807 49868 57019 70282 87900 333 91022 91122
AAXX 04181 32215 41596 80409 11019 21072 30007 40036 51011 77173 885// 333 91019 91124
AAXX 04181 32252 NIL
AAXX 04181 32389 41993 30000 11310 21328 30134 40175 57008 74840 83030
AAXX 04181 32477 42998 30502 11198 21224 30047 40081 56001 80001
AAXX 04181 32583 42598 60703 11052 21126 30080 40111 57002 82531
AAXX 04181 32618 41598 20206 11073 21127 30096 40118 57006 70231 82500
AAXX 04184 71432 16/// /2309 10000 21057 30016 40115 58043 60001 333 10005 21125 70000
AAXX 04184 71915 11974 13310 11351 21399 39982 40068 53008 69901 77677 80001 333 11293 21357 48042 79999 90983
AAXX 04184 71883 46/// /2801 10013 20012 39335 40157 56006 6///1 333 10015 21019 7////
BBXX 46183 04181 99536 71311 46/// ///// 1//// 4//// 5//// 22200 0//// 1//// 70/// 333 912//
BBXX 46183 04181 99536 71311 46/// ///// 1//// 4//// 5//// 22200 0//// 1//// 70/// 333 912//
AAXX 04181 50434 11980 62501 11287 21317 39348 40336 52010 69901 70070 80002 333 11219
AAXX 04181 50527 32968 73601 11276 21304 39451 40333 52011 80002 333 11226
AAXX 04181 50603 32978 50000 11230 21262 39585 40333 52017 80002 333 11193
AAXX 04181 50632 32980 73401 11196 21232 39329 40292 52006 80002 333 11148
AAXX 04181 50727 32980 00000 11282 21317 39031 40337 52002 333 11176
AAXX 04181 50915 32980 00000 11270 21311 39241 40355 52005 333 11181
AAXX 04181 51716 32965 52502 11097 21125 38943 40309 57005 80002 333 05402 11023
AAXX 04181 51765 32980 01801 11157 21185 39259 40329 57003 333 05401 11031
AAXX 04181 51777 32980 01801 11145 21191 39214 40328 52003 333 05400 11008
AAXX 04181 51811 32962 70000 11109 21132 38820 40326 57005 82032 333 05451 11050
AAXX 04181 51828 32965 70701 11082 21131 38658 40307 52001 80002 333 05400 11024
AAXX 04181 52267 32980 00000 11159 21219 39155 40339 57011 333 05752 11045
AAXX 04181 52323 32980 02502 11187 21251 38221 57009 333 05503 11064
AAXX 04181 52495 32980 00701 11193 21273 38715 40348 57010 333 05700 11046
AAXX 04181 53149 32980 02706 11138 21234 38805 40309 57007 333 05805 11065
AAXX 04181 53192 32980 22703 11224 21248 38920 40378 52001 80002 333 11194
AAXX 04181 53231 32980 01606 11159 21254 38503 57010 333 05704 11090
AAXX 04181 53336 32980 00402 11158 21224 38757 40355 57006 333 05703 11090
AAXX 04181 53391 32980 02202 11165 21239 38529 40348 57004 333 05505 11116
AAXX 04181 53529 32980 00201 11206 21255 38661 40368 57014 333 05701 11069
AAXX 04181 53543 32980 01801 11134 21233 38572 40347 57009 333 11077
AAXX 04181 53723 32970 03201 11158 21202 38690 40333 57013 333 05802 11026
AAXX 04181 54012 32980 02706 11194 21245 39044 40330 52010 333 11156
AAXX 04181 54026 32980 02902 11159 21231 39934 40284 57001 333 11060
AAXX 04181 54027 32970 01801 11200 21256 39661 40297 54000 333 11065
AAXX 04181 54208 32980 02204 11155 21223 38786 40337 54000 333 11120
AAXX 04181 54776 32580 43206 11026 21102 30260 40320 52008 84400 333 11017
AAXX 04181 56004 32680 72704 11161 21246 35767 57004 85502 333 05103 11079
AAXX 04181 56033 32980 10000 11241 21277 35974 57004 80002 333 05100 11134
AAXX 04181 56046 11980 10000 11160 21187 36215 57002 69911 72270 80002 333 05207 11074
AAXX 04184 62309 32560 30000 10122 20081 40204 52006 83500 333 10180
AAXX 04184 62325 32960 00000 10148 20117 40200 57002 333 10182
AAXX 04184 62332 11560 60302 10156 20133 40201 52006 69992 70162 83240 333 10176
AAXX 04184 62387 32960 03603 10126 20073 40197 52008 333 10187
AAXX 04184 62459 32960 00608 10153 20055 40169 52013 333 10195
AAXX 04184 62452 32960 03410 10111 20056 40208 52011 333 10164
AAXX 04181 56193 NIL
AAXX 04181 56196 32865 80901 10030 20002 40284 57016 885// 333 05551 10069
AAXX 04181 56287 11958 80000 10031 20013 40281 57017 69901 71060 8807/ 333 05500 10065
AAXX 04181 56684 32560 80702 10001 21021 37893 57010 885// 333 05301 10012
AAXX 04181 56751 11672 70703 10109 21022 37998 57013 69971 78080 874// 333 05204 10147 91119 91516
AAXX 04181 56786 11558 81801 10022 20009 38114 57009 69921 71060 885// 333 05301 10022
AAXX 04181 56977 11465 82201 10130 20127 40151 57003 60091 78098 889// 333 00152 10228
AAXX 04181 57259 32975 01401 11036 21069 40323 57006 333 10077
AAXX 04181 57279 32962 00902 11017 21100 40331 57010 333 10062
AAXX 04181 57348 32865 80202 10054 21015 40290 57013 885// 333 10102
AAXX 04181 57399 32960 43401 11005 21110 40339 52002 84030 333 10078
AAXX 04181 57554 11850 81601 10006 21007 40329 57019 69961 77070 885// 333 10046
AAXX 04181 57793 11756 82001 10003 21003 40348 52014 69921 77070 885// 333 10060
AAXX 04181 58345 32961 00000 11028 21073 40334 57017 333 10047
AAXX 04181 58506 32865 80705 11060 21166 40334 57005 885// 333 11011
AAXX 04181 58813 11458 80202 10006 20005 40315 57012 60091 77977 8672/ 333 10064
AAXX 04181 58834 11760 80203 10027 20014 40312 57011 60061 77976 885// 333 10072
AAXX 04181 58926 11450 80000 10046 20026 40299 57006 69961 76066 885// 333 10083
AAXX 04181 58944 11461 80208 10066 20009 40296 52002 69901 76060 885// 333 10087
AAXX 04181 59096 32562 80902 10032 21014 40310 52003 885// 333 10068
AAXX 04181 59102 11661 82201 10015 21004 40302 57006 60011 76066 885// 333 10052
AAXX 04181 59278 32568 80404 10074 20017 40277 57008 888// 333 10104
AAXX 04181 59456 11760 83601 10063 20045 40255 57006 69901 76060 885// 333 10092
AAXX 04181 59493 11757 83602 10085 20033 40260 57002 69911 70560 885// 333 10135
AAXX 04181 59658 32668 83404 10084 20050 40238 57007 885// 333 10142
AAXX 04181 59673 11563 80206 10092 20036 40242 57008 69911 70060 888// 333 10129
AAXX 04181 59845 11450 80702 10116 20111 40230 57007 69981 76066 887// 333 10184
AAXX 04184 62305 32560 62504 10122 20011 40213 52002 82550 333 10162
AAXX 04184 62306 32460 71703 10130 20109 40212 52006 878// 333 10170
AAXX 04184 62318 12560 60000 10132 20104 40201 52002 60012 84820 333 10182
AAXX 04184 62337 32960 01802 10093 20072 40192 52009 333 10185
AAXX 04184 62366 31956 00202 10158 20092 40200 52008 70500
AAXX 04184 62393 32960 03608 10116 20053 40200 52011 333 10172
AAXX 04184 62405 32960 62602 10126 20069 40175 52011 80002 333 10204
AAXX 04184 62414 NIL
AAXX 04184 62417 32960 01802 10089 20006 40213 52004 333 10184
AAXX 04184 62440 32960 00103 10130 20105 40195 52008 333 10194
AAXX 04184 62463 32960 03115 10162 20090 40177 52016 333 10211
AAXX 04184 62465 32960 43004 10168 20117 40164 52012 80004 333 10208
AAXX 04184 62419 NIL
AAXX 04184 62357 32960 03003 10132 20100 40208 52009 333 10204
AAXX 04184 62423 32960 00000 10117 20033 40213 52006 333 10190
AAXX 04184 62403 32960 00000 10150 20063 40181 52011 333 10204
AAXX 04184 62458 32960 03305 10160 20020 40180 52014 333 10198
AAXX 04184 62420 32560 60000 10120 20020 40203 52007 96500 333 10210
AAXX 04184 62432 32960 03403 10142 20075 40216 52019 333 10210
AAXX 04184 62435 32960 03302 10130 20065 40192 52010 333 10190
AAXX 04184 62455 32960 03309 10156 20088 40172 52009 333 10194
AAXX 04184 62476 32960 00302 10202 20141 40152 52012 333 10232
AAXX 04184 62458 32960 03305 10160 20020 40180 52014 333 10198
AAXX 04184 62420 32560 60000 10120 20020 40203 52007 96500 333 10210
AAXX 04184 62432 32960 03403 10142 20075 40216 52019 333 10210
AAXX 04184 62435 32960 03302 10130 20065 40192 52010 333 10190
AAXX 04184 62455 32960 03309 10156 20088 40172 52009 333 10194
AAXX 04184 62476 32960 00302 10202 20141 40152 52012 333 10232
AAXX 04184 62309 32560 30000 10122 20081 40204 52006 83500 333 10180
AAXX 04184 62325 32960 00000 10148 20117 40200 57002 333 10182
AAXX 04184 62332 11560 60302 10156 20133 40201 52006 69992 70162 83240 333 10176
AAXX 04184 62387 32960 03603 10126 20073 40197 52008 333 10187
AAXX 04184 62459 32960 00608 10153 20055 40169 52013 333 10195
AAXX 04184 62452 32960 03410 10111 20056 40208 52011 333 10164
AAXX 04184 62305 32560 62504 10122 20011 40213 52002 82550 333 10162
AAXX 04184 62306 32460 71703 10130 20109 40212 52006 878// 333 10170
AAXX 04184 62318 12560 60000 10132 20104 40201 52002 60012 84820 333 10182
AAXX 04184 62337 32960 01802 10093 20072 40192 52009 333 10185
AAXX 04184 62366 31956 00202 10158 20092 40200 52008 70500
AAXX 04184 62393 32960 03608 10116 20053 40200 52011 333 10172
AAXX 04184 62405 32960 62602 10126 20069 40175 52011 80002 333 10204
AAXX 04184 62414 NIL
AAXX 04184 62417 32960 01802 10089 20006 40213 52004 333 10184
AAXX 04184 62440 32960 00103 10130 20105 40195 52008 333 10194
AAXX 04184 62463 32960 03115 10162 20090 40177 52016 333 10211
AAXX 04184 62465 32960 43004 10168 20117 40164 52012 80004 333 10208
AAXX 04184 62419 NIL
AAXX 04184 62357 32960 03003 10132 20100 40208 52009 333 10204
AAXX 04184 62423 32960 00000 10117 20033 40213 52006 333 10190
AAXX 04184 62403 32960 00000 10150 20063 40181 52011 333 10204
AAXX 04184 62010 11230 83413 10128 20109 40230 51015 60162 76266 8275/ 333 0//29 10143 82705 84620 87633
AAXX 04181 78310 12570 60306 10204 20116 30247 40258 58016 60001 86800 333 10204 20166 30/// 56900 58001 81820 85622 92035
AAXX 04181 78315 12575 10501 10207 20086 30179 40247 58026 60001 81100 333 10214 20100 30/// 56900 58001 81820
AAXX 04181 78318 11562 20406 10184 20097 30252 40256 57023 60001 70500 82800 333 10209 20153 30/// 56900 58005 81820
AAXX 04181 78322 11559 10103 10200 20060 30234 40252 58030 60001 70500 81200 333 10204 20069 30/// 56900 58010 81820
AAXX 04181 78324 NIL
AAXX 04181 78325 11/64 10207 10184 20034 30198 40258 56025 60001 70500 81200 333 10184 20138 30/// 56900 58009 818//
AAXX 04181 78328 11461 50606 10205 20104 30248 40/// 58022 60001 70522 85800 333 10206 20145 30/// 56200 58006 84818 92427 555 10703
AAXX 04181 78333 11510 20406 10210 20060 30231 40238 58026 60001 70500 82200 333 10214 20079 30/// 56800 58006 82820 555 13602
AAXX 04181 78344 11564 50606 10209 20077 30186 40236 58022 60001 70511 85800 333 10209 20088 30/// 56900 58011 84820
AAXX 04181 78345 12565 50406 10225 20128 30228 40232 57023 60001 84202 333 10227 20111 30/// 56909 58012 84820
AAXX 04181 78348 11557 70402 10238 20109 30187 40240 58019 60001 70522 8/800 333 10239 20150 30/// 56100 58010 82823 87632 555 10502
AAXX 04181 78349 11563 70304 10192 20095 30131 40245 58023 60001 70522 875// 333 10195 20105 30/// 56099 58016 81822 87626
AAXX 04181 78351 12550 40109 10242 20095 30220 40222 58010 60001 81202 333 10242 20092 30/// 56909 58026 81826 83080
AAXX 04181 78353 12570 40702 10218 20070 30213 40236 58017 60001 84801 333 10218 20172 30/// 56209 58016 83820 555 10803
AAXX 04181 78355 12570 50507 10214 20076 30084 40228 58020 60001 85800 333 10214 20128 30/// 56100 58009 82823 84630 555 10603
AAXX 04181 78358 11540 60207 10230 20146 30206 40221 58021 60001 70522 86800 333 10231 20182 30/// 56900 58019 83823 84629
AAXX 04181 78360 12/70 53511 10259 20102 30186 40198 58024 60001 81202 333 10259 20173 30/// 56909 58009 818// 850// 92045
AAXX 04181 78363 11562 50403 10236 20092 30075 40192 57033 60001 70522 85502 333 10237 20149 30/// 56909 58020 85621
AAXX 04181 78365 NIL
AAXX 04181 78369 NIL
AAXX 04184 62010 11230 83413 10128 20109 40230 51015 60162 76266 8275/ 333 0//29 10143 82705 84620 87633
BBXX 46131 04181 99499 71250 46/// /1211 1//// 40105 52005 22200 00078 10503 70013 333 91215
BBXX 46131 04181 99499 71250 46/// /1211 1//// 40105 52005 22200 00078 10503 70013 333 91215
AAXX 04181 11012 11663 82508 10034 20002 39748 40226 52014 60052 76273 8772/ 333 10080 20018 55300 91120 91120
AAXX 04184 41255 36/// /2505 10217 20041 39612 40163 333 0E020 10306 59006
AAXX 04181 11101 11560 71603 10037 20002 39741 40280 52003 60032 70282 84532 333 10066 20026 84625
AAXX 04184 65528 NIL
AAXX 04184 65536 NIL
AAXX 04184 65545 NIL
AAXX 04184 65548 NIL
AAXX 04184 65555 NIL
AAXX 04184 65557 31950 3//// 10314 20187 39859 40099 70511 80002 333 10/// 58002 83076
AAXX 04184 65560 31940 4//// 10320 20212 39779 40086 70500 80002 333 10362 59001 84076
AAXX 04184 65562 NIL
AAXX 04184 65563 31940 00404 10286 20126 39855 40096 70500 333 10350 58000
AAXX 04184 65578 32557 52006 10280 20252 30088 40105 83502 333 10314 59001 83620 83076
AAXX 04184 65585 32958 2//// 10285 20250 3//// 4//// 80002 333 10324 5//// 82076
AAXX 04184 65592 32958 2//// 10276 20251 30071 40094 80002 333 10316 58001 82076
AAXX 04184 65594 32460 62004 10280 20252 30068 40102 83502 333 10313 58004 83613 84080
AAXX 04184 65599 32958 0//// 10276 20252 30015 40089 333 10310 58003
AAXX 04184 61202 32965 60606 10231 21057 39624 40183 80005 333 10262 59001 86075
AAXX 04184 61214 NIL
AAXX 04184 61223 31920 60608 10245 21001 3//// 4//// 70611 80002 333 10270 5//// 86075
AAXX 04184 61226 31958 60610 10260 20097 39857 40156 70622 80002 333 10290 59002 86075
AAXX 04184 61230 32960 50810 10296 21051 39848 40119 80002 333 10312 58003 85075
AAXX 04184 61233 31959 60806 10280 21018 3//// 4//// 70611 80002 333 10311 5//// 86075
AAXX 04184 61235 31956 70414 10310 21020 3//// 4//// 70611 80002 333 10330 5//// 87075
AAXX 04184 61240 31958 50000 10267 20006 39812 40140 70611 80002 333 10300 59003 85075
AAXX 04184 61250 32960 40000 10255 20021 3//// 4//// 80002 333 10288 5//// 84075
AAXX 04184 61257 31930 20408 10318 21031 30056 40150 70511 80002 333 10335 59001 82075
AAXX 04184 61265 32960 13610 10280 21000 39821 40130 80002 333 10318 59002 81075
AAXX 04184 61270 32960 50404 10310 20041 3//// 4//// 80002 333 10337 5//// 85075
AAXX 04184 61272 32960 00000 10285 20093 39798 40125 333 10338 59005
AAXX 04184 61277 31958 20406 10297 20031 39803 40124 70600 80002 333 10331 59004 82075
AAXX 04184 61285 31959 60000 10316 20021 39961 40110 70622 80002 333 10336 58006 86075
AAXX 04184 61291 31958 20608 10300 20067 39695 40104 70600 80002 333 10325 59004 82075
AAXX 04184 61293 32960 40408 10307 20071 3//// 4//// 80002 333 10328 5//// 84075
AAXX 04184 61296 32965 60000 10304 20116 3//// 4//// 80002 333 10345 5//// 86075
AAXX 04184 61297 32960 70406 10305 20040 3//// 4//// 80002 333 10328 5//// 87075
BBXX 46204 04181 99514 71288 46/// /1714 10098 40020 52018 22200 00082 11210 70050 333 91217
AAXX 04181 35078 129// 02104 11227 21252 39838 40253 52013 69900 333 11135
AAXX 04181 36208 329// 00702 11143 21186 39261 40293 52001 333 11047
AAXX 04181 36428 329// 10000 11269 21293 39780 40336 53003 80001 333 11169 95090
BBXX 46204 04181 99514 71288 46/// /1714 10098 40020 52018 22200 00082 11210 70050 333 91217
AAXX 04184 91408 32974 51006 10267 20248 30059 40097 57019 80001 333 56//9 70013 555 90418
AAXX 04181 08545 11350 83401 10115 20094 30285 40370 52006 69902 71022 888// 333 10155 84708 87813
AAXX 04184 91650 NIL
AAXX 04184 91652 NIL
AAXX 04184 91656 NIL
AAXX 04184 91659 11599 73305 10262 2024/ 40090 53010 69901 70282 8287/ 333 5699/ 82825 86460
AAXX 04184 91660 NIL
AAXX 04184 91669 NIL
AAXX 04184 91670 36/// /3400 10264 20238 40082
AAXX 04184 91676 14/// /0201 10251 20235 30019 40079 50010 60011
AAXX 04184 91680 11598 70000 10248 20242 40083 53008 60001 70222 83832 333 56999 82828 83361 85080
AAXX 04184 91682 NIL
AAXX 04184 91683 11599 80000 10245 20238 40083 53013 69941 70282 8583/ 333 5699/ 84823 85650 87362
AAXX 04184 91691 14/// /0301 10252 20249 30086 40089 53010 60001
AAXX 04184 91693 NIL
AAXX 04184 91697 14/// /0801 10247 20238 30081 40086 50006 60021
AAXX 04184 91699 14/// /1302 10265 20247 30055 40087 50004 60001
BBXX 9HA2479 04184 99153 31674 46/// /3007 10269 20239 30032 40061 52005 22273 04289 85247
BBXX C6FS9 04184 99274 31531 46/// /3002 10220 20179 30098 40134 57007 22200 04253 85192
BBXX VNAH 04184 99383 31416 46/// /2005 10159 20044 30173 40197 57017 22200 85100
BBXX VROB 04184 99068 31470 46/// /3204 10252 20229 30045 40070 57023 22200 04306 85235
BBXX FHZI 04184 99429 31473 46/// /3408 10119 20036 30147 40158 57006 22200 04183 85079
BBXX A8TX8 04183 99188 31529 41698 21615 10270 20166 40100 54000 701// 8114/ 22244 04280 20703 80205
BBXX VREN5 04183 99369 31773 41298 63020 10190 20128 40177 51/// 70311 8/740 22233 20303 80155
BBXX 42362 04181 99278 70907 46/// /0000 10178 20067 40298 91815
BBXX 42363 04181 99282 70892 46/// /2902 10194 20061 40308 91815 333 91202
BBXX 42364 04181 99291 70881 46/// /3413 10100 21006 40319 91815
BBXX 41036 04181 99342 70770 46/// ///// 10025 21074 40265 91820 22200 00193
AAXX 04181 21802 41999 83205 11314 21329 30116 40142 53020 73632 80007
AAXX 04181 24125 41998 60000 11201 21207 39859 40155 52004 70271 80001
AAXX 04181 24136 41999 22202 11370 21397 30045 40157 53019 70271 80002
AAXX 04181 24143 41998 81809 11293 21331 30076 40131 57007 77173
AAXX 04181 24266 41997 62602 11449 21476 39997 40204 52002 77171 80006
AAXX 04181 24329 42698 83001 11103 21139 39847 40152 52003 885//
AAXX 04181 24343 41997 81802 11278 21303 30032 40162 53006 70272 80007
AAXX 04181 24382 41993 10000 11454 21476 39934 40230 54000 74440 80001
AAXX 04181 24639 41998 82504 11142 21162 30039 40199 53005 77172 8802/
AAXX 04181 24641 41998 82403 11165 21191 30021 40170 53003 77173 8801/
AAXX 04181 24652 41997 81404 11302 21332 30088 40225 53001 77173 85037
AAXX 04181 24656 42999 40601 11403 21438 30128 40246 52005 80001
AAXX 04181 24671 41999 80000 11392 21417 39692 40276 53001 70272 80008
AAXX 04181 24688 41998 60301 11472 21501 39306 40399 57004 77171 80008
AAXX 04181 24724 41999 82306 11173 21192 39697 40256 52003 73632 85031 333 91110
AAXX 04181 24738 41997 82302 11163 21176 30050 40235 53011 77172 80007
AAXX 04181 24768 41998 30000 11316 21349 39980 40241 53006 70271 80001
AAXX 04181 24923 41598 82205 11162 21188 39975 40300 52006 77173 8652/ 333 86632 91111
AAXX 04181 24944 41597 82503 11132 21138 39943 40247 52005 77172 8652/ 333 86624
AAXX 04181 24951 41999 82803 11173 21192 30055 40232 53005 70272 80007
AAXX 04181 24661 41999 63101 11359 21386 39946 40249 53006 70272 82031
AAXX 04181 24959 41998 83001 11348 21377 30094 40241 52007 77172 80005
AAXX 04181 24962 41998 80000 11318 21341 30043 40253 58008 77172 80007
AAXX 04181 24966 41997 80000 11327 21351 30013 40258 53005 77171 84037
AAXX 04181 24967 41997 80000 11300 21330 30023 40268 53003 77172 80007
AAXX 04181 25206 42999 00000 11408 21438 30175 40207 58001
AAXX 04181 25400 41995 00000 11422 21443 30157 40221 53008 71000
AAXX 04181 30054 41598 82003 11166 21192 30101 40359 52008 78582 84907
AAXX 04181 30089 41998 80000 11213 21231 30046 40288 54000 77177 8802/
AAXX 04181 30393 41998 80000 11307 21323 39201 40370 52007 77172 85037
AAXX 04181 30493 41998 82701 11327 21351 39193 40375 52005 77171 81047
AAXX 04181 31004 41596 82405 11172 21191 39389 40273 52004 78583 86907 333 86920 91110
AAXX 04181 31137 42999 10000 11455 21471 39206 40444 51002 80001
AAXX 04184 89003 46/89 /1713 11075 29065 39018 4//// 5////
AAXX 04184 89507 46/89 /1107 11215 29066 36771 4//// 5////
BBXX ZDLS1 04184 99711 50168 41297 42016 10005 21001 49863 57007 70211 82278 22213 05014 20000 30000 80003
BBXX ZSAF 04184 99692 50001 41599 62415 11017 21065 49831 57004 70222 86500 22271 05004 20000 30000 4//// 50000 ICE 18649
BBXX 9HA2479 04184 99153 31674 46/// /3007 10269 20239 30032 40061 52005 22273 04289 85247
BBXX C6FS9 04184 99274 31531 46/// /3002 10220 20179 30098 40134 57007 22200 04253 85192
BBXX VNAH 04184 99383 31416 46/// /2005 10159 20044 30173 40197 57017 22200 85100
BBXX VROB 04184 99068 31470 46/// /3204 10252 20229 30045 40070 57023 22200 04306 85235
BBXX FHZI 04184 99429 31473 46/// /3408 10119 20036 30147 40158 57006 22200 04183 85079
BBXX A8TX8 04183 99188 31529 41698 21615 10270 20166 40100 54000 701// 8114/ 22244 04280 20703 80205
BBXX VREN5 04183 99369 31773 41298 63020 10190 20128 40177 51/// 70311 8/740 22233 20303 80155
AAXX 04184 42309 21495 70000 10132 20121 40141 70522 84320 333 59008 6003/
AAXX 04184 42314 21395 73606 10138 20123 40150 79596 84930 333 57950 59020 6005/ 82708 83618 81925 87360
AAXX 04184 42398 31593 69901 10134 20134 40154 74442 82530 333 58005
AAXX 04184 42410 31595 70000 10162 20152 40156 70522 83530 333 58004 83620 85360
AAXX 04184 42415 31596 30000 10160 20139 40176 70500 81530 333 59002 81620 83360
AAXX 04184 42492 31993 00000 10132 20128 40154 74600 333 58007
AAXX 04184 42587 31995 00000 10150 20136 40152 70500 333 58004
AAXX 04184 42591 31994 01104 10124 20117 40162 71000 333 58007
AAXX 04184 42623 31495 62702 10134 20109 39253 40139 70522 84530 333 59006 84618 86360
AAXX 04184 42701 31494 71401 10160 20153 39409 40151 71022 84530 333 58006 84615 87360
AAXX 04184 42706 31495 80000 10174 20157 40150 70521 8657/ 333 56699 58010 86615 86458
AAXX 04184 42724 31595 60000 10152 20141 40155 70520 83530 333 58008 83620 86360
AAXX 04184 42798 31595 60000 10180 20146 40148 70522 83530 333 58008 83620 83825 86360
AAXX 04184 42809 31495 60000 10196 20163 40153 70522 84530 333 56669 58012 84615 85360
AAXX 04184 42886 31995 00000 10196 20180 40140 70500 333 58009
AAXX 04184 42895 32495 70000 10220 20185 40148 85520 333 58010 85618 86458
AAXX 04184 42971 31494 70503 10220 20205 40145 71022 84520 333 58016 84618 86459
AAXX 04184 43333 31496 60706 10268 20239 40124 70522 85401 333 56209 58008 84616 84818
AAXX 04184 42977 NIL
AAXX 04184 43368 NIL
BBXX WL3108 04184 99440 70826 41/98 82415 11027 2//// 40095 57/// 70222 8//// 22233 00044 20602 3//// 4//// 5//// 6//// 8//// ICE /////
BBXX C6FY5 04183 99205 70728 41698 80116 10230 2015/ 40200 5/000 7//00 8867/ 222// 0//// 21000 3//// 42000 54002 6//// 80180 ICE /////
BBXX WFLH 04183 99324 71237 43598 23618 10156 20117 40273 52004 7//// 821// 22223 00144 20601 328// 41203 5//// 6//// 80133 ICE /////
BBXX WABS 04184 99409 71256 41598 8//25 10117 20097 40275 52025 70222 886// 22243 0//// 20402 3//// 40805 5//// 6///0 80106 ICE 0/0//
BBXX WBN3013 04184 99289 70803 41/// /3210 10178 2//// 40108 54000 7//// 8//// 222/2 0//// 20503 30507 40702 50501 6//// 8//// ICE /////
BBXX VRXL7 04183 99044 70452 41397 60918 10270 2024/ 40110 56010 7//22 866/7 22273 00280 20206 305// 4//// 5//// 6//// 80250 ICE /////
BBXX WDJK 04184 99489 71271 41597 61921 10101 20099 40105 56005 70110 8614/ 22273 00080 20603 321// 41010 5//// 6//// 80100 ICE /////
BBXX 46088 04181 99483 71232 46/// /1203 10092 40152 91820 22200 00077 10401 20401 70003 333 91204 555 11039 22046 31738 41305 61819 128033 142024 162025 165026 106035 138032
BBXX 46087 04181 99485 71247 46/// /1913 10105 20104 40149 91820 22200 00085 333 91216 555 11142 22154 31732 41917 61819 192128 189128 189132 189128 191132 190133
BBXX 44029 04181 99425 70706 46/30 /2805 11051 40156 58023 91804 22200 00076 10502 70008 333 91207 555 11058 22060
BBXX 44030 04181 99432 70704 46/// /2804 1//// 40146 58023 91804 22200 00078 10501 70004 333 91206 555 11050 22053
BBXX 44039 04181 99411 70727 46/// /2606 11050 21113 40203 56030 91800 22200 00075 10401 70006 333 91209
BBXX 44060 04181 99413 70721 46/// ///06 11048 40190 91815 22200 00084 333 91208 555 11062 22062
BBXX 44022 04181 99409 70737 46/// ///05 11047 21151 40198 91815 22200 00057 333 91208 555 11051 22051
BBXX 41029 04181 99328 70796 46/// /1902 1//// 91800 555 11025 22025
BBXX 44033 04181 99441 70690 46/30 /3007 11069 40137 56023 91804 22200 00054 10301 70004 333 91209 555 11077 22080
BBXX 44034 04181 99441 70681 46/30 /3007 11083 40123 56021 91804 22200 00071 10301 70007 333 91210 555 11078 22081
AAXX 04184 67755 NIL
AAXX 04184 67771 NIL
AAXX 04184 67773 NIL
AAXX 04184 67774 NIL
AAXX 04184 67785 NIL
AAXX 04184 67789 NIL
AAXX 04184 67855 NIL
AAXX 04184 67857 NIL
AAXX 04184 67863 NIL
AAXX 04184 67871 NIL
AAXX 04184 67875 NIL
AAXX 04184 67891 NIL
AAXX 04184 67895 NIL
AAXX 04184 67897 NIL
AAXX 04184 67899 NIL
AAXX 04184 67951 NIL
AAXX 04184 67963 NIL
AAXX 04184 67967 NIL
AAXX 04184 67971 42880 11204 10260 20170 38/// 48/// 81500 333 10313 5//// 81657
AAXX 04184 67976 NIL
AAXX 04184 67979 NIL
AAXX 04181 30157 41997 81402 11249 21274 30090 40405 53005 77172 80007
AAXX 04184 84204 11665 81404 10254 20232 60151 72164 8481/ 555 10148 30088
AAXX 04184 84050 31565 81808 10264 20221 70544 887// 555 30077
AAXX 04184 84088 11570 73602 10142 20082 37082 69911 72055 87700 333 58007 555 10001 30077
AAXX 04184 84202 11560 81802 10244 20211 30186 69911 71445 8772/ 333 58016 555 10001 30082
AAXX 04184 84270 31565 63608 10202 20123 74042 86500 555 30060
AAXX 04184 84008 11510 80000 10243 20229 30145 40155 60021 76162 8352/ 00234 333 58004 555 10020 30092
AAXX 04184 84140 32580 71704 10272 20225 30048 40133 85230 333 59003 555 30075
AAXX 04184 84036 31570 80404 10169 20124 70542 8641/ 555 30075
AAXX 04184 84179 11470 60000 10258 20206 39067 60151 72169 83230 333 58006 555 10149 30073
AAXX 04184 84132 11670 73204 10277 20229 39894 69911 72164 87300 333 58010 555 10001 30075
AAXX 04184 84135 32675 80000 10283 20220 30090 8721/ 333 58004 555 30069
AAXX 04184 84143 32570 51804 10180 20088 37411 84202 333 58013 555 30055
AAXX 04184 84056 11270 82704 10160 20092 69971 72054 8441/ 555 10007 30064
AAXX 04184 84105 31565 70904 10278 20232 31003 70542 84210 333 59001 555 30076
AAXX 04184 84160 11575 60904 10174 20091 37276 69941 75045 84530 333 59015 555 10004 30058
AAXX 04184 84076 11565 83202 10184 20148 60011 72055 86402 555 10011 30079
AAXX 04184 84226 11/00 90000 10110 20110 60011 74744 89/// 555 10014 30100
AAXX 04184 84072 11565 81402 10169 20101 37319 60011 72054 8353/ 333 58012 555 10014 30064
AAXX 04184 84045 11356 80000 10121 20106 60071 74046 8321/ 555 10073 30090
AAXX 04184 84001 11560 70705 10265 20218 30128 40148 69901 71664 87800 333 58010 555 1T
AAXX 04184 84010 11330 80000 10237 20230 60031 76062 885// 555 10033
AAXX 04184 84018 31580 63204 10282 20238 30122 40129 70544 82230 333 59013
AAXX 04184 84027 11575 80904 10161 20100 37187 47163 69961 70352 8421/ 333 58008 555 10006
AAXX 04184 84063 32980 50000 10282 20237 39767 40097 85030 333 58012
AAXX 04184 84069 31562 62404 10258 20228 70142 86200
AAXX 04184 84071 11560 81502 10160 20085 37300 47155 69961 70264 8211/ 333 58010 555 10006
AAXX 04184 84099 32575 71603 10301 20212 3//// 40130 82130 333 5////
AAXX 04184 84101 31462 72809 10264 20232 30114 40128 70544 85230 333 58002
AAXX 04184 84117 31560 72706 10277 20233 30119 40142 70544 85230 333 58006
AAXX 04184 84123 31570 71810 10182 20087 37318 47162 70242 84231 333 58024
AAXX 04184 84147 11562 51602 10190 20133 69911 70164 83101 555 10001
AAXX 04184 84163 11570 71604 10224 20205 38960 48510 60021 71565 82170 333 58006 555 10016
AAXX 04184 84176 32680 60806 10192 20113 83230
AAXX 04184 84200 11462 81709 10253 20226 69921 72164 8387/ 555 10002
AAXX 04184 84203 11460 71604 10255 20218 30128 40134 60161 72065 86830 333 58016 555 10160
AAXX 04184 84217 11580 51102 10250 20168 60011 70165 83230 555 10010
AAXX 04184 84239 32675 81804 10177 20108 37556 47168 8522/ 333 58009
AAXX 04184 84252 11570 70104 10277 20221 30131 40139 69921 70544 85830 333 58015 555 10002
AAXX 04184 84265 11680 82610 10246 20173 38775 4//// 69934 70265 8411/ 333 58000 555 10003
AAXX 04184 91408 32974 51006 10267 20248 30059 40097 57019 80001 333 56//9 70013 555 90418
BBXX VRXL7 04183 99044 70452 41397 60918 10270 2024/ 40110 56010 7//22 866/7 22273 00280 20206 305// 4//// 5//// 6//// 80250 ICE /////
BBXX HZGH 04183 99241 10631 41397 42713 10240 20210 40152 51/// 70211 81111 22224 02245 20303 32700 40303 5//// 80220
BBXX WKPF 04183 99236 10589 43/// /2709 10230 2019/ 40140 51000 7//// 8//// 22211 0//// 2//// 3//// 4//// 5//// 6//// 80200 ICE /////
BBXX PHAA 04183 99034 50305 41499 71308 10263 20228 40118 56015 70222 83120 22253 20201 314// 40602 80238 91154
BBXX DCHO 04184 99059 70272 41396 80304 10260 20239 40110 55010 710// 8/700 22214 04260 2//// 80245
BBXX SHIP 04184 99327 11292 41697 73318 10090 20049 40255 51009 70222 87453 22250 00168 20202 333 // 40202 80070
BBXX VNVZ 04184 99243 11331 41/98 83424 10200 20184 40197 52002 70282 8//// 22254 00231 2//// 3//// 4//// 5//// 80190
BBXX SHIP 04184 99079 11267 41698 42711 10250 20229 40101 5/018 702// 83330 22244 00284 80235
BBXX SHIP 04184 99296 11388 41398 63032 10140 20085 40146 55003 70322 85/// 22282 00211 20708 335// 40910 5//// 80110
BBXX SHIP 04184 99059 11318 41/97 60320 10268 20257 40090 56012 76022 85/// 22212 06289 10606 80260
BBXX SHIP 04184 99327 11292 41697 73318 10090 20049 40255 51009 70222 87453 22250 00168 20202 333// 40202 80070
BBXX A8JX9 04183 99285 11278 41/98 93430 10137 20055 40240 56010 70022 8//// 22214 29910 3//// 4//// 5//// 80095
BBXX ZQDI9 04183 99230 11175 41296 80533 10100 20056 40256 57010 75852 8562/ 22253 00165 20603 303// 4//06 5//// 80080
BBXX SHIP 04183 99275 11337 41/98 23025 10140 20140 40248 51003 8//// 22283 00210 80140
BBXX BATEU07 04184 99063 10791 46/// /1910 10277 40123 50000 22263
BBXX A8ME3 04180 99355 11230 41498 73311 10025 21064 40315 50000 702// 8/8// 22283 04105 20404 333// 40706 5////
BBXX A8EH3 04183 99249 11202 41/97 80237 10105 40270 54000 78086 88/// 22255 04183 29903
BBXX A8EH5 04181 99360 11538 41596 72607 10140 49840 56/// 76166 8/468 22224 20704 3//// 4//// 5////
BBXX AUYR 04184 99091 10825 31697 50612 10265 20245 40182 57020 70100 83614 22243
BBXX 46204 04181 99514 71288 46/// /1714 10098 40020 52018 22200 00082 11210 70050 333 91217
BBXX 46131 04181 99499 71250 46/// /1211 1//// 40105 52005 22200 00078 10503 70013 333 91215
BBXX SHIP 04184 99321 71377 41598 80210 10180 20148 2 40268 52026 7158 886// 22263 00230 20303 330// 40807 80160
BBXX 46183 04181 99536 71311 46/// ///// 1//// 4//// 5//// 22200 0//// 1//// 70/// 333 912//
BBXX WDJK 04184 99489 71271 41597 61921 10101 20099 40105 56005 70110 8614/ 22273 00080 20603 321// 41010 5//// 6//// 80100 ICE /////
BBXX WECH 04183 99326 71613 43498 82122 10183 2017/ 40242 51010 7//// 88796 22215 00179 20201 33102 40405 50303 6//// 80179 ICE /////
BBXX 46147 04181 99518 71312 46/// /1913 10089 49963 52017 22200 00077 11211 70057 333 91216
BBXX DDAC2 04180 99537 71788 41498 60706 11038 21047 40030 54000 7//22 84460 22263 04032 20402 331// 40703 5//// 81041
BBXX SHIP 04184 99321 71377 41598 80210 10180 20148 40268 52026 7158 2 886// 22263 00230 20303 330// 40807 80160
BBXX SHIP 04184 99547 71362 41698 61240 10070 20027 49831 51010 70222 85516 91800 22263 00070 20804 326// 40804 80050
BBXX SHIP 04184 99466 71416 41597 62333 10050 20050 40016 51085 70301 8733/ 91750 22224 00080 20406 325// 40808 5//// 80050
BBXX 46114 04181 99364 71222 46/// ///// 1//// 91804 22200 00117 11305 21003 328// 41304 70024
BBXX 46221 04181 99339 71186 46/// ///// 1//// 91745 22200 00149 11403 21002 327// 41403 70016
BBXX 42085 04181 99179 70665 46/// /1404 10268 40148 91750 333 91205
BBXX 42085 04181 99179 70665 46/// /1305 10269 40149 91740 333 91206
BBXX 41114 04181 99276 70802 46/// ///// 1//// 91816 22200 00207 10902 20902 305// 41101 70012
BBXX 42085 04181 99179 70665 46/// /1404 10270 40147 57029 91800 22200 00274 10702 70009 333 91205
BBXX 44098 04181 99428 70702 46/// ///// 1//// 91807 22200 00080 10602 20602 310// 41101 70010
BBXX 46219 04181 99332 71199 46/// ///// 1//// 91758 22200 00142 11406 20902 329// 41405 70028
BBXX 46242 04181 99332 71174 46/// ///// 1//// 91758 22200 00151 11402 21001 325// 41401 70009
BBXX 46211 04181 99469 71242 46/// ///// 1//// 91806 22200 00085 11311 20906 326// 41308 70053
BBXX 46222 04181 99336 71183 46/// ///// 1//// 91756 22200 00148 11503 21002 327// 41503 70015
BBXX 46231 04181 99327 71174 46/// ///// 1//// 91754 22200 00148 11403 21001 329// 41403 70015
BBXX 46223 04181 99335 71178 46/// ///// 1//// 91800 22200 00152 11403 21002 327// 41402 70014
BBXX 46216 04181 99343 71198 46/// ///// 1//// 91757 22200 00141 11303 21002 327// 41303 70017
BBXX 46217 04181 99342 71194 46/// ///// 1//// 91812 22200 00145 11303 21002 327// 41302 70014
BBXX 46236 04181 99368 71219 46/// ///// 1//// 91750 22200 00117 11305 21003 327// 41304 70023
BBXX 46241 04181 99330 71173 46/// ///// 1//// 91741 22200 00145 11302 21001 327// 41302 70011
BBXX 46237 04181 99378 71226 46/// ///// 1//// 91741 22200 00110 11305 21002 326// 41304 70023
BBXX 41113 04181 99284 70805 46/// ///// 1//// 91751 22200 00189 10801 20801 70005
BBXX 41110 04181 99341 70777 46/// ///// 1//// 91751 22200 00127 11101 21001 310// 41101 70006
BBXX 41053 04181 99185 70661 46/// /0303 10264 40154 91740 333 91204
BBXX 41053 04181 99185 70661 46/// /0203 10264 40153 91750 333 91205
BBXX 46244 04181 99409 71244 46/// ///// 1//// 91805 22200 00107 11305 21003 327// 41304 70027
BBXX 46248 04181 99461 71247 46/// ///// 1//// 91804 22200 00095 11310 20907 325// 41308 70052
BBXX 46249 04181 99338 71197 46/// ///// 1//// 91807 22200 00143 11403 21002 326// 41403 70017
BBXX 41053 04181 99185 70661 46/// /0203 10264 40152 58027 91800 22200 00276 10902 70011 333 91204
BBXX 41052 04181 99183 70648 46/// /3202 10262 40147 91750 333 91203
BBXX 41052 04181 99183 70648 46/// /3302 10263 40145 57027 91800 22200 00271 333 91203
BBXX 41052 04181 99183 70648 46/// /3202 10263 40147 91740 333 91203
BBXX WBN3013 04184 99289 70803 41/// /3210 10178 2//// 40108 54000 7//// 8//// 222/2 0//// 20503 30507 40702 50501 6//// 8//// ICE /////
BBXX WABS 04184 99409 71256 41598 8//25 10117 20097 40275 52025 70222 886// 22243 0//// 20402 3//// 40805 5//// 6///0 80106 ICE 0/0//
BBXX WCDP 04184 99265 70894 41498 10901 10185 2//// 40284 57010 70200 812// 22224 00225 2//// 3//// 4//// 5//// 6//// ICE /////
BBXX WFLH 04183 99324 71237 43598 23618 10156 20117 40273 52004 7//// 821// 22223 00144 20601 328// 41203 5//// 6//// 80133 ICE /////
BBXX C6FY5 04183 99205 70728 41698 80116 10230 2015/ 40200 5/000 7//00 8867/ 222// 0//// 21000 3//// 42000 54002 6//// 80180 ICE /////
BBXX 46207 04181 99509 71299 46/// /1913 10095 40006 52016 22200 00080 11110 70051 333 91215
BBXX PFBE 04183 99404 70691 41/98 72920 11020 40175 55016 75555 8/7// 22224 00118 20203 91154
BBXX A8MW6 04184 99104 70759 41498 20224 10265 20237 40115 50015 70200 821/6 22200 20402 303// 40503 5//// 80245
BBXX PCBZ 04183 99161 70709 41/98 70135 10269 20214 40155 57002 70322 8127/ 22213 00250 20704 305// 41002 80230 91154
BBXX 41008 04181 99314 70809 46/// /2803 10050 21034 40294 57023 91750 22200 00147 10901 20401 300// 40901 70005 333 91204 555 11027 22027 31740 42905 61749 282028 293030 293032 285027 313015 331012
BBXX 46111 04181 99481 71227 46/// /1810 10105 40166 53024 91800 22200 00050
BBXX 41037 04181 99340 70775 46/// /3003 10041 40230 58028 91800 22200 00188 333 91204
BBXX WXJ63 04183 99611 71464 41/93 90512 11068 21079 49797 57/// 773// 8//// 222// 00050 2//// 3//// 4//// 5//// 6//// 8//// ICE /////
BBXX KEY796 04183 99571 71703 41/97 80120 11133 21150 49987 52/// 771// 8//// 222// 01017 2//// 3//// 4//// 5//// 6//// 8//// ICE /////
BBXX DFCX2 04183 99088 70946 41698 30525 10295 20244 40158 50002 70100 83140 22274 06276 20506 399// 40506
BBXX WE4805 04184 99470 70915 41/99 92420 11022 2//// 40142 54000 70202 88461 22201 00028 20601 3//// 4//// 5//// 6//// 8//// ICE /////
BBXX 62120 04184 99564 10021 47496 /2534 10068 20068 49876 57074 751// 22200
BBXX 62152 04184 99570 10018 47/97 /2217 10065 20039 49874 57069 740// 22200 10710 70048
BBXX 62119 04184 99570 10019 47497 /2634 10066 20037 49874 57071 700// 22200 10709 70044
BBXX 63103 04184 99612 10011 46/// /2907 10052 21011 49773 57047 22200 10807 70035
BBXX 62133 04184 99571 10009 46/// /2531 10066 20038 49847 57074 22200 10708 70042
BBXX PJGO 04184 99571 10022 47/96 /2333 10058 49863 57070 762// 22200
BBXX 64041 04184 99607 70026 47495 /1113 10039 20018 49741 57074 763// 22200 10808 70038
BBXX MWYG6 04184 99603 70040 47998 /2018 10065 700// 22200
BBXX 63115 04184 99616 10013 47598 /2811 10044 21025 49772 57033 700// 22200 10808 70041
BBXX 63117 04184 99613 10011 47599 /3010 10048 21013 49772 57041 700// 22200
BBXX 63106 04184 99610 10017 46/// /2809 10046 49776 57041 22200
BBXX 63104 04184 99612 10016 47598 /2909 10052 20006 49773 57037 700// 22200
BBXX 63101 04184 99612 10009 46/// /2907 10058 20001 49771 22200
BBXX 63107 04184 99611 10017 46/// /2706 10050 49775 57041 22200
BBXX 63112 04184 99611 10010 46/// /2607 10058 21027 49771 57042 22200 10807 70036
BBXX 63113 04184 99610 10017 46/// /3005 10047 20001 49777 57054 22200 10707 70033
BBXX 63105 04184 99610 10017 47998 ///// 10052 21001 49776 57042 700// 22200
BBXX 63108 04184 99608 10017 47698 /2609 10040 21019 49773 57046 700// 22200 10905 70026
BBXX 62128 04184 99587 10014 47396 /2221 10052 20029 49809 57065 761// 22200 10707 70035
BBXX 62113 04184 99584 10002 47498 /2126 10057 20034 49814 57075 700// 22200
BBXX 62129 04184 99584 10003 46/// ///// 10059 20037 49814 57076 22200
BBXX 63110 04184 99595 10015 47499 /2213 10053 20011 49793 57062 700// 22200 10706 70032
BBXX 62111 04184 99580 70003 46/// /2333 10064 20037 49821 57086 22200 10606 70029
BBXX 63057 04184 99592 10015 47498 /2319 10054 20010 49797 57064 700// 22200 10707 70033
BBXX 63056 04184 99597 10016 47698 /2012 10049 20003 49787 57051 700// 22200 10707 70033
BBXX PJAI 04184 99581 70014 47597 /2320 10074 20033 49798 57085 761// 22200
BBXX 62112 04184 99584 70002 47495 /2225 10056 20040 49799 57086 762// 22200
BBXX 62303 04184 99516 70051 46/// /2627 10104 20079 40132 58018 22200 00107 10810 70048 333 90710 91142
BBXX 63055 04184 99606 10016 47998 /2508 10056 21026 49780 57050 700// 22200 10605 70026
BBXX 62442 04184 99490 70164 46/// /2527 1//// 2//// 40282 57013 22200 00120 333 90710 91136
BBXX 62105 04184 99554 70121 46/// /2736 10113 20094 49960 55016 22200 00106 11017 70083 333 90710 91149
BBXX 62029 04184 99487 70125 46/// /2628 10113 20077 40278 55013 22200 00123 10811 70053 333 90710 91137
BBXX 62081 04184 99510 70134 46/// ///// 10114 20075 40194 57010 22200 00118 10812 70061
BBXX MYJG2 04183 99607 70026 415// 81010 10040 20028 49788 57100 76162 8/7// 22262 04077 2//// 328// 40806 5//// 80035
BBXX LF3F 04184 99643 10078 43/// /0505 10035 20015 49722 57011 22200 04084 10805 70025 333 91111
BBXX LF4B 04184 99606 10037 47/98 /2615 10054 49793 57036 785// 22200 00050 10708 70038 333 91131
BBXX LF5T 04184 99660 10081 43697 /1215 10039 21006 49738 57012 22200 10704 70022 333 91125
BBXX 3ERR2 04184 99635 10053 41598 22715 10041 21020 49734 57018 70182 83100 22200 06096 10706 70028 333 91136
BBXX LF4C 04184 99584 10019 41496 82422 10067 20047 49810 57071 76186 887// 22200 00069 10707 70034 333 91136
BBXX LF3N 04184 99653 10073 41498 71013 10038 20010 49728 57012 70262 8//// 22200 00090 10706 70029
BBXX PBFM 04183 99441 70190 41297 82113 10150 20138 40380 52026 70222 887// 22214 20401 332// 41206 80143
BBXX ZMENA 04184 99372 31760 46/// ///// 10186 20162 40173 52002 22282
BBXX ZMFR 04184 99428 51782 43/// /3411 10161 20153 40145 52005 22200 00156
BBXX SHIP 04184 99116 51233 41497 21016 10258 20196 40175 52011 70300 82230 22234 04252 20302 30712 40702 50702
BBXX SHIP 04184 99023 31454 41/97 22619 10284 20242 40072 57015 70211 8//// 22212 06300 10903 20202 329// 40802
BBXX 2AKI2 04183 99047 10990 41598 50311 10284 20219 40110 51001 71311 81132 22274 00293 20302 30000 4//// 5//// 80240
BBXX A8GP6 04183 99326 31135 41/97 /0718 10220 20206 40060 56020 70211 8//// 22284 04212 20404 318// 40504 80210
BBXX 62163 04184 99475 70084 46/// /2627 10104 20063 40302 58004 22200 00123 10809 70047 333 90710 91136
BBXX 64045 04184 99591 70117 46/// /2831 10072 20037 49808 53005 22200 00100 10812 70058 333 90710 91148
BBXX 64046 04184 99606 70049 46/// /2818 10071 20039 49716 56076 22200 00076 10909 70046
BBXX 62301 04184 99524 70047 46/// /2528 10091 20066 40100 57024 22200 00084 10708 70039 333 90710 91146
BBXX 62001 04184 99452 70050 46/// /2516 10126 20075 40342 58004 22200 00134 11009 70047
BBXX 63119 04184 99583 10009 41397 82532 10056 20016 49794 57040 70262 8/678 22200 20608 327// 40809 5//// 80040
BBXX PHBO 04183 99499 70028 41/97 82334 10111 20067 40177 56033 70262 8/7// 22264 20808 325// 41008 80090
BBXX ZCDN9 04184 99363 70121 41998 01223 10159 20086 40329 52009 70111 80000 22213 00176 20204 305// 41006 5////
BBXX A8IV9 04184 99362 10145 41497 53310 10160 20135 40210 54000 70222 83277 22224 20902 80145
BBXX 62103 04184 99499 70029 46/98 /2740 10109 20074 40184 57022 22200 00115 10808 70039 333 90710 91158
BBXX PCGM 04183 99476 70105 41597 72720 10122 20081 40310 55010 701// 855// 22213 04132 20804 399// 41207 80100
BBXX 2AUO5 04183 99606 10017 41598 52511 10069 20002 49778 57049 70211 854// 22261 20401 329// 40905 80043
BBXX V2NA1 04184 99380 70300 41297 70517 10174 20138 40286 57006 71522 877// 22264 04160 20603 333// 41007 80152
BBXX 62146 04184 99572 10021 47/96 /2532 10065 20042 49873 57066 752// 22200 10709 70043
BBXX 62164 04184 99572 10008 47496 /2325 10084 20047 49854 57073 761// 22200 00089 10708 70042
BBXX 62150 04184 99536 10007 47598 /2326 10076 20041 40024 57058 700// 22200 10504 70021
BBXX 62142 04184 99530 10021 47597 /2329 10077 20036 40044 57053 700// 22200 10505 70023
BBXX 62104 04184 99574 10013 47497 /2527 10072 20042 49839 57071 740// 22200
BBXX 62140 04184 99573 10013 46/// /25// 10064 20051 49839 57070 22200
BBXX 62153 04184 99573 10020 47497 /2428 10069 20048 49848 57069 761// 22200 10709 70044
BBXX 62122 04184 99573 10016 47497 /2330 10071 20045 49861 57068 762// 22200 10709 70044
BBXX 62116 04184 99576 10011 47497 /2431 10066 20042 49832 57073 761// 22200 10708 70040
BBXX 62118 04184 99577 10009 47495 /2233 10076 20044 49827 57071 762// 22200 10708 70040
BBXX 62155 04184 99577 10007 47396 /2332 10068 20046 49840 57073 762// 22200 10708 70040
BBXX 62143 04184 99577 10018 47496 /2530 10068 20045 49844 57077 762// 22200 10708 70039
BBXX 62117 04184 99579 10000 47495 /2127 10068 20039 49817 57080 762// 22200 10606 70032
BBXX 62134 04184 99580 10014 47497 /2326 10067 20038 49828 57072 762// 22200 10607 70036
BBXX 62102 04184 99579 10018 46/// /2425 10064 20037 49831 57067 22200 10708 70041
BBXX 62114 04184 99583 10000 46/// /2126 10060 20040 49800 57081 22200
BBXX ZQSD5 04184 99583 10007 46/// /2324 10060 20042 49818 57075 22200 10709 70047
BBXX 62149 04184 99537 10011 47698 /2229 10066 20064 40016 57054 700// 22200 10505 70023
BBXX 62121 04184 99535 10027 46/// /2235 10067 20040 22200
BBXX 62145 04184 99531 10028 47596 /2029 10069 20036 40045 57051 761// 22200 10606 70032
BBXX 62144 04184 99534 10017 47897 /2335 10075 20037 40040 57056 700// 22200 10505 70025
BBXX 62148 04184 99536 10015 46/// /2235 10074 20039 40032 58045 22200
BBXX 62131 04184 99539 10012 46/// /22// 10075 20057 40002 57057 22200
BBXX 62123 04184 99563 10022 47496 /2435 10070 20042 49879 57072 762// 22200
BBXX 62154 04184 99564 10022 46/// /2431 10070 20047 49884 57069 22200
BBXX 62127 04184 99540 10007 47598 ///// 10074 20045 49996 57057 700// 22200 10505 70023
BBXX 62165 04184 99540 10009 47698 /2330 10077 20045 49999 57058 700// 22200 10606 70029
BBXX 62132 04184 99564 10020 46/// /2628 10070 20040 49878 57072 22200
BBXX 46185 04181 99524 71298 46/// /1812 10088 49987 52020 22200 00069 11412 70058 333 91215
AAXX 04184 89050 41396 73306 10016 20016 49873 57007 74042 87500
AAXX 04184 89512 32998 12212 10015 21071 39614 49759 57012 81030 333 10035
AAXX 04184 89574 41495 80712 10002 20001 49824 57003 77173 8672/
AAXX 04184 89592 42998 21205 11029 21066 49916 57002 80001
AAXX 04184 89606 41998 12414 11339 21390 36298 47741 57001 73730 80001 333 11268
AAXX 04184 94996 454// 81112 10209 20185 39991 40126 53008 91830
AAXX 04181 55299 32880 80000 11163 21208 35822 52002 83407 333 00152 11069
AAXX 04181 55591 32680 71104 11047 21157 36495 52009 83402 333 00252 10038
AAXX 04181 56739 11473 81601 10092 20078 38351 57001 60021 79180 889// 333 00001 10144
AAXX 04181 56951 32775 31401 10089 20058 38502 57006 83400 333 00051 10205
AAXX 04181 56964 11565 70000 10133 20120 38709 40139 57005 69931 70080 874// 333 00000 10217
AAXX 04181 57328 31857 80000 10042 20019 39862 40288 57014 71000 885// 333 10053
AAXX 04181 57411 11450 80901 10044 20027 39903 40288 57014 69921 72166 8272/ 333 10052
AAXX 04181 57447 11462 82701 10010 20003 39751 40319 57017 69911 76870 8172/ 333 10032
AAXX 04181 57662 32862 82504 10010 21037 30137 40328 57010 885// 333 10063
AAXX 04181 57745 11830 80000 10007 21012 39981 40324 57019 69971 71070 8802/ 333 10051
AAXX 04181 57972 11450 80000 10008 21003 30093 40330 57005 60071 76076 887// 333 10036
AAXX 04181 58203 32960 01102 11068 21108 30303 40347 57006 333 10041
AAXX 04181 58314 32962 01801 11035 21049 30226 40338 57003 333 10052
AAXX 04181 58424 32963 70401 10017 21132 30316 40343 57001 87040 333 10046
AAXX 04181 59023 11765 80702 10047 20012 39977 40302 57003 69901 70060 885// 333 10068
AAXX 04181 59417 11358 81101 10070 20055 30112 40273 57006 69981 76066 887// 333 10100
AAXX 04181 59985 32570 30406 10231 20208 30164 40169 57010 83200 333 10264
AAXX 04181 59995 NIL
AAXX 04184 94996 454// 81112 10209 20185 39991 40126 53008 91830
BBXX 46185 04181 99524 71298 46/// /1812 10088 49987 52020 22200 00069 11412 70058 333 91215
AAXX 04184 82106 32698 61804 10318 20244 3//// 4//// 86200 333 5////
AAXX 04184 82113 21496 72302 10287 20250 3//// 4//// 70352 84860 333 5//// 69951
AAXX 04184 82212 21798 63202 10298 20255 30035 40117 70162 84340 333 59009 60031
AAXX 04184 82336 21195 80000 10250 20241 3//// 4//// 70298 84670 333 5//// 60061
AAXX 04184 82425 32596 60502 10296 20245 3//// 4//// 84330 333 5////
AAXX 04184 82533 32497 40000 10310 20218 3//// 4//// 82250 333 5////
AAXX 04184 82704 32696 60000 10303 20241 39880 40073 86400 333 59003
AAXX 04184 82723 32698 63202 10317 20261 30051 40133 83431 333 58013
AAXX 04184 82042 32198 60000 10319 20238 3//// 4//// 83632 333 5////
AAXX 04184 82240 21595 80000 10256 20240 3//// 4//// 75196 8572/ 333 5//// 60391
AAXX 04184 82317 32594 30000 10306 20302 3//// 4//// 82202 333 5////
AAXX 04184 82610 32595 80000 10310 20263 3//// 4//// 887// 333 5////
AAXX 04184 82807 32595 63602 10303 20243 3//// 4//// 85402 333 5////
BBXX DDVK2 04183 99334 10260 41/98 82510 10155 20060 40212 54000 72582 88/// 22224 00193 2//// 30000 80105
BBXX TBWUK18 04183 99291 30624 41398 41023 10230 20183 40203 52014 70111 8416/ 22222 00240 20602 328// 41204 5//// 80200
BBXX ZNQO3 04180 99374 10093 41598 52710 10160 20103 40243 58015 70322 842// 22224 04166 2//// 3//// 4//// 5//// 80130
BBXX A8HD5 04181 99297 11224 41297 43209 10045 21044 40330 56010 70211 82645 22200 04050 20301 30000 40000 5//// 80015
BBXX VRCZ7 04183 99359 10155 41/98 43110 10150 20113 40209 56/// 70211 84/// 22224 2//// 3//// 4//// 5//// 80130
AAXX 04181 24790 41999 00000 11483 21499 39402 40376 57007 77670
AAXX 04181 24988 42999 03201 11343 21371 39949 40234 53001
AAXX 04181 25378 32997 63307 11191 21281 30097 40132 57012 86030 333 21216 48004 91114
AAXX 04181 25503 42999 01301 11455 21476 30093 40243 53005
AAXX 04181 25705 41996 00000 11437 21461 39871 40259 53002 77670
AAXX 04181 25927 41493 83601 11181 21187 30177 40184 57006 74874 886//
AAXX 04181 25932 42999 03001 11227 21253 30142 40184 57007
AAXX 04181 31152 42997 00000 11398 21434 39861 40330 53001
AAXX 04181 31174 42999 80601 11177 21183 30226 40238 52005 80007
AAXX 04181 31489 41996 83203 11142 21162 30081 40204 52004 77173 8802/
AAXX 04181 31866 41996 82908 11108 21161 30049 40055 53016 77072 8802/ 333 91012 91115
AAXX 04181 31959 42599 32609 11124 21207 30051 40096 53018 83500 333 91019 91121
AAXX 04181 31989 42999 02801 11102 21202 30086 40142 52010
AAXX 04181 32027 41593 83613 11114 21127 30123 40132 53006 78583 889// 333 91017 91119
AAXX 04181 32076 41496 83605 11023 21026 30039 40049 53009 78583 889// 333 91009 91110
AAXX 04181 32099 41595 80309 11020 21029 39969 49977 52005 78588 889// 333 91011 91113
AAXX 04181 32121 41493 83503 11021 21033 39975 49997 52016 78682 889// 333 91006 91106
AAXX 04181 32213 42598 70927 11016 21057 39940 40002 53010 87500 333 91033 91133
AAXX 04181 32287 42999 01001 11232 21250 30131 40142 57005
AAXX 04181 32408 42999 20000 11312 21336 30116 40159 57005 82031
AAXX 04181 32509 42698 50105 11083 21141 30108 40143 53001 85500
AAXX 04181 32594 41595 80930 11034 21085 39936 49972 57014 73883 883// 333 91035 91138
AAXX 04184 67002 32580 73604 10280 20244 30079 40112 84802 333 20230 82820 84630 92417
AAXX 04184 67009 NIL
AAXX 04184 67025 NIL
AAXX 04184 67027 31465 70804 10267 20254 30081 40102 52026 76066 8387/ 333 10286 82817 83640 85460
AAXX 04184 67045 NIL
AAXX 04184 67083 11460 81204 10185 20171 38744 48517 60012 76066 878// 333 10230 81817 87620
AAXX 04184 67095 11465 70000 10255 20240 30123 40130 50015 60032 71562 878// 333 10290 83817 86633=2.5 67113 NIL
AAXX 04184 67117 NIL
AAXX 04184 67137 NIL
AAXX 04184 67143 NIL
AAXX 04184 67161 NIL
AAXX 04184 67197 32480 20808 10254 20231 30119 40129 52013 82800 333 10286 82817 555 81633
AAXX 04181 40882 11956 12906 10200 20126 30112 40147 53010 60001 70500 80001 333 55093 81070
AAXX 04181 26167 11470 81804 10024 20003 39764 49873 58023 70262 60022 886// 333 10026 88713
AAXX 04181 47008 NIL
AAXX 04181 47014 NIL
AAXX 04181 47016 NIL
AAXX 04181 47020 NIL
AAXX 04181 47025 NIL
AAXX 04181 47035 NIL
AAXX 04181 47041 NIL
AAXX 04181 47055 NIL
AAXX 04181 47058 NIL
AAXX 04181 47069 NIL
AAXX 04181 47090 32965 02705 11050 21178 30225 40248 52013 333 92042
AAXX 04181 47095 31950 00001 11154 21177 30098 40305 52011 71000
AAXX 04181 47097 329// /2502 11105 21149 30199 40303 52014
AAXX 04181 47098 329// /0001 11127 21149 30154 40300 52012
AAXX 04181 47099 329// /0000 11143 21158 30261 40301 52010
AAXX 04181 47100 32962 02304 11157 21185 39307 40302 52021
AAXX 04181 47102 32670 62908 11043 21099 30111 40298 53006 86500
AAXX 04181 47104 32967 01407 11068 21165 30149 40252 52015
AAXX 04181 47106 329// /2008 11045 21152 30199 40251 52012
AAXX 04181 47112 32965 03406 11060 21131 30209 40298 52009 333 92012
AAXX 04181 47114 31958 00902 11108 21148 30103 40300 52015 70500
AAXX 04181 47119 31957 02001 11099 21125 30256 40301 52011 71000
AAXX 04181 47121 329// /2901 11125 21140 39984 40302 52016
AAXX 04181 47127 329// /0902 11111 21140 30152 40305 52013
AAXX 04181 47129 32670 63406 11030 21084 30266 40303 53007 86500
AAXX 04181 47130 32962 02306 11054 21154 30186 40251 52011 333 92032
AAXX 04181 47131 32665 22702 11073 21127 30227 40302 52011 81500
AAXX 04181 47135 329// /2508 11064 21099 39979 40295 52017
AAXX 04181 47136 32962 00201 11079 21131 30101 40284 52010
AAXX 04181 47137 329// /2506 11066 21130 30168 40294 52016
AAXX 04181 47140 32663 60902 11053 21088 30271 40301 52011 85500 333 92011
AAXX 04181 47143 32961 02904 11048 21116 30211 40294 52011
AAXX 04181 47145 32660 42002 11104 21130 30265 40293 52008 84500
AAXX 04181 47146 32668 63604 11040 21106 30233 40302 52013 85500
AAXX 04181 47150 32670 60204 11043 21091 30275 40295 52009 86500
AAXX 04181 47152 32965 03411 11039 21125 30214 40259 52015
AAXX 04181 47154 329// /3602 11060 21117 30226 40290 52011
AAXX 04181 47155 32963 01109 11034 21116 30224 40272 50009
AAXX 04181 47156 32665 50503 11045 21061 30204 40298 52011 85500
AAXX 04181 47157 32965 03403 11094 21126 39995 40284 52012
AAXX 04181 47162 32970 00507 11030 21107 30231 40273 51011 333 92023
AAXX 04181 47169 41665 53418 10016 21031 30194 40291 54000 72682 85500 333 92064
AAXX 04181 47170 41665 53405 11009 21044 30244 40289 50002 72682 85500 333 92022
AAXX 04181 47171 329// /1102 11067 21085 30243 40301 51012
AAXX 04181 47172 329// /0001 11050 21066 30224 40294 52014
AAXX 04181 47173 329// /0001 11106 21120 30185 40305 52017
AAXX 04181 47174 32662 33205 11053 21085 30076 40289 51011 83500
AAXX 04181 47175 32568 63413 11038 21052 39690 40289 50003 86500 333 92035
AAXX 04181 47185 32570 63224 10041 21036 30191 40284 53004 86800 333 92056
AAXX 04181 47188 32570 53204 10022 21023 30257 40280 50001 85800 333 92032
AAXX 04181 47189 32570 63605 10015 21024 30209 40271 56003 85800 333 92033
AAXX 04181 47192 32962 00701 11083 21117 30242 40282 50011
AAXX 04181 47003 NIL
AAXX 04181 47005 NIL
AAXX 04181 47022 NIL
AAXX 04181 47028 NIL
AAXX 04181 47031 NIL
AAXX 04181 47037 NIL
AAXX 04181 47039 NIL
AAXX 04181 47046 NIL
AAXX 04181 47050 NIL
AAXX 04181 47052 NIL
AAXX 04181 47060 NIL
AAXX 04181 47061 NIL
AAXX 04181 47065 NIL
AAXX 04181 47067 NIL
AAXX 04181 47068 NIL
AAXX 04181 47070 NIL
AAXX 04181 47075 NIL
AAXX 04184 71916 46/// /3206 11320 21348 30126 40184 58001 6///1 333 11290 21350 7////
AAXX 04184 71525 16/// /2226 10123 21011 60001 333 10123 20018 70000
AAXX 04184 71535 16/// /2018 10107 21009 60001 333 10110 20068 70000
AAXX 04184 71536 16/// /2410 10108 21008 60001 333 10108 20040 70000
AAXX 04184 71537 16/// /2013 10105 20003 60001 333 10105 20004 70000
AAXX 04184 71445 16/// /3307 11073 21097 39854 40135 50000 60001 333 11038 21090 70011
AAXX 04184 71214 16/// /1607 10024 21015 60001 333 10035 21046 70000
AAXX 04184 71223 16/// /1910 10029 21005 60001 333 10029 21040 70000
AAXX 04184 71225 16/// /1913 10095 21032 60001 333 10095 20036 70000
AAXX 04184 71227 46/// /1606 10006 21020 6///1 333 10006 21042 7////
AAXX 04184 71244 16/// /2109 10086 21041 38959 40175 58004 60001 333 10088 20021 70000
AAXX 04184 71257 17/// /2109 10061 21002 69961 7//4/ 333 10065 21002 70017
AAXX 04184 71258 16/// /1904 10082 21010 60001 333 10083 20022 70000
AAXX 04184 71259 16/// /2210 10086 20005 60001 333 10086 21012 70000
AAXX 04184 71274 16/// /1306 11016 21037 60001 333 11011 21050 70000
AAXX 04184 71275 46/// /1306 11022 21041 6///1 333 11021 21070 7////
AAXX 04184 71278 16/// /1605 11009 21031 60001 333 10003 21077 70000
AAXX 04184 71286 46/// /1508 11012 21027 6///1 333 11012 21062 7////
AAXX 04184 71287 16/// /2802 10003 21009 60001 333 10012 21034 70000
AAXX 04184 71289 16/// /2014 10078 21006 60001 333 10079 21016 7////
AAXX 04184 71683 46/// /3605 11338 39991 40108 58003 6///1 333 11288 21339 7////
AAXX 04184 71345 16/// /2215 10100 21040 60001 333 10100 20047 70000
AAXX 04184 71351 16/// /1903 10035 21014 60001 333 10035 21006 70004
AAXX 04184 71353 16/// /2010 10077 21011 60001 333 10081 20020 70000
AAXX 04184 71375 46/// /3509 11089 6///1 333 11069 21124 7////
AAXX 04184 71385 46/// /2421 11116 6///1 333 11110 7////
AAXX 04184 71827 11566 81909 11137 21157 39723 49973 55018 60011 77177 885// 333 11134 21240 48020 70036 90983 93101
AAXX 04184 71464 46/// ///31 11019 39889 40106 58039 6///1 333 11018 21130 7////
AAXX 04184 71466 46/// ///// 11008 39893 40134 58033 6///1 333 11008 21072 7////
AAXX 04181 47101 32960 00001 11133 21155 30199 40303 52015
AAXX 04181 47105 369// /2509 11052 21170 30219 40253 52014
AAXX 04181 47108 32960 02703 11091 21146 30186 40299 52009
AAXX 04181 47115 41565 63605 11006 21065 39942 40222 51010 78582 86800 333 92042
AAXX 04181 47133 41558 63401 11058 21093 30215 40305 52015 78588 86800
AAXX 04181 47138 32965 02506 11039 21111 30256 40259 52009 333 92032
AAXX 04181 47159 32962 03609 11045 21138 30164 40254 50003 333 92023
AAXX 04181 47165 41550 60504 11015 21030 30245 40294 52007 78582 86800 333 92032
AAXX 04181 47168 32970 03415 11028 21103 30197 40280 52012 333 92024
AAXX 04181 47184 41564 73411 10029 21018 30264 40290 51004 78588 87800 333 92054
AAXX 04183 42071 31993 20000 10088 20067 40169 74442 82030 333 58014 82360
AAXX 04181 23074 41997 80000 11260 21278 30311 40339 57008 77171 8802/
AAXX 04181 23274 41497 70000 11280 21304 30314 40355 57011 77172 84508 333 84615
AAXX 04181 23383 41897 80000 11352 21380 30006 40413 57010 77171 8802/
AAXX 04181 23472 41997 70602 11303 21334 30308 40363 57004 77171 80006
AAXX 04181 23678 429// 00902 11226 21244 30300 40364 57005
AAXX 04181 23884 429// 00000 11309 21332 30293 40377 57005
AAXX 04181 23891 42996 00000 11375 21412 30069 57001
AAXX 04181 24507 429// 30000 11342 21365 30110 40389 57001 80001
AAXX 04181 24817 429// 00000 11290 21314 39951 40363 52002
AAXX 04181 24908 42998 00000 11381 21416 30047 40433 53003
AAXX 04181 29263 42975 00000 11206 21231 30245 40355 57009
AAXX 04181 29282 42976 00000 11342 21365 30219 40415 58011
AAXX 04181 29379 42998 00000 11354 21383 30144 40386 57005
AAXX 04181 29570 41596 42401 11217 21229 39956 40336 57005 78580 82901
AAXX 04181 29698 416// 81401 11198 21215 39808 40365 57007 78510 83942
AAXX 04181 30230 42998 20000 11334 21356 30060 40436 52007 80001
AAXX 04181 30252 419// 80000 11255 21273 30068 40419 52007 77172 8805/
AAXX 04181 30309 41993 00000 11243 21261 39833 40409 57001 74800
AAXX 04181 30328 429// 00901 11332 21356 39973 40464 52007
AAXX 04181 30521 429// 00000 11340 21362 39850 40455 52010
AAXX 04181 30710 41993 80601 11216 21231 39769 40408 58002 74441 82031
AAXX 04184 42027 22596 61401 10008 21002 38426 48515 83520 333 58026 6990/
AAXX 04184 42101 31692 50000 10120 20112 40161 74244 83530 333 58010 82635 83358
AAXX 04184 42111 31995 60000 10110 20095 39369 40159 70511 86070 333 58009 86360
AAXX 04184 42131 32996 00901 10118 20098 40171 333 58016
AAXX 04184 42165 31695 31401 10158 20059 40125 70500 83500 333 59039 83640
AAXX 04184 42182 31992 20000 10134 20127 40156 74444 82030 333 58005 82360
AAXX 04184 42328 32996 02302 10160 20112 40125 333 59012
AAXX 04184 42339 31595 50000 10138 20073 40139 70500 85500 333 58000 85630
AAXX 04184 42348 31995 00000 10138 20112 40156 71000 333 59005
AAXX 04184 42361 31995 00000 10124 20113 40151 70500 333 59003
AAXX 04184 42369 31990 00000 10132 20125 40158 74644 333 58005
AAXX 04184 42379 31994 00000 10128 20105 40149 71000 333 58005
AAXX 04184 42452 32996 00000 10150 20121 40145 333 59003
AAXX 04184 42475 31994 00000 10144 20126 40154 71000 333 59006
AAXX 04184 42071 NIL
AAXX 04184 42189 NIL
AAXX 04184 42260 NIL
AAXX 04184 71751 46/// /2813 11054 21090 39842 6///1 333 7////
AAXX 04181 23973 42999 00000 11283 21306 30295 40366 57007
AAXX 04181 23975 429// 00000 11324 21355 30223 40348 57010
AAXX 04181 23986 42999 01001 11202 21221 39699 40388 58007
AAXX 04181 23987 42999 00000 11334 21363 30278 40364 57007
AAXX 04181 24606 429// 40000 11354 21377 30050 40358 54000 80002
AAXX 04181 29253 429// 00000 11198 21224 30138 40325 57009
AAXX 04181 29471 42998 00000 11247 21265 30091 40344 57006
AAXX 04181 29481 42999 00000 11335 21366 30110 40385 57006
AAXX 04181 29553 42971 00902 11186 21198 39903 40296 57007
AAXX 04181 29562 42984 00702 11181 21207 39860 40307 57003
AAXX 04181 29581 429// 00000 11282 21307 30073 40361 57004
AAXX 04181 29594 42999 00901 11254 21278 39949 40377 57006
AAXX 04181 29653 42997 12002 11233 21258 39780 40309 57004 80001
AAXX 04181 29675 42998 00000 11285 21310 39699 40362 58001
AAXX 04181 29676 42998 80101 11250 21274 39873 40340 57005 80007
AAXX 04181 29752 429// 60000 11094 21192 38807 48459 57001 80009
AAXX 04181 29759 429// 30000 11154 21167 39214 40296 58001 81031
AAXX 04181 29766 42999 01201 11290 21307 39936 40335 57002
AAXX 04181 29789 NIL
AAXX 04181 29864 429// 03203 11220 21239 39613 40321 58005
AAXX 04181 29866 419// 00000 11285 21302 39967 40326 58002 71011
AAXX 04181 29869 419// 00000 11273 21285 39919 40337 52002 71011
AAXX 04181 29956 42984 00000 11282 21307 39731 40358 58001
AAXX 04181 30337 41598 80000 11232 21250 39933 40427 52012 78582 8391/
AAXX 04181 30405 429// 00601 11281 21305 39819 40412 57002
AAXX 04181 30504 42997 50901 11271 21288 39680 40404 57006 80001
AAXX 04181 30603 41996 00000 11298 21309 39768 40414 57005 71000
AAXX 04181 30612 429// 03001 11304 21315 39824 40429 52001
AAXX 04181 30622 429// 00000 11314 21330 39720 40455 52017
AAXX 04181 30627 42999 00000 11249 21268 39393 40420 52002
AAXX 04181 30703 429// 00000 11326 21336 39661 40430 58004
AAXX 04181 36307 42997 41101 11356 21390 39017 48507 53007 80002
OOXX AAERC 04184 99815 31639 60713 00451 46/// /2105 11038 21128 39796 49852 5//// 91750
OOXX AAVIT 04184 99785 31778 57087 00501 46/// /1814 11068 21097 39765 49828 5//// 91750
AAXX 04184 71827 11566 81909 11137 21157 39723 49973 55018 60011 77177 885// 333 11134 21240 48020 70036 90983 93101
AAXX 04184 71464 46/// ///31 11019 39889 40106 58039 6///1 333 11018 21130 7////
AAXX 04184 71466 46/// ///// 11008 39893 40134 58033 6///1 333 11008 21072 7////
AAXX 04184 71214 16/// /1607 10024 21015 60001 333 10035 21046 70000
AAXX 04184 71223 16/// /1910 10029 21005 60001 333 10029 21040 70000
AAXX 04184 71225 16/// /1913 10095 21032 60001 333 10095 20036 70000
AAXX 04184 71227 46/// /1606 10006 21020 6///1 333 10006 21042 7////
AAXX 04184 71244 16/// /2109 10086 21041 38959 40175 58004 60001 333 10088 20021 70000
AAXX 04184 71916 46/// /3206 11320 21348 30126 40184 58001 6///1 333 11290 21350 7////
AAXX 04184 71257 17/// /2109 10061 21002 69961 7//4/ 333 10065 21002 70017
AAXX 04184 71258 16/// /1904 10082 21010 60001 333 10083 20022 70000
AAXX 04184 71259 16/// /2210 10086 20005 60001 333 10086 21012 70000
AAXX 04184 71274 16/// /1306 11016 21037 60001 333 11011 21050 70000
AAXX 04184 71275 46/// /1306 11022 21041 6///1 333 11021 21070 7////
AAXX 04184 71278 16/// /1605 11009 21031 60001 333 10003 21077 70000
AAXX 04184 71286 46/// /1508 11012 21027 6///1 333 11012 21062 7////
AAXX 04184 71287 16/// /2802 10003 21009 60001 333 10012 21034 70000
AAXX 04184 71289 16/// /2014 10078 21006 60001 333 10079 21016 7////
AAXX 04184 71345 16/// /2215 10100 21040 60001 333 10100 20047 70000
AAXX 04184 71525 16/// /2226 10123 21011 60001 333 10123 20018 70000
AAXX 04184 71535 16/// /2018 10107 21009 60001 333 10110 20068 70000
AAXX 04184 71536 16/// /2410 10108 21008 60001 333 10108 20040 70000
AAXX 04184 71537 16/// /2013 10105 20003 60001 333 10105 20004 70000
AAXX 04184 71751 46/// /2813 11054 21090 39842 6///1 333 7////
AAXX 04184 71683 46/// /3605 11338 39991 40108 58003 6///1 333 11288 21339 7////
AAXX 04184 71351 16/// /1903 10035 21014 60001 333 10035 21006 70004
AAXX 04184 71353 16/// /2010 10077 21011 60001 333 10081 20020 70000
AAXX 04184 71375 46/// /3509 11089 6///1 333 11069 21124 7////
AAXX 04184 71385 46/// /2421 11116 6///1 333 11110 7////
AAXX 04184 63729 32980 10000 10230 20202 38860 48/// 80002 333 10310 55300 59001 81073
AAXX 04184 63756 32980 10000 10224 20184 38860 48496 80001 333 10285 58012 81075
AAXX 04184 63791 32580 32106 10298 20082 39093 48491 83500 333 10360 55300 59003 83628 Q1011
AAXX 04184 63801 31580 60000 10248 20215 39195 48520 70392 81901 333 10303 58013 81821 81922 86077
AAXX 04184 63832 32980 10000 10232 20163 38810 48489 80001 333 10311 55300 58006 81074
AAXX 04184 63862 32580 70000 10254 20184 38874 48489 81903 333 10318 59005 81823 81924 86078
AAXX 04184 63870 32480 10505 10269 20243 30073 40091 81200 333 10333 55300 59001 81818
AAXX 04184 63881 01480 80000 10170 20151 38203 48/// 60132 70366 8597/ 333 0//92 10247 58005 69927 85617 81919 88356
AAXX 04184 63887 32580 60000 10234 20170 38570 48496 81942 333 55300 59006 81821 81924 85074
AAXX 04184 63894 32580 50413 10270 20248 30037 40097 85900 333 10312 55300 58003 85822 81923
AAXX 04184 63932 12580 70000 10186 20165 38308 48505 69902 8193/ 333 10250 55300 58004 81822 81924 86359
AAXX 04184 63971 32580 40310 10270 20248 39961 40090 81901 333 10314 55300 58004 81822 81923 84076
AAXX 04184 63733 NIL
AAXX 04184 63866 NIL
AAXX 04184 63962 NIL
AAXX 04184 71445 16/// /3307 11073 21097 39854 40135 50000 60001 333 11038 21090 70011
AAXX 04184 87349 31960 40207 10338 20144 39765 40146 57013 70511 82055 333 56067 82360
AAXX 04181 51711 32980 32703 11167 21190 37995 57010 80002 333 05400 11070
AAXX 04181 51730 32970 00000 11160 21179 40326 57008 333 05400 11019
AAXX 04181 52112 32980 01601 11151 21219 40313 57006 333 05551 11054
AAXX 04181 52737 32980 00401 11163 21331 37048 57007 333 05351 11031
AAXX 04181 52787 32980 00000 11104 21239 36982 57010 333 05406 11037
AAXX 04181 53352 32980 01101 11161 21233 40347 57008 333 11082
AAXX 04181 53593 32980 02002 11163 21241 40360 57006 333 11063
AAXX 04181 53705 32970 01103 11105 21168 40317 57008 333 05804 11026
AAXX 04181 53863 32970 00000 11131 21181 40353 57009 333 11002
AAXX 04181 53975 32978 02701 11101 21195 40345 57004 333 10007
AAXX 04181 54273 32970 00000 11257 21290 40328 52004 333 11139
AAXX 04181 54324 32970 01802 11168 21237 40299 57003 333 11024
AAXX 04181 54405 32980 01101 11115 21224 40329 57003 333 11042
AAXX 04181 54436 32980 02201 11147 21198 40322 57004 333 11014
AAXX 04181 54808 32962 01602 11051 21137 40331 57012 333 10021
AAXX 04181 54826 32980 01102 11107 21324 38496 57006 333 11091
AAXX 04181 54836 32965 02701 11093 21158 40347 57008 333 11006
AAXX 04181 54863 32965 02902 11065 21116 40335 54000 333 10005
AAXX 04181 56018 32980 22002 11175 21215 36147 54000 80002 333 00052 11046
AAXX 04181 56021 32980 72501 11178 21207 36030 57004 8701/ 333 05206 11121
AAXX 04181 57071 32963 02901 11047 21178 40326 57010 333 10027
AAXX 04184 68513 36/// /1416 10196 20112 30039 40150 53001 333 10250 20196 91022 555 91015
AAXX 04184 68514 32/// ///// 1//// 2//// 3//// 4//// 5//// 333 1//// 2//// 555
AAXX 04184 68523 36/// /2410 10273 21043 39109 48538 52015 333 10335 20273 91014 555 91017
AAXX 04184 68527 36/// /2305 10325 21056 39054 48519 53007 333 10371 20325 91009 555 91014
AAXX 04184 68572 NIL
AAXX 04184 68575 16/// /0000 10220 20208 39091 48522 53012 69922 333 10283 20219 91001 555 20002 91017
AAXX 04184 68581 36/// /1504 10235 20212 39358 48519 53006 333 10335 20235 91008 555 91014
AAXX 04184 68583 36/// /0000 10258 20219 39996 40103 53013 333 10296 20258 91004 555 91010
AAXX 04184 68589 36/// /1905 10195 20156 38266 48523 53012 333 10275 20195 91009 555 91022
AAXX 04184 68613 36/// /2209 10172 20133 30052 40168 52002 333 10228 20172 91015 555 91016
AAXX 04184 68647 NIL
AAXX 04184 68651 NIL
AAXX 04184 68715 36/// /2205 10210 20130 30045 40171 52012 333 10278 20210 91012 555 91017
AAXX 04184 68717 36/// /1909 10223 20096 30018 40160 52010 333 10293 20223 91014 555 91016
AAXX 04184 68723 36/// /2010 10238 20076 39390 48534 53016 333 10338 20238 91018 555 91015
AAXX 04184 68737 32975 22208 10253 20101 39231 48521 52008 81021 333 10316 20252 91025 555 91014
AAXX 04184 68744 32980 01613 10218 20145 39094 48514 52018 333 10307 20218 91021 555 91016
AAXX 04184 68747 36/// /1410 10212 20160 39635 48554 53028 333 10322 20212 91016 555 91017
AAXX 04184 68754 16/// /1607 10182 20172 39156 48541 53031 69922 333 10288 20182 91013 555 20002 91019
AAXX 04184 68817 36/// /2607 10217 20139 30163 40175 53003 333 10253 20217 91014 555 91017
AAXX 04184 68821 36/// /2605 10232 20066 39908 40143 53007 333 10295 20232 91008 555 91015
AAXX 04184 68835 36/// /3002 10214 20115 30052 40165 53021 333 10292 20214 91005 555 91016
AAXX 04184 68843 36/// /2606 10206 20158 30064 40162 53018 333 10243 20206 91010 555 91016
AAXX 04184 68849 36/// /2010 10164 20133 39435 48539 53021 333 10255 20164 91012 555 91018
AAXX 04184 68912 36/// /1603 10174 20133 30169 40178 52012 333 10207 20173 91006 555 91017
AAXX 04184 68918 36/// /2405 10210 20156 30161 40179 53008 333 10241 20210 91009 555 91018
AAXX 04184 68921 36/// /2307 10208 20154 30171 40174 53013 333 10245 20207 91013 555 91017
AAXX 04184 68925 36/// /2604 10187 20123 39811 40173 53008 333 10225 20187 91008 555 91018
AAXX 04184 68926 32970 42206 10210 20117 39997 40174 52015 80000 333 10288 20210 91011 555 91017
AAXX 04184 68935 36/// /2606 10194 20132 30109 40172 52012 333 10269 20194 91009 555 91017
AAXX 04181 50548 32978 80000 11222 21254 40289 52010 8802/ 333 11125
AAXX 04181 50564 32970 02501 11289 21315 40283 52005 333 11123
AAXX 04181 51334 32970 00000 11201 21225 40316 57005 333 05351 11131
AAXX 04181 51818 32965 72701 11106 21131 40318 57003 80002 333 05451 11036
AAXX 04181 52378 32980 00000 11143 21214 40340 57012 333 05751 11058
AAXX 04181 53487 32962 03402 11184 21244 40369 57006 333 11063
AAXX 04181 53502 32980 02901 11183 21269 40357 57011 333 05851 11060
AAXX 04181 53923 32980 02201 11087 21159 40324 57012 333 11033
AAXX 04181 54049 32970 01804 11174 21217 40287 57001 333 11098
AAXX 04181 54115 32980 02503 11109 21210 40277 57006 333 11090
AAXX 04181 54157 32962 01601 11166 21200 40303 54000 333 11114
AAXX 04181 54186 32965 00000 11217 21248 40306 52007 333 11129
AAXX 04181 54311 32980 00201 11184 21234 40324 57007 333 11083
AAXX 04181 54346 32962 01102 11180 21205 40322 57001 333 11091
AAXX 04181 54377 32962 00202 11178 21198 40323 52006 333 11081
AAXX 04181 54386 32970 00202 11248 21284 40327 52009 333 11127
AAXX 04181 54493 32968 01101 11177 21197 40317 52005 333 11065
AAXX 04181 54587 NIL
AAXX 04181 54715 32970 01801 11074 21147 40333 57010 333 10007
AAXX 04181 54929 32975 01801 11078 21127 40343 57008 333 10003
AAXX 04181 54945 32980 02901 11055 21143 40341 57010 333 10007
AAXX 04181 56065 32980 70000 11221 21246 36576 57006 80008 333 05304 11104
AAXX 04181 57193 32962 01101 11049 21090 40338 57009 333 10035
AAXX 04181 57290 32962 00000 11041 21080 40338 57008 333 10038
AAXX 04184 48304 31958 00000 10202 20192 39665 40131 56005 71000 333 59002 70015
AAXX 04184 48360 31958 50702 10228 20178 39886 40149 57010 71022 80006 333 58011
AAXX 04184 48415 31556 60000 10250 20228 30123 40134 51000 71022 82546 333 58001 70040
AAXX 04184 48479 31958 40000 10250 20228 30067 40119 57022 71011 80006 333 5////
AAXX 04184 48563 32560 30000 10237 20211 30079 40115 57007 81145 333 59003
AAXX 04184 68572 NIL
AAXX 04184 68647 NIL
AAXX 04184 68651 NIL
AAXX 04181 27995 11470 81903 11077 21091 40183 54000 60020 70272 8802/ 333 11085 88514
AAXX 04181 48806 11497 81403 10078 20071 39425 40235 58003 60061 76162 8572/ 333 58019 85894 88499 96160
AAXX 04184 68174 31670 10606 10243 20151 38802 48531 53010 70500 81400 333 10301 20243 91007 555 91019
AAXX 04184 68191 36/// /2502 10292 20137 39632 48558 53007 333 10349 20292 91004 555 91014
AAXX 04184 68242 32680 20000 10300 20034 38720 48508 53005 81470 333 10342 20300 91004 555 91017
AAXX 04184 68262 16/// /0402 10217 20169 38712 48521 52017 60092 333 10326 20193 91003 555 20098 91019
AAXX 04184 68263 12880 41303 10213 20140 38498 48523 52010 60012 84070 333 10301 20205 91005 555 20014 91021
AAXX 04184 68267 31570 51207 10217 20084 38267 48535 52020 71322 84902 333 10287 20217 91009 555 91024
AAXX 04184 68289 16/// /1905 10230 20164 39162 48539 53012 69962 333 10288 20230 91021 555 20006 91018
AAXX 04184 68350 16/// /0406 10235 20129 38679 48532 52018 69922 333 10357 20235 91013 555 20002 91020
AAXX 04184 68368 11980 53407 10226 20131 38340 48530 50005 69982 70292 82370 333 10291 555 20008 91023
AAXX 04184 68403 36/// /1921 10198 20155 30132 40165 53006 333 10243 20198 91030 555 91016
AAXX 04184 68424 32882 52109 10327 21024 39174 48525 53007 83074 333 10378 20324 91014 555 91013
AAXX 04184 68438 32882 62007 10284 21034 38803 48506 53011 84072 333 10373 20282 91010 555 91016
AAXX 04184 68442 32882 52503 10275 21011 38657 48514 53011 85070 333 10359 20275 91004 555 91018
AAXX 04184 68461 32580 30000 10219 20075 38332 48515 53009 81202 333 10319 20219 91002 555 91021
AAXX 04184 68512 32982 12110 10212 20049 39024 48525 52011 80002 333 10287 20212 91015 555 91018
AAXX 04184 68538 32882 52810 10283 21024 38710 48502 53007 83082 333 10341 20283 91012 555 91016
AAXX 04184 68587 NIL
AAXX 04184 68588 36/// /1105 10260 21014 30098 40114 52008 333 10313 20260 91007 555 91011
AAXX 04184 68591 NIL
AAXX 04184 68592 NIL
AAXX 04184 68618 32980 12209 10227 20024 39063 48537 53003 80001 333 10293 20227 91013 555 91018
AAXX 04184 68633 36/// /1507 10236 20061 38510 48505 53017 333 10325 20236 91011 555 91018
AAXX 04184 68668 32470 31707 10204 20178 39304 48533 53023 83500 333 10271 20204 91010 555 91017
AAXX 04184 68714 36/// /2010 10209 20129 30132 40168 52013 333 10252 20209 91013 555 91016
AAXX 04184 68727 36/// /2012 10293 21027 39103 48511 53003 333 10321 20287 91017 555 91013
AAXX 04184 68752 36/// /1607 10218 20192 39487 48552 53027 333 10294 20218 91010 555 91017
AAXX 04184 68816 32675 62110 10217 20133 30120 40174 53015 82508 333 10258 91013 555 91017
AAXX 04184 68828 32570 69903 10190 20142 39942 40173 52016 86500 333 10239 555 91017
AAXX 04184 68842 32470 62311 10198 20144 30094 40164 51026 82508 333 10255 555 91016
AAXX 04184 68858 32480 52603 10222 20204 30000 40154 51035 83206 333 10271 555 91016
AAXX 04184 68906 11595 83126 10198 20170 39916 49978 58007 60272 76166 8152/ 222// 00138 20501 333 10199 20176 91063 555 20278 60225 90997
AAXX 04184 68994 11398 83026 10085 20045 39877 49905 52011 60032 72055 87507 222// 00064 333 10104 20082 91038 555 20032 90990
AAXX 04184 89004 32880 13107 11049 21119 38798 49793 52797 80002 333 11044 21067 91058 555
AAXX 04184 61902 32484 11516 10251 20196 40130 81100 333 10291 58007 81819
BBXX 46206 04181 99488 71260 46/// /1811 10101 40123 52016 22200 00081 11210 70049 333 91213
BBXX 46206 04181 99488 71260 46/// /1811 10101 40123 52016 22200 00081 11210 70049 333 91213
BBXX 46205 04181 99542 71343 46/// /1710 10073 49870 52027 22200 00069 11209 70044 333 91212
BBXX 46132 04181 99497 71279 46/// /1710 10098 40075 52019 22200 00084 11313 70063 333 91212
AAXX 04181 50658 31930 00000 11247 21260 40284 52005 70400 333 11146
AAXX 04181 50888 32980 01101 11204 21225 40224 52016 333 11138
AAXX 04181 50983 32970 03405 11164 21213 40226 52016 333 11148
AAXX 04181 51053 32980 50903 11130 21199 40296 57002 80002 333 05252 11084
AAXX 04181 51542 32980 13201 11298 21329 37531 52002 80002 333 05202 11194
AAXX 04181 52436 32980 02002 11170 21233 38480 40333 57009 333 05402 11060
AAXX 04181 52908 32980 52504 11185 21236 35702 57005 80002 333 05102 11098
AAXX 04181 52996 31340 71404 11126 21132 37542 57006 71000 876// 333 05501 11075
AAXX 04181 53083 32980 42201 11260 21286 40386 52003 80002 333 05705 11226
AAXX 04181 53764 32965 03402 11133 21190 40370 57008 333 11046
AAXX 04181 53787 32980 03601 11158 21207 40353 57007 333 11023
AAXX 04181 54096 32970 02907 11178 21218 40243 52010 333 11129
AAXX 04181 54226 32980 00000 11197 21243 40300 57005 333 11064
AAXX 04181 54259 32965 00000 11222 21253 40331 52004 333 11116
AAXX 04181 54527 32960 02202 11065 21170 40315 57004 333 10004
AAXX 04181 54534 32965 02702 11107 21178 40317 57004 333 11006
BBXX 46205 04181 99542 71343 46/// /1710 10073 49870 52027 22200 00069 11209 70044 333 91212
BBXX 46132 04181 99497 71279 46/// /1710 10098 40075 52019 22200 00084 11313 70063 333 91212
AAXX 04184 42559 32996 00000 10122 20096 40132 333 59002
AAXX 04184 42571 32996 00000 10146 20128 40151 333 58008
AAXX 04184 42667 31996 01802 10154 20137 39542 40143 70500 333 58001
AAXX 04184 42675 31996 00000 10150 20132 40146 70500 333 59009
AAXX 04184 42754 31995 02505 10164 20082 39494 40142 70500 333 58010
AAXX 04184 42779 32996 00000 10164 20147 39442 40153 333 58009
AAXX 04184 42867 31995 20000 10210 20194 40133 70500 80001 333 58001 82070
AAXX 04184 42874 32996 00000 10214 20198 40134 333 58006
AAXX 04184 42933 32996 00000 10200 20174 40135 333 58007
AAXX 04184 43041 32996 00000 10200 20184 39523 40147 333 58008
AAXX 04184 89020 46/// /2107 11036 21063 39801 49836 57011 91750
AAXX 04184 89314 46/// /0818 11130 38166 4//// 57005 91750
AAXX 04184 89329 46/// /0111 11096 38673 49735 5//// 91750
AAXX 04184 89744 46/// /0024 11251 36397 4//// 5//// 91800
AAXX 04184 89769 46/// /2008 11046 39788 49840 57003 91750
AAXX 04184 89799 46/// /2207 11250 36725 4//// 57001 91750
AAXX 04184 89865 46/// ///// 1//// 3//// 4//// 5//// 91750
AAXX 04184 89866 46/// /0000 11029 39715 49848 5//// 91750
AAXX 04184 89879 46/// /0000 10015 39733 49769 5//// 91750
AAXX 04184 41295 26/// /2606 10191 20123 39980 40163 333 0E020 10281 58006 70002
AAXX 04184 61902 32484 11516 10251 20196 40130 81100 333 10291 58007 81819
BBXX 41010 04181 99289 70785 46/// /3605 10141 40265 91820 22200 00232 10904 20401 300// 40903 70019 333 91208 555 11052 22053
BBXX 41009 04181 99285 70802 46/// /3105 10134 20059 40277 91820 22200 00219 10903 20401 300// 40903 70014 333 91207 555 11052 22053
AAXX 04184 68587 NIL
AAXX 04184 68591 NIL
AAXX 04184 68592 NIL
AAXX 04184 68155 36/// /3402 10297 20137 39183 48531 53006 333 10368 20297 91003 555 91015
AAXX 04184 68171 NIL
AAXX 04184 68176 16/// /0902 10235 20166 39143 48533 53007 69922 333 10322 20232 91004 555 20002 91017
AAXX 04184 68181 NIL
AAXX 04184 68182 36/// /3004 10238 20167 39341 48536 53005 333 10319 20238 91006 555 91016
AAXX 04184 68185 NIL
AAXX 04184 68253 36/// /0000 10283 20158 39045 48530 53013 333 10359 20282 91006 555 91016
AAXX 04184 68255 36/// /2502 10286 20086 38857 48515 52016 333 10344 20286 91004 555 91016
AAXX 04184 68271 36/// /0202 10273 20152 38915 48529 53011 333 10341 20273 91003 555 91018
AAXX 04184 68273 16/// /3104 10243 20130 38468 48522 52012 69922 333 10302 20239 91006 555 20002 91021
AAXX 04184 68287 36/// /0402 10182 20154 38599 48534 52007 333 10250 20182 91003 555 91022
AAXX 04184 68291 36/// /2002 10235 20180 39533 48536 53006 333 10329 20235 91003 555 91014
AAXX 04184 68297 NIL
AAXX 04184 68329 36/// /1602 10341 20032 39057 48514 53005 333 10416 20341 91004 555 91013
AAXX 04184 68331 36/// /0000 10272 20079 38826 48518 53003 333 10369 20272 91002 555 91017
AAXX 04184 68335 36/// /3103 10311 20065 38911 48534 53006 333 10390 20311 91004 555 91018
AAXX 04184 68341 36/// /0402 10256 20108 38542 48528 53006 333 10340 20256 91005 555 91021
AAXX 04184 68342 NIL
AAXX 04184 68343 36/// /2403 10286 20080 38777 48509 53010 333 10361 20286 91006 555 91016
AAXX 04184 68349 NIL
AAXX 04184 68353 16/// /3209 10219 20133 38533 48512 53012 69962 333 10311 20217 91015 555 20006 91019
AAXX 04184 68355 36/// /3106 10269 20086 38578 48514 52013 333 10347 20269 91008 555 91019
AAXX 04184 68370 32670 30000 10245 20194 38389 48535 52017 83200 333 10297 2//// 555 91023
AAXX 04184 68377 36/// /2804 10281 20106 38740 48487 53012 333 10354 20281 91007 555 91014
AAXX 04184 68380 36/// /2602 10202 20159 3//// 4//// 5//// 333 10294 20202 91004 555
AAXX 04184 68387 NIL
AAXX 04184 68411 36/// /1810 10301 20064 39923 40123 53012 333 10382 20301 91017 555 91013
AAXX 04184 68429 36/// ///// 10290 21018 38682 48509 52016 333 10369 20290 555 91017
AAXX 04184 68449 36/// /2704 10261 20023 38392 48502 53010 333 10324 20261 91005 555 91019
AAXX 04184 68471 36/// /0303 10231 20107 38332 48507 53010 333 10298 20229 91005 555 91020
AAXX 04184 68474 36/// /2703 10171 20093 38627 48518 52020 333 10324 20168 91006 555 91019
AAXX 04184 68479 16/// /1206 10282 20173 38932 48509 53013 69922 333 10366 20282 91009 555 20002 91015
AAXX 04184 68481 NIL
AAXX 04184 68487 16/// /3203 10199 20154 38980 48503 52027 60042 333 10316 20199 91004 555 20040 69925 91015
AAXX 04184 68491 36/// /0208 10263 20220 30105 40114 52012 333 10316 20263 91017 555 91011
AAXX 04184 68497 36/// /0510 10273 20205 30059 40102 53011 333 10371 20273 91017 555 91010
AAXX 04184 68183 31778 22705 10244 20177 39436 48537 53007 70500 82070 333 10311 20244 91007 555 91015
AAXX 04184 68188 36/// /0902 10213 20175 39209 48538 53006 333 10298 20213 91005 555 91018
AAXX 04184 68268 36/// /0104 10253 20163 38888 48535 52010 333 10359 20253 91005 555 91019
AAXX 04184 68272 36/// /1202 10246 20186 39074 48527 52013 333 10341 20235 91003 555 91017
AAXX 04184 68296 36/// /0000 1//// 2//// 38914 4//// 52001 333 1//// 2//// 91002 555
AAXX 04184 68322 32582 52009 10354 21003 39109 48513 52023 85100 333 10434 20354 91016 555 91012
AAXX 04184 68338 32878 43304 10264 20095 38759 48498 52011 84080 333 10354 20264 91005 555 91015
AAXX 04184 68345 NIL
AAXX 04184 68362 32680 43604 10235 20120 38515 48518 52017 81250 333 10337 20235 91006 555 91020
AAXX 04184 68400 NIL
AAXX 04184 68408 36/// /1405 10164 20142 30152 40160 52010 333 10212 20163 91009 555 91016
AAXX 04184 68416 36/// /1710 10285 21012 39034 48524 52013 333 10344 20285 91024 555 91016
AAXX 04184 68478 NIL
AAXX 04184 68488 16/// /3109 10234 20172 39252 48514 52010 60022 333 10316 20234 91021 555 20028 91014
AAXX 04184 68494 36/// /0405 10271 20198 39967 40094 53016 333 10356 20251 91011 555 91010
AAXX 04184 68524 32986 32510 10307 21087 39047 48521 52014 83080 333 10365 20307 91014 555 91015
AAXX 04184 68546 36/// /3103 10261 21005 38650 48500 53012 333 10339 20260 91008 555 91017
AAXX 04184 68558 36/// /1505 10191 20085 38203 48515 52015 333 10278 20191 91009 555 91021
AAXX 04184 68570 NIL
AAXX 04184 68580 31350 81407 10207 20197 38944 48511 52015 70522 886// 333 10318 20207 91010 555 91016
AAXX 04184 68614 32980 12309 10215 20122 30104 40145 52006 80008 333 10282 20215 91019 555 91014
AAXX 04184 68624 32982 12404 10251 21072 38743 48521 52010 80006 333 10313 20251 91010 555 91018
AAXX 04184 68674 36/// /2502 10245 20220 30110 48574 53021 333 10284 20245 91005 555 91014
AAXX 04184 68712 32470 21807 10183 20134 30101 40166 52007 81506 333 10229 20183 91009 555 91016
AAXX 04184 68718 36/// /1007 10222 20095 39917 40160 52027 333 10331 20222 91016 555 91016
AAXX 04184 68722 32980 02503 10208 21003 38563 48521 52007 333 10264 20208 91010 555 91020
AAXX 04184 68814 36/// /2102 1//// 2//// 30172 4//// 53004 333 1//// 2//// 91003 555 91018
AAXX 04184 68832 32970 01504 10192 20108 39198 48522 52022 333 10303 20190 91010 555 91017
AAXX 04184 68916 36/// /2007 10190 20147 39916 40183 52015 333 10225 20190 91013 555 91018
AAXX 04184 68920 32470 42208 10205 20151 30162 40175 52017 84800 333 10241 20204 91012 555 91017
AAXX 04184 68928 36/// /2204 10204 20143 30018 40177 53010 333 10239 20204 91008 555 91018
BBXX MLRM6 04183 99400 50041 41/94 93335 10158 20152 40031 57012 76365 89/// 22262 00138 20404 327// 41304 5////
BBXX E5U2123 04183 99263 70165 41998 00920 10200 20130 40290 57025 70100 80000 22244 00207 20604 336// 41004 5//// 80160
BBXX A8RW4 04183 99171 30618 41498 41318 10260 20218 40130 53020 70200 84164 22214 04280 20404 311// 40404 80230
BBXX PJKV 04183 99427 70434 41297 81831 10172 20148 40213 55008 75122 8/72/ 22214 20806 327// 41105 5//// 80158
BBXX PENR 04184 99159 70644 41597 40923 10275 20224 40145 58026 70211 83245 22274 20201 80240
AAXX 04181 31825 41684 73501 11142 21203 39900 40117 53016 70232 875//
AAXX 04181 31845 41996 80000 11220 21239 30034 40212 52021 77172 8807/
AAXX 04181 31878 42970 22501 11261 21288 30098 40236 52019 81032
AAXX 04181 31915 42998 02904 11149 21209 39955 40236 52013
AAXX 04181 31921 42998 00000 11159 21212 30129 40233 53017
AAXX 04181 31969 42998 52909 11124 21196 30190 40242 52017 82031 333 91016 91119
AAXX 04181 31981 42999 51901 11231 21257 39982 40241 53016 80001
AAXX 04181 31987 42999 03408 11140 21214 39927 40201 51013 333 91015 91119
AAXX 04181 32069 41598 83505 11019 21043 30036 40041 52014 73683 889// 333 91008 91114
AAXX 04181 30455 429// 00000 11301 21319 38982 48488 52012
AAXX 04181 30731 429// 81001 11168 21181 39717 40370 52014 8807/
AAXX 04181 30739 429// 00000 11310 21334 39504 40432 52017
AAXX 04181 30741 429// 00000 11207 21219 38748 48533 52014
AAXX 04181 30745 429// 01802 11328 21351 39145 40455 52017
AAXX 04181 30764 42998 00000 11375 21405 39512 40438 52025
AAXX 04181 30829 42984 03403 11280 21298 39650 40423 52014
AAXX 04181 30838 42998 00000 11310 21322 39337 40450 52014
AAXX 04181 30846 42999 00000 11235 21268 39388 40383 52016
AAXX 04181 30859 42999 00000 11267 21292 39448 40376 52021
AAXX 04181 30862 42982 00000 11300 21330 39540 40369 52010
AAXX 04181 30957 429// 00000 11273 21285 39392 40387 52019
AAXX 04181 30967 NIL
AAXX 04181 30975 42898 20000 11330 21354 39631 40367 53013 82030
BBXX VQNW6 04184 99205 31040 41598 41608 10243 20192 40143 51010 70022 8/1/5 22233 00266 2//// 316// 40604 5//// 80210
BBXX ZCAO7 04184 99185 31179 41/98 10509 10280 20246 40095 54000 70100 8//// 22264 2//// 80256
AAXX 04181 30499 42999 02603 11323 21339 39621 40365 52008
AAXX 04181 30683 429// 22702 11300 21317 39619 40346 52013 80001
AAXX 04181 30695 42999 02902 11322 21346 39950 40330 53012
AAXX 04181 31253 42999 00000 11351 21380 39794 40318 53007
AAXX 04181 31295 42999 00000 11263 21287 39794 40296 53004
AAXX 04181 31348 41997 80000 11170 21170 30035 40242 52003 77172 80007
AAXX 04181 31418 41962 83402 11138 21158 39961 40228 53008 77172 80007
AAXX 04181 31439 41595 80212 11134 21154 30109 40156 52014 78583 8492/ 333 91118
AAXX 04181 31442 42997 00000 11283 21306 39888 40281 52007
AAXX 04181 31445 42984 02903 11236 21262 39987 40264 52006
AAXX 04181 31474 41998 80000 11250 21289 39728 40254 53007 77172 80007
AAXX 04181 31521 32972 03101 11259 21278 39943 40264 52002
AAXX 04181 31527 42998 02501 11260 21271 39926 40259 53004
AAXX 04181 31534 NIL
AAXX 04181 31587 42998 03001 11260 21271 30110 40271 52005
AAXX 04181 31632 NIL
AAXX 04181 31702 42998 80202 11302 21339 39889 40266 53008 80001
AAXX 04181 31713 42999 70000 11241 21254 30099 40207 52015 82038
AAXX 04181 31725 42998 80000 11214 21226 30125 40196 52012 84052
AAXX 04181 31801 41997 80000 11210 21229 39951 40196 52015 77172 80007
BBXX A8JR5 04181 99093 11104 41497 30211 10250 20220 40130 57010 70222 82540 22254 04259 21203 302// 40803 80230
BBXX ZDLP 04183 99536 50379 41499 52325 10018 21023 49932 54000 70122 82142 22242 04032 20403 321// 40604 5//// 80004
BBXX VQKZ6 04183 99034 50815 41698 72107 10248 20215 40148 58012 70322 83578 22284 02203 20201 318// 40302 5//// 80226
BBXX A8LK5 31201 04183 99383 70001 41/98 /2808 10200 20140 40310 57020 70000 80000 22214 00210 2//// 3/ /// 4//// 5//// 80160
BBXX 46181 04181 99538 71288 46/// /3401 10062 49978 52020 22200 00033 10200 70001 333 91202
BBXX 46181 04181 99538 71288 46/// /3401 10062 49978 52020 22200 00033 10200 70001 333 91202
AAXX 04184 68171 NIL
AAXX 04184 68181 NIL
AAXX 04184 68185 NIL
AAXX 04184 68297 NIL
AAXX 04184 68342 NIL
AAXX 04184 68349 NIL
AAXX 04184 68387 NIL
AAXX 04184 68481 NIL
BBXX 46184 04181 99539 71389 46/// /1708 10062 49799 52014 22200 00057 11109 70043 333 91211
AAXX 04181 14234 11681 81801 10061 20057 39948 40196 52/// 69952 760// 8151/ 333 10105
BBXX 46184 04181 99539 71389 46/// /1708 10062 49799 52014 22200 00057 11109 70043 333 91211
AAXX 04184 82863 21596 80000 10250 20236 39900 40113 76152 885// 333 58012 60021
AAXX 04184 83228 21799 80905 10250 20211 39834 40110 70262 889// 333 58024 60021
AAXX 04184 83270 32798 60000 10298 20225 39642 40122 85260 333 58006
AAXX 04184 83309 31595 40000 10286 20237 39771 40091 70511 84200 333 58012
AAXX 04184 83319 32597 60000 10288 20232 39759 40129 82290 333 58019
AAXX 04184 83368 32698 50502 10310 20197 39730 40089 85200 333 58020
AAXX 04184 83526 32598 63205 10301 20184 39160 40086 86800 333 58005
AAXX 04184 83264 32797 23202 10316 20229 39664 40124 82200 333 58005
AAXX 04184 83358 32698 52306 10334 20205 39676 40071 82140 333 59015
AAXX 04184 83460 21556 60510 10267 20220 30059 40115 71582 83130 333 58015 60011
AAXX 04184 83780 32870 31810 10268 20170 39225 48520 56013 83070
AAXX 04184 82392 32499 40906 10362 20174 39966 40067 83230 333 58005
AAXX 04184 82583 32599 50909 10357 20175 39734 40064 84200 333 58002
AAXX 04184 82594 32697 40510 10310 20223 30085 40093 82110 333 58002
AAXX 04184 82780 32598 41403 10375 20190 39842 40088 84200 333 58004
AAXX 04184 82795 32597 51409 10291 20201 39503 40112 83200 333 58005
AAXX 04184 82879 32598 52707 10356 20199 39810 40070 85400 333 58001
AAXX 04184 82979 32698 8//// 10259 20186 39649 40097 88070 333 58008
AAXX 04184 82986 32598 51409 10357 20144 39794 40078 83204 333 58004
AAXX 04184 83179 32598 71807 10287 20203 39645 40090 87500 333 58016
AAXX 04184 83192 32597 21103 10352 20139 39932 40094 82200 333 58014
AAXX 04184 83339 31496 82706 10215 20186 39152 40117 71000 885// 333 58010
AAXX 04184 83498 21595 83605 10258 20248 30130 40135 76096 84620 333 58020 69921
AAXX 04184 42634 32996 00000 10192 20186 40134 333 58007
AAXX 04184 42647 31995 00000 10146 20100 40144 70500 333 58010
AAXX 04184 42737 32996 02503 10194 20092 40142 333 58009
AAXX 04184 42840 32996 00000 10172 20137 40146 333 58013
AAXX 04184 42909 32996 03605 10200 20141 40139 333 58011
AAXX 04184 42921 32996 00000 10174 20071 40180 333 58012
AAXX 04184 43003 31995 00000 10190 20156 40129 70500 333 58007
AAXX 04184 43014 32996 03402 10184 20126 39481 40137 333 58010
AAXX 04184 43063 32996 00000 10170 20125 39504 40142 333 58004
AAXX 04184 43110 31996 00000 10232 20198 40125 70544 333 58002
AAXX 04184 43117 32996 00000 10232 20155 40122 333 58009
AAXX 04184 43192 32996 03602 10248 20199 40117 333 59001
AAXX 04184 91723 NIL
AAXX 04184 91759 11598 70109 10256 20240 40124 53014 60021 71565 84870 333 82820 83638 87461
AAXX 04184 91762 11598 61803 10247 20232 40124 53016 60081 71565 8587/ 333 82820 83640 85462
AAXX 04184 68345 NIL
AAXX 04181 31913 NIL
AAXX 04181 32128 41597 73501 11023 21032 39930 49981 52017 78588 87300 333 91003 91106
BBXX BAREU06 04184 99435 10077 46/// ///// 40186 22254
AAXX 04181 24856 41998 80401 11309 21332 30062 40234 52006 77177 80007
AAXX 04181 30679 NIL
AAXX 04181 30686 42999 00000 11344 21368 39931 40357 52017
AAXX 04181 30961 41899 83002 11262 21274 39494 40364 52019 70272 8801/
AAXX 04181 30971 42999 02302 11340 21375 39270 40390 52017
AAXX 04181 30978 41999 00000 11321 21344 39592 40363 53013 70271
AAXX 04181 31513 42999 00000 11251 21257 30012 40259 51002
AAXX 04181 31624 NIL
AAXX 04181 31832 41950 80000 11230 21255 30121 40215 52013 77072 8801/
BBXX 46232 04181 99325 71174 46/// ///// 1//// 91808 22200 00146 11304 21001 328// 41303 70019
BBXX 46247 04181 99378 71228 46/// ///// 1//// 91821 22200 00115 11204 21003 327// 41203 70020
BBXX DDAC2 04180 99537 71788 41498 60706 11038 21047 40030 54000 7//22 84460 22263 04032 20402 331// 40703 5//// 81041
BBXX KEY796 04183 99571 71703 41/97 80120 11133 21150 49987 52/// 771// 8//// 222// 01017 2//// 3//// 4//// 5//// 6//// 8//// ICE /////
BBXX S6JU 04184 99524 71549 41998 12817 11005 21030 40030 52050 70100 81//5 22264 04000 20301 32018 40708 50706 6//// 81005 ICE /////
BBXX WECH 04183 99326 71613 43498 82122 10183 20170 40242 51010 7//// 88796 22215 00179 20201 33102 40405 50303 6//// 80179 ICE /////
AAXX 04181 01494 11883 22302 10016 21038 39749 49814 58002 60002 70200 82070 333 10044 91113
BBXX 46004 04181 99509 71361 46/// /2217 10070 49894 52040 22200 00071 11010 70052 333 91221
BBXX 46246 04181 99500 71451 46/// ///// 1//// 91759 22200 00067 11411 20907 324// 41409 70055
AAXX 04181 56671 32780 52001 10036 20023 38198 57006 85400 333 05155 10107
AAXX 04181 57378 32962 01101 10009 21083 40329 57012 333 10067
AAXX 04181 57426 31756 80000 10037 20034 40286 57012 71000 885// 333 05500 10056
AAXX 04181 57476 32962 70000 10019 21050 40324 57010 8703/ 333 10072
AAXX 04181 57584 32965 80202 10040 21074 40330 57012 8807/ 333 10072
AAXX 04181 57598 31958 80000 10023 21044 40324 57008 70500 8807/ 333 10075
AAXX 04181 57655 11450 80401 10010 21009 40326 57023 60021 77076 8272/ 333 10057
AAXX 04181 57713 NIL
AAXX 04181 57776 11/00 90403 11068 21077 40332 57010 60061 74974 333 11034
AAXX 04181 58321 31957 00901 11019 21112 40350 57013 70500 333 10055
AAXX 04181 58437 32970 82902 11076 21331 38184 57006 8807/ 333 11059
AAXX 04181 58445 NIL
AAXX 04181 58556 32962 73601 10002 21106 40339 57005 80002 333 10046
AAXX 04181 58569 32968 83405 10010 21108 40325 57013 8807/ 333 10045
AAXX 04181 58646 32660 80000 10030 21106 40331 52002 885// 333 10067
AAXX 04181 58653 NIL
AAXX 04181 58660 NIL
AAXX 04181 58715 11340 83202 10002 21015 40326 57001 60021 77070 8772/ 333 10054
AAXX 04181 58730 11762 80901 10017 21015 40329 52008 69901 77000 885// 333 10078
AAXX 04181 58731 32665 80901 10028 21053 40320 52003 885// 333 10066
AAXX 04181 58754 32764 81101 10050 21054 40320 57003 885// 333 10094
AAXX 04181 58911 11420 82501 10021 20011 40299 57010 60071 76066 885// 333 10066
AAXX 04181 58931 11/00 90904 11043 21046 38381 57003 69921 74964 333 10002 93445
AAXX 04181 59254 11456 80202 10055 20048 40281 57008 60091 76066 887// 333 10077
AAXX 04181 59632 11460 83603 10060 20056 40264 57005 60031 76066 887// 333 10085
AAXX 04181 59855 11465 83202 10150 20137 40216 57007 60041 76066 887// 333 10202
BBXX 46004 04181 99509 71361 46/// /2217 10070 49894 52040 22200 00071 11010 70052 333 91221
AAXX 04184 43086 32996 00000 10250 20223 39949 40127 333 58009
AAXX 04184 43128 31996 21403 10246 20198 39526 40130 70511 80001 333 58008 82070
AAXX 04184 43150 32596 20000 10254 20224 30062 40137 82800 333 58009 83620
AAXX 04184 43185 32596 11402 10244 20229 30126 40130 81500 333 58005 81620
AAXX 04184 43189 32596 40000 10260 20234 30133 40142 82530 333 58013
AAXX 04184 43198 32996 20000 10206 20184 39294 40123 80001 333 58006 82075
AAXX 04184 43201 32996 00902 10234 20172 39397 40114 333 58005
AAXX 04184 43213 32996 00000 10256 20166 39809 40126 333 58012
AAXX 04184 43226 32996 01402 10240 20225 30093 40123 333 58007
AAXX 04184 43233 32996 00503 10226 20148 39319 40128 333 58010
AAXX 04184 43237 32996 30904 10248 20195 39733 40126 80001 333 58012 83070
AAXX 04184 43245 32996 10000 10252 20240 30109 40136 80001 333 58012
AAXX 04184 43279 32496 20000 10250 20238 30122 40140 81501 333 58006 81618
AAXX 04184 43284 32596 20000 10256 20236 39998 40114 81530 333 58007 81620
AAXX 04184 43295 32996 20904 10212 20181 39115 48522 80001 333 58008 82075
AAXX 04184 43311 32996 13602 10278 20243 40117 80001 333 58002 81075
AAXX 04184 43314 32996 00000 10272 20231 40122 333 58010
AAXX 04184 43321 31495 40906 10244 20214 39689 40137 70521 81530 333 58011
AAXX 04184 43344 31495 50505 10250 20235 30036 40136 70511 84601 333 56109 58011 83710 83615
AAXX 04184 43346 32596 80508 10264 20250 30122 40129 82502 333 58013 82620 87075
AAXX 04184 43353 31996 40000 10270 20244 40122 70500 82531 333 56699 58010 82614 84359
AAXX 04184 43369 32596 10000 10256 20229 40124 81500 333 58012 81620
AAXX 04184 43371 32596 30000 10248 20221 30048 40121 83400 333 58007 83620
AAXX 04184 43329 NIL
AAXX 04183 43329 32596 60502 10264 20247 30118 40132 85501 333 58010
AAXX 04184 68400 32570 20307 10270 20184 30044 40116 52020 82100 333 10381 20270 91012 555 91011
AAXX 04184 68570 32960 01003 10240 20145 38516 48509 52023 333 10319 20234 91007 555 91019
AAXX 04184 68481 36/// /0703 10277 20174 39754 40112 52015 333 10344 20276 91006 555 91013
AAXX 04184 67665 42980 31401 10238 20201 48516 83031 333 10300 58013 83360 81080 91018
AAXX 04184 68587 36/// /2306 10239 20212 30112 40124 52022 333 10263 20238 91011 555 91012
AAXX 04184 68572 32580 42302 10205 20184 38410 48517 52017 84500 333 10322 20205 91005 555 91021
AAXX 04184 71761 16/// ///// 11026 21041 60001 333 11002 21056 70000
AAXX 04184 71788 16/// /2117 10116 21012 60001 333 10117 20066 7////
AAXX 04184 71792 16/// ///// 10067 21001 60001 333 10068 21054 70004
AAXX 04184 71971 16/// /0601 11334 21364 39950 49998 53011 60001 333 11309 21356 70000
AAXX 04184 71800 17/// /1625 10076 20076 39807 49839 56093 60041 7//4/ 333 10081 20003 70108
AAXX 04184 71888 16/// ///// 10012 21019 60001 333 10012 21047 70000
AAXX 04184 71895 16/// ///// 10052 21005 60001 333 10053 21043 70000
AAXX 04184 71010 16/// /1913 10032 21012 60001 333 10043 21022 70000
AAXX 04184 71011 16/// ///// 10056 21005 60001 333 10056 21003 70000
AAXX 04184 71049 16/// /3113 11313 30079 40104 51012 60001 333 11303 21346 70000
AAXX 04184 71283 17/// /1506 10024 20020 60041 7//4/ 333 10031 21033 70070
AAXX 04184 71405 16/// ///// 10001 21025 60001 333 10001 21033 70000
AAXX 04184 71417 17/// /3106 11046 21055 39939 49973 56051 60011 7//4/ 333 11026 21046 70010
AAXX 04184 71426 46/// /3007 11130 6///1 333 11127 21169 7////
AAXX 04184 71454 16/// /1705 11036 21075 39430 40127 55003 60001 333 11033 21081 70000
AAXX 04184 71461 17/// /0501 10022 20019 60031 7//4/ 333 10034 20012 70068
AAXX 04184 71468 16/// /2918 11041 21057 39766 40092 58008 60001 333 7////
AAXX 04184 71483 16/// ///// 11018 21026 60001 333 10007 21032 70005
AAXX 04184 71221 17/// /3202 10005 20005 60061 7//4/ 333 10009 21051 70095
AAXX 04184 71226 17/// /0704 10007 20002 60011 7//4/ 333 10065 21001 70037
AAXX 04184 71229 46/// /3303 11018 21021 6///1 333 11018 21091 7//// 555 10020
AAXX 04184 71148 16/// /3108 10001 21034 39561 40146 58006 60001 333 10001 21074 70000
AAXX 04184 71359 16/// /1003 11040 21054 60001 333 11005 21069 70000
AAXX 04184 71500 16/// /1805 10048 21023 60001 333 10050 20017 70010
AAXX 04184 71504 16/// ///// 10073 21014 60001 333 21025 7////
AAXX 04184 71511 16/// /2404 10010 21031 39491 40134 58007 60001 333 10011 21093 70000
AAXX 04184 71526 16/// /2008 10075 21001 60001 333 10075 7////
AAXX 04184 71541 17/// /1811 10044 20012 60031 7//4/ 333 10044 21013 70062
AAXX 04184 71546 17/// /1604 10026 20016 60031 7//4/ 333 10034 21002 70052
AAXX 04184 71547 17/// /1506 10028 20013 60051 7//4/ 333 10042 21033 70084
AAXX 04184 71549 16/// ///// 10023 21016 60001 333 10025 21009 70016
AAXX 04184 71673 16/// ///// 10052 21004 60001 333 10052 21034 70000
AAXX 04184 71690 17/// ///// 10012 20008 69951 7//4/ 333 10030 21013 70031
AAXX 04184 71153 16/// /3110 10124 21026 60001 333 10124 20030 70000
AAXX 04184 71199 46/// /0000 11116 21129 39083 49919 56019 6///1 333 11116 21186 7//// 555 10070
AAXX 04184 71067 16/// ///// 10029 21025 60001 333 10033 21038 70000
AAXX 04184 71800 17/// /1625 10076 20076 39807 49839 56093 60041 7//4/ 333 10081 20003 70108
AAXX 04184 71148 16/// /3108 10001 21034 39561 40146 58006 60001 333 10001 21074 70000
BBXX 46246 04181 99500 71451 46/// ///// 1//// 91829 22200 00067 11511 21007 323// 41508 70053
BBXX 46240 04181 99366 71219 46/// ///// 1//// 91812 22200 00117 11302 20901 335// 41302 70012
BBXX 46236 04181 99368 71219 46/// ///// 1//// 91820 22200 00117 11304 21003 329// 41303 70021
BBXX 46237 04181 99378 71226 46/// ///// 1//// 91810 22200 00110 11104 21003 325// 41103 70022
BBXX 46212 04181 99408 71243 46/// ///// 1//// 91812 22200 00107 11306 21003 328// 41305 70029
BBXX 46225 04181 99329 71174 46/// ///// 1//// 91814 22200 00149 11403 21001 327// 41403 70015
BBXX 46213 04181 99403 71247 46/// ///// 1//// 91824 22200 00106 11306 21004 328// 41304 70030
BBXX 46215 04181 99352 71209 46/// ///// 1//// 91808 22200 00151 11304 21003 326// 41303 70018
BBXX 46224 04181 99332 71175 46/// ///// 1//// 91806 22200 00150 11402 21001 326// 41402 70012
BBXX 46214 04181 99379 71235 46/// ///// 1//// 91820 22200 00117 11305 20903 329// 41304 70024
BBXX 46146 04181 99493 71237 46/// /0910 10082 40147 52012 22200 00071 10402 70009 333 91211
BBXX 3EIZ7 04184 99444 70437 41496 81730 10170 2014/ 40150 52020 70252 8//// 22224 0//// 2//// 3//// 4//// 5//// 6//// 80150 ICE /////
AAXX 04181 63333 42980 00000 10162 20070 38183 40209 333 10258 59002
AAXX 04181 63340 42980 03201 10172 20065 37950 40173 333 10270 58000
AAXX 04181 63450 NIL
AAXX 04181 63451 42980 0//// 1//// 2//// 38149 4//// 333 10273 59003
AAXX 04181 63471 42880 23601 1//// 2//// 38879 4//// 82030 333 10300 58000
BBXX 46146 04181 99493 71237 46/// /0910 10082 40147 52012 22200 00071 10402 70009 333 91211
BBXX 44039 04181 99411 70727 46/// /2605 11049 21112 40200 91753 22200 00075 10401 70006 333 91208
BBXX 44059 04181 99368 70763 46/// /2504 1//// 91820 333 91206
BBXX 44059 04181 99368 70763 46/// /2803 1//// 40232 91810 333 91206
BBXX 44059 04181 99368 70763 46/// /2703 10004 40235 58044 91800 22200 00070 333 91206
BBXX 44057 04181 99395 70761 46/// /2304 1//// 91820 333 91206
BBXX 44057 04181 99395 70761 46/// /2203 1//// 40215 91810 333 91205
BBXX 44057 04181 99395 70761 46/// /2303 11049 40217 56046 91800 22200 00032 333 91205
BBXX 44058 04181 99376 70763 46/// /2404 1//// 91820 333 91206
BBXX 44058 04181 99376 70763 46/// /2504 1//// 40231 91810 333 91206
BBXX 44058 04181 99376 70763 46/// /2404 11007 40233 56042 91800 22200 00068 1//00 70002 333 91207
BBXX 44099 04181 99369 70757 46/// ///// 1//// 91822 22200 00108 10602 20602 70008
AAXX 04184 65001 31925 72703 10285 20156 3//// 4//// 70522 80008 333 10341 5//// 87280
AAXX 04184 65124 32970 70902 10292 20064 3//// 4//// 80008 333 10345 5//// 87280
AAXX 04184 65201 31935 61904 10275 20214 30059 40112 70522 80008 333 10341 56000 59009 86280 91108
AAXX 04184 65210 31948 70608 10276 20201 3//// 4//// 70522 80008 333 10341 5//// 87280
AAXX 04184 45011 47956 /0115 10087 20038 40254 57001 72388 333 58017
AAXX 04184 65125 31930 62204 10295 20067 30722 40125 70522 80008 333 10353 58001 86280
AAXX 04184 65252 31925 70000 10282 20192 39954 40087 70522 80008 333 10322 59014 87280
AAXX 04184 45011 47956 /0115 10087 20038 40254 57001 72388 333 58017
AAXX 04181 56144 11780 60000 11051 21087 36841 52002 69931 70080 86400 333 00053 10025
AAXX 04181 56152 11580 70401 11115 21123 36271 54000 69931 78580 86902 333 05152 11021
AAXX 04181 56167 32780 70000 11042 21073 37060 54000 874// 333 05152 10047
AAXX 04181 56182 32780 52001 11077 21101 37167 57005 85500 333 05400 10044
AAXX 04181 56357 32980 22001 11112 21170 36422 57003 80002 333 05154 10015
AAXX 04181 56586 11460 80000 11022 21030 38055 57012 69901 77070 885// 333 05501 10000
AAXX 04181 56748 11578 82706 10092 20061 38355 52001 60021 78080 889// 333 00051 10158
AAXX 04181 56763 32680 10901 10084 20064 40134 57002 81400 333 00056 10243
AAXX 04181 56768 11680 71401 10077 20065 38179 57005 69921 70080 874// 333 00051 10168
AAXX 04181 56838 32668 20000 10127 20109 40155 52002 82430 333 00152 10238
AAXX 04181 56886 11740 82003 10007 20006 38314 57012 69931 76060 885// 333 05253 10035
AAXX 04181 56946 11570 72701 10122 20111 40143 57004 69901 78000 879// 333 00000 10226
AAXX 04181 56959 11762 70000 10177 20177 40132 57002 69961 70080 874// 333 00000 10279
AAXX 04181 56969 11660 82903 10170 20160 40148 57004 69901 78000 884// 333 00100 10265
AAXX 04181 57731 11460 81401 10011 21005 40312 57019 69941 77070 885// 333 05452 10048
AAXX 04181 57766 11760 81801 10001 21012 40333 57014 60021 70070 885// 333 10058
AAXX 04181 57845 11760 83601 10001 21016 40313 57023 69911 70070 885// 333 10038
AAXX 04181 57853 11430 80701 11002 21023 40330 57018 60011 77077 8772/ 333 10039
AAXX 04181 57916 32662 81401 10034 20019 40296 57014 885// 333 05252 10064
AAXX 04181 57922 31658 82201 11018 21021 40315 57010 71000 885// 333 05251 11001
AAXX 04181 57932 11462 80000 10017 20007 40318 57013 69901 76060 885// 333 05252 10048
AAXX 04181 58338 32961 70901 11006 21083 40339 57014 80002 333 10050
AAXX 04181 59007 11463 81101 10015 21003 40267 57014 69911 75050 886// 333 10034
AAXX 04181 59046 11762 83202 10040 20019 40297 57008 60021 70060 885// 333 10058
AAXX 04181 59058 11458 83203 10038 20018 40294 57007 60031 71060 885// 333 10050
AAXX 04181 59072 11761 80401 10024 20024 40301 57016 60081 76066 885// 333 10050
AAXX 04181 59087 11660 80906 10031 21002 40295 57003 69951 76000 885// 333 10082
AAXX 04181 59209 11460 82901 10043 20017 40273 57009 69901 76066 887// 333 10066
AAXX 04181 45032 36/// /0004 10080 20016 30241 40258 57002
AAXX 04181 45035 36/// /0304 10091 20033 30214 40257 57003
AAXX 04181 45039 36/// /3403 10085 20038 30237 40252 54000
AAXX 04181 45044 36/// /0007 10091 20052 30149 40247 54000
AAXX 04184 65001 31925 72703 10285 20150
AAXX 04181 45032 36/// /0004 10080 20016 30241 40258 57002
AAXX 04181 45035 36/// /0304 10091 20033 30214 40257 57003
AAXX 04181 45039 36/// /3403 10085 20038 30237 40252 54000
AAXX 04181 45044 36/// /0007 10091 20052 30149 40247 54000
BBXX 44062 04181 99386 70764 46/// /2304 1//// 91810 22200 00062 333 91206
BBXX 44062 04181 99386 70764 46/// /2404 11022 40213 56044 91800 22200 00062 1//00 70001 333 91207
BBXX 44063 04181 99390 70764 46/// /2204 1//// 91820 333 91206
BBXX 44063 04181 99390 70764 46/// /2304 1//// 40231 91810 333 91206
BBXX 44063 04181 99390 70764 46/// /2303 11027 40233 58043 91800 22200 00051 1//00 70000 333 91206
BBXX 44041 04181 99372 70768 46/// /2703 1//// 91820 333 91205
BBXX 44041 04181 99372 70768 46/// /2402 1//// 40254 91810 333 91204
BBXX 44041 04181 99372 70768 46/// /2503 10004 40257 58046 91800 22200 00065 1//00 70001 333 91205
BBXX 44042 04181 99380 70763 46/// /2404 1//// 91820 333 91206
BBXX 44042 04181 99380 70763 46/// /2404 1//// 40231 91810 333 91207
BBXX 44042 04181 99380 70763 46/// /2504 11008 40233 56043 91800 22200 00060 1//00 70002 333 91206
BBXX 44043 04181 99392 70764 46/// /2004 1//// 91820 333 91206
BBXX 44043 04181 99392 70764 46/// /2004 1//// 40211 91810 333 91206
BBXX 44043 04181 99392 70764 46/// /2004 11033 40213 58047 91800 22200 00035 1//00 70002 333 91205
BBXX 44100 04181 99363 70756 46/// ///// 1//// 91822 22200 00112 10702 20702 70012
BBXX 41115 04181 99184 70673 46/// ///// 1//// 91805 22200 11101 21001 303// 41101 70006
BBXX 41110 04181 99341 70777 46/// ///// 1//// 91821 22200 00128 11001 21001 310// 41101 70006
BBXX 42099 04181 99273 70842 46/// ///// 1//// 91827 22200 00215 10502 20502 70008
BBXX 42361 04181 99276 70925 46/// ///07 10200 20089 40261 58030 91830 555 11058 22061
BBXX 42013 04181 99272 70829 46/// ///// 1//// 40298 91740 22200 00190
AAXX 04184 61017 32960 40404 10190 20001 39765 40182 80002 333 10233 59009 84080
AAXX 04184 61024 32960 51212 10213 21028 39591 40167 80001 333 10262 59009 85080
AAXX 04184 61036 32960 70404 10266 20054 39893 40133 80008 333 10301 59002 87280
AAXX 04184 61043 32960 50610 10248 21043 39696 40142 80002 333 10290 59004 85080
AAXX 04184 61045 32965 50000 10215 20015 39648 40154 80002 333 10260 59007 85080
AAXX 04184 61049 32960 70000 10228 20006 39822 40147 80008 333 10273 59002 87280
AAXX 04184 61052 32960 20606 10273 21003 39878 40136 80002 333 10305 58008 82080
AAXX 04184 61075 32960 51002 10267 20023 39824 40135 80002 333 10315 59005 85080
AAXX 04184 61080 32960 70604 10240 20042 39724 40151 80008 333 10283 59005 87280
AAXX 04184 61090 32962 63608 10232 21013 39635 40195 80008 333 10272 59002 86280
AAXX 04184 61091 32960 50000 10230 20096 39697 40163 80002 333 10278 59012 85080
AAXX 04184 61096 32960 73604 10235 21006 39765 40152 80002 333 10287 59003 87280
AAXX 04184 61099 32965 30206 10286 20044 39882 40111 80001 333 10320 59008 83080
AAXX 04184 67002 32580 73604 10280 20244 30079 40112 84802 333 20230 82820 84630 92417
AAXX 04184 67009 NIL
AAXX 04184 67025 NIL
AAXX 04184 67027 31465 70804 10267 20254 30081 40102 52026 76066 8387/ 333 10286 82817 83640 85460
AAXX 04184 67045 NIL
AAXX 04184 67083 11460 81204 10185 20171 38744 48517 60012 76066 878// 333 10230 81817 87620
AAXX 04184 67095 11465 70000 10255 20240 30123 40130 50015 60032 71562 878// 333 10290 83817 86633
AAXX 04184 67113 NIL
AAXX 04184 67117 NIL
AAXX 04184 67137 NIL
AAXX 04184 67143 NIL
AAXX 04184 67161 NIL
AAXX 04184 67197 32480 20808 10254 20231 30119 40129 52013 82800 333 10286 82817 555 81633
AAXX 04184 63729 32980 10000 10230 20202 38860 48/// 80002 333 10310 55300 59001 81073
AAXX 04184 63756 32980 10000 10224 20184 38860 48496 80001 333 10285 58012 81075
AAXX 04184 63791 32580 32106 10298 20082 39093 48491 83500 333 10360 55300 59003 83628 91011
AAXX 04184 63801 31580 60000 10248 20215 39195 48520 70392 81901 333 10303 58013 81821 81922 86077
AAXX 04184 63832 32980 10000 10232 20163 38810 48489 80001 333 10311 55300 58006 81074
AAXX 04184 63862 32580 70000 10254 20184 38874 48489 81903 333 10318 59005 81823 81924 86078
AAXX 04184 63870 32480 10505 10269 20243 30073 40091 81200 333 10333 55300 59001 81818
AAXX 04184 63881 01480 80000 10170 20151 38203 48/// 60132 70366 8597/ 333 0//92 10247 58005 69927 85617 81919 88356
AAXX 04184 63887 32580 60000 10234 20170 38570 48496 81942 333 55300 59006 81821 81924 85074
AAXX 04184 63894 32580 50413 10270 20248 30037 40097 85900 333 10312 55300 58003 85822 81923
AAXX 04184 63932 12580 70000 10186 20165 38308 48505 69902 8193/ 333 10250 55300 58004 81822 81924 86359
AAXX 04184 63971 32580 40310 10270 20248 39961 40090 81901 333 10314 55300 58004 81822 81923 84076
AAXX 04184 63733 NIL
AAXX 04184 63866 NIL
AAXX 04184 63962 NIL
AAXX 04184 67765 41784 21601 10231 20162 38666 48510 71300 81963 333 10303 58018 81950
AAXX 04184 67775 NIL
AAXX 04184 67779 NIL
AAXX 04184 67853 NIL
AAXX 04184 67861 NIL
AAXX 04184 67867 NIL
AAXX 04184 67775 41980 71007 10208 20180 38515 48519 70296 8707/ 333 10275 58019 87460
AAXX 04184 67881 41980 60901 10196 20178 38588 48516 70298 86070 333 10260 58018 86460
AAXX 04184 67965 42880 11809 10235 20135 38696 48523 81400 333 10313 58017 81657
AAXX 04184 67975 42980 01504 10227 20173 38928 48520 333 10295 58018
AAXX 04184 67977 NIL
AAXX 04184 67983 41780 40000 10225 20188 38894 48523 70281 84400 333 10281 58013 84656
AAXX 04184 67991 42980 01504 10310 20161 39571 48503 333 10368 58023
BBXX 44258 04181 99445 70634 46/// /3209 11055 40045 57007 22200 00049 11202 70012 333 91213
AAXX 04184 67765 41784 21601 10231 20162 38666 48510 71300 81963 333 10303 58018 81950
AAXX 04184 67775 NIL
AAXX 04184 67779 NIL
AAXX 04184 67853 NIL
AAXX 04184 67861 NIL
AAXX 04184 67867 NIL
AAXX 04184 67775 41980 71007 10208 20180 38515 48519 70296 8707/ 333 10275 58019 87460
AAXX 04184 67881 41980 60901 10196 20178 38588 48516 70298 86070 333 10260 58018 86460
AAXX 04184 67965 42880 11809 10235 20135 38696 48523 81400 333 10313 58017 81657
AAXX 04184 67975 42980 01504 10227 20173 38928 48520 333 10295 58018
AAXX 04184 67977 NIL
AAXX 04184 67983 41780 40000 10225 20188 38894 48523 70281 84400 333 10281 58013 84656
AAXX 04184 67991 42980 01504 10310 20161 39571 48503 333 10368 58023
BBXX 44258 04181 99445 70634 46/// /3209 11055 40045 57007 22200 00049 11202 70012 333 91213
AAXX 04184 97014 01560 60000 10247 20237 30007 40100 57018 69901 70252 83871 333 56600 57860 69907 82822 808//
AAXX 04184 97028 NIL
AAXX 04184 97048 32456 40000 10243 20236 30054 40078 57016 82231 333 56000 57802 81817 80857
AAXX 04184 97072 32558 60000 10252 20237 30007 40107 57012 82521 333 56000 82620 84460
AAXX 04184 97086 NIL
AAXX 04184 97096 NIL
AAXX 04184 97120 32459 60000 10248 20231 30059 40092 56010 82231 333 56000 57803 82818 84360 80860
AAXX 04184 97146 NIL
AAXX 04184 97180 32457 70603 10241 20241 30078 40096 56011 82272 333 56000 82819 85359
AAXX 04184 97192 11430 80904 10238 20235 30049 40106 57012 60181 70262 8352/ 333 56009 83615 88460
AAXX 04184 97230 11460 70702 10260 20243 30082 40089 57009 69901 70262 84232 333 56000 57801 84816 80859
AAXX 04184 97260 NIL
AAXX 04184 97270 31450 60000 10256 20247 30078 40083 57015 70522 84871 333 56000 83815
AAXX 04184 97300 31560 82103 10266 20233 30045 40085 57018 71522 83271 333 56000 57802 83820 80857
AAXX 04184 97340 NIL
AAXX 04184 97372 32458 60000 10250 20238 39963 40083 57012 84271 333 56000 84816 83459
AAXX 04184 97430 NIL
AAXX 04184 97460 32460 60000 10244 20227 30061 40075 57014 83876 333 56000 57802 82817 80857
AAXX 04184 97502 31450 50000 10238 20232 30081 40085 56016 70544 82531 333 56000 82620
AAXX 04184 97530 NIL
AAXX 04184 97560 NIL
AAXX 04184 97686 NIL
AAXX 04184 97690 01450 62605 10244 20235 39989 40091 57016 69911 70162 83838 333 56000 57801 69917 83815 86279 80856
AAXX 04184 97724 11560 83503 10246 20233 30059 40076 57016 69921 70262 8387/ 333 56709 57872 82820 86459 80856
AAXX 04184 97748 NIL
AAXX 04184 97760 31450 72907 10252 20246 30072 40081 57012 71522 83932 333 56000 57901 81915 82816 80960
AAXX 04184 97796 11450 80000 10246 20237 30050 40100 56004 69907 70522 87532 333 56009 87612
AAXX 04184 97810 NIL
AAXX 04184 97900 01460 80406 10258 20247 30044 40073 57016 60041 72162 8482/ 333 56109 57811 60047 83615 88460 80858
AAXX 04184 97980 NIL
AAXX 04184 96009 31456 80000 10252 20240 30079 40114 57004 70292 8492/ 333 56009 57903 81917 83618 86460 80965
AAXX 04184 96011 01457 80602 10254 20242 30091 40117 58000 60011 76092 84932 333 56000 57903 60017 81919 83620 80960
AAXX 04184 96035 31450 80000 10258 20237 30077 40115 52002 71792 8597/ 333 56009 57902 81917 84618 80956
AAXX 04184 96073 11440 70000 10260 20245 30094 40106 56002 69981 70562 83972 333 56000 57901 83913 80959
AAXX 04184 96091 41458 40000 10248 20233 30102 40125 57011 70500 81131 333 56000 81817 84080
AAXX 04184 96109 NIL
AAXX 04184 96145 11440 70205 10260 20236 30120 40122 50000 69901 70562 84520 333 56800 84616 86460
AAXX 04184 96147 NIL
AAXX 04184 96163 32558 40000 10258 20228 30105 40108 57004 81521 333 56000 81620
AAXX 04184 96179 32460 73610 10255 20233 30075 40111 57007 83238 333 56800 57882 83817 80850
AAXX 04184 96195 31456 40303 10256 20235 30081 40118 57005 70522 81531 333 56000 81615
AAXX 04184 96221 11460 70000 10256 20242 30095 40110 57005 69931 71362 84936 333 56999 57994 81920 83615 80980
AAXX 04184 96237 32457 70000 10246 20239 30068 40110 58009 83238 333 56000 57802 83816 83360 80858
AAXX 04184 96249 32560 50000 10250 20244 30049 40110 57010 81132 333 56000 57802 81820 80863
AAXX 04184 96253 01458 71908 10255 20243 30080 40100 57001 69901 71796 85972 333 56000 57900 57800 69907 82915 82820 85460
AAXX 04184 96295 11460 62702 10250 20236 30004 40106 56007 69901 70262 84521 333 56000 84615
AAXX 04184 96509 32457 80000 10254 20244 30088 40099 57015 83271 333 56000 57802 83815 80858
AAXX 04184 96581 NIL
AAXX 04184 96633 NIL
AAXX 04184 96645 31440 72803 10256 20249 30066 40099 57012 71022 85532 333 56000 85612
AAXX 04184 96655 32457 40000 10262 20253 30082 40117 57006 83523 333 56000 83613
AAXX 04184 96685 32459 50000 10262 20246 30071 40097 57013 83511 333 56000 83615
AAXX 04184 96749 31556 70000 10254 20240 30094 40108 58008 70522 82571 333 56000 82623 86462
AAXX 04184 96781 NIL
AAXX 04184 96805 11558 40000 10256 20244 30104 40114 56008 69971 70162 82211 333 56000 57801 82820 83460 80860
AAXX 04184 96839 11550 50000 10248 20233 30089 40096 58011 69901 70196 83531 333 56000 83620
AAXX 04184 96935 11960 60000 10250 20237 30087 40093 56013 69991 70162 84031 333 56000 84360
AAXX 04184 97008 01457 80000 10254 20248 30080 40090 57009 60041 72162 8527/ 333 56009 57801 60047 85817 80860
AAXX 04184 97016 NIL
AAXX 04184 97126 32458 70102 10240 20232 30037 40097 56012 83920 333 56000 57902 81917 82617 87460 80980
AAXX 04184 97182 32468 50000 10245 20236 30085 40089 57010 82431 333 56000 82619
AAXX 04184 97240 NIL
AAXX 04184 97310 NIL
AAXX 04184 97320 01458 80000 10258 20252 30068 40081 57013 60011 79596 8592/ 333 56000 57901 57801 60117 82917 83819 88459 80960 80850
AAXX 04184 97378 11560 50000 10260 20245 39925 40088 56017 69901 70262 83271 333 56000 83820
AAXX 04184 97406 01459 60000 10242 20239 30061 40086 57009 69961 71796 84931 333 56000 57901 57801 69967 81917 83818 80980 80860
AAXX 04184 97570 11457 83505 10244 20235 30081 40088 56012 60047 76164 887// 333 56000 88712
AAXX 04184 97630 11456 70206 10240 20234 39926 40087 57013 69951 71522 87923 333 56000 57901 82912 85813 87459 80976
AAXX 04184 97700 31458 72204 10234 20227 30057 40072 57013 70522 84872 333 56000 57803 81817 83620 80850
AAXX 04184 97722 NIL
AAXX 04184 96001 NIL
AAXX 04184 96015 01430 70000 10254 20249 30107 40114 52003 60021 72196 86972 333 56000 57901 60027 82913 84614 80977
AAXX 04184 96033 01420 82112 10262 20247 30129 40135 52017 60071 79596 8592/ 333 56909 57901 60077 82920 84615 88457 80980
AAXX 04184 96075 32450 72503 10267 20237 30109 40114 52001 85921 333 56000 57901 81915 84618 80365
AAXX 04184 96087 32459 60204 10258 20234 30086 40119 56008 81531 333 56000 81614 83360 85080
AAXX 04184 96171 31540 50000 10250 20230 30085 40109 57003 70521 82521 333 56000 82620
AAXX 04184 96207 31456 60000 10218 20209 39244 40165 57004 71322 82932 333 56000 57900 81915 83080
AAXX 04184 96525 32458 72404 10251 20241 30091 40099 57016 83275 333 56000 83615
AAXX 04184 96529 32450 30000 10240 20237 30093 40117 58016 82101 333 56000 82818
AAXX 04184 96559 31440 70000 10248 20239 30074 40112 57004 71322 85920 333 56600 57964 57862 81915 84810 86462 80975 80850
AAXX 04184 96607 32458 70000 10268 20250 30090 40105 57008 85521 333 56000 85815
AAXX 04184 96615 32456 50000 10256 20244 30094 40110 57015 82131 333 56000 57803 82812 80856
AAXX 04184 96737 31450 60000 10252 20240 30063 40094 57006 70522 83511 333 56000 83617
AAXX 04184 96739 31450 70000 10246 20234 30061 40110 57012 71392 84922 333 56000 57901 81918 83618 80980
AAXX 04184 96741 11556 71203 10264 20241 30093 40097 57011 69901 70296 82571 333 56000 82623 84461
AAXX 04184 96745 11456 70000 10262 20244 30100 40105 57013 69981 70296 84571 333 56000 84619 87460
AAXX 04184 96751 NIL
AAXX 04184 96791 11550 70000 10248 20236 30054 40128 56003 69941 70562 83671 333 56000 69947 83620 84460
AAXX 04184 96797 12457 61803 10254 20234 30096 40102 56012 69901 83971 333 56000 57902 81918 82620 85460 80980
AAXX 04184 96837 NIL
AAXX 04184 96925 01463 70000 10266 20248 30089 40094 56012 60041 71796 84972 333 56600 57980 57860 60047 82917 83817 80980 80860
AAXX 04184 96933 32960 10000 10260 20239 30091 40095 57016 81011 333 56000 81460
AAXX 04184 96937 32558 50000 10264 20240 30086 40091 57015 81522 333 56000 81620 84460
AAXX 04184 96973 12558 40000 10244 20238 30083 40088 57013 60041 82231 333 56000 57804 82820 80850
AAXX 04184 96987 NIL
AAXX 04184 71120 12969 71502 11031 21057 39425 40085 58018 60001 80006 333 11018 21068 70000
AAXX 04181 98134 NIL
AAXX 04181 98223 NIL
AAXX 04181 98232 NIL
AAXX 04181 98325 32458 31802 10240 20212 40130 58005 81201 333 56999 81817
AAXX 04181 98328 NIL
AAXX 04181 98330 NIL
AAXX 04181 98336 NIL
AAXX 04181 98429 31560 80000 10252 20227 40133 57013 70544 8383/ 333 56999 83823 88360
AAXX 04181 98430 31558 50000 10234 20232 40132 57007 70544 82270 333 56999 82820 83358
AAXX 04181 98431 NIL
AAXX 04181 98440 11420 80705 10258 20231 30130 40135 58011 60061 72186 8527/ 333 56199 85815 88357
AAXX 04181 98444 NIL
AAXX 04181 98526 NIL
AAXX 04181 98531 NIL
AAXX 04181 98536 NIL
AAXX 04181 98543 NIL
AAXX 04181 98550 NIL
AAXX 04181 98618 32570 52702 10260 20240 40110 58008 82260 333 56999 82820 84358
AAXX 04181 98630 NIL
AAXX 04181 98637 NIL
AAXX 04181 98646 NIL
AAXX 04181 98653 NIL
AAXX 04181 98741 32470 70402 10257 20245 40095 57013 82208 333 56199 82817 87275
AAXX 04181 98747 NIL
AAXX 04181 98753 NIL
AAXX 04181 98755 NIL
AAXX 04181 98836 NIL
AAXX 04184 71120 12969 71502 11031 21057 39425 40085 58018 60001 80006 333 11018 21068 70000
BBXX 46036 04181 99484 71339 46/// /2212 10084 40007 52050 22200 00079 11211 70053 333 91215
BBXX 46036 04181 99484 71339 46/// /2212 10084 40007 52050 22200 00079 11211 70053 333 91215
AAXX 04184 60738 12556 6//// 10057 20054 39008 48563 58003 60002 86200 333 10079 86823
BBXX 63106 04184 99610 10017 46/// /2809 10046 49776 57041 22200
BBXX 63105 04184 99610 10017 47998 ///// 10052 21001 49776 57042 700// 22200
BBXX 62169 04183 99614 10014 41/97 63015 10040 20028 49771 57040 72787 8//// 22200 02080 20302 327// 41007 5//// 80035
BBXX 42362 04181 99278 70907 46/// /0000 10172 20072 40295 91830
BBXX 42363 04181 99282 70892 46/// /3202 10194 20056 40308 91830 333 91202
BBXX 42364 04181 99291 70881 46/// /3413 10100 21006 40319 91830
BBXX 44039 04181 99411 70727 46/// /2606 11050 21113 40203 91800 22200 00075 10401 70006 333 91209
BBXX 44060 04181 99413 70721 46/// ///05 11045 40188 91830 22200 00085 333 91207 555 11057 22057
BBXX 44022 04181 99409 70737 46/// ///04 11051 21159 40195 91830 22200 00058 333 91206 555 11041 22041
BBXX 44040 04181 99410 70736 46/// /2705 11048 21140 40201 91819 22200 1//00 70001 333 91207 555 11046 22051
BBXX 44040 04181 99410 70736 46/// /2705 11048 21140 40201 91815 22200 1//00 70001 333 91207 555 11046 22051
AAXX 04183 63723 32980 00000 10300 20166 40069 333 10372 59008
AAXX 04183 63793 32980 00000 10285 20183 40054 333 10359 59005
AAXX 04181 20046 NIL
AAXX 04181 20069 NIL
AAXX 04181 20087 42998 00604 11270 21301 30240 40251 52017
AAXX 04181 20292 NIL
AAXX 04181 20353 46/// /2403 11061 21095 30194 40198 57007
AAXX 04181 20667 32998 21303 11193 21212 30222 40230 57014 80001 333 11150
AAXX 04181 20674 41996 72106 11194 21213 30187 40251 57006 73631 86031 333 91108 96110 96510
AAXX 04181 20744 NIL
AAXX 04181 20891 41597 89902 11298 21321 30167 40214 52016 77172 8352/ 333 83623 91103
AAXX 04181 23022 11997 71802 11140 21160 30099 40163 57005 69900 70331 82031 333 11095
AAXX 04181 23032 31597 31106 11170 21189 30153 40185 57009 73633 82501 333 11124
AAXX 04181 23058 32398 81303 11240 21265 30275 40280 57015 886// 333 11249 88707
AAXX 04181 23242 12997 51603 11194 21220 30223 40240 57019 69900 85030 333 11177
AAXX 04181 23256 12298 71405 11252 21277 30254 40293 57011 69900 84601 333 11250 84706
AAXX 04181 23330 12497 60702 11159 21172 30188 40210 57010 69920 8453/ 333 11092 84611
AAXX 04181 23445 12998 71002 11165 21125 30205 40235 57004 69940 87030 333 11138
AAXX 04181 23552 12497 61003 11226 21244 30234 40272 57018 69900 86500 333 11194 86615
AAXX 04181 23631 32998 50601 11233 21251 30145 40190 57011 80001 333 11135
AAXX 04181 23662 32998 31002 11227 21252 30262 40311 57010 80001 333 11215
AAXX 04181 23724 32998 63301 11220 21238 30112 40182 57010 69930 86030 333 11168
AAXX 04181 23734 11996 80000 11165 21178 30082 40179 57004 69900 77172 8802/ 333 11122
AAXX 04181 23849 41456 81204 11183 21206 40196 57010 71022 8802/ 333 88510
AAXX 04181 23867 32999 30902 11171 21190 30180 40257 57003 80001 333 11183
AAXX 04181 23933 11496 80802 11210 21228 30108 40169 57012 69900 77172 8452/ 333 11143 84510
AAXX 04181 28064 32998 80000 11214 21233 30075 40175 57003 80001 333 11175
AAXX 04181 28275 11997 80000 11194 21220 30103 40167 53001 69900 77172 8802/ 333 11174
AAXX 04181 28493 12997 61702 11184 21203 30105 40205 52005 69900 86030 333 11156
AAXX 04181 28698 12997 81401 11136 21156 30030 40193 57003 69900 8805/ 333 11152
AAXX 04181 23426 12984 80102 11181 21200 30170 40196 57011 69930 80001 333 11149
AAXX 04181 23625 11996 80000 11211 21229 30146 40182 57008 69900 77171 80007 333 11158
AAXX 04181 28076 31996 80000 11204 21223 30090 40168 57003 77111 8801/ 333 11180
AAXX 04181 28367 11984 82401 11198 21217 30039 40178 52005 69900 77171 80005 333 11175
AAXX 04181 28382 11998 80000 11226 21244 30099 40177 52003 69900 70372 8807/ 333 11180
AAXX 04181 28481 12997 01901 11218 21230 30072 40179 52004 69900 333 11155
AAXX 04181 28491 32997 21701 11211 21236 30067 40186 52004 80009 333 11168
AAXX 04181 28573 32997 01801 11249 21267 30065 40180 52005 333 11174
AAXX 04181 28593 12997 81801 11154 21181 30102 40207 52001 69900 8807/ 333 11160
AAXX 04181 28786 32997 02702 11180 21192 30033 40202 52008 333 11149
AAXX 04181 28797 32997 30000 11139 21159 30027 40194 56001 80001 333 11125
AAXX 04181 28799 11996 71401 11116 21136 30048 40200 54000 69900 77172 87070 333 11137
BBXX WC5932 04184 99438 70875 43/// /3218 00/// 11015 21067 40131 55017 7//// 8//// 22284 0//// 2//// 3//// 4//// 5//// 6//// 81033 ICE /////
BBXX WXY6216 04184 99458 70871 43/// /3106 00/// 11009 21050 40114 57002 7//// 8//// 22200 0//// 2//// 3//// 4//// 5//// 6//// 81024 ICE /////
BBXX WKAU 04184 99334 70768 41498 50118 10050 2000/ 40250 54000 70311 851// 22214 00230 20404 301// 40404 5//// 6//// 80030 ICE /////
BBXX 46092 04181 99368 71220 46/// /1404 10116 40275 91757 22200 00121 555 11046 22046
BBXX 51204 04181 99213 71581 46/// ///// 1//// 91822 22200 00245 11505 20901 331// 41505 70024
BBXX 51203 04181 99208 71570 46/// ///// 1//// 91813 22200 00245 11302 20901 330// 41302 70012
BBXX 52200 04181 99134 11448 46/// ///// 1//// 91815 22200 00286 11103 21002 308// 41101 70013
BBXX 51201 04181 99217 71581 46/// ///// 1//// 91812 22200 00241 11409 21003 333// 41409 70047
BBXX 51202 04181 99214 71577 46/// ///// 1//// 91810 22200 00239 11304 20803 336// 41304 70022
AAXX 04184 78318 11562 20406 10184 20097 30252 40256 57023 60001 70500 82800 333 10209 20153 30/// 56900 58005 81820
AAXX 04184 78325 11/64 10207 10184 20034 30198 40258 56025 60001 70500 81200 333 10184 20138 30/// 56900 58009 818//
AAXX 04184 78333 11510 20406 10210 20060 30231 40238 58026 60001 70500 82200 333 10214 20079 30/// 56800 58006 82820 555 13602
AAXX 04184 78348 11557 70402 10238 20109 30187 40240 58019 60001 70522 8/800 333 10239 20150 30/// 56100 58010 82823 87632 555 10502
AAXX 04184 78349 11563 70304 10192 20095 30131 40245 58023 60001 70522 875// 333 10195 20105 30/// 56099 58016 81822 87626
AAXX 04184 78353 12570 40702 10218 20070 30213 40236 58017 60001 84801 333 10218 20172 30/// 56209 58016 83820 555 10803
AAXX 04184 78360 12/70 53511 10259 20102 30186 40198 58024 60001 81202 333 10259 20173 30/// 56909 58009 818// 850// 92045
AAXX 04181 38847 3//// /2601 10048 20024 39410 40180 333 10089 777 92084
AAXX 04184 91376 32474 80610 10274 20240 30095 40098 53005 83871 333 56119 70066 555 90418
AAXX 04184 91408 32974 51006 10267 20248 30059 40097 57019 80001 333 56//9 70013 555 90418
BBXX A8JR5 04181 99093 11104 41497 30211 10250 20220 40130 57010 70222 82540 22254 04259 21203 302// 40803 80230
BBXX A8HD5 04181 99297 11224 41297 43209 10045 21044 40330 56010 70211 82645 22200 04050 20301 30000 40000 5//// 80015
BBXX 46036 04181 99484 71339 46/// /2212 10084 40007 52050 22200 00079 11211 70053 333 91215
BBXX 44258 04181 99445 70634 46/// /3209 11055 40045 57007 22200 00049 11202 70012 333 91213
BBXX 44041 04181 99372 70768 46/// /2703 1//// 91820 333 91205
BBXX 44063 04181 99390 70764 46/// /2303 11027 40233 58043 91800 22200 00051 1//00 70000 333 91206
BBXX 44042 04181 99380 70763 46/// /2404 1//// 91820 333 91206
BBXX 44062 04181 99386 70764 46/// /2404 11022 40213 56044 91800 22200 00062 1//00 70001 333 91207
BBXX 44041 04181 99372 70768 46/// /2402 1//// 40254 91810 333 91204
BBXX 44042 04181 99380 70763 46/// /2404 1//// 40231 91810 333 91207
BBXX 44041 04181 99372 70768 46/// /2503 10004 40257 58046 91800 22200 00065 1//00 70001 333 91205
BBXX 44063 04181 99390 70764 46/// /2204 1//// 91820 333 91206
BBXX 44063 04181 99390 70764 46/// /2304 1//// 40231 91810 333 91206
BBXX 42361 04181 99276 70925 46/// ///07 10200 20089 40261 58030 91830 555 11058 22061
BBXX 42099 04181 99273 70842 46/// ///// 1//// 91827 22200 00215 10502 20502 70008
BBXX 41110 04181 99341 70777 46/// ///// 1//// 91821 22200 00128 11001 21001 310// 41101 70006
BBXX 41115 04181 99184 70673 46/// ///// 1//// 91805 22200 11101 21001 303// 41101 70006
BBXX 44100 04181 99363 70756 46/// ///// 1//// 91822 22200 00112 10702 20702 70012
BBXX 44043 04181 99392 70764 46/// /2004 11033 40213 58047 91800 22200 00035 1//00 70002 333 91205
BBXX 44043 04181 99392 70764 46/// /2004 1//// 40211 91810 333 91206
BBXX 44043 04181 99392 70764 46/// /2004 1//// 91820 333 91206
BBXX 44042 04181 99380 70763 46/// /2504 11008 40233 56043 91800 22200 00060 1//00 70002 333 91206
BBXX 44062 04181 99386 70764 46/// /2304 1//// 91810 22200 00062 333 91206
BBXX 42013 04181 99272 70829 46/// ///// 1//// 40298 91740 22200 00190
BBXX 44057 04181 99395 70761 46/// /2203 1//// 40215 91810 333 91205
BBXX 44058 04181 99376 70763 46/// /2404 1//// 91820 333 91206
BBXX 44058 04181 99376 70763 46/// /2404 11007 40233 56042 91800 22200 00068 1//00 70002 333 91207
BBXX 44058 04181 99376 70763 46/// /2504 1//// 40231 91810 333 91206
BBXX 44099 04181 99369 70757 46/// ///// 1//// 91822 22200 00108 10602 20602 70008
BBXX 44059 04181 99368 70763 46/// /2504 1//// 91820 333 91206
BBXX 44039 04181 99411 70727 46/// /2605 11049 21112 40200 91753 22200 00075 10401 70006 333 91208
BBXX 44057 04181 99395 70761 46/// /2304 1//// 91820 333 91206
BBXX 44057 04181 99395 70761 46/// /2303 11049 40217 56046 91800 22200 00032 333 91205
BBXX 44059 04181 99368 70763 46/// /2803 1//// 40232 91810 333 91206
BBXX 44059 04181 99368 70763 46/// /2703 10004 40235 58044 91800 22200 00070 333 91206
BBXX 3EIZ7 04184 99444 70437 41496 81730 10170 2014/ 40150 52020 70252 8//// 22224 0//// 2//// 3//// 4//// 5//// 6//// 80150 ICE /////
BBXX 46146 04181 99493 71237 46/// /0910 10082 40147 52012 22200 00071 10402 70009 333 91211
BBXX 46214 04181 99379 71235 46/// ///// 1//// 91820 22200 00117 11305 20903 329// 41304 70024
BBXX 46224 04181 99332 71175 46/// ///// 1//// 91806 22200 00150 11402 21001 326// 41402 70012
BBXX 46225 04181 99329 71174 46/// ///// 1//// 91814 22200 00149 11403 21001 327// 41403 70015
BBXX 46213 04181 99403 71247 46/// ///// 1//// 91824 22200 00106 11306 21004 328// 41304 70030
BBXX 46215 04181 99352 71209 46/// ///// 1//// 91808 22200 00151 11304 21003 326// 41303 70018
BBXX 46236 04181 99368 71219 46/// ///// 1//// 91820 22200 00117 11304 21003 329// 41303 70021
BBXX 46212 04181 99408 71243 46/// ///// 1//// 91812 22200 00107 11306 21003 328// 41305 70029
BBXX 46237 04181 99378 71226 46/// ///// 1//// 91810 22200 00110 11104 21003 325// 41103 70022
BBXX VQKZ6 04183 99034 50815 41698 72107 10248 20215 40148 58012 70322 83578 22284 02203 20201 318// 40302 5//// 80226
BBXX ZDLP 04183 99536 50379 41499 52325 10018 21023 49932 54000 70122 82142 22242 04032 20403 321// 40604 5//// 80004
BBXX LAIP5 04183 99260 30083 41297 71615 10200 20192 40190 53003 70222 8/76/ 22233 04190 20603 317// 40804 5//// 80195
BBXX TBWUK40 04183 99252 10565 41998 02712 10212 20109 40153 51015 70200 80000 22200 20403 330// 40503 5//// 80155
BBXX MLRM6 04183 99400 50041 41/94 93335 10158 20152 40031 57012 76365 89/// 22262 00138 20404 327// 41304 5////
BBXX A8RW4 04183 99171 30618 41498 41318 10260 20218 40130 53020 70200 84164 22214 04280 20404 311// 40404 80230
BBXX E5U2123 04183 99263 70165 41998 00920 10200 20130 40290 57025 70100 80000 22244 00207 20604 336// 41004 5//// 80160
BBXX TBWUK18 04183 99291 30624 41398 41023 10230 20183 40203 52014 70111 8416/ 22222 00240 20602 328// 41204 5//// 80200
BBXX 46240 04181 99366 71219 46/// ///// 1//// 91812 22200 00117 11302 20901 335// 41302 70012
BBXX 46246 04181 99500 71451 46/// ///// 1//// 91829 22200 00067 11511 21007 323// 41508 70053
BBXX 46246 04181 99500 71451 46/// ///// 1//// 91759 22200 00067 11411 20907 324// 41409 70055
BBXX 46004 04181 99509 71361 46/// /2217 10070 49894 52040 22200 00071 11010 70052 333 91221
BBXX 46232 04181 99325 71174 46/// ///// 1//// 91808 22200 00146 11304 21001 328// 41303 70019
BBXX 46247 04181 99378 71228 46/// ///// 1//// 91821 22200 00115 11204 21003 327// 41203 70020
BBXX WKAU 04184 99334 70768 41498 50118 10050 2000/ 40250 54000 70311 851// 22214 00230 20404 301// 40404 5//// 6//// 80030 ICE /////
BBXX 46184 04181 99539 71389 46/// /1708 10062 49799 52014 22200 00057 11109 70043 333 91211
BBXX 46181 04181 99538 71288 46/// /3401 10062 49978 52020 22200 00033 10200 70001 333 91202
BBXX PENR 04184 99159 70644 41597 40923 10275 20224 40145 58026 70211 83245 22274 20201 80240
BBXX PJKV 04183 99427 70434 41297 81831 10172 20148 40213 55008 75122 8/72/ 22214 20806 327// 41105 5//// 80158
BBXX 41009 04181 99285 70802 46/// /3105 10134 20059 40277 91820 22200 00219 10903 20401 300// 40903 70014 333 91207 555 11052 22053
BBXX 41010 04181 99289 70785 46/// /3605 10141 40265 91820 22200 00232 10904 20401 300// 40903 70019 333 91208 555 11052 22053
BBXX 46132 04181 99497 71279 46/// /1710 10098 40075 52019 22200 00084 11313 70063 333 91212
BBXX 46205 04181 99542 71343 46/// /1710 10073 49870 52027 22200 00069 11209 70044 333 91212
BBXX 46206 04181 99488 71260 46/// /1811 10101 40123 52016 22200 00081 11210 70049 333 91213
BBXX A8QM9 04184 99261 70782 41898 70114 10160 20127 40260 52/// 70322 87492 22200 2//// 30000 80140
BBXX 46185 04181 99524 71298 46/// /1812 10088 49987 52020 22200 00069 11412 70058 333 91215
BBXX A8OF7 04184 99300 70458 41497 41217 10220 20189 40245 50020 70222 83166 22214 00220 20205 31299 40304 5//// 80200
BBXX DDSC2 04183 99098 70795 41298 70520 10270 20236 40150 5/010 70322 87868 22264 00270 20804 80245
BBXX 44033 04181 99441 70690 46/30 /3007 11069 40137 56023 91804 22200 00054 10301 70004 333 91209 555 11077 22080
BBXX 44034 04181 99441 70681 46/30 /3007 11083 40123 56021 91804 22200 00071 10301 70007 333 91210 555 11078 22081
BBXX 44039 04181 99411 70727 46/// /2606 11050 21113 40203 56030 91800 22200 00075 10401 70006 333 91209
BBXX 41029 04181 99328 70796 46/// /1902 1//// 91800 555 11025 22025
BBXX 44029 04181 99425 70706 46/30 /2805 11051 40156 58023 91804 22200 00076 10502 70008 333 91207 555 11058 22060
BBXX 44022 04181 99409 70737 46/// ///05 11047 21151 40198 91815 22200 00057 333 91208 555 11051 22051
BBXX 44030 04181 99432 70704 46/// /2804 1//// 40146 58023 91804 22200 00078 10501 70004 333 91206 555 11050 22053
BBXX 44060 04181 99413 70721 46/// ///06 11048 40190 91815 22200 00084 333 91208 555 11062 22062
BBXX 46087 04181 99485 71247 46/// /1913 10105 20104 40149 91820 22200 00085 333 91216 555 11142 22154 31732 41917 61819 192128 189128 189132 189128 191132 190133
BBXX 46088 04181 99483 71232 46/// /1203 10092 40152 91820 22200 00077 10401 20401 70003 333 91204 555 11039 22046 31738 41305 61819 128033 142024 162025 165026 106035 138032
BBXX 41036 04181 99342 70770 46/// ///// 10025 21074 40265 91820 22200 00193
BBXX 42364 04181 99291 70881 46/// /3413 10100 21006 40319 91815
BBXX 42363 04181 99282 70892 46/// /2902 10194 20061 40308 91815 333 91202
BBXX 42362 04181 99278 70907 46/// /0000 10178 20067 40298 91815
BBXX WXY6216 04184 99458 70871 43/// /3106 00/// 11009 21050 40114 57002 7//// 8//// 22200 0//// 2//// 3//// 4//// 5//// 6//// 81024 ICE /////
BBXX WC5932 04184 99438 70875 43/// /3218 00/// 11015 21067 40131 55017 7//// 8//// 22284 0//// 2//// 3//// 4//// 5//// 6//// 81033 ICE /////
BBXX WL3108 04184 99440 70826 41/98 82415 11027 2//// 40095 57/// 70222 8//// 22233 00044 20602 3//// 4//// 5//// 6//// 8//// ICE /////
BBXX BAREU06 04184 99435 10077 46/// ///// 40186 22254
BBXX DDVK2 04183 99334 10260 41/98 82510 10155 20060 40212 54000 72582 88/// 22224 00193 2//// 30000 80105
BBXX VRCZ7 04183 99359 10155 41/98 43110 10150 20113 40209 56/// 70211 84/// 22224 2//// 3//// 4//// 5//// 80130
BBXX ZNQO3 04180 99374 10093 41598 52710 10160 20103 40243 58015 70322 842// 22224 04166 2//// 3//// 4//// 5//// 80130
BBXX ZCAO7 04184 99185 31179 41/98 10509 10280 20246 40095 54000 70100 8//// 22264 2//// 80256
BBXX VQNW6 04184 99205 31040 41598 41608 10243 20192 40143 51010 70022 8/1/5 22233 00266 2//// 316// 40604 5//// 80210
BBXX FHZI 04184 99429 31473 46/// /3408 10119 20036 30147 40158 57006 22200 04183 85079
BBXX VROB 04184 99068 31470 46/// /3204 10252 20229 30045 40070 57023 22200 04306 85235
BBXX VREN5 04183 99369 31773 41298 63020 10190 20128 40177 51/// 70311 8/740 22233 20303 80155
BBXX A8TX8 04183 99188 31529 41698 21615 10270 20166 40100 54000 701// 8114/ 22244 04280 20703 80205
BBXX 9HA2479 04184 99153 31674 46/// /3007 10269 20239 30032 40061 52005 22273 04289 85247
BBXX VNAH 04184 99383 31416 46/// /2005 10159 20044 30173 40197 57017 22200 85100
BBXX C6FS9 04184 99274 31531 46/// /3002 10220 20179 30098 40134 57007 22200 04253 85192
BBXX ZSAF 04184 99692 50001 41599 62415 11017 21065 49831 57004 70222 86500 22271 05004 20000 30000 4//// 50000 ICE 18649
BBXX ZDLS1 04184 99711 50168 41297 42016 10005 21001 49863 57007 70211 82278 22213 05014 20000 30000 80003
AAXX 04184 78988 01470 60108 10242 20231 30132 40143 57021 60011 72522 86400 333 58009 60017 83815 86650
AAXX 04184 78990 01470 61006 10270 20251 30137 40144 57029 60071 72582 84230 333 58005 60067 84815 84358
AAXX 04184 78873 02575 10811 10276 20209 30108 40153 57029 60001 81200 333 59003 60007 81822
AAXX 04184 78988 01470 60108 10242 20231 30132 40143 57021 60011 72522 86400 333 58009 60017 83815 86650
AAXX 04184 78990 01470 61006 10270 20251 30137 40144 57029 60071 72582 84230 333 58005 60067 84815 84358
AAXX 04184 78873 02575 10811 10276 20209 30108 40153 57029 60001 81200 333 59003 60007 81822
AAXX 04184 78988 01470 60108 10242 20231 30132 40143 57021 60011 72522 86400 333 58009 60017 83815 86650
AAXX 04184 78990 01470 61006 10270 20251 30137 40144 57029 60071 72582 84230 333 58005 60067 84815 84358
AAXX 04184 78873 02575 10811 10276 20209 30108 40153 57029 60001 81200 333 59003 60007 81822
AAXX 04184 63733 32980 10000 10217 20175 38853 48493 80001 333 10275 58002
AAXX 04184 63866 32580 20000 10262 20227 39497 48/// 82900 333 10334 58006 82627 81929
AAXX 04184 63962 11570 81905 10215 20199 38942 48501 60352 79596 8592/ 333 10300 58004 85620 81921 88458
BBXX KS007 04184 99267 70801 43/// ///// 10158 40224 22200
BBXX KS088 04184 99267 70801 43/// /0707 10160 40263 22200 06191
BBXX KS098 04184 99446 71240 43/// /1310 10116 40228 22200 06000
BBXX KS094 04184 99184 70644 43/// /1008 10264 40164 22200 06259
AAXX 04184 83117 31697 31601 10280 20267 40131 56008 7011/ 884// 222// 02220 20101 80270
AAXX 04184 83437 32598 63607 10262 20196 39396 40107 84560 333 58003
AAXX 04184 83579 32599 61406 10292 20183 38999 49096 86200 333 58019
AAXX 04184 83592 21596 83601 10216 20211 39444 40126 75096 8472/ 333 58032 60041
AAXX 04184 91723 NIL
AAXX 04184 91964 36/// /0204 10254 20233 40175 52001
OOXX AABRI 04184 99839 51342 60134 05251 46/// /0915 11082 21176 39209 49832 5//// 91750
OOXX AAEMI 04184 99785 31731 57083 00521 46/// /2011 11049 21077 39806 49871 5//// 91800
AAXX 04184 89667 46/// /1308 11042 39843 4//// 5//// 91820
AAXX 0418/ 89327 46/// ///// 11011 39404 4//// 5//// 91820
AAXX 0418/ 89828 46/// ///// 11334 36474 4//// 5//// 91820
AAXX 0418/ 89879 46/// ///// 10015 39748 4//// 5//// 91820
AAXX 0418/ 89667 46/// ///// 4//// 5//// 91810
AAXX 0418/ 89667 46/// ///// 4//// 5////
AAXX 0418/ 89872 46/// ///// 11035 39782 4//// 5//// 91820
AAXX 0418/ 89869 46/// ///// 11049 39778 4//// 5//// 91820
AAXX 0418/ 89866 46/// ///// 11035 39734 4//// 5//// 91820
AAXX 0418/ 89769 46/// ///// 11048 39807 4//// 5//// 91820
BBXX SHIP 04184 99327 11292 41697 73318 10090 20049 40255 51009 70222 87453 22250 00168 20202 333 // 40202 80070
AAXX 04181 01317 11581 61704 10025 21010 39795 49810 58029 60022 70298 85863
BBXX 44137 04181 99423 70620 46/// /2912 10011 40056 52031 22200 00097 10908 70042 333 91216
BBXX 44137 04181 99423 70620 46/// /2912 10011 40056 52031 22200 00097 10908 70042 333 91216
AAXX 04184 71490 16/// /2907 11329 21359 39872 40216 50006 60001 333 11266 21333 7////
AAXX 04184 71923 16/// ///04 11284 21309 39710 40177 53012 60001 333 11194 21290 70000
AAXX 04184 71592 16/// /0202 11304 21345 39982 49996 53005 60001 333 11300 21353 70000
AAXX 04184 71963 16/// /0405 11340 21373 39756 40186 50000 60001 333 11265 21342 70000
OOXX AAMIZ 04184 99707 30443 58304 22602 46/// /1019 11081 2//// 37349 49490 5//// 91750
OOXX AAPEG 04184 99779 31666 57186 00051 46/// /1410 11044 21067 39844 49850 57003 91750
OOXX AAERI 04184 99849 51288 60048 09901 46/// /0927 11114 21138 38723 49850 5//// 91750
OOXX AALAU 04184 99775 31708 57070 00371 46/// /2214 11054 21072 39788 49834 5//// 91750
AAXX 04184 71592 16/// /0202 11304 21345 39982 49996 53005 60001 333 11300 21353 70000
AAXX 04184 71963 16/// /0405 11340 21373 39756 40186 50000 60001 333 11265 21342 70000
AAXX 04181 98223 32562 80202 10230 20199 40126 58015 8123/ 333 56999 81820 88360
AAXX 04181 98232 31565 80000 10233 20210 40181 54000 71542 8457/ 333 56999 84620 88358
AAXX 04181 98328 31461 21601 10150 20137 38531 40110 58011 70544 81101 333 56999 81815
AAXX 04181 98330 32470 70401 10255 20228 30109 40141 58004 83270 333 56999 83818 87358
AAXX 04181 98336 11466 80404 10212 20210 30164 40169 58012 60041 71562 8352/ 333 56199 83615 88456
AAXX 04181 98431 31458 80901 10244 20225 30085 40132 58008 70222 8327/ 333 56999 83818 88460
AAXX 04181 98444 11456 80404 10245 20236 30106 40125 58011 60111 72582 83270 333 56999 83818 84459
AAXX 04181 98531 31568 40801 10258 20228 30109 40113 54006 70544 82250 333 56299 82820 84358
AAXX 04181 98536 32465 70404 10245 20223 39920 40126 58010 84260 333 56199 84818 84357
AAXX 04181 98543 11465 80402 10251 20244 30093 40104 58015 60121 76086 8452/ 333 56999 84518 88459
AAXX 04181 98550 21460 80401 10250 20239 40123 54000 72582 8327/ 333 56999 60057 83818 88357
AAXX 04181 98646 11560 73602 10262 20249 30094 40122 57015 60021 70182 82870 333 56999 82820 86459
AAXX 04181 98747 31460 51601 10237 20225 39887 40091 58015 70544 82430 333 56999 82618 83358
AAXX 04181 98753 31465 53603 10249 20234 40101 58015 70544 82231 333 56999 82816 84079
AAXX 04181 98836 11460 80000 10263 20246 40102 58016 69901 78082 8321/ 333 56999 83818 88362
BBXX 44138 04181 99443 70536 46/// /2023 10098 49886 57037 22200 00084 11214 70068 333 91228
BBXX 44138 04181 99443 70536 46/// /2023 10098 49886 57037 22200 00084 11214 70068 333 91228
AAXX 04181 31152 42997 00000 11398 21434 39861 40330 53001
AAXX 04181 31163 NIL
AAXX 04181 31285 42999 60000 11284 21315 30198 40287 53011 82015
AAXX 04181 31561 41596 83606 11127 21147 30153 40182 53007 77173 8802/ 333 91012
AAXX 04181 31683 41494 80000 11104 21110 30024 40100 53014 77371 888//
AAXX 04181 32010 41496 80108 11038 21046 30084 40133 53007 78582 889// 333 86910 91012 91114
AAXX 04184 63661 32980 01205 10189 20068 48523 333 10288 59004
AAXX 04184 63688 32980 41004 10126 20095 48/// 80001 333 10262 58000 84076
AAXX 04184 63695 32980 00000 10155 20126 333 10269
AAXX 04184 63740 32980 1040610198 20120 48500 80001 333 10299 59005 81074
AAXX 04184 63820 32580 30609 10262 20239 40090 83100 333 10350 59002 83822
AAXX 04184 63612 NIL
AAXX 04184 63671 NIL
AAXX 04184 63708 NIL
AAXX 04184 63714 NIL
AAXX 04184 63723 NIL
AAXX 04184 63772 NIL
AAXX 04184 63793 NIL
AAXX 04184 89528 46/// /3629 4//// 5////
AAXX 04184 89628 46/// /3121 11222 36812 4//// 5////
BBXX 46004 04181 99509 71361 46/// /2217 10070 49894 52040 22200 00071 11010 70052 333 91221
BBXX 46036 04181 99484 71339 46/// /2212 10084 40007 52050 22200 00079 11211 70053 333 91215
BBXX 46181 04181 99538 71288 46/// /3401 10062 49978 52020 22200 00033 10200 70001 333 91202
BBXX 46183 04181 99536 71311 46/// ///// 1//// 4//// 5//// 22200 0//// 1//// 70/// 333 912//
BBXX 46185 04181 99524 71298 46/// /1812 10088 49987 52020 22200 00069 11412 70058 333 91215
BBXX 46204 04181 99514 71288 46/// /1714 10098 40020 52018 22200 00082 11210 70050 333 91217
BBXX 46205 04181 99542 71343 46/// /1710 10073 49870 52027 22200 00069 11209 70044 333 91212
BBXX 46206 04181 99488 71260 46/// /1811 10101 40123 52016 22200 00081 11210 70049 333 91213
BBXX KS098 04184 99446 71240 43/// /1310 10116 40228 22200 06000
BBXX WABS 04184 99409 71256 41598 8//25 10117 20097 40275 52025 70222 886// 22243 0//// 20402 3//// 40805 5//// 6///0 80106 ICE 0/0//
BBXX WDJK 04184 99489 71271 41597 61921 10101 20099 40105 56005 70110 8614/ 22273 00080 20603 321// 41010 5//// 6//// 80100 ICE /////
BBXX WFLH 04183 99324 71237 43598 23618 10156 20117 40273 52004 7//// 821// 22223 00144 20601 328// 41203 5//// 6//// 80133 ICE /////
AAXX 04184 94206 46/// /2705 10237 2//// 39955 40083
AAXX 04184 94290 46/// /1013 10263 30097 40106 55001 91824
AAXX 04184 94210 35/// /1505 10258 30073 40078 57016
AAXX 04184 94289 46/// /1115 10269 30091 40098 55003 91815
AAXX 04184 94379 46/// /1211 10247 30095 40104 56010 91826
AAXX 04184 94206 46/// /2705 10237 2//// 39955 40083
AAXX 04184 94290 46/// /1013 10263 30097 40106 55001 91824
AAXX 04181 55228 32780 72702 11099 21210 35971 57006 87900 333 00051 11049
AAXX 04181 55578 32980 02504 11039 21311 36347 52009 333 00251 10022
AAXX 04181 55664 32980 00000 11135 21278 35983 52002 333 00251 11017
AAXX 04181 55773 32970 00201 11185 21205 35986 57001 333 00151 11048
AAXX 04181 56116 32680 72903 11119 21170 36318 52001 82402 333 00156 11030
AAXX 04181 56137 32780 72902 11039 21089 36776 54000 875// 333 00000 10040
AAXX 04181 56172 32780 70000 11048 21056 37321 57001 875// 333 05253 10060
AAXX 04181 56247 32880 11402 10022 21185 37412 52010 81400 333 00151 10116
AAXX 04181 56312 11580 80000 11020 21045 37072 52002 69901 70080 884// 333 00253 10059
AAXX 04181 56462 32680 33201 11027 21070 37107 57003 82402 333 05151 10076
AAXX 04181 56651 11478 82903 10023 20002 37634 52007 69921 78080 889// 333 00052 10128
AAXX 04181 56691 11250 81602 11027 21031 37772 57008 69921 76660 887// 333 05402 11021 93431
AAXX 04181 56985 11565 71803 10068 20045 38726 40212 57015 60021 78080 874// 333 00055 10120
AAXX 04181 57633 11440 83401 11025 21036 39317 40330 57015 69971 77077 8772/ 333 05452 10006
AAXX 04181 57902 11440 80902 11004 21004 38668 40280 57011 69911 76060 887// 333 05352 10019
BBXX SKUN 04183 99463 70243 43/95 72123 10102 40340 54000 22263 00118 2//// 4////
AAXX 04181 55279 32880 62207 11131 21263 35667 57001 82402 333 00151 11092
AAXX 04181 55472 32780 22505 11134 21256 35707 52002 82400 333 00200 11081
AAXX 04181 55696 32680 10000 11094 21163 36321 52006 81100 333 00153 10023
AAXX 04181 56079 11780 70902 11104 21124 36631 57010 69941 72270 875// 333 05406 11036
AAXX 04181 56106 32680 70000 11111 21166 36181 57001 879// 333 00102 11047
AAXX 04181 56257 32680 12701 11082 21178 36242 52001 81400 333 00053 10001
AAXX 04181 56374 32980 02001 11096 21122 37410 57012 333 05452 11011
AAXX 04181 56385 11/02 92201 11109 21115 36979 57012 69911 77074 333 05401 11078
AAXX 04181 56954 11565 71801 10144 20144 40150 57003 69911 72598 874// 333 00002 10235
AAXX 04181 56966 11770 81106 10119 20087 40188 57004 60011 78000 884// 333 00356 10198
AAXX 04181 57237 11860 82901 10015 21023 40295 57013 69901 76870 885// 333 10043
AAXX 04181 57306 11950 80000 10030 20027 40292 57014 60011 76066 8802/ 333 10047
AAXX 04181 57604 31858 81602 10046 20034 40279 57016 71000 885// 333 10057
AAXX 04181 57707 11356 80901 11022 21022 38524 57012 69971 76660 887// 333 05551 10006 93427
AAXX 04181 57832 11658 80202 11012 21020 39541 40317 57019 69941 71070 885// 333 05451 10011
AAXX 04183 61701 10959 70000 10290 20132 40111 70622 87070 333 10317 59001 86464
AAXX 04183 61705 31959 70000 10304 20131 4//// 70500 80006 333 10330 5//// 84270 84071
AAXX 04183 61707 31959 60000 10313 20114 4//// 70522 80006 333 10340 5//// 84273 83074
AAXX 04183 61711 32960 40602 10289 20115 4//// 80002 333 10310 5//// 84074
AAXX 04183 61712 32960 53203 10320 20094 4//// 85030 333 10345 5//// 85363
AAXX 04183 61717 31959 60902 10325 20042 4//// 70522 83032 333 10339 5//// 83363 84072
AAXX 04183 61720 NIL
AAXX 04183 61721 31959 70000 10320 20061 4//// 70522 84036 333 10340 5//// 85273 84073
AAXX 04183 61722 31959 63605 10317 20030 4//// 70522 86070 333 10343 5//// 84462 83363
AAXX 04183 61731 31959 60904 10320 20107 4//// 70522 85032 333 10345 5//// 85362 84074
AAXX 04183 61733 32960 60902 10335 20053 4//// 83032 333 10352 5//// 83361 83072
AAXX 04184 82765 32598 71803 10290 20250 39896 40135 85340 333 58006
AAXX 04184 83766 32597 63202 10334 20175 39447 40083 5//// 86200
AAXX 04184 83836 32497 63603 10300 20133 39131 40089 56018 83305
AAXX 04184 83980 31596 11410 10263 20123 39860 40137 56010 70510 81100
AAXX 04184 83997 32497 21408 10240 20135 30140 40183 51001 82100
BBXX SKUN 04183 99463 70243 43/95 72123 10102 40340 54000 22263 00118 2//// 4////
BBXX A8EH5 04181 99360 11538 41596 72607 10140 49840 56/// 76166 8/468 22224 20704 3//// 4//// 5////
AAXX 04181 37682 32997 70000 11073 21107 38148 48553 53003 87040 333 11044
AAXX 04181 37717 325// 21901 11061 21110 38086 48524 52008 82500 333 10003
AAXX 04181 37788 42999 00000 11048 21084 39246 40296 52004 333 10053
AAXX 04181 14648 11460 83201 10070 20057 30065 40187 55002 69992 70262 8377/ 333 10076 83716 88457
AAXX 04181 14652 11/00 92004 11020 21022 37925 48490 53012 60002 74544 333 11015 49069 89///
AAXX 04181 14542 11660 83201 10083 20064 30001 40191 52028 69962 76162 8552/ 333 10158 85640 88557 95900
AAXX 0418/ 48969 NIL
AAXX 0418/ 48962 NIL
AAXX 0418/ 48990 NIL
AAXX 0418/ 48986 NIL
AAXX 0418/ 48995 NIL
AAXX 0418/ 48967 NIL
AAXX 0418/ 48992 NIL
AAXX 0418/ 48965 NIL
AAXX 0418/ 48985 NIL
AAXX 0418/ 48970 NIL
AAXX 0418/ 48991 NIL
AAXX 0418/ 48964 NIL
AAXX 0418/ 48997 NIL
AAXX 0418/ 48968 NIL
AAXX 0418/ 48973 NIL
AAXX 0418/ 48966 NIL
AAXX 0418/ 48983 NIL
AAXX 0418/ 48972 NIL
AAXX 0418/ 48998 NIL
AAXX 0418/ 48993 NIL
AAXX 0418/ 48971 NIL
AAXX 0418/ 48963 NIL
AAXX 0418/ 48987 NIL
AAXX 04181 37279 32894 60000 10049 20013 30086 40233 57011 86060 333 10085
AAXX 04181 37308 327// 60000 11003 21030 39602 40274 53004 83530 333 10026
AAXX 04181 37531 325// 82602 10030 21050 39509 40247 57008 885// 333 10065
AAXX 04181 37553 326// 81201 11015 21037 39583 40253 57004 885// 333 10004
AAXX 04181 37651 16/// ///00 11036 21042 3//// 4//// 5//// 60002 333 11007
AAXX 04181 37492 NIL
AAXX 04184 64500 32460 42408 10275 20239 30084 40097 82502 333 10286 59002 82610 83073
AAXX 04184 64501 32558 72108 10267 20239 3//// 4//// 83502 333 10290 5//// 83608 87073
AAXX 04184 64500 32460 42408 10275 20239 30084 40097 82502 333 10286 59002 82610 83073
AAXX 04184 64501 32558 72108 10267 20239 3//// 4//// 83502 333 10290 5//// 83608 87073
AAXX 04184 64570 31460 82100 10244 20231 39614 40121 70162 8457/ 333 10253 59007 84613 88360
AAXX 04184 78988 01470 60108 10242 20231 30132 40143 57021 60011 72522 86400 333 58009 60017 83815 86650
AAXX 04184 78990 01470 61006 10270 20251 30137 40144 57029 60071 72582 84230 333 58005 60067 84815 84358
AAXX 04184 78873 02575 10811 10276 20209 30108 40153 57029 60001 81200 333 59003 60007 81822
AAXX 04184 89132 NIL
AAXX 04184 89542 46/// /1315 10022 20074 49676 53004
AAXX 04184 89575 NIL
AAXX 04184 89657 NIL
AAXX 04181 40001 32970 03503 10032 21002 40229 53007 333 10130
AAXX 04181 40007 31902 02802 10031 20028 40232 51007 333 10131
AAXX 04181 40025 32560 20603 10090 20077 40204 52008 82400 333 10174 82630
AAXX 04181 40045 32970 00000 10050 20015 40236 52006 333 10142
AAXX 04181 40061 32970 00000 10074 20028 40221 52013 333 10140
AAXX 04181 40080 32965 00000 10044 21008 39491 40227 52009 333 10134
AAXX 04181 40087 NIL
AAXX 04181 40095 NIL
AAXX 04181 47008 42970 03201 11065 21154 30190 40246 52005
AAXX 04181 47014 42650 40000 11223 21234 39880 40326 52006 84500
AAXX 04181 47016 42970 00000 11228 21253 39397 40315 52009
AAXX 04181 47020 42965 00000 11185 21197 39920 40336 52005
AAXX 04181 47025 42960 03202 11104 21157 30200 40231 52010
AAXX 04181 47035 42962 00000 11117 21169 30296 40305 52005
AAXX 04181 47041 42970 00000 11107 21151 30212 40241 52008
AAXX 04181 47055 42970 02701 11064 21124 30215 40263 52009
AAXX 04181 47058 42960 00000 11142 21148 30257 40309 52011
AAXX 04181 47069 42965 03403 11060 21108 30190 40295 52005
AAXX 04181 47003 42980 03209 11094 21177 30228 40232 52007
AAXX 04181 47005 42980 00000 11247 21259 38593 52010
AAXX 04181 47022 42975 00000 11216 21234 38831 52003
AAXX 04181 47028 42963 00000 11143 21178 30201 40303 52002
AAXX 04181 47031 42970 00000 11200 21212 38928 52002
AAXX 04181 47037 42970 00000 11107 21135 30161 40293 53009
AAXX 04181 47039 42960 00000 11146 21166 30096 40304 52003
AAXX 04181 47046 42969 20000 11095 21125 30215 40239 52011 80002
AAXX 04181 47050 42965 00000 11128 21171 30260 40297 52007
AAXX 04181 47052 42965 00000 11189 21208 39939 40313 52009
AAXX 04181 47060 42960 00000 11085 21127 30227 40289 52001
AAXX 04181 47061 42980 01401 11060 21108 30199 40245 52010
AAXX 04181 47065 41960 03201 11111 21131 30236 40306 52006 71000
AAXX 04181 47067 42965 80000 11138 21151 30182 40312 57006 80001
AAXX 04181 47068 42570 13202 11059 21116 30254 40291 52005 81500
AAXX 04181 47070 42970 00000 11110 21130 30211 40304 52015
AAXX 04181 47075 42980 00000 11168 21187 39779 40244 52011
AAXX 04184 63661 32980 01205 10189 20068 48523 333 10288 59004
AAXX 04184 63688 32980 41004 10126 20095 48/// 80001 333 10262 58000 84076
AAXX 04184 63695 32980 00000 10155 20126 333 10269
AAXX 04184 63740 32980 10406 10198 20120 48500 80001 333 10299 59005 81074
AAXX 04184 63820 32580 30609 10262 20239 40090 83100 333 10350 59002 83822
AAXX 04184 63612 NIL
AAXX 04184 63671 NIL
AAXX 04184 63708 NIL
AAXX 04184 63714 NIL
AAXX 04184 63723 NIL
AAXX 04184 63772 NIL
AAXX 04184 63793 NIL
AAXX 04184 71048 16/// /2214 10069 20004 60001 333 10069 21009 70000
AAXX 04184 71354 16/// /1704 10001 21025 60001 333 10004 21022 70005
AAXX 04184 71406 16/// /0710 11043 21081 39967 49977 56044 60001 333 11034 21044 70006
AAXX 04184 71418 46/// /3230 11028 21047 39911 49943 56033 6///1 333 11014 21042 7////
AAXX 04184 71981 17/// /2306 10133 21034 69941 7//4/ 333 10133 20006 70004
AAXX 04184 71982 16/// /2609 10143 21029 60001 333 10144 21024 70000
AAXX 04184 71986 16/// /2224 10092 20002 60001 333 10092 20032 70000
AAXX 04184 71990 17/// /0205 11193 21212 38344 49976 56017 69941 7//4/ 333 11185 21246 70011
AAXX 04184 71050 46/// /3602 10045 20015 38999 40056 53021 6///1 333 10071 21056 7////
AAXX 04184 71277 46/// /1613 10026 20012 6///1 333 10028 21009 7////
BBXX CFO383 04184 99439 70602 47497 /3125 11014 2101/ 49964 5//// 700// 8/ // 22200 00067 10806 2//// 3//// 70031 81010 333 91043
AAXX 04184 71277 46/// /1613 10026 20012 6///1 333 10028 21009 7////
AAXX 04184 71354 16/// /1704 10001 21025 60001 333 10004 21022 70005
AAXX 04184 71406 16/// /0710 11043 21081 39967 49977 56044 60001 333 11034 21044 70006
AAXX 04184 71418 46/// /3230 11028 21047 39911 49943 56033 6///1 333 11014 21042 7////
AAXX 04184 71048 16/// /2214 10069 20004 60001 333 10069 21009 70000
AAXX 04184 71050 46/// /3602 10045 20015 38999 40056 53021 6///1 333 10071 21056 7////
AAXX 04184 71981 17/// /2306 10133 21034 69941 7//4/ 333 10133 20006 70004
AAXX 04184 71982 16/// /2609 10143 21029 60001 333 10144 21024 70000
AAXX 04184 71986 16/// /2224 10092 20002 60001 333 10092 20032 70000
AAXX 04184 71990 17/// /0205 11193 21212 38344 49976 56017 69941 7//4/ 333 11185 21246 70011
BBXX CFO383 04184 99439 70602 47497 /3125 11014 2101/ 49964 5//// 700// 8/ // 22200 00067 10806 2//// 3//// 70031 81010 333 91043
BBXX A8VL5 04184 99514 10027 41397 82643 10070 20021 40240 57020 76022 887// 22200 00090 21010 30000 80050
BBXX BAREU63 04184 99325 10250 46/// /2810 10153 29042 40200 52003 22223
BBXX TESTFR9 04184 99508 70011 46/// /2645 10094 29084 40147 57082 22273
AAXX 04184 16172 11210 80000 10066 20063 39882 40185 53009 60082 76164 885// 333 10066 84705 86615
AAXX 04184 16459 12868 23401 10116 20114 30157 40192 54000 60002 82050 333 10186 82357
BBXX DBBC 04181 99535 10100 46/// /2409 10061 20026 40447 57015 22260 00054
BBXX DBBI 04181 99535 10100 46/// /2409 10061 20044 40046 57012 22260 00053
BBXX DBJM 04181 99540 10077 46/// /2418/10084 /0056 40031 57019 22272 00070
BBXX BAREU04 04184 99455 70457 46/// ///// 40100 57005 22224
BBXX BATEU09 04184 99401 10150 46/// /3020 10157 20109 40178 22232 00170
BBXX DBBA 04181 99541 10121 46/// /2503 10047 20026 40021 57009 22220 00050
BBXX BATFR24 04184 99427 10095 46/// /3316 10147 20075 40171 22214 00142
BBXX BATFR14 04184 99405 70216 46/// /1412 10159 20125 40366 56003 22264 00160
BBXX BATFR05 04184 99226 70177 46/// /0214 10187 20137 40193 53006 22282 00189
BBXX BATFR33 04184 99375 10032 46/// /3217 10154 20109 40289 22285 00159
BBXX BAREU12 04184 99491 70068 46/// ///// 40226 57016 22221
BBXX DBND 04181 99543 10101 46/// /2305 10062 20032 40011 57017 22210 00061
BBXX DBEB 04181 99538 10081 41/// /2417 10059 20059 40029 57024 7//// 22271 00059
BBXX DBEA 04181 99540 10086 46/// /2418 10059 20038 40018 57028 22271 00054
BBXX DBCK 04181 99/// ///// 46/// ///// 10065 20064 40043 57022 22220 00056
BBXX BAREU00 04184 99463 70244 46/// ///// 40340 52003 22263
BBXX FVNM 04184 99172 70875 46/// /3521 10232 20177 40235 58014 22200 00269
BBXX 41101 04184 99146 70562 46/// /0816 10262 20210 40134 57026 22200 00267 10805 70027
BBXX BAREU08 04184 99280 70494 46/// ///// 40228 57019 22254
BBXX BATFR11 04184 99381 10014 46/// ///// 10155 20114 40300 53011 22212 00169
BBXX BATEU07 04184 99063 10791 46/// /1910 10277 40123 50000 22263
BBXX 61001 04184 99434 10078 46/// /2308 10131 20093 40182 52028 22200 00135 10604 70019
BBXX BATFR60 04184 99504 10007 46/// /2535 10104 20070 40175 56034 22222 00102
BBXX DBFH 04181 99535 10086 46/// /2410 10066 20039 40052 57024 22220 00054
BBXX DBKR 04181 99541 10121 46/// /2306 10044 20044 40020 57009 22200 00055
BBXX BATFR22 04184 99433 10053 46/// /3331 10109 40243 22243 00140
AAXX 04181 13586 31956 00000 11014 21042 39913 40216 52013 71000 333 10066
AAXX 04181 40009 NIL
AAXX 04181 40016 32970 00000 10042 20025 40250 51007 333 10117
AAXX 04181 40022 32965 00000 10104 20079 40197 53002 222// 20000 333 10190
AAXX 04181 40030 31/02 90000 10056 20051 40220 52006 74041 89/// 333 10110 89/02
AAXX 04181 40039 32970 00000 10060 20036 40214 51005 333 10118
AAXX 04181 40066 32970 00000 10098 20046 40201 51004 333 10170
AAXX 04181 40072 32970 00000 10082 20060 40236 53004 333 10130
AAXX 04181 40083 32970 00000 10028 21017 48499 52004 333 10112
AAXX 04184 40272 32560 50708 10086 20004 39358 40213 52009 85100 333 10144 85830
AAXX 04181 10609 01462 82406 10050 20032 39862 40196 58020 69922 76162 885// 333 10065 20040 31002 55300 20000 30000 69927 83710 88620 91114
AAXX 04181 10616 01465 72405 10033 20007 39578 40187 58018 60012 76022 878// 333 10037 20016 31001 55300 69907 81810 85614 86630 91113
AAXX 04181 10641 07682 62105 10055 21000 30041 40190 58007 69902 70065 333 10085 20053 3/004 55300 69907 86/39 86/46 91114
AAXX 04181 10655 12683 62206 10043 21005 39864 40198 51002 69932 86801 333 10073 20043 31003 55300 20000 30000 81840 86650 91117 91212
AAXX 04181 10675 17787 82606 10044 21011 39898 40194 50006 69952 70065 333 10070 20042 3/003 55300 20000 30000 81/50 88/69 88/75 91116
AAXX 04181 10688 07783 82405 10031 21008 39666 40198 51013 60022 70076 333 10052 20015 3/000 55300 20000 30000 69907 88/56
AAXX 04181 10708 11583 72108 10046 20009 39826 40218 58017 69902 70262 878// 333 10060 20037 32002 55300 20000 30000 82824 87650 91114
AAXX 04181 10729 15681 72006 10063 20009 30095 40219 58013 69902 333 10083 20056 3/004 55300 20000 30000 83/39 87/56 87/64 91114
AAXX 04181 10731 12782 72308 10063 20004 30079 40225 58007 69902 875// 333 10078 20062 31005 55300 20000 30000 87650 91114
AAXX 04181 10742 17782 72407 10049 21003 39884 40221 56004 60022 70065 333 10064 20019 3/000 55300 20000 30000 87/50 91116
AAXX 04181 10776 07588 72608 10042 21008 39761 40213 51012 69982 72365 333 10069 20040 3/003 55300 20000 30000 69907 81/26 87/44 87/50 91116
AAXX 04181 10791 01/01 92614 11047 21049 38517 48462 53012 60092 77874 333 11009 21047 49112 55300 69907 91128 90260 91218 90351 91218 96041
AAXX 04181 10805 12786 72006 10060 20006 30061 40255 58001 60022 8551/ 333 10079 20035 31003 55300 20000 30000 85650 85463
AAXX 04181 10815 17582 72405 10000 21013 39282 48500 50000 60062 70087 333 10022 21003 3/102 4/001 55300 20000 30000 86/31 87/38 91116
AAXX 04181 10836 11588 82613 10014 21023 39345 40234 51005 69932 70282 888// 333 10027 20009 31000 55300 20000 30000 82825 87640 91119 91213 96487
AAXX 04181 10870 11782 42607 10030 21007 39689 40235 51005 60022 70182 84500 333 10062 20028 32002 55300 84650 91115 96480
AAXX 04181 10895 12582 82508 10030 21006 39638 40219 51013 60062 888// 333 10072 20015 31001 55300 20000 30000 84830 85636 88656 91116 91211
AAXX 04181 10908 11/03 82315 11049 21050 38517 48512 50000 60012 74143 885// 333 11022 21050 3/105 49064 55300 20000 30000 846// 88604 91121 91216
AAXX 04181 10929 11580 52504 10035 21008 39722 40266 50003 60012 70381 81502 333 10070 20033 31002 55300 20000 30000 81628 85080 96487
AAXX 04181 10948 07484 80402 10006 21017 39302 48525 55003 60102 72487 333 10049 21001 3/101 4/021 55300 20000 30000 69967 82/12 87/50 88/56 91114
AAXX 04181 10961 11/00 92614 11154 21154 37041 47004 54000 60122 74974 333 11060 21155 49250 55300 20000 40840 91124 91215 96278 96478 96473 96471 96449
AAXX 04181 10962 02684 32410 11018 21020 39069 48498 58006 60072 83500 333 10044 21019 3/103 44004 55300 20000 30000 69927 83640 91117 96487 96486
AAXX 04181 10980 11/01 92518 11074 21074 38144 48500 50003 60082 77174 333 10018 21074 3/107 48072 55300 20000 30000 91129 91221 96049 96471 96449
AAXX 04181 10007 NIL
AAXX 04181 10044 46/// /2415 10061 20023 39967 49998 58017 222// 00051 333 10067 20032 55300 91122 91218
AAXX 04181 10046 11470 62408 10063 20025 39972 40011 57017 60032 70381 85831 333 10064 20033 32002 85819 91116
AAXX 04181 10091 07409 72613 10028 20022 39941 49992 50004 60052 76387 333 10055 20013 3/000 55300 20000 30000 60057 83/14 86/24 87/36 91123 91218 90320 91219
AAXX 04181 10113 01662 82309 10063 20042 30018 40037 58031 60012 76181 8452/ 333 10072 20044 32003 55300 20000 30000 69907 84640 88462 91118 91215
AAXX 04181 10124 46/// ///// 10061 2//// 39984 40022 58021 222// 00060 333 10069 20038 553// 911// 912//
AAXX 04181 10131 01464 82409 10061 20033 30017 40032 58022 60062 72586 875// 333 10067 20037 32002 55300 20000 30000 69937 87619 91119 91212
AAXX 04181 10170 01483 72305 10043 20024 30006 40022 58005 60032 72581 878// 333 10060 20036 31003 55300 20000 30000 69927 81814 87640 91119
AAXX 04181 10264 06473 72306 10037 20021 39943 40050 58012 60022 333 10051 20023 3/001 55300 20000 30000 60017 84/18 87/50 87/61 91117
AAXX 04181 10291 01584 62409 10043 20011 39994 40062 50003 69902 70381 81506 333 10061 20040 31003 55300 20000 30000 69907 81626 85273 91116 91211
AAXX 04181 10315 01575 82208 10062 20030 30043 40107 58023 69992 72582 878// 333 10073 20041 31003 55300 20000 30000 69907 82830 87640 91115 91211
AAXX 04181 10379 11583 42508 10046 20009 39962 40084 50002 69912 70381 84800 333 10064 20038 31100 55300 20000 30000 40971 81825 83636 91119 91211
AAXX 04181 10382 01582 42606 10040 20009 30037 40082 50003 69982 72581 81204 333 10069 20038 31002 55300 20000 30000 69907 81823 83075 91117 91212
AAXX 04181 10384 06/// /2506 10057 20009 30022 40082 50005 69902 333 10075 20054 3/003 55300 20000 30000 69907 91116
AAXX 04181 10427 01158 82510 11007 21008 39121 48418 58008 60072 78587 873// 333 11001 21011 3/101 48005 55300 20000 30000 69917 83802 87904 91121 91215 96486 96473 96441
AAXX 04181 10430 01580 82408 10055 20013 39932 40125 58009 60052 72182 885// 333 10055 20029 31002 55300 20000 30000 69907 85629 87639 91115
AAXX 04181 10439 11770 72406 10051 21001 39930 40152 58009 69972 70282 875// 333 10063 20036 31001 87650
AAXX 04181 10453 11/00 92523 11032 21032 38739 48371 58010 60032 74984 333 11029 21035 3/103 49090 55300 91134 91227 96038 96488 96449 96438
AAXX 04181 10496 12786 12506 10050 20004 30026 40112 51014 69902 81500 333 10077 20049 31004 55300 20000 30000 81650 91115
AAXX 04181 10499 12685 52608 10047 21007 39837 40130 52015 69902 85500 333 10068 20042 31003 55300 20000 30000 85646 91119 91211
AAXX 04181 10505 01468 82409 10056 20028 39876 40160 58021 69932 72122 8687/ 333 10060 20042 32003 55300 20000 30000 69927 85816 91115 91211
AAXX 04181 10513 12780 72205 10064 20009 30039 40161 58021 69932 8553/ 333 10071 20050 31004 55300 20000 30000 81650 85656 87361 91113
AAXX 04181 10532 15582 82207 10050 20008 39915 40166 58013 69982 333 10061 20027 3/002 55300 20000 30000 88/23 88/50 88/56 91113
AAXX 04181 10544 01380 82314 11010 21015 39066 48437 58005 69942 77887 878// 333 10000 21011 3/101 42997 55300 69917 85808 87617 91120 91214 96487 96485 96471 96464 96436
AAXX 04181 10554 11582 72510 10043 21010 39752 40144 50001 69902 70381 878// 333 10053 20028 31002 55300 20000 30000 81830 83636 85646 91120 91214 96480
AAXX 04181 10567 11686 42608 10044 21020 39769 40149 50007 69902 70381 83554 333 10057 20039 31002 55300 20000 30000 83643 83070 91117 91212
AAXX 04181 10578 11182 72619 11034 21034 38728 48424 51007 60022 73874 875// 333 11009 21035 3/104 48052 55300 20000 30000 87602 96475 96441 96439
BBXX BATFR16 04184 99365 70380 44697 51215 10169 20100 40284 55007 70111 85555 22214 00192 21104 334// 41104 5////
BBXX BATFR54 04184 99437 70090 44/// 82513 10127 20082 4//// 703// 8//// 22262 00139 20202 33236 41006 51006
BBXX BATFR42 04184 99502 70017 46/// /2555 10099 20075 40159 22244 00120
BBXX BATEU04 04184 99583 70219 46/// /2638 10064 20009 49926 53009 22223
BBXX BATEU08 04184 99569 10109 46/// /2830 10039 20020 49891 22283
BBXX BATFR19 04184 99064 30058 46/// /1912 10242 20204 40126 53015 22200 00259
BBXX BATFR46 04184 99362 70036 44/96 31702 10147 20119 40309 52002 70311 8//7/ 22223 00160 20000
BBXX BATFR52 04184 99508 70011 46/// /2334 10095 20062 40141 58076 22272 00087
BBXX BATEU01 04184 99468 70571 44497 73640 10019 20012 49764 56096 70222 84367 22264 00042 21004 318// 41404 5////
AAXX 04181 14528 NIL
AAXX 04181 14537 NIL
AAXX 04181 14544 NIL
AAXX 04181 14557 11965 81601 10090 20060 39824 40191 52020 69912 70262 8807/ 333 86360 88461
AAXX 04181 14640 NIL
AAXX 04184 68098 36/// /2509 10188 20135 30032 40139 52010 333 10232 20188 91010 555 91014
BBXX BATFR02 04184 99505 70008 46/// /2442 10102 20064 40158 22234 00109
AAXX 04184 71805 01/05 90410 10067 20067 39740 49748 58128 60122 74776 333 10068 20006 60057 90710 91119 93100 555 69945
AAXX 04184 13600 12665 40000 10066 20051 30139 40192 54004 60002 82230 333 10100 82846
AAXX 04184 13610 12660 50000 10068 20000 39757 40185 54004 60002 85500 333 10120 85640
AAXX 04184 13611 12660 70000 10120 20079 30078 40169 54000 60002 86530 333 10140 86633
AAXX 04184 13619 12665 60000 10062 20009 39419 42805 54002 60002 86500 333 10092 86643
AAXX 04184 13622 12665 40000 10104 20069 30168 40175 54000 60002 84500 333 10156 84640
AAXX 04184 13624 12965 21404 10052 20026 30144 40183 52005 60002 82030 333 10180 82360
AAXX 04184 13625 12960 80000 10030 20000 39973 40212 57033 60002 8803/ 333 10100 88360
AAXX 04184 13629 11910 71404 10048 20000 39122 42775 57006 60002 74240 87030 333 10062 87360
AAXX 04184 13601 12660 80000 10100 20068 30065 40166 54002 60002 885// 333 10176 88640
AAXX 04184 13602 NIL
AAXX 04184 13623 12960 60000 10050 20009 30181 40187 57013 60002 86030 333 10110 86360
AAXX 04184 16045 NIL
AAXX 04184 16090 11/00 93101 10020 20017 30121 40206 52028 69902 74742 333 10036 89/01
AAXX 04184 16149 11535 82908 10050 20032 30180 40196 52034 60022 76062 8787/ 333 10108 83820 84635
AAXX 04184 16261 12962 02603 10100 20081 30087 40160 53005 60002 333 10166 55300
AAXX 04184 16453 12997 03403 10140 20106 30119 40198 56003 60002 333 10184 55300 555 0100/
AAXX 04184 16560 12470 32912 10134 20070 30203 40210 57005 60002 83800 333 10164 81815 83620
AAXX 04184 16021 12960 03614 11042 21158 37957 48483 52010 60002 333 11018 43038 92865
AAXX 04184 16022 12982 03623 11060 21163 37829 48482 52017 60002 333 11030 48016 92832
AAXX 04184 16033 12965 00000 11036 21061 38773 48475 51024 60002 333 11006 47039 92872
AAXX 04184 16040 11120 40000 10004 21003 39266 42792 52019 69902 70165 84610 333 10034 42003 84703 83460 92881
AAXX 04184 16052 11960 00632 11166 21246 36603 47047 52020 69902 70241 333 11090 49999
AAXX 04184 16061 12984 03008 10076 21089 39360 42807 52032 60002 333 10076
AAXX 04184 16098 11901 00000 10022 20015 30139 40192 52017 60002 74641 333 10068
AAXX 04184 16138 11412 82703 10020 20010 30189 40201 51026 60002 71042 886// 333 10022 88710
AAXX 04184 16148 11730 82906 10039 20019 30191 40204 52030 60022 72164 8753/ 333 10054 87650
AAXX 04184 16168 11/00 90316 10090 20086 39410 42773 56005 60002 74542 333 10118 89/00
AAXX 04184 16172 NIL
AAXX 04184 16179 11/01 93405 10072 20068 39494 42787 53015 60062 76164 333 10102 89/00
AAXX 04184 16224 11462 71010 10102 20088 39830 40148 56007 69922 72162 87200 333 10122 87816
AAXX 04184 16232 12697 42713 10112 20104 30100 40153 53007 60002 82531 333 10130 82636 555 0////
AAXX 04184 16245 11359 80910 10118 20102 30129 40155 57011 69982 76062 888// 333 10162 82808 83815 86630
AAXX 04184 16253 12562 52602 10100 20079 30164 40177 56005 60002 83830 333 10150 81820 83650
AAXX 04184 16258 12960 23007 10062 20037 39169 42776 56006 60002 82030 333 10088 82360
AAXX 04184 16263 11/00 92717 10058 20058 38909 48475 58002 60002 74544 333 10070 89/00
AAXX 04184 16294 12597 60000 10130 20096 39992 40185 56006 60002 86800 333 10150 83830 84633 555 0////
AAXX 04184 16337 11/91 91806 10104 20058 39608 40180 56003 60002 74542 333 10132 89/01 90024 555 0////
AAXX 04184 16344 11/00 92708 10020 20020 38308 48492 56002 60012 76064 333 10040 42044 89/00 95090 95190
AAXX 04184 16434 11460 62606 10060 20045 39008 48507 58002 60012 72864 86800 333 10112 85811 84622 95075 95101
AAXX 04184 16450 12260 32804 10092 20092 39083 48548 58007 60002 83400 333 10122 83606
AAXX 04184 16459 NIL
AAXX 04184 16546 11562 33112 10138 20078 30182 40210 58002 69922 70261 83200 333 10162 83825
AAXX 04184 16564 12598 32732 10138 20088 30051 40193 58014 60002 83200 333 10160 83820 555 0////
AAXX 04181 11812 36/// /3007 10019 21012 39468 42773 52022 333 10071
AAXX 04181 11813 12580 62504 10046 21004 39829 40182 52020 60022 84541 333 10063 82630 84656 86070
AAXX 04181 11816 11965 72905 10062 21001 30015 40180 52021 60022 70266 80002 333 10075 87070
AAXX 04181 11819 16/// /2904 10055 20004 39961 40179 52026 60022 333 10070
AAXX 04181 11826 11982 72604 10045 20005 39969 40171 52019 60032 70266 80008 333 10061 87270
AAXX 04181 11841 11680 82503 10039 20014 39779 40159 53020 60052 70266 885// 333 10049 88634
AAXX 04181 11855 11970 72806 10039 20009 30005 40173 52016 60012 70266 83048 333 10055 83361 87271
AAXX 04181 11856 16/// /9904 10043 20003 39845 40167 52016 60022 333 10044
AAXX 04181 11858 11575 82804 10051 20030 30024 40177 52019 60022 70266 8351/ 333 10082 83626 88458
AAXX 04181 11867 11680 52404 10029 21007 39844 40166 51016 60032 70166 83501 333 10053 83640 85070
AAXX 04181 11880 11440 72802 10041 20041 39993 40167 52013 60012 71062 86608 333 10054 86716 87270
AAXX 04181 11900 16/// /2804 10051 20003 39823 40160 52015 60012 333 10051
AAXX 04181 11903 11562 89902 10031 20031 39771 40156 52012 60022 70364 885// 333 10035 42002 88632
AAXX 04181 11916 11/00 93111 11075 21088 37883 48402 53004 60022 77343 333 11018 48053 89/00 91021 91128 92981 93598 96049
AAXX 04181 11918 11575 72506 10018 21008 39319 42754 52018 69992 77166 8657/ 333 10037 86623
AAXX 04181 11927 11958 62202 10038 20032 39887 40152 53009 69932 71064 83032 333 10042 83360 85070
AAXX 04181 11930 11/00 93108 11125 21135 37255 47915 58002 60032 77374 333 11038 48043 89/00 91023 91127 93535 96049
AAXX 04181 11933 11/72 79903 11026 21048 38602 48420 52010 60022 72874 82578 333 10027 44037 816// 83457 87266 93703 444 16//6 17109
AAXX 04181 11934 11580 72509 10019 21015 39304 42743 53016 69902 70162 81570 333 10058 81620 87463
AAXX 04181 11938 11340 72202 10000 21004 39065 42742 52012 69982 71075 87600 333 10003 44018 87706
AAXX 04181 11952 16/// /2608 10025 21024 39295 42743 52015 69922 333 10046
AAXX 04181 11958 36/// ///// 11020 21024 38686 48420 52008 333 11001
AAXX 04181 11968 11245 80000 10033 20029 39850 40134 50006 69902 71054 886// 333 10033 88704
AAXX 04181 11976 11340 89901 10034 20030 39868 40134 52010 60022 71062 886// 333 10041 88706
AAXX 04181 11978 11230 80403 10036 20030 39996 40128 50004 69922 71062 886// 333 10047 88705
AAXX 04181 11993 11360 89901 10041 20038 39917 40136 53007 60022 70262 886// 333 10053 84709 88717
BBXX DBLK 04181 99349 30173 41698 72307 10200 20140 40181 52018 70222 85832 22211 04210 20302 323// 41207
AAXX 04184 89642 40/// /1317 11033 21093 39757 49810 57003
BBXX C6CU6 04183 99141 70606 41497 31219 10281 20245 40147 50000 70200 831// 22233 04272 20804 310// 41104 5//// 80256
AAXX 04184 65338 31905 50000 10291 20163 39902 40089 70622 80002 333 10355 58003 85076
AAXX 04181 13579 31105 83602 11002 21012 39366 40228 53001 74544 886// 333 10035 88702
AAXX 04184 40340 32960 03611 10140 20044 40176 52012 333 10220
BBXX SHIP 04184 99411 70405 41298 71722 10167 20118 40257 57008 71522 8617/ 22224 04170 20706 326// 41004 80138
BBXX FLAO 0418/ 99764 70847 46/// ///// 11353 49998 52008
AAXX 04181 11933 11/72 79903 11026 21048 38602 48420 52010 60022 72877 82578 333 10027 44037 816// 83457 87266 93703 444 16//6 17109
BBXX A8RV9 04184 99310 30038 41598 32210 10220 20166 40200 53/// 70300 8/16/ 22234 20601 321// 41206 5//// 80185
BBXX A8ME3 04180 99355 11230 41498 73311 10025 21064 40315 50000 702// 8/8// 22283 04105 20404 333// 40706 5////
BBXX DCPC2 04184 99237 71766 41898 31410 10240 20196 40210 56010 70300 82468 22264 00250 21202 332// 41202 5//// 80210
BBXX DBBH 04181 99377 10154 41498 82401 10147 20106 40200 55000 70311 888// 22221 04157
BBXX A8CE9 04184 99003 10567 41297 30414 10266 20228 40122 54000 70100 834// 22214 04290 20303 80239
BBXX V7OX3 04181 99356 50008 41/97 /3210 10190 20174 40150 54000 703// 8//// 22223 04200 21203 3//// 4//// 5//// 80180
BBXX BATUK01 04184 99571 70017 46/// /2333 10064 20024 49827 58100 22282 00087
AAXX 04181 13173 32697 62903 10089 20048 30073 40173 52021 86500 333 10113
AAXX 04181 13180 32697 83202 10072 20051 30055 40166 52005 885// 333 10130
AAXX 04181 13266 32698 83406 10099 20041 30079 40180 52021 885// 333 10112 91011 91111
AAXX 04181 13369 32597 73401 10036 20006 38979 48459 52004 87500 333 10048 4/012
AAXX 04181 13383 32997 61701 10057 20028 39969 40174 52013 86070 333 10120
AAXX 04181 13384 32698 80000 10068 20033 30017 40170 52005 885// 333 10121
AAXX 04181 13389 32698 71801 10022 20001 39896 40184 53007 87500 333 10111
AAXX 04181 13477 NIL
AAXX 04184 60621 36/// /0508 10164 21015 333 10205
AAXX 04181 14008 11/98 43209 11100 21109 37449 47992 52010 60022 70174 84800 333 11010 49130 92818 93102 95152 444 46286
AAXX 04181 14015 12680 72701 10064 20043 39833 40186 57017 69922 86570 333 10090 81633 86645
AAXX 04181 14023 11598 82603 10047 20045 39900 40199 53018 60012 70262 8557/ 333 10099 81720 85640
AAXX 04181 14024 11498 80202 10020 20006 39085 48478 52018 69952 70264 8387/ 333 10039 81810 82615 95000
AAXX 04181 14026 11596 72801 10051 20040 39872 40196 51025 69942 70262 81110 333 10102 81831
AAXX 04181 14031 11596 70601 10041 20037 39965 40197 52026 69982 710// 80008 333 10065
AAXX 04181 14105 11898 70901 10073 20064 30184 40189 52017 69902 70162 85032 333 10101
AAXX 04181 14106 11997 61101 10052 20085 30119 40189 52018 69902 70162 80008 333 10089 95000
AAXX 04181 14121 11398 80000 10062 20053 39920 40188 52019 60012 70262 8171/ 333 10097 81707
AAXX 04181 14122 11680 81801 10061 20052 39998 40197 52020 60022 70262 8157/ 333 10102 81640
BBXX 62087 04181 99547 10068 46/// /0906 10104 20054 4//// 5//// 22270 00076
BBXX 44024 04181 99423 70659 46/30 /3012 11028 40112 55000 91804 22200 00073 10806 70028 333 91214 555 11144 22151
BBXX 41052 04181 99183 70648 46/// /3306 10247 40147 91830 333 91208
BBXX 41052 04181 99183 70648 46/// /3207 10250 40145 91820 333 91210
BBXX 41052 04181 99183 70648 46/// /3304 10260 40146 91810 333 91208
BBXX 41053 04181 99185 70661 46/// /0204 10264 40148 91830 333 91205
BBXX 41053 04181 99185 70661 46/// /0203 10264 40149 91820 333 91204
BBXX 41053 04181 99185 70661 46/// /0103 10265 40150 91810 333 91205
BBXX 42085 04181 99179 70665 46/// /1305 10270 40144 91830 333 91206
BBXX 42085 04181 99179 70665 46/// /1305 10270 40145 91820 333 91206
BBXX 42085 04181 99179 70665 46/// /1404 10269 40146 91810 333 91205
AAXX 04184 60619 36/// /0210 10112 21015 333 10158
AAXX 04184 60663 36/// /0507 10141 21031 333 10176
AAXX 04181 13168 32697 72907 10073 20052 30073 40181 53025 87500 333 10135 91111
AAXX 04181 13174 32697 83407 10077 20055 30072 40173 53019 885// 333 10104
AAXX 04181 13269 32698 72301 10089 20059 39954 40168 52014 87500 333 10162
AAXX 04181 13274 11697 73102 10112 20042 30011 40171 52013 69922 76062 87800 333 10155
AAXX 04181 13278 32697 62302 10090 20025 39944 40169 51004 86500 333 10138
AAXX 04181 13378 32498 82503 10005 20001 38256 48482 54000 885// 333 10036 4/014
AAXX 04181 13397 32998 11203 10016 21006 39642 40192 52006 81030 333 10104
AAXX 04181 13457 11670 70000 10080 20073 30177 40184 57004 69961 70262 82570 333 10123 82633 84458
AAXX 04181 13481 NIL
AAXX 04184 60612 36/// /0413 10139 21038 333 10185
AAXX 04181 06414 36/// /2407 10083 20034 30118 40151 56029 60002 333 10084 91113 91208
AAXX 04181 06459 36/// /2307 10063 20049 39984 40179 55022 60002 333 10071 91114 91210
AAXX 04181 06494 16/// /2410 10018 20010 39364 40174 58020 69912 333 10022 91115 91210
BBXX 61002 04184 99421 10047 46/// ///34 10128 2//// 40274 52020 22200 00132 10807 70036 555 1/045
AAXX 04184 60645 36/// /0000 10176 21004 333 10223
AAXX 04184 16179 11/01 93405 10072 20068 39494 42787 53015 60062 76364 333 10102 89/00
AAXX 04181 15501 12968 50000 10035 20025 30113 40158 54000 60002 85050 333 10082 20003 555 593//
AAXX 04181 15505 12970 01402 10050 20021 39786 40162 54000 60002 333 10157 20044 555 581//
AAXX 04181 15511 11928 00000 10050 20028 30133 40173 54000 60002 71000 333 10110 20004 555 586//
AAXX 04181 15514 12968 00000 10048 20028 30115 40151 52004 60002 333 10112 20007 555 587//
AAXX 04181 15530 12970 00000 10027 20003 39929 40172 54000 60002 333 10148 21018 42001 555 584//
AAXX 04181 15533 12968 20000 10041 20021 30100 40132 56001 60002 80001 333 10084 20022 41001 555 587//
AAXX 04181 15550 12970 00000 10057 20035 30130 40150 57005 60002 333 10112 20006 555 586//
AAXX 04181 15561 12975 02004 10066 20040 30154 40161 57006 60002 222// 00075 2//00 333 10128 20016 555 584// 92014 92418
AAXX 04181 15562 12970 02305 10076 20058 30100 40172 53001 60002 222// 2//00 333 10103 20062 555 589// 92013 92418
AAXX 04181 15600 11989 22308 11004 21035 38294 48497 53005 60002 70300 82030 333 10031 21004 44005 555 580//
AAXX 04181 15601 12970 00000 11014 21030 39560 40200 53011 60002 333 10038 21064 555 588//
AAXX 04181 15605 12970 00000 11012 21021 39332 40200 53016 60002 333 10083 21066 41/// 555 594//
AAXX 04181 15613 11989 22312 11046 21046 37698 47043 53001 60002 70300 82100 333 11004 21046 48047 555 500//
AAXX 04181 15628 11958 02702 11037 21052 39935 40204 53009 60002 71000 333 10040 21078 43008 555 589//
AAXX 04181 15642 12568 80000 10044 20039 30014 40185 54000 60002 885// 333 10068 20006 555 597//
AAXX 04181 15661 12970 00000 10056 20027 30137 40173 54000 60002 222// 20000 333 10084 20020 555 581// 92000 92408
AAXX 04181 15726 11983 03302 10014 21097 38244 48505 57002 60002 70200 333 10112 20006 44038 555 543//
BBXX 9VBM6 04183 99427 70101 41797 73302 10140 20105 40390 52000 7//22 86627 22243 00180 20302 3//// 40304 50304 6//// 80120 /////
BBXX A8EH3 04183 99249 11202 41/97 80237 10105 40270 54000 78086 88/// 22255 04183 29903
BBXX A8TG2 04183 99250 71390 41798 50908 10250 20151 40250 52020 70222 82545 22263 20102 307// 40102 80190
AAXX 04184 65306 32960 50000 10277 20065 39787 40120 80002 333 10330 59010 85076
AAXX 04184 65319 32958 50000 10290 20101 39597 40109 80002 333 10357 59008 85076
AAXX 04184 65330 31910 50204 10296 20072 39658 40095 70522 80002 333 10348 59006 85076
AAXX 04184 65335 31920 50000 10312 20126 39865 40088 70522 80002 333 10367 59013 85076
AAXX 04184 65344 31940 51604 10288 20233 30082 40093 70522 80002 333 10322 59003 85076
AAXX 04184 89002 42699 72514 11020 21046 39783 49837 57007 875//
BBXX DCAX2 04183 99300 51265 41597 60926 10231 20170 40210 54000 70311 86134 22223 21605 313// 41606 5//// 80191
AAXX 04184 78922 46/// /1011 10272 20203 30099 40143 56026
AAXX 04181 13463 32670 81401 10078 20033 30129 40190 57001 8582/ 333 10100
AAXX 04181 13459 11565 80901 10030 20030 39431 40208 54000 60012 76062 8582/ 333 10046 85695 88498
AAXX 04181 13461 32670 70903 10108 20051 30177 40185 57005 87800 333 10146 84840 92322 92428
AAXX 04181 13363 32662 82901 11004 21004 39268 48473 52008 885// 333 11002 43015
AAXX 04184 65501 32960 70202 10264 20005 39816 40133 80002 333 10301 59006 87076
AAXX 04184 65502 32960 70408 10280 21017 39743 40123 80002 333 10313 59006 87076
AAXX 04184 65503 31956 70408 10284 20013 39774 40120 70622 80002 333 10325 59003 87076
AAXX 04184 65505 32965 40404 10300 20026 39777 40116 80002 333 10334 59005 84076
AAXX 04184 65507 32960 70206 10284 20013 39767 40117 80002 333 10328 59007 87076
AAXX 04184 65510 31956 60406 10296 20035 39594 40105 70622 80002 333 10327 59005 86076
AAXX 04184 65516 32965 50404 10304 20001 39799 40105 80002 333 10332 59009 85076
AAXX 04184 65518 32965 73604 10294 20052 39736 40099 80002 333 10332 59002 87076
AAXX 04184 65522 32960 70402 10320 20008 39772 40099 80002 333 10347 58004 87076
AAXX 04181 14106 11997 61101 10052 20045 30119 40189 52018 69902 70162 80008 333 10089 95000
AAXX 04181 14235 11260 8//// 10012 20010 39025 48473 52021 60012 76164 887// 333 10041 42004
AAXX 04181 14246 11675 83402 10063 20046 39986 40192 52/// 69982 7006/ 885// 333 10116
AAXX 04181 14314 12665 83502 10110 20084 30116 40180 53/// 60002 888// 333 10131 92312 92427
AAXX 04181 14323 11670 80102 10099 20046 30148 40182 52/// 60082 76066 885// 333 10120 92312 92428
AAXX 04181 14324 11/00 93202 11012 21012 38385 48490 53/// 60012 771// 333 10007 44022
AAXX 04181 14328 11460 80401 10065 20048 39801 40199 53/// 60012 7616/ 8772/ 333 10113
AAXX 04181 14330 12560 80301 10058 20048 39512 40183 52/// 69962 885// 333 10105
AAXX 04181 14438 11562 80304 10098 20088 30076 40168 53/// 60082 76586 8372/ 333 10147 923//
AAXX 04181 14443 32698 505// 10123 20120 30068 40162 54000 85036 333 10142 92312
AAXX 04181 14447 12582 63401 10116 20099 30140 40171 53/// 60002 86200 333 10168 92312
AAXX 04181 14472 NIL
AAXX 04184 87467 32970 00911 10332 20128 30012 40143 58015
AAXX 04181 14472 12665 81202 10121 20071 30111 40176 56005 69912 8227/ 333 10126 92312
AAXX 04184 40255 32960 50000 10100 20028 39481 40210 54000 85030 333 10154 85360
AAXX 04184 40260 NIL
AAXX 04184 40270 31550 50000 10094 21006 39288 40200 54000 70500 83430 333 10145 83835 82360
AAXX 04184 40272 32560 50708 10086 20004 39358 40213 52009 85100 333 10144 85830
AAXX 04184 40290 NIL
AAXX 04184 40340 32960 03611 10140 20044 40176 52012 333 10220
AAXX 0418/ 89253 46/// ///// 4//// 5////
AAXX 04184 04203 46/// /1218 11219 21276 39990 40008 52025
AAXX 04184 04205 45/84 /3108 11259 21337 30003 40027 52031 333 11212 21313 91215
AAXX 04184 04208 46/// /1111 11222 21284 39980 40027 52022
AAXX 04184 04213 46/// /1604 11198 21301 39931 40049 52030 333 11193 21198
AAXX 04184 04214 46/// /2805 11194 21223 30014 40047 52032
AAXX 04184 04224 47558 71812 11167 21197 30018 40053 52034 77877 333 11147 21174 87/23 91223
AAXX 04184 04228 NIL
AAXX 04184 04242 46/// /0712 11120 21156 30049 40066 52031
AAXX 04184 04253 46/// /0108 11080 21133 30036 40063 52029
AAXX 04184 04266 46/// /3132 11062 21097 39997 40035 52035 333 91044
AAXX 04184 04285 46/// /2929 11040 21100 39999 40018 52028
AAXX 04184 04301 46/// /2610 11295 21338 30015 40020 54000
AAXX 04184 04313 46/// /0612 11099 21112 30030 40042 52011
AAXX 04184 04330 46/// /0227 11058 21083 39943 49961 52007
AAXX 04184 04351 46/// /2904 11134 21188 39917 49933 52016
AAXX 04184 04373 46/// /3116 11051 21138 39866 49960 52023
AAXX 04184 04382 46/// /2202 11027 21074 39924 49973 52016
AAXX 04184 04416 46/// ///// 11376 21393 36523 52007
AAXX 04184 88878 46/// /2523 10172 20110 40007 57011 555 1//36
AAXX 04184 88897 46/// /2821 10152 20097 49967 57012 555 1//36
AAXX 04184 89108 46/// /0306 11222 36913 4//// 57001 91750
AAXX 04184 89332 46/// /0708 11049 39119 49722 57016 91750
AAXX 04184 89667 46/// /1410 11044 39844 49854 57003 91750
AAXX 04184 89734 46/// /0714 11312 36044 4//// 5//// 91800
AAXX 04184 89834 46/// /1622 11201 38050 4//// 57006 91750
AAXX 04184 89869 46/// /2208 11049 39769 49847 5//// 91750
BBXX WDF7994 04184 99474 70871 41/98 83332 11033 2//// 40091 54000 70202 88/// 22263 00011 20505 3//// 4//// 5//// 6//// 8//// ICE /////
BBXX 9V7645 04183 99517 71384 41697 81930 10060 20060 49840 57010 70222 887// 22264 04075 20303 322// 40609 5//// 6//// 80060 ICE /////
BBXX WHKM 04184 99252 31052 41498 81820 10220 20174 40140 58020 72582 882// 22233 0//// 20303 312// 40804 5//// 6//// 80190 ICE /////
BBXX 42360 04181 99267 70905 46/// /3101 10175 91800 22200 00237 10601 70007 333 91202
BBXX 44056 04181 99362 70757 46/// ///// 1//// 91750 22200 00092 10702 20702 70010
BBXX 44039 04181 99411 70727 46/// /2605 11049 21112 40200 91753 22200 00075 10401 70006 333 91208
BBXX A8CE9 04184 99003 10567 41297 30414 10266 20228 40122 54000 70100 834// 22214 04290 20303 80239
BBXX A8RV9 04184 99310 30038 41598 32210 10220 20166 40200 53/// 70300 8/16/ 22234 20601 321// 41206 5//// 80185
BBXX DBLK 04181 99349 30173 41698 72307 10200 20140 40181 52018 70222 85832 22211 04210 20302 323// 41207
BBXX V7OX3 04181 99356 50008 41/97 /3210 10190 20174 40150 54000 703// 8//// 22223 04200 21203 3//// 4//// 5//// 80180
BBXX BATFR19 04184 99064 30058 46/// /1912 10242 20204 40126 53015 22200 00259
BBXX BATFR05 04184 99226 70177 46/// /0214 10187 20137 40193 53006 22282 00189
BBXX TBWUK30 04184 99031 10013 41398 82404 40138 54000 70222 8/770 22264 299// 30000 4//// 5////
BBXX VRGJ6 04183 99189 10648 41997 23512 10250 20188 40138 52002 702// 80002 22264 04259 20301 335// 41001 5//// 80210
BBXX DCAX2 04183 99300 51265 41597 60926 10231 20170 40210 54000 70311 86134 22223 21605 313// 41606 5//// 80191
BBXX WHKM 04184 99252 31052 41498 81820 10220 20174 40140 58020 72582 882// 22233 0//// 20303 312// 40804 5//// 6//// 80190 ICE /////
BBXX A8TG2 04183 99250 71390 41798 50908 10250 20151 40250 52020 70222 82545 22263 20102 307// 40102 80190
BBXX 41052 04181 99183 70648 46/// /3304 10260 40146 91810 333 91208
BBXX 42085 04181 99179 70665 46/// /1305 10270 40145 91820 333 91206
BBXX 41053 04181 99185 70661 46/// /0203 10264 40149 91820 333 91204
BBXX 42085 04181 99179 70665 46/// /1305 10270 40144 91830 333 91206
BBXX 41052 04181 99183 70648 46/// /3306 10247 40147 91830 333 91208
BBXX 41053 04181 99185 70661 46/// /0204 10264 40148 91830 333 91205
BBXX 42085 04181 99179 70665 46/// /1404 10269 40146 91810 333 91205
BBXX 41052 04181 99183 70648 46/// /3207 10250 40145 91820 333 91210
BBXX 41053 04181 99185 70661 46/// /0103 10265 40150 91810 333 91205
BBXX 44024 04181 99423 70659 46/30 /3012 11028 40112 55000 91804 22200 00073 10806 70028 333 91214 555 11144 22151
BBXX DCPC2 04184 99237 71766 41898 31410 10240 20196 40210 56010 70300 82468 22264 00250 21202 332// 41202 5//// 80210
BBXX C6CU6 04183 99141 70606 41497 31219 10281 20245 40147 50000 70200 831// 22233 04272 20804 310// 41104 5//// 80256
BBXX FLAO 0418/ 99764 70847 46/// ///// 11353 49998 52008
BBXX SHIP 04184 99411 70405 41298 71722 10167 20118 40257 57008 71522 8617/ 22224 04170 20706 326// 41004 80138
BBXX 9V7645 04183 99517 71384 41697 81930 10060 20060 49840 57010 70222 887// 22264 04075 20303 322// 40609 5//// 6//// 80060 ICE /////
BBXX BATFR16 04184 99365 70380 44697 51215 10169 20100 40284 55007 70111 85555 22214 00192 21104 334// 41104 5////
BBXX BATEU01 04184 99468 70571 44497 73640 10019 20012 49764 56096 70222 84367 22264 00042 21004 318// 41404 5////
BBXX 41101 04184 99146 70562 46/// /0816 10262 20210 40134 57026 22200 00267 10805 70027
BBXX BAREU08 04184 99280 70494 46/// ///// 40228 57019 22254
BBXX FVNM 04184 99172 70875 46/// /3521 10232 20177 40235 58014 22200 00269
BBXX BAREU04 04184 99455 70457 46/// ///// 40100 57005 22224
BBXX CFO383 04184 99439 70602 47497 /3125 11014 2101/ 49964 5//// 700// 8/ // 22200 00067 10806 2//// 3//// 70031 81010 333 91043
BBXX MVQP8 04184 99288 70943 41297 32710 10214 20177 40262 54000 70200 83700 22200 20502 306// 40601 5//// 80191
BBXX 44138 04181 99443 70536 46/// /2023 10098 49886 57037 22200 00084 11214 70068 333 91228
BBXX 44137 04181 99423 70620 46/// /2912 10011 40056 52031 22200 00097 10908 70042 333 91216
BBXX KS007 04184 99267 70801 43/// ///// 10158 40224 22200
BBXX KS094 04184 99184 70644 43/// /1008 10264 40164 22200 06259
BBXX KS098 04184 99446 71240 43/// /1310 10116 40228 22200 06000
BBXX KS088 04184 99267 70801 43/// /0707 10160 40263 22200 06191
BBXX 46092 04181 99368 71220 46/// /1404 10116 40275 91757 22200 00121 555 11046 22046
BBXX 44022 04181 99409 70737 46/// ///04 11051 21159 40195 91830 22200 00058 333 91206 555 11041 22041
BBXX 44040 04181 99410 70736 46/// /2705 11048 21140 40201 91819 22200 1//00 70001 333 91207 555 11046 22051
BBXX 44039 04181 99411 70727 46/// /2606 11050 21113 40203 91800 22200 00075 10401 70006 333 91209
BBXX 44040 04181 99410 70736 46/// /2705 11048 21140 40201 91815 22200 1//00 70001 333 91207 555 11046 22051
BBXX 44060 04181 99413 70721 46/// ///05 11045 40188 91830 22200 00085 333 91207 555 11057 22057
BBXX 42362 04181 99278 70907 46/// /0000 10172 20072 40295 91830
BBXX 42364 04181 99291 70881 46/// /3413 10100 21006 40319 91830
BBXX 42363 04181 99282 70892 46/// /3202 10194 20056 40308 91830 333 91202
BBXX 62087 04181 99547 10068 46/// /0906 10104 20054 4//// 5//// 22270 00076
BBXX DBBH 04181 99377 10154 41498 82401 10147 20106 40200 55000 70311 888// 22221 04157
BBXX DBBA 04181 99541 10121 46/// /2503 10047 20026 40021 57009 22220 00050
BBXX DBBI 04181 99535 10100 46/// /2409 10061 20044 40046 57012 22260 00053
BBXX DBJM 04181 99540 10077 46/// /2418/10084 /0056 40031 57019 22272 00070
BBXX DBEB 04181 99538 10081 41/// /2417 10059 20059 40029 57024 7//// 22271 00059
BBXX DBKR 04181 99541 10121 46/// /2306 10044 20044 40020 57009 22200 00055
BBXX DBEA 04181 99540 10086 46/// /2418 10059 20038 40018 57028 22271 00054
BBXX DBBC 04181 99535 10100 46/// /2409 10061 20026 40447 57015 22260 00054
BBXX DBFH 04181 99535 10086 46/// /2410 10066 20039 40052 57024 22220 00054
BBXX DBND 04181 99543 10101 46/// /2305 10062 20032 40011 57017 22210 00061
BBXX SKUN 04183 99463 70243 43/95 72123 10102 40340 54000 22263 00118 2//// 4////
BBXX 62169 04183 99614 10014 41/97 63015 10040 20028 49771 57040 72787 8//// 22200 02080 20302 327// 41007 5//// 80035
BBXX 46208 04181 99525 71327 46/// /1814 10070 49915 52010 22200 00070 11210 70050 333 91220
BBXX 46145 04181 99544 71324 46/// /1608 10076 49906 52023 22200 00069 10703 70014 333 91209
AAXX 04181 03951 47450 /2717 10099 20079 30126 40152 57012 6//// 710// 87/// 333 87/15 90710 91126 91219
AAXX 04181 03953 11460 82515 10104 20063 30120 40156 58020 60022 70286 886// 333 10105 86718 87632 92456 90710 91124
AAXX 04181 03955 11475 72712 10086 20064 39931 40128 57019 69912 78082 878// 333 10089 81711 86817 87630 90710 91119
AAXX 04181 03956 47561 /2406 10082 20059 30021 40098 57019 6//// 781// 87/// 333 87/23
AAXX 04181 03962 11456 82415 10087 20079 30072 40096 57022 60062 75886 885// 333 10090 81712 83716 86640 90710 91123
AAXX 04181 03963 47436 /2620 10095 20078 30029 40057 57035 6//// 751// 88/// 333 88/12 90710 91127 91221
AAXX 04181 03966 47459 /2411 10080 20067 39982 40075 57029 6//// 761// 87/// 333 81/15 85/29 87/39 90710 91118
AAXX 04181 03967 NIL
AAXX 04181 03969 11458 82515 10077 20062 39939 40042 56028 60022 75865 886// 333 10082 81710 85715 87628 90710 91127 91218
AAXX 04181 03973 11350 82614 10076 20074 39777 40029 57034 60082 76362 886// 333 10078 88706 90710 91124 91218
AAXX 04181 03976 11450 82515 10101 20089 30008 40020 57026 60102 75865 886// 333 10101 86710 88714 90710 91126
AAXX 04181 03980 47430 /2521 10093 20082 39891 49916 57058 6//// 781// 87/// 333 87/11 90710 91128 91222
AAXX 04181 03967 11464 72516 10077 20061 39937 40050 57029 60022 76165 8472/ 333 10081 84717 87533 90710 91123
BBXX DCPI2 04183 99468 70074 41/97 /2634 10110 20072 40307 53017 70222 8//// 22254 00110 2//// 80090
BBXX 46145 04181 99544 71324 46/// /1608 10076 49906 52023 22200 00069 10703 70014 333 91209
BBXX 46208 04181 99525 71327 46/// /1814 10070 49915 52010 22200 00070 11210 70050 333 91220
AAXX 04184 83384 32597 53204 10280 20200 39534 40107 84260 333 58011
AAXX 04184 83386 21497 83206 10256 20223 39570 40098 78182 8272/ 333 58003 60021
AAXX 04184 83388 21497 60503 10246 20203 39437 40106 70162 862// 333 58002 60021
AAXX 04184 83393 21599 83604 10202 20192 39408 40132 76169 86820 333 58005 60431
AAXX 04184 83442 21597 80502 10262 20227 39759 40103 70352 888// 333 58013 69961
AAXX 04184 83479 32598 60904 10303 20188 39306 40093 86200 333 58003
AAXX 04184 83483 21496 83205 10226 20207 39542 40106 76396 889// 333 58013 60381
AAXX 04184 83531 32597 42304 10282 20186 39071 40087 84200 333 58006
AAXX 04184 83538 21496 83205 10209 20180 38701 40088 75162 8672/ 333 58014 60051
AAXX 04184 83574 32794 60502 10318 20187 39564 40160 5//// 86400
AAXX 04184 83582 32599 62702 10292 20201 39340 40099 58010 86400
AAXX 04184 83595 32597 82302 10282 20240 30047 40131 855// 333 58032
AAXX 04184 83692 32699 51806 10258 20159 39080 40096 58005 85200
AAXX 04184 83811 32597 33202 10318 20099 39210 40093 58013 83400
AAXX 04184 83844 32597 105// 10284 20193 30100 40107 57009 81100
AAXX 04184 83887 32597 42706 10260 20125 39082 40112 57006 83430
AAXX 04184 83907 32997 01405 10356 20131 39842 40113 56012
AAXX 04184 83919 31496 32310 10250 20101 38968 40137 58004 70521 83100
AAXX 04184 83927 32997 01410 10296 20129 30052 40126 57009
AAXX 04184 83936 32497 11406 10302 20126 30016 40135 58002 81100
AAXX 04184 83948 32497 11410 10251 20191 30130 40136 51002 81400
AAXX 04184 83964 31596 31402 10262 20137 39663 40148 54000 70500 83200
AAXX 04184 83995 32597 31808 10242 20131 30160 40163 54000 83200
AAXX 04184 83599 32198 399// 10275 20229 40098 57003 83600 222// 20501 80245
AAXX 04184 83925 32798 62000 10240 20212 40125 57004 7031/ 8690/ 222// 20000 80220
AAXX 04184 83970 41697 42002 10260 20176 40216 52009 7021/ 84465 222// 02225 20000 80210
AAXX 04183 04013 32589 60518 11018 21039 49879 52028 82510 333 11012 21026 555 3//18
AAXX 04183 04064 32784 60000 11008 21054 49816 52014 8454/ 333 10000 21038 555 3//02
AAXX 04184 04005 21488 70510 11014 21063 49897 52022 78583 87800 333 11003 21015 69908 555 3/311
AAXX 04184 04018 31986 40419 11015 21068 49838 52030 73621 81070 333 11003 21020 555 3//19 84361
AAXX 04184 04030 32789 30305 11017 21063 49838 52029 82532 333 11001 21021 555 3//09 82650
AAXX 04184 04048 32689 41016 10022 21015 49810 52025 81538 333 10025 20015 555 3/424
AAXX 04184 04063 22682 72103 11030 21061 49860 53007 84910 333 11018 21031 69908 555 3//06
AAXX 04184 04077 NIL
AAXX 04184 04082 32983 73413 11030 21034 49805 52010 8725/ 333 11025 21020 555 3//24 87456 81450
AAXX 04184 04097 32689 23307 11030 21094 49825 57002 82200 333 11004 21032 555 3/307
BBXX TFBKF 04184 99635 70202 46/// ///// 22200 10603 70017
BBXX TFDRN 04184 99658 70212 46/// ///// 22200 10604 70022
BBXX TFGRS 04184 99663 70182 46/// ///// 22200 10705 70023
BBXX TFGRV 04184 99638 70225 46/// ///// 22200 10805 70025
BBXX TFGSK 04184 99641 70229 46/// ///// 22200 10605 70024
BBXX TFHFN 04184 99642 70152 46/// ///// 22200 10803 70017
BBXX TFKGR 04184 99657 70136 46/// ///// 22200 10605 70026
BBXX TFSRT 04184 99633 70203 46/// ///// 22200 10907 70035
BBXX TFSTD 04184 99664 70234 46/// ///// 22200 10605 70024
AAXX 04184 08373 02970 00000 10127 20095 30275 40297 53019 60002 333 10181 60007
BBXX BAREU56 04184 99429 10060 46/// ///// 40213 57014 22222
BBXX PDBP 04183 99393 10034 41498 23616 10158 20104 40289 53023 70322 82140 22253 04168 20302 80127
BBXX KSDF 04184 99367 10130 41498 73030 10156 20117 40220 54000 71522 875// 22273 0//// 20202 330// 40504 5//// 6//// 80133
BBXX A8VL5 04184 99514 10027 41397 82643 10070 20021 40240 57020 76022 887// 22200 00090 21010 30000 80050
BBXX BAREU63 04184 99325 10250 46/// /2810 10153 29042 40200 52003 22223
BBXX TESTFR9 04184 99508 70011 46/// /2645 10094 29084 40147 57082 22273
BBXX 61001 04184 99434 10078 46/// /2308 10131 20093 40182 52028 22200 00135 10604 70019
BBXX BAREU00 04184 99463 70244 46/// ///// 40340 52003 22263
BBXX BAREU12 04184 99491 70068 46/// ///// 40226 57016 22221
BBXX BATFR14 04184 99405 70216 46/// /1412 10159 20125 40366 56003 22264 00160
BBXX BATFR60 04184 99504 10007 46/// /2535 10104 20070 40175 56034 22222 00102
BBXX BATFR24 04184 99427 10095 46/// /3316 10147 20075 40171 22214 00142
BBXX BATFR22 04184 99433 10053 46/// /3331 10109 40243 22243 00140
BBXX BATFR33 04184 99375 10032 46/// /3217 10154 20109 40289 22285 00159
BBXX BATFR11 04184 99381 10014 46/// ///// 10155 20114 40300 53011 22212 00169
BBXX BATEU09 04184 99401 10150 46/// /3020 10157 20109 40178 22232 00170
BBXX BATEU04 04184 99583 70219 46/// /2638 10064 20009 49926 53009 22223
BBXX BATEU08 04184 99569 10109 46/// /2830 10039 20020 49891 22283
BBXX BATFR54 04184 99437 70090 44/// 82513 10127 20082 4//// 703// 8//// 22262 00139 20202 33236 41006 51006
BBXX BATFR42 04184 99502 70017 46/// /2555 10099 20075 40159 22244 00120
BBXX BATFR46 04184 99362 70036 44/96 31702 10147 20119 40309 52002 70311 8//7/ 22223 00160 20000
BBXX BATFR52 04184 99508 70011 46/// /2334 10095 20062 40141 58076 22272 00087
BBXX BATFR02 04184 99505 70008 46/// /2442 10102 20064 40158 22234 00109
BBXX BATUK01 04184 99571 70017 46/// /2333 10064 20024 49827 58100 22282 00087
BBXX 61002 04184 99421 10047 46/// ///34 10128 2//// 40274 52020 22200 00132 10807 70036 555 1/045
BBXX 9VBM6 04183 99427 70101 41797 73302 10140 20105 40390 52000 7//22 86627 22243 00180 20302 3//// 40304 50304 6//// 80120 /////
AAXX 04181 45032 36/// /0005 10080 20014 30239 40257 57002
AAXX 04181 45035 36/// /0504 10091 20037 30215 40259 52001
AAXX 04181 45039 36/// /3403 10084 20038 30236 40252 57001
AAXX 04181 45044 36/// /0007 10091 20052 30147 40245 57002
AAXX 04181 45032 36/// /0005 10080 20014 30239 40257 57002
AAXX 04181 45035 36/// /0504 10091 20037 30215 40259 52001
AAXX 04181 45039 36/// /3403 10084 20038 30236 40252 57001
AAXX 04181 45044 36/// /0007 10091 20052 30147 40245 57002
BBXX DDZD2 04184 99057 10844 41897 51020 10/// 20/// 40110 54000 70355 8486/ 22225 00/// 2////
BBXX DGZS2 04183 99064 10935 41498 70813 10280 20246 40110 52/// 70322 8677/ 22264 00280 20502 80255
BBXX DPFP 04184 99074 10957 41497 50820 10250 20250 40055 51/// 70222 85214 22234 00/// 20601 80250
BBXX 9VBS 04184 99221 11142 41/97 80213 10120 20079 40250 54000 70222 8//// 22200 00140 2//// 80100
BBXX 9VDD2 04184 99265 71226 41/// /3621 10100 20060 40290 51010 7//// 8//// 22214 04050 2//// 80080
BBXX VRGW2 04183 99136 10505 41498 30410 10230 20185 40155 51013 70300 8216/ 22265 00/// 20301 80200
BBXX A8SZ5 04184 99259 11238 41297 80223 10140 20085 40260 54000 703// 8/7// 22283 00/// 2//08 80110
BBXX A8HJ8 04183 99012 11034 41/96 /0307 10250 20228 40120 52010 70200 8//// 22200 00/// 20101 80234
BBXX A8VN4 04184 99318 11228 41297 73526 10052 21011 40312 5/008 70322 84724 22244 04040 20703 332// 41205 80026
BBXX VRFH2 04183 99463 71712 41397 61408 10050 21020 40010 57020 7//22 86466 22224 00030 20805 309// 40805 80020
AAXX 04184 71565 16/// /2610 10018 21016 60001 333 10074 21031 70000
AAXX 04184 71566 17/// /2101 10045 21030 69941 7//4/ 333 10045 21009 70008
AAXX 04184 71567 16/// /1203 11032 21048 60001 333 11024 21102 70004
AAXX 04184 71848 16/// ///// 10128 21028 60001 333 10128 20044 70000
AAXX 04184 71495 16/// /2628 10114 21022 60001 333 10116 20028 70000
AAXX 04184 71974 46/// /2808 11265 21286 30154 40199 56011 6///1 333 11259 21385 7////
AAXX 04184 71013 16/// ///// 10088 20005 60001 333 10088 21020 70000
AAXX 04184 71060 16/// /2615 10092 21013 38553 40093 58002 60001 333 10097 20030 70000
AAXX 04184 71793 16/// ///// 10045 20002 60001 333 10045 21045 7////
AAXX 04184 71399 16/// ///// 10041 21003 60001 333 10053 21035 70000
AAXX 04184 71073 16/// /2013 10077 21011 60001 333 10077 20025 70000
AAXX 04184 71793 16/// ///// 10045 20002 60001 333 10045 21045 7////
AAXX 04184 71848 16/// ///// 10128 21028 60001 333 10128 20044 70000
AAXX 04184 71495 16/// /2628 10114 21022 60001 333 10116 20028 70000
AAXX 04184 71399 16/// ///// 10041 21003 60001 333 10053 21035 70000
AAXX 04184 71565 16/// /2610 10018 21016 60001 333 10074 21031 70000
AAXX 04184 71566 17/// /2101 10045 21030 69941 7//4/ 333 10045 21009 70008
AAXX 04184 71567 16/// /1203 11032 21048 60001 333 11024 21102 70004
AAXX 04184 71974 46/// /2808 11265 21286 30154 40199 56011 6///1 333 11259 21385 7////
AAXX 04184 71013 16/// ///// 10088 20005 60001 333 10088 21020 70000
AAXX 04184 71060 16/// /2615 10092 21013 38553 40093 58002 60001 333 10097 20030 70000
AAXX 04184 71073 16/// /2013 10077 21011 60001 333 10077 20025 70000
AAXX 04181 47008 42970 03201 11065 21154 30190 40246 52005
AAXX 04181 47014 42650 40000 11223 21234 39880 40326 52006 84500
AAXX 04181 47016 42970 00000 11228 21253 39397 40315 52009
AAXX 04181 47020 42965 00000 11185 21197 39920 40336 52005
AAXX 04181 47025 42960 03202 11104 21157 30200 40231 52010
AAXX 04181 47035 42962 00000 11117 21169 30296 40305 52005
AAXX 04181 47041 42970 00000 11107 21151 30212 40241 52008
AAXX 04181 47055 42970 02701 11064 21124 30215 40263 52009
AAXX 04181 47058 42960 00000 11142 21148 30257 40309 52011
AAXX 04181 47069 42965 03403 11060 21108 30190 40295 52005
AAXX 04184 61901 169// /1109 10175 20144 39663 40170 56006 69922 91750 333 10196 8//99 555 7/090
BBXX 51205 04181 99210 71564 46/// ///// 1//// 91818 22200 00243 11509 21003 332// 41508 70043
BBXX 46241 04181 99330 71173 46/// ///// 1//// 91811 22200 00146 11402 21001 327// 41402 70011
AAXX 04184 71827 11566 81909 11137 21157 39723 49973 55018 60021 77177 885// 333 11134 21240 47019 70044 90983 93102
BBXX 46229 04181 99438 71246 46/// ///// 1//// 91821 22200 00099 11210 21007 326// 41206 70048
AAXX 04184 71827 11566 81909 11137 21157 39723 49973 55018 60021 77177 885// 333 11134 21240 47019 70044 90983 93102
BBXX 46216 04181 99343 71198 46/// ///// 1//// 91827 22200 00142 11303 21002 326// 41302 70015
BBXX 46223 04181 99335 71178 46/// ///// 1//// 91830 22200 00153 11503 21001 327// 41502 70014
BBXX 46231 04181 99327 71174 46/// ///// 1//// 91824 22200 00149 11503 21002 327// 41503 70017
BBXX 46219 04181 99332 71199 46/// ///// 1//// 91828 22200 00142 11404 20902 329// 41404 70022
BBXX 46242 04181 99332 71174 46/// ///// 1//// 91828 22200 00152 11302 21001 324// 41302 70010
AAXX 04181 89063 41195 82501 10016 20016 39871 49882 57006 71072 886// 333 42100
BBXX 41112 04181 99307 70813 46/// ///// 1//// 91821 22200 00149 10901 20901 70006
BBXX 42023 04181 99261 70831 46/// /0205 1//// 91830 333 91206
BBXX 42023 04181 99261 70831 46/// /0205 1//// 91800 333 91206
AAXX 04184 97016 32562 70000 10264 20234 30089 40091 57018 84272 333 56000 57801 84820 80860
BBXX 63106 04184 99610 10017 46/// /2809 10046 49776 57041 22200
BBXX 63113 04184 99610 10017 46/// /3005 10047 20001 49777 57054 22200 10707 70033
BBXX 64049 04183 99571 10022 41/97 82540 10074 20070 49830 54000 70211 8//// 22200 04082 20608 325// 40612 5//// 80072
BBXX 62305 04184 99504 10000 46/97 /2539 10107 20070 40177 56030 22200 00113 10806 70029 333 90710 91154
BBXX 62170 04184 99514 10020 46/97 /2433 10097 20067 40122 58040 22200 00104 10703 70017 333 90710 91146
BBXX 62304 04184 99511 10018 46/97 /2534 10100 20065 40135 58038 22200 00107 10704 70019 333 90710 91148
BBXX 62107 04184 99501 70061 46/// /2739 10109 20068 40199 57018 22200 00114 10909 70045 333 90710 91153
BBXX 62094 04184 99517 70067 46/// /25// 10104 20081 40126 57020 22200 00103 10709 70045 333 90710 91144
BBXX 62094 04184 99517 70067 46/// /2532 10104 20081 40126 57020 22200 00103 10709 70045 333 90710 91144
BBXX 62163 04184 99475 70084 46/// /2526 10115 20074 40300 58004 22200 00123 10810 70049 333 90710 91136
BBXX 62103 04184 99499 70029 46/98 /2640 10108 20076 40190 55029 22200 00115 10807 70033 333 90710 91156
BBXX 62095 04184 99531 70159 46/// /2528 10109 20102 40114 50003 22200 00111 10917 70084 333 90710 91144
AAXX 04184 63612 32980 00000 10277 20172 40096 333 10373 59006
AAXX 04184 63708 32575 10000 10224 20155 48478 81501 333 10302 59010 81622
AAXX 04184 63772 32980 00714 10266 20237 333 10340
AAXX 04184 41506 12694 80000 10015 20002 48509 60043 8442/ 333 5699/ 58005 60007 84640 84460
AAXX 04184 41508 12595 80000 10035 20023 48536 60083 8672/ 333 5699/ 58019 60007 82702 84630 82460
AAXX 04184 41523 02696 70000 10070 20037 48522 69923 82521 333 56999 58028 60007 82640 83460 82070
AAXX 04184 41535 12697 60000 10035 21015 48474 60013 83520 333 56990 58003 83635 83460
AAXX 04184 41536 NIL
AAXX 04184 41573 12696 81302 10035 21028 48488 60003 8442/ 333 58006
AAXX 04184 41600 01659 40000 10110 20079 39858 40161 60003 70400 82530 333 58012 60007
AAXX 04184 41630 11996 30000 10110 20068 40164 60003 70400 83030 333 56090 58011 83360
AAXX 04184 41678 12696 70000 10125 20085 40165 60003 84520 333 56990 58010 60007 84640 84460
AAXX 04184 41696 02696 41802 10040 21037 37992 48511 60003 82450 333 56990 58012 60007 82640 82460
AAXX 04184 41697 02996 00000 10128 20080 40141 60003 333 58001 60007
AAXX 04184 41700 11695 50504 10140 20091 40140 69903 70450 83540 333 56990 59005 60007 83640 84460
AAXX 04184 41725 02696 83604 10155 20075 40142 60003 84520 333 56990 58009 60007 84635 84360
AAXX 04184 41746 02996 03602 10140 20102 40154 60003 333 59014 60007
AAXX 04184 41759 12696 52304 10225 20194 30129 40135 60002 85500 333 56900 59016 85630
AAXX 04184 41785 02996 02304 10200 20167 40132 60003 333 59009 60007
AAXX 04184 41515 12695 60000 10036 21003 38538 48500 60023 84520 333 56990 59010 60007 84650 82458
AAXX 04184 41560 22696 41803 10000 21095 38279 48514 60003 83230 333 59010 60007
AAXX 04184 41571 119// 75008 10105 10053 39569 40168 60003 70500 83530 333 56099 58001
AAXX 04184 41594 319// 30000 10100 20068 39943 40168 70511 83030 333 56090 58019
AAXX 04184 41685 32693 70000 10065 21010 38884 48458 83220 333 56990 59023 83840 84460
AAXX 04184 41710 02997 03104 10135 21112 39349 40128 60003 333 58037 60007
AAXX 04184 41718 12996 30504 10125 20085 30041 40148 60003 83030 333 56090 59006 83362
AAXX 04184 41739 02996 00000 10150 20049 39028 48486 60003 333 59002 60007
AAXX 04184 41744 32996 03102 10145 21019 38756 48481 333 59026
AAXX 04184 41749 01995 00000 10135 20096 30095 40130 60003 70400 333 59032 60007
AAXX 04184 41529 01695 60000 10089 20057 39792 40184 69903 72055 83520 333 56990 58024 69907 83640 83460
AAXX 04184 41598 11996 40000 10095 20063 39885 40166 60003 70422 84030 333 58015
AAXX 04184 41620 31695 63105 10070 21036 38575 48478 75103 86500 333 56900 58007 86640
AAXX 04184 41624 02695 70000 10110 20068 39956 40163 60003 84520 333 56990 58017 60007 84637 83460
AAXX 04184 41640 01695 20000 10120 20079 39905 40160 60003 70400 82500 333 56900 58012 60007 82648
AAXX 04184 41660 117// 71314 10050 20023 38418 48510 60010 70566 84530 333 56990 58011 84650 86362
AAXX 04184 41675 11694 70000 10115 20074 30009 40152 60003 70422 82570 333 56990 58010 82640 86460
AAXX 04184 41712 12996 00502 10130 20021 39186 48496 60003 333 59037
AAXX 04184 41715 01996 00000 10130 20068 40150 60003 70500 333 58003 60007
AAXX 04184 41756 01995 32714 10220 20191 30058 40122 60003 70504 80001 333 56009 59003 60007 83070
AAXX 04184 41764 32996 00000 10190 20128 40128 60003 333 59003 60007
AAXX 04184 41768 02696 42304 10265 20189 30118 40125 60003 84500 333 56900 58028 60007 84635
AAXX 04184 41780 02596 22304 10230 20191 30102 40130 60003 82600 333 56900 59021 60007 82720
AAXX 04184 41515 12695 60000 10036 21003 38538 48500 60023 84520 333 56990 59010 60007 84650 82458
AAXX 04184 41560 22696 41803 10000 21095 38279 48514 60003 83230 333 59010 60007
AAXX 04184 41571 119// 75008 10105 10053 39569 40168 60003 70500 83530 333 56099 58001
AAXX 04184 41594 319// 30000 10100 20068 39943 40168 70511 83030 333 56090 58019
AAXX 04184 41685 32693 70000 10065 21010 38884 48458 83220 333 56990 59023 83840 84460
AAXX 04184 41710 02997 03104 10135 21112 39349 40128 60003 333 58037 60007
AAXX 04184 41718 12996 30504 10125 20085 30041 40148 60003 83030 333 56090 59006 83362
AAXX 04184 41739 02996 00000 10150 20049 39028 48486 60003 333 59002 60007
AAXX 04184 41744 32996 03102 10145 21019 38756 48481 333 59026
AAXX 04184 41749 01995 00000 10135 20096 30095 40130 60003 70400 333 59032 60007
AAXX 04184 41529 01695 60000 10089 20057 39792 40184 69903 72055 83520 333 56990 58024 69907 83640 83460
AAXX 04184 41598 11996 40000 10095 20063 39885 40166 60003 70422 84030 333 58015
AAXX 04184 41620 31695 63105 10070 21036 38575 48478 75103 86500 333 56900 58007 86640
AAXX 04184 41624 02695 70000 10110 20068 39956 40163 60003 84520 333 56990 58017 60007 84637 83460
AAXX 04184 41640 01695 20000 10120 20079 39905 40160 60003 70400 82500 333 56900 58012 60007 82648
AAXX 04184 41660 117// 71314 10050 20023 38418 48510 60010 70566 84530 333 56990 58011 84650 86362
AAXX 04184 41675 11694 70000 10115 20074 30009 40152 60003 70422 82570 333 56990 58010 82640 86460
AAXX 04184 41712 12996 00502 10130 20021 39186 48496 60003 333 59037
AAXX 04184 41715 01996 00000 10130 20068 40150 60003 70500 333 58003 60007
AAXX 04184 41756 01995 32714 10220 20191 30058 40122 60003 70504 80001 333 56009 59003 60007 83070
AAXX 04184 41764 32996 00000 10190 20128 40128 60003 333 59003 60007
AAXX 04184 41768 02696 42304 10265 20189 30118 40125 60003 84500 333 56900 58028 60007 84635
AAXX 04184 41780 02596 22304 10230 20191 30102 40130 60003 82600 333 56900 59021 60007 82720
BBXX 46238 04181 99334 71195 46/// ///// 1//// 91820 22200 00140 11404 20902 329// 41404 70021
BBXX 46239 04181 99363 71221 46/// ///// 1//// 91821 22200 00125 11305 21003 328// 41304 70024
BBXX VQGQ4 04184 99036 31454 41/98 72817 10270 20256 40090 50000 70211 832// 22234 00306 20402 80260
BBXX VRCI9 04184 99539 71547 41498 13415 11010 21039 49990 52045 70110 814// 22264 00038 20604 332// 40906 81020
BBXX VQGQ4 04184 99036 31454 41/98 72817 10270 20256 40090 50000 70211 832// 22234 00306 20402 80260
BBXX VRCI9 04184 99539 71547 41498 13415 11010 21039 49990 52045 70110 814// 22264 00038 20604 332// 40906 81020
BBXX 44040 04181 99410 70736 46/// /2705 11048 21140 40201 91819 22200 1//00 70001 333 91207 555 11046 22051
BBXX 46221 04181 99339 71186 46/// ///// 1//// 91815 22200 00150 11303 21002 327// 41303 70016
AAXX 04184 71433 46/// /3218 11017 21031 39843 40075 58002 6///1 333 10006 21085 7////
AAXX 04184 71841 16/// /3008 11055 21090 39685 40088 58011 60001 333 11055 21148 7////
AAXX 04184 71051 16/// ///// 10114 21037 60001 333 10116 20020 7////
AAXX 04184 71057 16/// ///// 10124 21023 60001 333 10136 20032 70000
AAXX 04184 71070 16/// ///// 10105 21032 60001 333 10105 20039 70000
AAXX 04184 71089 16/// ///// 10016 21023 60001 333 10020 21073 70000
AAXX 04184 71409 16/// ///// 10110 21027 60001 333 10110 20045 70000
AAXX 04184 71502 16/// /0815 11293 21317 30091 40108 56008 60001 333 11271 21295 70000
AAXX 04184 71509 16/// /2624 10122 21011 60001 333 10122 20022 70000
AAXX 04184 71517 16/// /2719 10108 21016 60001 333 10108 20005 70000
AAXX 04184 71518 16/// /2227 10127 21008 60001 333 10127 20064 70000
AAXX 04184 71519 16/// /2119 10113 21013 60001 333 10113 20053 70000
AAXX 04184 71528 16/// /2328 10123 21019 60001 333 10123 20061 70000
AAXX 04184 71102 16/// ///// 11005 21043 60001 333 11001 21072 70000
AAXX 04184 71105 16/// ///// 10133 21012 60001 333 10133 20069 70000
AAXX 04184 71789 16/// ///// 10123 21023 60001 333 10123 20051 70000
AAXX 04184 71794 16/// ///// 10018 21017 60001 333 10018 21052 70000
AAXX 04184 71795 16/// ///// 10134 21012 60001 333 10134 20056 70000
AAXX 04184 71796 16/// ///// 10034 21008 60001 333 10052 21063 70000
AAXX 04184 71006 16/// /2318 10068 20003 60001 333 10068 21031 70000
AAXX 04184 71007 46/// ///// 10141 21038 6///1 333 10144 20049 7////
AAXX 04184 71008 16/// /2315 10105 21003 60001 333 10105 20025 70000
AAXX 04184 71009 16/// /1105 10052 20001 60001 333 10053 20012 70000
AAXX 04184 71012 16/// /1807 10019 21018 60001 333 10023 21044 70000
AAXX 04184 71035 16/// ///// 10115 21012 60001 333 10117 20019 70000
AAXX 04184 71433 46/// /3218 11017 21031 39843 40075 58002 6///1 333 10006 21085 7////
AAXX 04184 71841 16/// /3008 11055 21090 39685 40088 58011 60001 333 11055 21148 7////
BBXX VOXS 04184 99467 70480 41/90 91828 10085 2008/ 40035 56048 76366 89/// 22200 04018 20807 320// 40703 80084
BBXX VOXS 04184 99467 70480 41/90 91828 10085 2008/ 40035 56048 76366 89/// 22200 04018 20807 320// 40703 80084
AAXX 04181 98526 32570 83602 10250 20246 40115 58018 81277 333 56999 81820 83358 88274
AAXX 04181 98755 11575 82701 10243 20234 40100 58017 60041 70282 8357/ 333 56999 83620 88359
BBXX 44022 04181 99409 70737 46/// ///04 11051 21159 40195 91830 22200 00058 333 91206 555 11041 22041
AAXX 04184 89063 41195 82501 10016 20016 39871 49882 57006 71072 886// 333 42100
AAXX 04184 03158 17484 /2325 10048 20029 39750 49885 58077 69902 761// 91750 333 10060 553// 20000 84/19 84/71 90710 91140 91038
BBXX VRIB2 04184 99247 11195 41/97 80428 10110 20055 40257 57005 70222 8//// 22255 0//// 2//// 3//// 4//// 80080
BBXX DPFP 04184 99074 10957 41497 50820 10250 20250 40055 51/// 70222 85214 22234 00/// 20601 80250
BBXX DGZS2 04183 99064 10935 41498 70813 10280 20246 40110 52/// 70322 8677/ 22264 00280 20502 80255
BBXX A8SZ5 04184 99259 11238 41297 80223 10140 20085 40260 54000 703// 8/7// 22283 00/// 2//08 80110
BBXX A8VN4 04184 99318 11228 41297 73526 10052 21011 40312 5/008 70322 84724 22244 04040 20703 332// 41205 80026
BBXX 9VBS 04184 99221 11142 41/97 80213 10120 20079 40250 54000 70222 8//// 22200 00140 2//// 80100
BBXX DDZD2 04184 99057 10844 41897 51020 10/// 20/// 40110 54000 70355 8486/ 22225 00/// 2////
BBXX VOXS 04184 99467 70480 41/90 91828 10085 2008/ 40035 56048 76366 89/// 22200 04018 20807 320// 40703 80084
BBXX 46221 04181 99339 71186 46/// ///// 1//// 91815 22200 00150 11303 21002 327// 41303 70016
BBXX 46239 04181 99363 71221 46/// ///// 1//// 91821 22200 00125 11305 21003 328// 41304 70024
BBXX 46238 04181 99334 71195 46/// ///// 1//// 91820 22200 00140 11404 20902 329// 41404 70021
BBXX 42023 04181 99261 70831 46/// /0205 1//// 91830 333 91206
BBXX 42023 04181 99261 70831 46/// /0205 1//// 91800 333 91206
BBXX 41112 04181 99307 70813 46/// ///// 1//// 91821 22200 00149 10901 20901 70006
BBXX 46242 04181 99332 71174 46/// ///// 1//// 91828 22200 00152 11302 21001 324// 41302 70010
BBXX 46219 04181 99332 71199 46/// ///// 1//// 91828 22200 00142 11404 20902 329// 41404 70022
BBXX 46223 04181 99335 71178 46/// ///// 1//// 91830 22200 00153 11503 21001 327// 41502 70014
BBXX 46216 04181 99343 71198 46/// ///// 1//// 91827 22200 00142 11303 21002 326// 41302 70015
BBXX 46231 04181 99327 71174 46/// ///// 1//// 91824 22200 00149 11503 21002 327// 41503 70017
BBXX 46229 04181 99438 71246 46/// ///// 1//// 91821 22200 00099 11210 21007 326// 41206 70048
BBXX 46241 04181 99330 71173 46/// ///// 1//// 91811 22200 00146 11402 21001 327// 41402 70011
BBXX 51205 04181 99210 71564 46/// ///// 1//// 91818 22200 00243 11509 21003 332// 41508 70043
BBXX VRFH2 04183 99463 71712 41397 61408 10050 21020 40010 57020 7//22 86466 22224 00030 20805 309// 40805 80020
BBXX 9VDD2 04184 99265 71226 41/// /3621 10100 20060 40290 51010 7//// 8//// 22214 04050 2//// 80080
BBXX 46208 04181 99525 71327 46/// /1814 10070 49915 52010 22200 00070 11210 70050 333 91220
BBXX 46145 04181 99544 71324 46/// /1608 10076 49906 52023 22200 00069 10703 70014 333 91209
BBXX 44056 04181 99362 70757 46/// ///// 1//// 91750 22200 00092 10702 20702 70010
BBXX 42360 04181 99267 70905 46/// /3101 10175 91800 22200 00237 10601 70007 333 91202
BBXX VQGQ4 04184 99036 31454 41/98 72817 10270 20256 40090 50000 70211 832// 22234 00306 20402 80260
BBXX A8HJ8 04183 99012 11034 41/96 /0307 10250 20228 40120 52010 70200 8//// 22200 00/// 20101 80234
BBXX VRGW2 04183 99136 10505 41498 30410 10230 20185 40155 51013 70300 8216/ 22265 00/// 20301 80200
BBXX WDF7994 04184 99474 70871 41/98 83332 11033 2//// 40091 54000 70202 88/// 22263 00011 20505 3//// 4//// 5//// 6//// 8//// ICE /////
BBXX TFDRN 04184 99658 70212 46/// ///// 22200 10604 70022
BBXX TFNA 04181 99645 70141 42/98 30114 11007 49819 22212 00027
BBXX TFEA 04181 99645 70245 42/98 30609 11004 49865 22263 00066
BBXX 62023 04183 99514 70079 46/96 /2647 10102 2//// 40149 5//// 22200 10711 70053 333 91160 555 70091 81004
BBXX DCPI2 04183 99468 70074 41/97 /2634 10110 20072 40307 53017 70222 8//// 22254 00110 2//// 80090
BBXX 62094 04184 99517 70067 46/// /25// 10104 20081 40126 57020 22200 00103 10709 70045 333 90710 91144
BBXX 62095 04184 99531 70159 46/// /2528 10109 20102 40114 50003 22200 00111 10917 70084 333 90710 91144
BBXX 62094 04184 99517 70067 46/// /2532 10104 20081 40126 57020 22200 00103 10709 70045 333 90710 91144
BBXX 62163 04184 99475 70084 46/// /2526 10115 20074 40300 58004 22200 00123 10810 70049 333 90710 91136
BBXX 62103 04184 99499 70029 46/98 /2640 10108 20076 40190 55029 22200 00115 10807 70033 333 90710 91156
BBXX 62107 04184 99501 70061 46/// /2739 10109 20068 40199 57018 22200 00114 10909 70045 333 90710 91153
BBXX 64049 04183 99571 10022 41/97 82540 10074 20070 49830 54000 70211 8//// 22200 04082 20608 325// 40612 5//// 80072
BBXX 62170 04184 99514 10020 46/97 /2433 10097 20067 40122 58040 22200 00104 10703 70017 333 90710 91146
BBXX 62305 04184 99504 10000 46/97 /2539 10107 20070 40177 56030 22200 00113 10806 70029 333 90710 91154
BBXX 62304 04184 99511 10018 46/97 /2534 10100 20065 40135 58038 22200 00107 10704 70019 333 90710 91148
BBXX BAREU12 04184 99491 70068 46/// ///// 40226 57016 22221
BBXX BATFR14 04184 99405 70216 46/// /1412 10159 20125 40366 56003 22264 00160
BBXX TESTFR9 04184 99508 70011 46/// /2645 10094 29084 40147 57082 22273
BBXX A8VL5 04184 99514 10027 41397 82643 10070 20021 40240 57020 76022 887// 22200 00090 21010 30000 80050
BBXX 9VBM6 04183 99427 70101 41797 73302 10140 20105 40390 52000 7//22 86627 22243 00180 20302 3//// 40304 50304 6//// 80120 /////
BBXX BAREU63 04184 99325 10250 46/// /2810 10153 29042 40200 52003 22223
BBXX BAREU00 04184 99463 70244 46/// ///// 40340 52003 22263
BBXX 61002 04184 99421 10047 46/// ///34 10128 2//// 40274 52020 22200 00132 10807 70036 555 1/045
BBXX BATUK01 04184 99571 70017 46/// /2333 10064 20024 49827 58100 22282 00087
BBXX BATFR02 04184 99505 70008 46/// /2442 10102 20064 40158 22234 00109
BBXX BATFR46 04184 99362 70036 44/96 31702 10147 20119 40309 52002 70311 8//7/ 22223 00160 20000
BBXX BATFR52 04184 99508 70011 46/// /2334 10095 20062 40141 58076 22272 00087
BBXX 61001 04184 99434 10078 46/// /2308 10131 20093 40182 52028 22200 00135 10604 70019
BBXX KSDF 04184 99367 10130 41498 73030 10156 20117 40220 54000 71522 875// 22273 0//// 20202 330// 40504 5//// 6//// 80133
BBXX BATFR42 04184 99502 70017 46/// /2555 10099 20075 40159 22244 00120
BBXX BATFR54 04184 99437 70090 44/// 82513 10127 20082 4//// 703// 8//// 22262 00139 20202 33236 41006 51006
BBXX BATEU04 04184 99583 70219 46/// /2638 10064 20009 49926 53009 22223
BBXX BATEU08 04184 99569 10109 46/// /2830 10039 20020 49891 22283
BBXX BATEU09 04184 99401 10150 46/// /3020 10157 20109 40178 22232 00170
BBXX BATFR11 04184 99381 10014 46/// ///// 10155 20114 40300 53011 22212 00169
BBXX BATFR33 04184 99375 10032 46/// /3217 10154 20109 40289 22285 00159
BBXX BATFR22 04184 99433 10053 46/// /3331 10109 40243 22243 00140
BBXX BATFR24 04184 99427 10095 46/// /3316 10147 20075 40171 22214 00142
BBXX BATFR60 04184 99504 10007 46/// /2535 10104 20070 40175 56034 22222 00102
BBXX PDBP 04183 99393 10034 41498 23616 10158 20104 40289 53023 70322 82140 22253 04168 20302 80127
BBXX BAREU56 04184 99429 10060 46/// ///// 40213 57014 22222
BBXX TFSTD 04184 99664 70234 46/// ///// 22200 10605 70024
BBXX TFKGR 04184 99657 70136 46/// ///// 22200 10605 70026
BBXX TFGSK 04184 99641 70229 46/// ///// 22200 10605 70024
BBXX TFGRV 04184 99638 70225 46/// ///// 22200 10805 70025
BBXX TFSRT 04184 99633 70203 46/// ///// 22200 10907 70035
BBXX TFBKF 04184 99635 70202 46/// ///// 22200 10603 70017
BBXX TFHFN 04184 99642 70152 46/// ///// 22200 10803 70017
BBXX TFGRS 04184 99663 70182 46/// ///// 22200 10705 70023
AAXX 04184 71857 16/// ///// 11042 21058 60001 333 11036 21104 70000
AAXX 04184 71520 16/// /1511 11203 21225 39355 40048 58043 60001 333 11203 21223 70000
AAXX 04184 71521 16/// /1403 11192 21226 60001 333 11180 21226 70000
AAXX 04184 71523 17/// ///// 11205 21235 39677 40069 56041 69931 7//4/ 333 11205 21307 70003
AAXX 04184 71540 16/// /1403 10002 21031 60001 333 10046 21043 70000
AAXX 04184 71544 16/// ///// 10037 21012 60001 333 10039 21009 70014
AAXX 04184 71548 16/// ///// 10013 21036 60001 333 10013 21057 70000
AAXX 04184 71413 16/// ///// 10053 20010 60001 333 10053 21046 70000
AAXX 04184 71414 16/// ///// 11060 21067 60001 333 11028 21113 70000
AAXX 04184 71440 16/// ///// 10090 20004 60001 333 10091 20028 70000
AAXX 04184 71346 16/// /2018 10110 21010 60001 333 10110 20058 70000
AAXX 04184 71249 16/// /2109 10071 20001 60001 333 10071 7////
AAXX 04184 71360 16/// ///// 11006 21037 60001 333 10009 21076 70000
AAXX 04184 71380 16/// /0805 10067 21009 60001 333 10076 21007 70000
AAXX 04184 71383 16/// ///// 11193 21221 39438 40067 57044 60001 333 11193 21218 70000
AAXX 04184 71014 16/// /1915 10093 21012 60001 333 10093 20004 70000
AAXX 04184 71055 46/// /0513 11250 21277 39755 40105 58022 6///1 333 11250 21393 7////
AAXX 04184 71065 16/// ///// 11043 21056 60001 333 11035 21093 70000
AAXX 04184 71904 16/// ///// 10079 21003 60001 333 10082 20019 70000
AAXX 04184 71481 16/// /3103 10029 21023 60001 333 10052 21027 70000
AAXX 04184 71498 16/// /2010 10096 20000 60001 333 10096 20019 70000
AAXX 04184 71791 16/// /1604 11008 21038 60001 333 11001 21044 70000
AAXX 04184 71797 16/// ///// 10001 21033 60001 333 10013 21047 70000
AAXX 04184 71674 16/// ///// 10061 20000 60001 333 10061 21037 70000
AAXX 04184 71520 16/// /1511 11203 21225 39355 40048 58043 60001 333 11203 21223 70000
AAXX 04184 71521 16/// /1403 11192 21226 60001 333 11180 21226 70000
AAXX 04184 71523 17/// ///// 11205 21235 39677 40069 56041 69931 7//4/ 333 11205 21307 70003
AAXX 04184 71540 16/// /1403 10002 21031 60001 333 10046 21043 70000
AAXX 04184 71544 16/// ///// 10037 21012 60001 333 10039 21009 70014
AAXX 04184 71548 16/// ///// 10013 21036 60001 333 10013 21057 70000
AAXX 04184 71857 16/// ///// 11042 21058 60001 333 11036 21104 70000
AAXX 04184 71413 16/// ///// 10053 20010 60001 333 10053 21046 70000
AAXX 04184 71414 16/// ///// 11060 21067 60001 333 11028 21113 70000
AAXX 04184 71440 16/// ///// 10090 20004 60001 333 10091 20028 70000
AAXX 04184 71014 16/// /1915 10093 21012 60001 333 10093 20004 70000
AAXX 04184 71249 16/// /2109 10071 20001 60001 333 10071 7////
AAXX 04184 71791 16/// /1604 11008 21038 60001 333 11001 21044 70000
AAXX 04184 71797 16/// ///// 10001 21033 60001 333 10013 21047 70000
AAXX 04184 71674 16/// ///// 10061 20000 60001 333 10061 21037 70000
AAXX 04184 71904 16/// ///// 10079 21003 60001 333 10082 20019 70000
AAXX 04184 71346 16/// /2018 10110 21010 60001 333 10110 20058 70000
AAXX 04184 71481 16/// /3103 10029 21023 60001 333 10052 21027 70000
AAXX 04184 71498 16/// /2010 10096 20000 60001 333 10096 20019 70000
AAXX 04184 71360 16/// ///// 11006 21037 60001 333 10009 21076 70000
AAXX 04184 71380 16/// /0805 10067 21009 60001 333 10076 21007 70000
AAXX 04184 71383 16/// ///// 11193 21221 39438 40067 57044 60001 333 11193 21218 70000
AAXX 04184 71055 46/// /0513 11250 21277 39755 40105 58022 6///1 333 11250 21393 7////
AAXX 04184 71065 16/// ///// 11043 21056 60001 333 11035 21093 70000
AAXX 04184 84425 31460 79902 10305 20241 39940 40149 70122 8323/ 333 5689/ 58018 83818 84360
AAXX 04184 84658 41460 81204 10305 20252 39872 40107 70222 8811/ 333 5609/ 58008 86810 82460
AAXX 04184 84534 31660 4//// 10292 20222 39390 40096 7012/ 82203 333 56909 59010 82840 83371
AAXX 04184 84452 31760 62012 10290 20205 30119 40149 70302 865// 333 560// 58019 86656
AAXX 04184 84542 31665 33510 10230 20079 37350 7020/ 83800 333 56900 58000 83840
AAXX 04184 84401 31560 81904 10310 20196 30097 40140 70222 885// 333 560// 58013 85615 83620
AAXX 04184 84688 31459 83607 10140 20074 36673 70224 886// 333 569// 59009 83615 86640
AAXX 04184 84673 31662 30208 10231 20082 37341 71500 83200 333 56900 58011 83846
AAXX 04184 84628 34960 22607 10276 20197 30131 40147 70211 80001 333 56001 58012 81076
AAXX 04184 84686 31665 81009 10142 20064 36878 71522 8512/ 333 56990 58006 82840 83650 85458
AAXX 04184 84515 31460 63304 10300 20231 39949 40122 70124 862// 333 569// 58006 86817
AAXX 04184 84752 32257 82609 10137 20119 37548 70225 885// 333 569// 58015 85605 83608
AAXX 04184 84720 31960 42805 10342 20223 39510 40177 70300 84030 333 56090 58019 84365
AAXX 04184 84782 31663 42210 10269 20164 39632 40126 70222 8453/ 333 5617/ 58015 81650 83360
AAXX 04184 89266 46/// /1905 11035 21058 39739 49877 52005 91800
AAXX 04184 89272 46/// /2309 11113 21134 38073 49711 52003 91800
AAXX 04184 89257 46/// /2414 11070 21089 39782 49852 57002 91800
AAXX 04184 89065 46/// /9902 10008 21054 39824 49901 5//// 91800
AAXX 0418/ 89767 46/// ///// 4//// 5////
AAXX 04184 61901 169// /1109 10175 20144 39663 40170 56006 69922 91750 333 10196 8//99 555 7/090
AAXX 04184 88903 45/// /2820 10036 21016 39898 49898 53003
AAXX 04184 41431 42960 00000 10250 20221 30117 40130 91843 333 10282 59015
AAXX 04184 89065 46/// /9902 10008 21054 39824 49901 5//// 91800
AAXX 04184 89013 46/// /0705 11171 21212 37631 49635 57007 91750
AAXX 04184 89065 46/// /9902 10012 21053 39824 49901 57004 91750
AAXX 04184 89257 46/// /2413 11069 21088 39783 49853 57002 91750
AAXX 04184 89262 46/// /1906 11008 21041 39825 49868 57003 91800
AAXX 04184 89272 46/// /2310 11114 21136 38072 49711 52004 91750
AAXX 04184 83914 31596 22308 10286 20112 39352 40105 57004 70510 82200
AAXX 04184 83881 32497 33204 10326 20142 39785 40066 57015 83200
BBXX 46145 04181 99544 71324 46/// /1608 10076 49906 52023 22200 00069 10703 70014 333 91209
BBXX 46208 04181 99525 71327 46/// /1814 10070 49915 52010 22200 00070 11210 70050 333 91220
BBXX 9V7645 04183 99517 71384 41697 81930 10060 20060 49840 57010 70222 887// 22264 04075 20303 322// 40609 5//// 6//// 80060 ICE /////
BBXX 46222 04181 99336 71183 46/// ///// 1//// 91826 22200 00150 11503 21002 327// 41503 70016
AAXX 04181 58968 11558 80905 10105 20084 30259 40267 58006 69901 75152 887//
AAXX 04181 58974 46/// /0208 10100 20065 30151 40280 57004
AAXX 04181 59358 31650 83602 10117 20073 30203 40236 50003 70522 885//
AAXX 04181 59559 32570 50406 10171 20122 30180 40209 55008 85400
AAXX 04181 59792 11458 80310 10178 20162 30204 40209 58004 69901 75055 8542/
AAXX 04181 59997 11458 80507 10270 20240 30114 40122 57011 60201 71022 8382/
AAXX 04181 59158 32660 83502 10114 20063 30125 40229 55001 885//
AAXX 04181 59562 32665 83302 10138 20097 30226 40238 58010 885//
AAXX 04181 59567 46/// /0109 10141 20139 39833 40221 58010
AAXX 04184 91844 46/// /2203 10261 40121 22200 00270
BBXX A8VN4 04184 99318 11228 41297 73526 10052 21011 40312 5/008 70322 84724 22244 04040 20703 332// 41205 80026
BBXX VRFH2 04183 99463 71712 41397 61408 10050 21020 40010 57020 7//22 86466 22224 00030 20805 309// 40805 80020
BBXX 62163 04184 99475 70084 46/// /2627 10104 20063 40302 58004 22200 00123 10809 70047 333 90710 91136
BBXX PJGO 04184 99571 10022 47/96 /2333 10058 49863 57070 762// 22200
BBXX 63106 04184 99610 10017 46/// /2809 10046 49776 57041 22200
BBXX 63105 04184 99610 10017 47998 ///// 10052 21001 49776 57042 700// 22200
BBXX 62103 04184 99499 70029 46/98 /2740 10109 20074 40184 57022 22200 00115 10808 70039 333 90710 91158
BBXX 62094 04184 99517 70067 46/// /25// 10104 20081 40126 57020 22200 00103 10709 70045 333 90710 91144
BBXX WTC9407 04184 99440 70874 41/98 73212 10016 2//// 40129 54000 70222 81617 22282 00056 20202 3//// 4//// 5//// 6//// 8//// ICE /////
BBXX PHAL 04183 99238 70171 41996 00516 10202 20148 40199 53011 70200 80000 22212 20202 302// 40604 80168 91155
BBXX 46222 04181 99336 71183 46/// ///// 1//// 91826 22200 00150 11503 21002 327// 41503 70016
BBXX ZCDF4 04183 99216 70764 41598 50528 10208 20155 40237 57016 70111 83580 22235 00260 20401 335// 40402 5//// 80176
BBXX 9HXC9 04184 99172 70627 41598 30715 10271 20179 40138 56003 7//11 83100 22200 04279 20000 3//// 40000 5//// 6//// 80209 ICE /////
OOXX CMP13 04151 99038 10102 ///// 01281 26/// /2301 10304 29058 39951 91540 333 60000
OOXX CMP13 04151 99038 10102 ///// 01281 26/// /2201 10302 29060 39953 91550 333 60000
OOXX CMP13 04161 99038 10102 ///// 01281 26/// /2201 10299 29061 39953 91600 333 60000
OOXX CMP13 04161 99038 10102 ///// 01281 26/// /2201 10295 29063 39954 91610 333 60000
OOXX CMP13 04161 99038 10102 ///// 01281 26/// /2101 10291 29066 39953 91620 333 60000
OOXX CMP13 04161 99038 10102 ///// 01281 26/// /2102 10286 29068 39955 91630 333 60000
OOXX CMP13 04161 99038 10102 ///// 01281 26/// /2001 10283 29071 39956 91640 333 60000
OOXX CMP13 04161 99038 10102 ///// 01281 26/// /2002 10279 29073 39958 91650 333 60000
OOXX CMP13 04171 99038 10102 ///// 01281 26/// /1901 10276 29075 39960 91700 333 60000
OOXX CMP13 04171 99038 10102 ///// 01281 26/// /2002 10274 29075 39961 91710 333 60000
OOXX CMP13 04171 99038 10102 ///// 01281 26/// /2001 10270 29077 39962 91720 333 60000
OOXX CMP13 04171 99038 10102 ///// 01281 26/// /1901 10266 29079 39964 91730 333 60000
OOXX FRP31 04161 99052 70527 ///// 00091 26/// /0308 10284 29073 30212 91614 333 60000
OOXX FRP31 04161 99052 70527 ///// 00091 26/// /0407 10287 29072 30207 91624 333 60000
OOXX FRP31 04161 99052 70527 ///// 00091 26/// /0308 10286 29073 30206 91634 333 60000
OOXX FRP31 04161 99052 70527 ///// 00091 26/// /0407 10283 29074 30207 91644 333 60000
OOXX FRP31 04161 99052 70527 ///// 00091 26/// /0408 10282 29074 30202 91654 333 60000
OOXX FRP31 04171 99052 70527 ///// 00091 26/// /0308 10284 29072 30199 91704 333 60000
OOXX FRP31 04171 99052 70527 ///// 00091 26/// /0408 10285 29073 30195 91714 333 60000
OOXX FRP31 04171 99052 70527 ///// 00091 26/// /0408 10281 29074 30197 91724 333 60000
OOXX FRP31 04171 99052 70527 ///// 00091 26/// /0408 10283 29074 30194 91734 333 60000
OOXX FRP31 04171 99052 70527 ///// 00091 26/// /0308 10283 29073 30194 91744 333 60000
OOXX FRP31 04171 99052 70527 ///// 00091 26/// /0308 10284 29073 30194 91754 333 60000
OOXX FRP31 04181 99052 70527 ///// 00091 26/// /0409 10275 29076 30194 91804 333 60000
OOXX RUP54 04161 99586 10494 ///// 01271 26/// /0605 11086 29089 39943 91628 333 60120
OOXX RUP54 04161 99586 10494 ///// 01271 26/// /0605 11086 29089 39943 91638 333 60120
OOXX RUP54 04161 99586 10494 ///// 01271 26/// /0605 11086 29089 39942 91648 333 60120
OOXX RUP54 04161 99586 10494 ///// 01271 26/// /0605 11086 29089 39941 91658 333 60120
OOXX RUP54 04171 99586 10494 ///// 01271 26/// /0604 11086 29089 39941 91708 333 60120
OOXX RUP54 04171 99586 10494 ///// 01271 26/// /0604 11086 29089 39939 91718 333 60120
OOXX RUP54 04171 99586 10494 ///// 01271 26/// /0604 11086 29089 39938 91728 333 60120
OOXX RUP54 04171 99586 10494 ///// 01271 26/// /0605 11087 29089 39937 91738 333 60120
OOXX RUP54 04171 99586 10494 ///// 01271 26/// /0605 11087 29089 39937 91748 333 60120
OOXX RUP54 04171 99586 10494 ///// 01271 26/// /0605 11087 29089 39938 91758 333 60120
OOXX RUP54 04181 99586 10494 ///// 01271 26/// /0604 11086 29089 39938 91808 333 60120
OOXX RUP54 04181 99586 10494 ///// 01271 26/// /0604 11086 29089 39937 91818 333 60120
OOXX RUP58 04161 99442 11320 ///// 01121 26/// /0000 11167 29059 30050 91652 333 60000
OOXX RUP58 04171 99442 11320 ///// 01121 26/// /1901 11173 29061 30052 91702 333 60000
OOXX RUP58 04171 99442 11320 ///// 01121 26/// /2201 11175 29062 30053 91712 333 60000
OOXX RUP58 04171 99442 11320 ///// 01121 26/// /1801 11171 29063 30053 91722 333 60000
OOXX RUP58 04171 99442 11320 ///// 01121 26/// /0701 11164 29061 30053 91732 333 60000
OOXX RUP58 04171 99442 11320 ///// 01121 26/// /1501 11165 29060 30055 91742 333 60000
OOXX RUP58 04171 99442 11320 ///// 01121 26/// /1601 11163 29060 30056 91752 333 60000
OOXX RUP58 04181 99442 11320 ///// 01121 26/// /0000 11159 29058 30056 91802 333 60000
OOXX RUP58 04181 99442 11320 ///// 01121 26/// /0601 11159 29058 30056 91812 333 60000
OOXX RUP58 04181 99442 11320 ///// 01121 26/// /1701 11164 29058 30057 91822 333 60000
OOXX RUP58 04181 99442 11320 ///// 01121 26/// /1201 11168 29059 30057 91832 333 60000
OOXX RUP58 04181 99442 11320 ///// 01121 26/// /1001 11165 29059 30058 91842 333 60000
OOXX PTP53 04161 99377 70257 ///// 00121 26/// /1009 10163 29001 30240 91610 333 60000
OOXX PTP53 04161 99377 70257 ///// 00121 26/// /0908 10162 29001 30241 91620 333 60000
OOXX PTP53 04161 99377 70257 ///// 00121 26/// /1007 10163 29001 30241 91630 333 60000
OOXX PTP53 04161 99377 70257 ///// 00121 26/// /0806 10166 29001 30242 91640 333 60000
OOXX PTP53 04161 99377 70257 ///// 00121 26/// /0906 10170 29001 30243 91650 333 60000
OOXX PTP53 04171 99377 70257 ///// 00121 26/// /0807 10171 29001 30244 91700 333 60000
OOXX PTP53 04171 99377 70257 ///// 00121 26/// /0707 10172 29001 30245 91710 333 60000
OOXX PTP53 04171 99377 70257 ///// 00121 26/// /0607 10170 29001 30245 91720 333 60000
OOXX PTP53 04171 99377 70257 ///// 00121 26/// /0807 10174 29001 30245 91730 333 60000
OOXX PTP53 04171 99377 70257 ///// 00121 26/// /0808 10175 29001 30245 91740 333 60000
OOXX PTP53 04171 99377 70257 ///// 00121 26/// /0907 10177 29001 30246 91750 333 60000
OOXX PTP53 04181 99377 70257 ///// 00121 26/// /0908 10176 29001 30246 91800 333 60000
OOXX KIP39 04161 99020 51574 ///// 00181 26/// /1103 10250 29090 30132 91630 333 60000
OOXX KIP39 04161 99020 51574 ///// 00181 26/// /1103 10251 29090 30134 91640 333 60000
OOXX KIP39 04161 99020 51574 ///// 00181 26/// /1103 10252 29090 30134 91650 333 60000
OOXX KIP39 04171 99020 51574 ///// 00181 26/// /1104 10253 29089 30135 91700 333 60000
OOXX KIP39 04171 99020 51574 ///// 00181 26/// /1103 10252 29089 30137 91710 333 60000
OOXX KIP39 04171 99020 51574 ///// 00181 26/// /1203 10251 29088 30139 91720 333 60000
OOXX KIP39 04171 99020 51574 ///// 00181 26/// /1203 10255 29089 30140 91730 333 60000
OOXX KIP39 04171 99020 51574 ///// 00181 26/// /1103 10259 29089 30142 91740 333 60000
OOXX KIP39 04171 99020 51574 ///// 00181 26/// /1103 10261 29088 30142 91750 333 60000
OOXX KIP39 04181 99020 51574 ///// 00181 26/// /1103 10261 29087 30144 91800 333 60000
OOXX KIP39 04181 99020 51574 ///// 00181 26/// /1003 10264 29087 30144 91810 333 60000
OOXX KIP39 04181 99020 51574 ///// 00181 26/// /1003 10266 29087 30145 91820 333 60000
OOXX AUP09 04161 99124 31309 ///// 00321 26/// ///// 1//// 29/// 3//// 91650 333 6///0
OOXX AUP09 04171 99124 31309 ///// 00321 26/// ///// 1//// 29/// 3//// 91700 333 6///0
OOXX AUP09 04171 99124 31309 ///// 00321 26/// ///// 1//// 29/// 3//// 91710 333 6///0
OOXX AUP09 04171 99124 31309 ///// 00321 26/// ///// 1//// 29/// 3//// 91720 333 6///0
OOXX AUP09 04171 99124 31309 ///// 00321 26/// ///// 1//// 29/// 3//// 91730 333 6///0
OOXX AUP09 04171 99124 31309 ///// 00321 26/// ///// 1//// 29/// 3//// 91740 333 6///0
OOXX AUP09 04171 99124 31309 ///// 00321 26/// ///// 1//// 29/// 3//// 91750 333 6///0
OOXX AUP09 04181 99124 31309 ///// 00321 26/// ///// 1//// 29/// 3//// 91800 333 6///0
OOXX AUP09 04181 99124 31309 ///// 00321 26/// ///// 1//// 29/// 3//// 91810 333 6///0
OOXX AUP09 04181 99124 31309 ///// 00321 26/// ///// 1//// 29/// 3//// 91820 333 6///0
OOXX AUP09 04181 99124 31309 ///// 00321 26/// ///// 1//// 29/// 3//// 91830 333 6///0
OOXX AUP09 04181 99124 31309 ///// 00321 26/// ///// 1//// 29/// 3//// 91840 333 6///0
OOXX AUP07 04161 99/// ///// ///// ///// 26/// /2413 10040 29078 39858 91653 333 60000
OOXX AUP07 04171 99/// ///// ///// ///// 26/// /2411 10040 29081 39859 91703 333 60000
OOXX AUP07 04171 99/// ///// ///// ///// 26/// /2412 10041 29081 39859 91713 333 60000
OOXX AUP07 04171 99/// ///// ///// ///// 26/// /2413 10037 29084 39860 91723 333 60000
OOXX AUP07 04171 99/// ///// ///// ///// 26/// /2511 10039 29083 39862 91733 333 60000
OOXX AUP07 04171 99/// ///// ///// ///// 26/// /2311 10036 29084 39863 91743 333 60000
OOXX AUP07 04171 99/// ///// ///// ///// 26/// /2412 10039 29085 39865 91753 333 60000
OOXX AUP07 04181 99/// ///// ///// ///// 26/// /2412 10038 29084 39866 91803 333 60000
OOXX AUP07 04181 99/// ///// ///// ///// 26/// /2411 10040 29084 39866 91813 333 60000
OOXX AUP07 04181 99/// ///// ///// ///// 26/// /2510 10043 29084 39866 91823 333 60000
OOXX AUP07 04181 99/// ///// ///// ///// 26/// /2610 10047 29080 39866 91833 333 60000
OOXX AUP07 04181 99/// ///// ///// ///// 26/// /2612 10047 29077 39866 91843 333 60000
OOXX RUP60 04161 99531 11588 ///// 00651 26/// /0708 11055 29055 30019 91652 333 60000
OOXX RUP60 04171 99531 11588 ///// 00651 26/// /0410 11056 29058 30019 91702 333 60000
OOXX RUP60 04171 99531 11588 ///// 00651 26/// /0413 11056 29058 30016 91712 333 60000
OOXX RUP60 04171 99531 11588 ///// 00651 26/// /0509 11058 29059 30018 91722 333 60000
OOXX RUP60 04171 99531 11588 ///// 00651 26/// /0710 11059 29057 30018 91732 333 60000
OOXX RUP60 04171 99531 11588 ///// 00651 26/// /0409 11059 29057 30019 91742 333 60000
OOXX RUP60 04171 99531 11588 ///// 00651 26/// /0508 11059 29058 30018 91752 333 60000
OOXX RUP60 04181 99531 11588 ///// 00651 26/// /0108 11060 29060 30017 91802 333 60000
OOXX RUP60 04181 99531 11588 ///// 00651 26/// /0308 11060 29059 30019 91812 333 60000
OOXX RUP60 04181 99531 11588 ///// 00651 26/// /0510 11060 29060 30019 91822 333 60000
OOXX RUP60 04181 99531 11588 ///// 00651 26/// /0607 11062 29061 30019 91832 333 60000
OOXX RUP60 04181 99531 11588 ///// 00651 26/// /0712 11062 29060 30018 91842 333 60000
OOXX MXP44 04161 99280 71140 ///// 00041 26/// /1422 10134 29054 30197 91610 333 60000
OOXX MXP44 04161 99280 71140 ///// 00041 26/// /1422 10140 29055 30198 91620 333 60000
OOXX MXP44 04161 99280 71140 ///// 00041 26/// /1422 10147 29055 30198 91630 333 60000
OOXX MXP44 04161 99280 71140 ///// 00041 26/// /1422 10154 29055 30200 91640 333 60000
OOXX MXP44 04161 99280 71140 ///// 00041 26/// /1422 10169 29055 30201 91650 333 60000
OOXX MXP44 04171 99280 71140 ///// 00041 26/// /1422 10178 29055 30202 91700 333 60000
OOXX MXP44 04171 99280 71140 ///// 00041 26/// /1422 10179 29055 30202 91710 333 60000
OOXX MXP44 04171 99280 71140 ///// 00041 26/// /1422 10178 29055 30204 91720 333 60000
OOXX MXP44 04171 99280 71140 ///// 00041 26/// /1422 10185 29055 30203 91730 333 60000
OOXX MXP44 04171 99280 71140 ///// 00041 26/// /1422 10190 29056 30201 91740 333 60000
OOXX MXP44 04171 99280 71140 ///// 00041 26/// /1422 10191 29056 30200 91750 333 60000
OOXX MXP44 04181 99280 71140 ///// 00041 26/// /1422 10196 29056 30199 91800 333 60000
OOXX ISP34 04161 99641 70219 ///// 01301 26/// /0902 11001 29001 39744 91610 333 6///0
OOXX ISP34 04161 99641 70219 ///// 01301 26/// /0802 10000 29001 39745 91620 333 6///0
OOXX ISP34 04161 99641 70219 ///// 01301 26/// /0902 11001 29001 39749 91630 333 6///0
OOXX ISP34 04161 99641 70219 ///// 01301 26/// /0702 11001 29002 39751 91640 333 6///0
OOXX ISP34 04161 99641 70219 ///// 01301 26/// /0702 11002 29002 39753 91650 333 6///0
OOXX ISP34 04171 99641 70219 ///// 01301 26/// /0502 11002 29002 39755 91700 333 6///0
OOXX ISP34 04171 99641 70219 ///// 01301 26/// /0402 11004 29002 39758 91710 333 6///0
OOXX ISP34 04171 99641 70219 ///// 01301 26/// /0402 11004 29002 39759 91720 333 6///0
OOXX ISP34 04171 99641 70219 ///// 01301 26/// /0502 11005 29002 39761 91730 333 6///0
OOXX ISP34 04171 99641 70219 ///// 01301 26/// /0602 11003 29002 39763 91740 333 6///0
OOXX ISP34 04171 99641 70219 ///// 01301 26/// /0702 11005 29003 39766 91750 333 6///0
OOXX ISP34 04181 99641 70219 ///// 01301 26/// /0702 11008 29003 39768 91800 333 6///0
OOXX SEP63 04161 99594 10180 ///// 00401 26/// /1406 10029 29081 39700 91610 333 60000
OOXX SEP63 04161 99594 10180 ///// 00401 26/// /1105 10029 29081 39700 91620 333 60000
OOXX SEP63 04161 99594 10180 ///// 00401 26/// /1006 10029 29081 39700 91630 333 60000
OOXX SEP63 04161 99594 10180 ///// 00401 26/// /0906 10029 29081 39700 91640 333 60000
OOXX SEP63 04161 99594 10180 ///// 00401 26/// /1206 10029 29080 39710 91650 333 60000
OOXX SEP63 04171 99594 10180 ///// 00401 26/// /1106 10030 29080 39710 91700 333 60000
OOXX SEP63 04171 99594 10180 ///// 00401 26/// /1006 10030 29080 39710 91710 333 60000
OOXX SEP63 04171 99594 10180 ///// 00401 26/// /1104 10030 29080 39710 91720 333 60000
OOXX SEP63 04171 99594 10180 ///// 00401 26/// /1305 10029 29079 39710 91730 333 60000
OOXX SEP63 04171 99594 10180 ///// 00401 26/// /0806 10029 29079 39710 91740 333 60000
OOXX SEP63 04171 99594 10180 ///// 00401 26/// /1505 10029 29079 39710 91750 333 60000
OOXX SEP63 04181 99594 10180 ///// 00401 26/// /1005 10030 29079 39710 91800 333 60000
OOXX CAP14 04161 99487 71234 ///// 00431 26/// /1501 10084 29089 30085 91640 333 69940
OOXX CAP14 04161 99487 71234 ///// 00431 26/// /1401 10084 29089 30086 91650 333 69920
OOXX CAP14 04171 99487 71234 ///// 00431 26/// /1301 10084 29090 30087 91700 333 69960
OOXX CAP14 04171 99487 71234 ///// 00431 26/// /1001 10086 29090 30088 91710 333 69940
OOXX CAP14 04171 99487 71234 ///// 00431 26/// /0701 10088 29090 30088 91720 333 69920
OOXX CAP14 04171 99487 71234 ///// 00431 26/// /0000 10090 29090 30089 91730 333 69920
OOXX CAP14 04171 99487 71234 ///// 00431 26/// /1001 10089 29090 30090 91740 333 69940
OOXX CAP14 04171 99487 71234 ///// 00431 26/// /1102 10085 29090 30094 91750 333 69920
OOXX CAP14 04181 99487 71234 ///// 00431 26/// /1001 10088 29091 30095 91800 333 60000
OOXX CAP14 04181 99487 71234 ///// 00431 26/// /1001 10090 29091 30098 91810 333 69920
OOXX CAP14 04181 99487 71234 ///// 00431 26/// /1102 10091 29090 30095 91820 333 60000
OOXX CAP14 04181 99487 71234 ///// 00431 26/// /1103 10090 29090 30093 91830 333 69920
OOXX GBP68 04161 99371 50123 ///// 00641 26/// /3507 10009 29000 30037 91610 333 60000
OOXX GBP68 04161 99371 50123 ///// 00641 26/// /3507 10008 29000 30036 91620 333 60000
OOXX GBP68 04161 99371 50123 ///// 00641 26/// /3508 10008 29000 30037 91630 333 60000
OOXX GBP68 04161 99371 50123 ///// 00641 26/// /3508 10008 29000 30035 91640 333 60000
OOXX GBP68 04161 99371 50123 ///// 00641 26/// /3508 10008 29000 30034 91650 333 60000
OOXX GBP68 04171 99371 50123 ///// 00641 26/// /3507 10007 29000 30033 91700 333 60000
OOXX GBP68 04171 99371 50123 ///// 00641 26/// /3508 10009 29000 30032 91710 333 60000
OOXX GBP68 04171 99371 50123 ///// 00641 26/// /3508 10008 29000 30032 91720 333 60000
OOXX GBP68 04171 99371 50123 ///// 00641 26/// /3508 10008 29000 30031 91730 333 60000
OOXX GBP68 04171 99371 50123 ///// 00641 26/// /3507 10008 29000 30031 91740 333 60000
OOXX GBP68 04171 99371 50123 ///// 00641 26/// /3507 10010 29000 30030 91750 333 60000
OOXX GBP68 04181 99371 50123 ///// 00641 26/// /3508 10009 29000 30028 91800 333 60000
OOXX ARP03 04161 99412 50712 ///// 08491 26/// /2901 10312 29010 39199 91610 333 60000
OOXX ARP03 04161 99412 50712 ///// 08491 26/// /2901 10311 29010 39197 91620 333 60000
OOXX ARP03 04161 99412 50712 ///// 08491 26/// /2701 10315 29011 39196 91630 333 60000
OOXX ARP03 04161 99412 50712 ///// 08491 26/// /2701 10315 29011 39196 91640 333 60000
OOXX ARP03 04161 99412 50712 ///// 08491 26/// /2601 10317 29010 39194 91650 333 60000
OOXX ARP03 04171 99412 50712 ///// 08491 26/// /2802 10319 29011 39194 91700 333 60000
OOXX ARP03 04171 99412 50712 ///// 08491 26/// /2802 10314 29012 39193 91710 333 60000
OOXX ARP03 04171 99412 50712 ///// 08491 26/// /2802 10325 29012 39191 91720 333 60000
OOXX ARP03 04171 99412 50712 ///// 08491 26/// /2802 10316 29013 39189 91730 333 60000
OOXX ARP03 04171 99412 50712 ///// 08491 26/// /2502 10318 29013 39189 91740 333 60000
OOXX ARP03 04171 99412 50712 ///// 08491 26/// /2502 10313 29013 39188 91750 333 60000
OOXX ARP03 04181 99412 50712 ///// 08491 26/// /2402 10318 29013 39188 91800 333 60000
OOXX MRP43 04161 99181 70159 ///// 00101 26/// /0706 10304 29006 30132 91650 333 60000
OOXX MRP43 04171 99181 70159 ///// 00101 26/// /0805 10303 29006 30134 91700 333 60000
OOXX MRP43 04171 99181 70159 ///// 00101 26/// /0905 10300 29006 30136 91710 333 60000
OOXX MRP43 04171 99181 70159 ///// 00101 26/// /0904 10300 29006 30136 91720 333 60000
OOXX MRP43 04171 99181 70159 ///// 00101 26/// /0704 10300 29006 30136 91730 333 60000
OOXX MRP43 04171 99181 70159 ///// 00101 26/// /0705 10301 29006 30136 91740 333 60000
OOXX MRP43 04171 99181 70159 ///// 00101 26/// /0705 10298 29006 30139 91750 333 60000
OOXX MRP43 04181 99181 70159 ///// 00101 26/// /0604 10295 29006 30139 91800 333 60000
OOXX MRP43 04181 99181 70159 ///// 00101 26/// /0504 10292 29006 30141 91810 333 60000
OOXX MRP43 04181 99181 70159 ///// 00101 26/// /0504 10289 29006 30142 91820 333 60000
OOXX MRP43 04181 99181 70159 ///// 00101 26/// /0403 10287 29006 30143 91830 333 60000
OOXX MRP43 04181 99181 70159 ///// 00101 26/// /0303 10284 29007 30145 91840 333 60000
OOXX MYP42 04161 99045 11014 ///// 15551 26/// /0205 10170 29088 38442 91614 333 60000
OOXX MYP42 04161 99045 11014 ///// 15551 26/// /0907 10166 29088 38442 91624 333 60000
OOXX MYP42 04161 99045 11014 ///// 15551 26/// /0212 10170 29087 38432 91634 333 60000
OOXX MYP42 04161 99045 11014 ///// 15551 26/// /0105 10170 29088 38431 91644 333 60000
OOXX MYP42 04161 99045 11014 ///// 15551 26/// /0204 10168 29088 38445 91654 333 60000
OOXX MYP42 04171 99045 11014 ///// 15551 26/// /0704 10166 29089 38431 91704 333 60000
OOXX MYP42 04171 99045 11014 ///// 15551 26/// /2503 10167 29089 38449 91714 333 60000
OOXX MYP42 04171 99045 11014 ///// 15551 26/// /2005 10170 29089 38440 91724 333 60000
OOXX MYP42 04171 99045 11014 ///// 15551 26/// /0804 10168 29088 38442 91734 333 60000
OOXX MYP42 04171 99045 11014 ///// 15551 26/// /0502 10167 29087 38455 91744 333 60000
OOXX MYP42 04171 99045 11014 ///// 15551 26/// /0804 10166 29087 38438 91754 333 60000
OOXX MYP42 04181 99045 11014 ///// 15551 26/// /1201 10170 29088 38434 91804 333 60000
OOXX PAP50 04151 99090 70795 ///// 00901 26/// /0205 10298 29041 30047 91550 333 60000
OOXX PAP50 04161 99090 70795 ///// 00901 26/// /0106 10292 29043 30046 91600 333 60000
OOXX PAP50 04161 99090 70795 ///// 00901 26/// /0205 10292 29042 30045 91610 333 60000
OOXX PAP50 04161 99090 70795 ///// 00901 26/// /0107 10293 29043 30044 91620 333 60000
OOXX PAP50 04161 99090 70795 ///// 00901 26/// /0306 10297 29040 30042 91630 333 60000
OOXX PAP50 04161 99090 70795 ///// 00901 26/// /0106 10302 29037 30040 91640 333 60000
OOXX PAP50 04161 99090 70795 ///// 00901 26/// /0205 10308 29036 30038 91650 333 60000
OOXX PAP50 04171 99090 70795 ///// 00901 26/// /0205 10307 29039 30038 91700 333 60000
OOXX PAP50 04171 99090 70795 ///// 00901 26/// /3606 10303 29040 30036 91710 333 60000
OOXX PAP50 04171 99090 70795 ///// 00901 26/// /0205 10306 29037 30035 91720 333 60000
OOXX PAP50 04171 99090 70795 ///// 00901 26/// /0205 10310 29035 30033 91730 333 60000
OOXX PAP50 04171 99090 70795 ///// 00901 26/// /0207 10303 29037 30031 91740 333 60000
OOXX ARP01 04161 99345 50585 ///// 00311 26/// /1101 10109 29035 30155 91610 333 60000
OOXX ARP01 04161 99345 50585 ///// 00311 26/// /1101 10110 29034 30154 91620 333 60000
OOXX ARP01 04161 99345 50585 ///// 00311 26/// /1101 10111 29034 30152 91630 333 60000
OOXX ARP01 04161 99345 50585 ///// 00311 26/// /0000 10111 29034 30152 91640 333 60000
OOXX ARP01 04161 99345 50585 ///// 00311 26/// /1101 10112 29034 30152 91650 333 60000
OOXX ARP01 04171 99345 50585 ///// 00311 26/// /1101 10113 29034 30151 91700 333 60000
OOXX ARP01 04171 99345 50585 ///// 00311 26/// /0000 10115 29033 30151 91710 333 60000
OOXX ARP01 04171 99345 50585 ///// 00311 26/// /0000 10117 29031 30151 91720 333 60000
OOXX ARP01 04171 99345 50585 ///// 00311 26/// /0000 10118 29029 30150 91730 333 60000
OOXX ARP01 04171 99345 50585 ///// 00311 26/// /0000 10116 29026 30149 91740 333 60000
OOXX ARP01 04171 99345 50585 ///// 00311 26/// /0000 10120 29027 30148 91750 333 60000
OOXX ARP01 04181 99345 50585 ///// 00311 26/// /1101 10121 29026 30147 91800 333 60000
OOXX FJP26 04161 99178 31775 ///// 00311 26/// /1002 10253 29091 30041 91620 333 60000
OOXX FJP26 04161 99178 31775 ///// 00311 26/// /1002 10253 29090 30040 91630 333 60000
OOXX FJP26 04161 99178 31775 ///// 00311 26/// /1002 10253 29090 30041 91640 333 60000
OOXX FJP26 04161 99178 31775 ///// 00311 26/// /1202 10253 29090 30043 91650 333 60000
OOXX FJP26 04171 99178 31775 ///// 00311 26/// /1201 10252 29091 30043 91700 333 60000
OOXX FJP26 04171 99178 31775 ///// 00311 26/// /1202 10251 29092 30045 91710 333 60000
OOXX FJP26 04171 99178 31775 ///// 00311 26/// /1302 10250 29092 30046 91720 333 60000
OOXX FJP26 04171 99178 31775 ///// 00311 26/// /1202 10250 29093 30046 91730 333 60000
OOXX FJP26 04171 99178 31775 ///// 00311 26/// /1202 10250 29093 30048 91740 333 60000
OOXX FJP26 04171 99178 31775 ///// 00311 26/// /1102 10250 29093 30048 91750 333 60000
OOXX FJP26 04181 99178 31775 ///// 00311 26/// /1101 10251 29092 30049 91800 333 60000
OOXX FJP26 04181 99178 31775 ///// 00311 26/// /0701 10253 29091 30050 91810 333 60000
AAXX 04184 41254 36/// /2808 10136 21073 38009 48014 333 0E011 10189 58024
AAXX 0418/ 89828 46/// ///// 11333 36473 4//// 5//// 91840
AAXX 0418/ 89769 46/// ///// 11055 39805 4//// 5//// 91840
AAXX 04184 89667 46/// /1207 11041 39843 4//// 5//// 91840
AAXX 04184 89667 46/// /1307 11041 39842 4//// 5//// 91830
AAXX 04184 91559 46/// /0000 10275 40036 22200 00295
AAXX 04183 91553 11498 89902 10240 20225 40067 52003 60081 76022 889// 333 569// 60081 81718 84820 81925 88640
AAXX 04184 71382 16/// /0000 11165 21213 39125 40118 56027 60001 333 11156 21314 70000
AAXX 04184 71428 16/// /2519 11102 21128 30074 40080 56021 60001 333 11086 21133 70000
AAXX 04184 71429 16/// /3209 11075 21126 30012 40032 56024 60001 333 11068 21134 70000
AAXX 04183 91553 11498 89902 10240 20225 40067 52003 60081 76022 889// 333 569// 60081 81718 84820 81925 88640
AAXX 04184 71323 16/// /2302 11147 21215 39843 40136 56034 60001 333 11146 21205 70000
AAXX 04184 71172 17/// ///// 11012 21023 39849 40069 56033 69941 7//4/ 333 11011 21183 70004
AAXX 04184 71212 17/// /0000 11143 21208 39265 40099 56027 69931 7//4/ 333 11131 21298 70003
AAXX 04184 71724 16/// /2009 11145 21168 30150 40158 56042 60001 333 11143 21209 70000
AAXX 04184 91531 46/// /0305 1//// 40074 22200 00267
AAXX 04184 89807 46/// /2135 11026 29062 39765 4//// 5//// 91830 333 90700 91143
AAXX 04184 89614 46/// /0916 11086 29067 38965 4//// 5//// 91830 333 90700 91119
AAXX 04184 89807 46/// /2135 11026 29062 39765 4//// 5//// 91830 333 90700 91143
AAXX 04184 89614 46/// /0916 11086 29067 38965 4//// 5//// 91830 333 90700 91119
AAXX 04184 89016 46/89 /2103 11057 29086 39408 4//// 5////
AAXX 04184 62414 32960 03605 10157 20015 40185 52013 333 10219
AAXX 04184 71016 16/// ///// 10113 60001 333 10114 20033 70004
BBXX 44056 04181 99362 70757 46/// ///// 1//// 91820 22200 00092 10802 20802 70009
AAXX 04184 71016 16/// ///// 10113 60001 333 10114 20033 70004
BBXX 46109 04181 99481 71234 46/// /2501 10102 40154 91757 22200 00077
BBXX 46110 04181 99481 71230 46/// /1407 10103 40154 91758
BBXX 44055 04181 99391 70753 46/// ///// 1//// 91830 22200 00050 1//00 70002
AAXX 04184 71120 12969 71502 11031 21051 39425 40085 58018 60001 80006 333 11018 21068 70000
AAXX 04184 71120 12969 71502 11031 21051 39425 40085 58018 60001 80006 333 11018 21068 70000
BBXX ZCDF4 04183 99216 70764 41598 50528 10208 20155 40237 57016 70111 83580 22235 00260 20401 335// 40402 5//// 80176
BBXX WTC9407 04184 99440 70874 41/98 73212 10016 2//// 40129 54000 70222 81617 22282 00056 20202 3//// 4//// 5//// 6//// 8//// ICE /////
BBXX 46110 04181 99481 71230 46/// /1407 10103 40154 91758
BBXX 46109 04181 99481 71234 46/// /2501 10102 40154 91757 22200 00077
BBXX 44055 04181 99391 70753 46/// ///// 1//// 91830 22200 00050 1//00 70002
BBXX 44056 04181 99362 70757 46/// ///// 1//// 91820 22200 00092 10802 20802 70009
AAXX 04184 71550 16/// /2805 10005 21042 39756 40133 58002 60001 333 10010 21061 70000
AAXX 04184 71748 16/// /3203 11008 21060 39847 40136 58003 60001 333 11008 21068 70000
AAXX 04184 71363 16/// /2914 11334 21372 30035 40093 50000 60001 333 11334 21384 70000
AAXX 04184 71959 16/// ///// 11030 21072 60001 333 11020 21041 70000
AAXX 04184 71320 17/// /2304 11375 21413 30037 40037 58003 60601 7//4/ 333 11373 21408 70595
AAXX 04184 71320 17/// /2304 11375 21413 30037 40037 58003 60601 7//4/ 333 11373 21408 70595
AAXX 04184 71959 16/// ///// 11030 21072 60001 333 11020 21041 70000
AAXX 04184 71363 16/// /2914 11334 21372 30035 40093 50000 60001 333 11334 21384 70000
AAXX 04184 71550 16/// /2805 10005 21042 39756 40133 58002 60001 333 10010 21061 70000
AAXX 04184 71748 16/// /3203 11008 21060 39847 40136 58003 60001 333 11008 21068 70000
BBXX 42043 04181 99290 70949 46/// /0603 1//// 40250 91830 22200 00141 333 91204
BBXX 42043 04181 99290 70949 46/// /0603 1//// 40256 57010 91800 22200 00141 333 91203
BBXX 42045 04181 99262 70965 46/// /1606 10199 40237 91830 22200 00176 333 91208
BBXX 42045 04181 99262 70965 46/// /1607 10198 40244 57009 91800 22200 00177 333 91209
BBXX 42046 04181 99279 70940 46/// /1807 1//// 40253 91830 22200 00217 333 91209
BBXX 42046 04181 99279 70940 46/// /1807 1//// 40260 91800 22200 00217 333 91209
BBXX 42047 04181 99279 70936 46/// /1806 10195 20110 40256 91830 22200 00217 333 91207
BBXX 42047 04181 99279 70936 46/// /1808 10196 20111 40260 91800 22200 00217 333 91208
AAXX 04184 92036 46/// /2810 10240 40077 22200 00310
AAXX 04184 89610 46/// /0418 11064 39638 4//// 5//// 333 90700 91122
AAXX 04184 89610 46/// /0418 11064 39638 4//// 5//// 333 90700 91122
AAXX 04184 89610 46/// /0418 11064 39638 4//// 5//// 333 90700 91122
BBXX 63106 04184 99610 10017 46/// /2809 10046 49776 57041 22200
BBXX 63113 04184 99610 10017 46/// /3005 10047 20001 49777 57054 22200 10707 70033
BBXX 64049 04183 99571 10022 41/97 82540 10074 20070 49830 54000 70211 8//// 22200 04082 20608 325// 40612 5//// 80072
BBXX 62094 04184 99517 70067 46/// /2532 10104 20081 40126 57020 22200 00103 10709 70045 333 90710 91144
BBXX 62163 04184 99475 70084 46/// /2526 10115 20074 40300 58004 22200 00123 10810 70049 333 90710 91136
BBXX 62103 04184 99499 70029 46/98 /2640 10108 20076 40190 55029 22200 00115 10807 70033 333 90710 91156
AAXX 04184 48464 31558 60000 10247 20237 30105 40118 57007 71022 83436 333 58007
AAXX 04181 20744 31997 31222 11091 21121 30079 40098 57018 73631 80001 333 11088 91128
AAXX 04184 91689 46/// /0405 10258 40077 22200 00292
AAXX 04181 01271 17/32 90000 10005 21008 39714 49735 58004 60042 767// 333 10019 91106
AAXX 04184 41254 36/// /2808 10136 21073 38009 48014 333 0E011 10189 58024
BBXX C6VG8 04184 99258 70779 41/// /0115 10170 2//// 40240 5//// 7//// 8//// 22200 00250 2//// 3//// 4//// 5//// 6//// 8//// ICE /////
BBXX 42047 04181 99279 70936 46/// /1806 10195 20110 40256 91830 22200 00217 333 91207
BBXX 42047 04181 99279 70936 46/// /1808 10196 20111 40260 91800 22200 00217 333 91208
BBXX 42046 04181 99279 70940 46/// /1807 1//// 40260 91800 22200 00217 333 91209
BBXX 42046 04181 99279 70940 46/// /1807 1//// 40253 91830 22200 00217 333 91209
BBXX 42045 04181 99262 70965 46/// /1607 10198 40244 57009 91800 22200 00177 333 91209
BBXX 42045 04181 99262 70965 46/// /1606 10199 40237 91830 22200 00176 333 91208
BBXX 42043 04181 99290 70949 46/// /0603 1//// 40250 91830 22200 00141 333 91204
BBXX 42043 04181 99290 70949 46/// /0603 1//// 40256 57010 91800 22200 00141 333 91203
BBXX SKEC 04181 99580 10179 46/// ///// 10045 49767 52064 22245 00058
BBXX 42013 04181 99272 70829 46/// ///// 1//// 40289 91820 22200 00191
BBXX 42013 04181 99272 70829 46/// ///// 1//// 40294 58024 91800 22200 00191
AAXX 04181 10020 07565 72513 10064 20044 39940 49972 58027 69952 72365 333 10074 20050 3/004 55300 20000 30000 69947 83/27 87/45 87/59 91123 91215
AAXX 04181 98132 11460 80406 10186 20157 40221 59019 60021 76066 8527/ 333 56199 85816 88357
AAXX 04181 98133 NIL
AAXX 04181 98222 31575 10501 10234 20200 40128 58005 70544 81200 333 56999 81820
AAXX 04181 98233 31570 70000 10217 20197 40159 58006 70544 87500 333 56999 87620
AAXX 04181 98324 31462 30901 10252 20216 40126 58007 70544 81161 333 56999 81816
AAXX 04181 98327 31668 63103 10226 20198 39973 40149 57005 70544 84408 333 56999 84636 86280
AAXX 04181 98334 31460 81802 10223 20207 39958 40165 53006 60021 70282 8322/ 333 56999 83817 88457
AAXX 04181 98425 31558 83602 10260 20224 40131 58015 8427/ 333 56999 84820 88457
AAXX 04181 98426 31562 30504 10257 20198 40136 57014 70544 81130 333 56999 81820 83358
AAXX 04181 98427 11465 80000 10240 20228 39951 40130 58011 60011 78082 8382/ 333 56199 83818 88456
AAXX 04181 98428 32458 71103 10261 20233 40133 58010 82474 333 56999 82618 85359
AAXX 04181 98432 31568 60000 10255 20226 40134 57013 70544 82270 333 56199 82820 86356
AAXX 04181 98433 11460 70905 10200 20190 39407 40131 57008 69961 70162 84270 333 56999 84812 87357
AAXX 04181 98434 11462 83602 10250 20228 30145 40153 58008 69951 71582 8487/ 333 56199 84817 88358
AAXX 04181 98435 11467 80404 10246 20230 40139 5//// 60031 72162 8427/ 333 56999 84817 88358
AAXX 04181 98442 NIL
AAXX 04181 98446 32465 80404 10248 20237 30090 40136 58012 84207 333 56199 84818 88270
AAXX 04181 98447 11465 80908 10240 20228 39850 40116 5//// 69941 72582 84807 333 56299 84816 88270
AAXX 04181 98538 32464 60405 10260 20241 30113 40118 58011 82266 333 56119 82811 83357 85072
AAXX 04181 98546 11420 80405 10242 20235 30114 40122 57001 60771 76366 8492/ 333 56999 84915 88457
AAXX 04181 98548 11465 83602 10255 20235 30105 40111 56006 60011 76162 84807 333 56999 84816 88272
AAXX 04181 98553 11460 80404 10259 20242 30115 40119 58015 60111 72586 8597/ 333 56999 82915 84618 88358
AAXX 04181 98558 32464 80612 10260 20247 40100 58021 8357/ 333 56999 83615 88357
AAXX 04181 98642 11465 50000 10252 20243 30090 40099 58014 69941 72582 82202 333 56199 82815 83072
AAXX 04181 98644 NIL
AAXX 04181 98648 31470 60000 10234 20217 30026 40108 57012 71544 82932 333 56299 81912 85358
AAXX 04181 98746 NIL
AAXX 04181 98751 32468 63601 10205 20198 39425 40095 57020 82260 333 56999 82915 84356
AAXX 04181 98752 32462 70000 10248 20239 40105 57017 82270 333 56999 82818 87358
AAXX 04181 98851 31470 33602 10244 20210 39948 40097 58014 70544 81101 333 56999 81818 83075
AAXX 04184 89657 46/// /1411 11055 20004 49826 57008
BBXX 62163 04184 99475 70084 46/// /2627 10104 20063 40302 58004 22200 00123 10809 70047 333 90710 91136
BBXX PJGO 04184 99571 10022 47/96 /2333 10058 49863 57070 762// 22200
BBXX 63106 04184 99610 10017 46/// /2809 10046 49776 57041 22200
BBXX 63105 04184 99610 10017 47998 ///// 10052 21001 49776 57042 700// 22200
BBXX 62103 04184 99499 70029 46/98 /2740 10109 20074 40184 57022 22200 00115 10808 70039 333 90710 91158
BBXX 62094 04184 99517 70067 46/// /25// 10104 20081 40126 57020 22200 00103 10709 70045 333 90710 91144
BBXX VDRV 04184 99444 70869 41/98 83416 10001 2//// 41014 54010 70322 8//// 22283 0//// 20303 3//// 4//// 5//// 6//// 8//// ICE /////
BBXX 42013 04181 99272 70829 46/// ///// 1//// 40289 91820 22200 00191
BBXX 42013 04181 99272 70829 46/// ///// 1//// 40294 58024 91800 22200 00191
BBXX C6VG8 04184 99258 70779 41/// /0115 10170 2//// 40240 5//// 7//// 8//// 22200 00250 2//// 3//// 4//// 5//// 6//// 8//// ICE /////
BBXX SKEC 04181 99580 10179 46/// ///// 10045 49767 52064 22245 00058
AAXX 04184 89646 46/// ///06 11247 29079 37537 4//// 5////
AAXX 04184 89648 46/// /2009 11245 29067 37129 4//// 5////
AAXX 04184 89659 46/// /12// 11191 29080 37618 4//// 5////
AAXX 04184 89661 46/// /2314 11072 29082 39207 4//// 5////
AAXX 04184 89662 41520 72603 11033 21045 39747 49852 57003 77072 87700 222 ICE 98012 333 21034 87720
AAXX 04184 89666 46/// /2407 11038 29081 39665 4//// 5////
BBXX MINUK03 0418/ 99525 10041 46/// ///// 10080 40052 57065
BBXX A8AF6 04183 99040 70075 41397 62705 10280 20260 40110 55000 70311 82617 22223 02320 20100 316// 40602 80265
BBXX A8AF6 04183 99040 70075 41397 62705 10280 20260 40110 55000 70311 82617 22223 02320 20100 316// 40602 80265
AAXX 04184 60679 36/// /0707 10058 21148 333 10104
AAXX 04184 60650 36/// /0513 10152 21037 333 10183
BBXX 3FMV6 04183 99013 30740 41398 30208 10260 20215 40107 51010 70200 83243 22284 06260 20101 80230
BBXX A8KO3 04180 99018 31087 41798 73106 10280 20253 40100 54000 70311 964// 22274 00290 20000 80260
BBXX A8XA3 04183 99047 30117 41998 52206 10272 40125 53001 70300 8503/ 22200 20000
BBXX BATFR19 04184 99064 30058 46/// /1912 10242 20204 40126 53015 22200 00259
BBXX 9KWP 04183 99064 30899 41498 12909 10280 20252 40121 54000 70000 81142 22234 06290 2//// 80260
BBXX OVYB2 04181 99204 30509 41298 81209 10276 20236 40159 52005 70222 8477/ 22214 00290 20402 31100 41004 5//// 80248
BBXX TBWUK18 04183 99291 30624 41398 41023 10230 20183 40203 52014 70111 8416/ 22222 00240 20602 328// 41204 5//// 80200
BBXX A8RV9 04184 99310 30038 41598 32210 10220 20166 40200 53/// 70300 8/16/ 22234 20601 321// 41206 5//// 80185
BBXX V7HD2 04184 99311 30310 41397 71202 10260 2023/ 40120 54000 7//22 876// 22212 00255 20100 312// 41103 5//// 6//// 80240
BBXX A8RL4 04184 99337 30272 41597 61405 10250 40150 57020 7//// 864// 22254 00260 20201 320// 40709 40605 80230
BBXX DBBT 04181 99339 30184 46/// /2406 10212 20137 40171 52009 22220 00167
BBXX DBLK 04181 99349 30173 41698 72307 10200 20140 40181 52018 70222 85832 22211 04210 20302 323// 41207
BBXX BAREU06 04184 99435 10077 46/// ///// 40186 22254
BBXX 61001 04184 99434 10078 46/// /2308 10131 20093 40182 52028 22200 00135 10604 70019
BBXX BATFR22 04184 99433 10053 46/// /3331 10109 40243 22243 00140
BBXX BAREU56 04184 99429 10060 46/// ///// 40213 57014 22222
BBXX BATFR24 04184 99427 10095 46/// /3316 10147 20075 40171 22214 00142
BBXX 61002 04184 99421 10047 46/// ///34 10128 2//// 40274 52020 22200 00132 10807 70036 555 1/045
BBXX BATEU09 04184 99401 10150 46/// /3020 10157 20109 40178 22232 00170
BBXX PDBP 04183 99393 10034 41498 23616 10158 20104 40289 53023 70322 82140 22253 04168 20302 80127
BBXX BATFR11 04184 99381 10014 46/// ///// 10155 20114 40300 53011 22212 00169
BBXX DBBH 04181 99377 10154 41498 82401 10147 20106 40200 55000 70311 888// 22221 04157
BBXX BATFR33 04184 99375 10032 46/// /3217 10154 20109 40289 22285 00159
BBXX ZNQO3 04180 99374 10093 41598 52710 10160 20103 40243 58015 70322 842// 22224 04166 2//// 3//// 4//// 5//// 80130
BBXX KSDF 04184 99367 10130 41498 73030 10156 20117 40220 54000 71522 875// 22273 0//// 20202 330// 40504 5//// 6//// 80133
BBXX A8IV9 04184 99362 10145 41497 53310 10160 20135 40210 54000 70222 83277 22224 20902 80145
BBXX VRCZ7 04183 99359 10155 41/98 43110 10150 20113 40209 56/// 70211 84/// 22224 2//// 3//// 4//// 5//// 80130
BBXX KSPH 04183 99335 10255 413// 81509 10150 2012/ 40200 5//// 72552 887// 22273 0//// 29901 315// 4//02 5//// 6//// 80130
BBXX DDVK2 04183 99334 10260 41/98 82510 10155 20060 40212 54000 72582 88/// 22224 00193 2//// 30000 80105
BBXX BAREU63 04184 99325 10250 46/// /2810 10153 29042 40200 52003 22223
BBXX 64045 04184 99591 70117 46/// /2831 10072 20037 49808 53005 22200 00100 10812 70058 333 90710 91148
BBXX 62112 04184 99584 70002 47495 /2225 10056 20040 49799 57086 762// 22200
BBXX 62113 04184 99584 10002 47498 /2126 10057 20034 49814 57075 700// 22200
BBXX 62129 04184 99584 10003 46/// ///// 10059 20037 49814 57076 22200
BBXX BATEU04 04184 99583 70219 46/// /2638 10064 20009 49926 53009 22223
BBXX 62114 04184 99583 10000 46/// /2126 10060 20040 49800 57081 22200
BBXX PJAI 04184 99581 70014 47597 /2320 10074 20033 49798 57085 761// 22200
BBXX 62111 04184 99580 70003 46/// /2333 10064 20037 49821 57086 22200 10606 70029
BBXX 62117 04184 99579 10000 47495 /2127 10068 20039 49817 57080 762// 22200 10606 70032
BBXX BATUK01 04184 99571 70017 46/// /2333 10064 20024 49827 58100 22282 00087
BBXX 62105 04184 99554 70121 46/// /2736 10113 20094 49960 55016 22200 00106 11017 70083 333 90710 91149
BBXX 62301 04184 99524 70047 46/// /2528 10091 20066 40100 57024 22200 00084 10708 70039 333 90710 91146
BBXX 62303 04184 99516 70051 46/// /2627 10104 20079 40132 58018 22200 00107 10810 70048 333 90710 91142
BBXX 62081 04184 99510 70134 46/// ///// 10114 20075 40194 57010 22200 00118 10812 70061
BBXX TESTFR9 04184 99508 70011 46/// /2645 10094 29084 40147 57082 22273
BBXX BATFR02 04184 99505 70008 46/// /2442 10102 20064 40158 22234 00109
BBXX BATFR42 04184 99502 70017 46/// /2555 10099 20075 40159 22244 00120
BBXX 62103 04184 99499 70029 46/98 /2740 10109 20074 40184 57022 22200 00115 10808 70039 333 90710 91158
BBXX PHBO 04183 99499 70028 41/97 82334 10111 20067 40177 56033 70262 8/7// 22264 20808 325// 41008 80090
BBXX PHAM 04184 99495 70011 41/97 /2732 10107 20073 40195 56025 72588 8//// 22200 20508 80089 91153
BBXX BAREU12 04184 99491 70068 46/// ///// 40226 57016 22221
BBXX 62442 04184 99490 70164 46/// /2527 1//// 2//// 40282 57013 22200 00120 333 90710 91136
BBXX 62029 04184 99487 70125 46/// /2628 10113 20077 40278 55013 22200 00123 10811 70053 333 90710 91137
BBXX PCGM 04183 99476 70105 41597 72720 10122 20081 40310 55010 701// 855// 22213 04132 20804 399// 41207 80100
BBXX PDHW 04183 99475 70293 41297 82326 10120 20062 40310 54000 70222 887// 22223 00120 20706 325// 40904 80090
BBXX 62163 04184 99475 70084 46/// /2627 10104 20063 40302 58004 22200 00123 10809 70047 333 90710 91136
BBXX BAREU00 04184 99463 70244 46/// ///// 40340 52003 22263
BBXX SKUN 04183 99463 70243 43/95 72123 10102 40340 54000 22263 00118 2//// 4////
BBXX 62001 04184 99452 70050 46/// /2516 10126 20075 40342 58004 22200 00134 11009 70047
BBXX PBFM 04183 99441 70190 41297 82113 10150 20138 40380 52026 70222 887// 22214 20401 332// 41206 80143
BBXX BATFR54 04184 99437 70090 44/// 82513 10127 20082 4//// 703// 8//// 22262 00139 20202 33236 41006 51006
BBXX 9VBM6 04183 99427 70101 41797 73302 10140 20105 40390 52000 7//22 86627 22243 00180 20302 3//// 40304 50304 6//// 80120 /////
BBXX BATFR14 04184 99405 70216 46/// /1412 10159 20125 40366 56003 22264 00160
BBXX A8LK5 31201 04183 99383 70001 41/98 /2808 10200 20140 40310 57020 70000 80000 22214 00210 2//// 3//// 4//// 5//// 80160
BBXX V2NA1 04184 99380 70300 41297 70517 10174 20138 40286 57006 71522 877// 22264 04160 20603 333// 41007 80152
BBXX WAHV 04183 99375 70225 43499 61410 10170 2014/ 40341 53007 86200 22264 00180 20302 33330 41706 51206 80150
BBXX ZCDN9 04184 99363 70121 41998 01223 10159 20086 40329 52009 70111 80000 22213 00176 20204 305// 41006 5////
BBXX BATFR46 04184 99362 70036 44/96 31702 10147 20119 40309 52002 70311 8//7/ 22223 00160 20000
BBXX TBWUK47 04184 99359 70272 41398 61915 10170 20138 40281 56004 70211 82770 22264 04205 20203 332// 40406 80152
AAXX 04181 37661 42998 42801 11012 21021 39486 40274 52010 84050 333 10015
AAXX 04181 37675 42995 70000 11007 21016 39591 40272 52012 87058 333 10015 555 53004
AAXX 04181 37729 42597 71603 11042 21046 38530 53003 87500 333 10025 53004
AAXX 04181 37735 42697 80000 10018 21007 39807 40192 52005 885// 333 10030
AAXX 04181 37740 42596 70801 11025 21038 39441 40267 52004 87200 333 10028
AAXX 04181 37749 42998 63603 10014 21018 30182 40303 52005 86030 333 10059 555 53006
AAXX 04181 37832 32997 70000 10035 20006 40266 52005 87/20 333 10060
AAXX 04181 37851 42598 52802 10035 20008 30197 40272 53012 85500 333 10067
AAXX 04181 37864 32997 70000 10020 21002 40268 87070 333 10056
AAXX 04181 37905 42997 70000 10001 21014 40268 53007 87030 333 10059
AAXX 04181 37923 42996 80000 10039 20016 40259 53017 8807/ 333 10056 555 53004
AAXX 04181 37925 42997 70000 10037 20022 30295 40265 58001 87050 333 10073 555 53001
AAXX 04181 37985 42996 03201 10018 20005 30271 40256 54000 333 10077
AAXX 04181 37989 42996 03102 10033 20018 40269 52004 333 10088
AAXX 04181 37470 32496 81802 10034 21011 30282 40259 52004 889// 333 10051
AAXX 04181 37472 11596 81401 10027 20014 30270 40246 58002 69900 76162 8872/ 333 10038
AAXX 04181 38111 32997 00802 11045 21072 30297 40267 52005 333 10004
AAXX 04181 38750 32997 01202 10027 20017 30294 40265 58002 333 10081
BBXX A8FA6 04184 99099 70862 41697 30519 10270 20241 40160 54000 70211 83456 22234 00260 20606 305// 40706 80250
AAXX 04184 04418 NIL
AAXX 04184 04425 NIL
AAXX 04184 04432 NIL
AAXX 04184 04436 NIL
AAXX 04184 04464 46/// /1910 11352 21386 333 553// 20007
AAXX 04184 04485 NIL
AAXX 04184 04488 NIL
AAXX 04181 10962 01684 32410 11018 21020 39069 48498 58006 60072 70181 83500 333 10044 21019 3/103 44004 55300 20000 30000 69927 83640 91117 96487 96486
AAXX 04184 94997 46/// ///// 10064 30009 40024 5////
AAXX 04184 94997 46/// ///// 10064 30009 40024 5////
AAXX 04184 71408 46/// /0325 10028 20024 39706 49783 56106 6///1 333 10035 7////
AAXX 04184 96987 32459 30000 10244 20231 30028 40087 57021 82501 333 56000 82618
AAXX 04181 20069 42977 00705 11206 21232 30236 40250 53008
AAXX 04181 20046 32498 82503 11058 21062 30172 40204 58001 885// 333 11030
AAXX 04181 20292 41998 00000 11313 21352 30235 40256 52028 70271 333 91104 96510
AAXX 04184 62600 32970 00205 10175 20044 39972 40192 333 10215 59019
AAXX 04184 62640 31965 00209 10195 21010 39777 40143 333 70600 10280 59015
AAXX 04184 62641 32970 03405 10233 20167 30098 40146 333 10284 58024
AAXX 04184 62650 32970 03507 10185 20025 39888 40164 333 10245 59017
AAXX 04184 62660 32970 03607 10215 21030 39835 40135 333 10260 59011
AAXX 04184 62680 31968 03403 10220 20090 39726 40123 333 70600 10297 59012
AAXX 04184 62721 32970 73407 10250 20030 39686 40125 333 80007 10295 56009 59015 87275
AAXX 04184 62730 32970 03605 10263 20097 39582 40143 333 10340 59001
AAXX 04184 62750 32970 73210 10240 20050 39668 40100 333 80007 10300 56009 59007 87275
AAXX 04184 62751 32970 70304 10230 20042 39636 40096 333 80007 10332 56009 59020 87275
AAXX 04184 62752 32970 03506 10280 20070 39423 40086 333 10362 59007
AAXX 04184 62771 32970 70508 10220 20010 39486 40135 333 80007 10285 56009 59016 87275
AAXX 04184 62772 32970 03605 10242 20112 39680 40102 333 10305 59015
AAXX 04184 62790 32970 70404 10230 21010 39403 40128 333 80007 10300 56009 59013 87275
AAXX 04184 62795 32970 73407 10275 20100 39588 40081 333 80007 10365 56009 59009 87275
AAXX 04184 62805 32970 73604 10280 20080 39550 40071 333 80007 10360 56009 59002 87275
BBXX A8AF6 04183 99040 70075 41397 62705 10280 20260 40110 55000 70311 82617 22223 02320 20100 316// 40602 80265
BBXX A8FA6 04184 99099 70862 41697 30519 10270 20241 40160 54000 70211 83456 22234 00260 20606 305// 40706 80250
BBXX BSH03 04181 99540 10081 46/// ///// 22200 00064 21007 70036
BBXX BSH02 04181 99542 10079 46/// ///// 22200 00066 20908 70039
BBXX MINUK03 0418/ 99525 10041 46/// ///// 10080 40052 57065
BBXX VDRV 04184 99444 70869 41/98 83416 10001 2//// 41014 54010 70322 8//// 22283 0//// 20303 3//// 4//// 5//// 6//// 8//// ICE /////
AAXX 0418/ 89327 46/// ///// 11013 39513 4//// 5////
AAXX 0418/ 89828 46/// ///// 11335 36475 4//// 5////
AAXX 0418/ 89879 46/// ///// 10015 39748 4//// 5////
AAXX 0418/ 89872 46/// ///// 11034 39783 4//// 5////
AAXX 0418/ 89769 46/// ///// 11056 39805 4//// 5////
AAXX 0418/ 89314 46/// ///// 11130 38168 4//// 5////
BBXX 42369 04181 99272 70903 46/// /2301 1//// 91740 22200 10501 70006
BBXX 42370 04181 99273 70905 46/// ///// 10181 91740 22200 10501 70006
BBXX 42376 04181 99291 70879 46/// /0000 10143 40301 91740 22200 10101 70003
BBXX 42392 04181 99272 70900 46/// ///// 1//// 91740 22200 10501 70006
BBXX 42887 04181 99282 70885 46/// /0000 10195 91740 22200 10501 70005
AAXX 04184 48333 31556 80000 10195 20185 39836 40144 57005 71022 8357/ 333 58012 70180
BBXX 63106 04184 99610 10017 46/// /2809 10046 49776 57041 22200
BBXX 63113 04184 99610 10017 46/// /3005 10047 20001 49777 57054 22200 10707 70033
BBXX 64049 04183 99571 10022 41/97 82540 10074 20070 49830 54000 70211 8//// 22200 04082 20608 325// 40612 5//// 80072
BBXX 62094 04184 99517 70067 46/// /2532 10104 20081 40126 57020 22200 00103 10709 70045 333 90710 91144
BBXX 62163 04184 99475 70084 46/// /2526 10115 20074 40300 58004 22200 00123 10810 70049 333 90710 91136
BBXX 62103 04184 99499 70029 46/98 /2640 10108 20076 40190 55029 22200 00115 10807 70033 333 90710 91156
BBXX 62027 04184 99491 70022 46/// /2626 1//// 2//// 40227 57024 22200 00106 10906 332// 70030
AAXX 04184 89614 46/// /1217 11084 29067 38965 4//// 5//// 333 90700 91120
AAXX 04184 89807 46/// /2136 11020 29060 39765 4//// 5//// 333 90700 91144
AAXX 04184 89807 46/// /2136 11020 29060 39765 4//// 5//// 333 90700 91144
AAXX 04184 89614 46/// /1217 11084 29067 38965 4//// 5//// 333 90700 91120
AAXX 04184 96109 32557 30000 10254 20231 30061 40101 58001 81531 333 56000 81620
AAXX 0418/ 89828 46/// ///// 11334 36473 4//// 5//// 91830
AAXX 0418/ 89108 46/// ///// 11223 36916 4//// 5//// 91820
AAXX 0418/ 89108 46/// ///// 11224 36915 4//// 5//// 91830
AAXX 0418/ 89879 46/// ///// 10016 39748 4//// 5//// 91830
AAXX 0418/ 89879 46/// ///// 10019 39748 4//// 5//// 91840
AAXX 0418/ 89872 46/// ///// 11034 39781 4//// 5//// 91830
AAXX 0418/ 89872 46/// ///// 11034 39782 4//// 5//// 91840
AAXX 0418/ 89869 46/// ///// 11049 39777 4//// 5//// 91830
AAXX 0418/ 89869 46/// ///// 11053 39777 4//// 5//// 91840
AAXX 0418/ 89866 46/// ///// 11035 39734 4//// 5//// 91830
AAXX 0418/ 89866 46/// ///// 11031 39735 4//// 5//// 91840
AAXX 0418/ 89329 46/// ///// 11094 38673 4//// 5//// 91820
AAXX 0418/ 89329 46/// ///// 11095 38674 4//// 5//// 91830
AAXX 0418/ 89799 46/// ///// 11250 4//// 5//// 91820
AAXX 0418/ 89799 46/// ///// 11250 4//// 5//// 91830
AAXX 0418/ 89799 46/// ///// 11251 4//// 5//// 91840
AAXX 0418/ 89332 46/// ///// 11038 39118 4//// 5//// 91830
AAXX 0418/ 89332 46/// ///// 11038 39118 4//// 5//// 91840
AAXX 0418/ 89769 46/// ///// 11058 39806 4//// 5//// 91830
AAXX 0418/ 89314 46/// ///// 11128 38167 4//// 5//// 91820
AAXX 0418/ 89314 46/// ///// 11126 38167 4//// 5//// 91830
AAXX 0418/ 89868 46/// ///// 11043 39774 4//// 5//// 91830
AAXX 0418/ 89327 46/// ///// 11013 39408 4//// 5//// 91830
BBXX 42887 04181 99282 70885 46/// /0000 10195 91740 22200 10501 70005
BBXX 42392 04181 99272 70900 46/// ///// 1//// 91740 22200 10501 70006
BBXX 42369 04181 99272 70903 46/// /2301 1//// 91740 22200 10501 70006
BBXX 42376 04181 99291 70879 46/// /0000 10143 40301 91740 22200 10101 70003
BBXX 42370 04181 99273 70905 46/// ///// 10181 91740 22200 10501 70006
BBXX 62027 04184 99491 70022 46/// /2626 1//// 2//// 40227 57024 22200 00106 10906 332// 70030
AAXX 04184 41859 31910 00000 10131 20120 30110 40149 70500 333 58000 70000
AAXX 04184 41883 31930 00000 10144 20130 30135 40157 70500 333 58011 70000
AAXX 04184 41891 31930 03302 10158 20150 30112 40152 71000 333 58013 70000
AAXX 04184 41907 31910 00000 10136 20130 40129 40144 70500 333 59007 70000
AAXX 04184 41923 31930 00000 10186 20150 30136 40146 70500 333 58008 70000
AAXX 04184 41936 31416 60000 10178 20170 40153 70522 82030 333 56990 58007 70000 82615 84362
AAXX 04184 41943 31940 00000 10186 20180 30135 40143 70520 333 59004 70000
AAXX 04184 41950 31935 00000 10173 20160 30143 40146 70521 333 58010 70000
AAXX 04184 41978 31435 60000 10215 20180 30131 40138 70522 82530 333 56990 58006 70000 82618 86362
AAXX 04184 41992 31930 40000 10218 20190 30139 40141 70522 84030 333 56090 58013 70000 84360
AAXX 04184 41858 31905 00000 10138 20130 30105 40153 74640 333 59001 70000
AAXX 04184 41863 31950 00000 10132 20130 30111 40157 70500 333 58009 70000
AAXX 04184 41886 NIL
AAXX 04184 41895 32950 00000 10140 20130 30132 40156 333 58008 70000
AAXX 04184 41909 31935 00000 10148 20140 30135 40147 70540 333 58018 70000
AAXX 04184 41915 31938 00000 10130 20120 30130 40156 74444 333 58006 70000
AAXX 04184 41926 31430 40000 10164 20150 30141 40155 70520 82530 333 56690 58010 70000 82618 84365
AAXX 04184 41929 31950 00000 10170 20160 30137 40147 70544 333 58007 70000
AAXX 04184 41933 31930 32301 10178 20170 30143 40152 70500 83030 333 56090 58006 70000 83362
AAXX 04184 41939 NIL
AAXX 04184 41941 NIL
AAXX 04184 41946 31550 30000 10190 20180 30144 40148 70521 83500 333 56900 58006 70000 83620
AAXX 04184 41947 31940 30000 10188 20180 30143 40145 70522 83030 333 56090 58008 70000 83362
AAXX 04184 41951 NIL
AAXX 04184 41953 31930 00000 10194 20180 30140 40146 70520 333 58000 70000
AAXX 04184 41958 31930 20000 10185 20170 30142 40144 70522 82030 333 56090 58000 70000 82362
AAXX 04184 41960 31915 00000 10190 20190 30151 40153 71000 333 58007 70000
AAXX 04184 41963 31430 63601 10195 20190 30131 40134 75022 84530 333 56990 58004 70000 83616 86360
AAXX 04184 41964 NIL
AAXX 04184 41965 NIL
AAXX 04184 41966 NIL
AAXX 04184 41984 32440 20000 10193 20180 30139 40141 82500 333 56900 58013 70000 82618
AAXX 04184 41989 31930 00000 10195 20180 30136 40139 70500 333 58002 70000
AAXX 04184 41998 NIL
AAXX 04184 89257 46/// /2315 11076 21095 39783 49853 57001 91840
AAXX 04184 89257 46/// /2314 11075 21093 39783 49853 57001 91830
AAXX 04184 89272 46/// /2309 11113 21132 38075 49714 52005 91830
BBXX VEP717 04184 99467 70487 41295 81944 10082 2008/ 40008 55037 76364 886// 22200 06023 20808 80082
AAXX 04184 97980 32460 60000 10244 20232 30076 40083 56005 85832 333 56000 82817 83618
AAXX 04184 91375 46/// /0510 10276 40096 22200 00281
AAXX 04184 91165 12466 80409 10228 20194 30199 40234 52014 69931 91753
AAXX 04184 91212 32966 00505 10250 20228 31379 40114 56015 91754
AAXX 04184 91245 32566 21106 10250 20230 30140 91750
AAXX 04184 91285 32566 42406 10189 20150 30222 40235 53019 91753
AAXX 04184 91334 11474 80710 10269 20246 30081 40084 55008 60021 70282 82171
AAXX 04184 91376 32474 80610 10274 20240 30095 40098 53005 83871
AAXX 04184 91408 32974 51006 10267 20248 30059 40097 57019 80001
AAXX 04184 91413 11469 89905 10253 20233 30090 40115 57005 69931 70282 84878
AAXX 04184 91155 NIL
AAXX 04184 91203 NIL
AAXX 04184 91217 NIL
AAXX 04184 91232 NIL
AAXX 04184 91250 NIL
AAXX 04184 91275 NIL
AAXX 04184 91317 NIL
AAXX 04184 91324 NIL
AAXX 04184 91339 NIL
AAXX 04184 91348 NIL
AAXX 04184 91353 NIL
AAXX 04184 91356 NIL
AAXX 04184 91366 NIL
AAXX 04184 91367 NIL
AAXX 04184 91369 NIL
AAXX 04184 91371 NIL
AAXX 04184 91378 NIL
AAXX 04184 91425 NIL
AAXX 04184 91434 NIL
AAXX 04184 91601 NIL
AAXX 04184 91610 NIL
BBXX 42369 04181 99272 70903 46/// /2101 1//// 91800 22200 10501 70006
BBXX 42370 04181 99273 70905 46/// ///// 10188 91800 22200 10501 70005
BBXX 42376 04181 99291 70879 46/// /0000 10144 40296 58022 91800 22200 10101 70003
BBXX 42392 04181 99272 70900 46/// ///// 1//// 91800 22200 10501 70006
BBXX 42887 04181 99282 70885 46/// /2901 10201 91800 22200 10701 70006
BBXX 62163 04184 99475 70084 46/// /2627 10104 20063 40302 58004 22200 00123 10809 70047 333 90710 91136
BBXX PJGO 04184 99571 10022 47/96 /2333 10058 49863 57070 762// 22200
BBXX 63106 04184 99610 10017 46/// /2809 10046 49776 57041 22200
BBXX 63105 04184 99610 10017 47998 ///// 10052 21001 49776 57042 700// 22200
BBXX 62103 04184 99499 70029 46/98 /2740 10109 20074 40184 57022 22200 00115 10808 70039 333 90710 91158
BBXX 62094 04184 99517 70067 46/// /25// 10104 20081 40126 57020 22200 00103 10709 70045 333 90710 91144
AAXX 04184 03896 16/// ///// 10102 60002 333 10108
AAXX 04184 03008 11460 82019 10045 20031 49749 60062 76162 887// 91750 333 10061 88710 90710 91131
AAXX 04184 91165 12466 80409 10228 20194 30199 40234 52014 69931 91753
AAXX 04184 91212 32966 00505 10250 20228 31379 40114 56015 91754
AAXX 04184 91285 32566 42406 10189 20150 30222 40235 53019 91753
AAXX 04184 91334 11474 80710 10269 20246 30081 40084 55008 60021 70282 82171
AAXX 04184 91376 32474 80610 10274 20240 30095 40098 53005 83871
AAXX 04184 91408 32974 51006 10267 20248 30059 40097 57019 80001
AAXX 04184 91413 11469 89905 10253 20233 30090 40115 57005 69931 70282 84878
AAXX 04184 91245 32566 21106 10250 20230 30140 91750
BBXX 42887 04181 99282 70885 46/// /2901 10201 91800 22200 10701 70006
BBXX 42376 04181 99291 70879 46/// /0000 10144 40296 58022 91800 22200 10101 70003
BBXX 42392 04181 99272 70900 46/// ///// 1//// 91800 22200 10501 70006
BBXX 42370 04181 99273 70905 46/// ///// 10188 91800 22200 10501 70005
BBXX 42369 04181 99272 70903 46/// /2101 1//// 91800 22200 10501 70006
AAXX 04184 71376 16/// /2501 11159 21195 39832 40152 56046 60001 333 11159 21275 70000
AAXX 04184 71319 16/// /2703 11146 21175 39197 40092 56021 60001 333 11143 21287 70000
AAXX 04184 71539 16/// /2612 10049 21018 39455 40151 58001 60001 333 10051 21016 70000
AAXX 04184 71586 16/// /1103 11046 21076 39660 40131 56005 60001 333 11046 21081 70000
BBXX 63106 04184 99610 10017 46/// /2809 10046 49776 57041 22200
BBXX 63113 04184 99610 10017 46/// /3005 10047 20001 49777 57054 22200 10707 70033
BBXX 64049 04183 99571 10022 41/97 82540 10074 20070 49830 54000 70211 8//// 22200 04082 20608 325// 40612 5//// 80072
BBXX 62094 04184 99517 70067 46/// /2532 10104 20081 40126 57020 22200 00103 10709 70045 333 90710 91144
BBXX 62163 04184 99475 70084 46/// /2526 10115 20074 40300 58004 22200 00123 10810 70049 333 90710 91136
BBXX 62103 04184 99499 70029 46/98 /2640 10108 20076 40190 55029 22200 00115 10807 70033 333 90710 91156
BBXX 42369 04181 99272 70903 46/// /2101 1//// 91820 22200 10501 70006
BBXX 42370 04181 99273 70905 46/// ///// 10187 91820 22200 10501 70005
BBXX 42376 04181 99291 70879 46/// /0000 10144 40296 91820 22200 10101 70003
BBXX 42392 04181 99272 70900 46/// ///// 1//// 91820 22200 10501 70006
BBXX 42887 04181 99282 70885 46/// /0000 10192 91820 22200 10501 70004
BBXX 42887 04181 99282 70885 46/// /0000 10192 91820 22200 10501 70004
BBXX 42392 04181 99272 70900 46/// ///// 1//// 91820 22200 10501 70006
BBXX 42376 04181 99291 70879 46/// /0000 10144 40296 91820 22200 10101 70003
BBXX 42369 04181 99272 70903 46/// /2101 1//// 91820 22200 10501 70006
BBXX 42370 04181 99273 70905 46/// ///// 10187 91820 22200 10501 70005
BBXX 52243 04181 99193 11666 46/// ///// 1//// 91800 22200 00266
BBXX 51179 04181 99143 51708 46/// ///// 1//// 91800 22200 00287
BBXX 51178 04181 99142 51695 46/// ///// 1//// 91800 22200 00285
BBXX 52246 04181 99152 11457 46/// ///// 1//// 91800 22200 00281
BBXX 51176 04181 99278 71758 46/// ///// 1//// 91800 22200 00238
BBXX 52245 04181 99181 11458 46/// ///// 1//// 91800 22200 00277
BBXX 51174 04181 99142 51697 46/// ///// 1//// 91800 22200 00286
BBXX 52244 04181 99200 11452 46/// ///// 1//// 91800 22200 00263
BBXX 51173 04181 99260 71739 46/// ///// 1//// 91800 22200 00238
BBXX 51172 04181 99284 71783 46/// ///// 1//// 91800 22200 00221
BBXX 51171 04181 99064 71623 46/// ///// 1//// 91800 22200 00274
BBXX 51170 04181 99168 71695 46/// ///// 1//// 91800 22200 00257
BBXX 51169 04181 99004 51600 46/// ///// 1//// 91800 22200 00247
BBXX 52248 04181 99135 11448 46/// ///// 1//// 91800 22200 00281
AAXX 04184 97430 32460 63005 10266 20248 30064 40093 57012 83232 333 56700 57872 83818 80860
AAXX 04184 97748 31459 73305 10266 20236 30056 40058 50000 70522 83932 333 56700 57972 82914 85358 80940
AAXX 04181 15480 01996 02101 10070 20046 30143 40160 58005 60002 71000 222// 06070 2//// 333 10124 20018 31010 60007 91003 91103 92416
BBXX 62163 04184 99475 70084 46/// /2627 10104 20063 40302 58004 22200 00123 10809 70047 333 90710 91136
BBXX PJGO 04184 99571 10022 47/96 /2333 10058 49863 57070 762// 22200
BBXX 63106 04184 99610 10017 46/// /2809 10046 49776 57041 22200
BBXX 63105 04184 99610 10017 47998 ///// 10052 21001 49776 57042 700// 22200
BBXX 62103 04184 99499 70029 46/98 /2740 10109 20074 40184 57022 22200 00115 10808 70039 333 90710 91158
BBXX 62094 04184 99517 70067 46/// /25// 10104 20081 40126 57020 22200 00103 10709 70045 333 90710 91144
BBXX 52246 04181 99152 11457 46/// ///// 1//// 91800 22200 00281
BBXX 52244 04181 99200 11452 46/// ///// 1//// 91800 22200 00263
BBXX 52243 04181 99193 11666 46/// ///// 1//// 91800 22200 00266
BBXX 52248 04181 99135 11448 46/// ///// 1//// 91800 22200 00281
BBXX 52245 04181 99181 11458 46/// ///// 1//// 91800 22200 00277
BBXX 51172 04181 99284 71783 46/// ///// 1//// 91800 22200 00221
BBXX 51173 04181 99260 71739 46/// ///// 1//// 91800 22200 00238
BBXX 51176 04181 99278 71758 46/// ///// 1//// 91800 22200 00238
BBXX 51178 04181 99142 51695 46/// ///// 1//// 91800 22200 00285
BBXX 51174 04181 99142 51697 46/// ///// 1//// 91800 22200 00286
BBXX 51169 04181 99004 51600 46/// ///// 1//// 91800 22200 00247
BBXX 51179 04181 99143 51708 46/// ///// 1//// 91800 22200 00287
BBXX 51170 04181 99168 71695 46/// ///// 1//// 91800 22200 00257
BBXX 51171 04181 99064 71623 46/// ///// 1//// 91800 22200 00274
BBXX 62027 04184 99491 70022 46/// /2626 1//// 2//// 40227 57024 22200 00106 10906 332// 70030
BBXX MINFR05 0418/ 99055 10000 46/// ///// 10270 40101 52010
BBXX MINFR05 0418/ 99055 10000 46/// ///// 10270 40101 52010
BBXX 63106 04184 99610 10017 46/// /2809 10046 49776 57041 22200
BBXX 63113 04184 99610 10017 46/// /3005 10047 20001 49777 57054 22200 10707 70033
BBXX 64049 04183 99571 10022 41/97 82540 10074 20070 49830 54000 70211 8//// 22200 04082 20608 325// 40612 5//// 80072
BBXX 62094 04184 99517 70067 46/// /2532 10104 20081 40126 57020 22200 00103 10709 70045 333 90710 91144
BBXX 62163 04184 99475 70084 46/// /2526 10115 20074 40300 58004 22200 00123 10810 70049 333 90710 91136
BBXX 62103 04184 99499 70029 46/98 /2640 10108 20076 40190 55029 22200 00115 10807 70033 333 90710 91156
AAXX 04181 38844 41/// 92703 11037 21038 48520 58007 78684 333 96045
AAXX 04181 38734 425// 60000 11065 21093 47990 51001 83903
AAXX 04181 38933 415// 81802 10062 20036 39690 40207 52004 76162 8802/
BBXX UGWJ 04181 99313 30361 42/98 60307 10255 40170 54000 22252 00240 20302 32400 40906
AAXX 04181 21908 42999 53201 11277 21294 30069 40157 52003 80002
AAXX 04184 03707 17459 /2729 10091 20081 30152 40159 58021 60012 757// 91750 333 10099 81/11 85/17 85/32 90710 91143 91043
BBXX 62163 04184 99475 70084 46/// /2627 10104 20063 40302 58004 22200 00123 10809 70047 333 90710 91136
BBXX PJGO 04184 99571 10022 47/96 /2333 10058 49863 57070 762// 22200
BBXX 63106 04184 99610 10017 46/// /2809 10046 49776 57041 22200
BBXX 63105 04184 99610 10017 47998 ///// 10052 21001 49776 57042 700// 22200
BBXX 62103 04184 99499 70029 46/98 /2740 10109 20074 40184 57022 22200 00115 10808 70039 333 90710 91158
BBXX 62094 04184 99517 70067 46/// /25// 10104 20081 40126 57020 22200 00103 10709 70045 333 90710 91144
BBXX UGWJ 04181 99313 30361 42/98 60307 10255 40170 54000 22252 00240 20302 32400 40906
BBXX UIFY 04181 99514 11409 41592 93404 11077 21137 40130 52012 77577 22200 01007 2//// ICE 41092
AAXX 04184 48373 31530 60000 10250 20212 30067 40130 57002 71422 82535 333 58009
AAXX 04184 48384 31959 00000 10210 20160 39959 40154 51020 71000 333 58019 70003
AAXX 04181 25745 42998 00901 11420 21448 30163 40223 57006
BBXX UIFY 04181 99514 11409 41592 93404 11077 21137 40130 52012 77577 22200 01007 2//// ICE 41092
BBXX 42044 04181 99262 70971 46/// /1503 10173 20143 40232 91830 333 91204
BBXX 42044 04181 99262 70971 46/// /1502 10173 20142 40239 91800 333 91203
AAXX 04184 97340 32560 82206 10246 20240 30070 40085 57016 82232 333 56000 82620 86080
AAXX 04184 97086 32560 72803 10273 20229 30068 40093 56013 83571 333 56000 83620 85460
BBXX KSDF 04184 99367 10130 41498 73030 10156 20117 40220 54000 71522 875// 22273 0//// 20202 330// 40504 5//// 6//// 80133 ICE /////
BBXX PDBP 04183 99393 10034 41498 23616 10158 20104 40289 53023 70322 82140 22253 04168 20302 80127
BBXX PCSV 04183 99191 50103 41598 72010 10228 20183 40175 57/// 70222 8457/ 22273 04213 20501 325// 40802 80198
AAXX 04181 31534 42999 20000 11317 21335 39878 40266 52003 80005
BBXX 42044 04181 99262 70971 46/// /1503 10173 20143 40232 91830 333 91204
BBXX 42044 04181 99262 70971 46/// /1502 10173 20142 40239 91800 333 91203
BBXX SERW 04183 99167 70303 43598 70613 10227 2//// 40158 56016 70322 8517/ 22262 06237 20302 304// 40806
AAXX 04184 16294 42597 60000 10130 20096 39992 40185 56006 6///2 86800 333 10150 83830 84633 555 0////
BBXX SMGW 04181 99138 70949 43/98 10113 10199 40176 50002 22234 00181 20806 41106
BBXX SBLW 04183 99507 71324 43/96 71837 10088 49956 58019 22273 00084 21008 41009
BBXX 9V9243 04183 99172 11132 41/97 /0527 10229 40167 58001 70222 8//// 22283 00248 2////
BBXX SBLI 04181 99196 11152 43/98 80513 10199 40203 58016 22254 00230 2//// 4////
AAXX 0418/ 68902 46/// ///// 40028 57012
AAXX 04181 10499 11685 52608 10047 21007 39837 40130 52015 69902 70385 85500 333 10068 20042 31003 55300 20000 30000 85646 91119 91211
BBXX BATFR53 04184 99140 51139 445// 41210 10240 20184 40192 51010 70211 83402 22222 00247 201// 311// 41402 5////
BBXX IDDUK02 04184 99537 50380 46/// ///// 49937 222//
BBXX DMQN 04184 99214 50389 41698 71408 10240 20219 40132 57008 70322 8706/ 22243 04260 20402 3//// 4//// 5//// 80225
AAXX 04181 08501 12/// /0403 10157 20136 30263 40299 57004 60012 333 10167 91006 91107 555 60005
AAXX 04181 08505 12470 61103 10174 20124 30236 40285 53005 69932 83842 333 10191 82816 84070 555 60007
AAXX 04181 08506 12/// /1505 10170 20109 30222 40294 52010 69912 333 10184 91008 91113 555 60005
AAXX 04181 08509 11360 51310 10164 20150 30239 40304 52010 69962 72581 85800 333 10182 81708 83820 91112 555 69927
AAXX 04181 08511 12/// /1106 10160 20140 30195 40303 52009 69912 333 10173 91009 91111 555 60005
AAXX 04181 08512 12470 51207 10172 20153 30224 40309 52010 69942 84801 333 10175 84815 91111 555 60005
AAXX 04181 08515 11465 41308 10168 20142 30187 40309 52012 60022 70281 82231 333 10183 82814 910// 911// 555 60007 912//
AAXX 04181 08521 NIL
AAXX 04181 08522 32568 60805 10174 20087 30235 40305 52002 81109 222// 313// 40302 333 10197 81823 85199 91010 91111 555 60005
AAXX 04181 08524 32470 40903 10166 20108 30222 40320 52004 83802 333 10188 82815 91007 91109 555 60005
AAXX 04181 08530 NIL
AAXX 04181 08531 32/// /0207 10149 20132 30326 40365 52009 333 10150 555 60005
AAXX 04181 08532 NIL
AAXX 04181 08533 32/// /0205 10139 20092 30299 40328 52004 333 10178 91108 555 60005
AAXX 04180 08534 32965 00106 10144 20109 30327 40345 53002 333 10180 555 60007
AAXX 04181 08535 32/// /3506 10149 20108 30257 40350 52007 333 10187 91010 91110 555 60005
AAXX 04181 08537 NIL
AAXX 04181 08540 31558 33404 10130 20112 30292 40362 53011 71000 83200 333 10170 83822 555 60007
AAXX 04181 08541 32/// /0104 10124 20075 30220 40341 52006 333 10176 555 60005
AAXX 04181 08544 11458 70202 10140 20123 30340 40361 50005 69902 71052 878// 333 10156 82812 86620 555 69907
AAXX 04181 08545 NIL
AAXX 04181 08548 32/// /0301 10130 20111 30155 40364 52008 333 10155 91106 555 60005
AAXX 04181 08551 11245 20000 10119 20109 30310 40369 57003 60022 71062 82500 333 10138 81705 555 60005
AAXX 04181 08554 32965 03603 10156 20058 30315 40324 52001 333 10190 555 60005
AAXX 04181 08558 12/// /0203 10115 20068 30045 40344 52007 69912 333 10162 91106 555 60005
AAXX 04181 08560 32/// /3602 10102 20074 39598 40367 52009 333 10141 555 60005
AAXX 04181 08561 32970 00204 10115 20060 30104 40342 53006 333 10168 555 60007
AAXX 04181 08562 32/// /0404 10116 20048 30038 40336 52006 333 10159 91106 555 60005
AAXX 04181 08567 32/// /1801 10092 20087 39692 40368 52005 333 10127 555 60005
AAXX 04181 08568 32/// /2905 10057 20052 38783 48646 52007 333 10109 91108 555 60005
AAXX 04181 08570 31575 10203 10139 20079 39887 40348 52012 70200 81100 333 10176 81818 91107 555 60005
AAXX 04181 08571 32/// /0105 10125 20069 39641 40350 52011 333 10145 91008 91108 555 60005
AAXX 04181 08575 32/// /2804 10104 20068 39535 40355 54000 333 10140 91007 91107 555 60005
AAXX 04181 08579 32/// /2404 10144 20106 30224 40350 52007 333 10183 91009 91109 555 60005
BBXX PCSV 04183 99191 50103 41598 72010 10228 20183 40175 57/// 70222 8457/ 22273 04213 20501 325// 40802 80198
BBXX BATFR05 04184 99226 70177 46/// /0214 10187 20137 40193 53006 22282 00189
BBXX BATFR19 04184 99064 30058 46/// /1912 10242 20204 40126 53015 22200 00259
BBXX A8CE9 04184 99003 10567 41297 30414 10266 20228 40122 54000 70100 834// 22214 04290 20303 80239
BBXX V7OX3 04181 99356 50008 41/97 /3210 10190 20174 40150 54000 703// 8//// 22223 04200 21203 3//// 4//// 5//// 80180
BBXX A8RV9 04184 99310 30038 41598 32210 10220 20166 40200 53/// 70300 8/16/ 22234 20601 321// 41206 5//// 80185
BBXX DCAX2 04183 99300 51265 41597 60926 10231 20170 40210 54000 70311 86134 22223 21605 313// 41606 5//// 80191
AAXX 04181 60370 36/// /3001 10138 20110 333 10172
AAXX 04181 60371 36/// /2003 10144 20111 333 10168
AAXX 04181 60372 36/// /3005 10114 20114 333 10143
AAXX 04181 60373 NIL
AAXX 04181 60374 NIL
AAXX 04181 60376 NIL
AAXX 04181 60379 NIL
AAXX 04181 60380 NIL
AAXX 04181 60381 NIL
AAXX 04181 60393 NIL
AAXX 04181 60394 NIL
AAXX 04181 60593 NIL
AAXX 04181 60595 NIL
AAXX 04181 60605 NIL
AAXX 04181 60613 NIL
AAXX 04181 60623 NIL
AAXX 04184 60624 36/// /0000 10189 21041 333 10217
AAXX 04184 60639 NIL
AAXX 04184 60645 36/// /0000 10176 21004 333 10223
BBXX BAREU08 04184 99280 70494 46/// ///// 40228 57019 22254
BBXX BAREU04 04184 99455 70457 46/// ///// 40100 57005 22224
BBXX 41101 04184 99146 70562 46/// /0816 10262 20210 40134 57026 22200 00267 10805 70027
BBXX FVNM 04184 99172 70875 46/// /3521 10232 20177 40235 58014 22200 00269
BBXX BATFR16 04184 99365 70380 44697 51215 10169 20100 40284 55007 70111 85555 22214 00192 21104 334// 41104 5////
BBXX BATEU01 04184 99468 70571 44497 73640 10019 20012 49764 56096 70222 84367 22264 00042 21004 318// 41404 5////
BBXX DCPC2 04184 99237 71766 41898 31410 10240 20196 40210 56010 70300 82468 22264 00250 21202 332// 41202 5//// 80210
BBXX C6CU6 04183 99141 70606 41497 31219 10281 20245 40147 50000 70200 831// 22233 04272 20804 310// 41104 5//// 80256
BBXX SHIP 04184 99411 70405 41298 71722 10167 20118 40257 57008 71522 8617/ 22224 04170 20706 326// 41004 80138
AAXX 04183 41150 42665 32913 10162 20106 40191 83500 333 10196 58003 83625
AAXX 04181 08560 31475 63602 10102 20074 39598 40367 53009 70122 85800 333 10141 82815 85617 555 60005
BBXX PCEO 04183 99120 70686 41398 60903 10292 20253 40134 58026 7//// 84770 22254 04276 2//// 30000 40000 5//// 80263
AAXX 04184 40153 12960 40711 10079 20012 39118 48511 52002 60002 84080 333 10115
AAXX 04184 40179 12960 30703 10137 20071 30150 40188 52007 60002 83030 333 10196
AAXX 04184 40180 12960 50803 10133 20063 30143 40192 52007 60002 85030 333 10201
AAXX 04184 40190 16/// ///// 10142 20043 39852 40185 52008 60002 333 10208
AAXX 04184 40199 12965 00203 10172 20025 30148 40171 52013 60002 333 10236
AAXX 04184 60595 36/// /0000 11451 333 11451
AAXX 04184 60381 36/// /2201 10140 20107 333 10182
AAXX 04184 60639 36/// /3409 10131 21015 333 10159
AAXX 04184 60605 36/// /0707 10157 21009 333 10193
BBXX PCEO 04183 99120 70686 41398 60903 10292 20253 40134 58026 7//// 84770 22254 04276 2//// 30000 40000 5//// 80263
AAXX 04181 60373 36/// /3205 10134 20133 333 10152
AAXX 04181 60393 16/// /2002 10148 20107 69922 333 10182
AAXX 04181 60623 36/// /0000 10127 21125 333 10162
AAXX 04181 08545 11350 83401 10115 20094 30285 40370 52006 69902 71022 888// 333 10155 84708 87813 555 60005
AAXX 04184 89002 42699 72514 11020 21046 39783 49837 57007 875//
AAXX 04181 60379 36/// /2903 10145 20145 333 10175
AAXX 04181 60380 36/// /3304 10137 20114 333 10167
AAXX 04181 60394 16/// /2201 10134 20114 69922 333 10177
AAXX 04181 60374 36/// /2806 10150 20140 333 10164
AAXX 04181 60613 36/// /3204 10097 21014 333 10144
BBXX A8RW4 04183 99171 30618 41498 41318 10260 20218 40130 53020 70200 84164 22214 04280 20404 311// 40404 80230
BBXX VQNW6 04184 99205 31040 41598 41608 10243 20192 40143 51010 70022 8/1/5 22233 00266 2//// 316// 40604 5//// 80210
BBXX WHKM 04184 99252 31052 41498 81820 10220 20174 40140 58020 72582 882// 22233 0//// 20303 312// 40804 5//// 6//// 80190 /////
BBXX LAIP5 04183 99260 30083 41297 71615 10200 20192 40190 53003 70222 8/76/ 22233 04190 20603 317// 40804 5//// 80195
BBXX MINUK05 0418/ 99571 70021 46/// ///// 10068 49823 57085
BBXX MINUK04 0418/ 99555 10084 46/// ///// 10068 4//// 52011
BBXX MINUK01 0418/ 99571 70021 46/// ///// 10068 49830 57087
AAXX 04181 60376 36/// /2703 10148 20148 333 10173
AAXX 04181 60593 36/// /0000 10145 333 10182
BBXX NIL
BBXX A8AD7 04183 99052 70100 41795 43612 10280 20239 40100 56010 70000 83578 22272 02290 2//// 30000 80250
BBXX NIL
AAXX 04184 60660 36/// /3514 10188 21031 333 10215
AAXX 04184 60692 36/// /0312 10200 21026 333 10234
AAXX 04184 60672 36/// /0708 10127 21051 333 10148
AAXX 04184 60662 36/// /0000 10084 21050 333 10109
AAXX 04184 60691 36/// /0514 10190 21047 333 10230
BBXX BAREU06 04184 99435 10077 46/// ///// 40186 22254
AAXX 04184 60633 36/// /3407 10192 21088 333 10238
AAXX 04184 60667 36/// /0000 10125 21022 333 10166
BBXX NIL
BBXX NIL
AAXX 04184 60661 36/// /0309 10120 21044 333 10179
BBXX MINFR09 0418/ 99326 11334 46/// ///// 40217 52026
BBXX A8LK5 31201 04183 99383 70001 41/98 /2808 10200 20140 40310 57020 70000 80000 22214 00210 2//// 3//// 4//// 5//// 80160
AAXX 04184 60677 36/// /0000 10099 21025 333 10140
BBXX OXHY2 04183 99221 10374 41/98 /3508 10220 20183 40158 52007 7//00 8//// 22234 20101 30000 40000 5//// 80195
BBXX OXHY2 04183 99221 10374 41/98 /3508 10220 20183 40158 52007 7//00 8//// 22234 20101 30000 40000 5//// 80195
BBXX A8AD7 04183 99052 70100 41795 43612 10280 20239 40100 56010 70000 83578 22272 02290 2//// 30000 80250
AAXX 04181 89064 32360 82603 10021 29083 49873 57008 8552/
AAXX 04184 60676 36/// /0120 10124 21013 333 10161
BBXX NIL
BBXX 63106 04184 99610 10017 46/// /2809 10046 49776 57041 22200
BBXX 63113 04184 99610 10017 46/// /3005 10047 20001 49777 57054 22200 10707 70033
BBXX 64049 04183 99571 10022 41/97 82540 10074 20070 49830 54000 70211 8//// 22200 04082 20608 325// 40612 5//// 80072
BBXX 62094 04184 99517 70067 46/// /2532 10104 20081 40126 57020 22200 00103 10709 70045 333 90710 91144
BBXX 62163 04184 99475 70084 46/// /2526 10115 20074 40300 58004 22200 00123 10810 70049 333 90710 91136
BBXX 62103 04184 99499 70029 46/98 /2640 10108 20076 40190 55029 22200 00115 10807 70033 333 90710 91156
BBXX 62095 04184 99531 70159 46/// /2528 10109 20102 40114 50003 22200 00111 10917 70084 333 90710 91144
BBXX 62094 04184 99517 70067 46/// /25// 10104 20081 40126 57020 22200 00103 10709 70045 333 90710 91144
BBXX 62023 04183 99514 70079 46/96 /2647 10102 2//// 40149 5//// 22200 10711 70053 333 91160 555 70091 81004
BBXX 62305 04184 99504 10000 46/97 /2539 10107 20070 40177 56030 22200 00113 10806 70029 333 90710 91154
BBXX 62107 04184 99501 70061 46/// /2739 10109 20068 40199 57018 22200 00114 10909 70045 333 90710 91153
BBXX DCPI2 04183 99468 70074 41/97 /2634 10110 20072 40307 53017 70222 8//// 22254 00110 2//// 80090
BBXX MINFR03 0418/ 99168 10607 46/// ///// 10238 40150 52004
AAXX 04184 91367 11474 41005 10272 20257 60011 70161 84100 333 562// 84815 555 90418
BBXX IDDUK02 04184 99537 50380 46/// ///// 49937 222//
BBXX BATFR53 04184 99140 51139 445// 41210 10240 20184 40192 51010 70211 83402 22222 00247 201// 311// 41402 5////
BBXX DMQN 04184 99214 50389 41698 71408 10240 20219 40132 57008 70322 8706/ 22243 04260 20402 3//// 4//// 5//// 80225
BBXX PCEO 04183 99120 70686 41398 60903 10292 20253 40134 58026 7//// 84770 22254 04276 2//// 30000 40000 5//// 80263
BBXX SBLW 04183 99507 71324 43/96 71837 10088 49956 58019 22273 00084 21008 41009
BBXX MINFR03 0418/ 99168 10607 46/// ///// 10238 40150 52004
BBXX OXHY2 04183 99221 10374 41/98 /3508 10220 20183 40158 52007 7//00 8//// 22234 20101 30000 40000 5//// 80195
BBXX A8AD7 04183 99052 70100 41795 43612 10280 20239 40100 56010 70000 83578 22272 02290 2//// 30000 80250
BBXX SERW 04183 99167 70303 43598 70613 10227 2//// 40158 56016 70322 8517/ 22262 06237 20302 304// 40806
BBXX PCSV 04183 99191 50103 41598 72010 10228 20183 40175 57/// 70222 8457/ 22273 04213 20501 325// 40802 80198
BBXX MINFR09 0418/ 99326 11334 46/// ///// 40217 52026
BBXX 9V9243 04183 99172 11132 41/97 /0527 10229 40167 58001 70222 8//// 22283 00248 2////
BBXX SBLI 04181 99196 11152 43/98 80513 10199 40203 58016 22254 00230 2//// 4////
BBXX SMGW 04181 99138 70949 43/98 10113 10199 40176 50002 22234 00181 20806 41106
BBXX SLCO 04184 99026 31543 43/97 72717 10272 40069 55015 22274 00288 2//// 4////
BBXX MINUK04 0418/ 99555 10084 46/// ///// 10068 4//// 52011
BBXX 66022 04181 99541 10142 46/// /2413 10051 30010 22200 00040
BBXX MINUK01 0418/ 99571 70021 46/// ///// 10068 49830 57087
BBXX MINUK05 0418/ 99571 70021 46/// ///// 10068 49823 57085
AAXX 04180 44298 329// 00000 11248 21248 38718 40337 52001
BBXX UGWJ 04181 99313 30361 42/98 60307 10255 40170 54000 22252 00240 20302 32400 40906
AAXX 04184 91367 11474 41005 10272 20257 60011 70161 84100 333 562// 84815 555 90418
BBXX MINUK01 0418/ 99571 70021 46/// ///// 10068 49830 57087
BBXX 62163 04184 99475 70084 46/// /2627 10104 20063 40302 58004 22200 00123 10809 70047 333 90710 91136
BBXX PJGO 04184 99571 10022 47/96 /2333 10058 49863 57070 762// 22200
BBXX 63106 04184 99610 10017 46/// /2809 10046 49776 57041 22200
BBXX 63105 04184 99610 10017 47998 ///// 10052 21001 49776 57042 700// 22200
BBXX 62103 04184 99499 70029 46/98 /2740 10109 20074 40184 57022 22200 00115 10808 70039 333 90710 91158
BBXX 62094 04184 99517 70067 46/// /25// 10104 20081 40126 57020 22200 00103 10709 70045 333 90710 91144
BBXX MINFR09 0418/ 99326 11334 46/// ///// 40217 52026
AAXX 04184 97310 31458 70000 10256 20238 30063 40075 57019 60021 70262 84221 333 56000 57802 84818 86459 80840
BBXX 63106 04184 99610 10017 46/// /2809 10046 49776 57041 22200
BBXX 63113 04184 99610 10017 46/// /3005 10047 20001 49777 57054 22200 10707 70033
BBXX 64049 04183 99571 10022 41/97 82540 10074 20070 49830 54000 70211 8//// 22200 04082 20608 325// 40612 5//// 80072
BBXX 62094 04184 99517 70067 46/// /2532 10104 20081 40126 57020 22200 00103 10709 70045 333 90710 91144
BBXX 62163 04184 99475 70084 46/// /2526 10115 20074 40300 58004 22200 00123 10810 70049 333 90710 91136
BBXX 62103 04184 99499 70029 46/98 /2640 10108 20076 40190 55029 22200 00115 10807 70033 333 90710 91156
AAXX 04181 10708 11583 72108 10046 20009 39826 40218 58017 69902 70282 878// 333 10060 20037 32002 55300 20000 30000 82824 87650 91114
AAXX 04184 03894 11466 72530 10100 20071 40213 56027 69902 70286 878// 333 10106 84817 87633 90710 91142
AAXX 0418/ 89332 46/// ///// 11038 39118 4//// 5//// 91820
AAXX 04184 03895 41462 82524 10094 20075 40223 57020 76086 888// 333 10104 85810 87616 90710 91140 91034
AAXX 04184 03896 16/// ///// 10102 69902 333 10108
BBXX 62163 04184 99475 70084 46/// /2627 10104 20063 40302 58004 22200 00123 10809 70047 333 90710 91136
BBXX PJGO 04184 99571 10022 47/96 /2333 10058 49863 57070 762// 22200
BBXX 63106 04184 99610 10017 46/// /2809 10046 49776 57041 22200
BBXX 63105 04184 99610 10017 47998 ///// 10052 21001 49776 57042 700// 22200
BBXX 62103 04184 99499 70029 46/98 /2740 10109 20074 40184 57022 22200 00115 10808 70039 333 90710 91158
BBXX 62094 04184 99517 70067 46/// /25// 10104 20081 40126 57020 22200 00103 10709 70045 333 90710 91144
AAXX 04184 71372 16/// /1609 11106 21130 60001 333 11105 21177 70000
BBXX 42046 04181 99279 70940 46/// /1807 1//// 40253 91830 22200 00217 333 91209
BBXX 42046 04181 99279 70940 46/// /1807 1//// 40260 91800 22200 00217 333 91209
AAXX 04181 23226 32660 81003 11115 21177 39943 40169 57011 885// 333 11090 88643
BBXX 63106 04184 99610 10017 46/// /2809 10046 49776 57041 22200
BBXX 63113 04184 99610 10017 46/// /3005 10047 20001 49777 57054 22200 10707 70033
BBXX 64049 04183 99571 10022 41/97 82540 10074 20070 49830 54000 70211 8//// 22200 04082 20608 325// 40612 5//// 80072
BBXX 62094 04184 99517 70067 46/// /2532 10104 20081 40126 57020 22200 00103 10709 70045 333 90710 91144
BBXX 62163 04184 99475 70084 46/// /2526 10115 20074 40300 58004 22200 00123 10810 70049 333 90710 91136
BBXX 62103 04184 99499 70029 46/98 /2640 10108 20076 40190 55029 22200 00115 10807 70033 333 90710 91156
BBXX 52249 04181 99052 31503 46/// ///// 1//// 91800 22200 00304
AAXX 04181 38847 418// 72702 10049 20024 40219 52004 70282 875//
AAXX 04181 30961 41897 81502 11225 21237 39441 40293 57019 77172 8802/
AAXX 04184 97560 32460 81204 10258 20240 30086 40101 57014 83977 333 56000 57903 57804 82917 83620 85361 88279 80980 80860
BBXX 62163 04184 99475 70084 46/// /2627 10104 20063 40302 58004 22200 00123 10809 70047 333 90710 91136
BBXX PJGO 04184 99571 10022 47/96 /2333 10058 49863 57070 762// 22200
BBXX 63106 04184 99610 10017 46/// /2809 10046 49776 57041 22200
BBXX 63105 04184 99610 10017 47998 ///// 10052 21001 49776 57042 700// 22200
BBXX 62103 04184 99499 70029 46/98 /2740 10109 20074 40184 57022 22200 00115 10808 70039 333 90710 91158
BBXX 62094 04184 99517 70067 46/// /25// 10104 20081 40126 57020 22200 00103 10709 70045 333 90710 91144
BBXX 52249 04181 99052 31503 46/// ///// 1//// 91800 22200 00304
AAXX 04184 96751 32540 60000 10203 20176 39038 48920 56007 84510 333 56500 84620 83460
BBXX 63106 04184 99610 10017 46/// /2809 10046 49776 57041 22200
BBXX 63113 04184 99610 10017 46/// /3005 10047 20001 49777 57054 22200 10707 70033
BBXX 64049 04183 99571 10022 41/97 82540 10074 20070 49830 54000 70211 8//// 22200 04082 20608 325// 40612 5//// 80072
BBXX 62094 04184 99517 70067 46/// /2532 10104 20081 40126 57020 22200 00103 10709 70045 333 90710 91144
BBXX 62163 04184 99475 70084 46/// /2526 10115 20074 40300 58004 22200 00123 10810 70049 333 90710 91136
BBXX 62103 04184 99499 70029 46/98 /2640 10108 20076 40190 55029 22200 00115 10807 70033 333 90710 91156
AAXX 04181 78090 15/// /0000 10167 30256 40261 69901 91800 222// 00211
BBXX 62163 04184 99475 70084 46/// /2627 10104 20063 40302 58004 22200 00123 10809 70047 333 90710 91136
BBXX PJGO 04184 99571 10022 47/96 /2333 10058 49863 57070 762// 22200
BBXX 63106 04184 99610 10017 46/// /2809 10046 49776 57041 22200
BBXX 63105 04184 99610 10017 47998 ///// 10052 21001 49776 57042 700// 22200
BBXX 62103 04184 99499 70029 46/98 /2740 10109 20074 40184 57022 22200 00115 10808 70039 333 90710 91158
BBXX 62094 04184 99517 70067 46/// /25// 10104 20081 40126 57020 22200 00103 10709 70045 333 90710 91144
AAXX 04184 48372 31556 60000 10257 20239 30073 40131 57004 71011 82536 333 58012
AAXX 04184 97028 32560 71103 10250 20244 30094 40100 53000 83521 333 56000 83620 86460
BBXX 63106 04184 99610 10017 46/// /2809 10046 49776 57041 22200
BBXX 63113 04184 99610 10017 46/// /3005 10047 20001 49777 57054 22200 10707 70033
BBXX 64049 04183 99571 10022 41/97 82540 10074 20070 49830 54000 70211 8//// 22200 04082 20608 325// 40612 5//// 80072
BBXX 62094 04184 99517 70067 46/// /2532 10104 20081 40126 57020 22200 00103 10709 70045 333 90710 91144
BBXX 62163 04184 99475 70084 46/// /2526 10115 20074 40300 58004 22200 00123 10810 70049 333 90710 91136
BBXX 62103 04184 99499 70029 46/98 /2640 10108 20076 40190 55029 22200 00115 10807 70033 333 90710 91156
BBXX 62163 04184 99475 70084 46/// /2627 10104 20063 40302 58004 22200 00123 10809 70047 333 90710 91136
BBXX PJGO 04184 99571 10022 47/96 /2333 10058 49863 57070 762// 22200
BBXX 63106 04184 99610 10017 46/// /2809 10046 49776 57041 22200
BBXX 63105 04184 99610 10017 47998 ///// 10052 21001 49776 57042 700// 22200
BBXX 62103 04184 99499 70029 46/98 /2740 10109 20074 40184 57022 22200 00115 10808 70039 333 90710 91158
BBXX 62094 04184 99517 70067 46/// /25// 10104 20081 40126 57020 22200 00103 10709 70045 333 90710 91144
AAXX 04184 91723 NIL
AAXX 04184 91964 36/// /0204 10254 20233 40175 52001
BBXX 63106 04184 99610 10017 46/// /2809 10046 49776 57041 22200
BBXX 63113 04184 99610 10017 46/// /3005 10047 20001 49777 57054 22200 10707 70033
BBXX 64049 04183 99571 10022 41/97 82540 10074 20070 49830 54000 70211 8//// 22200 04082 20608 325// 40612 5//// 80072
BBXX 62094 04184 99517 70067 46/// /2532 10104 20081 40126 57020 22200 00103 10709 70045 333 90710 91144
BBXX 62163 04184 99475 70084 46/// /2526 10115 20074 40300 58004 22200 00123 10810 70049 333 90710 91136
BBXX 62103 04184 99499 70029 46/98 /2640 10108 20076 40190 55029 22200 00115 10807 70033 333 90710 91156
AAXX 04184 48583 31558 40000 10244 20229 30121 40127 57007 71011 82106 333 58012
AAXX 04184 48437 31958 20000 10230 20199 39935 40147 57004 71000 80001 333 58015
AAXX 04184 71397 11440 83107 11090 21109 30044 40079 56011 60031 78588 885// 333 11084 21121 47003 70030 90983 93103
AAXX 04184 71397 11440 83107 11090 21109 30044 40079 56011 60031 78588 885// 333 11084 21121 47003 70030 90983 93103
BBXX 62163 04184 99475 70084 46/// /2627 10104 20063 40302 58004 22200 00123 10809 70047 333 90710 91136
BBXX PJGO 04184 99571 10022 47/96 /2333 10058 49863 57070 762// 22200
BBXX 63106 04184 99610 10017 46/// /2809 10046 49776 57041 22200
BBXX 63105 04184 99610 10017 47998 ///// 10052 21001 49776 57042 700// 22200
BBXX 62103 04184 99499 70029 46/98 /2740 10109 20074 40184 57022 22200 00115 10808 70039 333 90710 91158
BBXX 62094 04184 99517 70067 46/// /25// 10104 20081 40126 57020 22200 00103 10709 70045 333 90710 91144
AAXX 04181 31152 32998 60000 11394 21429 39882 40350 52005 83032 333 21405 47034 55032
AAXX 04181 31168 32999 60502 11167 21217 30223 40235 52004 80001 333 21189 47026 55027
AAXX 04184 48581 31558 20000 10240 20220 30090 40132 57002 71000 81101 333 58002
AAXX 04181 31152 32998 60000 11394 21429 39882 40350 52005 83032 333 21405 47034 55032
BBXX 42047 04181 99279 70936 46/// /1806 10195 20110 40256 91830 22200 00217 333 91207
BBXX 42047 04181 99279 70936 46/// /1808 10196 20111 40260 91800 22200 00217 333 91208
AAXX 04184 41886 31920 00000 10144 20140 30107 40129 71044 333 59018 70000
BBXX 63106 04184 99610 10017 46/// /2809 10046 49776 57041 22200
BBXX 63113 04184 99610 10017 46/// /3005 10047 20001 49777 57054 22200 10707 70033
BBXX 64049 04183 99571 10022 41/97 82540 10074 20070 49830 54000 70211 8//// 22200 04082 20608 325// 40612 5//// 80072
BBXX 62094 04184 99517 70067 46/// /2532 10104 20081 40126 57020 22200 00103 10709 70045 333 90710 91144
BBXX 62163 04184 99475 70084 46/// /2526 10115 20074 40300 58004 22200 00123 10810 70049 333 90710 91136
BBXX 62103 04184 99499 70029 46/98 /2640 10108 20076 40190 55029 22200 00115 10807 70033 333 90710 91156
AAXX 04181 30781 42999 20000 11328 21345 39850 40388 52012 80001
AAXX 04184 82098 31596 60711 10288 20230 30076 40093 71521 83970 333 58004
AAXX 04184 82445 21495 80000 10252 20245 30087 40140 76165 8272/ 333 58027 60051
AAXX 04184 82562 32598 81803 10303 20245 39975 40082 88070 333 58005
AAXX 04184 82141 32598 43608 10299 20253 30089 40101 82281 333 59001
AAXX 04184 82145 32598 60503 10326 20233 30052 40093 84201 333 58002
AAXX 04184 82181 32497 70705 10323 20205 39979 40118 84720 333 58006
AAXX 04184 82198 32495 53607 10304 20233 30037 40088 85200 333 59001
AAXX 04184 82353 32597 51802 10299 20240 39985 40069 84330 333 58012
AAXX 04184 82361 32497 63403 10327 20241 30064 40101 86300 333 58002
AAXX 04184 82861 21597 81806 10263 20237 39919 40089 70262 8672/ 333 58016 60021
AAXX 04184 48556 32560 40000 10250 20238 30103 40119 57013 81106 333 59006
BBXX 62163 04184 99475 70084 46/// /2627 10104 20063 40302 58004 22200 00123 10809 70047 333 90710 91136
BBXX PJGO 04184 99571 10022 47/96 /2333 10058 49863 57070 762// 22200
BBXX 63106 04184 99610 10017 46/// /2809 10046 49776 57041 22200
BBXX 63105 04184 99610 10017 47998 ///// 10052 21001 49776 57042 700// 22200
BBXX 62103 04184 99499 70029 46/98 /2740 10109 20074 40184 57022 22200 00115 10808 70039 333 90710 91158
BBXX 62094 04184 99517 70067 46/// /25// 10104 20081 40126 57020 22200 00103 10709 70045 333 90710 91144
AAXX 04184 89573 44920 80725 11002 21012 39797 49819 57002 77070 8802/
AAXX 04184 89573 44920 80725 11002 21012 39797 49819 57002 77070 8802/
AAXX 04184 71178 47/// /0824 10013 20009 39834 49865 5/108 6///1 7//4/ 333 7////
AAXX 04184 71178 47/// /0824 10013 20009 39834 49865 5/108 6///1 7//4/ 333 7////
BBXX 4XFB 04184 99416 10036 41898 13533 10130 20090 40260 52100 70707 80/// 22255 00180 20407 335// 40715 5//// 80110
BBXX 4XFB 04184 99429 10097 41598 72105 10150 20120 40170 56040 70000 8//6/ 22273 00190 2//// 3//// 4//// 5//// 80135
BBXX 4XFB 04184 99416 10036 41898 13533 10130 20090 40260 52100 70707 80/// 22255 00180 20407 335// 40715 5//// 80110
BBXX 4XFB 04184 99429 10097 41598 72105 10150 20120 40170 56040 70000 8//6/ 22273 00190 2//// 3//// 4//// 5//// 80135
BBXX 4XFB 04184 99416 10036 41898 13533 10130 20090 40260 52100 70707 80/// 22255 00180 20407 335// 40715 5//// 80110
BBXX 4XFB 04184 99429 10097 41598 72105 10150 20120 40170 56040 70000 8//6/ 22273 00190 2//// 3//// 4//// 5//// 80135
AAXX 04184 41966 31940 30000 10185 20170 30086 40168 70522 83030 333 56090 58004 70000 83362
BBXX VRBK6 04184 99016 11044 41697 40118 10280 2023/ 40110 54000 70200 8413/ 22200 0//// 20510 30303 40408 50408 6//// 80250 ICE /////
BBXX VRBK6 04184 99016 11044 41697 40118 10280 2023/ 40110 54000 70200 8413/ 22200 0//// 20510 30303 40408 50408 6//// 80250 ICE /////
AAXX 04184 41264 26/70 /2709 10201 20054 39767 40137 333 0E021 10301 59003 70042
BBXX VRDT5 04183 99100 31320 41/// /0804 10330 2029/ 40100 54000 7//// 8//// 22273 00290 2//// 3//// 4//// 5//// 6//// 80300 ICE /////
BBXX VRDT5 04183 99100 31320 41/// /0804 10330 2029/ 40100 54000 7//// 8//// 22273 00290 2//// 3//// 4//// 5//// 6//// 80300 ICE /////
AAXX 04184 44454 42558 10000 10062 20052 38667 48500 81100 333 58007
AAXX 04184 71386 16/// /2907 11144 21186 39879 40091 56018 60001 333 11130 21161 70000
AAXX 04184 71386 16/// /2907 11144 21186 39879 40091 56018 60001 333 11130 21161 70000
AAXX 04181 38932 429// 80000 10020 20012 40212 52012 889//
AAXX 04184 67009 11565 80000 10240 20218 39976 40095 51010 69921 71562 879// 333 10300 84820 81920 86640 94966 95813
AAXX 04184 67009 11565 80000 10240 20218 39976 40095 51010 69921 71562 879// 333 10300 84820 81920 86640 94966 958136
AAXX 04181 15260 02998 00501 10002 21003 39618 40167 57005 60002 333 10063 21026 31009 60007 91002 91102
AAXX 04181 10852 17788 42507 10030 21013 39657 40239 51005 60022 70086 333 10051 20025 3/000 55300 20000 30000 81/50 84/75 91115 91211
AAXX 04184 03224 17250 /2433 10049 20047 39601 49943 58057 60122 762// 91750 333 10049 87/03 86/11 90710 91146 91044
AAXX 04181 25356 32999 10000 11445 21482 30089 40207 57006 80001 333 21451 48017 55000 91000
AAXX 04184 60686 12960 20408 10180 21081 40226 50001 60002 80002 333 10246 82073
AAXX 04181 10035 01570 72408 10059 20031 39942 40000 58021 60012 70281 875// 333 10065 20040 32003 55300 20000 30000 41077 69937 87622 91118 91211
BBXX ELVL8 04183 99280 70282 41398 10720 40250 54000 7//11 8/160 22224 20503 309// 40803 5////
BBXX ELVL8 04183 99280 70282 41398 10720 40250 54000 7//11 8/160 22224 20503 309// 40803 5////
AAXX 04181 11813 11580 62504 10046 21004 39829 40182 52020 60022 70266 84541 333 10063 82630 84656 86070
AAXX 04181 37472 31596 81402 10027 20011 30269 40246 58002 76162 8872/ 333 10038
AAXX 04181 10015 01558 82516 10071 20041 30006 40016 58026 69922 72186 8581/ 222// 02062 333 10075 20060 31005 55300 20000 30000 69907 83820 85630 88459 91122 91217
AAXX 04184 71005 16/// ///// 11028 21047 60001 333 11003 21073 70000
AAXX 04184 71047 16/// ///// 10000 21025 60001 333 10002 21038 70000
AAXX 04184 71507 16/// /3505 11041 21046 60001 333 11035 21084 70029
AAXX 04184 71233 16/// /1911 10099 21027 60001 333 10099 20003 70000
AAXX 04184 71245 46/// /2228 10001 21042 6///1 333 10010 21055 7////
AAXX 04184 71571 17/// /1911 10029 20014 38818 49992 55005 60021 7//4/ 333 10029 21002 70041
