AAXX 04004 78764 31460 70715 10198 20130 39048 40177 55011 71522 80005 333 10246 20188 30/// 58006 56//5 87075
AAXX 04004 78764 31460 70715 10198 20130 39048 40177 55011 71522 80005 333 10246 20188 30/// 58006 56//5 87075
BBXX ZMFR 03234 99430 51791 43/// /2614 10158 20087 40185 57006 22251 00152
BBXX ZMENA 03234 99377 31762 46/// ///// 10202 20156 40204 57011 22241
BBXX 44172 04001 99445 70634 46/// ///// 1//// 92331 22200 00053 11004 21004 320// 41101 70019
BBXX 44097 04001 99410 70711 46/// ///// 1//// 92332 22200 00109 10503 20503 70015
AAXX 04004 78764 31960 70715 10198 20130 39048 40177 55011 71522 80005 333 10246 20188 30/// 58006 56//5 87075
AAXX 04004 78764 31960 70715 10198 20130 39048 40177 55011 71522 80005 333 10246 20188 30/// 58006 56//5 87075
AAXX 04004 40340 32960 23610 10120 20070 40211 57010
AAXX 04004 40255 32960 00000 10068 20059 39517 40243 54000
AAXX 04004 78767 11465 72403 10222 20201 30170 40180 53010 69921 70552 81546 333 10283 20199 30/// 56000 58020 70057 81610 83360
AAXX 04004 78767 11465 72403 10222 20201 30170 40180 53010 69921 70552 81546 333 10283 20199 30/// 56000 58020 70057 81610 83360
AAXX 04004 40270 31950 00000 10056 20038 39328 40240 57009 70500
AAXX 04004 40272 31957 00000 10034 20019 39390 40241 57010 71022
BBXX 42362 04001 99278 70907 46/// /0305 10128 20017 40322 92345
BBXX 42363 04001 99282 70892 46/// /0308 10122 21011 40315 92345 333 91208
BBXX 42364 04001 99291 70881 46/// /3413 10100 21006 40319 92345
AAXX 04004 08495 12362 50000 10115 20099 30313 40321 51002 60001 85600 92350 333 85709
BBXX DBKV 04001 99236 70191 46/// /0610 10198 20122 40219 52006 22211 00207
BBXX DBBT 04001 99339 30184 46/// /2502 10187 20123 40148 57011 22220 00161
BBXX DBBU 04001 99544 10136 46/// /2312 10065 20041 49935 52005 22270 00057
BBXX DBFR 04001 99535 10086 46/// /2509 10065 20031 49983 52026 22240 00054
BBXX 46249 04001 99338 71197 46/// ///// 1//// 92337 22200 00151 11504 20902 326// 41504 70021
BBXX 46248 04001 99461 71247 46/// ///// 1//// 92334 22200 00095 11308 20806 327// 41305 70038
BBXX 46244 04001 99409 71244 46/// ///// 1//// 92335 22200 00108 11405 21003 328// 41404 70024
BBXX 41115 04001 99184 70673 46/// ///// 1//// 92335 22200 11101 21001 70006
BBXX 46237 04001 99378 71226 46/// ///// 1//// 92340 22200 00110 11506 21003 324// 41505 70031
AAXX 04004 78774 32670 80714 10254 20180 30039 40119 52004 84206 333 10307 20233 30/// 56202 58019 84835 87073
BBXX 41114 04001 99276 70802 46/// ///// 1//// 92346 22200 00216 11103 20502 303// 41101 70013
AAXX 04004 78774 32670 80714 10254 20180 30039 40119 52004 84206 333 10307 20233 30/// 56202 58019 84835 87073
BBXX 46212 04001 99408 71243 46/// ///// 1//// 92342 22200 00109 11304 20903 328// 41304 70022
BBXX 46218 04001 99345 71208 46/// ///// 1//// 92332 22200 00135 11507 21003 328// 41506 70034
BBXX 46211 04001 99469 71242 46/// ///// 1//// 92336 22200 00085 11306 21004 326// 41304 70031
BBXX 44098 04001 99428 70702 46/// ///// 1//// 92337 22200 00081 10403 20403 70013
BBXX PCEO 04003 99141 70656 41699 40605 10260 20221 40154 52015 7//// 8/5// 22254 04265 20701 3//// 4//// 5//// 80232
AAXX 04004 68906 11495 82810 10177 20158 30018 40081 58004 60033 76166 8802/ 333 10186 20166 91028 555 20032 69945 91008
AAXX 04004 91376 32480 31306 10298 20246 30113 40117 50000 82101 333 20270 563/9 58019 555 90400
AAXX 04004 91376 32480 31306 10298 20246 30113 40117 50000 82101 333 20270 563/9 58019 555 90400
BBXX 44060 04001 99413 70721 46/// ///09 11049 40157 92345 22200 00085 333 91211 555 11093 22098
BBXX 44022 04001 99409 70737 46/// ///09 11046 21146 40186 92345 22200 00062 333 91213 555 11098 22103
BBXX 46114 04001 99364 71222 46/// ///// 1//// 92334 22200 00121 11207 21003 327// 41206 70036
BBXX 46060 04001 99606 71468 46/// /3410 10007 49894 58043 92350 22200 00045 11101 20301 320// 41101 70007 333 91211 555 11102 22107 32345 43511 62349 344094 348092 346084 345071 349066 352060 83510 92337
BBXX 41012 04001 99300 70805 46/// /3109 10077 40271 53014 92350 22200 00226 10704 20703 307// 41001 70018 333 91212 555 11093 22097 32333 43013 62349 310092 309099 299088 305091 312093 310090
BBXX 52200 04001 99134 11448 46/// ///// 1//// 92345 22200 00286 11103 21002 309// 41101 70013
AAXX 04004 91643 11498 80208 10267 20250 40113 58011 60081 78028 8437/ 333 20240 52814 5689/ 70981 84917 88460
AAXX 04004 91643 11498 80208 10267 20250 40113 58011 60081 78028 8437/ 333 20240 52814 5689/ 70981 84917 88460
AAXX 04001 13579 32965 03502 11028 21039 40430 40306 57005 333 92001
AAXX 04004 68994 12598 12919 10059 20000 39972 40001 52019 60023 81100 333 10115 20036 91031 555 20024 91000
BBXX A8SF7 04001 99278 51482 41/97 93516 10265 20244 40100 58035 76011 89/// 22264 04220 20804 332// 41105 5//// 80250
BBXX BAREU63 04004 99328 10206 46/// /2111 10148 29074 40239 57007 22213
BBXX 2BLY5 04003 99057 70338 41397 80320 10270 20218 40130 53/// 78055 8/7// 22214 04287 20704 80235
BBXX TESTFR9 04004 99500 70038 46/// /3029 10098 29070 40194 22234
AAXX 04004 08594 31457 70612 10210 20170 40177 70622 8323/ 333 59006 83615 87359
AAXX 04004 08583 31558 50614 10205 20157 40191 70621 82180 333 59015 82828 85359
AAXX 04004 05889 NIL
AAXX 04004 68392 36/// /1705 10185 20175 30241 4//// 56001 333 10312 20185 91008 555
AAXX 04004 68382 36/// /1106 10190 20166 39368 48543 54000 333 10315 20190 91013 555 91018
AAXX 04004 16597 11460 83104 10105 20101 30124 40212 58012 60041 76166 8212/ 333 82815 87550
AAXX 04004 91772 11398 80000 10250 20247 4//// 60121 76186 8772/ 333 20243 5699/ 70156 83706 87630 88460
AAXX 04004 91776 NIL
AAXX 04004 91779 31498 43508 10299 20244 40112 58010 60001 70200 83701 333 20224 568/9 70002 81710 83817
AAXX 04004 91784 31498 70809 10295 20267 40110 57009 60001 70212 83208 333 20245 562/9 70060 83818 87078
AAXX 04004 91792 31498 40808 10300 20260 40120 58010 60001 70222 84201 333 20240 562/9 70337 84816
AAXX 04004 91772 11398 80000 10250 20247 4//// 60121 76186 8772/ 333 20243 5699/ 70156 83706 87630 88460
AAXX 04004 91776 NIL
AAXX 04004 91779 31498 43508 10299 20244 40112 58010 60001 70200 83701 333 20224 568/9 70002 81710 83817
AAXX 04004 91784 31498 70809 10295 20267 40110 57009 60001 70212 83208 333 20245 562/9 70060 83818 87078
AAXX 04004 91792 31498 40808 10300 20260 40120 58010 60001 70222 84201 333 20240 562/9 70337 84816
AAXX 04004 91334 11474 80607 10285 20246 30120 40123 53019 60024 70282 83371 333 20250 56199 58023 70018 555 90400
AAXX 04004 91408 32474 60811 10297 20255 30078 40116 52017 83271 333 20256 56999 58010 555 90400
AAXX 04004 91408 32474 60811 10297 20255 30078 40116 52017 83271 333 20256 56999 58010 555 90400
AAXX 04004 91334 11474 80607 10285 20246 30120 40123 53019 60024 70282 83371 333 20250 56199 58023 70018 555 90400
BBXX A8EH3 04003 99286 11260 41498 83236 10110 20092 40265 52035 702// 887// 22255 04210 20606 80100
BBXX PCSV 04003 99210 50068 41398 41502 10203 20187 40196 52006 70322 8113/ 22273 04208 21001 315// 41001 80192
BBXX C6CU6 04003 99160 70643 41598 41216 10273 20255 40168 55/// 70200 81145 22233 04270 20701 310// 41002 5//// 80260
BBXX SHIP 04004 99398 70467 41/97 /1823 10177 20150 40250 52020 70000 8//// 22224 04170 20604 80160
AAXX 04004 96315 12465 72103 10256 20247 40115 69954 82968 333 20244 55056 82815 81916 83364 85080
AAXX 04004 96323 NIL
BBXX 41001 04001 99347 70727 46/// ///// 10075 20047 40113 51027 92350 22200 00221 11112 70062
BBXX 41049 04001 99275 70630 46/// /2010 10237 20204 40159 53009 92350 22200 00230 10605 20604 300// 41002 70025 333 91213 555 11111 22119 32251 41914 62349 197103 197108 194110 191115 188114 186117 81912 92301
BBXX 41060 04001 99148 70510 46/// ///// 1//// 92350 22200 11106 70030
BBXX 42020 04001 99270 70967 46/// /1304 10173 20082 40297 58017 92350 22200 00219 10602 20401 306// 40602 70008 333 91205 555 11039 22040 32338 41206 62349 123038 119039 122037 120033 109035 101028
BBXX 41044 04001 99217 70587 46/// /1308 10256 20197 40200 52016 92350 22200 00257 11005 20804 300// 41003 70026 333 91210 555 11089 22094 32317 41311 62349 127083 128087 125085 122086 126084 126087 81210 92317
BBXX 41048 04001 99320 70696 46/// /2711 10109 20071 40103 52058 92350 22200 00216 11113 20507 3//// 41111 70066 333 91215 555 11112 22117 32256 42823 50085 62349 267114 256156 281166 281148 286161 292187 72251 82920 92256
BBXX 42065 04001 99170 70817 46/// /0212 10243 20171 92350 22200 10808 20806 3//// 41305 70039 333 91214 555 11128 22136 32310 40116 62349 015118 018122 015124 016125 017125 010129 80214 92310
BBXX 42012 04001 99301 70876 46/// /3506 10087 21070 40306 56003 92350 22200 00182 10301 20301 70004 333 91208 555 11060 22062 32346 43508 62349 348058 337058 344052 341054 349049 344051
BBXX 42001 04001 99259 70897 46/// /0107 10162 20076 40306 54000 92350 22200 00234 10704 20603 3//// 40703 70020 333 91209 555 11071 22074 32323 40110 62349 011068 009072 007075 010072 011078 001075
BBXX 42035 04001 99292 70944 46/// /1505 10113 20043 40312 58015 92350 22200 00149 10401 20401 310// 40501 70005 333 91206 555 11048 22049 32331 41606 62349 149046 151047 148041 143045 138041 135038
BBXX 42058 04001 99149 70749 46/// /0609 10267 20220 40148 51013 92350 22200 00272 10803 20602 308// 40802 70016 333 91210 555 11095 22101 32258 40510 62349 055088 052087 049085 054085 052083 048086 80509 92258
BBXX 42060 04001 99163 70635 46/// /0903 10269 20216 40170 53018 92350 22200 00273 10603 20301 300// 40603 70017 333 91204 555 11031 22032 32320 40804 62349 086030 092025 089027 099030 103029 106033 81004 92255
BBXX 42036 04001 99285 70845 46/// /3608 10095 20001 40286 53007 92350 22200 00204 10703 20703 70014 333 91210 555 11082 22084 32315 40111 62349 000078 358078 353077 001076 357072 357073
BBXX 42056 04001 99198 70849 46/// /0112 10239 20165 40232 51012 92350 22200 00267 11007 20805 335// 41004 70034 333 91215 555 11127 22134 32348 40115 62349 010117 009113 017109 016102 022108 020110 80112 92348
BBXX 42059 04001 99151 70675 46/// /1006 10273 20221 40159 53016 92350 22200 00276 10704 20502 3//// 40703 70018 333 91207 555 11063 22066 32256 41008 62349 098059 095056 089062 086061 090059 092064 80907 92259
BBXX 42019 04001 99279 70954 46/// /1604 10166 20089 40301 57013 92350 22200 10602 20401 305// 40602 70010 333 91206 555 11046 22048 32338 42508 62349 171042 285046 287039 282041 285040 286039
BBXX 44005 04001 99432 70691 46/// /3311 11042 21117 40113 51030 92350 22200 00078 10503 20503 3//// 41001 70015 333 91214 555 11116 22121 32348 43414 62349 334108 338101 332099 339102 337093 335087
BBXX 42003 04001 99260 70856 46/// /3608 1//// 92350 22200 11005 20703 331// 41004 70024 333 91211 555 11082 22088 32255 40111 62349 001077 004081 355078 358081 001082 003078 80110 92329
BBXX 42040 04001 99292 70882 46/// /0206 10091 40309 57004 92350 22200 00204 10502 20502 3//// 40601 70009 333 91208 555 11061 22063 32308 40109 62349 018061 018063 014066 016062 001063 358069
BBXX NWS0022 04004 99416 70714 43/// /3315 11040 21136 40145 5//// 7//// 8//// 222// 04108 2//// 3//// 4//// 5//// 6//// 8//// ICE /////
BBXX 44025 04001 99402 70732 46/// /3212 11024 21099 40165 53037 92350 22200 00096 10503 20503 70016 333 91215 555 11129 22135 32311 43216 62349 322121 320119 325113 321117 322116 326108
BBXX 41008 04001 99314 70809 46/// /3009 10052 21070 40274 53015 92350 22200 00150 333 91212 555 11099 22103 32256 42913 62349 305092 306089 301088 295093 303093 295092
BBXX 41004 04001 99325 70791 46/// /3011 10055 21052 92350 22200 00196 10503 20503 70017 333 91215 555 11112 22117 32349 43015 62349 298110 298104 296102 294106 301101 304108
BBXX 44009 04001 99385 70747 46/// /3413 11005 40197 52044 92350 22200 00099 10605 20605 70024 333 91217 555 11141 22148 32328 43518 62349 341131 335128 340125 340124 335129 337140
BBXX 44014 04001 99366 70748 46/// ///17 1//// 40181 51038 92350 22200 00157 10808 20808 312// 41401 70038 333 91221 555 11168 22168
BBXX 44027 04001 99443 70673 46/// /3310 11064 21120 40103 53028 92350 22200 00076 10403 20403 3//// 40902 70017 333 91213 555 11104 22108 32340 43313 62349 327100 331099 332102 326097 335103 329102
BBXX 44065 04001 99404 70737 46/// /3213 11027 21106 40176 53036 92350 22200 00088 10503 20503 70014 333 91216 555 11135 22142 32320 43516 62349 316128 330118 335126 334130 321121 321122 83514 92320
BBXX 41013 04001 99334 70777 46/// /3012 10043 21058 40231 53028 92350 22200 00145 10604 20604 70021 333 91215 555 11126 22132 32341 43118 62349 303123 303129 297116 293118 300124 305131
BBXX 46014 04001 99394 71240 46/// /3404 10105 40276 56006 92350 22200 00114 11406 20401 3//// 41406 70028 333 91205 555 11045 22047 32344 43305 62349 336043 344041 354041 005042 009040 012040
BBXX 46011 04001 99350 71210 46/// /3107 10129 40226 56006 92350 22200 00132 11507 20602 328// 41507 70037 333 91209 555 11072 22077 32309 43109 62349 309068 309068 312070 312070 314069 313068
BBXX 46047 04001 99324 71195 46/// /3305 10141 40220 56006 92350 22200 00137 11606 20401 330// 41606 70030 333 91206 555 11052 22057 32328 43206 62349 325048 323051 321048 321049 320049 320049
BBXX 46086 04001 99325 71180 46/// /3104 10157 40212 55000 92350 22200 00154 11704 329// 41704 70018 333 91204 555 11041 22045 32250 43005 62349 307038 311034 313032 308035 307034 316033
BBXX 46027 04001 99419 71244 46/// /1504 10101 40267 56013 92350 22200 00101 11405 20401 328// 41405 70027 333 91206 555 11046 22048 32319 41306 62349 143043 135041 134045 135042 141037 137038
BBXX 46088 04001 99483 71232 46/// /1207 10093 40184 57020 92350 22200 00077 10401 20401 70006 333 91208 555 11073 22081 32346 41208 62349 119066 139034 180015 118020 083019 060012
BBXX 46050 04001 99442 71246 46/// /1710 10103 40230 56014 92350 22200 00096 11106 20703 325// 41105 70029 333 91212 555 11106 22114 32325 41713 62349 172099 171100 169100 170102 171100 174098
BBXX 46069 04001 99337 71202 46/// /3108 10135 40218 56005 92350 22200 00134 11608 20702 329// 41607 70038 333 91211 555 11088 22094 32346 43111 62349 308083 310075 309070 308061 309063 310062
BBXX 46013 04001 99382 71233 46/// /3204 10089 40263 56006 92350 22200 00112 11406 20401 3//// 41406 70028 333 91205 555 11038 22040 32313 43105 62349 322036 319035 327037 325037 325038 325040
BBXX 46012 04001 99374 71229 46/// /3307 10105 40255 57003 92350 22200 00120 11406 20301 329// 41406 70032 333 91209 555 11074 22078 32253 43310 62349 330071 327074 326071 328072 326077 326079
BBXX 46087 04001 99485 71247 46/// /1510 10111 20094 40186 55000 92350 22200 00083 11105 20402 323// 41105 70027 333 91215 555 11105 22117 32302 41617 62349 152097 155102 155109 156113 160122 161120
BBXX 46029 04001 99461 71245 46/// /1713 10106 20085 40208 56015 92350 22200 00093 11307 20905 329// 41305 70036 333 91215 555 11136 22147 32259 41816 62349 169126 169122 169129 168130 170123 168129
BBXX 46054 04001 99342 71204 46/// /3010 10133 40212 56009 92350 22200 00128 11507 20403 300// 41506 70034 333 91212 555 11112 22120 32325 43113 62349 303104 305101 304101 305099 305099 304096
BBXX 46028 04001 99357 71219 46/// /3308 10110 40234 55004 92350 22200 00128 11407 20502 329// 41407 70036 333 91210 555 11086 22090 32341 43310 62349 330082 324086 324083 319080 318079 321078
BBXX 46025 04001 99337 71191 46/// /2701 10156 20141 40208 56004 92350 22200 00152 11603 20401 327// 41603 70017 333 91202 555 11013 22016 32250 42802 62349 266012 266011 262009 269007 264008 277012
BBXX 41047 04001 99275 70715 46/// /3215 10162 40190 51031 92350 22200 00251 11112 20806 330// 41110 70059 333 91219 555 11154 22162 32332 43022 62349 317155 310158 312158 308156 307153 293158 83120 92332
BBXX 42055 04001 99222 70940 46/// /0305 10212 20113 40292 54000 92350 22200 00247 10804 20502 303// 40804 70021 333 91207 555 11056 22058 32320 40409 62349 033056 037062 037067 031057 033057 025055 80407 92324
BBXX 42002 04001 99258 70937 46/// /0703 10176 20089 40312 54000 92350 22200 00243 10703 20401 307// 40702 70013 333 91205 555 11025 22026 32305 40705 62349 072024 073021 057031 059029 064026 050031
BBXX 41043 04001 99211 70650 46/// /1705 10253 20227 40180 53014 92350 22200 00260 11004 20502 300// 41004 70022 333 91206 555 11057 22060 32339 41607 62349 166055 164056 163057 158054 165053 164053 81706 92340
BBXX 41036 04001 99342 70770 46/// ///// 10039 21057 40219 53035 92350 22200 00198 10604 70021
BBXX 44066 04001 99396 70726 46/// /3312 11003 21060 40147 53036 92350 22200 00132 10705 20705 70023 333 91215 555 11128 22133 32258 43217 62349 331120 328115 327122 323118 327121 327129
BBXX 46070 04001 99551 11753 46/// /3408 11039 21109 40087 58009 92350 22200 00030 10806 20604 3//// 40805 70031 333 91209 555 11079 22082 32315 43312 62349 335075 327074 334088 331092 318087 319093 83410 92314
BBXX 46105 04001 99590 71522 46/// ///// 1//// 92350 22200 11305 70023
BBXX 32012 04001 99197 50856 46/// ///// 1//// 92350 22200 11202 70012
BBXX 46002 04001 99426 71305 46/// ///// 10134 40138 55000 92350 22200 00119 11310 70051
BBXX 46006 04001 99408 71375 46/// /1910 10135 49986 53013 92350 22200 00122 11013 20606 3//// 41011 70064 333 91213 555 11112 22122 32257 41914 62349 194104 194105 192105 194108 192111 187111
BBXX 46084 04001 99566 71361 46/// ///// 10074 20066 49833 53017 92350 22200 00066 11006 70031
BBXX 46075 04001 99539 71608 46/// /3311 11060 21103 40027 56008 92350 22200 00036 10706 20706 300// 41302 70032 333 91214 555 11113 22118 32309 43317 62349 330106 338111 345117 341129 335130 339123 83315 92310
BBXX 46005 04001 99461 71310 46/// ///17 10122 40019 56023 92350 22200 00098 11111 20607 3//// 41108 70054 333 91221 555 11181 22195
BBXX 46059 04001 99380 71300 46/// /1810 10143 40232 56006 92350 22200 00141 11408 20504 3//// 41407 70038 333 91212 555 11104 22111 32338 41812 62349 179096 181093 183095 181094 183092 184094
BBXX 46080 04001 99580 71500 46/// /0310 10017 21035 49890 56025 92350 22200 00044 11206 20505 3//// 41203 70028 333 91212 555 11109 22115 32303 40213 62349 027103 025100 031100 031102 033106 031096 80311 92303
BBXX A8EH3 04003 99286 11260 41498 83236 10110 20092 40265 52035 702// 887// 22255 04210 20606 80100
BBXX A8HG2 04004 99239 11183 41697 80431 10130 20094 40260 52030 70322 87570 22214 04170 20709 3//// 4//// 5//// 80110
BBXX A8EH5 04001 99357 11476 41498 73109 10095 20051 40078 50008 70182 8516/ 22223 00132 20503 329// 41206 5//// 80075
BBXX C6TQ3 04004 99165 11786 41698 60819 10290 20208 40164 52/// 70111 8544/ 22273 04270 21007 332// 41506 5//// 80235
BBXX WCX8812 04004 99344 11416 41696 82734 10130 2006/ 40060 56012 70322 8862/ 22200 00200 20406 305// 40906 5//// 6//// 80095 ICE /////
BBXX PCSV 04003 99210 50068 41398 41502 10203 20187 40196 52006 70322 8113/ 22273 04208 21001 315// 41001 80192
BBXX 2BLY5 04003 99057 70338 41397 80320 10270 20218 40130 53/// 78055 8/7// 22214 04287 20704 80235
BBXX KABL 04004 99243 10586 41998 02206 10230 2020/ 40120 5//// 7//00 8//// 22234 00250 20801 321// 40802 5//// 6//// 80210 ICE /////
BBXX ONFE 04004 99232 10653 41999 02716 10230 2017/ 40130 57015 70200 80000 22214 00250 2//// 3//// 4//// 5//// 6//// 80190 ICE /////
BBXX DBBT 04001 99339 30184 46/// /2502 10187 20123 40148 57011 22220 00161
BBXX DBKV 04001 99236 70191 46/// /0610 10198 20122 40219 52006 22211 00207
BBXX DCCP2 04000 99267 30452 41/98 /1009 10237 20213 40130 57015 70000 8//// 22254 00250 2//// 3//// 4//// 5//// 80220
BBXX MZDL7 04003 99336 50380 41/96 82025 10195 20187 40023 53010 75885 886// 22213 00210 2//// 3//// 4//// 5//// 80190
BBXX ONFW 04004 99079 51160 41197 61709 10270 20243 40100 54/// 70222 8628/ 22243 04230 20203 3//// 4//// 5//// 6//// 80250 ICE /////
BBXX ONAI 04004 99040 50356 41597 41419 10270 2024/ 40130 54000 70121 84260 22274 00280 2//// 3//// 4//// 5//// 6//// 80250 ICE /////
BBXX DHEE 04003 99321 71176 41598 52808 10160 20135 40210 54000 70211 84145 22282 00160 20601 329// 40702 80145
BBXX C6CU6 04003 99160 70643 41598 41216 10273 20255 40168 55/// 70200 81145 22233 04270 20701 310// 41002 5//// 80260
BBXX SHIP 04004 99398 70467 41/97 /1823 10177 20150 40250 52020 70000 8//// 22224 04170 20604 80160
BBXX SHIP 04004 99265 71507 41698 82515 10220 2021/ 40215 54000 70252 82220 22233 00260 20703 332// 41207 5//// 6//// 80210 ICE /////
BBXX WDC6736 04004 99348 70755 43/98 /3019 10060 2099/ 40185 52005 7//// 8//// 22214 00230 2//// 3//// 4//// 5//// 6//// 81020 ICE /////
BBXX DDJS2 04003 99459 71342 41495 81834 10133 20129 49978 57033 71288 8/6// 22274 00110 20603 32000 41408 5//// 80131
BBXX LAIG7 04004 99215 71128 41898 43513 10220 2021/ 40190 57020 70100 84//8 22223 00216 20301 316// 41201 5//// 6//// 80210 ICE /////
BBXX WHRN 04003 99327 71208 41398 33519 10180 2016/ 40220 54000 70211 838// 22215 00140 20302 329// 41309 5//// 6//// 80170 ICE /////
BBXX WFLG 04004 99272 71432 41798 72019 10228 20168 40212 57008 70222 87/5/ 22264 04178 20604 329// 40804 5//// 6//// 80189 ICE /////
BBXX LAJS6 04004 99548 71518 41596 80228 10025 2005/ 49850 54000 75656 886// 22263 0//// 20708 311// 41205 80020
BBXX 46060 04001 99606 71468 46/// /3410 10007 49894 58043 92350 22200 00045 11101 20301 320// 41101 70007 333 91211 555 11102 22107 32345 43511 62349 344094 348092 346084 345071 349066 352060 83510 92337
BBXX 46114 04001 99364 71222 46/// ///// 1//// 92334 22200 00121 11207 21003 327// 41206 70036
BBXX 44022 04001 99409 70737 46/// ///09 11046 21146 40186 92345 22200 00062 333 91213 555 11098 22103
BBXX 44060 04001 99413 70721 46/// ///09 11049 40157 92345 22200 00085 333 91211 555 11093 22098
BBXX 41012 04001 99300 70805 46/// /3109 10077 40271 53014 92350 22200 00226 10704 20703 307// 41001 70018 333 91212 555 11093 22097 32333 43013 62349 310092 309099 299088 305091 312093 310090
BBXX PCEO 04003 99141 70656 41699 40605 10260 20221 40154 52015 7//// 8/5// 22254 04265 20701 3//// 4//// 5//// 80232
BBXX ZCDG8 04003 99151 70618 41598 10929 10270 20213 40158 53022 70200 81100 22234 00280 2//// 3//// 4//// 5//// 80232
BBXX WRAH 04003 99281 70928 41998 00413 10130 2//// 40292 57029 70200 80/// 22234 00222 20202 308// 40604 5//// 6//// 8//// ICE /////
BBXX PINX 04004 99214 70847 41/98 53528 10210 2//// 40230 58010 70311 853// 22234 00270 2//// 3//// 4//// 5//// 6//// 8//// ICE /////
BBXX 44098 04001 99428 70702 46/// ///// 1//// 92337 22200 00081 10403 20403 70013
BBXX 46211 04001 99469 71242 46/// ///// 1//// 92336 22200 00085 11306 21004 326// 41304 70031
BBXX 46218 04001 99345 71208 46/// ///// 1//// 92332 22200 00135 11507 21003 328// 41506 70034
BBXX 46212 04001 99408 71243 46/// ///// 1//// 92342 22200 00109 11304 20903 328// 41304 70022
BBXX 41114 04001 99276 70802 46/// ///// 1//// 92346 22200 00216 11103 20502 303// 41101 70013
BBXX 46237 04001 99378 71226 46/// ///// 1//// 92340 22200 00110 11506 21003 324// 41505 70031
BBXX 41115 04001 99184 70673 46/// ///// 1//// 92335 22200 11101 21001 70006
BBXX 46249 04001 99338 71197 46/// ///// 1//// 92337 22200 00151 11504 20902 326// 41504 70021
BBXX 46244 04001 99409 71244 46/// ///// 1//// 92335 22200 00108 11405 21003 328// 41404 70024
BBXX 46248 04001 99461 71247 46/// ///// 1//// 92334 22200 00095 11308 20806 327// 41305 70038
BBXX V7MO2 04004 99262 70914 41797 20610 10153 20068 40309 54000 70200 81/// 22200 00226 20402 3//// 40604 5//// 6//// 80108 ICE /////
BBXX 3EBL5 04004 99201 70701 41797 33320 10270 20181 40170 52010 70111 82489 22234 04260 21404 33529 41002 50601 6//// 80210 ICE /////
BBXX 9HJF9 04004 99197 70818 415// 72830 10230 20230 40180 54/// 7//// 87260 22274 00270 20406 3//// 403// 503// 6//// 80230 ICE /////
BBXX DMDZ 04004 99245 70591 41/98 /1413 10245 40200 51020 70000 8//// 22224 00260 20701 311// 40903 5////
BBXX 42362 04001 99278 70907 46/// /0305 10128 20017 40322 92345
BBXX 42364 04001 99291 70881 46/// /3413 10100 21006 40319 92345
BBXX 42363 04001 99282 70892 46/// /0308 10122 21011 40315 92345 333 91208
BBXX A8SF7 04001 99278 51482 41/97 93516 10265 20244 40100 58035 76011 89/// 22264 04220 20804 332// 41105 5//// 80250
BBXX DBFR 04001 99535 10086 46/// /2509 10065 20031 49983 52026 22240 00054
BBXX DBBU 04001 99544 10136 46/// /2312 10065 20041 49935 52005 22270 00057
BBXX WKAW 04004 99401 70321 41597 80419 10135 2011/ 40330 52010 7//22 88/5/ 22264 00160 20606 330// 41208 5//// 6//// 80120 ICE /////
BBXX BAREU08 04004 99308 70437 46/// ///// 40309 52011 22254
BBXX BAREU04 04004 99450 70531 46/// ///// 40061 57008 22223
BBXX BAREU05 04004 99365 70019 46/// ///// 40322 57004 22224
AAXX 04004 89009 42961 10304 11283 36828 53003 333 11269 21290 81060
AAXX 04004 89009 42961 10304 11283 36828 53003 333 11269 21290 81060
AAXX 04004 81405 04579 80801 10250 20241 30121 40130 60131 700// 333 10299 60027 58006 555 60005
AAXX 04004 81405 04579 80801 10250 20241 30121 40130 60131 700// 333 10299 60027 58006 555 60005
AAXX 04004 78862 11476 31009 10255 20210 30147 40170 69901 70580 83200 333 10283 20237 58003 83817
AAXX 04004 9999 SCT022 PROB30 TEMPO 0400/0419 SHRA BKN015 PROB40 TEMPO 0420/0424 09015G28KT 5000 SHRA BKN014 SCT036
AAXX 04004 TAF TKPN 032200Z 0400/0424 09014KT 9999 SCT022 PROB30 TEMPO 0400/0419 SHRA BKN015 PROB40 TEMPO 0420/0424 09015G28KT 5000 SHRA BKN014 SCT036
AAXX 04004 TAF TQPF 032200Z 0400/0424 09014KT 9999 SCT022 PROB30 TEMPO 0400/0419 SHRA BKN015 PROB40 TEMPO 0420/0424 09015G28KT 5000 SHRA BKN014 SCT036
AAXX 04004 TAF TUPJ 032200Z 0400/0424 09014KT 9999 SCT022 SCT038 BKN270 TEMPO 0400/0424 4000 SHRA BKN013 BKN036 BKN260
AAXX 04004 BKN038 SCT270 TEMPO 0412/0512 SHRA BKN015 PROB40 TEMPO 0418/0512 5000 SHRA BKN014 BKN036 PROB30 0420/0512 4000 TSRA FEW012CB
AAXX 04004 918 4000 TSRA FEW012CB
AAXX 04004 N015 BKN036 PROB40 TEMPO 0704/0724 3000 +TSRA SCT011CB BKN012 BECMG 0712/0714 14008KT
AAXX 04004 21/2712 07017G28KT 5000 SHRA BKN015 BKN036 PROB TEMPO 2700/2712 4000 TSRA FEW013CB
AAXX 04004 PROB30 TEMPO 0800/0806 4000 TSRA FEW012CB PROB40 TEMPO 0800/0824 2000 +SHRA/TSRA SCT010CB BKN012 BKN250
AAXX 04004 89664 32461 71714 11025 21060 39807 49848 55005 835// 333 11017 21030 56499 59024 81610 83620 86650 90967 93100
AAXX 04004 78862 11476 31009 10255 20210 30147 40170 69901 70580 83200 333 10283 20237 58003 83817
AAXX 04004 9999 SCT022 PROB30 TEMPO 0400/0419 SHRA BKN015 PROB40 TEMPO 0420/0424 09015G28KT 5000 SHRA BKN014 SCT036
AAXX 04004 TAF TKPN 032200Z 0400/0424 09014KT 9999 SCT022 PROB30 TEMPO 0400/0419 SHRA BKN015 PROB40 TEMPO 0420/0424 09015G28KT 5000 SHRA BKN014 SCT036
AAXX 04004 TAF TQPF 032200Z 0400/0424 09014KT 9999 SCT022 PROB30 TEMPO 0400/0419 SHRA BKN015 PROB40 TEMPO 0420/0424 09015G28KT 5000 SHRA BKN014 SCT036
AAXX 04004 TAF TUPJ 032200Z 0400/0424 09014KT 9999 SCT022 SCT038 BKN270 TEMPO 0400/0424 4000 SHRA BKN013 BKN036 BKN260
AAXX 04004 BKN038 SCT270 TEMPO 0412/0512 SHRA BKN015 PROB40 TEMPO 0418/0512 5000 SHRA BKN014 BKN036 PROB30 0420/0512 4000 TSRA FEW012CB
AAXX 04004 918 4000 TSRA FEW012CB
AAXX 04004 N015 BKN036 PROB40 TEMPO 0704/0724 3000 +TSRA SCT011CB BKN012 BECMG 0712/0714 14008KT
AAXX 04004 21/2712 07017G28KT 5000 SHRA BKN015 BKN036 PROB TEMPO 2700/2712 4000 TSRA FEW013CB
AAXX 04004 PROB30 TEMPO 0800/0806 4000 TSRA FEW012CB PROB40 TEMPO 0800/0824 2000 +SHRA/TSRA SCT010CB BKN012 BKN250
AAXX 04004 85574 12960 41409 10257 20103 39568 40097 53005 60001 80001 333 10328 56007 84075
AAXX 04004 85585 12998 31912 10220 20052 40172 51003 60001 80004 333 10272 56005 83075
AAXX 04004 85586 11558 82702 10158 20125 40143 56009 60001 70522 885// 333 10194 56099 88620
AAXX 04004 85629 12980 02710 10280 20153 40091 56003 60001 333 10342
AAXX 04004 85672 12980 02402 10306 20108 40107 56002 60001 333 10346
AAXX 04004 85682 12960 00506 10196 20122 40127 55009 60001 333 10269
AAXX 04004 85743 12960 02907 10201 20092 40151 53011 60001 333 10301
AAXX 04004 85799 12960 01407 10179 20098 40188 53001 60001 333 10227
AAXX 04004 89664 32461 71714 11025 21060 39807 49848 55005 835// 333 11017 21030 56499 59024 81610 83620 86650 90967 93100
AAXX 04004 85418 12565 62014 10225 20166 40150 53029 60001 86530 333 10250 56000 82623 84363
AAXX 04004 85432 12770 72716 10172 20093 37779 48465 52023 60001 85130 333 10252 56660 85850 83360
AAXX 04004 85442 12465 71608 10204 20172 40135 53012 60001 82531 333 10229 56477 82610 83365 85080
AAXX 04004 85467 12970 62207 10184 20142 40148 53006 60001 80002 333 10239 56006 86070
AAXX 04004 85469 41458 81206 10210 20180 40155 52002 78082 888// 333 56399 85817 87625
AAXX 04004 85488 12465 53106 10167 20146 40140 53006 60001 81504 333 10233 56606 81615 84075
BBXX DBFH 04001 99535 10086 46/// /2512 10069 20022 49989 52027 22260 00055
BBXX DBJM 04001 99541 10081 46/// /2623/10054 20030 49946 52004 22251 00064
BBXX DBEA 04001 99539 10087 46/// /2520 10064 20024 49948 52022 22210 00052
BBXX DBBC 04001 99535 10100 46/// /2410 10062 20012 49977 52021 22200 00056
BBXX DBBA 04001 99541 10121 46/// /2508 10069 20053 49950 52009 22220 00051
BBXX DBKR 04001 99541 10121 46/// /2409 10068 20013 49949 52009 22200 00054
AAXX 04004 78954 11466 70911 10261 20223 30089 40154 69901 71582 8384/ 333 10283 20225 58008 83814 85358 90960
BBXX DBBI 04001 99535 10100 46/// /2411 10061 20028 49976 52021 22260 00054
BBXX DBCK 04001 99/// ///// 46/// ///// 10068 20068 49981 52027 22220 00055
BBXX DBND 04005 99543 10101 46/// /2410 10060 20030 49935 52019 22200 00068
BBXX 41101 04004 99146 70562 46/// /0817 10262 20209 40156 52014 22200 00267 10805 70026
BBXX BAREU12 04004 99499 70038 46/// ///// 40156 52020 22253
BBXX BATFR05 04004 99194 70181 46/// /0313 10209 20145 40198 51016 22282 00214
BBXX FVNM 04004 99168 70862 46/// /0225 10254 20172 40224 53021 22271 00269
BBXX 61001 04004 99434 10078 46/// /2214 10130 20085 40238 57016 22200 00138 10602 70008
BBXX BAREU00 04004 99467 70178 46/// ///// 40337 52030 22263
BBXX BATFR21 04004 99429 10070 46/// /2516 40240 58021 22263
BBXX BAREU51 04004 99438 10093 46/// ///// 40235 22233
BBXX BATFR22 04004 99423 10072 46/// /2713 10129 40251 58016 22274 00142
AAXX 04004 78073 12565 73513 10158 20082 40238 60001 875// 333 10227 20161 58041 87625
AAXX 04004 78954 11466 70911 10261 20223 30089 40154 69901 71582 8384/ 333 10283 20225 58008 83814 85358 90960
AAXX 04004 85864 12980 62705 10212 20091 40171 53011 60001 81042 333 10265 56066 81360 85070
AAXX 04004 85874 32982 /3120 10187 20073 39553 40158 53009 333 10252
AAXX 04004 85934 12580 72905 10145 20102 40051 54002 60001 84532 333 10180 56777 84623 84359
AAXX 04004 89059 12860 71912 11094 21028 49927 57052 69904 87060 333 11002 21014 74009 87357 93100
AAXX 04004 78583 32470 43605 10220 20170 40251 81832 333 01111 10246 20/// 58035 70036 81818
BBXX 44007 04001 99435 70701 46/// /3411 11066 21131 40135 53027 92350 22200 00078 10302 20301 70008 333 91213 555 11112 22117 32340 43317 62349 342107 340111 349104 344103 345094 345085
AAXX 04004 97180 11458 70903 10254 20235 30109 40127 53019 60014 71796 83972 333 20231 50420 55041 55508 51763 56000 57901 58002 81918 83819 86360 80980
AAXX 04004 85574 12960 41409 10257 20103 39568 40097 53005 60001 80001 333 10328 56007 84075
AAXX 04004 85585 12998 31912 10220 20052 40172 51003 60001 80004 333 10272 56005 83075
AAXX 04004 85586 11558 82702 10158 20125 40143 56009 60001 70522 885// 333 10194 56099 88620
AAXX 04004 85629 12980 02710 10280 20153 40091 56003 60001 333 10342
AAXX 04004 85672 12980 02402 10306 20108 40107 56002 60001 333 10346
AAXX 04004 85682 12960 00506 10196 20122 40127 55009 60001 333 10269
AAXX 04004 85743 12960 02907 10201 20092 40151 53011 60001 333 10301
AAXX 04004 85799 12960 01407 10179 20098 40188 53001 60001 333 10227
AAXX 04004 85418 12565 62014 10225 20166 40150 53029 60001 86530 333 10250 56000 82623 84363
AAXX 04004 85432 12770 72716 10172 20093 37779 48465 52023 60001 85130 333 10252 56660 85850 83360
AAXX 04004 85442 12465 71608 10204 20172 40135 53012 60001 82531 333 10229 56477 82610 83365 85080
AAXX 04004 85467 12970 62207 10184 20142 40148 53006 60001 80002 333 10239 56006 86070
AAXX 04004 85469 41458 81206 10210 20180 40155 52002 78082 888// 333 56399 85817 87625
AAXX 04004 85488 12465 53106 10167 20146 40140 53006 60001 81504 333 10233 56606 81615 84075
AAXX 04004 86011 32970 00000 10316 20199 39928 40084 53008 333 10374 55124
AAXX 04004 86033 32970 00000 10296 20230 39989 40082 52008 333 10342 55120
AAXX 04004 86065 32970 00000 10300 20208 39843 40073 53007 333 10380 55125
AAXX 04004 86068 32670 10000 10310 20188 39878 40065 51004 81500 333 10365 55125 81640
AAXX 04004 86086 32570 70902 10310 20147 39989 40077 52010 81270 333 10350 55110 81833 83457
AAXX 04004 86097 32670 11703 10268 20160 39460 40092 52012 81400 333 10328 55099 81633
AAXX 04004 86128 NIL
AAXX 04004 86134 32970 01605 10304 20207 39986 40071 53011 333 10364 55123
AAXX 04004 86170 32970 00000 10286 20167 39960 40061 55011 333 10375 55126
AAXX 04004 86185 32970 00000 10280 20231 39990 40082 52007 333 10360 55120
AAXX 04004 86192 32970 00000 10312 20124 39881 40094 51010 333 10364 55123
AAXX 04004 86210 32970 02302 10274 20154 39729 40064 52007 333 10342 55127
AAXX 04004 86218 32970 01408 10302 20150 39996 40090 52012 333 10360 55131
AAXX 04004 86221 NIL
AAXX 04004 86233 32970 01804 10280 20151 39913 40099 51003 333 10350 55130
AAXX 04004 86234 32970 01802 10268 20157 39867 40049 53014 333 10350 55130
AAXX 04004 86246 32970 03203 10290 20201 39801 40080 51009 333 10354 55120
AAXX 04004 86251 32970 00000 10286 20098 39913 40078 53008 333 10334 55///
AAXX 04004 86255 32970 00000 10264 20214 30018 40085 55015 333 10346 55086
AAXX 04004 86260 32670 20000 10262 20142 39941 40091 53008 82400 333 10330 55120 82640
AAXX 04004 86268 32970 00000 10270 20155 39933 40095 52001 333 10336 55125
AAXX 04004 86285 32970 00000 10274 20172 39815 40093 51005 333 10338 55124
AAXX 04004 86297 32970 01802 10298 20175 39950 40052 57002 333 10335 55///
AAXX 04004 68352 16/// /0213 10223 20015 39077 48529 56002 69943 333 10358 20223 91041 555 20004 91017
BBXX 46002 04001 99426 71305 46/// ///// 10134 40138 55000 92350 22200 00119 11310 70051
BBXX 46005 04001 99461 71310 46/// ///17 10122 40019 56023 92350 22200 00098 11111 20607 3//// 41108 70054 333 91221 555 11181 22195
BBXX 46006 04001 99408 71375 46/// /1910 10135 49986 53013 92350 22200 00122 11013 20606 3//// 41011 70064 333 91213 555 11112 22122 32257 41914 62349 194104 194105 192105 194108 192111 187111
BBXX 46012 04001 99374 71229 46/// /3307 10105 40255 57003 92350 22200 00120 11406 20301 329// 41406 70032 333 91209 555 11074 22078 32253 43310 62349 330071 327074 326071 328072 326077 326079
BBXX 46013 04001 99382 71233 46/// /3204 10089 40263 56006 92350 22200 00112 11406 20401 3//// 41406 70028 333 91205 555 11038 22040 32313 43105 62349 322036 319035 327037 325037 325038 325040
BBXX 46014 04001 99394 71240 46/// /3404 10105 40276 56006 92350 22200 00114 11406 20401 3//// 41406 70028 333 91205 555 11045 22047 32344 43305 62349 336043 344041 354041 005042 009040 012040
BBXX 46028 04001 99357 71219 46/// /3308 10110 40234 55004 92350 22200 00128 11407 20502 329// 41407 70036 333 91210 555 11086 22090 32341 43310 62349 330082 324086 324083 319080 318079 321078
BBXX 46050 04001 99442 71246 46/// /1710 10103 40230 56014 92350 22200 00096 11106 20703 325// 41105 70029 333 91212 555 11106 22114 32325 41713 62349 172099 171100 169100 170102 171100 174098
BBXX 46054 04001 99342 71204 46/// /3010 10133 40212 56009 92350 22200 00128 11507 20403 300// 41506 70034 333 91212 555 11112 22120 32325 43113 62349 303104 305101 304101 305099 305099 304096
BBXX DDJS2 04003 99459 71342 41495 81834 10133 20129 49978 57033 71288 8/6// 22274 00110 20603 32000 41408 5//// 80131
BBXX WHRN 04003 99327 71208 41398 33519 10180 20160 40220 54000 70211 838// 22215 00140 20302 329// 41309 5//// 6//// 80170 ICE /////
AAXX 04004 89664 32461 71714 11025 21060 39807 49848 55005 835// 333 11017 21030 56499 59024 81610 83620 86650 90967 93100
AAXX 04001 12772 31/01 91502 10018 20012 39932 40224 57018 74544 333 89/03
AAXX 04001 12822 36/// /1905 10064 20037 30043 40188 57037
AAXX 04001 12843 31958 11202 10011 20005 30043 40219 57024 70311 81040
AAXX 04001 12882 36/// /1803 10018 20015 30095 40231 58020
AAXX 04001 12925 36/// /1904 10054 20047 30040 40214 58026
AAXX 04001 12942 31960 02401 10026 20025 39982 40234 57022 70200
AAXX 04001 12982 31903 01803 10005 21002 30132 40237 58018 74641
AAXX 04001 10004 46/60 /2619 10078 20033 39955 49955 51029 222// 00075 333 55300 91130 91223
AAXX 04001 10015 01458 72619 10068 20036 39939 49949 51025 69981 72598 878// 333 32/// 55/// 20022 30022 55300 20000 30000 69907 82811 83822 85650 91131 90255 91218 91222 96493 96488
AAXX 04001 10020 07/61 /2517 10066 20034 39863 49895 53027 69911 70065 333 55/// 20013 30013 55300 20000 30000 69917 91129 90246 91218 91220
AAXX 04001 10035 01465 72511 10058 20030 39868 49926 51022 60021 72582 878// 333 32/// 55/// 20026 30025 42678 55300 20000 30000 41135 69997 82816 86640 91126 91214
AAXX 04001 10055 01560 72520 10058 20029 39912 49922 53010 60011 78011 878// 333 32/// 55/// 20032 30032 55300 20000 30000 69967 83820 86656 91130 90218 91218 91223
AAXX 04001 10147 01675 72409 10064 20013 39957 49975 51022 69981 70286 875// 333 32/// 55/// 20041 30038 42662 55300 20000 30000 41127 69907 87636 91119 91213
AAXX 04001 10162 07581 72510 10049 20018 39890 49972 53015 60021 70065 333 55/// 20061 30060 55300 20000 30000 69907 83/28 87/35 87/43 91121 91214
AAXX 04001 10184 01985 62307 10069 20028 39941 49949 53003 69941 72586 86030 333 31/// 55/// 20125 30104 55300 20000 30000 69907 86361 91117
AAXX 04001 10200 07581 72409 10066 20020 39998 49996 51021 69931 72365 333 55/// 20016 30016 55300 20000 30000 69907 81/32 87/50 91120 91213
AAXX 04001 10224 01680 62411 10060 20016 30001 40007 51017 60021 70398 86500 333 33/// 55/// 20038 30037 55300 20000 30000 69917 81639 86650 91126 90231 91218 90331 91218 96488
AAXX 04001 10270 06560 82609 10060 20027 39954 40009 53019 60011 222// 06045 333 55300 69927 83/21 88/56 88/58 91121
AAXX 04001 10338 01675 22608 10063 20005 39956 40028 51027 60021 70361 82500 333 31/// 55/// 20088 30087 55300 20000 30000 69907 82646 91122 91213 96465 96463 96461 96460
AAXX 04001 10361 07788 32708 10068 20014 39935 40038 53017 60021 72365 333 55/// 20176 30127 55300 20000 30000 69997 81/50 83/82 91118 91211
AAXX 04001 10393 01784 22510 10087 20038 39897 40022 53004 69931 70386 82500 333 31/// 55/// 20331 30113 55300 20000 30000 69927 82650 91118 91212
AAXX 04001 10400 11684 12508 10074 20016 30027 40077 50010 60021 70281 81500 333 31/// 55/// 20053 30053 55300 20000 30000 81538 91120 91214
AAXX 04001 10438 17985 02202 10051 20007 39794 40075 51021 60041 70065 333 55300 91117
AAXX 04001 10469 01588 12512 10089 20024 39888 40051 53015 69901 70161 81100 333 31/// 55300 69907 81820 91121 91215
AAXX 04001 10488 12582 72509 10100 20046 39778 40054 56010 60001 878// 333 31/// 55/// 20368 30118 42469 55300 20000 30000 41219 82820 85634 86650 91117 91211
AAXX 04001 10506 11384 72505 10047 20025 39517 40100 50002 60041 70262 878// 333 31/// 55/// 20081 30080 55300 20000 30000 82808 87630 91123 91216 96465
AAXX 04001 10548 07988 72504 10062 20011 39555 40094 53018 60011 72365 333 55/// 20160 30157 55300 20000 30000 60017 82/61 87/73 87/75 91114
AAXX 04001 10637 01980 82305 10083 20045 39966 40103 50006 69981 72162 8807/ 333 31/// 55300 69987 87360 91121 91214
AAXX 04001 10685 07357 82205 10061 20053 39413 40082 53005 69971 75865 333 55/// 20304 30235 55300 20000 30000 69927 88/06 91119 91211
AAXX 04001 10738 01585 72107 10103 20057 39659 40122 58016 69901 76062 875// 333 31/// 55300 69907 84628 87657 91118
AAXX 04001 10763 03/// /1904 10082 20052 39730 40110 58014 69921 8//// 333 55/// 20482 30169 55300 20000 30000 69927
AAXX 04001 10788 07688 72204 10069 20038 39713 40145 58017 69931 72365 333 55/// 20571 30172 55300 20000 30000 69937 81/35 87/58
AAXX 04001 10852 07588 72309 10080 20035 39575 40141 58020 69901 72365 333 55/// 20525 30154 55300 20000 30000 69907 82/21 87/63 87/76 91117 91212
AAXX 04001 10946 15788 82102 10071 21018 39333 40162 56029 60001 333 55/// 2//// 3//// 55300 20000 30000 87/50 88/61 91117
BBXX BATFR32 04004 99404 10072 46/// /3318 10133 20073 40278 56011 7//// 8//// 22234 00154
AAXX 04001 01001 11256 80901 10014 20006 39807 49818 55002 69901 76062 886// 333 91104
AAXX 04001 01008 41586 71206 10001 21053 39998 40032 51009 70222 86530 333 91113
AAXX 04001 01010 16/// /1512 10017 21059 39832 49847 58007 6//// 333 91118
AAXX 04001 01026 41689 51804 11001 21070 39743 49883 55003 70221 82431 333 4/015 91115
AAXX 04001 01055 46/// /1211 11016 21050 39952 49970 55009 333 91126
AAXX 04001 01062 NIL
AAXX 04001 01098 41480 71210 11030 21051 30053 40071 58010 70322 875// 333 91119
AAXX 04001 01115 16/// /1314 10030 21044 39783 49803 58015 6//// 333 91118
AAXX 04001 01152 11989 11013 10015 21061 39807 49823 58012 60001 70211 81070 333 91119
AAXX 04001 01205 46/// /2804 10058 20006 39658 49702 52013 333 91117
AAXX 04001 01212 16/// /0607 10055 21003 39680 49696 53002 6//// 333 91115
AAXX 04001 01271 NIL
AAXX 04001 01288 NIL
AAXX 04001 01300 NIL
AAXX 04001 01317 NIL
AAXX 04001 01367 NIL
AAXX 04001 01384 41/43 90903 10002 21001 39413 49654 57054 76872 333 91109
AAXX 04001 01403 NIL
AAXX 04001 01415 NIL
AAXX 04001 01482 46/// /2108 10060 20040 39589 49596 56077 333 91126
AAXX 04001 01492 41370 80605 10020 20005 39521 49635 56057 76876 887// 333 91111
AAXX 04004 41170 32960 03109 10167 20107 30165 40178 333 58034
AAXX 04001 01003 NIL
AAXX 04001 01007 NIL
AAXX 04001 01028 NIL
AAXX 04001 01047 41650 81607 11051 21077 39575 49948 57012 77172 8802/
AAXX 04001 01049 16/// /1504 11025 21062 39964 49967 58011 60001 333 91111
AAXX 04001 01078 NIL
AAXX 04001 01102 46/// /1117 10029 21018 39752 49771 58022 333 91120
AAXX 04001 01160 NIL
AAXX 04001 01218 NIL
AAXX 04001 01238 NIL
AAXX 04001 01241 11582 80909 10014 21008 39712 49723 57019 69901 76062 84572 333 91117
AAXX 04001 01281 NIL
AAXX 04001 01338 16/// /0904 10048 21016 39619 49683 53018 60001 333 91115
AAXX 04001 01359 NIL
AAXX 04001 01397 16/// /1401 11007 21011 39278 49703 58045 60011 333 91108
AAXX 04001 01400 NIL
AAXX 04001 01427 NIL
AAXX 04001 01447 NIL
AAXX 04001 01448 46/// /2915 10066 20034 39618 49627 53020 333 91128
AAXX 04004 78858 11479 21605 10255 20216 30118 40174 69901 70181 82200 333 10288 20246 58003 79999 82819
AAXX 04001 45032 16/// /0005 10103 20026 30246 40263 52001 60000 333 70000
AAXX 04001 45035 16/// /0504 10112 20039 30219 40262 54000 60000 333 70000
AAXX 04001 45039 16/// /0405 10112 20050 30241 40256 52002 60000 333 70000
AAXX 04001 45044 16/// /0109 10117 20054 30149 40245 52003 60000 333 70000
AAXX 04001 45032 16/// /0005 10103 20026 30246 40263 52001 60000 333 70000
AAXX 04001 45035 16/// /0504 10112 20039 30219 40262 54000 60000 333 70000
AAXX 04001 45039 16/// /0405 10112 20050 30241 40256 52002 60000 333 70000
AAXX 04001 45044 16/// /0109 10117 20054 30149 40245 52003 60000 333 70000
AAXX 04004 78016 11661 72438 10203 20138 30036 40040 55004 60151 71698 81274 333 10223 20189 70262 90917
AAXX 04004 78897 12575 11005 10249 20208 40169 53014 60001 81200 333 0222/ 10290 20222 58002 70012 81820
AAXX 04004 78016 11661 72438 10203 20138 30036 40040 55004 60151 71698 81274 333 10223 20189 70262 90917
AAXX 04004 85864 12980 62705 10212 20091 40171 53011 60001 81042 333 10265 56066 81360 85070
AAXX 04004 85874 32982 /3120 10187 20073 39553 40158 53009 333 10252
AAXX 04004 85934 12580 72905 10145 20102 40051 54002 60001 84532 333 10180 56777 84623 84359
AAXX 04004 89059 12860 71912 11094 21028 49927 57052 69904 87060 333 11002 21014 74009 87357 93100
AAXX 04004 78897 12575 11005 10249 20208 40169 53014 60001 81200 333 0222/ 10290 20222 58002 70012 81820
AAXX 04001 78221 NIL
AAXX 04001 78224 32560 30106 10162 20084 30181 40258 53010 83500 333 10220 83633
AAXX 04001 78229 32559 41001 10194 20169 30126 40201 52010 84400 333 84620
AAXX 04001 78239 31559 43507 10177 20101 30233 40236 52020 70500 84800 333 10222 83820
AAXX 04001 78244 NIL
AAXX 04001 78243 42559 63503 10164 20103 30121 40245 52017 86220 333 86825
AAXX 04001 78255 42559 10104 10166 20106 30086 40236 52020 81500 333 10226 81820
AAXX 04001 78264 31559 23609 10220 20154 30121 40196 52030 70500 82200 333 10297 82825
AAXX 04001 78265 41559 13604 10188 20115 30114 40214 52020 70544 81101 333 10271 81825
AAXX 04001 78256 NIL
AAXX 04001 78259 NIL
AAXX 04001 78268 NIL
AAXX 04001 10007 NIL
AAXX 04001 10044 46/// /2419 10059 20021 39886 49917 53020 222// 00048 333 55300 91133 91227
AAXX 04001 10046 41556 72410 10050 20028 39899 49938 52021 78082 8633/ 333 82920 85650 91018 91128 91216
AAXX 04001 10091 NIL
AAXX 04001 10113 01665 72511 10071 20033 39957 49976 51022 69901 72581 875// 333 32/// 55/// 20034 30032 55300 20000 30000 69907 87640 91125 91216
AAXX 04001 10124 46/// ///// 10062 2//// 39922 49959 51027 222// 00061 333 553// 911// 912//
AAXX 04001 10131 07571 62512 10062 20021 39950 49965 51022 69911 72365 333 55/// 20015 30015 55300 20000 30000 69917 85/28 85/46 86/56 91122 91214
AAXX 04001 10170 01482 52409 10062 20016 39930 49946 53007 60011 72561 85300 333 32/// 55/// 20090 30083 55300 20000 30000 69917 85910 91120
AAXX 04001 10264 06588 62508 10045 20016 39882 49988 51018 60041 333 55/// 20110 30103 55300 20000 30000 60027 81/25 86/34 91125 91212
AAXX 04001 10291 01582 22507 10064 20045 39928 49995 51014 60031 72561 82200 333 31/// 55/// 20281 30170 55300 20000 30000 60037 82824 91119 91212 96281
AAXX 04001 10315 11982 02409 10061 20007 39985 40049 51019 69931 70186 333 32/// 55/// 20030 30030 55300 20000 30000 91131 91217 96418
AAXX 04001 10379 01783 62511 10068 20033 39894 40014 51013 60031 70361 86500 333 31/// 55/// 20244 30105 42478 55300 20000 30000 41032 60037 86656 91121 91211
AAXX 04001 10382 01681 62408 10078 20035 39966 40011 51012 69991 70361 82570 333 31/// 55/// 20235 30116 55300 20000 30000 69997 82645 85358 91118 91212 96463
AAXX 04001 10384 06/// /2205 10078 20046 39953 40012 50009 60021 333 55/// 20252 30115 55300 20000 30000 60027 91118
AAXX 04001 10427 01482 72612 10012 20004 39066 48374 51019 60061 70286 872// 333 41998 55/// 20040 30040 55300 20000 30000 69907 87811 91127 91217 96465 96463 96461 96441
AAXX 04001 10430 07685 12506 10058 20013 39870 40062 51024 60041 70065 333 55/// 20065 30059 55300 20000 30000 69907 81/37 91121 91213
AAXX 04001 10439 41675 32505 10070 20012 39860 40079 51016 70361 81501 333 81640 83072 91119 91212
AAXX 04001 10453 11/90 92524 11018 21018 38694 48332 53019 60091 78787 333 49087 55300 91143 91234 96049 96038 96288 96286 96469 96463
AAXX 04001 10496 07388 72407 10092 20058 39955 40039 53001 69901 75165 333 55/// 20354 30149 55300 20000 30000 69907 82/09 87/36 87/50 91116
AAXX 04001 10499 12686 82011 10085 20019 39771 40058 55003 60001 875// 333 31/// 55/// 20443 30117 55300 20000 30000 87643 91124 90228 91218 90328 91218
AAXX 04001 10505 11484 22610 10058 20031 39810 40092 50006 60061 70161 81501 333 32/// 55/// 20149 30148 55300 20000 30000 81615 91123 91215
AAXX 04001 10513 11582 62506 10071 20027 39972 40093 50004 60011 70361 82501 333 31/// 55/// 20060 30060 55300 20000 30000 82630 86074 91119 91212 96465
AAXX 04001 10532 07583 82304 10056 20035 39842 40090 51014 60051 70065 333 55/// 20091 30088 55300 20000 30000 69927 85/26 85/41 88/71 91117 91212
AAXX 04001 10544 NIL
AAXX 04001 10554 01582 72511 10071 20030 39683 40068 51027 60021 70361 84506 333 31/// 55/// 20235 30162 55300 20000 30000 60027 84630 87280 91125 90241 91218 90335 91218 96463
AAXX 04001 10567 01375 82610 10080 20054 39692 40063 53006 69901 76162 875// 333 31/// 55/// 20364 30219 55300 20000 30000 69907 83708 87626 91123 91215
AAXX 04001 10578 11/01 92521 10011 20011 38675 48378 58009 69921 76076 333 44050 55/// 20201 30187 55300 20000 30000 96045
AAXX 04001 78221 NIL
AAXX 04001 78224 32560 30106 10162 20084 30181 40258 53010 83500 333 10220 83633
AAXX 04001 78229 32559 41001 10194 20169 30126 40201 52010 84400 333 84620
AAXX 04001 78239 31559 43507 10177 20101 30233 40236 52020 70500 84800 333 10222 83820
AAXX 04001 78244 NIL
AAXX 04001 78243 42559 63503 10164 20103 30121 40245 52017 86220 333 86825
AAXX 04001 78255 42559 10104 10166 20106 30086 40236 52020 81500 333 10226 81820
AAXX 04001 78264 31559 23609 10220 20154 30121 40196 52030 70500 82200 333 10297 82825
AAXX 04001 78265 41559 13604 10188 20115 30114 40214 52020 70544 81101 333 10271 81825
AAXX 04001 78256 NIL
AAXX 04001 78259 NIL
AAXX 04001 78268 NIL
AAXX 04001 10609 01680 82405 10074 20042 39788 40117 50005 60051 70262 875// 333 31/// 55/// 20109 30107 55300 20000 30000 69927 82635 87650 91124 91216 96465
AAXX 04001 10616 01482 72805 10051 20030 39507 40107 50004 60051 70262 8381/ 333 31/// 55300 60027 81814 83619 87467 91120 91211 96465
AAXX 04001 10641 07988 72304 10080 20046 39957 40103 50008 60031 72365 333 55300 60027 86/59 86/63 87/67 91119 91211
AAXX 04001 10655 01462 82807 10086 20079 39780 40105 53007 60031 76362 878// 333 31/// 55/// 20385 30233 55300 20000 30000 60037 84812 87626 91120 91214
AAXX 04001 10675 07330 72106 10087 20069 39813 40102 56006 69911 75865 333 55/// 20433 30203 55300 20000 30000 69917 87/08 91113
AAXX 04001 10688 07588 72105 10080 20044 39593 40111 57016 69901 72365 333 55/// 20408 30190 55300 20000 30000 69907 87/24 87/29 91113
AAXX 04001 10708 01260 82307 10066 20052 39746 40132 52005 60101 76366 8472/ 333 32/// 55/// 20204 30180 55300 20000 30000 60107 84705 88523 91121 91214
AAXX 04001 10729 07673 72507 10105 20054 30006 40127 50009 69901 76165 333 55/// 20256 30204 55300 20000 30000 69907 83/41 87/50 91118 91211
AAXX 04001 10731 07257 82409 10099 20080 39977 40119 56006 60051 76265 333 55/// 20397 30223 55300 20000 30000 60047 85/06 87/28 88/35 91123 91216
AAXX 04001 10742 07563 82405 10099 20069 39787 40114 58009 69951 75865 333 55/// 20407 30180 55300 20000 30000 69957 88/26 91115
AAXX 04001 10776 07688 82206 10080 20038 39688 40130 56019 69911 72365 333 55/// 20410 30166 55300 20000 30000 69917 87/42 88/59 88/64
AAXX 04001 10791 06/// /2317 11003 21003 38481 48428 56008 60061 333 55300 60067 91130 91221
AAXX 04001 10805 07688 72010 10108 20072 39948 40137 58024 69931 72365 333 55/// 20340 30220 55300 20000 30000 69937 87/46 91119 91213
AAXX 04001 10815 07234 82309 10056 20056 39200 48444 58023 60111 76365 333 55/// 20405 30223 55300 20000 30000 60097 87/06 87/10 88/16 91123 91212
AAXX 04001 10836 07459 82208 10058 20039 39267 40133 58017 69911 76265 333 55/// 20479 30159 55300 20000 30000 69917 81/18 87/26 88/32 91120 91214
AAXX 04001 10870 01582 82508 10087 20025 39616 40146 58019 69901 76022 885// 333 31/// 55300 69907 82630 83644 87656 91113
AAXX 04001 10895 07/56 /1701 10025 20000 39586 40165 56023 69901 76265 333 55/// 20500 30194 55300 20000 30000 69907
AAXX 04001 10908 06001 72220 10015 20015 38458 48456 58016 60081 333 55/// 20407 30262 55300 20000 30000 60087 87/00 91135 91226
AAXX 04001 10929 01575 72604 10067 20018 39642 40175 58022 69911 76362 878// 333 31/// 55/// 20549 30165 55300 20000 30000 69917 82823 87650 91114
AAXX 04001 10948 15888 81703 10016 21000 39227 48464 58030 69901 333 4/022 55/// 20583 30154 55300 20000 30000 87/57 88/58
AAXX 04001 10961 46/// /2616 11049 21087 37065 47033 58011 333 55/// 20704 41978 55300 20000 40906 91135 91228
AAXX 04001 10962 12780 72409 10072 21017 39013 48465 56015 60001 875// 333 31/// 55/// 20625 30142 55300 20000 30000 87650 91124 91215
AAXX 04001 10980 46/// /2310 10040 21075 38130 48472 58014 333 55/// 20664 30174 55300 20000 30000 91123 90258 91218 90358 91218
BBXX BATFR31 04004 99425 10070 46/// /2611 10132 20125 40252 58015 22234 00137
BBXX BATEU04 04004 99581 70295 46/// /2239 10065 20054 49924 55013 22222
BBXX BATFR14 04004 99430 70146 44793 63115 10139 20134 40335 51035 74155 86777 22264 00142 21008 327// 41006 5////
BBXX BATFR60 04004 99494 70041 46/// /2833 10107 20044 40192 53010 22222 00112
BBXX BATFR46 04004 99338 70075 44996 20808 10139 20117 40311 70111 82122 22213 00160 21002
BBXX BATFR20 04004 99424 10075 46/// ///// 10127 20057 40243 58017 22274
BBXX BATEU05 04004 99602 70404 46/// /2839 10007 49743 55043 22252
BBXX BATEU01 04004 99458 70481 46/// /1724 10085 20077 40093 56040 22264 00022
BBXX BATFR52 04004 99500 70038 46/// /2930 10100 20027 40178 22233 00114
BBXX BATFR15 04004 99502 70002 46/// /2724 10102 20044 40128 53036 22244 00117
BBXX BATFR19 04004 99067 30055 46/// /1811 10237 20194 40133 58013 222// 00257
AAXX 04001 01025 17/84 /1911 10000 21061 39868 49879 58010 6//// 700// 333 91114
AAXX 04001 01052 16/// /1407 11034 21065 39866 49965 55007 60001 333 91116
AAXX 04001 01122 16/// /3001 11051 21066 39735 49825 58022 69931 333 91103
AAXX 04001 01132 16/// /2302 11018 21056 39434 49818 56025 60001 333 4/063 91112
AAXX 04001 01156 16/// /1007 10024 21033 39819 49828 57007 60001 333 91112
AAXX 04001 01203 46/// /3408 10035 21003 39663 49710 53022 333 91117
AAXX 04001 01233 16/// /1701 11020 21035 60021 333 91113
AAXX 04001 01265 NIL
AAXX 04001 01273 16/// /1307 10022 21045 39534 49724 56033 60001 333 91113
AAXX 04001 01307 NIL
AAXX 04001 01321 16/// /2901 10002 21002 39453 49700 53022 60001 333 91111
AAXX 04001 01327 16/// /3203 10006 21021 60011 333 91120
AAXX 04001 01350 16/// /0308 11047 21061 38308 49643 53002 69961 333 91118
AAXX 04001 01361 16/// /0702 11031 21067 38697 49697 55001 60001 333 4/068 91112
AAXX 04001 01375 16/// /0000 11049 21053 6//// 333 91103
AAXX 04001 01378 16/// /2901 10001 21007 39393 49676 56034 60021 333 91110
AAXX 04001 01385 16/// /0605 10001 21005 39413 49677 58042 60051 333 91112
AAXX 04001 01412 16/// /3120 10058 20041 39669 49697 51119 60021 333 91125
AAXX 04001 01422 16/// /3008 10045 20024 60021 333 91112
AAXX 04001 01440 NIL
AAXX 04001 01441 NIL
AAXX 04001 01467 NIL
AAXX 04001 01469 16/// /3503 10013 21008 39476 49642 56046 60021 333 91111
AAXX 04001 01477 16/// /1002 10014 20009 60091 333 4/030 91108
AAXX 04001 01480 16/// /0103 10028 20004 60131 333 91109
AAXX 04001 01484 16/// /1007 10016 21003 39498 49648 58062 60111 333 91114
AAXX 04001 01490 16/// /0905 11012 21012 60061 333 91112
AAXX 04001 01495 16/// /1609 10054 20038 39592 49604 58076 60041 333 91125
AAXX 04001 01121 46/// /1213 10014 21046 39793 49806 58008 333 91120
AAXX 04001 01135 16/// /1802 11033 21051 39685 49837 58012 60001 333 4/031 91106
AAXX 04001 01143 16/// /1007 10016 21049 60001 333 91113
AAXX 04001 01150 16/// /0804 11044 21099 60001 333 4/062 91109
AAXX 04001 01192 16/// /1305 11007 21088 60001 333 4/015 91116
AAXX 04001 01225 46/// /0809 10044 21012 39698 49703 56016 333 91115
AAXX 04001 01230 16/// /1102 11004 21043 69951 333 4/041 91116
AAXX 04001 01232 16/// /1803 10045 21036 39613 49689 55007 60001 333 91119
AAXX 04001 01234 16/// /0605 10038 21021 60011 333 91114
AAXX 04001 01253 16/// /1703 10009 21032 60001 333 4/045 91112
AAXX 04001 01254 16/// /1001 10006 21017 60001 333 4/030 91109
AAXX 04001 01257 NIL
AAXX 04001 01277 NIL
AAXX 04001 01291 16/// /1205 10003 21032 60001 333 4/043 91111
AAXX 04001 01332 NIL
AAXX 04001 01366 46/// /2902 11096 21114 38114 49709 55008 333 91123
AAXX 04001 01370 16/// /0602 11040 21044 38628 49775 56021 60021 333 4/043 91108
AAXX 04001 01376 16/// /3001 10002 21003 60081 333 91106
AAXX 04001 01383 46/// /0000 11001 21001 39397 49702 56037 333 91106
AAXX 04001 01386 16/// ///// 10006 21004 60041
AAXX 04001 01416 16/// ///// 10044 20044 60041
AAXX 04001 01419 16/// /2206 10018 20008 60121 333 91117
AAXX 04001 01430 16/// ///// 10066 20032 60051
AAXX 04001 01434 16/// /3606 11022 21043 38711 49641 53023 69951 333 91111
AAXX 04001 01455 16/// /3402 10023 20009 39312 49609 55002 60021 333 91111
AAXX 04001 01468 16/// /0903 10008 21002 60071 333 91115
AAXX 04001 01470 16/// /3501 10024 20018 39498 49608 55026 60031 333 4/009 91113
AAXX 04001 01476 NIL
AAXX 04001 01481 16/// /1301 10048 20036 39570 49601 56069 60081 333 91115
AAXX 04001 01488 NIL
AAXX 04001 01037 16/// /1406 11015 21066 39916 49922 58008 60001 333 91114
AAXX 04001 01046 41588 61416 11022 21072 39917 49925 56015 70132 83440 333 91124
AAXX 04001 01058 16/// /1308 11060 21080 39498 49969 56013 60001 333 4/016 91114
AAXX 04001 01065 16/// /0803 11044 21069 39827 49991 57008 60001 333 91111
AAXX 04001 01092 46/// /1409 11044 21074 333 91122
AAXX 04001 01107 16/// /1207 10033 20015 39804 49809 58011 60021 333 91112
AAXX 04001 01114 16/// /0703 11029 21077 39797 49807 58013 60001 333 91105
AAXX 04001 01144 46/// /1114 10021 21046 333 91120
AAXX 04001 01199 NIL
AAXX 04001 01245 NIL
AAXX 04001 01259 16/// /0906 10023 21026 39727 49749 56008 60001 333 91121
AAXX 04001 01262 NIL
AAXX 04001 01278 NIL
AAXX 04001 01293 16/// /1403 10014 21029 39542 49744 58034 60001 333 91109
AAXX 04001 01329 NIL
AAXX 04001 01337 16/// /2001 10028 21006 39619 49683 53034 69921 333 91107
AAXX 04001 01344 16/// ///// 11005 21049 69941 333 4/080
AAXX 04001 01364 16/// /0805 11038 21052 38595 49685 50008 69931 333 91118
AAXX 04001 01373 16/// /0000 11006 21011 39467 49664 56025 69951 333 91104
AAXX 04001 01374 NIL
AAXX 04001 01380 16/// /1004 11042 21052 6//// 333 4/045 91112
AAXX 04001 01389 11610 80101 10000 21006 39397 49699 56040 60071 77177 8372/ 333 91108
AAXX 04001 01393 NIL
AAXX 04001 01424 16/// ///// 10045 20000 39667 49670 53067 60001
AAXX 04001 01431 16/// /3204 10015 21007 39013 49651 53067 60081 333 91113
AAXX 04001 01436 NIL
AAXX 04001 01465 16/// /2812 10057 20034 39583 49601 55015 60031 333 91130
AAXX 04001 01471 16/// /3302 11001 21007 60051 333 91105
AAXX 04001 01483 NIL
AAXX 04001 33815 42997 12902 10037 20024 30010 40221 58008 80030 555 11101
AAXX 04001 01015 NIL
AAXX 04001 01023 41589 51108 11016 21067 39788 49883 58008 70120 81578 333 91119
AAXX 04001 01033 46/// /1312 10014 21072 39838 49869 58008 333 91124
AAXX 04001 01059 16/// /1604 11030 21065 39977 49986 57007 6//// 333 91118
AAXX 04001 01089 16/// /1204 11083 21108 39938 40048 58005 6//// 333 91112
AAXX 04001 01167 41577 81407 10000 21028 39833 49838 58070 70282 8596/ 333 91112
AAXX 04001 01180 NIL
AAXX 04001 01210 16/// /1903 10038 21010 39673 49698 53009 6//// 333 91114
AAXX 04001 01228 46/// /1312 10034 21006 39709 49716 57015 333 91117
AAXX 04001 01240 16/// /1114 10038 21008 39711 49730 56023 6//// 333 91119
AAXX 04001 01304 46/// /0000 10045 20010 39677 49707 52031 333 91100
AAXX 04001 01311 47484 83506 10031 20019 39636 49696 53063 781// 333 91113
AAXX 04001 01340 16/// /0302 11017 21038 38829 49673 53019 60001 333 91120
AAXX 04001 01355 16/// ///// 10019 21020 39672 49677 53016 60001
AAXX 04001 01360 NIL
AAXX 04001 01392 16/// /0903 10010 21003 39465 49685 58046 60031 333 91111
AAXX 04001 01406 46/// /3315 10054 20037 39679 49697 53075 333 91120
AAXX 04001 01411 16/// /3115 10058 20040 39666 49691 53101 6//// 333 91119
AAXX 04001 01425 16/// /0202 10038 20014 39601 49678 53105 60111 333 91114
AAXX 04001 01433 46/// /2901 11034 21054 38440 49658 53034 333 91120
AAXX 04001 01442 NIL
AAXX 04001 01450 NIL
AAXX 04001 01452 16/// /2709 10060 20030 39606 49627 53022 60051 333 91126
AAXX 04001 01473 16/// /0103 10014 20007 39417 49617 56047 6//// 333 91107
AAXX 04001 01494 17350 81407 10039 20030 39553 49615 58073 60101 781// 333 91117
AAXX 04001 11816 12470 69902 10032 20016 30015 40182 57025 60001 82608 333 55035 82712 86270
AAXX 04001 11826 15/75 /1406 10054 20024 39979 40181 57028 60001 333 55000
AAXX 04001 11903 11306 80000 11005 21005 39827 40220 57018 60001 74644 885// 333 55024 85707 88630
AAXX 04001 11934 12575 72408 10030 21012 39345 42779 56017 60001 8457/ 333 55022 84630 87465
AAXX 04001 11968 11111 81906 10028 20021 39917 40203 57025 60001 71042 886// 333 55000 88702
AAXX 04004 88889 12584 72305 10102 20073 39985 40069 53015 60001 82834 92350 333 10188 81825 83365 87072
AAXX 04004 88897 46/// /2608 10093 20073 40047 52016
AAXX 04004 07005 04/70 /2615 10080 20033 30030 40120 51006 69921 700// 333 60007 90710 91129 555 60005
AAXX 04004 07015 02984 02509 10061 20014 30047 40105 52003 60001 333 60007 90710 91117 93100 555 60005
AAXX 04004 07020 01660 42929 10103 20040 30142 40169 51021 69921 72161 84200 333 69927 84833 91040 90710 91142 555 69905
AAXX 04004 07027 04773 /2514 10071 20044 30085 40167 53015 69901 700// 333 69907 90710 91126 555 69905
AAXX 04004 07037 04783 82614 10071 20044 39964 40149 52012 69901 700// 333 69907 90710 91123 555 69905
AAXX 04004 07070 04970 82611 10086 20052 30022 40133 54001 60031 700// 333 60007 90710 91117 555 60005
AAXX 04004 07110 01580 43017 10074 20042 30106 40223 51028 69941 70186 83800 333 69947 81824 83647 91036 90710 91136 93100 555 69925
AAXX 04004 07117 01458 82820 10096 20038 30128 40199 53025 69921 70286 888// 333 60007 91031 90710 91142 92446 555 60005
AAXX 04004 07130 04669 82713 10086 20053 30150 40203 51022 60011 700// 333 60007 90710 91121 555 60005
AAXX 04004 07139 06/// /2912 10080 20036 30002 40178 53018 69971 333 60007 90710 91124 555 60005
AAXX 04004 07149 01570 72610 10085 20061 30046 40156 53006 60051 70362 8353/ 333 60007 81623 83643 87363 90710 91116 93100 555 60005
AAXX 04004 07168 04/65 /2412 10079 20057 30014 40158 50012 60121 763// 333 60117 90710 91118 555 60025
AAXX 04004 07181 04461 82606 10062 20056 39738 40152 50005 60151 761// 333 60127 90710 91110 555 60035
AAXX 04004 07190 04583 81813 10104 20069 39946 40127 58019 69901 761// 333 69907 90710 91129 555 69905
AAXX 04004 07207 01458 73220 10107 20063 60071 70182 875// 222// 328// 333 69927 91033 90710 91133 92466 555 69905
AAXX 04004 07222 01765 83109 10094 20067 30181 40213 52021 60071 70162 8357/ 333 60017 83650 87367 90710 91116 555 60005
AAXX 04004 07240 01350 82610 10098 20079 30051 40187 51022 60161 76166 877// 333 60097 87707 90710 91116 93100 555 69945
AAXX 04004 07255 04458 82421 10110 20097 39972 40172 56019 60021 761// 333 60027 91033 90710 91140 555 69965
AAXX 04004 07280 04556 81918 10072 20055 39903 40179 58028 69981 761// 333 69987 90710 91131 555 69965
AAXX 04004 07299 04686 82316 10119 20062 39833 40158 58027 69901 700// 333 69907 91027 90710 91137 555 69905
AAXX 04004 07314 01658 83213 10109 20101 30201 40229 53008 60031 72522 887// 333 60037 88733 90710 91139 555 60025
AAXX 04004 07335 04339 83119 10095 20078 30058 40204 55003 60101 763// 333 60087 91032 90710 91132 555 60065
AAXX 04004 07434 04326 82219 10085 20081 39741 40224 58022 69941 760// 333 69947 91030 90710 91132 555 69945
AAXX 04004 07460 02680 71814 10115 20054 39837 40226 58016 60001 875// 333 60007 83633 83640 85656 90710 91124 93100 555 60005
AAXX 04004 07471 04570 /2306 10067 20037 39267 48848 58023 60001 700// 333 60007 90710 91117 555 60005
AAXX 04004 07481 02884 81613 10080 20027 39944 40236 58025 60001 85507 333 60007 85657 88269 90710 91118 93100 555 60005
AAXX 04004 07510 01550 72314 10126 20096 30189 40255 58017 69921 76062 875// 333 69927 84626 87636 90710 91121 93100 555 69905
AAXX 04004 07535 06/// /2009 10098 20069 39950 40266 58019 60001 333 60007 90710 91119 555 60005
AAXX 04004 07558 06/// /2813 10064 20057 39427 40278 58017 60001 333 60007 90710 91120 555 60005
AAXX 04004 07577 04/23 /2801 10019 20012 30178 40272 56012 60001 710// 333 60007 90710 91103 555 60005
AAXX 04004 07591 04/// /0703 11018 21029 39240 4//// 58013 60001 700// 333 60007 90710 91108 555 60005
AAXX 04004 07607 04786 82306 10118 20065 30211 40283 58015 60001 700// 333 60007 90710 91110 555 60005
AAXX 04004 07621 04786 82212 10112 20065 39861 40298 58006 60001 700// 333 60007 90710 91121 555 60005
AAXX 04004 07627 06/// /1507 10053 20012 39805 40308 58007 60001 333 60007 90710 91110 555 60005
AAXX 04004 07630 04681 82109 10076 20042 30106 40291 58012 60001 700// 333 60007 90710 91111 555 60005
AAXX 04004 07643 04986 /2608 10094 20054 30263 40273 56010 60001 700// 333 60007 90710 91112 555 60005
AAXX 04004 07650 04967 /1802 10025 20002 30227 40268 56011 60001 700// 333 60007 90710 91104 555 60005
AAXX 04004 07661 06/// /2812 10086 20010 30083 40247 58017 60001 333 60007 90710 91116 555 60005
AAXX 04004 07690 02/82 13310 10070 21002 30208 40243 57018 60001 80001 333 60007 81073 90710 91114 93100 555 60005
AAXX 04004 07747 04986 /2504 10065 20022 30230 40285 58013 60001 700// 333 60007 90710 91110 555 60005
AAXX 04004 07761 02970 00408 10054 20037 30252 40263 56004 60001 333 60007 90710 91110 93100 555 60005
AAXX 04004 07790 04986 /2008 10079 20035 30233 40248 56012 60001 700// 333 60007 90710 91110 555 60005
AAXX 04004 81225 12970 20405 10252 20226 40133 60001 80002 333 10310 56009 58003 79999 82080
AAXX 04004 81200 12970 20906 10264 20226 40130 60001 80002 333 56009 58002 70000 82080
AAXX 04004 81202 12970 21211 10266 20234 40130 60001 81042 333 10292 56029 58000 70000 81360
AAXX 04004 81209 NIL
AAXX 04004 81251 NIL
AAXX 04004 03005 11470 43122 10037 21001 39742 49841 52045 60011 72786 84900 92350 333 55/// 20008 81914 90710 91132 91032
AAXX 04004 03017 17766 /3114 10031 20010 39862 49894 52045 60011 723// 92350 333 55/// 20013 81/50 90710 91132
AAXX 04004 03023 17666 /2926 10067 20008 39990 49995 51043 69921 723// 92350 333 81/37 90710 91137
AAXX 04004 03026 17784 /3013 10031 20002 39944 49963 51045 69981 723// 92350 333 55/// 20076 81/50 85/62 90710 91139
AAXX 04004 03063 17683 /2304 10017 21022 39687 49966 52047 69941 723// 92350 333 4/004 55/// 20063 81/38
AAXX 04004 03066 17684 /2624 10033 20007 39941 49947 51047 69941 781// 92350 333 55/// 20035 82/32 85/58 90710 91135
AAXX 04004 03075 17771 /2719 10030 20011 39865 49909 51047 60011 723// 92350 333 81/50 86/65 90710 91128
AAXX 04004 03091 17881 /2815 10034 21002 39855 49934 51047 69901 723// 92350 333 55/// 20062 81/57 90710 91130
AAXX 04004 03100 17968 /3124 10060 20021 30002 40018 51048 60031 723// 92350 333 55/// 20083 8//99 90710 91136
AAXX 04004 03111 16766 /3029 10069 20022 30018 40030 51045 69981 92350 333 81/50 90710 91142 91039
AAXX 04004 03134 16/// /2812 10045 20010 3//// 4//// 5//// 60021 92350 333 55/// 20093 90710 91125
AAXX 04004 03136 17460 /3115 10051 20018 39989 40022 51057 69981 782// 92350 333 55/// 20061 81/17 84/36 90710 91131 91029
AAXX 04004 03162 17470 /3012 10024 20002 39725 40014 53055 60021 782// 92350 333 55/// 20059 81/14 84/19 90710 91129
AAXX 04004 03166 15983 /2514 10033 20005 39918 49988 51051 69901 92350 333 55/// 20137 8//99
AAXX 04004 03171 12982 12820 10037 21004 39954 49966 51054 60001 81031 92350 333 55/// 20089 81365 90710 91127
AAXX 04004 03204 11570 22822 10057 20011 30048 40068 51058 69901 70281 82200 92350 333 55/// 20203 82820 90710 91138 91036
AAXX 04004 03240 15984 /2615 10042 20005 39946 49974 52051 60001 92350 333 55/// 20227 84/67 90710 91129
AAXX 04004 03257 15675 /2817 10045 20009 39967 40008 51055 60021 92350 333 55/// 20129 81/34 90710 91131 91031
AAXX 04004 03292 169// /2609 10039 20023 39970 49988 51033 69921 92350 333 84/65
AAXX 04004 03302 15562 /2823 10061 20021 30085 40097 51054 60031 92350 333 55/// 20239 81/24 90710 91134
AAXX 04004 03354 15560 /2715 10050 20014 39903 40046 53037 69941 92350 333 55/// 20128 82/23 90710 91134 91028
AAXX 04004 03377 11583 12815 10052 20020 39944 40028 53029 69921 72581 81532 92350 333 55/// 20119 81622 90710 91132 91027
AAXX 04004 03414 17682 /2816 10056 20004 39997 40086 51062 69961 781// 92350 333 55/// 20165 84/43 90710 91127
AAXX 04004 03462 17482 /2824 10051 20019 39953 40043 53018 69941 723// 92350 333 55/// 20157 81/16 86/28 85/50 90710 91153 91037
AAXX 04004 03482 17556 /2530 10054 20019 30006 40032 53002 69901 781// 92350 333 81/21 85/31 90710 91142 91042
AAXX 04004 03502 15662 /2927 10064 20016 39967 40130 51045 69901 92350 333 55/// 20183 81/33 90710 91144 91037
AAXX 04004 03535 17982 /2617 10045 20009 39955 40073 53037 69981 723// 92350 333 55/// 20154 8//99 90710 91128 91027
AAXX 04004 03590 12680 62417 10045 20014 39939 40050 51001 60001 865// 92350 333 55/// 20112 86637 90710 91131
AAXX 04004 03649 12680 22817 10060 21006 39992 40093 53023 60001 82830 92350 333 81830 90710 91131 91030
AAXX 04004 03716 15975 /2924 10070 20009 30069 40130 51036 69901 92350 333 55/// 20208 8//99 90710 91138 91036
AAXX 04004 03740 16674 /2714 10050 21004 39933 40112 53028 60001 92350 333 55/// 2//// 82/40 90710 91135
AAXX 04004 03746 15980 /2924 10050 21004 39963 40119 53021 69901 92350 333 81/58 90710 91135
AAXX 04004 03772 15672 /2616 10065 20018 30063 40094 53012 60001 92350 333 55/// 20132 81/39 85/50 90710 91129
AAXX 04004 03796 46/// /2615 10053 20016 39944 40088 53001 92350 333 90710 91128
AAXX 04004 03803 NIL
AAXX 04004 03808 11565 33118 10085 20028 30082 40189 51030 69901 70281 83200 92350 333 55/// 20283 83828 90710 91136 91028
AAXX 04004 03809 11465 53118 10082 20025 30094 40188 52024 69941 70286 85800 92350 333 81710 83822 90710 91137 91028
AAXX 04004 03827 17764 /3114 10077 20022 30109 40172 53030 69941 723// 92350 333 81/50 90710 91130 91029
AAXX 04004 03840 17575 /2918 10044 20020 39835 40145 53024 69981 781// 92350 333 83/24 90710 91134 91034
AAXX 04004 03853 12565 12823 10067 20011 30109 40133 51026 60001 81500 92350 333 55/// 20177 81620 90710 91135 91035
AAXX 04004 03874 46/// /2931 10072 20030 30107 40118 53017 92350 333 90710 91140
AAXX 04004 03882 15963 /2614 10067 20017 30038 40102 51003 60001 92350 333 55/// 20105 8//99 90710 91126 91026
AAXX 04004 03894 11575 32828 10082 20022 40177 52016 69901 72581 83800 333 82822 90710 91140
AAXX 04004 03917 17659 /2814 10049 20010 39996 40073 51051 60031 781// 92350 333 55/// 20161 81/33 91024
BBXX 42039 04001 99288 70860 46/// /3608 10105 40291 92350 22200 00223 333 91211 555 11083 22086
BBXX 41040 04001 99145 70530 46/// /0709 10264 20218 40171 52020 92350 22200 00270 11106 20805 3//// 41104 70032 333 91212 555 11100 22106 32257 40813 62349 073093 075093 069095 076095 080100 077101 80811 92303
BBXX 46072 04001 99517 71722 46/// /2808 11004 21050 40035 58024 92350 22200 00041 11206 20503 3//// 41206 70032 333 91211 555 11086 22090 32338 42813 62349 284082 281091 299064 305062 299060 291061 82711 92338
BBXX 46082 04001 99597 71434 46/// ///// 10016 49854 56045 92350 22200 00058 11104 70018
BBXX 46072 04001 99517 71722 46/// /2808 11004 21050 40035 58024 92350 22200 00041 11206 20503 3//// 41206 70032 333 91211 555 11086 22090 32338 42813 62349 284082 281091 299064 305062 299060 291061 82711 92338
BBXX 46077 04001 99579 71543 46/// /0409 11050 21094 49949 58015 92350 22200 00039 10603 20603 70017 333 91211 555 11089 22093 32308 40411 62349 037085 039084 040089 040087 038089 035087 80510 92323
AAXX 04004 87692 32960 00702 10164 20128 30146 40172 53004 333 10208 20164 555 10170 64135 65208
AAXX 04004 85201 31470 60706 10086 20008 36298 53006 71321 83933 333 10142 56000 58000 82615 81917 85070
AAXX 04004 85223 32584 50808 10212 20070 37489 47127 55006 82501 333 10264 56000 59025 82627 83070
AAXX 04004 85244 32865 63108 10278 20202 39653 40075 53013 84031 333 10358 56049 58008 84357 86070
AAXX 04004 85364 32670 10000 10210 20138 38161 48206 52007 81500 333 10292 56000 59013 81633
BBXX 46026 04001 99378 71228 46/// /3105 10100 40257 56007 92350 22200 00116 11505 20401 326// 41505 70026 333 91206 555 11047 22049 32342 43106 62349 307045 281044 280046 282046 281039 287039
BBXX 46041 04001 99474 71247 46/// /1513 10102 40193 55011 92350 22200 00091 11208 20604 3//// 41207 70041 333 91217 555 11135 22145 32342 41517 62349 154124 152125 153130 152131 152132 149133
BBXX 51004 04001 99175 71524 46/// /0605 10259 20213 92350 555 11056 22060
BBXX 51002 04001 99171 71578 46/// /0706 10245 40180 58024 92350 22200 00247 333 91207 555 11064 22067 32336 40707 62349 072060 069060 066057 068057 075057 074057
BBXX 51100 04001 99236 71539 46/// /2403 10233 40203 56014 92350 22200 00236 11404 20401 301// 41404 70019 333 91204 555 11036 22037 32255 42305 62349 240034 237033 238035 240035 239037 233037
BBXX 44040 04001 99410 70736 46/// /0210 11042 21130 40188 92345 22200 10301 70006 333 91213 555 11113 22118
AAXX 04004 81225 12970 20405 10252 20226 40133 60001 80002 333 10310 56009 58003 79999 82080
AAXX 04004 81200 12970 20906 10264 20226 40130 60001 80002 333 56009 58002 70000 82080
AAXX 04004 81202 12970 21211 10266 20234 40130 60001 81042 333 10292 56029 58000 70000 81360
AAXX 04004 81209 NIL
AAXX 04004 81251 NIL
AAXX 04004 91824 11499 83309 10273 20257 40114 57021 60341 75028 8587/ 333 20235 5679/ 70300 555 1////
AAXX 04004 Scanned by MailMarshal - M86 Security's comprehensive email content s ecur
AAXX 04004 ity solution.
AAXX 04004 --_000_15A73B2E9A32B34CBBB7D7F59DAEB2C0DCC099B8mailniuegovloca_ html code found in mail The rest of this message has been deleted
AAXX 04004 78862 11476 31009 10255 20210 30147 40170 69901 70580 83200 333 10283 20237 58003 83817
AAXX 04004 9999 SCT022 PROB30 TEMPO 0400/0419 SHRA BKN015 PROB40 TEMPO 0420/0424 09015G28KT 5000 SHRA BKN014 SCT036
AAXX 04004 TAF TKPN 032200Z 0400/0424 09014KT 9999 SCT022 PROB30 TEMPO 0400/0419 SHRA BKN015 PROB40 TEMPO 0420/0424 09015G28KT 5000 SHRA BKN014 SCT036
AAXX 04004 TAF TQPF 032200Z 0400/0424 09014KT 9999 SCT022 PROB30 TEMPO 0400/0419 SHRA BKN015 PROB40 TEMPO 0420/0424 09015G28KT 5000 SHRA BKN014 SCT036
AAXX 04004 TAF TUPJ 032200Z 0400/0424 09014KT 9999 SCT022 SCT038 BKN270 TEMPO 0400/0424 4000 SHRA BKN013 BKN036 BKN260
AAXX 04004 BKN038 SCT270 TEMPO 0412/0512 SHRA BKN015 PROB40 TEMPO 0418/0512 5000 SHRA BKN014 BKN036 PROB30 0420/0512 4000 TSRA FEW012CB
AAXX 04004 918 4000 TSRA FEW012CB
AAXX 04004 N015 BKN036 PROB40 TEMPO 0704/0724 3000 +TSRA SCT011CB BKN012 BECMG 0712/0714 14008KT
AAXX 04004 21/2712 07017G28KT 5000 SHRA BKN015 BKN036 PROB TEMPO 2700/2712 4000 TSRA FEW013CB
AAXX 04004 PROB30 TEMPO 0800/0806 4000 TSRA FEW012CB PROB40 TEMPO 0800/0824 2000 +SHRA/TSRA SCT010CB BKN012 BKN250
AAXX 04001 02944 47380 81205 10008 21001 39785 49931 700// 87/// 90000
AAXX 04001 02974 41380 81507 10020 20002 39901 49967 57037 70261 885//
AAXX 04001 02741 47350 71612 10039 20028 39816 49831 57080 76286 87/// 92339
AAXX 04001 02755 47464 81304 10000 21002 39866 49961 57006 78587 88/// 92339
AAXX 04001 02805 47480 81503 11058 21087 39879 40014 57007 74087 88/// 92339
AAXX 04001 02836 47363 71304 11046 21050 39762 49987 54001 77170 87/// 92339
AAXX 04001 02845 47378 81205 11036 21039 39728 49979 52008 77176 88/// 92339
AAXX 04001 02849 47358 81406 11050 21059 39730 40009 57005 71074 88/// 92339
AAXX 04001 02866 47568 81203 11028 21034 39835 49986 57004 77787 88/// 92339
AAXX 04001 02924 47271 81302 10002 20001 39753 49950 57026 70087 88/// 92339
AAXX 04001 02935 47374 81303 11001 21005 39798 49972 57018 70087 88/// 92339
AAXX 04001 02939 47271 81502 11030 21033 39821 40017 57010 72487 88/// 92339
AAXX 04001 02976 46/// /1907 10025 20018 39980 49996 57021 92339
AAXX 04001 02981 47350 71519 10035 2//// 39865 49875 57069 76186 87/// 92339
AAXX 04001 02982 46/// /1621 10035 20013 39910 49918 57058 92339
AAXX 04001 02807 NIL
AAXX 04001 02897 NIL
AAXX 04001 02913 NIL
AAXX 04001 02917 NIL
AAXX 04001 02926 NIL
AAXX 04001 02944 NIL
AAXX 04001 02947 NIL
AAXX 04001 02963 NIL
AAXX 04001 02926 47477 71206 10019 20006 39872 49884 58057 700// 87/// 90000
AAXX 04001 02913 47480 81305 10013 20000 39873 49925 700// 88///
AAXX 04001 02897 47399 81204 11024 21032 39808 49992 700// 88/// 90000
AAXX 04001 02807 47499 81205 11046 21072 39817 40002 785// 88/// 90000
AAXX 04001 02917 47265 81302 11010 21013 39869 49992 700// 88/// 90000
BBXX CG2350 04004 99433 70798 46/// /2707 11126 21188 40264 51013 7//// 8//// 22200 0//// 2////
BBXX CZ9742 04004 99506 70969 46/// /2405 11041 21086 4//// 5//// 7//// 8//// 22200 0//// 2////
BBXX CG2960 04004 99429 70824 46/// /2602 11085 21157 40262 53006 7//// 8//// 22200 0//// 2////
BBXX CGBR 04004 99531 71291 46/// /2325 10105 20098 40015 51010 7//// 8//// 22241 00072 2////
BBXX CGDR 04004 99535 71313 46/// /1720 10091 20090 49968 51012 7//// 8//// 22212 00105 2////
AAXX 04001 01271 17/84 01107 10034 21038 39712 49732 57030 6//// 700// 333 91112
AAXX 04001 01288 16/// /1305 11026 21038 38992 49724 56035 6//// 333 91111
AAXX 04001 01317 16/// /3306 10037 20011 39679 49693 51063 6//// 333 91116
AAXX 04001 01367 16/// /3202 11023 21032 39251 49683 57022 6//// 333 91107
AAXX 04001 01403 16/// /3218 10043 20028 39638 49705 53095 60051 333 91123
AAXX 04001 01415 17570 83214 10062 20032 39685 49696 51117 6//// 761// 333 91119
AAXX 04001 01007 16/// /1111 10001 21047 30011 40020 52009 60001 333 91116
AAXX 04001 01078 16/// /1315 11025 21057 30018 40031 55003 6//// 333 91126
AAXX 04001 01238 46/// /1002 11041 21061 38589 49686 56024 333 91117
AAXX 04001 01359 16/// /0502 11026 21042 38783 49671 55009 60011 333 91109
AAXX 04001 01427 16/// /2923 10069 20041 39653 49669 53092 60011 333 91132
AAXX 04001 01010 41587 71512 10017 21059 39832 49847 58007 70122 81578 333 91118
BBXX CGDX 04004 99468 70712 46/// /2514 11171 21227 40183 51022 7//// 8//// 22200 0//// 2////
BBXX VRYO3 04004 99456 70735 46/// /0000 11150 21225 40207 51027 7//// 8//// 22200 0//// 2////
BBXX CGBN 04004 99447 70636 46/// /3210 11002 21048 40061 53018 7//// 8//// 22200 0//// 2////
BBXX VAAP 04004 99446 70635 46/// /3212 11004 21050 40052 53018 7//// 8//// 22200 0//// 2////
BBXX CGCC 04004 99463 70725 46/// /3303 11170 21231 40203 51023 7//// 8//// 22200 0//// 2////
BBXX VCRG 04004 99474 70619 46/// /2813 11043 21083 40074 51007 7//// 8//// 22271 0//// 2////
BBXX CGDT 04004 99463 70725 46/// /3303 11165 21224 40202 51022 7//// 8//// 22200 0//// 2////
BBXX 3FZK3 04004 99489 71234 46/// /2116 10092 20091 40207 55001 7//// 8//// 22221 0//// 2////
BBXX CG2958 04004 99507 71275 46/// /1310 10072 20069 40094 55004 7//// 8//// 22200 0//// 2////
BBXX CGDS 04004 99429 70792 46/// /3603 11133 21192 40270 53011 7//// 8//// 22200 0//// 2////
BBXX VXKF 04004 99462 70602 46/// /3407 10009 21021 40056 51020 7//// 8//// 22200 0//// 2////
BBXX CGJV 04004 99473 70635 46/// /3022 11080 21115 40073 51010 7//// 8//// 22241 00011 2////
BBXX CGDG 04004 99447 70636 46/// /3312 11006 21012 40063 53019 7//// 8//// 22200 0//// 2////
BBXX VCLM 04004 99468 70712 46/// /2408 11172 21223 40178 51021 7//// 8//// 22200 0//// 2////
BBXX CGBY 04004 99487 71235 46/// /1406 10096 20074 40204 55007 7//// 8//// 22200 0//// 2////
BBXX VOPP 04004 99456 70735 46/// /2606 11170 21235 4//// 5//// 7//// 8//// 22200 0//// 2////
BBXX VCWL 04004 99468 70712 46/// /2604 11174 21230 40186 51022 7//// 8//// 22200 0//// 2////
BBXX VCSZ 04004 99517 70559 46/// /2433 11014 21026 49985 51009 7//// 8//// 22262 0//// 2////
BBXX CGSB 04004 99483 70702 46/// /3109 11169 21216 40164 55000 7//// 8//// 22231 00017 2////
BBXX VCBW 04004 99456 70735 46/// /2808 11163 21232 40205 51027 7//// 8//// 22200 0//// 2////
BBXX CGTF 04004 99476 70527 46/// /3403 10013 20003 40069 58007 7//// 8//// 22200 0//// 2////
BBXX CGHL 04004 99476 70527 46/// /0704 10015 20006 40068 58008 7//// 8//// 22200 0//// 2////
BBXX VOKF 04004 99490 70669 46/// /2710 11113 21158 40089 53025 7//// 8//// 22200 0//// 2////
BBXX VOFG 04004 99456 70614 46/// /3405 10002 21032 40066 51023 7//// 8//// 22200 0//// 2////
BBXX C6SI6 04004 99514 11701 46/// /0816 11027 21098 40123 58015 7//// 8//// 22223 0//// 2////
AAXX 04004 17600 15960 /0208 10097 20043 30235 40245 56006 60001
AAXX 04004 17601 12980 03303 10097 20067 30211 40243 56004 60001 92350
AAXX 04004 17607 NIL
AAXX 04004 17609 12980 03008 10087 20053 30242 40246 58005 60001
AAXX 04004 48698 01459 70405 10257 20245 30106 40124 60004 70522 81142 333 20250 58008 60007 81818 87080
AAXX 04001 11423 07470 /2510 10042 20033 39218 42719 58015 69921 78165 333 55038 69905 81/11 85/14 88/17 91017 91120
AAXX 04001 11487 07570 /2407 10064 20029 39495 40115 57018 69921 78160 333 55054 69905 83/25 87/30 91111
AAXX 04001 11518 02684 72210 10077 20022 39659 40095 55016 60001 875// 333 55059 60005 87640 91118
AAXX 04001 11603 07670 /1506 10058 20000 39608 40089 57018 69911 70086 333 55046 60005 81/35 85/45 87/68 91115
AAXX 04001 11659 07570 /2003 10055 21014 39489 40129 57021 60001 72386 333 55068 60005 85/33 88/50
AAXX 04001 11723 02262 81803 10035 20017 39855 40157 57024 60001 885// 333 55056 60005 82706 88646
AAXX 04001 11782 02775 71703 10076 20002 39827 40131 56029 60001 875// 333 55028 60005 87650 91116
AAXX 04004 48698 01459 70405 10257 20245 30106 40124 60004 70522 81142 333 20250 58008 60007 81818 87080
BBXX CGCC 04004 99463 70725 46/// /3303 11170 21231 40203 51023 7//// 8//// 22200 0//// 2////
BBXX VRYO3 04004 99456 70735 46/// /0000 11150 21225 40207 51027 7//// 8//// 22200 0//// 2////
BBXX VAAP 04004 99446 70635 46/// /3212 11004 21050 40052 53018 7//// 8//// 22200 0//// 2////
BBXX CGDX 04004 99468 70712 46/// /2514 11171 21227 40183 51022 7//// 8//// 22200 0//// 2////
BBXX CGBN 04004 99447 70636 46/// /3210 11002 21048 40061 53018 7//// 8//// 22200 0//// 2////
BBXX VOKJ 04004 99455 70735 46/// /2709 11163 21237 40210 51024 7//// 8//// 22200 0//// 2////
BBXX VAAZ 04004 99/// ///// 46/// /3502 10007 20005 40064 56019 7//// 8//// 22200 0//// 2////
AAXX 04004 78384 12560 10315 10232 20154 40217 60001 81102 333 10260 20230 58022 70000 81820
AAXX 04004
AAXX 04004 78383 12460 10317 10235 20149 40213 60001 81100 333 10255 20226 58026 70000 81816
AAXX 04004 60285 NIL
AAXX 04004 60340 NIL
AAXX 04001 11812 36/// /1507 10021 20021 39471 42775 57031 333 55031
AAXX 04001 11813 16/// /9901 10036 20027 39829 40183 57025 60001 333 55031
AAXX 04001 11816 12470 69902 10032 20016 30015 40182 57025 60001 82608 333 55035 82712 86270
AAXX 04001 11819 36/// /1503 10029 20017 39965 40185 57030 333 55053
AAXX 04001 11826 15/75 /1406 10054 20024 39979 40181 57028 60001 333 55000
AAXX 04001 11841 16/// /0902 10002 21004 39795 40181 57030 60001 333 55002
AAXX 04001 11855 16/// /0907 10037 20019 30025 40194 57029 60001 333 55000
AAXX 04001 11856 36/// /1105 10033 20020 39880 40204 57027 333 55020
AAXX 04001 11858 16/// /1505 10039 20024 30038 40192 57032 60001 333 55011
AAXX 04001 11867 17/50 /9901 10019 20010 39874 40198 57027 60001 71011 333 55005
AAXX 04001 11880 16/// /0000 10023 20023 30034 40210 57022 60001 333 55020
AAXX 04001 11900 16/// /0602 10012 20003 39872 40216 57023 60001 333 55029
AAXX 04001 11903 11306 80000 11005 21005 39827 40220 57018 60001 74644 885// 333 55024 85707 88630
AAXX 04001 11916 46/// /2219 11052 21063 37927 48442 57019 6///1 333 91026 91149
AAXX 04001 11918 16/// /2313 10043 21005 39327 42761 57030 60001 333 55000 91018 91121
AAXX 04001 11927 16/// /3501 10013 20010 39948 40217 57019 60001 333 55010
AAXX 04001 11930 46/// /2713 11020 21101 37315 47993 57013 6///1 333 55000 91023 91129
AAXX 04001 11933 16/// /2505 11003 21033 38642 48458 57022 60001 333 55003 91012
AAXX 04001 11934 12575 72408 10030 21012 39345 42779 56017 60001 8457/ 333 55022 84630 87465
AAXX 04001 11938 16/// /2312 10004 21003 39115 42787 57018 60001
AAXX 04001 11952 16/// /2208 10037 20002 39338 42780 57020 60001 333 55019 91013
AAXX 04001 11958 36/// ///// 11018 21022 38729 48460 57018 333 55///
AAXX 04001 11968 11111 81906 10028 20021 39917 40203 57025 60001 71042 886// 333 55000 88702
AAXX 04001 11976 16/// /1604 10032 20025 39922 40190 57025 60001 333 55000
AAXX 04001 11978 16/// /1405 10029 20023 30075 40208 57024 60001 333 55001
AAXX 04001 11993 16/// /1804 10032 20026 39990 40211 57019 60001 333 55003
AAXX 04001 14648 12970 72901 10056 20031 30138 40262 58006 60001 87070 333 83359 87460
AAXX 04001 14652 12984 02011 11030 21053 37965 48535 58008 60001
AAXX 04001 14542 NIL
AAXX 04004 60101 32458 21003 10059 20045 40326 51003 82500 333 82616
AAXX 04004 60115 32970 02304 10057 20050 40336 56004
AAXX 04004 60135 32350 21305 10079 20070 40317 57003 82600 333 82706
AAXX 04004 60150 32960 01404 10065 20043 39653 40331 58001
AAXX 04004 60155 32960 016// 10108 20096 40298 54000
AAXX 04004 60156 15960 01406 10049 20032 40328 56005 60001
AAXX 04004 60230 12950 20703 10080 20014 40313 56003 60001 80002 92346 333 82070
AAXX 04004 60252 32960 21106 10112 20073 40292 51013 80002 333 82070
AAXX 04004 60096 NIL
AAXX 04004 60141 32960 01908 10033 20009 39644 40342 50003
AAXX 04004 60060 NIL
AAXX 04004 60105 NIL
AAXX 04004 60106 NIL
AAXX 04004 60107 NIL
AAXX 04004 60127 NIL
AAXX 04004 60185 NIL
AAXX 04004 60190 NIL
AAXX 04004 60191 NIL
AAXX 04004 60195 NIL
AAXX 04004 60210 NIL
AAXX 04004 60220 NIL
AAXX 04004 60265 NIL
AAXX 04004 60318 NIL
AAXX 04004 40250 32960 00000 10042 20021 39443 40253 54002
AAXX 04004 40260 32960 00000 10060 20011 39440 4023 52010
AAXX 04004 40265 32960 00000 10040 20035 39446 40256 57004
AAXX 04004 40270 31950 00000 10056 20038 39328 40240 57009 70500
AAXX 04004 40296 32660 60000 10160 20114 40230 52003 83800 333 83830 83630
AAXX 04004 81401 06/// /0601 10242 20226 30123 40129 60001 333 10312 60007 555 60005
AAXX 04004 81408 06/// /3101 10247 20238 30118 40126 60001 333 10274 60007 58007 555 60005
AAXX 04004 64500 32460 82212 10272 20233 30095 40108 885// 333 0//00 59011 84610 88630
AAXX 04004 89642 41682 71215 11006 21076 39771 49824 56004 70272 875// 333 11006 21023 87635
BBXX DBLK 04001 99361 30160 41597 /2712 10181 20121 40132 57010 7//// 22212 04200
AAXX 04003 61701 32960 30509 10210 20152 40137 83030 333 59006 83361
AAXX 04003 61705 NIL
AAXX 04003 61707 NIL
AAXX 04003 61711 NIL
AAXX 04003 61712 NIL
AAXX 04003 61717 NIL
AAXX 04003 61720 NIL
AAXX 04003 61721 NIL
AAXX 04003 61722 NIL
AAXX 04003 61731 31959 60000 10208 20090 4//// 70522 84032 333 5//// 84362 84073
AAXX 04003 61733 NIL
BBXX BATFR54 04004 99448 70047 46/// /2539 10139 20122 40273 22262 00137
AAXX 04004 78951 11470 60912 10270 20220 30143 40158 69901 70381 86200 333 10292 20218 58009 70209 86818
AAXX 04001 89061 379// 02901 10014 21002 39924 49930 57004 77177 333 10032 20010 91001 91103
AAXX 04004 78948 11574 30817 10266 20220 30151 40159 60001 70511 83800 333 02200 10296 20261 58009 70012 83824
AAXX 04004 78982 02484 30609 10264 20235 30137 40142 52015 60001 81101 333 10302 20246 58013 60007 81818 83081
AAXX 04004 78384 12560 10315 10232 20154 40217 60001 81102 333 10260 20230 58022 70000 81820
AAXX 04004 78383 12460 10317 10235 20149 40213 60001 81100 333 10255 20226 58026 70000 81816
AAXX 04004 78958 11565 51114 10256 20235 30138 40148 60001 70611 84801 333 10295 20222 58005 82820 83635
AAXX 04004 78951 11470 60912 10270 20220 30143 40158 69901 70381 86200 333 10292 20218 58009 70209 86818
AAXX 04004 78951 11470 60912 10270 20220 30143 40158 69901 70381 86200 333 10292 20218 58009 70209 86818
AAXX 04001 89061 379// 02901 10014 21002 39924 49930 57004 77177 333 10032 20010 91001 91103
AAXX 04004 78958 11565 51114 10256 20235 30138 40148 60001 70611 84801 333 10295 20222 58005 82820 83635
AAXX 04001 76040 32960 03101 10259 20060 30202 40216 57007 92340 333 10264 20108 30/// 50340 59002 70000 98660
AAXX 04001 76220 32958 02903 10196 20044 38206 40243 57007 92340 333 10212 21068 30/// 50141 59018 70000
AAXX 04001 76225 32960 00201 10196 20014 38681 40189 55006 92345 333 10213 21008 30/// 50281 59055 70000
AAXX 04001 76256 32980 32401 10278 20159 30173 40187 57008 80004 92335 333 10305 20095 30/// 50010 56//5 58/// 70000 83072
AAXX 04001 76305 32970 30402 10252 20096 30178 40186 57004 80004 92340 333 10275 20120 30/// 50301 56004 58002 70000 83070
AAXX 04001 76323 32970 03602 10199 20025 38330 40265 57016 92355 333 10238 20005 30/// 50271 59041 70000
AAXX 04001 76342 32962 00101 10196 21017 39566 40284 57019 92355 333 10219 20038 30/// 50401 59095 70000
AAXX 04001 76373 32670 21402 10197 21023 38250 40206 52012 81202 92350 333 10240 21014 30/// 50351 56909 58013 70000 81827
AAXX 04001 76382 32980 00902 10216 20121 38966 40222 57013 92347 333 10240 20054 30/// 50311 59050 70000
AAXX 04001 76393 32950 01203 10176 20021 39679 40265 57013 92350 333 10202 20060 30/// 50321 59083 70000
AAXX 04001 76402 31958 52701 10308 20137 30120 40176 57001 70544 80006 92340 333 10328 20104 30/// 50351 56005 59001 70000 85262
AAXX 04001 76423 32970 00601 10196 20022 38203 40195 57008 92355 333 10217 20033 30/// 50310 59015 70000
AAXX 04001 76458 32970 23003 10240 20164 30158 40163 53003 80006 92338 333 10323 20151 30/// 50231 56//5 59002 70000 82072
AAXX 04001 76471 32980 00901 10137 20054 37744 40198 57002 92350 333 10165 20014 30/// 5//// 58/// 70000
AAXX 04001 76491 32960 02501 10194 20038 39898 40294 57012 92345 333 10232 20020 30/// 50311 59091 70000
AAXX 04001 76499 31962 00901 10196 20104 30266 40288 57009 70200 92350 333 10245 20023 30/// 50191 59070 70000
AAXX 04001 76525 32780 70605 10096 21009 37517 40253 57002 81024 92340 333 10165 20000 30/// 50241 56/51 59019 70000 81458 86080
AAXX 04001 76539 31868 21201 10122 20071 38223 40262 52001 70544 82070 92350 333 10173 21003 30/// 50210 56030 59034 70000 82358
AAXX 04001 76548 32974 10903 10196 20116 30297 40307 58007 80004 92340 333 10230 20120 30/// 50371 56050 59060 70000 81076
AAXX 04001 76556 32970 73604 10265 20068 39142 40143 55004 80006 92332 333 10285 20184 30/// 50431 56006 58000 70000 87270
AAXX 04001 76571 32865 63601 10182 20019 38210 40211 57002 80004 92355 333 10206 20046 30/// 50261 56001 59029 70000 86058
AAXX 04001 76577 32970 63603 10165 20153 38082 40194 56001 80003 92340 333 10215 20052 30/// 50291 56005 59025 70000 86079
AAXX 04001 76581 32970 53101 10160 20081 39149 40283 57009 85012 92350 333 10185 20055 30/// 50070 56022 59061 70000 83459
AAXX 04001 76625 32550 60903 10162 20029 38191 40195 52002 86030 92340 333 10190 20029 30/// 50270 56020 59038 70000 86357
AAXX 04001 76632 31965 60708 10062 20048 37674 40219 52002 70522 80008 92340 333 10117 20038 30/// 5//// 56005 59039 70000 86270 98565
AAXX 04001 76634 31450 80906 10078 20055 37911 40268 52004 74442 88400 92350 333 10132 20052 30/// 50191 563// 59034 70000 88615
AAXX 04001 76654 31956 42704 10284 20208 30152 40156 50000 70544 80001 92350 333 10338 20219 30/// 50321 59001 70000 84070
AAXX 04001 76658 31960 63605 10291 20124 39653 40150 57006 70542 80008 92346 333 10310 20176 30/// 50640 56001 58011 70000 86270 98904
AAXX 04001 76662 32670 21301 10198 20126 38499 40184 57005 82200 92345 333 10222 20052 30/// 50470 56/00 59008 82833
AAXX 04001 76665 31962 73604 10173 20065 38154 40181 57008 70222 84028 92355 333 10202 20040 30/// 50380 56011 58013 70000 84459
AAXX 04001 76675 31565 71202 10136 20026 37404 40174 52002 70222 82516 92350 333 10183 21025 30/// 50191 56999 59025 70000 82626 98465
AAXX 04001 76680 31540 82601 10152 20013 37783 40192 55003 70544 82821 92355 333 10168 20060 30/// 50041 56777 59042 70000 81625 84458
AAXX 04001 76681 31960 80501 10160 20123 37809 40214 57005 70522 88010 92335 333 10168 20058 30/// 50900 58/// 70000 88458
AAXX 04001 76685 31960 81101 10140 20018 37903 40181 52005 70544 80007 92340 333 10196 20030 30/// 50261 56//9 59016 70000 88277
AAXX 04001 76687 01/09 90901 10092 20082 38780 40313 52007 60021 75145 89/// 92345 333 10122 20090 31/// 50090 59004 60027 70020
AAXX 04001 76692 31656 73603 10206 20141 30277 40297 55000 70322 8455/ 92345 333 10228 20193 30/// 5611/ 58007 70000 84640 83358
AAXX 04001 76695 32956 00402 10232 20130 30245 40251 52001 92348 333 10261 20136 30/// 50430 58020 70000
AAXX 04001 76698 32558 13601 10209 20150 30255 40267 52009 81200 92355 333 10267 20167 30/// 56800 58030 70000 81820
AAXX 04001 76737 01478 82301 10094 20085 38877 40304 53003 60071 75052 8772/ 92335 333 10132 20094 31/// 50061 5629/ 58001 60077 70099 87710 91106 91514
AAXX 04001 76750 32558 33601 10228 20150 30244 40254 52013 81107 92345 333 10280 20173 30/// 50291 56106 58036 70000 81820
AAXX 04001 76773 32570 50906 10151 20068 38467 40179 52002 81406 92348 333 10202 20105 30/// 50431 56909 59012 70000 81620 84068
AAXX 04001 76805 32970 32302 10296 20215 30134 40139 52008 80009 92345 333 10362 20220 30/// 50611 56//7 58008 70000 82163 81064
AAXX 04001 76843 32565 43601 10195 20151 39570 40218 52007 81109 92340 333 10261 10175 30/// 50481 567/9 58010 70000 81820
AAXX 04001 76845 32358 60601 10076 20060 38002 40263 53005 86700 92347 333 10116 20090 30/// 50151 56100 58001 70018 86707
AAXX 04001 76848 32470 70202 10107 20061 38439 40178 51007 81631 92350 333 10163 20123 30/// 50291 56199 58009 70029 81619 84365
AAXX 04001 76903 31675 31802 10256 20218 30006 40139 52019 70411 81204 92340 333 10350 20230 30/// 50291 56104 58004 70000 81833 82080
AAXX 04001 76160 32962 02001 10306 20035 39934 40177 57001 92331 333 10330 20110 30/// 50310 58002 70000
AAXX 04001 76243 32973 01502 10170 20031 39970 40271 57025 92340 333 10196 20008 30/// 50221 59090 70000
AAXX 04001 76253 32682 13205 10218 20073 30109 40199 55002 81020 92344 333 10260 20125 30/// 50681 56070 58001 70000 81450 92004
AAXX 04001 76311 32980 00000 10345 20101 39878 40150 57014 92348 333 10364 20102 30/// 50190 58008 70000
AAXX 04001 76405 32980 63604 10238 20106 30166 40187 57008 80008 92345 333 10260 20175 30/// 50520 56005 58006 70000 86272
AAXX 04001 76412 31966 02301 10302 20129 30129 40173 52003 70544 92345 333 10326 20136 30/// 50581 58022 70000
AAXX 04001 76640 31456 60000 10190 20164 30309 40321 57004 70222 8352/ 92340 333 10212 20122 30/// 50231 5639/ 59050 70000 83611 83440
AAXX 04001 76741 31360 83605 10204 20190 30232 40250 57005 70544 85750 92330 333 10236 20180 30/// 50961 568// 59001 70298 82709 83810
AAXX 04001 76040 32960 03101 10259 20060 30202 40216 57007 92340 33310264 20108 30/// 50340 59002 70000 98660
AAXX 04001 76220 32958 02903 10196 20044 38206 40243 57007 92340 33310212 21068 30/// 50141 59018 70000
AAXX 04001 76225 32960 00201 10196 20014 38681 40189 55006 92345 33310213 21008 30/// 50281 59055 70000
AAXX 04001 76256 32980 32401 10278 20159 30173 40187 57008 80004 92335333 10305 20095 30/// 50010 56//5 58/// 70000 83072
AAXX 04001 76305 32970 30402 10252 20096 30178 40186 57004 80004 92340333 10275 20120 30/// 50301 56004 58002 70000 83070
AAXX 04001 76323 32970 03602 10199 20025 38330 40265 57016 92355 33310238 20005 30/// 50271 59041 70000
AAXX 04001 76342 32962 00101 10196 21017 39566 40284 57019 92355 33310219 20038 30/// 50401 59095 70000
AAXX 04001 76373 32670 21402 10197 21023 38250 40206 52012 81202 92350333 10240 21014 30/// 50351 56909 58013 70000 81827
AAXX 04001 76382 32980 00902 10216 20121 38966 40222 57013 92347 33310240 20054 30/// 50311 59050 70000
AAXX 04001 76393 32950 01203 10176 20021 39679 40265 57013 92350 33310202 20060 30/// 50321 59083 70000
AAXX 04001 76402 31958 52701 10308 20137 30120 40176 57001 70544 8000692340 333 10328 20104 30/// 50351 56005 59001 70000 85262
AAXX 04001 76423 32970 00601 10196 20022 38203 40195 57008 92355 33310217 20033 30/// 50310 59015 70000
AAXX 04001 76458 32970 23003 10240 20164 30158 40163 53003 80006 92338333 10323 20151 30/// 50231 56//5 59002 70000 82072
AAXX 04001 76471 32980 00901 10137 20054 37744 40198 57002 92350 33310165 20014 30/// 5//// 58/// 70000
AAXX 04001 76491 32960 02501 10194 20038 39898 40294 57012 92345 33310232 20020 30/// 50311 59091 70000
AAXX 04001 76499 31962 00901 10196 20104 30266 40288 57009 70200 92350333 10245 20023 30/// 50191 59070 70000
AAXX 04001 76525 32780 70605 10096 21009 37517 40253 57002 81024 92340333 10165 20000 30/// 50241 56/51 59019 70000 81458 86080
AAXX 04001 76539 31868 21201 10122 20071 38223 40262 52001 70544 8207092350 333 10173 21003 30/// 50210 56030 59034 70000 82358
AAXX 04001 76548 32974 10903 10196 20116 30297 40307 58007 80004 92340333 10230 20120 30/// 50371 56050 59060 70000 81076
AAXX 04001 76556 32970 73604 10265 20068 39142 40143 55004 80006 92332333 10285 20184 30/// 50431 56006 58000 70000 87270
AAXX 04001 76571 32865 63601 10182 20019 38210 40211 57002 80004 92355333 10206 20046 30/// 50261 56001 59029 70000 86058
AAXX 04001 76577 32970 63603 10165 20153 38082 40194 56001 80003 92340333 10215 20052 30/// 50291 56005 59025 70000 86079
AAXX 04001 76581 32970 53101 10160 20081 39149 40283 57009 85012 92350333 10185 20055 30/// 50070 56022 59061 70000 83459
AAXX 04001 76625 32550 60903 10162 20029 38191 40195 52002 86030 92340333 10190 20029 30/// 50270 56020 59038 70000 86357
AAXX 04001 76632 31965 60708 10062 20048 37674 40219 52002 70522 8000892340 333 10117 20038 30/// 5//// 56005 59039 70000 8627098565
AAXX 04001 76634 31450 80906 10078 20055 37911 40268 52004 74442 8840092350 333 10132 20052 30/// 50191 563// 59034 70000 88615
AAXX 04001 76654 31956 42704 10284 20208 30152 40156 50000 70544 8000192350 333 10338 20219 30/// 50321 59001 70000 84070
AAXX 04001 76658 31960 63605 10291 20124 39653 40150 57006 70542 8000892346 333 10310 20176 30/// 50640 56001 58011 70000 8627098904
AAXX 04001 76662 32670 21301 10198 20126 38499 40184 57005 82200 92345333 10222 20052 30/// 50470 56/00 59008 82833
AAXX 04001 76665 31962 73604 10173 20065 38154 40181 57008 70222 8402892355 333 10202 20040 30/// 50380 56011 58013 70000 84459
AAXX 04001 76675 31565 71202 10136 20026 37404 40174 52002 70222 8251692350 333 10183 21025 30/// 50191 56999 59025 70000 8262698465
AAXX 04001 76680 31540 82601 10152 20013 37783 40192 55003 70544 8282192355 333 10168 20060 30/// 50041 56777 59042 70000 8162584458
AAXX 04001 76681 31960 80501 10160 20123 37809 40214 57005 70522 8801092335 333 10168 20058 30/// 50900 58/// 70000 88458
AAXX 04001 76685 31960 81101 10140 20018 37903 40181 52005 70544 8000792340 333 10196 20030 30/// 50261 56//9 59016 70000 88277
AAXX 04001 76687 01/09 90901 10092 20082 38780 40313 52007 60021 7514589/// 92345 333 10122 20090 31/// 50090 59004 60027 70020
AAXX 04001 76692 31656 73603 10206 20141 30277 40297 55000 70322 8455/92345 333 10228 20193 30/// 5611/ 58007 70000 84640 83358
AAXX 04001 76695 32956 00402 10232 20130 30245 40251 52001 92348 33310261 20136 30/// 50430 58020 70000
AAXX 04001 76698 32558 13601 10209 20150 30255 40267 52009 81200 92355333 10267 20167 30/// 56800 58030 70000 81820
AAXX 04001 76737 01478 82301 10094 20085 38877 40304 53003 60071 750528772/ 92335 333 10132 20094 31/// 50061 5629/ 58001 6007770099 87710 91106 91514
AAXX 04001 76750 32558 33601 10228 20150 30244 40254 52013 81107 92345333 10280 20173 30/// 50291 56106 58036 70000 81820
AAXX 04001 76773 32570 50906 10151 20068 38467 40179 52002 81406 92348333 10202 20105 30/// 50431 56909 59012 70000 81620 84068
AAXX 04001 76805 32970 32302 10296 20215 30134 40139 52008 80009 92345333 10362 20220 30/// 50611 56//7 58008 70000 82163 81064
AAXX 04001 76843 32565 43601 10195 20151 39570 40218 52007 81109 92340333 10261 10175 30/// 50481 567/9 58010 70000 81820
AAXX 04001 76845 32358 60601 10076 20060 38002 40263 53005 86700 92347333 10116 20090 30/// 50151 56100 58001 70018 86707
AAXX 04001 76848 32470 70202 10107 20061 38439 40178 51007 81631 92350333 10163 20123 30/// 50291 56199 58009 70029 81619 84365
AAXX 04001 76903 31675 31802 10256 20218 30006 40139 52019 70411 8120492340 333 10350 20230 30/// 50291 56104 58004 70000 8183382080
AAXX 04001 76160 32962 02001 10306 20035 39934 40177 57001 92331 33310330 20110 30/// 50310 58002 70000
AAXX 04001 76243 32973 01502 10170 20031 39970 40271 57025 92340 33310196 20008 30/// 50221 59090 70000
AAXX 04001 76253 32682 13205 10218 20073 30109 40199 55002 81020 92344333 10260 20125 30/// 50681 56070 58001 70000 81450 92004
AAXX 04001 76311 32980 00000 10345 20101 39878 40150 57014 92348 33310364 20102 30/// 50190 58008 70000
AAXX 04001 76405 32980 63604 10238 20106 30166 40187 57008 80008 92345333 10260 20175 30/// 50520 56005 58006 70000 86272
AAXX 04001 76412 31966 02301 10302 20129 30129 40173 52003 70544 92345333 10326 20136 30/// 50581 58022 70000
AAXX 04001 76640 31456 60000 10190 20164 30309 40321 57004 70222 8352/92340 333 10212 20122 30/// 50231 5639/ 59050 70000 8361183440
AAXX 04001 76741 31360 83605 10204 20190 30232 40250 57005 70544 8575092330 333 10236 20180 30/// 50961 568// 59001 70298 8270983810
BBXX CGUM 04004 99449 70616 46/// /3315 10018 21000 40061 53020 7//// 8//// 22252 0//// 2////
AAXX 04001 45007 12568 70307 10122 20038 30251 40260 53015 60002 8353/ 333 20121 58049 70000 83630 85362
AAXX 04001 45007 12568 70307 10122 20038 30251 40260 53015 60002 8353/ 333 20121 58049 70000 83630 85362
AAXX 04004 68386 36/// /1204 10230 20203 39709 48629 52001 333 10351 20230 91007 555 91024
AAXX 04001 45032 36/// /0005 10103 20026 30246 40263 52001
AAXX 04001 45035 36/// /0504 10112 20039 30219 40262 54000
AAXX 04001 45039 36/// /0405 10112 20050 30241 40256 52002
AAXX 04001 45044 36/// /0109 10117 20054 30149 40245 52003 333 91115
AAXX 04001 45032 36/// /0005 10103 20026 30246 40263 52001
AAXX 04001 45035 36/// /0504 10112 20039 30219 40262 54000
AAXX 04001 45039 36/// /0405 10112 20050 30241 40256 52002
AAXX 04001 45044 36/// /0109 10117 20054 30149 40245 52003 333 91115
AAXX 04004 16045 NIL
AAXX 04004 16090 11003 42206 10000 21003 30162 40249 58020 60001 74444 84600 333 84701
AAXX 04004 16149 12560 61702 10078 20061 30232 40248 58018 60001 84510 333 84630
AAXX 04004 16261 NIL
AAXX 04004 16453 NIL
AAXX 04004 16560 12965 03405 10078 20055 30258 40265 58003 60001
AAXX 04001 06400 32467 12409 10075 20007 30080 40091 50004 81801 333 81818 91118 91214
AAXX 04001 06428 NIL
AAXX 04001 06451 12580 22405 10065 20023 30028 40096 50007 60001 82500 333 70070 82631 91117 91212
AAXX 04001 06456 32570 82506 10058 20035 39744 40112 50004 875// 333 83640 91120 91214
AAXX 04001 06476 17464 82605 10038 20024 39451 40117 54002 60031 70076 333 70076 82/10 86/12 88/15 91118 91210
AAXX 04001 06479 32977 02407 10057 20014 30009 40089 50008 333 91117 91211
AAXX 04001 06490 15465 62605 10044 20022 39532 40104 50002 60041 333 70043 83/17 86/20 91121 91211
AAXX 04001 06590 11870 72405 10065 20045 39668 40120 50002 60041 70262 875// 333 87657 91120 91212
AAXX 04004 71805 04369 81605 10014 20007 30050 40059 52007 60001 700// 333 60007 90710 91109 555 60005
AAXX 04001 06407 12568 42511 10073 20019 30081 40087 50003 60001 84800 333 70024 81820 83635 91120 91215
AAXX 04001 06447 NIL
AAXX 04004 63980 41470 72702 20260 20229 40082 72582 8583/ 333 58000 85816 84358 943// 911//
AAXX 04001 06431 NIL
AAXX 04001 06432 NIL
AAXX 04001 06449 11565 32507 10062 20030 39879 40108 51006 60001 70181 81502 333 70040 81630 83070 91117 91211
AAXX 04001 06450 15973 02506 10065 20010 30072 40088 51009 60011 333 70081 91118 91211
AAXX 04001 06458 NIL
AAXX 04001 06465 NIL
AAXX 04001 06478 12565 32506 10058 20029 39880 40100 51004 60011 82530 333 70041 82627 83359 91117 91212
AAXX 04001 06496 NIL
AAXX 04004 16008 12960 40103 11054 21072 38561 48517 57017 60001 84010 333 84460 92870
AAXX 04004 16084 NIL
AAXX 04004 16088 11001 62702 10004 21003 30134 40258 58015 60001 74444 86600 333 86701
AAXX 04004 16110 12598 82701 10094 20082 30227 40231 58018 60001 8452/ 333 84630 84457 555 0////
AAXX 04004 16134 12984 02207 10012 21141 37862 48542 58008 60001 333 92845
AAXX 04004 16153 12998 02412 10086 20024 39975 40244 58005 60001 555 0////
AAXX 04004 16158 12962 01205 10038 20031 30244 40252 57011 60001
AAXX 04004 16206 12980 00000 10056 20033 30238 40247 58003 60001
AAXX 04004 16219 NIL
AAXX 04004 16252 12461 30000 10068 20054 39302 42853 58006 60001 83500 333 83614
AAXX 04004 16280 12698 60706 10122 20104 30015 40238 58003 60001 86500 333 86640 555 0////
AAXX 04004 16310 12997 00404 10110 20026 30007 40231 56002 60001 555 0////
AAXX 04004 16320 11558 51507 10124 20105 30228 40240 54001 60001 71022 85200 333 85825 555 0////
AAXX 04004 16325 12998 03009 10084 20062 30223 40237 51000 60001 333 98070 555 0////
AAXX 04004 16360 11597 53003 10128 20109 30099 40234 54000 60151 70262 85500 333 85620 555 0////
AAXX 04004 16400 NIL
AAXX 04004 16420 12597 59901 10132 20107 30159 40225 58001 60001 84870 333 81820 83625 555 0////
AAXX 04004 16429 12962 00802 10074 20067 30224 40235 58001 60001
AAXX 04004 16470 NIL
AAXX 04004 16480 12497 80511 10136 20108 30140 40202 57007 60001 8587/ 333 82812 84617 86358 555 0////
AAXX 04004 16522 12398 13504 10118 20094 30029 40276 51001 60001 81600 333 81706 555 0////
AAXX 04004 16539 NIL
AAXX 04004 16550 12998 02910 10102 20060 30068 40251 58002 60001 555 0////
AAXX 04004 16021 12860 31311 11032 21072 37990 48514 57019 60001 83040 333 83358 92865
AAXX 04004 16022 12982 42314 11024 21089 37865 48509 57023 60001 80002 333 92832
AAXX 04004 16033 11430 82202 11018 21037 38821 48519 57024 60001 71022 886// 333 88710 92822
AAXX 04004 16040 NIL
AAXX 04004 16052 12565 12413 11080 21150 36641 47078 58019 60001 81080 333 81320
AAXX 04004 16061 12984 30000 10060 21019 39395 42837 58016 60001 80001
AAXX 04004 16098 11002 60000 10008 21002 30186 40240 57017 60001 74641 86600 333 86701
AAXX 04004 16138 NIL
AAXX 04004 16148 11103 83103 10043 20028 30234 40246 57019 60001 74641 886// 333 88703
AAXX 04004 16168 12784 12103 10082 20070 39499 42850 58001 60001 81030 333 81356
AAXX 04004 16172 11930 00000 10022 20012 39956 40266 58003 60001 71000
AAXX 04004 16179 11202 71203 10058 20049 39554 42837 57015 60001 74642 87600 333 87704
AAXX 04004 16224 12565 62602 10112 20075 39911 40231 58001 60001 86800 333 81826 85633
AAXX 04004 16232 12597 62603 10102 20076 30193 40247 58007 60001 84610 333 84725 555 0////
AAXX 04004 16245 12560 22405 10102 20086 30216 40242 53003 60001 82100 333 82830
AAXX 04004 16253 12965 00106 10090 20070 30231 40243 56002 60001
AAXX 04004 16258 11160 53302 10052 20027 39244 42842 58004 60001 70242 83550 333 83602 83357
AAXX 04004 16263 11168 31006 10046 20046 38980 48537 58001 60001 72841 83500 333 83603
AAXX 04004 16294 12698 30603 10126 20096 30048 40242 58003 6///1 83200 333 83635 555 0////
AAXX 04004 16337 NIL
AAXX 04004 16344 NIL
AAXX 04004 16434 NIL
AAXX 04004 16450 11/00 90506 10076 20076 39110 48569 56001 60001 74544 333 89/00
AAXX 04004 16459 NIL
AAXX 04004 16546 12965 03604 10064 20057 30236 40266 50003 60001
AAXX 04004 16564 12997 02705 10130 20072 30111 40254 58001 60001 555 0////
AAXX 04003 78970 11466 50000 10255 20237 30111 40136 60021 71581 83802 333 02209 10316 20234 58003 82816 85078 90916
AAXX 04003 78962 11463 70805 10258 20220 30143 40151 60001 71511 83832 333 02299 10306 20230 58008 82816 83359
BBXX VOLG 04004 99468 70528 46/// /0810 10018 20004 40060 58011 7//// 8//// 22243 0//// 2////
AAXX 04001 01218 16/// /0602 10051 21017 39670 49691 53007 60001 333 91113
AAXX 04004 61968 16/// /3105 10276 20225 40075 60001 333 59008 90710 91111 555 60005
AAXX 04004 61980 12562 61111 10256 20208 40114 60001 82832 333 58011 81823 83365 85075 90710 91116 924/7 555 60005
AAXX 04004 67005 14/// /3213 10283 20237 40069 60001 700// 333 59015 90710 91119 555 60005
BBXX VOLG 04004 99468 70528 46/// /0810 10018 20004 40060 58011 7//// 8//// 22243 0//// 2////
AAXX 04003 91502 11475 53206 10315 20266 40089 50002 60034 70521 82201 333 20260 56709 59003 82818 84081
AAXX 04003 91507 01470 73604 10301 20252 40084 58004 60024 70562 8292/ 333 20252 56009 59004 69917 82818 81919 87460
AAXX 04003 91520 11575 70000 10315 20275 40081 58012 60084 70522 83936 333 20245 56599 59011 82820 81922 87280
AAXX 04003 91541 11475 83204 10290 20247 40094 52003 60164 71792 8597/ 333 20250 56669 58001 83817 82918 87360
AAXX 04003 91502 11475 53206 10315 20266 40089 50002 60034 70521 82201 333 20260 56709 59003 82818 84081
AAXX 04003 91507 01470 73604 10301 20252 40084 58004 60024 70562 8292/ 333 20252 56009 59004 69917 82818 81919 87460
AAXX 04003 91520 11575 70000 10315 20275 40081 58012 60084 70522 83936 333 20245 56599 59011 82820 81922 87280
AAXX 04003 91541 11475 83204 10290 20247 40094 52003 60164 71792 8597/ 333 20250 56669 58001 83817 82918 87360
BBXX 42057 04001 99168 70815 46/// /0114 10254 20197 40192 53010 92350 22200 00273 10808 20808 70038 333 91216 555 11138 22146 32322 40218 62349 013139 010136 011135 010142 011142 009142 80216 92335
BBXX 41009 04001 99285 70802 46/// /3208 10093 21015 40273 52010 92350 22200 00214 11004 20602 300// 41004 70022 333 91210 555 11080 22083
BBXX 41046 04001 99238 70683 46/// /2907 10247 20211 40167 53009 92350 22200 00253 11003 20402 300// 41002 70016 333 91209 555 11073 22077 32253 42710 62349 292070 296070 292070 279065 284071 279077 82808 92258
BBXX 44011 04001 99411 70666 46/// /3508 10038 21030 40062 51018 92350 22200 00090 10704 20703 3//// 40902 70020 333 91209 555 11081 22084 32338 41710 62349 350077 353081 352083 354078 355076 354073
BBXX 46089 04001 99459 71258 46/// /1714 10106 20095 40176 56016 92350 22200 00092 11009 20806 322// 41007 70045 333 91217 555 11147 22158 32340 41717 62349 170136 172137 173133 173133 169138 170131
BBXX 51101 04001 99243 71621 46/// /0106 10224 20151 40205 58019 92350 22200 00237 11611 20501 333// 41611 70056 333 91207 555 11062 22065 32312 43508 62349 013058 010055 012059 009055 013054 013054
BBXX 46061 04001 99602 71468 46/// /3311 10005 49890 56041 92350 22200 00047 11003 20302 300// 41003 70015 333 91213 555 11116 22121 32318 43314 62349 333110 330118 329116 330114 335104 346093
BBXX 46083 04001 99582 71380 46/// /1017 10027 20016 49819 56035 92350 22200 00060 10606 20605 300// 41002 70029 333 91220 555 11177 22190 32326 41121 62349 103164 106163 108168 106162 107152 108159 81118 92326
AAXX 04004 48601 11559 60604 10250 20229 30107 40111 60004 70522 81231 333 20246 50480 58006 70000 81820 86078
AAXX 04004 48615 11458 71802 10233 20216 30123 40129 60004 70522 82242 333 20229 50460 58009 70000 82818 87074
AAXX 04004 48620 11463 70501 10241 20230 30104 40113 60004 70522 82932 333 20235 50250 58007 70000 81917 86078
AAXX 04004 48647 11460 70000 10259 20232 30090 40115 60004 70522 81932 333 20254 50520 58007 70000 81917 87078
AAXX 04004 48650 11462 62002 10249 20220 30096 40115 60004 70522 81142 333 20247 50800 58010 70000 81818 86078
AAXX 04004 48657 NIL
AAXX 04004 48665 11564 70506 10240 20219 30117 40127 60004 70522 82542 333 20238 50470 58012 70000 82628 83364 86078
AAXX 04004 96413 11470 72704 10249 20240 30096 40123 60794 72162 83963 333 20231 58004 70794 81915 83620 85080
AAXX 04004 96421 12378 71603 10249 20234 30082 40118 60024 83531 333 20229 50250 55033 58003 70020 81708 83365 85080
AAXX 04004 96441 11068 71102 10247 20240 30088 40115 60034 71096 82531 333 20237 50280 55026 58005 70034 81701 86365
AAXX 04004 96449 11480 71203 10258 20244 30099 40118 60054 70192 82931 333 20239 50250 58004 70046 82814 81915 83365 86080
AAXX 04004 96465 NIL
AAXX 04004 96471 12476 71005 10263 20238 30113 40116 60054 81848 333 20237 50100 70054 81815 83364 87078
AAXX 04004 96481 12462 73402 10252 20233 30106 40125 60034 8287/ 333 20235 50200 55039 58006 70028 81817 86364
AAXX 04004 96491 11357 81203 10245 20241 30114 40126 61104 76166 8382/ 333 20236 55004 58009 71104 81708 88468
BBXX 51000 04001 99235 71541 46/// /2403 10233 40198 56013 92350 22200 00235 11405 20401 335// 41405 70024 333 91204 555 11029 22031 32304 42304 62349 238028 232028 235029 233028 227033 234032
AAXX 04004 91574 46/// ///// 29075 30093 40099 51128 333 59013
AAXX 04004 91570 NIL
AAXX 04004 91598 NIL
AAXX 04004 84455 31460 89902 10265 20212 39810 40162 70222 8553/ 333 10320 5690/ 58030 82620 83625 86358
AAXX 04004 84452 31960 51813 10248 20202 30096 40126 70300 85030 333 10299 56000 58006 85365
AAXX 04004 84628 34960 81706 10230 20192 30119 40135 70222 83071 333 10268 56011 58008 83460 86073
AAXX 04004 84752 22020 82708 10114 20108 37546 76152 887// 333 10181 569// 58003 60031 88701
AAXX 04004 84401 31559 72309 10275 20179 30081 40125 70322 875// 333 10340 560// 59029 84620 83640
AAXX 04004 84515 31460 83303 10240 20220 39929 40106 70222 8353/ 333 10290 5699/ 58035 83615 86360
AAXX 04004 84735 21460 82405 10087 20052 36448 76122 885// 333 10162 569// 58003 69931 83710 85615
AAXX 04004 84686 31660 81108 10119 20042 36881 70220 8551/ 333 10182 56990 58003 82640 83656 85465
AAXX 04004 84501 31860 61407 10214 20184 30103 40129 70210 83031 333 10240 56000 58009 83358 83071
AAXX 04004 84691 31357 73402 10214 20194 30128 40135 71044 84601 333 10255 56000 58013 84707 83073
AAXX 04004 84377 21460 82505 10238 20230 30000 40106 75061 85720 333 10318 56490 58010 60481 85715 8457
AAXX 04004 84782 21562 81810 10204 20186 39645 40150 76021 8852/ 333 10274 5657/ 58011 69911 84625 87462
AAXX 04004 84370 31460 82606 10261 20233 30089 40123 70300 8353/ 333 10336 56900 58013 83617 88356
AAXX 04004 91573 06/// /1002 10297 2//// 39984 4//// 58005 60001 333 10299 59016 60007
AAXX 04004 91579 06/// /1210 10273 20251 30065 40073 58007 60081 333 10273 59015 69987
AAXX 04004 91582 04269 81210 10252 20245 30041 40075 58002 60201 761// 333 60127 90710 91116 555 60025
AAXX 04004 91583 06/// /1108 10288 20239 30058 40073 58008 60001 333 10290 59020 60007
AAXX 04004 91587 06/// /1108 10242 20228 30033 40078 58012 60071 333 10246 59015 60027
AAXX 04004 91590 04566 81004 10255 20228 30037 40079 58008 60001 700// 333 60007 90710 91112 555 60005
AAXX 04004 91592 06/// /1103 10269 20240 39996 40079 58007 60001 333 10270 59022 60007
AAXX 04004 91596 06/// /0512 10247 20228 39975 40083 55009 69961 333 10251 59021 69927
AAXX 04004 91577 NIL
AAXX 04001 06206 46562 7//15 10073 20025 39922 49974 51022 8//// 333 84/20 86/25 87/28 91017 91123 91219
AAXX 04001 06207 47561 12617 1//// 2//// 39919 49974 51022 72181 8//// 333 81/26 91020 91126 91221
AAXX 04001 06239 47563 7//18 10073 20028 39857 49917 51039 70381 8//// 333 81/24 86/39 87/44 91022 91130 91224
AAXX 04001 06252 46/// /2617 10072 20021 39953 49999 51016 222// 00086 10809 333 91019 91126 91221
AAXX 04001 06260 17567 22306 10062 20015 30049 40051 51007 69901 70390 8//// 333 81/33 91009 91114 91207
AAXX 04001 06270 15664 72611 10070 20022 30004 40004 51019 60001 8//// 333 85/36 87/40 91016 91123 91216
AAXX 04001 06290 17972 02206 10054 20011 30004 40044 51012 69941 70285 333 91011 91117 91212
AAXX 04001 06201 45462 72616 10068 20032 39907 49959 51024 8//// 333 81/19 83/27 86/35 91021 91130 91223
AAXX 04001 06203 45962 02618 10080 20020 39970 40021 50001 333 91022 91128 91221
AAXX 04001 06204 45564 32619 10075 20018 39949 49999 51015 8//// 333 81/27 83/70 91023 91130 91226
AAXX 04001 06205 45566 12616 10075 20029 39856 49914 51043 8//// 333 81/25 91019 91129 91224
AAXX 04001 06208 45560 82713 10075 20021 39941 49990 51021 8//// 333 83/30 84/34 88/39 91017 91121 91216
AAXX 04001 06211 45562 72417 10070 20026 39923 49978 51020 8//// 333 82/23 84/26 85/30 91021 91130 91224
AAXX 04001 06212 45565 12516 1//// 2//// 39945 40008 51011 8//// 333 81/26 91020 91126 91220
AAXX 04001 06235 15965 02613 10068 20020 30018 40018 51010 69901 333 91018 91125 91218
AAXX 04001 06240 15566 62410 10070 20021 30048 40043 50007 60001 8//// 333 82/30 85/36 86/42 91013 91124 91216
AAXX 04001 06251 15562 72614 10069 20025 39995 49996 51017 60001 8//// 333 82/30 86/35 87/40 91018 91126 91218
AAXX 04001 06258 46/// /2515 333 91018 91129 91221
AAXX 04001 06269 17568 72308 10054 20017 30043 40037 51011 60021 70380 8//// 333 82/33 91010 91122 91216
AAXX 04001 06280 17567 82509 10065 20021 30004 40008 51017 69991 70285 8//// 333 82/32 85/37 88/45 91013 91121 91214
AAXX 04001 06310 15962 02515 10077 20033 30061 40071 51005 60001 333 91019 91120 91216
AAXX 04001 06344 17665 22408 10066 20023 30063 40056 51005 69921 70380 8//// 333 81/37 91011 91128 91218
AAXX 04001 06370 15980 02306 10059 20017 30050 40075 51009 60001 333 91009 91118 91211
AAXX 04001 06380 15975 02405 10065 20023 39953 40092 50004 69901 333 91009 91118 91210
BBXX 44008 04001 99405 70692 46/// /3512 10011 21037 40094 52029 92350 22200 00102 10604 20604 312// 40901 70019 333 91214 555 11128 22134 32333 43615 62349 346122 353116 357117 350117 351117 349114
BBXX 44172 04001 99445 70634 46/// ///// 1//// 90001 22200 00052 11004 21003 320// 41101 70019
BBXX 44097 04001 99410 70711 46/// ///// 1//// 90002 22200 00109 10503 20503 70016
BBXX BATFR42 04004 99497 70018 46/// /2945 10102 20037 40146 222// 00127
AAXX 04001 37682 32997 03402 11112 21132 38124 48515 52004
AAXX 04001 37717 329// 02202 11075 21165 38077 48519 52002 555 1/114
AAXX 04001 37788 42999 00000 11074 21100 39251 40211 52009
AAXX 04004 13600 NIL
AAXX 04004 13610 NIL
AAXX 04004 13611 NIL
AAXX 04004 13619 NIL
AAXX 04004 13622 NIL
AAXX 04004 13624 NIL
AAXX 04004 13625 NIL
AAXX 04004 13629 NIL
AAXX 04004 13601 NIL
AAXX 04004 13602 NIL
AAXX 04004 13623 NIL
AAXX 04001 10544 01/02 92508 10023 20023 39008 48392 50017 60031 74164 333 31/// 4/998 55300 60027 91131 91218 90321 91222 96465 96463 96461 96459
BBXX BATFR55 04004 99202 30572 46/// /1014 10264 20222 40113 22222 00279
AAXX 04001 03951 17957 /2912 10087 20040 30172 40199 52034 69941 71085
AAXX 04001 03953 11570 72909 10086 20027 30174 40211 53038 69951 70282 878// 333 83827 87656 92447 96487
AAXX 04001 03955 11470 32807 10056 20023 39982 40182 52039 60011 72581 83300 333 83918
AAXX 04001 03956 17663 /2708 10047 20016 30072 40150 52042 69911 7015/ 83/// 333 83/32
AAXX 04001 03962 11470 32811 10073 20036 30143 40167 52039 69961 70381 83300 333 81918 83640
AAXX 04001 03963 17560 /2916 10079 20039 30124 40153 52038 60011 72381 83/// 333 82/21 83/47 86/74 90710 91122
AAXX 04001 03966 17965 /2506 10047 20015 30056 40150 52038 69901 7025/
AAXX 04001 03967 11981 02409 10035 20005 30006 40122 52043 69901 70180
AAXX 04001 03969 11480 12609 10033 20007 30011 40117 51047 69961 72581 81800 333 81715
AAXX 04001 03973 16/// /2709 10043 20020 39874 40132 52039 69941
AAXX 04001 03976 11572 62908 10065 20042 30120 40132 52035 60021 72581 869// 333 83920 82820 83638 96489 90710 91118
AAXX 04001 03980 17564 /2914 10060 20022 30035 40060 52045 69971 7228/ 82/// 333 81/27 82/50 82/57 90710 91126 91218
BBXX 44099 04001 99369 70757 46/// ///// 1//// 92352 22200 00107 10504 20504 70021
AAXX 04001 33135 32497 82602 10029 20016 39993 40174 54000 885//
AAXX 04001 33317 31996 51802 10011 20003 39841 40185 57024 71011 80005
AAXX 04001 33345 31496 82902 10028 20023 39987 40195 58001 71022 886// 333 88713
AAXX 04001 33393 32960 31904 10029 21000 39772 40168 57032 80001
AAXX 04001 33506 /1596 82604 10024 20019 39984 40183 52010 71082 885// 555 60011
AAXX 04001 33587 31949 23002 10016 20011 39949 40218 58006 71011 80001
AAXX 04001 33631 31396 81403 10038 20028 30081 40228 57017 71022 886// 333 88707
AAXX 04001 33663 NIL
AAXX 04001 33658 32997 01801 10013 20008 39905 40211 57024
AAXX 04001 33711 /1597 83002 10034 20024 39998 40211 52003 70282 885// 333 88620 555 69901
AAXX 04001 33791 /1997 23203 10028 20018 30054 40208 52006 70181 82030 555 69901
AAXX 04001 33837 31359 83203 10053 20031 30173 40226 52002 71022 885// 333 86708
AAXX 04001 33924 31996 31902 10038 20031 30213 40225 58002 71011 83030
AAXX 04001 33946 32497 82004 10048 20031 30010 40233 57009 886// 333 88713
AAXX 04001 34300 /1215 82905 10011 20008 39973 40166 53010 71087 886// 333 88703 555 60011
AAXX 04001 34504 /1243 83204 10028 20025 30010 40191 53007 71064 886// 333 88706 555 69901
AAXX 04001 34519 /1/06 92403 10015 20010 39896 40175 57009 76164 555 60021
AAXX 04001 34601 32224 83104 10027 20023 30059 40198 52006 71022 886// 333 88706
AAXX 04001 01265 16/// /2502 11012 21034 39142 49708 57035 60021 333 91106
AAXX 04001 01257 16/// /0805 10029 21037 39566 49722 56036 60001 333 91112
AAXX 04001 01488 16/// /1502 10008 20001 60051 333 4/021 91106
AAXX 04001 01245 16/// /0806 11006 21047 39014 49699 55023 69921 333 91120
AAXX 04001 01436 16/// /2823 10066 20046 6//// 333 91133
AAXX 04001 01442 16/// /0601 10026 20015 39379 49626 53033 60091 333 91121
BBXX 41110 04001 99341 70777 46/// ///// 1//// 92351 22200 00128 10301 20301 70007
BBXX 41113 04001 99284 70805 46/// ///// 1//// 92351 22200 00195 11101 21001 309// 41101 70006
AAXX 04004 89532 42/80 10826 11012 21080 39714 49741 56027 81500 333 10038 21012
BBXX 51204 04001 99213 71581 46/// ///// 1//// 92352 22200 00249 11001 21001 329// 41201 70007
BBXX 51203 04001 99208 71570 46/// ///// 1//// 92343 22200 00247 11201 21001 328// 41201 70006
BBXX 51201 04001 99217 71581 46/// ///// 1//// 92342 22200 00245 11403 21002 336// 41403 70017
BBXX 51202 04001 99214 71577 46/// ///// 1//// 92340 22200 00248 11403 20802 301// 41402 70014
OOXX AAUNI 04004 99798 50833 56093 07671 46/// /2321 11062 21150 38941 49819 5//// 90000
AAXX 04004 78988 01475 41109 10253 20233 30136 40147 52016 60021 78080 84200 333 10296 20242 58011 69997 70024 84816
AAXX 04004 78990 01482 30906 10248 20235 30145 40152 52014 60031 72500 83200 333 10299 20244 58005 60037 70034 83818
AAXX 04004 78873 NIL
BBXX 46232 04001 99325 71174 46/// ///// 1//// 92338 22200 00150 11703 21001 328// 41702 70013
BBXX 46240 04001 99366 71219 46/// ///// 1//// 92342 22200 00119 11203 21001 335// 41203 70015
BBXX 46236 04001 99368 71219 46/// ///// 1//// 92350 22200 00118 11506 21003 327// 41505 70029
BBXX 46229 04001 99438 71246 46/// ///// 1//// 92351 22200 00100 11306 21004 327// 41304 70029
BBXX 46225 04001 99329 71174 46/// ///// 1//// 92344 22200 00155 11702 21001 327// 41702 70009
BBXX 46215 04001 99352 71209 46/// ///// 1//// 92338 22200 00138 11505 21003 325// 41505 70027
BBXX 46224 04001 99332 71175 46/// ///// 1//// 92336 22200 00157 11701 21001 327// 41701 70007
BBXX 46214 04001 99379 71235 46/// ///// 1//// 92350 22200 00117 11306 21004 327// 41305 70032
AAXX 04004 78988 01475 41109 10253 20233 30136 40147 52016 60021 78080 84200 333 10296 20242 58011 69997 70024 84816
AAXX 04004 78990 01482 30906 10248 20235 30145 40152 52014 60031 72500 83200 333 10299 20244 58005 60037 70034 83818
AAXX 04004 78873 NIL
BBXX VOXS 04004 99467 70480 41/94 91934 10080 2008/ 40099 52007 76144 89/// 22200 04016 20707 320// 40806 80078
BBXX VOXS 04004 99467 70480 41/94 91934 10080 2008/ 40099 52007 76144 89/// 22200 04016 20707 320// 40806 80078
BBXX DBBH 04001 99377 10154 41/98 /0705 10154 20111 40230 50000 7//// 22221 04158
AAXX 04003 91802 NIL
AAXX 04003 91809 NIL
AAXX 04003 91831 36/// /3206 10288 20238 40153 50000
AAXX 04003 91841 NIL
AAXX 04003 91848 16/// /1504 10260 20234 49964 52014 333 20229
AAXX 04003 91843 11599 42508 10282 20237 40122 57008 60021 70128 84201 333 20236 565/9 333 70085 84825 85079
AAXX 04001 11010 36061 /9901 10005 20003 39791 40179 57014 333 55///
AAXX 04001 11012 16/// /2105 10024 21004 39697 40174 58016 60001
AAXX 04001 11022 16/// /2403 10031 20002 39765 40157 57021 60001
AAXX 04001 11035 32980 73003 10051 20021 39910 40165 57022 8707/ 333 87361
AAXX 04001 11036 32983 71603 10038 20020 39943 40169 55024 333 55038 87365
AAXX 04001 11101 16/// /1603 10058 21012 39659 40190 57030 60001
AAXX 04001 11120 16081 /2906 11005 21022 39485 40211 57023 333 55///
AAXX 04001 11126 16/// /1707 10003 21114 37729 48483 58012 69901 333 91115
AAXX 04001 11130 16/// /2502 10008 21005 39595 40197 58018 60001
AAXX 04001 11146 NIL
AAXX 04001 11150 36082 /1505 10029 21018 39630 40177 57025 333 55///
AAXX 04001 11155 17/// /3006 10057 21061 38347 48472 58016 69901 7//4/ 333 91121
AAXX 04001 11157 31/01 99901 11022 21022 39425 40220 57023 74944 333 89/01
AAXX 04001 11172 NIL
AAXX 04001 11190 12660 50302 10036 20019 39932 40169 58031 60001 85500
AAXX 04001 11204 16/// /3601 11012 21026 39440 40258 58027 60001
AAXX 04001 11212 NIL
AAXX 04001 11231 36057 /9901 10016 20016 39648 40231 57024 333 55014
AAXX 04001 11240 36206 /9901 11019 21019 39753 40207 57025 333 55///
AAXX 04001 11244 16/// /3401 11006 21014 39866 40205 58026 60001
AAXX 04001 11389 16/// /2003 10029 20011 39844 40175 55008 60001
AAXX 04004 78016 11661 72438 10203 20138 30036 40040 55004 60151 71698 81274 333 10223 20189 70262 90917
AAXX 04001 76040 32960 03101 10259 20060 30202 40216 57007 92340 333 10264 20108 30/// 50340 59002 70000 98660
AAXX 04001 76056 06/// /3207 10241 21012 30182 40205 52003 60001 7//// 8//// 92350 333 0//// 10289 20137 30/// 4//// 50449 54/// 56/// 57/// 58002 60007 70000 8//// 8//// 8//// 9//// 9/
AAXX 04001 76113 32980 01001 10290 20122 39720 40162 57004 92340 333 10300 20080 30/// 50221 58010 70000
AAXX 04001 76122 32970 00000 10174 20057 38584 40213 57016 92351 333 10182 21022 30/// 50201 59055 70000
AAXX 04001 76123 06/// /2802 10189 21060 3//// 4//// 5//// 60001 7//// 8//// 92350 333 0//// 10215 21027 50229 56/// 57/// 5//// 60007 70000 8//// 8//// 8//// 8//// 9//// 9//// 9//// 44
AAXX 04001 76220 32958 02903 10196 20044 38206 40243 57007 92340 333 10212 21068 30/// 50141 59018 70000
AAXX 04001 76225 32960 00201 10196 20014 38681 40189 55006 92345 333 10213 21008 30/// 50281 59055 70000
AAXX 04001 76256 32980 32401 10278 20159 30173 40187 57008 80004 92335 333 10305 20095 30/// 50010 56//5 58/// 70000 83072
AAXX 04001 76305 32970 30402 10252 20096 30178 40186 57004 80004 92340 333 10275 20120 30/// 50301 56004 58002 70000 83070
AAXX 04001 76323 32970 03602 10199 20025 38330 40265 57016 92355 333 10238 20005 30/// 50271 59041 70000
AAXX 04001 76342 32962 00101 10196 21017 39566 40284 57019 92355 333 10219 20038 30/// 50401 59095 70000
AAXX 04001 76373 32670 21402 10197 21023 38250 40206 52012 81202 92350 333 10240 21014 30/// 50351 56909 58013 70000 81827
AAXX 04001 76382 32980 00902 10216 20121 38966 40222 57013 92347 333 10240 20054 30/// 50311 59050 70000
AAXX 04001 76390 31966 03505 10127 20022 38299 40231 57003 70544 92330 333 10190 20014 30/// 50421 59044 70000ZCZC
AAXX 04001 76393 32950 01203 10176 20021 39679 40265 57013 92350 333 10202 20060 30/// 50321 59083 70000
AAXX 04001 76402 31958 52701 10308 20137 30120 40176 57001 70544 80006 92340 333 10328 20104 30/// 50351 56005 59001 70000 85262
AAXX 04001 76423 32970 00601 10196 20022 38203 40195 57008 92355 333 10217 20033 30/// 50310 59015 70000
AAXX 04001 76458 32970 23003 10240 20164 30158 40163 53003 80006 92338 333 10323 20151 30/// 50231 56//5 59002 70000 82072
AAXX 04001 76471 32980 00901 10137 20054 37744 40198 57002 92350 333 10165 20014 30/// 5//// 58/// 70000
AAXX 04001 76490 06/// /3201 10174 20010 39882 40277 55011 60001 7//// 8//// 92350 333 0//// 10239 20025 30/// 50279 54/// 56/// 57/// 59086 60007 70000 8//// 8//// 8//// 8//// 9//// 9/
AAXX 04001 76491 32960 02501 10194 20038 39898 40294 57012 92345 333 10232 20020 30/// 50311 59091 70000
AAXX 04001 76499 31962 00901 10196 20104 30266 40288 57009 70200 92350 333 10245 20023 30/// 50191 59070 70000
AAXX 04001 76519 32960 81202 10192 20013 38413 40216 57002 80004 92350 333 10218 20058 30/// 50351 56006 59015 70000 88270
AAXX 04001 76525 32780 70605 10096 21009 37517 40253 57002 81024 92340 333 10165 20000 30/// 50241 56/51 59019 70000 81458 86080
AAXX 04001 76539 31868 21201 10122 20071 38223 40262 52001 70544 82070 92350 333 10173 21003 30/// 50210 56030 59034 70000 82358
AAXX 04001 76543 32675 31702 10200 20098 30282 40316 55001 82505 92346 333 10245 20126 31/// 50301 56305 59066 70000 82640
AAXX 04001 76547 06/// /0803 10183 20115 30287 40299 56004 60001 7//// 8//// 92350 333 0//// 10230 20117 50339 56/// 57/// 59059 60007 70000 8//// 8//// 8//// 8//// 9//// 9//// 9//// 44
AAXX 04001 76548 32974 10903 10196 20116 30297 40307 58007 80004 92340 333 10230 20120 30/// 50371 56050 59060 70000 81076
AAXX 04001 76556 32970 73604 10265 20068 39142 40143 55004 80006 92332 333 10285 20184 30/// 50431 56006 58000 70000 87270
AAXX 04001 76571 32865 63601 10182 20019 38210 40211 57002 80004 92355 333 10206 20046 30/// 50261 56001 59029 70000 86058
AAXX 04001 76577 32970 63603 10165 20153 38082 40194 56001 80003 92340 333 10215 20052 30/// 50291 56005 59025 70000 86079
AAXX 04001 76581 32970 53101 10160 20081 39149 40283 57009 85012 92350 333 10185 20055 30/// 50070 56022 59061 70000 83459
AAXX 04001 76586 06/// /0000 10176 20113 30139 40298 56005 60001 7//// 8//// 92350 333 0//// 10205 20118 30/// 4//// 50159 54/// 56/// 57/// 59063 60007 70000 8//// 8//// 8//// 9//// 9/
AAXX 04001 76592 06/// /0310 10215 21224 30277 40277 51006 60001 7//// 8//// 92350 333 0//// 10246 20213 30/// 4//// 50799 54/// 56/// 57/// 58026 60007 70000 8//// 8//// 8//// 9//// 9/
AAXX 04001 76593 32460 50506 10212 20185 30277 40279 52008 83550 92350 333 10248 20210 30/// 50470 56110 58028 70000 83624 82330 91008 91505
AAXX 04001 76612 32862 60000 10188 20070 38514 40194 56004 85021 92355 333 10211 20088 30/// 50251 56055 59048 70000 85458 81072
AAXX 04001 76625 32550 60903 10162 20029 38191 40195 52002 86030 92340 333 10190 20029 30/// 50270 56020 59038 70000 86357
AAXX 04001 76632 31965 60708 10062 20048 37674 40219 52002 70522 80008 92340 333 10117 20038 30/// 5//// 56005 59039 70000 86270 98565
AAXX 04001 76634 31450 80906 10078 20055 37911 40268 52004 74442 88400 92350 333 10132 20052 30/// 50191 563// 59034 70000 88615
AAXX 04001 76641 06/// /0000 10191 20085 30295 40307 55000 60001 7//// 8//// 92350 333 0//// 10225 20140 30/// 4//// 50209 54/// 56/// 57/// 59056 60007 70000 8//// 8//// 8//// 8//// 9/
AAXX 04001 76645 06/// /0203 10210 20115 30267 40280 52009 60001 7//// 8//// 92350 333 0//// 10261 20193 30/// 4//// 50379 54/// 56/// 57/// 58028 60007 70000 8//// 8//// 8//// 9//// 9/
AAXX 04001 76648 06/// /0203 10196 20112 30239 40271 52010 60001 7//// 8//// 92350 333 0//// 10267 20151 30/// 4//// 50349 54/// 56/// 57/// 58034 60007 70000 8//// 8//// 8//// 8//// 9/
AAXX 04001 76654 31956 42704 10284 20208 30152 40156 50000 70544 80001 92350 333 10338 20219 30/// 50321 59001 70000 84070
AAXX 04001 76658 31960 63605 10291 20124 39653 40150 57006 70542 80008 92346 333 10310 20176 30/// 50640 56001 58011 70000 86270 98904
AAXX 04001 76662 32670 21301 10198 20126 38499 40184 57005 82200 92345 333 10222 20052 30/// 50470 56/00 59008 82833
AAXX 04001 76665 31962 73604 10173 20065 38154 40181 57008 70222 84028 92355 333 10202 20040 30/// 50380 56011 58013 70000 84459
AAXX 04001 76675 31565 71202 10136 20026 37404 40174 52002 70222 82516 92350 333 10183 21025 30/// 50191 56999 59025 70000 82626 98465
AAXX 04001 76680 31540 82601 10152 20013 37783 40192 55003 70544 82821 92355 333 10168 20060 30/// 50041 56777 59042 70000 81625 84458
AAXX 04001 76681 31960 80501 10160 20123 37809 40214 57005 70522 88010 92335 333 10168 20058 30/// 50900 58/// 70000 88458
AAXX 04001 76683 32970 70401 10127 20057 37862 40206 51007 80007 92345 333 10184 20046 30/// 50261 56005 59031 70000 87280
AAXX 04001 76685 31960 81101 10140 20018 37903 40181 52005 70544 80007 92340 333 10196 20030 30/// 50261 56//9 59016 70000 88277
AAXX 04001 76687 01/09 90901 10092 20082 38780 40313 52007 60021 75145 89/// 92345 333 10122 20090 31/// 50090 59004 60027 70020
AAXX 04001 76692 31656 73603 10206 20141 30277 40297 55000 70322 8455/ 92345 333 10228 20193 30/// 50271 5611/ 58007 79999 84640 83358
AAXX 04001 76695 32956 00402 10232 20130 30245 40251 52001 92348 333 10261 20136 30/// 50430 58020 70000
AAXX 04001 76698 32558 13601 10209 20150 30255 40267 52009 81200 92355 333 10267 20167 30/// 50331 56800 58030 70000 81820
AAXX 04001 76737 01478 82301 10094 20085 38877 40304 53003 60071 75052 8772/ 92335 333 10132 20094 31/// 50061 5629/ 58001 60077 70099 87710 91106 91514
AAXX 04001 76738 06/// /2901 10092 20087 38880 40314 53006 60081 7//// 8//// 333 10114 20090 30/// 50139 56/// 57/// 58001 60027 70118 8//// 8//// 8//// 8//// 9//// 9//// 9//// 444 ////
AAXX 04001 76743 01250 81101 10199 20189 30261 40269 52003 60091 75062 884// 92350 333 10250 20195 31/// 50210 561// 58020 60047 70470 88605
AAXX 04001 76750 32558 33601 10228 20150 30244 40254 52013 81107 92345 333 10280 20173 30/// 50291 56106 58036 70000 81820
AAXX 04001 76751 06/// /0102 10217 20146 30243 40254 52012 69921 7//// 8//// 92350 333 0//// 10277 20172 30/// 4//// 50279 54/// 56/// 57/// 58035 69927 70006 8//// 8//// 8//// 9//// 9/
AAXX 04001 76762 32904 73301 10232 20180 38791 40158 57009 80001 92342 333 10264 20140 30/// 50341 56006 59005 70000 87070
AAXX 04001 76772 06/// /1008 10147 20044 38472 40213 53001 60001 7//// 8//// 92350 333 0//// 10193 20113 30/// 4//// 5///9 56/// 57/// 59016 60007 70000 8//// 8//// 8//// 9//// 9//// 9/
AAXX 04001 76773 32570 50906 10151 20068 38467 40179 52002 81406 92348 333 10202 20105 30/// 50431 56909 59012 70000 81620 84068
AAXX 04001 76775 31565 43304 10155 30038 38584 40221 52008 70544 81531 92355 333 10215 20106 30/// 50371 56888 59002 70000 81620
AAXX 04001 76805 32970 32302 10296 20215 30134 40139 52008 80009 92345 333 10362 20220 30/// 50611 56//7 58008 70000 82163 81064
AAXX 04001 76833 31970 03625 10230 20146 30179 40181 54000 73900 92340 333 10274 20216 30/// 50121 58057 70000 92056
AAXX 04001 76840 32930 40211 10230 20145 30115 40171 52042 80004 92345 333 10275 20195 30/// 50111 56//9 58046 70000 84070 91232 91502 90423
AAXX 04001 76843 32565 43601 10195 20151 39570 40218 52007 81109 92340 333 10261 20175 30/// 50481 567/9 58010 70000 81820
AAXX 04001 76845 32358 60601 10076 20060 38002 40263 53005 86700 92347 333 10116 20090 30/// 50151 56100 58001 70018 86707
AAXX 04001 76848 32470 70202 10107 20061 38439 40178 51007 81631 92350 333 10163 20123 30/// 50291 56199 58009 70029 81619 84365
AAXX 04001 76902 06/// /1402 10279 20206 30005 40142 52019 60001 7//// 8//// 92350 333 0//// 10345 20226 30/// 4//// 50429 54/// 56/// 57/// 58004 60007 70000 8//// 8//// 8//// 8//// 9/
AAXX 04001 76903 31675 31802 10256 20218 30006 40139 52019 70411 81204 92340 333 10350 20230 30/// 50291 56104 58004 70000 81833 82080
AAXX 04001 76160 32962 02001 10306 20035 39934 40177 57001 92331 333 10330 20110 30/// 50310 58002 70000
AAXX 04001 76243 32973 01502 10170 20031 39970 40271 57025 92340 333 10196 20008 30/// 50221 59090 70000
AAXX 04001 76253 32682 13205 10218 20073 30109 40199 55002 81020 92344 333 10260 20125 30/// 50681 56070 58001 70000 81450 92004
AAXX 04001 76311 32980 00000 10345 20101 39878 40150 57014 92348 333 10364 20102 30/// 50190 58008 70000
AAXX 04001 76405 32980 63604 10238 20106 30166 40187 57008 80008 92345 333 10260 20175 30/// 50520 56005 58006 70000 86272
AAXX 04001 76412 31966 02301 10302 20129 30129 40173 52003 70544 92345 333 10326 20136 30/// 50581 58022 70000
AAXX 04001 76640 31456 60000 10190 20164 30309 40321 57004 70222 8352/ 92340 333 10212 20122 30/// 50231 5639/ 59050 70000 83611 83440
AAXX 04001 76647 32565 23602 10199 20129 30254 40284 52011 82200 92350 333 10258 20152 30/// 50471 56800 58040 70000 82828
AAXX 04001 76741 31360 83605 10204 20190 30232 40250 57005 70544 85750 92330 333 10236 20180 30/// 50961 568// 59001 70298 82709 83810
AAXX 04001 76855 32980 22101 10294 20206 30071 40120 55005 80008 92340 333 10337 20218 30/// 50430 56009 59003 70000 92001
BBXX 51205 04001 99210 71564 46/// ///// 1//// 92348 22200 00246 11303 20802 335// 41302 70016
BBXX 46238 04001 99334 71195 46/// ///// 1//// 92350 22200 00140 11506 20902 329// 41505 70029
BBXX 46239 04001 99363 71221 46/// ///// 1//// 92351 22200 00123 11406 20903 328// 41406 70032
AAXX 04004 78947 11578 30910 10265 20212 30159 40162 705 00 83200 333 01200 10292 20253 58005 83825
AAXX 04001 76040 32960 03101 10259 20060 30202 40216 57007 92340 333 10264 20108 30/// 50340 59002 70000 98660
AAXX 04001 76056 06/// /3207 10241 21012 30182 40205 52003 60001 7//// 8//// 92350 333 0//// 10289 20137 30/// 4//// 50449 54/// 56/// 57/// 58002 60007 70000 8//// 8//// 8//// 9//// 9/
AAXX 04001 76113 32980 01001 10290 20122 39720 40162 57004 92340 333 10300 20080 30/// 50221 58010 70000
AAXX 04001 76122 32970 00000 10174 20057 38584 40213 57016 92351 333 10182 21022 30/// 50201 59055 70000
AAXX 04001 76123 06/// /2802 10189 21060 3//// 4//// 5//// 60001 7//// 8//// 92350 333 0//// 10215 21027 50229 56/// 57/// 5//// 60007 70000 8//// 8//// 8//// 8//// 9//// 9//// 9//// 44
AAXX 04001 76220 32958 02903 10196 20044 38206 40243 57007 92340 333 10212 21068 30/// 50141 59018 70000
AAXX 04001 76225 32960 00201 10196 20014 38681 40189 55006 92345 333 10213 21008 30/// 50281 59055 70000
AAXX 04001 76256 32980 32401 10278 20159 30173 40187 57008 80004 92335 333 10305 20095 30/// 50010 56//5 58/// 70000 83072
AAXX 04001 76305 32970 30402 10252 20096 30178 40186 57004 80004 92340 333 10275 20120 30/// 50301 56004 58002 70000 83070
AAXX 04001 76323 32970 03602 10199 20025 38330 40265 57016 92355 333 10238 20005 30/// 50271 59041 70000
AAXX 04001 76342 32962 00101 10196 21017 39566 40284 57019 92355 333 10219 20038 30/// 50401 59095 70000
AAXX 04001 76373 32670 21402 10197 21023 38250 40206 52012 81202 92350 333 10240 21014 30/// 50351 56909 58013 70000 81827
AAXX 04001 76382 32980 00902 10216 20121 38966 40222 57013 92347 333 10240 20054 30/// 50311 59050 70000
AAXX 04001 76390 31966 03505 10127 20022 38299 40231 57003 70544 92330 333 10190 20014 30/// 50421 59044 70000ZCZC
AAXX 04001 76393 32950 01203 10176 20021 39679 40265 57013 92350 333 10202 20060 30/// 50321 59083 70000
AAXX 04001 76402 31958 52701 10308 20137 30120 40176 57001 70544 80006 92340 333 10328 20104 30/// 50351 56005 59001 70000 85262
AAXX 04001 76423 32970 00601 10196 20022 38203 40195 57008 92355 333 10217 20033 30/// 50310 59015 70000
AAXX 04001 76458 32970 23003 10240 20164 30158 40163 53003 80006 92338 333 10323 20151 30/// 50231 56//5 59002 70000 82072
AAXX 04001 76471 32980 00901 10137 20054 37744 40198 57002 92350 333 10165 20014 30/// 5//// 58/// 70000
AAXX 04001 76490 06/// /3201 10174 20010 39882 40277 55011 60001 7//// 8//// 92350 333 0//// 10239 20025 30/// 50279 54/// 56/// 57/// 59086 60007 70000 8//// 8//// 8//// 8//// 9//// 9/
AAXX 04001 76491 32960 02501 10194 20038 39898 40294 57012 92345 333 10232 20020 30/// 50311 59091 70000
AAXX 04001 76499 31962 00901 10196 20104 30266 40288 57009 70200 92350 333 10245 20023 30/// 50191 59070 70000
AAXX 04001 76519 32960 81202 10192 20013 38413 40216 57002 80004 92350 333 10218 20058 30/// 50351 56006 59015 70000 88270
AAXX 04001 76525 32780 70605 10096 21009 37517 40253 57002 81024 92340 333 10165 20000 30/// 50241 56/51 59019 70000 81458 86080
AAXX 04001 76539 31868 21201 10122 20071 38223 40262 52001 70544 82070 92350 333 10173 21003 30/// 50210 56030 59034 70000 82358
AAXX 04001 76543 32675 31702 10200 20098 30282 40316 55001 82505 92346 333 10245 20126 31/// 50301 56305 59066 70000 82640
AAXX 04001 76547 06/// /0803 10183 20115 30287 40299 56004 60001 7//// 8//// 92350 333 0//// 10230 20117 50339 56/// 57/// 59059 60007 70000 8//// 8//// 8//// 8//// 9//// 9//// 9//// 44
AAXX 04001 76548 32974 10903 10196 20116 30297 40307 58007 80004 92340 333 10230 20120 30/// 50371 56050 59060 70000 81076
AAXX 04001 76556 32970 73604 10265 20068 39142 40143 55004 80006 92332 333 10285 20184 30/// 50431 56006 58000 70000 87270
AAXX 04001 76571 32865 63601 10182 20019 38210 40211 57002 80004 92355 333 10206 20046 30/// 50261 56001 59029 70000 86058
AAXX 04001 76577 32970 63603 10165 20153 38082 40194 56001 80003 92340 333 10215 20052 30/// 50291 56005 59025 70000 86079
AAXX 04001 76581 32970 53101 10160 20081 39149 40283 57009 85012 92350 333 10185 20055 30/// 50070 56022 59061 70000 83459
AAXX 04001 76586 06/// /0000 10176 20113 30139 40298 56005 60001 7//// 8//// 92350 333 0//// 10205 20118 30/// 4//// 50159 54/// 56/// 57/// 59063 60007 70000 8//// 8//// 8//// 9//// 9/
AAXX 04001 76592 06/// /0310 10215 21224 30277 40277 51006 60001 7//// 8//// 92350 333 0//// 10246 20213 30/// 4//// 50799 54/// 56/// 57/// 58026 60007 70000 8//// 8//// 8//// 9//// 9/
AAXX 04001 76593 32460 50506 10212 20185 30277 40279 52008 83550 92350 333 10248 20210 30/// 50470 56110 58028 70000 83624 82330 91008 91505
AAXX 04001 76612 32862 60000 10188 20070 38514 40194 56004 85021 92355 333 10211 20088 30/// 50251 56055 59048 70000 85458 81072
AAXX 04001 76625 32550 60903 10162 20029 38191 40195 52002 86030 92340 333 10190 20029 30/// 50270 56020 59038 70000 86357
AAXX 04001 76632 31965 60708 10062 20048 37674 40219 52002 70522 80008 92340 333 10117 20038 30/// 5//// 56005 59039 70000 86270 98565
AAXX 04001 76634 31450 80906 10078 20055 37911 40268 52004 74442 88400 92350 333 10132 20052 30/// 50191 563// 59034 70000 88615
AAXX 04001 76641 06/// /0000 10191 20085 30295 40307 55000 60001 7//// 8//// 92350 333 0//// 10225 20140 30/// 4//// 50209 54/// 56/// 57/// 59056 60007 70000 8//// 8//// 8//// 8//// 9/
AAXX 04001 76645 06/// /0203 10210 20115 30267 40280 52009 60001 7//// 8//// 92350 333 0//// 10261 20193 30/// 4//// 50379 54/// 56/// 57/// 58028 60007 70000 8//// 8//// 8//// 9//// 9/
AAXX 04001 76648 06/// /0203 10196 20112 30239 40271 52010 60001 7//// 8//// 92350 333 0//// 10267 20151 30/// 4//// 50349 54/// 56/// 57/// 58034 60007 70000 8//// 8//// 8//// 8//// 9/
AAXX 04001 76654 31956 42704 10284 20208 30152 40156 50000 70544 80001 92350 333 10338 20219 30/// 50321 59001 70000 84070
AAXX 04001 76658 31960 63605 10291 20124 39653 40150 57006 70542 80008 92346 333 10310 20176 30/// 50640 56001 58011 70000 86270 98904
AAXX 04001 76662 32670 21301 10198 20126 38499 40184 57005 82200 92345 333 10222 20052 30/// 50470 56/00 59008 82833
AAXX 04001 76665 31962 73604 10173 20065 38154 40181 57008 70222 84028 92355 333 10202 20040 30/// 50380 56011 58013 70000 84459
AAXX 04001 76675 31565 71202 10136 20026 37404 40174 52002 70222 82516 92350 333 10183 21025 30/// 50191 56999 59025 70000 82626 98465
AAXX 04001 76680 31540 82601 10152 20013 37783 40192 55003 70544 82821 92355 333 10168 20060 30/// 50041 56777 59042 70000 81625 84458
AAXX 04001 76681 31960 80501 10160 20123 37809 40214 57005 70522 88010 92335 333 10168 20058 30/// 50900 58/// 70000 88458
AAXX 04001 76683 32970 70401 10127 20057 37862 40206 51007 80007 92345 333 10184 20046 30/// 50261 56005 59031 70000 87280
AAXX 04001 76685 31960 81101 10140 20018 37903 40181 52005 70544 80007 92340 333 10196 20030 30/// 50261 56//9 59016 70000 88277
AAXX 04001 76687 01/09 90901 10092 20082 38780 40313 52007 60021 75145 89/// 92345 333 10122 20090 31/// 50090 59004 60027 70020
AAXX 04001 76692 31656 73603 10206 20141 30277 40297 55000 70322 8455/ 92345 333 10228 20193 30/// 50271 5611/ 58007 79999 84640 83358
AAXX 04001 76695 32956 00402 10232 20130 30245 40251 52001 92348 333 10261 20136 30/// 50430 58020 70000
AAXX 04001 76698 32558 13601 10209 20150 30255 40267 52009 81200 92355 333 10267 20167 30/// 50331 56800 58030 70000 81820
AAXX 04001 76737 01478 82301 10094 20085 38877 40304 53003 60071 75052 8772/ 92335 333 10132 20094 31/// 50061 5629/ 58001 60077 70099 87710 91106 91514
AAXX 04001 76738 06/// /2901 10092 20087 38880 40314 53006 60081 7//// 8//// 333 10114 20090 30/// 50139 56/// 57/// 58001 60027 70118 8//// 8//// 8//// 8//// 9//// 9//// 9//// 444 ////
AAXX 04001 76743 01250 81101 10199 20189 30261 40269 52003 60091 75062 884// 92350 333 10250 20195 31/// 50210 561// 58020 60047 70470 88605
AAXX 04001 76750 32558 33601 10228 20150 30244 40254 52013 81107 92345 333 10280 20173 30/// 50291 56106 58036 70000 81820
AAXX 04001 76751 06/// /0102 10217 20146 30243 40254 52012 69921 7//// 8//// 92350 333 0//// 10277 20172 30/// 4//// 50279 54/// 56/// 57/// 58035 69927 70006 8//// 8//// 8//// 9//// 9/
AAXX 04001 76762 32904 73301 10232 20180 38791 40158 57009 80001 92342 333 10264 20140 30/// 50341 56006 59005 70000 87070
AAXX 04001 76772 06/// /1008 10147 20044 38472 40213 53001 60001 7//// 8//// 92350 333 0//// 10193 20113 30/// 4//// 5///9 56/// 57/// 59016 60007 70000 8//// 8//// 8//// 9//// 9//// 9/
AAXX 04001 76773 32570 50906 10151 20068 38467 40179 52002 81406 92348 333 10202 20105 30/// 50431 56909 59012 70000 81620 84068
AAXX 04001 76775 31565 43304 10155 30038 38584 40221 52008 70544 81531 92355 333 10215 20106 30/// 50371 56888 59002 70000 81620
AAXX 04001 76805 32970 32302 10296 20215 30134 40139 52008 80009 92345 333 10362 20220 30/// 50611 56//7 58008 70000 82163 81064
AAXX 04001 76833 31970 03625 10230 20146 30179 40181 54000 73900 92340 333 10274 20216 30/// 50121 58057 70000 92056
AAXX 04001 76840 32930 40211 10230 20145 30115 40171 52042 80004 92345 333 10275 20195 30/// 50111 56//9 58046 70000 84070 91232 91502 90423
AAXX 04001 76843 32565 43601 10195 20151 39570 40218 52007 81109 92340 333 10261 20175 30/// 50481 567/9 58010 70000 81820
AAXX 04001 76845 32358 60601 10076 20060 38002 40263 53005 86700 92347 333 10116 20090 30/// 50151 56100 58001 70018 86707
AAXX 04001 76848 32470 70202 10107 20061 38439 40178 51007 81631 92350 333 10163 20123 30/// 50291 56199 58009 70029 81619 84365
AAXX 04001 76902 06/// /1402 10279 20206 30005 40142 52019 60001 7//// 8//// 92350 333 0//// 10345 20226 30/// 4//// 50429 54/// 56/// 57/// 58004 60007 70000 8//// 8//// 8//// 8//// 9/
AAXX 04001 76903 31675 31802 10256 20218 30006 40139 52019 70411 81204 92340 333 10350 20230 30/// 50291 56104 58004 70000 81833 82080
AAXX 04001 76160 32962 02001 10306 20035 39934 40177 57001 92331 333 10330 20110 30/// 50310 58002 70000
AAXX 04001 76243 32973 01502 10170 20031 39970 40271 57025 92340 333 10196 20008 30/// 50221 59090 70000
AAXX 04001 76253 32682 13205 10218 20073 30109 40199 55002 81020 92344 333 10260 20125 30/// 50681 56070 58001 70000 81450 92004
AAXX 04001 76311 32980 00000 10345 20101 39878 40150 57014 92348 333 10364 20102 30/// 50190 58008 70000
AAXX 04001 76405 32980 63604 10238 20106 30166 40187 57008 80008 92345 333 10260 20175 30/// 50520 56005 58006 70000 86272
AAXX 04001 76412 31966 02301 10302 20129 30129 40173 52003 70544 92345 333 10326 20136 30/// 50581 58022 70000
AAXX 04001 76640 31456 60000 10190 20164 30309 40321 57004 70222 8352/ 92340 333 10212 20122 30/// 50231 5639/ 59050 70000 83611 83440
AAXX 04001 76647 32565 23602 10199 20129 30254 40284 52011 82200 92350 333 10258 20152 30/// 50471 56800 58040 70000 82828
AAXX 04001 76741 31360 83605 10204 20190 30232 40250 57005 70544 85750 92330 333 10236 20180 30/// 50961 568// 59001 70298 82709 83810
AAXX 04001 76855 32980 22101 10294 20206 30071 40120 55005 80008 92340 333 10337 20218 30/// 50430 56009 59003 70000 92001
AAXX 04001 76040 32960 03101 10259 20060 30202 40216 57007 92340 33310264 20108 30/// 50340 59002 70000 98660
AAXX 04001 76056 06/// /3207 10241 21012 30182 40205 52003 60001 7////8//// 92350 333 0//// 10289 20137 30/// 4//// 50449 54///56/// 57/// 58002 60007 70000 8//// 8//// 8//// 9//// 9/
AAXX 04001 76113 32980 01001 10290 20122 39720 40162 57004 92340 33310300 20080 30/// 50221 58010 70000
AAXX 04001 76122 32970 00000 10174 20057 38584 40213 57016 92351 33310182 21022 30/// 50201 59055 70000
AAXX 04001 76123 06/// /2802 10189 21060 3//// 4//// 5//// 60001 7////8//// 92350 333 0//// 10215 21027 50229 56/// 57/// 5////60007 70000 8//// 8//// 8//// 8//// 9//// 9//// 9//// 44
AAXX 04001 76220 32958 02903 10196 20044 38206 40243 57007 92340 33310212 21068 30/// 50141 59018 70000
AAXX 04001 76225 32960 00201 10196 20014 38681 40189 55006 92345 33310213 21008 30/// 50281 59055 70000
AAXX 04001 76256 32980 32401 10278 20159 30173 40187 57008 80004 92335333 10305 20095 30/// 50010 56//5 58/// 70000 83072
AAXX 04001 76305 32970 30402 10252 20096 30178 40186 57004 80004 92340333 10275 20120 30/// 50301 56004 58002 70000 83070
AAXX 04001 76323 32970 03602 10199 20025 38330 40265 57016 92355 33310238 20005 30/// 50271 59041 70000
AAXX 04001 76342 32962 00101 10196 21017 39566 40284 57019 92355 33310219 20038 30/// 50401 59095 70000
AAXX 04001 76373 32670 21402 10197 21023 38250 40206 52012 81202 92350333 10240 21014 30/// 50351 56909 58013 70000 81827
AAXX 04001 76382 32980 00902 10216 20121 38966 40222 57013 92347 33310240 20054 30/// 50311 59050 70000
AAXX 04001 76390 31966 03505 10127 20022 38299 40231 57003 70544 92330333 10190 20014 30/// 50421 59044 70000ZCZC
AAXX 04001 76393 32950 01203 10176 20021 39679 40265 57013 92350 33310202 20060 30/// 50321 59083 70000
AAXX 04001 76402 31958 52701 10308 20137 30120 40176 57001 70544 8000692340 333 10328 20104 30/// 50351 56005 59001 70000 85262
AAXX 04001 76423 32970 00601 10196 20022 38203 40195 57008 92355 33310217 20033 30/// 50310 59015 70000
AAXX 04001 76458 32970 23003 10240 20164 30158 40163 53003 80006 92338333 10323 20151 30/// 50231 56//5 59002 70000 82072
AAXX 04001 76471 32980 00901 10137 20054 37744 40198 57002 92350 33310165 20014 30/// 5//// 58/// 70000
AAXX 04001 76490 06/// /3201 10174 20010 39882 40277 55011 60001 7////8//// 92350 333 0//// 10239 20025 30/// 50279 54/// 56///57/// 59086 60007 70000 8//// 8//// 8//// 8//// 9//// 9/
AAXX 04001 76491 32960 02501 10194 20038 39898 40294 57012 92345 33310232 20020 30/// 50311 59091 70000
AAXX 04001 76499 31962 00901 10196 20104 30266 40288 57009 70200 92350333 10245 20023 30/// 50191 59070 70000
AAXX 04001 76519 32960 81202 10192 20013 38413 40216 57002 80004 92350333 10218 20058 30/// 50351 56006 59015 70000 88270
AAXX 04001 76525 32780 70605 10096 21009 37517 40253 57002 81024 92340333 10165 20000 30/// 50241 56/51 59019 70000 81458 86080
AAXX 04001 76539 31868 21201 10122 20071 38223 40262 52001 70544 8207092350 333 10173 21003 30/// 50210 56030 59034 70000 82358
AAXX 04001 76543 32675 31702 10200 20098 30282 40316 55001 82505 92346333 10245 20126 31/// 50301 56305 59066 70000 82640
AAXX 04001 76547 06/// /0803 10183 20115 30287 40299 56004 60001 7////8//// 92350 333 0//// 10230 20117 50339 56/// 57/// 5905960007 70000 8//// 8//// 8//// 8//// 9//// 9//// 9//// 44
AAXX 04001 76548 32974 10903 10196 20116 30297 40307 58007 80004 92340333 10230 20120 30/// 50371 56050 59060 70000 81076
AAXX 04001 76556 32970 73604 10265 20068 39142 40143 55004 80006 92332333 10285 20184 30/// 50431 56006 58000 70000 87270
AAXX 04001 76571 32865 63601 10182 20019 38210 40211 57002 80004 92355333 10206 20046 30/// 50261 56001 59029 70000 86058
AAXX 04001 76577 32970 63603 10165 20153 38082 40194 56001 80003 92340333 10215 20052 30/// 50291 56005 59025 70000 86079
AAXX 04001 76581 32970 53101 10160 20081 39149 40283 57009 85012 92350333 10185 20055 30/// 50070 56022 59061 70000 83459
AAXX 04001 76586 06/// /0000 10176 20113 30139 40298 56005 60001 7////8//// 92350 333 0//// 10205 20118 30/// 4//// 50159 54///56/// 57/// 59063 60007 70000 8//// 8//// 8//// 9//// 9/
AAXX 04001 76592 06/// /0310 10215 21224 30277 40277 51006 60001 7////8//// 92350 333 0//// 10246 20213 30/// 4//// 50799 54///56/// 57/// 58026 60007 70000 8//// 8//// 8//// 9//// 9/
AAXX 04001 76593 32460 50506 10212 20185 30277 40279 52008 83550 92350333 10248 20210 30/// 50470 56110 58028 70000 83624 8233091008 91505
AAXX 04001 76612 32862 60000 10188 20070 38514 40194 56004 85021 92355333 10211 20088 30/// 50251 56055 59048 70000 85458 81072
AAXX 04001 76625 32550 60903 10162 20029 38191 40195 52002 86030 92340333 10190 20029 30/// 50270 56020 59038 70000 86357
AAXX 04001 76632 31965 60708 10062 20048 37674 40219 52002 70522 8000892340 333 10117 20038 30/// 5//// 56005 59039 70000 8627098565
AAXX 04001 76634 31450 80906 10078 20055 37911 40268 52004 74442 8840092350 333 10132 20052 30/// 50191 563// 59034 70000 88615
AAXX 04001 76641 06/// /0000 10191 20085 30295 40307 55000 60001 7////8//// 92350 333 0//// 10225 20140 30/// 4//// 50209 54///56/// 57/// 59056 60007 70000 8//// 8//// 8//// 8//// 9/
AAXX 04001 76645 06/// /0203 10210 20115 30267 40280 52009 60001 7////8//// 92350 333 0//// 10261 20193 30/// 4//// 50379 54///56/// 57/// 58028 60007 70000 8//// 8//// 8//// 9//// 9/
AAXX 04001 76648 06/// /0203 10196 20112 30239 40271 52010 60001 7////8//// 92350 333 0//// 10267 20151 30/// 4//// 50349 54///56/// 57/// 58034 60007 70000 8//// 8//// 8//// 8//// 9/
AAXX 04001 76654 31956 42704 10284 20208 30152 40156 50000 70544 8000192350 333 10338 20219 30/// 50321 59001 70000 84070
AAXX 04001 76658 31960 63605 10291 20124 39653 40150 57006 70542 8000892346 333 10310 20176 30/// 50640 56001 58011 70000 8627098904
AAXX 04001 76662 32670 21301 10198 20126 38499 40184 57005 82200 92345333 10222 20052 30/// 50470 56/00 59008 82833
AAXX 04001 76665 31962 73604 10173 20065 38154 40181 57008 70222 8402892355 333 10202 20040 30/// 50380 56011 58013 70000 84459
AAXX 04001 76675 31565 71202 10136 20026 37404 40174 52002 70222 8251692350 333 10183 21025 30/// 50191 56999 59025 70000 8262698465
AAXX 04001 76680 31540 82601 10152 20013 37783 40192 55003 70544 8282192355 333 10168 20060 30/// 50041 56777 59042 70000 8162584458
AAXX 04001 76681 31960 80501 10160 20123 37809 40214 57005 70522 8801092335 333 10168 20058 30/// 50900 58/// 70000 88458
AAXX 04001 76683 32970 70401 10127 20057 37862 40206 51007 80007 92345333 10184 20046 30/// 50261 56005 59031 70000 87280
AAXX 04001 76685 31960 81101 10140 20018 37903 40181 52005 70544 8000792340 333 10196 20030 30/// 50261 56//9 59016 70000 88277
AAXX 04001 76687 01/09 90901 10092 20082 38780 40313 52007 60021 7514589/// 92345 333 10122 20090 31/// 50090 59004 60027 70020
AAXX 04001 76692 31656 73603 10206 20141 30277 40297 55000 70322 8455/92345 333 10228 20193 30/// 50271 5611/ 58007 79999 8464083358
AAXX 04001 76695 32956 00402 10232 20130 30245 40251 52001 92348 33310261 20136 30/// 50430 58020 70000
AAXX 04001 76698 32558 13601 10209 20150 30255 40267 52009 81200 92355333 10267 20167 30/// 50331 56800 58030 70000 81820
AAXX 04001 76737 01478 82301 10094 20085 38877 40304 53003 60071 750528772/ 92335 333 10132 20094 31/// 50061 5629/ 58001 6007770099 87710 91106 91514
AAXX 04001 76738 06/// /2901 10092 20087 38880 40314 53006 60081 7////8//// 333 10114 20090 30/// 50139 56/// 57/// 58001 6002770118 8//// 8//// 8//// 8//// 9//// 9//// 9//// 444 ////
AAXX 04001 76743 01250 81101 10199 20189 30261 40269 52003 60091 75062884// 92350 333 10250 20195 31/// 50210 561// 58020 6004770470 88605
AAXX 04001 76750 32558 33601 10228 20150 30244 40254 52013 81107 92345333 10280 20173 30/// 50291 56106 58036 70000 81820
AAXX 04001 76751 06/// /0102 10217 20146 30243 40254 52012 69921 7////8//// 92350 333 0//// 10277 20172 30/// 4//// 50279 54///56/// 57/// 58035 69927 70006 8//// 8//// 8//// 9//// 9/
AAXX 04001 76762 32904 73301 10232 20180 38791 40158 57009 80001 92342333 10264 20140 30/// 50341 56006 59005 70000 87070
AAXX 04001 76772 06/// /1008 10147 20044 38472 40213 53001 60001 7////8//// 92350 333 0//// 10193 20113 30/// 4//// 5///9 56///57/// 59016 60007 70000 8//// 8//// 8//// 9//// 9//// 9/
AAXX 04001 76773 32570 50906 10151 20068 38467 40179 52002 81406 92348333 10202 20105 30/// 50431 56909 59012 70000 81620 84068
AAXX 04001 76775 31565 43304 10155 30038 38584 40221 52008 70544 8153192355 333 10215 20106 30/// 50371 56888 59002 70000 81620
AAXX 04001 76805 32970 32302 10296 20215 30134 40139 52008 80009 92345333 10362 20220 30/// 50611 56//7 58008 70000 82163 81064
AAXX 04001 76833 31970 03625 10230 20146 30179 40181 54000 73900 92340333 10274 20216 30/// 50121 58057 70000 92056
AAXX 04001 76840 32930 40211 10230 20145 30115 40171 52042 80004 92345333 10275 20195 30/// 50111 56//9 58046 70000 84070 9123291502 90423
AAXX 04001 76843 32565 43601 10195 20151 39570 40218 52007 81109 92340333 10261 20175 30/// 50481 567/9 58010 70000 81820
AAXX 04001 76845 32358 60601 10076 20060 38002 40263 53005 86700 92347333 10116 20090 30/// 50151 56100 58001 70018 86707
AAXX 04001 76848 32470 70202 10107 20061 38439 40178 51007 81631 92350333 10163 20123 30/// 50291 56199 58009 70029 81619 84365
AAXX 04001 76902 06/// /1402 10279 20206 30005 40142 52019 60001 7////8//// 92350 333 0//// 10345 20226 30/// 4//// 50429 54///56/// 57/// 58004 60007 70000 8//// 8//// 8//// 8//// 9/
AAXX 04001 76903 31675 31802 10256 20218 30006 40139 52019 70411 8120492340 333 10350 20230 30/// 50291 56104 58004 70000 8183382080
AAXX 04001 76160 32962 02001 10306 20035 39934 40177 57001 92331 33310330 20110 30/// 50310 58002 70000
AAXX 04001 76243 32973 01502 10170 20031 39970 40271 57025 92340 33310196 20008 30/// 50221 59090 70000
AAXX 04001 76253 32682 13205 10218 20073 30109 40199 55002 81020 92344333 10260 20125 30/// 50681 56070 58001 70000 81450 92004
AAXX 04001 76311 32980 00000 10345 20101 39878 40150 57014 92348 33310364 20102 30/// 50190 58008 70000
AAXX 04001 76405 32980 63604 10238 20106 30166 40187 57008 80008 92345333 10260 20175 30/// 50520 56005 58006 70000 86272
AAXX 04001 76412 31966 02301 10302 20129 30129 40173 52003 70544 92345333 10326 20136 30/// 50581 58022 70000
AAXX 04001 76640 31456 60000 10190 20164 30309 40321 57004 70222 8352/92340 333 10212 20122 30/// 50231 5639/ 59050 70000 8361183440
AAXX 04001 76647 32565 23602 10199 20129 30254 40284 52011 82200 92350333 10258 20152 30/// 50471 56800 58040 70000 82828
AAXX 04001 76741 31360 83605 10204 20190 30232 40250 57005 70544 8575092330 333 10236 20180 30/// 50961 568// 59001 70298 8270983810
AAXX 04001 76855 32980 22101 10294 20206 30071 40120 55005 80008 92340333 10337 20218 30/// 50430 56009 59003 70000 92001
AAXX 04001 15015 01595 81502 10018 20018 39624 42823 57014 69911 72854 885// 333 41998 55000 69917 91002 91103 96010
AAXX 04001 15020 02997 01302 10025 20022 30018 40221 57017 60001 333 55027 60007 91004 91104
AAXX 04001 15090 02997 02400 10015 20015 30135 40231 58014 60001 333 55300 10175 20004 3//// 55033 10004 20436 30182 60007 91001 91102
AAXX 04001 15108 01/91 92710 11034 21034 38094 48520 57012 60001 74544 333 44018 55000 60007 91016 92727
AAXX 04001 15120 01996 02201 11019 21019 39737 40254 57012 60001 71011 333 42998 55300 10184 2//// 3//// 55027 00032 20384 30200 60007 91002 91102 92611
AAXX 04001 15150 01996 02701 11010 21012 30013 40234 57016 60001 71000 333 55042 60007 91001 91101
AAXX 04001 15170 01995 62501 11020 21020 39445 42828 57010 60001 71042 86070 333 43002 55000 60007 91001 91102
AAXX 04001 15200 01996 01502 10025 20025 30098 40247 57014 60001 71011 333 55066 60007 91002 91103
AAXX 04001 15230 02997 22100 10001 20001 39960 40265 57010 60001 82040 333 55300 10114 20003 3//// 55040 10018 20523 30250 60007 91001 91101
AAXX 04001 15260 02997 33101 11009 21011 39704 40261 57011 60001 83070 333 55069 60007 91002 91102
AAXX 04001 15280 02999 02706 11045 21071 37517 47056 57010 60001 333 49034 55070 60007
AAXX 04001 15292 02597 81101 10006 20006 39960 40266 58011 60001 886// 333 55040 60007 91002 91102
AAXX 04001 15310 02997 03500 10001 20000 30149 40239 57008 60001 333 55300 10144 20004 3//// 55060 00075 20628 30619 60007 91001 91101 92600
AAXX 04001 15335 03/// /2801 11005 21005 30226 40233 57008 6///1 333 4//// 55/// 6///7 91002 91102
AAXX 04001 15346 01996 02000 11003 21010 39945 40246 57004 60001 71000 333 55064 60007 91001 91104 92600
AAXX 04001 15350 02997 02303 10016 20002 30118 40242 56005 60001 333 55079 60007 91004 91104
AAXX 04001 15360 02998 03003 10023 20010 30212 40226 56004 60001 222// 0//// 2//// /056 60007 91004 91106 92418
AAXX 04001 15410 02997 03102 10037 20010 30140 40238 57007 60001 333 55068 60007 91003 91104
AAXX 04001 15420 02997 00201 11014 21015 30122 40239 55007 60001 333 55300 0//// 20000 3//// 55068 0//// 20738 3//// 60007 91003 91103 92600
AAXX 04001 15450 02997 03203 10004 21005 39995 40239 57005 60001 333 55300 10162 20004 3//// 55065 00060 20728 30725 60007 91003 91104
AAXX 04001 15460 02997 01400 11016 21020 30213 40239 55005 60001 333 55073 60007 91001 91103 92610
AAXX 04001 15470 02997 52702 11002 21002 30106 40237 57005 60001 85070 333 55079 60007 91002 91103
AAXX 04001 15480 02997 03101 10032 20016 30222 40240 54001 60001 222// 0//// 2//// 333 55072 60007 91002 91103 92427
BBXX UFTA 04001 99845 71193 42997 22905 11320 21352 40221 57005 80001 333 21335
AAXX 04004 48300 11/08 90000 10207 20199 39817 40134 52015 60064 74540 333 20206 58002 70064
AAXX 04004 48327 32660 20000 10205 20197 39786 40147 52027 81506 333 20205 58013
AAXX 04004 48331 NIL
AAXX 04004 48353 31630 80000 10213 20196 39851 40145 52021 71022 84536 333 20209 58007
AAXX 04004 48356 31958 61402 10200 20162 39966 40167 52018 71022 83039 333 20199 58018
AAXX 04004 48375 NIL
AAXX 04004 48378 31550 62102 10238 20214 30076 40130 52014 71022 82546 333 20234 58006
AAXX 04004 48381 31558 81002 10214 20166 39930 40151 52017 71022 82576 333 20207 58014
AAXX 04004 48407 31558 70404 10212 20180 30007 40151 52027 71021 81466 333 20205 58015
AAXX 04004 48431 11558 70804 10240 20205 39927 40142 52021 69904 71022 84536 333 20238 58011 79999
AAXX 04004 48456 NIL
AAXX 04004 48480 NIL
AAXX 04004 48500 11556 60000 10231 20222 30123 40130 52019 60084 71022 82535 333 20228 58003 70081
AAXX 04004 48551 11556 80000 10235 20228 30113 40121 52011 60044 71022 83276 333 20235 59001 70044
AAXX 04004 48565 31459 60000 10252 20234 30099 40109 52008 71022 82246 333 20247 58001
AAXX 04004 48569 31558 50000 10239 20212 30086 40127 52013 71011 81146 333 20236 58010
AAXX 04004 48583 11559 60000 10235 20212 30109 40115 52012 60034 71022 82106 333 20221 58000 70033
AAXX 04004 48310 31557 70000 10210 20194 39670 40131 52001 71022 84106 333 20198 58006
AAXX 04004 48325 31/00 90000 10200 20192 39889 40137 52018 74742 333 20180 58008
AAXX 04004 48329 31530 20000 10202 20192 39790 40135 52012 71000 81205 333 20200 58010
AAXX 04004 48352 NIL
AAXX 04004 48357 32961 60506 10220 20155 39992 40164 52021 86031 333 20217 58016
AAXX 04004 48380 31556 80000 10239 20222 30037 40132 52019 71022 84657 333 20232 58006
AAXX 04004 48383 31557 70000 10203 20165 39996 40159 51019 71021 86530 333 20200 58016
AAXX 04004 48403 NIL
AAXX 04004 48405 12560 70604 10211 20185 39986 40152 52021 69904 85536 333 20210 58013 79999
AAXX 04004 48420 31520 80000 10246 20237 30124 40129 52013 71022 81156 333 20240 58014
AAXX 04004 48421 31550 70000 10230 20215 30018 40133 52014 71022 83539 333 20225 58012
AAXX 04004 48425 31550 70000 10244 20228 30119 40129 52011 71022 82536 333 20239 58008
AAXX 04004 48426 31556 80000 10251 20235 30115 40129 52010 71022 82576 333 20250 58011
AAXX 04004 48429 31556 60803 10248 20223 30123 40131 52013 71022 81136 333 20245 58011
AAXX 04004 48430 31559 80000 10253 20234 30116 40123 51007 71022 82556 333 20244 58015
AAXX 04004 48450 31556 50000 10234 20213 30093 40126 52012 71011 81505 333 20210 58006
AAXX 04004 48459 31558 80202 10249 20228 30124 40127 52011 71022 8557/ 333 20247 58014
AAXX 04004 48465 NIL
AAXX 04004 48550 11457 71508 10253 20241 30115 40121 52012 60044 71022 83876 333 20243 58003 70037
AAXX 04004 48552 11458 70000 10235 20229 30114 40121 52011 60654 71022 84236 333 20223 58004 70654
AAXX 04004 48566 12560 30308 10261 20229 30107 40115 52012 60224 82105 333 20237 59004 70218
AAXX 04004 48568 32460 20804 10256 20219 30114 40121 52011 81831 333 20252 58010
AAXX 04004 48302 11459 52103 10152 20139 38485 40124 60014 71011 82835 333 20150 58008 70013
AAXX 04004 48304 11/00 90000 10191 20188 39665 40133 56000 60064 74742 333 20190 58000 70059
AAXX 04004 48334 31540 60000 10202 20199 39768 40136 52025 71022 82235 333 20200 58005
AAXX 04004 48360 NIL
AAXX 04004 48372 31506 60000 10230 20227 30074 40133 52022 74422 82536 333 20222 58011
AAXX 04004 48373 NIL
AAXX 04004 48386 NIL
AAXX 04004 48387 NIL
AAXX 04004 48408 32960 70000 10206 20180 39999 40152 53024 86076 333 20195 58014
AAXX 04004 48415 31510 80000 10245 20235 30118 40130 52012 71022 83576 333 20237 58013
AAXX 04004 48433 31557 60000 10217 20182 39982 40150 52023 71022 82546 333 20214 58013
AAXX 04004 48437 31958 60000 10212 20180 39935 40149 52019 71020 80006 333 20196 58014
AAXX 04004 48440 32957 40000 10232 20206 30080 40130 52014 80006 333 20230 58015
AAXX 04004 48451 NIL
AAXX 04004 48454 31558 70303 10255 20227 30117 40124 71022 84576 333 20250 58012
AAXX 04004 48457 31558 60000 10257 20230 30114 40131 71022 86506 333 20251 58015
AAXX 04004 48463 11520 70000 10243 20231 30041 40135 69914 71022 82876 333 20228 58012 70001
AAXX 04004 48464 31557 50000 10225 20217 30105 40118 71011 83431 333 20225 58012
AAXX 04004 48479 NIL
AAXX 04004 48520 11558 60000 10228 20220 30105 40121 52008 60204 71022 84576 333 20220 59009 70200
AAXX 04004 48554 01450 80000 10242 20239 30121 40125 52015 60154 76066 8672/ 333 20238 58011 69946 70146
AAXX 04004 48563 12560 60404 10244 20222 30075 40111 52009 60044 82256 333 20206 58005 70044
AAXX 04004 48571 31558 51410 10250 20220 30106 40118 52010 71011 82134 333 20243 58010
AAXX 04004 48307 NIL
AAXX 04004 48324 31515 80201 10212 20203 39909 40131 52014 71022 84536 333 20211 58007
AAXX 04004 48333 31930 80000 10192 20179 39831 40139 52024 71020 8807/ 333 20180 59001
AAXX 04004 48350 NIL
AAXX 04004 48355 31558 30000 10188 20166 39939 40164 50018 71011 83500 333 20180 58019
AAXX 04004 48358 32560 70000 10210 20178 39988 40167 52008 85536 333 20200 58017
AAXX 04004 48384 NIL
AAXX 04004 48401 31957 20000 10240 20230 30028 40137 52009 71000 80005 333 20234 58014
AAXX 04004 48404 NIL
AAXX 04004 48409 NIL
AAXX 04004 48419 01557 80000 10250 20238 30119 40127 52011 60034 71062 83845 333 20245 58014 60027 70028
AAXX 04004 48427 NIL
AAXX 04004 48435 11510 80000 10225 20211 39694 40135 53013 69924 71022 885// 333 20222 58011 70002
AAXX 04004 48453 31559 70000 10250 20235 30124 40128 52013 71021 85536 333 20240 58009
AAXX 04004 48458 31505 80000 10237 20227 30064 40146 52008 74642 885// 333 20237 58003
AAXX 04004 48474 11557 60000 10220 20206 30005 40130 52012 69904 71020 81246 333 20217 58006 79999
AAXX 04004 48481 NIL
AAXX 04004 48555 11550 70000 10238 20234 30099 40142 51011 60504 71022 85576 333 20227 58008 70500
AAXX 04004 48556 NIL
AAXX 04004 48557 31557 60000 10235 20230 30088 40123 52013 71022 85806 333 20230 58009
AAXX 04004 48560 11558 60000 10247 20235 30123 40127 51012 60034 71022 82846 333 20242 58011 70030
AAXX 04004 48574 32560 60000 10237 20233 30091 40121 52012 82136 333 20230 58009
AAXX 04004 48581 NIL
AAXX 04004 43533 12460 20906 10270 20232 30095 40098 60002 82202 333 59001 70000 82818
AAXX 04004 43555 12462 30907 10267 20227 30095 40098 60002 82201 333 59003 70000 82818
AAXX 04004 43577 12465 20203 10250 20228 30094 40096 60002 81202 333 59004 70000 81818
AAXX 04004 43588 12465 33605 10270 20238 30087 40089 60002 82201 333 59006 70000 82818
AAXX 04004 43599 12465 29902 10271 20238 30092 40094 60002 81101 333 59001 70000 81818
AAXX 04004 43533 12460 20906 10270 20232 30095 40098 60002 82202 333 59001 70000 82818
AAXX 04004 43555 12462 30907 10267 20227 30095 40098 60002 82201 333 59003 70000 82818
AAXX 04004 43577 12465 20203 10250 20228 30094 40096 60002 81202 333 59004 70000 81818
AAXX 04004 43588 12465 33605 10270 20238 30087 40089 60002 82201 333 59006 70000 82818
AAXX 04004 43599 12465 29902 10271 20238 30092 40094 60002 81101 333 59001 70000 81818
AAXX 04001 89061 379// 02901 10014 21002 39924 49930 57004 77177 333 10032 20010 91001 91103
AAXX 04004 91413 32469 70912 10308 20250 30100 40125 51007 81138 333 20267 56299 59004 555 90400
AAXX 04004 91930 36/// ///// 10309 20228 333 20222
AAXX 04004 91943 36/// /1103 10282 20200 30131 40133 58015 333 59006
AAXX 04004 70026 NIL
AAXX 04004 70133 NIL
AAXX 04004 70174 NIL
AAXX 04004 70200 NIL
AAXX 04004 70219 NIL
AAXX 04004 70231 NIL
AAXX 04004 70261 NIL
AAXX 04004 70267 NIL
AAXX 04004 70271 NIL
AAXX 04004 70273 NIL
AAXX 04004 70308 NIL
AAXX 04004 70316 NIL
AAXX 04004 70326 NIL
AAXX 04004 70340 NIL
AAXX 04004 70350 NIL
AAXX 04004 70361 NIL
AAXX 04004 70381 NIL
AAXX 04004 70398 NIL
AAXX 04004 70414 NIL
AAXX 04004 68032 42960 10806 10262 20172 48493 57009 81080
AAXX 04004 68040 42960 00000 10243 20159 48493 57007
AAXX 04004 68240 42960 01702 10217 20161 48491 56011
AAXX 04004 68328 42960 02403 10223 20088 48495 58006
BBXX 42362 04001 99278 70907 46/// /0405 10128 20017 40322 56003 90000
BBXX 42363 04001 99282 70892 46/// /0307 10117 21006 40315 58007 90000 333 91207
BBXX 42364 04001 99291 70881 46/// /3413 10100 21006 40319 54000 90000
BBXX 41041 04001 99142 70460 46/// /0809 10249 20203 40177 51017 92350 22200 00262 11106 20705 3//// 41104 70032 333 91212 555 11101 22107 32313 40814 62349 079095 083096 085107 083117 070110 064107 80813 92312
BBXX 46001 04001 99563 71480 46/// /0312 10030 49829 56019 92350 22200 00041 11108 20907 300// 41104 70039 333 91214 555 11128 22136 32300 40416 62349 032120 033124 035125 039122 040129 042128
AAXX 04004 03008 16/// /3022 10058 21008 39784 49853 51047 60001 92350 333 90710 91142 91035
AAXX 04004 03010 46/// /3130 10052 20016 49909 51044 333 90710 91144
AAXX 04004 03014 46/// /3218 10012 21039 49856 51042 92350 333 8//// 90710 91132
AAXX 04004 03031 17581 /2920 10022 21010 39638 49965 52046 60041 781// 92350 333 55/// 20083 85/26 85/50 90710 91136 91036
AAXX 04004 03034 17680 /3016 10049 20005 39960 49973 53051 69941 723// 92350 333 82/37 85/50 90710 91135 91029
AAXX 04004 03037 17680 /3212 10045 20022 39974 49996 51053 60021 723// 92350 333 81/33 84/50 90710 91131
AAXX 04004 03039 46/// /3138 11018 21047 92350 333 90710 91148
AAXX 04004 03041 46/// /3019 11044 21044 92350 333 90710 91133 91033
AAXX 04004 03044 17563 /3013 10029 20003 39842 49942 53048 69921 741// 92350 333 55/// 20069 82/28 83/65 90710 91134 91023
AAXX 04004 03047 17315 /2709 10014 20000 39697 40001 53053 60061 763// 92350 333 55/// 20084 84/08 83/18
AAXX 04004 03062 17584 /2717 10033 20001 39937 49942 51045 60011 723// 92350 333 55/// 20042 81/23 84/59 90710 91131
AAXX 04004 03065 46/// ///// 11052 21058 92350 333 91000
AAXX 04004 03068 11580 72718 10036 20010 39930 49939 51046 60011 72582 83231 92350 333 83828 85364 87068 90710 91137
AAXX 04004 03080 17783 /2718 10033 21010 39776 49946 51050 69901 721// 92350 333 81/50 90710 91134
AAXX 04004 03088 15984 /2819 10035 21013 39776 49939 51053 69901 92350 333 55/// 20041 8//99 90710 91134
AAXX 04004 03094 17458 /2835 10053 20019 39909 49914 51052 60001 704// 92350 333 82/18 83/62 90710 91146 91046
AAXX 04004 03105 17661 /2925 10064 20025 30019 40036 51048 60031 723// 92350 333 81/40 90710 91138
AAXX 04004 03132 17665 /2718 10052 20030 30034 40047 51060 60021 761// 92350 333 82/35 84/43 90710 91133
AAXX 04004 03144 17984 /2308 10026 20001 39941 49984 51049 69901 721// 92350 333 55/// 20131 8//99
AAXX 04004 03153 17582 /2819 10028 20009 39890 40029 51058 69961 723// 92350 333 55/// 20153 81/22 90710 91135
AAXX 04004 03155 16481 /2619 10024 21001 39710 40009 51058 60011 92350 333 81/17 83/30 90710 91130 91030
AAXX 04004 03158 15984 /2720 10035 20002 39842 49978 5//// 69901 92350 333 55/// 20207 82/62 90710 91130 91030
AAXX 04004 03210 16564 /2931 10051 20017 39883 40035 51060 69961 92350 333 81/26 84/32 90710 91144 91044
AAXX 04004 03212 15581 /2710 10047 20019 39939 40038 52062 69921 92350 333 82/26 83/47
AAXX 04004 03214 17565 /3124 10042 20027 30031 40049 51073 60031 761// 92350 333 84/20 85/50 90710 91145 91035
AAXX 04004 03220 16786 ///// 10036 20016 39988 40023 53060 60001 92350 333 81/56
AAXX 04004 03225 16979 /2918 10035 21008 39720 40027 53055 60051 92350 333 55/// 20078 81/65 90710 91133 91031
AAXX 04004 03226 15584 /3214 10029 20002 39746 40023 53056 69921 92350 333 84/22 85/33 90710 91128
AAXX 04004 03230 16984 /3211 10025 20002 39737 49995 53048 60001 92350 333 81/66
AAXX 04004 03238 15984 /2817 10024 20007 39817 49991 53048 69981 92350 333 8//99 90710 91130
AAXX 04004 03261 11580 12813 10040 20007 39970 40011 53043 60021 70181 81802 92350 333 81828
AAXX 04004 03265 15984 /2611 10046 20009 39979 40010 52043 60011 92350 333 81/68
AAXX 04004 03266 16783 /2812 10046 20005 39992 40009 53037 60021 92350 333 81/50
AAXX 04004 03275 15579 /2719 10031 20000 39797 49990 53042 60001 92350 333 81/28 90710 91129 91029
AAXX 04004 03281 16/// /2824 10026 20004 60001 92350 333 90710 91133
AAXX 04004 03903 16971 /2912 10063 20010 30038 40095 51045 69961 92350 333 55/// 20150 82/60
AAXX 04004 03904 16974 /2509 10050 20012 30024 40084 51047 69941 92350 333 8//99
AAXX 04004 03907 17662 /2821 10063 20023 30058 40065 51046 60021 781// 92350 333 55/// 20091 81/37 83/50 90710 91135
AAXX 04004 03911 16464 /2920 10035 20009 39802 40078 52048 60031 92350 333 81/19 90710 91131 91030
AAXX 04004 03915 16775 /2709 10043 20027 39986 40065 51049 60011 92350 333 82/56
AAXX 04004 03916 16984 /3210 10041 20010 39863 40054 51050 60031 92350 333 55/// 20099 82/61 90710 91130 91020
AAXX 04004 03923 17773 /2912 10036 20003 39886 40084 51044 60011 723// 92350 333 81/50
AAXX 04004 03301 16571 /2817 10055 20028 30023 40097 51054 69921 92350 333 82/26 90710 91131
AAXX 04004 03313 16572 /2919 10056 20019 39990 40084 51068 69981 92350 333 84/23 83/57 90710 91139 91031
AAXX 04004 03316 15664 /2833 10067 20034 30054 40065 51077 60011 92350 333 81/37 90710 91148
AAXX 04004 03318 16/// /3025 10063 20020 60011 92350 333 90710 91139 91037
AAXX 04004 03321 16675 /2917 10062 20020 30063 40076 51063 69981 92350 333 55/// 20182 84/33 90710 91135 91035
AAXX 04004 03330 17450 /3117 10031 20014 39697 40061 53052 60031 782// 92350 333 85/15 90710 91137 91029
AAXX 04004 03344 17475 /2816 10031 20012 39712 40031 53053 60041 723// 92350 333 81/11 85/37 90710 91131 91031
AAXX 04004 03346 16/// /2930 10030 20015 60041 92350 333 90710 91146 91045
AAXX 04004 03348 17671 /2921 10054 20018 39951 40059 53063 60021 781// 92350 333 55/// 20139 85/32 85/44 90710 91135 91034
AAXX 04004 03355 15982 /2820 10051 20020 30003 40014 53041 60021 92350 333 55/// 20131 8//99 90710 91130 91030
AAXX 04004 03373 16571 /2923 10049 20019 39949 40019 53025 69921 92350 333 82/28 90710 91133 91033
AAXX 04004 03379 16581 /2817 10051 20019 39958 40035 53030 69921 92350 333 84/26 90710 91143 91028
AAXX 04004 03382 17982 /2614 10040 20025 39988 49996 53026 69921 723// 92350 333 55/// 20110 85/64 90710 91127
AAXX 04004 03385 46578 /2715 10047 20027 39991 40001 53018 92350 333 84/23 86/64 90710 91131
AAXX 04004 03391 11480 72820 10050 20020 30014 40021 53019 69921 72161 86520 92350 333 81618 83635 86656 90710 91137
AAXX 04004 03392 16577 /2625 10049 20029 30010 40014 53007 69921 92350 333 81/22 83/28 90710 91139
AAXX 04004 03405 16673 /2932 10065 20017 30001 40117 51049 60001 92350 333 55/// 20268 81/30 90710 91145
AAXX 04004 03409 16/// /2716 10052 20003 60021 92350 333 55/// 2//// 90710 91129 91027
AAXX 04004 03410 16574 /2716 10035 20001 39658 40096 51062 60011 92350 333 55/// 20116 81/24 86/42 90710 91135 91027
AAXX 04004 03469 17582 /2822 10049 20028 30024 40028 53012 69901 723// 92350 333 55/// 20103 82/21 90710 91145 91032
AAXX 04004 03488 17666 /2426 10054 20010 39985 40011 51008 69901 781// 92350 333 81/33 84/50 90710 91135
AAXX 04004 03503 15666 /3013 10067 20013 30045 40123 53045 60001 92350 333 85/32 86/40 90710 91132 91028
AAXX 04004 03507 17/74 /2904 10038 20009 39750 40126 53036 69981 722// 92350
AAXX 04004 03520 16672 /2819 10057 20005 39978 40099 52042 69961 92350 333 55/// 20192 81/36 83/50 90710 91132 91032
AAXX 04004 03522 17669 /2716 10062 20000 30013 40106 53041 69901 723// 92350 333 81/42 85/50 90710 91133 91028
AAXX 04004 03529 17681 /2818 10056 20004 30050 40093 53034 69901 723// 92350 333 82/39 90710 91130
AAXX 04004 03544 17677 /2615 10046 20013 39944 40076 53033 69981 723// 92350 333 55/// 20097 82/34 90710 91145
AAXX 04004 03560 15771 /2725 10050 20011 39960 40064 53018 60001 92350 333 55/// 20141 82/50 90710 91143
AAXX 04004 03604 16674 /3117 10072 20013 30090 40145 51037 60001 92350 333 81/39 90710 91138 91028
AAXX 04004 03605 16669 /2924 10070 20014 30139 40148 51048 60001 92350 333 81/44 90710 91134
AAXX 04004 03609 16/// /2818 10071 20007 30095 40148 51045 60001 92350 333 90710 91135 91031
AAXX 04004 03628 15677 /2713 10062 20006 30050 40123 53038 69901 92350 333 55/// 20164 81/39 90710 91126
AAXX 04004 03647 169// /2823 10044 20001 39830 40087 53025 60001 92350 333 55/// 20151 8//99 90710 91135 91033
AAXX 04004 03658 16680 /2716 10062 20005 30024 40094 53014 69901 92350 333 82/43 90710 91125
AAXX 04004 03660 15677 /2914 10048 20006 39838 40087 53015 60001 92350 333 81/33 90710 91128 91026
AAXX 04004 03672 16777 /2512 10053 20018 30049 40090 53011 69921 92350 333 81/50 90710 91130
AAXX 04004 03684 15672 /2524 10053 20011 39956 40062 53005 60001 92350 333 83/37 84/46 90710 91133
AAXX 04004 03693 16980 /2516 10067 20020 30071 40073 55000 60001 92350 333 8//99 90710 91128
AAXX 04004 03707 15666 /3027 10084 20018 30149 40156 52040 60001 92350 333 83/36 90710 91138
AAXX 04004 03710 16968 /3022 10033 20012 39715 40142 53030 60011 92350 333 55/// 20160 8//99 90710 91143 91035
AAXX 04004 03743 16981 /2714 10049 20005 39954 40117 53021 60001 92350 333 81/58 90710 91131 91024
AAXX 04004 03749 16980 /2820 10057 20005 30007 40119 53020 60001 92350 333 81/58 90710 91131
AAXX 04004 03761 12670 72419 10058 20012 39960 40104 53014 60001 875// 92350 333 55/// 20112 82632 87645 90710 91129
AAXX 04004 03768 16661 /2616 10064 20016 30021 40101 53013 60001 92350 333 81/38 84/43 90710 91126 91026
AAXX 04004 03769 15971 /2512 10061 20019 30019 40101 53007 6///1 92350 333 55/// 20074 8//99 91023
AAXX 04004 03770 16/// ///// 10061 20029 60001 92350
AAXX 04004 03781 15969 /2521 10056 20011 39886 40094 53005 60001 92350 333 55/// 20092 81/75 90710 91130
AAXX 04004 03797 15967 /2418 10055 20011 30019 40080 50001 60001 92350 333 55/// 20107 8//99 90710 91126
AAXX 04004 03823 15665 /3120 10065 20017 39925 40170 53030 69901 92350 333 55/// 20236 83/33 90710 91133 91030
AAXX 04004 03839 16/// ///// 10069 20027 60001 92350 333 55/// 20188
AAXX 04004 03857 15962 /3134 10090 20033 30066 40130 53018 60001 92350 333 8//99 90710 91153 91044
AAXX 04004 03862 17877 /2915 10060 20017 30120 40132 53021 69901 723// 92350 333 55/// 20175 82/57 90710 91135
AAXX 04004 03866 16/// /2833 10080 20025 30100 40125 53015 60001 92350 333 90710 91145 91045
AAXX 04004 03872 15973 /2824 10071 20023 30111 40116 53012 60001 92350 333 55/// 20148 8//99 90710 91134 91034
AAXX 04004 03876 16/// /2715 10070 20024 30110 40112 53009 60001 92350
AAXX 04004 03895 41675 62925 10090 20042 40173 51019 72582 858/1 333 84830 90710 91143
AAXX 04004 78526 NIL
AAXX 04004 78543 NIL
BBXX WZP8164 04004 99449 70868 41/98 31837 11022 2//// 40169 55000 70211 8//// 22253 0//// 20504 3//// 4//// 5//// 6//// 8//// ICE /////
BBXX KAOU 04004 99070 10968 43/// /1214 10274 20240 40096 5//// 7//// 8//// 222// 04286 2//// 3//// 4//// 5//// 6//// 8//// ICE /////
BBXX NWS0029 04004 99415 70707 43/// /3514 11039 21147 40134 5//// 7//// 8//// 222// 04065 2//// 3//// 4//// 5//// 6//// 8//// ICE /////
BBXX NWS0003 04004 99539 71665 43/// /3600 11023 21085 40020 5//// 7//// 8//// 222// 0//// 2//// 3//// 4//// 5//// 6//// 8//// ICE /////
BBXX WZJC 04003 99263 70886 41398 53519 10156 2009/ 40290 52010 70222 851// 22273 00233 20402 336// 40709 5//// 6//// 80117 ICE /////
BBXX NWS0020 04004 99261 70801 43/// /3504 10097 21094 40278 5//// 7//// 8//// 222// 04203 2//// 3//// 4//// 5//// 6//// 8//// ICE /////
BBXX WDE3569 04004 99475 70876 43/// 52026 11055 2//// 40095 5//// 7//// 8//// 22263 00050 20403 3//// 4//// 5//// 6//// 8//// ICE /////
BBXX 3EMK6 04004 99266 70925 41998 00805 10170 20119 40340 53010 7//00 80000 22200 00230 20502 304// 40602 5//// 6//// 80140 ICE /////
BBXX WXJ63 04003 99611 71464 41/98 70808 11067 21117 49913 56/// 702// 8//// 222// 00044 2//// 3//// 4//// 5//// 6//// 8//// ICE /////
BBXX C6XP7 04003 99180 70633 41398 41112 10260 20246 40170 52/// 7//10 8210/ 22262 00260 20202 328// 4//// 5//// 6//// 80250 ICE
BBXX C6VG7 04004 99199 70740 414// 63628 10240 2//// 40180 5/010 7//11 86/7/ 22254 0//// 20502 3//// 40502 50502 6//// 8//// ICE /////
AAXX 04004 78255 42559 10104 10166 20106 30086 40236 52020 81500 333 10226 81820
AAXX 04004 78317 NIL
AAXX 04004 78318 NIL
AAXX 04004 78325 NIL
AAXX 04004 78333 NIL
AAXX 04004 78338 NIL
AAXX 04004 78348 NIL
AAXX 04004 78349 NIL
AAXX 04004 78353 NIL
AAXX 04004 78360 NIL
AAXX 04004 78367 NIL
AAXX 04004 78369 NIL
BBXX 51003 04001 99193 71606 46/// /0707 10247 40182 58027 92350 22200 00251 11503 20502 3//// 41503 70017 333 91208 555 11076 22080 32307 40709 62349 070070 070070 074071 078077 079077 070072
BBXX 44039 04001 99411 70727 46/// /3211 11048 21111 40179 53035 90000 22200 00082 10402 70010 333 91215
BBXX 44060 04001 99413 70721 46/// ///09 11052 40160 53038 90000 22200 00086 333 91211 555 11098 22098
BBXX 44022 04001 99409 70737 46/// ///09 11047 21144 40190 53041 90000 22200 00063 333 91214 555 11093 22098
BBXX 46053 04001 99342 71198 46/// /2405 10143 40215 56004 92350 22200 00149 11605 20401 327// 41605 70024 333 91206 555 11047 22049 32309 42506 62349 244045 245044 248045 246047 243048 241042
BBXX 46042 04001 99368 71224 46/// /3408 10123 40242 56009 92350 22200 00125 11507 20502 330// 41506 70034 333 91210 555 11089 22094 32329 43411 62349 343082 342082 340084 334082 334080 336077
AAXX 04001 26554 41356 81704 10002 21004 39911 40076 57029 71011 886// 555 1/000
AAXX 04001 26666 41358 52302 10006 21005 39890 40108 58012 71022 85600 333 85708 555 1/101
AAXX 04001 26850 41456 82002 10004 21005 39834 40109 57028 71011 8553/ 333 85710 555 1/101
AAXX 04001 26863 41325 82303 10003 21003 39885 40125 58014 71022 886// 333 88708 555 1/000
AAXX 04001 26941 42960 72004 10012 20001 39865 40104 57038 87070 555 14000
AAXX 04001 26951 42960 72005 10005 20002 39923 40124 57029 80001 555 14101
AAXX 04001 33008 42962 82104 10037 20001 39919 40098 57042 8807/ 555 11001
AAXX 04001 33019 41936 71202 10006 20001 39953 40131 57035 71022 8705/ 555 14100
AAXX 04001 33036 41/02 91702 10009 20009 39926 40161 58014 74741 333 89/01 555 11000
AAXX 04001 33041 41257 82402 10020 20012 30003 40161 58004 71022 886// 333 88705 555 1/000
AAXX 04004 91165 NIL
AAXX 04004 91182 NIL
AAXX 04004 91190 NIL
AAXX 04004 91212 NIL
AAXX 04004 91217 NIL
AAXX 04004 91285 NIL
AAXX 04004 91317 NIL
AAXX 04004 91334 11474 80607 10285 20246 30120 40123 53019 60024 70282 83371 333 20250 56199 58023 70018 555 90400
AAXX 04004 91348 NIL
AAXX 04004 91356 NIL
AAXX 04004 91366 NIL
AAXX 04004 91369 NIL
AAXX 04004 91371 NIL
AAXX 04004 91376 32480 31306 10298 20246 30113 40117 50000 82101 333 20270 563/9 58019 555 90400
AAXX 04004 91408 32474 60811 10297 20255 30078 40116 52017 83271 333 20256 56999 58010 555 90400
AAXX 04004 91413 NIL
AAXX 04004 91425 NIL
AAXX 04004 91434 NIL
AAXX 04004 91765 NIL
AAXX 04004 91222 NIL
AAXX 04004 91245 NIL
AAXX 04004 91323 NIL
AAXX 04004 91339 NIL
AAXX 04004 91343 NIL
AAXX 04004 91353 NIL
AAXX 04004 91442 NIL
AAXX 04001 06269 17568 72308 10054 20017 30043 40037 51011 60021 70398 8//// 333 82/33 91010 91122 91216
AAXX 04004 91413 32469 70912 10308 20250 30100 40125 51007 81138 333 20267 56299 59004 555 90400
BBXX DAJT 04004 99246 50451 41598 40408 10235 20199 40070 52010 70300 8/4// 22264 04230 80210
BBXX DGOQ 04004 99544 10113 41/96 /2441 10053 20023 49930 54000 75355 22200 04054 80041
BBXX VCXF 04004 99464 70484 41/90 91943 10079 2008/ 40062 52004 74565 89/// 22200 02027 20607 320// 40805 80079
AAXX 04004 93004 16/// /0508 10201 20150 40197 57008 60004 333 20148 70000
AAXX 04004 93023 16/// /0000 10214 20182 40212 57004 60004 333 20178 70000
AAXX 04004 93069 16/// /0904 10215 20163 40212 57005 6///4 333 20183
AAXX 04004 93110 17498 /0211 10212 20176 40202 57009 60024 333 20162 70022
AAXX 04004 93186 17598 /0109 10217 20168 40199 57015 60044 333 20164 70036
AAXX 04004 93196 16/// /2910 10187 20162 40206 57009 60004 333 20142 70000
AAXX 04004 93245 16/98 /2306 10192 20131 40189 57017 60084 333 20140 70078
AAXX 04004 93292 17998 /3507 10238 20148 40182 57020 60004 333 20137 70000
AAXX 04004 93309 17597 /2811 10193 20148 40202 57003 60004 333 20162 70000
AAXX 04004 93334 16/// /2908 10173 20110 39245 57008 60044 333 20112 70042
AAXX 04004 93339 16/// /2713 10175 20110 39251 57007 60034 333 20107 70034
AAXX 04004 93373 17798 /0504 10193 20157 40179 57011 69984 333 20124 70008
AAXX 04004 93404 17598 /2709 10213 20139 40191 57010 60004 333 20135 70000
AAXX 04004 93420 17/98 /3610 10191 20131 40194 57005 60004 333 20127 70000
AAXX 04004 93439 17597 /3620 10194 20123 40180 57007 60004 333 20144 70000
AAXX 04004 93498 16/// /3206 10234 20154 40166 57012 60004 333 20120 70000
AAXX 04004 93515 17698 /2611 10203 20128 40195 57005 60004 333 20115 70000
AAXX 04004 93527 16/// /2609 10217 20149 40179 57010 60004 333 20133 70000
AAXX 04004 93546 17/98 /0211 10216 20171 40173 57012 60004 333 20130 70000
AAXX 04004 93597 16/// /1121 10169 20143 40162 57010 60004 333 20136 70000
AAXX 04004 93615 17/97 /3306 10193 20135 40195 57005 69944 333 20137 70004
AAXX 04004 93678 16/98 /0504 10180 20125 40147 57018 60004 333 20111 70000
AAXX 04004 93709 16/// /2709 10174 20130 40196 57009 60004 333 20103 70000
AAXX 04004 93773 17/98 /1006 10218 20151 40125 57019 60004 333 20071 70000
AAXX 04004 93781 17/98 /0614 10225 20136 40136 57022 60004 333 20089 70000
AAXX 04004 93800 NIL
AAXX 04004 93805 NIL
AAXX 04004 93831 17/98 /2510 10234 20047 40120 57034 60004 333 20146 70000
AAXX 04004 93845 17/98 /3510 10221 20078 40097 57038 60004 333 20116 70000
AAXX 04004 93891 17998 /3503 10197 20123 40120 57024 60004 333 20086 70000
AAXX 04004 93909 16/// /3349 10163 20114 40072 57019 60024 333 70018
AAXX 04004 93929 16/// /3017 10113 20112 49987 57021 60144 333 70136
AAXX 04004 93947 16/// /1014 10079 20060 40013 57030 60064 333 70064
AAXX 04004 93987 16/// /2719 10156 20098 40159 57014 60004 333 20098 70000
AAXX 04004 93994 NIL
BBXX TFBKF 04004 99635 70202 46/// ///// 22200 10703 70014
BBXX TFDRN 04004 99658 70212 46/// ///// 22200 10907 70034
BBXX TFGRS 04004 99663 70182 46/// ///// 22200 10707 70034
BBXX TFGRV 04004 99638 70225 46/// ///// 22200 10804 70019
BBXX TFGSK 04004 99641 70229 46/// ///// 22200 10704 70018
BBXX TFHFN 04004 99642 70152 46/// ///// 22200 10804 70018
BBXX TFKGR 04004 99657 70136 46/// ///// 22200 10604 70021
BBXX TFSRT 04004 99633 70203 46/// ///// 22200 10806 70028
BBXX TFSTD 04004 99664 70234 46/// ///// 22200 10807 70036
BBXX A8FB9 04000 99046 70053 41997 0//// 10280 20246 40140 58010 71000 80000 22224 04280 2//// 80255
BBXX BATFR55 04004 99202 30572 46/// /1014 10264 20222 40113 22222 00279
BBXX DBLK 04001 99361 30160 41597 /2712 10181 20121 40132 57010 7//// 22212 04200
BBXX BATFR19 04004 99067 30055 46/// /1811 10237 20194 40133 58013 222// 00257
BBXX A8HY8 04004 99085 50346 41597 31205 10260 2023/ 40140 53010 7//00 802// 22253 00250 20301 3//// 4//// 5//// 6//// 80240 ICE /////
BBXX BATFR05 04004 99194 70181 46/// /0313 10209 20145 40198 51016 22282 00214
BBXX MIBR 04003 99281 30445 41498 51019 10235 20188 40151 54000 70211 852// 22254 00259 20301 3//// 4//// 5//// 80205
BBXX C6YM6 04004 99185 50371 41498 40119 10260 2023/ 40130 54000 7//22 84/// 22214 00270 2//// 3//// 4//// 5//// 6//// 80240 ICE /////
BBXX A8VL7 04003 99002 50422 41398 50511 10255 20234 40110 51010 70311 8426/ 22274 04270 20601 305// 40303 80240
BBXX 32012 04001 99197 50856 46/// ///// 1//// 92350 22200 11202 70012
BBXX DBUT 04001 99317 50508 41598 42012 10225 20172 40182 52015 70311 8346/ 22255 20504 319// 40606 5//// 80190
BBXX WCX8882 04004 99462 11797 41498 31309 10050 2130/ 40099 58020 70211 831// 22261 00060 20101 30329 41305 50804 6//// 81020 ICE /////
BBXX A8AJ4 04004 99409 11396 41098 82818 10020 21018 40070 57010 70372 86157 22213 04160 20603 335// 40904 5//// 6//// 80005 ICE /////
BBXX C6SI6 04004 99514 11701 46/// /0816 11027 21098 40123 58015 7//// 8//// 22223 0//// 2////
BBXX WCX8884 04004 99293 11258 41095 33335 10100 2008/ 40260 51005 70111 839// 22274 00068 20408 3//// 40408 5//// 6//// 80090 ICE /////
BBXX 46070 04001 99551 11753 46/// /3408 11039 21109 40087 58009 92350 22200 00030 10806 20604 3//// 40805 70031 333 91209 555 11079 22082 32315 43312 62349 335075 327074 334088 331092 318087 319093 83410 92314
BBXX UFTA 04001 99845 71193 42997 22905 11320 21352 40221 57005 80001 333 21335
BBXX 46239 04001 99363 71221 46/// ///// 1//// 92351 22200 00123 11406 20903 328// 41406 70032
BBXX 51205 04001 99210 71564 46/// ///// 1//// 92348 22200 00246 11303 20802 335// 41302 70016
BBXX 46238 04001 99334 71195 46/// ///// 1//// 92350 22200 00140 11506 20902 329// 41505 70029
BBXX VOXS 04004 99467 70480 41/94 91934 10080 2008/ 40099 52007 76144 89/// 22200 04016 20707 320// 40806 80078
BBXX 9HA2583 04004 99310 70755 41698 63016 1//// 2//// 40200 54/// 78166 84154 22214 04226 2//// 3//// 4//// 5//// 6//// 8//// ICE /////
BBXX DFKP2 04004 99252 71424 41598 61803 10205 20132 40220 57010 70222 82530 22224 00220 20100 331// 40802 80160
BBXX 3FQS8 04004 99545 71751 41298 70130 00/// 11018 2102/ 49990 56015 70222 88653 22264 00040 20604 335// 40503 5//// 6//// 81001 /////
BBXX SHIP 04004 99217 71488 41598 31110 10255 20202 40205 57005 70211 81448 22224 04232 20904 335// 41003 80220
BBXX WDD3826 04004 99330 70582 41398 61737 10200 2019/ 40145 57027 7//22 867// 22264 00180 20404 320// 40707 5//// 6//// 80190 ICE /////
BBXX 9HXC9 04004 99177 70630 41598 21119 10255 20180 40150 54000 7//00 82700 22242 00273 2//// 3//// 4//// 5//// 6//// 80205 ICE /////
BBXX 46224 04001 99332 71175 46/// ///// 1//// 92336 22200 00157 11701 21001 327// 41701 70007
BBXX 46236 04001 99368 71219 46/// ///// 1//// 92350 22200 00118 11506 21003 327// 41505 70029
BBXX 46215 04001 99352 71209 46/// ///// 1//// 92338 22200 00138 11505 21003 325// 41505 70027
BBXX 46229 04001 99438 71246 46/// ///// 1//// 92351 22200 00100 11306 21004 327// 41304 70029
BBXX 46214 04001 99379 71235 46/// ///// 1//// 92350 22200 00117 11306 21004 327// 41305 70032
BBXX 46225 04001 99329 71174 46/// ///// 1//// 92344 22200 00155 11702 21001 327// 41702 70009
BBXX 46232 04001 99325 71174 46/// ///// 1//// 92338 22200 00150 11703 21001 328// 41702 70013
BBXX 46240 04001 99366 71219 46/// ///// 1//// 92342 22200 00119 11203 21001 335// 41203 70015
BBXX 41110 04001 99341 70777 46/// ///// 1//// 92351 22200 00128 10301 20301 70007
BBXX 41113 04001 99284 70805 46/// ///// 1//// 92351 22200 00195 11101 21001 309// 41101 70006
BBXX 44099 04001 99369 70757 46/// ///// 1//// 92352 22200 00107 10504 20504 70021
BBXX 44008 04001 99405 70692 46/// /3512 10011 21037 40094 52029 92350 22200 00102 10604 20604 312// 40901 70019 333 91214 555 11128 22134 32333 43615 62349 346122 353116 357117 350117 351117 349114
BBXX 44172 04001 99445 70634 46/// ///// 1//// 90001 22200 00052 11004 21003 320// 41101 70019
BBXX 44097 04001 99410 70711 46/// ///// 1//// 90002 22200 00109 10503 20503 70016
BBXX 46083 04001 99582 71380 46/// /1017 10027 20016 49819 56035 92350 22200 00060 10606 20605 300// 41002 70029 333 91220 555 11177 22190 32326 41121 62349 103164 106163 108168 106162 107152 108159 81118 92326
BBXX 46061 04001 99602 71468 46/// /3311 10005 49890 56041 92350 22200 00047 11003 20302 300// 41003 70015 333 91213 555 11116 22121 32318 43314 62349 333110 330118 329116 330114 335104 346093
BBXX 51101 04001 99243 71621 46/// /0106 10224 20151 40205 58019 92350 22200 00237 11611 20501 333// 41611 70056 333 91207 555 11062 22065 32312 43508 62349 013058 010055 012059 009055 013054 013054
BBXX 46089 04001 99459 71258 46/// /1714 10106 20095 40176 56016 92350 22200 00092 11009 20806 322// 41007 70045 333 91217 555 11147 22158 32340 41717 62349 170136 172137 173133 173133 169138 170131
BBXX 44011 04001 99411 70666 46/// /3508 10038 21030 40062 51018 92350 22200 00090 10704 20703 3//// 40902 70020 333 91209 555 11081 22084 32338 41710 62349 350077 353081 352083 354078 355076 354073
BBXX 41009 04001 99285 70802 46/// /3208 10093 21015 40273 52010 92350 22200 00214 11004 20602 300// 41004 70022 333 91210 555 11080 22083
BBXX 42057 04001 99168 70815 46/// /0114 10254 20197 40192 53010 92350 22200 00273 10808 20808 70038 333 91216 555 11138 22146 32322 40218 62349 013139 010136 011135 010142 011142 009142 80216 92335
BBXX 41046 04001 99238 70683 46/// /2907 10247 20211 40167 53009 92350 22200 00253 11003 20402 300// 41002 70016 333 91209 555 11073 22077 32253 42710 62349 292070 296070 292070 279065 284071 279077 82808 92258
BBXX VOLG 04004 99468 70528 46/// /0810 10018 20004 40060 58011 7//// 8//// 22243 0//// 2////
BBXX CGUM 04004 99449 70616 46/// /3315 10018 21000 40061 53020 7//// 8//// 22252 0//// 2////
BBXX VOKJ 04004 99455 70735 46/// /2709 11163 21237 40210 51024 7//// 8//// 22200 0//// 2////
BBXX C6SD9 04004 99105 70524 41598 50822 10270 20241 40152 51010 70211 8343/ 22273 04280 20905 308// 41105 5//// 80250
BBXX A8ID9 04004 99283 71227 41598 63612 10165 20141 40240 54000 70311 85364 22254 04170 2//// 327// 40804 5//// 80150
BBXX HZRX 04003 99330 70788 41997 00120 /// 10050 20010 40282 55010 70100 82100 22213 10020 20304 30101 40202 5//// 6//// 86030 ///// /////
BBXX 3EMK6 04004 99266 70925 41998 00805 10170 20119 40340 53010 7//00 80000 22200 00230 20502 304// 40602 5//// 6//// 80140 ICE /////
BBXX C6XP7 04003 99180 70633 41398 41112 10260 20246 40170 52/// 7//10 8210/ 22262 00260 20202 328// 4//// 5//// 6//// 80250 ICE ////
BBXX VOKF 04004 99490 70669 46/// /2710 11113 21158 40089 53025 7//// 8//// 22200 0//// 2////
BBXX CG2958 04004 99507 71275 46/// /1310 10072 20069 40094 55004 7//// 8//// 22200 0//// 2////
BBXX CGCC 04004 99463 70725 46/// /3303 11170 21231 40203 51023 7//// 8//// 22200 0//// 2////
BBXX VRYO3 04004 99456 70735 46/// /0000 11150 21225 40207 51027 7//// 8//// 22200 0//// 2////
BBXX CGTF 04004 99476 70527 46/// /3403 10013 20003 40069 58007 7//// 8//// 22200 0//// 2////
BBXX CGHL 04004 99476 70527 46/// /0704 10015 20006 40068 58008 7//// 8//// 22200 0//// 2////
BBXX VCWL 04004 99468 70712 46/// /2604 11174 21230 40186 51022 7//// 8//// 22200 0//// 2////
BBXX VAAP 04004 99446 70635 46/// /3212 11004 21050 40052 53018 7//// 8//// 22200 0//// 2////
BBXX CGSB 04004 99483 70702 46/// /3109 11169 21216 40164 55000 7//// 8//// 22231 00017 2////
BBXX CGDX 04004 99468 70712 46/// /2514 11171 21227 40183 51022 7//// 8//// 22200 0//// 2////
BBXX VCBW 04004 99456 70735 46/// /2808 11163 21232 40205 51027 7//// 8//// 22200 0//// 2////
BBXX VXKF 04004 99462 70602 46/// /3407 10009 21021 40056 51020 7//// 8//// 22200 0//// 2////
BBXX CGDG 04004 99447 70636 46/// /3312 11006 21012 40063 53019 7//// 8//// 22200 0//// 2////
BBXX CGDT 04004 99463 70725 46/// /3303 11165 21224 40202 51022 7//// 8//// 22200 0//// 2////
BBXX VCLM 04004 99468 70712 46/// /2408 11172 21223 40178 51021 7//// 8//// 22200 0//// 2////
BBXX CGBY 04004 99487 71235 46/// /1406 10096 20074 40204 55007 7//// 8//// 22200 0//// 2////
BBXX CGBN 04004 99447 70636 46/// /3210 11002 21048 40061 53018 7//// 8//// 22200 0//// 2////
BBXX VCRG 04004 99474 70619 46/// /2813 11043 21083 40074 51007 7//// 8//// 22271 0//// 2////
BBXX VOPP 04004 99456 70735 46/// /2606 11170 21235 4//// 5//// 7//// 8//// 22200 0//// 2////
BBXX CGJV 04004 99473 70635 46/// /3022 11080 21115 40073 51010 7//// 8//// 22241 00011 2////
BBXX 3FZK3 04004 99489 71234 46/// /2116 10092 20091 40207 55001 7//// 8//// 22221 0//// 2////
BBXX 46086 04001 99325 71180 46/// /3104 10157 40212 55000 92350 22200 00154 11704 329// 41704 70018 333 91204 555 11041 22045 32250 43005 62349 307038 311034 313032 308035 307034 316033
BBXX 41036 04001 99342 70770 46/// ///// 10039 21057 40219 53035 92350 22200 00198 10604 70021
BBXX 42002 04001 99258 70937 46/// /0703 10176 20089 40312 54000 92350 22200 00243 10703 20401 307// 40702 70013 333 91205 555 11025 22026 32305 40705 62349 072024 073021 057031 059029 064026 050031
BBXX 41043 04001 99211 70650 46/// /1705 10253 20227 40180 53014 92350 22200 00260 11004 20502 300// 41004 70022 333 91206 555 11057 22060 32339 41607 62349 166055 164056 163057 158054 165053 164053 81706 92340
BBXX 46105 04001 99590 71522 46/// ///// 1//// 92350 22200 11305 70023
BBXX 46025 04001 99337 71191 46/// /2701 10156 20141 40208 56004 92350 22200 00152 11603 20401 327// 41603 70017 333 91202 555 11013 22016 32250 42802 62349 266012 266011 262009 269007 264008 277012
BBXX 46054 04001 99342 71204 46/// /3010 10133 40212 56009 92350 22200 00128 11507 20403 300// 41506 70034 333 91212 555 11112 22120 32325 43113 62349 303104 305101 304101 305099 305099 304096
BBXX 46028 04001 99357 71219 46/// /3308 10110 40234 55004 92350 22200 00128 11407 20502 329// 41407 70036 333 91210 555 11086 22090 32341 43310 62349 330082 324086 324083 319080 318079 321078
BBXX 46087 04001 99485 71247 46/// /1510 10111 20094 40186 55000 92350 22200 00083 11105 20402 323// 41105 70027 333 91215 555 11105 22117 32302 41617 62349 152097 155102 155109 156113 160122 161120
BBXX 46029 04001 99461 71245 46/// /1713 10106 20085 40208 56015 92350 22200 00093 11307 20905 329// 41305 70036 333 91215 555 11136 22147 32259 41816 62349 169126 169122 169129 168130 170123 168129
BBXX 46013 04001 99382 71233 46/// /3204 10089 40263 56006 92350 22200 00112 11406 20401 3//// 41406 70028 333 91205 555 11038 22040 32313 43105 62349 322036 319035 327037 325037 325038 325040
BBXX 46012 04001 99374 71229 46/// /3307 10105 40255 57003 92350 22200 00120 11406 20301 329// 41406 70032 333 91209 555 11074 22078 32253 43310 62349 330071 327074 326071 328072 326077 326079
BBXX 44025 04001 99402 70732 46/// /3212 11024 21099 40165 53037 92350 22200 00096 10503 20503 70016 333 91215 555 11129 22135 32311 43216 62349 322121 320119 325113 321117 322116 326108
BBXX 44014 04001 99366 70748 46/// ///17 1//// 40181 51038 92350 22200 00157 10808 20808 312// 41401 70038 333 91221 555 11168 22168
BBXX 44009 04001 99385 70747 46/// /3413 11005 40197 52044 92350 22200 00099 10605 20605 70024 333 91217 555 11141 22148 32328 43518 62349 341131 335128 340125 340124 335129 337140
BBXX 41008 04001 99314 70809 46/// /3009 10052 21070 40274 53015 92350 22200 00150 333 91212 555 11099 22103 32256 42913 62349 305092 306089 301088 295093 303093 295092
BBXX 41004 04001 99325 70791 46/// /3011 10055 21052 92350 22200 00196 10503 20503 70017 333 91215 555 11112 22117 32349 43015 62349 298110 298104 296102 294106 301101 304108
BBXX 44027 04001 99443 70673 46/// /3310 11064 21120 40103 53028 92350 22200 00076 10403 20403 3//// 40902 70017 333 91213 555 11104 22108 32340 43313 62349 327100 331099 332102 326097 335103 329102
BBXX 41013 04001 99334 70777 46/// /3012 10043 21058 40231 53028 92350 22200 00145 10604 20604 70021 333 91215 555 11126 22132 32341 43118 62349 303123 303129 297116 293118 300124 305131
BBXX 44065 04001 99404 70737 46/// /3213 11027 21106 40176 53036 92350 22200 00088 10503 20503 70014 333 91216 555 11135 22142 32320 43516 62349 316128 330118 335126 334130 321121 321122 83514 92320
BBXX VOFG 04004 99456 70614 46/// /3405 10002 21032 40066 51023 7//// 8//// 22200 0//// 2////
BBXX VCSZ 04004 99517 70559 46/// /2433 11014 21026 49985 51009 7//// 8//// 22262 0//// 2////
BBXX CZ9742 04004 99506 70969 46/// /2405 11041 21086 4//// 5//// 7//// 8//// 22200 0//// 2////
BBXX CGBR 04004 99531 71291 46/// /2325 10105 20098 40015 51010 7//// 8//// 22241 00072 2////
BBXX CGDR 04004 99535 71313 46/// /1720 10091 20090 49968 51012 7//// 8//// 22212 00105 2////
BBXX 46026 04001 99378 71228 46/// /3105 10100 40257 56007 92350 22200 00116 11505 20401 326// 41505 70026 333 91206 555 11047 22049 32342 43106 62349 307045 281044 280046 282046 281039 287039
BBXX 46041 04001 99474 71247 46/// /1513 10102 40193 55011 92350 22200 00091 11208 20604 3//// 41207 70041 333 91217 555 11135 22145 32342 41517 62349 154124 152125 153130 152131 152132 149133
BBXX 44040 04001 99410 70736 46/// /0210 11042 21130 40188 92345 22200 10301 70006 333 91213 555 11113 22118
BBXX 46077 04001 99579 71543 46/// /0409 11050 21094 49949 58015 92350 22200 00039 10603 20603 70017 333 91211 555 11089 22093 32308 40411 62349 037085 039084 040089 040087 038089 035087 80510 92323
BBXX 46082 04001 99597 71434 46/// ///// 10016 49854 56045 92350 22200 00058 11104 70018
BBXX 42039 04001 99288 70860 46/// /3608 10105 40291 92350 22200 00223 333 91211 555 11083 22086
BBXX 41040 04001 99145 70530 46/// /0709 10264 20218 40171 52020 92350 22200 00270 11106 20805 3//// 41104 70032 333 91212 555 11100 22106 32257 40813 62349 073093 075093 069095 076095 080100 077101 80811 92303
BBXX 46072 04001 99517 71722 46/// /2808 11004 21050 40035 58024 92350 22200 00041 11206 20503 3//// 41206 70032 333 91211 555 11086 22090 32338 42813 62349 284082 281091 299064 305062 299060 291061 82711 92338
BBXX BATEU05 04004 99602 70404 46/// /2839 10007 49743 55043 22252
BBXX BATEU01 04004 99458 70481 46/// /1724 10085 20077 40093 56040 22264 00022
BBXX C6VF5 04004 99184 70582 43/// ///// 1//// 2//// 4//// 5//// 7//// 8//// 22211 0//// 2//// 3//// 4//// 5//// 6//// ICE /////
BBXX C6LU3 04003 99317 70492 41598 61515 10195 2018/ 40290 54000 70321 86/// 22254 20402 326// 40503 80190
BBXX WZJC 04003 99263 70886 41398 53519 10156 2009/ 40290 52010 70222 851// 22273 00233 20402 336// 40709 5//// 6//// 80117 ICE /////
BBXX 44007 04001 99435 70701 46/// /3411 11066 21131 40135 53027 92350 22200 00078 10302 20301 70008 333 91213 555 11112 22117 32340 43317 62349 342107 340111 349104 344103 345094 345085
BBXX FVNM 04004 99168 70862 46/// /0225 10254 20172 40224 53021 22271 00269
BBXX 41101 04004 99146 70562 46/// /0817 10262 20209 40156 52014 22200 00267 10805 70026
BBXX BAREU08 04004 99308 70437 46/// ///// 40309 52011 22254
BBXX BAREU04 04004 99450 70531 46/// ///// 40061 57008 22223
BBXX 46027 04001 99419 71244 46/// /1504 10101 40267 56013 92350 22200 00101 11405 20401 328// 41405 70027 333 91206 555 11046 22048 32319 41306 62349 143043 135041 134045 135042 141037 137038
BBXX 46047 04001 99324 71195 46/// /3305 10141 40220 56006 92350 22200 00137 11606 20401 330// 41606 70030 333 91206 555 11052 22057 32328 43206 62349 325048 323051 321048 321049 320049 320049
BBXX 44066 04001 99396 70726 46/// /3312 11003 21060 40147 53036 92350 22200 00132 10705 20705 70023 333 91215 555 11128 22133 32258 43217 62349 331120 328115 327122 323118 327121 327129
BBXX 46014 04001 99394 71240 46/// /3404 10105 40276 56006 92350 22200 00114 11406 20401 3//// 41406 70028 333 91205 555 11045 22047 32344 43305 62349 336043 344041 354041 005042 009040 012040
BBXX 46069 04001 99337 71202 46/// /3108 10135 40218 56005 92350 22200 00134 11608 20702 329// 41607 70038 333 91211 555 11088 22094 32346 43111 62349 308083 310075 309070 308061 309063 310062
BBXX 46050 04001 99442 71246 46/// /1710 10103 40230 56014 92350 22200 00096 11106 20703 325// 41105 70029 333 91212 555 11106 22114 32325 41713 62349 172099 171100 169100 170102 171100 174098
BBXX 46088 04001 99483 71232 46/// /1207 10093 40184 57020 92350 22200 00077 10401 20401 70006 333 91208 555 11073 22081 32346 41208 62349 119066 139034 180015 118020 083019 060012
BBXX 46005 04001 99461 71310 46/// ///17 10122 40019 56023 92350 22200 00098 11111 20607 3//// 41108 70054 333 91221 555 11181 22195
BBXX 46011 04001 99350 71210 46/// /3107 10129 40226 56006 92350 22200 00132 11507 20602 328// 41507 70037 333 91209 555 11072 22077 32309 43109 62349 309068 309068 312070 312070 314069 313068
BBXX 46075 04001 99539 71608 46/// /3311 11060 21103 40027 56008 92350 22200 00036 10706 20706 300// 41302 70032 333 91214 555 11113 22118 32309 43317 62349 330106 338111 345117 341129 335130 339123 83315 92310
BBXX 46006 04001 99408 71375 46/// /1910 10135 49986 53013 92350 22200 00122 11013 20606 3//// 41011 70064 333 91213 555 11112 22122 32257 41914 62349 194104 194105 192105 194108 192111 187111
BBXX 46080 04001 99580 71500 46/// /0310 10017 21035 49890 56025 92350 22200 00044 11206 20505 3//// 41203 70028 333 91212 555 11109 22115 32303 40213 62349 027103 025100 031100 031102 033106 031096 80311 92303
BBXX 46002 04001 99426 71305 46/// ///// 10134 40138 55000 92350 22200 00119 11310 70051
BBXX 46084 04001 99566 71361 46/// ///// 10074 20066 49833 53017 92350 22200 00066 11006 70031
BBXX 46059 04001 99380 71300 46/// /1810 10143 40232 56006 92350 22200 00141 11408 20504 3//// 41407 70038 333 91212 555 11104 22111 32338 41812 62349 179096 181093 183095 181094 183092 184094
BBXX 42055 04001 99222 70940 46/// /0305 10212 20113 40292 54000 92350 22200 00247 10804 20502 303// 40804 70021 333 91207 555 11056 22058 32320 40409 62349 033056 037062 037067 031057 033057 025055 80407 92324
BBXX 41047 04001 99275 70715 46/// /3215 10162 40190 51031 92350 22200 00251 11112 20806 330// 41110 70059 333 91219 555 11154 22162 32332 43022 62349 317155 310158 312158 308156 307153 293158 83120 92332
BBXX NWS0022 04004 99416 70714 43/// /3315 11040 21136 40145 5//// 7//// 8//// 222// 04108 2//// 3//// 4//// 5//// 6//// 8//// ICE /////
BBXX 44005 04001 99432 70691 46/// /3311 11042 21117 40113 51030 92350 22200 00078 10503 20503 3//// 41001 70015 333 91214 555 11116 22121 32348 43414 62349 334108 338101 332099 339102 337093 335087
BBXX 42040 04001 99292 70882 46/// /0206 10091 40309 57004 92350 22200 00204 10502 20502 3//// 40601 70009 333 91208 555 11061 22063 32308 40109 62349 018061 018063 014066 016062 001063 358069
BBXX 42003 04001 99260 70856 46/// /3608 1//// 92350 22200 11005 20703 331// 41004 70024 333 91211 555 11082 22088 32255 40111 62349 001077 004081 355078 358081 001082 003078 80110 92329
BBXX 42019 04001 99279 70954 46/// /1604 10166 20089 40301 57013 92350 22200 10602 20401 305// 40602 70010 333 91206 555 11046 22048 32338 42508 62349 171042 285046 287039 282041 285040 286039
BBXX 42059 04001 99151 70675 46/// /1006 10273 20221 40159 53016 92350 22200 00276 10704 20502 3//// 40703 70018 333 91207 555 11063 22066 32256 41008 62349 098059 095056 089062 086061 090059 092064 80907 92259
BBXX CGDS 04004 99429 70792 46/// /3603 11133 21192 40270 53011 7//// 8//// 22200 0//// 2////
BBXX CG2960 04004 99429 70824 46/// /2602 11085 21157 40262 53006 7//// 8//// 22200 0//// 2////
BBXX CG2350 04004 99433 70798 46/// /2707 11126 21188 40264 51013 7//// 8//// 22200 0//// 2////
BBXX DBBH 04001 99377 10154 41/98 /0705 10154 20111 40230 50000 7//// 22221 04158
BBXX A8UX3 04004 99316 70137 41598 60423 10175 20125 40320 52030 70311 83160 22283 04190 20403 304// 40904 80145
BBXX KSPH 04004 99322 10300 41798 53513 10160 2013/ 40250 5//// 702// 851// 22273 00150 20301 335// 40502 5//// 6//// 80140 ICE /////
BBXX DBJM 04001 99541 10081 46/// /2623/10054 20030 49946 52004 22251 00064
BBXX DBBI 04001 99535 10100 46/// /2411 10061 20028 49976 52021 22260 00054
BBXX DBBC 04001 99535 10100 46/// /2410 10062 20012 49977 52021 22200 00056
BBXX DBBA 04001 99541 10121 46/// /2508 10069 20053 49950 52009 22220 00051
BBXX DBKR 04001 99541 10121 46/// /2409 10068 20013 49949 52009 22200 00054
BBXX DBEA 04001 99539 10087 46/// /2520 10064 20024 49948 52022 22210 00052
BBXX DBFH 04001 99535 10086 46/// /2512 10069 20022 49989 52027 22260 00055
BBXX WDD3825 04004 99493 70049 41898 52935 10130 2007/ 40190 51010 70222 851// 22224 00130 2//// 3//// 4//// 5//// 6//// 80100 ICE /////
BBXX 9VVD 04004 99410 70338 41/97 /3505 10130 20068 40344 52025 70200 8//// 22264 04160 20501 30305 40401 50502 80100
BBXX 42056 04001 99198 70849 46/// /0112 10239 20165 40232 51012 92350 22200 00267 11007 20805 335// 41004 70034 333 91215 555 11127 22134 32348 40115 62349 010117 009113 017109 016102 022108 020110 80112 92348
BBXX 42058 04001 99149 70749 46/// /0609 10267 20220 40148 51013 92350 22200 00272 10803 20602 308// 40802 70016 333 91210 555 11095 22101 32258 40510 62349 055088 052087 049085 054085 052083 048086 80509 92258
BBXX 42036 04001 99285 70845 46/// /3608 10095 20001 40286 53007 92350 22200 00204 10703 20703 70014 333 91210 555 11082 22084 32315 40111 62349 000078 358078 353077 001076 357072 357073
BBXX 42060 04001 99163 70635 46/// /0903 10269 20216 40170 53018 92350 22200 00273 10603 20301 300// 40603 70017 333 91204 555 11031 22032 32320 40804 62349 086030 092025 089027 099030 103029 106033 81004 92255
BBXX 42020 04001 99270 70967 46/// /1304 10173 20082 40297 58017 92350 22200 00219 10602 20401 306// 40602 70008 333 91205 555 11039 22040 32338 41206 62349 123038 119039 122037 120033 109035 101028
BBXX 41044 04001 99217 70587 46/// /1308 10256 20197 40200 52016 92350 22200 00257 11005 20804 300// 41003 70026 333 91210 555 11089 22094 32317 41311 62349 127083 128087 125085 122086 126084 126087 81210 92317
BBXX 41001 04001 99347 70727 46/// ///// 10075 20047 40113 51027 92350 22200 00221 11112 70062
BBXX 42001 04001 99259 70897 46/// /0107 10162 20076 40306 54000 92350 22200 00234 10704 20603 3//// 40703 70020 333 91209 555 11071 22074 32323 40110 62349 011068 009072 007075 010072 011078 001075
BBXX 41060 04001 99148 70510 46/// ///// 1//// 92350 22200 11106 70030
BBXX 42035 04001 99292 70944 46/// /1505 10113 20043 40312 58015 92350 22200 00149 10401 20401 310// 40501 70005 333 91206 555 11048 22049 32331 41606 62349 149046 151047 148041 143045 138041 135038
BBXX 41048 04001 99320 70696 46/// /2711 10109 20071 40103 52058 92350 22200 00216 11113 20507 3//// 41111 70066 333 91215 555 11112 22117 32256 42823 50085 62349 267114 256156 281166 281148 286161 292187 72251 82920 92256
BBXX 42012 04001 99301 70876 46/// /3506 10087 21070 40306 56003 92350 22200 00182 10301 20301 70004 333 91208 555 11060 22062 32346 43508 62349 348058 337058 344052 341054 349049 344051
BBXX 42065 04001 99170 70817 46/// /0212 10243 20171 92350 22200 10808 20806 3//// 41305 70039 333 91214 555 11128 22136 32310 40116 62349 015118 018122 015124 016125 017125 010129 80214 92310
BBXX 41049 04001 99275 70630 46/// /2010 10237 20204 40159 53009 92350 22200 00230 10605 20604 300// 41002 70025 333 91213 555 11111 22119 32251 41914 62349 197103 197108 194110 191115 188114 186117 81912 92301
BBXX WDB9986 04004 99536 71580 41496 83430 11030 2107/ 49965 52005 78572 8872/ 22264 00030 20507 333// 40808 5//// 6//// 82040 ICE /////
BBXX LAVD4 04004 99235 71748 41798 70618 10260 2020/ 40218 56005 70322 87422 22273 00250 21005 332// 41608 5//// 6//// 80220
BBXX DQVK 04003 99214 70697 41495 83215 10230 20227 40175 53005 78111 883// 22274 00274 2//// 3//// 4//// 5//// 80228
BBXX WBP3210 04004 99684 51277 43/// /3114 11010 2//// 49700 5//// 7//// 8//// 22262 01006 2//// 3//// 4//// 5//// 6//// ICE /////
BBXX WCX7445 04004 99647 50640 43/// /1303 10023 2//// 49876 5//// 7//// 8//// 22200 00006 2//// 3//// 4//// 5//// 6//// ICE /////
BBXX ONDY 04004 99045 10933 41698 41608 10275 2025/ 40115 54000 70310 82880 22213 00300 2//// 3//// 4//// 5//// 6//// 80255 ICE /////
BBXX SHIP 04003 99094 31235 41498 61712 10290 2025/ 40110 53010 70222 8628/ 22214 00300 2//// 3//// 4//// 5//// 6//// 80260 ICE /////
BBXX VCXF 04004 99464 70484 41/90 91943 10079 2008/ 40062 52004 74565 89/// 22200 02027 20607 320// 40805 80079
AAXX 04004 47101 12660 43601 11105 21126 30159 40262 52032 69902 84500 333 21106 3/108 45///
AAXX 04004 47105 369// /2510 11049 21155 30180 40214 52022 333 21063 3/101
AAXX 04004 47108 11958 03203 11094 21153 30151 40264 52023 69902 70500 333 21096 3/107 44///
AAXX 04004 47115 11510 80717 11026 21032 39882 40162 52027 60132 77177 8682/ 333 21032 3/101 49029 92055
AAXX 04004 47133 11640 63403 11060 21088 30174 40264 52026 60022 77177 86500 333 21066 3/000 43006
AAXX 04004 47138 12968 02904 11034 21123 30219 40222 52031 69902 333 21038 34101 92032
AAXX 04004 47159 32962 02909 11021 21109 30133 40222 52021 333 21030 30103 92023
AAXX 04004 47165 11540 73413 11023 21035 30214 40263 52020 60012 78582 87800 333 21033 3/000 43002 92034
AAXX 04004 47168 12670 43609 11023 21090 30161 40244 52026 69902 84500 333 21026 30101 92023
AAXX 04004 47184 11550 73216 10017 21030 30240 40266 52024 60012 78587 87800 333 20015 31001 92065
AAXX 04004 47090 32663 22905 11034 21142 30188 40211 52025 81500 333 21056 3/105 41/// 92032
AAXX 04004 47095 11556 41801 11110 21148 30062 40265 52029 69902 70511 84500 333 21115 3/106 47001
AAXX 04004 47097 329// /2301 11082 21140 30161 40263 52028 333 21097 3/105
AAXX 04004 47098 129// /0001 11103 21130 30119 40263 52029 69912 333 21117 3/105
AAXX 04004 47099 129// /0001 11110 21145 30229 40268 52028 69902 333 21128 3/107
AAXX 04004 47100 12370 12708 11131 21167 39268 40247 52028 69912 81500 333 21139 3/107 49023
AAXX 04004 47102 12668 72911 11062 21107 30093 40281 52025 69912 87500 333 21066 3/101 43007
AAXX 04004 47104 32970 01405 11051 21149 30109 40211 52023 333 21080 3/103 43002
AAXX 04004 47106 329// /2507 11041 21157 30157 40208 52024 333 21057 3/104
AAXX 04004 47112 11958 03411 11074 21142 30177 40266 52026 69902 70500 333 21075 34106 92023
AAXX 04004 47114 12660 62302 11087 21148 30065 40259 52029 69902 85500 333 21092 3/107 46///
AAXX 04004 47119 11956 02905 11079 21126 30220 40265 52025 69902 70500 333 21086 3/104 43001
AAXX 04004 47121 129// /2503 11085 21137 39942 40254 52031 60022 333 21091 3/102
AAXX 04004 47127 129// /2505 11075 21141 30111 40261 52027 69902 333 21077 3/105
AAXX 04004 47129 11658 63409 11042 21102 30234 40272 52026 60022 70522 86500 333 21047 3/001 43004
AAXX 04004 47130 32967 02305 11041 21157 30139 40203 52025 333 21061 34103 92022
AAXX 04004 47131 11659 22902 11068 21120 30188 40263 52026 60012 70521 82500 333 21074 3/101 47002
AAXX 04004 47135 129// /2714 11073 21113 39938 40254 52031 60012 333 21075 3/104
AAXX 04004 47136 12965 02908 11061 21143 30057 40238 52024 69902 333 21071 30106
AAXX 04004 47137 129// /2704 11066 21160 30125 40250 52030 69902 333 21070 3/106
AAXX 04004 47140 11550 73403 11047 21056 30236 40266 52028 60062 78588 87800 333 21052 3/001 43010 92012
AAXX 04004 47143 12661 42705 11043 21122 30168 40251 52026 69952 84500 333 21048 3/101 43003
AAXX 04004 47145 11558 62906 11067 21118 30230 40258 52027 60032 70522 85500 333 21069 3/101 43005
AAXX 04004 47146 11661 60205 11044 21078 30195 40264 52026 60022 72277 86500 333 21050 3/000 43005
AAXX 04004 47150 11659 60205 11048 21080 30244 40264 52025 60062 72682 85500 333 21051 3/000 49015
AAXX 04004 47152 12968 02911 11035 21126 30181 40226 52030 69902 333 21039 34103
AAXX 04004 47154 129// /2905 11053 21118 30184 40247 52027 69952 333 21055 3/102
AAXX 04004 47155 12661 21405 11020 21098 30184 40232 52028 69902 81500 333 21026 34102
AAXX 04004 47156 11557 73603 11031 21042 30170 40263 52024 60042 78588 82800 333 21039 3/001 49007
AAXX 04004 47157 12665 13407 11048 21124 39947 40229 52030 69912 81500 333 21049 3/104 43001
AAXX 04004 47162 32565 20509 11011 21094 30191 40233 52025 81500 333 21023 30102 92023
AAXX 04004 47169 11568 63216 11012 21023 30173 40271 52032 69962 78588 86800 333 21022 3/001 44/// 92075
AAXX 04004 47170 11565 63210 11014 21059 30214 40259 52019 60022 78588 86800 333 21031 3/000 47005 92023
AAXX 04004 47171 11557 63603 11043 21058 30208 40266 52025 60062 78588 86800 333 21046 3/000 43011
AAXX 04004 47172 129// /3606 11038 21056 30188 40258 52027 60022 333 21039 3/001
AAXX 04004 47173 11960 60205 11051 21085 30143 40260 52028 60042 726// 85500 333 21053 3/101
AAXX 04004 47174 11558 63207 11040 21076 30036 40247 52025 60022 78588 86800 333 21042 3/000 43005
AAXX 04004 47175 11530 73216 11046 21054 39660 40259 52021 60022 78588 84800 333 21059 3/000 47003 92035
AAXX 04004 47185 11558 73232 10030 21008 30160 40253 52027 69952 78582 87800 333 20005 3/001 41/// 92057
AAXX 04004 47188 11568 63404 10011 21030 30233 40256 52018 60042 72682 86800 333 21001 3/001 43001 92032
AAXX 04004 47189 11565 63204 10014 21025 30195 40257 52020 69932 72678 86800 333 20001 3/001 42/// 92032
AAXX 04004 47192 12668 23605 11014 21126 30201 40240 52028 69902 82500 333 21026 34102
AAXX 04001 15502 12970 02702 10028 20023 30201 40241 58007 60001 333 10076 20028 555 596//
AAXX 04001 15525 12970 02004 10024 20003 39980 40253 54000 60001 333 10056 20018 555 586//
AAXX 04001 15528 12970 00000 10023 20010 30032 40227 54000 60001 333 10091 20020 555 591//
AAXX 04001 15535 12970 02004 10036 20010 30180 40228 58008 60001 333 10064 20022 555 583//
AAXX 04001 15549 12970 02702 10040 20004 39823 40248 57003 60001 333 10058 20037 41/// 555 577// 92601
AAXX 04001 15552 12965 02905 10048 20006 30185 40235 57002 60001 333 10068 20048 555 574// 92013 92417
AAXX 04001 15614 11958 00000 11024 21029 39548 40285 58004 60001 71000 333 10007 21028 44005 555 596//
AAXX 04001 15615 11988 02004 11030 21129 37160 47104 57003 60001 70200 333 11012 21034 555 547//
AAXX 04001 15626 11950 00000 11038 21050 30062 40261 58008 60001 71000 333 11024 21042 43004 555 592//
AAXX 04001 15627 11989 02702 10006 21051 37669 47117 54000 60001 70200 333 10014 20006 44033 555 565//
AAXX 04001 15640 11958 00000 10014 21011 39937 40261 54000 60001 71000 333 10027 20009 555 583//
AAXX 04001 15655 12965 02308 10026 20004 30208 40242 58004 60001 222// 20000 333 10040 20026 555 586// 92015 92417
AAXX 04001 15712 11950 03601 11018 21026 30017 40280 58002 60001 71000 333 10012 21019 42002 555 593//
AAXX 04001 15730 11908 00000 11012 21022 39859 40268 58004 60001 74640 333 10033 21014 42002 555 593//
AAXX 04001 26038 21375 61406 10009 21002 39913 49953 58054 70211 84630 333 10026 20005 60007 84710 91010 91112 555 1/000 20005 3/102 50017 52100
AAXX 04001 26045 27471 11704 10008 20001 39990 49992 58036 70000 81/// 333 10022 20006 60007 81/12 555 1/101 20006 3/102 50013
AAXX 04001 26058 27369 71702 10011 20003 30011 40019 58018 70000 87/// 333 10022 20001 60007 87/09 555 1/100 20001 3/104 50005 52104
AAXX 04001 26115 27336 81306 10021 20013 39884 49892 58070 76264 88/// 333 10051 20021 60017 88/07 91013 91116 555 1/002 20021 3/002 50045
AAXX 04001 26135 27373 71403 10006 21003 39903 49978 58052 70000 87/// 333 10024 20004 60007 87/10 91109 555 1/000 20004 3/100 50015 52100
AAXX 04001 26141 21270 81706 10004 20000 39845 49993 58041 70222 875// 333 10014 20003 60007 87606 91010 91110 555 1/100 20003 3/100 50007 52100
AAXX 04001 26231 NIL
AAXX 04001 26242 21482 81605 10008 21011 39914 40001 58047 70222 8553/ 333 10021 20005 60007 85613 555 1/100 20005 3/100 50013 52100
AAXX 04001 26247 27/75 /1504 10007 20000 39921 40000 58051 70000 333 10025 20004 60007 555 1/100 20004 3/101 50014
BBXX LAHV 04001 99589 10057 43/// /3216 10057 20032 49692 222// 04085 1////
BBXX LDGJ 04001 99603 10053 43/// /3206 10040 20014 49700 5//// 222/0 04085 1//// 3//// 4//// 5////
BBXX LF4H 04004 99596 10022 46/// /3426 10049 20031 49778 52080 8//// 22200 06081 10710 70050 333 91146
BBXX LMEL 04001 99603 10053 43/// /3408 10032 20028 49695 5//// 222/0 04083 1//// 3//// 4//// 5////
AAXX 04004 91925 02581 21013 10283 20218 30060 40120 58018 60004 82200 333 20223 56200 59005 60007 82823 90710 91125 555 60005 11026
AAXX 04004 91929 04586 /0406 10296 20223 30131 40134 58017 60001 700// 333 60007 90710 91109 555 60005
AAXX 04004 91938 01570 20310 10303 20230 30133 40135 58018 60001 71500 82800 333 60007 81820 90710 91113 555 60005 10313
AAXX 04004 91943 36/// /1103 10282 20200 30131 40133 58015 333 59006
AAXX 04004 91944 06/// /0503 10293 20199 30133 40136 57015 60001 333 60007 90710 91107 555 60005
AAXX 04004 91948 02482 21306 10267 20205 30048 40149 56014 60004 82200 333 20238 56200 59017 60007 82816 90710 91111 555 60005 11211
AAXX 04004 91954 06/// /3212 10276 20242 30124 40127 58019 60004 333 20253 59030 60007
AAXX 04004 91958 01480 73317 10262 20229 30123 40125 56019 60054 70186 84802 333 20236 56706 59041 60027 83818 84073 90710 91126 555 60005 13331
AAXX 04004 91945 NIL
AAXX 04001 14240 11458 62301 10061 20055 30063 40221 57025 60001 71022 86600
AAXX 04001 14258 12670 41202 10038 20038 30031 40223 57021 60001 84100 333 84833
AAXX 04001 14445 12670 81002 10121 20056 30089 40244 58012 60001 8283/ 333 82896 86399 92311
AAXX 04001 26106 41/97 81406 10019 20001 39932 49975 57060 78082 889// 333 91010 91111
AAXX 04001 26313 43/// /1707 10024 20012 39918 49925 57064 333 91013 91113
AAXX 04001 26346 42497 81704 10001 21005 39780 40026 57040 886// 333 88711
AAXX 04001 26406 41496 81708 10035 20023 39914 49920 57052 78182 889// 333 86711 91015 91118
AAXX 04001 26416 43/// /1705 10016 20005 39807 49946 57061 333 91011 91112
AAXX 04001 26424 42497 81808 10026 20009 39909 49962 57059 8695/ 333 91012 91113
AAXX 04001 26544 41596 81805 10006 21003 39890 40044 57045 71022 885//
AAXX 04001 38353 429// 22001 11024 20062 39292 40218 57008 80001
AAXX 04001 38613 429// 00201 11040 21095 39283 40217 57013 555 1/105
AAXX 04001 38616 429// 01801 11046 21070 39161 40213 58012
AAXX 04001 38345 42998 01//1 11086 21129 38766 48458 57007 555 1/112
AAXX 04001 36911 429// 00000 11036 21061 39219 40212 57015 555 1/108
AAXX 04001 36974 NIL
AAXX 04001 36982 429// 61901 11215 21254 36386 47155 58002 76030
AAXX 04004 16622 12960 01104 11006 21018 30267 40278 56003 60001 333 90730 91108 555 40000 47730 44210 50000 51010
AAXX 04004 16641 12960 00000 10038 20038 30243 40249 58004 60001 333 90730 91103 555 40000 47711 44190 50000 50038
AAXX 04004 16682 12960 00000 10058 20039 30215 40234 57003 60001 333 90730 91106 555 40000 47690 44185 50000 50050
AAXX 04004 16716 NIL
AAXX 04004 16734 NIL
AAXX 04004 16743 NIL
AAXX 04004 16749 12460 10000 10096 20061 30226 40240 57005 60001 81250 333 90730 91105 555 40000 47700 44200 50000 50080
AAXX 04004 16754 NIL
AAXX 04001 26509 /1497 81609 10035 20027 39940 49949 57045 78082 889// 333 88911 91014 91118 555 1/003 60051
AAXX 04001 26518 /1350 82009 10021 20016 39766 49969 57054 76161 8872/ 333 88508 91014 91115 555 1/002 60021
AAXX 04001 26524 /1397 81705 10020 20015 39845 49977 57018 78082 883// 333 88708 91008 91111 555 1/001 69932
AAXX 04001 26531 32570 81704 10019 20006 39930 40006 57054 885// 333 88623 91009 91110 555 1/100
AAXX 04001 26629 32868 81708 10028 20012 39914 40010 57058 8803/ 333 91012 91114 555 1/001
AAXX 04001 26633 32964 81504 10013 21001 39903 40034 58049 8807/ 333 91006 91107 555 1/100
AAXX 04001 26730 32962 81705 10010 20002 39859 40052 57050 8805/ 333 91008 91110 555 1/000
AAXX 04001 36974 429// 32401 11181 21207 37973 48556 57014 83030 555 17119
AAXX 04001 26645 42397 81802 10001 21008 39799 40061 58044 886// 333 88708 555 1/101
AAXX 04001 26659 41958 81702 11001 21004 39884 40102 57025 71022 8802/ 555 1/101
AAXX 04001 26763 41450 81803 10004 21005 39889 40120 58007 71022 886// 333 88712 555 1/100
AAXX 04001 26825 41956 71906 10018 20007 39881 40065 57049 71011 8703/ 333 91110 555 11000
AAXX 04001 26832 41459 81904 10022 20006 39878 40072 57046 71011 8667/ 333 86713 555 11001
AAXX 04001 26887 41396 82603 10008 20003 39937 40147 51003 71022 886// 333 88708 555 1/000
AAXX 04001 26961 41350 82202 10006 20000 39943 40138 57016 71022 886// 333 88707 555 1////
AAXX 04001 33027 41596 82302 10009 20006 39984 40154 58027 71022 8553/ 555 14101
AAXX 04004 68399 36/// /2502 10233 20212 30037 40146 57006 333 10373 20224 91009 555 91014
AAXX 04004 68383 36/// /0000 10237 20182 39914 48573 57003 333 10371 20234 91000 555 91016
AAXX 04004 68379 36/// /1308 10229 20217 39827 48560 58000 333 10364 20226 91010 555 91015
AAXX 04004 68398 36/// /3606 10212 20198 39377 48524 51001 333 10319 20208 91008 555 91015
AAXX 04004 68299 16/// /1305 10141 20133 38942 48528 54000 69923 333 10248 20141 91008 555 20002 91020
AAXX 04001 14121 36/// /0000 10053 20046 39948 40218 57024
AAXX 04004 16643 12960 00207 10070 20056 30254 40259 57004 60001 333 90730 91109 555 40000 47724 44230 50000 50064
AAXX 04004 16648 11558 10000 11020 21034 30175 40270 58001 60001 71000 81100 333 90730 91104 555 40000 47664 44220 50000 51024 70000 77Y// 7/Y//
AAXX 04004 16650 12960 00000 10030 20020 30246 40250 57008 60001 333 90730 91102 555 40000 47717 44230 50000 50026
AAXX 04004 16684 NIL
AAXX 04004 16732 NIL
AAXX 04001 06414 16/// /2506 10061 20012 30057 40090 50003 69911 333 91119 91212
AAXX 04001 06459 36/// /2406 10057 20047 39915 40108 50004 60001 333 91119 91214
AAXX 04001 06494 16/// /2606 10029 20022 39302 40103 58003 60061 333 91118 91213
AAXX 04004 89577 46/// /2903 11384 35814 4//// 5////
AAXX 04004 89578 46/// /0403 11313 36928 4//// 5////
BBXX BATUK01 04004 99560 70032 46/// /2608 10039 21012 49985 51052 22200 00059
AAXX 04004 16614 36/// /0000 11070 21082 39482 40314 57006 333 90730 91105
AAXX 04004 16627 NIL
AAXX 04004 16667 12960 02407 10058 20034 30251 40256 58009 60001 333 90730 91108 555 40000 47718 44200 50000 50048 70000 77/I/ 7/I//
AAXX 04004 16675 17/// /2604 10000 21011 30249 40264 57008 69901 741// 333 90730 91109 555 60000 65555 6////
AAXX 04004 16710 36/// /9901 11028 21036 39485 40297 57003 333 90730 91102
AAXX 04004 16723 NIL
AAXX 04004 16738 NIL
AAXX 04004 16746 12560 51304 10070 20047 30063 40250 57006 60001 85800 333 82820 85635 90730 91106 555 40000 47576 44180 50000 50060
AAXX 04004 65352 31940 70404 10230 20042 3//// 4//// 70522 80002 333 5//// 87076
AAXX 04004 65361 32958 70802 10245 20049 3//// 4//// 80002 333 5//// 87076
AAXX 04004 65376 31940 70000 10270 20114 39664 40120 70522 80002 333 59005 87073
AAXX 04004 65387 32957 60000 10263 20252 30088 40106 80002 333 59010 86073
AAXX 04001 14241 11715 31801 10042 20037 30088 40221 57025 69901 72861 83500
AAXX 04001 14284 11901 01801 10003 20003 30124 40237 57020 60001 74440
AAXX 04001 14307 11465 82401 10088 20081 30161 40239 57017 69921 70256 885// 333 83612 86616 88622 96152
AAXX 04001 14317 NIL
AAXX 04001 14431 12565 70000 10087 20062 30149 40244 58012 60001 84570
AAXX 04001 14444 33770 60201 10096 20071 30219 40248 57011 82530 333
AAXX 04001 14474 12665 60603 10088 20052 30059 40252 58009 60001 86500
AAXX 04004 04005 41489 70203 11010 21054 49936 57004 71522 87800 555 3/204
AAXX 04004 04018 42584 30907 11030 21051 49929 51001 70281 82408 555 3//07 82624
AAXX 04004 04030 42586 11206 11054 21076 49932 54000 81500 555 3//07 81620
AAXX 04004 04048 NIL
AAXX 04004 04063 41565 83309 11004 21016 49913 52019 77072 8692/ 555 3//15
AAXX 04004 04077 NIL
AAXX 04004 04082 NIL
AAXX 04004 04097 41582 73208 10022 21048 49853 52024 78583 87300 555 3/314
AAXX 04004 08001 11565 72211 10148 20114 30241 40323 50011 69901 70252 875// 333 924/7
AAXX 04004 08015 NIL
AAXX 04004 08023 12670 42112 10138 20052 30229 40301 54000 60001 82540
AAXX 04004 08027 12982 42214 10122 20049 39988 40300 58003 60001 83051
AAXX 04004 08045 01118 81803 10112 20106 30047 40361 53009 69991 71054 887// 333 69997
AAXX 04004 08141 12465 52104 10046 20033 39473 40359 51001 60001 85500
AAXX 04004 08160 12970 02508 10069 20018 30017 40335 57003 60001
AAXX 04004 08181 02971 03509 10068 20011 30291 40298 58009 60001 333 60007
AAXX 04004 08221 02963 03504 11005 21022 39650 40373 51002 60001 333 60007
AAXX 04004 08231 NIL
AAXX 04004 08261 NIL
AAXX 04004 08284 02980 03204 10065 20031 30235 40313 58006 60001 333 60007
AAXX 04004 08306 12965 00000 10054 20047 30304 40310 57008 60001
AAXX 04004 08314 02570 12807 10081 20064 30194 40301 58012 60001 81100 333 60007
AAXX 04004 08430 12970 02404 10081 20032 30241 40318 57002 60001
AAXX 04004 08482 12462 13006 10086 20064 30315 40324 58001 60001 81601
AAXX 04003 04013 42989 00905 11032 21057 49931 57004 555 3//05
AAXX 04003 04064 42684 12505 11038 21072 49917 52020 81200 555 3//09
AAXX 04001 01281 16/// ///// 1//// 2//// 39631 49804 58032 60001
AAXX 04001 01447 16/// /3101 10001 21006 38983 49628 53010 60011 333 91108
AAXX 04004 16754 12560 62304 10072 20039 30205 40253 54000 60001 81250 333 81825 86358 90730 91108 555 40000 47687 44215 50000 50058
AAXX 04004 17022 12962 01103 10057 21037 30095 40266 52002 60001 333 92427
AAXX 04004 17031 12970 01206 11019 21019 30249 40256 56001 60001
AAXX 04004 17038 12965 32102 10038 21039 30215 40268 57010 60001 83030 333 83360 92427
AAXX 04004 17050 3//// /1801 10006 20005 30195 40260 57006 60001
AAXX 04004 17060 11957 02402 10039 20035 30224 40265 56001 60001 71000
AAXX 04004 17096 12960 01601 11201 21207 38282 48557 51001 60001
AAXX 04004 17124 11956 01104 11036 21039 39345 40297 58003 60001 71000
AAXX 04004 17128 11938 01502 11077 21084 39170 40327 55002 60001 71000
AAXX 04004 17170 NIL
AAXX 04004 17195 12970 00305 11052 21058 39050 48554 58001 60001
AAXX 04004 17199 12970 01402 11001 21066 39154 40273 55001 60001
AAXX 04004 17219 12965 00000 11005 21014 30111 40261 55006 60001
AAXX 04004 17240 11903 02301 11033 21050 39103 40278 53002 60001 74600
AAXX 04004 17244 11944 03202 11036 21036 39067 48550 57005 60001 71000
AAXX 04004 17280 12960 02707 11010 21043 39442 40250 53001 60001
AAXX 04004 17350 12960 03403 10032 20032 30165 40245 56001 60001
BBXX VEP717 04004 99467 70487 41295 82640 10077 2008/ 40083 52015 76566 887// 22200 06022 20606 319// 40804 80076
AAXX 04004 17024 3//// /1713 10027 21013 30172 40250 55011 60001
AAXX 04004 17056 12970 02903 10030 20028 30258 40263 57004 60001 333 91105 92418
AAXX 04004 17067 12970 01202 10014 21007 30245 40268 55001 60001 333 91103 92408
AAXX 04004 17092 12960 00000 11059 21068 38937 48555 53003 60001
AAXX 04004 17112 12965 00704 10020 20008 30260 40263 56007 60001 333 91107 92417
AAXX 04004 17115 11912 00000 11020 21023 30211 40264 57005 60001 74000
AAXX 04004 17116 11956 00000 11013 21019 30150 40276 58002 60001 71000 333 91102
AAXX 04004 17188 12960 02601 11015 21032 39181 40270 55002 60001 333 91105
AAXX 04004 17202 12970 02604 11049 21061 39233 40291 53002 60001
AAXX 04004 17248 12965 00802 11032 21040 39055 48551 55003 60001
AAXX 04004 17292 12970 00000 11003 21004 39490 40260 55004 60001 333 91104
AAXX 04004 17300 12960 03506 10036 20000 30173 40245 53001 60001
AAXX 04004 17310 12970 00602 10105 20040 30242 40249 58002 60001 333 91104 92428
AAXX 04004 17330 12970 02803 10086 21005 30230 40248 56003 60001
AAXX 04001 33088 31996 22204 10017 20014 39962 40156 57030 71000 80004
AAXX 04001 33177 32997 81603 10031 20005 39916 40156 57041 80007
AAXX 04001 33261 /1496 82902 10025 20020 39991 40176 52008 71062 889// 333 85914 555 69911
AAXX 04001 33275 /1397 83006 10013 20002 39942 40169 52013 76186 8772/ 333 87707 555 60011
AAXX 04001 33301 31997 61804 10013 20002 39879 40166 58032 70241 80001
AAXX 04001 33325 31396 82501 10024 20016 39921 40193 58010 71011 886// 333 88707
AAXX 04001 33377 /1396 83002 10030 20022 39994 40191 51006 71065 886// 333 88708 555 69941
AAXX 04001 33415 32997 21803 11001 21004 39785 40193 57028 82030
AAXX 04001 33429 31996 22003 10002 21004 39770 40204 57020 71011 80001
AAXX 04001 33466 NIL
AAXX 04001 33526 31925 60000 11044 21053 39849 40204 57030 71042 86030
AAXX 04001 33562 NIL
AAXX 04001 33614 /1542 82803 10042 20027 30088 40194 52007 71082 885// 333 88632 555 69901
AAXX 04001 33761 NIL
AAXX 04001 33902 NIL
AAXX 04001 33983 32997 22006 10049 20024 30166 40228 57003 82030
AAXX 04001 34415 /1397 82502 10020 20017 30066 40164 56003 76162 8772/ 555 60011
AAXX 04001 34523 /1496 82103 10028 20007 30089 40166 57028 76176 8772/ 555 69901
AAXX 04001 34712 32598 82904 10037 20034 30108 40195 57012 885// 333 88627
AAXX 04004 17026 12970 00401 10044 20011 30215 40255 57010 60001 333 91106 92428
AAXX 04004 17034 12970 00701 10062 21029 30217 40264 57006 60001 333 92428
AAXX 04004 17070 11950 00000 11016 21020 39394 40289 53002 60001 71000 333 91102
AAXX 04004 17084 12970 02701 11050 21058 39366 40311 58002 60001 333 91102
AAXX 04004 17090 12965 00501 11069 21092 38802 48561 51001 60001
AAXX 04004 17098 12960 00000 11153 21177 38224 48540 51002 60001
AAXX 04004 17150 11/01 92401 11033 21033 30149 40279 56001 60001 74940 333 89/01
AAXX 04004 17160 12970 03301 11041 21048 39099 48552 55004 60001 333 91107
AAXX 04004 17184 12970 00000 11012 21017 30156 40271 55003 60001 333 91102
AAXX 04004 17189 11902 03004 11048 21051 39098 48544 56002 60001 74800
AAXX 04004 17210 3//// /0100 10008 21006 39192 40255 5//// 60001
AAXX 04004 17234 12970 00902 10038 20017 30192 40262 56004 60001 333 91105
AAXX 04004 17260 12960 02802 11013 21032 39410 40247 54000 60001
AAXX 04004 17290 3//// /3502 10084 20066 30225 40256 55003 60001
AAXX 04004 17370 12965 00000 10099 20048 30242 40246 56002 60001 333 92407
AAXX 04004 91503 11470 52306 10310 20264 40084 58002 60014 70522 82208 333 20260 56600 59004 82818 85280
AAXX 04004 91517 11575 73602 10312 20258 40082 55003 60274 71522 82823 333 20240 56999 59012 82820 86360
AAXX 04004 91503 11470 52306 10310 20264 40084 58002 60014 70522 82208 333 20260 56600 59004 82818 85280
AAXX 04004 91517 11575 73602 10312 20258 40082 55003 60274 71522 82823 333 20240 56999 59012 82820 86360
AAXX 04001 26231 21478 81506 10013 21002 39948 49963 58056 77081 8872/ 333 10033 20009 60007 88511 91009 91111 555 1/000 20009 3/100 50026
AAXX 04001 13160 31994 02001 10010 20007 30127 40239 57016 71000
AAXX 04001 13262 31995 00000 10002 21003 30093 40248 57021 71000
AAXX 04001 13272 31910 01703 10042 20030 30124 40247 57018 72840
AAXX 04001 13285 32997 00000 10012 20004 30152 40258 57012
AAXX 04001 13289 32998 03007 10028 20015 39030 48526 58011
AAXX 04001 13376 31992 00000 11012 21019 39997 40272 58012 74640
AAXX 04001 13388 31996 00501 11004 21017 30012 40271 58004 71000
AAXX 04001 13462 32960 00000 10015 21005 30220 40261 57008
AAXX 04001 13473 NIL
AAXX 04001 13489 31993 00000 11024 21029 39739 40282 58011 74240
AAXX 04004 78397 112570 20603 10271 20236 30150 40166 60001 81800 333 01900 10303 20230 58000 81822
AAXX 04004 06030 01435 72444 10064 20037 39697 49712 57022 60021 78022 87901 333 60027 81615 83919 87625 91063 91166
AAXX 04004 06060 01560 72533 10072 20026 39745 49808 53020 69961 70282 87500 333 69967 82626 85638 91057 91157
AAXX 04004 06070 07563 72420 10064 20021 39778 49807 57004 60021 72388 333 60017 81/25 85/32 87/45 91042 91143
AAXX 04004 06120 36562 72323 10063 20029 39838 49863 52007 333 81/27 83/43 87/50 91047 91148
AAXX 04004 06180 01565 62329 10060 20025 39859 49865 58006 60021 78098 86802 333 60027 81920 86635 91039 91148
AAXX 04004 06193 07661 52334 10063 20034 39882 49893 57004 60031 70086 333 55300 20000 69907 81/35 83/50 85/68 91046 91150
AAXX 04004 78397 112570 20603 10271 20236 30150 40166 60001 81800 333 01900 10303 20230 58000 81822
AAXX 04004 78397 112570 20603 10271 20236 30150 40166 60001 81800 333 01900 10303 20230 58000 81822
AAXX 04004 17042 12970 01212 10053 21042 30237 40278 57012 60001 333 92438
AAXX 04004 17074 3//// /2102 11052 21065 39328 40296 5/001 60001
AAXX 04004 17086 12970 00903 11029 21049 39552 40294 50000 60001
AAXX 04004 17088 12970 01902 11066 21107 38871 48557 51003 60001
AAXX 04004 17140 3//// /0401 11041 21052 38769 40300 5//// 60001
AAXX 04004 17155 3//// /0301 11031 21041 39135 40291 56001 60001
AAXX 04004 17203 12970 00000 11035 21067 38935 48577 56004 60001
AAXX 04004 17237 12970 02501 10028 21008 39748 40263 55003 60001 333 91104
AAXX 04004 17250 12975 00405 11036 21053 38873 48554 55004 60001
AAXX 04004 17270 12970 02903 10037 21016 39588 40245 55000 60001
AAXX 04004 17295 12960 00304 10055 20042 30249 40256 55002 60001
AAXX 04004 17320 12970 03404 10096 20058 30239 40244 58004 60001 333 92438
AAXX 04004 17375 12970 00302 10098 20012 30244 40246 55004 60001 333 91106 92408
AAXX 04004 65338 31956 53202 10234 20207 39930 40117 705// 80002 333 0//00 59007 85076
AAXX 04001 12160 11480 71907 10058 20033 39933 49985 57025 60021 72582 873// 333 91012 91115 93002
AAXX 04001 12205 11683 72306 10065 20051 39973 49981 52010 69971 72562 873// 333 91120 93001
AAXX 04001 12465 12684 72209 10071 20007 39839 40071 56021 60001 875// 333 91014 91115 93000
AAXX 04001 12566 12970 52204 10062 20001 39823 40117 57033 60001 83032 333 93000
AAXX 04001 12120 11570 62309 10068 20045 39937 49944 55010 60071 70362 862// 333 91118 93007
AAXX 04001 12250 11784 72106 10067 20031 39925 40013 57022 60011 72122 875// 333 91011 91114 93001
AAXX 04001 12295 12865 82205 10043 20013 39872 40056 57045 60001 885// 333 91110 93000
AAXX 04001 12330 11670 62206 10081 20027 39915 40022 56015 69941 70186 86500 333 91011 91114 93094
AAXX 04001 12375 12680 82104 10072 20002 39932 40062 57031 60001 875// 333 91009 91114 93000
AAXX 04001 12424 11799 82107 10080 20016 39919 40070 58017 69911 72122 875// 333 91012 91118 93091
AAXX 04004 08055 NIL
AAXX 04004 08075 NIL
AAXX 04004 08084 02980 02704 10056 20017 39895 40342 52004 60001 333 60007
AAXX 04004 08184 01250 30000 10036 20024 30128 40290 58011 60001 71044 82601 333 60007
AAXX 04004 08202 02465 11402 11003 21014 39418 42938 51003 60001 81500 333 60007
AAXX 04004 08235 NIL
AAXX 04004 08238 NIL
AAXX 04004 08280 12970 00000 10012 20002 39500 40361 58004 60001
AAXX 04004 08330 NIL
AAXX 04004 08348 NIL
AAXX 04004 08360 02970 02206 10087 20006 30269 40307 58009 60001 333 60007
AAXX 04004 08373 06/// /3203 10075 20064 30283 40305 58013 60001 333 60007
AAXX 04004 08410 06/// /0000 10029 20014 30222 40339 50000 60001 333 60007
AAXX 04004 08419 05/65 /0000 10002 21011 39656 40362 51001 60001 333 60007
AAXX 04004 08451 02962 00000 10054 20032 30289 40324 58001 60001 333 60007
AAXX 04004 08487 06/// /0105 10098 20072 30291 40317 58002 60001 333 60007
AAXX 04001 13173 31995 01402 10016 20004 30143 40246 57015 71000
AAXX 04001 13180 32997 01802 10012 20010 30134 40248 58018
AAXX 04001 13266 31/91 90702 10006 20004 30140 40245 57022 74544
AAXX 04001 13369 31/90 90000 11090 21097 39040 48490 57016 74540
AAXX 04001 13383 32997 01601 11025 21033 30058 40272 58006
AAXX 04001 13384 32997 00000 11020 21025 30109 40269 58007
AAXX 04001 13389 32998 00000 11029 21036 39986 40282 54000
AAXX 04001 13477 NIL
AAXX 04001 13492 NIL
AAXX 04001 13584 NIL
AAXX 04001 13585 NIL
AAXX 04001 13597 NIL
AAXX 04001 13598 NIL
AAXX 04004 17500 NIL
AAXX 04004 17501 12960 03510 10126 20051 30225 40244 55003 60001 333 92427
AAXX 04004 17505 12960 01105 10096 20049 30142 40258 55003 60001
AAXX 04004 17507 NIL
AAXX 04004 17510 NIL
AAXX 04004 17515 12960 00000 10048 20034 30088 40270 56005 60001
AAXX 04004 17521 12560 12508 10086 20046 30102 40243 55006 60001 81100 333 81825
AAXX 04004 17530 12960 00000 10032 20021 30195 40255 57008 60001
AAXX 04004 17535 12960 03504 10071 20051 30192 40229 57008 60001
AAXX 04004 17540 NIL
AAXX 04004 17547 NIL
AAXX 04004 17550 12960 01705 10115 20057 30094 40241 57006 60001 333 92427
AAXX 04004 17572 NIL
AAXX 04001 10091 07405 72624 10025 20000 39875 49926 53012 69971 76876 333 55/// 20102 30101 55300 20000 30000 69907 81/16 87/31 87/43 91128 91218 90346 91219
AAXX 04001 13168 32998 01102 10008 20006 30133 40244 58020
AAXX 04001 13174 31/92 91803 10006 20004 30138 40242 58016 74741
AAXX 04001 13269 31995 00000 11008 21013 30036 40260 58020 71000
AAXX 04001 13274 NIL
AAXX 04001 13278 32997 00000 11006 21019 30034 40270 58009
AAXX 04001 13378 32999 02004 10016 21019 38316 48540 57008
AAXX 04001 13397 32998 01102 11030 21040 39723 40228 58001
AAXX 04001 13457 32970 00000 10009 20003 30249 40257 57008
AAXX 04001 13481 NIL
AAXX 04001 12105 11569 72308 10073 20037 39917 49959 53001 60021 72562 879// 333 91018 91118 93002
AAXX 04001 12195 11358 82108 10034 20016 39796 40023 57048 69901 76111 8772/ 333 91111 93097
AAXX 04001 12235 11582 62210 10057 20039 39771 49979 56014 60021 70186 865// 333 91118 93002
AAXX 04001 12270 11581 82207 10054 20027 39850 40031 57029 69941 76162 8552/ 333 91114 93094
AAXX 04001 12280 11558 82108 10044 20023 39863 40019 56036 69901 76122 885// 333 91015 91115 93097
AAXX 04001 12300 11984 02605 10074 20052 39916 40005 53001 60011 70186 333 91113 93001
AAXX 04001 12400 11580 72305 10085 20029 39802 40034 55005 69901 78062 879// 333 91115 93097
AAXX 04001 12435 11684 82009 10072 20011 39886 40056 57016 69911 72122 875// 333 91015 91116 93091
AAXX 04001 12495 12967 82004 10033 20015 39815 40110 56040 60001 8807/ 333 91111 93000
AAXX 04001 12530 11778 81906 10072 20011 39902 40101 56022 69901 76122 885// 333 91011 91114 93097
AAXX 04001 12570 12768 71604 10024 20001 39791 40113 56033 60001 875// 333 93000
AAXX 04001 12580 12970 71909 10049 20019 39874 40135 57037 60001 80002 333 91015 91115 93000
AAXX 04001 15501 12970 02502 10033 20023 30191 40236 58010 60001 333 10083 20030 555 593//
AAXX 04001 15505 12970 01402 10042 20006 39876 40256 54000 60001 333 10064 20040 555 577//
AAXX 04001 15511 12968 00000 10031 20010 30207 40247 58003 60001 333 10092 20031 555 586//
AAXX 04001 15514 12968 00000 10081 20014 30207 40243 57004 60001 333 10106 20080 555 563//
AAXX 04001 15530 11958 00000 11010 21022 30014 40262 58008 60001 71000 333 10025 21014 42004 555 592//
AAXX 04001 15533 12970 00000 10024 20016 30180 40213 58004 60001 333 10040 20016 42001 555 595// 92600
AAXX 04001 15550 12962 00000 10023 20004 30212 40232 58003 60001 333 10058 20019 555 587//
AAXX 04001 15561 12970 02002 10006 21011 30229 40237 52002 60001 222// 329// 4//00 333 10056 20004 555 588// 92012 92418
AAXX 04001 15562 12974 02302 10066 20038 30172 40245 54000 60001 222// 2//00 333 10066 20060 555 582// 92012 92418
AAXX 04001 15600 11989 02308 10014 21034 38359 48559 56001 60001 70200 333 10020 20014 48006 555 572//
AAXX 04001 15601 12970 00000 11044 21063 39632 40285 58004 60001 333 11006 21044 555 585//
AAXX 04001 15605 12968 00000 11039 21039 39401 40285 58005 60001 333 10039 21040 42001 555 598//
AAXX 04001 15613 11989 02304 11001 21062 37763 47123 56004 60001 70200 333 10000 21001 48047 555 563//
AAXX 04001 15628 11958 00000 11067 21083 39999 40273 58005 60001 71000 333 11037 21072 43008 555 588//
AAXX 04001 15642 11958 00000 11014 21016 30083 40259 58009 60001 71000 333 10030 21014 555 599//
AAXX 04001 15661 12970 02702 10034 20013 30208 40245 54000 60001 222// 20000 333 10050 20030 555 586// 92012 92418
AAXX 04001 15726 11983 01502 10027 21062 38305 48563 58007 60002 70200 333 10033 20022 44042 555 552//
AAXX 0400/ 89828 46/// ///// 11233 36488 4//// 5////
AAXX 0400/ 89108 46/// ///// 11219 36918 4//// 5////
AAXX 0400/ 89879 46/// ///// 10025 39750 4//// 5////
AAXX 0400/ 89872 46/// ///// 11025 39780 4//// 5////
AAXX 0400/ 89869 46/// ///// 11031 39791 4//// 5////
AAXX 0400/ 89866 46/// ///// 11018 39749 4//// 5////
AAXX 0400/ 89329 46/// ///// 11078 38747 4//// 5////
AAXX 0400/ 89799 46/// ///// 11231 4//// 5////
AAXX 0400/ 89868 46/// ///// 11043 39781 4//// 5////
AAXX 0400/ 89332 46/// ///// 11043 39227 4//// 5////
AAXX 0400/ 89769 46/// ///// 11035 39809 4//// 5////
AAXX 0400/ 89314 46/// ///// 11101 38208 4//// 5////
AAXX 04004 89667 46/// /1912 11030 29068 39848 4//// 5////
AAXX 0400/ 89828 46/// ///// 11233 36488 4//// 5////
AAXX 0400/ 89872 46/// ///// 11025 39779 4//// 5////
AAXX 04004 71604 NIL
AAXX 04004 71605 17/// /0302 10072 20072 30063 40213 55004 60151 7//4/ 333 10076 20061 70328
AAXX 04004 71611 16/// /3009 11160 21204 60001 333 11127 21160 70000
AAXX 04004 71612 NIL
AAXX 04004 71614 16/// /2807 11169 21230 30142 40211 53022 60001 333 11133 21169 70000
AAXX 04004 71616 16/// /3003 11177 21220 30078 40205 53020 60001 333 11147 21177 70000
AAXX 04004 71617 16/// /2911 11178 21209 30004 40186 52015 60001 333 11178 21202 70000
AAXX 04004 71618 17458 83313 11106 21122 39896 49934 51022 69931 771// 333 11102 21205 70003
AAXX 04004 71619 NIL
AAXX 04004 71622 NIL
AAXX 04004 71632 46/// /3315 11044 21082 39603 40047 51041 6///1 333 11037 21149 7////
AAXX 04004 71634 16/// /3005 11164 21197 39949 40108 53023 60001 333 11089 21164 70000
AAXX 04004 71638 17/// /1216 10089 20063 30090 40195 55000 69951 7//4/ 333 10098 20073 70010
AAXX 04004 71639 12974 02804 11156 21222 30004 40260 51011 60001 333 11140 21168 79999
AAXX 04004 71642 12974 81806 11152 21185 39610 40185 57026 60001 8802/ 333 11152 21263 70000
AAXX 04004 71001 15966 32701 11265 21298 39009 40026 56017 60001 333 11261 21348 70000
AAXX 04004 71002 17656 82907 11124 21146 39468 40012 53032 60001 771// 333 11046 21124 70043
AAXX 04004 71003 17466 82409 11211 21230 39748 40145 51020 60001 771// 333 11140 21213 70000
AAXX 04004 71005 NIL
AAXX 04004 71006 NIL
AAXX 04004 71007 NIL
AAXX 04004 71008 NIL
AAXX 04004 71009 NIL
AAXX 04004 71010 NIL
AAXX 04004 71011 NIL
AAXX 04004 71012 NIL
AAXX 04004 71013 NIL
AAXX 04004 71014 NIL
AAXX 04004 71015 NIL
AAXX 04004 71016 NIL
AAXX 04004 71017 NIL
AAXX 04004 71018 NIL
AAXX 04004 71019 NIL
AAXX 04004 71020 NIL
AAXX 04004 71021 NIL
AAXX 04004 71022 17566 81411 10090 20071 39937 49980 53015 60011 7004/ 333 10090 20040 70123
AAXX 04004 71023 NIL
AAXX 04004 71024 16/// /0402 11096 21124 60001 333 11020 21133 70000
AAXX 04004 71026 NIL
AAXX 04004 71027 16/// /2803 11006 21051 30050 40060 51025 60001 333 10037 21021 70000
AAXX 04004 71028 16/// /1716 10036 20016 39058 40080 56021 60001 333 10068 20025 70000
AAXX 04004 71029 17/// /0105 11272 21301 30128 40169 53016 69931 7//4/ 333 11209 21273 7////
AAXX 04004 71030 16/64 /3409 11091 21142 30016 40107 53034 60001 333 11015 21092 70000
AAXX 04004 71032 46/// /0000 11015 21033 39396 40246 58006 6///1 333 10009 21088 7////
AAXX 04004 71033 46/// /2910 11065 21105 39467 40103 53035 6///1 333 11041 21105 7////
AAXX 04004 71035 NIL
AAXX 04004 71036 15966 02714 11009 21043 39748 40128 51049 60001 333 10033 21103 70000
AAXX 04004 71039 46/// /3302 11282 6///1 333 11246 21297 7////
AAXX 04004 71040 46/// /2808 11183 21217 39959 40168 51013 6///1 333 11183 21203 7////
AAXX 04004 71041 15566 83502 11010 21035 39920 40062 53017 60001 333 10023 21030 70000
AAXX 04004 71042 17/// /0703 10080 20074 30207 40211 55006 60121 7//44 333 10086 20062 70144
AAXX 04004 71044 16/// /1301 11367 21408 39782 40120 58001 60001 333 11241 21367 70013
AAXX 04004 71046 460// /2410 11296 30112 40130 51008 6///1 333 11261 21298 7////
AAXX 04004 71047 NIL
AAXX 04004 71048 NIL
AAXX 04004 71049 NIL
AAXX 04004 71060 NIL
AAXX 04004 71063 NIL
AAXX 04004 71051 NIL
AAXX 04004 71055 NIL
AAXX 04004 71057 NIL
AAXX 04004 71059 460// ///// 11241 30064 40158 51017 6///1 333 11206 21249 7////
AAXX 04004 71061 16/// /2702 11014 21035 39328 40111 51012 60001 333 10006 21057 70000
AAXX 04004 71062 46/// /2804 10024 21042 39042 40105 53019 6///1 333 10048 21021 7////
AAXX 04004 71064 460// /3615 11327 39921 40148 53015 6///1 333 11268 21329 7////
AAXX 04004 71065 NIL
AAXX 04004 71067 NIL
AAXX 04004 71070 NIL
AAXX 04004 71073 NIL
AAXX 04004 71074 NIL
AAXX 04004 71075 NIL
AAXX 04004 71078 NIL
AAXX 04004 71084 460// ///// 11335 30055 40105 51013 6///1 333 11280 21340 7////
AAXX 04004 71085 15966 02532 10044 21074 38817 40198 50008 60001 333 10059 20018 70000
AAXX 04004 71087 NIL
AAXX 04004 71088 460// /3407 11300 58002 6///1 333 11300 21333 7////
AAXX 04004 71089 NIL
AAXX 04004 71096 460// ///// 11312 39220 49982 57008 6///1 333 11303 21313 7////
AAXX 04004 71097 46964 01202 11274 39510 40003 51004 6///1 333 11265 21274 7////
AAXX 04004 71098 43/// /2605 11108 21125 39655 40021 50013 6///1 333 11091 21201 7////
AAXX 04004 71099 43/// /1908 11146 21182 39932 49953 56021 6///1 333 11145 21316 7////
AAXX 04004 71125 12874 70000 11021 21039 39548 40139 51003 60001 86072 333 70000
AAXX 04004 71718 11574 62914 11136 21170 30049 40117 52015 69901 70182 86500 333 11121 21145 48010 70006 90951
AAXX 04004 71043 12983 00000 11302 21350 30037 40136 56003 60001 333 11257 21312 70010
AAXX 04004 71045 16/// /0702 11129 21146 39120 49991 57020 60001 333 11124 21183 70000
AAXX 04004 71050 46/// /0402 10019 21020 39021 40102 51004 6///1 333 10075 21101 7////
AAXX 04004 71051 NIL
AAXX 04004 71052 NIL
AAXX 04004 71066 12974 80000 11115 21151 39688 40116 50002 60001 8807/ 333 11044 21115 70000
AAXX 04004 71068 11556 80102 11025 21039 39395 40089 58012 69921 77122 885// 333 11003 21088 47006 70002 90931
AAXX 04004 71069 16764 31305 11013 21030 39403 40107 58003 60001 333 10022 21094 70000
AAXX 04004 71076 16/// /2809 11115 21140 39725 40125 53038 60001 333 11059 21195 70000
AAXX 04004 71077 16/// /2703 11042 21086 39598 40144 53014 60001 333 11004 21060 70000
AAXX 04004 71079 12574 62812 11050 21071 39739 40022 53030 60001 86500 333 11048 21158 79999
AAXX 04004 71081 46964 03210 11395 21439 30018 40031 58001 6///1 333 11373 21396 7////
AAXX 04004 71082 NIL
AAXX 04004 71083 11458 60816 11196 21231 39954 49997 53015 69941 77172 86500 333 11174 21306 48060 70030 90947
AAXX 04004 71090 46661 33111 11317 21362 39976 40012 58010 6///1 333 11298 21344 7////
AAXX 04004 71091 460// /0308 11332 39787 40007 58003 6///1 333 7////
AAXX 04004 71092 46964 01010 11317 39300 49991 55005 6///1 333 11300 21319 7////
AAXX 04004 71093 460// ///// 11310 39477 49993 56007 6///1 333 11287 21310 7////
AAXX 04004 71094 46064 /3607 11305 39005 49935 57005 6///1 333 11298 21306 7////
AAXX 04004 71095 46964 02103 11370 21409 39953 40038 5/013 6///1 333 7////
AAXX 04004 71101 160// /1407 39956 51011 60001 333 70140
AAXX 04004 71104 12974 71316 10044 21030 39032 40138 53006 60001 84071 333 10046 20014 70000
AAXX 04004 71108 11262 80505 10068 20059 30154 40227 57003 60051 76162 885// 333 10090 20062 70110 90947
AAXX 04004 71109 11562 81116 10070 20050 30060 40086 55004 60091 76166 8657/ 333 10080 20066 70126 90983
AAXX 04004 71450 16/// /1604 11034 21059 39446 40170 58004 60001 333 10041 21037 70000
AAXX 04004 71451 NIL
AAXX 04004 71452 46/// /3207 11027 21045 39469 40185 51036 6///1 333 10059 21065 7//// 555 10010
AAXX 04004 71453 16/// /2310 10050 21039 39256 40166 58004 60001 333 10099 20040 70000
AAXX 04004 71454 16/// /2603 11043 21074 39444 40142 51007 60001 333 10004 21115 70000
AAXX 04004 71455 46/// /2107 11005 21020 39368 40168 58006 6///1 333 10040 21008 7////
AAXX 04004 71456 16/// /2607 11047 21078 39548 40154 51015 60001 333 11007 21067 70000
AAXX 04004 71457 16/// /2308 10052 21040 39250 40136 56006 60001 333 10109 21007 70000
AAXX 04004 71458 16/// /1704 11007 21042 39349 40123 50002 60001 333 10024 21067 70000
AAXX 04004 71459 NIL
AAXX 04004 71460 16/// /0102 11156 21184 39984 40240 58015 60001 333 11152 21216 70000
AAXX 04004 71461 NIL
AAXX 04004 71462 NIL
AAXX 04004 71463 46/// /3109 11136 21218 30035 40270 53016 6///1 333 11097 21143 7////
AAXX 04004 71464 NIL
AAXX 04004 71465 NIL
AAXX 04004 71466 NIL
AAXX 04004 71468 NIL
AAXX 04004 71470 NIL
AAXX 04004 71471 17866 81608 10023 20005 39279 40063 55013 60021 7004/ 333 10042 21083 70015
AAXX 04004 71473 17/// /1724 10081 20051 30170 40200 56008 69921 7//4/ 333 10082 20063 70010
AAXX 04004 71475 17/// /3202 10033 20029 30092 40186 56007 60301 7//4/ 333 10066 20013 70468
AAXX 04004 71476 NIL
AAXX 04004 71477 17/// /1711 10065 20052 69921 7//4/ 333 10079 20046 70190
AAXX 04004 71478 NIL
AAXX 04004 71479 NIL
AAXX 04004 71480 NIL
AAXX 04004 71481 NIL
AAXX 04004 71482 NIL
AAXX 04004 71483 NIL
AAXX 04004 71484 NIL
AAXX 04004 71485 17/// /1243 10069 20056 30042 40062 55003 69941 7//4/ 333 10083 20066 70016
AAXX 04004 71486 16/// /2006 10029 21025 38964 40166 50002 60001 333 10053 21015 70000
AAXX 04004 71487 NIL
AAXX 04004 71489 NIL
AAXX 04004 71490 NIL
AAXX 04004 71491 NIL
AAXX 04004 71492 NIL
AAXX 04004 71493 16/// /3207 11040 21093 30042 40081 53023 60001 333 10012 21040 70003
AAXX 04004 71494 NIL
AAXX 04004 71495 NIL
AAXX 04004 71496 16/// /1703 11009 21041 39539 40156 51002 60001 333 10033 21069 70000
AAXX 04004 71497 46/// /0612 11134 21180 39828 40098 58013 6///1 333 11066 21139 7////
AAXX 04004 71498 NIL
AAXX 04004 71499 15966 02810 11061 21104 39467 40101 53036 60001 333 11038 21101 70000
AAXX 04004 71900 46/// /34// 11031 21040 39933 49946 53049 6///1 333 11026 21090 7////
AAXX 04004 71903 NIL
AAXX 04004 71904 NIL
AAXX 04004 71914 16/// /0205 10082 20061 39989 40211 55002 60001 333 10086 20062 70009
AAXX 04004 71916 NIL
AAXX 04004 71918 460// ///// 11320 6///1 333 7////
AAXX 04004 71920 NIL
AAXX 04004 71921 NIL
AAXX 04004 71923 NIL
AAXX 04004 71927 17/// /2702 10075 20066 30147 40205 55004 60041 7//4/ 333 10083 20045 70091
AAXX 04004 71941 15966 02304 11239 21260 39784 40231 58001 60001 333 11210 21273 70000
AAXX 04004 71947 15966 02005 11272 21291 39837 40209 57008 60001 333 11216 21280 70001
AAXX 04004 71851 16/// /2807 11002 21037 39781 40119 51053 60001 333 10047 21121 70003
AAXX 04004 71857 NIL
AAXX 04004 71860 12680 72312 10068 21057 38757 40146 56001 60001 81571 333 10086 21010 70000
AAXX 04004 71876 15966 01806 11035 21055 39489 40163 55002 60001 333 10036 21083 70000
AAXX 04004 71885 NIL
AAXX 04004 71886 NIL
AAXX 04004 71888 NIL
AAXX 04004 71890 16/// /0505 11165 21211 30073 40101 51013 60001 333 11145 21171 70000
AAXX 04004 71895 NIL
AAXX 04004 71201 17/// ///// 10084 20063 60111 7//4/ 333 10085 20072 70224
AAXX 04004 71202 16/// ///// 10000 21037 60001 333 10045 21047 70005
AAXX 04004 71203 15866 81203 10028 21015 39736 40264 54000 60001 333 10042 21007 70000
AAXX 04004 71209 46/// /1220 10085 6///1 333 10088 20069 7////
AAXX 04004 71211 46/// /3407 10068 20056 30203 40215 55003 6///1 333 10073 20059 7////
AAXX 04004 71212 NIL
AAXX 04004 71213 46/// /1405 11239 21258 39904 40226 58009 6///1 333 11194 21263 7////
AAXX 04004 71214 NIL
AAXX 04004 71215 46/// /1608 10030 21025 39927 40278 55002 6///1 333 10033 21001 7////
AAXX 04004 71216 NIL
AAXX 04004 71217 NIL
AAXX 04004 71218 16/// /1203 10033 21010 39821 40254 50005 60001 333 10037 20002 70000
AAXX 04004 71219 46/// /1524 10070 20052 39976 49982 52012 6///1 333 10074 20040 7////
AAXX 04004 71220 46/// /1419 10080 20066 6///1 333 10092 20047 7////
AAXX 04004 71221 NIL
AAXX 04004 71222 17/// /0601 11082 21093 39023 49993 55004 69931 7//4/ 333 11078 21139 70003
AAXX 04004 71223 NIL
AAXX 04004 71224 NIL
AAXX 04004 71225 NIL
AAXX 04004 71226 NIL
AAXX 04004 71227 NIL
AAXX 04004 71228 NIL
AAXX 04004 71229 NIL
AAXX 04004 71230 17/// /1303 10014 21006 39180 40068 55012 69961 7//4/ 333 10017 21022 70006
AAXX 04004 71231 16/// /2309 10064 21056 60001 333 10108 20016 70000
AAXX 04004 71232 16/// /2513 10051 21069 38648 40134 58002 60001 333 10068 20031 70000
AAXX 04004 71233 NIL
AAXX 04004 71234 16/// /2411 10081 21063 38991 40171 53009 60001 333 10093 20013 70000
AAXX 04004 71235 16/// /2614 10069 21046 60001 333 10086 20029 70000
AAXX 04004 71236 46/// /3117 10026 21068 6///1 333 10057 20011 7////
AAXX 04004 71237 46/// /1402 10027 21023 39313 40126 56002 6///1 333 10084 21023 7////
AAXX 04004 71238 16/// /1901 10002 21037 60001 333 10062 21057 70000
AAXX 04004 71239 16/// /3115 10001 21037 39670 40135 51065 60001 333 10055 21085 70000
AAXX 04004 71240 16/// ///// 10031 21022 39299 40145 55006 60001 333 10074 21012 70000
AAXX 04004 71241 NIL
AAXX 04004 71242 16/// /0000 11008 21036 60001 333 10036 21070 70000 555 10020
AAXX 04004 71243 NIL
AAXX 04004 71244 16/// /2209 10045 21071 38970 40197 53008 60001 333 10102 20023 70000 555 10010
AAXX 04004 71245 NIL
AAXX 04004 71246 NIL
AAXX 04004 71247 15966 02215 10063 21036 39311 40161 57006 60001 333 10107 20036 70000
AAXX 04004 71248 16/// /2309 10065 21053 38837 40138 53010 60001 333 10093 21083 70000
AAXX 04004 71249 NIL
AAXX 04004 71250 NIL
AAXX 04004 71251 16/// /2426 10079 21065 39244 40165 55001 60001 333 10104 20018 70000
AAXX 04004 71252 NIL
AAXX 04004 71253 46/// /0703 11118 21123 6///1 333 11083 21137 7////
AAXX 04004 71254 16/// /2102 10000 21033 60001 333 10034 21065 70000
AAXX 04004 71255 16/// /1803 11060 21102 60001 333 11021 21064 70000
AAXX 04004 71256 46/// /2704 10026 21008 39180 40115 53004 6///1 333 10029 21047 7////
AAXX 04004 71257 NIL
AAXX 04004 71258 NIL
AAXX 04004 71259 NIL
AAXX 04004 71261 16/// /1609 11137 21179 39974 40247 50001 60001 333 11089 21149 70012 555 10020
AAXX 04004 71263 13060 02704 11151 21205 39958 40263 50011 69901 80000 333 11117 21151 4-4002 70006
AAXX 04004 71264 16/// /3308 11006 21051 30034 40066 53023 60001 333 10051 21006 70000
AAXX 04004 71265 15966 02907 11123 21191 30165 40264 52012 60001 333 11122 21137 70000
AAXX 04004 71266 NIL
AAXX 04004 71267 15966 62520 10075 21074 39100 40190 53004 60001 333 10095 20049 70000
AAXX 04004 71268 NIL
AAXX 04004 71269 NIL
AAXX 04004 71270 NIL
AAXX 04004 71271 16/// ///// 10009 21024 60001 333 10033 21036 70000
AAXX 04004 71272 17566 83215 11062 21090 39635 49990 51040 60001 771// 333 11056 21162 70000
AAXX 04004 71273 16/// /1701 11017 21042 39472 40136 53005 60001 333 10022 21081 70000
AAXX 04004 71274 NIL
AAXX 04004 71275 NIL
AAXX 04004 71276 NIL
AAXX 04004 71277 NIL
AAXX 04004 71278 NIL
AAXX 04004 71279 16/// /3007 11153 21184 39997 40065 51029 60001 333 11097 21155 70003
AAXX 04004 71281 NIL
AAXX 04004 71282 46/// /0201 11173 21194 39967 40253 52004 6///1 333 11164 21206 7////
AAXX 04004 71283 NIL
AAXX 04004 71284 16/// ///// 11001 21028 60001 333 10018 21041 70000
AAXX 04004 71285 NIL
AAXX 04004 71286 NIL
AAXX 04004 71287 NIL
AAXX 04004 71288 NIL
AAXX 04004 71289 NIL
AAXX 04004 71290 17466 81511 10020 20013 39246 40072 53005 60081 76144 333 10019 21051 70118
AAXX 04004 71291 16/// /1810 11058 21094 39781 40085 56018 60001 333 11056 21240 70000
AAXX 04004 71292 15966 02914 11016 21041 39544 40157 51035 60001 333 10012 21082 70000
AAXX 04004 71294 16/// /0000 11220 21241 39811 40240 53014 60001 333 11160 70000 555 10010
AAXX 04004 71295 NIL
AAXX 04004 71296 NIL
AAXX 04004 71297 16/// /2401 11141 21193 60001 333 11109 21141 70000
AAXX 04004 71298 NIL
AAXX 04004 71299 NIL
AAXX 04004 71812 46864 80309 11162 21184 39940 49954 53026 6///1 333 11153 21187 7////
AAXX 04004 71819 15566 82415 11018 21059 39971 40012 53031 60001 333 10015 21019 70048
AAXX 04004 71820 16/// /2905 11147 21209 30123 40244 51022 60001 333 11128 21154 70000
AAXX 04004 71823 16464 82407 11235 21267 39749 40147 52020 60001 333 11153 21238 70010
AAXX 04004 71824 46/// /2502 11268 21297 6///1 333 11206 21269 7////
AAXX 04004 71826 16/// /0000 11292 21338 39956 40002 54000 60001 333 11258 21296 70000
AAXX 04004 71829 16/// /2712 11163 21208 39919 40086 51009 60001 333 11143 21168 70000
AAXX 04004 71833 46/// /2703 11164 21202 6///1 333 11143 21170 7////
AAXX 04004 71835 16/// /2509 11115 21156 39548 40041 53002 60001 333 11097 21263 70000
AAXX 04004 71837 NIL
AAXX 04004 71839 NIL
AAXX 04004 71840 46/// /3013 10018 21030 6///1 333 10055 21123 7////
AAXX 04004 71846 16/// /2206 11130 21160 39711 40038 56012 60001 333 11130 21298 70000
AAXX 04004 71847 NIL
AAXX 04004 71848 NIL
AAXX 04004 71849 16/// /2910 11062 21084 39809 40114 52054 60001 333 10004 21120 70000
AAXX 04004 71397 11574 83210 11041 21088 30053 40088 51019 69901 70282 885// 333 10031 21044 45997 79999 90941
AAXX 04004 71400 16/64 /0401 11016 21033 60001 333 10016 21019 70042
AAXX 04004 71403 46/// /3616 10002 21021 30040 40060 51027 6///1 333 10055 20002 7////
AAXX 04004 71411 16/// /3408 11017 21056 30054 40067 51016 60001 333 10058 21017 70000
AAXX 04004 71412 16/// /3108 11022 21067 30061 40071 53017 60001 333 10008 21023 70000
AAXX 04004 71421 NIL
AAXX 04004 71430 16/// /3309 11138 21214 30143 40245 51019 60001 333 11119 21149 70000
AAXX 04004 71431 NIL
AAXX 04004 71432 NIL
AAXX 04004 71433 NIL
AAXX 04004 71435 NIL
AAXX 04004 71441 46/// /3309 11015 21047 39798 40111 53060 6///1 333 10053 21134 7////
AAXX 04004 71443 NIL
AAXX 04004 71444 16/// /2904 11017 21054 39371 40140 51054 60001 333 10032 21139 70000
AAXX 04004 71447 16/// /3013 10006 21027 39619 40170 51061 60001 333 10051 21073 70000
AAXX 04004 71467 16/// /0915 11240 21262 30053 40172 51018 60001 333 11199 21258 70020 555 10020
AAXX 04004 71472 NIL
AAXX 04004 71474 16664 81711 10044 21028 38933 40173 53006 60001 333 10054 21028 70000
AAXX 04004 71510 16/// /2107 11003 21036 39442 40151 56007 60001 333 10041 21007 70010
AAXX 04004 71538 11974 50000 11071 21130 30021 40260 50002 69901 70181 85010 333 11057 21079 42997 70002 90962
AAXX 04004 71600 164// 80103 10037 20023 30046 40052 53007 60001 333 10065 20027 70015
AAXX 04004 71601 NIL
AAXX 04004 71816 11574 52615 11080 21111 39923 49984 53032 69901 73682 82570 333 10000 21081 43096 70044 90936
AAXX 04004 71817 NIL
AAXX 04004 71818 11574 72310 11022 21050 39930 49948 53024 69901 70272 87500 333 10026 21025 44022 70008 90940
AAXX 04004 71822 11566 62705 11236 21281 39692 40197 52018 69901 70371 86500 333 11205 21251 43049 70012 90943
AAXX 04004 71825 11574 43210 11143 21175 39366 40052 52037 69921 77671 84500 333 11039 21150 48117 70010 90962
AAXX 04004 71827 11974 81807 11232 21268 39883 40140 58017 69901 77677 80007 333 11212 21248 48018 70006 90983
AAXX 04004 71828 17564 83311 11165 21183 39394 40046 51036 69951 7//44 333 11117 21166 70020
AAXX 04004 71831 12574 81709 11176 21221 39874 40171 58030 60001 8351/ 333 11176 21263 79999
AAXX 04004 71832 NIL
AAXX 04004 71834 11674 82212 11069 21107 39641 40086 55026 69901 72222 885// 333 11068 21304 48035 79999 90912
AAXX 04004 71841 NIL
AAXX 04004 71842 12974 62304 11089 21149 39587 40071 53009 60001 82071 333 11076 21247 70000
AAXX 04004 71844 NIL
AAXX 04004 71845 12874 22205 11117 21160 39557 40047 53002 60001 81071 333 11097 21265 70000
AAXX 04004 71850 12974 02506 11065 21103 39568 40078 53024 60001 333 11052 21186 79999
AAXX 04004 71852 16964 32911 11061 21084 39810 40110 52054 60001 333 10006 21120 70005
AAXX 04004 71854 12974 22305 11103 21143 39576 40061 52020 60001 82030 333 11079 21204 70000
AAXX 04004 71858 NIL
AAXX 04004 71861 16/// /2908 11017 21048 39432 40159 51034 60001 333 10047 21017 70000
AAXX 04004 71862 12974 13207 11003 21032 39486 40194 51040 60001 80001 333 10048 21033 70000
AAXX 04004 71863 46864 33009 11031 21058 39476 40181 51021 6///1 333 10024 21074 7////
AAXX 04004 71401 16/// /1502 10002 21021 39605 40305 58002 60001 333 10006 21029 70000
AAXX 04004 71402 NIL
AAXX 04004 71404 NIL
AAXX 04004 71405 NIL
AAXX 04004 71406 NIL
AAXX 04004 71407 NIL
AAXX 04004 71408 NIL
AAXX 04004 71409 NIL
AAXX 04004 71410 15966 02707 11067 21090 39777 40061 53032 60001 333 11067 21156 70000
AAXX 04004 71413 NIL
AAXX 04004 71414 NIL
AAXX 04004 71415 16/// /3210 11016 21065 30070 40073 53023 60001 333 10014 21018 70000
AAXX 04004 71417 NIL
AAXX 04004 71418 NIL
AAXX 04004 71419 46/// /3414 10018 20002 30047 40057 51016 6///1 333 10042 20006 7////
AAXX 04004 71423 NIL
AAXX 04004 71424 46/// /2612 6///1 333 7////
AAXX 04004 71425 16/// /2718 11111 21154 30027 40064 51011 60001 333 11079 21118 70000
AAXX 04004 71426 NIL
AAXX 04004 71427 16/// /2712 11139 21181 30084 40092 51018 60001 333 11104 21141 70010
AAXX 04004 71428 16/// /2917 11106 21143 30080 40086 52016 60001 333 11081 21133 70086
AAXX 04004 71429 16/// /2608 11132 21173 30044 40064 53019 60001 333 11076 21134 70000
AAXX 04004 71434 NIL
AAXX 04004 71436 15966 03004 11157 21201 30003 40251 51015 60001 333 11136 21162 70000
AAXX 04004 71437 NIL
AAXX 04004 71438 NIL
AAXX 04004 71439 NIL
AAXX 04004 71440 NIL
AAXX 04004 71442 NIL
AAXX 04004 71445 NIL
AAXX 04004 71446 NIL
AAXX 04004 71448 16/// /3005 11057 21099 39754 40090 51045 60001 333 11017 21142 70000
AAXX 04004 71449 NIL
AAXX 04004 71665 17/// /3216 11059 21078 39969 49979 53054 69961 7//4/ 333 11023 21110 70025 555 10030
AAXX 04004 71666 16/// /3008 11105 21155 30049 40095 51030 60001 333 11043 21105 70000
AAXX 04004 71667 NIL
AAXX 04004 71668 16/// /3011 11123 21182 30080 40125 53039 60001 333 11069 21123 70000
AAXX 04004 71669 NIL
AAXX 04004 71670 16/// ///// 11124 21171 60001 333 11055 21124 70000
AAXX 04004 71671 16/// /3108 11031 21075 30015 40076 53018 60001 333 10021 21031 70000
AAXX 04004 71672 16/// /2402 11196 21237 39966 40246 51013 60001 333 11134 21196 70000
AAXX 04004 71673 NIL
AAXX 04004 71674 NIL
AAXX 04004 71675 17966 /2511 11103 21138 39705 49989 58009 60041 7004/ 333 11102 21270 70090
AAXX 04004 71679 16/// /1607 10038 20015 39038 40040 53016 60001 333 10043 20004 70014
AAXX 04004 71680 NIL
AAXX 04004 71681 46/// /2108 10106 21007 6///1 333 10124 21025 7////
AAXX 04004 71682 NIL
AAXX 04004 71683 NIL
AAXX 04004 71684 15966 01305 11236 21257 39907 40230 58009 60001 333 11196 21260 70000
AAXX 04004 71685 17440 81402 11008 21008 39739 40291 52004 60051 7714/ 333 11006 21032 70063
AAXX 04004 71686 469// /0502 11073 21083 39023 49977 55004 6///1 333 11070 21126
AAXX 04004 71687 17/// /0401 10005 20000 39421 40208 55000 60041 7//4/ 333 10035 20002 70049
AAXX 04004 71688 16/// /0000 10000 20000 39160 40200 55000 60001 333 10021 20000 70024
AAXX 04004 71689 15966 02102 11043 21073 39669 40128 50011 60001 333 11016 21058 70000
AAXX 04004 71690 NIL
AAXX 04004 71691 15966 02906 11165 21206 30076 40104 51012 60001 333 11143 21170 70000
AAXX 04004 71692 NIL
AAXX 04004 71694 16/// /0000 11235 21257 39873 40262 51005 60001 333 11174 21236 70000
AAXX 04004 71695 16/// /2813 11008 21070 39750 40088 51028 60001 333 11006 21122 70000
AAXX 04004 71696 16/// /3209 11107 21123 39893 49930 52023 60001 333 11104 21207 70008
AAXX 04004 71697 15966 02905 11158 21209 30077 40258 51013 60001 333 11138 21167 70000
AAXX 04004 71699 16/// /3308 11103 21159 30104 40112 51038 60001 333 11029 21103 70000
AAXX 04004 71864 NIL
AAXX 04004 71865 16/// /2607 11022 21054 39476 40162 51021 60001 333 10013 21024 70000
AAXX 04004 71866 46964 31603 11006 21048 39543 40163 51003 6///1 333 10034 21066 7////
AAXX 04004 71867 12874 13212 11009 21063 39753 40091 51027 60001 81070 333 11007 21124 79999
AAXX 04004 71868 NIL
AAXX 04004 71869 12974 70000 11052 21071 39619 40153 51008 60001 80001 333 10017 21122 70000
AAXX 04004 71871 15966 02009 11016 21051 39330 40139 55005 60001 333 10032 21037 70000
AAXX 04004 71877 12586 72812 10091 21053 38888 40147 53006 60001 81570 333 10097 20029 70000
AAXX 04004 71878 12974 70000 10029 21023 39063 40137 53008 60001 86071 333 10038 21074 70000
AAXX 04004 71879 16964 02004 10014 21051 39314 40120 50006 69951 333 10053 21047 70005
AAXX 04004 71880 12682 71510 10040 21021 39163 40288 53007 60001 82570 333 10051 21056 70000
AAXX 04004 71882 160// /0000 11007 21012 39740 40292 52004 60081 333 11007 21034 70115
AAXX 04004 71883 46/// /1701 10005 20002 39402 40235 58003 6///1 333 10021 21054 7////
AAXX 04004 71887 NIL
AAXX 04004 71889 12874 71719 10037 21028 39842 40266 51003 60001 86071 333 10044 20016 70000
AAXX 04004 71891 16764 32119 10069 20043 39914 40188 50006 60001 333 10113 20022 70005
AAXX 04004 71892 11562 80916 10081 20069 30211 40216 56006 60091 76366 8652/ 333 10086 20069 70128 90973
AAXX 04004 71150 46/// /2907 11040 21062 39457 40147 51051 6///1 333 10003 21106 7////
AAXX 04004 71151 NIL
AAXX 04004 71152 16/// /2110 10032 20019 30037 40050 53015 60001 333 10034 20021 70017
AAXX 04004 71153 16/// /2615 10074 21081 60001 333 10082 20035 70000
AAXX 04004 71154 16/// /2322 10044 21076 60001 333 10064 20024 70000
AAXX 04004 71155 NIL
AAXX 04004 71156 NIL
AAXX 04004 71157 46/// ///// 10012 21028 6///1 333 10052 21040 7////
AAXX 04004 71158 NIL
AAXX 04004 71159 NIL
AAXX 04004 71160 NIL
AAXX 04004 71161 NIL
AAXX 04004 71162 NIL
AAXX 04004 71163 46/// /2605 11243 21264 39788 40143 51018 6///1 333 11149 21250 7////
AAXX 04004 71164 NIL
AAXX 04004 71165 NIL
AAXX 04004 71166 NIL
AAXX 04004 71167 15866 82002 10020 21030 39017 40118 50000 60001 333 10030 21072 70000
AAXX 04004 71168 NIL
AAXX 04004 71170 NIL
AAXX 04004 71171 16/// /2506 11126 21190 30153 40256 53011 60001 333 11085 21135 70000
AAXX 04004 71172 16/// ///// 11175 21204 30007 40238 58001 60001 333 11154 21220 70000
AAXX 04004 71175 46/// /3308 10000 21020 30028 53021 6///1 333 7////
AAXX 04004 71176 460// /2911 11183 39304 49996 51023 6///1 333 11133 21188 7////
AAXX 04004 71177 460// ///// 11120 38953 49954 53048 6///1 333 11077 21135 7////
AAXX 04004 71178 16/// /2106 10013 21008 30022 40054 50000 60001 333 10037 20012 70034
AAXX 04004 71179 460// /2312 11105 39104 49926 53030 6///1 333 11081 21105 7////
AAXX 04004 71180 16/// /3107 11008 21048 30027 40066 51021 60001 333 10028 21008 70000
AAXX 04004 71181 16964 00803 11001 21014 30000 40036 5/011 60001 333 70180
AAXX 04004 71183 16/// /2913 30178 53024 60001 333 70000
AAXX 04004 71184 46/// /2910 11159 21218 6///1 333 11128 21159 7////
AAXX 04004 71186 NIL
AAXX 04004 71187 17636 80601 10058 20057 30186 40234 58004 60001 762// 333 10075 20031 70000
AAXX 04004 71189 NIL
AAXX 04004 71190 NIL
AAXX 04004 71191 16/// ///// 11083 21137 60001 333 11009 21083 70000
AAXX 04004 71192 15966 81207 10068 21021 39452 40107 53007 60001 333 10071 20016 70000
AAXX 04004 71193 16/// /1807 11207 21234 39811 40197 56022 60001 333 11190 21265 70000
AAXX 04004 71196 16/// /2803 11213 21247 30036 40248 53013 60001 333 11188 21227 70000
AAXX 04004 71197 17564 83113 11008 21040 30010 40059 50016 60001 745// 333 10026 21008 70000
AAXX 04004 71198 46/// /2909 11154 21210 6///1 333 11140 21159 7////
AAXX 04004 71199 46/// /3102 11149 21165 39195 40048 55016 6///1 333 11149 21226 7////
AAXX 04004 71726 16/// /2805 11246 21274 39633 40211 53015 60001 333 11228 21259 70000
AAXX 04004 71727 11559 83012 11180 21214 39967 40174 51014 69921 77177 885// 333 11172 21186 48049 70002 90973
AAXX 04004 71728 11580 82906 11182 21242 39949 40182 52016 60011 77177 885// 333 11181 21211 44002 70010 90973 93101
AAXX 04004 71730 12474 71606 11212 21253 39778 40232 58011 60001 81552 333 11187 21257 79999
AAXX 04004 71731 12974 02702 11218 21263 39755 40238 58001 60001 333 11200 21277 70008
AAXX 04004 71735 NIL
AAXX 04004 71738 11569 81608 11106 21125 39786 40156 58039 69901 77171 885// 333 11106 21257 47026 79999 90942
AAXX 04004 71739 42974 21808 11199 21245 39811 40197 57023 6//// 82070 333 11187 21257 4//// 7////
AAXX 04004 71749 16964 02604 11078 21128 39833 40087 58014 69951 333 11040 21240 70005
AAXX 04004 71799 11474 81409 10093 20073 30181 40205 55004 60021 76166 885// 333 10097 20061 70062 90973
AAXX 04004 71800 17/// /0909 10014 20014 30030 40063 58009 69981 7//4/ 333 10043 20012 70008
AAXX 04004 71801 11574 81205 10000 21003 39888 40060 58021 69921 78586 885// 333 10041 20000 41997 70108 90927
AAXX 04004 71803 12980 81909 10001 21042 39871 40057 51009 60001 86017 333 10019 20000 70022
AAXX 04004 71807 NIL
AAXX 04004 71808 11574 82524 11034 21076 39969 40015 53022 69901 77122 885// 333 10017 21034 70054 90931
AAXX 04004 71809 12674 72303 10001 21047 30023 40050 52020 60001 87500 333 10031 21007 70006
AAXX 04004 71810 NIL
AAXX 04004 71811 NIL
AAXX 04004 71813 16/// /2313 11067 21096 30023 40037 53027 60001 333 11034 21071 70000
AAXX 04004 71814 16/// /2711 11059 21089 30025 40035 53032 60001 333 11016 21059 70008
AAXX 04004 71815 12474 73010 10000 21040 30026 40057 53018 60001 87500 333 10014 20000 41997 70011
AAXX 04004 71114 160// /0000 10058 20055 30186 40234 56005 60051 333 10076 20032 70290
AAXX 04004 71120 12874 60000 11021 21054 39475 40140 50000 60001 86071 333 11014 21073 70000
AAXX 04004 71122 46/// /2511 10018 21055 38596 40208 50003 6///1 333 10041 7////
AAXX 04004 71123 12974 71706 11029 21064 39256 40131 51007 60001 82032 333 10017 21076 70000
AAXX 04004 71125 12874 80000 11021 21039 39548 40139 51003 60001 86072 333 70000
AAXX 04004 71129 12874 21607 10009 21022 39321 40153 55005 60001 81071 333 10057 21008 70000
AAXX 04004 71131 16/// /2410 11001 21035 38927 40191 56003 60001 333 10034 21015 70000
AAXX 04004 71135 16/// /2409 10007 21031 39112 40203 51017 60001 333 10050 20004 70000
AAXX 04004 71137 NIL
AAXX 04004 71140 12974 02912 11015 21038 39647 40156 5/064 60001 333 10026 21120 70000
AAXX 04004 71145 12574 12811 11097 21120 39728 40027 53025 60001 81501 333 11086 21186 70000
AAXX 04004 71148 16/// /3117 11004 21034 39554 40141 53062 60001 333 10050 21104 70000
AAXX 04004 71185 16564 62418 11009 30009 40033 53016 60001 333 10016 21011 70010
AAXX 04004 71188 12574 82706 11124 21173 30028 40072 53026 60001 885// 333 11009 21124 70000
AAXX 04004 71200 16/// /3605 10083 20061 60001 333 10089 20061 70020
AAXX 04004 71207 47/// /3301 10048 30152 40217 6///1 7//4/ 333 10072 20025 7////
AAXX 04004 71260 13/// ///// 11107 21133 39947 40195 58035 60001 333 11107 21252 70004
AAXX 04004 71700 15566 82807 11122 21181 30102 40128 53040 60001 333 11061 21122 70000
AAXX 04004 71701 12574 83008 11121 21178 30064 40128 52043 60001 885// 333 11066 21121 70000
AAXX 04004 71702 NIL
AAXX 04004 71703 NIL
AAXX 04004 71704 17966 01706 11124 21144 30028 40259 51004 60021 7004/ 333 11075 21124 70101
AAXX 04004 71710 NIL
AAXX 04004 71712 16/// /2708 11171 21219 30169 40235 53024 60001 333 11141 21171 70000
AAXX 04004 71713 NIL
AAXX 04004 71716 NIL
AAXX 04004 71717 NIL
AAXX 04004 71720 17/// /1013 10076 20060 30026 40179 56011 60081 7//4/ 333 10080 20068 70081
AAXX 04004 71721 NIL
AAXX 04004 71723 NIL
AAXX 04004 71724 16/// /3007 11167 21229 30196 40204 53022 60001 333 11142 21167 70010
AAXX 04004 71732 NIL
AAXX 04004 71733 16/// /1708 11207 21234 39771 40242 58010 60001 333 11189 21261 70003
AAXX 04004 71734 NIL
AAXX 04004 71736 NIL
AAXX 04004 71737 NIL
AAXX 04004 71741 16/// /1119 10062 21016 39786 40209 52005 60001 333 10066 20021 70000
AAXX 04004 71742 NIL
AAXX 04004 71743 NIL
AAXX 04004 71744 NIL
AAXX 04004 71745 NIL
AAXX 04004 71746 NIL
AAXX 04004 71747 NIL
AAXX 04004 71748 NIL
AAXX 04004 71102 NIL
AAXX 04004 71105 NIL
AAXX 04004 71107 NIL
AAXX 04004 71110 NIL
AAXX 04004 71111 17966 01607 10078 20060 39958 49966 53011 69951 7004/ 333 10101 20031
AAXX 04004 71112 17/// ///// 60101 7//4/ 333 70178
AAXX 04004 71113 17/// /1902 10063 20060 30202 40226 58009 60061 7//4/ 333 10078 20028 70260
AAXX 04004 71115 NIL
AAXX 04004 71116 16/// /2410 10064 21078 39098 40191 50003 60001 333 10102 20029 70000
AAXX 04004 71118 16/// /1905 10013 21032 39301 40127 56010 60001 333 10052 21015 70000
AAXX 04004 71121 16964 02204 10011 21071 39294 40120 50007 60001 333 10047 21038 70000
AAXX 04004 71127 16/// /2105 10013 21037 39205 40111 51009 60001 333 10035 21012 70000
AAXX 04004 71130 15966 02309 11023 21070 39676 40139 51018 60001 333 10017 21107 70000
AAXX 04004 71132 17566 82807 11090 21125 39780 40099 51047 60001 771// 333 11046 21173 70000
AAXX 04004 71133 NIL
AAXX 04004 71139 NIL
AAXX 04004 71141 NIL
AAXX 04004 71142 NIL
AAXX 04004 71143 NIL
AAXX 04004 71144 NIL
AAXX 04004 71147 16/// /3108 11002 21044 60001 333 10065 21128 70000
AAXX 04004 71149 NIL
AAXX 04004 71550 NIL
AAXX 04004 71551 NIL
AAXX 04004 71552 46/// /2607 11078 21094 6///1 333 11039 21136 7////
AAXX 04004 71553 NIL
AAXX 04004 71554 16/// /2913 11134 21178 30118 40124 51015 60001 333 11118 21142 70000
AAXX 04004 71555 16/// /2617 10064 21057 38605 40160 55000 60001 333 10080 20023 70000
AAXX 04004 71556 16/// /2407 11004 21027 39559 40167 50014 60001 333 10032 21044 70000
AAXX 04004 71557 46/// /0905 10061 20003 6///1 333 10085 21027 7////
AAXX 04004 71558 46/// ///// 11019 21060 39967 40003 53030 6///1 333 10014 21020 7////
AAXX 04004 71559 46/// /3207 10001 21027 39483 40190 51043 6///1 333 10048 21031 7////
AAXX 04004 71560 46/// /3314 11018 21054 39804 40112 6///1 333 10035 21134 7////
AAXX 04004 71563 NIL
AAXX 04004 71564 NIL
AAXX 04004 71565 NIL
AAXX 04004 71566 NIL
AAXX 04004 71567 NIL
AAXX 04004 71568 17/// /1410 10073 20050 30138 40150 56007 60201 7//4/ 333 10082 20063 70292
AAXX 04004 71569 16/// /2503 11018 21038 39463 40168 51025 60001 333 10041 21059 70000
AAXX 04004 71570 16/// /2903 11067 21108 39776 40094 51045 60001 333 11028 21142 70000
AAXX 04004 71571 NIL
AAXX 04004 71572 NIL
AAXX 04004 71573 16/// /2102 11166 21209 39958 40255 51006 60001 333 11112 21175 70003
AAXX 04004 71574 12574 82607 11155 21197 30032 40107 52021 60001 88500 333 11079 21160 79999
AAXX 04004 71575 NIL
AAXX 04004 71576 NIL
AAXX 04004 71577 NIL
AAXX 04004 71578 16/// /2411 11178 21234 60001 333 11152 21178 70000
AAXX 04004 71579 16/// /3003 11033 21079 39813 40101 51055 60001 333 10003 21121 70000
AAXX 04004 71580 11574 50000 11387 30030 40069 58003 69901 77677 85500 333 11383 21405 43030 79999 90983
AAXX 04004 71581 NIL
AAXX 04004 71582 17564 81709 10088 20079 30006 40058 53014 60071 76144 333 10100 20052 70170
AAXX 04004 71583 NIL
AAXX 04004 71584 17561 82809 11080 21103 39988 40035 52027 60001 771// 333 11045 21080 70005
AAXX 04004 71585 NIL
AAXX 04004 71586 16/// /2804 11036 21070 39656 40127 51024 60001 333 11005 21140 70000
AAXX 04004 71587 NIL
AAXX 04004 71588 16/// /2305 11018 21049 60001 333 10021 21018 70000
AAXX 04004 71589 16/// /2203 10004 21017 39920 40052 53005 60001 333 10021 20004 70036
AAXX 04004 71590 16/// /3201 11190 21225 39933 40132 53024 60001 333 11130 21190 70000
AAXX 04004 71592 NIL
AAXX 04004 71593 NIL
AAXX 04004 71596 NIL
AAXX 04004 71598 16/48 /2916 11117 21155 30082 40088 53018 60001 333 11061 21124 70000
AAXX 04004 71599 NIL
AAXX 04004 71603 11569 83613 11031 21083 30034 40087 50020 69921 78582 885// 333 10030 21033 45997 70004 90962
AAXX 04004 71607 16/// /3207 11120 21171 30092 40125 53036 60001 333 11046 21120 70000
AAXX 04004 71609 12774 43314 11110 21174 39971 40108 50032 60001 81510 333 11030 21110 70000
AAXX 04004 71610 15966 02904 11173 21213 39878 40188 53022 60001 333 11132 21173 70000
AAXX 04004 71621 12974 03007 11152 21225 30139 40251 52018 60001 333 11127 21159 79999
AAXX 04004 71623 NIL
AAXX 04004 71624 12974 02805 11139 21208 30035 40258 51009 60001 333 11138 21165 79999
AAXX 04004 71625 16964 02704 11204 21258 30079 40251 53011 60001 333 11184 21223 70000
AAXX 04004 71627 12574 12912 11169 21248 30174 40221 53023 60001 81100 333 11139 21169 79999
AAXX 04004 71628 13560 32810 11192 21244 30091 40241 53002 60001 83500 333 11169 21193 79999
AAXX 04004 71630 NIL
AAXX 04004 71631 NIL
AAXX 04004 71633 11474 61807 11132 21175 39956 40241 58006 69901 77181 86500 333 11129 21162 48012 70027 90927
AAXX 04004 71705 12674 63008 11099 21148 30005 40094 53028 60001 82501 333 11033 21099 70000
AAXX 04004 71706 12774 63305 11047 21106 30025 40086 53023 60001 82570 333 11008 21049 70002
AAXX 04004 71707 12674 83104 10004 21015 39984 40061 53018 60001 885// 333 10026 21027 79999
AAXX 04004 71709 12574 33015 11045 21081 30054 40067 51014 60001 83500 333 10006 21014 70000
AAXX 04004 71711 NIL
AAXX 04004 71714 16/// /2609 11190 21243 30103 40200 52017 60001 333 11158 21190 70000
AAXX 04004 71715 16/// /3207 11169 21217 39951 40141 51013 60001 333 11151 21177 70000
AAXX 04004 71718 11574 62914 11136 21170 30049 40117 52015 69901 70182 86500 333 11121 20145 48010 70006 90951
AAXX 04004 71719 16/// /2812 11127 21169 30080 40086 53023 60001 333 11055 21127 70000
AAXX 04004 71950 17766 31512 10030 20023 39395 40019 51013 60021 7004/ 333 10031 21032 70025
AAXX 04004 71952 17/// /0703 10022 20017 39198 40041 53016 69931 7//4/ 333 10022 21048 70013 555 10010
AAXX 04004 71954 46/// /2811 11027 21060 39709 40090 51028 6///1 333 11018 21161 7////
AAXX 04004 71956 NIL
AAXX 04004 71959 NIL
AAXX 04004 71960 460// /2107 11289 30009 40147 51027 6///1 333 11204 21290 7////
AAXX 04004 71962 17/// /2003 11067 21122 39647 40079 51010 60091 7//4/ 333 11043 21231 70087
AAXX 04004 71963 NIL
AAXX 04004 71967 16/// /3008 11159 21208 30104 40214 53021 60001 333 11137 21159 70000
AAXX 04004 71970 NIL
AAXX 04004 71971 NIL
AAXX 04004 71972 460// ///// 11200 39537 40012 52014 6///1 333 11198 21210 7////
AAXX 04004 71973 46/// /2503 11010 21037 39865 40053 53021 6///1 333 10018 21012 7////
AAXX 04004 71974 NIL
AAXX 04004 71975 460// /2214 11278 39223 49977 58006 6///1 333 11278 21292 7////
AAXX 04004 71976 NIL
AAXX 04004 71977 NIL
AAXX 04004 71978 NIL
AAXX 04004 71979 NIL
AAXX 04004 71980 46/// ///// 11300 21336 6///1 333 11258 21300 7////
AAXX 04004 71981 NIL
AAXX 04004 71982 NIL
AAXX 04004 71983 NIL
AAXX 04004 71984 16/// /0802 11229 21252 30136 40145 51021 60001 333 11170 21231 70006
AAXX 04004 71985 NIL
AAXX 04004 71986 NIL
AAXX 04004 71987 16/// /3020 11084 21111 30074 40084 53027 60001 333 11026 21085 70000
AAXX 04004 71988 NIL
AAXX 04004 71989 NIL
AAXX 04004 71990 NIL
AAXX 04004 71999 46/// ///// 10083 6///1 333 10105 21009 7////
AAXX 04004 71930 11774 83106 10034 21012 39186 40118 53005 69921 76122 885// 333 10035 21055 43016 70002 90910
AAXX 04004 71931 16/// /2005 10028 21004 30033 40045 53011 60001 333 10050 20005 70000
AAXX 04004 71934 11974 10000 11157 21181 39880 40142 51029 69901 70171 81031 333 11029 21157 79999 90942
AAXX 04004 71935 12974 22906 11165 21183 39943 40158 53018 60001 80001 333 11008 21177 70000
AAXX 04004 71936 12974 12704 11210 21244 39874 40143 52029 60001 80001 333 11119 21212 79999
AAXX 04004 71937 NIL
AAXX 04004 71938 11861 20207 11248 21286 30112 40143 53027 69901 77677 82030 333 11199 21250 79999 90983
AAXX 04004 71940 11582 81406 10010 20005 39276 40081 56016 69961 72162 885// 333 10020 21036 40997 70006 90966
AAXX 04004 71943 11559 81211 10005 21018 39227 40058 55015 60011 76176 885// 333 10011 21009 42002 70014 90962
AAXX 04004 71944 160// ///// 10015 53006 60061 333 10019 21040 70075
AAXX 04004 71945 12774 80000 11086 21129 39588 40069 55025 60001 885// 333 11077 21208 70000
AAXX 04004 71946 12974 20000 11225 21250 39914 40137 57001 60001 81071 333 11153 21231 70000
AAXX 04004 71948 47058 /1213 11209 30030 40146 51021 6///1 745// 333 11179 21209 7////
AAXX 04004 71949 46/// /0802 11198 21219 39142 40034 56018 6///1 333 11157 21200 7////
AAXX 04004 71951 11248 81107 10011 20008 39759 40024 50017 60111 72176 887// 333 10012 20000 43066 70208 90983
AAXX 04004 71957 46964 30905 11297 21368 30055 40148 50009 6///1 333 11240 21332 7////
AAXX 04004 71964 12566 83002 11148 21166 39124 49986 56009 60001 71511 885// 333 11085 21178 70000
AAXX 04004 71966 17/// /0000 11343 21383 39601 40093 56017 60051 7//4/ 333 11337 21361 70078
AAXX 04004 71968 460// /1109 11290 30061 40129 51007 6///1 333 11257 21309 7////
AAXX 04004 71500 NIL
AAXX 04004 71501 NIL
AAXX 04004 71502 NIL
AAXX 04004 71503 NIL
AAXX 04004 71504 NIL
AAXX 04004 71505 NIL
AAXX 04004 71506 NIL
AAXX 04004 71507 NIL
AAXX 04004 71508 16/// ///// 11131 21186 30120 40265 53011 60001 333 11131 21146 70009
AAXX 04004 71509 NIL
AAXX 04004 71511 16/// /2605 10006 21031 39525 40167 51016 60001 333 10023 21042 70000
AAXX 04004 71512 16/// /3104 11085 21098 30025 40039 51026 60001 333 11052 21085 70000
AAXX 04004 71513 17558 82414 11067 21098 30025 40040 53028 60001 771// 333 11034 21069 70003
AAXX 04004 71514 NIL
AAXX 04004 71515 16/// /2711 11015 21039 39467 40172 51030 60001 333 10039 21046 70000
AAXX 04004 71516 16/// /2606 10006 21024 60001 333 10077 21032 70000
AAXX 04004 71517 NIL
AAXX 04004 71518 NIL
AAXX 04004 71519 NIL
AAXX 04004 71520 NIL
AAXX 04004 71521 NIL
AAXX 04004 71522 NIL
AAXX 04004 71523 NIL
AAXX 04004 71524 16/// /2704 11178 21231 30198 40226 53027 60001 333 11142 21179 70000
AAXX 04004 71525 NIL
AAXX 04004 71526 NIL
AAXX 04004 71527 15966 32307 11077 21128 39553 40072 53014 60001 333 11067 21211 70000
AAXX 04004 71528 NIL
AAXX 04004 71529 NIL
AAXX 04004 71532 15966 00801 11227 21243 39881 40249 51003 60001 333 11178 21230 70000
AAXX 04004 71534 16964 00000 11255 21278 39966 40257 52005 60001 333 11156 21264 70060
AAXX 04004 71535 NIL
AAXX 04004 71536 NIL
AAXX 04004 71537 NIL
AAXX 04004 71539 NIL
AAXX 04004 71540 NIL
AAXX 04004 71541 NIL
AAXX 04004 71542 16/// /0303 11084 21124 60001 333 11022 21090 70000
AAXX 04004 71543 NIL
AAXX 04004 71544 NIL
AAXX 04004 71545 17/// ///// 11013 21034 69981 7//4/ 333 10031 21054 70013
AAXX 04004 71546 NIL
AAXX 04004 71547 NIL
AAXX 04004 71548 NIL
AAXX 04004 71549 NIL
AAXX 04004 71744 NIL
AAXX 04004 71750 17/// /2012 11043 21068 39860 40102 56040 69941 7//4/ 333 11042 21252 70007 555 10030
AAXX 04004 71751 NIL
AAXX 04004 71752 NIL
AAXX 04004 71753 16/// /3506 11017 21054 30034 40063 52022 60001 333 10046 21020 70000 555 10030
AAXX 04004 71754 16/// /1806 11036 21063 39486 40158 55003 60001 333 10043 21091 70000
AAXX 04004 71755 43/// /2412 11107 21140 39653 40004 50003 6///1 333 11100 21259 7////
AAXX 04004 71756 17/// /0202 10002 20000 39103 40202 56003 60051 7//4/ 333 10013 20002 70056 555 10010
AAXX 04004 71758 NIL
AAXX 04004 71760 NIL
AAXX 04004 71761 NIL
AAXX 04004 71762 NIL
AAXX 04004 71763 NIL
AAXX 04004 71765 16/// /2017 10068 20036 39912 40186 51005 60001 333 10112 20019 70000
AAXX 04004 71766 17/// /1214 10077 20069 30097 40168 56008 60181 7//4/ 333 10077 20037 70208
AAXX 04004 71767 16/// /1103 11134 21149 39962 40237 58013 60001 333 11133 21177 70000 555 10020
AAXX 04004 71768 46/// /1805 10032 21026 39704 40260 58001 6///1 333 10040 21006 7////
AAXX 04004 71769 17/// /1130 10080 20070 30158 40174 55006 60031 7//4/ 333 10088 20071 70040
AAXX 04004 71770 NIL
AAXX 04004 71771 NIL
AAXX 04004 71772 17/// /1126 10081 20074 30178 40184 55001 60021 7//4/ 333 10094 20074 70028
AAXX 04004 71773 16/// /1701 11147 21159 39121 49984 55009 60001 333 11083 21172 70000
AAXX 04004 71774 46/// ///// 10059 6///1 333 10069 20047 7////
AAXX 04004 71775 17/// /0207 10076 20068 30221 40227 55005 60061 7//4/ 333 10078 20050 70208
AAXX 04004 71776 46/// /2206 10021 21001 39647 40302 53007 6///1 333 10027 21011 7////
AAXX 04004 71777 17/// ///// 10013 20009 39961 40216 55003 60051 7//4/ 333 10023 21018 70064
AAXX 04004 71778 46/// /3508 6///1 333 7////
AAXX 04004 71779 16/// /1107 10068 21020 39449 40103 53007 60001 333 10072 20014 70000
AAXX 04004 71780 17/// /0702 10081 20074 30169 40196 56016 69981 7//4/ 333 10094 20071 70052
AAXX 04004 71781 46/// /1139 10084 20072 30127 40152 55015 6///1 333 10089 20074 7////
AAXX 04004 71782 46/// /1708 10024 21030 38922 40259 53013 6///1 333 10038 20006 7////
AAXX 04004 71783 17/// /0501 10083 20064 30121 40195 55008 69921 7//4/ 333 10087 20051 70040
AAXX 04004 71784 17/// /0707 10080 20067 30010 40215 56005 60111 7//4/ 333 10082 20057 70208
AAXX 04004 71785 17/// /0805 10097 20077 30208 40224 55007 60051 7//4/ 333 10112 20083 70072
AAXX 04004 71786 46/// /2815 11037 21044 38408 40274 50009 6///1 333 11036 21082 7////
AAXX 04004 71787 16/// /3209 11128 21151 39588 40086 53029 60001 333 11060 21128 70000
AAXX 04004 71788 NIL
AAXX 04004 71789 NIL
AAXX 04004 71791 NIL
AAXX 04004 71792 NIL
AAXX 04004 71793 NIL
AAXX 04004 71794 NIL
AAXX 04004 71795 NIL
AAXX 04004 71796 NIL
AAXX 04004 71797 NIL
AAXX 04004 71893 11258 81322 10080 20068 30140 40171 56013 60191 76366 887// 333 10088 20050 70232 90973
AAXX 04004 71894 NIL
AAXX 04004 71896 15866 81824 10053 21020 39256 40081 53009 60001 333 10055 21001 70030
AAXX 04004 71897 12256 81445 10080 20068 3//// 4//// 54000 60041 76162 887XX 333 10082 20075 70144 90987
AAXX 04004 71898 160// ///// 10087 53015 60021 333 10092 20041 70140
AAXX 04004 71899 11369 72418 10085 20057 3//// 4//// 52035 69941 78052 87800 333 10088 20034 70028 90916
AAXX 04004 71902 11564 83214 11059 21094 39974 49982 52054 60011 77177 885// 333 11021 21095 47050 70024 90973
AAXX 04004 71905 NIL
AAXX 04004 71906 11974 01904 11225 21262 30027 40079 51026 69901 70277 333 11104 21226 48024 70038 90963
AAXX 04004 71907 16461 32013 11205 21248 30040 40074 56016 60001 333 11202 21254 70000
AAXX 04004 71909 16964 03312 11305 21359 39982 40028 53004 60001 333 11294 21319 70000
AAXX 04004 71910 46964 02704 11271 21313 39968 40034 56002 6///1 333 11270 21306 7////
AAXX 04004 71911 46964 02805 11382 30010 40070 51002 6///1 333 11369 21419 7////
AAXX 04004 71912 11466 72814 11087 21111 39791 49976 51023 69901 77172 87500 333 11087 21201 45020 79999 90957
AAXX 04004 71915 11974 73607 11310 21354 39952 40037 56005 69901 77677 82071 333 11298 21349 48042 79999 90983
AAXX 04004 71917 11674 63602 11360 21415 30061 40076 58013 69901 77677 86500 333 11301 21375 47015 79999 90983
AAXX 04004 71922 12974 22808 11032 21070 39658 40131 52023 60001 82030 333 11003 21138 70000
AAXX 04004 71924 11574 53208 11364 21404 39962 40057 57013 69901 77677 85500 333 11325 21367 48038 79999 90983
AAXX 04004 71925 11666 20208 11341 21383 30097 40141 52008 69901 77677 81501 333 11294 21344 44021 79999 90983
AAXX 04004 71926 11574 23610 11257 21314 30023 40048 52031 69901 70177 82530 333 11214 21284 44043 79999 90933
AAXX 04004 71928 16/// /2712 10061 21056 38971 40137 53017 60001 333 10071 21088 70000
AAXX 04004 71350 16/// /3105 11049 21101 30010 40076 53021 60001 333 11011 21049 70000
AAXX 04004 71351 NIL
AAXX 04004 71352 16/// /2502 11180 21203 39771 40251 50006 60001 333 11152 21182 70000
AAXX 04004 71353 NIL
AAXX 04004 71354 NIL
AAXX 04004 71355 NIL
AAXX 04004 71356 NIL
AAXX 04004 71357 NIL
AAXX 04004 71358 17/// /3110 11317 21351 39975 40012 58010 69971 7//4/ 333 11298 21345 70031
AAXX 04004 71359 NIL
AAXX 04004 71360 NIL
AAXX 04004 71361 NIL
AAXX 04004 71362 NIL
AAXX 04004 71363 NIL
AAXX 04004 71364 NIL
AAXX 04004 71365 NIL
AAXX 04004 71368 15966 02402 11158 21187 39847 40257 50007 60001 333 11136 21163 70000
AAXX 04004 71369 15966 81306 11011 21036 39404 40109 58002 60001 333 10019 21091 70000
AAXX 04004 71370 46/// /2703 11188 21237 30049 40192 53019 6///1 333 11162 21188 7////
AAXX 04004 71371 15966 02813 11156 21222 30181 40217 53025 60001 333 11128 21156 70000
AAXX 04004 71372 NIL
AAXX 04004 71373 16/// /2806 11172 21227 60001 333 11136 21173 70000
AAXX 04004 71374 NIL
AAXX 04004 71375 NIL
AAXX 04004 71376 16/// /3003 11200 21246 39913 40234 53016 60001 333 11176 21211 70000
AAXX 04004 71377 16/// /2908 11168 21229 30169 40220 53022 60001 333 11140 21168 70000
AAXX 04004 71378 NIL
AAXX 04004 71379 16/// /2915 11188 21231 39987 40167 53020 60001 333 11188 21223 70000
AAXX 04004 71380 NIL
AAXX 04004 71381 NIL
AAXX 04004 71382 NIL
AAXX 04004 71383 NIL
AAXX 04004 71384 16/// /2703 11173 21228 30156 40164 51019 60001 333 11137 21189 70000
AAXX 04004 71385 NIL
AAXX 04004 71386 16/// /3208 11146 21185 39878 40090 53005 60001 333 11131 21161 70000
AAXX 04004 71387 NIL
AAXX 04004 71388 NIL
AAXX 04004 71389 46/// /2903 11192 21241 6///1 333 11140 21192 7////
AAXX 04004 71390 NIL
AAXX 04004 71391 16/// ///// 11190 21231 60001 333 11185 21212 70000
AAXX 04004 71392 16/// /2604 11185 21236 60001 333 11157 21185 70000
AAXX 04004 71393 NIL
AAXX 04004 71395 11474 83610 11019 21049 39888 40067 51016 69901 72682 885// 333 10041 21020 79999 90937
AAXX 04004 71398 15966 81807 11210 21240 30149 40161 56033 60001 333 11210 21278 70001
AAXX 04004 71399 NIL
AAXX 04004 71300 NIL
AAXX 04004 71301 NIL
AAXX 04004 71302 17/// /1923 10053 21019 39268 40077 53008 69931 7//4/ 333 10058 21001 70040
AAXX 04004 71303 46/// ///// 11104 21125 6///1 333 11052 21113 7////
AAXX 04004 71305 15966 03503 11122 21139 39842 40138 50022 60001 333 11041 21131 70000
AAXX 04004 71306 17461 62013 11170 21192 30039 40072 57016 60001 771// 333 11167 21224 70000
AAXX 04004 71307 NIL
AAXX 04004 71308 16/// /0110 11007 21037 39986 40071 52021 60001 333 10029 21007 70000
AAXX 04004 71309 NIL
AAXX 04004 71310 16/// /2908 11038 21091 30035 40072 51016 60001 333 11009 21038 70000
AAXX 04004 71311 NIL
AAXX 04004 71312 16/// /2509 11027 21074 39673 40136 51017 60001 333 10019 21125 70000
AAXX 04004 71314 16/// /2602 11210 21237 39873 40249 52006 60001 333 11168 21223 70000
AAXX 04004 71315 16/// /2409 11155 21202 30054 40109 53017 60001 333 11102 21157 70000
AAXX 04004 71316 16/// /0000 11022 21045 39436 40125 50001 60001 333 11013 21120 70000
AAXX 04004 71317 NIL
AAXX 04004 71318 16/// /2010 10007 21039 39186 40135 56005 60001 333 10066 21037 70000
AAXX 04004 71319 16/// /3503 11216 21237 39222 40126 53015 60001 333 11194 21227 70000
AAXX 04004 71320 NIL
AAXX 04004 71321 NIL
AAXX 04004 71322 NIL
AAXX 04004 71323 NIL
AAXX 04004 71331 NIL
AAXX 04004 71332 NIL
AAXX 04004 71334 NIL
AAXX 04004 71335 46150 6//// 11125 39362 49980 51038 6///1 333 11062 21128 7////
AAXX 04004 71336 46/// ///03 10009 20004 30017 40039 58009 6///1 333 10047 20006 7////
AAXX 04004 71337 46/// /2307 11018 21051 39797 40034 53018 6///1 333 10022 21019 7////
AAXX 04004 71338 46440 80000 11291 21337 39999 40007 57008 6///1 333 11291 21360 7////
AAXX 04004 71339 16564 82412 11034 21086 39978 49992 53033 60001 333 10017 21035 70100
AAXX 04004 71340 NIL
AAXX 04004 71341 NIL
AAXX 04004 71342 NIL
AAXX 04004 71343 NIL
AAXX 04004 71344 NIL
AAXX 04004 71345 NIL
AAXX 04004 71346 NIL
AAXX 04004 71347 NIL
AAXX 04004 71348 NIL
AAXX 04004 71349 NIL
AAXX 04001 01262 46/// /1118 10028 21017 333 91122
AAXX 04001 01393 16/// /0902 11029 21038 38929 49711 58040 6//// 333 91109
AAXX 04001 01440 46/// /3010 11031 21033 38409 49648 51051 333 91116
AAXX 04001 01015 46/// /1618 10007 21048 333 91127
AAXX 04001 01180 16/// /1602 10001 21071 39800 49857 57008 60001 333 91114
AAXX 04001 01450 16/// /0302 11036 21047 38533 49641 53006 60021 333 91114
AAXX 04001 01277 16/// /0603 10024 21028 60001 333 91110
AAXX 04001 01476 16/// /3103 10056 20039 39582 49588 56041 6//// 333 91127
BBXX A8TG2 04003 99251 71335 412// 20809 10200 20130 40220 55020 7//11 8/6/8 22263 00170 21202 32828 41207 51508 80160
AAXX 04004 71125 12874 70000 11021 21039 39548 40139 51003 60001 86072 333 70000
AAXX 04004 71816 11574 52615 11080 21111 39923 49984 53032 69901 73682 82570 333 10000 21081 43096 70044 90936
AAXX 04004 71817 NIL
AAXX 04004 71818 11574 72310 11022 21050 39930 49948 53024 69901 70272 87500 333 10026 21025 44022 70008 90940
AAXX 04004 71822 11566 62705 11236 21281 39692 40197 52018 69901 70371 86500 333 11205 21251 43049 70012 90943
AAXX 04004 71825 11574 43210 11143 21175 39366 40052 52037 69921 77671 84500 333 11039 21150 48117 70010 90962
AAXX 04004 71827 11974 81807 11232 21268 39883 40140 58017 69901 77677 80007 333 11212 21248 48018 70006 90983
AAXX 04004 71828 17564 83311 11165 21183 39394 40046 51036 69951 7//44 333 11117 21166 70020
AAXX 04004 71831 12574 81709 11176 21221 39874 40171 58030 60001 8351/ 333 11176 21263 79999
AAXX 04004 71832 NIL
AAXX 04004 71834 11674 82212 11069 21107 39641 40086 55026 69901 72222 885// 333 11068 21304 48035 79999 90912
AAXX 04004 71841 NIL
AAXX 04004 71842 12974 62304 11089 21149 39587 40071 53009 60001 82071 333 11076 21247 70000
AAXX 04004 71844 NIL
AAXX 04004 71845 12874 22205 11117 21160 39557 40047 53002 60001 81071 333 11097 21265 70000
AAXX 04004 71850 12974 02506 11065 21103 39568 40078 53024 60001 333 11052 21186 79999
AAXX 04004 71852 16964 32911 11061 21084 39810 40110 52054 60001 333 10006 21120 70005
AAXX 04004 71854 12974 22305 11103 21143 39576 40061 52020 60001 82030 333 11079 21204 70000
AAXX 04004 71858 NIL
AAXX 04004 71861 16/// /2908 11017 21048 39432 40159 51034 60001 333 10047 21017 70000
AAXX 04004 71862 12974 13207 11003 21032 39486 40194 51040 60001 80001 333 10048 21033 70000
AAXX 04004 71863 46864 33009 11031 21058 39476 40181 51021 6///1 333 10024 21074 7////
AAXX 04004 71114 160// /0000 10058 20055 30186 40234 56005 60051 333 10076 20032 70290
AAXX 04004 71120 12874 60000 11021 21054 39475 40140 50000 60001 86071 333 11014 21073 70000
AAXX 04004 71122 46/// /2511 10018 21055 38596 40208 50003 6///1 333 10041 7////
AAXX 04004 71123 12974 71706 11029 21064 39256 40131 51007 60001 82032 333 10017 21076 70000
AAXX 04004 71125 12874 80000 11021 21039 39548 40139 51003 60001 86072 333 70000
AAXX 04004 71129 12874 21607 10009 21022 39321 40153 55005 60001 81071 333 10057 21008 70000
AAXX 04004 71131 16/// /2410 11001 21035 38927 40191 56003 60001 333 10034 21015 70000
AAXX 04004 71135 16/// /2409 10007 21031 39112 40203 51017 60001 333 10050 20004 70000
AAXX 04004 71137 NIL
AAXX 04004 71140 12974 02912 11015 21038 39647 40156 5/064 60001 333 10026 21120 70000
AAXX 04004 71145 12574 12811 11097 21120 39728 40027 53025 60001 81501 333 11086 21186 70000
AAXX 04004 71148 16/// /3117 11004 21034 39554 40141 53062 60001 333 10050 21104 70000
AAXX 04004 71185 16564 62418 11009 30009 40033 53016 60001 333 10016 21011 70010
AAXX 04004 71188 12574 82706 11124 21173 30028 40072 53026 60001 885// 333 11009 21124 70000
AAXX 04004 71200 16/// /3605 10083 20061 60001 333 10089 20061 70020
AAXX 04004 71207 47/// /3301 10048 30152 40217 6///1 7//4/ 333 10072 20025 7////
AAXX 04004 71260 13/// ///// 11107 21133 39947 40195 58035 60001 333 11107 21252 70004
AAXX 04004 71043 12983 00000 11302 21350 30037 40136 56003 60001 333 11257 21312 70010
AAXX 04004 71045 16/// /0702 11129 21146 39120 49991 57020 60001 333 11124 21183 70000
AAXX 04004 71050 46/// /0402 10019 21020 39021 40102 51004 6///1 333 10075 21101 7////
AAXX 04004 71051 NIL
AAXX 04004 71052 NIL
AAXX 04004 71066 12974 80000 11115 21151 39688 40116 50002 60001 8807/ 333 11044 21115 70000
AAXX 04004 71068 11556 80102 11025 21039 39395 40089 58012 69921 77122 885// 333 11003 21088 47006 70002 90931
AAXX 04004 71069 16764 31305 11013 21030 39403 40107 58003 60001 333 10022 21094 70000
AAXX 04004 71076 16/// /2809 11115 21140 39725 40125 53038 60001 333 11059 21195 70000
AAXX 04004 71077 16/// /2703 11042 21086 39598 40144 53014 60001 333 11004 21060 70000
AAXX 04004 71079 12574 62812 11050 21071 39739 40022 53030 60001 86500 333 11048 21158 79999
AAXX 04004 71081 46964 03210 11395 21439 30018 40031 58001 6///1 333 11373 21396 7////
AAXX 04004 71082 NIL
AAXX 04004 71083 11458 60816 11196 21231 39954 49997 53015 69941 77172 86500 333 11174 21306 48060 70030 90947
AAXX 04004 71090 46661 33111 11317 21362 39976 40012 58010 6///1 333 11298 21344 7////
AAXX 04004 71091 460// /0308 11332 39787 40007 58003 6///1 333 7////
AAXX 04004 71092 46964 01010 11317 39300 49991 55005 6///1 333 11300 21319 7////
AAXX 04004 71093 460// ///// 11310 39477 49993 56007 6///1 333 11287 21310 7////
AAXX 04004 71094 46064 /3607 11305 39005 49935 57005 6///1 333 11298 21306 7////
AAXX 04004 71095 46964 02103 11370 21409 39953 40038 5/013 6///1 333 7////
AAXX 04004 71101 160// /1407 39956 51011 60001 333 70140
AAXX 04004 71104 12974 71316 10044 21030 39032 40138 53006 60001 84071 333 10046 20014 70000
AAXX 04004 71108 11262 80505 10068 20059 30154 40227 57003 60051 76162 885// 333 10090 20062 70110 90947
AAXX 04004 71109 11562 81116 10070 20050 30060 40086 55004 60091 76166 8657/ 333 10080 20066 70126 90983
AAXX 04004 71718 11574 62914 11136 21170 30049 40117 52015 69901 70182 86500 333 11121 21145 48010 70006 90951
AAXX 04004 71893 11258 81322 10080 20068 30140 40171 56013 60191 76366 887// 333 10088 20050 70232 90973
AAXX 04004 71894 NIL
AAXX 04004 71896 15866 81824 10053 21020 39256 40081 53009 60001 333 10055 21001 70030
AAXX 04004 71897 12256 81445 10080 20068 3//// 4//// 54000 60041 76162 887XX 333 10082 20075 70144 90987
AAXX 04004 71898 160// ///// 10087 53015 60021 333 10092 20041 70140
AAXX 04004 71899 11369 72418 10085 20057 3//// 4//// 52035 69941 78052 87800 333 10088 20034 70028 90916
AAXX 04004 71902 11564 83214 11059 21094 39974 49982 52054 60011 77177 885// 333 11021 21095 47050 70024 90973
AAXX 04004 71905 NIL
AAXX 04004 71906 11974 01904 11225 21262 30027 40079 51026 69901 70277 333 11104 21226 48024 70038 90963
AAXX 04004 71907 16461 32013 11205 21248 30040 40074 56016 60001 333 11202 21254 70000
AAXX 04004 71909 16964 03312 11305 21359 39982 40028 53004 60001 333 11294 21319 70000
AAXX 04004 71910 46964 02704 11271 21313 39968 40034 56002 6///1 333 11270 21306 7////
AAXX 04004 71911 46964 02805 11382 30010 40070 51002 6///1 333 11369 21419 7////
AAXX 04004 71912 11466 72814 11087 21111 39791 49976 51023 69901 77172 87500 333 11087 21201 45020 79999 90957
AAXX 04004 71915 11974 73607 11310 21354 39952 40037 56005 69901 77677 82071 333 11298 21349 48042 79999 90983
AAXX 04004 71917 11674 63602 11360 21415 30061 40076 58013 69901 77677 86500 333 11301 21375 47015 79999 90983
AAXX 04004 71922 12974 22808 11032 21070 39658 40131 52023 60001 82030 333 11003 21138 70000
AAXX 04004 71924 11574 53208 11364 21404 39962 40057 57013 69901 77677 85500 333 11325 21367 48038 79999 90983
AAXX 04004 71925 11666 20208 11341 21383 30097 40141 52008 69901 77677 81501 333 11294 21344 44021 79999 90983
AAXX 04004 71926 11574 23610 11257 21314 30023 40048 52031 69901 70177 82530 333 11214 21284 44043 79999 90933
AAXX 04004 71928 16/// /2712 10061 21056 38971 40137 53017 60001 333 10071 21088 70000
AAXX 04004 71603 11569 83613 11031 21083 30034 40087 50020 69921 78582 885// 333 10030 21033 45997 70004 90962
AAXX 04004 71607 16/// /3207 11120 21171 30092 40125 53036 60001 333 11046 21120 70000
AAXX 04004 71609 12774 43314 11110 21174 39971 40108 50032 60001 81510 333 11030 21110 70000
AAXX 04004 71610 15966 02904 11173 21213 39878 40188 53022 60001 333 11132 21173 70000
AAXX 04004 71621 12974 03007 11152 21225 30139 40251 52018 60001 333 11127 21159 79999
AAXX 04004 71623 NIL
AAXX 04004 71624 12974 02805 11139 21208 30035 40258 51009 60001 333 11138 21165 79999
AAXX 04004 71625 16964 02704 11204 21258 30079 40251 53011 60001 333 11184 21223 70000
AAXX 04004 71627 12574 12912 11169 21248 30174 40221 53023 60001 81100 333 11139 21169 79999
AAXX 04004 71628 13560 32810 11192 21244 30091 40241 53002 60001 83500 333 11169 21193 79999
AAXX 04004 71630 NIL
AAXX 04004 71631 NIL
AAXX 04004 71633 11474 61807 11132 21175 39956 40241 58006 69901 77181 86500 333 11129 21162 48012 70027 90927
AAXX 04004 71705 12674 63008 11099 21148 30005 40094 53028 60001 82501 333 11033 21099 70000
AAXX 04004 71706 12774 63305 11047 21106 30025 40086 53023 60001 82570 333 11008 21049 70002
AAXX 04004 71707 12674 83104 10004 21015 39984 40061 53018 60001 885// 333 10026 21027 79999
AAXX 04004 71709 12574 33015 11045 21081 30054 40067 51014 60001 83500 333 10006 21014 70000
AAXX 04004 71711 NIL
AAXX 04004 71714 16/// /2609 11190 21243 30103 40200 52017 60001 333 11158 21190 70000
AAXX 04004 71715 16/// /3207 11169 21217 39951 40141 51013 60001 333 11151 21177 70000
AAXX 04004 71718 11574 62914 11136 21170 30049 40117 52015 69901 70182 86500 333 11121 20145 48010 70006 90951
AAXX 04004 71719 16/// /2812 11127 21169 30080 40086 53023 60001 333 11055 21127 70000
AAXX 04004 71726 16/// /2805 11246 21274 39633 40211 53015 60001 333 11228 21259 70000
AAXX 04004 71727 11559 83012 11180 21214 39967 40174 51014 69921 77177 885// 333 11172 21186 48049 70002 90973
AAXX 04004 71728 11580 82906 11182 21242 39949 40182 52016 60011 77177 885// 333 11181 21211 44002 70010 90973 93101
AAXX 04004 71730 12474 71606 11212 21253 39778 40232 58011 60001 81552 333 11187 21257 79999
AAXX 04004 71731 12974 02702 11218 21263 39755 40238 58001 60001 333 11200 21277 70008
AAXX 04004 71735 NIL
AAXX 04004 71738 11569 81608 11106 21125 39786 40156 58039 69901 77171 885// 333 11106 21257 47026 79999 90942
AAXX 04004 71739 42974 21808 11199 21245 39811 40197 57023 6//// 82070 333 11187 21257 4//// 7////
AAXX 04004 71749 16964 02604 11078 21128 39833 40087 58014 69951 333 11040 21240 70005
AAXX 04004 71799 11474 81409 10093 20073 30181 40205 55004 60021 76166 885// 333 10097 20061 70062 90973
AAXX 04004 71800 17/// /0909 10014 20014 30030 40063 58009 69981 7//4/ 333 10043 20012 70008
AAXX 04004 71801 11574 81205 10000 21003 39888 40060 58021 69921 78586 885// 333 10041 20000 41997 70108 90927
AAXX 04004 71803 12980 81909 10001 21042 39871 40057 51009 60001 86017 333 10019 20000 70022
AAXX 04004 71807 NIL
AAXX 04004 71808 11574 82524 11034 21076 39969 40015 53022 69901 77122 885// 333 10017 21034 70054 90931
AAXX 04004 71809 12674 72303 10001 21047 30023 40050 52020 60001 87500 333 10031 21007 70006
AAXX 04004 71810 NIL
AAXX 04004 71811 NIL
AAXX 04004 71813 16/// /2313 11067 21096 30023 40037 53027 60001 333 11034 21071 70000
AAXX 04004 71814 16/// /2711 11059 21089 30025 40035 53032 60001 333 11016 21059 70008
AAXX 04004 71815 12474 73010 10000 21040 30026 40057 53018 60001 87500 333 10014 20000 41997 70011
AAXX 04004 71851 16/// /2807 11002 21037 39781 40119 51053 60001 333 10047 21121 70003
AAXX 04004 71857 NIL
AAXX 04004 71860 12680 72312 10068 21057 38757 40146 56001 60001 81571 333 10086 21010 70000
AAXX 04004 71876 15966 01806 11035 21055 39489 40163 55002 60001 333 10036 21083 70000
AAXX 04004 71885 NIL
AAXX 04004 71886 NIL
AAXX 04004 71888 NIL
AAXX 04004 71890 16/// /0505 11165 21211 30073 40101 51013 60001 333 11145 21171 70000
AAXX 04004 71895 NIL
AAXX 04004 71812 46864 80309 11162 21184 39940 49954 53026 6///1 333 11153 21187 7////
AAXX 04004 71819 15566 82415 11018 21059 39971 40012 53031 60001 333 10015 21019 70048
AAXX 04004 71820 16/// /2905 11147 21209 30123 40244 51022 60001 333 11128 21154 70000
AAXX 04004 71823 16464 82407 11235 21267 39749 40147 52020 60001 333 11153 21238 70010
AAXX 04004 71824 46/// /2502 11268 21297 6///1 333 11206 21269 7////
AAXX 04004 71826 16/// /0000 11292 21338 39956 40002 54000 60001 333 11258 21296 70000
AAXX 04004 71829 16/// /2712 11163 21208 39919 40086 51009 60001 333 11143 21168 70000
AAXX 04004 71833 46/// /2703 11164 21202 6///1 333 11143 21170 7////
AAXX 04004 71835 16/// /2509 11115 21156 39548 40041 53002 60001 333 11097 21263 70000
AAXX 04004 71837 NIL
AAXX 04004 71839 NIL
AAXX 04004 71840 46/// /3013 10018 21030 6///1 333 10055 21123 7////
AAXX 04004 71846 16/// /2206 11130 21160 39711 40038 56012 60001 333 11130 21298 70000
AAXX 04004 71847 NIL
AAXX 04004 71848 NIL
AAXX 04004 71849 16/// /2910 11062 21084 39809 40114 52054 60001 333 10004 21120 70000
AAXX 04004 71201 17/// ///// 10084 20063 60111 7//4/ 333 10085 20072 70224
AAXX 04004 71202 16/// ///// 10000 21037 60001 333 10045 21047 70005
AAXX 04004 71203 15866 81203 10028 21015 39736 40264 54000 60001 333 10042 21007 70000
AAXX 04004 71209 46/// /1220 10085 6///1 333 10088 20069 7////
AAXX 04004 71211 46/// /3407 10068 20056 30203 40215 55003 6///1 333 10073 20059 7////
AAXX 04004 71212 NIL
AAXX 04004 71213 46/// /1405 11239 21258 39904 40226 58009 6///1 333 11194 21263 7////
AAXX 04004 71214 NIL
AAXX 04004 71215 46/// /1608 10030 21025 39927 40278 55002 6///1 333 10033 21001 7////
AAXX 04004 71216 NIL
AAXX 04004 71217 NIL
AAXX 04004 71218 16/// /1203 10033 21010 39821 40254 50005 60001 333 10037 20002 70000
AAXX 04004 71219 46/// /1524 10070 20052 39976 49982 52012 6///1 333 10074 20040 7////
AAXX 04004 71220 46/// /1419 10080 20066 6///1 333 10092 20047 7////
AAXX 04004 71221 NIL
AAXX 04004 71222 17/// /0601 11082 21093 39023 49993 55004 69931 7//4/ 333 11078 21139 70003
AAXX 04004 71223 NIL
AAXX 04004 71224 NIL
AAXX 04004 71225 NIL
AAXX 04004 71226 NIL
AAXX 04004 71227 NIL
AAXX 04004 71228 NIL
AAXX 04004 71229 NIL
AAXX 04004 71230 17/// /1303 10014 21006 39180 40068 55012 69961 7//4/ 333 10017 21022 70006
AAXX 04004 71231 16/// /2309 10064 21056 60001 333 10108 20016 70000
AAXX 04004 71232 16/// /2513 10051 21069 38648 40134 58002 60001 333 10068 20031 70000
AAXX 04004 71233 NIL
AAXX 04004 71234 16/// /2411 10081 21063 38991 40171 53009 60001 333 10093 20013 70000
AAXX 04004 71235 16/// /2614 10069 21046 60001 333 10086 20029 70000
AAXX 04004 71236 46/// /3117 10026 21068 6///1 333 10057 20011 7////
AAXX 04004 71237 46/// /1402 10027 21023 39313 40126 56002 6///1 333 10084 21023 7////
AAXX 04004 71238 16/// /1901 10002 21037 60001 333 10062 21057 70000
AAXX 04004 71239 16/// /3115 10001 21037 39670 40135 51065 60001 333 10055 21085 70000
AAXX 04004 71240 16/// ///// 10031 21022 39299 40145 55006 60001 333 10074 21012 70000
AAXX 04004 71241 NIL
AAXX 04004 71242 16/// /0000 11008 21036 60001 333 10036 21070 70000 555 10020
AAXX 04004 71243 NIL
AAXX 04004 71244 16/// /2209 10045 21071 38970 40197 53008 60001 333 10102 20023 70000 555 10010
AAXX 04004 71245 NIL
AAXX 04004 71246 NIL
AAXX 04004 71247 15966 02215 10063 21036 39311 40161 57006 60001 333 10107 20036 70000
AAXX 04004 71248 16/// /2309 10065 21053 38837 40138 53010 60001 333 10093 21083 70000
AAXX 04004 71249 NIL
AAXX 04004 71665 17/// /3216 11059 21078 39969 49979 53054 69961 7//4/ 333 11023 21110 70025 555 10030
AAXX 04004 71666 16/// /3008 11105 21155 30049 40095 51030 60001 333 11043 21105 70000
AAXX 04004 71667 NIL
AAXX 04004 71668 16/// /3011 11123 21182 30080 40125 53039 60001 333 11069 21123 70000
AAXX 04004 71669 NIL
AAXX 04004 71670 16/// ///// 11124 21171 60001 333 11055 21124 70000
AAXX 04004 71671 16/// /3108 11031 21075 30015 40076 53018 60001 333 10021 21031 70000
AAXX 04004 71672 16/// /2402 11196 21237 39966 40246 51013 60001 333 11134 21196 70000
AAXX 04004 71673 NIL
AAXX 04004 71674 NIL
AAXX 04004 71675 17966 /2511 11103 21138 39705 49989 58009 60041 7004/ 333 11102 21270 70090
AAXX 04004 71679 16/// /1607 10038 20015 39038 40040 53016 60001 333 10043 20004 70014
AAXX 04004 71680 NIL
AAXX 04004 71681 46/// /2108 10106 21007 6///1 333 10124 21025 7////
AAXX 04004 71682 NIL
AAXX 04004 71683 NIL
AAXX 04004 71684 15966 01305 11236 21257 39907 40230 58009 60001 333 11196 21260 70000
AAXX 04004 71685 17440 81402 11008 21008 39739 40291 52004 60051 7714/ 333 11006 21032 70063
AAXX 04004 71686 469// /0502 11073 21083 39023 49977 55004 6///1 333 11070 21126
AAXX 04004 71687 17/// /0401 10005 20000 39421 40208 55000 60041 7//4/ 333 10035 20002 70049
AAXX 04004 71688 16/// /0000 10000 20000 39160 40200 55000 60001 333 10021 20000 70024
AAXX 04004 71689 15966 02102 11043 21073 39669 40128 50011 60001 333 11016 21058 70000
AAXX 04004 71690 NIL
AAXX 04004 71691 15966 02906 11165 21206 30076 40104 51012 60001 333 11143 21170 70000
AAXX 04004 71692 NIL
AAXX 04004 71694 16/// /0000 11235 21257 39873 40262 51005 60001 333 11174 21236 70000
AAXX 04004 71695 16/// /2813 11008 21070 39750 40088 51028 60001 333 11006 21122 70000
AAXX 04004 71696 16/// /3209 11107 21123 39893 49930 52023 60001 333 11104 21207 70008
AAXX 04004 71697 15966 02905 11158 21209 30077 40258 51013 60001 333 11138 21167 70000
AAXX 04004 71699 16/// /3308 11103 21159 30104 40112 51038 60001 333 11029 21103 70000
AAXX 04004 71950 17766 31512 10030 20023 39395 40019 51013 60021 7004/ 333 10031 21032 70025
AAXX 04004 71952 17/// /0703 10022 20017 39198 40041 53016 69931 7//4/ 333 10022 21048 70013 555 10010
AAXX 04004 71954 46/// /2811 11027 21060 39709 40090 51028 6///1 333 11018 21161 7////
AAXX 04004 71956 NIL
AAXX 04004 71959 NIL
AAXX 04004 71960 460// /2107 11289 30009 40147 51027 6///1 333 11204 21290 7////
AAXX 04004 71962 17/// /2003 11067 21122 39647 40079 51010 60091 7//4/ 333 11043 21231 70087
AAXX 04004 71963 NIL
AAXX 04004 71967 16/// /3008 11159 21208 30104 40214 53021 60001 333 11137 21159 70000
AAXX 04004 71970 NIL
AAXX 04004 71971 NIL
AAXX 04004 71972 460// ///// 11200 39537 40012 52014 6///1 333 11198 21210 7////
AAXX 04004 71973 46/// /2503 11010 21037 39865 40053 53021 6///1 333 10018 21012 7////
AAXX 04004 71974 NIL
AAXX 04004 71975 460// /2214 11278 39223 49977 58006 6///1 333 11278 21292 7////
AAXX 04004 71976 NIL
AAXX 04004 71977 NIL
AAXX 04004 71978 NIL
AAXX 04004 71979 NIL
AAXX 04004 71980 46/// ///// 11300 21336 6///1 333 11258 21300 7////
AAXX 04004 71981 NIL
AAXX 04004 71982 NIL
AAXX 04004 71983 NIL
AAXX 04004 71984 16/// /0802 11229 21252 30136 40145 51021 60001 333 11170 21231 70006
AAXX 04004 71985 NIL
AAXX 04004 71986 NIL
AAXX 04004 71987 16/// /3020 11084 21111 30074 40084 53027 60001 333 11026 21085 70000
AAXX 04004 71988 NIL
AAXX 04004 71989 NIL
AAXX 04004 71990 NIL
AAXX 04004 71999 46/// ///// 10083 6///1 333 10105 21009 7////
AAXX 04004 71604 NIL
AAXX 04004 71605 17/// /0302 10072 20072 30063 40213 55004 60151 7//4/ 333 10076 20061 70328
AAXX 04004 71611 16/// /3009 11160 21204 60001 333 11127 21160 70000
AAXX 04004 71612 NIL
AAXX 04004 71614 16/// /2807 11169 21230 30142 40211 53022 60001 333 11133 21169 70000
AAXX 04004 71616 16/// /3003 11177 21220 30078 40205 53020 60001 333 11147 21177 70000
AAXX 04004 71617 16/// /2911 11178 21209 30004 40186 52015 60001 333 11178 21202 70000
AAXX 04004 71618 17458 83313 11106 21122 39896 49934 51022 69931 771// 333 11102 21205 70003
AAXX 04004 71619 NIL
AAXX 04004 71622 NIL
AAXX 04004 71632 46/// /3315 11044 21082 39603 40047 51041 6///1 333 11037 21149 7////
AAXX 04004 71634 16/// /3005 11164 21197 39949 40108 53023 60001 333 11089 21164 70000
AAXX 04004 71638 17/// /1216 10089 20063 30090 40195 55000 69951 7//4/ 333 10098 20073 70010
AAXX 04004 71639 12974 02804 11156 21222 30004 40260 51011 60001 333 11140 21168 79999
AAXX 04004 71642 12974 81806 11152 21185 39610 40185 57026 60001 8802/ 333 11152 21263 70000
AAXX 04004 71001 15966 32701 11265 21298 39009 40026 56017 60001 333 11261 21348 70000
AAXX 04004 71002 17656 82907 11124 21146 39468 40012 53032 60001 771// 333 11046 21124 70043
AAXX 04004 71003 17466 82409 11211 21230 39748 40145 51020 60001 771// 333 11140 21213 70000
AAXX 04004 71005 NIL
AAXX 04004 71006 NIL
AAXX 04004 71007 NIL
AAXX 04004 71008 NIL
AAXX 04004 71009 NIL
AAXX 04004 71010 NIL
AAXX 04004 71011 NIL
AAXX 04004 71012 NIL
AAXX 04004 71013 NIL
AAXX 04004 71014 NIL
AAXX 04004 71015 NIL
AAXX 04004 71016 NIL
AAXX 04004 71017 NIL
AAXX 04004 71018 NIL
AAXX 04004 71019 NIL
AAXX 04004 71020 NIL
AAXX 04004 71021 NIL
AAXX 04004 71022 17566 81411 10090 20071 39937 49980 53015 60011 7004/ 333 10090 20040 70123
AAXX 04004 71023 NIL
AAXX 04004 71024 16/// /0402 11096 21124 60001 333 11020 21133 70000
AAXX 04004 71026 NIL
AAXX 04004 71027 16/// /2803 11006 21051 30050 40060 51025 60001 333 10037 21021 70000
AAXX 04004 71028 16/// /1716 10036 20016 39058 40080 56021 60001 333 10068 20025 70000
AAXX 04004 71029 17/// /0105 11272 21301 30128 40169 53016 69931 7//4/ 333 11209 21273 7////
AAXX 04004 71030 16/64 /3409 11091 21142 30016 40107 53034 60001 333 11015 21092 70000
AAXX 04004 71032 46/// /0000 11015 21033 39396 40246 58006 6///1 333 10009 21088 7////
AAXX 04004 71033 46/// /2910 11065 21105 39467 40103 53035 6///1 333 11041 21105 7////
AAXX 04004 71035 NIL
AAXX 04004 71036 15966 02714 11009 21043 39748 40128 51049 60001 333 10033 21103 70000
AAXX 04004 71039 46/// /3302 11282 6///1 333 11246 21297 7////
AAXX 04004 71040 46/// /2808 11183 21217 39959 40168 51013 6///1 333 11183 21203 7////
AAXX 04004 71041 15566 83502 11010 21035 39920 40062 53017 60001 333 10023 21030 70000
AAXX 04004 71042 17/// /0703 10080 20074 30207 40211 55006 60121 7//44 333 10086 20062 70144
AAXX 04004 71044 16/// /1301 11367 21408 39782 40120 58001 60001 333 11241 21367 70013
AAXX 04004 71046 460// /2410 11296 30112 40130 51008 6///1 333 11261 21298 7////
AAXX 04004 71047 NIL
AAXX 04004 71048 NIL
AAXX 04004 71049 NIL
AAXX 04004 71060 NIL
AAXX 04004 71063 NIL
AAXX 04004 71043 12983 00000 11302 21350 30037 40136 56003 60001 333 11257 21312 70010
AAXX 04004 71045 16/// /0702 11129 21146 39120 49991 57020 60001 333 11124 21183 70000
AAXX 04004 71050 46/// /0402 10019 21020 39021 40102 51004 6///1 333 10075 21101 7////
AAXX 04004 71051 NIL
AAXX 04004 71052 NIL
AAXX 04004 71066 12974 80000 11115 21151 39688 40116 50002 60001 8807/ 333 11044 21115 70000
AAXX 04004 71068 11556 80102 11025 21039 39395 40089 58012 69921 77122 885// 333 11003 21088 47006 70002 90931
AAXX 04004 71069 16764 31305 11013 21030 39403 40107 58003 60001 333 10022 21094 70000
AAXX 04004 71076 16/// /2809 11115 21140 39725 40125 53038 60001 333 11059 21195 70000
AAXX 04004 71077 16/// /2703 11042 21086 39598 40144 53014 60001 333 11004 21060 70000
AAXX 04004 71079 12574 62812 11050 21071 39739 40022 53030 60001 86500 333 11048 21158 79999
AAXX 04004 71081 46964 03210 11395 21439 30018 40031 58001 6///1 333 11373 21396 7////
AAXX 04004 71082 NIL
AAXX 04004 71083 11458 60816 11196 21231 39954 49997 53015 69941 77172 86500 333 11174 21306 48060 70030 90947
AAXX 04004 71090 46661 33111 11317 21362 39976 40012 58010 6///1 333 11298 21344 7////
AAXX 04004 71091 460// /0308 11332 39787 40007 58003 6///1 333 7////
AAXX 04004 71092 46964 01010 11317 39300 49991 55005 6///1 333 11300 21319 7////
AAXX 04004 71093 460// ///// 11310 39477 49993 56007 6///1 333 11287 21310 7////
AAXX 04004 71094 46064 /3607 11305 39005 49935 57005 6///1 333 11298 21306 7////
AAXX 04004 71095 46964 02103 11370 21409 39953 40038 5/013 6///1 333 7////
AAXX 04004 71101 160// /1407 39956 51011 60001 333 70140
AAXX 04004 71104 12974 71316 10044 21030 39032 40138 53006 60001 84071 333 10046 20014 70000
AAXX 04004 71108 11262 80505 10068 20059 30154 40227 57003 60051 76162 885// 333 10090 20062 70110 90947
AAXX 04004 71109 11562 81116 10070 20050 30060 40086 55004 60091 76166 8657/ 333 10080 20066 70126 90983
AAXX 04004 71864 NIL
AAXX 04004 71865 16/// /2607 11022 21054 39476 40162 51021 60001 333 10013 21024 70000
AAXX 04004 71866 46964 31603 11006 21048 39543 40163 51003 6///1 333 10034 21066 7////
AAXX 04004 71867 12874 13212 11009 21063 39753 40091 51027 60001 81070 333 11007 21124 79999
AAXX 04004 71868 NIL
AAXX 04004 71869 12974 70000 11052 21071 39619 40153 51008 60001 80001 333 10017 21122 70000
AAXX 04004 71871 15966 02009 11016 21051 39330 40139 55005 60001 333 10032 21037 70000
AAXX 04004 71877 12586 72812 10091 21053 38888 40147 53006 60001 81570 333 10097 20029 70000
AAXX 04004 71878 12974 70000 10029 21023 39063 40137 53008 60001 86071 333 10038 21074 70000
AAXX 04004 71879 16964 02004 10014 21051 39314 40120 50006 69951 333 10053 21047 70005
AAXX 04004 71880 12682 71510 10040 21021 39163 40288 53007 60001 82570 333 10051 21056 70000
AAXX 04004 71882 160// /0000 11007 21012 39740 40292 52004 60081 333 11007 21034 70115
AAXX 04004 71883 46/// /1701 10005 20002 39402 40235 58003 6///1 333 10021 21054 7////
AAXX 04004 71887 NIL
AAXX 04004 71889 12874 71719 10037 21028 39842 40266 51003 60001 86071 333 10044 20016 70000
AAXX 04004 71891 16764 32119 10069 20043 39914 40188 50006 60001 333 10113 20022 70005
AAXX 04004 71892 11562 80916 10081 20069 30211 40216 56006 60091 76366 8652/ 333 10086 20069 70128 90973
AAXX 04004 71700 15566 82807 11122 21181 30102 40128 53040 60001 333 11061 21122 70000
AAXX 04004 71701 12574 83008 11121 21178 30064 40128 52043 60001 885// 333 11066 21121 70000
AAXX 04004 71702 NIL
AAXX 04004 71703 NIL
AAXX 04004 71704 17966 01706 11124 21144 30028 40259 51004 60021 7004/ 333 11075 21124 70101
AAXX 04004 71710 NIL
AAXX 04004 71712 16/// /2708 11171 21219 30169 40235 53024 60001 333 11141 21171 70000
AAXX 04004 71713 NIL
AAXX 04004 71716 NIL
AAXX 04004 71717 NIL
AAXX 04004 71720 17/// /1013 10076 20060 30026 40179 56011 60081 7//4/ 333 10080 20068 70081
AAXX 04004 71721 NIL
AAXX 04004 71723 NIL
AAXX 04004 71724 16/// /3007 11167 21229 30196 40204 53022 60001 333 11142 21167 70010
AAXX 04004 71732 NIL
AAXX 04004 71733 16/// /1708 11207 21234 39771 40242 58010 60001 333 11189 21261 70003
AAXX 04004 71734 NIL
AAXX 04004 71736 NIL
AAXX 04004 71737 NIL
AAXX 04004 71741 16/// /1119 10062 21016 39786 40209 52005 60001 333 10066 20021 70000
AAXX 04004 71742 NIL
AAXX 04004 71743 NIL
AAXX 04004 71744 NIL
AAXX 04004 71745 NIL
AAXX 04004 71746 NIL
AAXX 04004 71747 NIL
AAXX 04004 71748 NIL
AAXX 04004 71893 11258 81322 10080 20068 30140 40171 56013 60191 76366 887// 333 10088 20050 70232 90973
AAXX 04004 71894 NIL
AAXX 04004 71896 15866 81824 10053 21020 39256 40081 53009 60001 333 10055 21001 70030
AAXX 04004 71897 12256 81445 10080 20068 3//// 4//// 54000 60041 76162 887XX 333 10082 20075 70144 90987
AAXX 04004 71898 160// ///// 10087 53015 60021 333 10092 20041 70140
AAXX 04004 71899 11369 72418 10085 20057 3//// 4//// 52035 69941 78052 87800 333 10088 20034 70028 90916
AAXX 04004 71902 11564 83214 11059 21094 39974 49982 52054 60011 77177 885// 333 11021 21095 47050 70024 90973
AAXX 04004 71905 NIL
AAXX 04004 71906 11974 01904 11225 21262 30027 40079 51026 69901 70277 333 11104 21226 48024 70038 90963
AAXX 04004 71907 16461 32013 11205 21248 30040 40074 56016 60001 333 11202 21254 70000
AAXX 04004 71909 16964 03312 11305 21359 39982 40028 53004 60001 333 11294 21319 70000
AAXX 04004 71910 46964 02704 11271 21313 39968 40034 56002 6///1 333 11270 21306 7////
AAXX 04004 71911 46964 02805 11382 30010 40070 51002 6///1 333 11369 21419 7////
AAXX 04004 71912 11466 72814 11087 21111 39791 49976 51023 69901 77172 87500 333 11087 21201 45020 79999 90957
AAXX 04004 71915 11974 73607 11310 21354 39952 40037 56005 69901 77677 82071 333 11298 21349 48042 79999 90983
AAXX 04004 71917 11674 63602 11360 21415 30061 40076 58013 69901 77677 86500 333 11301 21375 47015 79999 90983
AAXX 04004 71922 12974 22808 11032 21070 39658 40131 52023 60001 82030 333 11003 21138 70000
AAXX 04004 71924 11574 53208 11364 21404 39962 40057 57013 69901 77677 85500 333 11325 21367 48038 79999 90983
AAXX 04004 71925 11666 20208 11341 21383 30097 40141 52008 69901 77677 81501 333 11294 21344 44021 79999 90983
AAXX 04004 71926 11574 23610 11257 21314 30023 40048 52031 69901 70177 82530 333 11214 21284 44043 79999 90933
AAXX 04004 71928 16/// /2712 10061 21056 38971 40137 53017 60001 333 10071 21088 70000
AAXX 04004 71500 NIL
AAXX 04004 71501 NIL
AAXX 04004 71502 NIL
AAXX 04004 71503 NIL
AAXX 04004 71504 NIL
AAXX 04004 71505 NIL
AAXX 04004 71506 NIL
AAXX 04004 71507 NIL
AAXX 04004 71508 16/// ///// 11131 21186 30120 40265 53011 60001 333 11131 21146 70009
AAXX 04004 71509 NIL
AAXX 04004 71511 16/// /2605 10006 21031 39525 40167 51016 60001 333 10023 21042 70000
AAXX 04004 71512 16/// /3104 11085 21098 30025 40039 51026 60001 333 11052 21085 70000
AAXX 04004 71513 17558 82414 11067 21098 30025 40040 53028 60001 771// 333 11034 21069 70003
AAXX 04004 71514 NIL
AAXX 04004 71515 16/// /2711 11015 21039 39467 40172 51030 60001 333 10039 21046 70000
AAXX 04004 71516 16/// /2606 10006 21024 60001 333 10077 21032 70000
AAXX 04004 71517 NIL
AAXX 04004 71518 NIL
AAXX 04004 71519 NIL
AAXX 04004 71520 NIL
AAXX 04004 71521 NIL
AAXX 04004 71522 NIL
AAXX 04004 71523 NIL
AAXX 04004 71524 16/// /2704 11178 21231 30198 40226 53027 60001 333 11142 21179 70000
AAXX 04004 71525 NIL
AAXX 04004 71526 NIL
AAXX 04004 71527 15966 32307 11077 21128 39553 40072 53014 60001 333 11067 21211 70000
AAXX 04004 71528 NIL
AAXX 04004 71529 NIL
AAXX 04004 71532 15966 00801 11227 21243 39881 40249 51003 60001 333 11178 21230 70000
AAXX 04004 71534 16964 00000 11255 21278 39966 40257 52005 60001 333 11156 21264 70060
AAXX 04004 71535 NIL
AAXX 04004 71536 NIL
AAXX 04004 71537 NIL
AAXX 04004 71539 NIL
AAXX 04004 71540 NIL
AAXX 04004 71541 NIL
AAXX 04004 71542 16/// /0303 11084 21124 60001 333 11022 21090 70000
AAXX 04004 71543 NIL
AAXX 04004 71544 NIL
AAXX 04004 71545 17/// ///// 11013 21034 69981 7//4/ 333 10031 21054 70013
AAXX 04004 71546 NIL
AAXX 04004 71547 NIL
AAXX 04004 71548 NIL
AAXX 04004 71549 NIL
AAXX 04004 71550 NIL
AAXX 04004 71551 NIL
AAXX 04004 71552 46/// /2607 11078 21094 6///1 333 11039 21136 7////
AAXX 04004 71553 NIL
AAXX 04004 71554 16/// /2913 11134 21178 30118 40124 51015 60001 333 11118 21142 70000
AAXX 04004 71555 16/// /2617 10064 21057 38605 40160 55000 60001 333 10080 20023 70000
AAXX 04004 71556 16/// /2407 11004 21027 39559 40167 50014 60001 333 10032 21044 70000
AAXX 04004 71557 46/// /0905 10061 20003 6///1 333 10085 21027 7////
AAXX 04004 71558 46/// ///// 11019 21060 39967 40003 53030 6///1 333 10014 21020 7////
AAXX 04004 71559 46/// /3207 10001 21027 39483 40190 51043 6///1 333 10048 21031 7////
AAXX 04004 71560 46/// /3314 11018 21054 39804 40112 6///1 333 10035 21134 7////
AAXX 04004 71563 NIL
AAXX 04004 71564 NIL
AAXX 04004 71565 NIL
AAXX 04004 71566 NIL
AAXX 04004 71567 NIL
AAXX 04004 71568 17/// /1410 10073 20050 30138 40150 56007 60201 7//4/ 333 10082 20063 70292
AAXX 04004 71569 16/// /2503 11018 21038 39463 40168 51025 60001 333 10041 21059 70000
AAXX 04004 71570 16/// /2903 11067 21108 39776 40094 51045 60001 333 11028 21142 70000
AAXX 04004 71571 NIL
AAXX 04004 71572 NIL
AAXX 04004 71573 16/// /2102 11166 21209 39958 40255 51006 60001 333 11112 21175 70003
AAXX 04004 71574 12574 82607 11155 21197 30032 40107 52021 60001 88500 333 11079 21160 79999
AAXX 04004 71575 NIL
AAXX 04004 71576 NIL
AAXX 04004 71577 NIL
AAXX 04004 71578 16/// /2411 11178 21234 60001 333 11152 21178 70000
AAXX 04004 71579 16/// /3003 11033 21079 39813 40101 51055 60001 333 10003 21121 70000
AAXX 04004 71580 11574 50000 11387 30030 40069 58003 69901 77677 85500 333 11383 21405 43030 79999 90983
AAXX 04004 71581 NIL
AAXX 04004 71582 17564 81709 10088 20079 30006 40058 53014 60071 76144 333 10100 20052 70170
AAXX 04004 71583 NIL
AAXX 04004 71584 17561 82809 11080 21103 39988 40035 52027 60001 771// 333 11045 21080 70005
AAXX 04004 71585 NIL
AAXX 04004 71586 16/// /2804 11036 21070 39656 40127 51024 60001 333 11005 21140 70000
AAXX 04004 71587 NIL
AAXX 04004 71588 16/// /2305 11018 21049 60001 333 10021 21018 70000
AAXX 04004 71589 16/// /2203 10004 21017 39920 40052 53005 60001 333 10021 20004 70036
AAXX 04004 71590 16/// /3201 11190 21225 39933 40132 53024 60001 333 11130 21190 70000
AAXX 04004 71592 NIL
AAXX 04004 71593 NIL
AAXX 04004 71596 NIL
AAXX 04004 71598 16/48 /2916 11117 21155 30082 40088 53018 60001 333 11061 21124 70000
AAXX 04004 71599 NIL
AAXX 04004 71350 16/// /3105 11049 21101 30010 40076 53021 60001 333 11011 21049 70000
AAXX 04004 71351 NIL
AAXX 04004 71352 16/// /2502 11180 21203 39771 40251 50006 60001 333 11152 21182 70000
AAXX 04004 71353 NIL
AAXX 04004 71354 NIL
AAXX 04004 71355 NIL
AAXX 04004 71356 NIL
AAXX 04004 71357 NIL
AAXX 04004 71358 17/// /3110 11317 21351 39975 40012 58010 69971 7//4/ 333 11298 21345 70031
AAXX 04004 71359 NIL
AAXX 04004 71360 NIL
AAXX 04004 71361 NIL
AAXX 04004 71362 NIL
AAXX 04004 71363 NIL
AAXX 04004 71364 NIL
AAXX 04004 71365 NIL
AAXX 04004 71368 15966 02402 11158 21187 39847 40257 50007 60001 333 11136 21163 70000
AAXX 04004 71369 15966 81306 11011 21036 39404 40109 58002 60001 333 10019 21091 70000
AAXX 04004 71370 46/// /2703 11188 21237 30049 40192 53019 6///1 333 11162 21188 7////
AAXX 04004 71371 15966 02813 11156 21222 30181 40217 53025 60001 333 11128 21156 70000
AAXX 04004 71372 NIL
AAXX 04004 71373 16/// /2806 11172 21227 60001 333 11136 21173 70000
AAXX 04004 71374 NIL
AAXX 04004 71375 NIL
AAXX 04004 71376 16/// /3003 11200 21246 39913 40234 53016 60001 333 11176 21211 70000
AAXX 04004 71377 16/// /2908 11168 21229 30169 40220 53022 60001 333 11140 21168 70000
AAXX 04004 71378 NIL
AAXX 04004 71379 16/// /2915 11188 21231 39987 40167 53020 60001 333 11188 21223 70000
AAXX 04004 71380 NIL
AAXX 04004 71381 NIL
AAXX 04004 71382 NIL
AAXX 04004 71383 NIL
AAXX 04004 71384 16/// /2703 11173 21228 30156 40164 51019 60001 333 11137 21189 70000
AAXX 04004 71385 NIL
AAXX 04004 71386 16/// /3208 11146 21185 39878 40090 53005 60001 333 11131 21161 70000
AAXX 04004 71387 NIL
AAXX 04004 71388 NIL
AAXX 04004 71389 46/// /2903 11192 21241 6///1 333 11140 21192 7////
AAXX 04004 71390 NIL
AAXX 04004 71391 16/// ///// 11190 21231 60001 333 11185 21212 70000
AAXX 04004 71392 16/// /2604 11185 21236 60001 333 11157 21185 70000
AAXX 04004 71393 NIL
AAXX 04004 71395 11474 83610 11019 21049 39888 40067 51016 69901 72682 885// 333 10041 21020 79999 90937
AAXX 04004 71398 15966 81807 11210 21240 30149 40161 56033 60001 333 11210 21278 70001
AAXX 04004 71399 NIL
AAXX 04004 71726 16/// /2805 11246 21274 39633 40211 53015 60001 333 11228 21259 70000
AAXX 04004 71727 11559 83012 11180 21214 39967 40174 51014 69921 77177 885// 333 11172 21186 48049 70002 90973
AAXX 04004 71728 11580 82906 11182 21242 39949 40182 52016 60011 77177 885// 333 11181 21211 44002 70010 90973 93101
AAXX 04004 71730 12474 71606 11212 21253 39778 40232 58011 60001 81552 333 11187 21257 79999
AAXX 04004 71731 12974 02702 11218 21263 39755 40238 58001 60001 333 11200 21277 70008
AAXX 04004 71735 NIL
AAXX 04004 71738 11569 81608 11106 21125 39786 40156 58039 69901 77171 885// 333 11106 21257 47026 79999 90942
AAXX 04004 71739 42974 21808 11199 21245 39811 40197 57023 6//// 82070 333 11187 21257 4//// 7////
AAXX 04004 71749 16964 02604 11078 21128 39833 40087 58014 69951 333 11040 21240 70005
AAXX 04004 71799 11474 81409 10093 20073 30181 40205 55004 60021 76166 885// 333 10097 20061 70062 90973
AAXX 04004 71800 17/// /0909 10014 20014 30030 40063 58009 69981 7//4/ 333 10043 20012 70008
AAXX 04004 71801 11574 81205 10000 21003 39888 40060 58021 69921 78586 885// 333 10041 20000 41997 70108 90927
AAXX 04004 71803 12980 81909 10001 21042 39871 40057 51009 60001 86017 333 10019 20000 70022
AAXX 04004 71807 NIL
AAXX 04004 71808 11574 82524 11034 21076 39969 40015 53022 69901 77122 885// 333 10017 21034 70054 90931
AAXX 04004 71809 12674 72303 10001 21047 30023 40050 52020 60001 87500 333 10031 21007 70006
AAXX 04004 71810 NIL
AAXX 04004 71811 NIL
AAXX 04004 71813 16/// /2313 11067 21096 30023 40037 53027 60001 333 11034 21071 70000
AAXX 04004 71814 16/// /2711 11059 21089 30025 40035 53032 60001 333 11016 21059 70008
AAXX 04004 71815 12474 73010 10000 21040 30026 40057 53018 60001 87500 333 10014 20000 41997 70011
AAXX 04004 71401 16/// /1502 10002 21021 39605 40305 58002 60001 333 10006 21029 70000
AAXX 04004 71402 NIL
AAXX 04004 71404 NIL
AAXX 04004 71405 NIL
AAXX 04004 71406 NIL
AAXX 04004 71407 NIL
AAXX 04004 71408 NIL
AAXX 04004 71409 NIL
AAXX 04004 71410 15966 02707 11067 21090 39777 40061 53032 60001 333 11067 21156 70000
AAXX 04004 71413 NIL
AAXX 04004 71414 NIL
AAXX 04004 71415 16/// /3210 11016 21065 30070 40073 53023 60001 333 10014 21018 70000
AAXX 04004 71417 NIL
AAXX 04004 71418 NIL
AAXX 04004 71419 46/// /3414 10018 20002 30047 40057 51016 6///1 333 10042 20006 7////
AAXX 04004 71423 NIL
AAXX 04004 71424 46/// /2612 6///1 333 7////
AAXX 04004 71425 16/// /2718 11111 21154 30027 40064 51011 60001 333 11079 21118 70000
AAXX 04004 71426 NIL
AAXX 04004 71427 16/// /2712 11139 21181 30084 40092 51018 60001 333 11104 21141 70010
AAXX 04004 71428 16/// /2917 11106 21143 30080 40086 52016 60001 333 11081 21133 70086
AAXX 04004 71429 16/// /2608 11132 21173 30044 40064 53019 60001 333 11076 21134 70000
AAXX 04004 71434 NIL
AAXX 04004 71436 15966 03004 11157 21201 30003 40251 51015 60001 333 11136 21162 70000
AAXX 04004 71437 NIL
AAXX 04004 71438 NIL
AAXX 04004 71439 NIL
AAXX 04004 71440 NIL
AAXX 04004 71442 NIL
AAXX 04004 71445 NIL
AAXX 04004 71446 NIL
AAXX 04004 71448 16/// /3005 11057 21099 39754 40090 51045 60001 333 11017 21142 70000
AAXX 04004 71449 NIL
AAXX 04004 71250 NIL
AAXX 04004 71251 16/// /2426 10079 21065 39244 40165 55001 60001 333 10104 20018 70000
AAXX 04004 71252 NIL
AAXX 04004 71253 46/// /0703 11118 21123 6///1 333 11083 21137 7////
AAXX 04004 71254 16/// /2102 10000 21033 60001 333 10034 21065 70000
AAXX 04004 71255 16/// /1803 11060 21102 60001 333 11021 21064 70000
AAXX 04004 71256 46/// /2704 10026 21008 39180 40115 53004 6///1 333 10029 21047 7////
AAXX 04004 71257 NIL
AAXX 04004 71258 NIL
AAXX 04004 71259 NIL
AAXX 04004 71261 16/// /1609 11137 21179 39974 40247 50001 60001 333 11089 21149 70012 555 10020
AAXX 04004 71263 13060 02704 11151 21205 39958 40263 50011 69901 80000 333 11117 21151 4-4002 70006
AAXX 04004 71264 16/// /3308 11006 21051 30034 40066 53023 60001 333 10051 21006 70000
AAXX 04004 71265 15966 02907 11123 21191 30165 40264 52012 60001 333 11122 21137 70000
AAXX 04004 71266 NIL
AAXX 04004 71267 15966 62520 10075 21074 39100 40190 53004 60001 333 10095 20049 70000
AAXX 04004 71268 NIL
AAXX 04004 71269 NIL
AAXX 04004 71270 NIL
AAXX 04004 71271 16/// ///// 10009 21024 60001 333 10033 21036 70000
AAXX 04004 71272 17566 83215 11062 21090 39635 49990 51040 60001 771// 333 11056 21162 70000
AAXX 04004 71273 16/// /1701 11017 21042 39472 40136 53005 60001 333 10022 21081 70000
AAXX 04004 71274 NIL
AAXX 04004 71275 NIL
AAXX 04004 71276 NIL
AAXX 04004 71277 NIL
AAXX 04004 71278 NIL
AAXX 04004 71279 16/// /3007 11153 21184 39997 40065 51029 60001 333 11097 21155 70003
AAXX 04004 71281 NIL
AAXX 04004 71282 46/// /0201 11173 21194 39967 40253 52004 6///1 333 11164 21206 7////
AAXX 04004 71283 NIL
AAXX 04004 71284 16/// ///// 11001 21028 60001 333 10018 21041 70000
AAXX 04004 71285 NIL
AAXX 04004 71286 NIL
AAXX 04004 71287 NIL
AAXX 04004 71288 NIL
AAXX 04004 71289 NIL
AAXX 04004 71290 17466 81511 10020 20013 39246 40072 53005 60081 76144 333 10019 21051 70118
AAXX 04004 71291 16/// /1810 11058 21094 39781 40085 56018 60001 333 11056 21240 70000
AAXX 04004 71292 15966 02914 11016 21041 39544 40157 51035 60001 333 10012 21082 70000
AAXX 04004 71294 16/// /0000 11220 21241 39811 40240 53014 60001 333 11160 70000 555 10010
AAXX 04004 71295 NIL
AAXX 04004 71296 NIL
AAXX 04004 71297 16/// /2401 11141 21193 60001 333 11109 21141 70000
AAXX 04004 71298 NIL
AAXX 04004 71299 NIL
AAXX 04004 71900 46/// /34// 11031 21040 39933 49946 53049 6///1 333 11026 21090 7////
AAXX 04004 71903 NIL
AAXX 04004 71904 NIL
AAXX 04004 71914 16/// /0205 10082 20061 39989 40211 55002 60001 333 10086 20062 70009
AAXX 04004 71916 NIL
AAXX 04004 71918 460// ///// 11320 6///1 333 7////
AAXX 04004 71920 NIL
AAXX 04004 71921 NIL
AAXX 04004 71923 NIL
AAXX 04004 71927 17/// /2702 10075 20066 30147 40205 55004 60041 7//4/ 333 10083 20045 70091
AAXX 04004 71941 15966 02304 11239 21260 39784 40231 58001 60001 333 11210 21273 70000
AAXX 04004 71947 15966 02005 11272 21291 39837 40209 57008 60001 333 11216 21280 70001
AAXX 04004 71816 11574 52615 11080 21111 39923 49984 53032 69901 73682 82570 333 10000 21081 43096 70044 90936
AAXX 04004 71817 NIL
AAXX 04004 71818 11574 72310 11022 21050 39930 49948 53024 69901 70272 87500 333 10026 21025 44022 70008 90940
AAXX 04004 71822 11566 62705 11236 21281 39692 40197 52018 69901 70371 86500 333 11205 21251 43049 70012 90943
AAXX 04004 71825 11574 43210 11143 21175 39366 40052 52037 69921 77671 84500 333 11039 21150 48117 70010 90962
AAXX 04004 71827 11974 81807 11232 21268 39883 40140 58017 69901 77677 80007 333 11212 21248 48018 70006 90983
AAXX 04004 71828 17564 83311 11165 21183 39394 40046 51036 69951 7//44 333 11117 21166 70020
AAXX 04004 71831 12574 81709 11176 21221 39874 40171 58030 60001 8351/ 333 11176 21263 79999
AAXX 04004 71832 NIL
AAXX 04004 71834 11674 82212 11069 21107 39641 40086 55026 69901 72222 885// 333 11068 21304 48035 79999 90912
AAXX 04004 71841 NIL
AAXX 04004 71842 12974 62304 11089 21149 39587 40071 53009 60001 82071 333 11076 21247 70000
AAXX 04004 71844 NIL
AAXX 04004 71845 12874 22205 11117 21160 39557 40047 53002 60001 81071 333 11097 21265 70000
AAXX 04004 71850 12974 02506 11065 21103 39568 40078 53024 60001 333 11052 21186 79999
AAXX 04004 71852 16964 32911 11061 21084 39810 40110 52054 60001 333 10006 21120 70005
AAXX 04004 71854 12974 22305 11103 21143 39576 40061 52020 60001 82030 333 11079 21204 70000
AAXX 04004 71858 NIL
AAXX 04004 71861 16/// /2908 11017 21048 39432 40159 51034 60001 333 10047 21017 70000
AAXX 04004 71862 12974 13207 11003 21032 39486 40194 51040 60001 80001 333 10048 21033 70000
AAXX 04004 71863 46864 33009 11031 21058 39476 40181 51021 6///1 333 10024 21074 7////
AAXX 04004 71051 NIL
AAXX 04004 71055 NIL
AAXX 04004 71057 NIL
AAXX 04004 71059 460// ///// 11241 30064 40158 51017 6///1 333 11206 21249 7////
AAXX 04004 71061 16/// /2702 11014 21035 39328 40111 51012 60001 333 10006 21057 70000
AAXX 04004 71062 46/// /2804 10024 21042 39042 40105 53019 6///1 333 10048 21021 7////
AAXX 04004 71064 460// /3615 11327 39921 40148 53015 6///1 333 11268 21329 7////
AAXX 04004 71065 NIL
AAXX 04004 71067 NIL
AAXX 04004 71070 NIL
AAXX 04004 71073 NIL
AAXX 04004 71074 NIL
AAXX 04004 71075 NIL
AAXX 04004 71078 NIL
AAXX 04004 71084 460// ///// 11335 30055 40105 51013 6///1 333 11280 21340 7////
AAXX 04004 71085 15966 02532 10044 21074 38817 40198 50008 60001 333 10059 20018 70000
AAXX 04004 71087 NIL
AAXX 04004 71088 460// /3407 11300 58002 6///1 333 11300 21333 7////
AAXX 04004 71089 NIL
AAXX 04004 71096 460// ///// 11312 39220 49982 57008 6///1 333 11303 21313 7////
AAXX 04004 71097 46964 01202 11274 39510 40003 51004 6///1 333 11265 21274 7////
AAXX 04004 71098 43/// /2605 11108 21125 39655 40021 50013 6///1 333 11091 21201 7////
AAXX 04004 71099 43/// /1908 11146 21182 39932 49953 56021 6///1 333 11145 21316 7////
AAXX 04004 71744 NIL
AAXX 04004 71750 17/// /2012 11043 21068 39860 40102 56040 69941 7//4/ 333 11042 21252 70007 555 10030
AAXX 04004 71751 NIL
AAXX 04004 71752 NIL
AAXX 04004 71753 16/// /3506 11017 21054 30034 40063 52022 60001 333 10046 21020 70000 555 10030
AAXX 04004 71754 16/// /1806 11036 21063 39486 40158 55003 60001 333 10043 21091 70000
AAXX 04004 71755 43/// /2412 11107 21140 39653 40004 50003 6///1 333 11100 21259 7////
AAXX 04004 71756 17/// /0202 10002 20000 39103 40202 56003 60051 7//4/ 333 10013 20002 70056 555 10010
AAXX 04004 71758 NIL
AAXX 04004 71760 NIL
AAXX 04004 71761 NIL
AAXX 04004 71762 NIL
AAXX 04004 71763 NIL
AAXX 04004 71765 16/// /2017 10068 20036 39912 40186 51005 60001 333 10112 20019 70000
AAXX 04004 71766 17/// /1214 10077 20069 30097 40168 56008 60181 7//4/ 333 10077 20037 70208
AAXX 04004 71767 16/// /1103 11134 21149 39962 40237 58013 60001 333 11133 21177 70000 555 10020
AAXX 04004 71768 46/// /1805 10032 21026 39704 40260 58001 6///1 333 10040 21006 7////
AAXX 04004 71769 17/// /1130 10080 20070 30158 40174 55006 60031 7//4/ 333 10088 20071 70040
AAXX 04004 71770 NIL
AAXX 04004 71771 NIL
AAXX 04004 71772 17/// /1126 10081 20074 30178 40184 55001 60021 7//4/ 333 10094 20074 70028
AAXX 04004 71773 16/// /1701 11147 21159 39121 49984 55009 60001 333 11083 21172 70000
AAXX 04004 71774 46/// ///// 10059 6///1 333 10069 20047 7////
AAXX 04004 71775 17/// /0207 10076 20068 30221 40227 55005 60061 7//4/ 333 10078 20050 70208
AAXX 04004 71776 46/// /2206 10021 21001 39647 40302 53007 6///1 333 10027 21011 7////
AAXX 04004 71777 17/// ///// 10013 20009 39961 40216 55003 60051 7//4/ 333 10023 21018 70064
AAXX 04004 71778 46/// /3508 6///1 333 7////
AAXX 04004 71779 16/// /1107 10068 21020 39449 40103 53007 60001 333 10072 20014 70000
AAXX 04004 71780 17/// /0702 10081 20074 30169 40196 56016 69981 7//4/ 333 10094 20071 70052
AAXX 04004 71781 46/// /1139 10084 20072 30127 40152 55015 6///1 333 10089 20074 7////
AAXX 04004 71782 46/// /1708 10024 21030 38922 40259 53013 6///1 333 10038 20006 7////
AAXX 04004 71783 17/// /0501 10083 20064 30121 40195 55008 69921 7//4/ 333 10087 20051 70040
AAXX 04004 71784 17/// /0707 10080 20067 30010 40215 56005 60111 7//4/ 333 10082 20057 70208
AAXX 04004 71785 17/// /0805 10097 20077 30208 40224 55007 60051 7//4/ 333 10112 20083 70072
AAXX 04004 71786 46/// /2815 11037 21044 38408 40274 50009 6///1 333 11036 21082 7////
AAXX 04004 71787 16/// /3209 11128 21151 39588 40086 53029 60001 333 11060 21128 70000
AAXX 04004 71788 NIL
AAXX 04004 71789 NIL
AAXX 04004 71791 NIL
AAXX 04004 71792 NIL
AAXX 04004 71793 NIL
AAXX 04004 71794 NIL
AAXX 04004 71795 NIL
AAXX 04004 71796 NIL
AAXX 04004 71797 NIL
AAXX 04004 71930 11774 83106 10034 21012 39186 40118 53005 69921 76122 885// 333 10035 21055 43016 70002 90910
AAXX 04004 71931 16/// /2005 10028 21004 30033 40045 53011 60001 333 10050 20005 70000
AAXX 04004 71934 11974 10000 11157 21181 39880 40142 51029 69901 70171 81031 333 11029 21157 79999 90942
AAXX 04004 71935 12974 22906 11165 21183 39943 40158 53018 60001 80001 333 11008 21177 70000
AAXX 04004 71936 12974 12704 11210 21244 39874 40143 52029 60001 80001 333 11119 21212 79999
AAXX 04004 71937 NIL
AAXX 04004 71938 11861 20207 11248 21286 30112 40143 53027 69901 77677 82030 333 11199 21250 79999 90983
AAXX 04004 71940 11582 81406 10010 20005 39276 40081 56016 69961 72162 885// 333 10020 21036 40997 70006 90966
AAXX 04004 71943 11559 81211 10005 21018 39227 40058 55015 60011 76176 885// 333 10011 21009 42002 70014 90962
AAXX 04004 71944 160// ///// 10015 53006 60061 333 10019 21040 70075
AAXX 04004 71945 12774 80000 11086 21129 39588 40069 55025 60001 885// 333 11077 21208 70000
AAXX 04004 71946 12974 20000 11225 21250 39914 40137 57001 60001 81071 333 11153 21231 70000
AAXX 04004 71948 47058 /1213 11209 30030 40146 51021 6///1 745// 333 11179 21209 7////
AAXX 04004 71949 46/// /0802 11198 21219 39142 40034 56018 6///1 333 11157 21200 7////
AAXX 04004 71951 11248 81107 10011 20008 39759 40024 50017 60111 72176 887// 333 10012 20000 43066 70208 90983
AAXX 04004 71957 46964 30905 11297 21368 30055 40148 50009 6///1 333 11240 21332 7////
AAXX 04004 71964 12566 83002 11148 21166 39124 49986 56009 60001 71511 885// 333 11085 21178 70000
AAXX 04004 71966 17/// /0000 11343 21383 39601 40093 56017 60051 7//4/ 333 11337 21361 70078
AAXX 04004 71968 460// /1109 11290 30061 40129 51007 6///1 333 11257 21309 7////
AAXX 04004 71864 NIL
AAXX 04004 71865 16/// /2607 11022 21054 39476 40162 51021 60001 333 10013 21024 70000
AAXX 04004 71866 46964 31603 11006 21048 39543 40163 51003 6///1 333 10034 21066 7////
AAXX 04004 71867 12874 13212 11009 21063 39753 40091 51027 60001 81070 333 11007 21124 79999
AAXX 04004 71868 NIL
AAXX 04004 71869 12974 70000 11052 21071 39619 40153 51008 60001 80001 333 10017 21122 70000
AAXX 04004 71871 15966 02009 11016 21051 39330 40139 55005 60001 333 10032 21037 70000
AAXX 04004 71877 12586 72812 10091 21053 38888 40147 53006 60001 81570 333 10097 20029 70000
AAXX 04004 71878 12974 70000 10029 21023 39063 40137 53008 60001 86071 333 10038 21074 70000
AAXX 04004 71879 16964 02004 10014 21051 39314 40120 50006 69951 333 10053 21047 70005
AAXX 04004 71880 12682 71510 10040 21021 39163 40288 53007 60001 82570 333 10051 21056 70000
AAXX 04004 71882 160// /0000 11007 21012 39740 40292 52004 60081 333 11007 21034 70115
AAXX 04004 71883 46/// /1701 10005 20002 39402 40235 58003 6///1 333 10021 21054 7////
AAXX 04004 71887 NIL
AAXX 04004 71889 12874 71719 10037 21028 39842 40266 51003 60001 86071 333 10044 20016 70000
AAXX 04004 71891 16764 32119 10069 20043 39914 40188 50006 60001 333 10113 20022 70005
AAXX 04004 71892 11562 80916 10081 20069 30211 40216 56006 60091 76366 8652/ 333 10086 20069 70128 90973
AAXX 04004 71102 NIL
AAXX 04004 71105 NIL
AAXX 04004 71107 NIL
AAXX 04004 71110 NIL
AAXX 04004 71111 17966 01607 10078 20060 39958 49966 53011 69951 7004/ 333 10101 20031
AAXX 04004 71112 17/// ///// 60101 7//4/ 333 70178
AAXX 04004 71113 17/// /1902 10063 20060 30202 40226 58009 60061 7//4/ 333 10078 20028 70260
AAXX 04004 71115 NIL
AAXX 04004 71116 16/// /2410 10064 21078 39098 40191 50003 60001 333 10102 20029 70000
AAXX 04004 71118 16/// /1905 10013 21032 39301 40127 56010 60001 333 10052 21015 70000
AAXX 04004 71121 16964 02204 10011 21071 39294 40120 50007 60001 333 10047 21038 70000
AAXX 04004 71127 16/// /2105 10013 21037 39205 40111 51009 60001 333 10035 21012 70000
AAXX 04004 71130 15966 02309 11023 21070 39676 40139 51018 60001 333 10017 21107 70000
AAXX 04004 71132 17566 82807 11090 21125 39780 40099 51047 60001 771// 333 11046 21173 70000
AAXX 04004 71133 NIL
AAXX 04004 71139 NIL
AAXX 04004 71141 NIL
AAXX 04004 71142 NIL
AAXX 04004 71143 NIL
AAXX 04004 71144 NIL
AAXX 04004 71147 16/// /3108 11002 21044 60001 333 10065 21128 70000
AAXX 04004 71149 NIL
AAXX 04004 71397 11574 83210 11041 21088 30053 40088 51019 69901 70282 885// 333 10031 21044 45997 79999 90941
AAXX 04004 71400 16/64 /0401 11016 21033 60001 333 10016 21019 70042
AAXX 04004 71403 46/// /3616 10002 21021 30040 40060 51027 6///1 333 10055 20002 7////
AAXX 04004 71411 16/// /3408 11017 21056 30054 40067 51016 60001 333 10058 21017 70000
AAXX 04004 71412 16/// /3108 11022 21067 30061 40071 53017 60001 333 10008 21023 70000
AAXX 04004 71421 NIL
AAXX 04004 71430 16/// /3309 11138 21214 30143 40245 51019 60001 333 11119 21149 70000
AAXX 04004 71431 NIL
AAXX 04004 71432 NIL
AAXX 04004 71433 NIL
AAXX 04004 71435 NIL
AAXX 04004 71441 46/// /3309 11015 21047 39798 40111 53060 6///1 333 10053 21134 7////
AAXX 04004 71443 NIL
AAXX 04004 71444 16/// /2904 11017 21054 39371 40140 51054 60001 333 10032 21139 70000
AAXX 04004 71447 16/// /3013 10006 21027 39619 40170 51061 60001 333 10051 21073 70000
AAXX 04004 71467 16/// /0915 11240 21262 30053 40172 51018 60001 333 11199 21258 70020 555 10020
AAXX 04004 71472 NIL
AAXX 04004 71474 16664 81711 10044 21028 38933 40173 53006 60001 333 10054 21028 70000
AAXX 04004 71510 16/// /2107 11003 21036 39442 40151 56007 60001 333 10041 21007 70010
AAXX 04004 71538 11974 50000 11071 21130 30021 40260 50002 69901 70181 85010 333 11057 21079 42997 70002 90962
AAXX 04004 71600 164// 80103 10037 20023 30046 40052 53007 60001 333 10065 20027 70015
AAXX 04004 71601 NIL
AAXX 04004 71150 46/// /2907 11040 21062 39457 40147 51051 6///1 333 10003 21106 7////
AAXX 04004 71151 NIL
AAXX 04004 71152 16/// /2110 10032 20019 30037 40050 53015 60001 333 10034 20021 70017
AAXX 04004 71153 16/// /2615 10074 21081 60001 333 10082 20035 70000
AAXX 04004 71154 16/// /2322 10044 21076 60001 333 10064 20024 70000
AAXX 04004 71155 NIL
AAXX 04004 71156 NIL
AAXX 04004 71157 46/// ///// 10012 21028 6///1 333 10052 21040 7////
AAXX 04004 71158 NIL
AAXX 04004 71159 NIL
AAXX 04004 71160 NIL
AAXX 04004 71161 NIL
AAXX 04004 71162 NIL
AAXX 04004 71163 46/// /2605 11243 21264 39788 40143 51018 6///1 333 11149 21250 7////
AAXX 04004 71164 NIL
AAXX 04004 71165 NIL
AAXX 04004 71166 NIL
AAXX 04004 71167 15866 82002 10020 21030 39017 40118 50000 60001 333 10030 21072 70000
AAXX 04004 71168 NIL
AAXX 04004 71170 NIL
AAXX 04004 71171 16/// /2506 11126 21190 30153 40256 53011 60001 333 11085 21135 70000
AAXX 04004 71172 16/// ///// 11175 21204 30007 40238 58001 60001 333 11154 21220 70000
AAXX 04004 71175 46/// /3308 10000 21020 30028 53021 6///1 333 7////
AAXX 04004 71176 460// /2911 11183 39304 49996 51023 6///1 333 11133 21188 7////
AAXX 04004 71177 460// ///// 11120 38953 49954 53048 6///1 333 11077 21135 7////
AAXX 04004 71178 16/// /2106 10013 21008 30022 40054 50000 60001 333 10037 20012 70034
AAXX 04004 71179 460// /2312 11105 39104 49926 53030 6///1 333 11081 21105 7////
AAXX 04004 71180 16/// /3107 11008 21048 30027 40066 51021 60001 333 10028 21008 70000
AAXX 04004 71181 16964 00803 11001 21014 30000 40036 5/011 60001 333 70180
AAXX 04004 71183 16/// /2913 30178 53024 60001 333 70000
AAXX 04004 71184 46/// /2910 11159 21218 6///1 333 11128 21159 7////
AAXX 04004 71186 NIL
AAXX 04004 71187 17636 80601 10058 20057 30186 40234 58004 60001 762// 333 10075 20031 70000
AAXX 04004 71189 NIL
AAXX 04004 71190 NIL
AAXX 04004 71191 16/// ///// 11083 21137 60001 333 11009 21083 70000
AAXX 04004 71192 15966 81207 10068 21021 39452 40107 53007 60001 333 10071 20016 70000
AAXX 04004 71193 16/// /1807 11207 21234 39811 40197 56022 60001 333 11190 21265 70000
AAXX 04004 71196 16/// /2803 11213 21247 30036 40248 53013 60001 333 11188 21227 70000
AAXX 04004 71197 17564 83113 11008 21040 30010 40059 50016 60001 745// 333 10026 21008 70000
AAXX 04004 71198 46/// /2909 11154 21210 6///1 333 11140 21159 7////
AAXX 04004 71199 46/// /3102 11149 21165 39195 40048 55016 6///1 333 11149 21226 7////
AAXX 04004 71603 11569 83613 11031 21083 30034 40087 50020 69921 78582 885// 333 10030 21033 45997 70004 90962
AAXX 04004 71607 16/// /3207 11120 21171 30092 40125 53036 60001 333 11046 21120 70000
AAXX 04004 71609 12774 43314 11110 21174 39971 40108 50032 60001 81510 333 11030 21110 70000
AAXX 04004 71610 15966 02904 11173 21213 39878 40188 53022 60001 333 11132 21173 70000
AAXX 04004 71621 12974 03007 11152 21225 30139 40251 52018 60001 333 11127 21159 79999
AAXX 04004 71623 NIL
AAXX 04004 71624 12974 02805 11139 21208 30035 40258 51009 60001 333 11138 21165 79999
AAXX 04004 71625 16964 02704 11204 21258 30079 40251 53011 60001 333 11184 21223 70000
AAXX 04004 71627 12574 12912 11169 21248 30174 40221 53023 60001 81100 333 11139 21169 79999
AAXX 04004 71628 13560 32810 11192 21244 30091 40241 53002 60001 83500 333 11169 21193 79999
AAXX 04004 71630 NIL
AAXX 04004 71631 NIL
AAXX 04004 71633 11474 61807 11132 21175 39956 40241 58006 69901 77181 86500 333 11129 21162 48012 70027 90927
AAXX 04004 71705 12674 63008 11099 21148 30005 40094 53028 60001 82501 333 11033 21099 70000
AAXX 04004 71706 12774 63305 11047 21106 30025 40086 53023 60001 82570 333 11008 21049 70002
AAXX 04004 71707 12674 83104 10004 21015 39984 40061 53018 60001 885// 333 10026 21027 79999
AAXX 04004 71709 12574 33015 11045 21081 30054 40067 51014 60001 83500 333 10006 21014 70000
AAXX 04004 71711 NIL
AAXX 04004 71714 16/// /2609 11190 21243 30103 40200 52017 60001 333 11158 21190 70000
AAXX 04004 71715 16/// /3207 11169 21217 39951 40141 51013 60001 333 11151 21177 70000
AAXX 04004 71718 11574 62914 11136 21170 30049 40117 52015 69901 70182 86500 333 11121 20145 48010 70006 90951
AAXX 04004 71719 16/// /2812 11127 21169 30080 40086 53023 60001 333 11055 21127 70000
AAXX 04004 71930 11774 83106 10034 21012 39186 40118 53005 69921 76122 885// 333 10035 21055 43016 70002 90910
AAXX 04004 71931 16/// /2005 10028 21004 30033 40045 53011 60001 333 10050 20005 70000
AAXX 04004 71934 11974 10000 11157 21181 39880 40142 51029 69901 70171 81031 333 11029 21157 79999 90942
AAXX 04004 71935 12974 22906 11165 21183 39943 40158 53018 60001 80001 333 11008 21177 70000
AAXX 04004 71936 12974 12704 11210 21244 39874 40143 52029 60001 80001 333 11119 21212 79999
AAXX 04004 71937 NIL
AAXX 04004 71938 11861 20207 11248 21286 30112 40143 53027 69901 77677 82030 333 11199 21250 79999 90983
AAXX 04004 71940 11582 81406 10010 20005 39276 40081 56016 69961 72162 885// 333 10020 21036 40997 70006 90966
AAXX 04004 71943 11559 81211 10005 21018 39227 40058 55015 60011 76176 885// 333 10011 21009 42002 70014 90962
AAXX 04004 71944 160// ///// 10015 53006 60061 333 10019 21040 70075
AAXX 04004 71945 12774 80000 11086 21129 39588 40069 55025 60001 885// 333 11077 21208 70000
AAXX 04004 71946 12974 20000 11225 21250 39914 40137 57001 60001 81071 333 11153 21231 70000
AAXX 04004 71948 47058 /1213 11209 30030 40146 51021 6///1 745// 333 11179 21209 7////
AAXX 04004 71949 46/// /0802 11198 21219 39142 40034 56018 6///1 333 11157 21200 7////
AAXX 04004 71951 11248 81107 10011 20008 39759 40024 50017 60111 72176 887// 333 10012 20000 43066 70208 90983
AAXX 04004 71957 46964 30905 11297 21368 30055 40148 50009 6///1 333 11240 21332 7////
AAXX 04004 71964 12566 83002 11148 21166 39124 49986 56009 60001 71511 885// 333 11085 21178 70000
AAXX 04004 71966 17/// /0000 11343 21383 39601 40093 56017 60051 7//4/ 333 11337 21361 70078
AAXX 04004 71968 460// /1109 11290 30061 40129 51007 6///1 333 11257 21309 7////
AAXX 04004 71300 NIL
AAXX 04004 71301 NIL
AAXX 04004 71302 17/// /1923 10053 21019 39268 40077 53008 69931 7//4/ 333 10058 21001 70040
AAXX 04004 71303 46/// ///// 11104 21125 6///1 333 11052 21113 7////
AAXX 04004 71305 15966 03503 11122 21139 39842 40138 50022 60001 333 11041 21131 70000
AAXX 04004 71306 17461 62013 11170 21192 30039 40072 57016 60001 771// 333 11167 21224 70000
AAXX 04004 71307 NIL
AAXX 04004 71308 16/// /0110 11007 21037 39986 40071 52021 60001 333 10029 21007 70000
AAXX 04004 71309 NIL
AAXX 04004 71310 16/// /2908 11038 21091 30035 40072 51016 60001 333 11009 21038 70000
AAXX 04004 71311 NIL
AAXX 04004 71312 16/// /2509 11027 21074 39673 40136 51017 60001 333 10019 21125 70000
AAXX 04004 71314 16/// /2602 11210 21237 39873 40249 52006 60001 333 11168 21223 70000
AAXX 04004 71315 16/// /2409 11155 21202 30054 40109 53017 60001 333 11102 21157 70000
AAXX 04004 71316 16/// /0000 11022 21045 39436 40125 50001 60001 333 11013 21120 70000
AAXX 04004 71317 NIL
AAXX 04004 71318 16/// /2010 10007 21039 39186 40135 56005 60001 333 10066 21037 70000
AAXX 04004 71319 16/// /3503 11216 21237 39222 40126 53015 60001 333 11194 21227 70000
AAXX 04004 71320 NIL
AAXX 04004 71321 NIL
AAXX 04004 71322 NIL
AAXX 04004 71323 NIL
AAXX 04004 71331 NIL
AAXX 04004 71332 NIL
AAXX 04004 71334 NIL
AAXX 04004 71335 46150 6//// 11125 39362 49980 51038 6///1 333 11062 21128 7////
AAXX 04004 71336 46/// ///03 10009 20004 30017 40039 58009 6///1 333 10047 20006 7////
AAXX 04004 71337 46/// /2307 11018 21051 39797 40034 53018 6///1 333 10022 21019 7////
AAXX 04004 71338 46440 80000 11291 21337 39999 40007 57008 6///1 333 11291 21360 7////
AAXX 04004 71339 16564 82412 11034 21086 39978 49992 53033 60001 333 10017 21035 70100
AAXX 04004 71340 NIL
AAXX 04004 71341 NIL
AAXX 04004 71342 NIL
AAXX 04004 71343 NIL
AAXX 04004 71344 NIL
AAXX 04004 71345 NIL
AAXX 04004 71346 NIL
AAXX 04004 71347 NIL
AAXX 04004 71348 NIL
AAXX 04004 71349 NIL
AAXX 04004 71450 16/// /1604 11034 21059 39446 40170 58004 60001 333 10041 21037 70000
AAXX 04004 71451 NIL
AAXX 04004 71452 46/// /3207 11027 21045 39469 40185 51036 6///1 333 10059 21065 7//// 555 10010
AAXX 04004 71453 16/// /2310 10050 21039 39256 40166 58004 60001 333 10099 20040 70000
AAXX 04004 71454 16/// /2603 11043 21074 39444 40142 51007 60001 333 10004 21115 70000
AAXX 04004 71455 46/// /2107 11005 21020 39368 40168 58006 6///1 333 10040 21008 7////
AAXX 04004 71456 16/// /2607 11047 21078 39548 40154 51015 60001 333 11007 21067 70000
AAXX 04004 71457 16/// /2308 10052 21040 39250 40136 56006 60001 333 10109 21007 70000
AAXX 04004 71458 16/// /1704 11007 21042 39349 40123 50002 60001 333 10024 21067 70000
AAXX 04004 71459 NIL
AAXX 04004 71460 16/// /0102 11156 21184 39984 40240 58015 60001 333 11152 21216 70000
AAXX 04004 71461 NIL
AAXX 04004 71462 NIL
AAXX 04004 71463 46/// /3109 11136 21218 30035 40270 53016 6///1 333 11097 21143 7////
AAXX 04004 71464 NIL
AAXX 04004 71465 NIL
AAXX 04004 71466 NIL
AAXX 04004 71468 NIL
AAXX 04004 71470 NIL
AAXX 04004 71471 17866 81608 10023 20005 39279 40063 55013 60021 7004/ 333 10042 21083 70015
AAXX 04004 71473 17/// /1724 10081 20051 30170 40200 56008 69921 7//4/ 333 10082 20063 70010
AAXX 04004 71475 17/// /3202 10033 20029 30092 40186 56007 60301 7//4/ 333 10066 20013 70468
AAXX 04004 71476 NIL
AAXX 04004 71477 17/// /1711 10065 20052 69921 7//4/ 333 10079 20046 70190
AAXX 04004 71478 NIL
AAXX 04004 71479 NIL
AAXX 04004 71480 NIL
AAXX 04004 71481 NIL
AAXX 04004 71482 NIL
AAXX 04004 71483 NIL
AAXX 04004 71484 NIL
AAXX 04004 71485 17/// /1243 10069 20056 30042 40062 55003 69941 7//4/ 333 10083 20066 70016
AAXX 04004 71486 16/// /2006 10029 21025 38964 40166 50002 60001 333 10053 21015 70000
AAXX 04004 71487 NIL
AAXX 04004 71489 NIL
AAXX 04004 71490 NIL
AAXX 04004 71491 NIL
AAXX 04004 71492 NIL
AAXX 04004 71493 16/// /3207 11040 21093 30042 40081 53023 60001 333 10012 21040 70003
AAXX 04004 71494 NIL
AAXX 04004 71495 NIL
AAXX 04004 71496 16/// /1703 11009 21041 39539 40156 51002 60001 333 10033 21069 70000
AAXX 04004 71497 46/// /0612 11134 21180 39828 40098 58013 6///1 333 11066 21139 7////
AAXX 04004 71498 NIL
AAXX 04004 71499 15966 02810 11061 21104 39467 40101 53036 60001 333 11038 21101 70000
AAXX 04004 47090 32663 22905 11034 21142 30188 40211 52025 81500 333 21056 3/105 41/// 92032
AAXX 04004 47095 11556 41801 11110 21148 30062 40265 52029 69902 70511 84500 333 21115 3/106 47001
AAXX 04004 47097 329// /2301 11082 21140 30161 40263 52028 333 21097 3/105
AAXX 04004 47098 129// /0001 11103 21130 30119 40263 52029 69912 333 21117 3/105
AAXX 04004 47099 129// /0001 11110 21145 30229 40268 52028 69902 333 21128 3/107
AAXX 04004 47100 12370 12708 11131 21167 39268 40247 52028 69912 81500 333 21139 3/107 49023
AAXX 04004 47102 12668 72911 11062 21107 30093 40281 52025 69912 87500 333 21066 3/101 43007
AAXX 04004 47104 32970 01405 11051 21149 30109 40211 52023 333 21080 3/103 43002
AAXX 04004 47106 329// /2507 11041 21157 30157 40208 52024 333 21057 3/104
AAXX 04004 47112 11958 03411 11074 21142 30177 40266 52026 69902 70500 333 21075 34106 92023
AAXX 04004 47114 12660 62302 11087 21148 30065 40259 52029 69902 85500 333 21092 3/107 46///
AAXX 04004 47119 11956 02905 11079 21126 30220 40265 52025 69902 70500 333 21086 3/104 43001
AAXX 04004 47121 129// /2503 11085 21137 39942 40254 52031 60022 333 21091 3/102
AAXX 04004 47127 129// /2505 11075 21141 30111 40261 52027 69902 333 21077 3/105
AAXX 04004 47129 11658 63409 11042 21102 30234 40272 52026 60022 70522 86500 333 21047 3/001 43004
AAXX 04004 47130 32967 02305 11041 21157 30139 40203 52025 333 21061 34103 92022
AAXX 04004 47131 11659 22902 11068 21120 30188 40263 52026 60012 70521 82500 333 21074 3/101 47002
AAXX 04004 47135 129// /2714 11073 21113 39938 40254 52031 60012 333 21075 3/104
AAXX 04004 47136 12965 02908 11061 21143 30057 40238 52024 69902 333 21071 30106
AAXX 04004 47137 129// /2704 11066 21160 30125 40250 52030 69902 333 21070 3/106
AAXX 04004 47140 11550 73403 11047 21056 30236 40266 52028 60062 78588 87800 333 21052 3/001 43010 92012
AAXX 04004 47143 12661 42705 11043 21122 30168 40251 52026 69952 84500 333 21048 3/101 43003
AAXX 04004 47145 11558 62906 11067 21118 30230 40258 52027 60032 70522 85500 333 21069 3/101 43005
AAXX 04004 47146 11661 60205 11044 21078 30195 40264 52026 60022 72277 86500 333 21050 3/000 43005
AAXX 04004 47150 11659 60205 11048 21080 30244 40264 52025 60062 72682 85500 333 21051 3/000 49015
AAXX 04004 47152 12968 02911 11035 21126 30181 40226 52030 69902 333 21039 34103
AAXX 04004 47154 129// /2905 11053 21118 30184 40247 52027 69952 333 21055 3/102
AAXX 04004 47155 12661 21405 11020 21098 30184 40232 52028 69902 81500 333 21026 34102
AAXX 04004 47156 11557 73603 11031 21042 30170 40263 52024 60042 78588 82800 333 21039 3/001 49007
AAXX 04004 47157 12665 13407 11048 21124 39947 40229 52030 69912 81500 333 21049 3/104 43001
AAXX 04004 47162 32565 20509 11011 21094 30191 40233 52025 81500 333 21023 30102 92023
AAXX 04004 47169 11568 63216 11012 21023 30173 40271 52032 69962 78588 86800 333 21022 3/001 44/// 92075
AAXX 04004 47170 11565 63210 11014 21059 30214 40259 52019 60022 78588 86800 333 21031 3/000 47005 92023
AAXX 04004 47171 11557 63603 11043 21058 30208 40266 52025 60062 78588 86800 333 21046 3/000 43011
AAXX 04004 47172 129// /3606 11038 21056 30188 40258 52027 60022 333 21040 3/001
AAXX 04004 47173 11960 60205 11051 21085 30143 40260 52028 60042 726// 85500 333 21053 3/101
AAXX 04004 47174 11558 63207 11040 21076 30036 40247 52025 60022 78588 86800 333 21042 3/000 43005
AAXX 04004 47175 11530 73216 11046 21054 39660 40259 52021 60022 78588 84800 333 21059 3/000 47003 92035
AAXX 04004 47185 11558 73232 10030 21008 30160 40253 52027 69952 78582 87800 333 20005 3/001 41/// 92057
AAXX 04004 47188 11568 63404 10011 21030 30233 40256 52018 60042 72682 86800 333 21001 3/001 43001 92032
AAXX 04004 47189 11565 63204 10014 21025 30195 40257 52020 69932 72678 86800 333 20001 3/001 42/// 92032
AAXX 04004 47192 12668 23605 11014 21126 30201 40240 52028 69902 82500 333 21026 34102
AAXX 04004 91348 11474 50706 10300 20255 30066 40119 55003 60044 70282 81171 333 20238 56299 58011 70036 555 90400
AAXX 04004 60020 NIL
AAXX 04004 60030 06/// /3506 10173 20000 30211 40268 58002 60001 333 60007
AAXX 04004 60040 06/// /0207 10166 20137 30267 40292 50007 60001 333 60007
AAXX 04004 60338 NIL
AAXX 04004 91348 11474 50706 10300 20255 30066 40119 55003 60044 70282 81171 333 20238 56299 58011 70036 555 90400
AAXX 04004 64600 31950 72806 10210 20180 39457 40096 710// 8707/ 333 58003 87365
AAXX 04004 64601 31940 80416 10200 20043 38997 48514 705// 8803/ 333 59003 88365
AAXX 04004 64605 33960 00000 10190 20140 39357 40085 333 58000
AAXX 04004 64610 33960 00000 10180 20146 3//// 4//// 333 5////
AAXX 04004 64650 NIL
AAXX 04004 64654 NIL
AAXX 04004 64655 33960 40000 10180 20155 39454 40089 80002 333 58001 84080
AAXX 04004 64656 33960 60000 10200 20191 39542 40090 80002 333 59002 86080
AAXX 04004 64659 NIL
AAXX 04004 64660 33960 00000 10207 20172 39564 40092 333 58003
AAXX 04004 64662 NIL
AAXX 04004 64665 33960 00000 10210 20198 3//// 4//// 333 5////
AAXX 04001 01160 46/// /0807 10035 21034 39815 49832 58011 333 91111
AAXX 04001 01400 41598 52918 10061 20032 49871 52058 78081 83960 22200 06079 333 91132
AAXX 04001 01300 41495 73315 10050 20027 49753 52041 78082 87/// 22200 02062 10807 70037 333 91119
AAXX 04001 33088 31996 22204 10017 20014 39962 40156 57030 71000 80004
AAXX 04001 33177 32997 81603 10031 20005 39916 40156 57041 80007
AAXX 04001 33261 /1496 82902 10025 20020 39991 40176 52008 71062 889// 333 85914 555 69911
AAXX 04001 33275 /1397 83006 10013 20002 39942 40169 52013 76186 8772/ 333 87707 555 60011
AAXX 04001 33301 31997 61804 10013 20002 39879 40166 58032 70241 80001
AAXX 04001 33325 31396 82501 10024 20016 39921 40193 58010 71011 886// 333 88707
AAXX 04001 33377 /1396 83002 10030 20022 39994 40191 51006 71065 886// 333 88708 555 69941
AAXX 04001 33415 32997 21803 11001 21004 39785 40193 57028 82030
AAXX 04001 33429 31996 22003 10002 21004 39770 40204 57020 71011 80001
AAXX 04001 33466 NIL
AAXX 04001 33526 31925 60000 11044 21053 39849 40204 57030 71042 86030
AAXX 04001 33562 NIL
AAXX 04001 33614 /1542 82803 10042 20027 30088 40194 52007 71082 885// 333 88632 555 69901
AAXX 04001 33761 NIL
AAXX 04001 33902 NIL
AAXX 04001 33983 32997 22006 10049 20024 30166 40228 57003 82030
AAXX 04001 34415 /1397 82502 10020 20017 30066 40164 56003 76162 8772/ 555 60011
AAXX 04001 34523 /1496 82103 10028 20007 30089 40166 57028 76176 8772/ 555 69901
AAXX 04001 34712 32598 82904 10037 20034 30108 40195 57012 885// 333 88627
AAXX 04001 02019 07/99 /1105 11054 21074 39267 49887 50001 69911 70070 333 60005 90710 91113
AAXX 04001 02081 07/59 /1104 11052 21056 39533 49938 57006 60021 77177 333 69915 90710 91108
AAXX 04001 02095 07223 /1202 11021 21027 39741 49944 51008 60011 77187 333 69925 88/06 90710 91106
AAXX 04001 02101 45463 /1506 11034 21068 39298 49852 58021 8//// 333 86/19 88/27
AAXX 04001 02119 07499 /0603 11040 21042 39518 49903 58003 69911 70087 333 60005 88/10 90710 91105
AAXX 04001 02124 07265 /0602 11073 21100 39375 49903 58009 60001 70010 333 60005 88/04 90710 91104
AAXX 04001 02126 07250 /1101 11035 21040 39544 49880 58021 69901 77770 333 69905 88/06 90710 91103
AAXX 04001 02151 17283 81203 11046 21046 39578 49915 58001 69931 72285 333 60005 84/04 88/06 91006 90710 91106 90710 91205
AAXX 04001 02186 17583 61202 11013 21018 39902 49927 58002 69901 72180 333 60005 83/20 86/37 91002 90710 91104 90710 91203
AAXX 04001 02197 07/60 /1404 10001 20001 39932 49951 50001 69991 72487 333 69915 90710 91110
AAXX 04001 02207 07311 /1006 11029 21032 39055 49739 56036 69941 77170 333 69945 88/09 90710 91112
AAXX 04001 02219 07/23 /1008 11039 21039 39152 49810 58033 69901 77171 333 69905 90710 91114
AAXX 04001 02226 47/21 /0908 11011 21012 39326 49771 58057 771// 8//// 333 89/12
AAXX 04001 02243 07/50 /0902 11008 21008 39567 49833 58044 69951 78587 333 69935 90710 91108
AAXX 04001 02269 07459 /1312 10033 20022 69901 72386 333 69905 87/15 90710 91115
AAXX 04001 02287 07368 /1406 10012 20003 39891 49900 58024 69971 70086 333 60005 85/08 87/36 90710 91110
AAXX 04001 02297 07380 /1607 10013 20006 39869 49914 58014 69911 78187 333 69905 81/09 85/21 88/31 90710 91112
AAXX 04001 02308 07113 /1003 11035 21041 38889 49730 58044 60051 77170 333 60015 82/02 84/04 87/07 88/// 90710 91109
AAXX 04001 02327 07/14 /0906 11012 21012 39317 49743 57060 60031 77171 333 69975 90710 91112
AAXX 04001 02355 07350 /1417 10021 20016 39771 49782 58075 60001 71010 333 60005 85/07 87/10 90710 91121
AAXX 04001 02366 47341 /1207 10020 20010 39803 49809 58065 762// 8//// 333 85/09 88/14
AAXX 04001 02407 07230 ///// 11003 21003 39348 49707 58050 60091 77187 333 69925 88/06
AAXX 04001 02418 47461 /1407 10034 20024 39562 49689 58059 752// 8//// 333 81/12 83/15 85/19 88/25
AAXX 04001 02435 47061 /1506 10004 21004 39551 49735 56056 771// 8//// 333 83/01 85/10 88/16
AAXX 04001 02440 07421 /1202 10001 21003 60051 77170 333 60015 89/11 90710 91106
AAXX 04001 02452 07103 /1102 10000 20000 60091 73387 333 60005 89/02 90710 91104
AAXX 04001 02456 07356 /1604 10022 20014 39733 49774 58071 60031 76165 333 60025 82/07 87/10 88/17 90710 91110
AAXX 04001 02469 07/56 /1803 10009 20005 60111 77187 333 60035 90710 91110
AAXX 04001 02498 07450 /1618 10040 20028 39787 49805 56078 60021 76186 333 69995 88/10 90710 91126
AAXX 04001 02518 46/// /2222 10063 20040 333 90710 91129
AAXX 04001 02520 07457 81813 10045 20025 39614 49679 58071 60011 76185 333 69935 87/17 88/24 91018 90710 91118 90710 91214
AAXX 04001 02550 47456 /1910 10027 20027 39483 49751 58043 781// 8//// 333 85/11 87/20
AAXX 04001 02562 07783 11806 10026 20018 39652 49765 58037 60021 72286 333 69905 81/50 91008 90710 91109 90710 91206
AAXX 04001 02563 07980 /1907 10032 20029 39768 49790 56040 60051 70060 333 60005 90710 91114
AAXX 04001 02565 07563 /2005 10042 20025 39690 49807 58023 60041 72387 333 69905 81/20 83/29 86/47 90710 91111
AAXX 04001 02589 07358 /1911 10033 20025 39797 49817 58071 60051 76160 333 60025 88/07 90710 91122
AAXX 04001 02590 47273 /2111 10052 20048 39767 49827 56053 781// 8//// 333 83/05 87/09 88/17
AAXX 04001 02618 07/59 /2110 10047 20035 39625 49784 58030 60051 78186 333 69935 90710 91124
AAXX 04001 02664 07582 62307 10056 20020 39789 49859 50007 60021 72385 333 69905 86/29 91013 90710 91114 90710 91208
AAXX 04001 02679 07/68 /2313 10051 20044 39812 49855 56037 60061 70060 333 60005 90710 91121
AAXX 04004 78866 02580 11306 10261 20212 30172 40177 52019 60001 81100 333 10282 20233 58005 60007 70042 81821
AAXX 04004 48657 11458 70202 10224 20219 30112 40130 60004 71022 82841 333 20223 50370 58009 70000 81710 87078
AAXX 04004 78866 02580 11306 10261 20212 30172 40177 52019 60001 81100 333 10282 20233 58005 60007 70042 81821
AAXX 04004 61974 11468 50000 10250 20236 40078 60131 71581 84802 333 0//24 58000 82817 83650
AAXX 04004 61986 12570 11203 10262 20215 40094 60001 81200 333 58011 81820
AAXX 04004 61988 11465 41509 10243 20227 40098 60031 71582 84802 333 0//22 58006 84817 91124
AAXX 04004 61989 NIL
AAXX 04004 61990 11465 61206 10262 20213 40115 60001 71522 85802 333 58009 84817 83650
AAXX 04004 61995 11465 51106 10219 20206 39633 69911 71582 85802 333 0//14 58007 85817 91118
BBXX PHCQ 04003 99249 70842 41/98 61107 10149 20107 40266 54000 70322 8//// 22254 00260 2//// 3//// 4//// 5//// 80125
AAXX 04004 16684 12860 20000 10052 20022 30223 40251 57006 60001 82050 333 90730 91103 555 40000 47696 44190 50000 50040
AAXX 04001 06432 15/63 00000 10058 20026 30030 40107 51006 69921 333 91114 91209
AAXX 04001 06458 17566 /2306 10067 20038 39946 40100 50007 69961 70086 333 81/31 83/41 91117 91211
AAXX 04001 06465 35075 02405 10066 20009 30024 40090 50007 333 91116 91210
AAXX 04001 06496 17470 /2606 10038 20022 39421 40097 58001 60051 70066 333 81/14 83/21 85/28 91118 91212
AAXX 04001 06428 17066 02406 10060 20017 30048 40097 50005 69921 70088 333 91116 91210
AAXX 04001 02464 47226 /1505 10005 20003 39766 49784 56065 771// 8//// 333 81/04 88/06
AAXX 04001 02500 07337 /2014 10059 20047 39566 49606 56082 60051 78186 333 60025 81/07 83/13 85/17 87/// 90710 91126
AAXX 04001 02513 07/50 /2109 10059 20042 39700 49702 58058 60031 78286 333 60025 90710 91119
AAXX 04001 02615 07563 /2318 10061 20028 39873 49876 58006 69931 70086 333 60005 87/28 87/56 90710 91123
AAXX 04001 02635 07/60 /2408 10058 20026 69961 70086 333 60005 90710 91116
AAXX 04004 78988 01475 41109 10253 20233 30136 40147 52016 60021 78080 84200 333 10296 20242 58011 69997 70024 84816
AAXX 04004 78990 01482 30906 10248 20235 30145 40152 52014 60031 72500 83200 333 10299 20244 58005 60037 70034 83818
AAXX 04004 78873 NIL
AAXX 04001 14024 46/// ///// 1//// 2//// 3//// 4//// 5////
AAXX 04004 48331 31540 80000 10203 20192 39903 40138 52017 71022 8557/ 333 20195 58002
AAXX 04004 48375 31550 80000 10217 20201 39894 40122 52015 71021 82537 333 20210 58012
AAXX 04004 48480 11930 40000 10235 20228 30125 40129 52018 60024 71041 82045 333 20234 58019 70016
AAXX 04004 48373 31956 30000 10230 20221 30067 40130 52018 71011 82031 333 20230 58002
AAXX 04004 48386 31558 60000 10240 20220 30083 40127 50013 71022 82545 333 20220 58009
AAXX 04004 48387 11430 60000 10183 20178 39171 40138 52012 60024 71022 82346 333 20181 58002 70020
AAXX 04004 48451 11508 50000 10225 20219 30123 40134 52016 60024 74111 82525 333 20220 58013 70015
AAXX 04004 48352 32660 70902 10210 20178 39956 40161 52020 84536 333 20205 58015
AAXX 04004 48403 31556 70905 10226 20193 39935 40148 52021 71022 83536 333 20226 58020
AAXX 04004 48465 11558 73103 10240 20216 30124 40129 52014 69904 71022 83576 333 20230 58012 79999
AAXX 04004 91487 NIL
AAXX 04004 91490 NIL
AAXX 04004 91533 NIL
AAXX 04004 91601 NIL
AAXX 04004 91610 11599 61010 10307 20242 40102 58015 60001 70222 82108 333 20251
AAXX 04004 562/9 82820 85280 70000
AAXX 04004 91623 NIL
AAXX 04004 91629 NIL
AAXX 04004 91701 NIL
AAXX 04004 41859 NIL
AAXX 04004 41883 NIL
AAXX 04004 41891 NIL
AAXX 04004 41907 NIL
AAXX 04004 41923 31430 30000 10164 20150 30123 40133 71021 82530 333 56690 58005 79999 82616
AAXX 04004 41936 NIL
AAXX 04004 41943 31930 00000 10163 20150 30131 40138 70500 333 58000 70000
AAXX 04004 41950 31325 80000 10168 20160 30127 40129 71021 8562/ 333 56899 58004 70000 82708 84616 88458
AAXX 04004 41978 31431 20000 10200 20170 30118 40125 70511 82500 333 56900 58005 70000 82618
AAXX 04004 41992 31920 00000 10190 20180 30116 40118 71000 333 58005 70000
AAXX 04004 48384 01557 80000 10210 20183 39957 40152 51016 69934 71062 86806 333 20203 58012 69935 70003
AAXX 04004 48404 32560 60706 10214 20175 39970 40152 52025 83536 333 20207 58012
AAXX 04004 48427 31557 80000 10223 20218 30120 40128 52022 71022 82136 333 20221 58008
AAXX 04004 48481 01558 60000 10238 20223 30106 40134 52014 60024 76022 84830 333 20216 58016 69905 70015
AAXX 04004 48556 12560 70000 10230 20225 30104 40120 52011 60194 85877 333 20228 58003 70185
AAXX 04004 48581 31556 20000 10226 20217 30085 40127 57002 71000 81101 333 20225 58010
AAXX 04004 91487 NIL
AAXX 04004 91490 NIL
AAXX 04004 91533 NIL
AAXX 04004 91601 NIL
AAXX 04004 91610 11599 61010 10307 20242 40102 58015 60001 70222 82108 333 20251
AAXX 04004 562/9 82820 85280 70000
AAXX 04004 91623 NIL
AAXX 04004 91629 NIL
AAXX 04004 91701 NIL
AAXX 04004 41241 NIL
AAXX 04004 41242 36/// /2910 10235 20104 30108 40132 333 0E021 59017
AAXX 04004 41244 NIL
AAXX 04004 41246 32960 02702 10195 20118 30123 40128 333 59007
AAXX 04004 41251 36/// /2807 10146 21027 3//// 49922 333 0E012 58011
AAXX 04004 41252 36/// /3206 10165 20064 39768 40057 333 0E019 59003
AAXX 04004 41253 36/// /9902 10165 20139 39759 40141 333 0E017 59008
AAXX 04004 41254 36/// /2710 10132 21027 38043 48048 333 0E008 59014
AAXX 04004 41255 36/// /1901 10159 20069 39607 40168 333 0E020 59011
AAXX 04004 41256 32960 02802 10197 20115 30113 40123 333 59013
AAXX 04004 41257 NIL
AAXX 04004 41258 NIL
AAXX 04004 41259 36/// /2719 10053 21036 37114 40282 333 0E/// 59010
AAXX 04004 41262 NIL
AAXX 04004 41263 36/// /0000 10148 20041 39464 40154 333 0E015 59011
AAXX 04004 41264 36/70 /0803 10163 20048 39757 40131 333 0E018 59013
AAXX 04004 41265 36/// /2702 10150 20142 39602 40154 333 0E022 59009
AAXX 04004 41267 35/// /3302 10207 20116 30108 40124 333 0E019 59016
AAXX 04004 41268 NIL
AAXX 04004 41270 36/70 /2110 10198 20171 30073 40085 333 0E020 59014
AAXX 04004 41275 NIL
AAXX 04004 41287 36/// /2604 10159 20151 30096 40148 333 0E019 59009
AAXX 04004 41288 NIL
AAXX 04004 41290 NIL
AAXX 04004 41295 NIL
AAXX 04004 41304 NIL
AAXX 04004 41312 36/// /2902 10188 20158 30099 40139 333 0E/// 59001
AAXX 04004 41314 32960 02103 10132 20102 39646 40163 333 58002
AAXX 04004 41315 36/// /3106 10164 20094 39152 42792 333 0E/// 58002
AAXX 04004 41316 32560 10104 10186 20147 30115 40142 81500 333 58001 81625
AAXX 04004 94500 NIL
AAXX 04004 94510 46/// /3311 10301 20121 39806 40146
AAXX 04004 94515 46/// /3608 10284 20160 39803 40145
AAXX 04004 94552 46/// /1107 10251 20133 39700 40158
AAXX 04004 94578 46/// /0607 10256 20135 30159 40170
AAXX 04004 94584 46/// /1410 10264 20158 30055 40164
AAXX 04004 94601 46/// /0827 10182 20110 30163 40180
AAXX 04004 94610 46/// /0722 10208 20112 30123 40146
AAXX 04004 94637 46/// /0916 10188 20094 39775 40194
AAXX 04004 94638 46/// /0510 10194 20076 30213 40245
AAXX 04004 94642 NIL
AAXX 04004 94643 NIL
AAXX 04004 94647 46/// /1413 10218 20112 30115 40235
AAXX 04004 94651 46/// /1518 10213 20122 30153 40229
AAXX 04004 94653 46/// /1614 10214 20125 30200 40218
AAXX 04004 94659 46/// /1717 10246 20123 39982 40173
AAXX 04004 94672 46/// /1514 10227 20072 30199 40209
AAXX 04004 94691 46/// /1815 10254 20165 39844 40164
AAXX 04004 94693 46/// /1913 10254 20115 30108 40169
AAXX 04004 94700 NIL
AAXX 04004 94703 46/// /3311 10347 20105 30018 40140
AAXX 04004 94710 46/// /2904 10333 20087 39886 40132
AAXX 04004 94729 46/// /2907 10285 20151 39304 40134
AAXX 04004 94750 46/// /3603 10320 20193 39975 40096
AAXX 04004 94767 46/// /3605 10297 20183 30108 40114
AAXX 04004 94776 46/// /3108 10297 20189 30112 40122
AAXX 04004 94791 NIL
AAXX 04004 94802 46/// /0618 10188 20097 30150 40231
AAXX 04004 94804 46/// /1714 10195 20102 30188 40226
AAXX 04004 94807 NIL
AAXX 04004 94821 46/// /1816 10206 20062 30126 40208
AAXX 04004 94842 46/// /2319 10170 20079 30096 40195
AAXX 04004 94847 NIL
AAXX 04004 94850 46/// /2219 10166 20071 30128 40173
AAXX 04004 94865 46/// /1915 10208 20109 30158 40182
AAXX 04004 94866 46/// /2115 10209 20070 30041 40179
AAXX 04004 94875 46/// /2115 10242 20157 30020 40151
AAXX 04004 94893 NIL
AAXX 04004 94907 46/// /2618 10204 20144 30144 40154
AAXX 04004 94910 46/// /2423 10300 20108 39885 40128
AAXX 04004 94926 46/// /3111 10276 20156 39470 40124
AAXX 04004 94935 46/// /2313 10211 20171 30107 40133
AAXX 04004 94954 46/// /2232 10163 20073 30046 40156
AAXX 04004 94956 46/// /2413 10144 20102 30123 40149
AAXX 04004 94975 46/// /2319 10178 20070 30050 40082
AAXX 04004 94983 NIL
AAXX 04004 94995 46/// /0507 10223 20137 30179 40187
AAXX 04004 94996 46/// /1016 10224 20144 30030 40158
AAXX 04004 94997 NIL
AAXX 04004 94998 46/// /0706 10061 20046 39915 49925
AAXX 04004 95111 46/// /0105 10262 20244 30079 40115
AAXX 04004 95205 46/// /2307 10322 20247 30099 40106
AAXX 04004 95322 NIL
AAXX 04004 95448 46/// /0816 10239 20162 39589 40137
AAXX 04004 95458 46/// /1720 10279 20149 39900 40155
AAXX 04004 95480 46/// /1713 10328 20174 30092 40149
AAXX 04004 95481 46/// /0607 10377 20116 30079 40122
AAXX 04004 95482 46/// /3615 10375 20065 30066 40120
AAXX 04004 95485 46/// /2004 10341 2//// 39933 40131
AAXX 04004 95492 46/// /2810 10349 20079 39988 40138
AAXX 04004 95527 46/// /3609 10268 20150 39907 40155
AAXX 04004 95634 46/// /0717 10205 20094 39786 40178
AAXX 04004 95637 46/// /0510 10164 20091 39888 40217
AAXX 04004 95646 46/// /1115 10218 20106 30041 40226
AAXX 04004 95666 NIL
AAXX 04004 95719 46/// /3112 10290 20136 39823 40146
AAXX 04004 95762 46/// /3206 10286 20137 39701 40147
AAXX 04004 95826 NIL
AAXX 04004 95839 46/// /1920 10215 20066 30024 40180
AAXX 04004 95864 NIL
AAXX 04004 95909 NIL
AAXX 04004 95954 NIL
AAXX 04004 95966 46/// /2517 10219 20049 39890 40087
AAXX 04004 96995 46/// /0000 10247 20243 39823 40118
AAXX 04004 96996 41470 30407 10276 20244 30106 40110 53020 70200 82801
AAXX 04004 94299 46/// /1717 10257 20240 30116 40126
AAXX 04004 94300 46/// /2205 10249 20188 30129 40139
AAXX 04004 94302 46/// /1911 10262 20186 30130 40136
AAXX 04004 94312 46/// /2706 10300 20212 30095 40104
AAXX 04004 94313 NIL
AAXX 04004 94317 46/// /0613 10324 20121 39535 40106
AAXX 04004 94319 46/// /1417 10320 20171 39787 40110
AAXX 04004 94324 NIL
AAXX 04004 94326 46/// /1511 10344 20092 39509 40109
AAXX 04004 94327 46/// /0205 10352 20173 39744 40108
AAXX 04004 94332 46/// /0509 10319 20111 39741 40118
AAXX 04004 94333 NIL
AAXX 04004 94341 46/// /0707 10323 20085 39896 40127
AAXX 04004 94346 46/// /0214 10310 20156 39926 40142
AAXX 04004 94363 46/// /0707 10266 20171 39946 40160
AAXX 04004 94366 NIL
AAXX 04004 94367 46/// /1410 10280 20177 30112 40154
AAXX 04004 94374 46/// /1007 10281 20149 30143 40159
AAXX 04004 94388 46/// /1410 10273 20172 30157 40162
AAXX 04004 94393 46/// /1301 10250 30123 40135 50004
AAXX 04004 94394 46/// /1316 10249 30135 40143 50000
AAXX 04004 94403 46/// /3413 10243 20188 30073 40113
AAXX 04004 94429 46/// /0614 10261 20175 39674 40125
AAXX 04004 94430 46/// /0713 10274 20132 39549 40115
AAXX 04004 94449 46/// /0914 10195 20145 39661 40179
AAXX 04004 94451 NIL
AAXX 04004 94461 46/// /1415 10238 20146 39492 40147
AAXX 04004 94462 46/// /1413 10303 20131 39594 40136
AAXX 04004 94477 NIL
AAXX 04004 94488 NIL
AAXX 04004 94299 46/// /1717 10257 20240 30116 40126
AAXX 04004 94300 46/// /2205 10249 20188 30129 40139
AAXX 04004 94302 46/// /1911 10262 20186 30130 40136
AAXX 04004 94312 46/// /2706 10300 20212 30095 40104
AAXX 04004 94313 NIL
AAXX 04004 94317 46/// /0613 10324 20121 39535 40106
AAXX 04004 94319 46/// /1417 10320 20171 39787 40110
AAXX 04004 94324 NIL
AAXX 04004 94326 46/// /1511 10344 20092 39509 40109
AAXX 04004 94327 46/// /0205 10352 20173 39744 40108
AAXX 04004 94332 46/// /0509 10319 20111 39741 40118
AAXX 04004 94333 NIL
AAXX 04004 94341 46/// /0707 10323 20085 39896 40127
AAXX 04004 94346 46/// /0214 10310 20156 39926 40142
AAXX 04004 94363 46/// /0707 10266 20171 39946 40160
AAXX 04004 94366 NIL
AAXX 04004 94367 46/// /1410 10280 20177 30112 40154
AAXX 04004 94374 46/// /1007 10281 20149 30143 40159
AAXX 04004 94388 46/// /1410 10273 20172 30157 40162
AAXX 04004 94393 46/// /1301 10250 30123 40135 50004
AAXX 04004 94394 46/// /1316 10249 30135 40143 50000
AAXX 04004 94403 46/// /3413 10243 20188 30073 40113
AAXX 04004 94429 46/// /0614 10261 20175 39674 40125
AAXX 04004 94430 46/// /0713 10274 20132 39549 40115
AAXX 04004 94449 46/// /0914 10195 20145 39661 40179
AAXX 04004 94451 NIL
AAXX 04004 94461 46/// /1415 10238 20146 39492 40147
AAXX 04004 94462 46/// /1413 10303 20131 39594 40136
AAXX 04004 94477 NIL
AAXX 04004 94488 NIL
AAXX 04004 94102 46/// /3002 10299 20259 30106 40115
AAXX 04004 94103 NIL
AAXX 04004 94120 46/// /0608 10299 20240 30074 40114
AAXX 04004 94122 46/// /0906 10299 20241 30100 40108
AAXX 04004 94131 46/// /3204 10296 20293 39962 40113
AAXX 04004 94132 NIL
AAXX 04004 94147 NIL
AAXX 04004 94150 46/// /0809 10308 20197 30056 40116
AAXX 04004 94151 46/// /1006 10315 20231 30101 4////
AAXX 04004 94170 NIL
AAXX 04004 94200 NIL
AAXX 04004 94203 46/// /2508 10315 20245 30099 40109
AAXX 04004 94206 NIL
AAXX 04004 94207 46/// /2209 10282 30102 40110 51019
AAXX 04004 94211 NIL
AAXX 04004 94212 46/// /1603 10280 20232 39645 40111
AAXX 04004 94216 46/// /0104 10314 20244 30059 40109
AAXX 04004 94236 NIL
AAXX 04004 94238 46/// /2706 10323 20199 39691 40106
AAXX 04004 94248 NIL
AAXX 04004 94255 46/// /2304 10326 20218 39860 40117
AAXX 04004 94268 46/// /0809 10294 20212 30116 40128
AAXX 04004 94287 46/// /1712 10259 20214 30133 40142
AAXX 04004 94290 NIL
AAXX 04004 94294 46/// /0914 10290 20157 30140 40150
AAXX 04004 94296 35/// /1411 10268 30109 40119 52003
AAXX 04004 94298 46/// /1315 10258 30125 40131 50003
AAXX 04004 95641 NIL
AAXX 04001 91943 36/// /1103 10282 20200 30131 40133 58015 333 59006= 91944 06/// /0503 10293 20199 30133 40136 57015 60001 333 60007 90710 91107 555 60005
AAXX 04001 91925 02581 21013 10283 20218 30060 40120 58018 60004 82200 333 20223 56200 59005 60007 82823 90710 91125 555 60005 11026
AAXX 04001 91929 04586 /0406 10296 20223 30131 40134 58017 60001 700// 333 60007 90710 91109 555 60005
AAXX 04001 91938 01570 20310 10303 20230 30133 40135 58018 60001 71500 82800 333 60007 81820 90710 91113 555 60005 10313
AAXX 04001 91948 02482 21306 10267 20205 30048 40149 56014 60004 82200 333 20238 56200 59017 60007 82816 90710 91111 555 60005 11211
AAXX 04001 91954 06/// /3212 10276 20242 30124 40127 58019 60004 333 20253 59030 60007
AAXX 04001 91958 01480 73317 10262 20229 30123 40125 56019 60054 70186 84802 333 20236 56706 59041 60027 83818 84073 90710 91126 555 60005 13331
AAXX 04001 91945 36/// /3608 10293 20225 30132 40137 58019 333 20226 59018
AAXX 04004 94893 NIL
AAXX 04004 94907 46/// /2618 10204 20144 30144 40154
AAXX 04004 94910 46/// /2423 10300 20108 39885 40128
AAXX 04004 94926 46/// /3111 10276 20156 39470 40124
AAXX 04004 94935 46/// /2313 10211 20171 30107 40133
AAXX 04004 94954 46/// /2232 10163 20073 30046 40156
AAXX 04004 94956 46/// /2413 10144 20102 30123 40149
AAXX 04004 94975 46/// /2319 10178 20070 30050 40082
AAXX 04004 94983 NIL
AAXX 04004 94995 46/// /0507 10223 20137 30179 40187
AAXX 04004 94996 46/// /1016 10224 20144 30030 40158
AAXX 04004 94997 NIL
AAXX 04004 94998 46/// /0706 10061 20046 39915 49925
AAXX 04004 95111 46/// /0105 10262 20244 30079 40115
AAXX 04004 95205 46/// /2307 10322 20247 30099 40106
AAXX 04004 95322 NIL
AAXX 04004 95448 46/// /0816 10239 20162 39589 40137
AAXX 04004 95458 46/// /1720 10279 20149 39900 40155
AAXX 04004 95480 46/// /1713 10328 20174 30092 40149
AAXX 04004 95481 46/// /0607 10377 20116 30079 40122
AAXX 04004 95482 46/// /3615 10375 20065 30066 40120
AAXX 04004 95485 46/// /2004 10341 2//// 39933 40131
AAXX 04004 95492 46/// /2810 10349 20079 39988 40138
AAXX 04004 95527 46/// /3609 10268 20150 39907 40155
AAXX 04004 95634 46/// /0717 10205 20094 39786 40178
AAXX 04004 95637 46/// /0510 10164 20091 39888 40217
AAXX 04004 95646 46/// /1115 10218 20106 30041 40226
AAXX 04004 95666 NIL
AAXX 04004 95719 46/// /3112 10290 20136 39823 40146
AAXX 04004 95762 46/// /3206 10286 20137 39701 40147
AAXX 04004 95826 NIL
AAXX 04004 95839 46/// /1920 10215 20066 30024 40180
AAXX 04004 95864 NIL
AAXX 04004 95909 NIL
AAXX 04004 95954 NIL
AAXX 04004 95966 46/// /2517 10219 20049 39890 40087
AAXX 04004 96995 46/// /0000 10247 20243 39823 40118
AAXX 04004 96996 41470 30407 10276 20244 30106 40110 53020 70200 82801
AAXX 04004 89564 45/// /1243 11018 21028 39718 49737 53014
AAXX 04004 89570 46/// /0746 11025 21033 39168 56006 333 21088
AAXX 04004 89571 41560 80327 10023 21013 39801 49829 50001 71522 8582/
AAXX 04004 89573 NIL
AAXX 04004 89610 NIL
AAXX 04004 89611 41370 81505 11030 21050 39823 49875 58005 70222 886//
AAXX 04004 89614 NIL
AAXX 04004 89615 46/// /0813 11048 21116 38974 58007 333 21080
AAXX 04004 89807 NIL
AAXX 04004 89809 46/// /0708 11033 21047 39416 58005 333 21070
AAXX 04004 89564 45/// /1243 11018 21028 39718 49737 53014
AAXX 04004 89570 46/// /0746 11025 21033 39168 56006 333 21088
AAXX 04004 89571 41560 80327 10023 21013 39801 49829 50001 71522 8582/
AAXX 04004 89573 NIL
AAXX 04004 89610 NIL
AAXX 04004 89611 41370 81505 11030 21050 39823 49875 58005 70222 886//
AAXX 04004 89614 NIL
AAXX 04004 89615 46/// /0813 11048 21116 38974 58007 333 21080
AAXX 04004 89807 NIL
AAXX 04004 89809 46/// /0708 11033 21047 39416 58005 333 21070
AAXX 04004 94102 46/// /3002 10299 20259 30106 40115
AAXX 04004 94103 NIL
AAXX 04004 94120 46/// /0608 10299 20240 30074 40114
AAXX 04004 94122 46/// /0906 10299 20241 30100 40108
AAXX 04004 94131 46/// /3204 10296 20293 39962 40113
AAXX 04004 94132 NIL
AAXX 04004 94147 NIL
AAXX 04004 94150 46/// /0809 10308 20197 30056 40116
AAXX 04004 94151 46/// /1006 10315 20231 30101 4////
AAXX 04004 94170 NIL
AAXX 04004 94200 NIL
AAXX 04004 94203 46/// /2508 10315 20245 30099 40109
AAXX 04004 94206 NIL
AAXX 04004 94207 46/// /2209 10282 30102 40110 51019
AAXX 04004 94211 NIL
AAXX 04004 94212 46/// /1603 10280 20232 39645 40111
AAXX 04004 94216 46/// /0104 10314 20244 30059 40109
AAXX 04004 94236 NIL
AAXX 04004 94238 46/// /2706 10323 20199 39691 40106
AAXX 04004 94248 NIL
AAXX 04004 94255 46/// /2304 10326 20218 39860 40117
AAXX 04004 94268 46/// /0809 10294 20212 30116 40128
AAXX 04004 94287 46/// /1712 10259 20214 30133 40142
AAXX 04004 94290 NIL
AAXX 04004 94294 46/// /0914 10290 20157 30140 40150
AAXX 04004 94296 35/// /1411 10268 30109 40119 52003
AAXX 04004 94298 46/// /1315 10258 30125 40131 50003
AAXX 04004 95641 NIL
AAXX 04004 94500 NIL
AAXX 04004 94510 46/// /3311 10301 20121 39806 40146
AAXX 04004 94515 46/// /3608 10284 20160 39803 40145
AAXX 04004 94552 46/// /1107 10251 20133 39700 40158
AAXX 04004 94578 46/// /0607 10256 20135 30159 40170
AAXX 04004 94584 46/// /1410 10264 20158 30055 40164
AAXX 04004 94601 46/// /0827 10182 20110 30163 40180
AAXX 04004 94610 46/// /0722 10208 20112 30123 40146
AAXX 04004 94637 46/// /0916 10188 20094 39775 40194
AAXX 04004 94638 46/// /0510 10194 20076 30213 40245
AAXX 04004 94642 NIL
AAXX 04004 94643 NIL
AAXX 04004 94647 46/// /1413 10218 20112 30115 40235
AAXX 04004 94651 46/// /1518 10213 20122 30153 40229
AAXX 04004 94653 46/// /1614 10214 20125 30200 40218
AAXX 04004 94659 46/// /1717 10246 20123 39982 40173
AAXX 04004 94672 46/// /1514 10227 20072 30199 40209
AAXX 04004 94691 46/// /1815 10254 20165 39844 40164
AAXX 04004 94693 46/// /1913 10254 20115 30108 40169
AAXX 04004 94700 NIL
AAXX 04004 94703 46/// /3311 10347 20105 30018 40140
AAXX 04004 94710 46/// /2904 10333 20087 39886 40132
AAXX 04004 94729 46/// /2907 10285 20151 39304 40134
AAXX 04004 94750 46/// /3603 10320 20193 39975 40096
AAXX 04004 94767 46/// /3605 10297 20183 30108 40114
AAXX 04004 94776 46/// /3108 10297 20189 30112 40122
AAXX 04004 94791 NIL
AAXX 04004 94802 46/// /0618 10188 20097 30150 40231
AAXX 04004 94804 46/// /1714 10195 20102 30188 40226
AAXX 04004 94807 NIL
AAXX 04004 94821 46/// /1816 10206 20062 30126 40208
AAXX 04004 94842 46/// /2319 10170 20079 30096 40195
AAXX 04004 94847 NIL
AAXX 04004 94850 46/// /2219 10166 20071 30128 40173
AAXX 04004 94865 46/// /1915 10208 20109 30158 40182
AAXX 04004 94866 46/// /2115 10209 20070 30041 40179
AAXX 04004 94875 46/// /2115 10242 20157 30020 40151
BBXX UCKZ 04001 99663 30756 41196 80610 11005 21012 49780 5//// 71022 886// 222// 01007 2//// ICE 37292
AAXX 04003 NIL
AAXX 04004 88963 32660 71604 10013 21022 39886 49917 58004 81558 333 10035 21001 56677 81635 85360 92417 94032 95000
AAXX 04004 88968 32565 81418 11015 21023 39902 49917 51013 885// 333 10007 21015 56599 88620 92437 92733 92862 94062 95002
AAXX 04004 89034 11256 80505 11042 21068 39573 49888 53007 69911 77172 886// 333 11021 21042 56199 88705 90971 92800 93101 97501
AAXX 04004 89053 32562 42705 10010 21002 39933 49947 57004 84570 333 10030 21004 56600 84620 92417 94067 94460 95007
AAXX 04004 89055 32465 60903 11028 21038 39681 49926 56001 81675 333 11012 21031 56222 81715 83557 92730 92860 95170
AAXX 04004 89066 31450 81803 10000 21018 39928 49937 56003 71022 886// 333 10035 21003 56199 86718 88722 90012 92406 94075 95025
AAXX 04001 38141 42598 80000 11028 21062 30062 40225 52002 885// 555 14103
AAXX 04001 38149 42598 83601 11015 21042 30150 40229 52003 885// 555 14101
AAXX 04001 38178 NIL
AAXX 04001 38262 426// 83203 11018 21046 30138 40222 53001 885// 555 14102
AAXX 04001 38264 42698 73303 11015 21026 30130 40226 52001 875// 333 04100 555 14101
AAXX 04001 38396 42597 73303 11009 21031 30088 40217 57004 875// 333 04101 82931 555 14101
AAXX 04001 38403 429// 60203 11028 21094 30084 40207 58001 86080 555 14107
AAXX 04001 38413 429// 82702 11017 21074 39891 40190 54000 8802/ 555 11103
AAXX 04001 38457 42997 21401 10018 21026 39572 40166 57013 82040 555 1/105
AAXX 04001 38462 429// 20000 11042 21080 38723 48460 57012 82050 555 1/108
AAXX 04001 38565 31/// 90000 11016 21019 39587 40187 53002 74740
AAXX 04001 38579 325// 63001 10013 20008 39736 40160 57010 84970 333 04000 555 14000
AAXX 04001 38583 32697 80000 10002 21009 39844 40172 57011 885// 333 04000 555 14100
AAXX 04001 38611 41/92 90901 11062 21066 39621 40220 57014 74544 333 01102 8019/ 555 11101
AAXX 04001 38618 429// 40000 11040 21043 39477 40191 52020 80001 333 04103 555 14102
AAXX 04001 38683 41996 13202 10006 21008 39880 40162 57004 71011 80001 333 01101 555 11101
AAXX 04001 38696 326// 70902 10029 20016 39293 40154 57009 87500 333 04101 555 14101
AAXX 04001 38812 41696 80901 10057 20045 39688 40142 57009 78082 889// 333 88941 555 11003
AAXX 04001 38927 41756 81802 10065 20054 39763 40138 57008 78088 889// 333 88963 555 11002
AAXX 04004 40356 32960 01006 10030 20020 39248 48538 333 58020 555 04410 50248
AAXX 04004 40357 32960 00000 10031 20020 39588 40238 333 58035
AAXX 04004 40360 32960 02502 10042 20020 39634 40225 333 58021
AAXX 04004 40361 NIL
AAXX 04004 40362 32960 00000 10040 21010 39701 40227 333 58036
AAXX 04004 40373 32960 03304 10070 20010 39793 40217 333 58034
AAXX 04004 40375 32960 01006 10060 21010 39321 40210 333 58006
AAXX 04004 40377 NIL
AAXX 04004 40394 32960 00000 10050 20010 39074 48541 333 58020 555 04410 50219
AAXX 04004 40400 32960 00205 10154 20070 30136 40164 333 59011
AAXX 04004 40401 NIL
AAXX 04004 40405 32960 00104 10090 20030 39462 40211 333 58023
AAXX 04004 40416 32960 03111 10130 20090 30149 40169 333 58041
AAXX 04004 40417 32960 02912 10112 20060 30175 40190 333 58047
AAXX 04004 40420 32960 03407 10122 20060 39978 40187 333 58039
AAXX 04004 40430 32960 00206 10150 20010 39455 40173 333 58025
AAXX 04004 40435 NIL
AAXX 04004 40437 32960 03105 10089 20000 39498 40210 333 58034
AAXX 04004 40439 32960 00000 10138 20080 30128 40138 333 59002
AAXX 04004 41024 32960 00000 10204 20160 30120 40140 333 59006
AAXX 04004 41030 32960 00000 10204 20160 39858 40129 333 59006
AAXX 04004 41036 32960 01802 10126 20060 38568 48518 333 58005 555 04410 50121
AAXX 04004 41055 32960 03105 10143 20070 38368 48514 333 59004 555 04410 50116
AAXX 04004 41061 31956 00714 10150 20120 39457 40155 70600 333 58032
AAXX 04004 41084 32960 00000 10140 20010 38866 48524 333 58005 555 04410 50117
AAXX 04004 41112 32960 00000 10104 20030 37951 48518 333 59004 555 04410 50149
AAXX 04004 41114 32960 00000 10120 20050 37982 48510 333 59005 555 04410 50126
AAXX 04004 41128 NIL
AAXX 04004 41136 32960 00605 10170 20020 39325 40124 333 58023
AAXX 04004 41140 32960 00000 10260 20210 30122 40132 333 58001
BBXX VRDB3 04004 99103 31518 41298 61612 10290 20263 40106 56010 70222 8573/ 22235 00270 20301 319// 40502 80270
BBXX VRAE3 04004 99165 31597 41797 31719 10290 20221 40092 51005 70102 83125 22234 00290 20302 31719 40605 5//// 80243
BBXX VROC 04004 99390 31471 41297 72235 10180 20127 40152 56006 70398 877// 22223 04260 20502 322// 40906 80150
BBXX ZCGY8 04004 99209 31149 419// 02015 10262 20252 40130 5/013 70000 80000 22200 00280 20401 322// 40804 80255
BBXX VNSZ 03234 99412 31464 46/// /2522 10181 20078 30081 40107 52038 22200 04203 85124
BBXX 9HA2479 03234 99160 31674 46/// /0413 10285 20248 30054 40082 52005 22200 04293 85258
BBXX C6FS9 03234 99274 31531 46/// /1105 10238 20139 30148 40184 57001 22200 04248 85176
BBXX VROB 03234 99078 31499 46/// /2903 10275 20215 30088 40113 52020 22263 04299 85232
BBXX VNAH 03234 99383 31416 46/// /2115 10181 20057 30186 40210 52029 22200 04192 85115
BBXX VNSZ 03224 99412 31464 46/// /2622 10186 20082 30067 40093 52027 22200 04203 85128
BBXX VNSZ 04004 99412 31464 46/// /2421 10185 20063 30090 40116 52044 22200 04205 85119
BBXX VROB 03224 99079 31501 46/// /0105 10277 20228 30078 40103 52016 22273 04297 85242
BBXX VNAH 03224 99383 31416 46/// /2017 10171 20061 30178 40202 52035 22200 04191 85112
BBXX FHZI 03224 99455 31472 46/// /2427 10123 20104 30018 40029 52032 22283 04128 85112
BBXX FHZI 03234 99453 31472 46/// /2433 10125 20098 30031 40042 52036 22283 04138 85110
BBXX YJYY2 04004 99107 31498 41497 61427 10280 20244 40108 52111 70366 83274 22222 20301 80255
BBXX VRRC 04004 99136 31545 41398 31312 10290 20220 40103 51001 70200 83100 22243 20303 315// 40404 80240
BBXX SHIP 04004 99103 31055 41/97 30911 10285 20278 40037 70222 222// 0//// 20201 329// 40102 5////
AAXX 04004 91577 06/// /1911 10285 20236 30052 40072 58007 60001 333 10286 59019 60007
AAXX 04004 91375 NIL
AAXX 04004 91519 NIL
AAXX 04004 91531 NIL
AAXX 04004 91532 45/// /0413 10295 20239 30089 40097 57014 333 20265
AAXX 04004 91559 NIL
AAXX 04004 91611 NIL
AAXX 04004 91642 NIL
AAXX 04004 91679 NIL
AAXX 04004 91689 NIL
AAXX 04004 91756 NIL
AAXX 04004 91844 NIL
AAXX 04004 92036 NIL
AAXX 04004 93713 NIL
BBXX VRDB3 04004 99103 31518 41298 61612 10290 20263 40106 56010 70222 8573/ 22235 00270 20301 319// 40502 80270
BBXX VRAE3 04004 99165 31597 41797 31719 10290 20221 40092 51005 70102 83125 22234 00290 20302 31719 40605 5//// 80243
BBXX VROC 04004 99390 31471 41297 72235 10180 20127 40152 56006 70398 877// 22223 04260 20502 322// 40906 80150
BBXX ZCGY8 04004 99209 31149 419// 02015 10262 20252 40130 5/013 70000 80000 22200 00280 20401 322// 40804 80255
BBXX VNSZ 03234 99412 31464 46/// /2522 10181 20078 30081 40107 52038 22200 04203 85124
BBXX 9HA2479 03234 99160 31674 46/// /0413 10285 20248 30054 40082 52005 22200 04293 85258
BBXX C6FS9 03234 99274 31531 46/// /1105 10238 20139 30148 40184 57001 22200 04248 85176
BBXX VROB 03234 99078 31499 46/// /2903 10275 20215 30088 40113 52020 22263 04299 85232
BBXX VNAH 03234 99383 31416 46/// /2115 10181 20057 30186 40210 52029 22200 04192 85115
BBXX VNSZ 03224 99412 31464 46/// /2622 10186 20082 30067 40093 52027 22200 04203 85128
BBXX VNSZ 04004 99412 31464 46/// /2421 10185 20063 30090 40116 52044 22200 04205 85119
BBXX VROB 03224 99079 31501 46/// /0105 10277 20228 30078 40103 52016 22273 04297 85242
BBXX VNAH 03224 99383 31416 46/// /2017 10171 20061 30178 40202 52035 22200 04191 85112
BBXX FHZI 03224 99455 31472 46/// /2427 10123 20104 30018 40029 52032 22283 04128 85112
BBXX FHZI 03234 99453 31472 46/// /2433 10125 20098 30031 40042 52036 22283 04138 85110
BBXX YJYY2 04004 99107 31498 41497 61427 10280 20244 40108 52111 70366 83274 22222 20301 80255
BBXX VRRC 04004 99136 31545 41398 31312 10290 20220 40103 51001 70200 83100 22243 20303 315// 40404 80240
BBXX SHIP 04004 99103 31055 41/97 30911 10285 20278 40037 70222 222// 0//// 20201 329// 40102 5////
AAXX 04004 68298 36/// /1304 1//// 2//// 39498 4//// 52002 333 1//// 2//// 91007 555 91016
BBXX 41038 04001 99341 70777 46/// /3008 10054 40236 53037 90000 22200 00128
AAXX 04004 40550 35/60 /3405 10078 20042 40215 51002 333 0/007 55300 00000 10241 20000 30000 40993 51234 60000 55407 40000 90069 90467 91009 91111 91207 91305
AAXX 04004 40551 36/// /2713 10075 20044 333 0//// 90467 91015 91117 91213 91311
AAXX 04004 40552 35/62 /3115 10083 20046 40217 50002 333 0/008 55300 90069 90467 91017 91117 91215 91313
AAXX 04004 40553 35/63 /3210 10081 20044 40214 50003 333 0/007 55300 90069 90467 91013 91113 91211 91309
AAXX 04004 40568 36/// /3009 10071 20030 333 0//// 90467 91011 91111 91209 91307
AAXX 04004 40569 NIL
AAXX 04004 40570 35/66 /3211 10075 20037 40229 50000 333 0/007 55300 90069 90467 91013 91115 91211 91309
AAXX 04004 40571 NIL
AAXX 04004 40572 NIL
AAXX 04004 40573 36/// /3109 10074 20046 333 0//// 90467 91011 91115 91211 91309
AAXX 04004 40580 36/// /3105 10119 20059 333 0/010 553// 00000 10262 20000 30000 41020 51282 60000 55407 40000 90467 91011 91113 91205 91303
AAXX 04004 40581 36/// /3603 10125 20069 333 0//// 90467 91009 91113 91205 91301
AAXX 04004 40582 32960 03509 10115 20049 40212 58001 333 00011 55300 00000 10239 20000 30000 41054 51294 60000 55407 40000 90467 91015 91115 91209 91307
AAXX 04004 40583 NIL
AAXX 04004 40585 36/// /3014 10131 20075 222// 1//// 3//// 4//// 70/// 333 0//// 90467 91019 91123 91215 91311
AAXX 04004 40586 36/// /2908 10112 20050 333 0//// 90467 91013 91117 91207 91305
AAXX 04004 40587 36/// /3009 10101 20048 333 0/009 553// 00000 10227 20000 30000 41015 51241 60000 55407 40000 90467 91011 91113 91209 91307
AAXX 04004 40588 35/65 /3214 10114 20061 40207 58001 333 0/011 55300 90069 90467 91017 91117 91213 91311
AAXX 04004 40589 NIL
AAXX 04004 40590 36/// /3109 10081 20043 333 0//// 90467 91011 91115 91211 91309
AAXX 04004 40591 NIL
AAXX 04004 40592 35/67 /3309 10109 20036 40214 51001 333 0/010 55300 00000 10251 20000 30000 41023 51274 60000 55407 40000 90069 90467 91013 91115 91209 91307
AAXX 04004 40593 36/// /3207 10119 20048 333 0//// 90467 91011 91115 91211 91307
AAXX 04004 40594 36/// /3306 10107 20034 333 0//// 90467 91009 91113 91207 91305
AAXX 04004 40596 46/// /3219 10157 20093 333 0//// 90467 91025 91127 91219 91317
AAXX 04004 94310 46/// /2508 10293 20236 30095 40107 52014 333 20269
AAXX 04004 95283 46/// /1310 10285 20228 30126 40133
AAXX 04004 95288 46/// /1514 10276 30110 40125 51007
AAXX 04004 95675 46/// /2016
AAXX 04004 95872 46/// /1824
AAXX 04004 95961 35/// /2721 10153 30087 40128 52033
AAXX 04001 37395 42697 80903 10024 20011 30150 40295 53003 8552/
AAXX 04001 37409 41/91 92710 11055 21055 38827 48540 52007 74574 333 95090 555 1/107
AAXX 04001 37432 42697 20000 11062 21099 38992 48514 57006 82200 555 10108
AAXX 04001 37514 42996 00000 11091 21111 39108 40341 52006
AAXX 04001 37545 425// 63409 10039 20001 39720 40253 52001 86100
AAXX 04001 37621 429// 02701 11028 21097 39597 40266 53005 555 14105
AAXX 04001 37484 NIL
AAXX 04004 65501 32960 70000 10203 21025 39834 40148 80002 333 0//00 59010 87076
AAXX 04004 65502 32960 50000 10214 21024 39763 40142 80002 333 0//00 59011 85076
AAXX 04004 65503 32960 30404 10207 20043 39798 40143 80002 333 0//00 59007 83076
AAXX 04004 65505 32960 70406 10230 21002 39801 40139 80002 333 0//00 59008 87076
AAXX 04004 65507 NIL
AAXX 04004 65510 32960 50606 10228 20019 39622 40134 80002 333 0//00 59001 85076
AAXX 04004 65516 32960 60000 10220 20005 39827 40132 80002 333 0//00 59006 86076
AAXX 04004 65518 32965 53606 10233 21019 39764 40124 80002 333 0//00 59005 85076
AAXX 04004 65522 32960 70402 10236 20015 39800 40125 80002 333 0//00 59007 87076
AAXX 04004 06610 01662 82114 10059 20014 39627 40217 58/// 69931 76162 887// 333 55300 20000 69915 88744 91127 91216
AAXX 04004 04048 42589 23414 11018 21081 49926 52004 81844 555 3/419
AAXX 04004 06670 31780 72412 10080 20003 39667 40178 58/// 71522 8257/ 333 55300 20000 82650 84357 87358 91132 91217
AAXX 04004 06700 31789 72611 10055 20004 39744 40245 58/// 72581 875// 333 55300 20000 87656 91119 91212
AAXX 04004 06680 03/// /2429 11019 21047 37489 47029 57/// 69961 333 55300 20000 60005 91177 91258
AAXX 04004 06990 33/// /1309 10050 21031 39638 40192 58/// 333 55300 20000 91119 91210
AAXX 04004 06760 33/// /0203 10031 21029 39794 40254 57/// 333 55300 20000 91105 91203
AAXX 04004 06720 32970 20805 11002 21020 39669 40266 58/// 82040 333 55300 20000 82358 91108 91205
AAXX 04004 65306 32960 50000 10215 20012 39810 40140 80002 333 0//00 58002 85076
AAXX 04004 65319 33958 50000 10215 20048 39619 40129 80002 333 0//00 59007 85076
AAXX 04004 65330 31908 50604 10225 20013 39687 40122 70544 80002 333 0//00 58002 85076
AAXX 04004 65335 31908 50608 10278 20038 39895 40115 7064/ 80002 333 0//00 58000 85076
AAXX 04004 65344 32456 50000 10264 20244 30105 40116 81502 333 0//00 59002 81610 85076
AAXX 04003 91551 11498 49902 10315 20274 40074 58009 69904 75011 84900 333 20/// 569// 59006 69904 81718 83820 81925
AAXX 04003 91553 11598 41208 10300 20273 40076 58006 60014 72522 84900 333 20225 563// 59008 60014 83820 81925
AAXX 04003 91554 11598 70409 10294 20266 40067 58006 69904 70222 83906 333 20230 561/9 59010 69904 83820 81925 87278
AAXX 04003 91555 11598 53610 10304 20274 40070 58005 60054 70292 85903 333 20254 568/9 59006 60054 83820 82925
AAXX 04003 91557 11598 83004 10320 20239 40070 57006 60031 70222 83801 333 20245 569/9 59012 60314 83820 88080
AAXX 04003 91565 11598 72506 10300 20258 40063 58003 60044 70222 8497/ 333 20225 5669/ 59013 60044 84820 81925 87462
AAXX 04003 91568 11598 60000 10304 20268 40075 58001 60064 70522 86802 333 20240 568/9 59011 60064 84825 86640
AAXX 04003 91551 11498 49902 10315 20274 40074 58009 69904 75011 84900 333 20/// 569// 59006 69904 81718 83820 81925
AAXX 04003 91553 11598 41208 10300 20273 40076 58006 60014 72522 84900 333 20225 563// 59008 60014 83820 81925
AAXX 04003 91554 11598 70409 10294 20266 40067 58006 69904 70222 83906 333 20230 561/9 59010 69904 83820 81925 87278
AAXX 04003 91555 11598 53610 10304 20274 40070 58005 60054 70292 85903 333 20254 568/9 59006 60054 83820 82925
AAXX 04003 91557 11598 83004 10320 20239 40070 57006 60031 70222 83801 333 20245 569/9 59012 60314 83820 88080
AAXX 04003 91565 11598 72506 10300 20258 40063 58003 60044 70222 8497/ 333 20225 5669/ 59013 60044 84820 81925 87462
AAXX 04003 91568 11598 60000 10304 20268 40075 58001 60064 70522 86802 333 20240 568/9 59011 60064 84825 86640
AAXX 04004 60715 11560 32807 10117 20070 30255 40262 50000 69953 70161 83280 333 58019 55054 20965 83820 91009 91116
AAXX 04004 60723 12558 72606 10119 2//// 30107 40282 50004 60073 888// 333 55010 20526 84820 84630
AAXX 04004 60725 NIL
AAXX 04004 60735 12560 73006 10112 20065 30182 40265 58007 69953 8688/ 333 55036 20637 83823 84630
AAXX 04004 60745 12560 20406 10070 20029 39898 40280 56006 60003 82200 333 55037 10906 82826
AAXX 04004 60748 NIL
AAXX 04004 60750 12558 32804 10084 20028 30230 40256 56008 69983 82202 333 55024 20692 82823
AAXX 04004 60760 12560 20000 10113 20004 30178 40284 58003 60003 82200 333 55065 21149 82830 91000 91113
AAXX 04004 60765 NIL
AAXX 04004 60767 12560 42506 10090 20048 30124 40273 57005 60003 84800 333 55014 20549 82820 83630
AAXX 04004 60769 12458 43316 10125 20057 30251 40255 58004 60063 84800 333 55018 20464 81816 84630
AAXX 04004 91367 32474 51006 10311 20267 83105 333 20261 562/9 83815 82080 555 90400 91369 32474 40905 10311 20262 30110 40113 83100 333 20261 562// 58025 83815 555 90400
AAXX 04001 48855 11560 80000 10190 20185 30177 40185 52018 69972 72162 888// 333 01020 20184 3/018 58013 8389 5 88697
AAXX 04001 48848 32565 83605 10195 20187 30187 40195 52022 888// 333 00020 20194 3/018 58028 82895 88697
AAXX 04001 48919 32598 70510 10261 20225 30119 40141 53017 83208 22200 02262 2//04 333 20256 58010 83895 8729 9
AAXX 04001 48916 32598 70904 10252 20217 30079 40126 53010 83208 333 00/// 20248 3//// 58009 83895 87299
AAXX 04001 48900 32497 40603 10224 20223 30124 40134 52017 84800 333 20210 58008 81894 83696
AAXX 04001 48918 32470 60703 10244 20214 30128 40139 52008 862// 222// 00241 2//01 333 00025 20236 3/025 5800 3 81894 86895
AAXX 04001 48917 32598 71102 10257 20217 30123 40129 52016 8321/ 222// 00275 2//00 333 00025 20244 3/024 5800 1 83895 86499
AAXX 04001 48914 32598 70902 10243 20216 30133 40135 52013 82208 333 00024 20241 3/022 58008 82895 87299
BBXX 44139 04001 99442 70571 46/// /1005 10060 40052 57011 22200 00052 11005 70025 333 91206
AAXX 04004 91367 32474 51006 10311 20267 83105 333 20261 562/9 83815 82080 555 90400 91369 32474 40905 10311 20262 30110 40113 83100 333 20261 562// 58025 83815 555 90400
BBXX A8AJ4 04004 99409 11396 41098 82818 10020 21018 40070 57010 70372 86157 22213 04160 20603 335// 40904 5//// 6//// 80005 ICE /////
BBXX A8EH5 04001 99357 11476 41498 73109 10095 20051 40078 50008 70182 8516/ 22223 00132 20503 329// 41206 5//// 80075
BBXX WCX8812 04004 99344 11416 41696 82734 10130 20060 40060 56012 70322 8862/ 22200 00200 20406 305// 40906 5//// 6//// 80095 ICE /////
BBXX 44139 04001 99442 70571 46/// /1005 10060 40052 57011 22200 00052 11005 70025 333 91206
BBXX 3FZK3 04004 99489 71234 46/// /2116 10092 20091 40207 55001 7//// 8//// 22221 0//// 2////
BBXX 46001 04001 99563 71480 46/// /0312 10030 49829 56019 92350 22200 00041 11108 20907 300// 41104 70039 333 91214 555 11128 22136 32300 40416 62349 032120 033124 035125 039122 040129 042128
BBXX 46026 04001 99378 71228 46/// /3105 10100 40257 56007 92350 22200 00116 11505 20401 326// 41505 70026 333 91206 555 11047 22049 32342 43106 62349 307045 281044 280046 282046 281039 287039
BBXX 46029 04001 99461 71245 46/// /1713 10106 20085 40208 56015 92350 22200 00093 11307 20905 329// 41305 70036 333 91215 555 11136 22147 32259 41816 62349 169126 169122 169129 168130 170123 168129
BBXX 46042 04001 99368 71224 46/// /3408 10123 40242 56009 92350 22200 00125 11507 20502 330// 41506 70034 333 91210 555 11089 22094 32329 43411 62349 343082 342082 340084 334082 334080 336077
BBXX CG2958 04004 99507 71275 46/// /1310 10072 20069 40094 55004 7//// 8//// 22200 0//// 2////
BBXX CGBR 04004 99531 71291 46/// /2325 10105 20098 40015 51010 7//// 8//// 22241 00072 2////
BBXX CGBY 04004 99487 71235 46/// /1406 10096 20074 40204 55007 7//// 8//// 22200 0//// 2////
BBXX CGDR 04004 99535 71313 46/// /1720 10091 20090 49968 51012 7//// 8//// 22212 00105 2////
BBXX 3FQS8 04004 99545 71751 41298 70130 00/// 11018 21020 49990 56015 70222 88653 22264 00040 20604 335// 40503 5//// 6//// 81001 /////
BBXX LAJS6 04004 99548 71518 41596 80228 10025 2005/ 49850 54000 75656 886// 22263 0//// 20708 311// 41205 80020
BBXX NWS0003 04004 99539 71665 43/// /3600 11023 21085 40020 5//// 7//// 8//// 222// 0//// 2//// 3//// 4//// 5//// 6//// 8//// ICE /////
BBXX WDB9986 04004 99536 71580 41496 83430 11030 21070 49965 52005 78572 8872/ 22264 00030 20507 333 // 40808 5//// 6//// 82040 ICE /////
AAXX 04004 61902 11480 71413 10233 20193 40147 69901 72582 878// 333 59008 82816 87645
AAXX 04001 01199 16/// /1209 11059 21071 39484 49955 57009 6//// 333 91113
AAXX 04001 01441 16/// /3405 11016 21041 38689 49640 53041 69941 333 91114
AAXX 04004 60710 12558 82914 10129 20088 30195 40088 56003 60083 888// 333 50026 20598 84820 86630
AAXX 04004 60714 12462 43206 10118 20083 30271 40277 50000 60013 84800 333 55068 21052 83816
AAXX 04004 60720 NIL
AAXX 04004 60728 NIL
AAXX 04004 60729 NIL
AAXX 04004 60731 05757 53011 10118 20071 30248 40255 56005 60003 333 58006 55041 60007 85/50 91015 91121
AAXX 04004 60732 NIL
AAXX 04004 60734 NIL
AAXX 04004 60738 NIL
AAXX 04004 60739 NIL
AAXX 04004 60740 12560 42911 10123 20086 30249 40251 56008 60003 83502 333 55049 20894 83626 83360
AAXX 04004 60742 NIL
AAXX 04004 60764 NIL
AAXX 04004 60770 NIL
AAXX 04004 60772 NIL
AAXX 04004 60775 NIL
AAXX 04004 60780 NIL
BBXX SBLI 04001 99237 11180 43/97 80515 10110 40253 53012 22254 00150 2//// 4////
BBXX A8TG2 04003 99251 71335 412// 20809 10200 20130 40220 55020 7//11 8/6/8 22263 00170 21202 32828 41207 51508 80160
BBXX DFVY2 04004 99080 70320 41/97 70525 10260 20210 40130 51025 70322 22214 00250 80225
BBXX SKUN 04003 99468 70177 43/98 63105 10100 40335 53032 22253 00117 2//// 4////
AAXX 04004 89002 42398 72608 11030 21037 39824 49877 57002 878// 333 11007 21048
BBXX SMGW 04001 99165 71002 43/98 22503 10287 40150 53006 22234 00292 20201 40402
BBXX SERW 04003 99169 70285 43/97 /0215 10222 2//// 40188 50007 700// 8//// 22262 06232 2//// 3//// 4////
BBXX SHJC 04001 99234 10375 43/98 03412 10224 40154 58009 22273 00245 2//// 4////
AAXX 04004 91324 32474 80908 10289 20249 30105 40107 83211 333 56299 58013 83818 84463 555 90400
AAXX 04004 91329 32474 80911 10289 20261 30166 40169 8331/ 333 56299 59007 83918 88462 555 90400
AAXX 04004 91336 NIL
AAXX 04004 91339 11474 80805 10300 20247 30098 40104 60144 70282 8422/ 333 56299 58007 71040 85818 88463 555 90400
AAXX 04004 91320 11474 80610 10294 20278 30132 40137 60064 70282 82209 333 561/9 59007 70061 82815 86273 555 90400
AAXX 04001 48852 11560 80000 10183 20183 30176 40186 53023 69902 76062 888// 333 01018 20170 3/016 58019 8489 5 88697 96160
AAXX 04004 71832 16/// /1709 11146 21172 39775 40118 58048 60001 333 11146 21275 70000
AAXX 04004 71858 16/// /3007 11027 21071 39802 40086 51039 60001 333 11026 21120 70000
AAXX 04004 71885 16/// ///// 10068 60001 333 10089 20028 7////
AAXX 04004 71956 16/// /1205 11141 21164 39978 40222 57024 60001 333 11133 21191 70000
AAXX 04004 71959 16/// ///// 11008 21046 60001 333 10021 21014 70000
AAXX 04004 71970 16/// /1701 11021 21039 39546 40138 53003 60001 333 11003 21097 70000
AAXX 04004 71977 46/// /3401 11325 21325 39363 40113 51006 6///1 333 11270 21331 7////
AAXX 04004 71978 46/// /2106 11328 21362 39780 40109 51003 6///1 333 11253 21337 7////
AAXX 04004 71988 16/// /3517 11039 21078 30083 40103 51026 60001 333 10033 21041 70000
AAXX 04004 71989 16/// /3105 11347 21383 30232 40249 58004 60001 333 11282 21350 70000
AAXX 04004 71355 16/// /2804 11309 21341 30008 40097 56013 60001 333 11299 21327 70000
AAXX 04004 71356 16/// /0216 11259 21290 39979 40048 51028 60001 333 11218 21292 70003 555 10010
AAXX 04004 71357 16/// /0000 11288 21317 30004 40011 56007 60001 333 11288 21358 70000
AAXX 04004 71361 16/// /3304 11172 21194 39933 40146 51017 60001 333 11105 21176 70000
AAXX 04004 71362 16/// /2803 11143 21165 39873 40133 51030 60001 333 11024 21148 70000
AAXX 04004 71364 16/// /1006 11289 21320 30002 40142 50009 60001 333 11245 21297 70000
AAXX 04004 71365 16/// /0402 11232 21251 39909 40130 55000 60001 333 11159 21238 70000
AAXX 04004 71378 16/// /3107 11198 21254 39980 40201 53017 60001 333 11190 21210 70000
AAXX 04004 71381 46/// /2914 11182 21206 6///1 333 7////
AAXX 04004 71382 16/// /0201 11228 21256 39151 40160 51014 60001 333 11222 21239 70000
AAXX 04004 71388 46/// /3009 11180 21217 39973 40171 51014 6///1 333 11180 21199 7////
AAXX 04004 71393 16/// ///// 10084 21059 38880 40140 53004 60001 333 10091 20018 70000
AAXX 04004 71837 16/// ///// 10059 60001 333 10074 20019 70000
AAXX 04004 71551 16/// /1905 10001 21030 39500 40156 50001 60001 333 10035 21002 70000
AAXX 04004 71553 16/// /2810 11032 21056 60001 333 10000 21090 70000
AAXX 04004 71564 16/// /3007 10006 21036 39747 40118 51056 60001 333 10061 21134 70000
AAXX 04004 71577 46/// /2704 11042 21084 6///1 333 11019 21128 7////
AAXX 04004 71585 46/// /2202 11065 21101 39660 40122 50010 6///1 333 11017 7////
AAXX 04004 71599 16/// /3302 11040 21066 39879 40083 52015 60001 333 10022 21041 70000
AAXX 04004 71110 17/// /0403 10000 21002 39997 40057 55008 69971 7//4/ 333 10037 21001 70128
AAXX 04004 71133 46/// /2705 11016 21061 39424 40136 53002 6///1 333 10010 21117 7////
AAXX 04004 71139 16/// /2411 10033 21048 38714 40169 58003 60001 333 10058 20018 70000
AAXX 04004 71149 16/// /3013 10034 21066 60001 333 10049 21113 70000
AAXX 04004 71250 17/// /1206 10006 21001 39914 40049 58024 69991 7//4/ 333 10046 20004 70109
AAXX 04004 71270 16/// /2205 11138 21160 30012 40249 50000 60001 333 11121 21165 70000
AAXX 04004 71288 16/// /0308 11340 21375 30107 40133 53007 60001 333 11295 21344 70000
AAXX 04004 71295 16/// /2302 11092 21123 39609 40065 53016 60001 333 11066 21210 70000
AAXX 04004 71212 16/// /1002 11226 21264 39292 40137 52014 60001 333 11205 21229 70000
AAXX 04004 71216 17/// /0903 10008 20003 39663 40293 53011 60011 7//4/ 333 10010 21028 70012 555 10030
AAXX 04004 71243 16/// /2624 10081 21077 39113 40179 53003 60001 333 10097 20052 70000
AAXX 04004 71246 16/// /1405 11027 21064 39436 40105 58013 60001 333 11027 21132 7////
AAXX 04004 71309 17/// /1704 11212 21246 30146 40158 56034 69961 7//4/ 333 11206 21280 70017
AAXX 04004 71311 16/// /3209 11064 21114 30065 40090 53028 60001 333 11016 21064 70000
AAXX 04004 71317 16/// /0204 11030 21079 30029 40076 53025 60001 333 10024 21030 70003
AAXX 04004 71320 16/// /3109 11395 21436 30022 40022 58001 60001 333 11374 21397 70000
AAXX 04004 71323 16/// /2802 11188 21236 39869 40163 52024 60001 333 11151 21188 70000
AAXX 04004 71334 46/// /3216 11064 21098 39661 49991 52040 6///1 333 11058 21163 7////
AAXX 04004 71868 16/// /2109 11028 21062 39686 40134 51031 60001 333 10020 21142 70000
AAXX 04004 71402 46/// /2208 10003 21041 39930 40044 53015 6///1 333 10018 20003 7////
AAXX 04004 71407 16/// /2506 11348 21389 30039 40061 56003 60001 333 11333 21368 70000
AAXX 04004 71442 16/// /2908 11038 21073 39781 40100 51044 60001 333 11024 21136 70000
AAXX 04004 71446 16/// /2210 10026 21019 39182 40160 58012 60001 333 10048 20005 70000
AAXX 04004 71449 16/// /2505 11042 21077 39678 40086 53032 60001 333 11018 21147 70000
AAXX 04004 71451 16/// /2606 11038 21084 39654 40086 53036 60001 333 11009 21136 70006
AAXX 04004 71470 16/// /2801 11283 21313 39447 40094 53026 60001 333 11185 21287 70000
AAXX 04004 71476 17/// /1821 39962 53025 60021 7//4/ 333 70294
AAXX 04004 71478 16/// /1640 10085 20083 39892 40026 58009 60001 333 10087 20062 70000
AAXX 04004 71479 16/// /1142 10079 20079 39932 40051 56008 60001 333 10081 20061 7////
AAXX 04004 71484 16/// /1625 10082 20077 39958 49976 51021 60001 333 10086 20055 70000
AAXX 04004 71487 16/// /2207 10000 21021 39314 40185 51010 60001 333 10050 20000 70000
AAXX 04004 71489 16/// /1606 11013 21045 39350 40148 55007 60001 333 10041 21033 70000
AAXX 04004 71492 46/// ///02 11221 21250 39395 40111 53018 6///1 333 11218 21238 7////
AAXX 04004 71758 16/// /3004 10003 21004 39984 40061 53019 60001 333 10025 21027 70000
AAXX 04004 71771 46/// /1314 10089 20070 39943 49963 50005 6///1 333 10106 20052 7////
AAXX 04004 71151 16/// /2506 11069 21099 39560 40073 53024 60001 333 11053 21187 70000
AAXX 04004 71156 16/// /2402 10016 21029 39015 40115 50000 60001 333 10018 21075 70000
AAXX 04004 71158 16/// /2906 11094 21103 39794 40074 51033 60001 333 11084 21159 70000
AAXX 04004 71159 16/// /2907 11008 21041 39979 40051 53017 60001 333 10022 21008 70008
AAXX 04004 71160 16/// /2912 11153 21183 39876 40093 53032 60001 333 11072 21153 70000
AAXX 04004 71162 16/// /3216 11167 21193 39911 40126 53027 60001 333 11108 21167 70000
AAXX 04004 71164 46/// /0000 11368 21409 30082 40169 51010 6///1 333 11250 21369 7////
AAXX 04004 71165 46/// ///01 11243 21271 39851 40144 51021 6///1 333 11133 21255 7////
AAXX 04004 71166 46/// /0601 11168 21187 39480 40106 58007 6///1 333 11110 21219 7////
AAXX 04004 71920 16/// /3412 11023 21061 30070 40076 51023 60001 333 10053 21024 70000
AAXX 04004 71713 16/// /3503 11150 21209 60001 333 11132 21174 70000
AAXX 04004 71732 16/// /1704 11193 21210 60001 333 11184 21231 70000 555 10010
AAXX 04004 71736 46/// ///// 10044 21071 6///1 333 10060 20017 7////
AAXX 04004 71742 46/// /1908 10000 21034 39873 40059 53009 6///1 333 10020 20000 7////
AAXX 04004 71744 16/// /3105 11138 21192 30072 40114 53039 60001 333 11062 21138 70000
AAXX 04004 71435 16/// /2105 11097 21149 39463 40075 55008 60001 333 11070 21288 70006
AAXX 04004 71443 16/// /2310 11007 21078 39712 40131 51038 60001 333 10015 21154 70000
AAXX 04004 71472 16/// /1826 10079 20067 60001 333 10092 20047 70038
AAXX 04004 71667 16/// /2604 11079 21136 39829 40083 58012 60001 333 11040 21241 70000
AAXX 04004 71669 16/// /2806 10058 21051 38546 40155 53009 60001 333 10068 20027 70000
AAXX 04004 71807 17/// /0403 10010 20001 30050 40068 55012 69971 7//4/ 333 10038 20009 70127
AAXX 04004 71810 16/// /2711 11093 21119 39970 40037 51015 60001 333 11065 21100 70000
AAXX 04004 71501 16/// /3010 11281 21312 30122 40124 51017 60001 333 11259 21284 70000
AAXX 04004 71505 46/// /0000 11209 21238 39248 49990 55014 6///1 333 11167 21254 7////
AAXX 04004 71015 16/// ///// 10037 60001 333 10067 20022 70004
AAXX 04004 71017 16/// /2911 11317 21350 30120 40135 58008 60001 333 11313 21367 70000
AAXX 04004 71018 16/// ///06 11364 21402 39963 40055 58013 60001 333 11327 21367 70000
AAXX 04004 71019 46/// /3306 11181 21210 39814 40127 53023 6///1 333 11115 21181 7////
AAXX 04004 71020 46/// /3301 11196 21214 39840 40103 51001 6///1 333 11133 21220 7////
AAXX 04004 71021 46/// /0000 11222 21248 39741 40103 56003 6///1 333 11123 21230 7////
AAXX 04004 71621 16964 03007 11150 21225 30139 40251 51018 60001 333 11127 21159 70000
AAXX 04004 71631 16/// /2104 11163 21196 39719 40246 51003 60001 333 11153 21175 70000
AAXX 04004 71137 16/// /2406 10008 21016 39251 40201 53007 60001 333 10050 21031 70000
AAXX 04004 71074 16/// ///30 11306 21337 30012 40093 57016 60001 333 21347 7////
AAXX 04004 71075 16/// /3009 11080 21096 39456 40067 51041 60001 333 11053 21135 70000
AAXX 04004 71087 46/// /0000 11222 21251 39933 40145 50006 6///1 333 11106 21222 7////
AAXX 04004 91753 01565 70109 10284 20235 30079 40111 56012 60021 70286 84231 333 60017 84824 84076 90710 91123 555 69905
AAXX 04004 91754 01460 83404 10256 20235 30068 40109 58005 60414 761// 8692/ 333 20254 58021 60217 82810 82916 83818 88460 555 60055
AAXX 04001 37279 42494 20000 10015 20007 30131 40279 58004 82300
AAXX 04001 37308 425// 80000 11024 21044 39615 40295 52006 8451/
AAXX 04001 37531 415// 82908 10010 20005 39540 40288 57004 70272 885// 555 91115
AAXX 04001 37553 429// 30000 11023 21042 39584 40257 58007 80031 333 55/// 555 14103
AAXX 04001 37651 16/// ///00 11035 21039 3//// 4//// 5//// 60001 333 55///
AAXX 04001 37492 NIL
AAXX 04004 91324 32474 80908 10289 20249 30105 40107 83211 333 56299 58013 83818 84463 555 90400
AAXX 04004 91329 32474 80911 10289 20261 30166 40169 8331/ 333 56299 59007 83918 88462 555 90400
AAXX 04004 91336 NIL
AAXX 04004 91339 11474 80805 10300 20247 30098 40104 60144 70282 8422/ 333 56299 58007 71040 85818 88463 555 90400
AAXX 04004 91320 11474 80610 10294 20278 30132 40137 60064 70282 82209 333 561/9 59007 70061 82815 86273 555 90400
AAXX 04004 71885 16/// ///// 10068 60001 333 10089 20028 7////
AAXX 04004 91324 32474 80908 10289 20249 30105 40107 83211 333 56299 58013 83818 84463 555 90400
AAXX 04004 91329 32474 80911 10289 20261 30166 40169 8331/ 333 56299 59007 83918 88462 555 90400
AAXX 04004 91336 NIL
AAXX 04004 91339 11474 80805 10300 20247 30098 40104 60144 70282 8422/ 333 56299 58007 71040 85818 88463 555 90400
AAXX 04004 91320 11474 80610 10294 20278 30132 40137 60064 70282 82209 333 561/9 59007 70061 82815 86273 555 90400
AAXX 04004 71832 16/// /1709 11146 21172 39775 40118 58048 60001 333 11146 21275 70000
AAXX 04004 71858 16/// /3007 11027 21071 39802 40086 51039 60001 333 11026 21120 70000
AAXX 04001 33466 31356 82802 10024 20016 30014 40205 52001 71011 886// 333 88707
AAXX 04001 33562 31996 22303 11012 21025 39841 40214 57011 71000 82030
AAXX 04001 33902 31896 63102 10019 20008 30148 40215 52003 71022 86070
AAXX 04001 37575 42595 82002 11026 21037 39686 40296 54000 882// 555 17102
AAXX 04001 37675 41495 80000 11024 21030 39587 40273 52005 77377 8802/ 555 1/102
AAXX 04001 37735 41/91 /2001 11010 21010 39813 40201 53003 74544 555 11001
AAXX 04001 37749 41596 80902 10011 21006 30173 40294 57009 71072 885// 555 1/001
AAXX 04001 37756 42997 82702 11051 21076 39397 40343 51007 8807/ 555 1/102
AAXX 04001 37864 32997 32703 10014 21014 40268 52008 83030
AAXX 04001 37985 42996 02001 10009 20001 30291 40276 58004
AAXX 04004 91367 32474 51006 10311 20267 83105 333 20261 562/9 83815 82080 555 90400 91369 32474 40905 10311 20262 30110 40113 83100 333 20261 562// 58025 83815 555 90400
AAXX 04004 71451 16/// /2606 11038 21084 39654 40086 53036 60001 333 11009 21136 70006
AAXX 04004 71470 16/// /2801 11283 21313 39447 40094 53026 60001 333 11185 21287 70000
AAXX 04004 71476 17/// /1821 39962 53025 60021 7//4/ 333 70294
AAXX 04004 71478 16/// /1640 10085 20083 39892 40026 58009 60001 333 10087 20062 70000
AAXX 04004 71479 16/// /1142 10079 20079 39932 40051 56008 60001 333 10081 20061 7////
AAXX 04004 71484 16/// /1625 10082 20077 39958 49976 51021 60001 333 10086 20055 70000
AAXX 04004 71487 16/// /2207 10000 21021 39314 40185 51010 60001 333 10050 20000 70000
AAXX 04004 71489 16/// /1606 11013 21045 39350 40148 55007 60001 333 10041 21033 70000
AAXX 04004 71492 46/// ///02 11221 21250 39395 40111 53018 6///1 333 11218 21238 7////
AAXX 04004 71309 17/// /1704 11212 21246 30146 40158 56034 69961 7//4/ 333 11206 21280 70017
AAXX 04004 71311 16/// /3209 11064 21114 30065 40090 53028 60001 333 11016 21064 70000
AAXX 04004 71317 16/// /0204 11030 21079 30029 40076 53025 60001 333 10024 21030 70003
AAXX 04004 71320 16/// /3109 11395 21436 30022 40022 58001 60001 333 11374 21397 70000
AAXX 04004 71323 16/// /2802 11188 21236 39869 40163 52024 60001 333 11151 21188 70000
AAXX 04004 71334 46/// /3216 11064 21098 39661 49991 52040 6///1 333 11058 21163 7////
AAXX 04001 06431 16/// /2407 10063 20020 30074 40086 50005 60021 333 91120 91213
AAXX 04004 71402 46/// /2208 10003 21041 39930 40044 53015 6///1 333 10018 20003 7////
AAXX 04004 71407 16/// /2506 11348 21389 30039 40061 56003 60001 333 11333 21368 70000
AAXX 04004 71442 16/// /2908 11038 21073 39781 40100 51044 60001 333 11024 21136 70000
AAXX 04004 71446 16/// /2210 10026 21019 39182 40160 58012 60001 333 10048 20005 70000
AAXX 04004 71449 16/// /2505 11042 21077 39678 40086 53032 60001 333 11018 21147 70000
AAXX 04001 06447 16/// /2503 10066 20031 39972 40097 50005 69911 333 91118 91209
AAXX 04004 71015 16/// ///// 10037 60001 333 10067 20022 70004
AAXX 04004 71017 16/// /2911 11317 21350 30120 40135 58008 60001 333 11313 21367 70000
AAXX 04004 71018 16/// ///06 11364 21402 39963 40055 58013 60001 333 11327 21367 70000
AAXX 04004 71019 46/// /3306 11181 21210 39814 40127 53023 6///1 333 11115 21181 7////
AAXX 04004 71020 46/// /3301 11196 21214 39840 40103 51001 6///1 333 11133 21220 7////
AAXX 04004 71021 46/// /0000 11222 21248 39741 40103 56003 6///1 333 11123 21230 7////
AAXX 04004 71212 16/// /1002 11226 21264 39292 40137 52014 60001 333 11205 21229 70000
AAXX 04004 71216 17/// /0903 10008 20003 39663 40293 53011 60011 7//4/ 333 10010 21028 70012 555 10030
AAXX 04004 71243 16/// /2624 10081 21077 39113 40179 53003 60001 333 10097 20052 70000
AAXX 04004 71246 16/// /1405 11027 21064 39436 40105 58013 60001 333 11027 21132 7////
AAXX 04004 71807 17/// /0403 10010 20001 30050 40068 55012 69971 7//4/ 333 10038 20009 70127
AAXX 04004 71810 16/// /2711 11093 21119 39970 40037 51015 60001 333 11065 21100 70000
AAXX 04004 71110 17/// /0403 10000 21002 39997 40057 55008 69971 7//4/ 333 10037 21001 70128
AAXX 04004 71133 46/// /2705 11016 21061 39424 40136 53002 6///1 333 10010 21117 7////
AAXX 04004 71139 16/// /2411 10033 21048 38714 40169 58003 60001 333 10058 20018 70000
AAXX 04004 71149 16/// /3013 10034 21066 60001 333 10049 21113 70000
AAXX 04004 71868 16/// /2109 11028 21062 39686 40134 51031 60001 333 10020 21142 70000
AAXX 04004 71837 16/// ///// 10059 60001 333 10074 20019 70000
AAXX 04001 13586 32957 00000 11045 21059 39984 40291 58006 71000
AAXX 04004 71621 16964 03007 11150 21225 30139 40251 51018 60001 333 11127 21159 70000
AAXX 04004 71631 16/// /2104 11163 21196 39719 40246 51003 60001 333 11153 21175 70000
AAXX 04004 71355 16/// /2804 11309 21341 30008 40097 56013 60001 333 11299 21327 70000
AAXX 04004 71356 16/// /0216 11259 21290 39979 40048 51028 60001 333 11218 21292 70003 555 10010
AAXX 04004 71357 16/// /0000 11288 21317 30004 40011 56007 60001 333 11288 21358 70000
AAXX 04004 71361 16/// /3304 11172 21194 39933 40146 51017 60001 333 11105 21176 70000
AAXX 04004 71362 16/// /2803 11143 21165 39873 40133 51030 60001 333 11024 21148 70000
AAXX 04004 71364 16/// /1006 11289 21320 30002 40142 50009 60001 333 11245 21297 70000
AAXX 04004 71365 16/// /0402 11232 21251 39909 40130 55000 60001 333 11159 21238 70000
AAXX 04004 71378 16/// /3107 11198 21254 39980 40201 53017 60001 333 11190 21210 70000
AAXX 04004 71381 46/// /2914 11182 21206 6///1 333 7////
AAXX 04004 71382 16/// /0201 11228 21256 39151 40160 51014 60001 333 11222 21239 70000
AAXX 04004 71388 46/// /3009 11180 21217 39973 40171 51014 6///1 333 11180 21199 7////
AAXX 04004 71393 16/// ///// 10084 21059 38880 40140 53004 60001 333 10091 20018 70000
AAXX 04004 71137 16/// /2406 10008 21016 39251 40201 53007 60001 333 10050 21031 70000
AAXX 04004 71956 16/// /1205 11141 21164 39978 40222 57024 60001 333 11133 21191 70000
AAXX 04004 71959 16/// ///// 11008 21046 60001 333 10021 21014 70000
AAXX 04004 71970 16/// /1701 11021 21039 39546 40138 53003 60001 333 11003 21097 70000
AAXX 04004 71977 46/// /3401 11325 21325 39363 40113 51006 6///1 333 11270 21331 7////
AAXX 04004 71978 46/// /2106 11328 21362 39780 40109 51003 6///1 333 11253 21337 7////
AAXX 04004 71988 16/// /3517 11039 21078 30083 40103 51026 60001 333 10033 21041 70000
AAXX 04004 71989 16/// /3105 11347 21383 30232 40249 58004 60001 333 11282 21350 70000
AAXX 04004 71250 17/// /1206 10006 21001 39914 40049 58024 69991 7//4/ 333 10046 20004 70109
AAXX 04004 71270 16/// /2205 11138 21160 30012 40249 50000 60001 333 11121 21165 70000
AAXX 04004 71288 16/// /0308 11340 21375 30107 40133 53007 60001 333 11295 21344 70000
AAXX 04004 71295 16/// /2302 11092 21123 39609 40065 53016 60001 333 11066 21210 70000
AAXX 04004 71667 16/// /2604 11079 21136 39829 40083 58012 60001 333 11040 21241 70000
AAXX 04004 71669 16/// /2806 10058 21051 38546 40155 53009 60001 333 10068 20027 70000
AAXX 04004 71920 16/// /3412 11023 21061 30070 40076 51023 60001 333 10053 21024 70000
AAXX 04004 71435 16/// /2105 11097 21149 39463 40075 55008 60001 333 11070 21288 70006
AAXX 04004 71443 16/// /2310 11007 21078 39712 40131 51038 60001 333 10015 21154 70000
AAXX 04004 71472 16/// /1826 10079 20067 60001 333 10092 20047 70038
AAXX 04004 71713 16/// /3503 11150 21209 60001 333 11132 21174 70000
AAXX 04004 71732 16/// /1704 11193 21210 60001 333 11184 21231 70000 555 10010
AAXX 04004 71736 46/// ///// 10044 21071 6///1 333 10060 20017 7////
AAXX 04004 71742 46/// /1908 10000 21034 39873 40059 53009 6///1 333 10020 20000 7////
AAXX 04004 71744 16/// /3105 11138 21192 30072 40114 53039 60001 333 11062 21138 70000
AAXX 04004 71758 16/// /3004 10003 21004 39984 40061 53019 60001 333 10025 21027 70000
AAXX 04004 71771 46/// /1314 10089 20070 39943 49963 50005 6///1 333 10106 20052 7////
AAXX 04004 71551 16/// /1905 10001 21030 39500 40156 50001 60001 333 10035 21002 70000
AAXX 04004 71553 16/// /2810 11032 21056 60001 333 10000 21090 70000
AAXX 04004 71564 16/// /3007 10006 21036 39747 40118 51056 60001 333 10061 21134 70000
AAXX 04004 71577 46/// /2704 11042 21084 6///1 333 11019 21128 7////
AAXX 04004 71585 46/// /2202 11065 21101 39660 40122 50010 6///1 333 11017 7////
AAXX 04004 71599 16/// /3302 11040 21066 39879 40083 52015 60001 333 10022 21041 70000
AAXX 04004 71501 16/// /3010 11281 21312 30122 40124 51017 60001 333 11259 21284 70000
AAXX 04004 71505 46/// /0000 11209 21238 39248 49990 55014 6///1 333 11167 21254 7////
AAXX 04004 71151 16/// /2506 11069 21099 39560 40073 53024 60001 333 11053 21187 70000
AAXX 04004 71156 16/// /2402 10016 21029 39015 40115 50000 60001 333 10018 21075 70000
AAXX 04004 71158 16/// /2906 11094 21103 39794 40074 51033 60001 333 11084 21159 70000
AAXX 04004 71159 16/// /2907 11008 21041 39979 40051 53017 60001 333 10022 21008 70008
AAXX 04004 71160 16/// /2912 11153 21183 39876 40093 53032 60001 333 11072 21153 70000
AAXX 04004 71162 16/// /3216 11167 21193 39911 40126 53027 60001 333 11108 21167 70000
AAXX 04004 71164 46/// /0000 11368 21409 30082 40169 51010 6///1 333 11250 21369 7////
AAXX 04004 71165 46/// ///01 11243 21271 39851 40144 51021 6///1 333 11133 21255 7////
AAXX 04004 71166 46/// /0601 11168 21187 39480 40106 58007 6///1 333 11110 21219 7////
AAXX 04004 71074 16/// ///30 11306 21337 30012 40093 57016 60001 333 21347 7////
AAXX 04004 71075 16/// /3009 11080 21096 39456 40067 51041 60001 333 11053 21135 70000
AAXX 04004 71087 46/// /0000 11222 21251 39933 40145 50006 6///1 333 11106 21222 7////
BBXX 44150 04001 99425 70640 46/// /3505 10045 40064 52020 22200 00095 10904 70021 333 91207
BBXX 44150 04001 99425 70640 46/// /3505 10045 40064 52020 22200 00095 10904 70021 333 91207
AAXX 04001 38178 425// 83602 11036 21104 39917 40213 52001 885// 555 10103
AAXX 04004 61017 NIL
AAXX 04004 61024 NIL
AAXX 04004 61036 NIL
AAXX 04004 61043 32960 70608 10186 21015 39718 40160 80008 333 0//00 58004 87280
AAXX 04004 61045 NIL
AAXX 04004 61049 31958 70804 10192 20019 39825 40123 7062/ 80008 333 0//00 59015 87280
AAXX 04004 61052 32960 20206 10205 21002 39894 40151 80002 333 0//00 59003 83080
AAXX 04004 61075 32960 51010 10215 21007 39840 40151 80002 333 0//00 59002 85080
AAXX 04004 61080 NIL
AAXX 04004 61090 32960 74006 10170 21002 39651 40167 80008 333 0//00 58004 87280
AAXX 04004 61091 NIL
AAXX 04004 61096 31956 70704 10170 21010 39780 40164 7052/ 80008 333 0//00 59002 87280
AAXX 04004 61099 NIL
BBXX 44255 04001 99473 70573 46/// /2008 10032 40045 52014 22200 00033 10904 70022 333 91209
AAXX 04001 44214 32998 00000 11260 21310 38291 40493 57012 333 21276 45001 555 31319
AAXX 04001 44231 319// 00000 11278 21332 38749 40485 57009 70400 333 21279 47009 55049 555 31321
AAXX 04001 44259 32997 02502 11246 21285 39352 40352 58011 333 21253 47013 555 31300
AAXX 04001 44277 329// 02703 11195 21263 37802 40461 57010 333 21256 47006 555 31274
AAXX 04001 44288 32999 02901 11110 21217 38167 40342 57009 333 21167 45998 555 31234
AAXX 04001 44292 32999 01201 11258 21282 38727 40432 57007 333 21274 47007 55065 555 31313
AAXX 04001 44304 32999 12302 11306 21336 39030 40422 57007 81040 333 21316 47011 555 31326
AAXX 04001 44354 32999 00000 11266 21290 39164 40416 57008 333 21267 48002 555 31289
AAXX 04001 44373 32999 20000 11231 21278 38566 40431 57009 80004 333 21232 47005 55079 555 31293
AAXX 04001 44203 329// 20000 11371 21395 38450 40584 57009 82040 333 21372 47006 555 31412
AAXX 04001 44207 329// 02302 11268 21307 38307 40429 56018 333 21280 47008 55/// 555 31320
AAXX 04001 44212 32999 01803 11363 21390 39244 40563 57011 333 21355 47011 55062 555 31385
AAXX 04001 44213 32999 00000 11357 21394 38862 40581 57013 333 21360 47011 555 31407
AAXX 04001 44215 32998 00000 11321 21343 38443 40518 57017 333 21323 46001 555 31348
AAXX 04001 44218 329// 01701 11306 21336 38647 40515 57014 333 21308 42001 55068 555 3////
AAXX 04001 44225 329// 00000 11389 21411 38331 40661 57009 333 21392 48015 555 31///
AAXX 04001 44230 329// 00203 11213 21247 38812 40421 57009 333 21235 47009 555 31257
AAXX 04001 44232 329// 00000 11309 21338 39152 40442 57008 333 21321 43008 555 31338 99601
AAXX 04001 44237 32999 02302 11176 21226 38497 40363 57008 333 21231 47014 555 31259
AAXX 04001 44239 329// 03303 11266 21304 38809 40390 58006 333 21299 43007 555 31305
AAXX 04001 44241 329// 01802 11304 21327 39305 40405 57006 333 21306 47007 555 31342
AAXX 04001 44256 32999 40000 11287 21305 39380 40343 56011 82046 333 21289 47007 555 31322
AAXX 04001 44265 329// 00000 11226 21266 38867 40407 56010 333 21234 43004 555 31287
AAXX 04001 44272 329// 01401 11218 21266 38231 40398 57012 333 21246 43006 55067 555 31297
AAXX 04001 44275 32998 00000 11270 21276 37740 40504 56008 333 21295 47002 555 31350
AAXX 04001 44282 32999 00000 11121 21216 38298 40322 57005 333 21153 41998 55072 555 31211
AAXX 04001 44284 32999 00000 11291 21323 37870 40592 57008 333 21305 47007 555 31324
AAXX 04001 44285 32999 01502 11238 21268 38329 40440 57007 333 21275 48007 555 31290
AAXX 04001 44287 32999 00304 11171 21229 38137 40427 57008 333 21220 47001 55082 555 31236
AAXX 04001 44294 329// 00103 11283 21313 38577 40470 57006 333 21343 47004 555 31346
AAXX 04001 44298 32999 03603 11251 21257 38738 40404 57008 333 21270 47003 555 31270
AAXX 04001 44302 32999 02706 11275 21312 39145 40396 57005 333 21277 48009 555 31290
AAXX 04001 44305 32999 23203 11265 21297 39093 40384 56012 82040 333 21273 48007 555 31283
AAXX 04001 44313 31996 32305 11264 21302 39453 40386 54000 71030 80003 333 21309 47010 555 31///
AAXX 04001 44314 32998 02707 11212 21244 39209 40401 57005 333 21230 47005 555 31265
AAXX 04001 44317 32998 02304 11209 21249 38986 40392 56010 333 21224 48004 555 31272
AAXX 04001 44336 329// 00000 11246 21278 38721 40455 56010 333 21265 43002 555 31295
AAXX 04001 44341 329// 03301 11238 21269 38622 40435 56012 333 21251 42002 555 31314
AAXX 04001 44347 32999 00000 11189 21230 38752 40391 56007 333 21200 46997 555 31275
AAXX 04001 44352 32999 02705 11237 21255 38958 40394 56010 333 21240 42005 555 31280
AAXX 04001 44358 32998 00000 11257 21274 39154 40436 56019 333 21255 41000 555 31309
AAXX 04004 86330 32598 21610 10286 20088 40098 53013 81131 333 10338 20249
AAXX 04004 86360 NIL
AAXX 04004 86460 32997 41810 10240 20096 40126 52013 82036 333 1//// 20232
AAXX 04004 86490 32997 21304 10218 20098 40135 53010 80005 333 10325 20218
AAXX 04004 86530 32997 31811 10206 20107 40129 52017 80005 333 10308 20206
AAXX 04004 86545 32997 21805 10178 20132 40144 52011 80005 333 10274 20178
AAXX 04004 86565 32597 21903 10194 20135 40129 52007 82400 333 10246 20194
AAXX 04004 86580 32597 21306 10190 20156 40145 52008 81805 333 10228 20185
AAXX 04004 41859 31/03 90000 10124 20120 30105 40104 74744 89/// 333 56999 58000 70000
AAXX 04004 41883 31930 00000 10134 20120 30117 40139 70500 333 58004 70000
AAXX 04004 41891 31420 40000 10153 20150 30093 40133 71021 82530 333 56990 58000 70000 82615 84365
AAXX 04004 41907 31410 43601 10152 20150 30123 40138 70522 82530 333 56990 58004 70000 82618 83360
AAXX 04004 41936 31906 40000 10164 20150 40139 74022 84030 333 56090 58003 70000 84362
AAXX 04001 40706 12960 01402 11060 21108 38693 40280 53009 60001 333
AAXX 04001 40718 11950 02102 10030 20020 30299 40269 57010 60021 71062 333
AAXX 04001 40732 11560 30000 10044 20034 30284 40259 54000 60021 70162 83500 333 83633
AAXX 04001 40745 11462 81303 10006 21003 38995 40162 57010 69901 72052 8572/ 333 85710 88458
AAXX 04001 40754 12960 02711 11008 21064 38803 40170 53017 60001 333
AAXX 04001 40766 12960 01102 11016 21041 38724 40238 53010 60001 333
AAXX 04001 40800 12960 00000 10022 21076 38436 40150 52006 60001 333
AAXX 04001 40811 12960 02904 10096 20056 30171 40198 51002 60001 92345 333
AAXX 04001 40841 12960 00000 10022 21039 38218 40116 50000 60001 333
AAXX 04001 40848 NIL
AAXX 04001 40856 11958 20000 10084 20025 38591 40080 58001 60001 70500 81032 333 81360
AAXX 04001 40875 11930 03203 10137 20122 30103 40114 57008 60001 71000 333
AAXX 04001 50953 31940 00000 11219 21240 30096 40292 52016 70400 333 00152
AAXX 04001 51288 32980 00902 11146 21234 38328 57002 333 05351 92510
AAXX 04001 53463 32980 00201 11175 21242 39093 40454 52002 333 00052
AAXX 04001 53513 32970 01101 11200 21231 39098 40441 57006 333 05451
AAXX 04001 54218 32980 02703 11147 21231 39507 40380 52014 333 00551
AAXX 04001 54471 32960 00202 11143 21176 30333 40339 52017 333 00651 92501
AAXX 04001 54497 32965 03604 11114 21186 30285 40303 52020 333 00551
AAXX 04001 54823 32980 00903 11066 21202 30158 40382 52015 333 00451
AAXX 04001 54161 31950 02501 11206 21231 39992 40314 52013 70400 333 00453
AAXX 04001 54292 32660 12906 11149 21215 39915 40258 52016 81500 333 00004 92500
AAXX 04001 57127 32961 71101 11015 21023 39729 40368 52004 8703/ 333 00053 31029 70004
AAXX 04001 50468 32970 53403 11220 21242 30039 40271 52004 80002 333 05307 92509
AAXX 04001 53588 32980 03206 11148 21388 37792 52002 333 00307
AAXX 04001 53772 32962 12501 11105 21221 39427 40417 52003 80002 333 00252
AAXX 04001 57083 32968 02702 11025 21189 30242 40386 52013 333 00354 31041
AAXX 04001 50774 32960 02701 11283 21309 39939 40281 52009 333 05203 92515
AAXX 04001 54094 32960 01801 11222 21257 39937 40268 52014 333 05100 92504
AAXX 04001 54102 32980 02004 11251 21280 39117 40452 57003 333 00354 79999 92509
AAXX 04001 54374 32965 53602 11218 21247 39819 40326 52020 80002 333 00553 70002 92509
AAXX 04001 54843 32980 02903 11073 21150 30329 40359 52016 333 00552
AAXX 04001 54909 32966 00000 11057 21120 30310 40378 52009 333 00351
AAXX 04001 56029 32680 70000 11105 21170 36422 57003 86502 333 00251
AAXX 04004 47401 11/08 83209 11053 21079 30000 40015 57006 69952 78682 883// 333 21056 4/042 70010
AAXX 04004 47412 11/20 72709 11038 21072 30009 40042 55004 60022 78582 873// 333 21046 4/048 70055
AAXX 04004 47420 15/70 /2917 11030 21103 39933 49967 57003 60002 333 21042
AAXX 04004 47426 17/70 /2915 11032 21086 39985 40034 53004 69902 70070 333 21058
AAXX 04004 47582 11/56 81304 11014 21036 30050 40078 53005 69952 78582 883// 333 21022 4/021 70005
AAXX 04004 47590 11/56 83307 11002 21039 30011 40066 53004 69902 77111 8757/ 333 21027 79999
AAXX 04004 47600 17/70 /0113 10038 21016 30078 40086 53008 60162 70060 333 20004
AAXX 04004 47648 12/70 22709 10057 21003 30004 40038 56016 60002 82202 333 20021 70000
AAXX 04004 47662 12/82 13103 10034 21071 30010 40055 55005 60002 81100 333 20020 70000
AAXX 04004 47678 17/70 /2816 10108 20016 39902 40089 52007 60022 70060 333 20083
AAXX 04004 47740 17/50 /2813 10014 21005 30087 40122 53015 60072 78187 333 20008
AAXX 04004 47778 15/67 /3014 10080 21005 30030 40114 53004 69902 333 20066
AAXX 04004 47807 11/65 73013 10042 21053 30193 40212 53016 60022 72682 87200 333 20031 70015
AAXX 04004 47827 11/70 73408 10042 20017 30167 40207 52022 60012 78082 872// 333 20039 70010
AAXX 04004 47843 17/80 /3116 10043 21028 30196 40230 53014 69952 78087 333 20023
AAXX 04004 47893 11/75 12504 10054 21008 30148 40154 53018 69902 70281 81200 333 20037 79999
AAXX 04004 47909 11/65 83509 10137 20056 30214 40224 53024 60012 72582 8727/ 333 20126 70010
AAXX 04004 47918 11/58 80117 10141 20116 30233 40251 52031 69902 76162 8787/ 333 20141 79999
AAXX 04004 47936 11/70 83515 10146 20088 30179 40239 51024 69952 72162 888// 333 20137 70005
AAXX 04004 47945 11/65 83312 10186 20117 30183 40208 53020 69902 70282 8787/ 333 20179 79999
AAXX 04004 47971 12/75 61611 10204 20131 30146 40156 51008 69902 86200 333 20151 79999
AAXX 04004 47991 16/// /2508 10244 20192 30150 40160 50009 69902 333 20215 79999
AAXX 04001 51133 32980 00201 11131 21196 39584 40272 57005 333 05354 92511
AAXX 04001 52203 32980 00401 11175 21230 39411 40367 57003 333 05651
AAXX 04001 52418 32980 03401 11201 21237 38948 40390 57008 333 05551
AAXX 04001 52681 32980 00401 11208 21257 38709 40419 57010 333 05651
AAXX 04001 53798 32962 01601 11048 21176 30282 40385 52013 333 00400
AAXX 04001 54423 32980 03205 11124 21222 39828 40385 52012 333 00401
AAXX 04001 54618 32963 32501 11098 21185 30355 40374 52013 80002 333 00451
AAXX 04004 47407 11/65 72103 11085 21110 39852 40032 58008 69902 78582 872// 333 21120 4/044 79999
AAXX 04004 47409 12/70 32909 11041 21107 39940 49995 56003 69952 83200 333 21055 4/018 70035
AAXX 04004 47418 12/82 12808 11061 21118 39949 40000 58002 60002 81500 333 21099 4/009 70000
AAXX 04004 47421 17/70 /2908 11026 21095 30006 40050 56007 69902 72470 333 21041
AAXX 04004 47430 12/65 73003 11028 21085 30000 40055 53004 69902 86230 333 21069 4/016 79999
AAXX 04004 47570 17/59 /3505 11030 21047 39800 40067 55002 60002 71000 333 21057
AAXX 04004 47575 11/50 82006 11014 21041 30055 40060 58001 60032 78582 883// 333 21025 4/065 70025
AAXX 04004 47584 12/82 73402 11047 21081 39873 40069 55004 60002 82272 333 21072 4/006 79999
AAXX 04004 47604 11/08 82904 10004 21007 30065 40074 53015 60042 78682 882// 333 20003 4/004 70045
AAXX 04004 47605 11/05 82006 10005 21003 30057 40099 51021 60172 78698 882// 333 20005 4/003 70170
AAXX 04004 47610 11/40 80903 11018 21029 39563 40079 53020 69952 78582 882// 333 21033 4/006 70005
AAXX 04004 47624 12/80 13008 10013 21070 39917 40059 56008 60002 81200 333 21015 70000
AAXX 04004 47629 12/80 13504 10019 21048 30008 40047 57013 60002 81130 333 21024 70000
AAXX 04004 47636 12/60 52508 10063 21044 30037 40106 53005 60002 85230 333 20013 70000
AAXX 04004 47651 12/60 42611 10063 21031 30090 40113 53006 69902 81102 333 20041 79999
AAXX 04004 47655 15/69 /2720 10072 21036 30034 40091 53006 60002 333 20042
AAXX 04004 47675 15/64 /2524 10079 21011 39985 40077 53008 60002 333 20054
AAXX 04004 47741 11/60 72721 10025 21042 30120 40148 53021 60032 78582 872// 333 20007 70055
AAXX 04004 47746 11/60 72912 10029 21018 30119 40139 53020 60042 78598 87200 333 20006 70050
AAXX 04004 47750 11/60 61602 10018 20002 30094 40122 53008 69952 72682 86200 333 20007 70005
AAXX 04004 47765 11/50 73007 10024 21027 30105 40173 53025 60012 78582 872// 333 20015 70010
AAXX 04004 47772 11/60 52611 10058 21005 30025 40127 53010 69902 72511 81230 333 20049 79999
AAXX 04004 47800 17/79 /3217 10020 21081 30207 40212 53020 69902 77074 333 20018
AAXX 04004 47815 11/65 22712 10046 21066 30174 40191 53014 69902 72681 82200 333 20030 79999
AAXX 04004 47817 11/65 73311 10041 21025 30178 40223 53018 60012 78582 87200 333 20036 70010
AAXX 04004 47830 11/80 12811 10061 21046 30169 40188 53019 69902 70261 81100 333 20047 79999
AAXX 04004 47887 11/70 32910 10046 21085 30137 40180 51028 69902 70281 83200 333 20042 79999
AAXX 04004 47891 11/65 83012 10034 21010 30129 40146 53020 69902 78382 882// 333 20026 79999
AAXX 04004 47895 11/58 82810 10027 20006 30136 40144 53016 60072 78482 882// 333 20018 70065
AAXX 04004 47927 11/65 70116 10148 20116 30198 40248 51028 60032 72162 878// 333 20137 70025
AAXX 04001 50136 31962 20000 11362 21406 39727 40348 52005 77600 80002 333 05451 92511
AAXX 04001 50745 32966 02501 11219 21240 30100 40305 52008 333 00000
AAXX 04001 50788 32970 02704 11230 21256 30118 40213 52003 333 05401 92502
AAXX 04001 53564 32968 10000 11202 21233 39340 40464 54000 80002 333 00051
AAXX 04001 53614 32975 23602 11149 21185 39024 40423 57009 80002 333 05452
AAXX 04001 53646 32970 10000 11205 21247 38979 40455 54000 80002 333 05152
AAXX 04001 53845 32970 02702 11157 21204 39222 40442 57005 333 05156
AAXX 04001 53959 32980 02201 11105 21158 39944 40421 52007 333 00258
AAXX 04001 57131 32970 30203 11067 21142 39892 40419 52004 80002 333 00156
AAXX 04001 56778 11556 81104 10047 20035 38122 52002 60011 76060 888// 333 00359 70014
AAXX 04001 57265 32960 30000 11028 21045 30266 40384 52012 82041 333 00356 31049
AAXX 04001 57494 32965 03401 11051 21054 30348 40380 52015 333 00659 31043
AAXX 04001 58221 31958 22501 11052 21081 30350 40380 52015 71000 80002 333 00555
AAXX 04001 58362 32970 02705 11012 21093 30343 40352 52019 333 00755 31034
AAXX 04001 58752 11656 83402 10037 21015 30290 40338 52025 69931 70560 885// 333 00755 30032 70042
AAXX 04001 51076 32980 02901 11171 21242 39380 40342 57005 333 05451 31026 92526
AAXX 04001 51463 32970 00702 11148 21170 39139 40332 57008 333 05302 31044 92511
AAXX 04001 51573 32970 00000 11121 21163 30308 40355 57005 333 05500
AAXX 04001 52983 32970 02001 11168 21196 38152 57006 333 05454
AAXX 04001 54401 32975 03203 11170 21227 39423 40431 52006 333 00353
AAXX 04004 41295 36/// /1805 10154 20148 39960 40145 333 0E019 59003
AAXX 04001 57461 31958 62901 10007 20004 30215 40387 52013 71000 86040 333 00454 31023 79999
AAXX 04001 57816 11456 80903 11025 21033 38880 40342 52012 69901 76666 885// 333 00554 31004 70008 93427
AAXX 04001 58238 31958 02502 11021 21111 30328 40375 52016 70500 333 00654
AAXX 04001 58606 32960 00902 10018 21075 30307 40369 52016 333 00855 31020 70004
AAXX 04001 58847 11560 80702 10068 20053 30204 40310 52020 60031 72166 885// 333 00654 70057
AAXX 04001 59644 11458 83608 10071 20060 30235 40252 52022 60011 76066 887// 333 00658 70017
AAXX 04001 59758 11465 80408 10156 20127 30147 40224 52024 69901 70060 888// 333 00453 79999
AAXX 04001 52533 32980 02503 11197 21241 38574 40407 57006 333 05600
AAXX 04001 52652 32980 02001 11228 21272 38581 40397 57007 333 05753
AAXX 04001 52866 32965 00000 11192 21222 37728 57005 333 05353
AAXX 04001 53915 32980 03202 11142 21181 38764 40420 57003 333 05256
AAXX 04001 54337 32960 03201 11112 21200 30249 40339 52014 333 00500 92500
AAXX 04001 54342 31956 00000 11204 21223 30262 40330 52020 71000 333 00554 70003 92500
AAXX 04001 54511 32980 00901 11081 21202 30322 40365 52010 333 00453
AAXX 04001 56080 32970 00000 11225 21257 37150 57004 333 05156 92503
AAXX 04001 56096 32975 10901 11036 21102 39045 40347 57002 81040 333 05252
AAXX 04001 56187 31940 80000 10012 20000 39661 40336 52007 71000 8807/ 333 00354 30011
AAXX 04001 58040 32960 02701 11069 21114 30350 40364 52021 333 00554
AAXX 04001 58150 31956 02903 11044 21123 30354 40358 52017 70500 333 00655 31035
AAXX 04001 58457 31956 03403 11002 21145 30316 40372 52022 70500 333 00855 31029
AAXX 04001 59316 11760 82201 10109 20065 30267 40272 52019 69901 70060 885// 333 00552 79999
AAXX 04001 57516 11430 80201 10047 20030 30011 40335 52005 69931 76166 8672/ 333 00653 70097
AAXX 04001 57687 31758 63402 10026 21019 30280 40368 52016 70500 85540 333 00652 30018 70029
AAXX 04001 58102 32962 03401 11065 21080 30335 40387 52016 333 00354 31037
AAXX 04001 58251 31957 02903 11041 21093 30354 40359 52020 71000 333 00655 31045
AAXX 04001 59117 11680 83604 10072 20027 30187 40297 52014 69921 76060 885// 333 00756 70002
AAXX 04001 59134 11660 80403 10082 20053 30112 40285 52021 69911 70060 885// 333 00554 70001
AAXX 04001 59287 32673 83605 10082 20031 30198 40286 52020 885// 333 00656
AAXX 04001 59431 11450 83603 10067 20047 30138 40290 52019 60071 76066 887// 333 00754 70089
AAXX 04004 40100 12960 00602 10127 20076 30207 40239 56007 60001 900// 333 92427
AAXX 04004 40101 11930 00000 10036 20025 39154 48536 56007 60001 71044 900//
AAXX 04004 40103 32558 11804 10096 20079 40248 56004 81100 333 81824 555 10179
AAXX 04004 40102 NIL
AAXX 04004 61401 NIL 61404 NIL 61415 32958 03408 10180 20059 30200 40205 333 0//00 59007
AAXX 04004 61421 NIL 61437 NIL 61442 32956 60611 10242 21106 30174 40178 86080 333 0//00 59001 86363
AAXX 04004 61450 NIL 61461 NIL 61489 NIL 61492 NIL 61497 NIL 61498 NIL 61499 NIL
AAXX 04004 60663 36/// /0903 10104 21023
AAXX 04004 04211 45/84 /0206 11226 21254 39785 49955 57026
AAXX 04004 04220 07573 70111 11160 21193 39869 49922 57017 69901 78587 333 55300 20004 69907 83/20 85/25 87/29
AAXX 04004 04221 45/84 /0601 11233 21350 39883 49923 57018
AAXX 04004 04231 12984 10507 11389 21445 39862 49946 57007 6///1 80001 333 81070
AAXX 04004 04234 45/84 /0904 11213 21274 39900 49910 57007
AAXX 04004 04241 45982 70307 11131 21218 39802 49842 57006 333 87/71 91212
AAXX 04004 04250 05984 73615 11132 21183 39726 49833 52009 6///1 333 55300 20000 6///7 87/70
AAXX 04004 04254 45984 50211 11143 21200 39722 49840 52007 333 85/69
AAXX 04004 04260 45583 63416 11059 21154 39749 49792 52029 333 82/32 85/60 86/70
AAXX 04004 04270 45765 80820 10001 21117 39741 49779 52017 333 85/56 88/58
AAXX 04004 04272 07663 8//// 11005 21066 39705 49775 52030 60031 77187 333 69927 83/36 88/41
AAXX 04004 04312 46/// /3006 11203 21230 30021 40064 57017
AAXX 04004 04320 47/14 92801 11109 21122 39979 49995 57005 77177 333 89/06 91117 91212
AAXX 04004 04339 45/84 ///// 11037 21121 39834 49923 57012 333 55300 20000
AAXX 04004 04360 06/// /0808 11033 21063 39820 49890 57011 69951 333 55300 20000 69927 91018 91118
AAXX 04004 04361 464// 80726 11037 21065 39838 49890 57015 333 88/16 91129 91036
AAXX 04004 04390 07/// ///// 39724 52023 60041 7//87 333 69997 91139
AAXX 04004 60621 36/// /0409 10122 20018
BBXX 62087 04001 99547 10068 46/// /1108 10094 20047 4//// 5//// 22200 00078
AAXX 04004 60645 36/// /0000 10142 20008
AAXX 04004 60612 36/// /0108 10069 21020
AAXX 04004 60619 36/// /0404 10064 20006
AAXX 04004 65201 31935 63202 10254 20248 30084 40139 71022 80008 333 56000 59003 86280 91104
AAXX 04001 08501 32/// /3606 10132 20111 30289 40326 52014 333 91009 91110
AAXX 04001 08505 32470 79902 10154 20116 30232 40282 52011 878// 333 83813 85622
AAXX 04001 08509 11460 80102 10138 20133 30214 40278 52016 60021 78081 888// 333 83815 84818 86630
AAXX 04001 08512 11470 60603 10132 20128 30184 40270 52009 69931 70282 85840 333 82816 84640
AAXX 04001 08515 11260 81501 10145 20145 30148 40270 52002 60081 72086 888// 333 85705 85614 910// 911// 96010
AAXX 04001 08533 32/// /0305 10113 20073 30314 40344 52003 333 91008 91108
AAXX 04001 08541 32/// /0204 10089 20057 30232 40355 52004 333 91106
AAXX 04001 08545 31559 71201 10113 20080 30279 40364 52005 71022 875// 333 82627 84635 85642
AAXX 04001 08548 32/// /0601 10084 20063 30152 40363 52001
AAXX 04001 08554 NIL
AAXX 04001 08558 32/// /3503 10058 20051 30048 40353 52001
AAXX 04001 08560 32/// /3402 10062 20047 39593 40372 52004
AAXX 04001 08567 32/// /1301 10071 20063 39686 40368 52001
AAXX 04001 08570 32/// /2902 10064 20041 39887 40360 54000
AAXX 04001 08575 32/// /3001 10068 20056 39533 40364 52004
AAXX 04001 08579 NIL
BBXX 61002 04004 99421 10047 46/// /0000 10131 2//// 40282 57010 22200 00133 10603 70015
AAXX 04004 78922 46/// /1116 10263 20202 30120 40165 53015
AAXX 04001 33466 31356 82802 10024 20016 30014 40205 52001 71011 886// 333 88707
AAXX 04001 33562 31996 22303 11012 21025 39841 40214 57011 71000 82030
AAXX 04001 33902 31896 63102 10019 20008 30148 40215 52003 71022 86070
AAXX 04001 28676 429// 00000 11233 21257 30031 40170 57006 555 1/122
AAXX 04001 28766 419// 20801 11243 21265 39957 40165 57005 71011 80001 555 1/125
AAXX 04001 28867 42998 02502 11223 21262 39874 40167 57001 555 1/124
AAXX 04001 28879 425// 81902 11175 21196 39871 40178 58003 82507 555 1/120
AAXX 04001 28952 429// 00000 11240 21265 39970 40179 52003 555 1/125
AAXX 04001 28966 415// 61804 11170 21188 39880 40182 53003 70272 85501 555 1/120
AAXX 04001 29802 419// 01502 11217 21232 30053 40209 57005 71000 555 1/123
AAXX 04001 29807 429// 00000 11198 21224 30080 40208 57001 555 1/124
AAXX 04001 34691 42998 83201 11084 21112 30238 40225 58006 8802/ 555 1/107
AAXX 04001 35067 419// 01802 11183 21201 39891 40187 54000 70171 555 1/118
AAXX 04001 35078 426// 71902 11180 21205 39794 40199 54000 87500 555 1/119
AAXX 04001 35085 429// 82103 11148 21162 39694 40195 54000 85031 555 1/116
AAXX 04001 35108 425// 70000 11119 21143 30167 40215 52002 87500
AAXX 04001 35188 429// 51603 11157 21184 39751 40211 58002 85030 555 1/117
AAXX 04001 35217 424// 83001 11090 21097 30173 40214 52005 8802/ 555 1/110
AAXX 04001 35229 415// 82701 11088 21108 39926 40209 52006 77072 885// 555 1/109
AAXX 04001 35302 429// 30000 11164 21190 30197 40218 52004 80001 555 1/117
AAXX 04001 35357 415// 81806 11102 21130 39743 40193 53004 73632 885// 555 1/110
AAXX 04001 35394 42998 51102 11134 21177 39521 40232 52001 85030 555 1/119
AAXX 04001 35406 425// 70000 11074 21104 30222 40225 52009 87500 555 1/109
AAXX 04001 35416 41/// 90000 11059 21070 30092 40216 51007 74942 555 1/105
AAXX 04001 35426 429// 80000 11078 21092 39915 40218 52003 8801/ 555 1/108
AAXX 04001 35497 429// 00902 11129 21192 39402 40238 53002 555 1/116
AAXX 04001 35532 42498 80000 11078 21109 39708 40215 52002 8802/ 555 1/110
AAXX 04001 35671 41/93 90000 11102 21114 39766 40212 53001 74942 555 1/110
AAXX 04001 35700 42598 82402 11023 21048 30257 40233 52011 885// 555 1/103
AAXX 04001 35746 415// 82002 11080 21090 30149 40219 52004 70272 885// 555 1/107
AAXX 04001 35796 42997 40304 11144 21174 39791 40251 54000 80002 555 1/116
AAXX 04001 35849 42598 80000 11096 21117 30137 40226 52004 885// 555 1/108
AAXX 04001 35925 415// 80000 11083 21093 30129 40295 52012 71022 886// 555 1/107
AAXX 04001 35953 425// 82302 11080 21098 30083 40217 52002 885// 555 1/108
AAXX 04001 35969 425// 60000 11078 21106 30037 40217 54000 82530 555 1/109
AAXX 04001 36003 42998 21601 11214 21232 30050 40214 57003 80001 555 1/125
AAXX 04001 36152 429// 01402 11191 21237 30026 40228 57001 555 1/122
AAXX 04001 36177 429// 11202 11136 21177 39988 40247 57004 80001 555 1/121
AAXX 04001 36208 429// 00802 11146 21176 39252 40284 57002 555 1/122
AAXX 04001 36397 429// 01618 11090 21175 39658 40237 57007 333 91024 91124 555 1/110
AAXX 04001 36428 429// 00000 11283 21311 39771 40330 51003 333 95090 555 1/132
AAXX 04001 36535 429// 00000 11267 21285 39630 40332 58006 555 1/130
AAXX 04001 36639 429// 10000 11163 21192 39629 40272 57005 80001 555 1/119
AAXX 04001 36821 NIL
AAXX 04001 36859 429// 33501 11098 21119 39439 40253 54000 83040 333 91104 555 1/114
AAXX 04001 36864 429// 00000 11083 21097 39312 40237 57005 555 91105
AAXX 04001 36870 429// 81601 11017 21082 39191 40212 56001 86032 333 91102 555 1/108
AAXX 04001 38001 41497 83402 11035 21046 30279 40248 52008 70272 8872/ 555 1/102
AAXX 04001 38062 415// 83301 11048 21068 30041 40208 52002 72682 889// 555 1/105
AAXX 04001 38069 429// 70503 11028 21044 30002 40197 58001 87070
AAXX 04001 38196 42998 00000 11011 21026 39200 40187 57008
AAXX 04001 38198 419// 20000 11034 21038 39923 40187 57007 71010 82040 555 1/107
AAXX 04001 38222 42997 50000 11070 21099 39640 40217 58018 84041 555 1/108
AAXX 04001 38232 42998 71402 11044 21058 30140 40244 52003 87050 555 14105
AAXX 04001 38328 429// 01402 10008 21042 39444 40176 57008 555 1/103
AAXX 04001 38334 42997 01003 11002 21043 39214 40182 57009 555 1/105
AAXX 04001 38341 42997 51801 11030 21057 39397 40197 57010 85040 555 1/105 91107
AAXX 04001 38343 42997 03201 11067 21091 39346 40216 57010
AAXX 04001 38439 41996 60000 10002 21015 39829 40171 57007 71010 86070 555 14100
AAXX 04001 28676 429// 00000 11233 21257 30031 40170 57006 555 1/122
AAXX 04001 28766 419// 20801 11243 21265 39957 40165 57005 71011 80001 555 1/125
AAXX 04001 28867 42998 02502 11223 21262 39874 40167 57001 555 1/124
AAXX 04001 28879 425// 81902 11175 21196 39871 40178 58003 82507 555 1/120
AAXX 04001 28952 429// 00000 11240 21265 39970 40179 52003 555 1/125
AAXX 04001 28966 415// 61804 11170 21188 39880 40182 53003 70272 85501 555 1/120
AAXX 04001 29802 419// 01502 11217 21232 30053 40209 57005 71000 555 1/123
AAXX 04001 29807 429// 00000 11198 21224 30080 40208 57001 555 1/124
AAXX 04001 34691 42998 83201 11084 21112 30238 40225 58006 8802/ 555 1/107
AAXX 04001 35067 419// 01802 11183 21201 39891 40187 54000 70171 555 1/118
AAXX 04001 35078 426// 71902 11180 21205 39794 40199 54000 87500 555 1/119
AAXX 04001 35085 429// 82103 11148 21162 39694 40195 54000 85031 555 1/116
AAXX 04001 35108 425// 70000 11119 21143 30167 40215 52002 87500
AAXX 04001 35188 429// 51603 11157 21184 39751 40211 58002 85030 555 1/117
AAXX 04001 35217 424// 83001 11090 21097 30173 40214 52005 8802/ 555 1/110
AAXX 04001 35229 415// 82701 11088 21108 39926 40209 52006 77072 885// 555 1/109
AAXX 04001 35302 429// 30000 11164 21190 30197 40218 52004 80001 555 1/117
AAXX 04001 35357 415// 81806 11102 21130 39743 40193 53004 73632 885// 555 1/110
AAXX 04001 35394 42998 51102 11134 21177 39521 40232 52001 85030 555 1/119
AAXX 04001 35406 425// 70000 11074 21104 30222 40225 52009 87500 555 1/109
AAXX 04001 35416 41/// 90000 11059 21070 30092 40216 51007 74942 555 1/105
AAXX 04001 35426 429// 80000 11078 21092 39915 40218 52003 8801/ 555 1/108
AAXX 04001 35497 429// 00902 11129 21192 39402 40238 53002 555 1/116
AAXX 04001 35532 42498 80000 11078 21109 39708 40215 52002 8802/ 555 1/110
AAXX 04001 35671 41/93 90000 11102 21114 39766 40212 53001 74942 555 1/110
AAXX 04001 35700 42598 82402 11023 21048 30257 40233 52011 885// 555 1/103
AAXX 04001 35746 415// 82002 11080 21090 30149 40219 52004 70272 885// 555 1/107
AAXX 04001 35796 42997 40304 11144 21174 39791 40251 54000 80002 555 1/116
AAXX 04001 35849 42598 80000 11096 21117 30137 40226 52004 885// 555 1/108
AAXX 04001 35925 415// 80000 11083 21093 30129 40295 52012 71022 886// 555 1/107
AAXX 04001 35953 425// 82302 11080 21098 30083 40217 52002 885// 555 1/108
AAXX 04001 35969 425// 60000 11078 21106 30037 40217 54000 82530 555 1/109
AAXX 04001 36003 42998 21601 11214 21232 30050 40214 57003 80001 555 1/125
AAXX 04001 36152 429// 01402 11191 21237 30026 40228 57001 555 1/122
AAXX 04001 36177 429// 11202 11136 21177 39988 40247 57004 80001 555 1/121
AAXX 04001 36208 429// 00802 11146 21176 39252 40284 57002 555 1/122
AAXX 04001 36397 429// 01618 11090 21175 39658 40237 57007 333 91024 91124 555 1/110
AAXX 04001 36428 429// 00000 11283 21311 39771 40330 51003 333 95090 555 1/132
AAXX 04001 36535 429// 00000 11267 21285 39630 40332 58006 555 1/130
AAXX 04001 36639 429// 10000 11163 21192 39629 40272 57005 80001 555 1/119
AAXX 04001 36821 NIL
AAXX 04001 36859 429// 33501 11098 21119 39439 40253 54000 83040 333 91104 555 1/114
AAXX 04001 36864 429// 00000 11083 21097 39312 40237 57005 555 91105
AAXX 04001 36870 429// 81601 11017 21082 39191 40212 56001 86032 333 91102 555 1/108
AAXX 04001 38001 41497 83402 11035 21046 30279 40248 52008 70272 8872/ 555 1/102
AAXX 04001 38062 415// 83301 11048 21068 30041 40208 52002 72682 889// 555 1/105
AAXX 04001 38069 429// 70503 11028 21044 30002 40197 58001 87070
AAXX 04001 38196 42998 00000 11011 21026 39200 40187 57008
AAXX 04001 38198 419// 20000 11034 21038 39923 40187 57007 71010 82040 555 1/107
AAXX 04001 38222 42997 50000 11070 21099 39640 40217 58018 84041 555 1/108
AAXX 04001 38232 42998 71402 11044 21058 30140 40244 52003 87050 555 14105
AAXX 04001 38328 429// 01402 10008 21042 39444 40176 57008 555 1/103
AAXX 04001 38334 42997 01003 11002 21043 39214 40182 57009 555 1/105
AAXX 04001 38341 42997 51801 11030 21057 39397 40197 57010 85040 555 1/105 91107
AAXX 04001 38343 42997 03201 11067 21091 39346 40216 57010
AAXX 04001 38439 41996 60000 10002 21015 39829 40171 57007 71010 86070 555 14100
AAXX 04001 40703 12960 00000 11034 21079 38967 40273 58006 60001 333
AAXX 04001 40712 12960 02603 11067 21094 38717 40256 54000 60001 333
AAXX 04001 40729 12960 00000 11072 21103 38355 40250 51008 60001 333
AAXX 04001 40736 11457 82103 10040 20030 30287 40261 50007 60161 76166 8532/ 333 85715 81920 88556
AAXX 04001 40739 11665 52911 10006 21116 38632 40150 58008 69921 70176 82570 333 82635 85460
AAXX 04001 40743 11430 80702 10034 20029 39019 40148 57009 69901 71054 8472/ 333 84715 88458
AAXX 04001 40762 11540 80000 10001 20001 38492 40143 56010 60001 71044 8562/ 333 85725 88459
AAXX 04001 40768 12960 03004 11021 21062 38279 40236 52013 60001 333
AAXX 04001 40769 12960 03302 10004 21059 38306 40202 52018 60001 333
AAXX 04001 40785 12960 00000 10026 21029 39059 40161 54000 60001 333
AAXX 04001 40809 12962 01102 11032 21058 38459 40142 56006 60001 333
AAXX 04001 40821 11958 01302 10016 21023 38762 40165 54000 60001 70500 333
AAXX 04001 40831 12960 03003 10094 20064 30203 40211 54000 60001 333
AAXX 04004 48451 11508 50000 10225 20219 30123 40134 52016 60024 74122 82525 333 20220 58013 70015
AAXX 04001 44210 32999 00000 11283 21300 38563 56016 333 21291 555 31333
AAXX 04001 44216 32999 10000 11362 21384 39089 40551 57019 80001 333 21366 47004 555 31369
AAXX 04001 44217 32998 00000 11290 21313 37845 40514 58008 333 21292 46997 555 31366
AAXX 04001 44219 329// 00000 11317 21341 38665 40518 57006 333 21319 43005 555 31315
AAXX 04001 44221 329// 00000 11376 21399 38640 40584 57014 333 21383 47015 555 31413
AAXX 04001 44224 329// 00000 11318 21354 38068 40549 57011 333 21348 48015 555 31379
AAXX 04001 44229 32999 02303 11263 21294 37945 40489 57005 333 21267 47007 555 31313
AAXX 04001 44242 329// 00000 11294 21322 39372 40410 57006 333 21315 47014 555 31337
AAXX 04001 44243 329// 00202 11360 21400 39473 40445 56004 333 21363 47007 555 31371
AAXX 04001 44254 32998 22503 11245 21273 39060 40352 56007 81044 333 21255 47012 555 31284
AAXX 04001 44257 329// 12902 11319 21354 38998 40442 57007 81040 333 21320 48010 555 31340
AAXX 04001 44263 32998 00000 11274 21320 38072 40518 57008 333 21276 43014 555 31320
AAXX 04001 44266 329// 00000 11206 21295 37760 40406 57012 333 21212 45000 555 31290
AAXX 04001 44286 329// 01803 11222 21266 38658 40395 57015 333 21244 44009 555 31260
AAXX 04001 44291 319// 00000 11332 21367 38766 40506 58006 70400 333 21339 47010 555 31309
AAXX 04001 44325 NIL
AAXX 04001 44329 32998 00000 11158 21294 37779 40390 57009 333 21185 46003 555 31264
AAXX 04001 44338 32999 01602 11216 21248 38507 40428 57012 333 21250 47004 555 31308
AAXX 04001 44348 329// 03205 11187 21213 38730 40379 56009 333 21213 41000 555 31257
AAXX 04001 44374 32999 12303 11185 21266 38294 40452 56009 80001 333 21203 555 31235
AAXX 04001 44385 32999 02308 11154 21235 38983 40387 56007 333 21160 555 31203
AAXX 04001 44386 32999 02704 11198 21239 39116 40405 56010 333 21214 46001 55/// 555 31228
AAXX 04004 91353 32474 80506 10311 20253 30092 40099 5//// 83202 333 20250 561/9 58003 83819 84363 555 90400 91425 11474 60905 10294 20272 30108 40109 5//// 60054 70282 82206 333 20233 562/9 58002 70051 82819 84080 555 90400 91434 11474 81003 10278 20246 30136 40137 5//// 60034 70282 882// 333 20256 56299 58010 70030 88817 555 90400
AAXX 04001 30372 32999 80000 11296 21320 39371 40344 52007 82017 333 21310 47009 55013
AAXX 04001 30433 11999 83601 11165 21178 39650 40283 53016 69962 70272 86031 333 21169 47018 55000
AAXX 04001 30554 119// 80000 11259 21278 39126 40325 57002 69902 72272 8802/ 333 21330 47011 55004
AAXX 04001 30635 118// 21202 11184 21190 39667 40280 53007 60012 70171 82010 333 21190 47030
AAXX 04001 30673 32999 70000 11325 21331 39469 40341 53002 86025 333 21336 47009 55045
AAXX 04001 30692 31997 00202 11358 21375 39760 40332 54000 70400 333 21364 55059
AAXX 04001 30758 31917 80000 11295 21326 39426 40346 57007 70511 8807/ 333 21327 47008 55043
AAXX 04001 30802 32799 12701 11263 21268 38709 48480 57003 81500 333 21265 47003 55068
AAXX 04001 30823 32999 52701 11250 21274 39637 40341 57009 80001 333 21272 47018 55059
AAXX 04001 30879 32999 00000 11317 21341 39495 40358 57003 333 21317 47006 55059
AAXX 04001 30935 32999 00000 11328 21358 39350 40421 57009 333 21329 47013 55059
AAXX 04001 30949 32999 30000 11310 21328 39166 40404 57001 83040 333 21316 47003 55072
AAXX 04001 30965 32999 21202 11349 21365 39430 40381 57006 80002 333 21357 47006 55073
AAXX 04001 31168 32999 00000 11196 21237 30202 40214 53004 333 21217 47026 55035
AAXX 04001 31300 31993 00000 11278 21291 39953 40277 53004 74840 333 21293 47013
AAXX 04001 31329 32999 00000 11357 21386 39542 40310 53003 333 21366 55068
AAXX 04001 31369 11296 83504 11143 21163 30072 40162 53004 60030 78582 889// 333 21198 47060 86705 88911 91110 95080
AAXX 04001 31416 31998 83404 11207 21219 30108 40204 53008 77171 8802/ 333 21312 47016 55067
AAXX 04001 31484 32999 72701 11291 21309 39864 40241 57005 86079 333 21297 47021
AAXX 04001 31512 319// 02901 11210 21235 30080 40262 53004 71000 333 21270 47///
AAXX 04001 31538 32999 00000 11343 21365 39768 40262 53002 333 21357 47023
AAXX 04001 31707 32999 03205 11214 21254 30122 40221 53003 333 21220 47003
AAXX 04001 31735 31995 50000 11287 21323 30096 40196 58001 71011 83031 333 21309 47024
AAXX 04001 31770 11596 83408 11128 21163 30034 40066 57001 69930 78587 889// 333 21137 48025 55053 91110
AAXX 04004 48307 31956 20000 10180 20170 39755 40144 51013 71000 80005 333 20178 59001
AAXX 04004 61902 11480 71413 10233 20193 40147 69901 72582 878// 333 59008 82816 87645
AAXX 04003 87007 32267 60713 10137 21010 36746 47151 53016 81668 333 10215 20097 56066 81705 85270
AAXX 04003 87047 32568 83602 10244 20180 38786 48508 52019 82577 333 10294 20208 56106 82620 83360 88270
AAXX 04003 87148 32970 01402 10286 20160 39977 40083 53011 333 10360 20264
AAXX 04004 87022 32960 00000 10254 20199 39579 40072 53017 333 10340 20254
AAXX 04004 87046 32565 60000 10270 20162 39090 48490 52017 82160 333 10338 20245 56000 82825 85360
AAXX 04004 87097 32960 02306 10274 20129 39786 40093 52008 333 10330 20230
AAXX 04004 87121 32665 51804 10300 20210 39577 40071 52019 83530 40071 52019 83530 333 10363 20254 56770 83640
AAXX 04004 87129 32965 60903 10320 20159 39858 40081 53020 80006 333 10393 20262
AAXX 04004 87155 31962 01105 10272 20164 30041 40100 52015 70400 333 10352 20268
AAXX 04004 87162 32970 01604 10267 20165 30026 40094 52015 333 10360 20267
AAXX 04004 87166 32960 01405 10269 20162 30029 40100 52015 70400 333 10346 20269
AAXX 04004 87178 NIL
AAXX 04004 87217 32970 30910 10356 20178 39564 40029 53018 80005 333 10415 20280 56006 83270
AAXX 04004 87222 32970 70214 10329 20121 39548 40043 53025 81077 333 10400 20299 56099 81359 87270
AAXX 04004 87257 NIL
AAXX 04004 87270 31958 00000 10291 20194 30044 40104 53009 70400 333 10356 20272
AAXX 04004 87289 NIL
AAXX 04004 87311 31665 62307 10340 20131 39385 40026 52015 71322 85970 333 10402 20296 56660 57961 85645 81950
AAXX 04004 87320 32970 40904 10336 20125 39556 40062 52017 84070 333 10395 20270 56070 84360
AAXX 04004 87328 32980 10515 10307 20053 39437 40058 53009 80005 333 10373 20285 56006 81270 95000
AAXX 04004 81225 12970 20405 10252 20226 40133 60001 80002 333 10310 56009 58003 79999 82080
AAXX 04004 81200 12970 20906 10264 20226 40130 60001 80002 333 56009 58002 70000 82080
AAXX 04004 81202 12970 21211 10266 20234 40130 60001 81042 333 10292 56029 58000 70000 81360
AAXX 04004 81209 NIL
AAXX 04004 81251 NIL
AAXX 04001 38598 NIL
AAXX 04001 38599 NIL
AAXX 04001 38725 NIL
AAXX 04001 38734 NIL
AAXX 04001 38744 NIL
AAXX 04001 38836 NIL
AAXX 04001 38838 NIL
AAXX 04001 38844 NIL
AAXX 04001 38846 NIL
AAXX 04001 38847 429// 73402 10058 21012 40127 57021 80005
AAXX 04001 38932 NIL
AAXX 04001 38933 NIL
AAXX 04001 38944 426// 83602 10039 20024 39542 40078 57005 885//
AAXX 04001 38954 NIL
AAXX 04001 22271 42598 71003 11197 21230 30125 40136 57024 82539
AAXX 04001 22520 41496 81303 11034 21048 30028 40038 57019 77173 8802/ 333 88511
AAXX 04001 22550 41460 81602 11064 21092 30071 40082 57021 77172 8802/ 333 88516
AAXX 04001 22583 41578 71401 11085 21096 30044 40128 56011 70277 875// 333 87628
AAXX 04001 22768 41497 81001 11066 21074 30044 40101 57014 77072 8557/ 333 85615
AAXX 04001 22845 41395 81401 11043 21052 39910 40069 57017 77377 8672/ 333 86708
AAXX 04001 22887 41497 80000 11088 21099 30052 40125 57017 77172 8472/ 333 91101
AAXX 04001 23205 41295 81202 11224 21256 30154 40170 57022 77372 8772/ 333 87704 91104
AAXX 04001 23219 41997 80000 11154 21167 30107 40220 57016 77172 8802/
AAXX 04001 23418 41550 81202 11140 21160 30118 40197 57010 77172 8552/ 333 85625
AAXX 04001 23606 42360 81202 11121 21134 39994 40176 57009 886// 333 88709
AAXX 04001 23711 41597 80000 11149 21169 30005 40190 57009 78587 83921
AAXX 04001 23804 42397 80000 11103 21116 30008 40164 57009 886// 333 88707
AAXX 04001 27037 41395 81302 11036 21041 39908 40072 57017 77372 8872/ 333 86708
AAXX 04001 27199 41598 81502 11096 21108 39957 40163 57010 77172 885//
AAXX 04001 27271 41294 81003 11053 21056 39964 40123 57017 75675 886// 333 93400
AAXX 04001 27459 41296 81803 11039 21041 39915 40114 57019 77172 8872/ 333 88706
AAXX 04001 27730 41397 82202 11027 21034 39900 40098 57008 77172 8872/ 333 88508
AAXX 04001 20107 41597 71103 10004 21050 39932 40026 52005 70232 85530 333 91006 91116
AAXX 04001 22003 NIL
AAXX 04001 22004 NIL
AAXX 04001 22100 NIL
AAXX 04001 22140 NIL
AAXX 04001 22113 41484 71304 11111 21147 30022 40088 57015 70281 86930 333 91007
AAXX 04001 22212 41432 80000 11093 21109 39904 40074 58010 78682 889// 333 86919 91001
AAXX 04001 22213 NIL
AAXX 04001 22217 41460 80302 11066 21086 30023 40055 58012 78582 889// 333 85918 91004
AAXX 04001 22235 42580 81103 11124 21144 39900 40105 57017 885// 333 91004
AAXX 04001 22249 41482 71002 11125 21145 39918 40115 57024 78582 87900 333 91003
AAXX 04001 22312 41456 81004 11055 21066 30033 40055 57013 78583 889// 333 91008 91110
AAXX 04001 22334 41497 80706 11077 21099 30065 40072 57016 78583 889// 333 91008 91111
AAXX 04001 22349 NIL
AAXX 04001 22408 41384 81302 11054 21064 39879 40032 57010 70272 886// 333 88709
AAXX 04001 22602 NIL
AAXX 04001 22619 41383 81702 11041 21057 39870 40033 57013 70272 886// 333 88707
AAXX 04001 22721 41597 80000 11044 21050 39940 40043 57009 70272 885// 333 88622
AAXX 04001 22802 41516 80000 10001 20001 30002 40025 58011 71082 885//
AAXX 04001 22820 42384 82001 11046 21052 39901 40042 57012 885// 333 88608
AAXX 04001 26059 41496 81702 10013 20008 30005 40030 58017 71022 886// 333 88710
AAXX 04001 26063 41297 81701 10007 21001 30028 40036 57010 70272 886// 333 88705
AAXX 04001 26094 41370 81802 11026 21029 39978 40055 57003 70272 886// 333 88708
AAXX 04001 26157 42597 71704 10012 20007 39977 40023 57023 87500 333 87632
AAXX 04001 26167 41256 81801 10003 20000 39938 40051 57013 71072 886// 333 88706
AAXX 04001 26258 42598 81703 10006 21002 39991 40047 57026 8653/
AAXX 04001 26298 41395 82501 11032 21033 39844 40079 57001 71072 886//
AAXX 04001 26359 42576 71803 10001 21008 39933 40069 57021 875//
AAXX 04001 26702 41496 82603 10045 20030 39950 49976 57036 78086 889// 333 91009 91110
AAXX 04001 26781 41596 72402 10003 21005 39821 40116 54000 71022 87500 333 87626
AAXX 04001 27208 41596 72501 11056 21060 39894 40076 53002 71071 87500
AAXX 04001 27402 41497 72601 11036 21044 39906 40090 51005 70172 87500 333 87618
AAXX 04001 26997 41448 82902 10014 20006 39930 40151 52012 71022 886// 333 88711
AAXX 04001 27595 41994 61501 11117 21128 30032 40185 57009 74842 8601/ 333 93504
AAXX 04001 27612 414// 82001 11028 21038 39890 40087 53002 77172 8872/
AAXX 04001 27707 41549 72702 10000 21006 39823 40119 52013 71072 87500 333 87626
AAXX 04001 27719 41496 82602 11023 21029 39854 40109 53003 77177 8872/
AAXX 04001 27786 41597 21602 11155 21168 30025 40199 57007 72841 82500
AAXX 04001 27857 41996 81704 11058 21073 39963 40131 57029 77172 8802/
AAXX 04001 27906 41496 82605 10006 21002 39887 40131 52013 71072 883//
AAXX 04001 27928 41394 82502 11005 21008 39903 40112 56006 77373 8872/ 333 92982
AAXX 04001 27947 41395 81605 11038 21053 39967 40130 57027 77373 8872/ 333 88708 92982
AAXX 04001 27962 42497 81706 11060 21079 39953 40179 57013 885// 333 88610
AAXX 04001 27983 42468 80000 11145 21158 30073 40211 56003 886// 333 88714
AAXX 04001 27995 42970 00000 11174 21180 40216 52001
AAXX 04001 28506 41997 80000 11079 21090 30071 40188 57004 70272 8807/
AAXX 04001 28704 41497 82302 11083 21091 30096 40196 57003 77172 8802/ 333 88512
AAXX 04001 28711 41497 82502 11093 21099 39804 40196 54001 77172 885// 333 88610
AAXX 04001 28807 41697 60000 11120 21133 30157 40211 57003 77172 86500 333 86633
AAXX 04001 34009 41295 82903 10004 21002 39836 40145 53016 71082 886//
AAXX 04001 34110 41497 83106 10006 20001 39856 40137 53004 70272 886// 333 88715 93401
AAXX 04001 34123 41496 82201 11014 21019 39938 40125 57016 77172 8872/ 333 88510
AAXX 04001 34152 41230 81603 11061 21065 39975 40179 57027 77372 8872/ 333 86703
AAXX 04001 34163 42498 81904 11058 21073 40200 57010 885// 333 88620
AAXX 04001 34171 42460 81804 11055 21089 30002 40202 57006 885// 333 88617
AAXX 04001 34186 41/05 90101 11105 21118 30074 40220 53002 74942
AAXX 04001 34247 41858 82104 11019 21025 30042 40159 57031 77172 8802/
AAXX 04001 34336 41495 81902 11015 21015 30058 40164 57029 78682 8632/
AAXX 04001 34391 42997 82902 11124 21137 30190 40223 53004 8802/
AAXX 04001 35011 42956 00000 11200 21226 30055 40222 53006 71000
AAXX 04001 35121 41598 80000 11106 21126 30054 40208 52003 77872 86510 333 86628
AAXX 04001 22028 41981 11808 11118 21153 30073 40113 57020 70230 81040 333 91010 91117
AAXX 04001 22106 41596 80602 11090 21115 39985 40067 57013 78582 889// 333 86920 91005 91110
AAXX 04001 22127 41496 81004 11124 21144 39887 40099 57019 78583 889// 333 86914 91006
AAXX 04001 22324 41568 80903 11084 21099 30017 40069 57016 78582 889// 333 91007
AAXX 04001 22621 41370 81302 11051 21058 39903 40045 57014 70272 886// 333 88708
AAXX 04001 22831 41996 81001 11049 21055 39994 40055 57011 77172 8802/
AAXX 04001 22892 41997 81503 10010 20005 39996 40012 57013 70272 8807/
AAXX 04001 26275 42698 81801 10004 21002 30035 40066 58008 885// 333 88640
AAXX 04001 26389 41496 82302 11009 21019 39812 40078 57002 71022 886//
AAXX 04001 26499 41297 82502 11024 21030 39859 40092 53004 70272 886// 333 88705
AAXX 04001 26695 41396 82804 10002 21006 39806 40117 52009 71072 886// 333 88709
AAXX 04001 26882 42575 72505 10008 20000 39854 40132 52004 82530
BBXX C6YA5 04004 99336 50721 41498 91816 10166 2//// 40090 54000 70200 867// 222// 00160 2//// 399// 4//// 5//// 6//// 8//// ICE /////
BBXX PHEO 04004 99443 50734 41998 02413 10190 40170 54000 70222 80000 22284 00200 2//// 3//// 4//// 5////
BBXX VRHO2 04004 99493 11562 41/// /0952 10010 20010 49940 54000 74774 8//// 22212 00000 20512 30908 40613 50715 61/// 80010 ICE /////
BBXX A8TG2 04003 99251 71335 412// 20809 10200 20130 40220 55020 7//11 8/6/8 22263 00170 21202 32828 41207 51508 80160
BBXX WZZF 04004 99382 31494 41397 82441 10210 20195 40124 52020 71022 882// 22254 00230 20607 324// 40607 5//// 6//// 80200 ICE /////
BBXX V7HC6 04004 99273 70907 41798 20408 10130 20073 40312 56003 70200 8219/ 22200 00227 20301 335// 40702 5//// 6//// 80100 ICE /////
AAXX 04001 08579 32/// /2401 10120 20070 30228 40356 52001
AAXX 04004 91353 32474 80506 10311 20253 30092 40099 5//// 83202 333 20250 561/9 58003 83819 84363 555 90400 91425 11474 60905 10294 20272 30108 40109 5//// 60054 70282 82206 333 20233 562/9 58002 70051 82819 84080 555 90400 91434 11474 81003 10278 20246 30136 40137 5//// 60034 70282 882// 333 20256 56299 58010 70030 88817 555 90400
AAXX 04001 40716 12960 00000 11028 21078 38951 40251 53008 60001 333
AAXX 04001 40719 11956 00000 10028 20006 30282 40271 58006 69921 71061 333
AAXX 04001 40721 11420 82707 11010 21017 39680 40244 52042 60041 77376 8662/ 333 86710 88557
AAXX 04001 40858 12960 00106 10156 20090 30168 40179 58002 60001 333
AAXX 04001 40872 11957 03212 10150 20058 30151 40156 53003 60001 70700 222// 00/// 20302 333
AAXX 04001 40877 12960 02805 10158 20130 39547 40078 58002 60001 333
AAXX 04001 40898 12960 03102 10200 20164 30100 40109 57010 60001 222// 00232 10400 333
AAXX 04001 08521 32470 70304 10176 20107 30248 40319 52002 87800 333 83816 85630
AAXX 04001 08524 32465 70905 10172 20087 30223 40322 52003 87800 333 83815 86630 91008 91108
AAXX 04004 70133 32866 20504 11367 30112 40117 58008 92353 333 11328 21372 555 90400
AAXX 04004 70174 31966 00000 11433 39842 40115 56012 92353 333 11383 21439 4/074 555 90400
AAXX 04004 70200 32666 20000 11361 30090 40095 92353 333 11350 21378 555 90400
AAXX 04004 70219 31061 23506 11339 21372 30033 40093 56018 92353 333 11333 21356 555 90400
AAXX 04004 70231 32966 00000 11433 39962 40106 58014 92353 333 11428 21467 4/097 555 90400
AAXX 04004 70261 31216 60000 11378 39898 40090 58008 710// 92353 333 11378 21417 555 90400
AAXX 04004 70267 32766 42703 11311 21344 39557 40100 58001 92353 333 11311 21389 555 90400
AAXX 04004 70271 32566 40000 11233 21256 39383 40007 56022 92353 333 11189 21233 4/018 555 90400
AAXX 04004 70273 32166 60000 11167 21189 39912 49973 56027 92353 333 11161 21233 4/069 555 90400
AAXX 04004 70316 12566 63510 11128 21167 30016 40051 56021 69901 92353 333 11100 21128 555 90400
AAXX 04004 70326 32566 63507 11256 21289 30011 40025 56015 92354 333 11228 21272 4/008 555 90400
AAXX 04004 70340 32966 03509 11233 21283 39955 40022 58017 92353 333 11206 21239 555 90400
AAXX 04004 70350 12466 82817 11056 21100 39892 49934 56015 69901 92353 333 11039 21067 4/003 91024 555 90400
AAXX 04004 70361 32866 60000 11050 21067 39830 49842 56028 92353 333 11028 21089 555 90400
AAXX 04004 70381 12162 82507 11011 21028 39892 49901 55002 69981 92353 333 11006 21039 4/008 555 90400
AAXX 04004 70414 35566 43114 11044 21106 30069 40107 58015 92356 333 11039 21056 555 90400
BBXX SBLI 04001 99237 11180 43/97 80515 10110 40253 53012 22254 00150 2//// 4////
BBXX HZGN 04003 99071 10782 41697 43213 10270 20245 40126 54000 70011 844// 22274 02266 20501 332// 40902 5//// 80252
BBXX VRHO2 04004 99493 11562 41/// /0952 10010 20010 49940 54000 74774 8//// 22212 00000 20512 30908 40613 50715 61/// 80010 ICE /////
BBXX KAOU 04004 99070 10968 43/// /1214 10274 20240 40096 5//// 7//// 8//// 222// 04286 2//// 3//// 4//// 5//// 6//// 8//// ICE /////
BBXX TBWUK03 04003 99204 50401 41298 81911 10212 20203 40131 53012 70222 84710 22200 20401 318// 40703 5//// 80206
BBXX A8DE3 04003 99480 50654 41/99 70117 10140 20105 40130 54000 7//22 82541 22283 29901 302// 40601 80120
BBXX C6YA5 04004 99336 50721 41498 91816 10166 2//// 40090 54000 70200 867// 222// 00160 2//// 399// 4//// 5//// 6//// 8//// ICE /////
BBXX PHEO 04004 99443 50734 41998 02413 10190 40170 54000 70222 80000 22284 00200 2//// 3//// 4//// 5////
BBXX DAJT 04004 99246 50451 41598 40408 10235 20199 40070 52010 70300 8/4// 22264 04230 80210
BBXX WZP8164 04004 99449 70868 41/98 31837 11022 2//// 40169 55000 70211 8//// 22253 0//// 20504 3//// 4//// 5//// 6//// 8//// ICE /////
BBXX WDE3569 04004 99475 70876 43/// 52026 11055 2//// 40095 5//// 7//// 8//// 22263 00050 20403 3//// 4//// 5//// 6//// 8//// ICE /////
BBXX 46001 04001 99563 71480 46/// /0312 10030 49829 56019 92350 22200 00041 11108 20907 300// 41104 70039 333 91214 555 11128 22136 32300 40416 62349 032120 033124 035125 039122 040129 042128
BBXX 42363 04001 99282 70892 46/// /0307 10117 21006 40315 58007 90000 333 91207
BBXX 42364 04001 99291 70881 46/// /3413 10100 21006 40319 54000 90000
BBXX 41041 04001 99142 70460 46/// /0809 10249 20203 40177 51017 92350 22200 00262 11106 20705 3//// 41104 70032 333 91212 555 11101 22107 32313 40814 62349 079095 083096 085107 083117 070110 064107 80813 92312
BBXX 42362 04001 99278 70907 46/// /0405 10128 20017 40322 56003 90000
BBXX SMGW 04001 99165 71002 43/98 22503 10287 40150 53006 22234 00292 20201 40402
BBXX SLCO 04004 99110 31573 43/97 71615 10283 40091 50000 22274 00286 20302 41004
BBXX WZZF 04004 99382 31494 41397 82441 10210 20195 40124 52020 71022 882// 22254 00230 20607 324// 40607 5//// 6//// 80200 ICE /////
BBXX YJYY2 04004 99107 31498 41497 61427 10280 20244 40108 52111 70366 83274 22222 20301 80255
BBXX VRRC 04004 99136 31545 41398 31312 10290 20220 40103 51001 70200 83100 22243 20303 315// 40404 80240
BBXX SHIP 04004 99103 31055 41/97 30911 10285 20278 40037 70222 222// 0//// 20201 329// 40102 5////
BBXX VNSZ 04004 99412 31464 46/// /2421 10185 20063 30090 40116 52044 22200 04205 85119
BBXX VRAE3 04004 99165 31597 41797 31719 10290 20221 40092 51005 70102 83125 22234 00290 20302 31719 40605 5//// 80243
BBXX SHIP 04004 99103 31518 41298 61612 10290 20263 40106 56010 70222 8573/ 22235 00270 20301 319// 40502 80270
BBXX ZCGY8 04004 99209 31149 419// 02015 10262 20252 40130 5/013 70000 80000 22200 00280 20401 322// 40804 80255
BBXX VROC 04004 99390 31471 41297 72235 10180 20127 40152 56006 70398 877// 22223 04260 20502 322// 40906 80150
BBXX C6UA2 04004 99304 31560 41498 23609 10240 20180 40160 54000 7//00 8//8/ 22254 00260 22503 318// 43002 5//// 6//// 80200 ICE /////
BBXX 44255 04001 99473 70573 46/// /2008 10032 40045 52014 22200 00033 10904 70022 333 91209
BBXX A8CN9 04000 99544 71716 41497 62103 11010 21038 49990 58/// 70271 84460 22264 20705 32424 40705 50704 81020
BBXX 9HXD9 04004 99223 70849 41698 50225 10200 20153 40230 54/// 7//22 858// 22253 00250 20407 301// 4//// 5//// 6//// 80170 ICE /////
BBXX 44150 04001 99425 70640 46/// /3505 10045 40064 52020 22200 00095 10904 70021 333 91207
BBXX 44139 04001 99442 70571 46/// /1005 10060 40052 57011 22200 00052 11005 70025 333 91206
BBXX 41038 04001 99341 70777 46/// /3008 10054 40236 53037 90000 22200 00128
BBXX MMER9 04004 99287 70938 41597 41309 10125 20059 40310 56023 7//00 8387/ 22200 20402 313// 40402 80094
BBXX WECH 04004 99316 71691 41598 79902 10165 2//// 40235 57020 70222 8717/ 22215 00211 20201 332// 41207 5//// 6//// ICE /////
BBXX 9HJB9 04004 99124 70700 41898 40818 10265 20244 40150 51010 70200 84185 22232 04266 20201 3//// 4//// 5//// 6//// 80250 ICE /////
BBXX PHCQ 04003 99249 70842 41/98 61107 10149 20107 40266 54000 70322 8//// 22254 00260 2//// 3//// 4//// 5//// 80125
BBXX A8EY7 04003 99410 71504 41598 53024 10082 20010 49990 52020 70711 85400 22224 04118 20609 325// 40909 5//// 80050
BBXX WDE5381 04004 99165 70793 41/// /3630 10256 2024/ 40100 5//// 750// 8//// 22273 0//// 2//// 3//// 4//// 5//// 6//// 80244 ICE /////
BBXX A8TG2 04003 99251 71335 412// 20809 10200 20130 40220 55020 7//11 8/6/8 22263 00170 21202 32828 41207 51508 80160
BBXX DANR 04003 99552 71558 41297 83334 11040 49930 50020 77372 886// 22254 20510
BBXX WABS 04004 99446 71257 41598 81832 10111 2009/ 40205 53005 7//22 88/1/ 22243 0//// 20209 317// 40611 5//// 6//// 80100 ICE /////
BBXX C6VQ8 04004 99256 70800 41/99 03415 10100 2//// 40250 51020 70200 80000 22243 00240 20304 30206 40708 50506 6//// 8//// ICE /////
BBXX ELWR5 04000 99102 70789 41498 50412 10267 40135 52010 70011 8444/ 22214 04271 20505 30000 80026
BBXX VCXF 04004 99464 70484 41/90 91943 10079 2008/ 40062 52004 74565 89/// 22200 02027 20607 320// 40805 80079
BBXX 44060 04001 99413 70721 46/// ///09 11052 40160 53038 90000 22200 00086 333 91211 555 11098 22098
BBXX 44022 04001 99409 70737 46/// ///09 11047 21144 40190 53041 90000 22200 00063 333 91214 555 11093 22098
BBXX 46053 04001 99342 71198 46/// /2405 10143 40215 56004 92350 22200 00149 11605 20401 327// 41605 70024 333 91206 555 11047 22049 32309 42506 62349 244045 245044 248045 246047 243048 241042
BBXX 46042 04001 99368 71224 46/// /3408 10123 40242 56009 92350 22200 00125 11507 20502 330// 41506 70034 333 91210 555 11089 22094 32329 43411 62349 343082 342082 340084 334082 334080 336077
BBXX 44039 04001 99411 70727 46/// /3211 11048 21111 40179 53035 90000 22200 00082 10402 70010 333 91215
BBXX C6VG7 04004 99199 70740 414// 63628 10240 2//// 40180 5/010 7//11 86/7/ 22254 0//// 20502 3//// 40502 50502 6//// 8//// ICE /////
BBXX C6XP7 04003 99180 70633 41398 41112 10260 20246 40170 52/// 7//10 8210/ 22262 00260 20202 328// 4//// 5//// 6//// 80250 ICE
BBXX WXJ63 04003 99611 71464 41/98 70808 11067 21117 49913 56/// 702// 8//// 222// 00044 2//// 3//// 4//// 5//// 6//// 8//// ICE /////
BBXX NWS0003 04004 99539 71665 43/// /3600 11023 21085 40020 5//// 7//// 8//// 222// 0//// 2//// 3//// 4//// 5//// 6//// 8//// ICE /////
BBXX NWS0029 04004 99415 70707 43/// /3514 11039 21147 40134 5//// 7//// 8//// 222// 04065 2//// 3//// 4//// 5//// 6//// 8//// ICE /////
BBXX NWS0020 04004 99261 70801 43/// /3504 10097 21094 40278 5//// 7//// 8//// 222// 04203 2//// 3//// 4//// 5//// 6//// 8//// ICE /////
BBXX 62087 04001 99547 10068 46/// /1108 10094 20047 4//// 5//// 22200 00078
BBXX SKUN 04003 99468 70177 43/98 63105 10100 40335 53032 22253 00117 2//// 4////
BBXX 62023 04003 99514 70079 46/96 /2823 10091 2//// 40195 5//// 22200 10709 70045 333 91136 555 70070 80007
BBXX DCPP2 04004 99328 10278 41697 10309 10153 20094 40242 56013 70200 81200 22265 20401 326// 40401 5//// 80120
BBXX LDGJ 04001 99603 10053 43/// /3206 10040 20014 49700 5//// 222/0 04085 1//// 3//// 4//// 5////
BBXX LF4H 04004 99596 10022 46/// /3426 10049 20031 49778 52080 8//// 22200 06081 10710 70050 333 91146
BBXX LAHV 04001 99589 10057 43/// /3216 10057 20032 49692 222// 04085 1////
BBXX LMEL 04001 99603 10053 43/// /3408 10032 20028 49695 5//// 222/0 04083 1//// 3//// 4//// 5////
BBXX TFSTD 04004 99664 70234 46/// ///// 22200 10807 70036
BBXX TFSRT 04004 99633 70203 46/// ///// 22200 10806 70028
BBXX TFKGR 04004 99657 70136 46/// ///// 22200 10604 70021
BBXX TFBKF 04004 99635 70202 46/// ///// 22200 10703 70014
BBXX TFDRN 04004 99658 70212 46/// ///// 22200 10907 70034
BBXX TFGSK 04004 99641 70229 46/// ///// 22200 10704 70018
BBXX TFGRV 04004 99638 70225 46/// ///// 22200 10804 70019
BBXX TFHFN 04004 99642 70152 46/// ///// 22200 10804 70018
BBXX TFGRS 04004 99663 70182 46/// ///// 22200 10707 70034
BBXX DGOQ 04004 99544 10113 41/96 /2441 10053 20023 49930 54000 75355 22200 04054 80041
BBXX TBWUK38 04004 99080 30069 41392 42008 10250 20220 40124 53005 70122 8/131 22244 20202 302// 40101 5//// 80230
BBXX SERW 04003 99169 70285 43/97 /0215 10222 2//// 40188 50007 700// 8//// 22262 06232 2//// 3//// 4////
BBXX SHJC 04001 99234 10375 43/98 03412 10224 40154 58009 22273 00245 2//// 4////
BBXX DFVY2 04004 99080 70320 41/97 70525 10260 20210 40130 51025 70322 22214 00250 80225
BBXX UCKZ 04001 99663 30756 41196 80610 11005 21012 49780 5//// 71022 886// 222// 01007 2//// ICE 37292
BBXX PDZS 04003 99632 50589 41497 62505 10013 21015 49940 54000 70122 84550 22261 02005 20201 399// 40601 5//// 80002 ICE 0/7/0
BBXX SHIP 04004 99603 31130 41698 82420 11001 21045 49963 52005 70222 885// 22213 00011 12206 20501 32332 40703 51003 6/000 86017 ICE 0/2/0
BBXX 41052 04001 99183 70648 46/// /1105 10269 40161 52016 90000 22200 00269 333 91206
AAXX 04001 40701 12960 00000 11054 21122 38623 40269 50006 60001 333
AAXX 04001 40704 12970 02703 11098 21127 38637 40285 58004 60001 333
AAXX 04001 40708 12960 00000 11114 21115 38682 40275 56005 60001 333
AAXX 04001 40710 12668 23303 11080 21119 38336 40266 51006 60001 82500 333 82635
AAXX 04001 40713 12960 01202 11060 21123 38701 40282 52015 60001 333
AAXX 04001 40719 11956 00000 10028 20006 30282 40271 58006 69921 71061 333
AAXX 04001 40731 12960 40000 11040 21069 38746 40229 52016 60001 85070 333 85460
AAXX 04001 40738 11350 80000 10000 20000 30080 40082 51035 60111 77176 8572/ 333 85710 88556
AAXX 04001 40740 11540 81204 10006 20004 38667 40125 56008 60041 77077 8672/ 333 86720 88558
AAXX 04001 40747 12960 00000 11020 21034 38657 40227 53009 60001 333
AAXX 04001 40757 12660 70306 10024 21060 38863 40155 53007 60001 82570 333 82635 86360
AAXX 04001 40763 11550 80000 10042 20033 38865 40136 56006 60001 71022 8372/ 333 83725 88459
AAXX 04001 40782 12962 01302 11014 21030 38900 40226 51007 60001 333
AAXX 04001 40783 12962 00702 11044 21075 37984 40205 53009 60001 333
AAXX 04001 40789 11658 52603 10082 20012 39170 40139 53003 69901 76000 82520 333 82640 85560
AAXX 04001 40798 12960 00000 11073 21131 37948 40206 53002 60001 333
AAXX 04001 40818 NIL
AAXX 04001 40827 11560 63307 10078 21009 38792 40138 54000 69901 70122 84370 333 81930 83635 85359
AAXX 04001 40836 12960 00000 11016 21053 38183 40186 50001 60001 333
AAXX 04001 40851 12960 10000 10040 21026 38233 40109 54000 60001 80001 333 81070
AAXX 04001 40853 12960 03303 10024 21052 37720 40117 56004 60001 333
AAXX 04001 40854 12960 02902 10064 21030 38913 40110 58002 60001 333
AAXX 04001 40857 12960 03407 10156 20090 30172 40182 57001 60001 222// 00/// 20403 333
AAXX 04001 40859 NIL
AAXX 04001 40878 12965 00000 10063 20014 38797 40116 56007 60001 333
AAXX 04001 40879 12960 20000 10114 21028 39453 40126 58002 60001 80002 333 82070
AAXX 04001 40883 11950 03203 10180 20130 30100 40123 56007 60001 70500 333
AAXX 04001 40898 12960 03102 10200 20164 30100 40109 57010 60001 222// 00232 10400 333
AAXX 04001 40701 12960 00000 11054 21122 38623 40269 50006 60001 333
AAXX 04001 40704 12970 02703 11098 21127 38637 40285 58004 60001 333
AAXX 04001 40708 12960 00000 11114 21115 38682 40275 56005 60001 333
AAXX 04001 40710 12668 23303 11080 21119 38336 40266 51006 60001 82500 333 82635
AAXX 04001 40713 12960 01202 11060 21123 38701 40282 52015 60001 333
AAXX 04001 40719 11956 00000 10028 20006 30282 40271 58006 69921 71061 333
AAXX 04001 40731 12960 40000 11040 21069 38746 40229 52016 60001 85070 333 85460
AAXX 04001 40738 11350 80000 10000 20000 30080 40082 51035 60111 77176 8572/ 333 85710 88556
AAXX 04001 40740 11540 81204 10006 20004 38667 40125 56008 60041 77077 8672/ 333 86720 88558
AAXX 04001 40747 12960 00000 11020 21034 38657 40227 53009 60001 333
AAXX 04001 40757 12660 70306 10024 21060 38863 40155 53007 60001 82570 333 82635 86360
AAXX 04001 40763 11550 80000 10042 20033 38865 40136 56006 60001 71022 8372/ 333 83725 88459
AAXX 04001 40782 12962 01302 11014 21030 38900 40226 51007 60001 333
AAXX 04001 40783 12962 00702 11044 21075 37984 40205 53009 60001 333
AAXX 04001 40789 11658 52603 10082 20012 39170 40139 53003 69901 76000 82520 333 82640 85560
AAXX 04001 40798 12960 00000 11073 21131 37948 40206 53002 60001 333
AAXX 04001 40818 NIL
AAXX 04001 40827 11560 63307 10078 21009 38792 40138 54000 69901 70122 84370 333 81930 83635 85359
AAXX 04001 40836 12960 00000 11016 21053 38183 40186 50001 60001 333
AAXX 04001 40851 12960 10000 10040 21026 38233 40109 54000 60001 80001 333 81070
AAXX 04001 40853 12960 03303 10024 21052 37720 40117 56004 60001 333
AAXX 04001 40854 12960 02902 10064 21030 38913 40110 58002 60001 333
AAXX 04001 40857 12960 03407 10156 20090 30172 40182 57001 60001 222// 00/// 20403 333
AAXX 04001 40859 NIL
AAXX 04001 40878 12965 00000 10063 20014 38797 40116 56007 60001 333
AAXX 04001 40879 12960 20000 10114 21028 39453 40126 58002 60001 80002 333 82070
AAXX 04001 40883 11950 03203 10180 20130 30100 40123 56007 60001 70500 333
AAXX 04001 40898 12960 03102 10200 20164 30100 40109 57010 60001 222// 00232 10400 333
BBXX 41052 04001 99183 70648 46/// /1205 10269 40160 92350 333 91206
BBXX 41052 04001 99183 70648 46/// /1105 10269 40159 92340 333 91206
BBXX 41053 04001 99185 70661 46/// /0201 10263 40167 51023 90000 22200 00272 11002 70011 333 91202
BBXX 41053 04001 99185 70661 46/// /0502 10261 40166 92350 333 91203
BBXX 41053 04001 99185 70661 46/// /0501 10261 40165 92340 333 91201
AAXX 04004 60351 12560 73210 10135 20085 40300 56002 60001 878// 333 0//00 84820 84630 95990
AAXX 04004 60355 12658 63613 10144 20068 40292 58003 60001 86200 333 0//00 86840 95990
AAXX 04004 60445 12560 32402 10025 20009 39126 48591 50001 60001 83200 333 83826 95990
AAXX 04004 60468 12560 50000 10042 20020 39333 48588 53003 60001 85200 333 0//00 85826 95990
AAXX 04004 60507 12960 00000 10038 20031 40336 58001 60001 333 95990
AAXX 04004 60511 12965 02504 10015 20002 39177 48598 58004 60001 333 0//00 95990
AAXX 04004 60536 12960 00000 10035 20025 39438 48604 58002 60001 333 95990
AAXX 04004 60550 12960 00000 10028 20021 38777 48609 58003 60001 333 0//00 95990
AAXX 04004 60555 12970 03312 10088 20005 40291 54001 60001
AAXX 04004 60559 12960 00000 10071 20023 40293 53008 60001
AAXX 04004 60581 12960 02406 10073 20011 40287 58002 60001 333 0//00
AAXX 04004 60607 12960 63609 10084 21008 40290 58001 60001 80004 333 0//00 86075
AAXX 04004 60640 12960 30000 10070 20023 40272 50000 60001 80002 333 0//00 83073
AAXX 0400/ 41858 NIL
AAXX 0400/ 41863 NIL
AAXX 0400/ 41886 NIL
AAXX 0400/ 41895 NIL
AAXX 0400/ 41909 NIL
AAXX 0400/ 41915 NIL
AAXX 0400/ 41926 NIL
AAXX 0400/ 41929 NIL
AAXX 0400/ 41933 NIL
AAXX 0400/ 41939 NIL
AAXX 0400/ 41941 NIL
AAXX 0400/ 41946 NIL
AAXX 0400/ 41947 NIL
AAXX 0400/ 41951 NIL
AAXX 0400/ 41953 NIL
AAXX 0400/ 41958 NIL
AAXX 0400/ 41960 NIL
AAXX 0400/ 41963 NIL
AAXX 0400/ 41964 NIL
AAXX 0400/ 41965 NIL
AAXX 0400/ 41966 NIL
AAXX 0400/ 41984 NIL
AAXX 0400/ 41989 NIL
AAXX 0400/ 41998 NIL
AAXX 04004 60360 12560 62607 10109 20087 40290 56004 60001 86800 333 0//00 82826 85640 95990
AAXX 04004 60390 12565 32303 10076 20070 40335 56002 60001 82230 333 82820 95990
AAXX 04004 60402 12560 20000 10085 20074 40319 58002 60001 82200 333 82820 95990
AAXX 04004 60419 11450 72906 10064 20037 40305 50001 60041 72162 878// 333 0//11 83816 87626 95990
AAXX 04004 60475 12558 83008 10043 20039 39329 48575 53008 60001 888// 333 83820 87833 95990
AAXX 04004 60490 12401 20000 10074 20074 40317 57007 74640 82600 333 82710 95990
AAXX 04004 60525 12960 03312 10124 20014 40280 50001 60001 333 0//00 95990
AAXX 04004 60531 12965 00000 10069 20053 40329 58005 60001 333 0//00 95990
AAXX 04004 60566 12960 0//// 10090 20025 40314 50001 60001 333 0//00
AAXX 04004 60571 12962 13303 10050 20014 39371 48612 51003 60001 80001 333 0//00 81073 95990
AAXX 04004 60580 12960 03308 10091 20049 40295 58002 60001 333 0//00
AAXX 04004 60590 12960 03104 10055 21002 40308 58003 60001 333 0//00
AAXX 04004 60611 12960 03005 10066 21018 40277 56006 60001 333 0//00
AAXX 04004 60620 12960 40412 10122 20009 40289 53005 60001 82032 333 0//00 82365 83075
AAXX 04004 60630 12970 60412 10133 20031 40279 50000 60001 82032 333 82362 85075
AAXX 04004 60656 12965 30208 10085 21012 40284 56001 60001 82032 333 0//00 82360
AAXX 04004 60670 12970 20000 10045 21027 39139 48570 58005 60001 80002 333 0//00 82073 95990
AAXX 04004 60680 12970 20708 10098 21035 38695 48568 58005 60001 80002 333 82073 95990
BBXX 42085 04001 99179 70665 46/// /0703 10269 40165 51019 90000 22200 00272 10702 70010 333 91204
AAXX 04004 60351 12560 73210 10135 20085 40300 56002 60001 878// 333 0//00 84820 84630 95990
AAXX 04004 60355 12658 63613 10144 20068 40292 58003 60001 86200 333 0//00 86840 95990
AAXX 04004 60445 12560 32402 10025 20009 39126 48591 50001 60001 83200 333 83826 95990
AAXX 04004 60468 12560 50000 10042 20020 39333 48588 53003 60001 85200 333 0//00 85826 95990
AAXX 04004 60507 12960 00000 10038 20031 40336 58001 60001 333 95990
AAXX 04004 60511 12965 02504 10015 20002 39177 48598 58004 60001 333 0//00 95990
AAXX 04004 60536 12960 00000 10035 20025 39438 48604 58002 60001 333 95990
AAXX 04004 60550 12960 00000 10028 20021 38777 48609 58003 60001 333 0//00 95990
AAXX 04004 60555 12970 03312 10088 20005 40291 54001 60001
AAXX 04004 60559 12960 00000 10071 20023 40293 53008 60001
AAXX 04004 60581 12960 02406 10073 20011 40287 58002 60001 333 0//00
AAXX 04004 60607 12960 63609 10084 21008 40290 58001 60001 80004 333 0//00 86075
AAXX 04004 60640 12960 30000 10070 20023 40272 50000 60001 80002 333 0//00 83073
AAXX 04004 60360 12560 62607 10109 20087 40290 56004 60001 86800 333 0//00 82826 85640 95990
AAXX 04004 60390 12565 32303 10076 20070 40335 56002 60001 82230 333 82820 95990
AAXX 04004 60402 12560 20000 10085 20074 40319 58002 60001 82200 333 82820 95990
AAXX 04004 60419 11450 72906 10064 20037 40305 50001 60041 72162 878// 333 0//11 83816 87626 95990
AAXX 04004 60475 12558 83008 10043 20039 39329 48575 53008 60001 888// 333 83820 87833 95990
AAXX 04004 60490 12401 20000 10074 20074 40317 57007 74640 82600 333 82710 95990
AAXX 04004 60525 12960 03312 10124 20014 40280 50001 60001 333 0//00 95990
AAXX 04004 60531 12965 00000 10069 20053 40329 58005 60001 333 0//00 95990
AAXX 04004 60566 12960 0//// 10090 20025 40314 50001 60001 333 0//00
AAXX 04004 60571 12962 13303 10050 20014 39371 48612 51003 60001 80001 333 0//00 81073 95990
AAXX 04004 60580 12960 03308 10091 20049 40295 58002 60001 333 0//00
AAXX 04004 60590 12960 03104 10055 21002 40308 58003 60001 333 0//00
AAXX 04004 60611 12960 03005 10066 21018 40277 56006 60001 333 0//00
AAXX 04004 60620 12960 40412 10122 20009 40289 53005 60001 82032 333 0//00 82365 83075
AAXX 04004 60630 12970 60412 10133 20031 40279 50000 60001 82032 333 82362 85075
AAXX 04004 60656 12965 30208 10085 21012 40284 56001 60001 82032 333 0//00 82360
AAXX 04004 60670 12970 20000 10045 21027 39139 48570 58005 60001 80002 333 0//00 82073 95990
AAXX 04004 60680 12970 20708 10098 21035 38695 48568 58005 60001 80002 333 82073 95990
AAXX 04004 78526 32766 40000 10256 20211 30153 40175 51021 92356 333 10289 20211 555 90400
AAXX 04004 78543 35966 00000 10233 20222 30092 40173 52016 92353 333 10272 20217 555 90400
BBXX 46078 04001 99561 71526 46/// /0316 10002 21038 49877 92350 333 91219 555 11173 22185
BBXX 46078 04001 99561 71526 46/// /0316 10002 21038 49877 92350 333 91219 555 11173 22185
BBXX 46078 04001 99561 71526 46/// /0316 10002 21038 49877 92350 333 91219 555 11173 22185
BBXX 46078 04001 99561 71526 46/// /0316 10002 21038 49877 92350 333 91219 555 11173 22185
BBXX 42085 04001 99179 70665 46/// /0704 10269 40164 92350 333 91205
BBXX 42085 04001 99179 70665 46/// /0704 10269 40163 92340 333 91205
BBXX 3ERR2 04004 99635 10053 43/// /0111 10060 20010 49712 57002 22200 11105 70026 333 91125
BBXX LF3F 04004 99643 10078 43/// /1122 10044 21015 49726 57010 22200 04083 10806 70032 333 91126
BBXX LF3N 04004 99653 10073 43/// /1113 10047 20008 49749 57013 22200 10907 70034
BBXX LF4B 04004 99606 10037 47/98 /3427 10058 49724 52056 723// 22200 00057 10908 70040 333 91144
BBXX LF4C 04004 99584 10019 43/// /3135 10069 20028 49817 52075 22200 10811 70055 333 91143
BBXX LF5T 04004 99660 10081 437// /1318 10042 21007 49762 57012 90010 22200 10806 70031 333 91123
AAXX 04001 45032 36/// /0004 10107 20028 30248 40265 52002
AAXX 04001 45035 36/// /0407 10112 20033 30223 40267 52004
AAXX 04001 45039 36/// /0304 10113 20054 30243 40258 52002
AAXX 04001 45044 36/// /0109 10116 20052 30151 40247 52002
AAXX 04004 91945 36/// /3608 10293 20225 30132 40137 58019 333 20226 59018
AAXX 04003 64800 NIL
AAXX 04003 64820 NIL
AAXX 04003 64860 31930 70000 10221 20086 39852 40122 70522 80002 333 0//00 58004 87080
AAXX 04003 64861 NIL
AAXX 04003 64870 NIL
AAXX 04003 64871 NIL
AAXX 04003 64892 NIL
AAXX 04003 64893 NIL
AAXX 04003 64894 NIL
AAXX 04004 64910 31440 60000 10250 20238 30106 40115 71022 83302 333 0//00 59009 83616 81920 85080 94945 95835
AAXX 04004 64911 NIL
AAXX 04004 64950 NIL
AAXX 04001 45032 36/// /0004 10107 20028 30248 40265 52002
AAXX 04001 45035 36/// /0407 10112 20033 30223 40267 52004
AAXX 04001 45039 36/// /0304 10113 20054 30243 40258 52002
AAXX 04001 45044 36/// /0109 10116 20052 30151 40247 52002
AAXX 04004 64500 32460 82212 10272 20233 30095 40108 885// 333 0//00 59011 84610 88630
AAXX 04004 64501 NIL
AAXX 04004 64570 32860 70000 10199 20197 39621 40136 8353/ 333 0//00 59008 83606 87366
BBXX 46207 04001 99509 71299 46/// /1608 10090 40005 57011 22200 00080 11110 70051 333 91210
BBXX 46207 04001 99509 71299 46/// /1608 10090 40005 57011 22200 00080 11110 70051 333 91210
AAXX 04004 87344 32960 00205 10272 20052 39581 40107 52019 333 10355 20272
AAXX 04004 87349 32970 00504 10278 20095 39716 40094 53001 333 10356 20268
AAXX 04004 87371 32962 01407 10284 20155 30100 40121 53011 333 10347 20280
AAXX 04004 87374 32965 01404 10266 20152 30032 40117 52015 333 10346 20256
AAXX 04004 87395 NIL
AAXX 04004 87418 32665 71804 10342 20127 39282 40033 53008 85370 333 10375 20288 56660 57970 84640 81950
AAXX 04004 87436 32670 30906 10330 20123 39282 40048 53007 83102 333 10373 20290 56505 83840
AAXX 04004 87448 32665 40513 10302 20095 39550 40083 52015 84800 333 10386 20302 56400 82635
AAXX 04004 87453 32965 00212 10297 20095 39626 40094 57010 333 10356 20270
AAXX 04004 87467 32970 20910 10263 20196 39985 40116 52015 82070 333 10347 20236 56050 82360
AAXX 04004 87497 32965 30000 10228 20115 30108 40134 53004 80005 333 10319 20228 56005 83270
AAXX 04004 87506 32670 20506 10272 20084 38574 48501 53016 82100 333 10320 20232 56600 82835 95000
AAXX 04004 87509 32670 21405 10304 20157 39249 40061 63007 82400 333 10363 20250 56600 82640
AAXX 04004 87532 NIL
AAXX 04004 87534 32960 41404 10275 20173 39946 40101 53004 84070 333 10342 20270 56050 84360
AAXX 04004 87548 32960 21104 10237 20090 30038 40133 52011 80006 333 10308 20217 56007 82270
AAXX 04004 87576 32960 10906 10225 20160 30130 40154 53011 81070 333 10307 20211 56090 81360
AAXX 04004 87582 32960 00913 10220 20154 30148 40155 53008 333 10250 20220
AAXX 04004 87585 32960 10503 10218 20170 30116 40145 57001 80006 333 10275 20218 56007 81270
AAXX 04004 91165 32966 00509 10261 20194 30159 40193 56023 92353 333 10261 20178 555 90400
AAXX 04004 91182 32662 41807 10267 20206 30181 40187 56025 92353 555 90400
AAXX 04004 91190 32766 20315 10272 20189 30178 40196 56028 92354 333 10278 20172 555 90400
AAXX 04004 91212 11464 60507 10267 20239 31401 40136 51010 60021 761// 92354 333 10278 20239 555 90400
AAXX 04004 91285 32566 83005 10240 20210 30178 90011 555 90400
AAXX 04004 91317 32474 60806 10294 20272 30112 40116 82101 333 562/9 58007 82818 84080 555 90400
AAXX 04004 91348 11474 50706 10300 20255 30066 40119 55003 60044 70282 81171 333 20238 56299 58011 70036 555 90400
AAXX 04004 91376 32474 61309 10290 20240 30111 92350 555 90400
AAXX 04004 91413 32469 70912 10308 20250 30100 40125 51007 81138 333 20267 56299 59004 555 90400
AAXX 04001 22165 42998 00906 11146 21173 30071 40137 57024
AAXX 04001 22676 41460 81203 11088 21099 30035 40117 57018 77072 885//
AAXX 04001 22954 42297 81402 11045 21051 39828 40083 57018 886// 333 88703
AAXX 04001 23405 41470 81204 11168 21202 30061 40168 57012 70273 885// 333 88614
AAXX 04001 23412 41496 70701 11145 21165 30098 40202 57012 77187 86720 333 86710
AAXX 04001 23803 42999 61101 11116 21129 39986 40175 58007 86030
AAXX 04001 27066 41396 81602 11071 21084 39939 40123 57018 77177 8672/ 333 86708
AAXX 04001 27083 42984 81501 11087 21098 39913 40146 57013 8801/
AAXX 04001 27113 41325 80000 11039 21047 39917 40065 57014 77387 8272/
AAXX 04001 27242 41397 81302 11032 21036 39951 40081 57016 78582 889// 333 88710
AAXX 04001 27329 41565 81901 11036 21044 39947 40075 57012 78587 889//
AAXX 04001 27355 41496 81603 11038 21043 39962 40131 57015 77172 8872/
AAXX 04001 27373 41396 81404 11059 21063 39914 40138 57016 70272 886// 333 88707
AAXX 04001 27665 41395 81602 11052 21066 39861 40139 57020 77172 8872/ 333 86709
AAXX 04001 27835 41294 81803 11026 21033 39945 40106 57012 77173 8872/ 333 92980
AAXX 04001 28009 41998 80000 11143 21156 39954 40178 57005 70272 8802/
AAXX 04001 28411 41497 82502 11124 21137 39983 40189 57005 77171 8557/
AAXX 04001 28418 41997 80000 11127 21140 30015 40191 58006 71022 80003
AAXX 04003 87480 32965 00907 10253 20143 30097 40126 52015 333 10317 20253
AAXX 04004 83384 NIL
AAXX 04004 83386 NIL
AAXX 04004 83388 NIL
AAXX 04004 83393 NIL
AAXX 04004 83442 NIL
AAXX 04004 83479 NIL
AAXX 04004 83483 NIL
AAXX 04004 83531 NIL
AAXX 04004 83538 NIL
AAXX 04004 83574 NIL
AAXX 04004 83582 NIL
AAXX 04004 83595 NIL
AAXX 04004 83687 NIL
AAXX 04004 83692 NIL
AAXX 04004 83695 326// 80000 10226 20205 39998 40136 52020 885// 333 10255 29088 55002
AAXX 04004 83718 315// 80000 10214 20206 39559 40130 52013 75055 887// 333 10222 29/// 55026
AAXX 04001 40700 12960 03003 11018 21039 30170 40262 55001 60001 333
AAXX 04001 40723 11510 82906 10008 21002 38872 40164 55000 69921 77376 8572/ 333 83730 84640 88557
AAXX 04001 40726 12660 20000 11016 21068 38689 40241 52005 60001 82500 333 82635
AAXX 04001 40727 12960 00000 11068 21098 38513 40266 52020 60001 333
AAXX 04001 40734 11456 82702 10046 20036 30298 40272 56002 60171 71062 8732/ 333 85712 82920 88458
AAXX 04001 40737 11557 82403 10016 20011 30251 40270 52010 60151 76366 8732/ 84720 81925 88557
AAXX 04001 40741 11556 83303 10018 20017 39854 40197 57007 60011 71062 8672/ 333 86725 88458
AAXX 04001 40780 12960 01003 10000 21028 38702 40214 50001 60001 333
AAXX 04001 40791 12660 50000 10059 21004 39312 40137 58003 60001 85500 333 85640
AAXX 04001 40792 12662 30602 11004 21021 38671 40149 58005 60001 83500 333 83635
AAXX 04001 40794 12960 00000 10060 20046 30099 40198 54000 60001 92340 333
AAXX 04001 40812 11940 00000 10082 20065 39802 40181 56004 60001 71000 92345 333
AAXX 04001 40829 12960 03404 10088 21027 39547 40115 57008 60001 333
AAXX 04001 40833 12960 03303 10078 20051 30171 40204 51001 60001 92350 333
AAXX 04001 40835 12960 00000 10046 20037 39340 40183 56005 60001 333
AAXX 04001 40845 NIL
AAXX 04001 40882 11950 03007 10198 20131 30092 40127 58007 60001 70700 333
AAXX 04001 40889 NIL
AAXX 04001 40890 NIL
AAXX 04001 40893 12960 03603 10220 20171 30118 40124 56004 60001 222// 00/// 20401 333
AAXX 04001 40897 NIL
AAXX 04001 40700 12960 03003 11018 21039 30170 40262 55001 60001 333
AAXX 04001 40723 11510 82906 10008 21002 38872 40164 55000 69921 77376 8572/ 333 83730 84640 88557
AAXX 04001 40726 12660 20000 11016 21068 38689 40241 52005 60001 82500 333 82635
AAXX 04001 40727 12960 00000 11068 21098 38513 40266 52020 60001 333
AAXX 04001 40734 11456 82702 10046 20036 30298 40272 56002 60171 71062 8732/ 333 85712 82920 88458
AAXX 04001 40737 11557 82403 10016 20011 30251 40270 52010 60151 76366 8732/ 84720 81925 88557
AAXX 04001 40741 11556 83303 10018 20017 39854 40197 57007 60011 71062 8672/ 333 86725 88458
AAXX 04001 40780 12960 01003 10000 21028 38702 40214 50001 60001 333
AAXX 04001 40791 12660 50000 10059 21004 39312 40137 58003 60001 85500 333 85640
AAXX 04001 40792 12662 30602 11004 21021 38671 40149 58005 60001 83500 333 83635
AAXX 04001 40794 12960 00000 10060 20046 30099 40198 54000 60001 92340 333
AAXX 04001 40812 11940 00000 10082 20065 39802 40181 56004 60001 71000 92345 333
AAXX 04001 40829 12960 03404 10088 21027 39547 40115 57008 60001 333
AAXX 04001 40833 12960 03303 10078 20051 30171 40204 51001 60001 92350 333
AAXX 04001 40835 12960 00000 10046 20037 39340 40183 56005 60001 333
AAXX 04001 40845 NIL
AAXX 04001 40882 11950 03007 10198 20131 30092 40127 58007 60001 70700 333
AAXX 04001 40889 NIL
AAXX 04001 40890 NIL
AAXX 04001 40893 12960 03603 10220 20171 30118 40124 56004 60001 222// 00/// 20401 333
AAXX 04001 40897 NIL
AAXX 04004 NIL
AAXX 04004 NIL
AAXX 04004 NIL
AAXX 04004 NIL
AAXX 04004 82143 NIL
AAXX 04004 82599 32570 41010 10263 20227 30075 40135 84100 333 10304 59006
AAXX 04004 82824 32470 70000 10262 20242 30009 40110 83230 333 10309 59004
AAXX 04004 82899 NIL
AAXX 04004 83117 NIL
AAXX 04004 83248 32470 30707 10283 20262 30112 40134 83200 333 10318 59009
AAXX 04004 83746 31565 41307 10234 20186 30114 40125 51023 70500 84500 333 10275
AAXX 04004 82022 32970 00707 10281 20206 30013 40109 333 10327 59006
AAXX 04004 82193 32970 00512 10275 20217 30097 40115 333 10319 59003
AAXX 04004 82281 32970 00409 10271 20206 30052 40114 333 10314 59001
AAXX 04004 82332 31470 71302 10252 20238 30024 40118 71322 83331 333 10300 59002
AAXX 04004 82398 32970 01004 10263 20221 30097 40126 333 10299 58004
AAXX 04004 82400 NIL
AAXX 04004 82579 32970 50605 10317 20199 30021 40097 85050 333 10384 59002
AAXX 04004 82917 21260 70000 10223 20223 39891 40114 71062 85501 333 10232 59018 600101
AAXX 04004 82965 32570 60000 10240 20226 39783 40112 81434 333 10289 58004
AAXX 04004 82993 32570 20609 10267 20242 30006 4//// 82100 333 10299 59013
AAXX 04004 83208 32570 52904 10222 20205 39418 48530 81230 333 10280 58008
AAXX 04004 83349 32570 50103 10271 20248 30132 40138 82510 333 10298 58013
AAXX 04004 83362 32970 00702 10255 20190 39870 40085 333 10317 59020
AAXX 04004 83378 21562 60506 10200 20171 38961 48520 76062 83530 333 10245 58021 69981
AAXX 04004 83460 32570 70805 10237 20223 30078 40135 81150 333 10286 58021
AAXX 04004 83497 NIL
AAXX 04004 83566 22570 50112 10186 20166 39199 48510 83130 333 10265 58021 69931
AAXX 04004 83599 NIL
AAXX 04004 83612 32970 13404 10271 20166 39462 48510 53014 81030 333 10334
AAXX 04004 83649 21450 81608 10216 20207 30130 40135 51022 76062 865 1/ 333 10275 69911
AAXX 04004 83650 NIL
AAXX 04004 83780 32970 01706 10195 20161 39231 48520 53024 333 10288
AAXX 04004 83827 32970 00000 10223 20125 39814 40087 53010 333 10344
AAXX 04004 83840 32270 50904 10176 20165 39110 48510 51018 85600 333 10274
AAXX 04004 83899 32970 01404 10201 20181 30117 40123 52019 333 10260
AAXX 04004 83925 NIL
AAXX 04004 83970 NIL
AAXX 04004 83971 32570 71408 10241 20199 30113 40117 51025 87500 333 10291
AAXX 04004 NIL
AAXX 04001 34560 42297 81804 11054 21057 30046 40219 57014 886// 333 88704 93615
AAXX 04001 34720 42499 62404 10028 20017 30149 40189 57020 86600
AAXX 04001 34730 41440 82303 10024 20016 30103 40196 57022 71087 885// 333 88611 93400
AAXX 04001 34740 41496 81602 10001 21000 30120 40219 57020 78082 889// 333 93400
AAXX 04001 34824 41596 82503 10059 20032 30210 40215 56011 71022 8850/
AAXX 04001 34858 41996 82202 11031 21046 30133 40244 57009 71011 8807/
AAXX 04001 34866 42998 81802 11027 21034 30256 40247 55005 8007/
AAXX 04001 34880 41496 82703 11059 21065 30275 40247 52011 77172 8672/ 333 88411
AAXX 04001 37018 42698 61204 10067 20003 30188 40265 55002 82501
AAXX 04001 37054 42997 20401 11032 21039 39866 40266 58002 80030
AAXX 04001 37472 41596 83203 10008 21025 30284 40260 52003 71072 8557/
AAXX 04004 NIL
AAXX 04004 NIL
AAXX 04004 NIL
AAXX 04001 40700 12960 03003 11018 21039 30170 40262 55001 60001 333
AAXX 04001 40723 11510 82906 10008 21002 38872 40164 55000 69921 77376 8572/ 333 83730 84640 88557
AAXX 04001 40726 12660 20000 11016 21068 38689 40241 52005 60001 82500 333 82635
AAXX 04001 40727 12960 00000 11068 21098 38513 40266 52020 60001 333
AAXX 04001 40734 11456 82702 10046 20036 30298 40272 56002 60171 71062 8732/ 333 85712 82920 88458
AAXX 04001 40737 11557 82403 10016 20011 30251 40270 52010 60151 76366 8732/ 84720 81925 88557
AAXX 04001 40741 11556 83303 10018 20017 39854 40197 57007 60011 71062 8672/ 333 86725 88458
AAXX 04001 40780 12960 01003 10000 21028 38702 40214 50001 60001 333
AAXX 04001 40791 12660 50000 10059 21004 39312 40137 58003 60001 85500 333 85640
AAXX 04001 40792 12662 30602 11004 21021 38671 40149 58005 60001 83500 333 83635
AAXX 04001 40794 12960 00000 10060 20046 30099 40198 54000 60001 92340 333
AAXX 04001 40812 11940 00000 10082 20065 39802 40181 56004 60001 71000 92345 333
AAXX 04001 40829 12960 03404 10088 21027 39547 40115 57008 60001 333
AAXX 04001 40833 12960 03303 10078 20051 30171 40204 51001 60001 92350 333
AAXX 04001 40835 12960 00000 10046 20037 39340 40183 56005 60001 333
AAXX 04001 40845 NIL
AAXX 04001 40882 11950 03007 10198 20131 30092 40127 58007 60001 70700 333
AAXX 04001 40889 NIL
AAXX 04001 40890 NIL
AAXX 04001 40893 12960 03603 10220 20171 30118 40124 56004 60001 222// 00/// 20401 333
AAXX 04001 40897 NIL
AAXX 04001 22282 415// 61007 11121 21141 30123 40131 57025 70282 84550
AAXX 04001 22438 NIL
AAXX 04001 22471 41475 60000 11198 21224 30083 40109 57022 78587 83931
AAXX 04001 22563 41396 80000 11115 21128 30062 40102 57016 77172 8872/ 333 86708
AAXX 04001 22641 41397 81202 11050 21060 30043 40058 57017 77172 8872/ 333 86707 91107
AAXX 04001 22695 41396 80902 11069 21078 39986 40144 57013 77172 8672/ 333 86708
AAXX 04001 22867 41397 81202 11048 21054 39971 40087 57024 77172 8872/ 333 88709 91104
AAXX 04001 22939 41496 81601 11040 21052 39898 40063 57011 77177 8872/ 333 84710
AAXX 04001 22996 41996 60000 11161 21187 39962 40165 57010 71041 86010
AAXX 04001 23324 41959 81104 11096 21117 30130 40212 57013 77172 8802/
AAXX 04001 27051 41497 81402 11046 21055 39924 40094 57020 70282 8453/
AAXX 04001 27225 41456 81801 11033 21044 39939 40072 57010 77172 8872/ 333 88716
AAXX 04001 27252 41496 81602 11040 21045 39912 40102 57016 77172 8877/ 333 88716
AAXX 04001 27333 41225 81804 11038 21046 39920 40080 57015 77376 887// 333 88704
AAXX 04001 27369 41697 81703 11032 21039 39982 40122 57019 77022 8802/
AAXX 04001 27393 41497 82004 11097 21105 30002 40177 57009 77172 8577/
AAXX 04001 27479 42297 81403 11053 21063 30013 40150 57012 886// 333 88706
AAXX 04001 27532 41295 81902 11043 21049 39868 40085 57013 77177 8677/ 333 86703
AAXX 04001 27648 41396 81603 11056 21063 39941 40115 57023 77173 8872/ 333 88707
AAXX 04001 27675 42497 81806 11055 21073 39984 40160 57016 885// 333 88615
AAXX 04001 27679 42498 81706 11061 21080 39936 40167 57014 885// 333 88618
AAXX 04001 28214 41996 80000 11130 21136 39961 40185 57004 70272 8807/
AAXX 04004 84204 11665 81808 10242 20228 60081 72164 8481/ 333 10330 555 10075 30092
AAXX 04004 84140 31530 83204 10237 20225 30044 40129 71322 8532/ 333 10279 58021 555 30093
AAXX 04004 84072 11450 81404 10129 20116 37310 69911 76354 8372/ 333 10216 58009 555 10001 30091
AAXX 04004 84105 11440 80902 10228 20225 31003 60011 76566 887// 333 10271 58002 555 10010 30098
AAXX 04004 84142 11140 80404 10160 20157 60201 76066 887// 333 10197 555 10197 30098
AAXX 04004 84088 11110 80000 10100 20092 37078 60141 76069 887// 333 10174 58003 555 10144 30095
AAXX 04004 84008 32670 71804 10254 20220 30117 40127 81530 00221 333 10290 59001 555 30082
AAXX 04004 84202 32470 80000 10263 20212 30159 8751/ 333 10295 58018 555 30074
AAXX 04004 84036 12575 80000 10124 20110 69991 888// 333 10182 555 10009 30092
AAXX 04004 84160 11460 80904 10120 20098 37272 69901 76054 888// 333 10231 58010 555 1 T 30087
AAXX 04004 84270 11562 70000 10148 20133 60061 74062 84432 333 10207 555 10057 30091
AAXX 04004 84076 31460 72702 10140 20122 72994 87400 333 10216 555 30089
AAXX 04004 84050 11360 81804 10228 20223 60021 75166 887// 333 10255 555 10018 30097
AAXX 04004 84143 11450 80000 10120 20111 37410 60111 75096 888// 333 10229 58012 555 10110 30094
AAXX 04004 84226 11/90 90000 10088 20088 60031 75055 89/// 333 10150 555 10030 30100
AAXX 04004 84056 11260 82304 10110 20103 60071 72164 884// 333 10204 555 10074 30096
AAXX 04004 84132 32670 60000 10258 20239 39877 82202 333 10332 58004 555 30089
AAXX 04004 84173 11556 83202 10123 20110 60041 75055 8672/ 333 10220 555 10042 30092
AAXX 04004 84179 31560 60000 10222 20203 39055 71344 86300 333 10274 58004 555 30089
AAXX 04004 91245 32766 41203 10270 20230 30161 92350 555 90400
AAXX 04004 83437 NIL
AAXX 04004 83550 315// 6//// 10248 20238 30074 40103 70212 86400 333 10290 29089 55003 58021
AAXX 04004 83552 NIL
AAXX 04004 83565 NIL
AAXX 04004 83579 NIL
AAXX 04004 83592 NIL
AAXX 04004 83623 NIL
AAXX 04004 83630 NIL
AAXX 04004 83676 NIL
AAXX 04004 83698 32/// 80000 10230 20214 30116 40130 51018 885// 333 10250 29089 55///
AAXX 04004 83702 NIL
AAXX 04004 83704 NIL
AAXX 04004 83716 NIL
AAXX 04004 83726 NIL
AAXX 04004 83738 31/// 40503 10218 20178 39626 40120 52012 71390 84300 333 10294 29/// 55108
BBXX BATFR53 04004 99148 51172 44597 30909 10247 20184 40162 56010 70200 82102 22222 00254 201// 306// 40302 5//// 60/// ICE 0////
BBXX IDDUK02 04004 99535 50387 46/// ///// 49905 222//
BBXX 61001 04004 99434 10078 46/// /2214 10130 20085 40238 57016 22200 00138 10602 70008
BBXX BAREU12 04004 99499 70038 46/// ///// 40156 52020 22253
BBXX BAREU51 04004 99438 10093 46/// ///// 40235 22233
BBXX BAREU00 04004 99467 70178 46/// ///// 40337 52030 22263
BBXX BATFR22 04004 99423 10072 46/// /2713 10129 40251 58016 22274 00142
BBXX BATFR21 04004 99429 10070 46/// /2516 40240 58021 22263
BBXX BATFR32 04004 99404 10072 46/// /3318 10133 20073 40278 56011 7//// 8//// 22234 00154
BBXX BATFR15 04004 99502 70002 46/// /2724 10102 20044 40128 53036 22244 00117
BBXX BATFR20 04004 99424 10075 46/// ///// 10127 20057 40243 58017 22274
BBXX BATFR14 04004 99430 70146 44793 63115 10139 20134 40335 51035 74155 86777 22264 00142 21008 327// 41006 5////
BBXX BATFR52 04004 99500 70038 46/// /2930 10100 20027 40178 22233 00114
BBXX BATFR31 04004 99425 10070 46/// /2611 10132 20125 40252 58015 22234 00137
BBXX BATFR60 04004 99494 70041 46/// /2833 10107 20044 40192 53010 22222 00112
BBXX BATEU04 04004 99581 70295 46/// /2239 10065 20054 49924 55013 22222
BBXX BATFR46 04004 99338 70075 44996 20808 10139 20117 40311 70111 82122 22213 00160 21002
BBXX BATFR54 04004 99448 70047 46/// /2539 10139 20122 40273 22262 00137
BBXX BATFR42 04004 99497 70018 46/// /2945 10102 20037 40146 222// 00127
BBXX BATUK01 04004 99560 70032 46/// /2608 10039 21012 49985 51052 22200 00059
BBXX 61002 04004 99421 10047 46/// /0000 10131 2//// 40282 57010 22200 00133 10603 70015
BBXX 2BLY5 04003 99057 70338 41397 80320 10270 20218 40130 53/// 78055 8/7// 22214 04287 20704 80235
BBXX PCSV 04003 99210 50068 41398 41502 10203 20187 40196 52006 70322 8113/ 22273 04208 21001 315// 41001 80192
BBXX BATFR05 04004 99194 70181 46/// /0313 10209 20145 40198 51016 22282 00214
BBXX BATFR19 04004 99067 30055 46/// /1811 10237 20194 40133 58013 222// 00257
BBXX BATFR55 04004 99202 30572 46/// /1014 10264 20222 40113 22222 00279
BBXX A8SF7 04001 99278 51482 41/97 93516 10265 20244 40100 58035 76011 89/// 22264 04220 20804 332// 41105 5//// 80250
BBXX 3EIZ7 04004 99458 70526 41/96 /3117 10060 2001/ 40040 54/// 75365 8//// 22224 0//// 2//06 323// 4//// 5//// 6//// 80040 ICE /////
BBXX C6SI6 04004 99514 11701 46/// /0816 11027 21098 40123 58015 7//// 8//// 22223 0//// 2////
BBXX VRHO2 04004 99493 11562 41/// /0952 10010 20010 49940 54000 74774 8//// 22212 00000 20512 30908 40613 50715 61/// 80010 ICE /////
BBXX WCX8882 04004 99462 11797 41498 31309 10050 21300 40099 58020 70211 831// 22261 00060 20101 30329 41305 50804 6//// 81020 ICE /////
BBXX SHIP 04004 99398 70467 41/97 /1823 10177 20150 40250 52020 70000 8//// 22224 04170 20604 80160
BBXX C6CU6 04003 99160 70643 41598 41216 10273 20255 40168 55/// 70200 81145 22233 04270 20701 310// 41002 5//// 80260
BBXX 41101 04004 99146 70562 46/// /0817 10262 20209 40156 52014 22200 00267 10805 70026
BBXX FVNM 04004 99168 70862 46/// /0225 10254 20172 40224 53021 22271 00269
BBXX BATEU05 04004 99602 70404 46/// /2839 10007 49743 55043 22252
BBXX BATEU01 04004 99458 70481 46/// /1724 10085 20077 40093 56040 22264 00022
BBXX PHCQ 04003 99249 70842 41/98 61107 10149 20107 40266 54000 70322 8//// 22254 00260 2//// 3//// 4//// 5//// 80125
AAXX 04004 60369 12560 20000 10145 20073 40320 58004 60001 82200 333 0//00 82826 91827
AAXX 04004 60403 NIL
AAXX 04004 60425 12965 00000 10080 20060 40330 58001 60001 333 0//00 95990
AAXX 04001 08501 32/// /3606 10132 20111 30289 40326 52014 333 91009 91110 555 60005
AAXX 04001 08505 32470 79902 10154 20116 30232 40282 52011 878// 333 83813 85622 555 60007
AAXX 04001 08506 12/// /0209 10148 20119 30215 40287 52005 69931 333 91114 555 69915
AAXX 04001 08509 11460 80102 10138 20133 30214 40278 52016 60021 78081 888// 333 83815 84818 86630 555 69957
AAXX 04001 08511 12/// /0501 10133 20133 30169 40278 52012 60011 555 69975
AAXX 04001 08512 11470 60603 10132 20128 30184 40270 52009 69931 70282 85840 333 82816 84640 555 60005
AAXX 04001 08515 11260 81501 10145 20145 30148 40270 52002 60081 72086 888// 333 85705 85614 910// 911// 96010 555 60027 912//
AAXX 04001 08521 32470 70304 10176 20107 30248 40319 52002 87800 333 83816 85630 555 60007
AAXX 04001 08522 32/// /9902 10173 20076 30245 40315 54000 333 91006 91106 555 60005
AAXX 04001 08524 32465 70905 10172 20087 30223 40322 52003 87800 333 83815 86630 91008 91108 555 60005
AAXX 04001 08530 NIL
AAXX 04001 08531 32/// /0103 10148 20088 30319 40358 54000 333 91006 91106 555 60005
AAXX 04001 08532 NIL
AAXX 04001 08533 32/// /0305 10113 20073 30314 40344 52003 333 91008 91108 555 60005
AAXX 04001 08534 32662 49901 10100 20085 30337 40355 52003 84500 333 84635 555 60007
AAXX 04001 08535 NIL
AAXX 04001 08537 NIL
AAXX 04001 08540 31658 49901 10114 20092 30286 40356 51003 71011 84500 333 84635 555 60007
AAXX 04001 08541 32/// /0204 10089 20057 30232 40355 52004 333 91106 555 60005
AAXX 04001 08544 32660 39901 10090 20082 30334 40356 50002 83500 333 83635 555 60007
AAXX 04001 08545 31559 71201 10113 20080 30279 40364 52005 71022 875// 333 82627 84635 85642 555 60005
AAXX 04001 08548 32/// /0601 10084 20063 30152 40363 52001 555 60005
AAXX 04001 08551 32/// /9901 10120 20097 30304 40363 52007 555 60005
AAXX 04001 08554 NIL
AAXX 04001 08558 32/// /3503 10058 20051 30048 40353 52001 555 60005
AAXX 04001 08560 32/// /3402 10062 20047 39593 40372 52004 555 60005
AAXX 04001 08561 32970 03603 10065 20051 30113 40355 50003 555 60007
AAXX 04001 08562 32/// /3603 10079 20052 30045 40348 52004 333 91105 555 60005
AAXX 04001 08567 32/// /1301 10071 20063 39686 40368 52001 555 60005
AAXX 04001 08568 32/// /3206 10029 20009 38766 48628 52004 333 91010 91111 555 60005
AAXX 04001 08570 32/// /2902 10064 20041 39887 40360 54000 555 60005
AAXX 04001 08571 32/// /0306 10075 20037 39632 40352 57002 333 91109 555 60005
AAXX 04001 08575 32/// /3001 10068 20056 39533 40364 52004 555 60005
AAXX 04001 08579 32/// /2401 10120 20070 30228 40356 52001 555 60005
AAXX 04004 64400 32457 82004 10257 20228 30096 40115 888// 333 0//00 59012 82810 88630
AAXX 04004 64401 32660 51804 10234 20210 39748 40119 85500 333 0//00 59008 85640
AAXX 04004 64450 32958 72802 10238 20205 39757 40109 8703/ 333 0//00 59002 87363
AAXX 04001 14235 12460 2//// 10038 20038 39049 48500 57022 60001 82100
AAXX 04001 14246 NIL
AAXX 04001 14314 NIL
AAXX 04001 14323 NIL
AAXX 04001 14324 NIL
AAXX 04001 14328 NIL
AAXX 04001 14330 NIL
AAXX 04001 14438 NIL
AAXX 04001 14443 NIL
AAXX 04001 14447 NIL
AAXX 04001 14472 NIL
AAXX 04004 60370 NIL
AAXX 04001 60371 16/// /1703 10101 20085 69921
AAXX 04001 60372 36/// /0000 10097 20097
AAXX 04001 60373 NIL
AAXX 04001 60374 NIL
AAXX 04001 60376 NIL
AAXX 04001 60379 NIL
AAXX 04001 60380 NIL
AAXX 04001 60381 NIL
AAXX 04001 60393 NIL
AAXX 04001 60394 NIL
AAXX 04001 60593 NIL
AAXX 04001 60595 NIL
AAXX 04001 60605 NIL
AAXX 04001 60613 NIL
AAXX 04001 60623 NIL
AAXX 04004 60624 36/// /0000 10130 21044
AAXX 04004 60639 NIL
AAXX 04004 60645 36/// /0000 10142 20008
AAXX 04001 50844 32962 02701 11212 21239 40310 52008 333 00101
AAXX 04001 50854 32962 02901 11195 21217 40295 52012 333 00102
AAXX 04001 50968 32962 02203 11214 21234 40297 52015 333 00103
AAXX 04001 51379 32980 01603 11232 21268 40361 57006 333 05456 79999 92512
AAXX 04001 51467 NIL
AAXX 04001 51495 32980 03605 11136 21216 40356 57005 333 05600
AAXX 04001 53480 32980 02502 11189 21247 40446 57003 333 00100
AAXX 04001 53673 32980 01101 11138 21218 40423 54000 333 00353
AAXX 04001 53698 32965 02902 11037 21209 40379 52010 333 00301
AAXX 04001 53898 32962 02701 11090 21121 40385 52011 333 00356
AAXX 04001 54308 32980 03406 11141 21227 40393 52008 333 00451
AAXX 04001 54602 32960 01602 11108 21179 40370 52009 333 00453
AAXX 04001 54725 32967 03601 11096 21188 40372 52011 333 00451
AAXX 04001 54751 32570 73406 11033 21113 40334 52018 87400 333 00500 31046
AAXX 04001 54916 32962 03201 11064 21135 40379 52016 333 00452
AAXX 04001 57014 32970 02701 11113 21130 40405 54000 333 05154 31019
AAXX 04001 57025 32763 20401 11094 21146 40409 52001 82500 333 00057
AAXX 04001 57046 32971 12907 11146 21173 37986 52001 80002 333 00000
AAXX 04001 58208 31959 02501 11047 21071 40382 52015 71000 333 00455
AAXX 04004 60395 12665 30000 10083 20077 40320 58002 60001 83200 333 0//00 83840 95990
AAXX 04004 60444 12565 60000 10052 20032 39196 48601 50000 60001 86200 333 86830 95990
AAXX 04004 60452 12965 0//// 10119 20086 40314 58006 60001 222// 2//// 333 91837
AAXX 04004 60457 12960 00000 10052 20045 40324 58001 60001 333 95990
AAXX 04001 80402 NIL
AAXX 04001 80412 NIL
AAXX 04001 80416 NIL
AAXX 04001 80420 NIL
AAXX 04001 80425 32460 80000 10282 20241 30098 40129 8247/ 333 10334 30/// 56900 58012 83613 85460 555 10130
AAXX 04001 80426 32560 53401 10238 20216 39496 40142 8353/ 333 10290 30/// 5699/ 58014 83630 555 10171
AAXX 04001 80427 32960 00504 10262 20214 39864 40119 333 10340 30/// 58004 555 10133
AAXX 04001 80431 32560 5//// 10250 20192 39623 40104 858// 333 10326 30/// 569// 59001 85820 555 10125
AAXX 04001 80434 NIL
AAXX 04001 80437 11460 60000 10259 20237 30019 40104 69931 70252 8351/ 333 10322 30/// 5699/ 58013 83617 83460 10111
AAXX 04001 80440 32560 50202 10280 20210 39891 40102 852// 333 10336 569// 58002 85820 555 10111
AAXX 04001 80442 NIL
AAXX 04001 80472 32460 33603 10248 20210 39641 40125 81508 333 10314 30/// 56909 59002 81616 555 10143
AAXX 04001 80475 32560 60000 10243 20224 39772 40124 865// 333 10336 30/// 569// 58000 86623 10154
AAXX 04001 80476 32360 1//// 10277 20243 30103 40133 81500 333 10338 30/// 56900 58011 81610
AAXX 04001 80478 NIL
AAXX 04001 80479 NIL
AAXX 04004 71622 17/// ///// 11148 21200 39907 40261 51007 69931 7//4/ 333 11097 21172 70097 555 10070
AAXX 04003 NIL
AAXX 04004 87078 32970 01402 10310 20132 39941 40088 52015 333 10385 20278
AAXX 04004 87393 11570 42304 10258 20185 30045 40107 53009 69971 72998 83375 333 10350 20258 56550 57980 83620 81850
AAXX 04004 87416 32665 30000 10333 20156 39334 40039 53011 81101 333 10393 20280 56107 81840
AAXX 04004 87563 32965 00502 10254 20067 30068 40129 56008 333 10310 20191
AAXX 04004 87640 32965 20000 10217 20127 30030 40141 53009 80001 333 10311 20169 56006 82070
AAXX 04004 87688 32965 40000 10248 20081 30002 40137 56001 80006 333 10319 20167 56000 84270
AAXX 04004 87774 32982 00000 10290 20108 39138 48516 5//// 333 10330 20202
AAXX 04004 87852 32684 62522 10217 20065 39636 40130 51009 82574 333 10275 20154 56656 82640 83070
AAXX 04004 71737 16/// /3006 11220 21252 39643 40197 53016 60001 333 11206 21234 70000
AAXX 04004 71743 46/// /2306 11280 21304 39868 40095 5/009 6///1 333 11172 21285 7////
AAXX 04004 71746 17/// /1706 11125 21149 30022 40253 51004 69931 7//4/ 333 11075 21125 70003 555 10010
AAXX 04004 71748 16/// /2807 11055 21088 39803 40096 51042 60001 333 11018 21134 70000
AAXX 04004 71269 16/// /2109 10036 21028 60001 333 10087 20020 70000
AAXX 04004 71285 46/// /0805 11024 21043 6///1 333 10022 21075 7////
AAXX 04004 71296 16/// /1503 11210 21225 39924 40250 51005 60001 333 11164 70003
AAXX 04004 71299 46/// /1810 11178 21209 39875 40171 56032 6///1 333 11178 21278 7////
AAXX 04004 71465 46/// /0403 11097 21130 30035 40261 50006 6///1 333 11070 21111 7////
AAXX 04004 71480 16/// /1403 11286 21320 30001 40130 58003 60001 333 11240 21344 70011
AAXX 04004 71026 16/// /2313 10056 21042 39305 40155 58005 60001 333 10106 7////
AAXX 04004 71063 16/// /2808 11186 21234 30135 40242 51021 60001 333 11172 21196 70000
AAXX 04004 71903 46/// /2312 10080 20062 39876 49924 5/017 6///1 333 10086 7////
AAXX 04003 87016 32562 20000 10286 20192 39678 40073 53025 81505 333 10359 20256 81620
AAXX 04003 87244 32968 20000 10295 20138 39720 40099 5//// 80004 333 10373 2//// 56006 82070
AAXX 04003 87896 32980 60513 10176 20093 30029 40124 53003 81071 333 10264 2//// 56065 81360 86070
AAXX 04004 71886 16/// /2913 11015 21046 39544 40155 51036 60001 333 10009 21083 70000
AAXX 04004 71682 17/// /0401 11217 21235 39887 40126 58005 69971 7//4/ 333 11176 21244 70012
AAXX 04004 71374 46/// /3016 11054 21075 6///1 333 11014 21056 7////
AAXX 04004 71387 16/// /1302 11200 21228 39761 40167 51017 60001 333 11200 21214 70000
AAXX 04004 71228 16/// /2303 10005 21040 60001 333 10044 21048 70007
AAXX 04004 71155 16/// ///// 11028 21039 60001 333 10017 21076 70000
AAXX 04004 71170 16/// /3017 11004 21039 60001 333 10032 21093 70000
AAXX 04004 71186 46/// /2917 11174 21229 6///1 333 11171 21186 7////
AAXX 04004 71190 46/// /3033 11131 21171 6///1 333 11120 21140 7////
AAXX 04004 71550 16/// /2612 11011 21045 39749 40126 51049 60001 333 10031 21114 70000
AAXX 04004 71576 16/// /0000 11371 21413 39949 40039 56013 60001 333 11341 21381 70000
AAXX 04004 71581 16/// /0000 11235 21258 39720 40236 50008 60001 333 11174 70000
AAXX 04004 71423 16/// /3210 11083 21102 30043 40052 52028 60001 333 11021 21083 70000
AAXX 04004 71434 17/// /1913 11166 21203 39923 49992 56037 69961 7//4/ 333 11165 70006
AAXX 04004 71437 46/// /2705 11123 21197 30161 40261 53011 6///1 333 11097 21143 7////
AAXX 04004 71300 16/// /2904 11195 21244 30111 40241 51021 60001 333 11167 21195 70000
AAXX 04004 71321 16/// /3211 11306 21342 39999 40045 53005 60001 333 11293 21318 70000
AAXX 04004 71322 46/// /0409 11159 21176 39940 49953 53025 6///1 333 11152 21186 7//// 555 10030
AAXX 04004 71331 16/// /2604 11034 21081 60001 333 11014 21161 70000
AAXX 04004 71340 16/// /1305 11020 21036 60001 333 10009 21107 70000
AAXX 04004 71341 16/// ///// 10056 21076 60001 333 10069 20028 70000
AAXX 04004 71342 16/// /2308 10018 21022 60001 333 10064 20001 70000
AAXX 04004 71344 16/// /2212 10024 21043 60001 333 10047 20001 70000
AAXX 04004 71347 17/// /1108 10005 20003 60021 7//4/ 333 10006 21120 70023
AAXX 04004 71348 17/// /1506 10010 20007 60021 7//4/ 333 10013 21049 70018
AAXX 04004 71349 16/// ///// 11028 21051 60001 333 10006 21086 70000
AAXX 04001 40716 12960 00000 11028 21078 38951 40251 53008 60001 333
AAXX 04001 40719 11956 00000 10028 20006 30282 40271 58006 69921 71061 333
AAXX 04001 40721 11420 82707 11010 21017 39680 40244 52042 60041 77376 8662/ 333 86710 88557
AAXX 04001 40858 12960 00106 10156 20090 30168 40179 58002 60001 333
AAXX 04001 40872 11957 03212 10150 20058 30151 40156 53003 60001 70700 222// 00/// 20302 333
AAXX 04001 40877 12960 02805 10158 20130 39547 40078 58002 60001 333
AAXX 04001 40898 12960 03102 10200 20164 30100 40109 57010 60001 222// 00232 10400 333
AAXX 04004 71421 16/// ///// 11167 21185 39317 40041 52028 60001 333 11055 21172 70018
AAXX 04004 71432 16/// /3011 11106 21165 30158 40259 51011 60001 333 11082 21125 70000
AAXX 04004 87593 32960 01606 10186 20139 30132 40159 52008 333 10280 20186
AAXX 04004 87623 32980 00510 10289 20158 39900 40117 53009 333 10356 20243
AAXX 04004 87641 32965 10906 10244 20132 39972 40144 52007 80001 333 10323 20164 56004 81070
AAXX 04004 87645 32965 10908 10220 20100 39948 40151 53009 80002 333 10301 20186 56006 81070
AAXX 04004 87648 32960 00000 10190 20136 30152 40162 53013 333 10282 20190
AAXX 04004 87692 32960 00702 10164 20128 30146 40172 53004 333 10208 20164
AAXX 04004 87715 32770 10000 10300 20172 39782 40086 52003 81100 333 10372 20240 56600 81856
AAXX 04004 87750 32665 50714 10310 21033 30017 40111 53004 81255 333 10366 20259 56365 57881 81840 83360
AAXX 04004 87765 32960 02704 10220 20056 39202 48515 53016 333 10310 20168 96120
AAXX 04004 87784 32580 61405 10280 20129 30093 40116 57003 86300 333 10366 20255 56600 57916 82930 84632
AAXX 04004 87791 32980 61405 10256 20104 30114 40123 52009 80006 333 10370 20216 56000 86270
AAXX 04004 87800 32980 00000 10274 20057 39758 40144 54000 333 10340 20171
AAXX 04004 87803 NIL
AAXX 04004 87828 32980 50504 10220 20114 30080 40130 52015 80005 333 10320 20220 56000 85270
AAXX 04004 87860 32980 60202 10246 20078 30054 40107 53004 80006 333 10306 20246 56006 86270
AAXX 04004 87904 32680 62708 10174 20076 39873 40113 51003 81476 333 10228 20160 56666 81645 83359
AAXX 04004 87909 32980 50506 10200 20050 30042 40115 52012 84076 333 10280 20172 56000 84360
AAXX 04004 87925 32580 82721 10227 20050 30050 40073 53004 82549 333 10250 20156 56559 57300 86630 88170
AAXX 04004 87938 11558 80715 10098 20055 39954 40024 57011 69921 75052 8662/ 333 10140 20098 56009 86720 88550
AAXX 04004 71752 16/// /2503 11140 21193 30033 40261 53014 60001 333 11095 21142 70000
AAXX 04004 89022 42340 71204 11073 21080 39851 49889 52002 8267/ 333 11035 21073 82710 87359
AAXX 04004 89062 42382 81708 10008 21009 39883 49924 57003 885// 333 10020 20008 82608 83615
AAXX 04001 48820 11497 83603 10110 20097 30231 40239 53023 60032 76166 888// 333 01012 20110 3/012 58063 8689 4 88697 96160
AAXX 04001 48823 11497 83403 10108 20104 30230 40233 52024 60052 76166 8772/ 333 01012 20106 3/011 58052 8789 4 88499 96160
AAXX 04004 71107 16/// /1814 10079 20075 39879 49990 58004 60001 333 10085 20054 70000
AAXX 04001 28049 42997 60902 11157 21171 30009 40184 58007 83051
AAXX 04001 28144 41996 83501 11146 21160 30015 40182 58008 77172 8807/
AAXX 04001 28319 42998 00000 11215 21234 30018 40198 53002
AAXX 04001 28321 42998 31601 11201 21220 39968 40189 57001 80002
AAXX 04001 28334 42997 02401 11258 21282 39869 40207 53001
AAXX 04001 28434 41998 40000 11263 21290 39921 40208 53004 70271 80001
AAXX 04001 28552 42998 00000 11232 21255 30047 40171 57002
AAXX 04001 28666 42599 71001 11220 21240 39966 40156 58008 83500
AAXX 04001 28825 41996 80000 11189 21206 30020 40206 53006 77171 8802/
AAXX 04001 29111 32998 01002 11180 21199 30196 40291 57011 333 21189 47030 55000
AAXX 04001 29209 32998 20701 11207 21219 30131 40269 53004 80002 333 21225 47025
AAXX 04001 29551 32997 00000 11164 21183 30094 40289 57010 333 21186 47011
AAXX 04001 29602 32999 00901 11203 21222 30057 40209 57008 333 21206 48015
AAXX 04001 29636 32998 00000 11230 21243 30027 40261 57008 333 21230 47018
AAXX 04001 29654 32999 30301 11151 21164 39616 40266 57003 81041 333 21158 49114
AAXX 04001 29712 32998 01103 11160 21179 30076 40229 57009 333 21161 47020
AAXX 04001 29724 32997 00101 11211 21230 30023 40243 57007 333 21211 48007
AAXX 04001 29726 32998 00000 11247 21272 30078 40263 57008 333 21255 47021
AAXX 04001 29814 32999 01302 11196 21222 30068 40226 54000 333 21196 48014
AAXX 04001 29827 32997 00701 11212 21230 30072 40239 57007 333 21217 47010
AAXX 04001 29923 32999 00000 11275 21300 39966 40274 57005 333 21278 47039 55063
AAXX 04001 29939 32997 21101 11248 21273 39967 40281 52001 80001 333 21257 47029
AAXX 04001 35026 41996 00501 11234 21250 39532 40231 53004 71000
AAXX 04001 36021 32999 01803 11168 21187 30034 40226 57008 333 21197 48011
AAXX 04001 36022 32998 01505 11122 21184 39966 40241 57004 333 21236 47018
AAXX 04001 36038 32999 00701 11222 21235 39804 40287 58005 333 21232 48050 55051
AAXX 04001 36058 32999 01204 11146 21159 39750 40303 52005 333 21149 47006 55035
AAXX 04001 36064 32999 00903 11042 21129 39659 40263 54000 333 21045 47017 55066
AAXX 04001 36229 32999 00000 11301 21318 39113 40438 57001 333 21310 47018 55073
AAXX 04001 36259 32999 00000 11317 21348 38252 48550 57006 333 21317 47002 55075
AAXX 04001 34357 41597 81706 11039 21043 30019 40179 58031 78582 889//
AAXX 04001 34363 42997 22403 11090 21095 30058 40219 58006 82030 333 93608
AAXX 04001 34545 41496 81905 11017 21017 30081 40196 57026 78582 889//
AAXX 04001 34579 41596 72601 11104 21109 30194 40241 52002 71022 8750/
AAXX 04001 34838 42/// /0403 10031 20020 30127 40225 58013
AAXX 04001 34927 42597 82302 10070 20020 30202 40240 55004 885//
AAXX 04001 34949 41497 82504 10009 20001 39686 40243 57006 72671 8455/
AAXX 04001 37001 42597 72110 10080 20045 30196 40237 56007 86530
AAXX 04001 37031 41597 81602 10007 21001 30045 40245 56010 78081 889//
AAXX 04001 37061 41558 82001 11023 21033 30086 40258 55006 71022 885//
AAXX 04001 37085 42596 82702 11005 21028 30288 40316 52003 885//
AAXX 04001 37126 41999 82510 11045 21223 37931 48507 54000 73632 82031
AAXX 04001 37171 42796 80605 10038 21005 30252 40271 57006 8355/
AAXX 04001 37228 42997 01702 11049 21087 39405 40277 55004
AAXX 04001 37470 41496 83202 10007 21004 30296 40271 52009 78582 889//
AAXX 04001 37663 41996 00000 11074 21081 39037 48491 50006 70177
AAXX 04001 23914 42999 31801 11113 21126 39912 40182 56003 83050
AAXX 04001 23921 41497 73602 11135 21155 30074 40200 57010 78588 86930 333 86915
AAXX 04001 23955 12984 80802 11178 21194 30234 40301 57012 69902 80001 333 21180 47035 55000
AAXX 04001 23966 32999 30000 11269 21300 30200 40342 57001 80001 333 21269 47049 55000
AAXX 04001 28138 42999 30401 11154 21169 39588 40192 57005 80001
AAXX 04001 28224 41998 01401 11203 21218 39953 40186 58002 77170
AAXX 04001 28255 42994 00000 11197 21215 30042 40181 57006
AAXX 04001 28440 41597 63401 11155 21170 39812 40184 57002 78582 86900
AAXX 04001 28645 41497 70202 11159 21172 39863 40178 57001 78582 87300
AAXX 04001 28661 42997 00701 11249 21272 30057 40159 58005
AAXX 04001 28722 41596 81802 11157 21167 30056 40196 53003 77372 8802/
AAXX 04001 28748 41958 63201 11218 21236 39919 40181 57002 71022 80001
AAXX 04001 28838 41995 00000 11233 21239 39681 40203 53001 71000
AAXX 04001 29231 32998 00502 11175 21194 30199 40304 57009 333 21180 47030 55000
AAXX 04001 29313 32998 00402 11206 21218 30131 40264 57017 333 21208 47021 55000
AAXX 04001 29612 32998 00902 11169 21182 30068 40230 57002 333 21182 48017 55046
AAXX 04001 29638 31996 53001 11226 21251 30079 40261 57011 71011 80001 333 21238 47019 55051
AAXX 04001 29838 31996 00000 11233 21251 30011 40267 57003 71000 333 21233 47024 55046
AAXX 04001 29846 31908 31402 11197 21203 39857 40274 56002 74840 80001 333 21212 47010
AAXX 04001 36061 32999 00000 11249 21267 39847 40298 53003 333 21249 47046 55063
AAXX 04001 23909 42397 81801 11120 21129 39916 40176 58004 8662/
AAXX 04001 28044 41497 70302 11123 21140 30015 40187 58008 72272 87700
AAXX 04001 28116 41998 00000 11159 21175 39932 40181 57003 70170
AAXX 04001 28240 42998 80000 11196 21216 39850 40201 57002 80004
AAXX 04001 28522 41996 81802 11143 21157 39916 40190 53002 77172 8802/
AAXX 04001 28621 42998 82301 11125 21138 39939 40184 54000 8805/
AAXX 04001 28719 41483 832// 11138 21151 39745 40210 53001 70242 886//
AAXX 04001 29023 32998 80301 11220 21246 30226 40333 57005 80001 333 21220 47032 55000
AAXX 04001 29122 32999 30903 11180 21192 30226 40305 57011 80001 333 21191 47024
AAXX 04001 29328 32998 20701 11189 21207 30128 40279 57009 80002 333 21189 47018 55000
AAXX 04001 29348 32997 00601 11175 21191 30144 40300 57007 333 21179 47026
AAXX 04001 29405 32997 00702 11194 21213 30070 40229 57009 333 21194 47021 55033
AAXX 04001 29418 32998 00701 11184 21203 30069 40240 57015 333 21188 47025 55048
AAXX 04001 29430 32998 00402 11165 21178 30085 40273 57011 333 21165 47037 55006
AAXX 04001 29524 32998 00902 11185 21197 30078 40253 57012 333 21188 47030
AAXX 04001 29605 32998 01302 11187 21193 30052 40204 57007 333 21190 47018 55047
AAXX 04001 29631 32997 00502 11196 21215 30055 40256 57009 333 21196 48023
AAXX 04001 29645 31996 20000 11226 21238 30069 40274 57001 70411 80001 333 21228 47030 55000
AAXX 04001 29706 32998 01603 11186 21205 30058 40216 57001 333 21186 48015 55067
AAXX 04001 29736 31996 00000 11265 21284 39998 40275 57003 71000 333 21265 47020
AAXX 04001 29937 32997 00000 11245 21270 30024 40269 58009 333 21246 47013
AAXX 04001 36034 31996 01202 11224 21242 39961 40262 57008 71000 333 21232 48011
AAXX 04001 36096 31996 60601 11342 21365 39604 40504 57010 77611 82031 333 21342 47012 55035 95090
AAXX 04004 71503 46/// /0603 11298 21331 39863 40148 51005 6///1 333 11228 21299 7////
AAXX 04004 71506 46/// /1102 11235 21260 39157 40078 56002 6///1 333 11225 21285 7////
AAXX 04004 71514 16/// /2907 11029 21057 39476 40182 51022 60001 333 10024 21073 70000
AAXX 04004 04203 46/// /3111 11223 21263 39962 49980 57023
AAXX 04004 04205 45/84 /1201 11264 21340 39964 49988 57025
AAXX 04004 04208 46/// /0208 11230 21273 39918 49964 57026
AAXX 04004 04213 46/// /1807 11214 21277 39826 49943 57016
AAXX 04004 04214 46/// /0702 11166 21272 39900 49933 57013
AAXX 04004 04224 47569 70312 11159 21217 39887 49921 57017 77888 333 87/23
AAXX 04004 04228 NIL
AAXX 04004 04242 46/// /0411 11123 21198 39830 49846 57001
AAXX 04004 04253 46/// /3327 11065 21129 39765 49792 52021
AAXX 04004 04266 46/// /0815 11012 21013 39727 49765 52038
AAXX 04004 04285 46/// /1025 11013 21023 39751 49770 52024
AAXX 04004 04301 46/// /2708 11290 21335 30090 40095 57011
AAXX 04004 04313 46/// /0314 11109 21127 30003 40015 57011
AAXX 04004 04330 46/// /3517 11075 21108 39941 49959 52002 333 91030
AAXX 04004 04351 46/// /0302 11119 21169 39923 49939 57010
AAXX 04004 04373 46/// /0221 11041 21050 39753 49846 57032
AAXX 04004 04382 46/// /3435 11054 21105 39781 49829 54000
AAXX 04004 04416 NIL
AAXX 04004 60595 36/// /0000 11451
AAXX 04001 80402 NIL
AAXX 04001 80412 NIL
AAXX 04001 80416 NIL
AAXX 04001 80420 NIL
AAXX 04001 80425 32460 80000 10282 20241 30098 40129 8247/ 333 10334 30/// 56900 58012 83613 85460 555 10130
AAXX 04001 80426 32560 53401 10238 20216 39496 40142 8353/ 333 10290 30/// 5699/ 58014 83630 555 10171
AAXX 04001 80427 32960 00504 10262 20214 39864 40119 333 10340 30/// 58004 555 10133
AAXX 04001 80431 32560 5//// 10250 20192 39623 40104 858// 333 10326 30/// 569// 59001 85820 555 10125
AAXX 04001 80434 NIL
AAXX 04001 80437 11460 60000 10259 20237 30019 40104 69931 70252 8351/ 333 10322 30/// 5699/ 58013 83617 83460 10111
AAXX 04001 80440 32560 50202 10280 20210 39891 40102 852// 333 10336 569// 58002 85820 555 10111
AAXX 04001 80442 NIL
AAXX 04001 80472 32460 33603 10248 20210 39641 40125 81508 333 10314 30/// 56909 59002 81616 555 10143
AAXX 04001 80475 32560 60000 10243 20224 39772 40124 865// 333 10336 30/// 569// 58000 86623 10154
AAXX 04001 80476 32360 1//// 10277 20243 30103 40133 81500 333 10338 30/// 56900 58011 81610
AAXX 04001 80478 NIL
AAXX 04001 80479 NIL
AAXX 04001 13463 32970 00501 10022 20006 30198 40259 57007
AAXX 04001 13459 32970 33602 11002 21002 39495 40287 57004 83030 89399
AAXX 04001 13461 NIL
AAXX 04001 13363 NIL
AAXX 04004 71421 16/// ///// 11167 21185 39317 40041 52028 60001 333 11055 21172 70018
AAXX 04004 71432 16/// /3011 11106 21165 30158 40259 51011 60001 333 11082 21125 70000
AAXX 04004 71903 46/// /2312 10080 20062 39876 49924 5/017 6///1 333 10086 7////
AAXX 04004 71886 16/// /2913 11015 21046 39544 40155 51036 60001 333 10009 21083 70000
AAXX 04004 71269 16/// /2109 10036 21028 60001 333 10087 20020 70000
AAXX 04004 71285 46/// /0805 11024 21043 6///1 333 10022 21075 7////
AAXX 04004 71296 16/// /1503 11210 21225 39924 40250 51005 60001 333 11164 70003
AAXX 04004 71299 46/// /1810 11178 21209 39875 40171 56032 6///1 333 11178 21278 7////
AAXX 04004 71622 17/// ///// 11148 21200 39907 40261 51007 69931 7//4/ 333 11097 21172 70097 555 10070
AAXX 04004 71737 16/// /3006 11220 21252 39643 40197 53016 60001 333 11206 21234 70000
AAXX 04004 71743 46/// /2306 11280 21304 39868 40095 5/009 6///1 333 11172 21285 7////
AAXX 04004 71746 17/// /1706 11125 21149 30022 40253 51004 69931 7//4/ 333 11075 21125 70003 555 10010
AAXX 04004 71748 16/// /2807 11055 21088 39803 40096 51042 60001 333 11018 21134 70000
AAXX 04004 71026 16/// /2313 10056 21042 39305 40155 58005 60001 333 10106 7////
AAXX 04004 71063 16/// /2808 11186 21234 30135 40242 51021 60001 333 11172 21196 70000
AAXX 04004 71300 16/// /2904 11195 21244 30111 40241 51021 60001 333 11167 21195 70000
AAXX 04004 71321 16/// /3211 11306 21342 39999 40045 53005 60001 333 11293 21318 70000
AAXX 04004 71322 46/// /0409 11159 21176 39940 49953 53025 6///1 333 11152 21186 7//// 555 10030
AAXX 04004 71331 16/// /2604 11034 21081 60001 333 11014 21161 70000
AAXX 04004 71340 16/// /1305 11020 21036 60001 333 10009 21107 70000
AAXX 04004 71341 16/// ///// 10056 21076 60001 333 10069 20028 70000
AAXX 04004 71342 16/// /2308 10018 21022 60001 333 10064 20001 70000
AAXX 04004 71344 16/// /2212 10024 21043 60001 333 10047 20001 70000
AAXX 04004 71347 17/// /1108 10005 20003 60021 7//4/ 333 10006 21120 70023
AAXX 04004 71348 17/// /1506 10010 20007 60021 7//4/ 333 10013 21049 70018
AAXX 04004 71349 16/// ///// 11028 21051 60001 333 10006 21086 70000
AAXX 04004 71423 16/// /3210 11083 21102 30043 40052 52028 60001 333 11021 21083 70000
AAXX 04004 71434 17/// /1913 11166 21203 39923 49992 56037 69961 7//4/ 333 11165 70006
AAXX 04004 71437 46/// /2705 11123 21197 30161 40261 53011 6///1 333 11097 21143 7////
AAXX 04004 71228 16/// /2303 10005 21040 60001 333 10044 21048 70007
AAXX 04004 71374 46/// /3016 11054 21075 6///1 333 11014 21056 7////
AAXX 04004 71387 16/// /1302 11200 21228 39761 40167 51017 60001 333 11200 21214 70000
AAXX 04004 71682 17/// /0401 11217 21235 39887 40126 58005 69971 7//4/ 333 11176 21244 70012
AAXX 04004 71550 16/// /2612 11011 21045 39749 40126 51049 60001 333 10031 21114 70000
AAXX 04004 71576 16/// /0000 11371 21413 39949 40039 56013 60001 333 11341 21381 70000
AAXX 04004 71581 16/// /0000 11235 21258 39720 40236 50008 60001 333 11174 70000
AAXX 04004 71155 16/// ///// 11028 21039 60001 333 10017 21076 70000
AAXX 04004 71170 16/// /3017 11004 21039 60001 333 10032 21093 70000
AAXX 04004 71186 46/// /2917 11174 21229 6///1 333 11171 21186 7////
AAXX 04004 71190 46/// /3033 11131 21171 6///1 333 11120 21140 7////
AAXX 04004 71752 16/// /2503 11140 21193 30033 40261 53014 60001 333 11095 21142 70000
AAXX 04004 71465 46/// /0403 11097 21130 30035 40261 50006 6///1 333 11070 21111 7////
AAXX 04004 71480 16/// /1403 11286 21320 30001 40130 58003 60001 333 11240 21344 70011
AAXX 04001 80001 11470 70307 10270 20223 30159 40160 60031 70162 81206 333 10288 561/0 58017 81820 87070
AAXX 04001 80002 NIL
AAXX 04001 80009 31560 40205 10270 20215 30102 40107 70500 81831 333 10328 56110 58011 81820
AAXX 04001 80022 31565 30105 10258 20232 30120 40122 70520 81101 333 10302 561/0 58020 81820 83070
AAXX 04001 80028 31460 50207 10255 20231 30096 40131 70510 83505 333 10292 561/9 58014 83612 84270
AAXX 04001 80035 31565 40403 10254 20235 30144 40149 70500 84100 333 10296 561// 58025 84820
AAXX 04001 80036 31568 40505 10274 20207 70510 82832 333 10332 56000 82820 84270
AAXX 04001 80063 31562 33003 10264 20231 70521 81411 333 10318 56700 81620
AAXX 04001 80084 31459 53603 10268 20235 70522 82805 333 10300 564/9 82815 83270
AAXX 04001 80091 NIL
AAXX 04001 80094 01220 62703 10196 20190 38817 60011 72165 83870 333 10244 5699/ 58007 60017 83805 83357
AAXX 04001 80097 32462 83603 10240 20218 39770 40120 8357/ 333 10288 5699/ 58016 83617 85457
AAXX 04001 80099 31568 20000 10266 20222 39922 40066 70510 82601 333 10328 563/9 58001 82730
AAXX 04001 80110 NIL
AAXX 04001 80112 01459 80302 10148 20140 37912 69961 72065 8587/ 333 10192 56009 58008 69957 85812 86358
AAXX 04001 80139 NIL
AAXX 04001 80144 NIL
AAXX 04001 80149 NIL
AAXX 04001 80222 31462 83103 10135 20117 37521 70522 84875 333 10207 56999 58001 84817 83458
AAXX 04001 80211 01560 80000 10190 20184 60121 75095 8572/ 333 10268 5682/ 60127 85722 84459
AAXX 04001 80214 NIL
AAXX 04001 80222 31462 83103 10135 20117 37521 70522 84875 333 10207 56999 58001 84817 83458
AAXX 04001 80234 NIL
AAXX 04001 80241 NIL
AAXX 04001 80259 31560 73005 10242 20173 39052 70522 82936 333 10292 56449 57991 58001 82830 83359 85070
AAXX 04001 80315 31562 70501 10276 20196 39582 40079 71522 82275 333 10327 56229 58018 82830 86461
AAXX 04001 80342 NIL
AAXX 04001 80370 NIL
AAXX 04001 80398 01460 80000 10238 20233 30023 40119 60011 71552 8557/ 333 10278 5699/ 58008 69977 85613 86458
AAXX 04001 48892 32598 20205 10264 20238 30129 40134 53009 82200 333 20262 58005 82895
AAXX 04001 48870 32474 73202 10222 20179 30157 40164 53015 878// 333 00022 20215 3/020 58004 83894 87696
AAXX 04001 48877 32570 72902 10222 20174 30150 40155 52016 878// 333 00022 20207 3/020 58000 83895 86697
AAXX 04001 48887 32770 53602 10215 20193 30134 40140 52013 81508 333 00022 20213 3/020 58008 81697 85299
AAXX 04001 48920 11698 73610 10258 20242 30126 40129 53016 69912 72582 879// 222// 00282 2//03 333 20255 58005 82996 85697
AAXX 04004 91648 11599 83213 10272 20236 40105 60061 71468 8337/ 333 20250 5679/ 70021
AAXX 04004 91648 11599 21013 10296 20237 4//// 60001 70110 81101 333 20236 562/9 70019
AAXX 04004 91648 11599 83213 10272 20236 40105 60061 71468 8337/ 333 20250 5679/ 70021
AAXX 04004 91648 11599 21013 10296 20237 4//// 60001 70110 81101 333 20236 562/9 70019
AAXX 04003 87532 32970 10908 10284 20149 39950 40116 52013 81360 333 10354 20226 56050 81360
AAXX 04001 80400 NIL
AAXX 04001 80403 32460 10705 10270 20249 30122 40141 82200 333 10330 30/// 56900 58011 81816 10143
AAXX 04001 80405 NIL
AAXX 04001 80407 NIL
AAXX 04001 80410 32460 10902 10232 20201 39455 40137 81500 333 10288 56900 58006 81616 555 10168
AAXX 04001 80413 32460 40501 10263 20169 39638 40127 84600 333 10319 30/// 56900 59007 84713 555 10156
AAXX 04001 80415 32460 70000 10250 20239 30007 40130 875// 333 10289 30/// 569// 58018 87613 555 10133
AAXX 04001 80419 NIL
AAXX 04001 80421 NIL
AAXX 04001 80423 32460 9//// 10255 20220 30095 40112 82500 333 10312 30/// 56200 58008 82610 10111
AAXX 04001 80428 32460 70000 10290 20210 39917 40101 875// 3333 10334 30/// 569// 58002 87617 555 10113
AAXX 04001 80432 NIL
AAXX 04001 80435 NIL
AAXX 04001 80438 31350 82303 10186 20170 38538 48535 71022 887// 333 10264 30/// 569// 58005 88710 555 10228
AAXX 04001 80444 32360 50903 10290 2//// 30070 4//// 855// 333 10310 30/// 562// 58008 85610 555 10118
AAXX 04001 80447 11460 60000 10237 20229 39682 40106 60111 70286 865// 333 10280 30/// 569// 59006 86617 555 10154
AAXX 04001 80448 32960 00000 10272 20213 3//// 4//// 333 10320 30///
AAXX 04001 80450 32960 50000 10290 20223 30055 40110 80008 333 10325 30/// 56009 59011 555 10107
AAXX 04001 80453 NIL
AAXX 04001 80457 32460 7//// 10319 20127 30020 40105 8452/ 333 10352 30/// 5699/ 58005 84616 83459 555 10105
AAXX 04001 80462 NIL
AAXX 04001 22140 41497 81007 11078 21128 30095 40111 57025 78583 889// 333 91008 91114
AAXX 04001 22004 41580 81412 11063 21094 39929 40040 58013 73683 889// 333 91018 91122
AAXX 04001 22100 41598 81103 11053 21082 39883 40030 57008 77173 8802/ 333 91006 91112
AAXX 04001 22213 41482 81007 11096 21122 39900 40073 57013 78583 889// 333 85712 91010 91113
AAXX 04001 22003 41599 31312 11069 21085 30066 40076 57011 73631 81539 333 91015 91119
AAXX 04001 28216 41596 80000 11169 21175 39882 40184 57002 71041 886//
AAXX 04001 28428 41996 80000 11174 21179 39998 40197 52001 77172 8807/
AAXX 04001 28451 42996 00202 11183 21200 30001 40172 57003
AAXX 04001 28537 42496 81801 11167 21178 39749 40196 53003 886//
AAXX 04001 28541 42983 00000 11188 21207 39661 40191 57001
AAXX 04001 28615 41997 00000 11166 21178 30026 40194 52004 70271
AAXX 04001 28655 42998 03201 11212 21233 39931 40173 54000
AAXX 04001 28756 42997 00000 11264 21288 30005 40170 51004
AAXX 04001 29557 32998 01801 11193 21212 39999 40287 57009 333 21213 48006
AAXX 04001 29625 32998 01002 11191 21203 30052 40245 57010 333 21192 47021
AAXX 04001 29813 32999 31403 11184 21203 30019 40211 57004 80001 333 21184 47016
AAXX 04001 29822 31994 30000 11272 21290 30075 40258 57011 71000 80001 333 21280 47018 55060
AAXX 04001 29915 32998 01603 11188 21207 30051 40221 57009 333 21195 48011
AAXX 04001 36020 32998 01605 11115 21177 30030 40239 53003 333 21170 48016 55065
AAXX 04004 84204 11665 81808 10242 20228 60081 72164 8481/ 333 10330 555 10075 30092
AAXX 04004 84140 31530 83204 10237 20225 30044 40129 71322 8532/ 333 10279 58021 555 30093
AAXX 04004 84072 11450 81404 10129 20116 37310 69911 76354 8372/ 333 10216 58009 555 10001 30091
AAXX 04004 84105 11440 80902 10228 20225 31003 60011 76566 887// 333 10271 58002 555 10010 30098
AAXX 04004 84088 11110 80000 10100 20092 37078 60141 76069 887// 333 10174 58003 555 10144 30095
AAXX 04004 84008 32670 71804 10254 20220 30117 40127 81530 00221 333 10290 59001 555 30082
AAXX 04004 84202 32470 80000 10263 20212 30159 8751/ 333 10295 58018 555 30074
AAXX 04004 84036 12575 80000 10124 20110 69991 888// 333 10182 555 10009 30092
AAXX 04004 84160 11460 80904 10120 20098 37272 69901 76054 888// 333 10231 58010 555 1 T 30087
AAXX 04004 84270 11562 70000 10148 20133 60061 74062 84432 333 10207 555 10057 30091
AAXX 04004 84076 31460 72702 10140 20122 72994 87400 333 10216 555 30089
AAXX 04004 84050 11360 81804 10228 20223 60021 75166 887// 333 10255 555 10018 30097
AAXX 04004 84143 11450 80000 10120 20111 37410 60111 75096 888// 333 10229 58012 555 10110 30094
AAXX 04004 84226 11/90 90000 10088 20088 60031 75055 89/// 333 10150 555 10030 30100
AAXX 04004 84056 11260 82304 10110 20103 60071 72164 884// 333 10204 555 10074 30096
AAXX 04004 84132 32670 60000 10258 20239 39877 82202 333 10332 58004 555 30089
AAXX 04004 84179 31560 60000 10222 20203 39055 71344 86300 333 10274 58004 555 30089
AAXX 04004 84001 31560 71208 10251 20206 30101 40121 70544 87500 333 10286 58002
AAXX 04004 84010 32680 81404 10246 20209 8553/ 333 10286
AAXX 04004 84071 11140 81302 10130 20114 37293 47144 69981 74064 885// 333 10189 58007 555 10008
AAXX 04004 84117 31560 72906 10261 20228 30111 40135 70544 85230 333 10292 58018
AAXX 04004 84123 11256 80602 10120 20107 37314 47151 60021 76062 885// 333 10246 58015 555 10024
AAXX 04004 84203 11460 72009 10249 20212 30113 40118 60071 71565 85530 333 10316 58017
AAXX 04004 84239 11462 70000 10148 20118 37551 47157 60031 70296 83430 333 10202 58010 555 10031
AAXX 04004 84252 31562 33003 10273 20228 30118 40126 71544 888// 333 10327 58012
AAXX 04001 23226 42660 81403 11076 21126 30012 40236 57013 885// 333 88634
AAXX 04001 23701 41484 81401 11103 21109 30031 40167 56009 70272 885// 333 88610
AAXX 04001 28909 42999 80000 11170 21183 30107 40214 54000 8802/
AAXX 04004 64700 31929 30210 10205 20010 39802 40140 70600 80002 333 0//00 58000 87075
AAXX 04004 64750 32960 73010 10215 20076 39691 40095 80002 333 0//00 58000 87075
AAXX 04004 64700 31920 30210 10205 20010 39802 40140 70600 80002 333 0//00 58000 87075
AAXX 04004 64750 32960 73010 10215 20076 39691 40095 80002 333 0//00 58000 87075
AAXX 04004 48360 32958 01202 10220 20162 39885 40149 52019 333 20200 58014
AAXX 04004 48440 31940 80000 10245 20235 30084 40134 52017 71022 80007 333 20245 58019
AAXX 04001 80400 NIL
AAXX 04001 80403 32460 10705 10270 20249 30122 40141 82200 333 10330 30/// 56900 58011 81816 10143
AAXX 04001 80405 NIL
AAXX 04001 80407 NIL
AAXX 04001 80410 32460 10902 10232 20201 39455 40137 81500 333 10288 56900 58006 81616 555 10168
AAXX 04001 80413 32460 40501 10263 20169 39638 40127 84600 333 10319 30/// 56900 59007 84713 555 10156
AAXX 04001 80415 32460 70000 10250 20239 30007 40130 875// 333 10289 30/// 569// 58018 87613 555 10133
AAXX 04001 80419 NIL
AAXX 04001 80421 NIL
AAXX 04001 80423 32460 9//// 10255 20220 30095 40112 82500 333 10312 30/// 56200 58008 82610 10111
AAXX 04001 80428 32460 70000 10290 20210 39917 40101 875// 3333 10334 30/// 569// 58002 87617 555 10113
AAXX 04001 80432 NIL
AAXX 04001 80435 NIL
AAXX 04001 80438 31350 82303 10186 20170 38538 48535 71022 887// 333 10264 30/// 569// 58005 88710 555 10228
AAXX 04001 80444 32360 50903 10290 2//// 30070 4//// 855// 333 10310 30/// 562// 58008 85610 555 10118
AAXX 04001 80447 11460 60000 10237 20229 39682 40106 60111 70286 865// 333 10280 30/// 569// 59006 86617 555 10154
AAXX 04001 80448 32960 00000 10272 20213 3//// 4//// 333 10320 30///
AAXX 04001 80450 32960 50000 10290 20223 30055 40110 80008 333 10325 30/// 56009 59011 555 10107
AAXX 04001 80453 NIL
AAXX 04001 80457 32460 7//// 10319 20127 30020 40105 8452/ 333 10352 30/// 5699/ 58005 84616 83459 555 10105
AAXX 04001 80462 NIL
AAXX 04004 48350 31658 80000 10208 20195 39845 40150 52022 71022 86536 333 20205 58009
AAXX 04001 56146 11880 50402 11096 21121 36711 52001 60041 70070 81402 333 00257 31010 70105 92515
AAXX 04001 56444 32678 72702 11055 21073 36779 57001 874// 333 00154 31050 70001
AAXX 04001 56492 32770 82901 10049 20005 39905 40329 54000 885// 333 00451 30044 70025
AAXX 04001 56571 32680 80000 10042 21038 38434 52006 888// 333 00753 30045 70028
AAXX 04001 57799 31958 72902 10023 20000 30271 40365 52015 71000 8703/ 333 00953 30026 70020
AAXX 04001 57866 11764 80403 10024 21016 30141 40359 52014 69901 76000 885// 333 00752 30025 70037
AAXX 04001 57957 11457 80205 10031 20003 30127 40336 52015 69971 76076 885// 333 00753 30030 70013
AAXX 04001 57993 32760 83402 10035 21011 30171 40346 52019 885// 333 00954 30034 70076
AAXX 04001 58027 32962 02902 11041 21132 30315 40370 52016 333 00453 31035
AAXX 04001 58141 31957 02701 11045 21095 30347 40367 52017 70500 333 00554 31029
AAXX 04001 58265 31957 02904 11028 21097 30344 40350 52018 70500 333 00654 31044
AAXX 04001 58472 32466 23410 10008 21065 30238 40337 52019 82100 333 00654 31021 91122 91534
AAXX 04001 58477 32965 00204 10016 21119 30292 40339 52019 333 00654 31027
AAXX 04001 58527 32960 00701 10001 21072 30287 40368 52019 333 00957 31022 79999
AAXX 04001 58633 31950 00702 11004 21026 30258 40364 52021 71000 333 00856 31007 70016
AAXX 04001 58666 11965 23410 10019 21077 30225 40332 52024 69901 70060 82030 333 00755 30001 70027 91120 91536
AAXX 04001 58725 32662 82903 10031 21015 30061 40336 52013 885// 333 00754 30034 70057
AAXX 04001 58921 11665 83604 10051 20030 30059 40317 52014 60031 70060 885// 333 00755 70101
AAXX 04001 59082 11665 80205 10049 20021 30167 40321 52014 60021 70060 885// 333 00855 70048
AAXX 04001 59211 11473 80401 10082 20055 30079 40294 52016 69911 76060 884// 333 00853 70055
AAXX 04001 59265 11762 80704 10057 20023 30150 40295 52015 69921 72160 885// 333 00756 70007
AAXX 04001 59293 32575 80206 10066 21002 30213 40302 52021 8787/ 333 00856
AAXX 04001 59501 32765 80203 10108 20049 30240 40262 52022 885// 333 00453
AAXX 04001 59663 32675 80206 10102 20046 30141 40251 52015 885// 333 00555
AAXX 04001 59838 11562 70406 10170 20150 30193 40203 52024 69901 76000 878// 333 00453 79999
AAXX 04001 59948 32374 70710 10174 20161 39705 40195 52015 878// 333 00151
AAXX 04001 59981 11578 70405 10231 20206 30168 40175 52018 69921 72500 87200 333 00100 70002
AAXX 04001 60381 36/// /2201 10091 20082
AAXX 04001 60639 36/// /3212 10110 20016
AAXX 04001 60605 36/// /0602 10118 20015
AAXX 04001 50353 31950 60000 11317 21352 30033 40286 52006 70400 80002 333 05300 92508
AAXX 04001 50557 32965 01601 11292 21324 39961 40305 52006 333 05203 92504
AAXX 04001 50756 31956 03201 11222 21239 39961 40291 52007 71000 333 05101 92510
AAXX 04001 50949 32962 02201 11212 21246 30119 40307 52013 333 00251
AAXX 04001 50963 32962 02706 11226 21254 30118 40270 52015 333 00005 92502
AAXX 04001 50978 32970 02703 11199 21225 39857 40237 52011 333 05303
AAXX 04001 51087 32980 02501 11230 21261 39300 40368 57009 333 05401 92520
AAXX 04001 51156 NIL
AAXX 04001 51644 NIL
AAXX 04001 51656 NIL
AAXX 04001 51886 32980 00000 11223 21303 37100 57002 333 05252
AAXX 04001 52602 32980 02002 11229 21354 37259 57005 333 05102
AAXX 04001 52713 32980 01101 11221 21316 36890 57003 333 05151
AAXX 04001 52754 32980 23404 11195 21242 36769 57004 80002 333 05100
AAXX 04001 52818 32980 02501 11150 21245 37225 57003 333 05200
AAXX 04001 52836 32980 01602 11178 21290 36873 57001 333 05200
AAXX 04001 52955 32980 00000 11227 21264 36960 57001 333 05156
AAXX 04001 53068 32980 02002 11254 21287 39154 40433 57007 333 05353
AAXX 04001 53276 32980 02005 11198 21260 38955 40442 57004 333 05102
AAXX 04001 54135 32975 02702 11188 21232 30095 40340 52014 333 00455 79999
AAXX 04001 54236 32980 02903 11165 21217 30217 40333 52012 333 00552 70002 92501
AAXX 04001 54539 32970 02902 11093 21207 30342 40358 52014 333 00551
AAXX 04001 54662 32970 03606 11089 21170 30212 40335 52020 333 00551 31046 70002 92504
AAXX 04001 54753 32568 73405 11026 21121 30332 40339 52017 87400 333 00551 31043 79999
AAXX 04001 54857 32960 73406 11054 21117 30248 40347 52023 80002 333 00552
AAXX 04001 57067 32970 60000 11111 21153 39689 40421 52007 80002 333 00260
AAXX 04001 57178 32965 10201 11054 21090 30223 40392 52011 81032 333 00457 31027
AAXX 04001 57245 32968 00401 11030 21044 30011 40382 52011 333 00358 31047
AAXX 04001 57297 32960 03201 11030 21138 30235 40384 52010 333 00454
BBXX V7QN8 04003 99039 31182 41297 30910 10280 2027/ 40110 54/// 70322 83889 22253 04280 20601 309// 40601 5//// 6//// 80270 ICE /////
AAXX 04001 40650 42960 02802 10056 20046 40238 50001
AAXX 04001 40608 42960 00000 10022 20011 40248 58006
AAXX 04001 40642 42960 00000 10028 21018 40266 51000
AAXX 04001 40629 42960 02602 10038 20017 40258 52006
AAXX 04001 40665 41957 03004 10084 20077 40228 58003 71000
AAXX 04001 40672 42960 00000 10076 20051 40239 54001
AAXX 04001 40674 42960 03405 10068 20006 40229 54000
AAXX 04001 40689 42960 02706 10100 20062 40220 54000
AAXX 04001 40691 42960 02403 10085 20042 40226 54000
AAXX 04001 40664 42960 03203 10080 20057 40224 54000
AAXX 04001 40643 42960 02304 10025 21003 40272 58002
AAXX 04001 40690 42960 02905 10095 20061 40212 50000
AAXX 04001 40670 42960 00000 10070 20047 40224 58007
AAXX 04001 40656 42960 02902 10058 20043 40211 54000
AAXX 04001 40631 42960 00000 10065 20042 40253 51004
AAXX 04001 40676 42960 02905 10090 20054 40226 58003
AAXX 04001 40603 42960 03006 10046 20000 40270 56006
AAXX 04004 91945 36/// /3608 10293 20225 30132 40137 58019 333 20226 59018
AAXX 04001 89062 42382 81708 10008 21009 39883 49924 57003 885// 333 10020 20008 82608 83615
BBXX 41037 04001 99340 70775 46/// /3114 10047 40198 53017 90000 22200 00191 333 91216
BBXX 42362 04001 99278 70907 46/// /0404 10128 20017 40322 90015
BBXX 42363 04001 99282 70892 46/// /0406 10111 20006 40315 90015 333 91207
BBXX 42364 04001 99291 70881 46/// /3413 10100 21006 40319 90015
BBXX 62442 04004 99490 70164 46/// /2914 1//// 2//// 40306 53023 22200 00120
BBXX 62303 04004 99516 70051 46/// /3127 10092 20035 40148 52038 22200 00108 10809 70044 333 90710 91138
BBXX 62029 04004 99487 70125 46/// /3118 10110 20050 40250 58008 22200 00121 11013 70065 333 90710 91127
BBXX 62163 04004 99475 70084 46/// /3121 10109 20044 40272 51027 22200 00123 11113 70064 333 90710 91128
BBXX 62301 04004 99524 70047 46/// /2925 10076 20029 40126 52048 22200 00086 10608 70040 333 90710 91138
BBXX 62001 04004 99452 70050 46/// /3011 10131 20123 40264 53018 22200 00134 11014 70070 333 90710 91139
BBXX 64045 04004 99591 70117 46/// /2928 10073 21003 49984 52027 22200 00099 10912 70062 333 90710 91139
BBXX 62105 04004 99554 70121 46/// /2929 10086 20039 40106 52032 22200 00105 11016 70078 333 90710 91144
BBXX 62081 04004 99510 70134 46/// ///// 10101 20057 40250 53031 22200 00117 11116 70079
BBXX 64046 04004 99605 70049 46/// /3125 10052 20012 49880 51034 22200 00077 10707 70037
BBXX 62027 04004 99491 70022 46/// /3026 1//// 2//// 40177 51016 22200 00107 10807 329// 70035
BBXX 62114 04004 99583 10000 46/// /2934 10069 21004 49851 52064 22200
BBXX ZQSD5 04004 99583 10007 46/// /3129 10065 20020 49850 52073 22200 10811 70057
BBXX 62113 04004 99584 10002 47597 /3130 10081 20011 49844 52069 700// 22200
BBXX 62129 04004 99584 10003 46/// ///// 10064 20007 49847 52068 22200
BBXX 62128 04004 99587 10014 47598 /3138 10051 20017 49841 52061 700// 22200 10711 70054
BBXX 63057 04004 99592 10015 47497 /3142 10065 20025 49795 52069 700// 22200 10710 70049
BBXX 63110 04004 99595 10015 47496 /3335 10068 20045 49788 52066 762// 22200 10710 70048
BBXX 63056 04004 99597 10016 47596 /3236 10056 20018 49774 52066 740// 22200 10709 70045
BBXX 64041 04004 99607 70026 47497 /2921 10041 21000 49853 52037 700// 22200 10807 70034
BBXX 62111 04004 99580 70003 46/// /3134 10065 20011 49899 52061 22200 10709 70043
BBXX PJAI 04004 99581 70014 47598 /2825 10069 20011 49897 52056 700// 22200
BBXX 62112 04004 99584 70002 47597 /2920 10066 20008 49859 52058 751// 22200
BBXX 63055 04004 99606 10016 47395 /3124 10049 20037 49771 52060 704// 22200 10707 70035
BBXX 63108 04004 99608 10017 47598 /3431 10063 20017 49764 52057 700// 22200 11007 70037
BBXX 63106 04004 99610 10017 46/// /3231 10055 49765 52042 22200
BBXX 63105 04004 99610 10017 47597 ///// 10058 20014 49763 52041 700// 22200
BBXX 63113 04004 99610 10017 46/// /3333 10059 20015 49766 52046 22200 10708 70041
BBXX 63112 04004 99611 10010 47/98 /3324 10052 21001 49777 52046 700// 22200 10708 70040
BBXX 63107 04004 99611 10017 46/// /3233 10056 49765 52041 22200
BBXX 63101 04004 99612 10009 46/// ///// 22200
BBXX 63103 04004 99612 10011 46/// /3332 10056 20003 49783 52048 22200 10807 70037
BBXX 63104 04004 99612 10016 47498 /3233 10059 20020 49765 52042 700// 22200
BBXX 63117 04004 99613 10011 47598 /3328 10063 20001 49780 52043 700// 22200
BBXX 63115 04004 99616 10013 47598 /3131 10048 20011 49791 52050 700// 22200 10708 70040
BBXX MWYG6 04004 99603 70040 47998 /2826 10049 700// 22200
BBXX 62142 04004 99530 10021 47997 /2530 10062 20009 40005 51006 700// 22200 10606 70028
BBXX 62145 04004 99531 10028 47997 /2329 10066 20007 40009 51012 700// 22200 10608 70038
BBXX 62144 04004 99534 10017 47596 /2532 10061 20017 40016 52010 751// 22200 10607 70034
BBXX 62121 04004 99535 10027 46/// ///// 22200
BBXX 62150 04004 99536 10007 47498 /2726 10059 20017 40008 52022 700// 22200 10504 70022
BBXX 62148 04004 99536 10015 46/// /2515 10064 20020 40005 52014 22200
BBXX 62149 04004 99537 10011 47598 /2626 10063 20019 49995 52016 700// 22200 10606 70030
BBXX 62131 04004 99539 10012 46/// /26// 10061 20025 49984 53014 22200
BBXX 62127 04004 99540 10007 47498 ///// 10053 20022 49984 52016 700// 22200 10606 70030
BBXX 62165 04004 99540 10009 47498 /2717 10058 20024 49987 51016 700// 22200 10607 70034
BBXX 62123 04004 99563 10022 47997 /2837 10072 20020 49874 52051 700// 22200
BBXX 62132 04004 99564 10020 46/// /3235 10070 20015 49919 52047 22200
BBXX 62120 04004 99564 10021 47997 /2938 10067 20032 49885 52053 700// 22200
BBXX 62154 04004 99564 10022 46/// /2933 10067 20014 49882 52049 22200
BBXX 62152 04004 99570 10018 47/97 /3029 10071 20025 49883 52058 700// 22200 10713 70065
BBXX 62134 04004 99580 10014 47597 /3233 10054 20007 49845 52072 700// 22200 10811 70054
BBXX 62102 04004 99579 10018 46/// /2530 10058 20010 49831 52074 22200 10813 70067
BBXX 62117 04004 99579 10000 47397 /2937 10061 20016 49872 52058 700// 22200 10708 70040
BBXX 62143 04004 99577 10018 47998 /3128 10071 20009 49865 52065 700// 22200 10813 70063
BBXX 62118 04004 99577 10009 47997 /2834 10069 20012 49865 52058 700// 22200 10812 70059
BBXX 62155 04004 99577 10007 47497 /2938 10059 20015 49877 52063 762// 22200 10710 70052
BBXX 62116 04004 99576 10011 47597 /3032 10069 20016 49857 52066 700// 22200 10811 70056
BBXX 62104 04004 99574 10013 47596 /2939 10067 20014 49858 52065 762// 22200
BBXX 62153 04004 99573 10020 47997 /2822 10069 20020 49849 52065 700// 22200 10813 70064
BBXX 62122 04004 99573 10016 47597 /2942 10064 20012 49852 52066 700// 22200 10813 70065
BBXX 62140 04004 99573 10013 46/// /30// 10054 20016 49855 52063 22200
BBXX 62146 04004 99572 10021 47/97 /2505 10060 20013 49874 52065 700// 22200 10813 70066
BBXX 62164 04004 99572 10008 47497 /3125 10060 20010 49890 52062 700// 22200 00089 10812 70062
BBXX PJGO 04004 99571 10022 47/97 /2833 10054 49867 52062 700// 22200
BBXX 62133 04004 99571 10009 46/// /3138 10057 21005 49885 52062 22200 10811 70055
BBXX 62119 04004 99570 10019 47597 /3037 10070 20019 49882 52054 700// 22200 10813 70067
BBXX 62123 04004 99563 10022 41/96 /2839 10072 49894 53068 70222 8//// 22200 20302 326// 40620 5////
BBXX 62103 04004 99499 70029 46/98 /3036 10104 20037 40154 53019 22200 00115 10908 70038 333 90710 91149
BBXX 62094 04004 99517 70067 46/// /2826 10086 20044 40168 52039 22200 00104 10809 70044 333 90710 91136
BBXX 62170 04004 99514 10020 46/97 /2540 10084 20026 40076 58001 22200 00105 10602 70011 333 90710 91149
BBXX 62304 04004 99511 10018 46/98 /2635 10085 20025 40085 58001 22200 00105 106// 333 90710 91149
BBXX 62304 04004 99511 10018 46/98 /2635 10085 20025 40087 50000 22200 00105 10603 70014 333 90710 91146
BBXX 62305 04004 99504 10000 46/97 /2834 10098 20034 40133 52011 22200 00113 10805 70025 333 90710 91148
BBXX E5U2123 04003 99309 70149 41498 50912 10175 20138 40309 58010 70200 82174 22244 00193 20302 331// 41204 5//// 80154
BBXX 2AUO5 04003 99606 10017 41296 83338 10055 20036 49768 52041 76266 8/7// 22281 20604 399// 41008 80047
BBXX 62103 04004 99499 70029 46/98 /3034 10105 20039 40158 52020 22200 00115 10908 70038 333 90710 91147
BBXX 62094 04004 99517 70067 46/// /2826 10086 20044 40168 52039 22200 00104 10808 70039 333 90710 91136
BBXX 62107 04004 99501 70061 46/// /3102 10101 20032 40009 52033 22200 01290 333 90710 91152
BBXX 62095 04004 99531 70159 46/// /2721 10094 20052 40214 51025 22200 00111 10913 70064 333 90710 91130
BBXX 62305 04004 99504 10000 46/97 /2834 10098 20034 40133 52012 22200 00113 10805 70025 333 90710 91150
AAXX 04004 41268 36/// /2314 10215 20171 30106 47752 333 0E022 59019
AAXX 04004 40582 32960 03509 10115 20049 40212 58001 333 00011 55300 00000 10239 20000 30000 41054 51294 60000 55407 40000 90467 91015 91115 91209 91307
AAXX 04004 41150 NIL
AAXX 04004 41168 NIL
AAXX 04004 41170 32960 03109 10167 20107 30165 40178 333 58034
AAXX 04004 41176 NIL
AAXX 04004 41184 32960 31904 10162 20118 40132 83010 333 59006 83460
AAXX 04004 41194 12560 32607 10223 20164 30138 40143 60001 83500 333 59003 70000 83623
AAXX 04004 41196 31956 02004 10180 20155 30104 40143 70500 333 59006 70000
AAXX 04004 41198 32983 02713 10215 20151 30097 40126 333 59011
AAXX 04004 41210 NIL
AAXX 04004 41216 NIL
AAXX 04004 41217 31459 23008 10198 20167 30114 40143 70510 82600 333 58008 82717
AAXX 04004 41218 31110 71103 10164 20161 39844 40155 74142 87600 333 58007 87702
AAXX 04004 41226 NIL
AAXX 04004 41244 NIL
AAXX 04004 41246 32960 02702 10195 20118 30123 40128 333 59007
AAXX 04004 41254 36/// /2710 10132 21027 38043 48048 333 0E008 59014
AAXX 04004 41256 32960 02802 10197 20115 30113 40123 333 59013
AAXX 04004 41258 NIL
AAXX 04004 41268 NIL
AAXX 04004 41312 36/// /2902 10188 20158 30099 40139 333 0E/// 59001
AAXX 04004 41314 32960 02103 10132 20102 39646 40163 333 58002
AAXX 04004 41316 32560 10104 10186 20147 30115 40142 81500 333 58001 81625
AAXX 04004 41404 12965 09902 10090 21076 37876 48542 60002 333 58000
AAXX 04004 41407 NIL
AAXX 04004 41431 12960 03403 10220 20195 30116 40129 60002 333 59002
AAXX 04004 41466 NIL
AAXX 04004 41477 NIL
AAXX 04004 41480 12960 03104 10229 20186 30130 40133 60002 333 59001
BBXX 44067 04001 99384 70770 46/// /0406 11019 40231 52045 90000
BBXX 44033 04001 99441 70690 46/30 /3310 11068 40128 53022 90004 22200 00060 10301 70007 333 91213 555 11125 22130
AAXX 04001 38388 NIL
AAXX 04001 38392 42697 73303 11008 21029 30125 40231 52001 87500 333 87635 555 14101
AAXX 04001 38507 42996 40000 11017 21039 30149 40256 52004 84030 555 10104
AAXX 04001 38511 NIL
AAXX 04001 38545 42998 53504 11012 21067 30024 40205 57002 85070 555 14102
AAXX 04001 38647 41496 80000 10003 20000 30198 40242 52013 77172 8872/ 555 1/000 44///
AAXX 04001 38656 NIL
AAXX 04001 38687 42696 73405 11008 21026 39936 40178 57004 555 14100
AAXX 04001 38750 41496 82701 10022 20012 30299 40270 53037 76166 8872/ 555 11003
AAXX 04001 38763 41596 83502 10000 21003 30130 40239 53011 77177 8802/ 333 88523 555 1/000
AAXX 04001 38774 41495 83202 11011 21001 30029 40232 54000 77177 8802/ 555 1/000
AAXX 04001 38799 42597 83404 10014 21003 39952 40188 53003 885// 555 10002
AAXX 04001 38806 42997 73203 10024 20008 39902 40166 57001 80002 555 10003
AAXX 04001 38880 41294 83103 10003 21003 39959 40222 53001 78688 8892/ 333 88503 555 1/000
AAXX 04001 38886 41494 83501 10018 20010 39976 40209 58002 76366 8802/ 555 12002
AAXX 04001 38895 41496 83501 10010 20005 39900 40197 54000 77176 8802/ 555 11000
AAXX 04001 38911 41597 82003 10062 20053 39863 40159 57005 76186 8672/ 555 11006
AAXX 04001 38915 41597 83202 10074 20062 39834 40157 57006 72162 885// 555 12007
AAXX 04001 38974 41497 83403 10016 20008 39856 40199 57006 76166 8872/ 333 88511 555 12003
AAXX 04001 38987 41596 80702 10020 20015 39432 40187 57006 70262 885// 555 12004
AAXX 04001 28688 42997 01001 11226 21244 30003 40178 57002
AAXX 04001 28383 42997 00403 11186 21205 30112 40203 57010
BBXX 46111 04001 99481 71227 46/// /1114 10110 40189 56017 90000 22200 00051
AAXX 04001 28465 42998 00501 11226 21244 30091 40175 57004
AAXX 04001 28696 42997 01101 11196 21215 30044 40195 57007
AAXX 04001 28791 42998 01303 11217 21235 30023 40180 52004
AAXX 04001 28588 41996 01001 11211 21223 30005 40178 57006 71000
AAXX 04001 28586 42997 01003 11211 21229 30026 40188 57005
AAXX 04001 23929 42978 81201 11149 21162 30130 40202 57009 80007
AAXX 04001 29998 32999 01801 11284 21290 38651 48500 57012 333 21285 55046
AAXX 04001 30385 32999 20000 11336 21353 39725 40331 53001 80001 333 21337 55044
AAXX 04001 30469 329// 80000 11306 21324 39496 40347 56015 8801/ 333 21345 47016 55028
AAXX 04001 30636 119// 80000 11234 21240 39642 40305 57066 60022 77177 8805/ 333 21256 47036 55000
AAXX 04001 30650 11970 80000 11271 21288 39102 40331 57008 69992 77171 8802/ 333 21333 47013
AAXX 04001 30664 32999 70000 11316 21333 39240 40351 57005 85043 333 21356 55056
AAXX 04001 30781 21799 50000 11363 21384 39824 40367 54000 80002 333 21370
AAXX 04001 30777 32998 20000 11336 21359 39610 40353 57005 80002 333 21343 47008 55060
AAXX 04001 30844 32999 51101 10299 21317 39284 40378 57015 85030 333 21350 47013
AAXX 04001 30925 329// 01401 11212 21245 39301 40352 57005 333 21220 47001 55074
AAXX 04001 31371 32999 00000 11366 21394 39991 40297 53002 333 21366 55072
AAXX 04001 31388 32999 00000 11366 21382 39974 40280 53005 333 21366 47008 55060
AAXX 04001 31478 NIL
AAXX 04001 31532 32999 00000 11365 21387 39891 40287 53001 333 21374 47019 55073
AAXX 04001 31594 32998 03201 11310 21328 30062 40255 53005 333 21344 47020
AAXX 04001 31655 11996 81602 11261 21273 30145 40197 53006 69900 77171 8802/ 333 21335 47036
AAXX 04001 31754 11998 60000 11291 21316 39652 40209 57003 60010 77172 80007 333 21317
AAXX 04004 89016 46/83 /3410 11057 29087 39448 4//// 5////
AAXX 04004 89003 46/84 /1102 11055 29067 39063 4//// 5////
AAXX 04004 78905 11478 31003 10257 20200 30143 40166 60001 70111 83200 333 10291 20226 59006 70033 83819
BBXX KSDF 04004 99353 10183 41698 72009 10161 20133 40225 57010 71311 8596/ 22263 0//// 20601 324// 40801 5//// 6//// 80144 /////
BBXX V7OX3 04004 99364 50041 41498 22707 10170 20153 40170 54000 7//00 82100 22223 04190 21003 320// 41203 5//// 80160
AAXX 04001 22602 41457 81302 11041 21047 39787 40016 57012 77072 885// 333 88611
BBXX SHIP 04004 99292 11289 41/97 83230 10120 20012 40169 51/// 76162 83577 22215 00240 20305 303// 40806 80070
BBXX SHIP 04004 99126 11267 41898 50616 10270 20257 40193 52015 70300 82331 22243 00285 20402 305// 40402 80260
BBXX SHIP 04004 99192 11299 41497 60522 10260 20232 40176 52012 70222 84943 22283 00260 20705 306// 40805 80240
BBXX SHIP 04004 99045 11298 41797 60705 10284 20274 40105 52/// 70322 81206 22212 04291 10706 301// 40706 80276
AAXX 04004 71727 11559 83012 11180 21214 39967 40174 51014 69921 77177 885// 333 11172 21200 48049 70002 90973
BBXX SHIP 04004 99309 71327 41598 61406 10185 20127 40255 56005 70320 83341 92345 22263 00230 20101 309// 40605 80150
BBXX SHIP 04004 99522 71412 41597 71728 10075 20065 49786 56031 71022 8671/ 90000 22264 00070 20404 318// 40605 80070
BBXX SHIP 04004 99045 11298 41797 60705 10284 20274 40105 52/// 70322 81206 22212 04291 10706 301// 40706 80276
AAXX 04004 82106 21296 80000 10251 20243 3//// 4//// 70362 8553/ 333 10285 29092 55000 5//// 60021
AAXX 04004 82113 32595 61402 10277 20258 3//// 4//// 84340 333 10336 29080 55050 5////
AAXX 04004 82212 32696 80902 10249 20236 30043 40125 886// 333 10293 29092 55000 58031
AAXX 04004 82336 32497 81402 10254 20245 3//// 4//// 84890 333 10294 29093 55009 5////
AAXX 04004 82425 21793 83604 10248 20234 3//// 4//// 70262 887// 333 10306 29092 55/// 5//// 60061
AAXX 04004 82533 31495 50000 10260 20246 3//// 4//// 71322 83370 333 10326 29087 55010 5////
AAXX 04004 82704 21894 60000 10243 20235 39870 40065 70362 86050 333 10266 29095 55000 58016 60111
AAXX 04004 82723 21196 60000 10256 20249 30044 40126 70262 86700 333 10317 29088 55032 58016 60041
AAXX 04004 83552 32995 0//// 10293 20191 39930 40103 333 10360 29054 55119 58010
AAXX 04004 83565 32/94 30000 10286 20209 39618 40074 83/// 333 10342 29055 55120 58026
AAXX 04004 83623 32995 0//// 1//// 2//// 39507 4//// 53026 333 1//// 29/// 55112
AAXX 04004 83630 32997 00000 10208 20186 3//// 4//// 51016 333 10278 29076 55081
AAXX 04004 83676 21997 00502 10240 20223 39450 40071 53003 70296 333 10275 29/// 55073 60051
AAXX 04004 83702 32697 11404 10273 20170 39347 40086 53008 81400 333 10330 29051 55///
AAXX 04004 83704 32997 01802 10288 20186 39655 40053 56006 333 10338 29058 55121
AAXX 04004 83716 32997 01801 10279 20186 39598 40082 53007 333 10328 29/// 55106
AAXX 04004 82042 32697 60000 10269 20250 3//// 4//// 86400 333 10328 29084 55082 5////
AAXX 04004 82240 32696 50000 10271 20250 3//// 4//// 82904 333 10309 29084 55021 5////
AAXX 04004 82317 21193 80000 10238 20238 3//// 4//// 70262 8362/ 333 10263 29099 55000 5//// 60041
AAXX 04004 82610 32190 80000 10247 20238 3//// 4//// 887// 333 10289 29092 55000 5////
AAXX 04004 82807 32894 63602 10246 20232 3//// 4//// 86030 333 10282 29094 55009 5////
AAXX 04004 82899 32570 30806 10269 20212 30130 40142 83200 333 10300 58010
AAXX 04004 71727 11559 83012 11180 21214 39967 40174 51014 69921 77177 885// 333 11172 21200 48049 70002 90973
AAXX 04001 14216 NIL
AAXX 04001 14219 NIL
AAXX 04001 14232 NIL
AAXX 04001 14234 NIL
AAXX 04001 14236 NIL
AAXX 04001 14244 NIL
AAXX 04001 14248 NIL
AAXX 04001 14253 NIL
AAXX 04001 14256 11920 02102 10037 20035 39896 40221 57026 60001 7104/
AAXX 04001 14280 11903 01802 10010 20005 30117 40230 57023 60001 74444
AAXX 04001 14308 NIL
AAXX 04001 14321 NIL
AAXX 04001 14370 11901 00000 11001 21009 30119 40233 57023 60001 74244
AAXX 04001 14382 11905 01601 10016 20006 30116 40239 57018 60001 7424/
AAXX 04001 14428 NIL
AAXX 04001 14441 NIL
AAXX 04001 14452 NIL
AAXX 04001 14454 NIL
AAXX 04001 14462 NIL
AAXX 04001 21432 31998 01204 11280 21311 30139 40160 52015 70230 333 21290 48008
AAXX 04001 21824 11998 82007 11249 21275 30129 40138 53002 69932 73673 8805/ 333 21253 48002
AAXX 04001 21908 12999 10000 11301 21319 30046 40133 53003 69922 80001 333 21301
AAXX 04001 21921 11997 80000 11295 21326 30111 40160 57001 69932 77172 8802/ 333 21296 48040
AAXX 04001 21931 NIL
AAXX 04001 21946 32999 21701 11327 21357 30099 40187 58003 82030 333 21336 47026
AAXX 04001 21982 42998 13401 11257 21281 30198 40228 54000 81040 333 91104
AAXX 04001 25062 42999 22303 11336 21372 30241 40245 58001 80001 333 91105
AAXX 04001 25123 12998 00000 11328 21357 30207 40243 57004 69900 333 21331 47034
AAXX 04001 25138 31999 01101 11387 21413 30127 40267 57004 70270 333 21391 47024 91104
AAXX 04001 25173 41598 23007 11270 21288 30223 40228 58007 73673 82500 333 91111
AAXX 04001 25248 32999 30000 11434 21461 39780 40305 57005 82032 333 21433 47031 91100
AAXX 04001 25282 41976 63308 11278 21290 30181 40188 57006 73631 83031 333 91111
AAXX 04001 25325 NIL
AAXX 04001 25356 42998 20000 11437 21474 30119 40238 58008 80001 333 91000
AAXX 04001 25399 41598 73403 11280 21311 30108 40118 57009 70283 85531 333 91105
AAXX 04001 25428 31950 60000 11438 21468 39899 40290 57010 71022 80001 333 21468 47025 55000 91101
AAXX 04001 25551 42699 61401 11404 21438 30198 40234 57001 81501 333 91102
AAXX 04001 25563 42970 63206 11376 21405 30127 40218 57003 81041 333 91108
AAXX 04001 25594 42998 50000 11274 21285 30073 40128 57017 85030 333 91102
AAXX 04001 25677 42998 32704 11292 21322 30183 40190 57008 83030 333 91105
AAXX 04001 31054 32999 21101 11397 21422 39997 40313 54000 82020 333 21386 47035 55003
AAXX 04001 31123 32998 00301 11374 21401 39961 40335 58011 333 21377 47022
AAXX 0400/ 89329 46/// ///// 11078 38747 4//// 5////
AAXX 0400/ 89799 46/// ///// 11231 4//// 5////
AAXX 0400/ 89314 46/// ///// 11100 38207 4//// 5////
AAXX 04004 71727 11559 83012 11180 21214 39967 40174 51014 69921 77177 885// 333 11172 21200 48049 70002 90973
AAXX 04004 71727 11559 83012 11180 21214 39967 40174 51014 69921 77177 885// 333 11172 21200 48049 70002 90973
BBXX 46088 04001 99483 71232 46/// /1703 10090 40189 90020 22200 00077 10401 20401 70006 333 91205 555 11037 22044 32354 41208 60019 160036 126061 121067 119066 139034 180015
BBXX 46249 04001 99338 71197 46/// ///// 1//// 90007 22200 00151 11504 20802 326// 41504 70021
BBXX 46244 04001 99409 71244 46/// ///// 1//// 90005 22200 00108 11406 21003 328// 41405 70029
BBXX 46243 04001 99462 71241 46/// ///// 1//// 92359 22200 00093 11307 20805 327// 41305 70035
BBXX 46241 04001 99330 71173 46/// ///// 1//// 92341 22200 00151 11702 21001 326// 41701 70008
BBXX 41115 04001 99184 70673 46/// ///// 1//// 90005 22200 10901 20901 70006
BBXX 44100 04001 99363 70756 46/// ///// 1//// 92352 22200 00118 10704 20704 70021
BBXX DCAX2 04003 99287 51309 41297 70625 10240 20226 40175 56005 76462 876// 22223 21205 306// 41205 5//// 80230
BBXX A8CE9 04001 99032 30529 41697 72913 10270 20257 40080 55020 70222 87578 22224 04300 20602 301// 40602 80260
BBXX DCAX2 04003 99287 51309 41297 70625 10240 20226 40175 56005 76462 876// 22223 21205 306// 41205 5//// 80230
AAXX 04001 08554 32965 00000 10085 20048 30329 40339 54000
AAXX 04004 65528 NIL
AAXX 04004 65536 NIL
AAXX 04004 65545 NIL
AAXX 04004 65548 NIL
AAXX 04004 65555 NIL
AAXX 04004 65557 32958 0//// 10223 20203 39879 40118 333 59020
AAXX 04004 65560 32956 0//// 10230 20166 39809 40116 333 59010
AAXX 04004 65562 NIL
AAXX 04004 65563 31940 00000 10180 20164 39882 40112 71000 333 59001
AAXX 04004 65578 NIL
AAXX 04004 65585 NIL
AAXX 04004 65592 32956 0//// 10226 20222 30090 40113 333 59019
AAXX 04004 65594 32960 30000 10245 20236 30089 40123 80002 333 59014 83080
AAXX 04004 65599 32960 0//// 10254 20241 30038 40110 333 59006
AAXX 04004 61600 32960 70606 10262 20045 30146 40151 8707/ 333 59016 87363
AAXX 04004 61612 NIL
AAXX 04004 61627 32957 41004 10217 20015 3//// 4//// 80002 333 0//00 5//// 84073
AAXX 04004 61630 32958 20000 10218 20048 30136 40155 82080 333 0//00 59021 82363
AAXX 04004 61641 32957 63608 10201 20179 30118 40151 84032 333 0//00 59010 84363 83073
AAXX 04004 61666 NIL
AAXX 04004 61679 32958 53612 10247 20076 30152 40160 85030 333 59003 85363
AAXX 04004 61687 31956 60406 10245 21007 30094 40152 70622 80002 333 0//00 59009 86073
AAXX 04004 61695 32960 33604 10205 20153 30113 40139 83080 333 0//00 59008 83363
AAXX 04004 61697 32960 43604 10204 20150 30129 40144 84030 333 0//00 59006 84363
AAXX 04004 61698 NIL
AAXX 04004 61699 NIL
BBXX A8GU5 04004 99328 10280 41497 31413 10155 20035 40260 54000 7//// 83465 22223 04180 20601 80100
BBXX A8RW3 04003 99339 50170 41698 53317 10200 20135 40190 50010 70022 85445 22224 04230 21004 80160
AAXX 04001 08535 32/// /9902 10122 20076 30262 40357 52001 555 60005
BBXX DEGI 04003 99094 70161 41896 20404 10255 20205 40140 51010 70200 820/8 22233 04268 29901 399// 4//// 80220
BBXX PDBP 04003 99422 10080 41998 12208 10150 20076 40248 58010 70200 80005 22253 04151 2//01 325// 40601 80110
BBXX 46237 04001 99378 71226 46/// ///// 1//// 90010 22200 00110 11406 21003 325// 41405 70030
BBXX 46217 04001 99342 71194 46/// ///// 1//// 90012 22200 00143 11303 20902 326// 41302 70014
AAXX 04001 60373 36/// /2402 10102 20101
AAXX 04001 60623 36/// /0000 10116 21083
AAXX 04001 60393 16/// /1802 10095 20079 69921
AAXX 04001 60379 36/// /1401 10094 20094
AAXX 04001 60380 36/// /3201 10080 20080
BBXX DDLK 04003 99453 70261 41797 30118 10110 21002 40343 53040 70211 83500 22263 20604 328// 40808 80060
BBXX KSDF 04004 99353 10183 41698 72009 10161 20133 40225 57010 71311 8596/ 22263 0//// 20601 324// 40801 5//// 6//// 80144 /////
BBXX V7OX3 04004 99364 50041 41498 22707 10170 20153 40170 54000 7//00 82100 22223 04190 21003 320// 41203 5//// 80160
AAXX 04001 08554 32965 00000 10085 20048 30329 40339 54000 555 60005
AAXX 04003 64501 42358 42006 10256 20236 3//// 4//// 84500 333 5//// 84608
AAXX 04001 38388 42598 80000 11007 21018 30169 40242 52009 889// 555 14101
AAXX 04001 38656 46196 83201 11002 21023 30109 40222 54000 77172 8802/ 333 1/100
BBXX 46216 04001 99343 71198 46/// ///// 1//// 92357 22200 00145 11504 20902 327// 41503 70019
BBXX 46223 04001 99335 71178 46/// ///// 1//// 90000 22200 00159 11703 21001 327// 41702 70013
AAXX 04001 51156 32980 02902 11163 21225 38721 40325 57012 333 05551 92503
AAXX 04001 51644 32960 03601 11153 21177 39010 40361 57006 333 05500
AAXX 04001 51656 32965 00000 11141 21162 39190 40364 57005 333 05451
AAXX 04001 51243 32970 01101 11186 21215 39727 40338 57006 333 05400
AAXX 04001 51709 32962 22502 11132 21162 38777 40356 57009 80002 333 05453 79999 92507
BBXX 46213 04001 99403 71247 46/// ///// 1//// 92354 22200 00108 11406 21003 329// 41405 70031
BBXX 46231 04001 99327 71174 46/// ///// 1//// 92354 22200 00152 11702 21001 328// 41702 70012
BBXX 46222 04001 99336 71183 46/// ///// 1//// 92356 22200 00148 11503 21001 327// 41503 70015
AAXX 04001 38511 42698 70000 11024 21033 30104 40251 52005 87500 555 10102
AAXX 04001 51431 32980 00000 11119 21143 39413 40247 57002 333 00053 31026 92520
AAXX 04001 51747 32965 00000 11235 21273 38997 40409 57010 333 05401
AAXX 04001 51467 32980 00901 11189 21218 38236 57007 333 05501
AAXX 04004 93800 16/// /0323 10161 20112 40177 57012 60004 333 70000
AAXX 04004 93805 16/// /3437 10179 20109 40111 57021 60004 333 70000
AAXX 04004 93994 16/// /1109 10218 20165 40167 57006 60004 333 70000
BBXX 46218 04001 99345 71208 46/// ///// 1//// 90002 22200 00136 11506 20903 329// 41506 70032
BBXX 46242 04001 99332 71174 46/// ///// 1//// 92358 22200 00153 11701 21001 325// 41701 70005
BBXX 46211 04001 99469 71242 46/// ///// 1//// 90006 22200 00084 11106 21004 325// 41104 70029
AAXX 04004 48601 11559 60604 10250 20229 30107 40111 60004 70522 81231 333 20246 50480 58006 70000 81820 86078
AAXX 04004 48615 11458 71802 10233 20216 30123 40129 60004 70522 82242 333 20229 50460 58009 70000 82818 87074
AAXX 04004 48620 11463 70501 10241 20230 30104 40113 60004 70522 82932 333 20235 50250 58007 70000 81917 86078
AAXX 04004 48647 11460 70000 10259 20232 30090 40115 60004 70522 81932 333 20254 50520 58007 70000 81917 87078
AAXX 04004 48657 11458 70202 10224 20219 30112 40130 60004 71022 82841 333 20223 50370 58009 70000 81710 87078
AAXX 04004 48665 11564 70506 10240 20219 30117 40127 60004 70522 82542 333 20238 50470 58012 70000 82628 83364 86078
AAXX 04004 96413 11470 72704 10249 20240 30096 40123 60794 72162 83963 333 20231 58004 70794 81915 83620 85080
AAXX 04004 96421 12378 71603 10249 20234 30082 40118 60024 83531 333 20229 50250 55033 58003 70020 81708 83365 85080
AAXX 04004 96441 11068 71102 10247 20240 30088 40115 60034 71096 82531 333 20237 50280 55026 58005 70034 81701 86365
AAXX 04004 96449 11480 71203 10258 20244 30099 40118 60054 70192 82931 333 20239 50250 58004 70046 82814 81915 83365 86080
AAXX 04004 96465 NIL
AAXX 04004 96471 12476 71005 10263 20238 30113 40116 60054 81848 333 20237 50100 70054 81815 83364 87078
AAXX 04004 96481 12462 73402 10252 20233 30106 40125 60034 8287/ 333 20235 50200 55039 58006 70028 81817 86364
AAXX 04004 96491 11357 81203 10245 20241 30114 40126 61104 76166 8382/ 333 20236 55004 58009 71104 81708 88468
BBXX 46147 04001 99518 71312 46/// /1607 10085 49983 57002 22200 00078 11010 70050 333 91209
AAXX 04001 48969 NIL
AAXX 04001 48962 NIL
AAXX 04001 48990 NIL
AAXX 04001 48986 NIL
AAXX 04001 48995 NIL
AAXX 04001 48967 NIL
AAXX 04001 48992 NIL
AAXX 04001 48965 NIL
AAXX 04001 48985 NIL
AAXX 04001 48970 NIL
AAXX 04001 48991 32650 61902 10246 20217 30122 40134 83542 333 20240 58005
AAXX 04001 48964 NIL
AAXX 04001 48997 32497 40000 10262 20224 30100 40116 84001 333 20220 59001
AAXX 04001 48968 NIL
AAXX 04001 48973 NIL
AAXX 04001 48966 32697 80903 10253 20206 30103 40116 83531 333 20235 58011
AAXX 04001 48983 NIL
AAXX 04001 48972 NIL
AAXX 04001 48998 NIL
AAXX 04001 48993 NIL
AAXX 04001 48971 NIL
AAXX 04001 48963 NIL
AAXX 04001 48987 NIL
AAXX 04004 71976 46/// /2407 11303 21337 39387 40045 55000 6///1 333 11272 21310 7////
AAXX 04004 71979 16/// ///// 11011 21046 38427 40083 58011 60001 333 10043 21084 70000
AAXX 04004 71276 16/// ///06 11008 21049 60001 333 10023 21068 70000
AAXX 04004 71298 16/// /1101 11079 21125 30020 40264 51005 60001 333 11056 21084 70000 555 10010
AAXX 04001 25703 31996 70000 11459 21492 39966 40286 57005 77672 80001 333 21481 47026 55015
AAXX 04001 25745 32999 01102 11408 21438 30203 40263 57005 333 21423 47008 55000
AAXX 04001 25913 11599 70406 11145 21158 30043 40186 53004 60010 70232 86331 333 21167 48021 55000 91111
AAXX 04001 25954 31999 03607 11223 21281 30087 40210 57005 73630 333 21243 48023 55052
AAXX 04001 25956 32999 00508 11270 21309 50186 40192 58006 333 21288 48020 55046
AAXX 04001 31088 32999 23505 11229 21277 30196 40204 53004 80001 333 21249 42001 55022
AAXX 04001 31873 32997 02602 11252 21277 30073 40221 52005 333 21266 47016 93505
AAXX 04001 31909 32999 03109 11137 21231 30016 40098 57003 333 21149 44024 55077 91016 91119
AAXX 04001 31960 32997 03408 11182 21201 39955 40209 53011 333 21192 41998 55043 91114
AAXX 04001 31961 31996 00401 11256 21275 30177 40229 53012 70411 333 21254 42003 55051
AAXX 04001 32053 11192 83604 11075 21081 30020 40070 53012 60110 78682 889// 333 21136 47109 87702 91007 91109
AAXX 04001 32061 11596 80302 11126 21146 30025 40065 58001 60040 78582 889// 333 21148 47034 91003 91104
AAXX 04001 32098 11393 83506 11073 21082 39994 40004 53001 60030 78683 889// 333 21110 48077 91009 91112
AAXX 04001 32150 11494 80105 11073 21094 39943 49973 57012 60010 78683 889// 333 21116 47069 91009 91109
AAXX 04001 32165 12598 63012 11029 21071 39869 49930 55002 69900 86900 333 21053 43019 91018 91126
AAXX 04001 32215 11560 80508 11010 21053 30034 40063 58020 69900 73673 885// 333 21021 47058 91015 91117
AAXX 04001 32252 NIL
AAXX 04001 32389 31998 50000 11290 21314 30178 40220 57002 74041 82031 333 21305 44052 55022
AAXX 04001 32477 32999 80603 11111 21207 30087 40120 56002 8807/ 333 21173 47058 55028
AAXX 04001 32583 31598 80602 11043 21112 30129 40160 57008 72682 8555/ 333 21130 48064
AAXX 04001 32618 11598 60207 10065 21097 30155 40177 57004 69900 70283 86500 333 21071 48018
AAXX 04004 71575 16/// /2904 11272 21300 39962 40030 56002 60001 333 11270 21305 70000
AAXX 04004 71363 16/// /3611 11353 21393 30012 40070 58001 60001 333 11351 21384 70000
AAXX 04004 71307 16/// /0703 11144 21170 30006 40269 51007 60001 333 11076 21145 70000 555 10010
AAXX 04004 71343 16/// /2420 10064 21071 60001 333 10092 20026 70000
AAXX 04004 71161 16/// /3303 11193 21236 30083 40240 53024 60001 333 11159 21194 70000
AAXX 04004 71189 46/// /2822 11174 21229 6///1 333 11164 21183 7////
AAXX 04004 71217 16/// /1810 10056 21048 60001 333 10087 21027 70000
AAXX 04004 71224 16/// /2524 10047 21074 60001 333 10065 21004 70000
AAXX 04001 31960 32997 03408 11182 21201 39955 40209 53011 333 21192 41998 55043 91114
AAXX 04001 31873 32997 02602 11252 21277 30073 40221 52005 333 21266 47016 93505
AAXX 04001 31961 31996 00401 11256 21275 30177 40229 53012 70411 333 21254 42003 55051
AAXX 04001 31909 32999 03109 11137 21231 30016 40098 57003 333 21149 44024 55077 91016 91119
AAXX 04004 16084 11960 42701 11020 21037 30068 40244 57027 60001 70141 84030 333 84360
AAXX 04004 71575 16/// /2904 11272 21300 39962 40030 56002 60001 333 11270 21305 70000
AAXX 04004 71976 46/// /2407 11303 21337 39387 40045 55000 6///1 333 11272 21310 7////
AAXX 04004 71979 16/// ///// 11011 21046 38427 40083 58011 60001 333 10043 21084 70000
AAXX 04004 71276 16/// ///06 11008 21049 60001 333 10023 21068 70000
AAXX 04004 71298 16/// /1101 11079 21125 30020 40264 51005 60001 333 11056 21084 70000 555 10010
AAXX 04004 71363 16/// /3611 11353 21393 30012 40070 58001 60001 333 11351 21384 70000
AAXX 04004 71217 16/// /1810 10056 21048 60001 333 10087 21027 70000
AAXX 04004 71224 16/// /2524 10047 21074 60001 333 10065 21004 70000
AAXX 04004 71161 16/// /3303 11193 21236 30083 40240 53024 60001 333 11159 21194 70000
AAXX 04004 71189 46/// /2822 11174 21229 6///1 333 11164 21183 7////
AAXX 04004 71307 16/// /0703 11144 21170 30006 40269 51007 60001 333 11076 21145 70000 555 10010
AAXX 04004 71343 16/// /2420 10064 21071 60001 333 10092 20026 70000
AAXX 04004 89002 42398 72608 11030 21037 39824 49877 57002 878// 333 11007 21048
BBXX MINUK03 0400/ 99540 10003 46/// ///// 10050 49983 52042
AAXX 04001 50434 11980 70000 11330 21366 39366 40381 57001 69901 77000 82032 333 05103 79999
AAXX 04001 50527 32975 21805 11290 21319 39476 40372 57004 80002 333 05151 92515
AAXX 04001 50603 32980 02501 11270 21304 39592 40347 57006 333 05354
AAXX 04001 50632 32980 12703 11224 21253 39357 40342 52002 81032 333 00153
AAXX 04001 50727 11580 70000 11284 21322 39072 40408 52002 69901 77077 875// 333 00151 70001
AAXX 04001 50915 32970 02205 11246 21293 39286 40406 57003 333 00251 79999
AAXX 04001 51716 32963 51601 11117 21140 38970 40350 57008 80002 333 05400
AAXX 04001 51765 32980 03401 11174 21199 39290 40376 57007 333 05402
AAXX 04001 51777 32970 02502 11163 21199 39247 40381 57004 333 05400
AAXX 04001 51811 32962 03201 11143 21164 38845 40364 57009 333 05451 79999 92503
AAXX 04001 51828 32965 02502 11105 21151 38685 40347 57006 333 05300
AAXX 04001 52267 32980 01102 11168 21207 39207 40409 57008 333 05602
AAXX 04001 52323 32980 02703 11250 21286 38255 57007 333 05600
AAXX 04001 52495 32980 00702 11221 21271 38768 40451 57006 333 05502
AAXX 04001 53149 32980 02501 11210 21252 38858 40422 57010 333 05301
AAXX 04001 53192 32980 01801 11305 21336 38974 40468 57002 333 00259 70001
AAXX 04001 53231 32980 01605 11192 21240 38551 57007 333 05508
AAXX 04001 53336 32980 00202 11201 21245 38806 40442 57004 333 05352
AAXX 04001 53391 32980 02902 11227 21261 38570 40456 52001 333 00251
AAXX 04001 53529 32980 00000 11224 21267 38719 40471 57005 333 05255
AAXX 04001 53543 32980 02001 11159 21233 38620 40435 57001 333 05101
AAXX 04001 53723 32968 00000 11211 21242 38750 40456 57008 333 05354
AAXX 04001 54012 32980 12706 11218 21264 39094 40405 57001 80002 333 00204 79999
AAXX 04001 54026 32980 03402 11137 21210 39969 40323 52008 333 00300 79999
AAXX 04001 54027 32980 20402 11135 21213 39708 40347 52010 82030 333 00400
AAXX 04001 54208 32980 01601 11242 21271 38832 40447 54000 333 00453
AAXX 04001 54776 11580 73415 11038 21083 30254 40314 52023 69901 70080 874// 333 00652 31040 70003 91124 91534
AAXX 04001 56004 32980 12701 11224 21256 35765 57003 80002 333 05200
AAXX 04001 56033 11675 70000 11229 21255 35981 57002 69901 77070 875// 333 00153 79999 92500
AAXX 04001 56046 32480 72501 11272 21307 36236 52001 87600 333 00366 92503
AAXX 04001 56193 NIL
AAXX 04001 56196 32966 83201 10034 21019 40332 52004 8807/ 333 00353 30019
AAXX 04001 56287 32965 82701 10034 20003 40339 52004 8807/ 333 00200 30028 70028
AAXX 04001 56684 11560 80901 11021 21046 37924 52003 69981 77070 885// 333 00353 31011 70009 92501
AAXX 04001 56751 11775 81801 10071 20057 38016 52007 60031 78080 884// 333 00257 70034
AAXX 04001 56786 11565 80203 10007 21014 38135 52006 69911 76870 885// 333 00556 30002 70011
AAXX 04001 56977 11465 80000 10154 20154 40136 52002 69901 72580 884// 333 00051 70042
AAXX 04001 57259 32970 30701 11055 21055 40397 52012 83030 333 00359
AAXX 04001 57279 31959 60000 11041 21074 40385 52006 71000 86030 333 00457
AAXX 04001 57348 32860 43602 10046 21010 40345 52006 84500 333 00400 30010 70008
AAXX 04001 57399 32960 00202 11039 21086 40386 52012 333 00657
AAXX 04001 57554 11856 70201 10010 21014 40377 52010 69901 71070 875// 333 00552 30015 70002
AAXX 04001 57793 31725 81101 10025 20019 40369 52013 71000 885// 333 00853 30022 70070
AAXX 04001 58345 32962 02702 11017 21113 40372 52015 333 00755
AAXX 04001 58506 32964 00205 11080 21130 40383 52008 333 00455 31008 70018 92503
AAXX 04001 58813 32666 73601 10025 21024 40351 52014 87500 333 00854 30017 70084
AAXX 04001 58834 11760 80401 10047 20019 40333 52020 69911 70060 885// 333 00855 70091
AAXX 04001 58926 11462 82501 10063 20045 40306 52020 60041 76066 885// 333 00655 70051
AAXX 04001 58944 11461 80205 10074 20031 40309 52019 60041 72166 885// 333 00754 70039
AAXX 04001 59096 11461 80901 10053 20012 40313 52015 69921 76060 885// 333 00756 70002
AAXX 04001 59102 11660 80203 10033 20012 40319 52018 60021 72166 885// 333 00756 30041 70026
AAXX 04001 59278 11580 80206 10088 20032 40285 52015 69901 72160 888// 333 00756 79999
AAXX 04001 59456 32768 83602 10087 20045 40254 52013 885// 333 00557 79999
AAXX 04001 59493 32775 80204 10106 20034 40263 52018 885// 333 00555
AAXX 04001 59658 11670 83602 10108 20075 40235 52019 69901 76060 885// 333 00556 79999
AAXX 04001 59673 32565 83613 10112 20063 40247 52020 888// 333 00455 91119 91536
AAXX 04001 59845 11458 80903 10169 20151 40215 52023 69901 76060 887// 333 00452 79999
BBXX 46183 04001 99536 71311 46/// /1511 10086 49973 52020 22200 00074 11207 70036 333 91213
AAXX 04001 25913 11599 70406 11145 21158 30043 40198 53004 60010 70232 86331 333 21167 48021 55000 91111
AAXX 04004 41858 31/00 90000 10120 20120 30103 40151 74744 89/// 333 56999 58022 70000
AAXX 04004 41886 31440 60000 10164 20140 30120 40142 71042 82530 333 56990 59005 70000 82618 85365
AAXX 04004 41915 31/04 90000 10140 20140 30113 40139 74344 89/// 333 59001 70000
AAXX 04004 41926 31430 80000 10158 20150 30125 40139 71022 8352/ 333 56999 58004 70000 83618 88458
AAXX 04004 41933 31930 00000 10160 20150 30128 40137 70500 333 58004 70000
AAXX 04004 41939 31920 00000 10167 20160 40140 71044 333 58005 70000
AAXX 04004 41941 31440 63602 10168 20160 30119 40125 70522 85520 333 56990 58008 70000 85615 86460
AAXX 04004 41947 31950 00000 10182 20170 30133 40135 70500 333 58006 70000
AAXX 04004 41953 31430 50000 10178 20170 30125 40131 70522 82530 333 56990 58003 70000 82618 83360
AAXX 04004 41960 31940 23501 10180 20180 30136 40138 70500 82030 333 56090 58004 70000 82362
AAXX 04004 41984 31940 03603 10182 20170 30124 40126 70500 333 58004 70000
BBXX 46221 04001 99339 71186 46/// ///// 1//// 92345 22200 00152 11503 20901 326// 41502 70013
BBXX A8RW3 04003 99339 50170 41698 53317 10200 20135 40190 50010 70022 85445 22224 04230 21004 80160
BBXX A8CE9 04001 99032 30529 41697 72913 10270 20257 40080 55020 70222 87578 22224 04300 20602 301// 40602 80260
BBXX DEGI 04003 99094 70161 41896 20404 10255 20205 40140 51010 70200 820/8 22233 04268 29901 399// 4//// 80220
AAXX 04004 60692 36/// /0115 10152 21002
BBXX PDBP 04003 99422 10080 41998 12208 10150 20076 40248 58010 70200 80005 22253 04151 2//01 325// 40601 80110
BBXX DDLK 04003 99453 70261 41797 30118 10110 21002 40343 53040 70211 83500 22263 20604 328// 40808 80060
BBXX A8GU5 04004 99328 10280 41497 31413 10155 20035 40260 54000 7//// 83465 22223 04180 20601 80100
AAXX 04004 60633 36/// /3206 10150 21053
AAXX 04004 60662 36/// /0000 10069 21029
AAXX 04004 60676 36/// /0204 10098 21013
AAXX 04004 60660 36/// /0206 10155 21029
AAXX 04004 60691 36/// /0313 10120 21032
AAXX 04001 89064 36/// /0102 10009 29083 49939 57002 333 10025
AAXX 04004 60677 36/// /0000 10071 21024
AAXX 04001 60394 36/// /2001 10082 20082
AAXX 04001 60374 36/// /1203 10103 20102
AAXX 04001 60613 36/// /0000 10080 21012
AAXX 04004 60661 36/// /3305 10056 21037
AAXX 04004 60650 36/// /0605 10148 21015
AAXX 04004 60667 36/// /0000 10080 21021
AAXX 04004 60679 36/// /0318 10026 21216
AAXX 04004 60672 36/// /0806 10104 21041
BBXX 46131 04001 99499 71250 46/// /1210 1//// 40169 57008 22200 00078 10603 70014 333 91213
BBXX 46131 04001 99499 71250 46/// /1210 1//// 40169 57008 22200 00078 10603 70014 333 91213
AAXX 04004 43400 NIL
AAXX 04004 43404 22470 5//// 10240 20235 30104 40114 83101 333 59001 60008 83818 85080
AAXX 04004 43410 NIL
AAXX 04004 43413 22470 30505 10270 20249 30106 40110 83100 333 58002 60007 83818
AAXX 04004 43415 22468 60000 10248 20239 39998 40106 8371/ 333 59005 60007 81714 83818 84460
AAXX 04004 43418 22470 61402 10255 20245 3//// 4//// 70351 84932 333 5//// 69907 83818 81919
AAXX 04004 43421 22460 70000 10247 20237 30002 40104 871// 333 59005 60007 87818
AAXX 04004 43422 22470 50700 10243 20240 39977 40105 80006 333 59001 60008 84280
AAXX 04004 43424 22468 70000 10238 20233 30090 40093 861// 333 59003 60007 86816
AAXX 04004 43436 22470 53201 10256 20244 30096 40099 84106 333 59000 60007 84816 83280
AAXX 04004 43441 22970 00000 10224 20209 39968 40097 333 58000 60007
AAXX 04004 43444 21910 90000 10198 20192 39574 40104 74744 333 59001 60007
AAXX 04004 43467 22960 00702 10240 20225 30099 40104 333 58003 60007
AAXX 04004 43473 22970 00501 10076 20048 38125 48501 333 58001 60007
AAXX 04004 43475 22470 23202 10234 20219 30092 40101 81101 333 58001 60007 81818
AAXX 04004 43476 22970 00000 10143 20135 38770 48510 333 58003 60007
AAXX 04004 43479 21440 70000 10174 20164 39265 705// 862// 333 59003 60007 86818
AAXX 04004 43486 21950 00000 10220 20213 30002 40096 71040 333 59006 60007
AAXX 04004 43495 22468 2//// 10248 20230 30083 40099 82100 333 59006 60007 82818
AAXX 04004 43497 22476 13603 10238 20229 30076 40093 81100 333 59006 60007 81818
AAXX 04004 43400 NIL
AAXX 04004 43404 22470 5//// 10240 20235 30104 40114 83101 333 59001 60008 83818 85080
AAXX 04004 43410 NIL
AAXX 04004 43413 22470 30505 10270 20249 30106 40110 83100 333 58002 60007 83818
AAXX 04004 43415 22468 60000 10248 20239 39998 40106 8371/ 333 59005 60007 81714 83818 84460
AAXX 04004 43418 22470 61402 10255 20245 3//// 4//// 70351 84932 333 5//// 69907 83818 81919
AAXX 04004 43421 22460 70000 10247 20237 30002 40104 871// 333 59005 60007 87818
AAXX 04004 43422 22470 50700 10243 20240 39977 40105 80006 333 59001 60008 84280
AAXX 04004 43424 22468 70000 10238 20233 30090 40093 861// 333 59003 60007 86816
AAXX 04004 43436 22470 53201 10256 20244 30096 40099 84106 333 59000 60007 84816 83280
AAXX 04004 43441 22970 00000 10224 20209 39968 40097 333 58000 60007
AAXX 04004 43444 21910 90000 10198 20192 39574 40104 74744 333 59001 60007
AAXX 04004 43467 22960 00702 10240 20225 30099 40104 333 58003 60007
AAXX 04004 43473 22970 00501 10076 20048 38125 48501 333 58001 60007
AAXX 04004 43475 22470 23202 10234 20219 30092 40101 81101 333 58001 60007 81818
AAXX 04004 43476 22970 00000 10143 20135 38770 48510 333 58003 60007
AAXX 04004 43479 21440 70000 10174 20164 39265 705// 862// 333 59003 60007 86818
AAXX 04004 43486 21950 00000 10220 20213 30002 40096 71040 333 59006 60007
AAXX 04004 43495 22468 2//// 10248 20230 30083 40099 82100 333 59006 60007 82818
AAXX 04004 43497 22476 13603 10238 20229 30076 40093 81100 333 59006 60007 81818
AAXX 04004 41257 36/// /9902 10166 20127 39654 40142 333 0E015 59010
AAXX 04001 40009 NIL
AAXX 04001 40016 NIL
AAXX 04001 40022 NIL
AAXX 04001 40030 31/02 90000 10050 20045 40235 58013 74744 89/// 333 89/02
AAXX 04001 40039 31904 00000 10016 20005 40235 54000 74440
AAXX 04001 40066 32970 00000 10100 20061 40232 56004
AAXX 04001 40072 NIL
AAXX 04001 40083 32970 00000 10014 21019 48525 58003
AAXX 04001 38844 429// 01803 11031 21129 48520 53010
BBXX 46204 04001 99514 71288 46/// /1316 10077 40025 57007 22200 00084 11109 70046 333 91221
AAXX 04001 38725 429// 60000 11040 21123 37703 48440 57018 80002
AAXX 04001 38734 425// 50502 11079 21115 37393 47980 57019 83903
AAXX 04001 38836 425// 80000 10031 21017 39193 40136 56011 889//
AAXX 04001 38598 426// 40906 10008 21021 40198 57007 84500
AAXX 04001 38744 426// 50000 11117 21130 37985 48520 57018 85500
BBXX 46204 04001 99514 71288 46/// /1316 10077 40025 57007 22200 00084 11109 70046 333 91221
AAXX 04004 43466 22970 00000 10242 20223 30083 40095 333 59004 60007
AAXX 04001 21931 32998 72302 11286 21316 30113 40148 57003 8703/ 333 21298 48017
AAXX 04004 89050 11598 70308 10002 21018 49944 54000 69902 70222 87400
AAXX 04004 89512 42998 00104 11047 21086 39698 49848 57009
AAXX 04004 89574 11496 80606 10004 20003 49851 57006 69932 77172 8802/ 333 20000
AAXX 04004 89592 31/93 90702 11051 21054 49936 54000 74544
AAXX 04004 89606 32998 12508 11327 21382 36296 47746 53001 80001
BBXX 42099 04001 99273 70842 46/// ///// 1//// 92357 22200 00219 10805 20805 70024
BBXX 41112 04001 99307 70813 46/// ///// 1//// 92351 22200 00154 10302 20302 70008
AAXX 04004 40656 42960 02902 10058 20043 40211 54000
AAXX 04004 40664 42960 03203 10080 20057 40224 54000
AAXX 04004 40665 41957 03004 10084 20077 40228 58003 71000
AAXX 04004 40670 42960 00000 10070 20047 40224 58007
AAXX 04004 40672 42960 00000 10076 20051 40239 54001
AAXX 04004 40674 42960 03405 10068 20006 40229 54000
AAXX 04004 40676 42960 02905 10090 20054 40226 58003
AAXX 04004 40689 42960 02706 10100 20062 40220 54000
AAXX 04004 40690 42960 02905 10095 20061 40212 50000
AAXX 04004 40691 42960 02403 10085 20042 40226 54000
AAXX 04004 40603 42960 03006 10046 20000 40270 56006
AAXX 04004 40608 42960 00000 10022 20011 40248 58006
AAXX 04004 40629 42960 02602 10038 20017 40258 52006
AAXX 04004 40631 42960 00000 10065 20042 40253 51004
AAXX 04004 40642 42960 00000 10028 21018 40266 51000
AAXX 04004 40643 42960 02304 10025 21003 40272 58002
AAXX 04004 40650 42960 02802 10056 20046 40238 50001
AAXX 04001 48803 11460 81802 10134 20126 30101 40218 52020 60022 76062 888// 333 01014 20134 3/014 58044 8589 4 88696 96160
AAXX 04001 21802 32999 00000 11363 21389 30081 40108 57010 333 21273
AAXX 04001 24125 11997 83101 11095 21098 39820 40102 57005 69992 77172 8802/ 333 21164 47026
AAXX 04001 24136 12999 10000 11355 21383 30019 40131 57006 69902 81030 333 21355 47028 55000
AAXX 04001 24143 11998 82305 11296 21333 30107 40162 54000 60012 77172 82016 333 21316
AAXX 04001 24266 11998 30000 11407 21432 39999 40202 53002 69950 70271 80001 333 21388 47025 55000
AAXX 04001 24329 11997 82601 11125 21152 39842 40150 57011 69902 77172 8802/ 333 21189 47030 55000
AAXX 04001 24343 11597 81703 11305 21334 30053 40185 53002 69982 77172 85507 333 21316 47061 55000
AAXX 04001 24382 31995 80000 11409 21438 39929 40220 53005 71022 80001 333 21434 47010 55000
AAXX 04001 24639 32999 82303 11242 21260 30044 40210 54000 80007 333 21310 47031 55000
AAXX 04001 24641 11998 82601 11244 21269 30038 40193 57001 69972 77177 8802/ 333 21304 47043 55000
AAXX 04001 24652 11997 80905 11276 21306 30093 40228 57006 69952 77173 85037 333 21290 47041 91111
AAXX 04001 24656 11998 80702 11299 21337 30136 40249 56004 60022 77172 83037 333 21334 47045
AAXX 04001 24671 31996 83601 11430 21455 39722 40317 57003 77172 80008 333 21457 47023 55000
AAXX 04001 24688 11998 00000 11521 21551 39323 40443 52005 69900 70400 333 21513 47018 55000
AAXX 04001 24724 11999 82607 11226 21244 39687 40259 51002 69902 73673 8801/ 333 21265 48057 55000 93528
AAXX 04001 24738 11998 81802 11262 21274 30041 40234 53007 69902 70271 84035 333 21321 47029 55000
AAXX 04001 24768 11997 20902 11321 21354 39981 40243 57002 69972 70271 82010 333 21385 47031
AAXX 04001 24923 12699 62204 11212 21237 39951 40281 52009 69902 82530 333 21273 47049
AAXX 04001 24944 12996 62703 11251 21263 39936 40255 53002 69922 80001 333 21278 47041 55000
AAXX 04001 24951 12998 70000 11267 21285 30059 40242 53004 69942 80002 333 21271 47026
AAXX 04001 24661 11998 80000 11349 21377 39960 40262 57004 69902 77072 80007 333 21427 48049
AAXX 04001 24959 11998 80000 11361 21390 30094 40242 53004 69952 77172 80005 333 21361 47028 55000 93521
AAXX 04001 24962 11998 80000 11343 21364 30047 40259 53003 69952 70272 82031 333 21404 47023 55029
AAXX 04001 24966 11998 80000 11385 21407 30022 40273 53004 77171 83037 333 21405 47030 55003
AAXX 04001 24967 11999 80000 11339 21368 30028 40276 53008 69952 70272 80001 333 21386 47032
AAXX 04001 25206 31997 00000 11397 21422 30161 40193 57005 71000 333 21404 47026
AAXX 04001 25400 31996 02701 11453 21471 30129 40194 53002 71000 333 21457 48020 55000
AAXX 04001 30054 11998 50000 11291 21315 30052 40322 52022 69932 72272 80001 333 21295 47062
AAXX 04001 30089 11999 60000 11323 21343 30038 40292 52012 69932 70272 80005 333 21321 47035
AAXX 04001 30393 11999 59901 11330 21347 39171 40350 52003 69902 70272 82031 333 21338 47024
AAXX 04001 30493 32999 80000 11342 21364 39174 40362 53003 80001 333 21344 47011 55051
AAXX 04001 31004 11997 82101 11194 21213 39372 40262 53006 69942 77172 80007 333 21211 47048 55018
AAXX 04001 31137 32999 10000 11455 21471 39182 40416 56004 80001 333 21458 47028
BBXX ZDLS1 04004 99738 50255 41497 62506 11016 2//// 49895 54000 70122 8555/ 22282 05011 20100 30000
BBXX 51205 04001 99210 71564 46/// ///// 1//// 90018 22200 00246 11103 20902 334// 41102 70016
BBXX 46114 04001 99364 71222 46/// ///// 1//// 90004 22200 00121 11407 21004 327// 41406 70036
AAXX 04004 41268 36/// /2314 10215 20171 30106 47752 333 0E022 59019
BBXX VNAH 04004 99383 31416 46/// /2013 10176 20057 30186 40210 52017 22200 04190 85113
BBXX VROB 04004 99078 31497 46/// /0603 10275 20226 30084 40109 52007 22263 04297 85240
BBXX FHZI 04004 99450 31472 46/// /2436 10127 20071 30049 40060 52041 22283 04136 85097
BBXX ZCAS2 04004 99178 31182 41998 12106 10280 20237 40113 52010 70200 81082 22243 00291 20701 30000 80250
BBXX 41036 04001 99342 70770 46/// ///// 10037 21064 40224 90020 22200 00198
AAXX 04004 91650 NIL
AAXX 04004 91652 NIL
AAXX 04004 91656 NIL
AAXX 04004 91659 11599 71412 10306 2024/ 40090 58010 60001 70222 82875 333 20234 56999 70018 81825 83460 85278
AAXX 04004 91660 NIL
AAXX 04004 91669 NIL
AAXX 04004 91670 36/// /0000 10300 20246 40090
AAXX 04004 91676 14/// /0704 10302 20248 30026 40085 55014 60001 333 20261
AAXX 04004 91680 11699 53609 10325 20240 40085 58020 60001 70122 83802 333 20240 569/9 70000 83830 84080
AAXX 04004 91682 NIL
AAXX 04004 91683 11599 70410 10315 20229 40090 58018 70222 84802 333 20235 561/9 70000 83824 83650 86080
AAXX 04004 91691 14/// /1202 10280 20260 30098 40101 55013 60071 333 20232
AAXX 04004 91693 NIL
AAXX 04004 91697 14/// /0302 10296 20241 30091 40096 55015 60011 333 20244
AAXX 04004 91699 14/// /0604 10312 20249 30075 40106 50013 60001 333 20255
BBXX VNAH 04004 99383 31416 46/// /2013 10176 20057 30186 40210 52017 22200 04190 85113
BBXX VROB 04004 99078 31497 46/// /0603 10275 20226 30084 40109 52007 22263 04297 85240
BBXX FHZI 04004 99450 31472 46/// /2436 10127 20071 30049 40060 52041 22283 04136 85097
BBXX ZCAS2 04004 99178 31182 41998 12106 10280 20237 40113 52010 70200 81082 22243 00291 20701 30000 80250
BBXX VRJI2 04003 99021 70301 41697 80419 10260 2025/ 40120 54000 7//21 86627 22253 00270 21004 30504 41503 51503 6//// 80250
BBXX C6FN4 04004 99207 70835 41797 10330 10240 20196 40220 54000 7//11 81200 22273 04260 20203 30304 40204 50102 6//// 80210 ICE /////
BBXX C6PZ8 04004 99265 70786 41/// 83530 10140 2009/ 40280 54/// 7//// 8//// 22232 00230 2//// 3//// 4//// 5//// 6//// 80110 ICE /////
BBXX ICRA 04004 99119 30489 418// 41909 10260 2022/ 40090 54040 7//// 8407/ 22223 00270 2//// 3//// 4//// 5//// 6//// 80230 ICE /////
BBXX YJSW5 04004 99273 70898 41598 30409 10150 20076 40290 57010 7//00 82/9/ 22200 00222 20302 301// 40704 5//// 6//// 80110 ICE /////
BBXX C6XC2 04004 99339 11247 41896 83226 11010 21040 40270 52020 7//77 8867/ 22244 00110 20506 331// 40304 5//// 6//// 81020 ICE /////
AAXX 04004 42309 31595 60000 10128 20113 40143 70522 82530 333 58004
AAXX 04004 42314 31595 70000 10126 20119 40146 71022 83530 333 58002 83620 86360
AAXX 04004 42410 21493 70000 10144 20140 40140 74464 83530 333 59005 6992/ 83615 86360
AAXX 04004 42415 31594 50000 10142 20135 40166 71022 82530 333 58006 82620 84360
AAXX 04004 42492 31/92 90000 10102 20098 40133 74644 89/// 333 59005
AAXX 04004 42587 31/93 90000 10126 20119 40141 74344 333 58001
AAXX 04004 42591 31993 01103 10110 20110 40114 74244 333 59005
AAXX 04004 42623 21395 80000 10124 20122 39256 40147 72162 8572/ 333 58005 8003/ 84708 86458
AAXX 04004 42701 31494 71044 10144 20137 39394 40138 71022 84530 333 58006 84618 86360
AAXX 04004 42706 31495 60000 10170 20160 40137 71022 84530 333 58007 84616 84360
AAXX 04004 42724 21992 20000 10146 20143 40144 74444 82030 333 58008 6990/ 82360
AAXX 04004 42798 31595 70902 10180 20153 40132 70522 84530 333 58007 84620 87360
AAXX 04004 42809 31495 60000 10188 20165 40136 70522 85501 333 58009 85615
AAXX 04004 42886 31594 23201 10180 20167 40129 71000 82500 333 58000 82620
AAXX 04004 42895 22496 73602 10200 20153 40132 85520 333 58009 6001/ 85618 87458
AAXX 04004 42971 31/93 90502 10220 20208 40120 74744 8//// 333 59007
AAXX 04004 43333 21495 60908 10260 20231 40106 70522 85401 333 56209 58003 6002/ 84616 84818
AAXX 04004 42398 NIL
AAXX 04004 42977 NIL
AAXX 04004 43368 NIL
BBXX 44029 04001 99425 70706 46/30 /3010 11057 40139 52040 90004 22200 00076 10402 70010 333 91212 555 11122 22127
BBXX 44032 04001 99437 70694 46/30 /3309 11064 40125 53032 90004 22200 00079 10402 70010 333 91212 555 11109 22113
BBXX 44022 04001 99409 70737 46/// ///10 11049 21142 40191 90015 22200 00062 333 91215 555 11103 22108
BBXX 44040 04001 99410 70736 46/// /3610 11045 21131 40194 90015 22200 10301 70006 333 91213 555 11113 22118
AAXX 04001 30157 11997 80000 11242 21267 30010 40321 52015 60012 77172 83037 333 21244 47037
BBXX 52200 04001 99134 11448 46/// ///// 1//// 90015 22200 00286 11103 20802 309// 41101 70013
AAXX 04004 40250 32960 00000 10042 20021 39443 40253 54002
AAXX 04004 40265 32960 00000 10040 20035 39446 40256 57004
AAXX 04004 40296 32660 60000 10160 20114 40230 52003 83800 333 83830 83630
AAXX 04004 40310 NIL
BBXX 46087 04001 99485 71247 46/// /1508 10111 20096 40190 90020 22200 00083 333 91213 555 11086 22097 32348 41615 60019 148078 149098 153088 152097 155102 155109
AAXX 04004 67765 42980 10901 10179 20173 38649 48492 80002 333 59007 81080
AAXX 04004 67775 42980 00704 10163 20127 38492 48496 333 59005
AAXX 04004 67779 NIL
AAXX 04004 67853 NIL
AAXX 04004 67861 NIL
AAXX 04004 67867 NIL
AAXX 04004 67881 NIL
AAXX 04004 67965 NIL
AAXX 04004 67975 NIL
AAXX 04004 67977 42980 10000 10227 20177 39640 48510 80002 333 59003 81080
AAXX 04004 67983 42980 10904 10186 20171 38879 48506 81030 333 59001 81360
AAXX 04004 67991 42975 00000 10253 20143 39558 48479 333 59009
BBXX A8CE9 04001 99032 30529 41697 72913 10270 20257 40080 55020 70222 87578 22224 04300 20602 301// 40602 80260
BBXX DEGI 04003 99094 70161 41896 20404 10255 20205 40140 51010 70200 820/8 22233 04268 29901 399// 4//// 80220
BBXX A8RW3 04003 99339 50170 41698 53317 10200 20135 40190 50010 70022 85445 22224 04230 21004 80160
BBXX V7OX3 04004 99364 50041 41498 22707 10170 20153 40170 54000 7//00 82100 22223 04190 21003 320// 41203 5//// 80160
BBXX ICRA 04004 99119 30489 418// 41909 10260 2022/ 40090 54040 7//// 8407/ 22223 00270 2//// 3//// 4//// 5//// 6//// 80230 ICE /////
BBXX VRJI2 04003 99021 70301 41697 80419 10260 2025/ 40120 54000 7//21 86627 22253 00270 21004 30504 41503 51503 6//// 80250
BBXX BATFR53 04004 99148 51172 44597 30909 10247 20184 40162 56010 70200 82102 22222 00254 201// 306// 40302 5//// 60/// ICE 0////
BBXX IDDUK02 04004 99535 50387 46/// ///// 49905 222//
BBXX C6XC2 04004 99339 11247 41896 83226 11010 21040 40270 52020 7//77 8867/ 22244 00110 20506 331// 40304 5//// 6//// 81020 ICE /////
BBXX SHIP 04004 99126 11267 41898 50616 10270 20257 40193 52015 70300 82331 22243 00285 20402 305// 40402 80260
BBXX SHIP 04004 99292 11289 41/97 83230 10120 20012 40169 51/// 76162 83577 22215 00240 20305 303// 40806 80070
BBXX SHIP 04004 99192 11299 41497 60522 10260 20232 40176 52012 70222 84943 22283 00260 20705 306// 40805 80240
BBXX SHIP 04004 99176 10701 41/97 00112 10220 2019/ 40150 50010 7//00 80/// 22233 0//// 2//// 3//// 4//// 5//// 6//// 80200 ICE /////
BBXX PDBP 04003 99422 10080 41998 12208 10150 20076 40248 58010 70200 80005 22253 04151 2//01 325// 40601 80110
BBXX A8GU5 04004 99328 10280 41497 31413 10155 20035 40260 54000 7//// 83465 22223 04180 20601 80100
BBXX DDLK 04003 99453 70261 41797 30118 10110 21002 40343 53040 70211 83500 22263 20604 328// 40808 80060
BBXX MINUK03 0400/ 99540 10003 46/// ///// 10050 49983 52042
BBXX KSDF 04004 99353 10183 41698 72009 10161 20133 40225 57010 71311 8596/ 22263 0//// 20601 324// 40801 5//// 6//// 80144 /////
BBXX 62095 04004 99531 70159 46/// /2721 10094 20052 40214 51025 22200 00111 10913 70064 333 90710 91130
BBXX 62305 04004 99504 10000 46/97 /2834 10098 20034 40133 52012 22200 00113 10805 70025 333 90710 91150
BBXX 62155 04004 99577 10007 47497 /2938 10059 20015 49877 52063 762// 22200 10710 70052
BBXX 62107 04004 99501 70061 46/// /3102 10101 20032 40009 52033 22200 01290 333 90710 91152
BBXX 62094 04004 99517 70067 46/// /2826 10086 20044 40168 52039 22200 00104 10808 70039 333 90710 91136
BBXX 62103 04004 99499 70029 46/98 /3034 10105 20039 40158 52020 22200 00115 10908 70038 333 90710 91147
BBXX 2AUO5 04003 99606 10017 41296 83338 10055 20036 49768 52041 76266 8/7// 22281 20604 399// 41008 80047
BBXX E5U2123 04003 99309 70149 41498 50912 10175 20138 40309 58010 70200 82174 22244 00193 20302 331// 41204 5//// 80154
BBXX 62305 04004 99504 10000 46/97 /2834 10098 20034 40133 52011 22200 00113 10805 70025 333 90710 91148
BBXX 62304 04004 99511 10018 46/98 /2635 10085 20025 40087 50000 22200 00105 10603 70014 333 90710 91146
BBXX 62304 04004 99511 10018 46/98 /2635 10085 20025 40085 58001 22200 00105 106// 333 90710 91149
BBXX 62170 04004 99514 10020 46/97 /2540 10084 20026 40076 58001 22200 00105 10602 70011 333 90710 91149
BBXX 62094 04004 99517 70067 46/// /2826 10086 20044 40168 52039 22200 00104 10809 70044 333 90710 91136
BBXX 62123 04004 99563 10022 41/96 /2839 10072 49894 53068 70222 8//// 22200 20302 326// 40620 5////
BBXX 62103 04004 99499 70029 46/98 /3036 10104 20037 40154 53019 22200 00115 10908 70038 333 90710 91149
BBXX 62119 04004 99570 10019 47597 /3037 10070 20019 49882 52054 700// 22200 10813 70067
BBXX 62133 04004 99571 10009 46/// /3138 10057 21005 49885 52062 22200 10811 70055
BBXX PJGO 04004 99571 10022 47/97 /2833 10054 49867 52062 700// 22200
BBXX 62140 04004 99573 10013 46/// /30// 10054 20016 49855 52063 22200
BBXX 62146 04004 99572 10021 47/97 /2505 10060 20013 49874 52065 700// 22200 10813 70066
BBXX 62164 04004 99572 10008 47497 /3125 10060 20010 49890 52062 700// 22200 00089 10812 70062
BBXX 62122 04004 99573 10016 47597 /2942 10064 20012 49852 52066 700// 22200 10813 70065
BBXX 62153 04004 99573 10020 47997 /2822 10069 20020 49849 52065 700// 22200 10813 70064
BBXX 62116 04004 99576 10011 47597 /3032 10069 20016 49857 52066 700// 22200 10811 70056
BBXX 62104 04004 99574 10013 47596 /2939 10067 20014 49858 52065 762// 22200
BBXX 62143 04004 99577 10018 47998 /3128 10071 20009 49865 52065 700// 22200 10813 70063
BBXX 62118 04004 99577 10009 47997 /2834 10069 20012 49865 52058 700// 22200 10812 70059
BBXX 62117 04004 99579 10000 47397 /2937 10061 20016 49872 52058 700// 22200 10708 70040
BBXX 62102 04004 99579 10018 46/// /2530 10058 20010 49831 52074 22200 10813 70067
BBXX 62134 04004 99580 10014 47597 /3233 10054 20007 49845 52072 700// 22200 10811 70054
BBXX 62154 04004 99564 10022 46/// /2933 10067 20014 49882 52049 22200
BBXX 62152 04004 99570 10018 47/97 /3029 10071 20025 49883 52058 700// 22200 10713 70065
BBXX 62120 04004 99564 10021 47997 /2938 10067 20032 49885 52053 700// 22200
BBXX 62123 04004 99563 10022 47997 /2837 10072 20020 49874 52051 700// 22200
BBXX 3EIZ7 04004 99458 70526 41/96 /3117 10060 2001/ 40040 54/// 75365 8//// 22224 0//// 2//06 323// 4//// 5//// 6//// 80040 ICE /////
BBXX 46207 04001 99509 71299 46/// /1608 10090 40005 57011 22200 00080 11110 70051 333 91210
BBXX 42085 04001 99179 70665 46/// /0704 10269 40163 92340 333 91205
BBXX 42085 04001 99179 70665 46/// /0704 10269 40164 92350 333 91205
BBXX 46078 04001 99561 71526 46/// /0316 10002 21038 49877 92350 333 91219 555 11173 22185
BBXX 42085 04001 99179 70665 46/// /0703 10269 40165 51019 90000 22200 00272 10702 70010 333 91204
BBXX 41053 04001 99185 70661 46/// /0201 10263 40167 51023 90000 22200 00272 11002 70011 333 91202
BBXX 41053 04001 99185 70661 46/// /0501 10261 40165 92340 333 91201
BBXX 41053 04001 99185 70661 46/// /0502 10261 40166 92350 333 91203
BBXX 41052 04001 99183 70648 46/// /1105 10269 40159 92340 333 91206
BBXX 41052 04001 99183 70648 46/// /1205 10269 40160 92350 333 91206
BBXX 41052 04001 99183 70648 46/// /1105 10269 40161 52016 90000 22200 00269 333 91206
BBXX V7HC6 04004 99273 70907 41798 20408 10130 20073 40312 56003 70200 8219/ 22200 00227 20301 335// 40702 5//// 6//// 80100 ICE /////
BBXX DCAX2 04003 99287 51309 41297 70625 10240 20226 40175 56005 76462 876// 22223 21205 306// 41205 5//// 80230
BBXX SHIP 04004 99045 11298 41797 60705 10284 20274 40105 52/// 70322 81206 22212 04291 10706 301// 40706 80276
BBXX V7QN8 04003 99039 31182 41297 30910 10280 2027/ 40110 54/// 70322 83889 22253 04280 20601 309// 40601 5//// 6//// 80270 ICE /////
BBXX 41112 04001 99307 70813 46/// ///// 1//// 92351 22200 00154 10302 20302 70008
BBXX 42099 04001 99273 70842 46/// ///// 1//// 92357 22200 00219 10805 20805 70024
BBXX 46204 04001 99514 71288 46/// /1316 10077 40025 57007 22200 00084 11109 70046 333 91221
BBXX 46131 04001 99499 71250 46/// /1210 1//// 40169 57008 22200 00078 10603 70014 333 91213
BBXX 46221 04001 99339 71186 46/// ///// 1//// 92345 22200 00152 11503 20901 326// 41502 70013
BBXX 46183 04001 99536 71311 46/// /1511 10086 49973 52020 22200 00074 11207 70036 333 91213
BBXX 46147 04001 99518 71312 46/// /1607 10085 49983 57002 22200 00078 11010 70050 333 91209
BBXX 46211 04001 99469 71242 46/// ///// 1//// 90006 22200 00084 11106 21004 325// 41104 70029
BBXX 46242 04001 99332 71174 46/// ///// 1//// 92358 22200 00153 11701 21001 325// 41701 70005
BBXX 46218 04001 99345 71208 46/// ///// 1//// 90002 22200 00136 11506 20903 329// 41506 70032
BBXX 46231 04001 99327 71174 46/// ///// 1//// 92354 22200 00152 11702 21001 328// 41702 70012
BBXX 46222 04001 99336 71183 46/// ///// 1//// 92356 22200 00148 11503 21001 327// 41503 70015
BBXX 46213 04001 99403 71247 46/// ///// 1//// 92354 22200 00108 11406 21003 329// 41405 70031
BBXX 46223 04001 99335 71178 46/// ///// 1//// 90000 22200 00159 11703 21001 327// 41702 70013
BBXX 46216 04001 99343 71198 46/// ///// 1//// 92357 22200 00145 11504 20902 327// 41503 70019
BBXX 46237 04001 99378 71226 46/// ///// 1//// 90010 22200 00110 11406 21003 325// 41405 70030
BBXX 46217 04001 99342 71194 46/// ///// 1//// 90012 22200 00143 11303 20902 326// 41302 70014
BBXX 46241 04001 99330 71173 46/// ///// 1//// 92341 22200 00151 11702 21001 326// 41701 70008
BBXX 46243 04001 99462 71241 46/// ///// 1//// 92359 22200 00093 11307 20805 327// 41305 70035
BBXX 41115 04001 99184 70673 46/// ///// 1//// 90005 22200 10901 20901 70006
BBXX 46249 04001 99338 71197 46/// ///// 1//// 90007 22200 00151 11504 20802 326// 41504 70021
BBXX 46244 04001 99409 71244 46/// ///// 1//// 90005 22200 00108 11406 21003 328// 41405 70029
BBXX 46088 04001 99483 71232 46/// /1703 10090 40189 90020 22200 00077 10401 20401 70006 333 91205 555 11037 22044 32354 41208 60019 160036 126061 121067 119066 139034 180015
BBXX 44100 04001 99363 70756 46/// ///// 1//// 92352 22200 00118 10704 20704 70021
BBXX SHIP 04004 99309 71327 41598 61406 10185 20127 40255 56005 70320 83341 92345 22263 00230 20101 309// 40605 80150
BBXX SHIP 04004 99522 71412 41597 71728 10075 20065 49786 56031 71022 8671/ 90000 22264 00070 20404 318// 40605 80070
BBXX 46111 04001 99481 71227 46/// /1114 10110 40189 56017 90000 22200 00051
BBXX 44033 04001 99441 70690 46/30 /3310 11068 40128 53022 90004 22200 00060 10301 70007 333 91213 555 11125 22130
BBXX 44067 04001 99384 70770 46/// /0406 11019 40231 52045 90000
BBXX 41037 04001 99340 70775 46/// /3114 10047 40198 53017 90000 22200 00191 333 91216
BBXX 42363 04001 99282 70892 46/// /0406 10111 20006 40315 90015 333 91207
BBXX 42364 04001 99291 70881 46/// /3413 10100 21006 40319 90015
BBXX 42362 04001 99278 70907 46/// /0404 10128 20017 40322 90015
BBXX YJSW5 04004 99273 70898 41598 30409 10150 20076 40290 57010 7//00 82/9/ 22200 00222 20302 301// 40704 5//// 6//// 80110 ICE /////
BBXX C6FN4 04004 99207 70835 41797 10330 10240 20196 40220 54000 7//11 81200 22273 04260 20203 30304 40204 50102 6//// 80210 ICE /////
BBXX C6PZ8 04004 99265 70786 41/// 83530 10140 2009/ 40280 54/// 7//// 8//// 22232 00230 2//// 3//// 4//// 5//// 6//// 80110 ICE /////
BBXX 4XFV 04003 99335 71435 43498 82025 10180 2015/ 40020 52040 884// 22224 20606 329// 41010 80160
BBXX 62029 04004 99487 70125 46/// /3118 10110 20050 40250 58008 22200 00121 11013 70065 333 90710 91127
BBXX 62301 04004 99524 70047 46/// /2925 10076 20029 40126 52048 22200 00086 10608 70040 333 90710 91138
BBXX 62442 04004 99490 70164 46/// /2914 1//// 2//// 40306 53023 22200 00120
BBXX BATFR22 04004 99423 10072 46/// /2713 10129 40251 58016 22274 00142
BBXX BATFR20 04004 99424 10075 46/// ///// 10127 20057 40243 58017 22274
BBXX BATFR15 04004 99502 70002 46/// /2724 10102 20044 40128 53036 22244 00117
BBXX BATFR14 04004 99430 70146 44793 63115 10139 20134 40335 51035 74155 86777 22264 00142 21008 327// 41006 5////
BBXX BATFR21 04004 99429 10070 46/// /2516 40240 58021 22263
BBXX BAREU00 04004 99467 70178 46/// ///// 40337 52030 22263
BBXX BAREU51 04004 99438 10093 46/// ///// 40235 22233
BBXX BATFR32 04004 99404 10072 46/// /3318 10133 20073 40278 56011 7//// 8//// 22234 00154
BBXX 61002 04004 99421 10047 46/// /0000 10131 2//// 40282 57010 22200 00133 10603 70015
BBXX BATUK01 04004 99560 70032 46/// /2608 10039 21012 49985 51052 22200 00059
BBXX BATFR42 04004 99497 70018 46/// /2945 10102 20037 40146 222// 00127
BBXX BATFR54 04004 99448 70047 46/// /2539 10139 20122 40273 22262 00137
BBXX BATFR46 04004 99338 70075 44996 20808 10139 20117 40311 70111 82122 22213 00160 21002
BBXX BATEU04 04004 99581 70295 46/// /2239 10065 20054 49924 55013 22222
BBXX BATFR60 04004 99494 70041 46/// /2833 10107 20044 40192 53010 22222 00112
BBXX BATFR31 04004 99425 10070 46/// /2611 10132 20125 40252 58015 22234 00137
BBXX 61001 04004 99434 10078 46/// /2214 10130 20085 40238 57016 22200 00138 10602 70008
BBXX BATFR52 04004 99500 70038 46/// /2930 10100 20027 40178 22233 00114
BBXX BAREU12 04004 99499 70038 46/// ///// 40156 52020 22253
BBXX A8PK8 04003 99375 10107 41598 53116 10150 20103 40239 51031 70222 8446/ 22264 04167 20101 334// 40102 5//// 80125
BBXX LF5T 04004 99660 10081 437// /1318 10042 21007 49762 57012 90010 22200 10806 70031 333 91123
BBXX LF4C 04004 99584 10019 43/// /3135 10069 20028 49817 52075 22200 10811 70055 333 91143
BBXX 3ERR2 04004 99635 10053 43/// /0111 10060 20010 49712 57002 22200 11105 70026 333 91125
BBXX LF4B 04004 99606 10037 47/98 /3427 10058 49724 52056 723// 22200 00057 10908 70040 333 91144
BBXX LF3N 04004 99653 10073 43/// /1113 10047 20008 49749 57013 22200 10907 70034
BBXX LF3F 04004 99643 10078 43/// /1122 10044 21015 49726 57010 22200 04083 10806 70032 333 91126
BBXX 62132 04004 99564 10020 46/// /3235 10070 20015 49919 52047 22200
BBXX 62165 04004 99540 10009 47498 /2717 10058 20024 49987 51016 700// 22200 10607 70034
BBXX 62127 04004 99540 10007 47498 ///// 10053 20022 49984 52016 700// 22200 10606 70030
BBXX 62149 04004 99537 10011 47598 /2626 10063 20019 49995 52016 700// 22200 10606 70030
BBXX 62131 04004 99539 10012 46/// /26// 10061 20025 49984 53014 22200
BBXX 62150 04004 99536 10007 47498 /2726 10059 20017 40008 52022 700// 22200 10504 70022
BBXX 62148 04004 99536 10015 46/// /2515 10064 20020 40005 52014 22200
BBXX 62121 04004 99535 10027 46/// ///// 22200
BBXX 62144 04004 99534 10017 47596 /2532 10061 20017 40016 52010 751// 22200 10607 70034
BBXX 62145 04004 99531 10028 47997 /2329 10066 20007 40009 51012 700// 22200 10608 70038
BBXX MWYG6 04004 99603 70040 47998 /2826 10049 700// 22200
BBXX 63115 04004 99616 10013 47598 /3131 10048 20011 49791 52050 700// 22200 10708 70040
BBXX 63117 04004 99613 10011 47598 /3328 10063 20001 49780 52043 700// 22200
BBXX 62142 04004 99530 10021 47997 /2530 10062 20009 40005 51006 700// 22200 10606 70028
BBXX 63104 04004 99612 10016 47498 /3233 10059 20020 49765 52042 700// 22200
BBXX 63112 04004 99611 10010 47/98 /3324 10052 21001 49777 52046 700// 22200 10708 70040
BBXX 63103 04004 99612 10011 46/// /3332 10056 20003 49783 52048 22200 10807 70037
BBXX 63105 04004 99610 10017 47597 ///// 10058 20014 49763 52041 700// 22200
BBXX 63101 04004 99612 10009 46/// ///// 22200
BBXX 63107 04004 99611 10017 46/// /3233 10056 49765 52041 22200
BBXX 63113 04004 99610 10017 46/// /3333 10059 20015 49766 52046 22200 10708 70041
BBXX 62112 04004 99584 70002 47597 /2920 10066 20008 49859 52058 751// 22200
BBXX 63106 04004 99610 10017 46/// /3231 10055 49765 52042 22200
BBXX PJAI 04004 99581 70014 47598 /2825 10069 20011 49897 52056 700// 22200
BBXX 64041 04004 99607 70026 47497 /2921 10041 21000 49853 52037 700// 22200 10807 70034
BBXX 62111 04004 99580 70003 46/// /3134 10065 20011 49899 52061 22200 10709 70043
BBXX 63108 04004 99608 10017 47598 /3431 10063 20017 49764 52057 700// 22200 11007 70037
BBXX 63056 04004 99597 10016 47596 /3236 10056 20018 49774 52066 740// 22200 10709 70045
BBXX 63055 04004 99606 10016 47395 /3124 10049 20037 49771 52060 704// 22200 10707 70035
BBXX 63110 04004 99595 10015 47496 /3335 10068 20045 49788 52066 762// 22200 10710 70048
BBXX 62128 04004 99587 10014 47598 /3138 10051 20017 49841 52061 700// 22200 10711 70054
BBXX 63057 04004 99592 10015 47497 /3142 10065 20025 49795 52069 700// 22200 10710 70049
BBXX 62114 04004 99583 10000 46/// /2934 10069 21004 49851 52064 22200
BBXX 62113 04004 99584 10002 47597 /3130 10081 20011 49844 52069 700// 22200
BBXX 62081 04004 99510 70134 46/// ///// 10101 20057 40250 53031 22200 00117 11116 70079
BBXX 62129 04004 99584 10003 46/// ///// 10064 20007 49847 52068 22200
BBXX 64046 04004 99605 70049 46/// /3125 10052 20012 49880 51034 22200 00077 10707 70037
BBXX ZQSD5 04004 99583 10007 46/// /3129 10065 20020 49850 52073 22200 10811 70057
BBXX 62105 04004 99554 70121 46/// /2929 10086 20039 40106 52032 22200 00105 11016 70078 333 90710 91144
BBXX 62027 04004 99491 70022 46/// /3026 1//// 2//// 40177 51016 22200 00107 10807 329// 70035
BBXX 64045 04004 99591 70117 46/// /2928 10073 21003 49984 52027 22200 00099 10912 70062 333 90710 91139
BBXX 62001 04004 99452 70050 46/// /3011 10131 20123 40264 53018 22200 00134 11014 70070 333 90710 91139
BBXX 62303 04004 99516 70051 46/// /3127 10092 20035 40148 52038 22200 00108 10809 70044 333 90710 91138
BBXX 62163 04004 99475 70084 46/// /3121 10109 20044 40272 51027 22200 00123 11113 70064 333 90710 91128
AAXX 04004 67023 NIL
AAXX 04004 67131 NIL
AAXX 04004 63791 32980 00000 10224 20144 39102 48482 333 55300 59001
AAXX 04004 63729 NIL
AAXX 04004 63733 NIL
AAXX 04004 63756 NIL
AAXX 04004 63801 NIL
AAXX 04004 63832 NIL
AAXX 04004 63862 NIL
AAXX 04004 63866 NIL
AAXX 04004 63870 NIL
AAXX 04004 63881 NIL
AAXX 04004 63887 NIL
AAXX 04004 63894 NIL
AAXX 04004 63932 NIL
AAXX 04004 63962 NIL
AAXX 04004 63971 NIL
AAXX 04001 55299 11780 71102 11148 21173 35806 57002 69901 78580 87900 333 05101 79999
AAXX 04001 55591 32980 11101 11066 21135 36482 52009 80002 333 00052
AAXX 04001 56739 11475 80201 10076 20065 38352 52009 60021 78080 889// 333 00152 70032
AAXX 04001 56951 11475 81801 10103 20092 38506 52009 60031 78080 889// 333 00153 70028
AAXX 04001 56964 11465 83601 10139 20128 38704 40136 52011 60031 78080 884// 333 00100 70028
AAXX 04001 57328 11840 80000 10039 20014 39909 40337 52007 60011 76066 885// 333 00400 30036 70043
AAXX 04001 57411 11440 80901 10039 20026 39948 40336 52005 60011 76066 8672/ 333 00400 30045 70120
AAXX 04001 57447 11465 82501 10023 20007 39790 40359 52009 69951 76076 8272/ 333 00452 30035 70015
AAXX 04001 57662 32965 70901 10019 21055 30181 40374 52016 8704/ 333 00553 31012 79999
AAXX 04001 57745 31756 80702 10019 21030 30013 40358 52003 71000 885// 333 00552 30017 70042
AAXX 04001 57972 11457 83402 10029 20022 30110 40347 52010 69991 72166 887// 333 00652 30038 70078
AAXX 04001 58203 31950 21401 11072 21093 30338 40383 52013 71000 80002 333 00356
AAXX 04001 58314 32962 01601 11065 21066 30267 40382 52016 333 00558 31031
AAXX 04001 58424 31956 00902 11002 21107 30356 40383 52016 70500 333 00753 79999
AAXX 04001 59023 11568 80702 10054 20015 39996 40319 52012 69901 72160 888// 333 00854 70036
AAXX 04001 59417 11363 80902 10088 20068 30114 40273 52014 60051 76066 887// 333 00753 70094
AAXX 04001 59985 32580 20406 10233 20212 30170 40175 52018 82100 333 00101 70001
AAXX 04001 59995 NIL
AAXX 04001 78310 12520 50207 10208 20130 30250 40261 51010 60001 83830 333 10248 20202 30/// 56890 58038 70039 82821 92045 555 10103
AAXX 04001 78315 12564 10201 10168 20105 30183 40250 53014 60001 81200 333 10238 20167 30/// 56900 58039 70006 81820
AAXX 04001 78318 12565 63608 10178 20100 30255 40259 53011 60001 86800 333 10220 20174 30/// 56900 58039 83820 86622
AAXX 04001 78322 12556 63506 10162 20082 30234 40252 53048 60001 83402 333 10232 20149 30/// 56809 58026 83820 84080
AAXX 04001 78324 NIL
AAXX 04001 78325 11530 63608 10159 20061 30197 40257 53011 60001 70411 86200 333 10216 20159 30/// 56800 58033 86820 555 13603
AAXX 04001 78328 12462 50107 10165 20066 30248 40/// 52010 60001 85800 333 10220 20160 30/// 56800 58038 84818 85620 92427 555 13603
AAXX 04001 78333 12/10 20306 10172 20089 30235 40242 53020 60001 81130 333 10240 20161 30/// 56990 58039 818//
AAXX 04001 78344 11550 53606 10177 20082 30186 40236 53019 60001 70511 84840 333 10232 20149 30/// 56990 58033 82820 83630
AAXX 04001 78345 12565 70207 10195 20109 30224 40228 51017 60001 875// 333 10260 20174 30/// 56099 58033 87623
AAXX 04001 78348 11557 73509 10175 20085 30184 40238 53017 60001 70511 87800 333 10210 20175 30/// 56800 58043 83821 86631 555 13603
AAXX 04001 78349 12540 73606 10180 20107 30123 40236 52021 60001 875// 333 10228 20163 30/// 56899 58028 87625 555 13603
AAXX 04001 78351 12950 03504 10169 20108 30211 40213 53021 60001 333 10254 20162 30/// 56000 58032 79999
AAXX 04001 78353 12560 33606 10197 20104 30208 40231 51026 60001 82802 333 10235 20197 31/// 50524 56909 58039 70014 81820
AAXX 04001 78355 12560 33603 10174 20107 30085 40229 53016 60001 83800 333 10228 20164 30/// 56900 58037 79999 82820
AAXX 04001 78358 12530 33506 10199 20124 30201 40216 52016 60001 83500 333 10251 20195 31/// 56900 58034 70023 83629
AAXX 04001 78360 12/60 13513 10223 20137 30187 40199 53015 60001 81400 333 10268 20219 30/// 56900 58016 816// 92046
AAXX 04001 78363 11559 63502 10200 20113 30085 40202 52029 60001 70511 86500 333 10267 20196 30/// 56900 58040 86621
AAXX 04001 78365 NIL
AAXX 04001 78369 11464 73507 10247 20202 30177 40186 52013 69911 70581 878// 333 10269 20212 30/// 56999 57890 58022 70009 83818 84630 92034
BBXX 46185 04001 99524 71298 46/// /1613 10078 40005 57004 22200 00071 11111 70055 333 91216
AAXX 04004 62458 32960 00407 10154 20038 40199 57012
AAXX 04004 62455 32960 03602 10102 20065 40203 57006
AAXX 04004 62420 32960 70000 10120 20050 40234 57013 8701/
AAXX 04004 62432 32960 02401 10070 20031 40228 57010
AAXX 04004 62435 32960 03603 10106 20026 40208 57009
AAXX 04004 62476 32960 03207 10160 20105 40165 56006
AAXX 04004 82141 32797 43608 10277 20244 30105 40117 84030 333 10313 29079 55091 58006
AAXX 04004 82145 32995 00000 10268 20237 30076 40117 333 10338 29072 55101 58006
AAXX 04004 82181 32496 80505 10301 20234 39984 40123 8655/ 333 10337 29065 55080 58000
AAXX 04004 82198 32692 20204 10267 20233 30056 40107 82060 333 10326 29073 55105 59003
AAXX 04004 82353 32997 50000 10284 20250 39999 40083 83330 333 10348 29075 55077 58000
AAXX 04004 82361 32496 20000 10282 20242 30074 40111 81330 333 10322 29077 55040 58006
AAXX 04004 82476 32795 33603 10301 20207 39977 40095 85040 333 10385 29051 55099 58000
AAXX 04004 82861 21597 51804 10251 20240 39920 40090 70252 85600 333 10278 29094 55001 58013 69911
AAXX 04004 82143 31296 70305 10270 20243 40114 7031/ 84670 222// 80250 333 10/// 58008
AAXX 04004 83117 31197 60001 10220 20206 40125 52015 7031/ 8861/ 222// 02220 80210 333 10270
AAXX 04004 82586 32694 33610 10280 20220 39893 40130 84200 333 10350 29072 55101 58002
AAXX 04004 82678 32992 00000 10304 20231 39958 40096 333 10373 29057 55105 58005
AAXX 04004 82784 32695 20000 10251 20228 39656 40108 82010 333 10345 29079 55094 58002
AAXX 04004 82791 32995 00510 10313 20200 39820 40094 333 10379 29050 55111 59005
AAXX 04004 82983 32995 00000 10316 20220 39682 40086 333 10359 29056 55080 58008
AAXX 04004 82098 32496 60708 10284 20238 30095 40112 8366/ 333 10339 29072 55076 58007
AAXX 04004 82246 32596 80902 10267 20244 39901 40098 877// 333 10324 29085 55050 58002
AAXX 04004 82445 32696 62301 10259 20251 30074 40126 82550 333 10293 29092 55004 58002
AAXX 04004 82460 32595 63602 10290 20234 30084 40113 87100 333 10380 29063 55096 59006
AAXX 04004 82562 32995 00000 10275 20237 39985 40093 333 10310 29078 55016 58004
AAXX 04004 82571 32797 32301 10283 20224 39925 40098 83030 333 10350 29066 55101 58006
AAXX 04004 82765 32598 81802 10262 20244 39906 40147 8382/ 333 10295 29088 55003 58014
BBXX LF3N 04004 99653 10073 41598 71113 10047 20008 49749 57013 70221 8//// 22200 00088 10907 70034
AAXX 04004 67002 32580 30204 10266 20243 30048 40082 81802 333 0//00 59024 81820 92418
AAXX 04004 67009 NIL
AAXX 04004 67012 NIL
AAXX 04004 67025 NIL
AAXX 04004 67027 31580 72008 10263 20240 30047 40068 56007 84908 333 0//00 82820 81920 83640 85273 94973 95833
AAXX 04004 67045 NIL
AAXX 04004 67072 NIL
AAXX 04004 67073 NIL
AAXX 04004 67083 11460 81602 10166 20166 38722 48496 55002 60261 76166 8487/ 333 0//19 81817 84620 86460= RR 26,2MM 67095 11465 70000 10235 20231 30095 40101 56005 60151 72166 878// 333 0//11 83817 86633= RR 15,0MM 67113 NIL
AAXX 04004 67117 NIL
AAXX 04004 67137 NIL
AAXX 04004 67143 NIL
AAXX 04004 67157 NIL
AAXX 04004 67161 NIL
AAXX 04004 67197 11465 70804 10240 20224 30115 40125 56002 60011 71562 878// 333 0//15 83817 85633= RR 1,2MM
AAXX 04004 06670 31780 72412 10080 20003 39667 40178 58023 71522 8257/ 333 55300 20000 82650 84357 87358 91132 91217
AAXX 04004 06700 31789 72611 10055 20004 39744 40245 58018 72581 875// 333 55300 20000 87656 91119 91212
AAXX 04004 06680 03/// /2429 11019 21047 37489 47029 57007 69961 333 55300 20000 60005 91177 91258
AAXX 04004 06990 33/// /1309 10050 21031 39638 40192 58035 333 55300 20000 91119 91210
AAXX 04004 06760 33/// /0203 10031 21029 39794 40254 57018 333 55300 20000 91105 91203
AAXX 04004 06720 32970 20805 11002 21020 39669 40266 58020 82040 333 55300 20000 82358 91108 91205
AAXX 04004 06610 01662 82114 10059 20014 39627 40217 58021 69931 76162 887// 333 55300 20000 69915 88744 91127 91216
AAXX 04001 47008 32970 00000 11065 21154 30144 40200 53003 333 21086
AAXX 04001 47014 32650 40000 11232 21244 39870 40316 52028 84500 333 21235
AAXX 04001 47016 12970 00000 11230 21255 39376 40293 52019 69902 333 21230
AAXX 04001 47020 12965 00000 11179 21191 39901 40315 52022 69922 333 21181
AAXX 04001 47025 32965 00000 11106 21142 30166 40197 52007 333 21117
AAXX 04001 47035 32970 03602 11117 21164 30288 40297 52022 333 21119
AAXX 04001 47041 11960 00000 11096 21137 30181 40210 52023 69902 71044 333 21122
AAXX 04001 47055 32965 00000 11068 21120 30183 40231 52013 333 21075
AAXX 04001 47058 12960 03203 11108 21159 30229 40280 52022 69902 333 21117
AAXX 04001 47069 11956 03602 11079 21125 30154 40259 52012 69902 71000 333 21098
AAXX 04001 48845 11497 83602 10156 20152 30211 40218 52039 60052 76166 888// 333 01016 20156 3/016 58049 8589 4 88696 96160
AAXX 04001 24790 31984 20000 11481 21499 39410 40384 53004 77670 80001 333 21481 48023 55000
AAXX 04001 24988 NIL
AAXX 04001 25378 42998 73207 11204 21282 30147 40182 58012 85032 333 91113
AAXX 04001 25503 NIL
AAXX 04001 25705 31996 20000 11447 21476 39883 40273 57003 71011 81041 333 21466 47067 55011
AAXX 04001 25927 11697 83601 11179 21191 30231 40238 53002 69950 78582 889// 333 21196 48018 55000
AAXX 04001 25932 32999 02301 11239 21264 30195 40237 54000 333 21248 42014 55000
AAXX 04001 31152 32998 00000 11369 21398 39851 40324 53007 333 21369 47034 55000
AAXX 04001 31174 32999 70403 11244 21256 30214 40227 53005 80002 333 21290 47008 55063
AAXX 04001 31489 31595 83204 11166 21185 30065 40188 54000 77372 8802/ 333 21314 47029
AAXX 04001 31866 32999 03208 11126 21234 30064 40070 57005 333 21140 44011 91014 91114
AAXX 04001 31959 32999 02607 11122 21205 30055 40100 56005 333 21123 41998 55076 91016 91117
AAXX 04001 31989 32999 03202 11074 21185 30075 40131 53010 333 21089 91114
AAXX 04001 32027 11593 83612 11133 21146 30122 40131 52020 60040 78583 889// 333 21152 48024 91015 91117
AAXX 04001 32076 11422 83605 11029 21033 30013 40023 53002 60130 77373 8872/ 333 21074 47130 91009 91112
AAXX 04001 32099 11598 80508 11020 21023 39956 49965 56003 60060 73683 889// 333 21086 49021 91009 91111
AAXX 04001 32121 11493 83505 11082 21105 39967 49990 57011 60010 78683 889// 333 21103 47012 91009 91109
AAXX 04001 32213 31597 80927 11012 21041 39960 40023 57018 73933 885// 333 21024 44018 55000 91033 91133
AAXX 04001 32287 32999 00502 11154 21167 30166 40177 57006 333 21239 47075 55058
AAXX 04001 32408 32999 13603 11197 21216 30152 40194 57013 80001 333 21294 48089 55060
AAXX 04001 32509 32999 83603 11073 21182 30149 40184 56002 80001 333 21120 44022 55054
AAXX 04001 32594 11495 81026 11024 21060 39993 40029 53007 69940 78583 889// 333 21037 44005 55/// 91031 91135 92982
AAXX 04001 48840 11497 83604 10126 20119 30219 40225 52030 60032 70262 888// 333 01014 20126 3/014 58060 8489 4 88696
AAXX 04004 62357 32560 33303 10111 20101 40237 57010 83500
AAXX 04004 62423 32960 03602 10102 20031 40242 57010
AAXX 04004 62403 32960 00000 10086 20036 40204 57008
AAXX 04001 47090 32663 22905 11034 21142 30188 40211 52025 81500 333 21056 3/105 41/// 92032
AAXX 04001 47095 11556 41801 11110 21148 30062 40265 52029 69902 70511 84500 333 21115 3/106 47001
AAXX 04001 47097 329// /2301 11082 21140 30161 40263 52028 333 21097 3/105
AAXX 04001 47098 129// /0001 11103 21130 30119 40263 52029 69912 333 21117 3/105
AAXX 04001 47099 129// /0001 11110 21145 30229 40268 52028 69902 333 21128 3/107
AAXX 04001 47100 12370 12708 11131 21167 39268 40247 52028 69912 81500 333 21139 3/107 49023
AAXX 04001 47102 12668 72911 11062 21107 30093 40281 52025 69912 87500 333 21066 3/101 43007
AAXX 04001 47104 32970 01405 11051 21149 30109 40211 52023 333 21080 3/103 43002
AAXX 04001 47106 329// /2507 11041 21157 30157 40208 52024 333 21057 3/104
AAXX 04001 47112 11958 03411 11074 21142 30177 40266 52026 69902 70500 333 21075 34106 92023
AAXX 04001 47114 12660 62302 11087 21148 30065 40259 52029 69902 85500 333 21092 3/107 46///
AAXX 04001 47119 11956 02905 11079 21126 30220 40265 52025 69902 70500 333 21086 3/104 43001
AAXX 04001 47121 129// /2503 11085 21137 39942 40254 52031 60022 333 21091 3/102
AAXX 04001 47127 129// /2505 11075 21141 30111 40261 52027 69902 333 21077 3/105
AAXX 04001 47129 11658 63409 11042 21102 30234 40272 52026 60022 70522 86500 333 21047 3/001 43004
AAXX 04001 47130 32967 02305 11041 21157 30139 40203 52025 333 21061 34103 92022
AAXX 04001 47131 11659 22902 11068 21120 30188 40263 52026 60012 70521 82500 333 21074 3/101 47002
AAXX 04001 47135 129// /2714 11073 21113 39938 40254 52031 60012 333 21075 3/104
AAXX 04001 47136 12965 02908 11061 21143 30057 40238 52024 69902 333 21071 30106
AAXX 04001 47137 129// /2704 11066 21160 30125 40250 52030 69902 333 21070 3/106
AAXX 04001 47140 11550 73403 11047 21056 30236 40266 52028 60062 78588 87800 333 21052 3/001 43010 92012
AAXX 04001 47143 12661 42705 11043 21122 30168 40251 52026 69952 84500 333 21048 3/101 43003
AAXX 04001 47145 11558 62906 11067 21118 30230 40258 52027 60032 70522 85500 333 21069 3/101 43005
AAXX 04001 47146 11661 60205 11044 21078 30195 40264 52026 60022 72277 86500 333 21050 3/000 43005
AAXX 04001 47150 11659 60205 11048 21080 30244 40264 52025 60062 72682 85500 333 21051 3/000 49015
AAXX 04001 47152 12968 02911 11035 21126 30181 40226 52030 69902 333 21039 34103
AAXX 04001 47154 129// /2905 11053 21118 30184 40247 52027 69952 333 21055 3/102
AAXX 04001 47155 12661 21405 11020 21098 30184 40232 52028 69902 81500 333 21026 34102
AAXX 04001 47156 11557 73603 11031 21042 30170 40263 52024 60042 78588 82800 333 21039 3/001 49007
AAXX 04001 47157 12665 13407 11048 21124 39947 40229 52030 69912 81500 333 21049 3/104 43001
AAXX 04001 47162 32565 20509 11011 21094 30191 40233 52025 81500 333 21023 30102 92023
AAXX 04001 47169 11568 63216 11012 21023 30173 40271 52032 69962 78588 86800 333 21022 3/001 44/// 92075
AAXX 04001 47170 11565 63210 11014 21059 30214 40259 52019 60022 78588 86800 333 21031 3/000 47005 92023
AAXX 04001 47171 11557 63603 11043 21058 30208 40266 52025 60062 78588 86800 333 21046 3/000 43011
AAXX 04001 47172 129// /3606 11038 21056 30188 40258 52027 60022 333 21039 3/001
AAXX 04001 47173 11960 60205 11051 21085 30143 40260 52028 60042 726// 85500 333 21053 3/101
AAXX 04001 47174 11558 63207 11040 21076 30036 40247 52025 60022 78588 86800 333 21042 3/000 43005
AAXX 04001 47175 11530 73216 11046 21054 39660 40259 52021 60022 78588 84800 333 21059 3/000 47003 92035
AAXX 04001 47185 11558 73232 10030 21008 30160 40253 52027 69952 78582 87800 333 20005 3/001 41/// 92057
AAXX 04001 47188 11568 63404 10011 21030 30233 40256 52018 60042 72682 86800 333 21001 3/001 43001 92032
AAXX 04001 47189 11565 63204 10014 21025 30195 40257 52020 69932 72678 86800 333 20001 3/001 42/// 92032
AAXX 04001 47192 12668 23605 11014 21126 30201 40240 52028 69902 82500 333 21026 34102
AAXX 04001 47003 32980 33203 11093 21162 30201 40205 53005 80002 333 21102
AAXX 04001 47005 12580 30000 11258 21270 38562 52016 69902 83500 333 21300
AAXX 04001 47022 32975 03603 11186 21212 38792 53010 333 21198
AAXX 04001 47028 32665 23201 11119 21154 30194 40296 52014 82500 333 21123
AAXX 04001 47031 32970 00000 11180 21199 38906 52018 333 21194
AAXX 04001 47037 32970 03602 11108 21152 30144 40274 52033 333 21142
AAXX 04001 47039 32960 00000 11140 21161 30071 40277 52022 333 21143
AAXX 04001 47046 12969 80000 11087 21125 30188 40212 52029 60102 80002 333 21110
AAXX 04001 47050 32965 03204 11107 21160 30223 40259 52016 333 21115
AAXX 04001 47052 12965 00000 11168 21187 39901 40270 52022 69912 333 21170
AAXX 04001 47060 31940 03203 11094 21145 30207 40269 52027 71000 333 21098
AAXX 04001 47061 32970 00000 11036 21088 30163 40208 52021 333 21053
AAXX 04001 47065 31960 03201 11133 21153 30208 40278 52031 71022 333 21133
AAXX 04001 47067 32965 80000 11111 21145 30154 40282 52020 80001 333 21120
AAXX 04001 47068 12560 83203 11068 21115 30227 40264 52020 69902 885// 333 21071
AAXX 04001 47070 32970 02702 11102 21130 30166 40259 52017 333 21117
AAXX 04001 47075 32580 82303 11125 21145 39741 40199 52023 885// 333 21133
AAXX 04001 47101 12660 43601 11105 21126 30159 40262 52032 69902 84500 333 21106 3/108 45///
AAXX 04001 47105 369// /2510 11049 21155 30180 40214 52022 333 21063 3/101
AAXX 04001 47108 11958 03203 11094 21153 30151 40264 52023 69902 70500 333 21096 3/107 44///
AAXX 04001 47115 11510 80717 11026 21032 39882 40162 52027 60132 77177 8682/ 333 21032 3/101 49029 92055
AAXX 04001 47133 11640 63403 11060 21088 30174 40264 52026 60022 77177 86500 333 21066 3/000 43006
AAXX 04001 47138 12968 02904 11034 21123 30219 40222 52031 69902 333 21038 34101 92032
AAXX 04001 47159 32962 02909 11021 21109 30133 40222 52021 333 21030 30103 92023
AAXX 04001 47165 11540 73413 11023 21035 30214 40263 52020 60012 78582 87800 333 21033 3/000 43002 92034
AAXX 04001 47168 12670 43609 11023 21090 30161 40244 52026 69902 84500 333 21026 30101 92023
AAXX 04001 47184 11550 73216 10017 21030 30240 40266 52024 60012 78587 87800 333 20015 31001 92065
BBXX C6TE3 04004 99461 31502 41397 72720 10130 20111 49982 58003 70255 877// 22233 00140 20806 325// 40804
BBXX ZMFR 04004 99429 51791 43/// /2616 10152 20087 40181 57008 22241 00152
BBXX V2QD4 04003 99377 31498 41298 32432 10223 20200 40130 52027 70311 8/73/ 22253 00213 20505 305// 41002
BBXX ZMENA 04004 99377 31762 46/// ///// 10205 20160 40198 57017 22200
BBXX C6TE3 04004 99461 31502 41397 72720 10130 20111 49982 58003 70255 877// 22233 00140 20806 325// 40804
BBXX ZMFR 04004 99429 51791 43/// /2616 10152 20087 40181 57008 22241 00152
BBXX V2QD4 04003 99377 31498 41298 32432 10223 20200 40130 52027 70311 8/73/ 22253 00213 20505 305// 41002
BBXX ZMENA 04004 99377 31762 46/// ///// 10205 20160 40198 57017 22200
AAXX 04004 89132 NIL
AAXX 04004 89542 46/// /1313 11001 20055 49717 57030
AAXX 04004 89575 NIL
AAXX 04004 89657 NIL
BBXX A8CE9 04001 99032 30529 41697 72913 10270 20257 40080 55020 70222 87578 22224 04300 20602 301// 40602 80260
BBXX BATFR19 04004 99067 30055 46/// /1811 10237 20194 40133 58013 222// 00257
BBXX TBWUK38 04004 99080 30069 41392 42008 10250 20220 40124 53005 70122 8/131 22244 20202 302// 40101 5//// 80230
BBXX SHIP 04004 99103 31055 41/97 30911 10285 20278 40037 70222 222// 0//// 20201 329// 40102 5////
BBXX BATFR55 04004 99202 30572 46/// /1014 10264 20222 40113 22222 00279
BBXX DCCP2 04000 99267 30452 41/98 /1009 10237 20213 40130 57015 70000 8//// 22254 00250 2//// 3//// 4//// 5//// 80220
BBXX MIBR 04003 99281 30445 41498 51019 10235 20188 40151 54000 70211 852// 22254 00259 20301 3//// 4//// 5//// 80205
BBXX DBBT 04001 99339 30184 46/// /2502 10187 20123 40148 57011 22220 00161
BBXX DBLK 04001 99361 30160 41597 /2712 10181 20121 40132 57010 7//// 22212 04200
AAXX 04004 40153 11658 11107 10070 20063 39149 48537 57007 60001 71000 81400
AAXX 04004 40179 11959 00204 10093 20082 30189 40227 57009 60001 71000
AAXX 04004 40180 12960 00307 10098 20075 30181 40231 57011 60001
AAXX 04004 40190 16/// ///// 10095 20059 39888 40227 57010 60001
AAXX 04004 40199 12970 00306 10125 20069 30180 40203 57011 60001
BBXX NIL
BBXX NIL
BBXX NIL
BBXX NIL
BBXX NIL
AAXX 04004 40250 32960 00000 10042 20021 39443 40253 54002
AAXX 04004 40265 32960 00000 10040 20035 39446 40256 57004
AAXX 04004 40296 32660 60000 10160 20114 40230 52003 83800 333 83830 83630
AAXX 04004 40310 NIL
AAXX 04001 60376 36/// /1603 10097 20097
AAXX 04001 60593 36/// /0000 10089
AAXX 04004 62305 32560 33005 10114 20051 40251 57006 83500
AAXX 04004 62306 32560 61303 10112 20098 40249 57009 86500
AAXX 04004 62318 32560 53506 10142 20107 40235 57010 85800
AAXX 04004 62337 32960 01704 10062 20054 40229 57007
AAXX 04004 62366 31856 53604 10126 20096 40232 57007 71020 85050
AAXX 04004 62393 32960 03602 10070 20041 40230 56006
AAXX 04004 62405 32960 00000 10092 20043 40196 57013
AAXX 04004 62414 32960 03505 10102 20021 40206 57010
AAXX 04004 62417 32960 02202 10052 20011 40245 57010
AAXX 04004 62440 31920 03102 10076 20070 40226 57009 71000
AAXX 04004 62463 32960 03112 10137 20043 40195 57011
AAXX 04004 62465 32960 02905 10128 20082 40179 57009
AAXX 04004 62419 NIL
AAXX 04004 71345 16/// /2316 10055 21077 60001 333 10103 20034 70000
AAXX 04004 71257 16/// /2107 10024 21032 60001 333 10050 21030 70010
AAXX 04004 71258 16/// /2413 10058 21032 60001 333 10060 21022 70000
AAXX 04004 71259 16/// /2110 10026 21032 60001 333 10085 21014 70000
AAXX 04004 71274 16/// /1105 11018 21043 60001 333 10020 21095 70000
AAXX 04004 71275 46/// /1405 11008 21038 6///1 333 10019 21079 7////
AAXX 04004 71278 16/// /1806 11012 21046 60001 333 10060 21036 70000
AAXX 04004 71286 16/// /1105 11024 21043 60001 333 10045 21067 70000
AAXX 04004 71287 16/// /1302 11007 21033 60001 333 10015 21078 70000
AAXX 04004 71289 46/// /1910 10008 21035 6///1 333 10050 21024 7////
AAXX 04004 71445 17/// /2913 11054 21082 39794 40075 51036 60011 7//4/ 333 11048 21149 70056 555 10020
AAXX 04004 71214 16/// /3502 10002 21029 60001 333 10067 21003 70000
AAXX 04004 71223 16/// /2211 10002 21034 60001 333 10053 21015 70000
AAXX 04004 71225 16/// /2116 10053 21062 60001 333 10100 20027 70000
AAXX 04004 71227 46/// /2008 11019 21043 6///1 333 10029 21041 7////
AAXX 04004 71351 16/// /2002 10015 21043 60001 333 10058 21051 70000
AAXX 04004 71353 16/// /2706 10034 21042 60001 333 10052 21003 70000
AAXX 04004 71375 46/// /2918 11072 6///1 333 11047 21079 7////
AAXX 04004 71385 46/// /3018 11139 6///1 333 11102 21140 7////
AAXX 04004 71525 16/// /2113 10049 21032 60001 333 10104 20025 70000
AAXX 04004 71526 46/// /2205 10034 21030 6///1 333 7////
AAXX 04004 71535 16/// /2425 10080 21064 60001 333 10107 20041 70000
AAXX 04004 71536 16/// /2526 10073 21080 60001 333 10095 20039 70000
AAXX 04004 71537 16/// /1808 10009 21035 60001 333 10104 21012 7////
AAXX 04004 71916 46/// /3107 11342 21374 30140 40198 56002 6///1 333 11258 21345 7////
BBXX 51171 04001 99064 71623 46/// ///// 1//// 92346 22200 00279
BBXX 51170 04001 99168 71695 46/// ///// 1//// 92347 22200 00258
BBXX 52243 04001 99193 11666 46/// ///// 1//// 92354 22200 00270
BBXX 51174 04001 99142 51697 46/// ///// 1//// 92354 22200 00287
BBXX 51169 04001 99004 51600 46/// ///// 1//// 92355 22200 00247
AAXX 04001 23973 32999 03501 11279 21303 30310 40381 54000 333 21279 47050
AAXX 04001 23975 329// 00000 11331 21360 30251 40377 57002 333 21332 47037 55000
AAXX 04001 23986 12999 00000 11228 21247 39710 40407 53008 69902 333 21234 47057
AAXX 04001 23987 32999 00000 11296 21320 30287 40371 54000 333 21296 47044 55020
AAXX 04001 24606 328// 80000 11331 21354 30055 40360 58002 84031 333 21349 47029 55000
AAXX 04001 29253 329// 00000 11277 21308 30159 40352 57002 333 21277 47045
AAXX 04001 29471 31996 00000 11269 21287 30106 40361 52001 71000 333 21269 47033
AAXX 04001 29481 32999 81301 11263 21281 30111 40377 52009 8802/ 333 21275 47031
AAXX 04001 29553 32973 20903 11186 21198 39916 40310 57004 80001 333 21195 47016 55026
AAXX 04001 29562 32984 00702 11174 21193 39879 40325 54000 333 21197 47034
AAXX 04001 29581 119// 80000 11268 21287 30092 40381 52008 69902 70271 80007 333 21270 47019
AAXX 04001 29594 31997 80000 11221 21240 39945 40368 52005 70411 86031 333 21226 48028 55028
AAXX 04001 29653 32997 02003 11197 21216 39789 40312 57002 333 21235 47024
AAXX 04001 29675 32998 00000 11255 21273 39703 40358 57005 333 21255 47030
AAXX 04001 29676 11996 80000 11235 21260 39885 40350 52001 69902 77112 80006 333 21268 47014
AAXX 04001 29752 329// 70000 11055 21230 38817 48468 57005 82049 333 21066 49047 55064
AAXX 04001 29759 329// 00000 11152 21165 39230 40314 57004 333 21152 47031
AAXX 04001 29766 32999 00000 11285 21304 39935 40334 57007 333 21285 47031 55056
AAXX 04001 29789 32999 00000 11264 21270 39097 40407 54000 333 21265 47006 55041
AAXX 04001 29864 329// 03203 11220 21239 39617 40326 57003 333 21221 42003
AAXX 04001 29866 319// 80000 11238 21250 39970 40323 57005 71042 8807/ 333 21238 47006 55002
AAXX 04001 29869 329// 00000 11285 21317 39920 40341 57004 333 21288 48025
AAXX 04001 29956 11984 00000 11269 21293 39723 40351 57005 69902 77600 333 21281 47011 55070
AAXX 04001 30337 11998 80000 11213 21232 39839 40324 52015 69992 77172 80008 333 21213 47038 55000
AAXX 04001 30405 119// 60000 11215 21227 39790 40365 53013 69922 70272 80001 333 21215 47023
AAXX 04001 30504 11997 80000 11167 21181 39662 40354 52005 69902 77171 8801/ 333 21201 47026 55053
AAXX 04001 30603 31696 70000 11241 21254 39736 40364 52008 71011 87500 333 21277 47033
AAXX 04001 30612 115// 81402 11240 21252 39772 40359 52004 69922 78582 8697/ 333 21275 47026 55///
AAXX 04001 30622 119// 50000 11233 21251 39642 40345 54000 69902 70172 82033 333 21265 47020
AAXX 04001 30627 11998 80000 11203 21215 39330 40331 52002 69902 77172 80007 333 21206 47023 55031
AAXX 04001 30703 119// 82702 11250 21256 39635 40379 53007 69902 77111 82077 333 21286 47033 55059
AAXX 04001 36307 32997 01301 11364 21388 39049 48529 57013 333 21366 47017
AAXX 04004 71683 46/// /2304 11296 30006 40122 53015 6///1 333 11242 21300 7////
AAXX 04001 23074 11997 80000 11195 21214 30359 40386 57005 69902 77172 8802/ 333 21259 47028
AAXX 04001 23274 32997 00000 11371 21407 30361 40403 58006 333 21372 47051 55000
AAXX 04001 23383 32998 00000 11400 21433 30036 40453 53001 333 21402 47044
AAXX 04001 23472 32999 00702 11298 21328 30342 40397 54000 333 21297 48060 55000
AAXX 04001 23678 329// 00000 11281 21298 30329 40395 52002 333 21290 47052
AAXX 04001 23884 329// 00000 11309 21332 30312 40396 52003 333 21311 47063 55026
AAXX 04001 23891 32996 00000 11321 21357 30062 52005 333 21321 47062 55025
AAXX 04001 24507 329// 23501 11348 21371 30114 40394 58004 80001 333 21351 47029 55000
AAXX 04001 24817 129// 20000 11314 21336 39931 40346 52008 69902 80001 333 21316 47044 55000
AAXX 04001 24908 32998 02301 11358 21387 30023 40405 52012 333 21358 47045 55000
AAXX 04001 29263 31918 00000 11264 21289 30255 40369 52007 71041 333 21265 47039 55041
AAXX 04001 29282 11984 02901 11308 21332 30206 40399 52015 69902 70271 333 21308 47043 55000
AAXX 04001 29379 41996 00000 11288 21312 30148 40384 52009 71000 333 21288 47030
AAXX 04001 29570 115// 20000 11189 21201 39968 40344 52002 69902 78500 82900 333 21189 47015
AAXX 04001 29698 119// 80000 11180 21195 39805 40357 52003 69902 77172 87072 333 21238 47020 55029
AAXX 04001 30230 11998 52901 11195 21214 39979 40331 52023 60012 70272 83031 333 21196 47035 55000
AAXX 04001 30252 119// 70000 11223 21242 39973 40316 53010 69922 77072 86031 333 21237 47028 55000 1/125 53001 7996/
AAXX 04001 30309 11999 83102 11173 21185 39793 40350 52012 69902 77071 86037 333 21184 47034 55036
AAXX 04001 30328 119// 80000 11230 21243 39886 40352 52017 69992 77177 82047 333 21230 47036 55000
AAXX 04001 30521 115// 50000 11226 21244 39775 40348 52008 69922 70282 81901 333 21226 47028 55020
AAXX 04001 30710 31493 80301 11210 21224 39724 40358 52009 74841 82601 333 21216 47030 55042
AAXX 04004 71464 46/// ///08 11120 30028 40251 51015 6///1 333 11085 21130 7////
AAXX 04004 71466 46/// ///// 11064 30020 40266 51006 6///1 333 11056 21072 7////
AAXX 04004 42027 31595 40000 11016 21030 38387 48479 71021 83420 333 59035
AAXX 04004 42071 3993/ 00000 10076 20063 40143 74440 333 59017
AAXX 04004 42101 31994 00000 10070 20066 40148 71000 333 59016
AAXX 04004 42111 31995 00000 10066 20066 39344 40144 71020 333 59012
AAXX 04004 42131 32996 00000 10062 20058 40150 333 59018
AAXX 04004 42165 31995 01401 10108 20087 40125 70500 333 59032
AAXX 04004 42182 31992 60000 10088 20080 40147 74444 82530 333 59012 82640 85360
AAXX 04004 42189 31993 00000 10120 20120 40140 74544 333 58///
AAXX 04004 42328 32996 01803 10116 21056 40119 333 59029
AAXX 04004 42339 31995 00000 10100 20047 40132 70500 333 59022
AAXX 04004 42361 31994 00000 10108 20100 40145 71044 333 59011
AAXX 04004 42369 31/90 90000 10116 20108 40140 74542 89/// 333 59007
AAXX 04004 42379 31995 00000 10124 20101 40135 71000 333 58000
AAXX 04004 42452 32996 00000 10116 20104 40142 333 59020
AAXX 04004 42475 31992 00000 10118 20110 40153 74440 333 5908/
AAXX 04004 42260 NIL
AAXX 04004 42348 NIL
AAXX 04004 62309 32560 33502 10118 20073 40239 57007 83500
AAXX 04004 62325 32560 60000 10148 20121 40237 57005 86500
AAXX 04004 62332 32960 00000 10123 20114 40232 57008
AAXX 04004 62387 32960 03203 10094 20067 40222 57010
AAXX 04004 62452 31956 01705 10035 20029 40252 57008 71000
AAXX 04004 62459 32960 00208 10121 20020 40188 57011
AAXX 04004 71257 16/// /2107 10024 21032 60001 333 10050 21030 70010
AAXX 04004 71258 16/// /2413 10058 21032 60001 333 10060 21022 70000
AAXX 04004 71259 16/// /2110 10026 21032 60001 333 10085 21014 70000
AAXX 04004 71274 16/// /1105 11018 21043 60001 333 10020 21095 70000
AAXX 04004 71275 46/// /1405 11008 21038 6///1 333 10019 21079 7////
AAXX 04004 71278 16/// /1806 11012 21046 60001 333 10060 21036 70000
AAXX 04004 71286 16/// /1105 11024 21043 60001 333 10045 21067 70000
AAXX 04004 71287 16/// /1302 11007 21033 60001 333 10015 21078 70000
AAXX 04004 71289 46/// /1910 10008 21035 6///1 333 10050 21024 7////
AAXX 04004 71345 16/// /2316 10055 21077 60001 333 10103 20034 70000
AAXX 04004 71214 16/// /3502 10002 21029 60001 333 10067 21003 70000
AAXX 04004 71223 16/// /2211 10002 21034 60001 333 10053 21015 70000
AAXX 04004 71225 16/// /2116 10053 21062 60001 333 10100 20027 70000
AAXX 04004 71227 46/// /2008 11019 21043 6///1 333 10029 21041 7////
AAXX 04004 71445 17/// /2913 11054 21082 39794 40075 51036 60011 7//4/ 333 11048 21149 70056 555 10020
AAXX 04004 71525 16/// /2113 10049 21032 60001 333 10104 20025 70000
AAXX 04004 71526 46/// /2205 10034 21030 6///1 333 7////
AAXX 04004 71535 16/// /2425 10080 21064 60001 333 10107 20041 70000
AAXX 04004 71536 16/// /2526 10073 21080 60001 333 10095 20039 70000
AAXX 04004 71537 16/// /1808 10009 21035 60001 333 10104 21012 7////
AAXX 04003 41150 32962 03217 10179 20096 40179 333 58038
AAXX 04004 71351 16/// /2002 10015 21043 60001 333 10058 21051 70000
AAXX 04004 71353 16/// /2706 10034 21042 60001 333 10052 21003 70000
AAXX 04004 71375 46/// /2918 11072 6///1 333 11047 21079 7////
AAXX 04004 71385 46/// /3018 11139 6///1 333 11102 21140 7////
AAXX 04001 37905 42997 00000 11019 21035 30182 40272 58003 555 11004
AAXX 04001 37985 42996 02001 10009 20001 30291 40276 58004
AAXX 04001 37923 42996 00000 10010 21007 30257 40236 51003 555 11000
AAXX 04001 37661 41093 92501 11020 21023 39482 40271 57003 74544 555 1/000
AAXX 04001 37851 42598 53401 10018 21029 30192 40267 57003 85500
AAXX 04001 37740 41496 81401 11037 21044 39434 40277 57002 77377 885// 555 10000
AAXX 04001 37749 41596 80902 10011 21006 30173 40294 57009 71072 885// 555 1/001
AAXX 04001 37735 41/91 /2001 11010 21010 39813 40201 53003 74544 555 11001
AAXX 04001 37864 32997 32703 10014 21014 40268 52008 83030
AAXX 04001 37675 41495 80000 11024 21030 39587 40273 52005 77377 8802/ 555 1/102
AAXX 04001 37925 42997 00000 10008 20005 30300 40270 58005 555 12102
AAXX 04001 37832 42997 72001 10018 20010 30186 40273 53005 87/20 555 11002
AAXX 04001 37729 42997 02504 10081 21085 38524 52004
AAXX 04004 71916 46/// /3107 11342 21374 30140 40198 56002 6///1 333 11258 21345 7////
AAXX 04004 71464 46/// ///08 11120 30028 40251 51015 6///1 333 11085 21130 7////
AAXX 04004 71466 46/// ///// 11064 30020 40266 51006 6///1 333 11056 21072 7////
AAXX 04004 71683 46/// /2304 11296 30006 40122 53015 6///1 333 11242 21300 7////
AAXX 04001 51711 32980 32502 11138 21170 38012 57011 80002 333 05404 92514
AAXX 04001 51730 32970 00000 11172 21191 40375 57006 333 05401
AAXX 04001 52112 32980 02503 11168 21229 40360 57005 333 05753
AAXX 04001 52737 32980 00702 11162 21313 37065 57004 333 05203
AAXX 04001 52787 32980 01603 11150 21210 37001 57006 333 05306
AAXX 04001 53352 32980 01101 11227 21271 40464 57006 333 05254
AAXX 04001 53593 32980 02901 11192 21238 40446 52005 333 00356
AAXX 04001 53705 32965 00902 11152 21182 40410 57010 333 05552
AAXX 04001 53863 32965 02202 11113 21192 40424 52003 333 00153
AAXX 04001 53975 32975 02501 11109 21203 40412 52006 333 00257
AAXX 04001 54273 32665 72701 11209 21240 40321 52019 875// 333 00404 31034 92518
AAXX 04001 54324 32970 02902 11108 21236 40343 52010 333 00551
AAXX 04001 54405 32980 02905 11127 21222 40412 52008 333 00352
AAXX 04001 54436 32980 00401 11168 21211 40375 52014 333 00553
AAXX 04001 54808 32961 00000 11092 21133 40382 52013 333 00453
AAXX 04001 54826 32980 00211 11152 21233 38500 52015 333 00301 91122 91536
AAXX 04001 54836 32980 02201 11079 21189 40371 52015 333 00452
AAXX 04001 54863 32970 03204 11049 21119 40334 52018 333 00651 79999
AAXX 04001 56018 32680 70000 11167 21207 36143 52002 879// 333 00051 92504
AAXX 04001 56021 32980 00000 11268 21302 36037 57003 333 00157 70003 92504
AAXX 04001 57071 32967 03202 11065 21165 40396 52010 333 00356
AAXX 04001 78458 32566 40000 10260 20221 40188 52019 84400 333 10290 20190 30/// 56000 58015 84620
AAXX 04001 78460 31458 43003 10229 20195 40176 51027 70544 84500 333 10322 20170 30/// 56000 58014 84618
AAXX 04001 78467 32466 20903 10244 20216 40167 52017 82200 333 10290 20180 30/// 56000 59001 82815
AAXX 04001 78479 32566 10000 10230 20216 40140 57002 81200 333 10290 20222 30/// 56000 59010 81825
AAXX 04001 78482 32466 71303 10256 20204 40188 52020 84576 333 10295 20210 30/// 56000 58008 84618 86458
AAXX 04001 78485 32466 72802 10254 20200 40171 52016 84230 333 10290 20207 30/// 56000 58004 84818 86357
AAXX 04001 78486 32466 70000 10255 20227 40160 52023 84870 333 10306 20220 30/// 56000 58009 84618 86358
AAXX 04001 78488 32466 50000 10238 20227 40173 52017 83230 333 10305 20190 30/// 56000 58004 83818 83357
AAXX 04004 68513 36/// /1311 10168 20128 30015 40127 58011 333 10263 20168 91015 555 91012
AAXX 04004 68514 36/// ///// 1//// 2//// 3//// 4//// 5//// 333 1//// 2//// 555
AAXX 04004 68523 36/// /2106 10171 20075 39095 48504 58011 333 10328 20171 91008 555 91015
AAXX 04004 68527 36/// /1911 10251 21006 39049 48500 58008 333 10369 20250 91016 555 91013
AAXX 04004 68572 16/// /0602 10153 20141 38408 48517 57010 60083 333 10292 20151 91003 555 20086 91020
AAXX 04004 68575 16/// /2502 10171 20161 39100 48521 58013 69983 333 10228 20168 91005 555 20008 91018
AAXX 04004 68581 36/// /1502 10198 20183 39375 48524 58011 333 10272 20198 91005 555 91015
AAXX 04004 68583 36/// /2306 10238 20191 30019 40127 58017 333 10293 20238 91011 555 91013
AAXX 04004 68589 16/// /1503 10146 20131 38267 48528 58010 60103 333 10293 20146 91006 555 20100 91022
AAXX 04004 68613 36/// /2007 10148 20121 30032 40149 58010 333 10244 20143 91009 555 91014
AAXX 04004 68647 36/// /1506 10169 20138 38918 48514 58010 333 10273 20168 91008 555 91018
AAXX 04004 68651 16/// /0903 10153 20138 38557 48519 58012 69923 333 10219 20149 91004 555 20002 91020
AAXX 04004 68715 36/// /0000 10132 20109 30022 40151 57008 333 10284 20132 91002 555 91015
AAXX 04004 68717 36/// /0000 10148 20114 30003 40148 57010 333 10289 20146 91002 555 91014
AAXX 04004 68723 36/// /1004 10199 20112 39378 48511 58006 333 10329 20199 91006 555 91014
AAXX 04004 68737 36/// /0603 10146 20100 39243 48506 57009 333 10333 20144 91004 555 91016
AAXX 04004 68744 36/// /1208 10144 20100 39091 48497 57006 333 10301 20144 91012 555 91015
AAXX 04004 68747 36/// /1405 10196 20122 39616 48530 58011 333 10313 20196 91010 555 91015
AAXX 04004 68754 16/// /0404 10155 20148 39144 48524 58008 69963 333 10261 20148 91006 555 20006 91018
AAXX 04004 68817 NIL
AAXX 04004 68821 36/// /0703 10167 20116 39898 40138 50000 333 10293 20167 91004 555 91014
AAXX 04004 68835 NIL
AAXX 04004 68843 36/// /2602 10197 20148 30044 40142 58010 333 10248 20197 91002 555 91014
AAXX 04004 68849 36/// /1302 10166 20124 39412 48518 58011 333 10238 20166 91004 555 91016
AAXX 04004 68912 NIL
AAXX 04004 68918 36/// /3302 10186 20131 30130 40148 58008 333 10236 20186 91004 555 91014
AAXX 04004 68921 NIL
AAXX 04004 68925 NIL
AAXX 04004 68926 36/// /1202 10192 20130 39965 40143 57012 333 10287 20192 91003 555 91014
AAXX 04004 68935 36/// /0000 10184 20141 30078 40141 58010 333 10262 20183 91003 555 91014
AAXX 04001 78458 32566 40000 10260 20221 40188 52019 84400 333 10290 20190 30/// 56000 58015 84620
AAXX 04001 78460 31458 43003 10229 20195 40176 51027 70544 84500 333 10322 20170 30/// 56000 58014 84618
AAXX 04001 78467 32466 20903 10244 20216 40167 52017 82200 333 10290 20180 30/// 56000 59001 82815
AAXX 04001 78479 32566 10000 10230 20216 40140 57002 81200 333 10290 20222 30/// 56000 59010 81825
AAXX 04001 78482 32466 71303 10256 20204 40188 52020 84576 333 10295 20210 30/// 56000 58008 84618 86458
AAXX 04001 78485 32466 72802 10254 20200 40171 52016 84230 333 10290 20207 30/// 56000 58004 84818 86357
AAXX 04001 78486 32466 70000 10255 20227 40160 52023 84870 333 10306 20220 30/// 56000 58009 84618 86358
AAXX 04001 78488 32466 50000 10238 20227 40173 52017 83230 333 10305 20190 30/// 56000 58004 83818 83357
AAXX 04004 41863 31905 02701 10125 20120 30096 40142 74342 333 58005 70000
AAXX 04004 41895 32950 02701 10144 20140 30120 40144 333 58003 79999
AAXX 04004 41909 31430 60000 10154 20150 30121 40133 70542 82510 333 56690 58004 70000 82616 86459
AAXX 04004 41946 31940 00000 10186 20170 30130 40135 70500 333 58003 70000
AAXX 04001 78458 32566 40000 10260 20221 40188 52019 84400 333 10290 20190 30/// 56000 58015 84620
AAXX 04001 78460 31458 43003 10229 20195 40176 51027 70544 84500 333 10322 20170 30/// 56000 58014 84618
AAXX 04001 78467 32466 20903 10244 20216 40167 52017 82200 333 10290 20180 30/// 56000 59001 82815
AAXX 04001 78479 32566 10000 10230 20216 40140 57002 81200 333 10290 20222 30/// 56000 59010 81825
AAXX 04001 78482 32466 71303 10256 20204 40188 52020 84576 333 10295 20210 30/// 56000 58008 84618 86458
AAXX 04001 78485 32466 72802 10254 20200 40171 52016 84230 333 10290 20207 30/// 56000 58004 84818 86357
AAXX 04001 78486 32466 70000 10255 20227 40160 52023 84870 333 10306 20220 30/// 56000 58009 84618 86358
AAXX 04001 78488 32466 50000 10238 20227 40173 52017 83230 333 10305 20190 30/// 56000 58004 83818 83357
AAXX 04004 68817 NIL
AAXX 04004 68835 NIL
AAXX 04004 68912 NIL
AAXX 04004 68921 NIL
AAXX 04004 68925 NIL
AAXX 04001 25503 31999 21404 11442 21469 30103 40254 57008 77673 80001 333 21459 47026 55006
BBXX A8GH5 04003 99090 50328 41/98 /1416 10280 20232 40150 52020 70200 8//// 22254 20401 80245
AAXX 04001 02963 46/// /1506 10011 20004 49931
AAXX 04004 61202 NIL
AAXX 04004 61214 NIL
AAXX 04004 61223 31940 40406 10180 21028 3//// 4//// 70600 80002 333 0//00 5//// 84075
AAXX 04004 61226 32960 30408 10186 20053 39876 40174 80002 333 59011 83075
AAXX 04004 61230 32960 30804 10204 21022 39865 40166 80002 333 0//00 59016 83075
AAXX 04004 61233 31959 60404 10194 21026 3//// 4//// 70622 80002 333 0//00 5//// 86075
AAXX 04004 61235 31940 40414 10263 21020 3//// 4//// 70622 80002 333 0//00 5//// 84075
AAXX 04004 61240 32960 31206 10210 21017 39829 40155 80002 333 0//00 59011 83075
AAXX 04004 61250 32960 20000 10200 21030 3//// 4//// 80002 333 0//00 5//// 82075
AAXX 04004 61257 31956 30604 10241 21007 30084 40178 70611 80002 333 0//00 59021 83075
AAXX 04004 61265 31956 30406 10198 21002 39839 40146 70600 80002 333 0//00 59011 83075
AAXX 04004 61270 32960 00404 10245 20019 3//// 4//// 333 0//00 5////
AAXX 04004 61272 32960 00000 10202 20093 39825 40151 333 0//00 59008
AAXX 04004 61277 31958 20804 10210 20033 39825 40144 70600 80002 333 0//00 59010 82075
AAXX 04004 61285 31959 50208 10257 20003 39986 40135 70622 80002 333 0//00 59009 85075
AAXX 04004 61291 31958 30608 10231 20033 39722 40131 70600 80002 333 0//00 59011 83075
AAXX 04004 61293 32960 50606 10220 20054 3//// 4//// 80002 333 0//00 5//// 85075
AAXX 04004 61296 32960 30000 10215 20073 3//// 4//// 80002 333 0//00 5//// 83075
AAXX 04004 61297 32960 70206 10223 20040 3//// 4//// 80002 333 0//00 5//// 87075
BBXX FLAO 0400/ 99764 70847 46/// ///// 11343 40035 57024
BBXX MINUK01 0400/ 99587 70022 46/// ///// 10060 49889 52081
BBXX TBWUK18 04003 99300 30596 41/98 81015 10217 20163 40189 57007 70222 8147/ 22222 00240 20201 3//// 4//// 5//// 80184
BBXX ZNQO3 04000 99368 10025 41498 23105 10160 20069 40333 54000 70200 8//// 22224 04165 2//// 3//// 4//// 5//// 80115
BBXX TBWUK17 04003 99309 30072 41898 12707 10202 20183 40229 52020 70100 81147 22273 04210 20101 32425 40407 50607 80190
BBXX VRCZ7 04003 99379 10087 41498 33412 10130 20101 40272 58010 70222 831// 22224 20502 334// 40704 5//// 80115
AAXX 04004 68174 36/// /1004 10199 20149 38784 48509 57007 333 10326 20199 91005 555 91017
AAXX 04004 68191 36/// /1808 10226 20180 39629 40120 53002 333 10369 20226 91013 555 91013
AAXX 04004 68242 36/// /0405 10191 20053 38703 48483 58008 333 10338 20190 91006 555 91015
AAXX 04004 68262 36/// /0804 10232 20126 38698 48508 58008 333 10334 20232 91008 555 91017
AAXX 04004 68263 32980 00806 10189 20129 38483 48508 58011 333 10305 20189 91009 555 91019
AAXX 04004 68267 16/// /1307 10149 2//// 38254 48527 58011 60013 333 10293 20148 91010 555 20018 91022
AAXX 04004 68289 16/// /0904 10203 20181 39156 48528 57005 69923 333 10307 20203 91006 555 20002 91017
AAXX 04004 68350 36/// /0404 10162 20075 38655 48504 58007 333 10365 20155 91006 555 91018
AAXX 04004 68368 42970 00604 10170 20132 38324 48521 58013 555 91021
AAXX 04004 68403 36/// /2403 10166 20141 30121 40154 51001 333 10258 20166 91006 555 91015
AAXX 04004 68424 36/// /1905 10219 20017 39173 48500 58004 333 10369 20216 91007 555 91013
AAXX 04004 68438 36/// /1702 10187 21101 38796 48489 57006 333 10366 20187 91003 555 91015
AAXX 04004 68442 36/// /0000 10133 20016 38649 48499 57001 333 10351 20127 91002 555 91017
AAXX 04004 68461 36/// /1010 10170 20146 38330 48515 58005 333 10313 20169 91017 555 91021
AAXX 04004 68512 36/// /1603 10177 20069 39010 48506 58003 333 10288 20177 91005 555 91016
AAXX 04004 68538 36/// /1707 10196 20057 38702 48487 58003 333 10331 20196 91009 555 91015
AAXX 04004 68587 16/// /2804 10220 20188 30120 40132 58016 69943 333 10244 20213 91007 555 20004 91013
AAXX 04004 68588 36/// /2306 10233 20023 30126 40142 58013 333 10277 20227 91011 555 91014
AAXX 04004 68591 36/// /2605 10215 20191 39968 40147 58015 333 10265 20205 91007 555 91015
AAXX 04004 68592 NIL
AAXX 04004 68618 36/// /3002 10138 20057 39047 48505 58010 333 10289 20138 91002 555 91017
AAXX 04004 68633 36/// /1608 10160 20124 38496 48491 58003 333 10316 20160 91011 555 91017
AAXX 04004 68668 16/// /1003 10174 20155 39300 48521 58016 69943 333 10238 20172 91006 555 20004 91016
AAXX 04004 68714 36/// /1903 10141 20109 30107 40144 57010 333 10254 20141 91004 555 91014
AAXX 04004 68727 36/// /0707 10173 20120 39111 48494 58005 333 10322 20173 91011 555 91014
AAXX 04004 68752 36/// /0604 10192 20161 39470 48528 58010 333 10271 20190 91006 555 91016
AAXX 04004 68816 32970 09900 10148 20112 30094 40149 58012 333 91000 555 91014
AAXX 04004 68828 13560 /9902 10171 20162 39910 40142 58017 60001
AAXX 04004 68842 32970 02803 10167 20135 30077 40147 58017 555 91014
AAXX 04004 68858 NIL
AAXX 04004 68906 11495 82810 10177 20158 30018 40081 58004 60033 76166 8802/ 333 10186 20166 91028 555 20032 69945 91008
AAXX 04004 68994 12598 12919 10059 20000 39972 40001 52019 60023 81100 333 10115 20036 91031 555 20024 91000
AAXX 04004 89004 36/// /1113 11110 21179 38850 49876 58002 333 11068 21111 91014 555 90980
BBXX 46206 04001 99488 71260 46/// /1514 10092 40135 52001 22200 00083 11011 70056 333 91217
AAXX 04004 42559 32996 01401 10110 20099 40134 333 59019
AAXX 04004 42571 32996 00000 10112 20100 40141 333 59008
AAXX 04004 42667 31995 00000 10106 20098 39532 40144 70500 333 59011
AAXX 04004 42675 31996 00000 10112 20100 40143 70500 333 59020
AAXX 04004 42754 31995 01404 10126 20108 39474 40130 70500 333 59013
AAXX 04004 42779 32996 00000 10134 20127 39427 40144 333 59005
AAXX 04004 42867 31995 50202 10170 20160 40125 70520 82031 333 59008 82360 84075
AAXX 04004 42874 31995 00000 10198 20188 40122 71000 333 59004
AAXX 04004 42933 32996 01402 10188 20175 40120 333 59008
AAXX 04004 43041 31995 00000 10176 20163 39502 40129 71000 333 59003
AAXX 04001 50658 31920 03202 11219 21231 40293 52008 70400 333 05104 92507
AAXX 04001 50888 31958 00000 11240 21259 40222 52007 70400 333 05451 92501
AAXX 04001 50983 32970 03602 11211 21239 40223 52006 333 05401 92505
AAXX 04001 51053 32980 01105 11090 21190 40292 57009 333 05551 92516
AAXX 04001 51542 32980 00201 11326 21361 37549 57005 333 05200 92503
AAXX 04001 52436 32980 01801 11229 21254 38511 40410 57003 333 05554
AAXX 04001 52908 11670 73601 11200 21231 35705 57004 69921 77070 83502 333 05100 70002 92500
AAXX 04001 52996 32980 11607 11146 21164 37577 57005 80002 333 05302
AAXX 04001 53083 32980 00701 11321 21353 40463 57005 333 00158 92506
AAXX 04001 53764 32965 03202 11154 21207 40446 52004 333 00153
AAXX 04001 53787 32980 03402 11168 21217 40422 52005 333 00357
AAXX 04001 54096 32968 02705 11190 21219 40229 52008 333 05304 92501
AAXX 04001 54226 32980 02904 11131 21218 40342 52012 333 00400 92500
AAXX 04001 54259 32661 22501 11226 21257 40338 52018 82500 333 00656 79999 92511
AAXX 04001 54527 32970 03604 11076 21204 40364 52014 333 00451
AAXX 04001 54534 32965 02903 11117 21189 40360 52012 333 00401
BBXX 46205 04001 99542 71343 46/// /1810 10080 49914 52028 22200 00068 11007 70036 333 91213
BBXX 46132 04001 99497 71279 46/// /1512 10095 40069 57007 22200 00084 11010 70048 333 91215
AAXX 04004 68592 NIL
AAXX 04004 68858 NIL
BBXX 46132 04001 99497 71279 46/// /1512 10095 40069 57007 22200 00084 11010 70048 333 91215
BBXX 46205 04001 99542 71343 46/// /1810 10080 49914 52028 22200 00068 11007 70036 333 91213
AAXX 04001 30455 329// 70000 11270 21288 38907 48437 56002 8703/ 333 21301 47011
AAXX 04001 30669 32999 72402 11257 21281 39359 40311 56006 80008 333 21307 47006
AAXX 04001 30731 115// 82002 11112 21132 39633 40266 53006 60012 72683 8395/ 333 21133 47039
AAXX 04001 30739 326// 30702 11293 21318 39439 40356 57010 82502 333 21330 47006
AAXX 04001 30741 329// 73102 11208 21220 38677 48464 57011 83041 333 21215
AAXX 04001 30745 119// 82401 11197 21216 39074 40300 57008 69902 77172 8802/ 333 21251 47010 55019 1/121 51245 53004 7990/
AAXX 04001 30764 32998 80000 11327 21358 39449 40350 57002 80007 333 21370 47004
AAXX 04001 30829 32984 10000 11310 21328 39613 40392 57002 81040 333 21320 47002
AAXX 04001 30838 32998 71601 11295 21307 39286 40386 57006 84042 333 21334 47016
AAXX 04001 30846 32999 72106 11152 21212 39332 40288 57010 8704/ 333 21195 47003
AAXX 04001 30859 32899 80000 11306 21330 39409 40348 56006 81041 333 21321 47008
AAXX 04001 30862 32998 32102 11292 21322 39502 40324 57009 80001 333 21290 47009
AAXX 04001 30957 329// 32404 11284 21302 39362 40359 57012 83040 333 21291 47004
AAXX 04001 30975 32899 20000 11343 21365 39638 40380 57006 82041 333 21364 47013
AAXX 04001 30499 32999 62502 11332 21350 39594 40338 57008 80001 333 21336 47016
AAXX 04001 30683 32998 80000 11306 21324 39598 40325 57002 80004 333 21316 47011
AAXX 04001 30695 32999 43602 11346 21368 39940 40325 53006 82034 333 21347 47013
AAXX 04001 31253 32999 00000 11357 21387 39787 40312 53008 333 21358 55047
AAXX 04001 31295 32998 00000 11291 21316 39786 40293 53003 333 21295 47011
AAXX 04001 31348 32599 60000 11271 21276 30025 40240 56001 86502 333 21330 47028
AAXX 04001 31418 32999 80000 11178 21204 39950 40221 53012 8807/ 333 21225
AAXX 04001 31439 11595 80208 11147 21167 30083 40130 53002 60030 77173 8392/ 333 21170 48005 91114
AAXX 04001 31442 32999 00000 11272 21296 39877 40267 54000 333 21283 47008
AAXX 04001 31445 32999 00000 11305 21330 39983 40268 53004 333 21311 47007
AAXX 04001 31474 32999 00000 11370 21404 39732 40287 53003 333 21374 47016
AAXX 04001 31521 31958 00000 11302 21319 39942 40268 53005 71000 333 21308 47013
AAXX 04001 31527 32998 00000 11296 21307 39924 40263 53002 333 21297
AAXX 04001 31534 32999 00000 11339 21356 39886 40272 53004 333 21356
AAXX 04001 31587 32997 03001 11283 21294 30104 40266 53002 333 21299 47017
AAXX 04001 31632 NIL
AAXX 04001 31702 31998 80201 11323 21359 39888 40268 53005 72271 80007 333 21329 47021
AAXX 04001 31713 32998 02901 11309 21326 30096 40206 53002 333 21319 47020
AAXX 04001 31725 32998 00000 11293 21305 30120 40194 54000 333 21317
AAXX 04001 31801 31997 80000 11315 21339 39952 40208 54000 77171 83047 333 21343
AAXX 04004 88900 46/// /2316 10036 20025 39882 49884 57005 333 10049 20035
AAXX 04004 89020 46/// /0902 11062 21070 39845 49880 52003 92350
BBXX MLRM6 04003 99400 50019 41/// /2918 10134 20115 40123 50000 700// 8//// 22262 00145 20302 32527 4//04 5//05
BBXX ELVL8 04003 99257 70340 41/97 50505 10230 40270 52020 76088 8//// 22214 04230 20303 307// 40304 5//// ELVL8
BBXX A8FQ8 04003 99191 70182 41597 80515 10220 20149 40190 52010 70211 88/7/ 22284 00213 20401 80175
BBXX VQHO7 04004 99250 50019 41498 71212 10203 40208 50007 70211 87700 22234 00210 2//// 3//// 4//// 5////
BBXX DHTK 04004 99239 70189 41998 00518 10205 20132 40230 50004 70000 80000 22254 04200 2//04 80160
BBXX 44062 04001 99386 70764 46/// /3410 1//// 90020 22200 00071 333 91212
BBXX 44062 04001 99386 70764 46/// /3411 1//// 40208 90010 22200 00072 333 91214
BBXX 44062 04001 99386 70764 46/// /3411 11026 40209 52036 90000 22200 00072 10302 70009 333 91214
BBXX 44063 04001 99390 70764 46/// /3407 1//// 90020 333 91210
BBXX 44063 04001 99390 70764 46/// /3408 1//// 40239 90010 333 91211
BBXX 44063 04001 99390 70764 46/// /3407 11031 40239 53037 90000 22200 00057 1//00 70002 333 91210
BBXX 44041 04001 99372 70768 46/// /3508 1//// 90020 333 91211
BBXX 44041 04001 99372 70768 46/// /3508 1//// 40258 90010 333 91211
BBXX 44041 04001 99372 70768 46/// /3606 11023 40255 51052 90000 22200 00077 10301 70004 333 91209
BBXX 44042 04001 99380 70763 46/// /3413 1//// 90020 333 91216
BBXX 44042 04001 99380 70763 46/// /3412 1//// 40225 90010 333 91217
BBXX 44042 04001 99380 70763 46/// /3510 11016 40224 53040 90000 22200 00074 10302 70010 333 91213
BBXX 42362 04001 99278 70907 46/// /0404 10128 20017 40322 90030
BBXX 42363 04001 99282 70892 46/// /0406 10106 20011 40319 90030 333 91207
BBXX 42364 04001 99291 70881 46/// /3413 10100 21006 40319 90030
BBXX 51178 04001 99142 51695 46/// ///// 1//// 90001 22200 00287
BBXX 51176 04001 99278 71758 46/// ///// 1//// 90003 22200 00237
BBXX 51179 04001 99143 51708 46/// ///// 1//// 90003 22200 00289
BBXX 52248 04001 99135 11448 46/// ///// 1//// 90006 22200 00284
BBXX 52246 04001 99152 11457 46/// ///// 1//// 90007 22200 00282
BBXX 52244 04001 99200 11452 46/// ///// 1//// 90008 22200 00264
BBXX 51173 04001 99260 71739 46/// ///// 1//// 90011 22200 00240
BBXX 51172 04001 99284 71783 46/// ///// 1//// 90015 22200 00220
BBXX ZDLP 04003 99534 50386 41397 72623 10045 20023 49917 57005 70222 877// 2229/ 04033 20301 326// 40403 5//// 80036
AAXX 04001 50548 32970 00000 11306 21344 40324 52007 333 05100
AAXX 04001 50564 31920 02502 11277 21296 40287 52007 70400 333 05202
AAXX 04001 51334 32970 00000 11186 21208 40332 57009 333 05552 79999 92508
AAXX 04001 51818 32965 70000 11130 21153 40360 57009 80002 333 05402
AAXX 04001 52378 32980 02201 11190 21243 40425 57006 333 05752
AAXX 04001 53487 32962 03402 11211 21253 40459 52003 333 00255
AAXX 04001 53502 32980 01801 11207 21266 40446 57007 333 05551
AAXX 04001 53923 32980 00701 11117 21218 40415 57003 333 05252
AAXX 04001 54049 32970 02502 11209 21239 40318 52011 333 00352
AAXX 04001 54115 32980 03401 11167 21238 40374 52007 333 00400
AAXX 04001 54157 32962 52001 11200 21221 40327 52017 80002 333 00555
AAXX 04001 54186 32962 02503 11177 21223 40282 52018 333 00205 92504
AAXX 04001 54311 32980 03404 11178 21239 40394 52010 333 00400
AAXX 04001 54346 11660 40401 11155 21176 40329 52013 69911 77077 84500 333 00552 70007 92502
AAXX 04001 54377 31957 00202 11174 21205 40317 52022 71000 333 00654 70003 92502
AAXX 04001 54386 11970 00403 11243 21281 40306 52023 69901 70070 333 00352 70002 92504
AAXX 04001 54493 32962 00201 11168 21182 40315 52020 333 00553 79999
AAXX 04001 54587 NIL
AAXX 04001 54715 32965 02901 11108 21139 40381 52014 333 00401
AAXX 04001 54929 32980 03202 11062 21159 40370 52018 333 00453
AAXX 04001 54945 32980 03203 11047 21159 40359 52018 333 00552
AAXX 04001 56065 32975 70000 11290 21326 36605 57002 80008 333 00162 92505
AAXX 04001 57193 32965 03602 11039 21133 40384 52016 333 00352 31048
AAXX 04001 57290 32962 22902 11021 21170 40387 52017 80002 333 00352 31037
AAXX 04004 68183 NIL
AAXX 04004 68188 36/// /0000 10198 20183 39199 48524 55000 333 10326 20198 91001 555 91017
AAXX 04004 68268 36/// /0405 10221 20171 38876 48519 57003 333 10355 20212 91009 555 91018
AAXX 04004 68272 36/// /1004 10215 20169 39063 48510 58007 333 10355 20202 91006 555 91015
AAXX 04004 68296 36/// /2002 1//// 2//// 38915 4//// 54000 333 1//// 2//// 91004 555
AAXX 04004 68322 36/// /1902 10208 21009 39106 48480 57006 333 10404 20208 91004 555 91012
AAXX 04004 68338 36/// /2105 10160 20065 38758 48488 57004 333 10353 20160 91007 555 91015
AAXX 04004 68345 36/// /1208 10172 20099 38663 48504 56001 333 10355 20172 91014 555 91018
AAXX 04004 68362 36/// /0304 10153 20122 38503 48505 58003 333 10333 20152 91006 555 91019
AAXX 04004 68400 36/// /0000 10231 20206 30058 40131 57006 333 10394 20228 91004 555 91013
AAXX 04004 68408 36/// /1305 10146 20129 30129 40137 57008 333 10217 20146 91008 555 91013
AAXX 04004 68416 36/// /1708 10189 20089 39023 48496 57010 333 10345 20189 91014 555 91014
AAXX 04004 68478 16/// /0000 10182 20175 38881 48520 57007 60163 333 10339 20181 91002 555 20160 91018
AAXX 04004 68488 16/// /0603 10201 20186 39270 48523 57017 69963 333 10326 20199 91006 555 20006 69925 91016
AAXX 04004 68494 36/// /3502 10219 20191 30005 40135 57020 333 10290 20217 91005 555 91013
AAXX 04004 68524 36/// /2404 10209 20008 39040 48496 57010 333 10361 20209 91005 555 91014
AAXX 04004 68546 36/// /1502 10145 20122 38646 48490 58008 333 10332 20143 91004 555 91016
AAXX 04004 68558 36/// /1002 10110 20092 38189 48509 57008 333 10273 20108 91003 555 91020
AAXX 04004 68570 36/// /1105 10163 20130 38519 48511 57010 333 10314 20163 91009 555 91019
AAXX 04004 68580 16/// /1103 10166 20161 38955 48516 57012 69943 333 10268 20166 91005 555 20004 91018
AAXX 04004 68614 36/// /2303 10186 20135 30092 40133 57010 333 10302 20183 91006 555 91013
AAXX 04004 68624 36/// /1805 10177 20054 38731 48503 57012 333 10322 20174 91010 555 91017
AAXX 04004 68674 16/// /0204 10219 20207 30114 48564 58016 69943 333 10260 20219 91007 555 20004 91014
AAXX 04004 68712 16/// /1608 10152 20127 30074 40139 57012 69923 333 10228 20151 91010 555 20002 91013
AAXX 04004 68718 NIL
AAXX 04004 68722 36/// /2002 10120 20069 38547 48504 57010 333 10258 20120 91003 555 91018
AAXX 04004 68814 NIL
AAXX 04004 68832 36/// /0806 10144 20108 39189 48503 57010 333 10306 20144 91010 555 91016
AAXX 04004 68916 36/// /2710 10165 20117 39884 40152 57011 333 10219 20163 91012 555 91015
AAXX 04004 68920 NIL
AAXX 04004 68928 36/// /2302 10195 20143 39988 40147 58009 333 10247 20194 91004 555 91015
AAXX 04004 68155 36/// /1102 10236 20157 39167 48502 58005 333 10382 20236 91004 555 91013
AAXX 04004 68171 NIL
AAXX 04004 68176 16/// /1502 10195 20176 39121 48503 58003 60133 333 10353 20193 91003 555 20134 91015
AAXX 04004 68181 NIL
AAXX 04004 68182 NIL
AAXX 04004 68185 NIL
AAXX 04004 68253 36/// /1702 10211 20163 39026 48498 57006 333 10358 20208 91005 555 91014
AAXX 04004 68255 36/// /2002 10228 20131 38849 48500 53003 333 10344 20228 91004 555 91015
AAXX 04004 68271 36/// /3303 10221 20160 38904 48510 57003 333 10351 20221 91006 555 91016
AAXX 04004 68273 16/// /0000 10183 20125 38454 48508 58012 69923 333 10319 20180 91001 555 20002 91019
AAXX 04004 68287 36/// /1302 10160 20153 38585 48520 58007 333 10274 20153 91009 555 91020
AAXX 04004 68291 36/// /1406 10214 20197 39530 48525 52002 333 10347 20214 91012 555 91014
AAXX 04004 68297 NIL
AAXX 04004 68329 36/// /1303 10224 20004 39063 48498 58009 333 10395 20224 91005 555 91014
AAXX 04004 68331 36/// /1507 10190 20033 38824 48507 58003 333 10363 20190 91010 555 91017
AAXX 04004 68335 36/// /0602 10178 20084 38914 48518 58002 333 10374 20178 91003 555 91018
AAXX 04004 68341 36/// /3603 10156 20053 38521 48505 58007 333 10346 20152 91004 555 91019
AAXX 04004 68342 NIL
AAXX 04004 68343 36/// /1803 10171 20091 38768 48489 58006 333 10356 20171 91004 555 91015
AAXX 04004 68349 36/// /0206 10175 20082 38496 48489 57007 333 10339 20171 91007 555 91017
AAXX 04004 68353 36/// /0307 10194 20129 38515 48494 57002 333 10323 20163 91011 555 91017
AAXX 04004 68355 16/// /1006 10179 20138 38569 48502 57002 69923 333 10342 20174 91010 555 20002 91018
AAXX 04004 68370 NIL
AAXX 04004 68377 36/// /1406 10209 20195 38761 48502 58005 333 10365 20209 91008 555 91016
AAXX 04004 68380 36/// /2704 10152 20116 3//// 4//// 5//// 333 10307 20147 91006 555
AAXX 04004 68387 16/// /0304 10213 20204 38862 48524 58002 60143 333 10343 20211 91020 555 20140 91018
AAXX 04004 68411 36/// /3204 10239 20136 39919 40123 57007 333 10376 20239 91006 555 91013
AAXX 04004 68429 36/// ///// 10173 20029 38670 48489 58008 333 10351 20173 555 91016
AAXX 04004 68449 36/// /1802 10161 20068 38390 48503 50000 333 10326 20151 91004 555 91019
AAXX 04004 68471 36/// /2002 10169 20156 38336 48515 58006 333 10304 20169 91004 555 91020
AAXX 04004 68474 36/// /3002 10151 20136 38636 48526 57015 333 10327 20151 91003 555 91021
AAXX 04004 68479 16/// /2903 10193 20172 38953 48516 58002 69943 333 10378 20188 91004 555 20004 91017
AAXX 04004 68481 36/// /0302 10236 20207 39777 40141 58005 333 10353 20234 91003 555 91015
AAXX 04004 68487 16/// /2104 10184 20172 39001 48521 58007 60023 333 10299 20183 91005 555 20024 91018
AAXX 04004 68491 36/// /3502 10227 20210 30121 40130 57011 333 10320 20227 91002 555 91013
AAXX 04004 68497 16/// /3103 10232 20211 30095 40139 57017 69923 333 10321 20232 91005 555 20002 91014
AAXX 04001 31825 32699 63402 11151 21211 39889 40107 58008 82549 333 21275 47043
AAXX 04001 31845 32999 00000 11354 21384 30026 40214 57006 333 21371 47040
AAXX 04001 31878 11942 80000 11265 21295 30090 40228 53006 69900 77171 8807/ 333 21315 47025
AAXX 04001 31915 32998 09901 11183 21209 39939 40223 53007 333 21218 47006
AAXX 04001 31921 31996 12301 11211 21230 30116 40222 51005 71000 80001 333 21218 46001
AAXX 04001 31969 32998 03010 11129 21201 30161 40214 52013 333 21126 91017 91118
AAXX 04001 31981 32999 62403 11274 21305 39972 40234 53010 80002 333 21280 47024
AAXX 04001 31987 32999 03508 11165 21227 39915 40192 52008 333 21166 42998 91112
AAXX 04001 32069 11598 81305 11130 21150 30029 40034 57002 60030 72683 889// 333 21140 47009 91007 91108
BBXX 46092 04001 99368 71220 46/// /3204 10118 40238 92337 22200 00118 555 11046 22046
BBXX 44059 04001 99368 70763 46/// /3610 1//// 90020 333 91214
BBXX 44059 04001 99368 70763 46/// /3611 1//// 40220 90010 333 91217
BBXX 44059 04001 99368 70763 46/// /3511 11008 40216 53045 90000 22200 00081 333 91215
BBXX 44057 04001 99395 70761 46/// /3206 1//// 90020 333 91209
BBXX 44057 04001 99395 70761 46/// /3106 1//// 40218 90010 333 91210
BBXX 44057 04001 99395 70761 46/// /3106 11040 40217 51040 90000 22200 00038 333 91208
BBXX 44058 04001 99376 70763 46/// /3413 1//// 90020 333 91218
BBXX 44058 04001 99376 70763 46/// /3410 11013 40225 53046 90000 22200 00073 10302 70009 333 91213
BBXX 44060 04001 99413 70721 46/// ///09 11053 40162 90015 22200 00086 333 91212 555 11098 22098
BBXX 46181 04001 99538 71288 46/// /3001 10013 40033 52012 22200 00021 10300 70000 333 91202
AAXX 04004 42634 32996 00000 10130 20119 40121 333 59023
AAXX 04004 42647 31996 00000 10134 20099 40128 70500 333 59013
AAXX 04004 42737 32996 00000 10132 20109 40126 333 59012
AAXX 04004 42840 32996 00000 10144 20137 40122 333 58000
AAXX 04004 42909 32996 00504 10156 20085 40117 333 59010
AAXX 04004 42921 32996 00000 10120 20113 40171 333 59005
AAXX 04004 43003 31994 00000 10164 20147 40107 70500 333 59002
AAXX 04004 43014 31995 00000 10158 20145 39460 40123 70500 333 59007
AAXX 04004 43063 32996 00000 10140 20133 39485 40128 333 59004
AAXX 04004 43110 31996 00000 10192 20165 40108 333 58000
AAXX 04004 43117 32996 03602 10206 20140 40110 333 59002
AAXX 04004 43192 32996 00502 10224 20206 40101 333 59005
AAXX 04004 68171 NIL
AAXX 04004 68181 NIL
AAXX 04004 68182 NIL
AAXX 04004 68185 NIL
AAXX 04004 68297 NIL
AAXX 04004 68342 NIL
AAXX 04004 68370 NIL
AAXX 04004 68817 36/// /2302 10181 20119 30137 40150 57010 333 10258 20180 91004 555 91015
AAXX 04004 68925 36/// /0000 10115 20096 39780 40150 57010 333 10228 20115 91002 555 91014
BBXX 46184 04001 99539 71389 46/// /1811 10071 49817 52035 22200 00057 10909 70043 333 91214
BBXX 46184 04001 99539 71389 46/// /1811 10071 49817 52035 22200 00057 10909 70043 333 91214
AAXX 04004 82392 32596 23605 10273 20212 30003 40105 82010 333 10370 29060 55081 58003
AAXX 04004 82583 32596 20902 10307 20178 39755 40089 82100 333 10360 29050 55067 59003
AAXX 04004 82594 32697 20910 10276 20232 30102 40110 82010 333 10340 29066 55108 59008
AAXX 04004 82683 32994 00000 10298 20176 39657 40105 333 10352 29057 55057 58003
AAXX 04004 82780 32595 33601 10332 20152 39863 40110 83100 333 10378 29036 55106 58005
AAXX 04004 82789 32994 00000 10245 20125 38935 40198 333 10309 29057 55097 58007
AAXX 04004 82795 32594 60909 10234 20207 39530 40142 86200 333 10326 29069 55099 58007
AAXX 04004 82879 32592 61804 10300 20217 39837 40100 86800 333 10362 29058 55056 58011
AAXX 04004 83599 32398 199// 10245 20212 40090 51020 70200 81100 222// 20502 80225
AAXX 04004 83925 32/94 /3101 10220 20206 40884 52006 7000/ 8//// 222// 20000 /0210 333 10236
AAXX 04004 83970 41/97 /2002 10220 20175 40174 52016 7020/ 8//// 222// 02240 20000 80190 333 10226
AAXX 04004 91723 NIL
AAXX 04004 91759 11598 70218 10296 20237 40120 58016 69921 71525 8387/ 333 20246 70756 82820 83642 87465
AAXX 04004 91762 11598 80315 10269 20237 40124 58013 60021 75068 8687/ 333 20232 70412 83820 85638 88461
AAXX 04004 45011 17964 /3622 10106 20059 40254 52020 60002 70010 333 20106 58043 70000
AAXX 04001 31913 33/// /3301 11216 21244 30097 40225 52007 333 21240
AAXX 04001 31939 31997 70000 11284 21315 39870 40232 53003 72271 87070 333 21320 47031
AAXX 04001 32128 11495 83507 11062 21070 39942 49994 57012 69940 78683 883// 333 21081 49024 91015 91118
AAXX 04001 24856 11998 82301 11374 21391 30066 40244 53005 69962 70271 80001 333 21374 47024 55015
AAXX 04001 30679 NIL
AAXX 04001 30686 32999 40000 11362 21384 39909 40337 53002 82042 333 21367 47013
AAXX 04001 30961 32898 61504 11297 21309 39469 40350 57007 86040 333 21299
AAXX 04001 30971 32999 02101 11318 21348 39255 40363 57006 333 21342 47004
AAXX 04001 30978 32999 20602 11325 21355 39596 40370 57005 82040 333 21336 47006
AAXX 04001 31513 31996 03601 11286 21291 30012 40263 53003 71000 333 21292 47010
AAXX 04001 31624 NIL
AAXX 04001 31832 31996 00000 11307 21329 30120 40217 53003 71000 333 21323 47020
AAXX 04001 31939 31997 70000 11284 21315 39870 40232 53003 72271 87070 333 21320 47031
AAXX 04001 31913 33/// /3301 11216 21244 30097 40225 52007 333 21240
AAXX 04001 48921 01105 81401 10175 20145 38557 48060 5//// 60244 760// 887// 333 20135 58007 60107
AAXX 04001 48924 01330 80000 10184 20182 39499 40131 5//// 60124 763// 8472/ 333 20171 58003 60127
AAXX 04001 48925 01320 80000 10175 20174 39391 40131 5//// 60464 750// 8661/ 333 20170 58008 60467
AAXX 04001 48926 01556 80402 10198 20189 39665 40131 5//// 60174 710// 848// 333 20193 58003 60177
AAXX 04001 48927 01210 81802 10122 20114 39176 48637 5//// 69954 750// 888// 333 20120 58024 69957
AAXX 04001 48928 NIL
AAXX 04001 48930 31320 81801 10195 20187 39791 40143 52007 71044 8387/ 333 20180 58000
AAXX 04001 48935 31420 80401 10144 20129 38978 48468 52013 71044 8487/ 333 20140 58011
AAXX 04001 48938 31210 73201 10184 20181 39797 40135 52008 71044 84630 333 20184 59002
AAXX 04001 48940 31630 81201 10214 20179 39943 40142 52033 71044 885// 333 20213 58010
AAXX 04001 48941 NIL
AAXX 04001 48944 31660 33203 10160 20120 39530 40128 5//// 71044 83500 333 20155 59002
AAXX 04001 48945 31640 60000 10260 20187 39974 40152 5//// 710// 86500 333 20206 58009
AAXX 04001 48946 31540 71603 10217 20180 39976 40143 52001 710// 83850 333 20210 58008
AAXX 04001 48947 31530 60901 10200 20184 30011 40181 52001 71044 83530 333 20200 58009
AAXX 04001 48948 31460 70602 10195 20160 39945 40163 52015 71044 83130 333 20195 58011
AAXX 04001 48952 31440 72701 10216 20166 39939 40134 52006 71044 83870 333 20216 58010
AAXX 04001 48953 NIL
AAXX 04001 48955 32760 70902 10230 20174 30020 40138 52025 86502 333 20227 58003
AAXX 04001 48956 NIL
AAXX 04001 48957 31560 53401 10215 20166 30033 40142 5//// 710// 83232 333 20210 58022
AAXX 04004 43086 31596 30000 10210 20194 39928 40109 70511 82530 333 59002
AAXX 04004 43128 31996 09902 10216 20201 39504 40113 70500 333 59007
AAXX 04004 43150 31596 20000 10244 20229 30045 40120 70510 81530 333 59001 81620
AAXX 04004 43185 31596 60000 10242 20233 30113 40117 70522 83531 333 58000 83620 85360
AAXX 04004 43189 32596 60000 10252 20237 30112 40121 83531 333 59001
AAXX 04004 43198 32996 00000 10168 20155 39278 40117 333 58000
AAXX 04004 43201 32997 00000 10204 20152 39382 40105 333 59002
AAXX 04004 43213 32996 00000 10230 20205 39790 40109 333 59003
AAXX 04004 43226 32996 00901 10224 20218 30078 40108 333 59001
AAXX 04004 43233 32996 21105 10228 20189 39298 40105 80001 333 59002
AAXX 04004 43237 32996 20000 10210 20194 39716 40113 80001 333 59005 82070
AAXX 04004 43245 32596 72002 10240 20231 30088 40115 83878 333 58000
AAXX 04004 43279 31596 40000 10240 20231 30104 40122 70500 81530 333 58004 81620 84360
AAXX 04004 43284 32996 20202 10244 20232 39985 40101 80001 333 59004 82075
AAXX 04004 43295 31396 70000 10192 20176 39102 48506 71021 86601 333 56209 58002 84708 83612
AAXX 04004 43311 32596 20000 10238 20226 40107 81501 333 58014 81625
AAXX 04004 43314 32996 00902 10242 20208 40111 333 58005
AAXX 04004 43321 31495 60202 10222 20203 39675 40126 71042 84631 333 56199 58002
AAXX 04004 43329 32596 50000 10250 20244 30099 40112 84530 333 58008
AAXX 04004 43344 31395 40503 10234 20222 30020 40121 70500 83601 333 58004 83710
AAXX 04004 43346 21596 40000 10252 20243 30105 40113 70265 82531 333 58006 6004/ 82620 83360
AAXX 04004 43353 31996 30000 10230 20209 40112 82031 333 56099 58000 82359 83072
AAXX 04004 43369 32595 10000 10250 20226 40102 81500 333 58005 81620
AAXX 04004 43371 32996 23202 10222 20207 30028 40102 80001 333 59002 82075
BBXX A8CN9 04000 99544 71716 41497 62103 11010 21038 49990 58/// 70271 84460 22264 20705 32424 40705 50704 81020
BBXX A8EY7 04003 99410 71504 41598 53024 10082 20010 49990 52020 70711 85400 22224 04118 20609 325// 40909 5//// 80050
BBXX DANR 04003 99552 71558 41297 83334 11040 49930 50020 77372 886// 22254 20510
BBXX WECH 04004 99316 71691 41598 79902 10165 2//// 40235 57020 70222 8717/ 22215 00211 20201 332// 41207 5//// 6//// ICE /////
BBXX 46181 04001 99538 71288 46/// /3001 10013 40033 52012 22200 00021 10300 70000 333 91202
BBXX 46183 04001 99536 71311 46/// /1511 10086 49973 52020 22200 00074 11207 70036 333 91213
BBXX 46185 04001 99524 71298 46/// /1613 10078 40005 57004 22200 00071 11111 70055 333 91216
BBXX 46204 04001 99514 71288 46/// /1316 10077 40025 57007 22200 00084 11109 70046 333 91221
BBXX 46205 04001 99542 71343 46/// /1810 10080 49914 52028 22200 00068 11007 70036 333 91213
BBXX 46206 04001 99488 71260 46/// /1514 10092 40135 52001 22200 00083 11011 70056 333 91217
BBXX 46207 04001 99509 71299 46/// /1608 10090 40005 57011 22200 00080 11110 70051 333 91210
BBXX 4XFV 04003 99335 71435 43498 82025 10180 20150 40020 52040 884// 22224 20606 329// 41010 80160
BBXX SHIP 04004 99522 71412 41597 71728 10075 20065 49786 56031 71022 8671/ 90000 22264 00070 20404 318// 40605 80070
BBXX SHIP 04004 99309 71327 41598 61406 10185 20127 40255 56005 70320 83341 92345 22263 00230 20101 309// 40605 80150
BBXX WABS 04004 99446 71257 41598 81832 10111 20090 40205 53005 7//22 88/1/ 22243 0//// 20209 317// 40611 5//// 6//// 80100 ICE /////
AAXX 04001 56671 11780 81401 10058 20008 38211 52004 69901 70060 8347/ 333 00456 30041 79999
AAXX 04001 57378 32960 23601 11018 21053 40384 52009 82030 333 00556 31036
AAXX 04001 57426 11558 80401 10033 20027 40337 52006 60011 76066 885// 333 00551 30035 70072
AAXX 04001 57476 31959 00701 11016 21027 40382 52018 71000 333 00557 31030 79999
AAXX 04001 57584 31956 30202 10009 21039 40381 52014 71000 83040 333 00654 31015 70001
AAXX 04001 57598 31356 70701 10001 20000 40377 52015 71000 876// 333 00754 30007 70045
AAXX 04001 57655 32960 80402 10029 21030 40369 52012 8807/ 333 00551 30025 70008
AAXX 04001 57713 NIL
AAXX 04001 57776 31/00 93603 11063 21071 40374 52014 74944 333 00453 31006 70175 92506 93456
AAXX 04001 58321 31940 02001 11040 21065 40391 52012 71000 333 00656
AAXX 04001 58437 32975 00212 11145 21236 38191 52014 333 00258 70027 92503
AAXX 04001 58445 NIL
AAXX 04001 58556 32960 03603 11002 21122 40363 52020 333 00854 31042 79999
AAXX 04001 58569 32961 03406 10001 21116 40342 52021 333 00656 31025 79999
AAXX 04001 58646 31658 70201 10018 21051 40357 52024 70500 875// 333 00856 30002 70037
AAXX 04001 58653 NIL
AAXX 04001 58660 NIL
AAXX 04001 58715 11958 73403 10016 21039 40355 52014 69901 70560 8704/ 333 00854 30003 70080
AAXX 04001 58730 32662 80202 10027 21022 40344 52017 885// 333 00856 30015 70024
AAXX 04001 58731 32963 23604 10015 21024 40345 52018 82040 333 00756 31002 70035
AAXX 04001 58754 11660 83402 10043 21030 40332 52022 69921 70060 885// 333 00855 30038 70022
AAXX 04001 58911 11457 83202 10027 20008 40335 52015 69951 71060 885// 333 00855 30042 70100
AAXX 04001 58931 11/00 90204 11031 21032 38396 52011 60011 74964 333 00257 31006 70030 93444
AAXX 04001 59254 11440 80401 10069 20060 40294 52016 60021 76066 887// 333 00855 70165
AAXX 04001 59632 11459 83603 10070 20061 40267 52018 60011 76066 887// 333 00755 70050
AAXX 04001 59855 32468 80201 10192 20153 40213 52022 888// 333 00301
BBXX 46004 04001 99509 71361 46/// /1609 10077 49885 57021 22200 00071 11109 70045 333 91211
BBXX 46004 04001 99509 71361 46/// /1609 10077 49885 57021 22200 00071 11109 70045 333 91211
AAXX 04001 48826 11560 80203 10105 20103 30091 40233 53021 60022 76064 8682/ 333 01013 20105 3/012 58055 8589 5 85697 88499 96160
AAXX 04001 48839 11497 80214 10120 20112 30157 40225 53023 69922 76062 888// 222// 00170 2//05 333 01/// 2012 0 58054 83894 88696 96160
AAXX 04001 48830 11420 83605 10071 20064 39941 40264 52020 60032 75865 8672/ 333 01008 20071 3/008 58063 8679 4 88499 96160
AAXX 04001 48808 11470 80000 10088 20086 39972 40270 52018 60042 72162 888// 333 02011 20088 3/011 58071 8389 4 88696
AAXX 04004 71500 16/// /2404 10030 21046 60001 333 10048 21013 70000
AAXX 04004 71504 16/// ///// 10020 21051 60001 333 10052 21049 7////
AAXX 04004 71541 17/// /1606 10016 20002 69981 7//4/ 333 10019 21068 70008
AAXX 04004 71543 17/// /1503 10006 21001 60011 7//4/ 333 10013 21038 7////
AAXX 04004 71546 17/// /1403 10017 20006 60021 7//4/ 333 10022 21030 70019
AAXX 04004 71547 17/// /1410 10005 21001 60021 7//4/ 333 10006 21033 70024
AAXX 04004 71549 16/// ///// 11005 21037 60001 333 7////
AAXX 04004 71332 16/// /0408 11249 21276 30101 40131 52027 60001 333 11199 21249 70000
AAXX 04004 71459 16/// /1908 10018 21017 39341 40149 58008 60001 333 10067 20008 70000
AAXX 04004 71461 17/// /1406 10018 20010 60021 7//4/ 333 10021 21045 70016
AAXX 04004 71468 46/// /2112 11053 21062 39739 40068 6///1 333 7////
AAXX 04004 71483 16/// ///// 11007 21032 60001 333 10014 21050 70000
AAXX 04004 71221 17/// /0103 11019 21019 60031 7//4/ 333 11019 21062 70034
AAXX 04004 71226 17/// /1705 10018 20003 69981 7//4/ 333 10034 21011 70008
AAXX 04004 71229 46/// /0103 11049 21058 6///1 333 11049 21126 7////
AAXX 04004 71761 16/// ///// 11017 21039 60001 333 10026 21071 70000
AAXX 04004 71788 46/// /2217 10076 21060 6///1 333 10110 20043 7////
AAXX 04004 71792 16/// ///// 10014 21034 60001 333 10054 21052 70000
AAXX 04004 71283 17/// /1405 10003 21001 60011 7//4/ 333 10005 21083 70010
AAXX 04004 71888 16/// ///// 11008 21044 60001 333 10036 21039 70000
AAXX 04004 71895 16/// ///// 11008 21046 60001 333 10027 21049 70000
AAXX 04004 71067 16/// ///// 11013 21059 60001 333 10015 21050 70000
AAXX 04004 71010 16/// /1905 10024 21037 60001 333 10059 21027 70000
AAXX 04004 71011 16/// ///// 10020 21038 60001 333 10054 21017 70000
AAXX 04004 71049 16/// /0000 11308 30034 40059 51001 60001 333 11301 21343 70000
AAXX 04004 71359 16/// /1401 11009 21037 60001 333 10040 21082 7////
AAXX 04004 71673 16/// ///// 10003 21040 60001 333 21050 7////
AAXX 04004 71690 17/// ///// 10010 20001 60011 7//4/ 333 10011 21039 70013
AAXX 04004 71405 16/// ///// 11025 21052 60001 333 10031 21069 70000
AAXX 04004 71417 16/// /2415 11018 21050 39991 40025 53027 60001 333 10020 21018 70006
AAXX 04004 71426 46/// /3027 11150 6///1 333 11139 21165 7////
AAXX 04004 16459 11540 72902 10092 20092 30188 40224 56003 60031 76066 84240 333 84820 87357
AAXX 04004 71500 16/// /2404 10030 21046 60001 333 10048 21013 70000
AAXX 04004 71504 16/// ///// 10020 21051 60001 333 10052 21049 7////
AAXX 04004 71541 17/// /1606 10016 20002 69981 7//4/ 333 10019 21068 70008
AAXX 04004 71543 17/// /1503 10006 21001 60011 7//4/ 333 10013 21038 7////
AAXX 04004 71546 17/// /1403 10017 20006 60021 7//4/ 333 10022 21030 70019
AAXX 04004 71547 17/// /1410 10005 21001 60021 7//4/ 333 10006 21033 70024
AAXX 04004 71549 16/// ///// 11005 21037 60001 333 7////
AAXX 04004 71673 16/// ///// 10003 21040 60001 333 21050 7////
AAXX 04004 71690 17/// ///// 10010 20001 60011 7//4/ 333 10011 21039 70013
AAXX 04004 71888 16/// ///// 11008 21044 60001 333 10036 21039 70000
AAXX 04004 71895 16/// ///// 11008 21046 60001 333 10027 21049 70000
AAXX 04004 71067 16/// ///// 11013 21059 60001 333 10015 21050 70000
AAXX 04004 71359 16/// /1401 11009 21037 60001 333 10040 21082 7////
AAXX 04004 71283 17/// /1405 10003 21001 60011 7//4/ 333 10005 21083 70010
AAXX 04004 71761 16/// ///// 11017 21039 60001 333 10026 21071 70000
AAXX 04004 71788 46/// /2217 10076 21060 6///1 333 10110 20043 7////
AAXX 04004 71792 16/// ///// 10014 21034 60001 333 10054 21052 70000
AAXX 04004 71332 16/// /0408 11249 21276 30101 40131 52027 60001 333 11199 21249 70000
AAXX 04004 71221 17/// /0103 11019 21019 60031 7//4/ 333 11019 21062 70034
AAXX 04004 71226 17/// /1705 10018 20003 69981 7//4/ 333 10034 21011 70008
AAXX 04004 71229 46/// /0103 11049 21058 6///1 333 11049 21126 7////
AAXX 04004 71010 16/// /1905 10024 21037 60001 333 10059 21027 70000
AAXX 04004 71011 16/// ///// 10020 21038 60001 333 10054 21017 70000
AAXX 04004 71049 16/// /0000 11308 30034 40059 51001 60001 333 11301 21343 70000
AAXX 04004 71459 16/// /1908 10018 21017 39341 40149 58008 60001 333 10067 20008 70000
AAXX 04004 71461 17/// /1406 10018 20010 60021 7//4/ 333 10021 21045 70016
AAXX 04004 71468 46/// /2112 11053 21062 39739 40068 6///1 333 7////
AAXX 04004 71483 16/// ///// 11007 21032 60001 333 10014 21050 70000
AAXX 04004 71405 16/// ///// 11025 21052 60001 333 10031 21069 70000
AAXX 04004 71417 16/// /2415 11018 21050 39991 40025 53027 60001 333 10020 21018 70006
AAXX 04004 71426 46/// /3027 11150 6///1 333 11139 21165 7////
BBXX 46146 04001 99493 71237 46/// /0912 10087 40199 52001 22200 00071 10502 70011 333 91215
AAXX 04001 56144 11780 80000 11038 21071 36838 52002 69951 72680 884// 333 00352 31022 70005 92500
AAXX 04001 56152 32680 70000 11134 21161 36281 52002 86402 333 00255 70005 92503
AAXX 04001 56167 32580 70000 11036 21054 37070 52006 875// 333 00455 31008 70074 92509
AAXX 04001 56182 32780 80000 11102 21128 37210 52007 885// 333 00252 79999
AAXX 04001 56357 32680 10000 11116 21169 36429 52002 81400 333 00261
AAXX 04001 56586 11457 83601 11042 21054 38095 52002 69961 77077 885// 333 00353 31002 70031 92501
AAXX 04001 56748 11580 70901 10080 20071 38352 52010 69941 70080 87900 333 00152 70023
AAXX 04001 56763 32680 81102 10131 20084 40115 52004 884// 333 00356
AAXX 04001 56768 11678 81102 10080 20065 38177 52005 69941 78080 884// 333 00253 70004
AAXX 04001 56838 31458 72201 10131 20118 40160 52014 71000 876// 333 00151 70006
AAXX 04001 56886 11475 81602 10019 20001 38329 52006 69901 76000 885// 333 00455 30040 79999
AAXX 04001 56946 11462 81601 10125 20125 40157 52013 60051 78098 884// 333 00153 70087
AAXX 04001 56959 32560 82701 10168 20166 40133 52006 884// 333 00151 70004
AAXX 04001 56969 11565 70201 10170 20160 40146 52008 60041 72580 879// 333 00100 70050
AAXX 04001 57731 32668 82701 10033 21061 40351 52005 885// 333 00652 30019 70003
AAXX 04001 57766 11760 83602 10025 21034 40368 52014 69901 70060 885// 333 00652 30017 70035
AAXX 04001 57845 11762 83402 10015 21024 40340 52006 69931 76076 885// 333 00753 30016 70063
AAXX 04001 57853 31956 80401 10013 21028 40365 52008 71000 8807/ 333 00652 30012 70062
AAXX 04001 57916 32668 80401 10050 20027 40313 52005 885// 333 00753 70022
AAXX 04001 57922 31658 83402 11012 21028 40339 52008 71000 885// 333 00554 30001 70042 93427
AAXX 04001 57932 11563 80000 10038 21008 40337 52008 69901 70060 885// 333 00753 30039 70064
AAXX 04001 58338 32961 02201 11021 21070 40378 52015 333 00754
AAXX 04001 59007 11462 80702 10023 20002 40289 52012 69931 76060 885// 333 00654 30034 70008
AAXX 04001 59046 11462 83402 10046 20033 40317 52019 69991 76060 885// 333 00854 30048 70104
AAXX 04001 59058 11450 83204 10043 20022 40312 52015 69961 76066 885// 333 00754 30049 70043
AAXX 04001 59072 11668 80202 10040 20030 40324 52011 69921 72160 885// 333 00754 30043 70080
AAXX 04001 59087 11563 80706 10064 20001 40299 52014 69901 72160 888// 333 00757 79999
AAXX 04001 59209 11462 80201 10050 20030 40284 52015 60021 76066 887// 333 00754 70050
AAXX 04004 94996 41572 61018 10220 20145 30019 40154 58011 70211 86800 90030 333 20188
AAXX 04004 94996 41572 61018 10220 20145 30019 40154 58011 70211 86800 90030 333 20188
AAXX 04001 45032 36/// /3604 10106 20026 30249 40267 52001
AAXX 04001 45035 36/// /0406 10112 20033 30227 40271 52004
AAXX 04001 45039 36/// /0304 10113 20052 30244 40260 52001
AAXX 04001 45044 36/// /0009 10115 20051 30156 40252 52005
AAXX 04001 45032 36/// /3604 10106 20026 30249 40267 52001
AAXX 04001 45035 36/// /0406 10112 20033 30227 40271 52004
AAXX 04001 45039 36/// /0304 10113 20052 30244 40260 52001
AAXX 04001 45044 36/// /0009 10115 20051 30156 40252 52005
BBXX 46232 04001 99325 71174 46/// ///// 1//// 90008 22200 00149 11702 21001 328// 41702 70011
BBXX 46247 04001 99378 71228 46/// ///// 1//// 90021 22200 00116 11405 20903 328// 41404 70027
BBXX 46248 04001 99461 71247 46/// ///// 1//// 90004 22200 00095 11408 20806 327// 41405 70039
BBXX 46246 04001 99500 71451 46/// ///// 1//// 90029 22200 00068 11108 21006 319// 41105 70039
BBXX 46246 04001 99500 71451 46/// ///// 1//// 92359 22200 00068 11108 20906 318// 41105 70041
BBXX 44258 04001 99445 70634 46/// /3508 10008 40061 52020 22200 00052 11004 70018 333 91211
BBXX 46236 04001 99368 71219 46/// ///// 1//// 90020 22200 00118 11507 21003 328// 41506 70033
BBXX 46225 04001 99329 71174 46/// ///// 1//// 90014 22200 00153 11502 21001 328// 41502 70009
BBXX 46213 04001 99403 71247 46/// ///// 1//// 90024 22200 00108 11406 21003 327// 41405 70028
BBXX 46215 04001 99352 71209 46/// ///// 1//// 90008 22200 00137 11505 21003 326// 41505 70027
BBXX 42013 04001 99272 70829 46/// ///// 1//// 40282 92340 22200 00194
BBXX 41010 04001 99289 70785 46/// /3311 10112 40251 90020 22200 00232 10908 20705 300// 40905 70039 333 91215 555 11111 22116
BBXX 41009 04001 99285 70802 46/// /3207 10095 21007 40277 90020 22200 00214 11105 20502 300// 41104 70023 333 91211 555 11075 22078
BBXX 42361 04001 99276 70925 46/// ///03 10144 20028 40308 56007 90030 555 11026 22028
BBXX 44100 04001 99363 70756 46/// ///// 1//// 90022 22200 00118 10705 20705 70023
BBXX 41110 04001 99341 70777 46/// ///// 1//// 90021 22200 00128 10301 20301 70006
BBXX 41113 04001 99284 70805 46/// ///// 1//// 90021 22200 00194 11101 21001 70006
BBXX 41114 04001 99276 70802 46/// ///// 1//// 90016 22200 00215 11103 21002 303// 41101 70013
BBXX 41112 04001 99307 70813 46/// ///// 1//// 90021 22200 00153 10302 20302 70008
AAXX 04004 87395 32965 51410 10290 20106 30066 40109 52015 85070 333 10354 20269 56040 85360
AAXX 04004 41258 36/// /2405 10237 20133 30111 40115 333 0E/// 59013
BBXX 44039 04001 99411 70727 46/// /3212 11050 21115 40181 92353 22200 00082 10402 70010 333 91217
BBXX 44060 04001 99413 70721 46/// ///09 11054 40164 90030 22200 00082 333 91212 555 11098 22098
BBXX 44022 04001 99409 70737 46/// ///09 11051 21139 40195 90030 22200 00062 333 91213 555 11103 22103
BBXX 44030 04001 99432 70704 46/// /3109 1//// 40138 53033 90004 22200 00077 10402 70008 333 91211 555 11111 22119
BBXX 44034 04001 99441 70681 46/30 /3409 11064 40117 53027 90004 22200 00070 10402 70011 333 91212 555 11109 22113
BBXX 44039 04001 99411 70727 46/// /3211 11048 21111 40179 90000 22200 00082 10402 70010 333 91215
BBXX 44060 04001 99413 70721 46/// ///09 11053 40162 90015 22200 00086 333 91212 555 11098 22098
BBXX 44022 04001 99409 70737 46/// ///10 11049 21142 40191 90015 22200 00062 333 91215 555 11103 22108
AAXX 04004 97014 12560 32603 10284 20238 30023 40116 52018 69954 81131 333 20233 50350 55056 55508 51885 56000 58003 81822
AAXX 04004 97028 01463 80000 10256 20241 30101 40107 53002 60064 72162 84221 333 20244 50170 55026 56000 57801 58005 69907 82819 87460 80860
AAXX 04004 97048 12456 60000 10252 20239 30082 40106 51024 60034 83231 333 20224 50410 55030 56600 57801 58002 83817 80860
AAXX 04004 97072 01459 70000 10252 20234 30031 40131 51008 60024 70362 83571 333 20242 50570 55045 56500 59007 69907 83619
AAXX 04004 97086 12560 62503 10282 20251 30094 40119 51019 69904 83270 333 20250 50200 55041 56000 57803 58006 82820 84460 80858
AAXX 04004 97096 12560 40000 10250 20232 30109 40131 52021 60114 333 20224 51190 55050 56000 58006 81620 84360
AAXX 04004 97120 12462 40000 10268 20226 30084 40117 52017 69954 81201 333 20234 50460 55035 56000 57803 58006 81818 84080 80860
AAXX 04004 97146 31456 73005 10254 20242 30048 40108 5//// 70522 83871 333 20242 56000 57803 59001 82813 83360 80857
AAXX 04004 97180 11458 70903 10252 20235 30109 40127 53019 60014 71796 83972 333 20231 50420 55041 55508 51763 56000 57901 58002 81918 83819 86360
AAXX 04004 97192 01458 72304 10262 20242 30073 40130 52016 60174 70162 84520 333 20242 50181 55000 56600 59002 60067 84616 87460
AAXX 04004 97230 11460 80000 10261 20247 30111 40118 52017 60024 70262 84872 333 20252 50280 55000 56600 57861 58011 82817 86459 80858
AAXX 04004 97260 11462 71503 10246 20237 30108 40115 52014 60074 70522 83531 333 20238 50540 55070 56000 58011 83618
AAXX 04004 97270 01457 70000 10248 20239 30107 40111 52003 60054 76162 87810 333 20248 50210 55060 56000 57801 58006 60017 83815 85616 80859
AAXX 04004 97300 01550 82606 10250 20241 30081 40121 52030 60321 79596 85971 333 20242 50480 55010 56000 57902 57802 58008 60167 81918 84820 80980 80857
AAXX 04004 97340 12568 82105 10266 20237 30099 40114 51017 60284 87232 333 20236 50440 55020 56000 58005 87620
AAXX 04004 97372 01462 60000 10282 20254 39989 40110 52014 60094 70162 83171 333 20234 50310 55020 59003 69907 83819 85080
AAXX 04004 97430 12460 61203 10278 20246 30078 40107 52014 60064 84231 333 20234 50540 55033 56700 57872 58001 84818 80860
AAXX 04004 97460 11460 70000 10254 20242 30071 40085 52009 60024 70262 82836 333 20238 50020 55053 56000 57804 59011 82818 80857
AAXX 04004 97502 11456 80904 10260 20231 30113 40117 52022 60184 70522 84531 333 20236 55022 56000 57600 58014 84614
AAXX 04004 97530 NIL
AAXX 04004 97560 01458 83405 10264 20246 30096 40111 52015 60014 76166 8382/ 333 20250 5///0 55000 56000 57801 58006 69917 83881 88460 80860
AAXX 04004 97580 12462 70000 10276 20250 30116 40123 56004 60044 82107 333 20200 55010 56000 57802 59006 82815 80860
AAXX 04004 97600 01460 70000 10254 20242 30100 40106 5//// 60234 72162 83271 333 20244 5//// 55024 56600 57862 58007 60237 83817 86459 80858
AAXX 04004 97686 NIL
AAXX 04004 97690 12465 71203 10280 20242 30008 40110 52014 60114 84862 333 20234 55003 56300 57833 58014 83816 85080
AAXX 04004 97724 12560 70303 10272 20245 30087 40103 52018 60314 82276 333 20234 50590 55022 56600 57861 59004 82820 84359 80850
AAXX 04004 97748 01459 72814 10265 20244 30057 40059 54000 60104 70562 84976 333 20252 5//// 55034 56000 57961 58001 60017 82914 84458 80940
AAXX 04004 97760 01450 73509 10258 20243 30108 40117 52017 60134 72166 83932 333 20249 55051 56000 57901 58005 60057 81915 82816 80960
AAXX 04004 97796 11458 80000 10280 20244 30073 40124 52013 60114 70522 8453/ 333 20238 55086 56009 58012 84614 86361
AAXX 04004 97810 12464 73410 10281 20241 30093 40102 52023 60074 83232 333 20240 50560 55041 56700 57871 58013 83819 86360 80845
AAXX 04004 97876 NIL
AAXX 04004 97900 01468 60605 10284 20249 30076 40105 53013 60064 70262 86200 333 20252 50360 55018 56200 57821 58003 60067 86820 80850
AAXX 04004 97980 32460 70606 10276 20233 30106 40113 52031 86842 333 20252 50640 55076 56000 58013 82816 84617
AAXX 04004 96009 31440 50000 10242 20239 30066 40101 52007 70521 83921 333 20232 50260 55064 56000 57902 58006 81915 82616 80965
AAXX 04004 96011 32458 71204 10236 20226 30081 40107 52005 84531 333 20234 50390 55078 56000 58005 84619
AAXX 04004 96035 11456 70000 10244 20227 30074 40112 52014 69904 70522 84876 333 20242 50430 55068 56000 57801 58009 81817 83618 80850
AAXX 04004 96073 31456 70000 10234 20225 30103 40115 52020 70522 83972 333 20211 50380 55087 56000 57901 58002 83915 80959
AAXX 04004 96091 32459 60000 10244 20234 30105 40128 52016 83271 333 20241 50520 55073 56000 57803 58011 83817 80860
AAXX 04004 96109 32558 70000 10248 20235 30066 40105 52015 82531 333 20248 50430 55033 56000 58018 82620 85360
AAXX 04004 96145 31440 60000 10256 20232 40118 5//// 70552 86811 333 20250 50060 55000 56800 57883 58006 82616 84817 85857
AAXX 04004 96147 NIL
AAXX 04004 96163 32557 60000 10240 20237 30115 40117 52017 83521 333 20210 55095 56000 58010 83620
AAXX 04004 96179 32460 70000 10258 20240 30077 40114 52004 83208 333 20230 50340 55091 56000 57802 58002 83817 80850
AAXX 04004 96195 31456 70000 10254 20243 30092 40128 51022 70522 82571 333 20248 50291 55076 56000 58012 82614
AAXX 04004 96221 11420 50000 10249 20243 30098 40113 52015 60164 70522 81131 333 20242 50300 55013 56999 58003 81815
AAXX 04004 96237 32458 60000 10240 20233 30077 40119 51023 83232 333 20238 50410 55077 56000 57801 58009 83817 83360 80860
AAXX 04004 96249 32559 73204 10256 20248 30052 40113 52015 83232 333 20241 50400 55087 56800 57881 58002 83820 80863
AAXX 04004 96253 12457 70000 10252 20241 30083 40104 52019 69904 82972 333 20250 55058 55508 50767 56000 57900 58009 81915 81820 84081
AAXX 04004 96295 11440 80000 10248 20239 30021 40124 51018 70522 85521 333 20238 50480 55030 50483 56000 58008 85613 84462
AAXX 04004 96509 32459 60000 10259 20247 30112 40124 52023 81151 333 20248 50300 55015 56000 58005 81815 84362
AAXX 04004 96581 12458 70000 10247 20240 30118 40111 52013 60284 85170 333 20241 50610 55060 56700 58004 85810 85462 80860
AAXX 04004 96633 12560 63205 10262 20237 30103 40110 52015 60034 82271 333 20232 50010 55000 56000 58001 82820 85460
AAXX 04004 96645 12456 50000 10248 20241 30085 40117 52021 60034 84532 333 20238 50050 55000 56000 58002 83612
AAXX 04004 96655 12458 60000 10264 20243 30102 40136 52014 60054 83522 333 20240 50020 55055 56000 59001 83612
AAXX 04004 96685 32459 20000 10254 20243 30099 40126 52014 82511 333 20238 50700 55001 56000 59006 82618
AAXX 04004 96749 11556 40000 10258 20239 30109 40123 53020 60044 70521 81511 333 20244 50330 55009 56000 58002 81623 83462
AAXX 04004 96781 NIL
AAXX 04004 96805 01559 70000 10255 20244 30113 40122 51011 69964 70262 84271 333 20244 50190 55006 56000 57801 59001 69907 84820 85460 80860
AAXX 04004 96839 31540 60000 10260 20233 30107 40114 52021 70522 83172 333 20252 50331 55048 56000 59003 83620
AAXX 04004 96935 31958 72102 10263 20241 30109 40115 52019 70522 86071 333 20246 50480 55083 56000 59001 86360
AAXX 04004 97008 01459 60000 10274 20246 30086 40096 52010 60024 70262 82272 333 20246 50410 55060 56000 58004 69917 82819 85360
AAXX 04004 97016 12460 32104 10278 20228 30100 40102 52015 69904 81131 333 20238 50050 55051 56000 57802 58000 81818 83360 80860
AAXX 04004 97126 12460 30303 10252 20219 30066 40126 52023 60024 81521 333 20200 50230 55027 56000 58005 81618 83460
AAXX 04004 97142 32460 72705 10286 20238 40092 40106 5//// 82871 333 20250 50270 55018 56000 57806 58005 81819 86460 80857
AAXX 04004 97182 01566 80000 10254 20229 30115 40119 52015 60034 79566 83971 333 20222 50340 55066 56000 57900 57800 58001 81920 82820 85460 809// 808//
AAXX 04004 97240 01458 80000 10252 20246 30009 40124 52018 69904 70562 84171 333 20244 50350 55030 56000 58012 69907 84816
AAXX 04004 97284 02464 73004 10222 20155 38873 40111 5//// 60054 83131 333 20192 50080 55018 56000 59007 60047 83813
AAXX 04004 97310 01440 80000 10243 20238 30097 40109 5//// 60744 79522 8492/ 333 20204 50392 55010 56000 59011 60247 81917 83617 88457
AAXX 04004 97320 NIL
AAXX 04004 97378 12570 60000 10266 20258 39943 40106 5//// 60304 82172 333 20226 50140 55001 56000 58001 82820 84080
AAXX 04004 97380 22564 22105 10292 20257 30101 40121 5//// 60054 82101 333 20250 50580 55028 56000 58039 60059 82820
AAXX 04004 97406 32460 40000 10278 20243 30069 40094 52014 82231 333 20216 50610 55086 56000 57802 58004 82819 80859
AAXX 04004 97570 11460 73004 10296 20243 30107 40114 52021 60094 70264 82892 333 20234 55000 56000 58012 81813 86360
AAXX 04004 97630 11463 71805 10274 20241 39954 40115 52021 60084 71522 84972 333 20236 50038 55046 56000 57901 58000 81911 83813 86360 80976
AAXX 04004 97682 01456 82004 10260 20248 30101 40109 52015 60084 76062 8587/ 333 20220 55042 56009 57800 58018 69907 85816 88460 80858
AAXX 04004 97698 11459 71608 10284 20240 30113 40120 52007 60304 71562 86972 333 20246 55030 56000 57901 57801 58011 82914 84815 87461 80980 80870
AAXX 04004 97700 12460 70000 10258 20240 30087 40101 52017 60024 84872 333 20230 50270 55035 56000 57803 58003 82817 84358 80850
AAXX 04004 97722 12462 70000 10267 20228 30092 40107 52019 60064 85870 333 20224 50340 55061 56600 57861 58007 83818 86458 80857
AAXX 04004 97780 12462 70000 10186 20158 5//// 60214 85834 333 20140 55046 56000 57802 82813 84615 86360 80850
AAXX 04004 97790 01458 82812 10263 20243 30059 40080 52016 60084 70582 8487/ 333 20247 50470 55000 56009 57802 58000 69927 82818 86458 80858
AAXX 04004 96001 11550 70000 10248 20239 39975 40125 5//// 60041 70562 83232 333 20188 50410 55032 56000 57802 58014 83820 80860
AAXX 04004 96015 31440 40000 10234 20228 30097 40104 5//// 71011 82472 333 20192 50820 55100 56000 58011 82613
AAXX 04004 96033 11450 60000 10256 20238 30110 40115 52011 60084 70562 83928 333 20240 50274 55095 56000 57903 58014 81918 83617 80980
AAXX 04004 96075 31458 50000 10239 20227 30098 40104 5//// 70522 82221 333 56000 57803 58006 82815 80850
AAXX 04004 96087 12460 73605 10259 20232 30089 40122 51016 69904 81531 333 20252 50720 55076 56800 58009 81615 87080
AAXX 04004 96171 31440 70000 10250 20238 30089 40114 52018 70522 85522 333 20240 50460 55058 56000 58011 85613
AAXX 04004 96207 NIL
AAXX 04004 96505 NIL
AAXX 04004 96525 32458 70000 10257 20246 30116 40123 52023 83475 333 20240 50100 55009 56000 58002 83615 85360
AAXX 04004 96529 12440 70000 10252 20246 30114 40138 51022 69904 83131 333 20241 50370 55030 56000 58002 83818
AAXX 04004 96535 01450 70302 10243 20238 30110 40130 5//// 60204 76062 82271 333 20242 50360 55027 56000 57803 58009 60208 82813 87360 80864
AAXX 04004 96557 01430 80000 10236 20234 30070 40120 60184 76166 8592/ 333 20229 50580 55052 56009 57900 57800 58006 60188 82912 83813 88460 80980 80857
AAXX 04004 96559 11340 70000 10246 20239 30085 40123 52009 69904 72522 86120 333 20234 50370 55039 56300 57834 58007 86809 86462 80848
AAXX 04004 96565 31358 80000 10244 20237 30080 40132 5//// 70522 86531 333 20236 50550 55036 56000 58008 86609 84357
AAXX 04004 96595 11210 70000 10234 20231 30085 40137 72842 85632 333 20224 50260 55023 56700 58009 85704
AAXX 04004 96607 01460 60000 10242 20232 30114 40129 52020 60664 72842 83231 333 50290 55003 56000 58000 60137 83815
AAXX 04004 96615 32458 70204 10260 20233 30117 40132 84331 333 20250 50130 55028 26000 57901 57802 58010 81915 83812 80958 80856
AAXX 04004 96695 12458 30000 10246 20238 30109 40114 5//// 60014 82111 333 20224 5//// 55010 56000 59006 82617
AAXX 04004 96737 11450 40000 10238 20229 30073 40104 53004 60024 70521 82571 333 20230 50240 55010 56000 58000 82618
AAXX 04004 96739 NIL
AAXX 04004 96741 12560 40000 10270 20232 30098 40102 52004 60024 81521 333 20254 50170 55013 56000 59014 81623 83462
AAXX 04004 96745 12557 60000 10256 20238 30108 40113 52024 69904 83521 333 20248 50100 55000 56000 59004 83620 86460
AAXX 04004 96751 12558 40000 10194 20182 39052 48920 52012 60144 81501 333 20187 50080 55000 56000 58000 81620 83080
AAXX 04004 96791 12558 70000 10248 20236 30060 40135 52014 60034 83531 333 20240 50234 55032 56000 59003 83620
AAXX 04004 96797 32560 72302 10258 20240 30109 40115 52013 82531 333 20254 50590 55030 5//// 56000 59004 82620 85360
AAXX 04004 96837 31558 60000 10265 20245 30106 40110 51014 70522 82231 333 20246 51170 55045 56000 57800 59003 82823
AAXX 04004 96925 12465 72902 10281 20256 30107 40112 51019 69904 85232 333 20266 50480 55094 56600 57860 59001 85817 80860
AAXX 04004 96933 12460 72802 10262 20241 30108 40111 52016 60084 83571 333 20255 50431 55093 56600 59002 83618 85460
AAXX 04004 96937 12557 70000 10269 20240 30110 40115 52019 60084 83131 333 20260 50700 55077 56000 58005 83820
AAXX 04004 96973 12560 70000 10264 20246 30109 40114 52017 83271 333 20252 50351 55084 56000 57803 58000 83820 80850
AAXX 04004 96987 12459 70000 10250 20235 30060 40119 52021 60574 85521 333 20234 52011 55032 56000 58010 85618
BBXX 46036 04001 99484 71339 46/// /1614 10099 49892 57075 22200 00079 11109 70047 333 91217
AAXX 04004 68814 36/// /1902 1//// 2//// 30145 4//// 57011 333 1//// 2//// 91005 555 91015
AAXX 04001 98134 31560 80902 10212 20177 30003 40196 53024 70342 8427/ 333 20186 56999 58016 84820 88357
AAXX 04001 98223 31462 20402 10240 20203 40149 53022 70540 81802 333 20207 56999 58013 81619
AAXX 04001 98232 31565 80402 10241 20214 40178 53015 71542 8357/ 222// 20101 333 20220 56999 58015 83620 88358
AAXX 04001 98325 31462 31801 10245 20231 40147 53025 70544 82201 222// 20000 333 20220 56999 58007 82817 98308
AAXX 04001 98328 31461 41402 10168 20156 38543 40130 53021 74044 84501 333 20134 50220 55008 56999 58006 84613
AAXX 04001 98330 31470 50000 10255 20224 30117 40149 52027 70544 82230 333 20245 56999 58007 82818 85358 555 00015
AAXX 04001 98336 NIL
AAXX 04001 98429 11560 81101 10245 20240 40149 52022 60114 70564 8387/ 333 20245 56999 58014 70110 83822 88460
AAXX 04001 98430 11558 73601 10245 20233 40148 52020 60084 70544 83870 333 20235 56999 58017 70078 83620 85358 555 20078
AAXX 04001 98431 11468 80601 10249 20231 30094 40141 53026 60014 78082 8387/ 333 20234 56199 58009 70012 83617 88459 555 20012
AAXX 04001 98440 11410 80906 10240 20229 30151 40156 52028 60664 76386 8622/ 333 20238 56199 58019 71232 86815 88457 555 2066
AAXX 04001 98444 11465 50402 10267 20247 30121 40140 53035 60362 72582 83232 333 20210 56999 58012 70362 83818 83360 84070 555 20110
AAXX 04001 98526 32570 50000 10268 20251 40133 53022 81108 333 20231 56999 58008 81820 85274 98315
AAXX 04001 98531 31568 60901 10245 20236 30127 40131 53024 70544 82930 333 20222 56199 58011 81919 82820 85358
AAXX 04001 98536 11470 80403 10248 20226 39935 40141 53021 60064 78084 8327/ 222// 20000 333 20240 56199 58008 70060 83818 88357
AAXX 04001 98543 12475 40000 10271 20248 30126 40137 53031 60064 82201 333 20245 56999 58012 70060 82818 83075
AAXX 04001 98550 11459 80202 10256 20237 40138 53031 69984 78011 8497/ 333 20244 56299 58014 70008 82915 88357 555 20002
AAXX 04001 98618 32580 52702 10255 20235 40124 53011 82208 333 20243 56999 58006 82820 85274 555 0////
AAXX 04001 98630 32575 40203 10270 20243 40132 53007 82201 222// 2//02 333 20252 56199 59001 82820
AAXX 04001 98637 NIL
AAXX 04001 98646 32560 73602 10259 20239 30116 40144 52019 82278 333 20244 56899 58005 82820 84360 87275
AAXX 04001 98653 NIL
AAXX 04001 98741 11468 70000 10267 20244 40109 52013 60034 70544 82908 333 20249 56199 59001 70025 82917 87275
AAXX 04001 98747 31460 61801 10241 20212 39910 40115 52028 70544 83860 333 20230 56999 58004 83618 86358
AAXX 04001 98753 11465 73603 10260 20236 40115 51014 60024 70544 81238 333 20242 55040 2//// 56999 59004 70025 81816 84359 87279
AAXX 04001 98755 11465 80000 10248 20237 40123 53015 60514 76166 8452/ 333 20230 56199 58000 70513 84618 88458 555 20130
AAXX 04001 98836 11462 80402 10252 20247 40124 53017 60284 60284 70262 8221/ 333 20238 56999 58006 70282 82818 88462 555 20042
AAXX 04001 88900 46/// /2316 10036 20025 39882 49884 57005 333 10049 20035
AAXX 04004 78318 12565 63608 10178 20100 30255 40259 53011 60001 86800 333 10220 20174 30/// 56900 58039 83820 86622
AAXX 04004 78325 11530 63608 10159 20061 30197 40257 53011 60001 70411 86200 333 10216 20159 30/// 56800 58033 86820 555 13603
AAXX 04004 78333 12/10 20306 10172 20089 30235 40242 53020 60001 81130 333 10240 20161 30/// 56990 58039 818//
AAXX 04004 78348 11557 73509 10175 20085 30184 40238 53017 60001 70511 87800 333 10210 20175 30/// 56800 58043 83821 86631 555 13603
AAXX 04004 78349 12540 73606 10180 20107 30123 40236 52021 60001 875// 333 10228 20163 30/// 56899 58028 87625 555 13603
AAXX 04004 78353 12560 33606 10197 20104 30208 40231 51026 60001 82802 333 10235 20197 31/// 50524 56909 58039 70014 81820
AAXX 04004 78360 12/60 13513 10223 20137 30187 40199 53015 60001 81400 333 10268 20219 30/// 56900 58016 816// 92046
AAXX 04004 78369 11464 73507 10247 20202 30177 40186 52013 69911 70581 878// 333 10269 20212 30/// 56999 57890 58022 70009 83818 84630 92034
BBXX 62123 04004 99563 10022 47997 /2837 10072 20020 49874 52051 700// 22200
BBXX 63106 04004 99610 10017 46/// /3231 10055 49765 52042 22200
BBXX 63105 04004 99610 10017 47597 ///// 10058 20014 49763 52041 700// 22200
BBXX 62305 04004 99504 10000 46/97 /2834 10098 20034 40133 52011 22200 00113 10805 70025 333 90710 91148
BBXX 62304 04004 99511 10018 46/98 /2635 10085 20025 40085 58001 22200 00105 106// 333 90710 91149
BBXX 62094 04004 99517 70067 46/// /2826 10086 20044 40168 52039 22200 00104 10809 70044 333 90710 91136
BBXX 62103 04004 99499 70029 46/98 /3036 10104 20037 40154 53019 22200 00115 10908 70038 333 90710 91149
BBXX A8LP6 04004 99356 70104 41/98 /0320 10150 20116 40330 54000 70311 8//// 22224 04136 2//// 80130
BBXX V2NA1 04004 99389 70231 41/97 /1120 10165 20141 40300 54000 750// 8/8// 22264 04160 20908 80150
BBXX MYSU5 04004 99430 70344 41697 82408 10115 20067 40351 50019 70222 8/7// 22263 00150 20101 32825 40509 50407 80092
BBXX OXHV2 04004 99496 70038 41/98 /3042 10125 20068 40173 53042 700// 8//// 22254 00121 20907 80095
AAXX 04004 41128 32960 00000 10130 21050 38833 48542 333 58032 555 04410 50141
AAXX 04004 41258 36/// /2405 10237 20133 30111 40115 333 0E/// 59013
AAXX 04004 91425 11474 60905 10294 20272 30108 40109 5//// 60054 70282 82206 333 20233 562/9 58002 70051 82819 84080 555 90400
AAXX 04004 91434 11474 81003 10278 20246 30136 40137 5//// 60034 70282 882// 333 20256 56299 58010 70030 88817 555 90400
AAXX 04004 91353 32474 80506 10311 20253 30092 40099 5//// 83202 333 20250 561/9 58003 83819 84363 555 90400
AAXX 04004 91353 32474 80506 10311 20253 30092 40099 5//// 83202 333 20250 561/9 58003 83819 84363 555 90400 91425 11474 60905 10294 20272 30108 40109 5//// 60054 70282 82206 333 20233 562/9 58002 70051 82819 84080 555 90400 91434 11474 81003 10278 20246 30136 40137 5//// 60034 70282 882// 333 20256 56299 58010 70030 88817 555 90400
BBXX VRXL7 04003 99008 70442 41297 71017 10270 2023/ 40120 50005 70211 87278 22253 00280 20106 30504 40106 50106 6//// 80240 ICE 0/0//
BBXX WC5932 04004 99417 70874 43/// /1814 00/// 11043 21100 40238 55024 7//// 8//// 22200 0//// 2//// 3//// 4//// 5//// 6//// 81060 ICE /////
BBXX WXY6216 04004 99434 70877 43/// /0322 00/// 11020 21078 40177 55049 7//// 8//// 22283 0//// 2//// 3//// 4//// 5//// 6//// 81040 ICE /////
BBXX KTDQ 04003 99126 11436 41499 30712 10320 2021/ 4//// 54/// 7//00 83200 22271 0//// 2//// 307// 40602 5//// 6//// 80240 ICE /////
BBXX VRIO2 04004 99097 50241 41498 61111 10240 20211 40120 51015 70321 84248 22273 00240 2//// 3//// 4//// 5//// 6//// 80220 ICE /////
AAXX 04001 23426 41984 80102 11161 21180 30223 40249 57016 70273 8807/
AAXX 04001 23625 41998 83401 11163 21182 30194 40230 57012 70272 8807/
AAXX 04001 28076 42997 20904 11165 21178 30141 40218 57009 80001
AAXX 04001 28367 42984 00501 11181 21200 30033 40171 57007
AAXX 04001 28382 42998 80603 11172 21191 30116 40191 57011 80001
AAXX 04001 28481 42997 00701 11162 21175 30079 40184 56008
AAXX 04001 28491 42997 00803 11159 21178 30078 40195 57010
AAXX 04001 28573 42997 00702 11172 21184 30065 40176 57006
AAXX 04001 28593 42997 00801 11162 21175 30092 40197 57009
AAXX 04001 28786 42997 31902 11233 21251 30007 40180 54000 80002
AAXX 04001 28797 42997 21801 11215 21233 30012 40183 56001 80001
AAXX 04001 28799 42997 01601 11208 21226 30042 40199 54000
AAXX 04001 20046 41498 72706 11032 21039 30168 40200 52010 73673 875// 333 91112
AAXX 04001 20069 11871 80909 11125 21151 30197 40210 52015 60012 77173 8802/ 333 21125 47016 91112
AAXX 04001 20087 31998 00303 11267 21298 30189 40200 52010 70230 333 21267 48019
AAXX 04001 20292 11995 70110 11236 21268 30125 40146 52014 69962 73873 83036 333 21236 91113
AAXX 04001 20353 46/// /2712 11032 21045 30228 40232 52003 333 91118
AAXX 04001 20667 42998 21804 11248 21273 30315 40323 57017 80001
AAXX 04001 20674 31998 72807 11097 21101 30240 40302 57004 73632 85031 333 21097 48023 91110
AAXX 04001 20744 41495 31127 11112 21118 30177 40196 57053 73830 82201 333 91133
AAXX 04001 20891 11596 70504 11114 21120 30087 40130 53005 60022 78683 8693/ 333 21114 47/// 86920 91115 92980
AAXX 04001 23022 42997 21704 11157 21184 30181 40246 57012 82030
AAXX 04001 23032 41994 31211 11158 21177 30239 40271 57016 73933 80001 333 91114
AAXX 04001 23058 42998 01302 11290 21313 30365 40370 57008
AAXX 04001 23242 41396 81204 11164 21190 30302 40319 57014 78582 889// 333 88908
AAXX 04001 23256 42998 81304 11302 21332 30332 40372 57013 80006
AAXX 04001 23330 41293 80603 11115 21135 30238 40260 57018 77372 8677/ 333 86704
AAXX 04001 23445 41997 70803 11131 21144 30280 40307 57011 70272 87030
AAXX 04001 23552 41496 81002 11181 21200 30312 40349 57007 77172 885// 333 88610
AAXX 04001 23631 41497 80503 11145 21158 30207 40251 57009 77172 8352/ 333 83616
AAXX 04001 23662 42998 00000 11238 21263 30324 40373 57004
AAXX 04001 23724 41998 83302 11168 21187 30152 40221 57009 77172 8802/
AAXX 04001 23734 42997 80701 11121 21127 30130 40227 57008 83011
AAXX 04001 23849 42496 61005 11148 21166 40274 57014 83630 333 83711
AAXX 04001 23867 42999 40801 11214 21232 30256 40335 58008 80001
AAXX 04001 23933 42997 81102 11132 21147 30176 40235 57010 84017
AAXX 04001 28064 42998 31001 11163 21176 30107 40205 57010 80001
AAXX 04001 28275 42997 80803 11147 21181 30123 40186 57014 80007
AAXX 04001 28493 42997 00803 11176 21195 30116 40215 57009
AAXX 04001 28698 41997 31202 11190 21209 30018 40184 57005 77670 80001
BBXX 44040 04001 99410 70736 46/// /0210 11042 21130 40188 92345 22200 10301 70006 333 91213 555 11113 22118
AAXX 04003 63671 32980 00000 10221 20131
AAXX 04003 63723 32980 01703 10238 20211 40082 333 59003
AAXX 04003 63793 32980 05007 10225 20203 40062 333 59017
AAXX 04004 63740 32970 00000 10158 20123 48496 333 59005
AAXX 04004 63612 NIL
AAXX 04004 63661 NIL
AAXX 04004 63671 NIL
AAXX 04004 63688 NIL
AAXX 04004 63695 NIL
AAXX 04004 63708 NIL
AAXX 04004 63714 NIL
AAXX 04004 63723 NIL
AAXX 04004 63772 NIL
AAXX 04004 63793 NIL
AAXX 04004 63820 NIL
BBXX VRIO2 04004 99097 50241 41498 61111 10240 20211 40120 51015 70321 84248 22273 00240 2//// 3//// 4//// 5//// 6//// 80220 ICE /////
BBXX MLRM6 04003 99400 50019 41/// /2918 10134 20115 40123 50000 700// 8//// 22262 00145 20302 32527 4//04 5//05
BBXX VQHO7 04004 99250 50019 41498 71212 10203 40208 50007 70211 87700 22234 00210 2//// 3//// 4//// 5////
BBXX ELVL8 04003 99257 70340 41/97 50505 10230 40270 52020 76088 8//// 22214 04230 20303 307// 40304 5//// ELVL8
BBXX DHTK 04004 99239 70189 41998 00518 10205 20132 40230 50004 70000 80000 22254 04200 2//04 80160
BBXX A8FQ8 04003 99191 70182 41597 80515 10220 20149 40190 52010 70211 88/7/ 22284 00213 20401 80175
BBXX TBWUK17 04003 99309 30072 41898 12707 10202 20183 40229 52020 70100 81147 22273 04210 20101 32425 40407 50607 80190
BBXX TBWUK18 04003 99300 30596 41/98 81015 10217 20163 40189 57007 70222 8147/ 22222 00240 20201 3//// 4//// 5//// 80184
BBXX A8GH5 04003 99090 50328 41/98 /1416 10280 20232 40150 52020 70200 8//// 22254 20401 80245
BBXX ZDLP 04003 99534 50386 41397 72623 10045 20023 49917 57005 70222 877// 2229/ 04033 20301 326// 40403 5//// 80036
BBXX VRXL7 04003 99008 70442 41297 71017 10270 2023/ 40120 50005 70211 87278 22253 00280 20106 30504 40106 50106 6//// 80240 ICE 0/0//
BBXX 9V7963 04004 99417 11425 41398 62823 00/// 10025 20020 40020 57020 70327 8612/ 22214 04029 20610 31013 40404 50402 6//// 80075 ///// /////
BBXX 3FCA9 04004 99531 11645 41599 73502 00/// 11031 21040 40130 56001 70322 87143 22200 00010 20504 30708 41004 51204 6//// 81030 ///// /////
BBXX UGSN 04001 99514 11409 41896 83314 40103 52005 77172 8802/ 22200 00012 2//// ICE 51092
BBXX 52246 04001 99152 11457 46/// ///// 1//// 90007 22200 00282
BBXX 52248 04001 99135 11448 46/// ///// 1//// 90006 22200 00284
BBXX 52244 04001 99200 11452 46/// ///// 1//// 90008 22200 00264
BBXX KTDQ 04003 99126 11436 41499 30712 10320 2021/ 4//// 54/// 7//00 83200 22271 0//// 2//// 307// 40602 5//// 6//// 80240 ICE /////
BBXX 52243 04001 99193 11666 46/// ///// 1//// 92354 22200 00270
BBXX 46036 04001 99484 71339 46/// /1614 10099 49892 57075 22200 00079 11109 70047 333 91217
BBXX 44039 04001 99411 70727 46/// /3211 11048 21111 40179 90000 22200 00082 10402 70010 333 91215
BBXX 44030 04001 99432 70704 46/// /3109 1//// 40138 53033 90004 22200 00077 10402 70008 333 91211 555 11111 22119
BBXX 44034 04001 99441 70681 46/30 /3409 11064 40117 53027 90004 22200 00070 10402 70011 333 91212 555 11109 22113
BBXX 44022 04001 99409 70737 46/// ///09 11051 21139 40195 90030 22200 00062 333 91213 555 11103 22103
BBXX 44060 04001 99413 70721 46/// ///09 11054 40164 90030 22200 00082 333 91212 555 11098 22098
BBXX 44039 04001 99411 70727 46/// /3212 11050 21115 40181 92353 22200 00082 10402 70010 333 91217
BBXX 42361 04001 99276 70925 46/// ///03 10144 20028 40308 56007 90030 555 11026 22028
BBXX 41114 04001 99276 70802 46/// ///// 1//// 90016 22200 00215 11103 21002 303// 41101 70013
BBXX 41112 04001 99307 70813 46/// ///// 1//// 90021 22200 00153 10302 20302 70008
BBXX 41113 04001 99284 70805 46/// ///// 1//// 90021 22200 00194 11101 21001 70006
BBXX 41110 04001 99341 70777 46/// ///// 1//// 90021 22200 00128 10301 20301 70006
BBXX 44100 04001 99363 70756 46/// ///// 1//// 90022 22200 00118 10705 20705 70023
BBXX 41009 04001 99285 70802 46/// /3207 10095 21007 40277 90020 22200 00214 11105 20502 300// 41104 70023 333 91211 555 11075 22078
BBXX 42013 04001 99272 70829 46/// ///// 1//// 40282 92340 22200 00194
BBXX 41010 04001 99289 70785 46/// /3311 10112 40251 90020 22200 00232 10908 20705 300// 40905 70039 333 91215 555 11111 22116
BBXX 46213 04001 99403 71247 46/// ///// 1//// 90024 22200 00108 11406 21003 327// 41405 70028
BBXX 46225 04001 99329 71174 46/// ///// 1//// 90014 22200 00153 11502 21001 328// 41502 70009
BBXX 46236 04001 99368 71219 46/// ///// 1//// 90020 22200 00118 11507 21003 328// 41506 70033
BBXX 46215 04001 99352 71209 46/// ///// 1//// 90008 22200 00137 11505 21003 326// 41505 70027
BBXX 44258 04001 99445 70634 46/// /3508 10008 40061 52020 22200 00052 11004 70018 333 91211
BBXX 46246 04001 99500 71451 46/// ///// 1//// 92359 22200 00068 11108 20906 318// 41105 70041
BBXX 46246 04001 99500 71451 46/// ///// 1//// 90029 22200 00068 11108 21006 319// 41105 70039
BBXX 46247 04001 99378 71228 46/// ///// 1//// 90021 22200 00116 11405 20903 328// 41404 70027
BBXX 46232 04001 99325 71174 46/// ///// 1//// 90008 22200 00149 11702 21001 328// 41702 70011
BBXX 46248 04001 99461 71247 46/// ///// 1//// 90004 22200 00095 11408 20806 327// 41405 70039
BBXX 46146 04001 99493 71237 46/// /0912 10087 40199 52001 22200 00071 10502 70011 333 91215
BBXX 46004 04001 99509 71361 46/// /1609 10077 49885 57021 22200 00071 11109 70045 333 91211
BBXX 46184 04001 99539 71389 46/// /1811 10071 49817 52035 22200 00057 10909 70043 333 91214
BBXX 46181 04001 99538 71288 46/// /3001 10013 40033 52012 22200 00021 10300 70000 333 91202
BBXX 46092 04001 99368 71220 46/// /3204 10118 40238 92337 22200 00118 555 11046 22046
BBXX 44057 04001 99395 70761 46/// /3106 1//// 40218 90010 333 91210
BBXX 44060 04001 99413 70721 46/// ///09 11053 40162 90015 22200 00086 333 91212 555 11098 22098
BBXX 44059 04001 99368 70763 46/// /3610 1//// 90020 333 91214
BBXX 44057 04001 99395 70761 46/// /3106 11040 40217 51040 90000 22200 00038 333 91208
BBXX 44059 04001 99368 70763 46/// /3511 11008 40216 53045 90000 22200 00081 333 91215
BBXX 44058 04001 99376 70763 46/// /3413 1//// 90020 333 91218
BBXX 44058 04001 99376 70763 46/// /3410 11013 40225 53046 90000 22200 00073 10302 70009 333 91213
BBXX 44059 04001 99368 70763 46/// /3611 1//// 40220 90010 333 91217
BBXX 44057 04001 99395 70761 46/// /3206 1//// 90020 333 91209
BBXX 51172 04001 99284 71783 46/// ///// 1//// 90015 22200 00220
BBXX 51176 04001 99278 71758 46/// ///// 1//// 90003 22200 00237
BBXX 51173 04001 99260 71739 46/// ///// 1//// 90011 22200 00240
BBXX 42362 04001 99278 70907 46/// /0404 10128 20017 40322 90030
BBXX 42364 04001 99291 70881 46/// /3413 10100 21006 40319 90030
BBXX 44042 04001 99380 70763 46/// /3412 1//// 40225 90010 333 91217
BBXX 44042 04001 99380 70763 46/// /3510 11016 40224 53040 90000 22200 00074 10302 70010 333 91213
BBXX 42363 04001 99282 70892 46/// /0406 10106 20011 40319 90030 333 91207
BBXX 44063 04001 99390 70764 46/// /3408 1//// 40239 90010 333 91211
BBXX 44041 04001 99372 70768 46/// /3508 1//// 90020 333 91211
BBXX 44062 04001 99386 70764 46/// /3411 11026 40209 52036 90000 22200 00072 10302 70009 333 91214
BBXX 44063 04001 99390 70764 46/// /3407 11031 40239 53037 90000 22200 00057 1//00 70002 333 91210
BBXX 44062 04001 99386 70764 46/// /3410 1//// 90020 22200 00071 333 91212
BBXX 44041 04001 99372 70768 46/// /3606 11023 40255 51052 90000 22200 00077 10301 70004 333 91209
BBXX 44041 04001 99372 70768 46/// /3508 1//// 40258 90010 333 91211
BBXX 44042 04001 99380 70763 46/// /3413 1//// 90020 333 91216
BBXX 44062 04001 99386 70764 46/// /3411 1//// 40208 90010 22200 00072 333 91214
BBXX 44063 04001 99390 70764 46/// /3407 1//// 90020 333 91210
BBXX 46132 04001 99497 71279 46/// /1512 10095 40069 57007 22200 00084 11010 70048 333 91215
BBXX 46205 04001 99542 71343 46/// /1810 10080 49914 52028 22200 00068 11007 70036 333 91213
BBXX 46206 04001 99488 71260 46/// /1514 10092 40135 52001 22200 00083 11011 70056 333 91217
BBXX FLAO 0400/ 99764 70847 46/// ///// 11343 40035 57024
BBXX 46185 04001 99524 71298 46/// /1613 10078 40005 57004 22200 00071 11111 70055 333 91216
BBXX 46087 04001 99485 71247 46/// /1508 10111 20096 40190 90020 22200 00083 333 91213 555 11086 22097 32348 41615 60019 148078 149098 153088 152097 155102 155109
BBXX 44040 04001 99410 70736 46/// /3610 11045 21131 40194 90015 22200 10301 70006 333 91213 555 11113 22118
BBXX 44029 04001 99425 70706 46/30 /3010 11057 40139 52040 90004 22200 00076 10402 70010 333 91212 555 11122 22127
BBXX 44022 04001 99409 70737 46/// ///10 11049 21142 40191 90015 22200 00062 333 91215 555 11103 22108
BBXX 44032 04001 99437 70694 46/30 /3309 11064 40125 53032 90004 22200 00079 10402 70010 333 91212 555 11109 22113
BBXX 41036 04001 99342 70770 46/// ///// 10037 21064 40224 90020 22200 00198
BBXX 46114 04001 99364 71222 46/// ///// 1//// 90004 22200 00121 11407 21004 327// 41406 70036
BBXX 51205 04001 99210 71564 46/// ///// 1//// 90018 22200 00246 11103 20902 334// 41102 70016
BBXX DDAC2 04000 99540 71724 41/97 /2307 11030 21030 49990 54000 7//77 8/670 22263 04030 2//// 328// 4//04 5//// 81030
BBXX ZDLS1 04004 99738 50255 41497 62506 11016 2//// 49895 54000 70122 8555/ 22282 05011 20100 30000
BBXX WXY6216 04004 99434 70877 43/// /0322 00/// 11020 21078 40177 55049 7//// 8//// 22283 0//// 2//// 3//// 4//// 5//// 6//// 81040 ICE /////
BBXX WC5932 04004 99417 70874 43/// /1814 00/// 11043 21100 40238 55024 7//// 8//// 22200 0//// 2//// 3//// 4//// 5//// 6//// 81060 ICE /////
BBXX WDF9323 04003 99150 71369 41498 50413 10240 2021/ 40160 55030 703// 82272 22234 0//// 20602 305// 41505 5//// 6//// 80220 ICE /////
BBXX 51170 04001 99168 71695 46/// ///// 1//// 92347 22200 00258
BBXX 51171 04001 99064 71623 46/// ///// 1//// 92346 22200 00279
BBXX VRCZ7 04003 99379 10087 41498 33412 10130 20101 40272 58010 70222 831// 22224 20502 334// 40704 5//// 80115
BBXX ZNQO3 04000 99368 10025 41498 23105 10160 20069 40333 54000 70200 8//// 22224 04165 2//// 3//// 4//// 5//// 80115
BBXX MINUK01 0400/ 99587 70022 46/// ///// 10060 49889 52081
BBXX LF3N 04004 99653 10073 41598 71113 10047 20008 49749 57013 70221 8//// 22200 00088 10907 70034
BBXX 51179 04001 99143 51708 46/// ///// 1//// 90003 22200 00289
BBXX 51178 04001 99142 51695 46/// ///// 1//// 90001 22200 00287
BBXX 51174 04001 99142 51697 46/// ///// 1//// 92354 22200 00287
BBXX 51169 04001 99004 51600 46/// ///// 1//// 92355 22200 00247
BBXX ZMFR 04004 99429 51791 43/// /2616 10152 20087 40181 57008 22241 00152
BBXX V2QD4 04003 99377 31498 41298 32432 10223 20200 40130 52027 70311 8/73/ 22253 00213 20505 305// 41002
BBXX C6TE3 04004 99461 31502 41397 72720 10130 20111 49982 58003 70255 877// 22233 00140 20806 325// 40804
BBXX ZMENA 04004 99377 31762 46/// ///// 10205 20160 40198 57017 22200
BBXX ZCAS2 04004 99178 31182 41998 12106 10280 20237 40113 52010 70200 81082 22243 00291 20701 30000 80250
BBXX VROB 04004 99078 31497 46/// /0603 10275 20226 30084 40109 52007 22263 04297 85240
BBXX FHZI 04004 99450 31472 46/// /2436 10127 20071 30049 40060 52041 22283 04136 85097
BBXX VNAH 04004 99383 31416 46/// /2013 10176 20057 30186 40210 52017 22200 04190 85113
BBXX 44040 04001 99410 70736 46/// /3610 11045 21131 40194 90019 22200 10301 70006 333 91213 555 11113 22118
BBXX 46239 04001 99363 71221 46/// ///// 1//// 90021 22200 00123 11506 21003 328// 41505 70031
BBXX 51204 04001 99213 71581 46/// ///// 1//// 90022 22200 00249 11201 21001 329// 41201 70007
BBXX 51201 04001 99217 71581 46/// ///// 1//// 90012 22200 00245 11503 21002 335// 41503 70017
BBXX 51202 04001 99214 71577 46/// ///// 1//// 90010 22200 00245 11403 20802 301// 41402 70013
BBXX 46219 04001 99332 71199 46/// ///// 1//// 90028 22200 00140 11506 21003 328// 41506 70030
BBXX 46224 04001 99332 71175 46/// ///// 1//// 90006 22200 00155 11701 21001 327// 41701 70007
AAXX 04004 83064 21/94 93606 10215 20203 39846 40118 7//66 333 10294 29092 55011 58003 60281
AAXX 04004 83235 21697 83202 10210 20188 39448 40116 72996 8472/ 333 10274 29/// 55/// 58010 60181
AAXX 04004 83332 21695 80000 10201 20194 39212 40123 72166 885// 333 10214 29096 55000 58022 60071
AAXX 04004 83423 32496 70000 10248 20194 39282 40094 8377/ 333 10306 29073 55/// 58016
AAXX 04004 83470 32697 20904 10232 20183 39232 40075 82100 333 10315 29070 55088 58016
AAXX 04004 41241 36/// /1712 10237 20132 30078 40116 333 0E025 59025
AAXX 04001 34838 42597 80403 10031 20020 30127 40225 50013 72582 889//
BBXX KS098 04004 99446 71240 43/// /1106 10126 40243 22200 06000
BBXX KS088 04004 99267 70801 43/// /0701 10082 40265 22200 06206
BBXX KS094 04004 99176 70633 43/// /0504 10266 40178 22200 06260
BBXX 44137 04001 99423 70620 46/// /0307 10062 40042 52008 22200 00091 11004 70022 333 91209
AAXX 04004 91723 NIL
AAXX 04004 91964 36/// /0104 10242 20211 40160 57011
AAXX 04001 36821 419// 50000 11094 21114 39725 40233 58002 71022 80002 333 91104
AAXX 04001 36821 419// 50000 11094 21114 39725 40233 58002 71022 80002 333 91104
BBXX 44039 04001 99411 70727 46/// /3212 11050 21115 40181 92353 22200 00082 10402 70010 333 91217
BBXX 41033 04001 99323 70804 46/// /3109 1//// 40272 52024 90000 555 11099 22107
AAXX 04001 31152 32998 00000 11369 21398 39851 40324 53007 333 21369 47034 55000
AAXX 04001 31163 NIL
AAXX 04001 31285 32999 22301 11307 21336 30188 40277 52005 80001 333 21305
AAXX 04001 31561 11995 81801 11269 21293 30158 40188 58001 69920 77371 8802/ 333 21339
AAXX 04001 31683 11995 71401 11136 21149 30009 40087 54000 60010 77372 8802/ 333 21136 47028
AAXX 04001 32010 11495 80305 11026 21029 30066 40115 53013 60070 78583 889// 333 11140 48077 88910 91007 91109
AAXX 04004 71963 16/// /3612 11217 21237 39642 40053 53026 60001 333 11140 21217 70003
AAXX 04004 71981 16/// /2412 10081 21060 60001 333 10100 20005 70000
AAXX 04004 71354 16/// /2103 11005 21038 60001 333 10028 21036 70000
AAXX 04004 71592 16/// /0000 11334 21373 30023 40037 58017 60001 333 11301 21350 70000
AAXX 04004 71923 16/// ///24 11155 21167 39561 40008 51049 60001 333 11088 21169 70014
AAXX 04004 71406 16/// /2325 11013 21050 30001 40011 53020 60001 333 10014 21014 70099
AAXX 04004 71490 16/// /0511 11254 21276 39764 40096 53031 60001 333 21255 7////
AAXX 04004 71277 46/// /1409 11003 21010 6///1 333 10021 21021 7////
AAXX 04004 42348 31994 00000 10086 20086 40147 71000 333 59019
AAXX 04004 64650 31940 60000 10202 20191 39694 40102 71011 86030 333 58004 86365
AAXX 04004 71490 16/// /0511 11254 21276 39764 40096 53031 60001 333 21255 7////
AAXX 04004 71963 16/// /3612 11217 21237 39642 40053 53026 60001 333 11140 21217 70003
AAXX 04004 71981 16/// /2412 10081 21060 60001 333 10100 20005 70000
AAXX 04004 71592 16/// /0000 11334 21373 30023 40037 58017 60001 333 11301 21350 70000
AAXX 04001 37989 42996 02601 10008 21000 30304 40276 57009 555 14101
AAXX 04001 37470 41496 83202 10007 21004 30296 40271 52009 78582 889//
AAXX 04001 37472 41596 83203 10008 21025 30284 40260 52003 71072 8557/
AAXX 04001 38111 41997 73501 11033 21044 30277 40247 52010 70272 87070 555 1/103
AAXX 04001 38750 41496 82701 10022 20012 30299 40270 53037 76166 8872/ 555 11003
AAXX 04004 71277 46/// /1409 11003 21010 6///1 333 10021 21021 7////
AAXX 04004 71923 16/// ///24 11155 21167 39561 40008 51049 60001 333 11088 21169 70014
AAXX 04004 71406 16/// /2325 11013 21050 30001 40011 53020 60001 333 10014 21014 70099
AAXX 04004 71354 16/// /2103 11005 21038 60001 333 10028 21036 70000
AAXX 04004 89528 46/// /3630 4//// 5////
AAXX 04004 89628 46/// /3110 4//// 5////
AAXX 04001 38599 41995 80908 10008 21042 39656 40181 57013 71011 86011
AAXX 04001 38846 415// 80304 11018 21034 38472 48440 57004 71022 886//
AAXX 04001 38838 429// 80000 10012 21005 39493 40172 57012 80002
AAXX 04001 38933 427// 81401 10046 20013 39629 40146 53010 885//
BBXX 44138 04001 99443 70536 46/// /0410 10055 40061 52021 22200 00076 11007 70033 333 91213
AAXX 04001 31527 32998 00000 11296 21307 39924 40263 53002 333 21297 47013
AAXX 04001 23330 41296 80603 11115 21135 30238 40260 57018 77372 8677/ 333 86704
AAXX 04004 94170 46/// /1010 10300 20213 30097 40119
AAXX 04004 94206 46/// /2612 10318 2//// 39973 40101
AAXX 04004 94290 46/// /1017 10272 30124 40133 50003 90024
AAXX 04004 89573 44930 80416 10004 21010 39826 49848 57006 77170 8802/
AAXX 04004 89614 46/// /0812 11062 29067 39012 4//// 5//// 333 90700 91114
AAXX 04004 94170 46/// /1010 10300 20213 30097 40119
AAXX 04004 94206 46/// /2612 10318 2//// 39973 40101
AAXX 04004 94290 46/// /1017 10272 30124 40133 50003 90024
AAXX 04004 89573 44930 80416 10004 21010 39826 49848 57006 77170 8802/
AAXX 04004 89614 46/// /0812 11062 29067 39012 4//// 5//// 333 90700 91114
BBXX 44060 04001 99413 70721 46/// ///09 11054 40164 90030 22200 00082 333 91212 555 11098 22098
BBXX 44022 04001 99409 70737 46/// ///09 11051 21139 40195 90030 22200 00062 333 91213 555 11103 22103
AAXX 04004 94210 35/// /2302 10325 30101 40106 52011
AAXX 04004 94289 46/// /1215 10271 30120 40127 51005 90015
AAXX 04004 94379 46/// /1515 10257 30136 40145 58002 90026
AAXX 04004 60265 32970 02702 10063 21104 39015 48620 51006
AAXX 04004 40255 32960 00000 10068 20059 39517 40243 54000
AAXX 04004 40260 32960 00000 10060 20011 39440 40233 52010
AAXX 04004 40270 31950 00000 10056 20038 39328 40240 57009 70500
AAXX 04004 40272 31957 00000 10034 20019 39390 40241 57010 71022
AAXX 04004 40290 NIL
AAXX 04004 40340 32960 23610 10120 20070 40211 57010
AAXX 04001 98336 11460 83604 10222 20220 30168 40173 53023 60464 72162 8252/ 333 20210 56199 58015 70460 82615 88456 555 20048
BBXX 41053 04001 99185 70661 46/// /0604 10262 40169 90030 333 91205
BBXX 41053 04001 99185 70661 46/// /0603 10263 40168 90020 333 91204
BBXX 41053 04001 99185 70661 46/// /0403 10263 40167 90010 333 91204
BBXX SHIP 04004 99479 11683 41496 80946 10050 21026 40030 52010 70222 887// 90000 22214 00050 20806 309// 41008 80020
BBXX 7JJA 04004 99314 11354 41596 83121 00 10140 20085 40115 54 76052 876// 9//// 22230 0 20203 332 40204 5 6//// 80110 ICE /////
BBXX 3FMH7 04004 99324 11596 41597 82434 00/// 10190 20124 40117 5//// 70322 87757 9//// 22252 0//// 1//// 20407 33026 40412 50411 6//// 80150
BBXX DHYW 04001 99538 11779 41598 40717 11006 21081 40060 57030 72277 83490 22224 20402 307// 40905 5//// 81030
BBXX SHIP 04004 99537 71309 41497 81530 10090 20050 49990 51020 70166 85717 22283 00080 315// 40404 80070
BBXX SHIP 04004 99459 71497 41496 73132 10070 20060 49767 53008 70322 83313 92350 22224 00080 20310 32333 40840 50420 80060
AAXX 04001 55279 32880 13401 11192 21252 35649 57004 81400 333 05153
AAXX 04001 55472 32980 00000 11174 21229 35687 57001 333 05252
AAXX 04001 55696 32980 00000 11138 21183 36314 52005 333 05152
AAXX 04001 56079 32980 20000 11223 21249 36672 52001 80002 333 00160 79999 92501
AAXX 04001 56106 32980 02901 11139 21172 36173 52001 333 00000
AAXX 04001 56257 32680 10401 11092 21153 36248 52004 81400 333 00257
AAXX 04001 56374 11580 81102 11079 21100 37445 52001 69911 72680 884// 333 00252 70002
AAXX 04001 56385 11/01 93201 11121 21129 37015 52001 69911 77074 333 00100 31002 70009 92507 93461
AAXX 04001 56954 11275 83604 10130 20130 40162 52020 60071 78080 884// 333 00152 70065
AAXX 04001 56966 11575 70905 10156 20129 40152 52008 60051 78080 874// 333 00251 70052
AAXX 04001 57237 32965 53201 11023 21053 40361 52006 85040 333 00355 31036
AAXX 04001 57306 11865 80701 10033 20010 40338 52007 69901 76060 8257/ 333 00351 30031 70005
AAXX 04001 57604 11356 82701 10038 20031 40335 52008 69901 72160 885// 333 00552 30043 70021
AAXX 04001 57707 11465 80000 11017 21027 38566 52004 69911 72376 886// 333 00353 31001 70010 93427
AAXX 04001 57832 11662 80202 11006 21033 39581 40360 52009 69901 70070 885// 333 00653 30000 70063
BBXX SHIP 04004 99082 51268 41397 40910 10253 20201 40129 57016 70100 84200 22233 04250 20402 30711 40703 50703
AAXX 04001 55228 32780 10000 11135 21278 35972 57001 81100 333 05305
AAXX 04001 55578 32980 00000 11126 21243 36332 52005 333 05152
AAXX 04001 55664 32980 00000 11186 21258 35961 57001 333 05152
AAXX 04001 55773 32970 00000 11218 21238 35971 52001 333 05151 92507
AAXX 04001 56116 11680 70901 11074 21098 36295 57002 60021 70087 878// 333 00051 70017 92502
AAXX 04001 56137 32580 72701 11057 21091 36771 52001 82402 333 00154 70007 92500
AAXX 04001 56172 11780 70000 11030 21037 37347 52006 60011 77077 875// 333 00200 31005 70063 92509
AAXX 04001 56247 32880 21801 11020 21141 37418 52010 82400 333 00558
AAXX 04001 56312 32680 72002 11008 21072 37051 57001 874// 333 00151 31029 79999
AAXX 04001 56462 32680 20000 11055 21108 37125 52011 82100 333 00559 79999
AAXX 04001 56651 32680 62701 10037 21011 37630 52004 86400 333 00253 31006
AAXX 04001 56691 11363 83603 11054 21064 37806 52006 69931 76666 887// 333 00353 31032 70008 93431
AAXX 04001 56985 11562 83401 10083 20064 38731 40194 52013 69941 72580 884// 333 00455 70004
AAXX 04001 57633 11457 80403 11011 21036 39351 40367 54000 69901 71070 885// 333 00451 31005 70014
AAXX 04001 57902 11458 80702 10006 20006 38697 40303 52010 69991 76076 887// 333 00553 30005 70022
BBXX SHIP 04004 99082 51268 41397 40910 10253 20201 40129 57016 70100 84200 22233 04250 20402 30711 40703 50703
AAXX 04004 83264 21793 20502 10241 20225 39669 40134 70066 82200 333 10303 29088 55026 58010 60031
AAXX 04004 83358 32/93 90000 10244 20234 39674 40071 8//// 333 10311 29090 55045 58022
AAXX 04001 48806 11460 81605 10117 20107 39410 40204 52008 60372 76366 888// 333 01013 20117 3/012 58024 8589 4 88696 96162
AAXX 04001 33663 31/92 90000 11011 21014 30119 40218 58011 74541
BBXX 7JJA 04004 99314 11354 41596 83121 00 10140 20085 40115 54 76052 876// 9//// 22230 0 20203 332 40204 5 6//// 80110 ICE /////
BBXX 9V7963 04004 99417 11425 41398 62823 00/// 10025 20020 40020 57020 70327 8612/ 22214 04029 20610 31013 40404 50402 6//// 80075 ///// /////
BBXX C6XC2 04004 99339 11247 41896 83226 11010 21040 40270 52020 7//77 8867/ 22244 00110 20506 331// 40304 5//// 6//// 81020 ICE /////
BBXX UGSN 04001 99514 11409 41896 83314 40103 52005 77172 8802/ 22200 00012 2//// ICE 51092
AAXX 04001 22349 41496 80811 11084 21087 30147 40169 54000 78583 889// 333 91012 91114
AAXX 04004 71048 16/// /2307 10030 21024 60001 333 10076 20016 70000
AAXX 04004 71982 16/// /1709 10070 21047 60001 333 10099 21012 70000
AAXX 04004 71986 16/// /2316 10041 21035 60001 333 10070 20004 70000
AAXX 04004 71990 17/// /0304 11246 21272 38418 40074 56015 69941 7//4/ 333 11164 21246 70028
AAXX 04004 71418 46/// /3017 11011 21046 30029 40062 51028 6///1 333 10028 21012 7////
AAXX 04004 71418 46/// /3017 11011 21046 30029 40062 51028 6///1 333 10028 21012 7////
AAXX 04004 71982 16/// /1709 10070 21047 60001 333 10099 21012 70000
AAXX 04004 71986 16/// /2316 10041 21035 60001 333 10070 20004 70000
AAXX 04004 71990 17/// /0304 11246 21272 38418 40074 56015 69941 7//4/ 333 11164 21246 70028
AAXX 04004 71048 16/// /2307 10030 21024 60001 333 10076 20016 70000
BBXX 42360 04001 99267 70905 46/// /0305 10153 90000 22200 00236 10703 70017 333 91208
BBXX 44056 04001 99362 70757 46/// ///// 1//// 92350 22200 00106 10703 20703 70015
AAXX 04001 38954 428// 80000 11058 21058 37942 48550 57005 71070 8852/
AAXX 0400/ 89879 46/// ///// 10029 39751 4//// 5//// 90020
AAXX 04004 67002 32580 30204 10266 20243 30048 40082 81802 333 0//00 59024 81820 92418
AAXX 04004 67009 NIL
AAXX 04004 67012 NIL
AAXX 04004 67025 NIL
AAXX 04004 67027 31580 72008 10263 20240 30047 40068 56007 84908 333 0//00 82820 81920 83640 85273 94973 95833
AAXX 04004 67045 NIL
AAXX 04004 67072 NIL
AAXX 04004 67073 NIL
AAXX 04004 67083 11460 81602 10166 20166 38722 48496 55002 60261 76166 8487/ 333 0//19 81817 84620 86460
AAXX 04004 67095 11465 70000 10235 20231 30095 40101 56005 60151 72166 878// 333 0//11 83817 86633= RR 15,0MM 67113 NIL
AAXX 04004 67117 NIL
AAXX 04004 67137 NIL
AAXX 04004 67143 NIL
AAXX 04004 67157 NIL
AAXX 04004 67161 NIL
AAXX 04004 67197 11465 70804 10240 20224 30115 40125 56002 60011 71562 878// 333 0//15 83817 85633= RR 1,2MM
AAXX 04001 21802 32999 00000 11363 21389 30081 40108 57010 333 21373
BBXX 46145 04001 99544 71324 46/// /1706 10084 49946 52021 22200 00070 11003 70013 333 91207
BBXX 46208 04001 99525 71327 46/// /1507 10084 49956 52006 22200 00070 11008 70038 333 91209
AAXX 04004 48409 31958 60102 10214 20180 30001 40152 52026 71022 85056 333 20210 58018
AAXX 04004 89657 46/// /1302 10006 20032 49844 52004
BBXX MINFR00 0400/ 99175 51496 46/// ///// 10283 40144 57016
AAXX 04001 45032 36/// /0005 10105 20025 30252 40270 52003
AAXX 04001 45035 36/// /0406 10112 20035 30228 40272 52001
AAXX 04001 45039 36/// /0304 10114 20056 30250 40265 52006
AAXX 04001 45044 36/// /0009 10116 20053 30159 40255 52003
AAXX 04001 45032 36/// /0005 10105 20025 30252 40270 52003
AAXX 04001 45035 36/// /0406 10112 20035 30228 40272 52001
AAXX 04001 45039 36/// /0304 10114 20056 30250 40265 52006
AAXX 04001 45044 36/// /0009 10116 20053 30159 40255 52003
BBXX VREX7 04003 99295 70510 41398 51215 10230 20199 40260 50000 72111 85772 22214 04230 20202 31112 40504 50403 80210
BBXX A8JR5 04004 99132 11141 41497 53616 10260 20231 40140 51010 7//22 85773 22254 04266 20305 80240
BBXX 42023 04001 99261 70831 46/// /3608 1//// 90030 333 91211
BBXX 42023 04001 99261 70831 46/// /3608 1//// 90000 333 91211
BBXX 41052 04001 99183 70648 46/// /1104 10269 40164 90030 333 91205
BBXX 41052 04001 99183 70648 46/// /1104 10269 40163 90020 333 91205
BBXX 41052 04001 99183 70648 46/// /1104 10268 40162 90010 333 91205
BBXX 44024 04001 99423 70659 46/30 /3408 10028 40069 51024 90004 22200 00072 10805 70024 333 91210 555 11101 22106
BBXX 46208 04001 99525 71327 46/// /1507 10084 49956 52006 22200 00070 11008 70038 333 91209
BBXX 46145 04001 99544 71324 46/// /1706 10084 49946 52021 22200 00070 11003 70013 333 91207
BBXX 44056 04001 99362 70757 46/// ///// 1//// 92350 22200 00106 10703 20703 70015
BBXX 42360 04001 99267 70905 46/// /0305 10153 90000 22200 00236 10703 70017 333 91208
BBXX SHIP 04004 99459 71497 41496 73132 10070 20060 49767 53008 70322 83313 92350 22224 00080 20310 32333 40840 50420 80060
BBXX SHIP 04004 99537 71309 41497 81530 10090 20050 49990 51020 70166 85717 22283 00080 315// 40404 80070
BBXX 41053 04001 99185 70661 46/// /0403 10263 40167 90010 333 91204
BBXX 41053 04001 99185 70661 46/// /0603 10263 40168 90020 333 91204
BBXX 41053 04001 99185 70661 46/// /0604 10262 40169 90030 333 91205
BBXX A8SE8 04004 99243 70573 41498 51422 10248 20220 40208 51003 70311 85100 22214 00260 20402 309// 40904 80229
BBXX 44138 04001 99443 70536 46/// /0410 10055 40061 52021 22200 00076 11007 70033 333 91213
BBXX MHNN5 04004 99258 70897 41298 53225 10170 20094 40299 52020 70211 8326/ 22273 20506 332// 41006 5//// 80130
BBXX 41033 04001 99323 70804 46/// /3109 1//// 40272 52024 90000 555 11099 22107
BBXX 44137 04001 99423 70620 46/// /0307 10062 40042 52008 22200 00091 11004 70022 333 91209
BBXX KS088 04004 99267 70801 43/// /0701 10082 40265 22200 06206
BBXX KS094 04004 99176 70633 43/// /0504 10266 40178 22200 06260
BBXX KS098 04004 99446 71240 43/// /1106 10126 40243 22200 06000
BBXX 46224 04001 99332 71175 46/// ///// 1//// 90006 22200 00155 11701 21001 327// 41701 70007
BBXX 46219 04001 99332 71199 46/// ///// 1//// 90028 22200 00140 11506 21003 328// 41506 70030
BBXX 44040 04001 99410 70736 46/// /3610 11045 21131 40194 90019 22200 10301 70006 333 91213 555 11113 22118
BBXX 46239 04001 99363 71221 46/// ///// 1//// 90021 22200 00123 11506 21003 328// 41505 70031
BBXX TFNA 04001 99636 70208 42/98 20405 10001 49903 22222 00058
BBXX OXHV2 04004 99496 70038 41/98 /3042 10125 20068 40173 53042 700// 8//// 22254 00121 20907 80095
BBXX V2NA1 04004 99389 70231 41/97 /1120 10165 20141 40300 54000 750// 8/8// 22264 04160 20908 80150
BBXX A8LP6 04004 99356 70104 41/98 /0320 10150 20116 40330 54000 70311 8//// 22224 04136 2//// 80130
BBXX MYSU5 04004 99430 70344 41697 82408 10115 20067 40351 50019 70222 8/7// 22263 00150 20101 32825 40509 50407 80092
BBXX DHYW 04001 99538 11779 41598 40717 11006 21081 40060 57030 72277 83490 22224 20402 307// 40905 5//// 81030
BBXX 3FMH7 04004 99324 11596 41597 82434 00/// 10190 20124 40117 5//// 70322 87757 9//// 22252 0//// 1//// 20407 33026 40412 50411 6//// 80150
BBXX 7JJA 04004 99314 11354 41596 83121 00 10140 20085 40115 54 76052 876// 9//// 22230 0 20203 332 40204 5 6//// 80110 ICE /////
BBXX SHIP 04004 99479 11683 41496 80946 10050 21026 40030 52010 70222 887// 90000 22214 00050 20806 309// 41008 80020
BBXX WHKM 04004 99226 31014 41298 31619 10230 20169 40160 52012 7//10 8314/ 22233 0//// 20202 315// 40605 5//// 6//// 80190 ICE /////
BBXX MINFR00 0400/ 99175 51496 46/// ///// 10283 40144 57016
BBXX WHKM 04004 99226 31014 41298 31619 10230 20169 40160 52012 7//10 8314/ 22233 0//// 20202 315// 40605 5//// 6//// 80190 ICE /////
BBXX SHIP 04004 99082 51268 41397 40910 10253 20201 40129 57016 70100 84200 22233 04250 20402 30711 40703 50703
AAXX 04004 48001 NIL
AAXX 04004 48004 NIL
AAXX 04004 48008 31550 60000 10150 20148 40143 71044 83970 333 20146 56450 59003
AAXX 04004 48010 NIL
AAXX 04004 48018 21340 50000 10154 20154 40139 70155 83870 333 20085 56550 59002
AAXX 04004 48019 32450 10000 10150 20134 40137 82200 333 20146 56404 59002
AAXX 04004 48020 NIL
AAXX 04004 48025 NIL
AAXX 04004 48035 21530 30000 10141 20140 40147 74064 83900 333 20110 56900 58021
AAXX 04004 48037 31410 30000 10170 20154 40126 74044 83600 333 20160 56600 58006
AAXX 04004 48042 21557 50000 10197 20185 40129 70255 82850 333 20192 56990 59011
AAXX 04004 48045 NIL
AAXX 04004 48048 32940 00401 10190 20175 40126 333 20185 58008
AAXX 04004 48053 32950 00000 10190 20175 40123 333 20183 58006
AAXX 04004 48057 21429 20000 10140 20124 82800 333 20134 56500
AAXX 04004 48060 21/10 90000 10170 20154 40149 74544 333 20165 58012
AAXX 04004 48062 31440 40000 10202 20190 40123 74244 84837 333 20190 56990 58011
AAXX 04004 48071 31903 00000 10202 20185 40120 74244 333 20200 58002
AAXX 04004 48077 32556 20000 10217 20195 40113 82800 333 20194 56900 58004
AAXX 04004 48078 32550 32701 10222 20195 40122 82501 333 20200 56509 58007
AAXX 04004 48080 31540 30000 10182 20165 40100 82870 333 20172 56990 59007
AAXX 04004 48094 32456 30000 10220 20215 40120 81506 333 20212 56909 58009
AAXX 04004 48097 31956 41401 10225 20217 40132 70522 82506 333 20210 56909 58014
AAXX 04004 48108 21596 80000 10220 20212 40134 71044 83436 333 20218 56299 58014
AAXX 04004 48109 31496 30000 10240 20226 40123 74022 82530 333 20230 56990 58012
AAXX 04004 48110 31996 41301 10230 20214 40124 70522 80046 333 20230 56099 58003
AAXX 04004 48112 21597 80902 10246 20219 40109 70522 83876 333 20185 56299 59004
AAXX 04001 47008 32970 00000 11065 21154 30144 40200 53003 333 21086
AAXX 04001 47014 32650 40000 11232 21244 39870 40316 52028 84500 333 21235
AAXX 04001 47016 12970 00000 11230 21255 39376 40293 52019 69902 333 21230
AAXX 04001 47020 12965 00000 11179 21191 39901 40315 52022 69922 333 21181
AAXX 04001 47025 32965 00000 11106 21142 30166 40197 52007 333 21117
AAXX 04001 47035 32970 03602 11117 21164 30288 40297 52022 333 21119
AAXX 04001 47041 11960 00000 11096 21137 30181 40210 52023 69902 71044 333 21122
AAXX 04001 47055 32965 00000 11068 21120 30183 40231 52013 333 21075
AAXX 04001 47058 12960 03203 11108 21159 30229 40280 52022 69902 333 21117
AAXX 04001 47069 11956 03602 11079 21125 30154 40259 52012 69902 71000 333 21098
AAXX 04004 83766 32997 00000 10272 20212 39460 40093 5//// 333 10330 29069 55111
AAXX 04004 83836 32997 00901 10174 20125 39128 40090 51010 333 10294 29065 55111
AAXX 04004 83881 32496 00000 10260 20132 39804 40082 51006 333 10340 29046 55048
AAXX 04004 83980 32797 41406 10240 20158 39826 40100 53009 84040 333 10299 29056 55117
AAXX 04004 83997 32997 01804 10194 20146 30102 40145 51010 333 10261 29076 55117
AAXX 04004 83437 21596 80503 10212 20200 39411 40129 75052 886// 333 10244 29089 55008 58025 69931
AAXX 04004 83579 32596 53603 10214 20182 38998 40111 85200 333 10294 29079 55081 58030
AAXX 04004 83592 215// 82301 10196 20191 39440 40122 79596 8472/ 333 10278 29092 55018 58018 60111
AAXX 04004 83384 215// 80901 10230 20222 39546 40123 70386 8789/ 333 10311 29084 55/// 58027 60181
AAXX 04004 83386 21495 80504 10222 20215 39587 40118 70252 8272/ 333 10244 29095 55000 58025 69911
AAXX 04004 83388 21496 80000 10214 20207 39442 40113 75062 887// 333 10231 29094 55000 58018 60031
AAXX 04004 83393 215// 60000 10210 20203 39414 40135 70362 84522 333 10246 29093 55000 58024 60021
AAXX 04004 83442 21595 80000 10230 20225 39767 40115 75162 888// 333 10271 29095 55/// 58023 60021
AAXX 04004 83479 32998 83604 10218 20197 39322 40116 8//// 333 10289 29077 55056 58032
AAXX 04004 83483 21596 80903 10216 20208 39553 40116 70262 887// 333 10293 29089 55044 58030 60021
AAXX 04004 83531 325// 40903 10202 20178 39082 40107 84100 333 10277 29084 55061 58038
AAXX 04004 83538 21595 83601 10165 20165 38712 40114 75052 887// 333 10252 29093 55012 58027 60321
AAXX 04004 83574 325// 20502 10250 20187 39563 40163 5//// 82060 333 1//// 29062 55103
AAXX 04004 83582 321// 83601 10222 20203 39327 40085 53018 88600 333 10294 29080 55089
AAXX 04004 83595 315// 71802 10254 20242 30048 40132 71322 85250 333 10295 29087 55003 58008
AAXX 04004 83687 32696 83201 10230 20181 39089 40082 54000 887// 333 10295 29068 55100
AAXX 04004 83692 32697 21402 10198 20183 39076 40108 53010 82200 333 10262 29081 55070
AAXX 04004 82863 21595 80000 10224 20217 39914 40126 70252 8457/ 333 10277 29093 55003 58020 69931
AAXX 04004 83228 21/95 90501 10236 20231 39842 40117 75195 333 10305 29096 55015 58018 69971
AAXX 04004 83270 32/95 80000 10242 20230 39651 40133 8//// 333 1//// 29089 55038 58017
AAXX 04004 83309 31592 40000 10256 20238 39784 40104 71041 843// 333 10314 29086 55/// 58021
AAXX 04004 83319 21592 20000 10228 20216 39760 40131 71350 82900 333 10319 29082 55060 58026 69951
AAXX 04004 83368 32896 70000 10260 20225 39721 40081 87030 333 10326 29076 55067 58020
AAXX 04004 83374 21896 52704 10245 20222 39528 40096 70265 85050 333 10331 29/// 55082 58017 60041
AAXX 04004 83526 32897 21403 10216 20182 39175 40108 82010 333 10261 29080 55/// 58033
AAXX 04004 83811 32597 01402 10214 20120 39206 40087 55010 333 10323 29052 55122
AAXX 04004 83844 32597 205// 10238 20207 30102 40109 52010 81260 333 10292 29076 55///
AAXX 04004 83887 32997 00000 10216 20098 39072 40108 52006 333 10270 29046 55123
AAXX 04004 83907 32997 01804 10286 20158 39830 40105 51011 333 10364 29044 55118
AAXX 04004 83914 31996 00000 10231 20140 39347 40105 52007 70500 333 10293 29054 55127
AAXX 04004 83919 32997 01803 10184 20115 38959 40144 53010 333 10254 29054 55116
AAXX 04004 83927 32997 02302 10307 20205 30014 40084 52009 333 10334 29071 55102
AAXX 04004 83936 32997 22304 10272 20159 39980 40098 51010 82030 333 10352 29049 55121
AAXX 04004 83948 32797 10000 10210 20195 30103 40109 53013 81080 333 10257 29080 55126
AAXX 04004 83964 32997 01402 10200 20170 39628 40110 52015 333 10309 29066 55118
AAXX 04004 83995 32497 11810 10226 20194 30110 40113 54000 81100 333 10274 29077 55///
AAXX 04001 47003 32980 33203 11093 21162 30201 40205 53005 80002 333 21102
AAXX 04001 47005 12580 30000 11258 21270 38562 52016 69902 83500 333 21300
AAXX 04001 47022 32975 03603 11186 21212 38792 53010 333 21198
AAXX 04001 47028 32665 23201 11119 21154 30194 40296 52014 82500 333 21123
AAXX 04001 47031 32970 00000 11180 21199 38906 52018 333 21194
AAXX 04001 47037 32970 03602 11108 21152 30144 40274 52033 333 21142
AAXX 04001 47039 32960 00000 11140 21161 30071 40277 52022 333 21143
AAXX 04001 47046 12969 80000 11087 21125 30188 40212 52029 60102 80002 333 21110
AAXX 04001 47050 32965 03204 11107 21160 30223 40259 52016 333 21115
AAXX 04001 47052 12965 00000 11168 21187 39901 40270 52022 69912 333 21170
AAXX 04001 47060 31940 03203 11094 21145 30207 40269 52027 71000 333 21098
AAXX 04001 47061 32970 00000 11036 21088 30163 40208 52021 333 21053
AAXX 04001 47065 31960 03201 11133 21153 30208 40278 52031 71022 333 21133
AAXX 04001 47067 32965 80000 11111 21145 30154 40282 52020 80001 333 21120
AAXX 04001 47068 12560 83203 11068 21115 30227 40264 52020 69902 885// 333 21071
AAXX 04001 47070 32970 02702 11102 21130 30166 40259 52017 333 21117
AAXX 04001 47075 32580 82303 11125 21145 39741 40199 52023 885// 333 21133
AAXX 04004 47418 12/82 12808 11061 21118 39949 40000 58002 60002 81500 333 21099 4/008 70000
AAXX 04004 47746 11/60 72912 10029 21018 30119 40139 53020 60042 78598 87200 333 20006 4/997 70050
AAXX 04004 71073 16/// /2113 10037 21046 60001 333 10062 21011 7////
AAXX 04004 71793 16/// ///// 10009 21032 60001 333 10063 21031 70000
AAXX 04004 71848 16/// ///// 10048 21061 60001 333 10089 20008 70000
AAXX 04004 71168 16/// /2807 10002 21046 39557 40157 51021 60001 333 10035 21130 70000
AAXX 04004 71399 16/// ///// 10027 21026 60001 333 10070 21027 70000
AAXX 04004 71495 16/// /2717 10058 21053 60001 333 10072 20009 70000
AAXX 04004 71012 16/// /1909 10011 21027 60001 333 10051 21012 70000
AAXX 04004 71013 16/// ///// 10019 21031 60001 333 10078 21044 70000
AAXX 04004 71060 16/// /3105 10044 21062 38601 40159 53007 60001 333 10065 20017 70000
AAXX 04004 71974 46/// /1401 11367 21401 30182 40228 56002 6///1 333 11324 21385 7////
AAXX 04004 71565 16/// /2803 10022 21036 60001 333 10022 21084 70006
AAXX 04004 71566 16/// /2203 10017 21057 60001 333 10021 21036 70014
AAXX 04004 71567 17/// /1502 11019 21043 69941 7//4/ 333 10014 21084 70004
AAXX 04004 41964 31440 40000 10180 20170 30142 40145 70522 82530 333 56990 58009 70000 82618 83362
AAXX 04004 41989 31430 40000 10184 20170 30132 40135 70522 82530 333 56990 59001 70000 82618 83362
AAXX 04004 89646 46/// /0110 11222 29079 37559 4//// 5////
AAXX 04004 89648 46/// /2108 11236 29065 37141 4//// 5////
AAXX 04004 89661 46/// /2010 11057 29095 39209 4//// 5////
AAXX 04004 89662 41560 52710 10003 21107 39748 49852 57004 70272 83520 222 ICE 98012 333 83625 84459
AAXX 04004 89666 46/// /1305 11012 29077 39671 4//// 5////
AAXX 04004 71565 16/// /2803 10022 21036 60001 333 10022 21084 70006
AAXX 04004 71566 16/// /2203 10017 21057 60001 333 10021 21036 70014
AAXX 04004 71567 17/// /1502 11019 21043 69941 7//4/ 333 10014 21084 70004
AAXX 04004 71012 16/// /1909 10011 21027 60001 333 10051 21012 70000
AAXX 04004 71013 16/// ///// 10019 21031 60001 333 10078 21044 70000
AAXX 04004 71060 16/// /3105 10044 21062 38601 40159 53007 60001 333 10065 20017 70000
AAXX 04004 71793 16/// ///// 10009 21032 60001 333 10063 21031 70000
AAXX 04004 71399 16/// ///// 10027 21026 60001 333 10070 21027 70000
AAXX 04004 71073 16/// /2113 10037 21046 60001 333 10062 21011 7////
AAXX 04004 71848 16/// ///// 10048 21061 60001 333 10089 20008 70000
AAXX 04004 71168 16/// /2807 10002 21046 39557 40157 51021 60001 333 10035 21130 70000
AAXX 04004 71495 16/// /2717 10058 21053 60001 333 10072 20009 70000
AAXX 04004 71974 46/// /1401 11367 21401 30182 40228 56002 6///1 333 11324 21385 7////
BBXX 46004 04001 99509 71361 46/// /1609 10077 49885 57021 22200 00071 11109 70045 333 91211
BBXX 46036 04001 99484 71339 46/// /1614 10099 49892 57075 22200 00079 11109 70047 333 91217
BBXX 46145 04001 99544 71324 46/// /1706 10084 49946 52021 22200 00070 11003 70013 333 91207
BBXX 46208 04001 99525 71327 46/// /1507 10084 49956 52006 22200 00070 11008 70038 333 91209
BBXX KS098 04004 99446 71240 43/// /1106 10126 40243 22200 06000
BBXX SHIP 04004 99459 71497 41496 73132 10070 20060 49767 53008 70322 83313 92350 22224 00080 20310 32333 40840 50420 80060
BBXX SHIP 04004 99537 71309 41497 81530 10090 20050 49990 51020 70166 85717 22283 00080 315// 40404 80070
BBXX 46241 04001 99330 71173 46/// ///// 1//// 90011 22200 00150 11702 21001 326// 41702 70008
BBXX 44039 04001 99411 70727 46/// /3211 11050 21117 40184 90030 22200 00082 10402 70010 333 91215
AAXX 04001 98653 11470 81402 10252 20236 30075 40120 53033 60044 71584 82278 333 20230 56999 58015 70036 82818 84358 86272 555 20002
AAXX 04004 62600 32970 00409 10145 20025 39983 40206 333 59010
AAXX 04004 62640 31965 00209 10143 21006 39779 40148 70600 333 58002
AAXX 04004 62641 32970 03209 10200 20130 30124 40172 333 58014
AAXX 04004 62650 32970 73605 10120 20000 39910 40182 80007 333 56009 59001 87275
AAXX 04004 62660 32970 73410 10150 21020 39872 40183 80007 333 56009 58011 87275
AAXX 04004 62680 31968 03609 10170 20020 39730 40137 70600 333 59001
AAXX 04004 62721 32970 03606 10190 20020 39694 40140 333 58003
AAXX 04004 62730 32970 03604 10230 20140 39575 40142 333 58002
AAXX 04004 62733 32970 03603 10210 20105 39599 40101 333 58005
AAXX 04004 62750 32970 73609 10180 20060 39684 10122 80007 333 56009 58003 87275
AAXX 04004 62751 32970 73605 10180 21020 39665 40137 80007 333 56009 58015 87275
AAXX 04004 62752 32970 03405 10215 20060 39437 40118 80007 333 58001
AAXX 04004 62762 32970 70403 10178 20080 39610 40092 80007 333 56009 59007 87275
AAXX 04004 62771 32970 73208 10180 21040 39494 40152 80007 333 56009 58008 87275
AAXX 04004 62772 32970 03607 10190 20050 39704 40144 333 58005
AAXX 04004 62781 32970 73603 10160 20000 39507 40129 80007 333 56009 59003 87275
AAXX 04004 62790 32970 73610 10190 21020 39422 40159 80007 333 56009 58003 87275
AAXX 04004 62795 32970 70209 10255 20075 39593 40097 80007 333 56009 58003 87275
AAXX 04004 97686 11457 70000 10210 20168 38372 40104 52014 60074 70522 85846 333 20158 50/// 55041 56000 57802 58015 84810 86361 80859
AAXX 04004 97320 12565 70000 10265 20239 30091 40104 5//// 60284 83136 333 20242 50100 56000 58003 83820
AAXX 04001 89063 41/95 91001 10005 21000 39923 49934 52006 77072 333 10019 21005
BBXX CFO383 04004 99439 70602 47999 /9902 10038 2002/ 40050 5//// 700// 8//// 22200 00067 10905 2//// 70026 80029 333 91004
BBXX CFO383 04004 99439 70602 47999 /9902 10038 2002/ 40050 5//// 700// 8//// 22200 00067 10905 2//// 70026 80029 333 91004
BBXX 63106 04004 99610 10017 46/// /3231 10055 49765 52042 22200
BBXX 63113 04004 99610 10017 46/// /3333 10059 20015 49766 52046 22200 10708 70041
BBXX 62123 04004 99563 10022 41/96 /2839 10072 49894 53068 70222 8//// 22200 20302 326// 40620 5////
BBXX 62304 04004 99511 10018 46/98 /2635 10085 20025 40087 50000 22200 00105 10603 70014 333 90710 91146
BBXX 62103 04004 99499 70029 46/98 /3034 10105 20039 40158 52020 22200 00115 10908 70038 333 90710 91147
BBXX 62305 04004 99504 10000 46/97 /2834 10098 20034 40133 52012 22200 00113 10805 70025 333 90710 91150
BBXX 62094 04004 99517 70067 46/// /2826 10086 20044 40168 52039 22200 00104 10808 70039 333 90710 91136
BBXX 63119 04004 99583 10009 41397 83241 10060 20003 49842 51024 70222 8/678 22200 20612 333// 40814 5//// 80038
AAXX 04001 10763 01575 81904 10082 20052 39730 40110 58014 69921 76162 875// 333 31/// 55/// 20482 30169 55300 20000 30000 69927 87628
AAXX 04001 01332 16/// /0000 10011 21008 60001 333 91105
BBXX DDAC2 04000 99540 71724 41/97 /2307 11030 21030 49990 54000 7//77 8/670 22263 04030 2//// 328// 4//04 5//// 81030
BBXX 3FCA9 04004 99531 11645 41599 73502 00/// 11031 21040 40130 56001 70322 87143 22200 00010 20504 30708 41004 51204 6//// 81030 ///// /////
BBXX 3FMH7 04004 99324 11596 41597 82434 00/// 10190 20124 40117 5//// 70322 87757 9//// 22252 0//// 1//// 20407 33026 40412 50411 6//// 80150
BBXX DHYW 04001 99538 11779 41598 40717 11006 21081 40060 57030 72277 83490 22224 20402 307// 40905 5//// 81030
BBXX SHIP 04004 99479 11683 41496 80946 10050 21026 40030 52010 70222 887// 90000 22214 00050 20806 309// 41008 80020
BBXX VRCI9 04004 99529 71456 41/98 /1711 10090 20090 49760 58030 74565 8//// 22264 00046 20604 316// 41007 80090
BBXX VQGQ4 04004 99001 11424 41/98 50215 10300 20227 40090 50000 70222 82866 22234 00306 20402 304// 40602 80250
BBXX VRCI9 04004 99529 71456 41/98 /1711 10090 20090 49760 58030 74565 8//// 22264 00046 20604 316// 41007 80090
BBXX VQGQ4 04004 99001 11424 41/98 50215 10300 20227 40090 50000 70222 82866 22234 00306 20402 304// 40602 80250
BBXX 46229 04001 99438 71246 46/// ///// 1//// 90021 22200 00100 11306 21004 327// 41304 70031
BBXX 46216 04001 99343 71198 46/// ///// 1//// 90027 22200 00146 11403 21002 327// 41403 70017
BBXX 46223 04001 99335 71178 46/// ///// 1//// 90030 22200 00158 11703 21001 327// 41702 70013
BBXX 46231 04001 99327 71174 46/// ///// 1//// 90024 22200 00151 11702 21001 327// 41702 70012
BBXX 46222 04001 99336 71183 46/// ///// 1//// 90026 22200 00148 11703 21001 327// 41703 70017
BBXX 46242 04001 99332 71174 46/// ///// 1//// 90028 22200 00155 11701 21001 324// 41701 70006
BBXX 46221 04001 99339 71186 46/// ///// 1//// 90015 22200 00152 11503 21001 326// 41503 70014
BBXX 9MBW7 04004 99032 11134 41698 80519 10290 20230 40080 54000 71312 88/// 22251 00293 20202 305// 40203 80260
BBXX DDSX2 04004 99053 10855 41498 60507 10270 20231 40103 55000 70222 83201 22223 00300 2//// 80242
BBXX MZER8 04003 99057 11069 41497 70520 10251 20224 40126 53005 70522 8113/ 22254 00255 20602 303// 40902 80233
BBXX A8PB2 04004 99028 11011 41/98 30712 10251 20217 40050 55010 70100 81/68 22200 04300 29902 80227
BBXX VRGW2 04003 99134 10567 41297 50210 10240 20226 40125 57009 70322 8/225 22265 04260 21402 80230
BBXX DDZD2 04004 99066 10785 41998 00324 10272 20235 40093 51007 70200 80000 22235 00270 299// 80245
BBXX VRWE8 04003 99221 11142 41397 90320 10140 20085 40240 52030 74022 8//// 22200 00170 20302 399// 40201 80110
BBXX MSTM6 04003 99071 10781 41598 40612 10280 20237 40096 56010 70200 848// 22224 00280 2//// 80250
AAXX 04004 71051 16/// ///// 10042 21059 60001 333 20024 7////
AAXX 04004 71057 16/// ///// 10065 21050 60001 333 10083 21004 70000
AAXX 04004 71070 16/// ///// 10055 21066 60001 333 10098 20005 70000
AAXX 04004 71089 16/// ///// 11007 21039 60001 333 7////
AAXX 04004 71789 16/// ///// 10071 21076 60001 333 10081 20032 70000
AAXX 04004 71791 16/// /1407 11006 21044 60001 333 10045 21022 70000
AAXX 04004 71794 16/// ///// 10000 21038 60001 333 10051 21025 70000
AAXX 04004 71795 16/// ///// 10062 21034 60001 333 10101 20016 70000
AAXX 04004 71796 16/// ///// 10011 21032 60001 333 10062 21011 7////
AAXX 04004 71797 16/// ///// 10006 21043 60001 333 10042 21043 70000
AAXX 04004 71409 16/// ///// 10048 21049 60001 333 10100 20034 70000
AAXX 04004 71383 16/// ///// 11169 21194 39489 40122 51029 60001 333 11162 21226 70000
AAXX 04004 71502 16/// /2614 11251 21270 30087 40103 51025 60001 333 11225 21251 70000
AAXX 04004 71509 16/// /2522 10081 21070 60001 333 10095 20049 7////
AAXX 04004 71517 16/// /2711 10064 21076 60001 333 10087 20045 70000
AAXX 04004 71518 16/// /2323 10071 21058 60001 333 10107 21002 70000
AAXX 04004 71519 16/// /2108 10061 21048 60001 333 10107 20030 70000
AAXX 04004 71520 16/// /3112 11178 21196 39414 40110 52028 60001 333 11157 21216 70000
AAXX 04004 71521 16/// /2906 11224 21257 60001 333 11182 21232 70000
AAXX 04004 71523 16/// ///// 11214 21248 39774 40170 53017 60001 333 11206 21238 70000
AAXX 04004 71528 16/// /2425 10071 21066 60001 333 10093 20028 70000
AAXX 04004 71841 16/// /2104 11094 21136 39650 40063 56017 60001 333 11092 21303 70000
AAXX 04004 71433 46/// /1929 11037 21058 39899 40136 56042 6///1 333 11036 21144 7////
AAXX 04004 71102 16/// ///// 10001 21052 60001 333 10034 21051 7////
AAXX 04004 71105 16/// ///// 10075 21062 60001 333 10106 20004 70000
AAXX 04004 71006 16/// /2207 10021 21029 60001 333 7////
AAXX 04004 71007 16/// ///// 10068 21065 60001 333 10093 21016 7////
AAXX 04004 71008 16/// /2107 10035 21040 60001 333 10079 20011 70000
AAXX 04004 71009 16/// /2206 10038 21022 60001 333 10061 21008 70000
AAXX 04004 71035 16/// ///// 10053 21026 60001 333 10068 21016 70000
AAXX 04004 71841 16/// /2104 11094 21136 39650 40063 56017 60001 333 11092 21303 70000
AAXX 04004 71433 46/// /1929 11037 21058 39899 40136 56042 6///1 333 11036 21144 7////
AAXX 04004 71409 16/// ///// 10048 21049 60001 333 10100 20034 70000
AAXX 04004 71102 16/// ///// 10001 21052 60001 333 10034 21051 7////
AAXX 04004 71105 16/// ///// 10075 21062 60001 333 10106 20004 70000
AAXX 04004 71383 16/// ///// 11169 21194 39489 40122 51029 60001 333 11162 21226 70000
AAXX 04004 71006 16/// /2207 10021 21029 60001 333 7////
AAXX 04004 71007 16/// ///// 10068 21065 60001 333 10093 21016 7////
AAXX 04004 71008 16/// /2107 10035 21040 60001 333 10079 20011 70000
AAXX 04004 71009 16/// /2206 10038 21022 60001 333 10061 21008 70000
AAXX 04004 71035 16/// ///// 10053 21026 60001 333 10068 21016 70000
AAXX 04004 71502 16/// /2614 11251 21270 30087 40103 51025 60001 333 11225 21251 70000
AAXX 04004 71509 16/// /2522 10081 21070 60001 333 10095 20049 7////
AAXX 04004 71517 16/// /2711 10064 21076 60001 333 10087 20045 70000
AAXX 04004 71518 16/// /2323 10071 21058 60001 333 10107 21002 70000
AAXX 04004 71519 16/// /2108 10061 21048 60001 333 10107 20030 70000
AAXX 04004 71520 16/// /3112 11178 21196 39414 40110 52028 60001 333 11157 21216 70000
AAXX 04004 71521 16/// /2906 11224 21257 60001 333 11182 21232 70000
AAXX 04004 71523 16/// ///// 11214 21248 39774 40170 53017 60001 333 11206 21238 70000
AAXX 04004 71528 16/// /2425 10071 21066 60001 333 10093 20028 70000
AAXX 04004 71051 16/// ///// 10042 21059 60001 333 20024 7////
AAXX 04004 71057 16/// ///// 10065 21050 60001 333 10083 21004 70000
AAXX 04004 71070 16/// ///// 10055 21066 60001 333 10098 20005 70000
AAXX 04004 71089 16/// ///// 11007 21039 60001 333 7////
AAXX 04004 71789 16/// ///// 10071 21076 60001 333 10081 20032 70000
AAXX 04004 71791 16/// /1407 11006 21044 60001 333 10045 21022 70000
AAXX 04004 71794 16/// ///// 10000 21038 60001 333 10051 21025 70000
AAXX 04004 71795 16/// ///// 10062 21034 60001 333 10101 20016 70000
AAXX 04004 71796 16/// ///// 10011 21032 60001 333 10062 21011 7////
AAXX 04004 71797 16/// ///// 10006 21043 60001 333 10042 21043 70000
AAXX 04001 10055 01560 72520 10058 20029 39912 49922 53010 60011 78098 878// 333 32/// 55/// 20032 30032 55300 20000 30000 69967 83820 86656 91130 90218 91218 91223
AAXX 04004 89063 41/95 91001 10005 21000 39923 49934 52006 77072 333 10019 21005
BBXX SHIP 04004 99134 31255 41/97 50904 10317 20245 40089 70222 222// 0//// 20501 311// 40501 5////
BBXX SHIP 04004 99134 31255 41/97 50904 10317 20245 40089 70222 222// 0//// 20501 311// 40501 5////
BBXX DDZD2 04004 99066 10785 41998 00324 10272 20235 40093 51007 70200 80000 22235 00270 299// 80245
BBXX VRWE8 04003 99221 11142 41397 90320 10140 20085 40240 52030 74022 8//// 22200 00170 20302 399// 40201 80110
BBXX MZER8 04003 99057 11069 41497 70520 10251 20224 40126 53005 70522 8113/ 22254 00255 20602 303// 40902 80233
BBXX MSTM6 04003 99071 10781 41598 40612 10280 20237 40096 56010 70200 848// 22224 00280 2//// 80250
BBXX DDSX2 04004 99053 10855 41498 60507 10270 20231 40103 55000 70222 83201 22223 00300 2//// 80242
BBXX VRFJ6 04004 99224 11196 41497 40522 10170 20137 40201 54000 70111 81/7/ 22223 00180 20505 306// 40504 80150
BBXX SHIP 04004 99467 11453 41/95 90316 10020 21021 49929 54000 77377 89/// 22254 00027 20303 329// 41007 80035
BBXX A8JR5 04004 99132 11141 41497 53616 10260 20231 40140 51010 7//22 85773 22254 04266 20305 80240
BBXX VRGW2 04003 99134 10567 41297 50210 10240 20226 40125 57009 70322 8/225 22265 04260 21402 80230
BBXX 46221 04001 99339 71186 46/// ///// 1//// 90015 22200 00152 11503 21001 326// 41503 70014
BBXX 46223 04001 99335 71178 46/// ///// 1//// 90030 22200 00158 11703 21001 327// 41702 70013
BBXX 46242 04001 99332 71174 46/// ///// 1//// 90028 22200 00155 11701 21001 324// 41701 70006
BBXX 46229 04001 99438 71246 46/// ///// 1//// 90021 22200 00100 11306 21004 327// 41304 70031
BBXX 46231 04001 99327 71174 46/// ///// 1//// 90024 22200 00151 11702 21001 327// 41702 70012
BBXX 46222 04001 99336 71183 46/// ///// 1//// 90026 22200 00148 11703 21001 327// 41703 70017
BBXX 46216 04001 99343 71198 46/// ///// 1//// 90027 22200 00146 11403 21002 327// 41403 70017
BBXX VRCI9 04004 99529 71456 41/98 /1711 10090 20090 49760 58030 74565 8//// 22264 00046 20604 316// 41007 80090
BBXX CFO383 04004 99439 70602 47999 /9902 10038 2002/ 40050 5//// 700// 8//// 22200 00067 10905 2//// 70026 80029 333 91004
BBXX 44039 04001 99411 70727 46/// /3211 11050 21117 40184 90030 22200 00082 10402 70010 333 91215
BBXX 46241 04001 99330 71173 46/// ///// 1//// 90011 22200 00150 11702 21001 326// 41702 70008
BBXX 42023 04001 99261 70831 46/// /3608 1//// 90030 333 91211
BBXX 42023 04001 99261 70831 46/// /3608 1//// 90000 333 91211
BBXX 44024 04001 99423 70659 46/30 /3408 10028 40069 51024 90004 22200 00072 10805 70024 333 91210 555 11101 22106
BBXX 41052 04001 99183 70648 46/// /1104 10268 40162 90010 333 91205
BBXX 41052 04001 99183 70648 46/// /1104 10269 40163 90020 333 91205
BBXX 41052 04001 99183 70648 46/// /1104 10269 40164 90030 333 91205
BBXX VREX7 04003 99295 70510 41398 51215 10230 20199 40260 50000 72111 85772 22214 04230 20202 31112 40504 50403 80210
BBXX A8PB2 04004 99028 11011 41/98 30712 10251 20217 40050 55010 70100 81/68 22200 04300 29902 80227
BBXX SHIP 04004 99032 11134 41698 80519 10290 20230 40080 54000 71312 88/// 22251 00293 20202 305// 40203 80260
BBXX VQGQ4 04004 99001 11424 41/98 50215 10300 20227 40090 50000 70222 82866 22234 00306 20402 304// 40602 80250
BBXX VRCU7 04003 99372 10047 41598 23215 10160 20103 40238 54000 70150 8/1// 22264 04135 2//// 332// 40000 80130
BBXX 63119 04004 99583 10009 41397 83241 10060 20003 49842 51024 70222 8/678 22200 20612 333// 40814 5//// 80038
AAXX 04001 01028 11675 81111 10000 21030 39966 49986 56008 60001 70222 885// 333 91120
AAXX 04004 63980 41470 72702 20260 40082 72582 8583/ 333 58000 85816 84358 943// 911//
AAXX 04004 71904 16/// ///// 10040 21020 60001 333 10059 21010 70000
AAXX 04004 71413 16/// ///// 10001 21039 60001 333 10085 21040 70000
AAXX 04004 71414 16/// ///// 11030 21052 60001 333 10004 21099 70000
AAXX 04004 71440 16/// ///// 10044 21032 60001 333 10074 20027 70000
AAXX 04004 71346 16/// /2425 10084 21075 60001 333 10102 20046 7////
AAXX 04004 71249 46/// /2417 10044 21025 6///1 333 10056 21003 7////
AAXX 04004 71540 16/// /2904 10054 21038 60001 333 10064 21070 70000
AAXX 04004 71544 16/// ///// 11002 21027 60001 333 10048 21037 70000
AAXX 04004 71548 16/// ///// 11013 21034 60001 333 10023 21043 70000
AAXX 04004 71014 16/// /1701 10032 21036 60001 333 10062 21023 70000
AAXX 04004 71055 46/// /0603 11309 21338 39788 40136 53008 6///1 333 11261 21351 7////
AAXX 04004 71065 16/// ///// 11010 21040 60001 333 10037 21107 70000
AAXX 04004 71857 16/// ///// 11044 21065 60001 333 10035 21078 70000
AAXX 04004 71674 16/// ///// 10011 21038 60001 333 10055 21026 70000
AAXX 04004 71481 16/// /2704 10049 21029 60001 333 10054 21048 70000
AAXX 04004 71498 16/// /2309 10040 21037 60001 333 10077 21008 70000
AAXX 04004 71360 16/// ///// 11005 21045 60001 333 10054 21017 70000
AAXX 04004 71380 16/// /2103 10036 21043 60001 333 10047 21069 70000
AAXX 04004 71249 46/// /2417 10044 21025 6///1 333 10056 21003 7////
AAXX 04004 71857 16/// ///// 11044 21065 60001 333 10035 21078 70000
AAXX 04004 71540 16/// /2904 10054 21038 60001 333 10064 21070 70000
AAXX 04004 71544 16/// ///// 11002 21027 60001 333 10048 21037 70000
AAXX 04004 71548 16/// ///// 11013 21034 60001 333 10023 21043 70000
AAXX 04004 71014 16/// /1701 10032 21036 60001 333 10062 21023 70000
AAXX 04004 71413 16/// ///// 10001 21039 60001 333 10085 21040 70000
AAXX 04004 71414 16/// ///// 11030 21052 60001 333 10004 21099 70000
AAXX 04004 71440 16/// ///// 10044 21032 60001 333 10074 20027 70000
AAXX 04004 71674 16/// ///// 10011 21038 60001 333 10055 21026 70000
AAXX 04004 71346 16/// /2425 10084 21075 60001 333 10102 20046 7////
AAXX 04004 71055 46/// /0603 11309 21338 39788 40136 53008 6///1 333 11261 21351 7////
AAXX 04004 71065 16/// ///// 11010 21040 60001 333 10037 21107 70000
AAXX 04004 71481 16/// /2704 10049 21029 60001 333 10054 21048 70000
AAXX 04004 71498 16/// /2309 10040 21037 60001 333 10077 21008 70000
AAXX 04004 71904 16/// ///// 10040 21020 60001 333 10059 21010 70000
AAXX 04004 71360 16/// ///// 11005 21045 60001 333 10054 21017 70000
AAXX 04004 71380 16/// /2103 10036 21043 60001 333 10047 21069 70000
AAXX 04004 61017 NIL
AAXX 04004 61024 NIL
AAXX 04004 61036 NIL
AAXX 04004 61043 32960 70608 10186 21015 39718 40160 80008 333 0//00 58004 87280
AAXX 04004 61045 NIL
AAXX 04004 61049 31958 70804 10192 20019 39825 40123 7062/ 80008 333 0//00 59015 87280
AAXX 04004 61052 32960 20206 10205 21002 39894 40151 80002 333 0//00 59003 83080
AAXX 04004 61075 32960 51010 10215 21007 39840 40151 80002 333 0//00 59002 85080
AAXX 04004 61080 NIL
AAXX 04004 61090 32960 10170 21002 39651 40167 80008 333 0//00 58004 87280
AAXX 04004 61091 NIL
AAXX 04004 61096 31956 70704 10170 21010 39780 40164 7052/ 80008 333 0//00 59002 87280
AAXX 04004 61099 NIL
AAXX 04004 61415 32958 03408 10180 20059 30200 40205 333 0//00 59007
AAXX 04004 61442 32956 60611 10242 21106 30174 40178 86080 333 0//00 59001 86363
AAXX 04004 94997 46/// ///// 10052 30077 40092 5////
AAXX 0400/ 89767 46/// ///// 11033 39752 4//// 5////
AAXX 04004 94997 46/// ///// 10052 30077 40092 5////
AAXX 04004 96465 12478 70704 10282 20250 30082 40115 60034 70028 81813 333 20259 50480 55049 58005 70028 81813 87078
OOXX MYP42 03221 99045 11014 ///// 15551 26/// /0903 10166 29091 38421 92214 333 60000
OOXX MYP42 03221 99045 11014 ///// 15551 26/// /1401 10171 29089 38429 92224 333 60000
OOXX MYP42 03221 99045 11014 ///// 15551 26/// /0101 10166 29090 38432 92234 333 60000
OOXX MYP42 03221 99045 11014 ///// 15551 26/// /0604 10166 29091 38436 92244 333 60000
OOXX MYP42 03221 99045 11014 ///// 15551 26/// /0806 10165 29092 38432 92254 333 60000
OOXX MYP42 03231 99045 11014 ///// 15551 26/// /0704 10170 29090 38425 92304 333 60000
OOXX MYP42 03231 99045 11014 ///// 15551 26/// /0104 10168 29089 38436 92314 333 60000
OOXX MYP42 03231 99045 11014 ///// 15551 26/// /0206 10174 29088 38445 92324 333 60000
OOXX MYP42 03231 99045 11014 ///// 15551 26/// /0601 10170 29087 38434 92334 333 60000
OOXX MYP42 03231 99045 11014 ///// 15551 26/// /0101 10165 29090 38438 92344 333 60000
OOXX MYP42 03231 99045 11014 ///// 15551 26/// /0601 10166 29090 38425 92354 333 60000
OOXX MYP42 04001 99045 11014 ///// 15551 26/// /1304 10167 29091 38449 90004 333 60000
OOXX ARP03 03221 99412 50712 ///// 08491 26/// /2502 10288 29018 39181 92210 333 60000
OOXX ARP03 03221 99412 50712 ///// 08491 26/// /2502 10283 29019 39181 92220 333 60000
OOXX ARP03 03221 99412 50712 ///// 08491 26/// /2501 10282 29019 39183 92230 333 60000
OOXX ARP03 03221 99412 50712 ///// 08491 26/// /2502 10277 29020 39182 92240 333 60000
OOXX ARP03 03221 99412 50712 ///// 08491 26/// /2501 10271 29022 39183 92250 333 60000
OOXX ARP03 03231 99412 50712 ///// 08491 26/// /2501 10268 29022 39184 92300 333 60000
OOXX ARP03 03231 99412 50712 ///// 08491 26/// /2501 10264 29023 39185 92310 333 60000
OOXX ARP03 03231 99412 50712 ///// 08491 26/// /2601 10262 29023 39186 92320 333 60000
OOXX ARP03 03231 99412 50712 ///// 08491 26/// /2601 10255 29024 39188 92330 333 60000
OOXX ARP03 03231 99412 50712 ///// 08491 26/// /2601 10250 29025 39189 92340 333 60000
OOXX ARP03 03231 99412 50712 ///// 08491 26/// /2501 10246 29025 39192 92350 333 60000
OOXX ARP03 04001 99412 50712 ///// 08491 26/// /2301 10238 29027 39193 90000 333 60000
AAXX 04004 96465 12478 70704 10282 20250 30082 40115 60034 70028 81813 333 20259 50480 55049 58005 70028 81813 87078
AAXX 04001 59158 32660 80203 10127 20077 30139 40243 51018 885//
AAXX 04001 59562 32568 70202 10181 20130 30228 40240 52031 8683/
AAXX 04001 59567 11460 80213 10156 20150 39837 40223 52030 60042 70262 886//
AAXX 04001 58968 11557 80603 10111 20089 30280 40288 51018 69902 76162 887//
AAXX 04001 58974 11460 80110 10095 20064 30164 40293 51022 60042 76166 887//
AAXX 04001 59358 31657 70107 10132 20094 30210 40243 51020 71011 8653/
AAXX 04001 59559 32567 50205 10194 20152 30191 40220 51028 83430
AAXX 04001 59792 32560 60312 10192 20159 30207 40212 52017 84410
AAXX 04001 59997 32460 50503 10276 20249 30132 40140 52021 83860
BBXX A8LK7 04004 99397 70176 41098 52324 10170 20135 40340 52/// 70322 84/// 22254 20503 80150
AAXX 04004 42398 21990 99903 10130 20130 40144 74544 89/// 333 58007 6990/
AAXX 04004 71702 16/// /3211 11067 21109 30067 40082 53030 60001 333 11021 21067 70000 555 10010
AAXX 04004 71702 16/// /3211 11067 21109 30067 40082 53030 60001 333 11021 21067 70000 555 10010
AAXX 04004 91844 46/// /2606 10279 40115 22200 00271
AAXX 0400/ 89667 46/// ///// 4//// 5//// 90020
AAXX 0400/ 89667 46/// ///// 4//// 5//// 90010
AAXX 0400/ 89869 46/// ///// 11033 39791 4//// 5//// 90040
AAXX 0400/ 89332 46/// ///// 11043 39225 4//// 5//// 90040
AAXX 0400/ 89769 46/// ///// 11034 39810 4//// 5//// 90040
AAXX 04004 89667 46/// /1916 11035 39848 4//// 5//// 90040
AAXX 04004 89667 46/// /1917 11034 39850 4//// 5//// 90030
AAXX 04004 41929 31/04 90000 10160 20150 30129 40139 74544 89/// 333 56999 58006 70000
AAXX 04004 41958 31430 50000 10175 20170 30134 40136 70500 82510 333 56890 58012 70000 82616 85362
AAXX 04004 41965 31920 40000 10164 20150 30124 40133 71044 84600 333 56900 58008 70000 81710 84620
AAXX 04001 01062 16/// /1310 11011 21033 30075 40088 55004 6//// 333 91114
AAXX 04004 03227 46/// /2932 11021 2//// 92350 333 90710 91148 91043
BBXX 62123 04004 99563 10022 47997 /2837 10072 20020 49874 52051 700// 22200
BBXX 63106 04004 99610 10017 46/// /3231 10055 49765 52042 22200
BBXX 63105 04004 99610 10017 47597 ///// 10058 20014 49763 52041 700// 22200
BBXX 62305 04004 99504 10000 46/97 /2834 10098 20034 40133 52011 22200 00113 10805 70025 333 90710 91148
BBXX 62304 04004 99511 10018 46/98 /2635 10085 20025 40085 58001 22200 00105 106// 333 90710 91149
BBXX 62094 04004 99517 70067 46/// /2826 10086 20044 40168 52039 22200 00104 10809 70044 333 90710 91136
BBXX 62103 04004 99499 70029 46/98 /3036 10104 20037 40154 53019 22200 00115 10908 70038 333 90710 91149
BBXX SHIP 04004 99164 70645 41998 30912 10270 20229 40152 54000 70200 83131 22223 00269 20801 363// 40801
BBXX 64045 04004 99591 70117 46/// /2928 10073 21003 49984 52027 22200 00099 10912 70062 333 90710 91139
BBXX MINUK01 0400/ 99587 70022 46/// ///// 10060 49889 52081
BBXX 62112 04004 99584 70002 47597 /2920 10066 20008 49859 52058 751// 22200
BBXX 62113 04004 99584 10002 47597 /3130 10081 20011 49844 52069 700// 22200
BBXX 62129 04004 99584 10003 46/// ///// 10064 20007 49847 52068 22200
BBXX 62114 04004 99583 10000 46/// /2934 10069 21004 49851 52064 22200
BBXX BATEU04 04004 99581 70295 46/// /2239 10065 20054 49924 55013 22222
BBXX PJAI 04004 99581 70014 47598 /2825 10069 20011 49897 52056 700// 22200
BBXX 62111 04004 99580 70003 46/// /3134 10065 20011 49899 52061 22200 10709 70043
BBXX 62117 04004 99579 10000 47397 /2937 10061 20016 49872 52058 700// 22200 10708 70040
BBXX BATUK01 04004 99560 70032 46/// /2608 10039 21012 49985 51052 22200 00059
BBXX 62105 04004 99554 70121 46/// /2929 10086 20039 40106 52032 22200 00105 11016 70078 333 90710 91144
BBXX MINUK03 0400/ 99540 10003 46/// ///// 10050 49983 52042
BBXX 62095 04004 99531 70159 46/// /2721 10094 20052 40214 51025 22200 00111 10913 70064 333 90710 91130
BBXX 62301 04004 99524 70047 46/// /2925 10076 20029 40126 52048 22200 00086 10608 70040 333 90710 91138
BBXX 62094 04004 99517 70067 46/// /2826 10086 20044 40168 52039 22200 00104 10809 70044 333 90710 91136
BBXX 62303 04004 99516 70051 46/// /3127 10092 20035 40148 52038 22200 00108 10809 70044 333 90710 91138
BBXX 62023 04003 99514 70079 46/96 /2823 10091 2//// 40195 5//// 22200 10709 70045 333 91136 555 70070 80007
BBXX 62081 04004 99510 70134 46/// ///// 10101 20057 40250 53031 22200 00117 11116 70079
BBXX 62305 04004 99504 10000 46/97 /2834 10098 20034 40133 52011 22200 00113 10805 70025 333 90710 91148
BBXX BATFR15 04004 99502 70002 46/// /2724 10102 20044 40128 53036 22244 00117
BBXX 62107 04004 99501 70061 46/// /3102 10101 20032 40009 52033 22200 01290 333 90710 91152
BBXX TESTFR9 04004 99500 70038 46/// /3029 10098 29070 40194 22234
BBXX BAREU12 04004 99499 70038 46/// ///// 40156 52020 22253
BBXX 62103 04004 99499 70029 46/98 /3036 10104 20037 40154 53019 22200 00115 10908 70038 333 90710 91149
BBXX BATFR42 04004 99497 70018 46/// /2945 10102 20037 40146 222// 00127
BBXX OXHV2 04004 99496 70038 41/98 /3042 10125 20068 40173 53042 700// 8//// 22254 00121 20907 80095
BBXX BATFR60 04004 99494 70041 46/// /2833 10107 20044 40192 53010 22222 00112
BBXX WDD3825 04004 99493 70049 41898 52935 10130 2007/ 40190 51010 70222 851// 22224 00130 2//// 3//// 4//// 5//// 6//// 80100 /////
BBXX 62027 04004 99491 70022 46/// /3026 1//// 2//// 40177 51016 22200 00107 10807 329// 70035
BBXX 62442 04004 99490 70164 46/// /2914 1//// 2//// 40306 53023 22200 00120
BBXX 62029 04004 99487 70125 46/// /3118 10110 20050 40250 58008 22200 00121 11013 70065 333 90710 91127
BBXX 62163 04004 99475 70084 46/// /3121 10109 20044 40272 51027 22200 00123 11113 70064 333 90710 91128
BBXX SKUN 04003 99468 70177 43/98 63105 10100 40335 53032 22253 00117 2//// 4////
BBXX BAREU00 04004 99467 70178 46/// ///// 40337 52030 22263
BBXX DDLK 04003 99453 70261 41797 30118 10110 21002 40343 53040 70211 83500 22263 20604 328// 40808 80060
BBXX 62001 04004 99452 70050 46/// /3011 10131 20123 40264 53018 22200 00134 11014 70070 333 90710 91139
BBXX BATFR54 04004 99448 70047 46/// /2539 10139 20122 40273 22262 00137
BBXX BATFR14 04004 99430 70146 44793 63115 10139 20134 40335 51035 74155 86777 22264 00142 21008 327// 41006 5////
BBXX V2NA1 04004 99389 70231 41/97 /1120 10165 20141 40300 54000 750// 8/8// 22264 04160 20908 80150
BBXX BAREU05 04004 99365 70019 46/// ///// 40322 57004 22224
BBXX A8LP6 04004 99356 70104 41/98 /0320 10150 20116 40330 54000 70311 8//// 22224 04136 2//// 80130
BBXX ICRA 04004 99119 30489 418// 41909 10260 2022/ 40090 54040 7//// 8407/ 22223 00270 2//// 3//// 4//// 5//// 6//// 80230 /////
BBXX WHKM 04004 99226 31014 41298 31619 10230 20169 40160 52012 7//10 8314/ 22233 0//// 20202 315// 40605 5//// 6//// 80190 /////
BBXX TBWUK18 04003 99300 30596 41/98 81015 10217 20163 40189 57007 70222 8147/ 22222 00240 20201 3//// 4//// 5//// 80184
BBXX TBWUK17 04003 99309 30072 41898 12707 10202 20183 40229 52020 70100 81147 22273 04210 20101 32425 40407 50607 80190
BBXX BAREU51 04004 99438 10093 46/// ///// 40235 22233
BBXX 61001 04004 99434 10078 46/// /2214 10130 20085 40238 57016 22200 00138 10602 70008
BBXX BATFR21 04004 99429 10070 46/// /2516 40240 58021 22263
BBXX BATFR31 04004 99425 10070 46/// /2611 10132 20125 40252 58015 22234 00137
BBXX BATFR20 04004 99424 10075 46/// ///// 10127 20057 40243 58017 22274
BBXX BATFR22 04004 99423 10072 46/// /2713 10129 40251 58016 22274 00142
BBXX PDBP 04003 99422 10080 41998 12208 10150 20076 40248 58010 70200 80005 22253 04151 2//01 325// 40601 80110
BBXX 61002 04004 99421 10047 46/// /0000 10131 2//// 40282 57010 22200 00133 10603 70015
BBXX BATFR32 04004 99404 10072 46/// /3318 10133 20073 40278 56011 7//// 8//// 22234 00154
BBXX VRCZ7 04003 99379 10087 41498 33412 10130 20101 40272 58010 70222 831// 22224 20502 334// 40704 5//// 80115
BBXX DBBH 04001 99377 10154 41/98 /0705 10154 20111 40230 50000 7//// 22221 04158
BBXX A8PK8 04003 99375 10107 41598 53116 10150 20103 40239 51031 70222 8446/ 22264 04167 20101 334// 40102 5//// 80125
BBXX ZNQO3 04000 99368 10025 41498 23105 10160 20069 40333 54000 70200 8//// 22224 04165 2//// 3//// 4//// 5//// 80115
BBXX KSDF 04004 99353 10183 41698 72009 10161 20133 40225 57010 71311 8596/ 22263 0//// 20601 324// 40801 5//// 6//// 80144 /////
BBXX BAREU63 04004 99328 10206 46/// /2111 10148 29074 40239 57007 22213
BBXX DCPP2 04004 99328 10278 41697 10309 10153 20094 40242 56013 70200 81200 22265 20401 326// 40401 5//// 80120
BBXX A8GU5 04004 99328 10280 41497 31413 10155 20035 40260 54000 7//// 83465 22223 04180 20601 80100
BBXX KSPH 04004 99322 10300 41798 53513 10160 2013/ 40250 5//// 702// 851// 22273 00150 20301 335// 40502 5//// 6//// 80140 /////
BBXX ELWP5 04001 99356 70050 41998 09901 10160 20108 40383 51010 70200 80000 22221 2//// 3//// 4//// 5//// 80130
BBXX A8LK7 04004 99397 70176 41098 52324 10170 20135 40340 52/// 70322 84/// 22254 20503 80150
BBXX BSH03 04001 99540 10081 46/// ///// 22200 00063 21110 70051
BBXX SHIP 04004 99134 31255 41/97 50904 10317 20245 40089 70222 222// 0//// 20501 311// 40501 5////
OOXX GBP68 03221 99371 50123 ///// 00641 26/// /3506 10184 29000 30109 92210 333 60000
OOXX GBP68 03221 99371 50123 ///// 00641 26/// /3506 10184 29000 30110 92220 333 60000
OOXX GBP68 03221 99371 50123 ///// 00641 26/// /3507 10184 29000 30107 92230 333 60000
OOXX GBP68 03221 99371 50123 ///// 00641 26/// /3509 10182 29000 30108 92240 333 60000
OOXX GBP68 03221 99371 50123 ///// 00641 26/// /3506 10180 29000 30102 92250 333 60000
OOXX GBP68 03231 99371 50123 ///// 00641 26/// /3508 10179 29000 30103 92300 333 60000
OOXX GBP68 03231 99371 50123 ///// 00641 26/// /3507 10179 29000 30104 92310 333 60000
OOXX GBP68 03231 99371 50123 ///// 00641 26/// /3507 10178 29000 30102 92320 333 60000
OOXX GBP68 03231 99371 50123 ///// 00641 26/// /3509 10177 29000 30100 92330 333 60000
OOXX GBP68 03231 99371 50123 ///// 00641 26/// /3507 10176 29000 30101 92340 333 60000
OOXX GBP68 03231 99371 50123 ///// 00641 26/// /3510 10176 29000 30100 92350 333 60000
OOXX GBP68 04001 99371 50123 ///// 00641 26/// /3508 10176 29000 30099 90000 333 60000
OOXX AUP06 03221 99192 31468 ///// 00071 26/// /1503 10278 29053 30139 92257 333 60000
OOXX AUP06 03231 99192 31468 ///// 00071 26/// /1504 10281 29050 30140 92307 333 60000
OOXX AUP06 03231 99192 31468 ///// 00071 26/// /1404 10286 29047 30140 92317 333 60000
OOXX AUP06 03231 99192 31468 ///// 00071 26/// /1504 10287 29048 30139 92327 333 60000
OOXX AUP06 03231 99192 31468 ///// 00071 26/// /1205 10293 29045 30139 92337 333 60000
OOXX AUP06 03231 99192 31468 ///// 00071 26/// /0907 10288 29045 30138 92347 333 60000
OOXX AUP06 03231 99192 31468 ///// 00071 26/// /0907 10290 29045 30137 92357 333 60000
OOXX AUP06 04001 99192 31468 ///// 00071 26/// /0807 10291 29044 30136 90007 333 60000
OOXX AUP06 04001 99192 31468 ///// 00071 26/// /0906 10296 29043 30135 90017 333 60000
OOXX AUP06 04001 99192 31468 ///// 00071 26/// /0906 10297 29042 30135 90027 333 60000
OOXX AUP06 04001 99192 31468 ///// 00071 26/// /0907 10295 29043 30134 90037 333 60000
OOXX AUP06 04001 99192 31468 ///// 00071 26/// /1006 10298 29043 30132 90047 333 60000
OOXX RUP58 03221 99442 11320 ///// 01121 26/// /2201 11250 29078 30038 92252 333 60000
OOXX RUP58 03231 99442 11320 ///// 01121 26/// /1901 11244 29080 30039 92302 333 60000
OOXX RUP58 03231 99442 11320 ///// 01121 26/// /1801 11234 29081 30041 92312 333 60000
OOXX RUP58 03231 99442 11320 ///// 01121 26/// /1801 11219 29082 30040 92322 333 60000
OOXX RUP58 03231 99442 11320 ///// 01121 26/// /2001 11212 29079 30041 92332 333 60000
OOXX RUP58 03231 99442 11320 ///// 01121 26/// /2701 11208 29080 30043 92342 333 60000
OOXX RUP58 03231 99442 11320 ///// 01121 26/// /2201 11194 29079 30042 92352 333 60000
OOXX RUP58 04001 99442 11320 ///// 01121 26/// /0000 11188 29079 30043 90002 333 60000
OOXX RUP58 04001 99442 11320 ///// 01121 26/// /1601 11181 29077 30042 90012 333 60000
OOXX RUP58 04001 99442 11320 ///// 01121 26/// /1401 11175 29074 30041 90022 333 60000
OOXX RUP58 04001 99442 11320 ///// 01121 26/// /0000 11177 29072 30041 90032 333 60000
OOXX RUP58 04001 99442 11320 ///// 01121 26/// /0000 11167 29073 30041 90042 333 60000
OOXX CAP14 03221 99487 71234 ///// 00431 26/// /0000 10082 29087 30130 92240 333 60000
OOXX CAP14 03221 99487 71234 ///// 00431 26/// /1401 10083 29087 30130 92250 333 69920
OOXX CAP14 03231 99487 71234 ///// 00431 26/// /1102 10083 29087 30128 92300 333 69920
OOXX CAP14 03231 99487 71234 ///// 00431 26/// /1702 10086 29086 30131 92310 333 60000
OOXX CAP14 03231 99487 71234 ///// 00431 26/// /1503 10087 29084 30131 92320 333 69920
OOXX CAP14 03231 99487 71234 ///// 00431 26/// /1503 10089 29083 30130 92330 333 60000
OOXX CAP14 03231 99487 71234 ///// 00431 26/// /1404 10091 29081 30131 92340 333 60000
OOXX CAP14 03231 99487 71234 ///// 00431 26/// /1403 10091 29081 30134 92350 333 60000
OOXX CAP14 04001 99487 71234 ///// 00431 26/// /1404 10091 29082 30134 90000 333 60000
OOXX CAP14 04001 99487 71234 ///// 00431 26/// /1404 10091 29082 30135 90010 333 69920
OOXX CAP14 04001 99487 71234 ///// 00431 26/// /1404 10091 29083 30135 90020 333 60000
OOXX CAP14 04001 99487 71234 ///// 00431 26/// /1404 10090 29084 30133 90030 333 69920
OOXX AUP09 03221 99124 31309 ///// 00321 26/// ///// 1//// 29/// 3//// 92218 333 6///0
OOXX AUP09 03221 99124 31309 ///// 00321 26/// ///// 1//// 29/// 3//// 92228 333 6///0
OOXX AUP09 03221 99124 31309 ///// 00321 26/// ///// 1//// 29/// 3//// 92238 333 6///0
OOXX AUP09 03221 99124 31309 ///// 00321 26/// ///// 1//// 29/// 3//// 92248 333 6///0
OOXX AUP09 03221 99124 31309 ///// 00321 26/// ///// 1//// 29/// 3//// 92258 333 6///0
OOXX AUP09 03231 99124 31309 ///// 00321 26/// ///// 1//// 29/// 3//// 92308 333 6///0
OOXX AUP09 03231 99124 31309 ///// 00321 26/// ///// 1//// 29/// 3//// 92318 333 6///0
OOXX AUP09 03231 99124 31309 ///// 00321 26/// ///// 1//// 29/// 3//// 92328 333 6///0
OOXX AUP09 03231 99124 31309 ///// 00321 26/// ///// 1//// 29/// 3//// 92338 333 6///0
OOXX AUP09 03231 99124 31309 ///// 00321 26/// ///// 1//// 29/// 3//// 92348 333 6///0
OOXX AUP09 03231 99124 31309 ///// 00321 26/// ///// 1//// 29/// 3//// 92358 333 6///0
OOXX AUP09 04001 99124 31309 ///// 00321 26/// ///// 1//// 29/// 3//// 90008 333 6///0
OOXX ARP01 03221 99345 50585 ///// 00311 26/// /1601 10109 29036 30119 92210 333 60000
OOXX ARP01 03221 99345 50585 ///// 00311 26/// /1401 10109 29036 30120 92220 333 60000
OOXX ARP01 03221 99345 50585 ///// 00311 26/// /1401 10108 29036 30121 92230 333 60000
OOXX ARP01 03221 99345 50585 ///// 00311 26/// /0000 10108 29036 30121 92240 333 60000
OOXX ARP01 03221 99345 50585 ///// 00311 26/// /1101 10107 29037 30122 92250 333 60000
OOXX ARP01 03231 99345 50585 ///// 00311 26/// /1101 10105 29037 30122 92300 333 60000
OOXX ARP01 03231 99345 50585 ///// 00311 26/// /1101 10104 29038 30122 92310 333 60000
OOXX ARP01 03231 99345 50585 ///// 00311 26/// /1401 10103 29038 30123 92320 333 60000
OOXX ARP01 03231 99345 50585 ///// 00311 26/// /0000 10102 29038 30124 92330 333 60000
OOXX ARP01 03231 99345 50585 ///// 00311 26/// /0000 10102 29038 30125 92340 333 60000
OOXX ARP01 03231 99345 50585 ///// 00311 26/// /0000 10102 29038 30127 92350 333 60000
OOXX ARP01 04001 99345 50585 ///// 00311 26/// /1101 10102 29038 30128 90000 333 60000
OOXX RUP60 03221 99531 11588 ///// 00651 26/// /0310 11052 29058 30073 92252 333 60000
OOXX RUP60 03231 99531 11588 ///// 00651 26/// /0605 11050 29058 30073 92302 333 60000
OOXX RUP60 03231 99531 11588 ///// 00651 26/// /0508 11050 29057 30072 92312 333 60000
OOXX RUP60 03231 99531 11588 ///// 00651 26/// /0706 11049 29056 30072 92322 333 60000
OOXX RUP60 03231 99531 11588 ///// 00651 26/// /0607 11048 29056 30070 92332 333 60000
OOXX RUP60 03231 99531 11588 ///// 00651 26/// /0605 11048 29056 30069 92342 333 60000
OOXX RUP60 03231 99531 11588 ///// 00651 26/// /0609 11048 29055 30068 92352 333 60000
OOXX RUP60 04001 99531 11588 ///// 00651 26/// /0409 11048 29054 30067 90002 333 60000
OOXX RUP60 04001 99531 11588 ///// 00651 26/// /0405 11047 29052 30066 90012 333 60000
OOXX RUP60 04001 99531 11588 ///// 00651 26/// /0805 11046 29051 30065 90022 333 60000
OOXX RUP60 04001 99531 11588 ///// 00651 26/// /0408 11045 29049 30065 90032 333 60000
OOXX RUP60 04001 99531 11588 ///// 00651 26/// /0411 11045 29049 30064 90042 333 60000
OOXX NZP46 03221 99438 51765 ///// 00221 26/// /2609 10162 29057 30151 92230 333 60000
OOXX NZP46 03221 99438 51765 ///// 00221 26/// /2508 10160 29056 30151 92240 333 60000
OOXX NZP46 03221 99438 51765 ///// 00221 26/// /2508 10162 29058 30150 92250 333 60000
OOXX NZP46 03231 99438 51765 ///// 00221 26/// /2608 10163 29057 30149 92300 333 60000
OOXX NZP46 03231 99438 51765 ///// 00221 26/// /2508 10164 29058 30149 92310 333 60000
OOXX NZP46 03231 99438 51765 ///// 00221 26/// /2509 10162 29059 30149 92320 333 60000
OOXX NZP46 03231 99438 51765 ///// 00221 26/// /2509 10162 29059 30148 92330 333 60000
OOXX NZP46 03231 99438 51765 ///// 00221 26/// /2509 10162 29059 30146 92340 333 60000
OOXX NZP46 03231 99438 51765 ///// 00221 26/// /2509 10160 29059 30145 92350 333 60000
OOXX NZP46 04001 99438 51765 ///// 00221 26/// /2509 10164 29058 30145 90000 333 60000
OOXX NZP46 04001 99438 51765 ///// 00221 26/// /2509 10164 29055 30144 90010 333 60000
OOXX NZP46 04001 99438 51765 ///// 00221 26/// /2509 10166 29053 30143 90020 333 60000
OOXX GBP67 03221 99159 50057 ///// 04381 26/// /0602 10173 29083 39675 92210 333 60000
OOXX GBP67 03221 99159 50057 ///// 04381 26/// /0603 10173 29084 39674 92220 333 60000
OOXX GBP67 03221 99159 50057 ///// 04381 26/// /0603 10174 29089 39674 92230 333 60000
OOXX GBP67 03221 99159 50057 ///// 04381 26/// /0703 10171 29091 39674 92240 333 60000
OOXX GBP67 03221 99159 50057 ///// 04381 26/// /0703 10171 29091 39674 92250 333 60000
OOXX GBP67 03231 99159 50057 ///// 04381 26/// /0603 10171 29090 39673 92300 333 60000
OOXX GBP67 03231 99159 50057 ///// 04381 26/// /0703 10170 29085 39671 92310 333 60000
OOXX GBP67 03231 99159 50057 ///// 04381 26/// /0704 10172 29082 39671 92320 333 60000
OOXX GBP67 03231 99159 50057 ///// 04381 26/// /0704 10172 29082 39669 92330 333 60000
OOXX GBP67 03231 99159 50057 ///// 04381 26/// /0704 10171 29085 39669 92340 333 60000
OOXX GBP67 03231 99159 50057 ///// 04381 26/// /0704 10171 29081 39670 92350 333 60000
OOXX GBP67 04001 99159 50057 ///// 04381 26/// /0704 10171 29081 39666 90000 333 60000
OOXX MRP43 03221 99181 70159 ///// 00101 26/// /0304 10227 29012 30168 92250 333 60000
OOXX MRP43 03231 99181 70159 ///// 00101 26/// /0304 10231 29011 30167 92300 333 60000
OOXX MRP43 03231 99181 70159 ///// 00101 26/// /0404 10234 29011 30168 92310 333 60000
OOXX MRP43 03231 99181 70159 ///// 00101 26/// /0405 10234 29011 30168 92320 333 60000
OOXX MRP43 03231 99181 70159 ///// 00101 26/// /0405 10234 29011 30166 92330 333 60000
OOXX MRP43 03231 99181 70159 ///// 00101 26/// /0405 10235 29011 30165 92340 333 60000
OOXX MRP43 03231 99181 70159 ///// 00101 26/// /0406 10236 29011 30167 92350 333 60000
OOXX MRP43 04001 99181 70159 ///// 00101 26/// /0405 10237 29011 30169 90000 333 60000
OOXX MRP43 04001 99181 70159 ///// 00101 26/// /0505 10238 29010 30168 90010 333 60000
OOXX MRP43 04001 99181 70159 ///// 00101 26/// /0605 10238 29010 30169 90020 333 60000
OOXX MRP43 04001 99181 70159 ///// 00101 26/// /0604 10238 29010 30170 90030 333 60000
OOXX MRP43 04001 99181 70159 ///// 00101 26/// /0704 10237 29010 30171 90040 333 60000
OOXX AUP07 03221 99/// ///// ///// ///// 26/// /3603 10066 29081 39945 92253 333 60000
OOXX AUP07 03231 99/// ///// ///// ///// 26/// /0303 10068 29083 39941 92303 333 60000
OOXX AUP07 03231 99/// ///// ///// ///// 26/// /0103 10067 29082 39940 92313 333 60000
OOXX AUP07 03231 99/// ///// ///// ///// 26/// /3503 10065 29082 39934 92323 333 60000
OOXX AUP07 03231 99/// ///// ///// ///// 26/// /0203 10065 29084 39930 92333 333 60000
OOXX AUP07 03231 99/// ///// ///// ///// 26/// /0603 10063 29087 39925 92343 333 60010
OOXX AUP07 03231 99/// ///// ///// ///// 26/// /0604 10061 29088 39922 92353 333 69920
OOXX AUP07 04001 99/// ///// ///// ///// 26/// /0704 10061 29089 39918 90003 333 69940
OOXX AUP07 04001 99/// ///// ///// ///// 26/// /0703 10061 29090 39917 90013 333 69940
OOXX AUP07 04001 99/// ///// ///// ///// 26/// /0604 10061 29091 39914 90023 333 60000
OOXX AUP07 04001 99/// ///// ///// ///// 26/// /0803 10062 29091 39909 90033 333 69980
OOXX AUP07 04001 99/// ///// ///// ///// 26/// /0903 10062 29091 39909 90043 333 69920
OOXX KIP39 03221 99020 51574 ///// 00181 26/// /1105 10289 29072 30128 92230 333 60000
OOXX KIP39 03221 99020 51574 ///// 00181 26/// /1005 10287 29071 30128 92240 333 60000
OOXX KIP39 03221 99020 51574 ///// 00181 26/// /1105 10287 29072 30123 92250 333 60000
OOXX KIP39 03231 99020 51574 ///// 00181 26/// /1105 10289 29070 30124 92300 333 60000
OOXX KIP39 03231 99020 51574 ///// 00181 26/// /1105 10290 29070 30121 92310 333 60000
OOXX KIP39 03231 99020 51574 ///// 00181 26/// /1105 10289 29071 30119 92320 333 60000
OOXX KIP39 03231 99020 51574 ///// 00181 26/// /1105 10289 29071 30117 92330 333 60000
OOXX KIP39 03231 99020 51574 ///// 00181 26/// /1105 10288 29070 30116 92340 333 60000
OOXX KIP39 03231 99020 51574 ///// 00181 26/// /1005 10286 29071 30113 92350 333 60000
OOXX KIP39 04001 99020 51574 ///// 00181 26/// /1005 10288 29073 30114 90000 333 60000
OOXX KIP39 04001 99020 51574 ///// 00181 26/// /1105 10286 29072 30111 90010 333 60000
OOXX KIP39 04001 99020 51574 ///// 00181 26/// /1105 10286 29071 30111 90020 333 60000
OOXX RUP54 03221 99586 10494 ///// 01271 26/// /0704 11101 29090 30007 92227 333 60120
OOXX RUP54 03221 99586 10494 ///// 01271 26/// /0704 11101 29090 30006 92237 333 60120
OOXX RUP54 03221 99586 10494 ///// 01271 26/// /0805 11101 29090 30006 92247 333 60120
OOXX RUP54 03221 99586 10494 ///// 01271 26/// /0704 11101 29090 30005 92257 333 60120
OOXX RUP54 03231 99586 10494 ///// 01271 26/// /0804 11101 29090 30004 92307 333 60120
OOXX RUP54 03231 99586 10494 ///// 01271 26/// /0804 11102 29090 30002 92317 333 60120
OOXX RUP54 03231 99586 10494 ///// 01271 26/// /0604 11102 29090 30001 92327 333 60120
OOXX RUP54 03231 99586 10494 ///// 01271 26/// /0804 11102 29090 30000 92337 333 60120
OOXX RUP54 03231 99586 10494 ///// 01271 26/// /0804 11102 29090 39999 92347 333 60120
OOXX RUP54 03231 99586 10494 ///// 01271 26/// /0805 11103 29090 30000 92357 333 60120
OOXX RUP54 04001 99586 10494 ///// 01271 26/// /0603 11103 29090 39999 90007 333 60120
OOXX RUP54 04001 99586 10494 ///// 01271 26/// /1104 11105 29090 39999 90017 333 60120
OOXX FJP26 03221 99178 31775 ///// 00311 26/// /0204 10315 29064 30063 92220 333 60000
OOXX FJP26 03221 99178 31775 ///// 00311 26/// /0104 10318 29063 30062 92230 333 60000
OOXX FJP26 03221 99178 31775 ///// 00311 26/// /0204 10318 29062 30062 92240 333 60000
OOXX FJP26 03221 99178 31775 ///// 00311 26/// /0104 10320 29062 30061 92250 333 60000
OOXX FJP26 03231 99178 31775 ///// 00311 26/// /3605 10316 29065 30060 92300 333 60000
OOXX FJP26 03231 99178 31775 ///// 00311 26/// /3604 10320 29064 30059 92310 333 60000
OOXX FJP26 03231 99178 31775 ///// 00311 26/// /3404 10322 29064 30057 92320 333 60000
OOXX FJP26 03231 99178 31775 ///// 00311 26/// /3504 10323 29063 30056 92330 333 60000
OOXX FJP26 03231 99178 31775 ///// 00311 26/// /3504 10325 29063 30054 92340 333 60000
OOXX FJP26 03231 99178 31775 ///// 00311 26/// /3605 10325 29061 30053 92350 333 60000
OOXX FJP26 04001 99178 31775 ///// 00311 26/// /3604 10326 29060 30053 90000 333 60000
OOXX FJP26 04001 99178 31775 ///// 00311 26/// /3603 10329 29059 30051 90010 333 60000
AAXX 04004 64870 32930 70000 10133 20038 38916 48513 80002 333 0//00 59006 87080
AAXX 04004 91559 46/// /0000 10320 40055 22200 00298
AAXX 04004 71619 16/// /2810 11139 21199 30032 40092 53020 60001 333 11079 21143 70000
AAXX 04004 71710 16/// /3015 11035 21073 30053 40063 51013 60001 333 10004 21035 70000
AAXX 04004 71723 16/// /3204 11164 21224 30197 40207 53022 60001 333 11145 21164 70000
AAXX 04004 71734 16/// /2105 11239 21272 39804 40224 58007 60001 333 11209 21268 70000
AAXX 04004 71372 16/// /2708 11161 21209 60001 333 11129 21161 70000
AAXX 04004 71390 46/// /3010 11115 6///1 333 11085 21116 7////
AAXX 04004 71431 16/// /3306 11157 21219 30143 40244 51014 60001 333 11130 21157 70000
AAXX 04004 71894 17/// /1017 10088 20088 30121 40130 58003 60821 7//4/ 333 10088 20074 71202
BBXX SHIP 04004 99467 11453 41/95 90316 10020 21021 49929 54000 77377 89/// 22254 00027 20303 329// 41007 80035
BBXX VRBQ6 04004 99467 11453 41/95 90316 10020 21021 49929 54000 77377 89/// 22254 00027 20303 329// 41007 80035
BBXX VRCI9 04004 99529 71456 41/98 /1711 10090 20090 49760 58030 74565 8//// 22264 00046 20604 316// 41007 80090
AAXX 04004 71431 16/// /3306 11157 21219 30143 40244 51014 60001 333 11130 21157 70000
AAXX 04004 71894 17/// /1017 10088 20088 30121 40130 58003 60821 7//4/ 333 10088 20074 71202
AAXX 04004 91531 46/// /0310 1//// 40079 22200 00255
AAXX 04004 85972 11495 83015 10084 20059 40019 57015 60031 75052 887// 333 10900 56799 88717
AAXX 04004 89057 12560 82905 10008 21016 49941 54001 60014 885// 333 10015 20000 56699 88620
AAXX 04004 85577 12965 32005 10249 20098 39522 40108 53005 60001 80001 333 10324 56007 83075
AAXX 04001 29570 115// 20000 11189 21201 39968 40344 52002 69902 78580 82900 333 21189 47015
BBXX 44056 04001 99362 70757 46/// ///// 1//// 90020 22200 00105 10703 20703 70016
AAXX 04004 71016 16/// ///// 10058 60001 333 10067 20017 70004
AAXX 04004 71839 17/// ///// 10063 69931 7//4/ 333 10074 20020 70003
AAXX 04001 01062 11559 81310 11011 21033 30075 40088 55004 60001 71022 885// 333 91114
BBXX 46109 04001 99481 71234 46/// /3102 10082 40197 92357 22200 00077
BBXX 46110 04001 99481 71230 46/// /2302 10081 40189 92358
AAXX 04004 71839 17/// ///// 10063 69931 7//4/ 333 10074 20020 70003
AAXX 04004 71016 16/// ///// 10058 60001 333 10067 20017 70004
BBXX 44055 04001 99391 70753 46/// ///// 1//// 90030 22200 00070 10302 70008
AAXX 04004 91642 46/// /0000 1//// 40102 22200 0////
BBXX SHIP 04004 99290 11355 41398 72627 10175 20125 40144 57008 70322 8681/ 22213 00218 20405 328// 40607 5//// 80145
BBXX 46094 04001 99446 71243 46/// /1609 10108 90030
BBXX 46094 04001 99446 71243 46/// /1308 10107 90020
BBXX 46094 04001 99446 71243 46/// /1509 10108 90010
BBXX 46094 04001 99446 71243 46/// /1409 10109 90000
BBXX 46094 04001 99446 71243 46/// /1609 10109 92350
BBXX 46094 04001 99446 71243 46/// /1409 10109 92340
BBXX SHIP 04004 99290 11355 41398 72627 10175 20125 40144 57008 70322 8681/ 22213 00218 20405 328// 40607 5//// 80145
BBXX UGOD 04001 99453 11373 42998 02904 11005 40055 57001 22213 00018 20301 30700 40302
BBXX 46094 04001 99446 71243 46/// /1609 10109 92350
BBXX 46094 04001 99446 71243 46/// /1409 10109 92340
BBXX 46094 04001 99446 71243 46/// /1308 10107 90020
BBXX 46094 04001 99446 71243 46/// /1609 10108 90030
BBXX 46094 04001 99446 71243 46/// /1409 10109 90000
BBXX 46094 04001 99446 71243 46/// /1509 10108 90010
BBXX 44055 04001 99391 70753 46/// ///// 1//// 90030 22200 00070 10302 70008
BBXX 46110 04001 99481 71230 46/// /2302 10081 40189 92358
BBXX 46109 04001 99481 71234 46/// /3102 10082 40197 92357 22200 00077
BBXX 44056 04001 99362 70757 46/// ///// 1//// 90020 22200 00105 10703 20703 70016
BBXX 66022 04001 99541 10142 46/// /2313 10073 39940 22200 00040
BBXX ELWP5 04001 99356 70050 41998 09901 10160 20108 40383 51010 70200 80000 22221 2//// 3//// 4//// 5//// 80130
AAXX 04004 89667 46/// /1916 11034 39848 4//// 5////
AAXX 0400/ 89872 46/// ///// 11025 39778 4//// 5//// 90010
AAXX 0400/ 89872 46/// ///// 11029 39778 4//// 5//// 90020
AAXX 0400/ 89869 46/// ///// 11030 39790 4//// 5////
AAXX 0400/ 89869 46/// ///// 11029 39790 4//// 5//// 90010
AAXX 0400/ 89866 46/// ///// 11014 39748 4//// 5//// 90010
AAXX 0400/ 89329 46/// ///// 11081 38746 4//// 5//// 90010
AAXX 0400/ 89329 46/// ///// 11083 38746 4//// 5//// 90020
AAXX 0400/ 89799 46/// ///// 11229 4//// 5//// 90010
AAXX 0400/ 89868 46/// ///// 11043 39781 4//// 5//// 90010
AAXX 0400/ 89868 46/// ///// 11043 39781 4//// 5//// 90020
AAXX 0400/ 89332 46/// ///// 11040 39227 4//// 5////
AAXX 0400/ 89332 46/// ///// 11040 39226 4//// 5//// 90010
AAXX 0400/ 89332 46/// ///// 11040 38765 4//// 5//// 90020
AAXX 0400/ 89769 46/// ///// 11034 39809 4//// 5//// 90010
AAXX 0400/ 89769 46/// ///// 11034 39810 4//// 5//// 90020
AAXX 0400/ 89314 46/// ///// 11098 38207 4//// 5//// 90010
AAXX 0400/ 89314 46/// ///// 11095 38208 4//// 5//// 90020
AAXX 0400/ 89108 46/// ///// 11214 36918 4//// 5////
AAXX 0400/ 89108 46/// ///// 11219 36918 4//// 5//// 90010
AAXX 0400/ 89879 46/// ///// 10031 39750 4//// 5//// 90010
BBXX ELWP5 04001 99356 70050 41998 09901 10160 20108 40383 51010 70200 80000 22221 2//// 3//// 4//// 5//// 80130
BBXX SHIP 04004 99164 70645 41998 30912 10270 20229 40152 54000 70200 83131 22223 00269 20801 363// 40801
AAXX 04004 89507 46/89 /1204 11303 29067 36806 4//// 5////
AAXX 04004 89253 46/// /0302 49372 5////
AAXX 04004 71529 46/// /2607 11170 21197 39879 40111 53029 6///1 333 11079 21171 7////
AAXX 04004 71539 16/// /2807 11012 21041 39483 40183 50014 60001 333 10052 21012 70000
AAXX 04004 89659 46/// /2807 11191 29064 37622 4//// 5////
AAXX 04004 71529 46/// /2607 11170 21197 39879 40111 53029 6///1 333 11079 21171 7////
AAXX 04004 71539 16/// /2807 11012 21041 39483 40183 50014 60001 333 10052 21012 70000
AAXX 04004 92036 46/// /3603 10288 40104 22200 00312
AAXX 04001 33761 31396 83201 10016 20011 39993 40221 57007 71022 886// 333 88707
BBXX 63106 04004 99610 10017 46/// /3231 10055 49765 52042 22200
BBXX 63113 04004 99610 10017 46/// /3333 10059 20015 49766 52046 22200 10708 70041
BBXX 62123 04004 99563 10022 41/96 /2839 10072 49894 53068 70222 8//// 22200 20302 326// 40620 5////
BBXX 62304 04004 99511 10018 46/98 /2635 10085 20025 40087 50000 22200 00105 10603 70014 333 90710 91146
BBXX 62103 04004 99499 70029 46/98 /3034 10105 20039 40158 52020 22200 00115 10908 70038 333 90710 91147
BBXX 62305 04004 99504 10000 46/97 /2834 10098 20034 40133 52012 22200 00113 10805 70025 333 90710 91150
BBXX 62094 04004 99517 70067 46/// /2826 10086 20044 40168 52039 22200 00104 10808 70039 333 90710 91136
AAXX 04001 33761 31396 83201 10016 20011 39993 40221 57007 71022 886// 333 88707
BBXX MINUK04 0400/ 99529 10025 46/// ///// 10070 4//// 57001
AAXX 04004 91689 46/// /0607 10312 40079 22200 00289
BBXX ZSAF 04004 99695 50002 41392 82206 11055 21066 49876 57004 70311 886// 22281 05014 20000 30000 40000 50000 ICE 48617
BBXX ELNY2 04004 99226 10699 41797 40502 10240 20211 40110 57/// 7//00 84474 22200 00260 2//// 3//// 4//// 5//// 6//// 80220 ICE /////
BBXX WDE2542 04003 99260 70620 41597 71825 10250 2022/ 40185 52010 76221 872// 22223 0//// 20604 310// 41205 5//// 6//// 80230 ICE /////
AAXX 04004 41506 02694 80000 10010 21003 48518 60002 8442/ 333 5699/ 59028 60007 84640 84460
AAXX 04004 41508 22996 30000 10000 21028 48522 60002 80002 333 56009 59027 60007 83070
AAXX 04004 41523 02996 00000 10030 21024 48501 60002 333 56000 59033 60007
AAXX 04004 41535 12997 00000 10010 21003 48473 60002 333 59014
AAXX 04004 41536 02996 60000 10050 21014 48469 60002 80001 333 56009 59023 60007 86070
AAXX 04004 41573 12996 23102 10020 21032 48480 60002 333 59028
AAXX 04004 41600 01/91 90000 10055 20055 39829 40137 60002 74740 8//// 333 59027 60007
AAXX 04004 41630 11995 50000 10090 20057 40140 60002 70410 85070 333 56090 59028 85360
AAXX 04004 41678 11696 20000 10100 20067 40141 60002 71000 82500 333 56900 59027 60007 82640
AAXX 04004 41696 NIL
AAXX 04004 41697 02996 00000 10102 20044 39961 40124 60002 333 59035 60007
AAXX 04004 417 00 11994 01302 10080 20046 39987 40121 60002 70400 59031
AAXX 04004 41725 02996 00000 10075 20053 30033 40115 60002 333 59047 60007
AAXX 04004 41746 01995 03602 10075 20053 30090 40148 60002 70500 333 59016 60007
AAXX 04004 41759 12696 50000 10155 20118 30142 40148 60002 85500 333 56900 59016 85630
AAXX 04004 41785 02996 00000 10130 20068 30106 40119 60002 333 59029 60007
AAXX 04004 41515 02695 80000 10029 21058 38566 48527 60002 8552/ 333 5699/ 59015 60007 85650 83458
AAXX 04004 41560 22696 43603 11040 21164 38287 48524 60002 83230 333 59001 60007
AAXX 04004 41571 116// 50000 10045 20022 39551 40160 60002 71011 82530 333 56990 59018
AAXX 04004 41594 NIL
AAXX 04004 41685 32993 50000 10040 21027 38898 48469 85020 333 56090 59018 85460
AAXX 04004 41710 02997 40502 10070 21101 39307 40102 60002 80002 333 56009 59039 60007 84070
AAXX 04004 41718 11996 00000 10060 20036 30020 40130 60002 70400 333 59039
AAXX 04004 41739 02996 00000 10060 21033 39023 48465 60002 333 59012 60007
AAXX 04004 41744 32996 00000 10030 21079 38769 48484 333 59014
AAXX 04004 41749 21994 00000 10110 20090 30109 40142 60002 71000 333 59022 60007
AAXX 04004 41529 12695 70000 10072 20035 39758 40153 60002 83520 333 56990 59024 83640 84460
AAXX 04004 41598 11995 00000 10050 20025 39860 40145 60002 71000 333 59040
AAXX 04004 41620 32695 41805 10020 21036 38580 48481 84500 333 56900 59021 84640
AAXX 04004 41624 02695 30502 10095 20051 39921 40128 60002 82530 333 56990 59050 60007 82637 83364
AAXX 04004 41640 01695 80000 10105 20074 39883 40140 60002 70420 8251/ 333 5699/ 59022 60007 82649 86461
AAXX 04004 41660 017// 70908 10040 20014 38397 48490 60012 76065 84520 333 56990 59010 60017 84650 86460
AAXX 04004 41675 11995 60000 10120 20056 39982 40125 60002 70400 86030 333 56090 59029 86372
AAXX 04004 41712 12996 00902 10050 21030 39165 48460 60002 333 59031
AAXX 04004 41715 01994 00000 10080 20058 30060 40128 60002 70400 333 59032 60007
AAXX 04004 41756 01593 42302 10180 20172 30048 40113 60002 74404 84400 333 56900 59030 60007 84625
AAXX 04004 41764 32996 01802 10135 20096 30061 40112 60001 333 59043 60007
AAXX 04004 41768 02996 00000 10050 20025 30135 40142 60002 333 59018 60007
AAXX 04004 41780 02596 30000 10180 20146 30099 40127 60002 83600 333 56900 59034 60007 83720
AAXX 04004 41515 02695 80000 10029 21058 38566 48527 60002 8552/ 333 5699/ 59015 60007 85650 83458
AAXX 04004 41560 22696 43603 11040 21164 38287 48524 60002 83230 333 59001 60007
AAXX 04004 41571 116// 50000 10045 20022 39551 40160 60002 71011 82530 333 56990 59018
AAXX 04004 41594 NIL
AAXX 04004 41685 32993 50000 10040 21027 38898 48469 85020 333 56090 59018 85460
AAXX 04004 41710 02997 40502 10070 21101 39307 40102 60002 80002 333 56009 59039 60007 84070
AAXX 04004 41718 11996 00000 10060 20036 30020 40130 60002 70400 333 59039
AAXX 04004 41739 02996 00000 10060 21033 39023 48465 60002 333 59012 60007
AAXX 04004 41744 32996 00000 10030 21079 38769 48484 333 59014
AAXX 04004 41749 21994 00000 10110 20090 30109 40142 60002 71000 333 59022 60007
AAXX 04004 96207 31450 70000 10192 20185 39240 40162 52002 70522 84531 20166 333 56000 84615
AAXX 04004 41529 12695 70000 10072 20035 39758 40153 60002 83520 333 56990 59024 83640 84460
AAXX 04004 41598 11995 00000 10050 20025 39860 40145 60002 71000 333 59040
AAXX 04004 41620 32695 41805 10020 21036 38580 48481 84500 333 56900 59021 84640
AAXX 04004 41624 02695 30502 10095 20051 39921 40128 60002 82530 333 56990 59050 60007 82637 83364
AAXX 04004 41640 01695 80000 10105 20074 39883 40140 60002 70420 8251/ 333 5699/ 59022 60007 82649 86461
AAXX 04004 41660 017// 70908 10040 20014 38397 48490 60012 76065 84520 333 56990 59010 60017 84650 86460
AAXX 04004 41675 11995 60000 10120 20056 39982 40125 60002 70400 86030 333 56090 59029 86372
AAXX 04004 41712 12996 00902 10050 21030 39165 48460 60002 333 59031
AAXX 04004 41715 01994 00000 10080 20058 30060 40128 60002 70400 333 59032 60007
AAXX 04004 41756 01593 42302 10180 20172 30048 40113 60002 74404 84400 333 56900 59030 60007 84625
AAXX 04004 41764 32996 01802 10135 20096 30061 40112 60001 333 59043 60007
AAXX 04004 41768 02996 00000 10050 20025 30135 40142 60002 333 59018 60007
AAXX 04004 41780 02596 30000 10180 20146 30099 40127 60002 83600 333 56900 59034 60007 83720
AAXX 04004 83096 32695 20908 10266 20216 30130 40137 82500 333 10307 29073 55097 58023
AAXX 04004 83186 32597 21402 10291 20192 39567 40087 81204 333 10354 29056 55075 58017
AAXX 04004 83236 21597 60503 10212 20195 39634 40130 75566 86700 333 10260 29/// 55000 58017 60041
AAXX 04004 83242 34195 73602 10258 20237 39633 40123 87700 333 10296 29083 55063 58022
AAXX 04004 83288 21995 01403 10225 20222 39639 40133 70066 333 10251 29093 55000 58023 60041
AAXX 04004 83344 32496 60000 10207 20199 39171 40131 86500 333 10249 29089 55000 58024
BBXX A8LK7 04004 99397 70176 41098 52324 10170 20135 40340 52/// 70322 84/// 22254 20503 80150
BBXX ELWP5 04001 99356 70050 41998 09901 10160 20108 40383 51010 70200 80000 22221 2//// 3//// 4//// 5//// 80130
BBXX VRCU7 04003 99372 10047 41598 23215 10160 20103 40238 54000 70150 8/1// 22264 04135 2//// 332// 40000 80130
BBXX SKEC 04001 99619 10197 46/// ///// 10026 49776 57090 22245 00034
BBXX ELNY2 04004 99226 10699 41797 40502 10240 20211 40110 57/// 7//00 84474 22200 00260 2//// 3//// 4//// 5//// 6//// 80220 ICE /////
BBXX MINUK04 0400/ 99529 10025 46/// ///// 10070 4//// 57001
BBXX WDE2542 04003 99260 70620 41597 71825 10250 2022/ 40185 52010 76221 872// 22223 0//// 20604 310// 41205 5//// 6//// 80230 ICE /////
BBXX SHIP 04004 99164 70645 41998 30912 10270 20229 40152 54000 70200 83131 22223 00269 20801 363// 40801
AAXX 04004 89514 32699 10202 11040 49836 57009 81070 333 10028 21045 81340
BBXX UGOD 04001 99453 11373 42998 02904 11005 40055 57001 22213 00018 20301 30700 40302
BBXX 46092 04001 99368 71220 46/// /2905 10120 40239 56007 90017 22200 00118 555 11051 22051
AAXX 04004 82979 326935//// 10269 20210 39653 40096 85070 333 10334 29065 55045 58019
AAXX 04004 82986 32995 00911 10293 20222 39818 40097 333 10376 29053 55094 58014
AAXX 04004 83179 21594 82303 10229 20222 39656 40105 70266 885// 333 10324 29081 55037 58012 60061
AAXX 04004 83192 32895 20905 10272 20182 39958 40121 82040 10365 29050 55039 58010
AAXX 04004 83339 31495 82700 10197 20186 39152 40117 71000 885// 333 10228 29093 55000 58018
AAXX 04001 33275 /1397 83006 10013 20002 39942 40169 52013 76186 8772/ 333 88707 555 60011
AAXX 04001 33275 /1397 83006 10013 20002 39942 40169 52013 76186 8772/ 333 87707 555 60011
AAXX 04001 98132 31462 80703 10219 20178 40237 52030 70544 8427/ 333 20185 56999 58018 84817 88357
AAXX 04001 98133 31567 80903 10/// 20/// 40184 5//// 70544 8427/ 222// 20602 333 20/// 56299 58014 84820 88360
AAXX 04001 98222 31470 13602 10241 20194 40139 53014 70544 81230 333 20215 56819 58010 81819
AAXX 04001 98233 31565 73602 10223 20199 40166 52018 70544 82570 333 20182 56899 58010 82620 87358 555 0////
AAXX 04001 98324 31465 70902 10268 20248 40139 52015 70544 81250 333 20245 56999 58007 81816 87358
AAXX 04001 98327 11560 70402 10252 20209 39981 40157 52018 69904 78084 84470 333 20227 56999 58013 79999 84625 87359 555 29999
AAXX 04001 98334 11465 83605 10218 20216 39960 40167 52025 60094 71666 8422/ 333 20208 56119 58012 70087 84817 88457 555 20025
AAXX 04001 98425 11558 83601 10251 20222 40148 52021 60044 70564 8687/ 333 20245 56999 58018 70036 86618 88457 555 20010
AAXX 04001 98426 11470 70905 10249 20208 40151 52019 69924 70544 81170 333 20243 56999 58014 70002 81818 87358
AAXX 04001 98427 11468 80000 10235 20214 39966 40146 53020 60444 76166 8327/ 333 20220 56999 58019 70437 83818 88357 555 20306
AAXX 04001 98428 11460 60402 10252 20237 40142 52019 60064 71568 82471 333 20248 56999 58011 70058 82618 84359 555 20030
AAXX 04001 98432 11464 80402 10250 20239 40146 52007 76086 8387/ 333 20239 56199 58011 70026 83618 88356
AAXX 04001 98433 11462 80905 10205 20198 39415 40142 55019 60184 76064 8487/ 333 20193 56999 58008 70184 84612 88357 555 20142
AAXX 04001 98434 11459 83602 10250 20241 30147 40155 53027 61004 76166 8552/ 333 20230 56199 58011 70997 85617 88457 555 20594
AAXX 04001 98435 NIL
AAXX 04001 98442 NIL
AAXX 04001 98446 NIL
AAXX 04001 98447 11470 60403 10248 20238 39875 40140 5//// 60254 72582 83208 222// 333 20/// 56299 58007 70248 83818 85270 555 20122
AAXX 04001 98538 31466 30202 10275 20248 30130 40035 53035 70540 82201 333 20260 56199 58010 82811
AAXX 04001 98546 32575 60000 10250 20243 30130 40138 52024 83261 333 20240 56199 58010 83820 83360
AAXX 04001 98548 11475 70402 10255 20242 30122 40128 53022 69964 70382 84278 333 20230 56299 58004 70006 84816 87272 98312 555 20006
AAXX 04001 98553 11462 83601 10263 20251 30130 40134 52026 60064 71584 84977 333 20236 56999 58008 70055 83915 84358 88272 555 20055
AAXX 04001 98558 11466 80607 10266 20256 40130 53028 60054 70582 8357/ 222// 20600 333 20232 56999 58001 70046 83615 88357
AAXX 04001 98642 32465 73402 10269 20240 30111 40120 52025 82270 333 20248 56199 59004 82815 87358
AAXX 04001 98644 31465 80904 10258 20242 30117 40126 53027 70542 81277 333 20228 56199 58004 81817 83358 88272
AAXX 04001 98648 31470 70000 10260 20247 30041 40123 52019 70544 82262 333 20210 56299 58005 82817 83358 86072
AAXX 04001 98746 11465 71202 10267 20228 40110 52027 60124 70596 83277 333 20226 56999 58001 70121 83818 84358 86275
AAXX 04001 98751 11475 70000 10209 20202 39446 40123 51014 69934 70584 83270 333 20166 56999 58000 70003 83815 85356 555 20003
AAXX 04001 98752 11465 71801 10263 20236 40125 52015 69924 71522 333 20240 56999 59001 70002 82616 85358 87272
AAXX 04001 98851 11470 70401 10262 20242 39965 40114 52020 69984 71542 82978 333 20226 56999 58005 70008 82918 84358 87275
BBXX 62123 04004 99563 10022 47997 /2837 10072 20020 49874 52051 700// 22200
BBXX 63106 04004 99610 10017 46/// /3231 10055 49765 52042 22200
BBXX 63105 04004 99610 10017 47597 ///// 10058 20014 49763 52041 700// 22200
BBXX 62305 04004 99504 10000 46/97 /2834 10098 20034 40133 52011 22200 00113 10805 70025 333 90710 91148
BBXX 62304 04004 99511 10018 46/98 /2635 10085 20025 40085 58001 22200 00105 106// 333 90710 91149
BBXX 62094 04004 99517 70067 46/// /2826 10086 20044 40168 52039 22200 00104 10809 70044 333 90710 91136
BBXX 62103 04004 99499 70029 46/98 /3036 10104 20037 40154 53019 22200 00115 10908 70038 333 90710 91149
BBXX ONGI 04004 99270 30038 41798 61413 10220 20174 40210 54000 7//21 851// 22233 00210 20403 312// 40201 5//// 6//// 80190 ICE /////
BBXX 9V7645 04003 99483 71328 410// 81430 10110 20110 49965 58100 74744 88/// 22274 04080 21006 321// 40807 5//// 6//// 80110 ICE /////
BBXX SKEC 04001 99619 10197 46/// ///// 10026 49776 57090 22245 00034
BBXX 9V7645 04003 99483 71328 410// 81430 10110 20110 49965 58100 74744 88/// 22274 04080 21006 321// 40807 5//// 6//// 80110 ICE /////
BBXX 46092 04001 99368 71220 46/// /2905 10120 40239 56007 90017 22200 00118 555 11051 22051
BBXX ZSAF 04004 99695 50002 41392 82206 11055 21066 49876 57004 70311 886// 22281 05014 20000 30000 40000 50000 ICE 48617
BBXX ONGI 04004 99270 30038 41798 61413 10220 20174 40210 54000 7//21 851// 22233 00210 20403 312// 40201 5//// 6//// 80190 ICE /////
AAXX 04001 33275 /1397 83006 10013 20002 39942 40169 52013 76186 8772/ 333 87707 555 60011
BBXX TESTFR9 04004 99500 70038 46/// /3029 10098 29070 40194 22234
BBXX BAREU63 04004 99328 10206 46/// /2111 10148 29074 40239 57007 22213
BBXX BAREU05 04004 99365 70019 46/// ///// 40322 57004 22224
BBXX PCEO 04003 99141 70656 41699 40605 10260 20221 40154 52015 7//// 8/5// 22254 04265 20701 3//// 4//// 5//// 80232
BBXX BAREU08 04004 99308 70437 46/// ///// 40309 52011 22254
BBXX BAREU04 04004 99450 70531 46/// ///// 40061 57008 22223
AAXX 04001 33275 /1397 83006 10013 20002 39942 40169 52013 76186 8772/ 333 88707 555 60011
AAXX 04004 96207 31450 70000 10192 20185 39240 40162 52002 70522 84531 333 20166 56000 84615
AAXX 04004 71408 46/// /1707 10014 21001 39972 40051 50003 6///1 333 10033 20011 7////
AAXX 04031 98435 11465 80402 10249 20231 40153 5//// 60254 76166 8527/ 333 20212 56999 58016 70247 85816 88357 555 20184
AAXX 04031 98446 11480 60202 10248 20237 30110 40156 51027 60334 72162 84201 333 20230 56199 58016 70334 84818 555 20228
BBXX 42013 04001 99272 70829 46/// ///// 1//// 40281 90020 22200 00194
BBXX 42013 04001 99272 70829 46/// ///// 1//// 40283 51011 90000 22200 00194
BBXX 42369 04001 99272 70903 46/// /0605 1//// 92340 22200 10604 70018
BBXX 42370 04001 99273 70905 46/// ///// 10132 92340 22200 10604 70018
BBXX 42376 04001 99291 70879 46/// /3307 10091 40328 92340 22200 10403 70013
BBXX 42392 04001 99272 70900 46/// ///// 1//// 92340 22200 10503 70014
BBXX 42887 04001 99282 70885 46/// /0506 10133 92340 22200 10503 70014
BBXX TESTFR9 04004 99500 70038 46/// /3029 10098 29070 40194 22234
BBXX BAREU05 04004 99365 70019 46/// ///// 40322 57004 22224
BBXX BAREU63 04004 99328 10206 46/// /2111 10148 29074 40239 57007 22213
BBXX 42376 04001 99291 70879 46/// /3307 10091 40328 92340 22200 10403 70013
BBXX 42369 04001 99272 70903 46/// /0605 1//// 92340 22200 10604 70018
BBXX 42887 04001 99282 70885 46/// /0506 10133 92340 22200 10503 70014
BBXX 42392 04001 99272 70900 46/// ///// 1//// 92340 22200 10503 70014
BBXX 42370 04001 99273 70905 46/// ///// 10132 92340 22200 10604 70018
BBXX 42013 04001 99272 70829 46/// ///// 1//// 40281 90020 22200 00194
BBXX 42013 04001 99272 70829 46/// ///// 1//// 40283 51011 90000 22200 00194
BBXX VRDX2 04003 99239 31532 41/97 /1217 10260 20202 40153 7//// 8/774 22234 00275 20906
BBXX 63106 04004 99610 10017 46/// /3231 10055 49765 52042 22200
BBXX 63113 04004 99610 10017 46/// /3333 10059 20015 49766 52046 22200 10708 70041
BBXX 62123 04004 99563 10022 41/96 /2839 10072 49894 53068 70222 8//// 22200 20302 326// 40620 5////
BBXX 62304 04004 99511 10018 46/98 /2635 10085 20025 40087 50000 22200 00105 10603 70014 333 90710 91146
BBXX 62103 04004 99499 70029 46/98 /3034 10105 20039 40158 52020 22200 00115 10908 70038 333 90710 91147
BBXX 62305 04004 99504 10000 46/97 /2834 10098 20034 40133 52012 22200 00113 10805 70025 333 90710 91150
BBXX 62094 04004 99517 70067 46/// /2826 10086 20044 40168 52039 22200 00104 10808 70039 333 90710 91136
AAXX 0400/ 68902 46/// ///// 40095 57014
BBXX DCLH2 04000 99296 11515 41698 42315 10200 20116 40110 55005 70222 831// 22264 06210 20102 331// 40103 5//// 80150
BBXX SHIP 04004 99311 11283 41697 83330 10100 20060 40238 51010 70366 86627 22213 00180 20606 333// 40906 80080
BBXX SHIP 04004 99221 71569 41798 60624 10230 20201 40201 56025 85856 22263 00249 20507 307// 40406 80210
AAXX 04004 71935 12974 12906 11175 21183 39943 40158 53018 60001 80001 333 11008 21177 70000
AAXX 04004 71935 12974 12906 11175 21183 39943 40158 53018 60001 80001 333 11008 21177 70000
AAXX 04004 71935 12974 12906 11175 21191 39943 40158 53018 60001 80001 333 11008 21177 70000
BBXX 9V7645 04003 99483 71328 410// 81430 10110 20110 49965 58100 74744 88/// 22274 04080 21006 321// 40807 5//// 6//// 80110 ICE /////
AAXX 04004 71935 12974 12906 11175 21191 39943 40158 53018 60001 80001 333 11008 21177 70000
AAXX 04004 89610 46/// /0000 39682 4//// 5////
AAXX 04004 89610 46/// /0000 39682 4//// 5////
AAXX 04004 71522 46/// /2906 11186 21220 39633 40143 51019 6///1 333 21217 70000
AAXX 04004 89610 46/// /0000 39682 4//// 5////
BBXX A8TX8 04003 99146 31498 41598 31220 10295 20238 40110 58005 70200 83200 22234 04290 21203 30000 80255
BBXX A8TX8 04003 99146 31498 41598 31220 10295 20238 40110 58005 70200 83200 22234 04290 21203 30000 80255
BBXX SHIP 04004 99311 11283 41697 83330 10100 20060 40238 51010 70366 86627 22213 00180 20606 333 // 40906 80080
BBXX SHIP 04004 99311 11283 41697 83330 10100 20060 40238 51010 70366 86627 22213 00180 20606 333// 40906 80080
BBXX DCLH2 04000 99296 11515 41698 42315 10200 20116 40110 55005 70222 831// 22264 06210 20102 331// 40103 5//// 80150
BBXX SHIP 04004 99221 71569 41798 60624 10230 20201 40201 56025 85856 22263 00249 20507 307// 40406 80210
AAXX 04003 63661 32980 00000 10132 20065 48534 333 59001
AAXX 04003 63695 32980 02502 10130 20103 333
AAXX 04003 63708 32980 10000 10174 20132 48479 80001 333 58001 81075
BBXX ONGI 04004 99270 30038 41798 61413 10220 20174 40210 54000 7//21 851// 22233 00210 20403 312// 40201 5//// 6//// 80190 /////
BBXX V7PW3 04003 99360 70068 41498 23312 10158 20105 40313 58005 70200 821// 22264 00171 2//// 80130
BBXX V7PW3 04003 99360 70068 41498 23312 10158 20105 40313 58005 70200 821// 22264 00171 2//// 80130
BBXX V7PW3 04003 99360 70068 41498 23312 10158 20105 40313 58005 70200 821// 22264 00171 2//// 80130
AAXX 04004 89013 46/// /0105 11214 21246 37629 49666 52007 90040
AAXX 04004 91375 46/// /1208 10288 40114 22200 00283
AAXX 04004 71142 15966 02017 10025 21011 39197 40166 58010 60001 333 10050 20007 70000
BBXX 42369 04001 99272 70903 46/// /0604 1//// 90000 22200 10604 70018
BBXX 42370 04001 99273 70905 46/// ///// 10131 90000 22200 10503 70015
BBXX 42376 04001 99291 70879 46/// /3406 10093 40330 90000 22200 10402 70012
BBXX 42392 04001 99272 70900 46/// ///// 1//// 90000 22200 10503 70014
BBXX 42887 04001 99282 70885 46/// /0304 10132 90000 22200 10503 70014
AAXX 04004 91165 32966 00509 10261 20194 30159 40193 56023 92353
AAXX 04004 91203 32474 80812 10283 20257 30131 40136 51007 81411
AAXX 04004 91212 11464 60507 10267 20239 31401 40136 51010 60021 761// 92354
AAXX 04004 91245 32766 41203 10270 20230 30161 92350
AAXX 04004 91285 32566 83005 10240 20210 30178 90011
AAXX 04004 91317 32474 60806 10294 20272 30112 40116 82101
AAXX 04004 91324 32474 80908 10289 20249 30105 40107 83211
AAXX 04004 91334 11474 80607 10285 20246 30120 40123 53019 60024 70282 83371
AAXX 04004 91348 11474 50706 10300 20255 30066 40119 55003 60044 70282 81171
AAXX 04004 91353 32474 80506 10311 20253 30092 40099 5//// 83202
AAXX 04004 91367 32474 51006 10311 20267 83105
AAXX 04004 91376 32474 61309 10290 20240 30111 92350
AAXX 04004 91408 32474 60811 10297 20255 30078 40116 52017 83271
AAXX 04004 91413 32469 70912 10308 20250 30100 40125 51007 81138
AAXX 04004 91425 11474 60905 10294 20272 30108 40109 5//// 60054 70282 82206
AAXX 04004 91434 11474 81003 10278 20246 30136 40137 5//// 60034 70282 882//
AAXX 04004 91155 NIL
AAXX 04004 91217 NIL
AAXX 04004 91232 NIL
AAXX 04004 91250 NIL
AAXX 04004 91275 NIL
AAXX 04004 91339 NIL
AAXX 04004 91356 NIL
AAXX 04004 91366 NIL
AAXX 04004 91369 NIL
AAXX 04004 91371 NIL
AAXX 04004 91378 NIL
AAXX 04004 91601 NIL
AAXX 04004 91610 NIL
BBXX 62123 04004 99563 10022 47997 /2837 10072 20020 49874 52051 700// 22200
BBXX 63106 04004 99610 10017 46/// /3231 10055 49765 52042 22200
BBXX 63105 04004 99610 10017 47597 ///// 10058 20014 49763 52041 700// 22200
BBXX 62305 04004 99504 10000 46/97 /2834 10098 20034 40133 52011 22200 00113 10805 70025 333 90710 91148
BBXX 62304 04004 99511 10018 46/98 /2635 10085 20025 40085 58001 22200 00105 106// 333 90710 91149
BBXX 62094 04004 99517 70067 46/// /2826 10086 20044 40168 52039 22200 00104 10809 70044 333 90710 91136
BBXX 62103 04004 99499 70029 46/98 /3036 10104 20037 40154 53019 22200 00115 10908 70038 333 90710 91149
BBXX WDC8227 04003 99573 71549 41395 83231 1//// 2//// 49935 57/// 71042 886// 22200 0//// 20202 332// 4//05 5//// 61011 8//// ICE /////
AAXX 04004 91165 32966 00509 10261 20194 30159 40193 56023 92353
AAXX 04004 91212 11464 60507 10267 20239 31401 40136 51010 60021 761// 92354
AAXX 04004 91285 32566 83005 10240 20210 30178 90011
AAXX 04004 91317 32474 60806 10294 20272 30112 40116 82101
AAXX 04004 91334 11474 80607 10285 20246 30120 40123 53019 60024 70282 83371
AAXX 04004 91348 11474 50706 10300 20255 30066 40119 55003 60044 70282 81171
AAXX 04004 91376 32474 61309 10290 20240 30111 92350
AAXX 04004 91408 32474 60811 10297 20255 30078 40116 52017 83271
AAXX 04004 91413 32469 70912 10308 20250 30100 40125 51007 81138
AAXX 04004 91425 11474 60905 10294 20272 30108 40109 5//// 60054 70282 82206
AAXX 04004 91434 11474 81003 10278 20246 30136 40137 5//// 60034 70282 882//
AAXX 04004 91245 32766 41203 10270 20230 30161 92350
AAXX 04004 91353 32474 80506 10311 20253 30092 40099 5//// 83202
BBXX A8TX8 04003 99146 31498 41598 31220 10295 20238 40110 58005 70200 83200 22234 04290 21203 30000 80255
BBXX 42392 04001 99272 70900 46/// ///// 1//// 90000 22200 10503 70014
BBXX 42887 04001 99282 70885 46/// /0304 10132 90000 22200 10503 70014
BBXX 42370 04001 99273 70905 46/// ///// 10131 90000 22200 10503 70015
BBXX 42376 04001 99291 70879 46/// /3406 10093 40330 90000 22200 10402 70012
BBXX 42369 04001 99272 70903 46/// /0604 1//// 90000 22200 10604 70018
BBXX V7PW3 04003 99360 70068 41498 23312 10158 20105 40313 58005 70200 821// 22264 00171 2//// 80130
BBXX SHIP 04004 99311 11283 41697 83330 10100 20060 40238 51010 70366 86627 22213 00180 20606 333 // 40906 80080
AAXX 04004 71721 16/// /3103 11196 21240 39971 40233 51017 60001 333 11184 21229 70000
AAXX 04004 71494 16/// /3010 11203 21236 39616 40163 51016 60001 333 11170 21203 70000
AAXX 04004 71301 17/// ///// 11222 21244 39785 40210 58013 69941 7//4/ 333 11189 21263 70007
AAXX 04004 44404 42460 81202 10034 20034 38119 48476 888// 333 59004
AAXX 04004 44406 NIL
AAXX 04004 44409 NIL
AAXX 04004 44416 41/00 /0000 10072 20067 39356 40130 749// 8//// 333 58001
AAXX 04004 44418 41/01 90000 10112 20112 39952 40147 745// 89/// 333 58000
AAXX 04004 44424 42665 10904 11048 21051 37663 47090 81100 333 59009
AAXX 04004 44429 NIL
AAXX 04004 44434 NIL
AAXX 04004 44438 41/00 90000 10120 20120 30015 40144 745// 89/// 333 58000
AAXX 04004 44449 41/05 90000 10130 20120 39990 40148 745// 333 58000
AAXX 04004 44454 42356 70000 10039 20034 38650 48483 85730 333 58002
AAXX 04004 44462 42960 00000 10062 2//// 38243 48465 333 59008
AAXX 04004 44474 NIL
AAXX 04004 44477 NIL
AAXX 04004 44478 NIL
BBXX 42085 04001 99179 70665 46/// /0804 10269 40166 90030 333 91205
BBXX 42085 04001 99179 70665 46/// /0703 10270 40166 90020 333 91204
BBXX 42085 04001 99179 70665 46/// /0703 10269 40166 90010 333 91204
BBXX 42085 04001 99179 70665 46/// /0703 10269 40166 90010 333 91204
BBXX 42085 04001 99179 70665 46/// /0804 10269 40166 90030 333 91205
BBXX 42085 04001 99179 70665 46/// /0703 10270 40166 90020 333 91204
BBXX WDC8227 04003 99573 71549 41395 83231 1//// 2//// 49935 57/// 71042 886// 22200 0//// 20202 332// 4//05 5//// 61011 8//// ICE /////
AAXX 04001 38932 429// 60000 10033 20015 40142 57018 80002
BBXX 63106 04004 99610 10017 46/// /3231 10055 49765 52042 22200
BBXX 63113 04004 99610 10017 46/// /3333 10059 20015 49766 52046 22200 10708 70041
BBXX 62123 04004 99563 10022 41/96 /2839 10072 49894 53068 70222 8//// 22200 20302 326// 40620 5////
BBXX 62304 04004 99511 10018 46/98 /2635 10085 20025 40087 50000 22200 00105 10603 70014 333 90710 91146
BBXX 62103 04004 99499 70029 46/98 /3034 10105 20039 40158 52020 22200 00115 10908 70038 333 90710 91147
BBXX 62305 04004 99504 10000 46/97 /2834 10098 20034 40133 52012 22200 00113 10805 70025 333 90710 91150
BBXX 62094 04004 99517 70067 46/// /2826 10086 20044 40168 52039 22200 00104 10808 70039 333 90710 91136
BBXX WDC8227 04003 99573 71549 41395 83231 1//// 2//// 49935 57/// 71042 886// 22200 0//// 20202 332// 4//05 5//// 61011 8//// ICE /////
AAXX 04001 30636 119// 80000 11234 21240 39672 40337 57036 60022 77177 8805/ 333 21256 47036 55000
BBXX 42369 04001 99272 70903 46/// /0604 1//// 90020 22200 10604 70018
BBXX 42370 04001 99273 70905 46/// ///// 10131 90020 22200 10503 70015
BBXX 42376 04001 99291 70879 46/// /3406 10093 40330 90020 22200 10402 70012
BBXX 42392 04001 99272 70900 46/// ///// 1//// 90020 22200 10503 70014
BBXX 42887 04001 99282 70885 46/// /0306 10133 90020 22200 10503 70014
BBXX UFLT 04001 99456 11400 42/93 93216 11040 40020 54000 22253 00040 20906 333 // 40906
BBXX UFLT 04001 99456 11400 42/93 93216 11040 40020 54000 22253 00040 20906 333// 40906
BBXX 42392 04001 99272 70900 46/// ///// 1//// 90020 22200 10503 70014
BBXX 42887 04001 99282 70885 46/// /0306 10133 90020 22200 10503 70014
BBXX 42376 04001 99291 70879 46/// /3406 10093 40330 90020 22200 10402 70012
BBXX 42370 04001 99273 70905 46/// ///// 10131 90020 22200 10503 70015
BBXX 42369 04001 99272 70903 46/// /0604 1//// 90020 22200 10604 70018
BBXX MINUK05 0400/ 99571 70021 46/// ///// 10045 49933 52051
AAXX 04001 28382 42998 80603 11172 21191 30116 40191 57014 80001
BBXX 62123 04004 99563 10022 47997 /2837 10072 20020 49874 52051 700// 22200
BBXX 63106 04004 99610 10017 46/// /3231 10055 49765 52042 22200
BBXX 63105 04004 99610 10017 47597 ///// 10058 20014 49763 52041 700// 22200
BBXX 62305 04004 99504 10000 46/97 /2834 10098 20034 40133 52011 22200 00113 10805 70025 333 90710 91148
BBXX 62304 04004 99511 10018 46/98 /2635 10085 20025 40085 58001 22200 00105 106// 333 90710 91149
BBXX 62094 04004 99517 70067 46/// /2826 10086 20044 40168 52039 22200 00104 10809 70044 333 90710 91136
BBXX 62103 04004 99499 70029 46/98 /3036 10104 20037 40154 53019 22200 00115 10908 70038 333 90710 91149
AAXX 04004 40361 32960 00000 10060 21010 39447 40227 333 58022
AAXX 04001 38927 41756 81802 10065 20054 39763 40138 57008 78088 889// 333 88963 555 11006
BBXX MINUK05 0400/ 99571 70021 46/// ///// 10045 49933 52051
AAXX 04004 16344 12960 02204 10030 20016 38358 48540 54002 60001 333 95000 95100
BBXX MINUK05 0400/ 99571 70021 46/// ///// 10045 49933 52051
BBXX UFLT 04001 99456 11400 42/93 93216 11040 40020 54000 22253 00040 20906 333 // 40906
AAXX 0400/ 89879 46/// ///// 10026 39750 4//// 5////
AAXX 0400/ 89769 46/// ///// 11034 39809 4//// 5////
BBXX 63106 04004 99610 10017 46/// /3231 10055 49765 52042 22200
BBXX 63113 04004 99610 10017 46/// /3333 10059 20015 49766 52046 22200 10708 70041
BBXX 62123 04004 99563 10022 41/96 /2839 10072 49894 53068 70222 8//// 22200 20302 326// 40620 5////
BBXX 62304 04004 99511 10018 46/98 /2635 10085 20025 40087 50000 22200 00105 10603 70014 333 90710 91146
BBXX 62103 04004 99499 70029 46/98 /3034 10105 20039 40158 52020 22200 00115 10908 70038 333 90710 91147
BBXX 62305 04004 99504 10000 46/97 /2834 10098 20034 40133 52012 22200 00113 10805 70025 333 90710 91150
BBXX 62094 04004 99517 70067 46/// /2826 10086 20044 40168 52039 22200 00104 10808 70039 333 90710 91136
AAXX 04003 63612 32980 02706 10216 20132 40097 333 59006
BBXX UGWJ 03181 99299 30402 42/98 41007 10255 40184 52012 22252 00246
BBXX MINFR09 0400/ 99346 11354 46/// ///// 40130 52003
BBXX MINFR09 0400/ 99346 11354 46/// ///// 40130 52003
AAXX 04001 23678 429// 00000 11303 21328 30329 40395 54000
AAXX 04001 30695 42999 82902 11300 21324 39934 40311 58006 80006
AAXX 04001 02805 41380 81502 11058 21087 39879 40014 57007 78583 887//
AAXX 04004 78397 442770 13506 10260 20183 30164 40180 81100 333 00900 59001 81822
AAXX 04004 78397 442770 13506 10260 20183 30164 40180 81100 333 00900 59001 81822
AAXX 04004 65578 32557 33202 10245 20238 30112 40129 83500 333 59008 83616
AAXX 04004 71604 16/// /3007 11054 21062 60001 333 11010 21054 70000
AAXX 04004 71887 12786 71219 10063 21021 39789 40212 52004 60001 82571 333 10068 20019 70000
AAXX 04004 63820 32480 50303 10258 20225 40085 85200 333 59011 85819
AAXX 04004 71887 12786 71219 10063 21021 39789 40212 52004 60001 82571 333 10068 20019 70000
BBXX 62123 04004 99563 10022 47997 /2837 10072 20020 49874 52051 700// 22200
BBXX 63106 04004 99610 10017 46/// /3231 10055 49765 52042 22200
BBXX 63105 04004 99610 10017 47597 ///// 10058 20014 49763 52041 700// 22200
BBXX 62305 04004 99504 10000 46/97 /2834 10098 20034 40133 52011 22200 00113 10805 70025 333 90710 91148
BBXX 62304 04004 99511 10018 46/98 /2635 10085 20025 40085 58001 22200 00105 106// 333 90710 91149
BBXX 62094 04004 99517 70067 46/// /2826 10086 20044 40168 52039 22200 00104 10809 70044 333 90710 91136
BBXX 62103 04004 99499 70029 46/98 /3036 10104 20037 40154 53019 22200 00115 10908 70038 333 90710 91149
AAXX 04001 24817 129// 20000 11314 21336 39931 40346 52008 69902 80001 333 21316 47042 55000
AAXX 04004 48001 31905 90000 10113 20110 40162 74555 89/// 333 20090 56999 58003
AAXX 04004 48004 31901 90000 10149 20149 74744 89/// 333 20140 56999
AAXX 04004 48010 31905 90000 10150 20150 40146 74744 89/// 333 20140 56999 58000
AAXX 04004 48020 32440 80000 10160 20144 8572/ 333 20150 56899
AAXX 04004 48025 31/20 60000 10178 20178 40141 74244 82640 333 20154 56860 58009
AAXX 04004 48045 21357 12302 10158 20085 74144 81100 333 20120 56900
AAXX 04004 71612 16/// /0102 11169 21243 30125 40220 53025 60001 333 11136 21170 70000
BBXX MINFR09 0400/ 99346 11354 46/// ///// 40130 52003
AAXX 04004 65507 32960 50000 10212 20010 39797 40145 80002 333 0//00 58001 85076
AAXX 04004 43422 22970 50700 10243 20240 39977 40105 80006 333 59001 60008 84280
BBXX 63106 04004 99610 10017 46/// /3231 10055 49765 52042 22200
BBXX 63113 04004 99610 10017 46/// /3333 10059 20015 49766 52046 22200 10708 70041
BBXX 62123 04004 99563 10022 41/96 /2839 10072 49894 53068 70222 8//// 22200 20302 326// 40620 5////
BBXX 62304 04004 99511 10018 46/98 /2635 10085 20025 40087 50000 22200 00105 10603 70014 333 90710 91146
BBXX 62103 04004 99499 70029 46/98 /3034 10105 20039 40158 52020 22200 00115 10908 70038 333 90710 91147
BBXX 62305 04004 99504 10000 46/97 /2834 10098 20034 40133 52012 22200 00113 10805 70025 333 90710 91150
BBXX 62094 04004 99517 70067 46/// /2826 10086 20044 40168 52039 22200 00104 10808 70039 333 90710 91136
AAXX 04004 71971 16/// /1101 11323 21355 39984 40032 56021 60001 333 11304 21343 70000
AAXX 04004 71971 16/// /1101 11323 21355 39984 40032 56021 60001 333 11304 21343 70000
AAXX 04004 61091 32960 20000 10157 20038 39715 40173 80002 333 0//00 59010 82080
AAXX 04004 61099 32960 70410 10235 20015 39906 40134 80008 333 0//00 58008 87280
AAXX 04004 41696 02996 60000 10025 21012 37961 48484 60002 82620 333 56990 59029 60007 82640 84461
AAXX 04000 44212 32999 01803 11363 21390 39244 40563 57011 333 21373 47011 55062 555 31385
AAXX 04004 96147 31456 73610 10252 20240 30127 40131 5//// 71522 84631 333 20230 56000 58005 84714 84360
BBXX 62123 04004 99563 10022 47997 /2837 10072 20020 49874 52051 700// 22200
BBXX 63106 04004 99610 10017 46/// /3231 10055 49765 52042 22200
BBXX 63105 04004 99610 10017 47597 ///// 10058 20014 49763 52041 700// 22200
BBXX 62305 04004 99504 10000 46/97 /2834 10098 20034 40133 52011 22200 00113 10805 70025 333 90710 91148
BBXX 62304 04004 99511 10018 46/98 /2635 10085 20025 40085 58001 22200 00105 106// 333 90710 91149
BBXX 62094 04004 99517 70067 46/// /2826 10086 20044 40168 52039 22200 00104 10809 70044 333 90710 91136
BBXX 62103 04004 99499 70029 46/98 /3036 10104 20037 40154 53019 22200 00115 10908 70038 333 90710 91149
BBXX MINFR05 0400/ 99055 10000 46/// ///// 10260 40125 57005
BBXX MINFR05 0400/ 99055 10000 46/// ///// 10260 40125 57005
BBXX 63106 04004 99610 10017 46/// /3231 10055 49765 52042 22200
BBXX 63113 04004 99610 10017 46/// /3333 10059 20015 49766 52046 22200 10708 70041
BBXX 62123 04004 99563 10022 41/96 /2839 10072 49894 53068 70222 8//// 22200 20302 326// 40620 5////
BBXX 62304 04004 99511 10018 46/98 /2635 10085 20025 40087 50000 22200 00105 10603 70014 333 90710 91146
BBXX 62103 04004 99499 70029 46/98 /3034 10105 20039 40158 52020 22200 00115 10908 70038 333 90710 91147
BBXX 62305 04004 99504 10000 46/97 /2834 10098 20034 40133 52012 22200 00113 10805 70025 333 90710 91150
BBXX 62094 04004 99517 70067 46/// /2826 10086 20044 40168 52039 22200 00104 10808 70039 333 90710 91136
AAXX 04001 63332 NIL
AAXX 04001 63333 NIL
AAXX 04001 63340 NIL
AAXX 04001 63402 NIL
AAXX 04001 63450 42980 03003 10100 20038 37737 40176 333 58006
AAXX 04001 63451 42980 0//// 1//// 2//// 38140 4//// 333 59015
AAXX 04001 63471 42980 01801 1//// 2//// 38866 4//// 333 58006
AAXX 04001 NNNN
BBXX 9KWP 04003 99026 30864 41/98 63410 10280 20237 40100 53009 70222 8455/ 22234 00300 2//// 80250
BBXX 9KWP 04003 99026 30864 41/98 63410 10280 20237 40100 53009 70222 8455/ 22234 00300 2//// 80250
AAXX 04004 67023 33580 52004 10238 20226 30082 40088 58010 85800 333 0//00 82820 84640
AAXX 04004 67131 33580 10000 10/// 20/// 30063 40068 57018 81800 333 0//00 81823 555 81640
AAXX 04001 63332 NIL
AAXX 04001 63333 NIL
AAXX 04001 63340 NIL
AAXX 04001 63402 NIL
AAXX 04001 63450 42980 03003 10100 20038 37737 40176 333 58006
AAXX 04001 63451 42980 0//// 1//// 2//// 38140 4//// 333 59015
AAXX 04001 63471 42980 01801 1//// 2//// 38866 4//// 333 58006
AAXX 04001
AAXX 04001 63332 NIL
AAXX 04001 63333 NIL
AAXX 04001 63340 NIL
AAXX 04001 63402 NIL
AAXX 04001 63450 42980 03003 10100 20038 37737 40176 333 58006
AAXX 04001 63451 42980 0//// 1//// 2//// 38140 4//// 333 59015
AAXX 04001 63471 42980 01801 1//// 2//// 38866 4//// 333 58006
BBXX 9KWP 04003 99026 30864 41/98 63410 10280 20237 40100 53009 70222 8455/ 22234 00300 2//// 80250
AAXX 04004 67009 11565 70000 10240 20210 39955 40074 56012 60021 7216/ 879// 333 0//11 84820 81920 85640 94971/4/6 95831/4/6=2.0 67012 11470 7//// 10244 20231 30072 40083 56011 60301 7156/ 878// 333 0//51 83817 86640=25.5 67072 NIL
AAXX 04004 67073 11575 8//// 10256 20247 30041 40067 58009 60131 7956/ 839// 333 0//21 83820 81920 86633 94961 95831=12.5 67113 NIL
AAXX 04004 67137 1260 80000 10177 20174 38880 48484 56011 60091 72065 885// 333 0//10 82705 88617
AAXX 04004 67157 11470 7//// 10/// 20/// 30129 40136 58004 60031 7156/ 878// 333 0//15 82817 87633=2.8
BBXX 62123 04004 99563 10022 47997 /2837 10072 20020 49874 52051 700// 22200
BBXX 63106 04004 99610 10017 46/// /3231 10055 49765 52042 22200
BBXX 63105 04004 99610 10017 47597 ///// 10058 20014 49763 52041 700// 22200
BBXX 62305 04004 99504 10000 46/97 /2834 10098 20034 40133 52011 22200 00113 10805 70025 333 90710 91148
BBXX 62304 04004 99511 10018 46/98 /2635 10085 20025 40085 58001 22200 00105 106// 333 90710 91149
BBXX 62094 04004 99517 70067 46/// /2826 10086 20044 40168 52039 22200 00104 10809 70044 333 90710 91136
BBXX 62103 04004 99499 70029 46/98 /3036 10104 20037 40154 53019 22200 00115 10908 70038 333 90710 91149
BBXX 9KWP 04003 99026 30864 41/98 63410 10280 20237 40100 53009 70222 8455/ 22234 00300 2//// 80250
BBXX MINFR03 0400/ 99212 10610 46/// ///// 10225 40127 57009
BBXX 63106 04004 99610 10017 46/// /3231 10055 49765 52042 22200
BBXX 63113 04004 99610 10017 46/// /3333 10059 20015 49766 52046 22200 10708 70041
BBXX 62123 04004 99563 10022 41/96 /2839 10072 49894 53068 70222 8//// 22200 20302 326// 40620 5////
BBXX 62304 04004 99511 10018 46/98 /2635 10085 20025 40087 50000 22200 00105 10603 70014 333 90710 91146
BBXX 62103 04004 99499 70029 46/98 /3034 10105 20039 40158 52020 22200 00115 10908 70038 333 90710 91147
BBXX 62305 04004 99504 10000 46/97 /2834 10098 20034 40133 52012 22200 00113 10805 70025 333 90710 91150
BBXX 62094 04004 99517 70067 46/// /2826 10086 20044 40168 52039 22200 00104 10808 70039 333 90710 91136
AAXX 04001 11659 07570 /2003 10055 21014 39489 40129 57021 69901 72386 333 55068 69905 85/33 88/50
BBXX MINFR03 0400/ 99212 10610 46/// ///// 10225 40127 57009
BBXX 52243 04001 99193 11666 46/// ///// 1//// 90000 22200 00272
BBXX 51174 04001 99142 51697 46/// ///// 1//// 90000 22200 00287
BBXX 51171 04001 99064 71623 46/// ///// 1//// 90000 22200 00279
BBXX 51170 04001 99168 71695 46/// ///// 1//// 90000 22200 00259
AAXX 04001 24988 32999 23103 11314 21342 39956 40238 52005 80001 333 21339 43005
BBXX 62123 04004 99563 10022 47997 /2837 10072 20020 49874 52051 700// 22200
BBXX 63106 04004 99610 10017 46/// /3231 10055 49765 52042 22200
BBXX 63105 04004 99610 10017 47597 ///// 10058 20014 49763 52041 700// 22200
BBXX 62305 04004 99504 10000 46/97 /2834 10098 20034 40133 52011 22200 00113 10805 70025 333 90710 91148
BBXX 62304 04004 99511 10018 46/98 /2635 10085 20025 40085 58001 22200 00105 106// 333 90710 91149
BBXX 62094 04004 99517 70067 46/// /2826 10086 20044 40168 52039 22200 00104 10809 70044 333 90710 91136
BBXX 62103 04004 99499 70029 46/98 /3036 10104 20037 40154 53019 22200 00115 10908 70038 333 90710 91149
BBXX 51174 04001 99142 51697 46/// ///// 1//// 90000 22200 00287
BBXX 51171 04001 99064 71623 46/// ///// 1//// 90000 22200 00279
BBXX 51170 04001 99168 71695 46/// ///// 1//// 90000 22200 00259
BBXX 52243 04001 99193 11666 46/// ///// 1//// 90000 22200 00272
AAXX 04004 71706 11774 63305 11047 21106 30025 40086 53023 60001 70282 82570 333 11008 21049 70002 90930
AAXX 04004 71706 11774 63305 11047 21106 30025 40086 53023 60001 70282 82570 333 11008 21049 70002 90930
AAXX 04004 13610 12960 00000 10032 21011 39835 40272 51006 60001
AAXX 04004 13600 12962 00000 10024 20018 30222 40277 52008 60001
AAXX 04004 13619 12965 00000 10030 21002 39498 42870 52005 60001
AAXX 04004 13601 12960 00000 10052 20052 30133 40236 54001 60001
AAXX 04004 13629 11957 01402 10000 21009 39193 42839 54000 60001 71000
AAXX 04004 13624 12960 01402 10020 20003 30204 40244 54002 60001
AAXX 04004 13625 12960 00000 11005 21025 30031 40274 52004 60001
BBXX 63106 04004 99610 10017 46/// /3231 10055 49765 52042 22200
BBXX 63113 04004 99610 10017 46/// /3333 10059 20015 49766 52046 22200 10708 70041
BBXX 62123 04004 99563 10022 41/96 /2839 10072 49894 53068 70222 8//// 22200 20302 326// 40620 5////
BBXX 62304 04004 99511 10018 46/98 /2635 10085 20025 40087 50000 22200 00105 10603 70014 333 90710 91146
BBXX 62103 04004 99499 70029 46/98 /3034 10105 20039 40158 52020 22200 00115 10908 70038 333 90710 91147
BBXX 62305 04004 99504 10000 46/97 /2834 10098 20034 40133 52012 22200 00113 10805 70025 333 90710 91150
BBXX 62094 04004 99517 70067 46/// /2826 10086 20044 40168 52039 22200 00104 10808 70039 333 90710 91136
AAXX 04001 11916 46/// /2219 11052 21063 37927 48442 57019 6///1 333 55034 91026 91149
AAXX 04001 78090 15/// /0000 10143 30260 40265 69901 90000 222// 00217
AAXX 04004 63688 32980 01003 10042 20032 48/// 333 59002
AAXX 04001 29594 31997 80000 11221 21240 39946 40369 52006 70411 86031 333 21226 48028 55028
BBXX 62123 04004 99563 10022 47997 /2837 10072 20020 49874 52051 700// 22200
BBXX 63106 04004 99610 10017 46/// /3231 10055 49765 52042 22200
BBXX 63105 04004 99610 10017 47597 ///// 10058 20014 49763 52041 700// 22200
BBXX 62305 04004 99504 10000 46/97 /2834 10098 20034 40133 52011 22200 00113 10805 70025 333 90710 91148
BBXX 62304 04004 99511 10018 46/98 /2635 10085 20025 40085 58001 22200 00105 106// 333 90710 91149
BBXX 62094 04004 99517 70067 46/// /2826 10086 20044 40168 52039 22200 00104 10809 70044 333 90710 91136
BBXX 62103 04004 99499 70029 46/98 /3036 10104 20037 40154 53019 22200 00115 10908 70038 333 90710 91149
AAXX 04001 01160 41789 40807 10035 21034 39815 49832 58011 70282 84800 333 91111
AAXX 04001 10400 11684 12508 10074 20016 30027 40077 50010 60021 70286 81500 333 31/// 55/// 20053 30053 55300 20000 30000 81538 91120 91214
BBXX 63106 04004 99610 10017 46/// /3231 10055 49765 52042 22200
BBXX 63113 04004 99610 10017 46/// /3333 10059 20015 49766 52046 22200 10708 70041
BBXX 62123 04004 99563 10022 41/96 /2839 10072 49894 53068 70222 8//// 22200 20302 326// 40620 5////
BBXX 62304 04004 99511 10018 46/98 /2635 10085 20025 40087 50000 22200 00105 10603 70014 333 90710 91146
BBXX 62103 04004 99499 70029 46/98 /3034 10105 20039 40158 52020 22200 00115 10908 70038 333 90710 91147
BBXX 62305 04004 99504 10000 46/97 /2834 10098 20034 40133 52012 22200 00113 10805 70025 333 90710 91150
BBXX 62094 04004 99517 70067 46/// /2826 10086 20044 40168 52039 22200 00104 10808 70039 333 90710 91136
AAXX 04001 15335 03/// /2801 11005 21005 30226 40233 57008 6///1 333 4//// 55056 6///7 91002 91102
BBXX 62123 04004 99563 10022 47997 /2837 10072 20020 49874 52051 700// 22200
BBXX 63106 04004 99610 10017 46/// /3231 10055 49765 52042 22200
BBXX 63105 04004 99610 10017 47597 ///// 10058 20014 49763 52041 700// 22200
BBXX 62305 04004 99504 10000 46/97 /2834 10098 20034 40133 52011 22200 00113 10805 70025 333 90710 91148
BBXX 62304 04004 99511 10018 46/98 /2635 10085 20025 40085 58001 22200 00105 106// 333 90710 91149
BBXX 62094 04004 99517 70067 46/// /2826 10086 20044 40168 52039 22200 00104 10809 70044 333 90710 91136
BBXX 62103 04004 99499 70029 46/98 /3036 10104 20037 40154 53019 22200 00115 10908 70038 333 90710 91149
BBXX C6FY5 04004 99219 70769 41597 63624 10200 2015/ 40200 54/// 7//22 8539/ 22233 04260 20202 305// 46105 5//// 6//// 80170 ICE /////
BBXX C6FY5 04004 99219 70769 41597 63624 10200 2015/ 40200 54/// 7//22 8539/ 22233 04260 20202 305// 46105 5//// 6//// 80170 ICE /////
AAXX 04001 26524 /1397 81705 10020 20015 39845 49977 57058 78082 883// 333 88708 91008 91111 555 1/001 69932
AAXX 04004 17150 11/01 92401 11033 21033 30149 40279 56001 60001 74900 333 89/01
AAXX 04004 67009 11565 70000 10240 20210 39955 40074 56012 60021 7216/ 879// 333 0//11 84820 81920 85640 94971
AAXX 04004 67012 11470 7//// 10244 20231 30072 40083 56011 60301 7156/ 878// 333 0//51 83817 86640
AAXX 04004 67072 NIL
AAXX 04004 67073 11575 8//// 10256 20247 30041 40067 58009 60131 7956/ 839// 333 0//21 83820 81920 86633 94961 95831
AAXX 04004 67113 NIL
AAXX 04004 67137 12/60 80000 10177 20174 38880 48484 56011 60091 72065 885// 333 0//10 82705 88617
AAXX 04004 67157 11470 7//// 10/// 20/// 30129 40136 58004 60031 7156/ 878// 333 0//15 82817 87633
AAXX 04004 91723 NIL
AAXX 04004 91964 36/// /0104 10242 20211 40160 57011
AAXX 04004 67009 11565 70000 10240 20210 39955 40074 56012 60021 7216/ 879// 333 0//11 84820 81920 85640 94971
AAXX 04004 67012 11470 7//// 10244 20231 30072 40083 56011 60301 7156/ 878// 333 0//51 83817 86640
AAXX 04004 67072 NIL
AAXX 04004 67073 11575 8//// 10256 20247 30041 40067 58009 60131 7956/ 839// 333 0//21 83820 81920 86633 94961 95831
AAXX 04004 67113 NIL
AAXX 04004 67137 12/60 80000 10177 20174 38880 48484 56011 60091 72065 885// 333 0//10 82705 88617
AAXX 04004 67157 11470 7//// 10/// 20/// 30129 40136 58004 60031 7156/ 878// 333 0//15 82817 87633
AAXX 04004 41594 319// 20000 10040 20014 39915 40144 71000 82030 333 56090 59027
BBXX 63106 04004 99610 10017 46/// /3231 10055 49765 52042 22200
BBXX 63113 04004 99610 10017 46/// /3333 10059 20015 49766 52046 22200 10708 70041
BBXX 62123 04004 99563 10022 41/96 /2839 10072 49894 53068 70222 8//// 22200 20302 326// 40620 5////
BBXX 62304 04004 99511 10018 46/98 /2635 10085 20025 40087 50000 22200 00105 10603 70014 333 90710 91146
BBXX 62103 04004 99499 70029 46/98 /3034 10105 20039 40158 52020 22200 00115 10908 70038 333 90710 91147
BBXX 62305 04004 99504 10000 46/97 /2834 10098 20034 40133 52012 22200 00113 10805 70025 333 90710 91150
BBXX 62094 04004 99517 70067 46/// /2826 10086 20044 40168 52039 22200 00104 10808 70039 333 90710 91136
AAXX 04001 03955 11470 32807 10056 20023 39982 40182 52039 69991 72581 83300 333 83918
BBXX 62123 04004 99563 10022 47997 /2837 10072 20020 49874 52051 700// 22200
BBXX 63106 04004 99610 10017 46/// /3231 10055 49765 52042 22200
BBXX 63105 04004 99610 10017 47597 ///// 10058 20014 49763 52041 700// 22200
BBXX 62305 04004 99504 10000 46/97 /2834 10098 20034 40133 52011 22200 00113 10805 70025 333 90710 91148
BBXX 62304 04004 99511 10018 46/98 /2635 10085 20025 40085 58001 22200 00105 106// 333 90710 91149
BBXX 62094 04004 99517 70067 46/// /2826 10086 20044 40168 52039 22200 00104 10809 70044 333 90710 91136
BBXX 62103 04004 99499 70029 46/98 /3036 10104 20037 40154 53019 22200 00115 10908 70038 333 90710 91149
BBXX 63106 04004 99610 10017 46/// /3231 10055 49765 52042 22200
BBXX 63113 04004 99610 10017 46/// /3333 10059 20015 49766 52046 22200 10708 70041
BBXX 62123 04004 99563 10022 41/96 /2839 10072 49894 53068 70222 8//// 22200 20302 326// 40620 5////
BBXX 62304 04004 99511 10018 46/98 /2635 10085 20025 40087 50000 22200 00105 10603 70014 333 90710 91146
BBXX 62103 04004 99499 70029 46/98 /3034 10105 20039 40158 52020 22200 00115 10908 70038 333 90710 91147
BBXX 62305 04004 99504 10000 46/97 /2834 10098 20034 40133 52012 22200 00113 10805 70025 333 90710 91150
BBXX 62094 04004 99517 70067 46/// /2826 10086 20044 40168 52039 22200 00104 10808 70039 333 90710 91136
AAXX 04004 97876 01250 80000 10238 20233 30127 40157 52031 61454 76065 887// 333 20232 55072 56099 58011 60217 86706 86607
BBXX 62123 04004 99563 10022 47997 /2837 10072 20020 49874 52051 700// 22200
BBXX 63106 04004 99610 10017 46/// /3231 10055 49765 52042 22200
BBXX 63105 04004 99610 10017 47597 ///// 10058 20014 49763 52041 700// 22200
BBXX 62305 04004 99504 10000 46/97 /2834 10098 20034 40133 52011 22200 00113 10805 70025 333 90710 91148
BBXX 62304 04004 99511 10018 46/98 /2635 10085 20025 40085 58001 22200 00105 106// 333 90710 91149
BBXX 62094 04004 99517 70067 46/// /2826 10086 20044 40168 52039 22200 00104 10809 70044 333 90710 91136
BBXX 62103 04004 99499 70029 46/98 /3036 10104 20037 40154 53019 22200 00115 10908 70038 333 90710 91149
AAXX 04004 67072 11460 8//06 10243 20233 30093 40096 56014 60281 76066 888// 333 0//16 84817 88640 924/6
AAXX 04001 10427 01482 72612 10012 20004 39066 48374 51019 60061 70286 872// 333 31/// 41998 55/// 20040 30040 55300 20000 30000 69907 87811 91127 91217 96465 96463 96461 96441
AAXX 04004 41700 11994 01302 10080 20046 39987 40121 60002 70400 333 59031
BBXX 42047 04001 99279 70936 46/// /1504 10141 20049 40310 90030 22200 00218 333 91206
BBXX 42047 04001 99279 70936 46/// /1504 10141 20049 40310 90030 22200 00218 333 91206
AAXX 04001 10946 15788 82102 10071 21018 39333 40162 56029 60001 333 55/// 20559 30153 55300 20000 30000 87/50 88/61 91117
AAXX 04001 01367 41350 83202 11023 21032 39251 49683 57022 77072 8872/ 333 91107
AAXX 04001 11918 16/// /2313 10043 21005 39327 42761 57030 60001 333 55018 91018 91121
AAXX 04004 60445 11560 32402 10025 20009 39126 48591 50001 69901 70161 83200 333 0//15 83826 95990
AAXX 04004 96465 12478 70704 10282 20250 30082 40115 60034 81832 333 20259 50480 55049 58005 70028 81813 87080
BBXX S6SR 04004 99127 70219 41896 80510 10240 20240 40160 54000 7//22 88/2/ 22273 00250 2//// 3//// 4//// 5//// 6//// 80240 ICE /////
BBXX S6SR 04004 99127 70219 41896 80510 10240 20240 40160 54000 7//22 88/2/ 22273 00250 2//// 3//// 4//// 5//// 6//// 80240 ICE /////
AAXX 04001 10948 15888 81703 10016 21000 39227 48464 58030 60001 333 4/022 55/// 20583 30154 55300 20000 30000 87/57 88/58
AAXX 04001 31371 32999 00000 11340 21368 39991 40297 53002 333 21366 55072
AAXX 04001 10400 11684 12508 10074 20016 30027 40077 50010 60021 70286 81500 333 31/// 55/// 20053 30053 55300 20000 30000 81638 91120 91214
AAXX 04001 01167 41577 81407 10000 21028 39833 49838 70282 8596/ 333 91112
AAXX 04001 10578 11/01 92521 10011 20011 38675 48378 58009 69921 76074 333 44050 55/// 20201 30187 55300 20000 30000 96045
AAXX 04001 10393 01784 22510 10087 20038 39897 40022 53004 69931 70186 82500 333 31/// 55/// 20331 30113 55300 20000 30000 69927 82650 91118 91212
AAXX 04001 31371 32999 00000 11340 21368 39991 40293 53002 333 21366 55072
AAXX 04004 03305 15567 /2620 10046 20007 39837 40102 51069 60011 92350 333 87/20 84/29 90710 91142 91036
BBXX VRZN9 04003 99327 71773 41798 51216 10200 2019/ 40200 53015 70111 84188 22213 00225 20902 318// 41202 5//// 6//// 80190 ICE /////
BBXX VRZN9 04003 99327 71773 41798 51216 10200 20190 40200 53015 70111 84188 22213 00225 20902 318// 41202 5//// 6//// 80190 ICE /////
AAXX 04001 24266 11998 30000 11407 21432 39999 40202 53002 69952 70271 80001 333 21388 47025 55000
AAXX 04001 10506 11384 72505 10047 20025 39517 40100 50002 60041 70261 878// 333 31/// 55/// 20081 30080 55300 20000 30000 82808 87630 91123 91216 96465
AAXX 04004 03148 46/// /2919 11005 21005 92350 333 90710 91132
BBXX ELZU3 04000 99358 70069 41998 00606 10162 20107 40391 54000 7//00 22223 04171 20301 300// 80130
BBXX ELZU3 04000 99358 70069 41998 00606 10162 20107 40391 54000 7//00 22223 04171 20301 300// 80130
BBXX ELZU3 04000 99358 70069 41998 00606 10162 20107 40391 54000 7//00 22223 04171 20301 300// 80130
BBXX 4XFB 04004 99439 10083 41498 41810 10140 20090 40180 57020 70000 82/// 22255 00180 20301 319// 40503 5//// 80110
BBXX 4XFB 04004 99439 10083 41498 41810 10140 20090 40180 57020 70000 82/// 22255 00180 20301 319// 40503 5//// 80110
BBXX 4XFB 04004 99439 10083 41498 41810 10140 20090 40180 57020 70000 82/// 22255 00180 20301 319// 40503 5//// 80110
AAXX 04001 10379 01783 62511 10068 20033 39894 40014 51013 60031 72161 86500 333 31/// 55/// 20244 30105 42478 55300 20000 30000 41032 60037 86656 91121 91211
AAXX 04004 68054 42460 03503 10182 20144 48540 58012
AAXX 04001 21802 11999 83304 11323 21338 30156 40183 52024 69942 77173 86070 333 21324
AAXX 04004 78397 442770 13506 10260 20183 30164 40180 81100 333 00900 59001 81822
AAXX 04004 DUPE
AAXX 04004 78397 442770 13506 10260 20183 30164 40180 81100 333 00900 59001 81822
AAXX 04004 DUPE
AAXX 04004 84202 11460 81404 10247 20218 30155 69964 71654 8772/ 333 10265 59004 555 10006 30084
AAXX 04004 84204 31665 81408 10266 20224 70544 8481/ 333 10278 555 30078
AAXX 04004 84105 32658 40902 10236 20211 31001 82410 333 10285 59001 555 30090
AAXX 04004 84088 31560 80000 10105 20097 37067 72995 888// 333 10177 59011 555 30095
AAXX 04004 84135 12570 72304 10260 20219 30066 69931 85630 333 10295 59016 555 10003 30078
AAXX 04004 84143 32558 41802 10155 20100 37407 84800 333 10193 58003 555 30070
AAXX 04004 84179 32565 40000 10214 20196 39057 82430 333 10262 58002 555 30089
AAXX 04004 84056 32260 42304 10128 20101 84400 333 10200 555 30084
AAXX 04004 84036 32568 82202 10146 20121 886// 333 10181 555 30085
AAXX 04004 84270 31462 71602 10162 20132 74022 85430 333 10218 555 30082
AAXX 04004 84132 11565 60000 10234 20229 39875 60041 71394 84903 333 10316 59002 555 10037 30097
AAXX 04004 84140 12530 61802 10251 20228 30031 40116 60011 84140 333 10285 59013 555 10011 30087
AAXX 04004 84076 32465 73202 10152 20139 87400 333 10208 555 30092
AAXX 04004 84226 11/00 90000 10090 20090 60041 74755 89/// 333 10130 555 10043 30100
AAXX 04004 84008 11457 72204 10240 20229 30122 40132 60031 72165 84770 00224 333 10269 58005 555 10030 30093
AAXX 04004 84050 32565 41808 10249 20221 83830 333 10295 555 30085
AAXX 04004 84160 31875 61404 10121 20081 37266 70544 86050 333 10181 59006 555 30077
AAXX 04004 84072 11456 60404 10143 20108 37299 69901 74054 85630 333 10217 59011 555 1 T 30080
AAXX 04004 84045 11/00 90000 10097 20096 60021 75064 89/// 333 10152 555 10022 30096
AAXX 04004 84001 11560 71506 10236 20215 30116 40136 69921 76064 87500 333 10281 58015 555 10002
AAXX 04004 84071 31356 73407 10131 20103 37282 47131 74022 84231 333 10187 59011
AAXX 04004 84117 31562 72009 10267 20228 30096 40119 70544 81450 333 10284 59015
AAXX 04004 84123 11560 63603 10150 20120 37298 47136 69981 70286 84450 333 10218 59016 555 10008
AAXX 04004 84203 31460 71604 10267 20205 30107 40112 70544 85530 333 10278 59006
AAXX 04004 84239 11260 81905 10137 20137 37548 47152 60081 76096 888// 333 10215 59003 555 10077
AAXX 04004 84252 11660 82502 10248 20234 30120 40128 69961 72165 8752/ 333 10288 58002 555 10006
AAXX 04004 71005 16/// ///// 11017 21051 60001 333 10036 21046 70000
AAXX 04004 71047 16/// ///// 11004 21041 60001 333 10042 21025 70000
AAXX 04004 71507 16/// /3203 11060 21078 60001 333 11055 21108 70000
AAXX 04004 71233 16/// /1502 10028 21058 60001 333 10048 21044 70000
AAXX 04004 71245 46/// /2371 11045 21082 6///1 333 11039 21059 7////
AAXX 04004 71571 17/// /1613 11001 21003 38878 40066 56011 60021 7//4/ 333 10021 21006 70024
