BBXX ZMFR 19174 99490 31666 43/// /34// 10088 20066 40214 52003 22200 00116
BBXX ZMENA 19174 99413 31733 46/// ///// 10121 20084 40199 52009 22200
BBXX 44172 19181 99445 70634 46/// ///// 1//// 91731 22200 00068 10903 20903 310// 41101 70016
BBXX 44097 19181 99410 70711 46/// ///// 1//// 91732 22200 00123 10503 20503 316// 41101 70015
AAXX 19184 40340 32960 03505 10176 20022 40167 52007 333 10260
AAXX 19184 89578 46/// /0801 11347 36952 4//// 5////
BBXX 42363 19181 99282 70892 46/// /1608 10206 20089 40217 91745 333 91210
BBXX 42364 19181 99291 70881 46/// /1608 10200 20111 40224 91745
BBXX WDD9433 19184 99450 71536 41698 52212 10080 20060 40195 52035 70111 844/6 22213 00100 20303 327// 40509 5//// 6//// 80070 ICE /////
BBXX C6DM2 19183 99074 10982 416// 20313 10270 20228 40100 50010 7//00 82//9 22232 0//// 2//// 3//// 4//// 5//// 6//// 80240 ICE /////
BBXX DBBU 19181 99542 10118 46/// /2310 10024 20019 40125 52011 22221 00053
BBXX DBKV 19181 99169 70250 46/// /0606 10230 20169 40147 57008 22200 00236
BBXX DBBT 19181 99396 30069 46/// /2915 10138 20108 40140 52002 22213 00133
AAXX 19184 40270 31950 01205 10150 21026 39323 40227 52005 70600 333 10182
BBXX DBFR 19181 99542 10079 46/// /2114 10042 20023 40096 57010 22232 00068
AAXX 19184 40255 32960 01108 10128 20014 39504 40227 52006 333 10193
BBXX BAREU56 19184 99384 10122 46/// ///// 40152 52025 22252
BBXX 46249 19181 99338 71197 46/// ///// 1//// 91742 22200 00148 11502 21002 326// 41502 70011
BBXX 46248 19181 99461 71247 46/// ///// 1//// 91734 22200 00097 11405 21003 328// 41404 70025
BBXX 46244 19181 99409 71244 46/// ///// 1//// 91735 22200 00097 11408 20806 330// 41406 70041
BBXX 44098 19181 99428 70702 46/// ///// 1//// 91737 22200 00089 10504 20504 310// 41101 70019
BBXX 46240 19181 99366 71219 46/// ///// 1//// 91742 22200 00123 11203 21001 335// 41202 70013
BBXX 46237 19181 99378 71226 46/// ///// 1//// 91740 22200 00112 11506 21003 325// 41504 70028
BBXX 46212 19181 99408 71243 46/// ///// 1//// 91742 22200 00098 11306 20905 330// 41304 70032
BBXX 46217 19181 99342 71194 46/// ///// 1//// 91742 22200 00145 11302 21001 326// 41301 70009
BBXX 46218 19181 99345 71208 46/// ///// 1//// 91732 22200 00139 11406 20603 330// 41405 70028
BBXX 46211 19181 99469 71242 46/// ///// 1//// 91736 22200 00084 11304 21002 328// 41304 70022
AAXX 19184 89664 42561 41309 11078 21128 39873 49915 54000 82870 333 56330 81620 83359
AAXX 19184 67665 42980 50000 10218 20218 48518 85031 333 10270 58002 85360 83080
AAXX 19184 89664 42561 41309 11078 21128 39873 49915 54000 82870 333 56330 81620 83359
AAXX 19184 67665 42980 50000 10218 20218 48518 85031 333 10270 58002 85360 83080
BBXX BAREU61 19184 99068 70128 46/// /3008 10285 29066 40100 57003 22234
AAXX 19184 89664 42561 41309 11078 21128 39873 49915 54000 82870 333 56330 81620 83359
AAXX 19184 91334 11471 80312 10258 20239 30054 40057 55005 60191 78082 8337/ 333 56199 70213 555 91918
AAXX 19184 91334 11471 80312 10258 20239 30054 40057 55005 60191 78082 8337/ 333 56199 70213 555 91918
AAXX 19184 16597 11562 33108 10088 20056 30070 40159 53009 60042 72581 83200 333 10127 83827 91127 91528
AAXX 19184 62010 12560 52503 10103 20048 40210 52015 69912 82180 333 10165 82826 85357
AAXX 19184 08495 12475 31009 10146 20083 30254 40262 52009 60002 81802 91750 333 10152 81616 83075
AAXX 19184 78764 31460 70810 10220 20120 39035 40167 58013 71562 83502 333 10223 20184 30/// 562/0 59006 83612 87075
AAXX 19184 78764 31460 70810 10220 20120 39035 40167 58013 71562 83502 333 10223 20184 30/// 562/0 59006 83612 87075
AAXX 19184 78764 31460 70810 10220 20120 39035 40167 58013 71562 83502 333 10223 20184 30/// 562/0 59006 83612 87075
AAXX 19184 40296 32960 00000 10190 20055 40185 52009 333 10260
AAXX 19184 61902 32584 11416 10250 20172 40128 81800 333 10280 59001 81827
AAXX 19184 68906 11396 72812 10149 20132 30037 40101 58005 60032 75066 8467/ 222// 00119 318// 40902 333 10171 20146 91026 555 20036 60105 91010
BBXX 51203 19181 99208 71570 46/// ///// 1//// 91743 22200 00249 11302 20801 326// 41301 70008
BBXX 52200 19181 99134 11448 46/// ///// 1//// 91745 22200 00286 11005 21004 310// 41101 70023
BBXX 51201 19181 99217 71581 46/// ///// 1//// 91742 22200 00242 10804 20804 334// 41102 70020
BBXX 46088 19181 99483 71232 46/// /2102 10070 40307 54000 91750 22200 00079 1//00 70001 333 91203 555 11022 22022 31707 42003 61749 206021 204020 189022 183026 189027 179026
BBXX 44060 19181 99413 70721 46/// ///10 10060 40193 91745 22200 00104 333 91213 555 11108 22113
BBXX 44022 19181 99409 70737 46/// ///09 10059 21014 40189 91745 22200 00079 333 91211 555 11093 22098
BBXX 41115 19181 99184 70673 46/// ///// 1//// 91735 22200 11203 21003 302// 41201 70015
BBXX 41114 19181 99276 70802 46/// ///// 1//// 91746 22200 00235 10503 20503 307// 41101 70014
BBXX 41012 19181 99300 70805 46/// /1307 10200 40253 58012 91750 22200 00234 10802 20602 306// 40801 70011 333 91208 555 11070 22073 31738 41310 61749 127067 133068 132065 122064 134061 134061
BBXX 51205 19181 99210 71564 46/// ///// 1//// 91748 22200 00242 10906 20906 336// 41102 70030
BBXX 46060 19181 99606 71468 46/// /1107 10046 49988 91750 22200 00058 333 91209 555 11069 22072
AAXX 19184 68994 11394 8//// 10097 20095 30021 40050 57041 60052 75155 886// 222// 00066 333 10125 20093 555 20052 91004
BBXX TESTFR9 19184 99499 70039 46/// /2838 10117 29096 40130 57029 22274
BBXX BAREU63 19184 99356 10249 46/// /1413 10172 29065 40141 52001 22263
BBXX VRZL2 19184 99345 71413 43498 80915 10170 20120 40290 52010 70322 8877/ 22264 00187 20604 329// 40605 80140
BBXX VRZL2 19184 99345 71413 43498 80915 10170 20120 40290 52010 70322 8877/ 22264 00187 20604 329// 40605 80140
AAXX 19184 41858 31901 02708 10130 20120 30124 40172 74644 333 59001 70000
AAXX 19184 41863 31450 82702 10130 20120 30121 40166 70522 8352/ 333 56999 59003 70000 83618 88458
AAXX 19184 41886 NIL
AAXX 19184 41895 32950 02702 10140 20130 30146 40169 333 59001 70000
AAXX 19184 41909 NIL
AAXX 19184 41915 31/01 90000 10130 20130 30139 40166 74744 89/// 333 59005 70000
AAXX 19184 41926 31940 00000 10122 20110 30137 40151 70500 333 59025 70000
AAXX 19184 41929 31/04 93601 10145 20145 30147 40157 74300 89/// 333 59005 70000
AAXX 19184 41933 31920 80000 10138 20130 30149 40158 71044 8802/ 333 56099 59008 70000 88460
AAXX 19184 41939 NIL
AAXX 19184 41941 31940 03602 10139 20130 30156 40162 70500 333 59012 70000
AAXX 19184 41946 NIL
AAXX 19184 41947 31905 00000 10136 20136 30151 40153 74444 333 59010 70000
AAXX 19184 41951 NIL
AAXX 19184 41953 31920 00000 10150 20140 30142 40147 70500 333 59016 70000
AAXX 19184 41958 NIL
AAXX 19184 41960 31935 00000 10130 20130 30161 40163 70500 333 59009 70000
AAXX 19184 41963 NIL
AAXX 19184 41964 NIL
AAXX 19184 41965 NIL
AAXX 19184 41966 NIL
AAXX 19184 41984 31940 00000 10134 20120 30143 40145 71000 333 59008 70000
AAXX 19184 41989 NIL
AAXX 19184 41998 NIL
BBXX 42003 19181 99260 70856 46/// /1308 1//// 91750 22200 10603 20603 70015 333 91210 555 11087 22092 31718 41210 61749 129081 132079 132079 124082 128083 130077 81209 91717
BBXX 42055 19181 99222 70940 46/// /1410 10250 20198 40154 58015 91750 22200 00252 10503 20503 70014 333 91212 555 11104 22110 31746 41312 61749 134097 134096 135094 128093 133095 132091 81310 91707
BBXX 41043 19181 99211 70650 46/// /0304 10251 20175 40185 58023 91750 22200 00267 11104 20401 300// 41104 70019 333 91205 555 11036 22037 31733 40306 61749 030035 031039 037039 025042 024033 029037 80305 91720
BBXX 41047 19181 99275 70715 46/// /0410 10195 40244 58015 91750 22200 00253 11107 20804 300// 41105 70033 333 91212 555 11095 22099 31723 40213 61749 036094 028088 024098 026096 025097 035099 80312 91721
BBXX 41036 19181 99342 70770 46/// ///// 10121 20020 40271 58028 91750 22200 00166 11001 70007
BBXX 41060 19181 99148 70510 46/// ///// 1//// 91750 22200 10904 70022
BBXX 41001 19181 99347 70727 46/// ///// 10130 20027 40265 58020 91750 22200 00219 11005 70023
BBXX 41049 19181 99275 70630 46/// /3511 10202 20122 40180 58011 91750 22200 00235 11109 20806 300// 41108 70047 333 91214 555 11115 22121 31705 43515 61749 345107 341107 348092 345101 342117 346123 83513 91657
BBXX 42020 19181 99270 70967 46/// /1711 10237 20197 40121 58015 91750 22200 00236 333 91213 555 11117 22125 31724 41614 61749 171107 164116 162118 165110 168108 172105
BBXX 41044 19181 99217 70587 46/// /3404 10251 20144 40162 57020 91750 22200 00265 11004 20401 300// 41003 70018 333 91206 555 11040 22041 31655 43506 61749 342037 342031 336039 346042 352042 346040 83505 91708
BBXX 41048 19181 99320 70696 46/// /3309 10163 20054 40245 58009 91750 22200 00224 11107 20704 3//// 41106 70035 333 91211 555 11093 22097 31657 43511 61749 333091 347085 335089 336082 334082 346084 83310 91705
BBXX 42065 19181 99149 70750 46/// /0608 10275 20213 91750 22200 10704 20704 3//// 41301 70019 333 91210 555 11088 22093 31727 40710 61749 062083 065086 068087 068084 063081 066085 80709 91723
BBXX 42012 19181 99301 70876 46/// /1407 10200 20126 40216 58016 91750 22200 00204 10502 20502 70008 333 91208 555 11072 22076 31707 41409 61749 138068 147061 148061 151062 144067 145066
BBXX 42001 19181 99259 70897 46/// /1208 10232 20162 40195 58015 91750 22200 00261 10702 20402 3//// 40701 70011 333 91210 555 11086 22090 31654 41311 61749 119082 123084 131084 126084 142082 138084
BBXX 42035 19181 99292 70944 46/// /1205 10186 20177 40164 58005 91750 22200 00166 10602 20502 315// 40602 70012 333 91206 555 11057 22066 31744 41206 61749 117049 119045 117045 117042 119041 119039
BBXX 42058 19181 99149 70749 46/// /0812 10273 20201 40126 58017 91750 22200 00278 10705 20705 322// 41401 70025 333 91214 555 11127 22136 31715 40915 61749 080119 075120 079115 079120 082113 082115 80813 91715
BBXX 42060 19181 99163 70635 46/// /0408 10269 20167 40154 58022 91750 22200 00278 10503 20502 300// 41001 70014 333 91209 555 11081 22085 31658 40410 61749 040076 042076 042074 039075 038077 039073 80408 91745
BBXX 42036 19181 99285 70845 46/// /1408 10201 20156 40226 58012 91750 22200 00212 10503 20503 70013 333 91209 555 11080 22084 31705 41310 61749 136075 133077 131078 135077 134082 134081
BBXX 42056 19181 99198 70849 46/// /0909 10265 20221 40167 58010 91750 22200 00271 10704 20704 70021 333 91211 555 11096 22102 31722 40811 61749 089090 088088 088092 087093 087094 085087 80910 91710
BBXX 42019 19181 99279 70954 46/// /1610 10237 20197 40134 58012 91750 22200 10604 20604 70022 333 91211 555 11105 22112 31728 42812 61749 172098 281098 281095 281092 281086 276090
BBXX 42059 19181 99151 70675 46/// /0710 10272 20191 40139 58024 91750 22200 00279 10704 20703 3//// 41001 70018 333 91212 555 11109 22116 31703 40712 61749 068102 065099 065100 063102 065101 064100 80711 91711
BBXX 44005 19181 99432 70691 46/// /2113 10035 21026 40153 58051 91750 22200 00086 10504 20503 3//// 41002 70019 333 91216 555 11133 22140 31747 42016 61749 213125 211114 211113 208108 212107 215108
BBXX 42040 19181 99292 70882 46/// /1507 10203 40213 58016 91750 22200 00225 10502 20502 70008 333 91208 555 11068 22071 31724 41611 61749 149070 150077 158076 157076 159069 156072
BBXX 42002 19181 99258 70937 46/// /1511 10243 20192 40161 58011 91750 22200 00242 10603 20603 70016 333 91214 555 11109 22116 31731 41414 61749 152109 147116 145113 146108 143108 145115
AAXX 19184 91408 32473 60806 10272 20250 30019 40057 57012 82208 333 561/9 70013 555 91918
BBXX 44025 19181 99402 70732 46/// /2313 10073 20011 40194 58041 91750 22200 00110 10604 20604 314// 41001 70019 333 91216 555 11140 22147 31705 42416 61749 226131 227131 226126 229131 231131 235131
BBXX 41008 19181 99314 70809 46/// /1304 10179 20129 40264 58012 91750 22200 00166 10402 20401 300// 40701 70009 333 91205 555 11050 22057 31728 41205 61749 134044 134041 129043 132041 129041 127042
BBXX 41004 19181 99325 70791 46/// /1504 10171 20080 40272 58018 91750 22200 00210 10802 20401 3//// 40802 70008 333 91205 555 11037 22038 31655 41705 61749 152037 140031 161029 174025 167020 173026
BBXX 44009 19181 99385 70747 46/// /2110 10083 40233 58040 91750 22200 00120 10503 20503 300// 41001 70016 333 91213 555 11109 22115 31712 42214 61749 215104 215103 214110 220109 216111 219110
BBXX 44014 19181 99366 70748 46/// /2308 1//// 40257 58025 91750 22200 00145 11003 20401 307// 41002 70013 333 91210 555 11078 22078 31728 42211 61749 226080 226079 223081 223083 219082 224078
BBXX 44027 19181 99443 70673 46/// /2110 10014 21039 40155 58053 91750 22200 00083 10402 20401 3//// 41101 70008 333 91213 555 11103 22108 31749 42113 61749 209098 212095 207095 215092 211086 214084
BBXX 44065 19181 99404 70737 46/// /2110 10072 20009 40189 58044 91750 22200 00101 10503 20503 307// 40901 70013 333 91212 555 11109 22115 31725 42013 61749 205103 210105 208106 208101 215104 221105 82111 91725
BBXX 41013 19181 99334 70777 46/// /1902 10150 20059 40269 58024 91750 22200 00198 11002 308// 41002 70008 333 91204 555 11021 22022 31738 41904 61749 190021 175027 160022 156025 165025 151020
BBXX 44040 19181 99410 70736 46/// /2409 10062 21013 40193 91745 22200 10301 70007 333 91212 555 11108 22124
BBXX 44020 19181 99414 70702 46/// /2313 10060 20007 40181 56054 91750 22200 00075 10302 20302 70009 333 91216 555 11134 22143 31732 42616 61749 232126 256123 256120 257113 257115 254114
BBXX 46105 19181 99590 71522 46/// ///// 1//// 91750 22200 11103 70016
BBXX 46070 19181 99551 11753 46/// /3205 11016 21076 49881 52004 91750 22200 00037 11308 20402 3//// 41308 70039 333 91207 555 11056 22058 31656 42909 61749 314054 307057 312053 313057 277051 303060 82907 91657
BBXX 46078 19181 99561 71526 46/// /2010 10035 20009 49985 51010 91750 333 91213 555 11102 22108
BBXX 46014 19181 99394 71240 46/// /0204 10101 40214 53009 91750 22200 00106 11507 20301 3//// 41507 70035 333 91205 555 11039 22040 31704 43608 61749 018037 010037 015046 017048 003057 000042
BBXX 46011 19181 99350 71210 46/// /0000 10105 40189 51009 91750 22200 00137 11505 20301 331// 41505 70024 333 91201 555 11003 22003 31700 40402 61749 124002 146003 130003 057003 043011 052009
BBXX 46047 19181 99324 71195 46/// /3106 10128 40197 51005 91750 22200 00135 11405 20402 329// 41404 70023 333 91207 555 11067 22070 31727 43108 61749 310063 310061 307068 299059 283040 293039
BBXX 46088 19181 99483 71232 46/// /2102 10070 40307 91750 22200 00079 1//00 70001 333 91203 555 11022 22022 31707 42003 61749 206021 204020 189022 183026 189027 179026
BBXX 46086 19181 99325 71180 46/// /2606 10137 40193 51007 91750 22200 00150 11504 20501 328// 41504 70020 333 91206 555 11058 22060 31723 42608 61749 256054 257056 260056 255059 256058 257055
BBXX 46027 19181 99419 71244 46/// /3508 10092 40252 53014 91750 22200 00091 11407 20603 329// 41406 70033 333 91210 555 11084 22089 31746 43510 61749 345078 353070 357071 359078 359081 359079
BBXX 46050 19181 99442 71246 46/// /0206 10087 40311 52004 91750 22200 00096 11405 20401 330// 41405 70026 333 91208 555 11064 22068 31738 40109 61749 016063 015068 009062 008065 002063 006060
BBXX 46069 19181 99337 71202 46/// /3006 10124 40191 53007 91750 22200 00141 11404 20401 330// 41404 70020 333 91207 555 11059 22061 31701 43107 61749 298056 309051 311051 313051 315058 305057
BBXX 46013 19181 99382 71233 46/// /3602 10091 40204 52011 91750 22200 00107 11506 20301 3//// 41506 70032 333 91203 555 11017 22018 31737 43104 61749 358017 300013 294012 004007 308010 347014
BBXX 46012 19181 99374 71229 46/// /3505 10099 40198 52008 91750 22200 00122 11507 20301 331// 41507 70037 333 91206 555 11051 22053 31727 43506 61749 352049 355051 353050 356046 354045 349044
BBXX 46087 19181 99485 71247 46/// /1802 10082 20065 40307 54000 91750 22200 00077 11404 20401 328// 41404 70020 333 91203 555 11023 22027 31711 41704 61749 183021 186028 185028 185031 187029 179025
BBXX 46029 19181 99461 71245 46/// /0403 10078 20052 40320 53009 91750 22200 00077 11405 20401 327// 41405 70024 333 91204 555 11036 22039 31709 40305 61749 041034 039033 033035 037036 026036 017036
BBXX 46054 19181 99342 71204 46/// /3104 10122 40187 91750 22200 00139 11504 20401 300// 41504 70021 333 91205 555 11046 22048 31745 43005 61749 309043 318037 327032 325026 336032 335029
BBXX 46028 19181 99357 71219 46/// /3504 10114 40179 53006 91750 22200 00129 11506 20401 331// 41506 70029 333 91206 555 11045 22046 31653 43406 61749 347042 342041 345042 346042 353044 346048
BBXX 46025 19181 99337 71191 46/// /1702 10138 20097 40185 53006 91750 22200 00153 11402 20401 326// 41402 70010 333 91203 555 11021 22021 31748 41703 61749 170020 162016 155015 136021 148021 139017
BBXX 32012 19181 99197 50856 46/// ///// 1//// 91750 22200 11405 70024
BBXX 46002 19181 99426 71305 46/// ///// 10100 40337 52003 91750 22200 00121 11505 70025
BBXX 46006 19181 99408 71375 46/// /1703 10112 40346 53004 91750 22200 00124 11405 3//// 41405 70023 333 91204 555 11028 22029 31723 41605 61749 165027 163031 162036 157036 163036 159034
BBXX 46084 19181 99566 71361 46/// /1307 10047 20021 49987 55055 91750 22200 00073 11608 20503 300// 41607 70039 333 91208 555 11068 22071 31659 41019 61749 129065 126070 127074 117116 107141 097155
BBXX 46078 19181 99561 71526 46/// /2010 10035 20009 49985 51010 91750 333 91213 555 11102 22108
BBXX 46075 19181 99539 71608 46/// /2210 10029 20011 49978 53025 91750 22200 00047 11107 20805 300// 41105 70034 333 91212 555 11105 22111 31717 42214 61749 221100 217101 215107 218115 233100 237094 82212 91717
BBXX 46005 19181 99461 71310 46/// ///08 10100 40300 56005 91750 22200 00100 11404 20702 3//// 41403 70021 333 91210 555 11089 22095
BBXX 46059 19181 99380 71300 46/// /0111 10118 40308 51013 91750 22200 00145 10706 20705 3//// 41403 70029 333 91214 555 11119 22126 31724 40115 61749 014111 013101 006117 015115 007114 011112
BBXX 46080 19181 99580 71500 46/// /2207 10046 20003 49983 52008 91750 22200 00052 11208 20603 3//// 41207 70039 333 91208 555 11071 22075 31728 42209 61749 220068 220074 218071 218063 218061 219061 82308 91733
BBXX V7MO2 19184 99262 70914 41397 41613 10222 20137 40186 57011 7//// 84139 22200 00231 20301 311// 40502 5//// 6//// 80169 ICE /////
BBXX NWS0022 19184 99416 70714 43/// /2316 10073 20011 40178 5//// 7//// 8//// 222// 04092 2//// 3//// 4//// 5//// 6//// 8//// ICE /////
BBXX V7NV4 19184 99294 71445 41497 80919 10190 20159 40260 51010 702// 84627 22263 00160 20201 301// 40506 5//// 6//// 80170 ICE /////
BBXX WDC6698 19184 99095 71444 43/// /1018 1//// 2//// 40110 5//// 7//// 8//// 222// 04254 2//// 3//// 4//// 5//// 6//// 8//// ICE /////
BBXX WFLG 19184 99301 71340 41498 20415 10167 20119 40275 53015 70200 8116/ 22264 00144 20302 330// 40806 5//// 6//// 80139 ICE /////
BBXX C6XC2 19184 99024 31327 41498 30210 10250 20236 40050 57020 70100 8248/ 22200 00300 2//// 3//// 4//// 5//// 6//// 80240 ICE /////
BBXX VCPX 19184 99439 70823 41/97 82520 10007 2//// 41011 54/// 72222 8//// 22232 00044 20101 3//// 4//// 5//// 6//// 8//// ICE /////
AAXX 19184 91408 32473 60806 10272 20250 30019 40057 57012 82208 333 561/9 70013 555 91918
BBXX TBWUK18 19184 99313 50082 41098 23606 10250 20250 40238 54000 70200 821// 2229/ 20500 319// 41604 5//// 80250
BBXX BAREU61 19184 99068 70128 46/// /3008 10285 29066 40100 57003 22234
BBXX ONDY 19184 99309 30164 41899 11823 10190 2012/ 40160 54000 70100 81//6 22234 00190 20306 31819 40406 50204 6//// 80150 ICE /////
BBXX DBBT 19181 99396 30069 46/// /2915 10138 20108 40140 52002 22213 00133
BBXX DBKV 19181 99169 70250 46/// /0606 10230 20169 40147 57008 22200 00236
BBXX ONCE 19184 99291 30614 41497 71219 10205 2//// 40210 5//// 70404 80404 222// 01042 20016 30401 40025 502// 6/993 ICE /////
BBXX WAHV 19184 99212 10689 41998 03413 10230 2019/ 40150 57005 7//00 80/// 22234 00261 2//// 3//// 4//// 5//// 6//// 80200 ICE /////
BBXX DFWV2 19184 99300 11647 41/// 82920 10195 20154 40130 54000 75152 8/7// 2226/ 04210 29903 3//// 4//// 5////
BBXX HZGN 19183 99062 11146 41297 50512 10270 20257 40095 58011 70362 832// 22224 02260 20401 302// 40705 5//// 80260
BBXX WCX8882 19184 99275 11277 41498 60719 10180 2011/ 40252 58016 70211 862// 22244 00230 2//// 3//// 4//// 5//// 6//// 80140 ICE /////
BBXX 4XIS 19183 99359 11639 43/98 82914 10140 2011/ 40102 56015 22224 80120
BBXX 4XFX 19184 99540 11721 41/98 30312 00/// 11020 2105/ 49895 53010 72600 83/// 22264 0//// 2//// 3//// 4//// 5//// 6//// 81030
BBXX 3EPD8 19184 99298 50447 41998 13612 10260 20199 40072 7//00 81040 22214 04235 2//01 80220
BBXX 42363 19181 99282 70892 46/// /1608 10206 20089 40217 91745 333 91210
BBXX 42364 19181 99291 70881 46/// /1608 10200 20111 40224 91745
BBXX SHIP 19184 99345 71413 43498 80915 10170 20120 40290 52010 70322 8877/ 22264 00187 20604 329// 40605 80140
BBXX PGQI 19183 99265 70709 41/97 63624 10215 20149 40221 56013 70322 85560 22273 20603 333// 41006 80173
BBXX 3FSB4 19184 99295 71229 435// 83416 10150 2013/ 40230 52010 7//// 886// 22234 0//// 20602 3//// 40503 5//// 6//// 80140 ICE /////
BBXX WFLG 19184 99301 71340 41498 20415 10167 20119 40275 53015 70200 8116/ 22264 00144 20302 330// 40806 5//// 6//// 80139 ICE /////
BBXX V7NV4 19184 99294 71445 41497 80919 10190 20159 40260 51010 702// 84627 22263 00160 20201 301// 40506 5//// 6//// 80170 ICE /////
BBXX KGTY 19184 99527 71452 43898 82519 10022 2108/ 49880 5//// 7//// 87/4/ 22234 00039 20805 32220 41007 51211 6//// 81011 ICE /////
BBXX A8OH5 19183 99203 71069 41598 63521 10230 20161 40170 52010 70300 84468 22234 00290 20502 334// 40603 80185
BBXX ZCDF4 19183 99289 71162 41/98 43020 10155 20118 40214 53007 70311 8346/ 22284 00190 20301 333// 40804 5//// 80135
BBXX 44060 19181 99413 70721 46/// ///10 10060 40193 91745 22200 00104 333 91213 555 11108 22113
BBXX 51205 19181 99210 71564 46/// ///// 1//// 91748 22200 00242 10906 20906 336// 41102 70030
BBXX 46060 19181 99606 71468 46/// /1107 10046 49988 91750 22200 00058 333 91209 555 11069 22072
BBXX 44022 19181 99409 70737 46/// ///09 10059 21014 40189 91745 22200 00079 333 91211 555 11093 22098
BBXX 46088 19181 99483 71232 46/// /2102 10070 40307 54000 91750 22200 00079 1//00 70001 333 91203 555 11022 22022 31707 42003 61749 206021 204020 189022 183026 189027 179026
BBXX 41115 19181 99184 70673 46/// ///// 1//// 91735 22200 11203 21003 302// 41201 70015
BBXX 41114 19181 99276 70802 46/// ///// 1//// 91746 22200 00235 10503 20503 307// 41101 70014
BBXX 41012 19181 99300 70805 46/// /1307 10200 40253 58012 91750 22200 00234 10802 20602 306// 40801 70011 333 91208 555 11070 22073 31738 41310 61749 127067 133068 132065 122064 134061 134061
BBXX C6OT4 19184 99181 71533 41397 70732 10238 20203 40135 53009 75852 87700 22222 04244 20807 309// 41206 5//// 80215
BBXX KIYI 19184 99578 71438 41598 20605 10042 2002/ 49990 54000 7//00 824// 22234 0//// 20101 325// 40705 5//// 6//// 80032 ICE /////
BBXX LAOX5 19181 99376 71537 41698 82018 00/// 10180 2015/ 40258 51005 70221 88618 22213 00/// 22103 327// 41213 5//// 6//// 80165
BBXX V7MO2 19184 99262 70914 41397 41613 10222 20137 40186 57011 7//// 84139 22200 00231 20301 311// 40502 5//// 6//// 80169 ICE /////
BBXX 46211 19181 99469 71242 46/// ///// 1//// 91736 22200 00084 11304 21002 328// 41304 70022
BBXX 46218 19181 99345 71208 46/// ///// 1//// 91732 22200 00139 11406 20603 330// 41405 70028
BBXX 46217 19181 99342 71194 46/// ///// 1//// 91742 22200 00145 11302 21001 326// 41301 70009
BBXX 46212 19181 99408 71243 46/// ///// 1//// 91742 22200 00098 11306 20905 330// 41304 70032
BBXX 46240 19181 99366 71219 46/// ///// 1//// 91742 22200 00123 11203 21001 335// 41202 70013
BBXX 46237 19181 99378 71226 46/// ///// 1//// 91740 22200 00112 11506 21003 325// 41504 70028
BBXX 44098 19181 99428 70702 46/// ///// 1//// 91737 22200 00089 10504 20504 310// 41101 70019
BBXX 46244 19181 99409 71244 46/// ///// 1//// 91735 22200 00097 11408 20806 330// 41406 70041
BBXX 46248 19181 99461 71247 46/// ///// 1//// 91734 22200 00097 11405 21003 328// 41404 70025
BBXX 46249 19181 99338 71197 46/// ///// 1//// 91742 22200 00148 11502 21002 326// 41502 70011
BBXX WSRH 19184 99393 71244 41498 20325 10094 2005/ 40245 57010 7//00 81//8 22235 00100 20404 335// 40506 5//// 6//// 80072 ICE /////
BBXX LEQZ3 19183 99542 71632 412// 32524 10050 2003/ 49970 52020 7//00 83482 22262 00120 80040
BBXX SHIP 19183 99405 10270 41597 61810 10150 2010/ 40140 54000 7//22 86165 22200 00120 2//// 3//// 4//// 5//// 6//// 80120 ICE /////
BBXX DBFR 19181 99542 10079 46/// /2114 10042 20023 40096 57010 22232 00068
BBXX DBBU 19181 99542 10118 46/// /2310 10024 20019 40125 52011 22221 00053
BBXX A8ZS7 19184 99357 30159 41698 21808 10210 20147 40185 53010 70100 82060 22264 04190 20501 322// 40602 80170
BBXX BAREU05 19184 99479 70602 46/// ///// 40152 57018 22274
AAXX 19181 13586 11456 82901 10040 20031 39843 40138 53001 69932 71022 887// 333 10047 87717 88633
BBXX BAREU08 19184 99472 70112 46/// ///// 40223 57005 22214
AAXX 19184 61901 169// /1313 10168 20136 39657 40165 55007 69982 91750 333 10194 8//99 555 7/090
BBXX 46002 19181 99426 71305 46/// ///// 10100 40337 52003 91750 22200 00121 11505 70025
BBXX 46005 19181 99461 71310 46/// ///08 10100 40300 56005 91750 22200 00100 11404 20702 3//// 41403 70021 333 91210 555 11089 22095
BBXX 46006 19181 99408 71375 46/// /1703 10112 40346 53004 91750 22200 00124 11405 3//// 41405 70023 333 91204 555 11028 22029 31723 41605 61749 165027 163031 162036 157036 163036 159034
BBXX 46012 19181 99374 71229 46/// /3505 10099 40198 52008 91750 22200 00122 11507 20301 331// 41507 70037 333 91206 555 11051 22053 31727 43506 61749 352049 355051 353050 356046 354045 349044
BBXX 46013 19181 99382 71233 46/// /3602 10091 40204 52011 91750 22200 00107 11506 20301 3//// 41506 70032 333 91203 555 11017 22018 31737 43104 61749 358017 300013 294012 004007 308010 347014
BBXX 46014 19181 99394 71240 46/// /0204 10101 40214 53009 91750 22200 00106 11507 20301 3//// 41507 70035 333 91205 555 11039 22040 31704 43608 61749 018037 010037 015046 017048 003057 000042
BBXX 46029 19181 99461 71245 46/// /0403 10078 20052 40320 53009 91750 22200 00077 11405 20401 327// 41405 70024 333 91204 555 11036 22039 31709 40305 61749 041034 039033 033035 037036 026036 017036
BBXX 46050 19181 99442 71246 46/// /0206 10087 40311 52004 91750 22200 00096 11405 20401 330// 41405 70026 333 91208 555 11064 22068 31738 40109 61749 016063 015068 009062 008065 002063 006060
BBXX KGTY 19184 99527 71452 43898 82519 10022 21080 49880 5//// 7//// 87/4/ 22234 00039 20805 32220 41007 51211 6//// 81011 ICE /////
BBXX KIYI 19184 99578 71438 41598 20605 10042 20020 49990 54000 7//00 824// 22234 0//// 20101 325// 40705 5//// 6//// 80032 ICE /////
BBXX VRZL2 19184 99345 71413 43498 80915 10170 20120 40290 52010 70322 8877/ 22264 00187 20604 329// 40605 80140
AAXX 19184 40272 31957 00810 10128 21053 39386 40230 52006 70500 333 10194
BBXX 44066 19181 99396 70726 46/// /2411 10079 20019 40218 56036 91750 22200 00131 10503 20503 3//// 41102 70017 333 91214 555 11119 22125 31709 42414 61749 241109 237104 242108 238107 244112 241105
AAXX 19184 41859 31930 03103 10135 20130 30122 40161 70500 333 59011 70000
AAXX 19184 41883 NIL
AAXX 19184 41891 NIL
AAXX 19184 41907 31910 00000 10116 20110 30140 40156 70500 333 59006 70000
AAXX 19184 41923 NIL
AAXX 19184 41936 NIL
AAXX 19184 41943 NIL
AAXX 19184 41950 NIL
AAXX 19184 41978 NIL
AAXX 19184 41992 NIL
AAXX 19184 89009 41361 20907 11264 36852 58014 70144 81608 333 81707
AAXX 19184 78858 12582 20414 10279 20173 30101 40157 60001 81831 333 10279 20220 58017 81826
AAXX 19184 78948 12584 60718 10287 20195 30129 40137 60001 70311 81802 333 01106 10293 20232 58010 81831 85078
AAXX 19184 97180 01457 70702 10259 20259 30044 40062 57019 60081 72162 83272 333 56000 60087 83818 85460
AAXX 19184 78583 32570 40505 10270 20218 40165 83802 01105 59032 83824
BBXX 42085 19181 99179 70665 46/// /0606 10279 40149 91740 333 91209
BBXX 44007 19181 99435 70701 46/// /2213 10024 21031 40130 58061 91750 22200 00077 10504 20503 3//// 40901 70018 333 91216 555 11139 22147 31744 42316 61749 218132 219130 218130 222126 220124 224119
AAXX 19184 81405 02570 40810 10307 20234 30090 40099 60001 83832 333 60007 58004 83830 555 60005
BBXX BATFR11 19184 99351 10185 46/// /1509 10149 20072 40144 52010 22263 00192
BBXX BAREU06 19184 99479 70698 46/// ///// 40030 57050 22214
BBXX BATFR45 19184 99006 30515 46/// ///// 10279 20242 40130 53019 22214 00307
BBXX BAREU12 19184 99576 10117 46/// ///// 40008 22253
BBXX BATFR16 19184 99445 70148 46/// /3017 10135 20129 40260 53025 22264 00147
BBXX BAREU04 19184 99538 70302 46/// ///// 40164 57018 22263
BBXX BATFR55 19184 99124 30504 44898 13022 10282 20252 40101 70000 81040 22272 00285 212// 33030 413// 513//
BBXX DBJM 19181 99540 10085 46/// /2012 10031 20013 40107 57012 22200 00051
BBXX BAREU11 19184 99209 70657 46/// ///// 40180 57011 22214
BBXX BAREU00 19184 99529 70054 46/// ///// 40106 57005 22214
BBXX BATFR03 19184 99500 70005 44396 82533 10102 20099 40103 75322 877// 22284 20202
BBXX DBFH 19181 9953/ 12086 46/// /1906 10016 20007 40122 57007 22220 00045
BBXX DBKR 19181 99541 10121 46/// /2205 10025 20021 40124 52009 22200 00051
BBXX BAREU62 19184 99406 10132 46/// ///// 40125 52005 22234
BBXX BAREU51 19184 99380 10122 46/// ///// 40134 52011 22275
AAXX 19184 64550 32458 8//// 10257 20229 30/// 40/// 885// 333 10280 5//// 84610 88616
AAXX 19184 64570 32570 53302 10262 20238 39595 40099 83902 333 10304 58001 83620 81933 85076 94945 95835
BBXX DBBA 19181 99545 10112 46/// /2209 10034 20017 40111 52009 22220 00050
AAXX 19184 85574 12960 02112 10316 20086 39569 40090 57013 60001
AAXX 19184 85586 11960 02612 10188 20116 40158 53002 60001
AAXX 19184 85629 12980 01707 10272 20130 40116 57010 60001
AAXX 19184 85682 12965 02416 10210 20109 40162 53001 60001
AAXX 19184 85703 12560 21812 10252 20090 40138 57008 60001 82100 333 56400 82830
AAXX 19184 85743 12560 72808 10213 20090 40148 57013 60001 87500 333 56600 87620
AAXX 19184 85766 12560 71903 10188 20133 40155 58007 60001 86530 333 56070 86627 83358
AAXX 19184 85799 12560 73409 10176 20107 40136 57009 60001 86530 333 56770 86630 87356
AAXX 19184 85406 42980 02012 10232 20138 40116 56022 60001
AAXX 19184 85418 12570 22318 10222 20144 40127 57017 60001 82500 333 56000 82625
AAXX 19184 85432 12970 02620 10236 20038 37744 48401 57019 60001
AAXX 19184 85442 12570 12013 10207 20137 40129 57011 60001 81500 333 56400 81620
AAXX 19184 85467 12980 02712 10229 20127 40141 57022 60001
AAXX 19184 85469 42565 61012 10235 20177 40251 57003 86200 333 56200 86820
AAXX 19184 85488 12460 22710 10201 20145 40139 58013 60001 82500 333 56000
BBXX DBBC 19181 99539 10091 46/// /2008 10016 2//// 40119 57006 22221 00045
AAXX 19184 89009 41361 20907 11264 36852 58014 70144 81608 333 81707
AAXX 19181 13579 11460 83202 10028 20014 39291 40135 54000 60022 70266 887// 333 10043 88715
AAXX 19184 78862 11480 10212 10275 20193 30131 40154 69901 70181 81802 333 10281 20226 58014 81819
AAXX 19184 KN015 BKN035
AAXX 19184 TAF TKPN 181600Z 1818/1918 05014KT 9999 SCT022 BKN036 PROB40 TEMPO 1818/1918 5000 SHRA BKN015 BKN035
AAXX 19184 TAF TQPF 181600Z 1818/1918 05014KT 9999 SCT022 BKN036 PROB40 TEMPO 1818/1918 5000 SHRA BKN015 BKN035
AAXX 19184 TAF TUPJ 181600Z 1818/1918 05014KT 9999 SCT022 BKN036 PROB40 TEMPO 1818/1918 5000 SHRA BKN015 BKN035
AAXX 19184 EMPO 0600/0624 SHRA BKN015=+TSRA SCT012CB
AAXX 19184 TAF TUPJ 041000Z 04012/0512 07008KT 9999 SCT016 BKN038 SCT270 TEMPO 0412/0512 SHRA BKN015 PROB40 TEMPO 0418/0512 5000 SHRA BKN014 BKN036 PROB30 0420/0512 4000 TSRA FEW012CB
AAXX 19184 918 4000 TSRA FEW012CB
AAXX 19184 N015 BKN036 PROB40 TEMPO 0704/0724 3000 +TSRA SCT011CB BKN012 BECMG 0712/0714 14008KT
AAXX 19184 21/2712 07017G28KT 5000 SHRA BKN015 BKN036 PROB TEMPO 2700/2712 4000 TSRA FEW013CB
AAXX 19184 PROB30 TEMPO 0800/0806 4000 TSRA FEW012CB PROB40 TEMPO 0800/0824 2000 +SHRA/TSRA SCT010CB BKN012 BKN250
AAXX 19184 85836 13770 62211 10160 20078 40136 58011 60001 86030 333 56060 86356
AAXX 19184 85864 11570 72209 10160 20105 40044 56005 69901 72522 87200 333 56500 87230
AAXX 19184 85874 12580 43123 10144 20058 39423 40029 58006 60001 84200 333 56600 84830
AAXX 19184 85886 12670 53511 10184 20156 40006 58007 60001 85200 333 56600 85840
AAXX 19184 85892 12670 82409 10155 20037 49974 54000 60001 88200 333 56699 88835
AAXX 19184 85934 12580 52926 10144 21016 49919 57006 60001 83130 333 56660 83820 83360
AAXX 19184 85968 12660 52813 10137 20016 49883 52001 60001 84220 333 56660 84843 84458
AAXX 19184 89056 11/05 90114 10018 20015 49904 51005 60023 74544 333 89/00
AAXX 19184 89057 11104 82303 10024 20021 49900 52008 60023 74655 886// 333 56099 88703
AAXX 19184 89058 11520 83413 10027 20021 39984 49905 52008 69951 71064 885//
AAXX 19184 89059 11460 82002 10021 20008 49901 51006 60033 70342 886// 333 74799 88710
AAXX 19184 89251 32361 83614 10035 20022 49894 53002 82640
AAXX 19184 91772 11398 70504 10251 20234 4//// 60021 70288 8477/ 333 5619/ 81707 84640 87460
AAXX 19184 91776 NIL
AAXX 19184 91779 31498 70109 10269 20237 40125 53012 60001 70222 82201 333 568/9 82816 87078
AAXX 19184 91784 11398 83405 10247 20237 40122 53020 60011 78088 887// 333 567// 83709 85817 88635
AAXX 19184 91792 11498 80504 10245 20239 40124 53022 69971 70266 8217/ 333 5619/ 82814 88462
BBXX 61001 19184 99434 10078 46/// /0607 10109 21047 40158 52016 22200 00150 10602 70009
BBXX DBBI 19181 99536 10095 46/// /2106 10014 20014 40127 57006 22240 00038
BBXX DBCK 19181 99/// ///// 46/// ///// 10024 20023 40112 57009 22220 00046
AAXX 19184 86011 NIL
AAXX 19184 86033 32670 40605 10380 20141 39983 40074 57011 84200 333 84834
AAXX 19184 86065 NIL
AAXX 19184 86068 32670 41804 10378 20141 39866 40049 57024 84100 333 84840
AAXX 19184 86086 NIL
AAXX 19184 86097 32670 32803 10338 20126 39453 40070 57015 83100 333 83840
AAXX 19184 86128 NIL
AAXX 19184 86134 32570 12906 10378 20089 39980 40062 57025 81100 333 81833
AAXX 19184 86170 32670 30102 10380 20108 39949 40046 57022 83100 333 83840
AAXX 19184 86185 32970 01808 10362 20191 39983 40073 57018
AAXX 19184 86192 32970 00000 10342 20166 39868 40080 56018
AAXX 19184 86210 32570 12708 10332 20080 39729 40058 57014 81200 333 81833
AAXX 19184 86218 32670 12807 10370 20098 39978 40070 57020 81100 333 81840
AAXX 19184 86221 32970 00000 10356 20133 39959 40088 57013
AAXX 19184 86233 32970 03604 10350 20113 39908 40090 56003
AAXX 19184 86234 32970 02402 10350 20135 39853 40029 58012
AAXX 19184 86246 32670 12511 10336 20187 39807 40081 57014 81100 333 81840
AAXX 19184 86251 32970 00000 10346 20089 39903 40064 53001
AAXX 19184 86255 32970 01804 10388 20157 39996 40059 57019
AAXX 19184 86260 32970 00000 10334 20171 39912 40061 56022
AAXX 19184 86268 32970 03208 10354 20083 39921 40078 57019
AAXX 19184 86285 32970 02708 10348 20159 39800 40070 58015
AAXX 19184 86297 32970 02308 10340 20167 39959 40059 58021
AAXX 19184 78862 11480 10212 10275 20193 30131 40154 69901 70181 81802 333 10281 20226 58014 81819
AAXX 19184 KN015 BKN035
AAXX 19184 TAF TKPN 181600Z 1818/1918 05014KT 9999 SCT022 BKN036 PROB40 TEMPO 1818/1918 5000 SHRA BKN015 BKN035
AAXX 19184 TAF TQPF 181600Z 1818/1918 05014KT 9999 SCT022 BKN036 PROB40 TEMPO 1818/1918 5000 SHRA BKN015 BKN035
AAXX 19184 TAF TUPJ 181600Z 1818/1918 05014KT 9999 SCT022 BKN036 PROB40 TEMPO 1818/1918 5000 SHRA BKN015 BKN035
AAXX 19184 EMPO 0600/0624 SHRA BKN015=+TSRA SCT012CB
AAXX 19184 TAF TUPJ 041000Z 04012/0512 07008KT 9999 SCT016 BKN038 SCT270 TEMPO 0412/0512 SHRA BKN015 PROB40 TEMPO 0418/0512 5000 SHRA BKN014 BKN036 PROB30 0420/0512 4000 TSRA FEW012CB
AAXX 19184 918 4000 TSRA FEW012CB
AAXX 19184 N015 BKN036 PROB40 TEMPO 0704/0724 3000 +TSRA SCT011CB BKN012 BECMG 0712/0714 14008KT
AAXX 19184 21/2712 07017G28KT 5000 SHRA BKN015 BKN036 PROB TEMPO 2700/2712 4000 TSRA FEW013CB
AAXX 19184 PROB30 TEMPO 0800/0806 4000 TSRA FEW012CB PROB40 TEMPO 0800/0824 2000 +SHRA/TSRA SCT010CB BKN012 BKN250
AAXX 19184 78862 11480 10212 10275 20193 30131 40154 69901 70181 81802 333 10281 20226 58014 81819
AAXX 19184 KN015 BKN035
AAXX 19184 TAF TKPN 181600Z 1818/1918 05014KT 9999 SCT022 BKN036 PROB40 TEMPO 1818/1918 5000 SHRA BKN015 BKN035
AAXX 19184 TAF TQPF 181600Z 1818/1918 05014KT 9999 SCT022 BKN036 PROB40 TEMPO 1818/1918 5000 SHRA BKN015 BKN035
AAXX 19184 TAF TUPJ 181600Z 1818/1918 05014KT 9999 SCT022 BKN036 PROB40 TEMPO 1818/1918 5000 SHRA BKN015 BKN035
AAXX 19184 EMPO 0600/0624 SHRA BKN015=+TSRA SCT012CB
AAXX 19184 TAF TUPJ 041000Z 04012/0512 07008KT 9999 SCT016 BKN038 SCT270 TEMPO 0412/0512 SHRA BKN015 PROB40 TEMPO 0418/0512 5000 SHRA BKN014 BKN036 PROB30 0420/0512 4000 TSRA FEW012CB
AAXX 19184 918 4000 TSRA FEW012CB
AAXX 19184 N015 BKN036 PROB40 TEMPO 0704/0724 3000 +TSRA SCT011CB BKN012 BECMG 0712/0714 14008KT
AAXX 19184 21/2712 07017G28KT 5000 SHRA BKN015 BKN036 PROB TEMPO 2700/2712 4000 TSRA FEW013CB
AAXX 19184 PROB30 TEMPO 0800/0806 4000 TSRA FEW012CB PROB40 TEMPO 0800/0824 2000 +SHRA/TSRA SCT010CB BKN012 BKN250
AAXX 19184 78925 12680 40410 10290 20196 40143 57021 60001 83101 333 10293 20201 58017 83833
AAXX 19184 78925 12680 40410 10290 20196 40143 57021 60001 83101 333 10293 20201 58017 83833
AAXX 19184 78925 12680 40410 10290 20196 40143 57021 60001 83101 333 10293 20201 58017 83833
AAXX 19184 85574 12960 02112 10316 20086 39569 40090 57013 60001
AAXX 19184 85586 11960 02612 10188 20116 40158 53002 60001
AAXX 19184 85629 12980 01707 10272 20130 40116 57010 60001
AAXX 19184 85682 12965 02416 10210 20109 40162 53001 60001
AAXX 19184 85703 12560 21812 10252 20090 40138 57008 60001 82100 333 56400 82830
AAXX 19184 85743 12560 72808 10213 20090 40148 57013 60001 87500 333 56600 87620
AAXX 19184 85766 12560 71903 10188 20133 40155 58007 60001 86530 333 56070 86627 83358
AAXX 19184 85799 12560 73409 10176 20107 40136 57009 60001 86530 333 56770 86630 87356
AAXX 19184 85406 42980 02012 10232 20138 40116 56022 60001
AAXX 19184 85418 12570 22318 10222 20144 40127 57017 60001 82500 333 56000 82625
AAXX 19184 85432 12970 02620 10236 20038 37744 48401 57019 60001
AAXX 19184 85442 12570 12013 10207 20137 40129 57011 60001 81500 333 56400 81620
AAXX 19184 85467 12980 02712 10229 20127 40141 57022 60001
AAXX 19184 85469 42565 61012 10235 20177 40251 57003 86200 333 56200 86820
AAXX 19184 85488 12460 22710 10201 20145 40139 58013 60001 82500 333 56000
AAXX 19184 85836 13770 62211 10160 20078 40136 58011 60001 86030 333 56060 86356
AAXX 19184 85864 11570 72209 10160 20105 40044 56005 69901 72522 87200 333 56500 87230
AAXX 19184 85874 12580 43123 10144 20058 39423 40029 58006 60001 84200 333 56600 84830
AAXX 19184 85886 12670 53511 10184 20156 40006 58007 60001 85200 333 56600 85840
AAXX 19184 85892 12670 82409 10155 20037 49974 54000 60001 88200 333 56699 88835
AAXX 19184 85934 12580 52926 10144 21016 49919 57006 60001 83130 333 56660 83820 83360
AAXX 19184 85968 12660 52813 10137 20016 49883 52001 60001 84220 333 56660 84843 84458
AAXX 19184 89056 11/05 90114 10018 20015 49904 51005 60023 74544 333 89/00
AAXX 19184 89057 11104 82303 10024 20021 49900 52008 60023 74655 886// 333 56099 88703
AAXX 19184 89058 11520 83413 10027 20021 39984 49905 52008 69951 71064 885//
AAXX 19184 89059 11460 82002 10021 20008 49901 51006 60033 70342 886// 333 74799 88710
AAXX 19184 89251 32361 83614 10035 20022 49894 53002 82640
AAXX 19184 41946 31920 00000 10132 20130 30150 40154 71000 333 59013 70000
AAXX 19184 08594 42465 70614 10230 20178 40143 83532 333 10250 59002 83614 84360 87070
AAXX 19184 08583 31559 60620 10237 20160 40149 70622 81134 333 10262 59003 81822 83360 85070
AAXX 19184 08589 NIL
AAXX 19183 78970 11466 70912 10261 20234 30100 40125 69921 78082 86878 333 02199 10316 20229 83816 83640 86358
AAXX 19181 12772 31962 83201 10003 21026 39879 40172 57002 70222 8807/ 333 10005 4/000
AAXX 19181 12822 36/// /3202 10015 21012 30037 40184 52003 333 10019
AAXX 19181 12843 31663 83402 10013 21023 39994 40169 53003 77172 875// 333 10022 4/000 87640
AAXX 19181 12882 31975 80304 10012 21012 30014 40149 58010 70222 8807/ 333 10024 4/000
AAXX 19181 12925 16/// /3603 10001 21003 30003 40180 52009 60022 333 10023
AAXX 19181 12942 11312 80206 11002 21003 39901 40153 53004 60032 77177 8572/ 333 10005 43004 85706 88526
AAXX 19181 12982 11420 80305 11001 21008 30043 40147 57001 60022 77177 8802/ 333 10008 43002 88515
AAXX 19181 10004 46/59 /2113 10052 20037 34087 40087 57017/ 222// 00083 33/ 10071 20/37 55300 91118 91214
AAXX 19181 10015 12468 72114 10046 20014 30089 40099 58014 60002 8213/ 222// 02065 333 10070 20044 31004 55300 20000 30000 82818 87358 91117 91214
AAXX 19181 10020 07580 72111 10047 20026 30048 40081 58013 69992 72376 333 10065 20031 3/002 55300 20000 30000 69997 83/23 87/35 87/49 91116 91211
AAXX 19181 10035 01970 02105 10017 20005 30046 40106 58002 69982 70181 333 10051 20017 31101 55300 20000 30000 40875 69977
AAXX 19181 10055 01670 12408 10035 20016 30103 40114 51007 69902 70281 81500 333 10049 20033 31002 55300 20000 30000 69907 81640 91114 91212
AAXX 19181 10147 12380 32207 10016 20007 30115 40134 50001 69902 83600 333 10041 20007 32101 55300 20000 30000 40856 83707
AAXX 19181 10162 17457 52305 10014 20003 30052 40137 51006 69902 71065 333 10030 20014 3/000 55300 20000 30000 85/11
AAXX 19181 10184 12465 52304 10027 20009 30121 40129 51013 69902 85800 333 10040 20025 31001 55300 20000 30000 81814 85650
AAXX 19181 10200 12780 72007 10025 20004 30119 40117 58011 69962 875// 333 10048 20018 32000 55300 20000 30000 87650
AAXX 19181 10224 12968 52105 10014 20003 30132 40139 58006 69902 82031 333 10038 20006 32100 55300 20000 30000 82362 85072
AAXX 19181 10270 NIL
AAXX 19181 10338 12661 22104 10016 21002 30083 40158 58002 69972 82500 333 10027 20003 31100 55300 20000 30000 82642
AAXX 19181 10361 11460 82402 10025 20004 30062 40168 51006 69942 70282 885// 333 10029 20015 31001 55300 20000 30000 86619 88650 96485
AAXX 19181 10393 01465 82203 10014 21000 30035 40165 51008 69902 70272 875// 333 10020 20011 31000 55300 20000 30000 69907 87612
AAXX 19181 10400 12865 71805 10025 21003 30111 40162 58011 60002 8707/ 333 10032 20013 31001 55300 20000 30000 83358 87463
AAXX 19181 10438 NIL
AAXX 19181 10469 01468 82305 10015 21009 30007 40176 51004 69902 70272 875// 333 10019 20000 31101 55300 69907 85616 87650
AAXX 19181 10488 01474 82505 10012 21024 39894 40183 53005 69902 72272 875// 333 10019 20001 31102 55300 20000 30000 41102 69907 87618
AAXX 19181 10506 12480 72204 11005 21027 39586 40186 58005 60002 875// 333 10009 21012 3/102 43002 55300 20000 30000 82610 87617
AAXX 19181 10548 11470 81802 11009 21027 39637 40196 51004 69912 70272 885// 333 11003 21030 3/105 42997 55300 20000 30000 83613 88633
AAXX 19181 10637 12570 72103 10022 21006 30058 40199 50003 60002 875// 333 10032 20003 31101 55300 81621 87644
AAXX 19181 10685 01265 82404 11019 21033 39499 40195 51006 69902 70272 875// 333 11014 21034 3/105 47006 55300 20000 30000 69907 87606 96478
AAXX 19181 10738 01480 72101 11003 21032 39735 40221 51008 69902 72287 878// 333 10012 21032 31110 41998 55300 69907 82810 87640 96271 96485 96478
AAXX 19181 10763 01680 72203 10000 21027 39815 40210 51006 69902 70372 875// 333 10011 21017 34103 55300 20000 30000 69907 87644
AAXX 19181 10788 15673 72202 11011 21029 39769 40217 51009 69902 333 10019 21030 3/106 55300 20000 30000 86/42 87/48
AAXX 19181 10852 01481 82302 11008 21031 39634 40223 52010 69902 72271 878// 333 10008 21056 31110 4/998 55300 20000 30000 69907 81818 87633
AAXX 19181 10946 07677 82502 11023 21047 39366 40228 52009 69902 70075 333 11005 21074 3/105 4/006 55300 20000 30000 69907 88/48
AAXX 19184 41170 41959 03107 10180 20132 30211 40224 70500 333 10243 58006
AAXX 19181 33815 11496 80702 10019 20015 39986 40198 57016 69942 78082 883// 333 10020 555 80012
AAXX 19181 01003 NIL
AAXX 19181 01007 11560 80000 11060 21104 30056 40066 52002 60002 77072 885// 333 11055 47006 91106
AAXX 19181 01028 NIL
AAXX 19181 01047 NIL
AAXX 19181 01049 NIL
AAXX 19181 01078 11370 80610 10037 20008 39963 49976 58011 6//// 76062 8772/ 333 10046 91114
AAXX 19181 01102 46/// /0000 10036 21010 39931 49950 52001 333 10042 91103
AAXX 19181 01160 41989 00407 10030 21027 39933 49950 58001 70200 333 10034 91112
AAXX 19181 01218 NIL
AAXX 19181 01238 46/// /2204 11072 21093 38848 49979 52008 333 11023 91114
AAXX 19181 01241 11480 82906 10028 20012 39956 49967 50004 60042 78082 8596/ 333 10049 91116
AAXX 19181 01281 NIL
AAXX 19181 01338 16/// /2205 10032 21001 39943 40009 53009 69922 333 10045 91113
AAXX 19181 01359 NIL
AAXX 19181 01397 NIL
AAXX 19181 01400 NIL
AAXX 19181 01427 11575 73506 10034 20006 30018 40034 57003 60012 72582 85930 333 10056 91114
AAXX 19181 01447 NIL
AAXX 19181 01448 46/// /3004 10028 21014 30018 40028 50002 333 10045 91112
AAXX 19181 01001 11456 81206 10004 21010 39955 49967 57007 69912 77176 887// 333 10007 91111
AAXX 19181 01008 11480 71105 11051 21094 30036 40070 52003 69912 77072 875// 333 11029 91105
AAXX 19181 01010 41987 71004 10021 21030 39948 49964 57002 70222 83078 333 10028 91108
AAXX 19181 01026 41689 80603 10019 21012 39830 49971 55005 70222 83548 333 10020 4/021 91107
AAXX 19181 01055 46/// /0512 10048 20016 39966 49983 57013 333 10049 91117
AAXX 19181 01062 NIL
AAXX 19181 01098 11470 80603 10022 20003 39946 49964 57013 60022 76065 886// 333 10039 91107
AAXX 19181 01115 11486 51803 10029 21011 39928 49948 54001 60002 70122 81270 333 10040 91104
AAXX 19181 01152 11688 61004 10002 21028 39937 49953 54001 60002 70122 84571 333 10012 91107
AAXX 19181 01205 NIL
AAXX 19181 01212 16/// /2006 10044 20019 39979 49995 52001 6//// 333 10049 91109
AAXX 19181 01271 16/// /0702 11018 21028 39949 49970 54000 60072 333 11016 91106
AAXX 19181 01288 11570 82804 11014 21048 39221 49967 52008 60012 70282 883// 333 11011 91112
AAXX 19181 01300 NIL
AAXX 19181 01317 11580 81702 10023 20001 30010 40025 50000 60022 70282 8686/ 333 10029 91104
AAXX 19181 01367 NIL
AAXX 19181 01384 11687 23403 11008 21044 39739 49989 53013 60002 70111 81402 333 10020 91105
AAXX 19181 01403 11581 8//// 10030 20002 39959 40029 57004 60002 70282 8486/ 333 10042
AAXX 19181 01415 16/// /1303 10019 20001 30020 40031 57002 6//// 333 10050 91109
AAXX 19181 01482 46/// /2707 10039 21025 39988 49995 52012 333 10047 91109
AAXX 19181 01492 NIL
AAXX 19184 78897 12582 70210 10279 20180 40148 56020 60001 878// 333 021// 10286 20187 58013 70002 83830 86650
AAXX 19184 78897 12582 70210 10279 20180 40148 56020 60001 878// 333 021// 10286 20187 58013 70002 83830 86650
AAXX 19181 76055 32980 00902 10169 20015 30152 40171 52008 91740 333 10184 20051 30/// 58///
AAXX 19181 76113 32880 41901 10108 20071 39708 40178 52012 83030 91745 333 10114 20046 30/// 59004 84358
AAXX 19181 76220 32958 02703 10058 21022 38124 40194 52008 91735 333 10058 21020 30/// 59028
AAXX 19181 76225 32960 02905 10113 20052 38596 40118 50001 91745 333 10113 20053 30/// 59049
AAXX 19181 76256 32980 00502 10154 20124 30215 40229 52018 91745 333 10215 20079 30/// 58012
AAXX 19181 76305 32970 00601 10189 20096 30190 40198 52007 91740 333 10192 20100 30/// 59009
AAXX 19181 76323 32970 00602 10152 21007 38234 40145 50006 91755 333 10162 20069 30/// 59052
AAXX 19181 76342 32962 03602 10180 20112 39436 40150 52012 91750 333 10184 20102 30/// 59141
AAXX 19181 76390 31978 32113 10193 20023 38192 40078 57006 70744 91730 333 10206 20120 30/// 59084 91120
AAXX 19181 76458 32970 02705 10198 20144 30154 40159 57002 91738 333 10224 20125 30/// 59026
AAXX 19181 76471 32580 22708 10190 20013 37670 40095 52004 82500 91750 333 10195 20060 30/// 56500 59066 82635
AAXX 19181 76491 32960 11404 10256 20156 39751 40131 57008 80004 91750 333 10259 20147 30/// 56009 59137 81074
AAXX 19181 76525 32980 12014 10116 20005 37456 40125 57002 80001 91740 333 10116 20071 30/// 56//5 59058 81080
AAXX 19181 76548 32575 42502 10244 20168 30152 40162 58012 81130 91740 333 10246 20172 30/// 56330 59012 81826 83357
AAXX 19181 76556 32970 02902 10234 20176 39121 40154 51005 91735 333 10242 20118 30/// 59030
AAXX 19181 76571 32975 01603 10218 20012 38160 40169 56009 91750 333 10222 20062 30/// 59055
AAXX 19181 76577 32570 32306 10187 20153 38046 40155 58002 83500 91740 333 10195 20096 30/// 56500 59041 83626
AAXX 19181 76581 32975 03101 10208 20142 39031 40137 57016 91750 333 10215 20123 30/// 59099
AAXX 19181 76585 32680 10901 10225 20194 39990 40149 58017 81100 91745 333 10232 20137 30/// 562// 59102 81830
AAXX 19181 76612 32962 00000 10213 20110 38473 40160 58002 91750 333 10264 20083 30/// 59046
AAXX 19181 76632 32968 01604 10162 20094 37624 40032 57058 91745 333 10165 20068 30/// 58///
AAXX 19181 76634 31670 13601 10210 20035 37849 40166 57006 70500 81100 91745 333 10214 20058 30/// 563// 58/// 81834
AAXX 19181 76654 31430 11801 10300 20220 30149 40153 52005 70544 81500 91750 333 10300 20217 30/// 56900 59016 81620
AAXX 19181 76662 32670 42401 10232 20101 38467 40151 57006 84200 91745 333 10250 20115 30/// 56700 59041 84833
AAXX 19181 76665 31564 32302 10228 20088 38124 40147 57004 70300 83200 91750 333 10252 20075 30/// 56100 57812 59034 83825
AAXX 19181 76680 31962 00901 10190 20006 37751 40116 57008 70500 80000 91755 333 10195 20083 30/// 58034
AAXX 19181 76681 31980 03602 10192 20062 37783 40180 57015 70500 91745 333 10192 20024 50390 55070 59040
AAXX 19181 76683 32970 00901 10187 20047 37826 40199 56015 91744 333 10195 20018 30/// 59034
AAXX 19181 76687 31570 10901 10196 20083 38684 40186 58009 70100 81100 91737 333 10203 20084 30/// 563// 59072 81824
AAXX 19181 76692 31556 31403 10266 20195 30144 40164 57014 70541 81200 91745 333 10269 20179 30/// 564// 59080 81826 82628
AAXX 19181 76726 32970 02001 10210 20080 38404 40140 57006 91750 333 10210 20124 30/// 58000
AAXX 19181 76737 32980 01602 10202 20130 38774 40173 57013 91735 333 10208 20088 30/// 59076 91105 91516
AAXX 19181 76743 31557 50902 10272 20221 30149 40157 57019 70211 8556/ 91745 333 10286 20203 30/// 5683/ 84820 81356
AAXX 19181 76750 32560 40903 10290 20203 30160 40170 57011 82111 91750 333 10298 20190 30/// 56116 59037 82820
AAXX 19181 76762 32504 13201 10270 20212 38764 40150 56011 81100 91730 333 10272 20130 30/// 56300 59045 81830
AAXX 19181 76773 31568 13001 10224 20115 38422 40172 57022 70544 81100 91748 333 10227 20038 30/// 56900 59045 81820
AAXX 19181 76775 31965 00601 10222 20067 38530 40191 57015 70200 91745 333 10254 20068 30/// 59037
AAXX 19181 76805 32970 02302 10293 20234 30132 40137 50002 91745 333 10317 20228 30/// 59015
AAXX 19181 76840 32050 00000 10316 20175 30071 40127 57014 80000 91740 333 10325 20208 30/// 56000 59014
AAXX 19181 76843 32965 00202 10242 20144 39505 40152 57016 91735 333 10254 20165 30/// 59035
AAXX 19181 76845 32960 02002 10206 20127 37944 40181 56017 91745 333 10212 20030 30/// 59039
AAXX 19181 76848 32570 20501 10186 20116 38385 40123 57010 82100 91750 333 10186 20096 30/// 56100 59034 82829
AAXX 19181 76903 31680 12002 10319 20222 39997 40132 57014 70300 82200 91740 333 10329 20220 30/// 56500 59008 82833
AAXX 19181 76243 11473 63601 10162 20133 39828 40129 52014 60011 75050 86400 91735 333 10174 20108 31/// 568// 59151 88616
AAXX 19181 76253 32982 00902 10172 20096 30118 40208 50007 91750 333 10215 20110 30/// 59/// 92002
AAXX 19181 76311 32980 00000 10170 20108 39901 40187 50009 91750 333 10184 20062 30/// 59021
AAXX 19181 76405 32680 43602 10209 20133 30173 40194 50005 84500 91750 333 10209 20110 30/// 56800 59020 84640
AAXX 19181 76412 31966 03202 10204 20125 30128 40173 57020 70544 91755 333 10204 20085 30/// 59044
AAXX 19181 76640 31458 51401 10230 20196 30157 40169 57016 70322 852// 91740 333 10244 20164 31/// 563// 59112 85814
AAXX 19181 76741 31565 31702 10255 20206 30131 40150 57005 70542 83230 91735 333 10262 20190 30/// 563// 59068 83820
AAXX 19181 76855 32980 01801 10306 20238 30077 40126 50001 91745 333 10320 20210 30/// 58001 92001
AAXX 19183 78970 11466 70912 10261 20234 30100 40125 69921 78082 86878 333 02199 10316 20229 83816 83640 86358
AAXX 19181 78221 41562 50708 10250 20196 30170 40197 57020 70222 85200 333 85820
AAXX 19181 78224 31559 60806 10252 20170 30125 40199 58015 70544 86100 333 86830
AAXX 19181 78229 32560 61001 10194 20169 30126 40201 52010 86200 333 86820
AAXX 19181 78239 41559 50610 10247 20175 30201 40204 57020 70500 85800 333 10248 20176 85820
AAXX 19181 12345 42558 81006 10254 20193 30150 40190 57010 84276 333 84820 87068
AAXX 19181 78243 12559 70000 10238 20181 30084 40208 57015 60044 87200 333 87820
AAXX 19181 78255 11457 70707 10226 20204 30051 40200 57010 60021 76062 878// 333 10255 20198 86820
AAXX 19181 78264 31560 20904 10280 20177 30100 40175 57020 70100 82200 333 10287 20208 82825
AAXX 19181 78265 41559 70807 10268 20172 30081 40181 57020 70322 83201 333 10268 20202 83820 85080
AAXX 19181 78256 11559 40605 10281 20162 30130 40190 57019 60004 70544 84200 333 10282 20234 84825
AAXX 19181 78259 31459 51106 10283 20160 30100 40191 57020 70544 85200 333 10292 20267 85818
AAXX 19181 78268 12460 50908 10276 20235 30174 40193 57016 60001 83200 333 83818 83830
BBXX CGDS 19184 99450 70747 46/// /2420 10056 21006 4//// 5//// 7//// 8//// 22200 0//// 2////
AAXX 19181 76055 32980 00902 10169 20015 30152 40171 52008 91740 333 10184 20051 30/// 58///
AAXX 19181 76113 32880 41901 10108 20071 39708 40178 52012 83030 91745 333 10114 20046 30/// 59004 84358
AAXX 19181 76220 32958 02703 10058 21022 38124 40194 52008 91735 333 10058 21020 30/// 59028
AAXX 19181 76225 32960 02905 10113 20052 38596 40118 50001 91745 333 10113 20053 30/// 59049
AAXX 19181 76256 32980 00502 10154 20124 30215 40229 52018 91745 333 10215 20079 30/// 58012
AAXX 19181 76305 32970 00601 10189 20096 30190 40198 52007 91740 333 10192 20100 30/// 59009
AAXX 19181 76323 32970 00602 10152 21007 38234 40145 50006 91755 333 10162 20069 30/// 59052
AAXX 19181 76342 32962 03602 10180 20112 39436 40150 52012 91750 333 10184 20102 30/// 59141
AAXX 19181 76390 31978 32113 10193 20023 38192 40078 57006 70744 91730 333 10206 20120 30/// 59084 91120
AAXX 19181 76458 32970 02705 10198 20144 30154 40159 57002 91738 333 10224 20125 30/// 59026
AAXX 19181 76471 32580 22708 10190 20013 37670 40095 52004 82500 91750 333 10195 20060 30/// 56500 59066 82635
AAXX 19181 76491 32960 11404 10256 20156 39751 40131 57008 80004 91750 333 10259 20147 30/// 56009 59137 81074
AAXX 19181 76525 32980 12014 10116 20005 37456 40125 57002 80001 91740 333 10116 20071 30/// 56//5 59058 81080
AAXX 19181 76548 32575 42502 10244 20168 30152 40162 58012 81130 91740 333 10246 20172 30/// 56330 59012 81826 83357
AAXX 19181 76556 32970 02902 10234 20176 39121 40154 51005 91735 333 10242 20118 30/// 59030
AAXX 19181 76571 32975 01603 10218 20012 38160 40169 56009 91750 333 10222 20062 30/// 59055
AAXX 19181 76577 32570 32306 10187 20153 38046 40155 58002 83500 91740 333 10195 20096 30/// 56500 59041 83626
AAXX 19181 76581 32975 03101 10208 20142 39031 40137 57016 91750 333 10215 20123 30/// 59099
AAXX 19181 76585 32680 10901 10225 20194 39990 40149 58017 81100 91745 333 10232 20137 30/// 562// 59102 81830
AAXX 19181 76612 32962 00000 10213 20110 38473 40160 58002 91750 333 10264 20083 30/// 59046
AAXX 19181 76632 32968 01604 10162 20094 37624 40032 57058 91745 333 10165 20068 30/// 58///
AAXX 19181 76634 31670 13601 10210 20035 37849 40166 57006 70500 81100 91745 333 10214 20058 30/// 563// 58/// 81834
AAXX 19181 76654 31430 11801 10300 20220 30149 40153 52005 70544 81500 91750 333 10300 20217 30/// 56900 59016 81620
AAXX 19181 76662 32670 42401 10232 20101 38467 40151 57006 84200 91745 333 10250 20115 30/// 56700 59041 84833
AAXX 19181 76665 31564 32302 10228 20088 38124 40147 57004 70300 83200 91750 333 10252 20075 30/// 56100 57812 59034 83825
AAXX 19181 76680 31962 00901 10190 20006 37751 40116 57008 70500 80000 91755 333 10195 20083 30/// 58034
AAXX 19181 76681 31980 03602 10192 20062 37783 40180 57015 70500 91745 333 10192 20024 50390 55070 59040
AAXX 19181 76683 32970 00901 10187 20047 37826 40199 56015 91744 333 10195 20018 30/// 59034
AAXX 19181 76687 31570 10901 10196 20083 38684 40186 58009 70100 81100 91737 333 10203 20084 30/// 563// 59072 81824
AAXX 19181 76692 31556 31403 10266 20195 30144 40164 57014 70541 81200 91745 333 10269 20179 30/// 564// 59080 81826 82628
AAXX 19181 76726 32970 02001 10210 20080 38404 40140 57006 91750 333 10210 20124 30/// 58000
AAXX 19181 76737 32980 01602 10202 20130 38774 40173 57013 91735 333 10208 20088 30/// 59076 91105 91516
AAXX 19181 76743 31557 50902 10272 20221 30149 40157 57019 70211 8556/ 91745 333 10286 20203 30/// 5683/ 84820 81356
AAXX 19181 76750 32560 40903 10290 20203 30160 40170 57011 82111 91750 333 10298 20190 30/// 56116 59037 82820
AAXX 19181 76762 32504 13201 10270 20212 38764 40150 56011 81100 91730 333 10272 20130 30/// 56300 59045 81830
AAXX 19181 76773 31568 13001 10224 20115 38422 40172 57022 70544 81100 91748 333 10227 20038 30/// 56900 59045 81820
AAXX 19181 76775 31965 00601 10222 20067 38530 40191 57015 70200 91745 333 10254 20068 30/// 59037
AAXX 19181 76805 32970 02302 10293 20234 30132 40137 50002 91745 333 10317 20228 30/// 59015
AAXX 19181 76840 32050 00000 10316 20175 30071 40127 57014 80000 91740 333 10325 20208 30/// 56000 59014
AAXX 19181 76843 32965 00202 10242 20144 39505 40152 57016 91735 333 10254 20165 30/// 59035
AAXX 19181 76845 32960 02002 10206 20127 37944 40181 56017 91745 333 10212 20030 30/// 59039
AAXX 19181 76848 32570 20501 10186 20116 38385 40123 57010 82100 91750 333 10186 20096 30/// 56100 59034 82829
AAXX 19181 76903 31680 12002 10319 20222 39997 40132 57014 70300 82200 91740 333 10329 20220 30/// 56500 59008 82833
AAXX 19181 76243 11473 63601 10162 20133 39828 40129 52014 60011 75050 86400 91735 333 10174 20108 31/// 568// 59151 88616
AAXX 19181 76253 32982 00902 10172 20096 30118 40208 50007 91750 333 10215 20110 30/// 59/// 92002
AAXX 19181 76311 32980 00000 10170 20108 39901 40187 50009 91750 333 10184 20062 30/// 59021
AAXX 19181 76405 32680 43602 10209 20133 30173 40194 50005 84500 91750 333 10209 20110 30/// 56800 59020 84640
AAXX 19181 76412 31966 03202 10204 20125 30128 40173 57020 70544 91755 333 10204 20085 30/// 59044
AAXX 19181 76640 31458 51401 10230 20196 30157 40169 57016 70322 852// 91740 333 10244 20164 31/// 563// 59112 85814
AAXX 19181 76741 31565 31702 10255 20206 30131 40150 57005 70542 83230 91735 333 10262 20190 30/// 563// 59068 83820
AAXX 19181 76855 32980 01801 10306 20238 30077 40126 50001 91745 333 10320 20210 30/// 58001 92001
AAXX 19181 78221 41562 50708 10250 20196 30170 40197 57020 70222 85200 333 85820
AAXX 19181 78224 31559 60806 10252 20170 30125 40199 58015 70544 86100 333 86830
AAXX 19181 78229 32560 61001 10194 20169 30126 40201 52010 86200 333 86820
AAXX 19181 78239 41559 50610 10247 20175 30201 40204 57020 70500 85800 333 10248 20176 85820
AAXX 19181 12345 42558 81006 10254 20193 30150 40190 57010 84276 333 84820 87068
AAXX 19181 78243 12559 70000 10238 20181 30084 40208 57015 60044 87200 333 87820
AAXX 19181 78255 11457 70707 10226 20204 30051 40200 57010 60021 76062 878// 333 10255 20198 86820
AAXX 19181 78264 31560 20904 10280 20177 30100 40175 57020 70100 82200 333 10287 20208 82825
AAXX 19181 78265 41559 70807 10268 20172 30081 40181 57020 70322 83201 333 10268 20202 83820 85080
AAXX 19181 78256 11559 40605 10281 20162 30130 40190 57019 60004 70544 84200 333 10282 20234 84825
AAXX 19181 78259 31459 51106 10283 20160 30100 40191 57020 70544 85200 333 10292 20267 85818
AAXX 19181 78268 12460 50908 10276 20235 30174 40193 57016 60001 83200 333 83818 83830
AAXX 19181 76055 32980 00902 10169 20015 30152 40171 52008 91740 33310184 20051 30/// 58///
AAXX 19181 76113 32880 41901 10108 20071 39708 40178 52012 83030 91745333 10114 20046 30/// 59004 84358
AAXX 19181 76220 32958 02703 10058 21022 38124 40194 52008 91735 33310058 21020 30/// 59028
AAXX 19181 76225 32960 02905 10113 20052 38596 40118 50001 91745 33310113 20053 30/// 59049
AAXX 19181 76256 32980 00502 10154 20124 30215 40229 52018 91745 33310215 20079 30/// 58012
AAXX 19181 76305 32970 00601 10189 20096 30190 40198 52007 91740 33310192 20100 30/// 59009
AAXX 19181 76323 32970 00602 10152 21007 38234 40145 50006 91755 33310162 20069 30/// 59052
AAXX 19181 76342 32962 03602 10180 20112 39436 40150 52012 91750 33310184 20102 30/// 59141
AAXX 19181 76390 31978 32113 10193 20023 38192 40078 57006 70744 91730333 10206 20120 30/// 59084 91120
AAXX 19181 76458 32970 02705 10198 20144 30154 40159 57002 91738 33310224 20125 30/// 59026
AAXX 19181 76471 32580 22708 10190 20013 37670 40095 52004 82500 91750333 10195 20060 30/// 56500 59066 82635
AAXX 19181 76491 32960 11404 10256 20156 39751 40131 57008 80004 91750333 10259 20147 30/// 56009 59137 81074
AAXX 19181 76525 32980 12014 10116 20005 37456 40125 57002 80001 91740333 10116 20071 30/// 56//5 59058 81080
AAXX 19181 76548 32575 42502 10244 20168 30152 40162 58012 81130 91740333 10246 20172 30/// 56330 59012 81826 83357
AAXX 19181 76556 32970 02902 10234 20176 39121 40154 51005 91735 33310242 20118 30/// 59030
AAXX 19181 76571 32975 01603 10218 20012 38160 40169 56009 91750 33310222 20062 30/// 59055
AAXX 19181 76577 32570 32306 10187 20153 38046 40155 58002 83500 91740333 10195 20096 30/// 56500 59041 83626
AAXX 19181 76581 32975 03101 10208 20142 39031 40137 57016 91750 33310215 20123 30/// 59099
AAXX 19181 76585 32680 10901 10225 20194 39990 40149 58017 81100 91745333 10232 20137 30/// 562// 59102 81830
AAXX 19181 76612 32962 00000 10213 20110 38473 40160 58002 91750 33310264 20083 30/// 59046
AAXX 19181 76632 32968 01604 10162 20094 37624 40032 57058 91745 33310165 20068 30/// 58///
AAXX 19181 76634 31670 13601 10210 20035 37849 40166 57006 70500 8110091745 333 10214 20058 30/// 563// 58/// 81834
AAXX 19181 76654 31430 11801 10300 20220 30149 40153 52005 70544 8150091750 333 10300 20217 30/// 56900 59016 81620
AAXX 19181 76662 32670 42401 10232 20101 38467 40151 57006 84200 91745333 10250 20115 30/// 56700 59041 84833
AAXX 19181 76665 31564 32302 10228 20088 38124 40147 57004 70300 8320091750 333 10252 20075 30/// 56100 57812 59034 83825
AAXX 19181 76680 31962 00901 10190 20006 37751 40116 57008 70500 8000091755 333 10195 20083 30/// 58034
AAXX 19181 76681 31980 03602 10192 20062 37783 40180 57015 70500 91745333 10192 20024 50390 55070 59040
AAXX 19181 76683 32970 00901 10187 20047 37826 40199 56015 91744 33310195 20018 30/// 59034
AAXX 19181 76687 31570 10901 10196 20083 38684 40186 58009 70100 8110091737 333 10203 20084 30/// 563// 59072 81824
AAXX 19181 76692 31556 31403 10266 20195 30144 40164 57014 70541 8120091745 333 10269 20179 30/// 564// 59080 81826 82628
AAXX 19181 76726 32970 02001 10210 20080 38404 40140 57006 91750 33310210 20124 30/// 58000
AAXX 19181 76737 32980 01602 10202 20130 38774 40173 57013 91735 33310208 20088 30/// 59076 91105 91516
AAXX 19181 76743 31557 50902 10272 20221 30149 40157 57019 70211 8556/91745 333 10286 20203 30/// 5683/ 84820 81356
AAXX 19181 76750 32560 40903 10290 20203 30160 40170 57011 82111 91750333 10298 20190 30/// 56116 59037 82820
AAXX 19181 76762 32504 13201 10270 20212 38764 40150 56011 81100 91730333 10272 20130 30/// 56300 59045 81830
AAXX 19181 76773 31568 13001 10224 20115 38422 40172 57022 70544 8110091748 333 10227 20038 30/// 56900 59045 81820
AAXX 19181 76775 31965 00601 10222 20067 38530 40191 57015 70200 91745333 10254 20068 30/// 59037
AAXX 19181 76805 32970 02302 10293 20234 30132 40137 50002 91745 33310317 20228 30/// 59015
AAXX 19181 76840 32050 00000 10316 20175 30071 40127 57014 80000 91740333 10325 20208 30/// 56000 59014
AAXX 19181 76843 32965 00202 10242 20144 39505 40152 57016 91735 33310254 20165 30/// 59035
AAXX 19181 76845 32960 02002 10206 20127 37944 40181 56017 91745 33310212 20030 30/// 59039
AAXX 19181 76848 32570 20501 10186 20116 38385 40123 57010 82100 91750333 10186 20096 30/// 56100 59034 82829
AAXX 19181 76903 31680 12002 10319 20222 39997 40132 57014 70300 8220091740 333 10329 20220 30/// 56500 59008 82833
AAXX 19181 76243 11473 63601 10162 20133 39828 40129 52014 60011 7505086400 91735 333 10174 20108 31/// 568// 59151 88616
AAXX 19181 76253 32982 00902 10172 20096 30118 40208 50007 91750 33310215 20110 30/// 59/// 92002
AAXX 19181 76311 32980 00000 10170 20108 39901 40187 50009 91750 33310184 20062 30/// 59021
AAXX 19181 76405 32680 43602 10209 20133 30173 40194 50005 84500 91750333 10209 20110 30/// 56800 59020 84640
AAXX 19181 76412 31966 03202 10204 20125 30128 40173 57020 70544 91755333 10204 20085 30/// 59044
AAXX 19181 76640 31458 51401 10230 20196 30157 40169 57016 70322 852//91740 333 10244 20164 31/// 563// 59112 85814
AAXX 19181 76741 31565 31702 10255 20206 30131 40150 57005 70542 8323091735 333 10262 20190 30/// 563// 59068 83820
AAXX 19181 76855 32980 01801 10306 20238 30077 40126 50001 91745 33310320 20210 30/// 58001 92001
BBXX CGDS 19184 99450 70747 46/// /2420 10056 21006 4//// 5//// 7//// 8//// 22200 0//// 2////
BBXX BATFR27 19184 99507 70010 46/// /2725 10112 20074 40086 58047 22265 00099
BBXX BATFR04 19184 99598 70107 46/// /2832 10057 20015 49996 52015 22200 00102
BBXX BATEU01 19184 99506 70282 44597 81722 10104 20094 40176 55/// 70222 83545 22224 00112 21004 327// 41004 5////
BBXX BATFR54 19184 99472 70031 46/// /2634 10120 20090 40189 22263 00127
BBXX FVNM 19184 99061 70842 46/// /2112 10267 20220 40115 58014 22221 00269
AAXX 19184 78962 11468 70313 10282 20190 30125 40133 60001 71522 84842 333 02299 10298 20232 58010 82818 83638 86360
BBXX BATEU05 19184 99603 70463 46/// /2615 11040 21060 40023 50007 22222
BBXX BATFR60 19184 99485 70058 46/// /2622 10120 20110 40181 53022 22233 00115
BBXX BATFR05 19184 99063 10034 46/// /2108 10282 20244 40101 53009 22200 00260
BBXX BATEU09 19184 99430 10104 46/// /0614 10092 21048 40159 52010 22242 00170
BBXX BATFR19 19184 99065 30060 46/// /2014 10234 20199 40116 53004 22200 00257
BBXX BATFR52 19184 99499 70039 46/// /2641 10119 20102 40140 57023 22273 00119
BBXX BATEU08 19184 99609 70331 46/// /2947 10000 21098 40002 52039 22251
BBXX BATFR12 19184 99481 70075 46/// /2711 10134 20115 40189 58004 22200 00144
BBXX BATEU06 19184 99500 70612 46/// /1612 11048 21101 40133 56030 22264 00015
AAXX 19181 10007 NIL
AAXX 19181 10044 NIL
AAXX 19181 10046 11962 32003 10018 20000 30075 40115 50001 69922 70181 80001 333 10035 20018 32100 83069
AAXX 19181 10091 15481 72411 10037 20022 30057 40109 51015 60002 333 10046 20036 3/003 55300 20000 30000 84/13 87/23 87/27 91119 91215
AAXX 19181 10113 01365 81907 10032 20011 30086 40105 58017 69912 75811 876// 333 10056 20032 32002 55300 20000 30000 69907 87709 91113
AAXX 19181 10124 46/// ///// 10027 2//// 30064 40102 58013 222// 00058 333 10060 20026 553//
AAXX 19181 10131 12970 32106 10021 20000 30099 40114 58010 69962 80002 333 10046 20021 31001 55300 20000 30000 83076 91113
AAXX 19181 10170 12480 22204 10024 20007 30109 40125 51010 60002 82200 333 10040 20023 31001 55300 20000 30000 82813
AAXX 19181 10264 16460 82304 10023 20007 30034 40143 51008 69902 333 10028 20016 3/001 55300 20000 30000 87/12 88/17 88/50
AAXX 19181 10291 01365 82305 10025 20008 30086 40155 51012 69902 75862 877// 333 10031 20020 31001 55300 20000 30000 69907 87709
AAXX 19181 10315 11462 71804 10017 21000 30087 40153 58010 69902 70381 8155/ 333 10033 20014 31000 55300 20000 30000 81615 87359 96487
AAXX 19181 10379 01467 82403 10021 20009 30038 40162 51010 69912 70276 875// 333 10030 20017 31001 55300 20000 30000 41147 69907 86612 87618
AAXX 19181 10382 01363 82504 10027 20010 30115 40161 51009 69912 72186 875// 333 10032 20022 31002 55300 20000 30000 69907 86709 87613 96484
AAXX 19181 10384 06/// /2503 10030 20011 30100 40161 51009 69912 333 10038 20023 3/001 55300 20000 30000 69907
AAXX 19181 10427 01/06 82107 11040 21040 39139 48427 58006 69962 74174 876// 333 11028 21043 3/105 48046 55300 20000 30000 69907 827// 87701
AAXX 19181 10430 12562 61802 10010 21004 39972 40170 58003 60012 865// 333 10018 20001 3/101 42001 55300 20000 30000 83622 85627
AAXX 19181 10439 12460 72205 10011 21007 39957 40183 50000 69902 875// 333 10021 21013 31102 81615 87650
AAXX 19181 10453 11/90 92411 11055 21056 38798 48422 51005 60052 74984 333 11050 21061 3/106 49118 55300 91117 91214 96487 96485 96436
AAXX 19181 10496 01470 82403 10019 21010 30086 40173 53007 69902 78082 872// 333 10031 20010 31100 55300 20000 30000 69907 87811
AAXX 19181 10499 12681 82404 10010 21030 39883 40181 53006 69902 875// 333 10025 20002 31101 55300 20000 30000 87640
AAXX 19181 10505 12680 82107 10011 21012 39880 40169 58011 69902 8257/ 333 10013 20000 31000 55300 20000 30000 82635 83361 88463
AAXX 19181 10513 11980 51703 10004 21009 30056 40181 57007 69902 70162 84031 333 10028 20001 31101 55300 20000 30000 84362
AAXX 19181 10532 15465 81802 10012 21005 39931 40186 58002 60002 333 10015 21028 3/106 55300 20000 30000 83/19 88/42 88/56
AAXX 19181 10544 NIL
AAXX 19181 10554 11680 82505 10002 21021 39787 40186 51005 69902 70272 875// 333 10007 21024 34104 4/998 55300 20000 30000 87642 96471
AAXX 19181 10567 01468 72204 10002 21020 39800 40187 51005 69902 70272 878// 333 10009 21012 3/102 42997 55300 20000 30000 69907 83819 86646 96471
AAXX 19181 10578 11/01 92312 11067 21073 38745 48436 50007 69902 74974 333 11067 21080 3/108 49056 55300 20000 30000
AAXX 19181 10609 12465 72305 10010 21009 39858 40197 58002 69902 875// 333 10021 20002 31100 55300 20000 30000 87613
AAXX 19181 10616 01363 72203 11010 21025 39577 40196 58003 69902 70172 878// 333 11005 21019 3/103 43003 55300 69907 81707 87630
AAXX 19181 10641 15670 82004 10022 21010 30047 40198 50001 60002 333 10026 20006 3/101 55300 88/46
AAXX 19181 10655 12680 82103 10005 21013 39866 40205 51006 69902 875// 333 10023 21015 31103 55300 20000 30000 87646
AAXX 19181 10675 17565 81802 10003 21021 39906 40207 51007 69902 70075 333 10011 21008 3/102 55300 20000 30000 82/22 87/26 88/35
AAXX 19181 10688 07572 82502 11007 21033 39669 40209 51007 69902 70070 333 10003 21014 3/102 55300 20000 30000 69907 88/33
AAXX 19181 10708 12258 82105 10000 21007 39812 40210 50001 69952 885// 333 10006 21010 3/103 43005 55300 20000 30000 81704 85705 87634
AAXX 19181 10729 15667 81902 10019 21006 30091 40217 51005 69912 333 10034 20000 3/101 55300 20000 30000 88/47
AAXX 19181 10731 01470 82303 10017 21002 30066 40214 51005 69902 70262 888// 333 10023 20002 31100 55300 20000 30000 69907 81813 88633
AAXX 19181 10742 07466 82302 10006 21020 39873 40215 51007 69902 70070 333 10010 21005 3/102 55300 20000 30000 69907 81/16 88/43
AAXX 19181 10776 12675 82202 11007 21032 39754 40214 51009 69902 875// 333 10037 21021 31106 4/998 55300 20000 30000 87640
AAXX 19181 10791 11/00 92604 11085 21092 38505 48450 51007 69982 74144 333 11077 21090 49087 55300
AAXX 19181 10805 01480 82104 10019 21005 30027 40224 52006 69902 70362 878// 333 10037 20000 31101 55300 20000 30000 69907 81817 87650
AAXX 19181 10815 01375 72503 11036 21042 39247 48461 51006 69922 72271 875// 333 11028 21041 3/105 48020 55300 20000 30000 69907 87607 96277 96477
AAXX 19181 10836 01486 72506 11032 21056 39319 40222 51007 69902 70277 878// 333 11029 21065 3/110 47008 55300 20000 30000 69907 82814 87630
AAXX 19181 10870 12675 62603 11007 21033 39669 40222 53009 69922 86500 333 10011 21016 31103 41998 55300 86646
AAXX 19181 10895 12670 12603 11027 21055 39627 40220 51007 69902 81500 333 10006 21028 3/107 42002 55300 20000 30000 81640
AAXX 19181 10908 01/05 82308 11088 21093 38465 48464 51006 60022 77884 885// 333 11073 21092 3/110 49051 55300 20000 30000 69907 856// 83613 96041 96249 96485 96471
AAXX 19181 10929 11570 72303 11007 21025 39682 40233 51011 69952 70387 875// 333 10010 21022 3/104 43001 55300 20000 30000 82633 87650
AAXX 19181 10948 07464 81502 11044 21051 39251 48469 51011 69902 77170 333 11023 21106 3/116 4/031 55300 20000 30000 69907 81/10 87/46 88/50
AAXX 19181 10961 11/02 93405 11196 21199 36980 47939 51005 60012 77174 333 11148 21196 49125 55300 20000 40893 89/01 96049 96471 96449 96441
AAXX 19181 10962 01275 82603 11045 21055 39037 48465 51010 69902 77872 875// 333 11013 21056 3/108 48005 55300 20000 30000 69907 82606 87620
AAXX 19181 10980 11080 72908 11109 21112 38102 48465 51007 69982 70242 875// 333 11098 21112 3/112 48035 55300 20000 30000 87601 96441
AAXX 19184 91503 31470 50000 10249 20244 40050 55001 70522 81838 333 56900 81816 84358
AAXX 19184 91517 01460 82903 10240 20233 40068 52003 60111 78088 8597/ 333 56999 60037 82814 81916 85625 88460
AAXX 19184 91503 31470 50000 10249 20244 40050 55001 70522 81838 333 56900 81816 84358
AAXX 19184 91517 01460 82903 10240 20233 40068 52003 60111 78088 8597/ 333 56999 60037 82814 81916 85625 88460
AAXX 19181 01015 NIL
AAXX 19181 01023 11689 73201 11052 21053 39874 49971 57003 60002 70222 81578 333 11040 91101
AAXX 19181 01033 46/// /0505 10041 20004 39944 49975 56009 333 10042 91113
AAXX 19181 01059 NIL
AAXX 19181 01089 11540 81701 11010 21011 39852 49959 57010 60024 77077 8802/ 333 10008 91103
AAXX 19181 01167 31887 63202 10011 21019 39951 49955 55001 70122 85014 333 10025 91104
AAXX 19181 01180 NIL
AAXX 19181 01210 16/// /1603 10029 20001 39972 49998 53002 6//// 333 10052 91108
AAXX 19181 01228 NIL
AAXX 19181 01240 16/// /3007 10051 21003 39938 49958 54001 6//// 333 10058 91113
AAXX 19181 01304 46/// /2808 10042 21000 39977 40008 52006 333 10051 91116
AAXX 19181 01311 46/// /1302 10009 20003 39963 40026 58000 333 10033 91108
AAXX 19181 01340 NIL
AAXX 19181 01355 16/// ///// 10010 21000 30002 40007 53009 60002 333 10014
AAXX 19181 01360 NIL
AAXX 19181 01392 16/// /1901 10003 21034 39756 49983 53013 60002 333 10023 91108
AAXX 19181 01406 46/// /1403 10034 20010 30005 40024 57003 333 10056 91110
AAXX 19181 01411 16/// /2003 10030 20009 30005 40030 57002 6//// 333 10051 91111
AAXX 19181 01425 NIL
AAXX 19181 01433 46/// /0000 11053 21068 38755 40028 52004 333 11034 91110
AAXX 19181 01442 11989 01102 11002 21034 39764 40024 52004 60002 70200 333 10047 91107
AAXX 19181 01450 NIL
AAXX 19181 01452 11487 12203 10006 21023 30008 40030 52007 60002 70200 81201 333 10038 91107
AAXX 19181 01473 16/// /2701 11045 21056 39793 40005 53012 6//// 333 10039 91110
AAXX 19181 01494 16/// /2402 10017 21030 39927 49992 52012 60002 333 10039 91104
AAXX 19181 01121 46/// /1203 10021 21028 39940 49952 57001 333 10029 91105
AAXX 19181 01135 NIL
AAXX 19181 01143 16/// /0902 10012 21033 60002 333 10030 91105
AAXX 19181 01150 16/// /1301 11039 21052 60002 333 11029 91103
AAXX 19181 01192 NIL
AAXX 19181 01225 46/// /2809 10062 20008 39973 49978 54001 333 10065 91113
AAXX 19181 01230 16/// /0501 11050 21056 69962 333 11011 4/041 91108
AAXX 19181 01232 16/// /2001 11003 21006 39923 40003 53002 60042 333 10006 4/030 91104
AAXX 19181 01234 16/// /2104 10010 21011 69932 333 10019 91108
AAXX 19181 01253 16/// /1601 11003 21018 69932 333 10008 4/030 91106
AAXX 19181 01254 16/// /1701 11028 21034 60032 333 11021 4/021 91103
AAXX 19181 01257 NIL
AAXX 19181 01277 NIL
AAXX 19181 01291 16/// /0000 11058 21066 60022 333 11058 4/022 91101
AAXX 19181 01332 16/// /0000 10004 21007 60052 333 10007 91102
AAXX 19181 01366 46/// /2804 11073 21084 38373 40004 52006 333 11059 91122
AAXX 19181 01370 NIL
AAXX 19181 01376 16/// /3602 11046 21055 60002 333 10050 91112
AAXX 19181 01383 46/// /1401 11051 21055 39672 49992 53013 333 10008 91103
AAXX 19181 01386 16/// ///// 11043 21049 60002 333 11002
AAXX 19181 01416 16/// ///// 10014 20014 69952 333 10034
AAXX 19181 01419 NIL
AAXX 19181 01430 16/// ///// 10017 21014 60002 333 10049
AAXX 19181 01434 16/// /3101 11076 21099 39047 40019 52005 60002 333 11009 91105
AAXX 19181 01455 NIL
AAXX 19181 01468 16/// /2402 11017 21031 60002 333 10005 91104
AAXX 19181 01470 16/// /0601 11025 21041 39890 40006 52011 60002 333 10020 4/005 91104
AAXX 19181 01476 NIL
AAXX 19181 01481 NIL
AAXX 19181 01488 NIL
AAXX 19181 01025 16/// /0606 10027 21014 39960 49971 57005 60002 333 10027 91109
AAXX 19181 01052 16/// /0405 10026 20005 39878 49975 56010 60002 333 10026 91113
AAXX 19181 01122 16/// /0000 11055 21062 39868 49959 58000 60002 333 11042 91102
AAXX 19181 01132 16/// /0000 11056 21066 39569 49964 52003 69992 333 11036 4/037 91102
AAXX 19181 01156 NIL
AAXX 19181 01203 46/// /1906 10041 20008 39952 40000 52003 333 10055 91107
AAXX 19181 01233 16/// /0402 11034 21065 60002 333 11002 91105
AAXX 19181 01265 NIL
AAXX 19181 01273 NIL
AAXX 19181 01307 46/// /2802 10042 21040 39992 40020 50001 333 10053 91112
AAXX 19181 01321 16/// /0000 10000 21001 39753 40008 52005 60112 333 10004 91103
AAXX 19181 01327 16/// /3002 11013 21023 69922 333 11002 91110
AAXX 19181 01350 16/// /2709 11054 21060 38599 49982 52010 60002 333 11041 91117
AAXX 19181 01361 16/// /1001 11079 21107 38973 40024 52010 60022 333 11015 91110
AAXX 19181 01375 NIL
AAXX 19181 01378 16/// /2801 11042 21049 39693 49990 52018 60002 333 10009 91103
AAXX 19181 01385 16/// /2902 11014 21031 39716 49990 53014 60002 333 10019 91104
AAXX 19181 01412 16/// /0803 10011 21000 30001 40031 58004 60002 333 10057 91113
AAXX 19181 01422 16/// /1003 10015 20000 60002 333 10040 91105
AAXX 19181 01440 NIL
AAXX 19181 01441 NIL
AAXX 19181 01467 NIL
AAXX 19181 01469 NIL
AAXX 19181 01477 16/// /1401 11050 21065 60002 333 10037 4/018 91106
AAXX 19181 01480 16/// /3202 11021 21050 60002 333 10025 91105
AAXX 19181 01484 16/// /0000 11059 21070 39834 49995 52013 60002 333 11011 91102
AAXX 19181 01490 16/// /3403 11013 21040 69932 333 10006 91106
AAXX 19181 01495 16/// /2607 10047 21009 39980 49993 52012 60002 333 10060 91108
AAXX 19181 01037 NIL
AAXX 19181 01046 11580 81801 11027 21041 39973 49980 58010 69902 77072 885// 333 11026 91103
AAXX 19181 01058 16/// /3202 11011 21017 39505 49967 57012 60012 333 11011 4/015 91106
AAXX 19181 01065 NIL
AAXX 19181 01092 NIL
AAXX 19181 01107 16/// /0503 10039 2//// 39948 49952 57001 69922 333 10043 91107
AAXX 19181 01114 NIL
AAXX 19181 01144 41989 01404 10024 21012 70100 333 10031 91106
AAXX 19181 01199 NIL
AAXX 19181 01245 NIL
AAXX 19181 01259 16/// /3408 10038 20002 39930 49952 52001 69942 333 10057 91110
AAXX 19181 01262 NIL
AAXX 19181 01278 11670 81401 11027 21034 39858 49962 57002 60042 70272 8802/ 333 11025
AAXX 19181 01293 16/// /0000 11048 21054 39760 49971 54000 60032 333 11048 91102
AAXX 19181 01329 NIL
AAXX 19181 01337 NIL
AAXX 19181 01344 16/// ///// 11024 21035 60002 333 11015 4/077
AAXX 19181 01364 16/// /3104 11027 21058 38874 49994 50007 60002 333 11022 4/041 91112
AAXX 19181 01373 11989 03001 11038 21057 39794 49999 53016 60002 70200 333 10034 91107
AAXX 19181 01374 31889 13301 11066 21072 70210 81040 333 10004
AAXX 19181 01380 16/// /3104 11068 21107 6//// 333 11024 4/026 91108
AAXX 19181 01389 NIL
AAXX 19181 01393 NIL
AAXX 19181 01424 11460 8//// 10004 21005 30031 40035 52002 60032 77071 8671/ 333 10009
AAXX 19181 01431 16/// /0201 11032 21047 39358 40033 58002 60002 333 10005 91105
AAXX 19181 01436 NIL
AAXX 19181 01465 11982 12409 10027 21011 30002 40021 51009 60002 70200 80001 333 10045 91110
AAXX 19181 01471 NIL
AAXX 19181 01483 NIL
AAXX 19184 07005 04/69 /1809 10040 20031 30043 40135 58026 60022 761// 333 10040 21011 60017 90710 91115 555 69945
AAXX 19184 07015 01356 81913 10023 20014 30081 40140 58024 60042 76176 887// 333 10030 21011 60037 87706 90710 91121 93100 555 69965
AAXX 19184 07020 01556 82722 10114 20108 30103 40130 56020 60062 76066 885// 333 10114 20088 60027 88626 90710 91134 555 69925
AAXX 19184 07027 01440 81910 10069 20063 30060 40142 56024 60062 76366 875// 333 10069 20019 60037 86619 87626 90710 91116 93100 555 60025
AAXX 19184 07037 04257 81813 10039 20038 39965 40152 58021 60062 761// 333 10039 21022 60057 90710 91117 555 60025
AAXX 19184 07070 04670 81910 10020 21003 30075 40189 57012 69902 761// 333 10039 21022 69907 90710 91119 555 69905
AAXX 19184 07110 01256 82711 10106 20103 30057 40172 57011 60032 75865 877// 333 10106 20061 60027 87705 90710 91129 93100 555 69925
AAXX 19184 07117 01456 82617 10109 20104 30081 40151 58017 60092 76262 88700 333 10109 20066 69987 91029 90710 91131 92436 555 69925
AAXX 19184 07130 04558 82209 10077 20071 30121 40174 57018 60042 758// 333 10077 20025 69927 90710 91112 555 69905
AAXX 19184 07139 06/// /2108 10052 20043 39992 40169 56021 60032 333 10052 21006 60027 90710 91114 555 69945
AAXX 19184 07149 01256 82009 10029 20028 30071 40183 58017 60012 76165 877// 333 10029 21020 60017 84705 87707 90710 91114 93100 555 69965
AAXX 19184 07168 04/70 /1812 10017 21010 30060 40208 57012 69922 700// 333 10039 21019 60007 90710 91119 555 60005
AAXX 19184 07181 04483 82012 11004 21018 39791 40218 58001 69982 700// 333 10003 21007 60007 90710 91118 555 60005
AAXX 19184 07190 04665 81904 10012 21007 30031 40221 52004 69922 700// 333 10023 20000 60007 90710 91107 555 60005
AAXX 19184 07207 02558 82925 10114 20090 60012 885// 222// 327// 333 10122 20077 60007 91038 90710 91138 92446 555 60005
AAXX 19184 07222 01760 82305 10076 20073 30165 40197 56011 60052 70162 875// 333 10076 21002 69987 87650 90710 91108 555 60005
AAXX 19184 07240 01560 81909 10053 20044 30060 40198 58013 60042 76162 875// 333 10053 20012 60037 85623 87633 90710 91113 93100 555 60015
AAXX 19184 07255 04459 82106 10038 20031 30013 40219 56009 69982 761// 333 10048 20025 69987 90710 91109 555 69985
AAXX 19184 07280 04969 /1705 11007 21018 39949 40235 50003 60002 700// 333 10044 21014 60007 90710 91106 555 60005
AAXX 19184 07299 01468 71503 10006 21021 39893 40234 52009 69902 70372 878// 333 10025 21003 69907 83816 87656 90710 91108 93100 555 60005
AAXX 19184 07314 06/// /2717 10117 20080 30194 40222 58005 60042 333 10117 20080 60037 90710 91123 555 69905
AAXX 19184 07335 04369 82008 10053 20047 30072 40221 58007 60042 761// 333 10068 20000 60047 90710 91112 555 60015
AAXX 19184 07434 04247 82107 10029 20022 39743 40237 56003 60012 761// 333 10041 20014 60017 90710 91110 555 69985
AAXX 19184 07460 02665 71602 10028 21007 39833 40235 51001 69902 8351/ 333 10054 20014 60007 83636 85657 87360 90710 91108 93100 555 60005
AAXX 19184 07471 04970 /2301 11030 21056 39238 48823 51007 69922 700// 333 10011 21043 43/// 60007 90710 91107 555 60005
AAXX 19184 07481 01959 31302 10002 21011 39944 40245 51007 69942 70286 82032 333 10023 21002 60007 82363 83073 90710 91104 93100 555 60005
AAXX 19184 07510 01660 82006 10079 20070 30174 40241 56005 60012 72162 8587/ 333 10104 20048 60017 81833 85645 87360 90710 91109 93100 555 69925
AAXX 19184 07535 06/// /1303 10037 20030 39929 40252 51005 60002 333 10045 20011 60007 90710 91104 555 60005
AAXX 19184 07558 06/// /3113 10001 21017 39377 40245 51007 60012 333 10018 21008 60007 90710 91118 555 60005
AAXX 19184 07577 04/70 /0107 10025 21015 30145 40238 52014 69922 700// 333 10048 20002 60007 90710 91112 555 60005
AAXX 19184 07591 04/// /3501 11047 21101 39165 4//// 53015 60002 700// 333 10018 21066 60007 90710 91102 555 60005
AAXX 19184 07607 04762 82005 10081 20075 30181 40254 50003 60042 761// 333 10105 20047 60027 90710 91107 555 69985
AAXX 19184 07621 01565 82605 10059 20045 39825 40269 53010 69962 76162 878// 333 10081 20024 69967 82820 85630 87640 90710 91108 93100 555 69945
AAXX 19184 07627 06/// /0000 10057 20012 39758 40258 53006 69922 333 10076 21019 60007 90710 91105 555 60005
AAXX 19184 07630 02775 72608 10076 20045 30067 40251 51008 69902 8253/ 333 10088 20038 60007 82650 87360 90710 91111 93100 555 60005
AAXX 19184 07643 02884 53602 10040 21006 30223 40233 51020 60002 81531 333 10107 20012 60007 81656 84075 90710 91105 555 60005
AAXX 19184 07650 02586 13318 10054 21062 30170 40210 53016 60002 81502 333 10082 20027 60007 81620 91030 90710 91135 93100 555 60005
AAXX 19184 07661 02975 02920 10054 21071 30014 40179 53015 60002 333 10082 20048 60007 91032 90710 91137 555 60005
AAXX 19184 07690 02880 13309 10054 21056 30134 40169 53019 60002 81500 333 10128 20029 60007 81656 90710 91112 93100 555 60005
AAXX 19184 07747 01570 73410 10084 20042 30183 40237 53012 69922 78086 872// 333 10105 20060 69927 87832 90710 91116 93100 555 69925
AAXX 19184 07761 02680 50609 10047 21015 30151 40162 53012 60002 82872 333 10127 20009 60007 81840 83366 90710 91111 93100 555 60005
AAXX 19184 07790 02680 12207 10055 21028 30145 40160 53014 60002 81800 333 10120 20047 60007 81840 90710 91109 93100 555 60005
AAXX 19181 11816 12965 70402 10013 21034 30023 40191 52005 60002 8707/ 333 10021 87460
AAXX 19181 11826 12965 73602 11003 21022 39980 40186 52001 60002 87070 333 10012 87461
AAXX 19181 11903 12960 80000 11008 21021 39788 40180 52001 60002 8807/ 333 10012 88458
AAXX 19181 11934 12980 72201 11043 21066 39341 42773 51004 60002 86021 333 11019 42001 86463
AAXX 19181 11968 12980 60105 10018 21039 39879 40166 58003 60002 83038 333 10018 83359 85270
AAXX 19184 87692 32560 71405 10191 20158 30060 40085 58004 85501 333 56500 85620 555 10084
AAXX 19184 78962 11468 70313 10282 20190 30125 40133 60001 71522 84842 333 02299 10298 20232 58010 82818 83638 86360
AAXX 19181 02741 17244 72804 10020 20018 39905 49921 52027 60022 78186 87/// 91739 333 10022 20007
AAXX 19181 02755 37268 81202 10004 20002 39833 49928 52007 77187 88/// 91739 333 10005 20000
AAXX 19181 02805 17566 73603 10004 21002 39828 49959 57011 60022 76176 87/// 91739 333 10007 21032
AAXX 19181 02807 47257 80000 11037 21037 39775 49959 771// 88/// 91800 333 11028 21038
AAXX 19181 02836 17527 80401 11024 21026 39726 49949 57003 60042 77170 88/// 91739 333 11013 21024
AAXX 19181 02845 47127 80802 11021 21021 39697 49945 54000 76776 88/// 91739 333 11013 21022
AAXX 19181 02849 47524 81402 11021 21022 39677 49952 57002 77170 88/// 91739 333 11018 21023
AAXX 19181 02866 17579 81202 11002 21002 39796 49945 54001 69912 72187 88/// 91739 333 11001 21011
AAXX 19181 02897 47456 81302 10000 21004 39763 49944 767// 88/// 91800 333 10004 21007
AAXX 19181 02913 47470 70901 10010 20006 39864 49916 700// 87/// 333 10019 20010
AAXX 19181 02917 47365 71704 10009 20005 39835 49957 781// 87/// 91800 333 10010 20003
AAXX 19181 02924 47261 81201 10006 20006 39730 49926 52015 77187 88/// 91739 333 10011 20004
AAXX 19181 02926 17268 81402 10013 20012 39896 49908 52014 60022 752// 88/// 91800 333 10021 20010
AAXX 19181 02935 17158 81402 10008 20006 39767 49940 52015 69992 78187 88/// 91739 333 10013 20003
AAXX 19181 02939 17359 71904 10002 20000 39792 49985 52014 69982 77187 87/// 91739 333 10010 20001
AAXX 19181 02944 47370 81403 10008 20004 39773 49919 761// 88/// 91800 333 10015 20005
AAXX 19181 02947 47384 71302 10009 20006 49960 52010 70080 87/// 91751 333 10015 20004
AAXX 19181 02963 46/// /1804 10011 20008 49916 333 1//// 2////
AAXX 19181 02974 112// 81906 10019 20010 39873 49939 52004 60032 78188 887// 333 10033 20011 32///
AAXX 19181 02976 46/// /2011 10030 20022 39943 49959 52004 91739 333 10033 20024
AAXX 19181 02981 17464 72808 10035 20017 39910 49920 52022 60012 78186 87/// 91739 333 10036 20020
AAXX 19181 02982 46/// /2312 10034 20022 39908 49916 52010 91739 333 10039 20017
AAXX 19181 02741 17244 72804 10020 20018 39905 49921 52027 60022 78186 87/// 91739 333 10022 20007
AAXX 19181 02755 37268 81202 10004 20002 39833 49928 52007 77187 88/// 91739 333 10005 20000
AAXX 19181 02805 17566 73603 10004 21002 39828 49959 57011 60022 76176 87/// 91739 333 10007 21032
AAXX 19181 02807 47257 80000 11037 21037 39775 49959 771// 88/// 91800 333 11028 21038
AAXX 19181 02836 17527 80401 11024 21026 39726 49949 57003 60042 77170 88/// 91739 333 11013 21024
AAXX 19181 02845 47127 80802 11021 21021 39697 49945 54000 76776 88/// 91739 333 11013 21022
AAXX 19181 02849 47524 81402 11021 21022 39677 49952 57002 77170 88/// 91739 333 11018 21023
AAXX 19181 02866 17579 81202 11002 21002 39796 49945 54001 69912 72187 88/// 91739 333 11001 21011
AAXX 19181 02897 47456 81302 10000 21004 39763 49944 767// 88/// 91800 333 10004 21007
AAXX 19181 02913 47470 70901 10010 20006 39864 49916 700// 87/// 333 10019 20010
AAXX 19181 02917 47365 71704 10009 20005 39835 49957 781// 87/// 91800 333 10010 20003
AAXX 19181 02924 47261 81201 10006 20006 39730 49926 52015 77187 88/// 91739 333 10011 20004
AAXX 19181 02926 17268 81402 10013 20012 39896 49908 52014 60022 752// 88/// 91800 333 10021 20010
AAXX 19181 02935 17158 81402 10008 20006 39767 49940 52015 69992 78187 88/// 91739 333 10013 20003
AAXX 19181 02939 17359 71904 10002 20000 39792 49985 52014 69982 77187 87/// 91739 333 10010 20001
AAXX 19181 02944 47370 81403 10008 20004 39773 49919 761// 88/// 91800 333 10015 20005
AAXX 19181 02947 47384 71302 10009 20006 49960 52010 70080 87/// 91751 333 10015 20004
AAXX 19181 02963 46/// /1804 10011 20008 49916 333 1//// 2////
AAXX 19181 02974 112// 81906 10019 20010 39873 49939 52004 60032 78188 887// 333 10033 20011 32///
AAXX 19181 02976 46/// /2011 10030 20022 39943 49959 52004 91739 333 10033 20024
AAXX 19181 02981 17464 72808 10035 20017 39910 49920 52022 60012 78186 87/// 91739 333 10036 20020
AAXX 19181 02982 46/// /2312 10034 20022 39908 49916 52010 91739 333 10039 20017
AAXX 19184 61901 169// /1313 10168 20136 39657 40165 55007 69982 91750 333 10194 8//99 555 7/090
AAXX 19184 61902 32584 11416 10250 20172 40128 81800 333 10280 59001 81827
AAXX 19184 88878 46/// /3423 10126 20103 49987 57012
AAXX 19184 88883 46/// /3419 10140 20109 49976 57010
AAXX 19184 88889 12789 63535 10160 20040 39899 49980 57028 60001 81140 91750 333 81850 85368 91044 90710 91144
AAXX 19184 88897 46/// /3614 10148 20076 49961 57013
AAXX 19184 03005 12678 71508 10032 21031 39889 49989 57018 60002 8653/ 91750 333 10032 42001 55300 20000 86638
AAXX 19184 03017 17459 /2007 10032 20024 39938 49970 56018 60022 710// 91750 333 10032 4/003 55300 20000 87/17 84/25
AAXX 19184 03023 15965 /2921 10077 20037 30022 40027 51014 60082 91750 333 10091 8//99 90710 91132
AAXX 19184 03026 17968 /2914 10063 20039 39980 49998 51017 60112 723// 91750 333 10079 55300 20000 8//99 90710 91125
AAXX 19184 03063 17780 /1904 10020 20011 39727 40006 52004 60012 723// 91750 333 10024 4/004 55300 20000 81/50 87/64
AAXX 19184 03066 17580 /2511 10038 20023 39984 49991 55002 60042 761// 91750 333 10038 55300 20000 86/24 86/35
AAXX 19184 03075 17557 /2106 10030 20023 39927 49971 56012 60062 761// 91750 333 10044 81/22 87/26
AAXX 19184 03091 17569 /2104 10021 20013 39910 49990 57012 60042 761// 91750 333 10034 4/002 55300 20000 81/22 87/31
AAXX 19184 03100 17771 /3020 10078 20049 30028 40044 51015 60112 723// 91750 333 10093 55300 20000 87/50 90710 91133
AAXX 19184 03111 16563 /2822 10083 20063 30042 40054 50012 60082 91750 333 10093 81/20 86/46 90710 91135
AAXX 19184 03134 17574 /2915 10073 20042 39955 40027 50010 60062 781// 91750 333 10074 55300 20000 81/23 86/29
AAXX 19184 03136 15675 /2610 10083 20053 30012 40045 52015 60062 91750 333 10090 55300 20000 81/31 85/40
AAXX 19184 03162 17476 /3015 10050 20029 39749 40035 53004 60062 781// 91750 333 10052 55300 20000 85/18 90710 91125
AAXX 19184 03166 15665 /2412 10058 20045 39948 40018 51011 60022 91750 333 10063 55300 20000 86/31
AAXX 19184 03171 11265 72103 10017 20010 39996 40008 53005 60032 70262 8267/ 91750 333 10038 55300 20000 81704 83361 86366
AAXX 19184 03204 11580 72917 10093 20045 30058 40077 53015 60112 70261 81102 91750 333 10099 55300 20000 81820 87070 90710 91129
AAXX 19184 03240 17984 /2513 10047 20035 39986 40014 55011 60032 723// 91750 333 10051 55300 20000 84/67
AAXX 19184 03257 15672 /2711 10065 20042 30003 40043 55005 60022 91750 333 10066 55300 20000 85/48
AAXX 19184 03292 162// /2605 10034 20031 30021 40039 56019 60012 91750 333 10034 83/04 86/13
AAXX 19184 03302 15969 /2912 10091 20069 30088 40100 53019 60092 91750 333 10098 55300 20000 87/67
AAXX 19184 03354 17140 /2507 10050 20048 39931 40074 55001 6///2 710// 91750 333 1//// 55300 20000 84/02 84/10
AAXX 19184 03377 11256 82309 10042 20039 39978 40063 55014 60042 71062 886// 91750 333 10043 55300 20000 87703
AAXX 19184 03414 15681 /2709 10067 20047 30001 40089 53014 60042 91750 333 10073 55300 20000 85/47 83/69
AAXX 19184 03462 17366 /2415 10054 20047 39985 40074 55015 60032 722// 91750 333 10054 55300 20000 87/07
AAXX 19184 03482 17216 /2011 10040 20037 30049 40075 56025 60032 782// 91750 333 10040 87/03
AAXX 19184 03502 15675 /3214 10088 20060 39958 40120 51020 60102 91750 333 10095 55300 20000 81/31 86/63
AAXX 19184 03535 17646 /2203 10054 20054 39966 40084 53003 60042 710// 91750 333 10055 55300 20000 81/35 85/40
AAXX 19184 03590 11130 82110 10036 20033 39974 40085 56028 60022 75865 887// 91750 333 10037 55300 20000 84702 88703
AAXX 19184 03649 11140 82506 10059 20055 39991 40092 55008 60032 75065 887// 91750 333 10061 55300 2//// 86702 88703
AAXX 19184 03716 15577 /2911 10093 20083 30049 40109 53016 60142 91750 333 10102 55300 20000 82/23
AAXX 19184 03740 16157 /2611 10072 20072 39924 40101 55002 60002 91750 333 10073 55300 2//// 81/02
AAXX 19184 03746 11365 73012 10080 20076 39945 40099 55011 60052 70265 875// 91750 333 10081 81706 83708 86628
AAXX 19184 03772 17350 /2007 10063 20058 30060 40090 56023 60052 751// 91750 333 10063 55300 20000 81/08 87/10
AAXX 19184 03796 46/// /2513 10054 20049 39960 40104 57027 91750 333 10059
AAXX 19184 03803 NIL
AAXX 19184 03808 11005 83114 10103 20102 30037 40143 50003 60052 75165 886// 91750 333 10106 55300 20000 88701
AAXX 19184 03809 11250 82910 10105 20103 30050 40142 53003 6///2 75165 887// 91750 333 10106 82704 86706 88615 90710 91125
AAXX 19184 03827 17483 /3015 10105 20103 30063 40124 55006 60042 722// 91750 333 10107 87/11 83/68
AAXX 19184 03840 17171 /3111 10086 20086 39812 40116 53006 60052 723// 91750 333 10089 82/02 83/11 86/17
AAXX 19184 03853 15473 /3015 10097 20087 30084 40109 53003 60062 91750 333 10101 55300 20000 84/10 83/50
AAXX 19184 03874 46/// /2816 10089 20080 30083 40094 56026 91750 333 10090 90710 91126
AAXX 19184 03882 17350 /1803 10057 20054 30038 40102 58028 60062 762// 91750 333 10057 55300 20000 81/07 87/30
AAXX 19184 03894 11230 82621 10105 20101 40134 57018 60062 75965 887// 333 10105 87703 90710 91134
AAXX 19184 03917 17576 /2505 10069 20042 30008 40085 50016 60042 723// 91750 333 10084 55300 20000 81/28 83/34 87/64
BBXX 42039 19181 99288 70860 46/// /1307 10209 40218 58015 91750 22200 00223 10603 20603 70013 333 91208 555 11070 22073 31652 41309 61749 130065 134061 128061 127064 130066 133068 81308 91653
BBXX 41040 19181 99145 70530 46/// /0804 10268 20242 40124 56025 91750 22200 00282 11004 20401 3//// 41004 70022 333 91205 555 11044 22045 31718 41006 61749 083041 093040 096042 098044 099040 095035 81005 91718
BBXX 41010 19181 99289 70785 46/// /1207 10192 40259 58009 91750 22200 00237 10803 20502 300// 40802 70016 333 91209 555 11071 22074
BBXX 41009 19181 99285 70802 46/// /1108 10210 20129 40251 58013 91750 22200 00249 10703 20503 300// 40702 70016 333 91210 555 11080 22083
BBXX 42057 19181 99168 70815 46/// /0808 10279 20209 40148 58017 91750 22200 00280 10703 20602 3//// 40702 70014 333 91210 555 11082 22087 31702 40710 61749 082082 083079 083085 075076 070081 075081 80809 91657
AAXX 19184 78947 12580 20812 10277 20218 30139 40142 60001 70211 81101 3333 01209 10289 20225 58015 81825
AAXX 19181 89061 179// 00203 10050 20011 39862 49869 52015 69933 72071 333 91008 91113
BBXX 46082 19181 99597 71434 46/// ///// 10048 20048 40000 57004 91750 22200 00064 11309 70045
BBXX 46072 19181 99517 71722 46/// /1903 10015 21008 49942 50000 91750 22200 00047 11107 20402 3//// 41107 70035 333 91205 555 11033 22034 31719 42210 61749 188031 201037 228053 223072 219074 220076 82408 91720
BBXX 46035 19181 99571 71778 46/// /2609 1//// 49819 51011 91750 22200 11209 20804 300// 41208 70046 333 91211 555 11091 22097 31701 42713 61749 261091 257100 261101 269106 276113 264116 82712 91659
BBXX 46077 19181 99579 71543 46/// /1306 10027 21016 49947 54000 91750 22200 00048 11202 20501 3//// 41202 70011 333 91207 555 11058 22060 31720 41109 61749 125056 117054 116054 121066 087048 054051 81108 91720
BBXX 51101 19181 99243 71621 46/// /0808 10235 20179 40206 53012 91750 22200 00239 10805 20703 310// 40804 70024 333 91210 555 11090 22095 31745 40810 61749 078084 069082 069081 080079 070085 079076
BBXX 46061 19181 99602 71468 46/// /1705 10049 49988 53016 91750 22200 00053 11207 20501 300// 41207 70034 333 91207 555 11057 22060 31705 41609 61749 173053 165056 161056 174057 173062 179060
BBXX 46026 19181 99378 71228 46/// /3402 10087 40201 52008 91750 22200 00109 11506 20401 328// 41506 70031 333 91203 555 11019 22020 31744 43303 61749 329018 258018 273021 270019 275021 282024
BBXX 46041 19181 99474 71247 46/// /2401 10076 40314 52003 91750 22200 00085 11305 20401 3//// 41305 70026 333 91201 555 11006 22006 31656 43002 61749 242006 198003 242004 276008 291011 303009
BBXX 46072 19181 99517 71722 46/// /1903 10015 21008 49942 50000 91750 22200 00047 11107 20402 3//// 41107 70035 333 91205 555 11033 22034 31719 42210 61749 188031 201037 228053 223072 219074 220076 82408 91720
BBXX 51004 19181 99175 71524 46/// /0811 10238 20199 91750 555 11122 22130
BBXX 51002 19181 99171 71578 46/// /0408 10229 40141 53017 91750 22200 00251 333 91210 555 11081 22085 31650 40611 61749 039077 038078 037079 040082 048083 058077
BBXX 51100 19181 99236 71539 46/// /0809 10219 40210 53014 91750 22200 00233 10806 20805 331// 41303 70028 333 91212 555 11100 22106 31726 40714 61749 076096 084105 078103 073106 071101 074101
AAXX 19181 14648 11450 72903 10032 20022 39987 40109 52007 60182 72162 83770 333 10052 83713 87458
AAXX 19181 14652 11000 82003 11059 21059 37817 48387 53003 60222 77374 8802/ 333 11055 49070 88500
AAXX 19181 14542 11505 80000 10007 20001 39944 40139 51002 60032 77177 8802/ 333 10015 43004 88520 95990
AAXX 19181 11812 36/// /9907 11022 21044 39471 42772 52005 333 11004
AAXX 19181 11813 12782 73104 10007 21036 39834 40192 52003 60002 84570 333 10021 84650 87460
AAXX 19181 11816 12965 70402 10013 21034 30023 40191 52005 60002 8707/ 333 10021 87460
AAXX 19181 11819 36/// /3402 10002 21018 39968 40191 52004 333 10013
AAXX 19181 11826 12965 73602 11003 21022 39980 40186 52001 60002 87070 333 10012 87461
AAXX 19181 11841 12962 89901 11012 21032 39803 40191 51003 60002 8807/ 333 10013 88362
AAXX 19181 11855 12970 73104 10012 21019 30010 40180 58001 60002 8707/ 333 10029 87459
AAXX 19181 11856 36/// /9902 10003 21029 39850 40177 57001 333 10026
AAXX 19181 11858 11557 83203 10006 21010 30022 40178 50000 60002 71022 885// 333 10020 88630
AAXX 19181 11867 12762 70000 11005 21030 39858 40184 52001 60002 8457/ 333 10019 84656 87358
AAXX 19181 11880 12860 80000 10002 21011 30000 40176 52001 60002 8807/ 333 10014 88456
AAXX 19181 11900 16/// /0000 11003 21017 39838 40183 52001 60002 333 10020
AAXX 19181 11903 12960 80000 11008 21021 39788 40180 52001 60002 8807/ 333 10012 88458
AAXX 19181 11916 11/03 90506 11115 21132 37892 48420 58003 69912 78542 333 11098 48045 89/00 93598 96049
AAXX 19181 11918 11956 80000 11043 21060 39349 42778 53003 60002 71022 8802/ 333 11007 43007 88459
AAXX 19181 11927 12970 82701 11009 21016 39903 40173 50001 60002 8807/ 333 10006 88360
AAXX 19181 11930 11565 80305 11155 21170 37264 47921 58003 69912 77122 8802/ 333 11134 48048 88430 93562
AAXX 19181 11933 12975 80000 11070 21084 38623 48437 51002 60002 8807/ 333 11023 48040 88458
AAXX 19181 11934 12980 72201 11043 21066 39341 42773 51004 60002 86021 333 11019 42001 86463
AAXX 19181 11938 12980 30307 11037 21076 39083 42760 50004 60002 83070 333 11024 44015 83361
AAXX 19181 11952 16/// /9901 11038 21055 39331 42772 52003 60002 333 11027
AAXX 19181 11958 36/// /3608 11067 21077 38702 48432 57001 333 11049
AAXX 19181 11968 12980 60105 10018 21039 39879 40166 58003 60002 83038 333 10018 83359 85270
AAXX 19181 11976 16/// /9903 10005 21017 39908 40180 57005 69912 333 10017
AAXX 19181 11978 12965 63606 10014 21013 30031 40164 57003 60002 86070 333 10015 82358 85458
AAXX 19181 11993 11956 70000 11017 21017 39952 40176 57005 60002 71022 87070 333 10010 41998 85361
AAXX 19184 61766 32960 60802 10310 20261 30051 40094 80001 333 10320 58002 86075
AAXX 19184 61769 32960 70803 10314 20179 3//// 4//// 80001 333 10329 5//// 87075
AAXX 19181 89061 179// 00203 10050 20011 39862 49869 52015 69933 72071 333 91008 91113
BBXX VCRG 19184 99474 70619 46/// /1803 11025 21088 40165 58030 7//// 8//// 22200 0//// 2////
BBXX CG2350 19184 99433 70798 46/// /2315 10069 20021 40100 58003 7//// 8//// 22200 0//// 2////
AAXX 19184 96315 11260 71702 10249 20244 40076 60073 71062 82848 333 81703 84364 85080
AAXX 19184 96323 NIL
BBXX VCRG 19184 99474 70619 46/// /1803 11025 21088 40165 58030 7//// 8//// 22200 0//// 2////
BBXX CG2350 19184 99433 70798 46/// /2315 10069 20021 40100 58003 7//// 8//// 22200 0//// 2////
BBXX CGDR 19184 99491 71231 46/// /0504 10056 20055 40311 55001 7//// 8//// 22211 00078 2////
BBXX VRYO3 19184 99532 10044 46/// /0321 10067 20077 40078 56015 7//// 8//// 22254 00094 2////
BBXX CG2958 19184 99521 71279 46/// /2018 10074 20066 40198 58021 7//// 8//// 22282 0//// 2////
BBXX CG2960 19184 99423 70830 46/// /2309 10101 20040 4//// 5//// 7//// 8//// 22200 0//// 2////
BBXX CGJV 19184 99463 70621 46/// /0402 11026 21091 40160 58024 7//// 8//// 22282 00055 2////
BBXX CGBN 19184 99447 70636 46/// /3502 11019 21112 40163 56031 7//// 8//// 22200 0//// 2////
BBXX VAAZ 19184 99546 70529 46/// /2621 11055 21086 40104 58019 7//// 8//// 22231 0//// 2////
BBXX VCWL 19184 99456 70735 46/// /1805 10001 21037 40048 56028 7//// 8//// 22200 0//// 2////
BBXX CGDX 19184 99489 70674 46/// /1737 11077 21098 40039 58071 7//// 8//// 22223 00004 2////
BBXX CG2965 19184 99487 71235 46/// /0000 10060 20050 40308 58004 7//// 8//// 22200 0//// 2////
BBXX VXKF 19184 99469 70597 46/// /3508 11045 21099 40145 56027 7//// 8//// 22253 0//// 2////
BBXX VOFG 19184 99456 70614 46/// /3014 11008 21074 40155 58025 7//// 8//// 22200 0//// 2////
BBXX VCLM 19184 99511 70575 46/// /2712 11090 21112 40150 56012 7//// 8//// 22253 00016 2////
BBXX CGBR 19184 99543 71303 46/// /1408 10056 20055 40070 56034 7//// 8//// 22200 0//// 2////
BBXX VOPP 19184 99456 70735 46/// /1811 11002 21039 4//// 5//// 7//// 8//// 22200 0//// 2////
BBXX VOLG 19184 99466 70559 46/// /0121 11027 21052 40097 57034 7//// 8//// 22222 0//// 2////
BBXX CGBY 19184 99487 71235 46/// /0000 10056 20044 40307 57004 7//// 8//// 22200 0//// 2////
BBXX CGCC 19184 99460 70731 46/// /2006 11012 21048 40046 56036 7//// 8//// 22200 0//// 2////
BBXX CZ9742 19184 99506 70969 46/// /2908 11051 21078 40244 53012 7//// 8//// 22200 0//// 2////
BBXX CGTF 19184 99476 70527 46/// /2902 11006 21035 40095 56014 7//// 8//// 22200 0//// 2////
BBXX CGJK 19184 99484 71234 46/// /2007 10069 20055 40309 57004 7//// 8//// 22200 0//// 2////
BBXX 3FZK3 19184 99533 71412 46/// /2029 10062 20062 49919 56006 7//// 8//// 22233 0//// 2////
AAXX 19181 01367 11989 13303 11066 21076 39552 40006 53012 60002 70200 81001 333 11058 91105
AAXX 19181 01492 11889 30302 11022 21044 39870 49990 52011 60002 70220 82071 333 10016 91103
AAXX 19181 01028 11015 61105 11028 21034 30036 40056 57001 60002 71020 86600 333 10014 91107
AAXX 19181 01047 11656 83603 11014 21023 39586 49958 57010 60012 77177 8802/ 333 11014
AAXX 19181 01049 16/// /1501 11019 21026 39969 49973 57014 69952 333 11019 91105
AAXX 19181 01218 11685 83602 10007 20004 39985 40007 52004 60042 70282 83280 333 10007 91103
AAXX 19181 01359 11589 12401 11030 21067 39086 40006 53004 60002 70200 81200 333 11003 91108
AAXX 19181 01397 16/// /3104 10000 21028 39531 49967 53010 60002 333 10000 91106
AAXX 19184 81401 06/// /0606 10308 20229 30089 40095 60001 333 60007 58004 555 60005
AAXX 19184 81408 06/// /0907 10319 20205 30085 40093 60001 333 60007 58005 555 60005
BBXX VCBW 19184 99468 70712 46/// /0104 11047 21059 40048 58078 7//// 8//// 22200 0//// 2////
BBXX VAAP 19184 99446 70636 46/// /2303 10002 21108 40168 56031 7//// 8//// 22200 0//// 2////
BBXX VOKF 19184 99490 70669 46/// /1722 11073 21106 40038 56071 7//// 8//// 22200 0//// 2////
AAXX 19184 81401 06/// /0606 10308 20229 30089 40095 60001 333 60007 58004 555 60005
AAXX 19184 81408 06/// /0907 10319 20205 30085 40093 60001 333 60007 58005 555 60005
BBXX CGBN 19184 99447 70636 46/// /3502 11019 21112 40163 56031 7//// 8//// 22200 0//// 2////
BBXX CGCC 19184 99460 70731 46/// /2006 11012 21048 40046 56036 7//// 8//// 22200 0//// 2////
BBXX 3FZK3 19184 99533 71412 46/// /2029 10062 20062 49919 56006 7//// 8//// 22233 0//// 2////
BBXX VAAZ 19184 99546 70529 46/// /2621 11055 21086 40104 58019 7//// 8//// 22231 0//// 2////
BBXX VXKF 19184 99469 70597 46/// /3508 11045 21099 40145 56027 7//// 8//// 22253 0//// 2////
BBXX CGBY 19184 99487 71235 46/// /0000 10056 20044 40307 57004 7//// 8//// 22200 0//// 2////
BBXX CGDX 19184 99489 70674 46/// /1737 11077 21098 40039 58071 7//// 8//// 22223 00004 2////
BBXX VRYO3 19184 99532 10044 46/// /0321 10067 20077 40078 56015 7//// 8//// 22254 00094 2////
BBXX VOFG 19184 99456 70614 46/// /3014 11008 21074 40155 58025 7//// 8//// 22200 0//// 2////
BBXX CGJK 19184 99484 71234 46/// /2007 10069 20055 40309 57004 7//// 8//// 22200 0//// 2////
BBXX CZ9742 19184 99506 70969 46/// /2908 11051 21078 40244 53012 7//// 8//// 22200 0//// 2////
BBXX CG2965 19184 99487 71235 46/// /0000 10060 20050 40308 58004 7//// 8//// 22200 0//// 2////
BBXX CG2958 19184 99521 71279 46/// /2018 10074 20066 40198 58021 7//// 8//// 22282 0//// 2////
BBXX CGJV 19184 99463 70621 46/// /0402 11026 21091 40160 58024 7//// 8//// 22282 00055 2////
BBXX CGTF 19184 99476 70527 46/// /2902 11006 21035 40095 56014 7//// 8//// 22200 0//// 2////
BBXX VCWL 19184 99456 70735 46/// /1805 10001 21037 40048 56028 7//// 8//// 22200 0//// 2////
BBXX CG2960 19184 99423 70830 46/// /2309 10101 20040 4//// 5//// 7//// 8//// 22200 0//// 2////
BBXX VOPP 19184 99456 70735 46/// /1811 11002 21039 4//// 5//// 7//// 8//// 22200 0//// 2////
BBXX CGDR 19184 99491 71231 46/// /0504 10056 20055 40311 55001 7//// 8//// 22211 00078 2////
BBXX CGBR 19184 99543 71303 46/// /1408 10056 20055 40070 56034 7//// 8//// 22200 0//// 2////
BBXX VCLM 19184 99511 70575 46/// /2712 11090 21112 40150 56012 7//// 8//// 22253 00016 2////
BBXX VOLG 19184 99466 70559 46/// /0121 11027 21052 40097 57034 7//// 8//// 22222 0//// 2////
AAXX 19184 78384 11460 81209 10235 20228 40169 60071 70282 888// 333 10269 20229 59008 70066 86814 87630 90921
AAXX 19184 78383 12460 50915 10283 20212 40173 60001 81142 10294 20245 59006 70000 81816 84075
AAXX 19184 78397 111570 22007 10313 20207 30130 40146 60001 70500 81801 333 01909 10316 20225 59002 81820
AAXX 19184 78866 02583 20712 10278 20150 30156 40161 57020 60001 81401 333 58016 60007 81824
AAXX 19184 78906 11476 40408 10281 20195 30134 40139 60001 71500 84201 333 10294 20214 58013 70001 84819
AAXX 19184 78016 11664 43320 10166 20050 30195 40199 52004 69951 70181 84800 333 10167 20122 70152 90961
BBXX CGDG 19184 99447 70636 46/// /3001 11005 21020 40176 56034 7//// 8//// 22200 0//// 2////
BBXX VOKJ 19184 99476 70527 46/// /0213 11012 21043 40094 56014 7//// 8//// 22200 0//// 2////
BBXX CGSB 19184 99492 70681 46/// /1619 11064 21071 40056 56057 7//// 8//// 22200 0//// 2////
BBXX C6SI6 19184 99318 11209 46/// /1207 10076 20028 40300 58006 7//// 8//// 22200 0//// 2////
BBXX VCSZ 19184 99461 70731 46/// /2008 11011 21017 40041 56039 7//// 8//// 22253 0//// 2////
BBXX CGDT 19184 99468 70712 46/// /3203 11058 21066 40054 57046 7//// 8//// 22200 0//// 2////
AAXX 19184 78384 11460 81209 10235 20228 40169 60071 70282 888// 333 10269 20229 59008 70066 86814 87630 90921
AAXX 19184 78383 12460 50915 10283 20212 40173 60001 81142 10294 20245 59006 70000 81816 84075
AAXX 19184 78397 111570 22007 10313 20207 30130 40146 60001 70500 81801 333 01909 10316 20225 59002 81820
AAXX 19184 78016 11664 43320 10166 20050 30195 40199 52004 69951 70181 84800 333 10167 20122 70152 90961
AAXX 19184 78866 02583 20712 10278 20150 30156 40161 57020 60001 81401 333 58016 60007 81824
AAXX 19184 17600 12965 30710 10187 20021 30174 40183 57002 60002 80002 333 10239 20125 83075
AAXX 19184 17601 12970 00719 10170 20088 30158 40189 50002 60002 91750 333 10199 90710 91126
AAXX 19184 17607 NIL
AAXX 19184 17609 11959 33407 10148 20106 30201 40205 50000 60002 70511 80002 333 10193 20136 83075
AAXX 19181 11423 02584 82603 11037 21044 39297 42788 52010 69902 885// 333 11025 48014 60005 88622
AAXX 19181 11487 02684 82704 11008 21054 39563 40205 52006 60002 885// 333 10005 41998 60005 88634 91111
AAXX 19181 11518 02680 72203 11012 21047 39745 40200 52004 60002 875// 333 10005 43001 60005 87633
AAXX 19181 11603 02670 82103 11006 21051 39694 40191 52007 69902 885// 333 10018 43001 60005 88639
AAXX 19181 11659 02564 33302 11031 21041 39543 40208 53010 60002 83500 333 10016 42001 60005 83632
AAXX 19181 11723 02662 53202 11017 21052 39891 40200 50007 60002 81531 333 10023 60005 81633 84071
AAXX 19181 11782 01957 32101 11032 21045 39882 40201 52008 60002 71011 80002 333 10021 60005 83071
AAXX 19184 78906 11476 40408 10281 20195 30134 40139 60001 71500 84201 333 10294 20214 58013 70001 84819
AAXX 19184 60060 32956 10407 10168 20136 40197 53007 80002 333 10195 81070 95300
AAXX 19184 60105 32460 30407 10125 20075 40246 52006 81102 333 10160 81816 83070
AAXX 19184 60107 32460 63202 10108 20038 40256 53002 82202 333 10166 82820 86070 95300
AAXX 19184 60127 32965 80000 10105 20030 39652 40257 51003 80002 333 10140 88073
AAXX 19184 60141 12460 51005 10099 20075 39569 40244 58002 85200 333 10135 85826
AAXX 19184 60185 32465 30807 10156 20081 40235 53006 83200 333 10186 83816
AAXX 19184 60191 32565 61203 10148 20111 40222 52007 83202 333 10194 83826 85073
AAXX 19184 60195 12560 51210 10078 20002 38548 48562 53019 69982 84202 333 10139 84830 95500
AAXX 19184 60210 32570 62204 10126 20027 39041 48560 53011 82202 333 10151 82823 85070
AAXX 19184 60220 32958 00414 10160 20100 40210 51003 333 10184
AAXX 19184 60265 32970 40000 10158 21022 38918 48546 53001 80002 333 10182 84070
AAXX 19184 60106 NIL
AAXX 19184 60190 NIL
AAXX 19184 60318 NIL
AAXX 19184 16008 NIL
AAXX 19184 16084 12975 02607 11010 21032 39998 40172 53009 60002 333 10062
AAXX 19184 16088 12970 01502 10000 21013 30046 40168 53014 60002 333 10060
AAXX 19184 16110 12898 70909 10038 21047 30156 40160 52018 60002 87070 333 10070 83357 85458 555 0////
AAXX 19184 16134 11970 00114 11066 21100 37739 48435 52006 60002 70241 333 11046 44004 92845
AAXX 19184 16153 12999 03613 10078 21115 39900 40168 53010 60002 333 10131 555 0////
AAXX 19184 16158 12665 11106 10056 21032 30153 40160 52011 60002 81200 333 10114 81640
AAXX 19184 16206 12984 00306 10034 21041 30143 40151 52013 60002 333 10096
AAXX 19184 16219 41/00 90233 11068 21071 38014 48414 52009 6///2 74974 333 11052 43009 89/00 92811 95090 95190
AAXX 19184 16252 12462 52903 10008 21044 39156 42725 53009 60022 85500 333 10032 85615
AAXX 19184 16280 12598 33516 10098 20035 39887 40109 53015 60002 83200 333 10104 83825 555 0////
AAXX 19184 16310 12597 62304 10076 20025 39863 40086 53002 60002 86800 333 10112 83820 83625 555 0////
AAXX 19184 16320 11458 52912 10084 20065 30087 40099 50000 69962 71086 85800 333 10132 82815 84620 555 0////
AAXX 19184 16325 12598 52906 10084 20065 30079 40093 52005 69942 85500 333 10108 85630 98070 555 0////
AAXX 19184 16360 12498 62211 10120 20065 39957 40091 56002 60002 84250 333 10134 84815 85358 555 0////
AAXX 19184 16400 11497 33013 10082 20018 39838 40131 53017 60032 70260 83200 333 10122 55300 83815 555 0657/
AAXX 19184 16420 11596 73111 10094 20044 30041 40106 52001 69902 76062 87800 333 10150 83820 85630 90002 90914 91024 96460 555 0////
AAXX 19184 16429 11562 63213 10100 20046 30145 40157 52020 60032 72196 86200 333 10122 81820 85826
AAXX 19184 16470 11460 43017 10108 20060 39922 40160 52010 60022 70186 84200 333 10114 55300 22/// 84616 95000
AAXX 19184 16480 11997 03107 10076 20073 30054 40117 51001 60022 70161 333 10134 555 0////
AAXX 19184 16522 12498 23517 10102 20050 39910 40156 53008 60012 82200 333 10110 55300 82815 555 0////
AAXX 19184 16539 11497 53516 10078 20072 30061 40177 53004 60072 72198 84970 333 10098 81918 83820 555 0////
AAXX 19184 16550 12998 03011 10080 21002 39960 40142 52016 60002 333 10110 555 0////
AAXX 19184 64500 32460 82406 10274 20240 30080 40093 885// 333 10282 58007 83610 88633
AAXX 19184 60096 32460 23514 10186 20141 40180 55006 82500 333 10209 82616
AAXX 19184 60150 32558 70703 10107 20086 39580 40242 53001 83202 333 10142 83820 85070
AAXX 19184 60155 32960 602// 10147 20085 40227 54000 80002 333 10165 85070
AAXX 19184 60101 NIL
AAXX 19184 60115 NIL
AAXX 19184 60135 NIL
AAXX 19184 60156 NIL
AAXX 19184 60230 NIL
AAXX 19184 60252 NIL
AAXX 19184 16021 12960 03107 11094 21161 37901 48438 53002 60002 333 11068 43026 92842
AAXX 19184 16022 12980 03517 11116 21174 37774 48440 53004 60002 333 11095 48016 92835
AAXX 19184 16033 12962 02202 11098 21131 38756 48454 53011 60002 333 11062 43020 92822
AAXX 19184 16040 12565 70000 11036 21050 39242 42771 51011 60002 81206 333 11006 42998 81820 92832
AAXX 19184 16052 11960 00620 11236 21260 36502 47945 53006 60002 70241 333 11184 49999
AAXX 19184 16061 12984 02911 10020 21112 39340 42788 52011 60002 333 10050
AAXX 19184 16098 12980 20000 10018 21039 30105 40158 52009 60002 82030 333 10112 82360
AAXX 19184 16138 12962 00000 10026 21016 30153 40164 52011 60002 333 10088
AAXX 19184 16148 12580 43008 10050 20015 30148 40160 52011 69962 84100 333 10069 84830
AAXX 19184 16168 NIL
AAXX 19184 16172 12565 43515 10040 21047 39848 40153 51007 60002 84500 333 10074 84625
AAXX 19184 16179 11430 83604 10000 21009 39453 42747 52013 60022 77074 888// 333 10008 43010 85815 84620 92821 93101
AAXX 19184 16224 12960 13616 10048 21014 39808 40131 52015 60002 81041 333 10084 81359
AAXX 19184 16232 12598 32830 10076 20023 30048 40101 52015 60002 83800 333 10102 55300 81825 83626 555 0////
AAXX 19184 16245 12580 13610 10054 21011 30106 40133 52019 60002 81100 333 10102 81820
AAXX 19184 16253 12563 30504 10056 20024 30104 40116 51015 69902 81130 333 10114 81825 83358
AAXX 19184 16258 11/00 93318 11010 21017 39087 42706 58001 69902 77074 333 10034 41001 89/00
AAXX 19184 16263 11462 53307 10004 21018 38839 48405 51009 60002 70242 85200 333 10016 44006 85615 92822
AAXX 19184 16294 NIL
AAXX 19184 16337 NIL
AAXX 19184 16344 11/00 92208 11024 21024 38210 48401 54000 60202 77074 333 11014 47030 89/00 95090 95190
AAXX 19184 16434 NIL
AAXX 19184 16450 11160 53008 10022 20022 39011 48471 52001 60022 70274 85600 333 10046 83703 83806
AAXX 19184 16459 12460 22706 10074 20054 30086 40122 52009 60002 82200 333 10150 82615
AAXX 19184 16546 NIL
AAXX 19184 16564 12597 72735 10082 20029 30018 40162 51010 60002 85230 333 10118 84820 84357 555 0////
BBXX 44011 19181 99411 70666 46/// /2805 10029 21027 40209 58022 91750 22200 00095 11106 20401 3//// 41106 70029 333 91207 555 11049 22050 31743 41107 61749 281044 292041 286050 287046 293043 309043
BBXX 41046 19181 99238 70683 46/// /0409 10227 20146 40203 58013 91750 22200 00259 10806 20604 300// 40804 70029 333 91211 555 11092 22096 31707 40512 61749 041087 041085 037085 033094 033090 029095 80310 91718
AAXX 19184 16045 NIL
AAXX 19184 16090 12970 03106 10038 21082 30080 40164 52010 60002 333 10108
AAXX 19184 16149 11565 40111 10072 21005 30137 40153 52015 69962 70271 84100 333 10074 84820
AAXX 19184 16261 12565 52514 10058 20026 30023 40096 51001 60002 83830 333 10092 55300 81825 83640
AAXX 19184 16453 11597 23407 10102 20056 30063 40142 51005 60022 70161 82400 333 10132 55300 82620 555 0100/
AAXX 19184 16560 11456 83109 10060 20038 30181 40188 53015 60012 76061 889// 333 10106 82915 87620
AAXX 19181 14528 NIL
AAXX 19181 14537 NIL
AAXX 19181 14544 NIL
AAXX 19181 14557 11820 82501 10001 21002 39766 40143 53007 60032 77177 8802/ 333 43002 88556
AAXX 19181 14640 NIL
AAXX 19184 60285 32458 13616 10170 20134 40183 53004 81500 333 10198 81616
AAXX 19184 60340 32970 60604 10100 20048 40267 53004 80002 333 10147 86070
BBXX 46089 19181 99459 71258 46/// /3502 10081 20030 40326 52006 91750 22200 00090 11405 20401 330// 41405 70023 333 91204 555 11018 22018 31731 43405 61749 349018 350029 324029 320029 319027 319026
AAXX 19184 85223 31570 73014 10222 20090 37502 47139 52027 71521 83933 333 56000 58009 83827 81930 83358 85070
AAXX 19184 85283 32584 40408 10200 20097 37196 47125 57021 84100 333 56100 59008 84823 555 10263 29052
AAXX 19184 85293 32584 70505 10139 20058 36365 57009 84901 333 56600 5//// 83620 81923 84070
AAXX 19184 85312 32684 20000 10314 20155 38770 57030 82020 333 56000 59035 82836
AAXX 19184 85345 32584 20906 10368 20184 39595 40050 57030 82100 333 56000 59032 82825
AAXX 19184 85364 32670 21408 10288 20091 38134 48236 57022 82100 333 56000 59026 82833
AAXX 19184 85365 32584 13607 10360 20197 39336 40077 57024 81100 333 56000 59027 81823
AAXX 19184 85394 32584 40000 10352 20233 39740 40058 57027 84201 333 56000 5//// 81823 84070
BBXX 46035 19181 99571 71778 46/// /2609 1//// 49819 51011 91750 22200 11209 20804 300// 41208 70046 333 91211 555 11091 22097 31701 42713 61749 261091 257100 261101 269106 276113 264116 82712 91659
BBXX LAOX5 19181 99376 71537 41698 82018 00/// 10180 20150 40258 51005 70221 88618 22213 00/// 22103 327// 41213 5//// 6//// 80165
BBXX LEQZ3 19183 99542 71632 412// 32524 10050 20030 49970 52020 7//00 83482 22262 00120 80040
BBXX WDD9433 19184 99450 71536 41698 52212 10080 20060 40195 52035 70111 844/6 22213 00100 20303 327// 40509 5//// 6//// 80070 ICE /////
BBXX 51000 19181 99235 71541 46/// /0811 10225 40204 53014 91750 22200 00232 10906 20605 311// 40904 70032 333 91214 555 11114 22121 31749 40914 61749 077105 071103 070097 070100 076097 072087
BBXX 44008 19181 99405 70692 46/// /2407 10059 21009 40211 58037 91750 22200 00114 11004 20602 308// 41003 70019 333 91210 555 11077 22080 31749 42310 61749 241073 231069 234066 232069 239065 244067
BBXX 44172 19181 99445 70634 46/// ///// 1//// 91801 22200 00068 11003 21002 314// 41302 70015
BBXX 44097 19181 99410 70711 46/// ///// 1//// 91802 22200 00123 10504 20504 315// 41101 70019
BBXX 46232 19181 99325 71174 46/// ///// 1//// 91738 22200 00152 11303 20702 329// 41302 70015
BBXX 46247 19181 99378 71228 46/// ///// 1//// 91751 22200 00111 11506 21004 329// 41504 70029
BBXX 46243 19181 99462 71241 46/// ///// 1//// 91759 22200 00081 11004 21003 327// 41303 70019
BBXX 46236 19181 99368 71219 46/// ///// 1//// 91750 22200 00125 11505 20803 328// 41503 70023
BBXX 46229 19181 99438 71246 46/// ///// 1//// 91751 22200 00101 11306 20803 329// 41304 70028
BBXX 46225 19181 99329 71174 46/// ///// 1//// 91744 22200 00145 11402 20702 328// 41402 70012
BBXX 46213 19181 99403 71247 46/// ///// 1//// 91754 22200 00105 11009 21007 329// 41406 70046
BBXX 46215 19181 99352 71209 46/// ///// 1//// 91738 22200 00130 11404 20602 327// 41403 70020
BBXX 46218 19181 99345 71208 46/// ///// 1//// 91802 22200 00139 11505 20603 330// 41505 70027
AAXX 19184 84455 31460 83607 10310 20230 39790 40132 70222 8352/ 333 5600/ 58000 83620 85358
AAXX 19184 84658 31462 82504 10313 20247 39849 40071 70322 8353/ 333 5679/ 59005 83810 85360
AAXX 19184 84673 31660 80403 10213 20083 37332 71522 8312/ 333 5699/ 58002 83846 88463
AAXX 19184 84452 31960 01917 10268 20183 30090 40120 70100 333 59015
AAXX 19184 84773 31965 01511 10242 20148 30103 40128 70200 333 58///
AAXX 19184 84542 31670 33507 10240 20101 37326 70201 83500 333 56900 58/// 83647
AAXX 19184 84691 31308 82809 10230 20186 30106 40113 74544 886// 333 560//59003 83707 85710
AAXX 19184 84370 31960 43310 10270 20214 30061 40102 70112 84030 333 56900 59012 84362
AAXX 19184 84782 31965 02210 10260 20155 39604 40098 70222 333 59011
AAXX 19184 84377 31560 81508 10292 20251 39981 40084 70222 86530 333 56000 58004 86620 86358
AAXX 19184 84515 21358 81204 10230 20230 39933 40111 76066 887// 333 569// 58018 60091 82710 88617
AAXX 19184 84390 31965 02015 10270 20164 30003 40105 70200 333 58///
AAXX 19184 84735 31560 4//// 10151 20035 36428 70222 84100 333 56900 58005 84830
AAXX 19184 84444 31560 8//// 10164 20127 37523 70224 8347/ 333 5699/ 59012 83630 87462
AAXX 19184 84688 31459 83604 10150 20094 36663 70223 886// 333 569// 58002 83615 86640
AAXX 19181 45007 12559 60505 10172 20127 30201 40211 50001 60001 84530 333 59018 81620 83640
BBXX 44100 19181 99363 70756 46/// ///// 1//// 91752 22200 00122 10802 20802 307// 41201 70010
BBXX 41110 19181 99341 70777 46/// ///// 1//// 91751 22200 00141 10901 20901 312// 41101 70007
BBXX 42099 19181 99273 70842 46/// ///// 1//// 91757 22200 00232 10603 20603 70016
BBXX 41113 19181 99284 70805 46/// ///// 1//// 91751 22200 00211 10502 20502 308// 41101 70010
BBXX 41112 19181 99307 70813 46/// ///// 1//// 91751 22200 00161 10502 20502 70010
BBXX 42362 19181 99278 70907 46/// /1308 10244 20111 40200 91745
BBXX 44099 19181 99369 70757 46/// ///// 1//// 91752 22200 00120 10902 20902 309// 41101 70011
BBXX 44039 19181 99411 70727 46/// /2210 10066 21001 40200 91745 22200 00095 10502 70010 333 91214
AAXX 19181 45007 12559 60505 10172 20127 30201 40211 50001 60001 84530 333 59018 81620 83640
AAXX 19181 45032 36/// /2603 10145 20127 30195 40212 57001
AAXX 19181 45035 36/// /0303 10158 20128 30170 40212 52001
AAXX 19181 45039 36/// /0002 10165 20132 30194 40210 52001
AAXX 19181 45044 36/// /0205 10166 20122 30111 40206 57001
AAXX 19181 45032 36/// /2603 10145 20127 30195 40212 57001
AAXX 19181 45035 36/// /0303 10158 20128 30170 40212 52001
AAXX 19181 45039 36/// /0002 10165 20132 30194 40210 52001
AAXX 19181 45044 36/// /0205 10166 20122 30111 40206 57001
BBXX 46238 19181 99334 71195 46/// ///// 1//// 91750 22200 00144 11304 21002 329// 41303 70019
BBXX 46239 19181 99363 71221 46/// ///// 1//// 91751 22200 00134 11408 20804 331// 41406 70038
AAXX 19184 78862 11480 10212 10275 20193 30131 40154 69901 70181 81802 333 10281 20226 58014 81819
AAXX 19184 KN015 BKN035
AAXX 19184 TAF TKPN 181600Z 1818/1918 05014KT 9999 SCT022 BKN036 PROB40 TEMPO 1818/1918 5000 SHRA BKN015 BKN035
AAXX 19184 TAF TQPF 181600Z 1818/1918 05014KT 9999 SCT022 BKN036 PROB40 TEMPO 1818/1918 5000 SHRA BKN015 BKN035
AAXX 19184 TAF TUPJ 181600Z 1818/1918 05014KT 9999 SCT022 BKN036 PROB40 TEMPO 1818/1918 5000 SHRA BKN015 BKN035
AAXX 19184 EMPO 0600/0624 SHRA BKN015=+TSRA SCT012CB
AAXX 19184 TAF TUPJ 041000Z 04012/0512 07008KT 9999 SCT016 BKN038 SCT270 TEMPO 0412/0512 SHRA BKN015 PROB40 TEMPO 0418/0512 5000 SHRA BKN014 BKN036 PROB30 0420/0512 4000 TSRA FEW012CB
AAXX 19184 918 4000 TSRA FEW012CB
AAXX 19184 N015 BKN036 PROB40 TEMPO 0704/0724 3000 +TSRA SCT011CB BKN012 BECMG 0712/0714 14008KT
AAXX 19184 21/2712 07017G28KT 5000 SHRA BKN015 BKN036 PROB TEMPO 2700/2712 4000 TSRA FEW013CB
AAXX 19184 PROB30 TEMPO 0800/0806 4000 TSRA FEW012CB PROB40 TEMPO 0800/0824 2000 +SHRA/TSRA SCT010CB BKN012 BKN250
AAXX 19184 61968 16/// /2503 10278 20240 40113 60002 333 10322 58013 90710 91109 555 60005
AAXX 19184 61970 16/// ///// 10277 20217 40111 60072 333 10318 58013 555 60005
AAXX 19184 61980 11415 82109 10224 20207 40134 60312 79598 8697/ 333 10290 58027 82915 85823 85657 90710 91126 924/4 555 60145
AAXX 19184 67005 14/// /2706 10277 20226 40111 60112 700// 333 10316 58014 90710 91110 555 60005
BBXX 46219 19181 99332 71199 46/// ///// 1//// 91758 22200 00135 11505 21002 329// 41504 70025
BBXX 46224 19181 99332 71175 46/// ///// 1//// 91736 22200 00144 11302 20701 325// 41301 70008
BBXX 46214 19181 99379 71235 46/// ///// 1//// 91755 22200 00117 11508 21005 330// 41506 70039
BBXX 42362 19181 99278 70907 46/// /1508 10244 20100 40197 58010 91800
BBXX 42363 19181 99282 70892 46/// /1509 10206 20083 40214 58013 91800 333 91209
BBXX 42364 19181 99291 70881 46/// /1507 10200 20111 40220 58017 91800
AAXX 19184 13600 11757 80910 10070 20046 30050 40103 57010 60052 70266 885// 333 10100 88650
AAXX 19184 13610 11556 70000 10046 20017 39692 40121 56008 60042 76022 87500 333 10065 87623
AAXX 19184 13611 11560 81414 10080 20047 39986 40077 56002 60042 70288 885// 333 10124 88630
AAXX 19184 13619 11550 80000 10034 20029 39347 42741 52009 60012 76165 885// 333 10048 88626
AAXX 19184 13622 12662 80604 10102 20047 30077 40084 57008 60012 885// 333 10140 88640
AAXX 19184 13624 11665 71308 10066 20052 30065 40104 57006 69922 70262 83550 333 10112 83640 84360
AAXX 19184 13625 11550 80000 10040 20021 39891 40126 57008 60032 76066 885// 333 10080 88620
AAXX 19184 13629 11660 83204 10036 20036 39060 42720 54001 60042 76166 885// 333 10046 88636
AAXX 19184 13601 11660 63604 10080 20055 39983 40084 58008 60062 70161 86500 333 10120 86640
AAXX 19184 13602 NIL
AAXX 19184 13623 11960 40000 10058 20054 30111 40118 54000 60102 70161 84020 333 10080 84460
BBXX DBLK 19181 99705 50081 41499 22104 11001 21031 49896 57013 70221 81840 22200 05015 ICE 48795
AAXX 19184 89642 40/// /1135 10001 21005 39778 49831 58049 333 01154 91048 91154
AAXX 19184 71805 04/86 /0220 11028 21066 30101 40110 56026 6///2 700// 333 11026 21040 6///7 555 6///5
BBXX 51204 19181 99213 71581 46/// ///// 1//// 91752 22200 00246 11303 20702 331// 41301 70014
BBXX 51202 19181 99214 71577 46/// ///// 1//// 91739 22200 00245 10805 20805 303// 41101 70027
AAXX 19184 85032 31457 62704 10315 20227 39903 40062 57029 71522 86904 333 56606 59026 85817 81920 86070
AAXX 19184 85043 11458 63506 10298 20241 39930 40091 57020 60031 71562 85904 333 56800 58003 84817 81920 86070
AAXX 19184 85104 32565 41404 10308 20244 39914 40074 57028 84200 333 56300 59014 84820 555 10081 29069
AAXX 19184 85109 32465 60906 10309 20241 39930 40090 57020 84204 333 56206 59004 84817 86070
AAXX 19184 85114 32465 50000 10313 20239 39930 40093 57022 85200 333 56300 59008 85817
AAXX 19184 85116 32465 50306 10328 20238 39904 40081 57032 85200 333 56100 59006 85817
AAXX 19184 85123 32565 51106 10336 20241 39921 40084 57009 85201 333 56301 58001 85820
AAXX 19184 85139 32465 50000 10328 20265 39854 40045 57024 83904 333 56706 59023 82817 81923 85070
AAXX 19184 85153 32465 60000 10335 20250 39898 40080 57019 86900 333 56700 59022 85817 81923
AAXX 19184 85154 32470 30000 10326 20252 39900 40075 57025 83201 333 56700 59015 83817
AAXX 19181 01062 11380 80000 11019 21027 30060 40073 55002 69922 70222 8361/ 333 10004 91110
AAXX 19181 01205 46/// /1704 10047 20017 39951 49996 54000 333 10063 91108
AAXX 19181 01238 41689 12204 11072 21093 38848 49979 52008 70220 81400 333 11023 91114
AAXX 19184 78958 11468 79903 10277 20222 30120 40130 60001 71522 86432 333 10304 20216 58010 86819
AAXX 19184 48601 11560 70108 10265 20224 30083 40087 60001 70522 82532 333 82625 85364 87077
AAXX 19184 48615 11562 70000 10253 20237 30086 40092 69901 70562 82532 333 82620 84364 87074
AAXX 19184 48620 11560 70701 10240 20237 30082 40091 60001 71022 83548 333 83630 83365 87276
AAXX 19184 48647 11040 70000 10249 20242 30069 40094 60001 71322 83952 333 81700 81917 84364 86078
AAXX 19184 48657 11058 73406 10242 20233 30072 40090 69901 70596 84548 333 81700 84624 87276
AAXX 19184 48665 12562 70401 10235 20228 30089 40099 60001 81542 333 81630 83364 86078
AAXX 19184 96413 11465 72901 10249 20245 30043 40069 69941 72996 8397/ 333 81915 83620 87365
AAXX 19184 96421 11462 70903 10238 20233 30030 40066 60111 79596 8597/ 333 81915 84618 87365
AAXX 19184 96441 11468 71602 10244 20240 30038 40065 60161 71362 83931 333 81915 84365 86080
AAXX 19184 96449 12465 70804 10251 20247 30044 40063 60001 8357/ 333 83614 87365
AAXX 19184 96465 11465 70506 10262 20249 30036 40069 60011 70396 84838 333 83812 84364 87279
AAXX 19184 96471 11462 81105 10251 20235 30071 40074 60061 76196 85847 333 82812 84630 88276
AAXX 19184 96481 12462 63602 10253 20237 30048 40067 60001 82841 333 81817 85080
AAXX 19184 96491 11358 70902 10259 20249 30056 40068 60021 76062 83748 333 82708 83635 87276
AAXX 19184 78958 11468 79903 10277 20222 30120 40130 60001 71522 86432 333 10304 20216 58010 86819
AAXX 19184 48601 11560 70108 10265 20224 30083 40087 60001 70522 82532 333 82625 85364 87077
AAXX 19184 48615 11562 70000 10253 20237 30086 40092 69901 70562 82532 333 82620 84364 87074
AAXX 19184 48620 11560 70701 10240 20237 30082 40091 60001 71022 83548 333 83630 83365 87276
AAXX 19184 48647 11040 70000 10249 20242 30069 40094 60001 71322 83952 333 81700 81917 84364 86078
AAXX 19184 48650 11157 73401 10244 20239 30073 40092 60001 71322 83942 333 81703 81917 83364 87078
AAXX 19184 48657 11058 73406 10242 20233 30072 40090 69901 70596 84548 333 81700 84624 87276
AAXX 19184 48665 12562 70401 10235 20228 30089 40099 60001 81542 333 81630 83364 86078
AAXX 19184 96413 11465 72901 10249 20245 30043 40069 69941 72996 8397/ 333 81915 83620 87365
AAXX 19184 96421 11462 70903 10238 20233 30030 40066 60111 79596 8597/ 333 81915 84618 87365
AAXX 19184 96441 11468 71602 10244 20240 30038 40065 60161 71362 83931 333 81915 84365 86080
AAXX 19184 96449 12465 70804 10251 20247 30044 40063 60001 8357/ 333 83614 87365
AAXX 19184 96465 11465 70506 10262 20249 30036 40069 60011 70396 84838 333 83812 84364 87279
AAXX 19184 96471 11462 81105 10251 20235 30071 40074 60061 76196 85847 333 82812 84630 88276
AAXX 19184 96481 12462 63602 10253 20237 30048 40067 60001 82841 333 81817 85080
AAXX 19184 96491 11358 70902 10259 20249 30056 40068 60021 76062 83748 333 82708 83635 87276
AAXX 19181 02974 11258 81906 10019 20010 39873 49939 52004 60032 78188 887// 333 10033 20011 32///
AAXX 19184 78700 32578 50406 10314 20213 30130 40135 57020 81130 333 10314 20230 30/// 56020 59002 81830 84359
AAXX 19184 78703 NIL
AAXX 19184 333 78704 31570 63203 10270 20236 30165 40170 56008 70544 82270 333 10280 20204 30/// 56700 59021 82824 86458
AAXX 19184 78705 11570 73204 10251 20210 30147 40165 58017 60021 76564 82170 333 10251 20204 31/// 56000 59025 82820 87458
AAXX 19184 78706 31568 60104 10264 20239 30162 40167 57002 70544 84270 333 10264 20200 31/// 56200 59018 84824 85458
AAXX 19184 78707 NIL
AAXX 19184 333 78708 31560 70604 10251 20226 30140 40170 58017 71544 85470 333 10251 20203 31/// 56880 59023 85822 85458
AAXX 19184 78711 31570 70607 10290 20233 30128 40143 58020 70544 83206 333 10290 20234 30/// 56200 83828 87075
AAXX 19184 78714 32570 70000 10272 20182 84230 333 10273 20193 30/// 56220 84828 86358
AAXX 19184 78717 11360 70404 10182 20169 38973 40172 57015 60012 72054 87500 333 10182 20142 32/// 56800 59025 82709 87620
AAXX 19184 78718 31360 33608 10246 70544 83430 333 10248 20178 30/// 56800 83835
AAXX 19184 78719 332570 60406 10173 20130 38365 40139 58011 86130 333 19173 20114 30/// 56100 59014 86822
AAXX 19184 78720 31560 73609 10233 20163 39050 40132 58018 70544 86430 333 10233 20159 30/// 56800 59013 86826
AAXX 19184 78724 32578 50318 10310 20177 30067 40124 56010 82130 333 10310 20177 30/// 56110 59012 82834 85357
AAXX 19184 78982 01488 70915 10297 20229 30119 40124 57021 60001 71522 83262 333 58004 60007 83818 8338 86081
AAXX 19181 06206 47480 72209 10065 20030 30023 40076 57019 70286 8//// 333 10067 82/11 84/14 85/20 91011 91111 91210
AAXX 19181 06207 47462 72408 10053 20019 30026 40081 58018 78087 8//// 333 10056 84/13 85/15 86/35 91010 91116 91212
AAXX 19181 06239 47381 8//07 10061 20027 3//// 4//// 5//// 78100 8//// 333 10065 81/09 83/11 85/13 91009 91111 91209
AAXX 19181 06252 46/// /2311 10065 20040 30030 40076 57028 222// 00094 10603 333 10068 91013 91113 91211
AAXX 19181 06260 17462 81907 10023 20005 30125 40127 58018 69932 75160 8//// 333 10051 84/10 86/13 86/19 91010 91111 91207
AAXX 19181 06270 17362 82007 10024 20012 30103 40103 56020 69952 76185 8//// 333 10048 83/08 87/09 88/10 91011 91112 91208
AAXX 19181 06290 15460 81906 10021 20002 30099 40140 57015 60002 8//// 333 10040 81/10 84/12 87/57 91010 91110 91206
AAXX 19184 91573 06/// /0614 10253 20205 39991 40088 53002 60001 333 59007 60007
AAXX 19184 91577 06/// /3402 10231 20178 30069 40090 53002 60001 333 59006 60007
AAXX 19184 91579 06/// /1014 10245 20196 30096 40104 53006 60001 333 58006 60007
AAXX 19184 91582 04570 81010 10241 20187 30072 40106 53004 60002 700// 333 10257 20238 60007 90710 91121 555 60005
AAXX 19184 91583 06/// /1504 10238 20195 30089 40104 53005 60001 333 59001 60007
AAXX 19184 91587 06/// ///// 10203 20159 30067 40112 53004 60001 333 58012 60007
AAXX 19184 91590 04986 /0000 10185 20148 30066 40109 55004 60002 700// 333 10254 20184 60007 90710 91103 555 60005
AAXX 19184 91592 06/// /0608 10219 20179 30030 40116 55001 60001 333 58002 60007
AAXX 19184 91596 06/// /1008 10208 20154 30008 40118 53001 60001 333 58005 60007
AAXX 19181 06201 47466 82209 10065 20037 30002 40055 56026 78085 8//// 333 10066 84/13 85/15 86/18 91010 91113 91210
AAXX 19181 06203 47262 8//11 10065 20044 30032 40083 58034 76185 8//// 333 10072 82/06 84/08 86/11 91014 91114 91212
AAXX 19181 06204 47481 82211 10067 20039 30030 40081 58024 75186 8//// 333 10068 84/12 86/15 86/22 91013 91114 91212
AAXX 19181 06205 47369 82107 10059 20034 39986 40045 58022 75260 8//// 333 10062 83/08 85/10 86/13 91009 91111 91209
AAXX 19181 06208 47362 82112 10031 20010 30047 40097 56021 70285 8//// 333 10063 82/08 85/09 87/17 91015 91116 91213
AAXX 19181 06211 47468 82111 10058 20030 30012 40068 56023 78085 8//// 333 10063 82/10 85/13 87/16 91014 91114 91211
AAXX 19181 06212 47472 82209 1//// 2//// 30027 40090 58020 75286 8//// 333 1//// 81/12 83/29 86/33 91011 91115 91212
AAXX 19181 06235 17256 81908 10035 20026 30099 40099 58020 60052 76285 8//// 333 10061 86/06 88/08 91011 91114 91210
AAXX 19181 06240 17259 81909 10020 20015 30121 40116 58020 69972 75186 8//// 333 10050 87/06 88/07 91012 91112 91209
AAXX 19181 06251 17260 82012 10029 20022 30087 40088 57028 60022 75885 8//// 333 10056 84/06 87/08 87/09 91015 91115 91212
AAXX 19181 06258 46/// /2014 333 91016 91117 91214
AAXX 19181 06269 17360 82008 10019 20011 30128 40122 58017 69932 75885 8//// 333 10041 83/08 88/10 91011 91112 91208
AAXX 19181 06280 17564 82007 10024 20003 30111 40115 58016 60002 75180 8//// 333 10044 82/20 83/43 88/50 91010 91112 91207
AAXX 19181 06310 17256 81811 10026 20020 30115 40125 58020 69982 75885 8//// 333 10038 83/04 86/06 87/07 91014 91114 91212
AAXX 19181 06344 17361 81908 10024 20016 30127 40120 58022 60022 75286 8//// 333 10051 88/07 91013 91113 91209
AAXX 19181 06370 17477 71906 10023 21003 30120 40146 58015 60002 75785 8//// 333 10046 82/15 83/22 85/41 91011 91111 91207
AAXX 19181 06380 15575 62108 10020 21011 30025 40168 56012 60002 8//// 333 10027 81/24 85/40 86/50 91011 91111 91208
AAXX 19184 91574 46/// ///// 29087 39924 49930 55001
AAXX 19184 91570 NIL
AAXX 19184 91598 NIL
AAXX 19181 06407 11257 81706 10029 20016 30119 40125 58024 60022 76162 885// 333 10033 83705 85707 86625 91110 91208
AAXX 19181 06447 NIL
AAXX 19184 16546 11462 80503 10058 20051 30158 40187 53010 60022 76062 8537/ 333 10108 83816 82920 85356
AAXX 19184 48300 31958 00000 10168 20149 39834 40155 51004 71000 333 59007
AAXX 19184 48327 32960 00000 10178 20147 39797 40162 50001 333 59013
AAXX 19184 48331 32960 00000 10160 20146 39920 40159 52003 333 59018
AAXX 19184 48353 31956 00000 10160 20142 39853 40153 57002 71000 333 59023
AAXX 19184 48356 31957 00000 10160 20141 39954 40158 58009 71000 333 59024
AAXX 19184 48375 32960 00000 10170 20144 39904 40137 51003 333 59008
AAXX 19184 48378 31556 20000 10198 20167 30083 40137 56003 71000 81105 333 59017
AAXX 19184 48381 32960 10000 10187 20142 39924 40146 57007 80005 333 59023
AAXX 19184 48407 31959 50208 10186 20141 39981 40126 57005 71022 80006 333 59017
AAXX 19184 48431 32960 20602 10200 20149 39923 40141 57006 80005 333 59020
AAXX 19184 48456 NIL
AAXX 19184 48480 31957 10405 10230 20164 30107 40112 57008 71000 80001 333 59008
AAXX 19184 48500 31956 30000 10249 20166 30103 40110 57015 70511 80005 333 59010
AAXX 19184 48551 31550 63302 10235 20217 30099 40107 57010 71022 82876 333 59013
AAXX 19184 48565 32560 50000 10250 20225 30085 40095 57007 81146 333 59011
AAXX 19184 48569 01559 60303 10250 20217 30059 40099 57011 69903 76022 84246 333 59014 69905 79999
AAXX 19184 48583 NIL
AAXX 19184 48310 31958 00000 10140 20131 39695 40169 52003 71000 333 59006
AAXX 19184 48325 31956 00000 10145 20136 39909 40162 52009 71000 333 59003
AAXX 19184 48329 31950 00000 10156 20145 39815 40165 52002 71000 333 59003
AAXX 19184 48352 31956 00000 10178 20141 39950 40156 57005 71000 333 59021
AAXX 19184 48357 31957 20000 10162 20141 39979 40154 57012 71000 80001 333 59027
AAXX 19184 48380 31657 20000 10200 20176 30044 40140 57005 71000 82100 333 59016
AAXX 19184 48383 31950 00602 10172 20142 39979 40144 57014 71000 333 59027
AAXX 19184 48403 31956 00403 10196 20152 39932 40147 57001 71000 333 59014
AAXX 19184 48405 32960 20506 10180 20142 39969 40137 57012 80005 333 59027
AAXX 19184 48420 NIL
AAXX 19184 48421 31950 20000 10190 20174 30020 40137 56003 71000 80005 333 59013
AAXX 19184 48425 31956 20000 10216 20181 30121 40131 57007 71000 80005 333 59016
AAXX 19184 48426 31957 20505 10237 20161 30113 40127 58008 70500 80001 333 59017
AAXX 19184 48429 31559 42205 10229 20160 30115 40122 57007 71011 81105 333 59018
AAXX 19184 48430 31958 20807 10235 20151 30111 40118 57009 70500 80002 333 59016
AAXX 19184 48450 31956 00000 10215 20166 30095 40129 57005 71000 333 59013
AAXX 19184 48459 32960 00303 10238 20175 30112 40115 57011 333 59018
AAXX 19184 48465 31958 23503 10222 20173 30114 40119 57012 71011 80005 333 59013
AAXX 19184 48550 31558 60205 10258 20219 30094 40101 57012 71022 82146 333 59011
AAXX 19184 48552 NIL
AAXX 19184 48566 NIL
AAXX 19184 48568 NIL
AAXX 19181 06431 NIL
AAXX 19181 06432 NIL
AAXX 19181 06449 11335 81806 10008 21008 39931 40166 58018 69912 77172 878// 333 10026 41998 82708 86613 91110 91207
AAXX 19181 06450 11356 81905 10017 20000 30131 40147 58019 69962 76862 887// 333 10037 85708 87710 91110 91207
AAXX 19181 06458 NIL
AAXX 19181 06465 NIL
AAXX 19181 06478 12565 82007 10011 21023 39947 40173 57011 60002 865// 333 10020 83620 85650 91110 91208
AAXX 19181 06496 NIL
AAXX 19181 06400 11361 71706 10034 20030 30112 40123 58027 60032 76162 875// 333 10036 82706 87626 91109 91207
AAXX 19181 06428 NIL
AAXX 19181 06451 11456 71906 10012 21007 30083 40152 58019 69912 77176 867// 333 10036 82710 85712 91110 91207
AAXX 19181 06456 11559 81905 10004 21011 39798 40175 58014 69902 77172 875// 333 10017 41001 83622 87645 91109 91206
AAXX 19181 06476 17261 8//// 11026 21040 39506 40193 57008 69952 70031 333 11011 83/04 87/06 88/07 911// 912//
AAXX 19181 06479 11662 72106 10018 21006 30083 40165 56012 69902 77022 875// 333 10040 82639 87650 91111 91207
AAXX 19181 06490 17766 81805 11014 21032 39594 40183 56009 69942 70043 333 11002 88/50 91110 91206
AAXX 19181 06590 NIL
AAXX 19184 48302 NIL
AAXX 19184 48304 31957 00000 10130 20121 39690 40169 52010 71000 333 59011
AAXX 19184 48334 31956 00000 10155 20146 39783 40157 52002 71000 333 59015
AAXX 19184 48360 31959 01303 10180 20145 39878 40145 57005 71000 333 59022
AAXX 19184 48372 NIL
AAXX 19184 48373 NIL
AAXX 19184 48386 31920 00000 10217 20205 30084 40129 57010 71000 333 59021
AAXX 19184 48387 NIL
AAXX 19184 48408 32960 20404 10184 20150 39972 40125 57008 80001 333 59021
AAXX 19184 48415 31957 20510 10230 20155 30118 40129 57009 70500 80005 333 59011
AAXX 19184 48433 31956 00106 10180 20161 39975 40146 57002 71000 333 59012
AAXX 19184 48437 32960 00000 10180 20145 39928 40144 57009 333 59024
AAXX 19184 48440 31957 00000 10200 20176 30072 40123 57006 71000 333 59014
AAXX 19184 48451 NIL
AAXX 19184 48454 NIL
AAXX 19184 48457 NIL
AAXX 19184 48463 NIL
AAXX 19184 48464 NIL
AAXX 19184 48479 31957 00000 10231 20173 30059 40112 57016 71000 333 59020
AAXX 19184 48520 31958 40000 10213 20200 30114 40129 51005 71011 80005 333 58006
AAXX 19184 48554 31458 73606 10255 20240 30100 40104 57008 71022 83846 333 59008 70063
AAXX 19184 48563 32560 50408 10245 20216 30063 40099 57004 82245 333 59003
AAXX 19184 48571 01560 60000 10245 20227 30086 40098 57009 69983 72162 82846 333 59009 69986 70008
AAXX 19181 03951 17560 /3010 10097 20070 30129 40155 50018 60022 7031/ 81/// 333 10112 81/24
AAXX 19181 03953 11470 73305 10094 20064 30134 40171 51019 60042 72052 875// 333 10112 82718 86626 92427
AAXX 19181 03955 11480 72906 10086 20065 39953 40150 53023 69962 70352 876// 333 10106 87714
AAXX 19181 03956 15584 /1901 10088 20063 30050 40127 53017 60072 86/// 333 10107 86/20 87/66
AAXX 19181 03962 11470 72906 10091 20066 30123 40147 51019 60022 70252 8653/ 333 10105 81712 86632 87366
AAXX 19181 03963 17661 /3010 10091 20056 30110 40138 50017 60032 7011/ 86/// 333 10103 86/30 87/63
AAXX 19181 03966 17472 /2805 10080 20064 30044 40137 53020 60032 7035/ 87/// 333 10098 81/13 85/19 87/34
AAXX 19181 03967 11480 72507 10079 20068 39998 40112 52012 69942 70265 875// 333 10090 83710 87630
AAXX 19181 03969 11480 72706 10074 20060 30003 40107 51012 60042 70265 82532 333 10092 81717 83363 87065
AAXX 19181 03973 11480 72805 10067 20049 39876 40131 52018 60062 72052 875// 333 10087 81711 87621
AAXX 19181 03976 11470 62706 10090 20075 30123 40135 51019 60042 72582 863// 333 10105 82716 82920 83636
AAXX 19181 03980 17667 /2810 10089 20047 30053 40078 52012 60042 7038/ 86/// 333 10095 81/30 86/49
AAXX 19184 48307 31950 00000 10140 20133 39774 40169 57000 71000 333 59017
AAXX 19184 48324 31956 00902 10152 20143 39926 40154 52009 71000 333 59012
AAXX 19184 48333 31956 00000 10150 20134 39848 40161 52001 71000 333 59015
AAXX 19184 48350 31956 00000 10150 20141 39844 40155 57004 71000 333 59020
AAXX 19184 48355 31956 00000 10145 20136 39932 40161 57009 71000 333 59018
AAXX 19184 48358 NIL
AAXX 19184 48384 NIL
AAXX 19184 48401 31950 20000 10205 20163 30035 40145 57001 71000 80005 333 59012
AAXX 19184 48404 32960 00406 10180 20138 39955 40138 58011 333 59024
AAXX 19184 48409 NIL
AAXX 19184 48419 31958 50407 10250 20178 30117 40125 56005 71011 80005 333 59012
AAXX 19184 48427 31957 30102 10222 20170 30115 40123 57009 71000 80002 333 59019
AAXX 19184 48435 31956 21216 10191 20144 39690 40137 57006 71000 80001 333 59014
AAXX 19184 48453 31958 30000 10228 20193 30114 40117 57009 71011 80005 333 59015
AAXX 19184 48458 32960 00000 10205 20172 30054 40136 57011 333 59015
AAXX 19184 48474 31956 20000 10206 20172 39996 40122 57011 71000 80005 333 59011
AAXX 19184 48481 31958 03104 10240 20165 30085 40114 57011 70500 333 59002
AAXX 19184 48555 31556 70000 10235 20220 30097 40139 51003 71022 82176 333 58006
AAXX 19184 48556 32560 60104 10242 20229 30088 40104 57008 81106 333 58010
AAXX 19184 48557 NIL
AAXX 19184 48560 01457 80000 10240 20231 30099 40104 56010 60073 72162 82876 333 59001 60035 70074
AAXX 19184 48574 NIL
AAXX 19184 48581 NIL
OOXX AAUNI 19184 99798 50833 56093 07671 46/// /2225 11105 21176 39016 49915 5//// 91800
AAXX 19181 01037 16/// /1402 11012 21025 39969 49974 57010 60002 333 11008 91103
AAXX 19181 01065 11650 80901 11008 21013 39797 49958 57014 60022 78581 888// 333 11008 91102
AAXX 19181 01092 46/// /0604 10023 20002 333 10036 91111
AAXX 19181 01114 16/// /1101 11020 21040 39941 49952 54001 60002 333 11009 91103
AAXX 19181 01245 11670 42803 11016 21051 39278 49986 52005 60002 70181 84100 333 11012 91106
AAXX 19181 01329 11465 82503 10025 21008 39964 40025 52003 60002 70222 888// 333 10032 91112
AAXX 19181 01337 16/// /2401 10011 21011 39956 40023 52004 60002 333 10017 91103
AAXX 19181 01389 11887 80701 11065 21069 39678 49997 52015 60002 70222 84028 333 10012 91102
AAXX 19181 01436 11485 33104 10035 20009 69952 70281 82963 333 10054 91117
AAXX 19181 01471 16/// /2701 11014 21056 60002 333 10035 91112
AAXX 19181 01059 16/// /3307 10016 20006 39957 49967 58012 6//// 333 10017 91108
AAXX 19181 01228 46/// /3009 10042 20009 39964 49971 57001 333 10057 91114
AAXX 19181 01340 16/// /2803 11026 21037 39144 40021 52009 69932 333 11016 91110
AAXX 19181 01425 16/// /3502 11015 21020 39954 40035 50001 60002 333 10046 91107
AAXX 19181 01210 41687 51603 10029 20001 39972 49998 53002 70122 83268 333 10052 91108
AAXX 19181 01392 11878 71901 10003 21034 39756 49983 53013 60002 70222 83042 333 10023 91108
AAXX 19181 01156 16/// /0502 10023 21018 39942 49952 57002 60002 333 10028 91107
AAXX 19181 01265 16/// /2401 11011 21050 39398 49980 52008 60002 333 11001 91108
AAXX 19181 01273 16/// /1601 11032 21043 39775 49974 54000 60072 333 11032 91103
AAXX 19181 01375 16/// /3208 11065 21091 6//// 333 11033 91115
AAXX 19181 01469 16/// /3403 11053 21068 39826 40002 53015 60002 333 11021 91104
AAXX 19181 01135 16/// /1002 11048 21060 39804 49959 54001 60002 333 11025 91104
AAXX 19181 01192 16/// /1503 10014 21060 60002 333 10015 4/006 91109
AAXX 19181 01257 11482 82103 10009 21003 39811 49972 52003 60022 76062 8767/ 333 10014 91106
AAXX 19181 01370 16/// /3304 11054 21100 38893 40082 52009 60002 333 11015 4/027 91109
AAXX 19181 01419 16/// /1901 11008 21012 60012 333 10016 91105
AAXX 19181 01455 16/// /3201 11003 21055 39700 40013 52007 60002 333 10037 91108
AAXX 19181 01481 16/// /1701 11025 21041 39965 49998 52014 60002 333 10048 91105
AAXX 19181 33135 32997 81702 10001 21014 30069 40253 52004 80005 333 10051
AAXX 19181 33317 32997 21202 11009 21037 39874 40222 58004 80001 333 10038
AAXX 19181 33345 32998 61503 10016 21000 30043 40253 54000 86040 333 10053
AAXX 19181 33393 32960 21003 11001 21052 39794 40196 57008 82030 333 10051
AAXX 19181 33506 12597 80201 10008 20000 30078 40280 58007 69902 885// 333 10041
AAXX 19181 33587 31317 80000 10010 20005 39970 40240 57015 71042 886// 333 10010 88709
AAXX 19181 33631 32997 73001 10005 21042 30020 40167 57003 80001 333 10034
AAXX 19181 33663 32597 61102 10014 21003 30117 40215 57009 86500 333 10014 86626
AAXX 19181 33658 32997 51005 11015 21032 39890 40199 57010 85030 333 11002
AAXX 19181 33711 32997 81005 10017 21005 30033 40249 57010 8807/ 333 10039
AAXX 19181 33791 32997 81007 10023 20004 30088 40243 57012 8805/ 333 10030
AAXX 19181 33837 11458 80908 10060 20051 30143 40195 58019 69912 78082 883// 333 10062
AAXX 19181 33924 NIL
AAXX 19181 33946 11997 80703 10050 20030 39975 40198 57025 69902 70361 80001 333 10090
AAXX 19181 34300 32997 70802 10012 21005 30095 40292 58007 87030 333 10044
AAXX 19181 34504 32497 80706 10019 20006 30074 40257 57013 886// 333 10035 88713
AAXX 19181 34519 11250 81006 10051 20039 39983 40261 58014 60012 78082 889// 333 10058 86706
AAXX 19181 34601 31350 71005 10032 20026 30110 40249 57014 71022 87500 333 10034 87608
AAXX 19184 89532 42/65 70534 10002 21037 39782 49809 58009 81572 333 00537
AAXX 19181 11010 32663 33002 11009 21023 39827 40219 51010 333 10026 81645 83075
AAXX 19181 11012 12958 02504 11007 21031 39735 40220 53009 69902 333 10012 21009 55300 92601
AAXX 19181 11022 12563 43004 11001 21053 39801 40199 53009 60002 84101 333 10035 21001 55300 84827
AAXX 19181 11035 32775 72804 10009 21021 39936 40196 52005 8157/ 333 10035 21002 81650 86461
AAXX 19181 11036 32675 73103 10009 21031 39967 40196 53004 333 10024 81640 87460
AAXX 19181 11101 11565 71202 11017 21021 39695 40243 52011 69902 70272 875// 333 10005 21036 87625
AAXX 19181 11120 12680 69901 11018 21042 39497 40228 52012 69902 333 10006 81640 85658
AAXX 19181 11126 17/// /3602 11142 21147 37671 48466 53006 69912 7//8/ 333 11124 21143 55300
AAXX 19181 11130 16/// /2301 11043 21049 39619 40235 52012 69912 333 10001 21043 55300
AAXX 19181 11146 11/00 90409 11198 21200 36829 47930 52004 60022 77074 333 11181 21200 89/00 92612 91114
AAXX 19181 11150 11608 41402 11040 21040 39667 40232 52010 69932 74011 333 10007 81634 84650
AAXX 19181 11155 11/20 63205 11100 21113 38329 48464 53008 60012 77087 86400 333 11080 21101 55300 838// 84605
AAXX 19181 11157 11365 79901 11048 21055 39422 40225 50011 69902 78582 878// 333 11030 81607 83633 85656
AAXX 19181 11172 NIL
AAXX 19181 11190 12660 83105 10022 21043 39948 40187 50000 60002 885// 333 10029 21012 55300 88638
AAXX 19181 11204 16/// /3102 11053 21097 39389 40216 53015 60002 333 11018 21076 55300
AAXX 19181 11212 31/67 53407 11133 21162 37758 48457 52007 73643 82502 333 11116 817// 83068 91113 444 16080
AAXX 19181 11231 NIL
AAXX 19181 11240 12882 79901 11005 21038 39737 40188 51006 69902 333 10025 83657 85361
AAXX 19181 11244 16/// /0102 10014 21042 39849 40185 50004 69902 333 10030 21006 55300
AAXX 19181 11389 12550 82305 10002 21020 39873 40209 51011 60002 885// 333 10026 21007 55300
AAXX 19184 78954 12486 60515 10282 20196 30065 40129 60001 70222 85802 333 10295 20227 58011 84816 83638
AAXX 19181 37682 32997 03601 11090 21097 38219 48622 53006 333 10012
AAXX 19181 37717 329// 20000 11026 21036 38176 48609 52003 82030 333 10025
AAXX 19181 37788 41495 62501 11020 21046 39355 40405 52003 71022 866// 333 11015 86716
AAXX 19184 78954 12486 60515 10282 20196 30065 40129 60001 70222 85802 333 10295 20227 58011 84816 83638
AAXX 19184 64501 32358 82208 10270 20238 3//// 4//// 885// 333 10292 5//// 83608 88630
AAXX 19184 64550 32458 8//// 10257 20229 30/// 40/// 885// 333 10280 5//// 84610 88616
AAXX 19184 64551 32460 70000 10260 20246 30067 40096 8353/ 333 10288 59012 83610 87360
AAXX 19184 64570 32570 53302 10262 20238 39595 40099 83902 333 10304 58001 83620 81933 85076 94945 95835
AAXX 19184 63980 32482 22705 10282 20236 40116 60002 82200 333 10322 58004 82818 943// 91118
AAXX 19181 76055 32980 00902 10169 20015 30152 40171 52008 91740 333 10184 20051 30/// 58///
AAXX 19181 76113 32880 41901 10108 20071 39708 40178 52012 83030 91745 333 10114 20046 30/// 59004 84358
AAXX 19181 76122 32570 12508 10066 21025 38511 40163 52017 81100 91750 333 10110 20016 30/// 56500 59027 81835
AAXX 19181 76123 06/// /2416 10070 21039 3//// 4//// 5//// 60002 7//// 8//// 91750 333 0//// 10070 20010 56/// 57/// 5//// 60007 8//// 8//// 8//// 8//// 9//// 9//// 9//// 444 ///// 555
AAXX 19181 76220 32958 02703 10058 21022 38124 40194 52008 91735 333 10058 21020 30/// 59028
AAXX 19181 76225 32960 02905 10113 20052 38596 40118 50001 91745 333 10113 20053 30/// 59049
AAXX 19181 76226 02/// ///// 1//// 2//// 3//// 4//// 5//// 6//// 7//// 8//// 9//// 333 0//// 1//// 2//// 30/// 4//// 54/// 56/// 57/// 5//// 6//// 8//// 8//// 8//// 9//// 9//// 9//// 44
AAXX 19181 76256 32980 00502 10154 20124 30215 40229 52018 91745 333 10215 20079 30/// 58012
AAXX 19181 76305 32970 00601 10189 20096 30190 40198 52007 91740 333 10192 20100 30/// 59009
AAXX 19181 76323 32970 00602 10152 21007 38234 40145 50006 91755 333 10162 20069 30/// 59052
AAXX 19181 76342 32962 03602 10180 20112 39436 40150 52012 91750 333 10184 20102 30/// 59141
AAXX 19181 76373 32980 02902 10195 21135 38190 40132 52023 91750 333 10210 20080 30/// 59039
AAXX 19181 76390 31978 32113 10193 20023 38192 40078 57006 70744 91730 333 10206 20120 30/// 59084 91120
AAXX 19181 76393 31405 03001 10170 20131 39517 40097 57008 70544 91752 333 10178 20110 30/// 59149
AAXX 19181 76402 31560 13209 10186 20105 30146 40205 52003 70544 81100 91750 333 10190 20052 30/// 56900 59013 81833
AAXX 19181 76458 32970 02705 10198 20144 30154 40159 57002 91738 333 10224 20125 30/// 59026
AAXX 19181 76471 32580 22708 10190 20013 37670 40095 52004 82500 91750 333 10195 20060 30/// 56500 59066 82635
AAXX 19181 76490 06/// /1505 10257 20131 39722 40100 58021 60002 7//// 8//// 91750 333 0//// 10258 20142 30/// 54/// 56/// 57/// 59131 60007 8//// 8//// 8//// 8//// 9//// 9//// 9//// 44
AAXX 19181 76491 32960 11404 10256 20156 39751 40131 57008 80004 91750 333 10259 20147 30/// 56009 59137 81074
AAXX 19181 76499 32860 40904 10282 20189 30088 40110 57028 84070 91755 333 10283 20145 30/// 56090 59134 84357
AAXX 19181 76525 32980 12014 10116 20005 37456 40125 57002 80001 91740 333 10116 20071 30/// 56//5 59058 81080
AAXX 19181 76538 06/// /2308 10225 20030 38146 40062 58015 60002 7//// 8//// 91750 333 0//// 10225 20048 30/// 4//// 54/// 56/// 57/// 59069 60007 8//// 8//// 8//// 9//// 9//// 9//// 44
AAXX 19181 76543 31570 11403 10265 20173 30134 40167 57023 70544 81100 91745 333 10267 20144 31/// 56300 59106 81834
AAXX 19181 76547 06/// /2202 10252 20182 30136 40148 58017 60002 7//// 8//// 91750 333 0//// 10257 20172 56/// 57/// 59102 60007 8//// 8//// 8//// 8//// 9//// 9//// 9//// 444 ///// 555
AAXX 19181 76548 32575 42502 10244 20168 30152 40162 58012 81130 91740 333 10246 20172 30/// 56330 59012 81826 83357
AAXX 19181 76556 32970 02902 10234 20176 39121 40154 51005 91735 333 10242 20118 30/// 59030
AAXX 19181 76571 32975 01603 10218 20012 38160 40169 56009 91750 333 10222 20062 30/// 59055
AAXX 19181 76577 32570 32306 10187 20153 38046 40155 58002 83500 91740 333 10195 20096 30/// 56500 59041 83626
AAXX 19181 76578 06/// /2208 10186 20073 38043 40108 58004 60002 7//// 8//// 91750 333 0//// 10190 20092 30/// 4//// 54/// 56/// 57/// 59038 60007 8//// 8//// 8//// 9//// 9//// 9//// 44
AAXX 19181 76581 32975 03101 10208 20142 39031 40137 57016 91750 333 10215 20123 30/// 59099
AAXX 19181 76585 32680 10901 10225 20194 39990 40149 58017 81100 91745 333 10232 20137 30/// 562// 59102 81830
AAXX 19181 76586 06/// /3301 10259 20178 39990 40142 58020 60002 7//// 8//// 91750 333 0//// 10260 20130 30/// 4//// 54/// 56/// 57/// 59104 60007 8//// 8//// 8//// 9//// 9//// 9//// 44
AAXX 19181 76592 06/// /0509 10279 21085 30169 40169 58021 60002 7//// 8//// 91750 333 0//// 10279 20189 30/// 4//// 54/// 56/// 57/// 59050 60007 8//// 8//// 8//// 9//// 9//// 9//// 44
AAXX 19181 76593 32470 20506 10274 20239 30169 40171 57021 82200 91750 333 10281 20189 30/// 561// 59050 82820 91007 91505
AAXX 19181 76612 32962 00000 10213 20110 38473 40160 58002 91750 333 10264 20083 30/// 59046
AAXX 19181 76625 32460 23002 10223 20077 38138 40127 57019 82200 91755 333 10225 20095 30/// 56500 59049 82819
AAXX 19181 76632 32968 01604 10162 20094 37624 40032 57058 91745 333 10165 20068 30/// 58///
AAXX 19181 76634 31670 13601 10210 20035 37849 40166 57006 70500 81100 91745 333 10214 20058 30/// 563// 58/// 81834
AAXX 19181 76641 06/// /3301 10248 20199 30138 40150 58021 60002 7//// 8//// 91750 333 0//// 10263 20167 30/// 4//// 54/// 56/// 57/// 59112 60007 8//// 8//// 8//// 8//// 9//// 9//// 9/
AAXX 19181 76644 32460 31103 10294 20176 30156 40168 57020 82280 91750 333 10299 20196 30/// 5633/ 59046 82820 91005 91511
AAXX 19181 76645 06/// /1004 10296 20184 30160 40173 58020 60002 7//// 8//// 91750 333 0//// 10298 20200 30/// 4//// 54/// 56/// 57/// 59045 60007 8//// 8//// 8//// 9//// 9//// 9//// 44
AAXX 19181 76648 06/// /1004 10296 20189 30141 40171 58015 60002 7//// 8//// 91750 333 0//// 10301 20172 30/// 4//// 54/// 56/// 57/// 59034 60007 8//// 8//// 8//// 8//// 9//// 9//// 9/
AAXX 19181 76654 31430 11801 10300 20220 30149 40153 52005 70544 81500 91750 333 10300 20217 30/// 56900 59016 81620
AAXX 19181 76659 02/// ///// 1//// 2//// 3//// 4//// 5//// 6//// 7//// 8//// 9//// 333 0//// 1//// 2//// 30/// 4//// 54/// 56/// 57/// 5//// 6//// 8//// 8//// 8//// 9//// 9//// 9//// 44
AAXX 19181 76662 32670 42401 10232 20101 38467 40151 57006 84200 91745 333 10250 20115 30/// 56700 59041 84833
AAXX 19181 76665 31564 32302 10228 20088 38124 40147 57004 70300 83200 91750 333 10252 20075 30/// 56100 57812 59034 83825
AAXX 19181 76675 31580 10502 10178 20005 37379 40198 56006 70540 81200 91752 333 10186 21011 30/// 569// 59031 83826
AAXX 19181 76680 31962 00901 10190 20006 37751 40116 57008 70500 80000 91755 333 10195 20083 30/// 58034
AAXX 19181 76681 31980 03602 10192 20062 37783 40180 57015 70500 91745 333 10192 20024 50390 55070 59040
AAXX 19181 76683 32970 00901 10187 20047 37826 40199 56015 91744 333 10195 20018 30/// 59034
AAXX 19181 76684 06/// /2703 10204 20001 37827 40098 58016 60002 7//// 8//// 91750 333 0//// 10204 20013 30/// 4//// 54/// 56/// 57/// 59037 60007 8//// 8//// 8//// 9//// 9//// 9//// 44
AAXX 19181 76685 31960 02101 10186 20010 37867 40165 57008 70544 91750 333 10188 20038 30/// 59034
AAXX 19181 76687 31570 10901 10196 20083 38684 40186 58009 70100 81100 91737 333 10203 20084 30/// 563// 59072 81824
AAXX 19181 76692 31556 31403 10266 20195 30144 40164 57014 70541 81200 91745 333 10269 20179 30/// 564// 59080 81826 82628
AAXX 19181 76693 06/// /1203 10256 20199 30141 40160 58019 60002 7//// 8//// 91750 333 0//// 10269 20179 30/// 4//// 56/// 57/// 59082 60007 8//// 8//// 8//// 8//// 9//// 9//// 9//// 44
AAXX 19181 76695 32960 11003 10288 20215 30151 40156 57021 81100 91750 333 10290 20163 30/// 562// 59048 81824
AAXX 19181 76698 02560 50601 10273 20220 30165 40177 57017 69921 85200 91750 333 10285 20178 32/// 56100 59027 69927 85820
AAXX 19181 76726 32970 02001 10210 20080 38404 40140 57006 91750 333 10210 20124 30/// 58000
AAXX 19181 76727 06/// /1401 10218 20033 38402 40096 58008 60002 7//// 8//// 91750 333 0//// 10238 20122 30/// 4//// 54/// 56/// 57/// 59035 60007 8//// 8//// 8//// 9//// 9//// 9//// 44
AAXX 19181 76737 32980 01602 10202 20130 38774 40173 57013 91735 333 10208 20088 30/// 59076 91105 91516
AAXX 19181 76738 06/// /1602 10207 20125 38772 40130 58017 60002 7//// 8//// 333 10211 20085 30/// 56/// 57/// 59077 60007 8//// 8//// 8//// 8//// 9//// 9//// 9//// 444 ///// 555 30186
AAXX 19181 76743 31557 50902 10272 20221 30149 40157 57019 70211 8556/ 91745 333 10286 20203 30/// 5683/ 84820 81356
AAXX 19181 76750 32560 40903 10290 20203 30160 40170 57011 82111 91750 333 10298 20190 30/// 56116 59037 82820
AAXX 19181 76751 06/// /1002 10296 20219 30161 40171 58011 60002 7//// 8//// 91750 333 0//// 10297 20189 30/// 4//// 54/// 56/// 57/// 59036 60007 8//// 8//// 8//// 9//// 9//// 9//// 44
AAXX 19181 76762 32504 13201 10270 20212 38764 40150 56011 81100 91730 333 10272 20130 30/// 56300 59045 81830
AAXX 19181 76772 06/// /3001 10235 20075 38429 40106 58020 60002 7//// 8//// 91750 333 0//// 10237 20045 30/// 4//// 56/// 57/// 59040 60007 8//// 8//// 8//// 9//// 9//// 9//// 444 ////
AAXX 19181 76773 31568 13001 10224 20115 38422 40172 57022 70544 81100 91748 333 10227 20038 30/// 56900 59045 81820
AAXX 19181 76775 31965 00601 10222 20067 38530 40191 57015 70200 91745 333 10254 20068 30/// 59037
AAXX 19181 76776 06/// /1601 10224 20059 38505 40104 58025 60002 7//// 8//// 91750 333 0//// 10224 20059 30/// 4//// 56/// 57/// 59044 60007 8//// 8//// 8//// 9//// 9//// 9//// 444 ////
AAXX 19181 76805 32970 02302 10293 20234 30132 40137 50002 91745 333 10317 20228 30/// 59015
AAXX 19181 76806 06/// /2302 10298 20228 30130 40134 58006 60002 7//// 8//// 91750 333 10305 20223 30/// 56/// 57/// 59015 60007 8//// 8//// 8//// 8//// 9//// 9//// 9//// 555 30276
AAXX 19181 76840 32050 00000 10316 20175 30071 40127 57014 80000 91740 333 10325 20208 30/// 56000 59014
AAXX 19181 76843 32965 00202 10242 20144 39505 40152 57016 91735 333 10254 20165 30/// 59035
AAXX 19181 76845 32960 02002 10206 20127 37944 40181 56017 91745 333 10212 20030 30/// 59039
AAXX 19181 76848 32570 20501 10186 20116 38385 40123 57010 82100 91750 333 10186 20096 30/// 56100 59034 82829
AAXX 19181 76902 06/// /1702 10320 20215 39994 40129 58016 60002 7//// 8//// 91750 333 0//// 10329 20218 30/// 4//// 54/// 56/// 57/// 59012 60007 8//// 8//// 8//// 8//// 9//// 9//// 9/
AAXX 19181 76903 31680 12002 10319 20222 39997 40132 57014 70300 82200 91740 333 10329 20220 30/// 56500 59008 82833
AAXX 19181 76243 11473 63601 10162 20133 39828 40129 52014 60011 75050 86400 91735 333 10174 20108 31/// 568// 59151 88616
AAXX 19181 76253 32982 00902 10172 20096 30118 40208 50007 91750 333 10215 20110 30/// 59/// 92002
AAXX 19181 76311 32980 00000 10170 20108 39901 40187 50009 91750 333 10184 20062 30/// 59021
AAXX 19181 76405 32680 43602 10209 20133 30173 40194 50005 84500 91750 333 10209 20110 30/// 56800 59020 84640
AAXX 19181 76412 31966 03202 10204 20125 30128 40173 57020 70544 91755 333 10204 20085 30/// 59044
AAXX 19181 76640 31458 51401 10230 20196 30157 40169 57016 70322 852// 91740 333 10244 20164 31/// 563// 59112 85814
AAXX 19181 76647 32670 60904 10287 20199 30153 40184 57014 84230 91750 333 10294 20174 30/// 562/0 59036 84836
AAXX 19181 76656 32575 10000 10240 20096 38511 40163 58005 81100 91750 333 10247 20082 30/// 56300 59037 81820
AAXX 19181 76658 31556 21802 10293 20177 39631 40137 56016 70540 81130 91747 333 10300 20172 30/// 56110 59031 81824 81356 94011 98904
AAXX 19181 76741 31565 31702 10255 20206 30131 40150 57005 70542 83230 91735 333 10262 20190 30/// 563// 59068 83820
AAXX 19181 76855 32980 01801 10306 20238 30077 40126 50001 91745 333 10320 20210 30/// 58001 92001
AAXX 19181 15015 02997 01902 11031 21059 39549 42755 57008 60002 333 10011 21062 3/001 42998 60007 91003 91103 92600
AAXX 19181 15020 02597 81004 10007 21027 39997 40202 58010 60002 8557/ 333 10008 21061 31001 60007 91006 91106
AAXX 19181 15090 02497 80702 10015 21012 30110 40205 57012 60002 885// 333 10020 21054 31100 55300 0//// 20001 3//// 60007 91003 91105
AAXX 19181 15108 01/91 91812 11073 21073 38051 48476 57009 60002 74533 333 11067 21108 3//// 44007 60007 91018 92727 92863
AAXX 19181 15120 02997 50702 11004 21038 39649 40159 57011 60002 85070 333 10036 21055 34004 55300 10184 2//// 3//// 60007 91004 91104
AAXX 19181 15150 01597 82800 11001 21005 39983 40203 57004 69912 77172 8457/ 333 10001 21076 31001 69917 91001 91101
AAXX 19181 15170 01696 82101 11033 21038 39380 42772 57010 69942 77172 8557/ 333 11033 21108 3/101 47001 69947 91001 91102 92800 96010
AAXX 19181 15200 02997 83402 10013 20001 39990 40138 50000 60002 8807/ 333 10036 20009 31001 60007 91004 91104
AAXX 19181 15230 02997 72002 10013 21034 39851 40151 56005 60002 87070 333 10026 21016 31003 55300 10077 20003 3//// 60007 91004 91107
AAXX 19181 15260 02998 81405 10048 21021 39603 40142 58009 60002 8807/ 333 10055 21039 31003 60007 91009 91109
AAXX 19181 15280 01/93 81412 11087 21096 37418 47945 58004 60022 74174 885// 333 11087 21149 3//// 48030 69947 91018 92815 92925 96037
AAXX 19181 15292 02598 80602 10044 21024 39833 40130 57003 60002 8457/ 333 10072 20021 31005 60007 91003 91106
AAXX 19181 15310 01596 80303 10026 20026 30091 40179 58015 60022 76166 8452/ 333 10030 21032 31002 55300 00005 20000 30000 60027 91006 91106
AAXX 19181 15335 01494 80803 10053 20053 30166 40173 57021 60042 76162 8802/ 333 10053 21036 31004 60037 91005 91105 96010
AAXX 19181 15346 02597 83502 10034 21001 39871 40166 58012 60002 8457/ 333 10058 21009 31003 60007 91004 91104
AAXX 19181 15350 01597 81204 10032 20028 30053 40176 58021 69952 72162 885// 333 10035 21010 31002 69957 91007 91108
AAXX 19181 15360 02497 80809 10083 20078 30147 40161 56018 60002 886// 222// 06074 20502 333 10084 20067 3//// 60007 91010 91112 92437
AAXX 19181 15410 01597 80201 10022 20013 30066 40164 57002 60032 76162 8802/ 333 10059 20022 31005 60037 91002 91103
AAXX 19181 15420 01496 80404 10020 20018 30043 40158 57024 60032 76176 8672/ 333 10020 21016 31002 55300 0//// 20000 3//// 69997 91007 91108 96010
AAXX 19181 15450 01496 80705 10011 20010 39913 40155 57009 69932 76162 8672/ 333 10035 21006 31003 55300 10034 20000 3//// 69937 91009 91109 96010
AAXX 19181 15460 01496 80503 10034 20033 30124 40148 57024 60072 71062 886// 333 10039 21030 31004 60017 91005 91107
AAXX 19181 15470 01596 80505 10021 20021 30022 40152 57013 60012 71062 8457/ 333 10024 21005 31003 69937 91008 91110
AAXX 19181 15480 01496 80501 10088 20088 30133 40150 58023 60112 76166 8672/ 222// 06072 2//// 333 10088 20016 31007 60067 91004 91105 92426 96010
AAXX 19181 76055 32980 00902 10169 20015 30152 40171 52008 91740 33310184 20051 30/// 58///
AAXX 19181 76113 32880 41901 10108 20071 39708 40178 52012 83030 91745333 10114 20046 30/// 59004 84358
AAXX 19181 76122 32570 12508 10066 21025 38511 40163 52017 81100 91750333 10110 20016 30/// 56500 59027 81835
AAXX 19181 76123 06/// /2416 10070 21039 3//// 4//// 5//// 60002 7////8//// 91750 333 0//// 10070 20010 56/// 57/// 5//// 600078//// 8//// 8//// 8//// 9//// 9//// 9//// 444 ///// 555
AAXX 19181 76220 32958 02703 10058 21022 38124 40194 52008 91735 33310058 21020 30/// 59028
AAXX 19181 76225 32960 02905 10113 20052 38596 40118 50001 91745 33310113 20053 30/// 59049
AAXX 19181 76226 02/// ///// 1//// 2//// 3//// 4//// 5//// 6//// 7////8//// 9//// 333 0//// 1//// 2//// 30/// 4//// 54/// 56///57/// 5//// 6//// 8//// 8//// 8//// 9//// 9//// 9//// 44
AAXX 19181 76256 32980 00502 10154 20124 30215 40229 52018 91745 33310215 20079 30/// 58012
AAXX 19181 76305 32970 00601 10189 20096 30190 40198 52007 91740 33310192 20100 30/// 59009
AAXX 19181 76323 32970 00602 10152 21007 38234 40145 50006 91755 33310162 20069 30/// 59052
AAXX 19181 76342 32962 03602 10180 20112 39436 40150 52012 91750 33310184 20102 30/// 59141
AAXX 19181 76373 32980 02902 10195 21135 38190 40132 52023 91750 33310210 20080 30/// 59039
AAXX 19181 76390 31978 32113 10193 20023 38192 40078 57006 70744 91730333 10206 20120 30/// 59084 91120
AAXX 19181 76393 31405 03001 10170 20131 39517 40097 57008 70544 91752333 10178 20110 30/// 59149
AAXX 19181 76402 31560 13209 10186 20105 30146 40205 52003 70544 8110091750 333 10190 20052 30/// 56900 59013 81833
AAXX 19181 76458 32970 02705 10198 20144 30154 40159 57002 91738 33310224 20125 30/// 59026
AAXX 19181 76471 32580 22708 10190 20013 37670 40095 52004 82500 91750333 10195 20060 30/// 56500 59066 82635
AAXX 19181 76490 06/// /1505 10257 20131 39722 40100 58021 60002 7////8//// 91750 333 0//// 10258 20142 30/// 54/// 56/// 57///59131 60007 8//// 8//// 8//// 8//// 9//// 9//// 9//// 44
AAXX 19181 76491 32960 11404 10256 20156 39751 40131 57008 80004 91750333 10259 20147 30/// 56009 59137 81074
AAXX 19181 76499 32860 40904 10282 20189 30088 40110 57028 84070 91755333 10283 20145 30/// 56090 59134 84357
AAXX 19181 76525 32980 12014 10116 20005 37456 40125 57002 80001 91740333 10116 20071 30/// 56//5 59058 81080
AAXX 19181 76538 06/// /2308 10225 20030 38146 40062 58015 60002 7////8//// 91750 333 0//// 10225 20048 30/// 4//// 54/// 56///57/// 59069 60007 8//// 8//// 8//// 9//// 9//// 9//// 44
AAXX 19181 76543 31570 11403 10265 20173 30134 40167 57023 70544 8110091745 333 10267 20144 31/// 56300 59106 81834
AAXX 19181 76547 06/// /2202 10252 20182 30136 40148 58017 60002 7////8//// 91750 333 0//// 10257 20172 56/// 57/// 59102 600078//// 8//// 8//// 8//// 9//// 9//// 9//// 444 ///// 555
AAXX 19181 76548 32575 42502 10244 20168 30152 40162 58012 81130 91740333 10246 20172 30/// 56330 59012 81826 83357
AAXX 19181 76556 32970 02902 10234 20176 39121 40154 51005 91735 33310242 20118 30/// 59030
AAXX 19181 76571 32975 01603 10218 20012 38160 40169 56009 91750 33310222 20062 30/// 59055
AAXX 19181 76577 32570 32306 10187 20153 38046 40155 58002 83500 91740333 10195 20096 30/// 56500 59041 83626
AAXX 19181 76578 06/// /2208 10186 20073 38043 40108 58004 60002 7////8//// 91750 333 0//// 10190 20092 30/// 4//// 54/// 56///57/// 59038 60007 8//// 8//// 8//// 9//// 9//// 9//// 44
AAXX 19181 76581 32975 03101 10208 20142 39031 40137 57016 91750 33310215 20123 30/// 59099
AAXX 19181 76585 32680 10901 10225 20194 39990 40149 58017 81100 91745333 10232 20137 30/// 562// 59102 81830
AAXX 19181 76586 06/// /3301 10259 20178 39990 40142 58020 60002 7////8//// 91750 333 0//// 10260 20130 30/// 4//// 54/// 56///57/// 59104 60007 8//// 8//// 8//// 9//// 9//// 9//// 44
AAXX 19181 76592 06/// /0509 10279 21085 30169 40169 58021 60002 7////8//// 91750 333 0//// 10279 20189 30/// 4//// 54/// 56///57/// 59050 60007 8//// 8//// 8//// 9//// 9//// 9//// 44
AAXX 19181 76593 32470 20506 10274 20239 30169 40171 57021 82200 91750333 10281 20189 30/// 561// 59050 82820 91007 91505
AAXX 19181 76612 32962 00000 10213 20110 38473 40160 58002 91750 33310264 20083 30/// 59046
AAXX 19181 76625 32460 23002 10223 20077 38138 40127 57019 82200 91755333 10225 20095 30/// 56500 59049 82819
AAXX 19181 76632 32968 01604 10162 20094 37624 40032 57058 91745 33310165 20068 30/// 58///
AAXX 19181 76634 31670 13601 10210 20035 37849 40166 57006 70500 8110091745 333 10214 20058 30/// 563// 58/// 81834
AAXX 19181 76641 06/// /3301 10248 20199 30138 40150 58021 60002 7////8//// 91750 333 0//// 10263 20167 30/// 4//// 54/// 56///57/// 59112 60007 8//// 8//// 8//// 8//// 9//// 9//// 9/
AAXX 19181 76644 32460 31103 10294 20176 30156 40168 57020 82280 91750333 10299 20196 30/// 5633/ 59046 82820 91005 91511
AAXX 19181 76645 06/// /1004 10296 20184 30160 40173 58020 60002 7////8//// 91750 333 0//// 10298 20200 30/// 4//// 54/// 56///57/// 59045 60007 8//// 8//// 8//// 9//// 9//// 9//// 44
AAXX 19181 76648 06/// /1004 10296 20189 30141 40171 58015 60002 7////8//// 91750 333 0//// 10301 20172 30/// 4//// 54/// 56///57/// 59034 60007 8//// 8//// 8//// 8//// 9//// 9//// 9/
AAXX 19181 76654 31430 11801 10300 20220 30149 40153 52005 70544 8150091750 333 10300 20217 30/// 56900 59016 81620
AAXX 19181 76659 02/// ///// 1//// 2//// 3//// 4//// 5//// 6//// 7////8//// 9//// 333 0//// 1//// 2//// 30/// 4//// 54/// 56///57/// 5//// 6//// 8//// 8//// 8//// 9//// 9//// 9//// 44
AAXX 19181 76662 32670 42401 10232 20101 38467 40151 57006 84200 91745333 10250 20115 30/// 56700 59041 84833
AAXX 19181 76665 31564 32302 10228 20088 38124 40147 57004 70300 8320091750 333 10252 20075 30/// 56100 57812 59034 83825
AAXX 19181 76675 31580 10502 10178 20005 37379 40198 56006 70540 8120091752 333 10186 21011 30/// 569// 59031 83826
AAXX 19181 76680 31962 00901 10190 20006 37751 40116 57008 70500 8000091755 333 10195 20083 30/// 58034
AAXX 19181 76681 31980 03602 10192 20062 37783 40180 57015 70500 91745333 10192 20024 50390 55070 59040
AAXX 19181 76683 32970 00901 10187 20047 37826 40199 56015 91744 33310195 20018 30/// 59034
AAXX 19181 76684 06/// /2703 10204 20001 37827 40098 58016 60002 7////8//// 91750 333 0//// 10204 20013 30/// 4//// 54/// 56///57/// 59037 60007 8//// 8//// 8//// 9//// 9//// 9//// 44
AAXX 19181 76685 31960 02101 10186 20010 37867 40165 57008 70544 91750333 10188 20038 30/// 59034
AAXX 19181 76687 31570 10901 10196 20083 38684 40186 58009 70100 8110091737 333 10203 20084 30/// 563// 59072 81824
AAXX 19181 76692 31556 31403 10266 20195 30144 40164 57014 70541 8120091745 333 10269 20179 30/// 564// 59080 81826 82628
AAXX 19181 76693 06/// /1203 10256 20199 30141 40160 58019 60002 7////8//// 91750 333 0//// 10269 20179 30/// 4//// 56/// 57///59082 60007 8//// 8//// 8//// 8//// 9//// 9//// 9//// 44
AAXX 19181 76695 32960 11003 10288 20215 30151 40156 57021 81100 91750333 10290 20163 30/// 562// 59048 81824
AAXX 19181 76698 02560 50601 10273 20220 30165 40177 57017 69921 8520091750 333 10285 20178 32/// 56100 59027 69927 85820
AAXX 19181 76726 32970 02001 10210 20080 38404 40140 57006 91750 33310210 20124 30/// 58000
AAXX 19181 76727 06/// /1401 10218 20033 38402 40096 58008 60002 7////8//// 91750 333 0//// 10238 20122 30/// 4//// 54/// 56///57/// 59035 60007 8//// 8//// 8//// 9//// 9//// 9//// 44
AAXX 19181 76737 32980 01602 10202 20130 38774 40173 57013 91735 33310208 20088 30/// 59076 91105 91516
AAXX 19181 76738 06/// /1602 10207 20125 38772 40130 58017 60002 7////8//// 333 10211 20085 30/// 56/// 57/// 59077 60007 8////8//// 8//// 8//// 9//// 9//// 9//// 444 ///// 555 30186
AAXX 19181 76743 31557 50902 10272 20221 30149 40157 57019 70211 8556/91745 333 10286 20203 30/// 5683/ 84820 81356
AAXX 19181 76750 32560 40903 10290 20203 30160 40170 57011 82111 91750333 10298 20190 30/// 56116 59037 82820
AAXX 19181 76751 06/// /1002 10296 20219 30161 40171 58011 60002 7////8//// 91750 333 0//// 10297 20189 30/// 4//// 54/// 56///57/// 59036 60007 8//// 8//// 8//// 9//// 9//// 9//// 44
AAXX 19181 76762 32504 13201 10270 20212 38764 40150 56011 81100 91730333 10272 20130 30/// 56300 59045 81830
AAXX 19181 76772 06/// /3001 10235 20075 38429 40106 58020 60002 7////8//// 91750 333 0//// 10237 20045 30/// 4//// 56/// 57///59040 60007 8//// 8//// 8//// 9//// 9//// 9//// 444 ////
AAXX 19181 76773 31568 13001 10224 20115 38422 40172 57022 70544 8110091748 333 10227 20038 30/// 56900 59045 81820
AAXX 19181 76775 31965 00601 10222 20067 38530 40191 57015 70200 91745333 10254 20068 30/// 59037
AAXX 19181 76776 06/// /1601 10224 20059 38505 40104 58025 60002 7////8//// 91750 333 0//// 10224 20059 30/// 4//// 56/// 57///59044 60007 8//// 8//// 8//// 9//// 9//// 9//// 444 ////
AAXX 19181 76805 32970 02302 10293 20234 30132 40137 50002 91745 33310317 20228 30/// 59015
AAXX 19181 76806 06/// /2302 10298 20228 30130 40134 58006 60002 7////8//// 91750 333 10305 20223 30/// 56/// 57/// 59015 600078//// 8//// 8//// 8//// 9//// 9//// 9//// 555 30276
AAXX 19181 76840 32050 00000 10316 20175 30071 40127 57014 80000 91740333 10325 20208 30/// 56000 59014
AAXX 19181 76843 32965 00202 10242 20144 39505 40152 57016 91735 33310254 20165 30/// 59035
AAXX 19181 76845 32960 02002 10206 20127 37944 40181 56017 91745 33310212 20030 30/// 59039
AAXX 19181 76848 32570 20501 10186 20116 38385 40123 57010 82100 91750333 10186 20096 30/// 56100 59034 82829
AAXX 19181 76902 06/// /1702 10320 20215 39994 40129 58016 60002 7////8//// 91750 333 0//// 10329 20218 30/// 4//// 54/// 56///57/// 59012 60007 8//// 8//// 8//// 8//// 9//// 9//// 9/
AAXX 19181 76903 31680 12002 10319 20222 39997 40132 57014 70300 8220091740 333 10329 20220 30/// 56500 59008 82833
AAXX 19181 76243 11473 63601 10162 20133 39828 40129 52014 60011 7505086400 91735 333 10174 20108 31/// 568// 59151 88616
AAXX 19181 76253 32982 00902 10172 20096 30118 40208 50007 91750 33310215 20110 30/// 59/// 92002
AAXX 19181 76311 32980 00000 10170 20108 39901 40187 50009 91750 33310184 20062 30/// 59021
AAXX 19181 76405 32680 43602 10209 20133 30173 40194 50005 84500 91750333 10209 20110 30/// 56800 59020 84640
AAXX 19181 76412 31966 03202 10204 20125 30128 40173 57020 70544 91755333 10204 20085 30/// 59044
AAXX 19181 76640 31458 51401 10230 20196 30157 40169 57016 70322 852//91740 333 10244 20164 31/// 563// 59112 85814
AAXX 19181 76647 32670 60904 10287 20199 30153 40184 57014 84230 91750333 10294 20174 30/// 562/0 59036 84836
AAXX 19181 76656 32575 10000 10240 20096 38511 40163 58005 81100 91750333 10247 20082 30/// 56300 59037 81820
AAXX 19181 76658 31556 21802 10293 20177 39631 40137 56016 70540 8113091747 333 10300 20172 30/// 56110 59031 81824 81356 9401198904
AAXX 19181 76741 31565 31702 10255 20206 30131 40150 57005 70542 8323091735 333 10262 20190 30/// 563// 59068 83820
AAXX 19181 76855 32980 01801 10306 20238 30077 40126 50001 91745 33310320 20210 30/// 58001 92001
AAXX 19181 01281 16/// /0000 11066 21078 39789 49968 54001 60012 333 11064 91101
AAXX 19181 01447 16/// /0000 11121 21131 39340 40043 52006 60002 333 10001 91107
BBXX UFTA 19181 99849 71237 11696 72602 11191 21215 40024 53024 69962 78582 879//
AAXX 19184 91930 36/// ///// 10298 20230
AAXX 19184 91943 16/// /0518 10246 20229 30137 40139 52020 69922 333 10281 59004
AAXX 19181 89061 179// 00203 10050 20011 39862 49869 52015 69933 72071 333 91008 91113
AAXX 19184 03008 16/// /1515 10051 21005 39907 49977 58022 60002 91750 333 10052
AAXX 19184 03010 46/// /2714 10080 20079 49959 57015
AAXX 19184 03014 46/// /1416 10024 21031 49987 57020 91750 333 8////
AAXX 19184 03031 17462 /2915 10032 20019 39677 40004 53004 69902 781// 91750 333 10037 553// 20000 85/11 86/21 90710 91125
AAXX 19184 03034 17465 /3014 10079 20051 39991 40005 51011 60092 781// 91750 333 10087 86/18 90710 91129
AAXX 19184 03037 17673 /2910 10073 20053 30003 40025 51016 60092 723// 91750 333 10082 81/39 86/50 90710 91125
AAXX 19184 03039 46/// /3135 10015 21014 91750 333 10024 90710 91143
AAXX 19184 03041 46/// /2615 11008 21008 91750 333 11003 90710 91137 91030
AAXX 19184 03044 17581 /2303 10034 20027 39882 49982 53002 60102 761// 91750 333 10037 553// 20000 86/24 85/64
AAXX 19184 03047 17/60 /2909 10039 20031 39725 40028 53008 60072 762// 91750 333 10040 553// 20000
AAXX 19184 03062 17471 /2712 10042 20028 39985 49990 55000 60042 761// 91750 333 10042 553// 20000 83/19 85/28
AAXX 19184 03065 46/// /2513 11016 21019 91750 333 11001 90710 91149 91047
AAXX 19184 03068 11580 82616 10045 20029 39976 49984 56006 60052 76162 885// 91750 333 10045 82620 87630
AAXX 19184 03072 46/// ///// 11007 21007 91750 333 11007 91000
AAXX 19184 03080 17583 /2505 10022 20015 39819 49991 58008 69902 723// 91750 333 10029 85/26 85/62
AAXX 19184 03088 17679 /2507 10012 20012 39832 49997 56006 60052 761// 91750 333 10030 553// 20000 81/32 84/39 86/50
AAXX 19184 03094 17/63 /2009 10025 20010 39972 49977 58011 60012 761// 91750 333 10032
AAXX 19184 03105 17456 /3018 10077 20066 30042 40059 51013 60072 781// 91750 333 10094 83/13 84/30 90710 91136
AAXX 19184 03132 15571 /2812 10079 20063 30055 40068 51020 60122 91750 333 10090 84/23 83/50
AAXX 19184 03144 15681 /2310 10039 20026 39971 40014 53001 60052 91750 333 10039 553// 20000 82/39
AAXX 19184 03148 46/// /2820 10026 20026 91750 333 10026 90710 91127
AAXX 19184 03153 17472 /2815 10064 20049 39913 40050 53013 60092 723// 91750 333 10073 553// 20000 83/15 85/70
AAXX 19184 03155 16480 /2719 10053 20051 39735 40032 53010 60022 91750 333 10058 81/19 84/28 90710 91128
AAXX 19184 03158 15981 /2615 10044 20032 39875 40012 52002 60042 91750 333 10047 553// 20000 81/69
AAXX 19184 03210 16465 /2919 10074 20058 39912 40063 52017 60102 91750 333 10075 84/17 84/31 90710 91126
AAXX 19184 03212 15474 /2809 10075 20053 39961 40060 53017 60072 91750 333 10079 82/15 86/32
AAXX 19184 03214 15564 /2816 10081 20060 30047 40065 53017 60102 91750 333 10082 86/22 90710 91128
AAXX 19184 03220 16480 ///// 10068 20055 30011 40045 53013 60062 91750 333 10073 83/19 84/36
AAXX 19184 03225 16571 /3012 10065 20031 39750 40055 53014 60042 91750 333 10067 553// 20000 85/22 84/29
AAXX 19184 03226 15580 /3113 10058 20041 39771 40046 53007 60042 91750 333 10060 81/28 83/34 85/47
AAXX 19184 03227 46/// /2732 10010 2//// 91750 333 10016 90710 91144
AAXX 19184 03230 16580 /3106 10038 20031 39770 40027 52002 60032 91750 333 10038 4/002 82/23
AAXX 19184 03238 15374 /2810 10050 20043 39854 40027 53004 60052 91750 333 10050 85/09
AAXX 19184 03261 16661 /2604 10033 20021 30007 40048 55005 60042 91750 333 10038 84/32 83/46
AAXX 19184 03265 17530 /1902 10015 20012 30017 40048 55004 60042 710// 91750 333 10034 84/28 83/50
AAXX 19184 03266 16660 /2203 10044 20038 30028 40045 56008 60052 91750 333 10044 82/46
AAXX 19184 03275 17771 /2616 10052 20036 39838 40030 56008 69962 723// 91750 333 10054 88/50
AAXX 19184 03281 16/// /2313 10016 20016 60012 91750 333 10019
AAXX 19184 03903 16667 /2910 10081 20047 30045 40103 51016 60052 91750 333 10095 553// 20000 85/35 86/64
AAXX 19184 03904 15667 /2508 10075 20042 30035 40095 51018 60022 91750 333 10096 81/36 86/61
AAXX 19184 03907 15568 /2510 10069 20039 30073 40081 51015 60032 91750 333 10088 55300 20000 82/29 83/37
AAXX 19184 03911 16479 /2707 10052 20039 39811 40085 50018 60052 91750 333 10063 81/19 84/63
AAXX 19184 03915 16478 /2306 10070 20065 39999 40077 50015 60052 91750 333 10085 83/17 83/46
AAXX 19184 03916 16580 /3007 10066 20049 39880 40070 51013 60052 91750 333 10078 553// 20000 81/23 86/60
AAXX 19184 03923 15970 /3113 10069 20034 39888 40084 50012 60062 91750 333 10085 85/62
AAXX 19184 03301 16571 /2808 10084 20077 30029 40102 52019 60122 91750 333 10093 83/24 84/32
AAXX 19184 03305 15583 /2817 10083 20030 39838 40099 52017 60142 91750 333 10086 81/26 87/65 90710 91135
AAXX 19184 03313 16679 /2813 10085 20057 39994 40088 51015 60052 91750 333 10089 82/41 88/66 90710 91126 91023
AAXX 19184 03316 17660 /2817 10075 20061 30069 40080 51019 60092 704// 91750 333 10082 84/48 87/70
AAXX 19184 03318 16/// /2812 10078 20055 60102 91750 333 10082
AAXX 19184 03321 16980 /3014 10090 20057 30071 40083 51017 60062 91750 333 10093 553// 20000 86/68
AAXX 19184 03330 17056 /3013 10049 20049 39715 40076 53004 60152 723// 91750 333 10050 86/01 86/41 91023
AAXX 19184 03344 17367 /2812 10057 20047 39735 40052 51002 60022 723// 91750 333 10059 82/08 87/34 90710 91126 91026
AAXX 19184 03346 16/// /2822 10056 20046 69942 91750 333 10056 90710 91128
AAXX 19184 03348 15676 /2807 10071 20057 39967 40074 53010 60072 91750 333 10075 55300 20000 84/47
AAXX 19184 03355 15463 /2408 10056 20043 30039 40050 56007 60032 91750 333 10057 55300 20000 84/16
AAXX 19184 03373 16231 /2312 10041 20037 39987 40058 56014 60042 91750 333 10042 82/04 86/21
AAXX 19184 03379 16358 /2515 10047 20041 39987 40065 56016 60052 91750 333 10049 85/07
AAXX 19184 03382 17463 /2311 10046 20041 30034 40042 56019 60012 723// 91750 333 10046 55300 20000 86/14 87/57
AAXX 19184 03385 46346 /2115 10035 20035 30042 40052 56024 91750 333 10036 81/07 86/11
AAXX 19184 03391 11250 72107 10035 20031 30056 40063 56020 60032 71062 876// 91750 333 10035 83703 87709
AAXX 19184 03392 16250 /2114 10034 20034 30061 40064 56022 60022 91750 333 10035 85/04 86/11
AAXX 19184 03405 16580 /3018 10092 20076 30001 40117 52020 60072 91750 333 10096 553// 20000 81/21 87/33
AAXX 19184 03409 16/// /2505 10076 20040 69982 91750 333 10085 55300 2////
AAXX 19184 03410 16980 /2705 10055 20033 39657 40093 52017 60092 91750 333 10065 553// 20000 8//99
AAXX 19184 03469 17240 /2114 10035 20035 30066 40069 56021 60012 723// 91750 333 10035 553// 20000 84/04 87/10
AAXX 19184 03488 17256 /2014 10036 20034 30042 40068 56029 60012 781// 91750 333 10036 86/05 83/33
AAXX 19184 03503 15667 /3210 10086 20060 30034 40111 51019 60112 91750 333 10094 82/40
AAXX 19184 03507 15480 /3003 10070 20060 39740 40111 52019 60132 91750 333 10075 87/15 91014
AAXX 19184 03520 16680 /2607 10070 20048 39975 40096 53009 60022 91750 333 10077 553// 20000 83/43 84/69
AAXX 19184 03522 15683 /2809 10079 20070 30005 40098 53007 60022 91750 333 10080 82/41
AAXX 19184 03529 17750 /2306 10053 20053 30054 40097 53007 60032 710// 91750 333 10065 83/50
AAXX 19184 03544 17156 /2508 10054 20053 39953 40085 55002 60042 710// 91750 333 10054 553// 20000 83/02 87/34
AAXX 19184 03560 17259 /2307 10050 20049 39977 40082 56016 60042 710// 91750 333 10050 553// 20000 87/03
AAXX 19184 03604 16676 /3111 10101 20093 30072 40125 53016 60102 91750 333 10105 86/38
AAXX 19184 03605 16559 /2916 10092 20081 30109 40117 51015 60092 91750 333 10104 83/22 83/44 85/65
AAXX 19184 03609 16/// /2608 10093 20082 30066 40118 53015 60092 91750 333 10105
AAXX 19184 03628 15667 /2606 10084 20080 30033 40105 53008 60042 91750 333 10088 55300 20000 83/42 85/69
AAXX 19184 03647 16158 /2910 10056 20056 39833 40089 55004 60022 91750 333 10056 553// 20000 81/02 87/05
AAXX 19184 03658 16360 /2004 10060 20056 30022 40092 56015 60042 91750 333 10060 88/07
AAXX 19184 03660 17042 /2505 10052 20052 39840 40089 56019 60042 723// 91750 333 10052 87/01 83/05
AAXX 19184 03672 11250 82205 10061 20052 30050 40090 56022 60052 75865 886// 91750 333 10061 82703 85706 88712
AAXX 19184 03684 17128 /2210 10045 20043 39978 40086 56023 60032 751// 91750 333 10045 87/02
AAXX 19184 03693 16664 /2110 10054 20050 30090 40093 57029 60032 91750 333 10055 82/33 87/41
AAXX 19184 03707 15471 /3015 10106 20098 30119 40126 53014 60092 91750 333 10108 81/19 87/23
AAXX 19184 03710 16367 /3114 10076 20076 39698 40117 53014 60112 91750 333 10086 553// 20000 87/06 90710 91127
AAXX 19184 03743 16369 /2806 10081 20075 39938 40098 55010 60062 91750 333 10082 84/06 86/30
AAXX 19184 03749 16373 /2811 10083 20071 39987 40097 55015 60062 91750 333 10083 87/07 84/29
AAXX 19184 03761 17366 /2411 10071 20067 39948 40092 56022 60022 723// 91750 333 10071 55300 20000 84/06 86/25
AAXX 19184 03768 16364 /2608 10074 20069 30011 40091 56023 60052 91750 333 10074 87/07
AAXX 19184 03769 17250 /2401 10058 20057 30011 40094 57025 60062 761// 91750 333 10058 55300 20000 87/03
AAXX 19184 03770 16/// ///// 10063 20058 60042 91750 333 10063
AAXX 19184 03781 17250 /1809 10053 20052 39885 40094 57025 60072 751// 91750 333 10053 553// 20000 82/03 87/12
AAXX 19184 03784 46/// /2105 10058 20047 30087 40091 56024 91750 333 10059
AAXX 19184 03797 17663 /2107 10048 20045 30040 40101 57030 60032 761// 91750 333 10048 55300 20000 81/37 86/50
AAXX 19184 03823 17128 /3117 10093 20093 39883 40125 50001 60142 723// 91750 333 10098 553// 20000 88/02 90710 91126
AAXX 19184 03839 16/// ///// 10106 20100 60042 91750 333 10106 553// 20000
AAXX 19184 03857 15469 /3022 10109 20101 30042 40105 56010 60042 91750 333 10109 87/11 84/18 90710 91132
AAXX 19184 03862 17482 /2910 10092 20090 30088 40100 56016 60042 723// 91750 333 10093 55300 20000 87/11
AAXX 19184 03866 16/// /2722 10101 20087 30073 40098 55025 60072 91750 333 10102 90710 91137 91032
AAXX 19184 03872 17371 /2712 10090 20086 30090 40095 56028 60092 723// 91750 333 10092 553// 20000 82/07 87/13
AAXX 19184 03876 16/// /2310 10086 20084 30093 40095 58031 60072 91750 333 10086
AAXX 19184 03895 41011 82721 10103 20097 40138 57016 75965 887// 333 10104 84700 87701 90710 91132
AAXX 19181 10438 17450 81602 10004 21008 39894 40183 51002 69952 71000 333 10014 21012 3/101 4/001 55300 82/14 88/48
BBXX 41041 19181 99142 70460 46/// /1006 10270 20229 40128 56016 91750 22200 00268 11004 20602 3//// 41004 70022 333 91208 555 11068 22073 31722 41008 61749 102062 101063 101063 099061 100059 101059 81007 91722
AAXX 19184 68024 42960 21205 10268 20076 48512 53015 80002 333 10339
AAXX 19184 68032 42960 41305 10276 20162 48508 51008 81084 333 10332
AAXX 19184 68038 42960 30903 10237 20156 48511 52011 80001 333 10325
AAXX 19184 68054 42960 01201 10223 20140 48539 53007 333 20302
AAXX 19184 68234 42660 30305 10268 20135 48511 52005 81480 333 10350
AAXX 19184 68240 42960 20105 10287 20116 48510 52004 81061 333 10338
AAXX 19184 68320 42960 00000 10319 20137 48520 53004 333 10375
AAXX 19184 68328 42660 33603 10320 20115 48511 53006 82380 333 10377
BBXX 46083 19181 99582 71380 46/// /1503 10052 20020 49997 56039 91750 22200 00064 11611 20301 300// 41610 70053 333 91205 555 11033 22035 31741 41405 61749 153031 158024 152009 096004 037007 042007 81503 91748
BBXX 46001 19181 99563 71480 46/// /3101 10044 49997 53011 91750 22200 00049 11411 20301 300// 41410 70053 333 91203 555 11013 22014 31727 43604 61749 308013 325011 318012 320006 347006 032008
AAXX 19181 26554 12962 72205 10023 21052 39986 40152 51013 69902 8703/ 333 10027 91113
AAXX 19181 26666 12960 02103 10004 21036 39974 40193 52015 69902 333 10026 91112
AAXX 19181 26850 12960 22002 11001 21035 39920 40199 52011 69902 80001 333 10027
AAXX 19181 26863 32962 01905 11002 21040 39979 40222 52014 333 10025
AAXX 19181 26941 32960 01904 10001 21026 39963 40205 52013 333 10026
AAXX 19181 26951 32965 42003 10007 21026 30011 40214 52010 84050 333 10024
AAXX 19181 33008 32960 02002 11005 21033 30020 40203 52009 333 10033
AAXX 19181 33019 32960 01202 11009 21028 30038 40218 52011 333 10040
AAXX 19181 33036 32970 71601 10003 21048 30002 40239 52011 8707/ 333 10041
AAXX 19181 33041 32960 61502 10005 21018 30093 40254 53011 80004 333 10042
AAXX 19184 70026 NIL
AAXX 19184 70133 NIL
AAXX 19184 70174 NIL
AAXX 19184 70200 NIL
AAXX 19184 70219 NIL
AAXX 19184 70231 NIL
AAXX 19184 70261 NIL
AAXX 19184 70267 NIL
AAXX 19184 70271 NIL
AAXX 19184 70273 NIL
AAXX 19184 70308 NIL
AAXX 19184 70316 NIL
AAXX 19184 70326 NIL
AAXX 19184 70340 NIL
AAXX 19184 70350 NIL
AAXX 19184 70361 NIL
AAXX 19184 70381 NIL
AAXX 19184 70398 NIL
AAXX 19184 70414 NIL
AAXX 19184 78526 NIL
AAXX 19184 78543 NIL
AAXX 19184 78255 11457 70707 10226 20204 30051 40200 57010 60021 76062 878// 333 10255 20198 86820
AAXX 19184 78317 NIL
AAXX 19184 78318 NIL
AAXX 19184 78325 NIL
AAXX 19184 78333 NIL
AAXX 19184 78338 NIL
AAXX 19184 78348 NIL
AAXX 19184 78349 NIL
AAXX 19184 78353 NIL
AAXX 19184 78360 NIL
AAXX 19184 78367 NIL
AAXX 19184 78369 NIL
BBXX UGGA 19181 99693 10431 41/92 92112 10015 40012 57030 78682 889// 22231 20605
BBXX UCAC 19181 99699 10150 41/98 60212 10050 49974 54000 70222 89/// 22213 00100 20604 303// 40604
BBXX PJFF 19184 99387 70217 41397 60000 10209 20180 40320 52010 70222 8607/ 22254 20000 308// 40803 80190
BBXX A8OF6 19183 99354 70341 41798 71419 10210 20155 40270 58015 70362 87/7/ 22254 04190 20502 80175
BBXX UCAB 19181 99684 10110 41/98 90708 10050 49945 57040 70221 8//// 22253 00080 20402
BBXX DILE 19183 99471 70333 41/94 /2133 10142 20139 40172 53007 71244 8//// 22224 04120 20405 322// 40406 80140
BBXX UCKA 19181 99558 10065 41/98 /2714 10060 40069 54000 70222 22253 00090 20807
BBXX PHJV 19183 99078 31233 41398 32808 10273 20249 40051 56020 70211 83142 22263 02294 20201 80255
BBXX PCCL 19183 99365 31760 41197 61310 10140 40170 52025 70362 866// 22243 04179 20501 310// 40803
AAXX 19184 91165 NIL
AAXX 19184 91182 NIL
AAXX 19184 91190 NIL
AAXX 19184 91212 NIL
AAXX 19184 91217 NIL
AAXX 19184 91285 NIL
AAXX 19184 91317 NIL
AAXX 19184 91334 11471 80312 10258 20239 30054 40057 55005 60191 78082 8337/ 333 56199 70213 555 91918
AAXX 19184 91348 NIL
AAXX 19184 91356 NIL
AAXX 19184 91366 NIL
AAXX 19184 91369 NIL
AAXX 19184 91371 NIL
AAXX 19184 91376 32474 80611 10278 20230 30071 40075 53008 83808 333 561/9 70020 555 91918
AAXX 19184 91408 32473 60806 10272 20250 30019 40057 57012 82208 333 561/9 70013 555 91918
AAXX 19184 91413 NIL
AAXX 19184 91425 NIL
AAXX 19184 91434 NIL
AAXX 19184 91765 NIL
AAXX 19184 91222 NIL
AAXX 19184 91245 NIL
AAXX 19184 91323 NIL
AAXX 19184 91339 NIL
AAXX 19184 91343 NIL
AAXX 19184 91353 NIL
AAXX 19184 91442 NIL
BBXX 44060 19181 99413 70721 46/// ///10 10061 40190 58038 91800 22200 00104 333 91212 555 11103 22108
BBXX 44022 19181 99409 70737 46/// ///09 10062 21013 40187 58045 91800 22200 00081 333 91212 555 11103 22108
BBXX 51003 19181 99193 71606 46/// /0509 10245 40160 53014 91750 22200 00257 10805 20804 3//// 41203 70026 333 91211 555 11098 22103 31702 40611 61749 051091 048090 048089 050087 051092 047094
BBXX 46042 19181 99368 71224 46/// /3508 10109 40187 52004 91750 22200 00127 11607 20603 331// 41606 70033 333 91210 555 11085 22089 31742 43510 61749 354080 357077 358078 359075 359071 000063
BBXX 46053 19181 99342 71198 46/// /1902 10123 40190 53011 91750 22200 00138 11403 20401 327// 41403 70013 333 91202 555 11015 22016 31653 41904 61749 193015 192020 207021 207021 196023 193025
BBXX KAOU 19184 99001 10807 43/// /2713 10276 20243 40088 5//// 7//// 8//// 222// 04289 2//// 3//// 4//// 5//// 6//// 8//// ICE /////
BBXX NWS0020 19184 99345 70163 43/// /0711 10163 20101 40282 5//// 7//// 8//// 222// 04196 2//// 3//// 4//// 5//// 6//// 8//// ICE /////
BBXX NWS0029 19184 99329 70579 43/// /3031 10159 20086 40083 5//// 7//// 8//// 222// 04221 2//// 3//// 4//// 5//// 6//// 8//// ICE /////
BBXX PBAD 19181 99217 70759 41598 70714 10268 20221 40178 50014 70222 86544 22274 00270 20501 30603 40402 50302 80236
BBXX ZCDG7 19184 99279 71330 41298 70316 10198 20139 40311 54000 70222 8676/ 22265 00200 20302 329// 40403 5////
BBXX NWS0003 19184 99539 71665 43/// /0000 10010 21026 49938 5//// 7//// 8//// 222// 0//// 2//// 3//// 4//// 5//// 6//// 8//// ICE /////
BBXX WXJ63 19183 99611 71464 41/97 82205 10014 20004 49993 52/// 760// 8//// 222// 00052 2//// 3//// 4//// 5//// 6//// 8//// ICE /////
BBXX WQZ9670 19184 99452 70832 43/97 /3133 10027 2//// 40105 5//// 7//// 8//// 22273 0//// 2//05 3//// 4//// 5//// 6//// 8//// ICE /////
BBXX C6XP7 19183 99192 70682 41299 20521 10250 20236 40150 54/// 7//10 821/1 22234 00250 20303 323// 4//// 5//// 6//// 80240 ICE /////
BBXX WKAE 19183 99502 70015 41497 82834 10110 20101 40192 56048 76361 887// 22264 00120 2//// 3//// 4//// 5//// 6//// 80105 ICE /////
BBXX WKPN 19184 99208 10384 41997 03506 10260 20202 40160 54000 70200 80000 22235 00301 20001 3//// 40000 5//// 6//// 80220 ICE /////
BBXX WKAB 19184 99371 10056 41/98 32922 10110 20061 40249 53003 70000 8//// 22224 00164 2//// 336// 4//// 5//// 6//// 80085 ICE /////
AAXX 19184 78062 12669 60813 10218 20136 40243 60001 86501 333 58040 86640 90908
BBXX C6SI3 19183 99450 11686 41898 62619 10030 2001/ 40000 54000 70211 86466 22213 0//// 20303 327// 4//// 5//// 6//// 80020 ICE /////
BBXX SHIP 19184 99358 11717 41698 83220 10160 2011/ 40100 52010 70320 8775/ 22263 00200 20704 328// 40905 5//// 6//// 80130 ICE /////
BBXX C6SI6 19184 99318 11209 46/// /1207 10076 20028 40300 58006 7//// 8//// 22200 0//// 2////
BBXX S6JU 19184 99454 11714 41698 52820 10045 21020 49995 56007 70322 8542/ 22214 04050 2//// 3//// 4//// 5//// 6//// 80020
BBXX SHIP 19183 99333 11284 41/98 53521 10070 2005/ 40275 52015 70221 8//// 22213 00195 2//// 3//// 4//// 5//// 6//// 80060 ICE /////
BBXX 46070 19181 99551 11753 46/// /3205 11016 21076 49881 52004 91750 22200 00037 11308 20402 3//// 41308 70039 333 91207 555 11056 22058 31656 42909 61749 314054 307057 312053 313057 277051 303060 82907 91657
BBXX SHIP 19184 99142 11314 41798 60735 10270 2024/ 40115 57015 75082 83608 22213 00390 21209 307// 41209 5//// 6//// 80250 ICE /////
BBXX 9VVN 19184 99509 11669 41697 /3211 10015 2101/ 49975 56005 700// 8//// 22214 00030 2//// 3//// 4//// 5//// 6//// 80005 ICE /////
BBXX UFTA 19181 99849 71237 11696 72602 11191 21215 40024 53024 69962 78582 879//
BBXX SHIP 19184 99313 71371 41497 70610 10170 2014/ 40320 54000 70222 8739/ 22223 00190 20404 329// 41306 5//// 6//// 80150 ICE /////
BBXX J8PE4 19183 99161 70630 414// 62317 10290 2019/ 40160 50020 70311 86186 22234 00290 20805 323// 40402 5//// 6//// 80220 ICE /////
BBXX SHIP 19184 99413 71681 41797 52213 10100 2008/ 40181 51001 70300 8548/ 22224 00140 20308 327// 40206 5//// 6//// 80090 ICE /////
BBXX A8AJ4 19184 99547 71750 41496 42730 10015 2//// 49860 54000 78377 8454/ 22263 04030 2//// 3//// 4//// 5//// 6//// 8//// ICE /////
BBXX WJBJ 19183 99290 70790 41298 51212 10200 2014/ 40254 57006 70222 85100 22272 00243 20302 312// 40302 5//// 6//// 80160 ICE /////
BBXX 42362 19181 99278 70907 46/// /1508 10244 20100 40197 58010 91800
BBXX 42364 19181 99291 70881 46/// /1507 10200 20111 40220 58017 91800
BBXX 42363 19181 99282 70892 46/// /1509 10206 20083 40214 58013 91800 333 91209
BBXX 46214 19181 99379 71235 46/// ///// 1//// 91755 22200 00117 11508 21005 330// 41506 70039
BBXX 46224 19181 99332 71175 46/// ///// 1//// 91736 22200 00144 11302 20701 325// 41301 70008
BBXX 46219 19181 99332 71199 46/// ///// 1//// 91758 22200 00135 11505 21002 329// 41504 70025
BBXX 46239 19181 99363 71221 46/// ///// 1//// 91751 22200 00134 11408 20804 331// 41406 70038
BBXX 46238 19181 99334 71195 46/// ///// 1//// 91750 22200 00144 11304 21002 329// 41303 70019
BBXX 41112 19181 99307 70813 46/// ///// 1//// 91751 22200 00161 10502 20502 70010
BBXX 41110 19181 99341 70777 46/// ///// 1//// 91751 22200 00141 10901 20901 312// 41101 70007
BBXX 41113 19181 99284 70805 46/// ///// 1//// 91751 22200 00211 10502 20502 308// 41101 70010
BBXX 44100 19181 99363 70756 46/// ///// 1//// 91752 22200 00122 10802 20802 307// 41201 70010
BBXX 42099 19181 99273 70842 46/// ///// 1//// 91757 22200 00232 10603 20603 70016
BBXX 42362 19181 99278 70907 46/// /1308 10244 20111 40200 91745
BBXX 44099 19181 99369 70757 46/// ///// 1//// 91752 22200 00120 10902 20902 309// 41101 70011
BBXX 44039 19181 99411 70727 46/// /2210 10066 21001 40200 91745 22200 00095 10502 70010 333 91214
BBXX 46232 19181 99325 71174 46/// ///// 1//// 91738 22200 00152 11303 20702 329// 41302 70015
BBXX 46213 19181 99403 71247 46/// ///// 1//// 91754 22200 00105 11009 21007 329// 41406 70046
BBXX 46218 19181 99345 71208 46/// ///// 1//// 91802 22200 00139 11505 20603 330// 41505 70027
BBXX 46215 19181 99352 71209 46/// ///// 1//// 91738 22200 00130 11404 20602 327// 41403 70020
BBXX 46229 19181 99438 71246 46/// ///// 1//// 91751 22200 00101 11306 20803 329// 41304 70028
BBXX 46236 19181 99368 71219 46/// ///// 1//// 91750 22200 00125 11505 20803 328// 41503 70023
BBXX 46225 19181 99329 71174 46/// ///// 1//// 91744 22200 00145 11402 20702 328// 41402 70012
BBXX 46247 19181 99378 71228 46/// ///// 1//// 91751 22200 00111 11506 21004 329// 41504 70029
BBXX 46243 19181 99462 71241 46/// ///// 1//// 91759 22200 00081 11004 21003 327// 41303 70019
BBXX 44097 19181 99410 70711 46/// ///// 1//// 91802 22200 00123 10504 20504 315// 41101 70019
BBXX 44008 19181 99405 70692 46/// /2407 10059 21009 40211 58037 91750 22200 00114 11004 20602 308// 41003 70019 333 91210 555 11077 22080 31749 42310 61749 241073 231069 234066 232069 239065 244067
BBXX 44172 19181 99445 70634 46/// ///// 1//// 91801 22200 00068 11003 21002 314// 41302 70015
BBXX 46089 19181 99459 71258 46/// /3502 10081 20030 40326 52006 91750 22200 00090 11405 20401 330// 41405 70023 333 91204 555 11018 22018 31731 43405 61749 349018 350029 324029 320029 319027 319026
BBXX WKPN 19184 99208 10384 41997 03506 10260 20202 40160 54000 70200 80000 22235 00301 20001 3//// 40000 5//// 6//// 80220 ICE /////
BBXX 3FMV6 19183 99006 30073 41498 71814 10260 20231 40087 53010 75052 85778 22244 06273 20801 80240
BBXX WDE8264 19183 99216 10379 41798 03410 10240 20226 40160 54/// 7//00 80000 22234 00210 20502 333// 41002 5//// 6//// 80230 ICE /////
BBXX V7SY6 19184 99149 10690 41897 10513 10260 20224 40260 54000 70100 81720 22223 00230 20602 30505 40602 50501 6//// 80240 ICE /////
BBXX WRYW 19184 99241 10616 43/// /3315 10240 2015/ 40179 52010 7//// 8//// 22225 00254 20301 3//// 4//// 5//// 6//// 80180 ICE /////
BBXX BATFR19 19184 99065 30060 46/// /2014 10234 20199 40116 53004 22200 00257
BBXX BATFR05 19184 99063 10034 46/// /2108 10282 20244 40101 53009 22200 00260
BBXX OVYB2 19181 99258 30534 41498 30410 10260 20228 40123 54000 70100 8117/ 22253 00270 20503 31700 40804 5//// 80238
BBXX BATFR45 19184 99006 30515 46/// ///// 10279 20242 40130 53019 22214 00307
BBXX BATFR55 19184 99124 30504 44898 13022 10282 20252 40101 70000 81040 22272 00285 212// 33030 413// 513//
BBXX A8ZS7 19184 99357 30159 41698 21808 10210 20147 40185 53010 70100 82060 22264 04190 20501 322// 40602 80170
BBXX WCX7445 19184 99531 50709 43/// /2521 10137 2//// 49866 5//// 7//// 8//// 22200 00079 2//// 3//// 4//// 5//// 6//// ICE /////
BBXX WBP3210 19184 99531 50709 43/// /2923 10129 2//// 49923 5//// 7//// 8//// 22200 00122 2//// 3//// 4//// 5//// 6//// ICE /////
BBXX 32012 19181 99197 50856 46/// ///// 1//// 91750 22200 11405 70024
BBXX NWS0022 19184 99416 70714 43/// /2316 10073 20011 40178 5//// 7//// 8//// 222// 04092 2//// 3//// 4//// 5//// 6//// 8//// ICE /////
BBXX 46084 19181 99566 71361 46/// /1307 10047 20021 49987 55055 91750 22200 00073 11608 20503 300// 41607 70039 333 91208 555 11068 22071 31659 41019 61749 129065 126070 127074 117116 107141 097155
BBXX 46006 19181 99408 71375 46/// /1703 10112 40346 53004 91750 22200 00124 11405 3//// 41405 70023 333 91204 555 11028 22029 31723 41605 61749 165027 163031 162036 157036 163036 159034
BBXX 46075 19181 99539 71608 46/// /2210 10029 20011 49978 53025 91750 22200 00047 11107 20805 300// 41105 70034 333 91212 555 11105 22111 31717 42214 61749 221100 217101 215107 218115 233100 237094 82212 91717
BBXX 46005 19181 99461 71310 46/// ///08 10100 40300 56005 91750 22200 00100 11404 20702 3//// 41403 70021 333 91210 555 11089 22095
BBXX 46002 19181 99426 71305 46/// ///// 10100 40337 52003 91750 22200 00121 11505 70025
BBXX 46080 19181 99580 71500 46/// /2207 10046 20003 49983 52008 91750 22200 00052 11208 20603 3//// 41207 70039 333 91208 555 11071 22075 31728 42209 61749 220068 220074 218071 218063 218061 219061 82308 91733
BBXX 46059 19181 99380 71300 46/// /0111 10118 40308 51013 91750 22200 00145 10706 20705 3//// 41403 70029 333 91214 555 11119 22126 31724 40115 61749 014111 013101 006117 015115 007114 011112
BBXX 46028 19181 99357 71219 46/// /3504 10114 40179 53006 91750 22200 00129 11506 20401 331// 41506 70029 333 91206 555 11045 22046 31653 43406 61749 347042 342041 345042 346042 353044 346048
BBXX 46025 19181 99337 71191 46/// /1702 10138 20097 40185 53006 91750 22200 00153 11402 20401 326// 41402 70010 333 91203 555 11021 22021 31748 41703 61749 170020 162016 155015 136021 148021 139017
BBXX 46027 19181 99419 71244 46/// /3508 10092 40252 53014 91750 22200 00091 11407 20603 329// 41406 70033 333 91210 555 11084 22089 31746 43510 61749 345078 353070 357071 359078 359081 359079
BBXX 46011 19181 99350 71210 46/// /0000 10105 40189 51009 91750 22200 00137 11505 20301 331// 41505 70024 333 91201 555 11003 22003 31700 40402 61749 124002 146003 130003 057003 043011 052009
BBXX 46054 19181 99342 71204 46/// /3104 10122 40187 91750 22200 00139 11504 20401 300// 41504 70021 333 91205 555 11046 22048 31745 43005 61749 309043 318037 327032 325026 336032 335029
BBXX 46029 19181 99461 71245 46/// /0403 10078 20052 40320 53009 91750 22200 00077 11405 20401 327// 41405 70024 333 91204 555 11036 22039 31709 40305 61749 041034 039033 033035 037036 026036 017036
BBXX 46087 19181 99485 71247 46/// /1802 10082 20065 40307 54000 91750 22200 00077 11404 20401 328// 41404 70020 333 91203 555 11023 22027 31711 41704 61749 183021 186028 185028 185031 187029 179025
BBXX 46013 19181 99382 71233 46/// /3602 10091 40204 52011 91750 22200 00107 11506 20301 3//// 41506 70032 333 91203 555 11017 22018 31737 43104 61749 358017 300013 294012 004007 308010 347014
BBXX 46012 19181 99374 71229 46/// /3505 10099 40198 52008 91750 22200 00122 11507 20301 331// 41507 70037 333 91206 555 11051 22053 31727 43506 61749 352049 355051 353050 356046 354045 349044
BBXX 46105 19181 99590 71522 46/// ///// 1//// 91750 22200 11103 70016
BBXX 46050 19181 99442 71246 46/// /0206 10087 40311 52004 91750 22200 00096 11405 20401 330// 41405 70026 333 91208 555 11064 22068 31738 40109 61749 016063 015068 009062 008065 002063 006060
BBXX 46086 19181 99325 71180 46/// /2606 10137 40193 51007 91750 22200 00150 11504 20501 328// 41504 70020 333 91206 555 11058 22060 31723 42608 61749 256054 257056 260056 255059 256058 257055
BBXX 46061 19181 99602 71468 46/// /1705 10049 49988 53016 91750 22200 00053 11207 20501 300// 41207 70034 333 91207 555 11057 22060 31705 41609 61749 173053 165056 161056 174057 173062 179060
BBXX 46035 19181 99571 71778 46/// /2609 1//// 49819 51011 91750 22200 11209 20804 300// 41208 70046 333 91211 555 11091 22097 31701 42713 61749 261091 257100 261101 269106 276113 264116 82712 91659
BBXX 46082 19181 99597 71434 46/// ///// 10048 20048 40000 57004 91750 22200 00064 11309 70045
BBXX 46077 19181 99579 71543 46/// /1306 10027 21016 49947 54000 91750 22200 00048 11202 20501 3//// 41202 70011 333 91207 555 11058 22060 31720 41109 61749 125056 117054 116054 121066 087048 054051 81108 91720
BBXX 51101 19181 99243 71621 46/// /0808 10235 20179 40206 53012 91750 22200 00239 10805 20703 310// 40804 70024 333 91210 555 11090 22095 31745 40810 61749 078084 069082 069081 080079 070085 079076
BBXX 46026 19181 99378 71228 46/// /3402 10087 40201 52008 91750 22200 00109 11506 20401 328// 41506 70031 333 91203 555 11019 22020 31744 43303 61749 329018 258018 273021 270019 275021 282024
BBXX 46041 19181 99474 71247 46/// /2401 10076 40314 52003 91750 22200 00085 11305 20401 3//// 41305 70026 333 91201 555 11006 22006 31656 43002 61749 242006 198003 242004 276008 291011 303009
BBXX 46072 19181 99517 71722 46/// /1903 10015 21008 49942 50000 91750 22200 00047 11107 20402 3//// 41107 70035 333 91205 555 11033 22034 31719 42210 61749 188031 201037 228053 223072 219074 220076 82408 91720
BBXX 42057 19181 99168 70815 46/// /0808 10279 20209 40148 58017 91750 22200 00280 10703 20602 3//// 40702 70014 333 91210 555 11082 22087 31702 40710 61749 082082 083079 083085 075076 070081 075081 80809 91657
BBXX 41040 19181 99145 70530 46/// /0804 10268 20242 40124 56025 91750 22200 00282 11004 20401 3//// 41004 70022 333 91205 555 11044 22045 31718 41006 61749 083041 093040 096042 098044 099040 095035 81005 91718
BBXX 41009 19181 99285 70802 46/// /1108 10210 20129 40251 58013 91750 22200 00249 10703 20503 300// 40702 70016 333 91210 555 11080 22083
BBXX 41010 19181 99289 70785 46/// /1207 10192 40259 58009 91750 22200 00237 10803 20502 300// 40802 70016 333 91209 555 11071 22074
BBXX 42039 19181 99288 70860 46/// /1307 10209 40218 58015 91750 22200 00223 10603 20603 70013 333 91208 555 11070 22073 31652 41309 61749 130065 134061 128061 127064 130066 133068 81308 91653
BBXX BATEU06 19184 99500 70612 46/// /1612 11048 21101 40133 56030 22264 00015
BBXX BATEU05 19184 99603 70463 46/// /2615 11040 21060 40023 50007 22222
BBXX CGDS 19184 99450 70747 46/// /2420 10056 21006 4//// 5//// 7//// 8//// 22200 0//// 2////
BBXX PBAD 19181 99217 70759 41598 70714 10268 20221 40178 50014 70222 86544 22274 00270 20501 30603 40402 50302 80236
BBXX SHIP 19184 99299 71566 41797 21307 10200 2017/ 40270 5//// 7//20 822// 22263 00220 2//// 3//// 4//// 5//// 6//// 80180 ICE /////
BBXX C6LU3 19183 99404 70679 41598 22917 10040 2101/ 40245 57030 70100 81101 22225 20403 307// 40704 80020
BBXX BAREU11 19184 99209 70657 46/// ///// 40180 57011 22214
BBXX BAREU06 19184 99479 70698 46/// ///// 40030 57050 22214
BBXX 44007 19181 99435 70701 46/// /2213 10024 21031 40130 58061 91750 22200 00077 10504 20503 3//// 40901 70018 333 91216 555 11139 22147 31744 42316 61749 218132 219130 218130 222126 220124 224119
BBXX 42085 19181 99179 70665 46/// /0606 10279 40149 91740 333 91209
BBXX 44066 19181 99396 70726 46/// /2411 10079 20019 40218 56036 91750 22200 00131 10503 20503 3//// 41102 70017 333 91214 555 11119 22125 31709 42414 61749 241109 237104 242108 238107 244112 241105
BBXX BAREU05 19184 99479 70602 46/// ///// 40152 57018 22274
BBXX 41046 19181 99238 70683 46/// /0409 10227 20146 40203 58013 91750 22200 00259 10806 20604 300// 40804 70029 333 91211 555 11092 22096 31707 40512 61749 041087 041085 037085 033094 033090 029095 80310 91718
BBXX 44011 19181 99411 70666 46/// /2805 10029 21027 40209 58022 91750 22200 00095 11106 20401 3//// 41106 70029 333 91207 555 11049 22050 31743 41107 61749 281044 292041 286050 287046 293043 309043
BBXX CGSB 19184 99492 70681 46/// /1619 11064 21071 40056 56057 7//// 8//// 22200 0//// 2////
BBXX VCSZ 19184 99461 70731 46/// /2008 11011 21017 40041 56039 7//// 8//// 22253 0//// 2////
BBXX CGDT 19184 99468 70712 46/// /3203 11058 21066 40054 57046 7//// 8//// 22200 0//// 2////
BBXX CGDG 19184 99447 70636 46/// /3001 11005 21020 40176 56034 7//// 8//// 22200 0//// 2////
BBXX VOKJ 19184 99476 70527 46/// /0213 11012 21043 40094 56014 7//// 8//// 22200 0//// 2////
BBXX C6XP7 19183 99192 70682 41299 20521 10250 20236 40150 54/// 7//10 821/1 22234 00250 20303 323// 4//// 5//// 6//// 80240 ICE /////
BBXX 5BDK2 19184 99241 70843 43/// 40830 10250 2021/ 40240 5//// 7//// 8//// 22213 00260 2//// 3//// 4//// 5//// 6//// 80220 ICE /////
BBXX ZCDG7 19184 99279 71330 41298 70316 10198 20139 40311 54000 70222 8676/ 22265 00200 20302 329// 40403 5////
BBXX MYSU5 19184 99458 70514 41296 80246 10023 20023 49998 56042 76976 887// 22223 00070 20714 302// 41005 5//// 80023
BBXX VCBW 19184 99468 70712 46/// /0104 11047 21059 40048 58078 7//// 8//// 22200 0//// 2////
BBXX VAAP 19184 99446 70636 46/// /2303 10002 21108 40168 56031 7//// 8//// 22200 0//// 2////
BBXX VOKF 19184 99490 70669 46/// /1722 11073 21106 40038 56071 7//// 8//// 22200 0//// 2////
BBXX VOFG 19184 99456 70614 46/// /3014 11008 21074 40155 58025 7//// 8//// 22200 0//// 2////
BBXX CG2958 19184 99521 71279 46/// /2018 10074 20066 40198 58021 7//// 8//// 22282 0//// 2////
BBXX 3FZK3 19184 99533 71412 46/// /2029 10062 20062 49919 56006 7//// 8//// 22233 0//// 2////
BBXX CGJK 19184 99484 71234 46/// /2007 10069 20055 40309 57004 7//// 8//// 22200 0//// 2////
BBXX CGCC 19184 99460 70731 46/// /2006 11012 21048 40046 56036 7//// 8//// 22200 0//// 2////
BBXX CGTF 19184 99476 70527 46/// /2902 11006 21035 40095 56014 7//// 8//// 22200 0//// 2////
BBXX CZ9742 19184 99506 70969 46/// /2908 11051 21078 40244 53012 7//// 8//// 22200 0//// 2////
BBXX CGBR 19184 99543 71303 46/// /1408 10056 20055 40070 56034 7//// 8//// 22200 0//// 2////
BBXX VOLG 19184 99466 70559 46/// /0121 11027 21052 40097 57034 7//// 8//// 22222 0//// 2////
BBXX CGDX 19184 99489 70674 46/// /1737 11077 21098 40039 58071 7//// 8//// 22223 00004 2////
BBXX VCWL 19184 99456 70735 46/// /1805 10001 21037 40048 56028 7//// 8//// 22200 0//// 2////
BBXX VXKF 19184 99469 70597 46/// /3508 11045 21099 40145 56027 7//// 8//// 22253 0//// 2////
BBXX VAAZ 19184 99546 70529 46/// /2621 11055 21086 40104 58019 7//// 8//// 22231 0//// 2////
BBXX CGJV 19184 99463 70621 46/// /0402 11026 21091 40160 58024 7//// 8//// 22282 00055 2////
BBXX CGBN 19184 99447 70636 46/// /3502 11019 21112 40163 56031 7//// 8//// 22200 0//// 2////
BBXX CGBY 19184 99487 71235 46/// /0000 10056 20044 40307 57004 7//// 8//// 22200 0//// 2////
BBXX VOPP 19184 99456 70735 46/// /1811 11002 21039 4//// 5//// 7//// 8//// 22200 0//// 2////
BBXX CGDR 19184 99491 71231 46/// /0504 10056 20055 40311 55001 7//// 8//// 22211 00078 2////
BBXX CG2965 19184 99487 71235 46/// /0000 10060 20050 40308 58004 7//// 8//// 22200 0//// 2////
BBXX VCLM 19184 99511 70575 46/// /2712 11090 21112 40150 56012 7//// 8//// 22253 00016 2////
BBXX VCRG 19184 99474 70619 46/// /1803 11025 21088 40165 58030 7//// 8//// 22200 0//// 2////
BBXX 46088 19181 99483 71232 46/// /2102 10070 40307 91750 22200 00079 1//00 70001 333 91203 555 11022 22022 31707 42003 61749 206021 204020 189022 183026 189027 179026
BBXX 46069 19181 99337 71202 46/// /3006 10124 40191 53007 91750 22200 00141 11404 20401 330// 41404 70020 333 91207 555 11059 22061 31701 43107 61749 298056 309051 311051 313051 315058 305057
BBXX 46014 19181 99394 71240 46/// /0204 10101 40214 53009 91750 22200 00106 11507 20301 3//// 41507 70035 333 91205 555 11039 22040 31704 43608 61749 018037 010037 015046 017048 003057 000042
BBXX 46047 19181 99324 71195 46/// /3106 10128 40197 51005 91750 22200 00135 11405 20402 329// 41404 70023 333 91207 555 11067 22070 31727 43108 61749 310063 310061 307068 299059 283040 293039
BBXX 46078 19181 99561 71526 46/// /2010 10035 20009 49985 51010 91750 333 91213 555 11102 22108
BBXX 41008 19181 99314 70809 46/// /1304 10179 20129 40264 58012 91750 22200 00166 10402 20401 300// 40701 70009 333 91205 555 11050 22057 31728 41205 61749 134044 134041 129043 132041 129041 127042
BBXX 41013 19181 99334 70777 46/// /1902 10150 20059 40269 58024 91750 22200 00198 11002 308// 41002 70008 333 91204 555 11021 22022 31738 41904 61749 190021 175027 160022 156025 165025 151020
BBXX 44020 19181 99414 70702 46/// /2313 10060 20007 40181 56054 91750 22200 00075 10302 20302 70009 333 91216 555 11134 22143 31732 42616 61749 232126 256123 256120 257113 257115 254114
BBXX 44025 19181 99402 70732 46/// /2313 10073 20011 40194 58041 91750 22200 00110 10604 20604 314// 41001 70019 333 91216 555 11140 22147 31705 42416 61749 226131 227131 226126 229131 231131 235131
BBXX 44014 19181 99366 70748 46/// /2308 1//// 40257 58025 91750 22200 00145 11003 20401 307// 41002 70013 333 91210 555 11078 22078 31728 42211 61749 226080 226079 223081 223083 219082 224078
BBXX 44040 19181 99410 70736 46/// /2409 10062 21013 40193 91745 22200 10301 70007 333 91212 555 11108 22124
BBXX 44065 19181 99404 70737 46/// /2110 10072 20009 40189 58044 91750 22200 00101 10503 20503 307// 40901 70013 333 91212 555 11109 22115 31725 42013 61749 205103 210105 208106 208101 215104 221105 82111 91725
BBXX 44027 19181 99443 70673 46/// /2110 10014 21039 40155 58053 91750 22200 00083 10402 20401 3//// 41101 70008 333 91213 555 11103 22108 31749 42113 61749 209098 212095 207095 215092 211086 214084
BBXX 41004 19181 99325 70791 46/// /1504 10171 20080 40272 58018 91750 22200 00210 10802 20401 3//// 40802 70008 333 91205 555 11037 22038 31655 41705 61749 152037 140031 161029 174025 167020 173026
BBXX 44009 19181 99385 70747 46/// /2110 10083 40233 58040 91750 22200 00120 10503 20503 300// 41001 70016 333 91213 555 11109 22115 31712 42214 61749 215104 215103 214110 220109 216111 219110
BBXX 42002 19181 99258 70937 46/// /1511 10243 20192 40161 58011 91750 22200 00242 10603 20603 70016 333 91214 555 11109 22116 31731 41414 61749 152109 147116 145113 146108 143108 145115
BBXX 42040 19181 99292 70882 46/// /1507 10203 40213 58016 91750 22200 00225 10502 20502 70008 333 91208 555 11068 22071 31724 41611 61749 149070 150077 158076 157076 159069 156072
BBXX 44005 19181 99432 70691 46/// /2113 10035 21026 40153 58051 91750 22200 00086 10504 20503 3//// 41002 70019 333 91216 555 11133 22140 31747 42016 61749 213125 211114 211113 208108 212107 215108
BBXX 42058 19181 99149 70749 46/// /0812 10273 20201 40126 58017 91750 22200 00278 10705 20705 322// 41401 70025 333 91214 555 11127 22136 31715 40915 61749 080119 075120 079115 079120 082113 082115 80813 91715
BBXX 42059 19181 99151 70675 46/// /0710 10272 20191 40139 58024 91750 22200 00279 10704 20703 3//// 41001 70018 333 91212 555 11109 22116 31703 40712 61749 068102 065099 065100 063102 065101 064100 80711 91711
BBXX 42019 19181 99279 70954 46/// /1610 10237 20197 40134 58012 91750 22200 10604 20604 70022 333 91211 555 11105 22112 31728 42812 61749 172098 281098 281095 281092 281086 276090
BBXX 42056 19181 99198 70849 46/// /0909 10265 20221 40167 58010 91750 22200 00271 10704 20704 70021 333 91211 555 11096 22102 31722 40811 61749 089090 088088 088092 087093 087094 085087 80910 91710
BBXX 42060 19181 99163 70635 46/// /0408 10269 20167 40154 58022 91750 22200 00278 10503 20502 300// 41001 70014 333 91209 555 11081 22085 31658 40410 61749 040076 042076 042074 039075 038077 039073 80408 91745
BBXX 42036 19181 99285 70845 46/// /1408 10201 20156 40226 58012 91750 22200 00212 10503 20503 70013 333 91209 555 11080 22084 31705 41310 61749 136075 133077 131078 135077 134082 134081
BBXX 41060 19181 99148 70510 46/// ///// 1//// 91750 22200 10904 70022
BBXX 42035 19181 99292 70944 46/// /1205 10186 20177 40164 58005 91750 22200 00166 10602 20502 315// 40602 70012 333 91206 555 11057 22066 31744 41206 61749 117049 119045 117045 117042 119041 119039
BBXX 42001 19181 99259 70897 46/// /1208 10232 20162 40195 58015 91750 22200 00261 10702 20402 3//// 40701 70011 333 91210 555 11086 22090 31654 41311 61749 119082 123084 131084 126084 142082 138084
BBXX 42065 19181 99149 70750 46/// /0608 10275 20213 91750 22200 10704 20704 3//// 41301 70019 333 91210 555 11088 22093 31727 40710 61749 062083 065086 068087 068084 063081 066085 80709 91723
BBXX 41044 19181 99217 70587 46/// /3404 10251 20144 40162 57020 91750 22200 00265 11004 20401 300// 41003 70018 333 91206 555 11040 22041 31655 43506 61749 342037 342031 336039 346042 352042 346040 83505 91708
BBXX 41048 19181 99320 70696 46/// /3309 10163 20054 40245 58009 91750 22200 00224 11107 20704 3//// 41106 70035 333 91211 555 11093 22097 31657 43511 61749 333091 347085 335089 336082 334082 346084 83310 91705
BBXX 41001 19181 99347 70727 46/// ///// 10130 20027 40265 58020 91750 22200 00219 11005 70023
BBXX 41049 19181 99275 70630 46/// /3511 10202 20122 40180 58011 91750 22200 00235 11109 20806 300// 41108 70047 333 91214 555 11115 22121 31705 43515 61749 345107 341107 348092 345101 342117 346123 83513 91657
BBXX 42012 19181 99301 70876 46/// /1407 10200 20126 40216 58016 91750 22200 00204 10502 20502 70008 333 91208 555 11072 22076 31707 41409 61749 138068 147061 148061 151062 144067 145066
BBXX 42020 19181 99270 70967 46/// /1711 10237 20197 40121 58015 91750 22200 00236 333 91213 555 11117 22125 31724 41614 61749 171107 164116 162118 165110 168108 172105
BBXX 41047 19181 99275 70715 46/// /0410 10195 40244 58015 91750 22200 00253 11107 20804 300// 41105 70033 333 91212 555 11095 22099 31723 40213 61749 036094 028088 024098 026096 025097 035099 80312 91721
BBXX 41036 19181 99342 70770 46/// ///// 10121 20020 40271 58028 91750 22200 00166 11001 70007
BBXX 41043 19181 99211 70650 46/// /0304 10251 20175 40185 58023 91750 22200 00267 11104 20401 300// 41104 70019 333 91205 555 11036 22037 31733 40306 61749 030035 031039 037039 025042 024033 029037 80305 91720
BBXX 42003 19181 99260 70856 46/// /1308 1//// 91750 22200 10603 20603 70015 333 91210 555 11087 22092 31718 41210 61749 129081 132079 132079 124082 128083 130077 81209 91717
BBXX 42055 19181 99222 70940 46/// /1410 10250 20198 40154 58015 91750 22200 00252 10503 20503 70014 333 91212 555 11104 22110 31746 41312 61749 134097 134096 135094 128093 133095 132091 81310 91707
BBXX DFGX2 19183 99488 71263 41598 81717 10080 20060 40290 55010 70322 8/8// 22234 04090 20604 324// 40804 80070
BBXX C6SI4 19184 99547 71763 41496 32724 11030 2107/ 49870 51020 7//00 833// 22263 00020 2//// 3//// 4//// 5//// 6//// 86040 ICE 0/0//
BBXX CG2960 19184 99423 70830 46/// /2309 10101 20040 4//// 5//// 7//// 8//// 22200 0//// 2////
BBXX CG2350 19184 99433 70798 46/// /2315 10069 20021 40100 58003 7//// 8//// 22200 0//// 2////
BBXX VCPX 19184 99439 70823 41/97 82520 10007 2//// 41011 54/// 72222 8//// 22232 00044 20101 3//// 4//// 5//// 6//// 8//// ICE /////
BBXX DDAC2 19180 99132 70948 41/97 /0405 10240 20211 40110 58000 7//00 8/617 22273 04260 2//// 334// 4//00 5//// 80220
BBXX FVNM 19184 99061 70842 46/// /2112 10267 20220 40115 58014 22221 00269
BBXX WDC6698 19184 99095 71444 43/// /1018 1//// 2//// 40110 5//// 7//// 8//// 222// 04254 2//// 3//// 4//// 5//// 6//// 8//// ICE /////
BBXX DFZB2 19184 99138 71070 41598 30120 10267 20212 40160 54000 70200 82181 22264 04270 20704 334// 41005 5//// 80228
BBXX ELWR5 19183 99114 70895 41998 00613 10300 20280 40120 50/// 7//// 80000 22234 04297 21003 80285
AAXX 19184 78906 11476 40408 10281 20195 30134 40139 60001 71500 84201 333 10294 20214 58013 70001 84819
BBXX A8ID9 19184 99008 51632 41498 40917 10250 20222 40090 51010 70322 82261 22214 04260 20502 30000 4//// 5//// 80230
BBXX C6XC2 19184 99024 31327 41498 30210 10250 20236 40050 57020 70100 8248/ 22200 00300 2//// 3//// 4//// 5//// 6//// 80240 ICE /////
AAXX 19181 06414 16/// /1906 10024 20006 30098 40131 58023 60042 333 10031 91109 91206
AAXX 19181 06459 36/// /1806 10015 20003 39971 40168 58017 60002 333 10027 91110 91207
AAXX 19181 06494 16/// /2103 11028 21033 39357 40182 58009 69922 333 11018 4/024 91106 91204
AAXX 19184 78016 11664 43320 10166 20050 30195 40199 52004 69951 70181 84800 333 10167 20122 70152 90961
AAXX 19184 64500 32460 82406 10274 20240 30080 40093 885// 333 10282 58007 83610 88633
AAXX 19184 64501 32358 82208 10270 20238 3//// 4//// 885// 333 10292 5//// 83608 88630
AAXX 19184 64550 32458 8//// 10257 20229 30/// 40/// 885// 333 10280 5//// 84610 88616
AAXX 19184 64551 32460 70000 10260 20246 30067 40096 8353/ 333 10288 59012 83610 87360
AAXX 19184 64570 32570 53302 10262 20238 39595 40099 83902 333 10304 58001 83620 81933 85076 94945 95835
BBXX DBLK 19181 99705 50081 41499 22104 11001 21031 49896 57013 70221 81840 22200 05015 ICE 48795
BBXX WKAE 19183 99502 70015 41497 82834 10110 20101 40192 56048 76361 887// 22264 00120 2//// 3//// 4//// 5//// 6//// 80105 ICE /////
BBXX WKAB 19184 99371 10056 41/98 32922 10110 20061 40249 53003 70000 8//// 22224 00164 2//// 336// 4//// 5//// 6//// 80085 ICE /////
BBXX VRYO3 19184 99532 10044 46/// /0321 10067 20077 40078 56015 7//// 8//// 22254 00094 2////
BBXX WDD3826 19184 99491 70178 41397 83013 10150 2013/ 40245 52010 7//22 886// 22224 00130 20301 318// 40703 5//// 6//// 80140 ICE /////
BBXX DBBI 19181 99536 10095 46/// /2106 10014 20014 40127 57006 22240 00038
BBXX DBBC 19181 99539 10091 46/// /2008 10016 2//// 40119 57006 22221 00045
BBXX DBBA 19181 99545 10112 46/// /2209 10034 20017 40111 52009 22220 00050
BBXX DBJM 19181 99540 10085 46/// /2012 10031 20013 40107 57012 22200 00051
BBXX DBKR 19181 99541 10121 46/// /2205 10025 20021 40124 52009 22200 00051
BBXX DK7210 19181 99540 10066 46/// /2015 10049 20049 30066
AAXX 19184 78062 12669 60813 10218 20136 40243 60001 86501 333 58040 86640 90908
BBXX TFBKF 19184 99635 70202 46/// ///// 22200 10706 70032
BBXX TFDRN 19184 99658 70212 46/// ///// 22200 10402 70008
BBXX TFGRS 19184 99663 70182 46/// ///// 22200 10603 70016
BBXX TFGRV 19184 99638 70225 46/// ///// 22200 10806 70031
BBXX TFGSK 19184 99641 70229 46/// ///// 22200 11012 70062
BBXX TFHFN 19184 99642 70152 46/// ///// 22200 10604 70021
BBXX TFKGR 19184 99657 70136 46/// ///// 22200 10603 70014
BBXX TFSRT 19184 99633 70203 46/// ///// 22200 10909 70046
BBXX TFSTD 19184 99664 70234 46/// ///// 22200 10907 70036
AAXX 19184 78062 12669 60813 10218 20136 40243 60001 86501 333 58040 86640 90908
AAXX 19184 85041 31458 73408 10295 20246 39817 40081 57023 71522 86943 333 56770 58008 85817 81920 85358
AAXX 19184 85140 32470 30000 10325 20237 39882 40088 57016 83200 333 56000 59026 83817
AAXX 19184 85141 32584 43206 10329 20250 39850 40077 57020 84200 333 56700 59030 84820
AAXX 19184 85151 NIL
AAXX 19184 85152 31558 50000 10348 20232 39850 40086 57019 71522 85900 333 56300 59020 84820 81923
AAXX 19184 85230 NIL
AAXX 19184 85201 31465 73509 10105 20013 36286 57011 81522 84332 333 56777 58004 83817 81920 84357 87070
AAXX 19184 85242 32484 50214 10154 20028 36537 57013 84960 333 56100 59001 83820 81923 85357
AAXX 19184 68325 42660 10000 10288 20116 48511 53009 81400 333 10344
BBXX C6IO9 19183 99419 70109 41798 42317 10135 20062 40298 53015 70100 8/065 22243 06155 21401 333// 40803 5//// 80100
BBXX UCKD 19181 99561 10168 41/96 92314 10065 40031 52030 75250 89/// 22253 00080 20707
BBXX MGRH9 19183 99309 31601 41498 60207 10201 20131 40145 54000 71511 84863 22233 00199 20202 315// 40804 5//// 80161
AAXX 19181 14240 11540 80204 10015 21002 30011 40171 52014 60012 76176 885// 333 10035
AAXX 19181 14258 11530 80104 10003 20003 39960 40153 52012 60092 77177 8802/ 333 10012 43006 93106
AAXX 19181 14445 11570 60607 10056 20023 39933 40089 50009 60032 72166 85820 333 10097 85895 81499 92312
AAXX 19184 91925 02580 40905 10293 20202 30068 40128 51010 60001 84200 333 56200 60007 84823 90710 91115 555 60005 11015 59010
AAXX 19184 91929 04560 /1210 10284 20238 30136 40139 51019 69922 700// 333 10284 20261 69927 90710 91118 555 69925
AAXX 19184 91938 01580 22304 10292 20219 30143 40145 51017 60002 702// 82200 333 10292 20238 60007 82820 90710 91105 555 60005 12305 58004
AAXX 19184 91943 16/// /0518 10246 20229 30137 40139 52020 69922 333 10281 59004
AAXX 19184 91944 06/// /0709 10276 20216 30148 40151 51012 69922 333 10284 20253 69927 90710 91112 555 69925
AAXX 19184 91948 01475 50303 10268 20206 30083 40185 51011 60001 71511 85203 333 56105 60007 85816 90710 91110 555 60005 10510 58011
AAXX 19184 91958 02582 50509 10249 20193 30202 40204 51014 60001 85201 333 56209 60007 85823 90710 91113 555 60005 10614 58025
AAXX 19184 91945 NIL
AAXX 19184 91954 NIL
BBXX 3FZK3 19184 99533 71412 46/// /2029 10062 20062 49919 56006 7//// 8//// 22233 0//// 2////
BBXX 46026 19181 99378 71228 46/// /3402 10087 40201 52008 91750 22200 00109 11506 20401 328// 41506 70031 333 91203 555 11019 22020 31744 43303 61749 329018 258018 273021 270019 275021 282024
BBXX 46028 19181 99357 71219 46/// /3504 10114 40179 53006 91750 22200 00129 11506 20401 331// 41506 70029 333 91206 555 11045 22046 31653 43406 61749 347042 342041 345042 346042 353044 346048
BBXX 46054 19181 99342 71204 46/// /3104 10122 40187 91750 22200 00139 11504 20401 300// 41504 70021 333 91205 555 11046 22048 31745 43005 61749 309043 318037 327032 325026 336032 335029
BBXX CG2958 19184 99521 71279 46/// /2018 10074 20066 40198 58021 7//// 8//// 22282 0//// 2////
BBXX CG2965 19184 99487 71235 46/// /0000 10060 20050 40308 58004 7//// 8//// 22200 0//// 2////
BBXX CGBR 19184 99543 71303 46/// /1408 10056 20055 40070 56034 7//// 8//// 22200 0//// 2////
BBXX CGBY 19184 99487 71235 46/// /0000 10056 20044 40307 57004 7//// 8//// 22200 0//// 2////
BBXX CGDR 19184 99491 71231 46/// /0504 10056 20055 40311 55001 7//// 8//// 22211 00078 2////
BBXX CGJK 19184 99484 71234 46/// /2007 10069 20055 40309 57004 7//// 8//// 22200 0//// 2////
BBXX SHIP 19184 99345 71413 43498 80915 10170 20120 40290 52010 70322 8877/ 22264 00187 20604 329// 40605 80140
BBXX WFLG 19184 99301 71340 41498 20415 10167 20119 40275 53015 70200 8116/ 22264 00144 20302 330// 40806 5//// 6//// 80139 ICE /////
BBXX WSRH 19184 99393 71244 41498 20325 10094 20050 40245 57010 7//00 81//8 22235 00100 20404 335// 40506 5//// 6//// 80072 ICE /////
BBXX LAHV 19181 99589 10057 43/// /1703 10028 20006 40031 222// 04071 1////
BBXX LDGJ 19181 99603 10053 43/// /1503 10032 21001 40027 5//// 222/0 04081 1//// 3//// 4//// 5////
BBXX LF4H 19184 99596 10022 46/// /1406 10039 21007 40014 57012 8//// 22200 06081 333 91118
BBXX LGWS 19181 99301 70101 43/// /3211 10173 20140 40182 5//// 222/0 04179 1//// 3//// 4//// 5////
BBXX LMEL 19181 99603 10053 43/// /1403 10028 20004 40023 5//// 222/0 04085 1//// 3//// 4//// 5////
AAXX 19184 48373 31930 20000 10200 20184 30066 40130 57008 71000 80001 333 59027
AAXX 19184 48420 31958 30404 10237 20176 30113 40117 57011 71011 80005 333 59016
AAXX 19181 26038 01262 81806 10013 20007 39912 49953 53011 69962 76176 8872/ 333 10021 20010 69967 88506 91010 91110 555 1/001 20010 3/001 50015 52000
AAXX 19181 26045 NIL
AAXX 19181 26058 NIL
AAXX 19181 26115 NIL
AAXX 19181 26135 01221 82003 10002 20000 39910 49984 53016 60062 77176 8872/ 333 10013 20001 60027 88504 91108 555 1/000 20001 3/100 50009 52100
AAXX 19181 26141 01238 82008 10002 21002 39834 49982 53013 60032 77176 8872/ 333 10009 21001 60027 88505 91012 91114 555 1/100 21001 3/100 50006 52100
AAXX 19181 26231 01357 82110 10027 20018 39972 49987 52023 69992 76186 8872/ 333 10031 20021 60037 88507 91015 91120 555 1/002 20021 3/002 50026
AAXX 19181 26242 01361 81907 10013 20002 39930 40017 52014 60032 76362 8872/ 333 10015 20007 60017 88509 91013 91117 555 1/001 20007 3/000 50012 52000
AAXX 19181 26247 01257 82009 10016 20005 39954 40034 52017 60042 76876 8872/ 333 10020 20007 69947 88507 91014 91116 555 1/001 20007 3/000 50015
AAXX 19181 38353 429// 03002 11209 21242 39537 40560 52019 333 11152
AAXX 19181 38613 429// 00101 11074 21118 40437 52012 333 11030
AAXX 19181 38616 425// 50000 11070 21091 39347 40131 52013 82531 333 11003
AAXX 19181 38345 32998 80000 11204 21244 38942 48590 52004 8802/ 333 11094
AAXX 19181 36911 429// 60901 11233 21258 39442 40543 54000 86010 333 11146
AAXX 19181 36974 116// 80000 11134 21161 38023 48595 54000 69970 77172 8802/ 333 11080
AAXX 19181 36982 425// 41803 11190 21216 36490 47146 52009 82550 333 11147
AAXX 19184 47090 32970 00000 11014 21180 30253 40276 55001 333 92020
AAXX 19184 47095 32965 00000 11118 21142 30112 40316 53002
AAXX 19184 47097 329// /0902 11091 21111 30207 40310 53005
AAXX 19184 47098 329// /3603 11085 21131 30163 40307 52004
AAXX 19184 47099 329// /0502 11098 21112 30271 40310 52005
AAXX 19184 47100 32970 02302 11137 21171 39337 40326 52016
AAXX 19184 47102 32970 02910 10009 21094 30120 40304 54000
AAXX 19184 47104 32970 01406 11026 21153 30175 40276 55002
AAXX 19184 47106 329// /2003 11018 21130 30223 40274 55003
AAXX 19184 47112 32965 03603 11029 21140 30220 40308 53005 333 92012
AAXX 19184 47114 32965 00202 11080 21113 30115 40310 52008
AAXX 19184 47119 31958 00000 11074 21089 30265 40310 52008 71000
AAXX 19184 47121 329// /2702 11094 21114 31000040315 40315 53007
AAXX 19184 47127 329// /0000 11083 21105 30160 40311 53005
AAXX 19184 47129 31958 00902 11058 21073 30276 40314 53004 71000
AAXX 19184 47130 32970 02503 11029 21124 30212 40277 54000 333 92022
AAXX 19184 47131 31958 02701 11053 21075 30237 40312 53007 71000
AAXX 19184 47135 329// /0001 11058 21083 39994 40310 53010
AAXX 19184 47136 32961 01401 11063 21091 30117 40299 53003
AAXX 19184 47137 329// /1802 11032 21107 30177 40301 53005
AAXX 19184 47140 32661 10001 11030 21051 30281 40311 52009 81500 333 92011
AAXX 19184 47143 32963 02702 11005 21079 30224 40306 53008
AAXX 19184 47145 32960 00000 11072 21085 30277 40305 53007
AAXX 19184 47146 31956 01601 11035 21052 30241 40310 52011 71000
AAXX 19184 47150 32965 00203 11032 21060 30287 40307 53007
AAXX 19184 47152 32970 03411 10003 21089 30236 40280 51001
AAXX 19184 47154 329// /3602 11043 21082 30240 40304 53009
AAXX 19184 47155 32963 01404 10010 21054 30242 40289 50004
AAXX 19184 47156 32961 00501 11008 21025 30215 40308 52006
AAXX 19184 47157 32961 03202 11056 21072 30010 40295 52010
AAXX 19184 47162 32963 00001 10002 21040 30245 40287 51001 333 92021
AAXX 19184 47169 32970 03604 10060 20005 30206 40301 53009 333 92023
AAXX 19184 47170 32961 00001 10012 21018 30252 40297 52007 333 92021
AAXX 19184 47171 329// /1102 11030 21047 30254 40312 52011
AAXX 19184 47172 329// /0501 11027 21042 30234 40304 52009
AAXX 19184 47173 329// /3401 11054 21066 30192 40310 52012
AAXX 19184 47174 32962 02706 11009 21044 30089 40299 54000
AAXX 19184 47175 32562 23412 11006 21034 39706 40299 53003 81500 333 92025
AAXX 19184 47185 32670 43608 10066 21010 30208 40300 52012 81501 333 92023
AAXX 19184 47188 32665 33605 10039 21010 30270 40292 53006 81501 333 92022
AAXX 19184 47189 32675 33403 10068 20020 30226 40287 53007 81501 333 92022
AAXX 19184 47192 31950 00001 11049 21064 30256 40295 52002 71000
AAXX 19184 16622 12360 89903 10080 20071 30129 40139 56005 69922 8772/ 333 10084 85708 85625 88458 90730 91110 555 10000 40068 30000 10080 2//// 30104 4//// 5//// 40000 47627 44220 50000 50076 60000 60002 60200
AAXX 19184 16641 11460 70906 10106 20073 30096 40102 58002 60192 76096 86870 333 10122 83818 85625 87358 90730 91115 555 10000 40088 40000 47604 44220 50000 50090 60000 60186 60435 70000 77R// 7TRV/
AAXX 19184 16682 11460 80000 10118 20103 30095 40114 54000 60022 70262 85858 333 10162 82818 85620 85358 90730 91104 555 10000 40098 30000 10125 20130 30134 40136 50140 60190 40000 47604 44215 50000 50110 60000 60015 60030 70000 77/// 7R///
AAXX 19184 16716 11460 81704 10132 20113 30110 40129 52005 60062 76366 8682/ 333 10166 83818 86625 88459 555 10000 40132 40000 47609 44170 50000 50122 60000 60057 60630 70000 77R// 7R///
AAXX 19184 16734 17/// /0503 10106 20095 30073 40134 52009 60102 7414/ 333 10174 90730 91123 555 10000 40105 60000 60105 60454
AAXX 19184 16743 NIL
AAXX 19184 16749 12560 81105 10164 20128 30156 40171 56002 60002 8451/ 333 10182 84620 88457 90730 91115 555 10000 40164 40000 47653 44240 50000 50144
AAXX 19184 16754 12560 61815 10160 20095 30098 40145 53003 60002 81206 333 10196 81825 86068 90730 91123 555 10000 40160 40000 47605 44200 50000 50126
AAXX 19184 47101 32970 00202 11089 21120 30210 40313 53004
AAXX 19184 47105 369// /2707 11013 21151 30244 40277 55003
AAXX 19184 47108 32970 03405 11026 21174 30194 40305 53002
AAXX 19184 47115 41568 60504 10020 21032 39979 40257 57007 78588 86800 333 92032
AAXX 19184 47133 31958 03401 11048 21067 30223 40313 53008 71000
AAXX 19184 47138 32968 02306 10001 21088 30280 40283 53005 333 92022
AAXX 19184 47159 32970 02506 10009 21086 30192 40280 54000 333 92022
AAXX 19184 47165 31959 00503 11010 21032 30254 40303 52008 71000 333 92021
AAXX 19184 47168 32965 02905 10016 21060 30204 40286 55005 333 92022
AAXX 19184 47184 32680 31605 10035 21028 30274 40300 53008 81501 333 92022
AAXX 19184 48358 31958 00000 10146 20135 39974 40157 57014 71000 333 59028
AAXX 19184 48384 31958 01003 10171 20150 39951 40148 57008 71000 333 59024
AAXX 19184 17024 12570 61715 10176 20047 30103 40180 57008 60002 84550 333 10182 84632 86360 91126 92438
AAXX 19184 17056 11670 71101 10115 20114 30135 40139 55003 60052 72582 84270 333 10117 84835 87360 91111 92448
AAXX 19184 17067 12670 71004 10141 20080 30129 40151 58005 60002 87200 333 10173 87840 92408
AAXX 19184 17092 12960 42703 11047 21062 38967 48574 52007 60002 80006 333 10062 84270
AAXX 19184 17112 12667 71914 10158 20109 30125 40127 52003 60002 84230 333 10167 84835 87360 91125 92437
AAXX 19184 17115 12660 62004 10144 20092 30089 40140 57003 69942 83250 333 10151 83835 86360
AAXX 19184 17116 12665 62502 10116 20085 30030 40151 57004 60002 84250 333 10150 84835 86360 91107
AAXX 19184 17188 12660 60803 10084 20046 39124 40185 56002 60002 84250 333 10140 84840 85360 91110
AAXX 19184 17202 11459 82207 10000 21012 39277 40342 50000 60002 71022 886// 333 10016 88713
AAXX 19184 17248 12975 01003 10065 20016 39016 48520 50000 60002 333 10137
AAXX 19184 17292 11670 61503 10113 20088 39431 40183 55000 69902 70182 84250 333 10132 84835 86360 91113
AAXX 19184 17300 11456 60102 10130 20109 30130 40201 57004 60002 71022 86900 333 10188 81915 85825
AAXX 19184 17310 12670 50000 10144 20099 30198 40205 50000 60002 82270 333 10194 82837 85360 91113 92438
AAXX 19184 17330 12970 42802 10158 20061 30203 40221 55001 60002 80001 333 10191 84070
AAXX 19184 17042 3//// /1001 10074 20046 30189 40230 5//// 60002 333 10171
AAXX 19184 17074 11/03 91301 10038 20036 39285 40238 58005 60002 74711 333 10075 89/03 91103
AAXX 19184 17086 12970 30805 10061 21003 39511 40241 57003 60002 80008 333 10130 83270
AAXX 19184 17088 12970 01002 10040 21041 38874 48564 52008 60002 333 10104
AAXX 19184 17140 12665 70802 10054 20002 38746 48530 57005 60002 87200 333 10104 87840
AAXX 19184 17155 12670 31301 10086 20049 39068 40185 54000 60002 83500 333 10129 83640 91108
AAXX 19184 17203 12970 00000 11008 21048 38982 48615 51005 60002 333 10074
AAXX 19184 17237 12670 52101 10134 20060 39669 40167 57004 60002 85250 333 10182 83835 85360 91112
AAXX 19184 17250 12675 60505 10054 20011 38845 48532 50003 60002 83550 333 10139 83640 86360
AAXX 19184 17270 12970 02802 10078 20018 39618 40279 52002 60002 333 10150
AAXX 19184 17295 12560 70402 10144 20118 30175 40182 55002 69922 84250 333 10186 84825 86360
AAXX 19184 17320 12670 33604 10132 20092 30207 40212 53002 60002 83200 333 10179 83835 92448
AAXX 19184 17375 12670 70103 10143 20114 30203 40205 52002 69942 82151 333 10192 82836 84360 87070 91106 92438
AAXX 19184 17022 12962 81610 10176 20049 30004 40167 57010 60002 83037 333 10178 83360 88270 91021 91121 92437
AAXX 19184 17031 12970 41004 10067 20055 30200 40206 57008 60002 84030 333 10178 84360
AAXX 19184 17038 11956 52103 10098 20065 30170 40221 57012 60002 71011 85030 333 10147 85360 92426
AAXX 19184 17050 11658 82902 10045 20044 30077 40140 55004 60202 76166 8552/ 333 10070 85633 88458 91110
AAXX 19184 17060 12560 70903 10147 20076 30109 40149 58004 60012 85250 333 10156 85830 86359
AAXX 19184 17096 12960 02503 11120 21120 38332 48605 51005 60002 333 11053
AAXX 19184 17124 12660 70807 10081 20050 39274 40192 50001 60002 82507 333 10116 82640 86270
AAXX 19184 17128 12660 69902 10049 20028 39123 40240 56001 60002 82101 333 10119 82840 86068
AAXX 19184 17170 NIL
AAXX 19184 17195 12970 30514 10055 20005 39017 48531 57007 60002 80001 333 10096 83070
AAXX 19184 17199 11558 81603 10018 21006 39197 40329 50001 60002 71022 8562/ 333 10031 82720 84635 88459
AAXX 19184 17219 11565 71907 10144 20114 30007 40149 56006 60032 78082 84250 333 10173 84830 87360 91128
AAXX 19184 17240 12570 61111 10082 20037 39051 40193 57006 60002 83250 333 10098 83830 86360 91124
AAXX 19184 17244 12670 62104 10050 20036 39027 48519 58002 60002 82107 333 10108 82840 86268
AAXX 19184 17280 11401 73102 11026 21031 39481 40306 58001 60002 74422 87700 333 10065 87710
AAXX 19184 17350 12960 50609 10130 20051 30146 40225 51003 60002 80001 333 10190 85070
AAXX 19184 17500 NIL
AAXX 19184 17501 12560 32006 10157 20077 30179 40198 50002 60002 81101 333 81825 83070 92437
AAXX 19184 17505 12560 30706 10132 20093 30102 40216 50004 60002 81101 333 81825 83070
AAXX 19184 17507 NIL
AAXX 19184 17510 12560 41206 10156 20102 30180 40190 55000 60002 81101 333 10180 81830 83070 92427
AAXX 19184 17515 12560 30000 10114 20073 30051 40229 51002 60002 81101 333 81825 83070
AAXX 19184 17521 12960 20904 1118 20085 30065 40203 58001 60002 80001 333 10189 82070
AAXX 19184 17530 12560 30610 10140 20091 30158 40215 58001 60002 81101 333 81825 83070
AAXX 19184 17535 12560 40207 10147 20091 30162 40198 58001 60002 81101 333 81825 84070
AAXX 19184 17540 NIL
AAXX 19184 17547 NIL
AAXX 19184 17550 12560 40612 10148 20078 30065 40211 50004 60002 81101 333 81825 84070 92437
AAXX 19184 17572 12560 4//// 10161 20107 30197 40222 56002 60002 81101 333 10181 81830 83070 92427
AAXX 19184 17026 12970 21505 10155 20061 30153 40192 57007 60002 80001 333 10163 82070 91118 92428
AAXX 19184 17034 12970 42002 10107 20057 30176 40222 57006 60002 84030 333 10147 84360 92428
AAXX 19184 17070 12565 71801 10089 20057 39328 40194 58003 60002 83550 333 10134 83630 86360 91108
AAXX 19184 17084 12670 60000 10032 20012 39326 40252 57002 60002 83550 333 10117 83635 86360 91103
AAXX 19184 17090 12965 61101 10025 21025 38791 48554 54000 60002 86030 333 10068 86360
AAXX 19184 17098 12960 03106 11129 21133 38304 48617 50002 60002 333 11022
AAXX 19184 17150 12660 62006 10143 20089 30026 40149 57004 69902 83250 333 10164 83835 85360
AAXX 19184 17160 12670 53601 10045 20009 39058 48522 57006 60002 83550 333 10129 83640 85360 91105
AAXX 19184 17184 12670 71402 10140 20093 30045 40155 55004 60002 84270 333 10168 84840 87360 91110
AAXX 19184 17189 12660 51512 10097 20014 39037 48508 57004 60002 82550 333 10142 82635 85360
AAXX 19184 17210 11940 00000 10023 20012 39123 40181 58001 60002 71000 333 10059
AAXX 19184 17234 12970 41006 10168 20084 30099 40166 57005 60002 84030 333 10182 84360 91111
AAXX 19184 17260 12960 03404 10039 20019 39445 40286 51003 60002 333 10122
AAXX 19184 17290 12670 71512 10174 20120 30139 40170 54000 60002 84270 333 10180 84835 87359 91125 92438
AAXX 19184 17370 12965 01602 10148 20055 30221 40225 57002 60002 333 10184 92417
AAXX 19181 14241 11458 80106 10012 21004 30037 40171 53012 60032 77176 885// 333 10024 84718 88630
AAXX 19181 14284 11330 80205 10003 21002 30025 40137 52007 60042 77177 887// 333 10032 43001 93101
AAXX 19181 14307 32982 10202 10040 21059 30074 40152 52016 80002 333 10075
AAXX 19181 14317 NIL
AAXX 19181 14431 11670 83602 10041 21011 30017 40112 51011 60022 70162 888// 333 10067
AAXX 19181 14444 11565 70204 10061 20033 30065 40094 52011 60102 70226 85570 333 10100
AAXX 19181 14474 11470 53503 10068 20036 39903 40094 53004 60182 72196 84830 333 10086
AAXX 19184 06011 07356 71907 10042 20028 39874 49942 57014 60062 76186 333 10059 20027 55300 20000 60067 81/09 83/14 85/17 87/22 91122
AAXX 19184 16643 11460 50509 10100 20079 30118 40123 56002 60032 70192 83850 333 10140 82818 83635 85360 90730 91114 555 10000 40094 40000 47618 44200 50000 50090 60000 60030 60210 70000 77/// 7T///
AAXX 19184 16648 11458 80000 10078 20069 30045 40135 50000 69902 71062 8562/ 333 10086 83710 84635 88458 90730 91105 555 10000 40064 30000 10084 2//// 30092 40082 5//// 6//// 40000 47565 44220 50000 50074 60000 65555 60015 70000 77Y// 7RY//
AAXX 19184 16650 11256 82108 10130 20119 30114 40118 53001 60502 76366 8567/ 333 10134 83706 85630 88358 90730 91124 555 10000 40112 30000 10120 20120 30122 40120 50124 60140 40000 47615 44210 50000 50124 60000 60500 61120 70000 77R// 7R///
AAXX 19184 16684 11458 82013 10130 20107 30080 40107 51002 60172 76162 8667/ 333 10142 82712 85618 88358 90730 91125 555 10000 40122 40000 47592 44220 50000 50118 60000 60168 60800 70000 77R// 7R///
AAXX 19184 16732 12570 71517 10170 20111 30127 40139 55004 60002 82238 333 10188 82820 83359 87268 90730 91125 555 10000 40162 40000 47621 44160 50000 50138
AAXX 19181 26106 11/97 81909 10028 20000 40053 52022 60052 78085 889// 333 10031 91015 91119
AAXX 19181 26313 11/// 82204 10013 20007 40001 52025 60072 76162 8872/ 333 10022
AAXX 19181 26346 11597 82007 10010 21020 40069 52017 69952 72682 884// 333 10015 88923 91013 91117
AAXX 19181 26406 12997 62309 10056 20018 40045 52023 60012 86050 333 10059 91015 91120
AAXX 19181 26416 33/// /2105 10024 20013 40045 52023 333 10027 91010 91114
AAXX 19181 26424 11497 82207 10019 20005 40058 52019 60082 78082 889// 333 10027 88913 91014 91119
AAXX 19181 26544 12597 72107 10021 21045 40126 52014 69912 86330 333 10029 91011 91115
AAXX 19184 16614 11320 80000 10030 20021 39352 40141 52003 60042 76162 8762/ 333 10033 83708 87620 88457 90730 91104 555 10000 40002 60000 60039 60710 70000 77RY/ 7RY//
AAXX 19184 16627 NIL
AAXX 19184 16667 11460 81519 10160 20124 30140 40146 56003 69962 76062 8582/ 333 10180 82818 85620 88458 90730 91130 555 10000 40150 30000 20140 30144 40000 47635 44200 50000 50140 60000 60006 60020 70000 77R// 7R///
AAXX 19184 16675 NIL
AAXX 19184 16710 36/// /0904 10065 20053 39374 40148 52012 333 10118 90730 91116 555 10000 40064
AAXX 19184 16723 12460 71715 10160 20124 30138 40154 57008 60002 86870 333 10180 83818 85625 87357 90730 91120 555 10000 40160 40000 47637 44230 50000 50140
AAXX 19184 16738 17/// /9904 10154 20103 39938 40134 54000 69902 741// 333 10175 90730 91117 555 10000 40152 60000 65555 6////
AAXX 19184 16746 12560 62005 10148 20090 39950 40131 52001 60002 82236 333 10174 82820 83358 86068 90730 91110 555 10000 40130 40000 47493 44200 50000 50118
AAXX 19181 15502 11560 80703 10028 20023 30119 40159 58005 60022 76166 8802/ 333 10034 21008 555 59601 69999 71868
AAXX 19181 15525 11/00 90000 10024 20024 39878 40148 56005 69942 74742 333 10033 21008 555 500//
AAXX 19181 15528 12960 80702 10028 20023 39932 40125 57008 69932 8807/ 333 10040 20008 555 596//
AAXX 19181 15535 11518 80706 10028 20023 30090 40137 57014 60032 71062 885// 333 10030 20004 555 59600 69699
AAXX 19181 15549 11560 80704 10037 20025 39724 40145 57016 60052 70262 886// 333 10040 20014 555 592// 71861
AAXX 19181 15552 11456 80504 10098 20094 30089 40138 57029 60142 76166 8802/ 222// 2//00 314// 4//01 333 10100 20064 555 59703 69999 71857 92024 92425
AAXX 19181 15614 11662 60000 10010 20002 39423 40141 57009 69932 70182 86300 333 10035 20010 555 594// 69199 71853
AAXX 19181 15615 11/00 91812 11084 21094 37033 47963 57001 69972 74974 333 11070 21092 555 592// 69499 71800 92711
AAXX 19181 15626 12962 80000 10020 20009 39952 40144 57007 60002 8802/ 333 10032 20004 42001 555 593//
AAXX 19181 15627 11/00 92008 11042 21047 37555 47986 53001 60012 74944 333 11039 21078 48005 93508 555 596// 92713
AAXX 19181 15640 11540 80000 10076 20054 39818 40130 57014 60152 72162 886// 333 10082 20046 555 58602 69999 718// 93015
AAXX 19181 15655 11420 80706 10098 20090 30103 40136 57003 60152 76364 8802/ 222// 00091 20602 333 10098 20065 555 59504 69999 71849 92036 92435 93015
AAXX 19181 15712 12670 83201 10050 20018 39878 40131 58007 60002 885// 333 10062 20023 555 580//
AAXX 19181 15730 11607 80000 10024 20021 39746 40145 57006 60082 74464 8552/ 333 10030 20001 555 598// 71850
AAXX 19184 93004 16/// /1107 10143 20140 40170 52013 60001
AAXX 19184 93023 16/// /1803 10134 20129 40179 52016 60001
AAXX 19184 93069 16/// /1212 10150 20125 40177 52015 60001
AAXX 19184 93110 17/97 /0302 10122 20118 40180 52016 60001
AAXX 19184 93186 17798 /2103 10135 20107 40191 52020 60001
AAXX 19184 93196 16/// /1717 10136 20082 40179 52026 60001
AAXX 19184 93245 16598 /1203 10097 20050 40200 52017 60001
AAXX 19184 93292 17698 /3204 10123 20095 40196 52019 60001
AAXX 19184 93309 17/98 /1512 10112 20049 40191 52018 60001
AAXX 19184 93334 16/// /0000 10029 20022 39237 52018 60001
AAXX 19184 93339 16/// /0705 10046 20031 39241 52016 60001
AAXX 19184 93373 17/98 /2602 10116 20080 40207 52020 60001
AAXX 19184 93404 17698 /1305 10100 20062 40210 52020 60001
AAXX 19184 93420 17/98 /2008 10109 20054 40208 52018 60001
AAXX 19184 93439 17698 /1510 10124 20062 40212 52014 60001
AAXX 19184 93498 16/// /2305 10109 20071 40208 52019 60001
AAXX 19184 93515 17598 /1403 10129 20129 40205 52013 69921
AAXX 19184 93527 16/// /1003 10130 20090 40210 52017 60001
AAXX 19184 93546 17698 /2703 10126 20106 40207 52015 60001
AAXX 19184 93597 16/// /2104 10104 20072 40216 52015 60001
AAXX 19184 93615 17498 /1605 10132 20119 40205 52015 60001
AAXX 19184 93678 16/98 /2007 10105 20087 40218 52013 60001
AAXX 19184 93709 16/// /0000 10140 20134 40206 52015 60041
AAXX 19184 93773 17498 /3603 10110 20080 40220 52012 60001
AAXX 19184 93781 17/97 /2301 10066 20061 40222 52014 60001
AAXX 19184 93800 NIL
AAXX 19184 93805 NIL
AAXX 19184 93831 16/98 /0101 10064 20062 40220 52018 60001
AAXX 19184 93845 17498 /0301 10103 20085 40215 52009 60001
AAXX 19184 93891 17398 /0000 10099 20092 40219 52010 60001
AAXX 19184 93909 16/// /0807 10087 20072 40215 52011 60001
AAXX 19184 93929 16/// /0000 10072 20066 40222 52012 60001
AAXX 19184 93947 16/// /2307 10069 20056 40211 52016 60001
AAXX 19184 93987 16/// /1909 10102 20069 40146 52021 69941
AAXX 19184 93994 NIL
AAXX 19184 08001 12468 5//// 10116 20061 30195 40277 55001 60002 81801 333 10130 924/7
AAXX 19184 08015 12870 20000 10081 20021 39872 40284 55000 69902 82070 333 10104
AAXX 19184 08023 12560 32813 10114 20042 30202 40274 54000 60022 82831 333 10123
AAXX 19184 08027 11470 82813 10078 20056 39951 40267 53004 60142 76086 887// 333 10084
AAXX 19184 08045 02981 12903 10072 20045 39993 40311 52013 60002 80001 333 10123 60007
AAXX 19184 08141 12975 12101 10030 21014 39412 40298 53006 60002 80001 333 10080
AAXX 19184 08160 12670 62807 10088 20024 39951 40265 53004 60002 81551 333 10115
AAXX 19184 08181 02575 60202 10078 21002 30226 40232 53011 60002 82871 333 10118 60007
AAXX 19184 08221 02975 02105 10058 21028 39588 40289 53008 60002 333 10103 60007
AAXX 19184 08231 12770 32902 10045 21021 39166 48556 51008 60002 83030 333 10077
AAXX 19184 08261 12981 02304 10056 20006 39820 40316 52008 60002 333 10112
AAXX 19184 08284 02782 43208 10104 20010 30176 40253 53012 60002 81444 333 10157 60007
AAXX 19184 08306 12575 32704 10106 20041 30236 40242 53008 60002 81871 333 10137
AAXX 19184 08314 02570 62810 10105 20037 30125 40230 53005 60002 81135 333 10133 60007
AAXX 19184 08430 12980 62806 10102 20003 30193 40269 53005 60002 80001 333 10150
AAXX 19184 08482 12882 22201 10114 20057 30258 40267 53004 60002 81031 333 10164
AAXX 19181 26509 11570 82009 10048 20021 30072 40081 52020 60022 78082 889// 333 10048 88920 91018 91122 555 53022
AAXX 19181 26518 11459 82309 10012 21005 40096 52019 60022 78082 889// 333 10015 88914 91015 91116 555 4/023 53017
AAXX 19181 26524 12498 81906 10022 21003 39954 40088 52019 60032 883// 333 10025 88919 91015 91118 555 53018
AAXX 19181 26531 12570 82107 10025 21018 40094 52021 69902 885// 333 10031 88630 91014 91118 555 53018
AAXX 19181 26629 12797 72208 10022 21024 30039 40136 52013 69902 83530 333 10031 91013 91116 555 53017
AAXX 19181 26633 12770 62005 10021 21047 39999 40131 51014 69902 86500 333 10033 86650 91010 91116 555 53016
AAXX 19181 26730 12670 72007 10019 21042 39963 40157 52012 69901 87500 333 10023 91012 91114 555 53016
AAXX 19181 26645 12697 72306 10014 21038 39894 40157 52015 69942 875// 333 10020 87633 91013 91113
AAXX 19181 26659 12561 61904 10008 21025 39969 40186 52014 69902 86500 333 10023 86629 91111
AAXX 19181 26763 12960 21705 10004 21016 39975 40208 52011 69902 80001 333 10028
AAXX 19181 26825 32664 51904 11002 21020 39987 40174 52012 85500 333 10026 85633 91111
AAXX 19181 26832 32660 72104 10012 21033 39988 40184 52014 87500 333 10029 87635
AAXX 19181 26887 32997 01703 10000 21027 30036 40248 52008 333 10034
AAXX 19181 26961 32961 71803 11003 21034 30029 40227 52011 80005 333 10028
AAXX 19181 33027 32997 81502 10003 21030 30057 40230 52010 83037 333 10045
AAXX 19181 14008 11/93 93208 11158 21172 37384 47916 53006 60022 74344 333 11147 92838 93104 95190
AAXX 19181 14015 11470 81802 10010 21007 39812 40180 52011 60012 70272 8457/ 333 10019 82630 82650 93100
AAXX 19181 14023 11593 72901 11012 21014 39883 40189 53009 60032 74674 86570 333 10013 42003 86627 92811 93102
AAXX 19181 14026 11597 83504 10003 21012 39854 40184 50005 60012 72277 8352/ 333 10009 42002 81623 83656 93101
AAXX 19181 14031 12597 70202 10010 21010 39950 40185 50004 69902 87500 333 10022 87623 93100
AAXX 19181 14105 12999 70605 10049 21031 30157 40162 52012 60002 87070 333 10065
AAXX 19181 14106 12999 70903 10043 21042 30089 40159 52013 60002 87070 333 10072 95000
AAXX 19181 14121 11494 80000 10002 21001 39904 40178 52010 60032 77172 887// 333 10010 42004 88710 92821 93102
AAXX 19181 14122 11565 80000 10013 21008 39981 40183 52010 69962 77172 885// 333 10021 82720 86627 93100
AAXX 19184 65201 31457 61903 10280 20251 30061 40114 70522 82538 333 10345 56000 57632 58004 82612 86280 91109 94463
BBXX BATUK01 19184 99582 70060 46/// /3004 10079 20037 49991 51020 22241 00109
AAXX 19184 60106 32965 43206 10104 20061 40265 53009 80002 333 10148 84070
AAXX 19184 60318 32560 61504 10124 20067 40262 53007 82502 333 10163 82820 85070
AAXX 19181 63332 NIL
AAXX 19181 63333 42980 00000 101532 20075 38186 40216 333 10242 58008
AAXX 19181 63334 42980 00000 10150 20072 37637 40131 333 10240 58009
AAXX 19181 63340 42980 03102 10168 20097 37950 40173 333 10250 58020
AAXX 19181 63402 NIL
AAXX 19181 63450 42580 10603 10143 20040 37757 40165 81500 333 10220 58011 81625
AAXX 19181 63451 42980 0//// 1//// 2//// 38161 4//// 333 10255 58012
AAXX 19181 63453 NIL
AAXX 19181 63460 NIL
AAXX 19181 63471 42980 03601 1//// 2//// 38879 4//// 333 10305 5////
AAXX 19181 63478 NIL
AAXX 19181 NNNN
AAXX 19183 04013 21/10 92002 11018 21030 49906 57003 78687 333 10006 21025 69988 555 3//13
AAXX 19183 04064 32682 52902 11036 21069 49943 57002 8353/ 333 10020 21036 555 3//05
BBXX EIPT 19184 99548 70057 41/96 /3114 10090 20071 40076 51010 70222 8//// 22200 2//// 3//// 4//// 5//// 80080
AAXX 19184 04005 21/20 92310 11014 21063 49892 52001 78688 333 10026 21026 60018 555 3/211
AAXX 19184 04018 21570 52316 11008 21051 49916 57005 72682 85900 333 10009 21024 69938 555 3//25 82921 83644 85650
AAXX 19184 04030 21458 71805 11022 21034 49926 58006 78681 84970 333 10003 21022 60018 555 3//11 82910 84926 86350
AAXX 19184 04048 NIL
AAXX 19184 04063 32684 71508 11002 21046 49908 52008 84520 333 10020 21002 555 3//09
AAXX 19184 04077 NIL
AAXX 19184 04082 32783 52907 10010 21017 49885 52013 82007 333 10015 20000 555 3//11 86256 82656 81646
AAXX 19184 04097 22689 83308 10039 21020 49889 53008 70262 8352/ 333 10045 20030 69938 555 3/308
AAXX 19183 91802 NIL
AAXX 19183 91809 NIL
AAXX 19183 91831 36/// /0706 10270 20222 40167 52006 555 2////
AAXX 19183 91841 36/// /0806 10282 20215 40153 52021 555 20012
AAXX 19183 91843 31498 30607 10272 20233 40149 52016 60001 70110 83200 333 561// 83818
AAXX 19183 91848 36/// /1104 10247 20241 40064 57004 555 20024
AAXX 19181 33924 11996 51005 10060 20046 30182 40194 58023 69982 71062 85070 333 10077
AAXX 19181 33088 32997 51901 11002 21026 30025 40222 53005 85030 333 10043
AAXX 19181 33177 32997 03401 11011 21023 39960 40205 57002 333 10039
AAXX 19181 33261 32997 81503 10015 21005 30088 40276 58001 8807/ 333 10046
AAXX 19181 33275 32997 81003 11004 21019 30061 40293 58002 8805/ 333 10036
AAXX 19181 33301 32997 61002 11014 21040 39926 40217 58003 86030 333 10045
AAXX 19181 33325 32997 81603 10010 21016 39961 40235 54000 80009 333 10036
AAXX 19181 33377 32997 81001 10014 21006 30074 40273 58005 8807/ 333 10036
AAXX 19181 33415 32997 61105 11012 21044 39794 40206 57011 80009 333 10030
AAXX 19181 33429 32997 00904 11017 21028 39779 40216 58009 333 10034
AAXX 19181 33466 31959 81101 10010 21001 30061 40254 57006 71022 8807/ 333 10041
AAXX 19181 33526 32960 20000 11039 21058 39842 40197 57007 82030 333 10023
AAXX 19181 33562 32597 81104 11002 21014 39859 40231 57006 8655/ 333 10025 86621
AAXX 19181 33614 32362 80702 10023 20004 30158 40265 57006 885// 333 10060 88708
AAXX 19181 33761 31996 80803 10020 20007 39996 40224 57013 71042 8805/ 333 10020
AAXX 19181 33902 11597 82502 10042 20011 30144 40211 58018 69902 70282 889// 333 10058
AAXX 19181 33983 11/92 90602 10066 20066 30167 40228 57007 69902 74542 333 10093
AAXX 19181 34415 32997 70902 10009 20001 30180 40279 58018 87050 333 10025
AAXX 19181 34523 NIL
AAXX 19181 34712 11497 81007 10047 20042 30166 40253 58014 60032 70264 8772/ 333 10064 88713
AAXX 19184 06030 01660 12410 10022 20000 30030 40046 52007 69902 72581 81501 333 10062 20022 6///7 81645 91131 91220
AAXX 19184 06060 01570 22106 10016 20001 30000 40066 58001 69902 70181 82800 333 10052 20014 6///7 81825 91127 91219
AAXX 19184 06070 05/83 02206 10026 21004 30040 40070 52007 6///2 333 10052 20025 6///7 91124 91216
AAXX 19184 06120 36683 52110 10024 20014 30064 40090 52004 333 10046 20023 81/34 85/69 91124
AAXX 19184 06180 02575 32414 10036 20017 30081 40087 52017 6///2 83501 333 10058 20032 6///7 81625 83649
AAXX 19184 06193 07563 32528 10050 20025 30075 40086 52019 69912 70010 333 10055 20044 55300 20000 6///7 81/23 83/50
AAXX 19184 84688 31459 83604 10150 20094 36663 70223 886// 333 569// 58002 83615 86640
AAXX 19184 84425 31558 80000 10304 20242 39902 40110 71522 8523/ 333 5689/ 58003 85820 85360
AAXX 19184 84628 34960 32609 10227 20182 30106 40122 70141 80001 333 56001 59007 83073
AAXX 19184 84501 31559 21907 10208 20161 30091 40118 70511 82600 333 56000 59015 82725
AAXX 19184 84474 31660 70000 10314 20245 39747 7022/ 87700 333 56900 58/// 87740
AAXX 19184 84534 41220 8//// 10240 20204 39380 40097 7636/ 8572/ 333 5699/ 58/// 60151 85710 88457
AAXX 19184 84401 31960 02009 10313 20197 30063 40106 70200 333 59018
AAXX 19184 84720 31960 29904 10330 20205 39474 40140 70100 80001 333 56009 59012 82070
AAXX 19184 84686 31665 80000 10124 20065 36871 70222 8652/ 333 56990 58001 81636 85656 85460
AAXX 19184 84686 31665 80000 10124 20065 36871 70222 8652/ 333 56990 58001 81636 85656 85460
AAXX 19184 84564 31560 10716 10230 20158 38138 7022/ 8222/ 333 5611/ 58007 82822 84640 84463
AAXX 19184 84752 32960 02709 10193 20010 37520 70200 333 59011
AAXX 19184 84472 31860 41805 10217 20115 37389 70120 84030 333 56900 59009 84357
AAXX 19184 84531 31962 31915 10240 20167 30078 40095 70300 83001 333 56009 58/// 83074
AAXX 19184 84531 31962 31915 10240 20167 30078 40095 70300 83001 333 56009 58/// 83074
AAXX 19184 84686 21665 80000 10124 20065 36871 72522 8652/ 333 56990 58001 69921 81636 85656 85460
AAXX 19181 13160 11595 80403 10000 21003 30033 40145 54000 60062 77377 8802/ 333 10024 93104 4/004
AAXX 19181 13262 11594 80000 10009 20002 39976 40129 52011 60072 77177 8802/ 333 10037 93197
AAXX 19181 13272 11670 81103 10046 21010 39998 40119 51006 69962 72162 8552/ 333 10063 85633 88458
AAXX 19181 13285 11698 81407 10044 21002 30025 40129 50000 69902 72162 885// 333 10066 91012 91115
AAXX 19181 13289 11/91 91109 11038 21043 38914 48412 58002 60032 77374 333 11037 4/007 91024 91124 93107
AAXX 19181 13376 32898 61104 10035 21002 39853 40119 51005 86070 333 10063
AAXX 19181 13388 12697 80502 10052 20006 39876 40126 58001 69902 8157/ 333 10074
AAXX 19181 13462 11460 80402 10053 20042 30065 40105 57007 60262 76186 8552/ 333 10070 82710 85630 88457
AAXX 19181 13473 NIL
AAXX 19181 13489 11495 81802 10042 20031 39605 40129 54000 69912 71022 886// 333 10050
AAXX 19184 78615 32482 80000 10244 20201 30042 40180 58018 8355/ 333 10248 20194 30/// 5629/ 59038 83616 86359
AAXX 19184 78627 31982 01810 10210 20074 38171 58015 70241 333 10216 20044 30/// 54306 59027
AAXX 19184 78637 11482 83008 10236 20210 30160 40176 58013 69931 70352 8352/ 333 10244 20200 31/// 5689/ 59025 83616 88458
AAXX 19184 78641 32582 23616 10222 20116 38558 40153 58008 82500 333 10224 20115 30/// 56800 59020 82620
AAXX 19184 78647 31982 01808 10306 20208 30126 40133 58020 70240 333 10310 20192 30/// 59008
AAXX 19184 08055 12970 12508 10016 21028 39205 48552 53004 60002 80001 333 10074 95090
AAXX 19184 08075 12680 52003 10016 21013 39227 48549 53004 60002 81641 333 10057
AAXX 19184 08084 02670 62809 10088 20002 39834 40273 53007 60002 82541 333 10102 60007
AAXX 19184 08171 NIL
AAXX 19184 08184 06/// /0402 10049 21005 30069 40229 53013 60002 333 10112 60007
AAXX 19184 08202 NIL
AAXX 19184 08235 12470 3//// 10036 21026 39208 48547 53003 60002 82501 333 10070
AAXX 19184 08238 12782 73505 10118 20020 30172 40231 53018 60002 82542 333 10139
AAXX 19184 08280 12970 12807 10046 21012 39446 40292 53014 60002 81041 333 10086
AAXX 19184 08330 12980 00000 10074 21010 30063 40300 52009 60002 333 10130
AAXX 19184 08348 12965 02402 10059 20007 39544 40300 53008 60002 333 10098
AAXX 19184 08360 02970 02404 10082 21011 30227 40265 53013 60002 333 10144 60007
AAXX 19184 08373 02970 33102 10080 20020 30230 40252 53006 69902 80001 333 10145 60007
AAXX 19184 08410 02982 00704 10095 20006 30171 40284 53010 60002 333 10136 60007
AAXX 19184 08419 02875 72301 10053 20005 39595 40283 53008 60002 81026 333 10129 60007
AAXX 19184 08451 06/// /0209 10115 20040 30239 40273 53013 60002 333 10179 60007
AAXX 19184 08487 02475 23602 10108 20019 30241 40267 53007 60002 82101 333 10154 60007
AAXX 19184 71102 NIL
AAXX 19184 71105 NIL
AAXX 19184 71107 NIL
AAXX 19184 71110 NIL
AAXX 19184 71111 17561 82804 10093 20079 30054 40062 55021 60071 76144 333 10095 20009 70113
AAXX 19184 71112 16/// ///// 60001 333 70000
AAXX 19184 71113 16/// /1602 10049 20045 30287 40311 51004 60001 333 10062 20037 70000
AAXX 19184 71115 16/// /1101 11026 21042 39708 40308 51006 60001 333 11026 21064 70006
AAXX 19184 71116 16/// /1408 11032 21046 39121 40239 56017 60001 333 11032 21100 70007
AAXX 19184 71118 16/// /2210 11057 21082 39304 40146 58028 60001 333 11057 21130 70000
AAXX 19184 71121 16964 02311 11028 21104 39284 40118 56025 60001 333 11028 21097 70000
AAXX 19184 71127 16/// /2412 11023 21061 39197 40124 58020 60001 333 11023 21091 70010
AAXX 19184 71130 15966 01812 11095 21128 39716 40185 58021 60001 333 11073 21146 70000
AAXX 19184 71132 15966 80603 11097 21112 39642 49956 58060 60001 333 11097 21151 70000
AAXX 19184 71133 NIL
AAXX 19184 71139 NIL
AAXX 19184 71141 NIL
AAXX 19184 71142 15966 02020 11055 21063 39233 40227 58020 60001 333 11055 21141 70000
AAXX 19184 71143 NIL
AAXX 19184 71144 NIL
AAXX 19184 71147 16/// /2608 11052 21077 60001 333 11025 21055 70003
AAXX 19184 71149 NIL
AAXX 19184 71300 NIL
AAXX 19184 71301 17/// ///// 11060 21070 39684 40085 51051 69951 7//4/ 333 10006 21060 70072 555 10100
AAXX 19184 71302 16/// /1917 11001 21040 39343 40168 57020 60001 333 10000 21059 70000
AAXX 19184 71303 46/// ///// 10061 20030 6///1 333 10061 20019 7////
AAXX 19184 71305 15966 82512 11030 21072 39662 49953 56027 60001 333 11029 21159 70000
AAXX 19184 71306 17524 83018 11120 21143 39967 49999 58005 60001 771// 333 11098 21135 70000
AAXX 19184 71307 16/// /2413 10068 20029 39875 40125 58010 60001 333 10068 20009 70000
AAXX 19184 71308 16/// /3307 11019 21077 30075 40161 56022 60001 333 11009 21035 70003
AAXX 19184 71309 NIL
AAXX 19184 71310 16/// /2104 11019 21101 30117 40154 56034 60001 333 11015 21048 70000
AAXX 19184 71311 NIL
AAXX 19184 71312 16/// /2011 11098 21133 39713 40182 57022 60001 333 11075 21160 70000
AAXX 19184 71314 16/// /2711 10042 20011 39724 40074 50002 60001 333 10043 21021 70000 555 10050
AAXX 19184 71315 NIL
AAXX 19184 71316 16/// /2311 11011 21082 39389 40079 58032 60001 333 11011 21121 70000
AAXX 19184 71317 NIL
AAXX 19184 71318 16/// /2114 11063 21084 39197 40166 58028 60001 333 11062 21145 70000 555 10050
AAXX 19184 71319 17/// /2308 11080 21084 39150 40023 56035 60051 7//4/ 333 11080 21185 70045
AAXX 19184 71320 16/// /3116 11263 21287 39852 49853 53007 60001 333 11180 21263 70000
AAXX 19184 71321 NIL
AAXX 19184 71322 17/// /2406 11263 21290 30037 40050 58035 60021 7//4/ 333 11263 21302 70024
AAXX 19184 71323 NIL
AAXX 19184 71331 16/// /2005 11088 21118 60001 333 11082 21106 70000
AAXX 19184 71332 NIL
AAXX 19184 71334 NIL
AAXX 19184 71335 46964 02619 11167 51006 6///1 333 11161 21191 7////
AAXX 19184 71336 46/// ///29 11015 21048 30061 40083 56014 6///1 333 11010 21034 7////
AAXX 19184 71337 46/// /3603 11067 21114 39892 40135 58027 6///1 333 11059 21130 7////
AAXX 19184 71338 46964 31807 11198 21271 39829 49836 55000 6///1 333 11143 21264 7////
AAXX 19184 71339 17964 02204 11065 21223 30115 40130 56024 69951 7//44 333 11061 21209 70005
AAXX 19184 71340 NIL
AAXX 19184 71341 NIL
AAXX 19184 71342 NIL
AAXX 19184 71343 NIL
AAXX 19184 71344 NIL
AAXX 19184 71345 NIL
AAXX 19184 71346 NIL
AAXX 19184 71347 NIL
AAXX 19184 71348 NIL
AAXX 19184 71349 NIL
AAXX 19184 71812 46764 62307 11263 21306 30036 40050 58035 6///1 333 11263 21301 7////
AAXX 19184 71819 15966 02610 11077 21119 30102 40145 56025 60001 333 11074 21204 70000
AAXX 19184 71820 16/// /2319 10065 20023 39962 40076 57013 60001 333 10066 21030 70000
AAXX 19184 71823 16764 61003 11139 21159 39623 40010 56019 60001 333 11134 21200 70010
AAXX 19184 71824 NIL
AAXX 19184 71826 17/// /2713 11154 21175 39823 49866 53032 60031 7//4/ 333 11117 21199 70031
AAXX 19184 71829 17/// /1213 11072 21085 39879 40042 56058 60051 7//4/ 333 11072 21156 70048
AAXX 19184 71833 46/// /2610 10047 20013 6///1 333 10047 21020 7////
AAXX 19184 71835 16/// /3010 11102 21126 39698 40191 51015 60001 333 11092 21112 70000 555 10010
AAXX 19184 71837 NIL
AAXX 19184 71839 NIL
AAXX 19184 71840 NIL
AAXX 19184 71846 16/// /2909 11112 21141 39852 40177 51021 60001 333 11111 21123 70005 555 10060
AAXX 19184 71847 NIL
AAXX 19184 71848 NIL
AAXX 19184 71849 NIL
AAXX 19184 71043 11532 82804 11170 21214 39852 49946 52015 60011 78577 885// 333 11146 21257 48022 70012 90973 93101
AAXX 19184 71045 16/// /0404 11073 21087 39160 40020 58010 60001 333 10001 21098 70000 555 10010
AAXX 19184 71050 NIL
AAXX 19184 71051 NIL
AAXX 19184 71052 NIL
AAXX 19184 71066 12974 10000 11021 21087 39567 49990 56009 6001 81041 333 11017 21214 70000
AAXX 19184 71068 12974 72413 10017 21040 39354 40050 58015 60001 85072 333 10021 21141 70000
AAXX 19184 71069 16964 33006 10023 21037 39356 40063 58024 60001 333 10026 21128 70000
AAXX 19184 71076 16/// /1502 11110 21120 39549 49944 56047 60001 333 11110 21153 70000
AAXX 19184 71077 16/// /2207 11029 21077 39508 40054 56045 60001 333 11029 21161 70006
AAXX 19184 71079 NIL
AAXX 19184 71081 46962 03217 11263 21304 39848 49860 53007 6///1 333 11181 21264 7////
AAXX 19184 71082 NIL
AAXX 19184 71083 11974 62908 11306 21349 39992 40036 56016 69901 77677 80002 333 11282 21313 48052 79999 90983
AAXX 19184 71090 46014 83216 11241 21278 39853 49889 50000 6///1 333 11222 21354 7////
AAXX 19184 71091 460// /0424 11197 39609 49818 53012 6///1 333 7////
AAXX 19184 71092 46622 61015 11221 39153 49817 53029 6///1 333 11209 21254 7////
AAXX 19184 71093 460// /2809 11215 39330 49827 53008 6///1 333 11199 21219 7////
AAXX 19184 71094 46004 /1922 11193 38936 49834 55000 6///1 333 11192 21253 7////
AAXX 19184 71095 46964 30818 11193 21309 39825 49905 53007 6///1 333 11160 21210 7////
AAXX 19184 71101 160// /0000 30051 55022 60001 333 70080
AAXX 19184 71104 12874 71409 11027 21054 39103 40235 56014 60001 87070 333 11027 21080 70000
AAXX 19184 71108 NIL
AAXX 19184 71109 11574 81210 10059 20034 30223 40250 58019 69961 76166 885// 333 10061 20039 70006 90973
AAXX 19184 71816 12674 62603 11123 21186 30052 40116 57026 60001 81101 333 11117 21212 70000
AAXX 19184 71817 12974 02103 11064 21224 30115 40128 57027 60001 333 70000
AAXX 19184 71818 12974 12211 11120 21134 30102 40121 57021 60001 81031 333 11114 21163 70000
AAXX 19184 71822 11312 82506 11034 21042 39498 49972 55002 60031 77177 887// 333 11034 21128 43040 70096 90983 93103
AAXX 19184 71825 11448 81603 11146 21178 39354 40041 58040 60021 77177 885// 333 11146 21171 47078 70018 90983 93102
AAXX 19184 71827 11974 23007 11152 21172 39796 40047 52006 69901 70277 81071 333 11152 21203 47020 79999 90963
AAXX 19184 71828 16964 01604 11157 21204 39398 40054 57023 60001 333 11157 21194 70000
AAXX 19184 71831 11440 82909 11096 21123 39856 40141 51036 69901 77177 885// 333 11016 21097 48039 70112 90983
AAXX 19184 71832 NIL
AAXX 19184 71834 11340 93308 11101 21129 39745 40183 51029 69901 77177 887// 333 11041 21101 48023 70068 90973
AAXX 19184 71841 NIL
AAXX 19184 71842 11474 82906 11090 21106 39742 40225 51022 69901 77177 885// 333 11050 21097 47015 70074 90983
AAXX 19184 71844 16464 82911 11145 21167 39892 40183 50010 60001 333 11144 21226 70005
AAXX 19184 71845 11459 72906 11102 21125 39707 40196 51014 69901 77177 87500 333 11091 21113 44018 70004 90973
AAXX 19184 71850 11474 82806 11076 21098 39725 40238 51017 69941 77177 885// 333 11044 21083 48007 70024 90983
AAXX 19184 71852 16564 82605 11049 21073 39950 40252 51015 60001 333 11039 21064 70000
AAXX 19184 71854 11558 72707 11096 21130 39738 40225 51011 69901 77177 87500 333 11063 21099 48017 70008 90993
AAXX 19184 71858 NIL
AAXX 19184 71861 46/// /2307 11098 21126 39504 40254 58001 6///1 333 11095 21145 7//// 555 10030
AAXX 19184 71862 12974 12608 11056 21084 39554 40277 58002 60001 81030 333 11055 21124 70000
AAXX 19184 71863 46964 02407 11071 21112 39534 40255 58012 6///1 333 11071 21166 7////
AAXX 19184 71726 17/// /2305 11014 21022 39453 49993 56011 60021 7//4/ 333 11014 21106 70065 555 10060
AAXX 19184 71727 11510 81011 11066 21078 39807 40007 57042 60021 77177 885// 333 11065 21164 48019 70026 90973
AAXX 19184 71728 11582 82221 11035 21072 39759 49981 57028 69901 77177 8252/ 333 11035 21108 46997 70008 90983
AAXX 19184 71730 NIL
AAXX 19184 71731 11448 83217 10010 20000 39611 40062 52023 69961 77762 887// 333 10026 21063 46997 70018 90916
AAXX 19184 71735 NIL
AAXX 19184 71738 11474 80309 11061 21110 39802 40159 51041 69901 77172 885// 333 10029 21063 43027 70006 90977
AAXX 19184 71739 NIL
AAXX 19184 71749 16564 83211 11051 21099 39957 40207 51034 60001 333 10004 21057 70005
AAXX 19184 71799 12483 80000 10051 20045 30286 40310 55001 60001 81539 333 10058 20012 70000
AAXX 19184 71800 16/// /0331 11013 21013 30023 40056 56018 60001 333 10011 21027 70006
AAXX 19184 71801 NIL
AAXX 19184 71803 11580 73610 11062 21115 39946 40137 57024 69901 72688 86501 333 11059 21090 41997 79999 90973
AAXX 19184 71807 NIL
AAXX 19184 71808 12574 12707 11102 21189 30100 40148 56026 60001 81500 333 11102 21186 70000
AAXX 19184 71809 12974 00000 11086 21144 30131 40159 57031 60001 333 11075 21192 70000
AAXX 19184 71810 NIL
AAXX 19184 71811 NIL
AAXX 19184 71813 NIL
AAXX 19184 71814 16/// /1702 11069 21092 30136 40146 56033 60001 333 11069 21207 70000
AAXX 19184 71815 12474 10504 11045 21143 30121 40153 56027 60001 81500 333 11045 21132 41997 70000
AAXX 19184 71700 15966 62013 11027 21182 30112 40138 58063 60001 333 11023 21169 70000
AAXX 19184 71701 12974 81911 11025 21163 30077 40141 57059 60001 83034 333 11025 21167 70000
AAXX 19184 71702 16/// /1911 11037 21093 30131 40146 56041 60001 333 11034 21106 70000
AAXX 19184 71703 11640 81714 11090 21121 39785 40093 57056 69901 77111 885// 333 11089 21219 42005 79999 90910
AAXX 19184 71704 15566 62608 10084 20025 39894 40114 58002 60001 333 10086 20005 70000
AAXX 19184 71710 16/// /1904 11036 21107 30142 40152 58030 60001 333 11034 21062 70000
AAXX 19184 71712 17/// /2416 10054 21005 39994 40055 58016 60011 7//4/ 333 10055 21108 70012
AAXX 19184 71713 17/// /2403 11048 21057 60011 7//4/ 333 11048 21123 70012
AAXX 19184 71716 NIL
AAXX 19184 71717 NIL
AAXX 19184 71720 16/// /1101 10049 20035 30151 40306 56005 60001 333 10049 20039 70000
AAXX 19184 71721 17/// /1905 10016 20012 39784 40030 56006 60011 7//4/ 333 10017 21071 70011
AAXX 19184 71723 16/// /2110 11006 21052 30037 40047 56037 60001 333 11006 21114 70000
AAXX 19184 71724 17/// /2114 11004 21035 30037 40045 56039 60011 7//4/ 333 11004 21099 70010
AAXX 19184 71732 16/// /3410 10013 20002 60001 333 10037 21045 70012
AAXX 19184 71733 16/// /3210 11004 21028 39652 40077 51037 60001 333 10023 21037 70000
AAXX 19184 71734 NIL
AAXX 19184 71736 NIL
AAXX 19184 71737 NIL
AAXX 19184 71741 16/// /0201 11026 21044 39860 40294 56005 60001 333 11020 21053 70000
AAXX 19184 71742 NIL
AAXX 19184 71743 NIL
AAXX 19184 71744 NIL
AAXX 19184 71745 NIL
AAXX 19184 71746 NIL
AAXX 19184 71747 NIL
AAXX 19184 71748 NIL
AAXX 19184 71500 NIL
AAXX 19184 71501 NIL
AAXX 19184 71502 NIL
AAXX 19184 71503 NIL
AAXX 19184 71504 NIL
AAXX 19184 71505 NIL
AAXX 19184 71506 NIL
AAXX 19184 71507 16/// /1907 10006 21046 60001 333 10013 21140 70000
AAXX 19184 71508 16/// ///// 10074 20027 39963 40100 51003 60001 333 10075 20008 70000
AAXX 19184 71509 NIL
AAXX 19184 71511 NIL
AAXX 19184 71512 NIL
AAXX 19184 71513 15566 81812 11049 21098 30115 40131 58034 60001 333 11048 21172 70000
AAXX 19184 71514 NIL
AAXX 19184 71515 NIL
AAXX 19184 71516 16/// /1805 11048 21103 60001 333 11048 21152 70000
AAXX 19184 71517 NIL
AAXX 19184 71518 NIL
AAXX 19184 71519 NIL
AAXX 19184 71520 NIL
AAXX 19184 71521 NIL
AAXX 19184 71522 NIL
AAXX 19184 71523 NIL
AAXX 19184 71524 17/// /1807 11006 21045 30031 40058 56032 60011 7//4/ 333 11006 21101 70010
AAXX 19184 71525 NIL
AAXX 19184 71526 NIL
AAXX 19184 71527 17466 82906 11081 21100 39710 40229 51021 60001 771// 333 11043 21085 70013
AAXX 19184 71528 NIL
AAXX 19184 71529 46/// /0904 11096 21110 39644 49871 56032 6///1 333 11096 21184 7//// 555 10020
AAXX 19184 71532 15466 82709 10046 20025 39726 40069 51003 60001 333 10048 21043 70000
AAXX 19184 71534 16564 82710 10051 20021 39816 40086 51006 60001 333 10051 21021 70000
AAXX 19184 71535 NIL
AAXX 19184 71536 NIL
AAXX 19184 71537 NIL
AAXX 19184 71539 NIL
AAXX 19184 71540 NIL
AAXX 19184 71541 NIL
AAXX 19184 71542 16/// /2615 10014 21053 60001 333 10020 21100 70000
AAXX 19184 71543 NIL
AAXX 19184 71544 NIL
AAXX 19184 71545 16/// ///// 11028 21080 60001 333 11028 21105 70006
AAXX 19184 71546 NIL
AAXX 19184 71547 NIL
AAXX 19184 71548 NIL
AAXX 19184 71549 NIL
AAXX 19184 71604 16/// /3401 11065 21096 60001 333 11056 21088 70000
AAXX 19184 71605 16/// /3503 10053 20053 30152 40304 50002 60001 333 10053 20034 70000
AAXX 19184 71611 NIL
AAXX 19184 71612 16/// /2003 11001 21049 39965 40056 56030 60001 333 11001 21081 70000
AAXX 19184 71614 16/// /1903 10005 21041 39985 40051 56025 60001 333 10005 21113 70000
AAXX 19184 71616 17/// /1908 11020 21045 39934 40056 56038 60011 7//4/ 333 11020 21143 70011
AAXX 19184 71617 17/// /0805 11058 21068 39839 40011 56040 60031 7//4/ 333 11058 21142 70037
AAXX 19184 71618 NIL
AAXX 19184 71619 16/// /1305 11075 21150 30056 40117 58052 60001 333 11073 21160 70000
AAXX 19184 71622 NIL
AAXX 19184 71632 46/// /2112 11111 21127 39632 40080 58048 6///1 333 11111 21153 7////
AAXX 19184 71634 16/// /1806 11064 21170 39964 40123 56054 60001 333 11061 21235 70000
AAXX 19184 71638 16/// /1202 10055 20044 30192 40299 58001 60001 333 10055 20029 70000
AAXX 19184 71639 12574 82510 10064 20003 39852 40093 52006 60001 885// 333 10065 21009 70000
AAXX 19184 71642 11574 83612 11088 21114 39591 40144 52046 69941 77172 885// 333 10000 21088 47023 70022 90927
AAXX 19184 71900 46/// /23// 11137 21179 30078 40091 56014 6///1 333 11134 21158 7////
AAXX 19184 71903 NIL
AAXX 19184 71904 NIL
AAXX 19184 71914 16/// /2701 10049 20038 30085 40311 54000 60001 333 10049 20025 70000
AAXX 19184 71916 NIL
AAXX 19184 71918 460// ///// 11353 6///1 333 7////
AAXX 19184 71920 NIL
AAXX 19184 71921 NIL
AAXX 19184 71923 NIL
AAXX 19184 71927 16/// /2001 10033 20026 30249 40308 56004 60001 333 10036 20008 70000
AAXX 19184 71941 17566 83113 11018 21035 39626 40042 53038 69981 7714/ 333 10005 21092 70033
AAXX 19184 71947 17448 83218 11081 21096 39702 40052 51049 69931 771// 333 11028 21089 70039
AAXX 19184 71950 17320 81502 11030 21031 39473 40109 58036 60031 7714/ 333 11034 21050 70028
AAXX 19184 71952 16/// /1204 11003 21007 39264 40119 56028 60001 333 11003 21056 70000
AAXX 19184 71954 NIL
AAXX 19184 71956 NIL
AAXX 19184 71959 NIL
AAXX 19184 71960 460// /0416 11272 39848 49984 51015 6///1 333 11232 21283 7////
AAXX 19184 71962 16/// /3007 11065 21089 39805 40237 51025 60001 333 11019 21066 70000 555 10010
AAXX 19184 71963 NIL
AAXX 19184 71967 16/// /2015 10008 21046 39959 40065 56033 60001 333 10008 21123 70000
AAXX 19184 71970 NIL
AAXX 19184 71971 16/// /1503 11205 21223 39914 49960 53005 60001 333 11194 21294 70000
AAXX 19184 71972 460// ///// 11139 39476 49942 58001 6///1 333 11138 21161 7////
AAXX 19184 71973 46/// /0202 11076 21144 39961 40155 56026 6///1 333 11061 21179 7////
AAXX 19184 71974 NIL
AAXX 19184 71975 460// /2216 11152 39142 49867 55002 6///1 333 11152 21204 7////
AAXX 19184 71976 NIL
AAXX 19184 71977 NIL
AAXX 19184 71978 NIL
AAXX 19184 71979 NIL
AAXX 19184 71980 NIL
AAXX 19184 71981 NIL
AAXX 19184 71982 NIL
AAXX 19184 71983 NIL
AAXX 19184 71984 16/// /2712 11252 21276 39939 49947 53015 60001 333 11178 21277 70000 555 10010
AAXX 19184 71985 NIL
AAXX 19184 71986 NIL
AAXX 19184 71987 16/// /1708 11034 21108 30124 40134 56050 60001 333 11031 21065 70000
AAXX 19184 71988 NIL
AAXX 19184 71989 NIL
AAXX 19184 71990 NIL
AAXX 19184 71999 46/// ///// 10011 6///1 333 10012 21017 7////
AAXX 19184 71114 160// /0000 10037 20031 30266 40315 51006 60011 333 10037 20008 70015
AAXX 19184 71120 11874 63211 11016 21099 39429 40093 58041 60001 71422 86070 333 11016 21131 70000
AAXX 19184 71122 16/// /2209 11067 21097 38615 40257 55008 60001 333 21101 7//// 555 10030
AAXX 19184 71123 12874 71908 11030 21062 39251 40134 56027 60001 86078 333 11030 21151 70000
AAXX 19184 71125 12874 72428 11013 21093 39507 40101 58044 60001 86072 333 70000
AAXX 19184 71129 12974 61810 11073 21083 39343 40196 58028 60001 80001 333 11073 21142 70000
AAXX 19184 71131 16/// /2312 11062 21066 38948 40235 56018 60001 333 11051 21138 70000
AAXX 19184 71135 16/// /2412 11071 21108 39146 40261 58010 60001 333 11053 21149 70000
AAXX 19184 71137 16/// /2302 11104 21114 39291 40266 58005 60001 333 11041 21215 70000
AAXX 19184 71140 12474 72611 11075 21088 39745 40262 5/007 60001 87500 333 11052 21145 70016
AAXX 19184 71145 11456 82607 11130 21148 39892 40195 50002 69901 77177 885// 333 11107 21171 48040 70006 90973
AAXX 19184 71148 16/// /2808 11068 21090 39667 40262 50007 60001 333 11030 21104 70000
AAXX 19184 71185 17564 80000 11067 30125 40149 56028 69951 7//44 333 11061 21148 70005
AAXX 19184 71188 12574 71502 11076 21187 30065 40109 58055 60001 83571 333 11074 21260 70000
AAXX 19184 71200 16/// /2005 10066 20050 60001 333 10066 20046 70000
AAXX 19184 71207 16/// /0000 10016 30240 40306 50000 60001 333 10016 21007 70000
AAXX 19184 71260 13/// ///// 11006 21046 39897 40134 51046 69901 333 10040 21010 79999
AAXX 19184 71851 NIL
AAXX 19184 71857 NIL
AAXX 19184 71860 12683 82913 10016 21065 38769 40187 58012 60001 81577 333 10018 21128 79999
AAXX 19184 71876 15966 02212 11029 21054 39498 40176 58028 60001 333 11029 21153 70000
AAXX 19184 71885 NIL
AAXX 19184 71886 16/// /2208 11106 21142 39615 40241 58008 60001 333 11061 21128 70000
AAXX 19184 71888 NIL
AAXX 19184 71890 17/// /0414 11068 21082 30015 40042 56061 60021 7//4/ 333 11068 21165 70017 555 10010
AAXX 19184 71895 NIL
AAXX 19184 71001 15966 00702 11071 21110 39011 49970 53011 60001 333 10017 21076 70000
AAXX 19184 71002 17524 81603 11138 21161 39523 40079 56028 60001 771// 333 11136 21206 70000
AAXX 19184 71003 15766 80804 11131 21151 39622 40010 56019 60001 333 11126 21182 70000
AAXX 19184 71005 16/// ///// 11046 21080 60001 333 11046 21134 70000
AAXX 19184 71006 NIL
AAXX 19184 71007 NIL
AAXX 19184 71008 NIL
AAXX 19184 71009 NIL
AAXX 19184 71010 NIL
AAXX 19184 71011 NIL
AAXX 19184 71012 NIL
AAXX 19184 71013 NIL
AAXX 19184 71014 NIL
AAXX 19184 71015 NIL
AAXX 19184 71016 NIL
AAXX 19184 71017 NIL
AAXX 19184 71018 NIL
AAXX 19184 71019 NIL
AAXX 19184 71020 NIL
AAXX 19184 71021 NIL
AAXX 19184 71022 17528 81318 10060 20048 30022 40066 56032 60221 76144 333 10059 20000 70340
AAXX 19184 71023 16964 02411 11049 21098 39300 40079 57039 60001 333 11048 21141 70000
AAXX 19184 71024 16/// /1401 11100 21106 60001 333 11100 21213 70000 555 10010
AAXX 19184 71026 NIL
AAXX 19184 71027 16/// /3502 11020 21092 30140 40150 56024 60001 333 11016 21049 70007
AAXX 19184 71028 16/// /1712 10057 21013 39153 40193 58019 60001 333 10064 21020 70000
AAXX 19184 71029 16/// /1020 11240 21264 39943 49983 51007 60001 333 11232 21329 70022 555 10010
AAXX 19184 71030 16/64 /2011 11009 21063 30056 40147 56052 60001 333 11001 21076 70000
AAXX 19184 71032 46/// /0000 11067 21075 39455 40318 53001 6///1 333 11060 21091 7////
AAXX 19184 71033 46/// /2112 11082 21099 39370 40005 56064 6///1 333 11078 21136 7////
AAXX 19184 71035 NIL
AAXX 19184 71036 15566 82715 11042 21076 39853 40237 50002 60001 333 11034 21046 70000
AAXX 19184 71039 46/// /0000 11115 6///1 333 11013 21116 7////
AAXX 19184 71040 46/// /0608 11056 21069 39793 49994 56041 6///1 333 11037 21193 7////
AAXX 19184 71041 15566 13108 11020 21088 30011 40155 56022 60001 333 11010 21051 70000
AAXX 19184 71042 16/// /0301 10053 20049 30312 40316 53012 60001 333 10053 20019 70000
AAXX 19184 71044 16/// /0705 11182 21211 39645 49970 53024 60001 333 11175 21302 70033 555 10040
AAXX 19184 71046 460// /0303 11234 39999 40017 51009 6///1 333 11217 21308 7////
AAXX 19184 71047 16/// ///// 11044 21088 60001 333 11044 21123 70000
AAXX 19184 71048 NIL
AAXX 19184 71049 NIL
AAXX 19184 71060 NIL
AAXX 19184 71063 NIL
AAXX 19184 71150 46/// /2808 11079 21100 39548 40249 50005 6///1 333 11049 21138 7////
AAXX 19184 71151 NIL
AAXX 19184 71152 16/// /0307 11044 21139 30118 40131 58031 60001 333 11041 21087 70000
AAXX 19184 71153 16/// /2509 10033 21053 60001 333 10034 21151 70016
AAXX 19184 71154 16/// /2325 10015 21063 60001 333 10017 21169 70028
AAXX 19184 71155 NIL
AAXX 19184 71156 NIL
AAXX 19184 71157 46/// ///// 11042 21066 6///1 333 11042 21092 7////
AAXX 19184 71158 NIL
AAXX 19184 71159 NIL
AAXX 19184 71160 NIL
AAXX 19184 71161 16/// /2213 10054 20009 39914 40062 56008 60001 333 10054 21059 70000
AAXX 19184 71162 NIL
AAXX 19184 71163 46/// /3105 11127 21137 39529 49873 53006 6///1 333 11092 21236 7////
AAXX 19184 71164 NIL
AAXX 19184 71165 NIL
AAXX 19184 71166 NIL
AAXX 19184 71167 15966 63003 11067 21078 39030 40153 55014 60001 333 11053 21159 70000
AAXX 19184 71168 16/// /3415 10006 21058 39656 40249 50015 60001 333 10044 21017 70000
AAXX 19184 71170 NIL
AAXX 19184 71171 16/// /2311 10071 20029 30000 40096 57008 60001 333 10072 20001 70000
AAXX 19184 71172 16/// ///// 10048 20017 39846 40062 53011 60001 333 10057 21028 70000
AAXX 19184 71175 46/// /0403 11018 21103 6///1 333 11014 21059 7////
AAXX 19184 71176 460// /2335 11177 39279 49974 51002 6///1 333 11176 21200 7////
AAXX 19184 71177 460// /2412 11195 38992 40021 57012 6///1 333 11168 21225 7////
AAXX 19184 71178 16/// /0225 11027 21071 30079 40111 58019 60001 333 11021 21040 70000
AAXX 19184 71179 460// ///// 11185 39225 40077 58013 6///1 333 11177 21223 7////
AAXX 19184 71180 NIL
AAXX 19184 71181 16564 80311 11033 21091 30051 40088 56023 60001 333 11033 21054 70000
AAXX 19184 71183 16/// /2314 30008 56030 60001 333 70000
AAXX 19184 71184 46/// /1912 10001 21035 6///1 333 10001 21103 7////
AAXX 19184 71186 NIL
AAXX 19184 71187 17256 81202 10035 20034 30266 40315 51007 60001 761// 333 10035 20009 70000
AAXX 19184 71189 NIL
AAXX 19184 71190 NIL
AAXX 19184 71191 16/// ///// 11020 21055 60001 333 11020 21124 70000 555 10010
AAXX 19184 71192 15866 81511 11003 21026 39546 40217 56016 60001 333 11003 21029 70000
AAXX 19184 71193 17/// /3213 11083 21104 39749 40116 51042 69931 7//4/ 333 11003 21083 70088 555 10080
AAXX 19184 71196 16/// /2405 10039 20029 39845 40043 52005 60001 333 10048 21057 70000
AAXX 19184 71197 NIL
AAXX 19184 71198 46/// /2114 11003 21044 6///1 333 11003 21089 7////
AAXX 19184 71199 46/// /0803 11178 21197 39197 40043 56002 6///1 333 11061 21252 7////
AAXX 19184 71250 NIL
AAXX 19184 71251 16/// /1907 11004 21030 39256 40194 58013 60001 333 11004 21059 70000
AAXX 19184 71252 NIL
AAXX 19184 71253 46/// /2206 11049 21066 6///1 333 11049 21239 7////
AAXX 19184 71254 16/// /2108 11042 21082 60001 333 11042 21113 70000
AAXX 19184 71255 16/// /2516 11009 21053 60001 333 11007 21180 70017 555 10010
AAXX 19184 71256 46/// /2606 11021 21052 39173 40120 56015 6///1 333 11021 21090 7////
AAXX 19184 71257 NIL
AAXX 19184 71258 NIL
AAXX 19184 71259 NIL
AAXX 19184 71261 16/// /2710 10054 20023 39845 40105 51005 60001 333 10057 21008 70000
AAXX 19184 71263 13560 82417 10062 20019 39818 40107 58003 60001 875// 333 10064 21014 70002
AAXX 19184 71264 16/// /2503 11011 21119 30140 40172 58033 60001 333 11007 21067 70000
AAXX 19184 71265 15566 82416 10064 20025 30003 40097 50002 60001 333 10068 20012 70000
AAXX 19184 71266 NIL
AAXX 19184 71267 15966 02517 10030 21048 39096 40205 58007 60001 333 10030 21086 70000
AAXX 19184 71268 NIL
AAXX 19184 71269 NIL
AAXX 19184 71270 NIL
AAXX 19184 71271 16/// ///// 11020 21079 60001 333 11020 21072 70000
AAXX 19184 71272 17966 02110 11140 21154 39689 40052 58049 60001 771// 333 11140 21220 70000
AAXX 19184 71273 16/// /2115 11031 21098 39430 40097 58043 60001 333 11031 21112 70000
AAXX 19184 71274 NIL
AAXX 19184 71275 NIL
AAXX 19184 71276 NIL
AAXX 19184 71277 NIL
AAXX 19184 71278 NIL
AAXX 19184 71279 16/// /1105 11054 21120 39996 40063 58057 60001 333 11054 21228 70000
AAXX 19184 71281 NIL
AAXX 19184 71282 46/// /2715 10044 20039 39813 40082 52003 6///1 333 10044 21016 7////
AAXX 19184 71283 NIL
AAXX 19184 71284 16/// ///// 11024 21065 60001 333 11024 21114 70000
AAXX 19184 71285 NIL
AAXX 19184 71286 NIL
AAXX 19184 71287 NIL
AAXX 19184 71288 NIL
AAXX 19184 71289 NIL
AAXX 19184 71290 17440 81514 11010 21020 39307 40146 56020 60001 771// 333 11010 21070 70000
AAXX 19184 71291 16/// /3207 11070 21103 39900 40196 51032 60001 333 11018 21070 70028 555 10010
AAXX 19184 71292 15966 02209 11104 21132 39616 40243 58008 60001 333 11061 21125 70000
AAXX 19184 71294 16/// /2605 10035 20007 39656 40056 55001 60001 333 10035 21059 70000
AAXX 19184 71295 NIL
AAXX 19184 71296 NIL
AAXX 19184 71297 16/// /2509 10073 20024 60001 333 10075 21002 70000
AAXX 19184 71298 16/// /2413 10071 20036 39895 40125 58006 60001 333 10071 20014 70000
AAXX 19184 71299 NIL
AAXX 19184 71864 NIL
AAXX 19184 71865 16/// /2212 11065 21109 39522 40222 58016 60001 333 11065 21135 70000
AAXX 19184 71866 46964 02113 11061 21090 39576 40205 56024 6///1 333 11061 21151 7////
AAXX 19184 71867 12874 72009 11092 21112 39831 40174 58023 60001 87010 333 11075 21112 79999
AAXX 19184 71868 16/// /2210 11071 21112 39749 40200 58016 60001 333 11056 21101 70000
AAXX 19184 71869 12974 62209 11079 21099 39638 40175 58031 60001 81071 333 11076 21148 70000
AAXX 19184 71871 15966 82218 11038 21076 39313 40134 58034 60001 333 11038 21124 70000
AAXX 19184 71877 12986 82719 10040 21079 38890 40176 58017 60001 84072 333 10040 21100 79999
AAXX 19184 71878 12974 82105 11079 21110 39076 40182 56020 60001 82071 333 11067 21169 70000
AAXX 19184 71879 16864 32107 11040 21085 39306 40122 57023 60001 333 11039 21091 70005
AAXX 19184 71880 12482 70000 11027 21065 39166 40294 53005 60001 81572 333 10003 21035 70000
AAXX 19184 71882 160// /3002 11007 21027 39763 40315 55002 60001 333 11007 21034 70005
AAXX 19184 71883 NIL
AAXX 19184 71887 12486 60000 11029 21045 39864 40298 58004 60001 85571 333 11022 21054 70000
AAXX 19184 71889 12974 60000 11014 21054 39887 40317 51006 60001 82071 333 11014 21068 70000
AAXX 19184 71891 16964 00102 10006 21021 30000 40280 58003 60001 333 10012 21006 70000
AAXX 19184 71892 12469 80905 10061 20044 30308 40313 53002 60001 885// 333 10061 20037 70000
AAXX 19184 71744 NIL
AAXX 19184 71750 16/// /0103 11056 21092 39934 40172 51033 60001 333 10009 21056 70010
AAXX 19184 71751 NIL
AAXX 19184 71752 NIL
AAXX 19184 71753 16/// /2104 11009 21107 30131 40161 56030 60001 333 11009 21103 70000
AAXX 19184 71754 17/// /2213 11033 21073 39495 40175 58028 69931 7//4/ 333 11033 21175 70003
AAXX 19184 71755 43/// /2707 11145 21169 39837 40194 51011 6///1 333 11118 21157 7////
AAXX 19184 71756 16/// /2001 11008 21016 39175 40288 58003 60001 333 11005 21026 70000
AAXX 19184 71758 NIL
AAXX 19184 71760 NIL
AAXX 19184 71761 NIL
AAXX 19184 71762 NIL
AAXX 19184 71763 NIL
AAXX 19184 71765 16/// /0102 10003 21020 39998 40278 58003 60001 333 10010 21007 70000
AAXX 19184 71766 16/// /1702 10035 20026 30226 40299 58005 60001 333 10046 20006 70000
AAXX 19184 71767 16/// /2914 10046 20005 39833 40092 51021 60001 333 10050 21002 70000
AAXX 19184 71768 46/// /2804 11030 21073 39752 40316 51007 6///1 333 11015 21054 7////
AAXX 19184 71769 16/// /1109 10057 20039 30278 40294 58001 60001 333 10068 20042 70000
AAXX 19184 71770 16/// /0902 11006 21032 39527 40316 52010 60001 333 10017 21032 70000
AAXX 19184 71771 NIL
AAXX 19184 71772 16/// /1203 10057 20037 30289 40295 58004 60001 333 10061 20046 70000
AAXX 19184 71773 16/// /1904 11028 21085 39147 49993 55001 60001 333 10009 21049 70000
AAXX 19184 71774 46/// ///// 10041 6///1 333 10041 20029 7////
AAXX 19184 71775 46/// /0000 10055 20051 30312 40318 53004 6///1 333 10057 20047 7////
AAXX 19184 71776 46/// /2709 11014 21032 39658 40316 51009 6///1 333 11005 21024 7////
AAXX 19184 71777 16/// ///// 11003 21004 30049 40307 58004 60001 333 11002 21012 70000
AAXX 19184 71778 46/// /1805 6///1 333 7////
AAXX 19184 71779 16/// /1408 11002 21030 39542 40212 56016 60001 333 11002 21030 70000
AAXX 19184 71780 16/// /2506 10068 20053 30287 40315 58001 60001 333 10068 20057 70000
AAXX 19184 71781 46/// /1308 10055 20039 30270 40295 58006 6///1 333 10061 20049 7////
AAXX 19184 71782 46/// /0000 11047 21054 38923 40278 55003 6///1 333 11019 21075 7////
AAXX 19184 71783 16/// /1702 10065 20050 30232 40307 50000 60001 333 10065 20033 70000
AAXX 19184 71784 16/// /1002 10053 20037 30097 40305 53002 60001 333 10056 20038 70000
AAXX 19184 71785 16/// /1001 10068 20054 30304 40320 53001 60001 333 10071 20046 70000
AAXX 19184 71786 46/// /2517 11090 21103 38406 40291 56003 6///1 333 11086 21120 7////
AAXX 19184 71787 17/// /1913 11044 21077 39640 40140 58044 60021 7//4/ 333 11042 21140 70022
AAXX 19184 71788 NIL
AAXX 19184 71789 NIL
AAXX 19184 71791 NIL
AAXX 19184 71792 NIL
AAXX 19184 71793 NIL
AAXX 19184 71794 NIL
AAXX 19184 71795 NIL
AAXX 19184 71796 NIL
AAXX 19184 71797 NIL
AAXX 19184 71665 16/// /2405 11142 21209 30062 40072 58014 60001 333 11135 21174 70000
AAXX 19184 71666 16/// /1807 11032 21117 30090 40136 58057 60001 333 11029 21151 70000
AAXX 19184 71667 NIL
AAXX 19184 71668 16/// /1913 11031 21171 30093 40138 56059 60001 333 11029 21157 70000
AAXX 19184 71669 NIL
AAXX 19184 71670 16/// ///// 11046 21127 60001 333 11046 21170 70000
AAXX 19184 71671 NIL
AAXX 19184 71672 16/// /2407 10054 20000 39811 40073 58005 60001 333 10054 21044 70000
AAXX 19184 71673 NIL
AAXX 19184 71674 NIL
AAXX 19184 71675 17466 82911 11145 21170 39890 40181 50009 60051 70044 333 11144 21213 70162
AAXX 19184 71679 16/// /0704 10017 21003 39102 40114 58028 60001 333 10037 21054 70000
AAXX 19184 71680 NIL
AAXX 19184 71681 46/// /2202 11034 21045 6///1 333 11026 21048 7////
AAXX 19184 71682 NIL
AAXX 19184 71683 NIL
AAXX 19184 71684 17466 83116 11036 21061 39783 40085 53052 60001 771// 333 10015 21046 70013
AAXX 19184 71685 15466 82702 11009 21019 39761 40314 56002 60001 333 11008 21028 70000
AAXX 19184 71686 469// /3402 11068 21075 39085 40048 58029 6///1 333 11048 21192
AAXX 19184 71687 16/// /1605 10012 20007 39494 40291 58003 60001 333 10012 21017 70000
AAXX 19184 71688 16/// /1502 11001 21001 39232 40285 52001 60001 333 10000 21027 70000
AAXX 19184 71689 15966 82410 11008 21064 39567 40024 56020 60001 333 11007 21180 70000
AAXX 19184 71690 NIL
AAXX 19184 71691 17/06 /1815 11067 21077 30019 40047 56060 60001 772// 333 11067 21163 70000
AAXX 19184 71692 NIL
AAXX 19184 71694 16/// /2507 10043 20022 39716 40077 51006 60001 333 10049 21046 70000
AAXX 19184 71695 16/// /1909 11092 21121 39827 40169 58024 60001 333 11074 21110 70000
AAXX 19184 71696 16/// /2106 11228 21255 30047 40085 58031 60001 333 11202 21267 70000
AAXX 19184 71697 15566 82510 10065 20010 39918 40088 58001 60001 333 10068 21011 70000
AAXX 19184 71699 16/// /2010 11005 21063 30143 40151 58053 60001 333 11005 21128 70000
AAXX 19184 71401 16/// /1102 11038 21049 39624 40330 51011 60001 333 11029 21050 70000
AAXX 19184 71402 NIL
AAXX 19184 71404 NIL
AAXX 19184 71405 NIL
AAXX 19184 71406 NIL
AAXX 19184 71407 NIL
AAXX 19184 71408 NIL
AAXX 19184 71409 NIL
AAXX 19184 71410 17466 82311 11078 21093 39903 40190 56013 60001 771// 333 11075 21149 70000
AAXX 19184 71413 NIL
AAXX 19184 71414 NIL
AAXX 19184 71415 16/// /3401 11013 21097 30153 40156 58030 60001 333 11012 21036 70008
AAXX 19184 71417 NIL
AAXX 19184 71418 NIL
AAXX 19184 71419 46/// /3406 11009 21081 30144 40154 57022 6///1 333 11008 21025 7////
AAXX 19184 71423 NIL
AAXX 19184 71424 46/// /2507 6///1 333 7////
AAXX 19184 71425 NIL
AAXX 19184 71426 NIL
AAXX 19184 71427 NIL
AAXX 19184 71428 NIL
AAXX 19184 71429 16/// /2117 11050 21157 30090 40110 58052 60001 333 11049 21144 70000
AAXX 19184 71434 NIL
AAXX 19184 71436 15566 82410 10057 20011 39845 40079 58006 60001 333 10059 21037 70000
AAXX 19184 71437 46/// /2309 10073 20010 30004 40099 55002 6///1 333 10074 20009 7////
AAXX 19184 71438 NIL
AAXX 19184 71439 NIL
AAXX 19184 71440 NIL
AAXX 19184 71442 NIL
AAXX 19184 71445 NIL
AAXX 19184 71446 17/// /2214 11056 21074 39219 40227 58021 69971 7//4/ 333 11056 21131 70007
AAXX 19184 71448 NIL
AAXX 19184 71449 NIL
AAXX 19184 71051 NIL
AAXX 19184 71055 NIL
AAXX 19184 71057 NIL
AAXX 19184 71059 460// ///// 11243 39882 49975 53015 6///1 333 11226 21294 7////
AAXX 19184 71061 16/// /2307 11012 21056 39306 40096 56017 60001 333 11012 21092 70000
AAXX 19184 71062 46/// /2212 11026 21070 39028 40111 58016 6///1 333 11026 21090 7////
AAXX 19184 71064 460// /0609 11318 39786 40011 53004 6///1 333 11309 21335 7////
AAXX 19184 71065 NIL
AAXX 19184 71067 NIL
AAXX 19184 71070 NIL
AAXX 19184 71073 NIL
AAXX 19184 71074 NIL
AAXX 19184 71075 NIL
AAXX 19184 71078 17366 62012 11109 21124 39631 40082 58047 60001 771// 333 11109 21147 70000
AAXX 19184 71084 460// ///// 11335 39950 40000 56009 6///1 333 11325 21339 7////
AAXX 19184 71085 15966 82620 10015 21059 38808 40208 58011 60001 333 10015 21107 70013
AAXX 19184 71087 NIL
AAXX 19184 71088 460// /3507 11221 52008 6///1 333 11213 21236 7////
AAXX 19184 71089 NIL
AAXX 19184 71096 460// ///// 11190 39097 49829 56004 6///1 333 11188 21229 7////
AAXX 19184 71097 46411 82527 11134 39427 49900 58001 6///1 333 11134 21167 7////
AAXX 19184 71098 43/// /2706 11104 21121 39828 40199 50006 6///1 333 11103 21133 7////
AAXX 19184 71099 43/// /2814 11193 21239 30116 40137 51015 6///1 333 11141 21267 7////
AAXX 19184 71450 NIL
AAXX 19184 71451 16/// /2103 11093 21115 39634 40066 58061 60001 333 11086 21126 70000
AAXX 19184 71452 NIL
AAXX 19184 71453 NIL
AAXX 19184 71454 16/// /1807 11071 21112 39434 40137 58039 60001 333 11071 21143 70000
AAXX 19184 71455 NIL
AAXX 19184 71456 16/// /2216 11082 21108 39580 40193 58022 60001 333 11079 21150 70000
AAXX 19184 71457 16/// /1805 11046 21056 39271 40180 58018 60001 333 11046 21122 70000
AAXX 19184 71458 16/// /2010 11040 21082 39344 40130 56026 60001 333 11037 21128 70000 555 10010
AAXX 19184 71459 NIL
AAXX 19184 71460 16/// /3106 10022 20007 39847 40087 51027 60001 333 10049 21002 70000
AAXX 19184 71461 NIL
AAXX 19184 71462 NIL
AAXX 19184 71463 46/// /2528 10064 20007 39892 40115 58008 6///1 333 10065 20001 7////
AAXX 19184 71464 NIL
AAXX 19184 71465 NIL
AAXX 19184 71466 NIL
AAXX 19184 71468 NIL
AAXX 19184 71470 NIL
AAXX 19184 71471 15766 31407 10012 21039 39295 40083 58007 60001 333 10033 21081 70000
AAXX 19184 71473 16/// /2010 10050 20031 30275 40306 56002 60001 333 10051 20029 70000
AAXX 19184 71475 NIL
AAXX 19184 71476 NIL
AAXX 19184 71477 17/// /1814 10066 20062 60101 7//4/ 333 10067 20015 70176
AAXX 19184 71478 NIL
AAXX 19184 71479 NIL
AAXX 19184 71480 NIL
AAXX 19184 71481 NIL
AAXX 19184 71482 NIL
AAXX 19184 71483 NIL
AAXX 19184 71484 NIL
AAXX 19184 71485 17/// /1232 10054 20045 30215 40236 55015 60021 7//4/ 333 10058 20052 70032
AAXX 19184 71486 16/// /1903 11033 21054 38992 40219 56019 60001 333 11033 21090 70014 555 10010
AAXX 19184 71487 16/// /2210 11054 21096 39363 40254 57010 60001 333 11054 21138 70000
AAXX 19184 71489 16/// /2214 11046 21064 39360 40182 58029 60001 333 11046 21145 70000
AAXX 19184 71490 NIL
AAXX 19184 71491 17/// /05// 11203 21226 69961 7//4/ 333 11017 21327 70006
AAXX 19184 71492 NIL
AAXX 19184 71493 46/// /1605 11024 21093 30122 40161 56039 6///1 333 11021 21104 7////
AAXX 19184 71494 16/// /2110 11041 21064 39531 40061 57031 60001 333 11041 21163 70000
AAXX 19184 71495 NIL
AAXX 19184 71496 16/// /2213 11061 21078 39573 40202 56024 60001 333 11061 21152 70000
AAXX 19184 71497 46/// /2712 10048 21092 39703 49963 53008 6///1 333 10052 21140 7////
AAXX 19184 71498 NIL
AAXX 19184 71499 17520 82118 11077 21096 39369 40001 56065 60001 771// 333 11074 21127 70000
AAXX 19184 71550 NIL
AAXX 19184 71551 NIL
AAXX 19184 71552 46/// /3209 11056 21082 6///1 333 11049 21068 7////
AAXX 19184 71553 16/// /2512 11089 21103 60001 333 11063 21089 70000
AAXX 19184 71554 NIL
AAXX 19184 71555 16/// /2712 10022 21092 38613 40193 58002 60001 333 10024 21073 70000
AAXX 19184 71556 16/// /1709 11100 21117 39611 40236 58015 60001 333 11078 21170 70000
AAXX 19184 71557 46/// /0000 11024 21044 6///1 333 11023 21073 7////
AAXX 19184 71558 46/// ///// 11073 21118 30099 40137 56026 6///1 333 11067 21208 7////
AAXX 19184 71559 46/// /2508 11055 21087 39552 40275 58002 6///1 333 11055 21129 7////
AAXX 19184 71560 16/// /2807 11037 21066 39946 40255 51014 60001 333 11033 21055 70000
AAXX 19184 71563 NIL
AAXX 19184 71564 NIL
AAXX 19184 71565 NIL
AAXX 19184 71566 NIL
AAXX 19184 71567 NIL
AAXX 19184 71568 17/// /1410 10051 20024 30279 40292 55006 69941 7//4/ 333 10053 20038 70004
AAXX 19184 71569 16/// /2006 11062 21098 39522 40244 56009 60001 333 11062 21146 70000
AAXX 19184 71570 16/// /3105 11068 21095 39930 40251 51013 60001 333 11057 21078 70013
AAXX 19184 71571 NIL
AAXX 19184 71572 NIL
AAXX 19184 71573 16/// /2408 10062 20021 39823 40104 58004 60001 333 10062 21003 70000
AAXX 19184 71574 12974 71708 11075 21156 30036 40112 57058 60001 87070 333 11075 21240 70000
AAXX 19184 71575 16/// /3116 11167 21197 39813 49878 53012 60001 333 11134 21167 70003
AAXX 19184 71576 16/// /0819 11191 21242 39820 49905 51007 60001 333 11158 21209 70000
AAXX 19184 71577 46/// /3108 11051 21080 6///1 333 11050 21059 7////
AAXX 19184 71578 17/// /2801 11058 21074 60051 7//4/ 333 11058 21133 70045
AAXX 19184 71579 NIL
AAXX 19184 71580 NIL
AAXX 19184 71581 NIL
AAXX 19184 71582 17559 81717 10069 20055 30139 40192 56024 60141 76144 333 10070 20034 70201
AAXX 19184 71583 NIL
AAXX 19184 71584 15866 81812 11043 21110 30055 40104 56041 60001 333 11043 21162 70000
AAXX 19184 71585 NIL
AAXX 19184 71586 16/// /2009 11064 21103 39610 40082 58062 60001 333 11063 21136 70000
AAXX 19184 71587 NIL
AAXX 19184 71588 16/// /1601 11048 21121 60001 333 11048 21187 70000
AAXX 19184 71589 16/// /0107 11052 21096 39985 40120 56019 60001 333 11047 21071 70000
AAXX 19184 71590 17/// /1406 11096 21117 39883 40081 56057 69931 7//4/ 333 11096 21241 70003
AAXX 19184 71592 NIL
AAXX 19184 71593 NIL
AAXX 19184 71596 NIL
AAXX 19184 71598 16/64 /1707 11054 21140 30116 40122 58055 60001 333 11051 21150 70000
AAXX 19184 71599 16/// /2302 11002 21071 39965 40171 58041 60001 333 10002 21104 70000 555 10010
AAXX 19184 71350 16/// /1808 11030 21093 30086 40153 58035 60001 333 11028 21065 70000
AAXX 19184 71351 NIL
AAXX 19184 71352 16/// /2613 10034 20009 39644 40098 51003 60001 333 10037 21029 70000
AAXX 19184 71353 NIL
AAXX 19184 71354 NIL
AAXX 19184 71355 16/// /2701 11298 21329 39918 40006 53002 60001 333 11295 21338 70000
AAXX 19184 71356 16/// /0000 11293 21324 39948 40017 58024 60001 333 11293 21316 70000
AAXX 19184 71357 NIL
AAXX 19184 71358 17/// /3316 11240 21264 39851 49887 57001 60021 7//4/ 333 11221 21363 70051
AAXX 19184 71359 NIL
AAXX 19184 71360 NIL
AAXX 19184 71361 NIL
AAXX 19184 71362 NIL
AAXX 19184 71363 NIL
AAXX 19184 71364 NIL
AAXX 19184 71365 NIL
AAXX 19184 71368 15566 82516 10049 20013 39714 40102 58002 60001 333 10053 21020 70000
AAXX 19184 71369 15966 83207 10024 21048 39356 40064 58024 60001 333 10024 21119 70000
AAXX 19184 71370 46/// /1905 11029 21041 39899 40037 56035 6///1 333 11029 21125 7////
AAXX 19184 71371 15566 81813 10003 21039 30019 40053 56031 60001 333 10003 21107 70000
AAXX 19184 71372 NIL
AAXX 19184 71373 NIL
AAXX 19184 71374 NIL
AAXX 19184 71375 NIL
AAXX 19184 71376 NIL
AAXX 19184 71377 NIL
AAXX 19184 71378 17/// /1506 11049 21074 39813 40024 56032 60041 7//4/ 333 11049 21117 70040 555 10040
AAXX 19184 71379 16/// /1806 11036 21075 39797 49968 56031 60001 333 11035 21198 70000
AAXX 19184 71380 NIL
AAXX 19184 71381 NIL
AAXX 19184 71382 17/// /2007 11083 21094 39074 40033 56034 60061 7//4/ 333 11082 21195 70060
AAXX 19184 71383 NIL
AAXX 19184 71384 NIL
AAXX 19184 71385 NIL
AAXX 19184 71386 16/// /1611 11124 21150 39859 40073 58058 60001 333 11124 21224 70000
AAXX 19184 71387 NIL
AAXX 19184 71388 NIL
AAXX 19184 71389 46/// /0601 11056 21066 6///1 333 11056 21175 7////
AAXX 19184 71390 NIL
AAXX 19184 71391 17/// ///// 10004 20000 60011 7//4/ 333 10005 21081 70022
AAXX 19184 71392 17/// /3502 11063 21073 60051 7//4/ 333 11062 21148 70048
AAXX 19184 71393 NIL
AAXX 19184 71395 12974 10000 11026 21138 39986 40168 56036 60001 80001 333 11019 21085 79999
AAXX 19184 71398 15466 63015 11122 21150 30097 40109 51033 60001 333 11057 21123 70000
AAXX 19184 71399 NIL
AAXX 19184 71201 16/// ///// 10065 20044 60001 333 10065 20048 70002
AAXX 19184 71202 NIL
AAXX 19184 71203 15966 61301 11029 21046 39778 40317 51001 60001 333 11029 21089 70000
AAXX 19184 71209 46/// /1107 10052 6///1 333 10068 20045 7////
AAXX 19184 71211 46/// /0406 10046 20030 30295 40307 50001 6///1 333 10052 20043 7////
AAXX 19184 71212 NIL
AAXX 19184 71213 46/// /3115 11034 21053 39783 40084 53051 6///1 333 10018 21045 7////
AAXX 19184 71214 NIL
AAXX 19184 71215 46/// /1703 11007 21054 39960 40314 53007 6///1 333 11006 21055 7////
AAXX 19184 71216 NIL
AAXX 19184 71217 NIL
AAXX 19184 71218 16/// /1703 11011 21021 39864 40303 55006 60001 333 11011 21068 70000
AAXX 19184 71219 46/// /1423 10073 20049 30061 40067 57033 6///1 333 10075 20026 7////
AAXX 19184 71220 46/// /1438 10053 20044 6///1 333 10055 20024 7////
AAXX 19184 71221 NIL
AAXX 19184 71222 16/// /2801 11077 21085 39085 40067 58029 60001 333 11055 21223 70000
AAXX 19184 71223 NIL
AAXX 19184 71224 NIL
AAXX 19184 71225 NIL
AAXX 19184 71226 NIL
AAXX 19184 71227 NIL
AAXX 19184 71228 NIL
AAXX 19184 71229 NIL
AAXX 19184 71230 16/// /2606 10019 21049 39196 40087 56013 60001 333 10028 21085 70000 555 10010
AAXX 19184 71231 17/// /2013 10001 21041 69961 7//4/ 333 10002 21068 70006
AAXX 19184 71232 16/// /2104 11017 21089 38675 40209 58002 60001 333 11017 21159 70005
AAXX 19184 71233 16/// /2005 10002 21071 60001 333 10002 21102 70011
AAXX 19184 71234 16/// /2716 10038 21062 38986 40186 58004 60001 333 10040 21092 70000
AAXX 19184 71235 16/// /3005 10024 21069 60001 333 10024 21094 70000
AAXX 19184 71236 46/// /3017 11004 21074 6///1 333 11002 21131 7////
AAXX 19184 71237 46/// /1505 11085 21095 39343 40185 58015 6///1 333 11085 21170 7////
AAXX 19184 71238 16/// /2403 11006 21097 60001 333 11006 21098 70000
AAXX 19184 71239 NIL
AAXX 19184 71240 16/// ///// 11039 21062 39320 40185 56026 60001 333 11038 21105 70000
AAXX 19184 71241 NIL
AAXX 19184 71242 16/// /1805 11070 21101 60001 333 11070 21155 70000
AAXX 19184 71243 NIL
AAXX 19184 71244 16/// /1909 11017 21047 38965 40217 58010 60001 333 11014 21102 70000
AAXX 19184 71245 NIL
AAXX 19184 71246 NIL
AAXX 19184 71247 15966 02314 10018 21041 39338 40203 56016 60001 333 10019 21080 70000
AAXX 19184 71248 16/// /0000 11078 21104 38844 40177 56019 60001 333 11078 21160 70000
AAXX 19184 71249 NIL
AAXX 19184 71893 12480 80000 10046 20024 30269 40301 57008 60001 8657/ 333 10047 20015 70000
AAXX 19184 71894 16/// /1008 10063 20060 30287 40296 56011 60001 333 10063 20031 70000
AAXX 19184 71896 15666 81920 11001 21042 39331 40171 58020 60001 333 11001 21066 70000
AAXX 19184 71897 11224 81445 10061 20052 3//// 4//// 56035 60171 76366 887XX 333 10064 20055 70208 90999
AAXX 19184 71898 160// ///// 10060 56032 60201 333 10060 20000 70320
AAXX 19184 71899 11212 82228 10080 20080 3//// 4//// 55050 60131 76362 887XX 333 10083 20036 70200 90983
AAXX 19184 71902 12974 12504 11143 21207 30068 40077 57014 60001 81040 333 11136 21175 70000
AAXX 19184 71905 NIL
AAXX 19184 71906 11774 72108 11148 21190 39997 40049 58010 69901 70277 83530 333 11141 21212 48015 79999 90937
AAXX 19184 71907 17327 93014 11136 21167 39970 40003 58003 60001 745// 333 11117 21159 70000
AAXX 19184 71909 16564 30402 11128 21144 39842 49885 51010 60001 333 11095 21135 70000
AAXX 19184 71910 47464 82917 11167 21189 39821 49883 53012 6///1 745// 333 11135 21168 7////
AAXX 19184 71911 47606 82821 11301 39885 49943 56009 6///1 741// 333 11300 21338 7////
AAXX 19184 71912 11274 82210 11164 21190 39954 40144 56025 69901 77111 886// 333 11161 21218 47014 79999 90921
AAXX 19184 71915 11569 23220 11289 21336 39853 49936 51004 69901 77673 81501 333 11194 21291 48044 79999 90983
AAXX 19184 71917 11974 21102 11395 21434 30000 40015 53008 69901 77600 80001 333 11373 21416 43013 79999 90952
AAXX 19184 71922 12774 81911 11064 21106 39615 40088 58057 60001 83570 333 11064 21137 70002
AAXX 19184 71924 11474 60510 11286 21339 39867 49960 55000 69901 77177 86530 333 11282 21343 48038 79999 90927
AAXX 19184 71925 11574 10506 11358 21403 39971 40014 55002 69901 77677 81500 333 11334 21370 42021 79999 90983
AAXX 19184 71926 11556 81103 11288 21341 39989 40014 57024 69901 77677 8855/ 333 11283 21311 46043 79999 90983
AAXX 19184 71928 16/// /1204 11102 21118 38973 40174 56023 60001 333 11102 21192 70000
AAXX 19184 71397 12574 32004 11008 21057 30129 40164 57044 60001 81501 333 10000 21061 45997 79999
AAXX 19184 71400 16/64 /0404 11073 21119 60001 333 11071 21122 70000
AAXX 19184 71403 46/// /3205 11006 21094 30145 40165 56024 6///1 333 11003 21041 7////
AAXX 19184 71411 16/// /1908 10004 21056 30168 40181 56035 60001 333 10005 21073 70000
AAXX 19184 71412 16/// /3403 11025 21092 30145 40155 58026 60001 333 11023 21037 70000
AAXX 19184 71421 NIL
AAXX 19184 71430 16/// /2523 10070 20034 39989 40085 56008 60001 333 10070 21015 70000
AAXX 19184 71431 16/// /2710 10053 20029 39980 40075 58008 60001 333 10056 21007 70000
AAXX 19184 71432 16/// /2211 10068 20026 30004 40100 58004 60001 333 10072 20009 70005
AAXX 19184 71433 NIL
AAXX 19184 71435 NIL
AAXX 19184 71441 46/// /2606 11036 21068 39940 40256 51017 6///1 333 11031 21060 7////
AAXX 19184 71443 16/// /2314 11074 21099 39798 40220 58004 60001 333 11033 21075 70000
AAXX 19184 71444 16/// /2406 11077 21095 39461 40237 51002 60001 333 11048 21081 70013 555 10020
AAXX 19184 71447 16/// /2507 11070 21096 39711 40274 50005 60001 333 11059 21127 70000
AAXX 19184 71467 16/// /1101 11266 21291 39875 49994 53011 60001 333 11264 21317 70000
AAXX 19184 71472 NIL
AAXX 19184 71474 16964 01908 11051 21071 38985 40256 58012 60001 333 11047 21092 70000
AAXX 19184 71510 16/// /2208 11069 21085 39475 40202 56028 60001 333 11069 21157 70000
AAXX 19184 71538 12774 52413 10086 20032 39895 40125 58005 60001 85500 333 10086 20014 70000
AAXX 19184 71600 16564 83516 10002 21071 30139 40145 56014 60001 333 10011 21004 70005
AAXX 19184 71601 NIL
AAXX 19184 71603 12574 42311 10010 21063 30124 40178 56035 60001 81501 333 10010 21064 79999
AAXX 19184 71607 16/// /1807 11017 21091 30112 40145 56059 60001 333 11017 21160 70000
AAXX 19184 71609 12574 52110 11020 21080 30017 40154 58046 60001 85500 333 11016 21135 70000
AAXX 19184 71610 15666 81908 11005 21070 39775 40076 56034 60001 333 11005 21160 70000
AAXX 19184 71621 12574 82416 10064 20025 39975 40081 56010 60001 885// 333 10069 21019 70000
AAXX 19184 71623 NIL
AAXX 19184 71624 12574 82512 10065 20016 39887 40098 50000 60001 885// 333 10068 20002 70000
AAXX 19184 71625 17348 62605 10039 20015 39882 40042 53004 60001 743// 333 10048 21061 70005
AAXX 19184 71627 11574 82320 10047 21011 30006 40051 57030 69901 72272 885// 333 10049 21088 41997 79999 90957
AAXX 19184 71628 13560 82315 10050 20011 39909 40049 58014 69901 88500 333 10050 21078 79999
AAXX 19184 71630 NIL
AAXX 19184 71631 16/// /2608 10029 20010 39597 40096 51003 60001 333 10033 21030 70000
AAXX 19184 71633 12574 82914 10047 20013 39819 40090 52013 60001 885// 333 10055 21013 79999
AAXX 19184 71705 12574 31611 11033 21096 30054 40144 58054 60001 81571 333 11030 21140 70002
AAXX 19184 71706 12574 11909 11032 21091 30103 40165 57032 60001 81501 333 11026 21073 70002
AAXX 19184 71707 11574 70107 11032 21085 30074 40152 56021 69901 70282 87500 333 11018 21041 44004 70004 90967
AAXX 19184 71709 12680 21904 11036 21105 30143 40157 58030 60001 82502 333 11030 21065 79999
AAXX 19184 71711 NIL
AAXX 19184 71714 17/// /3402 11061 21077 39976 40070 56042 60041 7//4/ 333 11061 21163 70043 555 10040
AAXX 19184 71715 NIL
AAXX 19184 71718 11/12 91621 11074 21085 39974 40041 56065 60021 77122 333 11074 21148 44002 70020 90942 93102
AAXX 19184 71719 16/// /1914 11043 21104 30116 40122 58057 60001 333 11042 21132 70000
AAXX 19184 71930 13874 82605 11024 21075 39177 40121 56014 60003 86071 333 11024 21090 46017 70000
AAXX 19184 71931 NIL
AAXX 19184 71934 11674 71906 11060 21077 39649 49906 56029 69901 70172 86530 333 11060 21202 79999 90931
AAXX 19184 71935 12274 72713 10011 21067 39687 49892 56001 60001 86570 333 10013 21195 79999
AAXX 19184 71936 11569 72506 11074 21077 39603 49862 55010 69981 77177 82530 333 11065 21203 48020 70010 90983 93101
AAXX 19184 71937 NIL
AAXX 19184 71938 11248 80715 11212 21235 39918 49948 53009 69921 77177 886// 333 11203 21347 47025 70002 90983 93101
AAXX 19184 71940 12782 72505 10011 21040 39291 40102 57014 60001 81578 333 10015 21119 70000
AAXX 19184 71943 12974 82114 10010 21053 39237 40071 58008 60001 82071 333 10018 21076 70000
AAXX 19184 71944 160// ///// 11013 56018 60001 333 11010 21072 70000
AAXX 19184 71945 12780 51807 11123 21178 39538 40015 53001 60001 81501 333 11112 21189 70000
AAXX 19184 71946 12774 52606 11006 21033 39690 49902 53013 60001 85500 333 10016 21241 70000
AAXX 19184 71948 47030 /0621 11265 39851 49967 53011 6///1 745// 333 11241 21279 7////
AAXX 19184 71949 46/// /1702 11101 21114 39120 49988 53005 6///1 333 11007 21232 7////
AAXX 19184 71951 NIL
AAXX 19184 71957 47420 93406 11226 21296 39894 49985 53014 6///1 745// 333 11212 21259 7////
AAXX 19184 71964 12786 11610 11026 21095 39150 49997 55000 60001 81530 333 10013 21057 70000
AAXX 19184 71966 16/// /0000 11142 21159 39517 49981 51016 60001 333 11122 21186 70000
AAXX 19184 71968 470// /3206 11225 39945 40011 53023 6///1 745// 333 11210 21292 7////
AAXX 19184 78615 32482 80000 10244 20201 30042 40180 58018 8355/ 333 10248 20194 30/// 5629/ 59038 83616 86359
AAXX 19184 78627 31982 01810 10210 20074 38171 58015 70241 333 10216 20044 30/// 54306 59027
AAXX 19184 78637 11482 83008 10236 20210 30160 40176 58013 69931 70352 8352/ 333 10244 20200 31/// 5689/ 59025 83616 88458
AAXX 19184 78641 32582 23616 10222 20116 38558 40153 58008 82500 333 10224 20115 30/// 56800 59020 82620
AAXX 19184 78647 31982 01808 10306 20208 30126 40133 58020 70240 333 10310 20192 30/// 59008
AAXX 19181 10544 11/00 92306 11040 21040 39076 48440 50001 69902 74974 333 11040 21050 3/105 48020 55300 96047 96147 96478
AAXX 19181 13168 11597 80703 10011 20009 30024 40133 51004 60062 76166 8802/ 333 10039
AAXX 19181 13174 11696 83602 10002 20000 30035 40138 50000 60032 77176 8802/ 333 10023
AAXX 19181 13269 32697 82903 10036 20022 39900 40117 53009 885// 333 10057
AAXX 19181 13274 11698 81603 10045 21006 39958 40121 53006 69912 70262 885// 333 10065
AAXX 19181 13278 NIL
AAXX 19181 13378 NIL
AAXX 19181 13397 NIL
AAXX 19181 13457 31560 80702 10067 20057 30093 40100 53004 76196 8682/ 333 10098 83723 83833 87457
AAXX 19181 13481 NIL
AAXX 19184 16434 11/00 93607 11002 21002 38935 48432 52015 60042 77042 333 10020 41997 89/00 95090 95198
AAXX 19181 15501 11564 80504 10026 20021 30118 40163 56006 60022 76162 8802/ 333 10044 20004 555 59602 69999
AAXX 19181 15505 11458 80000 10004 21001 39769 40151 57007 60002 71022 886// 333 10018 20004 555 596//
AAXX 19181 15511 11556 80902 10020 20015 30127 40167 57005 60022 76162 8802/ 333 10036 20006 555 59602 69999
AAXX 19181 15514 11558 80903 10034 20024 30118 40154 56004 60002 71022 885// 333 10043 20006 555 593//
AAXX 19181 15530 11958 82701 10050 20033 39902 40142 57010 60042 71022 8802/ 333 10058 20002 555 589//
AAXX 19181 15533 11940 82702 10031 20026 30083 40115 57013 60012 76162 8802/ 333 10032 20004 555 59700 69099
AAXX 19181 15550 11567 80503 10039 20034 30123 40143 57023 60072 70262 885// 333 10041 20002 555 59701 69299
AAXX 19181 15561 11468 81404 10102 20083 30146 40153 57004 60132 76366 8802/ 222// 00094 307// 4//02 333 10104 20082 555 58804 69999 71869 92034 92437
AAXX 19181 15562 11450 81103 10098 20079 30073 40145 57014 60122 76164 8802/ 222// 2//01 333 10100 20072 555 58803 69999 71850 92023 92426 96010
AAXX 19181 15600 11/00 91808 11038 21043 38227 48433 58007 69962 74944 333 11030 21055 44011 555 597// 92711
AAXX 19181 15601 11520 80000 10002 21008 39502 40134 54000 60022 70272 885// 333 10004 21020 47002 555 592// 71800
AAXX 19181 15605 12668 80903 10007 20002 39287 40144 53001 69962 885// 333 10014 21002 555 596//
AAXX 19181 15613 11/00 92008 11050 21057 37627 47965 51001 60022 74974 333 11042 21069 48039 555 595//
AAXX 19181 15628 11625 80000 10014 20003 39882 40145 57013 60032 71022 885// 333 10015 21003 555 593//
AAXX 19181 15642 11556 80000 10044 20042 39966 40136 54000 60152 76162 8802/ 333 10080 20040 555 59805 69999 71858 93015
AAXX 19181 15661 12565 81403 10106 20098 30097 40132 57008 60032 885// 222// 20401 333 10106 20070 555 595// 92022 92428
AAXX 19181 15726 11/03 92501 11004 21007 38192 48453 57002 60062 74574 333 10002 21033 47012 555 598// 71800
AAXX 19184 65352 31940 70000 10290 20122 3//// 4//// 70522 80002 333 10360 5//// 87076
AAXX 19184 65361 NIL
AAXX 19184 65376 31940 70806 10290 20151 39638 40096 70522 80002 333 10328 58003 87076
AAXX 19184 65387 32956 72206 10290 20255 30064 40082 80042 333 10340 58005 82360 87073
AAXX 19181 03967 11480 72507 10079 20068 39998 40112 52012 60042 70265 875// 333 10090 83710 87630
AAXX 19184 71102 NIL
AAXX 19184 71105 NIL
AAXX 19184 71107 NIL
AAXX 19184 71110 NIL
AAXX 19184 71111 17561 82804 10093 20079 30054 40062 55021 60071 76144 333 10095 20009 70113
AAXX 19184 71112 16/// ///// 60001 333 70000
AAXX 19184 71113 16/// /1602 10049 20045 30287 40311 51004 60001 333 10062 20037 70000
AAXX 19184 71115 16/// /1101 11026 21042 39708 40308 51006 60001 333 11026 21064 70006
AAXX 19184 71116 16/// /1408 11032 21046 39121 40239 56017 60001 333 11032 21100 70007
AAXX 19184 71118 16/// /2210 11057 21082 39304 40146 58028 60001 333 11057 21130 70000
AAXX 19184 71121 16964 02311 11028 21104 39284 40118 56025 60001 333 11028 21097 70000
AAXX 19184 71127 16/// /2412 11023 21061 39197 40124 58020 60001 333 11023 21091 70010
AAXX 19184 71130 15966 01812 11095 21128 39716 40185 58021 60001 333 11073 21146 70000
AAXX 19184 71132 15966 80603 11097 21112 39642 49956 58060 60001 333 11097 21151 70000
AAXX 19184 71133 NIL
AAXX 19184 71139 NIL
AAXX 19184 71141 NIL
AAXX 19184 71142 15966 02020 11055 21063 39233 40227 58020 60001 333 11055 21141 70000
AAXX 19184 71143 NIL
AAXX 19184 71144 NIL
AAXX 19184 71147 16/// /2608 11052 21077 60001 333 11025 21055 70003
AAXX 19184 71149 NIL
AAXX 19184 71300 NIL
AAXX 19184 71301 17/// ///// 11060 21070 39684 40085 51051 69951 7//4/ 333 10006 21060 70072 555 10100
AAXX 19184 71302 16/// /1917 11001 21040 39343 40168 57020 60001 333 10000 21059 70000
AAXX 19184 71303 46/// ///// 10061 20030 6///1 333 10061 20019 7////
AAXX 19184 71305 15966 82512 11030 21072 39662 49953 56027 60001 333 11029 21159 70000
AAXX 19184 71306 17524 83018 11120 21143 39967 49999 58005 60001 771// 333 11098 21135 70000
AAXX 19184 71307 16/// /2413 10068 20029 39875 40125 58010 60001 333 10068 20009 70000
AAXX 19184 71308 16/// /3307 11019 21077 30075 40161 56022 60001 333 11009 21035 70003
AAXX 19184 71309 NIL
AAXX 19184 71310 16/// /2104 11019 21101 30117 40154 56034 60001 333 11015 21048 70000
AAXX 19184 71311 NIL
AAXX 19184 71312 16/// /2011 11098 21133 39713 40182 57022 60001 333 11075 21160 70000
AAXX 19184 71314 16/// /2711 10042 20011 39724 40074 50002 60001 333 10043 21021 70000 555 10050
AAXX 19184 71315 NIL
AAXX 19184 71316 16/// /2311 11011 21082 39389 40079 58032 60001 333 11011 21121 70000
AAXX 19184 71317 NIL
AAXX 19184 71318 16/// /2114 11063 21084 39197 40166 58028 60001 333 11062 21145 70000 555 10050
AAXX 19184 71319 17/// /2308 11080 21084 39150 40023 56035 60051 7//4/ 333 11080 21185 70045
AAXX 19184 71320 16/// /3116 11263 21287 39852 49853 53007 60001 333 11180 21263 70000
AAXX 19184 71321 NIL
AAXX 19184 71322 17/// /2406 11263 21290 30037 40050 58035 60021 7//4/ 333 11263 21302 70024
AAXX 19184 71323 NIL
AAXX 19184 71331 16/// /2005 11088 21118 60001 333 11082 21106 70000
AAXX 19184 71332 NIL
AAXX 19184 71334 NIL
AAXX 19184 71335 46964 02619 11167 51006 6///1 333 11161 21191 7////
AAXX 19184 71336 46/// ///29 11015 21048 30061 40083 56014 6///1 333 11010 21034 7////
AAXX 19184 71337 46/// /3603 11067 21114 39892 40135 58027 6///1 333 11059 21130 7////
AAXX 19184 71338 46964 31807 11198 21271 39829 49836 55000 6///1 333 11143 21264 7////
AAXX 19184 71339 17964 02204 11065 21223 30115 40130 56024 69951 7//44 333 11061 21209 70005
AAXX 19184 71340 NIL
AAXX 19184 71341 NIL
AAXX 19184 71342 NIL
AAXX 19184 71343 NIL
AAXX 19184 71344 NIL
AAXX 19184 71345 NIL
AAXX 19184 71346 NIL
AAXX 19184 71347 NIL
AAXX 19184 71348 NIL
AAXX 19184 71349 NIL
AAXX 19184 71812 46764 62307 11263 21306 30036 40050 58035 6///1 333 11263 21301 7////
AAXX 19184 71819 15966 02610 11077 21119 30102 40145 56025 60001 333 11074 21204 70000
AAXX 19184 71820 16/// /2319 10065 20023 39962 40076 57013 60001 333 10066 21030 70000
AAXX 19184 71823 16764 61003 11139 21159 39623 40010 56019 60001 333 11134 21200 70010
AAXX 19184 71824 NIL
AAXX 19184 71826 17/// /2713 11154 21175 39823 49866 53032 60031 7//4/ 333 11117 21199 70031
AAXX 19184 71829 17/// /1213 11072 21085 39879 40042 56058 60051 7//4/ 333 11072 21156 70048
AAXX 19184 71833 46/// /2610 10047 20013 6///1 333 10047 21020 7////
AAXX 19184 71835 16/// /3010 11102 21126 39698 40191 51015 60001 333 11092 21112 70000 555 10010
AAXX 19184 71837 NIL
AAXX 19184 71839 NIL
AAXX 19184 71840 NIL
AAXX 19184 71846 16/// /2909 11112 21141 39852 40177 51021 60001 333 11111 21123 70005 555 10060
AAXX 19184 71847 NIL
AAXX 19184 71848 NIL
AAXX 19184 71849 NIL
AAXX 19184 71043 11532 82804 11170 21214 39852 49946 52015 60011 78577 885// 333 11146 21257 48022 70012 90973 93101
AAXX 19184 71045 16/// /0404 11073 21087 39160 40020 58010 60001 333 10001 21098 70000 555 10010
AAXX 19184 71050 NIL
AAXX 19184 71051 NIL
AAXX 19184 71052 NIL
AAXX 19184 71066 12974 10000 11021 21087 39567 49990 56009 6001 81041 333 11017 21214 70000
AAXX 19184 71068 12974 72413 10017 21040 39354 40050 58015 60001 85072 333 10021 21141 70000
AAXX 19184 71069 16964 33006 10023 21037 39356 40063 58024 60001 333 10026 21128 70000
AAXX 19184 71076 16/// /1502 11110 21120 39549 49944 56047 60001 333 11110 21153 70000
AAXX 19184 71077 16/// /2207 11029 21077 39508 40054 56045 60001 333 11029 21161 70006
AAXX 19184 71079 NIL
AAXX 19184 71081 46962 03217 11263 21304 39848 49860 53007 6///1 333 11181 21264 7////
AAXX 19184 71082 NIL
AAXX 19184 71083 11974 62908 11306 21349 39992 40036 56016 69901 77677 80002 333 11282 21313 48052 79999 90983
AAXX 19184 71090 46014 83216 11241 21278 39853 49889 50000 6///1 333 11222 21354 7////
AAXX 19184 71091 460// /0424 11197 39609 49818 53012 6///1 333 7////
AAXX 19184 71092 46622 61015 11221 39153 49817 53029 6///1 333 11209 21254 7////
AAXX 19184 71093 460// /2809 11215 39330 49827 53008 6///1 333 11199 21219 7////
AAXX 19184 71094 46004 /1922 11193 38936 49834 55000 6///1 333 11192 21253 7////
AAXX 19184 71095 46964 30818 11193 21309 39825 49905 53007 6///1 333 11160 21210 7////
AAXX 19184 71101 160// /0000 30051 55022 60001 333 70080
AAXX 19184 71104 12874 71409 11027 21054 39103 40235 56014 60001 87070 333 11027 21080 70000
AAXX 19184 71108 NIL
AAXX 19184 71109 11574 81210 10059 20034 30223 40250 58019 69961 76166 885// 333 10061 20039 70006 90973
AAXX 19184 68029 42560 41203 10225 20211 48504 52004 83983 333 10282
AAXX 19184 60715 11560 42711 10097 20030 30191 40198 53016 60032 70196 83880 333 10116 58037 83820 91017 91136
AAXX 19184 60723 11560 52904 10091 20047 30022 40214 53015 60052 70361 83280 333 10116 83823 83360
AAXX 19184 60725 11558 72306 10063 2//// 30046 40229 53012 60052 72582 879// 333 10116 84820 81926 84630
AAXX 19184 60735 12565 22704 10104 20018 30126 40209 53011 60002 82800 333 10138 82823
AAXX 19184 60745 12562 13504 10098 21022 39853 40230 53015 60002 81200 333 10141 58065 81826 91008 91125
AAXX 19184 60748 12560 42606 10081 20013 39800 40227 53016 60002 84200 333 10127 84823
AAXX 19184 60750 12560 23206 10108 21009 30187 40213 51015 60002 82200 333 10151 82820
AAXX 19184 60760 NIL
AAXX 19184 60765 12558 32704 10137 20024 30214 40218 53002 60002 83500 333 10163 83630 92436 925//
AAXX 19184 60767 12560 22508 10108 21006 30073 40220 53014 60002 82200 333 10149 82820
AAXX 19184 60769 12460 43419 10142 20008 30203 40207 53014 60002 83830 333 10158 82816
AAXX 19184 71816 12674 62603 11123 21186 30052 40116 57026 60001 81101 333 11117 21212 70000
AAXX 19184 71817 12974 02103 11064 21224 30115 40128 57027 60001 333 70000
AAXX 19184 71818 12974 12211 11120 21134 30102 40121 57021 60001 81031 333 11114 21163 70000
AAXX 19184 71822 11312 82506 11034 21042 39498 49972 55002 60031 77177 887// 333 11034 21128 43040 70096 90983 93103
AAXX 19184 71825 11448 81603 11146 21178 39354 40041 58040 60021 77177 885// 333 11146 21171 47078 70018 90983 93102
AAXX 19184 71827 11974 23007 11152 21172 39796 40047 52006 69901 70277 81071 333 11152 21203 47020 79999 90963
AAXX 19184 71828 16964 01604 11157 21204 39398 40054 57023 60001 333 11157 21194 70000
AAXX 19184 71831 11440 82909 11096 21123 39856 40141 51036 69901 77177 885// 333 11016 21097 48039 70112 90983
AAXX 19184 71832 NIL
AAXX 19184 71834 11340 93308 11101 21129 39745 40183 51029 69901 77177 887// 333 11041 21101 48023 70068 90973
AAXX 19184 71841 NIL
AAXX 19184 71842 11474 82906 11090 21106 39742 40225 51022 69901 77177 885// 333 11050 21097 47015 70074 90983
AAXX 19184 71844 16464 82911 11145 21167 39892 40183 50010 60001 333 11144 21226 70005
AAXX 19184 71845 11459 72906 11102 21125 39707 40196 51014 69901 77177 87500 333 11091 21113 44018 70004 90973
AAXX 19184 71850 11474 82806 11076 21098 39725 40238 51017 69941 77177 885// 333 11044 21083 48007 70024 90983
AAXX 19184 71852 16564 82605 11049 21073 39950 40252 51015 60001 333 11039 21064 70000
AAXX 19184 71854 11558 72707 11096 21130 39738 40225 51011 69901 77177 87500 333 11063 21099 48017 70008 90993
AAXX 19184 71858 NIL
AAXX 19184 71861 46/// /2307 11098 21126 39504 40254 58001 6///1 333 11095 21145 7//// 555 10030
AAXX 19184 71862 12974 12608 11056 21084 39554 40277 58002 60001 81030 333 11055 21124 70000
AAXX 19184 71863 46964 02407 11071 21112 39534 40255 58012 6///1 333 11071 21166 7////
AAXX 19184 71726 17/// /2305 11014 21022 39453 49993 56011 60021 7//4/ 333 11014 21106 70065 555 10060
AAXX 19184 71727 11510 81011 11066 21078 39807 40007 57042 60021 77177 885// 333 11065 21164 48019 70026 90973
AAXX 19184 71728 11582 82221 11035 21072 39759 49981 57028 69901 77177 8252/ 333 11035 21108 46997 70008 90983
AAXX 19184 71730 NIL
AAXX 19184 71731 11448 83217 10010 20000 39611 40062 52023 69961 77762 887// 333 10026 21063 46997 70018 90916
AAXX 19184 71735 NIL
AAXX 19184 71738 11474 80309 11061 21110 39802 40159 51041 69901 77172 885// 333 10029 21063 43027 70006 90977
AAXX 19184 71739 NIL
AAXX 19184 71749 16564 83211 11051 21099 39957 40207 51034 60001 333 10004 21057 70005
AAXX 19184 71799 12483 80000 10051 20045 30286 40310 55001 60001 81539 333 10058 20012 70000
AAXX 19184 71800 16/// /0331 11013 21013 30023 40056 56018 60001 333 10011 21027 70006
AAXX 19184 71801 NIL
AAXX 19184 71803 11580 73610 11062 21115 39946 40137 57024 69901 72688 86501 333 11059 21090 41997 79999 90973
AAXX 19184 71807 NIL
AAXX 19184 71808 12574 12707 11102 21189 30100 40148 56026 60001 81500 333 11102 21186 70000
AAXX 19184 71809 12974 00000 11086 21144 30131 40159 57031 60001 333 11075 21192 70000
AAXX 19184 71810 NIL
AAXX 19184 71811 NIL
AAXX 19184 71813 NIL
AAXX 19184 71814 16/// /1702 11069 21092 30136 40146 56033 60001 333 11069 21207 70000
AAXX 19184 71815 12474 10504 11045 21143 30121 40153 56027 60001 81500 333 11045 21132 41997 70000
AAXX 19184 71114 160// /0000 10037 20031 30266 40315 51006 60011 333 10037 20008 70015
AAXX 19184 71120 11874 63211 11016 21099 39429 40093 58041 60001 71422 86070 333 11016 21131 70000
AAXX 19184 71122 16/// /2209 11067 21097 38615 40257 55008 60001 333 21101 7//// 555 10030
AAXX 19184 71123 12874 71908 11030 21062 39251 40134 56027 60001 86078 333 11030 21151 70000
AAXX 19184 71125 12874 72428 11013 21093 39507 40101 58044 60001 86072 333 70000
AAXX 19184 71129 12974 61810 11073 21083 39343 40196 58028 60001 80001 333 11073 21142 70000
AAXX 19184 71131 16/// /2312 11062 21066 38948 40235 56018 60001 333 11051 21138 70000
AAXX 19184 71135 16/// /2412 11071 21108 39146 40261 58010 60001 333 11053 21149 70000
AAXX 19184 71137 16/// /2302 11104 21114 39291 40266 58005 60001 333 11041 21215 70000
AAXX 19184 71140 12474 72611 11075 21088 39745 40262 5/007 60001 87500 333 11052 21145 70016
AAXX 19184 71145 11456 82607 11130 21148 39892 40195 50002 69901 77177 885// 333 11107 21171 48040 70006 90973
AAXX 19184 71148 16/// /2808 11068 21090 39667 40262 50007 60001 333 11030 21104 70000
AAXX 19184 71185 17564 80000 11067 30125 40149 56028 69951 7//44 333 11061 21148 70005
AAXX 19184 71188 12574 71502 11076 21187 30065 40109 58055 60001 83571 333 11074 21260 70000
AAXX 19184 71200 16/// /2005 10066 20050 60001 333 10066 20046 70000
AAXX 19184 71207 16/// /0000 10016 30240 40306 50000 60001 333 10016 21007 70000
AAXX 19184 71260 13/// ///// 11006 21046 39897 40134 51046 69901 333 10040 21010 79999
AAXX 19184 71397 12574 32004 11008 21057 30129 40164 57044 60001 81501 333 10000 21061 45997 79999
AAXX 19184 71400 16/64 /0404 11073 21119 60001 333 11071 21122 70000
AAXX 19184 71403 46/// /3205 11006 21094 30145 40165 56024 6///1 333 11003 21041 7////
AAXX 19184 71411 16/// /1908 10004 21056 30168 40181 56035 60001 333 10005 21073 70000
AAXX 19184 71412 16/// /3403 11025 21092 30145 40155 58026 60001 333 11023 21037 70000
AAXX 19184 71421 NIL
AAXX 19184 71430 16/// /2523 10070 20034 39989 40085 56008 60001 333 10070 21015 70000
AAXX 19184 71431 16/// /2710 10053 20029 39980 40075 58008 60001 333 10056 21007 70000
AAXX 19184 71432 16/// /2211 10068 20026 30004 40100 58004 60001 333 10072 20009 70005
AAXX 19184 71433 NIL
AAXX 19184 71435 NIL
AAXX 19184 71441 46/// /2606 11036 21068 39940 40256 51017 6///1 333 11031 21060 7////
AAXX 19184 71443 16/// /2314 11074 21099 39798 40220 58004 60001 333 11033 21075 70000
AAXX 19184 71444 16/// /2406 11077 21095 39461 40237 51002 60001 333 11048 21081 70013 555 10020
AAXX 19184 71447 16/// /2507 11070 21096 39711 40274 50005 60001 333 11059 21127 70000
AAXX 19184 71467 16/// /1101 11266 21291 39875 49994 53011 60001 333 11264 21317 70000
AAXX 19184 71472 NIL
AAXX 19184 71474 16964 01908 11051 21071 38985 40256 58012 60001 333 11047 21092 70000
AAXX 19184 71510 16/// /2208 11069 21085 39475 40202 56028 60001 333 11069 21157 70000
AAXX 19184 71538 12774 52413 10086 20032 39895 40125 58005 60001 85500 333 10086 20014 70000
AAXX 19184 71600 16564 83516 10002 21071 30139 40145 56014 60001 333 10011 21004 70005
AAXX 19184 71601 NIL
AAXX 19184 71930 13874 82605 11024 21075 39177 40121 56014 60003 86071 333 11024 21090 46017 70000
AAXX 19184 71931 NIL
AAXX 19184 71934 11674 71906 11060 21077 39649 49906 56029 69901 70172 86530 333 11060 21202 79999 90931
AAXX 19184 71935 12274 72713 10011 21067 39687 49892 56001 60001 86570 333 10013 21195 79999
AAXX 19184 71936 11569 72506 11074 21077 39603 49862 55010 69981 77177 82530 333 11065 21203 48020 70010 90983 93101
AAXX 19184 71937 NIL
AAXX 19184 71938 11248 80715 11212 21235 39918 49948 53009 69921 77177 886// 333 11203 21347 47025 70002 90983 93101
AAXX 19184 71940 12782 72505 10011 21040 39291 40102 57014 60001 81578 333 10015 21119 70000
AAXX 19184 71943 12974 82114 10010 21053 39237 40071 58008 60001 82071 333 10018 21076 70000
AAXX 19184 71944 160// ///// 11013 56018 60001 333 11010 21072 70000
AAXX 19184 71945 12780 51807 11123 21178 39538 40015 53001 60001 81501 333 11112 21189 70000
AAXX 19184 71946 12774 52606 11006 21033 39690 49902 53013 60001 85500 333 10016 21241 70000
AAXX 19184 71948 47030 /0621 11265 39851 49967 53011 6///1 745// 333 11241 21279 7////
AAXX 19184 71949 46/// /1702 11101 21114 39120 49988 53005 6///1 333 11007 21232 7////
AAXX 19184 71951 NIL
AAXX 19184 71957 47420 93406 11226 21296 39894 49985 53014 6///1 745// 333 11212 21259 7////
AAXX 19184 71964 12786 11610 11026 21095 39150 49997 55000 60001 81530 333 10013 21057 70000
AAXX 19184 71966 16/// /0000 11142 21159 39517 49981 51016 60001 333 11122 21186 70000
AAXX 19184 71968 470// /3206 11225 39945 40011 53023 6///1 745// 333 11210 21292 7////
AAXX 19184 71864 NIL
AAXX 19184 71865 16/// /2212 11065 21109 39522 40222 58016 60001 333 11065 21135 70000
AAXX 19184 71866 46964 02113 11061 21090 39576 40205 56024 6///1 333 11061 21151 7////
AAXX 19184 71867 12874 72009 11092 21112 39831 40174 58023 60001 87010 333 11075 21112 79999
AAXX 19184 71868 16/// /2210 11071 21112 39749 40200 58016 60001 333 11056 21101 70000
AAXX 19184 71869 12974 62209 11079 21099 39638 40175 58031 60001 81071 333 11076 21148 70000
AAXX 19184 71871 15966 82218 11038 21076 39313 40134 58034 60001 333 11038 21124 70000
AAXX 19184 71877 12986 82719 10040 21079 38890 40176 58017 60001 84072 333 10040 21100 79999
AAXX 19184 71878 12974 82105 11079 21110 39076 40182 56020 60001 82071 333 11067 21169 70000
AAXX 19184 71879 16864 32107 11040 21085 39306 40122 57023 60001 333 11039 21091 70005
AAXX 19184 71880 12482 70000 11027 21065 39166 40294 53005 60001 81572 333 10003 21035 70000
AAXX 19184 71882 160// /3002 11007 21027 39763 40315 55002 60001 333 11007 21034 70005
AAXX 19184 71883 NIL
AAXX 19184 71887 12486 60000 11029 21045 39864 40298 58004 60001 85571 333 11022 21054 70000
AAXX 19184 71889 12974 60000 11014 21054 39887 40317 51006 60001 82071 333 11014 21068 70000
AAXX 19184 71891 16964 00102 10006 21021 30000 40280 58003 60001 333 10012 21006 70000
AAXX 19184 71892 12469 80905 10061 20044 30308 40313 53002 60001 885// 333 10061 20037 70000
AAXX 19184 71893 12480 80000 10046 20024 30269 40301 57008 60001 8657/ 333 10047 20015 70000
AAXX 19184 71894 16/// /1008 10063 20060 30287 40296 56011 60001 333 10063 20031 70000
AAXX 19184 71896 15666 81920 11001 21042 39331 40171 58020 60001 333 11001 21066 70000
AAXX 19184 71897 11224 81445 10061 20052 3//// 4//// 56035 60171 76366 887XX 333 10064 20055 70208 90999
AAXX 19184 71898 160// ///// 10060 56032 60201 333 10060 20000 70320
AAXX 19184 71899 11212 82228 10080 20080 3//// 4//// 55050 60131 76362 887XX 333 10083 20036 70200 90983
AAXX 19184 71902 12974 12504 11143 21207 30068 40077 57014 60001 81040 333 11136 21175 70000
AAXX 19184 71905 NIL
AAXX 19184 71906 11774 72108 11148 21190 39997 40049 58010 69901 70277 83530 333 11141 21212 48015 79999 90937
AAXX 19184 71907 17327 93014 11136 21167 39970 40003 58003 60001 745// 333 11117 21159 70000
AAXX 19184 71909 16564 30402 11128 21144 39842 49885 51010 60001 333 11095 21135 70000
AAXX 19184 71910 47464 82917 11167 21189 39821 49883 53012 6///1 745// 333 11135 21168 7////
AAXX 19184 71911 47606 82821 11301 39885 49943 56009 6///1 741// 333 11300 21338 7////
AAXX 19184 71912 11274 82210 11164 21190 39954 40144 56025 69901 77111 886// 333 11161 21218 47014 79999 90921
AAXX 19184 71915 11569 23220 11289 21336 39853 49936 51004 69901 77673 81501 333 11194 21291 48044 79999 90983
AAXX 19184 71917 11974 21102 11395 21434 30000 40015 53008 69901 77600 80001 333 11373 21416 43013 79999 90952
AAXX 19184 71922 12774 81911 11064 21106 39615 40088 58057 60001 83570 333 11064 21137 70002
AAXX 19184 71924 11474 60510 11286 21339 39867 49960 55000 69901 77177 86530 333 11282 21343 48038 79999 90927
AAXX 19184 71925 11574 10506 11358 21403 39971 40014 55002 69901 77677 81500 333 11334 21370 42021 79999 90983
AAXX 19184 71926 11556 81103 11288 21341 39989 40014 57024 69901 77677 8855/ 333 11283 21311 46043 79999 90983
AAXX 19184 71928 16/// /1204 11102 21118 38973 40174 56023 60001 333 11102 21192 70000
AAXX 19184 71043 11532 82804 11170 21214 39852 49946 52015 60011 78577 885// 333 11146 21257 48022 70012 90973 93101
AAXX 19184 71045 16/// /0404 11073 21087 39160 40020 58010 60001 333 10001 21098 70000 555 10010
AAXX 19184 71050 NIL
AAXX 19184 71051 NIL
AAXX 19184 71052 NIL
AAXX 19184 71066 12974 10000 11021 21087 39567 49990 56009 6001 81041 333 11017 21214 70000
AAXX 19184 71068 12974 72413 10017 21040 39354 40050 58015 60001 85072 333 10021 21141 70000
AAXX 19184 71069 16964 33006 10023 21037 39356 40063 58024 60001 333 10026 21128 70000
AAXX 19184 71076 16/// /1502 11110 21120 39549 49944 56047 60001 333 11110 21153 70000
AAXX 19184 71077 16/// /2207 11029 21077 39508 40054 56045 60001 333 11029 21161 70006
AAXX 19184 71079 NIL
AAXX 19184 71081 46962 03217 11263 21304 39848 49860 53007 6///1 333 11181 21264 7////
AAXX 19184 71082 NIL
AAXX 19184 71083 11974 62908 11306 21349 39992 40036 56016 69901 77677 80002 333 11282 21313 48052 79999 90983
AAXX 19184 71090 46014 83216 11241 21278 39853 49889 50000 6///1 333 11222 21354 7////
AAXX 19184 71091 460// /0424 11197 39609 49818 53012 6///1 333 7////
AAXX 19184 71092 46622 61015 11221 39153 49817 53029 6///1 333 11209 21254 7////
AAXX 19184 71093 460// /2809 11215 39330 49827 53008 6///1 333 11199 21219 7////
AAXX 19184 71094 46004 /1922 11193 38936 49834 55000 6///1 333 11192 21253 7////
AAXX 19184 71095 46964 30818 11193 21309 39825 49905 53007 6///1 333 11160 21210 7////
AAXX 19184 71101 160// /0000 30051 55022 60001 333 70080
AAXX 19184 71104 12874 71409 11027 21054 39103 40235 56014 60001 87070 333 11027 21080 70000
AAXX 19184 71108 NIL
AAXX 19184 71109 11574 81210 10059 20034 30223 40250 58019 69961 76166 885// 333 10061 20039 70006 90973
AAXX 19184 71603 12574 42311 10010 21063 30124 40178 56035 60001 81501 333 10010 21064 79999
AAXX 19184 71607 16/// /1807 11017 21091 30112 40145 56059 60001 333 11017 21160 70000
AAXX 19184 71609 12574 52110 11020 21080 30017 40154 58046 60001 85500 333 11016 21135 70000
AAXX 19184 71610 15666 81908 11005 21070 39775 40076 56034 60001 333 11005 21160 70000
AAXX 19184 71621 12574 82416 10064 20025 39975 40081 56010 60001 885// 333 10069 21019 70000
AAXX 19184 71623 NIL
AAXX 19184 71624 12574 82512 10065 20016 39887 40098 50000 60001 885// 333 10068 20002 70000
AAXX 19184 71625 17348 62605 10039 20015 39882 40042 53004 60001 743// 333 10048 21061 70005
AAXX 19184 71627 11574 82320 10047 21011 30006 40051 57030 69901 72272 885// 333 10049 21088 41997 79999 90957
AAXX 19184 71628 13560 82315 10050 20011 39909 40049 58014 69901 88500 333 10050 21078 79999
AAXX 19184 71630 NIL
AAXX 19184 71631 16/// /2608 10029 20010 39597 40096 51003 60001 333 10033 21030 70000
AAXX 19184 71633 12574 82914 10047 20013 39819 40090 52013 60001 885// 333 10055 21013 79999
AAXX 19184 71705 12574 31611 11033 21096 30054 40144 58054 60001 81571 333 11030 21140 70002
AAXX 19184 71706 12574 11909 11032 21091 30103 40165 57032 60001 81501 333 11026 21073 70002
AAXX 19184 71707 11574 70107 11032 21085 30074 40152 56021 69901 70282 87500 333 11018 21041 44004 70004 90967
AAXX 19184 71709 12680 21904 11036 21105 30143 40157 58030 60001 82502 333 11030 21065 79999
AAXX 19184 71711 NIL
AAXX 19184 71714 17/// /3402 11061 21077 39976 40070 56042 60041 7//4/ 333 11061 21163 70043 555 10040
AAXX 19184 71715 NIL
AAXX 19184 71718 11/12 91621 11074 21085 39974 40041 56065 60021 77122 333 11074 21148 44002 70020 90942 93102
AAXX 19184 71719 16/// /1914 11043 21104 30116 40122 58057 60001 333 11042 21132 70000
AAXX 19184 71500 NIL
AAXX 19184 71501 NIL
AAXX 19184 71502 NIL
AAXX 19184 71503 NIL
AAXX 19184 71504 NIL
AAXX 19184 71505 NIL
AAXX 19184 71506 NIL
AAXX 19184 71507 16/// /1907 10006 21046 60001 333 10013 21140 70000
AAXX 19184 71508 16/// ///// 10074 20027 39963 40100 51003 60001 333 10075 20008 70000
AAXX 19184 71509 NIL
AAXX 19184 71511 NIL
AAXX 19184 71512 NIL
AAXX 19184 71513 15566 81812 11049 21098 30115 40131 58034 60001 333 11048 21172 70000
AAXX 19184 71514 NIL
AAXX 19184 71515 NIL
AAXX 19184 71516 16/// /1805 11048 21103 60001 333 11048 21152 70000
AAXX 19184 71517 NIL
AAXX 19184 71518 NIL
AAXX 19184 71519 NIL
AAXX 19184 71520 NIL
AAXX 19184 71521 NIL
AAXX 19184 71522 NIL
AAXX 19184 71523 NIL
AAXX 19184 71524 17/// /1807 11006 21045 30031 40058 56032 60011 7//4/ 333 11006 21101 70010
AAXX 19184 71525 NIL
AAXX 19184 71526 NIL
AAXX 19184 71527 17466 82906 11081 21100 39710 40229 51021 60001 771// 333 11043 21085 70013
AAXX 19184 71528 NIL
AAXX 19184 71529 46/// /0904 11096 21110 39644 49871 56032 6///1 333 11096 21184 7//// 555 10020
AAXX 19184 71532 15466 82709 10046 20025 39726 40069 51003 60001 333 10048 21043 70000
AAXX 19184 71534 16564 82710 10051 20021 39816 40086 51006 60001 333 10051 21021 70000
AAXX 19184 71535 NIL
AAXX 19184 71536 NIL
AAXX 19184 71537 NIL
AAXX 19184 71539 NIL
AAXX 19184 71540 NIL
AAXX 19184 71541 NIL
AAXX 19184 71542 16/// /2615 10014 21053 60001 333 10020 21100 70000
AAXX 19184 71543 NIL
AAXX 19184 71544 NIL
AAXX 19184 71545 16/// ///// 11028 21080 60001 333 11028 21105 70006
AAXX 19184 71546 NIL
AAXX 19184 71547 NIL
AAXX 19184 71548 NIL
AAXX 19184 71549 NIL
AAXX 19184 71700 15966 62013 11027 21182 30112 40138 58063 60001 333 11023 21169 70000
AAXX 19184 71701 12974 81911 11025 21163 30077 40141 57059 60001 83034 333 11025 21167 70000
AAXX 19184 71702 16/// /1911 11037 21093 30131 40146 56041 60001 333 11034 21106 70000
AAXX 19184 71703 11640 81714 11090 21121 39785 40093 57056 69901 77111 885// 333 11089 21219 42005 79999 90910
AAXX 19184 71704 15566 62608 10084 20025 39894 40114 58002 60001 333 10086 20005 70000
AAXX 19184 71710 16/// /1904 11036 21107 30142 40152 58030 60001 333 11034 21062 70000
AAXX 19184 71712 17/// /2416 10054 21005 39994 40055 58016 60011 7//4/ 333 10055 21108 70012
AAXX 19184 71713 17/// /2403 11048 21057 60011 7//4/ 333 11048 21123 70012
AAXX 19184 71716 NIL
AAXX 19184 71717 NIL
AAXX 19184 71720 16/// /1101 10049 20035 30151 40306 56005 60001 333 10049 20039 70000
AAXX 19184 71721 17/// /1905 10016 20012 39784 40030 56006 60011 7//4/ 333 10017 21071 70011
AAXX 19184 71723 16/// /2110 11006 21052 30037 40047 56037 60001 333 11006 21114 70000
AAXX 19184 71724 17/// /2114 11004 21035 30037 40045 56039 60011 7//4/ 333 11004 21099 70010
AAXX 19184 71732 16/// /3410 10013 20002 60001 333 10037 21045 70012
AAXX 19184 71733 16/// /3210 11004 21028 39652 40077 51037 60001 333 10023 21037 70000
AAXX 19184 71734 NIL
AAXX 19184 71736 NIL
AAXX 19184 71737 NIL
AAXX 19184 71741 16/// /0201 11026 21044 39860 40294 56005 60001 333 11020 21053 70000
AAXX 19184 71742 NIL
AAXX 19184 71743 NIL
AAXX 19184 71744 NIL
AAXX 19184 71745 NIL
AAXX 19184 71746 NIL
AAXX 19184 71747 NIL
AAXX 19184 71748 NIL
AAXX 19184 71114 160// /0000 10037 20031 30266 40315 51006 60011 333 10037 20008 70015
AAXX 19184 71120 11874 63211 11016 21099 39429 40093 58041 60001 71422 86070 333 11016 21131 70000
AAXX 19184 71122 16/// /2209 11067 21097 38615 40257 55008 60001 333 21101 7//// 555 10030
AAXX 19184 71123 12874 71908 11030 21062 39251 40134 56027 60001 86078 333 11030 21151 70000
AAXX 19184 71125 12874 72428 11013 21093 39507 40101 58044 60001 86072 333 70000
AAXX 19184 71129 12974 61810 11073 21083 39343 40196 58028 60001 80001 333 11073 21142 70000
AAXX 19184 71131 16/// /2312 11062 21066 38948 40235 56018 60001 333 11051 21138 70000
AAXX 19184 71135 16/// /2412 11071 21108 39146 40261 58010 60001 333 11053 21149 70000
AAXX 19184 71137 16/// /2302 11104 21114 39291 40266 58005 60001 333 11041 21215 70000
AAXX 19184 71140 12474 72611 11075 21088 39745 40262 5/007 60001 87500 333 11052 21145 70016
AAXX 19184 71145 11456 82607 11130 21148 39892 40195 50002 69901 77177 885// 333 11107 21171 48040 70006 90973
AAXX 19184 71148 16/// /2808 11068 21090 39667 40262 50007 60001 333 11030 21104 70000
AAXX 19184 71185 17564 80000 11067 30125 40149 56028 69951 7//44 333 11061 21148 70005
AAXX 19184 71188 12574 71502 11076 21187 30065 40109 58055 60001 83571 333 11074 21260 70000
AAXX 19184 71200 16/// /2005 10066 20050 60001 333 10066 20046 70000
AAXX 19184 71207 16/// /0000 10016 30240 40306 50000 60001 333 10016 21007 70000
AAXX 19184 71260 13/// ///// 11006 21046 39897 40134 51046 69901 333 10040 21010 79999
AAXX 19184 71930 13874 82605 11024 21075 39177 40121 56014 60003 86071 333 11024 21090 46017 70000
AAXX 19184 71931 NIL
AAXX 19184 71934 11674 71906 11060 21077 39649 49906 56029 69901 70172 86530 333 11060 21202 79999 90931
AAXX 19184 71935 12274 72713 10011 21067 39687 49892 56001 60001 86570 333 10013 21195 79999
AAXX 19184 71936 11569 72506 11074 21077 39603 49862 55010 69981 77177 82530 333 11065 21203 48020 70010 90983 93101
AAXX 19184 71937 NIL
AAXX 19184 71938 11248 80715 11212 21235 39918 49948 53009 69921 77177 886// 333 11203 21347 47025 70002 90983 93101
AAXX 19184 71940 12782 72505 10011 21040 39291 40102 57014 60001 81578 333 10015 21119 70000
AAXX 19184 71943 12974 82114 10010 21053 39237 40071 58008 60001 82071 333 10018 21076 70000
AAXX 19184 71944 160// ///// 11013 56018 60001 333 11010 21072 70000
AAXX 19184 71945 12780 51807 11123 21178 39538 40015 53001 60001 81501 333 11112 21189 70000
AAXX 19184 71946 12774 52606 11006 21033 39690 49902 53013 60001 85500 333 10016 21241 70000
AAXX 19184 71948 47030 /0621 11265 39851 49967 53011 6///1 745// 333 11241 21279 7////
AAXX 19184 71949 46/// /1702 11101 21114 39120 49988 53005 6///1 333 11007 21232 7////
AAXX 19184 71951 NIL
AAXX 19184 71957 47420 93406 11226 21296 39894 49985 53014 6///1 745// 333 11212 21259 7////
AAXX 19184 71964 12786 11610 11026 21095 39150 49997 55000 60001 81530 333 10013 21057 70000
AAXX 19184 71966 16/// /0000 11142 21159 39517 49981 51016 60001 333 11122 21186 70000
AAXX 19184 71968 470// /3206 11225 39945 40011 53023 6///1 745// 333 11210 21292 7////
AAXX 19184 71603 12574 42311 10010 21063 30124 40178 56035 60001 81501 333 10010 21064 79999
AAXX 19184 71607 16/// /1807 11017 21091 30112 40145 56059 60001 333 11017 21160 70000
AAXX 19184 71609 12574 52110 11020 21080 30017 40154 58046 60001 85500 333 11016 21135 70000
AAXX 19184 71610 15666 81908 11005 21070 39775 40076 56034 60001 333 11005 21160 70000
AAXX 19184 71621 12574 82416 10064 20025 39975 40081 56010 60001 885// 333 10069 21019 70000
AAXX 19184 71623 NIL
AAXX 19184 71624 12574 82512 10065 20016 39887 40098 50000 60001 885// 333 10068 20002 70000
AAXX 19184 71625 17348 62605 10039 20015 39882 40042 53004 60001 743// 333 10048 21061 70005
AAXX 19184 71627 11574 82320 10047 21011 30006 40051 57030 69901 72272 885// 333 10049 21088 41997 79999 90957
AAXX 19184 71628 13560 82315 10050 20011 39909 40049 58014 69901 88500 333 10050 21078 79999
AAXX 19184 71630 NIL
AAXX 19184 71631 16/// /2608 10029 20010 39597 40096 51003 60001 333 10033 21030 70000
AAXX 19184 71633 12574 82914 10047 20013 39819 40090 52013 60001 885// 333 10055 21013 79999
AAXX 19184 71705 12574 31611 11033 21096 30054 40144 58054 60001 81571 333 11030 21140 70002
AAXX 19184 71706 12574 11909 11032 21091 30103 40165 57032 60001 81501 333 11026 21073 70002
AAXX 19184 71707 11574 70107 11032 21085 30074 40152 56021 69901 70282 87500 333 11018 21041 44004 70004 90967
AAXX 19184 71709 12680 21904 11036 21105 30143 40157 58030 60001 82502 333 11030 21065 79999
AAXX 19184 71711 NIL
AAXX 19184 71714 17/// /3402 11061 21077 39976 40070 56042 60041 7//4/ 333 11061 21163 70043 555 10040
AAXX 19184 71715 NIL
AAXX 19184 71718 11/12 91621 11074 21085 39974 40041 56065 60021 77122 333 11074 21148 44002 70020 90942 93102
AAXX 19184 71719 16/// /1914 11043 21104 30116 40122 58057 60001 333 11042 21132 70000
AAXX 19184 71864 NIL
AAXX 19184 71865 16/// /2212 11065 21109 39522 40222 58016 60001 333 11065 21135 70000
AAXX 19184 71866 46964 02113 11061 21090 39576 40205 56024 6///1 333 11061 21151 7////
AAXX 19184 71867 12874 72009 11092 21112 39831 40174 58023 60001 87010 333 11075 21112 79999
AAXX 19184 71868 16/// /2210 11071 21112 39749 40200 58016 60001 333 11056 21101 70000
AAXX 19184 71869 12974 62209 11079 21099 39638 40175 58031 60001 81071 333 11076 21148 70000
AAXX 19184 71871 15966 82218 11038 21076 39313 40134 58034 60001 333 11038 21124 70000
AAXX 19184 71877 12986 82719 10040 21079 38890 40176 58017 60001 84072 333 10040 21100 79999
AAXX 19184 71878 12974 82105 11079 21110 39076 40182 56020 60001 82071 333 11067 21169 70000
AAXX 19184 71879 16864 32107 11040 21085 39306 40122 57023 60001 333 11039 21091 70005
AAXX 19184 71880 12482 70000 11027 21065 39166 40294 53005 60001 81572 333 10003 21035 70000
AAXX 19184 71882 160// /3002 11007 21027 39763 40315 55002 60001 333 11007 21034 70005
AAXX 19184 71883 NIL
AAXX 19184 71887 12486 60000 11029 21045 39864 40298 58004 60001 85571 333 11022 21054 70000
AAXX 19184 71889 12974 60000 11014 21054 39887 40317 51006 60001 82071 333 11014 21068 70000
AAXX 19184 71891 16964 00102 10006 21021 30000 40280 58003 60001 333 10012 21006 70000
AAXX 19184 71892 12469 80905 10061 20044 30308 40313 53002 60001 885// 333 10061 20037 70000
AAXX 19184 71893 12480 80000 10046 20024 30269 40301 57008 60001 8657/ 333 10047 20015 70000
AAXX 19184 71894 16/// /1008 10063 20060 30287 40296 56011 60001 333 10063 20031 70000
AAXX 19184 71896 15666 81920 11001 21042 39331 40171 58020 60001 333 11001 21066 70000
AAXX 19184 71897 11224 81445 10061 20052 3//// 4//// 56035 60171 76366 887XX 333 10064 20055 70208 90999
AAXX 19184 71898 160// ///// 10060 56032 60201 333 10060 20000 70320
AAXX 19184 71899 11212 82228 10080 20080 3//// 4//// 55050 60131 76362 887XX 333 10083 20036 70200 90983
AAXX 19184 71902 12974 12504 11143 21207 30068 40077 57014 60001 81040 333 11136 21175 70000
AAXX 19184 71905 NIL
AAXX 19184 71906 11774 72108 11148 21190 39997 40049 58010 69901 70277 83530 333 11141 21212 48015 79999 90937
AAXX 19184 71907 17327 93014 11136 21167 39970 40003 58003 60001 745// 333 11117 21159 70000
AAXX 19184 71909 16564 30402 11128 21144 39842 49885 51010 60001 333 11095 21135 70000
AAXX 19184 71910 47464 82917 11167 21189 39821 49883 53012 6///1 745// 333 11135 21168 7////
AAXX 19184 71911 47606 82821 11301 39885 49943 56009 6///1 741// 333 11300 21338 7////
AAXX 19184 71912 11274 82210 11164 21190 39954 40144 56025 69901 77111 886// 333 11161 21218 47014 79999 90921
AAXX 19184 71915 11569 23220 11289 21336 39853 49936 51004 69901 77673 81501 333 11194 21291 48044 79999 90983
AAXX 19184 71917 11974 21102 11395 21434 30000 40015 53008 69901 77600 80001 333 11373 21416 43013 79999 90952
AAXX 19184 71922 12774 81911 11064 21106 39615 40088 58057 60001 83570 333 11064 21137 70002
AAXX 19184 71924 11474 60510 11286 21339 39867 49960 55000 69901 77177 86530 333 11282 21343 48038 79999 90927
AAXX 19184 71925 11574 10506 11358 21403 39971 40014 55002 69901 77677 81500 333 11334 21370 42021 79999 90983
AAXX 19184 71926 11556 81103 11288 21341 39989 40014 57024 69901 77677 8855/ 333 11283 21311 46043 79999 90983
AAXX 19184 71928 16/// /1204 11102 21118 38973 40174 56023 60001 333 11102 21192 70000
AAXX 19181 01277 16/// /0000 11024 21030 60022 333 11024 91100
AAXX 19181 01476 16/// /2503 10023 21022 39997 40003 52009 6//// 333 10056 91107
AAXX 19181 01199 11465 8//// 11023 21030 39494 49959 57009 60012 77173 887// 333 11022 91106
AAXX 19181 01262 46/// /2402 10032 20014 333 10037 91106
AAXX 19181 01393 16/// /3003 11024 21042 39166 49968 52013 6//// 333 11022 91108
AAXX 19181 01015 46/// /1601 10023 21020 333 10024 91108
AAXX 19181 01180 11675 83602 10022 21027 39902 49959 57002 60002 70222 885// 333 10030 91108
AAXX 19181 01450 16/// /2303 11043 21081 38860 40014 53007 60002 333 11028 91121
AAXX 19181 01380 11988 03104 11068 21107 69902 70210 333 11024 4/026 91108
AAXX 19181 01440 46/// /2904 11076 21084 38729 40038 54000 333 11042 91112
AAXX 19181 01441 16/// /0901 11105 21116 39022 40044 54000 60002 333 11025 91108
AAXX 19184 60020 NIL
AAXX 19184 60030 01465 70119 10190 20142 30141 40197 51003 69922 70352 878// 333 10220 69927 92437
AAXX 19184 60040 02570 40216 10193 20126 30182 40206 53005 69932 83805 333 10216 60007 92437
AAXX 19184 60338 12982 60000 10124 20079 30196 40263 52004 60002 80006 333 10158 92428
AAXX 19181 48840 32998 03601 10158 20136 30177 40183 57009 333 59029
AAXX 19181 12120 11461 82309 10028 20016 30102 40109 51022 60022 78082 883// 333 10032 20016 91114 93001
AAXX 19181 12250 12764 82203 10020 21011 30071 40162 52011 60002 885// 333 10032 20019 91111 93000
AAXX 19181 12295 12661 22002 11013 21023 39991 40181 51008 60002 82500 333 10029 21014 91109 93000
AAXX 19181 12330 12662 72303 10014 21018 30058 40169 52008 60002 875// 333 10026 20007 91110 93000
AAXX 19181 12375 12970 01801 11016 21026 30049 40185 52007 60002 333 10043 21018 93000
AAXX 19181 12424 12780 72103 10003 21031 30032 40189 52009 69902 875// 333 10041 21011 93000
AAXX 19181 48845 32798 82001 10159 20147 30176 40183 57009 885// 333 59032 88697
AAXX 19181 11231 12760 43101 11021 21025 39608 40198 53009 69902 333 10001 81650 84460
AAXX 19181 12160 12470 82006 10027 21004 30084 40138 51017 60002 885// 333 10031 20021 91011 91113 93000
AAXX 19181 12205 12465 72305 10028 20015 30138 40146 52012 69902 875// 333 10034 20023 91112 93000
AAXX 19181 12465 11958 02101 11017 21033 39944 40186 52006 60002 71000 333 10033 21019 93000
AAXX 19181 12566 11956 60701 11022 21033 39893 40199 53006 60002 71011 80001 333 10022 21047 93000
AAXX 19181 12105 11464 82205 10028 20005 30086 40129 52017 69922 70182 885// 333 10031 20017 88615 91010 91112 93097
AAXX 19181 12195 12663 12207 10011 21020 39924 40156 51013 60002 81500 333 10021 20010 91114 93000
AAXX 19181 12235 11461 82207 10012 21001 39927 40142 53014 69912 70282 885// 333 10019 20009 88614 93091
AAXX 19181 12270 11561 72205 10011 21013 39981 40167 52009 69902 70381 875// 333 10026 20009 93097
AAXX 19181 12280 12571 82106 10019 21015 39995 40155 51012 60002 885// 333 10028 20019 91114 93000
AAXX 19181 12300 12462 82502 10016 21005 30069 40161 52012 60002 885// 333 10028 20015 91110 93000
AAXX 19181 12400 11665 72102 11003 21028 39934 40176 52010 69912 70381 875// 333 10021 21005 91109 93091
AAXX 19181 12435 12662 72104 10011 21032 30006 40182 52009 60002 875// 333 10031 20004 93000
AAXX 19181 12495 11935 41501 11023 21031 39898 40202 53004 60002 71011 80008 333 10020 21023 93000
AAXX 19181 12530 11950 10000 11031 21048 39986 40194 52005 60002 71000 80002 333 10042 21031 93000
AAXX 19181 12570 11940 00801 11036 21037 39870 40202 53006 60002 71011 333 10017 21038 93000
AAXX 19181 12580 11935 70101 11022 21025 39928 40198 53001 60002 71022 8707/ 333 10022 21025 93000
AAXX 19184 41883 31/01 90000 10129 20125 30143 40164 74544 89/// 333 56999 70000
AAXX 19184 41891 31315 82503 10150 20140 30114 40155 71020 8532/ 333 56999 59004 70000 81710 84615 81930 88459
AAXX 19184 41923 31930 00000 10139 30120 30145 40155 70500 333 59001 70000
AAXX 19184 41936 31910 00000 10126 20120 40158 71000 333 59013 70000
AAXX 19184 41943 31/05 90231 10110 20110 30144 40152 74544 89/// 333 59011 70000
AAXX 19184 41950 31/05 90000 10140 20140 30151 40154 74740 89/// 333 56999 59007 70000
AAXX 19184 41978 31914 00000 10150 20130 30138 40144 71044 83700 333 56900 59011 70000 83707
AAXX 19184 41992 31925 00000 10165 20160 30141 40143 71000 333 59004 70000
AAXX 19181 33088 32997 51901 11002 21026 30025 40222 53005 85030 333 10043
AAXX 19181 33177 32997 03401 11011 21023 39960 40205 57002 333 10039
AAXX 19181 33261 32997 81503 10015 21005 30088 40276 58001 8807/ 333 10046
AAXX 19181 33275 32997 81003 11004 21019 30061 40293 58002 8805/ 333 10036
AAXX 19181 33301 32997 61002 11014 21040 39926 40217 58003 86030 333 10045
AAXX 19181 33325 32997 81603 10010 21016 39961 40235 54000 80009 333 10036
AAXX 19181 33377 32997 81001 10014 21006 30074 40273 58005 8807/ 333 10036
AAXX 19181 33415 32997 61105 11012 21044 39794 40206 57011 80009 333 10030
AAXX 19181 33429 32997 00904 11017 21028 39779 40216 58009 333 10034
AAXX 19181 33466 31959 81101 10010 21001 30061 40254 57006 71022 8807/ 333 10041
AAXX 19181 33526 32960 20000 11039 21058 39842 40197 57007 82030 333 10023
AAXX 19181 33562 32597 81104 11002 21014 39859 40231 57006 8655/ 333 10025 86621
AAXX 19181 33614 32362 80702 10023 20004 30158 40265 57006 885// 333 10060 88708
AAXX 19181 33761 31996 80803 10020 20007 39996 40224 57013 71042 8805/ 333 10020
AAXX 19181 33902 11597 82502 10042 20011 30144 40211 58018 69902 70282 889// 333 10058
AAXX 19181 33983 11/92 90602 10066 20066 30167 40228 57007 69902 74542 333 10093
AAXX 19181 34415 32997 70902 10009 20001 30180 40279 58018 87050 333 10025
AAXX 19181 34523 NIL
AAXX 19181 34712 11497 81007 10047 20042 30166 40253 58014 60032 70264 8772/ 333 10064 88713
AAXX 19184 65501 32960 70000 10266 20075 39798 40117 80002 333 10330 58006 87076
AAXX 19184 65502 31958 73602 10290 20004 39720 40099 70622 80002 333 10335 58001 87076
AAXX 19184 65503 31918 50000 10288 20079 39759 40106 70622 80002 333 10340 58004 85076
AAXX 19184 65505 32960 50000 10300 20104 39761 40100 80002 333 10347 58003 85076
AAXX 19184 65507 32960 70000 10284 20109 39751 40101 80002 333 10349 58006 87076
AAXX 19184 65510 31940 50204 10294 20060 39583 40095 70622 80002 333 10336 58003 85076
AAXX 19184 65516 32960 50000 10308 20102 39785 40092 80002 333 10352 58002 85076
AAXX 19184 65518 32965 73602 10287 20054 39727 40090 80002 333 10345 58002 87076
AAXX 19184 65522 31958 70000 10315 20088 39764 40093 70622 80002 333 10348 58002 87076
AAXX 19184 64600 32960 00000 10244 20165 39436 40085 333 10325 55059 58010
AAXX 19184 64601 31956 00806 10230 20095 38990 48502 70411 333 10305 58011
AAXX 19184 64605 NIL
AAXX 19184 64610 NIL
AAXX 19184 64650 31920 00802 10262 20199 39672 40083 70400 80000 333 10346 55097 58003
AAXX 19184 64654 32960 60806 10237 20134 39531 40105 80002 333 10350 58007 86080
AAXX 19184 64655 32960 30000 10232 20165 39444 40092 80002 333 10325 58005 83080
AAXX 19184 64656 32960 00000 10255 20198 39529 40082 333 10333 59003
AAXX 19184 64659 NIL
AAXX 19184 64660 32960 20000 10245 20192 39554 40081 80002 333 10326 58008 82080
AAXX 19184 64662 32960 00000 10256 20194 39574 40072 333 10345 58005
AAXX 19184 64665 32960 00000 10250 20192 3//// 4//// 333 10345 5////
AAXX 19184 60710 12558 62020 10114 20053 30126 40206 51012 60022 86800 333 10128 83820 84630
AAXX 19184 60714 11462 63417 10109 2//// 30200 40206 52014 60052 70362 86800 333 10125 84816 83630
AAXX 19184 60720 NIL
AAXX 19184 60728 NIL
AAXX 19184 60729 NIL
AAXX 19184 60731 NIL
AAXX 19184 60732 11558 72406 10040 20020 39606 40233 51012 60022 70382 879// 333 10094 83820 81923 85626
AAXX 19184 60734 11558 53210 10052 20037 39683 40219 53008 60022 70282 85880 333 10082 83823 83630
AAXX 19184 60738 NIL
AAXX 19184 60739 12558 33006 10056 21015 39395 40236 53015 69902 83802 333 10085 81826 83833 94239
AAXX 19184 60740 32560 22714 10105 20028 30204 40206 52016 60002 82200 333 10134 82820
AAXX 19184 60742 NIL
AAXX 19184 60764 12562 22806 10110 21033 30163 40215 52007 60002 82200 333 10166 82830
AAXX 19184 60770 12975 40000 10114 20042 30076 40217 53013 60002 82080 333 10155 82360
AAXX 19184 60772 NIL
AAXX 19184 60775 12565 30204 10123 20004 39857 40213 53006 60002 83200 333 10159 83823
AAXX 19184 60780 12560 13306 10115 20014 39916 40223 53005 60002 81200 333 10152 83823
AAXX 19184 61974 12580 11902 10286 20239 40119 60002 81100 333 10325 55086 58018 81820
AAXX 19184 61986 12470 30000 10274 20257 40125 60002 83903 333 10316 58021 819// 82819
AAXX 19184 61988 11465 60914 10250 20223 40153 60062 71586 85876 333 10275 55001 58021 84817 85275 91129
AAXX 19184 61989 NIL
AAXX 19184 61990 12470 53603 10252 20235 40128 69902 83842 333 10295 55098 58015 81817 83650 91118
AAXX 19184 61995 12570 20904 10226 20217 39652 60002 81802 333 10284 55112 58015 81820
AAXX 19181 01400 41599 62107 10054 20012 40027 57021 70222 86800 22200 06082 10805 70026 333 91110
AAXX 19181 01300 41598 71703 10038 21030 40013 57008 70222 875// 22200 02058 10805 70023 333 91106
AAXX 19181 02019 05/99 /0903 11026 21050 39340 49962 57004 60002 333 11019 21049 60005 90710 91106
AAXX 19181 02081 07/82 /3602 11025 21029 39555 49959 58007 60022 70070 333 11025 21042 60005 90710 91104
AAXX 19181 02095 07531 /0002 11024 21028 39747 49951 54001 60042 77174 333 11013 21025 69935 88/30 90710 91103
AAXX 19181 02101 47561 /1501 11055 21064 39402 49964 52001 771// 8//// 333 11042 21060 81/21 83/32 86/58
AAXX 19181 02119 07561 /3401 11071 21074 39574 49964 54000 60042 77177 333 11039 21071 69905 81/24 87/43 87/56 90710 91102
AAXX 19181 02124 07637 /3502 11047 21055 39430 49958 52004 60022 77177 333 11037 21047 69925 89/46 90710 91104
AAXX 19181 02126 07499 /3401 11037 21046 39612 49951 52009 60032 70070 333 11023 21041 60005 81/17 87/36 90710 91104
AAXX 19181 02151 36/// ///// 1//// 2//// 3//// 4//// 5//// 6///2 333 1//// 2//// 6///5 910// 90710 911// 90710 912//
AAXX 19181 02186 17267 80101 11002 21002 39913 49938 51006 60012 78084 333 10001 21002 60005 88/05 91003 90710 91103 90710 91202
AAXX 19181 02197 07/50 ///// 10000 20000 39920 49939 52002 60012 72476 333 10002 21002 69905
AAXX 19181 02207 07225 /1201 11028 21031 39257 49956 52002 60042 77177 333 11028 21065 69935 88/05 90710 91102
AAXX 19181 02219 07/12 /2902 11040 21041 39283 49951 52004 60032 77174 333 11037 21046 69965 90710 91104
AAXX 19181 02226 47233 /3004 11029 21030 39496 49951 52007 771// 8//// 333 11024 21030 82/04
AAXX 19181 02243 07/56 /3101 11039 21042 39669 49938 52010 60042 77174 333 11015 21041 69905 90710 91103
AAXX 19181 02269 07699 /3502 10007 20007 69952 70087 333 10013 20006 60005 85/34 87/58 90710 91105
AAXX 19181 02287 07268 /0104 10021 20014 39910 49919 52010 60012 76186 333 10024 20013 69905 88/05 90710 91105
AAXX 19181 02297 07366 /1002 10015 20015 39879 49924 51009 60022 72386 333 10017 20007 69905 81/07 83/16 87/45 90710 91104
AAXX 19181 02308 07059 /0200 11041 21045 39095 49957 52009 60022 77177 333 11037 21061 69915 81/01 83/10 90710 91102
AAXX 19181 02327 07/56 /2703 11031 21037 39521 49957 52011 69962 71071 333 11020 21036 60005 90710 91105
AAXX 19181 02355 07483 /3204 10003 20000 39915 49928 52015 60022 72487 333 10016 20000 69905 85/14 88/19 90710 91107
AAXX 19181 02366 47584 /3303 11002 21012 39922 49928 52011 724// 8//// 333 10007 21002 81/25 88/33
AAXX 19181 02407 05699 ///// 11026 21034 39595 49965 52011 69942 333 11011 21028 60005 81/42 87/58
AAXX 19181 02418 45784 /3003 10005 21030 39852 49984 52013 8//// 333 10012 21007 87/50
AAXX 19181 02435 45984 /2503 11017 21040 39769 49958 52015 8//// 333 11005 21027
AAXX 19181 02440 07356 /2601 11016 21020 60012 77177 333 11008 21016 69935 81/09 88/57 90710 91103
AAXX 19181 02452 07899 /2904 11011 21013 69972 70071 333 11009 21015 60005 88/57 90710 91108
AAXX 19181 02456 07227 /2601 10000 21003 39899 49941 52020 60052 77176 333 10006 20000 69925 87/04 88/43 90710 91104
AAXX 19181 02469 07/99 /2604 11004 21011 69972 72487 333 11001 21006 69905 90710 91107
AAXX 19181 02498 07367 /2611 10014 20005 39929 49946 51033 60022 74164 333 10021 20008 69905 88/09 90710 91113
AAXX 19181 02518 46/// /2609 10048 20023 333 10059 20048 90710 91113
AAXX 19181 02520 35983 02203 10006 21020 39937 40005 52014 60002 333 10038 20006 60005 91004 90710 91106 90710 91205
AAXX 19181 02550 45982 /2204 10004 20004 39739 40015 52019 8//// 333 10017 20002
AAXX 19181 02562 17984 52503 10013 20000 39877 49993 53018 60022 70077 333 10014 21002 60005 85/62 91004 90710 91106 90710 91204
AAXX 19181 02563 07599 /2404 10013 20008 39964 49986 52023 69912 72187 333 10014 20000 69905 85/24 88/34 90710 91108
AAXX 19181 02565 05/74 /2404 10025 20004 39895 40014 52022 60002 333 10034 20013 60005 90710 91107
AAXX 19181 02589 07499 /2609 10023 20005 39953 49973 52027 60012 70076 333 10023 20009 60005 88/15 90710 91115
AAXX 19181 02590 45583 /2508 10041 20018 39938 49999 51025 8//// 333 10041 20007 81/27 88/56
AAXX 19181 02618 07/58 /2507 10038 20011 39877 40041 52018 69902 72386 333 10042 20016 69905 90710 91113
AAXX 19181 02664 35683 82505 10046 20005 39983 40055 53021 60002 333 10051 20011 60005 88/45 91009 90710 91109 90710 91206
AAXX 19181 02679 07982 /2512 10042 20021 39980 40025 52023 60022 70060 333 10045 20023 60005 85/59 90710 91117
AAXX 19181 48900 32497 49903 10222 20183 30071 40081 57014 84800 333 59013 81894 83696
AAXX 19181 48917 32998 60503 10262 20187 30084 40090 57014 80008 222// 00270 333 59006 86299
AAXX 19181 48918 32498 73601 10252 20222 30085 40096 57012 82208 222// 00262 2//// 333 59013 81894 87299
AAXX 19181 48914 32998 70203 10252 20206 30093 40095 56008 80008 333 59010 87299
AAXX 19181 34523 11496 81004 10042 20032 30209 40287 58009 69952 76162 8772/ 333 10077
AAXX 19181 48919 11598 70510 10262 20248 30052 40071 58019 69911 70382 82208 22200 02269 333 59006 82895 87299
AAXX 19181 48916 32598 73601 10256 20230 30046 40093 58012 83208 333 59013 83895 87299
AAXX 19181 37575 42596 82702 10034 20008 39770 40335 52011 885// 333 10068
AAXX 19181 37675 42995 02301 10007 21010 39638 40319 57006 333 10077 555 53005
AAXX 19181 37735 42998 00000 10039 20019 39905 40289 52001 86007 333 10074
AAXX 19181 37749 41596 80901 10084 20067 30275 40394 52009 71022 885// 333 10092 555 53006
AAXX 19181 37756 41/93 92703 10039 20039 39480 40404 51004 74544 333 10046
AAXX 19181 37864 32597 81604 10080 20050 40362 50003 885// 333 10095 88621
AAXX 19181 37985 41495 80000 10066 20052 30367 40152 52007 71052 886// 333 10072
BBXX VEP717 19184 99467 70487 41296 80242 10024 2002/ 40004 57012 76162 886// 22200 06029 20506 336// 40704 80023
AAXX 19184 78855 12580 10611 10280 20156 30151 40155 81800 333 10285 20/// 58016 81826
BBXX A8QJ7 19184 99085 70252 41698 60710 10275 20216 40109 58009 7//22 85430 22213 20601 3//// 4//// 5//// 80235
BBXX PBBB 19180 99460 70192 41/94 /2806 10130 20113 40272 52014 74544 8//// 22253 20302 327// 40504 5//// 80120
AAXX 19181 06447 16/// /1907 10010 21004 30024 40152 58019 69962 333 10034 91112 91207
AAXX 19181 02464 47384 /2504 10002 21004 39940 49958 51022 722// 8//// 333 10003 20000 81/09 88/11
AAXX 19181 02500 05/99 /2706 10049 21018 39954 49997 52010 60002 333 10054 20048 60005 90710 91109
AAXX 19181 02513 NIL
AAXX 19181 02615 05/71 /2511 10044 20024 30088 40092 51015 60002 333 10056 20043 60005 90710 91115
AAXX 19181 02635 05/72 /2506 10038 20015 60002 333 10055 20036 60005 90710 91111
AAXX 19184 65351 NIL
AAXX 19184 65355 31958 70000 10279 20096 39585 40098 70522 81102 333 10335 58005 81813 87073
AAXX 19184 65357 31950 70806 10305 20067 39707 40096 70522 80002 333 10360 59006 87076
AAXX 19184 65380 32958 70000 10288 20218 3//// 4//// 80002 333 10352 5//// 87076
AAXX 19181 10815 01375 72503 11036 21042 39247 48461 51006 69922 72071 875// 333 11028 21041 3/105 48020 55300 20000 30000 69907 87607 96277 96477
AAXX 19181 06428 17349 /1905 10013 20006 30093 40143 58023 60022 76176 333 10027 83/06 85/09 87/13 91108 91205
AAXX 19181 14024 11/90 90403 11042 21043 39043 48426 52011 60032 77174 333 11015 48024 92805 93104 95090
AAXX 19181 06431 16/// /1904 10016 20011 30122 40134 58023 60032 333 10038 91111 91207
AAXX 19181 06432 17/50 /1807 10013 20003 30074 40153 58023 60022 76176 333 10025 81/06 83/09 87/11 91111 91207
AAXX 19181 06458 37559 /1907 10017 21005 30003 40161 58018 77174 333 10035 81/25 85/30 87/36 91111 91208
AAXX 19181 06465 37561 /1907 10020 21008 30092 40160 58013 781// 333 10043 83/27 85/35 88/50 91110 91207
AAXX 19181 06496 37363 /2104 11020 21031 39485 40182 57008 700// 333 11010 81/07 85/11 87/57 91107 91205
AAXX 19184 89514 32997 21407 11015 49804 52004 82009 333 82175
AAXX 19181 91925 02580 40905 10293 20202 30068 40128 51010 60001 84200 333 56200 60007 84823 90710 91115 555 60005 11015 59010
AAXX 19181 91929 04560 /1210 10284 20238 30136 40139 51019 69922 700// 333 10284 20261 69927 90710 91118 555 69925
AAXX 19181 91938 01580 22304 10292 20219 30143 40145 51017 60002 702// 82200 333 10292 20238 60007 82820 90710 91105 555 60005 12305 58004
AAXX 19181 91943 16/// /0518 10246 20229 30137 40139 52020 69922 333 10281 59004
AAXX 19181 91944 06/// /0709 10276 20216 30148 40151 51012 69922 333 10284 20253 69927 90710 91112 555 69925
AAXX 19181 91948 01475 50303 10268 20206 30083 40185 51011 60001 71511 85203 333 56105 60007 85816 90710 91110 555 60005 10510 58011
AAXX 19181 91958 02582 50509 10249 20193 30202 40204 51014 60001 85201 333 56209 60007 85823 90710 91113 555 60005 10614 58025
AAXX 19181 91945 36/// /0706 10289 20231 30152 40157 51016
AAXX 19183 78388 111575 31015 10276 20195 30150 40159 60001 70511 83861 333 01299 10296 20222 58006 83825
AAXX 19183 91502 01470 73610 10252 20240 40050 55005 60041 71552 82937 333 56899 69947 81814 81915 87280
AAXX 19183 91507 NIL
AAXX 19183 91520 01470 82704 10249 20243 40065 53002 60031 75285 8592/ 333 56999 60027 82814 81916 83625 88459
AAXX 19183 91541 NIL
AAXX 19184 94102 46/// /2215 10300 20276 30037 40046
AAXX 19184 94103 NIL
AAXX 19184 94120 46/// /0204 10262 20252 39998 40038
AAXX 19184 94122 46/// /1303 10257 20241 30028 40036
AAXX 19184 94131 46/// /2602 10256 20247 39883 40033
AAXX 19184 94132 NIL
AAXX 19184 94147 NIL
AAXX 19184 94150 46/// /1301 10251 20248 39973 40032
AAXX 19184 94151 46/// /3306 10280 20242 30015 4////
AAXX 19184 94170 46/// /1003 10243 20238 30029 40051
AAXX 19184 94200 NIL
AAXX 19184 94203 46/// /2908 10290 20246 30027 40037
AAXX 19184 94206 46/// /3101 10290 20234 39899 40026
AAXX 19184 94207 46/// /2712 10278 30027 40035 56019
AAXX 19184 94211 NIL
AAXX 19184 94212 46/// /0201 10274 20220 39568 40028
AAXX 19184 94216 46/// /2803 10275 20257 39991 40041
AAXX 19184 94236 NIL
AAXX 19184 94238 46/// /0307 10256 20222 39632 40045
AAXX 19184 94248 NIL
AAXX 19184 94255 46/// /0000 10250 20227 39797 40053
AAXX 19184 94268 46/// /0000 10243 20239 30045 40057
AAXX 19184 94287 46/// /1507 10243 20221 30062 40071
AAXX 19184 94290 NIL
AAXX 19184 94294 46/// /1405 10238 20194 30074 40084
AAXX 19184 94296 NIL
AAXX 19184 94298 46/// /1218 10250 30060 40066 55002
AAXX 19184 95641 NIL
AAXX 19184 94299 46/// /1317 10264 20213 30046 40056
AAXX 19184 94300 46/// /1715 10215 20160 30074 40084
AAXX 19184 94302 46/// /2113 10232 20182 30058 40064
AAXX 19184 94312 46/// /2613 10264 20238 30022 40031
AAXX 19184 94313 NIL
AAXX 19184 94317 46/// /1805 10296 20043 39459 40026
AAXX 19184 94319 46/// /2811 10325 20116 39687 40007
AAXX 19184 94324 NIL
AAXX 19184 94326 46/// /0000 10220 20151 39458 40057
AAXX 19184 94327 46/// /2703 10243 20216 39698 40062
AAXX 19184 94332 46/// /0000 10227 20216 39670 40046
AAXX 19184 94333 NIL
AAXX 19184 94341 46/// /0000 10227 20199 39833 40062
AAXX 19184 94346 46/// ///// 10211 20176 39855 40069
AAXX 19184 94363 46/// /1305 10183 20173 39887 40100
AAXX 19184 94366 NIL
AAXX 19184 94367 46/// /1106 10249 20166 30046 40087
AAXX 19184 94374 46/// /1405 10199 20161 30091 40107
AAXX 19184 94388 46/// /1110 10237 20179 30101 40106
AAXX 19184 94393 46/// /1116 10252 30064 40076 55003
AAXX 19184 94394 46/// /1115 10241 30093 40101 53005
AAXX 19184 94403 46/// /1310 10173 20130 30067 40108
AAXX 19184 94429 46/// /2109 10225 20109 39613 40065
AAXX 19184 94430 46/// /1905 10230 20016 39478 40045
AAXX 19184 94449 46/// /1119 10211 20073 39557 40074
AAXX 19184 94451 NIL
AAXX 19184 94461 46/// /1307 10267 20109 39389 40040
AAXX 19184 94462 46/// /1106 10248 20095 39513 40053
AAXX 19184 94477 NIL
AAXX 19184 94488 NIL
AAXX 19184 94893 NIL
AAXX 19184 94907 46/// /2509 10148 20114 30113 40123
AAXX 19184 94910 46/// /3304 10131 20118 39849 40094
AAXX 19184 94926 46/// /2004 10133 20129 39439 40094
AAXX 19184 94935 46/// /2406 10157 20130 30082 40108
AAXX 19184 94954 46/// /2124 10134 20111 30013 40123
AAXX 19184 94956 46/// /1907 10126 20118 30097 40123
AAXX 19184 94975 46/// /2508 10162 20118 30057 40089
AAXX 19184 94983 46/// /2806 10155 20142 30052 40077
AAXX 19184 94995 46/// /0411 10193 20133 30141 40149
AAXX 19184 94996 46/// /1107 10180 20114 30031 40159
AAXX 19184 94997 NIL
AAXX 19184 94998 46/// /3113 10062 20053 30165 40176
AAXX 19184 95111 46/// /0000 10265 20242 30005 40041
AAXX 19184 95205 46/// /3107 10292 20218 30029 40036
AAXX 19184 95322 NIL
AAXX 19184 95448 46/// /2105 10231 20068 39495 40042
AAXX 19184 95458 46/// /0714 10265 21041 39820 40074
AAXX 19184 95480 NIL
AAXX 19184 95481 46/// /1310 10230 20079 30043 40087
AAXX 19184 95482 46/// /1304 10237 20041 30021 40075
AAXX 19184 95485 46/// /2004 10198 21234 39900 40099
AAXX 19184 95492 46/// /1604 10209 20159 39938 40089
AAXX 19184 95527 46/// /0508 10181 20174 39851 40099
AAXX 19184 95634 46/// /1312 10175 20109 39703 40095
AAXX 19184 95637 46/// /1404 10130 20107 39796 40124
AAXX 19184 95646 46/// /2014 10177 20157 39893 40076
AAXX 19184 95666 NIL
AAXX 19184 95719 46/// /1507 10150 20150 39777 40100
AAXX 19184 95762 46/// /0000 10164 20151 39650 40097
AAXX 19184 95826 NIL
AAXX 19184 95839 46/// /1705 10095 20083 39986 40143
AAXX 19184 95864 NIL
AAXX 19184 95909 NIL
AAXX 19184 95954 NIL
AAXX 19184 95966 46/// /1902 10128 20123 39890 40088
AAXX 19184 96995 46/// /1803 10243 20237 39774 40068
AAXX 19184 96996 45/// /1210 10265 20214 30081 40085 58011
AAXX 19184 89564 45/// /1431 10016 21082 39899 49919 57006
AAXX 19184 89570 46/// /1021 11056 21117 39216 56028
AAXX 19184 89571 45/// /1111 10026 21078 39842 49871 58028
AAXX 19184 89573 NIL
AAXX 19184 89610 NIL
AAXX 19184 89611 45/// /1815 10019 21024 39473 49523 58057
AAXX 19184 89614 NIL
AAXX 19184 89615 46/00 /1160 11046 21056 38610 56066
AAXX 19184 89807 NIL
AAXX 19184 89809 NIL
AAXX 19184 41241 36/// /1802 10223 20042 30166 40204 333 0E/// 10238 5////
AAXX 19184 41242 26/// /0000 10163 20119 30193 40217 333 0E021 10292 58022 70022
AAXX 19184 41244 36/// /0706 10205 20092 39843 48326 333 0E019 10268 59006
AAXX 19184 41246 32960 01305 10221 20127 30197 40202 333 10259 58018
AAXX 19184 41251 32460 50102 10100 20069 38061 40191 85600 333 10166 59001 82710 83620
AAXX 19184 41252 36/// /0510 10214 20115 39807 40097 333 0E019 10274 59006
AAXX 19184 41253 36/// /0102 10207 20113 39829 40214 333 0E022 10227 58018
AAXX 19184 41254 NIL
AAXX 19184 41255 36/// /0205 10209 20100 39653 40207 333 0E021 10277 58008
AAXX 19184 41256 32560 31803 10226 20104 30195 40205 82530 333 10255 58021 82625
AAXX 19184 41257 NIL
AAXX 19184 41258 36/// /2307 10238 20113 30192 40196 333 0E/// 10252 58021
AAXX 19184 41259 36/// /3304 10049 21298 37135 40310 333 0E/// 10121 59004
AAXX 19184 41262 NIL
AAXX 19184 41263 36/// /9902 10198 20064 39510 40203 333 0E019 10269 58007
AAXX 19184 41264 NIL
AAXX 19184 41265 36/// /9902 10212 20141 39653 40207 333 0E022 10269 58008
AAXX 19184 41267 35/65 /3319 10241 20137 30176 40191 333 0E023 10259 58008
AAXX 19184 41268 NIL
AAXX 19184 41270 36/70 /3513 10230 20118 30135 40147 333 0E022 10263 58006
AAXX 19184 41275 NIL
AAXX 19184 41287 36/// /1404 10205 20164 30144 40213 333 0E022 10290 58002
AAXX 19184 41288 NIL
AAXX 19184 41290 NIL
AAXX 19184 41295 NIL
AAXX 19184 41304 NIL
AAXX 19184 41312 36/// /0009 10265 20050 30135 40174 333 0E/// 10302 59000
AAXX 19184 41314 32960 03404 10177 20012 39697 40210 333 10256 58002
AAXX 19184 41315 36/// /3519 10171 21000 39189 42826 333 0E/// 10218 59003
AAXX 19184 41316 32960 00207 10249 20018 30152 40178 333 10306 58000
AAXX 19184 94299 46/// /1317 10264 20213 30046 40056
AAXX 19184 94300 46/// /1715 10215 20160 30074 40084
AAXX 19184 94302 46/// /2113 10232 20182 30058 40064
AAXX 19184 94312 46/// /2613 10264 20238 30022 40031
AAXX 19184 94313 NIL
AAXX 19184 94317 46/// /1805 10296 20043 39459 40026
AAXX 19184 94319 46/// /2811 10325 20116 39687 40007
AAXX 19184 94324 NIL
AAXX 19184 94326 46/// /0000 10220 20151 39458 40057
AAXX 19184 94327 46/// /2703 10243 20216 39698 40062
AAXX 19184 94332 46/// /0000 10227 20216 39670 40046
AAXX 19184 94333 NIL
AAXX 19184 94341 46/// /0000 10227 20199 39833 40062
AAXX 19184 94346 46/// ///// 10211 20176 39855 40069
AAXX 19184 94363 46/// /1305 10183 20173 39887 40100
AAXX 19184 94366 NIL
AAXX 19184 94367 46/// /1106 10249 20166 30046 40087
AAXX 19184 94374 46/// /1405 10199 20161 30091 40107
AAXX 19184 94388 46/// /1110 10237 20179 30101 40106
AAXX 19184 94393 46/// /1116 10252 30064 40076 55003
AAXX 19184 94394 46/// /1115 10241 30093 40101 53005
AAXX 19184 94403 46/// /1310 10173 20130 30067 40108
AAXX 19184 94429 46/// /2109 10225 20109 39613 40065
AAXX 19184 94430 46/// /1905 10230 20016 39478 40045
AAXX 19184 94449 46/// /1119 10211 20073 39557 40074
AAXX 19184 94451 NIL
AAXX 19184 94461 46/// /1307 10267 20109 39389 40040
AAXX 19184 94462 46/// /1106 10248 20095 39513 40053
AAXX 19184 94477 NIL
AAXX 19184 94488 NIL
AAXX 19184 94500 NIL
AAXX 19184 94510 46/// /0305 10220 20189 39740 40079
AAXX 19184 94515 46/// /2803 10184 20171 39757 40098
AAXX 19184 94552 46/// /0705 10161 20150 39646 40103
AAXX 19184 94578 46/// /0000 10201 20166 30107 40118
AAXX 19184 94584 46/// /2404 10214 20146 30003 40111
AAXX 19184 94601 46/// /1309 10170 20100 30119 40136
AAXX 19184 94610 46/// /1905 10156 20127 30092 40115
AAXX 19184 94637 46/// /1111 10183 20091 39679 40096
AAXX 19184 94638 46/// /0105 10143 20134 30104 40135
AAXX 19184 94642 NIL
AAXX 19184 94643 NIL
AAXX 19184 94647 46/// /1908 10183 20167 39948 40066
AAXX 19184 94651 46/// /1211 10191 20124 30003 40079
AAXX 19184 94653 46/// /1311 10192 20136 30086 40104
AAXX 19184 94659 46/// /1311 10200 20126 39914 40105
AAXX 19184 94672 46/// /1605 10150 20117 30127 40137
AAXX 19184 94691 46/// /1308 10174 20098 39797 40117
AAXX 19184 94693 46/// /1805 10144 20110 30070 40131
AAXX 19184 94700 NIL
AAXX 19184 94703 46/// /1706 10185 20146 39964 40086
AAXX 19184 94710 46/// /0405 10155 20119 39850 40097
AAXX 19184 94729 46/// /2704 10128 20128 39263 40094
AAXX 19184 94750 46/// /2405 10169 20145 39980 40102
AAXX 19184 94767 46/// /2114 10193 20163 30090 40096
AAXX 19184 94776 46/// /3009 10187 20180 30076 40086
AAXX 19184 94791 NIL
AAXX 19184 94802 46/// /3103 10107 20099 30058 40140
AAXX 19184 94804 46/// /0911 10167 20138 30095 40132
AAXX 19184 94807 NIL
AAXX 19184 94821 46/// /0000 10117 20113 30068 40150
AAXX 19184 94842 46/// /2310 10152 20111 30043 40141
AAXX 19184 94847 NIL
AAXX 19184 94850 46/// /2009 10137 20114 30084 40130
AAXX 19184 94865 46/// /2509 10148 20112 30114 40138
AAXX 19184 94866 46/// /2704 10114 20100 30001 40140
AAXX 19184 94875 46/// /1913 10140 20104 39982 40115
AAXX 19184 94102 46/// /2215 10300 20276 30037 40046
AAXX 19184 94103 NIL
AAXX 19184 94120 46/// /0204 10262 20252 39998 40038
AAXX 19184 94122 46/// /1303 10257 20241 30028 40036
AAXX 19184 94131 46/// /2602 10256 20247 39883 40033
AAXX 19184 94132 NIL
AAXX 19184 94147 NIL
AAXX 19184 94150 46/// /1301 10251 20248 39973 40032
AAXX 19184 94151 46/// /3306 10280 20242 30015 4////
AAXX 19184 94170 46/// /1003 10243 20238 30029 40051
AAXX 19184 94200 NIL
AAXX 19184 94203 46/// /2908 10290 20246 30027 40037
AAXX 19184 94206 46/// /3101 10290 20234 39899 40026
AAXX 19184 94207 46/// /2712 10278 30027 40035 56019
AAXX 19184 94211 NIL
AAXX 19184 94212 46/// /0201 10274 20220 39568 40028
AAXX 19184 94216 46/// /2803 10275 20257 39991 40041
AAXX 19184 94236 NIL
AAXX 19184 94238 46/// /0307 10256 20222 39632 40045
AAXX 19184 94248 NIL
AAXX 19184 94255 46/// /0000 10250 20227 39797 40053
AAXX 19184 94268 46/// /0000 10243 20239 30045 40057
AAXX 19184 94287 46/// /1507 10243 20221 30062 40071
AAXX 19184 94290 NIL
AAXX 19184 94294 46/// /1405 10238 20194 30074 40084
AAXX 19184 94296 NIL
AAXX 19184 94298 46/// /1218 10250 30060 40066 55002
AAXX 19184 95641 NIL
AAXX 19184 89564 45/// /1431 10016 21082 39899 49919 57006
AAXX 19184 89570 46/// /1021 11056 21117 39216 56028
AAXX 19184 89571 45/// /1111 10026 21078 39842 49871 58028
AAXX 19184 89573 NIL
AAXX 19184 89610 NIL
AAXX 19184 89611 45/// /1815 10019 21024 39473 49523 58057
AAXX 19184 89614 NIL
AAXX 19184 89615 46/00 /1160 11046 21056 38610 56066
AAXX 19184 89807 NIL
AAXX 19184 89809 NIL
AAXX 19184 94893 NIL
AAXX 19184 94907 46/// /2509 10148 20114 30113 40123
AAXX 19184 94910 46/// /3304 10131 20118 39849 40094
AAXX 19184 94926 46/// /2004 10133 20129 39439 40094
AAXX 19184 94935 46/// /2406 10157 20130 30082 40108
AAXX 19184 94954 46/// /2124 10134 20111 30013 40123
AAXX 19184 94956 46/// /1907 10126 20118 30097 40123
AAXX 19184 94975 46/// /2508 10162 20118 30057 40089
AAXX 19184 94983 46/// /2806 10155 20142 30052 40077
AAXX 19184 94995 46/// /0411 10193 20133 30141 40149
AAXX 19184 94996 46/// /1107 10180 20114 30031 40159
AAXX 19184 94997 NIL
AAXX 19184 94998 46/// /3113 10062 20053 30165 40176
AAXX 19184 95111 46/// /0000 10265 20242 30005 40041
AAXX 19184 95205 46/// /3107 10292 20218 30029 40036
AAXX 19184 95322 NIL
AAXX 19184 95448 46/// /2105 10231 20068 39495 40042
AAXX 19184 95458 46/// /0714 10265 21041 39820 40074
AAXX 19184 95480 NIL
AAXX 19184 95481 46/// /1310 10230 20079 30043 40087
AAXX 19184 95482 46/// /1304 10237 20041 30021 40075
AAXX 19184 95485 46/// /2004 10198 21234 39900 40099
AAXX 19184 95492 46/// /1604 10209 20159 39938 40089
AAXX 19184 95527 46/// /0508 10181 20174 39851 40099
AAXX 19184 95634 46/// /1312 10175 20109 39703 40095
AAXX 19184 95637 46/// /1404 10130 20107 39796 40124
AAXX 19184 95646 46/// /2014 10177 20157 39893 40076
AAXX 19184 95666 NIL
AAXX 19184 95719 46/// /1507 10150 20150 39777 40100
AAXX 19184 95762 46/// /0000 10164 20151 39650 40097
AAXX 19184 95826 NIL
AAXX 19184 95839 46/// /1705 10095 20083 39986 40143
AAXX 19184 95864 NIL
AAXX 19184 95909 NIL
AAXX 19184 95954 NIL
AAXX 19184 95966 46/// /1902 10128 20123 39890 40088
AAXX 19184 96995 46/// /1803 10243 20237 39774 40068
AAXX 19184 96996 45/// /1210 10265 20214 30081 40085 58011
AAXX 19184 94500 NIL
AAXX 19184 94510 46/// /0305 10220 20189 39740 40079
AAXX 19184 94515 46/// /2803 10184 20171 39757 40098
AAXX 19184 94552 46/// /0705 10161 20150 39646 40103
AAXX 19184 94578 46/// /0000 10201 20166 30107 40118
AAXX 19184 94584 46/// /2404 10214 20146 30003 40111
AAXX 19184 94601 46/// /1309 10170 20100 30119 40136
AAXX 19184 94610 46/// /1905 10156 20127 30092 40115
AAXX 19184 94637 46/// /1111 10183 20091 39679 40096
AAXX 19184 94638 46/// /0105 10143 20134 30104 40135
AAXX 19184 94642 NIL
AAXX 19184 94643 NIL
AAXX 19184 94647 46/// /1908 10183 20167 39948 40066
AAXX 19184 94651 46/// /1211 10191 20124 30003 40079
AAXX 19184 94653 46/// /1311 10192 20136 30086 40104
AAXX 19184 94659 46/// /1311 10200 20126 39914 40105
AAXX 19184 94672 46/// /1605 10150 20117 30127 40137
AAXX 19184 94691 46/// /1308 10174 20098 39797 40117
AAXX 19184 94693 46/// /1805 10144 20110 30070 40131
AAXX 19184 94700 NIL
AAXX 19184 94703 46/// /1706 10185 20146 39964 40086
AAXX 19184 94710 46/// /0405 10155 20119 39850 40097
AAXX 19184 94729 46/// /2704 10128 20128 39263 40094
AAXX 19184 94750 46/// /2405 10169 20145 39980 40102
AAXX 19184 94767 46/// /2114 10193 20163 30090 40096
AAXX 19184 94776 46/// /3009 10187 20180 30076 40086
AAXX 19184 94791 NIL
AAXX 19184 94802 46/// /3103 10107 20099 30058 40140
AAXX 19184 94804 46/// /0911 10167 20138 30095 40132
AAXX 19184 94807 NIL
AAXX 19184 94821 46/// /0000 10117 20113 30068 40150
AAXX 19184 94842 46/// /2310 10152 20111 30043 40141
AAXX 19184 94847 NIL
AAXX 19184 94850 46/// /2009 10137 20114 30084 40130
AAXX 19184 94865 46/// /2509 10148 20112 30114 40138
AAXX 19184 94866 46/// /2704 10114 20100 30001 40140
AAXX 19184 94875 46/// /1913 10140 20104 39982 40115
BBXX PCDE 19183 99397 31357 41297 52202 10150 20116 40160 52010 7//22 847// 22223 2//// 312// 40602 80130
BBXX PCAM 19183 99412 31732 41598 71305 10140 20093 40213 53014 70222 874// 22200 20100 80114
BBXX V2OG2 19183 99235 31117 41798 11722 10241 20203 40091 57018 70000 81100 22232 20403 318// 40504 80215
BBXX VNSZ 19164 99385 31447 46/// /2422 10159 20120 30104 40130 52032 22275 04174 85136
BBXX VROB 19164 99349 31513 46/// /2023 10196 20171 30054 40079 57007 22253 04202 85180
BBXX VNAH 19164 99333 31157 46/// /1609 10157 20096 30115 40139 52001 22200 04218 85123
BBXX VNSZ 19174 99383 31448 46/// /2114 10159 20118 30103 40129 52016 22224 04186 85135
BBXX 9HA2479 19174 99320 31540 46/// /0429 10208 20205 30061 40090 57003 22214 04220 85206
BBXX C6FS9 19174 99274 31531 46/// /1801 10210 20163 30093 40129 57004 22200 04241 85180
BBXX VROB 19174 99351 31511 46/// /1822 10194 20160 30055 40080 57005 22253 04200 85172
BBXX VNAH 19174 99333 31157 46/// /1609 10154 20093 30113 40137 57004 22200 04218 85120
BBXX VNSZ 19184 99381 31449 46/// /2313 10162 20114 30113 40139 52015 22285 04191 85134
BBXX PCDE 19183 99397 31357 41297 52202 10150 20116 40160 52010 7//22 847// 22223 2//// 312// 40602 80130
BBXX PCAM 19183 99412 31732 41598 71305 10140 20093 40213 53014 70222 874// 22200 20100 80114
BBXX V2OG2 19183 99235 31117 41798 11722 10241 20203 40091 57018 70000 81100 22232 20403 318// 40504 80215
BBXX VNSZ 19164 99385 31447 46/// /2422 10159 20120 30104 40130 52032 22275 04174 85136
BBXX VROB 19164 99349 31513 46/// /2023 10196 20171 30054 40079 57007 22253 04202 85180
BBXX VNAH 19164 99333 31157 46/// /1609 10157 20096 30115 40139 52001 22200 04218 85123
BBXX VNSZ 19174 99383 31448 46/// /2114 10159 20118 30103 40129 52016 22224 04186 85135
BBXX 9HA2479 19174 99320 31540 46/// /0429 10208 20205 30061 40090 57003 22214 04220 85206
BBXX C6FS9 19174 99274 31531 46/// /1801 10210 20163 30093 40129 57004 22200 04241 85180
BBXX VROB 19174 99351 31511 46/// /1822 10194 20160 30055 40080 57005 22253 04200 85172
BBXX VNAH 19174 99333 31157 46/// /1609 10154 20093 30113 40137 57004 22200 04218 85120
BBXX VNSZ 19184 99381 31449 46/// /2313 10162 20114 30113 40139 52015 22285 04191 85134
AAXX 19184 88963 32560 62710 10070 20016 39866 49896 53009 84530 333 56770 84620 86360 90320 90660 92407 94065 95000 96115
AAXX 19184 88968 32465 43214 10066 20022 39984 49999 52016 83605
AAXX 19184 89034 11210 80000 11010 21011 39620 49936 52005 69901 77272 886// 333 56399 88704 92404 92800 93100 96010 97500 97600
AAXX 19184 89053 31560 53220 10063 20042 39898 49912 58005 71022 83501 333 56707 83620 83070 90035 90084 92417 94063 94462 95003 97520 98560
AAXX 19184 89055 31102 81812 11004 21004 39656 49897 52009 74442 886// 333 56499 88702 90037 90076 95140
AAXX 19184 89066 32570 70516 10065 21048 39857 49866 52007 84670 333 56110 84730 86360 92407 94070
AAXX 19183 NIL
BBXX UCKZ 19181 99670 30448 41396 80412 11006 21012 49834 52038 73873 886// 22251 01015 2//// ICE 57895
BBXX FHZI 19164 99634 31467 46/// /0329 10012 2//// 39882 49893 57035 22242 05003
BBXX FHZI 19174 99635 31467 46/// /0229 10011 2//// 39872 49883 5//// 22242 05007
AAXX 19181 38141 32998 01304 11174 21224 30355 40533 58001 333 11135
AAXX 19181 38149 42998 00303 11125 21177 30447 40531 58001 333 11084
AAXX 19181 38178 429// 03604 11175 21279 30213 40534 52001 333 11124
AAXX 19181 38262 329// 00503 11144 21194 30437 40528 52005 333 11085
AAXX 19181 38264 42998 00504 11135 21187 30426 40529 52003 333 11090
AAXX 19181 38396 42997 00505 11123 21195 30382 40520 52002 333 11057
AAXX 19181 38403 429// 00203 11113 21185 30360 40492 52005 333 11032
AAXX 19181 38413 429// 01002 11157 21175 30176 40501 52011 333 11060
AAXX 19181 38457 11495 83401 11096 21122 39824 40462 54000 69902 77372 8802/ 333 11062
AAXX 19181 38462 115// 72308 11144 21179 38859 48574 56002 6992/ 73755 85650 333 11072
AAXX 19181 38565 329// 00000 11130 21143 39853 40495 52018 333 11072
AAXX 19181 38579 329// 00000 11102 21146 30020 40477 58002 333 11055
AAXX 19181 38583 32997 03202 11098 21115 30119 40471 52001 333 11070
AAXX 19181 38611 11596 80902 11061 21076 39821 40432 52016 69912 77177 8802/ 333 11041 82685
AAXX 19181 38618 329// 02201 11071 21129 39684 40423 52013 333 11010
AAXX 19181 38683 42997 00208 11104 21186 30160 40463 52010 333 11044
AAXX 19181 38696 329// 01105 11112 21131 39521 40455 52007 333 11048
AAXX 19181 38812 42997 03507 11051 21161 39908 40391 52004 333 10017
AAXX 19181 38927 11628 52310 11028 21044 39980 40375 52007 69902 73133 85900 333 10026 85941
AAXX 19184 41024 42960 00104 10260 20170 30128 40147 333 10324 58002 55080
AAXX 19184 41030 42960 00000 10268 20190 39872 40142 333 10356 58004 55///
AAXX 19184 41036 42960 00509 10176 20010 38596 48545 333 10260 58007 55085 555 04410 50157
AAXX 19184 41055 42960 00910 10147 20020 38405 48554 333 10218 58007 55092 555 04410 50197
AAXX 19184 41061 42960 01106 10139 20050 39505 40221 333 10230 58013 55100
AAXX 19184 41084 42960 00306 10170 20040 38904 48555 333 10262 58009 55098 555 04410 50179
AAXX 19184 41112 42960 02304 10139 20120 37975 48544 333 10228 58001 55095 555 04410 50187
AAXX 19184 41114 42960 02406 10155 20090 38006 48538 333 10234 58000 55/// 555 04410 50167
AAXX 19184 41128 42960 00000 10146 21020 38873 48574 333 10240 58009 55082 555 04410 50216
AAXX 19184 41136 42960 00507 10178 20050 39384 40207 333 10250 58012 55094
AAXX 19184 41140 42560 21505 10277 20220 30142 40153 81130 333 10316 58005 55/// 81830
AAXX 19184 40356 42960 01010 10080 21010 39262 48551 333 10190 58004 55090 555 04410 50260
AAXX 19184 40357 42960 00000 10083 20040 39613 40270 333 10173 58000 55///
AAXX 19184 40360 42960 00904 10124 20000 39628 40217 333 10214 59006 55077
AAXX 19184 40361 42960 00907 10118 21040 39472 40254 333 10212 58004 55///
AAXX 19184 40362 42960 02903 10095 21020 39727 40257 333 10181 58004 55///
AAXX 19184 40373 42960 03002 10118 20030 39818 40246 333 10206 59004 55///
AAXX 19184 40375 41958 01602 10170 21020 39311 40190 70600 333 10250 59006 55090
AAXX 19184 40377 42960 03406 10106 20050 39766 40261 333 10193 58001 55///
AAXX 19184 40394 42960 00304 10118 21090 39104 48574 333 10220 58003 55090 555 04410 50240
AAXX 19184 40400 42960 00204 10224 20160 30134 40162 333 10334 59005 55083
AAXX 19184 40401 42960 00703 10200 21020 39484 40189 333 10280 58000 55///
AAXX 19184 40405 42960 00000 10110 21010 39493 40252 333 10210 58001 55///
AAXX 19184 40416 42960 03105 10145 20090 30189 40209 333 10230 58004 55///
AAXX 19184 40417 42960 02704 10125 20050 30211 40226 333 10212 58003 55///
AAXX 19184 40420 42960 03105 10138 20030 30012 40223 333 10218 59001 55///
AAXX 19184 40430 42960 00512 10234 20010 39461 40175 333 10276 58007 55078
AAXX 19184 40435 NIL
AAXX 19184 40437 42960 00000 10110 20000 39535 40252 333 10200 58005 55094
AAXX 19184 40439 42960 12903 10244 20150 30136 40146 81030 333 10326 58004 55088 81360
AAXX 19183 91502 01470 73610 10252 20240 40050 55005 60041 71552 82937 333 56899 69947 81814 81915 87280
AAXX 19183 91507 NIL
AAXX 19183 91520 01470 82704 10249 20243 40065 53002 60031 75285 8592/ 333 56999 60027 82814 81916 83625 88459
AAXX 19183 91541 NIL
BBXX VRAE3 19184 99061 11123 41/97 43520 10271 20247 40078 52010 71302 83663 22214 00280 20408 3//// 4//// 5//// 80254
BBXX V2BE4 19181 99206 11415 41998 00610 10255 20218 40136 54000 70000 80000 22244 04250 20405 80230
BBXX C6N5 19164 99078 11217 41198 22308 10281 20210 40148 51000 70222 81141 22243 04287 20202 303// 40402 5//// 80231
AAXX 19184 94310 46/// /2917 10277 20238 30015 40026 57018
AAXX 19184 95283 46/// /1305 10267 20216 30058 40065
AAXX 19184 95288 46/// /1413 10272 30042 40057 56007
AAXX 19184 95675 46/// /0807
AAXX 19184 95872 46/// /1910
AAXX 19184 95961 37/// /2409 10136 30074 40115 52018 76044
AAXX 19181 37395 32997 30915 10130 21009 30108 40247 52005 83030 333 10168
AAXX 19181 37409 32598 60916 11014 21028 38854 48562 52003 86540 333 10013 95090
AAXX 19181 37432 32997 00000 11012 21048 39065 48588 54000 333 10065
AAXX 19181 37514 32696 20000 11017 21050 39140 40341 52004 82500 333 10064
AAXX 19181 37545 329// 00000 10008 20003 39827 40362 52005 71011 333 10091
AAXX 19181 37621 326// 60000 10000 21041 39707 40376 52004 80001 333 10080
AAXX 19181 37484 NIL
AAXX 19184 40550 37/35 /3204 10104 20000 40231 51007 71010 333 55300 00000 10234 20000 30000 41031 51265 60000 55407 40000 90069 90400 91007 91117 91209 91303
AAXX 19184 40551 36/// /2309 10099 21010 333 90400 91009 91123 91219 91311
AAXX 19184 40552 37/59 /2913 10114 21009 40235 51009 71010 333 55300 90069 90401 91015 91123 91219 91313
AAXX 19184 40553 37/36 /3008 10106 21005 40230 51007 71010 333 55300 90069 90401 91009 91119 91215 91309
AAXX 19184 40568 36/// /2809 10116 20024 333 90400 91011 91119 91213 91309
AAXX 19184 40569 NIL
AAXX 19184 40570 35/61 /3010 10096 21030 40251 51013 333 55300 90069 90400 91011 91125 91219 91311
AAXX 19184 40571 NIL
AAXX 19184 40572 NIL
AAXX 19184 40573 36/// /2807 10085 21030 333 90401 91009 91123 91219 91311
AAXX 19184 40580 46/// /2904 10153 20012 333 553// 00000 10277 20000 30000 41034 51311 60000 55407 40000 90400 91007 91117 91207 91303
AAXX 19184 40581 36/// /2002 10158 20029 333 90400 91005 91111 91201 91301
AAXX 19184 40582 31958 02904 10117 21020 40235 51010 70500 333 55300 00000 10208 20000 30000 41104 51311 60000 55407 40000 90401 91005 91121 91215 91307
AAXX 19184 40583 NIL
AAXX 19184 40585 36/// /2910 10159 20035 222// 1//// 3//// 4//// 70/// 333 90400 91017 91117 91213 91309
AAXX 19184 40586 36/// /2806 10146 21009 333 90401 91011 91121 91207 91305
AAXX 19184 40587 36/// /2707 10119 21007 333 553// 00000 10221 20000 30000 41041 51262 60000 55407 40000 90401 91009 91121 91215 91309
AAXX 19184 40588 45/68 /2907 10114 20048 40227 52006 333 55300 90069 90400 91007 91113 91209 91307
AAXX 19184 40589 NIL
AAXX 19184 40590 46/// /3109 10101 21012 333 90400 91009 91125 91221 91311
AAXX 19184 40591 NIL
AAXX 19184 40592 35/66 /3005 10134 21011 40237 52011 333 55300 00000 10257 20000 30000 41039 51296 60000 55407 40000 90069 90401 91007 91117 91211 91305
AAXX 19184 40593 36/// /3110 10141 20004 333 90400 91013 91113 91209 91305
AAXX 19184 40594 36/// /3207 10144 21013 333 90401 91013 91113 91207 91305
AAXX 19184 40596 46/// /3010 10176 20119 333 90400 91013 91115 91211 91307
AAXX 19184 43533 11459 70204 10276 20244 30110 40113 60001 70522 82208 333 59005 82818 86276
AAXX 19184 43555 12462 73408 10276 20232 30108 40111 60001 8227/ 333 59005 82818 87362
AAXX 19184 43577 12462 33607 10273 20237 30110 40112 60001 81202 333 59003 81818
AAXX 19184 43588 11462 73410 10278 20252 30106 40108 69921 70282 82232 333 59004 82818 86363
AAXX 19184 43599 12465 53204 10280 20252 30108 40110 60001 83202 333 59007 83818 85076
AAXX 19183 78388 111575 31015 10276 20195 30150 40159 60001 70511 83861 333 01299 10296 20222 58006 83825
AAXX 19184 43533 11459 70204 10276 20244 30110 40113 60001 70522 82208 333 59005 82818 86276
AAXX 19184 43555 12462 73408 10276 20232 30108 40111 60001 8227/ 333 59005 82818 87362
AAXX 19184 43577 12462 33607 10273 20237 30110 40112 60001 81202 333 59003 81818
AAXX 19184 43588 11462 73410 10278 20252 30106 40108 69921 70282 82232 333 59004 82818 86363
AAXX 19184 43599 12465 53204 10280 20252 30108 40110 60001 83202 333 59007 83818 85076
BBXX 41038 19181 99341 70777 46/// /2102 10146 40264 58028 91800 22200 00141 333 91203
BBXX C6KD4 19183 99449 70147 41297 82620 10135 20135 40256 51018 7//22 887// 22254 02140 20804 327// 41204 80135
AAXX 19181 56187 31950 80000 10054 20029 39612 40277 57002 71000 8807/ 333 05100 10071
AAXX 19181 56778 32965 02001 10056 20041 38118 52003 333 05151 10161
AAXX 19181 57265 NIL
AAXX 19181 57461 31957 81601 10069 20037 30119 40285 57008 71000 8807/ 333 10103
AAXX 19181 57494 NIL
AAXX 19181 57516 31750 83601 10078 20042 39954 40273 57002 71000 885// 333 00000 10084
AAXX 19181 57687 32762 82701 10090 21001 30182 40267 57003 885// 333 10122
AAXX 19181 57816 11430 80202 10020 20016 38831 40262 52002 60021 76066 885// 333 05151 10039
AAXX 19181 58040 31940 50000 11024 21040 30294 40308 57004 71000 80002 333 10069
AAXX 19181 58102 32965 00201 11001 21053 30257 40307 57008 333 10076
AAXX 19181 58150 31930 00901 10009 21017 30304 40308 57009 71000 333 10083
AAXX 19181 58221 31958 00401 10009 21027 30265 40294 57008 71000 333 10080
AAXX 19181 58238 NIL
AAXX 19181 58251 31940 00902 10016 21002 30295 40300 57004 71000 333 10091
AAXX 19181 58362 NIL
AAXX 19181 58457 31750 73401 10057 20022 30232 40286 57011 71000 875// 333 10099
AAXX 19181 58606 32760 81101 10078 21004 30208 40267 57002 885// 333 10113
AAXX 19181 58752 NIL
AAXX 19181 58847 32575 83601 10127 20051 30152 40255 57005 885// 333 10171
AAXX 19181 59117 31658 61801 10098 20077 30121 40228 52001 71000 86500 333 10202
AAXX 19181 59134 NIL
AAXX 19181 59287 NIL
AAXX 19181 59316 32965 71401 10149 20091 30210 40215 57005 8704/ 333 10198
AAXX 19181 59431 NIL
AAXX 19181 59644 31956 00201 10124 20119 30190 40207 57002 71000 333 10206
AAXX 19181 59758 32466 70704 10185 20144 30109 40185 57006 86102 333 10194
AAXX 19184 61401 NIL
AAXX 19184 61404 32960 00408 10216 20103 39754 40152 333 10226 59011
AAXX 19184 61415 32958 33611 10237 20120 30153 40158 83030 333 10252 59008 83463
AAXX 19184 61421 NIL
AAXX 19184 61437 32960 03604 10265 20090 30010 40149 333 10280 58004
AAXX 19184 61442 32957 20409 10290 21057 30130 40133 82030 333 10301 59004 82363
AAXX 19184 61450 32960 00404 10260 20030 39675 40132 333 10300 59003
AAXX 19184 61461 32960 00804 10270 21028 30055 40142 333 10280 59001
AAXX 19184 61489 32960 20000 10303 21027 30114 40121 80002 333 10315 59024 82073
AAXX 19184 61492 32960 30810 10310 21010 30105 40124 83070 333 10330 59006 83363
AAXX 19184 61497 35958 70808 10272 21052 39873 4//// 80002 333 10307 58003 87073
AAXX 19184 61498 33960 10404 10296 20138 39994 40127 81030 333 10316 58010 81363
AAXX 19184 61499 NIL
AAXX 19184 61510 NIL
AAXX 19181 50468 32970 03201 11233 21255 30034 40261 57004 333 11114
AAXX 19181 50953 32970 00000 11154 21187 30103 40294 57003 333 11087
AAXX 19181 51076 NIL
AAXX 19181 51243 NIL
AAXX 19181 51288 32980 00701 11182 21204 38445 52011 333 01051 11114
AAXX 19181 51463 NIL
AAXX 19181 51573 NIL
AAXX 19181 51709 NIL
AAXX 19181 52533 NIL
AAXX 19181 52652 NIL
AAXX 19181 52866 32970 00000 11086 21144 37736 52004 333 00304 10045
AAXX 19181 52983 NIL
AAXX 19181 53463 NIL
AAXX 19181 53513 32965 00000 11131 21143 39077 40372 57003 333 00201 11029
AAXX 19181 53588 NIL
AAXX 19181 53772 NIL
AAXX 19181 53915 NIL
AAXX 19181 54218 32970 02501 11127 21247 39487 40336 57004 333 11029
AAXX 19181 54337 32960 02501 11089 21130 30230 40318 57003 333 10006
AAXX 19181 54342 NIL
AAXX 19181 54401 NIL
AAXX 19181 54471 32960 01101 11098 21151 30315 40321 52001 333 11013
AAXX 19181 54497 32960 00702 11096 21135 30298 40315 52004 333 10000
AAXX 19181 54511 NIL
AAXX 19181 54823 32965 01402 11018 21087 30096 40313 57004 333 10063
AAXX 19181 56080 NIL
AAXX 19181 56096 NIL
AAXX 19181 57083 31920 50000 11010 21045 30170 40311 57008 71000 80002 333 10072
AAXX 19181 01003 16/// /0302 11046 21079 30056 40068 52003 6////
AAXX 19184 48451 32960 00000 10196 20188 30115 40127 57011 333 59016
AAXX 19184 08171 12585 72706 10082 20035 30007 40251 53008 60002 875// 333 10105
AAXX 19184 06610 01470 22103 11041 21058 39635 40249 53/// 69942 70171 82500 333 10001 47003 55300 20000 60005 82617 90766 93103 91108 91206
AAXX 19184 48409 31958 00304 10185 20149 39978 40130 57010 71000 333 59022
AAXX 19184 48574 32560 60000 10245 20238 30057 40086 57017 82136 333 59020 79999
AAXX 19184 06670 01475 72502 11009 21032 39704 40235 52/// 69972 71682 875// 333 10005 47005 55300 20000 60005 81717 87650 90766 93101 91112 91206
AAXX 19184 06700 02980 12501 11017 21032 39731 40245 51/// 69962 80001 333 10017 43003 55300 20000 60005 81075 90766 93101 91109 91206
AAXX 19184 06680 01/01 92420 11166 21166 37431 47941 52/// 69962 77074 333 11153 47183 55300 20000 60005 90766 93101 91134 91222
AAXX 19184 06990 31750 61401 11017 21029 39669 40239 53/// 71011 865// 333 42/// 55300 20000 86650 91106 91203
AAXX 19184 06760 32985 00103 10037 21146 39732 40189 51/// 333 10072 30/// 55300 20000 90766 93100 91114 91206
AAXX 19184 06720 02565 7//// 11022 21041 39647 40248 51/// 69912 87600 333 11007 47998 55300 20000 60005 87724 90766 93100
AAXX 19181 34523 11496 81004 10042 20032 30209 40287 58009 69952 76162 8772/ 333 10077
AAXX 19184 84202 31575 40902 10315 20186 30133 70544 84100 333 59022 555 30046
AAXX 19184 84143 11665 80000 10162 20116 37403 60011 72162 8281/ 333 59007 555 10012 30074
AAXX 19184 84135 32675 53608 10321 20212 30050 81130 333 59008 555 30052
AAXX 19184 84270 31560 63604 10204 20130 71622 86500 555 30062
AAXX 19184 84008 32675 61412 10274 20204 30117 40127 81150 00198 333 59015 555 30066
AAXX 19184 84076 31565 83602 10169 20144 71544 885// 555 30085
AAXX 19184 84173 31565 71406 10175 20114 71544 85731 555 30068
AAXX 19184 84036 11568 81804 10158 20123 69931 75044 8655/ 555 10003 30079
AAXX 19184 84226 31670 73608 10132 20132 70544 87500 555 30100
AAXX 19184 84140 32681 63606 10312 20201 30007 40092 83130 333 59021 555 30052
AAXX 19184 84160 11460 80902 10173 20095 37260 69951 74044 86830 333 59006 555 10005 30060
AAXX 19184 84179 11560 70000 10228 20196 39051 60111 72999 86830 333 59004 555 10106 30082
AAXX 19184 84056 11270 82704 10150 20101 69931 71544 8542/ 555 10003 30072
AAXX 19184 84105 31568 53206 10305 20191 39999 70542 82111 333 59001 555 30051
AAXX 19184 84204 31675 40502 10329 20190 70544 81159 555 30044
AAXX 19184 84088 32570 70903 10147 20119 37063 87200 333 59006 555 30083
AAXX 19184 84132 31565 70406 10294 20262 39875 70544 86210 333 59008 555 30083
AAXX 19184 84072 11460 80408 10160 20114 37299 69921 71555 8531/ 333 59002 555 10002 30074
AAXX 19184 84045 31/00 90000 10113 20107 74544 89/// 555 30096
AAXX 19184 84142 31220 82306 10180 20174 74044 886// 555 30096
BBXX 44139 19181 99442 70571 46/// /0013 10018 40102 57009 22200 00094 11008 70038 333 91217
AAXX 1918/ 89872 46/// ///// 11088 39846 4//// 5////
AAXX 1918/ 89866 46/// ///// 11075 39800 4//// 5////
AAXX 1918/ 89329 46/// ///// 11128 38671 4//// 5////
AAXX 1918/ 89327 46/// ///// 11013 39608 4//// 5////
AAXX 1918/ 89332 46/// ///// 11068 39099 4//// 5////
AAXX 1918/ 89769 46/// ///// 11101 39859 4//// 5////
AAXX 1918/ 89828 46/// ///// 11334 36511 4//// 5////
AAXX 1918/ 89879 46/// ///// 11011 39816 4//// 5////
AAXX 1918/ 89872 46/// ///// 11086 39846 4//// 5////
AAXX 1918/ 89869 46/// ///// 11090 39840 4//// 5////
AAXX 1918/ 89879 46/// ///// 11010 39816 4//// 5////
AAXX 19184 89667 46/// /1413 11071 39911 4//// 5////
AAXX 19184 89667 46/// /1509 11070 29059 39910 4//// 5////
AAXX 19184 89528 46/// /3569 4//// 5////
BBXX 4XFX 19184 99540 11721 41/98 30312 00/// 11020 21050 49895 53010 72600 83/// 22264 0//// 2//// 3//// 4//// 5//// 6//// 81030
BBXX 4XIS 19183 99359 11639 43/98 82914 10140 20110 40102 56015 22224 80120
BBXX 9VVN 19184 99509 11669 41697 /3211 10015 21010 49975 56005 700// 8//// 22214 00030 2//// 3//// 4//// 5//// 6//// 80005 ICE /////
BBXX C6SI3 19183 99450 11686 41898 62619 10030 20010 40000 54000 70211 86466 22213 0//// 20303 327// 4//// 5//// 6//// 80020 ICE /////
BBXX DFWV2 19184 99300 11647 41/// 82920 10195 20154 40130 54000 75152 8/7// 2226/ 04210 29903 3//// 4//// 5////
BBXX DHBN 19181 99312 11782 41398 72015 10221 20190 40145 52010 71522 87500 22224 00220 2//04 329// 41407 5//// 80200
BBXX S6JU 19184 99454 11714 41698 52820 10045 21020 49995 56007 70322 8542/ 22214 04050 2//// 3//// 4//// 5//// 6//// 80020
BBXX SHIP 19184 99358 11717 41698 83220 10160 20110 40100 52010 70320 8775/ 22263 00200 20704 328// 40905 5//// 6//// 80130 ICE /////
AAXX 19181 26045 01466 81907 10018 20010 39971 49974 52009 60022 76162 8872/ 333 10020 20011 60017 88511 91011 91112 555 1/001 20011 3/001 50018
AAXX 19181 26058 01356 82006 10018 20010 39993 40001 53010 60052 76162 8872/ 333 10020 20010 60027 88509 91016 91116 555 1/001 20010 3/100 50019 52000
AAXX 19181 26115 27457 72510 10036 20023 39942 49950 53025 76186 87/// 333 10040 20019 60017 87/11 91015 91115 555 1/003 20019 3/001 50035
AAXX 19184 68040 42960 10903 10250 20250 48516 52013 80002 333 10332
BBXX 44139 19181 99442 70571 46/// /0013 10018 40102 57009 22200 00094 11008 70038 333 91217
AAXX 19181 01488 16/// /2601 11075 21083 60002 333 11027 4/012 91103
AAXX 19181 01471 11989 02701 11014 21056 60002 70100 333 10035 91112
AAXX 19183 91551 11498 70000 10254 20250 40084 53013 60011 72522 879// 333 569// 60011 86818 81923
AAXX 19183 91553 NIL
AAXX 19183 91554 31598 70000 10240 20240 40078 53009 70222 8223/ 333 5699/ 82825 87362
AAXX 19183 91555 31598 69903 10250 20243 40078 54000 70221 81171 333 56999 81822 86362
AAXX 19183 91557 11498 79902 10248 20241 40062 53006 60181 78088 878// 333 561// 60181 82715 84818 87635
AAXX 19183 91565 31598 81108 10240 20213 40085 53006 70222 8117/ 333 5629/ 81822 88460
AAXX 19183 91568 31598 71210 10253 20195 40107 53011 70222 878// 333 562// 84825 87640
AAXX 19181 01059 41489 73307 10016 20006 39957 49967 58012 70172 878// 333 10017 91108
AAXX 19183 91551 11498 70000 10254 20250 40084 53013 60011 72522 879// 333 569// 60011 86818 81923
AAXX 19183 91553 NIL
AAXX 19183 91554 31598 70000 10240 20240 40078 53009 70222 8223/ 333 5699/ 82825 87362
AAXX 19183 91555 31598 69903 10250 20243 40078 54000 70221 81171 333 56999 81822 86362
AAXX 19183 91557 11498 79902 10248 20241 40062 53006 60181 78088 878// 333 561// 60181 82715 84818 87635
AAXX 19183 91565 31598 81108 10240 20213 40085 53006 70222 8117/ 333 5629/ 81822 88460
AAXX 19183 91568 31598 71210 10253 20195 40107 53011 70222 878// 333 562// 84825 87640
BBXX DCPX2 19184 99128 10483 41998 01220 10250 20183 40170 70200 80000 22244 00260 2//// 80205
AAXX 19184 67002 32580 51003 10255 20230 30091 40125 81830 333 10316 58010 81822 85360 92408
AAXX 19184 67009 NIL
AAXX 19184 67012 NIL
AAXX 19184 67025 NIL
AAXX 19184 67027 32580 22412 10280 20237 30073 40094 52010 81202 333 10310 81820 555 82073
AAXX 19184 67083 32470 21202 10194 20156 38712 48486 53014 81902 333 10278 81817 81917 94967 95817
AAXX 19184 67095 32470 70000 10266 20253 30069 40076 52014 84832 333 10318 82817 83633 85073 555 82360
AAXX 19184 67113 NIL
AAXX 19184 67117 NIL
AAXX 19184 67137 NIL
AAXX 19184 67143 NIL
AAXX 19184 67161 NIL
AAXX 19184 67197 11465 73406 10229 20174 30044 40054 51002 60022 71522 879// 333 10223 83817 82917 85633 94963 95833= RR 1?6MM
BBXX A8SF7 19181 99158 70752 41298 60811 10280 20221 40150 58015 7//11 8626/ 22244 04260 20903 312// 41204 5//// 80240
BBXX DBIP 19180 99356 70080 41498 30610 10175 20090 40245 54000 70200 82440 22223 04180 20503 3//// 4//// 5//// 80127
AAXX 19184 78062 12669 60813 10218 20136 40243 60001 86501 333 58040 86640 90908
BBXX A8YW2 19184 99171 30713 41/98 31318 10265 20236 40131 55008 76061 8//// 22214 00260 20703 80245
AAXX 19184 16337 11497 60412 10042 20039 39517 40097 52005 60062 70296 86300 333 10092 81918 83621 555 0////
BBXX A8XY2 19184 99468 70148 41/93 /3015 10120 20120 40231 52026 74554 8//// 22254 04120 2//// 80120
BBXX DDLK 19183 99448 70569 41397 80134 10015 21039 40092 57018 70222 8777/ 22223 20707 303// 41008 81005
BBXX C6CU6 19183 99295 70569 41497 43431 10191 20165 40159 54000 70211 843// 22252 04228 20914 327// 41110 5//// 80175
BBXX MGGK4 19181 99079 70149 41996 09901 10296 20216 40105 54000 70500 80000 22254 00294 20000 318// 40703 5//// 80242
AAXX 19184 60645 36/// /0000 10179 21023 333 10217
BBXX 62087 19181 99547 10068 4//// /9901 10058 200/0 4//// 5//// 22270 00079
AAXX 19184 60612 36/// /0000 10165 21090 333 10215
AAXX 19184 60663 36/// /1406 10146 21032 333 10175
AAXX 19184 60619 36/// /0307 10097 21046 333 10141
AAXX 19181 11976 12960 83403 10005 21019 39908 40179 56004 60002 8807/ 333 10017 88360
AAXX 19184 65351 31950 70404 10296 20098 3//// 4//// 70522 80002 333 10334 5//// 87076
AAXX 19184 65355 31958 70000 10279 20096 39585 40098 70522 81102 333 10335 58005 81813 87073
AAXX 19184 65357 31950 70806 10305 20067 39707 40096 70522 80002 333 10360 59006 87076
AAXX 19184 65380 32958 70000 10288 20218 3//// 4//// 80002 333 10352 5//// 87076
AAXX 19181 40001 32970 00106 10054 20010 40268 58003 333 10146
AAXX 19181 40007 32960 00603 10087 20051 40271 50004 333 10132
AAXX 19181 40025 32965 00603 10140 20044 40197 56009 333 10222
AAXX 19181 40045 32970 00000 10060 20015 4029 54000 333 10166
AAXX 19181 40061 32970 00000 10068 20025 40270 52009 333 10133
AAXX 19181 40080 32965 00602 10088 21041 39523 40248 52010 333 10180
AAXX 19181 40087 NIL
AAXX 19181 40095 NIL
BBXX 61002 19184 99421 10047 46/// ///28 10105 2//// 40216 52010 22200 00140 10705 70026 555 1/034
AAXX 19184 89002 43/// /2307 11006 21030 39837 49891 57018 7//// 8////
AAXX 19181 48830 31996 00000 10092 20088 39892 40211 58001 71022 333 59022 96122
AAXX 19181 48808 32498 80000 10148 20122 39909 40200 58001 888// 333 59030 83894 88696
AAXX 19181 48887 32798 72901 10250 20214 30083 40089 58009 875// 333 59016 87697
AAXX 19181 48877 32798 73605 10240 20197 30105 40110 57016 875// 333 59013 87697
AAXX 19181 48870 11497 83403 10215 20204 30122 40129 56011 60031 76062 888// 333 59022 84894 88696 96160
AAXX 19181 48920 11598 60508 10268 20257 30064 40067 57013 60011 70382 869// 333 58005 82895 82996 85697
AAXX 19181 48855 32597 80202 10217 20187 30148 40156 57018 888// 333 59030 85895 88697
AAXX 19181 48848 32597 83202 10168 20147 30161 40169 57018 888// 333 59029 82895 88697
AAXX 19181 48892 11598 70705 10262 20255 30077 40082 58009 69911 70382 878// 333 58014 82895 86697
AAXX 19181 48826 32797 70503 10142 20110 30053 40193 56003 875// 333 59030 87697
AAXX 19181 48839 32997 00705 10188 20156 30117 40184 58007 222// 00198 2//// 333 59029
AAXX 19181 48852 11597 83401 10178 20173 30149 40159 58017 69941 70382 888// 333 59030 86895 88697
AAXX 19184 38922/46/// /0512 10279 20191 30096/40144 58022
AAXX 19184 91753 02584 30906 10275 20239 30082 40114 53018 69902 82202 333 10282 20262 60007 82820 90710 91110 555 60005
AAXX 19184 91754 01480 50304 10266 20246 30068 40109 53015 60031 702// 84902 333 60007 81916 83819 555 60005
AAXX 19184 71920 16/// /2206 10010 21032 30174 40180 58037 60001 333 10013 21077 70006
AAXX 19184 71250 16/// /0114 11020 21043 39947 40084 55012 60001 333 11017 21050 70028
AAXX 19184 71268 11274 72710 10000 21026 39699 40104 52038 69971 70284 86830 333 10025 21040 70027 90921
AAXX 19184 71270 16/// /2811 10060 20019 39859 40076 51005 60001 333 10061 21008 70000
AAXX 19184 71296 16/// /2708 10047 20016 39777 40081 50000 60001 333 10048 21020 70000
AAXX 19184 71299 16/// /3211 11098 21124 39858 40135 51038 60001 333 11015 21098 70096 555 10040
AAXX 19184 71742 46/// /3511 11063 21104 39948 40139 56024 6///1 333 11059 21092 7////
AAXX 19184 71744 16/// /2011 11041 21140 30087 40129 58053 60001 333 11040 21180 70000
AAXX 19184 71747 16/// /3305 11069 21093 39737 40223 51028 60001 333 10016 21070 70005 555 10010
AAXX 19184 71501 16/// /0102 11264 21294 30006 40008 53012 60001 333 11220 21288 7////
AAXX 19184 71505 46/// /2102 11075 21110 39265 49984 51007 6///1 333 10032 21086 7////
AAXX 19184 71511 16/// /1909 11061 21098 39567 40222 56018 60001 333 11056 21149 70000
AAXX 19184 71515 47/// /2411 11081 21108 39526 40249 5/008 6///1 7//4/ 333 11081 21167 7////
AAXX 19184 71851 16/// /2308 11063 21087 39908 40252 51009 60001 333 11029 21063 70000
AAXX 19184 71885 16/// ///// 10025 60001 333 10026 21108 70012
AAXX 19184 71155 16/// ///// 11030 21047 60001 333 11030 21151 70000 555 10010
AAXX 19184 71158 16/// /2302 11094 21112 39936 40220 58001 60001 333 11069 21108 70000
AAXX 19184 71159 17/// /0602 11061 21154 30072 40146 56029 69931 7//4/ 333 11050 21146 70003
AAXX 19184 71160 17/// /1305 11104 21117 39663 49876 56036 60011 7//4/ 333 11104 21200 70011
AAXX 19184 71162 16/// /2613 11047 21067 39644 49851 55014 60001 333 11045 21161 70000
AAXX 19184 71164 46/// /3206 11193 21215 39887 49969 53018 6///1 333 11185 21297 7////
AAXX 19184 71165 46/// ///05 11164 21181 39601 49887 53010 6///1 333 11144 21225 7////
AAXX 19184 71166 46/// /2515 39336 53005 6///1 333 7////
AAXX 19184 71170 16/// /2609 11068 21088 60001 333 11035 21142 70003
AAXX 19184 71752 16/// /2411 10067 20027 39895 40111 58007 60001 333 10067 21007 70000
AAXX 19184 71758 16/// /3608 11036 21077 30074 40152 56019 60001 333 11034 21046 70000
AAXX 19184 71771 46/// /1615 10110 20078 30045 40065 55018 6///1 333 10118 20025 7////
AAXX 19184 71402 46/// /0408 11059 21111 30023 40140 58024 6///1 333 11057 21083 7////
AAXX 19184 71428 16/// /1709 11057 21133 30052 40058 58057 60001 333 11047 21175 70000
AAXX 19184 71434 16/// /2911 11149 21195 30051 40120 51017 60001 333 11146 70000
AAXX 19184 71442 16/// /2505 11051 21070 39915 40237 50003 60001 333 11051 21065 70000
AAXX 19184 71449 16/// /3206 11057 21083 39830 40244 50016 60001 333 11044 21065 70003
AAXX 19184 71669 16/// /2703 10013 21064 38556 40212 58005 60001 333 10014 21149 70008
AAXX 19184 71246 16/// /2410 10020 21045 39371 40034 56022 60001 333 10020 21138 7////
AAXX 19184 71108 11240 82702 10054 20051 30241 40315 55000 69941 71054 885// 333 10058 20046 70004 90936
AAXX 19184 71954 46/// /2010 11103 21116 39766 40151 58036 6///1 333 11077 21115 7////
AAXX 19184 71956 16/// /3014 10025 20000 39861 40092 51027 60001 333 10042 21002 70000
AAXX 19184 71959 16/// ///// 11012 21077 60001 333 10002 21035 70000
AAXX 19184 71970 16/// /2424 11013 21092 39503 40097 58046 60001 333 11012 21143 70000
AAXX 19184 71977 46/// /1202 11176 21176 39242 49958 53014 6///1 333 11165 21300 7//// 555 10020
AAXX 19184 71978 46/// /0403 11231 21255 39666 49988 52008 6///1 333 11231 21302 7//// 555 10010
AAXX 19184 71988 16/// /2009 10013 21058 30154 40174 57040 60001 333 10017 21028 70000
AAXX 19184 71989 16/// /1408 11332 21366 30034 40051 53009 60001 333 11295 21340 70000 555 10010
AAXX 19184 71837 16/// ///// 10006 60001 333 10008 21095 70010
AAXX 19184 71839 16/// ///// 10014 60001 333 10019 21137 70012
AAXX 19184 71849 16/// /2605 11051 21076 39949 40255 51015 60001 333 11041 21065 70000
AAXX 19184 71300 16/// /2310 10058 20013 39933 40055 58008 60001 333 10058 21071 70000
AAXX 19184 71311 17/// /1909 11025 21107 30133 40158 56046 69981 7//4/ 333 11024 21123 70014
AAXX 19184 71317 46/// /2506 11027 21159 30116 40164 56035 6///1 333 11022 21093 7////
AAXX 19184 71334 46/// /2109 11140 21162 39714 40052 58050 6///1 333 11140 21224 7////
AAXX 19184 71015 46/// ///// 11002 6///1 333 7////
AAXX 19184 71017 16/// /2708 11350 21387 30009 40024 53001 60001 333 11347 21363 70000
AAXX 19184 71018 16/// ///10 11285 21323 39869 49959 50001 60001 333 11285 21344 70000
AAXX 19184 71019 46/// /1615 11092 21129 39778 40090 56058 6///1 333 11091 21219 7////
AAXX 19184 71020 46/// /2606 10045 21096 39666 49913 5/014 6///1 333 7////
AAXX 19184 71063 16/// /2211 10051 20016 39945 40042 58014 60001 333 10052 21065 70000
AAXX 19184 71357 16/// /1907 11201 21262 39832 49839 55000 60001 333 11143 21259 70000
AAXX 19184 71361 16/// /2612 10010 21068 39678 49881 58001 60001 333 10012 21195 70000
AAXX 19184 71362 16/// /2104 11058 21076 39642 49897 56031 60001 333 11058 21174 70000
AAXX 19184 71364 17/// /3408 11231 21258 39841 49978 53014 69951 7//4/ 333 11218 21259 70005 555 10050
AAXX 19184 71365 16/// /2708 10006 21066 39686 49896 53015 60001 333 10019 21244 70000 555 10010
AAXX 19184 71377 16/// /2316 10048 21008 39998 40046 56029 60001 333 10049 21086 70000
AAXX 19184 71393 16/// ///// 10031 21075 38884 40171 56017 60001 333 10032 21090 70000
AAXX 19184 71951 11232 81618 10010 20006 39846 40114 58039 60121 76876 885// 333 10014 21029 43043 70161 90983
AAXX 19184 71858 16/// /2408 11059 21093 39911 40198 58013 60001 333 11059 21094 70000
AAXX 19184 71472 46/// /2119 10081 20076 30051 40068 5/012 6///1 333 10081 20058 7////
AAXX 19184 71087 46/// /2610 10008 21064 39684 49885 53007 6///1 333 10010 21250 7////
AAXX 19184 71551 16/// /1808 11032 21069 39542 40219 58019 60001 333 11032 21118 70000
AAXX 19184 71554 17/// /1717 11068 21087 30032 40038 56060 60021 7//4/ 333 11068 21137 70016
AAXX 19184 71564 16/// /2910 11047 21078 39881 40259 51013 60001 333 11021 21058 70003
AAXX 19184 71579 16/// /2603 11047 21082 39955 40246 51014 60001 333 11040 21054 70003
AAXX 19184 71580 11508 33124 11305 21355 39885 49923 58015 60011 72250 83500 333 11296 21319 45030 70010 90983 93101
AAXX 19184 71581 16/// /2503 10023 20014 39568 40047 53005 60001 333 10029 21056 70003 555 10010
AAXX 19184 71585 16/// /2410 11008 21060 39560 40023 56018 60001 333 21205 7////
AAXX 19184 71730 11574 73213 11005 21028 39659 40083 52037 69921 72662 87500 333 10024 21036 41001 70020 90926
AAXX 19184 71739 41432 83313 11080 21113 39749 40116 51042 6//// 77175 885// 333 10002 21081 4//// 7//// 90983
AAXX 19184 71807 16/// /0322 11017 21048 30077 40096 56021 60001 333 11013 21051 70006
AAXX 19184 71810 16/// /1512 11052 21155 30018 40086 56047 60001 333 11049 21186 70000
AAXX 19184 71110 16/// /0214 11032 21071 30038 40099 56022 60001 333 11030 21051 70000 555 10020
AAXX 19184 71133 46/// /2212 11038 21103 39414 40131 58030 6///1 333 11038 21146 7////
AAXX 19184 71139 16/// /2108 11073 21082 38732 40223 56013 60001 333 11055 21104 70000
AAXX 19184 71141 16/// /3209 11344 21380 39955 49983 56012 60001 333 11335 21351 70000
AAXX 19184 71450 16/// /2008 11062 21096 39492 40231 57015 60001 333 11062 21118 70000
AAXX 19184 71452 46/// /2205 11054 21090 39532 40264 58004 6///1 333 11054 21125 7////
AAXX 19184 71453 16/// /2021 11001 21055 39282 40209 56030 60001 333 11001 21093 70000
AAXX 19184 71455 46/// /2114 11066 21089 39405 40223 56018 6///1 333 11066 21146 7////
AAXX 19184 71459 16/// /1910 11056 21084 39378 40211 58022 60001 333 11056 21146 70000
AAXX 19184 71465 46/// /2212 10062 20033 39907 40123 58008 6///1 333 10063 20013 7////
AAXX 19184 71470 16/// /1104 11210 21232 39285 49917 55003 60001 333 11194 21306 70000
AAXX 19184 71475 16/// /0000 10026 20021 30217 40313 56006 60001 333 10028 20022 70000
AAXX 19184 71476 17/// /1526 30045 55040 60211 7//4/ 333 70288
AAXX 19184 71480 17/// /2802 11172 21195 39816 49939 51014 69951 7//4/ 333 11146 21277 70005 555 10010
AAXX 19184 71484 16/// /1725 10083 20076 30049 40067 55024 60001 333 10084 20041 70000
AAXX 19184 71492 46/// ///03 11191 21207 39216 49912 53014 6///1 333 11175 21281 7////
BBXX 41052 19181 99183 70648 46/// /0606 10270 40151 91750 333 91207
BBXX 41052 19181 99183 70648 46/// /0505 10270 40152 91740 333 91206
BBXX 41052 19181 99183 70648 46/// /0606 10268 40150 58019 91800 22200 00276 333 91207
BBXX 41053 19181 99185 70661 46/// /0407 10263 40159 91750 333 91208
BBXX 41053 19181 99185 70661 46/// /0407 10264 40159 91740 333 91208
BBXX 41053 19181 99185 70661 46/// /0406 10264 40159 56020 91800 22200 00275 11004 70018 333 91208
AAXX 19184 48557 32560 60000 10240 20233 30067 40102 57009 83806 333 59005
AAXX 19184 48387 31956 00000 10110 20104 39173 40167 57002 71000 333 58001
AAXX 19184 48552 11460 60000 10247 20222 30093 40100 57011 60023 71062 86206 333 59015 70018
BBXX 42085 19181 99179 70665 46/// /0506 10282 40147 57023 91800 22200 00279 10501 70007 333 91208
BBXX 42085 19181 99179 70665 46/// /0507 10281 40148 91750 333 91208
BBXX 42067 19181 99300 70886 46/// /2002 10155 20125 40218 91740 22200 00168 10401 70006 333 91202
AAXX 19184 71108 11240 82702 10054 20051 30241 40315 55000 69941 71054 885// 333 10058 20046 70004 90936
AAXX 19184 71472 46/// /2119 10081 20076 30051 40068 5/012 6///1 333 10081 20058 7////
AAXX 19184 71858 16/// /2408 11059 21093 39911 40198 58013 60001 333 11059 21094 70000
AAXX 19184 71951 11232 81618 10010 20006 39846 40114 58039 60121 76876 885// 333 10014 21029 43043 70161 90983
AAXX 19184 71920 16/// /2206 10010 21032 30174 40180 58037 60001 333 10013 21077 70006
AAXX 19184 71851 16/// /2308 11063 21087 39908 40252 51009 60001 333 11029 21063 70000
AAXX 19184 71885 16/// ///// 10025 60001 333 10026 21108 70012
AAXX 19184 71742 46/// /3511 11063 21104 39948 40139 56024 6///1 333 11059 21092 7////
AAXX 19184 71744 16/// /2011 11041 21140 30087 40129 58053 60001 333 11040 21180 70000
AAXX 19184 71747 16/// /3305 11069 21093 39737 40223 51028 60001 333 10016 21070 70005 555 10010
AAXX 19184 71250 16/// /0114 11020 21043 39947 40084 55012 60001 333 11017 21050 70028
AAXX 19184 71268 11274 72710 10000 21026 39699 40104 52038 69971 70284 86830 333 10025 21040 70027 90921
AAXX 19184 71270 16/// /2811 10060 20019 39859 40076 51005 60001 333 10061 21008 70000
AAXX 19184 71296 16/// /2708 10047 20016 39777 40081 50000 60001 333 10048 21020 70000
AAXX 19184 71299 16/// /3211 11098 21124 39858 40135 51038 60001 333 11015 21098 70096 555 10040
AAXX 19184 71730 11574 73213 11005 21028 39659 40083 52037 69921 72662 87500 333 10024 21036 41001 70020 90926
AAXX 19184 71739 41432 83313 11080 21113 39749 40116 51042 6//// 77175 885// 333 10002 21081 4//// 7//// 90983
AAXX 19184 71807 16/// /0322 11017 21048 30077 40096 56021 60001 333 11013 21051 70006
AAXX 19184 71810 16/// /1512 11052 21155 30018 40086 56047 60001 333 11049 21186 70000
BBXX 44150 19181 99425 70640 46/// /3504 10013 40191 57013 22200 00105 11005 70027 333 91207
AAXX 19181 37279 32994 70901 10137 20043 30083 40225 58003 80006 333 10172
AAXX 19181 37308 329// 20000 10010 21025 39633 40304 52004 82031 333 10069
AAXX 19181 37531 329// 01310 10030 21008 39609 40354 52004 333 10065
AAXX 19181 37553 326// 70000 10002 21019 39689 40363 52008 87500 333 10070
AAXX 19181 37651 16/// ///00 10017 20003 3//// 4//// 5//// 60002 333 10080
AAXX 19181 37492 NIL
BBXX DAJT 19184 99164 30671 41698 31116 10265 20223 40090 52015 70100 8/44/ 22254 04260 80235
BBXX A8UA9 19184 99259 70155 41598 40420 10200 20177 40200 5/010 70200 8494/ 22253 20402 304// 40504 80185
BBXX A8YJ9 19184 99078 50342 41798 21213 10280 20226 40110 57015 70200 8/1// 22244 04260 20302 322// 40802 80241
BBXX A8SG4 19184 99074 51128 41598 50718 10255 20197 40140 54000 70211 84444 22213 04250 20101 308// 40102 80215
BBXX A8RV8 19184 99144 11121 41398 60519 10240 20219 40110 56/// 70222
AAXX 19184 71701 12974 81911 11025 21163 30077 40141 57059 60001 83054 333 11025 21167 70000
BBXX SHJC 19181 99237 11198 43/98 80316 10187 40189 58014 22254 00202 2//// 4////
BBXX 44150 19181 99425 70640 46/// /3504 10013 40191 57013 22200 00105 11005 70027 333 91207
AAXX 19181 48803 32497 80000 10157 20139 30076 40192 54000 888// 333 59036 84894 88696
AAXX 19181 48820 32797 70000 10167 20124 30186 40194 53001 875// 333 59024 87697
AAXX 19181 48823 32997 00000 10136 20125 30185 40188 54000 333 59031
AAXX 19184 71701 12974 81911 11025 21163 30077 40141 57059 60001 83054 333 11025 21167 70000
AAXX 19181 50136 32970 32501 11266 21300 39651 40240 57012 80002 333 11199
AAXX 19181 50745 32965 02501 11179 21198 30076 40274 57004 333 11067
AAXX 19181 50774 32960 02701 11196 21220 39957 40287 54000 333 11128
AAXX 19181 50788 32970 02703 11189 21219 30172 40265 52001 333 11128
AAXX 19181 51133 NIL
AAXX 19181 51431 NIL
AAXX 19181 51747 NIL
AAXX 19181 52203 NIL
AAXX 19181 52418 NIL
AAXX 19181 52681 NIL
AAXX 19181 53564 NIL
AAXX 19181 53614 NIL
AAXX 19181 53646 32970 73603 11079 21097 38937 40337 52003 80002 333 00353 11002
AAXX 19181 53798 NIL
AAXX 19181 53845 32765 72701 11016 21051 39163 40319 57001 875// 333 00203 10037
AAXX 19181 53959 NIL
AAXX 19181 54094 31958 01801 11193 21225 39988 40312 52002 70400 333 11080
AAXX 19181 54102 32980 01803 11222 21254 39095 40396 57009 333 11155
AAXX 19181 54161 32960 02002 11131 21174 39996 40309 57003 333 11077
AAXX 19181 54292 32970 02904 11125 21189 39970 40309 52002 333 11059
AAXX 19181 54374 32962 00000 11184 21210 39846 40347 52007 333 11072
AAXX 19181 54423 NIL
AAXX 19181 54618 NIL
AAXX 19181 54843 31920 00000 11040 21054 30287 40316 57005 71000 333 10036
AAXX 19181 54909 32963 03601 11029 21048 30240 40306 57005 333 10063
AAXX 19181 56029 NIL
AAXX 19181 57127 NIL
AAXX 19181 57131 31957 81602 10022 21021 39808 40318 57003 71000 8807/ 333 10038
AAXX 19184 04211 45/84 /1411 11090 21145 39792 49954 52007 333 11087 21097
AAXX 19184 04220 05/84 01419 11099 21157 39898 49951 57004 69982 333 11084 21109 55300 20004 69937
AAXX 19184 04221 47/12 /1023 11122 21193 39926 49965 52003 78587 333 11111 21128
AAXX 19184 04231 12989 70513 11112 21198 39912 49987 54000 6///2 8707/ 333 11095 21139 83363 87365 91125
AAXX 19184 04234 47403 80819 11090 21117 39931 49942 54000 77277 333 11066 21096 88/12 91135
AAXX 19184 04241 47580 71619 11066 21083 39925 49965 54000 76476 333 11060 21096 81/25 83/57 85/60 87/60 91132
AAXX 19184 04250 07406 71524 11076 21089 39876 49983 52008 60042 77287 333 10224 21142 55300 20014 60017 81/10 83/19 85/61 87/62 91150
AAXX 19184 04254 47406 71519 11077 21123 39874 49991 52004 77177 333 11051 21083 84/12 85/48 87/60 91134
AAXX 19184 04260 47480 71315 11072 21112 39966 40011 57004 78588 333 11061 21089 87/18
AAXX 19184 04270 45784 80712 11102 21217 30014 40055 57009 333 11101 21149 88/50
AAXX 19184 04272 07524 8//// 11082 21096 39965 40039 57011 69942 77170 333 11077 21108 69947 83/20 87/24 88/31
AAXX 19184 04312 46/// ///// 11335 21379 39964 40006 52004
AAXX 19184 04320 45/84 /3002 11263 21307 39984 40001 52007 333 11147 21311 55300
AAXX 19184 04339 47/83 ///// 11090 21094 39819 49910 54000 70081 333 11087 21157 55300 20000
AAXX 19184 04360 06/// /3301 11084 21140 39810 49881 52015 6///2 333 11025 21087 55300 20000 6///7
AAXX 19184 04361 46/// /2507 11066 21122 39828 49880 52013 333 11019 21073
AAXX 19184 04390 07580 52209 11050 21084 39935 40030 57010 60132 77170 333 11041 21064 60057 81/24 83/34 85/45
AAXX 19184 60760 12560 23014 10123 21021 30117 40222 52009 60002 82200 333 10115 82830
AAXX 19181 13278 32998 81602 10040 21008 39895 40123 53001 8807/ 333 10058
AAXX 19181 13378 31/91 91807 11038 21044 38172 48394 56004 74544 333 11027 4/010
AAXX 19181 13397 11698 81104 10026 20006 39596 40141 58003 69982 70262 885// 333 10034
AAXX 19181 13180 11698 80904 10042 20024 30016 40128 53002 69952 70262 885// 333 10062
AAXX 19181 13173 11697 80502 10018 20011 30028 40130 50002 60052 76166 885// 333 10039
AAXX 19181 13266 11697 80604 10027 20015 30021 40124 53004 60082 76166 885// 333 10046
AAXX 19181 13384 32698 81601 10038 21006 39972 40126 55003 885// 333 10047
AAXX 19181 13369 11497 71404 10002 21012 38894 48379 53002 69912 70372 87500 333 10015 4/002 93100
AAXX 19181 13383 32698 70802 10036 20006 39915 40121 58003 87500 333 10069
AAXX 19181 13389 32598 80000 10034 20009 39838 40121 51002 888// 333 10052
BBXX 44255 19181 99473 70573 46/// /0106 11042 40118 57029 22200 00040 11202 70012 333 91209
BBXX 44255 19181 99473 70573 46/// /0106 11042 40118 57029 22200 00040 11202 70012 333 91209
AAXX 19184 47407 11/60 41404 11104 21121 39986 40169 50006 60011 72681 84200
AAXX 19184 47409 11/70 22407 11083 21131 30088 40145 50003 69901 70281 82200
AAXX 19184 47418 12970 03203 11114 21144 30100 40153 52004 60001
AAXX 19184 47421 17/70 /2809 11042 21136 30129 40174 50002 60021 72470
AAXX 19184 47430 11/65 11702 11098 21118 30124 40182 51005 69901 70181 81200
AAXX 19184 47570 17/64 /2809 10000 21027 39946 40214 58005 69951 77176
AAXX 19184 47575 11/60 62508 11029 21057 30186 40191 50007 60021 72682 86200
AAXX 19184 47584 11/65 61401 11022 21087 39993 40190 51005 69901 70281 86200
AAXX 19184 47604 11/60 73110 10028 21017 30219 40228 53003 69901 72682 872//
AAXX 19184 47605 11/60 80807 10026 20003 30199 40242 56002 60021 78388 882//
AAXX 19184 47610 11/70 70904 11004 21011 39710 40231 56001 60011 78588 872//
AAXX 19184 47624 12/80 13206 10020 21035 30062 40205 58001 60001 81200
AAXX 19184 47629 12970 03402 11017 21037 30157 40197 50001 60001
AAXX 19184 47636 11/65 23506 10034 20015 30154 40225 57004 69901 70181 82800
AAXX 19184 47651 13/// /3505 10062 21029 30201 40224 56003 60001
AAXX 19184 47655 15/70 /2810 10053 20003 30145 40203 57006 60001
AAXX 19184 47675 15/70 /0506 10054 20033 30094 40188 50001 60001
AAXX 19184 47741 11/70 42304 10027 20001 30222 40250 55002 69901 70381 84200
AAXX 19184 47746 11/65 81206 10032 20016 30224 40244 56003 60021 78082 882//
AAXX 19184 47750 11/65 52402 10029 20019 30211 40240 57007 60101 72582 85200
AAXX 19184 47765 12/80 20109 10018 21020 30197 40265 50001 60001 82500
AAXX 19184 47772 12/80 13202 10063 21023 30136 40239 55005 60001 81800
AAXX 19184 47800 15/60 /3301 10013 21008 30271 40276 55005 60001
AAXX 19184 47815 12/70 11705 10017 21034 30251 40268 56008 60001 81100
AAXX 19184 47817 12970 00501 10027 21009 30232 40277 55004 60001
AAXX 19184 47830 12/75 13010 10040 21026 30241 40260 57003 60001 81100
AAXX 19184 47887 12/75 50903 10041 21027 30218 40261 58002 60001 85500
AAXX 19184 47891 12/70 32505 10030 21023 30238 40256 55002 60001 83800
AAXX 19184 47895 12/80 13009 10056 21025 30245 40253 53001 60001 81800
AAXX 19184 47927 11/70 70712 10200 20135 30159 40208 56011 69901 70281 878//
AAXX 19181 48806 32998 00000 10098 20094 39410 40209 57002 333 59026 96122
AAXX 19184 47401 11/70 73408 11034 21090 30135 40150 51006 69951 72682 872//
AAXX 19184 47412 11/65 12606 11056 21125 30134 40168 50002 69901 70181 81200
AAXX 19184 47420 15/70 /2409 11064 21099 30100 40135 50002 60001
AAXX 19184 47426 15/70 /0108 11074 21128 30111 40161 50005 60001
AAXX 19184 47582 11/58 73311 11014 21047 30176 40204 50000 69901 78582 873//
AAXX 19184 47590 11/65 23204 10009 21041 30138 40193 50003 69901 70182 82300
AAXX 19184 47600 17/70 /3614 10042 21035 30231 40239 55001 69901 70060
AAXX 19184 47648 12/65 13009 10031 20012 30154 40189 56001 60001 81100
AAXX 19184 47662 12980 03605 10047 21046 30153 40198 50005 60001
AAXX 19184 47678 15/70 /2809 10102 20008 30009 40198 56002 60001
AAXX 19184 47740 17/80 /3205 10022 20007 30210 40246 56004 60021 70086
AAXX 19184 47778 15/70 /3315 10077 21026 30140 40225 56009 60001
AAXX 19184 47807 12975 01504 10034 21023 30253 40272 55008 60001
AAXX 19184 47827 12980 03206 10049 21015 30223 40263 57008 60001
AAXX 19184 47843 15/71 /2203 10014 21010 30249 40283 53002 60001
AAXX 19184 47893 12970 03004 10023 21013 30246 40252 50001 60001
AAXX 19184 47909 12/65 40405 10146 20062 30235 40245 58005 60001 84200
AAXX 19184 47918 12/70 70713 10208 20130 30177 40194 58018 60001 8127/
AAXX 19184 47936 12/75 10310 10167 20096 30165 40225 58011 60001 81100
AAXX 19184 47945 12/65 20308 10182 20090 30193 40218 56013 60001 82200
AAXX 19184 47971 11/65 73606 10190 20108 30173 40183 58007 69901 70282 8227/
AAXX 19184 47991 16/// /1710 10243 20189 30132 40142 56011 60001
AAXX 19184 40101 12958 00000 10107 20017 39159 48556 51008 60001 918// 333 10198
AAXX 19184 40103 32958 00000 10115 20055 40191 58002 333 10189 555 10189
AAXX 19184 40100 NIL
AAXX 19184 40102 NIL
AAXX 19184 41254 36/// /3502 10092 20061 37999 48004 333 0E009 10159 58010
AAXX 19184 41257 36/// /2702 10190 20111 39727 40217 333 0E018 10241 58022
AAXX 19184 41288 36/// ///// 10237 20185 30166 40190 333 0E023 10266 58002
AAXX 19181 80001 32570 50706 10286 20222 30129 40130 81236 333 56300 59010 81820 84070
AAXX 19181 80002 32570 50605 10286 20222 81171 333 56290 81822 83359
AAXX 19181 80009 31560 20000 10312 20235 30086 40091 70500 82831 333 56000 59016 82820
AAXX 19181 80022 31469 31003 10320 20218 30098 40100 70510 82101 333 562/9 59011 82815
AAXX 19181 80028 31560 33606 10299 20223 30075 40110 70510 81105 333 568/0 59012 81820 83070
AAXX 19181 80035 31565 20304 10284 20237 30124 40129 70510 82100 333 562// 59004 82820
AAXX 19181 80036 31568 20305 10316 20200 70500 82202 333 560/0 57893 82820
AAXX 19181 80063 31566 60000 10314 20241 70521 83410 333 5600/ 83620 84460
AAXX 19181 80084 31465 81804 10261 20231 71522 878// 333 561// 87815
AAXX 19181 80091 01465 60000 10274 20235 60111 70592 82830 333 5690/ 69927 82610 84360
AAXX 19181 80094 31465 73104 10228 20192 38802 70522 85870 333 5672/ 59010 85815
AAXX 19181 80097 32460 73603 10276 20219 39756 40103 83836 333 56999 58000 83817 83359
AAXX 19181 80099 31468 30703 10306 20231 39920 40064 70500 83201 333 562/9 59007 83810
AAXX 19181 80110 01559 81305 10210 20160 38489 69901 75022 8457/ 333 56009 58007 69907 84630 85358
AAXX 19181 80112 31565 83404 10175 20139 37896 71522 8627/ 333 56809 57894 58003 86820 83458
AAXX 19181 80139 NIL
AAXX 19181 80144 01450 82403 10254 20230 60011 75152 8521/ 333 5600/ 69937 85815 88457
AAXX 19181 80149 NIL
AAXX 19181 80210 01463 82901 10215 20188 38660 69911 75122 84278 333 56990 57781 58001 69916 84715 84558
AAXX 19181 80211 11565 70502 10230 20184 69941 71552 85270 333 5662/ 85823 83360
AAXX 19181 80214 01460 81001 10240 20219 39109 60031 72165 8657/ 333 5650/ 59005 60037 86617 86358
AAXX 19181 80222 31568 80402 10179 20093 37503 70522 86875 333 56999 59011 86820
AAXX 19181 80234 22562 60502 10296 20205 39597 40090 60024 85532 333 56239 58001 60022 85623
AAXX 19181 80241 NIL
AAXX 19181 80259 31560 71602 10252 20192 39050 70522 85230 333 5646/ 57883 59001 85823 83359
AAXX 19181 80315 11458 71804 10253 20225 39587 40089 69941 71552 85270 333 5688/ 59001 85817 83460
AAXX 19181 80342 31450 73303 10182 20157 38216 74022 86830 333 5647/ 58001 86815 84358
AAXX 19181 80370 01457 70000 10138 20111 69931 72052 87800 333 563// 69917 87818
AAXX 19181 80398 01262 81802 10266 20243 30011 40106 60051 70265 887// 333 563// 58011 69957 86705 85620
AAXX 19184 61017 32960 50000 10170 20029 39739 40163 80002 333 10267 58013 85080
AAXX 19184 61024 32960 31206 10226 21032 39567 40139 80002 333 10290 58011 83080
AAXX 19184 61036 32962 70000 10280 20017 39671 40112 81038 333 10330 58002 81365 87280
AAXX 19184 61043 32960 50606 10264 21030 39668 40111 80001 333 10308 58008 85080
AAXX 19184 61045 32965 70000 10230 21010 39622 40128 80008 333 10305 58004 87280
AAXX 19184 61049 32960 70000 10220 20005 39794 40119 80008 333 10291 58009 87280
AAXX 19184 61052 32960 30206 10280 20011 39856 40114 81032 333 10330 58006 81365 83080
AAXX 19184 61075 32960 70000 10270 20046 39799 40111 81038 333 10335 58011 81364 87280
AAXX 19184 61080 32960 70000 10253 21001 39697 40122 81048 333 10311 58009 81364 87280
AAXX 19184 61090 32965 70000 10244 20002 39606 40122 80008 333 10300 58008 87280
AAXX 19184 61091 32965 50000 10230 20094 39677 40142 80002 333 10310 58011 85080
AAXX 19184 61096 32965 70000 10236 21022 39743 40130 80008 333 10300 58009 87280
AAXX 19184 61099 32960 73606 10200 20041 39864 40093 80008 333 10352 58006 87280
AAXX 19184 64700 31958 43606 10255 20009 39777 40119 70611 80002 333 10325 58013 84075
AAXX 19184 64750 32960 60000 10266 20123 39617 40088 80002 91152 333 10360 58008 86075
AAXX 19181 08501 32/// /1706 10169 20148 30266 40302 57003 333 10184 91009 91110
AAXX 19181 08505 32470 61405 10180 20116 30271 40320 55003 868// 333 10201 82817 85635
AAXX 19181 08509 32560 71702 10174 20121 30264 40329 53002 87800 333 10195 81828 87645
AAXX 19181 08512 32580 73602 10163 20084 30242 40328 52001 878// 333 10178 81825 87640
AAXX 19181 08515 32589 70402 10167 20111 30205 40327 53001 875// 333 10184 87636 910// 911//
AAXX 19181 08533 32/// /0000 10106 20041 30255 40284 52009 333 10158
AAXX 19181 08541 32/// /3503 10094 20048 30176 40298 52011 333 10142 91105
AAXX 19181 08545 31970 20201 10072 20031 30220 40306 52007 70200 81032 333 10122 81360
AAXX 19181 08548 32/// /3401 10086 20042 30093 40303 52010 333 10120
AAXX 19181 08554 32970 20101 10127 20011 30275 40285 52011 80001 333 10155 82080
AAXX 19181 08558 32/// /3602 10082 20006 39996 40297 52008 333 10131
AAXX 19181 08560 31980 03003 10049 20019 39531 40309 52012 70200 333 10107
AAXX 19181 08567 32/// /1801 10044 20017 39623 40307 52009 333 10094
AAXX 19181 08570 31980 11902 10083 20018 39828 40296 52008 70200 80001 333 10125 81099
AAXX 19181 08575 32/// /2604 10056 21008 39467 40296 52007 333 10098 91006 91106
AAXX 19181 08579 NIL
AAXX 19184 16008 12960 00103 11072 21134 38483 48445 51002 60002 333 11022 43013 92830
AAXX 19181 40001 32970 00106 10054 20010 40268 58003 333 10146
AAXX 19181 40007 32960 00603 10087 20051 40271 50004 333 10132
AAXX 19181 40025 32965 00603 10140 20044 40197 56009 333 10222
AAXX 19181 40045 32970 00000 10060 20015 40291 54000 333 10166
AAXX 19181 40061 32970 00000 10068 20025 40270 52009 333 10133
AAXX 19181 40080 32965 00602 10088 21041 39523 40248 52010 333 10180
AAXX 19181 40087 NIL
AAXX 19181 40095 NIL
BBXX SMGW 19181 99351 11548 43/98 73312 10114 40128 53002 22224 00206 2//// 4////
AAXX 19181 40009 32965 00000 10047 20030 40254 51002 333 10158
AAXX 19181 40016 32970 02803 10060 20036 40294 54000 333 10132
AAXX 19181 40022 32965 00303 10150 20053 40200 58006 222// 20000 333 10188
AAXX 19181 40030 31960 00000 10076 20063 40259 50003 71000 333 10114
AAXX 19181 40039 32970 00000 10068 20035 40265 51003 333 10142
AAXX 19181 40066 32970 00706 10116 20052 40200 50000 333 10130
AAXX 19181 40072 32970 00000 10082 20031 40296 53004 333 10158
AAXX 19181 40083 32970 01901 10074 21020 48546 52008 333 10142
BBXX SBLI 19181 99300 11789 43/98 42114 10222 40165 55014 22264 00229 2//// 4//// 426621110
AAXX 19184 64500 32460 82406 10274 20240 30080 40093 885// 333 10282 58007 83610 88633
AAXX 19184 64501 32358 82208 10270 20238 3//// 4//// 885// 333 10292 5//// 83608 88630
AAXX 19184 64550 32458 8//// 10257 20229 30/// 40/// 885// 333 10280 5//// 84610 88616
AAXX 19184 64551 32460 70000 10260 20246 30067 40096 8353/ 333 10288 59012 83610 87360
AAXX 19184 64570 32570 53302 10262 20238 39595 40099 83902 333 10304 58001 83620 81933 85076 94945 95835
BBXX VCXF 19184 99464 70484 41295 80337 10028 2002/ 49984 57022 76326 886// 22200 02028 20605 301// 40803 80025
BBXX VCXF 19184 99464 70484 41295 80337 10028 2002/ 49984 57022 76326 886// 22200 02028 20605 301// 40803 80025
AAXX 19180 44214 32998 03601 11226 21286 38400 40599 52006
AAXX 19180 44231 NIL
AAXX 19180 44259 32997 02505 11220 21270 39335 40328 56011
AAXX 19180 44277 329// 00000 11241 21273 37871 40610 52007 333 91108
AAXX 19180 44288 32999 03003 11142 21287 38192 40403 57006
AAXX 19180 44292 32999 00000 11280 21304 38748 40470 58008
AAXX 19180 44304 329// 00000 11294 21317 39022 40398 57014
AAXX 19180 44354 329// 00000 11276 21299 39166 40433 56006
AAXX 19180 44373 32999 02302 11184 21232 38593 40425 58007
AAXX 19181 01271 17460 80702 11018 21028 39949 49970 54000 60072 785// 333 11016 91106
AAXX 19181 01415 17666 81303 10019 20001 30020 40031 57002 6//// 781// 333 10050 91109
AAXX 19180 44203 NIL
AAXX 19180 44207 NIL
AAXX 19180 44212 32999 01802 11331 21360 39352 40671 52010
AAXX 19180 44213 32999 00000 11361 21397 38952 40692 52002
AAXX 19180 44215 32998 00000 11316 21338 38537 40648 52002
AAXX 19180 44218 329// 01803 11281 21311 38748 40611 52005
AAXX 19180 44225 319// 00000 11403 21420 38376 40736 54000 77677
AAXX 19180 44230 NIL
AAXX 19180 44232 329// 00000 11358 21400 39189 40512 57009
AAXX 19180 44237 32999 02701 11265 21304 38534 40466 58003
AAXX 19180 44239 329// 00000 11267 21300 38835 40420 56009
AAXX 19180 44241 329// 01402 11320 21343 39331 40449 57008
AAXX 19180 44256 32999 00000 11233 21258 39365 40298 58012
AAXX 19180 44265 329// 00000 11266 21290 38970 40551 52012
AAXX 19180 44272 329// 00000 11325 21361 38326 40628 52008
AAXX 19180 44275 32998 00000 11330 21341 37711 40623 51004
AAXX 19180 44282 32999 03202 11179 21282 38341 40425 54000
AAXX 19180 44284 32999 00000 11326 21360 37907 40675 52007
AAXX 19180 44285 32999 00000 11277 21304 38357 40513 56006
AAXX 19180 44287 32999 00204 11235 21292 38169 40534 58004
AAXX 19180 44294 329// 03501 11267 21289 38589 40470 57009
AAXX 19180 44298 329// 03605 11235 21241 38746 40409 57011
AAXX 19180 44302 329// 02708 11236 21275 39141 40371 58022
AAXX 19180 44305 32999 02904 11263 21292 39089 40377 56010
AAXX 19180 44313 32999 01805 11234 21274 39437 40364 57008
AAXX 19180 44314 32998 02703 11207 21247 39171 40356 57009
AAXX 19180 44317 32998 02301 11178 21228 38974 40340 57012
AAXX 19180 44336 329// 02802 11226 21262 38749 40473 56002
AAXX 19180 44341 329// 01101 11284 21313 38644 40499 56008
AAXX 19180 44347 32999 00000 11224 21256 38777 40448 54000
AAXX 19180 44352 32999 00000 11214 21247 38958 40376 56006
AAXX 19180 44358 329// 00000 11271 21288 39159 40453 57005
AAXX 19181 56778 32965 02001 10056 20041 38118 52003 333 05151 10161
AAXX 19181 57265 31956 83201 10040 21002 30179 40293 57003 71000 8807/ 333 10088
AAXX 19181 57494 11965 80202 10058 21001 30246 40276 54000 69901 76000 8807/ 333 10112
AAXX 19181 58362 32970 00401 10052 20029 30287 40295 57005 333 10105
AAXX 19181 28676 329// 01902 11208 21239 30380 40522 58001 333 11194
AAXX 19181 28766 319// 02603 11218 21231 30332 40545 52002 71000 333 11184
AAXX 19181 28867 32998 02506 11225 21257 30264 40569 58006 333 11198
AAXX 19181 28879 329// 02603 11175 21218 30231 40549 58002 333 11140
AAXX 19181 28952 329// 02002 11200 21226 30356 40569 58007 333 11164
AAXX 19181 28966 329// 00000 11274 21301 30264 40591 58002 333 11209
AAXX 19181 29802 319// 02202 11172 21190 30317 40474 58007 71000 333 11153
AAXX 19181 29807 325// 82703 11136 21163 30381 40510 52003 885// 333 11152
AAXX 19181 34691 32998 81406 11078 21123 30417 40404 58010 8807/ 333 11037
AAXX 19181 35067 329// 01902 11242 21277 30287 40602 58006 333 11204
AAXX 19181 35078 329// 01901 11280 21309 30164 40602 57009 333 11211
AAXX 19181 35085 329// 02804 11219 21247 30036 40570 58002 333 11131
AAXX 19181 35108 315// 82006 11107 21162 30413 40462 55006 73633 885// 333 11109
AAXX 19181 35188 329// 01603 11253 21270 30102 40597 52001 333 11181
AAXX 19181 35217 319// 61511 11120 21147 30432 40476 58015 73632 86080 333 11127
AAXX 19181 35229 329// 00000 11208 21225 30274 40581 58001 333 11142
AAXX 19181 35302 319// 81804 11110 21163 30438 40459 57001 70232 8801/ 333 11119
AAXX 19181 35357 329// 00000 11307 21336 30116 40625 52003 333 11209
AAXX 19181 35394 32998 00000 11265 21293 39838 40613 52003 333 11171
AAXX 19181 35406 315// 81608 11114 21158 30460 40463 58005 73633 885// 333 11123
AAXX 19181 35416 329// 01406 11160 21202 30399 40532 58004 333 11129
AAXX 19181 35426 329// 30902 11192 21216 30254 40580 58001 80001 333 11154
AAXX 19181 35497 329// 00000 11235 21263 39704 40605 52007 333 11117
AAXX 19181 35532 31998 01212 11172 21206 39998 40537 52014 73633 333 11152 91016
AAXX 19181 35671 31998 03603 11198 21229 30123 40603 52004 70230 333 11125
AAXX 19181 35700 32998 51209 11104 21157 30480 40454 58004 80005 333 11100 91116
AAXX 19181 35746 329// 03503 11230 21263 30517 40594 52004 333 11188
AAXX 19181 35796 12997 00405 11221 21259 30077 40566 52006 69980 333 11150
AAXX 19181 35849 32998 00202 11199 21240 30479 40576 54000 333 11161
AAXX 19181 35925 329// 00706 11169 21188 40536 52010 333 11131
AAXX 19181 35953 329// 00606 11172 21206 30421 40564 52008 333 11114
AAXX 19181 35969 329// 00502 11197 21238 30373 40566 54000 333 11148
AAXX 19181 36003 32998 63003 11163 21184 30352 40517 52002 86030 333 11144
AAXX 19181 36152 325// 82704 11135 21180 30330 40534 53002 885// 333 11146
AAXX 19181 36177 119// 81202 11272 21297 30286 40568 54000 69920 77172 8802/ 333 11242
AAXX 19181 36208 329// 00402 11275 21302 39459 40572 52006 333 11224
AAXX 19181 36397 329// 62002 11258 21292 39935 40573 51003 83071 333 11228
AAXX 19181 36428 329// 10502 11269 21293 39983 40551 52013 80001 333 11150 95090
AAXX 19181 36535 329// 00000 11261 21292 39845 40561 52011 333 11209
AAXX 19181 36639 129// 20000 11298 21321 39876 40573 52010 69930 82050 333 11142
AAXX 19181 36821 329// 00000 11237 21269 30012 40566 52005 333 11173
AAXX 19181 36859 129// 80701 11135 21155 39677 40524 52011 60010 8807/ 333 11087
AAXX 19181 36864 328// 81402 11187 21220 39557 40548 52015 86057 333 11125
AAXX 19181 36870 129// 80000 11175 21203 39413 40528 51003 69930 85031 333 11134
AAXX 19181 38001 32997 20514 10002 21166 30394 40364 58007 82030 333 10026 91014 91120
AAXX 19181 38062 329// 00503 11186 21227 30366 40547 58004 333 11130
AAXX 19181 38069 329// 03203 11180 21214 30312 40524 52004 333 11147
AAXX 19181 38196 31996 03606 11155 21210 39427 40500 53009 73833 333 11065 91116
AAXX 19181 38198 329// 02302 11174 21200 30218 40505 52010 333 11114
AAXX 19181 38222 32997 00000 11258 21282 39917 40558 52001 333 11187
AAXX 19181 38232 32998 01110 11050 21138 30356 40461 52001 333 11016
AAXX 19181 38328 319// 02001 11153 21166 39671 40469 58008 71011 333 11058
AAXX 19181 38334 11/96 90809 11176 21210 39423 40484 58004 69960 73873 333 11083 91016 91115
AAXX 19181 38341 11995 00000 11236 21261 39666 40560 52014 60020 71071 333 11166
AAXX 19181 38343 32997 00000 11227 21245 39610 40564 52024 333 11177
AAXX 19181 38439 32998 03203 11128 21171 30120 40490 52011 333 11064
AAXX 19181 28676 329// 01902 11208 21239 30380 40522 58001 333 11194
AAXX 19181 28766 319// 02603 11218 21231 30332 40545 52002 71000 333 11184
AAXX 19181 28867 32998 02506 11225 21257 30264 40569 58006 333 11198
AAXX 19181 28879 329// 02603 11175 21218 30231 40549 58002 333 11140
AAXX 19181 28952 329// 02002 11200 21226 30356 40569 58007 333 11164
AAXX 19181 28966 329// 00000 11274 21301 30264 40591 58002 333 11209
AAXX 19181 29802 319// 02202 11172 21190 30317 40474 58007 71000 333 11153
AAXX 19181 29807 325// 82703 11136 21163 30381 40510 52003 885// 333 11152
AAXX 19181 34691 32998 81406 11078 21123 30417 40404 58010 8807/ 333 11037
AAXX 19181 35067 329// 01902 11242 21277 30287 40602 58006 333 11204
AAXX 19181 35078 329// 01901 11280 21309 30164 40602 57009 333 11211
AAXX 19181 35085 329// 02804 11219 21247 30036 40570 58002 333 11131
AAXX 19181 35108 315// 82006 11107 21162 30413 40462 55006 73633 885// 333 11109
AAXX 19181 35188 329// 01603 11253 21270 30102 40597 52001 333 11181
AAXX 19181 35217 319// 61511 11120 21147 30432 40476 58015 73632 86080 333 11127
AAXX 19181 35229 329// 00000 11208 21225 30274 40581 58001 333 11142
AAXX 19181 35302 319// 81804 11110 21163 30438 40459 57001 70232 8801/ 333 11119
AAXX 19181 35357 329// 00000 11307 21336 30116 40625 52003 333 11209
AAXX 19181 35394 32998 00000 11265 21293 39838 40613 52003 333 11171
AAXX 19181 35406 315// 81608 11114 21158 30460 40463 58005 73633 885// 333 11123
AAXX 19181 35416 329// 01406 11160 21202 30399 40532 58004 333 11129
AAXX 19181 35426 329// 30902 11192 21216 30254 40580 58001 80001 333 11154
AAXX 19181 35497 329// 00000 11235 21263 39704 40605 52007 333 11117
AAXX 19181 35532 31998 01212 11172 21206 39998 40537 52014 73633 333 11152 91016
AAXX 19181 35671 31998 03603 11198 21229 30123 40603 52004 70230 333 11125
AAXX 19181 35700 32998 51209 11104 21157 30480 40454 58004 80005 333 11100 91116
AAXX 19181 35746 329// 03503 11230 21263 30517 40594 52004 333 11188
AAXX 19181 35796 12997 00405 11221 21259 30077 40566 52006 69980 333 11150
AAXX 19181 35849 32998 00202 11199 21240 30479 40576 54000 333 11161
AAXX 19181 35925 329// 00706 11169 21188 40536 52010 333 11131
AAXX 19181 35953 329// 00606 11172 21206 30421 40564 52008 333 11114
AAXX 19181 35969 329// 00502 11197 21238 30373 40566 54000 333 11148
AAXX 19181 36003 32998 63003 11163 21184 30352 40517 52002 86030 333 11144
AAXX 19181 36152 325// 82704 11135 21180 30330 40534 53002 885// 333 11146
AAXX 19181 36177 119// 81202 11272 21297 30286 40568 54000 69920 77172 8802/ 333 11242
AAXX 19181 36208 329// 00402 11275 21302 39459 40572 52006 333 11224
AAXX 19181 36397 329// 62002 11258 21292 39935 40573 51003 83071 333 11228
AAXX 19181 36428 329// 10502 11269 21293 39983 40551 52013 80001 333 11150 95090
AAXX 19181 36535 329// 00000 11261 21292 39845 40561 52011 333 11209
AAXX 19181 36639 129// 20000 11298 21321 39876 40573 52010 69930 82050 333 11142
AAXX 19181 36821 329// 00000 11237 21269 30012 40566 52005 333 11173
AAXX 19181 36859 129// 80701 11135 21155 39677 40524 52011 60010 8807/ 333 11087
AAXX 19181 36864 328// 81402 11187 21220 39557 40548 52015 86057 333 11125
AAXX 19181 36870 129// 80000 11175 21203 39413 40528 51003 69930 85031 333 11134
AAXX 19181 38001 32997 20514 10002 21166 30394 40364 58007 82030 333 10026 91014 91120
AAXX 19181 38062 329// 00503 11186 21227 30366 40547 58004 333 11130
AAXX 19181 38069 329// 03203 11180 21214 30312 40524 52004 333 11147
AAXX 19181 38196 31996 03606 11155 21210 39427 40500 53009 73833 333 11065 91116
AAXX 19181 38198 329// 02302 11174 21200 30218 40505 52010 333 11114
AAXX 19181 38222 32997 00000 11258 21282 39917 40558 52001 333 11187
AAXX 19181 38232 32998 01110 11050 21138 30356 40461 52001 333 11016
AAXX 19181 38328 319// 02001 11153 21166 39671 40469 58008 71011 333 11058
AAXX 19181 38334 11/96 90809 11176 21210 39423 40484 58004 69960 73873 333 11083 91016 91115
AAXX 19181 38341 11995 00000 11236 21261 39666 40560 52014 60020 71071 333 11166
AAXX 19181 38343 32997 00000 11227 21245 39610 40564 52024 333 11177
AAXX 19181 38439 32998 03203 11128 21171 30120 40490 52011 333 11064
AAXX 19181 51076 32980 00901 11241 21267 39535 40524 52024 333 01257 11141
AAXX 19181 51243 32865 70902 11143 21158 39894 40504 52009 82502 333 01300 11116
AAXX 19181 51463 11761 80702 11123 21146 39304 40504 52014 69941 77077 885// 333 01301 11108
AAXX 19181 51573 32975 10000 11077 21122 30314 40361 54000 80002 333 00500 11026
AAXX 19181 51709 11865 72901 11054 21072 38775 40321 52008 69901 77070 8453/ 333 00351 11036
AAXX 19181 52983 11963 82701 11055 21075 38147 57015 69901 70070 8802/ 333 00204 11014
AAXX 19181 53463 32970 02201 11089 21137 39043 40346 52002 333 00101 11017
AAXX 19181 54401 32965 53403 11089 21230 39430 40335 52003 80002 333 10005
AAXX 19181 52533 32980 03202 11136 21193 38580 40365 57014 333 00300 11043
AAXX 19181 52652 32970 21602 11140 21183 38586 40345 57016 80002 333 00300 11028
AAXX 19181 53588 32470 72205 11117 21137 37798 57005 87100 333 11074
AAXX 19181 53772 31930 21601 11053 21087 39365 40321 52001 71000 80002 333 10036
AAXX 19181 53915 32765 83201 11021 21048 38731 40328 57007 885// 333 00202 11017
AAXX 19181 54342 32962 00702 11160 21177 30255 40321 57001 333 11041
AAXX 19181 54511 32962 00702 11050 21133 30271 40313 57005 333 10036
AAXX 19181 56080 32980 02002 11109 21186 37152 57002 333 00002 10054
AAXX 19181 56096 32775 80401 10043 21019 39005 40271 54000 885// 333 00000 10059
AAXX 19184 NIL
AAXX 19184 82143 NIL
AAXX 19184 82599 32570 31210 10299 20216 30043 40103 83200 333 59003
AAXX 19184 82824 32570 73204 10309 20240 39975 40075 85230 333 59009
AAXX 19184 82899 NIL
AAXX 19184 83117 NIL
AAXX 19184 83248 32470 30914 10292 20226 30100 40122 83200 333 59008
AAXX 19184 83746 32570 40406 10308 20209 30068 40078 57016 81130
AAXX 19184 NIL
AAXX 19181 51133 11680 71101 11162 21188 39825 40542 52013 69901 70070 86502 333 01953 11106
AAXX 19181 51431 11975 80701 11109 21135 39647 40511 52007 69901 77070 8802/ 333 01951 11081
AAXX 19181 51747 32962 50000 11136 21171 38979 40333 52012 80002 333 00154 11022
AAXX 19181 52203 32980 20000 11144 21177 39415 40356 57003 80002 333 00552 11035
AAXX 19181 52418 32970 00902 11110 21183 38927 40321 57007 333 00400 11026
AAXX 19181 52681 32980 70201 11090 21146 38708 40355 57006 85042 333 00304 11030
AAXX 19181 53798 31958 73201 11023 21082 30217 40318 57009 70400 8703/ 333 10018
AAXX 19181 54423 32980 01601 11136 21188 39798 40346 52003 333 11020
AAXX 19181 54618 32962 80901 11013 21052 30294 40312 57006 8807/ 333 10025
AAXX 19184 NIL
AAXX 19184 NIL
AAXX 19184 83437 NIL
AAXX 19184 83550 21997 6//// 10296 20210 30075 40104 70251 86004 333 59010 69931
AAXX 19184 83552 NIL
AAXX 19184 83565 NIL
AAXX 19184 83579 NIL
AAXX 19184 83592 NIL
AAXX 19184 83623 NIL
AAXX 19184 83630 NIL
AAXX 19184 83676 NIL
AAXX 19184 83698 21397 80000 10230 20222 30110 40124 56020 76166 887// 333 60081
AAXX 19184 83702 NIL
AAXX 19184 83704 NIL
AAXX 19184 83716 NIL
AAXX 19184 83726 NIL
AAXX 19184 83738 31698 80000 10286 20184 39590 40079 57010 71520 889//
AAXX 19184 NIL
AAXX 19181 58238 31950 00904 10037 20000 30240 40286 57013 71000 333 10092
AAXX 19181 58752 32664 73202 10113 20036 30227 40273 57008 875// 333 10142
AAXX 19181 59134 32765 63405 10134 20060 30059 40228 57007 86500 333 10180
AAXX 19181 59287 32665 63403 10114 20063 30136 40222 52001 85502 333 10201
AAXX 19181 59431 31956 00000 10072 20060 30067 40216 57003 71000 333 10192
AAXX 19184 NIL
AAXX 19184 NIL
AAXX 19181 53564 32970 70202 11041 21097 39276 40330 52003 80002 333 00201 10016
AAXX 19181 53614 31913 21801 11085 21103 39003 40362 57005 71000 80002 333 00301 11016
AAXX 19181 53959 31950 72002 11020 21045 39858 40317 57001 71000 80002 333 10048
AAXX 19181 56029 32980 02901 11129 21203 36469 52004 333 00252 10061
AAXX 19181 57127 32960 80000 10058 20043 39657 40275 57004 8807/ 333 10083
AAXX 19184 NIL
AAXX 19184 82022 NIL
AAXX 19184 82193 NIL
AAXX 19184 82281 32570 30311 10314 20177 30031 40093 83200 333 58007
AAXX 19184 82332 NIL
AAXX 19184 82398 32570 21014 10288 20214 30070 40099 82200 333 58002
AAXX 19184 82400 21470 51306 10265 20233 30045 40110 72161 83510 333 58002 69941
AAXX 19184 82579 32970 23004 10354 20212 39999 40075 82100 333 58005
AAXX 19184 82917 NIL
AAXX 19184 82965 31568 60604 10308 20228 39760 40086 71522 85231 333 59009
AAXX 19184 82993 32570 31116 10290 20215 39975 40111 83100 333 59008
AAXX 19184 83208 32570 50304 10281 20214 39406 48510 83230 333 59007
AAXX 19184 83349 31570 60509 10288 20233 30119 40125 70186 83201 333 59007
AAXX 19184 83362 32570 31704 10329 20175 39860 40072 83100 333 59003
AAXX 19184 83378 21470 62603 10215 20187 38950 48510 72196 85539 333 58018 60091
AAXX 19184 83460 NIL
AAXX 19184 83497 NIL
AAXX 19184 83566 NIL
AAXX 19184 83599 NIL
AAXX 19184 83612 32970 52710 10325 20130 39457 48510 57019 83230
AAXX 19184 83649 32970 70714 10280 20231 30110 40115 56009 83231
AAXX 19184 83650 NIL
AAXX 19184 83780 32770 53310 10287 20070 39198 48500 56011 85500
AAXX 19184 83827 32970 02208 10337 20071 39803 40076 51018
AAXX 19184 83840 32970 63215 10279 20085 39077 48480 58012 86500
AAXX 19184 83899 32970 41513 10281 20225 30053 40059 57007 84200
AAXX 19184 83925 NIL
AAXX 19184 83970 NIL
AAXX 19184 83971 32970 32308 10319 20136 30048 40051 51016 83100
AAXX 19184 83384 NIL
AAXX 19184 83386 NIL
AAXX 19184 83388 NIL
AAXX 19184 83393 NIL
AAXX 19184 83442 NIL
AAXX 19184 83479 NIL
AAXX 19184 83483 NIL
AAXX 19184 83531 NIL
AAXX 19184 83538 NIL
AAXX 19184 83574 NIL
AAXX 19184 83582 NIL
AAXX 19184 83595 NIL
AAXX 19184 83687 NIL
AAXX 19184 83692 NIL
AAXX 19184 83695 21696 80000 10234 20218 39993 40130 54000 72066 8652/ 333 60171
AAXX 19184 83718 NIL
AAXX 19184 70133 11548 80921 11067 21083 39834 49840 53016 69981 771// 91753 333 11044 21072 96038 555 91918
AAXX 19184 70174 11559 63403 11117 21133 39676 49920 53026 60021 771// 91753 333 11039 21133 4/074 96010 555 91918
AAXX 19184 70200 11158 81111 11022 21022 39781 49788 53012 69981 771// 91753 333 11017 21033 4/063 96010 555 91918
AAXX 19184 70219 12566 61717 11017 21039 39840 49897 51024 69901 91753 333 4/003 555 91918
AAXX 19184 70231 12566 42017 11017 21056 39814 49941 53021 69981 91753 333 10000 21050 4/107 91023 555 91918
AAXX 19184 70261 11548 80000 11067 21078 39781 49954 51035 69931 771// 91753 333 11011 21072 96010 555 91918
AAXX 19184 70267 11548 82304 11022 21033 39488 49967 69901 771// 91753 333 10022 21044 96010 555 91918
AAXX 19184 70271 32766 41809 11011 21050 39389 49970 51024 91753 333 10011 21017 555 91918
AAXX 19184 70273 32966 61706 11006 21056 39916 49975 52014 91753 333 10028 21006 4/041 555 91918
AAXX 19184 70316 32966 01806 11022 21067 39918 49952 53024 91753 333 10006 21078 555 91918
AAXX 19184 70326 11559 80808 10006 21039 39910 49924 56008 69901 771// 91754 333 10011 21039 4/003 555 91918
AAXX 19184 70340 32966 60207 10000 21039 39904 49964 50002 91753 333 10022 21017 4/005 555 91918
AAXX 19184 70350 11459 60000 10006 21011 39932 49974 51004 69901 771// 91753 333 10028 21033 96010 555 91918
AAXX 19184 70361 12266 60000 10000 21006 30002 40013 56016 69901 91753 333 10044 20000 555 91918
AAXX 19184 70381 12566 80710 10033 20017 39997 40005 58057 69901 91753 333 10033 20011 555 91918
AAXX 19184 70414 35666 42906 11039 21094 39863 49899 53002 91756 333 11028 21061 555 91918
AAXX 19181 80001 32570 50706 10286 20222 30129 40130 81236 333 56300 59010 81820 84070
AAXX 19181 80002 32570 50605 10286 20222 81171 333 56290 81822 83359
AAXX 19181 80009 31560 20000 10312 20235 30086 40091 70500 82831 333 56000 59016 82820
AAXX 19181 80022 31469 31003 10320 20218 30098 40100 70510 82101 333 562/9 59011 82815
AAXX 19181 80028 31560 33606 10299 20223 30075 40110 70510 81105 333 568/0 59012 81820 83070
AAXX 19181 80035 31565 20304 10284 20237 30124 40129 70510 82100 333 562// 59004 82820
AAXX 19181 80036 31568 20305 10316 20200 70500 82202 333 560/0 57893 82820
AAXX 19181 80063 31566 60000 10314 20241 70521 83410 333 5600/ 83620 84460
AAXX 19181 80084 31465 81804 10261 20231 71522 878// 333 561// 87815
AAXX 19181 80091 01465 60000 10274 20235 60111 70592 82830 333 5690/ 69927 82610 84360
AAXX 19181 80094 31465 73104 10228 20192 38802 70522 85870 333 5672/ 59010 85815
AAXX 19181 80097 32460 73603 10276 20219 39756 40103 83836 333 56999 58000 83817 83359
AAXX 19181 80099 31468 30703 10306 20231 39920 40064 70500 83201 333 562/9 59007 83810
AAXX 19181 80110 01559 81305 10210 20160 38489 69901 75022 8457/ 333 56009 58007 69907 84630 85358
AAXX 19181 80112 31565 83404 10175 20139 37896 71522 8627/ 333 56809 57894 58003 86820 83458
AAXX 19181 80139 NIL
AAXX 19181 80144 01450 82403 10254 20230 60011 75152 8521/ 333 5600/ 69937 85815 88457
AAXX 19181 80149 NIL
AAXX 19181 80210 01463 82901 10215 20188 38660 69911 75122 84278 333 56990 57781 58001 69916 84715 84558
AAXX 19181 80211 11565 70502 10230 20184 69941 71552 85270 333 5662/ 85823 83360
AAXX 19181 80214 01460 81001 10240 20219 39109 60031 72165 8657/ 333 5650/ 59005 60037 86617 86358
AAXX 19181 80222 31568 80402 10179 20093 37503 70522 86875 333 56999 59011 86820
AAXX 19181 80234 22562 60502 10296 20205 39597 40090 60024 85532 333 56239 58001 60022 85623
AAXX 19181 80241 NIL
AAXX 19181 80259 31560 71602 10252 20192 39050 70522 85230 333 5646/ 57883 59001 85823 83359
AAXX 19181 80315 11458 71804 10253 20225 39587 40089 69941 71552 85270 333 5688/ 59001 85817 83460
AAXX 19181 80342 31450 73303 10182 20157 38216 74022 86830 333 5647/ 58001 86815 84358
AAXX 19181 80370 01457 70000 10138 20111 69931 72052 87800 333 563// 69917 87818
AAXX 19181 80398 01262 81802 10266 20243 30011 40106 60051 70265 887// 333 563// 58011 69957 86705 85620
AAXX 19184 78526 32666 40511 10278 20172 30146 40169 58020 91756 333 10283 20244 555 91918
AAXX 19184 78543 32966 00110 10283 20150 30082 40164 58019 91753 333 10289 20250 91015 555 91918
AAXX 19184 78988 02486 41011 10285 20215 30119 40129 57022 60001 84801 333 58008 60007 84818
AAXX 19184 78990 02582 31014 10298 20206 30130 40137 57021 60001 83201 333 58009 60007 83822
AAXX 19184 78873 NIL
AAXX 19183 87007 31570 53208 10161 21024 36730 47131 57027 71422 85800 333 56000 83620
AAXX 19183 87148 32570 10902 10394 20105 39936 40040 57024 81100 333 56000 81830
AAXX 19181 30372 42999 80000 11295 21320 39251 40212 57006 84077
AAXX 19181 30433 42699 81803 11109 21172 39581 40194 57005 84532
AAXX 19181 30554 429// 82201 11120 21164 39055 40178 57021 8807/
AAXX 19181 30635 415// 82403 11071 21084 39636 40220 57018 78582 8695/
AAXX 19181 30673 42999 02301 11290 21296 39395 40248 57011
AAXX 19181 30692 42998 00000 11301 21319 39702 40256 57///
AAXX 19181 30758 42984 02002 11186 21236 39399 40278 57016
AAXX 19181 30802 42799 83003 11125 21187 38721 48499 57010 82531
AAXX 19181 30823 42999 82601 11226 21266 39642 40338 57018 83072
AAXX 19181 30879 42999 00000 11287 21312 39457 40305 57010
AAXX 19181 30935 42999 00000 11342 21378 39361 40439 57014
AAXX 19181 30949 42999 00000 11282 21294 39152 40371 57010
AAXX 19181 30965 429// 01201 11315 21333 39401 40335 57013
AAXX 19181 31168 42999 02302 11175 21244 30133 40145 57004
AAXX 19181 31300 41921 00000 11292 21303 39936 40260 58002 72840
AAXX 19181 31329 42999 00601 11378 21405 39544 40320 52003
AAXX 19181 31369 42998 02701 11256 21268 30101 40194 54000
AAXX 19181 31416 42999 00000 11332 21350 30122 40223 53004
AAXX 19181 31484 42999 02702 11253 21277 39864 40253 58007
AAXX 19181 31512 429// 20000 11239 21271 30076 40260 57007 82010
AAXX 19181 31538 42998 00302 11304 21321 39796 40284 52007
AAXX 19181 31707 42998 30000 11247 21265 30168 40271 54000 80001
AAXX 19181 31735 42997 22202 11229 21257 30145 40242 53005 80001
AAXX 19181 31770 42982 82502 11156 21226 30164 40196 52008 80031
BBXX 41037 19181 99340 70775 46/// /1905 10147 40238 58020 91800 22200 00185 333 91205
BBXX 44067 19181 99384 70770 46/// /2604 10090 40207 58041 91800
BBXX 44032 19181 99437 70694 46/30 /2213 10041 40126 58060 91804 22200 00086 10504 70018 333 91216 555 11164 22174
AAXX 19184 87022 NIL
AAXX 19184 87046 32565 33610 10336 20102 39061 48464 57021 82903 333 56006 57966 81825 81940 94080 94090 94489 94496 98365
AAXX 19184 87047 31565 60906 10280 20121 38762 48484 56012 71510 82903 333 56106 57963 81825 81930 84070
AAXX 19184 87097 32670 12310 10334 20093 39777 40082 57017 81100 333 56600 81835
AAXX 19184 87121 32665 13612 10388 20110 39522 40008 57028 81200 333 56700 57871 81840
AAXX 19184 87129 NIL
AAXX 19184 87155 32465 10704 10380 20107 39997 40056 57021 81100 333 56100 81818
AAXX 19184 87162 32570 21610 10381 20097 39991 40058 57016 82500 333 56500 82625
AAXX 19184 87166 31958 03206 10377 20071 39988 40058 57020 70400
AAXX 19184 87178 32970 02306 10352 20043 39928 40069 57019
AAXX 19184 87217 32770 20906 10418 20163 39517 49991 57040 82200 333 56000 82850
AAXX 19184 87222 32770 13621 10399 20085 39492 49982 57027 81200 333 56600 57867 81856
AAXX 19184 87257 32960 32705 10402 20058 39936 40034 57025 80001 333 56005 83070
AAXX 19184 87270 31558 12906 10396 20122 39982 40041 57023 70400 81100 333 56500 81830
AAXX 19184 87289 32562 42910 10371 20117 39974 40053 57017 82130 333 56760 82820
AAXX 19184 87311 32765 21609 10365 20084 39360 40003 57037 82100 333 56700 82850
AAXX 19184 87320 32975 10902 10398 20080 39501 40003 57032 81030 333 56060 81365
AAXX 19184 87328 NIL
AAXX 19181 38598 429// 32708 11084 21112 40460 52007 82031
AAXX 19181 38599 NIL
AAXX 19181 38725 NIL
AAXX 19181 38734 414// 62710 11116 21136 47030 52005 78582 85903
AAXX 19181 38744 426// 62307 11064 21100 38008 48540 53007 86900
AAXX 19181 38836 115// 80000 11026 21036 39374 40357 52008 60080 78588 889// 333 10004 96044
AAXX 19181 38838 414// 82308 11010 21032 39650 40350 52004 78582 889//
AAXX 19181 38844 41/// 92704 11091 21091 48550 52006 78584 333 96045
AAXX 19181 38846 414// 80509 11056 21056 38582 48540 52005 77178 8872/
AAXX 19181 38847 NIL
AAXX 19181 38932 NIL
AAXX 19181 38933 116// 81802 11014 21070 39831 40371 52011 60010 77177 8802/ 333 10022
AAXX 19181 38944 119// 21107 11003 21009 39717 40274 52003 60020 70281 82030 333 10026
AAXX 19181 38954 328// 82701 11003 21135 37925 48520 52002 8651/ 333 10043
AAXX 19181 22028 11579 82004 11013 21018 39927 49965 57014 60012 77172 8357/ 333 11010 91005
AAXX 19181 22106 11997 80601 11023 21029 39883 49961 57009 60022 77187 8802/ 333 11012 91002
AAXX 19181 22127 11496 81302 11026 21029 39773 49974 57008 60022 78582 889// 333 11018 86911 91004
AAXX 19181 22324 11428 81605 11002 21005 39931 49980 56001 60062 78682 889// 333 10001 91008
AAXX 19181 22621 11480 71805 10004 21010 39867 40006 51001 60022 70282 87900 333 10008 86915 91111
AAXX 19181 22831 11496 81803 10006 20003 30007 40067 52005 60022 78582 889// 333 10011
AAXX 19181 22892 11496 81907 10015 20007 39966 49982 52007 60072 76362 8802/ 333 10022 91112
AAXX 19181 26275 11498 71807 10034 21030 30075 40105 52015 69902 72272 87500 333 10039 87612 91013 91114
AAXX 19181 26389 12597 62004 10018 21029 39895 40162 52017 69902 86500 333 10020 91113
AAXX 19181 26499 11998 01906 10008 21031 39975 40209 52017 69902 70381 333 10030 91114
AAXX 19181 26695 32997 02004 10002 21028 39926 40240 52014 333 10013
AAXX 19181 26882 32984 01905 11003 21033 39966 40249 52011 333 10026
AAXX 19181 26997 31956 01803 10000 21012 30050 40276 52006 71000 333 10037
AAXX 19181 27595 11596 81802 11115 21135 30227 40387 52008 60040 77172 885// 333 11099
AAXX 19181 27612 129// 02001 10008 21021 30053 40250 52010 69902 333 10025
AAXX 19181 27707 32964 02002 11004 21025 39966 40267 52010 333 10018
AAXX 19181 27719 32997 01805 10008 20003 30027 40284 54000 333 10024
AAXX 19181 27786 11497 81707 11111 21139 30228 40401 52008 60040 72273 8802/ 333 11098 88514
AAXX 19181 27857 11497 81603 11017 21025 30170 40338 52006 69900 70252 886// 333 11017 88713 93401
AAXX 19181 27906 32997 01404 11010 21020 30046 40296 52007 333 10035
AAXX 19181 27928 31996 01801 11013 21021 30094 40308 54000 71000 333 10024
AAXX 19181 27947 31296 81604 11006 21012 30175 40340 52013 71022 886// 333 10013 88706
AAXX 19181 27962 11397 80000 11081 21099 40381 52012 60070 76676 885// 333 11076 88608 93401
AAXX 19181 27983 11359 81403 11110 21123 30284 40423 52012 60030 77173 8872/ 333 11110 88708
AAXX 19181 27995 32570 81803 11099 21146 40438 52013 885// 333 11100
AAXX 19181 28506 31996 82003 11092 21112 30286 40407 53008 77173 8802/ 333 11076 91111
AAXX 19181 28704 31395 81908 11108 21121 30319 40423 52013 77373 8802/ 333 11101 88508 91011 91113
AAXX 19181 28711 31697 81914 11102 21165 30021 40423 57001 8355/ 333 11100 91019 91121
AAXX 19181 28807 32997 81905 11101 21154 30390 40446 51006 8807/ 333 11098
AAXX 19181 34009 32997 21202 11001 21010 39987 40300 52005 80001 333 10037
AAXX 19181 34110 31995 00000 11025 21028 30022 40311 54000 71011 333 10037
AAXX 19181 34123 31/95 91202 11002 21008 30126 40317 52002 74742 333 10050
AAXX 19181 34152 12365 81203 11032 21036 30148 40354 52006 60040 886// 333 11015 88707 93400
AAXX 19181 34163 12498 80903 11081 21095 40388 52017 60070 885// 333 11080 88620
AAXX 19181 34171 11430 81506 11078 21092 30186 40392 51009 60070 77073 886// 333 11092 88710 91112
AAXX 19181 34186 31578 81806 11101 21145 30276 40425 52004 70232 885// 333 11101 88621 91112
AAXX 19181 34247 11557 81302 10011 20006 30217 40334 52004 69900 71022 885// 333 10035 88621
AAXX 19181 34336 11497 81002 10018 20015 30215 40322 54000 69900 70252 886// 333 10044
AAXX 19181 34391 32997 81404 11101 21154 30383 40416 52005 8802/ 333 11090
AAXX 19181 35011 32982 81206 11107 21160 40487 53001 8801/ 333 11114 91112
AAXX 19181 35121 32998 61503 11128 21170 30364 40524 57010 83031 333 11135
AAXX 19181 20107 12597 71403 11041 21105 39974 40071 52002 6990/ 87900 333 11030 91004
AAXX 19181 22113 11442 82001 11015 21020 39903 49966 57009 60012 78582 889// 333 11004 91002
AAXX 19181 22217 11227 81703 11010 21012 39939 49971 57006 60052 78582 889// 333 10002 86706 91005 93709
AAXX 19181 22235 11326 81503 11030 21034 39795 49991 58012 60052 78682 889// 333 11015 91005
AAXX 19181 22349 11496 81913 10004 21013 30022 40034 58001 60022 78583 889// 333 10005 91015 91116
AAXX 19181 22408 12384 81402 10000 21005 39824 49973 54000 60012 886// 333 10000 88709
AAXX 19181 22602 11257 81603 10001 21002 39744 49967 57001 60012 77172 8872/ 333 10003 88704
AAXX 19181 22619 11458 71903 10006 20001 39844 40004 52006 69972 78582 87900 333 10007 87913
AAXX 19181 22721 11497 81401 10006 20003 39921 40021 52003 60012 78582 889// 333 10010 86914
AAXX 19181 22802 11584 81704 10022 20003 39977 40000 51003 60032 70282 885// 333 10028
AAXX 19181 22820 11470 72004 10007 21001 39896 40034 52008 60022 72682 84330 333 10013
AAXX 19181 26059 11396 81805 10018 20005 39992 40017 52015 60052 78382 889// 333 10021 86708 91113
AAXX 19181 26063 11496 81805 10021 21001 30015 40023 52012 60012 76176 8872/ 333 10030 91111
AAXX 19181 26094 11570 81905 10021 21013 30004 40079 52010 69932 70276 885// 333 10023 88620 91114
AAXX 19181 26157 11597 72013 10026 21007 39974 40023 52015 60022 70282 875// 333 10026 87624 91017 91119
AAXX 19181 26167 11356 82005 10014 20000 39949 40062 52012 60052 78582 889// 333 10015 88709 91111
AAXX 19181 26258 12598 82104 10029 21029 30021 40076 52076 69952 885// 333 10032
AAXX 19181 26298 12497 72005 10012 21020 39916 40148 52015 69902 87600 333 10012
AAXX 19181 26359 11499 72006 10024 21047 39980 40116 52017 69952 70282 87900 333 10028 91115
AAXX 19181 26702 31596 72603 10032 21006 30096 40122 52019 71022 87500 333 10034 91008 91110
AAXX 19181 26781 12997 01903 11003 21033 39921 40221 52010 69902 333 10013
AAXX 19181 27208 11697 72005 10014 21031 39994 40172 52015 69902 70282 87400 333 10021
AAXX 19181 27402 11697 61903 10015 21016 30019 40201 52019 69902 70172 86500 333 10022 86643
AAXX 19184 91165 12766 80514 10228 20183 30155 40192 53016 69951 91753 333 10233 20211 555 91918
AAXX 19184 91182 12566 40714 10233 20183 30174 40177 53017 69901 91753 333 91019 555 91918
AAXX 19184 91190 32566 40612 10217 20172 30161 40182 53017 91754 333 91019 555 91918
AAXX 19184 91212 12566 61308 10256 20233 31353 40091 55007 69901 91754 333 10300 20256 555 91918
AAXX 19184 91285 11561 60605 10222 20183 30165 40177 53017 60021 761// 91753 555 91918
BBXX WE3806 19184 99455 70835 41/98 93130 10016 2//// 4//// 72686 8//// 22273 00056 2//05 3//// 4//// 5//// 6//// 8//// ICE /////
BBXX WBO3345 19184 99223 70777 41697 80430 10239 20215 40170 57/// 70322 88473 22232 0//// 20404 307// 40404 5//// 6//// 80222 ICE /////
BBXX C6WK7 19184 99338 70129 41698 40520 10155 2//// 40280 51/// 7//11 82182 22254 00200 2//// 322// 40502 5//// 6//// 8//// ICE /////
BBXX WFLH 19183 99293 71367 43498 60519 10183 20148 40279 52017 7//// 861// 22213 00189 20501 331// 41204 5//// 6//// 80161 ICE /////
BBXX KEY796 19183 99571 71703 41/97 22399 00196 11005 21044 49834 53/// 722// 8//// 222// 00017 2//// 3//// 4//// 5//// 6//// 8//// ICE /////
BBXX WZJC 19183 99242 70831 41598 70825 10244 2020/ 4//// 58/// 70222 83469 22272 00244 20605 3//// 4//// 5//// 6//// 80211 ICE /////
AAXX 19184 91245 32566 20812 10260 20240 30144 91755 555 91918
AAXX 19181 22271 11596 82010 11017 21044 30039 40049 57007 69980 73883 885// 333 11016 93407
AAXX 19181 22520 11497 21704 10001 21002 39985 49994 52001 60022 70171 82500 333 10005
AAXX 19181 22550 11462 71704 10004 21027 30064 40074 58002 69940 78582 87900 333 11008 87913
AAXX 19181 22583 NIL
AAXX 19181 22768 12497 81906 10003 21022 30089 40146 58002 69900 885// 333 10000 88619
AAXX 19181 22845 11495 81906 10006 21008 39952 40109 52002 60020 78582 889// 333 10010 88916
AAXX 19181 22887 11497 71805 11040 21070 30145 40218 52002 69900 70282 8755/ 333 11042 88614 91109
AAXX 19181 23205 NIL
AAXX 19181 23219 NIL
AAXX 19181 23418 32570 81705 11072 21115 30150 40226 57001 885// 333 11066 88626
AAXX 19181 23606 12460 81905 11066 21107 30055 40234 58006 69900 885// 333 88612 21057
AAXX 19181 23711 11597 81404 11081 21117 30098 40280 57006 69900 78587 8697/ 333 11079
AAXX 19181 23804 11497 82103 11070 21099 30099 40254 58002 69900 77172 885// 333 11057 88611
AAXX 19181 27037 11497 81804 10006 21008 30013 40176 52004 69940 77172 8672/ 333 10021 86713
AAXX 19181 27199 11498 81803 11093 21114 30114 40323 52002 60020 77173 886// 333 11073
AAXX 19181 27271 11597 71405 11043 21052 30116 40278 52007 69990 70287 87500 333 11045
AAXX 19181 27459 12398 82102 11023 21032 30103 40305 52011 69900 887// 333 11030 88707
AAXX 19181 27730 32998 01904 11010 21032 30098 40298 52015 333 10022
BBXX 46111 19181 99481 71227 46/// /1103 10069 40309 54000 91800 22200 00055
BBXX 46112 19181 99481 71227 46/// /1404 10072 40309 54000 91800
AAXX 19184 78767 11460 80910 10208 20173 30160 40162 58000 60051 75062 86520 333 10245 20198 32/// 56200 58010 86615
AAXX 19184 78988 02486 41011 10285 20215 30119 40129 57022 60001 84801 333 58008 60007 84818
AAXX 19184 78990 02582 31014 10298 20206 30130 40137 57021 60001 83201 333 58009 60007 83822
AAXX 19184 78873 NIL
BBXX WQZ9670 19184 99452 70832 43/97 /3133 10027 2//// 40105 5//// 7//// 8//// 22273 0//// 2//05 3//// 4//// 5//// 6//// 8//// ICE /////
BBXX SMGW 19181 99351 11548 43/98 73312 10114 40128 53002 22224 00206 2//// 4////
BBXX SBLI 19181 99300 11789 43/98 42114 10222 40165 55014 22264 00229 2//// 4//// NNNN 426621110
BBXX C6YA7 19184 99087 11218 41/98 /0504 10240 2021/ 40070 54000 7//22 8//// 22263 0//// 2//// 3//// 4//// 5//// 6//// 80220 ICE /////
BBXX SHJC 19181 99237 11198 43/98 80316 10187 40189 58014 22254 00202 2//// 4////
BBXX A8RV8 19184 99144 11121 41398 60519 10240 20219 40110 56/// 70222
BBXX V2BE4 19181 99206 11415 41998 00610 10255 20218 40136 54000 70000 80000 22244 04250 20405 80230
BBXX VRAE3 19184 99061 11123 41/97 43520 10271 20247 40078 52010 71302 83663 22214 00280 20408 3//// 4//// 5//// 80254
BBXX TBWUK36 19183 99125 11128 41397 80425 10272 20243 40093 57005 70222 887// 22254 00270 20405 305// 40503 5//// 80252
BBXX PHOB 19184 99057 10797 41/97 42703 10260 20239 40094 50009 70198 8//// 22222 00270 2//// 3//// 4//// 5//// 80245
BBXX A8IF4 19183 99224 11232 41/97 80823 10240 20196 40190 58010 70022 8//// 22263 06240 20906 309// 41305 80210
BBXX PBOF 19183 99388 11180 41997 03306 10020 21049 40325 54000 70000 80000 22200 04065 20201 30000 81005 90535
BBXX DCDO2 19183 99100 11307 41698 50710 10275 20241 40070 56010 72511 85445 22274 00290 2//// 399// 4//04 5//// 80250
BBXX DHBN 19181 99312 11782 41398 72015 10221 20190 40145 52010 71522 87500 22224 00220 2//04 329// 41407 5//// 80200
BBXX DGWE2 19183 99169 11105 41398 80526 10227 20202 40150 58005 70122 887// 22283 00250 21006 80210
BBXX A8UU2 19184 99114 11205 41998 00522 10270 20234 40060 55020 7//00 80000 22283 04300 20504 80245
BBXX A8QR9 19181 99054 10974 41697 427// 10275 20268 40110 5/000 702// 83466 22224 20301 80270
BBXX DGZR2 19183 99062 10941 41/98 /0620 10275 20234 40088 52005 7//88 8//// 22224 00290 2//// 80245
BBXX MGPU2 19183 99420 11345 41297 62724 11050 21096 40288 54000 70322 8/7// 22221 00034 2//// 332// 40307 5//// 81060
BBXX A8UA9 19184 99259 70155 41598 40420 10200 20177 40200 5/010 70200 8494/ 22253 20402 304// 40504 80185
BBXX DAJT 19184 99164 30671 41698 31116 10265 20223 40090 52015 70100 8/44/ 22254 04260 80235
BBXX A8YJ9 19184 99078 50342 41798 21213 10280 20226 40110 57015 70200 8/1// 22244 04260 20302 322// 40802 80241
BBXX MGGK4 19181 99079 70149 41996 09901 10296 20216 40105 54000 70500 80000 22254 00294 20000 318// 40703 5//// 80242
BBXX DCPX2 19184 99128 10483 41998 01220 10250 20183 40170 70200 80000 22244 00260 2//// 80205
BBXX C6VF5 19184 99249 10360 43/// /0208 10220 2019/ 40170 5//// 7//// 8//// 22274 00240 2//// 3//// 4//// 5//// 6//// 80200 ICE /////
BBXX A8QJ7 19184 99085 70252 41698 60710 10275 20216 40109 58009 7//22 85430 22213 20601 3//// 4//// 5//// 80235
BBXX A8RL4 19184 99028 70117 41496 32514 10265 40110 54000 7//// 837// 22234 00280 20301 20602 80255
BBXX TBWUK40 19183 99255 10566 41998 00000 10223 20127 40207 54000 702// 80000 22200 20000 30000 40000 50000 80168
BBXX UBQE6 19181 99224 70177 41998 00410 10160 2//// 40130 57002 70200 80000 22283 00015 20507 39999 49999 59999
BBXX PHQW 19183 99107 70171 41998 00410 10287 20115 40098 53008 7//00 80000 22273 00283 20301 304// 40603 80181 90535
BBXX DGZT2 19183 99127 10601 41/97 /0322 10265 20208 40140 51010 70122 8//// 22265 04270 2//// 80225
BBXX UBAU 19181 99155 70170 41498 60408 10260 40158 57001 70321 865// 22212 04231 20401
BBXX PCSV 19180 99112 30654 41/97 63006 10261 20232 40111 52003 71382 8//// 22253 04288 20603 80240 90535
BBXX PHKL 19181 99239 10368 41/97 /3405 10260 20186 40151 52009 70000 8/0// 22273 00249 29901 3//// 40401 5//// 80210
BBXX VCXF 19184 99464 70484 41295 80337 10028 2002/ 49984 57022 76326 886// 22200 02028 20605 301// 40803 80025
BBXX 44255 19181 99473 70573 46/// /0106 11042 40118 57029 22200 00040 11202 70012 333 91209
BBXX DDZC2 19184 99359 71731 41397 61218 10161 20111 40185 56010 7//// 83110 22264 00170 2//03 333// 4//06 5//// 80132
BBXX WCZ5535 19184 99330 70473 41396 81842 10230 2021/ 40000 56020 7//22 887// 22223 0//// 20605 314// 40805 5//// 6//// 80215 ICE /////
BBXX WDB9918 19184 99528 71367 41597 82637 10083 2007/ 49960 5//// 70122 885// 22273 00089 20606 325// 4//// 5//// 6//// 80078 ICE /////
BBXX WGAX 19184 99356 70437 43397 81541 10210 2018/ 40066 57040 7//// 889// 22253 00190 20707 318// 41603 5//// 6//// 80190 ICE /////
BBXX WZJC 19183 99242 70831 41598 70825 10244 2020/ 4//// 58/// 70222 83469 22272 00244 20605 3//// 4//// 5//// 6//// 80211 ICE /////
BBXX 44150 19181 99425 70640 46/// /3504 10013 40191 57013 22200 00105 11005 70027 333 91207
BBXX 42067 19181 99300 70886 46/// /2002 10155 20125 40218 91740 22200 00168 10401 70006 333 91202
BBXX 42085 19181 99179 70665 46/// /0506 10282 40147 57023 91800 22200 00279 10501 70007 333 91208
BBXX 42085 19181 99179 70665 46/// /0507 10281 40148 91750 333 91208
BBXX 41053 19181 99185 70661 46/// /0407 10264 40159 91740 333 91208
BBXX 41053 19181 99185 70661 46/// /0406 10264 40159 56020 91800 22200 00275 11004 70018 333 91208
BBXX 41053 19181 99185 70661 46/// /0407 10263 40159 91750 333 91208
BBXX 41052 19181 99183 70648 46/// /0606 10268 40150 58019 91800 22200 00276 333 91207
BBXX 41052 19181 99183 70648 46/// /0505 10270 40152 91740 333 91206
BBXX 41052 19181 99183 70648 46/// /0606 10270 40151 91750 333 91207
BBXX DDLK 19183 99448 70569 41397 80134 10015 21039 40092 57018 70222 8777/ 22223 20707 303// 41008 81005
BBXX C6CU6 19183 99295 70569 41497 43431 10191 20165 40159 54000 70211 843// 22252 04228 20914 327// 41110 5//// 80175
BBXX A8SF7 19181 99158 70752 41298 60811 10280 20221 40150 58015 7//11 8626/ 22244 04260 20903 312// 41204 5//// 80240
BBXX 44139 19181 99442 70571 46/// /0013 10018 40102 57009 22200 00094 11008 70038 333 91217
BBXX DGNB 19183 99265 70679 41397 60225 10210 20119 40212 54000 70222 8/778 22264 00257 21006 336// 41207 80155
BBXX C6KD7 19183 99327 70374 41498 61422 10214 20175 40224 54000 70211 83441 22214 02214 20705 314// 41105 5//// 80190
BBXX A8NQ5 19183 99512 70354 41294 62309 10090 20038 40040 74666 86722 22265 04070 20902 80065
BBXX DHEB 19183 99500 71301 41/96 82325 10090 20071 40140 52020 70000 8//// 22224 04040 20602 322// 41006 5//// 80080
BBXX 41038 19181 99341 70777 46/// /2102 10146 40264 58028 91800 22200 00141 333 91203
BBXX WDE9193 19183 99236 70874 41797 31313 10300 2022/ 40169 57016 70200 81205 22212 0//// 20302 312// 40604 5//// 6//// 80240 ICE /////
BBXX WBDS 19183 99404 70678 43699 32720 10060 2099/ 40238 58010 7//// 83137 22265 00117 20403 308// 40806 5//// 6//// 81022 ICE /////
BBXX HZRX 19183 99296 70783 41797 51514 /// 10200 20160 40255 55018 70100 85130 22253 10180 20303 31515 40202 5//// 6//// 80140 ///// /////
BBXX WJBU 19184 99589 71510 41298 80205 10039 2123/ 49991 5//// 70222 881// 22233 0//// 20602 3//// 4//// 5//// 6//// 81022 ICE /////
BBXX J8PR3 19183 99082 70589 41298 50913 10320 2029/ 40130 54000 70111 85288 22271 00300 20302 30909 40302 50302 6//// 80300 ICE /////
BBXX J8NY 19183 99243 70823 41797 30921 10270 2026/ 40205 56005 70110 82132 22223 0//// 20504 30909 40504 50504 6//// 80260 ICE /////
BBXX SHIP 19184 99327 71269 41497 73520 10140 2011/ 40160 54000 7//11 8777/ 22233 00180 20402 309// 40604 5//// 6//// 80120 ICE /////
BBXX DEDM 19184 99417 70620 41/98 73628 10055 21004 40160 55010 70122 85560 22213 04170 21007 304// 40808 80030
BBXX WBO3345 19184 99223 70777 41697 80430 10239 20215 40170 57/// 70322 88473 22232 0//// 20404 307// 40404 5//// 6//// 80222 ICE /////
BBXX V7DI7 19183 99404 70612 41596 80137 10070 2003/ 40110 52005 78062 882// 22200 00090 20410 302// 40614 5//// 6//// 80050 ICE /////
BBXX WFLH 19183 99293 71367 43498 60519 10183 20148 40279 52017 7//// 861// 22213 00189 20501 331// 41204 5//// 6//// 80161 ICE /////
BBXX PDBP 19183 99397 70631 41497 63435 10090 21001 40175 58017 70122 86200 22222 04221 21111 307// 41408 80050
BBXX DDIG2 19184 99141 70737 41397 80828 10260 20215 40140 57020 7//22 887// 22254 04270 20503 80230 40803 80240
BBXX PDNN 19183 99456 70370 41/96 81834 10159 20146 40159 53010 70022 887// 22223 02140 20510 80151 90535
BBXX NWS0029 19184 99329 70579 43/// /3031 10159 20086 40083 5//// 7//// 8//// 222// 04221 2//// 3//// 4//// 5//// 6//// 8//// ICE /////
BBXX NWS0003 19184 99539 71665 43/// /0000 10010 21026 49938 5//// 7//// 8//// 222// 0//// 2//// 3//// 4//// 5//// 6//// 8//// ICE /////
BBXX WXJ63 19183 99611 71464 41/97 82205 10014 20004 49993 52/// 760// 8//// 222// 00052 2//// 3//// 4//// 5//// 6//// 8//// ICE /////
BBXX 44022 19181 99409 70737 46/// ///09 10062 21013 40187 58045 91800 22200 00081 333 91212 555 11103 22108
BBXX 44060 19181 99413 70721 46/// ///10 10061 40190 58038 91800 22200 00104 333 91212 555 11103 22108
BBXX 46053 19181 99342 71198 46/// /1902 10123 40190 53011 91750 22200 00138 11403 20401 327// 41403 70013 333 91202 555 11015 22016 31653 41904 61749 193015 192020 207021 207021 196023 193025
BBXX 46042 19181 99368 71224 46/// /3508 10109 40187 52004 91750 22200 00127 11607 20603 331// 41606 70033 333 91210 555 11085 22089 31742 43510 61749 354080 357077 358078 359075 359071 000063
BBXX PECF 19184 99180 70704 41298 20418 10275 20226 40160 56020 70200 81125 22253 02280 20603 305// 40902 80240
BBXX A8IH2 19183 99304 71336 41699 50516 10195 20110 40280 58010 7//22 85162 22214 06180 21602 336// 41203 5//// 80145
BBXX DFFA2 19183 99157 70763 41598 51020 10290 20220 40135 57015 71522 822/6 22214 00280 20606 3//// 4//// 5//// 80240
BBXX DDJG2 19184 99414 70497 41/97 71625 10205 20190 49930 57020 70222 87773 22264 04200 29904 318// 40808 80195
BBXX 41041 19181 99142 70460 46/// /1006 10270 20229 40128 56016 91750 22200 00268 11004 20602 3//// 41004 70022 333 91208 555 11068 22073 31722 41008 61749 102062 101063 101063 099061 100059 101059 81007 91722
BBXX 46083 19181 99582 71380 46/// /1503 10052 20020 49997 56039 91750 22200 00064 11611 20301 300// 41610 70053 333 91205 555 11033 22035 31741 41405 61749 153031 158024 152009 096004 037007 042007 81503 91748
BBXX 46001 19181 99563 71480 46/// /3101 10044 49997 53011 91750 22200 00049 11411 20301 300// 41410 70053 333 91203 555 11013 22014 31727 43604 61749 308013 325011 318012 320006 347006 032008
BBXX MRWF2 19184 99139 31076 41498 21416 10272 2022/ 40080 56010 70200 821// 22274 00294 20401 318// 40903 5//// 6//// 80237 ICE /////
BBXX WHIA 19183 99046 31153 41398 39902 10270 2026/ 40062 57017 70200 831// 22224 0//// 2//// 3//// 4//// 5//// 6//// 80260 ICE /////
BBXX C6UA2 19184 99229 31655 41497 61224 10230 20185 40110 56010 7//22 8347/ 22214 00300 21504 318// 43002 5//// 6//// 80200 ICE /////
BBXX SLKR 19183 99098 51259 43/98 51018 10254 40151 50006 22254 00259 2//// 4////
BBXX A8YW2 19184 99171 30713 41/98 31318 10265 20236 40131 55008 76061 8//// 22214 00260 20703 80245
BBXX VNSZ 19184 99381 31449 46/// /2313 10162 20114 30113 40139 52015 22285 04191 85134
BBXX V2OG2 19183 99235 31117 41798 11722 10241 20203 40091 57018 70000 81100 22232 20403 318// 40504 80215
BBXX PCAM 19183 99412 31732 41598 71305 10140 20093 40213 53014 70222 874// 22200 20100 80114
BBXX PCDE 19183 99397 31357 41297 52202 10150 20116 40160 52010 7//22 847// 22223 2//// 312// 40602 80130
BBXX MGRH9 19183 99309 31601 41498 60207 10201 20131 40145 54000 71511 84863 22233 00199 20202 315// 40804 5//// 80161
BBXX KAOU 19184 99001 10807 43/// /2713 10276 20243 40088 5//// 7//// 8//// 222// 04289 2//// 3//// 4//// 5//// 6//// 8//// ICE /////
BBXX PHJV 19183 99078 31233 41398 32808 10273 20249 40051 56020 70211 83142 22263 02294 20201 80255
BBXX PCCL 19183 99365 31760 41197 61310 10140 40170 52025 70362 866// 22243 04179 20501 310// 40803
AAXX 19181 08521 11460 70206 10173 20115 30191 40262 52007 60032 70252 87800 333 10197 83815 86630
AAXX 19181 08524 12465 70504 10166 20107 30174 40272 52008 69972 87800 333 10185 84815 85630 91008 91111
BBXX UCKZ 19181 99670 30448 41396 80412 11006 21012 49834 52038 73873 886// 22251 01015 2//// ICE 57895
BBXX 62087 19181 99547 10068 4//// /9901 10058 200/0 4//// 5//// 22270 00079
BBXX C6KD4 19183 99449 70147 41297 82620 10135 20135 40256 51018 7//22 887// 22254 02140 20804 327// 41204 80135
BBXX 62023 19183 99514 70079 46/97 /3015 10103 2//// 40162 5//// 22200 10604 70020 555 70030 81011
BBXX EIPT 19184 99548 70057 41/96 /3114 10090 20071 40076 51010 70222 8//// 22200 2//// 3//// 4//// 5//// 80080
BBXX LMEL 19181 99603 10053 43/// /1403 10028 20004 40023 5//// 222/0 04085 1//// 3//// 4//// 5////
BBXX LF4H 19184 99596 10022 46/// /1406 10039 21007 40014 57012 8//// 22200 06081 333 91118
BBXX LGWS 19181 99301 70101 43/// /3211 10173 20140 40182 5//// 222/0 04179 1//// 3//// 4//// 5////
BBXX LDGJ 19181 99603 10053 43/// /1503 10032 21001 40027 5//// 222/0 04081 1//// 3//// 4//// 5////
BBXX LAHV 19181 99589 10057 43/// /1703 10028 20006 40031 222// 04071 1////
BBXX UCKD 19181 99561 10168 41/96 92314 10065 40031 52030 75250 89/// 22253 00080 20707
BBXX C6IO9 19183 99419 70109 41798 42317 10135 20062 40298 53015 70100 8/065 22243 06155 21401 333// 40803 5//// 80100
BBXX TFSTD 19184 99664 70234 46/// ///// 22200 10907 70036
BBXX TFHFN 19184 99642 70152 46/// ///// 22200 10604 70021
BBXX TFGRV 19184 99638 70225 46/// ///// 22200 10806 70031
BBXX TFGRS 19184 99663 70182 46/// ///// 22200 10603 70016
BBXX TFGSK 19184 99641 70229 46/// ///// 22200 11012 70062
BBXX TFBKF 19184 99635 70202 46/// ///// 22200 10706 70032
BBXX TFDRN 19184 99658 70212 46/// ///// 22200 10402 70008
BBXX TFSRT 19184 99633 70203 46/// ///// 22200 10909 70046
BBXX TFKGR 19184 99657 70136 46/// ///// 22200 10603 70014
BBXX NWS0020 19184 99345 70163 43/// /0711 10163 20101 40282 5//// 7//// 8//// 222// 04196 2//// 3//// 4//// 5//// 6//// 8//// ICE /////
BBXX UCKA 19181 99558 10065 41/98 /2714 10060 40069 54000 70222 22253 00090 20807
BBXX A8OF6 19183 99354 70341 41798 71419 10210 20155 40270 58015 70362 87/7/ 22254 04190 20502 80175
BBXX DILE 19183 99471 70333 41/94 /2133 10142 20139 40172 53007 71244 8//// 22224 04120 20405 322// 40406 80140
BBXX UCAB 19181 99684 10110 41/98 90708 10050 49945 57040 70221 8//// 22253 00080 20402
BBXX UGGA 19181 99693 10431 41/92 92112 10015 40012 57030 78682 889// 22231 20605
BBXX UCAC 19181 99699 10150 41/98 60212 10050 49974 54000 70222 89/// 22213 00100 20604 303// 40604
BBXX PJFF 19184 99387 70217 41397 60000 10209 20180 40320 52010 70222 8607/ 22254 20000 308// 40803 80190
AAXX 19181 08579 12/// /0000 10104 20044 30172 40300 52009 69932 333 10128
BBXX A8SG4 19184 99074 51128 41598 50718 10255 20197 40140 54000 70211 84444 22213 04250 20101 308// 40102 80215
BBXX A8SO7 19184 99120 50786 41797 41411 10234 20225 40150 58/// 70300 83100 22233 21103 315// 41403 5//// 80228
BBXX DCHO 19184 99137 50364 41598 30812 10290 20220 40130 58020 702// 8316/ 22224 00270 20604 307// 40906 80240
BBXX DFCW2 19184 99018 70889 41698 61632 10275 20208 40100 58014 70122 8556/ 22284 04256 20704 320// 41205 5//// 80228
AAXX 19181 13492 NIL
AAXX 19181 13584 NIL
AAXX 19181 13585 12595 80000 10028 20025 39325 40126 58001 69922 886// 333 10032 94000
AAXX 19181 13597 41695 80000 10072 20072 30045 40117 58008 71044 885// 10075 94000
AAXX 19181 13598 12697 80000 10011 20006 48410 53003 69972 886// 333 10021 94000
AAXX 19184 78767 11460 80910 10208 20173 30160 40162 58000 60051 75062 86520 333 10245 20198 32/// 56200 58010 86615
AAXX 19181 26258 12598 82104 10029 21029 30021 40076 52076 69952 885// 333 10032 91115
AAXX 19184 78767 11460 80910 10208 20173 30160 40162 58000 60051 75062 86520 333 10245 20198 32/// 56200 58010 86615
AAXX 19184 60351 12560 32007 10083 20034 40237 53010 60022 83200 333 10137 83820 95990
AAXX 19184 60355 11558 62412 10093 20045 40230 53010 60052 72582 86900 333 10132 81920 85826 95990
AAXX 19184 60445 12560 32804 10017 21036 39064 48528 53005 69932 83230 333 10054 83826 95990
AAXX 19184 60468 12560 33308 11000 21063 39273 48519 53007 60002 83200 333 10079 83826 95990
AAXX 19184 60507 12560 20000 10073 20044 40293 53006 60002 81202 333 10133 81830 95990
AAXX 19184 60511 12560 60000 10046 20023 39114 48535 55000 69942 86200 333 10065 86820 95990
AAXX 19184 60535 12565 20000 10026 20006 38877 48533 53009 69992 82200 333 10054 82826 95900
AAXX 19184 60536 12660 10000 10049 20018 39376 48537 52010 81500 333 10110 81633 95990
AAXX 19184 60549 11960 23404 10038 21032 38966 48554 51004 60002 70100 80002 333 10084 82073 95990
AAXX 19184 60550 12560 70402 10026 21026 38715 48548 53005 60002 875// 333 10041 87620 95990
AAXX 19184 60555 12970 20000 10103 21023 40238 52010 60002 80002 333 10156 82073
AAXX 19184 60559 12960 00000 10100 20000 40241 53008 60002 333 10155
AAXX 19184 60581 12960 00306 10116 20006 40135 53009 60002 333 10154
AAXX 19184 60602 12960 21004 10141 20021 40236 53006 60002 82030 333 10173 82360 95990
AAXX 19184 60607 12960 00612 10133 21054 40226 53004 60002 333 10172
AAXX 19184 60640 NIL
AAXX 19184 60690 NIL
AAXX 19184 60360 11560 72709 10080 20064 40229 53012 60042 76086 879// 333 10135 82830 81933 86640 95990
AAXX 19184 60390 11565 22103 10076 20055 40273 53007 60022 70160 81830 333 10130 81820 95990
AAXX 19184 60402 12560 40000 10095 20050 40254 53005 60012 83230 333 10142 83820 95990
AAXX 19184 60419 11460 32608 10029 21017 40254 53005 60022 70261 83800 333 10068 81813 83630 95990
AAXX 19184 60475 12565 73212 10038 20019 39264 48513 52012 60002 878// 333 10085 83820 86840 95990
AAXX 19184 60490 12670 30000 10098 20071 40264 53002 60002 81501 333 10155 81633 83073 95990
AAXX 19184 60525 12960 23406 10102 21057 40229 53010 60002 82030 333 10152 82360 95990
AAXX 19184 60531 12970 30000 10098 20045 40273 53005 60002 80002 333 10152 83073 95990
AAXX 19184 60566 12960 00104 10099 21017 40257 53006 60002 333 10137
AAXX 19184 60571 12560 60000 10104 20063 39306 48553 53005 60002 83280 333 10120 83830 84360 95990
AAXX 19184 60580 12960 20108 10115 20023 40240 53010 60002 80002 333 10165 82073
AAXX 19184 60590 12960 03004 10090 20005 40257 53010 60002 333 10144
AAXX 19184 60611 12960 03408 10110 21014 40219 53022 60002 333 10156
AAXX 19184 60620 12959 20413 10164 21025 40219 53004 60002 80002 333 10198 82075
AAXX 19184 60630 12980 20612 10150 21024 40217 53010 60002 80002 333 10194 82075
AAXX 19184 60656 12960 00916 10204 21008 40183 53011 60002 333 10246
AAXX 19184 60670 12970 00000 10131 21076 39079 48511 53012 60002 80002 333 10195 82073 95990
AAXX 19184 60680 12970 23106 10134 21144 38645 48520 53006 60002 80002 333 10210 82073 95990
BBXX UFJN 19181 99717 10437 41/96 81611 11030 40109 57025 72222 88/// 22200 0//// 20301
AAXX 19184 60351 12560 32007 10083 20034 40237 53010 60022 83200 333 10137 83820 95990
AAXX 19184 60355 11558 62412 10093 20045 40230 53010 60052 72582 86900 333 10132 81920 85826 95990
AAXX 19184 60445 12560 32804 10017 21036 39064 48528 53005 69932 83230 333 10054 83826 95990
AAXX 19184 60468 12560 33308 11000 21063 39273 48519 53007 60002 83200 333 10079 83826 95990
AAXX 19184 60507 12560 20000 10073 20044 40293 53006 60002 81202 333 10133 81830 95990
AAXX 19184 60511 12560 60000 10046 20023 39114 48535 55000 69942 86200 333 10065 86820 95990
AAXX 19184 60535 12565 20000 10026 20006 38877 48533 53009 69992 82200 333 10054 82826 95900
AAXX 19184 60536 12660 10000 10049 20018 39376 48537 52010 81500 333 10110 81633 95990
AAXX 19184 60549 11960 23404 10038 21032 38966 48554 51004 60002 70100 80002 333 10084 82073 95990
AAXX 19184 60550 12560 70402 10026 21026 38715 48548 53005 60002 875// 333 10041 87620 95990
AAXX 19184 60555 12970 20000 10103 21023 40238 52010 60002 80002 333 10156 82073
AAXX 19184 60559 12960 00000 10100 20000 40241 53008 60002 333 10155
AAXX 19184 60581 12960 00306 10116 20006 40135 53009 60002 333 10154
AAXX 19184 60602 12960 21004 10141 20021 40236 53006 60002 82030 333 10173 82360 95990
AAXX 19184 60607 12960 00612 10133 21054 40226 53004 60002 333 10172
AAXX 19184 60640 NIL
AAXX 19184 60690 NIL
AAXX 19184 60360 11560 72709 10080 20064 40229 53012 60042 76086 879// 333 10135 82830 81933 86640 95990
AAXX 19184 60390 11565 22103 10076 20055 40273 53007 60022 70160 81830 333 10130 81820 95990
AAXX 19184 60402 12560 40000 10095 20050 40254 53005 60012 83230 333 10142 83820 95990
AAXX 19184 60419 11460 32608 10029 21017 40254 53005 60022 70261 83800 333 10068 81813 83630 95990
AAXX 19184 60475 12565 73212 10038 20019 39264 48513 52012 60002 878// 333 10085 83820 86840 95990
AAXX 19184 60490 12670 30000 10098 20071 40264 53002 60002 81501 333 10155 81633 83073 95990
AAXX 19184 60525 12960 23406 10102 21057 40229 53010 60002 82030 333 10152 82360 95990
AAXX 19184 60531 12970 30000 10098 20045 40273 53005 60002 80002 333 10152 83073 95990
AAXX 19184 60566 12960 00104 10099 21017 40257 53006 60002 333 10137
AAXX 19184 60571 12560 60000 10104 20063 39306 48553 53005 60002 83280 333 10120 83830 84360 95990
AAXX 19184 60580 12960 20108 10115 20023 40240 53010 60002 80002 333 10165 82073
AAXX 19184 60590 12960 03004 10090 20005 40257 53010 60002 333 10144
AAXX 19184 60611 12960 03408 10110 21014 40219 53022 60002 333 10156
AAXX 19184 60620 12959 20413 10164 21025 40219 53004 60002 80002 333 10198 82075
AAXX 19184 60630 12980 20612 10150 21024 40217 53010 60002 80002 333 10194 82075
AAXX 19184 60656 12960 00916 10204 21008 40183 53011 60002 333 10246
AAXX 19184 60670 12970 00000 10131 21076 39079 48511 53012 60002 80002 333 10195 82073 95990
AAXX 19184 60680 12970 23106 10134 21144 38645 48520 53006 60002 80002 333 10210 82073 95990
BBXX UANA 19181 99695 10411 41/94 91714 10000 49982 57003 77372 8//// 22232 00039 20810
BBXX PEBT 19183 99484 70058 41296 82725 10110 20076 40180 58010 7//62 887// 22213 02100 20603 328// 40905 5//// 80092
AAXX 19184 91945 36/// /0706 10289 20231 30152 40157 51016
BBXX 46207 19181 99509 71299 46/// /2114 10092 40174 57012 22200 00082 10808 70040 333 91217
BBXX 46207 19181 99509 71299 46/// /2114 10092 40174 57012 22200 00082 10808 70040 333 91217
BBXX 3ERR2 19184 99635 10053 41599 52706 10059 21048 49988 54000 70222 85500 22200 06096 10703 70016 333 91112
BBXX LF3F 19184 99643 10078 43/// /3305 10062 20024 49968 52001 22200 04086 10703 70017 333 91122
BBXX LF3N 19184 99653 10073 41496 83607 10036 20018 49961 54000 78182 8//// 22200 00088 10604 70020
BBXX LF4B 19184 99606 10037 47/98 /1603 10037 40024 57003 700// 22200 00049 10705 70027 333 91116
BBXX LF4C 19184 99584 10019 41598 31408 10045 20010 40015 57019 72582 89/// 22200 00068 10804 70021 333 91118
BBXX LF5T 19184 99660 10081 41598 /3405 10053 20018 49948 57005 70282 22200 10703 70015 333 91116
AAXX 19181 01311 47671 81302 10009 20003 39963 40026 58000 700// 333 10033 91108
AAXX 19181 01494 11885 32402 10017 21030 39927 49992 52012 60002 70200 82071 333 10039 91104
AAXX 19180 44210 32999 00000 11282 21300 38662 51009
AAXX 19180 44216 32999 03202 11323 21346 39189 40647 52012
AAXX 19180 44217 32998 00000 11314 21324 37949 40687 51006
AAXX 19180 44219 329// 00000 11320 21343 38772 40652 53009
AAXX 19180 44221 329// 00000 11376 21399 38733 40707 52006
AAXX 19180 44224 329// 20000 11368 21397 38146 40713 51005 82030
AAXX 19180 44229 32999 02703 11205 21254 37961 40448 54000
AAXX 19180 44242 329// 00000 11345 21380 39389 40452 57012
AAXX 19180 44243 329// 20000 11365 21405 39489 40464 57012 82040
AAXX 19180 44254 329// 02904 11215 21258 39052 40330 58010
AAXX 19180 44257 329// 10000 11302 21336 38991 40243 57010 81040
AAXX 19180 44263 32998 00000 11278 21324 38162 40647 53015
AAXX 19180 44266 329// 00000 11228 21260 37833 40526 52013
AAXX 19180 44286 329// 02706 11199 21244 38686 40416 57006
AAXX 19180 44291 319// 01802 11345 21382 38785 40539 57009 70400
AAXX 19180 44325 329// 00903 11260 21284 38948 40508 58003
AAXX 19180 44329 32998 00000 11180 21259 37805 40439 50000
AAXX 19180 44338 32999 00000 11241 21273 38537 40482 57002
AAXX 19180 44348 329// 03209 11196 21215 38728 40386 58006
AAXX 19180 44374 32999 01802 11159 21215 38310 40447 58003
AAXX 19180 44385 32999 02704 11144 21215 38989 40392 58012
AAXX 19180 44386 329// 02702 11205 21238 39120 40405 54000
AAXX 19181 22165 11496 81410 11013 21027 39961 40022 57004 60010 77173 8872/ 333 11011 91115
AAXX 19181 22676 12584 81706 11024 21046 30077 40156 54000 69900 885// 333 11029
AAXX 19181 22837 11476 71605 10017 21014 30012 40083 52005 60010 70282 87900 333 10020 85918
AAXX 19181 22954 11496 81806 10006 21011 39898 40149 57002 69940 78582 889// 333 10004 84914
AAXX 19181 23405 32471 81904 11051 21096 30079 40182 53002 885// 333 11046 88615
AAXX 19181 23412 32399 81805 11066 21094 30105 40205 57001 886// 333 11068 85709
AAXX 19181 23803 11597 81905 11082 21119 30100 40289 58005 69900 78583 889// 333 11062 88925
AAXX 19181 27066 11396 81704 11040 21052 30065 40249 52004 60010 77173 8677/ 333 11048 86708
AAXX 19181 27083 11484 81804 11076 21089 30042 40276 52006 69922 70272 8802/ 333 11069
AAXX 19181 27113 11460 82009 10013 21019 30006 40153 51008 69900 78582 8633/ 333 10020 84919
AAXX 19181 27242 32898 82703 10016 21009 30085 40215 52010 69940 8803/ 333 10012
AAXX 19181 27329 12984 52002 10009 21014 30105 40232 52016 69900 85030 333 10029
AAXX 19181 27355 12497 81804 10002 21012 30101 40268 52016 69900 885// 333 11006
AAXX 19181 27373 11496 81807 11069 21081 30085 40315 52011 60010 73632 886// 333 11072 88710 91112
AAXX 19181 27665 11495 81402 11058 21065 30061 40345 52012 69930 71022 886// 333 11071 88710
AAXX 19181 27835 31996 01301 11034 21042 30158 40322 52012 71000 333 10026
AAXX 19181 28009 11497 82004 11095 21116 30109 40332 54000 69930 77173 8802/ 333 11085
AAXX 19181 28411 11295 81509 11098 21119 30196 40405 53009 69900 77373 8872/ 333 11100 88705 91113
AAXX 19181 28418 32598 81703 11079 21146 30231 40408 57005 885// 333 11093 88629
AAXX 19181 01025 17/84 00606 10027 21014 39960 49971 57005 60002 700// 333 10027 91109
AAXX 19181 22282 NIL
AAXX 19181 22438 NIL
AAXX 19181 22471 12484 81907 11014 21037 30061 40085 58004 69900 884// 333 11025 88616 91112
AAXX 19181 22563 11496 81804 11008 21027 30066 40105 52002 69940 77187 885// 333 11017 88614
AAXX 19181 22641 11599 71503 10003 21013 30032 40048 58002 60030 70232 87500 333 11004 87625 91107
AAXX 19181 22695 32498 81604 11054 21079 30038 40197 58003 885// 333 11054 88617
AAXX 19181 22867 11598 61603 10004 21018 30043 40158 58003 69900 78582 86900 333 10001 86922 91109
AAXX 19181 22939 11596 71808 10009 21020 39968 40131 52008 69960 78582 87500 333 10014 85924
AAXX 19181 22996 11498 81904 11082 21105 30082 40282 52001 69900 70282 8492/ 333 11060
AAXX 19181 23324 31678 82306 11058 21101 30128 40208 57005 73631 885// 333 11054 88648
AAXX 19181 27008 11598 81605 10012 21011 39955 40126 52013 69930 70282 885// 333 10010
AAXX 19181 27051 NIL
AAXX 19181 27225 11859 82006 10014 21018 30062 40194 52013 69900 77172 8802/ 333 10025 91012 91112
AAXX 19181 27252 11496 81806 10002 21009 30051 40241 52001 69970 77172 8877/ 333 11014 88715 91012
AAXX 19181 27333 12784 82108 10015 21030 30064 40223 52008 69940 8807/ 333 10019
AAXX 19181 27369 11697 81703 11040 21049 30165 40308 52011 69980 70272 885// 333 11045
AAXX 19181 27393 11497 82306 11106 21126 30180 40359 52009 60020 77173 8677/ 333 11095 91112
AAXX 19181 27479 11997 81702 11067 21075 30192 40333 52009 60030 77172 8802/ 333 11067
AAXX 19181 27532 12597 72104 10001 21016 30049 40267 52016 69900 84530 333 10022
AAXX 19181 27648 12997 01803 11021 21027 30140 40315 52019 69900 333 10014
AAXX 19181 27675 31497 81503 11077 21091 30178 40358 52014 60030 70272 885// 333 11076 88616
AAXX 19181 27679 11598 81705 11089 21104 30126 40365 52014 60030 70273 885// 333 11086 88621
AAXX 19181 28214 31596 81905 11097 21118 30146 40372 53004 77173 8872/ 333 11084
AAXX 19181 34560 12397 81107 11028 21037 30180 40354 52002 69900 886// 333 11018 88709 93402
AAXX 19181 34720 11497 80604 10049 20041 30218 40258 58016 60030 76162 8872/ 333 10067
AAXX 19181 34730 11/08 90809 10043 20038 30183 40277 57002 60040 74586 333 10061 96008
AAXX 19181 34740 11596 80904 10052 20041 30177 40274 58003 69900 71022 885// 333 10058
AAXX 19181 34824 11596 81003 10065 20057 30233 40238 57010 60010 71022 884// 333 10094
AAXX 19181 34858 31/92 91303 10045 20042 30178 40287 58008 75154 333 10053 96045
AAXX 19181 34866 11/93 91106 10017 20016 30325 40316 57007 69930 74555
AAXX 19181 34880 32997 30902 11023 21074 30389 40361 57010 83030 333 11005 83300
AAXX 19181 37018 32998 60301 10113 20025 30153 40228 57004 80002 333 10173
AAXX 19181 37054 31496 81102 10010 20004 39894 40289 57011 71022 885// 333 10037
AAXX 19181 37472 31595 81406 10071 20056 30303 40281 58013 75152 886// 333 10078 91015 91115
AAXX 19183 87480 32965 01809 10372 20073 30006 40035 57016
AAXX 19183 87532 32970 00000 10346 20116 39884 40047 57019
AAXX 19184 87344 32563 53602 10370 20112 39514 40034 57020 82270 333 56660 57801 82830 83360
AAXX 19184 87349 31565 61404 10348 20119 39669 40045 57013 70522 82271 333 56320 57831 82830 83360
AAXX 19184 87371 32962 21611 10365 20117 30028 40048 57011 80004 333 56000 82070
AAXX 19184 87374 32965 12304 10374 20112 39954 40038 57016 80001 56006 81070
AAXX 19184 87395 32965 02306 10359 20104 30005 40048 57019
AAXX 19184 87418 32965 10907 10339 20059 39254 40007 57027 81100 333 56600 81850
AAXX 19184 87436 32670 33405 10366 20115 39242 40003 57028 83200 333 56800 57822 83840
AAXX 19184 87448 32560 31412 10368 20133 39496 40031 57025 57025 82270 333 56660 57882 81830 81840
AAXX 19184 87453 32565 60215 10354 20110 39566 40029 57023 81570 333 56880 81630 86360
AAXX 19184 87467 32970 01808 10362 20127 39912 40039 57012
AAXX 19184 87497 31959 02710 10357 20106 30018 40045 57024 70400
AAXX 19184 87506 32670 22907 10307 21049 38525 48450 57019 82100 333 56500 82835 95030
AAXX 19184 87509 32970 00904 10333 20057 39214 40024 57028
AAXX 19184 87534 32960 00000 10353 20069 39892 40046 57015
AAXX 19184 87548 32962 02014 10342 20069 39949 40041 57013
AAXX 19184 87576 32760 10509 10297 20176 30030 40053 57016 81100 333 56100 81850
AAXX 19184 87582 32960 01113 10245 20191 30050 40058 57017
AAXX 19184 87585 32960 00507 10286 20177 30024 40053 57016
BBXX BAREU05 19184 99479 70602 46/// ///// 40152 57018 22274
BBXX BAREU11 19184 99209 70657 46/// ///// 40180 57011 22214
BBXX BAREU06 19184 99479 70698 46/// ///// 40030 57050 22214
BBXX BATEU05 19184 99603 70463 46/// /2615 11040 21060 40023 50007 22222
BBXX FVNM 19184 99061 70842 46/// /2112 10267 20220 40115 58014 22221 00269
BBXX BATEU06 19184 99500 70612 46/// /1612 11048 21101 40133 56030 22264 00015
BBXX A8SF7 19181 99158 70752 41298 60811 10280 20221 40150 58015 7//11 8626/ 22244 04260 20903 312// 41204 5//// 80240
BBXX DDLK 19183 99448 70569 41397 80134 10015 21039 40092 57018 70222 8777/ 22223 20707 303// 41008 81005
BBXX C6CU6 19183 99295 70569 41497 43431 10191 20165 40159 54000 70211 843// 22252 04228 20914 327// 41110 5//// 80175
BBXX C6XQ2 19183 99297 50488 41698 52010 10265 20213 40073 54000 70200 85100 22213 04240 20802 32626 40802 50602 80230
BBXX V7OX3 19184 99248 50470 41498 21507 10260 20215 40070 58010 70200 811// 22213 04280 2//03 307// 4//02 5//// 80230
AAXX 19184 86330 32598 50000 10354 20112 40047 57012 83205
AAXX 19184 86360 32897 10310 10366 20081 40045 57019 81080
AAXX 19184 86460 32998 02003 10315 20136 40056 58010
AAXX 19184 86490 32597 10000 10344 20132 40055 57008 81100
AAXX 19184 86530 32997 00000 10302 20139 40051 52013
AAXX 19184 86545 32597 60000 10276 20190 40066 57008 81206
AAXX 19184 86565 32598 12008 10238 20173 40056 58006 81200
AAXX 19184 86580 42597 11007 10230 20183 40062 56009 81400
AAXX 19184 60395 11660 20000 10076 20065 40257 53001 60032 70166 81230 333 10112 81840 95990
AAXX 19184 60421 11560 32404 10027 21007 39181 48512 53008 69922 70262 83200 333 10054 83830 95990
AAXX 19184 60423 11558 60000 10025 20017 39225 48480 53004 60132 70162 86800 333 10050 81826 85640 95990
AAXX 19184 60430 12560 20000 10055 20032 40277 53001 69962 82800 333 10101 81826 95990
AAXX 19184 60437 11559 63404 10025 21000 39028 48519 53006 60052 70172 85802 333 10055 81823 85630 95990
AAXX 19184 60444 12560 50000 10030 21006 39131 48530 53004 60002 85200 333 10075 81826 85830 95900
AAXX 19184 60452 12565 5//// 10130 20067 40261 53003 69942 83202 222// 2//// 333 10154 83820 83073 91836
AAXX 19184 60457 12565 10000 10073 20062 40269 53002 60002 81201 333 10151 81826 95990
AAXX 19184 60514 12560 42614 10048 20031 39339 48554 53009 60002 84500 333 10093 84626 95990
AAXX 19184 60518 12565 50000 10123 20076 40246 53001 60002 81202 222// 20000 333 10165 81820 85073 91807 95990
AAXX 19184 60520 12660 40000 10072 20042 40271 53004 60002 81502 333 10127 81633 84073 95990
AAXX 19184 60540 11660 20000 10063 21022 39070 48523 56002 60002 70200 82202 333 10092 82833 95990
AAXX 19184 60560 11960 10000 10073 21045 39018 48553 53007 60002 70200 80001 333 10112 81073 95990
AAXX 19181 60370 36/// /2403 10088 20052 333 10134
AAXX 19181 60371 16/// /1802 10090 20048 60072 333 10141
AAXX 19181 60372 16/// /2401 10070 20040 60096 333 10Q23
AAXX 19181 60373 NIL
AAXX 19181 60374 NIL
AAXX 19181 60376 NIL
AAXX 19181 60379 NIL
AAXX 19181 60380 NIL
AAXX 19181 60381 NIL
AAXX 19181 60393 NIL
AAXX 19181 60394 NIL
AAXX 19181 60593 NIL
AAXX 19181 60595 NIL
AAXX 19181 60605 NIL
AAXX 19181 60613 NIL
AAXX 19181 60623 NIL
AAXX 19184 60624 36/// /0000 10202 21060 333 10239
AAXX 19184 60639 NIL
AAXX 19184 60645 36/// /0000 10179 21023 333 10217
BBXX BAREU56 19184 99384 10122 46/// ///// 40152 52025 22252
BBXX TESTFR9 19184 99499 70039 46/// /2838 10117 29096 40130 57029 22274
BBXX BAREU63 19184 99356 10249 46/// /1413 10172 29065 40141 52001 22263
BBXX BAREU08 19184 99472 70112 46/// ///// 40223 57005 22214
BBXX BAREU04 19184 99538 70302 46/// ///// 40164 57018 22263
BBXX BAREU00 19184 99529 70054 46/// ///// 40106 57005 22214
BBXX BAREU51 19184 99380 10122 46/// ///// 40134 52011 22275
BBXX BAREU12 19184 99576 10117 46/// ///// 40008 22253
BBXX BAREU62 19184 99406 10132 46/// ///// 40125 52005 22234
BBXX BATFR11 19184 99351 10185 46/// /1509 10149 20072 40144 52010 22263 00192
BBXX BATFR16 19184 99445 70148 46/// /3017 10135 20129 40260 53025 22264 00147
BBXX BATFR03 19184 99500 70005 44396 82533 10102 20099 40103 75322 877// 22284 20202
BBXX 61001 19184 99434 10078 46/// /0607 10109 21047 40158 52016 22200 00150 10602 70009
BBXX BATFR27 19184 99507 70010 46/// /2725 10112 20074 40086 58047 22265 00099
BBXX BATFR54 19184 99472 70031 46/// /2634 10120 20090 40189 22263 00127
BBXX BATFR60 19184 99485 70058 46/// /2622 10120 20110 40181 53022 22233 00115
BBXX BATFR04 19184 99598 70107 46/// /2832 10057 20015 49996 52015 22200 00102
BBXX BATEU01 19184 99506 70282 44597 81722 10104 20094 40176 55/// 70222 83545 22224 00112 21004 327// 41004 5////
BBXX BATFR12 19184 99481 70075 46/// /2711 10134 20115 40189 58004 22200 00144
BBXX BATEU09 19184 99430 10104 46/// /0614 10092 21048 40159 52010 22242 00170
BBXX BATFR52 19184 99499 70039 46/// /2641 10119 20102 40140 57023 22273 00119
BBXX BATEU08 19184 99609 70331 46/// /2947 10000 21098 40002 52039 22251
BBXX BATUK01 19184 99582 70060 46/// /3004 10079 20037 49991 51020 22241 00109
BBXX PBBB 19180 99460 70192 41/94 /2806 10130 20113 40272 52014 74544 8//// 22253 20302 327// 40504 5//// 80120
BBXX DBIP 19180 99356 70080 41498 30610 10175 20090 40245 54000 70200 82440 22223 04180 20503 3//// 4//// 5//// 80127
BBXX A8XY2 19184 99468 70148 41/93 /3015 10120 20120 40231 52026 74554 8//// 22254 04120 2//// 80120
BBXX 61002 19184 99421 10047 46/// ///28 10105 2//// 40216 52010 22200 00140 10705 70026 555 1/034
BBXX BAREU61 19184 99068 70128 46/// /3008 10285 29066 40100 57003 22234
BBXX BATFR45 19184 99006 30515 46/// ///// 10279 20242 40130 53019 22214 00307
BBXX BATFR55 19184 99124 30504 44898 13022 10282 20252 40101 70000 81040 22272 00285 212// 33030 413// 513//
BBXX BATFR19 19184 99065 30060 46/// /2014 10234 20199 40116 53004 22200 00257
BBXX BATFR05 19184 99063 10034 46/// /2108 10282 20244 40101 53009 22200 00260
BBXX A8QJ7 19184 99085 70252 41698 60710 10275 20216 40109 58009 7//22 85430 22213 20601 3//// 4//// 5//// 80235
BBXX DCPX2 19184 99128 10483 41998 01220 10250 20183 40170 70200 80000 22244 00260 2//// 80205
BBXX MGGK4 19181 99079 70149 41996 09901 10296 20216 40105 54000 70500 80000 22254 00294 20000 318// 40703 5//// 80242
AAXX 19184 60353 NIL
AAXX 19184 60367 11558 7//// 10123 20098 40186 51008 60052 76062 878// 333 10135 83820 85833
AAXX 19184 60369 12560 11804 10110 20021 40258 53006 60042 81200 333 10136 81826 91837
AAXX 19184 60401 NIL
AAXX 19184 60403 11557 72810 10060 20039 40237 51003 60032 70382 879// 333 10109 83826 82933 86836 95990
AAXX 19184 60425 12565 20000 10091 20056 40268 53007 69962 82202 333 10129 82826 95990
AAXX 19184 60461 12570 33004 10128 20065 40266 53006 69912 82202 222// 20000 333 10152 82826 91828 95990
AAXX 19184 60467 12560 33208 10103 20044 40250 53009 60002 83230 333 10126 83830 95990
AAXX 19184 60492 12552 30000 10097 20093 40265 51006 60002 82202 333 10147 82830 95990
AAXX 19184 60515 12670 53408 10070 20006 40258 53007 60002 85800 333 10115 85833 95990
AAXX 19184 60517 12560 30000 10146 20074 40265 53006 60002 81202 333 10163 81820 83073 95990
AAXX 19184 60522 12975 30000 10094 20014 40274 53005 60002 81032 333 10135 81360 83073 95990
AAXX 19184 60557 11970 10308 10044 21044 38909 48545 52008 60002 70200 80002 333 10080 81073 95990
AAXX 19184 60563 12660 40210 10070 21005 39346 48534 53008 60002 83202 333 10114 83830
AAXX 19184 60603 12960 03508 10108 21016 40255 52017 60002 333 10155
AAXX 19184 60638 12960 0//// 10119 21002 40225 52009 60002 333 10151
AAXX 19184 60686 NIL
AAXX 19181 50844 32962 02701 11158 21186 40276 57009 333 11051
AAXX 19181 50854 32965 00000 11174 21200 40286 57006 333 11083
AAXX 19181 50968 32962 01801 11183 21199 40313 54000 333 11102
AAXX 19181 51379 11770 83201 11133 21156 40505 52015 69901 77077 885// 333 01407 11107
AAXX 19181 51467 32980 60000 11086 21179 38305 52007 80002 333 00504 11034
AAXX 19181 51495 32980 03618 11083 21184 40362 52004 333 00601 11016 91127 91536
AAXX 19181 53480 32980 00000 11155 21179 40361 57004 333 11040
AAXX 19181 53673 32961 81801 11034 21086 40318 54000 8802/ 333 10008
AAXX 19181 53698 31957 63201 11011 21085 40320 57008 70500 80002 333 10021
AAXX 19181 53898 31911 80000 11041 21051 40316 57006 71000 8802/ 333 10018
AAXX 19181 54308 32980 03601 11156 21244 40348 52001 333 11011
AAXX 19181 54602 31957 80000 11043 21099 40315 57008 71000 80007 333 10014
AAXX 19181 54725 31957 80401 11007 21048 40315 57007 71000 8802/ 333 10035
AAXX 19181 54751 31956 72504 10024 21019 40311 52001 71000 83042 333 10040
AAXX 19181 54916 31940 00000 11035 21050 40312 57008 71000 333 10062
AAXX 19181 57014 32965 81801 10009 21020 40295 57005 8807/ 333 00151 10039
AAXX 19181 57025 31940 82902 10002 21020 40311 57005 71000 8802/ 333 10030
AAXX 19181 57046 32460 82501 11057 21058 37973 57004 885// 333 00153 11002
AAXX 19181 58208 32961 00902 10017 21001 40282 57008 333 10094
BBXX A8YW2 19184 99171 30713 41/98 31318 10265 20236 40131 55008 76061 8//// 22214 00260 20703 80245
AAXX 19181 08501 32/// /1706 10169 20148 30266 40302 57003 333 10184 91009 91110 555 60005
AAXX 19181 08505 32470 61405 10180 20116 30271 40320 55003 868// 333 10201 82817 85635 555 60007
AAXX 19181 08506 32/// /9902 10166 20108 30258 40330 54000 333 10189 91006 91108 555 60005
AAXX 19181 08509 32560 71702 10174 20121 30264 40329 53002 87800 333 10195 81828 87645 555 60007
AAXX 19181 08511 32/// /2201 10163 20097 30222 40331 52002 333 10185 555 60005
AAXX 19181 08512 32580 73602 10163 20084 30242 40328 52001 878// 333 10178 81825 87640 555 60005
AAXX 19181 08515 32589 70402 10167 20111 30205 40327 53001 875// 333 10184 87636 910// 911// 555 60007 912//
AAXX 19181 08521 11460 70206 10173 20115 30191 40262 52007 60032 70252 87800 333 10197 83815 86630 555 69927
AAXX 19181 08522 32568 51004 10177 20114 30185 40254 52002 85800 222// 312// 40301 333 10229 84823 91010 91110 555 60005
AAXX 19181 08524 12465 70504 10166 20107 30174 40272 52008 69972 87800 333 10185 84815 85630 91008 91111 555 60005
AAXX 19181 08530 NIL
AAXX 19181 08531 32/// /0103 10129 20040 30263 40302 52011 333 10142 91105 555 60005
AAXX 19181 08532 NIL
AAXX 19181 08533 32/// /0000 10106 20041 30255 40284 52009 333 10158 555 60005
AAXX 19181 08534 32970 00000 10106 20055 30280 40298 53005 333 10138 555 60007
AAXX 19181 08535 NIL
AAXX 19181 08537 NIL
AAXX 19181 08540 32962 13402 10092 20072 30227 40298 52010 80001 333 10136 81070 555 60007
AAXX 19181 08541 32/// /3503 10094 20048 30176 40298 52011 333 10142 91105 555 60005
AAXX 19181 08544 32960 10000 10076 20055 30278 40300 52010 80001 333 10130 81070 555 60007
AAXX 19181 08545 31970 20201 10072 20031 30220 40306 52007 70200 81032 333 10122 81360 555 60005
AAXX 19181 08548 32/// /3401 10086 20042 30093 40303 52010 333 10120 555 60005
AAXX 19181 08551 31566 10000 10066 20044 30247 40307 52013 70200 81501 333 10105 81621 555 60005
AAXX 19181 08554 32970 20101 10127 20011 30275 40285 52011 80001 333 10155 82080 555 60005
AAXX 19181 08558 32/// /3602 10082 20006 39996 40297 52008 333 10131 555 60005
AAXX 19181 08560 31980 03003 10049 20019 39531 40309 52012 70200 333 10107 555 60005
AAXX 19181 08561 32970 00103 10080 20002 30059 40298 52019 333 10135 555 60007
AAXX 19181 08562 32/// /0203 10091 21001 39993 40293 52016 333 10128 555 60005
AAXX 19181 08567 32/// /1801 10044 20017 39623 40307 52009 333 10094 555 60005
AAXX 19181 08568 32/// /2906 10014 21078 38706 48572 52010 333 10058 555 60005
AAXX 19181 08570 31980 11902 10083 20018 39828 40296 52008 70200 80001 333 10125 81099 555 60005
AAXX 19181 08571 32/// /3602 10066 21003 39582 40301 52008 333 10107 91105 555 60005
AAXX 19181 08575 32/// /2604 10056 21008 39467 40296 52007 333 10098 91006 91106 555 60005
AAXX 19181 08579 12/// /0000 10104 20044 30172 40300 52009 69932 333 10128 555 60005
AAXX 19184 65338 32958 52204 10302 20208 39905 40091 80002 333 10341 59016 85076
AAXX 19181 14235 11/02 9//// 11049 21050 38975 48420 52010 60132 77174 333 11041 47024 93110
AAXX 19181 14246 11665 70105 10010 21016 39968 40177 51/// 69912 7007/ 82570 333 10020 41998
AAXX 19181 14314 12675 60311 10060 21038 30058 40123 52/// 60062 84870 333 10094 92334 92448
AAXX 19181 14323 11668 80611 10039 21010 30097 40132 52/// 60062 77177 8162/ 333 10043 92334 92447 91022
AAXX 19181 14324 11/00 90912 11090 21101 38302 48415 53/// 60192 771// 333 11080 44042
AAXX 19181 14328 NIL
AAXX 19181 14330 11560 82702 11016 21029 39466 40153 52/// 60052 77077 8802/ 333 11009 47023 92802
AAXX 19181 14438 11857 80107 10027 21002 30004 40097 53/// 60022 76162 8802/ 333 10074 923//
AAXX 19181 14443 11698 732// 10077 20060 39990 40085 52002 60012 75066 87720 333 10104 92323 911//
AAXX 19181 14447 11580 80604 10072 20047 30050 40081 54/// 60062 70262 8217/ 333 10125 92322
AAXX 19181 14472 12665 30303 10068 20049 30026 40091 53006 60302 83200 333 10101 92312
AAXX 19181 01003 11565 40302 11046 21079 30056 40068 52003 60001 70311 84500
AAXX 19181 23909 11996 82104 11097 21118 30062 40324 58004 69900 77173 8802/ 333 11082
AAXX 19181 28044 32597 81903 11064 21173 30187 40358 56020 885// 333 11049
AAXX 19181 28116 11896 81704 11103 21125 30113 40360 57004 77172 8807/ 333 11090
AAXX 19181 28240 32998 32303 11050 21205 30077 40415 56012 83030 333 11065
AAXX 19181 28522 31997 82009 11091 21165 30170 40445 57014 73632 8801/ 333 11097
AAXX 19181 28621 31997 81808 11097 21169 30197 40446 57009 73632 8805/ 333 11105
AAXX 19181 29023 41597 82302 11096 21117 30225 40327 54000 78582 889// 333 88925
AAXX 19181 29122 42499 82403 11096 21108 30272 40349 51003 885// 333 88613
AAXX 19181 29328 41998 62602 11117 21136 30230 40378 52006 70282 86030
AAXX 19181 29348 41597 82402 11117 21140 30216 40370 52011 78582 8497/
AAXX 19181 29405 42997 62503 11126 21146 30262 40421 52003 82031
AAXX 19181 29418 42998 32503 11121 21141 30250 40421 52014 80001
AAXX 19181 29430 41497 82201 11128 21141 30201 40389 52009 77172 8672/ 333 86712
AAXX 19181 29524 42998 82404 11118 21131 30236 40410 52002 80007
AAXX 19181 29605 42998 02402 11184 21196 30301 40457 52003
AAXX 19181 29631 42597 82504 11131 21144 30218 40416 52010 889//
AAXX 19181 29645 41596 81503 11132 21145 30215 40415 52012 78582 889// 333 86924
AAXX 19181 29706 42998 02505 11187 21206 30311 40473 54000
AAXX 19181 29736 41497 82503 11128 21148 30168 40436 53006 78582 883//
AAXX 19181 29937 41597 82106 11204 21237 30266 40513 52004 73683 8457/
AAXX 19181 36034 41498 82106 11232 21250 30235 40545 52001 77173 88940 333 88616
AAXX 19181 36096 41996 80000 11305 21330 39706 40601 52003 77171 8807/ 333 95090
AAXX 19184 89022 42570 70407 11021 21047 39904 49941 52005 878// 333 87625
AAXX 19184 89062 42384 80007 10029 21004 39820 49860 52015 886// 333 88707
AAXX 19181 23914 31998 81806 11097 21127 30075 40349 56003 77173 8807/ 333 11094
AAXX 19181 23921 32697 80000 11091 21125 30194 40319 57021 8357/ 333 11005
AAXX 19181 23955 41484 82503 11099 21116 30264 40329 52000 70282 82331
AAXX 19181 23966 41499 80000 11106 21119 30172 40304 51003 70282 889//
AAXX 19181 28138 32999 52304 11112 21156 39800 40407 57017 80001 333 11117
AAXX 19181 28224 32598 82005 11077 21168 30169 40395 57009 885// 333 11090
AAXX 19181 28255 32994 02602 11093 21172 30291 40428 57016 333 11083
AAXX 19181 28440 32997 72203 11066 21193 30083 40451 57013 80006 333 11051
AAXX 19181 28645 32997 22001 11168 21187 30191 40518 57013 80001 333 11124
AAXX 19181 28661 32997 32105 11193 21218 30413 40516 57006 80001 333 11173
AAXX 19181 28722 31997 81807 11099 21159 30333 40474 57005 73632 8802/ 333 11107
AAXX 19181 28748 32966 42003 11181 21214 30276 40544 57009 80001 333 11138
AAXX 19181 28838 32996 02202 11229 21242 30040 40582 58005 333 11189
AAXX 19181 29231 41696 82001 11107 21120 30251 40352 52005 77187 885// 333 88637
AAXX 19181 29313 41596 82602 11118 21130 30254 40384 52006 78582 84931
AAXX 19181 29612 42998 52505 11136 21149 30271 40435 58003 85030
AAXX 19181 29638 41597 81903 11129 21149 30250 40427 52004 70282 889// 333 86920
AAXX 19181 29838 41596 82204 11141 21168 30216 40469 52004 77073 885//
AAXX 19181 29846 41360 82306 11159 21178 30037 40455 53006 78582 889// 333 86709
AAXX 19181 36061 42999 80000 11175 21194 30063 40510 54000 86032
AAXX 19184 87022 32560 30000 10364 20141 39541 40031 39541 40031 58021 81206 333 56000 81830
AAXX 19184 87129 32965 03606 10412 20127 39810 40032 57023
AAXX 19181 34357 11496 81305 11012 21012 30171 40332 50001 60060 71082 885// 333 10004
AAXX 19181 34363 11295 81302 11056 21057 30222 40383 50003 69980 71082 886// 333 11058 93605
AAXX 19181 34545 11497 81205 10011 20011 30195 40309 58007 60030 76162 8802/ 333 10027
AAXX 19181 34579 32998 71005 11035 21088 30328 40373 52002 8705/ 333 11029
AAXX 19181 34838 32997 00903 10051 20034 30150 40248 58012 333 10080
AAXX 19181 34927 32997 30902 10069 20044 30200 40237 58009 80030 333 10108
AAXX 19181 34949 31240 71305 10002 21000 39713 40272 57009 71022 85630 333 10067 87705
AAXX 19181 37001 12997 00602 10087 20057 30179 40219 57007 69940 333 10125
AAXX 19181 37031 32997 81403 10038 20016 30053 40251 57004 80004 333 10103
AAXX 19181 37061 11323 81003 10049 20045 30115 40283 58009 69900 75352 886// 333 10064
AAXX 19181 37085 32598 81208 10061 20045 30325 40353 58005 885// 333 10073 91112
AAXX 19181 37107 32998 50102 10068 20013 39567 40246 57008 80004 333 10148
AAXX 19181 37126 42999 82004 10011 21125 38000 48567 57001 85031 333 10048
AAXX 19181 37171 32996 80702 10091 20051 30210 40228 58004 80001 333 10159
AAXX 19181 37228 32997 50000 10007 21023 39422 40276 58010 80001 333 10113
AAXX 19181 37470 12596 81302 10077 20057 30320 40297 58010 69900 885// 333 10083 91112
AAXX 19181 37663 32996 02403 10018 21042 39092 48555 57012 333 10058
AAXX 19184 87078 32770 30000 10398 20101 39910 40054 57027 83100 333 56700 83850
AAXX 19184 87244 NIL
AAXX 19184 87393 31556 13208 10363 20100 30005 40066 57008 70400 81500 333 56700 81625
AAXX 19184 87416 NIL
AAXX 19184 87563 32565 60510 10303 20144 30000 40042 56009 86100 333 56200 86825
AAXX 19184 87640 32965 00906 10317 20192 39954 4//// 57019
AAXX 19184 87688 32970 01805 10257 20128 39934 40068 57012
AAXX 19184 87774 31950 02713 10240 20079 39056 48433 5//// 70711
AAXX 19184 87852 31582 42924 10196 20034 39501 49995 56005 71511 83270 333 56660 57875 83830
AAXX 19183 87016 32562 60000 10364 20194 39631 40023 57027 83306 333 56606 82820 81930
AAXX 19183 87896 32980 52718 10260 20035 39881 49974 57023 82072 333 56066 82360 84070
AAXX 19183 87791 32980 03615 10318 20039 30038 40047 57024
AAXX 19181 28049 32997 01808 11092 21173 30204 40378 57021 333 11069
AAXX 19181 28144 32998 82103 11070 21176 30220 40386 57022 8807/ 333 11062
AAXX 19181 28319 31499 82205 11089 21162 30233 40407 57006 73632 885// 333 11101
AAXX 19181 28321 31996 81607 11098 21145 30179 40396 57006 77122 8802/ 333 11099
AAXX 19181 28334 32497 82004 11069 21191 30117 40438 57013 8802/ 333 11076
AAXX 19181 28434 32998 71404 11057 21183 30166 40437 57017 80001 333 11085
AAXX 19181 28552 32998 32302 11153 21184 30371 40495 58012 80002 333 11085
AAXX 19181 28666 32999 02004 11192 21220 30319 40514 57002 333 11160
AAXX 19181 28825 32997 82005 11094 21152 30325 40510 58005 8805/ 333 11100
AAXX 19181 29111 42998 52704 11116 21135 30269 40362 52006 85030
AAXX 19181 29209 42598 82503 11119 21132 30262 40397 52007 86502
AAXX 19181 29551 41497 82104 11121 21141 30195 40388 52015 78583 883//
AAXX 19181 29602 42999 82403 11169 21182 30297 40451 52001 80001
AAXX 19181 29636 41598 82303 11117 21123 30179 40412 52010 70282 883//
AAXX 19181 29654 41396 81904 11163 21176 39764 40429 52013 78587 889// 333 85708
AAXX 19181 29712 42398 82505 11161 21180 30300 40457 52003 886// 333 88710
AAXX 19181 29724 41496 82604 11162 21175 30232 40453 53003 78583 8637/ 333 85710
AAXX 19181 29726 41998 82305 11157 21176 30264 40446 52001 73632 8802/
AAXX 19181 29814 42999 32604 11171 21190 30320 40480 58004 80002
AAXX 19181 29827 41997 02304 11179 21198 30315 40484 58005 73683
AAXX 19181 29923 41999 82506 11176 21202 30188 40490 52004 73632 8807/
AAXX 19181 29939 41996 82503 11153 21180 30185 40493 54000 77172 8802/
AAXX 19181 35026 32997 72301 11162 21188 39870 40573 58006 80005 333 11121
AAXX 19181 36021 42999 62301 11163 21182 30316 40513 58005 80001
AAXX 19181 36022 42998 82104 11207 21226 30235 40526 52003 8802/
AAXX 19181 36038 42999 01502 11248 21273 30068 40569 52007
AAXX 19181 36058 42999 00904 11158 21192 39968 40538 52006
AAXX 19181 36064 42999 80603 11085 21149 39870 40497 52003 80001
AAXX 19181 36229 42999 00000 11321 21331 39299 40663 52008
AAXX 19181 36259 42999 00000 11339 21375 38381 48662 52007
AAXX 19184 87593 32560 10507 10248 20177 30048 40075 57003 81100 333 56300 81825
AAXX 19184 87623 31965 03606 10350 20112 39830 40047 57024 70600
AAXX 19184 87641 32565 31403 10298 20145 39893 40062 57012 83100 333 56200 83825
AAXX 19184 87645 32570 32904 10270 20141 39864 40065 57015 82102 333 56506 82823
AAXX 19184 87648 32560 20000 10271 20168 30061 40071 57011 82100 333 56400 82820
AAXX 19184 87692 32560 71405 10191 20158 30060 40085 58004 85501 333 56500 85620
AAXX 19184 87715 32970 02304 10302 20050 39738 40043 57029
AAXX 19184 87750 32965 01408 10292 20053 39964 40060 58015
AAXX 19184 87765 31556 23223 10176 20034 39150 48457 57013 70700 82500 333 56600 82625 96104 96120
AAXX 19184 87784 32980 01116 10243 20137 30016 40040 57023
AAXX 19184 87800 32680 73639 10214 20077 39698 40092 57017 87500 333 56700 87645
AAXX 19184 87803 32580 52715 10162 20035 39158 40062 58012 83570 333 56660 83630
AAXX 19184 87828 32980 00910 10274 20016 39986 40036 57024
AAXX 19184 87860 31975 62716 10260 20031 39958 40011 57013 70721 82046 333 56066 57302 82360 84270
AAXX 19184 87904 32680 12523 10162 21059 39716 49954 57004 81400 333 56600 81635
AAXX 19184 87909 32580 62915 10232 21006 39890 49962 57015 82208 333 56500 57854 82830 84270
AAXX 19184 87925 11580 52908 10180 21036 39914 49937 57020 69901 70282 85300 333 56600 57900 81925
AAXX 19184 87938 32680 62515 10137 21011 39828 49895 57003 85130 333 56550 85835 83360
AAXX 19181 38725 416// 42408 11122 21165 48540 52015 70181 84400
AAXX 19184 71976 46/// /2521 11213 21236 39310 49949 51003 6///1 333 11198 21222 7////
AAXX 19184 71228 16/// /2108 11051 21089 60001 333 11051 21137 70000
AAXX 19184 71243 16/// /2515 10031 21053 39108 40204 58010 60001 333 10031 21079 70000
AAXX 19184 71903 47/// /2422 10080 20077 39953 40001 56036 6///1 7//4/ 333 7////
AAXX 19184 71107 16/// /2738 10083 20079 30007 40119 56022 60001 333 10083 20054 7////
AAXX 19184 71736 46/// ///// 10015 21063 6///1 333 10015 21110 7//// 555 10010
AAXX 19184 71737 17/// /2406 11004 21014 39487 40008 56021 60031 7//4/ 333 11004 21110 70048 555 10040
AAXX 19184 71743 16/// /2111 11139 21172 39802 40023 56012 60001 333 11134 21213 70000
AAXX 19184 71748 16/// /3208 11050 21079 39948 40243 50006 60001 333 11050 21061 70000
AAXX 19184 71363 16/// /3115 11340 21377 39907 49964 56015 60001 333 11339 21355 70000
AAXX 19184 71374 46/// /2109 11054 21095 6///1 333 11054 21124 7////
AAXX 19184 71381 47/// /2211 11025 21067 6///1 7//4/ 333 21144 70000
AAXX 19184 71387 17/// /2005 11046 21051 39605 49985 56035 60091 7//4/ 333 11046 21155 70007
AAXX 19184 71079 11366 81806 11122 21139 39851 40140 58032 69921 77122 887// 333 11122 21212 48010 70002 90962
AAXX 19184 71503 46/// /2806 11170 21193 39659 49932 51034 6///1 333 11151 21205 7////
AAXX 19184 71506 46/// /3202 11169 21182 39023 49904 52018 6///1 333 11060 21169 7////
AAXX 19184 71667 16/// /3212 11052 21098 39953 40203 51035 60001 333 10004 21056 70000
AAXX 19184 71682 16/// /2604 10040 21072 39699 49921 53013 60001 333 10040 21292 70000
AAXX 19184 71622 16/// ///// 10063 20019 39777 40113 58002 60001 333 10063 21008 70000
AAXX 19184 71269 17/// /2008 11035 21057 69941 7//4/ 333 11035 21102 70004
AAXX 19184 71285 46/// /2312 11040 21084 6///1 333 11040 21149 7////
AAXX 19184 71295 16/// /2608 11084 21114 39766 40224 51013 60001 333 11057 21090 70031 555 10020
AAXX 19184 71309 16/// /3009 11124 21154 30097 40109 51033 60001 333 11058 21124 70047
AAXX 19184 71321 16/// /0302 11127 21141 39859 49902 51011 60001 333 11094 21134 70000 555 10020
AAXX 19184 71341 16/// /2527 10013 21051 60001 333 10015 21123 70010
AAXX 19184 71342 16/// /2216 11044 21058 60001 333 11044 21124 70033
AAXX 19184 71344 16/// /2419 11039 21090 60001 333 11039 21110 70004
AAXX 19184 71347 16/// /2514 10019 21032 60001 333 10019 21159 70000
AAXX 19184 71349 16/// ///// 11024 21092 60001 333 11024 21114 70000
AAXX 19184 71421 16/// ///// 11112 21148 39372 40105 58032 60001 333 11109 21196 7////
AAXX 19184 71435 16/// /2608 11085 21106 39600 40207 51026 60001 333 11035 21086 70003
AAXX 19184 71478 17/// /1737 10081 20079 30065 40202 56017 60131 7//4/ 333 10081 20051 70170
AAXX 19184 71479 16/// /1139 10061 20060 30115 40237 56016 60001 333 10063 20049 70000
AAXX 19184 71482 46/// /0606 10027 30170 40209 58022 6///1 333 10035 20010 7////
AAXX 19184 71407 16/// /2815 11318 21356 39905 49927 56013 60001 333 11295 21322 70000
AAXX 19184 71423 16/// /2016 11049 21089 30132 40142 57034 60001 333 11047 21137 70000
AAXX 19184 71151 16/// /3105 11078 21097 39715 40232 51017 60001 333 11045 21083 70006
AAXX 19184 71156 17/// /3102 11069 21077 39028 40148 55014 69931 7//4/ 333 11069 21151 70019
AAXX 19184 71186 46/// /0816 11061 21075 6///1 333 11061 21116 7////
AAXX 19184 71190 46/// /1914 11025 21048 6///1 333 11024 21088 7////
AAXX 19184 71550 16/// /2715 11047 21083 39853 40236 50002 60001 333 11037 21049 70000
AAXX 19181 45032 36/// /3003 10146 20128 30195 40212 54000
AAXX 19181 45035 36/// /0103 10159 20129 30167 40210 57003
AAXX 19181 45039 36/// /3503 10164 20132 30191 40207 57003
AAXX 19181 45044 36/// /0105 10165 20126 30109 40203 57002
AAXX 19181 13463 11562 83601 10056 20047 30045 40105 56006 60242 76166 888// 333 10074
AAXX 19181 13459 11210 83602 10000 21002 39338 40116 54000 60222 77577 8672/ 333 10022 47005 86792 88597 93105
AAXX 19181 13461 11660 80503 10082 20059 30090 40098 52002 60162 76196 8482/ 333 10111 83834 85458 92333 92436
AAXX 19181 13363 NIL
AAXX 19184 40153 11958 00919 10141 21023 39143 48547 52002 60002 70500 333 10162
AAXX 19184 40179 12965 01107 10206 20004 30131 40168 52001 60002 333 10275
AAXX 19184 40180 12960 01009 10231 21023 30123 40171 50001 60002 333 10277
AAXX 19184 40190 16/// ///// 10185 21018 39847 40174 52009 60002 333 10258
AAXX 19184 40199 13/// /0205 10196 21011 30148 40171 52008 60002 333 10271
AAXX 19184 04203 46/// /3108 11133 21156 39936 49954 52009
AAXX 19184 04205 47/50 /1303 11117 21154 39922 49944 52011 77788 333 11100 21128
AAXX 19184 04208 46/// /1113 11089 21126 39916 49962 52013
AAXX 19184 04213 46/// /1415 11103 21203 39850 49962 52012 333 11082 21104 91136 91223
AAXX 19184 04214 NIL
AAXX 19184 04224 45/82 /1215 11104 21176 39917 49950 57001 333 11089 21109 91124
AAXX 19184 04228 NIL
AAXX 19184 04242 46/// /1621 11058 21085 39956 49972 54000
AAXX 19184 04253 46/// /1612 11061 21077 39978 40005 57003
AAXX 19184 04266 46/// /0813 11060 21084 39989 40027 57002
AAXX 19184 04285 46/// /1108 11036 21051 30025 40044 57005
AAXX 19184 04301 46/// ///// 11294 21337 39997 40002 57003
AAXX 19184 04313 46/// ///// 11183 21208 39974 49986 52009
AAXX 19184 04330 46/// /3207 11147 21174 39955 49973 54000
AAXX 19184 04351 46/// /0408 11040 21052 39845 49861 52002
AAXX 19184 04373 46/// /3143 11104 21160 39811 49904 52023 333 91054
AAXX 19184 04382 46/// /2932 11062 21178 39946 49995 52023
AAXX 19184 04416 NIL
AAXX 19184 71079 11366 81806 11122 21139 39851 40140 58032 69921 77122 887// 333 11122 21212 48010 70002 90962
AAXX 19184 71421 16/// ///// 11112 21148 39372 40105 58032 60001 333 11109 21196 7////
AAXX 19184 71435 16/// /2608 11085 21106 39600 40207 51026 60001 333 11035 21086 70003
AAXX 19184 62305 32960 01706 10138 20066 40187 52010 333 10186
AAXX 19184 62306 32560 31304 10140 20105 40183 52006 83500 333 10210
AAXX 19184 62318 32960 00000 10152 20127 40175 52013 333 10232
AAXX 19184 62337 NIL
AAXX 19184 62366 31930 00502 10164 20097 40166 52013 70500 333 10220
AAXX 19184 62393 32960 02703 10148 20078 40183 52012 333 10250
AAXX 19184 62405 31958 00000 10174 20075 40162 52012 70500 333 10264
AAXX 19184 62414 32960 03405 10221 20095 40165 52014 333 10272
AAXX 19184 62417 32960 01601 10102 20059 40177 52013 333 10210
AAXX 19184 62440 32960 03303 10157 20111 40169 52009 333 10249
AAXX 19184 62463 32960 03603 10190 20100 40167 52011 333 10259
AAXX 19184 62465 32960 03002 10200 20153 40159 52011 333 10245
AAXX 19184 62419 NIL
AAXX 19181 45032 36/// /3003 10146 20128 30195 40212 54000
AAXX 19181 45035 36/// /0103 10159 20129 30167 40210 57003
AAXX 19181 45039 36/// /3503 10164 20132 30191 40207 57003
AAXX 19181 45044 36/// /0105 10165 20126 30109 40203 57002
AAXX 19184 61972 16/// /1709 10254 20191 40120 60002 333 10302 58013 90710 91119 555 60005
AAXX 19184 71107 16/// /2738 10083 20079 30007 40119 56022 60001 333 10083 20054 7////
AAXX 19184 71976 46/// /2521 11213 21236 39310 49949 51003 6///1 333 11198 21222 7////
AAXX 19184 71228 16/// /2108 11051 21089 60001 333 11051 21137 70000
AAXX 19184 71243 16/// /2515 10031 21053 39108 40204 58010 60001 333 10031 21079 70000
AAXX 19184 71903 47/// /2422 10080 20077 39953 40001 56036 6///1 7//4/ 333 7////
AAXX 19181 40703 11540 80000 11038 21049 39052 40388 51002 60001 71022 86600 333 55000 86720
AAXX 19181 40712 11912 02602 11044 21056 38799 40382 51005 60001 71010 333 55051 28907
AAXX 19181 40729 12960 00802 11010 21066 38451 40359 51013 60001 333 55073 21051
AAXX 19181 40736 12960 60000 10094 20073 30366 40340 50001 60001 86070 333 55029 86359
AAXX 19181 40739 12965 00603 10036 21063 38822 40350 52008 60001 333 55088
AAXX 19181 40743 12965 01005 10020 21140 39217 40378 51028 60001 333 55087
AAXX 19181 40762 12962 00802 11023 21315 38679 40364 51017 60001 333 55076
AAXX 19181 40768 12965 00000 11029 21076 38363 40349 52011 60001 333 55090 21249
AAXX 19181 40769 12960 02802 10012 21054 38406 40343 51010 60001 333 55083 21137
AAXX 19181 40785 12960 00000 10046 21030 39211 40337 52014 60001 333 55086
AAXX 19181 40809 12962 00803 11001 21088 38609 40346 50013 60001 333 55081 21198
AAXX 19181 40821 12965 02804 10068 21052 38908 40328 51010 60001 333 55092 21269
AAXX 19181 40831 12960 02902 10106 20043 30218 40226 53006 60001 333 55091
AAXX 19181 40706 11958 21002 11030 21055 38774 40384 51008 60001 71000 80001 333 55063 21109 82070
AAXX 19181 40718 11530 83003 10102 20098 30380 40350 51010 60001 71022 8552/ 333 55000 85625 88458
AAXX 19181 40732 11450 89901 10112 20079 30368 40343 51012 60001 71022 886// 333 55000 88715
AAXX 19181 40745 12970 01804 11030 21218 39223 40448 52017 60001 33 55037 20625
AAXX 19181 40754 12960 03102 10068 21016 38956 40326 52009 60001 333 55081
AAXX 19181 40766 12960 00902 10054 21071 38772 40292 53006 60001 333 55088 21159
AAXX 19181 40800 12960 00000 10030 21041 38558 40323 53011 60001 333 55090 2////
AAXX 19181 40811 12960 02502 10126 20077 30188 40216 51007 60001 333 55095 21272
AAXX 19181 40841 12960 03604 10036 21045 38340 40303 51005 60001 333 55094 21460
AAXX 19181 40848 12962 00000 10038 21051 38594 40264 51015 60001 333 55095 21466
AAXX 19181 40856 11950 03502 10048 21090 38710 40261 51006 60001 70500 333 55085 21170
AAXX 19181 40875 11950 03004 10188 21053 30201 40213 52020 60001 70500 333 55090 21449
AAXX 19181 40701 11/06 90000 11056 21063 38718 40413 51005 60001 74944 333 55000 89/20
AAXX 19181 40704 12970 00000 10000 21043 38723 40351 53010 60001 333 55082 21025
AAXX 19181 40708 11204 60000 11018 21020 38774 40338 50002 60001 74444 86600 333 55068 21064 86704
AAXX 19181 40710 12970 10000 11110 21122 38425 40449 55002 60001 80001 333 55081 81068
AAXX 19181 40713 11415 60000 11004 21015 38782 40367 51012 60001 71042 86600 333 55008 86725
AAXX 19181 40719 11535 80000 10100 20088 30354 40343 51003 60001 71022 8552/ 333 55000 85620 88458
AAXX 19181 40731 12960 00502 10041 21025 38859 40340 52008 60001 333 55081 21024
AAXX 19181 40738 11435 62402 10078 20074 30362 40364 51006 60001 71020 86600 333 55072 86717
AAXX 19181 40740 12960 01204 11042 21195 38884 40396 53009 60001 333 55085
AAXX 19181 40747 12960 00000 10002 21047 38724 40326 52009 60001 333 55073 20992
AAXX 19181 40757 12962 03102 10060 21030 39033 40339 53009 60001 333 55088 20574
AAXX 19181 40763 12965 00000 10002 21099 39051 40359 52016 60001 333 55085
AAXX 19181 40782 12965 00903 10062 21072 38950 40282 52010 60001 333 55087
AAXX 19181 40783 12965 00806 10040 21072 38070 40300 52012 60001 333 55091
AAXX 19181 40789 12965 00000 10064 21040 39338 40340 51010 60001 333 55090 21194
AAXX 19181 40798 12960 03205 11020 21123 38056 40364 52012 60001 333 55091 21289
AAXX 19181 40818 12970 02902 10006 21071 38062 40322 53005 60001 333 55092
AAXX 19181 40827 12965 00605 10036 21120 38925 40327 50006 60001 333 55092
AAXX 19181 40836 12965 09901 10040 21066 38256 40278 53009 60001 333 55094 21455
AAXX 19181 40851 12960 03303 10040 21068 38333 40269 51013 60001 333 55091
AAXX 19181 40853 12960 00308 10038 21089 37794 40220 51003 60001 333 55095
AAXX 19181 40854 12960 02803 10092 21053 39045 40264 53003 60001 333 55086
AAXX 19181 40857 12960 00000 10158 20117 30206 40216 51008 60001 222// 00/// 331// 40401 333 55085
AAXX 19181 40859 12962 00000 10094 21080 38768 40215 51006 60001 333 55096
AAXX 19181 40878 12958 00209 10089 21089 38897 40247 52009 60001 333 55096
AAXX 19181 40879 11958 03102 10145 21043 39559 40246 53022 60001 70500 333 55090
AAXX 19181 40883 11956 03604 10192 20074 30172 40195 51005 60001 70500 333 55093
AAXX 19181 40898 12960 00000 10222 21026 30172 40181 51012 60001 222// 00241 11200 333 55094 2////
AAXX 19181 38599 32997 82510 11092 21137 39894 40453 58002 84032 333 11054
BBXX C6SI6 19184 99318 11209 46/// /1207 10076 20028 40300 58006 7//// 8//// 22200 0//// 2////
BBXX MGPU2 19183 99420 11345 41297 62724 11050 21096 40288 54000 70322 8/7// 22221 00034 2//// 332// 40307 5//// 81060
BBXX SHIP 19183 99333 11284 41/98 53521 10070 20050 40275 52015 70221 8//// 22213 00195 2//// 3//// 4//// 5//// 6//// 80060 ICE /////
BBXX UFLC 19180 99427 11328 42/98 93410 11070 40288 52004 89/// 22262 06040 20302
AAXX 19181 28216 31597 81806 11114 21142 30078 40379 57005 77172 885// 333 11103
AAXX 19181 28428 32598 82105 11088 21168 30242 40440 57012 885// 333 11101
AAXX 19181 28451 32996 02304 11093 21184 30295 40465 57014 333 11071
AAXX 19181 28541 32984 62702 11082 21193 39954 40477 57013 80001 333 11070
AAXX 19181 28655 32998 02303 11178 21208 30268 40514 57011 333 11139
AAXX 19181 28756 32997 02103 11196 21224 30376 40542 57005 333 11174
AAXX 19181 29557 41496 82904 11117 21152 30109 40392 52016 78583 883//
AAXX 19181 29625 41598 52605 11146 21159 30235 40428 52004 73632 85500
AAXX 19181 29813 42999 82404 11165 21178 30254 40449 58001 8805/
AAXX 19181 29822 42997 82304 11172 21191 30287 40466 58003 8802/
AAXX 19181 29915 41498 82605 11175 21194 30320 40494 54000 73631 889// 333 88914
AAXX 19181 36020 41998 32105 11186 21198 30282 40503 53010 70281 83030
BBXX FLAO 1918/ 99764 70847 46/// ///// 11205 49965 52007
BBXX MINFR00 1918/ 99314 70800 46/// ///// 10178 40262 57022
AAXX 19184 60686 12960 20509 10192 21029 40169 57003 60002 80002 333 10255 82073
AAXX 19181 23226 12460 82007 11064 21100 39976 40198 57009 69900 885// 333 11061 88617
AAXX 19181 23701 11584 81803 11062 21089 30097 40232 56003 70232 885// 333 11051 88621
AAXX 19181 28909 31999 81506 11101 21154 30355 40463 54000 70232 8802/ 333 11100 91112
AAXX 19184 60595 36/'/ /0000 11451 333 11451
AAXX 19184 60381 16/// /2102 10084 20058 60072 333 10132
BBXX DBBH 19181 99368 70117 41398 10407 10145 20053 40297 52006 70100 81200 22251 04180 20602 332// 41103
AAXX 19181 06590 12258 72103 11003 21011 39733 40199 58002 60002 876// 333 10007 42/// 85706 87710 91106 91204
AAXX 19181 56146 32980 00000 11071 21148 36746 52008 333 00201 10082
AAXX 19181 56444 32980 02702 11060 21100 36821 52004 333 00000 10072
AAXX 19181 56492 31730 80000 10072 20047 39862 40281 52002 71000 885// 333 00051 10078
AAXX 19181 56571 32980 00701 10061 20000 38394 52009 333 05102 10198
AAXX 19181 57799 32968 80000 10058 21001 30176 40267 57005 8807/ 333 10129
AAXX 19181 57866 32965 73202 10081 20001 30049 40260 57007 87040 333 10112
AAXX 19181 57957 32760 70202 10105 21006 30050 40251 52003 875// 333 10143
AAXX 19181 57993 32960 00901 10059 20031 30089 40259 54000 333 10159
AAXX 19181 58027 31958 00000 11018 21067 30250 40303 57002 71000 333 10074
AAXX 19181 58141 31920 00701 10008 21016 30284 40304 57006 71000 333 10083
AAXX 19181 58265 31956 01101 10019 20001 30296 40304 57001 71000 333 10092
AAXX 19181 58472 32980 60203 10085 20033 30196 40293 57005 86040 333 10099
AAXX 19181 58477 32980 50701 10095 20030 30236 40281 57008 85040 333 10130
AAXX 19181 58527 32960 70000 10067 20010 30190 40268 52004 8704/ 333 10133
AAXX 19181 58633 31956 70702 10076 20029 30165 40268 57009 70500 8704/ 333 10098
AAXX 19181 58666 32770 83607 10102 20069 30166 40270 57008 885// 333 10106
AAXX 19181 58725 32765 82201 10088 20052 39991 40256 57001 885// 333 10172
AAXX 19181 58921 31956 72001 10104 20083 30000 40250 52003 71000 8703/ 333 10177
AAXX 19181 59082 31957 01603 10052 20031 30097 40247 52003 71000 333 10172
AAXX 19181 59211 31958 71402 10161 20071 39990 40197 52001 70500 8703/ 333 10191
AAXX 19181 59265 31856 70702 10121 20055 30084 40224 52001 71000 875// 333 10187
AAXX 19181 59293 32963 42901 10099 20053 30140 40227 52002 84040 333 10193
AAXX 19181 59501 32762 70402 10154 20100 30187 40208 57007 875// 333 10208
AAXX 19181 59663 31958 00405 10134 20040 30099 40208 54000 70500 333 10198
AAXX 19181 59838 32962 00703 10174 20133 30164 40174 57009 333 10243
AAXX 19181 59948 32370 70404 10172 20131 39682 40169 57015 871// 333 10206
AAXX 19181 59981 11570 80705 10236 20213 30121 40128 57024 60021 70080 888// 333 10241
AAXX 19181 26695 32997 02004 10002 21028 39926 40240 52014 69902 333 10013
AAXX 19181 40700 11556 82405 10044 20029 30266 40358 51010 60001 71021 886// 333 55040 88720
AAXX 19181 40723 12960 00000 11010 21132 39072 40402 52011 60001 333 55078 21089
AAXX 19181 40726 11620 80000 10010 21011 38770 40350 51004 60001 710WW 8452/ 333 55000 84635 88458
AAXX 19181 40727 11/04 93403 11020 21023 38591 40367 51012 60001 74540 333 55063 20911 89/20
AAXX 19181 40734 11457 70000 10088 20071 30371 40345 51006 60001 71022 86610 333 55000 84712 83630 87458
AAXX 19181 40737 12660 80000 10094 20086 30324 40342 57004 60001 8252/ 333 55050 2//// 82640 88459
AAXX 19181 40741 12960 00000 11051 21101 30126 40490 51019 60001 333 55066
AAXX 19181 40780 12960 00803 10058 21105 38748 40250 51004 60001 333 55088 21213
AAXX 19181 40791 12965 01203 10094 21039 39481 40327 52016 60001 333 55092
AAXX 19181 40792 12970 00305 10038 21125 38832 40325 51016 60001 333 55090
AAXX 19181 40794 12960 00000 10096 20061 30120 40220 52007 60001 91745 333 55090 2////
AAXX 19181 40812 12960 00000 10128 20030 39829 40210 51005 60001 333 55092
AAXX 19181 40829 11905 03316 10056 21147 39684 40270 53010 60001 73130 333 55082 QNT:21MPS
AAXX 19181 40833 12960 03302 10100 20041 30191 40224 53007 60001 333 55091
AAXX 19181 40835 12965 00000 10100 20011 39389 40231 52014 60001 333 55094
AAXX 19181 40845 NIL
AAXX 19181 40882 11957 00000 10204 20146 30169 40204 52013 60001 70500 333 55091
AAXX 19181 40889 NIL
AAXX 19181 40890 NIL
AAXX 19181 40893 11958 00604 10220 20034 30197 40203 52017 60001 70500 222// 00/// 20400 333 55092
AAXX 19181 40897 NIL
BBXX 46241 19181 99330 71173 46/// ///// 1//// 91741 22200 00142 11502 20701 326// 41501 70009
BBXX 46249 19181 99338 71197 46/// ///// 1//// 91812 22200 00148 11402 21001 326// 41402 70011
BBXX 46248 19181 99461 71247 46/// ///// 1//// 91804 22200 00097 11305 21003 329// 41304 70025
BBXX 46244 19181 99409 71244 46/// ///// 1//// 91805 22200 00097 11408 20806 329// 41405 70038
AAXX 19181 27051 11496 81905 10006 21014 30015 40183 58012 69920 78583 8495/ 333 11010
AAXX 19181 23205 11498 82005 11051 21076 30115 40130 57003 69940 70282 883// 333 11046 85618 91110
AAXX 19181 23219 31998 82008 11055 21093 30088 40197 58008 73633 8802/ 333 11056
AAXX 19181 22583 32484 71602 11041 21060 30069 40152 58005 875// 333 11044 87615
BBXX 46240 19181 99366 71219 46/// ///// 1//// 91812 22200 00123 11302 21001 335// 41302 70012
BBXX 46237 19181 99378 71226 46/// ///// 1//// 91810 22200 00112 11506 20903 325// 41505 70030
BBXX 46212 19181 99408 71243 46/// ///// 1//// 91812 22200 00098 11407 21005 331// 41405 70036
BBXX 46217 19181 99342 71194 46/// ///// 1//// 91812 22200 00145 11302 21001 326// 41301 70009
BBXX 46216 19181 99343 71198 46/// ///// 1//// 91757 22200 00144 11402 20602 326// 41402 70012
BBXX 46223 19181 99335 71178 46/// ///// 1//// 91800 22200 00152 11502 20702 328// 41502 70011
AAXX 19181 40716 12960 03002 10028 21033 39035 40353 52010 60001 333 55076
AAXX 19181 40719 11535 80000 10100 20088 30354 40343 51003 60001 71022 8552/ 333 55000 85620 88458
AAXX 19181 40721 12960 01003 10104 21068 39793 40348 51007 60001 333 55077
AAXX 19181 40858 11957 00202 10170 20119 30203 40214 51008 60001 70500 333 55088
AAXX 19181 40872 12960 00000 10192 20074 30193 40198 51009 60001 222// 00/// 20000 333 55092
AAXX 19181 40877 12960 02405 10150 21035 39640 40185 52021 60001 333 55094
AAXX 19181 40898 12960 00000 10222 21026 30172 40181 51012 60001 222// 00241 11200 333 55094 2////
BBXX MINFR05 1918/ 99370 70125 46/// ///// 4//// 5////
AAXX 19184 60692 36/// /0402 10221 21102 333 10272
AAXX 19184 60691 36/// /0605 10227 21166 333 10275
AAXX 19184 60676 36/// /0306 10152 21028 333 10186
AAXX 19184 60661 36/// /0306 10127 21057 333 10169
AAXX 19181 89064 36/// /2304 10052 29082 49897 52005
AAXX 19184 60662 36/// /0000 10092 21021 333 10135
AAXX 19184 60667 36/// /0000 10138 :0000 333 10184
AAXX 19181 50353 32970 02001 11265 21297 30005 40249 57011 333 11162
AAXX 19181 50557 32970 00000 11244 21269 39944 40274 57007 333 11133
AAXX 19181 50756 32960 00000 11241 21260 39970 40298 57005 333 11146
AAXX 19181 50949 32965 02001 11149 21200 30113 40296 57007 333 11076
AAXX 19181 50963 32962 00000 11230 21258 30145 40295 57002 333 11113
AAXX 19181 50978 32980 02204 11173 21208 39921 40295 52005 333 11087
AAXX 19181 51087 32980 02201 11251 21278 39446 40530 52018 333 01260 11132
AAXX 19181 51156 32980 03202 11166 21211 38863 40484 52011 333 01100 11068
AAXX 19181 51644 32960 70201 11066 21106 39010 40333 52006 80002 333 00351 11022
AAXX 19181 51656 32975 00702 11015 21130 39172 40307 52004 333 00206 11008
AAXX 19181 51886 32980 20901 11117 21251 37102 57003 80002 333 00101 11028
AAXX 19181 52602 32980 02701 11161 21293 37265 57001 333 00253 10005
AAXX 19181 52713 32980 71602 11134 21226 36899 57012 80002 333 00100 11016
AAXX 19181 52754 32980 00202 11119 21246 36789 52002 333 00103 11005
AAXX 19181 52818 32980 01401 11096 21240 37224 57016 333 00251 11030
AAXX 19181 52836 32980 00901 11120 21250 36896 57016 333 00254 10028
AAXX 19181 52955 32980 01101 11116 21234 36976 52007 333 00103 10006
AAXX 19181 53068 32980 02701 11238 21268 39153 40422 57004 333 05101 11176
AAXX 19181 53276 32980 02205 11205 21254 38935 40396 57006 333 11108
AAXX 19181 54135 32980 02501 11142 21205 30076 40314 57004 333 11054
AAXX 19181 54236 32965 00000 11160 21199 30205 40318 57003 333 11030
AAXX 19181 54539 32965 03401 11040 21065 30305 40320 54000 333 10034
AAXX 19181 54662 32970 03401 11019 21104 30197 40316 54000 333 10021
AAXX 19181 54753 32960 01801 11004 21060 30307 40314 52001 333 10039
AAXX 19181 54857 31930 03402 10012 21024 30219 40315 54000 71000 333 10062
AAXX 19181 57067 31956 80201 10010 21039 39609 40306 57004 71000 8807/ 333 10064
AAXX 19181 57178 31950 70202 10037 21036 30135 40298 57006 71000 8703/ 333 10086
AAXX 19181 57245 32962 80902 10081 20001 39917 40273 52001 8807/ 333 05204 10116
AAXX 19181 57297 31958 02901 10010 21029 30145 40290 57006 71000 333 10094
AAXX 19184 89062 42384 80007 10029 21004 39820 49860 52015 886// 333 88707
AAXX 19184 40582 31958 02904 10117 21020 40235 51010 70500 333 55300 00000 10208 20000 30000 41104 51311 60000 55407 40000 90401 91005 91121 91215 91307
AAXX 19184 41150 NIL
AAXX 19184 41168 NIL
AAXX 19184 41170 41959 03107 10180 20132 30211 40224 70500 333 10243 58006
AAXX 19184 41176 NIL
AAXX 19184 41184 NIL
AAXX 19184 41194 NIL
AAXX 19184 41196 NIL
AAXX 19184 41198 NIL
AAXX 19184 41210 NIL
AAXX 19184 41216 NIL
AAXX 19184 41217 NIL
AAXX 19184 41218 NIL
AAXX 19184 41226 NIL
AAXX 19184 41244 36/// /0706 10205 20092 39843 48326 333 0E019 10268 59006
AAXX 19184 41246 32960 01305 10221 20127 30197 40202 333 10259 58018
AAXX 19184 41254 36/// /3502 10092 20061 37999 48004 333 0E009 10159 58010
AAXX 19184 41256 32560 31803 10226 20104 30195 40205 82530 333 10255 58021 82625
AAXX 19184 41258 36/// /2307 10238 20113 30192 40196 333 0E/// 10252 58021
AAXX 19184 41268 NIL
AAXX 19184 41312 36/// /0009 10265 20050 30135 40174 333 0E/// 10302 59000
AAXX 19184 41314 32960 03404 10177 20012 39697 40210 333 10256 58002
AAXX 19184 41316 32960 00207 10249 20018 30152 40178 333 10306 58000
AAXX 19184 41404 42960 09902 10121 21017 37901 48562 333 10216 58001
AAXX 19184 41407 NIL
AAXX 19184 41431 42960 01708 10256 20230 30134 40147 333 10290 58008
AAXX 19184 41466 42760 30000 10162 20128 38590 48491 83050 333 10264 58000 83356
AAXX 19184 41477 NIL
AAXX 19184 41480 42560 21009 10259 20182 30176 40179 81530 333 10293 58011 81820
AAXX 19181 10270 16460 82403 10026 20010 30104 40160 51010 69902 222// 06041 333 10027 20020 3/002 55300 88/15 88/50
AAXX 19184 41264 36/70 /0712 10212 20106 39804 40174 333 0E022 10268 58006
BBXX PJKV 19183 99348 70309 41598 81119 10190 20134 40302 57015 70222 885// 22254 20501 311// 40803 5//// 80158
BBXX SHIP 19183 99333 70134 41/98 40218 10159 20138 40256 53010 70100 8//6/ 22283 20304 80146
BBXX 63110 19183 99595 10015 41/98 /1610 10049 40005 700// 8//// 22200 10704 70020
BBXX 62029 19184 99487 70125 46/// /3016 10119 20110 40212 53016 22200 00130 10605 70024
BBXX 62301 19184 99524 70047 46/// /3009 10099 20067 40116 53026 22200 00093 10604 70019
BBXX 62303 19184 99516 70051 46/// /2816 10115 20094 40128 53018 22200 00109 10605 70027
BBXX 64046 19184 99606 70049 46/// /1519 10059 20040 49956 57016 22200 00078 10606 70028
BBXX 62001 19184 99453 70050 46/// /2621 10130 20081 40250 52006 22200 00143 10505 70026 333 90710 91128
BBXX 62163 19184 99475 70084 46/// /2814 10124 20113 40208 53003 22200 00127 10605 70025
BBXX 62442 19184 99490 70164 46/// /3009 1//// 2//// 40236 53018 22200 00127
BBXX 62081 19184 99510 70134 46/// ///// 10108 20070 40204 52023 22200 00119 10606 70028
BBXX 62105 19184 99554 70122 46/// /2823 10093 20064 40116 53014 22200 00105 10607 70035 333 90710 91133
BBXX 64045 19184 99591 70117 46/// /2925 10054 20022 40028 53023 22200 00102 10707 70037 333 90710 91144
BBXX 62027 19184 99491 70022 46/// /3025 1//// 2//// 40148 57013 22200 00112 10705 334// 70025 333 90710 91131
BBXX AMOUK08 19184 99501 70061 46/// ///// 10113 20108 30148 40153 54003 91750
BBXX AMOUK05 19184 99520 10042 46/// ///// 10028 20021 30065 40100 57020 91750
BBXX AMOUK27 19184 99579 70053 46/// ///// 11185 2//// 39981 49984 52011 91750
BBXX AMOUK06 19184 99512 10016 46/// ///// 10087 20064 30080 40097 57027 91750
BBXX AMOUK19 19184 99602 70012 46/// ///// 10043 21030 39991 49996 57022 91750
BBXX AMOUK09 19184 99520 10019 46/// ///// 10076 20055 30074 40090 57037 91750
BBXX AMOUK12 19184 99534 70058 46/// ///// 10098 20072 30073 40112 52006 91750
BBXX AMOUK03 19184 99513 10032 46/// ///// 10030 20024 30088 40118 57022 91750
BBXX AMOUK10 19184 99509 10010 46/// ///// 10078 20062 30103 40099 57036 91750
BBXX AMOUK14 19184 99535 70052 46/// ///// 10099 20067 30063 40096 54001 91750
BBXX 62111 19184 99580 70003 46/// /1909 10062 20029 49992 57025 22200 10604 70020
BBXX PJAI 19184 99581 70014 47499 /2214 10060 20021 49978 57022 700// 22200
BBXX 62112 19184 99584 70002 47498 /1513 10058 20013 49995 57024 762// 22200
BBXX 63056 19184 99597 10016 47799 /1805 10047 21057 40000 58012 700// 22200 10805 70024
BBXX 63110 19184 99595 10015 47799 /1709 10050 21051 40009 57012 700// 22200 10704 70021
BBXX 63057 19184 99592 10015 46/// ///// 22200
BBXX 62128 19184 99587 10014 47699 /1508 10048 21002 40010 57016 700// 22200 10704 70021
BBXX 63055 19184 99606 10016 47299 /1803 10022 21021 40009 56008 700// 22200 10704 70021
BBXX 63108 19184 99608 10017 47698 /1707 10040 21017 40002 57009 700// 22200 10804 70020
BBXX 63106 19184 99610 10017 46/// /1811 10038 40008 57009 22200
BBXX 63105 19184 99610 10017 47598 ///// 10044 21013 40008 57008 751// 22200
BBXX 63113 19184 99610 10017 46/// /1507 10036 21010 40009 57009 22200 10704 70022
BBXX 63112 19184 99611 10010 47699 /2111 10045 21064 40001 57010 700// 22200 10705 70024
BBXX 63107 19184 99611 10017 46/// /1806 10044 40006 57010 22200
BBXX 63101 19184 99612 10009 46/// /2011 10039 21054 40004 57008 22200
BBXX 63103 19184 99612 10011 46/// /1911 10045 21056 40004 57013 22200 10704 70021
BBXX 63104 19184 99612 10016 47599 /1808 10046 21032 40006 57010 700// 22200
BBXX 63117 19184 99613 10011 47699 /1909 10049 21066 40007 57009 700// 22200
BBXX 63115 19184 99616 10013 47698 /1706 10112 21014 40003 57012 700// 22200 10705 70023
BBXX MWYG6 19184 99603 70040 47496 /1514 10049 762// 22200
BBXX 64041 19184 99607 70026 47698 /1314 10052 21026 49980 57015 700// 22200 10705 70024
BBXX 62146 19184 99572 10021 47/99 /1706 10054 20000 40017 57021 751// 22200 10805 70024
BBXX 62164 19184 99572 10008 47397 /1611 10062 20037 40006 57026 700// 22200 00095 10704 70022
BBXX PJGO 19184 99571 10022 47397 /2003 10058 20014 40021 57021 751// 22200
BBXX 62133 19184 99571 10009 46/// /1611 10079 20033 40010 57023 22200
BBXX 62119 19184 99570 10019 47498 /1610 10058 20013 40017 57023 700// 22200 10705 70023
BBXX 62152 19184 99570 10018 47/98 /1512 10058 20008 40018 57023 700// 22200 10605 70026
BBXX 62154 19184 99564 10022 46/// /1712 10053 20028 40022 57024 22200
BBXX 62120 19184 99564 10021 47397 /1711 10066 20027 40022 57024 761// 22200
BBXX 62132 19184 99564 10020 46/// /2210 10061 20029 40019 57025 22200
BBXX 62123 19184 99563 10022 47396 /1610 10062 20015 40024 57024 762// 22200
BBXX 62165 19184 99540 10009 47397 /2220 10056 20039 40050 57028 762// 22200 10504 70019
BBXX 62127 19184 99540 10007 47297 ///// 10053 20039 40045 57028 762// 22200 10503 70017
BBXX 62131 19184 99539 10012 46/// /21// 10058 20040 40051 57029 22200
BBXX 62149 19184 99537 10011 47397 /2223 10056 20041 40056 57028 761// 22200 10503 70016
BBXX 62148 19184 99536 10015 46/// /2118 10052 20035 40063 57030 22200
BBXX 62150 19184 99536 10007 47295 /2222 10049 20035 40062 57027 763// 22200 10503 70015
BBXX 62121 19184 99535 10027 46/// ///// 22200
BBXX 62144 19184 99534 10017 47398 /2020 10050 20034 40063 57034 700// 22200 10403 70014
BBXX 62145 19184 99531 10028 47498 /2021 10064 20028 40079 57027 751// 22200 10504 70018
BBXX 62142 19184 99530 10021 47397 /2219 10053 20036 40072 57030 751// 22200 10402 70012
BBXX ZQSD5 19184 99583 10007 46/// /1608 10061 20003 40011 57020 22200 11005 70026
BBXX 62114 19184 99583 10000 46/// /1514 10057 20010 49995 57025 22200
BBXX 62134 19184 99580 10014 47599 /1810 10052 20005 40012 57019 700// 22200 10805 70023
BBXX 62113 19184 99584 10002 47599 /1612 10053 20001 49995 57024 700// 22200
BBXX 62129 19184 99584 10003 46/// ///// 10057 20003 49996 57024 22200
BBXX 62102 19184 99579 10018 46/// /1711 10051 21006 40016 57018 22200 10705 70023
BBXX 62117 19184 99579 10000 47296 /1511 10063 20018 49997 57025 762// 22200 10704 70018
BBXX 62143 19184 99577 10018 47598 /1809 10055 21011 40015 57020 700// 22200 10705 70026
BBXX 62118 19184 99577 10009 47698 /1509 10052 20021 49999 57023 752// 22200 10704 70019
BBXX 62155 19184 99577 10007 47496 /1612 10056 20019 40005 57024 762// 22200 10704 70020
BBXX 62116 19184 99576 10011 47497 /1711 10050 20016 40010 57020 752// 22200 10704 70022
BBXX 62104 19184 99574 10013 47497 /1811 10056 20008 40009 57022 740// 22200
BBXX 62153 19184 99573 10020 47599 /1810 10057 20005 40018 57021 700// 22200 10805 70023
BBXX 62122 19184 99573 10016 47498 /1710 10058 20007 40014 57021 762// 22200 10805 70025
BBXX 62140 19184 99573 10013 46/// /18// 10057 20008 40012 57022 22200
BBXX 62304 19184 99511 10018 46/96 /1722 10064 20052 40103 58033 22200 00112 10501 70007 333 90710 91126
BBXX 64046 19184 99591 70117 46/// ///// 10054 20022 40028 53023 22200 00102 10707 70037
BBXX 62170 19184 99514 10020 46/96 /1724 1//// 2//// 40104 58032 22200 10601 70005 333 90710 91130
BBXX 62105 19184 99554 70122 46/// /2823 10093 20064 40096 53014 22200 106//
BBXX 62103 19184 99499 70029 46/97 /2929 10117 20103 40120 56017 22200 00122 10704 70021 333 90710 91142
BBXX 62305 19184 99504 10000 46/95 /2522 10099 20095 40111 58032 22200 00119 10602 70008 333 90710 91129
BBXX 62163 19184 99455 70084 46/// /2814 10124 20113 40208 53001 22200 00125 10605 70025
BBXX 62094 19184 99517 70067 46/// /29// 10111 20088 4//// 5//// 22200 00107 10504 70018
BBXX DGUG2 19184 99348 70161 41598 70418 10165 20094 40295 53005 70322 86830 22254 04200 20803 80125
BBXX 64049 19183 99571 10022 41/97 52411 10060 20044 40018 57014 70222 8//// 22200 04092 20604 330// 40606 5//// 80053
BBXX 63119 19184 99583 10009 41/97 81514 10056 21003 49996 58/// 702// 8//// 22200 2//// 301// 40502 5////
BBXX V2NA1 19184 99426 70332 41998 61819 10185 20136 40253 54000 70122 80008 22224 04140 20404 323// 40804 80155
BBXX 62103 19184 99499 70029 46/98 /2929 10118 20105 40122 55003 22200 00122 10705 70024 333 90710 91141
BBXX 62107 19184 99501 70061 46/// /3121 10109 20099 40153 52012 22200 00116 10704 70020 333 90710 91130
BBXX 62095 19184 99530 70159 46/// /2915 10102 20070 40190 52021 22200 00113 10605 70027
BBXX 62303 19184 99516 70051 46/// /2817 10115 20094 40128 53018 22200 00109 10605 70027
BBXX 62094 19184 99517 70067 46/// /2916 10111 20088 40140 52019 22200 00107 10503 70017
BBXX 62169 19183 99614 10014 41/98 81814 10050 20003 40034 57020 70222 88/// 22200 20401 3//// 4//// 5//// 80032
AAXX 19181 29998 42999 02102 11270 21288 38660 48510 57012 80002
AAXX 19181 30385 41999 50000 11270 21282 39632 40216 57013 70272 85030
AAXX 19181 30469 429// 80000 11287 21299 39407 40242 57023 8802/
AAXX 19181 30636 419// 82602 11101 21105 39585 40210 57023 77377 8802/
AAXX 19181 30650 42984 82302 11238 21256 39069 40277 57023 83042
AAXX 19181 30664 42999 31202 11195 21201 39179 40228 57017 82041
AAXX 19181 30781 42999 00000 11209 21243 39743 40270 57012
AAXX 19181 30777 42998 02502 11234 21253 39555 40263 57018
AAXX 19181 30844 42999 00000 11317 21329 39282 40384 57018
AAXX 19181 30925 429// 21903 11210 21235 39312 40364 57012 80005
AAXX 19181 31371 42999 30501 11263 21294 39957 40248 58010 83030
AAXX 19181 31388 42984 00000 11353 21371 39978 40280 57003
AAXX 19181 31478 NIL
AAXX 19181 31532 42999 00000 11363 21378 39919 40314 52008
AAXX 19181 31594 42999 00000 11312 21330 30079 40272 53004
AAXX 19181 31655 42998 01802 11230 21243 30182 40234 58003
AAXX 19181 31754 42999 00000 11347 21359 39721 40295 52005
AAXX 19184 16627 11456 80210 10120 20116 30133 40136 51006 60612 76396 8777/ 333 10120 83712 87620 88358 90730 91120 555 10000 40070 30000 10104 20098 30100 40100 50112 6//// 40000 47631 44230 50000 50118 60000 60606 61200 70000 77R// 7TR//
AAXX 19181 22282 115// 82112 11012 21034 30057 40067 54000 69920 70282 885// 333 11018
AAXX 19181 22438 11564 80909 11007 21007 39993 40014 52003 60020 70272 885// 333 10016
AAXX 19181 91945 36/// /0706 10289 20231 30152 40157 51016
AAXX 19181 23929 31979 82204 11094 21163 30291 40361 57018 70232 80001 333 11062
AAXX 19181 28791 12998 02504 11189 21208 30335 40495 57005 69900 333 11180
AAXX 19181 28586 12997 02503 11169 21188 30304 40466 52001 69900 333 11146
AAXX 19181 28465 32998 01902 11193 21212 30399 40486 57003 333 11150
BBXX 51205 19181 99210 71564 46/// ///// 1//// 91818 22200 00242 10806 20806 332// 41302 70031
BBXX 46114 19181 99364 71222 46/// ///// 1//// 91804 22200 00124 11507 20804 330// 41506 70036
AAXX 19181 28383 32997 02203 11141 21154 30344 40435 52008 333 11108
AAXX 19181 28588 12997 02503 11173 21192 30310 40486 54000 69900 333 11153
AAXX 19181 28696 12997 02305 11186 21205 30321 40475 52001 69900 333 11168
BBXX 42362 19181 99278 70907 46/// /1408 10250 20106 40193 91815
BBXX 42363 19181 99282 70892 46/// /1507 10206 20089 40214 91815 333 91208
BBXX 42364 19181 99291 70881 46/// /1608 10200 20117 40217 91815
BBXX 41115 19181 99184 70673 46/// ///// 1//// 91805 22200 11203 21002 302// 41202 70015
BBXX 41114 19181 99276 70802 46/// ///// 1//// 91816 22200 00235 10603 20603 307// 41101 70015
AAXX 19181 38847 3//// /1903 11025 21043 39560 40360 333 10007 777 92087
AAXX 19181 38388 32998 00706 11076 21158 30420 40497 58001 333 11031
AAXX 19181 38392 32997 00303 11114 21186 30409 40523 52008 333 11019
AAXX 19181 38507 32996 00808 10004 21219 30264 40371 58003 333 10091
AAXX 19181 38511 32998 00707 11059 21170 30307 40459 52009 333 11003
AAXX 19181 38545 32998 00104 11094 21151 30303 40495 52012 333 11038
AAXX 19181 38647 32997 00912 11033 21180 30360 40405 52001 333 10034
AAXX 19181 38656 32998 00703 11057 21100 30361 40480 52001 333 10010
AAXX 19181 38687 32996 03605 11088 21160 30212 40469 52011 333 11018
AAXX 19181 38750 32997 03603 10037 21040 30372 40343 58002 333 10109
AAXX 19181 38763 32997 00911 11028 21168 30312 40424 52002 333 10032
AAXX 19181 38774 32995 01404 11038 21120 30265 40475 58001 333 10026
AAXX 19181 38799 32997 00000 11069 21182 30222 40474 52012 333 11001
AAXX 19181 38806 32997 03204 11067 21126 30164 40437 52015 333 10013
AAXX 19181 38880 32997 01104 11037 21184 30199 40473 50002 333 10026
AAXX 19181 38886 31996 00000 11068 21088 30233 40481 52016 71000 333 10005
AAXX 19181 38895 32996 03401 11060 21128 30168 40482 52015 333 10000
AAXX 19181 38911 32997 02705 11052 21067 30106 40422 52020 333 10044
AAXX 19181 38915 32997 02806 11038 21005 30059 40403 52013 333 10022
AAXX 19181 38974 32998 03202 11055 21089 30122 40480 52058 333 11011
AAXX 19181 38987 22596 80205 11047 21067 39670 40465 52017 885// 333 69940 11009
AAXX 19184 82586 32598 30508 10347 20198 39830 40064 83200 333 58001
AAXX 19184 82678 32596 70502 10352 20203 39946 40084 84200 333 58013
AAXX 19184 82784 32598 61803 10334 20243 39633 40081 333 58008
AAXX 19184 82791 32599 60505 10351 20187 39796 40070 86200 333 58004
AAXX 19184 82983 32598 31404 10348 20204 39669 40074 82105 333 58003
BBXX 51203 19181 99208 71570 46/// ///// 1//// 91813 22200 00248 11102 20901 324// 41101 70008
BBXX 52200 19181 99134 11448 46/// ///// 1//// 91815 22200 00286 11005 21005 309// 41101 70027
BBXX 51201 19181 99217 71581 46/// ///// 1//// 91812 22200 00242 10804 20804 332// 41302 70020
BBXX 41029 19181 99328 70796 46/// /1002 1//// 91800 555 11025 22028
BBXX 44098 19181 99428 70702 46/// ///// 1//// 91807 22200 00089 10504 20504 309// 41101 70020
AAXX 19184 78988 02486 41011 10285 20215 30119 40129 57022 60001 84801 333 58008 60007 84818
AAXX 19184 78990 02582 31014 10298 20206 30130 40137 57021 60001 83201 333 58009 60007 83822
AAXX 19184 78873 NIL
BBXX 46231 19181 99327 71174 46/// ///// 1//// 91754 22200 00146 11503 20702 328// 41502 70014
BBXX 46222 19181 99336 71183 46/// ///// 1//// 91756 22200 00150 11402 20602 327// 41401 70011
BBXX 46242 19181 99332 71174 46/// ///// 1//// 91758 22200 00144 10601 20601 325// 41401 70007
BBXX 46221 19181 99339 71186 46/// ///// 1//// 91745 22200 00149 11402 20701 326// 41401 70008
AAXX 19181 28688 12997 02403 11198 21217 30322 40499 54000 69900 333 11178
AAXX 19184 04048 21458 82616 11003 21024 49937 52002 78588 8696/ 333 10022 21017 69968 555 3/637
BBXX 3EIU9 19184 99107 11206 41298 10616 10270 20240 40100 50015 70001 811// 91740 22282 00264 1//// 2//// 306// 40402 5//// 6//// 80250 /////
BBXX SHIP 19184 99214 11219 41398 70623 10220 20183 40175 56019 70222 864// 22254 00254 80195
BBXX DGTX 19183 99330 11733 41/98 /3019 10195 20164 40105 53005 70382 8//// 22264 00240 2//// 80175
BBXX A8XD5 19184 99423 11736 41/97 63025 10050 21008 40061 53032 701// 8//// 22223 04090 20606 329// 41808 80026
BBXX A8JX8 19181 99455 11699 41297 62810 10040 20017 40000 54000 75671 84625 22224 2//// 327// 4//06 5//// 64011 80030
BBXX SHIP 19184 99478 11556 41598 52927 10000 21027 40036 56002 70222 85/// 91800 22214 00020 2//// 3//// 4//// 80000
BBXX A8JX9 19183 99534 11714 41/97 /0324 11031 21031 49796 53031 70000 8//// 22264 299// 3//// 4//// 5//// 81031
BBXX VRGW3 19183 99254 11208 41597 60804 10153 20110 40219 58013 70222 86468 22254 20604 80128
BBXX PDHW 19183 99454 70280 41297 82420 40261 52020 71042 887// 22263 20602 325// 41206
BBXX SHIP 19184 99227 71580 41497 50826 10235 20184 40195 52018 70380 83360 22200 04238 20404 31003 40704 50704
BBXX SHIP 19184 99227 71580 41497 50826 10235 20184 40195 52018 70380 83360 22200 04238 20404 31003 40704 50704
BBXX AUTQ 19184 99501 70009 42/97 92711 10110 20072 40076 56028 70201 89/// 22224 00140
AAXX 19184 62309 32960 02403 10140 20123 40170 52010 333 10206
AAXX 19184 62325 32960 00000 10182 20163 40172 52009 333 10250
AAXX 19184 62332 32960 00802 10182 20170 40172 52010 333 10214
AAXX 19184 62387 31920 00000 10133 20095 40175 52011 71000 333 10227
AAXX 19184 62459 32960 00000 10198 20066 40165 52009 333 10229
AAXX 19184 62452 32960 01505 10132 21021 40192 52010 333 10252
AAXX 19184 62357 32960 00000 10140 20123 40168 52007 333 10198
AAXX 19184 62423 32960 02202 10126 20056 40191 52014 333 10215
AAXX 19184 62403 32960 00000 10170 20087 40171 52015 333 10266
BBXX SHIP 19184 99130 31169 41/97 81810 10288 20261 40046 57015 76096 8//// 22261 00306 10702 80268
BBXX SHIP 19184 99277 31083 41498 21618 10203 20141 40123 56019 70100 81109 22232 00222 11205 20202 314// 41004
AAXX 19184 62309 32960 02403 10140 20123 40170 52010 333 10206
AAXX 19184 62325 32960 00000 10182 20163 40172 52009 333 10250
AAXX 19184 62332 32960 00802 10182 20170 40172 52010 333 10214
AAXX 19184 62387 31920 00000 10133 20095 40175 52011 71000 333 10227
AAXX 19184 62459 32960 00000 10198 20066 40165 52009 333 10229
AAXX 19184 62452 32960 01505 10132 21021 40192 52010 333 10252
AAXX 19184 62458 32960 00000 10168 20058 40155 52005 333 10238
AAXX 19184 62420 32960 00000 10138 20064 40178 52009 333 10234
AAXX 19184 62432 32960 00000 10118 20071 40179 52013 333 10220
AAXX 19184 62435 32960 03301 10134 20040 40166 52009 333 10262
AAXX 19184 62455 32960 00000 10162 20056 40158 52015 333 10238
AAXX 19184 62476 32960 00000 10222 20196 40153 51015 333 10256
AAXX 19184 62357 32960 00000 10140 20123 40168 52007 333 10198
AAXX 19184 62423 32960 02202 10126 20056 40191 52014 333 10215
AAXX 19184 62403 32960 00000 10170 20087 40171 52015 333 10266
AAXX 19184 62458 32960 00000 10168 20058 40155 52005 333 10238
AAXX 19184 62420 32960 00000 10138 20064 40178 52009 333 10234
AAXX 19184 62432 32960 00000 10118 20071 40179 52013 333 10220
AAXX 19184 62435 32960 03301 10134 20040 40166 52009 333 10262
AAXX 19184 62455 32960 00000 10162 20056 40158 52015 333 10238
AAXX 19184 62476 32960 00000 10222 20196 40153 51015 333 10256
BBXX SHIP 19184 99130 31169 41/97 81810 10288 20261 40046 57015 76096 8//// 22261 00306 10702 80268
BBXX SHIP 19184 99277 31083 41498 21618 10203 20141 40123 56019 70100 81109 22232 00222 11205 20202 314// 41004
AAXX 19181 21432 NIL
AAXX 19181 21824 41996 80000 11248 21260 30241 40251 54000 77173 8807/
AAXX 19181 21908 42998 03601 11416 21437 30206 40300 52004
AAXX 19181 21921 41998 80000 11342 21371 30198 40248 57009 70272 8805/
AAXX 19181 21931 41997 80000 11252 21284 30208 40242 53006 77172 8805/
AAXX 19181 21946 41498 80303 11305 21327 30163 40250 54000 77871 885// 333 88613
AAXX 19181 21982 31694 83618 11196 21215 30075 40104 58021 73931 8353/ 333 21246 48010 91121
AAXX 19181 25062 32997 02602 11300 21330 30162 40166 58003 333 21309 48040 91105
AAXX 19181 25123 42996 21501 11371 21401 30171 40208 53002 82030
AAXX 19181 25138 42699 70000 11393 21422 30069 40209 54000 84531 333 91101
AAXX 19181 25173 11396 33108 11274 21291 30125 40130 80008 69922 73731 83600 333 21280 48072 91113 96110
AAXX 19181 25248 41998 80000 11344 21367 39678 40178 53004 70272 8803/ 333 91102
AAXX 19181 25282 11/06 93512 11223 21234 30032 40038 53008 69980 73933 333 21225 48008 91118 92992
AAXX 19181 25325 NIL
AAXX 19181 25356 31998 33406 11227 21283 39969 40074 54000 73631 81031 333 21241 48017 55000 91010
AAXX 19181 25399 11415 83507 11136 21149 39856 49865 52011 60010 77573 8872/ 333 21140 40040 55000 91110
AAXX 19181 25428 42937 00000 11465 21501 39836 40231 53001 71000 333 91101
AAXX 19181 25551 11998 80204 11191 21240 30028 40060 52005 69900 73673 83036 333 21192 47039 55000 91109
AAXX 19181 25563 11568 80410 11169 21188 39922 40002 52020 69932 8872/ 333 21173 48031 55000 91116
AAXX 19181 25594 31598 83406 11096 21122 39786 49937 52006 73632 885// 333 21097 49039 91116
AAXX 19181 25677 31494 83511 11156 21162 39939 49945 52005 73832 885// 333 21158 88618 91117
AAXX 19181 31054 42999 00000 11420 21448 39951 40268 57010
AAXX 19181 31123 42998 03101 11409 21438 39918 40297 57003
AAXX 19181 14216 12682 83003 10044 21054 39991 40145 52/// 69902 888// 333 10055 923// 924/8
AAXX 19181 14219 11510 80301 11032 21047 39134 48431 51/// 60082 77377 8802/ 333 11023 43029 93109
AAXX 19181 14232 11580 80103 10014 21001 30037 40176 52/// 60042 770// 8672/ 333 10017 41998
AAXX 19181 14234 11460 80306 10018 21012 39927 40179 51/// 60012 770// 8472/ 333 10025 91013 91503
AAXX 19181 14236 11450 80705 10018 21009 39965 40168 52/// 69982 77122 8472/ 333 10044
AAXX 19181 14244 11410 83502 10003 20001 30037 40170 52/// 60092 771// 8472/ 333 10007 43003 93103
AAXX 19181 14248 11730 80504 10007 20000 39992 40171 52/// 60072 77176 8252/ 333 10019 41998
AAXX 19181 14253 11550 80503 10004 21001 39983 40161 52/// 60122 77177 8802/ 333 10019 43004 93104
AAXX 19181 14256 11520 80205 11004 21006 39830 40158 52008 60082 77377 8772/ 333 10000 43019 93113
AAXX 19181 14280 11710 83603 10003 20001 30020 40132 53007 60042 7736/ 8802/ 333 10036 43001 93101
AAXX 19181 14308 12670 60207 10029 21060 39792 40152 51/// 60002 83410 333 10059
AAXX 19181 14321 12665 70103 10062 21042 30102 40127 52/// 69902 87800 333 10070 92322 92427
AAXX 19181 14370 11520 83301 10006 21007 30026 40138 52011 69982 77177 8672/ 333 10039
AAXX 19181 14382 11510 80202 10001 21004 30005 40128 53009 60022 77376 8572/ 333 10034 43003 93103
AAXX 19181 14428 11470 73501 10052 21014 30101 40108 52/// 60062 70296 86830 333 10065 92301
AAXX 19181 14441 11570 51603 10083 20065 30044 40069 53/// 60312 72166 85200 333 10102 92323
AAXX 19181 14452 NIL
AAXX 19181 14454 11670 60501 10066 20045 30021 40081 54/// 60102 71398 85960 333 10126 92312
AAXX 19181 14462 11570 73405 10048 20033 30094 40101 51/// 60092 7036/ 87800 333 10069
AAXX 19181 14328 11410 83502 11001 21006 39767 40173 53/// 60102 7717/ 8772/ 333 10007 43025 93123
AAXX 19184 61600 32960 73206 10242 20149 30117 40122 83082 333 10316 58011 83363 86073
AAXX 19184 61612 32960 30404 10304 21034 30106 40114 82082 333 10326 59008 82363
AAXX 19184 61627 32960 79292 19396 29928 3//// 4//// 86082 333 10340 5//// 86363
AAXX 19184 61630 32960 60000 10322 20111 30084 40103 86080 333 10360 59007 86363
AAXX 19184 61641 NIL
AAXX 19184 61666 32962 70000 10315 20203 30096 40104 80002 333 10345 58002 87073
AAXX 19184 61679 32962 63604 10326 20115 30107 40115 80002 333 10338 58008 86073
AAXX 19184 61687 32960 63608 10318 21020 30048 40105 80002 333 10345 58010 86073
AAXX 19184 61695 32960 53602 10292 20108 30087 40114 80002 333 10335 58011 85073
AAXX 19184 61697 32960 33006 10273 20183 30093 40108 80002 333 10324 58008 83073
AAXX 19184 61698 32960 52202 10330 20156 30086 40097 80002 333 10363 59003 85073
AAXX 19184 61699 32960 61604 10314 21020 39901 40091 80002 333 10336 58004 86073
AAXX 19184 65528 NIL
AAXX 19184 65536 NIL
AAXX 19184 65545 32956 0//// 10280 20224 39676 40102 333 10319 58003
AAXX 19184 65548 NIL
AAXX 19184 65555 NIL
AAXX 19184 65557 32956 3//// 10295 20224 39867 40106 80002 333 10/// 58017 83076
AAXX 19184 65560 32960 2//// 10290 20217 30782 40089 80002 333 10329 58009 82076
AAXX 19184 65562 32458 7//// 10317 20230 3//// 4//// 875// 333 10346 5//// 87615
AAXX 19184 65563 32956 50000 10278 20235 39859 40098 80002 333 10323 58006 85076
AAXX 19184 65578 NIL
AAXX 19184 65585 32456 5//// 10285 20241 3//// 4//// 81902 333 10315 5//// 81815 81923 85076 94930 94934 95831
AAXX 19184 65592 32458 5//// 10272 20242 30071 40094 82200 333 10306 58002 82815 84076 94901
AAXX 19184 65594 32460 72206 10283 20243 30068 40102 84502 333 10307 58002 84613 86080
AAXX 19184 65599 32460 3//// 10270 20249 30016 40090 82202 333 10306 58003 82815 94901
AAXX 19181 21432 42998 01202 11265 21297 30299 40320 57001
AAXX 19184 65306 32960 50404 10275 20090 39775 40109 80002 333 10349 58008 85076
AAXX 19184 65319 32958 50000 10293 20129 39587 40101 80002 333 10363 58002 85076
AAXX 19184 65330 31915 60000 10295 20103 39655 40093 70522 82032 333 10348 58006 82363 85076
AAXX 19184 65335 32958 50000 10305 20179 39871 40093 80002 333 10359 58010 85076
AAXX 19184 65344 32458 52206 10292 20247 30085 40096 81502 333 10317 58005 81612 85076
AAXX 19181 08535 32/// /9901 10100 20042 30206 40301 52010 333 10139 555 60005
BBXX A8AJ4 19184 99547 71750 41496 42730 10015 2//// 49860 54000 78377 8454/ 22263 04030 2//// 3//// 4//// 5//// 6//// 8//// ICE /////
BBXX C6SI4 19184 99547 71763 41496 32724 11030 21070 49870 51020 7//00 833// 22263 00020 2//// 3//// 4//// 5//// 6//// 86040 ICE 0/0//
BBXX DDZC2 19184 99359 71731 41397 61218 10161 20111 40185 56010 7//// 83110 22264 00170 2//03 333 // 4//06 5//// 80132
BBXX KEY796 19183 99571 71703 41/97 22399 00196 11005 21044 49834 53/// 722// 8//// 222// 00017 2//// 3//// 4//// 5//// 6//// 8//// ICE /////
BBXX NWS0003 19184 99539 71665 43/// /0000 10010 21026 49938 5//// 7//// 8//// 222// 0//// 2//// 3//// 4//// 5//// 6//// 8//// ICE /////
BBXX SHIP 19184 99413 71681 41797 52213 10100 20080 40181 51001 70300 8548/ 22224 00140 20308 327// 40206 5//// 6//// 80090 ICE /////
BBXX WJBU 19184 99589 71510 41298 80205 10039 21230 49991 5//// 70222 881// 22233 0//// 20602 3//// 4//// 5//// 6//// 81022 ICE /////
BBXX 46147 19181 99518 71312 46/// /2215 10094 40118 57013 22200 00081 11010 70052 333 91219
AAXX 19184 48429 31559 40205 10229 20160 30115 40122 57007 71011 81105 333 59018
BBXX 46001 19181 99563 71480 46/// /3101 10044 49997 53011 91750 22200 00049 11411 20301 300// 41410 70053 333 91203 555 11013 22014 31727 43604 61749 308013 325011 318012 320006 347006 032008
BBXX 46042 19181 99368 71224 46/// /3508 10109 40187 52004 91750 22200 00127 11607 20603 331// 41606 70033 333 91210 555 11085 22089 31742 43510 61749 354080 357077 358078 359075 359071 000063
BBXX 46207 19181 99509 71299 46/// /2114 10092 40174 57012 22200 00082 10808 70040 333 91217
BBXX A8IH2 19183 99304 71336 41699 50516 10195 20110 40280 58010 7//22 85162 22214 06180 21602 336// 41203 5//// 80145
BBXX DFGX2 19183 99488 71263 41598 81717 10080 20060 40290 55010 70322 8/8// 22234 04090 20604 324// 40804 80070
BBXX DHEB 19183 99500 71301 41/96 82325 10090 20071 40140 52020 70000 8//// 22224 04040 20602 322// 41006 5//// 80080
BBXX SHIP 19184 99327 71269 41497 73520 10140 20110 40160 54000 7//11 8777/ 22233 00180 20402 309// 40604 5//// 6//// 80120 ICE /////
BBXX SHIP 19184 99313 71371 41497 70610 10170 20140 40320 54000 70222 8739/ 22223 00190 20404 329// 41306 5//// 6//// 80150 ICE /////
BBXX WDB9918 19184 99528 71367 41597 82637 10083 20070 49960 5//// 70122 885// 22273 00089 20606 325// 4//// 5//// 6//// 80078 ICE /////
BBXX 46147 19181 99518 71312 46/// /2215 10094 40118 57013 22200 00081 11010 70052 333 91219
AAXX 19181 78458 32566 30906 10280 20197 40194 57015 83200 333 10280 20190 30/// 56200 58013 83824
AAXX 19181 78460 3156030604 10297 20159 40176 56024 70544 83200 333 10300 20165 30/// 56000 58007 83822
AAXX 19181 78467 32466 30405 10280 20210 40173 57017 82201 333 10282 20176 31/// 56100 58012 82818
AAXX 19181 78479 21466 60907 10271 20192 40158 57014 70262 84230 333 10272 20220 30/// 56200 58015 69907 84818 85357
AAXX 19181 78482 32566 21605 10296 20174 4017657035 81200 333 10305 20188 30/// 56400 59006 81826
AAXX 19181 78485 31558 60406 10277 20190 40168 57003 71622 85830 333 10280 20172 30/// 56100 58034 85823
AAXX 19181 78486 31566 70302 10282 20197 40154 57022 70262 83230 333 10324 20200 30/// 56200 58012 83826 85358
AAXX 19181 78488 21558 70207 10264 20205 40176 57010 76022 86870 333 10270 20160 30/// 56100 58016 69900 83316
AAXX 19184 41295 36/// /3505 10188 20057 30005 40187 333 0E020 10272 58005
AAXX 19181 25703 41597 80000 11297 21328 39937 40234 58004 77172 8652/ 333 86628
AAXX 19181 25745 NIL
AAXX 19181 25913 42999 00404 11183 21251 39949 40106 52009
AAXX 19181 25954 42998 00208 11212 21260 39869 49989 57002
AAXX 19181 25956 42699 40605 11201 21268 39954 49960 53011 84500
AAXX 19181 31088 42999 00203 11186 21235 30096 40104 53005
AAXX 19181 31873 42997 02201 11210 21232 30135 40282 50003
AAXX 19181 31909 42998 03005 11137 21219 30131 40214 53006 333 91114
AAXX 19181 31960 42998 03504 11121 21183 30040 40290 52004
AAXX 19181 31961 42998 01001 11221 21240 30243 40249 52005
AAXX 19181 32053 41997 22502 11191 21203 30126 40179 52006 70281 80002 333 91004 91104
AAXX 19181 32061 41562 81101 11138 21144 30145 40186 52006 78582 889// 333 91002 91103
AAXX 19181 32098 42998 23403 11122 21149 30153 40163 53008 81041 333 91005 91108
AAXX 19181 32150 42696 70103 11113 21133 30121 40152 52004 87500 333 91003 91105
AAXX 19181 32165 42598 43104 11046 21081 30069 40131 55000 84900 333 91005 91108
AAXX 19181 32215 41596 63402 11027 21097 39975 40004 53012 70282 86900 333 91006 91111
AAXX 19181 32252 NIL
AAXX 19181 32389 42999 42803 11292 21309 39983 40024 52001 84030
AAXX 19181 32477 42998 00301 11291 21316 39986 40021 52008
AAXX 19181 32583 42999 03204 11129 21149 39965 49996 51002
AAXX 19181 32618 41598 83607 11060 21118 39930 49952 52015 70231 885// 333 91112
AAXX 19181 78458 32566 30906 10280 20197 40194 57015 83200 333 10280 20190 30/// 56200 58013 83824
AAXX 19181 78460 3156030604 10297 20159 40176 56024 70544 83200 333 10300 20165 30/// 56000 58007 83822
AAXX 19181 78467 32466 30405 10280 20210 40173 57017 82201 333 10282 20176 31/// 56100 58012 82818
AAXX 19181 78479 21466 60907 10271 20192 40158 57014 70262 84230 333 10272 20220 30/// 56200 58015 69907 84818 85357
AAXX 19181 78482 32566 21605 10296 20174 4017657035 81200 333 10305 20188 30/// 56400 59006 81826
AAXX 19181 78485 31558 60406 10277 20190 40168 57003 71622 85830 333 10280 20172 30/// 56100 58034 85823
AAXX 19181 78486 31566 70302 10282 20197 40154 57022 70262 83230 333 10324 20200 30/// 56200 58012 83826 85358
AAXX 19181 78488 21558 70207 10264 20205 40176 57010 76022 86870 333 10270 20160 30/// 56100 58016 69900 83316
AAXX 19181 78458 32566 30906 10280 20197 40194 57015 83200 333 10280 20190 30/// 56200 58013 83824
AAXX 19181 78460 3156030604 10297 20159 40176 56024 70544 83200 333 10300 20165 30/// 56000 58007 83822
AAXX 19181 78467 32466 30405 10280 20210 40173 57017 82201 333 10282 20176 31/// 56100 58012 82818
AAXX 19181 78479 21466 60907 10271 20192 40158 57014 70262 84230 333 10272 20220 30/// 56200 58015 69907 84818 85357
AAXX 19181 78482 32566 21605 10296 20174 4017657035 81200 333 10305 20188 30/// 56400 59006 81826
AAXX 19181 78485 31558 60406 10277 20190 40168 57003 71622 85830 333 10280 20172 30/// 56100 58034 85823
AAXX 19181 78486 31566 70302 10282 20197 40154 57022 70262 83230 333 10324 20200 30/// 56200 58012 83826 85358
AAXX 19181 78488 21558 70207 10264 20205 40176 57010 76022 86870 333 10270 20160 30/// 56100 58016 69900 83316
AAXX 19184 16168 12984 00620 10020 21063 39374 42739 52010 60002 333 10048
AAXX 19184 71189 46/// /0807 11048 21067 6///1 333 11048 21141 7////
AAXX 19184 71979 17/// ///// 10032 21039 38433 56026 69971 7//4/ 333 7//// 555 10010
AAXX 19184 71883 46/// /0000 11046 21049 39453 40300 55006 6///1 333 11046 21102 7////
AAXX 19184 71375 46/// /1716 11041 6///1 333 11031 21117 7////
AAXX 19184 71385 46/// /1619 11065 6///1 333 11064 7////
AAXX 19184 71050 46/// /1501 11068 21076 39115 40211 56021 6///1 333 11033 21102 7////
AAXX 19184 71832 16/// /2507 11096 21111 39821 40153 51026 60001 333 11021 21105 70000 555 10110
AAXX 19184 71276 17/// ///14 11045 21097 69941 7//4/ 333 11045 21131 70004
AAXX 19184 71026 16/// /2313 10012 21052 39330 40195 56018 60001 333 21083 7////
AAXX 19184 71217 16/// /0000 11042 21058 60001 333 11038 21091 70000
AAXX 19184 71224 16/// /2613 10006 21039 60001 333 10007 21128 70005
AAXX 19184 71340 16/// /2111 11006 21065 60001 333 11006 21125 70004
AAXX 19184 71343 16/// /1908 11004 21047 60001 333 11003 21082 70000
AAXX 19184 71348 16/// /2413 10034 21027 60001 333 10034 21163 70004
AAXX 19183 41150 41959 02808 10167 20123 40222 70500 333 10196 58009
BBXX A8AF6 19183 99356 70133 41598 60514 10150 20076 40290 54000 70311 865// 22243 02180 20202 336// 40703 80110
BBXX A8AF6 19183 99356 70133 41598 60514 10150 20076 40290 54000 70311 865// 22243 02180 20202 336// 40703 80110
AAXX 19184 89002 43/// /2307 11006 21030 39837 49891 57018 7//// 8////
AAXX 19184 41506 02694 80000 10020 21036 48494 60003 8442/ 333 5699/ 59030 60007 84640 84460
AAXX 19184 41508 22696 80000 10056 21040 48537 60003 8442/ 333 5699/ 59012 60007 84630 84460
AAXX 19184 41523 12695 80000 10045 21035 48519 60003 8452/ 333 5699/ 59006 60007 84640 84460
AAXX 19184 41535 12697 50000 10070 21003 48480 60003 82530 333 56990 59004 82635 83360
AAXX 19184 41536 NIL
AAXX 19184 41573 12996 73602 10040 21037 48501 60003 87020 333 59028
AAXX 19184 41600 01694 40000 10100 20068 39873 40177 60003 71000 82530 333 59020 60007
AAXX 19184 41630 11695 50000 10125 20085 40173 60003 70422 83570 333 56990 59029 83640 83460
AAXX 19184 41678 12996 00904 10145 20062 40160 60003 333 59029
AAXX 19184 41696 02696 63604 10015 21054 38026 48557 60003 82450 333 56990 59001 60007 82640 84460
AAXX 19184 41697 02996 00000 10189 20085 40162 60003 333 59016 60007
AAXX 19184 41700 11995 00000 10110 20068 40148 60003 70400 333 59027
AAXX 19184 41725 02996 00000 10140 20102 40162 60003 333 59009 60007
AAXX 19184 41746 02996 00000 10130 20091 40179 60003 333 58018 60007
AAXX 19184 41759 12996 03614 10230 21021 30178 40184 60002 333 58013
AAXX 19184 41785 02996 00000 10190 20128 40151 60003 333 59006 60007
AAXX 19184 41515 02695 70000 10064 21085 38555 48517 60003 84520 333 56990 59005 60007 84650 83458
AAXX 19184 41560 22696 31803 10005 21087 38250 48485 60003 82320 333 59003 60007
AAXX 19184 41571 119// 70000 10100 20035 39586 40184 60003 70500 83530 333 56990 59028
AAXX 19184 41594 NIL
AAXX 19184 41685 32993 00000 10095 21051 38921 48496 333 59022
AAXX 19184 41710 01995 03114 10090 21143 39443 40244 60003 70600 333 58065 60007
AAXX 19184 41718 11996 00000 10100 20068 30055 40163 60003 70400 333 59018
AAXX 19184 41739 NIL
AAXX 19184 41744 32996 02702 10110 21044 38799 48519 333 58003
AAXX 19184 41749 01995 00000 10160 20114 30142 40175 60003 70400 333 59003 60007
AAXX 19184 41529 11995 20000 10046 20033 39801 40202 60003 71000 82020 333 56090 59024 82460
AAXX 19184 41598 11995 40000 10115 20074 39898 40177 60003 71011 84070 333 59019
AAXX 19184 41620 32995 01805 10085 21094 38586 48488 333 59021
AAXX 19184 41624 02995 01302 10100 20079 39964 40172 60003 333 59024 60007
AAXX 19184 41640 01795 70000 10150 20092 39914 40167 60003 70420 82570 333 56990 59028 60007 82650 83462 82362
AAXX 19184 41660 117// 42310 10040 21031 38454 48554 60003 70500 81530 333 56990 58005 81650 83362
AAXX 19184 41675 11995 00000 10100 20068 30020 40164 60003 71000 333 59020
AAXX 19184 41712 12996 02704 10100 21063 39251 48547 60003 333 58043
AAXX 19184 41715 01995 00000 10135 20085 30109 40177 60003 70400 333 59010 60007
AAXX 19184 41756 01995 02712 10205 20115 30109 40175 60003 70504 333 58013 60007
AAXX 19184 41764 32996 03604 10180 20106 30103 40153 60003 333 59003 60007
AAXX 19184 41768 02996 00000 10145 20107 30147 40154 60003 333 59018 60007
AAXX 19184 41780 02996 00000 10190 20156 30135 40162 60003 333 59006 60007
AAXX 19184 41529 11995 20000 10046 20033 39801 40202 60003 71000 82020 333 56090 59024 82460
AAXX 19184 41598 11995 40000 10115 20074 39898 40177 60003 71011 84070 333 59019
AAXX 19184 41620 32995 01805 10085 21094 38586 48488 333 59021
AAXX 19184 41624 02995 01302 10100 20079 39964 40172 60003 333 59024 60007
AAXX 19184 41640 01795 70000 10150 20092 39914 40167 60003 70420 82570 333 56990 59028 60007 82650 83462 82362
AAXX 19184 41660 117// 42310 10040 21031 38454 48554 60003 70500 81530 333 56990 58005 81650 83362
AAXX 19184 41675 11995 00000 10100 20068 30020 40164 60003 71000 333 59020
AAXX 19184 41712 12996 02704 10100 21063 39251 48547 60003 333 58043
AAXX 19184 41715 01995 00000 10135 20085 30109 40177 60003 70400 333 59010 60007
AAXX 19184 41756 01995 02712 10205 20115 30109 40175 60003 70504 333 58013 60007
AAXX 19184 41764 32996 03604 10180 20106 30103 40153 60003 333 59003 60007
AAXX 19184 41768 02996 00000 10145 20107 30147 40154 60003 333 59018 60007
AAXX 19184 41780 02996 00000 10190 20156 30135 40162 60003 333 59006 60007
AAXX 19184 41515 02695 70000 10064 21085 38555 48517 60003 84520 333 56990 59005 60007 84650 83458
AAXX 19184 41560 22696 31803 10005 21087 38250 48485 60003 82320 333 59003 60007
AAXX 19184 41571 119// 70000 10100 20035 39586 40184 60003 70500 83530 333 56990 59028
AAXX 19184 41594 NIL
AAXX 19184 41685 32993 00000 10095 21051 38921 48496 333 59022
AAXX 19184 41710 01995 03114 10090 21143 39443 40244 60003 70600 333 58065 60007
AAXX 19184 41718 11996 00000 10100 20068 30055 40163 60003 70400 333 59018
AAXX 19184 41739 NIL
AAXX 19184 41744 32996 02702 10110 21044 38799 48519 333 58003
AAXX 19184 41749 01995 00000 10160 20114 30142 40175 60003 70400 333 59003 60007
AAXX 19184 93800 16/// /0804 10137 20119 40199 52016 60001
AAXX 19184 93805 16/// /9901 10114 20091 40203 52016 60001
AAXX 19184 93994 16/// /9901 10192 20165 40129 52020 60001
AAXX 19184 71050 46/// /1501 11068 21076 39115 40211 56021 6///1 333 11033 21102 7////
AAXX 19184 71832 16/// /2507 11096 21111 39821 40153 51026 60001 333 11021 21105 70000 555 10110
AAXX 19184 71883 46/// /0000 11046 21049 39453 40300 55006 6///1 333 11046 21102 7////
AAXX 19184 71276 17/// ///14 11045 21097 69941 7//4/ 333 11045 21131 70004
AAXX 19184 71979 17/// ///// 10032 21039 38433 56026 69971 7//4/ 333 7//// 555 10010
AAXX 19184 71189 46/// /0807 11048 21067 6///1 333 11048 21141 7////
AAXX 19184 71375 46/// /1716 11041 6///1 333 11031 21117 7////
AAXX 19184 71385 46/// /1619 11065 6///1 333 11064 7////
AAXX 19184 71340 16/// /2111 11006 21065 60001 333 11006 21125 70004
AAXX 19184 71343 16/// /1908 11004 21047 60001 333 11003 21082 70000
AAXX 19184 71348 16/// /2413 10034 21027 60001 333 10034 21163 70004
AAXX 19184 71217 16/// /0000 11042 21058 60001 333 11038 21091 70000
AAXX 19184 71224 16/// /2613 10006 21039 60001 333 10007 21128 70005
AAXX 19184 71026 16/// /2313 10012 21052 39330 40195 56018 60001 333 21083 7////
BBXX 46183 19181 99536 71311 46/// /1809 10090 40067 57017 22200 00081 10805 70024 333 91211
BBXX 46183 19181 99536 71311 46/// /1809 10090 40067 57017 22200 00081 10805 70024 333 91211
AAXX 19181 50434 32980 12001 11325 21361 39325 40312 57019 80002 333 11188
AAXX 19181 50527 32970 01807 11257 21283 39440 40315 57014 333 11219
AAXX 19181 50603 32980 02503 11247 21280 39567 40312 57014 333 11172
AAXX 19181 50632 32980 02904 11170 21204 39328 40282 57015 333 11131
AAXX 19181 50727 32980 00000 11284 21317 39053 40358 57010 333 11155
AAXX 19181 50915 32980 02202 11231 21280 39261 40363 57011 333 11153
AAXX 19181 51716 32965 70401 11065 21097 38968 40323 52006 80002 333 00401 11010
AAXX 19181 51765 32980 00204 11050 21124 39246 40290 57018 333 05104 11020
AAXX 19181 51777 32975 72502 11103 21158 39199 40298 52001 80002 333 05153 11007
AAXX 19181 51811 11961 70000 11055 21070 38839 40320 52009 69901 77070 8703/ 333 00402 11025
AAXX 19181 51828 11968 83401 11049 21086 38673 40305 52012 69901 77070 8802/ 333 00300 11006
AAXX 19181 52267 32980 00000 11130 21230 39208 40392 57004 333 00452 11046
AAXX 19181 52323 32980 02703 11183 21210 38279 52002 333 00451 11070
AAXX 19181 52495 32980 01401 11163 21223 38759 40385 57010 333 00352 11030
AAXX 19181 53149 32980 02903 11184 21237 38853 40383 52001 333 00151 11079
AAXX 19181 53192 32980 03401 11288 21316 38957 40441 57009 333 11197
AAXX 19181 53231 32980 01604 11163 21203 38554 52001 333 00352 11054
AAXX 19181 53336 32980 00201 11153 21213 38793 40376 52002 333 00200 11047
AAXX 19181 53391 32980 02702 11175 21218 38554 40368 57003 333 00001 11083
AAXX 19181 53529 31/08 92001 11105 21121 38697 40358 57002 74700 333 00353 11017
AAXX 19181 53543 32980 22902 11087 21111 38595 40339 57001 80002 333 11029
AAXX 19181 53723 32970 80000 11069 21087 38730 40350 57006 8807/ 333 00303 11037
AAXX 19181 54012 32980 00000 11226 21274 39075 40367 57010 333 11132
AAXX 19181 54026 32980 02702 11128 21218 39952 40299 57011 333 11032
AAXX 19181 54027 32980 00000 11157 21221 39687 40317 57008 333 11039
AAXX 19181 54208 32980 00000 11256 21287 38819 40405 54000 333 11106
AAXX 19181 54776 32562 72703 10027 21052 30255 40314 52003 874// 333 10050
AAXX 19181 56004 32980 00401 11210 21301 35805 57015 333 00151 11039
AAXX 19181 56033 32680 20000 11174 21231 36017 52004 81502 333 00200 11052
AAXX 19181 56046 32980 00902 11143 21194 36261 52006 333 00102 11012
AAXX 19181 56193 NIL
AAXX 19181 56196 31940 82701 10059 20034 40273 52001 71000 8807/ 333 05101 10079
AAXX 19181 56287 11940 80000 10058 20044 40286 54000 69901 71060 8807/ 333 00000 10065
AAXX 19181 56684 32980 00702 10028 21014 37905 52015 333 00000 10146
AAXX 19181 56751 32780 11801 10059 20012 38019 52006 81100 333 05151 10174
AAXX 19181 56786 32980 00000 10053 20016 38109 52005 333 05152 10167
AAXX 19181 56977 32465 22701 10086 20086 40193 57001 82600 333 05252 10178
AAXX 19181 57259 32968 81401 10036 20010 40290 57003 8807/ 333 10112
AAXX 19181 57279 32961 80000 10040 20005 40288 57002 8807/ 333 10111
AAXX 19181 57348 11860 82501 10088 20055 40258 52001 69901 76060 885// 333 10125
AAXX 19181 57399 32962 40701 10027 21024 40281 57002 84030 333 10122
AAXX 19181 57554 11850 81401 10053 20038 40284 52001 69981 76060 885// 333 10089
AAXX 19181 57793 31958 81801 10065 20006 40272 52005 71000 8807/ 333 10121
AAXX 19181 58345 31956 00903 10037 20016 40286 57013 71000 333 10094
AAXX 19181 58506 11765 80000 10031 21074 40266 54000 69901 76000 885// 333 10085
AAXX 19181 58813 32964 80000 10068 20032 40261 52001 8807/ 333 10146
AAXX 19181 58834 32965 81401 10111 20048 40263 57006 8807/ 333 10178
AAXX 19181 58926 32961 01801 10097 20071 40249 52007 333 10202
AAXX 19181 58944 32461 80205 10131 20086 40240 57006 885// 333 10135
AAXX 19181 59096 32965 02501 10071 20041 40240 52003 333 10200
AAXX 19181 59102 32961 00000 10054 20045 40243 54000 333 10177
AAXX 19181 59278 31758 73201 10134 20065 40222 57001 70500 875// 333 10187
AAXX 19181 59456 32868 70402 10142 20073 40205 57005 875// 333 10237
AAXX 19181 59493 32760 63602 10154 20122 40211 54000 86500 333 10208
AAXX 19181 59658 31958 00202 10137 20107 40199 57002 70500 333 10203
AAXX 19181 59673 32763 70205 10155 20083 40207 52001 875// 333 10189
AAXX 19181 59845 32560 70702 10164 20142 40189 57007 871// 333 10218
AAXX 19184 61202 32970 40000 10237 21085 39580 40136 80005 333 10272 58012 84075
AAXX 19184 61214 NIL
AAXX 19184 61223 32960 70204 10257 20017 39826 40127 80002 333 10297 58003 87075
AAXX 19184 61226 32960 13404 10265 20079 39828 40127 80002 333 10314 58015 81075
AAXX 19184 61230 32960 70604 10283 20003 39827 40100 84042 333 10310 58006 84365 83075
AAXX 19184 61233 32960 60404 10278 20015 3//// 4//// 80002 333 10321 5//// 86075
AAXX 19184 61235 32960 60210 10304 21026 3//// 4//// 85042 333 10330 5//// 85365
AAXX 19184 61240 32960 70000 10280 20053 39789 40112 80002 333 10330 58008 87075
AAXX 19184 61250 32960 10000 10284 20089 3//// 4//// 80002 333 10320 5//// 81075
AAXX 19184 61257 32960 60404 10309 20017 30047 40142 85042 333 10336 58004 85365 83075
AAXX 19184 61265 32960 63606 10278 20022 39800 40109 80002 333 10328 58003 86075
AAXX 19184 61270 32960 60000 10300 20075 3//// 4//// 80002 333 10340 5//// 86075
AAXX 19184 61272 32960 60000 10268 20084 39783 40113 80002 333 10330 58004 86075
AAXX 19184 61277 32960 40402 10300 20066 39785 40105 80002 333 10350 58003 84075
AAXX 19184 61285 32960 70000 10312 20064 39949 40101 80002 333 10339 58001 87075
AAXX 19184 61291 32960 70204 10278 20103 39684 40181 80002 333 10325 58014 87075
AAXX 19184 61293 32960 63604 10300 20084 3//// 4//// 80002 333 10340 5//// 86075
AAXX 19184 61296 32960 60000 10288 20148 3//// 4//// 80002 333 10336 5//// 86075
AAXX 19184 61297 32960 73408 10295 20058 3//// 4//// 80002 333 10333 5//// 87075
AAXX 19181 60379 16/// /2303 10093 20093(60032 333 10+33
AAXX 19181 60394 16/// /2201 10077 20059 60052 333 10142
AAXX 19181 60374 Q6/// /1603 10091 20065 60052 333 10140
BBXX 46131 19181 99499 71250 46/// /1204 1//// 40298 57010 22200 00070 10300 70000 333 91205
BBXX 46131 19181 99499 71250 46/// /1204 1//// 40298 57010 22200 00070 10300 70000 333 91205
AAXX 19181 36034 41498 82106 11232 21250 30235 40545 52001 77173 885// 333 88616
AAXX 19181 40650 12960 03202 10108 20023 40247 52004 60002
AAXX 19181 40604 12960 00000 10092 20014 40258 56002 60002
AAXX 19181 40608 12960 00000 10086 20040 40258 51003 60002
AAXX 19181 40621 12960 03301 10120 20008 40272 52002 60002
AAXX 19181 40623 12960 00000 10104 20005 40271 54000 60002
AAXX 19181 40629 12960 00000 10070 20026 40285 54000 60002
AAXX 19181 40631 12960 03002 10124 20033 40253 54001 60002
AAXX 19181 40634 12960 02703 10098 20034 40272 53006 60002
AAXX 19181 40642 12960 00000 10088 20050 40273 52013 60002
AAXX 19181 40656 12960 02902 10127 20037 40232 53005 60002
AAXX 19181 40665 12960 03302 10127 20056 40240 51003 60002
AAXX 19181 40670 12960 00000 10114 20026 40243 53004 60002
AAXX 19181 40674 12960 03305 10102 20010 40243 52007 60002
AAXX 19181 40676 12960 02602 10142 20018 40240 52009 60002
AAXX 19181 40689 12960 03003 10136 20051 40235 52009 60002
AAXX 19181 40691 12960 02103 10132 20040 40244 51006 60002
AAXX 19181 26258 12598 82104 10029 21029 30021 40076 52016 69952 885// 333 10032 91115
AAXX 19184 16294 12597 43600 10070 20009 39913 40109 53014 69962 82130 333 10098 82830 83359 555 0////
BBXX 46204 19181 99514 71288 46/// /1216 10079 40179 57018 22200 00085 10810 70048 333 91221
BBXX 46204 19181 99514 71288 46/// /1216 10079 40179 57018 22200 00085 10810 70048 333 91221
AAXX 19181 58102 32965 00201 11001 21053 30257 40307 57008 333 10076
AAXX 19181 58221 31958 00401 10009 21027 30265 40294 57008 71000 333 10080
AAXX 19184 82098 32597 40707 10330 20224 30070 40087 82301 333 58004
AAXX 19184 82246 32997 70502 10308 20244 39903 40099 80008 333 58015
AAXX 19184 82445 31597 60506 10320 20246 30051 40103 70544 83283 333 58009
AAXX 19184 82460 32597 63602 10270 20137 30049 40078 86100 333 58002
AAXX 19184 82562 32598 53604 10306 20238 39965 40072 84520 333 58015
AAXX 19184 82571 32497 50504 10335 20224 39904 40075 83210 333 58005
AAXX 19184 82765 21598 82702 10298 20247 39873 40111 70261 8321/ 333 58006 60021
AAXX 19184 45011 47556 /0106 10150 20120 40210 52001 71011 333 59017
AAXX 19184 82141 32498 40206 10299 20235 30082 40094 84200 333 58002
AAXX 19184 82145 32598 40905 10322 20208 30059 40100 84200 333 58016
AAXX 19184 82181 32496 60511 10326 20218 39969 40107 83340 333 58007
AAXX 19184 82198 31494 30508 10333 20224 30036 40087 70422 82201 333 58001
AAXX 19184 82353 32598 61804 10333 20232 39957 40040 84230 333 58004
AAXX 19184 82361 32497 70203 10301 20244 30062 40099 86720 333 58004
AAXX 19184 82476 32595 21804 10377 20197 39958 40075 82200 333 58007
AAXX 19184 82861 31597 61806 10313 20248 39891 40059 71392 86200 333 58011
BBXX VREN5 19183 99353 31724 41598 51605 10170 20135 40172 53/// 70211 8/460 22283 21002 80150
BBXX 9HA2479 19184 99318 31543 46/// /0131 10221 20188 30062 40091 57001 22214 04225 85199
BBXX C6FS9 19184 99274 31531 46/// /2702 10214 20165 30091 40127 57004 22200 04240 85182
BBXX VROB 19184 99353 31509 46/// /1924 10192 20150 30067 40092 52011 22253 04196 85166
BBXX ZCBU6 19184 99387 31785 41298 81725 10150 20113 40112 52028 78082 887// 22254 00172 20403 318// 40604 5//// 80130
AAXX 19184 91650 NIL
AAXX 19184 91652 NIL
AAXX 19184 91656 NIL
AAXX 19184 91659 11599 70000 10239 2023/ 40100 55010 69901 70262 83871 333 56999 81827 84460
AAXX 19184 91660 NIL
AAXX 19184 91669 36/// /1704 10241 2//// 40105 52014 91815
AAXX 19184 91670 36/// /0300 10255 20233 40098
AAXX 19184 91676 14/// /0104 10247 20237 30039 40100 50015 60101
AAXX 19184 91680 11599 70000 10235 20234 40102 53012 69901 78098 85873 333 56999 83825 84646 85080
AAXX 19184 91682 NIL
AAXX 19184 91683 11599 70000 10234 20233 40099 53010 69911 72501 85872 333 56999 83822 84645 86462
AAXX 19184 91691 14/// /0401 10252 20243 30104 40107 50008 60001
AAXX 19184 91693 NIL
AAXX 19184 91697 14/// /3101 10232 20224 30102 40107 50016 60081
AAXX 19184 91699 14/// /3308 10247 20238 30073 40105 50011 60021
BBXX 41036 19181 99342 70770 46/// ///// 10124 20033 40266 91820 22200 00166
AAXX 19184 67765 42680 11701 10219 20194 38667 48511 81402 333 10273 59003 81645
AAXX 19184 67775 42780 11306 10200 20091 38512 48516 81431 333 10273 59004 81656
AAXX 19184 67779 NIL
AAXX 19184 67853 NIL
AAXX 19184 67861 NIL
AAXX 19184 67867 42980 11602 10203 20093 38580 48508 80001 333 10263 59010 81080
AAXX 19184 67881 42980 01802 10185 20120 38584 48512 333 10257 59008
AAXX 19184 67965 42980 11605 10214 20070 38696 48521 80002 333 10293 59003 81080
AAXX 19184 67975 42980 00000 10206 20106 38930 48519 333 10276 59010
AAXX 19184 67977 42980 00000 10236 20178 39668 48537 333 10310 59013
AAXX 19184 67983 42775 10000 10180 20140 38896 48519 81400 333 10251 59004 81650
AAXX 19184 67991 42980 00000 10274 20161 39574 48490 333 10335 59012
AAXX 19184 67755 NIL
AAXX 19184 67771 NIL
AAXX 19184 67773 NIL
AAXX 19184 67774 NIL
AAXX 19184 67785 NIL
AAXX 19184 67789 NIL
AAXX 19184 67855 NIL
AAXX 19184 67857 NIL
AAXX 19184 67863 NIL
AAXX 19184 67871 NIL
AAXX 19184 67875 NIL
AAXX 19184 67891 NIL
AAXX 19184 67895 NIL
AAXX 19184 67897 NIL
AAXX 19184 67899 NIL
AAXX 19184 67951 NIL
AAXX 19184 67963 NIL
AAXX 19184 67967 NIL
AAXX 19184 67971 42980 00000 10237 20124 3//// 48/// 333 10302 5////
AAXX 19184 67976 NIL
AAXX 19184 67979 NIL
AAXX 19184 03896 16/// ///// 10105 60142 333 10105
AAXX 19181 30157 41997 80000 11163 21189 39889 40187 57009 77172 80007
BBXX VREN5 19183 99353 31724 41598 51605 10170 20135 40172 53/// 70211 8/460 22283 21002 80150
BBXX 9HA2479 19184 99318 31543 46/// /0131 10221 20188 30062 40091 57001 22214 04225 85199
BBXX C6FS9 19184 99274 31531 46/// /2702 10214 20165 30091 40127 57004 22200 04240 85182
BBXX VROB 19184 99353 31509 46/// /1924 10192 20150 30067 40092 52011 22253 04196 85166
BBXX ZCBU6 19184 99387 31785 41298 81725 10150 20113 40112 52028 78082 887// 22254 00172 20403 318// 40604 5//// 80130
BBXX WCF3012 19184 99438 70825 41/97 82420 10050 40110 70222 22243 00060 20402
BBXX C6XC6 19184 99257 70767 41598 30716 10258 2//// 40230 54000 70200 81499 22263 00259 21004 303// 40904 5//// 6//// 8//// ICE /////
BBXX WDJK 19184 99386 71244 41698 13528 10105 20086 40220 54000 70200 81030 22233 00110 20503 330// 41209 5//// 6//// 80095 ICE /////
BBXX WZP8164 19184 99458 70856 43/// /3327 10000 2//// 40146 5//// 7//// 8//// 222// 0//// 2//03 3//// 4//// 5//// 6//// 8//// ICE /////
BBXX WHKM 19184 99200 10389 41297 32409 10260 20232 40145 51010 70500 82400 22233 0//// 20401 324// 4//// 5//// 6//// 80240 ICE /////
BBXX WKAU 19184 99368 70749 41498 22215 10110 2005/ 40235 54000 70200 821// 22244 00150 20302
AAXX 19181 21802 42999 00000 11348 21362 30273 40300 52006
AAXX 19181 24125 41998 80000 11388 21400 39979 40304 52007 77171 80001
AAXX 19181 24136 41998 80000 11406 21432 30168 40283 52002 77171 80007
AAXX 19181 24143 41999 30000 11374 21401 30201 40258 57003 70271 80005
AAXX 19181 24266 41997 80501 11433 21461 30061 40267 54000 77172 80005
AAXX 19181 24329 42998 20000 11382 21403 39942 40287 52006 82010
AAXX 19181 24343 41997 83201 11390 21417 30119 40256 57003 77172 80007
AAXX 19181 24382 41997 60000 11382 21409 39978 40266 53001 71072 80006
AAXX 19181 24639 41998 80502 11365 21394 30048 40223 53006 77177 83017
AAXX 19181 24641 41998 60301 11395 21429 30063 40227 57001 77171 80008
AAXX 19181 24652 41997 80000 11390 21417 30098 40240 57004 70272 80007
AAXX 19181 24656 41999 20000 11421 21455 30126 40244 57006 70271 80001
AAXX 19181 24671 42999 23001 11436 21461 39694 40291 57003 80001
AAXX 19181 24688 41998 80000 11330 21360 39244 40263 57006 77172 8802/
AAXX 19181 24724 41997 80202 11326 21348 39634 40226 52009 77172 8802/
AAXX 19181 24738 41997 83301 11343 21358 30000 40198 52005 77172 80007
AAXX 19181 24768 41995 00000 11442 21477 39969 40244 57006 71000
AAXX 19181 24923 41597 80000 11200 21226 39847 40173 57004 77172 8555/ 333 85624
AAXX 19181 24944 41997 80000 11315 21338 39869 40193 56002 77172 83037
AAXX 19181 24951 41998 81001 11371 21395 30023 40214 57007 77171 80007
AAXX 19181 24661 41999 50000 11394 21429 39940 40247 56004 72272 80001
AAXX 19181 24959 41994 83401 11400 21427 30082 40233 57004 77174 80005 333 96048
AAXX 19181 24962 41994 00000 11465 21494 30026 40250 57007 71000
AAXX 19181 24966 41998 80000 11442 21463 39989 40246 57006 77171 80007
AAXX 19181 24967 42999 00000 11447 21486 30002 40225 57005
AAXX 19181 25206 41998 80301 11326 21318 30198 40229 53005 77177 80007
AAXX 19181 25400 41898 83502 11233 21258 30163 40224 53004 77172 8802/
AAXX 19181 30054 41996 81901 11179 21205 39924 40178 57007 77172 85047
AAXX 19181 30089 41998 80000 11300 21317 39950 40198 57008 77177 80007
AAXX 19181 30393 41999 50601 11345 21367 39097 40274 57012 70272 80001
AAXX 19181 30493 42999 02701 11322 21346 39112 40282 57008
AAXX 19181 31004 42999 51901 11238 21256 39293 40191 57011 80001
AAXX 19181 31137 NIL
BBXX 46088 19181 99483 71232 46/// /1702 10071 40306 91820 22200 00079 1//00 70001 333 91203 555 11023 22023 31754 42003 61819 165022 180022 195024 206021 204020 189022
BBXX 46088 19181 99483 71232 46/// /1702 10071 40306 91820 22200 00079 1//00 70001 333 91203 555 11023 22023 31754 42003 61819 165022 180022 195024 206021 204020 189022
BBXX 46087 19181 99485 71247 46/// /2601 10085 20064 40311 91820 22200 00077 333 91202 555 11015 22017 31734 41704 61819 262012 225011 186017 183021 186028 185028
BBXX 44039 19181 99411 70727 46/// /2106 10066 20000 40188 91815 22200 00095 10502 70010 333 91214
BBXX 44060 19181 99413 70721 46/// ///10 10062 40184 91815 22200 00103 333 91211 555 11103 22108
BBXX 44029 19181 99425 70706 46/30 /2111 10046 40148 58053 91804 22200 00089 11104 70019 333 91214 555 11140 22148
BBXX 44030 19181 99432 70704 46/// /2212 1//// 40132 58058 91804 22200 00082 10504 70020 333 91215 555 11155 22165
BBXX 44022 19181 99409 70737 46/// ///09 10065 21013 40187 91815 22200 00082 333 91212 555 11103 22108
BBXX 44033 19181 99441 70690 46/30 /2113 10041 40130 58060 91804 22200 00071 10402 70011 333 91215 555 11158 22168
BBXX 44034 19181 99441 70681 46/30 /2112 10035 40144 58055 91804 22200 00086 10503 70016 333 91214 555 11149 22158
BBXX 44040 19181 99410 70736 46/// /2510 10067 21009 40191 91815 22200 10301 70007 333 91212 555 11118 22134
AAXX 19183 67765 42680 11701 10219 20194 38667 48511 81402 333 10273 81645
AAXX 19183 67775 42780 11306 10200 20091 38512 48516 81431 333 10273 81650
AAXX 19183 67867 42980 11602 10203 20093 38580 48508 80001 333 10263 81080
AAXX 19183 67881 42/80 01802 10185 20120 38584 48512 333 10257
AAXX 19183 67965 42980 11605 10214 20070 38696 48521 80002 333 10293 81080
AAXX 19183 67975 42/80 00000 10206 20106 38930 48519 333 10276
AAXX 19183 67977 42/80 00000 10236 20178 39668 48537 333 10310
AAXX 19183 67983 42775 10000 10180 20140 38896 48519 81400 333 10251 81650
AAXX 19183 67991 42/80 00000 10274 20161 39574 48490 333 10335
AAXX 19184 67765 42680 11701 10219 20194 38667 48511 81402 333 10273 59003 81645
AAXX 19184 67775 42780 11306 10200 20091 38512 48516 81431 333 10273 59004 81656
AAXX 19184 67779 NIL
AAXX 19184 67853 NIL
AAXX 19184 67861 NIL
AAXX 19184 67867 42980 11602 10203 20093 38580 48508 80001 333 10263 59010 81080
AAXX 19184 67881 42980 01802 10185 20120 38584 48512 333 10257 59008
AAXX 19184 67965 42980 11605 10214 20070 38696 48521 80002 333 10293 59003 81080
AAXX 19184 67975 42980 00000 10206 20106 38930 48519 333 10276 59010
AAXX 19184 67977 42980 00000 10236 20178 39668 48537 333 10310 59013
AAXX 19184 67983 42775 10000 10180 20140 38896 48519 81400 333 10251 59004 81650
AAXX 19184 67991 42980 00000 10274 20161 39574 48490 333 10335 59012
AAXX 19184 40250 NIL
AAXX 19184 40265 NIL
AAXX 19184 40296 32960 00000 10190 20055 40185 52009 333 10260
AAXX 19184 40310 NIL
AAXX 19184 61641 32960 63610 10245 20182 30088 40121 84032 333 10275 58003 84363 85073
AAXX 19184 89577 46/// /2702 11235 35870 4//// 5////
BBXX WHKM 19184 99200 10389 41297 32409 10260 20232 40145 51010 70500 82400 22233 0//// 20401 324// 4//// 5//// 6//// 80240 ICE /////
BBXX A8SU4 19184 99248 10357 41498 20107 10240 20194 40150 53/// 70500 8/145 22233 00230 20000 30000 40000 50000 80210
BBXX VVZU 19184 99245 10629 41/97 00524 10024 20226 40196 52006 70001 8//// 22263 2//06 4//07 5////
BBXX A8JX9 19183 99534 11714 41/97 /0324 11031 21031 49796 53031 70000 8//// 22264 299// 3//// 4//// 5//// 81031
BBXX A8JX8 19181 99455 11699 41297 62810 10040 20017 40000 54000 75671 84625 22224 2//// 327// 4//06 5//// 64011 80030
BBXX 3EIU9 19184 99107 11206 41298 10616 10270 20240 40100 50015 70001 811// 91740 22282 00264 1//// 2//// 306// 40402 5//// 6//// 80250 /////
BBXX SHIP 19184 99478 11556 41598 52927 10000 21027 40036 56002 70222 85/// 91800 22214 00020 2//// 3//// 4//// 80000
BBXX DGTX 19183 99330 11733 41/98 /3019 10195 20164 40105 53005 70382 8//// 22264 00240 2//// 80175
BBXX VRGW3 19183 99254 11208 41597 60804 10153 20110 40219 58013 70222 86468 22254 20604 80128
BBXX A8XD5 19184 99423 11736 41/97 63025 10050 21008 40061 53032 701// 8//// 22223 04090 20606 329// 41808 80026
BBXX SHIP 19184 99214 11219 41398 70623 10220 20183 40175 56019 70222 864// 22254 00254 80195
BBXX VRCI9 19184 99400 11720 41/98 /2820 10085 20032 40030 52010 70222 8//// 22225 00156 2//// 3//// 4//// 80060
BBXX DGBE 19183 99270 11237 41/97 80527 10186 20111 40232 52010 70222 8//// 22214 00220 2//// 80142
BBXX UFLC 19180 99427 11328 42/98 93410 11070 40288 52004 89/// 22262 06040 20302
BBXX 46204 19181 99514 71288 46/// /1216 10079 40179 57018 22200 00085 10810 70048 333 91221
BBXX 46131 19181 99499 71250 46/// /1204 1//// 40298 57010 22200 00070 10300 70000 333 91205
BBXX 46183 19181 99536 71311 46/// /1809 10090 40067 57017 22200 00081 10805 70024 333 91211
BBXX WKAU 19184 99368 70749 41498 22215 10110 2005/ 40235 54000 70200 821// 22244 00150 20302 322// 40302 5//// 6//// 80080 ICE /////
BBXX 9HJB9 19184 99160 70728 41498 50541 10281 2//// 40160 56/// 7//// 82/// 22234 00274 2//// 3//// 4//// 5//// 6//// 8//// ICE /////
BBXX 46147 19181 99518 71312 46/// /2215 10094 40118 57013 22200 00081 11010 70052 333 91219
BBXX SHIP 19184 99227 71580 41497 50826 10235 20184 40195 52018 70380 83360 22200 04238 20404 31003 40704 50704
BBXX 46242 19181 99332 71174 46/// ///// 1//// 91758 22200 00144 10601 20601 325// 41401 70007
BBXX 46221 19181 99339 71186 46/// ///// 1//// 91745 22200 00149 11402 20701 326// 41401 70008
BBXX 46231 19181 99327 71174 46/// ///// 1//// 91754 22200 00146 11503 20702 328// 41502 70014
BBXX 46222 19181 99336 71183 46/// ///// 1//// 91756 22200 00150 11402 20602 327// 41401 70011
BBXX 41029 19181 99328 70796 46/// /1002 1//// 91800 555 11025 22028
BBXX 44098 19181 99428 70702 46/// ///// 1//// 91807 22200 00089 10504 20504 309// 41101 70020
BBXX 51205 19181 99210 71564 46/// ///// 1//// 91818 22200 00242 10806 20806 332// 41302 70031
BBXX 41114 19181 99276 70802 46/// ///// 1//// 91816 22200 00235 10603 20603 307// 41101 70015
BBXX 46114 19181 99364 71222 46/// ///// 1//// 91804 22200 00124 11507 20804 330// 41506 70036
BBXX 41115 19181 99184 70673 46/// ///// 1//// 91805 22200 11203 21002 302// 41202 70015
BBXX 42362 19181 99278 70907 46/// /1408 10250 20106 40193 91815
BBXX 42363 19181 99282 70892 46/// /1507 10206 20089 40214 91815 333 91208
BBXX 42364 19181 99291 70881 46/// /1608 10200 20117 40217 91815
BBXX 46223 19181 99335 71178 46/// ///// 1//// 91800 22200 00152 11502 20702 328// 41502 70011
BBXX 46216 19181 99343 71198 46/// ///// 1//// 91757 22200 00144 11402 20602 326// 41402 70012
BBXX 46217 19181 99342 71194 46/// ///// 1//// 91812 22200 00145 11302 21001 326// 41301 70009
BBXX 46240 19181 99366 71219 46/// ///// 1//// 91812 22200 00123 11302 21001 335// 41302 70012
BBXX 46237 19181 99378 71226 46/// ///// 1//// 91810 22200 00112 11506 20903 325// 41505 70030
BBXX 46212 19181 99408 71243 46/// ///// 1//// 91812 22200 00098 11407 21005 331// 41405 70036
BBXX WDC3786 19184 99225 71546 41498 50724 10228 2019/ 40205 57003 7//22 8315/ 22264 0//// 20403 328// 40706 5//// 6//// 80201 ICE /////
BBXX C6KJ5 19184 99258 70904 41497 14113 13027 41214 10249 2018/ 40185 57005 70111 86990 22233 00246 80200
BBXX 46244 19181 99409 71244 46/// ///// 1//// 91805 22200 00097 11408 20806 329// 41405 70038
BBXX 46248 19181 99461 71247 46/// ///// 1//// 91804 22200 00097 11305 21003 329// 41304 70025
BBXX 46249 19181 99338 71197 46/// ///// 1//// 91812 22200 00148 11402 21001 326// 41402 70011
BBXX 46241 19181 99330 71173 46/// ///// 1//// 91741 22200 00142 11502 20701 326// 41501 70009
BBXX MINFR00 1918/ 99314 70800 46/// ///// 10178 40262 57022
BBXX FLAO 1918/ 99764 70847 46/// ///// 11205 49965 52007
BBXX PBKH 19184 99227 71527 41/// 60829 10220 20156 40219 55010 70361 8//// 22214 00200 20507 325// 40507 5////
BBXX WDJK 19184 99386 71244 41698 13528 10105 20086 40220 54000 70200 81030 22233 00110 20503 330// 41209 5//// 6//// 80095 ICE /////
BBXX C6XC6 19184 99257 70767 41598 30716 10258 2//// 40230 54000 70200 81499 22263 00259 21004 303// 40904 5//// 6//// 8//// ICE /////
BBXX 46207 19181 99509 71299 46/// /2114 10092 40174 57012 22200 00082 10808 70040 333 91217
BBXX SHIP 19184 99130 31169 41/97 81810 10288 20261 40046 57015 76096 8//// 22261 00306 10702 80268
BBXX SHIP 19184 99277 31083 41498 21618 10203 20141 40123 56019 70100 81109 22232 00222 11205 20202 314// 41004
BBXX KEY796 19183 99571 71703 41/97 22399 00196 11005 21044 49834 53/// 722// 8//// 222// 00017 2//// 3//// 4//// 5//// 6//// 8//// ICE /////
BBXX 44032 19181 99437 70694 46/30 /2213 10041 40126 58060 91804 22200 00086 10504 70018 333 91216 555 11164 22174
BBXX 46112 19181 99481 71227 46/// /1404 10072 40309 54000 91800
BBXX 46111 19181 99481 71227 46/// /1103 10069 40309 54000 91800 22200 00055
BBXX 44067 19181 99384 70770 46/// /2604 10090 40207 58041 91800
BBXX 41037 19181 99340 70775 46/// /1905 10147 40238 58020 91800 22200 00185 333 91205
BBXX BAREU56 19184 99384 10122 46/// ///// 40152 52025 22252
BBXX LF5T 19184 99660 10081 41598 /3405 10053 20018 49948 57005 70282 22200 10703 70015 333 91116
BBXX LF4C 19184 99584 10019 41598 31408 10045 20010 40015 57019 72582 89/// 22200 00068 10804 70021 333 91118
BBXX LF3N 19184 99653 10073 41496 83607 10036 20018 49961 54000 78182 8//// 22200 00088 10604 70020
BBXX LF4B 19184 99606 10037 47/98 /1603 10037 40024 57003 700// 22200 00049 10705 70027 333 91116
BBXX 3ERR2 19184 99635 10053 41599 52706 10059 21048 49988 54000 70222 85500 22200 06096 10703 70016 333 91112
BBXX LF3F 19184 99643 10078 43/// /3305 10062 20024 49968 52001 22200 04086 10703 70017 333 91122
BBXX PEBT 19183 99484 70058 41296 82725 10110 20076 40180 58010 7//62 887// 22213 02100 20603 328// 40905 5//// 80092
BBXX UANA 19181 99695 10411 41/94 91714 10000 49982 57003 77372 8//// 22232 00039 20810
BBXX UFJN 19181 99717 10437 41/96 81611 11030 40109 57025 72222 88/// 22200 0//// 20301
BBXX C6WK7 19184 99338 70129 41698 40520 10155 2//// 40280 51/// 7//11 82182 22254 00200 2//// 322// 40502 5//// 6//// 8//// ICE /////
BBXX WCF3012 19184 99438 70825 41/97 82420 10050 40110 70222 22243 00060 20402
BBXX WE3806 19184 99455 70835 41/98 93130 10016 2//// 4//// 72686 8//// 22273 00056 2//05 3//// 4//// 5//// 6//// 8//// ICE /////
BBXX A8AF6 19183 99356 70133 41598 60514 10150 20076 40290 54000 70311 865// 22243 02180 20202 336// 40703 80110
BBXX AUTQ 19184 99501 70009 42/97 92711 10110 20072 40076 56028 70201 89/// 22224 00140
BBXX PDHW 19183 99454 70280 41297 82420 40261 52020 71042 887// 22263 20602 325// 41206
BBXX 62169 19183 99614 10014 41/98 81814 10050 20003 40034 57020 70222 88/// 22200 20401 3//// 4//// 5//// 80032
BBXX 62094 19184 99517 70067 46/// /2916 10111 20088 40140 52019 22200 00107 10503 70017
BBXX 62303 19184 99516 70051 46/// /2817 10115 20094 40128 53018 22200 00109 10605 70027
BBXX 62095 19184 99530 70159 46/// /2915 10102 20070 40190 52021 22200 00113 10605 70027
BBXX 62107 19184 99501 70061 46/// /3121 10109 20099 40153 52012 22200 00116 10704 70020 333 90710 91130
BBXX 62103 19184 99499 70029 46/98 /2929 10118 20105 40122 55003 22200 00122 10705 70024 333 90710 91141
BBXX V2NA1 19184 99426 70332 41998 61819 10185 20136 40253 54000 70122 80008 22224 04140 20404 323// 40804 80155
BBXX 63119 19184 99583 10009 41/97 81514 10056 21003 49996 58/// 702// 8//// 22200 2//// 301// 40502 5////
BBXX 64049 19183 99571 10022 41/97 52411 10060 20044 40018 57014 70222 8//// 22200 04092 20604 330// 40606 5//// 80053
BBXX 62094 19184 99517 70067 46/// /29// 10111 20088 4//// 5//// 22200 00107 10504 70018
BBXX DGUG2 19184 99348 70161 41598 70418 10165 20094 40295 53005 70322 86830 22254 04200 20803 80125
BBXX 62163 19184 99455 70084 46/// /2814 10124 20113 40208 53001 22200 00125 10605 70025
BBXX 62305 19184 99504 10000 46/95 /2522 10099 20095 40111 58032 22200 00119 10602 70008 333 90710 91129
BBXX 62105 19184 99554 70122 46/// /2823 10093 20064 40096 53014 22200 106//
BBXX 62103 19184 99499 70029 46/97 /2929 10117 20103 40120 56017 22200 00122 10704 70021 333 90710 91142
BBXX 62170 19184 99514 10020 46/96 /1724 1//// 2//// 40104 58032 22200 10601 70005 333 90710 91130
BBXX 64046 19184 99591 70117 46/// ///// 10054 20022 40028 53023 22200 00102 10707 70037
BBXX 62140 19184 99573 10013 46/// /18// 10057 20008 40012 57022 22200
BBXX 62304 19184 99511 10018 46/96 /1722 10064 20052 40103 58033 22200 00112 10501 70007 333 90710 91126
BBXX 62122 19184 99573 10016 47498 /1710 10058 20007 40014 57021 762// 22200 10805 70025
BBXX 62153 19184 99573 10020 47599 /1810 10057 20005 40018 57021 700// 22200 10805 70023
BBXX 62116 19184 99576 10011 47497 /1711 10050 20016 40010 57020 752// 22200 10704 70022
BBXX 62104 19184 99574 10013 47497 /1811 10056 20008 40009 57022 740// 22200
BBXX 62155 19184 99577 10007 47496 /1612 10056 20019 40005 57024 762// 22200 10704 70020
BBXX 62118 19184 99577 10009 47698 /1509 10052 20021 49999 57023 752// 22200 10704 70019
BBXX 62143 19184 99577 10018 47598 /1809 10055 21011 40015 57020 700// 22200 10705 70026
BBXX 62117 19184 99579 10000 47296 /1511 10063 20018 49997 57025 762// 22200 10704 70018
BBXX 62102 19184 99579 10018 46/// /1711 10051 21006 40016 57018 22200 10705 70023
BBXX 62113 19184 99584 10002 47599 /1612 10053 20001 49995 57024 700// 22200
BBXX 62129 19184 99584 10003 46/// ///// 10057 20003 49996 57024 22200
BBXX 62134 19184 99580 10014 47599 /1810 10052 20005 40012 57019 700// 22200 10805 70023
BBXX 62114 19184 99583 10000 46/// /1514 10057 20010 49995 57025 22200
BBXX ZQSD5 19184 99583 10007 46/// /1608 10061 20003 40011 57020 22200 11005 70026
BBXX 62142 19184 99530 10021 47397 /2219 10053 20036 40072 57030 751// 22200 10402 70012
BBXX 62121 19184 99535 10027 46/// ///// 22200
BBXX 62145 19184 99531 10028 47498 /2021 10064 20028 40079 57027 751// 22200 10504 70018
BBXX 62144 19184 99534 10017 47398 /2020 10050 20034 40063 57034 700// 22200 10403 70014
BBXX V7OX3 19184 99248 50470 41498 21507 10260 20215 40070 58010 70200 811// 22213 04280 2//03 307// 4//02 5//// 80230
BBXX C6XQ2 19183 99297 50488 41698 52010 10265 20213 40073 54000 70200 85100 22213 04240 20802 32626 40802 50602 80230
BBXX AMOUK08 19184 99501 70061 46/// ///// 10113 20108 30148 40153 54003 91750
BBXX 62027 19184 99491 70022 46/// /3025 1//// 2//// 40148 57013 22200 00112 10705 334// 70025 333 90710 91131
BBXX 64045 19184 99591 70117 46/// /2925 10054 20022 40028 53023 22200 00102 10707 70037 333 90710 91144
BBXX 62163 19184 99475 70084 46/// /2814 10124 20113 40208 53003 22200 00127 10605 70025
BBXX 62105 19184 99554 70122 46/// /2823 10093 20064 40116 53014 22200 00105 10607 70035 333 90710 91133
BBXX 62001 19184 99453 70050 46/// /2621 10130 20081 40250 52006 22200 00143 10505 70026 333 90710 91128
BBXX 62081 19184 99510 70134 46/// ///// 10108 20070 40204 52023 22200 00119 10606 70028
BBXX 62442 19184 99490 70164 46/// /3009 1//// 2//// 40236 53018 22200 00127
BBXX 64046 19184 99606 70049 46/// /1519 10059 20040 49956 57016 22200 00078 10606 70028
BBXX 62303 19184 99516 70051 46/// /2816 10115 20094 40128 53018 22200 00109 10605 70027
BBXX 62301 19184 99524 70047 46/// /3009 10099 20067 40116 53026 22200 00093 10604 70019
BBXX PJKV 19183 99348 70309 41598 81119 10190 20134 40302 57015 70222 885// 22254 20501 311// 40803 5//// 80158
BBXX 63110 19183 99595 10015 41/98 /1610 10049 40005 700// 8//// 22200 10704 70020
BBXX 62029 19184 99487 70125 46/// /3016 10119 20110 40212 53016 22200 00130 10605 70024
BBXX SHIP 19183 99333 70134 41/98 40218 10159 20138 40256 53010 70100 8//6/ 22283 20304 80146
BBXX MINFR05 1918/ 99370 70125 46/// ///// 4//// 5////
BBXX DBBH 19181 99368 70117 41398 10407 10145 20053 40297 52006 70100 81200 22251 04180 20602 332// 41103
BBXX BATFR04 19184 99598 70107 46/// /2832 10057 20015 49996 52015 22200 00102
BBXX 61002 19184 99421 10047 46/// ///28 10105 2//// 40216 52010 22200 00140 10705 70026 555 1/034
BBXX DBIP 19180 99356 70080 41498 30610 10175 20090 40245 54000 70200 82440 22223 04180 20503 3//// 4//// 5//// 80127
BBXX A8XY2 19184 99468 70148 41/93 /3015 10120 20120 40231 52026 74554 8//// 22254 04120 2//// 80120
BBXX PBBB 19180 99460 70192 41/94 /2806 10130 20113 40272 52014 74544 8//// 22253 20302 327// 40504 5//// 80120
BBXX BATFR12 19184 99481 70075 46/// /2711 10134 20115 40189 58004 22200 00144
BBXX BATEU08 19184 99609 70331 46/// /2947 10000 21098 40002 52039 22251
BBXX BATFR52 19184 99499 70039 46/// /2641 10119 20102 40140 57023 22273 00119
BBXX BATUK01 19184 99582 70060 46/// /3004 10079 20037 49991 51020 22241 00109
BBXX BATEU09 19184 99430 10104 46/// /0614 10092 21048 40159 52010 22242 00170
BBXX BATEU01 19184 99506 70282 44597 81722 10104 20094 40176 55/// 70222 83545 22224 00112 21004 327// 41004 5////
BBXX BATFR54 19184 99472 70031 46/// /2634 10120 20090 40189 22263 00127
BBXX BATFR60 19184 99485 70058 46/// /2622 10120 20110 40181 53022 22233 00115
BBXX 61001 19184 99434 10078 46/// /0607 10109 21047 40158 52016 22200 00150 10602 70009
BBXX BATFR27 19184 99507 70010 46/// /2725 10112 20074 40086 58047 22265 00099
BBXX BAREU00 19184 99529 70054 46/// ///// 40106 57005 22214
BBXX TESTFR9 19184 99499 70039 46/// /2838 10117 29096 40130 57029 22274
BBXX BATFR03 19184 99500 70005 44396 82533 10102 20099 40103 75322 877// 22284 20202
BBXX BATFR16 19184 99445 70148 46/// /3017 10135 20129 40260 53025 22264 00147
BBXX BAREU12 19184 99576 10117 46/// ///// 40008 22253
BBXX BAREU62 19184 99406 10132 46/// ///// 40125 52005 22234
BBXX BAREU51 19184 99380 10122 46/// ///// 40134 52011 22275
BBXX BAREU63 19184 99356 10249 46/// /1413 10172 29065 40141 52001 22263
BBXX BAREU04 19184 99538 70302 46/// ///// 40164 57018 22263
BBXX BAREU08 19184 99472 70112 46/// ///// 40223 57005 22214
BBXX BATFR11 19184 99351 10185 46/// /1509 10149 20072 40144 52010 22263 00192
BBXX IDDUK02 19184 99607 50456 46/// ///// 49997 222//
BBXX 62150 19184 99536 10007 47295 /2222 10049 20035 40062 57027 763// 22200 10503 70015
BBXX 62148 19184 99536 10015 46/// /2118 10052 20035 40063 57030 22200
BBXX 62131 19184 99539 10012 46/// /21// 10058 20040 40051 57029 22200
BBXX 62123 19184 99563 10022 47396 /1610 10062 20015 40024 57024 762// 22200
BBXX 62165 19184 99540 10009 47397 /2220 10056 20039 40050 57028 762// 22200 10504 70019
BBXX 62149 19184 99537 10011 47397 /2223 10056 20041 40056 57028 761// 22200 10503 70016
BBXX 62127 19184 99540 10007 47297 ///// 10053 20039 40045 57028 762// 22200 10503 70017
BBXX 62132 19184 99564 10020 46/// /2210 10061 20029 40019 57025 22200
BBXX 62120 19184 99564 10021 47397 /1711 10066 20027 40022 57024 761// 22200
BBXX 62154 19184 99564 10022 46/// /1712 10053 20028 40022 57024 22200
BBXX 62152 19184 99570 10018 47/98 /1512 10058 20008 40018 57023 700// 22200 10605 70026
BBXX 62119 19184 99570 10019 47498 /1610 10058 20013 40017 57023 700// 22200 10705 70023
BBXX MWYG6 19184 99603 70040 47496 /1514 10049 762// 22200
BBXX 63104 19184 99612 10016 47599 /1808 10046 21032 40006 57010 700// 22200
BBXX 62133 19184 99571 10009 46/// /1611 10079 20033 40010 57023 22200
BBXX PJGO 19184 99571 10022 47397 /2003 10058 20014 40021 57021 751// 22200
BBXX 62164 19184 99572 10008 47397 /1611 10062 20037 40006 57026 700// 22200 00095 10704 70022
BBXX 62146 19184 99572 10021 47/99 /1706 10054 20000 40017 57021 751// 22200 10805 70024
BBXX 64041 19184 99607 70026 47698 /1314 10052 21026 49980 57015 700// 22200 10705 70024
BBXX 63103 19184 99612 10011 46/// /1911 10045 21056 40004 57013 22200 10704 70021
BBXX 63115 19184 99616 10013 47698 /1706 10112 21014 40003 57012 700// 22200 10705 70023
BBXX 63117 19184 99613 10011 47699 /1909 10049 21066 40007 57009 700// 22200
BBXX 63101 19184 99612 10009 46/// /2011 10039 21054 40004 57008 22200
BBXX 63107 19184 99611 10017 46/// /1806 10044 40006 57010 22200
BBXX 63112 19184 99611 10010 47699 /2111 10045 21064 40001 57010 700// 22200 10705 70024
BBXX 63113 19184 99610 10017 46/// /1507 10036 21010 40009 57009 22200 10704 70022
BBXX 63105 19184 99610 10017 47598 ///// 10044 21013 40008 57008 751// 22200
BBXX 63106 19184 99610 10017 46/// /1811 10038 40008 57009 22200
BBXX 63108 19184 99608 10017 47698 /1707 10040 21017 40002 57009 700// 22200 10804 70020
BBXX 62112 19184 99584 70002 47498 /1513 10058 20013 49995 57024 762// 22200
BBXX 62128 19184 99587 10014 47699 /1508 10048 21002 40010 57016 700// 22200 10704 70021
BBXX 63055 19184 99606 10016 47299 /1803 10022 21021 40009 56008 700// 22200 10704 70021
BBXX 63057 19184 99592 10015 46/// ///// 22200
BBXX 63110 19184 99595 10015 47799 /1709 10050 21051 40009 57012 700// 22200 10704 70021
BBXX 63056 19184 99597 10016 47799 /1805 10047 21057 40000 58012 700// 22200 10805 70024
BBXX PJAI 19184 99581 70014 47499 /2214 10060 20021 49978 57022 700// 22200
BBXX 62111 19184 99580 70003 46/// /1909 10062 20029 49992 57025 22200 10604 70020
BBXX AMOUK03 19184 99513 10032 46/// ///// 10030 20024 30088 40118 57022 91750
BBXX AMOUK14 19184 99535 70052 46/// ///// 10099 20067 30063 40096 54001 91750
BBXX AMOUK10 19184 99509 10010 46/// ///// 10078 20062 30103 40099 57036 91750
BBXX AMOUK27 19184 99579 70053 46/// ///// 11185 2//// 39981 49984 52011 91750
BBXX AMOUK05 19184 99520 10042 46/// ///// 10028 20021 30065 40100 57020 91750
BBXX AMOUK09 19184 99520 10019 46/// ///// 10076 20055 30074 40090 57037 91750
BBXX AMOUK12 19184 99534 70058 46/// ///// 10098 20072 30073 40112 52006 91750
BBXX AMOUK06 19184 99512 10016 46/// ///// 10087 20064 30080 40097 57027 91750
BBXX AMOUK19 19184 99602 70012 46/// ///// 10043 21030 39991 49996 57022 91750
AAXX 19184 06610 01470 22103 11041 21058 39635 40249 53010 69942 70171 82500 333 10001 47003 55300 20000 60005 82617 90766 93103 91108 91206
AAXX 19184 06670 01475 72502 11009 21032 39704 40235 52011 69972 71682 875// 333 10005 47005 55300 20000 60005 81717 87650 90766 93101 91112 91206
AAXX 19184 06700 02980 12501 11017 21032 39731 40245 51010 69962 80001 333 10017 43003 55300 20000 60005 81075 90766 93101 91109 91206
AAXX 19184 06680 01/01 92420 11166 21166 37431 47941 52004 69962 77074 333 11153 47183 55300 20000 60005 90766 93101 91134 91222
AAXX 19184 06990 31750 61401 11017 21029 39669 40239 53014 71011 865// 333 42/// 55300 20000 86650 91106 91203
AAXX 19184 06760 32985 00103 10037 21146 39732 40189 51020 333 10072 30/// 55300 20000 90766 93100 91114 91206
AAXX 19184 06720 02565 7//// 11022 21041 39647 40248 51015 69912 87600 333 11007 47998 55300 20000 60005 87724 90766 93100
AAXX 19184 42309 31994 10000 10120 20105 40155 71000 81030 333 59003
AAXX 19184 42314 31995 10000 10130 20103 40158 70500 81030 333 59012 81360
AAXX 19184 42398 31990 99901 10120 20120 40167 74540 89/// 333 59015
AAXX 19184 42410 31595 20000 10146 20139 40162 70500 82500 333 59012
AAXX 19184 42415 31995 20000 10138 20123 40180 70500 82030 333 59006 82360
AAXX 19184 42623 31495 10000 10094 20066 39276 40178 70500 81500 333 59014 81618
AAXX 19184 42492 NIL
AAXX 19184 42587 NIL
AAXX 19184 42591 NIL
AAXX 19184 42701 NIL
AAXX 19184 42706 NIL
AAXX 19184 42724 NIL
AAXX 19184 42798 NIL
AAXX 19184 42809 NIL
AAXX 19184 42886 NIL
AAXX 19184 42895 NIL
AAXX 19184 42971 NIL
AAXX 19184 42977 NIL
AAXX 19184 43333 NIL
AAXX 19184 43368 NIL
AAXX 19184 43400 NIL
AAXX 19184 43404 NIL
AAXX 19184 43410 NIL
AAXX 19184 43413 NIL
AAXX 19184 43415 NIL
AAXX 19184 43418 21460 83402 10240 20237 3//// 4//// 72588 8592/ 333 5//// 60147 84818 82920 86460
AAXX 19184 43421 21460 63601 10244 20235 30009 40111 72566 8512/ 333 59007 69967 85818
AAXX 19184 43422 NIL
AAXX 19184 43424 21466 60504 10244 20239 30099 40102 78082 86100 333 59004 69927 86816
AAXX 19184 43436 21470 80507 10258 20246 30105 40107 72582 8317/ 333 58002 69977 83817 88458
AAXX 19184 43441 NIL
AAXX 19184 43444 22470 80000 10218 20212 39572 40104 8612/ 333 59005 60007 86818 88450
AAXX 19184 43467 21458 80505 10247 20229 30089 40094 70382 8497/ 333 59010 69940 83816 81918 88458
AAXX 19184 43473 21350 80908 10146 20145 38122 48489 76086 882// 333 59012 60017 85706 87808
AAXX 19184 43475 NIL
AAXX 19184 43476 NIL
AAXX 19184 43479 NIL
AAXX 19184 43486 21360 80000 10242 20236 39996 40090 8572/ 333 59010 60007 83708 84810
AAXX 19184 43495 21460 3//// 10250 20238 30086 40102 70192 82120 333 59011 60007 82818
AAXX 19184 43497 21460 83607 10245 20230 30071 40089 70262 8517/ 333 59019 69907 84818 88460
AAXX 19181 55299 32980 00201 11157 21290 35858 57010 333 00252 10002
AAXX 19181 55591 32980 00901 11011 21224 36508 52008 333 00301 10139
AAXX 19181 56739 32980 03601 10047 20027 38366 57002 333 05151 10169
AAXX 19181 56951 32970 00000 10074 20050 38522 52002 333 05151 10212
AAXX 19181 56964 32565 20000 10105 20093 38726 40169 57002 82100 333 05252 10200
AAXX 19181 57328 31950 80000 10077 20026 39846 40265 54000 71000 8807/ 333 10097
AAXX 19181 57411 31920 82901 10067 20052 39891 40272 57003 71000 8807/ 333 10078
AAXX 19181 57447 11960 82201 10063 20051 39717 40272 57004 69921 70060 8807/ 333 10096
AAXX 19181 57662 11762 83201 10080 21007 30231 40276 57002 69901 76000 885// 333 10102
AAXX 19181 57745 32960 80000 10073 20009 39936 40271 52003 8807/ 333 10091
AAXX 19181 57972 32964 00000 10059 20020 30037 40266 57001 333 10133
AAXX 19181 58203 32960 00202 11015 21048 30252 40295 57007 333 10081
AAXX 19181 58314 31958 80000 11013 21013 30176 40286 57006 71000 8807/ 333 10112
AAXX 19181 58424 31957 80000 10045 21011 30250 40276 57005 71000 8807/ 333 10092
AAXX 19181 59023 32960 70000 10114 20065 39917 40231 52001 8703/ 333 10146
AAXX 19181 59417 32960 01401 10109 20092 30049 40205 57002 333 10198
AAXX 19181 59985 11470 80405 10225 20216 30123 40128 57022 69981 78080 882// 333 10243
AAXX 19181 59995 NIL
AAXX 19184 94996 455// 81307 10181 20107 30026 40162 53013 91830
AAXX 19184 94996 455// 81307 10181 20107 30026 40162 53013 91830
BBXX 46185 19181 99524 71298 46/// /2012 10088 40124 57019 22200 00076 10909 70043 333 91214
AAXX 19184 89050 41293 80314 10022 20022 49907 52006 74464 886//
AAXX 19184 89512 32998 21504 11021 21052 39665 49813 52004 81031 333 20020
AAXX 19184 89574 42998 12801 10009 21066 49887 57028 81030
AAXX 19184 89592 42998 51521 11005 21056 49739 57060 80001
AAXX 19184 89606 41993 81718 11264 21310 36313 47747 52013 77673 80007 333 11187
BBXX 46185 19181 99524 71298 46/// /2012 10088 40124 57019 22200 00076 10909 70043 333 91214
AAXX 19181 24790 41999 00000 11441 21463 39357 40309 54000 77670
AAXX 19181 24988 42999 00401 11277 21294 39855 40130 53005
AAXX 19181 25378 NIL
AAXX 19181 25503 41697 80801 11277 21301 30080 40219 54000 77072 83537
AAXX 19181 25705 41998 82601 11291 21315 39858 40223 57005 77172 85037
AAXX 19181 25927 42998 03301 11218 21258 30101 40108 52005
AAXX 19181 25932 42999 03203 11179 21258 30019 40058 58006
AAXX 19181 31152 NIL
AAXX 19181 31174 42999 02606 11156 21175 30169 40181 57004
AAXX 19181 31489 42997 02201 11305 21330 30100 40231 54000
AAXX 19181 31866 42999 03007 11144 21251 30195 40200 52007
AAXX 19181 31959 42998 02506 11117 21189 30177 40222 52006
AAXX 19181 31989 42999 00502 11104 21197 30197 40254 53005
AAXX 19181 32027 42999 03204 11160 21202 30176 40185 52003 333 91005 91107
AAXX 19181 32076 42998 42902 11176 21188 30147 40158 52009 81031 333 91003 91104
AAXX 19181 32099 42598 83610 11072 21085 30127 40135 52007 885// 333 91011 91113
AAXX 19181 32121 41597 83503 11086 21114 30130 40153 52003 78582 86932 333 91005 91106
AAXX 19181 32213 42598 63207 11044 21060 39931 49995 53008 86500
AAXX 19181 32287 41497 80402 11113 21141 30042 40052 53006 78582 889// 333 86712
AAXX 19181 32408 42999 00303 11231 21264 39969 40011 53010
AAXX 19181 32509 42998 33205 11104 21201 39961 49996 53006 83030
AAXX 19181 32594 42598 70903 11119 21132 39960 49997 52004 86302
AAXX 19184 48568 32460 70407 10271 20228 30080 40087 57032 83836 333 59032 70029
AAXX 19184 48372 31956 20000 10198 20187 30079 40138 57004 71000 80005 333 59021
AAXX 19184 61017 32960 50000 10170 20029 39739 40163 80002 333 10267 58013 85080
AAXX 19184 61024 32960 31206 10226 21032 39567 40139 80002 333 10290 58011 83080 P 048
AAXX 19184 61036 32962 70000 10280 20017 39671 40112 81038 333 10330 58002 81365 87280
AAXX 19184 61043 32960 50606 10264 21030 39668 40111 80001 333 10308 58008 85080
AAXX 19184 61045 32965 70000 10230 21010 39622 40128 80008 333 10305 58004 87280
AAXX 19184 61049 32960 70000 10220 20005 39794 40119 80008 333 10291 58009 87280
AAXX 19184 61052 32960 30206 10284 20011 39856 40114 81032 333 10330 58006 81365 83080
AAXX 19184 61075 32960 70000 10270 20046 39799 40111 81038 333 10335 58011 81364 87280
AAXX 19184 61080 32960 70000 10253 21001 39697 40122 81048 333 10311 58009 81364 87280
AAXX 19184 61090 32965 70000 10244 20002 39606 40122 80008 333 10300 58008 87280
AAXX 19184 61091 32965 50000 10230 20094 39677 40142 80002 333 10310 58011 85080
AAXX 19184 61096 32965 70000 10236 21022 39743 40130 80008 333 10300 58009 87280
AAXX 19184 61099 32960 73606 10200 20041 39864 40093 80008 333 10352 58006 87280
AAXX 19181 60376 16/// /1903 10088 20078 60032 333 10126
AAXX 19181 60593 36/// /0000 10131 333 10168
BBXX NIL
AAXX 19184 40255 32960 01108 10128 20014 39504 40227 52006 333 10193
AAXX 19184 40260 NIL
AAXX 19184 40270 31950 01205 10150 21026 39323 40227 52005 70600 333 10182
AAXX 19184 40272 31957 00810 10128 21053 39386 40230 52006 70500 333 10194
AAXX 19184 40290 NIL
AAXX 19184 40340 32960 03505 10176 20022 40167 52007 333 10260
BBXX NIL
BBXX NIL
BBXX NIL
BBXX NIL
AAXX 19184 40250 NIL
AAXX 19184 40265 NIL
AAXX 19184 40296 32960 00000 10190 20055 40185 52009 333 10260
AAXX 19184 40310 NIL
AAXX 19184 43466 21470 80000 10248 20233 30086 40098 70282 8412/ 333 59005 69907 84818 88460
AAXX 19180 44231 329// 00000 11247 21301 38800 40523 58003 70400
AAXX 19180 44203 329// 00000 11376 21399 38495 40656 58003
AAXX 19180 44207 329// 72304 11207 21247 38344 40410 58010 80008
AAXX 19180 44230 329// 00103 11264 21296 38853 40507 57008
AAXX 19181 23074 42997 01103 11299 21324 30266 40294
AAXX 19181 23274 42997 30901 11285 21308 30264 40305 51002 80001
AAXX 19181 23383 42998 00000 11423 21455 39963 40380 52015
AAXX 19181 23472 41998 70501 11280 21312 30251 40306 52005 70272 83036
AAXX 19181 23678 429// 80000 11200 21226 30249 40312 52005 8802/
AAXX 19181 23884 425// 30000 11249 21274 30242 40323 52011 83500
AAXX 19181 23891 42996 31502 11284 21315 39965 52027 80001
AAXX 19181 24507 419// 50000 11331 21354 30050 40326 52016 70272 80002
AAXX 19181 24817 419// 83402 11268 21293 39818 40221 53021 77172 83035
AAXX 19181 24908 41998 83601 11245 21270 39902 40261 52027 72272 80007
AAXX 19181 29263 41559 72502 11151 21171 30218 40425 52012 78582 82931
AAXX 19181 29282 41967 82901 11184 21210 30119 40301 52018 77172 80007
AAXX 19181 29379 41898 22902 11162 21181 30109 40332 52012 70273 82030
AAXX 19181 29570 41596 82702 11117 21161 30005 40372 52027 78583 889//
AAXX 19181 29698 415// 83206 11078 21113 39758 40286 52015 73683 889// 333 92980
AAXX 19181 30230 41596 82803 11153 21195 39861 40208 53008 78583 889//
AAXX 19181 30252 416// 80000 11152 21172 39857 40187 57006 78582 889//
AAXX 19181 30309 41598 83003 11150 21177 39725 40273 52029 78582 8592/
AAXX 19181 30328 419// 81401 11155 21174 39786 40233 54000 77373 8802/
AAXX 19181 30521 419// 80602 11178 21197 39707 40264 57008 77172 8802/
AAXX 19181 30710 41595 83301 11174 21192 39681 40303 57010 71022 82931
AAXX 19181 23973 41997 80000 11269 21293 30251 40320 52015 77171 80007
AAXX 19181 23975 419// 50000 11263 21287 30207 40329 52016 77111 85020
AAXX 19181 23986 NIL
AAXX 19181 23987 41997 81502 11247 21272 30248 40329 51016 77187 80007
AAXX 19181 24606 419// 02701 11294 21318 39988 40287 52023 70271
AAXX 19181 29253 419// 80000 11130 21157 30152 40335 52010 70272 8802/
AAXX 19181 29471 41496 82602 11123 21150 30108 40348 52018 78583 889// 333 88919
AAXX 19181 29481 41999 62903 11135 21155 30079 40331 52017 70272 80001
AAXX 19181 29553 41956 82704 11130 21157 39990 40378 52014 77072 8802/
AAXX 19181 29562 41550 82704 11127 21140 39928 40368 52016 78583 889//
AAXX 19181 29581 415// 82703 11115 21143 30071 40340 52022 77173 8802/
AAXX 19181 29594 41597 83104 11122 21142 39913 40318 52030 78583 889//
AAXX 19181 29653 41596 83603 11117 21137 39867 40377 52022 78682 883//
AAXX 19181 29675 41596 82601 11105 21125 39790 40370 52017 77177 8802/
AAXX 19181 29676 41698 83004 11089 21133 39895 40336 52020 73673 885//
AAXX 19181 29752 414// 82408 11155 21168 38895 48524 53013 78683 889// 333 91121
AAXX 19181 29759 419// 82705 11142 21177 39316 40406 52003 77173 8807/ 333 91114
AAXX 19181 29766 41896 82701 11154 21167 30019 40399 54000 77172 8802/
AAXX 19181 29789 42598 82505 11094 21145 39091 40310 53005 889//
AAXX 19181 29864 419// 82808 11071 21134 39700 40373 58001 73622 8807/ 333 91114
AAXX 19181 29866 418// 82407 11080 21102 30050 40384 54000 77173 8802/ 333 91114 92981
AAXX 19181 29869 415// 80000 11177 21189 30021 40427 54000 77122 8872/ 333 95090
AAXX 19181 29956 42684 82506 11088 21137 39853 40441 57003 889// 333 88937 91112
AAXX 19181 30337 41596 82003 11144 21164 39754 40222 57011 78683 889//
AAXX 19181 30405 415// 83203 11118 21146 39733 40285 52021 78583 889//
AAXX 19181 30504 41997 83303 11095 21111 39615 40284 53018 77173 8802/
AAXX 19181 30603 41996 82101 11155 21168 39686 40290 57002 77172 8802/
AAXX 19181 30612 415// 81203 11181 21200 39729 40298 57002 78582 8592/
AAXX 19181 30622 419// 80000 11244 21262 39597 40302 57016 77172 8802/
AAXX 19181 30627 41998 82301 11157 21170 39300 40278 57016 77172 80007
AAXX 19181 30703 429// 82502 11157 21170 39582 40293 57007 8802/
AAXX 19181 36307 42997 02001 11351 21374 39132 48610 52004
BBXX 3EIZ7 19184 99448 70557 41/95 /3625 10020 2103/ 40050 51020 745// 8//// 22265 0//// 2//// 3//// 4//// 5//// 6//// 80000 ICE /////
AAXX 19181 78310 12570 70908 10265 20204 30176 40186 58016 60001 84202 333 10276 20194 30/// 56209 59026 84820 83074 92026 555 10902
AAXX 19181 78315 11470 51007 10254 20177 30121 40187 58019 60001 70522 83272 333 10270 20181 30/// 56299 59014 83819 85075 555 10903
AAXX 19181 78318 11560 71007 10264 20193 30184 40188 56021 60001 70511 82802 333 10269 20198 31/// 56209 59016 70018 81820 87073 555 10902
AAXX 19181 78322 11559 60405 10268 20176 30179 40196 58018 60001 70522 83442 333 10270 20172 30/// 56999 59010 70011 83820 84090
AAXX 19181 78324 11510 70803 10249 20209 30185 40196 58003 60001 70511 875// 333 10249 20223 30/// 56199 59002 87620 555 10703
AAXX 19181 78325 11563 70908 10246 20176 30139 40197 56016 69901 70582 84372 333 10254 20191 30/// 56299 57983 59005 70040 84820 86360
AAXX 19181 78328 11461 61008 10243 20186 30201 40/// 57015 60001 70522 84802 333 10249 20209 30/// 56200 58001 82817 84620 86073 92437 555 10904
AAXX 19181 78333 11/10 60603 10264 20187 30183 40190 58018 60001 70511 81232 333 10265 20178 30/// 56990 58002 818// 86070
AAXX 19181 78344 11564 60806 10263 20186 30139 40188 58019 60001 70511 84802 333 10263 20185 30/// 56209 57821 58003 84820 555 10904
AAXX 19181 78345 12565 60708 10257 20204 30190 40194 57015 60001 86800 333 10258 20197 30/// 56909 58007 83820 83630
AAXX 19181 78348 11557 70607 10246 20178 30147 40199 58014 60051 70586 81808 333 10248 20220 31/// 56206 57862 58007 70052 81822 86275 555 10903 20027
AAXX 19181 78349 11562 70905 10262 20181 30089 40199 57020 60001 70522 82202 333 10270 20196 30/// 56909 58007 82822 87070
AAXX 19181 78351 NIL
AAXX 19181 78353 01565 60704 10244 20209 30175 40197 58014 69971 72582 85802 333 10260 20215 31/// 56209 58005 69977 70034 84820 555 10803
AAXX 19181 78355 01570 70508 10232 20212 30053 40195 58011 69981 72582 878// 333 10252 20195 31/// 56199 58013 69987 70098 84826 85633 555 10503
AAXX 19181 78358 NIL
AAXX 19181 78360 12570 40308 10292 20188 30163 40174 58016 60001 83802 333 10300 20216 30/// 56209 57817 58005 70003 82820 92034 555 10902
AAXX 19181 78363 11561 60703 10277 20158 30044 40158 58025 60001 70522 83502 333 10277 20202 31/// 56909 58002 70091 83621 84071
AAXX 19181 78365 01560 70915 10250 20219 30189 40194 58011 69981 72582 86963 333 10264 20238 31/// 56299 57913 58009 69907 70020 85820 819// 92047 555 10903
AAXX 19181 78369 11568 40707 10269 20193 30174 40183 57010 60001 70500 83202 333 10272 20249 30/// 56209 57866 58019 83820 92044 555 10703
AAXX 19184 71445 16/// /1811 11099 21123 39931 40216 56008 60001 333 11075 21133 70000 555 10070
AAXX 19184 71149 16/// /2604 11048 21090 60001 333 11036 21050 70006
AAXX 19184 71525 16/// /2021 11004 21041 60001 333 11002 21082 70000
AAXX 19184 71526 16/// /2207 11049 21092 60001 333 11049 21101 70000
AAXX 19184 71535 16/// /2006 10017 21027 60001 333 10017 21069 70000
AAXX 19184 71536 16/// /2314 10016 21041 60001 333 10016 21074 70000
AAXX 19184 71537 16/// /1807 11055 21066 60001 333 11055 21130 70000
AAXX 19184 71464 46/// ///25 10061 39892 40105 55000 6///1 333 10063 20004 7////
AAXX 19184 71466 46/// ///// 10061 39898 40135 58009 6///1 333 7////
AAXX 19184 71916 46/// /2401 11403 21442 39951 40009 53006 6///1 333 11377 21406 7////
AAXX 19184 71751 46/// /3020 11045 21083 39926 6///1 333 7////
AAXX 19184 71010 16/// /2209 11038 21075 60001 333 11038 21118 70000
AAXX 19184 71214 16/// /2017 11030 21056 60001 333 11030 21142 70004
AAXX 19184 71216 16/// /1403 10002 21022 39675 40305 51005 60001 333 10006 21018 70000
AAXX 19184 71223 16/// /2219 11045 21064 60001 333 11045 21143 70004
AAXX 19184 71225 16/// /1916 10001 21044 60001 333 10001 21084 70004
AAXX 19184 71227 46/// /2113 11058 21085 6///1 333 11055 21139 7////
AAXX 19184 71351 16/// /2205 11027 21076 60001 333 11027 21093 70009
AAXX 19184 71353 16/// /2316 11019 21107 60001 333 11019 21105 70008
AAXX 19184 71345 16/// /2019 10011 21047 60001 333 10011 21072 70000
AAXX 19184 71257 16/// /1910 11069 21090 60001 333 11069 21149 70000
AAXX 19184 71258 16/// /2210 11018 21073 60001 333 11018 21127 70007
AAXX 19184 71259 16/// /1804 11085 21098 60001 333 11085 21177 70000
AAXX 19184 71274 16/// /2310 11043 21085 60001 333 21123 7////
AAXX 19184 71275 46/// /2113 11043 21096 6///1 333 11043 21138 7////
AAXX 19184 71278 16/// /2312 11041 21081 60001 333 11041 21126 70000
AAXX 19184 71286 16/// /2311 11020 21087 60001 333 11020 21144 70000
AAXX 19184 71287 16/// /2311 11008 21069 60001 333 11008 21118 70000
AAXX 19184 71289 16/// /1913 11063 21094 60001 333 11063 21132 70000
AAXX 19184 71683 46/// /3606 11239 39856 49970 53014 6///1 333 11207 21287 7////
AAXX 19181 31152 42997 31801 11367 21394 39805 40265 54000 80002
AAXX 19184 42027 31595 80000 10020 21004 38428 48517 70522 8352/ 333 59032
AAXX 19184 42101 31995 00000 10070 20066 40186 71000 333 59014
AAXX 19184 42111 31994 00501 10088 20076 39389 40187 71000 333 59006
AAXX 19184 42131 32996 00901 10104 20092 40177 333 59010
AAXX 19184 42165 32996 00000 10146 20025 40140 333 59029
AAXX 19184 42182 31992 00000 10086 20082 40183 74444 333 59013
AAXX 19184 42328 32996 03603 10152 20022 40152 333 59013
AAXX 19184 42339 31995 00000 10128 20056 40155 70500 333 59007
AAXX 19184 42348 31995 00000 10124 20029 40172 70500 333 59015
AAXX 19184 42361 31993 00000 10084 20071 40181 74044 333 59014
AAXX 19184 42369 31/90 93203 10090 20086 40190 74544 89/// 333 59004
AAXX 19184 42379 31993 03202 10106 20077 40176 74444 333 59005
AAXX 19184 42452 32996 00000 10144 20071 40168 333 59013
AAXX 19184 42475 31/90 90000 10084 20084 40187 74544 89/// 333 59005
AAXX 19184 42071 NIL
AAXX 19184 42189 NIL
AAXX 19184 42260 NIL
AAXX 19183 42071 31995 40903 10128 20070 40172 70511 80002 333 59025 84070
AAXX 19184 63729 12480 20000 10200 20184 38868 48/// 60072 82900 333 0//58 10265 55300 58006 82618 81920
AAXX 19184 63733 32580 20000 10217 20193 38860 48500 81931 333 10269 55300 58004 81922
AAXX 19184 63756 12580 10000 10217 20193 38865 48501 69952 81901 333 0//14 10160 58002 81820 81921
AAXX 19184 63791 12580 21214 10259 20166 39105 48492 60062 82500 333 0//14 10348 55300 59009 81624 Q1012
AAXX 19184 63801 12580 30000 10225 20205 39199 48525 69902 819231 333 0//15 10282 59004 81820 81921 83075
AAXX 19184 63832 32580 30000 10244 20176 38816 48496 81231 333 10290 59008 81822
AAXX 19184 63866 11480 10230 20214 39508 48/// 69962 79596 8592/ 333 0//11 10335 59018 85615 81918 88458
AAXX 19184 63870 31480 10810 10278 20253 30083 40101 71311 81900 333 10340 55300 58002 81818 81920
AAXX 19184 63881 32480 70000 10183 20168 38204 48/// 83972/ 333 10242 55300 59006 83618 81920 86456
AAXX 19184 63887 32580 20000 10210 20172 38584 48505 81941 333 10272 55300 59004 81820 81923
AAXX 19184 63894 32580 60610 10278 20259 30051 40111 86900 333 10335 55300 58011 86823 81924
AAXX 19184 63962 12580 40000 10211 20189 38955 48513 60232 84900 333 10271 58003 84620 81922
AAXX 19184 63971 12580 70000 10236 20232 39979 40109 60227 8293/ 333 0//19 10295 55300 58009 82822 81923 86358
AAXX 19184 63862 NIL
AAXX 19184 63932 NIL
AAXX 19184 60658 36/// /0215 10145 21044 333 10179
AAXX 19184 60679 36/'/ /3410 10040 21120 333 10108
AAXX 19184 71445 16/// /1811 11099 21123 39931 40216 56008 60001 333 11075 21133 70000 555 10070
AAXX 19184 71525 16/// /2021 11004 21041 60001 333 11002 21082 70000
AAXX 19184 71526 16/// /2207 11049 21092 60001 333 11049 21101 70000
AAXX 19184 71535 16/// /2006 10017 21027 60001 333 10017 21069 70000
AAXX 19184 71536 16/// /2314 10016 21041 60001 333 10016 21074 70000
AAXX 19184 71537 16/// /1807 11055 21066 60001 333 11055 21130 70000
AAXX 19184 71149 16/// /2604 11048 21090 60001 333 11036 21050 70006
AAXX 19184 71916 46/// /2401 11403 21442 39951 40009 53006 6///1 333 11377 21406 7////
AAXX 19184 71010 16/// /2209 11038 21075 60001 333 11038 21118 70000
AAXX 19184 71351 16/// /2205 11027 21076 60001 333 11027 21093 70009
AAXX 19184 71353 16/// /2316 11019 21107 60001 333 11019 21105 70008
AAXX 19184 71214 16/// /2017 11030 21056 60001 333 11030 21142 70004
AAXX 19184 71216 16/// /1403 10002 21022 39675 40305 51005 60001 333 10006 21018 70000
AAXX 19184 71223 16/// /2219 11045 21064 60001 333 11045 21143 70004
AAXX 19184 71225 16/// /1916 10001 21044 60001 333 10001 21084 70004
AAXX 19184 71227 46/// /2113 11058 21085 6///1 333 11055 21139 7////
AAXX 19184 71464 46/// ///25 10061 39892 40105 55000 6///1 333 10063 20004 7////
AAXX 19184 71466 46/// ///// 10061 39898 40135 58009 6///1 333 7////
AAXX 19184 71751 46/// /3020 11045 21083 39926 6///1 333 7////
AAXX 19181 51711 11980 82501 11092 21113 38031 52009 69901 77070 8802/ 333 00408 11067
AAXX 19181 51730 32970 73602 11067 21082 40323 52007 80002 333 00302 11012
AAXX 19181 52112 32980 02904 11112 21165 40440 52018 333 00902 11048
AAXX 19181 52737 32980 03201 11126 21259 37084 57007 333 00253 10013
AAXX 19181 52787 32980 71809 11113 21145 37023 57007 80002 333 00200 11046
AAXX 19181 53352 32980 01401 11213 21236 40408 54000 333 11063
AAXX 19181 53593 32960 00201 11112 21152 40341 52002 333 11021
AAXX 19181 53705 32965 80000 11076 21084 40357 57008 8802/ 333 00300 11022
AAXX 19181 53863 31930 72501 11063 21074 40326 54000 71000 80002 333 10023
AAXX 19181 53975 31958 02201 11036 21072 40319 57004 71000 333 10030
AAXX 19181 54273 32970 00901 11248 21280 40341 52003 333 11088
AAXX 19181 54324 32970 01802 11162 21207 40327 57001 333 11004
AAXX 19181 54405 32970 00401 11095 21185 40328 54000 333 10008
AAXX 19181 54436 32980 00000 11121 21153 40335 52001 333 10014
AAXX 19181 54808 32961 03601 11032 21048 40313 57003 333 10059
AAXX 19181 54826 32975 02208 11052 21332 38507 57007 333 11015
AAXX 19181 54836 32961 02701 11033 21061 40318 57006 333 10060
AAXX 19181 54863 31956 82701 10001 21072 40313 57002 71000 8802/ 333 10053
AAXX 19181 56018 32980 02002 11138 21301 36189 52001 333 00251 10027
AAXX 19181 56021 32980 00000 11175 21284 36076 57005 333 00200 10005
AAXX 19181 57071 31930 70201 11002 21037 40311 57007 71000 80002 333 10044
AAXX 19183 91553 31598 69902 10255 20233 40087 53003 70222 85901 333 568/9 83820 81925 85640
AAXX 19183 91553 31598 69902 10255 20233 40087 53003 70222 85901 333 568/9 83820 81925 85640
AAXX 19184 68513 16/// /1422 10172 20106 30018 40130 56002 69922 333 10236 20172 91031 555 20002 91013
AAXX 19184 68514 NIL
AAXX 19184 68523 36/// /2111 10285 20005 39096 48528 55000 333 10337 20285 91017 555 91016
AAXX 19184 68527 36/// /2607 10333 20062 39052 48518 53003 333 10361 20329 91010 555 91014
AAXX 19184 68572 NIL
AAXX 19184 68575 16/// /2604 10183 20150 39151 48572 53018 60032 333 10321 20178 91009 555 20036 91023
AAXX 19184 68581 36/// /1904 10205 20173 39421 48569 53018 333 10307 20203 91011 555 91020
AAXX 19184 68583 36/// /2205 10230 20198 30067 40176 53031 333 10283 20230 91012 555 91017
AAXX 19184 68589 16/// /1906 10161 20111 38291 48552 51006 60252 333 10314 20142 91010 555 20258 91025
AAXX 19184 68613 16/// /2113 10174 20115 30034 40150 58008 69922 333 10224 20171 91022 555 20002 91015
AAXX 19184 68647 36/// /0806 10165 20140 38949 48543 57020 333 10320 20158 91010 555 91021
AAXX 19184 68651 16/// /1913 10137 20124 38628 48588 52037 60072 333 10294 20137 91022 555 20072 91028
AAXX 19184 68715 36/// /1906 10197 20113 30029 40156 58003 333 10256 20197 91010 555 91015
AAXX 19184 68717 36/// /1602 10215 20104 30003 40145 53001 333 10272 20215 91005 555 91014
AAXX 19184 68723 36/// /1605 10207 20074 39398 48532 52013 333 10290 20207 91014 555 91016
AAXX 19184 68737 32770 21912 10182 20113 39263 48534 52031 81570 333 10349 20182 91023 555 91018
AAXX 19184 68744 16/// /1616 10153 20119 39121 48527 52015 69962 333 10346 20152 91025 555 20006 91019
AAXX 19184 68747 36/// /1206 10190 20125 39669 48577 53001 333 10266 20186 91011 555 91020
AAXX 19184 68754 16/// /2102 10150 20137 39190 48566 52006 60012 333 10246 20146 91005 555 20012 60125 91023
AAXX 19184 68817 36/// /1721 10195 20123 30148 40161 57007 333 10250 20194 91039 555 91016
AAXX 19184 68821 36/// /1213 10206 20093 39924 40161 53011 333 10279 20206 91019 555 91016
AAXX 19184 68835 NIL
AAXX 19184 68843 36/// /2705 10180 20127 30094 40193 53006 333 10237 20180 91007 555 91019
AAXX 19184 68849 36/// /1705 10151 20095 39457 48555 53002 333 10208 20151 91008 555 91020
AAXX 19184 68912 36/// /1415 10183 20119 30165 40174 57002 333 10214 20183 91021 555 91017
AAXX 19184 68918 36/// /1410 10195 20130 30168 40187 56002 333 10224 20195 91016 555 91018
AAXX 19184 68921 36/// /1508 10191 20129 30187 40190 52006 333 10235 20191 91012 555 91019
AAXX 19184 68925 36/// /1502 10165 20110 39813 40178 50000 333 10215 20165 91008 555 91018
AAXX 19184 68926 32169 51604 10189 20120 30013 40192 52010 85500 333 10250 20189 91008 555 91019
AAXX 19184 68935 36/// /2102 10177 20124 30132 40196 53009 333 10204 20177 91004 555 91019
AAXX 19181 80001 32570 50706 10286 20222 30129 40130 81236 333 56300 59010 81820 84070
AAXX 19181 80002 32570 50605 10286 20222 81171 333 56290 81822 83359
AAXX 19181 80009 31560 20000 10312 20235 30086 40091 70500 82831 333 56000 59016 82820
AAXX 19181 80022 31469 31003 10320 20218 30098 40100 70510 82101 333 562/9 59011 82815
AAXX 19181 80028 31560 33606 10299 20223 30075 40110 70510 81105 333 568/0 59012 81820 83070
AAXX 19181 80035 31565 20304 10284 20237 30124 40129 70510 82100 333 562// 59004 82820
AAXX 19181 80036 31568 20305 10316 20200 70500 82202 333 560/0 57893 82820
AAXX 19181 80063 31566 60000 10314 20241 70521 83410 333 5600/ 83620 84460
AAXX 19181 80084 31465 81804 10261 20231 71522 878// 333 561// 87815
AAXX 19181 80091 01465 60000 10274 20235 60111 70592 82830 333 5690/ 69927 82610 84360
AAXX 19181 80094 31465 73104 10228 20192 38802 70522 85870 333 5672/ 59010 85815
AAXX 19181 80097 32460 73603 10276 20219 39756 40103 83836 333 56999 58000 83817 83359
AAXX 19181 80099 31468 30703 10306 20231 39920 40064 70500 83201 333 562/9 59007 83810
AAXX 19181 80110 01559 81305 10210 20160 38489 69901 75022 8457/ 333 56009 58007 69907 84630 85358
AAXX 19181 80112 31565 83404 10175 20139 37896 71522 8627/ 333 56809 57894 58003 86820 83458
AAXX 19181 80139 32570 40406 10319 20219 83130 333 5629/ 83823
AAXX 19181 80144 01450 82403 10254 20230 60011 75152 8521/ 333 5600/ 69937 85815 88457
AAXX 19181 80149 NIL
AAXX 19181 80210 01463 82901 10215 20188 38660 69911 75122 84278 333 56990 57781 58001 69916 84715 84558
AAXX 19181 80211 11565 70502 10230 20184 69941 71552 85270 333 5662/ 85823 83360
AAXX 19181 80214 01460 81001 10240 20219 39109 60031 72165 8657/ 333 5650/ 59005 60037 86617 86358
AAXX 19181 80222 31568 80402 10179 20093 37503 70522 86875 333 56999 59011 86820
AAXX 19181 80234 22562 60502 10296 20205 39597 40090 60024 85532 333 56239 58001 60022 85623
AAXX 19181 80241 NIL
AAXX 19181 80259 31560 71602 10252 20192 39050 70522 85230 333 5646/ 57883 59001 85823 83359
AAXX 19181 80315 11458 71804 10253 20225 39587 40089 69941 71552 85270 333 5688/ 59001 85817 83460
AAXX 19181 80342 31450 73303 10182 20157 38216 74022 86830 333 5647/ 58001 86815 84358
AAXX 19181 80370 01457 70000 10138 20111 69931 72052 87800 333 563// 69917 87818
AAXX 19181 80398 01262 81802 10266 20243 30011 40106 60051 70265 887// 333 563// 58011 69957 86705 85620
AAXX 19181 80400 NIL
AAXX 19181 80403 32470 10501 10323 20235 30102 40121 81200 333 30/// 56900 59011 81813 555 10124
AAXX 19181 80405 NIL
AAXX 19181 80407 32470 3//// 10320 20224 30050 4//// 83400 333 30/// 6900 5//// 83616 555 10125
AAXX 19181 80410 31470 40705 10260 20215 39454 40133 69991 84200 333 30/// 56900 58016 84716 555 10167
AAXX 19181 80413 32470 72703 10318 20168 39627 40110 82507 333 30/// 56909 58001 82613 555 10145
AAXX 19181 80415 NIL
AAXX 19181 80419 NIL
AAXX 19181 80421 32364 7//// 10315 20169 30104 40126 80806 333 30/// 56909 58009 82810 85277 555 1012
AAXX 19181 80423 32470 7//// 10294 20127 30089 40106 8253/ 333 30/// 5629/ 58020 82610 85357 555 10105
AAXX 19181 80428 32468 40902 10314 20202 39918 40101 84100 333 30/// 56900 58005 84820 555 10114
AAXX 19181 80432 NIL
AAXX 19181 80435 NIL
AAXX 19181 80438 32570 52005 10240 20162 38515 48512 83201 333 30/// 56909 59004 83827 555 10197
AAXX 19181 80444 32470 5//// 10310 2//// 30045 4//// 852// 333 30/// 562// 59008 58004 85813 555 10104
AAXX 19181 80447 11460 63104 10289 20205 39663 40083 60011 70252 8352/ 333 30/// 5699/ 59006 83617 83459 555 10135
AAXX 19181 80448 32570 30703 10317 20225 3//// 4//// 83200 333 30/// 56900 5//// 83820
AAXX 19181 80450 32475 81103 10298 20235 30069 40124 83508 333 30/// 56209 58002 83616 85280 555 10125
AAXX 19181 80453 NIL
AAXX 19181 80457 32470 6//// 10335 20145 30014 40099 83108 333 30/// 56909 59005 83813 555 10099
AAXX 19181 80462 NIL
AAXX 19181 80402 NIL
AAXX 19181 80412 NIL
AAXX 19181 80416 NIL
AAXX 19181 80420 32470 50706 10293 20151 30115 40121 858// 333 30/// 569// 58011 85813 555 10134
AAXX 19181 80425 32570 42702 10329 20242 30083 40114 84100 333 30/// 56900 58002 84820 555 10115
AAXX 19181 80426 32470 60201 10256 20174 39481 40125 865// 333 30/// 569// 59002 86616 555 10156
AAXX 19181 80427 32570 40506 10320 20229 39863 40115 82200 333 30/// 56900 59003 82823 555 10132
AAXX 19181 80431 32570 8//// 10320 20121 39620 40096 83208 333 30/// 56909 58000 83820 85820 555 10122
AAXX 19181 80434 NIL
AAXX 19181 80437 32470 70502 10290 20217 30007 40092 875// 333 30/// 569// 59004 87613 555 10098
AAXX 19181 80440 32570 30903 10320 20191 39900 40110 83200 333 30/// 56900 58004 83823 555 10120
AAXX 19181 80442 32470 3//// 10326 2//// 30002 4//// 83500 333 30/// 56900 58013 83613 555 10113
AAXX 19181 80472 32470 60703 10305 20165 39638 40114 82518 333 30/// 56999 58009 82616 555 10140
AAXX 19181 80475 32560 50202 10290 20168 39653 40122 825// 333 31/// 569// 59014 85620 555 10135
AAXX 19181 80476 32360 2//// 10333 20245 30095 44012 81120 333 30/// 56990 59001 81810
AAXX 19181 80478 NIL
AAXX 19181 80479 NIL
AAXX 19181 80400 NIL
AAXX 19181 80403 32470 10501 10323 20235 30102 40121 81200 333 30/// 56900 59011 81813 555 10124
AAXX 19181 80405 NIL
AAXX 19181 80407 32470 3//// 10320 20224 30050 4//// 83400 333 30/// 6900 5//// 83616 555 10125
AAXX 19181 80410 31470 40705 10260 20215 39454 40133 69991 84200 333 30/// 56900 58016 84716 555 10167
AAXX 19181 80413 32470 72703 10318 20168 39627 40110 82507 333 30/// 56909 58001 82613 555 10145
AAXX 19181 80415 NIL
AAXX 19181 80419 NIL
AAXX 19181 80421 32364 7//// 10315 20169 30104 40126 80806 333 30/// 56909 58009 82810 85277 555 1012
AAXX 19181 80423 32470 7//// 10294 20127 30089 40106 8253/ 333 30/// 5629/ 58020 82610 85357 555 10105
AAXX 19181 80428 32468 40902 10314 20202 39918 40101 84100 333 30/// 56900 58005 84820 555 10114
AAXX 19181 80432 NIL
AAXX 19181 80435 NIL
AAXX 19181 80438 32570 52005 10240 20162 38515 48512 83201 333 30/// 56909 59004 83827 555 10197
AAXX 19181 80444 32470 5//// 10310 2//// 30045 4//// 852// 333 30/// 562// 59008 58004 85813 555 10104
AAXX 19181 80447 11460 63104 10289 20205 39663 40083 60011 70252 8352/ 333 30/// 5699/ 59006 83617 83459 555 10135
AAXX 19181 80448 32570 30703 10317 20225 3//// 4//// 83200 333 30/// 56900 5//// 83820
AAXX 19181 80450 32475 81103 10298 20235 30069 40124 83508 333 30/// 56209 58002 83616 85280 555 10125
AAXX 19181 80453 NIL
AAXX 19181 80457 32470 6//// 10335 20145 30014 40099 83108 333 30/// 56909 59005 83813 555 10099
AAXX 19181 80462 NIL
AAXX 19181 80402 NIL
AAXX 19181 80412 NIL
AAXX 19181 80416 NIL
AAXX 19181 80420 32470 50706 10293 20151 30115 40121 858// 333 30/// 569// 58011 85813 555 10134
AAXX 19181 80425 32570 42702 10329 20242 30083 40114 84100 333 30/// 56900 58002 84820 555 10115
AAXX 19181 80426 32470 60201 10256 20174 39481 40125 865// 333 30/// 569// 59002 86616 555 10156
AAXX 19181 80427 32570 40506 10320 20229 39863 40115 82200 333 30/// 56900 59003 82823 555 10132
AAXX 19181 80431 32570 8//// 10320 20121 39620 40096 83208 333 30/// 56909 58000 83820 85820 555 10122
AAXX 19181 80434 NIL
AAXX 19181 80437 32470 70502 10290 20217 30007 40092 875// 333 30/// 569// 59004 87613 555 10098
AAXX 19181 80440 32570 30903 10320 20191 39900 40110 83200 333 30/// 56900 58004 83823 555 10120
AAXX 19181 80442 32470 3//// 10326 2//// 30002 4//// 83500 333 30/// 56900 58013 83613 555 10113
AAXX 19181 80472 32470 60703 10305 20165 39638 40114 82518 333 30/// 56999 58009 82616 555 10140
AAXX 19181 80475 32560 50202 10290 20168 39653 40122 825// 333 31/// 569// 59014 85620 555 10135
AAXX 19181 80476 32360 2//// 10333 20245 30095 44012 81120 333 30/// 56990 59001 81810
AAXX 19181 80478 NIL
AAXX 19181 80479 NIL
AAXX 19181 50548 32980 03401 11270 21307 40279 57007 333 11117
AAXX 19181 50564 32970 02901 11237 21262 40272 57008 333 11105
AAXX 19181 51334 11770 80703 11091 21124 40492 52007 69901 72270 885// 333 01405 11074
AAXX 19181 51818 11865 82701 11058 21079 40318 52010 69901 70070 885// 333 00403 11024
AAXX 19181 52378 32980 00000 11166 21231 40406 57008 333 00451 11060
AAXX 19181 53487 32960 63402 11123 21163 40343 52002 80002 333 11018
AAXX 19181 53502 32980 02202 11139 21187 40387 57004 333 00301 11040
AAXX 19181 53923 32980 83201 11027 21052 40326 57004 8802/ 333 11020
AAXX 19181 54049 32970 01803 11137 21198 40301 57006 333 11066
AAXX 19181 54115 32980 02502 11128 21242 40321 57006 333 11045
AAXX 19181 54157 32962 01101 11169 21191 40318 57003 333 11073
AAXX 19181 54186 32970 02001 11211 21241 40328 52003 333 11081
AAXX 19181 54311 32980 03602 11176 21255 40351 54000 333 11028
AAXX 19181 54346 32965 00902 11135 21165 40329 52002 333 11031
AAXX 19181 54377 32965 00202 11148 21172 40331 52003 333 11029
AAXX 19181 54386 32970 00202 11213 21246 40340 52009 333 11077
AAXX 19181 54493 32970 00000 11147 21165 40322 52003 333 11010
AAXX 19181 54587 NIL
AAXX 19181 54715 31950 80000 11011 21048 40313 57005 71000 80007 333 10047
AAXX 19181 54929 31940 01801 11028 21045 40316 57004 71000 333 10060
AAXX 19181 54945 32960 02901 10019 21026 40314 57002 333 10069
AAXX 19181 56065 32980 41601 11116 21153 36617 52005 80002 333 00004 11009
AAXX 19181 57193 32962 03601 10005 21053 40303 57005 333 10078
AAXX 19181 57290 32962 73601 10018 21029 40297 57005 80002 333 10078
AAXX 19184 68514 NIL
AAXX 19184 68572 NIL
AAXX 19184 68835 NIL
BBXX 46208 19181 99525 71327 46/// /2213 10093 40078 5//// 22200 00076 11009 70044 333 91216
BBXX 46208 19181 99525 71327 46/// /2213 10093 40078 5//// 22200 00076 11009 70044 333 91216
AAXX 19184 68174 31865 20509 10244 20137 38788 48517 53007 70500 81082 333 10306 20244 91013 555 91018
AAXX 19184 68191 36/// /1007 10265 20141 39632 48548 53010 333 10340 20265 91012 555 91014
AAXX 19184 68242 32880 20000 10293 20043 38713 48500 53000 82070 333 10336 20293 91002 555 91016
AAXX 19184 68262 36/// /0603 10271 20114 38703 48516 53005 333 10334 20271 91011 555 91018
AAXX 19184 68263 32880 31609 10251 20079 38487 48512 53007 83070 333 10310 20251 91015 555 91020
AAXX 19184 68267 NIL
AAXX 19184 68289 36/// /2603 10231 20147 39163 48541 53011 333 10268 20229 91005 555 91018
AAXX 19184 68350 36/// /0605 10272 20111 38667 48522 53005 333 10364 20272 91008 555 91019
AAXX 19184 68368 11980 62109 10224 20097 38331 48525 53010 69901 70296 85072 333 10299 555 20000 91022
AAXX 19184 68403 36/// /2017 10182 20122 30119 40152 53003 333 10244 20181 91025 555 91015
AAXX 19184 68424 32782 30304 10300 20093 39176 48521 52010 81170 333 10392 20300 91006 555 91014
AAXX 19184 68438 32782 73305 10243 20111 38813 48512 58002 82972 333 10340 20238 91006 555 91017
AAXX 19184 68442 12882 71202 10199 20158 38676 48529 52026 69962 8707/ 333 10329 20196 91004 555 20006 91020
AAXX 19184 68461 31675 61807 10203 20116 38355 48539 53016 79588 83362 333 10308 20203 91015 555 91024
AAXX 19184 68512 32882 22309 10220 20075 39007 48510 58002 82080 333 10289 20220 91012 555 91016
AAXX 19184 68538 31774 52915 10300 20075 38707 48500 53007 70522 82282 333 10347 20300 91019 555 91016
AAXX 19184 68587 NIL
AAXX 19184 68588 36/// /2010 10230 20196 30174 40190 53025 333 10299 20227 91015 555 91019
AAXX 19184 68591 NIL
AAXX 19184 68592 NIL
AAXX 19184 68618 32880 12208 10239 20040 39050 48527 53001 81081 333 10294 20239 91011 555 91017
AAXX 19184 68633 36/// /1408 10197 20141 38518 48513 53012 333 10319 20195 91014 555 91019
AAXX 19184 68668 32570 71706 10189 20154 39353 48575 53005 875// 333 10337 20188 91008 555 91022
AAXX 19184 68714 36/// /1813 10185 20106 30115 40151 57005 333 10240 20185 91019 555 91015
AAXX 19184 68727 36/// /1311 10248 20085 39120 48519 52012 333 10318 20248 91022 555 91015
AAXX 19184 68752 36/// /1505 10187 20125 39519 48572 52011 333 10248 20187 91007 555 91021
AAXX 19184 68816 32680 11720 10188 20131 30116 40168 58008 81500 333 10230 91025 555 91016
AAXX 19184 68828 42570 71803 10175 20136 39965 40198 53012 875// 333 10203 555 91019
AAXX 19184 68842 32760 42411 10180 20116 30125 40195 51019 84500 333 10238 555 91019
AAXX 19184 68858 32980 72205 10206 20152 30036 40191 51017 86556 333 10253 555 91019
AAXX 19184 68906 11396 72812 10149 20132 30037 40101 58005 60032 75066 8467/ 222// 00119 318// 40902 333 10171 20146 91026 555 20036 60105 91010
AAXX 19184 68994 11394 8//// 10097 20095 30021 40050 57041 60052 75155 886// 222// 00066 333 10125 20093 555 20052 91004
AAXX 19184 89004 32880 12106 11067 21066 38838 49845 58023 80002 333 11064 21075 91011 555
AAXX 19184 87416 32965 00000 10355 20079 39301 40002 58029
AAXX 19184 68267 NIL
AAXX 19184 68587 NIL
AAXX 19184 68591 NIL
AAXX 19184 68592 NIL
AAXX 19181 37905 42997 72701 10017 20001 40200 52003 87030 333 10078
AAXX 19181 37661 42597 72901 10048 20023 39581 40358 52007 875// 333 10080
AAXX 19181 37989 42496 80000 10073 20055 40360 52004 887// 333 10094
AAXX 19181 37749 41596 80901 10084 20067 30275 40394 52009 71022 885// 333 10092 555 53006
AAXX 19181 37740 42495 81801 10045 20040 39533 40357 52005 886// 333 10078
AAXX 19181 37851 42598 80000 10081 20055 30299 40372 52010 885// 333 10090
AAXX 19181 37864 32597 81604 10080 20050 40362 50003 885// 333 10095 88621
AAXX 19181 37985 41495 80000 10066 20052 30367 40152 52007 71052 886// 333 10072
AAXX 19181 37675 42995 02301 10007 21010 39638 40319 57006 333 10077 555 53005
AAXX 19181 37985 42997 00000 10078 20067 30381 40351 52005 333 10109 555 53004
AAXX 19181 37832 32997 70000 10049 20027 40358 52007 87/20 333 10086
AAXX 19181 37735 42998 00000 10039 20019 39905 40289 52001 86007 333 10074
AAXX 19181 37729 42998 02504 11015 21027 38613 52008 333 10100 53005
AAXX 19181 37470 12596 81302 10077 20057 30320 40297 58010 69900 885// 333 10083 91112
AAXX 19181 37472 31595 81406 10071 20056 30303 40281 58013 75152 886// 333 10078 91015 91115
AAXX 19181 38111 32997 01010 11027 21152 30422 40392 52002 333 10020
AAXX 19181 38750 32997 03603 10037 21040 30372 40343 58002 333 10109
AAXX 19184 84202 31575 40902 10315 20186 30133 70544 84100 333 59022 555 30046
AAXX 19184 84143 11665 80000 10162 20116 37403 60011 72162 8281/ 333 59007 555 10012 30074
AAXX 19184 84135 32675 53608 10321 20212 30050 81130 333 59008 555 30052
AAXX 19184 84270 31560 63604 10204 20130 71622 86500 555 30062
AAXX 19184 84008 32675 61412 10274 20204 30117 40127 81150 00198 333 59015 555 30066
AAXX 19184 84076 31565 83602 10169 20144 71544 885// 555 30085
AAXX 19184 84036 11568 81804 10158 20123 69931 75044 8655/ 555 10003 30079
AAXX 19184 84226 31670 73608 10132 20132 70544 87500 555 30100
AAXX 19184 84140 32681 63606 10312 20201 30007 40092 83130 333 59021 555 30052
AAXX 19184 84160 11460 80902 10173 20095 37260 69951 74044 86830 333 59006 555 10005 30060
AAXX 19184 84179 11560 70000 10228 20196 39051 60111 72999 86830 333 59004 555 10106 30082
AAXX 19184 84056 11270 82704 10150 20101 69931 71544 8542/ 555 10003 30072
AAXX 19184 84105 31568 53206 10305 20191 39999 70542 82111 333 59001 555 30051
AAXX 19184 84204 31675 40502 10329 20190 70544 81159 555 30044
AAXX 19184 84088 32570 70903 10147 20119 37063 87200 333 59006 555 30083
AAXX 19184 84132 31565 70406 10294 20262 39875 70544 86210 333 59008 555 30083
AAXX 19184 84072 11460 80408 10160 20114 37299 69921 71555 8531/ 333 59002 555 10002 30074
AAXX 19184 84045 31/00 90000 10113 20107 74544 89/// 555 30096
AAXX 19184 84001 31565 51415 10269 20200 30101 40121 70544 83130 333 59012
AAXX 19184 84010 31580 31314 10263 20204 70242 81130
AAXX 19184 84018 31670 72910 10278 20228 30101 40108 70544 83239 333 59008
AAXX 19184 84027 11565 83303 10139 20110 37165 47136 60021 71664 882// 333 59007 555 10017
AAXX 19184 84063 11565 60000 10265 20229 39751 40081 60031 70164 82230 333 59004 555 10032
AAXX 19184 84069 31570 73303 10268 20206 70342 83130
AAXX 19184 84071 11460 80404 10150 20108 37279 47130 60021 71564 8622/ 333 59003 555 10023
AAXX 19184 84099 11570 80000 10256 20215 3//// 40100 60201 70266 8211/ 333 5//// 555 10202
AAXX 19184 84101 31562 22813 10270 20229 30092 40106 70544 81130 333 5////
AAXX 19184 84117 31560 62809 10269 20212 30085 40108 70544 82130 333 59008
AAXX 19184 84123 11558 81204 10140 20122 37293 47130 69961 76064 8422/ 333 59009 555 10006
AAXX 19184 84147 31565 70906 10172 20130 70242 85230
AAXX 19184 84163 11570 82103 10208 20195 38946 48496 60011 71565 8322/ 333 58001 555 10011
AAXX 19184 84176 31570 50910 10188 20124 70114 84230
AAXX 19184 84200 31962 12409 10242 20201 70544 81030
AAXX 19184 84203 31560 30504 10319 20162 30084 40089 70544 81130 333 59021
AAXX 19184 84217 31558 80614 10234 20206 71522 8521/
AAXX 19184 84239 32570 51508 10212 20109 37527 47142 84230 333 59010
AAXX 19184 84252 31570 20105 10304 20225 30093 40101 70544 82200 333 59016
AAXX 19184 84265 32680 63408 10274 20167 38750 4//// 86100 333 58000
AAXX 19184 42559 32996 00000 10140 20083 40167 333 59008
AAXX 19184 42571 31996 00000 10110 20077 40180 70500 333 59007
AAXX 19184 42667 31996 01603 10150 20086 39566 40171 70500 333 59009
AAXX 19184 42675 31996 00000 10112 20084 40182 70500 333 59004
AAXX 19184 42754 31996 00906 10174 20098 39514 40161 70510 333 59004
AAXX 19184 42779 32996 00000 10128 20050 39461 40183 333 59004
AAXX 19184 42867 31995 00000 10180 20123 40160 70500 333 59004
AAXX 19184 42874 32996 00000 10170 20115 40157 333 59005
AAXX 19184 42933 32996 00000 10180 20106 40156 333 58008
AAXX 19184 43041 32996 00000 10144 20108 39533 40169 333 59010
BBXX MINUK05 1918/ 99607 70029 46/// ///// 10058 49972 57030
BBXX MINUK01 1918/ 99571 70021 46/// ///// 10030 40000 57012
BBXX 46206 19181 99488 71260 46/// /1604 10082 40303 57008 22200 00089 11204 70020 333 91206
BBXX 46206 19181 99488 71260 46/// /1604 10082 40303 57008 22200 00089 11204 70020 333 91206
AAXX 19181 80400 NIL
AAXX 19181 80403 32470 10501 10323 20235 30102 40121 81200 333 30/// 56900 59011 81813 555 10124
AAXX 19181 80405 NIL
AAXX 19181 80407 32470 3//// 10320 20224 30050 4//// 83400 333 30/// 6900 5//// 83616 555 10125
AAXX 19181 80410 31470 40705 10260 20215 39454 40133 69991 84200 333 30/// 56900 58016 84716 555 10167
AAXX 19181 80413 32470 72703 10318 20168 39627 40110 82507 333 30/// 56909 58001 82613 555 10145
AAXX 19181 80415 NIL
AAXX 19181 80419 NIL
AAXX 19181 80421 32364 7//// 10315 20169 30104 40126 80806 333 30/// 56909 58009 82810 85277 555 1012
AAXX 19181 80423 32470 7//// 10294 20127 30089 40106 8253/ 333 30/// 5629/ 58020 82610 85357 555 10105
AAXX 19181 80428 32468 40902 10314 20202 39918 40101 84100 333 30/// 56900 58005 84820 555 10114
AAXX 19181 80432 NIL
AAXX 19181 80435 NIL
AAXX 19181 80438 32570 52005 10240 20162 38515 48512 83201 333 30/// 56909 59004 83827 555 10197
AAXX 19181 80444 32470 5//// 10310 2//// 30045 4//// 852// 333 30/// 562// 59008 58004 85813 555 10104
AAXX 19181 80447 11460 63104 10289 20205 39663 40083 60011 70252 8352/ 333 30/// 5699/ 59006 83617 83459 555 10135
AAXX 19181 80448 32570 30703 10317 20225 3//// 4//// 83200 333 30/// 56900 5//// 83820
AAXX 19181 80450 32475 81103 10298 20235 30069 40124 83508 333 30/// 56209 58002 83616 85280 555 10125
AAXX 19181 80453 NIL
AAXX 19181 80457 32470 6//// 10335 20145 30014 40099 83108 333 30/// 56909 59005 83813 555 10099
AAXX 19181 80462 NIL
AAXX 19181 0000106101SMVN20 SVMR 191800
AAXX 19181 80402 NIL
AAXX 19181 80412 NIL
AAXX 19181 80416 NIL
AAXX 19181 80420 32470 50706 10293 20151 30115 40121 858// 333 30/// 569// 58011 85813 555 10134
AAXX 19181 80425 32570 42702 10329 20242 30083 40114 84100 333 30/// 56900 58002 84820 555 10115
AAXX 19181 80426 32470 60201 10256 20174 39481 40125 865// 333 30/// 569// 59002 86616 555 10156
AAXX 19181 80427 32570 40506 10320 20229 39863 40115 82200 333 30/// 56900 59003 82823 555 10132
AAXX 19181 80431 32570 8//// 10320 20121 39620 40096 83208 333 30/// 56909 58000 83820 85820 555 10122
AAXX 19181 80434 NIL
AAXX 19181 80437 32470 70502 10290 20217 30007 40092 875// 333 30/// 569// 59004 87613 555 10098
AAXX 19181 80440 32570 30903 10320 20191 39900 40110 83200 333 30/// 56900 58004 83823 555 10120
AAXX 19181 80442 32470 3//// 10326 2//// 30002 4//// 83500 333 30/// 56900 58013 83613 555 10113
AAXX 19181 80472 32470 60703 10305 20165 39638 40114 82518 333 30/// 56999 58009 82616 555 10140
AAXX 19181 80475 32560 50202 10290 20168 39653 40122 825// 333 31/// 569// 59014 85620 555 10135
AAXX 19181 80476 32360 2//// 10333 20245 30095 44012 81120 333 30/// 56990 59001 81810
AAXX 19181 80478 NIL
AAXX 19181 80479 NIL
AAXX 19181 50658 31958 00000 11255 21270 40286 57007 70400 333 11139
AAXX 19181 50888 32980 02202 11166 21215 40271 52001 333 11102
AAXX 19181 50983 32970 00000 11180 21210 40282 52004 333 11093
AAXX 19181 51053 11972 63401 11248 21278 40554 52015 69901 77070 80002 333 01452 11188
AAXX 19181 51542 11668 80914 11191 21220 37579 52010 69921 77070 885// 333 00507 11119 91120 91509
AAXX 19181 52436 32980 00904 11138 21190 38509 40346 57010 333 00351 11053
AAXX 19181 52908 32980 02202 11165 21333 35748 57004 333 00252 11034
AAXX 19181 52996 31/00 90000 11076 21080 37581 57009 74944 333 00201 11063
AAXX 19181 53083 32980 00000 11304 21335 40434 57007 333 05151 11197
AAXX 19181 53764 32970 22901 11038 21081 40323 54000 80002 333 10025
AAXX 19181 53787 32962 01101 11069 21088 40309 57001 333 10037
AAXX 19181 54096 32970 02704 11165 21196 40297 52005 333 11111
AAXX 19181 54226 32980 00000 11166 21231 40327 57003 333 11034
AAXX 19181 54259 32962 03201 11194 21221 40338 52001 333 11061
AAXX 19181 54527 32960 00201 11028 21097 40322 57004 333 10031
AAXX 19181 54534 32965 03601 11082 21093 40322 52001 333 10035
BBXX 46205 19181 99542 71343 46/// /2214 10087 49996 57027 22200 00078 11108 70040 333 91216
BBXX 46132 19181 99497 71279 46/// /1511 10088 40256 57017 22200 00090 11406 70028 333 91213
BBXX 46205 19181 99542 71343 46/// /2214 10087 49996 57027 22200 00078 11108 70040 333 91216
BBXX 46132 19181 99497 71279 46/// /1511 10088 40256 57017 22200 00090 11406 70028 333 91213
AAXX 19184 40656 12960 02902 10127 20037 40232 53005 60002
AAXX 19184 40665 12960 03302 10127 20056 40240 51003 60002
AAXX 19184 40670 12960 00000 10114 20026 40243 53004 60002
AAXX 19184 40674 12960 03305 10102 20010 40243 52007 60002
AAXX 19184 40676 12960 02602 10142 20018 40240 52009 60002
AAXX 19184 40689 12960 03003 10136 20051 40235 52009 60002
AAXX 19184 40691 12960 02103 10132 20040 40244 51006 60002
AAXX 19184 40604 12960 00000 10092 20014 40258 56002 60002
AAXX 19184 40608 12960 00000 10086 20040 40258 51003 60002
AAXX 19184 40621 12960 03301 10120 20008 40272 52002 60002
AAXX 19184 40623 12960 00000 10104 20005 40271 54000 60002
AAXX 19184 40629 12960 00000 10070 20026 40285 54000 60002
AAXX 19184 40631 12960 03002 10124 20033 40253 54001 60002
AAXX 19184 40634 12960 02703 10098 20034 40272 53006 60002
AAXX 19184 40642 12960 00000 10088 20050 40273 52013 60002
AAXX 19184 40650 12960 03202 10108 20023 40247 52004 60002
AAXX 19181 47008 42970 03204 11033 21133 30233 40289 52003
AAXX 19181 47014 42950 20000 11190 21202 39887 40326 52003 80001
AAXX 19181 47016 42970 00000 11196 21229 39418 40330 58005
AAXX 19181 47020 42965 00000 11152 21165 39929 40340 52001
AAXX 19181 47025 42960 03202 11047 21153 30243 40273 52007
AAXX 19181 47035 42962 00201 11086 21115 30297 40306 54000
AAXX 19181 47041 42970 00000 11082 21134 30254 40283 54000
AAXX 19181 47055 42965 02301 11043 21107 30247 40294 53005
AAXX 19181 47058 42960 00000 11084 21103 30268 40318 54000
AAXX 19181 47069 42965 00901 11042 21097 30202 40307 58001
AAXX 19184 83064 32498 82304 10274 20221 39808 40074 8371/ 333 59009
AAXX 19184 83235 32698 60000 10320 20189 39412 40071 86200 333 58002
AAXX 19184 83332 21595 80502 10207 20202 39192 40097 72196 885// 333 58010 60221
AAXX 19184 83423 21698 83201 10262 20196 39279 40087 70362 885// 333 58019 60041
AAXX 19184 83470 32698 72706 10286 20201 39229 40070 87200 333 59004
AAXX 19184 83096 32695 10905 10292 20229 30112 40119 81100 333 58004
AAXX 19184 83186 32598 20904 10301 20189 39559 40082 82100 333 59008
AAXX 19184 83242 32497 51406 10325 20176 39609 40092 82156 333 59010
AAXX 19184 83288 32998 42303 10324 20210 39591 40073 80001 333 58001
AAXX 19184 83344 32498 30506 10273 20174 39147 40107 81136 333 59007
AAXX 19184 82106 32698 70506 10323 20250 3//// 4//// 84408 333 5////
AAXX 19184 82113 32696 70502 10300 20253 3//// 4//// 84470 333 5////
AAXX 19184 82212 32798 52704 10313 20233 30026 40107 83320 333 58004
AAXX 19184 82723 32598 63604 10316 20224 30015 40096 86200 333 59013
AAXX 19184 41184 42960 01703 10202 20144 40192 333 10260 58004
AAXX 19184 41194 12960 00806 10217 20118 30196 40201 60001 333 10260 58008
AAXX 19184 41196 42960 00704 10176 20103 30164 40204 333 10260 58008
AAXX 19184 41198 12960 00000 10201 20108 40203 69903 333 10252 58018
AAXX 19184 41217 42960 03305 10200 20163 30163 40192 333 10248 58001
AAXX 19184 41218 42960 00103 10188 20086 39883 40193 333 10267 59007
AAXX 19181 47101 32970 00202 11089 21120 30210 40313 53004
AAXX 19181 47105 369// /2707 11013 21151 30244 40277 55003
AAXX 19181 47108 32970 03405 11026 21174 30194 40305 53002
AAXX 19181 47115 41568 60504 10020 21032 39979 40257 57007 78588 86800 333 92032
AAXX 19181 47133 31958 03401 11048 21067 30223 40313 53008 71000
AAXX 19181 47138 32968 02306 10001 21088 30280 40283 53005 333 92022
AAXX 19181 47159 32970 02506 10009 21086 30192 40280 54000 333 92022
AAXX 19181 47165 31959 00503 11010 21032 30254 40303 52008 71000 333 92021
AAXX 19181 47168 32965 02905 10016 21060 30204 40286 55005 333 92022
AAXX 19181 47184 32680 31605 10035 21028 30274 40300 53008 81501 333 92022
AAXX 19184 82863 21596 83612 10235 20208 39888 40100 75196 889// 333 58028 69921
AAXX 19184 83228 32699 82304 10256 20217 39821 40096 885// 333 58021
AAXX 19184 83368 32798 61402 10312 20228 39715 40075 84230 333 58000
AAXX 19184 83374 21598 63208 10265 20208 39524 40091 70165 86800 333 58009 60021
AAXX 19184 83526 32498 83605 10218 20199 39162 40096 885// 333 58008
AAXX 19181 47090 32970 00000 11014 21180 30253 40276 55001 333 92020
AAXX 19181 47095 32965 00000 11118 21142 30112 40316 53002
AAXX 19181 47097 329// /0902 11091 21111 30207 40310 53005
AAXX 19181 47098 329// /3603 11085 21131 30163 40307 52004
AAXX 19181 47099 329// /0502 11098 21112 30271 40310 52005
AAXX 19181 47100 32970 02302 11137 21171 39337 40326 52016
AAXX 19181 47102 32970 02910 10009 21094 30120 40304 54000
AAXX 19181 47104 32970 01406 11026 21153 30175 40276 55002
AAXX 19181 47106 329// /2003 11018 21130 30223 40274 55003
AAXX 19181 47112 32965 03603 11029 21140 30220 40308 53005 333 92012
AAXX 19181 47114 32965 00202 11080 21113 30115 40310 52008
AAXX 19181 47119 31958 00000 11074 21089 30265 40310 52008 71000
AAXX 19181 47121 NIL
AAXX 19181 47127 329// /0000 11083 21105 30160 40311 53005
AAXX 19181 47129 31958 00902 11058 21073 30276 40314 53004 71000
AAXX 19181 47130 32970 02503 11029 21124 30212 40277 54000 333 92022
AAXX 19181 47131 31958 02701 11053 21075 30237 40312 53007 71000
AAXX 19181 47135 329// /0001 11058 21083 39994 40310 53010
AAXX 19181 47136 32961 01401 11063 21091 30117 40299 53003
AAXX 19181 47137 329// /1802 11032 21107 30177 40301 53005
AAXX 19181 47140 32661 10001 11030 21051 30281 40311 52009 81500 333 92011
AAXX 19181 47143 32963 02702 11005 21079 30224 40306 53008
AAXX 19181 47145 32960 00000 11072 21085 30277 40305 53007
AAXX 19181 47146 31956 01601 11035 21052 30241 40310 52011 71000
AAXX 19181 47150 32965 00203 11032 21060 30287 40307 53007
AAXX 19181 47152 32970 03411 10003 21089 30236 40280 51001
AAXX 19181 47154 329// /3602 11043 21082 30240 40304 53009
AAXX 19181 47155 32963 01404 10010 21054 30242 40289 50004
AAXX 19181 47156 32961 00501 11008 21025 30215 40308 52006
AAXX 19181 47157 32961 03202 11056 21072 30010 40295 52010
AAXX 19181 47162 32963 00001 10002 21040 30245 40287 51001 333 92021
AAXX 19181 47169 32970 03604 10060 20005 30206 40301 53009 333 92023
AAXX 19181 47170 32961 00001 10012 21018 30252 40297 52007 333 92021
AAXX 19181 47171 329// /1102 11030 21047 30254 40312 52011
AAXX 19181 47172 329// /0501 11027 21042 30234 40304 52009
AAXX 19181 47173 329// /3401 11054 21066 30192 40310 52012
AAXX 19181 47174 32962 02706 11009 21044 30089 40299 54000
AAXX 19181 47175 32562 23412 11006 21034 39706 40299 53003 81500 333 92025
AAXX 19181 47185 32670 43608 10066 21010 30208 40300 52012 81501 333 92023
AAXX 19181 47188 32665 33605 10039 21010 30270 40292 53006 81501 333 92022
AAXX 19181 47189 32675 33403 10068 20020 30226 40287 53007 81501 333 92022
AAXX 19181 47192 31950 00001 11049 21064 30256 40295 52002 71000
AAXX 19184 82594 32697 40511 10312 20228 30077 40085 82100 333 58000
AAXX 19184 82780 32598 30906 10382 39834 40079 83200 333 58001
AAXX 19184 82795 32597 30908 10301 20176 39497 40105 83200 333 59003
AAXX 19184 82879 32598 33601 10358 20170 39807 40067 83200 333 59005
AAXX 19184 82893 32798 60913 10290 20181 39204 40090 86200 333 59001
AAXX 19184 82979 32498 31409 10307 20174 39644 40087 83100 333 58002
AAXX 19184 82986 32598 51803 10356 20178 39800 40080 85100 333 58000
AAXX 19184 83179 32598 30506 10339 20145 39633 40065 83100 333 58000
AAXX 19184 83192 32597 20905 10343 20135 39937 40100 82200 333 59004
AAXX 19184 83339 32497 21407 10279 20141 39132 40080 81202 333 59002
AAXX 19184 83498 32595 70509 10283 20224 30130 40135 83610 333 59001
AAXX 19181 47003 42980 03202 11084 21160 30290 40294 52010
AAXX 19181 47005 42980 00000 11197 21209 38614 58003
AAXX 19181 47022 42975 00000 11198 21224 38869 52007
AAXX 19181 47028 42662 41802 11101 21129 30202 40303 54000 84500
AAXX 19181 47031 42970 00000 11185 21197 38972 52006
AAXX 19181 47037 42970 00000 11112 21132 30181 40313 53003
AAXX 19181 47039 42960 00000 11126 21145 30119 40325 52006
AAXX 19181 47046 42969 00000 11058 21106 30249 40273 52004
AAXX 19181 47050 42965 00000 11079 21115 30278 40314 52004
AAXX 19181 47052 42965 00000 11142 21162 39969 40336 52009
AAXX 19181 47060 42960 02703 11053 21094 30250 40312 52006
AAXX 19181 47061 42980 00000 11025 21108 30230 40275 52012
AAXX 19181 47065 42970 00902 11071 21119 30244 40313 54000
AAXX 19181 47067 42965 00000 11094 21124 30203 40331 52001
AAXX 19181 47068 42970 00000 11081 21099 30262 40299 53001
AAXX 19181 47070 42970 00000 11057 21119 30219 40312 57002
AAXX 19181 47075 42980 00000 11123 21150 39803 40266 57010
AAXX 19184 82193 32570 40204 10335 20212 30066 40085 84200 333 59001
AAXX 19184 83460 32570 40514 10279 20211 30061 40116 84200 333 59010
AAXX 19184 83599 31398 399// 10290 20221 40050 57010 70200 83100 222// 20501 80245
AAXX 19184 83650 42698 60403 10270 20199 40180 57015 7//// 8609/ 222// 02260 20803 80220
AAXX 19184 83925 32399 30608 10250 20222 40069 57004 7020/ 8310/ 222// 20401 80230
AAXX 19184 83970 41999 01903 10250 20192 30060 40064 54000 7000/ 80000 222// 02250 20301 80190
BBXX ZCDF4 19183 99289 71162 41/98 43020 10155 20118 40214 53007 70311 8346/ 22284 00190 20301 333// 40804 5//// 80135
BBXX ZCDM6 19183 99179 70743 41598 21123 10270 20243 40148 58030 70100 82145 22235 00280 20504 308// 40504 5//// 80250
BBXX PBHZ 19183 99290 70745 41597 40310 10194 20095 40244 58021 70211 84100 22223 04263 20301 302// 40702 80137
BBXX A8RH7 19184 99138 70569 41598 40215 10263 20209 40132 57020 70200 81168 22234 00287 2//02 306// 40503 5//// 80225
BBXX DGSE 19183 99153 10978 41698 39903 10295 20218 40136 58004 70000 82141 22235 00290 20000 315// 40702 80240
BBXX ZQCP3 19183 99060 10900 41698 40720 10270 20252 40091 50000 71311 844// 22263 00290 2//// 304// 40503 5//// 80257
BBXX MIBR 19184 99315 11332 41597 33220 10120 20056 40249 54000 70200 832// 22254 00211 20301 3//// 4//// 5//// 80090
BBXX A8MV6 19183 99150 10720 41957 30706 10270 20210 40110 54000 70000 80002 22273 04280 20502 30999 40402 5//// 80230
AAXX 19184 82240 32596 30000 10319 20248 3//// 4//// 82201 333 5////
AAXX 19184 82317 32594 30902 10336 20236 3//// 4//// 83200 333 5////
AAXX 19184 82807 21295 83602 10251 20236 3//// 4//// 70262 887// 333 5//// 60011
AAXX 19184 83552 32498 2//// 10394 20157 39923 4//// 82200 333 59011
AAXX 19184 83623 31996 6//// 1//// 2//// 39495 4//// 58040 70544 85240
AAXX 19184 83630 32597 52304 10274 20134 3//// 4//// 57017 82242
AAXX 19184 83702 32599 62310 10331 20147 39339 40068 58013 86100
AAXX 19184 83704 32698 50904 10339 20127 39643 40039 58020 84130
AAXX 19184 83726 31597 22702 10303 20145 39150 40096 56027 70544 81101
BBXX 44062 19181 99386 70764 46/// /2106 1//// 91820 22200 00083 333 91207
BBXX 44062 19181 99386 70764 46/// /2105 1//// 40194 91810 22200 00083 333 91206
BBXX 44062 19181 99386 70764 46/// /2205 10075 40194 58046 91800 22200 00083 10301 70004 333 91207
BBXX 44063 19181 99390 70764 46/// /2206 1//// 91820 333 91207
BBXX 44063 19181 99390 70764 46/// /2206 1//// 40220 91810 333 91208
BBXX 44063 19181 99390 70764 46/// /2107 10065 40218 58042 91800 22200 00076 10201 70003 333 91208
BBXX 44041 19181 99372 70768 46/// /2506 1//// 91820 333 91209
BBXX 44041 19181 99372 70768 46/// /2505 1//// 40255 91810 333 91208
BBXX 44041 19181 99372 70768 46/// /2505 10102 40256 58036 91800 22200 00091 1//00 70001 333 91207
BBXX 44042 19181 99380 70763 46/// /2406 1//// 91820 333 91208
BBXX 44042 19181 99380 70763 46/// /2407 1//// 40217 91810 333 91209
BBXX 44042 19181 99380 70763 46/// /2406 10092 40219 58038 91800 22200 00085 10301 70006 333 91207
BBXX 44043 19181 99392 70764 46/// /2006 1//// 91820 333 91207
BBXX 44043 19181 99392 70764 46/// /2007 1//// 40200 91810 333 91209
BBXX 44043 19181 99392 70764 46/// /1907 10064 40200 58041 91800 22200 00071 10201 70005 333 91208
AAXX 19184 68183 32675 40406 10261 20141 39432 48538 53008 83172 333 10306 20261 91006 555 91014
AAXX 19184 68188 NIL
AAXX 19184 68268 36/// /0505 10275 20121 38873 48523 52010 333 10352 20275 91007 555 91017
AAXX 19184 68272 NIL
AAXX 19184 68296 32970 00000 10265 20220 38915 4//// 52002 333 10335 20484 91004 555
AAXX 19184 68322 36/// /0103 10339 20031 39110 48511 52007 333 10403 20339 91005 555 91012
AAXX 19184 68338 32778 51704 10252 20101 38766 48504 52016 85070 333 10346 20252 91009 555 91016
AAXX 19184 68345 NIL
AAXX 19184 68362 31680 52102 10216 20131 38522 48525 52020 70299 84270 333 10342 20208 91004 555 91021
AAXX 19184 68400 NIL
AAXX 19184 68408 32580 21510 10155 20124 30129 40137 52006 82100 333 10215 20155 91019 555 91013
AAXX 19184 68416 32684 41607 10298 20024 39020 48513 52006 84200 333 10342 20298 91013 555 91014
AAXX 19184 68478 NIL
AAXX 19184 68488 36/// /0503 10217 20144 39287 48543 52024 333 10293 20217 91006 555 91018
AAXX 19184 68494 36/// /1708 10218 20186 30037 40167 52038 333 10334 20218 91018 555 91017
AAXX 19184 68524 32986 62409 10315 21021 39041 48517 52008 86070 333 10365 20315 91015 555 91014
AAXX 19184 68546 16/// /2408 10183 20154 38698 48543 53031 60032 333 10330 20178 91013 555 20030 91022
AAXX 19184 68558 16/// /1713 10150 20119 38240 48557 52027 60042 333 10282 20150 91023 555 20042 91026
AAXX 19184 68570 NIL
AAXX 19184 68580 NIL
AAXX 19184 68614 32580 22207 10206 20102 30090 40131 54000 81306 333 10281 20206 91016 555 91013
AAXX 19184 68624 32882 12309 10268 21058 38743 48522 52005 81200 333 10335 20268 91010 555 91018
AAXX 19184 68674 16/// /0205 10214 20195 30164 48606 52016 69922 333 10258 20209 91007 555 20002 69925 91019
AAXX 19184 68712 12470 11717 10165 20121 30081 40146 57008 69922 81100 333 10210 20165 91024 555 20002 91014
AAXX 19184 68718 32689 21106 10192 20097 39938 40184 52015 82500 333 10287 20192 91015 555 91018
AAXX 19184 68722 32980 41202 10178 21018 38560 48517 52005 80004 333 10280 20178 91003 555 91020
AAXX 19184 68814 16/// /1916 1//// 2//// 30159 4//// 57003 69922 333 1//// 2//// 91020 555 20002 91016
AAXX 19184 68832 32570 61307 10170 20087 39222 48540 52025 86800 333 10273 20170 91012 555 91019
AAXX 19184 68916 32370 10810 10171 20116 39910 40179 57002 81100 333 10216 20171 91023 555 91018
AAXX 19184 68920 12470 11407 10191 20131 30182 40195 52005 69922 81800 333 10224 20190 91010 555 20002 91019
AAXX 19184 68928 NIL
BBXX AMOUK15 19184 99079 50144 46/// ///// 10251 20171 30102 40134 57006 91750
BBXX ZDLS1 19184 99558 30030 41394 82734 10014 21012 49656 54000 72677 885// 22243 04012 20406 32530 40712 50510 80005
AAXX 19184 68155 36/// /3402 10288 20129 39177 48523 53005 333 10347 20288 91006 555 91014
AAXX 19184 68171 NIL
AAXX 19184 68176 36/// /0904 10256 20133 39130 48525 53008 333 10350 20253 91009 555 91016
AAXX 19184 68181 NIL
AAXX 19184 68182 36/// /0403 10244 20140 39333 48531 53006 333 10312 20240 91006 555 91015
AAXX 19184 68185 NIL
AAXX 19184 68253 36/// /1702 10284 20141 39032 48517 52007 333 10348 20284 91004 555 91015
AAXX 19184 68255 NIL
AAXX 19184 68271 36/// /3403 10280 20141 38900 48515 53006 333 10332 20280 91005 555 91016
AAXX 19184 68273 16/// /0811 10220 20129 38464 48518 53007 60012 333 10311 20214 91018 555 20010 91020
AAXX 19184 68287 NIL
AAXX 19184 68291 36/// /1403 10253 20140 39532 48541 53009 333 10327 20253 91006 555 91014
AAXX 19184 68297 NIL
AAXX 19184 68329 36/// /1510 10324 20076 39078 48532 53001 333 10396 20324 91019 555 91015
AAXX 19184 68331 36/// /2111 10281 20087 38832 48525 53001 333 10363 20281 91020 555 91018
AAXX 19184 68335 36/// /1904 10279 20113 38926 48544 53011 333 10371 20279 91009 555 91019
AAXX 19184 68341 36/// /1714 10270 20082 38534 48520 53001 333 10326 20268 91025 555 91020
AAXX 19184 68342 NIL
AAXX 19184 68343 36/// ///// 10270 20100 38783 48514 52016 333 10347 20270 555 91017
AAXX 19184 68349 NIL
AAXX 19184 68353 36/// /1509 10241 20102 38522 48501 53005 333 10318 20241 91013 555 91018
AAXX 19184 68355 16/// /3404 10246 20124 38574 48509 53007 60012 333 10340 20226 91006 555 20016 91018
AAXX 19184 68370 NIL
AAXX 19184 68377 36/// /1310 10256 20191 38767 48512 52028 333 10365 20256 91013 555 91017
AAXX 19184 68380 36/// /2604 10192 20145 3//// 4//// 5//// 333 10332 20192 91008 555
AAXX 19184 68387 NIL
AAXX 19184 68411 36/// /1907 10316 20083 39897 40096 53006 333 10384 20316 91013 555 91010
AAXX 19184 68429 36/// /0000 10234 20131 38697 48520 53003 333 10348 20233 91004 555 91019
AAXX 19184 68449 36/// /2207 10238 20099 38400 48511 53011 333 10322 20236 91012 555 91020
AAXX 19184 68471 36/// /1706 10174 20119 38354 48533 53011 333 10300 20168 91011 555 91023
AAXX 19184 68474 16/// /0000 10151 20124 38656 48545 52013 60042 333 10325 20149 91004 555 20042 91023
AAXX 19184 68479 36/// /3603 10240 20148 38969 48539 52023 333 10353 20211 91006 555 91019
AAXX 19184 68481 NIL
AAXX 19184 68487 36/// /1610 10190 20170 39033 48553 53022 333 10322 20190 91016 555 91021
AAXX 19184 68491 NIL
AAXX 19184 68497 NIL
BBXX 62141 19183 99493 50591 41998 03627 10142 20129 40031 57013 70100 80000 22200 20603 335// 40602 5//// 80135
BBXX AMOUK20 19184 99229 50431 46/// ///// 10288 20209 30084 40091 57013 91750
BBXX A8CJ2 19184 99068 50812 41398 31209 10230 20193 40135 57005 70200 836// 22284 04200 20501 318// 40502 5//// 80205
AAXX 19181 30455 429// 82702 11200 21219 38827 48380 58031 85032
AAXX 19181 30731 415// 82105 11116 21129 39619 40253 57020 78683 8292/
AAXX 19181 30739 429// 01604 11215 21255 39437 40323 57015
AAXX 19181 30741 429// 82603 11215 21227 38676 48469 57012 80007
AAXX 19181 30745 429// 82203 11221 21247 39059 40297 57017 8801/
AAXX 19181 30764 42998 00000 11248 21266 39397 40264 57015
AAXX 19181 30829 42984 43103 11254 21278 39617 40379 57015 80001
AAXX 19181 30838 42998 00000 11300 21317 39294 40396 57015
AAXX 19181 30846 42999 02108 11155 21236 39327 40283 57016
AAXX 19181 30859 42999 02302 11194 21243 39381 40275 57014
AAXX 19181 30862 42984 12704 11171 21197 39481 40261 57011 80001
AAXX 19181 30957 429// 01904 11256 21275 39349 40333 57010
AAXX 19181 30967 NIL
AAXX 19181 30975 42998 00201 11312 21343 39595 40323 57014
AAXX 19181 31825 42984 00000 11268 21287 30013 40244 52005
AAXX 19181 31845 42998 00000 11344 21374 30092 40280 52003
AAXX 19181 31878 42972 00000 11262 21288 30155 40293 51005
AAXX 19181 31915 42998 02903 11163 21197 30009 40293 52004
AAXX 19181 31921 42999 22603 11174 21216 30181 40286 51002 80001
AAXX 19181 31969 42/// /2905 11096 21165 30244 40296 52004
AAXX 19181 31981 42999 02102 11249 21274 30044 40306 52007
AAXX 19181 31987 42999 03605 11124 21194 30005 40280 53005 333 91112
AAXX 19181 32069 42998 01205 11187 21206 30170 40176 52011 333 91008 91108
AAXX 19181 30499 42999 00000 11320 21331 39532 40268 57009
AAXX 19181 30683 419// 40000 11241 21260 39530 40232 57012 70271 82044
AAXX 19181 30695 42999 00000 11286 21310 39873 40246 57011
AAXX 19181 31253 42999 00000 11344 21374 39755 40274 53001
AAXX 19181 31295 42999 02502 11228 21261 39760 40254 58005
AAXX 19181 31348 42999 00000 11353 21365 30015 40237 53002
AAXX 19181 31418 42984 00000 11277 21308 39948 40230 53001
AAXX 19181 31439 42999 00000 11268 21286 30160 40209 52003
AAXX 19181 31442 42997 00000 11295 21319 39868 40262 58007
AAXX 19181 31445 42984 50000 11308 21326 39979 40264 58007 80001
AAXX 19181 31474 42998 00000 11372 21408 39754 40310 52002
AAXX 19181 31521 32984 01203 11324 21342 39949 40278 58004
AAXX 19181 31527 42998 01401 11268 21281 39938 40273 54000
AAXX 19181 31534 42999 00000 11321 21344 39904 40293 53007
AAXX 19181 31587 42999 00000 11300 21317 30112 40276 58003
AAXX 19181 31632 NIL
AAXX 19181 31702 42998 00202 11295 21326 39912 40290 53002
AAXX 19181 31713 42998 00000 11292 21298 30141 40251 52005
AAXX 19181 31725 42998 02702 11225 21250 30171 40243 51002
AAXX 19181 31801 42999 30000 11312 21330 30017 40274 52005 83040
BBXX 44059 19181 99368 70763 46/// /2404 1//// 91820 333 91207
BBXX 44059 19181 99368 70763 46/// /2405 1//// 40230 91810 333 91208
BBXX 44059 19181 99368 70763 46/// /2305 10107 40232 58037 91800 22200 00098 333 91207
BBXX 44057 19181 99395 70761 46/// /2306 1//// 91820 333 91207
BBXX 44057 19181 99395 70761 46/// /2306 1//// 40202 91810 333 91207
BBXX 44057 19181 99395 70761 46/// /2306 10056 40203 56040 91800 22200 00051 333 91207
BBXX 44058 19181 99376 70763 46/// /2307 1//// 91820 333 91208
BBXX 44058 19181 99376 70763 46/// /2307 1//// 40224 91810 333 91209
BBXX 44058 19181 99376 70763 46/// /2206 10090 40227 58034 91800 22200 00087 10301 70005 333 91209
AAXX 19184 42634 32996 00000 10184 20111 40150 333 58009
AAXX 19184 42647 31996 00000 10152 20111 40155 70500 333 59002
AAXX 19184 42737 32996 00504 10186 20091 40157 333 59003
AAXX 19184 42840 32996 00000 10214 20154 40150 333 59002
AAXX 19184 42909 32996 20203 10212 20102 40147 80001 333 59002 82070
AAXX 19184 42921 32996 00000 10154 20103 40197 333 58002
AAXX 19184 43003 31995 00000 10214 20168 40136 70500 333 58001
AAXX 19184 43014 32996 00000 10180 20109 39496 40155 333 59001
AAXX 19184 43063 32996 00000 10174 20130 39513 40150 333 59001
AAXX 19184 43110 31996 00502 10226 20181 40133 70544 333 59003
AAXX 19184 43117 32996 20000 10188 20107 40147 80002 333 59003
AAXX 19184 43192 32996 00703 10234 20193 40128 333 59011
AAXX 19184 65046 31958 70807 10236 20086 40127 70522 80008 333// 10299 58008 87280
BBXX A8DH2 19183 99367 10007 41498 32508 10151 20026 10266 53005 70211 83578 22224 04174 20102 80095
BBXX A8JX8 19181 99455 11699 41297 62810 10040 20017 40000 54000 75671 84625 22224 2//// 327// 4//06 5//// 64011 80030
BBXX A8JX9 19183 99534 11714 41/97 /0324 11031 21031 49796 53031 70000 8//// 22264 299// 3//// 4//// 5//// 81031
BBXX A8XD5 19184 99423 11736 41/97 63025 10050 21008 40061 53032 701// 8//// 22223 04090 20606 329// 41808 80026
BBXX DGTX 19183 99330 11733 41/98 /3019 10195 20164 40105 53005 70382 8//// 22264 00240 2//// 80175
BBXX SBLI 19181 99300 11789 43/98 42114 10222 40165 55014 22264 00229 2//// 4////
BBXX SHIP 19184 99478 11556 41598 52927 10000 21027 40036 56002 70222 85/// 91800 22214 00020 2//// 3//// 4//// 80000
BBXX SMGW 19181 99351 11548 43/98 73312 10114 40128 53002 22224 00206 2//// 4////
BBXX VRCI9 19184 99400 11720 41/98 /2820 10085 20032 40030 52010 70222 8//// 22225 00156 2//// 3//// 4//// 80060
BBXX 46181 19181 99538 71288 46/// /1402 10004 40132 5//// 22200 00042 10200 70001 333 91203
AAXX 19184 68171 NIL
AAXX 19184 68181 NIL
AAXX 19184 68185 NIL
AAXX 19184 68255 NIL
AAXX 19184 68287 NIL
AAXX 19184 68297 NIL
AAXX 19184 68342 NIL
AAXX 19184 68349 NIL
AAXX 19184 68370 NIL
AAXX 19184 68387 NIL
AAXX 19184 68481 NIL
AAXX 19184 68491 NIL
AAXX 19184 68497 NIL
AAXX 19184 91723 NIL
AAXX 19184 91759 11598 61004 10256 20236 40124 53023 60001 71500 82101 333 82820 85178
AAXX 19184 91762 11599 61104 10265 20232 40121 53023 60001 70310 81108 333 81822 86278
BBXX 46181 19181 99538 71288 46/// /1402 10004 40132 5//// 22200 00042 10200 70001 333 91203
BBXX 46184 19181 99539 71389 46/// /2214 10077 49946 57022 22200 00065 11510 70051 333 91218
BBXX 46184 19181 99539 71389 46/// /2214 10077 49946 57022 22200 00065 11510 70051 333 91218
AAXX 19181 45032 36/// /3403 10146 20128 30193 40210 57002
AAXX 19181 45035 36/// /0103 10160 20127 30166 40208 57001
AAXX 19181 45039 36/// /3502 10164 20129 30190 40206 57001
AAXX 19181 45044 36/// /0004 10162 20129 30108 40202 57001
AAXX 19181 45032 36/// /3403 10146 20128 30193 40210 57002
AAXX 19181 45035 36/// /0103 10160 20127 30166 40208 57001
AAXX 19181 45039 36/// /3502 10164 20129 30190 40206 57001
AAXX 19181 45044 36/// /0004 10162 20129 30108 40202 57001
AAXX 19181 78458 32566 30906 10280 20197 40194 57015 83200 333 10280 20190 30/// 56200 58013 83824
AAXX 19181 78460 3156030604 10297 20159 40176 56024 70544 83200 333 10300 20165 30/// 56000 58007 83822
AAXX 19181 78467 32466 30405 10280 20210 40173 57017 82201 333 10282 20176 31/// 56100 58012 82818
AAXX 19181 78479 21466 60907 10271 20192 40158 57014 70262 84230 333 10272 20220 30/// 56200 58015 69907 84818 85357
AAXX 19181 78482 32566 21605 10296 20174 4017657035 81200 333 10305 20188 30/// 56400 59006 81826
AAXX 19181 78485 31558 60406 10277 20190 40168 57023 71622 85830 333 10280 20172 30/// 56100 58014 85823
AAXX 19181 78486 31566 70302 10282 20197 40154 57022 70262 83230 333 10324 20200 30/// 56200 58012 83826 85358
AAXX 19181 78488 21558 70207 10264 20205 40176 57010 76022 86870 333 10270 20160 30/// 56100 58016 69900 83316
AAXX 19181 31913 NIL
AAXX 19181 32128 41599 60000 11076 21121 30113 40166 51006 70282 86300 333 91104
AAXX 19181 24856 41998 80102 11408 21438 30048 40227 57006 77177 80007
AAXX 19181 30679 NIL
AAXX 19181 30686 42999 80000 11276 21296 39838 40250 57009 80007
AAXX 19181 30961 42999 01403 11254 21272 39441 40303 57013
AAXX 19181 30971 42999 02102 11256 21288 39228 40304 57012
AAXX 19181 30978 42999 02001 11278 21303 39561 40317 57008
AAXX 19181 31513 42999 00000 11275 21281 30014 40263 58006
AAXX 19181 31624 NIL
AAXX 19181 31832 42968 00000 11280 21298 30178 40275 52004
AAXX 19184 68345 NIL
AAXX 19181 78458 32566 30906 10280 20197 40194 57015 83200 333 10280 20190 30/// 56200 58013 83824
AAXX 19181 78460 3156030604 10297 20159 40176 56024 70544 83200 333 10300 20165 30/// 56000 58007 83822
AAXX 19181 78467 32466 30405 10280 20210 40173 57017 82201 333 10282 20176 31/// 56100 58012 82818
AAXX 19181 78479 21466 60907 10271 20192 40158 57014 70262 84230 333 10272 20220 30/// 56200 58015 69907 84818 85357
AAXX 19181 78482 32566 21605 10296 20174 4017657035 81200 333 10305 20188 30/// 56400 59006 81826
AAXX 19181 78485 31558 60406 10277 20190 40168 57023 71622 85830 333 10280 20172 30/// 56100 58014 85823
AAXX 19181 78486 31566 70302 10282 20197 40154 57022 70262 83230 333 10324 20200 30/// 56200 58012 83826 85358
AAXX 19181 78488 21558 70207 10264 20205 40176 57010 76022 86870 333 10270 20160 30/// 56100 58016 69900 83316
AAXX 19184 71738 11474 80309 11061 21110 39802 40159 51041 69901 77172 885// 333 10029 21063 43027 70006 90947
AAXX 19184 43086 32996 00000 10176 20145 39968 40151 333 59002
AAXX 19184 43128 31996 00000 10190 20144 39536 40154 70500 333 59006
AAXX 19184 43150 31596 50503 10228 20190 30075 40150 70520 83502 333 59009 83620 83075
AAXX 19184 43185 31996 03602 10230 20196 30135 40139 70500 333 59007
AAXX 19184 43189 32996 00902 10244 20207 30134 40143 333 59010
AAXX 19184 43198 32996 20000 10164 20099 39301 40142 80001 333 59005 82075
AAXX 19184 43213 32996 00000 10210 20141 39819 40142 333 59010
AAXX 19184 43226 32996 00901 10214 20134 30094 40124 333 59008
AAXX 19184 43233 32996 00000 10192 20124 39325 40043 333 59005
AAXX 19184 43237 32996 20906 10192 20159 39742 40142 80001 333 59008 82075
AAXX 19184 43245 32996 10000 10230 20199 30113 40140 80001 333 59007
AAXX 19184 43279 32596 53202 10234 20210 30123 40151 83502 333 59005 83620 83075
AAXX 19184 43284 32996 33603 10246 20161 39996 40112 80001 333 59008 83075
AAXX 19184 43295 32496 50902 10184 20118 39115 48516 83501 333 59013 83616 83075
AAXX 19184 43311 32996 00000 10250 20220 40114 333 59009
AAXX 19184 43314 32996 10000 10258 20220 40114 80001 333 59012
AAXX 19184 43321 31495 23603 10222 20187 39682 40133 70500 82500 333 56900 59015
AAXX 19184 43329 32996 00000 10226 20208 30114 40128 333 59007
AAXX 19184 43344 31496 60508 10234 20213 30023 40124 70522 82531 333 59013 82616 84360
AAXX 19184 43346 32596 70208 10256 20217 30109 40117 84531 333 59007 84620 86075
AAXX 19184 43353 31496 50000 10266 20215 40119 70522 82531 333 56699 58001 82616 85072
AAXX 19184 43369 32596 30000 10278 20243 40113 83400 333 59006 83620
AAXX 19184 43371 21496 60000 10246 20237 30041 40114 72162 84830 333 59005 6002/ 83618 83820 85360
AAXX 19184 43201 NIL
AAXX 19184 65046 31958 70807 10236 20086 39585 40127 70522 80008 333 10299 58008 87280
AAXX 19184 65125 31945 72403 10294 20091 30716 40119 70521 80008 333 10345 58006 87280
AAXX 19184 65167 11930 70000 10285 20123 30909 40116 60001 70522 80008 333 10340 58012 87280
AAXX 19184 65250 32957 72303 10296 20243 30055 40088 80008 333 10344 58004 87280
AAXX 19184 71738 11474 80309 11061 21110 39802 40159 51041 69901 77172 885// 333 10029 21063 43027 70006 90947
AAXX 19181 56671 32980 00000 10029 20005 38210 52009 333 05101 10172
AAXX 19181 57378 32960 83601 10068 20009 40283 57003 8807/ 333 10108
AAXX 19181 57426 11556 82201 10062 20044 40268 57001 69901 76060 887// 333 05102 10085
AAXX 19181 57476 11960 80701 10064 20025 40279 57004 69961 76060 8807/ 333 10114
AAXX 19181 57584 32960 80702 10085 20002 40277 57001 8807/ 333 10119
AAXX 19181 57598 11960 80701 10058 20011 40274 52004 69901 70060 8807/ 333 10140
AAXX 19181 57655 11962 80202 10078 20001 40273 52004 69901 76000 8807/ 333 10103
AAXX 19181 57713 NIL
AAXX 19181 57776 32968 22201 10050 20020 40261 57006 80002 333 10050
AAXX 19181 58321 31950 43601 10005 21008 40292 57009 71000 84040 333 10093
AAXX 19181 58437 32975 82207 11001 21012 38192 57006 8807/ 333 10038
AAXX 19181 58445 NIL
AAXX 19181 58556 31957 80000 10058 20023 40286 57009 70500 8807/ 333 10117
AAXX 19181 58569 32470 83605 10093 20047 40279 57011 8617/ 333 10115
AAXX 19181 58646 32660 80000 10092 20032 40274 57005 885// 333 10155
AAXX 19181 58653 NIL
AAXX 19181 58660 NIL
AAXX 19181 58715 32960 80201 10072 21012 40266 57002 8807/ 333 10117
AAXX 19181 58730 32662 83401 10103 20053 40261 54000 885// 333 10170
AAXX 19181 58731 32965 72701 10089 20049 40260 57001 8704/ 333 10165
AAXX 19181 58754 32665 82701 10114 20042 40269 57008 885// 333 10153
AAXX 19181 58911 32960 00201 10055 20041 40252 52003 333 10171
AAXX 19181 58931 31/00 90908 10023 20023 38390 57002 74544 333 10118
AAXX 19181 59254 31758 70201 10140 20078 40219 57001 70500 875// 333 10190
AAXX 19181 59632 31758 70401 10141 20076 40208 52001 70500 875// 333 10210
AAXX 19181 59855 32570 83401 10184 20145 40176 57016 888// 333 10211
AAXX 19184 67002 32580 51003 10255 20230 30091 40125 81830 333 10316 58010 81822 85360 92408
AAXX 19184 67009 NIL
AAXX 19184 67012 NIL
AAXX 19184 67025 NIL
AAXX 19184 67027 32580 22412 10280 20237 30073 40094 52010 81202 333 10310 81820 555 82073
AAXX 19184 67083 32470 21202 10194 20156 38712 48486 53014 81902 333 10278 81817 81917 94967 95817
AAXX 19184 67095 32470 70000 10266 20253 30069 40076 52014 84832 333 10318 82817 83633 85073 555 82360
AAXX 19184 67113 NIL
AAXX 19184 67117 NIL
AAXX 19184 67137 NIL
AAXX 19184 67143 NIL
AAXX 19184 67161 NIL
AAXX 19184 67197 11465 73406 10229 20174 30044 40054 51002 60022 71522 879// 333 10223 83817 82917 85633 94963 95833
BBXX 46004 19181 99509 71361 46/// /2314 10093 40105 52012 22200 00075 11412 70058 333 91218
AAXX 19180 44203 329// 00000 11376 21399 38495 40656 58003
AAXX 19180 44207 329// 72304 11207 21247 38344 40410 58010 80008
AAXX 19180 44212 32999 01802 11331 21360 39352 40671 52010
AAXX 19180 44213 32999 00000 11361 21397 38952 40692 52002
AAXX 19180 44215 32998 00000 11316 21338 38537 40648 52002
AAXX 19180 44218 329// 01803 11281 21311 38748 40611 52005
AAXX 19180 44225 319// 00000 11403 21420 38376 40736 54000 77677
AAXX 19180 44230 329// 00103 11264 21296 38853 40507 57008
AAXX 19180 44232 329// 00000 11358 21400 39189 40512 57009
AAXX 19180 44237 32999 02701 11265 21304 38534 40466 58003
AAXX 19180 44239 329// 00000 11267 21300 38835 40420 56009
AAXX 19180 44241 329// 01402 11320 21343 39331 40449 57008
AAXX 19180 44256 32999 00000 11233 21258 39365 40298 58012
AAXX 19180 44265 329// 00000 11266 21290 38970 40551 52012
AAXX 19180 44272 329// 00000 11325 21361 38326 40628 52008
AAXX 19180 44275 32998 00000 11330 21341 37711 40623 51004
AAXX 19180 44282 32999 03202 11179 21282 38341 40425 54000
AAXX 19180 44284 32999 00000 11326 21360 37907 40675 52007
AAXX 19180 44285 32999 00000 11277 21304 38357 40513 56006
AAXX 19180 44287 32999 00204 11235 21292 38169 40534 58004
AAXX 19180 44294 329// 03501 11267 21289 38589 40470 57009
AAXX 19180 44298 329// 03605 11235 21241 38746 40409 57011
AAXX 19180 44302 329// 02708 11236 21275 39141 40371 58022
AAXX 19180 44305 32999 02904 11263 21292 39089 40377 56010
AAXX 19180 44313 32999 01805 11234 21274 39437 40364 57008
AAXX 19180 44314 32998 02703 11207 21247 39171 40356 57009
AAXX 19180 44317 32998 02301 11178 21228 38974 40340 57012
AAXX 19180 44336 329// 02802 11226 21262 38749 40473 56002
AAXX 19180 44341 329// 01101 11284 21313 38644 40499 56008
AAXX 19180 44347 32999 00000 11224 21256 38777 40448 54000
AAXX 19180 44352 32999 00000 11214 21247 38958 40376 56006
AAXX 19180 44358 329// 00000 11271 21288 39159 40453 57005
AAXX 19180 44214 32998 03601 11226 21286 38400 40599 52006
AAXX 19180 44231 329// 00000 11247 21301 38800 40523 58003 70400
AAXX 19180 44259 32997 02505 11220 21270 39335 40328 56011
AAXX 19180 44277 329// 00000 11241 21273 37871 40610 52007 333 91108
AAXX 19180 44288 32999 03003 11142 21287 38192 40403 57006
AAXX 19180 44292 32999 00000 11280 21304 38748 40470 58008
AAXX 19180 44304 329// 00000 11294 21317 39022 40398 57014
AAXX 19180 44354 329// 00000 11276 21299 39166 40433 56006
AAXX 19180 44373 32999 02302 11184 21232 38593 40425 58007
BBXX 46004 19181 99509 71361 46/// /2314 10093 40105 52012 22200 00075 11412 70058 333 91218
AAXX 19181 13492 NIL
AAXX 19181 13584 NIL
AAXX 19181 13585 12595 80000 10028 20025 39325 40126 58001 69922 886// 333 10032 94000
AAXX 19181 13597 41695 80000 10072 20072 30045 40117 58008 71044 885// 333 10075 94000
AAXX 19181 13598 12697 80000 10011 20006 48410 53003 69972 886// 333 10021 94000
AAXX 19184 71500 16/// /2510 11005 21062 60001 333 11005 21088 70004
AAXX 19184 71504 16/// ///// 10011 21068 60001 333 10012 21130 70004
AAXX 19184 71541 16/// /2417 10016 21036 60001 333 10018 21104 70000
AAXX 19184 71543 16/// /2418 10019 21033 60001 333 10020 21201 70000
AAXX 19184 71546 16/// /2315 10025 21030 60001 333 10025 21081 70000
AAXX 19184 71547 16/// /2428 10021 21038 60001 333 10021 21099 70000
AAXX 19184 71359 16/// /2310 11045 21083 60001 333 11045 21109 70000
AAXX 19184 71283 16/// /2515 10015 21034 60001 333 10016 21116 70000
AAXX 19184 71067 16/// ///// 11047 21096 60001 333 11045 21128 70000
AAXX 19184 71405 16/// ///// 11042 21084 60001 333 11042 21137 70000
AAXX 19184 71417 16/// /2808 11044 21101 30109 40144 57028 60001 333 11042 21136 70000
AAXX 19184 71426 46/// /2128 11032 6///1 333 11032 21106 7////
AAXX 19184 71840 46/// /2812 11054 21079 6///1 333 11028 21070 7////
AAXX 19184 71761 16/// ///// 11035 21088 60001 333 11035 21116 70000
AAXX 19184 71788 16/// /1912 10004 21035 60001 333 10004 21068 70000
AAXX 19184 71792 16/// ///// 11052 21083 60001 333 11049 21121 70000
AAXX 19184 71673 16/// ///// 11064 21097 60001 333 11064 21152 70000
AAXX 19184 71690 16/// ///// 10013 21034 60001 333 10013 21175 70000
AAXX 19184 71888 16/// ///// 11060 21087 60001 333 11060 21141 70004
AAXX 19184 71461 16/// /2421 10036 21029 60001 333 10037 21101 70000
AAXX 19184 71468 16/// /3015 11062 21076 39863 40191 51025 60001 333 21062 70089
AAXX 19184 71483 16/// ///// 11027 21062 60001 333 11004 21104 70000
AAXX 19184 71011 16/// ///// 11082 21098 60001 333 11082 21149 70000
AAXX 19184 71332 16/// /0711 11214 21237 39908 49938 53009 60001 333 11204 21344 70000 555 10010
AAXX 19184 71221 46/// /2518 10023 21032 6///1 333 10024 21175 7////
AAXX 19184 71226 16/// /2314 10044 21042 60001 333 10044 21065 70000
AAXX 19184 71229 46/// /2521 10024 21037 6///1 333 10027 21110 7////
AAXX 19184 71239 16/// /2508 11060 21084 39784 40258 50007 60001 333 11026 21123 70003 555 10020
BBXX 46246 19181 99500 71451 46/// ///// 1//// 91759 22200 00074 11318 21010 326// 41314 70090
BBXX 46232 19181 99325 71174 46/// ///// 1//// 91808 22200 00152 11403 20702 329// 41402 70015
BBXX 46247 19181 99378 71228 46/// ///// 1//// 91821 22200 00112 11506 21004 328// 41504 70031
AAXX 19184 71283 16/// /2515 10015 21034 60001 333 10016 21116 70000
AAXX 19184 71761 16/// ///// 11035 21088 60001 333 11035 21116 70000
AAXX 19184 71788 16/// /1912 10004 21035 60001 333 10004 21068 70000
AAXX 19184 71792 16/// ///// 11052 21083 60001 333 11049 21121 70000
AAXX 19184 71011 16/// ///// 11082 21098 60001 333 11082 21149 70000
AAXX 19184 71673 16/// ///// 11064 21097 60001 333 11064 21152 70000
AAXX 19184 71690 16/// ///// 10013 21034 60001 333 10013 21175 70000
AAXX 19184 71332 16/// /0711 11214 21237 39908 49938 53009 60001 333 11204 21344 70000 555 10010
AAXX 19181 56144 32980 00000 11045 21170 36877 52008 333 00201 10114
AAXX 19181 56152 32980 00000 11142 21173 36317 52004 333 00102 10024
AAXX 19181 56167 32980 00000 11068 21112 37103 52010 333 00200 10119
AAXX 19181 56182 32980 01801 11051 21087 37199 52007 333 05102 10093
AAXX 19181 56357 32980 02501 11096 21213 36461 52004 333 00100 10085
AAXX 19181 56586 32465 83402 11005 21019 38075 52007 885// 333 00152 10082
AAXX 19181 56748 32980 00000 10055 20035 38367 54000 333 05100 10174
AAXX 19181 56763 32975 01602 10109 20054 40127 52007 333 05151 10227
AAXX 19181 56768 32980 02702 10070 20055 38185 52003 333 05200 10157
AAXX 19181 56838 32968 00000 10110 20098 40176 52001 333 05100 10228
AAXX 19181 56886 32780 32503 10066 20046 38303 52001 83400 333 05201 10174
AAXX 19181 56946 32670 10000 10086 20080 40174 52001 81100 333 05100 10234
AAXX 19181 56959 32965 02901 10128 20126 40167 52006 333 05253 10253
AAXX 19181 56969 31456 70000 10112 20109 40184 52002 71000 876// 333 05200 10245
AAXX 19181 57731 11458 82201 10052 20034 40278 52002 69901 76000 885// 333 05201 10064
AAXX 19181 57766 32762 70000 10067 20006 40269 57004 875// 333 10101
AAXX 19181 57845 32960 80402 10070 20007 40262 52003 8807/ 333 10091
AAXX 19181 57853 32960 83401 10073 21004 40270 54000 8807/ 333 10097
AAXX 19181 57916 32662 80901 10121 20072 40220 52006 885// 333 05201 10148
AAXX 19181 57922 32661 81801 10056 20019 40246 52002 885// 333 05201 10079
AAXX 19181 57932 32661 80000 10093 20047 40252 52003 885// 333 05302 10114
AAXX 19181 58338 32961 70903 10055 20001 40276 57010 8704/ 333 10106
AAXX 19181 59007 32968 20000 10061 20038 40183 52005 82030 333 10185
AAXX 19181 59046 31757 80000 10120 20047 40233 57003 70500 885// 333 10156
AAXX 19181 59058 31856 81601 10109 20063 40237 52003 71000 885// 333 10173
AAXX 19181 59072 31957 70000 10056 20055 40252 52003 71000 8704/ 333 10170
AAXX 19181 59087 32960 00902 10088 20034 40235 52004 333 10189
AAXX 19181 59209 32461 72501 10130 20089 40193 57001 87800 333 10155
AAXX 19184 71221 46/// /2518 10023 21032 6///1 333 10024 21175 7////
AAXX 19184 71226 16/// /2314 10044 21042 60001 333 10044 21065 70000
AAXX 19184 71229 46/// /2521 10024 21037 6///1 333 10027 21110 7////
AAXX 19184 71239 16/// /2508 11060 21084 39784 40258 50007 60001 333 11026 21123 70003 555 10020
AAXX 19184 71500 16/// /2510 11005 21062 60001 333 11005 21088 70004
AAXX 19184 71504 16/// ///// 10011 21068 60001 333 10012 21130 70004
AAXX 19184 71541 16/// /2417 10016 21036 60001 333 10018 21104 70000
AAXX 19184 71543 16/// /2418 10019 21033 60001 333 10020 21201 70000
AAXX 19184 71546 16/// /2315 10025 21030 60001 333 10025 21081 70000
AAXX 19184 71547 16/// /2428 10021 21038 60001 333 10021 21099 70000
AAXX 19184 71067 16/// ///// 11047 21096 60001 333 11045 21128 70000
AAXX 19184 71461 16/// /2421 10036 21029 60001 333 10037 21101 70000
AAXX 19184 71468 16/// /3015 11062 21076 39863 40191 51025 60001 333 21062 70089
AAXX 19184 71483 16/// ///// 11027 21062 60001 333 11004 21104 70000
AAXX 19184 71359 16/// /2310 11045 21083 60001 333 11045 21109 70000
AAXX 19184 71840 46/// /2812 11054 21079 6///1 333 11028 21070 7////
AAXX 19184 71888 16/// ///// 11060 21087 60001 333 11060 21141 70004
AAXX 19184 71405 16/// ///// 11042 21084 60001 333 11042 21137 70000
AAXX 19184 71417 16/// /2808 11044 21101 30109 40144 57028 60001 333 11042 21136 70000
AAXX 19184 71426 46/// /2128 11032 6///1 333 11032 21106 7////
BBXX 46146 19181 99493 71237 46/// /1205 10062 40305 57005 22200 00066 10200 70002 333 91206
BBXX 46146 19181 99493 71237 46/// /1205 10062 40305 57005 22200 00066 10200 70002 333 91206
BBXX 46246 19181 99500 71451 46/// ///// 1//// 91829 22200 00073 11418 21009 327// 41416 70092
BBXX 46236 19181 99368 71219 46/// ///// 1//// 91820 22200 00125 11505 20903 328// 41504 70025
BBXX 46229 19181 99438 71246 46/// ///// 1//// 91821 22200 00101 11406 21003 329// 41405 70028
BBXX 46225 19181 99329 71174 46/// ///// 1//// 91814 22200 00145 11502 20702 327// 41502 70011
BBXX 46213 19181 99403 71247 46/// ///// 1//// 91824 22200 00105 10908 20907 329// 41305 70042
BBXX 46215 19181 99352 71209 46/// ///// 1//// 91808 22200 00130 11504 20602 326// 41503 70018
BBXX 41010 19181 99289 70785 46/// /1106 10192 40254 91820 22200 00237 10704 20602 300// 40703 70018 333 91208 555 11067 22069
BBXX 41009 19181 99285 70802 46/// /1207 10211 20126 40247 91820 22200 00250 10803 20602 300// 40802 70016 333 91209 555 11072 22075
BBXX 42362 19181 99278 70907 46/// /1409 10250 20111 40190 91830
BBXX 42363 19181 99282 70892 46/// /1408 10206 20083 40207 91830 333 91208
BBXX 42364 19181 99291 70881 46/// /1608 10200 20111 40214 91830
BBXX 42361 19181 99276 70925 46/// ///11 10222 20133 40169 58021 91830 555 11086 22092
BBXX 44100 19181 99363 70756 46/// ///// 1//// 91822 22200 00122 11002 21002 308// 41101 70010
BBXX 41110 19181 99341 70777 46/// ///// 1//// 91821 22200 00142 11001 21001 310// 41101 70007
BBXX 42099 19181 99273 70842 46/// ///// 1//// 91827 22200 00232 10604 20604 70018
BBXX 41113 19181 99284 70805 46/// ///// 1//// 91821 22200 00211 10502 20502 70010
BBXX 41112 19181 99307 70813 46/// ///// 1//// 91821 22200 00163 10502 20502 70010
BBXX 42013 19181 99272 70829 46/// ///// 1//// 40230 91740 22200 00197
AAXX 1918/ 89767 46/// ///// 11120 39830 4//// 5////
AAXX 19184 89507 46/89 /1806 11205 29069 36861 4//// 5////
AAXX 19184 67002 32580 51003 10255 20230 30091 40125 81830 333 10316 58010 81822 85360 92408
AAXX 19184 67009 NIL
AAXX 19184 67012 NIL
AAXX 19184 67025 NIL
AAXX 19184 67027 32580 22412 10280 20237 30073 40094 52010 81202 333 10310 81820 555 82073
AAXX 19184 67083 32470 21202 10194 20156 38712 48486 53014 81902 333 10278 81817 81917 94967 95817
AAXX 19184 67095 32470 70000 10266 20253 30069 40076 52014 84832 333 10318 82817 83633 85073 555 82360
AAXX 19184 67113 NIL
AAXX 19184 67117 NIL
AAXX 19184 67137 NIL
AAXX 19184 67143 NIL
AAXX 19184 67161 NIL
AAXX 19184 67197 11465 73406 10229 20174 30044 40054 51002 60022 71522 879// 333 10223 83817 82917 85633 94963 95833
BBXX 44099 19181 99369 70757 46/// ///// 1//// 91822 22200 00120 11002 21002 309// 41101 70011
BBXX 41024 19181 99338 70785 46/// /1303 10138 40269 91800
BBXX 44039 19181 99411 70727 46/// /2106 10066 20000 40188 91753 22200 00095 10502 70010 333 91214
BBXX 44258 19181 99445 70634 46/// /2401 11016 40173 57032 22200 00065 10903 70015 333 91202
BBXX 44258 19181 99445 70634 46/// /2401 11016 40173 57032 22200 00065 10903 70015 333 91202
AAXX 1918/ 89327 46/// ///// 11011 39609 4//// 5//// 91810
AAXX 1918/ 89327 46/// ///// 11011 39608 4//// 5//// 91820
AAXX 1918/ 89828 46/// ///// 11339 36511 4//// 5//// 91820
AAXX 1918/ 89879 46/// ///// 11014 39817 4//// 5//// 91810
AAXX 1918/ 89879 46/// ///// 11014 39818 4//// 5//// 91820
AAXX 1918/ 89872 46/// ///// 11084 39846 4//// 5//// 91810
AAXX 1918/ 89869 46/// ///// 11100 39837 4//// 5//// 91810
AAXX 1918/ 89869 46/// ///// 11106 39837 4//// 5//// 91820
AAXX 1918/ 89866 46/// ///// 11073 39800 4//// 5//// 91820
AAXX 1918/ 89329 46/// ///// 11125 38666 4//// 5//// 91820
AAXX 1918/ 89799 46/// ///// 11234 4//// 5//// 91820
AAXX 1918/ 89769 46/// ///// 11100 39917 4//// 5//// 91810
AAXX 1918/ 89769 46/// ///// 11096 39857 4//// 5//// 91820
AAXX 1918/ 89314 46/// ///// 11141 38193 4//// 5//// 91810
AAXX 19184 89667 46/// /1916 11059 29058 39905 4//// 5//// 91820
AAXX 19184 89667 46/// /1611 11066 39910 4//// 5//// 91810
AAXX 19184 96009 31440 61403 10244 20238 30060 40095 57008 70522 84922 333 56000 57902 82915 82616 80965
AAXX 19184 96011 32460 71106 10254 20239 30075 40101 57010 84531 333 56000 83620
AAXX 19184 96035 11459 80000 10238 20233 30056 40094 57009 60251 70262 8492/ 333 56009 57902 81917 83617 80950
AAXX 19184 96073 01450 70000 10238 20232 30076 40088 56015 60051 70562 83972 333 56000 57901 69907 83913 80958
AAXX 19184 96091 11457 80000 10250 20241 30063 40086 57012 60021 70262 8452/ 333 56009 84613 88460
AAXX 19184 96109 01456 80000 10244 20238 30041 40081 57009 69901 76062 84521 333 56000 69907 84615 87460
AAXX 19184 96145 NIL
AAXX 19184 96147 NIL
AAXX 19184 96163 01450 80000 10243 20238 30093 40096 57009 60041 70266 84528 333 56000 60037 84618
AAXX 19184 96179 01460 70000 10243 20237 30050 40086 57004 60011 72162 84218 333 56000 57802 69907 84817 80850
AAXX 19184 96195 32460 73107 10245 20232 30056 40092 58012 83571 333 56700 83613 85460
AAXX 19184 96221 01340 83103 10242 20241 30072 40087 57011 60241 76166 8367/ 333 56999 60037 83708 87460
AAXX 19184 96237 01450 83306 10236 20228 30042 40084 56004 69921 72166 8657/ 333 56009 69927 86616 86459
AAXX 19184 96249 NIL
AAXX 19184 96253 01440 80000 10240 20237 30051 40072 57012 60241 76166 8397/ 333 56009 57900 57800 60077 81915 81820 87460 80900 80800
AAXX 19184 96295 32460 83208 10250 20236 39981 40084 56010 8452/ 333 56609 84612
AAXX 19184 96509 31457 82610 10268 20253 30061 40072 57006 71792 85971 333 56000 57903 57801 81915 84815 80975 80860
AAXX 19184 96581 32456 60000 10250 20244 30058 40063 57016 82130 333 56000 82813 85362 80860
AAXX 19184 96633 11458 63005 10253 20246 30048 40056 57013 60011 70396 81521 333 56000 81620 85460
AAXX 19184 96645 31440 70000 10242 20241 30027 40059 57017 71022 85572 333 56000 85613
AAXX 19184 96655 NIL
AAXX 19184 96685 NIL
AAXX 19184 96749 31557 62607 10249 20214 30055 40068 58017 70522 82421 333 56000 82622 84462
AAXX 19184 96781 NIL
AAXX 19184 96805 01558 70000 10250 20241 30060 40069 56031 60021 72162 83271 333 56000 57801 60027 83820 80858
AAXX 19184 96839 01450 50000 10250 20236 30047 40054 57019 60021 70196 83571 333 56000 69907 83619
AAXX 19184 96935 32556 60000 10259 20242 30048 40055 58021 82271 333 56000 57802 82820 84360 80858
AAXX 19184 96001 NIL
AAXX 19184 96015 11440 70000 10243 20240 30076 40083 57017 60011 70262 84572 333 56000 84616
AAXX 19184 96033 31430 80000 10248 20233 30094 40099 57012 71522 84928 333 56000 57903 81918 84617 80980
AAXX 19184 96075 32450 80000 10249 20244 30085 40091 57005 8692/ 333 56009 57901 82915 84618 80965
AAXX 19184 96087 01459 83402 10252 20241 30051 40085 56009 60041 72162 8152/ 333 56809 69987 81613 88460
AAXX 19184 96171 31440 70000 10240 20229 30062 40086 56010 70522 85522 333 56000 85613
AAXX 19184 96207 11420 80000 10201 20195 39233 40155 57003 72162 60012 84931 333 56000 57902 82912 84614 80930
AAXX 19184 96525 32458 61503 10270 20251 30061 40069 57010 83471 333 56000 83615
AAXX 19184 96529 32950 20000 10258 20252 30057 40082 58014 80001 333 56000 82080
AAXX 19184 96559 31340 50000 10242 20236 30027 40065 57011 70522 83170 333 56200 57824 83809 80848
AAXX 19184 96607 32458 40000 10258 20243 30052 40067 57017 83221 333 56000 83414
AAXX 19184 96615 32456 42902 10250 20241 30055 40069 57019 82131 333 56600 57863 82812 80856
AAXX 19184 96737 32458 70000 10256 20232 30031 40061 58015 84521 333 56000 84617 83460
AAXX 19184 96739 NIL
AAXX 19184 96741 32550 72805 10270 20229 30062 40066 57010 82571 333 56000 82620 84360
AAXX 19184 96745 11556 70000 10271 20227 30064 40069 57012 69901 70262 84521 333 56000 84620 87460
AAXX 19184 96751 32540 60000 10198 20190 39007 48920 52002 84510 333 56000 84620 83460
AAXX 19184 96791 NIL
AAXX 19184 96797 11458 72003 10256 20233 30050 40055 57026 60031 70262 82971 333 56000 57902 69907 81918 81620 83080 80980
AAXX 19184 96837 11540 70000 10261 20243 30061 40065 56009 60021 70262 83272 333 56000 57800 69907 83823
AAXX 19184 96925 NIL
AAXX 19184 96933 32459 60000 10261 20241 30057 40061 57015 84511 333 56600 84615
AAXX 19184 96937 11458 80000 10262 20246 30049 40054 57024 60021 70262 84276 333 56000 57801 84819 80860
AAXX 19184 96973 31458 60000 10266 20255 30050 40056 57014 83931 333 56000 57902 81919 80976 82820 80850
AAXX 19184 96987 32558 50000 10250 20226 30009 40068 57007 83511 333 56000 83620
AAXX 19184 97008 32460 30000 10242 20236 30055 40065 57007 82131 333 56000 82820
AAXX 19184 97016 32562 50102 10267 20237 30064 40066 57008 83232 333 56000 57802 83820 80860
AAXX 19184 97126 01457 80000 10246 20240 30015 40075 56013 60141 70262 8292/ 333 56009 57900 60067 82916 88460 80980
AAXX 19184 97182 NIL
AAXX 19184 97240 NIL
AAXX 19184 97310 32558 10000 10252 20240 30039 40051 57016 81101 333 56000 81820
AAXX 19184 97320 32560 40000 10249 20236 30040 40053 57023 82121 333 56000 82820
AAXX 19184 97378 NIL
AAXX 19184 97406 NIL
AAXX 19184 97570 NIL
AAXX 19184 97630 32350 30106 10240 20232 39897 40057 56019 82131 333 56000 57804 82809 84080 80856
AAXX 19184 97700 01456 72203 10250 20240 30043 40057 57011 60061 71562 84872 333 56000 57804 60067 82817 85458 80850
AAXX 19184 97722 32462 70000 10249 20240 30045 40060 57015 85972 333 56600 57961 57861 81918 83819 80971 80856
AAXX 19184 97014 01560 61201 10244 20237 39979 40072 57016 60051 70262 83471 333 56000 69967 83621
AAXX 19184 97028 NIL
AAXX 19184 97048 32556 40000 10256 20246 30030 40057 57011 82231 333 56000 57802 81820 80857
AAXX 19184 97072 NIL
AAXX 19184 97086 32560 22704 10266 20242 30044 40068 56011 81111 333 56000 57804 81820 80857
AAXX 19184 97096 11458 60000 10258 20243 30060 40081 57011 69901 70262 82231 333 56000 57803 69907 82816 85360 80857
AAXX 19184 97120 01460 70000 10260 20239 30025 40058 57015 69901 72122 82271 333 56000 57802 69907 82818 85360 80860
AAXX 19184 97146 NIL
AAXX 19184 97180 01457 70702 10259 20259 30044 40062 57019 60081 72162 83272 333 56000 60087 83818 85460
AAXX 19184 97192 NIL
AAXX 19184 97230 32460 72604 10271 20244 30046 40053 56015 82232 333 56000 57802 82818 85359 80857
AAXX 19184 97260 NIL
AAXX 19184 97270 31450 60000 10258 20249 30047 40052 57016 70522 85871 333 56000 83815
AAXX 19184 97300 31460 50000 10266 20254 30020 40061 57007 71521 82271 333 56000 57802 82818 80857
AAXX 19184 97340 32560 70000 10260 20260 30034 40049 57024 81202 333 56000 81820 87080
AAXX 19184 97372 32558 50000 10258 20251 39933 40053 57019 81171 333 56000 81820 85080
AAXX 19184 97430 32460 50000 10254 20239 30032 40061 57014 83232 333 56700 57872 83818 80860
AAXX 19184 97460 NIL
AAXX 19184 97502 32450 50000 10250 20244 30046 40050 57019 83531 333 56000 83612
AAXX 19184 97530 32456 20000 10254 20245 30042 40047 57012 81101 333 56000 57804 81814 80833
AAXX 19184 97560 NIL
AAXX 19184 97686 NIL
AAXX 19184 97690 NIL
AAXX 19184 97724 31559 73502 10258 20237 30041 40057 57015 70522 81132 333 56700 81820 85360 80856
AAXX 19184 97748 31459 72708 10284 20261 30054 40056 55001 71322 83932 333 56600 57961 82914 85074 80940
AAXX 19184 97760 11440 70902 10253 20250 30052 40061 57014 60011 71522 84920 333 56000 57901 81915 82816 80960
AAXX 19184 97796 NIL
AAXX 19184 97810 32958 50000 10260 20251 30038 40047 56013 85032 333 56000 85360
AAXX 19184 97900 NIL
AAXX 19184 97980 32458 50000 10262 20243 30037 40044 56018 82141 333 56000 82817 84080
AAXX 19181 40001 32970 00106 10054 20010 40268 58003 333 10146
AAXX 19181 40007 32960 00603 10087 20051 40271 50004 333 10132
AAXX 19181 40025 32965 00603 10140 20044 40197 56009 333 10222
AAXX 19181 40045 32970 00000 10060 20015 40291 54000 333 10166
AAXX 19181 40061 32970 00000 10068 20025 40270 52009 333 10133
AAXX 19181 40080 32965 00602 10088 21041 39523 40248 52010 333 10180
AAXX 19181 40087 NIL
AAXX 19181 40095 NIL
AAXX 19181 40009 32965 00000 10047 20030 40254 51002 333 10158
AAXX 19181 40016 32970 02803 10060 20036 40294 54000 333 10132
AAXX 19181 40022 32965 00303 10150 20053 40200 58006 222// 20000 333 10188
AAXX 19181 40030 31960 00000 10076 20063 40259 50003 71000 333 10114
AAXX 19181 40039 32970 00000 10068 20035 40265 51003 333 10142
AAXX 19181 40066 32970 00706 10116 20052 40200 50000 333 10130
AAXX 19181 40072 32970 00000 10082 20031 40296 53004 333 10158
AAXX 19181 40083 32970 01901 10074 21020 48546 52008 333 10142
BBXX 46036 19181 99484 71339 46/// /2212 10099 40219 52006 22200 00085 11208 70041 333 91215
BBXX 46036 19181 99484 71339 46/// /2212 10099 40219 52006 22200 00085 11208 70041 333 91215
BBXX 63110 19183 99595 10015 41/98 /1610 10049 40005 700// 8//// 22200 10704 70020
BBXX 62303 19184 99516 70051 46/// /2816 10115 20094 40128 53018 22200 00109 10605 70027
BBXX 62105 19184 99554 70122 46/// /2823 10093 20064 40116 53014 22200 00105 10607 70035 333 90710 91133
BBXX 64045 19184 99591 70117 46/// /2925 10054 20022 40028 53023 22200 00102 10707 70037 333 90710 91144
BBXX AMOUK08 19184 99501 70061 46/// ///// 10113 20108 30148 40153 54003 91750
BBXX PJGO 19184 99571 10022 47397 /2003 10058 20014 40021 57021 751// 22200
BBXX 63106 19184 99610 10017 46/// /1811 10038 40008 57009 22200
BBXX 63105 19184 99610 10017 47598 ///// 10044 21013 40008 57008 751// 22200
BBXX 62094 19184 99517 70067 46/// /29// 10111 20088 4//// 5//// 22200 00107 10504 70018
BBXX 62103 19184 99499 70029 46/97 /2929 10117 20103 40120 56017 22200 00122 10704 70021 333 90710 91142
BBXX 62305 19184 99504 10000 46/95 /2522 10099 20095 40111 57032 22200 10602 70008
BBXX 62095 19184 99530 70159 46/// /2915 10102 20070 40192 52021 22200 00113 10605 70027
AAXX 19184 82336 32598 60902 10324 20239 3//// 4//// 84203 333 5////
AAXX 19184 82533 32497 41802 10323 20239 3//// 4//// 84206 333 5////
AAXX 19184 82704 21695 80000 10253 20240 39871 40066 70362 885// 333 58019 60151
AAXX 19184 83264 32797 60504 10309 20220 39656 40117 82238 333 58001
AAXX 19184 83358 32598 83204 10296 20202 39670 40065 885// 333 59002
AAXX 19181 20046 NIL
AAXX 19181 20069 NIL
AAXX 19181 20087 41497 81610 11188 21214 30196 40207 57008 77173 8552/ 333 85617 91115
AAXX 19181 20292 NIL
AAXX 19181 20353 46/// /1607 11030 21070 30137 40140 54000
AAXX 19181 20667 NIL
AAXX 19181 20674 41998 31909 11198 21217 30191 40255 57008 73731 80001 333 91112
AAXX 19181 20744 11995 81216 11035 21046 30042 40060 58034 69950 77173 8807/ 333 11022 91122
AAXX 19181 20891 42998 20000 11394 21416 30281 40331 52008 80001 333 91101
AAXX 19181 23022 11497 82108 11066 21078 30070 40132 57015 69900 73683 8455/ 333 11031 91116
AAXX 19181 23032 11395 82006 11070 21079 30138 40169 58012 69940 77373 8802/ 333 11046 88507
AAXX 19181 23058 11395 81503 11095 21107 30203 40208 57005 60020 77387 8872/ 333 11093 88708
AAXX 19181 23242 11/93 91701 11086 21093 30178 40194 57008 60030 74984 333 11035
AAXX 19181 23256 11396 81605 11100 21106 30183 40220 57008 60020 77187 885// 333 11100 86709
AAXX 19181 23330 32697 72004 11115 21128 30183 40205 57014 84530 333 11048 84646
AAXX 19181 23445 12997 81903 11102 21115 30203 40230 57007 69950 80001 333 11052
AAXX 19181 23552 11497 82202 11064 21076 30206 40241 57007 60020 70282 889// 333 11060 88434 88911
AAXX 19181 23631 32998 82306 11062 21106 30209 40251 57014 86031 333 11043
AAXX 19181 23662 31496 81101 11153 21166 30226 40273 57012 77172 8552/ 333 11114
AAXX 19181 23724 32998 82202 11035 21105 30207 40273 57012 8805/ 333 11021
AAXX 19181 23734 32998 01602 11082 21114 30210 40306 57016 333 11043
AAXX 19181 23849 42996 52605 11069 21099 40323 57002 85030
AAXX 19181 23867 11599 82202 11091 21107 30236 40312 52001 60010 70272 85571 333 11079
AAXX 19181 23933 32997 62402 11088 21117 30288 40347 58006 80005 333 11053
AAXX 19181 28064 32998 02102 11095 21159 30289 40385 57016 333 11069
AAXX 19181 28275 32997 02301 11132 21152 30369 40434 57004 333 11090
AAXX 19181 28493 32997 02401 11148 21161 30338 40439 52006 333 11101
AAXX 19181 28698 11997 02502 11184 21203 30315 40485 54000 69900 77670 333 11161
AAXX 19184 83766 32597 63206 10334 20119 39451 40093 5//// 86200
AAXX 19184 83836 32597 53204 10280 20102 39107 40065 56013 85200
AAXX 19184 83881 32597 42304 10330 20115 39787 40064 58010 84300
AAXX 19184 83980 31596 12702 10280 20150 39782 40057 57012 70500 81100
AAXX 19184 83997 32597 21404 10250 20175 30036 40079 56003 82200
AAXX 19184 82042 32598 43604 10329 20280 3//// 4//// 82300 333 5////
AAXX 19184 82610 21595 80000 10281 20248 3//// 4//// 70266 887// 332 333 5//// 60031
AAXX 19184 63688 32480 50809 10163 20119 48/// 82901 333 10237 58005 81919 85078
AAXX 19184 63708 31575 20104 10214 20188 48495 70192 81930 333 10259 58000 81921
AAXX 19184 63740 32580 30308 10186 20146 48513 81530 333 10270 58005 81622
AAXX 19184 63820 32580 10408 10277 20250 40106 81100 333 10350 58004 81823
AAXX 19184 63612 NIL
AAXX 19184 63661 NIL
AAXX 19184 63671 NIL
AAXX 19184 63695 NIL
AAXX 19184 63714 NIL
AAXX 19184 63723 NIL
AAXX 19184 63772 NIL
AAXX 19184 63793 NIL
AAXX 19183 63612 32980 40000 10265 20198 40112 83031 333 10347 58018 83359
AAXX 19183 63661 11980 70205 10184 20151 48538 60062 70396 8707/ 333 10255 58008 87359
AAXX 19183 63671 32980 00000 10261 20227 333 10317
AAXX 19183 63723 32982 00000 10290 20216 40085 333 10338 59005
AAXX 19183 63772 32980 00904 10275 20248 333 10316
AAXX 19183 63793 32480 10712 10282 20182 40077 81500 333 10330 58005 81619
AAXX 19184 78318 11560 71007 10264 20193 30184 40188 56021 60001 70511 82802 333 10269 20198 31/// 56209 59016 70018 81820 87073 555 10902
AAXX 19184 78325 11563 70908 10246 20176 30139 40197 56016 69901 70582 84372 333 10254 20191 30/// 56299 57983 59005 70040 84820 86360
AAXX 19184 78333 11/10 60603 10264 20187 30183 40190 58018 60001 70511 81232 333 10265 20178 30/// 56990 58002 818// 86070
AAXX 19184 78348 11557 70607 10246 20178 30147 40199 58014 60051 70586 81808 333 10248 20220 31/// 56206 57862 58007 70052 81822 86275 555 10903 20027
AAXX 19184 78349 11562 70905 10262 20181 30089 40199 57020 60001 70522 82202 333 10270 20196 30/// 56909 58007 82822 87070
AAXX 19184 78353 01565 60704 10244 20209 30175 40197 58014 69971 72582 85802 333 10260 20215 31/// 56209 58005 69977 70034 84820 555 10803
AAXX 19184 78360 12570 40308 10292 20188 30163 40174 58016 60001 83802 333 10300 20216 30/// 56209 57817 58005 70003 82820 92034 555 10902
AAXX 19184 78369 11568 40707 10269 20193 30174 40183 57010 60001 70500 83202 333 10272 20249 30/// 56209 57866 58019 83820 92044 555 10703
AAXX 19181 23426 32984 80000 11120 21133 30180 40205 57018 8807/ 333 11091
AAXX 19181 23625 32998 82301 11044 21095 30211 40246 57015 80006 333 11028
AAXX 19181 28076 32997 32302 11112 21118 30307 40384 57005 80001 333 11087
AAXX 19181 28367 32984 02202 11130 21165 30328 40466 57008 333 11074
AAXX 19181 28382 32998 02303 11137 21150 30361 40438 52002 333 11100
AAXX 19181 28481 31996 02101 11165 21178 30355 40463 52001 71000 333 11108
AAXX 19181 28491 32997 22602 11138 21151 30326 40445 52003 80001 333 11110
AAXX 19181 28573 32997 02002 11176 21188 30368 40482 54000 333 11155
AAXX 19181 28593 32997 52202 11165 21184 30346 40453 52004 85030 333 11120
AAXX 19181 28786 31997 02603 11197 21216 30332 40507 57002 70230 333 11163
AAXX 19181 28797 11997 32502 11197 21216 30323 40498 56001 69900 70272 80001 333 11152
AAXX 19181 28799 NIL
BBXX WC5932 19184 99436 70877 43/// /3313 00/// 10103 20022 40176 58003 7//// 8//// 22243 0//// 2//// 3//// 4//// 5//// 6//// 80066 ICE /////
BBXX WRAH 19183 99351 70124 41598 30519 10160 2//// 40254 53012 70300 831// 22264 00195 20303 302// 40606 5//// 6//// 8//// ICE /////
AAXX 19184 42492 31993 30000 10108 20104 40181 74444 83030 333 59002 83360
AAXX 19184 42587 31994 00000 10098 20068 40179 71000 333 59004
AAXX 19184 42591 31/90 93604 10100 20100 40182 74744 333 59004
AAXX 19184 42701 31995 00000 10106 20038 39423 40180 70500 333 58000
AAXX 19184 42724 31494 60502 10144 20126 40162 71022 86600 333 59005 83710 84618
AAXX 19184 42798 31995 00000 10110 20068 40161 70500 333 59009
AAXX 19184 42809 31994 00000 10144 20126 40156 71000 333 59005
AAXX 19184 42886 31996 00000 10150 20109 40163 70500 333 59007
AAXX 19184 42971 31994 13202 10166 20149 40153 71000 80001 333 59009 81075
AAXX 19184 43333 31496 40704 10258 20213 40118 70511 82101 333 56209 59004 82818
BBXX 51204 19181 99213 71581 46/// ///// 1//// 91822 22200 00246 11303 20602 331// 41301 70013
BBXX 51202 19181 99214 71577 46/// ///// 1//// 91809 22200 00245 10806 20806 303// 41101 70029
BBXX 46219 19181 99332 71199 46/// ///// 1//// 91828 22200 00136 11505 21002 329// 41504 70023
BBXX 46224 19181 99332 71175 46/// ///// 1//// 91806 22200 00144 11302 20701 326// 41301 70009
BBXX 46211 19181 99469 71242 46/// ///// 1//// 91806 22200 00083 11405 21003 327// 41404 70023
BBXX 46214 19181 99379 71235 46/// ///// 1//// 91825 22200 00117 11408 21005 330// 41406 70040
BBXX 46238 19181 99334 71195 46/// ///// 1//// 91820 22200 00144 11304 21002 328// 41303 70019
BBXX 46239 19181 99363 71221 46/// ///// 1//// 91821 22200 00135 11407 20804 330// 41406 70035
BBXX 44060 19181 99413 70721 46/// ///10 10062 40178 91830 22200 00102 333 91214 555 11113 22118
BBXX 44022 19181 99409 70737 46/// ///09 10066 21009 40183 91830 22200 00082 333 91212 555 11098 22103
BBXX A8CJ2 19184 99068 50812 41398 31209 10230 20193 40135 57005 70200 836// 22284 04200 20501 318// 40502 5//// 80205
BBXX AMOUK20 19184 99229 50431 46/// ///// 10288 20209 30084 40091 57013 91750
BBXX 62141 19183 99493 50591 41998 03627 10142 20129 40031 57013 70100 80000 22200 20603 335// 40602 5//// 80135
BBXX UDWE 19181 99503 11562 42498 83309 11020 49998 54000 70222 87200 22213 00032 20302
BBXX UFML 19181 99458 11404 41/96 /3510 11050 40143 54000 77127 22263 00070 20503
BBXX A8MV6 19183 99150 10720 41957 30706 10270 20210 40110 54000 70000 80002 22273 04280 20502 30999 40402 5//// 80230
BBXX DGSE 19183 99153 10978 41698 39903 10295 20218 40136 58004 70000 82141 22235 00290 20000 315// 40702 80240
BBXX MIBR 19184 99315 11332 41597 33220 10120 20056 40249 54000 70200 832// 22254 00211 20301 3//// 4//// 5//// 80090
BBXX ZQCP3 19183 99060 10900 41698 40720 10270 20252 40091 50000 71311 844// 22263 00290 2//// 304// 40503 5//// 80257
BBXX ZDLS1 19184 99558 30030 41394 82734 10014 21012 49656 54000 72677 885// 22243 04012 20406 32530 40712 50510 80005
BBXX AMOUK15 19184 99079 50144 46/// ///// 10251 20171 30102 40134 57006 91750
BBXX 44043 19181 99392 70764 46/// /2007 1//// 40200 91810 333 91209
BBXX 44043 19181 99392 70764 46/// /1907 10064 40200 58041 91800 22200 00071 10201 70005 333 91208
BBXX 44042 19181 99380 70763 46/// /2406 10092 40219 58038 91800 22200 00085 10301 70006 333 91207
BBXX 44043 19181 99392 70764 46/// /2006 1//// 91820 333 91207
BBXX 44042 19181 99380 70763 46/// /2407 1//// 40217 91810 333 91209
BBXX 44042 19181 99380 70763 46/// /2406 1//// 91820 333 91208
BBXX 44041 19181 99372 70768 46/// /2505 10102 40256 58036 91800 22200 00091 1//00 70001 333 91207
BBXX 44063 19181 99390 70764 46/// /2206 1//// 91820 333 91207
BBXX 44041 19181 99372 70768 46/// /2505 1//// 40255 91810 333 91208
BBXX 44062 19181 99386 70764 46/// /2105 1//// 40194 91810 22200 00083 333 91206
BBXX 44041 19181 99372 70768 46/// /2506 1//// 91820 333 91209
BBXX 44062 19181 99386 70764 46/// /2205 10075 40194 58046 91800 22200 00083 10301 70004 333 91207
BBXX 44062 19181 99386 70764 46/// /2106 1//// 91820 22200 00083 333 91207
BBXX 44063 19181 99390 70764 46/// /2206 1//// 40220 91810 333 91208
BBXX 44063 19181 99390 70764 46/// /2107 10065 40218 58042 91800 22200 00076 10201 70003 333 91208
BBXX PBHZ 19183 99290 70745 41597 40310 10194 20095 40244 58021 70211 84100 22223 04263 20301 302// 40702 80137
BBXX A8RH7 19184 99138 70569 41598 40215 10263 20209 40132 57020 70200 81168 22234 00287 2//02 306// 40503 5//// 80225
BBXX ZCDM6 19183 99179 70743 41598 21123 10270 20243 40148 58030 70100 82145 22235 00280 20504 308// 40504 5//// 80250
BBXX 46205 19181 99542 71343 46/// /2214 10087 49996 57027 22200 00078 11108 70040 333 91216
BBXX 46132 19181 99497 71279 46/// /1511 10088 40256 57017 22200 00090 11406 70028 333 91213
BBXX 46206 19181 99488 71260 46/// /1604 10082 40303 57008 22200 00089 11204 70020 333 91206
BBXX 46208 19181 99525 71327 46/// /2213 10093 40078 5//// 22200 00076 11009 70044 333 91216
BBXX WDE9586 19183 99388 71509 43698 71923 10170 2014/ 40240 54000 7//// 87/7/ 22214 00180 20904 326// 41406 5//// 6//// 80150 ICE /////
BBXX 3EIZ7 19184 99448 70557 41/95 /3625 10020 2103/ 40050 51020 745// 8//// 22265 0//// 2//// 3//// 4//// 5//// 6//// 80000 ICE /////
BBXX 46185 19181 99524 71298 46/// /2012 10088 40124 57019 22200 00076 10909 70043 333 91214
BBXX A8IP2 19183 99170 70841 41398 60419 10255 20234 40150 58017 70311 85768 22264 2//// 305// 40502 5//// 80240
BBXX 46087 19181 99485 71247 46/// /2601 10085 20064 40311 91820 22200 00077 333 91202 555 11015 22017 31734 41704 61819 262012 225011 186017 183021 186028 185028
BBXX 46088 19181 99483 71232 46/// /1702 10071 40306 91820 22200 00079 1//00 70001 333 91203 555 11023 22023 31754 42003 61819 165022 180022 195024 206021 204020 189022
BBXX 44022 19181 99409 70737 46/// ///09 10065 21013 40187 91815 22200 00082 333 91212 555 11103 22108
BBXX 44030 19181 99432 70704 46/// /2212 1//// 40132 58058 91804 22200 00082 10504 70020 333 91215 555 11155 22165
BBXX 44033 19181 99441 70690 46/30 /2113 10041 40130 58060 91804 22200 00071 10402 70011 333 91215 555 11158 22168
BBXX 44060 19181 99413 70721 46/// ///10 10062 40184 91815 22200 00103 333 91211 555 11103 22108
BBXX 44029 19181 99425 70706 46/30 /2111 10046 40148 58053 91804 22200 00089 11104 70019 333 91214 555 11140 22148
BBXX 44040 19181 99410 70736 46/// /2510 10067 21009 40191 91815 22200 10301 70007 333 91212 555 11118 22134
BBXX 44034 19181 99441 70681 46/30 /2112 10035 40144 58055 91804 22200 00086 10503 70016 333 91214 555 11149 22158
BBXX 44039 19181 99411 70727 46/// /2106 10066 20000 40188 91815 22200 00095 10502 70010 333 91214
BBXX WKAU 19184 99368 70749 41498 22215 10110 2005/ 40235 54000 70200 821// 22244 00150 20302
BBXX WC5932 19184 99436 70877 43/// /3313 00/// 10103 20022 40176 58003 7//// 8//// 22243 0//// 2//// 3//// 4//// 5//// 6//// 80066 ICE /////
BBXX WZP8164 19184 99458 70856 43/// /3327 10000 2//// 40146 5//// 7//// 8//// 222// 0//// 2//03 3//// 4//// 5//// 6//// 8//// ICE /////
BBXX 46036 19181 99484 71339 46/// /2212 10099 40219 52006 22200 00085 11208 70041 333 91215
BBXX 44258 19181 99445 70634 46/// /2401 11016 40173 57032 22200 00065 10903 70015 333 91202
BBXX 44039 19181 99411 70727 46/// /2106 10066 20000 40188 91753 22200 00095 10502 70010 333 91214
BBXX 44099 19181 99369 70757 46/// ///// 1//// 91822 22200 00120 11002 21002 309// 41101 70011
BBXX 41024 19181 99338 70785 46/// /1303 10138 40269 91800
BBXX 42013 19181 99272 70829 46/// ///// 1//// 40230 91740 22200 00197
BBXX 41112 19181 99307 70813 46/// ///// 1//// 91821 22200 00163 10502 20502 70010
BBXX 41113 19181 99284 70805 46/// ///// 1//// 91821 22200 00211 10502 20502 70010
BBXX 41009 19181 99285 70802 46/// /1207 10211 20126 40247 91820 22200 00250 10803 20602 300// 40802 70016 333 91209 555 11072 22075
BBXX 44100 19181 99363 70756 46/// ///// 1//// 91822 22200 00122 11002 21002 308// 41101 70010
BBXX 42364 19181 99291 70881 46/// /1608 10200 20111 40214 91830
BBXX 41110 19181 99341 70777 46/// ///// 1//// 91821 22200 00142 11001 21001 310// 41101 70007
BBXX 42362 19181 99278 70907 46/// /1409 10250 20111 40190 91830
BBXX 42361 19181 99276 70925 46/// ///11 10222 20133 40169 58021 91830 555 11086 22092
BBXX 41010 19181 99289 70785 46/// /1106 10192 40254 91820 22200 00237 10704 20602 300// 40703 70018 333 91208 555 11067 22069
BBXX 42099 19181 99273 70842 46/// ///// 1//// 91827 22200 00232 10604 20604 70018
BBXX 42363 19181 99282 70892 46/// /1408 10206 20083 40207 91830 333 91208
BBXX 46236 19181 99368 71219 46/// ///// 1//// 91820 22200 00125 11505 20903 328// 41504 70025
BBXX 46213 19181 99403 71247 46/// ///// 1//// 91824 22200 00105 10908 20907 329// 41305 70042
BBXX 46225 19181 99329 71174 46/// ///// 1//// 91814 22200 00145 11502 20702 327// 41502 70011
BBXX 46229 19181 99438 71246 46/// ///// 1//// 91821 22200 00101 11406 21003 329// 41405 70028
BBXX 46215 19181 99352 71209 46/// ///// 1//// 91808 22200 00130 11504 20602 326// 41503 70018
BBXX 46246 19181 99500 71451 46/// ///// 1//// 91829 22200 00073 11418 21009 327// 41416 70092
BBXX 46146 19181 99493 71237 46/// /1205 10062 40305 57005 22200 00066 10200 70002 333 91206
BBXX 46247 19181 99378 71228 46/// ///// 1//// 91821 22200 00112 11506 21004 328// 41504 70031
BBXX 46232 19181 99325 71174 46/// ///// 1//// 91808 22200 00152 11403 20702 329// 41402 70015
BBXX 46246 19181 99500 71451 46/// ///// 1//// 91759 22200 00074 11318 21010 326// 41314 70090
BBXX 46004 19181 99509 71361 46/// /2314 10093 40105 52012 22200 00075 11412 70058 333 91218
BBXX ELQQ4 19184 99394 70495 41797 42224 10200 2019/ 49940 56060 7//64 8/4// 22264 00180 20606 321// 4//// 5//// 6//// 80190 ICE /////
BBXX WDB9949 19184 99491 71453 41696 72640 10070 2003/ 40120 52200 70121 87270 22272 00050 20312 3//// 41214 5//// 6//// 80050 ICE /////
BBXX 46184 19181 99539 71389 46/// /2214 10077 49946 57022 22200 00065 11510 70051 333 91218
BBXX 46181 19181 99538 71288 46/// /1402 10004 40132 5//// 22200 00042 10200 70001 333 91203
BBXX 44059 19181 99368 70763 46/// /2405 1//// 40230 91810 333 91208
BBXX 44057 19181 99395 70761 46/// /2306 1//// 91820 333 91207
BBXX 44059 19181 99368 70763 46/// /2305 10107 40232 58037 91800 22200 00098 333 91207
BBXX 44058 19181 99376 70763 46/// /2307 1//// 91820 333 91208
BBXX 44058 19181 99376 70763 46/// /2206 10090 40227 58034 91800 22200 00087 10301 70005 333 91209
BBXX 44058 19181 99376 70763 46/// /2307 1//// 40224 91810 333 91209
BBXX 44057 19181 99395 70761 46/// /2306 1//// 40202 91810 333 91207
BBXX 44057 19181 99395 70761 46/// /2306 10056 40203 56040 91800 22200 00051 333 91207
BBXX 44059 19181 99368 70763 46/// /2404 1//// 91820 333 91207
BBXX 9HA2479 19184 99318 31543 46/// /0131 10221 20188 30062 40091 57001 22214 04225 85199
BBXX VREN5 19183 99353 31724 41598 51605 10170 20135 40172 53/// 70211 8/460 22283 21002 80150
BBXX ZCBU6 19184 99387 31785 41298 81725 10150 20113 40112 52028 78082 887// 22254 00172 20403 318// 40604 5//// 80130
BBXX C6FS9 19184 99274 31531 46/// /2702 10214 20165 30091 40127 57004 22200 04240 85182
BBXX VROB 19184 99353 31509 46/// /1924 10192 20150 30067 40092 52011 22253 04196 85166
BBXX 41036 19181 99342 70770 46/// ///// 10124 20033 40266 91820 22200 00166
BBXX A8DH2 19183 99367 10007 41498 32508 10151 20026 10266 53005 70211 83578 22224 04174 20102 80095
BBXX MINUK01 1918/ 99571 70021 46/// ///// 10030 40000 57012
BBXX MINUK05 1918/ 99607 70029 46/// ///// 10058 49972 57030
BBXX WRAH 19183 99351 70124 41598 30519 10160 2//// 40254 53012 70300 831// 22264 00195 20303 302// 40606 5//// 6//// 8//// ICE /////
BBXX CFO383 19184 99439 70602 47598 /3322 11010 2107/ 40145 5//// 700// 8//// 22200 00076 10704 2//// 70020 81031 333 91029
BBXX KS089 19184 99539 10087 43/// /1827 10020 22273
BBXX KS044 19184 99304 31625 43/// /1110 10201 40154 22233 06220
BBXX KS088 19184 99267 70801 43/// /0702 10218 40235 22200 06226
BBXX KS094 19184 99120 70617 43/// /0813 10277 40130 22200 06275
BBXX CFO383 19184 99439 70602 47598 /3322 11010 2107/ 40145 5//// 700// 8//// 22200 00076 10704 2//// 70020 81031 333 91029
AAXX 19181 01293 11340 80000 11048 21054 39760 49971 54000 60032 74172 887// 333 11048 91102
AAXX 19184 91723 NIL
AAXX 19184 91964 36/// /0410 10228 20221 40219 52008
AAXX 19181 01473 11985 02701 11045 21056 39793 40005 53012 60002 70200 333 10039 91110
AAXX 1918/ 89828 46/// ///// 11339 36511 4//// 5//// 91810
AAXX 1918/ 89108 46/// ///// 11225 36933 4//// 5//// 91810
AAXX 1918/ 89108 46/// ///// 11216 36933 4//// 5//// 91820
AAXX 1918/ 89872 46/// ///// 11084 39844 4//// 5//// 91820
AAXX 1918/ 89799 46/// ///// 11235 4//// 5//// 91810
AAXX 1918/ 89332 46/// ///// 11060 39098 4//// 5//// 91820
AAXX 1918/ 89314 46/// ///// 11143 38192 4//// 5//// 91820
BBXX 44137 19181 99423 70620 46/// /3510 10022 40171 57006 22200 00102 11109 70044 333 91213
BBXX 44137 19181 99423 70620 46/// /3510 10022 40171 57006 22200 00102 11109 70044 333 91213
AAXX 19181 40001 32970 00106 10054 20010 40268 58003 333 10146
AAXX 19181 31152 42997 31801 11367 21394 39805 40265 54000 80002
AAXX 19181 31163 NIL
AAXX 19181 31285 42999 00000 11291 21328 30152 40241 53002
AAXX 19181 31561 42998 02501 11280 21298 30210 40241 53002
AAXX 19181 31683 42999 80000 11202 21214 30130 40210 52003 8803/
AAXX 19181 32010 42498 62904 11185 21211 30116 40168 53003 82902 333 91006 91108
AAXX 19184 71490 16/// /1511 11254 21276 39647 49982 56032 60001 333 21344 7////
AAXX 19184 71963 16/// /1309 11179 21194 39505 49914 56036 60001 333 11178 7////
AAXX 19184 71592 16/// /0610 11209 21261 39889 49902 50008 60001 333 11191 21247 70000
AAXX 19184 71923 16/// ///11 11163 21176 39512 49965 56053 60001 333 11161 21273 7////
AAXX 19184 71049 46/// /3017 11311 39952 49976 58010 6///1 333 11236 21311 7////
AAXX 19184 71277 46/// /2013 10018 21030 6///1 333 10018 21097 7////
AAXX 19184 71049 46/// /3017 11311 39952 49976 58010 6///1 333 11236 21311 7////
AAXX 19184 71490 16/// /1511 11254 21276 39647 49982 56032 60001 333 21344 7////
AAXX 19184 71923 16/// ///11 11163 21176 39512 49965 56053 60001 333 11161 21273 7////
AAXX 19184 71592 16/// /0610 11209 21261 39889 49902 50008 60001 333 11191 21247 70000
AAXX 19184 71963 16/// /1309 11179 21194 39505 49914 56036 60001 333 11178 7////
AAXX 19184 71277 46/// /2013 10018 21030 6///1 333 10018 21097 7////
BBXX 44138 19181 99443 70536 46/// /0116 10033 40011 57012 22200 00096 11111 70054 333 91220
BBXX 44138 19181 99443 70536 46/// /0116 10033 40011 57012 22200 00096 11111 70054 333 91220
BBXX 46004 19181 99509 71361 46/// /2314 10093 40105 52012 22200 00075 11412 70058 333 91218
BBXX 46036 19181 99484 71339 46/// /2212 10099 40219 52006 22200 00085 11208 70041 333 91215
BBXX 46181 19181 99538 71288 46/// /1402 10004 40132 5//// 22200 00042 10200 70001 333 91203
BBXX 46183 19181 99536 71311 46/// /1809 10090 40067 57017 22200 00081 10805 70024 333 91211
BBXX 46185 19181 99524 71298 46/// /2012 10088 40124 57019 22200 00076 10909 70043 333 91214
BBXX 46204 19181 99514 71288 46/// /1216 10079 40179 57018 22200 00085 10810 70048 333 91221
BBXX 46205 19181 99542 71343 46/// /2214 10087 49996 57027 22200 00078 11108 70040 333 91216
BBXX 46206 19181 99488 71260 46/// /1604 10082 40303 57008 22200 00089 11204 70020 333 91206
BBXX 46208 19181 99525 71327 46/// /2213 10093 40078 5//// 22200 00076 11009 70044 333 91216
BBXX WDB9949 19184 99491 71453 41696 72640 10070 20030 40120 52200 70121 87270 22272 00050 20312 3//// 41214 5//// 6//// 80050 ICE /////
BBXX WDJK 19184 99386 71244 41698 13528 10105 20086 40220 54000 70200 81030 22233 00110 20503 330// 41209 5//// 6//// 80095 ICE /////
AAXX 19184 42706 31995 00000 10148 20102 40163 70500 333 58003
AAXX 19184 42895 31996 00000 10140 20102 40155 70500 333 59007
AAXX 19184 89610 46/// /0443 11019 39304 4//// 5//// 333 90700 91151
AAXX 19150 44214 32998 03601 11226 21286 38400 40599 52006
AAXX 19150 44231 329// 00000 11247 21301 38800 40523 58003 70400
AAXX 19150 44259 32997 02505 11220 21270 39335 40328 56011
AAXX 19150 44277 329// 00000 11241 21273 37871 40610 52007 333 91108
AAXX 19150 44288 32999 03003 11142 21287 38192 40403 57006
AAXX 19150 44292 32999 00000 11280 21304 38748 40470 58008
AAXX 19150 44304 329// 00000 11294 21317 39022 40398 57014
AAXX 19150 44354 329// 00000 11276 21299 39166 40433 56006
AAXX 19150 44373 32999 02302 11184 21232 38593 40425 58007
AAXX 19181 98134 31460 80407 10216 20191 39966 40158 5//// 70544 8427/ 333 56199 84819 88357
AAXX 19181 98223 32562 20206 10235 20217 40102 58016 82800 333 56999 82620
AAXX 19181 98232 11565 80406 10232 20215 40135 54000 60081 71588 8557/ 333 56199 85618 88358
AAXX 19181 98325 32458 30202 10250 20222 40089 58019 81230 333 56999 81817
AAXX 19181 98328 31460 61403 10170 20155 38509 40084 58011 70544 81238 333 56999 81813 85278
AAXX 19181 98330 32475 50401 10254 20217 30073 40105 58012 85200 333 56999 85818
AAXX 19181 98336 11462 80405 10238 20236 30114 40119 57012 60291 76166 8352/ 333 56199 83615 88456
AAXX 19181 98429 31560 70000 10261 20240 40099 58012 70544 83830 333 56999 83823 85360
AAXX 19181 98430 31558 63602 10237 20236 40096 58013 70541 82814 333 56999 82820 84080
AAXX 19181 98431 31458 60901 10256 20243 30045 40092 56005 70122 82250 333 56999 82818 86359
AAXX 19181 98440 11450 80903 10262 20246 30089 40094 57019 69901 72544 8427/ 333 56299 84815 88358
AAXX 19181 98444 11462 30000 10260 20249 30061 40080 58023 60011 72582 82202 333 56999 82818
AAXX 19181 98526 32570 80000 10260 20247 40085 58021 81107 333 56299 81820 88274
AAXX 19181 98531 31568 31101 10250 20236 30077 40081 58017 70544 82230 333 56399 82820
AAXX 19181 98536 32465 70403 10254 20231 39888 40085 58018 83270 333 56199 83818 85357
AAXX 19181 98543 32468 60000 10261 20246 30078 40089 58014 82201 333 56999 82818 85075
AAXX 19181 98550 11460 50000 10247 20238 40074 57023 69981 70181 81262 333 56999 81818 83357
AAXX 19181 98618 32570 52701 10258 20240 40086 58011 82208 333 56999 82820 85274
AAXX 19181 98630 NIL
AAXX 19181 98637 NIL
AAXX 19181 98646 11560 83601 10256 20248 30072 40100 57015 60031 72582 8287/ 333 56999 82820 88459
AAXX 19181 98653 11465 51801 10258 20245 30022 40067 57010 60021 70584 82270 333 56999 82818 83358
AAXX 19181 98741 NIL
AAXX 19181 98747 NIL
AAXX 19181 98753 31468 13602 10256 20238 40068 58025 70544 81201 333 56999 81816
AAXX 19181 98755 11575 82701 10252 20233 40071 58013 69961 70382 8227/ 333 56999 82820 88359
AAXX 19181 98836 11458 80000 10257 20248 40079 58019 60051 76098 8257/ 333 56999 82618 88460
AAXX 19184 94290 46/// /1217 10268 30057 40066 55001 91824
AAXX 19184 94997 46/// ///// 10059 39956 49971 5////
AAXX 19184 89610 46/// /0443 11019 39304 4//// 5//// 333 90700 91151
AAXX 19184 89807 46/// /2051 10003 29089 39506 4//// 5//// 333 90700 91159
AAXX 19184 94210 35/// /2705 10282 30038 40043 57007
AAXX 19184 94289 46/// /1314 10273 30053 40060 55000 91815
AAXX 19184 94379 46/// /1201 10252 30081 40090 53004 91826
AAXX 19184 94290 46/// /1217 10268 30057 40066 55001 91824
AAXX 19184 94997 46/// ///// 10059 39956 49971 5////
AAXX 19184 89610 46/// /0443 11019 39304 4//// 5//// 333 90700 91151
AAXX 19184 89807 46/// /2051 10003 29089 39506 4//// 5//// 333 90700 91159
BBXX 41033 19181 99323 70804 46/// /0303 10148 40266 58018 91800 555 11036 22042
BBXX 44040 19181 99410 70736 46/// /2510 10067 21009 40191 91819 22200 10301 70007 333 91212 555 11118 22134
BBXX SHIP 19184 99311 11582 41497 62232 10190 20185 40102 51009 72103 8//// 91750 22264 00220 2//// 3//// 4//// 5//// 80180
BBXX 7JJA 19184 99359 11415 41798 23412 00 10080 20013 40175 57010 70200 823// 9//// 22200 0 2//01 334 4//02 5 6//// 80050 ICE /////
BBXX 44056 19181 99362 70757 46/// ///// 1//// 91750 22200 00107 11102 20902 308// 41101 70009
AAXX 19181 55228 32780 12504 11074 21320 35984 57005 81100 333 05401 11008
AAXX 19181 55578 32980 01102 11029 21233 36367 52008 333 00258 10116
AAXX 19181 55664 32980 00000 11078 21274 36011 57003 333 00055 10073
AAXX 19181 55773 32970 00401 11077 21219 36020 52001 333 00002 10056
AAXX 19181 56116 32980 00000 11103 21183 36356 52002 333 00351 10044
AAXX 19181 56137 32980 00000 11060 21200 36817 52008 333 00301 10117
AAXX 19181 56172 32980 00000 11035 21066 37356 52010 333 00001 10105
AAXX 19181 56247 32980 01401 11003 21154 37451 52014 333 00200 10147
AAXX 19181 56312 32980 00000 11039 21075 37107 52007 333 00156 10113
AAXX 19181 56462 32980 03201 11040 21094 37146 52007 333 00000 10133
AAXX 19181 56651 32980 02506 10068 21072 37637 52002 333 05100 10151
AAXX 19181 56691 11361 83602 11009 21015 37786 52005 69901 76660 887// 333 00052 10106 93427
AAXX 19181 56985 32962 00902 10103 20064 38724 40172 57001 333 05201 10166
AAXX 19181 57633 11458 80000 10038 20022 39479 40281 57001 69931 76066 885// 333 05201 10061
AAXX 19181 57902 11450 80402 10079 20079 38650 40209 52003 69901 76000 887// 333 05202 10120
AAXX 19181 55279 32980 00000 11149 21310 35696 57011 333 00254 11020
AAXX 19181 55472 32980 00000 11130 21298 35734 54000 333 00155 10000
AAXX 19181 55696 32980 01102 11060 21099 36353 52009 333 00200 10128
AAXX 19181 56079 32980 00401 11098 21120 36671 57002 333 05103 10024
AAXX 19181 56106 32980 00000 11109 21280 36225 54000 333 00352 10041
AAXX 19181 56257 32980 00000 11088 21194 36289 52002 333 00252 10071
AAXX 19181 56374 32580 82001 11029 21065 37436 52002 884// 333 00002 10026
AAXX 19181 56385 31/00 90000 11067 21068 37010 57001 74944 333 00000 11036
AAXX 19181 56954 32962 00000 10103 20101 40173 52002 333 05152 10233
AAXX 19181 56966 32765 51105 10167 20099 40160 52008 85400 333 05301 10260
AAXX 19181 57237 11958 80000 10055 20028 40268 52005 69901 76060 8807/ 333 10094
AAXX 19181 57306 31956 80000 10069 20057 40268 57007 71000 8807/ 333 10094
AAXX 19181 57604 11720 82701 10066 20057 40278 52002 69901 76060 885// 333 10078
AAXX 19181 57707 11457 80901 10014 20010 38535 52003 69911 76060 887// 333 00051 10028
AAXX 19181 57832 32664 80701 10051 21005 39510 40267 57001 885// 333 05202 10062
AAXX 19184 63932 12580 60000 10173 20172 38317 48509 60052 82970 333 58003 82620 81921 86358
AAXX 19150 44203 329// 00000 11376 21399 38495 40656 58003
AAXX 19150 44207 329// 72304 11207 21247 38344 40410 58010 80008
AAXX 19150 44212 32999 01802 11331 21360 39352 40671 52010
AAXX 19150 44213 32999 00000 11361 21397 38952 40692 52002
AAXX 19150 44215 32998 00000 11316 21338 38537 40648 52002
AAXX 19150 44218 329// 01803 11281 21311 38748 40611 52005
AAXX 19150 44225 319// 00000 11403 21420 38376 40736 54000 77677
AAXX 19150 44230 329// 00103 11264 21296 38853 40507 57008
AAXX 19150 44232 329// 00000 11358 21400 39189 40512 57009
AAXX 19150 44237 32999 02701 11265 21304 38534 40466 58003
AAXX 19150 44239 329// 00000 11267 21300 38835 40420 56009
AAXX 19150 44241 329// 01402 11320 21343 39331 40449 57008
AAXX 19150 44256 32999 00000 11233 21258 39365 40298 58012
AAXX 19150 44265 329// 00000 11266 21290 38970 40551 52012
AAXX 19150 44272 329// 00000 11325 21361 38326 40628 52008
AAXX 19150 44275 32998 00000 11330 21341 37711 40623 51004
AAXX 19150 44282 32999 03202 11179 21282 38341 40425 54000
AAXX 19150 44284 32999 00000 11326 21360 37907 40675 52007
AAXX 19150 44285 32999 00000 11277 21304 38357 40513 56006
AAXX 19150 44287 32999 00204 11235 21292 38169 40534 58004
AAXX 19150 44294 329// 03501 11267 21289 38589 40470 57009
AAXX 19150 44298 329// 03605 11235 21241 38746 40409 57011
AAXX 19150 44302 329// 02708 11236 21275 39141 40371 58022
AAXX 19150 44305 32999 02904 11263 21292 39089 40377 56010
AAXX 19150 44313 32999 01805 11234 21274 39437 40364 57008
AAXX 19150 44314 32998 02703 11207 21247 39171 40356 57009
AAXX 19150 44317 32998 02301 11178 21228 38974 40340 57012
AAXX 19150 44336 329// 02802 11226 21262 38749 40473 56002
AAXX 19150 44341 329// 01101 11284 21313 38644 40499 56008
AAXX 19150 44347 32999 00000 11224 21256 38777 40448 54000
AAXX 19150 44352 32999 00000 11214 21247 38958 40376 56006
AAXX 19150 44358 329// 00000 11271 21288 39159 40453 57005
AAXX 19181 23986 41598 80000 11220 21239 39632 40322 52012 78582 8431/
AAXX 1918/ 48969 NIL
AAXX 1918/ 48962 NIL
AAXX 1918/ 48990 NIL
AAXX 1918/ 48986 NIL
AAXX 1918/ 48995 NIL
AAXX 1918/ 48967 NIL
AAXX 1918/ 48992 NIL
AAXX 1918/ 48965 NIL
AAXX 1918/ 48985 NIL
AAXX 1918/ 48970 NIL
AAXX 1918/ 48991 NIL
AAXX 1918/ 48964 NIL
AAXX 1918/ 48997 NIL
AAXX 1918/ 48968 NIL
AAXX 1918/ 48973 NIL
AAXX 1918/ 48966 NIL
AAXX 1918/ 48983 NIL
AAXX 1918/ 48972 NIL
AAXX 1918/ 48998 NIL
AAXX 1918/ 48993 NIL
AAXX 1918/ 48971 NIL
AAXX 1918/ 48963 NIL
AAXX 1918/ 48987 NIL
AAXX 19184 71406 16/// /2809 11078 21108 30136 40146 56023 60001 333 11065 21105 70000
AAXX 19184 71418 46/// /0105 11034 21082 30111 40144 56022 6///1 333 11023 21044 7////
AAXX 19184 71048 16/// /1906 11057 21067 60001 333 11057 21141 70000
AAXX 19184 71354 16/// /2209 11047 21085 60001 333 11047 21134 70000
AAXX 19184 71981 16/// /2608 10028 21059 60001 333 10028 21096 70000
AAXX 19184 71982 16/// /2803 11033 21074 60001 333 11033 21114 70000
AAXX 19184 71986 16/// /1911 11042 21051 60001 333 11042 21156 70000
AAXX 19184 71990 17/// /2414 11073 21083 38368 49954 51014 69991 7//4/ 333 21130 7////
AAXX 19184 71824 46/// /2905 11039 21048 6///1 333 11035 21124 7////
AAXX 19184 71406 16/// /2809 11078 21108 30136 40146 56023 60001 333 11065 21105 70000
AAXX 19184 71418 46/// /0105 11034 21082 30111 40144 56022 6///1 333 11023 21044 7////
AAXX 19184 71048 16/// /1906 11057 21067 60001 333 11057 21141 70000
AAXX 19184 71824 46/// /2905 11039 21048 6///1 333 11035 21124 7////
AAXX 19184 71981 16/// /2608 10028 21059 60001 333 10028 21096 70000
AAXX 19184 71982 16/// /2803 11033 21074 60001 333 11033 21114 70000
AAXX 19184 71986 16/// /1911 11042 21051 60001 333 11042 21156 70000
AAXX 19184 71990 17/// /2414 11073 21083 38368 49954 51014 69991 7//4/ 333 21130 7////
AAXX 19184 71354 16/// /2209 11047 21085 60001 333 11047 21134 70000
AAXX 19184 89628 46/// /3134 4//// 5////
BBXX 42360 19181 99267 70905 46/// /1606 10227 91800 22200 00242 10602 70010 333 91208
AAXX 19184 89657 46/// /0702 11002 20181 49948 51010
AAXX 19184 83811 32497 43202 10300 20115 39191 40080 58010 84100
AAXX 19184 83844 32597 336// 10290 20220 30070 40077 56009 81140
AAXX 19184 83887 32597 32706 10260 20089 39054 40086 57009 83200
AAXX 19184 83907 32497 42307 10358 20127 30979 40062 56017 82230
AAXX 19184 83914 31596 32710 10298 20088 39310 40061 57010 70510 83100
AAXX 19184 83919 31496 62710 10244 20088 38925 40089 54000 70521 86200
AAXX 19184 83927 32997 00000 10366 20212 39966 40036 57010
AAXX 19184 83936 32997 02706 10340 20124 39943 40061 58008
AAXX 19184 83948 32597 60904 10246 20215 30048 40054 55002 83370
AAXX 19184 83964 32597 22302 10295 20121 39576 40052 57002 82100
AAXX 19184 83995 32497 22308 10270 20163 30058 40061 54000 82100
AAXX 19184 82899 32570 40809 10296 20213 30102 40114 84200 333 59002
BBXX VREX7 19183 99240 70868 41497 12615 10270 20241 40200 50000 70222 8/240 22264 20403 308// 406// 5//// 80250
AAXX 19184 83384 21496 80000 10224 20206 39536 40116 76386 8789/ 333 58021 60441
AAXX 19184 83386 32598 60507 10302 20204 39549 40069 81396 333 58000
AAXX 19184 83388 32497 50905 10320 20186 39410 40063 83204 333 58015
AAXX 19184 83393 32599 20503 10306 20151 39383 40091 81102 333 59007
AAXX 19184 83442 32597 60000 10322 20201 39727 40070 81156 333 59005
AAXX 19184 83479 21598 83610 10202 20199 39316 40113 78185 889// 333 58016 60151
AAXX 19184 83483 21596 83202 10262 20227 39530 40089 71662 8571/ 333 58003 60051
AAXX 19184 83531 21597 82304 10242 20201 39066 40088 70162 887// 333 59004 60021
AAXX 19184 83538 32597 83602 10183 20172 38708 40093 887// 333 58020
AAXX 19184 83574 32794 80902 10312 20222 39551 40149 5//// 88700
AAXX 19184 83582 21596 80503 10226 20207 39336 40099 57002 76362 88700 333 60191
AAXX 19184 83595 32597 62302 10320 20218 30023 40107 85250 333 58004
AAXX 19184 83692 21698 83606 10214 20195 39066 40092 58005 72162 887// 333 60021
AAXX 19184 03008 12582 71515 10051 21005 49977 60002 875// 91750 333 10052 41998 87625
AAXX 19184 83437 32599 53604 10289 20183 39372 40076 82360 333 59002
AAXX 19184 83579 21599 71402 10228 20194 38984 40089 70362 87800 333 58012 60011
AAXX 19184 83592 32597 80901 10252 20201 39440 40114 885// 333 58001
BBXX 41053 19181 99185 70661 46/// /0406 10264 40156 91830 333 91208
BBXX 41053 19181 99185 70661 46/// /0306 10263 40158 91820 333 91208
BBXX 41053 19181 99185 70661 46/// /0406 10264 40158 91810 333 91207
BBXX 41052 19181 99183 70648 46/// /0406 10270 40147 91830 333 91208
BBXX 41052 19181 99183 70648 46/// /0607 10269 40148 91820 333 91208
BBXX 41052 19181 99183 70648 46/// /0606 10269 40150 91810 333 91207
BBXX 42085 19181 99179 70665 46/// /0606 10281 40144 91830 333 91207
BBXX 42085 19181 99179 70665 46/// /0506 10281 40145 91820 333 91208
BBXX 42085 19181 99179 70665 46/// /0606 10281 40146 91810 333 91209
AAXX 19184 83270 32797 60000 10276 20225 39639 40120 82280 333 58011
AAXX 19184 83309 31595 60000 10299 20255 39760 40079 70511 863// 333 59019
AAXX 19184 83319 31697 70000 10296 20246 39749 40118 71732 84990 333 58000
AAXX 19184 83405 32597 3//// 10346 20216 39930 40063 83200 333 58010
BBXX C6FY5 19183 99175 70630 41/// /0218 10270 2024/ 40150 5/020 7//// 8//// 222// 00240 21002 33603 41502 52002 6//// 80250 ICE /////
BBXX SHIP 19184 99311 11582 41497 62232 10190 20185 40102 51009 72103 8//// 91750 22264 00220 2//// 3//// 4//// 5//// 80180
BBXX 7JJA 19184 99359 11415 41798 23412 00 10080 20013 40175 57010 70200 823// 9//// 22200 0 2//01 334 4//02 5 6//// 80050 ICE /////
BBXX KS044 19184 99304 31625 43/// /1110 10201 40154 22233 06220
BBXX 42360 19181 99267 70905 46/// /1606 10227 91800 22200 00242 10602 70010 333 91208
BBXX 44056 19181 99362 70757 46/// ///// 1//// 91750 22200 00107 11102 20902 308// 41101 70009
BBXX 44040 19181 99410 70736 46/// /2510 10067 21009 40191 91819 22200 10301 70007 333 91212 555 11118 22134
BBXX 41033 19181 99323 70804 46/// /0303 10148 40266 58018 91800 555 11036 22042
BBXX 44138 19181 99443 70536 46/// /0116 10033 40011 57012 22200 00096 11111 70054 333 91220
BBXX C6FY5 19183 99175 70630 41/// /0218 10270 2024/ 40150 5/020 7//// 8//// 222// 00240 21002 33603 41502 52002 6//// 80250 ICE /////
BBXX 44137 19181 99423 70620 46/// /3510 10022 40171 57006 22200 00102 11109 70044 333 91213
BBXX KS088 19184 99267 70801 43/// /0702 10218 40235 22200 06226
BBXX KS094 19184 99120 70617 43/// /0813 10277 40130 22200 06275
BBXX CFO383 19184 99439 70602 47598 /3322 11010 2107/ 40145 5//// 700// 8//// 22200 00076 10704 2//// 70020 81031 333 91029
BBXX 46238 19181 99334 71195 46/// ///// 1//// 91820 22200 00144 11304 21002 328// 41303 70019
BBXX 46239 19181 99363 71221 46/// ///// 1//// 91821 22200 00135 11407 20804 330// 41406 70035
BBXX 46224 19181 99332 71175 46/// ///// 1//// 91806 22200 00144 11302 20701 326// 41301 70009
BBXX 46211 19181 99469 71242 46/// ///// 1//// 91806 22200 00083 11405 21003 327// 41404 70023
BBXX 44022 19181 99409 70737 46/// ///09 10066 21009 40183 91830 22200 00082 333 91212 555 11098 22103
BBXX 46219 19181 99332 71199 46/// ///// 1//// 91828 22200 00136 11505 21002 329// 41504 70023
BBXX 46214 19181 99379 71235 46/// ///// 1//// 91825 22200 00117 11408 21005 330// 41406 70040
BBXX 44060 19181 99413 70721 46/// ///10 10062 40178 91830 22200 00102 333 91214 555 11113 22118
BBXX KS089 19184 99539 10087 43/// /1827 10020 22273
BBXX 62095 19184 99530 70159 46/// /2915 10102 20070 40192 52021 22200 00113 10605 70027
BBXX 62305 19184 99504 10000 46/95 /2522 10099 20095 40111 57032 22200 10602 70008
BBXX MINUK04 1918/ 99555 10083 46/// ///// 10050 4//// 52002
BBXX MINUK03 1918/ 99525 10040 46/// ///// 10060 40073 57056
AAXX 19181 47008 42970 03204 11033 21133 30233 40289 52003
AAXX 19181 47014 42950 20000 11190 21202 39887 40326 52003 80001
AAXX 19181 47016 42970 00000 11196 21229 39418 40330 58005
AAXX 19181 47020 42965 00000 11152 21165 39929 40340 52001
AAXX 19181 47025 42960 03202 11047 21153 30243 40273 52007
AAXX 19181 47035 42962 00201 11086 21115 30297 40306 54000
AAXX 19181 47041 42970 00000 11082 21134 30254 40283 54000
AAXX 19181 47055 42965 02301 11043 21107 30247 40294 53005
AAXX 19181 47058 42960 00000 11084 21103 30268 40318 54000
AAXX 19181 47069 42965 00901 11042 21097 30202 40307 58001
AAXX 19181 47003 42980 03202 11084 21160 30290 40294 52010
AAXX 19181 47005 42980 00000 11197 21209 38614 58003
AAXX 19181 47022 42975 00000 11198 21224 38869 52007
AAXX 19181 47028 42662 41802 11101 21129 30202 40303 54000 84500
AAXX 19181 47031 42970 00000 11185 21197 38972 52006
AAXX 19181 47037 42970 00000 11112 21132 30181 40313 53003
AAXX 19181 47039 42960 00000 11126 21145 30119 40325 52006
AAXX 19181 47046 42969 00000 11058 21106 30249 40273 52004
AAXX 19181 47050 42965 00000 11079 21115 30278 40314 52004
AAXX 19181 47052 42965 00000 11142 21162 39969 40336 52009
AAXX 19181 47060 42960 02703 11053 21094 30250 40312 52006
AAXX 19181 47061 42980 00000 11025 21108 30230 40275 52012
AAXX 19181 47065 42970 00902 11071 21119 30244 40313 54000
AAXX 19181 47067 42965 00000 11094 21124 30203 40331 52001
AAXX 19181 47068 42970 00000 11081 21099 30262 40299 53001
AAXX 19181 47070 42970 00000 11057 21119 30219 40312 57002
AAXX 19181 47075 42980 00000 11123 21150 39803 40266 57010
AAXX 19184 47604 11/60 73110 10028 21017 30219 40228 53003 69901 78582 872//
AAXX 19181 45032 36/// /2904 10147 20129 30192 40209 57001
AAXX 19181 45035 36/// /0203 10160 20130 30165 40207 57001
AAXX 19181 45039 36/// /0102 10164 20130 30189 40205 57001
AAXX 19181 45044 36/// /0105 10162 20128 30107 40202 57001
AAXX 19181 45032 36/// /2904 10147 20129 30192 40209 57001
AAXX 19181 45035 36/// /0203 10160 20130 30165 40207 57001
AAXX 19181 45039 36/// /0102 10164 20130 30189 40205 57001
AAXX 19181 45044 36/// /0105 10162 20128 30107 40202 57001
BBXX SHIP 19184 99311 11582 41497 62232 10190 20185 40102 51009 72103 8//// 91750 22264 00220 2//// 3//// 4//// 5//// 80180
BBXX UDWE 19181 99503 11562 42498 83309 11020 49998 54000 70222 87200 22213 00032 20302
BBXX 7JJA 19184 99359 11415 41798 23412 00 10080 20013 40175 57010 70200 823// 9//// 22200 0 2//01 334 4//02 5 6//// 80050 ICE /////
BBXX MIBR 19184 99315 11332 41597 33220 10120 20056 40249 54000 70200 832// 22254 00211 20301 3//// 4//// 5//// 80090
BBXX UFML 19181 99458 11404 41/96 /3510 11050 40143 54000 77127 22263 00070 20503
AAXX 19180 44231 329// 00000 11247 21301 38800 40523 58003 70400
AAXX 19180 44203 329// 00000 11376 21399 38495 40656 58003
AAXX 19180 44207 329// 72304 11207 21247 38344 40410 58010 80008
AAXX 19180 44230 329// 00103 11264 21296 38853 40507 57008
AAXX 19184 89646 46/// ///04 11263 29072 37673 4//// 5////
AAXX 19184 89648 46/// /2712 11281 29062 37184 4//// 5////
AAXX 19184 89659 46/// /3017 11243 29066 37708 4//// 5////
AAXX 19184 89661 46/// /2324 11084 29045 39252 4//// 5////
AAXX 19184 89662 42970 00707 11037 21096 39816 49921 52002 222 ICE 98015 333 21045
AAXX 19184 89666 46/// /1909 11070 29081 39730 4//// 5////
AAXX 19184 71013 16/// ///// 11033 21073 60001 333 11032 21131 7////
AAXX 19184 71060 16/// /2907 10008 21066 38611 40205 58015 60001 333 10008 21129 70000
AAXX 19184 71848 16/// ///// 10009 21082 60001 333 10011 21093 70000
AAXX 19184 71565 17/// /2508 11090 21099 69941 7//4/ 333 11090 21198 70017
AAXX 19184 71566 16/// /2305 11055 21073 60001 333 11054 21102 70020
AAXX 19184 71567 16/// /2112 11041 21085 60001 333 11040 21125 70000
AAXX 19184 71495 16/// /2519 10016 21081 60001 333 10016 21095 70000
AAXX 19184 71073 16/// /1905 11041 21090 60001 333 11041 21097 70000
AAXX 19184 71793 16/// ///// 11061 21072 60001 333 11061 21169 7////
AAXX 19184 71288 16/// /0407 11358 21395 39981 40007 56002 60001 333 11335 21369 70000
AAXX 19184 71399 16/// ///// 11057 21068 60001 333 11057 21141 70000
AAXX 19184 71974 46/// /1504 11368 21404 39983 40028 51006 6///1 333 11345 21382 7////
BBXX 9MBW7 19184 99333 11285 41698 73504 10170 20160 40020 51000 70203 88/// 22213 00200 2//// 80175
BBXX ZQDI9 19183 99043 11062 41598 80421 10280 20235 40077 57010 70222 8272/ 22212 00261 20603 301// 4//06 80249
BBXX DDZF2 19184 99032 11054 41396 80330 10270 20228 40080 58010 76222 85777 22214 00280 20806 80240
BBXX DDYL2 19183 99015 11030 41/98 /3210 10260 20232 40078 58003 70362 8//// 22274 00280 2//// 80240
BBXX VQOG5 19184 99048 10989 41/98 /0115 10278 20230 40087 57020 70298 8//// 22273 00277 2//// 80245
BBXX DQVN 19184 99058 10968 41/// /1111 10270 20222 40100 53010 7//11 8//// 22264 00293 2//// 80236
BBXX AUYK 19184 99155 11153 44197 70424 10260 20236 4//// 54000 70245 87700 22212 00284 29909
BBXX A8HJ8 19183 99012 11034 41/96 /3213 10259 20248 40089 54000 70266 8//// 22200 00/// 20402 80251
BBXX 3FHX2 19183 99091 11357 41/97 40923 10270 20240 40080 56015 7//// 8///4 22233 00/// 2////
BBXX TBWUK37 19183 99264 11257 41498 50523 10220 20189 40206 52010 70322 83144 22214 04250 20605 305// 41003 80200
AAXX 19184 71793 16/// ///// 11061 21072 60001 333 11061 21169 7////
AAXX 19184 71495 16/// /2519 10016 21081 60001 333 10016 21095 70000
AAXX 19184 71013 16/// ///// 11033 21073 60001 333 11032 21131 7////
AAXX 19184 71060 16/// /2907 10008 21066 38611 40205 58015 60001 333 10008 21129 70000
AAXX 19184 71848 16/// ///// 10009 21082 60001 333 10011 21093 70000
AAXX 19184 71565 17/// /2508 11090 21099 69941 7//4/ 333 11090 21198 70017
AAXX 19184 71566 16/// /2305 11055 21073 60001 333 11054 21102 70020
AAXX 19184 71567 16/// /2112 11041 21085 60001 333 11040 21125 70000
AAXX 19184 71288 16/// /0407 11358 21395 39981 40007 56002 60001 333 11335 21369 70000
AAXX 19184 71073 16/// /1905 11041 21090 60001 333 11041 21097 70000
AAXX 19184 71399 16/// ///// 11057 21068 60001 333 11057 21141 70000
AAXX 19184 71974 46/// /1504 11368 21404 39983 40028 51006 6///1 333 11345 21382 7////
BBXX WDC8583 19190 99552 71322 41/96 81440 1//// 2//// 40040 5//// 76145 8//// 222// 0//// 2//04 3//// 4//01 6////
AAXX 19184 65355 31458 70000 10279 20096 39585 40098 70522 81102 333 10335 58005 81813 87073
AAXX 19181 89063 41497 83601 10027 20011 39863 49874 52011 70272 886// 333 44122
BBXX 44024 19181 99423 70659 46/22 /2405 10020 40187 91804 22200 00086 11105 70025 333 91206 555 11053 22054
BBXX 46243 19181 99462 71241 46/// ///// 1//// 91829 22200 00084 11404 21002 326// 41403 70020
BBXX 46241 19181 99330 71173 46/// ///// 1//// 91811 22200 00142 11702 20701 326// 41701 70009
AAXX 19184 97460 32460 60000 10244 20232 30032 40046 57015 83836 333 56000 57802 82818 80857
AAXX 19184 97182 01562 70802 10268 20252 30048 40052 57021 60041 72162 84221 333 56000 57800 60037 84820 83460 808//
BBXX 44039 19181 99411 70727 46/// /2110 10068 20004 40186 91830 22200 00095 10502 70010 333 91213
BBXX 46216 19181 99343 71198 46/// ///// 1//// 91827 22200 00144 11403 20502 327// 41402 70013
BBXX 46223 19181 99335 71178 46/// ///// 1//// 91830 22200 00152 11302 20702 328// 41301 70011
BBXX 46231 19181 99327 71174 46/// ///// 1//// 91824 22200 00146 11503 20702 328// 41502 70015
BBXX 46222 19181 99336 71183 46/// ///// 1//// 91826 22200 00151 11402 20602 327// 41401 70011
BBXX 46242 19181 99332 71174 46/// ///// 1//// 91828 22200 00144 11301 20601 324// 41301 70007
BBXX 46221 19181 99339 71186 46/// ///// 1//// 91815 22200 00149 11302 20601 324// 41301 70009
AAXX 19184 60115 32570 40106 10096 20034 40263 53004 60002 82202 333 10143 82826 83073
BBXX 63110 19184 99595 10015 47799 /1709 10050 21051 40009 57012 700// 22200 10704 70021
BBXX 63106 19184 99610 10017 46/// /1811 10038 40008 57009 22200
BBXX 63113 19184 99610 10017 46/// /1507 10036 21010 40009 57009 22200 10704 70022
BBXX 62305 19184 99504 10000 46/95 /2522 10099 20095 40111 58032 22200 00119 10602 70008 333 90710 91129
BBXX 62105 19184 99554 70122 46/// /2823 10093 20064 40096 53014 22200 106//
BBXX 64046 19184 99591 70117 46/// ///// 10054 20022 40028 53023 22200 00102 10707 70037
BBXX 64049 19183 99571 10022 41/97 52411 10060 20044 40018 57014 70222 8//// 22200 04092 20604 330// 40606 5//// 80053
BBXX 62107 19184 99501 70061 46/// /3121 10109 20099 40153 52012 22200 00116 10704 70020 333 90710 91130
BBXX 62303 19184 99516 70051 46/// /2817 10115 20094 40128 53018 22200 00109 10605 70027
BBXX 62094 19184 99517 70067 46/// /2916 10111 20088 40140 52019 22200 00107 10503 70017
BBXX 62103 19184 99499 70029 46/98 /2929 10118 20105 40122 55003 22200 00122 10705 70024 333 90710 91141
BBXX 62095 19184 99530 70159 46/// /2915 10102 20070 40190 52021 22200 00113 10605 70027
BBXX A8FZ6 19184 99343 70242 41597 50523 10200 20116 40300 5/005 70322 85500 22225 2//04 399// 4//04 80150
BBXX DDYZ2 19184 99452 70083 41/96 82526 10130 20113 40255 58005 71022 8//// 22213 04140 2//// 80120
AAXX 19184 43201 32996 20000 10176 20092 39404 40137 80002 333 59010 82075
AAXX 19184 60101 32460 40609 10117 20062 40263 51010 82202 333 10159 82816 84070
AAXX 19184 60135 32456 50306 10127 20109 40242 53007 81202 333 10163 81815 85070
AAXX 19184 60156 32460 70106 10130 20089 40247 53006 8323/ 333 10187 83816 86360
AAXX 19184 60252 15960 02105 10167 20101 40189 53008 60002 333 10235
BBXX WDE9586 19183 99388 71509 43698 71923 10170 20140 40240 54000 7//// 87/7/ 22214 00180 20904 326// 41406 5//// 6//// 80150 ICE /////
AAXX 19184 65387 32956 72206 10290 20255 30064 40082 82042 333 10340 58005 82360 87073
AAXX 19184 71433 46/// /3516 11024 21047 39925 40157 51046 6///1 333 10045 21025 7////
AAXX 19184 71841 16/// /3110 11093 21124 39790 40197 51020 60001 333 11053 21098 70054 555 10050
AAXX 19184 71102 16/// ///// 11050 21072 60001 333 11050 21143 70004
AAXX 19184 71105 16/// ///// 11006 21033 60001 333 11006 21089 70000
AAXX 19184 71006 16/// /2217 11042 21073 60001 333 11042 21113 70004
AAXX 19184 71007 16/// ///// 10004 21032 60001 333 10004 21080 7////
AAXX 19184 71008 16/// /2506 11067 21084 60001 333 11067 21139 70000
AAXX 19184 71009 16/// /1605 11032 21083 60001 333 11032 21191 70000
AAXX 19184 71012 16/// /2113 11031 21053 60001 333 11031 21137 70004
AAXX 19184 71035 16/// ///// 11090 21115 60001 333 11067 7////
AAXX 19184 71409 16/// ///// 11026 21048 60001 333 11026 21110 70004
AAXX 19184 71051 16/// ///// 11053 21064 60001 333 11039 21078 7////
AAXX 19184 71057 16/// ///// 11042 21082 60001 333 11023 21144 70000
AAXX 19184 71065 16/// ///// 11034 21101 60001 333 11034 21156 70000
AAXX 19184 71070 17/// ///// 10017 21037 69941 7//4/ 333 10017 21081 70004
AAXX 19184 71089 16/// ///// 11037 21056 60001 333 11037 21144 70000
AAXX 19184 71789 16/// ///// 10025 21051 60001 333 10028 21098 70000
AAXX 19184 71791 16/// /2116 11037 21074 60001 333 11037 21119 70000
AAXX 19184 71794 16/// ///// 11041 21065 60001 333 11040 21155 70000
AAXX 19184 71795 16/// ///// 10022 21054 60001 333 10023 21059 70000
AAXX 19184 71796 16/// ///// 11050 21073 60001 333 11049 21132 70000
AAXX 19184 71797 16/// ///// 11041 21077 60001 333 11041 21124 70000
AAXX 19184 71383 17/// ///// 11086 21106 39363 49974 56038 60021 7//4/ 333 11086 21159 7////
AAXX 19184 71502 16/// /0302 11268 21289 39957 49973 51009 60001 333 11213 21268 70000
AAXX 19184 71509 16/// /2518 10029 21040 60001 333 10029 21084 7////
AAXX 19184 71517 16/// /2620 10026 21051 60001 333 10026 21100 70005
AAXX 19184 71518 16/// /2005 11028 21040 60001 333 11024 21085 70000
AAXX 19184 71519 16/// /1912 10000 21030 60001 333 10001 21070 70004
AAXX 19184 71520 16/// /1407 11107 21118 39293 49969 56036 60001 333 11107 21195 70000
AAXX 19184 71521 17/// ///// 11101 21119 60031 7//4/ 333 11101 21178 70031
AAXX 19184 71522 47/// /1101 11071 21088 39496 49987 56039 6///1 7//4/ 333 21179 70007
AAXX 19184 71523 17/// ///// 11037 21046 39582 49955 56021 60061 7//4/ 333 11037 21147 70006
AAXX 19184 71528 17/// /2313 10013 21024 69941 7//4/ 333 10013 21079 70004
BBXX VRCZ7 19183 99490 70048 41/96 81627 10120 20110 40168 57/// 70322 8//// 22214 2//// 3//// 4//// 5//// 80115
BBXX TBWUK17 19183 99173 30837 41498 20912 10261 20236 40154 51025 70100 82125 22253 04278 20402 30910 40503 50404 80244
BBXX ZNQO3 19180 99363 70037 41698 31603 10150 20056 40273 52002 70200 821// 22264 04163 2//// 3//// 4//// 5//// 80105
BBXX DDDI2 19184 99341 30046 41398 72711 10170 20135 40215 57015 70222 85878 22264 04165 21001 325// 40803 5//// 80150
AAXX 19184 71433 46/// /3516 11024 21047 39925 40157 51046 6///1 333 10045 21025 7////
AAXX 19184 71841 16/// /3110 11093 21124 39790 40197 51020 60001 333 11053 21098 70054 555 10050
AAXX 19184 71383 17/// ///// 11086 21106 39363 49974 56038 60021 7//4/ 333 11086 21159 7////
AAXX 19184 71409 16/// ///// 11026 21048 60001 333 11026 21110 70004
AAXX 19184 71006 16/// /2217 11042 21073 60001 333 11042 21113 70004
AAXX 19184 71007 16/// ///// 10004 21032 60001 333 10004 21080 7////
AAXX 19184 71008 16/// /2506 11067 21084 60001 333 11067 21139 70000
AAXX 19184 71009 16/// /1605 11032 21083 60001 333 11032 21191 70000
AAXX 19184 71012 16/// /2113 11031 21053 60001 333 11031 21137 70004
AAXX 19184 71035 16/// ///// 11090 21115 60001 333 11067 7////
AAXX 19184 71102 16/// ///// 11050 21072 60001 333 11050 21143 70004
AAXX 19184 71105 16/// ///// 11006 21033 60001 333 11006 21089 70000
AAXX 19184 71502 16/// /0302 11268 21289 39957 49973 51009 60001 333 11213 21268 70000
AAXX 19184 71509 16/// /2518 10029 21040 60001 333 10029 21084 7////
AAXX 19184 71517 16/// /2620 10026 21051 60001 333 10026 21100 70005
AAXX 19184 71518 16/// /2005 11028 21040 60001 333 11024 21085 70000
AAXX 19184 71519 16/// /1912 10000 21030 60001 333 10001 21070 70004
AAXX 19184 71520 16/// /1407 11107 21118 39293 49969 56036 60001 333 11107 21195 70000
AAXX 19184 71521 17/// ///// 11101 21119 60031 7//4/ 333 11101 21178 70031
AAXX 19184 71522 47/// /1101 11071 21088 39496 49987 56039 6///1 7//4/ 333 21179 70007
AAXX 19184 71523 17/// ///// 11037 21046 39582 49955 56021 60061 7//4/ 333 11037 21147 70006
AAXX 19184 71528 17/// /2313 10013 21024 69941 7//4/ 333 10013 21079 70004
AAXX 19184 71051 16/// ///// 11053 21064 60001 333 11039 21078 7////
AAXX 19184 71057 16/// ///// 11042 21082 60001 333 11023 21144 70000
AAXX 19184 71065 16/// ///// 11034 21101 60001 333 11034 21156 70000
AAXX 19184 71070 17/// ///// 10017 21037 69941 7//4/ 333 10017 21081 70004
AAXX 19184 71089 16/// ///// 11037 21056 60001 333 11037 21144 70000
AAXX 19184 71789 16/// ///// 10025 21051 60001 333 10028 21098 70000
AAXX 19184 71791 16/// /2116 11037 21074 60001 333 11037 21119 70000
AAXX 19184 71794 16/// ///// 11041 21065 60001 333 11040 21155 70000
AAXX 19184 71795 16/// ///// 10022 21054 60001 333 10023 21059 70000
AAXX 19184 71796 16/// ///// 11050 21073 60001 333 11049 21132 70000
AAXX 19184 71797 16/// ///// 11041 21077 60001 333 11041 21124 70000
AAXX 19183 87244 32568 53208 10397 20126 39652 4//// 5//// 85400 333 56700 85625
BBXX VRZK9 19184 99145 10550 41598 10218 10230 20201 40165 51035 70200 82/// 22274 00260 20505 304// 4//// 80210
BBXX VRZK9 19184 99145 10550 41598 10218 10230 20201 40165 51035 70200 82/// 22274 00260 20505 304// 4//// 80210
AAXX 19184 68287 36/// /0000 10171 20147 38595 48530 52008 333 10237 20171 91006 555 91021
AAXX 19184 68572 11324 82107 10152 20137 38457 48566 52027 60032 76199 886// 333 10314 20152 91009 555 20032 60265 91026
AAXX 19184 68481 36/// /3602 10245 20150 39784 40147 52030 333 10317 20242 91005 555 91016
AAXX 19184 68491 36/// /0403 10236 20194 30140 40149 52020 333 10310 20236 91006 555 91014
AAXX 19184 68497 36/// /1302 10243 20183 30120 40164 52035 333 10326 20243 91003 555 91016
AAXX 19184 68400 32565 30605 10241 20162 30070 40143 52022 83100 333 10352 20241 91009 555 91014
AAXX 19184 68478 12580 62404 10193 20148 38891 48531 58006 69942 86500 333 10346 20187 91013 555 20004 69945 91019
AAXX 19184 68570 11360 83302 10155 20133 38570 48562 52021 60062 79511 8800/ 333 10317 20154 91003 555 20066 60185 91025
AAXX 19184 68580 36/// /1610 10161 20151 38997 48555 52025 333 10292 20161 91018 555 91022
AAXX 19181 63332 NIL
AAXX 19181 63333 42980 00000 10153 20075 38186 40216 333 10242 58008
AAXX 19181 63334 42980 00000 10150 20072 37637 40131 333 10240 58009
AAXX 19181 63340 42980 03102 10168 20097 37950 40173 333 10250 58020
AAXX 19181 63402 NIL
AAXX 19181 63450 42580 10603 10143 20040 37757 40165 81500 333 10220 58011 81625
AAXX 19181 63451 42980 0//// 1//// 2//// 38161 4//// 333 10255 58012
AAXX 19181 63453 NIL
AAXX 19181 63460 NIL
AAXX 19181 63471 42980 03601 1//// 2//// 38879 4//// 333 10305 5////
AAXX 19181 63478 NIL
AAXX 19181
AAXX 19181 63332 NIL
AAXX 19181 63333 42980 00000 10153 20075 38186 40216 333 10242 58008
AAXX 19181 63334 42980 00000 10150 20072 37637 40131 333 10240 58009
AAXX 19181 63340 42980 03102 10168 20097 37950 40173 333 10250 58020
AAXX 19181 63402 NIL
AAXX 19181 63450 42580 10603 10143 20040 37757 40165 81500 333 10220 58011 81625
AAXX 19181 63451 42980 0//// 1//// 2//// 38161 4//// 333 10255 58012
AAXX 19181 63453 NIL
AAXX 19181 63460 NIL
AAXX 19181 63471 42980 03601 1//// 2//// 38879 4//// 333 10305 5////
AAXX 19181 63478 NIL
AAXX 19184 61017 32960 50000 10170 20029 39739 40163 80002 333 10267 58013 85080
AAXX 19184 61024 32960 31206 10226 21032 39567 40139 80002 333 10290 58011 83080
AAXX 19184 61036 32962 70000 10280 20017 39671 40112 81038 333 10330 58002 81365 87280
AAXX 19184 61043 32960 50606 10264 21030 39668 40111 80001 333 10308 58008 85080
AAXX 19184 61045 32965 70000 10230 21010 39622 40128 80008 333 10305 58004 87280
AAXX 19184 61049 32960 70000 10220 20005 39794 40119 80008 333 10291 58009 87280
AAXX 19184 61052 32960 30206 10280 20011 39856 40114 81032 333 10330 58006 81365 83080
AAXX 19184 61075 32960 70000 10270 20046 39799 40111 81038 333 10335 58011 81364 87280
AAXX 19184 61080 32960 70000 10253 21001 39697 40122 81048 333 10311 58009 81364 87280
AAXX 19184 61090 32965 70000 10244 20002 39606 40122 80008 333 10300 58008 87280
AAXX 19184 61091 32965 50000 10230 20094 39677 40142 80002 333 10310 58011 85080
AAXX 19184 61096 32965 70000 10236 21022 39743 40130 80008 333 10300 58009 87280
AAXX 19184 61099 32960 73606 10200 20041 39864 40093 80008 333 10352 58006 87280
AAXX 19184 63729 12480 20000 10200 20184 38868 48/// 60072 82900 333 0//58 10265 55300 58006 82618 81920
AAXX 19184 63733 32580 20000 10217 20193 38860 48500 81931 333 10269 55300 58004 81922
AAXX 19184 63756 12580 10000 10217 20193 38865 48501 69952 81901 333 0//14 10160 58002 81820 81921
AAXX 19184 63791 12580 21214 10259 20166 39105 48492 60062 82500 333 0//14 10348 55300 59009 81624 91012
AAXX 19184 63801 12580 30000 10225 20205 39199 48525 69902 81923 333 0//15 10282 59004 81820 81921 83075
AAXX 19184 63832 32580 30000 10244 20176 38816 48496 81231 333 10290 59008 81822
AAXX 19184 63866 11480 10230 20214 39508 48/// 69962 79596 8592/ 333 0//11 10335 59018 85615 81918 88458
AAXX 19184 63870 31480 10810 10278 20253 30083 40101 71311 81900 333 10340 55300 58002 81818 81920
AAXX 19184 63881 32480 70000 10183 20168 38204 48/// 83972 333 10242 55300 59006 83618 81920 86456
AAXX 19184 63887 32580 20000 10210 20172 38584 48505 81941 333 10272 55300 59004 81820 81923
AAXX 19184 63894 32580 60610 10278 20259 30051 40111 86900 333 10335 55300 58011 86823 81924
AAXX 19184 63962 12580 40000 10211 20189 38955 48513 60232 84900 333 10271 58003 84620 81922
AAXX 19184 63971 12580 70000 10236 20232 39979 40109 60227 8293/ 333 0//19 10295 55300 58009 82822 81923 86358
AAXX 19184 63862 NIL
AAXX 19184 63932 NIL
AAXX 19184 61017 32960 50000 10170 20029 39739 40163 80002 333 10267 58013 85080
AAXX 19184 61024 32960 31206 10226 21032 39567 40139 80002 333 10290 58011 83080
AAXX 19184 61036 32962 70000 10280 20017 39671 40112 81038 333 10330 58002 81365 87280
AAXX 19184 61043 32960 50606 10264 21030 39668 40111 80001 333 10308 58008 85080
AAXX 19184 61045 32965 70000 10230 21010 39622 40128 80008 333 10305 58004 87280
AAXX 19184 61049 32960 70000 10220 20005 39794 40119 80008 333 10291 58009 87280
AAXX 19184 61052 32960 30206 10284 20011 39856 40114 81032 333 10330 58006 81365 83080
AAXX 19184 61075 32960 70000 10270 20046 39799 40111 81038 333 10335 58011 81364 87280
AAXX 19184 61080 32960 70000 10253 21001 39697 40122 81048 333 10311 58009 81364 87280
AAXX 19184 61090 32965 70000 10244 20002 39606 40122 80008 333 10300 58008 87280
AAXX 19184 61091 32965 50000 10230 20094 39677 40142 80002 333 10310 58011 85080
AAXX 19184 61096 32965 70000 10236 21022 39743 40130 80008 333 10300 58009 87280
AAXX 19184 61099 32960 73606 10200 20041 39864 40093 80008 333 10352 58006 87280
AAXX 19184 89063 41497 83601 10027 20011 39863 49874 52011 70272 886// 333 44122
AAXX 19184 03002 15684 /2802 11017 21045 39978 49997 57015 60002 91750 333 10020 81/45
BBXX DDDI2 19184 99341 30046 41398 72711 10170 20135 40215 57015 70222 85878 22264 04165 21001 325// 40803 5//// 80150
BBXX C6TQ3 19184 99235 51174 41598 60822 10265 20196 40234 54000 70111 83462 22273 04240 21106 318// 41406 5//// 80220
BBXX ZNQO3 19180 99363 70037 41698 31603 10150 20056 40273 52002 70200 821// 22264 04163 2//// 3//// 4//// 5//// 80105
BBXX VRCZ7 19183 99490 70048 41/96 81627 10120 20110 40168 57/// 70322 8//// 22214 2//// 3//// 4//// 5//// 80115
BBXX DDYZ2 19184 99452 70083 41/96 82526 10130 20113 40255 58005 71022 8//// 22213 04140 2//// 80120
BBXX A8FZ6 19184 99343 70242 41597 50523 10200 20116 40300 5/005 70322 85500 22225 2//04 399// 4//04 80150
BBXX MINUK03 1918/ 99525 10040 46/// ///// 10060 40073 57056
BBXX MINUK04 1918/ 99555 10083 46/// ///// 10050 4//// 52002
BBXX 46231 19181 99327 71174 46/// ///// 1//// 91824 22200 00146 11503 20702 328// 41502 70015
BBXX 46221 19181 99339 71186 46/// ///// 1//// 91815 22200 00149 11302 20601 324// 41301 70009
BBXX 46216 19181 99343 71198 46/// ///// 1//// 91827 22200 00144 11403 20502 327// 41402 70013
BBXX 46242 19181 99332 71174 46/// ///// 1//// 91828 22200 00144 11301 20601 324// 41301 70007
BBXX 46222 19181 99336 71183 46/// ///// 1//// 91826 22200 00151 11402 20602 327// 41401 70011
BBXX 46223 19181 99335 71178 46/// ///// 1//// 91830 22200 00152 11302 20702 328// 41301 70011
BBXX 44039 19181 99411 70727 46/// /2110 10068 20004 40186 91830 22200 00095 10502 70010 333 91213
BBXX 44024 19181 99423 70659 46/22 /2405 10020 40187 91804 22200 00086 11105 70025 333 91206 555 11053 22054
BBXX 46243 19181 99462 71241 46/// ///// 1//// 91829 22200 00084 11404 21002 326// 41403 70020
BBXX 46241 19181 99330 71173 46/// ///// 1//// 91811 22200 00142 11702 20701 326// 41701 70009
BBXX 41052 19181 99183 70648 46/// /0607 10269 40148 91820 333 91208
BBXX 42085 19181 99179 70665 46/// /0606 10281 40146 91810 333 91209
BBXX 41053 19181 99185 70661 46/// /0406 10264 40158 91810 333 91207
BBXX 42085 19181 99179 70665 46/// /0606 10281 40144 91830 333 91207
BBXX 42085 19181 99179 70665 46/// /0506 10281 40145 91820 333 91208
BBXX 41052 19181 99183 70648 46/// /0606 10269 40150 91810 333 91207
BBXX 41053 19181 99185 70661 46/// /0306 10263 40158 91820 333 91208
BBXX 41053 19181 99185 70661 46/// /0406 10264 40156 91830 333 91208
BBXX 41052 19181 99183 70648 46/// /0406 10270 40147 91830 333 91208
BBXX VREX7 19183 99240 70868 41497 12615 10270 20241 40200 50000 70222 8/240 22264 20403 308// 406// 5//// 80250
BBXX VRIB2 19184 99056 10821 41397 80607 10260 20246 40097 54000 70226 88/// 22224 0//// 2//// 3//// 4//// 80250
BBXX SHIP 19184 99333 11285 41698 73504 10170 20160 40020 51000 70203 88/// 22213 00200 2//// 80175
BBXX TBWUK37 19183 99264 11257 41498 50523 10220 20189 40206 52010 70322 83144 22214 04250 20605 305// 41003 80200
BBXX 3FHX2 19183 99091 11357 41/97 40923 10270 20240 40080 56015 7//// 8///4 22233 00/// 2////
BBXX AUYK 19184 99155 11153 44197 70424 10260 20236 4//// 54000 70245 87700 22212 00284 29909
BBXX DQVN 19184 99058 10968 41/// /1111 10270 20222 40100 53010 7//11 8//// 22264 00293 2//// 80236
BBXX TBWUK17 19183 99173 30837 41498 20912 10261 20236 40154 51025 70100 82125 22253 04278 20402 30910 40503 50404 80244
BBXX DDZF2 19184 99032 11054 41396 80330 10270 20228 40080 58010 76222 85777 22214 00280 20806 80240
BBXX ZQDI9 19183 99043 11062 41598 80421 10280 20235 40077 57010 70222 8272/ 22212 00261 20603 301// 4//06 80249
BBXX DDYL2 19183 99015 11030 41/98 /3210 10260 20232 40078 58003 70362 8//// 22274 00280 2//// 80240
BBXX A8HJ8 19183 99012 11034 41/96 /3213 10259 20248 40089 54000 70266 8//// 22200 00/// 20402 80251
BBXX VQOG5 19184 99048 10989 41/98 /0115 10278 20230 40087 57020 70298 8//// 22273 00277 2//// 80245
AAXX 19181 98741 32470 60000 10256 20240 40072 57018 82208 333 56999 82817 86275
AAXX 19184 62002 32960 00505 10096 20008 39486 48527 52011 333 10120
AAXX 19184 62007 32960 43614 10145 20057 40198 52010 84500 333 10160 84620
AAXX 19184 62010 12560 52503 10103 20048 40201 52017 69912 82180 333 10135 82826 85357
AAXX 19184 62012 11558 52712 10123 20078 30169 40200 53016 60012 72162 85800 333 0//22 10185 82835 84630
AAXX 19184 62016 32558 42910 10134 20031 40216 52017 82530 333 10194 82625 84360
AAXX 19184 62161 32960 00000 10155 20075 40175 53011 333 10223
AAXX 19184 62259 32960 00000 10126 20023 40194 53019 333 10217
AAXX 19184 62271 32960 00000 10188 21021 40211 53011 333 10230
BBXX TBWUK17 19183 99173 30837 41498 20912 10261 20236 40154 51025 70100 82125 22253 04278 20402 30910 40503 50404 80244
BBXX DDDI2 19184 99341 30046 41398 72711 10170 20135 40215 57015 70222 85878 22264 04165 21001 325// 40803 5//// 80150
BBXX ZDLS1 19184 99558 30030 41394 82734 10014 21012 49656 54000 72677 885// 22243 04012 20406 32530 40712 50510 80005
AAXX 19184 71346 16/// /2411 10025 21030 60001 333 10025 21059 70000
AAXX 19184 71360 16/// ///// 11028 21063 60001 333 11028 21148 70000
AAXX 19184 71380 16/// /2204 11024 21090 60001 333 11024 21108 70000
AAXX 19184 71413 16/// ///// 11062 21076 60001 333 11062 21137 70000
AAXX 19184 71414 16/// ///// 11026 21098 60001 333 11026 21116 70000
AAXX 19184 71440 16/// ///// 11016 21083 60001 333 11011 21095 70000
AAXX 19184 71857 16/// ///// 11038 21089 60001 333 11038 7////
AAXX 19184 71249 16/// /2517 11061 21097 60001 333 11061 21124 70000
AAXX 19184 71481 16/// /2205 11031 21061 60001 333 11028 21143 70010
AAXX 19184 71498 16/// /2308 11051 21078 60001 333 11051 21104 70000
AAXX 19184 71674 16/// ///// 11050 21086 60001 333 11050 21131 70000
AAXX 19184 71904 16/// ///// 11045 21091 60001 333 11045 21111 70000
AAXX 19184 71014 16/// /1606 11046 21109 60001 333 11046 21107 70000
AAXX 19184 71055 46/// /1705 11182 21198 39585 49919 53014 6///1 333 11177 21259 7////
AAXX 19184 71540 16/// /1101 11104 21111 60001 333 11104 21193 70017
AAXX 19184 71544 16/// ///// 11029 21068 60001 333 11029 21095 70000
AAXX 19184 71548 46/// ///// 11020 21101 6///1 333 11020 21098 7////
AAXX 19184 71413 16/// ///// 11062 21076 60001 333 11062 21137 70000
AAXX 19184 71414 16/// ///// 11026 21098 60001 333 11026 21116 70000
AAXX 19184 71440 16/// ///// 11016 21083 60001 333 11011 21095 70000
AAXX 19184 71249 16/// /2517 11061 21097 60001 333 11061 21124 70000
AAXX 19184 71346 16/// /2411 10025 21030 60001 333 10025 21059 70000
AAXX 19184 71360 16/// ///// 11028 21063 60001 333 11028 21148 70000
AAXX 19184 71380 16/// /2204 11024 21090 60001 333 11024 21108 70000
AAXX 19184 71481 16/// /2205 11031 21061 60001 333 11028 21143 70010
AAXX 19184 71498 16/// /2308 11051 21078 60001 333 11051 21104 70000
AAXX 19184 71014 16/// /1606 11046 21109 60001 333 11046 21107 70000
AAXX 19184 91643 11599 29903 10270 20226 40097 53011 60001 70200 82100 333 561// 82820
AAXX 19184 71904 16/// ///// 11045 21091 60001 333 11045 21111 70000
AAXX 19184 71055 46/// /1705 11182 21198 39585 49919 53014 6///1 333 11177 21259 7////
AAXX 19184 71540 16/// /1101 11104 21111 60001 333 11104 21193 70017
AAXX 19184 71544 16/// ///// 11029 21068 60001 333 11029 21095 70000
AAXX 19184 71548 46/// ///// 11020 21101 6///1 333 11020 21098 7////
AAXX 19184 71857 16/// ///// 11038 21089 60001 333 11038 7////
AAXX 19184 71674 16/// ///// 11050 21086 60001 333 11050 21131 70000
AAXX 19184 91413 32469 40810 10272 20226 30052 40078 57012 82201 333 56299 70010 555 91918
AAXX 19184 91413 32469 40810 10272 20226 30052 40078 57012 82201 333 56299 70010 555 91918
BBXX A8RU5 19184 99082 11110 41397 80618 10250 20236 40075 56025 76162 8/7// 22255 80240
AAXX 19184 91648 11499 69902 10264 20241 40097 60001 70222 83206/ 333 5689/
BBXX VQKZ6 19183 99008 50412 41698 62009 10250 20201 40109 57020 70222 83517 22244 02220 20403 321// 40504 5//// 80218
AAXX 19184 82332 32570 71104 10298 20248 39990 40083 85230 333 59002
AAXX 19184 83566 21340 82003 10190 20178 39195 48500 76162 8651/ 333 59002 60071
BBXX DCDP2 19183 99396 70612 41497 73533 10095 20032 40125 56010 70311 8726/ 22223 00210 21209 334// 41209 80065
AAXX 19184 88903 45/// /3120 10170 20066 39992 49992 57011
BBXX C6W2032 19183 99036 10066 41897 62111 10280 2025/ 40100 51/// 70122 86723 22253 00270 20201 314// 40201 502// 6//// 80260 ICE /////
OOXX CAP17 19161 99476 70527 ///// 01331 26/// /3010 11021 29085 39958 91600 333 60000
OOXX CAP17 19161 99476 70527 ///// 01331 26/// /3010 11021 29084 39956 91610 333 60000
OOXX CAP17 19161 99476 70527 ///// 01331 26/// /3010 11021 29083 39957 91620 333 60000
OOXX CAP17 19161 99476 70527 ///// 01331 26/// /3010 11020 29083 39957 91630 333 60000
OOXX CAP17 19161 99476 70527 ///// 01331 26/// /3010 11020 29083 39949 91640 333 60000
OOXX CAP17 19161 99476 70527 ///// 01331 26/// /3009 11021 29083 39951 91650 333 60000
OOXX CAP17 19171 99476 70527 ///// 01331 26/// /3009 11021 29083 39946 91700 333 60000
OOXX CAP17 19171 99476 70527 ///// 01331 26/// /3010 11020 29083 39942 91710 333 60000
OOXX CAP17 19171 99476 70527 ///// 01331 26/// /3010 11021 29082 39946 91720 333 60000
OOXX CAP17 19171 99476 70527 ///// 01331 26/// /3009 11020 29083 39953 91730 333 60000
OOXX CAP17 19171 99476 70527 ///// 01331 26/// /3009 11021 29083 39952 91740 333 60000
OOXX CAP17 19171 99476 70527 ///// 01331 26/// /3009 11021 29083 39954 91750 333 60000
AAXX 19184 91532 43/// /0608 10273 20233 30066 40074 52004
AAXX 19184 97560 32460 70000 10250 20238 30037 40052 57015 83847 333 56000 57803 83818 83360 85279 80859
AAXX 19184 71202 16/// ///// 11046 21089 60001 333 11046 21132 70007
AAXX 19184 89667 46/// /1918 11060 29058 39905 4//// 5//// 91830
AAXX 1918/ 89327 46/// ///// 11010 39608 4//// 5//// 91830
AAXX 1918/ 89866 46/// ///// 11069 39799 4//// 5//// 91830
AAXX 1918/ 89329 46/// ///// 11120 38664 4//// 5//// 91830
AAXX 1918/ 89332 46/// ///// 11059 39097 4//// 5//// 91830
AAXX 19184 89003 46/// /3207 11059 29069 39073 4//// 5////
AAXX 19184 71202 16/// ///// 11046 21089 60001 333 11046 21132 70007
AAXX 19184 91844 46/// /0404 10274 40147 22200 00281
AAXX 19181 59158 32560 63301 10178 20134 30084 40186 58004 86500
AAXX 19181 59562 11660 63501 10187 20159 30181 40193 58011 69901 70262 86500
AAXX 19181 59567 46/// /0407 10180 20167 39804 40185 58012
AAXX 19181 58968 11558 80804 10176 20159 30192 40200 58013 69901 72065 885//
AAXX 19181 58974 46/// /0707 10175 20137 30090 40215 58010
AAXX 19181 59358 31650 80102 10174 20139 30154 40186 58009 71011 886//
AAXX 19181 59559 32565 80408 10209 20167 30137 40165 58011 8542/
AAXX 19181 59792 31459 80409 10209 20183 30163 40168 57013 71022 8562/
AAXX 19181 59997 31458 80805 10267 20248 30079 40087 57014 71022 8382/
BBXX 9MBW7 19184 99333 11285 41698 73504 10170 20160 40020 51000 70203 88/// 22213 00200 2//// 80175
BBXX SHIP 19184 99333 11285 41698 73504 10170 20160 40020 51000 70203 88/// 22213 00200 2//// 80175
AAXX 19181 23242 11/93 91701 11086 21093 30178 40197 57008 60030 74984 333 11035
BBXX 63110 19183 99595 10015 41/98 /1610 10049 40005 700// 8//// 22200 10704 70020
BBXX 62303 19184 99516 70051 46/// /2816 10115 20094 40128 53018 22200 00109 10605 70027
BBXX 62105 19184 99554 70122 46/// /2823 10093 20064 40116 53014 22200 00105 10607 70035 333 90710 91133
BBXX 64045 19184 99591 70117 46/// /2925 10054 20022 40028 53023 22200 00102 10707 70037 333 90710 91144
BBXX AMOUK08 19184 99501 70061 46/// ///// 10113 20108 30148 40153 54003 91750
BBXX PJGO 19184 99571 10022 47397 /2003 10058 20014 40021 57021 751// 22200
BBXX 63106 19184 99610 10017 46/// /1811 10038 40008 57009 22200
BBXX 63105 19184 99610 10017 47598 ///// 10044 21013 40008 57008 751// 22200
BBXX 62094 19184 99517 70067 46/// /29// 10111 20088 4//// 5//// 22200 00107 10504 70018
BBXX 62103 19184 99499 70029 46/97 /2929 10117 20103 40120 56017 22200 00122 10704 70021 333 90710 91142
BBXX 62305 19184 99504 10000 46/95 /2522 10099 20095 40111 57032 22200 10602 70008
BBXX 62095 19184 99530 70159 46/// /2915 10102 20070 40192 52021 22200 00113 10605 70027
BBXX TBWUK35 19184 99529 70112 41/// 83224 10099 20076 40157 50015 70222 8//// 22283 00120 2//// 80088
BBXX AMOUK04 19184 99533 70062 46/// ///// 10093 20067 30107 4//// 52012 91750
AAXX 19184 91413 32469 40810 10272 20226 30052 40078 57012 82201 333 56299 70010 555 91918
BBXX MYNJ6 19183 99080 70837 415// 72713 10250 20222 40120 54000 7//11 87246 22273 00280 20502 32727 40502 50502 6//// 80230 ICE /////
BBXX ONFP 19183 99256 30583 43595 80837 10240 2021/ 40150 51010 7//11 88761 22212 04240 20308 30909 40308 50308 6//// 80220 ICE /////
BBXX S6SR 19184 99197 50077 41599 61107 10210 20195 40190 56020 7//22 861// 22213 00230 2//02 32020 41504 51504 6//// 80200 ICE /////
BBXX BSH05 19181 99550 10079 46/// ///// 22200 20603 70016
BBXX BSH03 19181 99540 10081 46/// ///// 22200 00064 20603 70016
BBXX A8RU5 19184 99082 11110 41397 80618 10250 20236 40075 56025 76162 8/7// 22255 80240
BBXX VQKZ6 19183 99008 50412 41698 62009 10250 20201 40109 57020 70222 83517 22244 02220 20403 321// 40504 5//// 80218
BBXX HPQI 19184 99031 70803 41598 82425 10250 40119 70022 9//// 22244 00260 20401 323// 40603 6//// 80230
BBXX 9HXC9 19184 99184 70660 41598 50720 10249 20145 40146 55005 7//11 85740 22200 04280 20602 3//// 40902 5//// 6//// 80183 ICE /////
BBXX DCDP2 19183 99396 70612 41497 73533 10095 20032 40125 56010 70311 8726/ 22223 00210 21209 334// 41209 80065
BBXX ZCDA9 19183 99294 71263 41298 63315 10168 20107 40242 57004 70222 867// 22224 00200 20201 335// 40403 5//// 80135
BBXX WDE8265 19183 99373 70704 41298 72913 10180 2007/ 40231 57030 70222 871// 22214 0//// 20402 304// 40704 5//// 6//// 80120 ICE /////
BBXX S6SR 19184 99197 50077 41599 61107 10210 20195 40190 56020 7//22 861// 22213 00230 2//02 32020 41504 51504 6//// 80200 ICE /////
BBXX ONFP 19183 99256 30583 43595 80837 10240 2021/ 40150 51010 7//11 88761 22212 04240 20308 30909 40308 50308 6//// 80220 ICE /////
BBXX C6W2032 19183 99036 10066 41897 62111 10280 2025/ 40100 51/// 70122 86723 22253 00270 20201 314// 40201 502// 6//// 80260 ICE /////
BBXX SHIP 19184 99145 10550 41598 10218 10230 20201 40165 51035 70200 82/// 22274 00260 20505 304// 4//// 80210
BBXX MYNJ6 19183 99080 70837 415// 72713 10250 20222 40120 54000 7//11 87246 22273 00280 20502 32727 40502 50502 6//// 80230 ICE /////
OOXX RUP54 19161 99586 10494 ///// 01271 26/// /0606 11098 29090 30161 91627 333 60120
OOXX RUP54 19161 99586 10494 ///// 01271 26/// /0606 11097 29090 30163 91637 333 60120
OOXX RUP54 19161 99586 10494 ///// 01271 26/// /0606 11097 29090 30161 91647 333 60120
OOXX RUP54 19161 99586 10494 ///// 01271 26/// /0605 11097 29090 30161 91657 333 60120
OOXX RUP54 19171 99586 10494 ///// 01271 26/// /0605 11097 29090 30160 91707 333 60120
OOXX RUP54 19171 99586 10494 ///// 01271 26/// /0606 11097 29090 30161 91717 333 60120
OOXX RUP54 19171 99586 10494 ///// 01271 26/// /0505 11097 29090 30162 91727 333 60120
OOXX RUP54 19171 99586 10494 ///// 01271 26/// /0606 11097 29090 30163 91737 333 60120
OOXX RUP54 19171 99586 10494 ///// 01271 26/// /0606 11097 29090 30162 91747 333 60120
OOXX RUP54 19171 99586 10494 ///// 01271 26/// /0606 11097 29090 30164 91757 333 60120
OOXX RUP54 19181 99586 10494 ///// 01271 26/// /0705 11097 29090 30161 91807 333 60120
OOXX RUP54 19181 99586 10494 ///// 01271 26/// /0606 11097 29090 30162 91817 333 60120
OOXX GBP68 19161 99371 50123 ///// 00641 26/// /3506 11047 29000 30124 91610 333 60000
OOXX GBP68 19161 99371 50123 ///// 00641 26/// /3508 11057 29000 30121 91620 333 60000
OOXX GBP68 19161 99371 50123 ///// 00641 26/// /3505 11066 29000 30120 91630 333 60000
OOXX GBP68 19161 99371 50123 ///// 00641 26/// /3505 11078 29000 30119 91640 333 60000
OOXX GBP68 19161 99371 50123 ///// 00641 26/// /3507 11009 29000 30118 91650 333 60000
OOXX GBP68 19171 99371 50123 ///// 00641 26/// /3507 11010 29000 30116 91700 333 60000
OOXX GBP68 19171 99371 50123 ///// 00641 26/// /3508 11007 29000 30117 91710 333 60000
OOXX GBP68 19171 99371 50123 ///// 00641 26/// /3508 10013 29000 30117 91720 333 60000
OOXX GBP68 19171 99371 50123 ///// 00641 26/// /3508 10012 29000 30115 91730 333 60000
OOXX GBP68 19171 99371 50123 ///// 00641 26/// /3508 10014 29000 30114 91740 333 60000
OOXX GBP68 19171 99371 50123 ///// 00641 26/// /3508 10002 29000 30114 91750 333 60000
OOXX GBP68 19181 99371 50123 ///// 00641 26/// /3508 11040 29000 30113 91800 333 60000
OOXX CAP14 19161 99487 71234 ///// 00431 26/// /0000 10043 29088 30237 91630 333 60000
OOXX CAP14 19161 99487 71234 ///// 00431 26/// /0000 10048 29088 30238 91640 333 60000
OOXX CAP14 19161 99487 71234 ///// 00431 26/// /0000 10050 29088 30239 91650 333 60000
OOXX CAP14 19171 99487 71234 ///// 00431 26/// /0000 10053 29086 30239 91700 333 60000
OOXX CAP14 19171 99487 71234 ///// 00431 26/// /0000 10048 29087 30238 91710 333 60000
OOXX CAP14 19171 99487 71234 ///// 00431 26/// /0000 10051 29087 30239 91720 333 60000
OOXX CAP14 19171 99487 71234 ///// 00431 26/// /0000 10050 29087 30238 91730 333 60000
OOXX CAP14 19171 99487 71234 ///// 00431 26/// /0000 10052 29087 30237 91740 333 60000
OOXX CAP14 19171 99487 71234 ///// 00431 26/// /0000 10057 29087 30237 91750 333 60000
OOXX CAP14 19181 99487 71234 ///// 00431 26/// /3601 10057 29085 30238 91800 333 60000
OOXX CAP14 19181 99487 71234 ///// 00431 26/// /2901 10061 29084 30237 91810 333 60000
OOXX CAP14 19181 99487 71234 ///// 00431 26/// /0000 10062 29085 30237 91820 333 60000
OOXX GBP67 19161 99159 50057 ///// 04381 26/// /0904 10174 29087 39661 91610 333 60000
OOXX GBP67 19161 99159 50057 ///// 04381 26/// /0904 10172 29088 39662 91620 333 60000
OOXX GBP67 19161 99159 50057 ///// 04381 26/// /0904 10170 29088 39660 91630 333 60000
OOXX GBP67 19161 99159 50057 ///// 04381 26/// /1004 10172 29087 39660 91640 333 60000
OOXX GBP67 19161 99159 50057 ///// 04381 26/// /0904 10171 29088 39661 91650 333 60000
OOXX GBP67 19171 99159 50057 ///// 04381 26/// /0904 10174 29085 39661 91700 333 60000
OOXX GBP67 19171 99159 50057 ///// 04381 26/// /0904 10171 29088 39663 91710 333 60000
OOXX GBP67 19171 99159 50057 ///// 04381 26/// /0904 10172 29084 39663 91720 333 60000
OOXX GBP67 19171 99159 50057 ///// 04381 26/// /0904 10171 29085 39664 91730 333 60000
OOXX GBP67 19181 99159 50057 ///// 04381 26/// /0904 10167 29086 39663 91800 333 60000
OOXX GBP67 19181 99159 50057 ///// 04381 26/// /0904 10166 29087 39664 91810 333 60000
OOXX AUP04 19171 99377 31451 ///// 00311 26/// /2101 10150 29081 30075 91706 333 60000
OOXX AUP04 19171 99377 31451 ///// 00311 26/// /2101 10151 29080 30076 91716 333 60000
OOXX AUP04 19171 99377 31451 ///// 00311 26/// /2001 10151 29079 30077 91726 333 60000
OOXX AUP04 19171 99377 31451 ///// 00311 26/// /1901 10151 29080 30077 91736 333 60000
OOXX AUP04 19171 99377 31451 ///// 00311 26/// /2301 10150 29079 30078 91746 333 60000
OOXX AUP04 19171 99377 31451 ///// 00311 26/// /2901 10148 29081 30079 91756 333 60000
OOXX AUP04 19181 99377 31451 ///// 00311 26/// /0000 10148 29083 30080 91806 333 60000
OOXX AUP04 19181 99377 31451 ///// 00311 26/// /2901 10147 29084 30081 91816 333 60000
OOXX AUP04 19181 99377 31451 ///// 00311 26/// /3501 10146 29086 30083 91826 333 60000
OOXX AUP04 19181 99377 31451 ///// 00311 26/// /3501 10146 29086 30085 91836 333 60000
OOXX AUP04 19181 99377 31451 ///// 00311 26/// /1101 10146 29086 30086 91846 333 60000
OOXX AUP04 19181 99377 31451 ///// 00311 26/// /0601 10148 29085 30087 91856 333 60000
OOXX MRP43 19161 99181 70159 ///// 00101 26/// /0305 10291 29011 30117 91640 333 60000
OOXX MRP43 19161 99181 70159 ///// 00101 26/// /0304 10288 29011 30118 91650 333 60000
OOXX MRP43 19171 99181 70159 ///// 00101 26/// /0205 10290 29011 30118 91700 333 60000
OOXX MRP43 19171 99181 70159 ///// 00101 26/// /0204 10288 29011 30118 91710 333 60000
OOXX MRP43 19171 99181 70159 ///// 00101 26/// /0205 10286 29011 30119 91720 333 60000
OOXX MRP43 19171 99181 70159 ///// 00101 26/// /0305 10285 29011 30121 91730 333 60000
OOXX MRP43 19171 99181 70159 ///// 00101 26/// /0205 10282 29012 30120 91740 333 60000
OOXX MRP43 19171 99181 70159 ///// 00101 26/// /0205 10281 29012 30122 91750 333 60000
OOXX MRP43 19181 99181 70159 ///// 00101 26/// /0204 10279 29012 30123 91800 333 60000
OOXX MRP43 19181 99181 70159 ///// 00101 26/// /0204 10275 29013 30123 91810 333 60000
OOXX MRP43 19181 99181 70159 ///// 00101 26/// /0204 10269 29013 30124 91820 333 60000
OOXX MRP43 19181 99181 70159 ///// 00101 26/// /0104 10264 29013 30124 91830 333 60000
OOXX AUP09 19161 99124 31309 ///// 00321 26/// ///// 1//// 29/// 3//// 91614 333 6///0
OOXX AUP09 19161 99124 31309 ///// 00321 26/// ///// 1//// 29/// 3//// 91624 333 6///0
OOXX AUP09 19161 99124 31309 ///// 00321 26/// ///// 1//// 29/// 3//// 91634 333 6///0
OOXX AUP09 19161 99124 31309 ///// 00321 26/// ///// 1//// 29/// 3//// 91644 333 6///0
OOXX AUP09 19161 99124 31309 ///// 00321 26/// ///// 1//// 29/// 3//// 91654 333 6///0
OOXX AUP09 19171 99124 31309 ///// 00321 26/// ///// 1//// 29/// 3//// 91704 333 6///0
OOXX AUP09 19171 99124 31309 ///// 00321 26/// ///// 1//// 29/// 3//// 91714 333 6///0
OOXX AUP09 19171 99124 31309 ///// 00321 26/// ///// 1//// 29/// 3//// 91724 333 6///0
OOXX AUP09 19171 99124 31309 ///// 00321 26/// ///// 1//// 29/// 3//// 91734 333 6///0
OOXX AUP09 19171 99124 31309 ///// 00321 26/// ///// 1//// 29/// 3//// 91744 333 6///0
OOXX AUP09 19171 99124 31309 ///// 00321 26/// ///// 1//// 29/// 3//// 91754 333 6///0
OOXX AUP09 19181 99124 31309 ///// 00321 26/// ///// 1//// 29/// 3//// 91804 333 6///0
OOXX ARP01 19161 99345 50585 ///// 00311 26/// /0000 10111 29036 30044 91610 333 60000
OOXX ARP01 19161 99345 50585 ///// 00311 26/// /1101 10110 29037 30043 91620 333 60000
OOXX ARP01 19161 99345 50585 ///// 00311 26/// /1101 10111 29037 30042 91630 333 60000
OOXX ARP01 19161 99345 50585 ///// 00311 26/// /0000 10112 29036 30042 91640 333 60000
OOXX ARP01 19161 99345 50585 ///// 00311 26/// /0000 10112 29036 30041 91650 333 60000
OOXX ARP01 19171 99345 50585 ///// 00311 26/// /0000 10114 29035 30040 91700 333 60000
OOXX ARP01 19171 99345 50585 ///// 00311 26/// /0000 10114 29035 30038 91710 333 60000
OOXX ARP01 19171 99345 50585 ///// 00311 26/// /0000 10115 29036 30037 91720 333 60000
OOXX ARP01 19171 99345 50585 ///// 00311 26/// /0000 10115 29035 30036 91730 333 60000
OOXX ARP01 19171 99345 50585 ///// 00311 26/// /1101 10115 29036 30034 91740 333 60000
OOXX ARP01 19171 99345 50585 ///// 00311 26/// /1101 10115 29036 30033 91750 333 60000
OOXX ARP01 19181 99345 50585 ///// 00311 26/// /1101 10112 29037 30031 91800 333 60000
OOXX NZP46 19161 99438 51765 ///// 00221 26/// /1907 10102 29093 30119 91630 333 60000
OOXX NZP46 19161 99438 51765 ///// 00221 26/// /1907 10104 29092 30121 91640 333 60000
OOXX NZP46 19161 99438 51765 ///// 00221 26/// /2007 10105 29091 30122 91650 333 60000
OOXX NZP46 19171 99438 51765 ///// 00221 26/// /2008 10107 29087 30124 91700 333 60000
OOXX NZP46 19171 99438 51765 ///// 00221 26/// /2110 10109 29080 30125 91710 333 60000
OOXX NZP46 19171 99438 51765 ///// 00221 26/// /2009 10113 29082 30125 91720 333 60000
OOXX NZP46 19171 99438 51765 ///// 00221 26/// /2008 10112 29083 30127 91730 333 60000
OOXX NZP46 19171 99438 51765 ///// 00221 26/// /1908 10108 29085 30128 91740 333 60000
OOXX NZP46 19171 99438 51765 ///// 00221 26/// /1908 10108 29086 30129 91750 333 60000
OOXX NZP46 19181 99438 51765 ///// 00221 26/// /1908 10108 29085 30131 91800 333 60000
OOXX NZP46 19181 99438 51765 ///// 00221 26/// /1907 10108 29083 30132 91810 333 60000
OOXX NZP46 19181 99438 51765 ///// 00221 26/// /1908 10109 29081 30133 91820 333 60000
OOXX AUP06 19161 99192 31468 ///// 00071 26/// /1303 10246 29072 30068 91653 333 60000
OOXX AUP06 19171 99192 31468 ///// 00071 26/// /1303 10243 29075 30068 91703 333 60000
OOXX AUP06 19171 99192 31468 ///// 00071 26/// /1403 10242 29075 30069 91713 333 60000
OOXX AUP06 19171 99192 31468 ///// 00071 26/// /1603 10243 29074 30070 91723 333 60000
OOXX AUP06 19171 99192 31468 ///// 00071 26/// /1603 10242 29075 30070 91733 333 60000
OOXX AUP06 19171 99192 31468 ///// 00071 26/// /1503 10242 29075 30070 91743 333 60000
OOXX AUP06 19171 99192 31468 ///// 00071 26/// /1403 10239 29076 30070 91753 333 60000
OOXX AUP06 19181 99192 31468 ///// 00071 26/// /1403 10238 29076 30070 91803 333 60000
OOXX AUP06 19181 99192 31468 ///// 00071 26/// /1603 10238 29076 30071 91813 333 60000
OOXX AUP06 19181 99192 31468 ///// 00071 26/// /1803 10236 29078 30072 91823 333 60000
OOXX AUP06 19181 99192 31468 ///// 00071 26/// /1803 10235 29079 30073 91833 333 60000
OOXX AUP06 19181 99192 31468 ///// 00071 26/// /1703 10237 29076 30075 91843 333 60000
OOXX AUP07 19161 99/// ///// ///// ///// 26/// /3107 10060 29096 30168 91649 333 60000
OOXX AUP07 19161 99/// ///// ///// ///// 26/// /3108 10060 29096 30169 91659 333 60000
OOXX AUP07 19171 99/// ///// ///// ///// 26/// /3108 10061 29095 30168 91709 333 60000
OOXX AUP07 19171 99/// ///// ///// ///// 26/// /3108 10061 29095 30168 91719 333 60000
OOXX AUP07 19171 99/// ///// ///// ///// 26/// /3008 10061 29095 30167 91729 333 60000
OOXX AUP07 19171 99/// ///// ///// ///// 26/// /3007 10062 29094 30168 91739 333 60000
OOXX AUP07 19171 99/// ///// ///// ///// 26/// /3007 10063 29094 30167 91749 333 60000
OOXX AUP07 19171 99/// ///// ///// ///// 26/// /3107 10062 29094 30167 91759 333 60000
OOXX AUP07 19181 99/// ///// ///// ///// 26/// /3107 10062 29094 30168 91809 333 60000
OOXX AUP07 19181 99/// ///// ///// ///// 26/// /3007 10063 29094 30167 91819 333 60000
OOXX AUP07 19181 99/// ///// ///// ///// 26/// /3009 10064 29094 30168 91829 333 60000
OOXX AUP07 19181 99/// ///// ///// ///// 26/// /3109 10064 29094 30168 91839 333 60000
OOXX PGP51 19151 99026 31508 ///// 00401 26/// /0000 10284 29079 30046 91510 333 60000
OOXX PGP51 19151 99026 31508 ///// 00401 26/// /0000 10282 29080 30043 91520 333 60000
OOXX PGP51 19151 99026 31508 ///// 00401 26/// /0000 10282 29080 30042 91530 333 60000
OOXX PGP51 19151 99026 31508 ///// 00401 26/// /0000 10283 29079 30040 91540 333 60000
OOXX PGP51 19151 99026 31508 ///// 00401 26/// /0000 10285 29078 30039 91550 333 60000
OOXX PGP51 19161 99026 31508 ///// 00401 26/// /0000 10287 29078 30036 91600 333 60000
OOXX PGP51 19161 99026 31508 ///// 00401 26/// /0000 10286 29079 30038 91610 333 60000
OOXX PGP51 19161 99026 31508 ///// 00401 26/// /0000 10283 29081 30038 91620 333 60000
OOXX PGP51 19161 99026 31508 ///// 00401 26/// /0000 10281 29082 30038 91630 333 60000
OOXX PGP51 19161 99026 31508 ///// 00401 26/// /0000 10282 29081 30038 91640 333 60000
OOXX PGP51 19161 99026 31508 ///// 00401 26/// /0000 10284 29080 30038 91650 333 60000
OOXX PGP51 19171 99026 31508 ///// 00401 26/// /0000 10285 29080 30037 91700 333 60000
OOXX PTP53 19161 99377 70257 ///// 00121 26/// /1602 10175 29001 30262 91610 333 60000
OOXX PTP53 19161 99377 70257 ///// 00121 26/// /1702 10174 29001 30262 91620 333 60000
OOXX PTP53 19161 99377 70257 ///// 00121 26/// /1002 10176 29001 30263 91630 333 60000
OOXX PTP53 19161 99377 70257 ///// 00121 26/// /0102 10176 29001 30263 91640 333 60000
OOXX PTP53 19161 99377 70257 ///// 00121 26/// /3002 10175 29001 30264 91650 333 60000
OOXX PTP53 19171 99377 70257 ///// 00121 26/// /3402 10174 29001 30263 91700 333 60000
OOXX PTP53 19171 99377 70257 ///// 00121 26/// /0202 10172 29001 30264 91710 333 60000
OOXX PTP53 19171 99377 70257 ///// 00121 26/// /0202 10172 29001 30264 91720 333 60000
OOXX PTP53 19171 99377 70257 ///// 00121 26/// /3503 10172 29001 30264 91730 333 60000
OOXX PTP53 19171 99377 70257 ///// 00121 26/// /3503 10171 29001 30264 91740 333 60000
OOXX PTP53 19171 99377 70257 ///// 00121 26/// /3604 10169 29001 30264 91750 333 60000
OOXX PTP53 19181 99377 70257 ///// 00121 26/// /3504 10168 29001 30264 91800 333 60000
OOXX MNP45 19161 99479 11063 ///// 17291 26/// /2605 11203 29081 38460 91630 333 60000
OOXX MNP45 19161 99479 11063 ///// 17291 26/// /2705 11205 29081 38458 91640 333 60000
OOXX MNP45 19161 99479 11063 ///// 17291 26/// /2705 11206 29081 38456 91650 333 60000
OOXX MNP45 19171 99479 11063 ///// 17291 26/// /2606 11207 29081 38455 91700 333 60000
OOXX MNP45 19171 99479 11063 ///// 17291 26/// /2605 11207 29080 38454 91710 333 60000
OOXX MNP45 19171 99479 11063 ///// 17291 26/// /2605 11209 29080 38454 91720 333 60000
OOXX MNP45 19171 99479 11063 ///// 17291 26/// /2606 11209 29080 38452 91730 333 60000
OOXX MNP45 19171 99479 11063 ///// 17291 26/// /2606 11207 29080 38453 91740 333 60000
OOXX MNP45 19171 99479 11063 ///// 17291 26/// /2606 11207 29080 38451 91750 333 60000
OOXX MNP45 19181 99479 11063 ///// 17291 26/// /2607 11206 29080 38451 91800 333 60000
OOXX MNP45 19181 99479 11063 ///// 17291 26/// /2607 11206 29080 38450 91810 333 60000
OOXX MNP45 19181 99479 11063 ///// 17291 26/// /2607 11207 29080 38450 91820 333 60000
OOXX FRP30 19161 99493 30703 ///// 00361 26/// /2603 10107 29073 30098 91657 333 60000
OOXX FRP30 19171 99493 30703 ///// 00361 26/// /2504 10110 29074 30097 91707 333 60000
OOXX FRP30 19171 99493 30703 ///// 00361 26/// /2505 10109 29075 30095 91717 333 60000
OOXX FRP30 19171 99493 30703 ///// 00361 26/// /2506 10109 29075 30096 91727 333 60000
OOXX FRP30 19171 99493 30703 ///// 00361 26/// /2508 10112 29072 30097 91737 333 60000
OOXX FRP30 19171 99493 30703 ///// 00361 26/// /2508 10111 29073 30094 91747 333 60000
OOXX FRP30 19171 99493 30703 ///// 00361 26/// /2507 10113 29072 30087 91757 333 60000
OOXX FRP30 19181 99493 30703 ///// 00361 26/// /2607 10116 29069 30080 91807 333 60000
OOXX FRP30 19181 99493 30703 ///// 00361 26/// /2509 10117 29068 30076 91817 333 60000
OOXX FRP30 19181 99493 30703 ///// 00361 26/// /2409 10117 29067 30078 91827 333 60000
OOXX FRP30 19181 99493 30703 ///// 00361 26/// /2410 10115 29068 30073 91837 333 60000
OOXX FRP30 19181 99493 30703 ///// 00361 26/// /2512 10114 29066 30070 91847 333 60000
OOXX RUP60 19161 99531 11588 ///// 00651 26/// /3302 11191 29075 39899 91652 333 60000
OOXX RUP60 19171 99531 11588 ///// 00651 26/// /2805 11192 29075 39899 91702 333 60000
OOXX RUP60 19171 99531 11588 ///// 00651 26/// /3202 11187 29074 39899 91712 333 60000
OOXX RUP60 19171 99531 11588 ///// 00651 26/// /2405 11189 29071 39899 91722 333 60000
OOXX RUP60 19171 99531 11588 ///// 00651 26/// /2801 11195 29074 39900 91732 333 60000
OOXX RUP60 19171 99531 11588 ///// 00651 26/// /3202 11204 29076 39900 91742 333 60000
OOXX RUP60 19171 99531 11588 ///// 00651 26/// /3002 11203 29076 39901 91752 333 60000
OOXX RUP60 19181 99531 11588 ///// 00651 26/// /3103 11200 29072 39901 91802 333 60000
OOXX RUP60 19181 99531 11588 ///// 00651 26/// /3106 11196 29074 39900 91812 333 60000
OOXX RUP60 19181 99531 11588 ///// 00651 26/// /3101 11193 29070 39900 91822 333 60000
OOXX RUP60 19181 99531 11588 ///// 00651 26/// /3002 11191 29073 39900 91832 333 60000
OOXX RUP60 19181 99531 11588 ///// 00651 26/// /3506 11195 29071 39901 91842 333 60000
OOXX KIP39 19161 99020 51574 ///// 00181 26/// /1203 10249 29077 30099 91630 333 60000
OOXX KIP39 19161 99020 51574 ///// 00181 26/// /1204 10251 29077 30101 91640 333 60000
OOXX KIP39 19161 99020 51574 ///// 00181 26/// /1204 10251 29078 30102 91650 333 60000
OOXX KIP39 19171 99020 51574 ///// 00181 26/// /1203 10251 29078 30102 91700 333 60000
OOXX KIP39 19171 99020 51574 ///// 00181 26/// /1204 10255 29076 30104 91710 333 60000
OOXX KIP39 19171 99020 51574 ///// 00181 26/// /1204 10258 29075 30106 91720 333 60000
OOXX KIP39 19171 99020 51574 ///// 00181 26/// /1105 10257 29075 30109 91730 333 60000
OOXX KIP39 19171 99020 51574 ///// 00181 26/// /1204 10262 29074 30110 91740 333 60000
OOXX KIP39 19171 99020 51574 ///// 00181 26/// /1204 10263 29072 30111 91750 333 60000
OOXX KIP39 19181 99020 51574 ///// 00181 26/// /1204 10263 29071 30111 91800 333 60000
OOXX KIP39 19181 99020 51574 ///// 00181 26/// /1105 10262 29073 30112 91810 333 60000
OOXX KIP39 19181 99020 51574 ///// 00181 26/// /1105 10268 29072 30113 91820 333 60000
AAXX 19184 40100 12960 03402 10156 20101 30154 40186 51002 60001 918// 333 10252 92427
AAXX 19184 91559 46/// /0000 10236 40069 22200 00285
AAXX 19184 71323 16/// /1501 11040 21049 39770 40056 56041 60001 333 11040 21162 70000
AAXX 19184 71390 46/// /1406 11050 6///1 333 11046 21146 7////
AAXX 19184 71715 17/// /1606 11052 21063 39848 40032 58050 60011 7//4/ 333 11052 21143 70010
AAXX 19184 71512 16/// /1707 11035 21108 30078 40092 56051 60001 333 11033 21155 70000
AAXX 19184 71212 17/// /2307 11078 21094 39219 40037 56034 60061 7//4/ 333 11077 21239 70056 555 10070
AAXX 19184 71427 16/// /2117 11065 21075 30052 40060 58056 60001 333 11061 21115 70000
AAXX 19184 71734 17/// /3216 11055 21082 39677 40070 53052 60011 7//4/ 333 10005 21074 70126
AAXX 19184 71715 17/// /1606 11052 21063 39848 40032 58050 60011 7//4/ 333 11052 21143 70010
AAXX 19184 71734 17/// /3216 11055 21082 39677 40070 53052 60011 7//4/ 333 10005 21074 70126
AAXX 19184 71212 17/// /2307 11078 21094 39219 40037 56034 60061 7//4/ 333 11077 21239 70056 555 10070
AAXX 19184 71323 16/// /1501 11040 21049 39770 40056 56041 60001 333 11040 21162 70000
AAXX 19184 71427 16/// /2117 11065 21075 30052 40060 58056 60001 333 11061 21115 70000
AAXX 19184 71390 46/// /1406 11050 6///1 333 11046 21146 7////
AAXX 19184 71512 16/// /1707 11035 21108 30078 40092 56051 60001 333 11033 21155 70000
AAXX 19184 89016 46/89 /1811 11027 29082 39493 4//// 5////
AAXX 19184 91531 46/// /0604 1//// 40057 22200 00269
AAXX 1918/ 89667 46/// ///// 4//// 5//// 91840
AAXX 19184 71016 16/// ///// 10022 60001 333 10024 21146 70028
AAXX 19184 71746 16/// /2607 10084 20016 39888 40108 58003 60001 333 10087 20006 70000
BBXX 46145 19181 99544 71324 46/// /1708 10078 40024 57026 22200 00072 11205 70024 333 91209
BBXX 46145 19181 99544 71324 46/// /1708 10078 40024 57026 22200 00072 11205 70024 333 91209
AAXX 19184 71016 16/// ///// 10022 60001 333 10024 21146 70028
AAXX 19184 71746 16/// /2607 10084 20016 39888 40108 58003 60001 333 10087 20006 70000
AAXX 19184 91642 46/// /0000 1//// 40091 22200 0////
BBXX 46109 19181 99481 71234 46/// /2201 10068 40307 91757 22200 00079
BBXX 46110 19181 99481 71230 46/// /0000 10075 40309 91758
BBXX 46094 19181 99446 71243 46/// /0303 10080 91830
BBXX 46094 19181 99446 71243 46/// /0503 10080 91820
BBXX 46094 19181 99446 71243 46/// /0304 10079 91810
BBXX 46094 19181 99446 71243 46/// /0504 10079 91800
BBXX 46094 19181 99446 71243 46/// /0104 10079 91750
BBXX 46094 19181 99446 71243 46/// /0303 10080 91740
BBXX 44056 19181 99362 70757 46/// ///// 1//// 91820 22200 00109 11002 21002 307// 41101 70009
BBXX 44055 19181 99391 70753 46/// ///// 1//// 91830 22200 00080 10301 70006
AAXX 19184 89020 46/// /0204 11022 21050 39899 49934 52005 91820
BBXX WCZ5238 19183 99179 11757 41/// /0918 10260 20217 40160 51040 7//00 8/2// 22263 00270 20805 309// 41206 5//// 6//// 80230 ICE /////
BBXX WCZ5238 19183 99179 11757 41/// /0918 10260 20217 40160 51040 7//00 8/2// 22263 00270 20805 309// 41206 5//// 6//// 80230 ICE /////
BBXX 44056 19181 99362 70757 46/// ///// 1//// 91820 22200 00109 11002 21002 307// 41101 70009
BBXX 44055 19181 99391 70753 46/// ///// 1//// 91830 22200 00080 10301 70006
BBXX 46094 19181 99446 71243 46/// /0304 10079 91810
BBXX 46094 19181 99446 71243 46/// /0303 10080 91830
BBXX 46094 19181 99446 71243 46/// /0504 10079 91800
BBXX 46094 19181 99446 71243 46/// /0503 10080 91820
BBXX 46094 19181 99446 71243 46/// /0104 10079 91750
BBXX 46094 19181 99446 71243 46/// /0303 10080 91740
BBXX 46109 19181 99481 71234 46/// /2201 10068 40307 91757 22200 00079
BBXX 46110 19181 99481 71230 46/// /0000 10075 40309 91758
BBXX 46145 19181 99544 71324 46/// /1708 10078 40024 57026 22200 00072 11205 70024 333 91209
BBXX 66022 19181 99541 10142 46/// /2210 10038 30120 22200 00041
BBXX AMOUK04 19184 99533 70062 46/// ///// 10093 20067 30107 4//// 52012 91750
BBXX TBWUK35 19184 99529 70112 41/// 83224 10099 20076 40157 50015 70222 8//// 22283 00120 2//// 80088
AAXX 19184 60640 12960 03406 10140 21035 40222 53012 60002 333 10160
AAXX 19184 71514 16/// /2407 11069 21106 39534 40257 58012 60001 333 11069 21165 70000
AAXX 19184 71514 16/// /2407 11069 21106 39534 40257 58012 60001 333 11069 21165 70000
AAXX 19183 63695 32980 02703 10157 20142 333 10247
AAXX 19183 63714 32480 33607 10181 20119 48492 81530 333 10260 59002 81619 83359
AAXX 19184 92036 46/// /3602 10276 40038 22200 00315
BBXX 63110 19184 99595 10015 47799 /1709 10050 21051 40009 57012 700// 22200 10704 70021
BBXX 63106 19184 99610 10017 46/// /1811 10038 40008 57009 22200
BBXX 63113 19184 99610 10017 46/// /1507 10036 21010 40009 57009 22200 10704 70022
BBXX 62305 19184 99504 10000 46/95 /2522 10099 20095 40111 58032 22200 00119 10602 70008 333 90710 91129
BBXX 62105 19184 99554 70122 46/// /2823 10093 20064 40096 53014 22200 106//
BBXX 64046 19184 99591 70117 46/// ///// 10054 20022 40028 53023 22200 00102 10707 70037
BBXX 64049 19183 99571 10022 41/97 52411 10060 20044 40018 57014 70222 8//// 22200 04092 20604 330// 40606 5//// 80053
BBXX 62107 19184 99501 70061 46/// /3121 10109 20099 40153 52012 22200 00116 10704 70020 333 90710 91130
BBXX 62303 19184 99516 70051 46/// /2817 10115 20094 40128 53018 22200 00109 10605 70027
BBXX 62094 19184 99517 70067 46/// /2916 10111 20088 40140 52019 22200 00107 10503 70017
BBXX 62103 19184 99499 70029 46/98 /2929 10118 20105 40122 55003 22200 00122 10705 70024 333 90710 91141
BBXX 62095 19184 99530 70159 46/// /2915 10102 20070 40190 52021 22200 00113 10605 70027
BBXX GHJV 19184 99372 70114 41598 10410 10149 20084 40296 53002 70200 81100 22261 02173 20401 306// 40502 80116
AAXX 19181 15150 01597 82800 11001 21005 39983 40203 57004 69922 77172 8457/ 333 10001 21076 31001 69927 91001 91101
AAXX 19184 93713 46/// /0000 10146 40192 22200 00172
BBXX 3FMV6 19183 99006 30073 41498 71814 10260 20231 40087 53010 75052 85778 22244 06273 20801 80240
BBXX BATFR45 19184 99006 30515 46/// ///// 10279 20242 40130 53019 22214 00307
BBXX BATFR19 19184 99065 30060 46/// /2014 10234 20199 40116 53004 22200 00257
BBXX PCSV 19180 99112 30654 41/97 63006 10261 20232 40111 52003 71382 8//// 22253 04288 20603 80240 90535
BBXX BATFR55 19184 99124 30504 44898 13022 10282 20252 40101 70000 81040 22272 00285 212// 33030 413// 513//
BBXX MRWF2 19184 99139 31076 41498 21416 10272 2022/ 40080 56010 70200 821// 22274 00294 20401 318// 40903 5//// 6//// 80237 ICE /////
BBXX DAJT 19184 99164 30671 41698 31116 10265 20223 40090 52015 70100 8/44/ 22254 04260 80235
BBXX A8YW2 19184 99171 30713 41/98 31318 10265 20236 40131 55008 76061 8//// 22214 00260 20703 80245
BBXX OVYB2 19181 99258 30534 41498 30410 10260 20228 40123 54000 70100 8117/ 22253 00270 20503 31700 40804 5//// 80238
BBXX SHIP 19184 99277 31083 41498 21618 10203 20141 40123 56019 70100 81109 22232 00222 11205 20202 314// 41004
BBXX ONCE 19184 99291 30614 41497 71219 10205 2//// 40210 5//// 70404 80404 222// 01042 20016 30401 40025 502// 6/993 ICE /////
BBXX ONDY 19184 99309 30164 41899 11823 10190 2012/ 40160 54000 70100 81//6 22234 00190 20306 31819 40406 50204 6//// 80150 ICE /////
BBXX A8ZS7 19184 99357 30159 41698 21808 10210 20147 40185 53010 70100 82060 22264 04190 20501 322// 40602 80170
BBXX DBBT 19181 99396 30069 46/// /2915 10138 20108 40140 52002 22213 00133
BBXX 2AJI3 19183 99098 70166 41998 00000 10286 20193 40128 55/// 70200 80000 22234 00270 20000 300// 4//// 5//// 80225
BBXX BATFR04 19184 99598 70107 46/// /2832 10057 20015 49996 52015 22200 00102
BBXX 64045 19184 99591 70117 46/// /2925 10054 20022 40028 53023 22200 00102 10707 70037 333 90710 91144
BBXX 62112 19184 99584 70002 47498 /1513 10058 20013 49995 57024 762// 22200
BBXX 62113 19184 99584 10002 47599 /1612 10053 20001 49995 57024 700// 22200
BBXX 62129 19184 99584 10003 46/// ///// 10057 20003 49996 57024 22200
BBXX 62114 19184 99583 10000 46/// /1514 10057 20010 49995 57025 22200
BBXX BATUK01 19184 99582 70060 46/// /3004 10079 20037 49991 51020 22241 00109
BBXX PJAI 19184 99581 70014 47499 /2214 10060 20021 49978 57022 700// 22200
BBXX 62111 19184 99580 70003 46/// /1909 10062 20029 49992 57025 22200 10604 70020
BBXX AMOUK27 19184 99579 70053 46/// ///// 11185 2//// 39981 49984 52011 91750
BBXX 62117 19184 99579 10000 47296 /1511 10063 20018 49997 57025 762// 22200 10704 70018
BBXX MINUK01 1918/ 99571 70021 46/// ///// 10030 40000 57012
BBXX 62105 19184 99554 70122 46/// /2823 10093 20064 40116 53014 22200 00105 10607 70035 333 90710 91133
BBXX EIPT 19184 99548 70057 41/96 /3114 10090 20071 40076 51010 70222 8//// 22200 2//// 3//// 4//// 5//// 80080
BBXX AMOUK14 19184 99535 70052 46/// ///// 10099 20067 30063 40096 54001 91750
BBXX AMOUK12 19184 99534 70058 46/// ///// 10098 20072 30073 40112 52006 91750
BBXX 62095 19184 99530 70159 46/// /2915 10102 20070 40190 52021 22200 00113 10605 70027
BBXX BAREU00 19184 99529 70054 46/// ///// 40106 57005 22214
BBXX 62301 19184 99524 70047 46/// /3009 10099 20067 40116 53026 22200 00093 10604 70019
BBXX 62094 19184 99517 70067 46/// /29// 10111 20088 4//// 5//// 22200 00107 10504 70018
BBXX 62303 19184 99516 70051 46/// /2816 10115 20094 40128 53018 22200 00109 10605 70027
BBXX 62023 19183 99514 70079 46/97 /3015 10103 2//// 40162 5//// 22200 10604 70020 555 70030 81011
BBXX 62081 19184 99510 70134 46/// ///// 10108 20070 40204 52023 22200 00119 10606 70028
BBXX BATFR27 19184 99507 70010 46/// /2725 10112 20074 40086 58047 22265 00099
BBXX BATEU01 19184 99506 70282 44597 81722 10104 20094 40176 55/// 70222 83545 22224 00112 21004 327// 41004 5////
BBXX 62305 19184 99504 10000 46/95 /2522 10099 20095 40111 58032 22200 00119 10602 70008 333 90710 91129
BBXX WKAE 19183 99502 70015 41497 82834 10110 20101 40192 56048 76361 887// 22264 00120 2//// 3//// 4//// 5//// 6//// 80105 /////
BBXX AMOUK08 19184 99501 70061 46/// ///// 10113 20108 30148 40153 54003 91750
BBXX AUTQ 19184 99501 70009 42/97 92711 10110 20072 40076 56028 70201 89/// 22224 00140
BBXX BATFR03 19184 99500 70005 44396 82533 10102 20099 40103 75322 877// 22284 20202
BBXX TESTFR9 19184 99499 70039 46/// /2838 10117 29096 40130 57029 22274
BBXX 62103 19184 99499 70029 46/97 /2929 10117 20103 40120 56017 22200 00122 10704 70021 333 90710 91142
BBXX WDD3826 19184 99491 70178 41397 83013 10150 2013/ 40245 52010 7//22 886// 22224 00130 20301 318// 40703 5//// 6//// 80140 ICE /////
BBXX 62027 19184 99491 70022 46/// /3025 1//// 2//// 40148 57013 22200 00112 10705 334// 70025 333 90710 91131
BBXX 62442 19184 99490 70164 46/// /3009 1//// 2//// 40236 53018 22200 00127
BBXX 62029 19184 99487 70125 46/// /3016 10119 20110 40212 53016 22200 00130 10605 70024
BBXX BATFR60 19184 99485 70058 46/// /2622 10120 20110 40181 53022 22233 00115
BBXX PEBT 19183 99484 70058 41296 82725 10110 20076 40180 58010 7//62 887// 22213 02100 20603 328// 40905 5//// 80092
BBXX BATFR12 19184 99481 70075 46/// /2711 10134 20115 40189 58004 22200 00144
BBXX 62163 19184 99475 70084 46/// /2814 10124 20113 40208 53003 22200 00127 10605 70025
BBXX BAREU08 19184 99472 70112 46/// ///// 40223 57005 22214
BBXX BATFR54 19184 99472 70031 46/// /2634 10120 20090 40189 22263 00127
BBXX A8XY2 19184 99468 70148 41/93 /3015 10120 20120 40231 52026 74554 8//// 22254 04120 2//// 80120
BBXX PBBB 19180 99460 70192 41/94 /2806 10130 20113 40272 52014 74544 8//// 22253 20302 327// 40504 5//// 80120
BBXX 62163 19184 99455 70084 46/// /2814 10124 20113 40208 53001 22200 00125 10605 70025
BBXX PDHW 19183 99454 70280 41297 82420 40261 52020 71042 887// 22263 20602 325// 41206
BBXX 62001 19184 99453 70050 46/// /2621 10130 20081 40250 52006 22200 00143 10505 70026 333 90710 91128
BBXX C6KD4 19183 99449 70147 41297 82620 10135 20135 40256 51018 7//22 887// 22254 02140 20804 327// 41204 80135
BBXX BATFR16 19184 99445 70148 46/// /3017 10135 20129 40260 53025 22264 00147
BBXX C6IO9 19183 99419 70109 41798 42317 10135 20062 40298 53015 70100 8/065 22243 06155 21401 333// 40803 5//// 80100
BBXX PJFF 19184 99387 70217 41397 60000 10209 20180 40320 52010 70222 8607/ 22254 20000 308// 40803 80190
BBXX MINFR05 1918/ 99370 70125 46/// ///// 4//// 5////
BBXX DBBH 19181 99368 70117 41398 10407 10145 20053 40297 52006 70100 81200 22251 04180 20602 332// 41103
BBXX A8AF6 19183 99356 70133 41598 60514 10150 20076 40290 54000 70311 865// 22243 02180 20202 336// 40703 80110
BBXX DBIP 19180 99356 70080 41498 30610 10175 20090 40245 54000 70200 82440 22223 04180 20503 3//// 4//// 5//// 80127
BBXX WRAH 19183 99351 70124 41598 30519 10160 2//// 40254 53012 70300 831// 22264 00195 20303 302// 40606 5//// 6//// 8//// ICE /////
BBXX ONFP 19183 99256 30583 43595 80837 10240 2021/ 40150 51010 7//11 88761 22212 04240 20308 30909 40308 50308 6//// 80220 /////
BBXX 2AJI3 19183 99098 70166 41998 00000 10286 20193 40128 55/// 70200 80000 22234 00270 20000 300// 4//// 5//// 80225
BBXX 61001 19184 99434 10078 46/// /0607 10109 21047 40158 52016 22200 00150 10602 70009
BBXX BATEU09 19184 99430 10104 46/// /0614 10092 21048 40159 52010 22242 00170
BBXX 61002 19184 99421 10047 46/// ///28 10105 2//// 40216 52010 22200 00140 10705 70026 555 1/034
BBXX BAREU62 19184 99406 10132 46/// ///// 40125 52005 22234
BBXX SHIP 19183 99405 10270 41597 61810 10150 2010/ 40140 54000 7//22 86165 22200 00120 2//// 3//// 4//// 5//// 6//// 80120 /////
BBXX BAREU56 19184 99384 10122 46/// ///// 40152 52025 22252
BBXX BAREU51 19184 99380 10122 46/// ///// 40134 52011 22275
BBXX WKAB 19184 99371 10056 41/98 32922 10110 20061 40249 53003 70000 8//// 22224 00164 2//// 336// 4//// 5//// 6//// 80085 ICE /////
BBXX A8DH2 19183 99367 10007 41498 32508 10151 20026 10266 53005 70211 83578 22224 04174 20102 80095
BBXX BAREU63 19184 99356 10249 46/// /1413 10172 29065 40141 52001 22263
BBXX BATFR11 19184 99351 10185 46/// /1509 10149 20072 40144 52010 22263 00192
OOXX AAPIG 19184 99758 51003 56251 08502 46/// /1011 11110 21274 38935 49925 5//// 91800
AAXX 19184 91689 46/// /3528 10251 40095 22200 00253
AAXX 1918/ 89868 46/// ///// 11113 39829 4//// 5////
AAXX 1918/ 89869 46/// ///// 11094 39838 4//// 5////
AAXX 1918/ 89866 46/// ///// 11073 39800 4//// 5//// 91810
AAXX 1918/ 89329 46/// ///// 11126 38669 4//// 5//// 91810
AAXX 1918/ 89799 46/// ///// 11234 4//// 5////
AAXX 1918/ 89868 46/// ///// 11115 39830 4//// 5////
AAXX 1918/ 89108 46/// ///// 11226 36935 4//// 5////
AAXX 1918/ 89332 46/// ///// 11064 39099 4//// 5//// 91810
AAXX 1918/ 89314 46/// ///// 11143 38192 4//// 5////
BBXX ZSAF 19184 99671 50023 41899 31710 11012 21026 49840 52004 70100 82071 22251 05011 20000 30000 40000 50000 ICE 48014
BBXX FHZI 19184 99636 31468 46/// /0229 10008 2//// 39859 49870 5//// 22211 05012
BBXX ZMFR 19184 99490 31666 43/// /36// 10083 20070 40221 52012 22241 00115
BBXX ZMENA 19184 99413 31733 46/// ///// 10127 20087 40205 52015 22200
BBXX V2QD4 19183 99342 31731 41598 62214 10170 20154 40166 54000 70311 85873 22273 00160 20401 320// 40802
BBXX ZMFR 19184 99490 31666 43/// /36// 10083 20070 40221 52012 22241 00115
BBXX ZMENA 19184 99413 31733 46/// ///// 10127 20087 40205 52015 22200
BBXX V2QD4 19183 99342 31731 41598 62214 10170 20154 40166 54000 70311 85873 22273 00160 20401 320// 40802
BBXX AMOUK04 19184 99533 70062 46/// ///// 10093 20067 30107 4//// 52012 91750
BBXX TBWUK35 19184 99529 70112 41/// 83224 10099 20076 40157 50015 70222 8//// 22283 00120 2//// 80088
BBXX VRCZ7 19183 99490 70048 41/96 81627 10120 20110 40168 57/// 70322 8//// 22214 2//// 3//// 4//// 5//// 80115
BBXX DDYZ2 19184 99452 70083 41/96 82526 10130 20113 40255 58005 71022 8//// 22213 04140 2//// 80120
BBXX GHJV 19184 99372 70114 41598 10410 10149 20084 40296 53002 70200 81100 22261 02173 20401 306// 40502 80116
BBXX ZNQO3 19180 99363 70037 41698 31603 10150 20056 40273 52002 70200 821// 22264 04163 2//// 3//// 4//// 5//// 80105
OOXX AABRI 19184 99839 51342 60134 05251 46/// /0921 11106 21193 39204 49833 5//// 91800
OOXX AAPEG 19184 99779 31666 57186 00051 46/// /1611 11066 21133 39910 49916 5//// 91810
OOXX AAERI 19184 99849 51288 60048 09901 46/// /0930 11139 21162 38741 49881 5//// 91810
OOXX AAVIT 19184 99785 31778 57087 00501 46/// /2012 11144 21185 39821 49886 5//// 91800
OOXX AAERC 19184 99815 31639 60713 00451 46/// /2806 11098 21143 39842 49899 5//// 91800
OOXX AAEMI 19184 99785 31731 57083 00521 46/// /2218 11139 21182 39868 49936 5//// 91810
BBXX GHJV 19184 99372 70114 41598 10410 10149 20084 40296 53002 70200 81100 22261 02173 20401 306// 40502 80116
BBXX 2AJI3 19183 99098 70166 41998 00000 10286 20193 40128 55/// 70200 80000 22234 00270 20000 300// 4//// 5//// 80225
BBXX SKEC 19181 99546 10111 46/// ///// 10033 40057 57033 22231 00072
AAXX 19181 38847 417// 71802 11025 21044 40402 52024 70272 86553
BBXX 46145 19181 99544 71324 46/// /1708 10078 40024 57026 22200 00072 11205 70024 333 91209
AAXX 19184 04418 NIL
AAXX 19184 04425 NIL
AAXX 19184 04432 NIL
AAXX 19184 04436 NIL
AAXX 19184 04464 46/// /1801 11362 21396 333 553// 20004
AAXX 19184 04485 46/// /1608 11380 21404 37187 52003 333 553// 20000
AAXX 19184 04488 NIL
AAXX 19184 89108 46/// /0708 11225 36930 4//// 5//// 91810
AAXX 19184 89314 46/// /0820 11141 38190 4//// 5//// 91810
AAXX 19184 89327 46/// /0000 11012 39580 49857 52001 91750
AAXX 19184 89329 46/// /0411 11126 38668 49742 5//// 91800
AAXX 19184 89332 46/// /0812 11064 39098 49703 5//// 91800
AAXX 19184 89376 46/// /2219 11125 39762 49831 5//// 91800
AAXX 19184 89667 46/// /1611 11066 39910 49920 5//// 91810
AAXX 19184 89734 46/// /0011 11200 36107 4//// 5//// 91810
AAXX 19184 89744 46/// /3613 11233 36490 4//// 52005 91820
AAXX 19184 89769 46/// /2223 11100 39847 49901 5//// 91800
AAXX 19184 89799 46/// /2709 11235 36748 4//// 5//// 91800
AAXX 19184 89828 46/// /3209 11339 36482 4//// 5//// 91810
AAXX 19184 89832 46/// /0626 11018 39504 49795 5//// 91800
AAXX 19184 89834 46/// /1232 11112 38109 4//// 5//// 91800
AAXX 19184 89865 46/// ///// 1//// 3//// 4//// 5//// 91800
AAXX 19184 89866 46/// /1308 11072 39785 49921 5//// 91800
AAXX 19184 89868 46/// /2112 11115 39826 49895 57014 91800
AAXX 19184 89869 46/// /2709 11100 39833 49913 57014 91810
AAXX 19184 89872 46/// /2118 11084 39844 49901 57007 91800
AAXX 19184 89873 46/// /2509 11099 39802 49881 5//// 91750
AAXX 19184 89879 46/// /0000 11014 39802 49839 5//// 91800
AAXX 19184 71895 16/// ///// 11028 21081 60001 333 11028 21141 7////
AAXX 19184 71895 16/// ///// 11028 21081 60001 333 11028 21141 7////
BBXX 63110 19183 99595 10015 41/98 /1610 10049 40005 700// 8//// 22200 10704 70020
BBXX 62303 19184 99516 70051 46/// /2816 10115 20094 40128 53018 22200 00109 10605 70027
BBXX 62105 19184 99554 70122 46/// /2823 10093 20064 40116 53014 22200 00105 10607 70035 333 90710 91133
BBXX 64045 19184 99591 70117 46/// /2925 10054 20022 40028 53023 22200 00102 10707 70037 333 90710 91144
BBXX AMOUK08 19184 99501 70061 46/// ///// 10113 20108 30148 40153 54003 91750
BBXX PJGO 19184 99571 10022 47397 /2003 10058 20014 40021 57021 751// 22200
BBXX 63106 19184 99610 10017 46/// /1811 10038 40008 57009 22200
BBXX 63105 19184 99610 10017 47598 ///// 10044 21013 40008 57008 751// 22200
BBXX 62094 19184 99517 70067 46/// /29// 10111 20088 4//// 5//// 22200 00107 10504 70018
BBXX 62103 19184 99499 70029 46/97 /2929 10117 20103 40120 56017 22200 00122 10704 70021 333 90710 91142
BBXX 62305 19184 99504 10000 46/95 /2522 10099 20095 40111 57032 22200 10602 70008
BBXX 62095 19184 99530 70159 46/// /2915 10102 20070 40192 52021 22200 00113 10605 70027
BBXX 42013 19181 99272 70829 46/// ///// 1//// 40223 91820 22200 00197
BBXX 42013 19181 99272 70829 46/// ///// 1//// 40225 58017 91800 22200 00197
BBXX ZMENA 19184 99413 31733 46/// ///// 10127 20087 40205 52015 22200
BBXX V2QD4 19183 99342 31731 41598 62214 10170 20154 40166 54000 70311 85873 22273 00160 20401 320// 40802
BBXX ZMFR 19184 99490 31666 43/// /36// 10083 20070 40221 52012 22241 00115
BBXX FHZI 19184 99636 31468 46/// /0229 10008 2//// 39859 49870 5//// 22211 05012
BBXX ZSAF 19184 99671 50023 41899 31710 11012 21026 49840 52004 70100 82071 22251 05011 20000 30000 40000 50000 ICE 48014
BBXX 9V7955 19183 99216 71092 41697 33627 10255 2025/ 40160 54040 7//11 83131 22274 00255 20104 33636 40104 50104 6//// 80250 ICE /////
BBXX SKEC 19181 99546 10111 46/// ///// 10033 40057 57033 22231 00072
AAXX 19184 71408 46/// /3624 11044 21087 30021 40101 58026 6///1 333 11038 21061 7////
AAXX 19184 71408 46/// /3624 11044 21087 30021 40101 58026 6///1 333 11038 21061 7////
OOXX AALAU 19184 99775 31708 57070 00371 46/// /2415 11114 21145 39858 49906 5//// 91800
OOXX AAMIZ 19184 99707 30443 58304 22602 46/// /0720 11138 2//// 37467 49690 5//// 91810
AAXX 19181 98132 31460 80707 10215 20189 40187 58021 70544 8487/ 333 56199 84816 88357
AAXX 19181 98133 NIL
AAXX 19181 98222 31575 30402 10226 20210 40107 58010 70544 81206 333 56199 81820 83078
AAXX 19181 98233 11565 80000 10228 20224 40128 58011 60191 76166 885// 333 56999 88620
AAXX 19181 98324 31462 40701 10268 20244 40092 58013 70544 81101 333 56999 81816 84080
AAXX 19181 98327 31665 83203 10238 20207 39933 40107 57016 70544 8447/ 333 56999 84636 88359
AAXX 19181 98334 11460 83605 10226 20224 39910 40116 57018 60031 76062 8352/ 333 56999 83616 88458
AAXX 19181 98425 32557 80201 10268 20230 40090 57021 8287/ 333 56999 82620 88359
AAXX 19181 98426 31568 20701 10256 20212 40101 57015 70544 81170 333 56999 81820
AAXX 19181 98427 11475 43603 10247 20231 39901 40078 58019 69951 70182 82260 333 56119 82818 84356
AAXX 19181 98428 32458 50401 10270 20243 40101 58011 82434 333 56999 82618 83360
AAXX 19181 98432 31568 20000 10256 20240 40095 57019 70544 81202 333 56999 81820
AAXX 19181 98433 31460 50404 10218 20204 39383 40100 58017 70311 84230 333 56999 84812
AAXX 19181 98434 11460 83602 10252 20249 30095 40103 58012 60031 76062 8552/ 333 56199 85617 88457
AAXX 19181 98435 32470 60402 10260 20241 40090 5//// 83270 333 56999 83818 85358
AAXX 19181 98442 NIL
AAXX 19181 98446 11470 63201 10256 20248 30056 40102 58015 83201 333 56999 83818 85070
AAXX 19181 98447 11470 80703 10248 20238 39825 40088 5//// 60031 70382 84207 333 56299 84818 88270
AAXX 19181 98538 NIL
AAXX 19181 98546 NIL
AAXX 19181 98548 32465 10000 10246 20235 30084 40090 58014 81100 333 56999 81816
AAXX 19181 98553 11464 53202 10260 20251 30075 40079 57020 60021 72584 85900 333 56999 82915 84818
AAXX 19181 98558 11466 80306 10270 20257 40071 58021 60071 71582 8497/ 333 56999 82915 88357
AAXX 19181 98642 32465 20402 10260 20247 30064 40073 58018 82100 333 56999 82815
AAXX 19181 98644 32464 60000 10255 20242 30072 40081 58013 81278 333 56999 81817 84272
AAXX 19181 98648 31470 60901 10255 20228 30000 40082 57020 70544 83202 333 56299 82817 85072
AAXX 19181 98746 31462 71201 10246 20218 40071 58027 70544 82278 333 56999 82818 84358 86275
AAXX 19181 98751 32470 20000 10190 20183 39390 40058 57012 82100 333 56199 82815
AAXX 19181 98752 32462 70000 10252 20238 40080 57014 82270 333 56999 82818 87358
AAXX 19181 98851 32470 22701 10244 20210 39923 40071 58010 82100 333 56999 82818
BBXX 42369 19181 99272 70903 46/// /1506 1//// 91740 22200 10402 70010
BBXX 42370 19181 99273 70905 46/// ///// 10222 91740 22200 10603 70013
AAXX 1918/ 89828 46/// ///// 11339 36512 4//// 5//// 91830
AAXX 1918/ 89108 46/// ///// 11219 36933 4//// 5//// 91830
AAXX 1918/ 89879 46/// ///// 11015 39819 4//// 5//// 91830
AAXX 1918/ 89872 46/// ///// 11088 39845 4//// 5//// 91830
AAXX 1918/ 89869 46/// ///// 11111 39835 4//// 5//// 91830
AAXX 1918/ 89799 46/// ///// 11231 4//// 5//// 91830
AAXX 1918/ 89769 46/// ///// 11094 39852 4//// 5//// 91830
AAXX 1918/ 89314 46/// ///// 11143 38190 4//// 5//// 91830
AAXX 19184 89807 46/// /2148 10002 29096 39482 4//// 5//// 91830 333 90700 91160
AAXX 19184 89807 46/// /2148 10002 29096 39482 4//// 5//// 91830 333 90700 91160
AAXX 1918/ 89868 46/// ///// 11119 39827 4//// 5//// 91820
AAXX 19184 17067 12670 71004 10141 20080 30129 40151 58005 69902 87200 333 10173 87840 92408
BBXX 42376 19181 99291 70879 46/// /1208 10219 40193 91740 22200 10302 70010
BBXX 42887 19181 99282 70885 46/// /1104 1//// 91740 22200 10502 70010
BBXX 42370 19181 99273 70905 46/// ///// 10222 91740 22200 10603 70013
BBXX 42369 19181 99272 70903 46/// /1506 1//// 91740 22200 10402 70010
BBXX 42013 19181 99272 70829 46/// ///// 1//// 40225 58017 91800 22200 00197
BBXX 42013 19181 99272 70829 46/// ///// 1//// 40223 91820 22200 00197
BBXX A8CG7 19184 99013 31073 41397 60110 10260 20232 40060 54000 70386 84770 22234 04260 20304 80240
BBXX DDGK2 19184 99150 11123 41597 70420 10245 20224 40100 57015 70266 8687/ 22213 00250 2//// 80230
BBXX A8SZ5 19184 99179 31170 41598 22409 10270 20243 40040 55010 703// 8/1// 22243 00/// 2//02 80250
BBXX 63110 19184 99595 10015 47799 /1709 10050 21051 40009 57012 700// 22200 10704 70021
BBXX 63106 19184 99610 10017 46/// /1811 10038 40008 57009 22200
BBXX 63113 19184 99610 10017 46/// /1507 10036 21010 40009 57009 22200 10704 70022
BBXX 62305 19184 99504 10000 46/95 /2522 10099 20095 40111 58032 22200 00119 10602 70008 333 90710 91129
BBXX 62105 19184 99554 70122 46/// /2823 10093 20064 40096 53014 22200 106//
BBXX 64046 19184 99591 70117 46/// ///// 10054 20022 40028 53023 22200 00102 10707 70037
BBXX 64049 19183 99571 10022 41/97 52411 10060 20044 40018 57014 70222 8//// 22200 04092 20604 330// 40606 5//// 80053
BBXX 62107 19184 99501 70061 46/// /3121 10109 20099 40153 52012 22200 00116 10704 70020 333 90710 91130
BBXX 62303 19184 99516 70051 46/// /2817 10115 20094 40128 53018 22200 00109 10605 70027
BBXX 62094 19184 99517 70067 46/// /2916 10111 20088 40140 52019 22200 00107 10503 70017
BBXX 62103 19184 99499 70029 46/98 /2929 10118 20105 40122 55003 22200 00122 10705 70024 333 90710 91141
BBXX 62095 19184 99530 70159 46/// /2915 10102 20070 40190 52021 22200 00113 10605 70027
AAXX 19181 20667 31998 51106 11124 21137 30176 40183 57007 70232 85030 333 11096
BBXX V7HP4 19184 99260 70902 41898 21721 1//// 2//// 40220 56030 7//22 82188 22233 04250 2//// 3//// 4//// 5//// 6//// 8//// ICE /////
BBXX V7HP4 19184 99260 70902 41898 21721 1//// 2//// 40220 56030 7//22 82188 22233 04250 2//// 3//// 4//// 5//// 6//// 8//// ICE /////
BBXX 42887 19181 99282 70885 46/// /1104 1//// 91740 22200 10502 70010
BBXX 42376 19181 99291 70879 46/// /1208 10219 40193 91740 22200 10302 70010
BBXX 3FBC9 19184 99123 71189 41798 60621 10260 40113 51018 70322 86549 9//// 22233 00260 20304 307// 40305 5//// 6//// 80240
BBXX DDGK2 19184 99150 11123 41597 70420 10245 20224 40100 57015 70266 8687/ 22213 00250 2//// 80230
BBXX A8SZ5 19184 99179 31170 41598 22409 10270 20243 40040 55010 703// 8/1// 22243 00/// 2//02 80250
BBXX A8CG7 19184 99013 31073 41397 60110 10260 20232 40060 54000 70386 84770 22234 04260 20304 80240
AAXX 19184 97690 32430 30000 10254 20236 39940 40041 57013 81201 333 56000 57800 81817
BBXX A8CG7 19184 99013 31073 41397 60110 10260 20232 40060 54000 70386 84770 22234 04260 20304 80240
AAXX 19184 89257 46/// /0502 11009 21036 39871 49940 5//// 91810
AAXX 19184 89272 46/// /1406 11077 21105 38112 49736 5//// 91810
AAXX 19184 97192 11430 80000 10252 20246 30028 40085 57005 60021 70396 8522/ 333 56009 85616 88460
AAXX 19181 20069 41336 81810 11018 21021 30102 40115 57007 77173 8572/ 333 85709 91113 92982
AAXX 19181 20292 42998 02405 11297 21321 30264 40286 53001 333 91107 96510
AAXX 19181 20046 11498 82902 11043 21049 30056 40088 52005 69940 70232 885// 333 11023
AAXX 19183 64800 NIL
AAXX 19183 64820 NIL
AAXX 19183 64860 32960 70000 10276 20093 39830 40100 80002 333 10340 58010 87080
AAXX 19183 64861 NIL
AAXX 19183 64870 32960 70802 10200 20098 38906 48497 80002 333 10302 58010 87080
AAXX 19183 64871 NIL
AAXX 19183 64892 NIL
AAXX 19183 64893 NIL
AAXX 19183 64894 NIL
AAXX 19184 64910 31430 70000 10275 20236 30086 40095 70522 83302 333 10310 58003 83616 81920 85080 94945 95835
AAXX 19184 64911 NIL
AAXX 19184 64950 NIL
AAXX 19184 89013 46/// /2910 11157 21180 37654 49653 52004 91800
AAXX 19184 89257 46/// /0503 11012 21038 39871 49940 52008 91800
AAXX 19184 89266 46/// /2006 11022 21044 39795 49933 5//// 91800
AAXX 19184 89272 46/// /1405 11077 21104 38111 49735 52009 91800
AAXX 19184 91375 46/// /0410 10273 40073 22200 00283
BBXX 42369 19181 99272 70903 46/// /1507 1//// 91800 22200 10402 70010
BBXX 42370 19181 99273 70905 46/// ///// 10222 91800 22200 10603 70013
BBXX 42376 19181 99291 70879 46/// /1407 10220 40188 58029 91800 22200 10402 70011
BBXX 42887 19181 99282 70885 46/// /1306 1//// 91800 22200 10502 70010
AAXX 19184 91165 12766 80514 10228 20183 30155 40192 53016 69951 91753
AAXX 19184 91212 12566 61308 10256 20233 31353 40091 55007 69901 91754
AAXX 19184 91245 32566 20812 10260 20240 30144 91755
AAXX 19184 91285 11561 60605 10222 20183 30165 40177 53017 60021 761// 91753
AAXX 19184 91334 11471 80312 10258 20239 30054 40057 55005 60191 78082 8337/
AAXX 19184 91376 32474 80611 10278 20230 30071 40075 53008 83808
AAXX 19184 91408 32473 60806 10272 20250 30019 40057 57012 82208
AAXX 19184 91413 32469 40810 10272 20226 30052 40078 57012 82201
AAXX 19184 91155 NIL
AAXX 19184 91203 NIL
AAXX 19184 91217 NIL
AAXX 19184 91232 NIL
AAXX 19184 91250 NIL
AAXX 19184 91275 NIL
AAXX 19184 91317 NIL
AAXX 19184 91324 NIL
AAXX 19184 91339 NIL
AAXX 19184 91348 NIL
AAXX 19184 91353 NIL
AAXX 19184 91356 NIL
AAXX 19184 91366 NIL
AAXX 19184 91367 NIL
AAXX 19184 91369 NIL
AAXX 19184 91371 NIL
AAXX 19184 91378 NIL
AAXX 19184 91425 NIL
AAXX 19184 91434 NIL
AAXX 19184 91601 NIL
AAXX 19184 91610 NIL
BBXX 63110 19183 99595 10015 41/98 /1610 10049 40005 700// 8//// 22200 10704 70020
BBXX 62303 19184 99516 70051 46/// /2816 10115 20094 40128 53018 22200 00109 10605 70027
BBXX 62105 19184 99554 70122 46/// /2823 10093 20064 40116 53014 22200 00105 10607 70035 333 90710 91133
BBXX 64045 19184 99591 70117 46/// /2925 10054 20022 40028 53023 22200 00102 10707 70037 333 90710 91144
BBXX AMOUK08 19184 99501 70061 46/// ///// 10113 20108 30148 40153 54003 91750
BBXX PJGO 19184 99571 10022 47397 /2003 10058 20014 40021 57021 751// 22200
BBXX 63106 19184 99610 10017 46/// /1811 10038 40008 57009 22200
BBXX 63105 19184 99610 10017 47598 ///// 10044 21013 40008 57008 751// 22200
BBXX 62094 19184 99517 70067 46/// /29// 10111 20088 4//// 5//// 22200 00107 10504 70018
BBXX 62103 19184 99499 70029 46/97 /2929 10117 20103 40120 56017 22200 00122 10704 70021 333 90710 91142
BBXX 62305 19184 99504 10000 46/95 /2522 10099 20095 40111 57032 22200 10602 70008
BBXX 62095 19184 99530 70159 46/// /2915 10102 20070 40192 52021 22200 00113 10605 70027
AAXX 19184 91165 12766 80514 10228 20183 30155 40192 53016 69951 91753
AAXX 19184 91212 12566 61308 10256 20233 31353 40091 55007 69901 91754
AAXX 19184 91285 11561 60605 10222 20183 30165 40177 53017 60021 761// 91753
AAXX 19184 91334 11471 80312 10258 20239 30054 40057 55005 60191 78082 8337/
AAXX 19184 91376 32474 80611 10278 20230 30071 40075 53008 83808
AAXX 19184 91408 32473 60806 10272 20250 30019 40057 57012 82208
AAXX 19184 91413 32469 40810 10272 20226 30052 40078 57012 82201
AAXX 19184 91245 32566 20812 10260 20240 30144 91755
BBXX 42369 19181 99272 70903 46/// /1507 1//// 91800 22200 10402 70010
BBXX 42370 19181 99273 70905 46/// ///// 10222 91800 22200 10603 70013
BBXX 42887 19181 99282 70885 46/// /1306 1//// 91800 22200 10502 70010
BBXX 42376 19181 99291 70879 46/// /1407 10220 40188 58029 91800 22200 10402 70011
AAXX 19184 71315 17/// /0203 11104 21115 30055 40111 56062 69931 7//4/ 333 11104 21241 70003 555 10010
AAXX 19184 71388 46/// /0705 11064 21072 39814 40004 56041 6///1 333 11064 21208 7////
AAXX 19184 71425 16/// /1919 11062 21158 30038 40075 58051 60001 333 11057 21172 70000
AAXX 19184 71425 16/// /1919 11062 21158 30038 40075 58051 60001 333 11057 21172 70000
AAXX 19184 71315 17/// /0203 11104 21115 30055 40111 56062 69931 7//4/ 333 11104 21241 70003 555 10010
AAXX 19184 71388 46/// /0705 11064 21072 39814 40004 56041 6///1 333 11064 21208 7////
AAXX 19181 23606 12460 81905 11066 21107 30055 40234 58006 69900 885// 333 88612 11057
BBXX 42044 19181 99262 70971 46/// /1705 10191 20173 40103 91830 22200 00178 333 91208
BBXX 42044 19181 99262 70971 46/// /1706 10194 20176 40115 91800 22200 00178 333 91208
BBXX 42045 19181 99262 70965 46/// /1610 10223 40111 91830 22200 00220 333 91212
BBXX 42045 19181 99262 70965 46/// /1710 10219 40121 91800 22200 00220 333 91213
BBXX 42046 19181 99279 70940 46/// /1509 1//// 40150 91830 22200 00224 333 91211
BBXX 42046 19181 99279 70940 46/// /1509 1//// 40157 91800 22200 00224 333 91211
BBXX 42047 19181 99279 70936 46/// /1510 10214 20165 40153 91830 22200 00227 333 91211
BBXX 42047 19181 99279 70936 46/// /1510 10213 20160 40160 91800 22200 00227 333 91211
AAXX 1918/ 68902 46/// ///// 40109 57017
AAXX 19184 71539 46/// /2111 11037 21105 39533 40248 5/022 6///1 333 7////
AAXX 19184 71539 46/// /2111 11037 21105 39533 40248 5/022 6///1 333 7////
AAXX 19184 41268 36/// /3511 10237 20122 30174 48374 333 0E023 10268 58007
BBXX 63110 19184 99595 10015 47799 /1709 10050 21051 40009 57012 700// 22200 10704 70021
BBXX 63106 19184 99610 10017 46/// /1811 10038 40008 57009 22200
BBXX 63113 19184 99610 10017 46/// /1507 10036 21010 40009 57009 22200 10704 70022
BBXX 62305 19184 99504 10000 46/95 /2522 10099 20095 40111 58032 22200 00119 10602 70008 333 90710 91129
BBXX 62105 19184 99554 70122 46/// /2823 10093 20064 40096 53014 22200 106//
BBXX 64046 19184 99591 70117 46/// ///// 10054 20022 40028 53023 22200 00102 10707 70037
BBXX 64049 19183 99571 10022 41/97 52411 10060 20044 40018 57014 70222 8//// 22200 04092 20604 330// 40606 5//// 80053
BBXX 62107 19184 99501 70061 46/// /3121 10109 20099 40153 52012 22200 00116 10704 70020 333 90710 91130
BBXX 62303 19184 99516 70051 46/// /2817 10115 20094 40128 53018 22200 00109 10605 70027
BBXX 62094 19184 99517 70067 46/// /2916 10111 20088 40140 52019 22200 00107 10503 70017
BBXX 62103 19184 99499 70029 46/98 /2929 10118 20105 40122 55003 22200 00122 10705 70024 333 90710 91141
BBXX 62095 19184 99530 70159 46/// /2915 10102 20070 40190 52021 22200 00113 10605 70027
AAXX 19184 41268 36/// /3511 10237 20122 30174 48374 333 0E023 10268 58007
BBXX 42047 19181 99279 70936 46/// /1510 10214 20165 40153 91830 22200 00227 333 91211
BBXX 42047 19181 99279 70936 46/// /1510 10213 20160 40160 91800 22200 00227 333 91211
BBXX 42046 19181 99279 70940 46/// /1509 1//// 40157 91800 22200 00224 333 91211
BBXX 42046 19181 99279 70940 46/// /1509 1//// 40150 91830 22200 00224 333 91211
BBXX 42045 19181 99262 70965 46/// /1610 10223 40111 91830 22200 00220 333 91212
BBXX 42045 19181 99262 70965 46/// /1710 10219 40121 91800 22200 00220 333 91213
BBXX 42044 19181 99262 70971 46/// /1706 10194 20176 40115 91800 22200 00178 333 91208
BBXX 42044 19181 99262 70971 46/// /1705 10191 20173 40103 91830 22200 00178 333 91208
AAXX 19184 41739 02996 00000 10100 21042 39072 48523 60003 333 58012 60007
AAXX 19184 41594 319// 40000 10100 20068 39953 40178 71011 81031 333 56099 59017
AAXX 19184 41739 02996 00000 10100 21042 39072 48523 60003 333 58012 60007
AAXX 19184 41594 319// 40000 10100 20068 39953 40178 71011 81031 333 56099 59017
AAXX 19183 64800 NIL
AAXX 19183 64820 NIL
AAXX 19183 64860 32960 70000 10276 20093 39830 40100 80002 333 10340 58010 87080
AAXX 19183 64861 NIL
AAXX 19183 64870 32960 70802 10200 20098 38906 48497 80002 333 10302 58010 87080
AAXX 19183 64871 NIL
AAXX 19183 64892 NIL
AAXX 19183 64893 NIL
AAXX 19183 64894 NIL
AAXX 19183 64910 31430 70000 10275 20236 30086 40095 70522 83302 333 10310 58003 83616 81920 85080 94945 95835
AAXX 19183 64911 NIL
AAXX 19183 64950 NIL
BBXX 42369 19181 99272 70903 46/// /1507 1//// 91820 22200 10402 70010
BBXX 42370 19181 99273 70905 46/// ///// 10224 91820 22200 10603 70013
BBXX 42376 19181 99291 70879 46/// /1407 10220 40188 91820 22200 10402 70011
BBXX 42887 19181 99282 70885 46/// /1405 1//// 91820 22200 10502 70010
BBXX 42369 19181 99272 70903 46/// /1507 1//// 91820 22200 10402 70010
BBXX 42887 19181 99282 70885 46/// /1405 1//// 91820 22200 10502 70010
BBXX 42376 19181 99291 70879 46/// /1407 10220 40188 91820 22200 10402 70011
BBXX 42370 19181 99273 70905 46/// ///// 10224 91820 22200 10603 70013
BBXX 52243 19181 99193 11666 46/// ///// 1//// 91800 22200 00261
BBXX 51179 19181 99143 51708 46/// ///// 1//// 91800 22200 00285
BBXX 51178 19181 99142 51695 46/// ///// 1//// 91800 22200 00283
BBXX 52246 19181 99152 11457 46/// ///// 1//// 91800 22200 00281
BBXX 51176 19181 99278 71758 46/// ///// 1//// 91800 22200 00233
BBXX 52245 19181 99181 11458 46/// ///// 1//// 91800 22200 00281
BBXX 51174 19181 99142 51697 46/// ///// 1//// 91800 22200 00285
BBXX 52244 19181 99200 11452 46/// ///// 1//// 91800 22200 00269
BBXX 51173 19181 99260 71739 46/// ///// 1//// 91800 22200 00242
BBXX 51171 19181 99064 71623 46/// ///// 1//// 91800 22200 00276
BBXX 51170 19181 99168 71695 46/// ///// 1//// 91800 22200 00256
BBXX 51169 19181 99004 51600 46/// ///// 1//// 91800 22200 00258
BBXX 52248 19181 99135 11448 46/// ///// 1//// 91800 22200 00281
AAXX 19184 89257 46/// /0403 11010 21036 39871 49940 5//// 91830
AAXX 19184 89272 46/// /1505 11077 21105 38112 49736 52009 91820
BBXX 63110 19183 99595 10015 41/98 /1610 10049 40005 700// 8//// 22200 10704 70020
BBXX 62303 19184 99516 70051 46/// /2816 10115 20094 40128 53018 22200 00109 10605 70027
BBXX 62105 19184 99554 70122 46/// /2823 10093 20064 40116 53014 22200 00105 10607 70035 333 90710 91133
BBXX 64045 19184 99591 70117 46/// /2925 10054 20022 40028 53023 22200 00102 10707 70037 333 90710 91144
BBXX AMOUK08 19184 99501 70061 46/// ///// 10113 20108 30148 40153 54003 91750
BBXX PJGO 19184 99571 10022 47397 /2003 10058 20014 40021 57021 751// 22200
BBXX 63106 19184 99610 10017 46/// /1811 10038 40008 57009 22200
BBXX 63105 19184 99610 10017 47598 ///// 10044 21013 40008 57008 751// 22200
BBXX 62094 19184 99517 70067 46/// /29// 10111 20088 4//// 5//// 22200 00107 10504 70018
BBXX 62103 19184 99499 70029 46/97 /2929 10117 20103 40120 56017 22200 00122 10704 70021 333 90710 91142
BBXX 62305 19184 99504 10000 46/95 /2522 10099 20095 40111 57032 22200 10602 70008
BBXX 62095 19184 99530 70159 46/// /2915 10102 20070 40192 52021 22200 00113 10605 70027
BBXX 52248 19181 99135 11448 46/// ///// 1//// 91800 22200 00281
BBXX 52244 19181 99200 11452 46/// ///// 1//// 91800 22200 00269
BBXX 52245 19181 99181 11458 46/// ///// 1//// 91800 22200 00281
BBXX 52246 19181 99152 11457 46/// ///// 1//// 91800 22200 00281
BBXX 52243 19181 99193 11666 46/// ///// 1//// 91800 22200 00261
BBXX UEYO 19181 99485 11454 42/96 /3512 11030 40134 54000 77272 22213 00009 20805
BBXX 51173 19181 99260 71739 46/// ///// 1//// 91800 22200 00242
BBXX 51176 19181 99278 71758 46/// ///// 1//// 91800 22200 00233
BBXX 51170 19181 99168 71695 46/// ///// 1//// 91800 22200 00256
BBXX 51171 19181 99064 71623 46/// ///// 1//// 91800 22200 00276
BBXX 51174 19181 99142 51697 46/// ///// 1//// 91800 22200 00285
BBXX 51169 19181 99004 51600 46/// ///// 1//// 91800 22200 00258
BBXX 51179 19181 99143 51708 46/// ///// 1//// 91800 22200 00285
BBXX 51178 19181 99142 51695 46/// ///// 1//// 91800 22200 00283
BBXX UEYO 19181 99485 11454 42/96 /3512 11030 40134 54000 77272 22213 00009 20805
BBXX 63110 19184 99595 10015 47799 /1709 10050 21051 40009 57012 700// 22200 10704 70021
BBXX 63106 19184 99610 10017 46/// /1811 10038 40008 57009 22200
BBXX 63113 19184 99610 10017 46/// /1507 10036 21010 40009 57009 22200 10704 70022
BBXX 62305 19184 99504 10000 46/95 /2522 10099 20095 40111 58032 22200 00119 10602 70008 333 90710 91129
BBXX 62105 19184 99554 70122 46/// /2823 10093 20064 40096 53014 22200 106//
BBXX 64046 19184 99591 70117 46/// ///// 10054 20022 40028 53023 22200 00102 10707 70037
BBXX 64049 19183 99571 10022 41/97 52411 10060 20044 40018 57014 70222 8//// 22200 04092 20604 330// 40606 5//// 80053
BBXX 62107 19184 99501 70061 46/// /3121 10109 20099 40153 52012 22200 00116 10704 70020 333 90710 91130
BBXX 62303 19184 99516 70051 46/// /2817 10115 20094 40128 53018 22200 00109 10605 70027
BBXX 62094 19184 99517 70067 46/// /2916 10111 20088 40140 52019 22200 00107 10503 70017
BBXX 62103 19184 99499 70029 46/98 /2929 10118 20105 40122 55003 22200 00122 10705 70024 333 90710 91141
BBXX 62095 19184 99530 70159 46/// /2915 10102 20070 40190 52021 22200 00113 10605 70027
AAXX 19184 97378 32560 40000 10258 20252 39919 40082 56009 83101 333 56000 83820
BBXX WDA2768 19184 99451 70869 43/// /0846 00/// 10017 21022 40161 50039 7//// 8//// 22283 0//// 2//// 3//// 4//// 5//// 6//// 80002 ICE /////
BBXX WDA2768 19184 99451 70869 43/// /0846 00/// 10017 21022 40161 50039 7//// 8//// 22283 0//// 2//// 3//// 4//// 5//// 6//// 80002 ICE /////
AAXX 19181 29379 42998 02802 11167 21188 30132 40357 52023
AAXX 19184 97406 32460 50000 10230 20227 30034 40059 57005 83231 333 56000 57801 83819 80860
AAXX 19181 27719 42997 01604 11004 21025 30057 40315 52030
AAXX 19181 28661 42997 32105 11195 21221 30405 40508 57008 80001
AAXX 19181 02805 11466 83603 10004 21002 39828 49959 57011 60012 76887 887// 333 10007 21032 43///
AAXX 19184 97796 11457 70000 10248 20239 30018 40069 57017 69901 70562 85932 333 56000 57900 81912 85613 80980
AAXX 19184 63705 32565 53403 10211 20193 38853 48507 81935 333 10247 58003 81822 81924 85272 555 10198
AAXX 19181 30710 41493 80000 11162 21177 39690 40310 53009 78682 889//
AAXX 19184 96791 32558 60000 10252 20242 30025 40100 55005 83571 333 56000 83620
BBXX 63110 19183 99595 10015 41/98 /1610 10049 40005 700// 8//// 22200 10704 70020
BBXX 62303 19184 99516 70051 46/// /2816 10115 20094 40128 53018 22200 00109 10605 70027
BBXX 62105 19184 99554 70122 46/// /2823 10093 20064 40116 53014 22200 00105 10607 70035 333 90710 91133
BBXX 64045 19184 99591 70117 46/// /2925 10054 20022 40028 53023 22200 00102 10707 70037 333 90710 91144
BBXX AMOUK08 19184 99501 70061 46/// ///// 10113 20108 30148 40153 54003 91750
BBXX PJGO 19184 99571 10022 47397 /2003 10058 20014 40021 57021 751// 22200
BBXX 63106 19184 99610 10017 46/// /1811 10038 40008 57009 22200
BBXX 63105 19184 99610 10017 47598 ///// 10044 21013 40008 57008 751// 22200
BBXX 62094 19184 99517 70067 46/// /29// 10111 20088 4//// 5//// 22200 00107 10504 70018
BBXX 62103 19184 99499 70029 46/97 /2929 10117 20103 40120 56017 22200 00122 10704 70021 333 90710 91142
BBXX 62305 19184 99504 10000 46/95 /2522 10099 20095 40111 57032 22200 10602 70008
BBXX 62095 19184 99530 70159 46/// /2915 10102 20070 40192 52021 22200 00113 10605 70027
BBXX VRXL7 19183 99407 70303 41398 62820 10150 2008/ 40300 51005 70322 85111 22253 00170 20104 33333 40102 50102 6//// 80110 ICE /////
AAXX 19181 38974 32998 03202 11055 21089 30122 40484 52058 333 11011
BBXX VRXL7 19183 99407 70303 41398 62820 10150 2008/ 40300 51005 70322 85111 22253 00170 20104 33333 40102 50102 6//// 80110 ICE /////
AAXX 19184 97240 31458 80000 10254 20245 39954 40068 57003 70522 84231 333 56000 57801 84816 80860
AAXX 19181 98538 32466 50403 10260 20233 30080 40085 58020 82206 333 56199 82811 83072
AAXX 19184 71373 17/// /1907 10012 21058 60011 7//4/ 333 10012 21120 70010
AAXX 19184 71384 17/// /2805 11049 21060 30041 40049 56044 60041 7//4/ 333 11048 21138 70040
AAXX 19184 96739 32560 70000 10245 20226 30040 40089 57001 84532 333 56000 84620
AAXX 19184 97686 31450 80000 10166 20156 38334 40066 56004 70522 85747 333 56000 83709 87360
AAXX 19184 97072 32558 60000 10254 20227 39994 40094 53005 82521 333 56000 82620 84460
AAXX 19184 97900 11460 83304 10267 20257 30020 40049 57016 69901 70262 8382/ 333 56709 57871 82617 88460 80857
AAXX 19181 25745 41497 80802 11181 21214 30002 40056 53003 77172 8872/
AAXX 19181 98546 32575 70401 10261 20246 30070 40078 58024 83208 333 56999 83820 87275
AAXX 19184 82917 42570 73506 1//// 2//// 39866 4//// 85230
AAXX 19184 97260 01560 40000 10251 20245 30044 40051 57010 60031 70562 83501 333 56000 60037 83620
AAXX 19181 23205 11498 82005 11051 21083 30115 40130 57003 69940 70282 883// 333 11046 85618 91110
BBXX 63110 19184 99595 10015 47799 /1709 10050 21051 40009 57012 700// 22200 10704 70021
BBXX 63106 19184 99610 10017 46/// /1811 10038 40008 57009 22200
BBXX 63113 19184 99610 10017 46/// /1507 10036 21010 40009 57009 22200 10704 70022
BBXX 62305 19184 99504 10000 46/95 /2522 10099 20095 40111 58032 22200 00119 10602 70008 333 90710 91129
BBXX 62105 19184 99554 70122 46/// /2823 10093 20064 40096 53014 22200 106//
BBXX 64046 19184 99591 70117 46/// ///// 10054 20022 40028 53023 22200 00102 10707 70037
BBXX 64049 19183 99571 10022 41/97 52411 10060 20044 40018 57014 70222 8//// 22200 04092 20604 330// 40606 5//// 80053
BBXX 62107 19184 99501 70061 46/// /3121 10109 20099 40153 52012 22200 00116 10704 70020 333 90710 91130
BBXX 62303 19184 99516 70051 46/// /2817 10115 20094 40128 53018 22200 00109 10605 70027
BBXX 62094 19184 99517 70067 46/// /2916 10111 20088 40140 52019 22200 00107 10503 70017
BBXX 62103 19184 99499 70029 46/98 /2929 10118 20105 40122 55003 22200 00122 10705 70024 333 90710 91141
BBXX 62095 19184 99530 70159 46/// /2915 10102 20070 40190 52021 22200 00113 10605 70027
AAXX 19184 96655 32457 70000 10242 20238 30063 40097 57005 85572 333 56000 85612
AAXX 19184 97028 32560 61103 10246 20237 30065 40071 51003 83521 333 56000 83620 84460
BBXX WBS5272 19184 99444 70828 41/97 83220 10077 2//// 40135 5//// 70222 8//// 22232 0//// 20202 3//// 4//// 5//// 6//// 8//// ICE /////
BBXX MINFR03 1918/ 99022 10675 46/// ///// 10270 40118 52010
AAXX 19181 31137 42999 80000 11423 21443 39127 40336 56002 80001
BBXX 63110 19183 99595 10015 41/98 /1610 10049 40005 700// 8//// 22200 10704 70020
BBXX 62303 19184 99516 70051 46/// /2816 10115 20094 40128 53018 22200 00109 10605 70027
BBXX 62105 19184 99554 70122 46/// /2823 10093 20064 40116 53014 22200 00105 10607 70035 333 90710 91133
BBXX 64045 19184 99591 70117 46/// /2925 10054 20022 40028 53023 22200 00102 10707 70037 333 90710 91144
BBXX AMOUK08 19184 99501 70061 46/// ///// 10113 20108 30148 40153 54003 91750
BBXX PJGO 19184 99571 10022 47397 /2003 10058 20014 40021 57021 751// 22200
BBXX 63106 19184 99610 10017 46/// /1811 10038 40008 57009 22200
BBXX 63105 19184 99610 10017 47598 ///// 10044 21013 40008 57008 751// 22200
BBXX 62094 19184 99517 70067 46/// /29// 10111 20088 4//// 5//// 22200 00107 10504 70018
BBXX 62103 19184 99499 70029 46/97 /2929 10117 20103 40120 56017 22200 00122 10704 70021 333 90710 91142
BBXX 62305 19184 99504 10000 46/95 /2522 10099 20095 40111 57032 22200 10602 70008
BBXX 62095 19184 99530 70159 46/// /2915 10102 20070 40192 52021 22200 00113 10605 70027
AAXX 19184 78764 32460 70717 10216 20144 39015 40140 57014 81202 333 30/// 562/0 59009 83612 87075
BBXX MINFR03 1918/ 99022 10675 46/// ///// 10270 40118 52010
BBXX WBS5272 19184 99444 70828 41/97 83220 10077 2//// 40135 5//// 70222 8//// 22232 0//// 20202 3//// 4//// 5//// 6//// 8//// ICE /////
AAXX 19184 78764 32460 70717 10216 20144 39015 40140 57014 81202 333 30/// 562/0 59009 83612 87075
AAXX 19184 78764 32460 70717 10216 20144 39015 40140 57014 81202 333 30/// 562/0 59009 83612 87075
BBXX MINFR09 1918/ 99340 31512 46/// ///// 40098 52009
AAXX 19184 82610 21595 80000 10281 20248 3//// 4//// 70266 887// 333 5//// 60031
BBXX MINFR09 1918/ 99340 31512 46/// ///// 40098 52009
AAXX 19181 10469 01468 82305 10015 21009 30007 40176 51004 69902 70172 875// 333 10019 20000 31101 55300 69907 85616 87650
BBXX 63110 19184 99595 10015 47799 /1709 10050 21051 40009 57012 700// 22200 10704 70021
BBXX 63106 19184 99610 10017 46/// /1811 10038 40008 57009 22200
BBXX 63113 19184 99610 10017 46/// /1507 10036 21010 40009 57009 22200 10704 70022
BBXX 62305 19184 99504 10000 46/95 /2522 10099 20095 40111 58032 22200 00119 10602 70008 333 90710 91129
BBXX 62105 19184 99554 70122 46/// /2823 10093 20064 40096 53014 22200 106//
BBXX 64046 19184 99591 70117 46/// ///// 10054 20022 40028 53023 22200 00102 10707 70037
BBXX 64049 19183 99571 10022 41/97 52411 10060 20044 40018 57014 70222 8//// 22200 04092 20604 330// 40606 5//// 80053
BBXX 62107 19184 99501 70061 46/// /3121 10109 20099 40153 52012 22200 00116 10704 70020 333 90710 91130
BBXX 62303 19184 99516 70051 46/// /2817 10115 20094 40128 53018 22200 00109 10605 70027
BBXX 62094 19184 99517 70067 46/// /2916 10111 20088 40140 52019 22200 00107 10503 70017
BBXX 62103 19184 99499 70029 46/98 /2929 10118 20105 40122 55003 22200 00122 10705 70024 333 90710 91141
BBXX 62095 19184 99530 70159 46/// /2915 10102 20070 40190 52021 22200 00113 10605 70027
AAXX 19181 32509 11998 23307 11076 21136 39930 49964 58005 69930 73631 80001 333 11018
BBXX ONAN 19184 99104 11790 41798 30519 10260 2023/ 40120 54/// 7//22 834// 22273 04270 20605 301// 40605 5//// 6//// 80240 ICE /////
BBXX ONAN 19184 99104 11790 41798 30519 10260 2023/ 40120 54/// 7//22 834// 22273 04270 20605 301// 40605 5//// 6//// 80240 ICE /////
AAXX 19184 96685 32459 50000 10256 20245 30058 40088 52004 82511 333 56000 82618 84462
BBXX 63110 19183 99595 10015 41/98 /1610 10049 40005 700// 8//// 22200 10704 70020
BBXX 62303 19184 99516 70051 46/// /2816 10115 20094 40128 53018 22200 00109 10605 70027
BBXX 62105 19184 99554 70122 46/// /2823 10093 20064 40116 53014 22200 00105 10607 70035 333 90710 91133
BBXX 64045 19184 99591 70117 46/// /2925 10054 20022 40028 53023 22200 00102 10707 70037 333 90710 91144
BBXX AMOUK08 19184 99501 70061 46/// ///// 10113 20108 30148 40153 54003 91750
BBXX PJGO 19184 99571 10022 47397 /2003 10058 20014 40021 57021 751// 22200
BBXX 63106 19184 99610 10017 46/// /1811 10038 40008 57009 22200
BBXX 63105 19184 99610 10017 47598 ///// 10044 21013 40008 57008 751// 22200
BBXX 62094 19184 99517 70067 46/// /29// 10111 20088 4//// 5//// 22200 00107 10504 70018
BBXX 62103 19184 99499 70029 46/97 /2929 10117 20103 40120 56017 22200 00122 10704 70021 333 90710 91142
BBXX 62305 19184 99504 10000 46/95 /2522 10099 20095 40111 57032 22200 10602 70008
BBXX 62095 19184 99530 70159 46/// /2915 10102 20070 40192 52021 22200 00113 10605 70027
AAXX 19184 71376 17/// /2003 10000 21003 39748 40043 56024 60011 7//4/ 333 10000 21121 70040
BBXX ZCBD4 19183 99195 70580 41598 31824 10260 20199 40174 56020 7//// 83160 22264 20303 3//// 4//// 5//// 80220
BBXX 42043 19181 99290 70949 46/// /1407 1//// 40136 91830 22200 00173 333 91208
BBXX 42043 19181 99290 70949 46/// /1406 1//// 40144 91800 22200 00172 333 91208
BBXX 42043 19181 99290 70949 46/// /1406 1//// 40144 91800 22200 00172 333 91208
BBXX 42043 19181 99290 70949 46/// /1407 1//// 40136 91830 22200 00173 333 91208
BBXX ZCBD4 19183 99195 70580 41598 31824 10260 20199 40174 56020 7//// 83160 22264 20303 3//// 4//// 5//// 80220
BBXX 63110 19184 99595 10015 47799 /1709 10050 21051 40009 57012 700// 22200 10704 70021
BBXX 63106 19184 99610 10017 46/// /1811 10038 40008 57009 22200
BBXX 63113 19184 99610 10017 46/// /1507 10036 21010 40009 57009 22200 10704 70022
BBXX 62305 19184 99504 10000 46/95 /2522 10099 20095 40111 58032 22200 00119 10602 70008 333 90710 91129
BBXX 62105 19184 99554 70122 46/// /2823 10093 20064 40096 53014 22200 106//
BBXX 64046 19184 99591 70117 46/// ///// 10054 20022 40028 53023 22200 00102 10707 70037
BBXX 64049 19183 99571 10022 41/97 52411 10060 20044 40018 57014 70222 8//// 22200 04092 20604 330// 40606 5//// 80053
BBXX 62107 19184 99501 70061 46/// /3121 10109 20099 40153 52012 22200 00116 10704 70020 333 90710 91130
BBXX 62303 19184 99516 70051 46/// /2817 10115 20094 40128 53018 22200 00109 10605 70027
BBXX 62094 19184 99517 70067 46/// /2916 10111 20088 40140 52019 22200 00107 10503 70017
BBXX 62103 19184 99499 70029 46/98 /2929 10118 20105 40122 55003 22200 00122 10705 70024 333 90710 91141
BBXX 62095 19184 99530 70159 46/// /2915 10102 20070 40190 52021 22200 00113 10605 70027
BBXX 51172 19181 99284 71783 46/// ///// 1//// 91800 22200 00225
BBXX 52249 19181 99052 31503 46/// ///// 1//// 91800 22200 00303
AAXX 19184 48698 01464 73003 10249 20244 30067 40085 69981 71062 81178 333 60007 81818 85468
AAXX 19184 48698 01464 73003 10249 20244 30067 40085 69981 71062 81178 333 60007 81818 85468
BBXX 63110 19183 99595 10015 41/98 /1610 10049 40005 700// 8//// 22200 10704 70020
BBXX 62303 19184 99516 70051 46/// /2816 10115 20094 40128 53018 22200 00109 10605 70027
BBXX 62105 19184 99554 70122 46/// /2823 10093 20064 40116 53014 22200 00105 10607 70035 333 90710 91133
BBXX 64045 19184 99591 70117 46/// /2925 10054 20022 40028 53023 22200 00102 10707 70037 333 90710 91144
BBXX AMOUK08 19184 99501 70061 46/// ///// 10113 20108 30148 40153 54003 91750
BBXX PJGO 19184 99571 10022 47397 /2003 10058 20014 40021 57021 751// 22200
BBXX 63106 19184 99610 10017 46/// /1811 10038 40008 57009 22200
BBXX 63105 19184 99610 10017 47598 ///// 10044 21013 40008 57008 751// 22200
BBXX 62094 19184 99517 70067 46/// /29// 10111 20088 4//// 5//// 22200 00107 10504 70018
BBXX 62103 19184 99499 70029 46/97 /2929 10117 20103 40120 56017 22200 00122 10704 70021 333 90710 91142
BBXX 62305 19184 99504 10000 46/95 /2522 10099 20095 40111 57032 22200 10602 70008
BBXX 62095 19184 99530 70159 46/// /2915 10102 20070 40192 52021 22200 00113 10605 70027
BBXX 51172 19181 99284 71783 46/// ///// 1//// 91800 22200 00225
BBXX 52249 19181 99052 31503 46/// ///// 1//// 91800 22200 00303
BBXX 63110 19184 99595 10015 47799 /1709 10050 21051 40009 57012 700// 22200 10704 70021
BBXX 63106 19184 99610 10017 46/// /1811 10038 40008 57009 22200
BBXX 63113 19184 99610 10017 46/// /1507 10036 21010 40009 57009 22200 10704 70022
BBXX 62305 19184 99504 10000 46/95 /2522 10099 20095 40111 58032 22200 00119 10602 70008 333 90710 91129
BBXX 62105 19184 99554 70122 46/// /2823 10093 20064 40096 53014 22200 106//
BBXX 64046 19184 99591 70117 46/// ///// 10054 20022 40028 53023 22200 00102 10707 70037
BBXX 64049 19183 99571 10022 41/97 52411 10060 20044 40018 57014 70222 8//// 22200 04092 20604 330// 40606 5//// 80053
BBXX 62107 19184 99501 70061 46/// /3121 10109 20099 40153 52012 22200 00116 10704 70020 333 90710 91130
BBXX 62303 19184 99516 70051 46/// /2817 10115 20094 40128 53018 22200 00109 10605 70027
BBXX 62094 19184 99517 70067 46/// /2916 10111 20088 40140 52019 22200 00107 10503 70017
BBXX 62103 19184 99499 70029 46/98 /2929 10118 20105 40122 55003 22200 00122 10705 70024 333 90710 91141
BBXX 62095 19184 99530 70159 46/// /2915 10102 20070 40190 52021 22200 00113 10605 70027
AAXX 19181 78090 15/// /0000 10239 30241 40245 69901 91800 222// 00138
AAXX 19184 63125 32570 11504 10255 20193 40184 81200 333 10305 58019 81820
AAXX 19181 48921 NIL
AAXX 19181 48924 NIL
AAXX 19181 48925 NIL
AAXX 19181 48926 NIL
AAXX 19181 48927 NIL
AAXX 19181 48928 NIL
AAXX 19181 48930 31930 00000 10132 20128 39818 40180 52002 71044 333 59031
AAXX 19181 48935 NIL
AAXX 19181 48938 NIL
AAXX 19181 48940 31910 03602 10210 20149 39940 40139 57004 71044 333 59045
AAXX 19181 48941 NIL
AAXX 19181 48944 NIL
AAXX 19181 48945 NIL
AAXX 19181 48946 NIL
AAXX 19181 48947 31530 60000 10165 20148 30016 40187 52003 71044 83560 333 59016
AAXX 19181 48948 NIL
AAXX 19181 48952 NIL
AAXX 19181 48953 NIL
AAXX 19181 48955 32560 20401 10206 20149 30000 40119 57004 82500 333 59010
AAXX 19181 48956 NIL
AAXX 19181 48957 NIL
AAXX 19181 25173 11396 33108 11274 21291 30125 40130 58008 69922 73731 83600 333 21280 48072 91113 96110
BBXX 63110 19183 99595 10015 41/98 /1610 10049 40005 700// 8//// 22200 10704 70020
BBXX 62303 19184 99516 70051 46/// /2816 10115 20094 40128 53018 22200 00109 10605 70027
BBXX 62105 19184 99554 70122 46/// /2823 10093 20064 40116 53014 22200 00105 10607 70035 333 90710 91133
BBXX 64045 19184 99591 70117 46/// /2925 10054 20022 40028 53023 22200 00102 10707 70037 333 90710 91144
BBXX AMOUK08 19184 99501 70061 46/// ///// 10113 20108 30148 40153 54003 91750
BBXX PJGO 19184 99571 10022 47397 /2003 10058 20014 40021 57021 751// 22200
BBXX 63106 19184 99610 10017 46/// /1811 10038 40008 57009 22200
BBXX 63105 19184 99610 10017 47598 ///// 10044 21013 40008 57008 751// 22200
BBXX 62094 19184 99517 70067 46/// /29// 10111 20088 4//// 5//// 22200 00107 10504 70018
BBXX 62103 19184 99499 70029 46/97 /2929 10117 20103 40120 56017 22200 00122 10704 70021 333 90710 91142
BBXX 62305 19184 99504 10000 46/95 /2522 10099 20095 40111 57032 22200 10602 70008
BBXX 62095 19184 99530 70159 46/// /2915 10102 20070 40192 52021 22200 00113 10605 70027
AAXX 19184 48552 11458 60000 10247 20222 30093 40100 57011 60023 71062 86206 333 59015 70018
BBXX 63110 19184 99595 10015 47799 /1709 10050 21051 40009 57012 700// 22200 10704 70021
BBXX 63106 19184 99610 10017 46/// /1811 10038 40008 57009 22200
BBXX 63113 19184 99610 10017 46/// /1507 10036 21010 40009 57009 22200 10704 70022
BBXX 62305 19184 99504 10000 46/95 /2522 10099 20095 40111 58032 22200 00119 10602 70008 333 90710 91129
BBXX 62105 19184 99554 70122 46/// /2823 10093 20064 40096 53014 22200 106//
BBXX 64046 19184 99591 70117 46/// ///// 10054 20022 40028 53023 22200 00102 10707 70037
BBXX 64049 19183 99571 10022 41/97 52411 10060 20044 40018 57014 70222 8//// 22200 04092 20604 330// 40606 5//// 80053
BBXX 62107 19184 99501 70061 46/// /3121 10109 20099 40153 52012 22200 00116 10704 70020 333 90710 91130
BBXX 62303 19184 99516 70051 46/// /2817 10115 20094 40128 53018 22200 00109 10605 70027
BBXX 62094 19184 99517 70067 46/// /2916 10111 20088 40140 52019 22200 00107 10503 70017
BBXX 62103 19184 99499 70029 46/98 /2929 10118 20105 40122 55003 22200 00122 10705 70024 333 90710 91141
BBXX 62095 19184 99530 70159 46/// /2915 10102 20070 40190 52021 22200 00113 10605 70027
BBXX 63110 19183 99595 10015 41/98 /1610 10049 40005 700// 8//// 22200 10704 70020
BBXX 62303 19184 99516 70051 46/// /2816 10115 20094 40128 53018 22200 00109 10605 70027
BBXX 62105 19184 99554 70122 46/// /2823 10093 20064 40116 53014 22200 00105 10607 70035 333 90710 91133
BBXX 64045 19184 99591 70117 46/// /2925 10054 20022 40028 53023 22200 00102 10707 70037 333 90710 91144
BBXX AMOUK08 19184 99501 70061 46/// ///// 10113 20108 30148 40153 54003 91750
BBXX PJGO 19184 99571 10022 47397 /2003 10058 20014 40021 57021 751// 22200
BBXX 63106 19184 99610 10017 46/// /1811 10038 40008 57009 22200
BBXX 63105 19184 99610 10017 47598 ///// 10044 21013 40008 57008 751// 22200
BBXX 62094 19184 99517 70067 46/// /29// 10111 20088 4//// 5//// 22200 00107 10504 70018
BBXX 62103 19184 99499 70029 46/97 /2929 10117 20103 40120 56017 22200 00122 10704 70021 333 90710 91142
BBXX 62305 19184 99504 10000 46/95 /2522 10099 20095 40111 57032 22200 10602 70008
BBXX 62095 19184 99530 70159 46/// /2915 10102 20070 40192 52021 22200 00113 10605 70027
AAXX 19184 48583 31558 70000 10260 20231 30095 40101 57010 71022 82206 333 59010 70148
BBXX WYR4481 19184 99474 70870 41/98 83627 11033 40160 70222 22223 20503
BBXX WYR4481 19184 99474 70870 41/98 83627 11033 40160 70222 22223 20503
AAXX 19184 91723 NIL
AAXX 19184 91964 36/// /0410 10228 20221 40219 52008
BBXX 63110 19184 99595 10015 47799 /1709 10050 21051 40009 57012 700// 22200 10704 70021
BBXX 63106 19184 99610 10017 46/// /1811 10038 40008 57009 22200
BBXX 63113 19184 99610 10017 46/// /1507 10036 21010 40009 57009 22200 10704 70022
BBXX 62305 19184 99504 10000 46/95 /2522 10099 20095 40111 58032 22200 00119 10602 70008 333 90710 91129
BBXX 62105 19184 99554 70122 46/// /2823 10093 20064 40096 53014 22200 106//
BBXX 64046 19184 99591 70117 46/// ///// 10054 20022 40028 53023 22200 00102 10707 70037
BBXX 64049 19183 99571 10022 41/97 52411 10060 20044 40018 57014 70222 8//// 22200 04092 20604 330// 40606 5//// 80053
BBXX 62107 19184 99501 70061 46/// /3121 10109 20099 40153 52012 22200 00116 10704 70020 333 90710 91130
BBXX 62303 19184 99516 70051 46/// /2817 10115 20094 40128 53018 22200 00109 10605 70027
BBXX 62094 19184 99517 70067 46/// /2916 10111 20088 40140 52019 22200 00107 10503 70017
BBXX 62103 19184 99499 70029 46/98 /2929 10118 20105 40122 55003 22200 00122 10705 70024 333 90710 91141
BBXX 62095 19184 99530 70159 46/// /2915 10102 20070 40190 52021 22200 00113 10605 70027
BBXX UGPK 20001 99554 11482 43/99 33505 11015 40060 54000 22231 00009 2//00 3//00
AAXX 19184 16263 11462 53307 10004 21018 38839 48405 51009 69982 70242 85200 333 10016 44006 85615 92822
AAXX 19184 89573 35980 00704 10012 21094 39862 49884 57028
AAXX 19184 89573 35980 00704 10012 21094 39862 49884 57028
BBXX PCDE 19183 99397 31357 41297 52202 10150 20116 40160 52010 7//22 847// 22223 2//// 312// 40602 80130
AAXX 19184 71618 17966 62113 11138 21153 39919 49957 56075 60001 771// 333 11138 21264
AAXX 19184 71618 17966 62113 11138 21153 39919 49957 56075 60001 771// 333 11138 21264
BBXX 63110 19183 99595 10015 41/98 /1610 10049 40005 700// 8//// 22200 10704 70020
BBXX 62303 19184 99516 70051 46/// /2816 10115 20094 40128 53018 22200 00109 10605 70027
BBXX 62105 19184 99554 70122 46/// /2823 10093 20064 40116 53014 22200 00105 10607 70035 333 90710 91133
BBXX 64045 19184 99591 70117 46/// /2925 10054 20022 40028 53023 22200 00102 10707 70037 333 90710 91144
BBXX AMOUK08 19184 99501 70061 46/// ///// 10113 20108 30148 40153 54003 91750
BBXX PJGO 19184 99571 10022 47397 /2003 10058 20014 40021 57021 751// 22200
BBXX 63106 19184 99610 10017 46/// /1811 10038 40008 57009 22200
BBXX 63105 19184 99610 10017 47598 ///// 10044 21013 40008 57008 751// 22200
BBXX 62094 19184 99517 70067 46/// /29// 10111 20088 4//// 5//// 22200 00107 10504 70018
BBXX 62103 19184 99499 70029 46/97 /2929 10117 20103 40120 56017 22200 00122 10704 70021 333 90710 91142
BBXX 62305 19184 99504 10000 46/95 /2522 10099 20095 40111 57032 22200 10602 70008
BBXX 62095 19184 99530 70159 46/// /2915 10102 20070 40192 52021 22200 00113 10605 70027
AAXX 19184 48581 31557 80000 10240 20231 30064 40106 57005 71022 82546 333 59007 70039
BBXX A8PQ6 19184 99261 10559 41697 30520 10210 2015/ 40190 54/// 70200 83223 22200 00260 20502 30404 40502 50502 6//// 80170 ICE /////
BBXX A8PQ6 19184 99261 10559 41697 30520 10210 2015/ 40190 54/// 70200 83223 22200 00260 20502 30404 40502 50502 6//// 80170 ICE /////
BBXX 63110 19184 99595 10015 47799 /1709 10050 21051 40009 57012 700// 22200 10704 70021
BBXX 63106 19184 99610 10017 46/// /1811 10038 40008 57009 22200
BBXX 63113 19184 99610 10017 46/// /1507 10036 21010 40009 57009 22200 10704 70022
BBXX 62305 19184 99504 10000 46/95 /2522 10099 20095 40111 58032 22200 00119 10602 70008 333 90710 91129
BBXX 62105 19184 99554 70122 46/// /2823 10093 20064 40096 53014 22200 106//
BBXX 64046 19184 99591 70117 46/// ///// 10054 20022 40028 53023 22200 00102 10707 70037
BBXX 64049 19183 99571 10022 41/97 52411 10060 20044 40018 57014 70222 8//// 22200 04092 20604 330// 40606 5//// 80053
BBXX 62107 19184 99501 70061 46/// /3121 10109 20099 40153 52012 22200 00116 10704 70020 333 90710 91130
BBXX 62303 19184 99516 70051 46/// /2817 10115 20094 40128 53018 22200 00109 10605 70027
BBXX 62094 19184 99517 70067 46/// /2916 10111 20088 40140 52019 22200 00107 10503 70017
BBXX 62103 19184 99499 70029 46/98 /2929 10118 20105 40122 55003 22200 00122 10705 70024 333 90710 91141
BBXX 62095 19184 99530 70159 46/// /2915 10102 20070 40190 52021 22200 00113 10605 70027
AAXX 19184 48001 NIL
AAXX 19184 48004 NIL
AAXX 19184 48008 31910 00000 10150 20134 40161 71044 333 58000
AAXX 19184 48010 NIL
AAXX 19184 48018 32920 00000 10160 20144 40141 333 59015
AAXX 19184 48019 NIL
AAXX 19184 48020 NIL
AAXX 19184 48025 NIL
AAXX 19184 48035 NIL
AAXX 19184 48037 NIL
AAXX 19184 48042 32956 00000 10175 20141 70141 333 59002
AAXX 19184 48045 NIL
AAXX 19184 48048 NIL
AAXX 19184 48053 32940 00000 10160 20144 40158 333 59001
AAXX 19184 48057 NIL
AAXX 19184 48060 32910 00000 10145 20111 40174 333 58004
AAXX 19184 48062 31540 10165 20150 40135 74044 83800 333 56900 59015
AAXX 19184 48071 /2920 00000 10220 20205 40128 71000 333 59010
AAXX 19184 48077 NIL
AAXX 19184 48078 NIL
AAXX 19184 48080 32550 20000 10191 20175 40124 81870 333 56990 59007
AAXX 19184 48094 32950 00000 10195 20190 40133 333 59011
AAXX 19184 48097 32956 00401 10210 20168 40131 333 59006
AAXX 19184 48108 31597 70000 10230 20163 40132 70522 82405 333 56209 59001
AAXX 19184 48109 32496 30402 10272 20211 40111 81531 333 56999 59006
AAXX 19184 48110 31995 30901 10230 20181 40122 705// 80006 333 56009 59013
AAXX 19184 48112 32597 50409 10251 20205 40099 82246 333 56199 58006
AAXX 19184 48001 NIL
AAXX 19184 48004 NIL
AAXX 19184 48008 31910 00000 10150 20134 40161 71044 333 58000
AAXX 19184 48010 NIL
AAXX 19184 48018 32920 00000 10160 20144 40141 333 59015
AAXX 19184 48019 NIL
AAXX 19184 48020 NIL
AAXX 19184 48025 NIL
AAXX 19184 48035 NIL
AAXX 19184 48037 NIL
AAXX 19184 48042 32956 00000 10175 20141 70141 333 59002
AAXX 19184 48045 NIL
AAXX 19184 48048 NIL
AAXX 19184 48053 32940 00000 10160 20144 40158 333 59001
AAXX 19184 48057 NIL
AAXX 19184 48060 32910 00000 10145 20111 40174 333 58004
AAXX 19184 48062 31540 10165 20150 40135 74044 83800 333 56900 59015
AAXX 19184 48071 /2920 00000 10220 20205 40128 71000 333 59010
AAXX 19184 48077 NIL
AAXX 19184 48078 NIL
AAXX 19184 48080 32550 20000 10191 20175 40124 81870 333 56990 59007
AAXX 19184 48094 32950 00000 10195 20190 40133 333 59011
AAXX 19184 48097 32956 00401 10210 20168 40131 333 59006
AAXX 19184 48108 31597 70000 10230 20163 40132 70522 82405 333 56209 59001
AAXX 19184 48109 32496 30402 10272 20211 40111 81531 333 56999 59006
AAXX 19184 48110 31995 30901 10230 20181 40122 705// 80006 333 56009 59013
AAXX 19184 48112 32597 50409 10251 20205 40099 82246 333 56199 58006
BBXX LAOW5 19184 99321 51722 41697 62122 10230 20201 40090 52010 78011 86283 22254 00230 21204 31919 41204 51204 6//// 80210 ICE /////
BBXX LAOW5 19184 99321 51722 41697 62122 10230 20201 40090 52010 78011 86283 22254 00230 21204 31919 41204 51204 6//// 80210 ICE /////
BBXX 63110 19183 99595 10015 41/98 /1610 10049 40005 700// 8//// 22200 10704 70020
BBXX 62303 19184 99516 70051 46/// /2816 10115 20094 40128 53018 22200 00109 10605 70027
BBXX 62105 19184 99554 70122 46/// /2823 10093 20064 40116 53014 22200 00105 10607 70035 333 90710 91133
BBXX 64045 19184 99591 70117 46/// /2925 10054 20022 40028 53023 22200 00102 10707 70037 333 90710 91144
BBXX AMOUK08 19184 99501 70061 46/// ///// 10113 20108 30148 40153 54003 91750
BBXX PJGO 19184 99571 10022 47397 /2003 10058 20014 40021 57021 751// 22200
BBXX 63106 19184 99610 10017 46/// /1811 10038 40008 57009 22200
BBXX 63105 19184 99610 10017 47598 ///// 10044 21013 40008 57008 751// 22200
BBXX 62094 19184 99517 70067 46/// /29// 10111 20088 4//// 5//// 22200 00107 10504 70018
BBXX 62103 19184 99499 70029 46/97 /2929 10117 20103 40120 56017 22200 00122 10704 70021 333 90710 91142
BBXX 62305 19184 99504 10000 46/95 /2522 10099 20095 40111 57032 22200 10602 70008
BBXX 62095 19184 99530 70159 46/// /2915 10102 20070 40192 52021 22200 00113 10605 70027
AAXX 19184 63705 32565 53403 10211 20193 38853 48507 81935 333 10247 58003 81822 81924 85272 555 10198
AAXX 19184 44454 42956 00000 10060 20052 38689 48521 333 59003
AAXX 19181 38932 415// 81805 11026 21037 40370 53002 78588 889//
AAXX 19184 71245 46/// /2425 11060 21115 6///1 333 11055 21121 7////
AAXX 19184 71245 46/// /2425 11060 21115 6///1 333 11055 21121 7////
BBXX A8CB7 19183 99152 30662 41498 61016 10270 20243 40120 51620 70222 86472 22254 06300 21005 80250
BBXX A8CB7 19183 99152 30662 41498 61016 10270 20243 40120 51620 70222 86472 22254 06300 21005 80250
BBXX A8CB7 19183 99152 30662 41498 61016 10270 20243 40120 51620 70222 86472 22254 06300 21005 80250
AAXX 19184 67009 32580 30000 10240 20233 39990 40108 51010 83900 333 10310 83820 81920 94971/6/7 95811/6/7
AAXX 19184 67009 32580 30000 10240 20233 39990 40108 51010 83900 333 10310 83820 81920 94971
AAXX 19184 67009 32580 30000 10240 20233 39990 40108 51010 83900 333 10310 83820 81920 94971
AAXX 19181 26531 12598 82107 10025 21018 40094 52021 69902 885// 333 10031 88630 91014 91118 555 53018
AAXX 19181 26531 12598 82107 10025 21018 40094 52021 69902 885// 333 10031 88630 91014 91118
AAXX 19181 10962 01275 82603 11045 21055 39037 48465 51010 69902 77871 875// 333 11013 21056 3/108 48005 55300 20000 30000 69907 82606 87620
BBXX A8IZ2 19184 99236 70660 41698 20122 10250 20160 40200 54000 70202 8213/ 22214 20403 301// 40806 80190
BBXX A8IZ2 19184 99236 70660 41698 20122 10250 20160 40200 54000 70202 8213/ 22214 20403 301// 40806 80190
AAXX 19181 10980 11080 72908 11109 21112 38102 48465 51007 69982 70342 875// 333 11098 21112 3/112 48035 55300 20000 30000 87601 96441
AAXX 19181 10438 17450 81602 10004 21008 39894 40183 51002 69952 71000 333 10014 21012 3/101 55300 82/14 88/48
AAXX 19181 10836 01486 72506 11032 21056 39319 40222 51007 69902 70272 878// 333 11029 21065 3/110 47008 55300 20000 30000 69907 82814 87630
AAXX 19181 10908 01/05 82308 11088 21093 38465 48464 51006 60022 77887 885// 333 11073 21092 3/110 49051 55300 20000 30000 69907 856// 83613 96041 96249 96485 96471
AAXX 19184 71448 16/// /3105 11066 21090 39903 40242 51014 60001 333 11056 21071 70007
AAXX 19181 26346 11597 82007 10010 21020 40069 52017 69952 72682 884// 333 10015 88623 91013 91117
BBXX OXES2 19184 99384 70219 41597 20513 10170 20137 40360 54010 75855 826// 22264 00180 23002 312// 40000 50000 6//// 80150 ICE /////
AAXX 19184 71372 16/// /1815 10003 21031 60001 333 10003 21097 70000
AAXX 19181 10004 46/59 /2113 10052 20037 30087 40087 57017 222// 00083 333 10071 20037 55300 91118 91214
AAXX 19181 10044 46/// /2111 10025 20002 30076 40108 53002 222// 00051 333 10053 20024 55300 91114 91212
AAXX 19181 98133 11430 80407 10/// 20/// 40117 5//// 60231 76166 8652/ 333 56199 86618 88458
AAXX 19184 91772 11398 70504 10251 20234 4//// 60021 70288 8477/ 333 5619/ 81707 84640 87460
AAXX 19184 91776 NIL
AAXX 19184 91779 31498 70109 10269 20237 40125 53012 60001 70222 82201 333 568/9 82816 87078
AAXX 19184 91784 11398 83405 10247 20237 40122 53020 60011 78088 887// 333 567// 83709 85817 88635
AAXX 19184 91792 11498 80504 10245 20239 40124 53022 69971 70266 8217/ 333 5619/ 82814 88462
