BBXX ZMFR1 18233 99490 31667 41598 82020 10104 20070 40193 50008 70222 887// 22242 00113 20301 321// 40603
BBXX ZMENA 18234 99422 31741 46/// ///// 10117 20056 40185 57007 22214
BBXX 44172 19001 99445 70634 46/// ///// 1//// 92331 22200 00070 10603 20603 312// 41101 70016
BBXX 44097 19001 99410 70711 46/// ///// 1//// 92332 22200 00120 10402 20402 70012
BBXX 46218 19001 99345 71208 46/// ///// 1//// 92332 22200 00141 11705 21002 331// 41705 70026
AAXX 19004 40270 31950 00000 10105 21026 39328 40240 54000 70500
AAXX 19004 91487 NIL
AAXX 19004 91490 NIL
AAXX 19004 91533 NIL
AAXX 19004 91601 NIL
AAXX 19004 91610 11599 20913 10300 20235 40069 58012 60001 70200 82101 333 20262
AAXX 19004 562/9 70000
AAXX 19004 91623 NIL
AAXX 19004 91629 NIL
AAXX 19004 91701 NIL
AAXX 19004 91487 NIL
AAXX 19004 91490 NIL
AAXX 19004 91533 NIL
AAXX 19004 91601 NIL
AAXX 19004 91610 11599 20913 10300 20235 40069 58012 60001 70200 82101 333 20262
AAXX 19004 562/9 70000
AAXX 19004 91623 NIL
AAXX 19004 91629 NIL
AAXX 19004 91701 NIL
AAXX 19004 78767 11465 80000 10237 20211 30130 40140 55010 71522 84570 333 10277 20169 31/// 56000 59020 70329 84615 84360
AAXX 19004 40255 32960 00000 10068 20026 39515 40235 54000
AAXX 19004 78767 11465 80000 10237 20211 30130 40140 55010 71522 84570 333 10277 20169 31/// 56000 59020 70329 84615 84360
BBXX V2AN5 19001 99545 71700 41497 42118 10023 21033 49823 51003 70311 83343 22264 20708 302// 41206 5//// 80002
AAXX 19004 61902 11480 41416 10232 20192 40147 69901 70181 84800 333 58006 82818 84630
BBXX BAREU56 19004 99408 10143 46/// ///// 40087 22200
BBXX 46249 19001 99338 71197 46/// ///// 1//// 92342 22200 00147 10603 20603 327// 41701 70016
BBXX 46248 19001 99461 71247 46/// ///// 1//// 92334 22200 00096 11508 21005 329// 41505 70038
BBXX 46244 19001 99409 71244 46/// ///// 1//// 92335 22200 00099 11306 21003 329// 41305 70030
BBXX 46240 19001 99366 71219 46/// ///// 1//// 92342 22200 00124 11202 20901 335// 41202 70012
BBXX 46237 19001 99378 71226 46/// ///// 1//// 92340 22200 00112 11505 21002 326// 41504 70024
BBXX 46212 19001 99408 71243 46/// ///// 1//// 92342 22200 00098 11505 20803 331// 41505 70027
BBXX 46217 19001 99342 71194 46/// ///// 1//// 92342 22200 00145 10603 20603 327// 41401 70015
AAXX 19004 08495 12970 02405 10090 20055 30228 40236 53007 60001 92350
AAXX 19004 78954 12586 30604 10230 20194 30070 40136 81101 333 10292 20200 58002 81823
BBXX 46211 19001 99469 71242 46/// ///// 1//// 92336 22200 00084 11207 20905 328// 41205 70035
AAXX 19004 78954 12586 30604 10230 20194 30070 40136 81101 333 10292 20200 58002 81823
AAXX 19004 40250 32960 01608 10048 21034 39452 40252 54003
AAXX 19004 40260 32960 03108 10062 21060 39452 40240 54003
AAXX 19004 40265 32960 30000 10074 21056 39449 40249 57005 80001 333 83070
AAXX 19004 68392 36/// /0504 10165 20150 30130 4//// 56007 333 10269 20165 91008 555
AAXX 19004 68382 36/// /0402 10174 20145 39376 48546 58008 333 10280 20173 91004 555 91019
BBXX 42363 19001 99282 70892 46/// /0807 10167 20078 40264 92345 333 91207
BBXX 42364 19001 99291 70881 46/// /0505 10150 20067 40264 92345
BBXX 41115 19001 99184 70673 46/// ///// 1//// 92335 22200 11304 21003 301// 41302 70018
BBXX 41114 19001 99276 70802 46/// ///// 1//// 92346 22200 00243 11302 21002 307// 41301 70012
BBXX 44098 19001 99428 70702 46/// ///// 1//// 92337 22200 00090 10602 20602 310// 41101 70012
BBXX 51203 19001 99208 71570 46/// ///// 1//// 92343 22200 00249 11302 20801 328// 41301 70009
BBXX 52200 19001 99134 11448 46/// ///// 1//// 92345 22200 00287 10806 20806 309// 41101 70029
BBXX 51201 19001 99217 71581 46/// ///// 1//// 92342 22200 00243 11304 20804 332// 41303 70022
BBXX 51205 19001 99210 71564 46/// ///// 1//// 92348 22200 00244 11405 20904 332// 41403 70026
BBXX 46114 19001 99364 71222 46/// ///// 1//// 92334 22200 00124 11507 21002 330// 41507 70034
AAXX 19004 91413 11469 40911 10299 20252 30081 40107 52024 60044 70181 81101 333 20261 562/9 58019 70043 555 91900
AAXX 19004 78384 12460 20713 10252 20206 40171 60001 81101 333 10279 20245 59002 70000 81818
AAXX 19004 78383 12460 60610 10262 20206 40172 60001 86802 333 10280 20255 58001 70000 82816 84630
AAXX 19004 91413 11469 40911 10299 20252 30081 40107 52024 60044 70181 81101 333 20261 562/9 58019 70043 555 91900
AAXX 19004 78384 12460 20713 10252 20206 40171 60001 81101 333 10279 20245 59002 70000 81818
AAXX 19004 78383 12460 60610 10262 20206 40172 60001 86802 333 10280 20255 58001 70000 82816 84630
BBXX 44025 19001 99402 70732 46/// /3509 10003 21098 40259 51024 92350 22200 00109 10402 20402 310// 41101 70010 333 91211 555 11094 22098 32258 43411 62349 346088 340078 339078 336077 342078 338086
BBXX 41008 19001 99314 70809 46/// /0404 10134 20063 40275 53019 92350 22200 00162 10502 20401 300// 40501 70008 333 91205 555 11038 22039 32301 40206 62349 035037 038040 035044 031046 032046 034049
BBXX 41004 19001 99325 70791 46/// /0106 10125 20013 40270 50017 92350 22200 00215 10602 20501 3//// 40602 70012 333 91208 555 11060 22062 32327 43608 62349 005056 356056 355058 354056 003048 343043
AAXX 19004 68906 12598 42719 10132 20100 30085 40150 58002 69943 83570 333 10155 20124 91032 555 20004 91014
BBXX BAREU61 19004 99094 70164 46/// /3409 10276 29060 40121 52005 22234
AAXX 19004 91334 12474 70410 10299 20249 30076 40079 52002 60244 82171 333 20256 56199 59019 70239 555 91900
AAXX 19004 91334 12474 70410 10299 20249 30076 40079 52002 60244 82171 333 20256 56199 59019 70239 555 91900
BBXX DBKV 19001 99169 70250 46/// /0405 10231 20182 40179 52012 22210 00236
BBXX DBBT 19001 99414 30030 46/// /2919 10120 20088 40120 52004 22213 00115
BBXX DBEA 19001 99540 10084 46/// /2506 10044 20030 40075 52014 22210 00044
BBXX DBFH 19001 99535 10086 46/// /2407 10020 20012 40084 52008 22240 00045
BBXX DBJM 19001 99540 10085 46/// /2410 10037 20027 40077 52008 22220 00043
BBXX DBBU 19001 99542 10119 46/// /2514 10025 20023 40048 52009 22230 00057
BBXX DBFR 19001 99542 10080 46/// /3111 10053 20039 40072 52014 22201 00065
BBXX DBBA 19001 99544 10109 46/// /2314 10029 20017 40038 52005 22270 00050
BBXX DBEB 19001 99538 10082 41/// /2410 10023 20023 40076 52013 7//// 22221 00043
BBXX DBND 19001 99/// ///// 46/// //////10016 20010 40075 52008 22220 00064
BBXX DBBI 19001 99539 10087 46/// /2405 10020 20020 40076 52012 22260 00044
BBXX DBKR 19001 99541 10121 46/// /2407 10019 20014 40050 52012 22200 00049
BBXX DBBC 19001 99542 10079 46/// /3206 10054 2//// 40076 520/5 22270 00072
AAXX 19004 68994 31494 82922 10107 20106 30110 40139 58017 74544 886// 333 10108 20084 91030 555 91013
AAXX 19004 89664 12461 40000 11013 21070 39849 49892 58017 60034 82870 333 11013 21078 56330 59070 81615 84458 90977 93104
AAXX 19004 89664 12461 40000 11013 21070 39849 49892 58017 60034 82870 333 11013 21078 56330 59070 81615 84458 90977 93104
BBXX 41101 19004 99146 70562 46/// /0512 1//// 2//// 4//// 5//// 22200 00272 1//// 70///
BBXX 61001 19004 99434 10078 46/// /0518 10114 21043 40124 52012 22200 00149 10603 70017 555 1/026
AAXX 19004 68352 36/// /0612 10199 21005 39088 48535 57005 333 10326 20196 91022 555 91019
AAXX 19004 89664 12461 40000 11013 21070 39849 49892 58017 60034 82870 333 11013 21078 56330 59070 81615 84458 90977 93104
AAXX 19004 16597 11660 22706 10100 20059 30052 40140 58001 60021 70260 82800 333 81830
BBXX TESTFR9 19004 99503 70042 46/// ///// 10079 29076 40238 22231
BBXX BAREU63 19004 99350 10292 46/// /1411 10170 29086 40206 57007 22263
AAXX 19004 08594 32460 50512 10222 20183 40173 81532 333 58005 81614 85070
AAXX 19004 08583 31558 60619 10222 20175 40177 70622 82531 333 58000 82622 86360 85070
AAXX 19004 08589 32462 50410 10230 20198 40165 82501 333 58004 82617 85070
AAXX 19004 61901 169// /1315 10159 20140 39676 40187 51002 69921 92350 333 8//99 555 7/090
BBXX WDC6698 19004 99093 71453 43/// /3013 1//// 2//// 40080 5//// 7//// 8//// 222// 04274 2//// 3//// 4//// 5//// 6//// 8//// ICE /////
BBXX 41012 19001 99300 70805 46/// /0206 10187 40251 53015 92350 22200 00235 11102 20502 309// 41102 70011 333 91207 555 11062 22064 32330 40208 62349 018060 037055 024052 009045 011035 003056
BBXX 41060 19001 99148 70510 46/// ///// 1//// 92350 22200 11106 70028
BBXX 41049 19001 99275 70630 46/// /2410 10232 20158 40152 50000 92350 22200 00241 11104 20503 300// 41103 70020 333 91212 555 11103 22109 32316 42413 62349 236098 237099 238097 239095 242094 241098 82411 92316
BBXX 41001 19001 99347 70727 46/// ///// 10110 20043 40216 53027 92350 22200 00219 10909 70044
BBXX 42020 19001 99270 70967 46/// /1111 10224 20173 40205 56012 92350 22200 00238 10503 20503 70016 333 91213 555 11113 22120 32328 41113 62349 110106 111107 107111 109108 109106 107108
BBXX 41044 19001 99217 70587 46/// /0504 10250 20132 40165 53010 92350 22200 00265 11105 20401 300// 41105 70027 333 91205 555 11040 22041 32315 40407 62349 051037 028034 034042 033048 042046 039048 80506 92305
BBXX 42065 19001 99149 70750 46/// /0709 10270 20206 92350 22200 10704 20704 70020 333 91211 555 11097 22104 32347 40711 62349 066092 057090 061082 060083 057086 059086 80710 92347
BBXX 41048 19001 99320 70696 46/// /3117 10154 20072 40171 53026 92350 22200 00224 10910 20910 70050 333 91220 555 11173 22183 32340 43123 62349 315175 317183 316178 315179 315182 318173 83220 92334
BBXX 42012 19001 99301 70876 46/// /0203 10153 20028 40262 53003 92350 22200 00205 10401 20401 309// 40401 70004 333 91204 555 11032 22033 32334 40306 62349 025031 032038 013030 030035 031031 028033
BBXX 42001 19001 99259 70897 46/// /0806 10215 20117 40239 52003 92350 22200 00260 10703 20502 3//// 40702 70014 333 91208 555 11059 22062 32320 40809 62349 074057 064060 063069 060062 074069 065066
BBXX 42035 19001 99292 70944 46/// /1007 10158 20118 40242 56008 92350 22200 00167 10502 20502 70009 333 91208 555 11071 22075 32250 41008 62349 104068 105065 106065 103062 101062 100061
BBXX 42058 19001 99149 70749 46/// /0609 10271 20208 40125 51012 92350 22200 00276 10704 20703 312// 41102 70018 333 91211 555 11097 22103 32320 40612 62349 058092 063096 061095 061094 058097 063093 80511 92304
BBXX 42060 19001 99163 70635 46/// /0407 10269 20188 40152 53018 92350 22200 00278 11103 20602 300// 41102 70014 333 91209 555 11075 22079 32347 40409 62349 043071 035068 037069 037069 040071 040065 80408 92347
BBXX 42036 19001 99285 70845 46/// /0307 10162 20080 40248 51012 92350 22200 00214 10502 20502 70010 333 91209 555 11074 22077 32250 40210 62349 029073 028071 028074 024068 021068 023065
BBXX 42056 19001 99198 70849 46/// /0408 10257 20202 40177 53006 92350 22200 00271 10704 20704 70020 333 91210 555 11087 22092 32303 40411 62349 038083 043078 043082 043081 041082 044084 80410 92303
BBXX 42059 19001 99151 70675 46/// /0709 10270 20211 40139 53015 92350 22200 00280 10603 20603 3//// 40902 70016 333 91211 555 11099 22105 32304 40612 62349 068093 063097 064101 065099 066100 054081 80711 92328
BBXX 42019 19001 99279 70954 46/// /1209 10206 20150 40219 56010 92350 22200 10603 20602 70013 333 91211 555 11094 22100 32339 42912 62349 125090 282096 281093 281093 281090 281087
BBXX 44005 19001 99432 70691 46/// /3508 11035 21120 40233 53014 92350 22200 00086 10603 20602 3//// 40902 70014 333 91210 555 11084 22087 32311 43511 62349 354080 354079 350078 354085 352078 355079
BBXX 42040 19001 99292 70882 46/// /0705 10149 40260 54000 92350 22200 00225 10602 20401 306// 40601 70008 333 91207 555 11051 22053 32335 40807 62349 067052 064056 055050 057053 053051 056051
BBXX 44060 19001 99413 70721 46/// ///06 11024 40258 92345 22200 00091 333 91208 555 11062 22067
BBXX 44009 19001 99385 70747 46/// /3309 10041 40279 53026 92350 22200 00120 10403 20403 300// 41001 70013 333 91211 555 11094 22097 32258 43413 62349 327090 323095 328093 331091 334095 328094
BBXX 44027 19001 99443 70673 46/// /3609 11046 21090 40225 51018 92350 22200 00084 10402 20402 3//// 41001 70012 333 91211 555 11092 22096 32337 43611 62349 358088 001089 002084 002081 002081 007077
BBXX 44065 19001 99404 70737 46/// /3504 10004 21112 40263 51022 92350 22200 00102 11101 20301 310// 41101 70007 333 91206 555 11041 22042 32251 43409 62349 346041 349048 344044 337049 342053 341062 83407 92252
BBXX 41013 19001 99334 70777 46/// /3506 10104 20000 40277 53027 92350 22200 00198 10802 20501 309// 40802 70009 333 91208 555 11059 22061 32339 43309 62349 341059 324060 319055 331057 310048 324052
BBXX 44022 19001 99409 70737 46/// ///03 11014 21131 40259 92345 22200 00083 333 91204 555 11031 22031
BBXX 44040 19001 99410 70736 46/// /0103 11015 21132 40266 92345 22200 1//00 70001 333 91204 555 11031 22031
BBXX 44020 19001 99414 70702 46/// /3510 11017 21077 40233 52025 92350 22200 00076 10402 20402 310// 40701 70010 333 91213 555 11104 22111 32314 42614 62349 333098 264095 264095 263100 263100 267099
BBXX 46060 19001 99606 71468 46/// /1118 10025 49832 57011 92350 22200 00058 333 91223 555 11194 22207 32320 41124 62349 113180 112188 114181 114189 114194 114185 81121 92311
BBXX 32012 19001 99197 50856 46/// ///// 1//// 92350 22200 11203 70017
BBXX 46006 19001 99408 71375 46/// /0000 10119 40330 56012 92350 22200 00129 11505 20401 3//// 41505 70024 333 91201 555 11001 22001 32314 42901 62349 139001 141002 343002 300003 033002 292001
BBXX 46002 19001 99426 71305 46/// ///// 10109 40311 54000 92350 22200 00121 11307 70035
BBXX 46084 19001 99566 71361 46/// /1520 10049 20035 40058 58044 92350 22200 00073 10911 20608 300// 40908 70057 333 91226 555 11218 22233 32349 41526 62349 150201 152198 152208 152200 154201 153214
BBXX 46078 19001 99561 71526 46/// /2515 1//// 92350 555 11162 22173
BBXX 46075 19001 99539 71608 46/// /2311 10039 21011 49909 51026 92350 22200 00048 11212 20608 300// 41209 70059 333 91213 555 11112 22119 32311 42415 62349 232103 236097 238109 241113 239115 237111 82412 92304
BBXX 46059 19001 99380 71300 46/// /0109 10127 40280 55000 92350 22200 00147 11506 20603 3//// 41505 70032 333 91211 555 11095 22100 32315 40211 62349 013090 010088 009092 012094 013091 007089
BBXX 46005 19001 99461 71310 46/// ///05 10084 40311 55000 92350 22200 00100 11406 20401 3//// 41406 70031 333 91206 555 11052 22054
BBXX 46080 19001 99580 71500 46/// /2219 10053 20013 49805 53036 92350 22200 00053 11217 21012 3//// 41211 70083 333 91224 555 11202 22217 32309 42324 62349 224186 227187 227180 226172 226183 223188 82321 92258
BBXX 46088 19001 99483 71232 46/// /0204 10079 40268 51015 92350 22200 00080 1//00 70002 333 91205 555 11047 22049 32253 40108 62349 019044 016050 013053 012059 006061 008059
BBXX 46014 19001 99394 71240 46/// /3508 10095 40220 56012 92350 22200 00107 11406 20502 3//// 41405 70028 333 91209 555 11082 22086 32329 43411 62349 351079 344086 340091 346073 345075 339074
BBXX 46011 19001 99350 71210 46/// /3206 10125 40201 56013 92350 22200 00139 11606 20401 330// 41606 70029 333 91208 555 11066 22069 32307 43208 62349 318064 325063 327063 327063 329063 332058
BBXX 46047 19001 99324 71195 46/// /3109 10136 40205 56013 92350 22200 00139 11705 20402 331// 41705 70027 333 91211 555 11098 22104 32342 43011 62349 306091 301091 303088 301090 300084 293079
BBXX 46086 19001 99325 71180 46/// /3007 10144 40193 56011 92350 22200 00151 11703 20401 329// 41703 70015 333 91208 555 11076 22081 32255 42909 62349 296070 298070 292070 291071 287070 288072
BBXX 46027 19001 99419 71244 46/// /3612 10096 40221 58015 92350 22200 00093 11506 20604 329// 41504 70031 333 91215 555 11126 22135 32344 43515 62349 355116 354113 354105 355094 358089 355075
BBXX 46050 19001 99442 71246 46/// /3509 10092 40280 53012 92350 22200 00097 11507 20603 329// 41506 70035 333 91211 555 11092 22097 32347 43511 62349 349085 347081 347078 348080 354090 354083
BBXX 46088 19001 99483 71232 46/// /0204 10079 40268 92350 22200 00080 1//00 70002 333 91205 555 11047 22049 32253 40108 62349 019044 016050 013053 012059 006061 008059
BBXX 46069 19001 99337 71202 46/// /3010 10132 40193 56014 92350 22200 00140 11605 20503 331// 41604 70024 333 91212 555 11103 22110 32314 43012 62349 299098 298095 302099 304096 303096 302092
BBXX 46013 19001 99382 71233 46/// /3004 10092 40213 57010 92350 22200 00107 11505 20401 3//// 41505 70026 333 91206 555 11040 22041 32337 43006 62349 305040 315049 320044 319031 314034 323041
BBXX 46012 19001 99374 71229 46/// /3104 10105 40208 56013 92350 22200 00125 11505 20401 328// 41505 70023 333 91207 555 11046 22047 32344 43107 62349 310045 305044 312037 295044 304043 296035
BBXX 46087 19001 99485 71247 46/// /1401 10083 20078 40274 53012 92350 22200 00078 11607 20401 327// 41607 70034 333 91203 555 11017 22020 32251 41105 62349 141013 134018 126018 119020 115025 111022
BBXX 46029 19001 99461 71245 46/// /3306 10086 20052 40278 52014 92350 22200 00088 11507 20502 329// 41507 70037 333 91207 555 11062 22065 32331 43209 62349 328059 342065 338063 339053 347058 345064
BBXX 46028 19001 99357 71219 46/// /3107 10120 40200 56014 92350 22200 00138 11606 20402 330// 41606 70031 333 91209 555 11077 22081 32344 43109 62349 310072 314072 312072 318064 316063 316068
BBXX 46054 19001 99342 71204 46/// /3110 10129 40187 56019 92350 22200 00143 11605 20503 300// 41604 70024 333 91213 555 11110 22116 32331 43113 62349 309102 309109 306106 313102 312099 313098
BBXX 46025 19001 99337 71191 46/// /0902 10144 20102 40181 56012 92350 22200 00156 10502 20301 326// 40502 70011 333 91203 555 11025 22025 32310 40804 62349 087024 075025 075027 074030 074029 017013
BBXX 46105 19001 99590 71522 46/// ///// 1//// 92350 22200 10909 70047
BBXX 46070 19001 99551 11753 46/// /3108 11021 21053 49831 50000 92350 22200 00037 11408 20604 3//// 41407 70041 333 91210 555 11087 22091 32339 43210 62349 309083 311068 313058 319051 311040 323044 83209 92340
BBXX 46078 19001 99561 71526 46/// /2515 1//// 92350 555 11162 22173
BBXX 42055 19001 99222 70940 46/// /0906 10245 20194 40198 55000 92350 22200 00252 10703 20502 301// 40702 70013 333 91207 555 11065 22068 32335 40807 62349 089061 084060 090056 087059 096059 092059 80906 92343
BBXX 42002 19001 99258 70937 46/// /0909 10217 20159 40228 55000 92350 22200 00241 10603 20603 70014 333 91210 555 11085 22091 32305 40910 62349 087085 082085 085083 085083 085084 081082
BBXX 42003 19001 99260 70856 46/// /0507 1//// 92350 22200 10703 20602 334// 40702 70016 333 91209 555 11069 22074 32327 40509 62349 048064 062062 054067 053065 057065 056063 80608 92328
BBXX 41047 19001 99275 70715 46/// /3612 10209 40212 53023 92350 22200 00251 10705 20705 308// 41002 70026 333 91215 555 11124 22131 32309 43516 62349 357124 347130 346123 351127 349131 353121 83514 92338
BBXX 41043 19001 99211 70650 46/// /0404 10252 20174 40174 51015 92350 22200 00264 11305 20301 300// 41305 70024 333 91205 555 11039 22040 32344 40505 62349 044037 048040 050037 057038 051038 057038 80505 92331
BBXX 41036 19001 99342 70770 46/// ///// 10094 21017 40278 53032 92350 22200 00164 11201 70007
BBXX 44066 19001 99396 70726 46/// /3409 10013 21060 40250 51025 92350 22200 00129 10504 20503 3//// 40801 70018 333 91212 555 11090 22093 32310 43513 62349 341088 346090 345094 333098 334096 341097
BBXX 4XIS 19003 99351 11566 43398 83220 10140 2010/ 40140 54000 882// 22225 20404 330// 40808 80125
BBXX LAIG7 19004 99405 11538 41497 52924 10050 2099/ 40115 51015 70222 8416/ 22223 00090 20604 329// 40906 5//// 6//// 81025 ICE /////
BBXX WDB3161 19004 99472 11557 41597 72813 10010 2//// 49954 52002 71672 876// 22252 00036 20302 325// 40806 5//// 6//// ICE /////
BBXX DBKV 19001 99169 70250 46/// /0405 10231 20182 40179 52012 22210 00236
BBXX DBBT 19001 99414 30030 46/// /2919 10120 20088 40120 52004 22213 00115
BBXX WRYC 19004 99176 10405 43/// /1704 10265 2023/ 40130 57010 7//// 8//// 22275 00281 2//// 3//// 4//// 5//// 6//// 80240 ICE /////
BBXX 41101 19004 99146 70562 46/// /0512 1//// 2//// 4//// 5//// 22200 00272 1//// 70///
BBXX WBN6510 19004 99224 70736 41397 60614 1//// 2//// 40100 54000 71552 83673 22232 04250 20502 30806 40503 50703 6//// 8//// ICE /////
BBXX PBFM 19003 99234 70535 41/97 /3514 10232 20202 40155 52016 702// 8//// 22254 2//// 80211
BBXX C6FV8 19003 99183 70644 41598 50315 10250 2//// 40100 51020 7//11 85263 22232 04290 20602 3//// 40602 50501 6//// 8//// ICE /////
BBXX SHIP 19004 99533 71389 41397 72323 10080 20068 40100 52010 7//22 867// 22224 00070 20405 31621 40606 51008 80 31
BBXX WNBE 19004 99214 71573 41/// /0525 10250 2//// 40150 54/// 7//// 8//// 222// 0//// 2//// 3//// 4//// 5//// 6//// 8//// ICE /////
BBXX 3FSB4 19004 99322 71289 43496 43611 10150 2013/ 40260 5//// 7//// 84466 22224 00180 20305 3//// 4//// 5//// 6//// 80135 ICE /////
BBXX 41004 19001 99325 70791 46/// /0106 10125 20013 40270 50017 92350 22200 00215 10602 20501 3//// 40602 70012 333 91208 555 11060 22062 32327 43608 62349 005056 356056 355058 354056 003048 343043
BBXX 44025 19001 99402 70732 46/// /3509 10003 21098 40259 51024 92350 22200 00109 10402 20402 310// 41101 70010 333 91211 555 11094 22098 32258 43411 62349 346088 340078 339078 336077 342078 338086
BBXX 41008 19001 99314 70809 46/// /0404 10134 20063 40275 53019 92350 22200 00162 10502 20401 300// 40501 70008 333 91205 555 11038 22039 32301 40206 62349 035037 038040 035044 031046 032046 034049
BBXX 46114 19001 99364 71222 46/// ///// 1//// 92334 22200 00124 11507 21002 330// 41507 70034
BBXX 51205 19001 99210 71564 46/// ///// 1//// 92348 22200 00244 11405 20904 332// 41403 70026
BBXX 44098 19001 99428 70702 46/// ///// 1//// 92337 22200 00090 10602 20602 310// 41101 70012
BBXX 41115 19001 99184 70673 46/// ///// 1//// 92335 22200 11304 21003 301// 41302 70018
BBXX 41114 19001 99276 70802 46/// ///// 1//// 92346 22200 00243 11302 21002 307// 41301 70012
BBXX 42363 19001 99282 70892 46/// /0807 10167 20078 40264 92345 333 91207
BBXX 42364 19001 99291 70881 46/// /0505 10150 20067 40264 92345
BBXX 46211 19001 99469 71242 46/// ///// 1//// 92336 22200 00084 11207 20905 328// 41205 70035
BBXX A8NW9 19004 99391 70405 41298 31725 10195 20183 40280 52020 70211 837// 22215 04180 20704 318// 41205 80187
BBXX WDD9433 19004 99442 71597 41/// ///// 10090 20025 49975 52035 701// 8/0// 22223 00100 20205 324// 40407 5//// 6//// 80060 ICE /////
BBXX 9HJB9 19004 99207 70746 41898 70916 10238 20197 40170 56010 70222 85878 22234 04260 20502 3//// 4//// 5//// 6//// 85210 ICE /////
BBXX LADR4 19004 99310 71464 41899 32924 00/// 10190 2016/ 40180 53000 70200 87243 22273 00240 20705 3//// 4//// 5//// 6//// 80170
BBXX MYSU5 19004 99452 70562 41/97 81332 10010 21019 40135 52010 77372 8//// 22223 00090 20609 318// 40503 5//// 80000
BBXX 46217 19001 99342 71194 46/// ///// 1//// 92342 22200 00145 10603 20603 327// 41401 70015
BBXX 46240 19001 99366 71219 46/// ///// 1//// 92342 22200 00124 11202 20901 335// 41202 70012
BBXX 46237 19001 99378 71226 46/// ///// 1//// 92340 22200 00112 11505 21002 326// 41504 70024
BBXX 46212 19001 99408 71243 46/// ///// 1//// 92342 22200 00098 11505 20803 331// 41505 70027
BBXX 46248 19001 99461 71247 46/// ///// 1//// 92334 22200 00096 11508 21005 329// 41505 70038
BBXX 46244 19001 99409 71244 46/// ///// 1//// 92335 22200 00099 11306 21003 329// 41305 70030
BBXX 46249 19001 99338 71197 46/// ///// 1//// 92342 22200 00147 10603 20603 327// 41701 70016
BBXX V2AN5 19001 99545 71700 41497 42118 10023 21033 49823 51003 70311 83343 22264 20708 302// 41206 5//// 80002
BBXX DFZB2 19004 99122 71011 41698 30218 10270 20236 40141 50006 7//11 83400 22264 04280 20904 326// 41104 5//// 80245
BBXX DBBI 19001 99539 10087 46/// /2405 10020 20020 40076 52012 22260 00044
BBXX DBKR 19001 99541 10121 46/// /2407 10019 20014 40050 52012 22200 00049
BBXX DBBC 19001 99542 10079 46/// /3206 10054 2//// 40076 520/5 22270 00072
BBXX DBBU 19001 99542 10119 46/// /2514 10025 20023 40048 52009 22230 00057
BBXX DBEB 19001 99538 10082 41/// /2410 10023 20023 40076 52013 7//// 22221 00043
BBXX DBFH 19001 99535 10086 46/// /2407 10020 20012 40084 52008 22240 00045
BBXX DBBA 19001 99544 10109 46/// /2314 10029 20017 40038 52005 22270 00050
BBXX DBJM 19001 99540 10085 46/// /2410 10037 20027 40077 52008 22220 00043
BBXX DBEA 19001 99540 10084 46/// /2506 10044 20030 40075 52014 22210 00044
BBXX DBFR 19001 99542 10080 46/// /3111 10053 20039 40072 52014 22201 00065
BBXX WDC6736 19004 99344 70040 43/// /1909 10210 2020/ 40130 54005 7//// 8//// 22211 00240 2//// 3//// 4//// 5//// 6//// 80200 ICE /////
BBXX WZJC 19003 99233 70801 41398 10513 10239 2020/ 40194 53010 70110 81298 22273 02256 2//// 3//// 4//// 5//// 6//// 80211 ICE /////
BBXX VRZN8 19004 99292 71205 41298 33514 10170 2014/ 40257 5//// 70100 83483 22213 00170 21204 332// 41805 5//// 6//// 80150 ICE /////
BBXX A8EH2 19004 99348 71249 41/98 83619 10125 20085 40215 57020 70322 8/77/ 22274 00128 20404 332// 40608 80105
BBXX KGTX 19004 99546 71376 41/97 /1735 10080 2006/ 40060 57030 76062 8//// 22274 00069 21307 319// 41611 5//// 6//// 80070 ICE /////
BBXX C6XC2 19004 99024 31327 41897 30404 10290 20263 40090 52/// 7//22 83485 2226/ 00300 2//// 3//// 4//// 5//// 6//// 80270 ICE /////
AAXX 19001 13579 11560 83501 10013 20001 39320 40172 58002 60011 72162 885// 333 83720 88645
AAXX 19004 78862 12480 60310 10244 20193 30131 40154 60001 84202 333 10283 20227 58006 84818 83078
AAXX 19004 5000 SHRA BKN015 BKN035
AAXX 19004 TAF TKPN 181600Z 1818/1918 05014KT 9999 SCT022 BKN036 PROB40 TEMPO 1818/1918 5000 SHRA BKN015 BKN035
AAXX 19004 TAF TQPF 181600Z 1818/1918 05014KT 9999 SCT022 BKN036 PROB40 TEMPO 1818/1918 5000 SHRA BKN015 BKN035
AAXX 19004 TAF TUPJ 181600Z 1818/1918 05014KT 9999 SCT022 BKN036 PROB40 TEMPO 1818/1918 5000 SHRA BKN015 BKN035
AAXX 19004 EMPO 0600/0624 SHRA BKN015=+TSRA SCT012CB
AAXX 19004 TAF TUPJ 041000Z 04012/0512 07008KT 9999 SCT016 BKN038 SCT270 TEMPO 0412/0512 SHRA BKN015 PROB40 TEMPO 0418/0512 5000 SHRA BKN014 BKN036 PROB30 0420/0512 4000 TSRA FEW012CB
AAXX 19004 918 4000 TSRA FEW012CB
AAXX 19004 N015 BKN036 PROB40 TEMPO 0704/0724 3000 +TSRA SCT011CB BKN012 BECMG 0712/0714 14008KT
AAXX 19004 21/2712 07017G28KT 5000 SHRA BKN015 BKN036 PROB TEMPO 2700/2712 4000 TSRA FEW013CB
AAXX 19004 PROB30 TEMPO 0800/0806 4000 TSRA FEW012CB PROB40 TEMPO 0800/0824 2000 +SHRA/TSRA SCT010CB BKN012 BKN250
AAXX 19004 78862 12480 60310 10244 20193 30131 40154 60001 84202 333 10283 20227 58006 84818 83078
AAXX 19004 5000 SHRA BKN015 BKN035
AAXX 19004 TAF TKPN 181600Z 1818/1918 05014KT 9999 SCT022 BKN036 PROB40 TEMPO 1818/1918 5000 SHRA BKN015 BKN035
AAXX 19004 TAF TQPF 181600Z 1818/1918 05014KT 9999 SCT022 BKN036 PROB40 TEMPO 1818/1918 5000 SHRA BKN015 BKN035
AAXX 19004 TAF TUPJ 181600Z 1818/1918 05014KT 9999 SCT022 BKN036 PROB40 TEMPO 1818/1918 5000 SHRA BKN015 BKN035
AAXX 19004 EMPO 0600/0624 SHRA BKN015=+TSRA SCT012CB
AAXX 19004 TAF TUPJ 041000Z 04012/0512 07008KT 9999 SCT016 BKN038 SCT270 TEMPO 0412/0512 SHRA BKN015 PROB40 TEMPO 0418/0512 5000 SHRA BKN014 BKN036 PROB30 0420/0512 4000 TSRA FEW012CB
AAXX 19004 918 4000 TSRA FEW012CB
AAXX 19004 N015 BKN036 PROB40 TEMPO 0704/0724 3000 +TSRA SCT011CB BKN012 BECMG 0712/0714 14008KT
AAXX 19004 21/2712 07017G28KT 5000 SHRA BKN015 BKN036 PROB TEMPO 2700/2712 4000 TSRA FEW013CB
AAXX 19004 PROB30 TEMPO 0800/0806 4000 TSRA FEW012CB PROB40 TEMPO 0800/0824 2000 +SHRA/TSRA SCT010CB BKN012 BKN250
AAXX 19004 91376 11474 80612 10288 20247 30083 40086 58003 60024 70282 84878 333 20276 56119 58000 70018 555 91900
AAXX 19004 96315 31265 71907 10251 20237 40073 60134 72162 82878 333 20241 55092 81705 85364
AAXX 19004 96323 NIL
BBXX BAREU54 19004 99097 70809 46/// ///// 40117 52014 22262
BBXX BAREU05 19004 99458 70530 46/// ///// 40105 57006 22264
BBXX BAREU51 19004 99370 10133 46/// ///// 40135 52020 22235
BBXX BAREU08 19004 99438 70186 46/// ///// 40288 57010 22214
BBXX BAREU04 19004 99548 70221 46/// ///// 40115 52005 22263
AAXX 19004 86011 32970 02905 10290 20213 39919 40076 51004 333 10370 55110
AAXX 19004 86033 32670 10000 10304 20191 39973 40066 57004 81400 333 10362 55112 81634
AAXX 19004 86065 NIL
AAXX 19004 86068 32970 00000 10318 20203 39868 40054 56008 333 10375 55124
AAXX 19004 86086 32970 11803 10284 20165 39983 40072 52012 80001 333 10350 55115
AAXX 19004 86097 32970 01402 10238 20118 39452 40090 53007 333 10318 55106
AAXX 19004 86128 NIL
AAXX 19004 86134 31570 51208 10288 20180 39980 40065 53009 71322 85300 333 10360 55115 84633 81940
AAXX 19004 86170 32970 00000 10266 20178 39947 40048 53008 333 10360 55117
AAXX 19004 86185 32570 30000 10250 20154 39984 40077 52012 83500 333 10352 55100 83633
AAXX 19004 86192 NIL
AAXX 19004 86210 32570 11402 10262 20162 39720 40056 57008 81200 333 10332 55125 81833
AAXX 19004 86218 32970 01505 10264 20176 39984 40079 51011 333 10348 55115
AAXX 19004 86221 32970 00000 10254 20144 39958 40091 51001 333 10332 55110
AAXX 19004 86233 32970 01804 10270 20138 39905 40092 51012 333 10332 55123
AAXX 19004 86234 32970 01802 10234 20181 39851 40035 53012 333 10330 55127
AAXX 19004 86246 32570 22808 10254 20183 39792 40073 51004 82100 333 10320 55127 82833
AAXX 19004 86251 32970 01804 10262 20101 39895 40060 53005 333 10322 55///
AAXX 19004 86255 32970 00000 10248 20204 30017 40084 57017 333 10338 55105
AAXX 19004 86260 32970 00000 10250 20187 39920 40070 56010 333 10326 55083
AAXX 19004 86268 32970 00000 10242 20134 39923 40086 51002 333 10323 55123
AAXX 19004 86285 32970 00000 10240 20159 39800 40080 51006 333 10320 55121
AAXX 19004 86297 32970 03603 10260 20181 39951 40054 52002 333 10330 55///
AAXX 19004 91376 11474 80612 10288 20247 30083 40086 58003 60024 70282 84878 333 20276 56119 58000 70018 555 91900
AAXX 19004 85406 12970 02203 10202 20151 40145 53023 60001 333 10240
AAXX 19004 85418 12560 62015 10199 20152 40145 53023 60001 84501 333 10228 56000 84625 82080
AAXX 19004 85432 12970 02618 10170 20035 48443 52024 60001 333 10240
AAXX 19004 85442 12375 51908 10179 20146 40136 53013 60001 85500 333 10211 56400 82608 84614
AAXX 19004 85467 12460 32309 10164 20126 40148 55000 60001 83500 333 10217 56600 83617
AAXX 19004 85469 42570 61007 10244 20190 40251 57007 84231 333 56220 84820 83365
AAXX 19004 85488 12460 72805 10161 20141 40138 56005 60001 87500 333 10204 56000 82611 87613
AAXX 19004 85874 32982 /2918 10107 20026 39490 40108 52003 333 10170
AAXX 19004 85934 12580 53113 10145 20046 49950 57012 60001 83430 333 10188 56770 83623 83359
AAXX 19004 85574 12960 02115 10261 20096 39578 40109 53004 60001 333 10328
AAXX 19004 85577 12960 02205 10261 20101 39531 40116 51006 60001 333 10328
AAXX 19004 85586 12960 02303 10176 20102 4014 53001 60001 333 10212
AAXX 19004 85629 12984 02610 10270 20129 40114 53002 60001 333 10314
AAXX 19004 85682 12965 02414 10174 20119 40157 57002 60001 333 10241
AAXX 19004 85743 12560 12405 10165 20100 40172 53001 60001 81100 333 10241 56500 81830
AAXX 19004 91772 31498 40704 10310 20264 4//// 60001 70221 82102 333 20260 561/9 79999 82710 84081
AAXX 19004 91776 11498 41007 1//// 2//// 4//// 60011 70181 842// 333 2//// 562// 70014 84818
AAXX 19004 91779 31498 60511 10296 20245 40111 58010 60001 70222 82201 333 20246 561/9 70000 82817 86080
AAXX 19004 91784 31598 70414 10299 20251 40106 58006 60001 70312 81107 333 20266 561/9 70000 81820 87278
AAXX 19004 91792 31498 73612 10286 20239 40109 58011 60001 70222 84702 333 20246 568/9 70002 84816 87277
AAXX 19004 91376 11474 80612 10288 20247 30083 40086 58003 60024 70282 84878 333 20276 56119 58000 70018 555 91900 /
BBXX BATFR32 19004 99430 10080 46/// /0922 10110 21017 40118 53014 7//// 8//// 22264 00146
AAXX 19004 81405 04981 /0000 10255 20234 30107 40116 60001 700// 333 10314 60007 58005 555 60005
AAXX 19004 81225 12970 20505 10262 20231 40107 60001 80002 333 10330 56009 59004 70000 82080
AAXX 19004 81200 12970 20806 10268 20230 40107 60001 80002 333 10/// 56009 59002 70000 82080
AAXX 19004 81202 12970 10717 10274 20240 40107 60001 80002 333 10298 56009 59004 70000 81080
AAXX 19004 81209 NIL
AAXX 19004 81251 NIL
AAXX 19004 68386 36/// /1502 10209 20179 39731 48641 57005 333 10332 20209 91004 555 91027
AAXX 19003 91502 01462 83205 10265 20251 40068 58001 61004 71698 8697/ 333 20245 56799 59018 69947 83815 82916 86628 87360
AAXX 19003 91507 11470 63606 10316 20247 40064 58004 69974 70522 82976 333 20248 56999 59017 82818 81919 86361
AAXX 19003 91520 11570 81603 10305 20239 40067 58005 60094 70522 84837 333 20239 56999 59016 82820 83630 88280
AAXX 19003 91541 32480 60904 10305 20256 40080 57003 82206 333 20260 56200 59009 82817 85281
AAXX 19003 91502 01462 83205 10265 20251 40068 58001 61004 71698 8697/ 333 20245 56799 59018 69947 83815 82916 86628 87360
AAXX 19003 91507 11470 63606 10316 20247 40064 58004 69974 70522 82976 333 20248 56999 59017 82818 81919 86361
AAXX 19003 91520 11570 81603 10305 20239 40067 58005 60094 70522 84837 333 20239 56999 59016 82820 83630 88280
AAXX 19003 91541 32480 60904 10305 20256 40080 57003 82206 333 20260 56200 59009 82817 85281
AAXX 19004 78862 12480 60310 10244 20193 30131 40154 60001 84202 333 10283 20227 58006 84818 83078
AAXX 19004 5000 SHRA BKN015 BKN035
AAXX 19004 TAF TKPN 181600Z 1818/1918 05014KT 9999 SCT022 BKN036 PROB40 TEMPO 1818/1918 5000 SHRA BKN015 BKN035
AAXX 19004 TAF TQPF 181600Z 1818/1918 05014KT 9999 SCT022 BKN036 PROB40 TEMPO 1818/1918 5000 SHRA BKN015 BKN035
AAXX 19004 TAF TUPJ 181600Z 1818/1918 05014KT 9999 SCT022 BKN036 PROB40 TEMPO 1818/1918 5000 SHRA BKN015 BKN035
AAXX 19004 EMPO 0600/0624 SHRA BKN015=+TSRA SCT012CB
AAXX 19004 TAF TUPJ 041000Z 04012/0512 07008KT 9999 SCT016 BKN038 SCT270 TEMPO 0412/0512 SHRA BKN015 PROB40 TEMPO 0418/0512 5000 SHRA BKN014 BKN036 PROB30 0420/0512 4000 TSRA FEW012CB
AAXX 19004 918 4000 TSRA FEW012CB
AAXX 19004 N015 BKN036 PROB40 TEMPO 0704/0724 3000 +TSRA SCT011CB BKN012 BECMG 0712/0714 14008KT
AAXX 19004 21/2712 07017G28KT 5000 SHRA BKN015 BKN036 PROB TEMPO 2700/2712 4000 TSRA FEW013CB
AAXX 19004 PROB30 TEMPO 0800/0806 4000 TSRA FEW012CB PROB40 TEMPO 0800/0824 2000 +SHRA/TSRA SCT010CB BKN012 BKN250
AAXX 19004 97180 12459 50702 10282 20246 30070 40088 51019 60434 82231 333 20238 5//// 55011 55508 50890 56000 59006 82819 83080
AAXX 19004 85406 12970 02203 10202 20151 40145 53023 60001 333 10240
AAXX 19004 85418 12560 62015 10199 20152 40145 53023 60001 84501 333 10228 56000 84625 82080
AAXX 19004 85432 12970 02618 10170 20035 48443 52024 60001 333 10240
AAXX 19004 85442 12375 51908 10179 20146 40136 53013 60001 85500 333 10211 56400 82608 84614
AAXX 19004 85467 12460 32309 10164 20126 40148 55000 60001 83500 333 10217 56600 83617
AAXX 19004 85469 42570 61007 10244 20190 40251 57007 84231 333 56220 84820 83365
AAXX 19004 85488 12460 72805 10161 20141 40138 56005 60001 87500 333 10204 56000 82611 87613
AAXX 19004 85874 32982 /2918 10107 20026 39490 40108 52003 333 10170
AAXX 19004 85934 12580 53113 10145 20046 49950 57012 60001 83430 333 10188 56770 83623 83359
AAXX 19004 85574 12960 02115 10261 20096 39578 40109 53004 60001 333 10328
AAXX 19004 85577 12960 02205 10261 20101 39531 40116 51006 60001 333 10328
AAXX 19004 85586 12960 02303 10176 20102 4014 53001 60001 333 10212
AAXX 19004 85629 12984 02610 10270 20129 40114 53002 60001 333 10314
AAXX 19004 85682 12965 02414 10174 20119 40157 57002 60001 333 10241
AAXX 19004 85743 12560 12405 10165 20100 40172 53001 60001 81100 333 10241 56500 81830
AAXX 19004 81225 12970 20505 10262 20231 40107 60001 80002 333 10330 56009 59004 70000 82080
AAXX 19004 81200 12970 20806 10268 20230 40107 60001 80002 333 10/// 56009 59002 70000 82080
AAXX 19004 81202 12970 10717 10274 20240 40107 60001 80002 333 10298 56009 59004 70000 81080
AAXX 19004 81209 NIL
AAXX 19004 81251 NIL
BBXX BATFR41 19004 99411 10012 46/// ///// 10057 21022 40233 51009 22200
BBXX BATFR19 19004 99065 30060 46/// /1810 10237 20192 40129 58008 222// 00254
BBXX BATEU04 19004 99573 10107 46/// /2916 10029 21013 49977 22242
BBXX BATFR12 19004 99483 70073 46/// /3114 10104 20062 40252 58004 22200 00142
BBXX BATFR09 19004 99467 70031 46/// /3121 10097 20047 40232 58013 22213 00147
BBXX BATFR27 19004 99506 70011 46/// /3110 10070 20024 40196 50003 22242 00092
BBXX BAREU06 19004 99456 70735 46/// ///// 40238 22231
BBXX BATFR16 19004 99462 70073 44698 33317 10112 20044 40264 50003 70200 833// 22264 00147 21004 332// 41004 5////
BBXX BATFR05 19004 99063 10034 46/// /2408 10282 20237 40101 58010 22200 00262
BBXX BAREU58 19004 99379 10236 46/// ///// 40147 22200
BBXX BATFR03 19004 99495 70004 46/// /0021 10070 21002 40201 22282
BBXX BATEU08 19004 99618 70301 46/// /2235 10002 21027 49939 55005 22261
BBXX BATFR04 19004 99598 70106 46/// /1626 10072 20042 40060 58041 22200 00100
BBXX BATFR60 19004 99504 70005 46/// /3218 10055 21021 40204 53023 22253 00109
BBXX BATFR21 19004 99428 10070 46/// /3320 40125 51025 22263
BBXX BATFR45 19004 99049 30480 46/// ///// 10284 20242 40094 55006 22214 00309
BBXX BATEU01 19004 99498 70371 44/97 01401 10079 20017 40204 53009 70000 222// 00089 327// 40502 5////
BBXX BATEU06 19004 99522 70526 46/// /2612 11073 21131 40192 51019 22264 00017
AAXX 19001 10004 NIL
AAXX 19001 10015 12582 73109 10051 20019 30066 40076 53016 60001 8583/ 333 31/// 55/// 20157 30108 55300 20000 30000 82820 84646 85364 91113 91211
AAXX 19001 10020 07575 33108 10051 20034 30019 40051 51014 69931 70065 333 55/// 20146 30105 55300 20000 30000 69907 81/23 83/33 91114
AAXX 19001 10035 01580 42404 10020 20010 39997 40057 53011 69901 72500 84800 333 31/// 55/// 20164 30121 42263 55300 20000 30000 40949 69907 81829 84640
AAXX 19001 10055 12780 72513 10035 20020 30031 40042 53009 60001 875// 333 31/// 55/// 20193 30121 55300 20000 30000 87650 91118 91214
AAXX 19001 10147 11370 82506 10022 20010 30061 40080 51012 69901 70281 886// 333 31/// 55/// 20090 30088 42514 55300 20000 30000 41139 87707
AAXX 19001 10162 15472 82507 10016 20002 39988 40072 51013 60001 333 55/// 20097 30089 55300 20000 30000 88/10 91113
AAXX 19001 10184 11477 72306 10017 20000 30038 40046 51015 69921 70381 872// 333 31/// 55/// 20128 30084 55300 20000 30000 87812
AAXX 19001 10200 07388 82505 10016 20011 30096 40094 51009 60051 72487 333 55/// 20205 30152 55300 20000 30000 60057 88/06 91113
AAXX 19001 10224 01480 72505 10017 20005 30091 40098 50006 69911 70381 875// 333 35/// 41998 55/// 20126 30110 55300 20000 30000 69907 86610 86620 96483
AAXX 19001 10270 16460 82505 10022 21001 30041 40097 53016 60001 222// 06044 333 55300 87/17 88/21
AAXX 19001 10338 11481 62405 10023 20001 30036 40110 51007 69901 70182 862// 333 31/// 55/// 20172 30148 55300 20000 30000 86816 96480
AAXX 19001 10361 15584 82505 10024 21009 30011 40117 53014 60001 333 55/// 20169 30151 55300 20000 30000 88/32
AAXX 19001 10393 11480 82506 10017 21001 39974 40103 53015 69901 70362 875// 333 31/// 55/// 20108 30104 55300 20000 30000 87618
AAXX 19001 10400 12375 82404 10013 21002 30098 40149 53008 60001 886// 333 31/// 55/// 20286 30153 55300 20000 30000 88709
AAXX 19001 10438 07679 41703 10001 21029 39853 40141 51006 69911 70070 333 55300 69917 82/49 84/71
AAXX 19001 10469 11685 52305 10005 21014 39961 40130 51014 69901 70172 81521 333 31/// 55300 81640 85460
AAXX 19001 10488 01581 72305 10014 21015 39846 40133 51016 69901 70372 875// 333 31/// 55/// 20121 30119 42480 55300 20000 30000 41017 69907 81624 86650
AAXX 19001 10506 01459 81602 11018 21029 39562 40163 52002 69901 77011 885// 333 43003 55/// 20210 30193 55300 20000 30000 69907 87613
AAXX 19001 10548 07471 82403 11005 21024 39601 40157 52010 69911 77187 333 55/// 20140 30131 55300 20000 30000 69917 85/11 87/18 88/24
AAXX 19001 10637 11982 02002 11014 21026 30028 40171 51008 69901 70281 333 35/// 55300 92601 96483
AAXX 19001 10685 07261 82303 11018 21028 39463 40157 51015 69901 77770 333 4/004 55/// 20139 30139 55300 20000 30000 69907 88/06
AAXX 19001 10738 11580 72302 11006 21024 39704 40189 51009 69901 70372 8353/ 333 31/// 55300 81626 83656 87363
AAXX 19001 10763 02465 82603 10001 21016 39781 40175 51013 69901 875// 333 31/// 55/// 20159 30153 55300 20000 30000 69907 84714 87641
AAXX 19001 10788 07667 82602 10003 21007 39730 40174 51011 69911 70075 333 55/// 20202 30167 55300 20000 30000 69907 88/37
AAXX 19001 10852 07666 80101 11021 21023 39599 40189 51011 69901 70075 333 55/// 20192 30183 55300 20000 30000 69907 88/34 88/65
AAXX 19001 10946 07421 82901 11021 21023 39335 40193 51009 60031 77270 333 55/// 20321 30307 55300 20000 30000 60037 81/11 87/44 88/50
AAXX 19001 12772 31982 22103 10023 21044 39897 40188 51013 70200 80002
AAXX 19001 12822 36/// /1401 11033 21037 30030 40180 50007
AAXX 19001 12843 31970 20401 11012 21031 30005 40182 50006 70300 80002
AAXX 19001 12882 31975 01001 11014 21022 30059 40196 50007 70200
AAXX 19001 12925 36/// /0401 11027 21031 39993 40172 52006
AAXX 19001 12942 31982 80602 10004 21015 39915 40167 58001 70322 82037
AAXX 19001 12982 31970 61104 10004 21020 30073 40177 57003 70311 80006
AAXX 19001 01001 11575 31805 11049 21089 30049 40061 57015 60001 70200 82510 333 91107
AAXX 19001 01008 41480 71205 10004 21052 39978 40011 58009 77072 8457/ 333 91108
AAXX 19001 01010 41989 20706 10022 21039 39995 40011 57009 70200 80008 333 91108
AAXX 19001 01026 41889 71701 11042 21060 39882 40026 57009 70321 81078 333 4/022 91102
AAXX 19001 01055 46/// /1304 10008 21030 30034 40052 56005 333 91106
AAXX 19001 01062 NIL
AAXX 19001 01098 41480 80505 10037 20013 30036 40054 57011 72372 886// 333 91108
AAXX 19001 01115 41988 00409 10042 21012 39945 49966 56011 70200 333 91111
AAXX 19001 01152 11689 70805 11002 21048 39962 49977 58008 60001 70211 81578 333 91108
AAXX 19001 01205 46/// /3012 10065 20035 39950 49995 57002 333 91129
AAXX 19001 01212 16/// /3013 10054 20039 39959 49975 57006 6//// 333 91116
AAXX 19001 01271 16/// /1003 11071 21090 39959 49980 58000 6//// 333 91105
AAXX 19001 01288 16/// /0102 11049 21065 39207 49963 52002 6//// 333 91104
AAXX 19001 01300 NIL
AAXX 19001 01317 16/// /3202 10026 20013 30013 40028 54000 6//// 333 91107
AAXX 19001 01367 41989 03305 11116 21129 39522 49983 57005 70200 333 91109
AAXX 19001 01384 41989 53104 11006 21046 39688 49936 52001 70310 8507/ 333 91109
AAXX 19001 01403 16/// ///// 10046 20021 39972 40041 52002 60001
AAXX 19001 01415 16/// /0202 10029 20011 30027 40038 57000 6//// 333 91112
AAXX 19001 01482 46/// /3009 10032 21023 39940 49947 54000 333 91112
AAXX 19001 01492 41988 41201 11024 21049 39823 49942 55000 70121 84030 333 91104
AAXX 19001 01003 NIL
AAXX 19001 01007 16/// /3106 11042 21057 30013 40022 53011 60021 333 91110
AAXX 19001 01028 11685 21406 10008 21001 30040 40060 52003 60001 70200 82500 333 91109
AAXX 19001 01047 41580 83405 11050 21058 39652 40029 57012 77172 8802/
AAXX 19001 01049 16/// /2002 11077 21087 30053 40057 57004 60001 333 91104
AAXX 19001 01078 16/// /1503 11015 21042 30048 40061 57005 6//// 333 91104
AAXX 19001 01102 46/// /0207 10032 21023 39944 49963 56006 333 91109
AAXX 19001 01160 41989 3//// 10028 21038 39965 49982 58013 70200 80000
AAXX 19001 01218 NIL
AAXX 19001 01238 46/// /2706 11035 21057 38820 49946 57002 333 91110
AAXX 19001 01241 16/// /1002 11047 21054 39959 49970 50000 6//// 333 91107
AAXX 19001 01281 NIL
AAXX 19001 01338 16/// /2702 10019 20009 39936 40002 57004 69951 333 91107
AAXX 19001 01359 16/// /2705 11003 21058 39061 49969 54000 60001 333 91113
AAXX 19001 01397 16/// /3105 11010 21040 39486 49921 57002 60001 333 91108
AAXX 19001 01400 NIL
AAXX 19001 01427 16/// /3208 10045 20014 30008 40024 50005 60001 333 91116
AAXX 19001 01447 NIL
AAXX 19001 01448 46/// /3005 10031 21022 39984 49994 55000 333 91110
AAXX 19004 78700 32578 63606 10290 20241 30114 40119 52020 81131 333 10370 20240 30/// 56080 58014 70000 81830 84358
AAXX 19004 78703 31568 73604 10244 20182 30165 40167 53005 70544 81270 333 10289 20222 30/// 56000 59008 70001 81825 87457
AAXX 19004 78704 01562 70000 10226 20212 30169 40174 56002 60021 72065 83270 333 10284 20205 31/// 56000 58009 70221 83822 87457
AAXX 19004 78705 11566 70000 10221 20207 30154 40172 53009 60031 70564 83170 333 10287 20196 31/// 56000 59008 70120 83828 87358
AAXX 19004 78706 31570 70000 10254 20229 30160 40165 52010 70544 85270 333 10299 20189 30/// 56200 58010 70149 85824 87458
AAXX 19004 78707 333 78708 01160 70000 10219 20218 30144 40175 53007 60011 72166 84470 333 10238 20207 32/// 56880 59024 70108 81704 83615 87358
AAXX 19004 78711 333 78714 32570 32602 10238 20193 83200 333 10270 20183 30/// 56200 70000 83830
AAXX 19004 78717 01560 83503 10164 20158 38980 40178 53004 60021 70554 8652/ 333 10174 20130 32/// 56199 59003 60017 70159 86620 88460
AAXX 19004 78718 31660 53512 10192 70544 83430 333 10240 20184 30/// 56800 70000 83840 83359
AAXX 19004 78719 01450 70316 10132 20119 38362 40156 53006 69901 75022 87400 333 10175 20125 30/// 56100 59005 69900 70003 87618
AAXX 19004 78720 12560 60114 10193 20152 39049 40147 52005 69921 70544 84430 333 10224 20193 30/// 56800 58007 70002 84824 84358
AAXX 19004 78724 32578 60316 10276 20197 30059 40116 53008 83171 333 10323 20256 30/// 56100 59001 70000 82830 83358
AAXX 19004 89009 41356 83111 11257 36817 53021 77771 8871/ 333 11257 21284 87708 88412
BBXX 3FSB4 19004 99322 71289 43496 43611 10150 20130 40260 5//// 7//// 84466 22224 00180 20305 3//// 4//// 5//// 6//// 80135 ICE /////
BBXX 46002 19001 99426 71305 46/// ///// 10109 40311 54000 92350 22200 00121 11307 70035
BBXX 46005 19001 99461 71310 46/// ///05 10084 40311 55000 92350 22200 00100 11406 20401 3//// 41406 70031 333 91206 555 11052 22054
BBXX 46012 19001 99374 71229 46/// /3104 10105 40208 56013 92350 22200 00125 11505 20401 328// 41505 70023 333 91207 555 11046 22047 32344 43107 62349 310045 305044 312037 295044 304043 296035
BBXX 46013 19001 99382 71233 46/// /3004 10092 40213 57010 92350 22200 00107 11505 20401 3//// 41505 70026 333 91206 555 11040 22041 32337 43006 62349 305040 315049 320044 319031 314034 323041
BBXX 46014 19001 99394 71240 46/// /3508 10095 40220 56012 92350 22200 00107 11406 20502 3//// 41405 70028 333 91209 555 11082 22086 32329 43411 62349 351079 344086 340091 346073 345075 339074
BBXX 46028 19001 99357 71219 46/// /3107 10120 40200 56014 92350 22200 00138 11606 20402 330// 41606 70031 333 91209 555 11077 22081 32344 43109 62349 310072 314072 312072 318064 316063 316068
BBXX 46029 19001 99461 71245 46/// /3306 10086 20052 40278 52014 92350 22200 00088 11507 20502 329// 41507 70037 333 91207 555 11062 22065 32331 43209 62349 328059 342065 338063 339053 347058 345064
BBXX 46050 19001 99442 71246 46/// /3509 10092 40280 53012 92350 22200 00097 11507 20603 329// 41506 70035 333 91211 555 11092 22097 32347 43511 62349 349085 347081 347078 348080 354090 354083
BBXX A8EH2 19004 99348 71249 41/98 83619 10125 20085 40215 57020 70322 8/77/ 22274 00128 20404 332// 40608 80105
BBXX KGTX 19004 99546 71376 41/97 /1735 10080 20060 40060 57030 76062 8//// 22274 00069 21307 319// 41611 5//// 6//// 80070 ICE /////
BBXX UGPK 19001 99554 11483 43/98 70507 11012 40060 53080 22211 00011 2//20 3//05
AAXX 19001 45032 16/// /0204 10085 20080 30225 40242 54000 60000 333 70000
AAXX 19001 45035 16/// /0804 10122 20045 30199 40242 52001 60000 333 70000
AAXX 19001 45039 16/// /0203 10136 20066 30220 40236 52001 60000 333 70000
AAXX 19001 45044 16/// /0105 10137 20106 30137 40233 52002 60000 333 70000
AAXX 19001 45032 16/// /0204 10085 20080 30225 40242 54000 60000 333 70000
AAXX 19001 45035 16/// /0804 10122 20045 30199 40242 52001 60000 333 70000
AAXX 19001 45039 16/// /0203 10136 20066 30220 40236 52001 60000 333 70000
AAXX 19001 45044 16/// /0105 10137 20106 30137 40233 52002 60000 333 70000
AAXX 19004 89009 41356 83111 11257 36817 53021 77771 8871/ 333 11257 21284 87708 88412
AAXX 19004 91203 11474 21006 10289 20252 30119 40124 51017 60014 70182 82171 333 56299 70013 58009 82818 555 91900
AAXX 19004 78897 12770 70401 10241 20196 40153 53019 60001 86502 333 021// 10271 20201 58005 70012 86656
AAXX 19004 91203 11474 21006 10289 20252 30119 40124 51017 60014 70182 82171 333 56299 70013 58009 82818 555 91900
BBXX A8QJ7 19004 99050 70267 41/98 /0804 10260 20246 40130 50012 75022 8/8// 22213 06270 2//// 3//// 4//// 5//// 80250
AAXX 19004 78897 12770 70401 10241 20196 40153 53019 60001 86502 333 021// 10271 20201 58005 70012 86656
AAXX 19001 10007 NIL
AAXX 19001 10044 46/// /2311 10023 20007 30015 40047 52013 222// 00053 333 55300 91115 91213
AAXX 19001 10046 42280 72305 10020 20007 30017 40057 52011 875// 333 84706 87640
AAXX 19001 10091 15481 82613 10037 20021 39970 40021 51014 60001 333 55/// 20182 30118 55300 20000 30000 87/11 87/16 88/42 91118 91215
AAXX 19001 10113 07/58 /3412 10042 20024 30071 40090 53016 60021 72387 333 55/// 20224 30124 55300 20000 30000 60027 91115 91212
AAXX 19001 10124 46/// ///// 10045 2//// 30038 40076 53015 222// 00048 333 553// 911// 912//
AAXX 19001 10131 07282 72306 10020 20009 30063 40078 53011 69911 72387 333 55/// 20090 30078 55300 20000 30000 69907 85/06 87/22 87/32
AAXX 19001 10170 12483 52307 10018 20002 30034 40050 51012 60001 85200 333 31/// 55/// 20179 30128 55300 20000 30000 85813 91115
AAXX 19001 10264 16480 82406 10016 21001 39970 40078 51015 60001 333 55/// 20066 30065 55300 20000 30000 88/13
AAXX 19001 10291 11483 82407 10020 21004 30014 40083 52018 69901 70362 875// 333 31/// 55/// 20080 30078 55300 20000 30000 87615 91113
AAXX 19001 10315 11365 82406 10019 20004 30064 40130 51010 69901 70262 886// 333 31/// 55/// 20346 30143 55300 20000 30000 88709
AAXX 19001 10379 12583 72407 10018 21003 39977 40101 51016 60001 875// 333 31/// 55/// 20090 30082 42659 55300 20000 30000 41099 87623 91113
AAXX 19001 10382 12482 72607 10023 21001 30054 40100 51017 60001 875// 333 31/// 55/// 20049 30049 55300 20000 30000 83617 87623
AAXX 19001 10384 16/// /2606 10026 21001 30038 40099 51018 69901 333 55/// 20075 30070 55300 20000 30000
AAXX 19001 10427 01/02 92508 11036 21036 39108 48401 50005 69921 77187 333 48046 55/// 20070 30070 55300 20000 30000 69927 91114 96049 96273 96487 96477 96471 96441
AAXX 19001 10430 07356 72406 10014 20001 39935 40131 51005 69981 71076 333 55/// 20073 30073 55300 20000 30000 69947 87/09
AAXX 19001 10439 42670 71903 10002 21014 39920 40146 50007 875// 333 87640
AAXX 19001 10453 11/90 92516 11055 21056 38747 48377 53005 69951 77187 333 49118 55300 91125 90228 91218 91221 96049 96036 96487 96485 96471 96449 96436
AAXX 19001 10496 07973 72405 10010 21009 30028 40115 51016 69911 70087 333 55/// 20107 30105 55300 20000 30000 69907 81/62 87/71 87/73
AAXX 19001 10499 01581 52404 10008 21014 39831 40128 51017 69961 72276 85500 333 34/// 55/// 20098 30096 55300 20000 30000 69937 83626 83650
AAXX 19001 10505 01262 82404 10000 21005 39866 40156 53005 69901 77071 876// 333 34/// 4/998 55/// 20247 30220 55300 20000 30000 69907 87705
AAXX 19001 10513 12482 71703 11004 21012 30037 40162 52008 60001 878// 333 31/// 55/// 20112 30111 55300 20000 30000 82818 87625
AAXX 19001 10532 15969 02305 11007 21017 39902 40158 50007 69911 333 55/// 20225 30201 55300 20000 30000
AAXX 19001 10544 01/01 92506 11040 21040 39044 48412 52009 69911 77774 333 48020 55300 69917 96049 96036 96271 96473
AAXX 19001 10554 11582 82506 10005 21021 39744 40141 51010 69901 70381 878// 333 34/// 55/// 20160 30138 55300 20000 30000 83820 87650 96485
AAXX 19001 10567 11582 72305 10003 21022 39756 40141 51012 69901 70271 878// 333 34/// 55/// 20092 30090 55300 20000 30000 82823 87633 96478
AAXX 19001 10578 11/01 92611 11063 21069 38707 48402 51012 69901 74974 333 49056 55/// 20104 30095 55300 20000 30000
AAXX 19001 10609 12470 72105 10002 21013 39830 40169 56002 60001 875// 333 31/// 55/// 20191 30166 55300 20000 30000 87612
AAXX 19001 10616 01207 82303 11016 21026 39551 40170 50001 69901 77522 877// 333 43/// 55300 69907 84704 87708
AAXX 19001 10641 15960 01601 11015 21025 30018 40170 51008 60001 333 55300
AAXX 19001 10655 11775 32703 10001 21014 39833 40171 51013 69901 70271 83500 333 31/// 55/// 20232 30206 55300 20000 30000 83650
AAXX 19001 10675 17450 81102 11005 21013 39868 40169 51011 60001 71000 333 55/// 20150 30148 55300 20000 30000 83/11 88/30 88/50
AAXX 19001 10688 17474 82702 11004 21022 39634 40171 52015 69901 70070 333 55/// 20136 30135 55300 20000 30000 83/13 88/21 88/50
AAXX 19001 10708 12260 71904 11013 21013 39783 40182 58001 60001 876// 333 34/// 55/// 20171 30165 55300 20000 30000 87704
AAXX 19001 10729 15963 01801 11012 21019 30062 40189 51008 60001 333 55/// 20132 30130 55300 20000 30000
AAXX 19001 10731 15471 22304 10004 21009 30035 40183 50003 60001 333 55/// 20218 30207 55300 20000 30000 81/11
AAXX 19001 10742 07367 82604 10006 21007 39841 40182 50010 69901 72470 333 55/// 20173 30168 55300 20000 30000 69907 87/09 87/14 88/50
AAXX 19001 10776 07580 82903 10002 21022 39718 40174 51013 69911 70075 333 55/// 20238 30190 55300 20000 30000 69907 88/26
AAXX 19001 10791 06/// ///// 11074 21080 38477 48425 51015 69991 333 55300 69977
AAXX 19001 10805 15962 51903 10004 21006 39999 40196 50005 60001 333 55/// 20175 30173 55300 20000 30000 83/63 85/65
AAXX 19001 10815 07481 72704 11035 21041 39221 48440 51007 60031 72287 333 4/010 55/// 20155 30154 55300 20000 30000 69917 84/13 87/22 87/34
AAXX 19001 10836 07056 82705 11025 21025 39291 40188 51012 60021 77776 333 4/004 55/// 20295 30262 55300 20000 30000 69967 85/01 87/06 88/11
AAXX 19001 10870 01465 72903 10001 21012 39633 40182 51013 69901 72287 875// 333 42001 55300 69907 83610 87628 96271 96485
AAXX 19001 10895 07550 82404 11007 21021 39591 40177 51010 69921 77175 333 55/// 20174 30164 55300 20000 30000 69927 84/22 87/29 88/49
AAXX 19001 10908 06002 72506 11083 21088 38444 48444 51005 60031 333 55/// 20170 30170 55300 20000 30000 69927 86/00 87/04 87/09 91116 91211
AAXX 19001 10929 01470 22403 11004 21014 39651 40199 51010 69971 70171 82100 333 43001 55/// 20422 30262 55300 20000 30000 69907 82812
AAXX 19001 10948 07464 81902 11038 21038 39218 48443 52004 60011 77170 333 4/032 55/// 20316 30291 55300 20000 30000 69937 85/18 87/38 88/45
AAXX 19001 10961 46/// /3406 11181 21184 36965 47923 50004 333 55/// 20486 42026 55300 20000 40879 91115 91211
AAXX 19001 10962 01062 82602 11039 21042 39006 48440 51012 69941 72172 876// 333 48004 55/// 20454 30301 55300 20000 30000 69947 82700 87704 96471
AAXX 19001 10980 46/// /2307 11098 21111 38077 48439 51006 333 55/// 20267 30250 55300 20000 30000 91116 91213
AAXX 19001 01121 46/// /2301 10014 21042 39957 49969 57009 333 91107
AAXX 19001 01135 16/// /0000 11042 21048 39820 49975 58008 60001 333 91102
AAXX 19001 01143 16/// /0803 10017 21043 60001 333 91106
AAXX 19001 01150 16/// /1202 11021 21053 60001 333 91104
AAXX 19001 01192 16/// /1704 10000 21055 60001 333 4/006 91109
AAXX 19001 01225 46/// /0505 10041 20025 39962 49967 52001 333 91108
AAXX 19001 01230 16/// /2802 11012 21015 60021 333 4/031 91106
AAXX 19001 01232 16/// /1801 11010 21012 39904 49984 57001 60061 333 4/011 91103
AAXX 19001 01234 16/// /2101 11022 21026 60001 333 91106
AAXX 19001 01253 16/// /0000 11038 21041 69971 333 4/030 91103
AAXX 19001 01254 16/// /0000 11044 21051 69941 333 4/019 91103
AAXX 19001 01257 NIL
AAXX 19001 01277 NIL
AAXX 19001 01291 16/// /1201 11104 21115 60001 333 4/018 91102
AAXX 19001 01332 NIL
AAXX 19001 01366 46/// /2804 11071 21082 38363 49991 54001 333 91107
AAXX 19001 01370 16/// /3205 11029 21060 38864 40038 54000 60001 333 4/027 91111
AAXX 19001 01376 16/// /3402 11063 21073 60001 333 91104
AAXX 19001 01383 46/// /2802 11038 21043 39627 49944 54001 333 91105
AAXX 19001 01386 16/// ///// 11057 21067 60001
AAXX 19001 01416 16/// ///// 10022 20022 60011
AAXX 19001 01419 16/// /2202 10008 20001 69961 333 91107
AAXX 19001 01430 16/// ///// 10027 21014 60001
AAXX 19001 01434 16/// /3103 11012 21056 39030 49992 50004 60001 333 91108
AAXX 19001 01455 16/// /3603 10008 21039 39671 49981 52001 60001 333 91108
AAXX 19001 01468 16/// /3003 11012 21036 60001 333 91106
AAXX 19001 01470 16/// /3301 11059 21068 39852 49969 54001 60001 333 4/005 91106
AAXX 19001 01476 NIL
AAXX 19001 01481 16/// /3201 10000 21043 39921 49953 54000 60001 333 91104
AAXX 19001 01488 NIL
AAXX 19001 11816 12965 62303 11003 21038 30007 40176 51010 60001 81041 333 55051 81359 86070
AAXX 19001 11826 15/79 /0000 11019 21039 39968 40175 52011 60001 333 55000
AAXX 19001 11903 12965 29901 11022 21022 39791 40185 52013 60001 81041 333 55030 81360
AAXX 19001 11934 11980 02203 11023 21054 39326 42761 52012 69901 70171 333 55043
AAXX 19001 11968 12770 19901 11011 21031 39901 40191 52017 60001 81500 333 55032 81650
AAXX 19001 01015 NIL
AAXX 19001 01023 41688 60000 11104 21111 39928 40027 57006 70122 81578 333 91102
AAXX 19001 01033 46/// /0604 10028 21064 39994 40025 57008 333 91106
AAXX 19001 01059 16/// /2002 11089 21098 30049 40059 56005 6//// 333 91103
AAXX 19001 01089 16/// /3501 11006 21006 39939 40046 57011 6//// 333 91103
AAXX 19001 01167 41888 63503 10010 21035 39996 40000 58008 70221 82014 333 91106
AAXX 19001 01180 NIL
AAXX 19001 01210 16/// /3008 10048 20023 39961 49987 57001 6//// 333 91114
AAXX 19001 01228 46/// /0903 10024 21025 39967 49974 50004 333 91107
AAXX 19001 01240 16/// /3604 10035 21018 39947 49966 58004 6//// 333 91108
AAXX 19001 01304 46/// /3314 10053 20023 39983 40013 50001 333 91120
AAXX 19001 01311 47461 83604 10025 20016 39969 40032 52002 781// 333 91111
AAXX 19001 01340 16/// /2603 11022 21027 39130 40004 50003 60011 333 91108
AAXX 19001 01355 16/// ///// 11017 21024 30000 40005 57001 60001
AAXX 19001 01360 NIL
AAXX 19001 01392 16/// /3205 10008 21028 39700 49925 55003 60001 333 91113
AAXX 19001 01406 46/// /3211 10059 20036 30013 40032 52002 333 91119
AAXX 19001 01411 16/// /0204 10036 20016 30013 40039 53002 6//// 333 91114
AAXX 19001 01425 16/// /3306 10041 20001 39942 40021 52002 69921 333 91111
AAXX 19001 01433 46/// /3011 11035 21051 38742 40004 50002 333 91114
AAXX 19001 01442 NIL
AAXX 19001 01450 NIL
AAXX 19001 01452 16/// /3202 10029 21026 39970 49991 57001 60001 333 91111
AAXX 19001 01473 16/// /3402 11071 21079 39751 49965 57001 6//// 333 91104
AAXX 19001 01494 17/84 02602 10004 21031 39881 49947 54000 60001 700// 333 91104
AAXX 19001 01025 16/// /0602 11021 21039 30014 40025 57009 6//// 333 91105
AAXX 19001 01052 16/// /0701 11048 21084 39947 40047 56004 60001 333 91103
AAXX 19001 01122 16/// /1401 11077 21088 39884 49976 58006 60001 333 91103
AAXX 19001 01132 16/// /0501 11048 21066 39574 49968 57007 60001 333 4/036 91102
AAXX 19001 01156 16/// /0303 10006 21046 39985 49995 58006 60001 333 91107
AAXX 19001 01203 46/// /2910 10049 20018 39960 40009 50000 333 91117
AAXX 19001 01233 16/// /1202 11015 21030 60001 333 91106
AAXX 19001 01265 16/// /0000 11096 21108 39370 49969 57003 60001 333 91102
AAXX 19001 01273 16/// /1502 11087 21105 39780 49983 58002 60001 333 91103
AAXX 19001 01307 46/// /3213 10055 20022 39992 40020 57004 333 91118
AAXX 19001 01321 16/// /1801 10002 20000 39747 40002 52001 60101 333 91102
AAXX 19001 01327 16/// /2807 11001 21008 69971 333 91110
AAXX 19001 01350 16/// /2912 11043 21049 38583 49961 50001 60001 333 91117
AAXX 19001 01361 16/// /3005 11020 21033 38952 49976 50001 60021 333 91110
AAXX 19001 01375 16/// /3015 11039 21051 6//// 333 91121
AAXX 19001 01378 16/// /0402 11015 21037 39645 49937 54000 60001 333 91105
AAXX 19001 01385 16/// /2601 11007 21031 39668 49939 54001 60001 333 91106
AAXX 19001 01412 16/// /3313 10033 20014 30008 40038 53001 60031 333 91119
AAXX 19001 01422 16/// /1902 10020 20008 60001 333 91104
AAXX 19001 01440 NIL
AAXX 19001 01441 NIL
AAXX 19001 01467 NIL
AAXX 19001 01469 16/// /0102 11089 21106 39783 49961 57001 60001 333 91103
AAXX 19001 01477 16/// /3001 10002 21042 60001 333 4/020 91106
AAXX 19001 01480 16/// /3303 11053 21076 60001 333 91107
AAXX 19001 01484 16/// /0101 11050 21062 39779 49938 57002 69941 333 91103
AAXX 19001 01490 16/// /3405 11015 21036 60001 333 91110
AAXX 19001 01495 16/// /3007 10037 21017 39933 49946 57002 60001 333 91111
AAXX 19001 01037 16/// /0901 11074 21084 30030 40036 57007 60001 333 91103
AAXX 19001 01046 41989 01801 11072 21085 30034 40042 57006 70100 333 91107
AAXX 19001 01058 16/// /2901 11089 21101 39580 40061 57007 60001 333 4/016 91102
AAXX 19001 01065 16/// /2601 11062 21070 39884 40050 58010 60001 333 91104
AAXX 19001 01092 46/// /2302 11017 21034 333 91105
AAXX 19001 01107 16/// /0407 10034 2//// 39980 49984 58010 60001 333 91111
AAXX 19001 01114 16/// /0601 11034 21064 39957 49968 58010 60001 333 91104
AAXX 19001 01144 46/// /0504 10022 21029 333 91108
AAXX 19001 01199 NIL
AAXX 19001 01245 NIL
AAXX 19001 01259 16/// /1004 10007 21037 39945 49968 57003 60001 333 91105
AAXX 19001 01262 NIL
AAXX 19001 01278 NIL
AAXX 19001 01293 16/// /0000 11106 21117 39767 49984 57004 60001 333 91102
AAXX 19001 01329 16/// /2106 10022 20009 39958 40019 56003 60001 333 91110
AAXX 19001 01337 16/// /0701 11036 21050 39955 40023 57001 69971 333 91103
AAXX 19001 01344 16/// ///// 11019 21029 69971 333 4/080
AAXX 19001 01364 16/// /2606 11025 21052 38863 49981 50001 60001 333 4/038 91110
AAXX 19001 01373 16/// /0000 11157 21172 39770 49977 56002 60001 333 91102
AAXX 19001 01374 NIL
AAXX 19001 01380 16/// /3006 11035 21051 6//// 333 4/022 91111
AAXX 19001 01389 11885 83302 11020 21035 39628 49940 50001 60001 70222 8802/ 333 91105
AAXX 19001 01393 NIL
AAXX 19001 01424 16/// ///// 11028 21039 30028 40031 58003 69971
AAXX 19001 01431 16/// /3403 11003 21025 39348 40015 57002 60001 333 91107
AAXX 19001 01436 NIL
AAXX 19001 01465 16/// /3210 10041 21017 39955 49973 58007 60001 333 91114
AAXX 19001 01471 16/// /2601 10001 21041 60001 333 91105
AAXX 19001 01483 NIL
AAXX 19001 78221 41462 60105 10233 20183 30173 40200 52010 70222 86800 333 83818 86630
AAXX 19001 78224 11658 50403 10210 20182 30133 40208 53014 69921 70566 85060 333 10266 85350
AAXX 19001 78229 42559 71001 10194 20169 30126 40201 52010 82402 333 82618 86070
AAXX 19001 78239 310// 20506 10235 20182 30192 40195 52010 70500 82802 333 10270 81820
AAXX 19001 78244 NIL
AAXX 19001 78243 42559 40000 10207 20172 30079 40203 52015 84230 333 81820 84440
AAXX 19001 78255 12559 30405 10212 20184 30044 40193 52010 69952 82801 333 10258 81820
AAXX 19001 78264 31559 40303 10241 20189 30092 40167 52020 70500 84200 333 10282 84820
AAXX 19001 78265 31550 80304 10214 20197 30078 40178 52020 76166 83220 333 83820 88456
AAXX 19001 78256 NIL
AAXX 19001 78259 NIL
AAXX 19001 78268 NIL
AAXX 19004 03005 11475 63010 10010 20002 39991 40093 58007 69901 72681 868// 92350 333 42002 55/// 20104 83816 84640
AAXX 19004 03017 15764 /2705 10005 21023 30080 40113 58005 69941 92350 333 4/003 55/// 20064 87/50
AAXX 19004 03023 17563 /1708 10032 20017 30115 40120 58021 69901 781// 92350 333 81/26 87/38
AAXX 19004 03026 15983 /2204 10013 21002 30102 40121 58016 60001 92350 333 55/// 20083 87/60
AAXX 19004 03063 15981 /3201 11035 21048 39852 40141 57005 60001 92350 333 4/004 55/// 20096 8//99
AAXX 19004 03066 15481 /2204 11015 21025 30124 40131 58004 60001 92350 333 55/// 20100 81/17
AAXX 19004 03075 17768 /2404 11004 21008 30071 40116 58005 69901 721// 92350 333 84/50
AAXX 19004 03091 15980 /2907 10007 21022 30042 40123 58002 60001 92350 333 4/003 55/// 20303 8//99
AAXX 19004 03100 15877 /1905 10040 20028 30115 40132 58017 69941 92350 333 55/// 20146 88/57
AAXX 19004 03111 16378 /2406 10044 20037 30132 40144 58015 69921 92350 333 84/09 83/41
AAXX 19004 03134 15569 /1701 11011 21016 30070 40145 58008 60001 92350 333 4/004 55/// 20215 81/23 84/63
AAXX 19004 03136 15576 /1202 10020 20012 30112 40146 58010 60001 92350 333 55/// 20206 86/27 83/73
AAXX 19004 03162 15775 /2901 11034 21043 39861 40160 58006 60001 92350 333 55/// 20270 83/50 84/74
AAXX 19004 03166 15769 /2204 10001 21007 30070 40142 58004 60001 92350 333 55/// 20167 81/50 84/72
AAXX 19004 03171 12986 12606 11010 21036 30122 40135 58004 60001 81041 92350 333 55/// 20177 81362 92600
AAXX 19004 03204 12482 72908 10062 20028 30145 40165 56008 60001 83801 92350 333 55/// 20223 81818 83630 85072
AAXX 19004 03240 15984 /2812 10018 21006 30109 40138 57004 69901 92350 333 55/// 20249 8//99
AAXX 19004 03257 15969 /1404 11012 21037 30113 40155 57007 60001 92350 333 55/// 20282 8//99
AAXX 19004 03292 167// /2706 11020 21037 30134 40153 58003 60001 92350 333 81/50
AAXX 19004 03302 17677 /2811 10063 20043 30164 40176 57007 69981 723// 92350 333 55/// 20251 83/42 85/68
AAXX 19004 03354 15460 /2305 11011 21022 30030 40178 58003 60001 92350 333 55/// 20275 83/15 83/57
AAXX 19004 03377 12975 62308 11006 21030 30081 40169 58003 60001 8603/ 92350 333 55/// 20277 86360 92600
AAXX 19004 03414 15680 /2205 10011 20000 30089 40180 57006 69901 92350 333 55/// 20241 81/40
AAXX 19004 03462 15978 /2610 11017 21030 30083 40176 58002 60001 92350 333 55/// 20234 8//99
AAXX 19004 03482 15964 /2301 11026 21040 30149 40175 50004 60001 92350 333 8//99
AAXX 19004 03502 15472 /3013 10065 20035 30028 40192 57006 60001 92350 333 55/// 20232 82/16
AAXX 19004 03535 15968 /1906 11001 21002 30060 40181 58003 60001 92350 333 55/// 20229 86/58
AAXX 19004 03590 12981 02907 11019 21044 30066 40180 51007 60001 92350 333 55/// 20168 92600
AAXX 19004 03649 12965 62403 11001 21006 30090 40194 51003 60001 8603/ 92350 333 86360 92600
AAXX 19004 03716 15875 /3404 10035 20018 30134 40196 58005 60001 92350 333 55/// 20399 88/57
AAXX 19004 03740 16957 /2106 10000 21005 30015 40199 50001 60001 92350 333 55/// 2//// 86/58
AAXX 19004 03746 17948 /2705 10003 20000 30043 40203 51004 60001 720// 92350 333 8//99
AAXX 19004 03772 15966 /2703 11005 21016 30161 40193 51005 60001 92350 333 55/// 20256 8//99
AAXX 19004 03796 46/// /3113 11006 21018 30036 40184 53009 92350
AAXX 19004 03803 NIL
AAXX 19004 03808 11580 62904 10068 20044 30112 40220 58005 60011 70281 868// 92350 333 55/// 20294 83824 84634
AAXX 19004 03809 11465 73107 10060 20052 30127 40221 58006 69901 78081 878// 92350 333 84815 87622
AAXX 19004 03827 15675 /3103 10031 20015 30152 40215 58004 69901 92350 333 81/47 83/60
AAXX 19004 03840 15680 /2803 10024 20014 39895 40209 50000 60001 92350 333 84/33 84/57
AAXX 19004 03853 15962 /2501 11006 21010 30179 40204 50002 69921 92350 333 55/// 20287 87/58
AAXX 19004 03874 46/// /3405 10012 21008 30189 40200 51004 92350
AAXX 19004 03882 15964 /3006 11007 21018 30129 40195 53007 60001 92350 333 55/// 20285 8//99
AAXX 19004 03894 32584 73112 10069 20014 40216 53004 8387/ 333 82828 86362
AAXX 19004 03917 17043 /1705 10016 20012 30084 40163 58013 69901 710// 92350 333 55/// 20203 83/01
AAXX 19004 61901 169// /1315 10159 20140 39676 40187 51002 69921 92350 333 8//99 555 7/090
AAXX 19004 61902 11480 41416 10232 20192 40147 69901 70181 84800 333 58006 82818 84630
BBXX 46082 19001 99597 71434 46/// ///// 10055 20055 49900 55017 92350 22200 00064 11114 70068
BBXX 46072 19001 99517 71722 46/// /2613 10026 21042 49869 50000 92350 22200 00049 11107 20603 3//// 41106 70033 333 91216 555 11136 22144 32340 42616 62349 263128 262118 251099 252103 249112 220091 82614 92341
BBXX 46077 19001 99579 71543 46/// /2516 10033 21001 49754 53085 92350 22200 00056 10907 20907 70036 333 91220 555 11170 22181 32319 42522 62349 249156 247156 246165 247161 244144 247156 82519 92322
BBXX 46035 19001 99571 71778 46/// /2513 1//// 49754 51003 92350 22200 11210 20805 300// 41208 70048 333 91216 555 11127 22136 32349 42516 62349 251126 253121 252121 256125 260119 255120 82514 92347
BBXX 51101 19001 99243 71621 46/// /0608 10228 20178 40194 58023 92350 22200 00240 11305 20603 332// 41304 70023 333 91209 555 11081 22085 32331 40810 62349 064077 068084 065079 071071 069071 065071
BBXX 46061 19001 99602 71468 46/// /1409 10048 49838 92350 22200 00051 11109 20705 300// 41107 70043 333 91211 555 11097 22103 32312 41716 62349 144092 150087 166105 175137 117104 110124
BBXX 44007 19001 99435 70701 46/// /3606 11041 21146 40249 52016 92350 22200 00081 10601 20501 3//// 40601 70007 333 91208 555 11060 22062 32322 43609 62349 356058 356060 357062 348058 005063 004052
BBXX 42039 19001 99288 70860 46/// /0405 10163 92350 555 11058 22061
BBXX 41040 19001 99145 70530 46/// /0307 10266 20203 40137 52014 92350 22200 00280 11005 20602 3//// 41005 70026 333 91208 555 11070 22073 32332 40309 62349 033066 033067 031063 030060 032063 034064 80407 92253
BBXX 41010 19001 99289 70785 46/// /0407 10199 40242 53022 92350 22200 00238 10703 20603 300// 40702 70017 333 91209 555 11072 22075
BBXX 41009 19001 99285 70802 46/// /0406 10211 20113 40245 53019 92350 22200 00253 10603 20402 300// 40602 70016 333 91208 555 11063 22065
BBXX 42057 19001 99168 70815 46/// /0411 10269 20206 40151 53008 92350 22200 00280 10704 20704 70019 333 91212 555 11108 22114 32303 40313 62349 037107 036103 034106 032105 035103 034104 80311 92311
BBXX 46072 19001 99517 71722 46/// /2613 10026 21042 49869 50000 92350 22200 00049 11107 20603 3//// 41106 70033 333 91216 555 11136 22144 32340 42616 62349 263128 262118 251099 252103 249112 220091 82614 92341
BBXX 46026 19001 99378 71228 46/// /3201 10106 40210 56012 92350 22200 00113 11704 20401 328// 41704 70020 333 91203 555 11014 22015 32344 43003 62349 309012 274004 195003 180001 180001 180001
BBXX 46041 19001 99474 71247 46/// /3305 10082 40274 53019 92350 22200 00085 11407 20502 3//// 41407 70037 333 91207 555 11057 22060 32332 43209 62349 330054 325059 328059 335057 332054 341054
BBXX 51004 19001 99175 71524 46/// /0610 10226 20196 92350 555 11106 22113
BBXX 51002 19001 99171 71578 46/// /0511 10244 40122 58030 92350 22200 00253 333 91214 555 11114 22121 32349 40514 62349 054106 051102 054108 052101 054100 049103
BBXX 51100 19001 99236 71539 46/// /0710 10227 40187 58020 92350 22200 00234 10805 20804 332// 41403 70027 333 91212 555 11105 22111 32250 40813 62349 069098 072093 079100 077103 083102 081105
AAXX 19001 14648 11660 83401 10038 20022 39985 40108 57016 60061 79566 8492/ 333 81943 83643 88458
AAXX 19001 14652 11100 81811 11073 21076 37815 48389 57022 60091 77374 8802/ 333 88501
AAXX 19001 14542 11620 81801 10004 21002 39953 40149 54000 60001 71020 887// 333 88733 95990
BBXX BATFR42 19004 99463 70046 46/// /3222 10105 20057 40241 58012 222// 00142
AAXX 19004 07005 04/70 /2904 10002 21017 30097 40190 51013 69921 700// 333 69907 90710 91106 555 60005
AAXX 19004 07015 01560 73008 10014 21001 30113 40172 51009 60021 70376 875// 333 69927 82623 85640 90710 91112 93100 555 69905
AAXX 19004 07020 06/// /3513 10084 20030 30188 40215 51006 60001 333 60007 90710 91121 555 60005
AAXX 19004 07027 04686 72705 10036 20018 30123 40207 53007 60011 700// 333 69987 90710 91111 555 60005
AAXX 19004 07037 04983 /3205 10010 21006 30006 40196 53007 69961 700// 333 60007 90710 91109 555 60005
AAXX 19004 07070 04563 62805 10006 21001 30067 40182 52006 60011 700// 333 42/// 69907 90710 91108 555 60005
AAXX 19004 07110 01570 23104 10040 20027 30114 40233 58002 69941 70186 81850 333 69927 81828 90710 91106 93100 555 60005
AAXX 19004 07117 02465 13308 10084 20040 30149 40220 58002 60011 81200 333 69927 90710 91121 92447 555 60005
AAXX 19004 07130 04569 82505 10043 20036 30170 40224 53003 69941 760// 333 69927 90710 91108 555 69925
AAXX 19004 07139 06/// /2908 10029 20016 30029 40208 53003 60011 333 60017 90710 91113 555 60015
AAXX 19004 07149 01575 62807 10024 20020 30080 40193 53003 60011 70286 85570 333 60017 85631 85360 90710 91111 93100 555 60005
AAXX 19004 07168 04/70 /2809 10024 20012 30041 40188 50000 60021 700// 333 60017 90710 91114 555 60005
AAXX 19004 07181 04416 82008 11004 21010 39759 40184 58004 69941 771// 333 69947 90710 91113 555 69945
AAXX 19004 07190 04985 61906 11001 21022 30001 40191 50000 60001 700// 333 60007 90710 91109 555 60005
AAXX 19004 07207 02965 03512 10088 20040 60001 222// 327// 333 60007 90710 91120 92437 555 60005
AAXX 19004 07222 02775 53306 10049 20028 30195 40227 55001 60001 85530 333 60007 82650 85363 90710 91112 555 60005
AAXX 19004 07240 01670 72706 10031 20019 30072 40212 55004 69921 72186 87801 333 69927 81841 85650 86071 90710 91116 93100 555 69905
AAXX 19004 07255 04270 62406 10024 20014 30004 40211 57008 69921 758// 333 69927 90710 91112 555 69925
AAXX 19004 07280 04562 82010 10001 21015 39921 40205 58010 69921 771// 333 42/// 69927 90710 91115 555 69925
AAXX 19004 07299 04984 /2406 10001 21013 39865 40205 51007 69941 700// 333 60007 90710 91115 555 60005
AAXX 19004 07314 02565 43017 10096 20046 30209 40237 58008 69941 81130 333 69947 81826 83356 90710 91131 555 69945
AAXX 19004 07335 04685 82507 10039 20018 30076 40225 57008 60001 700// 333 60007 90710 91112 555 60005
AAXX 19004 07434 04663 82105 10001 21003 39741 40240 57006 60001 700// 333 60007 90710 91106 555 60005
AAXX 19004 07460 02675 71502 10021 21030 39825 40228 58004 60001 82531 333 60007 81633 84363 87073 90710 91106 93100 555 60005
AAXX 19004 07471 04970 /2702 11044 21067 39227 48813 58003 60001 700// 333 43/// 60007 90710 91107 555 60005
AAXX 19004 07481 02765 31504 10000 21025 39928 40229 58001 60001 82530 333 60007 82650 90710 91105 93100 555 60005
AAXX 19004 07510 02765 42405 10028 20015 30184 40252 58007 60001 81570 333 60007 81650 84361 90710 91109 93100 555 60005
AAXX 19004 07535 06/// /1702 11012 21012 39927 40256 58002 60001 333 60007 90710 91104 555 60005
AAXX 19004 07558 06/// /3211 11008 21032 39373 40244 50004 60001 333 60007 90710 91119 555 60005
AAXX 19004 07577 04/70 /0406 10016 21031 30130 40223 51009 60001 700// 333 60007 90710 91113 555 60005
AAXX 19004 07591 04/// /0000 11064 21096 39149 4//// 51011 60001 700// 333 60007 90710 91104 555 60005
AAXX 19004 07607 04750 /1101 11004 21007 30190 40265 56004 60001 700// 333 60007 90710 91102 555 60005
AAXX 19004 07621 04986 /2106 10003 21018 39820 40274 58002 60001 700// 333 60007 90710 91108 555 60005
AAXX 19004 07627 06/// /0000 11036 21056 39761 40279 58001 60001 333 60007 90710 91103 555 60005
AAXX 19004 07630 04982 /2708 10021 20008 30071 40259 58003 60001 700// 333 60007 90710 91116 555 60005
AAXX 19004 07643 04986 /3009 10039 21048 30212 40222 51006 60001 700// 333 60007 90710 91114 555 60005
AAXX 19004 07650 04986 /3325 10046 21034 30146 40186 50004 60001 700// 333 60007 90710 91135 555 60005
AAXX 19004 07661 06/// /3014 10050 21108 39988 40153 53016 60001 333 60007 90710 91134 555 60005
AAXX 19004 07690 02975 03405 10045 21100 30102 40137 51010 60001 333 60007 90710 91110 93100 555 60005
AAXX 19004 07747 04686 /3109 10056 21005 30180 40235 51010 69901 700// 333 60007 90710 91122 555 60005
AAXX 19004 07761 02570 50407 10036 21006 30102 40113 51013 60001 81302 333 60007 81830 81933 85068 90710 91110 93100 555 60005
AAXX 19004 07790 04686 83207 10079 20013 30095 40110 51011 69941 700// 333 60007 90710 91116 555 60005
AAXX 19003 91802 NIL
AAXX 19003 91809 NIL
AAXX 19003 91831 36/// /0707 ///// ///// 10281 20229 40136 57006
AAXX 19003 91841 36/// /0506 10291 20217 40122 57018
AAXX 19003 91843 31599 20708 10290 20216 40123 57018 60001 70200 82100 333 20251 561// 333 70000 82825
AAXX 19003 91848 36/// /1108 10293 20218 40200 52037 333 20292
BBXX BATFR46 19004 99362 70048 44995 20311 10139 20059 40237 52006 72111 82122 22253 00157 20510
BBXX BATEU03 19004 99544 70097 46/// /2118 10085 20067 40146 56030 22222 00099
BBXX BATFR22 19004 99430 10074 46/// /3219 10097 40132 55012 22224 00142
AAXX 19001 02807 47360 80402 11050 21053 39847 40033 771// 88/// 90000
AAXX 19001 02897 47315 81004 11008 21012 39764 49946 772// 88/// 90000
AAXX 19001 02913 47681 80704 10014 20004 39833 49885 700// 88///
AAXX 19001 02917 47270 81105 11002 21003 39809 49931 700// 88/// 90000
AAXX 19001 02926 47383 81104 10021 20015 39837 49849 52005 751// 88/// 90000
AAXX 19001 02944 47250 81004 10013 20009 39720 49865 761// 88/// 90000
AAXX 19001 02963 46/// /1405 10014 20011 49854
AAXX 19001 02974 41260 81608 10024 20015 39807 49872 52007 76166 886//
AAXX 19001 02741 47457 81801 10003 20001 39807 49823 52005 75265 88/// 92339
AAXX 19001 02755 47118 80804 10000 21001 39826 49921 57008 77187 88/// 92339
AAXX 19001 02805 47175 80106 11063 21073 39922 40058 57010 70087 88/// 92339
AAXX 19001 02836 47483 80602 11008 21011 39779 40002 57007 78087 88/// 92339
AAXX 19001 02845 47266 80605 11007 21007 39731 49980 57011 72187 88/// 92339
AAXX 19001 02849 47499 80803 11006 21017 39722 49996 57011 74187 88/// 92339
AAXX 19001 02866 47357 80804 10001 21002 39812 49961 57009 77187 88/// 92339
AAXX 19001 02924 47280 70902 10006 20006 39693 49888 57002 72487 87/// 92339
AAXX 19001 02935 47263 81105 10008 20002 39728 49900 57002 70087 88/// 92339
AAXX 19001 02939 47234 81204 11009 21010 39766 49960 57007 77170 88/// 92339
AAXX 19001 02976 46/// /1809 10035 20016 39883 49899 52007 92339
AAXX 19001 02981 47480 72404 10037 20025 39819 49829 52008 72386 85/// 92339
AAXX 19001 02982 46/// /1811 10041 20031 39833 49841 52005 92339
AAXX 19001 02947 NIL
BBXX BATEU05 19004 99633 70514 46/// /2315 11061 21132 49952 53019 22243
BBXX FVNM 19004 99058 70864 46/// /1716 10237 20220 40110 53010 22221 00264
AAXX 19001 11812 36/// /3005 11005 21045 39458 42762 52009 333 55044
AAXX 19001 11813 16/// /2501 10000 21035 39819 40178 52009 60001 333 55061
AAXX 19001 11816 12965 62303 11003 21038 30007 40176 51010 60001 81041 333 55051 81359 86070
AAXX 19001 11819 36/// /1502 10002 21022 39952 40174 52011 333 55056
AAXX 19001 11826 15/79 /0000 11019 21039 39968 40175 52011 60001 333 55000
AAXX 19001 11841 16/// /9901 11006 21033 39785 40172 52015 60001 333 55012
AAXX 19001 11855 16/// /9901 11011 21024 30008 40180 52009 60001 333 55000
AAXX 19001 11856 36/// /1203 11009 21026 39853 40181 52012 333 55056
AAXX 19001 11858 16/// /1403 11015 21023 30022 40179 52005 60001 333 55076
AAXX 19001 11867 17/63 /0901 11015 21042 39852 40179 52012 69911 70077 333 55019
AAXX 19001 11880 16/// /0000 11028 21035 30008 40187 52013 60001 333 55060
AAXX 19001 11900 16/// /0401 11013 21030 39840 40186 52016 69901 333 55034
AAXX 19001 11903 12965 29901 11022 21022 39791 40185 52013 60001 81041 333 55030 81360
AAXX 19001 11916 46/// /2613 11111 21128 37880 48407 52010 6///1 333 91123
AAXX 19001 11918 16/// /2504 11018 21053 39323 42756 52010 60001 333 55000
AAXX 19001 11927 16/// /9901 11031 21042 39916 40189 52014 60001 333 55054
AAXX 19001 11930 46/// ///// 1//// 2//// 3//// 47/// 5//// 6///1
AAXX 19001 11933 16/// /9902 11062 21082 38615 48430 52012 60001 333 55000
AAXX 19001 11934 11980 02203 11023 21054 39326 42761 52012 69901 70171 333 55043
AAXX 19001 11938 16/// /2305 11042 21050 39085 42762 52012 60001
AAXX 19001 11952 16/// /2102 11019 21056 39320 42764 52013 60001 333 55043
AAXX 19001 11958 36/// /2112 11059 21068 38706 48436 52012 333 55///
AAXX 19001 11968 12770 19901 11011 21031 39901 40191 52017 60001 81500 333 55032 81650
AAXX 19001 11976 16/// /1703 11008 21022 39913 40185 52014 60001 333 55030
AAXX 19001 11978 16/// /1301 11018 21026 30057 40192 52018 60001 333 55050
AAXX 19001 11993 16/// /2102 10011 21013 39969 40191 52018 60001 333 55032 91007
BBXX CGDS 19004 99450 70747 46/// /1305 11068 21121 4//// 5//// 7//// 8//// 22200 00064 2////
BBXX VCRG 19004 99474 70619 46/// /0113 11039 21092 40222 51003 7//// 8//// 22200 0//// 2////
BBXX VOPP 19004 99456 70735 46/// /2302 11087 21144 4//// 5//// 7//// 8//// 22200 0//// 2////
BBXX CZ9742 19004 99506 70969 46/// /3217 11034 21055 40071 51042 7//// 8//// 22200 0//// 2////
BBXX VRYO3 19004 99535 10099 46/// /0000 10020 20029 40082 52014 7//// 8//// 22200 0//// 2////
BBXX CGBR 19004 99543 71303 46/// /0402 10029 20027 40252 58008 7//// 8//// 22200 0//// 2////
BBXX CG2350 19004 99433 70798 46/// /2006 10013 21037 40210 56008 7//// 8//// 22200 0//// 2////
AAXX 19004 78905 11476 72705 10216 20199 30130 40153 60001 70222 87800 333 10281 20206 58002 70081 87816
AAXX 19001 11423 07063 /2705 11030 21033 39259 42755 51011 69931 72487 333 55000 60005 81/01 83/05 85/14 87/19
AAXX 19001 11487 07770 /2602 11007 21025 39526 40165 52015 60001 70087 333 55001 60005 87/50 91112
AAXX 19001 11518 01780 62405 11007 21024 39703 40155 51014 69901 70272 86500 333 55012 60005 86656 93705
AAXX 19001 11603 07570 /1901 10002 21030 39649 40142 52020 69921 72387 333 55000 69905 81/23 87/27 88/31
AAXX 19001 11659 07570 /2502 11006 21031 39504 40160 51012 60001 70087 333 55031 60005 87/21 88/47
AAXX 19001 11723 NIL
AAXX 19001 11782 02670 51904 10011 21034 39850 40163 52021 60001 85501 333 55030 60005 85633 91111
AAXX 19004 78905 11476 72705 10216 20199 30130 40153 60001 70222 87800 333 10281 20206 58002 70081 87816
AAXX 19004 78905 11476 72705 10216 20199 30130 40153 60001 70222 87800 333 10281 20206 58002 70081 87816
AAXX 19001 01271 17284 81003 11071 21090 39959 49980 58000 6//// 722// 333 91105
AAXX 19001 01415 17/65 60202 10029 20011 30027 40038 57000 6//// 781// 333 91112
AAXX 19004 64500 32460 71808 10265 20238 30090 40103 875// 92356 333 0//00 59006 83610 87633
AAXX 19001 01003 11970 71606 10003 21011 30021 40033 57001 69911 72222 85028
AAXX 19001 01281 16/// /0000 11095 21109 39792 49973 57007 60001 333 91101
AAXX 19001 76040 32960 03302 10171 20089 30166 40180 57011 92345 333 10177 20061 30/// 50270 59023 70000 98660
AAXX 19001 76256 32580 22703 10190 20103 30171 40185 57008 82200 92340 333 10215 20100 30/// 50050 565// 59009 70000 82827
AAXX 19001 76305 32670 20403 10200 20117 30170 40178 57006 82400 92350 333 10237 20119 30/// 50201 56400 59003 70000 82633
AAXX 19001 76323 32570 41605 10208 20051 38257 40144 57022 84200 92340 333 10236 20075 30/// 50421 56500 59046 70000 84630
AAXX 19001 76342 31460 80401 10120 20103 39518 40243 57015 70222 886// 92350 333 10135 20085 31/// 50021 561// 59082 70000 88710
AAXX 19001 76373 32570 11801 10177 20021 38198 40142 57001 81200 92350 333 10235 21015 30/// 50331 56900 59042 70000 81825
AAXX 19001 76390 31662 63003 10183 20068 38236 40118 57010 70544 81205 92330 333 10212 20025 30/// 50171 56305 59048 70000 81833 85070
AAXX 19001 76402 31559 13304 10194 20099 30135 40192 57003 70544 81400 92345 333 10235 20098 30/// 50471 56700 58004 70000 81628
AAXX 19001 76423 32584 62204 10212 20036 38150 40111 57003 82454 92345 333 10260 20045 30/// 50380 56999 59020 70000 81820 81627
AAXX 19001 76458 32970 53208 10216 20167 30147 40152 56005 80008 92339 333 10264 20134 30/// 50351 56//9 59005 70000 83270 82071
AAXX 19001 76491 32960 33401 10230 20150 39816 40203 57010 80004 92345 333 10260 20118 30/// 50221 56009 70000 83077
AAXX 19001 76525 32680 62007 10147 20026 37480 40138 57002 83406 92340 333 10160 20055 30/// 50781 563/5 59021 70000 83649 83080
AAXX 19001 76543 32675 20902 10239 20169 30181 40213 55004 81509 92345 333 10280 20149 31/// 5//// 56505 58/// 70000 81650
AAXX 19001 76548 32875 10703 10220 20175 30200 40210 57013 81300 92340 333 10252 20154 30/// 50191 56020 59057 70000 81357
AAXX 19001 76556 32970 62903 10224 20139 39124 40132 51001 80006 92330 333 10280 20131 30/// 50251 56006 59001 70000 86270
AAXX 19001 76571 32665 42101 10214 20023 38170 40130 57007 83404 92350 333 10240 20080 30/// 50251 56505 59015 70000 83636
AAXX 19001 76577 32570 22302 10220 20164 38044 40111 55013 82400 92340 333 10268 20095 30/// 50251 56500 59023 70000 82627
AAXX 19001 76612 32562 50000 10220 20113 38474 40123 55007 85800 92350 333 10264 20088 30/// 50291 56500 59009 70000 83827 82635
AAXX 19001 76625 32960 00902 10205 20063 38145 40106 57005 92350 333 10243 20095 30/// 50470 58/// 70000
AAXX 19001 76647 32865 50502 10243 20182 30171 40201 53008 83031 92350 333 10297 20195 30/// 50311 560// 59006 70000 83358
AAXX 19001 76662 32670 11901 10248 20122 38458 40104 57005 81200 92345 333 10280 20064 30/// 50360 56200 59001 70000 81833
AAXX 19001 76665 31562 11601 10208 20121 38131 40124 52001 70100 81100 92355 333 10252 20072 30/// 50280 56100 57812 58007 70000 81814
AAXX 19001 76683 32675 11601 10182 20087 37834 40157 5//// 81200 92349 333 10222 20080 30/// 50301 56200 59022 70000 81839
AAXX 19001 76685 32970 01203 10172 20003 37873 40116 57001 80000 92345 333 10256 20054 30/// 50321 59011 70000
AAXX 19001 76687 31460 31401 10160 20132 38716 40211 55008 70110 83800 92344 333 10195 20118 30/// 50020 563// 59022 70071 83617
AAXX 19001 76692 31556 23604 10240 20197 30184 40203 57004 71044 82800 92345 333 10273 20204 30/// 50181 568// 59023 79999 81820 81622
AAXX 19001 76695 32958 03203 10246 20206 30170 40175 50000 92347 333 10280 20191 30/// 50240 59008 70000 91005 91532
AAXX 19001 76737 31480 61401 10170 20132 38812 40201 55006 70322 83670 92335 333 10189 20124 30/// 50091 56220 59017 70190 83717 83358 91105 91516
AAXX 19001 76743 31556 20301 10257 20189 30174 40182 55002 70211 82100 92345 333 10286 20205 30/// 5/// 560// 59011 70000 82828
AAXX 19001 76750 32558 50603 10232 20200 30171 40181 52006 69951 75152 83230 92350 333 10280 20190 31/// 56110 59008 69957 70016 83820
AAXX 19001 76762 32904 00000 10246 20200 38751 40094 56011 92335 333 10310 20156 30/// 50351 59008 70000
AAXX 19001 76775 31970 02902 10213 20057 38532 40141 57001 70100 92345 333 10260 20095 30/// 50391 59009 70000
AAXX 19001 76805 32870 12502 10280 20244 30111 40116 55006 81030 92350 333 10317 20220 30/// 50481 56/7/ 58001 70000 81357
AAXX 19001 76833 32970 03605 10264 20169 30133 40135 52008 92345 333 10314 20250 30/// 50121 58000 70000 92012
AAXX 19001 76843 32965 03604 10226 20147 39506 40144 56001 92331 333 10264 20176 30/// 50471 59001 70000
AAXX 19001 76845 32460 40701 10124 20101 37963 40187 53004 84600 92345 333 10158 20090 30/// 50171 56200 59014 79999 84710
AAXX 19001 76848 32470 30501 10141 20109 38402 40115 52008 83500 92350 333 10192 20130 30/// 50251 56100 59005 79999 83613
AAXX 19001 76855 32580 22401 10290 20235 30061 40109 50002 81230 92340 333 10334 20218 30/// 50450 56990 58013 70000 81820 92000
AAXX 19001 76903 31670 62601 10280 20222 39991 40125 52010 70122 82580 92346 333 10330 20230 30/// 50561 58003 70000 81833 81650 84358
AAXX 19001 76243 11360 80902 10120 20110 39917 40216 57013 69931 75052 887// 92330 333 10134 20090 31/// 50021 563// 59084 70003 88710
AAXX 19001 76311 32580 80000 10180 20131 39881 40161 57010 88404 92345 333 10226 20098 30/// 50060 56505 59024 70000 84625 84270
AAXX 19001 76412 31766 62202 10200 20135 30147 40192 57005 70544 86050 92340 333 10250 20150 30/// 50390 56050 59001 86356
AAXX 19001 76640 11358 31401 10220 20202 30209 40221 57018 60021 70200 832// 92340 333 10236 20162 31/// 50121 562// 59051 70025 83807
AAXX 19001 76741 31465 53204 10233 20206 30134 40153 57022 70544 84620 92335 333 10277 20204 30/// 50341 561// 59017 70032 82712 82813
BBXX VAAZ 19004 99548 70533 46/// /2624 11070 21112 40150 53005 7//// 8//// 22271 0//// 2////
BBXX C6SI6 19004 99317 11232 46/// /0310 10091 20017 40315 53001 7//// 8//// 22253 0//// 2////
BBXX CGJK 19004 99484 71234 46/// /1702 10079 20054 40274 53015 7//// 8//// 22200 0//// 2////
BBXX CGDT 19004 99468 70712 46/// /2403 11094 21160 40263 52008 7//// 8//// 22200 0//// 2////
BBXX CGDX 19004 99468 70712 46/// /3101 11093 21158 40261 51007 7//// 8//// 22200 0//// 2////
BBXX CG2965 19004 99487 71235 46/// /3006 10084 20045 40274 53014 7//// 8//// 22200 0//// 2////
BBXX CGSB 19004 99492 70681 46/// /2906 11108 21132 40236 58007 7//// 8//// 22200 0//// 2////
BBXX VOLG 19004 99452 70609 46/// /0323 11001 21055 40173 51022 7//// 8//// 22213 0//// 2////
BBXX VCWL 19004 99456 70735 46/// /0000 11081 21136 40247 58003 7//// 8//// 22200 0//// 2////
BBXX CGBN 19004 99447 70636 46/// /0210 11021 21055 40183 51017 7//// 8//// 22200 0//// 2////
BBXX CG2960 19004 99423 70830 46/// /2402 10035 21009 4//// 5//// 7//// 8//// 22200 0//// 2////
BBXX VOKJ 19004 99466 70547 46/// /0224 11016 21034 40144 58021 7//// 8//// 22223 0//// 2////
BBXX VAAP 19004 99446 70636 46/// /0111 11026 21053 40184 51014 7//// 8//// 22200 0//// 2////
BBXX VXKF 19004 99462 70602 46/// /3614 11023 21095 40191 51009 7//// 8//// 22200 0//// 2////
BBXX CGDG 19004 99447 70636 46/// /0205 11026 20002 40197 51017 7//// 8//// 22200 0//// 2////
BBXX CGTF 19004 99476 70527 46/// /3109 11022 21038 40180 55006 7//// 8//// 22200 0//// 2////
BBXX CGBY 19004 99487 71235 46/// /3004 10078 20040 40273 53014 7//// 8//// 22200 0//// 2////
BBXX VCSZ 19004 99487 70686 46/// /2114 11085 21111 40225 58004 7//// 8//// 22254 0//// 2////
BBXX CGDR 19004 99484 71234 46/// /1802 10086 20085 40276 53015 7//// 8//// 22200 0//// 2////
BBXX CGJV 19004 99456 70613 46/// /0409 11019 21054 40195 51018 7//// 8//// 22200 0//// 2////
BBXX VOFG 19004 99456 70614 46/// /0604 11018 21067 40195 51016 7//// 8//// 22200 0//// 2////
BBXX VOKF 19004 99490 70669 46/// /1403 11151 21171 40236 58004 7//// 8//// 22200 0//// 2////
BBXX CG2958 19004 99507 71275 46/// /3503 10060 20032 40299 53006 7//// 8//// 22200 0//// 2////
BBXX 3FZK3 19004 99544 71468 46/// /2613 10055 20030 49985 53052 7//// 8//// 22232 0//// 2////
AAXX 19004 87692 31359 81406 10172 20155 30053 40078 52007 71011 886// 333 10205 20166 56299 84709 85615 555 10077 64155 65090
BBXX CGDX 19004 99468 70712 46/// /3101 11093 21158 40261 51007 7//// 8//// 22200 0//// 2////
BBXX CGBY 19004 99487 71235 46/// /3004 10078 20040 40273 53014 7//// 8//// 22200 0//// 2////
AAXX 19001 33815 42997 20000 10008 21028 39997 40210 52017 80030 555 11103
BBXX VOLG 19004 99452 70609 46/// /0323 11001 21055 40173 51022 7//// 8//// 22213 0//// 2////
BBXX CGSB 19004 99492 70681 46/// /2906 11108 21132 40236 58007 7//// 8//// 22200 0//// 2////
BBXX CG2960 19004 99423 70830 46/// /2402 10035 21009 4//// 5//// 7//// 8//// 22200 0//// 2////
BBXX CG2965 19004 99487 71235 46/// /3006 10084 20045 40274 53014 7//// 8//// 22200 0//// 2////
BBXX VCWL 19004 99456 70735 46/// /0000 11081 21136 40247 58003 7//// 8//// 22200 0//// 2////
BBXX CGJK 19004 99484 71234 46/// /1702 10079 20054 40274 53015 7//// 8//// 22200 0//// 2////
BBXX VAAP 19004 99446 70636 46/// /0111 11026 21053 40184 51014 7//// 8//// 22200 0//// 2////
BBXX CGTF 19004 99476 70527 46/// /3109 11022 21038 40180 55006 7//// 8//// 22200 0//// 2////
BBXX VAAZ 19004 99548 70533 46/// /2624 11070 21112 40150 53005 7//// 8//// 22271 0//// 2////
BBXX VCSZ 19004 99487 70686 46/// /2114 11085 21111 40225 58004 7//// 8//// 22254 0//// 2////
BBXX VXKF 19004 99462 70602 46/// /3614 11023 21095 40191 51009 7//// 8//// 22200 0//// 2////
BBXX CGBN 19004 99447 70636 46/// /0210 11021 21055 40183 51017 7//// 8//// 22200 0//// 2////
BBXX CGDG 19004 99447 70636 46/// /0205 11026 20002 40197 51017 7//// 8//// 22200 0//// 2////
BBXX C6SI6 19004 99317 11232 46/// /0310 10091 20017 40315 53001 7//// 8//// 22253 0//// 2////
AAXX 19001 76040 32960 03302 10171 20089 30166 40180 57011 92345 33310177 20061 30/// 50270 59023 70000 98660
AAXX 19001 76256 32580 22703 10190 20103 30171 40185 57008 82200 92340333 10215 20100 30/// 50050 565// 59009 70000 82827
AAXX 19001 76305 32670 20403 10200 20117 30170 40178 57006 82400 92350333 10237 20119 30/// 50201 56400 59003 70000 82633
AAXX 19001 76323 32570 41605 10208 20051 38257 40144 57022 84200 92340333 10236 20075 30/// 50421 56500 59046 70000 84630
AAXX 19001 76342 31460 80401 10120 20103 39518 40243 57015 70222 886//92350 333 10135 20085 31/// 50021 561// 59082 70000 88710
AAXX 19001 76373 32570 11801 10177 20021 38198 40142 57001 81200 92350333 10235 21015 30/// 50331 56900 59042 70000 81825
AAXX 19001 76390 31662 63003 10183 20068 38236 40118 57010 70544 8120592330 333 10212 20025 30/// 50171 56305 59048 70000 8183385070
AAXX 19001 76402 31559 13304 10194 20099 30135 40192 57003 70544 8140092345 333 10235 20098 30/// 50471 56700 58004 70000 81628
AAXX 19001 76423 32584 62204 10212 20036 38150 40111 57003 82454 92345333 10260 20045 30/// 50380 56999 59020 70000 81820 81627
AAXX 19001 76458 32970 53208 10216 20167 30147 40152 56005 80008 92339333 10264 20134 30/// 50351 56//9 59005 70000 83270 82071
AAXX 19001 76491 32960 33401 10230 20150 39816 40203 57010 80004 92345333 10260 20118 30/// 50221 56009 70000 83077
AAXX 19001 76525 32680 62007 10147 20026 37480 40138 57002 83406 92340333 10160 20055 30/// 50781 563/5 59021 70000 83649 83080
AAXX 19001 76543 32675 20902 10239 20169 30181 40213 55004 81509 92345333 10280 20149 31/// 5//// 56505 58/// 70000 81650
AAXX 19001 76548 32875 10703 10220 20175 30200 40210 57013 81300 92340333 10252 20154 30/// 50191 56020 59057 70000 81357
AAXX 19001 76556 32970 62903 10224 20139 39124 40132 51001 80006 92330333 10280 20131 30/// 50251 56006 59001 70000 86270
AAXX 19001 76571 32665 42101 10214 20023 38170 40130 57007 83404 92350333 10240 20080 30/// 50251 56505 59015 70000 83636
AAXX 19001 76577 32570 22302 10220 20164 38044 40111 55013 82400 92340333 10268 20095 30/// 50251 56500 59023 70000 82627
AAXX 19001 76612 32562 50000 10220 20113 38474 40123 55007 85800 92350333 10264 20088 30/// 50291 56500 59009 70000 83827 82635
AAXX 19001 76625 32960 00902 10205 20063 38145 40106 57005 92350 33310243 20095 30/// 50470 58/// 70000
AAXX 19001 76647 32865 50502 10243 20182 30171 40201 53008 83031 92350333 10297 20195 30/// 50311 560// 59006 70000 83358
AAXX 19001 76662 32670 11901 10248 20122 38458 40104 57005 81200 92345333 10280 20064 30/// 50360 56200 59001 70000 81833
AAXX 19001 76665 31562 11601 10208 20121 38131 40124 52001 70100 8110092355 333 10252 20072 30/// 50280 56100 57812 58007 7000081814
AAXX 19001 76683 32675 11601 10182 20087 37834 40157 5//// 81200 92349333 10222 20080 30/// 50301 56200 59022 70000 81839
AAXX 19001 76685 32970 01203 10172 20003 37873 40116 57001 80000 92345333 10256 20054 30/// 50321 59011 70000
AAXX 19001 76687 31460 31401 10160 20132 38716 40211 55008 70110 8380092344 333 10195 20118 30/// 50020 563// 59022 70071 83617
AAXX 19001 76692 31556 23604 10240 20197 30184 40203 57004 71044 8280092345 333 10273 20204 30/// 50181 568// 59023 79999 8182081622
AAXX 19001 76695 32958 03203 10246 20206 30170 40175 50000 92347 33310280 20191 30/// 50240 59008 70000 91005 91532
AAXX 19001 76737 31480 61401 10170 20132 38812 40201 55006 70322 8367092335 333 10189 20124 30/// 50091 56220 59017 70190 8371783358 91105 91516
AAXX 19001 76743 31556 20301 10257 20189 30174 40182 55002 70211 8210092345 333 10286 20205 30/// 5/// 560// 59011 70000 82828
AAXX 19001 76750 32558 50603 10232 20200 30171 40181 52006 69951 7515283230 92350 333 10280 20190 31/// 56110 59008 69957 7001683820
AAXX 19001 76762 32904 00000 10246 20200 38751 40094 56011 92335 33310310 20156 30/// 50351 59008 70000
AAXX 19001 76775 31970 02902 10213 20057 38532 40141 57001 70100 92345333 10260 20095 30/// 50391 59009 70000
AAXX 19001 76805 32870 12502 10280 20244 30111 40116 55006 81030 92350333 10317 20220 30/// 50481 56/7/ 58001 70000 81357
AAXX 19001 76833 32970 03605 10264 20169 30133 40135 52008 92345 33310314 20250 30/// 50121 58000 70000 92012
AAXX 19001 76843 32965 03604 10226 20147 39506 40144 56001 92331 33310264 20176 30/// 50471 59001 70000
AAXX 19001 76845 32460 40701 10124 20101 37963 40187 53004 84600 92345333 10158 20090 30/// 50171 56200 59014 79999 84710
AAXX 19001 76848 32470 30501 10141 20109 38402 40115 52008 83500 92350333 10192 20130 30/// 50251 56100 59005 79999 83613
AAXX 19001 76855 32580 22401 10290 20235 30061 40109 50002 81230 92340333 10334 20218 30/// 50450 56990 58013 70000 81820 92000
AAXX 19001 76903 31670 62601 10280 20222 39991 40125 52010 70122 8258092346 333 10330 20230 30/// 50561 58003 70000 81833 8165084358
AAXX 19001 76243 11360 80902 10120 20110 39917 40216 57013 69931 75052887// 92330 333 10134 20090 31/// 50021 563// 59084 7000388710
AAXX 19001 76311 32580 80000 10180 20131 39881 40161 57010 88404 92345333 10226 20098 30/// 50060 56505 59024 70000 84625 84270
AAXX 19001 76412 31766 62202 10200 20135 30147 40192 57005 70544 8605092340 333 10250 20150 30/// 50390 56050 59001 86356
AAXX 19001 76640 11358 31401 10220 20202 30209 40221 57018 60021 70200832// 92340 333 10236 20162 31/// 50121 562// 59051 7002583807
AAXX 19001 76741 31465 53204 10233 20206 30134 40153 57022 70544 8462092335 333 10277 20204 30/// 50341 561// 59017 70032 8271282813
BBXX CGDT 19004 99468 70712 46/// /2403 11094 21160 40263 52008 7//// 8//// 22200 0//// 2////
BBXX VOKJ 19004 99466 70547 46/// /0224 11016 21034 40144 58021 7//// 8//// 22223 0//// 2////
AAXX 19004 78583 32470 72403 10231 20223 40180 60001 86802 333 01805 10266 20/// 59011 70023 81812 86817 85078
BBXX CGDR 19004 99484 71234 46/// /1802 10086 20085 40276 53015 7//// 8//// 22200 0//// 2////
BBXX VOFG 19004 99456 70614 46/// /0604 11018 21067 40195 51016 7//// 8//// 22200 0//// 2////
BBXX CG2958 19004 99507 71275 46/// /3503 10060 20032 40299 53006 7//// 8//// 22200 0//// 2////
BBXX CGJV 19004 99456 70613 46/// /0409 11019 21054 40195 51018 7//// 8//// 22200 0//// 2////
BBXX VOKF 19004 99490 70669 46/// /1403 11151 21171 40236 58004 7//// 8//// 22200 0//// 2////
BBXX 3FZK3 19004 99544 71468 46/// /2613 10055 20030 49985 53052 7//// 8//// 22232 0//// 2////
AAXX 19004 60150 11450 70802 10107 20099 39564 40224 57004 69951 70262 872// 333 83710 86820
AAXX 19004 60155 11458 808// 10148 20137 40206 52008 69921 70366 8487/ 333 82816 83626 86360
AAXX 19004 60096 NIL
AAXX 19004 60101 NIL
AAXX 19004 60115 NIL
AAXX 19004 60135 NIL
AAXX 19004 60156 NIL
AAXX 19004 60230 NIL
AAXX 19004 60252 NIL
AAXX 19004 81401 06/// /0703 10254 20229 30101 40107 60001 333 10332 60007 59001 555 60005
AAXX 19004 81408 06/// /0000 10241 20225 30105 40113 60001 333 10329 60007 58005 555 60005
BBXX DBLK 19001 99705 50081 41997 /1011 11024 21036 49853 52022 7//// 22200 05015
AAXX 19004 60141 11304 10093 20085 39551 40226 69941 74454 886// 333 88706
AAXX 19004 60265 32970 00000 10099 20015 38913 48534 53015
AAXX 19004 60060 NIL
AAXX 19004 60105 NIL
AAXX 19004 60106 NIL
AAXX 19004 60107 NIL
AAXX 19004 60127 NIL
AAXX 19004 60185 NIL
AAXX 19004 60190 NIL
AAXX 19004 60191 NIL
AAXX 19004 60195 NIL
AAXX 19004 60210 NIL
AAXX 19004 60220 NIL
AAXX 19004 60318 NIL
AAXX 19004 78970 12470 50000 10255 20198 30099 40124 60001 82802 333 01209 10327 20222 58000 81818 85080
AAXX 19004 78962 11568 60000 10250 20213 30125 40133 60001 70411 81502 333 00209 10300 20222 58001 81628 86080
BBXX VCLM 19004 99543 70553 46/// /2423 11085 21121 40153 51028 7//// 8//// 22243 00007 2////
AAXX 19004 60285 NIL
AAXX 19004 60340 NIL
AAXX 19004 68399 36/// /0502 10217 20175 30060 40170 57008 333 10335 20209 91015 555 91017
AAXX 19004 68383 36/// /0000 10216 20153 39934 48582 57006 333 10339 20215 91000 555 91018
AAXX 19004 68379 36/// /0802 10215 20179 39851 48576 57006 333 10340 20211 91004 555 91018
AAXX 19004 68398 36/// /3604 10182 20167 39393 48530 57007 333 10281 20178 91006 555 91017
AAXX 19004 68299 36/// /0405 10119 20109 38957 48539 57005 333 10216 20119 91008 555 91021
AAXX 19004 91503 11475 80000 10276 20246 40063 58001 60014 71622 8387/ 333 20244 56999 59016 81818 83627 88459
AAXX 19004 91517 11475 70000 10308 20232 40068 57005 60124 71522 8497/ 333 20244 56799 59017 81818 81920 84635 87360
AAXX 19004 91503 11475 80000 10276 20246 40063 58001 60014 71622 8387/ 333 20244 56999 59016 81818 83627 88459
AAXX 19004 91517 11475 70000 10308 20232 40068 57005 60124 71522 8497/ 333 20244 56799 59017 81818 81920 84635 87360
BBXX VCLM 19004 99543 70553 46/// /2423 11085 21121 40153 51028 7//// 8//// 22243 00007 2////
AAXX 19001 11723 02980 12402 11022 21047 39863 40172 52014 60001 80001 333 55042 60005 81070
AAXX 19001 89061 379// 01502 10023 21014 39857 49863 52001 73011 333 10053 20021 91004 91109
AAXX 19004 78858 12480 60507 10250 20188 30101 40157 60001 85801 333 10280 20226 58007 70010 85818
AAXX 19004 78982 02480 70510 10268 20220 30120 40125 52012 60001 81272 333 10291 20262 58003 60007 81818 87360
AAXX 19001 89061 379// 01502 10023 21014 39857 49863 52001 73011 333 10053 20021 91004 91109
AAXX 19004 48601 11460 70307 10261 20226 30089 40093 60034 70582 81241 333 20256 50400 58000 70026 81818 87077
AAXX 19004 48615 11358 70109 10261 20233 30092 40098 60154 72162 84548 333 20231 50490 59005 70150 81708 84620 87272
AAXX 19004 48620 11463 70102 10239 20228 30081 40090 69904 70522 83945 333 20239 50240 59003 79999 81917 83365 86078
AAXX 19004 48647 11459 73101 10264 20252 30069 40094 60004 70522 85942 333 20255 50130 59002 70000 81710 81917 83625 86364
AAXX 19004 48657 11358 83405 10240 20231 30077 40095 60344 76166 85577 333 20234 50370 59003 70338 82708 84624 88276
AAXX 19004 48665 11459 70301 10241 20236 30088 40098 60064 71062 83542 333 20239 50150 59002 70056 81710 85364 85077
AAXX 19004 96413 11160 73101 10248 20239 30059 40085 60174 70142 82941 333 20232 50390 59003 70170 81702 81915 87080
AAXX 19004 96421 12278 70501 10247 20232 30049 40085 60794 84531 333 20227 55081 59001 70786 81706 83616 85080
AAXX 19004 96441 12480 70902 10247 20236 30056 40083 69944 82541 333 20238 50290 55044 58007 70004 82614 86365
AAXX 19004 96449 11375 72104 10244 20239 30065 40084 60264 70162 8357/ 333 20230 50370 58003 70256 81708 83614 87365
AAXX 19004 96465 11478 72302 10270 20253 30045 40078 60194 70196 81838 333 20248 50440 55054 59007 70187 81813 84363 87279
AAXX 19004 96471 11477 71103 10269 20243 30075 40078 60024 70162 82848 333 20258 50480 59003 70020 81814 83364 87278
AAXX 19004 96481 11450 72402 10249 20236 30076 40095 60084 76262 8497/ 333 20247 50640 55103 58003 70076 81916 84627 87364
AAXX 19004 96491 11465 71804 10284 20252 30073 40085 60004 70522 82832 333 20251 50470 55097 59004 70000 82815 87080
AAXX 19004 43533 11459 23405 10272 20240 30091 40094 60002 70500 81201 333 58006 70000 81818
AAXX 19004 43555 11459 70513 10268 20248 30097 40100 69952 70282 83208 333 58015 79995 83817 87275
AAXX 19004 43577 12458 73605 10277 20245 30094 40096 60002 82248 333 58008 70001 82818 87276
AAXX 19004 43588 12465 73403 10270 20256 30089 40091 60002 82238 333 58003 79999 82818 87277
AAXX 19004 43599 12462 70000 10267 20244 30097 40099 60002 83262 333 58001 79999 83817 87076
AAXX 19004 85201 11470 70607 10076 20036 36279 53003 60061 71392 82963 333 10159 56000 58005 81615 81917 84357 87070
AAXX 19004 85223 11584 50603 10162 20108 37503 47127 56013 60031 70192 83431 333 10253 56000 58013 83627 84357
AAXX 19004 85244 32965 40000 10270 20199 39654 40078 53016 80001 333 10340 56009 59015 84070
BBXX VCBW 19004 99483 70694 46/// /2511 11091 21120 40242 58004 7//// 8//// 22253 00025 2////
BBXX 44011 19001 99411 70666 46/// /3613 10034 20000 40158 51012 92350 22200 00094 10908 20706 3//// 40904 70039 333 91216 555 11142 22150 32259 41816 62349 000134 357131 356135 352134 354129 353135
BBXX 41046 19001 99238 70683 46/// /3201 10243 20162 40185 51010 92350 22200 00259 10904 20401 300// 40904 70018 333 91202 555 11013 22014 32304 43305 62349 320014 318019 327027 325025 323034 327032 83304 92305
AAXX 19004 91317 11474 10912 10294 20272 30117 40121 5//// 60084 70282 81100 333 562// 70084 58012 81818 555 91900
AAXX 19004 78970 12470 50000 10255 20198 30099 40124 60001 82802 333 01209 10327 20222 58000 81818 85080
AAXX 19004 78962 11568 60000 10250 20213 30125 40133 60001 70411 81502 333 00209 10300 20222 58001 81628 86080
AAXX 19004 43533 11459 23405 10272 20240 30091 40094 60002 70500 81201 333 58006 70000 81818
AAXX 19004 43555 11459 70513 10268 20248 30097 40100 69952 70282 83208 333 58015 79995 83817 87275
AAXX 19004 43577 12458 73605 10277 20245 30094 40096 60002 82248 333 58008 70001 82818 87276
AAXX 19004 43588 12465 73403 10270 20256 30089 40091 60002 82238 333 58003 79999 82818 87277
AAXX 19004 43599 12462 70000 10267 20244 30097 40099 60002 83262 333 58001 79999 83817 87076
AAXX 19004 91348 11470 80504 10267 20246 30041 40093 58008 60324 78082 8722/ 333 20206 56199 59015 70323 555 91900
BBXX 46089 19001 99459 71258 46/// /3408 10085 20053 40293 53015 92350 22200 00093 11607 20603 330// 41606 70035 333 91210 555 11080 22084 32313 43412 62349 343075 343083 346084 348089 351084 342082
BBXX VCBW 19004 99483 70694 46/// /2511 11091 21120 40242 58004 7//// 8//// 22253 00025 2////
AAXX 19004 48698 01312 80105 10242 20242 30073 40091 60874 76566 8682/ 333 20242 58001 60237 70874 83708 83815 88463
AAXX 19004 91317 11474 10912 10294 20272 30117 40121 5//// 60084 70282 81100 333 562// 70084 58012 81818 555 91900
AAXX 19004 48698 01312 80105 10242 20242 30073 40091 60874 76566 8682/ 333 20242 58001 60237 70874 83708 83815 88463
AAXX 19004 91348 11470 80504 10267 20246 30041 40093 58008 60324 78082 8722/ 333 20206 56199 59015 70323 555 91900
AAXX 19004 16045 NIL
AAXX 19004 16090 12970 03105 10010 21039 30051 40136 54000 60001
AAXX 19004 16149 11559 82814 10022 20004 30090 40106 57008 60121 76196 8628/ 333 86825
AAXX 19004 16261 NIL
AAXX 19004 16453 NIL
AAXX 19004 16560 NIL
AAXX 19004 16021 12960 03505 11086 21158 37890 48426 53002 60001 333 92842
AAXX 19004 16022 12980 33623 11100 21165 37760 48422 51001 60001 83005 333 92835
AAXX 19004 16033 12962 00000 11098 21129 38738 48438 52003 60001 333 92822
AAXX 19004 16040 NIL
AAXX 19004 16052 11962 00620 11192 21216 36495 47928 51007 60001 70174 333 93199
AAXX 19004 16061 12982 03012 10016 21088 39302 42755 51003 60001
AAXX 19004 16098 NIL
AAXX 19004 16138 NIL
AAXX 19004 16148 11961 42913 10028 20028 30099 40112 58011 60011 70162 84070 333 84359
AAXX 19004 16168 12780 12106 10014 21013 39329 42700 53010 60001 81030 333 81350
AAXX 19004 16172 12561 80202 10044 21016 39810 40113 51005 60001 8682/ 333 81822 85625
AAXX 19004 16179 11/01 92108 10000 20000 39410 42711 54000 60061 77174 333 89/00 92821 93101
AAXX 19004 16224 12463 80111 10046 20033 39752 40074 51006 60001 888// 333 83813 85616
AAXX 19004 16232 12598 51709 10072 20017 30021 40075 52002 60001 81231 333 81825 555 0////
AAXX 19004 16245 11460 80405 10048 20027 30053 40080 51004 60021 76096 88900 333 82816 82918 85630
AAXX 19004 16253 11450 60606 10050 20027 30077 40089 58008 60031 79596 83970 333 81915 83818 85356
AAXX 19004 16258 11560 82010 10014 21002 39082 42700 58007 69941 72864 885// 333 88620
AAXX 19004 16263 11/02 92209 10004 21002 38822 48390 50000 60031 77174 333 89/00 92822 93130
AAXX 19004 16294 11597 52610 10086 20030 39892 40086 58005 69981 70196 85500 333 85630 555 0////
AAXX 19004 16337 NIL
AAXX 19004 16344 11/00 92408 11010 21010 38236 48425 54004 60001 74544 333 89/00 95090 95190
AAXX 19004 16434 NIL
AAXX 19004 16450 12462 22907 10046 20028 39018 48481 57003 60001 82130 333 81810
AAXX 19004 16459 NIL
AAXX 19004 16546 11462 83415 10072 20050 30101 40130 53006 69961 76061 888// 333 83710 83820 85640
AAXX 19004 16564 12598 42938 10084 20026 39959 40102 58018 60001 83230 333 83820 555 0////
AAXX 19001 37682 32997 03601 11111 21117 38170 48572 52008
AAXX 19001 37717 329// 00000 11032 21060 38150 48579 52005 555 1/111
AAXX 19001 37788 41495 60000 11018 21042 39332 40378 52002 71022 866// 333 86712
AAXX 19004 71805 04586 80422 11032 21070 30164 40173 55002 60001 700// 333 60007 90710 91131 555 60005
AAXX 19004 16008 12960 03503 11094 21150 38469 48433 52010 60001 333 92820
AAXX 19004 16084 12980 22607 11004 21012 39973 40146 52007 60001 80005
AAXX 19004 16088 12970 00000 11020 21020 30023 40145 53005 60001 333 92600
AAXX 19004 16110 12898 50616 10050 21040 30109 40113 52001 60001 85030 333 85357 555 0////
AAXX 19004 16134 11/00 93126 11080 21084 37706 48405 51002 60001 74944 333 89/00 92710 92845 95090 95190
AAXX 19004 16153 12999 00118 10073 21105 39863 40130 52017 60001 555 0////
AAXX 19004 16158 12962 30903 10030 21008 30109 40117 51010 60001 80005
AAXX 19004 16206 NIL
AAXX 19004 16219 NIL
AAXX 19004 16252 11/02 92202 10008 20008 39142 42712 51003 69901 77074 333 89/02
AAXX 19004 16280 NIL
AAXX 19004 16310 NIL
AAXX 19004 16320 NIL
AAXX 19004 16325 12597 42709 10058 20033 30081 40095 54000 60001 82530 333 82625 84358 98065 555 0////
AAXX 19004 16360 11998 02105 10122 20058 39964 40098 58006 69921 70162 555 0////
AAXX 19004 16400 NIL
AAXX 19004 16420 11597 40000 10116 20025 30051 40116 50000 69901 70261 82531 333 82620 90950 96460 555 0////
AAXX 19004 16429 11562 62708 10110 20038 30117 40129 54001 69921 70262 85830 333 83822 85359
AAXX 19004 16470 NIL
AAXX 19004 16480 12997 03105 10088 20026 30050 40112 54000 60001 555 0////
AAXX 19004 16522 11497 43418 10082 20055 39878 40125 53013 60021 70162 84200 333 84815 555 0////
AAXX 19004 16539 NIL
AAXX 19004 16550 12698 42810 10078 20016 39916 40097 53002 60001 84200 333 84840 555 0////
AAXX 19004 40340 32960 00213 10174 20030 40175 57005
BBXX BATFR55 19004 99147 30525 44697 20119 10280 20239 40075 70100 8124/ 22272 00284 20704
BBXX BATFR54 19004 99462 70020 46/// /2817 10090 20047 40236 57016 22272 00135
BBXX VCXF 19004 99464 70484 41196 80626 10015 2001/ 40117 57025 76122 886// 22200 02025 20502 332// 40804 80015
BBXX 44008 19001 99405 70692 46/// /3512 10020 21039 40208 53026 92350 22200 00113 333 91215 555 11125 22131 32323 43516 62349 347117 343119 351120 352114 346116 353120
BBXX 44172 19001 99445 70634 46/// ///// 1//// 90001 22200 00070 10603 20603 313// 41101 70016
BBXX 44097 19001 99410 70711 46/// ///// 1//// 90002 22200 00120 10402 20402 315// 41101 70012
AAXX 19004 13600 11660 50914 10065 20042 30082 40135 54005 69961 70152 82550 333 82640 83360
AAXX 19004 13610 12660 62210 10038 20007 39738 40170 54002 60001 885// 333 86633
AAXX 19004 13611 NIL
AAXX 19004 13619 12660 80000 10010 20004 39380 42769 54002 60001 885// 333 88633
AAXX 19004 13622 NIL
AAXX 19004 13624 12960 81414 10102 20013 30080 40119 53005 60001 8802/ 333 88460
AAXX 19004 13625 NIL
AAXX 19004 13629 12660 80902 10020 20005 39082 42741 54000 60001 885// 333 88640
AAXX 19004 13601 NIL
AAXX 19004 13602 NIL
AAXX 19004 13623 NIL
AAXX 19004 63980 42482 22804 10280 20243 40094 84200 333 58012 84817 943// 91118
AAXX 19004 91643 11599 20109 10310 20247 40077 58014 60001 70200 82100 333 20257 50314 568// 70019 82820
AAXX 19004 91636 11599 30906 10313 20247 40081 60001 70200 83200 333 20268 562// 70000
AAXX 19004 91631 11599 20908 10295 20236 40076 60001 70200 82100 333 20259 562// 70000
BBXX 51000 19001 99235 71541 46/// /0710 10228 40182 58022 92350 22200 00233 11406 20905 334// 41403 70029 333 91212 555 11107 22113 32340 40813 62349 075100 077100 079105 078101 078104 077101
BBXX 46232 19001 99325 71174 46/// ///// 1//// 92338 22200 00154 11702 20901 329// 41702 70012
BBXX 46247 19001 99378 71228 46/// ///// 1//// 92351 22200 00113 11404 21002 330// 41404 70022
BBXX 46243 19001 99462 71241 46/// ///// 1//// 92359 22200 00076 11406 20904 327// 41404 70030
BBXX 46236 19001 99368 71219 46/// ///// 1//// 92350 22200 00127 11404 21001 329// 41403 70018
BBXX 46229 19001 99438 71246 46/// ///// 1//// 92351 22200 00102 11507 20804 329// 41506 70035
BBXX 46225 19001 99329 71174 46/// ///// 1//// 92344 22200 00149 11301 20901 327// 41301 70007
BBXX 46213 19001 99403 71247 46/// ///// 1//// 92354 22200 00107 11505 21003 329// 41504 70027
BBXX 46215 19001 99352 71209 46/// ///// 1//// 92338 22200 00142 11504 21002 326// 41504 70022
AAXX 19001 01218 16/// /0101 10001 21001 39972 49994 58001 60091 333 91103
AAXX 19001 01447 16/// /0000 11001 21040 39313 49982 53002 60001 333 91100
BBXX VCXF 19004 99464 70484 41196 80626 10015 2001/ 40117 57025 76122 886// 22200 02025 20502 332// 40804 80015
BBXX 46035 19001 99571 71778 46/// /2513 1//// 49754 51003 92350 22200 11210 20805 300// 41208 70048 333 91216 555 11127 22136 32349 42516 62349 251126 253121 252121 256125 260119 255120 82514 92347
BBXX V2AN5 19001 99545 71700 41497 42118 10023 21033 49823 51003 70311 83343 22264 20708 302// 41206 5//// 80002
BBXX WDD9433 19004 99442 71597 41/// ///// 10090 20025 49975 52035 701// 8/0// 22223 00100 20205 324// 40407 5//// 6//// 80060 ICE /////
BBXX 46218 19001 99345 71208 46/// ///// 1//// 90002 22200 00141 11705 21003 331// 41705 70027
BBXX 46238 19001 99334 71195 46/// ///// 1//// 92350 22200 00144 11405 20603 328// 41403 70023
BBXX 46239 19001 99363 71221 46/// ///// 1//// 92351 22200 00128 11406 21002 330// 41405 70028
AAXX 19004 61970 16/// ///// 10273 20227 40082 60001 333 59006 555 60005
AAXX 19004 61972 16/// /1708 10247 20204 40103 69921 333 58004 90710 91118 555 60005
AAXX 19004 61980 11560 61608 10238 20197 40086 60001 71522 84832 333 59009 82826 83636 90710 91113 924/7 555 60005
AAXX 19004 67005 14/// /2605 10268 20239 40087 60001 700// 333 59001 90710 91111 555 60005
AAXX 19004 48601 11460 70307 10261 20226 30089 40093 60034 70582 81241 333 20256 50400 58000 70026 81818 87077
AAXX 19004 48615 11358 70109 10261 20233 30092 40098 60154 72162 84548 333 20231 50490 59005 70150 81708 84620 87272
AAXX 19004 48620 11463 70102 10239 20228 30081 40090 69904 70522 83945 333 20239 50240 59003 79999 81917 83365 86078
AAXX 19004 48647 11459 73101 10264 20252 30069 40094 60004 70522 85942 333 20255 50130 59002 70000 81710 81917 83625 86364
AAXX 19004 48650 11460 73202 10254 20244 30075 40094 60004 70522 82978 333 20242 50280 58000 70000 81917 85364 85277
AAXX 19004 48657 11358 83405 10240 20231 30077 40095 60344 76166 85577 333 20234 50370 59003 70338 82708 84624 88276
AAXX 19004 48665 11459 70301 10241 20236 30088 40098 60064 71062 83542 333 20239 50150 59002 70056 81710 85364 85077
AAXX 19004 96413 11160 73101 10248 20239 30059 40085 60174 70142 82941 333 20232 50390 59003 70170 81702 81915 87080
AAXX 19004 96421 12278 70501 10247 20232 30049 40085 60794 84531 333 20227 55081 59001 70786 81706 83616 85080
AAXX 19004 96441 12480 70902 10247 20236 30056 40083 69944 82541 333 20238 50290 55044 58007 70004 82614 86365
AAXX 19004 96449 11375 72104 10244 20239 30065 40084 60264 70162 8357/ 333 20230 50370 58003 70256 81708 83614 87365
AAXX 19004 96465 11478 72302 10270 20253 30045 40078 60194 70196 81838 333 20248 50440 55054 59007 70187 81813 84363 87279
AAXX 19004 96471 11477 71103 10269 20243 30075 40078 60024 70162 82848 333 20258 50480 59003 70020 81814 83364 87278
AAXX 19004 96481 11450 72402 10249 20236 30076 40095 60084 76262 8497/ 333 20247 50640 55103 58003 70076 81916 84627 87364
AAXX 19004 96491 11465 71804 10284 20252 30073 40085 60004 70522 82832 333 20251 50470 55097 59004 70000 82815 87080
AAXX 19001 06201 47571 73111 10061 20014 30078 40131 53006 70385 8//// 333 81/27 83/32 87/43 91013 91119 91216
AAXX 19001 06203 47576 6//08 10067 20008 30093 40144 51012 70285 8//// 333 82/26 83/31 85/41 91011 91116 91212
AAXX 19001 06204 47583 13310 10062 20004 30084 40135 51012 70180 8//// 333 81/28 91011 91115 91212
AAXX 19001 06205 47482 43111 10046 20001 30045 40105 50013 72385 8//// 333 81/19 83/37 91014 91115 91212
AAXX 19001 06208 47467 23004 10057 20025 30054 40104 51010 72385 8//// 333 81/13 91006 91115 91212
AAXX 19001 06211 47482 63010 10055 20002 30079 40136 51010 72100 8//// 333 82/19 83/22 85/47 91014 91117 91214
AAXX 19001 06212 47281 33312 1//// 2//// 30069 40132 51012 72385 8//// 333 81/06 83/21 91014 91117 91214
AAXX 19001 06235 17575 13206 10050 20009 30127 40127 51012 69971 70185 8//// 333 81/22 91009 91109 91206
AAXX 19001 06240 17681 72801 10015 20006 30142 40137 53011 60011 72386 8//// 333 81/41 83/50 85/59 91001 91110 91206
AAXX 19001 06251 17670 43107 10049 20011 30112 40113 50009 60041 72385 8//// 333 81/37 83/62 91010 91114 91208
AAXX 19001 06258 46/// /2706 333 91007 91111 91209
AAXX 19001 06269 17671 12404 10001 20000 30137 40131 51011 60001 72210 8//// 333 81/44 91004 91108 91205
AAXX 19001 06280 17464 82704 10013 20009 30110 40114 53014 60021 78185 8//// 333 82/11 85/15 87/19 91006 91110 91206
AAXX 19001 06310 17435 73205 10032 20018 30146 40156 52007 60051 78286 8//// 333 81/10 83/18 85/21 91008 91111 91207
AAXX 19001 06344 17462 62702 10018 20008 30149 40142 53007 60011 72387 8//// 333 81/13 83/27 85/36 91004 91106 91204
AAXX 19001 06370 17126 82404 10012 20007 30123 40149 53007 60001 71011 8//// 333 88/03 91005 91109 91206
AAXX 19001 06380 17259 82404 10007 20000 30014 40157 51005 60001 71087 8//// 333 87/04 88/05 91006 91108 91206
AAXX 19001 06206 47473 63409 10056 20017 30074 40127 51014 70385 8//// 333 81/13 84/25 85/33 91011 91117 91214
AAXX 19001 06207 47476 7//11 10044 21007 30058 40113 51011 78187 8//// 333 81/16 83/24 85/50 91014 91118 91214
AAXX 19001 06239 47581 1//12 10057 20004 3//// 4//// 5//// 70185 8//// 333 81/22 91016 91120 91216
AAXX 19001 06252 46/// /3409 10060 20009 30091 40138 53009 222// 00096 10705 333 91011 91114 91212
AAXX 19001 06260 17565 72402 10014 20004 30135 40137 51008 60001 72280 8//// 333 82/24 83/28 85/31 91004 91106 91203
AAXX 19001 06270 17476 82704 10027 20015 30111 40111 50007 60021 72385 8//// 333 81/12 83/25 85/41 91006 91110 91206
AAXX 19001 06290 17256 82304 10011 20006 30088 40129 52010 60001 71000 8//// 333 88/04 91007 91108 91206
AAXX 19004 89642 41610 81016 11032 21046 39994 40048 58025 77177 885// 333 11014 21035 88636
AAXX 19001 06407 11575 73307 10042 20008 30161 40167 52011 69941 72682 878// 333 70079 83820 85640 91113 91209
AAXX 19001 06447 NIL
BBXX DBBH 19001 99370 70118 41/98 /0410 10144 20068 40273 52011 7//// 22281 04178
BBXX DBCK 19001 99/// ///// 46/// ///// 10017 20016 40075 52008 22220 00045
AAXX 19001 06400 11581 73006 10048 20009 30161 40172 53011 60011 70386 878// 333 81822 87646 91113 91209
AAXX 19001 06428 NIL
AAXX 19001 06451 11357 72803 10010 21001 30090 40159 51008 69961 72287 875// 333 70057 82707 83710 86635 91108 91205
AAXX 19001 06456 11150 82905 10002 21003 39793 40170 52008 60021 72672 876// 333 41002 85702 87704 91110 91207
AAXX 19001 06476 17/02 9//// 11017 21023 39485 40168 52007 60021 77131 333 70049 911// 912//
AAXX 19001 06479 11012 82504 10006 20003 30078 40160 53007 69941 71072 886// 333 88701 91107 91206
AAXX 19001 06490 17/04 92802 11015 21021 39576 40163 53003 69901 73471 333 70035 91107 91204
AAXX 19001 06590 11263 72303 11009 21012 39704 40170 55000 69901 72682 876// 333 42001 87704 91110 91204
AAXX 19001 33135 32997 02203 11007 21022 39994 40177 52026
AAXX 19001 33317 32497 21803 11004 21038 39844 40190 52019 82500
AAXX 19001 33345 32998 42303 10005 21018 39992 40202 52028 83042
AAXX 19001 33393 32960 02004 11004 21037 39779 40181 52018
AAXX 19001 33506 32997 02202 10006 21005 30025 40226 52029
AAXX 19001 33587 32960 00000 11018 21030 39952 40225 52023
AAXX 19001 33631 32597 61302 10010 20002 30056 40203 52021 86500 333 86620
AAXX 19001 33663 32997 00000 11035 21040 30112 40212 52023
AAXX 19001 33658 32997 00000 11039 21061 39899 40211 52017
AAXX 19001 33711 32997 01803 11006 21021 30014 40230 52024
AAXX 19001 33791 32997 21702 11003 21009 30079 40235 52025 82030
AAXX 19001 33837 32973 02701 10021 20002 30171 40224 53020
AAXX 19001 33924 31996 81901 10030 20017 30215 40227 52022 71011 80007
AAXX 19001 33946 32997 71902 10050 20043 30012 40235 52016 87030
AAXX 19001 34300 32697 52203 10018 20002 30034 40230 52028 85500
AAXX 19001 34504 32935 02402 11004 21010 30052 40236 52025
AAXX 19001 34519 32360 80000 10038 20020 39955 40234 52023 886// 333 88707
AAXX 19001 34601 31900 00000 11001 21001 30100 40241 52023 74640 333 93400
AAXX 19001 06431 NIL
AAXX 19001 06432 NIL
AAXX 19001 06449 11125 82702 10002 21005 39934 40169 51009 60031 78587 877// 333 70069 86703 91110 91206
AAXX 19001 06450 17537 22302 10009 21002 30140 40156 52007 60021 71074 333 70090 82/25 91107 91204
AAXX 19001 06458 NIL
AAXX 19001 06465 NIL
AAXX 19001 06478 11128 82704 10001 21009 39936 40162 53007 69901 71072 876// 333 70016 82702 86703 91107 91206
AAXX 19001 06496 NIL
AAXX 19004 91573 06/// /0814 10282 20205 30005 40101 56006 69921 333 10282 59001 60007
AAXX 19004 91577 06/// /1913 10274 20173 30077 40097 56011 60001 333 10278 59003 60007
AAXX 19004 91579 06/// /1312 10270 20186 30095 40103 58007 60001 333 10275 58004 60007
AAXX 19004 91582 04970 /1213 10264 20185 30070 40104 58006 60001 700// 333 60007 90710 91122 555 60005
AAXX 19004 91583 06/// /1210 10276 20166 30091 40106 58010 60001 333 10282 58010 60007
AAXX 19004 91587 06/// ///// 10266 20168 30061 40105 57007 60001 333 10275 58002 60007
AAXX 19004 91590 04686 71511 10273 20156 30066 40108 58013 60001 700// 333 60007 90710 91120 555 60005
AAXX 19004 91592 06/// /1312 10263 20154 30034 40118 58006 60001 333 10268 59003 60007
AAXX 19004 91596 06/// /1412 10261 20132 30008 40116 58006 60001 333 10265 58003 60007
AAXX 19004 91574 46/// ///// 29064 30111 40117 51162 333 58063
AAXX 19004 91570 NIL
AAXX 19004 91598 NIL
BBXX 46219 19001 99332 71199 46/// ///// 1//// 92358 22200 00136 11705 20503 331// 41704 70025
BBXX 46224 19001 99332 71175 46/// ///// 1//// 92336 22200 00144 11301 20901 325// 41301 70006
BBXX 46214 19001 99379 71235 46/// ///// 1//// 92355 22200 00115 11506 21002 330// 41506 70030
BBXX 62087 19001 99547 10068 46/// /1604 10063 20024 4//// 5//// 22230 00080
AAXX 19001 03951 17560 /2507 10090 20068 30179 40205 58019 69921 7228/ 87/// 333 87/23
AAXX 19001 03953 11465 82304 10077 20064 30165 40202 57020 60021 76186 885// 333 82718 88629 92427
AAXX 19001 03955 11570 42404 10035 20029 30005 40207 57016 69901 70381 82530 333 82629 83358
AAXX 19001 03956 15978 /2604 10041 20025 30117 40196 57012 60001 80/// 333 87/66
AAXX 19001 03962 11470 72004 10056 20045 30168 40192 56017 69911 72186 875// 333 81714 83718 86633
AAXX 19001 03963 17450 /2408 10080 20063 30142 40171 57022 69981 78185 87/// 333 85/11 87/41
AAXX 19001 03966 15563 /2004 10035 20029 30094 40189 57020 60001 83/// 333 81/28 83/50 87/61
AAXX 19001 03967 11482 72205 10036 20024 30067 40184 56014 69901 70351 81602 333 81714 87068
AAXX 19001 03969 32580 72405 10037 20029 30075 40181 58012 81532 333 81620 83364 85070
AAXX 19001 03973 16/// /1903 10030 20026 39912 40172 57020 69901
AAXX 19001 03976 11460 82208 10078 20074 30141 40153 57025 69991 76186 887// 333 85710 88718
AAXX 19001 03980 16/// /2005 10050 20036 30120 40145 57017= 69901
BBXX 44099 19001 99369 70757 46/// ///// 1//// 92352 22200 00122 10602 20602 309// 41201 70011
AAXX 19004 89532 42/80 60604 11011 21083 39804 49831 58047 81572 333 10001 21026
AAXX 19001 01440 46/// /3007 11046 21051 38724 40017 54002 333 91108
AAXX 19001 01245 16/// /2902 11003 21020 39254 49956 58002 69961 333 91105
AAXX 19001 01393 16/// /3205 11037 21069 39132 49934 58001 6//// 333 91111
AAXX 19001 01436 16/// /2912 10047 20014 6//// 333 91117
AAXX 19001 01025 17/84 00602 11021 21039 30014 40025 57009 6//// 700// 333 91105
AAXX 19001 01257 16/// /2201 11040 21043 39813 49977 50000 60001 333 91102
AAXX 19001 01277 16/// /0000 11066 21073 60001 333 91102
AAXX 19001 01476 16/// /3103 10031 21026 39956 49962 57002 6//// 333 91109
AAXX 19001 01488 16/// /2903 11007 21041 60001 333 4/012 91106
AAXX 19001 01015 46/// /1605 10006 21038 333 91109
AAXX 19001 01180 16/// /3603 10009 21028 39949 40006 58008 60001 333 91108
AAXX 19001 01442 16/// /3506 10037 21030 39735 49991 57002 60001 333 91112
AAXX 19001 01450 16/// /3217 11033 21062 38823 49967 58004 60001 333 91124
AAXX 19004 84401 31956 01816 10262 20164 30074 40118 73000 333 10334 58007
AAXX 19004 84501 31359 81607 10194 20170 30106 40133 71022 886// 333 10219 56000 58009 88708
AAXX 19004 84515 21460 71204 10244 20232 39890 40067 70122 8452/ 333 10325 5690/ 58018 60011 84620 83460
AAXX 19004 84686 21560 82605 10130 20055 36861 76122 8552/ 333 10164 56990 58011 60041 81630 83646 86458
AAXX 19004 84628 34960 51609 10206 20174 30111 40127 70222 80001 333 10228 56001 59007 85073
AAXX 19004 84370 31460 82603 10246 20198 30073 40106 70300 83530 333 56090 58009 83618 87358
AAXX 19004 84455 31560 23606 10290 20218 39760 40110 70122 82500 333 10330 56000 58000 82625
AAXX 19004 84377 31460 80000 10270 20237 39963 40067 70222 85130 333 10330 5600/ 59013 85817 86360
AAXX 19004 84691 31460 72115 10205 20175 30110 40117 70222 82601 333 10272 56000 59015 82714 85073
AAXX 19004 84782 31562 62009 10190 20148 39634 40141 70221 865// 333 10262 569// 59008 86633
AAXX 19004 84752 32760 52709 10133 20076 37534 70222 82501 333 10199 56090 59010 82650 83073
AAXX 19004 84735 31660 8//// 10111 20052 36431 70222 84120 333 10212 56990 58013 84840 88560
BBXX 51202 19001 99214 71577 46/// ///// 1//// 92339 22200 00246 10904 20904 336// 41302 70022
AAXX 19004 48300 31/08 90000 10168 20161 39846 40168 51009 74742 333 20150 58000
AAXX 19004 48327 32960 20000 10163 20145 39810 40178 52009 80005 333 20159 59007
AAXX 19004 48331 NIL
AAXX 19004 48353 31920 20000 10143 20128 39875 40176 52010 71000 80005 333 20140 59013
AAXX 19004 48356 31930 10000 10142 20133 39972 40177 53009 71000 80001 333 20142 59015
AAXX 19004 48375 NIL
AAXX 19004 48378 31556 30000 10181 20166 30097 40152 52009 71000 81105 333 20176 59007
AAXX 19004 48381 31959 13605 10159 20136 39945 40170 52012 71000 80005 333 20149 59012
AAXX 19004 48407 31958 40305 10180 20149 30001 40147 52014 71011 80001 333 20171 59010
AAXX 19004 48431 NIL
AAXX 19004 48456 NIL
AAXX 19004 48480 31958 13512 10210 20156 30119 40123 52015 71000 80001 333 20210 59003
AAXX 19004 48500 31956 33505 10235 20184 30112 40119 52013 71011 80005 333 20230 59006
AAXX 19004 48551 31556 63302 10230 20215 30096 40104 52007 71021 83506 333 20228 59001
AAXX 19004 48565 31558 60705 10250 20212 30082 40092 52004 71022 81146 333 20239 58000
AAXX 19004 48569 11557 70000 10240 20220 30064 40105 52012 60184 71022 82846 333 20239 58004 70180
AAXX 19004 48583 11458 80103 10265 20231 30094 40100 52005 60394 71022 8582/ 333 20238 58004 70392
AAXX 19004 48310 31910 20000 10132 20126 39715 40191 52013 71010 80005 333 20129 58006
AAXX 19004 48325 NIL
AAXX 19004 48329 31930 20000 10145 20140 39828 40181 52019 71000 80001 333 20143 58011
AAXX 19004 48352 31956 00000 10153 20129 39971 40180 52012 71000 333 20149 59015
AAXX 19004 48357 31957 10000 10144 20131 39998 40174 52011 71000 80001 333 20137 59013
AAXX 19004 48380 31658 20000 10190 20174 30062 40158 52012 71000 82100 333 20185 59009
AAXX 19004 48383 31930 00605 10175 20140 30000 40165 52004 71000 333 20169 59013
AAXX 19004 48403 31956 50502 10189 20144 39945 40161 52013 71011 81046 333 20187 59007
AAXX 19004 48405 32960 30000 10161 20142 39992 40161 52013 80005 333 20159 59016
AAXX 19004 48420 31956 60606 10215 20162 30129 40134 52016 71021 81046 333 20213 59008
AAXX 19004 48421 31950 20000 10170 20161 30028 40146 51003 71000 80005 333 20165 59011
AAXX 19004 48425 NIL
AAXX 19004 48426 31957 60610 10216 20144 30134 40147 52014 70520 80006 333 20214 59012
AAXX 19004 48429 32560 50405 10219 20148 30129 40136 52015 81105 333 20219 59003
AAXX 19004 48430 31959 20812 10218 20145 30120 40127 51006 70500 80002 333 20204 59013
AAXX 19004 48450 31958 00000 10212 20159 30110 40144 52014 71000 333 20179 59010
AAXX 19004 48459 32960 20403 10212 20168 30128 40131 52007 80001 333 20210 59007
AAXX 19004 48465 31958 43509 10211 20177 30129 40134 52016 71011 80005 333 20203 59003
AAXX 19004 48550 11558 50205 10266 20212 30096 40103 52010 69964 71011 82245 333 20246 58003 70006
AAXX 19004 48552 31458 70000 10242 20224 30099 40105 52008 71022 85806 333 20228 58002
AAXX 19004 48566 12560 50000 10237 20216 30101 40110 52029 60014 82145 333 20230 58001 70010
AAXX 19004 48568 01460 51003 10264 20224 30091 40098 52008 60274 70161 82836 333 20244 59002 60037 70265
AAXX 19004 48302 31958 21203 10107 20093 38501 40171 71000 80005 333 20105 58007
AAXX 19004 48304 31956 20000 10125 20119 39710 40191 52012 71000 82040 333 20122 58000
AAXX 19004 48334 31930 30000 10140 20136 39800 40177 52006 71000 80005 333 20135 59003
AAXX 19004 48360 31959 00000 10151 20133 39900 40171 52013 71000 333 20146 59011
AAXX 19004 48372 31956 20000 10188 20171 30097 40156 52005 71000 80005 333 20178 59005
AAXX 19004 48373 NIL
AAXX 19004 48386 31920 20000 10184 20181 30102 40147 52006 71000 81035 333 20173 59010
AAXX 19004 48387 31556 10904 10150 20132 39185 40165 52012 71000 81501 333 20127 59004
AAXX 19004 48408 32960 63602 10175 20153 39992 40146 52011 80006 333 20160 59011
AAXX 19004 48415 31958 50620 10210 20145 30135 40147 52018 71011 81046 333 20200 58001
AAXX 19004 48433 31950 20102 10162 20144 39989 40161 52010 71000 80005 333 20158 59010
AAXX 19004 48437 31958 60000 10160 20142 39949 40167 52012 71020 80006 333 20148 59002
AAXX 19004 48440 31957 00000 10191 20166 30087 40138 52013 71000 333 20186 59008
AAXX 19004 48451 32960 23602 10211 20167 30133 40145 52017 80001 333 20189 59016
AAXX 19004 48454 32960 60703 10232 20172 30124 40131 82041 333 20230 59008
AAXX 19004 48457 31957 60314 10230 20163 30112 40130 71022 80006 333 20228 59009
AAXX 19004 48463 31950 60905 10214 20157 30046 40141 71022 81046 333 20210 59008
AAXX 19004 48464 NIL
AAXX 19004 48479 31957 60404 10210 20160 30073 40126 52013 71022 80007 333 20204 59002
AAXX 19004 48520 31959 40000 10233 20197 30097 40113 52001 71011 80005 333 20205 59003
AAXX 19004 48554 31458 70000 10243 20236 30098 40102 52009 71022 84336 333 20239 58005
AAXX 19004 48563 32560 30508 10244 20214 30057 40093 52009 81142 333 20214 58000
AAXX 19004 48571 12560 50000 10246 20234 30085 40096 52011 60124 82236 333 20235 58002 70120
AAXX 19004 48307 31956 00000 10127 20117 39799 40197 52014 71000 333 20125 58001
AAXX 19004 48324 32960 20000 10148 20143 39939 40167 52013 80005 333 20145 59003
AAXX 19004 48333 31920 00000 10125 20117 39870 40187 52014 71000 333 20123 58000
AAXX 19004 48350 NIL
AAXX 19004 48355 31950 00000 10130 20121 39947 40177 50014 71000 333 20123 59011
AAXX 19004 48358 31920 30000 10125 20115 39993 40178 57003 71010 80005 333 20118 59014
AAXX 19004 48384 31958 50000 10156 20145 39973 40172 52013 71011 80006 333 20151 59011
AAXX 19004 48401 31958 30506 10215 20123 30045 40154 52007 70511 80005 333 20208 59017
AAXX 19004 48404 NIL
AAXX 19004 48409 31958 20402 10176 20152 39999 40151 52008 71000 80001 333 20170 59012
AAXX 19004 48419 31559 80404 10215 20156 30125 40134 51005 71022 84545 333 20210 59007
AAXX 19004 48427 31956 40206 10203 20158 30136 40144 52013 71000 80002 333 20200 59019
AAXX 19004 48435 31557 81013 10177 20133 39708 40158 53013 71010 8457/ 333 20170 59011
AAXX 19004 48453 32960 60503 10220 20171 30129 40132 52014 80006 333 20215 59005
AAXX 19004 48458 32960 70000 10190 20160 30070 40152 52013 80001 333 20189 59009
AAXX 19004 48474 31958 70000 10200 20170 30008 40134 52014 71022 80006 333 20191 59005
AAXX 19004 48481 31958 61803 10200 20169 30096 40124 52016 71022 80006 333 20191 59003
AAXX 19004 48555 31450 50000 10228 20220 30090 40133 51012 71011 82105 333 20215 58004
AAXX 19004 48556 32560 60000 10232 20218 30083 40099 52002 81106 333 20224 58000
AAXX 19004 48557 31556 50000 10220 20212 30068 40103 52006 71011 82806 333 20215 58000
AAXX 19004 48560 01558 62302 10239 20230 30098 40103 51008 60084 71062 82846 333 20235 58003 69997 70079
AAXX 19004 48574 01560 70000 10246 20234 30067 40097 52011 69924 70362 84246 333 20232 59001 69906 70002
AAXX 19004 48581 NIL
AAXX 19001 15015 02998 01302 11022 21040 39591 42791 52010 60001 333 43001 55031 60007 91002 91103 92600
AAXX 19001 15020 02997 01101 10004 21051 30002 40206 52018 60001 333 55052 60007 91002 91102 92600
AAXX 19001 15090 02997 03500 11030 21041 30120 40217 51018 60001 333 55300 0//// 20004 3//// 55046 10088 20507 30161 60007 91001 91101 92600
AAXX 19001 15108 01/91 92718 11107 21107 38057 48489 52018 60001 74943 333 44007 55000 60007 91024 92720 92922 96037
AAXX 19001 15120 02997 02002 11048 21054 39702 40224 51010 60001 333 55300 10228 2//// 3//// 55053 10167 20555 30161 60007 91003 91103 92612 92611
AAXX 19001 15150 02997 03200 11052 21062 39997 40221 51017 60001 333 55058 60007 91001 91101
AAXX 19001 15170 02997 02800 11075 21076 39413 42798 51013 60001 333 55021 60007 91001 91103 92610
AAXX 19001 15200 02998 00601 11003 21013 30036 40186 55003 60001 333 55078 60007 91002 91104
AAXX 19001 15230 02997 02203 11030 21030 39904 40211 57002 60001 333 55300 10203 20004 3//// 55020 10167 20336 30219 60007 91004 91104 92600
AAXX 19001 15260 02997 00701 11057 21061 39662 40226 52003 60001 333 55066 60007 91002 91102
AAXX 19001 15280 02999 02004 11158 21266 37442 47957 51007 60001 333 49028 55066 60007
AAXX 19001 15292 02998 01502 11026 21029 39890 40197 57002 60001 333 55004 60007 91003 91103 92600
AAXX 19001 15310 01996 00500 11012 21016 30132 40222 52016 60001 71000 333 55300 10223 20004 3//// 55056 10074 20594 30573 60007 91001 91101 92611
AAXX 19001 15335 03/// /0000 11035 21035 30214 40222 53018 6///1 333 4//// 55/// 6///7 91000 91101
AAXX 19001 15346 02997 03502 11019 21044 39914 40216 53010 60001 333 55050 60007 91004 91104 92600
AAXX 19001 15350 02997 03402 11006 21049 30097 40222 51015 60001 333 55068 60007 91003 91104
AAXX 19001 15360 02998 02501 10046 20027 30203 40218 53017 60001 222// 0//// 2//// /065 60007 91002 91102 92408
AAXX 19001 15410 02597 40301 10005 21027 30098 40197 52006 60001 84500 333 55082 60007 91001 91101
AAXX 19001 15420 02997 00301 11055 21059 30095 40213 51013 60001 333 55300 0//// 20000 3//// 55068 0//// 20740 3//// 60007 91002 91102 92600
AAXX 19001 15450 02997 00502 11016 21036 39957 40202 51007 60001 333 55300 10225 20004 3//// 55067 10093 20707 30724 60007 91004 91105 92600
AAXX 19001 15460 02997 01601 11016 21022 30187 40212 51009 60001 333 55048 60007 91002 91102
AAXX 19001 15470 02997 00302 11026 21030 30072 40204 51005 60001 333 55085 60007 91003 91103 92600
AAXX 19001 15480 02997 03001 10017 21010 30203 40221 51014 60001 222// 0//// 2//// 333 55055 60007 91002 91102 92427
AAXX 19004 91408 11474 80905 10294 20257 30059 40097 52019 60014 70282 81271 333 20256 56999 58003 70010 555 91900
AAXX 19004 17600 15960 /0000 10107 20074 30211 40221 58004 60001
AAXX 19004 17601 12562 10617 10161 20122 30188 40220 56004 60001 81500 92350 333 81620 90710 91125
AAXX 19004 17607 NIL
AAXX 19004 17609 12560 20314 10155 20124 30230 40234 53001 60001 82800 333 81820
OOXX AAUNI 19004 99798 50833 56093 07671 46/// /2418 11094 21182 38954 49843 52010 90000
AAXX 19004 91408 11474 80905 10294 20257 30059 40097 52019 60014 70282 81271 333 20256 56999 58003 70010 555 91900
AAXX 19004 61415 NIL
AAXX 19004 61442 32957 30507 10223 21084 30158 40162 83080 333 0//00 59013 83363
AAXX 19001 11010 36083 /3102 11008 21022 39791 40181 52011 333 55///
AAXX 19001 11012 16/// /2404 10000 21032 39699 40181 50010 60001
AAXX 19001 11022 16/// /2503 11018 21045 39773 40173 52013 60001
AAXX 19001 11035 32982 32703 10013 21028 39912 40171 51009 82031 333 82360
AAXX 19001 11036 32984 62503 10000 21047 39945 40175 50010 333 55/// 82360 86466
AAXX 19001 11101 17/// /1001 10000 21001 39663 40205 53008 60051 7408/
AAXX 19001 11120 36061 /9901 11042 21048 39472 40207 52010 333 55018
AAXX 19001 11126 17/// /3402 11130 21135 37654 48445 51006 69901 740//
AAXX 19001 11130 17/// /2402 11029 21038 39587 40197 51009 69941 7//4/
AAXX 19001 11146 NIL
AAXX 19001 11150 16063 /1802 11023 21041 39632 40190 52007 69911 333 55///
AAXX 19001 11155 17/// /3006 11087 21111 38302 48438 50003 69901 7//8/ 333 91114
AAXX 19001 11157 32670 79902 11074 21078 39399 40209 52008 875// 333 81642 83650 87656
AAXX 19001 11172 NIL
AAXX 19001 11190 12670 83302 11003 21046 39934 40175 52009 60001 885//
AAXX 19001 11204 16/// /3202 11042 21085 39369 40191 50005 60001
AAXX 19001 11212 NIL
AAXX 19001 11231 36059 /3402 11038 21042 39592 40185 52006 333 55064
AAXX 19001 11240 36068 /9901 11026 21032 39726 40180 52009 333 55///
AAXX 19001 11244 16/// /0000 11031 21040 39837 40178 53007 60001
AAXX 19001 11389 16/// /2203 10009 21023 39841 40175 50008 60001
AAXX 19004 60645 36/// /0000 10147 20022
BBXX 61002 19004 99421 10047 46/// ///34 10091 2//// 40190 57002 22200 00141 10808 70038 555 1/043
AAXX 19001 76040 32960 03302 10171 20089 30166 40180 57011 92345 333 10177 20061 30/// 50270 59023 70000 98660
AAXX 19001 76123 06/// /3606 10104 20047 3//// 4//// 5//// 60001 7//// 8//// 92350 333 0//// 10128 21022 50149 56/// 57/// 5//// 60007 70000 8//// 8//// 8//// 8//// 9//// 9//// 9//// 44
AAXX 19001 76256 32580 22703 10190 20103 30171 40185 57008 82200 92340 333 10215 20100 30/// 50050 565// 59009 70000 82827
AAXX 19001 76305 32670 20403 10200 20117 30170 40178 57006 82400 92350 333 10237 20119 30/// 50201 56400 59003 70000 82633
AAXX 19001 76323 32570 41605 10208 20051 38257 40144 57022 84200 92340 333 10236 20075 30/// 50421 56500 59046 70000 84630
AAXX 19001 76342 31460 80401 10120 20103 39518 40243 57015 70222 886// 92350 333 10135 20085 31/// 50021 561// 59082 70000 88710
AAXX 19001 76373 32570 11801 10177 20021 38198 40142 57001 81200 92350 333 10235 21015 30/// 50331 56900 59042 70000 81825
AAXX 19001 76382 32680 70902 10236 20142 38880 40109 57024 87070 92354 333 10274 20104 30/// 50181 56050 59067 70000 84356 83456
AAXX 19001 76390 31662 63003 10183 20068 38236 40118 57010 70544 81205 92330 333 10212 20025 30/// 50171 56305 59048 70000 81833 85070
AAXX 19001 76402 31559 13304 10194 20099 30135 40192 57003 70544 81400 92345 333 10235 20098 30/// 50471 56700 58004 70000 81628
AAXX 19001 76423 32584 62204 10212 20036 38150 40111 57003 82454 92345 333 10260 20045 30/// 50380 56999 59020 70000 81820 81627
AAXX 19001 76458 32970 53208 10216 20167 30147 40152 56005 80008 92339 333 10264 20134 30/// 50351 56//9 59005 70000 83270 82071
AAXX 19001 76490 06/// /3502 10216 20139 39802 40188 55005 60001 7//// 8//// 92350 333 0//// 10273 20111 30/// 50289 54/// 56/// 57/// 59075 60007 70000 8//// 8//// 8//// 8//// 9//// 9/
AAXX 19001 76491 32960 33401 10230 20150 39816 40203 57010 80004 92345 333 10260 20118 30/// 50221 56009 70000 83077
AAXX 19001 76525 32680 62007 10147 20026 37480 40138 57002 83406 92340 333 10160 20055 30/// 50781 563/5 59021 70000 83649 83080
AAXX 19001 76538 06/// /0904 10156 20083 38174 40147 55004 60001 7//// 8//// 92350 333 0//// 10233 20103 30/// 4//// 50289 54/// 56/// 57/// 59037 60007 70000 8//// 8//// 8//// 9//// 9/
AAXX 19001 76543 32675 20902 10239 20169 30181 40213 55004 81509 92345 333 10280 20149 31/// 5//// 56505 58/// 70000 81650
AAXX 19001 76547 06/// /0702 10205 20172 30190 40202 55009 60001 7//// 8//// 92350 333 0//// 10252 20149 50269 56/// 57/// 59058 60007 70000 8//// 8//// 8//// 8//// 9//// 9//// 9//// 44
AAXX 19001 76548 32875 10703 10220 20175 30200 40210 57013 81300 92340 333 10252 20154 30/// 50191 56020 59057 70000 81357
AAXX 19001 76556 32970 62903 10224 20139 39124 40132 51001 80006 92330 333 10280 20131 30/// 50251 56006 59001 70000 86270
AAXX 19001 76571 32665 42101 10214 20023 38170 40130 57007 83404 92350 333 10240 20080 30/// 50251 56505 59015 70000 83636
AAXX 19001 76577 32570 22302 10220 20164 38044 40111 55013 82400 92340 333 10268 20095 30/// 50251 56500 59023 70000 82627
AAXX 19001 76578 06/// /2204 10211 20036 38043 40089 55004 60001 7//// 8//// 92350 333 0//// 10282 20088 30/// 4//// 50309 54/// 56/// 57/// 59023 60007 70000 8//// 8//// 8//// 9//// 9/
AAXX 19001 76581 32575 11305 10211 20153 39072 40167 57010 81200 92350 333 10255 20120 30/// 50330 56200 59051 70000 81830
AAXX 19001 76586 06/// /1601 10202 20182 30038 40194 55011 69921 7//// 8//// 92350 333 0//// 10267 20159 30/// 4//// 50189 54/// 56/// 57/// 59064 60007 70022 8//// 8//// 8//// 9//// 9/
AAXX 19001 76592 06/// /0411 10240 20191 30194 40194 53002 60091 7//// 8//// 92350 333 0//// 10280 20230 30/// 4//// 50659 54/// 56/// 57/// 59015 60097 70086 8//// 8//// 8//// 9//// 9/
AAXX 19001 76593 32460 40507 10238 20227 30192 40194 55001 81045 92350 333 10280 20214 30/// 50400 56019 59013 70000 81330 830// 91009 91505
AAXX 19001 76612 32562 50000 10220 20113 38474 40123 55007 85800 92350 333 10264 20088 30/// 50291 56500 59009 70000 83827 82635
AAXX 19001 76625 32960 00902 10205 20063 38145 40106 57005 92350 333 10243 20095 30/// 50470 58/// 70000
AAXX 19001 76641 06/// /0000 10216 20191 30196 40208 55009 60011 7//// 8//// 92350 333 0//// 10245 20175 30/// 4//// 50159 54/// 56/// 57/// 59053 60007 70026 8//// 8//// 8//// 8//// 9/
AAXX 19001 76645 06/// /0203 10241 20192 30184 40197 53008 60001 7//// 8//// 92350 333 0//// 10297 20208 30/// 4//// 50369 54/// 56/// 57/// 59014 60007 70000 8//// 8//// 8//// 9//// 9/
AAXX 19001 76647 32865 50502 10243 20182 30171 40201 53008 83031 92350 333 10297 20195 30/// 50311 560// 59006 70000 83358
AAXX 19001 76659 06/// /2105 10273 20168 3//// 4//// 5//// 60001 7//// 8//// 92350 333 0//// 10366 20163 30/// 4//// 50399 54/// 56/// 57/// 5//// 60007 70000 8//// 8//// 8//// 9//// 9/
AAXX 19001 76662 32670 11901 10248 20122 38458 40104 57005 81200 92345 333 10280 20064 30/// 50360 56200 59001 70000 81833
AAXX 19001 76665 31562 11601 10208 20121 38131 40124 52001 70100 81100 92355 333 10252 20072 30/// 50280 56100 57812 58007 70000 81814
AAXX 19001 76683 32675 11601 10182 20087 37834 40157 5//// 81200 92349 333 10222 20080 30/// 50301 56200 59022 70000 81839
AAXX 19001 76684 06/// /1805 10174 20041 37834 40133 53001 60001 7//// 8//// 92350 333 0//// 10240 20082 30/// 4//// 50419 54/// 56/// 57/// 59026 60007 70000 8//// 8//// 8//// 9//// 9/
AAXX 19001 76685 32970 01203 10172 20003 37873 40116 57001 80000 92345 333 10256 20054 30/// 50321 59011 70000
AAXX 19001 76687 31460 31401 10160 20132 38716 40211 55008 70110 83800 92344 333 10195 20118 30/// 50020 563// 59022 70071 83617
AAXX 19001 76692 31556 23604 10240 20197 30184 40203 57004 71044 82800 92345 333 10273 20204 30/// 50181 568// 59023 79999 81820 81622
AAXX 19001 76693 06/// /3604 10230 20195 30183 40202 55003 60001 7//// 8//// 92350 333 0//// 10274 20204 30/// 4//// 50269 56/// 57/// 59024 60007 70016 8//// 8//// 8//// 8//// 9//// 9/
AAXX 19001 76695 32958 03203 10246 20206 30170 40175 50000 92347 333 10280 20191 30/// 50240 59008 70000 91005 91532
AAXX 19001 76727 06/// /0000 10217 20047 38400 40094 55004 60001 7//// 8//// 92350 333 0//// 10274 20127 30/// 4//// 50219 54/// 56/// 57/// 59010 60007 70000 8//// 8//// 8//// 9//// 9/
AAXX 19001 76737 31480 61401 10170 20132 38812 40201 55006 70322 83670 92335 333 10189 20124 30/// 50091 56220 59017 70190 83717 83358 91105 91516
AAXX 19001 76738 06/// /1001 10167 20127 38814 40199 55003 60001 7//// 8//// 333 10199 20121 30/// 50159 56/// 57/// 59019 60007 70218 8//// 8//// 8//// 8//// 9//// 9//// 9//// 444 ////
AAXX 19001 76743 31556 20301 10257 20189 30174 40182 55002 70211 82100 92345 333 10286 20205 30/// 5/// 560// 59011 70000 82828
AAXX 19001 76750 32558 50603 10232 20200 30171 40181 52006 69951 75152 83230 92350 333 10280 20190 31/// 56110 59008 69957 70016 83820
AAXX 19001 76751 06/// /0402 10231 20201 30171 40182 53006 69941 7//// 8//// 92350 333 0//// 10280 20190 30/// 4//// 50179 54/// 56/// 57/// 59008 69947 70016 8//// 8//// 8//// 9//// 9/
AAXX 19001 76762 32904 00000 10246 20200 38751 40094 56011 92335 333 10310 20156 30/// 50351 59008 70000
AAXX 19001 76772 06/// /0904 10195 20052 38438 40141 55001 60001 7//// 8//// 92350 333 0//// 10236 20088 30/// 4//// 5///9 56/// 57/// 59014 60007 70000 8//// 8//// 8//// 9//// 9//// 9/
AAXX 19001 76773 32570 10902 10190 20053 38429 40109 57009 81100 92346 333 10242 20081 30/// 50571 56200 59016 70000 81820
AAXX 19001 76775 31970 02902 10213 20057 38532 40141 57001 70100 92345 333 10260 20095 30/// 50391 59009 70000
AAXX 19001 76776 06/// /3401 10194 20059 38517 40136 53002 60001 7//// 8//// 92350 333 0//// 10266 20088 30/// 4//// 50359 56/// 57/// 59015 60007 70000 8//// 8//// 8//// 9//// 9//// 9/
AAXX 19001 76805 32870 12502 10280 20244 30111 40116 55006 81030 92350 333 10317 20220 30/// 50481 56/7/ 58001 70000 81357
AAXX 19001 76806 06/// /2504 10274 20241 30112 40116 55003 60001 7//// 8//// 92350 333 10305 20219 30/// 50199 56/// 57/// 58003 60007 70000 8//// 8//// 8//// 8//// 9//// 9//// 9//// 55
AAXX 19001 76833 32970 03605 10264 20169 30133 40135 52008 92345 333 10314 20250 30/// 50121 58000 70000 92012
AAXX 19001 76843 32965 03604 10226 20147 39506 40144 56001 92331 333 10264 20176 30/// 50471 59001 70000
AAXX 19001 76845 32460 40701 10124 20101 37963 40187 53004 84600 92345 333 10158 20090 30/// 50171 56200 59014 79999 84710
AAXX 19001 76848 32470 30501 10141 20109 38402 40115 52008 83500 92350 333 10192 20130 30/// 50251 56100 59005 79999 83613
AAXX 19001 76855 32580 22401 10290 20235 30061 40109 50002 81230 92340 333 10334 20218 30/// 50450 56990 58013 70000 81820 92000
AAXX 19001 76902 06/// /2302 10271 20222 39991 40128 53013 60001 7//// 8//// 92350 333 0//// 10332 20226 30/// 4//// 50379 54/// 56/// 57/// 58004 60007 70000 8//// 8//// 8//// 8//// 9/
AAXX 19001 76903 31670 62601 10280 20222 39991 40125 52010 70122 82580 92346 333 10330 20230 30/// 50561 58003 70000 81833 81650 84358
AAXX 19001 76243 11360 80902 10120 20110 39917 40216 57013 69931 75052 887// 92330 333 10134 20090 31/// 50021 563// 59084 70003 88710
AAXX 19001 76311 32580 80000 10180 20131 39881 40161 57010 88404 92345 333 10226 20098 30/// 50060 56505 59024 70000 84625 84270
AAXX 19001 76405 32680 13302 10220 20150 30157 40178 55016 81200 92350 333 10238 20160 30/// 50290 56400 58020 70000 81640
AAXX 19001 76412 31766 62202 10200 20135 30147 40192 57005 70544 86050 92340 333 10250 20150 30/// 50390 56050 59001 86356
AAXX 19001 76640 11358 31401 10220 20202 30209 40221 57018 60021 70200 832// 92340 333 10236 20162 31/// 50121 562// 59051 70025 83807
AAXX 19001 76741 31465 53204 10233 20206 30134 40153 57022 70544 84620 92335 333 10277 20204 30/// 50341 561// 59017 70032 82712 82813
AAXX 19001 76040 32960 03302 10171 20089 30166 40180 57011 92345 33310177 20061 30/// 50270 59023 70000 98660
AAXX 19001 76123 06/// /3606 10104 20047 3//// 4//// 5//// 60001 7////8//// 92350 333 0//// 10128 21022 50149 56/// 57/// 5////60007 70000 8//// 8//// 8//// 8//// 9//// 9//// 9//// 44
AAXX 19001 76256 32580 22703 10190 20103 30171 40185 57008 82200 92340333 10215 20100 30/// 50050 565// 59009 70000 82827
AAXX 19001 76305 32670 20403 10200 20117 30170 40178 57006 82400 92350333 10237 20119 30/// 50201 56400 59003 70000 82633
AAXX 19001 76323 32570 41605 10208 20051 38257 40144 57022 84200 92340333 10236 20075 30/// 50421 56500 59046 70000 84630
AAXX 19001 76342 31460 80401 10120 20103 39518 40243 57015 70222 886//92350 333 10135 20085 31/// 50021 561// 59082 70000 88710
AAXX 19001 76373 32570 11801 10177 20021 38198 40142 57001 81200 92350333 10235 21015 30/// 50331 56900 59042 70000 81825
AAXX 19001 76382 32680 70902 10236 20142 38880 40109 57024 87070 92354333 10274 20104 30/// 50181 56050 59067 70000 84356 83456
AAXX 19001 76390 31662 63003 10183 20068 38236 40118 57010 70544 8120592330 333 10212 20025 30/// 50171 56305 59048 70000 8183385070
AAXX 19001 76402 31559 13304 10194 20099 30135 40192 57003 70544 8140092345 333 10235 20098 30/// 50471 56700 58004 70000 81628
AAXX 19001 76423 32584 62204 10212 20036 38150 40111 57003 82454 92345333 10260 20045 30/// 50380 56999 59020 70000 81820 81627
AAXX 19001 76458 32970 53208 10216 20167 30147 40152 56005 80008 92339333 10264 20134 30/// 50351 56//9 59005 70000 83270 82071
AAXX 19001 76490 06/// /3502 10216 20139 39802 40188 55005 60001 7////8//// 92350 333 0//// 10273 20111 30/// 50289 54/// 56///57/// 59075 60007 70000 8//// 8//// 8//// 8//// 9//// 9/
AAXX 19001 76491 32960 33401 10230 20150 39816 40203 57010 80004 92345333 10260 20118 30/// 50221 56009 70000 83077
AAXX 19001 76525 32680 62007 10147 20026 37480 40138 57002 83406 92340333 10160 20055 30/// 50781 563/5 59021 70000 83649 83080
AAXX 19001 76538 06/// /0904 10156 20083 38174 40147 55004 60001 7////8//// 92350 333 0//// 10233 20103 30/// 4//// 50289 54///56/// 57/// 59037 60007 70000 8//// 8//// 8//// 9//// 9/
AAXX 19001 76543 32675 20902 10239 20169 30181 40213 55004 81509 92345333 10280 20149 31/// 5//// 56505 58/// 70000 81650
AAXX 19001 76547 06/// /0702 10205 20172 30190 40202 55009 60001 7////8//// 92350 333 0//// 10252 20149 50269 56/// 57/// 5905860007 70000 8//// 8//// 8//// 8//// 9//// 9//// 9//// 44
AAXX 19001 76548 32875 10703 10220 20175 30200 40210 57013 81300 92340333 10252 20154 30/// 50191 56020 59057 70000 81357
AAXX 19001 76556 32970 62903 10224 20139 39124 40132 51001 80006 92330333 10280 20131 30/// 50251 56006 59001 70000 86270
AAXX 19001 76571 32665 42101 10214 20023 38170 40130 57007 83404 92350333 10240 20080 30/// 50251 56505 59015 70000 83636
AAXX 19001 76577 32570 22302 10220 20164 38044 40111 55013 82400 92340333 10268 20095 30/// 50251 56500 59023 70000 82627
AAXX 19001 76578 06/// /2204 10211 20036 38043 40089 55004 60001 7////8//// 92350 333 0//// 10282 20088 30/// 4//// 50309 54///56/// 57/// 59023 60007 70000 8//// 8//// 8//// 9//// 9/
AAXX 19001 76581 32575 11305 10211 20153 39072 40167 57010 81200 92350333 10255 20120 30/// 50330 56200 59051 70000 81830
AAXX 19001 76586 06/// /1601 10202 20182 30038 40194 55011 69921 7////8//// 92350 333 0//// 10267 20159 30/// 4//// 50189 54///56/// 57/// 59064 60007 70022 8//// 8//// 8//// 9//// 9/
AAXX 19001 76592 06/// /0411 10240 20191 30194 40194 53002 60091 7////8//// 92350 333 0//// 10280 20230 30/// 4//// 50659 54///56/// 57/// 59015 60097 70086 8//// 8//// 8//// 9//// 9/
AAXX 19001 76593 32460 40507 10238 20227 30192 40194 55001 81045 92350333 10280 20214 30/// 50400 56019 59013 70000 81330 830//91009 91505
AAXX 19001 76612 32562 50000 10220 20113 38474 40123 55007 85800 92350333 10264 20088 30/// 50291 56500 59009 70000 83827 82635
AAXX 19001 76625 32960 00902 10205 20063 38145 40106 57005 92350 33310243 20095 30/// 50470 58/// 70000
AAXX 19001 76641 06/// /0000 10216 20191 30196 40208 55009 60011 7////8//// 92350 333 0//// 10245 20175 30/// 4//// 50159 54///56/// 57/// 59053 60007 70026 8//// 8//// 8//// 8//// 9/
AAXX 19001 76645 06/// /0203 10241 20192 30184 40197 53008 60001 7////8//// 92350 333 0//// 10297 20208 30/// 4//// 50369 54///56/// 57/// 59014 60007 70000 8//// 8//// 8//// 9//// 9/
AAXX 19001 76647 32865 50502 10243 20182 30171 40201 53008 83031 92350333 10297 20195 30/// 50311 560// 59006 70000 83358
AAXX 19001 76659 06/// /2105 10273 20168 3//// 4//// 5//// 60001 7////8//// 92350 333 0//// 10366 20163 30/// 4//// 50399 54///56/// 57/// 5//// 60007 70000 8//// 8//// 8//// 9//// 9/
AAXX 19001 76662 32670 11901 10248 20122 38458 40104 57005 81200 92345333 10280 20064 30/// 50360 56200 59001 70000 81833
AAXX 19001 76665 31562 11601 10208 20121 38131 40124 52001 70100 8110092355 333 10252 20072 30/// 50280 56100 57812 58007 7000081814
AAXX 19001 76683 32675 11601 10182 20087 37834 40157 5//// 81200 92349333 10222 20080 30/// 50301 56200 59022 70000 81839
AAXX 19001 76684 06/// /1805 10174 20041 37834 40133 53001 60001 7////8//// 92350 333 0//// 10240 20082 30/// 4//// 50419 54///56/// 57/// 59026 60007 70000 8//// 8//// 8//// 9//// 9/
AAXX 19001 76685 32970 01203 10172 20003 37873 40116 57001 80000 92345333 10256 20054 30/// 50321 59011 70000
AAXX 19001 76687 31460 31401 10160 20132 38716 40211 55008 70110 8380092344 333 10195 20118 30/// 50020 563// 59022 70071 83617
AAXX 19001 76692 31556 23604 10240 20197 30184 40203 57004 71044 8280092345 333 10273 20204 30/// 50181 568// 59023 79999 8182081622
AAXX 19001 76693 06/// /3604 10230 20195 30183 40202 55003 60001 7////8//// 92350 333 0//// 10274 20204 30/// 4//// 50269 56///57/// 59024 60007 70016 8//// 8//// 8//// 8//// 9//// 9/
AAXX 19001 76695 32958 03203 10246 20206 30170 40175 50000 92347 33310280 20191 30/// 50240 59008 70000 91005 91532
AAXX 19001 76727 06/// /0000 10217 20047 38400 40094 55004 60001 7////8//// 92350 333 0//// 10274 20127 30/// 4//// 50219 54///56/// 57/// 59010 60007 70000 8//// 8//// 8//// 9//// 9/
AAXX 19001 76737 31480 61401 10170 20132 38812 40201 55006 70322 8367092335 333 10189 20124 30/// 50091 56220 59017 70190 8371783358 91105 91516
AAXX 19001 76738 06/// /1001 10167 20127 38814 40199 55003 60001 7////8//// 333 10199 20121 30/// 50159 56/// 57/// 59019 6000770218 8//// 8//// 8//// 8//// 9//// 9//// 9//// 444 ////
AAXX 19001 76743 31556 20301 10257 20189 30174 40182 55002 70211 8210092345 333 10286 20205 30/// 5/// 560// 59011 70000 82828
AAXX 19001 76750 32558 50603 10232 20200 30171 40181 52006 69951 7515283230 92350 333 10280 20190 31/// 56110 59008 69957 7001683820
AAXX 19001 76751 06/// /0402 10231 20201 30171 40182 53006 69941 7////8//// 92350 333 0//// 10280 20190 30/// 4//// 50179 54///56/// 57/// 59008 69947 70016 8//// 8//// 8//// 9//// 9/
AAXX 19001 76762 32904 00000 10246 20200 38751 40094 56011 92335 33310310 20156 30/// 50351 59008 70000
AAXX 19001 76772 06/// /0904 10195 20052 38438 40141 55001 60001 7////8//// 92350 333 0//// 10236 20088 30/// 4//// 5///9 56///57/// 59014 60007 70000 8//// 8//// 8//// 9//// 9//// 9/
AAXX 19001 76773 32570 10902 10190 20053 38429 40109 57009 81100 92346333 10242 20081 30/// 50571 56200 59016 70000 81820
AAXX 19001 76775 31970 02902 10213 20057 38532 40141 57001 70100 92345333 10260 20095 30/// 50391 59009 70000
AAXX 19001 76776 06/// /3401 10194 20059 38517 40136 53002 60001 7////8//// 92350 333 0//// 10266 20088 30/// 4//// 50359 56///57/// 59015 60007 70000 8//// 8//// 8//// 9//// 9//// 9/
AAXX 19001 76805 32870 12502 10280 20244 30111 40116 55006 81030 92350333 10317 20220 30/// 50481 56/7/ 58001 70000 81357
AAXX 19001 76806 06/// /2504 10274 20241 30112 40116 55003 60001 7////8//// 92350 333 10305 20219 30/// 50199 56/// 57/// 5800360007 70000 8//// 8//// 8//// 8//// 9//// 9//// 9//// 55
AAXX 19001 76833 32970 03605 10264 20169 30133 40135 52008 92345 33310314 20250 30/// 50121 58000 70000 92012
AAXX 19001 76843 32965 03604 10226 20147 39506 40144 56001 92331 33310264 20176 30/// 50471 59001 70000
AAXX 19001 76845 32460 40701 10124 20101 37963 40187 53004 84600 92345333 10158 20090 30/// 50171 56200 59014 79999 84710
AAXX 19001 76848 32470 30501 10141 20109 38402 40115 52008 83500 92350333 10192 20130 30/// 50251 56100 59005 79999 83613
AAXX 19001 76855 32580 22401 10290 20235 30061 40109 50002 81230 92340333 10334 20218 30/// 50450 56990 58013 70000 81820 92000
AAXX 19001 76902 06/// /2302 10271 20222 39991 40128 53013 60001 7////8//// 92350 333 0//// 10332 20226 30/// 4//// 50379 54///56/// 57/// 58004 60007 70000 8//// 8//// 8//// 8//// 9/
AAXX 19001 76903 31670 62601 10280 20222 39991 40125 52010 70122 8258092346 333 10330 20230 30/// 50561 58003 70000 81833 8165084358
AAXX 19001 76243 11360 80902 10120 20110 39917 40216 57013 69931 75052887// 92330 333 10134 20090 31/// 50021 563// 59084 7000388710
AAXX 19001 76311 32580 80000 10180 20131 39881 40161 57010 88404 92345333 10226 20098 30/// 50060 56505 59024 70000 84625 84270
AAXX 19001 76405 32680 13302 10220 20150 30157 40178 55016 81200 92350333 10238 20160 30/// 50290 56400 58020 70000 81640
AAXX 19001 76412 31766 62202 10200 20135 30147 40192 57005 70544 8605092340 333 10250 20150 30/// 50390 56050 59001 86356
AAXX 19001 76640 11358 31401 10220 20202 30209 40221 57018 60021 70200832// 92340 333 10236 20162 31/// 50121 562// 59051 7002583807
AAXX 19001 76741 31465 53204 10233 20206 30134 40153 57022 70544 8462092335 333 10277 20204 30/// 50341 561// 59017 70032 8271282813
AAXX 19001 01062 16/// /2308 10008 21033 30058 40071 52009 6//// 333 91111
AAXX 19004 78947 12581 11306 10249 20195 30143 40146 60001 70111 81401 333 00306 10288 20206 58005 81826
AAXX 19004 78947 12581 11306 10249 20195 30143 40146 60001 70111 81401 333 00306 10288 20206 58005 81826
BBXX UFTA 19001 99849 71238 41596 72301 11292 21324 40027 58002 77172 87500 333 21357
AAXX 19004 89514 32697 81312 11034 49885 52006 88/2/ 333 11003 21035 88447 555 6047
AAXX 19004 89514 32697 81312 11034 49885 52006 88/2/ 333 11003 21035 88447 555 6047
BBXX 44100 19001 99363 70756 46/// ///// 1//// 92352 22200 00125 10703 20703 308// 41101 70016
BBXX 41110 19001 99341 70777 46/// ///// 1//// 92351 22200 00140 11301 21001 311// 41301 70005
BBXX 42099 19001 99273 70842 46/// ///// 1//// 92357 22200 00232 10603 20603 70013
BBXX 41113 19001 99284 70805 46/// ///// 1//// 92351 22200 00215 11101 21001 310// 41101 70007
BBXX 41112 19001 99307 70813 46/// ///// 1//// 92351 22200 00159 10402 20402 310// 41301 70009
AAXX 19004 91930 16/// ///// 10315 20228 60014 333 20223
AAXX 19004 91943 36/// /1008 10294 20211 30114 40116 56019 333 58000
AAXX 19001 89061 379// 01502 10023 21014 39857 49863 52001 73011 333 10053 20021 91004 91109
AAXX 19004 03301 16480 /2807 10055 20052 30104 40179 57007 60021 92350 333 81/17 86/37
AAXX 19004 03305 17559 /2508 10040 20023 39916 40183 58006 60031 758// 92350 333 86/22 85/29
AAXX 19004 03313 16479 /2607 10048 20035 30079 40174 56010 60031 92350 333 81/18 87/35
AAXX 19004 03316 17581 /2608 10054 20037 30155 40167 58008 69901 723// 92350 333 85/22 85/43
AAXX 19004 03318 16/// /2804 10048 20032 60001 92350
AAXX 19004 03321 16578 /3004 10040 20028 30162 40174 58005 69921 92350 333 55/// 20276 87/29
AAXX 19004 03330 17462 /3301 10003 21007 39807 40178 58005 69901 723// 92350 333 4/004 84/11 86/28
AAXX 19004 03344 15572 /2707 10010 21007 39836 40162 57006 60001 92350 333 86/24
AAXX 19004 03346 16/// /2710 10010 21004 60001 92350
AAXX 19004 03348 17464 /1804 10004 21001 30060 40171 57009 69901 725// 92350 333 55/// 20286 82/15 83/36
AAXX 19004 03355 15974 /2206 10004 21017 30149 40161 58005 60001 92350 333 55/// 20283 88/58
AAXX 19004 03373 16966 /2105 11009 21036 30093 40165 58004 60001 92350 333 85/59
AAXX 19004 03379 16979 /2609 11004 21026 30092 40172 58003 60001 92350 333 88/59
AAXX 19004 03382 15780 /2002 11016 21040 30147 40156 58004 60001 92350 333 55/// 20295 82/56
AAXX 19004 03385 46971 /2509 11010 21032 30150 40160 58002 92350 333 85/60
AAXX 19004 03391 12980 72703 11005 21043 30160 40168 58002 60001 8703/ 92350 333 87360 92600
AAXX 19004 03392 16967 /2508 11025 21035 30162 40166 58001 60001 92350 333 84/60
AAXX 19004 03405 16481 /2914 10064 20040 30073 40190 57008 69941 92350 333 55/// 20243 82/16 84/66
AAXX 19004 03409 16/// /2001 10018 20011 69941 92350 333 55/// 2////
AAXX 19004 03410 16576 /2708 10022 20014 39736 40180 56009 60011 92350 333 55/// 20288 81/22
AAXX 19004 03469 15978 /2407 11022 21030 30168 40171 50001 60001 92350 333 55/// 20237 81/61
AAXX 19004 03488 15980 /2511 10000 21020 30141 40167 52007 60001 92350 333 8//99
AAXX 19004 03503 17470 /3301 10030 20028 30110 40189 58007 60031 723// 92350 333 87/16
AAXX 19004 03507 17361 /1803 10020 20020 39816 40197 57007 69961 722// 92350 333 87/06
AAXX 19004 03520 16774 /2403 10004 21001 30065 40190 57004 60001 92350 333 55/// 20319 87/56
AAXX 19004 03522 15684 /2903 10017 20017 30098 40193 56004 60001 92350 333 87/47
AAXX 19004 03529 15870 /2105 10012 20003 30147 40192 58003 60001 92350 333 87/57
AAXX 19004 03544 15561 /2003 11017 21020 30051 40187 50001 60001 92350 333 55/// 20210 81/28
AAXX 19004 03560 15963 /2105 11032 21041 30075 40184 50001 60001 92350 333 55/// 20239 8//99
AAXX 19004 03604 16683 /3108 10061 20036 30143 40198 58008 60001 92350 333 83/41
AAXX 19004 03605 16669 /2810 10067 20041 30189 40198 57007 60001 92350 333 87/43
AAXX 19004 03609 16/// /2809 10059 20037 30150 40204 58003 60001 92350
AAXX 19004 03628 15865 /2403 10018 20011 30121 40195 58002 60001 92350 333 55/// 20340 88/57
AAXX 19004 03647 16966 /2907 10003 21003 39926 40189 58001 60001 92350 333 55/// 20321 87/59
AAXX 19004 03658 16968 /1604 11032 21042 30122 40195 50003 60001 92350 333 81/60
AAXX 19004 03660 15477 /3003 10002 21005 39937 40193 51004 60001 92350 333 81/17
AAXX 19004 03672 16970 /2603 11029 21046 30150 40192 51004 60001 92350 333 8//99
AAXX 19004 03684 15972 /2905 11020 21036 30072 40183 51008 60001 92350 333 8//99
AAXX 19004 03693 16974 /2806 11009 21023 30182 40184 51009 60001 92350 333 8//99
AAXX 19004 03707 15584 /3006 10064 20039 30196 40203 58004 60001 92350 333 81/27 84/40 85/60
AAXX 19004 03710 165// /3106 10027 20024 39775 40205 58003 60001 92350 333 55/// 20345 81/25 86/57
AAXX 19004 03743 16972 /2604 10003 21003 30035 40202 51003 60001 92350 333 8//99
AAXX 19004 03749 16963 /2302 11002 21005 30087 40202 51004 60001 92350 333 8//99
AAXX 19004 03761 12975 12407 11002 21008 30049 40198 51005 60001 80001 92350 333 55/// 20319 81070 92601
AAXX 19004 03768 16956 /2202 11035 21043 30114 40198 51006 60001 92350 333 8//99
AAXX 19004 03769 17959 /2101 11035 21039 30110 40196 51007 60001 710// 92350 333 55/// 20201 8//99
AAXX 19004 03770 16/// ///// 10000 21009 60001 92350
AAXX 19004 03781 15971 /2604 11017 21020 39981 40196 51007 60001 92350 333 55/// 20272 81/74
AAXX 19004 03784 46/// /2609 10008 21014 30184 40188 52009 92350
AAXX 19004 03797 15981 /3111 10015 21022 30120 40182 51007 60001 92350 333 55/// 20196 8//99
AAXX 19004 03839 16/// ///// 11002 21002 60001 92350 333 55/// 20317
AAXX 19004 03857 15980 /3313 10061 20036 30139 40204 51003 60001 92350 333 82/61
AAXX 19004 03862 17950 /2901 11031 21035 30190 40203 50004 69901 720// 92350 333 55/// 20330 8//99
AAXX 19004 03866 16/// /3408 10045 20003 30174 40199 51003 60001 92350
AAXX 19004 03872 15969 /3105 10006 20002 30194 40199 51006 69901 92350 333 55/// 20361 8//99
AAXX 19004 03876 16/// /3302 11009 21018 30195 40197 52008 60001 92350
AAXX 19004 03895 41584 63311 10071 20020 40212 52006 70182 8383/ 333 83828 85363
AAXX 19004 68054 42960 01304 10154 20134 48544 58005
AAXX 19004 68240 42960 01305 10209 20146 48517 58001
AAXX 19004 03002 17464 /3315 10011 21005 30069 40088 58004 69961 785// 92350 333 81/14 87/27
AAXX 19004 03008 16/// /3008 10032 21057 30026 40097 57008 69921 92350
AAXX 19004 03010 46/// /3408 10047 21039 40113 58012
AAXX 19004 03014 46/// /3308 10005 21057 40103 58006 92350 333 8////
AAXX 19004 03031 15582 /1301 11022 21027 39803 40141 58009 69901 92350 333 55/// 20055 87/29 85/35
AAXX 19004 03034 15784 /1302 10016 21005 30114 40128 58011 60001 92350 333 83/50 84/62
AAXX 19004 03037 15882 /1805 10029 20016 30109 40131 58015 60001 92350 333 87/57
AAXX 19004 03039 46/// /2310 11017 21047 92350
AAXX 19004 03041 46/// /2607 11046 21048 92350
AAXX 19004 03044 17084 /0000 11074 21083 30025 40130 58010 69901 720// 92350 333 55/// 20024 82/01
AAXX 19004 03047 17/65 /0701 11022 21026 39838 40152 58007 69901 710// 92350 333 55/// 20061
AAXX 19004 03062 15981 /2305 11031 21042 30125 40130 57005 60001 92350 333 55/// 20089 8//99
AAXX 19004 03065 46/// /2505 11063 21070 92350 333 91015
AAXX 19004 03068 12680 32408 11014 21024 30118 40127 58003 60001 81501 92350 333 81645 83075
AAXX 19004 03072 46/// ///// 11051 21056 92350 333 91000
AAXX 19004 03080 15683 /1501 11054 21062 39957 40136 51001 69901 92350 333 84/31
AAXX 19004 03088 15984 /2909 10008 21024 39960 40128 57001 60001 92350 333 55/// 20183 8//99
AAXX 19004 03094 15569 /2718 10041 20020 30107 40112 58002 60011 92350 333 83/21 84/28
AAXX 19004 03105 17558 /1102 10027 20022 30127 40145 58014 69981 781// 92350 333 85/21 83/40
AAXX 19004 03132 17672 /2505 10029 20029 30141 40155 58010 60031 723// 92350 333 85/42
AAXX 19004 03144 15984 /2402 11004 21021 30099 40143 58004 60001 92350 333 55/// 20130 87/64
AAXX 19004 03148 46/// /2706 11014 21014 92350
AAXX 19004 03153 15483 /2905 10023 20017 30011 40152 57005 60001 92350 333 55/// 20268 82/19 87/72
AAXX 19004 03155 16980 /2407 10009 20009 39842 40147 58006 60001 92350 333 85/73
AAXX 19004 03158 15984 /2609 11009 21016 30000 40141 57004 60001 92350 333 55/// 20243 8//99
AAXX 19004 03210 16671 /3010 10048 20029 30004 40158 57005 60001 92350 333 81/31 85/42
AAXX 19004 03212 15482 /3001 10034 20022 30058 40159 57004 60001 92350 333 86/12 85/29
AAXX 19004 03214 15474 /2906 10046 20035 30140 40159 58006 69941 92350 333 84/14
AAXX 19004 03220 16961 ///// 11017 21019 30120 40156 58004 60001 92350 333 81/72
AAXX 19004 03224 15063 /2609 11013 21016 39799 40155 57003 60001 92350 333 81/01 85/10
AAXX 19004 03225 16577 /2405 10018 21006 39847 40160 57006 60001 92350 333 55/// 20281 87/22
AAXX 19004 03226 17484 /1401 10004 21008 39874 40158 57007 69901 723// 92350 333 86/11 84/19
AAXX 19004 03227 46/// /2922 11024 2//// 92350 333 90710 91128
AAXX 19004 03230 16583 /3103 11001 21011 39887 40151 57006 60001 92350 333 4/002 82/20
AAXX 19004 03238 15970 /2806 11006 21012 39968 40147 57002 69901 92350 333 4/002 8//99
AAXX 19004 03261 16969 /1807 11017 21048 30116 40159 57007 60001 92350 333 83/58
AAXX 19004 03265 15974 /1404 11056 21074 30127 40159 57007 60001 92350 333 81/58
AAXX 19004 03266 16980 /2406 10004 21045 30139 40157 58005 60001 92350 333 81/58
AAXX 19004 03275 15477 /2507 10010 21028 39952 40150 57003 60001 92350 333 87/18 83/50
AAXX 19004 03281 16/// /2405 11034 21052 60001 92350
AAXX 19004 03903 16962 /1603 10025 20023 30106 40165 56019 69941 92350 333 55/// 20167 88/60
AAXX 19004 03904 17656 /0503 10010 20004 30098 40160 57018 60001 710// 92350 333 82/35 86/59
AAXX 19004 03907 15976 /2208 10038 20021 30145 40152 58017 69901 92350 333 55/// 20138 84/63
AAXX 19004 03911 16078 /2807 10024 20024 39884 40163 58015 69941 92350 333 4/003 83/01 84/68
AAXX 19004 03915 16968 /1405 10020 20020 30074 40154 58015 60001 92350 333 83/66
AAXX 19004 03916 16980 /2204 10027 20022 39958 40152 58017 60031 92350 333 55/// 20122 83/67
AAXX 19004 03923 15982 /2706 10034 20020 39961 40161 58014 69901 92350 333 81/64 84/68
AAXX 19004 70026 NIL
AAXX 19004 70133 NIL
AAXX 19004 70174 NIL
AAXX 19004 70200 NIL
AAXX 19004 70219 NIL
AAXX 19004 70231 NIL
AAXX 19004 70261 NIL
AAXX 19004 70267 NIL
AAXX 19004 70271 NIL
AAXX 19004 70273 NIL
AAXX 19004 70308 NIL
AAXX 19004 70316 NIL
AAXX 19004 70326 NIL
AAXX 19004 70340 NIL
AAXX 19004 70350 NIL
AAXX 19004 70361 NIL
AAXX 19004 70381 NIL
AAXX 19004 70398 NIL
AAXX 19004 70414 NIL
BBXX PINX 19004 99261 70795 41998 00324 10220 2//// 40210 52020 70100 80000 22224 00260 2//// 3//// 4//// 5//// 6//// 8//// ICE /////
BBXX LAVW4 19004 99294 70429 41698 31428 00/// 10225 2019/ 40195 51005 70200 83/// 22253 00218 20504 313// 40706 5//// 6////
BBXX NWS0003 19004 99539 71665 43/// /0000 10025 21047 49862 5//// 7//// 8//// 222// 0//// 2//// 3//// 4//// 5//// 6//// 8//// ICE /////
BBXX KAOU 19004 99001 10805 43/// /3208 10276 20233 40074 5//// 7//// 8//// 222// 04289 2//// 3//// 4//// 5//// 6//// 8//// ICE /////
BBXX NWS0020 19004 99352 70119 43/// /0618 10155 20063 40242 5//// 7//// 8//// 222// 04194 2//// 3//// 4//// 5//// 6//// 8//// ICE /////
BBXX NWS0029 19004 99316 70555 43/// /2115 10213 20152 40124 5//// 7//// 8//// 222// 04235 2//// 3//// 4//// 5//// 6//// 8//// ICE /////
BBXX LAOW5 19004 99300 51661 41496 43419 10250 20222 40100 50040 70544 84726 22254 00220 20204 32930 40102 50102 6//// 80230 ICE /////
BBXX ONFW 19004 99352 11198 41196 32802 10040 21008 40320 54/// 71200 828// 22200 00100 20100 3//// 4//// 5//// 6//// 80020 ICE /////
BBXX PHET 19001 99146 70611 41/98 /0307 10255 20187 40140 54000 7//// 8//// 22271 00280 2//// 3//// 4//// 5////
BBXX WDF7020 19004 99466 70872 41/99 82038 1//// 2//// 40024 57003 70222 889// 22223 00039 2//02 3//// 4//// 5//// 6//// 8//// ICE /////
BBXX C6XP7 19003 99208 70740 41999 00823 1//// 2//// 40140 54/// 7//// 80000 22234 00270 20000 3//// 40000 50000 6//// 8//// ICE /////
BBXX WXJ63 19003 99611 71464 41/96 82105 10020 20004 49845 57/// 760// 8//// 222// 00046 2//// 3//// 4//// 5//// 6//// 8//// ICE /////
AAXX 19004 78526 NIL
AAXX 19004 78543 NIL
AAXX 19004 78255 12559 30405 10212 20184 30044 40193 52010 69952 82801 333 10258 81820
AAXX 19004 78317 NIL
AAXX 19004 78318 NIL
AAXX 19004 78325 NIL
AAXX 19004 78333 NIL
AAXX 19004 78338 NIL
AAXX 19004 78348 NIL
AAXX 19004 78349 NIL
AAXX 19004 78353 NIL
AAXX 19004 78360 NIL
AAXX 19004 78367 NIL
AAXX 19004 78369 NIL
BBXX 41038 19001 99341 70777 46/// /3605 10113 40278 53032 90000 22200 00140 333 91206
AAXX 19004 91165 NIL
AAXX 19004 91182 NIL
AAXX 19004 91190 NIL
AAXX 19004 91212 NIL
AAXX 19004 91217 NIL
AAXX 19004 91285 NIL
AAXX 19004 91317 11474 10912 10294 20272 30117 40121 5//// 60084 70282 81100 333 562// 70084 58012 81818 555 91900
AAXX 19004 91334 12474 70410 10299 20249 30076 40079 52002 60244 82171 333 20256 56199 59019 70239 555 91900
AAXX 19004 91348 11470 80504 10267 20246 30041 40093 58008 60324 78082 8722/ 333 20206 56199 59015 70323 555 91900
AAXX 19004 91356 NIL
AAXX 19004 91366 NIL
AAXX 19004 91369 NIL
AAXX 19004 91371 NIL
AAXX 19004 91376 11474 80612 10288 20247 30083 40086 58003 60024 70282 84878 333 20276 56119 58000 70018 555 91900 /
AAXX 19004 91376 11474 80612 10288 20247 30083 40086 58003 60024 70282 84878 333 20276 56119 58000 70018 555 91900
AAXX 19004 91376 11474 80612 10288 20247 30083 40086 58003 60024 70282 84878 333 20276 56119 58000 70018 555 91900
AAXX 19004 91408 11474 80905 10294 20257 30059 40097 52019 60014 70282 81271 333 20256 56999 58003 70010 555 91900
AAXX 19004 91413 11469 40911 10299 20252 30081 40107 52024 60044 70181 81101 333 20261 562/9 58019 70043 555 91900
AAXX 19004 91425 NIL
AAXX 19004 91434 NIL
AAXX 19004 91765 NIL
BBXX 46083 19001 99582 71380 46/// /1620 10043 20040 49984 58057 92350 22200 00063 10913 20708 300// 40910 70064 333 91225 555 11215 22231 32252 41628 62349 164201 164193 163210 161197 158201 158213 81623 92252
AAXX 19004 91222 NIL
AAXX 19004 91245 NIL
AAXX 19004 91323 NIL
AAXX 19004 91339 NIL
AAXX 19004 91343 NIL
AAXX 19004 91353 NIL
AAXX 19004 91442 NIL
AAXX 19001 26554 41562 72205 10022 21015 39863 40026 52020 70282 8553/ 333 91010 91111 555 11001
AAXX 19001 26666 42660 62104 10024 21029 39857 40072 52030 84530 333 91012 91114 555 11002
AAXX 19001 26850 41560 62204 10015 21005 39810 40084 52024 70272 86500 333 86626 91110 555 11000
AAXX 19001 26863 41459 62105 10013 21004 39859 40097 52034 71082 86500 333 86618 555 12000
AAXX 19001 26941 42560 22104 10004 21023 39860 40100 52024 82500 333 91111 555 11101
AAXX 19001 26951 42566 72107 10012 21014 39911 40112 52024 87500 333 91110 555 11000
AAXX 19001 33008 42962 22104 10017 21033 39935 40115 52019 82030 555 14100
AAXX 19001 33019 42960 51503 10002 21019 39955 40133 52023 80001 555 14101
AAXX 19001 33036 42968 02003 10013 21022 39921 40155 52028 555 11101
AAXX 19001 33041 42960 62003 10016 21006 39997 40155 52027 86030 555 11000
BBXX UCAD 19001 99630 10041 41/97 93138 10060 49997 52020 70222 88/// 22253 00090 20405
BBXX PDHW 19003 99467 70216 41397 82430 10140 20123 40195 57010 76066 8761/ 22263 00120 21006 80130
BBXX UCKD 19001 99583 10205 41/96 91012 10060 49849 52011 75355 89/// 22253 00060 20803
BBXX UCAC 19001 99668 10083 41/98 90511 10050 40000 54000 700// 89/// 22213 00100 20605 305// 40605
BBXX UBEF5 19001 99414 10290 41/96 90903 10080 40168 54000 76066 89/// 22250 00100 2////
BBXX UCJL 19001 99612 10042 41/98 93414 10049 40009 54000 70262 8//// 22282 00050 20806
BBXX DDSD2 19003 99437 70185 41/98 /2013 40290 54000 702// 8//// 22214 21506 328// 41608 5////
BBXX PBEN 19003 99364 10344 41/98 29904 10150 20097 40260 54000 7//22 821// 22253 20501 30000 80120
BBXX UCAB 19001 99711 10191 41/98 92004 10030 40037 54000 70211 8//// 22253 00060 20401
BBXX DCQR2 19003 99230 31540 41698 51020 10246 20144 40120 54000 70122 82279 22244 04260 20403 314// 40605 5//// 80185
BBXX VNVM 19004 99287 31538 41598 60411 10234 20160 40151 58003 70311 864// 22243 00250 20401 316// 40603 80189
AAXX 19001 33088 32597 32404 10007 21022 39965 40160 52020 83500
AAXX 19001 33177 32997 01503 10007 21022 39910 40152 52017
AAXX 19001 33261 32997 02103 10010 21007 30009 40195 52033
AAXX 19001 33275 32997 21803 11001 21019 39979 40208 52032 82030
AAXX 19001 33301 32997 32106 10006 21033 39885 40173 52019 83030
AAXX 19001 33325 32997 62102 10010 21019 39920 40193 52023 86030
AAXX 19001 33377 32997 02001 10013 21013 30016 40214 52029
AAXX 19001 33415 32997 02303 11016 21053 39786 40197 52020
AAXX 19001 33429 32997 02003 11021 21046 39768 40206 52021
AAXX 19001 33466 32965 01902 10006 21027 30022 40214 52027
AAXX 19001 33526 32960 00000 11057 21068 39846 40202 52024
AAXX 19001 33562 32997 01803 11012 21035 39837 40210 52021
AAXX 19001 33614 32962 02401 10011 21012 30111 40218 52029
AAXX 19001 33761 31996 01501 11006 21012 39991 40221 52019 71011
AAXX 19001 33902 31994 40000 10000 21006 30153 40221 52020 71000 80001
AAXX 19001 33983 /1497 83002 10078 20070 30173 40234 52020 70282 889// 333 85617 555 69931
AAXX 19001 34415 32997 00000 11011 21020 30136 40236 51028
AAXX 19001 34523 32597 80601 10066 20052 30156 40233 52022 885// 333 88623
AAXX 19001 34712 32597 83602 10052 20047 30146 40233 52018 885// 333 88624
BBXX 44022 19001 99409 70737 46/// ///03 11014 21127 40261 51013 90000 22200 00083 333 91204 555 11026 22026
BBXX 51003 19001 99193 71606 46/// /0608 10247 40148 58020 92350 22200 00258 10806 20604 3//// 40804 70029 333 91210 555 11087 22092 32316 40511 62349 058083 060085 057083 053083 051083 054080
BBXX 46042 19001 99368 71224 46/// /3304 10111 40205 57012 92350 22200 00128 11506 331// 41506 70030 333 91206 555 11037 22039 32331 43106 62349 323036 312036 323038 320036 325033 339034
BBXX 46053 19001 99342 71198 46/// /2811 10139 40173 56018 92350 22200 00146 10604 20603 327// 41402 70019 333 91213 555 11115 22123 32328 42813 62349 282107 282111 281108 279107 271100 273097
AAXX 19004 93004 16/// /1510 10174 20159 40116 52007 60014 333 20138 70014
AAXX 19004 93023 16/// /0814 10187 20134 40119 52003 60144 333 20144 70138
AAXX 19004 93069 16/// /1414 10178 20130 40120 52002 60004 333 20137 70000
AAXX 19004 93110 17698 /1405 10189 20119 40123 57007 60124 333 20128 70124
AAXX 19004 93186 17698 /1405 10197 20098 40126 57005 60154 333 20122 70152
AAXX 19004 93196 16/// /1523 10166 20116 40118 57003 60024 333 20120 70022
AAXX 19004 93245 16698 /1111 10152 20064 40132 57011 60004 333 20056 70000
AAXX 19004 93292 17898 /1809 10170 20106 40145 57003 60064 333 20114 70064
AAXX 19004 93309 17/98 /1411 10177 20072 40138 57004 60004 333 20092 70000
AAXX 19004 93334 16/// /1404 10123 20060 39193 57008 60004 333 20048 70000
AAXX 19004 93339 16/// /1306 10110 20038 39200 6///4
AAXX 19004 93373 17598 /1711 10154 20092 40160 57003 60004 333 20096 70000
AAXX 19004 93404 17798 /1613 10164 20049 40161 57010 60004 333 20088 70000
AAXX 19004 93420 17798 /1813 10159 20043 40168 57004 60004 333 20069 70000
AAXX 19004 93439 17698 /1617 10142 20051 40179 54000 60004 333 20111 70000
AAXX 19004 93498 16/// /1915 10111 20070 40168 57002 69984 333 20089 70008
AAXX 19004 93515 17497 /3409 10137 20128 40168 52001 60244 333 20122 70242
AAXX 19004 93527 16/// /0813 10158 20096 40169 57001 60004 333 20120 70000
AAXX 19004 93546 17898 /0109 10180 20107 40164 57003 60004 333 20095 70000
AAXX 19004 93597 16/// /1518 10123 20071 40178 57004 69924 333 20102 70002
AAXX 19004 93615 17997 /3307 10169 20128 40160 57002 60024 333 20118 70024
AAXX 19004 93678 16598 /2013 10125 20085 40188 57006 69924 333 20082 70002
AAXX 19004 93709 16/// /0210 10183 20157 40156 54000 60004 333 20127 70000
AAXX 19004 93773 17698 /1205 10152 20063 40190 57009 60004 333 20085 70000
AAXX 19004 93781 17698 /1809 10133 20062 40189 57007 60004 333 20086 70000
AAXX 19004 93800 NIL
AAXX 19004 93805 NIL
AAXX 19004 93831 17/98 /2605 10160 20049 40164 57023 60004 333 20071 70000
AAXX 19004 93845 17698 /1806 10156 20069 40192 57012 60004 333 20022 70000
AAXX 19004 93891 17/98 /2009 10153 20060 40184 57019 60004 333 20026 70000
AAXX 19004 93909 16/// /1707 10129 20076 40194 57006 60004 333 70000
AAXX 19004 93929 16/// /2012 10118 20075 40184 57004 60004 333 70000
AAXX 19004 93947 16/// /2317 10087 20072 40145 54000 60014 333 70012
AAXX 19004 93987 16/// /2311 10122 20062 40123 57006 60004 333 20071 70000
AAXX 19004 93994 NIL
AAXX 19004 65338 33956 52802 10255 20234 39920 40105 80002 333 0//00 58006 85076
AAXX 19001 26509 /1470 82307 10035 20006 39951 49960 52020 72582 888// 333 91013 91117 555 1/002 69951
AAXX 19001 26518 /1206 82306 11001 21001 39769 49974 52023 77176 8872/ 333 88504 91009 91111 555 1/000 4/007 60051
AAXX 19001 26524 /1496 82005 10009 20004 39836 49968 52024 78382 883// 333 88711 91012 91114 555 1/000 69932
AAXX 19001 26531 /1570 82106 10018 21001 39897 49973 52024 70262 885// 333 88624 91015 91115 555 1/001 69941
AAXX 19001 26629 32697 82208 10017 21017 39920 40016 52023 885// 333 8650 91012 91114 555 1/000
AAXX 19001 26633 /1570 72206 10021 21022 39879 40009 53025 70165 87500 333 87626 91013 91114 555 1/001 69901
AAXX 19001 26730 /1570 72108 10019 21018 39846 40039 52024 70262 87500 333 91012 91113 555 1/000 69901
AAXX 19003 61701 32960 00000 10205 20181 40125 80000 333 59004
AAXX 19003 61705 NIL
AAXX 19003 61707 NIL
AAXX 19003 61711 NIL
AAXX 19003 61712 NIL
AAXX 19003 61717 NIL
AAXX 19003 61720 NIL
AAXX 19003 61721 NIL
AAXX 19003 61722 NIL
AAXX 19003 61731 32960 20000 10152 20090 4//// 80002 333 5//// 82073
AAXX 19003 61733 NIL
AAXX 19004 78905 11476 72705 10216 20199 30130 40153 60001 70222 87800 333 10281 20206 58002 70081 87816
AAXX 19004 41170 31956 03009 10168 20134 30197 40210 70500 333 58030
AAXX 19004 60141 32/// 11304 10093 20085 39551 40226 69941 74454 886// 333 88706
AAXX 19004 60265 32970 00000 10099 20015 38913 48534 53015
AAXX 19004 60060 NIL
AAXX 19004 60105 NIL
AAXX 19004 60106 NIL
AAXX 19004 60107 NIL
AAXX 19004 60127 NIL
AAXX 19004 60185 NIL
AAXX 19004 60190 NIL
AAXX 19004 60191 NIL
AAXX 19004 60195 NIL
AAXX 19004 60210 NIL
AAXX 19004 60220 NIL
AAXX 19004 60318 NIL
AAXX 19001 06414 16/// /2903 10020 21002 30132 40165 50013 69921 333 91107 91204
AAXX 19001 06459 16/// /2704 10004 20004 39971 40170 52010 60021 333 91108 91206
AAXX 19001 06494 36/// /2602 11028 21034 39337 40160 53003 60001 333 4/024 91106 91204
AAXX 19001 10004 46/60 /3407 10071 20018 30090 40090 51013 222// 00085 333 55300 91118 91214
AAXX 19004 64810 NIL
AAXX 19004 64820 32460 51806 10257 20245 30104 40113 82570 333 58006 82613 84363
BBXX 46006 19001 99408 71375 46/// /0000 10119 40330 56012 92350 22200 00129 11505 20401 3//// 41505 70024 333 91201 555 11001 22001 32314 42901 62349 139001 141002 343002 300003 033002 292001
BBXX 41013 19001 99334 70777 46/// /3506 10104 20000 40277 53027 92350 22200 00198 10802 20501 309// 40802 70009 333 91208 555 11059 22061 32339 43309 62349 341059 324060 319055 331057 310048 324052
BBXX 44022 19001 99409 70737 46/// ///03 11014 21131 40259 92345 22200 00083 333 91204 555 11031 22031
BBXX 44065 19001 99404 70737 46/// /3504 10004 21112 40263 51022 92350 22200 00102 11101 20301 310// 41101 70007 333 91206 555 11041 22042 32251 43409 62349 346041 349048 344044 337049 342053 341062 83407 92252
BBXX 44040 19001 99410 70736 46/// /0103 11015 21132 40266 92345 22200 1//00 70001 333 91204 555 11031 22031
BBXX 44020 19001 99414 70702 46/// /3510 11017 21077 40233 52025 92350 22200 00076 10402 20402 310// 40701 70010 333 91213 555 11104 22111 32314 42614 62349 333098 264095 264095 263100 263100 267099
BBXX 46080 19001 99580 71500 46/// /2219 10053 20013 49805 53036 92350 22200 00053 11217 21012 3//// 41211 70083 333 91224 555 11202 22217 32309 42324 62349 224186 227187 227180 226172 226183 223188 82321 92258
BBXX 46025 19001 99337 71191 46/// /0902 10144 20102 40181 56012 92350 22200 00156 10502 20301 326// 40502 70011 333 91203 555 11025 22025 32310 40804 62349 087024 075025 075027 074030 074029 017013
BBXX 46005 19001 99461 71310 46/// ///05 10084 40311 55000 92350 22200 00100 11406 20401 3//// 41406 70031 333 91206 555 11052 22054
BBXX 46075 19001 99539 71608 46/// /2311 10039 21011 49909 51026 92350 22200 00048 11212 20608 300// 41209 70059 333 91213 555 11112 22119 32311 42415 62349 232103 236097 238109 241113 239115 237111 82412 92304
BBXX 46054 19001 99342 71204 46/// /3110 10129 40187 56019 92350 22200 00143 11605 20503 300// 41604 70024 333 91213 555 11110 22116 32331 43113 62349 309102 309109 306106 313102 312099 313098
BBXX 46059 19001 99380 71300 46/// /0109 10127 40280 55000 92350 22200 00147 11506 20603 3//// 41505 70032 333 91211 555 11095 22100 32315 40211 62349 013090 010088 009092 012094 013091 007089
BBXX 46029 19001 99461 71245 46/// /3306 10086 20052 40278 52014 92350 22200 00088 11507 20502 329// 41507 70037 333 91207 555 11062 22065 32331 43209 62349 328059 342065 338063 339053 347058 345064
BBXX 46069 19001 99337 71202 46/// /3010 10132 40193 56014 92350 22200 00140 11605 20503 331// 41604 70024 333 91212 555 11103 22110 32314 43012 62349 299098 298095 302099 304096 303096 302092
BBXX 46028 19001 99357 71219 46/// /3107 10120 40200 56014 92350 22200 00138 11606 20402 330// 41606 70031 333 91209 555 11077 22081 32344 43109 62349 310072 314072 312072 318064 316063 316068
BBXX 46013 19001 99382 71233 46/// /3004 10092 40213 57010 92350 22200 00107 11505 20401 3//// 41505 70026 333 91206 555 11040 22041 32337 43006 62349 305040 315049 320044 319031 314034 323041
BBXX 46012 19001 99374 71229 46/// /3104 10105 40208 56013 92350 22200 00125 11505 20401 328// 41505 70023 333 91207 555 11046 22047 32344 43107 62349 310045 305044 312037 295044 304043 296035
BBXX 46087 19001 99485 71247 46/// /1401 10083 20078 40274 53012 92350 22200 00078 11607 20401 327// 41607 70034 333 91203 555 11017 22020 32251 41105 62349 141013 134018 126018 119020 115025 111022
BBXX 46088 19001 99483 71232 46/// /0204 10079 40268 92350 22200 00080 1//00 70002 333 91205 555 11047 22049 32253 40108 62349 019044 016050 013053 012059 006061 008059
BBXX WCX7445 19004 99524 50688 43/// /3522 10127 2//// 49913 5//// 7//// 8//// 22272 00079 2//// 3//// 4//// 5//// 6//// ICE /////
BBXX WBP3210 19004 99531 50709 43/// /3015 10136 2//// 49953 5//// 7//// 8//// 22200 00122 2//// 3//// 4//// 5//// 6//// ICE /////
BBXX C6SD9 19004 99338 50509 41497 52622 10205 20181 40017 55016 70211 8346/ 22213 04220 20804 307// 41003 5//// 80190
BBXX 32012 19001 99197 50856 46/// ///// 1//// 92350 22200 11203 70017
BBXX WKPN 19004 99266 10347 41998 03210 10200 2017/ 40160 58010 70200 8//// 22235 00254 20302 3//// 4//// 5//// 6//// 80180 ICE /////
BBXX C6VF5 19004 99201 10390 43/// ///// 1//// 2//// 4//// 5//// 7//// 8//// 22211 0//// 2//// 3//// 4//// 5//// 6//// ICE /////
BBXX BATFR55 19004 99147 30525 44697 20119 10280 20239 40075 70100 8124/ 22272 00284 20704
BBXX A8QJ7 19004 99050 70267 41/98 /0804 10260 20246 40130 50012 75022 8/8// 22213 06270 2//// 3//// 4//// 5//// 80250
BBXX BATFR05 19004 99063 10034 46/// /2408 10282 20237 40101 58010 22200 00262
BBXX BATFR45 19004 99049 30480 46/// ///// 10284 20242 40094 55006 22214 00309
BBXX BATFR19 19004 99065 30060 46/// /1810 10237 20192 40129 58008 222// 00254
BBXX TBWUK18 19004 99308 50116 41/97 80710 10190 20190 40257 52011 70322 887// 22222 00214 20502 303// 41204 5//// 80190
BBXX ONDY 19004 99267 30146 41698 21829 10170 2015/ 40140 51010 70300 824// 22243 00178 2//// 3//// 4//// 5//// 6//// 80160 ICE /////
BBXX OVZV2 19000 99050 70257 41697 60703 10264 20237 40131 52022 70322 845// 22253 00282 20302 33300 40302 5//// 80245
BBXX ZCDD6 19003 99099 70242 41398 20715 10250 20204 40116 54000 70200 8/1// 22255 00270 20503 307// 41005 5//// 80220
BBXX UFTA 19001 99849 71238 41596 72301 11292 21324 40027 58002 77172 87500 333 21357
BBXX DMDZ 19003 99221 70436 41/97 /0120 10230 40171 51010 71362 8//// 22263 04230 20502 309// 41204 5////
BBXX WLVD 19004 99311 71405 41498 70807 10200 2015/ 40255 57010 7//11 87/// 22254 00189 20301 333// 40804 5//// 6//// 80167 ICE /////
BBXX WHRN 19003 99292 71414 41598 60719 10190 2014/ 40235 56010 70222 86461 22215 00200 20802 330// 41205 5//// 6//// 80160 ICE /////
BBXX SHIP 19004 99335 71318 41598 60508 10150 2010/ 40170 57020 70222 83106 22223 00190 2//// 330// 4//// 5//// 6//// 80120 ICE 0////
BBXX 5BDK2 19004 99205 70840 41497 70319 10250 2021/ 40230 51010 70300 86188 22273 00270 20702 305// 40902 5//// 6//// 80220 ICE /////
BBXX 3EMK6 19004 99266 70925 41/// /1006 10203 20156 40260 54/// 7//// 8//// 22200 00230 20403 309// 40602 5//// 6//// 80173 ICE /////
BBXX DDJG2 19004 99408 70417 41/97 81818 10190 20175 40200 57020 70222 8761/ 22265 04180 20604 318// 40808 80180
BBXX C6XP7 19003 99208 70740 41999 00823 1//// 2//// 40140 54/// 7//// 80000 22234 00270 20000 3//// 40000 50000 6//// 8//// ICE /////
BBXX WSRL 19003 99225 71551 41698 30724 10250 2019/ 40172 57030 70210 8243/ 22255 0//// 20404 399// 4//05 5//// 6//// 80210 ICE /////
BBXX 9HXC9 19004 99221 70713 41498 40615 10238 20139 40160 52010 7//11 84830 22234 00270 2//// 3//// 4//// 5//// 6//// 80176 ICE /////
BBXX A8AJ4 19004 99545 71672 41696 52740 1//// 2//// 49850 52010 78611 8/3// 22263 0//// 20610 326// 40908 5//// 6//// 8//// ICE /////
BBXX WGAX 19004 99372 70391 43/// /1728 10195 2017/ 40198 57014 7//// 8//// 22253 00184 2//// 3//// 4//// 5//// 6//// 80180 ICE /////
BBXX 44099 19001 99369 70757 46/// ///// 1//// 92352 22200 00122 10602 20602 309// 41201 70011
BBXX 46219 19001 99332 71199 46/// ///// 1//// 92358 22200 00136 11705 20503 331// 41704 70025
BBXX 46224 19001 99332 71175 46/// ///// 1//// 92336 22200 00144 11301 20901 325// 41301 70006
BBXX 46214 19001 99379 71235 46/// ///// 1//// 92355 22200 00115 11506 21002 330// 41506 70030
BBXX 46239 19001 99363 71221 46/// ///// 1//// 92351 22200 00128 11406 21002 330// 41405 70028
BBXX 46238 19001 99334 71195 46/// ///// 1//// 92350 22200 00144 11405 20603 328// 41403 70023
BBXX 46218 19001 99345 71208 46/// ///// 1//// 90002 22200 00141 11705 21003 331// 41705 70027
BBXX 46247 19001 99378 71228 46/// ///// 1//// 92351 22200 00113 11404 21002 330// 41404 70022
BBXX 46243 19001 99462 71241 46/// ///// 1//// 92359 22200 00076 11406 20904 327// 41404 70030
BBXX 46225 19001 99329 71174 46/// ///// 1//// 92344 22200 00149 11301 20901 327// 41301 70007
BBXX 46229 19001 99438 71246 46/// ///// 1//// 92351 22200 00102 11507 20804 329// 41506 70035
BBXX 46213 19001 99403 71247 46/// ///// 1//// 92354 22200 00107 11505 21003 329// 41504 70027
BBXX 46215 19001 99352 71209 46/// ///// 1//// 92338 22200 00142 11504 21002 326// 41504 70022
BBXX 46236 19001 99368 71219 46/// ///// 1//// 92350 22200 00127 11404 21001 329// 41403 70018
BBXX 46232 19001 99325 71174 46/// ///// 1//// 92338 22200 00154 11702 20901 329// 41702 70012
BBXX 44097 19001 99410 70711 46/// ///// 1//// 90002 22200 00120 10402 20402 315// 41101 70012
BBXX 44008 19001 99405 70692 46/// /3512 10020 21039 40208 53026 92350 22200 00113 333 91215 555 11125 22131 32323 43516 62349 347117 343119 351120 352114 346116 353120
BBXX 44172 19001 99445 70634 46/// ///// 1//// 90001 22200 00070 10603 20603 313// 41101 70016
BBXX VCXF 19004 99464 70484 41196 80626 10015 2001/ 40117 57025 76122 886// 22200 02025 20502 332// 40804 80015
BBXX OUJI2 19004 99490 11515 41797 33326 11010 2101/ 40150 54000 783// 8346/ 22253 00020 20504 330// 40804 5//// 6//// 81010 ICE /////
BBXX ONFW 19004 99352 11198 41196 32802 10040 21008 40320 54/// 71200 828// 22200 00100 20100 3//// 4//// 5//// 6//// 80020 ICE /////
BBXX C6SI6 19004 99317 11232 46/// /0310 10091 20017 40315 53001 7//// 8//// 22253 0//// 2////
BBXX C6SI3 19003 99437 11627 41/95 /2724 10010 2102/ 40050 54000 78577 8//// 22213 0//// 21002 3//// 40604 5//// 6//// 80000 ICE /////
BBXX 46070 19001 99551 11753 46/// /3108 11021 21053 49831 50000 92350 22200 00037 11408 20604 3//// 41407 70041 333 91210 555 11087 22091 32339 43210 62349 309083 311068 313058 319051 311040 323044 83209 92340
BBXX 46089 19001 99459 71258 46/// /3408 10085 20053 40293 53015 92350 22200 00093 11607 20603 330// 41606 70035 333 91210 555 11080 22084 32313 43412 62349 343075 343083 346084 348089 351084 342082
BBXX 44011 19001 99411 70666 46/// /3613 10034 20000 40158 51012 92350 22200 00094 10908 20706 3//// 40904 70039 333 91216 555 11142 22150 32259 41816 62349 000134 357131 356135 352134 354129 353135
BBXX 41046 19001 99238 70683 46/// /3201 10243 20162 40185 51010 92350 22200 00259 10904 20401 300// 40904 70018 333 91202 555 11013 22014 32304 43305 62349 320014 318019 327027 325025 323034 327032 83304 92305
BBXX VCBW 19004 99483 70694 46/// /2511 11091 21120 40242 58004 7//// 8//// 22253 00025 2////
BBXX VCLM 19004 99543 70553 46/// /2423 11085 21121 40153 51028 7//// 8//// 22243 00007 2////
BBXX PHET 19001 99146 70611 41/98 /0307 10255 20187 40140 54000 7//// 8//// 22271 00280 2//// 3//// 4//// 5////
BBXX ZCDA9 19003 99275 71330 41398 70612 10165 20148 40236 56018 70222 8527/ 22224 00215 20402 329// 40705 5//// 80155
BBXX HZRX 19003 99335 70761 41797 73421 /// 10130 20130 40250 52035 70222 86133 22253 10110 20303 33333 40202 5//// 6//// 80070 ///// /////
BBXX C6OT4 19004 99183 71565 41498 20920 10241 20196 40195 54/// 701// 82113 22223 04247 20205 33501 40105 50207 80212
BBXX VOKF 19004 99490 70669 46/// /1403 11151 21171 40236 58004 7//// 8//// 22200 0//// 2////
BBXX VOFG 19004 99456 70614 46/// /0604 11018 21067 40195 51016 7//// 8//// 22200 0//// 2////
BBXX CGDR 19004 99484 71234 46/// /1802 10086 20085 40276 53015 7//// 8//// 22200 0//// 2////
BBXX CGDT 19004 99468 70712 46/// /2403 11094 21160 40263 52008 7//// 8//// 22200 0//// 2////
BBXX 3FZK3 19004 99544 71468 46/// /2613 10055 20030 49985 53052 7//// 8//// 22232 0//// 2////
BBXX CGBY 19004 99487 71235 46/// /3004 10078 20040 40273 53014 7//// 8//// 22200 0//// 2////
BBXX CGTF 19004 99476 70527 46/// /3109 11022 21038 40180 55006 7//// 8//// 22200 0//// 2////
BBXX CGBN 19004 99447 70636 46/// /0210 11021 21055 40183 51017 7//// 8//// 22200 0//// 2////
BBXX CG2965 19004 99487 71235 46/// /3006 10084 20045 40274 53014 7//// 8//// 22200 0//// 2////
BBXX CGJV 19004 99456 70613 46/// /0409 11019 21054 40195 51018 7//// 8//// 22200 0//// 2////
BBXX CG2958 19004 99507 71275 46/// /3503 10060 20032 40299 53006 7//// 8//// 22200 0//// 2////
BBXX CGJK 19004 99484 71234 46/// /1702 10079 20054 40274 53015 7//// 8//// 22200 0//// 2////
BBXX VXKF 19004 99462 70602 46/// /3614 11023 21095 40191 51009 7//// 8//// 22200 0//// 2////
BBXX VAAP 19004 99446 70636 46/// /0111 11026 21053 40184 51014 7//// 8//// 22200 0//// 2////
BBXX VOKJ 19004 99466 70547 46/// /0224 11016 21034 40144 58021 7//// 8//// 22223 0//// 2////
BBXX CGDG 19004 99447 70636 46/// /0205 11026 20002 40197 51017 7//// 8//// 22200 0//// 2////
BBXX VCSZ 19004 99487 70686 46/// /2114 11085 21111 40225 58004 7//// 8//// 22254 0//// 2////
BBXX VOLG 19004 99452 70609 46/// /0323 11001 21055 40173 51022 7//// 8//// 22213 0//// 2////
BBXX VAAZ 19004 99548 70533 46/// /2624 11070 21112 40150 53005 7//// 8//// 22271 0//// 2////
BBXX VCWL 19004 99456 70735 46/// /0000 11081 21136 40247 58003 7//// 8//// 22200 0//// 2////
BBXX CGDX 19004 99468 70712 46/// /3101 11093 21158 40261 51007 7//// 8//// 22200 0//// 2////
BBXX CGSB 19004 99492 70681 46/// /2906 11108 21132 40236 58007 7//// 8//// 22200 0//// 2////
BBXX VOPP 19004 99456 70735 46/// /2302 11087 21144 4//// 5//// 7//// 8//// 22200 0//// 2////
BBXX CGDS 19004 99450 70747 46/// /1305 11068 21121 4//// 5//// 7//// 8//// 22200 00064 2////
BBXX CZ9742 19004 99506 70969 46/// /3217 11034 21055 40071 51042 7//// 8//// 22200 0//// 2////
BBXX 46086 19001 99325 71180 46/// /3007 10144 40193 56011 92350 22200 00151 11703 20401 329// 41703 70015 333 91208 555 11076 22081 32255 42909 62349 296070 298070 292070 291071 287070 288072
BBXX 46002 19001 99426 71305 46/// ///// 10109 40311 54000 92350 22200 00121 11307 70035
BBXX 46084 19001 99566 71361 46/// /1520 10049 20035 40058 58044 92350 22200 00073 10911 20608 300// 40908 70057 333 91226 555 11218 22233 32349 41526 62349 150201 152198 152208 152200 154201 153214
BBXX 46027 19001 99419 71244 46/// /3612 10096 40221 58015 92350 22200 00093 11506 20604 329// 41504 70031 333 91215 555 11126 22135 32344 43515 62349 355116 354113 354105 355094 358089 355075
BBXX 46047 19001 99324 71195 46/// /3109 10136 40205 56013 92350 22200 00139 11705 20402 331// 41705 70027 333 91211 555 11098 22104 32342 43011 62349 306091 301091 303088 301090 300084 293079
BBXX 46011 19001 99350 71210 46/// /3206 10125 40201 56013 92350 22200 00139 11606 20401 330// 41606 70029 333 91208 555 11066 22069 32307 43208 62349 318064 325063 327063 327063 329063 332058
BBXX 46014 19001 99394 71240 46/// /3508 10095 40220 56012 92350 22200 00107 11406 20502 3//// 41405 70028 333 91209 555 11082 22086 32329 43411 62349 351079 344086 340091 346073 345075 339074
BBXX 46050 19001 99442 71246 46/// /3509 10092 40280 53012 92350 22200 00097 11507 20603 329// 41506 70035 333 91211 555 11092 22097 32347 43511 62349 349085 347081 347078 348080 354090 354083
BBXX 46088 19001 99483 71232 46/// /0204 10079 40268 51015 92350 22200 00080 1//00 70002 333 91205 555 11047 22049 32253 40108 62349 019044 016050 013053 012059 006061 008059
BBXX 41043 19001 99211 70650 46/// /0404 10252 20174 40174 51015 92350 22200 00264 11305 20301 300// 41305 70024 333 91205 555 11039 22040 32344 40505 62349 044037 048040 050037 057038 051038 057038 80505 92331
BBXX 46078 19001 99561 71526 46/// /2515 1//// 92350 555 11162 22173
BBXX 44066 19001 99396 70726 46/// /3409 10013 21060 40250 51025 92350 22200 00129 10504 20503 3//// 40801 70018 333 91212 555 11090 22093 32310 43513 62349 341088 346090 345094 333098 334096 341097
BBXX 44009 19001 99385 70747 46/// /3309 10041 40279 53026 92350 22200 00120 10403 20403 300// 41001 70013 333 91211 555 11094 22097 32258 43413 62349 327090 323095 328093 331091 334095 328094
BBXX 46105 19001 99590 71522 46/// ///// 1//// 92350 22200 10909 70047
BBXX 42055 19001 99222 70940 46/// /0906 10245 20194 40198 55000 92350 22200 00252 10703 20502 301// 40702 70013 333 91207 555 11065 22068 32335 40807 62349 089061 084060 090056 087059 096059 092059 80906 92343
BBXX 44027 19001 99443 70673 46/// /3609 11046 21090 40225 51018 92350 22200 00084 10402 20402 3//// 41001 70012 333 91211 555 11092 22096 32337 43611 62349 358088 001089 002084 002081 002081 007077
BBXX 42003 19001 99260 70856 46/// /0507 1//// 92350 22200 10703 20602 334// 40702 70016 333 91209 555 11069 22074 32327 40509 62349 048064 062062 054067 053065 057065 056063 80608 92328
BBXX 44060 19001 99413 70721 46/// ///06 11024 40258 92345 22200 00091 333 91208 555 11062 22067
BBXX 42002 19001 99258 70937 46/// /0909 10217 20159 40228 55000 92350 22200 00241 10603 20603 70014 333 91210 555 11085 22091 32305 40910 62349 087085 082085 085083 085083 085084 081082
BBXX 41036 19001 99342 70770 46/// ///// 10094 21017 40278 53032 92350 22200 00164 11201 70007
BBXX 41047 19001 99275 70715 46/// /3612 10209 40212 53023 92350 22200 00251 10705 20705 308// 41002 70026 333 91215 555 11124 22131 32309 43516 62349 357124 347130 346123 351127 349131 353121 83514 92338
BBXX 42040 19001 99292 70882 46/// /0705 10149 40260 54000 92350 22200 00225 10602 20401 306// 40601 70008 333 91207 555 11051 22053 32335 40807 62349 067052 064056 055050 057053 053051 056051
BBXX 42019 19001 99279 70954 46/// /1209 10206 20150 40219 56010 92350 22200 10603 20602 70013 333 91211 555 11094 22100 32339 42912 62349 125090 282096 281093 281093 281090 281087
BBXX 44005 19001 99432 70691 46/// /3508 11035 21120 40233 53014 92350 22200 00086 10603 20602 3//// 40902 70014 333 91210 555 11084 22087 32311 43511 62349 354080 354079 350078 354085 352078 355079
BBXX 42060 19001 99163 70635 46/// /0407 10269 20188 40152 53018 92350 22200 00278 11103 20602 300// 41102 70014 333 91209 555 11075 22079 32347 40409 62349 043071 035068 037069 037069 040071 040065 80408 92347
BBXX 42059 19001 99151 70675 46/// /0709 10270 20211 40139 53015 92350 22200 00280 10603 20603 3//// 40902 70016 333 91211 555 11099 22105 32304 40612 62349 068093 063097 064101 065099 066100 054081 80711 92328
BBXX 42058 19001 99149 70749 46/// /0609 10271 20208 40125 51012 92350 22200 00276 10704 20703 312// 41102 70018 333 91211 555 11097 22103 32320 40612 62349 058092 063096 061095 061094 058097 063093 80511 92304
BBXX 42036 19001 99285 70845 46/// /0307 10162 20080 40248 51012 92350 22200 00214 10502 20502 70010 333 91209 555 11074 22077 32250 40210 62349 029073 028071 028074 024068 021068 023065
BBXX 42056 19001 99198 70849 46/// /0408 10257 20202 40177 53006 92350 22200 00271 10704 20704 70020 333 91210 555 11087 22092 32303 40411 62349 038083 043078 043082 043081 041082 044084 80410 92303
BBXX 42035 19001 99292 70944 46/// /1007 10158 20118 40242 56008 92350 22200 00167 10502 20502 70009 333 91208 555 11071 22075 32250 41008 62349 104068 105065 106065 103062 101062 100061
BBXX 42012 19001 99301 70876 46/// /0203 10153 20028 40262 53003 92350 22200 00205 10401 20401 309// 40401 70004 333 91204 555 11032 22033 32334 40306 62349 025031 032038 013030 030035 031031 028033
BBXX 41044 19001 99217 70587 46/// /0504 10250 20132 40165 53010 92350 22200 00265 11105 20401 300// 41105 70027 333 91205 555 11040 22041 32315 40407 62349 051037 028034 034042 033048 042046 039048 80506 92305
BBXX 42001 19001 99259 70897 46/// /0806 10215 20117 40239 52003 92350 22200 00260 10703 20502 3//// 40702 70014 333 91208 555 11059 22062 32320 40809 62349 074057 064060 063069 060062 074069 065066
BBXX 41060 19001 99148 70510 46/// ///// 1//// 92350 22200 11106 70028
BBXX 41048 19001 99320 70696 46/// /3117 10154 20072 40171 53026 92350 22200 00224 10910 20910 70050 333 91220 555 11173 22183 32340 43123 62349 315175 317183 316178 315179 315182 318173 83220 92334
BBXX 41049 19001 99275 70630 46/// /2410 10232 20158 40152 50000 92350 22200 00241 11104 20503 300// 41103 70020 333 91212 555 11103 22109 32316 42413 62349 236098 237099 238097 239095 242094 241098 82411 92316
BBXX 42065 19001 99149 70750 46/// /0709 10270 20206 92350 22200 10704 20704 70020 333 91211 555 11097 22104 32347 40711 62349 066092 057090 061082 060083 057086 059086 80710 92347
BBXX 41012 19001 99300 70805 46/// /0206 10187 40251 53015 92350 22200 00235 11102 20502 309// 41102 70011 333 91207 555 11062 22064 32330 40208 62349 018060 037055 024052 009045 011035 003056
BBXX 42020 19001 99270 70967 46/// /1111 10224 20173 40205 56012 92350 22200 00238 10503 20503 70016 333 91213 555 11113 22120 32328 41113 62349 110106 111107 107111 109108 109106 107108
BBXX 41001 19001 99347 70727 46/// ///// 10110 20043 40216 53027 92350 22200 00219 10909 70044
BBXX 3FBC9 19004 99140 71222 41698 70720 10250 40110 56018 70222 86854 9//// 22233 00260 20304 305// 40406 5//// 6//// 80230
BBXX FVNM 19004 99058 70864 46/// /1716 10237 20220 40110 53010 22221 00264
BBXX WDC6698 19004 99093 71453 43/// /3013 1//// 2//// 40080 5//// 7//// 8//// 222// 04274 2//// 3//// 4//// 5//// 6//// 8//// ICE /////
AAXX 19004 68298 36/// /0602 1//// 2//// 39520 4//// 57006 333 1//// 2//// 91003 555 91018
BBXX 2AKI2 19003 99017 10905 41/98 59903 10280 20244 40079 53005 70222 8598/ 22215 00298 20000 324// 40501 5//// 80255
BBXX MRWF2 19004 99180 31091 41499 42019 10250 2024/ 40120 52010 7//00 84131 22274 00290 21004 32020 41004 51004 6//// 80240 ICE /////
BBXX LAOW5 19004 99300 51661 41496 43419 10250 20222 40100 50040 70544 84726 22254 00220 20204 32930 40102 50102 6//// 80230 ICE /////
BBXX A8ID9 19004 99044 51667 41498 20918 10270 20221 40090 56020 70200 81140 22214 00270 20402 309// 40603 5//// 80235
BBXX WHIA 19003 99041 31105 417// 52705 10290 2025/ 40080 52002 7//22 853// 22224 0//// 2//// 3//// 4//// 5//// 6//// 80260 ICE /////
BBXX CG2960 19004 99423 70830 46/// /2402 10035 21009 4//// 5//// 7//// 8//// 22200 0//// 2////
BBXX CG2350 19004 99433 70798 46/// /2006 10013 21037 40210 56008 7//// 8//// 22200 0//// 2////
BBXX VCRG 19004 99474 70619 46/// /0113 11039 21092 40222 51003 7//// 8//// 22200 0//// 2////
BBXX CGBR 19004 99543 71303 46/// /0402 10029 20027 40252 58008 7//// 8//// 22200 0//// 2////
BBXX BATEU05 19004 99633 70514 46/// /2315 11061 21132 49952 53019 22243
BBXX 46026 19001 99378 71228 46/// /3201 10106 40210 56012 92350 22200 00113 11704 20401 328// 41704 70020 333 91203 555 11014 22015 32344 43003 62349 309012 274004 195003 180001 180001 180001
BBXX 46041 19001 99474 71247 46/// /3305 10082 40274 53019 92350 22200 00085 11407 20502 3//// 41407 70037 333 91207 555 11057 22060 32332 43209 62349 330054 325059 328059 335057 332054 341054
BBXX 42039 19001 99288 70860 46/// /0405 10163 92350 555 11058 22061
BBXX 44007 19001 99435 70701 46/// /3606 11041 21146 40249 52016 92350 22200 00081 10601 20501 3//// 40601 70007 333 91208 555 11060 22062 32322 43609 62349 356058 356060 357062 348058 005063 004052
BBXX 46035 19001 99571 71778 46/// /2513 1//// 49754 51003 92350 22200 11210 20805 300// 41208 70048 333 91216 555 11127 22136 32349 42516 62349 251126 253121 252121 256125 260119 255120 82514 92347
BBXX 42057 19001 99168 70815 46/// /0411 10269 20206 40151 53008 92350 22200 00280 10704 20704 70019 333 91212 555 11108 22114 32303 40313 62349 037107 036103 034106 032105 035103 034104 80311 92311
BBXX 41009 19001 99285 70802 46/// /0406 10211 20113 40245 53019 92350 22200 00253 10603 20402 300// 40602 70016 333 91208 555 11063 22065
BBXX 41040 19001 99145 70530 46/// /0307 10266 20203 40137 52014 92350 22200 00280 11005 20602 3//// 41005 70026 333 91208 555 11070 22073 32332 40309 62349 033066 033067 031063 030060 032063 034064 80407 92253
BBXX 46061 19001 99602 71468 46/// /1409 10048 49838 92350 22200 00051 11109 20705 300// 41107 70043 333 91211 555 11097 22103 32312 41716 62349 144092 150087 166105 175137 117104 110124
BBXX 51101 19001 99243 71621 46/// /0608 10228 20178 40194 58023 92350 22200 00240 11305 20603 332// 41304 70023 333 91209 555 11081 22085 32331 40810 62349 064077 068084 065079 071071 069071 065071
BBXX 46077 19001 99579 71543 46/// /2516 10033 21001 49754 53085 92350 22200 00056 10907 20907 70036 333 91220 555 11170 22181 32319 42522 62349 249156 247156 246165 247161 244144 247156 82519 92322
BBXX 46072 19001 99517 71722 46/// /2613 10026 21042 49869 50000 92350 22200 00049 11107 20603 3//// 41106 70033 333 91216 555 11136 22144 32340 42616 62349 263128 262118 251099 252103 249112 220091 82614 92341
BBXX 41010 19001 99289 70785 46/// /0407 10199 40242 53022 92350 22200 00238 10703 20603 300// 40702 70017 333 91209 555 11072 22075
BBXX 46082 19001 99597 71434 46/// ///// 10055 20055 49900 55017 92350 22200 00064 11114 70068
BBXX BATEU06 19004 99522 70526 46/// /2612 11073 21131 40192 51019 22264 00017
BBXX BATEU01 19004 99498 70371 44/97 01401 10079 20017 40204 53009 70000 222// 00089 327// 40502 5////
BBXX BAREU06 19004 99456 70735 46/// ///// 40238 22231
BBXX DGHJ 19003 99293 71458 41295 80612 10190 20176 40248 56020 75585 887// 22263 00210 20201 331// 41308 5//// 80181
BBXX SHIP 19004 99417 71753 41697 62824 10130 2005/ 40100 52006 7//22 8697/ 22224 00140 20307 330// 40408 5//// 6//// 80090 ICE /////
BBXX LAVW4 19004 99294 70429 41698 31428 00/// 10225 2019/ 40195 51005 70200 83/// 22253 00218 20504 313// 40706 5//// 6////
BBXX BAREU05 19004 99458 70530 46/// ///// 40105 57006 22264
BBXX BAREU54 19004 99097 70809 46/// ///// 40117 52014 22262
BBXX 46060 19001 99606 71468 46/// /1118 10025 49832 57011 92350 22200 00058 333 91223 555 11194 22207 32320 41124 62349 113180 112188 114181 114189 114194 114185 81121 92311
BBXX PGQI 19003 99244 70666 41597 40311 10240 20172 40181 53005 70200 81/// 22263 20301 304// 41004 80195
BBXX PINX 19004 99261 70795 41998 00324 10220 2//// 40210 52020 70100 80000 22224 00260 2//// 3//// 4//// 5//// 6//// 8//// ICE /////
BBXX 9VVD 19004 99429 70608 41/97 /0533 10045 20006 40107 52010 70222 8//// 22224 04110 20308 30308 40302 50501 80030
BBXX A8OH5 19003 99233 71114 41197 13116 10232 20176 40195 57025 7//11 814// 22234 00250 20804 30000 80195
BBXX DGAF 19003 99454 70580 41/// /0426 11008 21042 40164 53014 70022 8//// 22264 00070 2//// 81020
BBXX WGEB 19004 99215 71570 41798 50821 10267 2020/ 40179 57027 7//00 8/13/ 22255 00239 20404 3//// 4//05 5//// 6//// 80222 ICE /////
BBXX 9V8739 19004 99357 71651 41497 82313 10150 20133 40170 53010 78011 8877/ 22263 00200 2//// 329// 40408 5//// 6//// 80140 ICE /////
BBXX 62087 19001 99547 10068 46/// /1604 10063 20024 4//// 5//// 22230 00080
BBXX DBBH 19001 99370 70118 41/98 /0410 10144 20068 40273 52011 7//// 22281 04178
BBXX VRYO3 19004 99535 10099 46/// /0000 10020 20029 40082 52014 7//// 8//// 22200 0//// 2////
BBXX C6JS 19003 99425 70211 41497 82314 10150 2013/ 40280 54000 70322 88/// 22254 20402 3//// 4//// 5//// 80140
BBXX A8IO2 19004 99457 70164 41297 82026 10135 20116 40240 57020 70522 8/61/ 22214 20504 334// 41005 5//// 80125
BBXX DBLK 19001 99705 50081 41997 /1011 11024 21036 49853 52022 7//// 22200 05015
BBXX TFBKF 19004 99635 70202 46/// ///// 22200 10604 70019
BBXX TFBLK 19004 99657 70248 46/// ///// 22200 10707 70037
BBXX TFDRN 19004 99658 70212 46/// ///// 22200 10502 70010
BBXX TFGRS 19004 99663 70182 46/// ///// 22200 10603 70013
BBXX TFGRV 19004 99638 70225 46/// ///// 22200 10706 70031
BBXX TFGSK 19004 99641 70229 46/// ///// 22200 10706 70030
BBXX TFHFN 19004 99642 70152 46/// ///// 22200 10702 70012
BBXX TFKGR 19004 99657 70136 46/// ///// 22200 10604 70020
BBXX TFSRT 19004 99633 70203 46/// ///// 22200 10605 70027
BBXX TFSTD 19004 99664 70234 46/// ///// 22200 10604 70019
AAXX 19004 91925 02580 31013 10283 20203 30041 40101 57022 60004 83200 333 20225 56200 58001 60007 83820 90710 91124 555 60005 11026
AAXX 19004 91929 04585 /0910 10306 20219 30115 40118 56016 69901 700// 333 60007 90710 91115 555 60005
AAXX 19004 91938 02580 32504 10308 20216 30122 40124 56017 60001 83800 333 60007 82820 90710 91108 555 60005 13311
AAXX 19004 91944 06/// /0706 10288 20194 30127 40130 56012 60001 333 60007 90710 91110 555 60005
AAXX 19004 91948 02482 31004 10274 20197 30054 40155 57012 60004 83202 333 20225 56205 58019 60007 83816 90710 91110 555 60005 11111
AAXX 19004 91958 02582 40609 10263 20204 30172 40174 56008 60004 84202 333 20209 56203 58025 60007 84823 90710 91113 555 60005 10513
AAXX 19004 91943 NIL
AAXX 19004 91945 NIL
AAXX 19004 91954 NIL
AAXX 19001 45007 12958 20607 10143 20046 30229 40239 53015 60002 80001 333 20139 59021 70000 82080
AAXX 19001 45007 12958 20607 10143 20046 30229 40239 53015 60002 80001 333 20139 59021 70000 82080
BBXX SKUN 19003 99515 70134 43/97 82326 10095 40185 56015 22224 00103 2//// 4////
BBXX PJFF 19004 99424 70164 41/97 /0510 10150 40290 57010 702// 8/7// 22254 04130 2//// 30000 80020
BBXX PEND 19003 99299 31147 41598 31516 10210 20132 40130 53017 70111 82501 22243 00250 2//// 3//// 4//// 5//// 80162
BBXX DGZL 19003 99324 10294 41/98 11015 10170 20137 40195 58005 70100 81/// 22264 00180 2//// 80150
AAXX 19001 38353 419// 52501 11198 21224 39472 40485 52023 70272 85030
AAXX 19001 38613 429// 20102 11037 21070 39368 40309 57007 80002 555 14104
AAXX 19001 38616 415// 73601 11038 21059 39257 40317 51001 70272 87500
AAXX 19001 38345 41996 01001 11218 21250 38871 48530 52004 71011 555 1/119
AAXX 19001 36911 419// 00000 11180 21199 39392 40464 52038 70171 555 1/119
AAXX 19001 36974 416// 83401 11080 21096 37940 48495 53004 77172 8802/ 555 17108
AAXX 19001 36982 425// 61907 11145 21215 36439 47074 57005 84550
BBXX PCCL 19003 99345 31735 41498 31428 10182 20140 40092 54000 70200 82272 22232 04189 20605 312// 41004 80156
AAXX 19004 78016 11464 82825 10164 20105 30086 40090 52007 60091 76162 8677/ 333 10235 20145 70203 90917
AAXX 19004 78016 11464 82825 10164 20105 30086 40090 52007 60091 76162 8677/ 333 10235 20145 70203 90917
AAXX 19001 15015 02998 01302 11022 21040 39591 42791 52010 60001 333 43001 55031 60007 91002 91103 92600
AAXX 19001 15020 02997 01101 10004 21051 30002 40206 52018 60001 333 55052 60007 91002 91102 92600
AAXX 19001 15090 02997 03500 11030 21041 30120 40217 51018 60001 333 55300 0//// 20004 3//// 55046 10088 20507 30161 60007 91001 91101 92600
AAXX 19001 15108 01/91 92718 11107 21107 38057 48489 52018 60001 74943 333 44007 55000 60007 91024 92720 92922 96037
AAXX 19001 15120 02997 02002 11048 21054 39702 40224 51010 60001 333 55300 10228 2//// 3//// 55053 10167 20555 30161 60007 91003 91103 92612 92611
AAXX 19001 15150 02997 03200 11052 21062 39997 40221 51017 60001 333 55058 60007 91001 91101
AAXX 19001 15170 02997 02800 11075 21076 39413 42798 51013 60001 333 55021 60007 91001 91103 92610
AAXX 19001 15200 02998 00601 11003 21013 30036 40186 55003 60001 333 55078 60007 91002 91104
AAXX 19001 15230 02997 02203 11030 21030 39904 40211 57002 60001 333 55300 10203 20004 3//// 55020 10167 20336 30219 60007 91004 91104 92600
AAXX 19001 15260 02997 00701 11057 21061 39662 40226 52003 60001 333 55066 60007 91002 91102
AAXX 19001 15280 02999 02004 11158 21266 37442 47957 51007 60001 333 49028 55066 60007
AAXX 19001 15292 02998 01502 11026 21029 39890 40197 57002 60001 333 55004 60007 91003 91103 92600
AAXX 19001 15310 01996 00500 11012 21016 30132 40222 52016 60001 71000 333 55300 10223 20004 3//// 55056 10074 20594 30573 60007 91001 91101 92611
AAXX 19001 15335 03/// /0000 11035 21035 30214 40222 53018 6///1 333 4//// 55/// 6///7 91000 91101
AAXX 19001 15346 02997 03502 11019 21044 39914 40216 53010 60001 333 55050 60007 91004 91104 92600
AAXX 19001 15350 02997 03402 11006 21049 30097 40222 51015 60001 333 55068 60007 91003 91104
AAXX 19001 15360 02998 02501 10046 20027 30203 40218 53017 60001 222// 0//// 2////
AAXX 19001 15410 02597 40301 10005 21027 30098 40197 52006 60001 84500 333 55082 60007 91001 91101
AAXX 19001 15420 02997 00301 11055 21059 30095 40213 51013 60001 333 55300 0//// 20000 3//// 55068 0//// 20740 3//// 60007 91002 91102 92600
AAXX 19001 15450 02997 00502 11016 21036 39957 40202 51007 60001 333 55300 10225 20004 3//// 55067 10093 20707 30724 60007 91004 91105 92600
AAXX 19001 15460 02997 01601 11016 21022 30187 40212 51009 60001 333 55048 60007 91002 91102
AAXX 19001 15470 02997 00302 11026 21030 30072 40204 51005 60001 333 55085 60007 91003 91103 92600
AAXX 19001 15480 02997 03001 10017 21010 30203 40221 51014 60001 222// 0//// 2//// 333 55055 60007 91002 91102 92427
AAXX 19001 15502 12970 00000 11034 21039 30144 40185 51003 60001 333 11008 21042 555 597//
AAXX 19001 15528 12970 01101 10010 21025 39980 40175 54000 60001 333 10020 20004 555 577//
AAXX 19001 15535 12970 00000 11008 21026 30149 40197 51006 60001 333 10036 21009 555 587// 92600
AAXX 19001 15549 12970 01403 10002 21028 39784 40214 52002 60001 333 10016 21005 555 581// 92601
AAXX 19001 15552 12965 03402 10030 21003 30158 40208 52007 60001 333 10038 20030 555 579// 92012 92418
AAXX 19001 15614 12665 51403 11014 21035 39475 40204 52004 60001 83201 333 10005 21017 555 584//
AAXX 19001 15615 11984 31810 11107 21125 37049 47979 54000 60001 70300 80006 333 11107 21145 555 587//
AAXX 19001 15626 12660 40000 11016 21030 30003 40199 52003 60001 82530 333 10018 21022 555 590//
AAXX 19001 15627 11/00 91808 11092 21103 37586 47005 51002 69911 74941 333 11090 21099 48004 93501 555 591// 92712
AAXX 19001 15640 12970 60000 10027 21035 39885 40206 54000 60001 86030 333 10029 20024 555 564//
AAXX 19001 15712 12975 83602 10027 21031 39916 40172 58006 60001 83037 333 10052 20020 555 566//
AAXX 19001 15730 11630 80000 10023 20007 39796 40197 54000 60001 71022 8652/ 333 10037 20014 555 589//
AAXX 19004 78016 11464 82825 10164 20105 30086 40090 52007 60091 76162 8677/ 333 10235 20145 70203 90917
BBXX LAHV 19001 99589 10057 43/// /3306 10032 20013 40041 222// 04076 1////
BBXX LF4H 19004 99596 10022 46/// /3018 10041 20015 40071 52002 8//// 22200 06079 10807 70036 333 91128
BBXX LGWS 19001 99304 70096 43/// /1204 10163 20115 40171 5//// 222/0 04162 1//// 3//// 4//// 5////
AAXX 19004 47101 32970 00001 11107 21133 30220 40323 52009 333 21124 30108
AAXX 19004 47105 369// /2508 11009 21189 30245 40278 52009 333 21023 3/000
AAXX 19004 47108 12970 10202 11051 21152 30201 40313 52006 69902 80001 333 21067 30105
AAXX 19004 47115 11568 73605 10019 21055 39976 40254 52011 69902 78582 87800 333 20014 3/000 44004 92042
AAXX 19004 47133 32962 42901 11047 21086 30230 40320 52007 80001 333 21066 34103
AAXX 19004 47138 32970 02305 10000 21182 30288 40291 52008 333 21018 30006 92022
AAXX 19004 47159 32975 02508 10015 21179 30198 40286 53008 333 21012 30101 92023
AAXX 19004 47165 12668 51402 10009 21060 30266 40315 52014 69902 85500 333 21017 34101 92021
AAXX 19004 47168 32975 03407 10007 21107 30220 40302 52014 333 21003 30101 92023
AAXX 19004 47184 32670 63606 10054 21042 30285 40311 52010 85500 333 20053 30004 92022
AAXX 19004 47090 32975 03403 11001 21198 30252 40275 52010 333 21018 3/103 42001 92022
AAXX 19004 47095 32962 00000 11117 21144 30120 40324 52007 333 21142 34108
AAXX 19004 47097 329// /0000 11074 21121 30217 40320 53007 333 21114 3/105
AAXX 19004 47098 329// /0001 11088 21134 30171 40315 52009 333 21109 3/106
AAXX 19004 47099 329// /0501 11093 21116 30280 40319 52010 333 21124 3/106
AAXX 19004 47100 32970 02709 11095 21189 39335 40307 50001 333 21131 3/107 49027
AAXX 19004 47102 32675 63205 10009 21066 30124 40308 52014 85530 333 21005 3/000
AAXX 19004 47104 32970 01103 11018 21179 30175 40276 52009 333 21048 3/102 43004
AAXX 19004 47106 329// /2002 10002 21166 30226 40277 52010 333 21014 3/102
AAXX 19004 47112 32970 01404 11027 21135 30223 40311 53004 333 21047 30102 92011
AAXX 19004 47114 12970 00503 11096 21135 30125 40321 52007 69902 333 21109 30106
AAXX 19004 47119 12965 20000 11047 21102 30270 40314 53004 69902 80001 333 21077 30105
AAXX 19004 47121 129// /0501 11096 21121 30011 40327 52008 69902 333 21124 3/106
AAXX 19004 47127 329// /0001 11084 21115 30167 40319 50002 333 21103 3/104
AAXX 19004 47129 12665 60504 11029 21072 30276 40313 51001 69902 86500 333 21066 30101
AAXX 19004 47130 32972 02305 10000 21177 30216 40280 52013 333 21020 34000 92022
AAXX 19004 47131 12970 10000 11054 21079 30243 40318 52006 69902 80001 333 21067 30102
AAXX 19004 47135 329// /2509 11039 21093 30001 40315 52010 333 21050 3/102
AAXX 19004 47136 32970 01602 11057 21106 30129 40311 52008 333 21096 30106
AAXX 19004 47137 329// /2505 11027 21141 30185 40309 52008 333 21040 3/103
AAXX 19004 47140 12968 30001 11024 21057 30285 40315 52008 69902 80001 333 21050 34101 92011
AAXX 19004 47143 32975 12704 11005 21110 30236 40318 52009 80001 333 21026 30001
AAXX 19004 47145 12965 10000 11053 21082 30280 40308 53003 69902 80001 333 21085 34103
AAXX 19004 47146 12968 01403 11037 21074 30244 40313 52004 69902 333 21060 34101
AAXX 19004 47150 12670 60204 11021 21072 30288 40308 52005 69902 86500 333 21042 34103
AAXX 19004 47152 32975 03206 10009 21164 30245 40289 52009 333 21013 30102
AAXX 19004 47154 329// /0001 11023 21088 30248 40311 52009 333 21055 3/104
AAXX 19004 47155 32970 02904 10010 21146 30255 40302 52013 333 21007 30101
AAXX 19004 47156 12672 42701 11012 21057 30226 40319 52013 69902 84500 333 21028 34000
AAXX 19004 47157 32970 00701 11062 21099 30020 40306 52007 333 21093 30104
AAXX 19004 47162 32975 00508 10008 21144 30259 40301 52011 333 21016 30102 92023
AAXX 19004 47169 32675 33410 10048 21039 30213 40309 52010 83500 333 20039 31003 92033
AAXX 19004 47170 32968 03202 10025 21063 30267 40312 52010 333 21015 30000 92021
AAXX 19004 47171 129// /2702 11010 21052 30257 40314 52008 69902 333 21048 3/000
AAXX 19004 47172 129// /1801 11012 21050 30241 40310 52010 69902 333 21039 3/000
AAXX 19004 47173 329// /0000 11050 21072 30203 40321 52008 333 21086 3/102
AAXX 19004 47174 12970 02706 11009 21085 30099 40309 52009 69902 333 21033 34102
AAXX 19004 47175 32973 03606 11007 21053 39718 40312 51009 333 21034 34102 92022
AAXX 19004 47185 32675 63215 10067 21030 30213 40305 52011 85500 333 20062 30005 92034
AAXX 19004 47188 32670 20506 10055 21033 30283 40305 52010 82500 333 20017 31002 92022
AAXX 19004 47189 32670 23603 10051 21001 30234 40295 52010 82500 333 20033 30003 92022
AAXX 19004 47192 32965 00000 11002 21062 30269 40308 52011 333 21074 30103
BBXX 3FZK3 19004 99544 71468 46/// /2613 10055 20030 49985 53052 7//// 8//// 22232 0//// 2////
BBXX 46006 19001 99408 71375 46/// /0000 10119 40330 56012 92350 22200 00129 11505 20401 3//// 41505 70024 333 91201 555 11001 22001 32314 42901 62349 139001 141002 343002 300003 033002 292001
BBXX 46026 19001 99378 71228 46/// /3201 10106 40210 56012 92350 22200 00113 11704 20401 328// 41704 70020 333 91203 555 11014 22015 32344 43003 62349 309012 274004 195003 180001 180001 180001
BBXX 46054 19001 99342 71204 46/// /3110 10129 40187 56019 92350 22200 00143 11605 20503 300// 41604 70024 333 91213 555 11110 22116 32331 43113 62349 309102 309109 306106 313102 312099 313098
BBXX CG2958 19004 99507 71275 46/// /3503 10060 20032 40299 53006 7//// 8//// 22200 0//// 2////
BBXX CG2965 19004 99487 71235 46/// /3006 10084 20045 40274 53014 7//// 8//// 22200 0//// 2////
BBXX CGBR 19004 99543 71303 46/// /0402 10029 20027 40252 58008 7//// 8//// 22200 0//// 2////
BBXX CGBY 19004 99487 71235 46/// /3004 10078 20040 40273 53014 7//// 8//// 22200 0//// 2////
BBXX CGDR 19004 99484 71234 46/// /1802 10086 20085 40276 53015 7//// 8//// 22200 0//// 2////
BBXX CGJK 19004 99484 71234 46/// /1702 10079 20054 40274 53015 7//// 8//// 22200 0//// 2////
BBXX DFGX2 19003 99511 71342 41/96 81844 10080 20060 40200 54000 76166 8//// 22224 04080 21410 316// 41209 80070
BBXX LADR4 19004 99310 71464 41899 32924 00/// 10190 20160 40180 53000 70200 87243 22273 00240 20705 3//// 4//// 5//// 6//// 80170
BBXX SHIP 19004 99533 71389 41397 72323 10080 20068 40100 52010 7//22 867// 22224 00070 20405 31621 40606 51008 80 31
AAXX 19004 78397 112570 63205 10270 20193 30130 40146 60001 81808 333 00009 10306 20223 59005 81820 86272
AAXX 19001 26038 21366 61605 10019 20012 39829 49870 51008 70262 86600 333 10025 20009 69937 86707 91010 91110 555 1/002 20009 3/001 50027 52001
AAXX 19001 26045 27481 71605 10019 20008 39897 49899 50006 75185 86/// 333 10035 20020 60007 86/12 91009 91110 555 1/001 20020 3/001 50033
AAXX 19001 26058 27471 71602 10022 20011 39921 49929 52010 75266 87/// 333 10035 20021 69927 87/17 91109 555 1/001 20021 3/001 50032 52002
AAXX 19001 26115 27481 82407 10042 20023 39838 49846 53015 76186 88/// 333 10050 20024 69937 88/13 91010 91111 555 1/003 20024 3/002 50034
AAXX 19001 26135 27364 81804 10012 20005 39823 49897 52012 76166 88/// 333 10020 20004 69967 88/08 91110 555 1/001 20004 3/000 50026 52000
AAXX 19001 26141 21356 81707 10006 21002 39756 49903 51010 78582 889// 333 10024 20006 60007 88907 91009 91111 555 1/000 20006 3/000 50023 52000
AAXX 19001 26231 21356 82010 10026 20016 39875 49890 52014 76162 8872/ 333 10033 20006 60027 88508 91014 91116 555 1/002 20006 3/002 50029
AAXX 19001 26242 21362 81905 10011 21001 39837 49924 52013 76376 8872/ 333 10031 20010 69987 88508 91009 91110 555 1/001 20010 3/001 50027 52000
AAXX 19001 26247 27/63 /2006 10016 20007 39853 49931 52017 75166 333 10024 20015 69957 91012 91112 555 1/001 20015 3/001 50028
AAXX 19001 14240 12660 81901 11004 21007 39991 40151 53001 60001 885//
AAXX 19001 14258 12670 80304 10014 21001 39945 40137 58006 60001 885// 333 88633
AAXX 19001 14445 11570 70807 10059 20040 39917 40073 57020 60041 76096 87800 333 87695 92322
AAXX 19001 26645 41497 72105 10012 21002 39772 40031 52022 70272 875// 333 87615 91111 91010 555 1/000
AAXX 19001 26659 42560 72104 10013 21013 39850 40065 52024 87500 333 87621 91110 555 12001
AAXX 19001 26763 42660 71804 10019 21003 39865 40093 52029 87500 333 87642 91110 555 12001
AAXX 19001 26825 41562 62008 10017 21005 39877 40061 52020 70282 86500 333 86623 91011 91112 555 11000
AAXX 19001 26832 41560 72005 10019 21015 39872 40066 52020 70272 875// 333 87624 91111 555 11001
AAXX 19001 26887 42497 82005 10020 20001 39922 40129 52031 885// 333 88619 555 11002
AAXX 19001 26961 42560 42204 10017 21010 39923 40117 52027 84500 555 11///
AAXX 19001 33027 42997 02204 10013 21016 39974 40144 52026 333 91110 555 14102
AAXX 19004 16622 12660 60000 10060 20015 30160 40171 58002 60001 84550 333 84635 86358 90730 91106 555 40000 47652 44230 50000 50042
AAXX 19004 16641 11460 71015 10106 20049 30115 40120 58007 60071 79596 85970 333 83815 81918 85625 87358 90730 91119 555 40000 47615 44190 50000 50080 60000 60025 60300 70000 77TR/ 7TR//
AAXX 19004 16682 11560 80304 10092 20084 30095 40114 57008 60081 76262 82148 333 82820 87358 88268 90730 91106 555 40000 47602 44200 50000 50088 60000 60080 60100 70000 77R// 7R///
AAXX 19004 16716 NIL
AAXX 19004 16734 17/// /9905 10142 20113 30055 40116 57007 69961 7//4/ 333 90730 91118 555 60000 60001 60020
AAXX 19004 16743 NIL
AAXX 19004 16749 12560 49904 10166 20111 30176 40191 57003 60001 83230 333 83820 84358 90730 91114 555 40000 47665 44215 50000 50136
AAXX 19004 16754 NIL
AAXX 19004 78397 112570 63205 10270 20193 30130 40146 60001 81808 333 00009 10306 20223 59005 81820 86272
BBXX 44060 19001 99413 70721 46/// ///06 11024 40259 51024 90000 22200 00096 333 91208 555 11062 22062
BBXX 44039 19001 99411 70727 46/// /3305 11011 21143 40265 92345 22200 00095 10201 70004 333 91208
AAXX 19001 14241 11910 82702 11014 21018 30015 40150 53002 60001 70242 8807/
AAXX 19001 14284 12980 50705 10020 20008 30042 40153 56006 60001 85050
AAXX 19001 14307 32982 80508 10068 21025 30022 40099 57004 8807/ 333
AAXX 19001 14317 NIL
AAXX 19001 14431 11465 80604 10034 20020 39988 40083 58011 60061 76162 887// 333 84710 88533
AAXX 19001 14444 11565 60805 10080 20045 30047 40076 57025 60031 70169 85830 333
AAXX 19001 14474 11465 81211 10072 20033 39909 40100 58017 60141 76196 8687/
AAXX 19001 14015 11456 83401 11010 21021 39793 40163 54000 60001 71022 886// 333 88713
AAXX 19001 14121 36/// /0000 11002 21009 39880 40153 54000
AAXX 19001 13492 NIL
AAXX 19001 13584 NIL
AAXX 19001 13585 NIL
AAXX 19001 13597 NIL
AAXX 19001 13598 NIL
AAXX 19004 16560 11462 72615 10076 21001 30118 40125 58380 69921 72996 87900 333 83818 81920 85640
AAXX 19004 17022 11560 80704 10099 20077 30045 40211 55005 60011 70262 8552/ 333 85630 88458 91107 92427
AAXX 19004 17031 12670 59902 10073 20065 30229 40235 51009 60001 82101 333 82836 85070
AAXX 19004 17038 12970 32710 10156 21019 30180 40230 53017 60001 83030 333 83360 92428
AAXX 19004 17050 12670 83602 10060 20030 30133 40196 50000 60001 8552/ 333 85635 88460 91108
AAXX 19004 17060 11560 70408 10082 20078 30163 40203 51004 60041 78082 85250 333 85830 86359
AAXX 19004 17096 11902 00000 11186 21197 38332 48605 53006 60001 74842
AAXX 19004 17124 11660 60909 10062 20054 39283 40201 53002 69941 70282 83250 333 83835 85360
AAXX 19004 17128 12670 61902 10070 20038 39123 40217 53007 60001 83130 333 83840 85360
AAXX 19004 17170 NIL
AAXX 19004 17195 11922 00000 11012 21014 39036 48552 52005 60001 71000
AAXX 19004 17199 11558 82102 10019 21007 39196 40325 55001 60001 71022 8562/ 333 82720 84632 88458
AAXX 19004 17219 11565 61915 10157 20097 30025 40168 53003 69901 70282 84250 333 84830 86360 91127
AAXX 19004 17240 11570 51406 10090 20042 39063 40204 53001 69921 70282 83250 333 83830 85360 91120
AAXX 19004 17244 12670 20704 10041 20020 39042 48541 52004 60001 82500 333 82640
AAXX 19004 17280 11428 62702 10022 20020 39498 40311 55000 60001 71011 86600 333 86710
AAXX 19004 17350 12660 70606 10109 20051 30176 40255 58004 60001 83170 333 83835 87360
AAXX 19004 16643 11560 70704 10104 20088 30131 40136 53001 69971 76162 85820 333 82820 84630 87458 90730 91110 555 40000 47630 44220 50000 50096 60000 60007 60100 70000 77R// 7R///
AAXX 19004 16648 11560 70000 10082 20046 30065 40155 58004 69931 76166 85850 333 82820 83630 87358 90730 91106 555 40000 47580 44220 50000 50066 60000 60003 60130 70000 77R// 7R///
AAXX 19004 16650 11560 81010 10100 20084 30151 40155 56002 60011 76162 84478 333 84620 87358 88268 90730 91114 555 40000 47646 44235 50000 50092 60000 60012 60130 70000 77R// 7R///
AAXX 19004 16684 11560 70707 10116 20079 30115 40143 56001 61501 76066 82452 333 82620 86358 86068 90730 91114 555 40000 47618 44220 50000 50098 60000 61000 60132 70000 77R// 7R///
AAXX 19004 16732 NIL
AAXX 19004 17024 1//// /1805 10099 20087 30149 40227 52012 69961
AAXX 19004 17056 11565 70202 10078 20076 30198 40202 52004 60081 78022 85270 333 85828 87358 91110 92437
AAXX 19004 17067 11560 71603 10084 20074 30181 40204 55002 60011 78022 87200 333 87830 91108 92417
AAXX 19004 17092 12660 32601 11070 21070 38966 48580 50003 60001 83500 333 83640
AAXX 19004 17112 1//// /0407 10095 20088 30167 40169 57010 60121
AAXX 19004 17115 11660 70312 10095 20086 30131 40182 55000 60131 78088 84270 333 84835 87360
AAXX 19004 17116 11557 70401 10096 20093 30070 40192 50002 60041 78088 84250 333 84829 87359 91108
AAXX 19004 17188 12660 40502 10085 20036 39136 40188 51004 60001 84200 333 84840 91114
AAXX 19004 17202 12470 62508 11007 21014 39275 40338 50001 60001 86500 333 83715 85630
AAXX 19004 17248 3//// /0600 10012 21001 39040 40254 5//// 60001
AAXX 19004 17292 11570 71504 10108 20090 39446 40198 55001 60021 70282 84270 333 84830 87359 91112
AAXX 19004 17300 11460 71512 10167 20132 30145 40216 55001 60121 78088 87900 333 81915 86825
AAXX 19004 17310 NIL
AAXX 19004 17330 12670 40000 10125 20088 30237 40255 58002 60001 82130 333 82840 84360
AAXX 19004 17042 12970 01409 10154 21060 30195 40234 52013 60001 333 92438
AAXX 19004 17074 1//// /1201 10047 20046 39290 40225 52002 69921
AAXX 19004 17086 12670 30806 10044 21005 39526 40243 51007 60001 83500 333 83635
AAXX 19004 17088 12970 01601 11016 21060 38885 48577 51004 60001
AAXX 19004 17140 3//// /1802 10051 20012 38757 40225 5//// 60001
AAXX 19004 17155 3//// /1603 10076 20044 39076 40187 52003 60001
AAXX 19004 17203 12970 00000 11031 21056 38986 48622 50001 60001
AAXX 19004 17237 12670 40805 10142 20062 39685 40181 53002 60001 84200 333 84835 91112
AAXX 19004 17250 3//// /0200 10013 20004 38862 40256 5//// 60001
AAXX 19004 17270 12970 03003 10052 20009 39631 40291 57005 60001
AAXX 19004 17295 12560 71611 10178 20130 30199 40206 58003 60001 84250 333 84825 86360
AAXX 19004 17320 12670 50710 10161 20113 30238 40243 58003 60001 83250 333 83840 85360 92438
AAXX 19004 17375 1//// /0002 10147 20146 30224 40225 53001 60011
AAXX 19004 17500 NIL
AAXX 19004 17501 12560 41503 10133 20101 30210 40229 55002 60001 84800 333 82825 83630 92437
AAXX 19004 17505 12560 40808 10145 20121 30129 40243 55000 60001 84800 333 82825 83630
AAXX 19004 17507 NIL
AAXX 19004 17510 NIL
AAXX 19004 17515 12560 40408 10137 20103 30079 40256 55001 60001 84800 333 82825 83630
AAXX 19004 17521 11556 40507 10124 20108 30095 40234 53001 60001 71000 84600 333 84720
AAXX 19004 17530 12560 40508 10135 20106 30191 40248 53001 60001 84800 333 82825 83630
AAXX 19004 17535 12560 40308 10141 20104 30192 40228 55003 60001 84800 333 82825 83630
AAXX 19004 17540 NIL
AAXX 19004 17547 NIL
AAXX 19004 17550 12560 40610 10125 20089 30093 40241 56001 60001 84800 333 82825 83630 92447
AAXX 19004 17572 NIL
AAXX 19004 40272 32960 30806 10072 21060 39395 40230 54000 80001 333 83070
AAXX 19004 17026 11570 71506 10113 20102 30194 40233 53001 69961 70262 84570 333 84628 87358 91109 92428
AAXX 19004 17034 12970 02901 10111 20064 30194 40240 52017 60001 333 92428
AAXX 19004 17070 1//// /1901 10056 20055 39342 40217 55000 60021
AAXX 19004 17084 3//// /3002 10061 20033 39328 40235 52008 60001
AAXX 19004 17090 12965 00000 11023 21039 38803 48567 51002 60001
AAXX 19004 17098 12960 00000 11166 21166 38292 48605 53004 60001
AAXX 19004 17150 11456 73001 10099 20092 30056 40180 58003 60191 78088 85250 333 82710 84835 86360 96010
AAXX 19004 17160 3//// /0302 10053 20016 39076 40235 53004 60001
AAXX 19004 17184 1//// /0501 10115 20112 30064 40175 55000 60101
AAXX 19004 17189 12670 41815 10092 20034 39044 48518 53004 60001 84200 333 84835
AAXX 19004 17210 3//// /3500 10020 20015 39244 40313 5//// 60001
AAXX 19004 17234 12670 61101 10157 20094 30118 40185 51001 60001 84250 333 84840 86360 91112
AAXX 19004 17260 12560 33505 10045 20021 39456 40292 55007 60001 83500 333 83630
AAXX 19004 17290 1//// /1613 10173 20104 30155 40187 50002 60021
AAXX 19004 17370 12965 01403 10135 20047 30249 40253 57005 60001 333 92427
AAXX 19004 16614 36/// /9901 10019 21001 39378 40173 57002 333 90730 91104
AAXX 19004 16627 NIL
AAXX 19004 16667 11460 80000 10120 20108 30162 40167 51002 60171 70262 8777/ 333 83714 86625 88358 90730 91107 555 40000 47651 44200 50000 50114 60000 60083 60130 70000 77/// 7R///
AAXX 19004 16675 17/// /2704 10086 20077 30131 40144 57007 60021 7414/ 333 90730 91108 555 60000 60016 60256
AAXX 19004 16710 36/// /9903 10059 20051 39372 40149 57011 333 90730 91106
AAXX 19004 16723 NIL
AAXX 19004 16738 NIL
AAXX 19004 16746 12560 41406 10140 20098 39963 40145 58003 60001 82232 333 82820 84358 90730 91115 555 40000 47503 44195 50000 50118
BBXX BATUK01 19004 99583 70062 44596 42410 10037 21006 40117 58021 70211 8414/ 22200 00105 20402 304// 41002 5////
BBXX 42362 19001 99278 70907 46/// /0807 10183 20083 40254 92345
AAXX 19004 04005 41488 62314 10026 21033 49933 52003 71562 86800 555 3/215
AAXX 19004 04018 42684 72410 10024 21022 49965 58004 81507 555 3//18 81633 87267
AAXX 19004 04030 42680 82002 10018 20002 49970 58005 8652/ 555 3//09 85632 88457
AAXX 19004 04048 42484 82716 10042 21007 49973 57006 70265 8172/ 555 3/520
AAXX 19004 04063 42682 72204 10042 21001 49946 57034 70252 84520 555 3//09
AAXX 19004 04077 NIL
AAXX 19004 04082 NIL
AAXX 19004 04097 42689 31621 10030 20009 49991 57037 82270 555 3/325
AAXX 19003 04013 NIL
AAXX 19003 04064 41410 80905 10006 21010 49979 57037 76376 8272/ 555 3//09
AAXX 1900/ 89872 46/// ///// 11055 39850 4//// 5////
AAXX 1900/ 89869 46/// ///// 11054 39821 4//// 5////
AAXX 1900/ 89329 46/// ///// 11131 38790 4//// 5////
AAXX 1900/ 89799 46/// ///// 11253 4//// 5////
AAXX 1900/ 89332 46/// ///// 11085 39272 4//// 5////
AAXX 1900/ 89828 46/// ///// 11269 36551 4//// 5////
AAXX 1900/ 89108 46/// ///// 11213 36923 4//// 5////
AAXX 1900/ 89314 46/// ///// 11141 38238 4//// 5////
AAXX 19001 13160 32997 00902 10013 20008 30057 40169 54000
AAXX 19001 13262 32698 80000 10015 21019 39991 40143 57009 885//
AAXX 19001 13272 32970 71005 10036 21019 30029 40151 57012 87030 333 87360
AAXX 19001 13285 32998 61403 10017 21009 30064 40169 57007 80006
AAXX 19001 13289 32598 71308 11031 21051 38946 48441 58003 87500 333 91112
AAXX 19001 13376 32999 01204 10025 21015 39886 40155 58015
AAXX 19001 13388 32698 70502 10035 21023 39916 40168 58006 87500
AAXX 19001 13462 11660 73501 10062 20041 30093 40133 57009 69961 70262 84570 333 84640 87458
AAXX 19001 13473 NIL
AAXX 19001 13489 32697 60000 11006 21019 39645 40181 58007 86500
AAXX 19001 33088 32597 32404 10007 21022 39965 40160 52020 83500
AAXX 19001 33177 32997 01503 10007 21022 39910 40152 52017
AAXX 19001 33261 32997 02103 10010 21007 30009 40195 52033
AAXX 19001 33275 32997 21803 11001 21019 39979 40208 52032 82030
AAXX 19001 33301 32997 32106 10006 21033 39885 40173 52019 83030
AAXX 19001 33325 32997 62102 10010 21019 39920 40193 52023 86030
AAXX 19001 33377 32997 02001 10013 21013 30016 40214 52029
AAXX 19001 33415 32997 02303 11016 21053 39786 40197 52020
AAXX 19001 33429 32997 02003 11021 21046 39768 40206 52021
AAXX 19001 33466 32965 01902 10006 21027 30022 40214 52027
AAXX 19001 33526 32960 00000 11057 21068 39846 40202 52024
AAXX 19001 33562 32997 01803 11012 21035 39837 40210 52021
AAXX 19001 33614 32962 02401 10011 21012 30111 40218 52029
AAXX 19001 33761 31996 01501 11006 21012 39991 40221 52019 71011
AAXX 19001 33902 31994 40000 10000 21006 30153 40221 52020 71000 80001
AAXX 19001 33983 /1497 83002 10078 20070 30173 40234 52020 70282 889// 333 85617 555 69931
AAXX 19001 34415 32997 00000 11011 21020 30136 40236 51028
AAXX 19001 34523 32597 80601 10066 20052 30156 40233 52022 885// 333 88623
AAXX 19001 34712 32597 83602 10052 20047 30146 40233 52018 885// 333 88624
AAXX 19004 06030 02975 22810 10027 21003 39976 49992 51003 6///1 80001 333 6///7 82070
AAXX 19004 06060 02570 12913 10025 20009 39954 40020 52009 6///1 81500 333 6///7 81825
AAXX 19004 06070 05/81 02610 10001 21022 39976 40006 52003 6///1 333 6///7
AAXX 19004 06120 36573 12510 10015 20011 39999 40025 52009 333 81/28
AAXX 19004 06180 02980 32511 10021 20007 39998 40005 52008 6///1 80001 333 6///7 83075
AAXX 19004 06193 05/73 02628 10041 20011 39987 49998 52017 6///1 333 55300 20000 6///7
AAXX 19004 16754 12560 31714 10164 20095 30109 40155 58001 60001 81204 333 81820 83068 90730 91123 555 40000 47614 44210 50000 50128
AAXX 19001 26106 41/97 71907 10022 20000 39896 49938 52021 70282 87600 333 91013 91114
AAXX 19001 26313 43/// /2205 10017 20008 39885 49892 52021 333 91110
AAXX 19001 26346 41497 81905 10008 20000 39713 49956 52016 70276 886// 333 88711 91113
AAXX 19001 26406 41497 82207 10018 20001 39926 49932 52022 72582 883// 333 88918 91015 91115
AAXX 19001 26416 43/// /2104 10006 21003 39796 49936 52022 333 91110
AAXX 19001 26424 41/// /2106 10015 20003 39888 49941 52021 7808/ 333 91010 91111
AAXX 19001 26544 41497 82105 10011 20000 39853 40006 52025 78082 889// 333 85916 91113
AAXX 19001 37575 42998 30502 10004 21026 39686 40300 57005 83050 555 14102
AAXX 19001 37675 42495 82502 10030 20003 39613 40286 52005 8802/ 555 12003
AAXX 19001 37735 42996 00000 11014 21026 39857 40248 52020 555 14104
AAXX 19001 37749 42598 63601 10028 20004 30213 40333 52008 86500 555 11002
AAXX 19001 37756 42597 81803 10035 20025 39430 40351 51006 887// 555 11003
AAXX 19001 37864 32997 61405 10073 20053 40308 52009 86070
AAXX 19001 37985 NIL
AAXX 19004 71812 46764 33213 11242 21284 30066 40080 5/028 6///1 333 7////
AAXX 19004 71819 15966 02004 11198 21220 30177 40221 58002 60001 333 11116 21198 70000
AAXX 19004 71820 16/// /1613 11010 21066 30106 40224 58010 60001 333 11010 21118 70000
AAXX 19004 71823 17550 82111 11115 21132 39695 40085 53002 69951 745// 333 11112 21185 70030
AAXX 19004 71824 46/// /2005 11105 21116 6///1 333 11105 21241 7////
AAXX 19004 71826 16/// /1314 11170 21215 39808 49851 56002 60001 333 11164 21206 70003
AAXX 19004 71829 16/// /2304 11129 21157 30056 40226 58007 60001 333 11125 21213 70000
AAXX 19004 71833 46/// /2003 11018 21049 6///1 333 10002 21084 7////
AAXX 19004 71835 16/// /3502 11059 21064 39524 40006 51011 60001 333 11056 21098 70010 555 10020
AAXX 19004 71837 NIL
AAXX 19004 71839 NIL
AAXX 19004 71840 46/// /3415 11012 21020 6///1 333 10033 21032 7////
AAXX 19004 71846 17/// /0806 11097 21104 39709 40028 55000 69951 7//4/ 333 11093 21112 70013 555 10030
AAXX 19004 71847 NIL
AAXX 19004 71848 NIL
AAXX 19004 71849 NIL
AAXX 19004 71603 12974 23607 11036 21079 30148 40202 51011 60001 82070 333 11014 21050 70016
AAXX 19004 71607 16/// /3004 11107 21147 30210 40244 53015 60001 333 11054 21135 70000
AAXX 19004 71609 12674 10114 11085 21143 30089 40229 52011 60001 81500 333 11055 21123 70000
AAXX 19004 71610 15966 01203 11144 21165 39950 40262 51007 60001 333 11087 21175 70000
AAXX 19004 71621 12574 80802 11008 21051 30107 40216 58014 60001 885// 333 11004 21117 79999
AAXX 19004 71623 NIL
AAXX 19004 71624 12674 82206 10003 21042 39989 40205 58009 60001 85521 333 10020 21064 79999
AAXX 19004 71625 16464 81506 11034 21085 30032 40198 58013 60001 333 11033 21167 70000
AAXX 19004 71627 12974 11408 11082 21153 30201 40247 58004 60001 80001 333 11058 21120 70000
AAXX 19004 71628 13760 81407 11066 21134 30082 40229 58015 60001 88500 333 11053 21161 70000
AAXX 19004 71630 NIL
AAXX 19004 71631 16/// /2009 11029 21063 39677 40187 58009 60001 333 11012 21073 70008
AAXX 19004 71633 11574 61814 11010 21050 39896 40172 58013 69901 70272 86500 333 10003 21056 47003 70010 90943
AAXX 19004 71705 11574 83609 11064 21103 30136 40227 53009 69921 78582 885// 333 11054 21112 45001 70012 90937
AAXX 19004 71706 11574 80107 11043 21085 30154 40216 53003 69921 78588 885// 333 11021 21066 45001 70010 90983
AAXX 19004 71707 11674 80212 11026 21101 30116 40194 53005 69941 78582 885// 333 11015 21030 44004 70048 90932
AAXX 19004 71709 12574 30308 11057 21108 30204 40218 53002 60001 83500 333 11042 21065 70012
AAXX 19004 71711 NIL
AAXX 19004 71714 16/// /0000 11149 21168 30175 40272 50002 60001 333 11088 21168 70000
AAXX 19004 71715 16/// /1705 11139 21164 30047 40238 58002 60001 333 11107 21180 70000
AAXX 19004 71718 12983 01508 11141 21171 30170 40239 58005 60001 333 11105 21148 70004
AAXX 19004 71719 16/// /3004 11075 21128 30236 40242 55001 60001 333 11070 21098 70000
AAXX 19004 71001 15966 12106 10008 21079 38938 49885 56042 60001 333 10012 21047 70000
AAXX 19004 71002 15966 02008 11164 21214 39585 40151 57004 60001 333 11161 21256 70000
AAXX 19004 71003 17548 82110 11108 21126 39695 40085 51003 60001 771// 333 11105 21168 70000
AAXX 19004 71005 16/// ///// 11039 21099 60001 333 10003 21042 70000
AAXX 19004 71006 NIL
AAXX 19004 71007 NIL
AAXX 19004 71008 NIL
AAXX 19004 71009 NIL
AAXX 19004 71010 NIL
AAXX 19004 71011 NIL
AAXX 19004 71012 NIL
AAXX 19004 71013 NIL
AAXX 19004 71014 NIL
AAXX 19004 71015 NIL
AAXX 19004 71016 NIL
AAXX 19004 71017 NIL
AAXX 19004 71018 NIL
AAXX 19004 71019 NIL
AAXX 19004 71020 NIL
AAXX 19004 71021 NIL
AAXX 19004 71022 15666 81214 10030 20001 30191 40236 58020 60001 333 10033 21003 70000
AAXX 19004 71023 16964 03006 11073 21111 39412 40196 51027 60001 333 11040 21073 70000
AAXX 19004 71024 16/// /1401 11168 21176 60001 333 11089 21168 70000
AAXX 19004 71026 NIL
AAXX 19004 71027 16/// /3403 11039 21068 30186 40196 50002 60001 333 11019 21040 70025 555 10040
AAXX 19004 71028 16/// /0000 11009 21010 39237 40293 58002 60001 333 10008 21030 70045
AAXX 19004 71029 17/// /0707 11319 21352 30024 40065 58017 69961 7//4/ 333 11311 21336 70006
AAXX 19004 71030 16/64 /0108 11071 21107 30126 40219 51012 60001 333 11043 21094 70000 555 10010
AAXX 19004 71032 46/// /2901 11011 21030 39429 40278 53014 6///1 333 10038 21033 7////
AAXX 19004 71033 46/// /3007 11130 21143 39522 40167 51028 6///1 333 11075 21130 7//// 555 10020
AAXX 19004 71035 NIL
AAXX 19004 71036 15466 83604 11024 21035 39737 40113 53039 60001 333 10016 21029 70000
AAXX 19004 71039 46/// /1115 11016 6///1 333 11014 21250 7////
AAXX 19004 71040 46/// /0201 11182 21204 30003 40215 58012 6///1 333 11119 21250 7////
AAXX 19004 71041 15666 80410 11030 21079 30049 40194 53015 60001 333 11013 21045 70000
AAXX 19004 71042 16/// /2602 10070 20049 30270 40274 53011 60001 333 10079 20056 70034
AAXX 19004 71044 16/// /2506 11266 21295 39641 49973 58033 60001 333 11251 21325 70000
AAXX 19004 71046 460// /1302 11289 39997 40015 58010 6///1 333 11271 21308 7////
AAXX 19004 71047 16/// ///// 11045 21098 60001 333 11006 21054 70004
AAXX 19004 71048 NIL
AAXX 19004 71049 NIL
AAXX 19004 71060 NIL
AAXX 19004 71063 NIL
AAXX 19004 71665 16/// /2612 11165 21213 30078 40088 58004 60001 333 11153 21178 70000
AAXX 19004 71666 16/// /3507 11082 21113 30182 40228 53008 60001 333 11057 21115 70000
AAXX 19004 71667 NIL
AAXX 19004 71668 16/// /0203 11096 21137 30199 40244 53014 60001 333 11065 21140 70000
AAXX 19004 71669 NIL
AAXX 19004 71670 16/// ///// 11117 21134 60001 333 11064 21135 70000
AAXX 19004 71671 17/// /0209 11039 21069 30143 40205 53014 69931 7//4/ 333 11027 21062 70003
AAXX 19004 71672 16/// /1601 11036 21066 39934 40206 58013 60001 333 11013 21136 70000
AAXX 19004 71673 NIL
AAXX 19004 71674 NIL
AAXX 19004 71675 17566 10205 11169 21186 39772 40059 53016 60041 70044 333 11112 21169 70171
AAXX 19004 71679 NIL
AAXX 19004 71680 NIL
AAXX 19004 71681 46/// /0301 10040 21025 6///1 333 10090 20000 7////
AAXX 19004 71682 NIL
AAXX 19004 71683 NIL
AAXX 19004 71684 15466 81510 11039 21052 39818 40124 58026 60001 333 11038 21149 70000
AAXX 19004 71685 15766 60108 10039 21003 39710 40256 53027 60001 333 10050 20002 70058
AAXX 19004 71686 469// /0601 11135 21149 39184 40168 58047 6///1 333 11135 21202
AAXX 19004 71687 16/// /0000 10009 20000 39472 40265 52012 60001 333 10057 20007 70029
AAXX 19004 71688 16/// /0601 11003 21004 39207 40254 52010 60001 333 10042 21007 70106
AAXX 19004 71689 15966 01503 11140 21156 39732 40202 51009 60001 333 11074 21140 70000
AAXX 19004 71690 NIL
AAXX 19004 71691 15566 83204 11126 21145 30203 40232 58007 60001 333 11126 21247 70000
AAXX 19004 71692 NIL
AAXX 19004 71694 16/// /2005 11014 21041 39824 40195 58012 60001 333 11014 21138 70000 555 10010
AAXX 19004 71695 16/// /3105 11061 21077 39782 40120 52029 60001 333 11047 21085 70000
AAXX 19004 71696 16/// /3321 11182 21202 30030 40068 53029 60001 333 11150 21225 70000
AAXX 19004 71697 15666 61903 11003 21030 30032 40207 58009 60001 333 10002 21089 70000
AAXX 19004 71699 16/// /3607 11083 21128 30216 40224 51011 60001 333 11044 21117 70000 555 10010
AAXX 19004 71201 16/// ///// 10072 20045 60001 333 10084 20060 70040
AAXX 19004 71202 16/// ///// 11084 21097 60001 333 11003 21084 70000
AAXX 19004 71203 15966 03602 10003 21020 39744 40273 51024 60001 333 10065 21011 70000
AAXX 19004 71209 46/// /3213 10071 6///1 333 10071 20063 7////
AAXX 19004 71211 46/// /3002 10060 20049 30257 40269 53010 6///1 333 10078 20057 7////
AAXX 19004 71212 16/// /3001 11221 21245 39386 40245 50004 60001 333 11109 21286 70003
AAXX 19004 71213 46/// /1610 11038 21047 39816 40121 58025 6///1 333 11036 21149 7////
AAXX 19004 71214 NIL
AAXX 19004 71215 NIL
AAXX 19004 71216 16/// /0000 10024 20018 39624 40247 51027 60001 333 10048 20012 70016
AAXX 19004 71217 NIL
AAXX 19004 71218 16/// /1802 11005 21012 39837 40273 53019 60001 333 10041 21018 70018
AAXX 19004 71219 46/// /1321 10047 20005 30231 40237 58016 6///1 333 10048 20015 7////
AAXX 19004 71220 46/// /1325 10039 20007 6///1 333 10040 20024 7////
AAXX 19004 71221 NIL
AAXX 19004 71222 16/// /0000 11156 21171 39183 40187 58047 60001 333 11156 21231 70000
AAXX 19004 71223 NIL
AAXX 19004 71224 NIL
AAXX 19004 71225 NIL
AAXX 19004 71226 NIL
AAXX 19004 71227 NIL
AAXX 19004 71228 NIL
AAXX 19004 71229 NIL
AAXX 19004 71230 16/// /2004 11064 21120 39308 40222 58009 60001 333 11024 21127 70000
AAXX 19004 71231 16/// /3304 11005 21030 60001 333 10053 21011 70000
AAXX 19004 71232 17/// /2603 11040 21051 38717 40238 51027 69951 7//4/ 333 10006 21044 70062
AAXX 19004 71233 17/// /2401 11052 21067 60011 7//4/ 333 11005 21052 70051
AAXX 19004 71234 16/// /3606 11005 21037 39040 40245 53028 60001 333 10083 21011 70000
AAXX 19004 71235 16/// /3509 11029 21071 60001 333 10012 21036 70000
AAXX 19004 71236 46/// /1102 11015 21030 6///1 333 10061 21015 7////
AAXX 19004 71237 46/// /3103 11021 21046 39405 40234 53028 6///1 333 10013 21021 7////
AAXX 19004 71238 16/// /2602 11059 21092 60001 333 10005 21059 70007
AAXX 19004 71239 17/// /3608 11011 21019 39638 40100 53044 69931 7//4/ 333 10019 21045 70003 555 10010
AAXX 19004 71240 16/// ///// 11067 21085 39365 40230 52030 60001 333 10003 21067 70000
AAXX 19004 71241 NIL
AAXX 19004 71242 16/// /2706 11115 21124 60001 333 11008 21115 70022 555 10010
AAXX 19004 71243 NIL
AAXX 19004 71244 16/// /3407 11020 21030 38988 40224 53027 60001 333 10066 21020 70000
AAXX 19004 71245 NIL
AAXX 19004 71246 NIL
AAXX 19004 71247 15966 83105 11002 21031 39367 40229 53028 60001 333 10054 21002 70000
AAXX 19004 71248 16/// /2902 11038 21085 38922 40245 51024 60001 333 10000 21039 70015 555 10070
AAXX 19004 71249 NIL
AAXX 19004 71930 12974 02707 11042 21087 39287 40237 52011 60001 333 11005 21043 70061
AAXX 19004 71931 16/// /0213 11055 21095 30179 40191 58003 60001 333 11006 21093 70000
AAXX 19004 71934 11974 01503 11165 21178 39901 40167 50003 69901 72271 333 11126 21200 70004 90983
AAXX 19004 71935 12974 01705 11170 21203 39911 40126 58021 60001 333 11163 21197 79999
AAXX 19004 71936 12774 41605 11176 21202 39852 40123 58018 60001 82570 333 11176 21240 79999
AAXX 19004 71937 NIL
AAXX 19004 71938 11669 10000 11337 21370 30063 40094 58017 69901 77677 81500 333 11297 21347 48024 79999 90983
AAXX 19004 71940 NIL
AAXX 19004 71943 NIL
AAXX 19004 71944 160// ///// 11063 55006 60001 333 11059 21072 70000
AAXX 19004 71945 12974 22104 11173 21222 39668 40157 58030 60001 82071 333 11115 21204 70000
AAXX 19004 71946 12974 31505 11214 21238 39869 40093 58025 60001 80001 333 11205 21265 70000
AAXX 19004 71948 47064 /1015 11262 39922 40039 57028 6///1 745// 333 11262 21285 7////
AAXX 19004 71949 46/// /0904 11133 21149 39150 40043 56063 6///1 333 11105 21246 7////
AAXX 19004 71951 11/10 90302 11019 21024 39998 40271 56005 60001 71042 333 11016 21029 79999
AAXX 19004 71957 46964 00805 11235 21303 39890 49981 58029 6///1 333 11235 21271 7////
AAXX 19004 71964 12580 81420 11008 21069 39141 49989 57060 60001 8857/ 333 11006 21109 70000
AAXX 19004 71966 16/// /0000 11115 21130 39481 49947 56052 60001 333 11112 21248 70000
AAXX 19004 71968 460// /2906 11284 39932 49999 58009 6///1 333 11267 21300 7////
AAXX 19004 71550 NIL
AAXX 19004 71551 NIL
AAXX 19004 71552 46/// /3416 11033 21047 6///1 333 11019 21054 7////
AAXX 19004 71553 NIL
AAXX 19004 71554 16/// /1906 11125 21166 30233 40239 56005 60001 333 11100 21137 70000
AAXX 19004 71555 16/// /0211 11035 21056 38658 40239 53028 60001 333 10047 21035 70018
AAXX 19004 71556 16/// /2909 11048 21070 39561 40174 53031 60001 333 11005 21056 70005
AAXX 19004 71557 46/// /1802 10032 21037 6///1 333 10075 20024 7////
AAXX 19004 71558 46/// ///// 11187 21209 30174 40212 58003 6///1 333 11111 21188 7////
AAXX 19004 71559 46/// /3211 11019 21041 39445 40150 53049 6///1 333 10039 21028 7////
AAXX 19004 71560 16/// /3418 11007 21017 39770 40071 53051 60001 333 10054 21069 70000
AAXX 19004 71563 NIL
AAXX 19004 71564 NIL
AAXX 19004 71565 NIL
AAXX 19004 71566 NIL
AAXX 19004 71567 NIL
AAXX 19004 71568 16/// /3509 10059 20022 30276 40289 53009 60001 333 10070 20058 70078
AAXX 19004 71569 16/// /3011 11043 21059 39452 40161 51040 60001 333 10003 21050 70000
AAXX 19004 71570 17/// /3207 11030 21055 39753 40066 53036 60011 7//4/ 333 11016 21056 70016
AAXX 19004 71571 NIL
AAXX 19004 71572 NIL
AAXX 19004 71573 16/// /2002 10002 21037 39911 40198 56014 60001 333 10010 21048 70004
AAXX 19004 71574 12974 00000 11175 21183 30173 40250 51001 60001 333 11091 21176 79999
AAXX 19004 71575 17/// /2929 11121 21133 39713 49777 55004 69931 7//4/ 333 11120 21189 70003
AAXX 19004 71576 NIL
AAXX 19004 71577 46/// /3417 11035 21061 6///1 333 11006 21056 7////
AAXX 19004 71578 16/// /2504 11110 21164 60001 333 11085 21152 70000
AAXX 19004 71579 17/// /3206 11005 21029 39786 40071 53043 69931 7//4/ 333 10002 21047 70003
AAXX 19004 71580 11532 13122 11277 21320 39947 49984 50002 60001 73800 81500 333 11233 21281 45030 70000
AAXX 19004 71581 NIL
AAXX 19004 71582 17356 81001 10036 20033 30248 40302 53009 60001 761// 333 10042 20034 70008
AAXX 19004 71583 NIL
AAXX 19004 71584 17566 80504 11129 21149 30184 40234 58003 60001 771// 333 11114 21230 70000
AAXX 19004 71585 NIL
AAXX 19004 71586 16/// /3006 11095 21110 39694 40167 52034 60001 333 11027 21095 70000
AAXX 19004 71587 NIL
AAXX 19004 71588 16/// /0702 11152 21165 60001 333 11071 21152 70000
AAXX 19004 71589 16/// /3607 11070 21106 30059 40196 55006 60001 333 11056 21103 70000
AAXX 19004 71590 16/// /3302 11198 21219 30049 40253 51006 60001 333 11103 21243 70000 555 10010
AAXX 19004 71592 NIL
AAXX 19004 71593 NIL
AAXX 19004 71596 NIL
AAXX 19004 71598 16/64 /3103 11098 21135 30236 40242 55002 60001 333 11075 21099 70000
AAXX 19004 71599 16/// /0303 11041 21061 39999 40207 53013 60001 333 11029 21071 70006 555 10020
AAXX 19004 71744 NIL
AAXX 19004 71750 16/// /2011 10021 21007 39774 40007 58033 60001 333 10021 21045 70004
AAXX 19004 71751 NIL
AAXX 19004 71752 NIL
AAXX 19004 71753 16/// /0109 11034 21059 30162 40192 53016 60001 333 11012 21053 70000
AAXX 19004 71754 16/// /3010 11042 21096 39524 40198 53029 60001 333 11009 21043 70003 555 10020
AAXX 19004 71755 43/// /0104 11107 21121 39702 40052 53028 6///1 333 11097 21133 7////
AAXX 19004 71756 16/// /0000 11004 21007 39154 40261 51005 60001 333 10045 21004 70030
AAXX 19004 71758 NIL
AAXX 19004 71760 NIL
AAXX 19004 71761 NIL
AAXX 19004 71762 NIL
AAXX 19004 71763 NIL
AAXX 19004 71765 16/// /1503 10031 20018 39993 40271 51013 60001 333 10064 20025 70000
AAXX 19004 71766 16/// /3103 10067 20028 30199 40271 53007 60001 333 10086 20050 70018
AAXX 19004 71767 16/// /2012 10008 21035 39893 40157 58019 60001 333 10008 21059 70070 555 10080
AAXX 19004 71768 46/// /2906 10021 21034 39713 40271 53021 6///1 333 10072 21011 7////
AAXX 19004 71769 16/// /3012 10071 20030 30251 40267 53010 60001 333 10076 20068 70016
AAXX 19004 71770 16/// /2803 10035 20014 39442 40221 53019 60001 333 10061 21009 70000
AAXX 19004 71771 NIL
AAXX 19004 71772 16/// /3214 10073 20041 30258 40264 53010 60001 333 10082 20069 70006
AAXX 19004 71773 16/// /1610 11007 21060 39139 49988 56058 60001 333 11006 21094 70000
AAXX 19004 71774 46/// ///// 10042 6///1 333 10060 20041 7////
AAXX 19004 71775 46/// /1601 10068 20057 30268 40274 51011 6///1 333 10071 20052 7////
AAXX 19004 71776 46/// /2105 10021 20003 39583 40232 53024 6///1 333 10048 20015 7////
AAXX 19004 71777 16/// ///// 11005 21006 30022 40279 52006 60001 333 10015 21005 70063
AAXX 19004 71778 46/// /1209 6///1 333 7////
AAXX 19004 71779 16/// /2401 11013 21013 39609 40283 55000 60001 333 10006 21018 70050
AAXX 19004 71780 16/// /1005 10077 20056 30251 40279 53011 60001 333 10078 20065 70060
AAXX 19004 71781 46/// /3312 10072 20022 30245 40270 53009 6///1 333 10077 20066 7////
AAXX 19004 71782 46/// /0000 11002 21004 38884 40217 51035 6///1 333 10047 21003 7////
AAXX 19004 71783 NIL
AAXX 19004 71784 16/// /0000 10065 20048 30058 40265 53008 60001 333 10077 20050 70034
AAXX 19004 71785 16/// /2501 10078 20063 30261 40277 51009 60001 333 10083 20065 70068
AAXX 19004 71786 46/// /2606 11041 21050 38382 40231 51022 6///1 333 11007 21041 7////
AAXX 19004 71787 16/// /3407 11106 21117 39712 40220 53011 60001 333 11079 21152 70019
AAXX 19004 71788 NIL
AAXX 19004 71789 NIL
AAXX 19004 71791 NIL
AAXX 19004 71792 NIL
AAXX 19004 71793 NIL
AAXX 19004 71794 NIL
AAXX 19004 71795 NIL
AAXX 19004 71796 NIL
AAXX 19004 71797 NIL
AAXX 19004 71900 46/// /23// 11146 21186 30106 40119 58002 6///1 333 11145 21179 7////
AAXX 19004 71903 NIL
AAXX 19004 71904 NIL
AAXX 19004 71914 16/// /2602 10047 20020 30053 40277 53015 60001 333 10061 20047 70034
AAXX 19004 71916 NIL
AAXX 19004 71918 460// ///// 11263 6///1 333 7////
AAXX 19004 71920 NIL
AAXX 19004 71921 NIL
AAXX 19004 71923 NIL
AAXX 19004 71927 16/// /3502 10063 20031 30215 40273 52012 60001 333 10102 20040 70003
AAXX 19004 71941 17366 81812 11066 21076 39726 40155 58015 60001 771// 333 11066 21201 70000
AAXX 19004 71947 15666 81808 11082 21089 39764 40119 58018 60001 333 11081 21167 70000
AAXX 19004 71950 15466 61604 11040 21051 39620 40265 56006 60001 333 11032 21045 70000
AAXX 19004 71952 16/// /1902 11053 21060 39392 40263 55005 60001 333 11037 21056 70000
AAXX 19004 71954 NIL
AAXX 19004 71956 NIL
AAXX 19004 71959 NIL
AAXX 19004 71960 460// /0609 11222 39878 40014 56026 6///1 333 11219 21288 7////
AAXX 19004 71962 16/// /2706 10002 21031 39597 40018 53017 60001 333 10033 21064 70000
AAXX 19004 71963 NIL
AAXX 19004 71967 16/// /1404 11117 21140 30155 40265 58003 60001 333 11075 21142 70000
AAXX 19004 71970 NIL
AAXX 19004 71971 16/// /0502 11286 21313 39881 49928 53006 60001 333 11273 21297 70000
AAXX 19004 71972 460// ///// 11152 39447 49913 58012 6///1 333 11150 21169 7////
AAXX 19004 71973 46/// /0901 11134 21150 30029 40224 50002 6///1 333 11068 21134 7////
AAXX 19004 71974 NIL
AAXX 19004 71975 460// /1809 11188 39143 49875 53005 6///1 333 11188 21225 7////
AAXX 19004 71976 NIL
AAXX 19004 71977 NIL
AAXX 19004 71978 NIL
AAXX 19004 71979 NIL
AAXX 19004 71980 46/// /0000 11308 21344 6///1 333 7////
AAXX 19004 71981 NIL
AAXX 19004 71982 NIL
AAXX 19004 71983 NIL
AAXX 19004 71984 16/// /0907 11215 21236 30024 40033 57031 60001 333 11214 21323 70000
AAXX 19004 71985 NIL
AAXX 19004 71986 NIL
AAXX 19004 71987 16/// /0112 11061 21108 30216 40226 51005 60001 333 11046 21065 70000
AAXX 19004 71988 NIL
AAXX 19004 71989 NIL
AAXX 19004 71990 NIL
AAXX 19004 71999 46/// ///// 10015 6///1 333 10087 20012 7////
AAXX 19004 71914 46/// /2602 10047 20020 30053 6///1 333 20051 7////
AAXX 19004 71051 NIL
AAXX 19004 71055 NIL
AAXX 19004 71057 NIL
AAXX 19004 71059 460// ///// 11250 39960 40054 58029 6///1 333 11246 21300 7////
AAXX 19004 71061 16/// /2605 11027 21052 39423 40216 51011 60001 333 11004 21033 70017
AAXX 19004 71062 46/// /2805 11051 21072 39134 40224 51017 6///1 333 11007 21051 7//// 555 10060
AAXX 19004 71064 460// /3007 11318 39873 40101 58007 6///1 333 11304 21336 7////
AAXX 19004 71065 NIL
AAXX 19004 71067 NIL
AAXX 19004 71070 NIL
AAXX 19004 71073 NIL
AAXX 19004 71074 NIL
AAXX 19004 71075 16/// /3006 11134 21150 39525 40146 53025 60001 333 11115 21143 70000
AAXX 19004 71078 15966 03108 11146 21162 39681 40137 53038 60001 333 11110 21147 70008
AAXX 19004 71084 460// ///// 11324 30020 40070 50001 6///1 333 11298 21324 7////
AAXX 19004 71085 17464 81804 11017 21017 38839 40228 53022 60011 7714/ 333 10074 21017 70018
AAXX 19004 71087 NIL
AAXX 19004 71088 460// /0708 11170 53016 6///1 333 11112 21170 7////
AAXX 19004 71089 NIL
AAXX 19004 71096 460// ///// 11222 39106 49839 53010 6///1 333 11191 21229 7////
AAXX 19004 71097 47430 62419 11156 39416 49891 58002 6///1 745// 333 11156 21193 7////
AAXX 19004 71098 43/// /3408 11084 21096 39692 40056 51035 6///1 333 11076 21111 7////
AAXX 19004 71099 43/// /1804 11263 21302 30053 40074 53002 6///1 333 11195 21267 7////
AAXX 19004 71300 NIL
AAXX 19004 71301 16/// ///// 11047 21050 39701 40106 58027 60001 333 11045 21143 70000
AAXX 19004 71302 NIL
AAXX 19004 71303 46/// ///// 10027 21011 6///1 333 10032 20002 7////
AAXX 19004 71305 15266 82405 11125 21133 39884 40184 51008 60001 333 11120 21150 70000
AAXX 19004 71306 17548 62719 11120 21146 30004 40037 51002 60001 771// 333 11115 21140 70000
AAXX 19004 71307 NIL
AAXX 19004 71308 17/// /0607 11023 21065 30115 40201 53018 69931 7//4/ 333 11008 21035 70003
AAXX 19004 71309 NIL
AAXX 19004 71310 16/// /0410 11040 21079 30171 40209 52005 60001 333 11029 21052 70000
AAXX 19004 71311 NIL
AAXX 19004 71312 16/// /3010 11054 21091 39688 40151 53038 60001 333 11007 21059 70000
AAXX 19004 71314 16/// /1905 11016 21040 39832 40191 58010 60001 333 11012 21111 70000
AAXX 19004 71315 16/// /0000 11182 21206 30198 40255 53002 60001 333 11101 21211 70000
AAXX 19004 71316 16/// /2706 11063 21113 39516 40213 51023 60001 333 11017 21068 70000
AAXX 19004 71317 NIL
AAXX 19004 71318 16/// /3008 11079 21103 39267 40234 53028 60001 333 11001 21083 70000 555 10040
AAXX 19004 71319 NIL
AAXX 19004 71320 NIL
AAXX 19004 71321 NIL
AAXX 19004 71322 NIL
AAXX 19004 71323 NIL
AAXX 19004 71331 NIL
AAXX 19004 71332 NIL
AAXX 19004 71334 46/// /3309 11197 21229 39786 40129 51037 6///1 333 11156 21224 7////
AAXX 19004 71335 46964 02508 11175 53005 6///1 333 11174 21196 7////
AAXX 19004 71336 46/// ///21 11027 21041 30144 40166 55008 6///1 333 11021 21051 7////
AAXX 19004 71337 46/// /3202 11110 21133 39971 40217 51011 6///1 333 11080 21110 7////
AAXX 19004 71338 46928 31203 11231 21263 39844 49851 51011 6///1 333 11141 21233 7////
AAXX 19004 71339 16964 02203 11170 21240 30194 40209 50001 60001 333 11124 21201 70005
AAXX 19004 71340 NIL
AAXX 19004 71341 NIL
AAXX 19004 71342 NIL
AAXX 19004 71343 NIL
AAXX 19004 71344 NIL
AAXX 19004 71345 NIL
AAXX 19004 71346 NIL
AAXX 19004 71347 NIL
AAXX 19004 71348 NIL
AAXX 19004 71349 NIL
AAXX 19004 71700 15666 30305 11102 21137 30219 40246 53014 60001 333 11061 21137 70000
AAXX 19004 71701 12574 70000 11099 21145 30180 40245 52014 60001 83570 333 11065 21141 70000
AAXX 19004 71702 16/// /0212 11052 21103 30202 40218 53011 60001 333 11031 21076 70000 555 10010
AAXX 19004 71703 NIL
AAXX 19004 71704 15966 82011 10010 21017 39968 40192 56016 60001 333 10013 21026 70011
AAXX 19004 71710 NIL
AAXX 19004 71712 16/// /1202 11085 21119 30177 40242 58009 60001 333 11049 21145 70000
AAXX 19004 71713 16/// /2008 11096 21152 60001 333 11086 21164 70000
AAXX 19004 71716 NIL
AAXX 19004 71717 NIL
AAXX 19004 71720 16/// /1601 10055 20044 30124 40279 53010 60001 333 10062 20055 70035
AAXX 19004 71721 16/// /1812 11067 21113 39956 40212 57010 60001 333 11059 21191 70000
AAXX 19004 71723 NIL
AAXX 19004 71724 16/// /1710 11083 21125 30240 40248 58004 60001 333 11075 21142 70000
AAXX 19004 71732 16/// /1507 11025 21041 60001 333 11024 21135 70000
AAXX 19004 71733 16/// /1812 11023 21039 39701 40137 56023 60001 333 11023 21124 70000
AAXX 19004 71734 16/// /1709 11053 21069 39723 40122 58026 60001 333 11052 21167 70000
AAXX 19004 71736 NIL
AAXX 19004 71737 NIL
AAXX 19004 71741 16/// /2204 10035 21045 39847 40273 51011 60001 333 10072 20010 70000
AAXX 19004 71742 NIL
AAXX 19004 71743 NIL
AAXX 19004 71744 NIL
AAXX 19004 71745 NIL
AAXX 19004 71746 NIL
AAXX 19004 71747 NIL
AAXX 19004 71748 NIL
AAXX 19004 71350 16/// /3612 11047 21084 30143 40210 53005 60001 333 11028 21057 70000
AAXX 19004 71351 NIL
AAXX 19004 71352 16/// /1906 11028 21054 39733 40198 58010 60001 333 11009 21075 70025
AAXX 19004 71353 NIL
AAXX 19004 71354 NIL
AAXX 19004 71355 16/// /2806 11302 21334 39911 40000 51004 60001 333 11297 21360 70000
AAXX 19004 71356 NIL
AAXX 19004 71357 NIL
AAXX 19004 71358 17/// /1607 11242 21267 39798 49833 51045 69931 7//4/ 333 11162 21263 70093 555 10080
AAXX 19004 71359 NIL
AAXX 19004 71360 NIL
AAXX 19004 71361 NIL
AAXX 19004 71362 NIL
AAXX 19004 71363 NIL
AAXX 19004 71364 NIL
AAXX 19004 71365 NIL
AAXX 19004 71368 15966 81705 11018 21046 39806 40205 56010 60001 333 10004 21079 70003
AAXX 19004 71369 15966 03208 11051 21072 39505 40222 51015 60001 333 11002 21051 70000
AAXX 19004 71370 46/// /1305 11113 21138 30094 40237 58004 6///1 333 11087 21169 7////
AAXX 19004 71371 15966 01506 11100 21145 30215 40251 58002 60001 333 11070 21133 70000
AAXX 19004 71372 NIL
AAXX 19004 71373 16/// /1508 11105 21173 60001 333 11068 21178 70000
AAXX 19004 71374 NIL
AAXX 19004 71375 NIL
AAXX 19004 71376 NIL
AAXX 19004 71377 16/// /1405 11074 21126 30191 40241 58006 60001 333 11060 21129 70000
AAXX 19004 71378 16/// /1607 11112 21179 30009 40228 58005 60001 333 11086 21213 70000
AAXX 19004 71379 16/// /1308 11105 21157 39994 40174 58019 60001 333 11105 21317 70000
AAXX 19004 71380 NIL
AAXX 19004 71381 NIL
AAXX 19004 71382 NIL
AAXX 19004 71383 NIL
AAXX 19004 71384 NIL
AAXX 19004 71385 NIL
AAXX 19004 71386 16/// /1403 11193 21218 30022 40239 50002 60001 333 11117 21194 70000
AAXX 19004 71387 NIL
AAXX 19004 71388 NIL
AAXX 19004 71389 NIL
AAXX 19004 71390 NIL
AAXX 19004 71391 16/// ///// 11074 21129 60001 333 11073 21154 70000
AAXX 19004 71392 16/// /2401 11115 21164 60001 333 11088 21168 70000
AAXX 19004 71393 NIL
AAXX 19004 71395 11474 80211 11038 21069 30014 40197 53017 69901 78581 885// 333 11019 21067 45997 79999 90927
AAXX 19004 71398 17558 81205 11078 21085 30066 40078 58029 60001 771// 333 11069 21084 70000
AAXX 19004 71399 NIL
AAXX 19004 71500 NIL
AAXX 19004 71501 NIL
AAXX 19004 71502 NIL
AAXX 19004 71503 NIL
AAXX 19004 71504 NIL
AAXX 19004 71505 NIL
AAXX 19004 71506 NIL
AAXX 19004 71507 16/// /2406 11090 21138 60001 333 11054 21127 70004
AAXX 19004 71508 16/// ///// 10015 21027 30070 40210 58009 60001 333 10020 21052 70000
AAXX 19004 71509 NIL
AAXX 19004 71511 NIL
AAXX 19004 71512 16/// /3403 11123 21139 30218 40233 58003 60001 333 11099 21258 70000
AAXX 19004 71513 15966 03603 11159 21191 30224 40240 56003 60001 333 11136 21209 70000
AAXX 19004 71514 NIL
AAXX 19004 71515 17/// /3213 11056 21071 39452 40164 53044 60021 7//4/ 333 11008 21058 70024
AAXX 19004 71516 NIL
AAXX 19004 71517 NIL
AAXX 19004 71518 NIL
AAXX 19004 71519 NIL
AAXX 19004 71520 NIL
AAXX 19004 71521 NIL
AAXX 19004 71522 NIL
AAXX 19004 71523 NIL
AAXX 19004 71524 16/// /1606 11096 21138 30229 40257 58003 60001 333 11074 21141 70000
AAXX 19004 71525 NIL
AAXX 19004 71526 NIL
AAXX 19004 71527 17359 82806 11021 21022 39510 40016 50013 60011 7714/ 333 11017 21063 70013
AAXX 19004 71528 NIL
AAXX 19004 71529 46/// /2204 11173 21201 39906 40142 58001 6///1 333 11169 21211 7////
AAXX 19004 71532 15666 81807 11019 21035 39835 40188 58011 60001 333 11017 21125 70000
AAXX 19004 71534 16564 81808 11014 21046 39916 40193 58011 60001 333 11007 21164 70000
AAXX 19004 71535 NIL
AAXX 19004 71536 NIL
AAXX 19004 71537 NIL
AAXX 19004 71539 NIL
AAXX 19004 71540 NIL
AAXX 19004 71541 NIL
AAXX 19004 71542 16/// /2305 11075 21132 60001 333 11048 21138 70000
AAXX 19004 71543 NIL
AAXX 19004 71544 NIL
AAXX 19004 71545 16/// ///// 11050 21109 60001 333 11004 21050 70005
AAXX 19004 71546 NIL
AAXX 19004 71547 NIL
AAXX 19004 71548 NIL
AAXX 19004 71549 NIL
AAXX 19004 71893 12580 43204 10058 20019 30247 40279 53011 60001 83501 333 10082 20050 70006
AAXX 19004 71894 16/// /2915 10072 20056 30263 40272 53014 60001 333 10080 20037 70114
AAXX 19004 71896 15966 01804 11038 21042 39424 40274 58005 60001 333 11011 21080 70018
AAXX 19004 71897 12474 80905 10045 20018 3//// 4//// 57010 60001 888XX 333 10056 20032 70008
AAXX 19004 71898 160// ///// 10035 58021 69951 333 10035 21008 70005
AAXX 19004 71899 11274 81606 10046 20027 3//// 4//// 57027 69901 76022 888// 333 10054 20033 79999 90910
AAXX 19004 71902 12974 02607 11166 21226 30083 40092 56005 60001 333 11148 21179 70000
AAXX 19004 71905 NIL
AAXX 19004 71906 11974 02412 11178 21213 39993 40044 51008 69901 77671 333 11150 21198 48015 79999 90942
AAXX 19004 71907 16440 82718 11141 21164 30005 40038 51001 60001 333 11138 21166 70005
AAXX 19004 71909 16964 02014 11129 21185 39807 49850 58003 60001 333 11127 21223 70000
AAXX 19004 71910 47002 92731 11122 21129 39725 49787 55002 6///1 745// 333 11120 21190 7////
AAXX 19004 71911 46537 82915 11277 39943 40001 50009 6///1 333 11261 21279 7////
AAXX 19004 71912 11574 82907 11143 21171 39897 40086 53001 69901 77171 885// 333 11141 21225 48014 70006 90917
AAXX 19004 71915 NIL
AAXX 19004 71917 11974 00000 11396 21434 39973 49988 51006 69901 77677 333 11394 21425 43013 79999 90983
AAXX 19004 71922 11462 82912 11094 21109 39696 40170 52036 69921 77111 885// 333 11007 21094 47033 70008 90942
AAXX 19004 71924 11262 63322 11317 21362 39889 49982 51003 69901 77677 84530 333 11298 21321 48038 79999 90983
AAXX 19004 71925 11474 13007 11348 21395 30054 40098 58006 69901 77677 81500 333 11325 21348 42021 79999 90983
AAXX 19004 71926 11606 63337 11282 21336 30036 40061 55003 69901 77671 86500 333 11251 21282 46043 79999 90963
AAXX 19004 71928 16/// /3006 11065 21091 39063 40251 52020 60001 333 11007 21068 70028 555 10050
AAXX 19004 71250 NIL
AAXX 19004 71251 16/// /3104 10001 21019 39307 40242 53028 60001 333 10063 21010 70000
AAXX 19004 71252 NIL
AAXX 19004 71253 46/// /0000 11215 21234 6///1 333 11168 21247 7////
AAXX 19004 71254 16/// /2809 11075 21075 60001 333 11007 21075 70000
AAXX 19004 71255 17/// /1503 11152 21170 69971 7//4/ 333 11104 21152 70010
AAXX 19004 71256 46/// /2705 11041 21060 39282 40234 51011 6///1 333 11004 21042 7////
AAXX 19004 71257 NIL
AAXX 19004 71258 NIL
AAXX 19004 71259 NIL
AAXX 19004 71261 16/// /1709 11006 21044 39916 40180 58011 60001 333 10007 21041 70044 555 10060
AAXX 19004 71263 11560 62005 11010 21042 39917 40213 56008 69921 70282 86501 333 10006 21070 4-9000 70014 909/5
AAXX 19004 71264 16/// /0210 11025 21055 30159 40191 53016 60001 333 11008 21047 70000
AAXX 19004 71265 15666 82313 10017 21040 30112 40208 58009 60001 333 10022 21047 70000
AAXX 19004 71266 NIL
AAXX 19004 71267 15566 83103 11001 21011 39138 40240 53026 60001 333 10091 21016 70003
AAXX 19004 71268 NIL
AAXX 19004 71269 NIL
AAXX 19004 71270 NIL
AAXX 19004 71271 16/// ///// 11041 21118 60001 333 11005 21047 70000
AAXX 19004 71272 15966 83310 11196 21221 39760 40128 51037 60001 333 11153 21217 70000
AAXX 19004 71273 16/// /2905 11049 21106 39522 40192 53035 60001 333 11009 21049 70000
AAXX 19004 71274 NIL
AAXX 19004 71275 NIL
AAXX 19004 71276 NIL
AAXX 19004 71277 NIL
AAXX 19004 71278 NIL
AAXX 19004 71279 16/// /0203 11194 21216 30161 40231 50000 60001 333 11125 21273 70000
AAXX 19004 71281 NIL
AAXX 19004 71282 46/// /1916 10000 21008 39924 40200 58010 6///1 333 10003 21089 7////
AAXX 19004 71283 NIL
AAXX 19004 71284 16/// ///// 11061 21076 60001 333 11014 21063 70014
AAXX 19004 71285 NIL
AAXX 19004 71286 NIL
AAXX 19004 71287 NIL
AAXX 19004 71288 NIL
AAXX 19004 71289 NIL
AAXX 19004 71290 15466 81707 11060 21072 39424 40278 56006 60001 333 11055 21070 70000
AAXX 19004 71291 16/// /1703 11004 21017 39711 40000 56017 60001 333 11004 21057 70000
AAXX 19004 71292 15566 33014 11031 21053 39528 40141 51038 60001 333 10000 21059 70008
AAXX 19004 71294 16/// /1803 11043 21067 39788 40205 58010 60001 333 11043 70000 555 10010
AAXX 19004 71295 NIL
AAXX 19004 71296 NIL
AAXX 19004 71297 16/// /2801 10000 21029 60001 333 10018 21074 70000
AAXX 19004 71298 16/// /2109 10019 21010 39967 40202 56012 60001 333 10026 21009 70000
AAXX 19004 71299 NIL
AAXX 19004 71114 160// /0904 10038 20035 30223 40272 50015 69951 333 10065 20033 70205
AAXX 19004 71120 12974 12706 11063 21120 39538 40208 52028 60001 81070 333 11023 21079 70000
AAXX 19004 71122 17/// /0505 11031 21046 38608 40228 53023 60011 7//4/ 333 10015 7//// 555 10150
AAXX 19004 71123 12674 22507 11105 21110 39357 40246 52021 60001 81501 333 11012 21108 70028
AAXX 19004 71125 12574 12608 11102 21128 39597 40196 51035 60001 81500 333 70000
AAXX 19004 71129 12874 13106 11055 21084 39368 40214 53027 60001 81070 333 11002 21061 70006
AAXX 19004 71131 16/// /3210 11041 21061 38937 40206 51036 60001 333 10017 21042 70000
AAXX 19004 71135 16/// /3417 11037 21060 39088 40180 52034 60001 333 10045 21039 70000
AAXX 19004 71137 NIL
AAXX 19004 71140 11474 83312 11002 21010 39610 40115 5/043 60021 70272 885// 333 10003 21104 42002 70016 90922 93102
AAXX 19004 71145 11274 83408 11104 21117 39783 40082 52038 69901 77177 885// 333 11087 21106 48039 70018 90983
AAXX 19004 71148 NIL
AAXX 19004 71185 16964 00000 11129 30205 40230 53007 60001 333 11083 21132 70000
AAXX 19004 71188 12574 22702 11177 21210 30198 40243 58001 60001 82500 333 11083 21182 79999
AAXX 19004 71200 16/// /3604 10064 20040 60001 333 10083 20058 70038
AAXX 19004 71207 16/// /0102 10030 30202 40267 53012 60001 333 10085 20011 70048
AAXX 19004 71260 13/// ///// 10001 21028 39859 40097 58030 60001 333 10005 21043 70003
AAXX 19004 71397 11462 80409 11035 21060 30178 40214 52013 69901 78588 885// 333 11020 21058 45997 79999 90973
AAXX 19004 71400 NIL
AAXX 19004 71403 46/// /0317 11007 21026 30164 40184 53017 6///1 333 10005 21025 7////
AAXX 19004 71411 16/// /3610 11021 21044 30181 40194 53015 60001 333 11007 21044 70012
AAXX 19004 71412 16/// /0316 11029 21073 30192 40202 51009 60001 333 11014 21034 70000
AAXX 19004 71421 NIL
AAXX 19004 71430 16/// /1819 10017 21021 30116 40215 58013 60001 333 10017 21100 70010
AAXX 19004 71431 16/// /1905 10015 21023 30103 40201 58013 60001 333 10015 21086 70000
AAXX 19004 71432 NIL
AAXX 19004 71433 NIL
AAXX 19004 71435 NIL
AAXX 19004 71441 46/// /3519 11006 21024 39766 40076 53049 6///1 333 10055 21076 7////
AAXX 19004 71443 16/// /3013 11010 21065 39708 40122 53036 60001 333 10006 21076 70000
AAXX 19004 71444 NIL
AAXX 19004 71447 16/// /3317 10001 21016 39572 40121 51047 60001 333 10016 21056 70000
AAXX 19004 71467 16/// /1003 11275 21301 39934 40053 58020 60001 333 11269 21278 70000 555 10010
AAXX 19004 71472 NIL
AAXX 19004 71474 16964 03204 11037 21067 39019 40278 51005 60001 333 10015 21037 70020
AAXX 19004 71510 16/// /2906 11060 21091 39475 40195 51028 60001 333 10003 21079 70007
AAXX 19004 71538 12962 72111 10021 21014 39968 40202 55011 60001 87070 333 10029 21010 79999
AAXX 19004 71600 16564 80326 10015 21029 30134 40140 50005 60001 333 10041 20013 70005
AAXX 19004 71601 NIL
AAXX 19004 71102 NIL
AAXX 19004 71105 NIL
AAXX 19004 71107 NIL
AAXX 19004 71110 NIL
AAXX 19004 71111 15966 81609 10044 20019 30218 40226 58011 60001 333 10049 21006 70000
AAXX 19004 71112 16/// ///// 60001 333 70038
AAXX 19004 71113 16/// /1903 10070 20059 30243 40267 51016 60001 333 10088 20052 70146
AAXX 19004 71115 17/// /0803 11011 21032 39678 40270 53021 69931 7//4/ 333 10054 21015 70006
AAXX 19004 71116 17/// /3205 11018 21038 39124 40231 53031 69971 7//4/ 333 10074 21018 70007
AAXX 19004 71118 16/// /2913 11039 21098 39379 40218 51026 60001 333 10005 21040 70000
AAXX 19004 71121 16964 02707 11076 21136 39393 40234 51020 60001 333 11009 21076 70005
AAXX 19004 71127 17/// /2808 11040 21048 39305 40233 51018 60011 7//4/ 333 11005 21040 70028 555 10040
AAXX 19004 71130 15566 62711 11053 21089 39689 40152 53037 60001 333 11007 21056 70000
AAXX 19004 71132 17466 82902 11131 21146 39839 40161 53018 60001 771// 333 11116 21151 70000
AAXX 19004 71133 NIL
AAXX 19004 71139 NIL
AAXX 19004 71141 NIL
AAXX 19004 71142 15766 82509 11042 21059 39223 40203 51034 60001 333 10036 21044 70000
AAXX 19004 71143 NIL
AAXX 19004 71144 NIL
AAXX 19004 71147 NIL
AAXX 19004 71149 17/// /3507 11025 21044 69961 7//4/ 333 10011 21025 70006
AAXX 19004 71726 16/// /2004 11099 21138 39629 40197 56010 60001 333 11094 21283 70041
AAXX 19004 71727 12974 01305 11150 21184 30015 40224 58010 60001 333 11115 21239 70000
AAXX 19004 71728 12782 81103 11099 21169 39967 40198 57018 60001 885// 333 11089 21214 70000
AAXX 19004 71730 11574 81814 11024 21040 39708 40140 57023 69901 70272 8657/ 333 11024 21127 46997 79999 90923
AAXX 19004 71731 11474 81909 11038 21050 39697 40159 58020 69921 77175 888// 333 11038 21137 46002 70012 90973
AAXX 19004 71735 NIL
AAXX 19004 71738 11474 82011 10000 21023 39692 40046 57041 69901 70377 8357/ 333 10001 21058 47030 70064 90923
AAXX 19004 71739 41469 81810 11036 21052 39705 40072 58041 6//// 70272 885// 333 11035 21118 4//// 7//// 90937
AAXX 19004 71749 16964 03002 11018 21039 39759 40005 55017 69951 333 10012 21051 70005
AAXX 19004 71799 12683 12504 10068 20032 30249 40273 51012 60001 81501 333 10096 20042 70011
AAXX 19004 71800 16/// /0432 11002 21004 30099 40132 58012 60001 333 10007 21043 70000
AAXX 19004 71801 11359 80516 11035 21044 39997 40174 55010 60041 77177 885// 333 11035 21052 42006 70050 90973 93105
AAXX 19004 71803 11580 80108 11082 21126 30022 40215 53001 69901 70282 8257/ 333 11060 21101 41997 79999 90926
AAXX 19004 71807 NIL
AAXX 19004 71808 12974 03408 11162 21229 30174 40223 58004 60001 333 11129 21198 70000
AAXX 19004 71809 12574 20802 11147 21160 30207 40235 53004 60001 81501 333 11062 21147 79999
AAXX 19004 71810 16/// /0702 11105 21128 30159 40229 58003 60001 333 11097 21208 70003
AAXX 19004 71811 NIL
AAXX 19004 71813 NIL
AAXX 19004 71814 16/// /3202 11172 21193 30225 40235 51004 60001 333 11101 21206 70000
AAXX 19004 71815 12574 10210 11105 21140 30192 40224 51003 60001 81500 333 11047 21105 79999
AAXX 19004 71604 16/// /0403 11079 21091 60001 333 11059 21086 70035 555 10040
AAXX 19004 71605 16/// /3503 10062 20061 30115 40266 53011 60001 333 10097 20046 70037
AAXX 19004 71611 NIL
AAXX 19004 71612 16/// /1804 11080 21144 30156 40250 58004 60001 333 11064 21111 70000
AAXX 19004 71614 NIL
AAXX 19004 71616 16/// /1301 11136 21150 30132 40259 58001 60001 333 11070 21167 70000
AAXX 19004 71617 16/// /1206 11136 21170 30047 40230 58009 60001 333 11119 21229 70000
AAXX 19004 71618 464// 63326 11181 21200 30037 40076 53030 6///1 333 11150 21220
AAXX 19004 71619 16/// /3606 11139 21184 30183 40246 55001 60001 333 11085 21176 70000
AAXX 19004 71622 NIL
AAXX 19004 71632 46/// /3207 11153 21171 39683 40136 52039 6///1 333 11116 21153 7//// 555 10020
AAXX 19004 71634 16/// /0000 11188 21205 30093 40256 53002 60001 333 11103 21198 70000
AAXX 19004 71638 16/// /2903 10065 20038 30161 40267 53012 60001 333 10080 20045 70024
AAXX 19004 71639 12674 62006 11004 21053 39958 40205 58010 60001 85501 333 10006 21097 79999
AAXX 19004 71642 12474 81913 11028 21040 39516 40065 58037 60001 885// 333 11027 21100 70002
AAXX 19004 71150 46/// /3317 11024 21053 39422 40108 53036 6///1 333 11012 21067 7////
AAXX 19004 71151 NIL
AAXX 19004 71152 16/// /0310 11057 21112 30181 40194 56010 60001 333 11034 21062 70000
AAXX 19004 71153 17/// /3103 11017 21019 69991 7//4/ 333 10086 21017 70024
AAXX 19004 71154 17/// /0101 11021 21032 60021 7//4/ 333 10077 21021 70019
AAXX 19004 71155 NIL
AAXX 19004 71156 NIL
AAXX 19004 71157 NIL
AAXX 19004 71158 NIL
AAXX 19004 71159 NIL
AAXX 19004 71160 NIL
AAXX 19004 71161 16/// /1606 11045 21135 30072 40226 58011 60001 333 11043 21147 70000
AAXX 19004 71162 NIL
AAXX 19004 71163 46/// /1203 11226 21246 39731 40086 58023 6///1 333 11197 21246 7////
AAXX 19004 71164 NIL
AAXX 19004 71165 NIL
AAXX 19004 71166 NIL
AAXX 19004 71167 15966 02202 11069 21075 39131 40252 51014 60001 333 11005 21070 70011
AAXX 19004 71168 16/// /2404 10057 21011 39505 40090 55000 60001 333 10111 21061 70000
AAXX 19004 71170 17/// /0110 11018 21028 69931 7//4/ 333 10006 21066 70003
AAXX 19004 71171 16/// /1903 10004 21027 30106 40205 56007 60001 333 10023 21060 70000
AAXX 19004 71172 16/// ///// 10010 21036 39941 40161 58012 60001 333 10011 21085 70005 555 11150
AAXX 19004 71175 16/// /0206 11021 21067 30160 40195 53011 60001 333 11002 21028 70000
AAXX 19004 71176 460// /2347 11187 39244 49936 58003 6///1 333 11175 21195 7////
AAXX 19004 71177 460// /2210 11221 39005 40038 50001 6///1 333 11177 21225 7////
AAXX 19004 71178 16/// /0417 11035 21078 30163 40196 55003 60001 333 11034 21068 70000
AAXX 19004 71179 460// ///// 11198 39259 40119 58001 6///1 333 11192 21245 7////
AAXX 19004 71180 16/// /0307 11077 21123 30175 40215 50002 60001 333 11022 21077 70000
AAXX 19004 71181 16464 80509 11044 21097 30116 40153 58002 60001 333 11043 21062 70000
AAXX 19004 71183 16/// /1409 30202 58006 60001 333 70000
AAXX 19004 71184 46/// /1603 11096 21138 6///1 333 11063 21131 7////
AAXX 19004 71186 NIL
AAXX 19004 71187 17112 60904 10036 20036 30223 40272 51015 60001 710// 333 10063 20033 70000
AAXX 19004 71189 NIL
AAXX 19004 71190 NIL
AAXX 19004 71191 16/// ///// 11063 21096 60001 333 11023 21109 70000 555 10010
AAXX 19004 71192 17116 82501 11013 21013 39613 40287 55000 60001 710// 333 10007 21018 70060
AAXX 19004 71193 16/// /1712 11037 21049 39705 40071 58039 60001 333 11037 21120 70000
AAXX 19004 71196 16/// /1405 11040 21064 39993 40199 58013 60001 333 11036 21177 70003
AAXX 19004 71197 16964 00114 11077 21126 30160 40211 58002 60001 333 11025 21078 70000
AAXX 19004 71198 46/// /1813 11074 21132 6///1 333 11070 21119 7////
AAXX 19004 71199 46/// /0000 11161 21181 39283 40153 58038 6///1 333 11160 21273 7////
AAXX 19004 71043 12883 71006 11216 21265 39911 40007 58044 60001 81071 333 11216 21282 79999
AAXX 19004 71045 16/// /1507 11036 21095 39210 40079 56060 60001 333 11034 21180 70000 555 10030
AAXX 19004 71050 46/// /3201 11021 21024 39184 40283 54000 6///1 333 11012 21078 7////
AAXX 19004 71051 NIL
AAXX 19004 71052 NIL
AAXX 19004 71066 12974 01904 11178 21205 39744 40183 55003 60001 333 11099 21244 70000
AAXX 19004 71068 12974 02307 11114 21135 39513 40227 50004 60001 333 11049 21129 79999
AAXX 19004 71069 16964 03207 11051 21067 39506 40222 51016 60001 333 11001 21051 70000
AAXX 19004 71076 16/// /2703 11136 21151 39767 40173 53015 60001 333 11127 21175 70007 555 10020
AAXX 19004 71077 16/// /3208 11095 21111 39651 40205 51028 60001 333 11064 21115 70003
AAXX 19004 71079 11474 82905 11107 21122 39821 40107 52029 69901 77177 888// 333 11107 21133 48010 70024 90983
AAXX 19004 71081 46458 33422 11168 21199 39793 49805 53009 6///1 333 11098 21172 7////
AAXX 19004 71082 NIL
AAXX 19004 71083 11612 23320 11263 21302 39989 40033 53002 69901 77677 82500 333 11259 21290 48052 79999 90983
AAXX 19004 71090 46064 81606 11239 21274 39800 49835 51045 6///1 333 11163 21253 7////
AAXX 19004 71091 460// /0613 11237 39587 49795 51015 6///1 333 7////
AAXX 19004 71092 46408 81118 11247 39133 49800 53004 6///1 333 11237 21254 7////
AAXX 19004 71093 460// /1414 11202 39332 49828 51012 6///1 333 11201 21217 7////
AAXX 19004 71094 46008 /2125 11236 38930 49835 53003 6///1 333 11235 21258 7////
AAXX 19004 71095 47764 31719 11154 21181 39760 49839 53010 6///1 745// 333 11122 21165 7////
AAXX 19004 71101 160// /1608 30217 58011 60001 333 70000
AAXX 19004 71104 12974 50000 11036 21048 39150 40283 53001 60001 80001 333 10004 21048 70030
AAXX 19004 71108 12462 41201 10068 20062 30198 40271 51012 60001 84500 333 10072 20056 70114
AAXX 19004 71109 12580 83303 10058 20017 30264 40291 53008 60001 885// 333 10066 20055 70050
AAXX 19004 71450 16/// /2709 11053 21080 39465 40196 53034 60001 333 11002 21057 70000
AAXX 19004 71451 NIL
AAXX 19004 71452 NIL
AAXX 19004 71453 NIL
AAXX 19004 71454 16/// /3306 11066 21105 39464 40164 52033 60001 333 11015 21067 70000
AAXX 19004 71455 46/// /2911 11054 21079 39389 40199 51031 6///1 333 11002 21054 7////
AAXX 19004 71456 16/// /2806 11075 21095 39555 40161 51033 60001 333 11015 21082 70000
AAXX 19004 71457 16/// /3307 11001 21020 39322 40224 53025 60001 333 10004 21013 70000
AAXX 19004 71458 16/// /2908 11058 21098 39440 40226 52024 60001 333 11008 21058 70000 555 10010
AAXX 19004 71459 NIL
AAXX 19004 71460 16/// /2120 10014 21027 39906 40149 58021 60001 333 10015 21023 70000
AAXX 19004 71461 NIL
AAXX 19004 71462 NIL
AAXX 19004 71463 46/// /2517 10026 21040 39990 40217 58011 6///1 333 10027 21052 7////
AAXX 19004 71464 NIL
AAXX 19004 71465 NIL
AAXX 19004 71466 NIL
AAXX 19004 71468 NIL
AAXX 19004 71470 NIL
AAXX 19004 71471 15966 02104 11038 21110 39406 40218 58017 60001 333 11014 21126 70000
AAXX 19004 71473 16/// /3103 10048 20026 30239 40269 51007 60001 333 10059 20047 70036
AAXX 19004 71475 16/// /0302 10045 20036 30189 40284 53012 60001 333 10051 20016 70024
AAXX 19004 71476 NIL
AAXX 19004 71477 16/// /1523 10055 20036 60001 333 10055 21003 70000
AAXX 19004 71478 NIL
AAXX 19004 71479 NIL
AAXX 19004 71480 NIL
AAXX 19004 71481 NIL
AAXX 19004 71482 NIL
AAXX 19004 71483 NIL
AAXX 19004 71484 NIL
AAXX 19004 71485 16/// /0405 10054 20025 30269 40290 53011 60001 333 10066 20053 70020
AAXX 19004 71486 17/// /1404 11043 21057 39032 40253 53021 60011 7//4/ 333 10003 21043 70083
AAXX 19004 71487 16/// /2910 11044 21065 39310 40185 53039 60001 333 10032 21044 70000
AAXX 19004 71489 NIL
AAXX 19004 71490 NIL
AAXX 19004 71491 16/// /0703 11246 21273 60001 333 11126 21341 70000
AAXX 19004 71492 NIL
AAXX 19004 71493 16/// /3512 11049 21074 30165 40204 53015 60001 333 11025 21087 70000
AAXX 19004 71494 16/// /2603 11137 21169 39703 40249 51008 60001 333 11095 21189 70000
AAXX 19004 71495 NIL
AAXX 19004 71496 16/// /3110 11052 21087 39560 40181 51033 60001 333 11008 21058 70003
AAXX 19004 71497 46/// /2105 11015 21119 39840 40110 58027 6///1 333 11001 21222 7////
AAXX 19004 71498 NIL
AAXX 19004 71499 17466 83007 11122 21137 39522 40164 51028 60001 771// 333 11071 21122 70000
AAXX 19004 71851 16/// /3518 11016 21029 39761 40097 53047 60001 333 10014 21041 70000
AAXX 19004 71857 NIL
AAXX 19004 71860 11674 83606 11029 21078 38833 40257 53028 69901 72681 8357/ 333 11003 21037 70020 90910
AAXX 19004 71876 15966 03010 11040 21082 39528 40203 53031 60001 333 11006 21040 70000
AAXX 19004 71885 NIL
AAXX 19004 71886 16/// /3114 11033 21063 39528 40140 52039 60001 333 11002 21061 70010
AAXX 19004 71888 NIL
AAXX 19004 71890 16/// /0604 11125 21153 30199 40228 58007 60001 333 11125 21244 70000 555 10010
AAXX 19004 71895 NIL
AAXX 19004 71816 12974 11904 11200 21258 30119 40184 57008 60001 80001 333 11157 21222 70000
AAXX 19004 71817 NIL
AAXX 19004 71818 12974 02115 11144 21166 30162 40181 58006 60001 333 11127 21181 70000
AAXX 19004 71822 11656 81909 11110 21132 39663 40157 56011 69941 77177 885// 333 11110 21272 47031 70004 90973
AAXX 19004 71825 11566 62211 11158 21201 39447 40150 55001 69921 77122 86700 333 11158 21268 47075 70002 90942
AAXX 19004 71827 11674 62205 11154 21172 39838 40089 58002 69901 70388 86500 333 11108 21158 47020 70048 90923
AAXX 19004 71828 16964 02211 11162 21206 39437 40099 53004 60001 333 11152 21233 70000
AAXX 19004 71831 NIL
AAXX 19004 71832 NIL
AAXX 19004 71834 11/12 91810 11019 21024 39572 40000 58016 60031 77122 333 11018 21073 48018 70036 90962 93103
AAXX 19004 71841 NIL
AAXX 19004 71842 11366 83003 11025 21028 39543 40014 52011 60071 77176 885// 333 11023 21070 47015 70076 90973
AAXX 19004 71844 17262 80104 11180 21190 39774 40060 53016 69951 7//44 333 11109 21180 70020
AAXX 19004 71845 11156 83402 11061 21061 39533 40011 51010 69901 77175 887// 333 11057 21099 44018 70020 90983
AAXX 19004 71850 11258 82805 11017 21023 39533 40033 52023 60001 77122 887// 333 10001 21021 48007 70014 90931 93101
AAXX 19004 71852 16464 83415 11007 21028 39783 40079 52044 60001 333 10003 21054 70000
AAXX 19004 71854 11374 83307 11039 21053 39560 40035 53026 69981 70377 886// 333 11025 21072 48018 70016 90943
AAXX 19004 71858 NIL
AAXX 19004 71861 46/// /3216 11029 21056 39406 40137 51040 6///1 333 11005 21038 7//// 555 10040
AAXX 19004 71862 12574 63210 11020 21045 39448 40155 53047 60001 86530 333 10039 21037 70000
AAXX 19004 71863 46064 33214 11041 21068 39467 40177 51041 6///1 333 11005 21071 7////
AAXX 19004 71864 NIL
AAXX 19004 71865 16/// /2807 11061 21087 39473 40163 51032 60001 333 11012 21062 70008
AAXX 19004 71866 46964 03010 11052 21098 39563 40187 51032 6///1 333 11008 21057 7////
AAXX 19004 71867 11469 83207 11062 21070 39786 40125 52029 69901 77172 885// 333 11047 21083 47023 79999 90947
AAXX 19004 71868 NIL
AAXX 19004 71869 12574 13008 11050 21093 39635 40166 52033 60001 81500 333 11014 21062 79999
AAXX 19004 71871 15966 03010 11056 21108 39389 40210 53030 60001 333 11012 21057 70000
AAXX 19004 71877 11880 73407 11020 21059 38964 40259 52026 69901 70272 87070 333 10003 21038 42003 70012 90930
AAXX 19004 71878 12974 12807 11083 21101 39157 40257 51022 60001 81070 333 11009 21088 70024
AAXX 19004 71879 17964 02405 11035 21079 39415 40233 51021 69951 7//44 333 11005 21038 70005
AAXX 19004 71880 11782 63609 10028 21003 39095 40201 53031 60001 71511 82571 333 10074 20027 70000
AAXX 19004 71882 160// /0206 10041 21012 39711 40256 52025 69951 333 10054 20002 70085
AAXX 19004 71883 46/// /1101 11012 21022 39443 40277 51016 6///1 333 10035 21032 7////
AAXX 19004 71887 12986 12204 10044 21038 39851 40278 52013 60001 80001 333 10080 20017 70000
AAXX 19004 71889 12974 03307 10033 21016 39845 40269 53020 60001 333 10069 20005 70000
AAXX 19004 71891 16964 01604 10033 20025 39995 40273 51012 60001 333 10065 20027 70000
AAXX 19004 71892 12480 43108 10064 20043 30268 40273 52009 60001 84600 333 10077 20057 70042
AAXX 19004 71401 16/// /1803 11004 21016 39546 40241 51022 60001 333 10016 21012 70000
AAXX 19004 71402 NIL
AAXX 19004 71404 NIL
AAXX 19004 71405 NIL
AAXX 19004 71406 NIL
AAXX 19004 71407 NIL
AAXX 19004 71408 NIL
AAXX 19004 71409 NIL
AAXX 19004 71410 17366 83305 11080 21094 39818 40101 51035 60001 771// 333 11064 21080 70006
AAXX 19004 71413 NIL
AAXX 19004 71414 NIL
AAXX 19004 71415 17/// /0321 11018 21046 30191 40194 53009 69981 7//4/ 333 11005 21032 70015
AAXX 19004 71417 NIL
AAXX 19004 71418 NIL
AAXX 19004 71419 46/// /0416 11008 21051 30178 40188 53017 6///1 333 10006 21010 7////
AAXX 19004 71423 NIL
AAXX 19004 71424 46/// /2507 6///1 333 7////
AAXX 19004 71425 NIL
AAXX 19004 71426 NIL
AAXX 19004 71427 NIL
AAXX 19004 71428 NIL
AAXX 19004 71429 NIL
AAXX 19004 71434 NIL
AAXX 19004 71436 15666 82001 11033 21049 39968 40210 58011 60001 333 11012 21105 70000
AAXX 19004 71437 46/// /1806 10016 21049 30110 40207 56007 6///1 333 10020 21050 7////
AAXX 19004 71438 NIL
AAXX 19004 71439 NIL
AAXX 19004 71440 NIL
AAXX 19004 71442 16/// /3409 11039 21056 39775 40091 51046 60001 333 11009 21083 70029
AAXX 19004 71445 NIL
AAXX 19004 71446 NIL
AAXX 19004 71448 NIL
AAXX 19004 71449 17/// /3210 11002 21013 39640 40043 53035 69931 7//4/ 333 10030 21069 70003
AAXX 19001 13168 32698 60703 10006 21004 30056 40166 56004 86500
AAXX 19001 13174 32997 40904 10000 21016 30068 40172 58006 81032
AAXX 19001 13269 32998 60901 10010 21007 39928 40148 57012 86070
AAXX 19001 13274 32997 71304 10032 21012 39993 40157 58010 87030 333 91010
AAXX 19001 13278 32697 40000 10032 21021 39933 40163 57010 84500
AAXX 19001 13378 11498 71707 11057 21066 38202 48422 56006 69961 72272 87500 333 91112
AAXX 19001 13397 32698 71003 11018 21033 39642 40200 50002 87500
AAXX 19001 13457 31570 60000 10063 20050 30107 40114 57015 70262 84820 333 82830 82636 85459
AAXX 19001 13481 NIL
AAXX 19001 06431 12596 82504 10011 20007 30145 40157 52008 60061 886// 333 91108 91205
AAXX 19001 06432 17/50 /2402 10006 20001 30092 40171 51010 60031 70087 333 81/19 85/25 91106 91204
AAXX 19001 06458 17942 /2403 10007 20007 30004 40162 51008 60011 71075 333 81/02 85/05 87/07 91106 91205
AAXX 19001 06465 17131 /2603 10007 20005 30089 40157 51008 60011 71074 333 85/02 87/04 88/06 91107 91204
AAXX 19001 06496 37257 /9902 11025 21030 39463 40160 53001 72487 333 85/03 88/05 91108 91204
AAXX 19004 65201 31945 60000 10260 20252 30067 40122 70522 80008 333 56000 59009 86280
AAXX 19001 06428 17450 /9901 10006 20004 30118 40168 53010 60071 78087 333 81/14 83/24 85/33 91108 91205
AAXX 19001 13173 32998 40902 10008 21012 30062 40165 57005 84030
AAXX 19001 13180 32998 01102 11003 21003 30055 40169 57009
AAXX 19001 13266 32698 80806 10023 21012 30046 40149 58009 885//
AAXX 19001 13369 32698 61302 11024 21047 38921 48399 57012 86500
AAXX 19001 13383 32697 81401 10030 21019 39954 40161 57006 885//
AAXX 19001 13384 32997 51602 10026 21022 30004 40159 58012 85070
AAXX 19001 13389 32698 70000 11004 21009 39883 40173 58003 87500
AAXX 19001 13477 NIL
AAXX 19004 08001 12465 1//// 10068 20050 30208 40292 58002 60001 81800 333 924/8
AAXX 19004 08015 NIL
AAXX 19004 08023 11562 42411 10071 20065 30205 40278 58001 60021 70281 84800
AAXX 19004 08027 11470 42608 10070 20038 39948 40265 51002 60031 70186 82870
AAXX 19004 08045 06/// /2302 10048 20024 39978 40298 58007 60001 333 60007
AAXX 19004 08141 NIL
AAXX 19004 08160 12680 32409 10036 20010 39950 40270 51005 60001 82530
AAXX 19004 08181 02580 13304 10027 21082 30217 40224 50006 60001 81800 333 60007
AAXX 19004 08221 05/80 /0000 10017 21026 39581 40293 51009 60001 333 60007
AAXX 19004 08231 NIL
AAXX 19004 08261 NIL
AAXX 19004 08284 02975 03213 10091 21032 30172 40249 50006 60001 333 60007
AAXX 19004 08306 11470 33204 10075 20048 30218 40224 52014 60021 72160 82870
AAXX 19004 08314 02570 23415 10086 21002 30104 40209 50011 60001 82830 333 60007
AAXX 19004 08430 12970 32704 10066 20005 30185 40262 51015 60001 80001
AAXX 19004 08482 12682 42913 10090 20012 30236 40245 52014 60001 84800
AAXX 19004 64500 32460 71808 10265 20238 30090 40103 875// 92356 333 0//00 59006 83610 87633
AAXX 19004 64570 11156 82003 10223 20218 39610 40119 60091 71796 8592/ 333 0//72 58001 84702 81920 88460 94944 95834
AAXX 19001 15501 12970 00000 11009 21027 30146 40192 52010 60001 333 10018 21011 555 587//
AAXX 19001 15505 12975 01105 10004 21032 39809 40193 52006 60001 333 10025 20000 555 577// 92601
AAXX 19001 15511 12970 00000 10001 21014 30161 40202 58002 60001 333 10042 20001 555 590//
AAXX 19001 15514 12968 01101 10024 21007 30151 40187 52005 60001 333 10040 20015 555 580// 92600
AAXX 19001 15530 12967 00000 11026 21046 39970 40219 51001 60001 333 10005 21026 555 586//
AAXX 19001 15533 12970 00000 10000 21012 30132 40165 52008 60001 333 10036 20000 555 592// 92600
AAXX 19001 15550 12970 00000 10006 21021 30183 40203 52012 60001 333 10040 20006 555 582//
AAXX 19001 15561 12975 03402 10013 21004 30211 40219 52013 60001 222// 327// 4//00 333 10028 20005 555 589// 92013 92418
AAXX 19001 15562 12981 00502 10050 21003 30144 40218 52012 60001 222// 2//00 333 10068 20048 555 568// 92013 92418
AAXX 19001 15600 11989 31616 11068 21084 38264 48474 53007 60001 70300 82031 333 11063 21085 47013 91120 555 588//
AAXX 19001 15601 12965 30000 11028 21054 39546 40189 52004 60001 80001 333 10006 21030 555 582//
AAXX 19001 15605 12970 40902 11018 21037 39323 40193 54000 60001 80001 333 11014 21045 555 585//
AAXX 19001 15613 11982 21808 11101 21114 37657 47983 52002 60001 70210 80001 333 11100 21106 48035 555 590//
AAXX 19001 15628 12980 20000 11026 21039 39940 40208 54000 60001 80001 333 10020 21026 555 591//
AAXX 19001 15642 12570 80000 10020 20015 30026 40198 54000 60001 885// 333 10030 20018 555 596//
AAXX 19001 15661 12570 82303 10086 21007 30167 40203 54000 60001 885// 222// 20000 333 10090 20065 555 552// 92012 92418
AAXX 19001 15726 11875 81204 11050 21057 38229 48497 52004 60001 70242 8802/ 333 11025 21050 41999 555 595//
AAXX 19004 08055 NIL
AAXX 19004 08075 NIL
AAXX 19004 08084 02560 62804 10045 20008 39832 40278 58002 60001 83571 333 60007
AAXX 19004 08184 02980 02203 11001 21057 30054 40217 50007 60001 333 60007
AAXX 19004 08202 02765 52101 11031 21039 39346 42876 51005 60001 81046 333 60007
AAXX 19004 08235 NIL
AAXX 19004 08238 NIL
AAXX 19004 08280 12965 42007 11006 21023 39432 40293 51015 60001 80006
AAXX 19004 08330 NIL
AAXX 19004 08348 NIL
AAXX 19004 08360 02670 22704 10053 21028 30210 40249 53011 60001 81501 333 60007
AAXX 19004 08373 02968 00000 10095 20032 30211 40233 51012 60001 333 60007
AAXX 19004 08410 06/// /0704 10051 20008 30154 40269 51015 60001 333 60007
AAXX 19004 08419 05/80 /0000 10021 21007 39580 40276 53014 60001 333 60007
AAXX 19004 08451 06/// /3610 10070 20036 30213 40247 51011 60001 333 60007
AAXX 19004 08487 06/// /3512 10096 20012 30220 40246 51010 69931 333 60007
AAXX 19001 06447 16/// /2702 10005 21003 30033 40162 50009 60021 333 91108 91205
AAXX 19004 71114 160// /0904 10038 20035 30223 40272 50015 69951 333 10065 20033 70205
AAXX 19004 71120 12974 12706 11063 21120 39538 40208 52028 60001 81070 333 11023 21079 70000
AAXX 19004 71122 17/// /0505 11031 21046 38608 40228 53023 60011 7//4/ 333 10015 7//// 555 10150
AAXX 19004 71123 12674 22507 11105 21110 39357 40246 52021 60001 81501 333 11012 21108 70028
AAXX 19004 71125 12574 12608 11102 21128 39597 40196 51035 60001 81500 333 70000
AAXX 19004 71129 12874 13106 11055 21084 39368 40214 53027 60001 81070 333 11002 21061 70006
AAXX 19004 71131 16/// /3210 11041 21061 38937 40206 51036 60001 333 10017 21042 70000
AAXX 19004 71135 16/// /3417 11037 21060 39088 40180 52034 60001 333 10045 21039 70000
AAXX 19004 71137 NIL
AAXX 19004 71140 11474 83312 11002 21010 39610 40115 5/043 60021 70272 885// 333 10003 21104 42002 70016 90922 93102
AAXX 19004 71145 11274 83408 11104 21117 39783 40082 52038 69901 77177 885// 333 11087 21106 48039 70018 90983
AAXX 19004 71148 NIL
AAXX 19004 71185 16964 00000 11129 30205 40230 53007 60001 333 11083 21132 70000
AAXX 19004 71188 12574 22702 11177 21210 30198 40243 58001 60001 82500 333 11083 21182 79999
AAXX 19004 71200 16/// /3604 10064 20040 60001 333 10083 20058 70038
AAXX 19004 71207 16/// /0102 10030 30202 40267 53012 60001 333 10085 20011 70048
AAXX 19004 71260 13/// ///// 10001 21028 39859 40097 58030 60001 333 10005 21043 70003
AAXX 19004 71930 12974 02707 11042 21087 39287 40237 52011 60001 333 11005 21043 70061
AAXX 19004 71931 16/// /0213 11055 21095 30179 40191 58003 60001 333 11006 21093 70000
AAXX 19004 71934 11974 01503 11165 21178 39901 40167 50003 69901 72271 333 11126 21200 70004 90983
AAXX 19004 71935 12974 01705 11170 21203 39911 40126 58021 60001 333 11163 21197 79999
AAXX 19004 71936 12774 41605 11176 21202 39852 40123 58018 60001 82570 333 11176 21240 79999
AAXX 19004 71937 NIL
AAXX 19004 71938 11669 10000 11337 21370 30063 40094 58017 69901 77677 81500 333 11297 21347 48024 79999 90983
AAXX 19004 71940 NIL
AAXX 19004 71943 NIL
AAXX 19004 71944 160// ///// 11063 55006 60001 333 11059 21072 70000
AAXX 19004 71945 12974 22104 11173 21222 39668 40157 58030 60001 82071 333 11115 21204 70000
AAXX 19004 71946 12974 31505 11214 21238 39869 40093 58025 60001 80001 333 11205 21265 70000
AAXX 19004 71948 47064 /1015 11262 39922 40039 57028 6///1 745// 333 11262 21285 7////
AAXX 19004 71949 46/// /0904 11133 21149 39150 40043 56063 6///1 333 11105 21246 7////
AAXX 19004 71951 11/10 90302 11019 21024 39998 40271 56005 60001 71042 333 11016 21029 79999
AAXX 19004 71957 46964 00805 11235 21303 39890 49981 58029 6///1 333 11235 21271 7////
AAXX 19004 71964 12580 81420 11008 21069 39141 49989 57060 60001 8857/ 333 11006 21109 70000
AAXX 19004 71966 16/// /0000 11115 21130 39481 49947 56052 60001 333 11112 21248 70000
AAXX 19004 71968 460// /2906 11284 39932 49999 58009 6///1 333 11267 21300 7////
AAXX 19004 71603 12974 23607 11036 21079 30148 40202 51011 60001 82070 333 11014 21050 70016
AAXX 19004 71607 16/// /3004 11107 21147 30210 40244 53015 60001 333 11054 21135 70000
AAXX 19004 71609 12674 10114 11085 21143 30089 40229 52011 60001 81500 333 11055 21123 70000
AAXX 19004 71610 15966 01203 11144 21165 39950 40262 51007 60001 333 11087 21175 70000
AAXX 19004 71621 12574 80802 11008 21051 30107 40216 58014 60001 885// 333 11004 21117 79999
AAXX 19004 71623 NIL
AAXX 19004 71624 12674 82206 10003 21042 39989 40205 58009 60001 85521 333 10020 21064 79999
AAXX 19004 71625 16464 81506 11034 21085 30032 40198 58013 60001 333 11033 21167 70000
AAXX 19004 71627 12974 11408 11082 21153 30201 40247 58004 60001 80001 333 11058 21120 70000
AAXX 19004 71628 13760 81407 11066 21134 30082 40229 58015 60001 88500 333 11053 21161 70000
AAXX 19004 71630 NIL
AAXX 19004 71631 16/// /2009 11029 21063 39677 40187 58009 60001 333 11012 21073 70008
AAXX 19004 71633 11574 61814 11010 21050 39896 40172 58013 69901 70272 86500 333 10003 21056 47003 70010 90943
AAXX 19004 71705 11574 83609 11064 21103 30136 40227 53009 69921 78582 885// 333 11054 21112 45001 70012 90937
AAXX 19004 71706 11574 80107 11043 21085 30154 40216 53003 69921 78588 885// 333 11021 21066 45001 70010 90983
AAXX 19004 71707 11674 80212 11026 21101 30116 40194 53005 69941 78582 885// 333 11015 21030 44004 70048 90932
AAXX 19004 71709 12574 30308 11057 21108 30204 40218 53002 60001 83500 333 11042 21065 70012
AAXX 19004 71711 NIL
AAXX 19004 71714 16/// /0000 11149 21168 30175 40272 50002 60001 333 11088 21168 70000
AAXX 19004 71715 16/// /1705 11139 21164 30047 40238 58002 60001 333 11107 21180 70000
AAXX 19004 71718 12983 01508 11141 21171 30170 40239 58005 60001 333 11105 21148 70004
AAXX 19004 71719 16/// /3004 11075 21128 30236 40242 55001 60001 333 11070 21098 70000
AAXX 19004 71893 12580 43204 10058 20019 30247 40279 53011 60001 83501 333 10082 20050 70006
AAXX 19004 71894 16/// /2915 10072 20056 30263 40272 53014 60001 333 10080 20037 70114
AAXX 19004 71896 15966 01804 11038 21042 39424 40274 58005 60001 333 11011 21080 70018
AAXX 19004 71897 12474 80905 10045 20018 3//// 4//// 57010 60001 888XX 333 10056 20032 70008
AAXX 19004 71898 160// ///// 10035 58021 69951 333 10035 21008 70005
AAXX 19004 71899 11274 81606 10046 20027 3//// 4//// 57027 69901 76022 888// 333 10054 20033 79999 90910
AAXX 19004 71902 12974 02607 11166 21226 30083 40092 56005 60001 333 11148 21179 70000
AAXX 19004 71905 NIL
AAXX 19004 71906 11974 02412 11178 21213 39993 40044 51008 69901 77671 333 11150 21198 48015 79999 90942
AAXX 19004 71907 16440 82718 11141 21164 30005 40038 51001 60001 333 11138 21166 70005
AAXX 19004 71909 16964 02014 11129 21185 39807 49850 58003 60001 333 11127 21223 70000
AAXX 19004 71910 47002 92731 11122 21129 39725 49787 55002 6///1 745// 333 11120 21190 7////
AAXX 19004 71911 46537 82915 11277 39943 40001 50009 6///1 333 11261 21279 7////
AAXX 19004 71912 11574 82907 11143 21171 39897 40086 53001 69901 77171 885// 333 11141 21225 48014 70006 90917
AAXX 19004 71915 NIL
AAXX 19004 71917 11974 00000 11396 21434 39973 49988 51006 69901 77677 333 11394 21425 43013 79999 90983
AAXX 19004 71922 11462 82912 11094 21109 39696 40170 52036 69921 77111 885// 333 11007 21094 47033 70008 90942
AAXX 19004 71924 11262 63322 11317 21362 39889 49982 51003 69901 77677 84530 333 11298 21321 48038 79999 90983
AAXX 19004 71925 11474 13007 11348 21395 30054 40098 58006 69901 77677 81500 333 11325 21348 42021 79999 90983
AAXX 19004 71926 11606 63337 11282 21336 30036 40061 55003 69901 77671 86500 333 11251 21282 46043 79999 90963
AAXX 19004 71928 16/// /3006 11065 21091 39063 40251 52020 60001 333 11007 21068 70028 555 10050
BBXX 44022 19001 99409 70737 46/// ///03 11014 21131 40259 92345 22200 00083 333 91204 555 11031 22031
AAXX 19004 71397 11462 80409 11035 21060 30178 40214 52013 69901 78588 885// 333 11020 21058 45997 79999 90973
AAXX 19004 71400 NIL
AAXX 19004 71403 46/// /0317 11007 21026 30164 40184 53017 6///1 333 10005 21025 7////
AAXX 19004 71411 16/// /3610 11021 21044 30181 40194 53015 60001 333 11007 21044 70012
AAXX 19004 71412 16/// /0316 11029 21073 30192 40202 51009 60001 333 11014 21034 70000
AAXX 19004 71421 NIL
AAXX 19004 71430 16/// /1819 10017 21021 30116 40215 58013 60001 333 10017 21100 70010
AAXX 19004 71431 16/// /1905 10015 21023 30103 40201 58013 60001 333 10015 21086 70000
AAXX 19004 71432 NIL
AAXX 19004 71433 NIL
AAXX 19004 71435 NIL
AAXX 19004 71441 46/// /3519 11006 21024 39766 40076 53049 6///1 333 10055 21076 7////
AAXX 19004 71443 16/// /3013 11010 21065 39708 40122 53036 60001 333 10006 21076 70000
AAXX 19004 71444 NIL
AAXX 19004 71447 16/// /3317 10001 21016 39572 40121 51047 60001 333 10016 21056 70000
AAXX 19004 71467 16/// /1003 11275 21301 39934 40053 58020 60001 333 11269 21278 70000 555 10010
AAXX 19004 71472 NIL
AAXX 19004 71474 16964 03204 11037 21067 39019 40278 51005 60001 333 10015 21037 70020
AAXX 19004 71510 16/// /2906 11060 21091 39475 40195 51028 60001 333 10003 21079 70007
AAXX 19004 71538 12962 72111 10021 21014 39968 40202 55011 60001 87070 333 10029 21010 79999
AAXX 19004 71600 16564 80326 10015 21029 30134 40140 50005 60001 333 10041 20013 70005
AAXX 19004 71601 NIL
AAXX 19004 71864 NIL
AAXX 19004 71865 16/// /2807 11061 21087 39473 40163 51032 60001 333 11012 21062 70008
AAXX 19004 71866 46964 03010 11052 21098 39563 40187 51032 6///1 333 11008 21057 7////
AAXX 19004 71867 11469 83207 11062 21070 39786 40125 52029 69901 77172 885// 333 11047 21083 47023 79999 90947
AAXX 19004 71868 NIL
AAXX 19004 71869 12574 13008 11050 21093 39635 40166 52033 60001 81500 333 11014 21062 79999
AAXX 19004 71871 15966 03010 11056 21108 39389 40210 53030 60001 333 11012 21057 70000
AAXX 19004 71877 11880 73407 11020 21059 38964 40259 52026 69901 70272 87070 333 10003 21038 42003 70012 90930
AAXX 19004 71878 12974 12807 11083 21101 39157 40257 51022 60001 81070 333 11009 21088 70024
AAXX 19004 71879 17964 02405 11035 21079 39415 40233 51021 69951 7//44 333 11005 21038 70005
AAXX 19004 71880 11782 63609 10028 21003 39095 40201 53031 60001 71511 82571 333 10074 20027 70000
AAXX 19004 71882 160// /0206 10041 21012 39711 40256 52025 69951 333 10054 20002 70085
AAXX 19004 71883 46/// /1101 11012 21022 39443 40277 51016 6///1 333 10035 21032 7////
AAXX 19004 71887 12986 12204 10044 21038 39851 40278 52013 60001 80001 333 10080 20017 70000
AAXX 19004 71889 12974 03307 10033 21016 39845 40269 53020 60001 333 10069 20005 70000
AAXX 19004 71891 16964 01604 10033 20025 39995 40273 51012 60001 333 10065 20027 70000
AAXX 19004 71892 12480 43108 10064 20043 30268 40273 52009 60001 84600 333 10077 20057 70042
AAXX 19004 71603 12974 23607 11036 21079 30148 40202 51011 60001 82070 333 11014 21050 70016
AAXX 19004 71607 16/// /3004 11107 21147 30210 40244 53015 60001 333 11054 21135 70000
AAXX 19004 71609 12674 10114 11085 21143 30089 40229 52011 60001 81500 333 11055 21123 70000
AAXX 19004 71610 15966 01203 11144 21165 39950 40262 51007 60001 333 11087 21175 70000
AAXX 19004 71621 12574 80802 11008 21051 30107 40216 58014 60001 885// 333 11004 21117 79999
AAXX 19004 71623 NIL
AAXX 19004 71624 12674 82206 10003 21042 39989 40205 58009 60001 85521 333 10020 21064 79999
AAXX 19004 71625 16464 81506 11034 21085 30032 40198 58013 60001 333 11033 21167 70000
AAXX 19004 71627 12974 11408 11082 21153 30201 40247 58004 60001 80001 333 11058 21120 70000
AAXX 19004 71628 13760 81407 11066 21134 30082 40229 58015 60001 88500 333 11053 21161 70000
AAXX 19004 71630 NIL
AAXX 19004 71631 16/// /2009 11029 21063 39677 40187 58009 60001 333 11012 21073 70008
AAXX 19004 71633 11574 61814 11010 21050 39896 40172 58013 69901 70272 86500 333 10003 21056 47003 70010 90943
AAXX 19004 71705 11574 83609 11064 21103 30136 40227 53009 69921 78582 885// 333 11054 21112 45001 70012 90937
AAXX 19004 71706 11574 80107 11043 21085 30154 40216 53003 69921 78588 885// 333 11021 21066 45001 70010 90983
AAXX 19004 71707 11674 80212 11026 21101 30116 40194 53005 69941 78582 885// 333 11015 21030 44004 70048 90932
AAXX 19004 71709 12574 30308 11057 21108 30204 40218 53002 60001 83500 333 11042 21065 70012
AAXX 19004 71711 NIL
AAXX 19004 71714 16/// /0000 11149 21168 30175 40272 50002 60001 333 11088 21168 70000
AAXX 19004 71715 16/// /1705 11139 21164 30047 40238 58002 60001 333 11107 21180 70000
AAXX 19004 71718 12983 01508 11141 21171 30170 40239 58005 60001 333 11105 21148 70004
AAXX 19004 71719 16/// /3004 11075 21128 30236 40242 55001 60001 333 11070 21098 70000
AAXX 19004 71816 12974 11904 11200 21258 30119 40184 57008 60001 80001 333 11157 21222 70000
AAXX 19004 71817 NIL
AAXX 19004 71818 12974 02115 11144 21166 30162 40181 58006 60001 333 11127 21181 70000
AAXX 19004 71822 11656 81909 11110 21132 39663 40157 56011 69941 77177 885// 333 11110 21272 47031 70004 90973
AAXX 19004 71825 11566 62211 11158 21201 39447 40150 55001 69921 77122 86700 333 11158 21268 47075 70002 90942
AAXX 19004 71827 11674 62205 11154 21172 39838 40089 58002 69901 70388 86500 333 11108 21158 47020 70048 90923
AAXX 19004 71828 16964 02211 11162 21206 39437 40099 53004 60001 333 11152 21233 70000
AAXX 19004 71831 NIL
AAXX 19004 71832 NIL
AAXX 19004 71834 11/12 91810 11019 21024 39572 40000 58016 60031 77122 333 11018 21073 48018 70036 90962 93103
AAXX 19004 71841 NIL
AAXX 19004 71842 11366 83003 11025 21028 39543 40014 52011 60071 77176 885// 333 11023 21070 47015 70076 90973
AAXX 19004 71844 17262 80104 11180 21190 39774 40060 53016 69951 7//44 333 11109 21180 70020
AAXX 19004 71845 11156 83402 11061 21061 39533 40011 51010 69901 77175 887// 333 11057 21099 44018 70020 90983
AAXX 19004 71850 11258 82805 11017 21023 39533 40033 52023 60001 77122 887// 333 10001 21021 48007 70014 90931 93101
AAXX 19004 71852 16464 83415 11007 21028 39783 40079 52044 60001 333 10003 21054 70000
AAXX 19004 71854 11374 83307 11039 21053 39560 40035 53026 69981 70377 886// 333 11025 21072 48018 70016 90943
AAXX 19004 71858 NIL
AAXX 19004 71861 46/// /3216 11029 21056 39406 40137 51040 6///1 333 11005 21038 7//// 555 10040
AAXX 19004 71862 12574 63210 11020 21045 39448 40155 53047 60001 86530 333 10039 21037 70000
AAXX 19004 71863 46064 33214 11041 21068 39467 40177 51041 6///1 333 11005 21071 7////
AAXX 19004 71930 12974 02707 11042 21087 39287 40237 52011 60001 333 11005 21043 70061
AAXX 19004 71931 16/// /0213 11055 21095 30179 40191 58003 60001 333 11006 21093 70000
AAXX 19004 71934 11974 01503 11165 21178 39901 40167 50003 69901 72271 333 11126 21200 70004 90983
AAXX 19004 71935 12974 01705 11170 21203 39911 40126 58021 60001 333 11163 21197 79999
AAXX 19004 71936 12774 41605 11176 21202 39852 40123 58018 60001 82570 333 11176 21240 79999
AAXX 19004 71937 NIL
AAXX 19004 71938 11669 10000 11337 21370 30063 40094 58017 69901 77677 81500 333 11297 21347 48024 79999 90983
AAXX 19004 71940 NIL
AAXX 19004 71943 NIL
AAXX 19004 71944 160// ///// 11063 55006 60001 333 11059 21072 70000
AAXX 19004 71945 12974 22104 11173 21222 39668 40157 58030 60001 82071 333 11115 21204 70000
AAXX 19004 71946 12974 31505 11214 21238 39869 40093 58025 60001 80001 333 11205 21265 70000
AAXX 19004 71948 47064 /1015 11262 39922 40039 57028 6///1 745// 333 11262 21285 7////
AAXX 19004 71949 46/// /0904 11133 21149 39150 40043 56063 6///1 333 11105 21246 7////
AAXX 19004 71951 11/10 90302 11019 21024 39998 40271 56005 60001 71042 333 11016 21029 79999
AAXX 19004 71957 46964 00805 11235 21303 39890 49981 58029 6///1 333 11235 21271 7////
AAXX 19004 71964 12580 81420 11008 21069 39141 49989 57060 60001 8857/ 333 11006 21109 70000
AAXX 19004 71966 16/// /0000 11115 21130 39481 49947 56052 60001 333 11112 21248 70000
AAXX 19004 71968 460// /2906 11284 39932 49999 58009 6///1 333 11267 21300 7////
AAXX 19004 71893 12580 43204 10058 20019 30247 40279 53011 60001 83501 333 10082 20050 70006
AAXX 19004 71894 16/// /2915 10072 20056 30263 40272 53014 60001 333 10080 20037 70114
AAXX 19004 71896 15966 01804 11038 21042 39424 40274 58005 60001 333 11011 21080 70018
AAXX 19004 71897 12474 80905 10045 20018 3//// 4//// 57010 60001 888XX 333 10056 20032 70008
AAXX 19004 71898 160// ///// 10035 58021 69951 333 10035 21008 70005
AAXX 19004 71899 11274 81606 10046 20027 3//// 4//// 57027 69901 76022 888// 333 10054 20033 79999 90910
AAXX 19004 71902 12974 02607 11166 21226 30083 40092 56005 60001 333 11148 21179 70000
AAXX 19004 71905 NIL
AAXX 19004 71906 11974 02412 11178 21213 39993 40044 51008 69901 77671 333 11150 21198 48015 79999 90942
AAXX 19004 71907 16440 82718 11141 21164 30005 40038 51001 60001 333 11138 21166 70005
AAXX 19004 71909 16964 02014 11129 21185 39807 49850 58003 60001 333 11127 21223 70000
AAXX 19004 71910 47002 92731 11122 21129 39725 49787 55002 6///1 745// 333 11120 21190 7////
AAXX 19004 71911 46537 82915 11277 39943 40001 50009 6///1 333 11261 21279 7////
AAXX 19004 71912 11574 82907 11143 21171 39897 40086 53001 69901 77171 885// 333 11141 21225 48014 70006 90917
AAXX 19004 71915 NIL
AAXX 19004 71917 11974 00000 11396 21434 39973 49988 51006 69901 77677 333 11394 21425 43013 79999 90983
AAXX 19004 71922 11462 82912 11094 21109 39696 40170 52036 69921 77111 885// 333 11007 21094 47033 70008 90942
AAXX 19004 71924 11262 63322 11317 21362 39889 49982 51003 69901 77677 84530 333 11298 21321 48038 79999 90983
AAXX 19004 71925 11474 13007 11348 21395 30054 40098 58006 69901 77677 81500 333 11325 21348 42021 79999 90983
AAXX 19004 71926 11606 63337 11282 21336 30036 40061 55003 69901 77671 86500 333 11251 21282 46043 79999 90963
AAXX 19004 71928 16/// /3006 11065 21091 39063 40251 52020 60001 333 11007 21068 70028 555 10050
AAXX 19004 71043 12883 71006 11216 21265 39911 40007 58044 60001 81071 333 11216 21282 79999
AAXX 19004 71045 16/// /1507 11036 21095 39210 40079 56060 60001 333 11034 21180 70000 555 10030
AAXX 19004 71050 46/// /3201 11021 21024 39184 40283 54000 6///1 333 11012 21078 7////
AAXX 19004 71051 NIL
AAXX 19004 71052 NIL
AAXX 19004 71066 12974 01904 11178 21205 39744 40183 55003 60001 333 11099 21244 70000
AAXX 19004 71068 12974 02307 11114 21135 39513 40227 50004 60001 333 11049 21129 79999
AAXX 19004 71069 16964 03207 11051 21067 39506 40222 51016 60001 333 11001 21051 70000
AAXX 19004 71076 16/// /2703 11136 21151 39767 40173 53015 60001 333 11127 21175 70007 555 10020
AAXX 19004 71077 16/// /3208 11095 21111 39651 40205 51028 60001 333 11064 21115 70003
AAXX 19004 71079 11474 82905 11107 21122 39821 40107 52029 69901 77177 888// 333 11107 21133 48010 70024 90983
AAXX 19004 71081 46458 33422 11168 21199 39793 49805 53009 6///1 333 11098 21172 7////
AAXX 19004 71082 NIL
AAXX 19004 71083 11612 23320 11263 21302 39989 40033 53002 69901 77677 82500 333 11259 21290 48052 79999 90983
AAXX 19004 71090 46064 81606 11239 21274 39800 49835 51045 6///1 333 11163 21253 7////
AAXX 19004 71091 460// /0613 11237 39587 49795 51015 6///1 333 7////
AAXX 19004 71092 46408 81118 11247 39133 49800 53004 6///1 333 11237 21254 7////
AAXX 19004 71093 460// /1414 11202 39332 49828 51012 6///1 333 11201 21217 7////
AAXX 19004 71094 46008 /2125 11236 38930 49835 53003 6///1 333 11235 21258 7////
AAXX 19004 71095 47764 31719 11154 21181 39760 49839 53010 6///1 745// 333 11122 21165 7////
AAXX 19004 71101 160// /1608 30217 58011 60001 333 70000
AAXX 19004 71104 12974 50000 11036 21048 39150 40283 53001 60001 80001 333 10004 21048 70030
AAXX 19004 71108 12462 41201 10068 20062 30198 40271 51012 60001 84500 333 10072 20056 70114
AAXX 19004 71109 12580 83303 10058 20017 30264 40291 53008 60001 885// 333 10066 20055 70050
AAXX 19004 71726 16/// /2004 11099 21138 39629 40197 56010 60001 333 11094 21283 70041
AAXX 19004 71727 12974 01305 11150 21184 30015 40224 58010 60001 333 11115 21239 70000
AAXX 19004 71728 12782 81103 11099 21169 39967 40198 57018 60001 885// 333 11089 21214 70000
AAXX 19004 71730 11574 81814 11024 21040 39708 40140 57023 69901 70272 8657/ 333 11024 21127 46997 79999 90923
AAXX 19004 71731 11474 81909 11038 21050 39697 40159 58020 69921 77175 888// 333 11038 21137 46002 70012 90973
AAXX 19004 71735 NIL
AAXX 19004 71738 11474 82011 10000 21023 39692 40046 57041 69901 70377 8357/ 333 10001 21058 47030 70064 90923
AAXX 19004 71739 41469 81810 11036 21052 39705 40072 58041 6//// 70272 885// 333 11035 21118 4//// 7//// 90937
AAXX 19004 71749 16964 03002 11018 21039 39759 40005 55017 69951 333 10012 21051 70005
AAXX 19004 71799 12683 12504 10068 20032 30249 40273 51012 60001 81501 333 10096 20042 70011
AAXX 19004 71800 16/// /0432 11002 21004 30099 40132 58012 60001 333 10007 21043 70000
AAXX 19004 71801 11359 80516 11035 21044 39997 40174 55010 60041 77177 885// 333 11035 21052 42006 70050 90973 93105
AAXX 19004 71803 11580 80108 11082 21126 30022 40215 53001 69901 70282 8257/ 333 11060 21101 41997 79999 90926
AAXX 19004 71807 NIL
AAXX 19004 71808 12974 03408 11162 21229 30174 40223 58004 60001 333 11129 21198 70000
AAXX 19004 71809 12574 20802 11147 21160 30207 40235 53004 60001 81501 333 11062 21147 79999
AAXX 19004 71810 16/// /0702 11105 21128 30159 40229 58003 60001 333 11097 21208 70003
AAXX 19004 71811 NIL
AAXX 19004 71813 NIL
AAXX 19004 71814 16/// /3202 11172 21193 30225 40235 51004 60001 333 11101 21206 70000
AAXX 19004 71815 12574 10210 11105 21140 30192 40224 51003 60001 81500 333 11047 21105 79999
AAXX 18184 91631 11599 20809 10271 20241 40036 60001 70300 82100 333 562//
AAXX 18184 91636 11599 31008 10272 20252 40079 60001 70200 83200 333 562//
AAXX 19004 71864 NIL
AAXX 19004 71865 16/// /2807 11061 21087 39473 40163 51032 60001 333 11012 21062 70008
AAXX 19004 71866 46964 03010 11052 21098 39563 40187 51032 6///1 333 11008 21057 7////
AAXX 19004 71867 11469 83207 11062 21070 39786 40125 52029 69901 77172 885// 333 11047 21083 47023 79999 90947
AAXX 19004 71868 NIL
AAXX 19004 71869 12574 13008 11050 21093 39635 40166 52033 60001 81500 333 11014 21062 79999
AAXX 19004 71871 15966 03010 11056 21108 39389 40210 53030 60001 333 11012 21057 70000
AAXX 19004 71877 11880 73407 11020 21059 38964 40259 52026 69901 70272 87070 333 10003 21038 42003 70012 90930
AAXX 19004 71878 12974 12807 11083 21101 39157 40257 51022 60001 81070 333 11009 21088 70024
AAXX 19004 71879 17964 02405 11035 21079 39415 40233 51021 69951 7//44 333 11005 21038 70005
AAXX 19004 71880 11782 63609 10028 21003 39095 40201 53031 60001 71511 82571 333 10074 20027 70000
AAXX 19004 71882 160// /0206 10041 21012 39711 40256 52025 69951 333 10054 20002 70085
AAXX 19004 71883 46/// /1101 11012 21022 39443 40277 51016 6///1 333 10035 21032 7////
AAXX 19004 71887 12986 12204 10044 21038 39851 40278 52013 60001 80001 333 10080 20017 70000
AAXX 19004 71889 12974 03307 10033 21016 39845 40269 53020 60001 333 10069 20005 70000
AAXX 19004 71891 16964 01604 10033 20025 39995 40273 51012 60001 333 10065 20027 70000
AAXX 19004 71892 12480 43108 10064 20043 30268 40273 52009 60001 84600 333 10077 20057 70042
AAXX 19004 71043 12883 71006 11216 21265 39911 40007 58044 60001 81071 333 11216 21282 79999
AAXX 19004 71045 16/// /1507 11036 21095 39210 40079 56060 60001 333 11034 21180 70000 555 10030
AAXX 19004 71050 46/// /3201 11021 21024 39184 40283 54000 6///1 333 11012 21078 7////
AAXX 19004 71051 NIL
AAXX 19004 71052 NIL
AAXX 19004 71066 12974 01904 11178 21205 39744 40183 55003 60001 333 11099 21244 70000
AAXX 19004 71068 12974 02307 11114 21135 39513 40227 50004 60001 333 11049 21129 79999
AAXX 19004 71069 16964 03207 11051 21067 39506 40222 51016 60001 333 11001 21051 70000
AAXX 19004 71076 16/// /2703 11136 21151 39767 40173 53015 60001 333 11127 21175 70007 555 10020
AAXX 19004 71077 16/// /3208 11095 21111 39651 40205 51028 60001 333 11064 21115 70003
AAXX 19004 71079 11474 82905 11107 21122 39821 40107 52029 69901 77177 888// 333 11107 21133 48010 70024 90983
AAXX 19004 71081 46458 33422 11168 21199 39793 49805 53009 6///1 333 11098 21172 7////
AAXX 19004 71082 NIL
AAXX 19004 71083 11612 23320 11263 21302 39989 40033 53002 69901 77677 82500 333 11259 21290 48052 79999 90983
AAXX 19004 71090 46064 81606 11239 21274 39800 49835 51045 6///1 333 11163 21253 7////
AAXX 19004 71091 460// /0613 11237 39587 49795 51015 6///1 333 7////
AAXX 19004 71092 46408 81118 11247 39133 49800 53004 6///1 333 11237 21254 7////
AAXX 19004 71093 460// /1414 11202 39332 49828 51012 6///1 333 11201 21217 7////
AAXX 19004 71094 46008 /2125 11236 38930 49835 53003 6///1 333 11235 21258 7////
AAXX 19004 71095 47764 31719 11154 21181 39760 49839 53010 6///1 745// 333 11122 21165 7////
AAXX 19004 71101 160// /1608 30217 58011 60001 333 70000
AAXX 19004 71104 12974 50000 11036 21048 39150 40283 53001 60001 80001 333 10004 21048 70030
AAXX 19004 71108 12462 41201 10068 20062 30198 40271 51012 60001 84500 333 10072 20056 70114
AAXX 19004 71109 12580 83303 10058 20017 30264 40291 53008 60001 885// 333 10066 20055 70050
AAXX 19004 60020 NIL
AAXX 19004 60030 02560 63615 10188 20136 30169 40225 58004 60001 86500 333 60007 924/6
AAXX 19004 60040 06/// /0109 10183 20134 30204 40229 58005 60001 333 60007
AAXX 19004 60338 NIL
AAXX 19004 71726 16/// /2004 11099 21138 39629 40197 56010 60001 333 11094 21283 70041
AAXX 19004 71727 12974 01305 11150 21184 30015 40224 58010 60001 333 11115 21239 70000
AAXX 19004 71728 12782 81103 11099 21169 39967 40198 57018 60001 885// 333 11089 21214 70000
AAXX 19004 71730 11574 81814 11024 21040 39708 40140 57023 69901 70272 8657/ 333 11024 21127 46997 79999 90923
AAXX 19004 71731 11474 81909 11038 21050 39697 40159 58020 69921 77175 888// 333 11038 21137 46002 70012 90973
AAXX 19004 71735 NIL
AAXX 19004 71738 11474 82011 10000 21023 39692 40046 57041 69901 70377 8357/ 333 10001 21058 47030 70064 90923
AAXX 19004 71739 41469 81810 11036 21052 39705 40072 58041 6//// 70272 885// 333 11035 21118 4//// 7//// 90937
AAXX 19004 71749 16964 03002 11018 21039 39759 40005 55017 69951 333 10012 21051 70005
AAXX 19004 71799 12683 12504 10068 20032 30249 40273 51012 60001 81501 333 10096 20042 70011
AAXX 19004 71800 16/// /0432 11002 21004 30099 40132 58012 60001 333 10007 21043 70000
AAXX 19004 71801 11359 80516 11035 21044 39997 40174 55010 60041 77177 885// 333 11035 21052 42006 70050 90973 93105
AAXX 19004 71803 11580 80108 11082 21126 30022 40215 53001 69901 70282 8257/ 333 11060 21101 41997 79999 90926
AAXX 19004 71807 NIL
AAXX 19004 71808 12974 03408 11162 21229 30174 40223 58004 60001 333 11129 21198 70000
AAXX 19004 71809 12574 20802 11147 21160 30207 40235 53004 60001 81501 333 11062 21147 79999
AAXX 19004 71810 16/// /0702 11105 21128 30159 40229 58003 60001 333 11097 21208 70003
AAXX 19004 71811 NIL
AAXX 19004 71813 NIL
AAXX 19004 71814 16/// /3202 11172 21193 30225 40235 51004 60001 333 11101 21206 70000
AAXX 19004 71815 12574 10210 11105 21140 30192 40224 51003 60001 81500 333 11047 21105 79999
AAXX 19001 02019 05/99 /0705 11038 21056 39382 40008 58008 60001 333 60005 90710 91109
AAXX 19001 02081 07/60 /0203 11045 21053 39614 40022 58009 60011 77177 333 69915 90710 91105
AAXX 19001 02095 07281 /0304 11011 21015 39785 49990 57008 69991 70070 333 60005 88/06 90710 91107
AAXX 19001 02101 47469 /9901 11035 21050 39414 49975 55002 785// 8//// 333 81/18 87/34 88/44
AAXX 19001 02119 07599 /3201 11047 21047 39604 49994 58007 69971 72477 333 69905 88/26 90710 91102
AAXX 19001 02124 07550 /0203 11033 21041 39445 49971 57003 69971 77187 333 69935 89/21 90710 91108
AAXX 19001 02126 07313 /3604 11020 21026 39606 49944 57003 60031 77174 333 69965 81/07 88/18 90710 91107
AAXX 19001 02151 36/// ///// 1//// 2//// 3//// 4//// 5//// 6///1 333 6///5 910// 90710 911// 90710 912//
AAXX 19001 02186 07217 80703 10002 20001 39925 49950 57004 60021 76786 333 69975 87/04 88/06 91006 90710 91106 90710 91204
AAXX 19001 02197 07/56 /0604 10007 20006 39941 49960 57006 69941 77187 333 69925 90710 91107
AAXX 19001 02207 05799 /3202 11069 21074 39252 49956 56004 60001 333 60005 88/50 90710 91104
AAXX 19001 02219 07/27 /3102 11040 21042 39279 49946 57001 69981 74174 333 69945 90710 91105
AAXX 19001 02226 47/18 /3304 11027 21029 39472 49926 57001 771// 8//// 333 89/07
AAXX 19001 02243 07/11 /0202 11014 21016 39641 49908 50000 60041 77177 333 69985 90710 91105
AAXX 19001 02269 07357 /0507 10022 20020 60051 76176 333 69955 88/07 90710 91112
AAXX 19001 02287 07360 /0809 10019 20010 39890 49901 57004 60021 76186 333 69915 88/07 90710 91112
AAXX 19001 02297 07261 /0909 10011 20011 39873 49918 57006 60031 76166 333 69945 81/05 83/09 85/14 87/// 90710 91113
AAXX 19001 02308 07338 /2301 11044 21060 39068 49928 57003 69901 77170 333 69905 89/06 90710 91105
AAXX 19001 02327 07/50 /3204 11021 21039 39476 49910 52001 69951 77170 333 69915 90710 91111
AAXX 19001 02355 07357 /0208 10016 20016 39847 49859 52002 60051 76776 333 60015 85/07 88/11 90710 91111
AAXX 19001 02366 47471 /3505 10005 20005 39873 49879 52003 724// 8//// 333 85/14 88/20
AAXX 19001 02407 07430 /3205 11020 21028 39531 49899 54000 69961 77171 333 69925 88/18 90710 91108
AAXX 19001 02418 47336 /2903 11009 21016 39778 49909 57002 774// 8//// 333 81/09
AAXX 19001 02435 47/13 /3005 11011 21021 39684 49870 52003 771// 8//// 333 89/02
AAXX 19001 02440 07423 /3403 11011 21013 60021 77177 333 69905 89/12 90710 91106
AAXX 19001 02452 07229 /3005 11022 21022 69961 77177 333 69925 86/05 87/34 90710 91111
AAXX 19001 02456 07229 /3102 10002 21001 39792 49834 52006 60041 77177 333 69975 89/06 90710 91104
AAXX 19001 02469 07/35 /2705 11003 21009 69991 77177 333 69915 90710 91107
AAXX 19001 02498 07360 /2609 10012 20005 39819 49835 52010 69991 76787 333 69915 88/08 90710 91112
AAXX 19001 02518 46/// /2812 10051 20018 333 90710 91115
AAXX 19001 02520 35684 22906 10010 21027 39872 49939 50001 60001 333 60005 82/43 91008 90710 91108 90710 91207
AAXX 19001 02550 47462 /2403 11022 21022 39656 49931 54000 780// 8//// 333 81/16 85/30
AAXX 19001 02562 17484 82906 11005 21019 39783 49898 50003 69931 70087 333 60005 88/19 91007 90710 91109 90710 91206
AAXX 19001 02563 07499 /2805 11001 21008 39862 49884 52008 69901 70071 333 60005 86/14 88/31 90710 91111
AAXX 19001 02565 07463 /2606 11014 21031 39802 49921 52008 69931 72487 333 69905 86/15 87/57 90710 91109
AAXX 19001 02589 07459 /2708 10016 20009 39844 49864 52015 69951 78186 333 69915 87/10 90710 91113
AAXX 19001 02590 47332 /2608 10006 20003 39834 49895 52013 771// 8//// 333 84/07 87/12 88/16
AAXX 19001 02618 07/62 /2604 10019 20001 39798 49963 50003 60001 70010 333 60005 90710 91107
AAXX 19001 02664 35984 02404 10010 21034 39892 49964 51014 60001 333 60005 91007 90710 91109 90710 91206
AAXX 19001 02679 07499 /2711 10009 21014 39875 49920 52015 60011 70076 333 60005 87/18 90710 91115
AAXX 19004 68032 42960 11009 10235 20190 48513 57007 81080
AAXX 19004 78948 12584 20506 10240 20193 30136 40144 60001 70111 81401 333 02206 10296 20223 58007 81826
AAXX 19001 01199 16/// /0605 11057 21069 39557 40032 57008 6//// 333 91109
AAXX 19001 01441 16/// /1401 11084 21098 39012 40024 52003 60001 333 91104
AAXX 19004 48431 32960 10802 10182 20146 39945 40165 52013 80001 333 20000 59009
AAXX 19004 48325 31/00 90000 10156 20154 39914 40166 52009 74742 333 20148 58000
AAXX 19004 48404 31957 20000 10156 20144 39978 40164 51014 71000 80005 333 20155 59011
AAXX 19004 48581 01430 80000 10240 20234 30062 40104 52009 60084 72162 82576 333 20236 59002 69937 70079
AAXX 19004 48464 31958 33206 10202 20171 30115 40128 52015 71011 80001 333 20202 59006
AAXX 19004 78388 111570 61305 10254 20196 30148 40157 60001 70522 82802 333 01209 10299 20230 58000 82822 86070
AAXX 19004 17022 11560 80704 10099 20077 30045 40211 55005 60011 70262 8552/ 333 85630 88458 91107 92427
AAXX 19004 17031 12670 59902 10073 20065 30229 40235 51009 60001 82101 333 82836 85070
AAXX 19004 17038 12970 32710 10156 21019 30180 40230 53017 60001 83030 333 83360 92428
AAXX 19004 17050 12670 83602 10060 20030 30133 40196 50000 60001 8552/ 333 85635 88460 91108
AAXX 19004 17060 11560 70408 10082 20078 30163 40203 51004 60041 78082 85250 333 85830 86359
AAXX 19004 17096 11902 00000 11186 21197 38332 48605 53006 60001 74842
AAXX 19004 17124 11660 60909 10062 20054 39283 40201 53002 69941 70282 83250 333 83835 85360
AAXX 19004 17128 12670 61902 10070 20038 39123 40217 53007 60001 83130 333 83840 85360
AAXX 19004 17170 NIL
AAXX 19004 17195 11922 00000 11012 21014 39036 48552 52005 60001 71000
AAXX 19004 17199 11558 82102 10019 21007 39196 40325 55001 60001 71022 8562/ 333 82720 84632 88458
AAXX 19004 17219 11565 61915 10157 20097 30025 40168 53003 69901 70282 84250 333 84830 86360 91127
AAXX 19004 17240 11570 51406 10090 20042 39063 40204 53001 69921 70282 83250 333 83830 85360 91120
AAXX 19004 17244 12670 20704 10041 20020 39042 48541 52004 60001 82500 333 82640
AAXX 19004 17280 11428 62702 10022 20020 39498 40311 55000 60001 71011 86600 333 86710
AAXX 19004 17350 12660 70606 10109 20051 30176 40255 58004 60001 83170 333 83835 87360
AAXX 19004 78388 111570 61305 10254 20196 30148 40157 60001 70522 82802 333 01209 10299 20230 58000 82822 86070
AAXX 19004 16320 12960 01713 10086 20075 30105 40118 58006 60001 555 0////
AAXX 19004 60710 11550 82206 10070 20056 30093 40174 50007 60383 78082 888// 333 55026 20508 84820 85630
AAXX 19004 60714 11458 72806 10080 2//// 30165 40171 56008 60133 72162 878// 333 55016 20916 84816 85630
AAXX 19004 60720 NIL
AAXX 19004 60728 NIL
AAXX 19004 60729 NIL
AAXX 19004 60731 NIL
AAXX 19004 60732 NIL
AAXX 19004 60734 NIL
AAXX 19004 60738 11560 60000 10014 20014 38919 40193 51001 69983 70262 86200 333 55035 20773 86823
AAXX 19004 60739 NIL
AAXX 19004 60740 12465 52706 10088 20034 30167 40169 54000 60003 85200 333 55071 20987 85816
AAXX 19004 60742 NIL
AAXX 19004 60764 NIL
AAXX 19004 60770 NIL
AAXX 19004 60772 NIL
AAXX 19004 60775 NIL
AAXX 19004 60780 NIL
AAXX 19004 16206 12770 60109 10046 20020 30089 40097 52010 60001 83031 333 83356
AAXX 19004 60715 11558 62109 10086 20050 30159 40166 56007 69943 70162 84840 333 58024 83823 84359 91013 91126
AAXX 19004 60723 NIL
AAXX 19004 60725 11558 72902 10067 2//// 30012 40195 58003 60013 70282 878// 333 55050 20902 84820 83630
AAXX 19004 60735 12558 72002 10084 20044 30092 40183 58004 60003 85880 333 55074 20860 84823
AAXX 19004 60745 12560 50507 10077 20020 39804 40182 50006 60003 85200 333 55060 10988 85826
AAXX 19004 60748 NIL
AAXX 19004 60750 12560 43303 10084 20028 30143 40169 56001 60003 84800 333 55069 21035 83820
AAXX 19004 60760 12560 33002 10100 20003 30073 40179 50006 60003 82202 333 55081 21191 82830 91003 91110
AAXX 19004 60765 NIL
AAXX 19004 60767 12560 53006 10081 20039 30026 40174 53004 69933 83502 333 55055 20997 83630 83070
AAXX 19004 60769 11458 52917 10119 20085 30162 40166 51009 69923 76062 85800 333 55039 20855 83816 84626
AAXX 19001 12160 11480 72006 10019 21004 39976 40029 53019 69901 70281 872// 333 91110 93097
AAXX 19001 12205 12570 32307 10019 20004 30058 40066 52019 60001 83500 333 91114 93000
AAXX 19001 12465 11777 72307 10016 21003 39873 40110 51021 69921 70182 875// 333 93092
AAXX 19001 12566 12670 32303 11016 21044 39851 40155 52018 60001 83500 333 93000
AAXX 19001 02464 47338 /2605 10001 21002 39831 49848 52004 771// 8//// 333 85/07 88/11
AAXX 19001 02500 05/83 /3009 10044 21010 39904 49946 54001 60001 333 60005 90710 91113
AAXX 19001 02513 NIL
AAXX 19001 02615 05/70 /2610 10032 20017 30005 40010 51011 60001 333 60005 90710 91113
AAXX 19001 02635 05/79 /2605 10025 20004 60001 333 60005 90710 91108
AAXX 19001 12120 11470 52407 10024 20012 39992 49999 51017 60011 70182 82202 333 91114 93001
AAXX 19001 12250 11477 72205 10019 20009 39978 40068 52021 60021 70282 875// 333 91109 93002
AAXX 19001 12295 11474 72204 10018 21008 39889 40075 52020 69901 70362 875// 333 91113 93097
AAXX 19001 12330 11570 72607 10025 21006 39983 40093 51023 69901 70382 875// 333 91013 91113 93097
AAXX 19001 12375 11580 52304 10022 21006 39966 40099 52021 69901 72581 83830 333 91113 93097
AAXX 19001 12424 11599 82403 10026 21007 39974 40129 51022 69901 70381 875// 333 93097
AAXX 19001 12105 11471 72407 10026 20008 39991 40034 53020 69921 72586 875// 333 87614 91012 91112 93092
AAXX 19001 12195 11582 62409 10010 21016 39809 40039 53017 69901 70182 865// 333 91014 91114 93097
AAXX 19001 12235 11467 82308 10014 20007 39829 40041 52017 69901 72681 885// 333 91113 93097
AAXX 19001 12270 11472 72406 10007 20003 39884 40069 52020 60031 72682 873// 333 91113 93003
AAXX 19001 12280 11484 82306 10015 21012 39887 40045 51021 69901 70381 885// 333 91113 93097
AAXX 19001 12300 11480 72704 10020 20004 39995 40086 52018 69901 70381 875// 333 91109 93097
AAXX 19001 12400 11570 72405 10014 20001 39869 40108 52018 69901 70382 875// 333 91010 91111 93097
AAXX 19001 12435 12581 72307 10022 21014 39935 40109 52022 60001 875// 333 91112 93000
AAXX 19001 12495 12781 32305 10013 21028 39836 40134 51019 60001 83500 333 91110 93000
AAXX 19001 12530 12675 72304 10022 21021 39934 40137 51017 60001 875// 333 93000
AAXX 19001 12570 12675 12105 10007 21022 39816 40141 51020 60001 81500 333 93000
AAXX 19001 12580 12980 01904 10007 21029 39893 40159 51022 60001 333 91112 93000
AAXX 19004 64600 33960 00000 10188 20168 39452 40093 333 59003
AAXX 19004 64601 33960 53612 10192 20052 38992 48509 80002 333 59003 85080
AAXX 19004 64605 33960 00000 10160 20133 39359 40091 333 59002
AAXX 19004 64610 33960 00000 10160 20152 3//// 4//// 333 5////
AAXX 19004 64650 32956 00000 10196 20176 39685 40091 333 59005
AAXX 19004 64654 33960 51006 10176 20122 39544 40107 80002 333 58012 85080
AAXX 19004 64655 33960 30000 10162 20150 39446 40083 80002 333 59007 83080
AAXX 19004 64656 33960 10000 10192 20176 39535 40083 80002 333 59001 81080
AAXX 19004 64659 NIL
AAXX 19004 64660 33958 00000 10200 20175 39562 40080 333 58001
AAXX 19004 64662 NIL
AAXX 19004 64665 33960 00000 10216 20198 3//// 4//// 333 5////
AAXX 19004 65352 31940 70404 10235 20038 3//// 4//// 70522 80002 333 5//// 87076
AAXX 19004 65361 32958 70000 10200 20090 3//// 4//// 80002 333 5//// 87076
AAXX 19004 65376 32957 72802 10250 20192 39654 40109 80002 333 59003 87076
AAXX 19004 65387 32956 72804 10270 20263 30080 40098 80002 333 58002 87073
AAXX 18124 91631 11599 10310 10276 20240 40084 60001 70200 81100 333 10314 561//
AAXX 18124 91636 11599 30910 10270 20250 40077 60001 70200 83200 333 10317 562//
AAXX 19001 01300 41598 53211 10039 21004 40047 57001 70282 8//// 22200 02060 10807 70034 333 91114
AAXX 19004 41859 NIL
AAXX 19004 41883 NIL
AAXX 19004 41891 NIL
AAXX 19004 41907 NIL
AAXX 19004 41923 31/02 90000 10123 20120 30141 40151 74344 89/// 333 56999 59002 70000
AAXX 19004 41936 NIL
AAXX 19004 41943 31/07 90000 10118 20118 30144 40152 74544 89/// 333 59004 70000
AAXX 19004 41950 31315 80000 10150 20150 30148 40151 71042 8662/ 333 56799 59004 70000 83708 84616 88459
AAXX 19004 41978 NIL
AAXX 19004 41992 NIL
AAXX 19001 01400 41599 43209 10056 20005 40095 52006 70110 81200 22200 06081 10707 70037 333 91116
AAXX 19001 78458 32466 50000 10220 20217 40178 52014 83230 333 10272 20200 30/// 56000 58005 83818
AAXX 19001 78460 31462 50000 10228 20189 40166 52014 70544 83201 333 10275 20180 30/// 56000 58000 83818 84080
AAXX 19001 78467 32566 10000 10246 20196 40166 52015 81200 333 10278 20190 31/// 56000 59001 81820
AAXX 19001 78479 32566 50703 10240 20178 40142 52010 82201 333 10285 20225 30/// 56100 58002 82820
AAXX 19001 78482 32466 40000 10248 20208 40176 53018 81236 333 10300 20176 30/// 56500 58006 81818 84280
AAXX 19001 78485 32566 40403 10214 20184 40163 52018 83231 333 10279 20194 31/// 56000 58001 83820 83080
AAXX 19001 78486 32566 30202 10244 20201 40140 52009 83500 333 10285 20200 30/// 56100 59006 83620
AAXX 19001 78488 32466 30000 10216 20204 40160 52012 82206 333 10292 20170 30/// 56000 58000 82818
AAXX 19001 78458 32466 50000 10220 20217 40178 52014 83230 333 10272 20200 30/// 56000 58005 83818
AAXX 19001 78460 31462 50000 10228 20189 40166 52014 70544 83201 333 10275 20180 30/// 56000 58000 83818 84080
AAXX 19001 78467 32566 10000 10246 20196 40166 52015 81200 333 10278 20190 31/// 56000 59001 81820
AAXX 19001 78479 32566 50703 10240 20178 40142 52010 82201 333 10285 20225 30/// 56100 58002 82820
AAXX 19001 78482 32466 40000 10248 20208 40176 53018 81236 333 10300 20176 30/// 56500 58006 81818 84280
AAXX 19001 78485 32566 40403 10214 20184 40163 52018 83231 333 10279 20194 31/// 56000 58001 83820 83080
AAXX 19001 78486 32566 30202 10244 20201 40140 52009 83500 333 10285 20200 30/// 56100 59006 83620
AAXX 19001 78488 32466 30000 10216 20204 40160 52012 82206 333 10292 20170 30/// 56000 58000 82818
AAXX 19001 14024 46/// ///// 1//// 2//// 3//// 4//// 5////
AAXX 19004 65351 31950 73610 10252 20073 3//// 4//// 70522 80002 333 5//// 87076
AAXX 19004 65355 31958 70000 10200 20059 39599 40111 70522 80002 333 59003 87073
AAXX 19004 65357 31950 70804 10215 20071 39734 40122 70522 80002 333 58003 87076
AAXX 19004 65380 32957 72802 10250 20239 3//// 4//// 80002 333 5//// 87076
AAXX 19001 37851 42598 80000 10084 20068 30235 40304 52004 882//
AAXX 19001 37735 42996 00000 11014 21026 39857 40248 52020 555 14104
AAXX 19001 37749 42598 63601 10028 20004 30213 40333 52008 86500 555 11002
AAXX 19001 37925 42997 80000 10078 20062 30331 40302 52028 8807/ 555 11007
AAXX 19001 37675 42495 82502 10030 20003 39613 40286 52005 8802/ 555 12003
AAXX 19001 37905 42996 00000 11013 21016 30215 40307 52012 555 11025
AAXX 19001 37989 42996 62901 10053 20041 30338 40311 52012 86030 555 10004
AAXX 19001 37661 42998 03501 10006 21017 39530 40316 52013 555 14102
AAXX 19001 37864 32997 61405 10073 20053 40308 52009 86070
BBXX PBBB 19003 99487 70135 41/98 /2311 10127 20057 40239 58019 7//11 8//// 22253 00125 20304 3//// 4//// 5//// 80091
AAXX 19001 91925 02580 31013 10283 20203 30041 40101 57022 60004 83200 333 20225 56200 58001 60007 83820 90710 91124 555 60005 11026
AAXX 19001 91929 04585 /0910 10306 20219 30115 40118 56016 69901 700// 333 60007 90710 91115 555 60005
AAXX 19001 91938 02580 32504 10308 20216 30122 40124 56017 60001 83800 333 60007 82820 90710 91108 555 60005 13311
AAXX 19001 91944 06/// /0706 10288 20194 30127 40130 56012 60001 333 60007 90710 91110 555 60005
AAXX 19001 91948 02482 31004 10274 20197 30054 40155 57012 60004 83202 333 20225 56205 58019 60007 83816 90710 91110 555 60005 11111
AAXX 19001 91958 02582 40609 10263 20204 30172 40174 56008 60004 84202 333 20209 56203 58025 60007 84823 90710 91113 555 60005 10513
AAXX 19001 91945 06/// /0702 10280 20218 30132 40137 56013 60024 333 20228 58011 60027
AAXX 19004 94500 NIL
AAXX 19004 94510 46/// /0106 10209 20196 39776 40116
AAXX 19004 94515 46/// /0111 10233 20148 39781 40123
AAXX 19004 94552 46/// /0609 10235 20125 39680 40139
AAXX 19004 94578 46/// /0606 10238 20151 30141 40152
AAXX 19004 94584 46/// /0707 10259 20144 30033 40142
AAXX 19004 94601 46/// /1808 10200 20108 30123 40140
AAXX 19004 94610 46/// /1309 10211 20100 30114 40137
AAXX 19004 94637 46/// /1412 10221 20044 39672 40088
AAXX 19004 94638 46/// /1304 10213 20152 30095 40126
AAXX 19004 94642 NIL
AAXX 19004 94643 NIL
AAXX 19004 94647 46/// /0409 10261 20109 39973 40092
AAXX 19004 94651 46/// /0313 10238 20145 30032 40108
AAXX 19004 94653 46/// /2104 10213 20152 30106 40124
AAXX 19004 94659 46/// /1005 10245 20099 39927 40118
AAXX 19004 94672 46/// /2709 10198 20129 30116 40126
AAXX 19004 94691 46/// /2108 10224 20129 39789 40109
AAXX 19004 94693 46/// /2408 10220 20127 30053 40113
AAXX 19004 94700 NIL
AAXX 19004 94703 46/// /2809 10252 20196 39973 40096
AAXX 19004 94710 46/// /3109 10239 20188 39838 40084
AAXX 19004 94729 46/// /3308 10171 20151 39260 40091
AAXX 19004 94750 46/// /0504 10208 20170 39968 40090
AAXX 19004 94767 46/// /0313 10214 20166 30096 40102
AAXX 19004 94776 46/// /3201 10218 20164 30105 40115
AAXX 19004 94791 NIL
AAXX 19004 94802 NIL
AAXX 19004 94804 46/// /2707 10191 20141 30082 40119
AAXX 19004 94807 NIL
AAXX 19004 94821 46/// /2713 10167 20129 30013 40094
AAXX 19004 94842 46/// /3023 10175 20129 39965 40063
AAXX 19004 94847 NIL
AAXX 19004 94850 46/// /3123 10176 20145 39999 40044
AAXX 19004 94865 46/// /2717 10220 20123 30049 40073
AAXX 19004 94866 46/// /2612 10210 20119 39936 40074
AAXX 19004 94875 46/// /2610 10222 20148 39941 40074
AAXX 19004 81225 12970 20505 10262 20231 40107 60001 80002 333 10330 56009 59004 70000 82080
AAXX 19004 81200 12970 20806 10268 20230 40107 60001 80002 333 10/// 56009 59002 70000 82080
AAXX 19004 81202 12970 10717 10274 20240 40107 60001 80002 333 10298 56009 59004 70000 81080
AAXX 19004 81209 NIL
AAXX 19004 81251 NIL
AAXX 19004 94893 46/// /2822 10174 20172 39937 40051
AAXX 19004 94907 46/// /2716 10196 20181 3//// 4////
AAXX 19004 94910 46/// /1004 10215 20178 39828 40072
AAXX 19004 94926 46/// /3606 10170 20160 39430 40084
AAXX 19004 94935 46/// /0111 10194 20175 30039 40065
AAXX 19004 94954 46/// /3011 10164 20147 39935 40044
AAXX 19004 94956 46/// /3314 10156 20148 30007 40033
AAXX 19004 94975 46/// /0513 10175 20155 30018 40050
AAXX 19004 94983 46/// /3618 10169 20169 30024 40049
AAXX 19004 94995 46/// /0710 10191 20129 30168 40176
AAXX 19004 94996 46/// /1613 10216 20127 30015 40143
AAXX 19004 94997 NIL
AAXX 19004 94998 46/// /0805 10099 20061 30193 40204
AAXX 19004 95111 46/// /1705 10299 20254 30039 40075
AAXX 19004 95205 46/// /2503 10301 20239 30069 40076
AAXX 19004 95322 NIL
AAXX 19004 95448 46/// /1908 10260 20061 39515 40062
AAXX 19004 95458 46/// /0410 10283 20086 39861 40117
AAXX 19004 95480 NIL
AAXX 19004 95481 46/// /2209 10311 20093 30060 40104
AAXX 19004 95482 46/// /1908 10316 20199 30040 40094
AAXX 19004 95485 46/// /2009 10266 20140 39903 40103
AAXX 19004 95492 46/// /3611 10252 20198 39958 40109
AAXX 19004 95527 46/// /0218 10216 20137 39877 40125
AAXX 19004 95634 46/// /1415 10206 20107 39715 40109
AAXX 19004 95637 46/// /1807 10185 20104 39797 40125
AAXX 19004 95646 46/// /0418 10273 20101 39889 40072
AAXX 19004 95666 NIL
AAXX 19004 95719 46/// /3512 10220 20158 39772 40095
AAXX 19004 95762 46/// /3612 10209 20128 39674 40122
AAXX 19004 95826 NIL
AAXX 19004 95839 46/// /2413 10188 20109 39937 40093
AAXX 19004 95864 NIL
AAXX 19004 95909 NIL
AAXX 19004 95954 NIL
AAXX 19004 95966 46/// /3204 10171 20158 39848 40045
AAXX 19004 96995 46/// /1805 10247 20229 39794 40088
AAXX 19004 96996 41570 21309 10263 20212 30091 40095 53013 70200 82100
BBXX UCKZ 19001 99670 30448 41395 80815 11015 21022 49792 57056 77372 8872/ 22281 01015 2//// ICE 57895
BBXX FHZI 19004 99604 31450 46/// /0219 10021 20016 30067 40078 57028 22243 04006 85019
BBXX FHZI 18234 99602 31450 46/// /0219 10021 20021 30076 40087 57026 22243 04005 85021
AAXX 19003 NIL
AAXX 19004 94102 46/// /2705 10318 20261 30057 40066
AAXX 19004 94103 NIL
AAXX 19004 94120 46/// /2312 10273 20256 30037 40077
AAXX 19004 94122 46/// /2806 10310 20236 30060 40068
AAXX 19004 94131 46/// /2904 10280 20249 39925 40076
AAXX 19004 94132 NIL
AAXX 19004 94147 NIL
AAXX 19004 94150 46/// /2004 10308 20247 30010 40069
AAXX 19004 94151 46/// /1006 10272 20250 30057 4////
AAXX 19004 94170 46/// /0807 10300 20248 30060 40082
AAXX 19004 94200 NIL
AAXX 19004 94203 46/// /2805 10313 20244 30066 40076
AAXX 19004 94206 46/// /3406 10314 20235 39941 40069
AAXX 19004 94207 46/// /2413 10274 30061 40069 51020
AAXX 19004 94211 NIL
AAXX 19004 94212 46/// /2405 10312 20219 39607 40070
AAXX 19004 94216 46/// /2005 10303 20230 30028 40078
AAXX 19004 94236 NIL
AAXX 19004 94238 46/// /0706 10257 20225 39666 40080
AAXX 19004 94248 NIL
AAXX 19004 94255 46/// /0405 10293 20215 39831 40087
AAXX 19004 94268 NIL
AAXX 19004 94287 46/// /1710 10284 20220 30087 40096
AAXX 19004 94290 NIL
AAXX 19004 94294 46/// /1111 10288 20208 30101 40111
AAXX 19004 94296 35/// /1514 10267 30071 40081 57001
AAXX 19004 94298 46/// /1220 10261 30091 40097 58003
AAXX 19004 95641 NIL
AAXX 19004 94299 46/// /1420 10288 20200 30082 40092
AAXX 19004 94300 46/// /1518 10232 20136 30109 40119
AAXX 19004 94302 46/// /1815 10256 20159 30084 40090
AAXX 19004 94312 46/// /2614 10305 20206 30064 40073
AAXX 19004 94313 NIL
AAXX 19004 94317 46/// /2512 10343 20102 39482 40052
AAXX 19004 94319 46/// /2311 10359 20094 39729 40051
AAXX 19004 94324 NIL
AAXX 19004 94326 46/// /1208 10315 20098 39481 40082
AAXX 19004 94327 46/// /2705 10291 20203 39720 40084
AAXX 19004 94332 46/// /0905 10272 20215 39710 40087
AAXX 19004 94333 NIL
AAXX 19004 94341 46/// /0103 10301 20192 39862 40092
AAXX 19004 94346 46/// /0410 10305 20187 39888 40103
AAXX 19004 94363 46/// /0809 10251 20176 39918 40132
AAXX 19004 94366 NIL
AAXX 19004 94367 46/// /1511 10273 20180 30079 40120
AAXX 19004 94374 46/// /1209 10259 20163 30118 40134
AAXX 19004 94388 46/// /1111 10259 20155 30134 40139
AAXX 19004 94393 46/// /1425 10250 30092 40104 58007
AAXX 19004 94394 46/// /1116 10247 30119 40127 58008
AAXX 19004 94403 46/// /1415 10223 20111 30089 40130
AAXX 19004 94429 46/// /1708 10213 20119 39640 40093
AAXX 19004 94430 46/// /1710 10258 20081 39507 40075
AAXX 19004 94449 46/// /2008 10262 20137 39552 40068
AAXX 19004 94451 NIL
AAXX 19004 94461 46/// /0710 10305 20077 39423 40077
AAXX 19004 94462 46/// /0815 10315 20051 39550 40092
AAXX 19004 94477 NIL
AAXX 19004 94488 NIL
AAXX 19004 89564 45/// /1623 11003 21094 39885 49905 51006
AAXX 19004 89570 46/// /0941 11051 21083 39170 51020 333 21116
AAXX 19004 89571 41675 60626 10021 21094 39823 49851 51048 70222 82571
AAXX 19004 89573 NIL
AAXX 19004 89610 NIL
AAXX 19004 89611 NIL
AAXX 19004 89614 NIL
AAXX 19004 89615 46/30 /0931 11031 21069 38987 51013 333 21083
AAXX 19004 89807 NIL
AAXX 19004 89809 NIL
BBXX PCAM 19003 99412 31732 41597 33604 10205 20109 40174 52/// 7//00 83460 22200 04189 20601 80148
BBXX VRDU8 19003 99387 31376 41598 31920 10180 20217 40081 52055 70111 83175 22224 04160 20804 307// 40850
BBXX V2OG2 19003 99211 31105 41598 52017 10250 20207 40115 53012 70000 85400 22233 20402 318// 40503 80220
BBXX PCDE 19003 99399 31306 41597 82908 10164 20138 40091 70288 885// 22223 20201 399// 40602 80148
BBXX VNSZ 18234 99412 31464 46/// /0207 10173 20163 30013 40039 52001 22200 04186 85167
BBXX C6FS9 18234 99274 31531 46/// /0704 10221 20154 30130 40166 57001 22200 04239 85178
BBXX VNSZ 18224 99412 31464 46/// /0412 10170 20161 30011 40037 57009 22200 04184 85164
BBXX 9HA2479 18224 99339 31512 46/// /3503 10202 20157 30091 40120 52006 22200 04204 85174
BBXX C6FS9 18224 99274 31531 46/// /0905 10220 20156 30132 40168 52009 22200 04238 85179
BBXX VROB 18224 99303 31535 46/// /3512 10215 20136 30130 40155 52004 22244 04239 85166
BBXX VNSZ 19004 99412 31464 46/// /3109 10173 20163 30013 40039 52001 22200 04187 85166
BBXX VNAH 18224 99333 31157 46/// /1704 10164 20116 30108 40132 52011 22200 85136
BBXX C6FS9 19004 99274 31531 46/// /0805 10228 20148 30128 40164 57007 22200 04242 85177
BBXX 9HA2479 19004 99339 31512 46/// /0609 10197 20169 30075 40104 57017 22200 04204 85178
BBXX VROB 19004 99308 31534 46/// /3622 10223 20139 30119 40144 57014 22244 04246 85170
BBXX VROB 18234 99305 31534 46/// /3619 10222 20147 30120 40145 57011 22244 04244 85174
BBXX VNAH 18234 99333 31157 46/// /1405 10182 20115 30114 40138 52014 22200 85142
BBXX B2M1450 19003 99008 11406 41398 40705 10295 20270 40088 53019 70211 82445 22234 04270 20100 80277
AAXX 19004 94500 NIL
AAXX 19004 94510 46/// /0106 10209 20196 39776 40116
AAXX 19004 94515 46/// /0111 10233 20148 39781 40123
AAXX 19004 94552 46/// /0609 10235 20125 39680 40139
AAXX 19004 94578 46/// /0606 10238 20151 30141 40152
AAXX 19004 94584 46/// /0707 10259 20144 30033 40142
AAXX 19004 94601 46/// /1808 10200 20108 30123 40140
AAXX 19004 94610 46/// /1309 10211 20100 30114 40137
AAXX 19004 94637 46/// /1412 10221 20044 39672 40088
AAXX 19004 94638 46/// /1304 10213 20152 30095 40126
AAXX 19004 94642 NIL
AAXX 19004 94643 NIL
AAXX 19004 94647 46/// /0409 10261 20109 39973 40092
AAXX 19004 94651 46/// /0313 10238 20145 30032 40108
AAXX 19004 94653 46/// /2104 10213 20152 30106 40124
AAXX 19004 94659 46/// /1005 10245 20099 39927 40118
AAXX 19004 94672 46/// /2709 10198 20129 30116 40126
AAXX 19004 94691 46/// /2108 10224 20129 39789 40109
AAXX 19004 94693 46/// /2408 10220 20127 30053 40113
AAXX 19004 94700 NIL
AAXX 19004 94703 46/// /2809 10252 20196 39973 40096
AAXX 19004 94710 46/// /3109 10239 20188 39838 40084
AAXX 19004 94729 46/// /3308 10171 20151 39260 40091
AAXX 19004 94750 46/// /0504 10208 20170 39968 40090
AAXX 19004 94767 46/// /0313 10214 20166 30096 40102
AAXX 19004 94776 46/// /3201 10218 20164 30105 40115
AAXX 19004 94791 NIL
AAXX 19004 94802 NIL
AAXX 19004 94804 46/// /2707 10191 20141 30082 40119
AAXX 19004 94807 NIL
AAXX 19004 94821 46/// /2713 10167 20129 30013 40094
AAXX 19004 94842 46/// /3023 10175 20129 39965 40063
AAXX 19004 94847 NIL
AAXX 19004 94850 46/// /3123 10176 20145 39999 40044
AAXX 19004 94865 46/// /2717 10220 20123 30049 40073
AAXX 19004 94866 46/// /2612 10210 20119 39936 40074
AAXX 19004 94875 46/// /2610 10222 20148 39941 40074
AAXX 19004 88963 11330 80510 10010 20003 39858 49888 57033 69901 77072 8672/ 333 10025 20010 56779 86708 88540 90061 90088 92405 94070 95010
AAXX 19004 88968 31458 83220 10001 21016 39973 49988 57021 71022 886// 333 10021 20001 56799 88710 90040 90090 92416 92731 92851 94075 95065
AAXX 19004 89034 31115 80502 11034 21051 39573 49885 52023 71022 886// 333 10025 21034 56199 88703 92404 92830
AAXX 19004 89053 11350 83622 10041 20026 39890 49903 56007 69901 72052 8472/ 333 10051 20018 56879 84708 88540 90107 90207 90284 90901 92416 94075 94478 95005 96010 96250 97525 98550
AAXX 19004 89055 31758 83218 11003 21009 39630 49871 57011 71022 8807/ 333 10028 21003 56079 88550 90067 90090 95177
AAXX 19004 89066 32970 80000 10021 21022 39846 49855 57013 8807/ 333 10064 20013 56029 88360 92407 94030
AAXX 19004 94102 46/// /2705 10318 20261 30057 40066
AAXX 19004 94103 NIL
AAXX 19004 94120 46/// /2312 10273 20256 30037 40077
AAXX 19004 94122 46/// /2806 10310 20236 30060 40068
AAXX 19004 94131 46/// /2904 10280 20249 39925 40076
AAXX 19004 94132 NIL
AAXX 19004 94147 NIL
AAXX 19004 94150 46/// /2004 10308 20247 30010 40069
AAXX 19004 94151 46/// /1006 10272 20250 30057 4////
AAXX 19004 94170 46/// /0807 10300 20248 30060 40082
AAXX 19004 94200 NIL
AAXX 19004 94203 46/// /2805 10313 20244 30066 40076
AAXX 19004 94206 46/// /3406 10314 20235 39941 40069
AAXX 19004 94207 46/// /2413 10274 30061 40069 51020
AAXX 19004 94211 NIL
AAXX 19004 94212 46/// /2405 10312 20219 39607 40070
AAXX 19004 94216 46/// /2005 10303 20230 30028 40078
AAXX 19004 94236 NIL
AAXX 19004 94238 46/// /0706 10257 20225 39666 40080
AAXX 19004 94248 NIL
AAXX 19004 94255 46/// /0405 10293 20215 39831 40087
AAXX 19004 94268 NIL
AAXX 19004 94287 46/// /1710 10284 20220 30087 40096
AAXX 19004 94290 NIL
AAXX 19004 94294 46/// /1111 10288 20208 30101 40111
AAXX 19004 94296 35/// /1514 10267 30071 40081 57001
AAXX 19004 94298 46/// /1220 10261 30091 40097 58003
AAXX 19004 95641 NIL
AAXX 19004 94893 46/// /2822 10174 20172 39937 40051
AAXX 19004 94907 46/// /2716 10196 20181 3//// 4////
AAXX 19004 94910 46/// /1004 10215 20178 39828 40072
AAXX 19004 94926 46/// /3606 10170 20160 39430 40084
AAXX 19004 94935 46/// /0111 10194 20175 30039 40065
AAXX 19004 94954 46/// /3011 10164 20147 39935 40044
AAXX 19004 94956 46/// /3314 10156 20148 30007 40033
AAXX 19004 94975 46/// /0513 10175 20155 30018 40050
AAXX 19004 94983 46/// /3618 10169 20169 30024 40049
AAXX 19004 94995 46/// /0710 10191 20129 30168 40176
AAXX 19004 94996 46/// /1613 10216 20127 30015 40143
AAXX 19004 94997 NIL
AAXX 19004 94998 46/// /0805 10099 20061 30193 40204
AAXX 19004 95111 46/// /1705 10299 20254 30039 40075
AAXX 19004 95205 46/// /2503 10301 20239 30069 40076
AAXX 19004 95322 NIL
AAXX 19004 95448 46/// /1908 10260 20061 39515 40062
AAXX 19004 95458 46/// /0410 10283 20086 39861 40117
AAXX 19004 95480 NIL
AAXX 19004 95481 46/// /2209 10311 20093 30060 40104
AAXX 19004 95482 46/// /1908 10316 20199 30040 40094
AAXX 19004 95485 46/// /2009 10266 20140 39903 40103
AAXX 19004 95492 46/// /3611 10252 20198 39958 40109
AAXX 19004 95527 46/// /0218 10216 20137 39877 40125
AAXX 19004 95634 46/// /1415 10206 20107 39715 40109
AAXX 19004 95637 46/// /1807 10185 20104 39797 40125
AAXX 19004 95646 46/// /0418 10273 20101 39889 40072
AAXX 19004 95666 NIL
AAXX 19004 95719 46/// /3512 10220 20158 39772 40095
AAXX 19004 95762 46/// /3612 10209 20128 39674 40122
AAXX 19004 95826 NIL
AAXX 19004 95839 46/// /2413 10188 20109 39937 40093
AAXX 19004 95864 NIL
AAXX 19004 95909 NIL
AAXX 19004 95954 NIL
AAXX 19004 95966 46/// /3204 10171 20158 39848 40045
AAXX 19004 96995 46/// /1805 10247 20229 39794 40088
AAXX 19004 96996 41570 21309 10263 20212 30091 40095 53013 70200 82100
AAXX 19004 94299 46/// /1420 10288 20200 30082 40092
AAXX 19004 94300 46/// /1518 10232 20136 30109 40119
AAXX 19004 94302 46/// /1815 10256 20159 30084 40090
AAXX 19004 94312 46/// /2614 10305 20206 30064 40073
AAXX 19004 94313 NIL
AAXX 19004 94317 46/// /2512 10343 20102 39482 40052
AAXX 19004 94319 46/// /2311 10359 20094 39729 40051
AAXX 19004 94324 NIL
AAXX 19004 94326 46/// /1208 10315 20098 39481 40082
AAXX 19004 94327 46/// /2705 10291 20203 39720 40084
AAXX 19004 94332 46/// /0905 10272 20215 39710 40087
AAXX 19004 94333 NIL
AAXX 19004 94341 46/// /0103 10301 20192 39862 40092
AAXX 19004 94346 46/// /0410 10305 20187 39888 40103
AAXX 19004 94363 46/// /0809 10251 20176 39918 40132
AAXX 19004 94366 NIL
AAXX 19004 94367 46/// /1511 10273 20180 30079 40120
AAXX 19004 94374 46/// /1209 10259 20163 30118 40134
AAXX 19004 94388 46/// /1111 10259 20155 30134 40139
AAXX 19004 94393 46/// /1425 10250 30092 40104 58007
AAXX 19004 94394 46/// /1116 10247 30119 40127 58008
AAXX 19004 94403 46/// /1415 10223 20111 30089 40130
AAXX 19004 94429 46/// /1708 10213 20119 39640 40093
AAXX 19004 94430 46/// /1710 10258 20081 39507 40075
AAXX 19004 94449 46/// /2008 10262 20137 39552 40068
AAXX 19004 94451 NIL
AAXX 19004 94461 46/// /0710 10305 20077 39423 40077
AAXX 19004 94462 46/// /0815 10315 20051 39550 40092
AAXX 19004 94477 NIL
AAXX 19004 94488 NIL
BBXX PCAM 19003 99412 31732 41597 33604 10205 20109 40174 52/// 7//00 83460 22200 04189 20601 80148
BBXX VRDU8 19003 99387 31376 41598 31920 10180 20217 40081 52055 70111 83175 22224 04160 20804 307// 40850
BBXX V2OG2 19003 99211 31105 41598 52017 10250 20207 40115 53012 70000 85400 22233 20402 318// 40503 80220
BBXX PCDE 19003 99399 31306 41597 82908 10164 20138 40091 70288 885// 22223 20201 399// 40602 80148
BBXX VNSZ 18234 99412 31464 46/// /0207 10173 20163 30013 40039 52001 22200 04186 85167
BBXX C6FS9 18234 99274 31531 46/// /0704 10221 20154 30130 40166 57001 22200 04239 85178
BBXX VNSZ 18224 99412 31464 46/// /0412 10170 20161 30011 40037 57009 22200 04184 85164
BBXX 9HA2479 18224 99339 31512 46/// /3503 10202 20157 30091 40120 52006 22200 04204 85174
BBXX C6FS9 18224 99274 31531 46/// /0905 10220 20156 30132 40168 52009 22200 04238 85179
BBXX VROB 18224 99303 31535 46/// /3512 10215 20136 30130 40155 52004 22244 04239 85166
BBXX VNSZ 19004 99412 31464 46/// /3109 10173 20163 30013 40039 52001 22200 04187 85166
BBXX VNAH 18224 99333 31157 46/// /1704 10164 20116 30108 40132 52011 22200 85136
BBXX C6FS9 19004 99274 31531 46/// /0805 10228 20148 30128 40164 57007 22200 04242 85177
BBXX 9HA2479 19004 99339 31512 46/// /0609 10197 20169 30075 40104 57017 22200 04204 85178
BBXX VROB 19004 99308 31534 46/// /3622 10223 20139 30119 40144 57014 22244 04246 85170
BBXX VROB 18234 99305 31534 46/// /3619 10222 20147 30120 40145 57011 22244 04244 85174
BBXX VNAH 18234 99333 31157 46/// /1405 10182 20115 30114 40138 52014 22200 85142
BBXX B2M1450 19003 99008 11406 41398 40705 10295 20270 40088 53019 70211 82445 22234 04270 20100 80277
AAXX 19004 89564 45/// /1623 11003 21094 39885 49905 51006
AAXX 19004 89570 46/// /0941 11051 21083 39170 51020 333 21116
AAXX 19004 89571 41675 60626 10021 21094 39823 49851 51048 70222 82571
AAXX 19004 89573 NIL
AAXX 19004 89610 NIL
AAXX 19004 89611 NIL
AAXX 19004 89614 NIL
AAXX 19004 89615 46/30 /0931 11031 21069 38987 51013 333 21083
AAXX 19004 89807 NIL
AAXX 19004 89809 NIL
AAXX 19004 41241 NIL
AAXX 19004 41242 36/// /2104 10190 20131 30171 40195 333 0E020 58022
AAXX 19004 41244 36/// /3505 10150 20126 39843 48235 333 0E016 58020
AAXX 19004 41246 32960 02503 10195 20136 30174 40179 333 58020
AAXX 19004 41251 NIL
AAXX 19004 41252 36/// /3006 10130 20094 39802 40092 333 0E017 58013
AAXX 19004 41253 36/// /0000 10193 20167 39807 40191 333 0E019 58020
AAXX 19004 41254 NIL
AAXX 19004 41255 36/// /0000 10163 20121 39642 40204 333 0E019 58010
AAXX 19004 41256 32960 02105 10205 20165 30170 40180 333 58019
AAXX 19004 41257 36/// /0000 10168 20155 39700 40190 333 0E016 58019
AAXX 19004 41258 NIL
AAXX 19004 41259 NIL
AAXX 19004 41262 NIL
AAXX 19004 41263 NIL
AAXX 19004 41264 NIL
AAXX 19004 41265 NIL
AAXX 19004 41267 35/82 /2602 10205 20141 30158 40173 333 0E019 58015
AAXX 19004 41268 NIL
AAXX 19004 41270 36/70 /3304 10168 20138 30118 40130 333 0E018 58012
AAXX 19004 41275 NIL
AAXX 19004 41287 36/// /3303 10155 20139 30129 40198 333 0E018 58012
AAXX 19004 41288 NIL
AAXX 19004 41290 NIL
AAXX 19004 41295 NIL
AAXX 19004 41304 NIL
AAXX 19004 41312 36/// /0107 10231 20097 30124 40163 333 0E/// 58020
AAXX 19004 41314 32960 0212 1139 20042 39682 40201 333 58021
AAXX 19004 41315 36/// /3523 10153 20041 39166 42805 333 0E/// 58006
AAXX 19004 41316 3296 00410 10209 20057 30137 4014 333 58018
AAXX 19004 94310 46/// /2419 10280 20231 30055 40067 52018 333 20258
AAXX 19004 95283 46/// /1211 10289 20224 30084 40091
AAXX 19004 95288 46/// /1419 10279 30066 40081 50001
AAXX 19004 95675 46/// /2406
AAXX 19004 95872 46/// /2315
AAXX 19004 95961 37/// /3317 10162 39984 40025 52009 76044
AAXX 19001 38141 42998 01115 11204 21244 30283 40462 52006 333 91120 555 1/121
AAXX 19001 38149 42998 00307 11173 21223 30383 40469 52019 555 14118
AAXX 19001 38178 429// 03604 11250 21296 30153 40483 52014 555 14124
AAXX 19001 38262 429// 00504 11177 21213 30377 40468 52020 555 14119
AAXX 19001 38264 42998 00505 11176 21235 30359 40464 52027 333 04117 555 14119
AAXX 19001 38396 42997 00406 11151 21221 30306 40445 52020 333 04117 555 14117
AAXX 19001 38403 429// 00204 11142 21203 30250 40383 52016 555 10118
AAXX 19001 38413 429// 02707 11162 21168 30107 40430 52012 555 14120
AAXX 19001 38457 42997 02902 11084 21167 39745 40375 52002 555 14109
AAXX 19001 38462 426// 60000 11060 21108 38819 48540 52011 83550 555 1/114
AAXX 19001 38565 329// 00302 11126 21146 39769 40406 52014 555 14113
AAXX 19001 38579 325// 72602 11093 21123 39959 40411 52024 86501 333 04106 555 14106
AAXX 19001 38583 32997 03404 11109 21127 30051 40402 52018 333 04112 555 14109
AAXX 19001 38611 41796 72505 11035 21062 39702 40290 52012 71022 87340
AAXX 19001 38618 426// 70702 11015 21059 39564 40277 52009 82572 333 0/102 555 1/101
AAXX 19001 38683 42997 03607 11091 21172 30053 40351 52013 333 04110 555 14109
AAXX 19001 38696 329// 01105 11059 21070 39446 40353 52014 333 04105 555 14105
AAXX 19001 38812 41695 82402 11015 21029 39832 40305 52003 71022 885// 555 14105
AAXX 19001 38927 31456 82404 10018 21001 39919 40308 52008 71022 886// 333 88711 555 11002
BBXX V2BE4 19001 99253 11408 41/96 90206 10200 20184 40190 51003 76366 897// 22244 04215 20401 80190
BBXX VNVF 19004 99116 11300 41398 41018 10279 20255 40101 51010 70111 82144 22244 00290 20402 334// 41003 80262
AAXX 19001 37395 42997 40905 10082 21022 30101 40242 52010 84030 555 10004
AAXX 19001 37409 42598 20902 11003 21039 38786 48504 57004 82540 333 95090
AAXX 19001 37432 42697 60000 11035 21077 39012 48527 52006 86500 555 14104
AAXX 19001 37514 42996 00000 11040 21070 39134 40344 52017
AAXX 19001 37545 425// 60000 11010 21013 39771 40306 52021 85400
AAXX 19001 37621 429// 00000 11014 21062 39646 40314 52015 555 14104
AAXX 19001 37484 NIL
AAXX 19004 60101 32458 20901 10047 20034 40245 53004 82200 333 82816
AAXX 19004 60115 32565 32307 10045 20033 40254 51005 82202 333 82826
AAXX 19004 60135 12350 70605 10126 20118 40223 53003 69931 885// 333 83706 87620
AAXX 19004 60156 11309 40000 10122 20122 40225 51005 69921 74542
AAXX 19004 60252 12960 01204 10112 20082 40185 51007 60001
AAXX 19004 89577 46/// /2308 11227 35844 4//// 5////
AAXX 19004 89578 46/// /0502 11349 36966 4//// 5////
AAXX 19004 78016 11464 82825 10164 20105 30086 40090 52007 60091 76162 8677/ 333 10235 20145 70203 90917
BBXX 42362 19001 99278 70907 46/// /0808 10183 20083 40254 54000 90000
BBXX 42363 19001 99282 70892 46/// /0708 10167 20078 40264 53003 90000 333 91208
BBXX 44022 19001 99409 70737 46/// ///03 11014 21127 40261 90000 22200 00083 333 91204 555 11026 22026
BBXX 46001 19001 99563 71480 46/// /2415 10057 49920 53044 92350 22200 00051 11217 20708 300// 41216 70087 333 91219 555 11158 22170 32330 42621 62349 240147 244150 246157 237158 238152 236149
AAXX 19001 48823 31996 53401 10133 20124 30223 40226 52017 71022 85040 333 00012 20131 3/011 59008 85399
AAXX 19001 48820 31596 80501 10152 20126 30214 40222 52016 71011 888// 333 00015 20142 3/012 59019 85895 88697
BBXX 3EDA4 19003 99227 31539 41398 41106 10260 20187 40113 51016 70311 83963 22244 00267 20203 311// 40303 80210
BBXX A8NQ5 19003 99512 70253 41/96 /2320 10105 20077 40145 52025 74155 8//// 22265 299// 80090
AAXX 19001 56187 11915 83201 10046 20023 39610 40277 57002 69901 76066 8807/ 333 05404 70004
AAXX 19001 56778 32560 72503 10073 20059 38133 52008 874// 333 05304 30018
AAXX 19001 57265 NIL
AAXX 19001 57461 31930 32901 10023 20017 30136 40305 52002 71000 83040 333 05400 31012
AAXX 19001 57494 NIL
AAXX 19001 57516 32760 83201 10080 20038 39951 40269 52003 885// 333 05503
AAXX 19001 57687 NIL
AAXX 19001 57816 11630 80702 10023 20013 38838 40268 52006 69901 72160 885// 333 05402 30030 79999
AAXX 19001 58040 31920 02901 11047 21065 30312 40326 52005 71000 333 05353 31050
AAXX 19001 58102 32965 01401 11015 21064 30273 40323 52002 333 05351 31013
AAXX 19001 58150 NIL
AAXX 19001 58221 NIL
AAXX 19001 58238 NIL
AAXX 19001 58251 NIL
AAXX 19001 58362 NIL
AAXX 19001 58457 31730 83202 10042 20007 30267 40322 52006 71000 885// 333 05102 30018
AAXX 19001 58606 NIL
AAXX 19001 58752 NIL
AAXX 19001 58847 32980 02901 10099 20064 30178 40282 52014 333 05101
AAXX 19001 59117 31956 02201 10071 20052 30158 40267 52021 71000 333 05253
AAXX 19001 59134 32975 00204 10129 20051 30091 40262 52020 333 05101
AAXX 19001 59287 32965 20401 10096 20025 30168 40256 52021 80002 333 05152
AAXX 19001 59316 32961 10201 10126 20089 30241 40246 52019 81040 333 05201
AAXX 19001 59431 NIL
AAXX 19001 59644 31558 80203 10119 20055 30220 40237 52019 70500 888// 333 05253
AAXX 19001 59758 32466 70704 10166 20117 30143 40220 52016 81102 333 05200
AAXX 19001 50468 32970 03401 11227 21249 30030 40261 52005 333 00352 92507
AAXX 19001 50953 31957 01801 11178 21203 30089 40282 52006 70400 333 00252
AAXX 19001 51076 NIL
AAXX 19001 51243 NIL
AAXX 19001 51288 32980 00903 11152 21198 38359 52010 333 00251 92508
AAXX 19001 51463 NIL
AAXX 19001 51573 NIL
AAXX 19001 51709 NIL
AAXX 19001 52533 NIL
AAXX 19001 52652 NIL
AAXX 19001 52866 NIL
AAXX 19001 52983 NIL
AAXX 19001 53463 32965 00401 11107 21143 39031 40347 52004 333 05405
AAXX 19001 53513 32965 22901 11152 21176 39051 40360 52007 80002 333 05251
AAXX 19001 53588 NIL
AAXX 19001 53772 NIL
AAXX 19001 53915 NIL
AAXX 19001 54218 32980 00000 11167 21243 39498 40363 52003 333 05251
AAXX 19001 54337 32960 01401 11091 21183 30242 40330 52009 333 05102
AAXX 19001 54342 32960 02501 11158 21173 30259 40326 52013 333 05100
AAXX 19001 54401 NIL
AAXX 19001 54471 32960 00702 11073 21144 30324 40330 52012 333 05102
AAXX 19001 54497 31957 00702 11108 21140 30306 40324 52012 71000 333 05103
AAXX 19001 54511 NIL
AAXX 19001 54823 32960 01102 11020 21089 30102 40322 52002 333 05301
AAXX 19001 56080 NIL
AAXX 19001 56096 NIL
AAXX 19001 57083 31950 02202 11026 21045 30167 40310 52011 71000 333 05351 31024
AAXX 19004 78988 02482 50811 10271 20212 30117 40128 52013 60001 85800 333 10294 20259 58001 60007 81817 85650
AAXX 19004 78990 02470 30705 10261 20205 30127 40134 52014 60001 81131 333 10299 20248 58003 60007 81817 83081
AAXX 19004 78873 NIL
AAXX 19004 78988 02482 50811 10271 20212 30117 40128 52013 60001 85800 333 10294 20259 58001 60007 81817 85650
AAXX 19004 78990 02470 30705 10261 20205 30127 40134 52014 60001 81131 333 10299 20248 58003 60007 81817 83081
AAXX 19004 78873 NIL
AAXX 19004 78988 02482 50811 10271 20212 30117 40128 52013 60001 85800 333 10294 20259 58001 60007 81817 85650
AAXX 19004 78990 02470 30705 10261 20205 30127 40134 52014 60001 81131 333 10299 20248 58003 60007 81817 83081
AAXX 19004 78873 NIL
BBXX 44139 19001 99442 70571 46/// /0315 10032 40124 52006 22200 00086 10909 70046 333 91218
AAXX 19004 06670 01265 72505 10003 21023 39676 40203 5//// 60021 78582 875// 333 553// 20000 60005 82706 87641
AAXX 19004 06700 01469 32302 11038 21040 39712 40230 5//// 69961 71187 83502 333 553// 20000 60005 81615 83650
AAXX 19004 06680 03/// /3112 11151 21151 37419 47932 5//// 60041 333 553// 20000 60015
AAXX 19004 06990 01750 80201 11012 21014 39638 40205 5//// 60021 71072 8802/ 333 553// 20000 60015 88450
AAXX 19004 06760 33/// /0302 10003 21075 39704 40165 5//// 333 553// 20000
AAXX 19004 06720 02565 7//// 11014 21027 39619 40216 5//// 69951 876// 333 553// 20000 60005 87724
AAXX 19004 65501 32960 70000 10172 20028 39807 40122 80002 333 0//00 59011 87076
AAXX 19004 65502 32960 60402 10205 21015 39739 40116 80002 333 0//00 59007 86076
AAXX 19004 65503 32960 70000 10182 20053 39775 40120 80002 333 0//00 59010 87076
AAXX 19004 65505 32960 50406 10223 20014 39781 40117 80002 333 0//00 59002 85076
AAXX 19004 65507 31958 70000 10204 20045 39770 40117 70622 80002 333 0//00 59003 87076
AAXX 19004 65510 32960 50000 10230 20040 39604 40114 80002 333 0//00 59005 85076
AAXX 19004 65516 32960 50000 10202 20033 39811 40116 80002 333 0//00 59004 85076
AAXX 19004 65518 32960 73602 10211 20026 39750 40110 80002 333 0//00 59002 87076
AAXX 19004 65522 31958 70000 10190 20065 39790 40118 70622 80002 333 0//00 59001 87076
AAXX 19004 06610 32670 52106 11013 21040 39614 40220 5//// 83771 333 553// 20000 83844
BBXX 4XIS 19003 99351 11566 43398 83220 10140 20100 40140 54000 882// 22225 20404 330// 40808 80125
BBXX C6SI3 19003 99437 11627 41/95 /2724 10010 21020 40050 54000 78577 8//// 22213 0//// 21002 3//// 40604 5//// 6//// 80000 ICE /////
BBXX DHBN 19001 99312 11710 41698 82205 10185 20118 40195 50003 76062 8/11/ 22224 00220 2//// 3//// 4//// 5//// 80145
BBXX LAIG7 19004 99405 11538 41497 52924 10050 2099/ 40115 51015 70222 8416/ 22223 00090 20604 329// 40906 5//// 6//// 81025 ICE /////
BBXX WDB3161 19004 99472 11557 41597 72813 10010 2//// 49954 52002 71672 876// 22252 00036 20302 325// 40806 5//// 6//// ICE /////
BBXX 44139 19001 99442 70571 46/// /0315 10032 40124 52006 22200 00086 10909 70046 333 91218
AAXX 19004 65306 31930 50000 10200 20049 39785 40114 70522 80002 333 0//00 59008 85076
AAXX 19004 65319 NIL
AAXX 19004 65330 31912 50404 10235 20090 39669 40101 70522 80002 333 0//00 59003 85076
AAXX 19004 65335 31940 50000 10242 20193 39879 40100 705// 80002 333 0//00 59008 85076
AAXX 19004 65344 32956 52204 10285 20241 30089 40100 80002 333 0//00 59004 85076
AAXX 19004 89002 43/// /1018 11032 21044 39803 49857 52019 7//// 8//// 11014 21040
AAXX 19001 03980 17666 /2005 10050 20036 30120 40145 57017 69901 752// 86/// 333 86/32 86/50 87/60
AAXX 19004 48331 31957 00000 10142 20133 39942 40182 52010 71000 333 20139 59008
AAXX 19004 48425 31950 30000 10208 20187 30138 40148 52013 71011 80005 333 20200 59010
AAXX 19004 91753 02582 30509 10306 20254 30058 40089 58006 69901 83201 333 60007 83822 90710 91117 555 60005
AAXX 19004 91754 01460 70406 10286 20242 30046 40087 58010 60104 780// 86901 333 20261 59009 60037 81811 81916 84819 555 60025
BBXX 41052 19001 99183 70648 46/// /0405 10260 40149 53017 90000 22200 00277 333 91206
BBXX MINFR00 1900/ 99321 70811 46/// ///// 10110 40279 52017
AAXX 19004 71920 17/// /3610 11028 21051 30186 40192 51012 69961 7//4/ 333 11014 21035 70012
AAXX 19004 71307 16/// /2110 10020 21014 39952 40206 56016 60001 333 10023 21016 70000
AAXX 19004 71311 16/// /0113 11052 21091 30193 40218 53013 60001 333 11034 21101 70000
AAXX 19004 71317 16/// /0310 11037 21066 30152 40200 51011 60001 333 11018 21055 70000
AAXX 19004 71321 16/// /1909 11128 21169 39823 49866 58003 60001 333 11126 21221 70000 555 10020
AAXX 19004 71323 16/// /2301 11143 21165 39952 40248 53007 60001 333 11091 21173 70000
AAXX 19004 71331 16/// /3203 11084 21105 60001 333 11066 21086 70018 555 10010
AAXX 19004 71332 16/// /3302 11339 21376 30052 40083 58017 60001 333 11294 21339 70000
AAXX 19004 71151 17/// /3208 11018 21022 39523 40026 51022 69961 7//4/ 333 11013 21066 70006
AAXX 19004 71156 17/// /2602 11067 21077 39129 40250 51014 69951 7//4/ 333 11004 21067 70049 555 10020
AAXX 19004 71157 46/// ///// 11038 21059 6///1 333 11007 21038 7////
AAXX 19004 71158 16/// /3309 11061 21076 39803 40081 53038 60001 333 11032 21065 70000
AAXX 19004 71159 16/// /0205 11115 21141 30144 40219 51003 60001 333 11053 21117 70000
AAXX 19004 71160 16/// /1802 11176 21202 39919 40141 58001 60001 333 11176 21209 70000
AAXX 19004 71162 16/// /1915 11150 21166 39904 40120 58016 60001 333 11145 21200 70000
AAXX 19004 71164 46/// /1801 11279 21311 39910 49994 58045 6///1 333 11264 21301 7////
AAXX 19004 71166 46/// /2314 39481 58023 6///1 333 7////
AAXX 19004 71736 46/// ///// 11017 21022 6///1 333 10073 21017 7//// 555 10030
AAXX 19004 71742 46/// /0108 11083 21115 30022 40215 53001 6///1 333 11061 21102 7////
AAXX 19004 71744 16/// /3403 11117 21150 30202 40245 53001 60001 333 11069 21145 70000
AAXX 19004 71747 16/// /0000 11033 21043 39534 40010 53006 60001 333 10040 21064 7////
AAXX 19004 71137 16/// /3311 11029 21054 39244 40197 51037 60001 333 10044 21040 70000
AAXX 19004 71148 16/// /3609 11017 21025 39520 40104 53047 60001 333 10036 21067 70000
AAXX 19004 71954 46/// /3506 11062 21078 39752 40134 53033 6///1 333 11059 21080 7////
AAXX 19004 71956 16/// /2017 10011 21023 39893 40126 58025 60001 333 10012 21034 70013
AAXX 19004 71959 16/// ///// 11031 21074 60001 333 11010 21056 70006
AAXX 19004 71970 16/// /2707 11101 21126 39595 40194 51036 60001 333 11022 21102 70000
AAXX 19004 71977 46/// /0201 11266 21266 39240 49976 58030 6///1 333 11232 21317 7////
AAXX 19004 71978 46/// /0302 11295 21323 39662 49984 58008 6///1 333 11198 21296 7////
AAXX 19004 71989 16/// /2009 11300 21330 30019 40036 58011 60001 333 11296 21407 70000
AAXX 19004 71550 16/// /3503 11024 21037 39737 40113 53040 60001 333 10015 21031 70000
AAXX 19004 71551 16/// /2902 11060 21082 39525 40196 51031 60001 333 10000 21066 70008
AAXX 19004 71553 16/// /3215 11024 21060 60001 333 11012 21063 70011
AAXX 19004 71564 17/// /3609 11009 21022 39717 40085 53047 69931 7//4/ 333 10048 21058 70003
AAXX 19004 71581 16/// /2301 11045 21064 39689 40187 58013 60001 333 11045 70000 555 10010
AAXX 19004 71868 16/// /3003 11027 21063 39686 40130 51034 60001 333 11006 21057 70000
AAXX 19004 71758 16/// /0112 11031 21090 30117 40196 53006 60001 333 11019 21036 70012
AAXX 19004 71771 46/// /1616 10070 20025 30203 40224 56012 6///1 333 10071 20025 7////
AAXX 19004 71783 16/// /3302 10061 20037 30195 40269 51012 60001 333 10088 20052 70034
AAXX 19004 71356 16/// /3226 11283 21313 39997 40066 53004 60001 333 11252 21283 70000
AAXX 19004 71357 16/// /1302 11229 21253 39848 49855 51012 60001 333 11141 21229 70006 555 10040
AAXX 19004 71361 16/// /2007 11167 21190 39902 40116 58020 60001 333 11161 21195 70000
AAXX 19004 71362 16/// /1702 11161 21178 39895 40159 50002 60001 333 11125 21172 70000
AAXX 19004 71363 16/// /3219 11291 21323 39965 40021 50002 60001 333 11256 21291 70000
AAXX 19004 71364 16/// /0705 11231 21258 39838 49975 58028 60001 333 11227 21263 70000
AAXX 19004 71376 16/// /1301 11099 21129 39932 40246 58005 60001 333 11063 21193 70000
AAXX 19004 71382 16/// /1904 11184 21201 39237 40258 58001 60001 333 11122 21290 70000
AAXX 19004 71384 16/// /2801 11133 21161 30241 40249 53001 60001 333 11079 21138 70000
AAXX 19004 71389 46/// /0301 11167 21186 6///1 333 11063 21188 7////
AAXX 19004 71393 16/// ///// 11023 21053 38956 40250 53026 60001 333 11002 21036 70003 555 10020
AAXX 19004 71451 16/// /3306 11092 21111 39719 40154 51040 60001 333 11063 21102 70028 555 10060
AAXX 19004 71452 46/// /3212 11045 21061 39446 40168 51050 6///1 333 10006 21061 7////
AAXX 19004 71453 16/// /3106 11011 21046 39297 40216 51027 60001 333 10087 21012 70000
AAXX 19004 71459 16/// /2807 11022 21056 39396 40217 52027 60001 333 11003 21030 70000
AAXX 19004 71465 46/// /2018 10033 21012 39983 40203 57014 6///1 333 10034 21004 7////
AAXX 19004 71470 16/// /1503 11284 21313 39455 40109 58011 60001 333 11255 21293 70000
AAXX 19004 71476 16/// /1419 30221 58020 60001 333 70000
AAXX 19004 71482 46/// /1101 10034 30255 40294 53011 6///1 333 10041 20020 7////
AAXX 19004 71484 16/// /1514 10048 20030 30215 40234 56015 60001 333 10056 20041 70000
AAXX 19004 71489 16/// /2706 11071 21099 39391 40204 51028 60001 333 11010 21072 70000
AAXX 19004 71492 46/// ///06 11216 21234 39301 40017 58029 6///1 333 11216 21305 7////
AAXX 19004 71501 16/// /0402 11283 21317 30004 40006 58011 60001 333 11239 21288 70000
AAXX 19004 71516 16/// /3213 11032 21051 60001 333 10057 21034 70000
AAXX 19004 71837 17/// ///// 11015 69971 7//4/ 333 10066 21021 70019
AAXX 19004 71839 17/// ///// 11014 69991 7//4/ 333 10075 21014 7////
AAXX 19004 71849 16/// /3415 11008 21029 39783 40081 53045 60001 333 10002 21055 70000
AAXX 19004 71250 17/// /0513 11032 21043 30024 40163 55010 60021 7//4/ 333 11031 21050 70028
AAXX 19004 71295 17/// /3307 11025 21037 39581 40026 53024 60031 7//4/ 333 11022 21068 70046 555 10020
AAXX 19004 71296 16/// /1907 11013 21046 39879 40191 58011 60001 333 11007 70004
AAXX 19004 71885 17/// ///// 11014 69981 7//4/ 333 10087 21014 70030
AAXX 19004 71215 46/// /1202 10047 21017 39903 40252 53020 6///1 333 10074 21003 7////
AAXX 19004 71246 46/// /2003 11091 21132 39530 40212 5/006 6///1 333 7////
AAXX 19004 71110 16/// /0308 11042 21072 30098 40159 58006 60001 333 11042 21059 70000
AAXX 19004 71133 46/// /3009 11054 21111 39455 40171 53034 6///1 333 11014 21055 7////
AAXX 19004 71139 16/// /3206 11055 21069 38726 40196 51031 60001 333 10054 21059 70011
AAXX 19004 71141 16/// /3213 11324 21357 30020 40048 57002 60001 333 11259 21324 70000
AAXX 19004 71147 17/// /3410 11013 21031 69931 7//4/ 333 10028 21067 70003
AAXX 19004 71400 16/64 /3604 11082 21110 60001 333 11052 21086 70000
AAXX 19004 71444 17/// /3205 11026 21038 39341 40104 53037 60011 7//4/ 333 11015 21107 70013 555 10030
AAXX 19004 71472 16/// /1929 10064 20031 30175 40193 53015 60001 333 10067 20042 70002
AAXX 19004 71087 46/// /1402 11210 21233 39892 40105 58024 6///1 333 11187 21257 7////
AAXX 19004 71669 17/// /0000 11033 21053 38599 40244 53028 69951 7//4/ 333 10046 21033 70091
AAXX 19004 71614 16/// /1602 11111 21140 30170 40239 58004 60001 333 11062 21153 70003
AAXX 19004 71015 17/// ///// 11031 69941 7//4/ 333 10058 21042 70009
AAXX 19004 71017 16/// /2607 11355 21392 30038 40053 58004 60001 333 11338 21361 70000
AAXX 19004 71018 16/// ///12 11318 21351 39890 49980 51003 60001 333 11299 21322 70000
AAXX 19004 71019 46/// /0000 11198 21219 39932 40254 50005 6///1 333 11111 21218 7////
AAXX 19004 71020 46/// /2405 11003 21113 39811 40069 58024 6///1 333 10004 21258 7////
AAXX 19004 71021 46/// /0000 11152 21184 39750 40114 58027 6///1 333 11081 21241 7////
AAXX 19004 71063 16/// /1306 11057 21123 30123 40226 58015 60001 333 11051 21137 70000
AAXX 19004 71858 16/// /3206 11067 21081 39827 40111 53032 60001 333 11033 21067 70000
AAXX 19004 71402 46/// /0305 11078 21129 30102 40220 50004 6///1 333 11061 21083 7////
AAXX 19004 71407 16/// /2916 11235 21263 39928 49949 50006 60001 333 11210 21239 70000
AAXX 19004 71940 12982 12210 11058 21092 39405 40232 58009 60001 80001 333 11030 21141 70014
AAXX 19004 71807 17/// /0418 11029 21044 30149 40168 58010 69961 7//4/ 333 11029 21052 70006
BBXX 41053 19001 99185 70661 46/// /0606 10261 40155 53014 90000 22200 00274 11304 70020 333 91208
BBXX 41053 19001 99185 70661 46/// /0506 10262 40152 92350 333 91208
BBXX 41053 19001 99185 70661 46/// /0606 10262 40150 92340 333 91208
BBXX 41052 19001 99183 70648 46/// /0305 10261 40148 92350 333 91206
BBXX 41052 19001 99183 70648 46/// /0405 10261 40147 92340 333 91206
BBXX SKUN 19003 99515 70134 43/97 82326 10095 40185 56015 22224 00103 2//// 4////
BBXX 9V8797 19004 99173 10667 43/97 40608 10261 40160 55012 22234 00269 2//// 4////
BBXX SLKQ 19001 99130 10602 43/96 80510 10262 40113 55007 22264 00275 2////4////
AAXX 19004 16098 12975 63304 10032 21034 30079 40131 54000 60001 86030 333 86360
BBXX SBLW 19003 99166 70702 43/98 40623 10263 40170 52012 22254 00281 2//// 4////
BBXX SBLI 19001 99300 71755 43/98 83109 10215 40186 58004 22263 00224 2//// 4//// 426621110
BBXX SMGW 19001 99353 11484 43/97 81008 10101 40166 58003 22224 00189 20405 40907
BBXX SHJC 19001 99297 11222 43/98 30210 10132 40299 53003 22234 00186 2//// 4////
AAXX 19004 71400 16/64 /3604 11082 21110 60001 333 11052 21086 70000
AAXX 19004 71444 17/// /3205 11026 21038 39341 40104 53037 60011 7//4/ 333 11015 21107 70013 555 10030
AAXX 19004 71472 16/// /1929 10064 20031 30175 40193 53015 60001 333 10067 20042 70002
AAXX 19004 71868 16/// /3003 11027 21063 39686 40130 51034 60001 333 11006 21057 70000
AAXX 19004 71858 16/// /3206 11067 21081 39827 40111 53032 60001 333 11033 21067 70000
BBXX 41037 19001 99340 70775 46/// /3508 10101 40240 53019 90000 22200 00166 333 91209
AAXX 19004 71940 12982 12210 11058 21092 39405 40232 58009 60001 80001 333 11030 21141 70014
AAXX 19004 71137 16/// /3311 11029 21054 39244 40197 51037 60001 333 10044 21040 70000
AAXX 19004 71148 16/// /3609 11017 21025 39520 40104 53047 60001 333 10036 21067 70000
AAXX 19004 71807 17/// /0418 11029 21044 30149 40168 58010 69961 7//4/ 333 11029 21052 70006
AAXX 19004 71940 12982 12210 11058 21092 39405 40232 58009 60001 80001 333 11030 21141 70014
BBXX 44150 19001 99425 70640 46/// /0415 10044 40134 5//// 22200 00105 10908 70042 333 91219
BBXX 44150 19001 99425 70640 46/// /0415 10044 40134 5//// 22200 00105 10908 70042 333 91219
AAXX 19004 41263 36/// /0000 10152 20005 39496 40188 333 0E014 58011
AAXX 19001 57265 31957 62201 11001 21009 30180 40296 57005 71000 86030 333 05452 31024
AAXX 19001 57494 32962 00401 11025 21025 30270 40301 52002 333 05356 31025
AAXX 19001 57687 31956 50000 10042 20005 30210 40297 52002 70500 85040 333 05451 30007
AAXX 19001 58150 31956 00401 11002 21043 30324 40328 52003 71000 333 05201 31012
AAXX 19001 58221 31956 01101 11022 21050 30295 40325 52005 71000 333 05352
AAXX 19001 58238 31957 71101 11001 21045 30277 40324 52006 71000 80002 333 05151 31044
AAXX 19001 58251 31930 00000 11022 21039 30318 40323 52003 71000 333 05251 31029
AAXX 19001 58606 32961 00902 10027 21036 30242 40303 52006 333 05253 31019
AAXX 19001 58752 32963 02201 10082 20046 30254 40301 52014 333 05203 30031
AAXX 19001 59431 31650 73201 10102 20071 30100 40250 52013 71000 875// 333 05254
AAXX 19001 52533 32980 53401 11151 21195 38548 40341 52004 80002 333 05353
AAXX 19001 52652 32980 11401 11176 21205 38560 40350 52006 80002 333 05257
AAXX 19001 52866 32968 00000 11152 21180 37703 52002 333 05351
AAXX 19001 52983 32965 72002 11099 21111 38115 57003 80002 333 05202
AAXX 19001 53588 32470 62506 11118 21145 37793 52005 86100 333 05251 31036
AAXX 19001 53772 31910 72702 11030 21093 39356 40323 52009 70400 8704/ 333 05405
AAXX 19001 53915 11750 82903 11053 21061 38693 40295 57005 69901 77070 885// 333 05301 79999
AAXX 19001 54511 32970 30402 11044 21194 30278 40320 52008 80002 333 05301
AAXX 19001 56080 32980 02201 11150 21194 37136 57005 333 05302
AAXX 19001 56096 32772 80201 10040 21026 38981 40244 57003 885// 333 05504 30022
AAXX 19003 91551 31598 69902 10301 20265 40080 5//// 70222 83902 333 20/// 568/9 59/// 82820 81925 86080
AAXX 19003 91553 31598 79903 10290 20248 40087 58001 70222 84901 333 20225 568/9 59011 85820 81925 87080
AAXX 19003 91554 11598 89903 10295 20257 40083 58001 69904 70222 8685/ 333 20230 5699/ 59005 69904 83820 86640 88362
AAXX 19003 91555 11598 80000 10284 20253 40084 58001 60634 70222 8597/ 333 20238 5699/ 59004 60634 84820 81925 88461
AAXX 19003 91557 11498 81209 10265 20255 40066 58001 60104 72522 8597/ 333 20230 5619/ 58001 60104 82708 84820 81925 88460
AAXX 19003 91565 11498 81205 10245 20238 40078 58008 60294 78082 8392/ 333 20190 5629/ 58006 60294 83818 81920 88460
AAXX 19003 91568 11598 81510 10270 20210 40096 58009 60564 72588 888// 333 20210 563// 58005 60564 84822 88640
AAXX 19003 91551 31598 69902 10301 20265 40080 5//// 70222 83902 333 20/// 568/9 59/// 82820 81925 86080
AAXX 19003 91553 31598 79903 10290 20248 40087 58001 70222 84901 333 20225 568/9 59011 85820 81925 87080
AAXX 19003 91554 11598 89903 10295 20257 40083 58001 69904 70222 8685/ 333 20230 5699/ 59005 69904 83820 86640 88362
AAXX 19003 91555 11598 80000 10284 20253 40084 58001 60634 70222 8597/ 333 20238 5699/ 59004 60634 84820 81925 88461
AAXX 19003 91557 11498 81209 10265 20255 40066 58001 60104 72522 8597/ 333 20230 5619/ 58001 60104 82708 84820 81925 88460
AAXX 19003 91565 11498 81205 10245 20238 40078 58008 60294 78082 8392/ 333 20190 5629/ 58006 60294 83818 81920 88460
AAXX 19003 91568 11598 81510 10270 20210 40096 58009 60564 72588 888// 333 20210 563// 58005 60564 84822 88640
AAXX 19004 84202 32570 71402 10298 20188 30133 81650 333 10312 59001 555 30052
AAXX 19004 84270 11550 80000 10142 20125 60061 74125 887// 333 10236 555 10058 30089
AAXX 19004 84142 11240 80404 10172 20166 69941 72055 886// 333 10195 555 10004 30096
AAXX 19004 84143 11556 80000 10147 20120 37397 60011 75025 8341/ 333 10194 58010 555 10012 30084
AAXX 19004 84008 32565 61408 10234 20208 30108 40118 82530 00195 333 10279 58000 555 30085
AAXX 19004 84036 11564 81404 10147 20082 69951 71622 8671/ 333 10196 555 10005 30064
AAXX 19004 84135 32975 32308 10258 20181 30050 83030 333 10340 58002 555 30062
AAXX 19004 84056 11250 82302 10116 20109 60011 72054 886// 333 10192 555 10010 30096
AAXX 19004 84140 32530 61402 10288 20199 30010 40095 83540 333 10322 59001 555 30059
AAXX 19004 84105 11456 80902 10122 20108 60051 75155 8672/ 333 10194 555 10047 30091
AAXX 19004 84179 32560 20000 10208 20196 39041 82400 333 10278 58004 555 30093
AAXX 19004 84076 11450 80000 10132 20123 69951 75154 887// 333 10197 555 10005 30094
AAXX 19004 84160 31460 80000 10137 20108 37256 74044 8683/ 333 10190 58001 555 30083
AAXX 19004 84088 11120 80000 10106 20106 37062 69921 72999 887// 333 10172 58001 555 10002 30100
AAXX 19004 84050 31450 83206 10254 20195 71544 887// 333 10302 555 30070
AAXX 19004 84072 11256 80000 10124 20115 37298 60091 74058 886// 333 10207 58002 555 10090 30094
AAXX 19004 84132 11560 43602 10232 20227 39865 60141 72164 84200 333 10278 58003 555 10142 30097
AAXX 19004 84045 11/00 90000 10091 20090 69911 74754 89/// 333 10145 555 10001 30099
AAXX 19004 84105 32570 70000 10269 20217 39986 84410 333 10320 59001 555 30073
AAXX 19001 58362 32962 00402 10049 20023 30310 40318 52004 333 05201 31013
AAXX 19001 50136 32970 00000 11351 21394 39709 40323 52004 333 00154 92509
AAXX 19001 50745 32965 22202 11184 21204 30096 40297 52007 82030 333 00351 92500
AAXX 19001 50774 32960 02901 11286 21314 39944 40283 52009 333 00201 92514
AAXX 19001 50788 32970 02506 11187 21220 30145 40238 52004 333 00252 92501
AAXX 19001 51133 32980 10000 11143 21186 39678 40378 52029 80002 333 00451 31026 92510
AAXX 19001 51431 11970 82701 11085 21104 39502 40346 52031 69901 77070 8802/ 333 00402 31009 79999 92519
AAXX 19001 51747 32970 70000 11113 21148 38958 40322 54000 80002 333 05210
AAXX 19001 52203 NIL
AAXX 19001 52418 32980 22502 11110 21172 38906 40302 52028 80002 333 05403
AAXX 19001 52681 32980 02701 11172 21197 38680 40358 52013 333 05151
AAXX 19001 53564 32765 80000 11048 21085 39255 40317 52004 8252/ 333 05512
AAXX 19001 53614 31940 63601 11101 21118 38967 40330 52008 71000 80002 333 05201
AAXX 19001 53646 32965 83601 11052 21100 38904 40302 52005 80007 333 05409
AAXX 19001 53798 31956 73201 11021 21065 30225 40327 52014 71000 80002 333 05301
AAXX 19001 53845 32962 02701 11069 21088 39136 40310 57001 333 05501
AAXX 19001 53959 31958 02002 11046 21067 39835 40298 57002 71000 333 05551 31026
AAXX 19001 54094 32962 02201 11193 21223 39961 40288 52004 333 00253 92504
AAXX 19001 54102 32980 01602 11273 21307 39111 40446 52004 333 05252
AAXX 19001 54161 32962 02202 11164 21201 39991 40308 52010 333 00100
AAXX 19001 54292 32965 22202 11120 21194 39950 40290 52007 82030 333 00101
AAXX 19001 54374 32970 03601 11203 21233 39845 40355 52009 333 05101 92505
AAXX 19001 54423 32980 00701 11144 21192 39806 40361 52004 333 05200
AAXX 19001 54618 31958 70901 11049 21085 30297 40316 52001 71000 80002 333 05303
AAXX 19001 54843 31920 00000 11059 21074 30295 40325 52004 71000 333 05254
AAXX 19001 54909 32962 01101 11029 21076 30248 40315 52003 333 05352 31028
AAXX 19001 56029 32980 72201 11145 21178 36436 57002 80002 333 05403
AAXX 19001 57127 31959 80000 10041 20035 39663 40287 52003 71000 8807/ 333 05403 30031
AAXX 19001 57131 32960 00401 11032 21045 39788 40304 52001 333 05451
BBXX 44255 19001 99473 70573 46/// /0308 11034 40181 57006 22200 00040 11002 70011 333 91210
AAXX 19001 51076 32980 00702 11214 21238 39429 40399 52018 333 00256 31006 92526
AAXX 19001 51243 11870 70401 11168 21187 39785 40390 52014 69901 72277 81502 333 00357 31042 70005
AAXX 19001 51463 11765 70901 11136 21157 39181 40371 52011 69911 77077 85502 333 00151 31025 70007 92510
AAXX 19001 51573 32970 23201 11083 21124 30270 40316 52005 80002 333 05201
AAXX 19001 54401 32970 03603 11117 21220 39429 40349 52002 333 05402
BBXX 44255 19001 99473 70573 46/// /0308 11034 40181 57006 22200 00040 11002 70011 333 91210
AAXX 19004 47401 11/60 62806 11037 21075 30124 40139 55001 60032 78582 86303 333 21055 4/053 70035
AAXX 19004 47412 12/70 12003 11046 21110 30131 40165 50000 60002 81200 333 21090 4/016 79999
AAXX 19004 47420 15/70 /2911 11040 21100 30113 40148 50001 60002 333 21063
AAXX 19004 47426 15/70 /3606 11035 21122 30113 40162 58002 60002 333 21073
AAXX 19004 47582 11/75 73109 10024 21072 30167 40194 52003 69952 70282 872// 333 21011 4/010 70005
AAXX 19004 47590 12/70 10000 10016 21031 30144 40199 51001 69902 81230 333 21011 79999
AAXX 19004 47600 17/70 /2402 10010 20003 30215 40224 51014 60202 76766 333 20003
AAXX 19004 47648 11/80 60314 10086 20013 30155 40190 51007 69902 70282 83230 333 20072 79999
AAXX 19004 47662 12/82 63604 10050 21048 30154 40199 51009 60002 86800 333 20034 70000
AAXX 19004 47678 17/70 /2810 10118 20043 30009 40197 53007 69902 72360 333 20105
AAXX 19004 47740 17/80 /2710 10064 21001 30199 40234 52004 69952 78186 333 20029
AAXX 19004 47778 15/70 /3014 10087 21032 30147 40232 51012 60002 333 20075
AAXX 19004 47807 11/75 33207 10074 21032 30262 40281 51012 69902 70281 83400 333 20068 79999
AAXX 19004 47827 12/80 23408 10080 20027 30227 40266 50009 69902 82400 333 20042 79999
AAXX 19004 47843 15/82 /3307 10083 21015 30255 40288 51012 60002 333 20071
AAXX 19004 47893 12/80 12903 10050 21006 30241 40247 50008 60002 81100 333 20011 70000
AAXX 19004 47909 11/65 70303 10153 20111 30243 40253 51009 60022 78082 8727/ 333 20119 70055
AAXX 19004 47918 11/75 70411 10191 20158 30208 40226 53017 60022 78082 8387/ 333 20175 70020
AAXX 19004 47936 11/80 30507 10182 20122 30184 40244 51013 69902 72500 83800 333 20160 79999
AAXX 19004 47945 11/70 60412 10196 20119 30209 40233 53011 69902 70281 82232 333 20169 79999
AAXX 19004 47971 11/58 83511 10161 20129 30208 40218 53017 60022 78082 8627/ 333 20157 70020
AAXX 19004 47991 16/// /2105 10264 20209 30173 40183 50004 69902 333 20236 70070
AAXX 19004 40356 32960 01010 10040 21040 39266 48562 333 58043 555 04410 50248
AAXX 19004 40357 32960 00506 10041 20020 39615 40262 333 58047
AAXX 19004 40360 32960 01902 10060 21040 39638 40225 333 58022
AAXX 19004 40361 32960 00707 10080 21060 39468 40245 333 58030
AAXX 19004 40362 32960 03402 10044 21100 39726 40251 333 58042
AAXX 19004 40373 32960 00000 10074 21040 39819 40243 333 58041
AAXX 19004 40375 32960 30609 10100 21040 39316 40191 80002 333 58005 83070
AAXX 19004 40377 NIL
AAXX 19004 40394 32960 01804 10054 21050 39098 48567 333 58034 555 04410 50235
AAXX 19004 40400 32960 00305 10198 20080 30126 40154 333 58006
AAXX 19004 40401 NIL
AAXX 19004 40405 32960 00000 10090 20000 39491 40239 333 58039
AAXX 19004 40416 31958 03010 10125 20100 30180 40200 71000 333 58040
AAXX 19004 40417 32960 02911 10110 20050 30204 40219 333 58040
AAXX 19004 40420 32960 03109 10109 20040 30007 40217 333 58036
AAXX 19004 40430 32960 00512 10180 21040 39468 40181 333 58029
AAXX 19004 40435 NIL
AAXX 19004 40437 32960 03004 10086 20000 39527 40241 333 58037
AAXX 19004 40439 32960 10000 10184 20110 30126 40136 81030 333 58014 81360
AAXX 19004 40550 35/66 /3305 10086 20006 40238 56003 333 0/008 55300 00000 10213 20000 30000 41015 51228 60000 55407 40000 90069 90467 91009 91111 91205 91303
AAXX 19004 40551 36/// /2512 10082 21005 333 0//// 90467 91015 91117 91213 91313
AAXX 19004 40552 35/68 /3013 10088 21005 40239 58003 333 0/008 55300 90069 90467 91015 91121 91217 91315
AAXX 19004 40553 35/67 /3008 10081 20008 40236 56004 333 0/007 55300 90069 90467 91009 91111 91209 91307
AAXX 19004 40568 36/// /2908 10078 20022 333 0//// 90467 91009 91113 91209 91307
AAXX 19004 40569 NIL
AAXX 19004 40570 35/69 /2509 10068 21016 40256 57002 333 0/006 55300 90069 90467 91011 91111 91209 91307
AAXX 19004 40571 NIL
AAXX 19004 40572 NIL
AAXX 19004 40573 36/// /2710 10065 21003 333 0//// 90467 91011 91113 91211 91309
AAXX 19004 40580 36/// /2904 10122 20019 333 0/009 553// 00000 10258 20000 30000 41008 51266 60000 55407 40000 90467 91007 91109 91205 91303
AAXX 19004 40581 36/// /1801 10138 20049 333 0//// 90467 91003 91115 91205 91301
AAXX 19004 40582 31958 00000 10089 20007 40238 58002 70500 333 00007 55300 00000 10173 20000 30000 41061 51234 60000 55407 40000 90467 91003 91109 91207 91303
AAXX 19004 40583 NIL
AAXX 19004 40585 36/// /2912 10142 20057 222// 1//// 3//// 4//// 70/// 333 0//// 90467 91017 91121 91213 91311
AAXX 19004 40586 36/// /2807 10110 21001 333 0//// 90467 91013 91117 91211 91307
AAXX 19004 40587 36/// /2908 10103 20004 333 0/010 553// 00000 10211 20000 30000 41011 51222 60000 55407 40000 90467 91011 91117 91213 91309
AAXX 19004 40588 35/64 /3110 10110 20049 40231 58002 333 0/010 55300 90069 90467 91011 91115 91213 91311
AAXX 19004 40589 NIL
AAXX 19004 40590 36/// /3008 10080 20006 333 0//// 90467 91009 91115 91213 91309
AAXX 19004 40591 NIL
AAXX 19004 40592 35/68 /3209 10134 20009 40236 56004 333 0/012 55300 00000 10234 20000 30000 41043 51278 60000 55407 40000 90069 90467 91015 91117 91209 91307
AAXX 19004 40593 36/// /3208 10135 20030 333 0//// 90467 91011 91117 91211 91309
AAXX 19004 40594 36/// /3307 10114 20024 333 0//// 90467 91011 91115 91207 91305
AAXX 19004 40596 36/// /3114 10167 20089 333 0//// 90467 91021 91125 91217 91315
AAXX 19004 41264 36/70 /0706 10153 20129 39793 40170 333 0E019 58013
AAXX 19004 04211 NIL
AAXX 19004 04220 05984 11314 11101 21134 39872 49925 57004 69911 333 55300 20004 69917 81/66
AAXX 19004 04221 45984 51012 11100 21159 39892 49931 52001 333 85/65
AAXX 19004 04231 12984 20710 11152 21219 39871 49947 52001 6///1 8201/ 333 82465
AAXX 19004 04234 47649 80818 11078 21195 39894 49904 57002 70088 333 88/46 91140
AAXX 19004 04241 47303 11020 11096 21109 39888 49928 52008 77277 333 81/08 91131
AAXX 19004 04250 07448 71618 11075 21096 39824 49931 52005 60021 78587 333 55300 20000 60027 81/12 83/32 85/40 87/47 91128
AAXX 19004 04254 47434 81812 11075 21125 39831 49947 52004 77188 333 84/18 88/42 91124
AAXX 19004 04260 47632 72715 11064 21148 39937 49981 52017 78588 333 87/42 91127
AAXX 19004 04270 45984 10605 11126 21219 39952 49993 52014 333 81/59
AAXX 19004 04272 07884 1//// 11098 21124 39917 49991 52017 69901 70087 333 6///7 81/59
AAXX 19004 04312 46/// ///// 11330 21373 39907 49949 57001
AAXX 19004 04320 45984 10703 11257 21310 39950 49966 57013 333 81/71
AAXX 19004 04339 47/60 ///// 11134 21158 39883 49977 57024 70010 333 55300 20000
AAXX 19004 04360 06/// /3401 11041 21046 39728 49797 57009 60021 333 55300 20000 60017 91136 91224
AAXX 19004 04361 46/// 90621 11035 21063 39745 49797 57011 333 89/09 91141 91233 91031
AAXX 19004 04390 07676 32316 11052 21123 39840 49934 57001 60051 77787 333 60027 81/43 83/57 91135
AAXX 19004 41024 32960 00303 10220 20160 30118 40137 333 58017
AAXX 19004 41030 32960 00000 10232 20170 39859 40128 333 58018
AAXX 19004 41036 32960 01502 10110 20030 38582 48531 333 58019 555 04410 50147
AAXX 19004 41055 32960 00904 10110 20050 38396 48544 333 58031 555 04410 50170
AAXX 19004 41061 32960 01008 10109 20060 39492 40203 333 58035
AAXX 19004 41084 32960 00000 10132 20050 38897 48552 333 58033 555 04410 50160
AAXX 19004 41112 32960 00000 10102 20020 37968 48540 333 58018 555 04410 50184
AAXX 19004 41114 32960 00000 10125 20100 38000 48531 333 58019 555 04410 50160
AAXX 19004 41128 NIL
AAXX 19004 41136 32960 00705 10152 20040 39364 40177 333 58034
AAXX 19004 41140 32560 60803 10254 20220 30129 40132 86100 333 58016 86830
AAXX 19004 47407 12/65 22202 11099 21125 39984 40167 50002 69952 82200 333 21119 4/042 70030
AAXX 19004 47409 12/80 12006 11075 21150 30096 40153 51002 60002 81230 333 21116 4/011 79999
AAXX 19004 47418 12/70 10304 11099 21149 30112 40164 53002 60002 81202 333 21140 70000
AAXX 19004 47421 17/70 /2909 11029 21107 30125 40170 55000 60042 72470 333 21046
AAXX 19004 47430 11/58 73205 11042 21063 30122 40178 50002 69902 78588 873// 333 21071 4/012 70005
AAXX 19004 47570 17/65 /1801 11004 21021 39947 40215 53004 69902 70076 333 21014
AAXX 19004 47575 11/40 82106 11017 21031 30175 40180 58002 60092 78582 883// 333 21025 4/057 70100
AAXX 19004 47584 11/65 61706 11013 21059 39997 40193 52002 69902 70282 86300 333 21046 79999
AAXX 19004 47604 11/08 82902 10004 21006 30207 40216 53008 60112 78688 882// 333 20002 4/009 70105
AAXX 19004 47605 11/75 70902 10027 20012 30182 40224 51017 60062 72582 872// 333 20021 70115
AAXX 19004 47610 11/40 70703 11005 21015 39694 40214 51010 60012 78588 872// 333 21010 4/002 70010
AAXX 19004 47624 12/80 10802 10027 21040 30061 40204 52014 60002 81400 333 21011 70000
AAXX 19004 47629 12/80 73503 10016 21025 30160 40200 51008 60002 8287/ 333 21012 70000
AAXX 19004 47636 11/65 73209 10058 20017 30155 40225 53013 69902 78082 872// 333 20044 79999
AAXX 19004 47651 12/70 22816 10077 21026 30204 40227 53016 60002 82802 333 20050 70000
AAXX 19004 47655 15/70 /2814 10077 20009 30147 40205 53010 60002 333 20044
AAXX 19004 47675 15/70 /3004 10093 20035 30095 40187 53006 60002 333 20056
AAXX 19004 47741 11/70 72308 10058 20010 30216 40244 51008 60022 78082 87200 333 20022 70020
AAXX 19004 47746 11/70 71007 10036 20016 30225 40245 51010 60022 78082 872// 333 20025 70020
AAXX 19004 47750 11365 62306 10053 20023 30210 40238 51013 69952 72582 83270 333 20024 70005
AAXX 19004 47765 12/65 10104 10030 21008 30196 40264 51011 60002 81800 333 20015 70000
AAXX 19004 47772 12/70 52707 10076 21019 30139 40241 52013 60002 85800 333 20062 70000
AAXX 19004 47800 15/82 /3009 10051 21061 30280 40285 51011 60002 333 20032
AAXX 19004 47815 12/70 33109 10077 21029 30256 40273 51015 60002 83800 333 20052 70000
AAXX 19004 47817 12/80 23405 10075 21007 30236 40281 53011 69902 82800 333 20057 79999
AAXX 19004 47830 12/75 13006 10061 20009 30244 40263 51009 60002 81200 333 20021 70000
AAXX 19004 47887 12/75 21103 10070 21027 30221 40264 51009 60002 82800 333 20040 79999
AAXX 19004 47891 12/80 12610 10084 21034 30235 40252 51012 60002 81100 333 20064 79999
AAXX 19004 47895 12/80 12808 10076 21008 30237 40245 51008 60002 81100 333 20042 70000
AAXX 19004 47927 11/70 70514 10196 20140 30180 40229 51013 60032 72582 86232 333 20180 70025
AAXX 19004 62305 32960 01908 10098 20079 40196 57002
AAXX 19004 62306 32960 02108 10100 20065 40197 57007
AAXX 19004 62318 32960 00000 10144 20127 40192 57009
AAXX 19004 62337 NIL
AAXX 19004 62366 31940 00905 10117 20097 40182 57010 71000
AAXX 19004 62393 32960 02202 10078 20041 40186 56011
AAXX 19004 62405 32960 01504 10092 20033 40167 57001
AAXX 19004 62414 NIL
AAXX 19004 62417 32960 00000 10053 20029 40187 57005
AAXX 19004 62440 32960 00203 10103 20098 40179 57008
AAXX 19004 62463 32960 03010 10156 20046 40168 57004
AAXX 19004 62465 32960 03005 10160 20056 40156 57009
AAXX 19004 62419 NIL
AAXX 19001 40706 11940 10702 11042 21060 38746 40341 50003 60001 71000 80002 333 81069
AAXX 19001 40718 11940 60000 10108 20100 30324 40295 52013 60001 71022 80006 333 86269
AAXX 19001 40732 11457 80000 10108 20074 30313 40288 52012 60001 71022 886// 333 88717
AAXX 19001 40745 11415 81703 11024 21028 39124 40303 52015 69901 76041 8472/ 84710 88557
AAXX 19001 40754 12960 03002 10040 21028 38904 40266 53004 60001 333
AAXX 19001 40766 12960 00000 11024 21080 38773 40286 53005 60001 333
AAXX 19001 40800 12960 00000 11018 21050 38521 40265 53005 60001 333
AAXX 19001 40811 12960 02702 10092 20031 30190 40217 55000 60001 92345 333
AAXX 19001 40841 12960 00000 11036 21087 38320 40260 53004 60001 333
AAXX 19001 40848 12965 00000 10010 21045 38572 40227 52005 60001 333
AAXX 19001 40856 12965 01603 11006 21148 38670 40218 54000 60001 333
AAXX 19001 40875 11920 03503 10157 20141 30172 40184 53002 60001 71000 333
BBXX A8YW2 19004 99196 30668 41/97 51523 10250 20204 40120 56005 70311 8//// 22214 00240 20302 80220
AAXX 19001 37308 429// 00000 11032 21052 39602 40282 52008
AAXX 19001 37531 429// 20000 11055 21059 39581 40349 53022 80050
AAXX 19001 37553 429// 00000 11029 21042 39637 40315 52012 333 55/// 555 14106
AAXX 19001 37651 16/// ///00 11028 21037 3//// 4//// 5//// 60001 333 55///
AAXX 19001 37279 NIL
AAXX 19001 37492 NIL
AAXX 19004 13600 11660 50914 10065 20042 30082 40135 54005 69961 70152 82550 333 82640 83360
AAXX 19004 13610 12660 62210 10038 20007 39738 40170 54002 60001 885// 333 86633
AAXX 19004 13611 NIL
AAXX 19004 13619 12660 80000 10010 20004 39380 42769 54002 60001 885// 333 88633
AAXX 19004 13622 NIL
AAXX 19004 13624 12960 81414 10102 20013 30080 40119 53005 60001 8802/ 333 88460
AAXX 19004 13625 NIL
AAXX 19004 13629 12660 80902 10020 20005 39082 42741 54000 60001 885// 333 88640
AAXX 19004 13601 NIL
AAXX 19004 13602 NIL
AAXX 19004 13623 NIL
AAXX 19001 40706 11940 10702 11042 21060 38746 40341 50003 60001 71000 80002 333 81069
AAXX 19001 40718 11940 60000 10108 20100 30324 40295 52013 60001 71022 80006 333 86269
AAXX 19001 40732 11457 80000 10108 20074 30313 40288 52012 60001 71022 886// 333 88717
AAXX 19001 40745 11415 81703 11024 21028 39124 40303 52015 69901 76041 8472/ 84710 88557
AAXX 19001 40754 12960 03002 10040 21028 38904 40266 53004 60001 333
AAXX 19001 40766 12960 00000 11024 21080 38773 40286 53005 60001 333
AAXX 19001 40800 12960 00000 11018 21050 38521 40265 53005 60001 333
AAXX 19001 40811 12960 02702 10092 20031 30190 40217 55000 60001 92345 333
AAXX 19001 40841 12960 00000 11036 21087 38320 40260 53004 60001 333
AAXX 19001 40848 12965 00000 10010 21045 38572 40227 52005 60001 333
AAXX 19001 40856 12965 01603 11006 21148 38670 40218 54000 60001 333
AAXX 19001 40875 11920 03503 10157 20141 30172 40184 53002 60001 71000 333
BBXX A8XY2 19004 99499 70095 41/97 /2520 10105 20019 40230 54000 70322 8//// 22254 04110 20504 80065
AAXX 19004 60692 36/// /1702 10125 21102
AAXX 19004 60691 36/// /0406 10138 21126
AAXX 19004 60621 36/// /0407 10128 21006
AAXX 19004 60612 36/// /0000 10127 21083
AAXX 19004 60663 36/// /1803 10120 20003
AAXX 19004 60664 36/// /0000 10106 21045
AAXX 19004 60662 36/// /0000 10072 21015
AAXX 19004 78988 02482 50811 10271 20212 30117 40128 52013 60001 85800 333 10294 20259 58001 60007 81817 85650
AAXX 19004 78990 02470 30705 10261 20205 30127 40134 52014 60001 81131 333 10299 20248 58003 60007 81817 83081
AAXX 19004 78873 NIL
AAXX 19004 60619 36/// /3507 10099 21043
AAXX 19004 60667 36/// /0000 10086 21054
AAXX 19001 89064 11420 80306 10018 29088 49884 57011 69901 75125 886// 333 10024
AAXX 19004 6/633 36/// /3406 10121 21098
AAXX 19001 08501 32/// /2202 10173 20127 30279 40315 54000
AAXX 19001 08505 32470 70102 10170 20139 30281 40330 51006 878// 333 83812 86640
AAXX 19001 08509 32660 52003 10165 20112 30270 40334 52007 86500 333 86645
AAXX 19001 08512 32580 20103 10124 20086 30246 40333 52003 81802 333 81823
AAXX 19001 08515 32580 43602 10144 20134 30209 40331 52002 81801 333 81820 84080 910// 911//
AAXX 19001 08533 NIL
AAXX 19001 08541 32/// /0204 10067 20016 30153 40275 52014
AAXX 19001 08545 31965 00903 10056 20011 30201 40287 52002 70200 333 91005 91105
AAXX 19001 08548 32/// /0901 10052 20034 30076 40288 52008
AAXX 19001 08554 32/// /0102 10090 20022 30255 40265 52017 333 91106
AAXX 19001 08558 32/// /3603 10047 20008 39975 40280 52013 333 91105
AAXX 19001 08560 32/// /0403 10038 21003 39515 40295 52008 333 91005 91105
AAXX 19001 08567 32/// /0000 10025 21011 39614 40302 52004
AAXX 19001 08570 32/// /0203 10048 21005 39816 40289 52011
AAXX 19001 08575 32/// /0000 11008 21033 39464 40312 52002
AAXX 19001 08579 NIL
AAXX 19004 60676 36/// /0000 10077 21065
BBXX A8AX3 19003 99322 70118 41/// /0504 7//// 8//// 22274 2////
AAXX 19004 08221 02980 00000 10017 21026 39581 40293 51009 60001 333 60007
AAXX 19001 40703 11530 80000 11044 21059 39039 40370 53004 60001 71022 8462/ 333 84720 88459
AAXX 19001 40712 11915 02503 11054 21068 38770 40325 54000 60001 71000 333
AAXX 19001 40729 12960 00000 11060 21081 38417 40305 53003 60001 333
AAXX 19001 40736 12560 40000 10068 20054 30325 40299 52022 60001 84600 333 84720
AAXX 19001 40739 12965 00000 10004 21041 38768 40290 51009 60001 333
AAXX 19001 40743 12965 00000 10006 21039 39147 40289 53008 60001 333
AAXX 19001 40762 12962 00305 10030 21064 38605 40243 53003 60001 333
AAXX 19001 40768 12965 01502 11051 21081 38342 40305 53006 60001 333
AAXX 19001 40769 12960 00000 11018 21069 38374 40282 51008 60001 333
AAXX 19001 40785 12960 00000 10026 21023 39161 40269 53006 60001 333
AAXX 19001 40809 12960 00000 11028 21035 38553 40257 54000 60001 333
AAXX 19001 40821 12960 00000 10018 21070 38870 40288 53003 60001 333
AAXX 19001 40831 12960 03003 10060 20041 30227 40235 54000 60001 333
AAXX 19000 44203 329// 30000 11395 21422 38486 40663 55002 80008 333 21399 47006 555 31430
AAXX 19000 44207 329// 20000 11334 21369 38355 40553 56003 81084 333 21375 47009 55/// 555 31377
AAXX 19000 44212 32999 01803 11369 21397 39304 40638 53018 333 21370 47012 55042 555 31375
AAXX 19000 44213 32999 50000 11338 21374 38910 40624 52007 85050 333 21358 47010 555 31387
AAXX 19000 44215 31998 00000 11330 21347 38480 40582 52006 77610 333 21331 47003 555 31300
AAXX 19000 44218 119// 10000 11257 21281 3894 40523 53007 70271 81040 333 21268 47003 55000 555 3//// 93100
AAXX 19000 44225 329// 00000 11405 21426 38345 40685 53001 333 21408 47014 555 31///
AAXX 19000 44230 329// 03602 11316 21350 38871 40567 57002 333 21321 47009 555 31330
AAXX 19000 44232 329// 00000 11386 21421 39228 40563 54002 333 21392 43008 555 31400
AAXX 19000 44237 32999 12303 11266 21297 38536 40487 56001 80004 333 21300 47014 555 31313
AAXX 19000 44239 329// 03301 11304 21341 38856 40476 56002 333 21312 43010 555 31314
AAXX 19000 44241 329// 00000 11335 21353 39359 40492 57005 333 21338 47005 555 31359
AAXX 19000 44256 32999 22703 11197 21223 39402 40330 56003 80004 333 21251 47005 555 31282
AAXX 19000 44265 329// 00000 11252 21277 38891 40444 51006 333 21253 47004 555 31305
AAXX 19000 44272 329// 00000 11286 21331 38265 40507 53002 333 21306 47005 55066 555 31350
AAXX 19000 44275 32998 00000 11349 21259 37736 40510 58005 333 21369 47002 555 31390
AAXX 19000 44282 32999 13602 11209 21249 38330 40439 57001 80004 333 21221 47000 55027 555 31272
AAXX 19000 44284 32999 10201 11349 21386 37873 40673 53003 81040 333 21349 47005 555 31368
AAXX 19000 44285 32999 00000 11298 21327 38360 40537 53001 333 21320 47005 555 31332
AAXX 19000 44287 32999 00304 11227 21276 38147 40499 53001 333 21237 46003 55076 555 31261
AAXX 19000 44294 329// 03602 11324 21360 38604 40538 57001 333 21328 43003 555 31339
AAXX 19000 44298 32999 03203 11273 21279 38758 40442 54000 333 21278 47004 555 31290
AAXX 19000 44302 32999 02907 11262 21300 39168 40418 58011 333 21262 48010 555 31273
AAXX 19000 44305 32999 03204 11264 21297 39110 40403 53001 333 21268 42006 555 31279
AAXX 19000 44313 32999 02707 11234 21274 39447 40375 53002 333 21243 47009 555 3////
AAXX 19000 44314 NIL
AAXX 19000 44317 32998 02304 11190 21231 38990 40380 56005 333 21204 47003 555 31251
AAXX 19000 44336 329// 03102 11278 21310 38749 40513 51002 333 21285 43002 555 31318
AAXX 19000 44341 32999 00000 11211 21252 38646 40441 54000 333 21248 46003 555 31312
AAXX 19000 44347 32999 00000 11236 21276 38755 40439 54000 333 21238 45998 555 31254
AAXX 19000 44352 32999 00000 11265 21290 38970 40418 56003 333 21272 44004 555 31280
AAXX 19000 44358 31996 00000 11305 21309 39155 40469 55006 70400 333 21305 46001 555 31325
AAXX 19000 44214 32998 00901 11315 21352 38340 40611 52007 333 21323 47001 555 31345
AAXX 19000 44231 319// 00000 11336 21396 38802 40595 57003 70400 333 21343 47010 55019 555 31321
AAXX 19000 44259 31997 02806 11217 21263 39371 40361 50000 70230 333 21224 47011 91112 555 31250
AAXX 19000 44277 329// 02702 11284 21308 37820 40597 53005 333 21296 46000 555 31314
AAXX 19000 44288 32899 22803 11186 21221 38188 40442 54000 82040 333 21199 41998 555 31248
AAXX 19000 44292 NIL
AAXX 19000 44304 32999 02302 11308 21338 39055 40450 54000 333 21310 47011 555 31322
AAXX 19000 44354 32999 00000 11272 21296 39179 40439 55001 333 21286 46002 555 31338
AAXX 19000 44373 32999 22503 11205 21257 38581 40430 53005 82040 333 21209 47006 55076 555 31273
AAXX 19004 88883 46/// /0105 10093 20078 40031 52012
AAXX 19004 88889 12375 72413 10103 20080 39947 40030 52013 60001 876// 92350 333 10185 85708 87712
AAXX 19004 88897 46/// /2609 10088 20073 40013 52019
AAXX 19001 47101 32970 00001 11107 21133 30220 40323 52009 333 21124 30108
AAXX 19001 47105 369// /2508 11009 21189 30245 40278 52009 333 21023 3/000
AAXX 19001 47108 12970 10202 11051 21152 30201 40313 52006 69902 80001 333 21067 30105
AAXX 19001 47115 11568 73605 10019 21055 39976 40254 52011 69902 78582 87800 333 20014 3/000 44004 92042
AAXX 19001 47133 32962 42901 11047 21086 30230 40320 52007 80001 333 21066 34103
AAXX 19001 47138 32970 02305 10000 21182 30288 40291 52008 333 21018 30006 92022
AAXX 19001 47159 32975 02508 10015 21179 30198 40286 53008 333 21012 30101 92023
AAXX 19001 47165 12668 51402 10009 21060 30266 40315 52014 69902 85500 333 21017 34101 92021
AAXX 19001 47168 32975 03407 10007 21107 30220 40302 52014 333 21003 30101 92023
AAXX 19001 47184 32670 63606 10054 21042 30285 40311 52010 85500 333 20053 30004 92022
AAXX 19004 82143 NIL
AAXX 19004 82599 32570 41108 10258 20215 30065 40125 84100 333 10302 59005
AAXX 19004 82824 21470 50000 10258 20246 39984 40085 70162 82230 333 10317 59010 60031
AAXX 19004 82899 32570 41112 10270 20210 30126 40138 84200 333 10298 58002
AAXX 19004 83117 NIL
AAXX 19004 83248 32470 30908 10271 20222 30119 40141 83200 333 10291 59005
AAXX 19004 83746 21556 72519 10264 20213 30084 40094 53028 72162 85530 333 10312 69911
AAXX 19001 47003 32980 03206 11064 21159 30259 40263 54000 333 21078
AAXX 19001 47005 32980 21801 11199 21218 38592 57008 82030 333 21211
AAXX 19001 47022 32975 00000 11160 21187 38853 58001 333 21185
AAXX 19001 47028 32467 61802 11119 21146 30213 40315 52007 86600 333 21129
AAXX 19001 47031 32970 00000 11162 21175 38955 53004 333 21175
AAXX 19001 47037 32970 00000 11122 21135 30177 40310 52013 333 21131
AAXX 19001 47039 32960 00000 11144 21164 30123 40330 52008 333 21149
AAXX 19001 47046 32969 02301 11060 21134 30238 40262 52008 333 21072
AAXX 19001 47050 32965 00502 11107 21127 30281 40317 52012 333 21124
AAXX 19001 47052 32965 00000 11166 21185 39966 40337 52008 333 21171
AAXX 19001 47060 31940 00503 11076 21094 30247 40308 57006 71000 333 21077
AAXX 19001 47061 32980 03201 11009 21106 30219 40264 52001 333 21019
AAXX 19001 47065 31960 00000 11070 21098 30247 40315 53003 71000 333 21099
AAXX 19001 47067 32965 00000 11106 21126 30210 40339 52006 333 21115
AAXX 19001 47068 32560 50000 11053 21082 30267 40304 53003 85500 333 21096
AAXX 19001 47070 32970 00000 11077 21095 30221 40314 54000 333 21110
AAXX 19001 47075 32980 00000 11117 21137 39823 40282 52003 333 21151
AAXX 19004 83437 NIL
AAXX 19004 83550 315// 2//// 10240 20219 30091 40121 70301 82200 333 10312 29078 55057 59003
AAXX 19004 83552 NIL
AAXX 19004 83565 NIL
AAXX 19004 83579 NIL
AAXX 19004 83592 NIL
AAXX 19004 83623 NIL
AAXX 19004 83630 NIL
AAXX 19004 83676 NIL
AAXX 19004 83698 21/// 80000 10236 20228 30098 40112 51016 70255 887// 333 10272 29092 55/// 69921
AAXX 19004 83702 NIL
AAXX 19004 83704 NIL
AAXX 19004 83716 NIL
AAXX 19004 83726 NIL
AAXX 19004 83738 31/// 82309 10246 20217 39600 40091 52020 71790 889// 333 10308 29078 55046
AAXX 19004 NIL
AAXX 19004 NIL
AAXX 19004 NIL
AAXX 19004 NIL
AAXX 19004 NIL
AAXX 19004 83384 NIL
AAXX 19004 83386 NIL
AAXX 19004 83388 NIL
AAXX 19004 83393 NIL
AAXX 19004 83442 NIL
AAXX 19004 83479 NIL
AAXX 19004 83483 NIL
AAXX 19004 83531 NIL
AAXX 19004 83538 NIL
AAXX 19004 83574 NIL
AAXX 19004 83582 NIL
AAXX 19004 83595 NIL
AAXX 19004 83687 NIL
AAXX 19004 83692 NIL
AAXX 19004 83695 216// 80000 10232 20225 39991 40128 54000 72055 8652/ 333 10252 29093 55000 60021
AAXX 19004 83718 215// 80000 10216 20209 39551 40117 51014 75055 887// 333 10247 29/// 55000 60021
AAXX 19004 NIL
AAXX 19001 47008 32970 03201 11041 21125 30209 40265 53009 333 21065
AAXX 19001 47014 32950 50000 11228 21240 39891 40339 52013 80001 333 21232
AAXX 19001 47016 32770 50000 11218 21243 39418 40340 52021 85030 333 21218
AAXX 19001 47020 32965 00000 11168 21181 39937 40352 53005 333 21175
AAXX 19001 47025 32967 03201 11046 21117 30229 40259 52002 333 21085
AAXX 19001 47035 32970 00000 11114 21160 30312 40322 52010 333 21114
AAXX 19001 47041 32970 03201 11036 21144 30250 40278 52010 333 21090
AAXX 19001 47055 32970 00000 11018 21106 30245 40292 52011 333 21028
AAXX 19001 47058 31959 20000 11094 21106 30272 40323 53010 71000 80002 333 21106
AAXX 19001 47069 31956 30901 11048 21092 30209 40313 53010 71022 80001 333 21078
AAXX 19001 47090 32975 03403 11001 21198 30252 40275 52010 333 21018 3/103 42001 92022
AAXX 19001 47095 32962 00000 11117 21144 30120 40324 52007 333 21142 34108
AAXX 19001 47097 329// /0000 11074 21121 30217 40320 53007 333 21114 3/105
AAXX 19001 47098 329// /0001 11088 21134 30171 40315 52009 333 21109 3/106
AAXX 19001 47099 329// /0501 11093 21116 30280 40319 52010 333 21124 3/106
AAXX 19001 47100 32970 02709 11095 21189 39335 40307 50001 333 21131 3/107 49027
AAXX 19001 47102 32675 63205 10009 21066 30124 40308 52014 85530 333 21005 3/000
AAXX 19001 47104 32970 01103 11018 21179 30175 40276 52009 333 21048 3/102 43004
AAXX 19001 47106 329// /2002 10002 21166 30226 40277 52010 333 21014 3/102
AAXX 19001 47112 32970 01404 11027 21135 30223 40311 53004 333 21047 30102 92011
AAXX 19001 47114 12970 00503 11096 21135 30125 40321 52007 69902 333 21109 30106
AAXX 19001 47119 12965 20000 11047 21102 30270 40314 53004 69902 80001 333 21077 30105
AAXX 19001 47121 129// /0501 11096 21121 30011 40327 52008 69902 333 21124 3/106
AAXX 19001 47127 329// /0001 11084 21115 30167 40319 50002 333 21103 3/104
AAXX 19001 47129 12665 60504 11029 21072 30276 40313 51001 69902 86500 333 21066 30101
AAXX 19001 47130 32972 02305 10000 21177 30216 40280 52013 333 21020 34000 92022
AAXX 19001 47131 12970 10000 11054 21079 30243 40318 52006 69902 80001 333 21067 30102
AAXX 19001 47135 329// /2509 11039 21093 30001 40315 52010 333 21050 3/102
AAXX 19001 47136 32970 01602 11057 21106 30129 40311 52008 333 21096 30106
AAXX 19001 47137 329// /2505 11027 21141 30185 40309 52008 333 21040 3/103
AAXX 19001 47140 12968 30001 11024 21057 30285 40315 52008 69902 80001 333 21050 34101 92011
AAXX 19001 47143 32975 12704 11005 21110 30236 40318 52009 80001 333 21026 30001
AAXX 19001 47145 12965 10000 11053 21082 30280 40308 53003 69902 80001 333 21085 34103
AAXX 19001 47146 12968 01403 11037 21074 30244 40313 52004 69902 333 21060 34101
AAXX 19001 47150 12670 60204 11021 21072 30288 40308 52005 69902 86500 333 21042 34103
AAXX 19001 47152 32975 03206 10009 21164 30245 40289 52009 333 21013 30102
AAXX 19001 47154 329// /0001 11023 21088 30248 40311 52009 333 21055 3/104
AAXX 19001 47155 32970 02904 10010 21146 30255 40302 52013 333 21007 30101
AAXX 19001 47156 12672 42701 11012 21057 30226 40319 52013 69902 84500 333 21028 34000
AAXX 19001 47157 32970 00701 11062 21099 30020 40306 52007 333 21093 30104
AAXX 19001 47162 32975 00508 10008 21144 30259 40301 52011 333 21016 30102 92023
AAXX 19001 47169 32675 33410 10048 21039 30213 40309 52010 83500 333 20039 31003 92033
AAXX 19001 47170 32968 03202 10025 21063 30267 40312 52010 333 21015 30000 92021
AAXX 19001 47171 129// /2702 11010 21052 30257 40314 52008 69902 333 21048 3/000
AAXX 19001 47172 129// /1801 11012 21050 30241 40310 52010 69902 333 21039 3/000
AAXX 19001 47173 329// /0000 11050 21072 30203 40321 52008 333 21086 3/102
AAXX 19001 47174 12970 02706 11009 21085 30099 40309 52009 69902 333 21033 34102
AAXX 19001 47175 32973 03606 11007 21053 39718 40312 51009 333 21034 34102 92022
AAXX 19001 47185 32675 63215 10067 21030 30213 40305 52011 85500 333 20062 30005 92034
AAXX 19001 47188 32670 20506 10055 21033 30283 40305 52010 82500 333 20017 31002 92022
AAXX 19001 47189 32670 23603 10051 21001 30234 40295 52010 82500 333 20033 30003 92022
AAXX 19001 47192 32965 00000 11002 21062 30269 40308 52011 333 21074 30103
AAXX 19001 30372 32799 72401 11282 21300 39313 40274 56005 82541 333 21292 47009 55013
AAXX 19001 30433 32699 82304 11086 21177 39660 40274 57010 82532 333 21109 47004 55052
AAXX 19001 30554 329// 80000 11224 21236 39142 40325 57007 8807/ 333 21288 47009 55054
AAXX 19001 30635 115// 82002 11081 21122 39712 40303 57008 69932 70182 82952 333 21097 47016
AAXX 19001 30673 32999 00000 11330 21336 39459 40332 57001 333 21331 47009 55063
AAXX 19001 30692 32999 00202 11345 21362 39739 40307 54000 333 21350 55042
AAXX 19001 30758 32984 00000 11193 21226 39458 40343 53002 333 21195 47003 55070
AAXX 19001 30802 32999 00000 11323 21334 38755 48516 57004 333 21324 47005 55066
AAXX 19001 30823 32999 02402 11277 21301 39698 40413 57002 333 21278 47008 55070
AAXX 19001 30879 32999 00000 11273 21292 39482 40326 58002 333 21273 47005 55056
AAXX 19001 30935 32999 00000 11356 21377 39400 40490 57002 333 21359 47016 55064
AAXX 19001 30949 32999 00000 11275 21281 39186 40408 54000 333 21276 47003 55072
AAXX 19001 30965 32999 10000 11328 21345 39441 40384 53002 80001 333 21328 47005 55062
AAXX 19001 31168 32999 02002 11146 21239 30147 40159 58002 333 21160 47025 55007
AAXX 19001 31300 31997 00000 11308 21320 39930 40257 53008 74000 333 21309 47011
AAXX 19001 31329 32999 00000 11384 21413 39530 40307 52005 333 21395 55065
AAXX 19001 31369 11496 82803 11171 21183 30086 40176 52005 60030 78582 8697/ 333 21170 47044 86917 91110
AAXX 19001 31416 32999 20000 11333 21350 30118 40219 52003 81031 333 21339 47009 55070
AAXX 19001 31484 32999 80701 11276 21293 39857 40232 52006 81040 333 21280 47011
AAXX 19001 31512 329// 02801 11206 21246 30072 40253 52006 333 21221 47///
AAXX 19001 31538 32999 00102 11326 21342 39773 40266 52005 333 21334 47019
AAXX 19001 31707 32999 20000 11238 21256 30141 40242 53004 80001 333 21267 47005
AAXX 19001 31735 32997 01201 11252 21286 30122 40220 52005 333 21263 47012
AAXX 19001 31770 32999 02302 11174 21254 30143 40175 54000 333 21196 48014 55067
AAXX 19004 NIL
AAXX 19004 NIL
AAXX 19004 82022 32970 00904 10302 20210 39994 40090 333 10336 59002
AAXX 19004 82193 21470 70207 10267 20238 30080 40101 71796 84930 333 10313 58000 60061
AAXX 19004 82281 32970 00512 10275 20206 30038 40100 333 10321 59005
AAXX 19004 82332 21356 72704 10235 20222 30026 40120 79596 86930 333 10293 58029 69921
AAXX 19004 82398 32470 40908 10260 20225 30093 40122 84500 333 10303 58006
AAXX 19004 82400 NIL
AAXX 19004 82579 32970 03401 10302 20224 30001 40077 333 10363 59004
AAXX 19004 82917 32470 70000 1//// 2//// 39866 4//// 82530 333 10314 59009
AAXX 19004 82965 21160 82406 10230 20227 39783 40112 76166 8547/ 333 10310 59012 60421
AAXX 19004 82993 32570 30905 10230 20212 30004 40140 83100 333 10300 59003
AAXX 19004 83208 22470 70605 10213 20211 39411 48500 83510 333 10258 58023 69921
AAXX 19004 83349 32570 60705 10268 20216 30142 40148 82201 333 10295 59003
AAXX 19004 83362 32570 63607 10272 20205 39870 40084 81230 333 10325 59004
AAXX 19004 83378 31970 73604 10225 20181 38951 48520 71362 85931 333 10269 59013
AAXX 19004 83460 32570 30609 10239 20211 30086 40144 83100 333 10278 59006
AAXX 19004 83497 NIL
AAXX 19004 83566 21960 62602 10187 20180 39209 48520 76022 84130 333 10203 58001 69941
AAXX 19004 83599 NIL
AAXX 19004 83612 32970 01704 10248 20141 39462 48500 53014 333 10318
AAXX 19004 83649 32570 50109 10254 20211 30132 40137 51020 81530 333 10307
AAXX 19004 83650 NIL
AAXX 19004 83780 21970 60309 10221 20175 39202 48500 53009 70196 81036 333 10301 60031
AAXX 19004 83827 32970 02602 10223 20144 39802 40076 53010 333 10312
AAXX 19004 83840 32970 02406 10217 20065 39082 48490 52017 333 10289
AAXX 19004 83899 31570 31911 10234 20175 30081 4//// 51031 72991 83100 333 10290
AAXX 19004 83925 NIL
AAXX 19004 83970 NIL
AAXX 19004 83971 32970 30906 10225 20168 30066 40070 52015 83030 333 10288
AAXX 19004 70133 32566 80704 11061 21089 39790 49798 58020 92353 333 11044 21072 555 91900
AAXX 19004 70174 32966 83309 11067 21111 39593 49835 56037 92353 333 11061 21194 4/071 91018 555 91900
AAXX 19004 70200 32566 80315 11006 21050 39707 49711 58026 92353 333 11006 21033 4/063 555 91900
AAXX 19004 70219 11216 82218 10000 21006 39625 49680 51022 60011 771// 92353 333 10017 21011 4/005 96038 555 91900
AAXX 19004 70231 32966 20000 11039 21067 39579 49707 55002 92353 333 11022 21117 4/107 555 91900
AAXX 19004 70261 32966 6//05 10011 21089 39610 49781 56027 92353 333 10028 21167 555 91900
AAXX 19004 70267 12966 61121 11044 21111 39361 49829 58028 69901 92353 333 10028 21061 91026 555 91900
AAXX 19004 70271 32666 61718 10011 21033 39260 49830 56029 92353 333 10022 21010 91025 555 91900
AAXX 19004 70273 12766 61715 10033 21028 39700 49758 55024 69901 92353 333 10072 20006 4/041 91021 555 91900
AAXX 19004 70316 12766 62207 10011 21039 39833 49867 51024 69901 92353 333 10017 21006 555 91900
AAXX 19004 70326 11461 82323 10011 20000 39754 49765 51113 60031 771// 92354 333 10039 20006 4/003 91033 555 91900
AAXX 19004 70340 11312 /2219 10017 20000 39658 49719 51065 60041 771// 92353 333 10056 20017 4/008 91027 96010 555 91900
AAXX 19004 70350 12566 42109 10044 21017 39763 49803 51081 69951 92353 333 10067 20033 555 91900
AAXX 19004 70361 11320 81319 10011 20000 39952 49961 56048 60181 771// 92353 333 10022 20006 4/043 91033 96010 555 91900
AAXX 19004 70381 11448 81221 10022 20011 30078 40089 56057 60061 773// 92353 333 10022 20006 91028 96073 96010 555 91900
AAXX 19004 70414 35966 02715 11022 21089 39832 49869 50004 92356 333 11017 21039 555 91900
BBXX 44067 19001 99384 70770 46/// /3603 10049 40273 51023 90000
BBXX 41029 19001 99328 70796 46/// /0503 1//// 90000 555 11045 22053
BBXX 44033 19001 99441 70690 46/30 /3508 11050 40243 51016 90004 22200 00078 10301 70006 333 91210 555 11096 22100
AAXX 19004 78526 32566 60609 10256 20189 30139 40162 53013 92356 333 10278 20239 555 91900
AAXX 19004 78543 35966 00308 10250 20172 30078 40160 53017 92353 333 10283 20239 555 91900
BBXX 46111 19001 99481 71227 46/// /0302 10080 40271 51017 90000 22200 00057
BBXX 46112 19001 99481 71227 46/// /1201 10079 40273 51019 90000
AAXX 19001 28676 429// 51801 11263 21291 30380 40525 57005 80001 555 1/125
AAXX 19001 28766 419// 02201 11232 21241 30319 40533 58004 71000 555 1/125
AAXX 19001 28867 42998 02301 11289 21313 30257 40571 52002 555 1/129
AAXX 19001 28879 429// 02404 11228 21256 30228 40553 57002 555 1/126
AAXX 19001 28952 419// 02001 11249 21267 30353 40572 52002 77600 555 1/127
AAXX 19001 28966 429// 20000 11330 21359 30253 40588 52004 80001 555 1/136
AAXX 19001 29802 429// 82303 11232 21254 30326 40487 57002 82031 555 1/123
AAXX 19001 29807 429// 03603 11269 21288 30375 40510 58003 555 1/130
AAXX 19001 34691 42998 01110 11098 21145 30372 40359 58004 555 1/111
AAXX 19001 35067 429// 20000 11331 21366 30275 40601 52008 80005 555 1/132
AAXX 19001 35078 429// 03603 11298 21328 30147 40587 52008 555 1/130
AAXX 19001 35085 429// 00000 11273 21296 30024 40570 52008 555 1/130
AAXX 19001 35108 419// 01806 11151 21197 30407 40457 52006 73630
AAXX 19001 35188 419// 03601 11241 21270 30070 40562 52011 77600 555 1/130
AAXX 19001 35217 419// 01307 11174 21208 30434 40477 52014 73630 555 1/119
AAXX 19001 35229 429// 00000 11263 21290 30256 40570 52009 555 1/132
AAXX 19001 35302 419// 01708 11163 21205 30427 40448 52008 73633 555 1/118
AAXX 19001 35357 429// 03405 11265 21290 30062 40558 52017 555 1/127
AAXX 19001 35394 41998 00202 11256 21286 39774 40541 52021 70231 555 1/128
AAXX 19001 35406 429// 01405 11178 21212 30453 40455 52014 555 1/120
AAXX 19001 35416 429// 01208 11195 21259 30376 40510 51007 555 1/121
AAXX 19001 35426 429// 00502 11244 21291 30228 40560 52013 555 1/128
AAXX 19001 35497 419// 00209 11177 21227 39605 40476 52018 73630 555 1/120 333 91015 91115
AAXX 19001 35532 41993 01114 11221 21247 39971 40522 52004 73933 333 91018 555 1/126
AAXX 19001 35671 41998 03606 11214 21248 30047 40526 52019 73633 555 1/123
AAXX 19001 35700 42998 01209 11136 21188 30458 40432 52019 333 91016 91117 555 1/115
AAXX 19001 35746 NIL
AAXX 19001 35796 41594 80806 11148 21179 39944 40412 52025 77373 8802/ 555 1/115
AAXX 19001 35849 NIL
AAXX 19001 35925 NIL
AAXX 19001 35953 NIL
AAXX 19001 35969 NIL
AAXX 19001 36003 42998 32802 11280 21297 30338 40512 52011 83030 555 1/130
AAXX 19001 36152 419// 02706 11305 21348 30295 40513 52022 73630 555 1/131
AAXX 19001 36177 429// 63102 11242 21269 30212 40489 52021 83031 555 1/124
AAXX 19001 36208 429// 01002 11292 21316 39375 40487 52026 555 1/132
AAXX 19001 36397 419// 82902 11244 21271 39839 40468 52025 77172 8802/ 555 1/123
AAXX 19001 36428 NIL
AAXX 19001 36535 429// 00000 11258 21289 39742 40449 52021 555 1/129
AAXX 19001 36639 429// 00000 11250 21262 39720 40393 52022 555 1/129
AAXX 19001 36821 415// 82603 11168 21203 39896 40428 52030 70282 889// 333 91107
AAXX 19001 36859 419// 82303 11098 21114 39529 40351 52032 77172 8802/ 333 91108 555 1/108
AAXX 19001 36864 426// 82709 11169 21219 39454 40426 52023 8561/ 555 91114
AAXX 19001 36870 415// 80201 11119 21166 39317 40395 51017 78588 889// 333 91102 555 1/110
AAXX 19001 38001 NIL
AAXX 19001 38062 NIL
AAXX 19001 38069 NIL
AAXX 19001 38196 NIL
AAXX 19001 38198 NIL
AAXX 19001 38222 42997 80000 11252 21277 39853 40487 52029 8801/ 555 1/126
AAXX 19001 38232 NIL
AAXX 19001 38328 NIL
AAXX 19001 38334 NIL
AAXX 19001 38341 42997 01801 11265 21290 39597 40495 52009 555 1/124 91108
AAXX 19001 38343 42997 02002 11222 21240 39529 40473 52019
AAXX 19001 38439 NIL
AAXX 19001 22271 42498 81507 11026 21045 30099 40109 57012 886//
AAXX 19001 22520 41496 81208 10002 21001 30003 40012 57013 77177 8802/ 333 88514
AAXX 19001 22550 41559 81605 11016 21036 30075 40085 57012 76162 8802/ 333 88521 93401
AAXX 19001 22583 42984 71403 11068 21097 30097 40180 57004 8707/
AAXX 19001 22768 41497 81505 11039 21097 30075 40132 57007 77072 885// 333 88616
AAXX 19001 22845 41495 81604 11037 21062 39920 40079 57003 77387 8672/ 333 86717
AAXX 19001 22887 42497 71708 11041 21087 30130 40203 57016 8655/ 333 86618 91112
AAXX 19001 23205 42298 82003 11053 21074 30158 40173 58008 886// 333 88706 91108
AAXX 19001 23219 41398 82308 11060 21071 30131 40241 53003 73633 886//
AAXX 19001 23418 42970 01505 11094 21129 30189 40267 54000 333 93403
AAXX 19001 23606 42960 32004 11078 21114 30091 40272 58007 83030
AAXX 19001 23711 42998 31404 11089 21123 30144 40327 57004 83030
AAXX 19001 23804 42997 11704 11071 21114 30121 40276 57010 80001
AAXX 19001 27037 41497 81505 11037 21052 39943 40108 58002 77173 8672/ 333 86717
AAXX 19001 27199 42998 81606 11086 21119 30111 40319 58019 8805/
AAXX 19001 27271 41996 82008 11060 21091 30068 40230 57005 77173 8802/ 333 91112
AAXX 19001 27459 41396 81504 11066 21082 30023 40226 53010 77172 8872/ 333 88707 91113
AAXX 19001 27730 41998 61804 10012 21005 39975 40172 52030 70273 86030 91112
BBXX 3EMK6 19004 99266 70925 41/// /1006 10203 20156 40260 54/// 7//// 8//// 22200 00230 20403 309// 40602 5//// 6//// 80173 ICE /////
BBXX C6WK7 19004 99358 70066 41998 00324 10120 2//// 40240 54000 702// 80000 22255 0//// 20202 303// 40504 5//// 6//// 8//// ICE /////
BBXX WFLG 19004 99317 71275 41698 82913 10161 20103 40248 54000 70222 8827/ 22264 04128 20201 332// 41003 5//// 6//// 80128 ICE /////
BBXX NWS0022 19004 99416 70714 43/// /3106 11030 21129 40253 5//// 7//// 8//// 222// 04105 2//// 3//// 4//// 5//// 6//// 8//// ICE /////
BBXX PHEO 19004 99373 50553 41092 81705 10170 40055 52005 74642 886// 22284 00180 20501 305// 40502 5////
BBXX PCHM 19004 99338 31512 41598 40602 10200 20184 40100 56021 70352 83445 22200 00210 20000 30000 80190
BBXX WE3592 19004 99442 70827 41/// 82020 10011 2//// 40159 5//// 70222 8//// 22273 00061 2//// 3//// 4//// 5//// 6//// 8//// ICE /////
BBXX 3ETA7 19004 99253 70760 41/98 /0433 10220 20205 40190 56010 7//// 8//// 22235 00250 20604 3//// 4//// 5//// 6//// 80210 ICE /////
BBXX KIRH 19003 99282 70691 41497 63425 10206 20144 40182 52020 7//22 866// 22244 00206 20807 332// 41005 5//// 6//// 80167 ICE /////
BBXX WKAB 19003 99362 70019 41498 40905 10140 20039 40252 52040 7//11 84/// 22224 00172 21001 3//// 41001 5//// 6//// 80090 ICE /////
AAXX 19001 28676 429// 51801 11263 21291 30380 40525 57005 80001 555 1/125
AAXX 19001 28766 419// 02201 11232 21241 30319 40533 58004 71000 555 1/125
AAXX 19001 28867 42998 02301 11289 21313 30257 40571 52002 555 1/129
AAXX 19001 28879 429// 02404 11228 21256 30228 40553 57002 555 1/126
AAXX 19001 28952 419// 02001 11249 21267 30353 40572 52002 77600 555 1/127
AAXX 19001 28966 429// 20000 11330 21359 30253 40588 52004 80001 555 1/136
AAXX 19001 29802 429// 82303 11232 21254 30326 40487 57002 82031 555 1/123
AAXX 19001 29807 429// 03603 11269 21288 30375 40510 58003 555 1/130
AAXX 19001 34691 42998 01110 11098 21145 30372 40359 58004 555 1/111
AAXX 19001 35067 429// 20000 11331 21366 30275 40601 52008 80005 555 1/132
AAXX 19001 35078 429// 03603 11298 21328 30147 40587 52008 555 1/130
AAXX 19001 35085 429// 00000 11273 21296 30024 40570 52008 555 1/130
AAXX 19001 35108 419// 01806 11151 21197 30407 40457 52006 73630
AAXX 19001 35188 419// 03601 11241 21270 30070 40562 52011 77600 555 1/130
AAXX 19001 35217 419// 01307 11174 21208 30434 40477 52014 73630 555 1/119
AAXX 19001 35229 429// 00000 11263 21290 30256 40570 52009 555 1/132
AAXX 19001 35302 419// 01708 11163 21205 30427 40448 52008 73633 555 1/118
AAXX 19001 35357 429// 03405 11265 21290 30062 40558 52017 555 1/127
AAXX 19001 35394 41998 00202 11256 21286 39774 40541 52021 70231 555 1/128
AAXX 19001 35406 429// 01405 11178 21212 30453 40455 52014 555 1/120
AAXX 19001 35416 429// 01208 11195 21259 30376 40510 51007 555 1/121
AAXX 19001 35426 429// 00502 11244 21291 30228 40560 52013 555 1/128
AAXX 19001 35497 419// 00209 11177 21227 39605 40476 52018 73630 555 1/120 333 91015 91115
AAXX 19001 35532 41993 01114 11221 21247 39971 40522 52004 73933 333 91018 555 1/126
AAXX 19001 35671 41998 03606 11214 21248 30047 40526 52019 73633 555 1/123
AAXX 19001 35700 42998 01209 11136 21188 30458 40432 52019 333 91016 91117 555 1/115
AAXX 19001 35746 NIL
AAXX 19001 35796 41594 80806 11148 21179 39944 40412 52025 77373 8802/ 555 1/115
AAXX 19001 35849 NIL
AAXX 19001 35925 NIL
AAXX 19001 35953 NIL
AAXX 19001 35969 NIL
AAXX 19001 36003 42998 32802 11280 21297 30338 40512 52011 83030 555 1/130
AAXX 19001 36152 419// 02706 11305 21348 30295 40513 52022 73630 555 1/131
AAXX 19001 36177 429// 63102 11242 21269 30212 40489 52021 83031 555 1/124
AAXX 19001 36208 429// 01002 11292 21316 39375 40487 52026 555 1/132
AAXX 19001 36397 419// 82902 11244 21271 39839 40468 52025 77172 8802/ 555 1/123
AAXX 19001 36428 NIL
AAXX 19001 36535 429// 00000 11258 21289 39742 40449 52021 555 1/129
AAXX 19001 36639 429// 00000 11250 21262 39720 40393 52022 555 1/129
AAXX 19001 36821 415// 82603 11168 21203 39896 40428 52030 70282 889// 333 91107
AAXX 19001 36859 419// 82303 11098 21114 39529 40351 52032 77172 8802/ 333 91108 555 1/108
AAXX 19001 36864 426// 82709 11169 21219 39454 40426 52023 8561/ 555 91114
AAXX 19001 36870 415// 80201 11119 21166 39317 40395 51017 78588 889// 333 91102 555 1/110
AAXX 19001 38001 NIL
AAXX 19001 38062 NIL
AAXX 19001 38069 NIL
AAXX 19001 38196 NIL
AAXX 19001 38198 NIL
AAXX 19001 38222 42997 80000 11252 21277 39853 40487 52029 8801/ 555 1/126
AAXX 19001 38232 NIL
AAXX 19001 38328 NIL
AAXX 19001 38334 NIL
AAXX 19001 38341 42997 01801 11265 21290 39597 40495 52009 555 1/124 91108
AAXX 19001 38343 42997 02002 11222 21240 39529 40473 52019
AAXX 19001 38439 NIL
AAXX 19001 22028 41981 81701 10004 21009 30015 40053 57012 70272 8802/ 333 91002
AAXX 19001 22106 41597 80601 11023 21029 39959 40038 58012 78582 889// 333 86920 91002
AAXX 19001 22127 41396 81103 11009 21011 39843 40044 57012 78582 889// 333 86707 91005 93702
AAXX 19001 22324 41440 81204 11001 21004 39985 40035 57012 78582 889// 333 91007 93702
AAXX 19001 22621 41459 81205 11006 21015 39871 40010 57008 78587 889// 333 86916
AAXX 19001 22831 41497 81205 11007 21042 39977 40037 57002 70282 889// 333 91111
AAXX 19001 22892 41497 81606 10023 20013 39913 49929 54000 76162 8802/ 333 88515 91110
AAXX 19001 26275 42498 71404 10031 20015 39972 40002 52020 87500
AAXX 19001 26389 41496 81902 10014 20000 39783 40047 52029 71022 886//
AAXX 19001 26499 41497 81905 10012 20001 39852 40082 52033 70272 886// 333 88712
AAXX 19001 26695 41396 82005 10010 20002 39806 40115 52038 71022 886// 333 88710
AAXX 19001 26882 41484 72205 10016 20002 39848 40125 52029 70282 87800 333 87619
AAXX 19001 20107 41597 81508 11003 21027 39918 40012 58006 78583 889// 333 91010 91111
AAXX 19001 22113 41340 83503 11008 21012 39980 40044 57015 78582 889// 333 84708 91004 93504
AAXX 19001 22217 41340 81002 10003 21003 39991 40023 57014 78582 889// 333 86709 91003 93701
AAXX 19001 22235 41343 81302 11018 21018 39860 40056 58013 78582 889// 333 91004
AAXX 19001 22349 41596 81506 10000 21015 30062 40074 58015 78582 889// 333 91008
AAXX 19001 22408 41340 81203 11008 21015 39840 49989 57013 77172 8872/ 333 88707
AAXX 19001 22602 41358 81303 11009 21013 39748 49972 57008 77172 8872/ 333 88707
AAXX 19001 22619 41480 81606 10001 21016 39829 49989 57008 70272 886// 333 88710 91011 91112
AAXX 19001 22721 41498 81502 10003 21005 39905 40006 57005 72272 885// 333 86618 93700
AAXX 19001 22802 41559 81504 10019 20014 39937 49960 57005 71082 885// 333 91112 93700
AAXX 19001 22820 41481 81503 11008 21018 39861 49999 57004 77187 8547/
AAXX 19001 26059 41697 81503 10021 20008 39916 49940 52012 72582 889// 333 86647
AAXX 19001 26063 42697 71903 10033 20007 39951 49959 52012 86410 333 86647
AAXX 19001 26094 41470 81603 11001 21007 39928 40004 52010 72272 886// 333 88715
AAXX 19001 26157 42997 71807 10023 20004 39886 49935 52011 87030 333 91113
AAXX 19001 26167 41468 81704 10023 21005 39860 49971 52014 70282 889// 333 88917
AAXX 19001 26258 41597 81904 10025 20001 39912 49966 52012 78082 889// 333 91111
AAXX 19001 26298 41496 81804 10007 21001 39812 40042 52024 71072 886//
AAXX 19001 26359 42582 71906 10025 21014 39866 49999 52019 875// 333 91112
AAXX 19001 26702 41496 82403 10012 20004 39977 40003 52021 78586 889// 333 91010 91112
AAXX 19001 26781 42497 72103 10015 21005 39796 40090 52024 875// 333 87616
AAXX 19001 27208 41496 81804 11008 21015 39881 40059 52020 77173 8872/ 333 91112 92980
AAXX 19001 27402 41397 81803 10010 20007 39903 40084 52032 77173 8872/ 333 88707 91112 92980
AAXX 19001 26997 41456 82302 10013 21001 39949 40173 52040 71022 889// 333 86916
AAXX 19001 27595 32597 71505 11103 21147 30205 40364 57003 87500 333 91010 91112
AAXX 19001 27612 415// 82301 10018 20007 39931 40126 52032 71083 885//
AAXX 19001 27707 41550 72302 10010 20002 39849 40144 52039 71022 87500 333 87625
AAXX 19001 27719 41597 71905 10019 20006 39905 40156 53040 70282 87300
AAXX 19001 27786 42997 61406 11090 21151 30188 40359 52006 82034
AAXX 19001 27857 41496 81606 11044 21050 30073 40243 52018 77172 886// 333 88714 91113
AAXX 19001 27906 42597 71704 10020 20001 39927 40171 52032 87500
AAXX 19001 27928 41996 22303 10010 20002 39980 40190 52029 71071 80001
AAXX 19001 27947 41396 81607 11001 21012 30062 40225 52028 76883 8872/ 333 88708 91115 934//
AAXX 19001 27962 41395 81408 11080 21103 30060 40292 52006 73973 8802/ 333 88509 91013 91113 92993
AAXX 19001 27983 42968 71305 11119 21154 30253 40389 51003 87030
AAXX 19001 27995 42970 71404 11118 21180 40414 52003 85051
AAXX 19001 28506 42997 61103 11120 21164 30300 40423 52001 80006
AAXX 19001 28704 41998 81705 11125 21160 30313 40417 52003 70232 80002 333 91111
AAXX 19001 28711 41997 01707 11137 21198 30054 40464 52006 73630 333 91012 91112
AAXX 19001 28807 42997 61304 11129 21190 30387 40444 52005 80001
AAXX 19001 34009 42997 62203 10015 21007 39887 40195 52032 86030
AAXX 19001 34110 42897 32402 10011 21003 39924 40206 52027 82031
AAXX 19001 34123 41997 62001 10013 21004 30028 40215 52032 70282 86030
AAXX 19001 34152 41358 81404 11028 21035 30071 40275 52014 77173 8872/ 333 86707 91011 91113
AAXX 19001 34163 42498 80803 11096 21108 40325 52006 885// 333 88620
AAXX 19001 34171 41560 71411 11093 21128 30136 40341 53009 73632 87500 333 87620 91014 91114
AAXX 19001 34186 41980 71509 11130 21165 30241 40391 52007 73631 82031 333 91013 91115
AAXX 19001 34247 41358 81903 10021 20013 30125 40241 52018 71062 885// 333 85707
AAXX 19001 34336 42698 81802 10032 20022 30134 40239 52020 8652/
AAXX 19001 34391 42997 81407 11125 21177 30348 40381 52001 8802/ 333 91113
AAXX 19001 35011 42984 01404 11175 21201 30324 40494 52012
AAXX 19001 35121 42998 01103 11224 21258 30364 40531 52006
AAXX 19004 91165 32566 40517 10250 20183 30138 40171 58026 92353 333 10256 20211 555 91900
AAXX 19004 91182 12566 40608 10267 20167 30154 40158 58027 69951 92353 333 10272 91017 555 91900
AAXX 19004 91190 32666 20516 10267 20167 30141 40159 58025 92354 333 10272 20206 91025 555 91900
AAXX 19004 91212 32566 20815 10294 20217 31390 40124 51013 92354 333 10294 91022 555 91900
AAXX 19004 91285 12566 63009 10217 20178 30144 40158 56023 60011 92353 333 10261 20183 555 91900
AAXX 19004 91245 32966 00717 10290 20240 30157 92359 555 91900
AAXX 19001 38598 NIL
AAXX 19001 38599 NIL
AAXX 19001 38725 NIL
AAXX 19001 38734 NIL
AAXX 19001 38744 NIL
AAXX 19001 38836 NIL
AAXX 19001 38838 NIL
AAXX 19001 38844 NIL
AAXX 19001 38846 NIL
AAXX 19001 38847 NIL
AAXX 19001 38932 NIL
AAXX 19001 38933 NIL
AAXX 19001 38944 426// 80000 10018 20005 39644 40191 52002 885//
AAXX 19001 38954 NIL
BBXX 42085 19001 99179 70665 46/// /0506 10260 40149 53022 90000 22200 00281 10602 70010 333 91208
AAXX 1900/ 41858 NIL
AAXX 1900/ 41863 NIL
AAXX 1900/ 41886 NIL
AAXX 1900/ 41895 NIL
AAXX 1900/ 41909 NIL
AAXX 1900/ 41915 NIL
AAXX 1900/ 41926 NIL
AAXX 1900/ 41929 NIL
AAXX 1900/ 41933 NIL
AAXX 1900/ 41939 NIL
AAXX 1900/ 41941 NIL
AAXX 1900/ 41946 NIL
AAXX 1900/ 41947 NIL
AAXX 1900/ 41951 NIL
AAXX 1900/ 41953 NIL
AAXX 1900/ 41958 NIL
AAXX 1900/ 41960 NIL
AAXX 1900/ 41963 NIL
AAXX 1900/ 41964 NIL
AAXX 1900/ 41965 NIL
AAXX 1900/ 41966 NIL
AAXX 1900/ 41984 NIL
AAXX 1900/ 41989 NIL
AAXX 1900/ 41998 NIL
BBXX A8YW2 19004 99196 30668 41/97 51523 10250 20204 40120 56005 70311 8//// 22214 00240 20302 80220
BBXX V7SY6 19004 99148 10650 41597 30516 10270 20228 40290 56010 7//11 83/// 22223 00270 20602 305// 40602 5//// 6//// 80240 ICE /////
BBXX SLKQ 19001 99130 10602 43/96 80510 10262 40113 55007 22264 00275 2////4////
BBXX 9V8797 19004 99173 10667 43/97 40608 10261 40160 55012 22234 00269 2//// 4////
BBXX TBWUK42 19004 99323 30162 41598 22114 10185 20146 40168 53010 70100 8154/ 22233 29901 321// 40604 5//// 80162
BBXX A8KH9 19004 99228 30145 41/97 /1506 10155 20139 40115 54000 70000 8//1/ 22200 20301 32500 40802 5//// 80145
BBXX PDHO 19003 99182 10575 41597 10718 10234 20165 40152 56011 70100 81800 22214 00260 20505 80189
BBXX UBQE6 19001 99187 70179 41998 00312 10180 2//// 40130 52003 70200 80000 22283 00019 20203 39999 49999 59999
BBXX DEIR 19004 99281 30474 41297 62335 10210 20180 40110 58030 70200 8477/ 22223 04195 20705 313// 40906 80190
BBXX DCHO 19004 99085 50339 41497 20713 10270 20243 40140 53020 703// 821// 22254 04270 20201 80250
BBXX A8RL4 19004 99050 70134 41398 61808 10280 20239 40125 51010 71388 866// 22234 00290 299// 80250
BBXX PHQW 19003 99078 70141 41/97 /0000 10280 20210 40114 50003 7//// 8//// 22273 00286 20000 80231 90500
BBXX VRGJ6 19003 99279 10335 41998 03012 10190 20138 40160 54000 70000 80000 22233 04197 2//// 3//// 4//// 5//// 80160
BBXX SMGW 19001 99353 11484 43/97 81008 10101 40166 58003 22224 00189 20405 40907
BBXX SHJC 19001 99297 11222 43/98 30210 10132 40299 53003 22234 00186 2//// 4////
BBXX A8OY9 19004 99060 10900 43298 30724 10275 2026/ 40090 54001 79100 848// 22224 00302 20605 308// 40806 80256
BBXX DCAX2 19003 99110 11528 41596 51134 10280 20266 40100 56000 72588 85741 22233 21208 311// 41206 5//// 80270
BBXX VNVF 19004 99116 11300 41398 41018 10279 20255 40101 51010 70111 82144 22244 00290 20402 334// 41003 80262
BBXX V2BE4 19001 99253 11408 41/96 90206 10200 20184 40190 51003 76366 897// 22244 04215 20401 80190
BBXX VREX8 19004 99288 11538 41099 /2915 10260 2023/ 40220 54000 7//11 8/2// 22255 0//// 20304 330// 40304 50304 6//// 80240 ICE /////
BBXX S6JU 19004 99438 11635 41597 82920 10005 21010 40020 54000 70172 8776/ 22214 0//// 2//// 32829 40606 50504 6//// 80000 ICE /////
BBXX DGZR2 19003 99060 10889 41497 60920 10280 20239 40067 53007 70222 84278 22224 00280 20403 80250
BBXX DQVG 19003 99343 11447 41297 70416 10132 20105 40078 50000 76262 8576/ 22264 20404 301// 40604 5//// 80118
BBXX A8QR9 19004 99060 10923 41697 60825 40080 54000 703// 8/3// 22224 20305
BBXX C6OA3 19003 99156 11267 41898 50518 10280 20237 40117 51018 70152 82445 22273 06290 20604 301// 41006 5//// 80250
BBXX OXOR2 19004 99240 11196 41296 80331 10141 20119 40234 55006 70522 887// 22254 00180 20606 80128
BBXX DPCK 19003 99325 11277 41598 43624 10095 20006 40285 53005 70211 84564 22215 00200 20302 33499 40504 5//// 80055
BBXX DHBN 19001 99312 11710 41698 82205 10185 20118 40195 50003 76062 8/11/ 22224 00220 2//// 3//// 4//// 5//// 80145
BBXX DDAC2 19000 99112 70910 41598 51006 10273 20242 40100 54000 7//11 83560 22273 04274 20302 306// 40504 5//// 80250
BBXX PCEX 19003 99088 70794 41398 63215 10260 20231 40102 56006 70282 867// 22200 02269 20201 80239
BBXX WKAB 19003 99362 70019 41498 40905 10140 20039 40252 52040 7//11 84/// 22224 00172 21001 3//// 41001 5//// 6//// 80090 ICE /////
BBXX A8NQ5 19003 99512 70253 41/96 /2320 10105 20077 40145 52025 74155 8//// 22265 299// 80090
BBXX WDD3826 19004 99483 70260 41/93 /2919 10120 2012/ 40190 5//// 74344 8//// 22224 00100 20304 318// 40705 5//// 6//// 80120 ICE /////
BBXX 62023 19003 99514 70079 46/97 /2615 10093 2//// 40223 5//// 22200 10503 70014 555 70021 80012
BBXX A8LL8 19004 99496 70039 41/98 /3305 10090 20060 40220 57010 70022 8/875 22224 21006 80075
BBXX OXBB2 19001 99465 70073 41798 43508 10130 20074 40265 51005 70322 83465 22213 00130 20204 80100
BBXX LAHV 19001 99589 10057 43/// /3306 10032 20013 40041 222// 04076 1////
BBXX LF4H 19004 99596 10022 46/// /3018 10041 20015 40071 52002 8//// 22200 06079 10807 70036 333 91128
BBXX LGWS 19001 99304 70096 43/// /1204 10163 20115 40171 5//// 222/0 04162 1//// 3//// 4//// 5////
BBXX SKUN 19003 99515 70134 43/97 82326 10095 40185 56015 22224 00103 2//// 4////
BBXX PJFF 19004 99424 70164 41/97 /0510 10150 40290 57010 702// 8/7// 22254 04130 2//// 30000 80020
BBXX DGZL 19003 99324 10294 41/98 11015 10170 20137 40195 58005 70100 81/// 22264 00180 2//// 80150
BBXX TFGRS 19004 99663 70182 46/// ///// 22200 10603 70013
BBXX TFBLK 19004 99657 70248 46/// ///// 22200 10707 70037
BBXX TFGSK 19004 99641 70229 46/// ///// 22200 10706 70030
BBXX TFDRN 19004 99658 70212 46/// ///// 22200 10502 70010
BBXX TFGRV 19004 99638 70225 46/// ///// 22200 10706 70031
BBXX TFHFN 19004 99642 70152 46/// ///// 22200 10702 70012
BBXX TFSTD 19004 99664 70234 46/// ///// 22200 10604 70019
BBXX TFBKF 19004 99635 70202 46/// ///// 22200 10604 70019
BBXX TFKGR 19004 99657 70136 46/// ///// 22200 10604 70020
BBXX TFSRT 19004 99633 70203 46/// ///// 22200 10605 70027
BBXX UCKD 19001 99583 10205 41/96 91012 10060 49849 52011 75355 89/// 22253 00060 20803
BBXX UCAC 19001 99668 10083 41/98 90511 10050 40000 54000 700// 89/// 22213 00100 20605 305// 40605
BBXX UCJL 19001 99612 10042 41/98 93414 10049 40009 54000 70262 8//// 22282 00050 20806
BBXX PDHW 19003 99467 70216 41397 82430 10140 20123 40195 57010 76066 8761/ 22263 00120 21006 80130
BBXX UCAD 19001 99630 10041 41/97 93138 10060 49997 52020 70222 88/// 22253 00090 20405
BBXX PBEN 19003 99364 10344 41/98 29904 10150 20097 40260 54000 7//22 821// 22253 20501 30000 80120
BBXX DDSD2 19003 99437 70185 41/98 /2013 40290 54000 702// 8//// 22214 21506 328// 41608 5////
BBXX UBEF5 19001 99414 10290 41/96 90903 10080 40168 54000 76066 89/// 22250 00100 2////
BBXX UCAB 19001 99711 10191 41/98 92004 10030 40037 54000 70211 8//// 22253 00060 20401
BBXX NWS0020 19004 99352 70119 43/// /0618 10155 20063 40242 5//// 7//// 8//// 222// 04194 2//// 3//// 4//// 5//// 6//// 8//// ICE /////
BBXX 44039 19001 99411 70727 46/// /3305 11011 21143 40265 92345 22200 00095 10201 70004 333 91208
BBXX 44060 19001 99413 70721 46/// ///06 11024 40259 51024 90000 22200 00096 333 91208 555 11062 22062
BBXX PDNN 19003 99450 70422 41/98 /1724 10138 20123 40164 57004 70122 8//// 22223 20304 80129 90500
BBXX A8IN9 19003 99253 70594 41/97 /3610 10232 20141 40165 53007 70222 8//// 22214 06260 20202 303// 40804 5//// 80178
BBXX A8IN7 19004 99110 70765 41397 40524 10280 20221 40090 54000 70200 82145 22244 06280 20508 80240
BBXX 46042 19001 99368 71224 46/// /3304 10111 40205 57012 92350 22200 00128 11506 331// 41506 70030 333 91206 555 11037 22039 32331 43106 62349 323036 312036 323038 320036 325033 339034
BBXX 46053 19001 99342 71198 46/// /2811 10139 40173 56018 92350 22200 00146 10604 20603 327// 41402 70019 333 91213 555 11115 22123 32328 42813 62349 282107 282111 281108 279107 271100 273097
BBXX 44022 19001 99409 70737 46/// ///03 11014 21127 40261 51013 90000 22200 00083 333 91204 555 11026 22026
BBXX C6KD7 19003 99304 70432 41498 31325 10223 20203 40193 52016 76011 8424/ 22214 02230 20805 314// 41207 5//// 80210
BBXX DFGX2 19003 99511 71342 41/96 81844 10080 20060 40200 54000 76166 8//// 22224 04080 21410 316// 41209 80070
BBXX VRFX8 19004 99406 70625 41/98 79904 10110 20060 40050 54000 70222 8//// 22264 0//// 2//// 3//// 4//// 80090
BBXX 46083 19001 99582 71380 46/// /1620 10043 20040 49984 58057 92350 22200 00063 10913 20708 300// 40910 70064 333 91225 555 11215 22231 32252 41628 62349 164201 164193 163210 161197 158201 158213 81623 92252
BBXX 41038 19001 99341 70777 46/// /3605 10113 40278 53032 90000 22200 00140 333 91206
BBXX WXJ63 19003 99611 71464 41/96 82105 10020 20004 49845 57/// 760// 8//// 222// 00046 2//// 3//// 4//// 5//// 6//// 8//// ICE /////
BBXX NWS0003 19004 99539 71665 43/// /0000 10025 21047 49862 5//// 7//// 8//// 222// 0//// 2//// 3//// 4//// 5//// 6//// 8//// ICE /////
BBXX NWS0029 19004 99316 70555 43/// /2115 10213 20152 40124 5//// 7//// 8//// 222// 04235 2//// 3//// 4//// 5//// 6//// 8//// ICE /////
BBXX 41113 19001 99284 70805 46/// ///// 1//// 92351 22200 00215 11101 21001 310// 41101 70007
BBXX 44100 19001 99363 70756 46/// ///// 1//// 92352 22200 00125 10703 20703 308// 41101 70016
BBXX 41112 19001 99307 70813 46/// ///// 1//// 92351 22200 00159 10402 20402 310// 41301 70009
BBXX 41110 19001 99341 70777 46/// ///// 1//// 92351 22200 00140 11301 21001 311// 41301 70005
BBXX 42099 19001 99273 70842 46/// ///// 1//// 92357 22200 00232 10603 20603 70013
BBXX WDF7020 19004 99466 70872 41/99 82038 1//// 2//// 40024 57003 70222 889// 22223 00039 2//02 3//// 4//// 5//// 6//// 8//// ICE /////
BBXX FHZI 19004 99604 31450 46/// /0219 10021 20016 30067 40078 57028 22243 04006 85019
BBXX UCKZ 19001 99670 30448 41395 80815 11015 21022 49792 57056 77372 8872/ 22281 01015 2//// ICE 57895
BBXX 44255 19001 99473 70573 46/// /0308 11034 40181 57006 22200 00040 11002 70011 333 91210
BBXX 9HJC9 19004 99175 70646 41797 60522 10260 2//// 40160 54/// 7//22 86/// 22222 04280 20303 399// 40303 5//// 6//// 8//// ICE /////
BBXX WBDS 19003 99397 70604 41297 80124 10120 2009/ 40080 57010 7//62 886// 22265 00219 20507 3//// 4//// 5//// 6//// 80105 ICE /////
BBXX 3ETA7 19004 99253 70760 41/98 /0433 10220 20205 40190 56010 7//// 8//// 22235 00250 20604 3//// 4//// 5//// 6//// 80210 ICE /////
BBXX KIRH 19003 99282 70691 41497 63425 10206 20144 40182 52020 7//22 866// 22244 00206 20807 332// 41005 5//// 6//// 80167 ICE /////
BBXX WDB9949 19004 99473 71393 41095 81928 10110 2009/ 40210 57040 74522 88/// 22274 00060 20705 327// 40906 5//// 6//// 80100 ICE /////
BBXX 44150 19001 99425 70640 46/// /0415 10044 40134 5//// 22200 00105 10908 70042 333 91219
BBXX 41037 19001 99340 70775 46/// /3508 10101 40240 53019 90000 22200 00166 333 91209
BBXX SBLI 19001 99300 71755 43/98 83109 10215 40186 58004 22263 00224 2//// 4//// NNNN 426621110
BBXX SBLW 19003 99166 70702 43/98 40623 10263 40170 52012 22254 00281 2//// 4////
BBXX 41053 19001 99185 70661 46/// /0606 10261 40155 53014 90000 22200 00274 11304 70020 333 91208
BBXX 41053 19001 99185 70661 46/// /0506 10262 40152 92350 333 91208
BBXX 41052 19001 99183 70648 46/// /0305 10261 40148 92350 333 91206
BBXX 41052 19001 99183 70648 46/// /0405 10261 40147 92340 333 91206
BBXX 41053 19001 99185 70661 46/// /0606 10262 40150 92340 333 91208
BBXX MINFR00 1900/ 99321 70811 46/// ///// 10110 40279 52017
BBXX 41052 19001 99183 70648 46/// /0405 10260 40149 53017 90000 22200 00277 333 91206
BBXX 44139 19001 99442 70571 46/// /0315 10032 40124 52006 22200 00086 10909 70046 333 91218
BBXX A8IP3 19003 99211 70709 41597 30612 10250 20178 40186 53026 70200 82142 22224 04270 20403 80202
BBXX 46001 19001 99563 71480 46/// /2415 10057 49920 53044 92350 22200 00051 11217 20708 300// 41216 70087 333 91219 555 11158 22170 32330 42621 62349 240147 244150 246157 237158 238152 236149
BBXX 44022 19001 99409 70737 46/// ///03 11014 21127 40261 90000 22200 00083 333 91204 555 11026 22026
BBXX 42363 19001 99282 70892 46/// /0708 10167 20078 40264 53003 90000 333 91208
BBXX 42362 19001 99278 70907 46/// /0808 10183 20083 40254 54000 90000
BBXX WDE9586 19003 99364 71567 41498 51923 10200 2017/ 40200 58010 7//22 8511/ 22214 00180 20404 320// 40805 5//// 6//// 80180 ICE /////
BBXX WQVY 19004 99317 70637 41697 82819 10180 2011/ 40082 52032 72582 882// 22263 0//// 20504 329// 40806 5//// 6//// 80140 ICE /////
BBXX WABS 19004 99381 71248 41397 8//24 10117 2009/ 40230 54000 7//22 8862/ 22273 0//// 20207 333// 40509 5//// 6//// 80100 ICE /////
BBXX SHIP 19003 99312 71416 41697 80518 10190 2017/ 40290 57030 78082 8895/ 22223 00200 20605 332// 40907 5//// 6//// 80175 ICE /////
BBXX A8CN9 19000 99482 71476 41296 71503 10090 20049 40060 58/// 70322 86710 22234 20907 32420 40907 50806 80070
BBXX C6SI4 19004 99546 71696 41496 52033 10020 2107/ 49830 51010 70122 851// 22263 00050 21408 323// 4//// 5//// 6//// 81010 ICE /////
BBXX KGTY 19004 99533 71544 41598 62527 10044 2002/ 49968 52043 7//22 846/8 22224 00039 21011 325// 41513 5//// 6//// 80033 ICE /////
BBXX V2NA1 19004 99410 70396 41296 81822 10180 20148 40220 52020 705// 8/7// 22224 04170 20605 318// 41205 80160
BBXX WFLG 19004 99317 71275 41698 82913 10161 20103 40248 54000 70222 8827/ 22264 04128 20201 332// 41003 5//// 6//// 80128 ICE /////
BBXX VSJG7 19003 99547 71793 41498 42619 10000 2103/ 49830 51000 7//11 8413/ 22261 00040 20905 32831 41209 5//// 6//// 81010 ICE /////
BBXX 42362 19001 99278 70907 46/// /0807 10183 20083 40254 92345
BBXX 3EPD8 19004 99336 50480 41998 03314 10190 20165 40057 7//00 80000 22214 04199 299// 80175
BBXX PHEO 19004 99373 50553 41092 81705 10170 40055 52005 74642 886// 22284 00180 20501 305// 40502 5////
BBXX MZDL7 19003 99011 51082 41598 61717 10224 20191 40127 53004 70222 865// 22243 00230 20502 315// 40703 5//// 80203
BBXX A8KX4 19004 99315 50719 41597 61511 10175 20140 40120 54000 70322 8/400 22243 00174 20202 323// 40602 80155
BBXX A8TC4 19004 99260 50438 41298 50221 10250 20220 40070 52010 70300 8/856 22214 04260 20704 307// 40903 5//// 80230
BBXX HZGN 19003 99036 11101 41698 80116 10270 20250 40105 52020 70022 85438 22224 02271 20802 301// 41205 5//// 80255
BBXX SLKR 19003 99081 51212 43/98 21013 10262 40131 57018 22254 00250 20000 40000
BBXX SLKU 19000 99019 11435 41698 61106 10300 40079 52009 70282 84344 22274 00306 20301 305// 40803
BBXX SLCO 19004 99024 31525 43/97 70504 10278 40077 50001 22234 00289 2//// 40504
BBXX 3EDA4 19003 99227 31539 41398 41106 10260 20187 40113 51016 70311 83963 22244 00267 20203 311// 40303 80210
BBXX 9HA2479 19004 99339 31512 46/// /0609 10197 20169 30075 40104 57017 22200 04204 85178
BBXX B2M1450 19003 99008 11406 41398 40705 10295 20270 40088 53019 70211 82445 22234 04270 20100 80277
BBXX C6FS9 19004 99274 31531 46/// /0805 10228 20148 30128 40164 57007 22200 04242 85177
BBXX VROB 19004 99308 31534 46/// /3622 10223 20139 30119 40144 57014 22244 04246 85170
BBXX VNSZ 19004 99412 31464 46/// /3109 10173 20163 30013 40039 52001 22200 04187 85166
BBXX PCDE 19003 99399 31306 41597 82908 10164 20138 40091 70288 885// 22223 20201 399// 40602 80148
BBXX PCAM 19003 99412 31732 41597 33604 10205 20109 40174 52/// 7//00 83460 22200 04189 20601 80148
BBXX VRDU8 19003 99387 31376 41598 31920 10180 20217 40081 52055 70111 83175 22224 04160 20804 307// 40850
BBXX V2OG2 19003 99211 31105 41598 52017 10250 20207 40115 53012 70000 85400 22233 20402 318// 40503 80220
BBXX WDF9323 19003 99034 31575 41298 30419 10290 2025/ 40060 54000 7//10 82881 22213 0//// 20202 305// 40504 5//// 6//// 80260 ICE /////
BBXX PCHM 19004 99338 31512 41598 40602 10200 20184 40100 56021 70352 83445 22200 00210 20000 30000 80190
BBXX PEND 19003 99299 31147 41598 31516 10210 20132 40130 53017 70111 82501 22243 00250 2//// 3//// 4//// 5//// 80162
BBXX PCCL 19003 99345 31735 41498 31428 10182 20140 40092 54000 70200 82272 22232 04189 20605 312// 41004 80156
BBXX VNVM 19004 99287 31538 41598 60411 10234 20160 40151 58003 70311 864// 22243 00250 20401 316// 40603 80189
BBXX DCQR2 19003 99230 31540 41698 51020 10246 20144 40120 54000 70122 82279 22244 04260 20403 314// 40605 5//// 80185
BBXX KAOU 19004 99001 10805 43/// /3208 10276 20233 40074 5//// 7//// 8//// 222// 04289 2//// 3//// 4//// 5//// 6//// 8//// ICE /////
AAXX 19004 91943 36/// /1008 10294 20211 30114 40116 56019 333 58000
AAXX 19004 91945 06/// /0702 10280 20218 30132 40137 56013 60024 333 20228 58011 60027
AAXX 19001 48919 12498 70513 10265 20236 30070 40092 53001 60012 8295/ 22200 02272 2//05 333 20250 59003 81894 82995 87399
AAXX 19001 48916 32998 70205 10260 20199 30052 40099 53008 80008 333 00/// 20257 3//// 59003 87299
AAXX 19001 48917 32998 60507 10258 20198 30091 40097 52011 80008 222// 00270 2//00 333 00025 20256 3/025 59006 86299
AAXX 19001 48914 32998 70204 10236 20192 30105 40107 52014 80008 333 00023 20236 3/022 59003 87299
AAXX 19001 48918 32470 80202 10253 20222 30097 40108 52014 888// 222// 00261 2//01 333 00026 20251 3/024 59003 81894 88696
AAXX 19001 48900 32497 13405 10220 20190 30095 40105 52011 81100 333 20214 59003 81894
AAXX 19003 64800 NIL
AAXX 19003 64820 NIL
AAXX 19003 64860 32960 60000 10200 20100 39832 40100 80002 333 0//00 59006 86080
AAXX 19003 64861 NIL
AAXX 19003 64870 NIL
AAXX 19003 64871 NIL
AAXX 19003 64892 NIL
AAXX 19003 64893 NIL
AAXX 19003 64894 NIL
AAXX 19003 64910 31456 60000 10264 20248 30098 40107 71022 83302 333 0//00 59005 83616 81920 85080 94944 95834
AAXX 19003 64911 NIL
AAXX 19003 64950 NIL
BBXX PHJV 19003 99085 31281 41598 43016 10305 20258 40067 51014 70311 83165 22263 02322 20102 336// 40102 80270
BBXX A8RV7 19004 99249 31538 41698 51117 10235 20149 40140 55010 70311 85178 22284 21004 31011 41204 50502 80180
BBXX 46207 19001 99509 71299 46/// /2306 10074 40276 52001 22200 00082 11406 70029 333 91207
BBXX 46207 19001 99509 71299 46/// /2306 10074 40276 52001 22200 00082 11406 70029 333 91207
AAXX 19004 40100 12960 30000 10120 20050 30181 40213 58005 60001 80004 900// 333 83070 92427
AAXX 19004 40101 11940 00000 10034 20029 39168 48548 56004 60001 71044 900//
AAXX 19004 40103 32558 00000 10088 20051 40215 55005 555 10191
AAXX 19004 40102 NIL
BBXX 3ERR2 19004 99635 10053 43/// /3216 10055 20046 49965 54000 22200 10908 70040 333 91129
BBXX LF3F 19004 99643 10078 43/// /0412 10042 21020 49976 52004 22200 04084 10805 70025 333 91116
BBXX LF3N 19004 99653 10073 41598 70513 10049 21023 49983 52001 70222 87/// 22200 00088 10804 70018
BBXX LF4B 19004 99606 10037 47/98 /3222 10047 40040 52003 781// 22200 00053 10809 70043 333 91130
BBXX LF4C 19004 99584 10019 43/// /3217 10054 21027 40089 54000 22200 10807 70037 333 91125
BBXX LF5T 19004 99660 10081 41698 /0413 10048 21027 49986 52001 700// 22200 10803 70017 333 91121
AAXX 19001 08579 32/// /2403 10084 20028 30149 40277 52005
AAXX 19001 08521 32470 23605 10197 20129 30188 40259 58003 82801 333 81818
AAXX 19001 08524 32470 63307 10182 20136 30160 40257 57009 86800 333 83815 84630 91011 91112
AAXX 19001 22282 415// 71906 11019 21027 30115 40123 57009 70282 87500
AAXX 19001 22438 NIL
AAXX 19001 22471 42584 81906 11026 21049 30095 40119 57006 86530 333 86621
AAXX 19001 22563 41396 81704 11033 21057 30082 40121 58013 76662 8872/ 333 86708
AAXX 19001 22641 42499 81304 11002 21023 30034 40050 57007 886// 333 88718 91110
AAXX 19001 22695 42998 41404 11093 21114 30059 40220 57012 82031
AAXX 19001 22867 41498 71504 11043 21089 30016 40133 57007 78582 85930 333 85920 91110
AAXX 19001 22939 41496 81606 11039 21061 39899 40064 58002 77173 8872/ 333 84714
AAXX 19001 22996 42998 21805 11074 21113 30085 40285 57016 80001
AAXX 19001 23324 41576 82406 11065 21111 30166 40246 53002 73632 885// 333 88622
AAXX 19001 27051 41496 81706 11042 21061 39978 40150 57015 77173 8655/ 333 86616
AAXX 19001 27225 41456 81807 11038 21060 39964 40098 52007 77173 8872/ 333 88716 91014 91115
AAXX 19001 27252 41496 81406 11047 21064 39994 40185 57002 77173 8877/ 333 88716 91117
AAXX 19001 27333 41860 81608 11031 21059 39971 40131 52002 77173 8807/ 92982
AAXX 19001 27369 41595 81405 11064 21076 30101 40244 53004 77173 8802/ 333 88520
AAXX 19001 27393 42998 81808 11092 21137 30187 40365 58003 82031 333 91115
AAXX 19001 27479 41995 81506 11080 21102 30142 40283 57001 77373 8802/ 333 91117 92983
AAXX 19001 27532 41496 81709 11023 21035 39936 40154 52018 77177 8872/ 333 86710 91112
AAXX 19001 27648 41395 81705 11039 21054 30029 40203 52015 77187 8872/ 333 88707 91113
AAXX 19001 27675 42595 81409 11078 21105 30106 40285 58009 77172 8872/ 333 88516
AAXX 19001 27679 42598 81405 11084 21126 30073 40309 53003 885// 333 88622
AAXX 19001 28214 42996 41002 11136 21149 30180 40410 58007 80001
AAXX 19001 34560 42497 81409 11037 21050 30127 40300 52003 885// 333 88613 93530
AAXX 19001 34720 41496 80601 10054 20049 30196 40236 53019 76162 8872/
AAXX 19001 34730 41/08 91002 10053 20050 30149 40242 52016 76186 333 96047
AAXX 19001 34740 41596 81304 10054 20045 30160 40257 53010 71022 885//
AAXX 19001 34824 41595 82001 10085 20080 30227 40232 53021 76062 8870/
AAXX 19001 34858 41/92 91303 10030 20027 30163 40272 51009 74544
AAXX 19001 34866 42498 81105 10011 21006 30306 40297 51009 8860/
AAXX 19001 34880 42997 00903 11041 21074 30368 40340 51017
AAXX 19001 37018 41597 80302 10111 20067 30161 40236 53008 78082 8890/
AAXX 19001 37054 41496 81501 10033 20016 39881 40271 53014 71022 885//
AAXX 19001 37472 41596 81307 10070 20056 30287 40264 52015 71022 8257/ 333 91012 91116
AAXX 19001 10616 01207 82303 11016 21026 39551 40170 50001 69901 77522 877// 333 43003 55300 69907 84704 87708
AAXX 19004 64500 32460 71808 10265 20238 30090 40103 875// 92356 333 0//00 59006 83610 87633
AAXX 19004 64501 NIL
AAXX 19004 64570 11156 82003 10223 20218 39610 40119 60091 71796 8592/ 333 0//72 58001 84702 81920 88460 94944 95834
AAXX 19001 22165 NIL
AAXX 19001 22676 42584 61505 11062 21102 30083 40163 57016 86500
AAXX 19001 22954 41497 81606 11049 21070 39855 40111 56005 77173 8872/ 333 85712
AAXX 19001 23405 42672 61605 11077 21122 30112 40216 58001 86500 333 86636
AAXX 19001 23412 NIL
AAXX 19001 23803 42999 01502 11094 21119 30143 40333 58002
AAXX 19001 27066 41496 81705 11054 21075 30029 40213 57006 77173 8872/ 333 88710
AAXX 19001 27083 42584 61707 11069 21111 30028 40262 57015 86500 333 91113
AAXX 19001 27113 41423 81706 11036 21054 39928 40077 52001 78682 883// 333 86710
AAXX 19001 27242 41497 81605 11035 21053 30014 40146 57011 78582 889// 333 87712 91114
AAXX 19001 27329 41584 81904 11031 21041 39995 40123 52010 70272 885//
AAXX 19001 27355 41495 81606 11047 21064 30023 40192 57001 77373 8872/
AAXX 19001 27373 42996 81510 11066 21122 30033 40261 57009 8807/ 333 91116
AAXX 19001 27665 41/93 91606 11078 21096 39977 40262 53013 77373 333 91117 9298/
AAXX 19001 27835 41596 71704 10011 20003 30031 40191 52029 71073 875// 333 87622 91112
AAXX 19001 28009 42998 01804 11093 21128 30142 40366 58008
AAXX 19001 28411 NIL
AAXX 19001 28418 42997 01403 11114 21158 30271 40451 52002
AAXX 19001 40701 11/06 90000 11068 21070 38697 40380 53003 60001 74944 333 89/16
AAXX 19001 40704 12962 03006 10002 21046 38686 40290 54000 60001 333
AAXX 19001 40708 12960 00000 11028 21035 38743 40290 53007 60001 333
AAXX 19001 40710 11/00 90000 11126 21132 38406 40397 51011 60001 74544 333 89/01
AAXX 19001 40713 11922 01402 11022 21049 38752 40311 54000 60001 71000 333
AAXX 19001 40719 11530 80000 10088 20084 30302 40292 52011 60001 71022 8552/ 333 85620 88457
AAXX 19001 40731 12960 00000 11012 21045 38810 40280 53007 60001 333
AAXX 19001 40738 11/01 90000 10012 20012 30311 40313 51016 60001 74540 333 89/01
AAXX 19001 40740 12660 50000 11060 21064 38805 40302 52009 60001 85500 333 85640
AAXX 19001 40747 12960 00000 11044 21056 38721 40300 53011 60001 333
AAXX 19001 40757 12962 03301 10018 21020 38980 40282 53011 60001 333
AAXX 19001 40763 12965 00000 10008 21049 38978 40268 51003 60001 333
AAXX 19001 40782 12960 01202 11010 21061 38949 40274 51004 60001 333
AAXX 19001 40783 12965 01305 11026 21107 38051 40275 53008 60001 333
AAXX 19001 40789 12965 02702 10036 21018 39286 40276 53005 60001 333
AAXX 19001 40798 12960 00000 11088 21154 38021 40290 54000 60001 333
AAXX 19001 40818 12965 02902 11044 21105 38037 40272 55000 60001 333
AAXX 19001 40827 12965 00000 10034 21007 38877 40251 55001 60001 333
AAXX 19001 40836 12965 00000 11006 21097 38244 40242 52002 60001 333
AAXX 19001 40851 12960 00000 11004 21086 38315 40227 52005 60001 333
AAXX 19001 40853 12960 03303 10020 21081 37778 40190 53005 60001 333
AAXX 19001 40854 12960 02803 10080 21035 39014 40223 51002 60001 333
AAXX 19001 40857 12960 03405 10170 20110 30199 40208 57005 60001 222// 00/// 20301 333
AAXX 19001 40859 12960 02503 10022 21061 38752 40198 54000 60001 333
AAXX 19001 40878 12965 00000 10085 21114 38866 40191 52006 60001 333
AAXX 19001 40879 12960 00000 10087 21093 39526 40207 51006 60001 333
AAXX 19001 40883 11956 00000 10178 20136 30147 40170 56004 60001 70500 333
AAXX 19001 40898 12960 02703 10210 20178 30150 40159 56001 60001 222// 00242 10500 333
AAXX 19001 40701 11/06 90000 11068 21070 38697 40380 53003 60001 74944 333 89/16
AAXX 19001 40704 12962 03006 10002 21046 38686 40290 54000 60001 333
AAXX 19001 40708 12960 00000 11028 21035 38743 40290 53007 60001 333
AAXX 19001 40710 11/00 90000 11126 21132 38406 40397 51011 60001 74544 333 89/01
AAXX 19001 40713 11922 01402 11022 21049 38752 40311 54000 60001 71000 333
AAXX 19001 40719 11530 80000 10088 20084 30302 40292 52011 60001 71022 8552/ 333 85620 88457
AAXX 19001 40731 12960 00000 11012 21045 38810 40280 53007 60001 333
AAXX 19001 40738 11/01 90000 10012 20012 30311 40313 51016 60001 74540 333 89/01
AAXX 19001 40740 12660 50000 11060 21064 38805 40302 52009 60001 85500 333 85640
AAXX 19001 40747 12960 00000 11044 21056 38721 40300 53011 60001 333
AAXX 19001 40757 12962 03301 10018 21020 38980 40282 53011 60001 333
AAXX 19001 40763 12965 00000 10008 21049 38978 40268 51003 60001 333
AAXX 19001 40782 12960 01202 11010 21061 38949 40274 51004 60001 333
AAXX 19001 40783 12965 01305 11026 21107 38051 40275 53008 60001 333
AAXX 19001 40789 12965 02702 10036 21018 39286 40276 53005 60001 333
AAXX 19001 40798 12960 00000 11088 21154 38021 40290 54000 60001 333
AAXX 19001 40818 12965 02902 11044 21105 38037 40272 55000 60001 333
AAXX 19001 40827 12965 00000 10034 21007 38877 40251 55001 60001 333
AAXX 19001 40836 12965 00000 11006 21097 38244 40242 52002 60001 333
AAXX 19001 40851 12960 00000 11004 21086 38315 40227 52005 60001 333
AAXX 19001 40853 12960 03303 10020 21081 37778 40190 53005 60001 333
AAXX 19001 40854 12960 02803 10080 21035 39014 40223 51002 60001 333
AAXX 19001 40857 12960 03405 10170 20110 30199 40208 57005 60001 222// 00/// 20301 333
AAXX 19001 40859 12960 02503 10022 21061 38752 40198 54000 60001 333
AAXX 19001 40878 12965 00000 10085 21114 38866 40191 52006 60001 333
AAXX 19001 40879 12960 00000 10087 21093 39526 40207 51006 60001 333
AAXX 19001 40883 11956 00000 10178 20136 30147 40170 56004 60001 70500 333
AAXX 19001 40898 12960 02703 10210 20178 30150 40159 56001 60001 222// 00242 10500 333
BBXX C6XQ2 19003 99329 50517 41498 62618 10202 20171 40053 54000 70111 8554/ 22213 04210 20402 307// 40602 5//// 80183
BBXX 41101 19004 99146 70562 46/// /0512 1//// 2//// 4//// 5//// 22200 00272 1//// 70///
BBXX BAREU06 19004 99456 70735 46/// ///// 40238 22231
BBXX BATEU01 19004 99498 70371 44/97 01401 10079 20017 40204 53009 70000 222// 00089 327// 40502 5////
BBXX BATEU06 19004 99522 70526 46/// /2612 11073 21131 40192 51019 22264 00017
BBXX FVNM 19004 99058 70864 46/// /1716 10237 20220 40110 53010 22221 00264
BBXX BATEU05 19004 99633 70514 46/// /2315 11061 21132 49952 53019 22243
BBXX BATFR45 19004 99049 30480 46/// ///// 10284 20242 40094 55006 22214 00309
BBXX BATFR05 19004 99063 10034 46/// /2408 10282 20237 40101 58010 22200 00262
BBXX BATFR19 19004 99065 30060 46/// /1810 10237 20192 40129 58008 222// 00254
BBXX A8QJ7 19004 99050 70267 41/98 /0804 10260 20246 40130 50012 75022 8/8// 22213 06270 2//// 3//// 4//// 5//// 80250
BBXX BATFR55 19004 99147 30525 44697 20119 10280 20239 40075 70100 8124/ 22272 00284 20704
BBXX A8YW2 19004 99196 30668 41/97 51523 10250 20204 40120 56005 70311 8//// 22214 00240 20302 80220
BBXX 61001 19004 99434 10078 46/// /0518 10114 21043 40124 52012 22200 00149 10603 70017 555 1/026
BBXX BATFR32 19004 99430 10080 46/// /0922 10110 21017 40118 53014 7//// 8//// 22264 00146
BBXX BAREU58 19004 99379 10236 46/// ///// 40147 22200
BBXX BATFR41 19004 99411 10012 46/// ///// 10057 21022 40233 51009 22200
BBXX BATFR27 19004 99506 70011 46/// /3110 10070 20024 40196 50003 22242 00092
BBXX BATFR09 19004 99467 70031 46/// /3121 10097 20047 40232 58013 22213 00147
BBXX BATFR03 19004 99495 70004 46/// /0021 10070 21002 40201 22282
BBXX BATFR60 19004 99504 70005 46/// /3218 10055 21021 40204 53023 22253 00109
BBXX BATFR16 19004 99462 70073 44698 33317 10112 20044 40264 50003 70200 833// 22264 00147 21004 332// 41004 5////
BBXX BATFR04 19004 99598 70106 46/// /1626 10072 20042 40060 58041 22200 00100
BBXX BATEU08 19004 99618 70301 46/// /2235 10002 21027 49939 55005 22261
BBXX BATFR21 19004 99428 10070 46/// /3320 40125 51025 22263
BBXX BATEU04 19004 99573 10107 46/// /2916 10029 21013 49977 22242
BBXX BATFR12 19004 99483 70073 46/// /3114 10104 20062 40252 58004 22200 00142
BBXX BATFR42 19004 99463 70046 46/// /3222 10105 20057 40241 58012 222// 00142
BBXX BATFR22 19004 99430 10074 46/// /3219 10097 40132 55012 22224 00142
BBXX BATEU03 19004 99544 70097 46/// /2118 10085 20067 40146 56030 22222 00099
BBXX BATFR46 19004 99362 70048 44995 20311 10139 20059 40237 52006 72111 82122 22253 00157 20510
BBXX BATFR54 19004 99462 70020 46/// /2817 10090 20047 40236 57016 22272 00135
BBXX 61002 19004 99421 10047 46/// ///34 10091 2//// 40190 57002 22200 00141 10808 70038 555 1/043
BBXX BATUK01 19004 99583 70062 44596 42410 10037 21006 40117 58021 70211 8414/ 22200 00105 20402 304// 41002 5////
BBXX PBBB 19003 99487 70135 41/98 /2311 10127 20057 40239 58019 7//11 8//// 22253 00125 20304 3//// 4//// 5//// 80091
BBXX A8XY2 19004 99499 70095 41/97 /2520 10105 20019 40230 54000 70322 8//// 22254 04110 20504 80065
BBXX A8AX3 19003 99322 70118 41/// /0504 7//// 8//// 22274 2////
AAXX 19004 60351 11556 81808 10087 20072 40194 50002 60121 70262 889// 333 0//51 84820 81926 86633 95990
AAXX 19004 60355 11556 72511 10085 20055 40192 51006 60041 78082 878// 333 0//21 82830 86833 95990
AAXX 19004 60445 12460 62804 10020 20012 39020 48493 50000 60001 85230 333 82710 85826 95990
AAXX 19004 60468 12460 63306 10035 20008 39234 48492 53005 60001 86800 333 81813 86826 95990
AAXX 19004 60507 12560 60000 10050 20041 40245 51004 60001 85280 333 85830 95990
AAXX 19004 60511 12560 22908 10017 20007 39084 48512 58004 60001 82200 333 0//00 82823 95990
AAXX 19004 60536 11560 30000 10030 20025 39354 48525 52006 60011 70261 83200 333 0//14 83830 95990
AAXX 19004 60550 12460 70204 10022 20017 38670 48507 50000 60001 876// 333 0//00 87710 95990
AAXX 19004 60555 12970 00000 10065 20019 40199 52007 60001 333 0//00
AAXX 19004 60559 12960 02806 10083 20015 40183 50005 60001 333 0//00
AAXX 19004 60581 12960 40000 10090 20000 40189 53007 60001 82032 333 82360 83073
AAXX 19004 60607 12660 60411 10135 21028 40200 52010 60001 82230 333 0//00 82846 84362
AAXX 19004 60640 NIL
AAXX 19004 60369 12560 43208 10132 20003 40214 58001 60031 84800 333 0//12 83826 91837
AAXX 19004 60403 NIL
AAXX 19004 60425 12570 20000 10066 20040 40238 53004 60001 82200 333 0//00 82830 95990
AAXX 19004 60360 11557 71907 10074 20064 40184 50000 60021 76166 8497/ 333 0//51 82823 81933 85460 95990
AAXX 19004 60390 11570 42304 10087 20060 40228 56001 60021 72196 84900 333 0//51 83820 81930 83640 95990
AAXX 19004 60402 11556 82608 10080 20072 40212 50004 60101 76166 889// 333 0//55 83820 81926 85640 95990
AAXX 19004 60419 11560 72802 10027 20011 40204 51007 60021 72162 878// 333 0//11 83820 87630 95990
AAXX 19004 60475 12558 83006 10043 20019 39222 48481 51003 60001 888// 333 83820 87833 95990
AAXX 19004 60490 11557 21802 10050 20048 40240 52004 60001 72841 82200 333 82820 95990
AAXX 19004 60525 12960 03110 10100 20017 40181 50007 60001 333 0//00 95990
AAXX 19004 60531 12570 20000 10058 20039 40250 51005 60001 81202 333 0//00 81826 95990
AAXX 19004 60566 12960 03410 10084 21002 40222 50006 60001 333 0//00
AAXX 19004 60571 12660 60606 10110 20091 39284 48542 51007 60001 82280 333 0//00 82833 84360 95990
AAXX 19004 60580 12960 23604 10085 20012 40201 53011 60001 80001 333 0//00 82073
AAXX 19004 60590 12960 03106 10071 21005 40221 51009 60001 333 0//00
AAXX 19004 60611 12860 42604 10075 20020 40188 50005 60001 81032 333 0//00 81358 83073
AAXX 19004 60620 12960 50411 10128 21007 40191 58001 60001 80004 333 0//00 85075
AAXX 19004 60630 NIL
AAXX 19004 60656 12965 03410 10112 20021 40146 50008 60001 333 0//00
AAXX 19004 60670 12970 00000 10055 21033 39065 48508 50001 60001 333 0//00 95990
AAXX 19004 60680 12970 01204 10057 21097 38637 48509 58003 60001 333 95990
AAXX 19004 60395 11660 60000 10074 20070 40212 50000 60021 70262 86200 333 0//54 86840 95990
AAXX 19004 60444 12560 30000 10020 20006 39073 48484 51001 60001 83200 333 83830 95990
AAXX 19004 60452 12565 6//// 10111 20078 40231 53001 60001 86200 222// 2//// 333 86820 91837
AAXX 19004 60457 12560 10000 10055 20048 40237 51007 60001 81100 333 81820 95990
AAXX 19004 60370 NIL
AAXX 19001 60371 16/// /2402 10121 20044 60031
AAXX 19001 60372 16/// /3403 10092 20042 60031
AAXX 19001 60373 NIL
AAXX 19001 60374 NIL
AAXX 19001 60376 NIL
AAXX 19001 60379 NIL
AAXX 19001 60380 NIL
AAXX 19001 60381 NIL
AAXX 19001 60393 NIL
AAXX 19001 60394 NIL
AAXX 19001 60593 NIL
AAXX 19001 60595 NIL
AAXX 19001 60605 NIL
AAXX 19001 60613 NIL
AAXX 19001 60623 NIL
AAXX 19004 60624 36/// /0000 10139 21031
AAXX 19004 60639 NIL
AAXX 19004 60645 36/// /0000 10147 20022
AAXX 19004 64400 32456 10000 10237 20230 30095 40114 81100 333 0//00 58000 81810
AAXX 19003 64401 32260 11804 10226 20210 39745 40118 81700 333 0//00 58002 81705
AAXX 19004 64450 11458 80000 10242 20224 39751 40101 69901 76096 8287/ 333 0//11 58003 81810 88463
AAXX 19003 64458 32960 40000 10210 20199 39696 40080 80002 333 0//00 59001 84080
AAXX 19003 64459 NIL
AAXX 19001 14235 12460 8//// 11029 21043 38972 48420 53002 60001 885//
AAXX 19001 14246 NIL
AAXX 19001 14314 NIL
AAXX 19001 14323 NIL
AAXX 19001 14324 NIL
AAXX 19001 14328 NIL
AAXX 19001 14330 NIL
AAXX 19001 14438 NIL
AAXX 19001 14443 NIL
AAXX 19001 14447 NIL
AAXX 19001 14472 NIL
AAXX 19001 40716 12960 00000 11020 21047 39010 40307 52011 60001 333
AAXX 19001 40719 11530 80000 10088 20084 30302 40292 52011 60001 71022 8552/ 333 85620 88457
AAXX 19001 40721 12960 01202 10040 21002 39746 40303 51009 60001 333
AAXX 19001 40858 12960 00104 10158 20105 30198 40208 53001 60001 333
AAXX 19001 40872 12960 03107 10176 20056 30175 40180 57007 60001 222// 00/// 20301 333
AAXX 19001 40877 12960 00000 10108 20071 39622 40163 50004 60001 333
AAXX 19001 40898 12960 02703 10210 20178 30150 40159 56001 60001 222// 00242 10500 333
AAXX 19001 50844 32962 03401 11188 21211 40305 52007 333 00254
AAXX 19001 50854 32970 03402 11161 21197 40289 52004 333 00203
AAXX 19001 50968 32662 72001 11151 21173 40292 52008 86502 333 00101 92502
AAXX 19001 51379 11770 71802 11178 21203 40391 52008 69901 77070 86502 333 00156 79999 92510
AAXX 19001 51467 32980 73201 11129 21221 38259 54000 80002 333 05101
AAXX 19001 51495 32980 00204 11078 21144 40310 52009 333 05302
AAXX 19001 53480 32973 30000 11160 21182 40372 52003 80002 333 05305
AAXX 19001 53673 31957 72701 11078 21111 40332 52009 71000 80002 333 05405
AAXX 19001 53698 31956 73601 11026 21064 40328 52012 71000 80002 333 05302
AAXX 19001 53898 31913 03602 11033 21040 40320 52018 71000 333 05351
AAXX 19001 54308 32980 03601 11170 21237 40368 52004 333 05301
AAXX 19001 54602 31956 83401 11067 21120 40322 52003 71000 8802/ 333 05304
AAXX 19001 54725 31930 61801 11053 21067 40322 52002 71000 80002 333 05302
AAXX 19001 54751 32962 62203 10021 21040 40317 52007 83042 333 05202 31025
AAXX 19001 54916 31950 00901 11056 21065 40325 52004 71000 333 05352 31046
AAXX 19001 57014 32965 82701 10007 21019 40264 57006 8807/ 333 05401 31001
AAXX 19001 57025 31956 23401 11036 21058 40290 57002 71000 80002 333 05402 31047
AAXX 19001 57046 32964 02203 11028 21077 37948 57005 333 05303
AAXX 19001 58208 31959 01101 11029 21037 40311 57001 71000 333 05354 31034
AAXX 19001 08501 32/// /2202 10173 20127 30279 40315 54000 555 60005
AAXX 19001 08505 32470 70102 10170 20139 30281 40330 51006 878// 333 83812 86640 555 60007
AAXX 19001 08506 32/// /2703 10165 20135 30268 40340 52003 555 60005
AAXX 19001 08509 32660 52003 10165 20112 30270 40334 52007 86500 333 86645 555 60007
AAXX 19001 08511 NIL
AAXX 19001 08512 32580 20103 10124 20086 30246 40333 52003 81802 333 81823 555 60005
AAXX 19001 08515 32580 43602 10144 20134 30209 40331 52002 81801 333 81820 84080 910// 911// 555 60007 912//
AAXX 19001 08521 32470 23605 10197 20129 30188 40259 58003 82801 333 81818 555 60007
AAXX 19001 08522 32/// /0202 10169 20123 30194 40263 57006 555 60005
AAXX 19001 08524 32470 63307 10182 20136 30160 40257 57009 86800 333 83815 84630 91011 91112 555 60005
AAXX 19001 08530 NIL
AAXX 19001 08531 32/// /0804 10093 20055 30239 40279 52003 333 91106 555 60005
AAXX 19001 08532 NIL
AAXX 19001 08533 NIL
AAXX 19001 08534 32970 33603 10060 20030 30259 40277 50010 80001 333 83072 555 60007
AAXX 19001 08535 32/// /0303 10094 20038 30183 40277 52006 333 91005 91106 555 60005
AAXX 19001 08537 NIL
AAXX 19001 08540 31950 01602 10036 20027 30210 40282 50007 71011 555 60007
AAXX 19001 08541 32/// /0204 10067 20016 30153 40275 52014 555 60005
AAXX 19001 08544 31950 09901 10016 20011 30259 40281 50003 71000 555 60007
AAXX 19001 08545 31965 00903 10056 20011 30201 40287 52002 70200 333 91005 91105 555 60005
AAXX 19001 08548 32/// /0901 10052 20034 30076 40288 52008 555 60005
AAXX 19001 08551 32/// /1002 10034 20011 30229 40289 57002 555 60005
AAXX 19001 08554 32/// /0102 10090 20022 30255 40265 52017 333 91106 555 60005
AAXX 19001 08558 32/// /3603 10047 20008 39975 40280 52013 333 91105 555 60005
AAXX 19001 08560 32/// /0403 10038 21003 39515 40295 52008 333 91005 91105 555 60005
AAXX 19001 08561 32970 00702 10052 20025 30034 40275 50014 555 60007
AAXX 19001 08562 32/// /1002 10051 20021 39969 40273 52011 555 60005
AAXX 19001 08567 32/// /0000 10025 21011 39614 40302 52004 555 60005
AAXX 19001 08568 32/// /1404 11003 21023 38694 48559 52008 555 60005
AAXX 19001 08570 32/// /0203 10048 21005 39816 40289 52011 555 60005
AAXX 19001 08571 32/// /0705 10058 21016 39562 40281 52009 333 91007 91109 555 60005
AAXX 19001 08575 32/// /0000 11008 21033 39464 40312 52002 555 60005
AAXX 19001 08579 32/// /2403 10084 20028 30149 40277 52005 555 60005
AAXX 19001 80001 11570 80604 10272 20219 30125 40126 69901 70252 81276 333 10289 56100 58000 81820 85360
AAXX 19001 80002 NIL
AAXX 19001 80009 NIL
AAXX 19001 80022 31462 40404 10268 20236 30096 40098 70522 84101 333 10316 56901 59005 81815 83070
AAXX 19001 80028 NIL
AAXX 19001 80035 01465 50000 10250 20236 30122 40127 60011 70565 82536 333 10296 56099 58000 69907 82618 83360
AAXX 19001 80036 31568 30704 10258 20219 70511 81808 333 10324 56000 81820
AAXX 19001 80063 NIL
AAXX 19001 80084 31260 80000 10264 20239 70522 8587/ 333 10299 5619/ 82705 83815 86358
AAXX 19001 80091 NIL
AAXX 19001 80094 31457 43003 10204 20195 38796 74022 82870 333 10248 5679/ 59005 82810 83357
AAXX 19001 80097 NIL
AAXX 19001 80099 31566 30000 10262 20239 39903 40046 70500 83602 333 10317 563/9 58006 83723
AAXX 19001 80110 NIL
AAXX 19001 80112 01460 82202 10146 20139 37895 60141 70565 8447/ 333 10210 56009 58004 60137 84812 86358
AAXX 19001 80139 NIL
AAXX 19001 80144 NIL
AAXX 19001 80210 11460 80000 10212 20180 38649 60101 70592 81578 333 10258 56000 58001 82615 85358
AAXX 19001 80211 NIL
AAXX 19001 80214 31460 51102 10224 20213 39101 70522 82235 333 10277 56009 57862 59004 82817 83270
AAXX 19001 80222 31465 83503 10138 20115 37506 71722 8697/ 333 10200 5699/ 57911 58001 83915 83617 83357
AAXX 19001 80234 NIL
AAXX 19001 80252 NIL
AAXX 19001 80259 11560 73305 10232 20178 39042 69911 71552 85830 333 10285 5646/ 58007 85825 83358
AAXX 19001 80315 32665 40000 10272 20218 39565 40062 81155 333 10308 56889 59006 81835
AAXX 19001 80342 NIL
AAXX 19001 80370 NIL
AAXX 19001 80372 NIL
AAXX 19001 80398 32470 60000 10272 20257 39991 40086 81534 333 10320 56199 59007 81615 85070
AAXX 19001 80001 11570 80604 10272 20219 30125 40126 69901 70252 81276 333 10289 56100 58000 81820 85360
AAXX 19001 80002 NIL
AAXX 19001 80009 NIL
AAXX 19001 80022 31462 40404 10268 20236 30096 40098 70522 84101 333 10316 56901 59005 81815 83070
AAXX 19001 80028 NIL
AAXX 19001 80035 01465 50000 10250 20236 30122 40127 60011 70565 82536 333 10296 56099 58000 69907 82618 83360
AAXX 19001 80036 31568 30704 10258 20219 70511 81808 333 10324 56000 81820
AAXX 19001 80063 NIL
AAXX 19001 80084 31260 80000 10264 20239 70522 8587/ 333 10299 5619/ 82705 83815 86358
AAXX 19001 80091 NIL
AAXX 19001 80094 31457 43003 10204 20195 38796 74022 82870 333 10248 5679/ 59005 82810 83357
AAXX 19001 80097 NIL
AAXX 19001 80099 31566 30000 10262 20239 39903 40046 70500 83602 333 10317 563/9 58006 83723
AAXX 19001 80110 NIL
AAXX 19001 80112 01460 82202 10146 20139 37895 60141 70565 8447/ 333 10210 56009 58004 60137 84812 86358
AAXX 19001 80139 NIL
AAXX 19001 80144 NIL
AAXX 19001 80210 11460 80000 10212 20180 38649 60101 70592 81578 333 10258 56000 58001 82615 85358
AAXX 19001 80211 NIL
AAXX 19001 80214 31460 51102 10224 20213 39101 70522 82235 333 10277 56009 57862 59004 82817 83270
AAXX 19001 80222 31465 83503 10138 20115 37506 71722 8697/ 333 10200 5699/ 57911 58001 83915 83617 83357
AAXX 19001 80234 NIL
AAXX 19001 80252 NIL
AAXX 19001 80259 11560 73305 10232 20178 39042 69911 71552 85830 333 10285 5646/ 58007 85825 83358
AAXX 19001 80315 32665 40000 10272 20218 39565 40062 81155 333 10308 56889 59006 81835
AAXX 19001 80342 NIL
AAXX 19001 80370 NIL
AAXX 19001 80372 NIL
AAXX 19001 80398 32470 60000 10272 20257 39991 40086 81534 333 10320 56199 59007 81615 85070
AAXX 19004 61974 11465 70000 10275 20250 40088 60001 71592 879// 333 58005 81916 84816 85650
AAXX 19004 61986 11418 40000 10259 20250 40089 60071 71511 82903 333 0//23 58003 819// 81218
AAXX 19004 61988 12470 70916 10252 20219 40123 60001 86846 333 58009 83817 84650 86275
AAXX 19004 61989 NIL
AAXX 19004 61990 11462 60408 10256 20233 40091 69901 78011 86842 333 0//11 59010 85816
AAXX 19004 61995 12470 20707 10218 20209 39615 60001 81842 333 59007 81818
AAXX 19004 89022 42482 70605 11036 21056 39864 49901 52011 875// 333 11007 21058 87615
AAXX 19004 89062 42465 82201 10014 21017 39804 49844 57011 885// 333 10035 21006 88620
AAXX 19000 44210 32999 00000 11293 21305 38608 51006 333 21304 555 31318
AAXX 19000 44216 11599 63401 11300 21323 39123 40552 54000 69912 77772 83670 333 21331 47005 555 31331 93100
AAXX 19000 44217 12998 00000 11285 21295 37857 40528 53015 60012 333 21286 47002 555 31335 93102
AAXX 19000 44219 NIL
AAXX 19000 44221 329// 00000 11380 21403 38685 40633 52002 333 21402 47012 555 31438
AAXX 19000 44224 329// 00000 11389 21417 38096 40671 53001 333 21394 48013 555 31412
AAXX 19000 44229 32999 02703 11308 21338 37942 40548 57005 333 21340 48007 555 31367
AAXX 19000 44242 329// 00000 11356 21391 39427 40499 57002 333 21361 47013 555 31366
AAXX 19000 44243 329// 30000 11380 21422 39530 40515 56003 82034 333 21390 47006 555 31426
AAXX 19000 44254 32998 02702 11223 21255 39089 40376 53001 333 21246 47011 555 31294
AAXX 19000 44257 329// 00000 11272 21300 39024 40443 54000 333 21280 48010 555 31324
AAXX 19000 44263 32998 10000 11255 21294 38081 40510 52010 80004 333 21257 43015 555 31292
AAXX 19000 44266 329// 00000 11246 21270 37775 40483 53005 333 21250 47002 555 31294
AAXX 19000 44286 329// 01802 11250 21282 38692 40454 56006 333 21284 44009 555 31297
AAXX 19000 44291 319// 01801 11354 21391 38804 40569 56002 70400 333 21367 47010 555 31344
AAXX 19000 44325 329// 00902 11275 21293 38917 40486 53003 333 21279 47002 555 31290
AAXX 19000 44329 NIL
AAXX 19000 44338 32999 00000 11247 21278 38519 40467 57002 333 21252 555 31276
AAXX 19000 44348 32997 00000 11196 21208 38729 40386 56002 333 21220 46001 555 31270
AAXX 19000 44374 32999 02302 11180 21214 38281 40431 53006 333 21188 555 31221
AAXX 19000 44385 NIL
AAXX 19000 44386 32999 20000 11223 21255 39117 40416 54000 82040 333 21229 47001 55/// 555 31234
AAXX 19004 48373 31920 20000 10185 20168 30093 40157 52004 71000 80001 333 20184 59011
AAXX 19001 23909 42998 22004 11101 21127 30111 40374 54000 80001
AAXX 19001 28044 42997 00000 11097 21113 30230 40404 52002
AAXX 19001 28116 42999 31504 11115 21141 30167 40416 52001 80001
AAXX 19001 28240 42998 02403 11077 21107 30110 40453 52002
AAXX 19001 28522 42997 01805 11123 21158 30213 40493 52004
AAXX 19001 28621 42997 01804 11128 21175 30231 40484 52007
AAXX 19001 29023 11396 83003 11118 21138 30179 40281 57008 69922 77172 8762/ 333 21143 47029 55000 86709
AAXX 19001 29122 31599 62607 11120 21140 30237 40314 57006 73632 83530 333 21147 47022
AAXX 19001 29328 32998 82502 11144 21164 30206 40355 57016 8805/ 333 21207 47010 55042
AAXX 19001 29348 11596 82303 11157 21181 30177 40333 57016 69902 78582 8297/ 333 21259 47017
AAXX 19001 29405 32597 82504 11189 21208 30262 40423 57010 8333/ 333 21254 47022 55049
AAXX 19001 29418 11998 02404 11156 21175 30241 40413 57009 69922 70281 333 21229 47016 55057
AAXX 19001 29430 32998 82302 11176 21188 30167 40358 58026 84011 333 21253 47025 55056
AAXX 19001 29524 32998 82505 11162 21175 30236 40413 57012 8802/ 333 21254 47026
AAXX 19001 29605 32998 72403 11177 21189 30291 40446 57009 87070 333 21252 47019 55056
AAXX 19001 29631 32997 82203 11193 21212 30211 40415 57011 8802/ 333 21238 47017
AAXX 19001 29645 32998 81403 11246 21270 30222 40432 57005 86071 333 21258 47019 55051
AAXX 19001 29706 32998 02504 11212 21231 30303 40466 57014 333 21274 55040
AAXX 19001 29736 32997 20000 11294 21311 30177 40463 52002 80001 333 21294 47019
AAXX 19001 29937 32997 00000 11258 21290 30218 40468 52011 333 21258 47015
AAXX 19001 36034 32998 00000 11284 21308 30172 40487 52018 333 21284 48020
AAXX 19001 36096 31997 30000 11371 21401 39682 40601 52007 77600 80001 333 21371 47008 55057
AAXX 19001 34357 41598 80910 10000 21006 30106 40270 52021 78082 889// 333 91118
AAXX 19001 34363 41498 61409 11078 21087 30169 40331 55001 73632 82631 333 93607
AAXX 19001 34545 41497 81606 10020 20020 30144 40257 51016 76162 8802/
AAXX 19001 34579 42998 81104 11079 21096 30278 40325 52004 8005/
AAXX 19001 34838 41597 81502 10055 20033 30150 40247 52021 78082 889//
AAXX 19001 34927 41596 80000 10073 20057 30205 40243 53020 76186 8802/
AAXX 19001 34949 41920 51503 10007 20003 39707 40265 50014 71022 82034
AAXX 19001 37001 41596 82104 10104 20095 30193 40233 52020 71082 889//
AAXX 19001 37031 42997 81603 10048 20020 30054 40252 51020 8805/
AAXX 19001 37061 41/05 90801 10043 20040 30102 40271 53013 75154 333 96047
AAXX 19001 37085 42596 81207 10059 20037 30310 40338 52017 885// 333 91012 91113
AAXX 19001 37126 42999 61801 10021 21158 37984 48547 52013 82031
AAXX 19001 37171 41696 80606 10117 20071 30209 40227 52006 72582 8497/
AAXX 19001 37228 42997 60000 10000 21045 39412 40268 53010 80001
AAXX 19001 37470 41496 81605 10070 20058 30305 40283 51009 75152 886//
AAXX 19001 37663 41/91 82701 11043 21046 39077 48531 53006 74744 88///
AAXX 19001 23914 42999 01807 11115 21127 30130 40407 52003
AAXX 19001 23921 42698 61902 11087 21111 30247 40372 54000 83530
AAXX 19001 23955 31984 82506 11119 21139 30235 40300 54000 73632 80001 333 21137 47033 55000
AAXX 19001 23966 11496 82402 11125 21145 30108 40241 57009 60022 78582 889// 333 21154 47040 55000
AAXX 19001 28138 41596 32401 11124 21130 39848 40461 54000 71011 82501
AAXX 19001 28224 42998 31904 11100 21128 30222 40451 52003 80001 333 91110
AAXX 19001 28255 42994 02802 11094 21104 30303 40441 57004
AAXX 19001 28440 42997 02403 11070 21107 30104 40474 54000
AAXX 19001 28645 42997 01801 11162 21168 30192 40517 52003
AAXX 19001 28661 42996 02104 11228 21251 30410 40514 52002
AAXX 19001 28722 42997 01805 11130 21180 30357 40500 52009
AAXX 19001 28748 42961 02302 11196 21215 30276 40546 52007
AAXX 19001 28838 42996 00000 11255 21261 30032 40578 52006
AAXX 19001 29231 11496 82502 11122 21142 30207 40310 57013 69962 78582 8593/ 333 21177 47022 55039 85913
AAXX 19001 29313 11996 82403 11145 21160 30235 40366 57007 69902 77171 8802/ 333 21216 47023 55051
AAXX 19001 29612 32498 82404 11165 21178 30277 40442 57007 883// 333 21258 48018 55058 88917
AAXX 19001 29638 32598 61803 11214 21232 30247 40431 57013 86500 333 21270 47014
AAXX 19001 29838 32997 00000 11258 21276 30200 40464 52005 333 21258 47018 55041
AAXX 19001 29846 NIL
AAXX 19001 36061 32999 00000 11297 21322 30015 40486 52016 333 21297 47040 55046
AAXX 19001 28049 42997 02004 11084 21100 30238 40412 52004
AAXX 19001 28144 42998 22302 11085 21103 30259 40426 55000 80001
AAXX 19001 28319 42998 02102 11114 21148 30274 40451 52001
AAXX 19001 28321 42999 01502 11126 21140 30229 40449 52004 80002
AAXX 19001 28334 42997 02301 11096 21122 30152 40476 52003
AAXX 19001 28434 42/// /1501 11127 21148 30210 40489 50004
AAXX 19001 28552 42998 02202 11160 21177 30375 40499 52005
AAXX 19001 28666 41956 31904 11216 21237 30311 40508 50001 77170 83010
AAXX 19001 28825 42997 00000 11208 21220 30330 40523 52008
AAXX 19001 29111 11998 02605 11133 21156 30241 40334 57010 69902 73683 333 21149 47030 55000
AAXX 19001 29209 11496 82003 11157 21170 30248 40384 57008 69922 78581 86902 333 21165 47025
AAXX 19001 29551 11497 82105 11141 21176 30170 40365 56016 69902 78583 83302 333 21255 47009
AAXX 19001 29602 11997 82403 11173 21192 30290 40444 57010 69902 77172 8802/ 333 21267 47017
AAXX 19001 29636 32998 81501 11241 21253 30175 40419 57014 8805/ 333 21269 47015
AAXX 19001 29654 32999 60000 11212 21230 39758 40433 53002 81071 333 21257 48076
AAXX 19001 29712 32498 82504 11190 21209 30296 40453 57016 886// 333 21268 47015 88710
AAXX 19001 29724 32997 02303 11267 21292 30229 40460 58014 333 21291 47007
AAXX 19001 29726 32998 22302 11235 21260 30266 40454 57002 80001 333 21300 47020
AAXX 19001 29814 32999 02502 11256 21281 30323 40489 57005 333 21275 48013
AAXX 19001 29827 32997 02302 11256 21274 30298 40472 52002 333 21262 47012
AAXX 19001 29923 32999 00000 11293 21318 30164 40481 52004 333 21293 43030 55040
AAXX 19001 29939 32997 00000 11302 21325 30149 40475 52014 333 21308 47027
AAXX 19001 35026 42997 00201 11244 21269 39861 40587 52010
AAXX 19001 36021 32999 02803 11270 21295 30288 40493 52011 333 21271 47009
AAXX 19001 36022 32998 00101 11257 21275 30194 40490 52018 333 21257 48024
AAXX 19001 36038 11996 80000 11265 21290 39986 40486 52020 69922 77171 8802/ 333 21274 48047 55053
AAXX 19001 36058 32999 00000 11247 21265 39904 40490 52016 333 21247 47006 55032
AAXX 19001 36064 32599 11003 11113 21157 39809 40442 52019 81600 333 21160 47017 55065
AAXX 19001 36229 32999 00000 11340 21355 39219 40582 52020 333 21340 47018 55057
AAXX 19001 36259 32999 00000 11352 21317 38314 48603 52017 333 21352 47002 55053
AAXX 19001 10147 11370 82506 10022 20010 30061 40080 51012 69901 70281 886// 333 31/// 55/// 20090 30088 42514 55300 20000 30000 41139 87708
AAXX 19001 10763 02465 82603 10001 21016 39781 40175 51013 60001 875// 333 31/// 55/// 20159 30153 55300 20000 30000 69907 84714 87641
AAXX 19004 60595 36/// /0000 11451
AAXX 19004 71228 16/// /2910 11062 21094 60001 333 11001 21062 70004
AAXX 19004 71243 16/// /3405 10004 21021 39153 40234 53025 60001 333 10095 21014 70000
AAXX 19004 71269 16/// /2809 11023 21043 60001 333 10048 21023 70000
AAXX 19004 71270 16/// /1605 11006 21052 39962 40188 58010 60001 333 10005 21082 70000
AAXX 19004 71285 46/// /2803 11056 21121 6///1 333 11017 21056 7////
AAXX 19004 71299 17/// /1711 11040 21047 39765 40039 56043 69931 7//4/ 333 11040 21086 70003 555 10030
AAXX 19004 71903 46/// /1706 10042 20025 30124 40174 58031 6///1 333 10051 20031 7////
AAXX 19004 71107 46/// /2417 10057 20028 30143 40257 5/009 6///1 333 7////
AAXX 19004 71421 16/// ///// 11184 21224 39465 40220 58006 60001 333 11151 21272 70000
AAXX 19004 71432 16/// /1904 10011 21029 30112 40211 58008 60001 333 10027 21047 70000
AAXX 19004 71435 16/// /2503 11010 21026 39409 40001 55002 60001 333 11005 21072 70000
AAXX 19004 71832 16/// /1604 11035 21041 39691 40018 56035 60001 333 11035 21074 70000 555 10020
AAXX 19004 71667 16/// /3002 11018 21041 39754 49999 55018 60001 333 10012 21051 70000
AAXX 19004 71682 16/// /1504 11054 21091 39845 40081 58027 60001 333 11041 21303 70000
AAXX 19004 71423 16/// /3207 11123 21153 30227 40237 55000 60001 333 11080 21128 70000
AAXX 19004 71434 16/// /1303 11189 21207 30007 40075 55004 60001 333 11153 70000
AAXX 19004 71446 16/// /2910 11041 21069 39211 40199 51038 60001 333 10032 21045 70000
AAXX 19004 71300 16/// /0702 11055 21129 30101 40229 55013 60001 333 11043 21171 70000
AAXX 19004 71309 17/// /1204 11078 21091 30063 40075 58030 69951 7//4/ 333 11070 21085 70005 555 10020
AAXX 19004 71320 16/// /3321 11167 21181 39797 49799 53009 60001 333 11097 21170 70003 555 10010
AAXX 19004 71340 16/// /2709 11037 21081 60001 333 11002 21054 7////
AAXX 19004 71341 17/// /0000 11010 21017 60011 7//4/ 333 10076 21011 70018
AAXX 19004 71342 16/// /3210 11031 21062 60001 333 11005 21033 70012
AAXX 19004 71344 16/// /3112 11028 21051 60001 333 11014 21031 70000
AAXX 19004 71347 16/// /1601 11154 21175 60001 333 11050 21181 70012
AAXX 19004 71348 16/// /0000 11142 21152 60001 333 11048 21149 70044
AAXX 19004 71349 16/// ///// 11076 21126 60001 333 11032 21076 7////
AAXX 19004 71622 16/// ///// 11002 21038 39857 40201 56016 60001 333 10001 21047 70013
AAXX 19004 71155 16/// ///// 11103 21103 60001 333 11014 21107 70007 555 10010
AAXX 19004 71186 46/// /0608 11109 21157 6///1 333 11084 21168 7////
AAXX 19004 71190 46/// /3105 11074 21126 6///1 333 11068 21138 7////
AAXX 19004 71737 16/// /1704 11108 21157 39666 40214 58007 60001 333 11078 21241 70000
AAXX 19004 71743 16/// /2509 11204 21223 39819 40042 53011 60001 333 11160 21213 70000 555 10010
AAXX 19004 71746 16/// /2009 10010 21021 39963 40187 56015 60001 333 10014 21026 70004
AAXX 19004 71748 16/// /3418 11035 21059 39792 40081 53043 60001 333 11008 21068 70000
AAXX 19004 71752 16/// /1801 11005 21025 39991 40213 58008 60001 333 10023 21059 70000
AAXX 19004 71976 46/// /2433 11210 21233 39271 49909 56003 6///1 333 11210 21259 7////
AAXX 19004 71585 16/// /1502 11170 21188 39724 40203 51010 60001 333 11071 7////
AAXX 19004 71478 16/// /1904 10059 20026 30149 40287 53004 60001 333 10068 20050 70000
AAXX 19004 71479 16/// /3420 10055 20024 30160 40282 53010 60001 333 10061 20052 70000
AAXX 19004 71480 16/// /1206 11214 21240 39878 40003 58042 60001 333 11214 21296 70005
AAXX 19004 71503 46/// /0610 11200 21224 39761 40039 58033 6///1 333 11189 21226 7////
AAXX 19004 71506 46/// /0703 11049 21133 39035 49906 58034 6///1 333 11045 21159 7////
AAXX 19004 71511 16/// /2909 11051 21077 39526 40173 52030 60001 333 11009 21051 70000
AAXX 19004 71514 16/// /3113 11040 21063 39467 40177 51041 60001 333 11005 21072 70000
AAXX 19004 71539 16/// /3011 11035 21060 39485 40190 52039 60001 333 10017 21036 70000
AAXX 19004 71365 16/// /1406 11215 21236 39863 40085 58025 60001 333 11209 21273 70000
AAXX 19004 71374 46/// /3310 11112 21173 6///1 333 11100 21146 7////
AAXX 19004 71381 46/// /1408 11117 21163 6///1 333 11117 21233 70000
AAXX 19004 71387 16/// /1905 11142 21175 39806 40216 58010 60001 333 11115 21303 70000
AAXX 19004 71421 16/// ///// 11184 21224 39465 40220 58006 60001 333 11151 21272 70000
AAXX 19004 71432 16/// /1904 10011 21029 30112 40211 58008 60001 333 10027 21047 70000
AAXX 19004 71435 16/// /2503 11010 21026 39409 40001 55002 60001 333 11005 21072 70000
AAXX 19004 71832 16/// /1604 11035 21041 39691 40018 56035 60001 333 11035 21074 70000 555 10020
AAXX 19004 64700 32960 23604 10172 20028 39774 40111 80002 333 0//00 59013 82075
AAXX 19004 64750 32960 50000 10190 20119 39674 40079 80002 90015 333 0//00 59014 85075
AAXX 19001 13463 11560 83202 10062 20045 30071 40132 57009 69981 70262 8482/
AAXX 19001 13459 11665 71604 10014 20012 39361 40138 57005 60011 70262 84870 333 84896 87499
AAXX 19001 13461 12562 80503 10097 20024 30113 40121 56012 60061 8352/ 333 83630 92323 92437
AAXX 19001 13363 NIL
AAXX 19001 03980 17666 /2005 10050 20036 30120 40145 57017 69901 75285 86/// 333 86/32 86/50 87/60
AAXX 19004 91648 11498 70210 10267 20255 40071 60031 78062 8337/ 333 20257 5689/ 70088
BBXX C6SI6 19004 99317 11232 46/// /0310 10091 20017 40315 53001 7//// 8//// 22253 0//// 2////
BBXX DPCK 19003 99325 11277 41598 43624 10095 20006 40285 53005 70211 84564 22215 00200 20302 33499 40504 5//// 80055
BBXX DQVG 19003 99343 11447 41297 70416 10132 20105 40078 50000 76262 8576/ 22264 20404 301// 40604 5//// 80118
BBXX SMGW 19001 99353 11484 43/97 81008 10101 40166 58003 22224 00189 20405 40907
BBXX UCDN 19000 99581 11476 42999 00104 11050 40053 54053 70200 22213 06040 20201
BBXX UFLC 19000 99436 11355 42798 33108 11104 40247 54000 80084 22252 06012 20201
BBXX UICN 19000 99478 11414 41595 83110 11066 40155 54000 77277 8421/ 22233 20603
AAXX 19001 40700 11958 02302 11018 21033 30214 40306 52015 60001 71000 333
AAXX 19001 40723 11650 20000 11004 21021 39004 40306 51010 60001 71000 82500 333 82635
AAXX 19001 40726 11950 00000 11020 21034 87042 40313 55000 60001 71022 333
AAXX 19001 40727 12960 00000 11056 21077 38570 40313 51007 60001 333
AAXX 19001 40734 11457 40000 10066 20052 30314 40288 51011 60001 71010 84600 333 84715
AAXX 19001 40737 12960 01902 10040 20035 30286 40304 52017 60001 333
AAXX 19001 40741 11540 83005 10005 21006 30002 40354 52016 60001 71022 8572/ 333 85720 88460
AAXX 19001 40780 12960 01003 10014 21101 38740 40243 58006 60001 333
AAXX 19001 40791 12960 00000 10046 21054 39435 40276 53007 60001 333
AAXX 19001 40792 12970 20000 10000 21066 38777 40262 53002 60001 80001 333 82070
AAXX 19001 40794 12960 00000 10060 20036 30122 40221 54000 60001 92345 333
AAXX 19001 40812 12960 00000 10096 20015 39829 40205 54000 60001 92345 333
AAXX 19001 40829 12960 03004 10093 21047 39634 40208 56001 60001 333
AAXX 19001 40833 12960 00000 10068 20024 30192 40224 54000 60001 92345 333
AAXX 19001 40835 12960 00000 10060 20000 39377 40217 54000 60001 333
AAXX 19001 40845 NIL
AAXX 19001 40882 11956 00000 10198 20158 30141 40176 54000 60001 70500 333
AAXX 19001 40889 NIL
AAXX 19001 40890 NIL
AAXX 19001 40893 11958 03008 10200 20149 30158 40165 56005 60001 70700 222// 00/// 20402 333
AAXX 19001 40897 NIL
AAXX 19004 61968 16/// /2705 10274 20241 40090 60001 333 58000 90710 91110 555 60005
AAXX 19004 41241 36/// /1404 10193 20083 30146 40184 333 0E022 58019
AAXX 19004 41288 36/// /0000 10205 20172 30152 40176 333 0E020 58013
AAXX 19001 48840 32498 83201 10143 20132 30206 40212 52011 888// 333 00014 20140 3/012 59022 83894 88696
AAXX 19001 38598 426// 82716 11020 21051 40360 52020 885// 333 91020
AAXX 19001 48845 32497 82301 10159 20139 30208 40215 52010 888// 333 01016 20156 3/015 59014 85894 88697
AAXX 19001 38744 426// 72704 11014 21031 38003 48510 58007 87900
AAXX 19001 28216 42999 01604 11118 21135 30127 40431 52001
AAXX 19001 28428 42997 01903 11131 21152 30282 40484 52004
AAXX 19001 28451 42996 82502 11082 21093 30305 40475 54000 8807/
AAXX 19001 28537 42997 01802 11117 21144 30052 40504 52006
AAXX 19001 28541 42980 01301 11110 21116 39969 40498 52002
AAXX 19001 28615 42997 01802 11126 21171 30289 40459 52005
AAXX 19001 28655 42998 02303 11186 21205 30272 40519 53005
AAXX 19001 28756 42997 02004 11224 21246 30369 40537 57002
AAXX 19001 29557 32998 82604 11126 21169 30088 40371 57018 8805/ 333 21270 47011
AAXX 19001 29625 32998 62503 11198 21217 30234 40432 57014 86030 333 21282 47023
AAXX 19001 29813 32999 02001 11267 21292 30256 40459 57006 333 21268 47015
AAXX 19001 29822 32997 02701 11288 21312 30279 40466 57004 333 21290 47016 55058
AAXX 19001 29915 32998 02802 11270 21288 30308 40487 54000 333 21270 47013
AAXX 19001 36020 32998 00000 11288 21294 30258 40488 52018 333 21288 48017 55054
AAXX 19001 38933 416// 81803 10012 21008 39764 40295 58006 71022 885//
AAXX 19001 38838 426// 82304 10010 21007 39599 40290 52008 83902
AAXX 19001 38836 41/// 90000 10012 20004 39316 40279 54000 74542
BBXX 46248 19001 99461 71247 46/// ///// 1//// 90004 22200 00096 11508 20905 329// 41506 70038
BBXX 46244 19001 99409 71244 46/// ///// 1//// 90005 22200 00098 11506 21003 331// 41506 70031
AAXX 19004 62357 NIL
AAXX 19004 62403 32960 03601 10100 20018 40175 57001
AAXX 19004 62423 32960 00000 10072 20043 40187 57010
AAXX 19004 62458 32960 03104 10114 20045 40155 57005
AAXX 19004 62420 32960 00000 10086 20056 40186 57011
AAXX 19004 62432 32960 02003 10072 20043 40178 57003
AAXX 19004 62435 32960 01601 10072 20043 40179 57004
AAXX 19004 62455 32960 03504 10140 20063 40164 57011
AAXX 19004 62476 32960 03304 10190 20165 40147 57006
AAXX 19001 23226 41224 82006 11067 21091 30016 40238 52002 77372 887// 333 86704
AAXX 19001 23701 41984 41803 11080 21116 30118 40254 57011 70131 84040
AAXX 19001 28909 42999 01405 11154 21205 30361 40471 52001
AAXX 19004 62309 31958 02002 10121 20111 40186 57008 71000
AAXX 19004 62325 32960 00000 10154 20131 40198 57007
AAXX 19004 62332 32560 30604 10168 20142 40188 57009 83500
AAXX 19004 62387 31930 03401 10082 20082 40196 57007 71000
AAXX 19004 62459 32960 03605 10156 20117 40164 57006
AAXX 19004 62452 32960 02305 10044 21016 40223 54000
BBXX 51204 19001 99213 71581 46/// ///// 1//// 92352 22200 00247 11303 21002 331// 41302 70014
BBXX 46241 19001 99330 71173 46/// ///// 1//// 92341 22200 00145 11401 21001 327// 41401 70006
BBXX 42085 19001 99179 70665 46/// /0506 10261 40148 92350 333 91207
BBXX 42085 19001 99179 70665 46/// /0406 10262 40145 92340 333 91209
BBXX 46216 19001 99343 71198 46/// ///// 1//// 92357 22200 00145 10603 20603 326// 41401 70017
BBXX 46240 19001 99366 71219 46/// ///// 1//// 90012 22200 00123 11202 21001 335// 41202 70011
BBXX 46237 19001 99378 71226 46/// ///// 1//// 90010 22200 00112 11405 21002 326// 41404 70023
BBXX 46212 19001 99408 71243 46/// ///// 1//// 90012 22200 00098 11506 21002 330// 41506 70030
BBXX 46217 19001 99342 71194 46/// ///// 1//// 90012 22200 00145 10603 20603 325// 41701 70016
BBXX 46223 19001 99335 71178 46/// ///// 1//// 90000 22200 00154 11402 20801 328// 41402 70009
BBXX 46231 19001 99327 71174 46/// ///// 1//// 92354 22200 00148 11802 20801 328// 41802 70009
BBXX 46222 19001 99336 71183 46/// ///// 1//// 92356 22200 00154 11701 21001 328// 41701 70007
BBXX 46211 19001 99469 71242 46/// ///// 1//// 90006 22200 00084 11707 21005 328// 41705 70036
AAXX 19003 87480 32965 00505 10274 20166 30006 40036 53005 333 10354 20254
AAXX 19003 87532 31958 01408 10290 20106 39877 40040 53011 70400 333 10373 20250
AAXX 19003 87007 31560 82302 10065 20027 36752 47162 52019 71692 8572/ 333 10161 20065 56669 85730 83560
AAXX 19003 87148 32970 01405 10284 20137 39944 40049 53004 333 10372 20276
AAXX 19004 87344 31560 60708 10277 20130 39530 40052 53016 71321 83973 333 10373 20277 56000 57940 82825 82935
AAXX 19004 87349 31650 62702 10276 20161 39672 40048 53005 70622 82462 333 10372 20276 56676 82635
AAXX 19004 87371 32962 03605 10288 20144 30026 40048 53003 333 10344 20254
AAXX 19004 87374 32965 00000 10289 20130 39958 40043 53005 333 10348 20240
AAXX 19004 87395 32965 00000 10266 20064 30008 40052 52015 333 10338 20238
AAXX 19004 87418 32665 50000 10302 20133 39261 40016 53004 85900 333 10352 20285 56600 57921 83640 82950
AAXX 19004 87436 32670 21107 10318 20104 39258 40023 53008 82500 333 10370 20300 56600 82640
AAXX 19004 87448 31950 01105 10294 20121 39504 40038 53005 70400 333 10374 20278
AAXX 19004 87453 31960 01815 10280 20141 3//// 4//// 5//// 70400 333 10353 20256
AAXX 19004 87467 NIL
AAXX 19004 87497 32965 00000 10245 20123 30025 40051 51005 333 10321 20240
AAXX 19004 87506 32670 22014 10245 20030 38553 48479 53011 82300 333 10312 20220 56500 57911 81835 81945 95000
AAXX 19004 87509 32670 60907 10300 20100 39222 40039 53011 83260 333 10350 20232 56000 57800 83840 83360
AAXX 19004 87534 32960 00000 10271 20123 39882 40037 53007 333 10371 20263
AAXX 19004 87548 32962 00904 10264 20120 39936 40028 52001 333 10350 20218
AAXX 19004 87576 32960 10707 10226 20171 30034 40057 52012 80001 333 10313 20191 56000 81070
AAXX 19004 87582 32960 00910 10212 20180 30053 40060 53009 333 10269 20002
AAXX 19004 87585 32960 00501 10216 20179 30025 40054 53005 333 10298 20194
AAXX 19003 87016 32562 20000 10294 20224 39650 40045 53011 81205 333 10356 20236 81825
AAXX 19003 87896 31960 20218 10130 20097 39950 40046 57013 71000 81041 333 10194 2//// 56066 57354 81360
AAXX 19004 87078 32970 00902 10286 20150 39912 40058 52008 333 10376 20286
AAXX 19004 87244 32568 22305 10254 20147 39678 40059 5//// 82400 333 10386 20254 56500 82625
AAXX 19004 87393 31930 02704 10279 20121 39986 40048 53001 70400 333 10341 20241
AAXX 19004 87416 32765 10000 10307 20127 39304 40011 55036 81300 333 10365 20262 56200 57916 81950
AAXX 19004 87563 NIL
AAXX 19004 87640 31960 00000 10271 20148 39926 40035 53003 70400 333 10347 20186
AAXX 19004 87688 32965 10910 10204 20154 39930 40065 54000 81030 333 10301 20161 56020 81360
AAXX 19004 87774 32982 02705 10220 21022 39107 48471 5//// 333 10250 20120
AAXX 19004 87852 32584 22525 10142 20015 39561 40060 56003 81140 333 10202 20126 56660 57369 81830
AAXX 19004 87022 32960 00000 10250 20198 39549 40046 53005 333 10346 20232
AAXX 19004 87046 32965 30000 10250 20159 39070 48468 52008 83070 333 10335 20229 56090 83360
AAXX 19004 87047 32570 33603 10246 20134 38766 48487 53011 83500 333 10300 20182 56100 83630
AAXX 19004 87097 32560 22304 10244 20165 39776 40083 52009 82400 333 10312 20224 56900 82630
AAXX 19004 87121 32965 10508 10302 20133 39554 40048 53011 80006 333 10365 20254 56006 81270
AAXX 19004 87129 32965 03604 10304 20136 39826 40050 53007 333 10385 20276
AAXX 19004 87155 32965 00204 10228 20159 30000 40060 53003 333 10350 20228
AAXX 19004 87162 32970 01103 10256 20149 39998 40066 52010 333 10366 20256
AAXX 19004 87166 31957 00203 10275 20135 39988 40059 53001 70400 333 10357 20261
AAXX 19004 87178 NIL
AAXX 19004 87217 32970 00906 10370 20093 39546 40009 52006 333 10405 20282
AAXX 19004 87222 32970 13604 10311 20067 39522 40021 53011 81070 333 10385 20273 56070 81359
AAXX 19004 87257 32965 00502 10282 20144 39937 40037 58004 333 10380 20218
AAXX 19004 87270 32965 00902 10266 20169 39993 40054 52009 333 10362 20256
AAXX 19004 87289 32962 30503 10260 20140 39974 40055 52003 83070 333 10320 20248 56030 83360
AAXX 19004 87311 31665 62707 10329 20082 39374 40017 52024 71322 82970 333 10395 20295 56000 57994 82945 85360 90005
AAXX 19004 87320 32670 20508 10323 20126 39521 40027 53007 82102 333 10385 20262 56306 82840 82070
AAXX 19004 87328 31680 30505 10290 20083 39406 40031 55027 71300 82903 333 10358 20254 56506 57910 81640 81950 95090
AAXX 19004 87593 32960 00904 10189 20166 30033 40059 51005 333 10266 20181
AAXX 19004 87623 31958 01407 10287 20086 39836 40051 52015 70400 333 10364 20269 96104 96120
AAXX 19004 87641 32970 00910 10259 20139 39876 40045 52009 333 10326 20174
AAXX 19004 87645 31965 00908 10220 20138 39853 40055 52008 70400 333 10296 20166
AAXX 19004 87648 32960 00000 10199 20150 30049 40059 54000 333 10252 20178
AAXX 19004 87692 31359 81406 10172 20155 30053 40078 52007 71011 886// 333 10205 20166 56299 84709 85615
AAXX 19004 87715 32965 02308 10288 21053 39768 40073 53011 333 10317 20229
AAXX 19004 87750 32462 31816 10180 20142 39994 40091 52039 83500 333 10336 20180 56400 83618
AAXX 19004 87765 32960 03212 10160 20051 39182 48486 52007 333 10210 20132 96120
AAXX 19004 87784 32980 01406 10210 20126 30069 40092 57007 333 20251 20202
AAXX 19004 87791 32980 00907 10184 20080 30086 40095 53003 333 10248 20183
AAXX 19004 87800 32680 20000 10185 20069 39725 40116 53005 82100 333 10245 20173 56600 82848
AAXX 19004 87803 NIL
AAXX 19004 87828 32980 00909 10184 20048 30030 40080 53001 333 10286 20184
AAXX 19004 87860 32980 22715 10240 21021 39994 40049 55000 81076 333 10272 20181 56066 81360
AAXX 19004 87904 32680 52709 10156 20010 39746 49985 57009 84440 333 10203 20120 56660 57398 84640
AAXX 19004 87909 32980 22720 10215 21023 39938 40010 56007 82030 333 10262 20164 56000 82360
AAXX 19004 87925 32580 73414 10184 20037 39934 49956 57015 82576 333 10220 20124 56000 82630 84360
AAXX 19004 87938 32680 42708 10157 21007 39862 49929 57011 84800 333 10171 20112 56600 84645
AAXX 19003 NIL
AAXX 19001 56146 32980 03601 11102 21143 36732 52003 333 05300
AAXX 19001 56444 32980 02702 11079 21143 36803 57003 333 05300
AAXX 19001 56492 11730 80401 10070 20048 39854 40271 52003 69901 71060 885// 333 05401 79999
AAXX 19001 56571 32970 00000 10020 20001 38405 52008 333 05553 30007
AAXX 19001 57799 32962 23401 10035 21022 30208 40301 52009 82030 333 05200 30020
AAXX 19001 57866 32961 80703 10070 21009 30076 40289 52005 8807/ 333 05401
AAXX 19001 57957 32960 10000 10054 20000 30077 40282 52009 81040 333 05353 30025
AAXX 19001 57993 32960 00000 10033 20013 30119 40292 52011 333 05252 31002
AAXX 19001 58027 31950 00201 11038 21067 30262 40317 52002 71000 333 05353 31030
AAXX 19001 58141 31912 00401 11023 21042 30312 40332 52010 71000 333 05251 31009
AAXX 19001 58265 31912 02901 10004 21007 30318 40326 52002 71000 333 05253 31024
AAXX 19001 58472 32977 03606 10072 20023 30217 40314 52007 333 05101 30015
AAXX 19001 58477 32980 02701 10078 20012 30265 40311 52008 333 05102 30013
AAXX 19001 58527 32960 00901 10014 21020 30224 40304 52007 333 05253 31020
AAXX 19001 58633 31930 80702 10026 20005 30206 40311 52007 71000 8807/ 333 05203 31008
AAXX 19001 58666 32970 03611 10087 20053 30193 40298 52009 333 05102
AAXX 19001 58725 31958 00000 10020 20007 30023 40295 52015 71000 333 05202 30009
AAXX 19001 58921 31440 71401 10046 20042 30030 40286 52015 71000 876// 333 05201 30028
AAXX 19001 59082 31956 01602 10033 20020 30127 40279 52013 71000 333 05154 30031
AAXX 19001 59211 31940 80000 10116 20090 30033 40245 52009 71000 8807/ 333 05400
AAXX 19001 59265 31950 00202 10067 20040 30121 40263 52017 71000 333 05154
AAXX 19001 59293 32962 03602 10065 20018 30177 40265 52019 333 05153
AAXX 19001 59501 32964 20402 10129 20058 30218 40240 52016 80002 333 05201
AAXX 19001 59663 31958 20407 10118 20025 30127 40237 52015 70500 80002 333 05200
AAXX 19001 59838 32962 70707 10170 20113 30193 40203 52014 80002 333 05151
AAXX 19001 59948 32473 70707 10154 20104 39709 40202 52013 82102 333 05200
AAXX 19001 59981 32576 80404 10236 20180 30156 40163 52015 888// 333 05100 79999
AAXX 19004 84202 32570 71402 10298 20188 30133 81650 333 10312 59001 555 30052
AAXX 19004 84270 11550 80000 10142 20125 60061 74125 887// 333 10236 555 10058 30089
AAXX 19004 84143 11556 80000 10147 20120 37397 60011 75025 8341/ 333 10194 58010 555 10012 30084
AAXX 19004 84008 32565 61408 10234 20208 30108 40118 82530 00195 333 10279 58000 555 30085
AAXX 19004 84036 11564 81404 10147 20082 69951 71622 8671/ 333 10196 555 10005 30064
AAXX 19004 84135 32975 32308 10258 20181 30050 83030 333 10340 58002 555 30062
AAXX 19004 84056 11250 82302 10116 20109 60011 72054 886// 333 10192 555 10010 30096
AAXX 19004 84140 32530 61402 10288 20199 30010 40095 83540 333 10322 59001 555 30059
AAXX 19004 84105 11456 80902 10122 20108 60051 75155 8672/ 333 10194 555 10047 30091
AAXX 19004 84179 32560 20000 10208 20196 39041 82400 333 10278 58004 555 30093
AAXX 19004 84076 11450 80000 10132 20123 69951 75154 887// 333 10197 555 10005 30094
AAXX 19004 84160 31460 80000 10137 20108 37256 74044 8683/ 333 10190 58001 555 30083
AAXX 19004 84088 11120 80000 10106 20106 37062 69921 72999 887// 333 10172 58001 555 10002 30100
AAXX 19004 84050 31450 83206 10254 20195 71544 887// 333 10302 555 30070
AAXX 19004 84072 11256 80000 10124 20115 37298 60091 74058 886// 333 10207 58002 555 10090 30094
AAXX 19004 84132 11560 43602 10232 20227 39865 60141 72164 84200 333 10278 58003 555 10142 30097
AAXX 19004 84045 11/00 90000 10091 20090 69911 74754 89/// 333 10145 555 10001 30099
AAXX 19004 84105 32570 70000 10269 20217 39986 84410 333 10320 59001 555 30073
AAXX 19004 84010 32570 61410 10229 20207 82430 333 10285
AAXX 19004 84071 11240 83501 10122 20109 37280 47129 60041 74064 8652/ 333 10180 58003 555 10035
AAXX 19004 84117 31960 22112 10255 20215 30089 40112 70544 82030 333 10323 58006
AAXX 19004 84239 11260 72206 10142 20124 37537 47138 60031 74044 85530 333 10212 58002 555 10031
AAXX 19004 84252 31665 82603 10257 20212 30100 40108 70544 8552/ 333 10303 59003
AAXX 19001 48803 31440 80000 10144 20135 30114 40231 52011 71022 888// 333 00015 20140 3/014 59012 85894 8869 6
AAXX 19001 15525 42965 22001 11014 21036 39921 40196 51005 60001 333 10004 21014 555 585// 92601
AAXX 19004 43400 NIL
AAXX 19004 43404 NIL
AAXX 19004 43410 NIL
AAXX 19004 43413 NIL
AAXX 19004 43415 21470 73601 10238 20232 39989 40097 7//// 84170 333 59005 60058 84818 84460
AAXX 19004 43418 21470 73210 10243 20239 3//// 4//// 71382 8497/ 333 5//// 60007 84818 81920 87460
AAXX 19004 43421 21460 70000 10236 20230 39992 40094 70282 87100 333 58000 69907 87818
AAXX 19004 43422 22469 802// 10238 20232 39960 40090 8312/ 333 58/// 60272 83818 88458
AAXX 19004 43424 21868 60203 10238 20235 30080 40082 70282 8607/ 333 59005 69967 84458
AAXX 19004 43436 21470 61102 10253 20244 30082 40084 70282 82132 333 59004 60037 82818 84360 85080
AAXX 19004 43441 22970 60000 10238 20220 39949 40078 86030 333 59003 60032 86360
AAXX 19004 43444 21460 70000 10216 20210 39558 40090 74082 84121 333 59002 69907 84816
AAXX 19004 43467 22458 70000 10245 20235 30081 40086 8317/ 333 58011 60007 83816 86458
AAXX 19004 43473 21370 80903 10148 20138 38115 48481 70362 8522/ 333 59001 69917 82708 85810 88456
AAXX 19004 43475 NIL
AAXX 19004 43476 NIL
AAXX 19004 43479 21430 80000 10200 20197 39247 710// 8664/ 333 59004 60062 85714 87350
AAXX 19004 43486 21460 80000 10240 20237 39993 40087 70182 83220 333 58007 69937 83810 86450
AAXX 19004 43495 22460 5//// 10250 20220 30068 40084 82131 333 58004 60007 82818 83080
AAXX 19004 43497 22472 50505 10244 20232 30058 40075 83101 333 58006 60007 83818 84080
AAXX 19001 50353 32970 00000 11299 21333 30012 40262 52004 333 00351 92507
AAXX 19001 50557 32965 20000 11266 21294 39956 40293 52008 80002 333 00352 92504
AAXX 19001 50756 31958 01601 11215 21233 39966 40293 52011 71000 333 00303 92510
AAXX 19001 50949 32965 02501 11163 21200 30117 40302 52012 333 00201
AAXX 19001 50963 31758 23601 11247 21276 30128 40279 52009 71000 82500 333 00257 92501
AAXX 19001 50978 32975 22702 11161 21197 39892 40268 52005 80002 333 00200
AAXX 19001 51087 32980 02001 11212 21239 39340 40394 52013 333 00254 31016 92519
AAXX 19001 51156 32980 03202 11163 21199 38775 40396 52013 333 00252 70001 92504
AAXX 19001 51644 32960 70000 11063 21092 38975 40294 52002 83032 333 05251 70001 92501
AAXX 19001 51656 32965 50702 11054 21107 39151 40294 54000 80002 333 05102 79999
AAXX 19001 51886 32980 70201 11142 21226 37093 52010 82042 333 05204
AAXX 19001 52602 32980 03203 11165 21262 37233 57006 333 05405
AAXX 19001 52713 32980 01601 11164 21251 36868 57005 333 05301
AAXX 19001 52754 32980 03401 11167 21302 36767 54000 333 05101
AAXX 19001 52818 32980 02702 11116 21231 37195 54000 333 05400
AAXX 19001 52836 32980 21804 11086 21287 36850 57007 80002 333 05304
AAXX 19001 52955 32980 02501 11183 21266 36950 52001 333 05203
AAXX 19001 53068 32980 00000 11270 21304 39156 40440 57001 333 05352
AAXX 19001 53276 32980 02502 11239 21277 38935 40431 52004 333 05352
AAXX 19001 54135 32975 02701 11158 21212 30092 40332 52013 333 00152
AAXX 19001 54236 32962 00000 11141 21194 30216 40330 52010 333 00053
AAXX 19001 54539 32970 23601 11057 21160 30308 40323 52007 80002 333 05201
AAXX 19001 54662 32962 50000 11024 21068 30203 40322 52008 80002 333 05202
AAXX 19001 54753 32960 02001 11018 21075 30314 40321 52003 333 05200 31042
AAXX 19001 54857 31940 00000 10000 21084 30231 40328 52007 70500 333 05202
AAXX 19001 57067 31950 01801 11045 21063 39598 40307 57001 71000 333 05351 31042
AAXX 19001 57178 31958 10201 11008 21041 30137 40303 57006 71000 80001 333 05451 31007
AAXX 19001 57245 31956 72901 10025 20009 39928 40291 52001 71000 8703/ 333 05403 30007
AAXX 19001 57297 31956 00000 11018 21043 30159 40306 57002 71000 333 05353 31037
BBXX V7QN8 19003 99311 11226 41296 20010 10070 2003/ 40310 55/// 70122 82229 22200 04080 20601 300// 40601 5//// 6//// 80050 ICE /////
AAXX 19004 43466 21470 70504 10246 20231 30069 40081 70352 8417/ 333 58002 69907 84818 87460
AAXX 19001 91943 36/// /1008 10294 20211 30114 40116 56019 333 58000
AAXX 19001 91945 06/// /0702 10280 20218 30132 40137 56013 60024 333 20228 58011 60027
AAXX 19001 40650 42960 03102 10056 20015 40260 57005
AAXX 19001 40608 42960 00000 10036 20015 40286 56005
AAXX 19001 40621 42960 00401 10056 20031 40302 54000
AAXX 19001 40633 42960 03103 10075 20012 4027654001
AAXX 19001 40645 42960 03203 10055 20003 40275 57007
AAXX 19001 40657 42960 00000 10066 20032 40254 53005
AAXX 19001 40665 42960 03002 10082 20050 40247 57017
AAXX 19001 40670 42960 03503 10080 20059 40252 58002
AAXX 19001 40676 42960 02803 10094 20025 40248 50001
AAXX 19001 40689 42960 02705 10084 20033 40243 56001
AAXX 19001 89062 42465 82201 10014 21017 39804 49844 57011 885// 333 10035 21006 88620
BBXX 46221 19001 99339 71186 46/// ///// 1//// 92345 22200 00153 11401 21001 325// 41401 70006
AAXX 19004 40582 31958 00000 10089 20007 40238 58002 70500 333 00007 55300 00000 10173 20000 30000 41061 51234 60000 55407 40000 90467 91003 91109 91207 91303
AAXX 19004 41150 NIL
AAXX 19004 41168 NIL
AAXX 19004 41170 31956 03009 10168 20134 30197 40210 70500 333 58030
AAXX 19004 41176 NIL
AAXX 19004 41184 NIL
AAXX 19004 41194 NIL
AAXX 19004 41196 NIL
AAXX 19004 41198 NIL
AAXX 19004 41210 NIL
AAXX 19004 41216 NIL
AAXX 19004 41217 NIL
AAXX 19004 41218 NIL
AAXX 19004 41226 NIL
AAXX 19004 41244 36/// /3505 10150 20126 39843 48235 333 0E016 58020
AAXX 19004 41246 32960 02503 10195 20136 30174 40179 333 58020
AAXX 19004 41254 NIL
AAXX 19004 41256 32960 02105 10205 20165 30170 40180 333 58019
AAXX 19004 41258 NIL
AAXX 19004 41268 NIL
AAXX 19004 41312 36/// /0107 10231 20097 30124 40163 333 0E/// 58020
AAXX 19004 41314 32960 0212 1139 20042 39682 40201 333 58021
AAXX 19004 41316 3296 00410 10209 20057 30137 4014 333 58018
AAXX 19004 41404 12960 00000 10068 21052 37893 48565 60002 333 58021
AAXX 19004 41407 NIL
AAXX 19004 41431 12960 00000 10222 20205 30120 40133 60002 333 58016
AAXX 19004 41466 NIL
AAXX 19004 41477 NIL
AAXX 19004 41480 NIL
AAXX 19001 29998 32999 01701 11370 21380 38713 48540 57004 333 21374 55046
AAXX 19001 30385 32999 50000 11306 21318 39686 40282 57009 80006 333 21331 55023
AAXX 19001 30469 329// 30000 11354 21371 39489 40356 58002 82042 333 21354 47015 55047
AAXX 19001 30636 115// 80802 11169 21169 39672 40319 57001 69992 78688 8593/ 333 21170 47024 55028
AAXX 19001 30650 32984 20000 11241 21260 39139 40358 52001 80001 333 21241 47007
AAXX 19001 30664 32999 20000 11322 21334 39249 40364 57002 82040 333 21328 55064
AAXX 19001 30781 32999 20000 11333 21356 39803 40337 53001 80001 333 21333
AAXX 19001 30777 32998 02403 11262 21281 39611 40330 52004 333 21274 47008 55058
AAXX 19001 30844 32999 02701 11340 21356 39340 40460 54000 333 21341 47009
AAXX 19001 30925 329// 21502 11243 21268 39343 40412 57007 80001 333 21251 4700/ 55072
AAXX 19001 31371 32999 00000 11306 21336 39966 40263 53005 333 21307 55072
AAXX 19001 31388 32999 00000 11360 21378 39959 40260 53001 333 21362 47005 55059
AAXX 19001 31478 NIL
AAXX 19001 31532 32999 00000 11360 21384 39897 40291 52005 333 21376 47016 55075
AAXX 19001 31594 32997 00000 11326 21342 30058 40252 51006 333 21328 47018
AAXX 19001 31655 32998 00000 11247 21259 30167 40219 53010 333 21252 47019
AAXX 19001 31754 NIL
AAXX 19004 83552 32995 0//// 10311 20199 39938 40110 333 10385 29044 55120 58006
AAXX 19004 83565 21/94 50502 10262 20212 39615 40074 70255 85/// 333 10326 29/// 55070 59013 69981
AAXX 19004 83623 32995 0//// 1//// 2//// 39514 4//// 53026 333 1//// 29/// 55078
AAXX 19004 83630 21295 80000 10188 20178 3//// 4//// 52037 75196 887// 333 10275 29080 55020 60281
AAXX 19004 83702 32097 01402 10242 20137 39345 40091 53007 333 10318 29047 55///
AAXX 19004 83704 32997 01402 10273 20161 39650 40048 53002 333 10334 29095 55102
AAXX 19004 83726 21596 80000 10208 20172 39158 40114 53013 70255 887// 333 10282 29074 55046 69931
BBXX 62123 19004 99563 10022 41/98 /2920 10055 20001 40133 52021 7//// 8//// 22200 20604 330// 40606 5////
BBXX DGUG2 19004 99394 70132 41699 11012 10150 20053 40295 51014 70200 8/200 22254 04170 20402 30000 80100
BBXX 62170 19004 99514 10020 46/98 /3123 10045 20009 40176 52017 22200 00107 10602 70012 333 90710 91128
BBXX 64045 19004 99591 70117 46/// /1720 10075 20057 40054 58039 22200 00101 10706 70029 333 90710 91128
BBXX 62105 19004 99554 70121 46/// /2222 10099 20094 40094 57042 22200 00106 10706 70028 333 90710 91129
BBXX 62081 19004 99510 70134 46/// ///// 10111 20070 40194 58029 22200 00120 10606 70028
BBXX 62442 19004 99490 70164 46/// /2023 1//// 2//// 40210 58024 22200 00127 333 90710 91131
BBXX 62029 19004 99487 70125 46/// /2418 10113 20061 40248 57015 22200 00130 10705 70024
BBXX 62163 19004 99475 70084 46/// /3009 10104 20058 40266 56006 22200 00128 10704 70022
BBXX 62001 19004 99452 70050 46/// /2808 10112 20059 40268 56002 22200 00143 10705 70024 333 90710 91128
BBXX 64046 19004 99605 70049 46/// /3207 10040 21045 40106 57014 22200 00076 10806 70031
BBXX 62301 19004 99524 70047 46/// /3014 10079 20044 40186 56010 22200 00091 10403 70015
BBXX 62303 19004 99516 70051 46/// /3112 10089 20043 40198 58010 22200 00111 10503 70014
BBXX 62305 19004 99504 10000 46/98 /3417 10052 21023 40209 53011 22200 00117 10602 70009
BBXX 62304 19004 99511 10018 46/98 /3117 10041 21004 40183 53009 22200 00112 10602 70011
BBXX 62027 19004 99491 70022 46/// /3616 1//// 2//// 40210 52001 22200 00114 10603 329// 70017
BBXX AMOUK13 19004 99519 10013 46/// ///// 10011 21023 30169 40177 52011 92350
BBXX AMOUK10 19004 99508 10003 46/// ///// 1//// 2//// 30196 40193 52010 92350
BBXX AMOUK14 19004 99535 70031 46/// ///// 10053 20037 30134 40166 57007 92350
BBXX AMOUK27 19004 99582 70064 46/// ///// 11177 2//// 30120 40124 57006 92350
BBXX AMOUK11 19004 99533 70051 46/// ///// 10075 20048 30141 40188 57011 92350
BBXX AMOUK08 19004 99501 70061 46/// ///// 10097 20048 30220 40225 57005 92350
BBXX AMOUK16 19004 99521 70051 46/// ///// 10077 20042 30193 40197 57008 92350
BBXX AMOUK05 19004 99532 10008 46/// ///// 10030 21022 30119 40156 54002 92350
BBXX AMOUK03 19004 99530 10012 46/// ///// 10040 20000 30131 40162 54002 92350
BBXX 63055 19004 99606 10016 47796 /3015 10033 21005 40063 51003 704// 22200 10707 70034
BBXX 62112 19004 99584 70002 47698 /3416 10046 21007 40103 58002 700// 22200
BBXX PJAI 19004 99581 70014 47699 /3603 10051 21011 40111 50001 700// 22200
BBXX 62111 19004 99580 70003 46/// /0113 10050 20001 40108 56002 22200 10705 70026
BBXX 62144 19004 99534 10017 47998 /3014 10046 21009 40156 52009 700// 22200 10505 70024
BBXX 63056 19004 99597 10016 47598 /3118 10040 21005 40061 50000 700// 22200 10706 70031
BBXX 63110 19004 99595 10015 47598 /3117 10054 20000 40075 50000 700// 22200 10807 70035
BBXX 63057 19004 99592 10015 46/// ///// 22200
BBXX 63108 19004 99608 10017 47698 /3318 10045 21010 40053 51002 700// 22200 10808 70038
BBXX 63106 19004 99610 10017 46/// /3121 10035 40055 51003 22200
BBXX 63105 19004 99610 10017 47598 ///// 10047 21017 40054 51003 700// 22200
BBXX 63113 19004 99610 10017 46/// /3319 10037 21012 40058 57001 22200 10808 70040
BBXX 63112 19004 99611 10010 47498 /3317 10035 21031 40060 51003 700// 22200 10807 70037
BBXX 63107 19004 99611 10017 46/// /3120 10038 40053 51003 22200
BBXX 63101 19004 99612 10009 46/// /3518 10046 21011 40061 50001 22200
BBXX 63103 19004 99612 10011 46/// /3321 10035 21031 40064 51002 22200 10807 70036
BBXX 63104 19004 99612 10016 47598 /3119 10044 21010 40053 51002 700// 22200
BBXX 63117 19004 99613 10011 47598 /3219 10042 21012 40059 51001 700// 22200
BBXX 63115 19004 99616 10013 47598 /3015 10032 21015 40058 50000 700// 22200 10708 70040
BBXX MWYG6 19004 99603 70040 47998 /3007 10044 700// 22200
BBXX 62145 19004 99531 10028 47598 /3019 10055 21006 40156 53013 700// 22200 10605 70027
BBXX 64041 19004 99607 70026 47598 /3012 10027 21028 40096 58007 700// 22200 10807 70035
BBXX 62142 19004 99530 10021 47498 /3218 10050 21000 40150 52008 700// 22200 10505 70024
BBXX 62122 19004 99573 10016 47599 /3011 10052 21003 40100 55000 700// 22200 10706 70031
BBXX 62140 19004 99573 10013 46/// /34// 10050 21002 40101 54000 22200
BBXX 62146 19004 99572 10021 47/99 /3217 10049 21010 40099 55000 700// 22200 10807 70033
BBXX 62164 19004 99572 10008 47598 /2709 10067 20014 40107 57002 700// 22200 00095 10806 70029
BBXX PJGO 19004 99571 10022 47599 /3017 10053 20003 40100 52003 700// 22200
BBXX 62133 19004 99571 10009 46/// /3010 10065 21019 40107 56002 22200 1//05 70027
BBXX 62119 19004 99570 10019 46/// ///// 22200
BBXX 62152 19004 99570 10018 46/// /3314 10051 21001 40106 58001 22200 10606 70031
BBXX 62154 19004 99564 10022 46/// /3015 10049 21005 40103 50003 22200
BBXX 62120 19004 99564 10021 47998 /3017 10049 21010 40106 58004 700// 22200
BBXX 62132 19004 99564 10020 46/// /3215 10053 21003 40114 57009 22200
BBXX 62123 19004 99563 10022 47599 /2918 10055 20002 40106 50003 700// 22200
BBXX 62121 19004 99535 10027 46/// ///// 22200
BBXX 62165 19004 99540 10009 47999 /2812 10047 21025 40157 58001 700// 22200 10705 70027
BBXX 62127 19004 99540 10007 47999 ///// 10035 21029 40155 50003 700// 22200 10705 70025
BBXX 62131 19004 99539 10012 46/// /30// 10048 21017 40152 51005 22200
BBXX 62149 19004 99537 10011 47999 /2913 10043 21014 40157 51007 700// 22200 10605 70024
BBXX 62148 19004 99536 10015 46/// /2916 10046 21015 40158 51008 22200
BBXX 62150 19004 99536 10007 47998 /2814 10033 21025 40168 50001 700// 22200 10704 70022
BBXX 62128 19004 99587 10014 47698 /3119 10042 21039 40095 50001 700// 22200 10706 70031
BBXX 62129 19004 99584 10003 46/// ///// 10051 21018 40094 58004 22200
BBXX 62113 19004 99584 10002 47698 /3415 10054 21033 40096 58004 700// 22200
BBXX ZQSD5 19004 99583 10007 46/// /3219 10054 21030 40103 58002 22200 10907 70036
BBXX 62114 19004 99583 10000 46/// /3313 10048 21020 40104 58001 22200
BBXX 62134 19004 99580 10014 47698 /3212 10051 20001 40096 57002 700// 22200 10807 70037
BBXX 62102 19004 99579 10018 46/// /3217 10056 21003 40094 51002 22200 10706 70029
BBXX 62153 19004 99573 10020 47599 /3115 10052 20002 40099 55002 700// 22200 10807 70037
BBXX 62104 19004 99574 10013 47598 /3009 10050 21006 40100 54000 700// 22200
BBXX 62116 19004 99576 10011 47597 /3209 10054 21001 40100 58002 700// 22200 10806 70029
BBXX 62155 19004 99577 10007 47599 /3315 10044 20004 40104 57002 751// 22200 10806 70028
BBXX 62117 19004 99579 10000 47699 /3307 10049 21004 40106 52001 700// 22200 10705 70023
BBXX 62118 19004 99577 10009 47598 /3313 10050 20002 40096 57002 700// 22200 10906 70030
BBXX 62143 19004 99577 10018 47498 /3110 10042 20010 40102 52001 700// 22200 10706 70032
BBXX AMOUK12 19004 99533 70060 46/// ///// 10056 20031 30151 40190 57012 92350
BBXX AMOUK19 19004 99590 70030 46/// ///// 10031 21033 30113 40116 52006 92350
BBXX AMOUK06 19004 99512 10014 46/// ///// 10021 21001 30161 40179 52007 92350
BBXX AMOUK09 19004 99507 10010 46/// ///// 10038 21007 30174 40190 52010 92350
BBXX 2AAY7 19004 99568 10002 41397 13016 10060 20031 40143 54000 70300 81/00 22232 20604 326// 40504 80048
BBXX TBWUK35 19004 99482 70117 41/98 82618 10110 20056 40253 57030 70222 88/// 22284 00140 20604 80085
BBXX A8IY4 19001 99413 70252 41/98 12705 10188 20172 40300 53010 70200 81/// 22254 00158 2//01 80178
BBXX 62094 19004 99517 70067 46/// /2813 10087 20048 40204 57011 22200 00106 10503 70015
BBXX 62107 19004 99501 70061 46/// /3114 10094 20036 40225 58005 22200 00114 10703 70014 333 90710 91125
BBXX 62103 19004 99499 70029 46/// /3520 10084 20023 40206 50001 22200 00120 10703 70015 333 90710 91125
BBXX 62095 19004 99531 70159 46/// /2416 10114 20105 40142 57017 22200 00113 10706 70031 333 90710 91128
BBXX TBWUK03 19003 99421 70109 41498 20613 10121 20052 40311 54000 70200 81140 22243 20501 305// 40803 5//// 80086
BBXX 62103 19004 99499 70029 46/// /3417 10085 20026 40202 57007 22200 00120 10703 70014
BBXX 63119 19004 99583 10009 41/97 /3220 10049 21027 40085 51/// 700// 8//// 22200 2//// 334// 40505 5////
BBXX MDTE9 19003 99411 70315 41998 32317 10172 20162 40300 51008 70111 80008 22223 00160 20503 3//// 4//// 5//// 80166
AAXX 19001 48855 11560 73601 10205 20184 30185 40193 52017 69902 72162 878// 333 01020 20203 3/019 59002 8389 5 87697
AAXX 19001 48848 11565 83203 10160 20142 30195 40203 52016 69902 70262 888// 333 01016 20156 3/015 59010 8389 5 88697
AAXX 19004 82586 32994 03615 10264 20214 39885 40122 333 10354 29066 55113 58002
AAXX 19004 82678 32592 70000 10306 20230 39947 40084 85402 333 10368 29056 55108 59001
AAXX 19004 82784 32995 ///// 10226 20186 39646 40100 333 10350 29071 55116 58005
AAXX 19004 82791 32995 00912 10275 20174 39813 40088 333 10366 29044 55116 59001
AAXX 19004 82983 32595 21405 10302 20176 39686 40095 82030 333 10350 29052 55117 59001
AAXX 19001 48852 11458 80000 10170 20170 30184 40194 52017 69902 71062 888// 333 01017 20158 3/015 59006 8689 4 88697
BBXX 42363 19001 99282 70892 46/// /0907 10167 20078 40264 90015 333 91208
BBXX 42364 19001 99291 70881 46/// /0505 10150 20072 40264 55000 90000
BBXX 42364 19001 99291 70881 46/// /0406 10150 20072 40264 90015
BBXX 41115 19001 99184 70673 46/// ///// 1//// 90005 22200 11204 21003 302// 41202 70018
BBXX 41114 19001 99276 70802 46/// ///// 1//// 90016 22200 00242 11202 21002 307// 41201 70012
BBXX 51205 19001 99210 71564 46/// ///// 1//// 90018 22200 00244 10805 20804 333// 41303 70025
BBXX 46114 19001 99364 71222 46/// ///// 1//// 90004 22200 00124 11505 21002 330// 41505 70027
BBXX 44098 19001 99428 70702 46/// ///// 1//// 90007 22200 00090 10603 20603 310// 41101 70013
AAXX 19001 28588 42998 02502 11180 21206 30300 40476 57001
AAXX 19001 28465 42998 01904 11208 21226 30398 40485 52002
AAXX 19001 28586 41997 22504 11187 21206 30307 40470 57001 70271 80001
AAXX 19001 28791 41996 02504 11237 21255 30329 40493 57011 71000
AAXX 19001 38847 ///// /2300 10019 20012 39480 40270
AAXX 19001 28383 42997 02304 11173 21192 30337 40429 57006
AAXX 19001 38388 42998 00206 11101 21135 30338 40415 53036 555 14112
AAXX 19001 38392 42997 00203 11137 21208 30333 40442 52036 555 14116
AAXX 19001 38507 42996 00704 11032 21067 30224 40332 52009 555 10106
AAXX 19001 38511 42998 00707 11063 21144 30234 40386 52028 555 14107
AAXX 19001 38545 42998 00103 11117 21171 30200 40392 52006 555 34114
AAXX 19001 38647 42997 00910 11021 21106 30299 40344 52021 555 10104
AAXX 19001 38656 42998 00705 11044 21071 30267 40383 52032 555 10107
AAXX 19001 38687 42996 03605 11064 21109 30103 40354 52011 555 14106
AAXX 19001 38750 42997 00702 10014 20000 30334 40304 53018 555 10001
AAXX 19001 38763 41496 60902 11018 21040 30240 40350 52018 71022 86600 333 86713 555 10103
AAXX 19001 38774 42895 83602 11014 21043 30158 40364 52008 8807/ 555 10101
AAXX 19001 38799 42597 83405 11038 21120 30108 40355 52017 885// 555 10103
AAXX 19001 38806 42597 62902 11026 21049 30059 40334 52013 86900 555 14101
AAXX 19001 38880 42497 80603 11013 21060 30105 40374 52022 885// 333 88618 555 11000
AAXX 19001 38886 41996 70202 11030 21047 30118 40360 52015 71011 80006 555 14103
AAXX 19001 38895 42496 80202 11027 21082 30049 40355 52017 887// 555 11102
AAXX 19001 38911 42697 82803 10009 21011 30013 40318 52007 885// 555 11002
AAXX 19001 38915 42597 83003 10016 21006 39985 40321 52012 885// 555 11002
AAXX 19001 38974 42598 83403 10005 21015 30002 40351 52011 8372/ 555 11001
AAXX 19001 38987 42496 83201 11004 21016 39567 40342 53020 885// 555 11002
AAXX 19001 28696 41596 52403 11199 21218 30313 40468 57015 71011 85700
AAXX 19001 28688 42997 02503 11220 21245 30319 40498 57006
AAXX 19001 23412 42999 21505 11084 21131 30140 40242 53003 82030
AAXX 19001 23929 41978 32404 11065 21093 30304 40374 52004 70230 80001
BBXX 46088 19001 99483 71232 46/// /0203 10078 40270 90020 22200 00079 11101 325// 41101 70003 333 91204 555 11029 22031 30019 40106 60019 018029 024036 021042 019044 016050 013053
AAXX 19001 38836 41/// 90000 10012 20004 39316 40279 54000 74542
AAXX 19001 60381 16/// /2102 10083 20063 60031
AAXX 19001 60639 36/// /3008 10093 20001
AAXX 19001 60605 36/// /1208 10133 21022
AAXX 19001 60373 16/// /3603 10108 20047 60041
AAXX 19001 60623 36/// /0000 10088 21040
AAXX 19001 60393 16/// /1803 10092 20061 60031
AAXX 19004 08141 12965 12703 11006 21012 39403 40300 51004 60001 80001
AAXX 19001 14216 NIL
AAXX 19001 14219 NIL
AAXX 19001 14232 NIL
AAXX 19001 14234 NIL
AAXX 19001 14236 NIL
AAXX 19001 14244 NIL
AAXX 19001 14248 NIL
AAXX 19001 14253 NIL
AAXX 19001 14256 12570 40905 11010 21013 39824 40153 51001 60001 82530
AAXX 19001 14280 12960 80804 10030 20001 30040 40151 54004 60001 8807/
AAXX 19001 14308 NIL
AAXX 19001 14321 NIL
AAXX 19001 14370 12560 60604 10028 21004 30022 40133 57004 60001 86500
AAXX 19001 14382 12665 80703 10019 21008 30053 40175 58024 60001 885//
AAXX 19001 14428 NIL
AAXX 19001 14441 NIL
AAXX 19001 14452 NIL
AAXX 19001 14454 NIL
AAXX 19001 14462 NIL
BBXX A8SF7 19001 99208 70740 41597 20709 10250 20195 40180 52005 72161 8159/ 22244 04250 21202 3//// 4//// 5//// 80212
BBXX DDBR2 19004 99425 10103 41/98 20416 10090 20032 40095 53020 70200 8//// 22274 20301 331// 40701 5//// 80065
AAXX 19004 04203 46/// /1317 11084 21112 39870 49887 52028
AAXX 19004 04205 47/82 /3403 11154 21206 39885 49908 52036 77877
AAXX 19004 04208 46/// /2010 11072 21091 39870 49916 52003
AAXX 19004 04213 46/// /3609 11077 21125 39806 49916 52011 333 91129 91223 91016
AAXX 19004 04214 46/// /1709 11075 21196 39888 49921 52004
AAXX 19004 04224 45/83 /1111 11104 21155 39890 49923 57002
AAXX 19004 04228 NIL
AAXX 19004 04242 46/// /2318 11057 21106 39918 49934 52006
AAXX 19004 04253 46/// /2410 11059 21128 39948 49975 52012
AAXX 19004 04266 46/// /2729 11053 21097 39956 49994 52018
AAXX 19004 04285 46/// /3128 11050 21077 39958 49977 52009
AAXX 19004 04301 46/// ///// 11319 21365 39961 49966 52019
AAXX 19004 04313 46/// ///// 11275 21313 39964 49976 57005
AAXX 19004 04330 46/// /3504 11207 21268 39955 49973 57006
AAXX 19004 04351 46/// /0829 11035 21042 39844 49860 57008
AAXX 19004 04373 46/// /0325 11038 21043 39662 49754 54000
AAXX 19004 04382 46/// /2945 11060 21140 39765 49813 52005
AAXX 19004 04416 NIL
BBXX 51203 19001 99208 71570 46/// ///// 1//// 90013 22200 00249 11302 20801 328// 41301 70009
BBXX 52200 19001 99134 11448 46/// ///// 1//// 90015 22200 00287 10906 20906 308// 41101 70030
BBXX 51201 19001 99217 71581 46/// ///// 1//// 90012 22200 00243 11305 20804 331// 41303 70024
BBXX SHIP 19004 99227 71580 41497 50725 10238 20184 40176 57020 71581 84360 22200 04239 20404 31203 40704 50704
BBXX AVMI 19003 99257 31546 41298 70514 10250 20/// 40234 56008 70322 85228 22271 00270
BBXX A8XD5 19004 99422 11685 41297 52106 10080 20038 40020 57000 70322 8/782 22223 2//// 327// 40808 80060
BBXX DGXS 19004 99183 11134 41397 70823 10232 20171 40160 53020 70122 867/8 22284 00250 20809 3//// 4//// 5//// 80192
BBXX DDZI2 19003 99262 11220 41598 80434 10160 20088 40250 52010 70222 887// 22215 00220 20806 80120
BBXX SHIP 19004 99028 11430 41098 50905 10290 20277 40075 54000 7021/ 82383 22283 00330 20100 305// 40504 80280
BBXX SHIP 19004 99261 31057 41797 81317 10211 20153 40153 52016 70322 884// 22232 00227 10904 20101 313// 40603 85174
BBXX SHIP 19004 99028 11430 41098 50905 10290 20277 40075 54000 7021/ 82383 22283 00330 20100 305// 40504 80280
BBXX SHIP 19004 99261 31057 41797 81317 10211 20153 40153 52016 70322 884// 22232 00227 10904 20101 313// 40603 85174
AAXX 19001 21432 NIL
AAXX 19001 21824 11996 83001 11256 21271 30232 40242 53010 69932 77172 8807/ 333 21297 48006
AAXX 19001 21908 12999 20000 11301 21319 30156 40245 52010 69902 80002 333 21301 55000
AAXX 19001 21921 11998 80000 11357 21386 30217 40267 58003 69902 77872 83057 333 21413 48036
AAXX 19001 21931 NIL
AAXX 19001 21946 11598 80503 11244 21269 30149 40234 52006 69920 77872 885// 333 21268 47025 88621
AAXX 19001 21982 41996 83411 11229 21248 30096 40125 52004 73832 83034 333 91118
AAXX 19001 25062 41996 72902 11284 21315 30153 40157 57004 70511 83030 333 91104
AAXX 19001 25123 12998 61201 11335 21359 30165 40201 54000 69900 83031 333 21319 47027
AAXX 19001 25138 11999 30000 11412 21431 30067 40208 58002 69900 70270 80001 333 21406 47022 91101
AAXX 19001 25173 41394 83111 11249 21267 30107 40112 57002 77173 885// 333 91116
AAXX 19001 25248 32599 20000 11458 21485 39681 40208 57004 82500 333 21455 47030 91101
AAXX 19001 25282 41/08 93613 11180 21192 30009 40015 54000 73833 333 91992 91118
AAXX 19001 25325 NIL
AAXX 19001 25356 42599 73404 11207 21264 39947 40052 57007 83530 333 91006
AAXX 19001 25399 41424 83305 11150 21163 39852 49860 58011 77373 8872/ 333 91109
AAXX 19001 25428 31958 50000 11405 21438 39833 40216 54000 71022 83031 333 21430 47024 55000 91100
AAXX 19001 25551 42699 73604 11208 21256 30013 40045 57005 82536 333 91109
AAXX 19001 25563 41950 70111 11174 21208 39884 49964 57006 73673 87030 333 91115
AAXX 19001 25594 41598 73507 11069 21094 39763 49813 58006 73673 85530 333 91113
AAXX 19001 25677 41496 83310 11152 21158 39910 49916 57005 73832 8657/ 333 86617 91115
AAXX 19001 31054 12999 50000 11396 21422 39983 40299 54000 69902 80006 333 21424 47032 55003
AAXX 19001 31123 12998 00101 11406 21432 39961 40341 58009 69902 333 21409 47019
BBXX DEGI 19003 99364 10131 41/98 43112 10149 20147 40108 54000 70311 84404 22273 04182 29902 80148
AAXX 19000 44214 32998 00901 11315 21352 38340 40611 52007 333 21323 47001 555 31345
AAXX 19000 44231 319// 00000 11336 21396 38802 40595 57003 70400 333 21343 47010 55019 555 31321
AAXX 19000 44259 31997 02806 11217 21263 39371 40361 50000 70230 333 21224 47011 91112 555 31250
AAXX 19000 44277 329// 02702 11284 21308 37820 40597 53005 333 21296 46000 555 31314
AAXX 19000 44288 32899 22803 11186 21221 38188 40442 54000 82040 333 21199 41998 555 31248
AAXX 19000 44292 119// 40801 11301 21325 38766 40509 54000 69902 70400 80008 333 21303 47007 55055 555 31336 93100
AAXX 19000 44304 32999 02302 11308 21338 39055 40450 54000 333 21310 47011 555 31322
AAXX 19000 44354 32999 00000 11272 21296 39179 40439 55001 333 21286 46002 555 31338
AAXX 19000 44373 32999 22503 11205 21257 38581 40430 53005 82040 333 21209 47006 55076 555 31273
AAXX 19004 84452 31960 21710 10210 20180 30090 40121 70302 82030 333 10268 56090 58011 82365
AAXX 19004 93800 16/// /2506 10205 20099 40155 57004 60004 333 70000
AAXX 19004 93805 16/// /1519 10133 20065 40179 57014 60004 333 70000
AAXX 19004 93994 16/// /3005 10223 20174 40063 54000 60124 333 70124
BBXX A8VL5 19004 99163 10411 41/98 /0908 10250 20228 40250 50/// 7//// 8//// 22285 00260 2//01 80234
AAXX 19004 67002 32580 10906 10240 20210 30070 40104 81800 333 0//00 58000 81820 92408
AAXX 19004 67009 NIL
AAXX 19004 67012 NIL
AAXX 19004 67027 32580 22010 10276 20239 30051 40072 56006 82230 333 0//00 82820 555 81360
AAXX 19004 67045 NIL
AAXX 19004 67083 32470 50000 10176 20171 38683 48458 58007 85800 333 0//00 81817 85620
AAXX 19004 67095 31470 50202 10250 20238 30029 40035 57004 71522 85800 333 0//00 82817 84633
AAXX 19004 67137 NILK
AAXX 19004 67157 NIL
AAXX 19004 67197 11465 71806 10212 20193 30060 40070 58008 60042 71562 878// 333 0//11 83817 85633
AAXX 19004 61600 32960 03604 10210 20151 30137 40142 333 59009
AAXX 19004 61612 NIL
AAXX 19004 61627 32958 50000 10210 20032 3//// 4//// 85080 333 0//00 5//// 85363
AAXX 19004 61630 32960 00404 10230 20065 30113 40132 333 0//00 59016
AAXX 19004 61641 32958 03610 10235 20186 30102 40135 333 0//00 59006
AAXX 19004 61666 NIL
AAXX 19004 61679 32958 00406 10214 20076 30132 40140 333 0//00 59003
AAXX 19004 61687 32960 00204 10212 20039 30066 40123 333 0//00 59011
AAXX 19004 61695 32958 00000 10183 20134 30105 40131 333 0//00 59001
AAXX 19004 61697 32960 03206 10210 20194 30115 40130 333 0//00 59003
AAXX 19004 61698 NIL
AAXX 19004 61699 NIL
AAXX 19001 08533 32/// /0000 10069 20030 30237 40267 52014
AAXX 19001 08511 32/// /9901 10161 20098 30227 40335 52004 555 60005
AAXX 19003 41150 31957 02911 10172 20138 40210 70500 333 58035
AAXX 19001 08533 32/// /0000 10069 20030 30237 40267 52014 555 60005
AAXX 19001 31754 32999 20000 11334 21356 39699 40267 52005 82040 333 21365
AAXX 19004 48350 31910 00000 10140 20136 39868 40181 52010 71000 333 20135 59011
BBXX 46001 19001 99563 71480 46/// /2415 10057 49920 53044 92350 22200 00051 11217 20708 300// 41216 70087 333 91219 555 11158 22170 32330 42621 62349 240147 244150 246157 237158 238152 236149
BBXX 46042 19001 99368 71224 46/// /3304 10111 40205 57012 92350 22200 00128 11506 331// 41506 70030 333 91206 555 11037 22039 32331 43106 62349 323036 312036 323038 320036 325033 339034
BBXX 46207 19001 99509 71299 46/// /2306 10074 40276 52001 22200 00082 11406 70029 333 91207
BBXX A8CN9 19000 99482 71476 41296 71503 10090 20049 40060 58/// 70322 86710 22234 20907 32420 40907 50806 80070
BBXX SHIP 19003 99312 71416 41697 80518 10190 20170 40290 57030 78082 8895/ 22223 00200 20605 332// 40907 5//// 6//// 80175 ICE /////
BBXX SHIP 19004 99335 71318 41598 60508 10150 20100 40170 57020 70222 83106 22223 00190 2//// 330// 4//// 5//// 6//// 80120 ICE 0////
BBXX WABS 19004 99381 71248 41397 8//24 10117 20090 40230 54000 7//22 8862/ 22273 0//// 20207 333 // 40509 5//// 6//// 80100 ICE /////
BBXX WDB9949 19004 99473 71393 41095 81928 10110 20090 40210 57040 74522 88/// 22274 00060 20705 327// 40906 5//// 6//// 80100 ICE /////
BBXX WFLG 19004 99317 71275 41698 82913 10161 20103 40248 54000 70222 8827/ 22264 04128 20201 332// 41003 5//// 6//// 80128 ICE /////
BBXX WLVD 19004 99311 71405 41498 70807 10200 20150 40255 57010 7//11 87/// 22254 00189 20301 333 // 40804 5//// 6//// 80167 ICE /////
BBXX 9V8739 19004 99357 71651 41497 82313 10150 20133 40170 53010 78011 8877/ 22263 00200 2//// 329// 40408 5//// 6//// 80140 ICE /////
BBXX A8AJ4 19004 99545 71672 41696 52740 1//// 2//// 49850 52010 78611 8/3// 22263 0//// 20610 326// 40908 5//// 6//// 8//// ICE /////
BBXX C6SI4 19004 99546 71696 41496 52033 10020 21070 49830 51010 70122 851// 22263 00050 21408 323// 4//// 5//// 6//// 81010 ICE /////
BBXX KGTY 19004 99533 71544 41598 62527 10044 20020 49968 52043 7//22 846/8 22224 00039 21011 325// 41513 5//// 6//// 80033 ICE /////
BBXX NWS0003 19004 99539 71665 43/// /0000 10025 21047 49862 5//// 7//// 8//// 222// 0//// 2//// 3//// 4//// 5//// 6//// 8//// ICE /////
BBXX SBLI 19001 99300 71755 43/98 83109 10215 40186 58004 22263 00224 2//// 4////
BBXX SHIP 19004 99417 71753 41697 62824 10130 20050 40100 52006 7//22 8697/ 22224 00140 20307 330// 40408 5//// 6//// 80090 ICE /////
BBXX VSJG7 19003 99547 71793 41498 42619 10000 21030 49830 51000 7//11 8413/ 22261 00040 20905 32831 41209 5//// 6//// 81010 ICE /////
BBXX WDE9586 19003 99364 71567 41498 51923 10200 20170 40200 58010 7//22 8511/ 22214 00180 20404 320// 40805 5//// 6//// 80180 ICE /////
AAXX 19001 80402 NIL
AAXX 19001 80412 NIL
AAXX 19001 80416 NIL
AAXX 19001 80420 32460 40706 10265 20177 30104 40110 84800 333 10312 30/// 56900 58002 84813 555 10123
AAXX 19001 80425 32460 50000 10272 20261 30075 40106 8242/ 333 10320 30/// 5699/ 58000 82613 83460 555 10107
AAXX 19001 80426 32560 63601 10238 20211 39475 40120 865// 333 10277 30/// 569// 59006 86623 555 10150
AAXX 19001 80427 32960 00704 10255 20242 39841 40091 333 10325 30/// 58000 555 10109
AAXX 19001 80431 32960 3//// 10240 20176 39618 40098 80008 333 10313 30/// 56009 58006 555 10120
AAXX 19001 80434 NIL
AAXX 19001 80437 11460 80000 10250 20245 39999 40085 60101 70258 8351/ 333 10320 33/// 5699/ 59007 83617 85457 555 10090
AAXX 19001 80440 32960 00904 10274 20229 39888 40199 333 10326 30/// 58017 555 10108
AAXX 19001 80442 32460 1//// 10284 2//// 39983 4//// 81400 333 10333 30/// 56900 59001 81613 555 10094
AAXX 19001 80472 32460 50203 10248 20208 39626 40105 8322/ 333 10304 30/// 5699/ 58000 83816 555 10128
AAXX 19001 80475 32560 50000 10232 20218 39740 40110 855// 333 10318 30/// 569// 59013 85623 555 10122
AAXX 19001 80476 32360 2//// 10270 20248 30090 40120 82500 333 10321 30/// 56900 58001 82610
AAXX 19001 80478 NIL
AAXX 19001 80479 NIL
AAXX 19001 80400 NIL
AAXX 19001 80403 11460 70000 10264 20245 30109 40128 60051 70266 875// 333 10286 33/// 569// 58006 87613 555 10131
AAXX 19001 80405 NIL
AAXX 19001 80407 NIL
AAXX 19001 80410 32460 71103 10231 20211 39438 40121 875// 333 10284 30/// 569// 58000 87616 555 10150
AAXX 19001 80413 32460 12702 10248 20154 39611 40102 81500 333 10311 30/// 56900 58001 81613 555 10128
AAXX 19001 80415 32460 50701 10255 20230 30066 40120 854// 333 10284 30/// 569//58004 85413 555 10122
AAXX 19001 80419 NIL
AAXX 19001 80421 NIL
AAXX 19001 80423 NIL
AAXX 19001 80428 32460 73602 10279 20217 39896 40080 82505 333 10321 30/// 56909 58005 82617 85075 555 10092
AAXX 19001 80432 NIL
AAXX 19001 80435 32960 40505 10259 20192 30020 40095 80002 333 10312 30/// 56009 58000 555 10093
AAXX 19001 80438 32357 82302 10182 20176 38517 48514 887// 333 10245 30/// 569// 58004 88710 555 10199
AAXX 19001 80444 32960 0//// 10280 2//// 30042 4//// 333 10320 30/// 58009 55 10090
AAXX 19001 80447 32560 50000 10240 20222 39670 40094 855// 333 10300 30/// 569// 58004 85620 555 10142
AAXX 19001 80448 32960 00000 10260 20226 3//// 4//// 333 10328 30/// 5////
AAXX 19001 80450 32960 51101 10272 20217 30049 40105 80008 333 10312 56009 59003 555 10101
AAXX 19001 80453 NIL
AAXX 19001 80457 11460 6//// 10269 20245 30012 40097 70225 8352/ 333 10356 31/// 5699/ 58012 83613 83459 555 10012
AAXX 19001 80462 NIL
AAXX 19000 44292 119// 40801 11301 21325 38766 40509 54000 69902 70400 80008 333 21303 47007 55055 555 31336 93100
AAXX 19001 21931 11997 82302 11257 21288 30183 40217 53003 69942 77172 8805/ 333 21269 48019
BBXX 46147 19001 99518 71312 46/// /1907 10071 40255 57007 22200 00081 11407 70034 333 91209
BBXX 46147 19001 99518 71312 46/// /1907 10071 40255 57007 22200 00081 11407 70034 333 91209
BBXX 46183 19001 99536 71311 46/// /1511 1//// 4//// 5//// 22200 0//// 1//// 70/// 333 912//
AAXX 19001 31873 32998 02503 11192 21215 30107 40252 52006 333 21204 47014
AAXX 19001 31960 32998 03506 11115 21187 30018 40266 53009 333 21120 41998 55065
AAXX 19001 31961 31996 02201 11203 21222 30219 40270 52009 70004 333 21200 42003 55069
AAXX 19001 25703 11696 80000 11356 21390 39940 40245 52003 69900 77172 8551/ 333 21397 47025 55000
AAXX 19001 25745 32999 00801 11327 21357 30006 40064 57005 333 21328 47007 55008
AAXX 19001 25913 32999 60404 11133 21227 39922 40075 52002 80001 333 21145 48019 55033
AAXX 19001 25954 32999 03409 11191 21249 39861 49980 58010 333 21200 48024 55052
AAXX 19001 25956 32999 20607 11142 21213 39929 49935 54000 80001 333 21153 44018 55052
AAXX 19001 31088 32999 30103 11174 21215 30098 40105 57002 82041 333 21181 41997 55000
AAXX 19001 31873 32998 02503 11192 21215 30107 40252 52006 333 21204 47014
AAXX 19001 31909 32999 03207 11123 21206 30109 40190 53002 333 21135 44018 55074 91112
AAXX 19001 31960 32998 03506 11115 21187 30018 40266 53009 333 21120 41998 55065
AAXX 19001 31961 31996 02201 11203 21222 30219 40270 52009 70004 333 21200 42003 55069
AAXX 19001 32053 11498 72503 11127 21140 30079 40130 52010 60040 70183 86930 333 21144 47061 86917 91005 91106
AAXX 19001 32061 11507 80203 11114 21114 30117 40158 52005 60020 78682 889// 333 21120 47009 91005 91105
AAXX 19001 32098 32598 63303 11099 21152 30124 40134 52007 82940 333 21189 47024 91006 91108
AAXX 19001 32150 32999 23601 11144 21164 30111 40142 52004 80001 333 21152 47020 91002 91104
AAXX 19001 32165 11598 22906 11030 21080 30074 40136 52001 60010 70181 82900 333 21053 47013 91008 91108
AAXX 19001 32215 31508 73107 11014 21074 39948 49977 54000 78681 87902 333 21084 43046 91012 91112
AAXX 19001 32252 NIL
AAXX 19001 32389 32999 22804 11209 21228 39951 49990 52006 80001 333 21215 44055 55012
AAXX 19001 32477 32999 50801 11222 21241 39947 49980 53007 80001 333 21274 47060 55023
AAXX 19001 32583 32599 23305 11106 21126 39940 49971 52004 81531 333 21103 48037
AAXX 19001 32618 11598 70106 11045 21084 39898 49920 52008 60010 70282 85210 333 21073 48015 55016
AAXX 19001 31909 32999 03207 11123 21206 30109 40190 53002 333 21135 44018 55074 91112
BBXX 46183 19001 99536 71311 46/// /1511 1//// 4//// 5//// 22200 0//// 1//// 70/// 333 912//
BBXX C6CU6 19003 99306 70536 41497 12803 10210 20178 40147 55002 70100 811// 22263 04220 20906 310// 41206 5//// 80190
BBXX A8EH3 19003 99500 71285 41597 43410 10090 40285 54000 701// 848// 22234 04080 29901
BBXX DDYZ2 19004 99409 70098 41597 30527 10160 20127 40275 51/// 70211 83978 22213 20310 30533 40310 50310 80140
AAXX 19004 89002 43/// /1018 11032 21044 39803 49857 52019 7//// 8//// 11014 21040
AAXX 19001 60379 16/// /1501 10093 20093 60021
AAXX 19001 60380 16/// /3201 10078 20064 60051
BBXX A8VL5 19004 99163 10411 41/98 /0908 10250 20228 40250 50/// 7//// 8//// 22285 00260 2//01 80234
AAXX 19004 71217 16/// /3606 11010 21029 60001 333 10005 21019 70004
AAXX 19004 71224 16/// /3210 11026 21030 60001 333 10045 21026 70006
AAXX 19004 71302 16/// /1804 11038 21039 39434 40269 58006 60001 333 11001 21086 70026
AAXX 19004 71343 16/// /2904 11019 21031 60001 333 10059 21020 70006
AAXX 19004 71345 16/// /3205 11014 21026 60001 333 10072 21014 70000
AAXX 19004 71979 16/// ///// 11095 21112 38532 40225 50005 60001 333 11042 21111 7//// 555 10120
AAXX 19004 71189 46/// /0302 11126 21158 6///1 333 11088 21168 7////
AAXX 19004 71276 16/// ///10 11065 21107 60001 333 11020 21065 70000
AAXX 19004 61017 NIL
AAXX 19004 61024 NIL
AAXX 19004 61036 NIL
AAXX 19004 61043 32960 70606 10197 21072 39678 40118 80008 333 0//00 59014 87280
AAXX 19004 61045 32965 70000 10140 21015 39630 40131 80008 333 0//00 59012 87280
AAXX 19004 61049 32960 70000 10135 21008 39779 40119 80008 333 0//00 59013 87280
AAXX 19004 61052 32960 53606 10185 20008 39864 40121 80002 333 0//00 59014 85080
AAXX 19004 61075 32960 50000 10167 20027 39807 40106 80002 333 0//00 59008 85080
AAXX 19004 61080 NIL
AAXX 19004 61090 32960 70000 10165 21038 39625 40138 80008 333 0//00 59004 87280
AAXX 19004 61091 NIL
AAXX 19004 61096 NIL
AAXX 19004 61099 31956 73610 10225 21005 39890 40117 7062/ 80008 333 0//00 58003 87280
BBXX A8SF7 19001 99208 70740 41597 20709 10250 20195 40180 52005 72161 8159/ 22244 04250 21202 3//// 4//// 5//// 80212
BBXX C6CU6 19003 99306 70536 41497 12803 10210 20178 40147 55002 70100 811// 22263 04220 20906 310// 41206 5//// 80190
BBXX A8EH3 19003 99500 71285 41597 43410 10090 40285 54000 701// 848// 22234 04080 29901
BBXX DDBR2 19004 99425 10103 41/98 20416 10090 20032 40095 53020 70200 8//// 22274 20301 331// 40701 5//// 80065
BBXX DEGI 19003 99364 10131 41/98 43112 10149 20147 40108 54000 70311 84404 22273 04182 29902 80148
BBXX DDYZ2 19004 99409 70098 41597 30527 10160 20127 40275 51/// 70211 83978 22213 20310 30533 40310 50310 80140
AAXX 19001 15655 12570 80206 10072 20018 30167 40200 52002 60001 885// 222// 20000 333 10072 20044 555 568// 92014 92418
BBXX 46145 19001 99544 71324 46/// /1612 10062 40193 57027 22200 00071 11404 70022 333 91214
BBXX 46145 19001 99544 71324 46/// /1612 10062 40193 57027 22200 00071 11404 70022 333 91214
AAXX 19001 48921 NIL
AAXX 19001 48924 31320 80000 10116 20116 39552 40201 5//// 710// 856// 333 20086 59007
AAXX 19001 48925 31/03 91802 10112 20109 39445 40206 5//// 747// 333 20096 59005
AAXX 19001 48926 31957 10404 10136 20114 39715 40192 5//// 710// 80001 333 20134 59001
AAXX 19001 48927 31210 80901 10112 20104 39193 48643 5//// 710// 888// 333 20110 59016
AAXX 19001 48928 31310 82201 10112 20104 39113 48573 5//// 710// 888// 333 20109 59017
AAXX 19001 48930 31/04 93601 10135 20126 39849 40213 52012 74744 333 20130 59010
AAXX 19001 48935 31450 20000 10074 20070 39001 48476 52009 71044 81101 333 20070 59012
AAXX 19001 48938 31/06 90000 10138 20136 39842 40189 54000 74544 333 20138 59007
AAXX 19001 48940 31930 01801 10155 20146 39964 40166 57007 71044 333 20155 59015
AAXX 19001 48941 NIL
AAXX 19001 48944 31558 12705 10138 20099 39532 40134 5//// 71044 81500 333 20133 58003
AAXX 19001 48945 31940 00201 10148 20119 39995 40181 5//// 710// 333 20145 59009
AAXX 19001 48946 31530 11401 10142 2136 39998 40171 52008 740// 81100 333 20141 59010
AAXX 19001 48947 31530 60000 10160 20138 30022 40193 57013 71044 83560 333 20160 59012
AAXX 19001 48948 NIL
AAXX 19001 48952 31550 20901 10160 20151 39942 40141 52005 71044 82100 333 20160 59003
AAXX 19001 48953 NIL
AAXX 19001 48955 31758 33601 10188 20141 30010 40130 52008 71044 81502 333 20184 59003
AAXX 19001 48957 31565 13602 10233 20133 30006 40115 5//// 710// 81801 333 20225 59002
AAXX 19001 50434 32980 72002 11302 21336 39349 40356 52002 80002 333 00106
AAXX 19001 50527 32970 00000 11271 21298 39468 40351 52008 333 00155 92515
AAXX 19001 50603 32980 52203 11242 21275 39599 40350 52003 80002 333 00058
AAXX 19001 50632 32980 62903 11181 21204 39344 40311 52002 84032 333 00101
AAXX 19001 50727 11580 73601 11190 21216 39066 40350 52006 69911 77070 875// 333 00101 70001
AAXX 19001 50915 32980 02501 11234 21281 39285 40400 52003 333 05102
AAXX 19001 51716 32965 60000 11082 21100 38932 40291 52003 80002 333 05251 79999
AAXX 19001 51765 32980 00000 11118 21134 39252 40320 57003 333 05104
AAXX 19001 51777 11975 70000 11101 21134 39210 40321 57005 69901 70070 80002 333 05102 79999
AAXX 19001 51811 11962 72901 11048 21060 38794 40267 57003 69901 77070 8703/ 333 05251 70001
AAXX 19001 51828 32962 02901 11087 21122 38632 40267 54000 333 05352
AAXX 19001 52267 32980 00902 11134 21226 39179 40365 52010 333 05100
AAXX 19001 52323 32980 22702 11222 21248 38243 52009 80002 333 05154 92502
AAXX 19001 52495 32980 60000 11191 21237 38730 40380 52012 80002 333 05156
AAXX 19001 53149 32980 00000 11189 21263 38840 40392 54000 333 05300
AAXX 19001 53192 32975 03201 11300 21330 38968 40477 52006 333 05201
AAXX 19001 53231 32980 61402 11161 21192 38521 52008 82032 333 05255
AAXX 19001 53336 32965 00000 11160 21189 38763 40361 52003 333 05351
AAXX 19001 53391 32980 00000 11197 21257 38551 40401 52005 333 05301
AAXX 19001 53529 32970 80000 11070 21108 38659 40311 52006 8802/ 333 05308
AAXX 19001 53543 11980 81602 11066 21106 38569 40310 52004 69901 70070 8802/ 333 05304 79999
AAXX 19001 53723 31958 70000 11086 21098 38689 40318 52003 71000 87032 333 05206
AAXX 19001 54012 32980 01401 11273 21311 39094 40415 52002 333 05156
AAXX 19001 54026 32980 02902 11123 21199 39971 40322 52010 333 00151
AAXX 19001 54027 32980 01401 11158 21220 39707 40344 52006 333 00054
AAXX 19001 54208 32970 02001 11283 21315 38826 40457 52004 333 05253
AAXX 19001 54776 32980 72904 10018 21043 30256 40315 52008 80002 333 05201 31022
AAXX 19001 56004 32680 72901 11166 21276 35783 52002 83502 333 05308
AAXX 19001 56033 32680 60701 11206 21267 35985 57002 82502 333 05200
AAXX 19001 56046 32980 70000 11191 21232 36239 57005 80002 333 05302 92501
AAXX 19001 29846 31912 00000 11274 21279 30022 40459 53002 71000 333 21279 47010
AAXX 19001 56193 NIL
AAXX 19001 56196 31920 83201 10049 20037 40279 57002 71000 8807/ 333 05401
AAXX 19001 56287 11440 83601 10052 20048 40279 54000 69961 76066 885// 333 05300 70007
AAXX 19001 56684 32560 81401 10028 20007 37904 52005 885// 333 05503 30006
AAXX 19001 56751 32778 13201 10046 20016 38027 52004 81400 333 05303 30004
AAXX 19001 56786 32560 71606 10070 20048 38117 52005 87400 333 05404 30020 79999
AAXX 19001 56977 32465 82901 10110 20108 40218 52006 884// 333 05251 70001
AAXX 19001 57259 31956 01601 11030 21030 40304 57008 71000 333 05400 31027
AAXX 19001 57279 32961 02201 10010 21050 40301 57001 333 05452 31014
AAXX 19001 57348 32860 73602 10060 20026 40285 54000 875// 333 05400 30017
AAXX 19001 57399 32960 20901 11012 21045 40312 52001 82040 333 05255 31023
AAXX 19001 57554 31850 72501 10027 20012 40306 52005 71000 875// 333 05302 30010
AAXX 19001 57793 31940 71101 10027 20003 40303 52003 71000 8704/ 333 05252 31020
AAXX 19001 58345 31950 00000 11020 21026 40326 52007 71000 333 05154 31046
AAXX 19001 58506 32980 00201 10007 21209 40307 52005 333 05101 31026
AAXX 19001 58813 32962 01801 10013 20003 40297 52012 333 05200 30016
AAXX 19001 58834 32962 70401 10079 20059 40289 52014 8704/ 333 05303
AAXX 19001 58926 31450 33601 10051 20041 40285 52017 71000 81602 333 05251
AAXX 19001 58944 32566 70205 10125 20082 40269 52014 85130 333 05202
AAXX 19001 59096 32962 02201 10052 20008 40275 52016 333 05153
AAXX 19001 59102 32961 01601 10046 20000 40279 52014 333 05200 30005
AAXX 19001 59278 32960 02001 10104 20065 40253 52018 333 05153
AAXX 19001 59456 32966 20202 10119 20032 40234 52015 80002 333 05252
AAXX 19001 59493 31958 13604 10126 20025 40240 52014 70500 80002 333 05200
AAXX 19001 59658 31956 00202 10118 20071 40230 52018 70500 333 05253
AAXX 19001 59673 32963 20207 10136 20067 40231 52012 80002 333 05200
AAXX 19001 59845 31458 71401 10137 20119 40225 52017 71000 878// 333 05152
AAXX 19001 48887 32770 63201 10234 20203 30098 40104 52004 865// 333 00024 20230 3/022 59005 86697
AAXX 19001 48920 11498 83611 10262 20249 30072 40075 52019 60122 70382 889// 222// 00278 2//05 333 20249 5901 3 81894 82995 86697 91117 91502
AAXX 19001 48870 11474 83404 10220 20190 30146 40153 52014 60022 70262 888// 333 01021 20217 3/019 59008 8389 4 88696
AAXX 19001 48877 12570 83608 10239 20192 30130 40135 52015 69912 888// 333 01024 20227 3/023 59008 83895 8669 6
AAXX 19001 48892 11596 80901 10248 20245 30079 40084 52027 61532 78198 8492/ 333 20246 59009 84995 88499 9111 6 91502 96163
AAXX 19001 48806 31440 70000 10127 20114 39435 40233 53006 71022 878// 333 00014 20127 3/013 59019 82894 8769 7
AAXX 19000 44219 329// 10502 11328 21351 38713 40588 54022 80001 333 21329 47005 555 31346
AAXX 19000 44329 32998 00000 11216 21228 37774 40447 51003 333 21238 46003 555 31308
BBXX VRVB5 19004 99379 70749 41598 33511 10030 20112 40260 5/010 70101 82080 22213 00130 2//// 3//// 4//// 80000
AAXX 19004 60661 36/// /0203 10085 21004
AAXX 19004 60679 36/// /2905 10040 21179
AAXX 19004 60677 36/// /0000 10075 21010
AAXX 19004 60672 36/// /3403 10054 21095
AAXX 19004 60650 36/// /0209 10135 20007
AAXX 19001 52203 32980 00701 11157 21191 39384 40330 52017 333 05252
AAXX 19001 51709 11862 71601 11057 21071 38733 40275 54000 69921 77077 85532 333 05300 31009 70007 92508
BBXX 46131 19001 99499 71250 46/// /3204 1//// 40281 52016 22200 00078 10300 70002 333 91205
AAXX 19004 67002 32580 10906 10240 20210 30070 40104 81800 333 0//00 58000 81820 92408
AAXX 19004 67009 NIL
AAXX 19004 67012 NIL
AAXX 19004 67027 32580 22010 10276 20239 30051 40072 56006 82230 333 0//00 82820 555 81360
AAXX 19004 67045 NIL
AAXX 19004 67083 32470 50000 10176 20171 38683 48458 58007 85800 333 0//00 81817 85620
AAXX 19004 67095 31470 50202 10250 20238 30029 40035 57004 71522 85800 333 0//00 82817 84633
AAXX 19004 67137 NIL
AAXX 19004 67157 NIL
AAXX 19004 67197 11465 71806 10212 20193 30060 40070 58008 60042 71562 878// 333 0//11 83817 85633
AAXX 19004 86330 32598 20000 10250 20130 40049 53009 82200 333 10325 20228
AAXX 19004 86360 NIL
AAXX 19004 86460 32997 11803 10234 20133 40055 53011 80005 333 1//// 20200
AAXX 19004 86490 32997 11303 10206 20113 40049 53006 80001 333 10312 20206
AAXX 19004 86530 32997 11805 10202 20166 40055 52012 80001 333 10266 20200
AAXX 19004 86545 32997 10000 10182 20162 40060 52005 80001 333 10250 20182
AAXX 19004 86565 32497 72206 10194 20160 40046 52011 85405 333 10236 20186
AAXX 19004 86580 32597 61904 10194 20174 40059 53003 86400 333 10218 20180
BBXX 46131 19001 99499 71250 46/// /3204 1//// 40281 52016 22200 00078 10300 70002 333 91205
AAXX 19004 61017 NIL
AAXX 19004 61024 NIL
AAXX 19004 61036 NIL
AAXX 19004 61043 32960 70606 10197 21072 39678 40118 80008 333 0//00 59014 87280
AAXX 19004 61045 32965 70000 10140 21015 39630 40131 80008 333 0//00 59012 87280
AAXX 19004 61049 32960 70000 10135 21008 39779 40119 80008 333 0//00 59013 87280
AAXX 19004 61052 32960 53606 10185 20008 39864 40121 80002 333 0//00 59014 85080
AAXX 19004 61075 32960 50000 10167 20027 39807 40106 80002 333 0//00 59008 85080
AAXX 19004 61080 NIL
AAXX 19004 61090 32960 70000 10165 21038 39625 40138 80008 333 0//00 59004 87280
AAXX 19004 61091 NIL
AAXX 19004 61096 NIL
AAXX 19004 61099 31956 73610 10225 21005 39890 40117 7062/ 80008 333 0//00 58003 87280
AAXX 19004 45011 17556 /0113 10128 20071 40234 52012 60002 71010 333 20125 59021 70000
AAXX 19004 41254 36/// /2710 10096 21025 38052 48057 333 0E004 58004
AAXX 19004 41265 36/// /3004 10156 20137 39634 40187 333 0E022 58011
BBXX V7OX3 19004 99277 50480 41998 01708 10230 20183 40050 54000 7//00 80000 22283 04250 21203 308// 40702 5//// 80200
BBXX VRVB5 19004 99379 70749 41598 33511 10030 20112 40260 5/010 70101 82080 22213 00130 2//// 3//// 4//// 80000
AAXX 19004 61202 NIL
AAXX 19004 61214 NIL
AAXX 19004 61223 32960 30204 10145 21010 39836 40150 80002 333 0//00 59018 83075
AAXX 19004 61226 32960 01208 10205 20027 39835 40130 333 0//00 59014
AAXX 19004 61230 32960 30202 10174 21023 39840 40111 81042 333 0//00 59011 81365 83075
AAXX 19004 61233 32960 20404 10168 21027 3//// 4//// 80002 333 0//00 5//// 82075
AAXX 19004 61235 32960 00412 10245 21004 3//// 4//// 333 0//00 5////
AAXX 19004 61240 32960 20000 10176 20017 39805 40131 80002 333 0//00 59004 82075
AAXX 19004 61250 NIL
AAXX 19004 61257 32960 01402 10213 21033 30070 40164 333 0//00 59002
AAXX 19004 61265 32960 00204 10165 20078 39816 40123 333 0//00 59005
AAXX 19004 61270 32960 00000 10200 20035 3//// 4//// 333 0//00 5////
AAXX 19004 61272 32960 00000 10173 20051 39802 40128 333 0//00 59017
AAXX 19004 61277 32960 20406 10197 20059 39798 40117 80002 333 0//00 59004 82075
AAXX 19004 61285 32960 30000 10172 20055 39971 40122 80002 333 0//00 59006 83075
AAXX 19004 61291 32960 00404 10170 20042 39705 40118 333 0//00 59009
AAXX 19004 61293 32960 30404 10200 20077 3//// 4//// 80002 333 0//00 5//// 83075
AAXX 19004 61296 32960 50404 10196 20107 3//// 4//// 80002 333 0//00 5//// 85075
AAXX 19004 61297 32960 70000 10221 20070 3//// 4//// 80002 333 0//00 5//// 87075
AAXX 19001 60394 16/// /1801 10079 20068 60041
AAXX 19001 60374 16/// /3305 10137 20054 60021
AAXX 19001 60613 36/// /2806 10078 20000
AAXX 19001 60376 16/// /3303 10119 20048 60021
AAXX 19001 60593 36/// /0505 10138
BBXX 46204 19001 99514 71288 46/// /1103 10064 40284 52004 22200 00083 11505 70027 333 91204
BBXX VEP717 19004 99467 70487 41296 80530 10015 2001/ 40119 58039 71076 886// 22200 06032 20403 335// 40704 80014
BBXX 46204 19001 99514 71288 46/// /1103 10064 40284 52004 22200 00083 11505 70027 333 91204
AAXX 19001 22165 41496 81108 11023 21026 30029 40091 58020 77074 8802/
AAXX 19001 40608 42960 00000 10036 20015 40286 56005
AAXX 19001 40621 42960 00401 10056 20031 40302 54000
AAXX 19001 40633 42960 03103 10075 20012 40276 54001
AAXX 19001 40645 42960 03203 10055 20003 40275 57007
AAXX 19001 40650 42960 03102 10056 20015 40260 57005
AAXX 19001 40657 42960 00000 10066 20032 40254 53005
AAXX 19001 40665 42960 03002 10082 20050 40247 57017
AAXX 19001 40670 42960 03503 10080 20059 40252 58002
AAXX 19001 40676 42960 02803 10094 20025 40248 50001
AAXX 19001 40689 42960 02705 10084 20033 40243 56001
AAXX 19004 82143 31596 70208 10270 20243 40098 7032/ 85260 222// 80250 333 10/// 58002
AAXX 19004 83117 31697 70601 10220 20191 40091 51026 7032/ 8645/ 222// 02190 80200 333 10250
AAXX 19004 82042 32597 40000 10287 20270 3//// 4//// 82300 333 10336 29082 55081 5////
AAXX 19004 82240 32096 00000 10297 20249 3//// 4//// 333 10344 29072 55086 5////
AAXX 19004 82610 21595 80000 10247 20241 3//// 4//// 70266 887// 333 10339 29089 55026 5//// 60041
AAXX 19004 82807 21294 83602 10244 20242 3//// 4//// 76196 887// 333 10314 29092 55025 5//// 60461
AAXX 19001 35746 429// 00104 11267 21305 30455 40542 52012 555 1/127
AAXX 19001 35849 42998 00502 11249 21268 30428 40526 52015 555 1/123
AAXX 19001 35925 429// 00708 11187 21213 30364 40488 52013 555 1/119
AAXX 19001 35953 429// 03502 11225 21257 30369 40515 52015 555 1/124
AAXX 19001 35969 429// 00000 11275 21313 30292 40491 54000 555 1/128
AAXX 19001 36428 429// 00202 11267 21291 39877 40443 52019 333 95090 555 1/132
AAXX 19001 38001 42997 30508 11030 21133 30371 40340 52007 83030 555 10104
AAXX 19001 38062 429// 00404 11223 21262 30314 40497 52010 555 1/121
AAXX 19001 38069 429// 00106 11234 21259 30261 40477 52012
AAXX 19001 38196 41996 03204 11145 21212 39367 40429 52019 73830
AAXX 19001 38198 429// 00901 11217 21242 30155 40446 52017 555 1/123
AAXX 19001 38232 42998 00806 11078 21151 30290 40396 52010 555 14110
AAXX 19001 38328 419// 00801 11177 21203 39618 40421 52009 71000 555 1/120
AAXX 19001 38334 42998 01104 11182 21232 39373 40431 52013 555 1/123
AAXX 19001 38439 42998 03405 11142 21185 30052 40421 52019 555 14111
BBXX ZDLP 19003 99607 50455 41598 81408 11006 21019 49984 57030 70222 8357/ 22200 04005 20201 31400 40901 5//// 81010 ICE 0/7/0
BBXX ZSAF 19004 99664 50007 41499 72509 11021 21037 49740 52020 70222 875// 22223 05016 2//// 300// 40000 5//// ICE 62610
AAXX 19004 83264 32793 80000 10239 20226 39679 40145 8451/ 333 10325 29087 55027 58010
AAXX 19004 83358 32593 80000 10260 20223 39668 40064 8379/ 333 10330 29075 55050 58012
AAXX 19001 21802 32999 03402 11311 21323 30234 40261 52005 69922 333 21313
AAXX 19001 24125 11998 80000 11341 21353 39921 40236 53004 69932 77172 80007 333 21343 47023
AAXX 19001 24136 32999 00000 11432 21468 30138 40256 52004 333 21434 47024 55000
AAXX 19001 24143 12999 41601 11364 21400 30207 40264 52005 69902 84070 333 21364
AAXX 19001 24266 11997 82001 11377 21405 30057 40259 57001 69942 77177 82036 333 21409 47024
AAXX 19001 24329 11998 50000 11342 21364 39904 40243 58003 69962 70271 82011 333 21380 47028 55000
AAXX 19001 24343 11998 61301 11386 21413 30126 40264 52001 69922 72272 80006 333 21387 47058 55000
AAXX 19001 24382 11999 50000 11336 21359 39957 40239 53004 69900 70272 82031 333 21285 47009 55000
AAXX 19001 24639 11998 80000 11376 21405 30050 40225 57006 69922 77172 80007 333 21376 40724 55000
AAXX 19001 24641 11998 60601 11387 21420 30076 40241 57003 69902 77171 80008 333 21415 47035 55000
AAXX 19001 24652 11997 80000 11381 21409 30125 40267 58007 69942 77172 80007 333 21397 47040
AAXX 19001 24656 11999 10000 11446 21475 30158 40280 57003 69902 70271 80001 333 21446 47044
AAXX 19001 24671 11999 33501 11400 21427 39709 40295 52002 69900 70271 80001 333 21375 47022 55000
AAXX 19001 24688 32999 60000 11422 21455 39265 40328 58001 86031 333 21447 47017 55000
AAXX 19001 24724 11997 80802 11271 21294 39617 40194 56005 69922 77171 8802/ 333 21274 48052 55000 93571
AAXX 19001 24738 11998 80000 11352 21367 30011 40210 57008 69932 70272 80001 333 21352 47024 55000
AAXX 19001 24768 11997 50000 11434 21470 30006 40281 58002 69972 70272 80001 333 21443 47028
AAXX 19001 24923 11595 82503 11166 21192 39871 40194 57014 60012 77372 885// 333 21175 47041 88622
AAXX 19001 24944 11996 80201 11293 21311 39909 40232 57005 69992 72272 84031 333 21299 47030 55000
AAXX 19001 24951 32999 00901 11351 21374 30061 40251 57006 333 21363 47016
AAXX 19001 24661 12999 10000 11426 21461 39971 40283 58002 69922 81030 333 21428 48049
AAXX 19001 24959 11992 80000 11393 21422 30114 40264 58006 69902 74874 80007 333 21393 47024 55000
AAXX 19001 24962 11996 50000 11455 21476 30064 40287 53001 69902 71022 80001 333 21457 47021 55000
AAXX 19001 24966 11999 30000 11410 21431 30023 40277 54000 69920 70271 80001 333 21410 47028 55028
AAXX 19001 24967 32999 20000 11442 21475 30045 40306 54000 80001 333 21442 47028
AAXX 19001 25206 11498 82102 11247 21271 30179 40209 54000 69930 77177 84537 333 21270 47026
AAXX 19001 25400 11998 80000 11237 21261 30156 40217 52002 69920 77172 8802/ 333 21265 48019 55000
AAXX 19001 30054 11596 82003 11145 21172 39965 40217 57015 60022 78582 84907 333 21161 47048
AAXX 19001 30089 11997 80000 11250 21267 30003 40247 57007 69972 77172 8801/ 333 21323 47028
AAXX 19001 30393 12999 60000 11362 21384 39150 40342 57003 69922 82031 333 21364 47020
AAXX 19001 30493 11699 10000 11324 21348 39149 40325 54000 69922 70271 81500 333 21331 47011 55024
AAXX 19001 31004 11999 72201 11264 21282 39349 40263 57003 69902 70272 82031 333 21275 47043 55011
AAXX 19001 31137 11998 80000 11449 21471 39154 40380 58004 69902 77172 80005 333 21451 47024
AAXX 19004 82106 32997 00000 10272 20254 3//// 4//// 333 10350 29083 55077 5////
AAXX 19004 82113 31695 60000 10262 20248 3//// 4//// 71322 83440 333 10315 29090 55008 5////
AAXX 19004 82212 32797 40000 10280 20236 30014 40098 84030 333 10335 29084 55073 59009
AAXX 19004 82336 31596 81804 10286 20264 3//// 4//// 71311 84370 333 10324 29085 55034 5////
AAXX 19004 82425 32193 81803 10252 20234 3//// 4//// 887// 333 10278 29086 55/// 5////
AAXX 19004 82533 21195 80000 10238 20233 3//// 4//// 70366 887// 333 10278 29094 55000 5//// 60021
AAXX 19004 82704 21694 80000 10241 20230 39852 40046 70362 885// 333 10318 29086 55019 58012 60231
AAXX 19004 91650 NIL
AAXX 19004 91652 NIL
AAXX 19004 91656 NIL
AAXX 19004 91659 11598 81103 10269 2024/ 40090 50000 60031 79529 8597/ 333 20243 5699/ 70171 84830 83645 86460
AAXX 19004 91660 NIL
AAXX 19004 91669 36/// /2805 10245 2//// 40101 52002 90015 333 20245
AAXX 19004 91670 36/// /3100 10259 20228 40094
AAXX 19004 91676 14/// /0305 10299 20249 30019 40079 50008 60001 333 20256
AAXX 19004 91680 11596 83509 10235 20222 40101 58010 60411 76396 8687/ 333 20244 5699/ 70462 85825 86645 88460
AAXX 19004 91682 NIL
AAXX 19004 91683 11498 83406 10252 20248 40092 58007 60011 78088 8687/ 333 20245 5699/ 70011 85818 84645 88461
AAXX 19004 91691 14/// /0103 10282 20252 30087 40090 55010 60021 333 20255
AAXX 19004 91693 NIL
AAXX 19004 91697 14/// /2505 10244 20232 30083 40088 55014 60241 333 20242
AAXX 19004 91699 14/// /0203 10238 20234 30068 40100 55013 60331 333 20227
AAXX 19004 41254 36/// /2710 10096 21025 38052 48057 333 0E004 58004
AAXX 19001 30157 11996 81902 11129 21149 39935 40231 57021 60032 77172 8802/ 333 21148 47033
BBXX VNAH 19004 99333 31157 46/// /1404 10199 20091 30116 40139 52013 22200 85137
BBXX VREN5 19003 99395 31729 41598 41226 10140 20080 40150 57020 70200 84165 22283 20410 314// 40610 80110
AAXX 19001 35746 429// 00104 11267 21305 30455 40542 52012 555 1/127
AAXX 19001 35849 42998 00502 11249 21268 30428 40526 52015 555 1/123
AAXX 19001 35925 429// 00708 11187 21213 30364 40488 52013 555 1/119
AAXX 19001 35953 429// 03502 11225 21257 30369 40515 52015 555 1/124
AAXX 19001 35969 429// 00000 11275 21313 30292 40491 54000 555 1/128
AAXX 19001 36428 429// 00202 11267 21291 39877 40443 52019 333 95090 555 1/132
AAXX 19001 38001 42997 30508 11030 21133 30371 40340 52007 83030 555 10104
AAXX 19001 38062 429// 00404 11223 21262 30314 40497 52010 555 1/121
AAXX 19001 38069 429// 00106 11234 21259 30261 40477 52012
AAXX 19001 38196 41996 03204 11145 21212 39367 40429 52019 73830
AAXX 19001 38198 429// 00901 11217 21242 30155 40446 52017 555 1/123
AAXX 19001 38232 42998 00806 11078 21151 30290 40396 52010 555 14110
AAXX 19001 38328 419// 00801 11177 21203 39618 40421 52009 71000 555 1/120
AAXX 19001 38334 42998 01104 11182 21232 39373 40431 52013 555 1/123
AAXX 19001 38439 42998 03405 11142 21185 30052 40421 52019 555 14111
BBXX VNAH 19004 99333 31157 46/// /1404 10199 20091 30116 40139 52013 22200 85137
BBXX VREN5 19003 99395 31729 41598 41226 10140 20080 40150 57020 70200 84165 22283 20410 314// 40610 80110
AAXX 19003 67775 42580 11206 10152 20136 38516 48520 81500 333 81625
AAXX 19004 67765 NIL
AAXX 19004 67775 42580 11206 10152 20136 38516 48520 81500 333 59001 81625
AAXX 19004 67779 NIL
AAXX 19004 67853 NIL
AAXX 19004 67861 NIL
AAXX 19004 67867 NIL
AAXX 19004 67881 NIL
AAXX 19004 67965 NIL
AAXX 19004 67975 NIL
AAXX 19004 67977 NIL
AAXX 19004 67983 NIL
AAXX 19004 67991 NIL
BBXX 44039 19001 99411 70727 46/// /3405 11011 21135 40265 51016 90000 22200 00095 10201 70004 333 91207
BBXX 44060 19001 99413 70721 46/// ///06 11026 40258 90015 22200 00105 333 91207 555 11057 22062
BBXX 44034 19001 99441 70681 46/30 /3608 11054 40235 51019 90004 22200 00086 10502 70010 333 91210 555 11095 22098
BBXX 44022 19001 99409 70737 46/// ///03 11014 21124 40263 90015 22200 00082 333 91204 555 11026 22026
BBXX 44029 19001 99425 70706 46/30 /3108 11027 40244 52019 90004 22200 00088 10603 70013 333 91210 555 11093 22096
BBXX 44030 19001 99432 70704 46/// /3406 1//// 40246 51019 90004 22200 00083 10603 70014 333 91208 555 11076 22080
BBXX 44032 19001 99437 70694 46/30 /3608 11047 40238 51017 90004 22200 00087 10401 70007 333 91209 555 11088 22092
BBXX 46088 19001 99483 71232 46/// /0203 10078 40270 90020 22200 00079 11101 325// 41101 70003 333 91204 555 11029 22031 30019 40106 60019 018029 024036 021042 019044 016050 013053
BBXX 46087 19001 99485 71247 46/// /1002 10082 20081 40273 90020 22200 00078 333 91204 555 11023 22027 30017 41004 60019 101019 109016 138014 141013 134018 126018
BBXX 41036 19001 99342 70770 46/// ///// 10093 21016 40282 90020 22200 00164
BBXX WDJK 19004 99422 71258 41598 70230 10110 20072 40280 54000 70222 8748/ 22243 00110 20502 330// 41109 5//// 6//// 80090 ICE /////
BBXX WDE2719 19003 99607 71514 41/96 81310 10006 2//// 49730 57/// 761// 8//// 222// 01011 2//01 322// 4//01 5//// 6//// 8//// ICE /////
BBXX WHKM 19004 99235 10370 41498 53015 10210 20195 40150 54/// 70511 858// 22233 0//// 20202 327// 40503 5//// 6//// 80200 ICE /////
BBXX A8VL5 19004 99163 10411 41/98 /0908 10250 20228 40250 50/// 7//// 8//// 22285 00260 2//01 80234
BBXX PHOB 19004 99071 10767 41397 70425 10270 20243 40080 55013 70211 86778 22224 00265 20406 3//// 4//// 5//// 80250
BBXX DGXS 19004 99183 11134 41397 70823 10232 20171 40160 53020 70122 867/8 22284 00250 20809 3//// 4//// 5//// 80192
BBXX DDZI2 19003 99262 11220 41598 80434 10160 20088 40250 52010 70222 887// 22215 00220 20806 80120
BBXX A8XD5 19004 99422 11685 41297 52106 10080 20038 40020 57000 70322 8/782 22223 2//// 327// 40808 80060
BBXX V7QN8 19003 99311 11226 41296 20010 10070 2003/ 40310 55/// 70122 82229 22200 04080 20601 300// 40601 5//// 6//// 80050 ICE /////
BBXX C6YA7 19004 99105 11259 41898 30915 10275 2023/ 40090 54000 70311 831// 22263 00290 20401 335// 41002 5//// 6//// 80245 ICE /////
BBXX WCX8882 19004 99314 11281 41698 63424 10140 2006/ 40270 54000 7//22 861// 22200 00210 20606 302// 41004 5//// 6//// 80100 ICE /////
BBXX A8UD6 19001 99277 11437 41297 83313 10150 20141 40200 54000 76162 887// 22274 20604 333// 41004 5//// 80145
BBXX UICN 19000 99478 11414 41595 83110 11066 40155 54000 77277 8421/ 22233 20603
BBXX UFLC 19000 99436 11355 42798 33108 11104 40247 54000 80084 22252 06012 20201
BBXX UCDN 19000 99581 11476 42999 00104 11050 40053 54053 70200 22213 06040 20201
BBXX V7OX3 19004 99277 50480 41998 01708 10230 20183 40050 54000 7//00 80000 22283 04250 21203 308// 40702 5//// 80200
BBXX C6TZ9 19004 99243 50458 415// 70521 10240 20211 40120 54/// 7//11 87393 22212 00250 2//// 3//// 4//// 5//// 6//// 80220 ICE /////
BBXX SHIP 19003 99137 50771 41598 41613 10220 20190 40120 55010 70311 82/78 22234 04180 2//// 80234
BBXX C6XQ2 19003 99329 50517 41498 62618 10202 20171 40053 54000 70111 8554/ 22213 04210 20402 307// 40602 5//// 80183
BBXX 46204 19001 99514 71288 46/// /1103 10064 40284 52004 22200 00083 11505 70027 333 91204
BBXX 46131 19001 99499 71250 46/// /3204 1//// 40281 52016 22200 00078 10300 70002 333 91205
BBXX VRVB5 19004 99379 70749 41598 33511 10030 20112 40260 5/010 70101 82080 22213 00130 2//// 3//// 4//// 80000
BBXX 46145 19001 99544 71324 46/// /1612 10062 40193 57027 22200 00071 11404 70022 333 91214
BBXX A8EH3 19003 99500 71285 41597 43410 10090 40285 54000 701// 848// 22234 04080 29901
BBXX C6CU6 19003 99306 70536 41497 12803 10210 20178 40147 55002 70100 811// 22263 04220 20906 310// 41206 5//// 80190
BBXX 46183 19001 99536 71311 46/// /1511 1//// 4//// 5//// 22200 0//// 1//// 70/// 333 912//
BBXX 46147 19001 99518 71312 46/// /1907 10071 40255 57007 22200 00081 11407 70034 333 91209
BBXX A8IH2 19003 99269 71380 41598 61120 10220 20101 40240 54000 76011 8/4// 22214 06220 20403 32524 40704 50302 80150
BBXX SHIP 19004 99227 71580 41497 50725 10238 20184 40176 57020 71581 84360 22200 04239 20404 31203 40704 50704
BBXX A8SF7 19001 99208 70740 41597 20709 10250 20195 40180 52005 72161 8159/ 22244 04250 21202 3//// 4//// 5//// 80212
BBXX 46088 19001 99483 71232 46/// /0203 10078 40270 90020 22200 00079 11101 325// 41101 70003 333 91204 555 11029 22031 30019 40106 60019 018029 024036 021042 019044 016050 013053
BBXX 51205 19001 99210 71564 46/// ///// 1//// 90018 22200 00244 10805 20804 333// 41303 70025
BBXX 46114 19001 99364 71222 46/// ///// 1//// 90004 22200 00124 11505 21002 330// 41505 70027
BBXX 44098 19001 99428 70702 46/// ///// 1//// 90007 22200 00090 10603 20603 310// 41101 70013
BBXX 41114 19001 99276 70802 46/// ///// 1//// 90016 22200 00242 11202 21002 307// 41201 70012
BBXX 42364 19001 99291 70881 46/// /0406 10150 20072 40264 90015
BBXX 41115 19001 99184 70673 46/// ///// 1//// 90005 22200 11204 21003 302// 41202 70018
BBXX 42364 19001 99291 70881 46/// /0505 10150 20072 40264 55000 90000
BBXX 42363 19001 99282 70892 46/// /0907 10167 20078 40264 90015 333 91208
BBXX 46221 19001 99339 71186 46/// ///// 1//// 92345 22200 00153 11401 21001 325// 41401 70006
BBXX 46211 19001 99469 71242 46/// ///// 1//// 90006 22200 00084 11707 21005 328// 41705 70036
BBXX 46231 19001 99327 71174 46/// ///// 1//// 92354 22200 00148 11802 20801 328// 41802 70009
BBXX 46222 19001 99336 71183 46/// ///// 1//// 92356 22200 00154 11701 21001 328// 41701 70007
BBXX 46223 19001 99335 71178 46/// ///// 1//// 90000 22200 00154 11402 20801 328// 41402 70009
BBXX 46212 19001 99408 71243 46/// ///// 1//// 90012 22200 00098 11506 21002 330// 41506 70030
BBXX 46216 19001 99343 71198 46/// ///// 1//// 92357 22200 00145 10603 20603 326// 41401 70017
BBXX 46217 19001 99342 71194 46/// ///// 1//// 90012 22200 00145 10603 20603 325// 41701 70016
BBXX 46237 19001 99378 71226 46/// ///// 1//// 90010 22200 00112 11405 21002 326// 41404 70023
BBXX 46240 19001 99366 71219 46/// ///// 1//// 90012 22200 00123 11202 21001 335// 41202 70011
BBXX 46241 19001 99330 71173 46/// ///// 1//// 92341 22200 00145 11401 21001 327// 41401 70006
BBXX 46244 19001 99409 71244 46/// ///// 1//// 90005 22200 00098 11506 21003 331// 41506 70031
BBXX 46248 19001 99461 71247 46/// ///// 1//// 90004 22200 00096 11508 20905 329// 41506 70038
BBXX 42085 19001 99179 70665 46/// /0406 10262 40145 92340 333 91209
BBXX 42085 19001 99179 70665 46/// /0506 10261 40148 92350 333 91207
BBXX WDJK 19004 99422 71258 41598 70230 10110 20072 40280 54000 70222 8748/ 22243 00110 20502 330// 41109 5//// 6//// 80090 ICE /////
BBXX C6FT7 19003 99178 70629 41399 30219 10256 2018/ 40150 5//// 7//00 838// 22232 00160 2//// 3//// 4//// 5//// 6//// 80209 ICE /////
BBXX WE3592 19004 99442 70827 41/// 82020 10011 2//// 40159 5//// 70222 8//// 22273 00061 2//// 3//// 4//// 5//// 6//// 8//// ICE /////
BBXX C6KJ5 19004 99285 70934 41497 60914 10170 2010/ 40250 54010 70322 86890 22233 00212 80130
BBXX SHIP 19004 99549 71563 41598 72543 10070 20001 49917 52057 70324 8775/ 90000 22262 00060 21010 325// 41217 80040
BBXX WDE9586 19003 99364 71567 41398 51923 10200 2017/ 40200 58010 7//22 8511/ 22214 00180 20404 320// 40805 5//// 6//// 80180 ICE /////
BBXX SHIP 19004 99298 71517 41498 50922 10220 2017/ 40260 56010 71611 8544/ 22263 00240 20503 329// 40804 5//// 6//// 80190 ICE /////
BBXX 46207 19001 99509 71299 46/// /2306 10074 40276 52001 22200 00082 11406 70029 333 91207
BBXX 42085 19001 99179 70665 46/// /0506 10260 40149 53022 90000 22200 00281 10602 70010 333 91208
BBXX NWS0022 19004 99416 70714 43/// /3106 11030 21129 40253 5//// 7//// 8//// 222// 04105 2//// 3//// 4//// 5//// 6//// 8//// ICE /////
BBXX 46112 19001 99481 71227 46/// /1201 10079 40273 51019 90000
BBXX 46111 19001 99481 71227 46/// /0302 10080 40271 51017 90000 22200 00057
BBXX 41029 19001 99328 70796 46/// /0503 1//// 90000 555 11045 22053
BBXX 44033 19001 99441 70690 46/30 /3508 11050 40243 51016 90004 22200 00078 10301 70006 333 91210 555 11096 22100
BBXX 44067 19001 99384 70770 46/// /3603 10049 40273 51023 90000
BBXX SHIP 19004 99261 31057 41797 81317 10211 20153 40153 52016 70322 884// 22232 00227 10904 20101 313// 40603 85174
BBXX SHIP 19004 99028 11430 41098 50905 10290 20277 40075 54000 7021/ 82383 22283 00330 20100 305// 40504 80280
BBXX AVMI 19003 99257 31546 41298 70514 10250 20/// 40234 56008 70322 85228 22271 00270
BBXX A8RV7 19004 99249 31538 41698 51117 10235 20149 40140 55010 70311 85178 22284 21004 31011 41204 50502 80180
BBXX PHJV 19003 99085 31281 41598 43016 10305 20258 40067 51014 70311 83165 22263 02322 20102 336// 40102 80270
BBXX DDYZ2 19004 99409 70098 41597 30527 10160 20127 40275 51/// 70211 83978 22213 20310 30533 40310 50310 80140
BBXX DDBR2 19004 99425 10103 41/98 20416 10090 20032 40095 53020 70200 8//// 22274 20301 331// 40701 5//// 80065
BBXX DEGI 19003 99364 10131 41/98 43112 10149 20147 40108 54000 70311 84404 22273 04182 29902 80148
BBXX AMOUK09 19004 99507 10010 46/// ///// 10038 21007 30174 40190 52010 92350
BBXX 63119 19004 99583 10009 41/97 /3220 10049 21027 40085 51/// 700// 8//// 22200 2//// 334// 40505 5////
BBXX 62103 19004 99499 70029 46/// /3417 10085 20026 40202 57007 22200 00120 10703 70014
BBXX MDTE9 19003 99411 70315 41998 32317 10172 20162 40300 51008 70111 80008 22223 00160 20503 3//// 4//// 5//// 80166
BBXX 62095 19004 99531 70159 46/// /2416 10114 20105 40142 57017 22200 00113 10706 70031 333 90710 91128
BBXX TBWUK03 19003 99421 70109 41498 20613 10121 20052 40311 54000 70200 81140 22243 20501 305// 40803 5//// 80086
BBXX 62094 19004 99517 70067 46/// /2813 10087 20048 40204 57011 22200 00106 10503 70015
BBXX 62103 19004 99499 70029 46/// /3520 10084 20023 40206 50001 22200 00120 10703 70015 333 90710 91125
BBXX 62107 19004 99501 70061 46/// /3114 10094 20036 40225 58005 22200 00114 10703 70014 333 90710 91125
BBXX A8IY4 19001 99413 70252 41/98 12705 10188 20172 40300 53010 70200 81/// 22254 00158 2//01 80178
BBXX TBWUK35 19004 99482 70117 41/98 82618 10110 20056 40253 57030 70222 88/// 22284 00140 20604 80085
BBXX 2AAY7 19004 99568 10002 41397 13016 10060 20031 40143 54000 70300 81/00 22232 20604 326// 40504 80048
BBXX 62123 19004 99563 10022 47599 /2918 10055 20002 40106 50003 700// 22200
BBXX 62165 19004 99540 10009 47999 /2812 10047 21025 40157 58001 700// 22200 10705 70027
BBXX AMOUK06 19004 99512 10014 46/// ///// 10021 21001 30161 40179 52007 92350
BBXX AMOUK19 19004 99590 70030 46/// ///// 10031 21033 30113 40116 52006 92350
BBXX AMOUK12 19004 99533 70060 46/// ///// 10056 20031 30151 40190 57012 92350
BBXX 62118 19004 99577 10009 47598 /3313 10050 20002 40096 57002 700// 22200 10906 70030
BBXX 62143 19004 99577 10018 47498 /3110 10042 20010 40102 52001 700// 22200 10706 70032
BBXX 62116 19004 99576 10011 47597 /3209 10054 21001 40100 58002 700// 22200 10806 70029
BBXX 62117 19004 99579 10000 47699 /3307 10049 21004 40106 52001 700// 22200 10705 70023
BBXX 62155 19004 99577 10007 47599 /3315 10044 20004 40104 57002 751// 22200 10806 70028
BBXX 62153 19004 99573 10020 47599 /3115 10052 20002 40099 55002 700// 22200 10807 70037
BBXX 62104 19004 99574 10013 47598 /3009 10050 21006 40100 54000 700// 22200
BBXX 62102 19004 99579 10018 46/// /3217 10056 21003 40094 51002 22200 10706 70029
BBXX 62134 19004 99580 10014 47698 /3212 10051 20001 40096 57002 700// 22200 10807 70037
BBXX 62114 19004 99583 10000 46/// /3313 10048 21020 40104 58001 22200
BBXX 62113 19004 99584 10002 47698 /3415 10054 21033 40096 58004 700// 22200
BBXX ZQSD5 19004 99583 10007 46/// /3219 10054 21030 40103 58002 22200 10907 70036
BBXX 62150 19004 99536 10007 47998 /2814 10033 21025 40168 50001 700// 22200 10704 70022
BBXX 62129 19004 99584 10003 46/// ///// 10051 21018 40094 58004 22200
BBXX 62128 19004 99587 10014 47698 /3119 10042 21039 40095 50001 700// 22200 10706 70031
BBXX 62148 19004 99536 10015 46/// /2916 10046 21015 40158 51008 22200
BBXX 62131 19004 99539 10012 46/// /30// 10048 21017 40152 51005 22200
BBXX 62149 19004 99537 10011 47999 /2913 10043 21014 40157 51007 700// 22200 10605 70024
BBXX 62142 19004 99530 10021 47498 /3218 10050 21000 40150 52008 700// 22200 10505 70024
BBXX 62145 19004 99531 10028 47598 /3019 10055 21006 40156 53013 700// 22200 10605 70027
BBXX MWYG6 19004 99603 70040 47998 /3007 10044 700// 22200
BBXX IDDUK02 19004 99607 50456 46/// ///// 49969 222//
BBXX 64041 19004 99607 70026 47598 /3012 10027 21028 40096 58007 700// 22200 10807 70035
BBXX 62132 19004 99564 10020 46/// /3215 10053 21003 40114 57009 22200
BBXX 62127 19004 99540 10007 47999 ///// 10035 21029 40155 50003 700// 22200 10705 70025
BBXX 62121 19004 99535 10027 46/// ///// 22200
BBXX 62152 19004 99570 10018 46/// /3314 10051 21001 40106 58001 22200 10606 70031
BBXX 62120 19004 99564 10021 47998 /3017 10049 21010 40106 58004 700// 22200
BBXX 62144 19004 99534 10017 47998 /3014 10046 21009 40156 52009 700// 22200 10505 70024
BBXX 62154 19004 99564 10022 46/// /3015 10049 21005 40103 50003 22200
BBXX 62119 19004 99570 10019 46/// ///// 22200
BBXX 62164 19004 99572 10008 47598 /2709 10067 20014 40107 57002 700// 22200 00095 10806 70029
BBXX 62133 19004 99571 10009 46/// /3010 10065 21019 40107 56002 22200 1//05 70027
BBXX PJGO 19004 99571 10022 47599 /3017 10053 20003 40100 52003 700// 22200
BBXX 62146 19004 99572 10021 47/99 /3217 10049 21010 40099 55000 700// 22200 10807 70033
BBXX 62140 19004 99573 10013 46/// /34// 10050 21002 40101 54000 22200
BBXX 62122 19004 99573 10016 47599 /3011 10052 21003 40100 55000 700// 22200 10706 70031
BBXX 63115 19004 99616 10013 47598 /3015 10032 21015 40058 50000 700// 22200 10708 70040
BBXX 63117 19004 99613 10011 47598 /3219 10042 21012 40059 51001 700// 22200
BBXX 63104 19004 99612 10016 47598 /3119 10044 21010 40053 51002 700// 22200
BBXX 63103 19004 99612 10011 46/// /3321 10035 21031 40064 51002 22200 10807 70036
BBXX 63101 19004 99612 10009 46/// /3518 10046 21011 40061 50001 22200
BBXX 63106 19004 99610 10017 46/// /3121 10035 40055 51003 22200
BBXX 63107 19004 99611 10017 46/// /3120 10038 40053 51003 22200
BBXX 63112 19004 99611 10010 47498 /3317 10035 21031 40060 51003 700// 22200 10807 70037
BBXX 63113 19004 99610 10017 46/// /3319 10037 21012 40058 57001 22200 10808 70040
BBXX 63105 19004 99610 10017 47598 ///// 10047 21017 40054 51003 700// 22200
BBXX 63108 19004 99608 10017 47698 /3318 10045 21010 40053 51002 700// 22200 10808 70038
BBXX AMOUK11 19004 99533 70051 46/// ///// 10075 20048 30141 40188 57011 92350
BBXX 63110 19004 99595 10015 47598 /3117 10054 20000 40075 50000 700// 22200 10807 70035
BBXX AMOUK08 19004 99501 70061 46/// ///// 10097 20048 30220 40225 57005 92350
BBXX 63057 19004 99592 10015 46/// ///// 22200
BBXX 62112 19004 99584 70002 47698 /3416 10046 21007 40103 58002 700// 22200
BBXX 63056 19004 99597 10016 47598 /3118 10040 21005 40061 50000 700// 22200 10706 70031
BBXX 62111 19004 99580 70003 46/// /0113 10050 20001 40108 56002 22200 10705 70026
BBXX PJAI 19004 99581 70014 47699 /3603 10051 21011 40111 50001 700// 22200
BBXX 63055 19004 99606 10016 47796 /3015 10033 21005 40063 51003 704// 22200 10707 70034
BBXX AMOUK03 19004 99530 10012 46/// ///// 10040 20000 30131 40162 54002 92350
BBXX AMOUK05 19004 99532 10008 46/// ///// 10030 21022 30119 40156 54002 92350
BBXX 62304 19004 99511 10018 46/98 /3117 10041 21004 40183 53009 22200 00112 10602 70011
BBXX 62305 19004 99504 10000 46/98 /3417 10052 21023 40209 53011 22200 00117 10602 70009
BBXX AMOUK16 19004 99521 70051 46/// ///// 10077 20042 30193 40197 57008 92350
BBXX AMOUK13 19004 99519 10013 46/// ///// 10011 21023 30169 40177 52011 92350
BBXX 64046 19004 99605 70049 46/// /3207 10040 21045 40106 57014 22200 00076 10806 70031
BBXX 62001 19004 99452 70050 46/// /2808 10112 20059 40268 56002 22200 00143 10705 70024 333 90710 91128
BBXX AMOUK27 19004 99582 70064 46/// ///// 11177 2//// 30120 40124 57006 92350
BBXX AMOUK10 19004 99508 10003 46/// ///// 1//// 2//// 30196 40193 52010 92350
BBXX AMOUK14 19004 99535 70031 46/// ///// 10053 20037 30134 40166 57007 92350
BBXX 62027 19004 99491 70022 46/// /3616 1//// 2//// 40210 52001 22200 00114 10603 329// 70017
BBXX 62303 19004 99516 70051 46/// /3112 10089 20043 40198 58010 22200 00111 10503 70014
BBXX 62301 19004 99524 70047 46/// /3014 10079 20044 40186 56010 22200 00091 10403 70015
BBXX 62442 19004 99490 70164 46/// /2023 1//// 2//// 40210 58024 22200 00127 333 90710 91131
BBXX 62163 19004 99475 70084 46/// /3009 10104 20058 40266 56006 22200 00128 10704 70022
BBXX 62029 19004 99487 70125 46/// /2418 10113 20061 40248 57015 22200 00130 10705 70024
BBXX 62105 19004 99554 70121 46/// /2222 10099 20094 40094 57042 22200 00106 10706 70028 333 90710 91129
BBXX 62081 19004 99510 70134 46/// ///// 10111 20070 40194 58029 22200 00120 10606 70028
BBXX 64045 19004 99591 70117 46/// /1720 10075 20057 40054 58039 22200 00101 10706 70029 333 90710 91128
BBXX 62170 19004 99514 10020 46/98 /3123 10045 20009 40176 52017 22200 00107 10602 70012 333 90710 91128
BBXX 62123 19004 99563 10022 41/98 /2920 10055 20001 40133 52021 7//// 8//// 22200 20604 330// 40606 5////
BBXX DGUG2 19004 99394 70132 41699 11012 10150 20053 40295 51014 70200 8/200 22254 04170 20402 30000 80100
BBXX BATFR27 19004 99506 70011 46/// /3110 10070 20024 40196 50003 22242 00092
BBXX BATFR09 19004 99467 70031 46/// /3121 10097 20047 40232 58013 22213 00147
BBXX BATFR04 19004 99598 70106 46/// /1626 10072 20042 40060 58041 22200 00100
BBXX BATFR16 19004 99462 70073 44698 33317 10112 20044 40264 50003 70200 833// 22264 00147 21004 332// 41004 5////
BBXX BATFR03 19004 99495 70004 46/// /0021 10070 21002 40201 22282
BBXX A8AX3 19003 99322 70118 41/// /0504 7//// 8//// 22274 2////
BBXX PBBB 19003 99487 70135 41/98 /2311 10127 20057 40239 58019 7//11 8//// 22253 00125 20304 3//// 4//// 5//// 80091
BBXX A8XY2 19004 99499 70095 41/97 /2520 10105 20019 40230 54000 70322 8//// 22254 04110 20504 80065
BBXX BATUK01 19004 99583 70062 44596 42410 10037 21006 40117 58021 70211 8414/ 22200 00105 20402 304// 41002 5////
BBXX BATFR46 19004 99362 70048 44995 20311 10139 20059 40237 52006 72111 82122 22253 00157 20510
BBXX 61002 19004 99421 10047 46/// ///34 10091 2//// 40190 57002 22200 00141 10808 70038 555 1/043
BBXX BATFR60 19004 99504 70005 46/// /3218 10055 21021 40204 53023 22253 00109
BBXX BATEU03 19004 99544 70097 46/// /2118 10085 20067 40146 56030 22222 00099
BBXX BATFR41 19004 99411 10012 46/// ///// 10057 21022 40233 51009 22200
BBXX BATFR54 19004 99462 70020 46/// /2817 10090 20047 40236 57016 22272 00135
BBXX BATFR22 19004 99430 10074 46/// /3219 10097 40132 55012 22224 00142
BBXX BATFR42 19004 99463 70046 46/// /3222 10105 20057 40241 58012 222// 00142
BBXX BATFR12 19004 99483 70073 46/// /3114 10104 20062 40252 58004 22200 00142
BBXX BATEU04 19004 99573 10107 46/// /2916 10029 21013 49977 22242
BBXX 61001 19004 99434 10078 46/// /0518 10114 21043 40124 52012 22200 00149 10603 70017 555 1/026
BBXX BATFR21 19004 99428 10070 46/// /3320 40125 51025 22263
BBXX BATFR32 19004 99430 10080 46/// /0922 10110 21017 40118 53014 7//// 8//// 22264 00146
BBXX BATEU08 19004 99618 70301 46/// /2235 10002 21027 49939 55005 22261
BBXX BAREU58 19004 99379 10236 46/// ///// 40147 22200
BBXX LF3N 19004 99653 10073 41598 70513 10049 21023 49983 52001 70222 87/// 22200 00088 10804 70018
BBXX LF5T 19004 99660 10081 41698 /0413 10048 21027 49986 52001 700// 22200 10803 70017 333 91121
BBXX LF4C 19004 99584 10019 43/// /3217 10054 21027 40089 54000 22200 10807 70037 333 91125
BBXX LF4B 19004 99606 10037 47/98 /3222 10047 40040 52003 781// 22200 00053 10809 70043 333 91130
BBXX LF3F 19004 99643 10078 43/// /0412 10042 21020 49976 52004 22200 04084 10805 70025 333 91116
BBXX 3ERR2 19004 99635 10053 43/// /3216 10055 20046 49965 54000 22200 10908 70040 333 91129
BBXX C6WK7 19004 99358 70066 41998 00324 10120 2//// 40240 54000 702// 80000 22255 0//// 20202 303// 40504 5//// 6//// 8//// ICE /////
AAXX 19001 40001 32970 00207 10034 20013 40292 58001
AAXX 19001 40007 32560 60603 10074 20044 40290 56005 83550 333 83630 86360
AAXX 19001 40025 32960 00203 10110 20045 40231 57004
AAXX 19001 40045 32970 02503 10030 20020 40287 53004
AAXX 19001 40061 32970 00000 10040 20020 40276 54000
AAXX 19001 40080 31558 30000 10031 20002 39537 40257 52004 71000 83700 333 83730
AAXX 19001 40087 NIL
AAXX 19001 40095 NIL
AAXX 19004 40153 12960 31015 10113 21006 39153 48549 57001 60001 83080
AAXX 19004 40179 12960 00903 10108 20043 30151 40189 57009 60001
AAXX 19004 40180 12960 69901 10142 20014 30142 40191 58009 60001 80006
AAXX 19004 40190 16/// ///// 10130 21002 39861 40195 57003 60001
AAXX 19004 40199 12965 00504 10156 20005 30151 40174 57006 60001
AAXX 19001 40009 NIL
AAXX 19001 40016 NIL
AAXX 19001 40022 32965 00202 10122 20062 40228 56005 222// 20000
AAXX 19001 40030 31960 00000 10044 20034 40272 56005 71000
AAXX 19001 40039 32970 00000 10017 20006 40282 54001
AAXX 19001 40066 32970 00604 10090 20047 40222 56006
AAXX 19001 40072 NIL
AAXX 19001 40083 32970 01201 10035 21030 48544 56002
AAXX 19004 42309 31995 00000 10108 20100 40165 70500 333 58019
AAXX 19004 42314 31595 40000 10108 20096 40169 70500 81530 333 59011 81620 84360
AAXX 19004 42410 31495 30000 10116 20116 40164 70500 81530 333 59010 81618 83359
AAXX 19004 42415 31995 10000 10114 20106 40185 71000 81030 333 59006 81360
AAXX 19004 42623 31395 10000 10036 20031 39280 40203 74200 81600 333 59005 81708
AAXX 19004 42724 21993 00000 10132 20125 40162 74240 333 59004 6990/
AAXX 19004 42886 31995 00000 10106 20086 40165 70500 333 59003
AAXX 19004 42895 31995 03602 10114 20073 40160 70500 333 59003
AAXX 19004 42971 31994 00000 10146 20124 40152 71000 333 59004
AAXX 19004 42398 NIL
AAXX 19004 42492 NIL
AAXX 19004 42587 NIL
AAXX 19004 42591 NIL
AAXX 19004 42701 NIL
AAXX 19004 42706 NIL
AAXX 19004 42798 NIL
AAXX 19004 42809 NIL
AAXX 19004 42977 NIL
AAXX 19004 43333 NIL
AAXX 19004 43368 NIL
AAXX 19001 55299 32980 00000 11191 21274 35845 52016 333 00051
AAXX 19001 55591 32980 00000 11064 21200 36507 52022 333 05151
AAXX 19001 56739 32580 10201 10039 20018 38374 52008 81400 333 05100 31001
AAXX 19001 56951 32680 20000 10058 20043 38531 52006 82400 333 05200 30025
AAXX 19001 56964 32568 81601 10121 20084 38745 40199 52008 884// 333 05151
AAXX 19001 57328 31858 80000 10060 20021 39850 40272 52002 71000 885// 333 05501 30038
AAXX 19001 57411 31930 80201 10059 20041 39890 40273 57001 71000 8807/ 333 05502
AAXX 19001 57447 31958 82201 10053 20044 39733 40292 52005 71000 8807/ 333 05403
AAXX 19001 57662 32962 23601 10034 21015 30255 40300 52008 82040 333 05400 30012
AAXX 19001 57745 31957 80000 10048 20018 39954 40293 52005 71000 8807/ 333 05501 30022
AAXX 19001 57972 31958 80000 10066 20019 30057 40289 52003 71000 8807/ 333 05402 30024
AAXX 19001 58203 32960 01102 11019 21054 30276 40320 52001 333 05352
AAXX 19001 58314 32965 61601 11047 21047 30203 40317 52001 82042 333 05356 31018
AAXX 19001 58424 31940 00701 10004 21017 30288 40315 52003 71000 333 05252 31035
AAXX 19001 59023 32760 81101 10103 20042 39944 40260 52005 885// 333 05400
AAXX 19001 59417 31558 71601 10126 20079 30083 40240 52013 71000 878// 333 05251
AAXX 19001 59985 32578 70407 10234 20187 30155 40160 52011 878// 333 05200 70004
AAXX 19001 59995 NIL
BBXX 46185 19001 99524 71298 46/// /1509 10068 40264 57008 22200 00072 11003 70013 333 91210
BBXX ZMFR 19004 99490 31670 43/// /17// 10097 20075 40193 54000 22221 00110
BBXX ZMENA 19004 99419 31743 46/// ///// 10117 20061 40181 57012 22214
AAXX 19004 40250 32960 01608 10048 21034 39452 40252 54003
AAXX 19004 40265 32960 30000 10074 21056 39449 40249 57005 80001 333 83070
AAXX 19004 40296 NIL
AAXX 19004 40310 NIL
BBXX ZMFR 19004 99490 31670 43/// /17// 10097 20075 40193 54000 22221 00110
BBXX ZMENA 19004 99419 31743 46/// ///// 10117 20061 40181 57012 22214
BBXX 46185 19001 99524 71298 46/// /1509 10068 40264 57008 22200 00072 11003 70013 333 91210
AAXX 19004 89050 11193 80515 11001 21001 49895 57014 60022 77374 886// 333 99744
AAXX 19004 89512 41797 81322 11032 21047 39736 49886 52009 70272 885//
AAXX 19004 89574 32598 51014 10021 21107 49873 52055 81531 333 21016
AAXX 19004 89592 32498 71015 11004 21036 49820 52034 87500
AAXX 19004 89606 11992 82820 11282 21333 36269 47793 57023 69922 77673 80007
AAXX 19001 24790 32984 20701 11423 21437 39354 40297 52001 80001 333 21405 48023 55000
AAXX 19001 24988 32999 02903 11236 21255 39859 40130 58002 333 21256 43005
AAXX 19001 25378 41695 73317 11172 21214 39919 49954 57009 73831 85530 333 91125
AAXX 19001 25503 11696 80902 11304 21327 30081 40222 54000 69920 77172 8457/ 333 21349 47025 55000
AAXX 19001 25705 11998 82501 11368 21391 39863 40240 58004 69920 77172 86037 333 21383 47067 55002
AAXX 19001 25927 32999 23201 11157 21226 30064 40071 53003 80001 333 21182 42015 55026
AAXX 19001 25932 32999 02902 11144 21179 30010 40049 58001 333 21148 52014 55026
AAXX 19001 31152 32997 42001 11334 21363 39822 40275 52001 82032 333 21347 47027 55001
AAXX 19001 31174 12599 50000 11267 21273 30175 40188 52001 69900 80541 333 21271 47007 55049
AAXX 19001 31489 32997 00000 11321 21344 30101 40233 52012 333 21339 47019
AAXX 19001 31866 32999 03006 11134 21242 30171 40176 52004 333 21178 44013
AAXX 19001 31959 32998 12601 11132 21184 30161 40206 53002 80001 333 21177 41998 55082
AAXX 19001 31989 32999 00202 11108 21192 30181 40238 51010 333 21112 41998
AAXX 19001 32027 11597 83208 11127 21140 30145 40154 52008 60010 78583 889// 333 21143 48021 91010 91112
AAXX 19001 32076 32599 83104 11088 21148 30099 40109 53012 885// 333 21105 47059 91007 91107
AAXX 19001 32099 NIL
AAXX 19001 32121 11599 83604 11104 21148 30121 40144 52004 69900 78582 889// 333 21106 47010 91007 91108
AAXX 19001 32213 31598 52905 11028 21038 39904 49966 54000 72681 82303 333 21064 44009 55063
AAXX 19001 32287 31999 00504 11101 21137 30001 40011 53012 70230 333 21150 47071 55051
AAXX 19001 32408 31599 20305 11141 21184 39934 49974 52006 70230 82500 333 21182 48087 55017
AAXX 19001 32509 31999 03205 11074 21190 39928 49963 52003 70230 333 21085 44026 55000
AAXX 19001 32594 31496 70904 11112 21125 39931 49968 52007 78581 87900 333 21162 48010 55///
AAXX 19004 41259 36/// /2714 10024 21041 37125 40296 333 0E/// 59002
AAXX 19004 63729 NIL
AAXX 19004 63733 NIL
AAXX 19004 63756 NIL
AAXX 19004 63791 NIL
AAXX 19004 63801 NIL
AAXX 19004 63832 NIL
AAXX 19004 63862 NIL
AAXX 19004 63866 NIL
AAXX 19004 63870 NIL
AAXX 19004 63881 NIL
AAXX 19004 63887 NIL
AAXX 19004 63894 NIL
AAXX 19004 63932 NIL
AAXX 19004 63962 NIL
AAXX 19004 63971 NIL
BBXX 51171 19001 99064 71623 46/// ///// 1//// 92346 22200 00279
BBXX 51170 19001 99168 71695 46/// ///// 1//// 92348 22200 00262
BBXX 51174 19001 99142 51697 46/// ///// 1//// 92354 22200 00286
BBXX 51169 19001 99004 51600 46/// ///// 1//// 92354 22200 00260
BBXX 52243 19001 99193 11666 46/// ///// 1//// 92354 22200 00260
BBXX 51178 19001 99142 51695 46/// ///// 1//// 92357 22200 00288
AAXX 19004 89132 NIL
AAXX 19004 89542 46/// /0712 11025 20031 49869
AAXX 19004 89575 NIL
AAXX 19004 89657 NIL
AAXX 19004 06610 32670 52106 11013 21040 39614 40220 50004 83771 333 55300 20000 83844 91112 91207
AAXX 19004 06670 01265 72505 10003 21023 39676 40203 52010 60021 78582 875// 333 55300 20000 60005 82706 87641 91111 91205
AAXX 19004 06700 01469 32302 11038 21040 39712 40230 50001 69961 71187 83502 333 55300 20000 60005 81615 83650 91112 91208
AAXX 19004 06680 03/// /3112 11151 21151 37419 47932 52007 60041 333 55300 20000 60015 91124 91215
AAXX 19004 06990 01750 80201 11010 21012 39638 40203 52010 60021 71072 8802/ 333 55300 20000 60015 88450 91104 91202
AAXX 19004 06760 33/// /0302 10003 21075 39704 40165 50004 333 55300 20000 91110 91205
AAXX 19004 06720 02565 7//// 11014 21027 39619 40216 52007 69951 876// 333 55300 20000 60005 87724
BBXX NIL
AAXX 19004 40250 32960 01608 10048 21034 39452 40252 54003
AAXX 19004 40265 32960 30000 10074 21056 39449 40249 57005 80001 333 83070
AAXX 19004 40296 NIL
AAXX 19004 40310 NIL
BBXX NIL
BBXX NIL
AAXX 19004 40255 32960 00000 10068 20026 39515 40235 54000
AAXX 19004 40260 32960 03108 10062 21060 39452 40240 54003
AAXX 19004 40270 31950 00000 10105 21026 39328 40240 54000 70500
AAXX 19004 40272 32960 30806 10072 21060 39395 40230 54000 80001 333 83070
AAXX 19004 40290 NIL
AAXX 19004 40340 32960 00213 10174 20030 40175 57005
BBXX NIL
BBXX NIL
AAXX 19000 44218 119// 10000 11257 21281 38694 40523 53007 70271 81040 333 21268 47003 55000 555 3//// 93100
AAXX 19001 23074 12997 31004 11230 21256 30204 40231 52008 69922 83030 333 21231 47032
AAXX 19001 23274 11997 30501 11242 21266 30186 40225 52011 69972 70281 83060 333 21242 47044 55000
AAXX 19001 23383 11898 80000 11305 21327 39860 40254 53007 69902 77172 82037 333 21305 47042
AAXX 19001 23472 11497 81201 11173 21199 30165 40216 53010 60032 78582 889// 333 21173 47051 55000
AAXX 19001 23678 114// 80601 11184 21210 30151 40214 53001 60052 78588 889// 333 21204 47040
AAXX 19001 23884 119// 80000 11163 21182 30140 40217 57015 60032 77172 8802/ 333 21215 47042 55000
AAXX 19001 23891 11995 80000 11207 21240 39886 57014 60022 77371 8802/ 333 21212 47050 55000 95090
AAXX 19001 24507 119// 80101 11231 21250 39950 40212 53001 69922 77172 8807/ 333 21244 47024 55000
AAXX 19001 24817 119// 82101 11181 21200 39801 40189 57004 60022 70282 82041 333 21182 47034 55000
AAXX 19001 24908 11998 81901 11215 21240 39881 40235 57005 60012 77177 84037 333 21219 47038 55000
AAXX 19001 29263 11956 81602 11163 21182 30165 40272 57028 60022 77172 8805/ 333 21233 47027 55005
AAXX 19001 29282 11969 82403 11173 21207 30092 40274 57019 60012 77172 8807/ 333 21260 47029 55018
AAXX 19001 29379 11596 81601 11177 21203 30079 40304 57029 69992 78582 8692/ 333 21291 47022
AAXX 19001 29570 11596 82604 11141 21168 39978 40347 57011 69902 78582 889// 333 21213 91115 47016
AAXX 19001 29698 329// 00000 11310 21329 39822 40406 57004 333 21310 47014 55040
AAXX 19001 30230 11596 82105 11164 21198 39917 40263 57031 60012 78583 889// 333 21173 47025 55000
AAXX 19001 30252 116// 70000 11166 21179 39912 40245 57016 69932 70382 84441 333 21172 47021 55000
AAXX 19001 30309 11999 81804 11198 21217 39767 40329 57020 69902 70272 86035 333 21236 47026 55040
AAXX 19001 30328 119// 81402 11233 21258 39899 40366 57019 69902 70272 86077 333 21246 47027 55023
AAXX 19001 30521 115// 80901 11300 21317 39824 40416 57010 69902 70282 83901 333 21329 47019 55027
AAXX 19001 30710 31/93 90401 11246 21263 39763 40409 57004 74744 333 21250 47021 55046
AAXX 19001 23973 11997 81804 11170 21183 30162 40228 57018 60022 77173 8802/ 333 21214 47035
AAXX 19001 23975 115// 82604 11140 21167 30127 40242 57018 60012 77173 8872/ 333 21171 47025 55000
AAXX 19001 23986 11496 82004 11208 21227 39562 40242 56018 60032 78583 883// 333 21224 47047
AAXX 19001 23987 11496 81302 11183 21209 30165 40245 57022 60012 78582 889// 333 21229 47020 55000
AAXX 19001 24606 119// 83401 11274 21298 39909 40202 57003 69962 72272 80007 333 21274 47026 55000
AAXX 19001 29253 119// 72302 11145 21172 30088 40271 57027 60032 77172 8802/ 333 21202 47033
AAXX 19001 29471 11495 11138 21158 30079 40321 57029 60022 78581 889// 333 21233 47026 88917
AAXX 19001 29481 11997 82102 11176 21195 30056 40312 57030 69962 77172 8802/ 333 21296 47022
AAXX 19001 29553 32971 72304 11153 21166 39962 40353 57022 80001 333 21255 47014 55025
AAXX 19001 29562 11556 82202 11177 21196 39921 40371 57019 69932 78581 889// 333 21247 47026
AAXX 19001 29581 119// 82505 11139 21159 30063 40336 57022 69932 77172 8802/ 333 21318 47013
AAXX 19001 29594 32699 82603 11148 21175 39927 40337 57018 86531 333 21267 48019 55017
AAXX 19001 29653 32997 61503 11219 21238 39872 40404 57010 80001 333 21303 47012
AAXX 19001 29675 32998 20000 11224 21242 39750 40400 57016 80005 333 21273 47018
AAXX 19001 29676 12998 80000 11234 21259 39900 40365 57017 69902 80005 333 21291 47014
AAXX 19001 29752 329// 72603 11126 21198 38893 48529 54000 82049 333 21166 49034 55054
AAXX 19001 29759 329// 50000 11172 21184 39320 40423 57005 82031 333 21211 47032
AAXX 19001 29766 32999 00000 11314 21330 30063 40471 54000 333 21318 47016 55040
AAXX 19001 29789 32999 00000 11311 21322 39122 40463 57011 333 21311 47007 55032
AAXX 19001 29864 329// 03403 11288 21319 39723 40460 57001 333 21292 47005
AAXX 19001 29866 119// 50000 11283 21300 30093 40457 57002 69902 71072 80001 333 21283 47006 55000
AAXX 19001 29869 319// 50000 11286 21304 30053 40479 53003 71022 80001 333 21292 48017
AAXX 19001 29956 32984 02303 11282 21313 39843 40476 58003 333 21327 47016 55047
AAXX 19001 30337 11597 82006 11203 21229 39854 40338 57018 69942 78583 889// 333 21207 47027 55014
AAXX 19001 30405 129// 52301 11269 21293 39789 40378 57011 69902 84031 333 21283 47016
AAXX 19001 30504 11997 52701 11301 21319 39676 40409 56008 69902 70172 82032 333 21310 47017 55058
AAXX 19001 30603 31996 01901 11311 21328 39771 40419 57002 71000 333 21312 47018
AAXX 19001 30612 119// 52401 11299 21324 39822 40426 57003 69902 77672 80001 333 21302 47012 55///
AAXX 19001 30622 329// 00000 11356 21377 39702 40448 57006 333 21356 47014
AAXX 19001 30627 31993 00000 11283 21307 39375 40415 57007 74640 333 21291 47015 55063
AAXX 19001 30703 329// 20000 11337 21342 39664 40436 56003 80001 333 21337 47020 55065
AAXX 19001 36307 32997 00901 11375 21399 39094 48587 58003 333 21378 47017
BBXX DQVI 19003 99519 10016 41/98 /3007 10030 21021 40170 52010 7//// 8//// 22200 00090 2//// 80010
AAXX 19004 71916 46/// /1301 11399 21438 30003 40062 58016 6///1 333 11390 21408 7////
AAXX 19004 71683 46/// /2702 11285 39858 49972 58023 6///1 333 11247 21287 7////
AAXX 19004 71525 16/// /3106 11008 21025 60001 333 10060 21009 70000
AAXX 19004 71535 16/// /3103 11005 21021 60001 333 10086 21011 70007
AAXX 19004 71536 16/// /2804 11009 21014 60001 333 10075 21017 70016
AAXX 19004 71537 16/// /3108 11007 21033 60001 333 10003 21010 70000
AAXX 19004 71464 46/// ///27 10026 39977 40193 58016 6///1 333 10028 21024 7////
AAXX 19004 71466 46/// ///// 10032 39970 40210 56014 6///1 333 10032 20001 7////
AAXX 19004 71257 16/// /3209 11072 21088 60001 333 11007 21074 70022
AAXX 19004 71258 17/// /2907 11073 21089 69971 7//4/ 333 11012 21073 70027
AAXX 19004 71259 16/// /3009 11018 21041 60001 333 11002 21020 70000
AAXX 19004 71274 16/// /3106 11047 21119 60001 333 11016 21047 7////
AAXX 19004 71275 46/// /2805 11062 21117 6///1 333 11021 21085 7////
AAXX 19004 71278 16/// /2907 11049 21101 60001 333 10001 21049 70000
AAXX 19004 71286 16/// /2908 11050 21105 60001 333 11005 21051 70000
AAXX 19004 71287 16/// /2907 11047 21109 60001 333 11004 21048 70000
AAXX 19004 71289 16/// /2707 11074 21085 60001 333 11001 21089 70006
AAXX 19004 71214 16/// /2708 11058 21086 60001 333 10004 21058 70000
AAXX 19004 71223 16/// /2912 11048 21091 60001 333 11003 21048 70000
AAXX 19004 71225 17/// /2906 11011 21021 69941 7//4/ 333 10051 21014 70004
AAXX 19004 71227 46/// /2909 11057 21093 6///1 333 10001 21057 7////
AAXX 19004 71351 17/// /2703 11044 21086 69951 7//4/ 333 10001 21044 70011
AAXX 19004 71353 16/// /3007 11080 21098 60001 333 11013 21080 70011
AAXX 19004 71375 46/// /3508 11102 6///1 333 11096 21172 7////
AAXX 19004 71385 46/// /1913 11096 6///1 333 7////
AAXX 19004 71445 16/// /3420 11062 21080 39812 40092 53035 60001 333 11036 21065 70006 555 10100
AAXX 19003 42071 31/92 90000 10032 20032 40188 74540 89/// 333 58010 89///
AAXX 19004 42027 31595 30000 11022 21027 38446 48535 71000 83500 333 58011
AAXX 19004 42101 31/90 90000 10050 20050 40188 74744 333 58008
AAXX 19004 42111 31994 00000 10060 20056 39385 40182 71000 333 58011
AAXX 19004 42131 31994 00000 10022 20012 40188 71000 333 58008
AAXX 19004 42165 31995 01402 10118 20021 40158 70500 333 58007
AAXX 19004 42182 31/93 90000 10058 20049 40187 74544 89/// 333 58011
AAXX 19004 42189 31/92 90000 10090 20090 40177 74744 333 58///
AAXX 19004 42328 32996 01801 10112 21029 40156 333 58006
AAXX 19004 42339 31995 00000 10104 20025 40154 70500 333 58003
AAXX 19004 42348 31995 00000 10082 20046 40184 70400 333 58009
AAXX 19004 42369 31/90 90000 10072 20068 40184 74544 89/// 333 59002
AAXX 19004 42379 31/90 90000 10090 20069 40172 74544 89/// 333 59009
AAXX 19004 42452 32996 00000 10110 20049 40177 333 58013
AAXX 19004 42475 31/91 90000 10090 20090 40184 74744 333 58007
AAXX 19004 42071 NIL
AAXX 19004 42260 NIL
AAXX 19004 42361 NIL
AAXX 19001 51711 32980 32701 11169 21197 37993 52007 80002 333 05151 92507
AAXX 19001 51730 32970 60000 11128 21141 40315 57002 80002 333 05251 79999
AAXX 19001 52112 32980 02901 11148 21203 40368 52015 333 05101
AAXX 19001 52737 32980 00902 11088 21301 37037 57015 333 05405
AAXX 19001 52787 32980 03602 11066 21243 36998 52003 333 05203
AAXX 19001 53352 11680 51401 11201 21222 40399 52001 69921 72200 85500 333 05304 70002 92500
AAXX 19001 53593 32960 73201 11108 21150 40353 52009 8703/ 333 05407
AAXX 19001 53705 32965 50000 11106 21126 40326 52011 80002 333 05152
AAXX 19001 53863 31909 43601 11036 21054 40323 52004 74600 80002 333 05406
AAXX 19001 53975 32960 02701 11060 21092 40324 52009 333 05352
AAXX 19001 54273 32962 00000 11250 21281 40333 52008 333 00001 31028 92518
AAXX 19001 54324 32970 01602 11156 21218 40339 52003 333 05152
AAXX 19001 54405 32970 20901 11114 21198 40347 52007 82030 333 05401
AAXX 19001 54436 32980 02701 11138 21176 40349 52005 333 05201
AAXX 19001 54808 32960 01401 11027 21070 40318 52008 333 05351 31027
AAXX 19001 54826 32970 02509 11054 21107 38510 52003 333 05200 31015 92502
AAXX 19001 54836 31956 00000 11056 21074 40335 52004 71000 333 05200
AAXX 19001 54863 32960 00201 11047 21081 40328 52004 333 05252
AAXX 19001 56018 32980 22002 11161 21241 36156 52001 80002 333 05403
AAXX 19001 56021 32980 70000 11179 21256 36043 52002 80002 333 05301
AAXX 19001 57071 31930 01802 11022 21042 40308 52007 71000 333 05351 31035
AAXX 19004 68513 16/// /1106 10166 20154 30047 40160 58000 69983 333 10228 20165 91008 555 20008 69965 91016
AAXX 19004 68514 36/// ///// 1//// 2//// 3//// 4//// 5//// 333 1//// 2//// 555
AAXX 19004 68523 36/// /2306 10169 20096 39116 48523 53008 333 10406 20169 91009 555 91018
AAXX 19004 68527 16/// /1205 10239 20147 39059 48507 58016 69923 333 10397 20239 91009 555 20002 91014
AAXX 19004 68572 36/// /1702 10123 20110 38405 48515 57008 333 10322 20123 91004 555 91020
AAXX 19004 68575 NIL
AAXX 19004 68581 36/// /1102 10182 20172 39367 48512 57016 333 10260 20181 91004 555 91015
AAXX 19004 68583 36/// /0604 10206 20170 30024 40134 58016 333 10264 20206 91009 555 91013
AAXX 19004 68589 36/// /1602 10147 20105 38266 48527 58011 333 10294 20145 91004 555 91022
AAXX 19004 68613 36/// /2903 10167 20155 30056 40172 51002 333 10227 20161 91006 555 91017
AAXX 19004 68647 36/// /2910 10262 20075 38901 48510 58001 333 10363 20262 91017 555 91016
AAXX 19004 68651 36/// /3207 10219 20071 38565 48528 58003 333 10328 20193 91013 555 91021
AAXX 19004 68715 NIL
AAXX 19004 68717 36/// /2506 10169 20151 30017 40161 52002 333 10338 20169 91009 555 91016
AAXX 19004 68723 36/// /2908 10210 20106 39376 48512 52013 333 10399 20210 91016 555 91014
AAXX 19004 68737 36/// /0609 10280 20086 39222 48519 57006 333 10421 20248 91014 555 91013
AAXX 19004 68744 16/// /3211 10252 20104 39087 48514 52004 69943 333 10399 20233 91019 555 20004 91015
AAXX 19004 68747 36/// /3206 10326 20085 39561 48525 56001 333 10386 20313 91013 555 91009
AAXX 19004 68754 36/// /3007 10297 20084 39098 48509 57006 333 10363 20238 91017 555 91013
AAXX 19004 68817 36/// /3303 10178 20163 30140 40153 53001 333 10306 20178 91010 555 91015
AAXX 19004 68821 36/// /2916 10189 20138 39889 40127 52006 333 10340 20185 91022 555 91013
AAXX 19004 68835 36/// /1202 10196 20168 39971 40084 51008 333 10299 20192 91003 555 91008
AAXX 19004 68843 36/// /2709 10199 20167 39993 40091 53005 333 10285 20187 91013 555 91009
AAXX 19004 68849 36/// /2504 10176 20147 39373 48485 56002 333 10332 20176 91011 555 91012
AAXX 19004 68912 36/// /2510 10166 20149 30141 40150 53003 333 10219 20166 91013 555 91015
AAXX 19004 68918 36/// /2910 10183 20163 30116 40134 57001 333 10232 20183 91017 555 91013
AAXX 19004 68921 36/// /2618 10187 20157 30116 40119 58001 333 10248 20175 91028 555 91011
AAXX 19004 68925 16/// /3010 10160 20142 39772 40136 54000 60013 333 10289 20160 91018 555 20016 60125 91014
AAXX 19004 68926 36/// /2803 10179 20155 39941 40119 57006 333 10298 20178 91007 555 91012
AAXX 19004 68935 36/// /2606 10195 20169 30046 40109 53001 333 10263 20191 91010 555 91011
AAXX 19001 48830 31740 73603 10120 20070 39921 40238 52018 71022 875// 333 00012 20117 3/011 59019 87697
AAXX 19001 48808 31440 70000 10120 20112 39945 40239 52011 71022 878// 333 00013 20120 3/011 59027 83894 8769 6
AAXX 19001 48839 32697 80507 10170 20117 30154 40221 53019 885// 222// 00190 2//02 333 00/// 20163 59010 8869 6
AAXX 19001 48826 31756 63403 10144 20126 30085 40225 53015 71022 865// 333 00014 20140 3/014 59009 86697
BBXX BAREU00 19004 99515 70134 46/// ///// 40184 57017 22224
BBXX BAREU62 19004 99442 10091 46/// ///// 40133 22234
BBXX DQVI 19003 99519 10016 41/98 /3007 10030 21021 40170 52010 7//// 8//// 22200 00090 2//// 80010
BBXX DDLK 19003 99433 70618 41497 50434 10060 20039 40140 51020 76366 829/8 22213 04050 20506 304// 40406 80050
BBXX FLAO 1900/ 99764 70847 46/// ///// 11278 49928 52006
AAXX 19004 68575 NIL
AAXX 19004 68715 NIL
AAXX 19004 94996 41580 11612 10210 20128 30006 40142 50001 70281 81200 90030 333 20170
AAXX 19004 94996 41580 11612 10210 20128 30006 40142 50001 70281 81200 90030 333 20170
AAXX 19004 68174 36/// /0304 10155 20119 38811 48531 58001 333 10303 20155 91006 555 91020
AAXX 19004 68191 36/// /1608 10193 20150 39667 48553 53002 333 10344 20193 91012 555 91017
AAXX 19004 68242 36/// /0305 10208 20089 38729 48510 58002 333 10325 20208 91006 555 91018
AAXX 19004 68262 36/// /0902 10219 20102 38719 48528 53001 333 10319 20217 91006 555 91020
AAXX 19004 68263 NIL
AAXX 19004 68267 NIL
AAXX 19004 68289 36/// /0303 10180 20147 39179 48544 57006 333 10284 20180 91005 555 91020
AAXX 19004 68350 36/// /0803 10186 20137 38673 48523 58005 333 10348 20183 91004 555 91020
AAXX 19004 68368 41970 40307 10210 20093 38340 48536 55001 70500 8408/ 555 91023
AAXX 19004 68403 36/// /1908 10188 20141 30141 40174 58006 333 10210 20183 91010 555 91017
AAXX 19004 68424 12782 22305 10258 20098 39189 48524 53006 69983 82570 333 10413 20238 91009 555 20008 91015
AAXX 19004 68438 16/// /1407 10199 20147 38818 48512 58003 69943 333 10362 20194 91009 555 20004 69945 91017
AAXX 19004 68442 36/// /1704 10185 20104 38672 48524 52005 333 10341 20185 91005 555 91020
AAXX 19004 68461 36/// /1603 10167 20119 38339 48525 57006 333 10295 20162 91010 555 91022
AAXX 19004 68512 36/// /2705 10123 20098 39027 48512 58003 333 10334 20123 91006 555 91018
AAXX 19004 68538 16/// /0406 10194 20157 38724 48509 58018 60043 333 10378 20182 91011 555 20044 91018
AAXX 19004 68587 36/// /0309 10219 20177 30093 40105 58014 333 10255 20219 91021 555 91010
AAXX 19004 68588 36/// /0210 10217 20165 30129 40145 57020 333 10274 20217 91019 555 91014
AAXX 19004 68591 36/// /0312 10218 20188 39942 40120 58015 333 10259 20218 91019 555 91012
AAXX 19004 68592 NIL
AAXX 19004 68618 36/// /2610 10137 20097 39062 48519 50000 333 10385 20137 91014 555 91018
AAXX 19004 68633 36/// /3105 10176 20145 38529 48523 51007 333 10357 20174 91009 555 91021
AAXX 19004 68668 36/// /0702 10202 20172 39260 48491 58005 333 10321 20200 91004 555 91012
AAXX 19004 68714 36/// /3404 10181 20157 30117 40153 58000 333 10260 20175 91005 555 91015
AAXX 19004 68727 36/// /2506 10269 20008 39097 48501 52006 333 10404 20269 91008 555 91013
AAXX 19004 68752 36/// /1607 10212 20178 39417 48485 56001 333 10339 20212 91011 555 91010
AAXX 19004 68816 11670 53211 10171 20163 30094 40148 51004 69901 72162 85500 333 91014 555 91014
AAXX 19004 68828 13460 /2906 10174 20171 39883 40114 53003 60001
AAXX 19004 68842 32970 12517 10204 20169 30007 40076 69901 81070 555 91007
AAXX 19004 68858 NIL
AAXX 19004 68906 12598 42719 10132 20100 30085 40150 58002 69943 83570 333 10155 20124 91032 555 20004 91014
AAXX 19004 68994 31494 82922 10107 20106 30110 40139 58017 74544 886// 333 10108 20084 91030 555 91013
AAXX 19004 89004 36/// /0918 11090 21090 38865 49884 53007 333 11081 21092 91022 555 90981
BBXX 46206 19001 99488 71260 46/// /3205 10081 40277 52015 22200 00089 11406 70031 333 91207
AAXX 19004 16232 12598 51709 10072 20017 30021 40075 52002 60001 81271 333 81825 555 0////
BBXX 46206 19001 99488 71260 46/// /3205 10081 40277 52015 22200 00089 11406 70031 333 91207
BBXX BATFR45 19004 99049 30480 46/// ///// 10284 20242 40094 55006 22214 00309
BBXX BATFR19 19004 99065 30060 46/// /1810 10237 20192 40129 58008 222// 00254
BBXX BATFR55 19004 99147 30525 44697 20119 10280 20239 40075 70100 8124/ 22272 00284 20704
BBXX MRWF2 19004 99180 31091 41499 42019 10250 2024/ 40120 52010 7//00 84131 22274 00290 21004 32020 41004 51004 6//// 80240 ICE /////
BBXX A8YW2 19004 99196 30668 41/97 51523 10250 20204 40120 56005 70311 8//// 22214 00240 20302 80220
BBXX A8KH9 19004 99228 30145 41/97 /1506 10155 20139 40115 54000 70000 8//1/ 22200 20301 32500 40802 5//// 80145
BBXX SHIP 19004 99261 31057 41797 81317 10211 20153 40153 52016 70322 884// 22232 00227 10904 20101 313// 40603 85174
BBXX ONDY 19004 99267 30146 41698 21829 10170 2015/ 40140 51010 70300 824// 22243 00178 2//// 3//// 4//// 5//// 6//// 80160 ICE /////
BBXX DEIR 19004 99281 30474 41297 62335 10210 20180 40110 58030 70200 8477/ 22223 04195 20705 313// 40906 80190
BBXX TBWUK42 19004 99323 30162 41598 22114 10185 20146 40168 53010 70100 8154/ 22233 29901 321// 40604 5//// 80162
BBXX DBBT 19001 99414 30030 46/// /2919 10120 20088 40120 52004 22213 00115
AAXX 19004 42559 32996 00000 10096 20063 40170 333 58005
AAXX 19004 42571 31/92 90000 10080 20071 40181 74544 89/// 333 58004
AAXX 19004 42667 31996 00000 10112 20068 39558 40169 70500 333 58006
AAXX 19004 42675 31996 00000 10080 20067 40181 70500 333 58002
AAXX 19004 42754 31996 00000 10136 20091 39505 40160 70500 333 58008
AAXX 19004 42779 32996 00000 10096 20040 39453 40172 333 58002
AAXX 19004 42874 32996 00000 10140 20106 40159 333 58005
AAXX 19004 43041 31995 00000 10098 20078 39528 40174 71000 333 59001
AAXX 19004 42867 NIL
AAXX 19004 42933 NIL
AAXX 19001 50658 31940 30901 11242 21261 40290 52005 70400 80002 333 00355 92506
AAXX 19001 50888 32965 12002 11150 21207 40242 52004 81030 333 00200
AAXX 19001 50983 32965 02701 11180 21209 40256 52006 333 00100 92502
AAXX 19001 51053 31958 23401 11223 21249 40433 52022 77600 80002 333 00452 31035 92516
AAXX 19001 51542 32680 60401 11249 21278 37524 52001 82502 333 05102
AAXX 19001 52436 32980 20906 11138 21193 38479 40321 52007 81032 333 05351
AAXX 19001 52908 32980 70000 11135 21289 35711 52003 80002 333 05406
AAXX 19001 52996 31/00 91402 11087 21091 37547 57003 74944 333 05301
AAXX 19001 53083 32980 00000 11295 21325 40470 52005 333 05202
AAXX 19001 53764 32962 73201 11028 21068 40302 54000 8703/ 333 05507 31036
AAXX 19001 53787 31759 80901 11076 21092 40323 52011 71000 885// 333 05303
AAXX 19001 54096 32970 02704 11159 21193 40269 52007 333 00101
AAXX 19001 54226 32980 01601 11115 21224 40335 52006 333 00053
AAXX 19001 54259 32965 02501 11206 21233 40340 52011 333 05101 92511
AAXX 19001 54527 32960 72701 11058 21127 40324 52004 80002 333 05302
AAXX 19001 54534 32965 00000 11105 21142 40323 52010 333 05202
AAXX 19004 92044 11482 83607 10294 20278 30072 40078 52005 60194 72522 84902
AAXX 19004 92044 11482 83607 10294 20278 30072 40078 52005 60194 72522 84902
BBXX 46205 19001 99542 71343 46/// /1717 10067 40131 57054 22200 00078 10708 70041 333 91220
BBXX 46205 19001 99542 71343 46/// /1717 10067 40131 57054 22200 00078 10708 70041 333 91220
BBXX 46181 19001 99538 71288 46/// /2102 10026 40277 54000 22200 00052 10300 70000 333 91202
AAXX 19004 89020 46/// /0405 11038 21054 39858 49893 52010 92340
AAXX 19004 88900 46/// /3503 10016 21001 30087 40089 55001 333 10027 20014
AAXX 19004 41295 36/// /2302 10149 20139 39993 40177 333 0E019 58017
BBXX AMOUK15 19004 99101 50122 46/// ///// 10227 20188 30139 40172 54003 92350
BBXX ZCDD6 19003 99099 70242 41398 20715 10250 20204 40116 54000 70200 8/1// 22255 00270 20503 307// 41005 5//// 80220
BBXX 46181 19001 99538 71288 46/// /2102 10026 40277 54000 22200 00052 10300 70000 333 91202
AAXX 19004 68155 36/// /1802 10206 20131 39206 48532 57001 333 10332 20206 91002 555 91017
AAXX 19004 68171 NIL
AAXX 19004 68176 36/// /0000 10153 20124 39155 48527 57002 333 10326 20153 91002 555 91018
AAXX 19004 68181 NIL
AAXX 19004 68182 36/// /1203 10187 20140 39361 48541 57005 333 10289 20187 91005 555 91018
AAXX 19004 68185 36/// /0000 10145 20128 38463 48396 58003 333 10295 20144 91002 555 91006
AAXX 19004 68253 36/// /1303 10243 20107 39061 48538 53003 333 10339 20224 91006 555 91018
AAXX 19004 68255 36/// /3602 10228 20107 38864 48515 53001 333 10325 20199 91006 555 91017
AAXX 19004 68271 36/// /3406 10201 20122 38929 48532 58001 333 10332 20200 91012 555 91019
AAXX 19004 68273 36/// /3506 10185 20111 38475 48529 54000 333 10309 20171 91012 555 91022
AAXX 19004 68287 36/// /0802 10131 20126 38598 48532 58007 333 10245 20130 91004 555 91021
AAXX 19004 68291 36/// /1405 10187 20161 39563 48547 57003 333 10324 20187 91008 555 91017
AAXX 19004 68297 NIL
AAXX 19004 68329 36/// /1505 10263 20094 39084 48526 52002 333 10396 20234 91009 555 91016
AAXX 19004 68331 36/// /1005 10261 20088 38834 48525 52003 333 10357 20242 91009 555 91018
AAXX 19004 68335 36/// /3002 10207 20109 38930 48538 55000 333 10365 20204 91003 555 91020
AAXX 19004 68341 16/// /3303 10178 20125 38543 48527 57004 69923 333 10312 20178 91005 555 20002 91021
AAXX 19004 68342 NIL
AAXX 19004 68343 NIL
AAXX 19004 68349 36/// /3204 10201 20129 38515 48509 58002 333 10317 20199 91005 555 91019
AAXX 19004 68353 36/// /3103 10192 20113 38527 48506 57007 333 10307 20181 91005 555 91018
AAXX 19004 68355 36/// /0808 10181 20110 38583 48516 57004 333 10319 20175 91009 555 91020
AAXX 19004 68370 NIL
AAXX 19004 68377 36/// /1303 10184 20156 38766 48505 57005 333 10349 20184 91004 555 91017
AAXX 19004 68380 36/// /2602 10124 20109 3//// 4//// 5//// 333 10315 20124 91004 555
AAXX 19004 68387 36/// /0000 10183 20168 38867 48525 58007 333 10303 20182 91016 555 91019
AAXX 19004 68411 36/// /1604 10209 20111 39950 40157 58007 333 10401 20208 91006 555 91016
AAXX 19004 68429 36/// /0000 10223 20106 38693 48515 58009 333 10356 20223 91002 555 91018
AAXX 19004 68449 36/// /3402 10168 20100 38403 48516 58004 333 10307 20159 91003 555 91020
AAXX 19004 68471 36/// /0406 10162 20133 38338 48517 57011 333 10299 20154 91008 555 91021
AAXX 19004 68474 16/// /2602 10138 20127 38633 48522 57012 69963 333 10314 20138 91003 555 20006 91020
AAXX 19004 68479 36/// /0000 10200 20153 38952 48516 58007 333 10351 20199 91012 555 91017
AAXX 19004 68481 36/// /0000 10218 20176 39791 40158 57007 333 10321 20216 91002 555 91016
AAXX 19004 68487 36/// /3004 10178 20163 38994 48513 58013 333 10306 20175 91004 555 91017
AAXX 19004 68491 36/// /3203 10191 20174 30142 40151 57007 333 10278 20188 91004 555 91015
AAXX 19004 68497 36/// /0705 10193 20169 30105 40149 57015 333 10289 20193 91006 555 91015
AAXX 19004 68183 36/// /1105 10197 20152 39461 48546 57003 333 10284 20197 91006 555 91017
AAXX 19004 68188 36/// /0000 10170 20148 39226 48543 57001 333 10296 20159 91002 555 91020
AAXX 19004 68268 36/// /2803 10223 20099 38895 48538 52003 333 10345 20218 91006 555 91020
AAXX 19004 68272 36/// /0000 10190 20130 39088 48530 53002 333 10342 20187 91002 555 91018
AAXX 19004 68296 36/// /0000 10288 20272 39850 48592 57002 333 10555 20276 91002 555 91016
AAXX 19004 68322 36/// /1905 10237 20134 39138 48517 52005 333 10398 20232 91007 555 91015
AAXX 19004 68338 16/// /3204 10178 20090 38775 48506 57005 69923 333 10285 20178 91005 555 20002 91017
AAXX 19004 68345 36/// /0904 10201 20124 38677 48520 58005 333 10336 20201 91005 555 91019
AAXX 19004 68362 36/// /0902 10179 20140 38519 48522 56001 333 10324 20179 91005 555 91020
AAXX 19004 68400 36/// /0502 10208 20164 30077 40151 57005 333 10346 20206 91003 555 91015
AAXX 19004 68408 36/// /1503 10173 20147 30162 40170 57006 333 10194 20156 91005 555 91017
AAXX 19004 68416 36/// /1705 10190 20093 39042 48515 54000 333 10380 20190 91010 555 91017
AAXX 19004 68478 36/// /1902 10174 20161 38878 48516 57007 333 10336 20174 91004 555 91018
AAXX 19004 68488 36/// /0903 10168 20150 39280 48524 57007 333 10276 20165 91005 555 91017
AAXX 19004 68494 NIL
AAXX 19004 68524 36/// /2607 10251 20033 39045 48509 57007 333 10404 20251 91009 555 91015
AAXX 19004 68546 36/// /2002 10180 20116 38670 48516 56001 333 10346 20180 91004 555 91019
AAXX 19004 68558 36/// /1302 10170 20063 38212 48526 57003 333 10300 20165 91003 555 91022
AAXX 19004 68570 36/// /2102 10161 20111 38519 48511 57006 333 10329 20159 91003 555 91019
AAXX 19004 68580 16/// /3303 10167 20162 38948 48509 57012 69923 333 10252 20165 91004 555 20002 91017
AAXX 19004 68614 36/// /2902 10182 20160 30121 40162 57005 333 10320 20182 91007 555 91016
AAXX 19004 68624 36/// /2308 10196 21013 38738 48511 58003 333 10385 20195 91014 555 91018
AAXX 19004 68674 36/// /0502 10215 20192 30060 48514 58013 333 10279 20215 91006 555 91009
AAXX 19004 68712 36/// /0000 10164 20146 30090 40155 57001 333 10212 20164 91007 555 91015
AAXX 19004 68718 36/// /3010 10196 20127 39888 40132 54000 333 10322 20180 91016 555 91013
AAXX 19004 68722 36/// /2503 10148 20033 38547 48504 58003 333 10348 20148 91010 555 91018
AAXX 19004 68814 36/// /2906 1//// 2//// 30152 4//// 56001 333 1//// 2//// 91012 555 91016
AAXX 19004 68832 36/// /2302 10215 20067 39154 48486 56002 333 10414 20214 91004 555 91012
AAXX 19004 68916 16/// /2622 10157 20147 39878 40147 53000 69983 333 10224 20155 91026 555 20008 69985 91014
AAXX 19004 68920 36/// /2707 10183 20152 30111 40124 57002 333 10240 20183 91017 555 91012
AAXX 19004 68928 36/// /2608 10187 20163 39956 40115 57005 333 10235 20185 91017 555 91011
AAXX 19004 68263 NIL
AAXX 19004 68267 NIL
AAXX 19004 68592 NIL
AAXX 19004 68858 NIL
BBXX 44062 19001 99386 70764 46/// /2001 1//// 90020 22200 00084 333 91201
BBXX 44062 19001 99386 70764 46/// /1701 1//// 40258 90010 22200 00084 333 91201
BBXX 44062 19001 99386 70764 46/// /1401 10031 40256 90000 22200 00085 1//00 70001 333 91201
BBXX 44063 19001 99390 70764 46/// /0000 1//// 90020 333 91200
BBXX 44063 19001 99390 70764 46/// /0000 1//// 40283 90010 333 91200
BBXX 44063 19001 99390 70764 46/// /0000 10029 40281 53019 90000 22200 00073 1//00 70001 333 91200
BBXX 44041 19001 99372 70768 46/// /0801 1//// 90020 333 91201
BBXX 44041 19001 99372 70768 46/// /1001 1//// 40301 90010 333 91202
BBXX 44041 19001 99372 70768 46/// /0602 10035 40299 51023 90000 22200 00094 1//00 70001 333 91202
BBXX 44042 19001 99380 70763 46/// /0102 1//// 90020 333 91202
BBXX 44042 19001 99380 70763 46/// /0202 1//// 40276 90010 333 91202
BBXX 44042 19001 99380 70763 46/// /0302 10044 40276 51024 90000 22200 00085 1//00 70002 333 91202
BBXX 44043 19001 99392 70764 46/// /0301 1//// 90020 333 91201
BBXX 44043 19001 99392 70764 46/// /0501 1//// 40268 90010 333 91202
BBXX 44043 19001 99392 70764 46/// /0401 10038 40266 51019 90000 22200 00068 1//00 70001 333 91202
AAXX 19004 82098 32496 50505 10280 20225 30079 40096 8344/ 333 10339 29067 55100 58003
AAXX 19004 82246 32997 00000 10261 20246 39893 40090 333 10328 29085 55091 58005
AAXX 19004 82445 31695 60000 10290 20250 30058 40110 70544 84420 333 10342 29076 55087 58004
AAXX 19004 82460 21595 53603 10282 20242 30062 40091 72122 81500 333 10381 29068 55068 59009 69971
AAXX 19004 82562 32593 83602 10281 20246 39956 40063 88050 333 10339 29075 55063 59009
AAXX 19004 82571 32997 00000 10273 20236 39910 40083 333 10352 29074 55054 59016
AAXX 19004 82765 32598 83501 10274 20256 39880 40119 8521/ 333 10318 29085 55035 59021
AAXX 19004 82392 32996 03609 10268 20216 39995 40096 333 10376 29067 55111 58005
AAXX 19004 82583 32996 00906 10301 20130 39746 40078 333 10379 29038 55112 59008
AAXX 19004 82594 32697 20911 10274 20200 30098 40106 82010 333 10346 29057 55112 58004
AAXX 19004 82683 32994 00000 10291 20144 39648 40094 333 10360 29048 55103 58000
AAXX 19004 82780 32595 21406 10331 20128 39854 40100 82100 333 10380 29034 55103 59007
AAXX 19004 82789 32994 01805 10250 20067 38929 40013 333 10296 29/// 55114 59002
AAXX 19004 82795 32594 20910 10221 20201 39521 40142 82200 333 10328 29072 55110 59008
AAXX 19004 82879 32992 01405 10294 20169 39824 40086 333 10359 29041 55118 59003
AAXX 19004 83599 31698 599// 10260 20247 40030 51010 70122 8446/ 222// 20501 80250
AAXX 19004 83650 42/96 81012 10255 20206 40205 52012 7//// 8//// 222// 80220 333 10310
AAXX 19004 83925 32/95 /1701 10224 20195 40073 52009 7002/ 8//// 222// 20000 80204 333 10266
AAXX 19004 83970 41/91 /0602 10230 20186 30060 40064 52010 7002/ 8//// 222// 02200 20000 80200 333 10260
AAXX 19004 82141 32797 50209 10278 20240 30083 40095 85030 333 10311 29077 55101 58001
AAXX 19004 82145 32995 00000 10264 20241 30068 40109 333 10332 29076 55074 59004
AAXX 19004 82181 32496 10506 10294 20238 39971 40110 86160 333 10336 29066 55096 59002
AAXX 19004 82198 32992 03605 10261 20229 30048 40099 333 10325 29073 55081 59002
AAXX 19004 82353 21496 81802 10293 20241 39969 40053 70362 888// 333 10348 29071 55097 58004 60021
AAXX 19004 82361 32996 03202 10276 20238 30052 40089 333 10328 29076 55057 59008
AAXX 19004 82476 32595 21802 10282 20207 39960 40078 82100 333 10388 29060 55084 59014
AAXX 19004 82861 31597 53204 10265 20231 39895 40063 71322 8371/ 333 10332 29078 55085 59017
AAXX 19001 31825 32999 00000 11261 21279 39997 40227 52008 333 21278 47020
AAXX 19001 31845 32999 00000 11324 21342 30060 40246 57003 333 21324 47041
AAXX 19001 31878 31962 01201 11207 21226 30128 40263 52010 70400 333 21213 47021
AAXX 19001 31915 32998 29901 11135 21196 39983 40263 53011 80001 333 21152 47007
AAXX 19001 31921 32997 02301 11154 21196 30158 40263 51010 333 21188 41997
AAXX 19001 31969 32998 03006 11097 21182 30212 40264 52009 333 21097
AAXX 19001 31981 32999 22303 11241 21260 30020 40280 52011 80001 333 21236 47023
AAXX 19001 31987 32999 00202 11148 21200 39985 40262 52008 333 21142 43001
AAXX 19001 32069 11596 83205 11105 21118 30148 40153 53003 69930 78582 889// 333 21114 47008 91006 91111
BBXX A8IZ2 31112 19004 99210 70711 41998 00002 10250 20180 40190 52020 70122 80/// 22214 80200 .....
BBXX GDTT 19004 99130 70699 41398 30620 10270 20204 40120 54000 7//00 82140 22232 00300 20402 306// 40505 80226
BBXX ZCDM6 19003 99260 70755 41598 40228 10220 20190 40196 54000 70200 845// 22235 00250 20302 304// 40203 5//// 80200
BBXX ZCDP8 19003 99261 70791 41498 20220 10218 20094 40224 52011 70111 82500 22224 00260 20203 301// 40304 5//// 80151
BBXX PBHZ 19003 99277 70783 41/97 /0112 10212 20206 40235 53019 70222 8//// 22223 20302 80208
BBXX DCDP2 19004 99387 70658 41/98 30133 10085 20075 40110 51005 70180 8//// 22213 00200 20608 80080
BBXX VREX7 19004 99242 70807 41398 50411 10230 20215 40220 54000 70211 837// 22254 20501 307// 40601 5//// 80220
AAXX 19001 30455 329// 60000 11229 21248 38914 48443 57005 84032 333 21233 47010
AAXX 19001 30669 32999 22602 11229 21248 39360 40301 58001 81041 333 21239 47006
AAXX 19001 30731 115// 61804 11134 21169 39683 40324 57007 69902 70232 82550 333 21135 47032
AAXX 19001 30739 329// 01602 11269 21293 39489 40401 57005 333 21312 47004
AAXX 19001 30741 329// 22705 11168 21174 38726 48511 57008 82040 333 21190
AAXX 19001 30745 329// 21603 11243 21268 39117 40373 53001 80001 333 21249 47006 55070
AAXX 19001 30764 32998 00000 11269 21287 39462 40342 53001 333 21288 47002
AAXX 19001 30829 32984 23201 11294 21318 39668 40449 57003 82040 333 21304 47997
AAXX 19001 30838 32998 00000 11355 21371 39343 40479 57004 333 21355 47012
AAXX 19001 30846 32999 22204 11174 21224 39381 40350 56001 80001 333 21175 47997
AAXX 19001 30859 32999 22603 11173 21215 39432 40322 54000 80001 333 21202 47006
AAXX 19001 30862 32999 02405 11185 21218 39519 40307 53004 333 21185 47008
AAXX 19001 30957 32999 01901 11270 21288 39396 40391 54000 333 21285 47001
AAXX 19001 30975 32899 72301 11314 21350 39629 40361 53004 83016 333 21350 47013
AAXX 19004 83270 31/95 90000 10250 20240 39640 40120 71392 8//// 333 1//// 29090 55041 59007
AAXX 19004 83309 21992 00000 10250 20236 39796 40117 71054 333 10320 29086 55/// 58014 69931
AAXX 19004 83319 21691 80000 10238 20234 39755 40127 70362 8472/ 333 10307 29092 55033 58004 60121
AAXX 19001 30499 32999 02502 11320 21331 39568 40307 43002 333 21320 47013
AAXX 19001 30683 32998 03202 11319 21337 39587 40318 57003 333 21320 47009
AAXX 19001 30695 32999 03401 11333 21356 39922 40303 53008 333 21335 47011
AAXX 19001 31253 32999 00000 11342 21371 39749 40267 52004 333 21348 55047
AAXX 19001 31295 32999 03204 11201 21242 39762 40250 53005 333 21203 47006
AAXX 19001 31348 32999 00000 11340 21350 30008 40217 58001 333 21355 47020
AAXX 19001 31418 32998 20000 11272 21303 39940 40221 58002 80002 333 21282
AAXX 19001 31439 11994 70000 11190 21209 30143 40190 52007 69940 77172 87020 333 21203 47010
AAXX 19001 31442 32999 00000 11305 21334 39859 40255 53007 333 21313 47007
AAXX 19001 31445 32999 00000 11325 21348 39966 40252 54000 333 21331 47006
AAXX 19001 31474 32999 00000 11374 21408 39737 40292 52008 333 21385 47013
AAXX 19001 31521 32999 00000 11344 21368 39932 40263 52001 333 21351 47012
AAXX 19001 31527 32998 02301 11311 21348 39919 40259 53009 333 21314 47012
AAXX 19001 31534 32999 00000 11322 21346 39878 40267 52003 333 21332
AAXX 19001 31587 32999 00000 11246 21257 30099 40259 52007 333 21289 47016
AAXX 19001 31632 NIL
AAXX 19001 31702 32998 00103 11300 21337 39890 40267 52005 333 21302 47020
AAXX 19001 31713 32998 10000 11295 21307 30114 40224 52001 81040 333 21307 47014
AAXX 19001 31725 32998 50000 11247 21253 30147 40220 52008 82042 333 21289
AAXX 19001 31801 12998 20000 11297 21315 39988 40243 52001 69900 82040 333 21324
BBXX ELUC5 19004 99255 51520 41498 11105 10260 20232 40150 54000 70200 81141 22224 20000 311// 40302 80240
BBXX 62141 19003 99493 50591 41998 12518 10107 20097 40058 52014 70200 80004 22200 20503 33627 40702 50703 80102
BBXX VQKZ6 19003 99043 70803 41397 82524 10255 20215 40101 58008 70262 83574 22224 02232 20202 323// 40304 5//// 80228
BBXX A8MV6 19003 99117 10742 41997 09903 10280 20205 40115 56010 70000 80000 22273 04300 20100 31499 40503 5//// 80230
AAXX 19001 50548 32975 70000 11241 21273 40301 52004 82032 333 00102
AAXX 19001 50564 31920 02501 11260 21279 40277 52005 70400 333 00351
AAXX 19001 51334 11770 82001 11117 21133 40379 52019 69901 77070 885// 333 00353 79999 92505
AAXX 19001 51818 32965 40000 11123 21149 40290 57001 80002 333 05253
AAXX 19001 52378 32980 00702 11181 21240 40386 52009 333 05153
AAXX 19001 53487 32960 53202 11136 21174 40353 52006 82032 333 05404
AAXX 19001 53502 32980 21401 11175 21215 40372 52009 80002 333 05151
AAXX 19001 53923 32965 80701 11047 21048 40288 57004 8807/ 333 05400
AAXX 19001 54049 32970 03401 11166 21203 40312 52010 333 00100
AAXX 19001 54115 32962 01801 11181 21238 40360 54000 333 05152
AAXX 19001 54157 32963 02201 11146 21187 40319 52011 333 00051 92501
AAXX 19001 54186 32662 70000 11154 21196 40305 52006 875// 333 00100 92507
AAXX 19001 54311 32980 03603 11186 21246 40379 52003 333 05200
AAXX 19001 54346 32965 00902 11149 21179 40336 52012 333 05102
AAXX 19001 54377 32460 22901 11166 21188 40343 52010 82600 333 05101 92502
AAXX 19001 54386 32970 00401 11226 21261 40350 52009 333 05101 92502
AAXX 19001 54493 32966 01601 11149 21160 40333 52010 333 05102
AAXX 19001 54587 NIL
AAXX 19001 54715 31940 80000 11038 21067 40319 52002 71000 80007 333 05302
AAXX 19001 54929 31956 00000 11049 21064 40332 52009 71000 333 05252
AAXX 19001 54945 32960 02902 11014 21065 40328 52004 333 05351
AAXX 19001 56065 32980 21601 11192 21224 36602 57006 80002 333 05202
AAXX 19001 57193 32960 01101 11016 21069 40311 52002 333 05352 31025
AAXX 19001 57290 32962 20000 11011 21066 40302 57003 80001 333 05452 31022
BBXX 46092 19001 99368 71220 46/// /3006 10110 40198 92357 22200 00126 555 11062 22067
BBXX 51176 19001 99278 71758 46/// ///// 1//// 90002 22200 00236
BBXX 51179 19001 99143 51708 46/// ///// 1//// 90003 22200 00288
BBXX 52245 19001 99181 11458 46/// ///// 1//// 90005 22200 00282
BBXX 52248 19001 99135 11448 46/// ///// 1//// 90006 22200 00284
BBXX 52244 19001 99200 11452 46/// ///// 1//// 90008 22200 00270
BBXX 52246 19001 99152 11457 46/// ///// 1//// 90009 22200 00281
BBXX 51173 19001 99260 71739 46/// ///// 1//// 90011 22200 00244
BBXX 51172 19001 99284 71783 46/// ///// 1//// 90014 22200 00232
BBXX 44059 19001 99368 70763 46/// /0502 1//// 90020 333 91204
BBXX 44059 19001 99368 70763 46/// /0203 1//// 40274 90010 333 91205
BBXX 44059 19001 99368 70763 46/// /0203 10054 40271 51026 90000 22200 00098 333 91204
BBXX 44057 19001 99395 70761 46/// /0101 1//// 90020 333 91202
BBXX 44057 19001 99395 70761 46/// /0102 1//// 40271 90010 333 91202
BBXX 44057 19001 99395 70761 46/// /0301 10016 40270 51021 90000 22200 00053 333 91202
BBXX 44058 19001 99376 70763 46/// /0104 1//// 90020 333 91204
BBXX 44058 19001 99376 70763 46/// /3503 1//// 40273 90010 333 91204
BBXX 44058 19001 99376 70763 46/// /3604 10051 40273 51026 90000 22200 00085 10201 70004 333 91205
BBXX 44040 19001 99410 70736 46/// /0204 11016 21132 40269 90015 22200 1//00 70001 333 91205 555 11036 22041
AAXX 19004 61250 32960 10000 10184 20036 3//// 4//// 80002 333 0//00 5//// 81075
BBXX BAREU62 19004 99442 10091 46/// ///// 40133 22234
BBXX BAREU00 19004 99515 70134 46/// ///// 40184 57017 22224
BBXX DDLK 19003 99433 70618 41497 50434 10060 20039 40140 51020 76366 829/8 22213 04050 20506 304// 40406 80050
AAXX 19004 42634 32996 00000 10150 20121 40150 333 58017
AAXX 19004 42647 32996 00202 10160 20090 40148 333 58006
AAXX 19004 42737 32996 00705 10176 20078 40145 333 58009
AAXX 19004 42840 31995 03602 10180 20134 40138 70500 333 58005
AAXX 19004 42909 32996 20506 10194 20092 40135 80001 333 58008 82070
AAXX 19004 42921 32996 00000 10116 20105 40199 333 58008
AAXX 19004 43003 31995 04504 10210 20160 40126 70400 333 58009
AAXX 19004 43014 31996 00000 10140 20104 39487 40154 70500 333 58007
AAXX 19004 43063 32996 00000 10120 20113 39512 40163 333 58011
AAXX 19004 43110 32996 00905 10216 20125 40125 333 58007
AAXX 19004 43117 32996 20000 10170 20098 40150 80002 333 58009
AAXX 19004 43192 32996 00903 10210 20178 40129 333 58013
BBXX 46184 19001 99539 71389 46/// /2508 10073 40081 52031 22200 00065 11011 70053 333 91210
BBXX VMGO 19003 99390 31450 41298 72619 10192 20151 40066 52001 70311 8572/ 22233 00132 20401 326// 40503 5//// 80168
AAXX 19004 68171 NIL
AAXX 19004 68181 NIL
AAXX 19004 68297 NIL
AAXX 19004 68342 NIL
AAXX 19004 68343 NIL
AAXX 19004 68370 NIL
AAXX 19004 91367 32474 31014 10311 20267 83100 333 20261 562// 83815 555 91900 91369 11474 80518 10289 20256 30099 40102 60144 78082 83217 333 20250 56119 58014 83815 82260 88780 555 91900
AAXX 19004 91723 NIL
AAXX 19004 91759 11598 20814 10311 20238 40090 58012 60001 70500 82201 333 20244 70025 82825
AAXX 19004 91762 11598 30714 10295 20254 40089 58012 60001 70520 83200 333 20247 70018 83820
BBXX 46184 19001 99539 71389 46/// /2508 10073 40081 52031 22200 00065 11011 70053 333 91210
AAXX 19001 24856 31996 00000 11439 21461 30090 40273 53002 71000 333 21439 47021 55000
AAXX 19001 30679 NIL
AAXX 19001 30686 32999 00000 11357 21367 39895 40323 57001 333 21360 47011
AAXX 19001 30961 32999 01502 11202 21221 39480 40327 58001 333 21204
AAXX 19001 30971 32999 01902 11290 21321 39263 40358 53003 333 21299 47004
AAXX 19001 30978 32999 00902 11292 21316 39587 40348 53005 333 21292 47005
AAXX 19001 31513 31995 00000 11292 21297 30000 40251 53001 71000 333 21296 47009
AAXX 19001 31624 NIL
AAXX 19001 31832 32998 11001 11232 21250 30146 40240 52005 80009 333 21282 47015
AAXX 19001 31913 33/// /3103 11172 21207 30133 40260 52005 333 21209
AAXX 19001 31913 33/// /3103 11172 21207 30133 40260 52005 333 21209
AAXX 19001 31939 32998 50000 11225 21251 39920 40274 52005 85030 333 21253 47027
AAXX 19001 32128 11597 70102 11087 21120 30102 40156 51004 60010 78582 87300 333 21089 48039 91005 91108
AAXX 19001 31939 32998 50000 11225 21251 39920 40274 52005 85030 333 21253 47027
BBXX 46232 19001 99325 71174 46/// ///// 1//// 90008 22200 00153 11402 20801 329// 41402 70012
BBXX 46249 19001 99338 71197 46/// ///// 1//// 90012 22200 00146 10503 20503 326// 41501 70016
BBXX 46247 19001 99378 71228 46/// ///// 1//// 90021 22200 00113 11704 21002 329// 41704 70022
BBXX 46246 19001 99500 71451 46/// ///// 1//// 90029 22200 00074 11210 21006 324// 41208 70050
BBXX 46246 19001 99500 71451 46/// ///// 1//// 92359 22200 00074 11211 21006 324// 41209 70054
BBXX A8XD5 19004 99422 11685 41297 52106 10080 20038 40020 57000 70322 8/782 22223 2//// 327// 40808 80060
BBXX S6JU 19004 99438 11635 41597 82920 10005 21010 40020 54000 70172 8776/ 22214 0//// 2//// 32829 40606 50504 6//// 80000 ICE /////
BBXX UDWE 19001 99473 11526 42698 63411 11002 40038 52008 86260 22213 00032 20402 33500 40905
AAXX 19004 43086 31996 00000 10140 20125 39966 40151 70500 333 58007
AAXX 19004 43128 31596 50000 10160 20143 39534 40159 70522 82530 333 58001 82620 83360
AAXX 19004 43150 31996 20000 10214 20172 30071 40147 70500 80002 333 58002 82070
AAXX 19004 43185 31596 33602 10202 20193 30134 40138 70510 81501 333 58000 81620 83070
AAXX 19004 43189 32996 00000 10204 20188 30134 40143 333 58002
AAXX 19004 43198 32996 20000 10136 20114 39294 40144 80001 333 58004 82075
AAXX 19004 43201 32996 00904 10172 20135 39403 40136 333 58007
AAXX 19004 43213 32996 00000 10186 20166 39822 40147 333 58006
AAXX 19004 43226 32996 00905 10234 20151 30087 40117 333 59001
AAXX 19004 43233 32996 20905 10164 20144 39318 40144 80001 333 58003
AAXX 19004 43237 32996 20000 10178 20158 39744 40147 80001 333 58007 82075
AAXX 19004 43245 32996 31302 10216 20197 30112 40139 80001 333 58004
AAXX 19004 43279 31596 10000 10224 20206 30111 40129 70500 81500 333 59004 81620
AAXX 19004 43284 32996 20905 10206 20159 39994 40112 80001 333 58010 82075
AAXX 19004 43295 31996 20902 10152 20138 39110 48505 71010 80002 333 58004 82075
AAXX 19004 43311 32996 20000 10234 20219 40104 80001 333 58011 82075
AAXX 19004 43314 32596 40703 10228 20190 40107 81431 333 58005
AAXX 19004 43321 31495 30902 10202 20183 39678 40132 70510 81531 333 59005
AAXX 19004 43329 32996 00000 10220 20195 30102 40116 333 59004
AAXX 19004 43344 31495 63603 10230 20182 30023 40124 70522 83531 333 58003 83618 84360
AAXX 19004 43346 21596 83405 10230 20205 30102 40109 70262 8355/ 333 59004 6991/ 83620 87360
AAXX 19004 43353 31496 50000 10246 20210 40101 70522 82871 333 56699 59004 82614 83459 85072
AAXX 19004 43369 32596 40503 10270 20235 40097 82401 333 58006 82620
AAXX 19004 43371 32596 50000 10258 20229 30026 40099 82402 333 58010 82620 85075
AAXX 19004 91367 32474 31014 10311 20267 83100 333 20261 562// 83815 555 91900 91369 11474 80518 10289 20256 30099 40102 60144 78082 83217 333 20250 56119 58014 83815 82260 88780 555 91900 /
BBXX 46004 19001 99509 71361 46/// /2013 10085 40179 57021 22200 00074 10808 70042 333 91215
AAXX 19004 41859 31/03 90000 10107 20105 30130 40170 74540 89/// 333 56999 58001 70000 89///
AAXX 19004 41883 31/02 90000 10104 20100 30138 40160 74544 89/// 333 56999 59005 70000
AAXX 19004 41891 31420 80302 10151 20140 30112 40153 71022 8532/ 333 56999 59007 70000 85614 81930 88460
AAXX 19004 41907 31/02 90000 10105 20105 30138 40153 74544 89/// 333 56999 58001 70000
AAXX 19004 41936 31903 00000 10110 20110 40163 74405 333 59006 70000
AAXX 19004 41978 31301 40000 10134 20130 30139 40146 74244 84700 333 56900 59002 70000 84709
AAXX 19004 41992 31910 03602 10150 20150 30142 40144 71000 333 58003 70000
AAXX 19001 56671 32780 11801 10014 21001 38220 52009 81100 333 05351 31014
AAXX 19001 57378 31958 00402 10009 21010 40300 52001 71000 333 05453 31028
AAXX 19001 57426 31758 80201 10045 20033 40276 52002 71000 885// 333 05505 30015
AAXX 19001 57476 31959 01101 10014 20005 40293 57001 71000 333 05451 31012
AAXX 19001 57584 31950 00000 10028 21001 40300 52003 71000 333 05453 31001
AAXX 19001 57598 31956 00000 11017 21018 40312 52005 71000 333 05256 31015
AAXX 19001 57655 32960 80201 10046 20004 40293 52003 8807/ 333 05402 30014
AAXX 19001 57713 NIL
AAXX 19001 57776 32968 00702 10005 21061 40299 52001 333 05202 31021
AAXX 19001 58321 31920 70000 11023 21029 40330 52004 71000 83042 333 05253
AAXX 19001 58437 32980 02704 10001 21029 38205 52005 333 05100
AAXX 19001 58445 NIL
AAXX 19001 58556 31940 70401 10049 20012 40316 52008 70500 8704/ 333 05205 30038
AAXX 19001 58569 32975 03604 10063 20018 40312 52013 333 05101 30025
AAXX 19001 58646 31956 00000 10030 20012 40313 52011 71000 333 05202 30002
AAXX 19001 58653 NIL
AAXX 19001 58660 NIL
AAXX 19001 58715 32960 03602 10025 21017 40300 52010 333 05251 30007
AAXX 19001 58730 32972 00201 10042 21002 40294 52011 333 05303 30010
AAXX 19001 58731 31958 21401 10011 21004 40302 52011 71000 82040 333 05302 31008
AAXX 19001 58754 32962 03601 10071 20033 40298 52012 333 05201 30027
AAXX 19001 58911 32963 00901 10028 20012 40289 52012 333 05251 30031
AAXX 19001 58931 32970 10908 10054 20017 38401 52012 80002 333 05100 31001
AAXX 19001 59254 31757 70401 10102 20058 40258 52016 70500 875// 333 05153
AAXX 19001 59632 32961 70403 10121 20033 40238 52013 8704/ 333 05253
AAXX 19001 59855 32568 83602 10165 20110 40216 52016 888// 333 05152
AAXX 19001 80001 11570 80604 10272 20219 30125 40126 69901 70252 81276 333 10289 56100 58000 81820 85360
AAXX 19001 80002 32470 80404 10274 20211 82178 333 10295 56190 82817 85358
AAXX 19001 80009 31560 30507 10264 20218 30081 40086 70511 81831 333 10304 56880 59008 81820
AAXX 19001 80022 31462 40404 10268 20236 30096 40098 70522 84101 333 10316 56901 59005 81815 83070
AAXX 19001 80028 31460 50507 10271 20228 30077 40112 70510 83505 333 10310 561/9 58006 83613 85270
AAXX 19001 80035 01465 50000 10250 20236 30122 40127 60011 70565 82536 333 10296 56099 58000 69907 82618 83360
AAXX 19001 80036 31568 30704 10258 20219 70511 81808 333 10324 56000 81820
AAXX 19001 80063 NIL
AAXX 19001 80084 31260 80000 10264 20239 70522 8587/ 333 10299 5619/ 82705 83815 86358
AAXX 19001 80091 11460 50000 10270 20241 69921 70552 82801 333 10314 569/0 82610 83070
AAXX 19001 80094 31457 43003 10204 20195 38796 74022 82870 333 10248 5679/ 59005 82810 83357
AAXX 19001 80097 12460 89901 10230 20215 39752 40102 69921 8423/ 333 10285 5699/ 57894 59002 84815 84359
AAXX 19001 80099 31566 30000 10262 20239 39903 40046 70500 83602 333 10317 563/9 58006 83723
AAXX 19001 80110 NIL
AAXX 19001 80112 01460 82202 10146 20139 37895 60141 70565 8447/ 333 10210 56009 58004 60137 84812 86358
AAXX 19001 80139 NIL
AAXX 19001 80144 NIL
AAXX 19001 80210 11460 80000 10212 20180 38649 60101 70592 81578 333 10258 56000 58001 82615 85358
AAXX 19001 80211 31565 70000 10204 20181 70592 85270 333 10264 5660/ 85820 83360
AAXX 19001 80214 31460 51102 10224 20213 39101 70522 82235 333 10277 56009 57862 59004 82817 83270
AAXX 19001 80222 31465 83503 10138 20115 37506 71722 8697/ 333 10200 5699/ 57911 58001 83915 83617 83357
AAXX 19001 80234 NIL
AAXX 19001 80252 NIL
AAXX 19001 80259 11560 73305 10232 20178 39042 69911 71552 85830 333 10285 5646/ 58007 85825 83358
AAXX 19001 80315 32665 40000 10272 20218 39565 40062 81155 333 10308 56889 59006 81835
AAXX 19001 80342 NIL
AAXX 19001 80370 NIL
AAXX 19001 80372 NIL
AAXX 19001 80398 32470 60000 10272 20257 39991 40086 81534 333 10320 56199 59007 81615 85070
BBXX 46004 19001 99509 71361 46/// /2013 10085 40179 57021 22200 00074 10808 70042 333 91215
BBXX 44099 19001 99369 70757 46/// ///// 1//// 90022 22200 00122 10602 20602 308// 41101 70011
BBXX 44039 19001 99411 70727 46/// /3305 11011 21133 40266 92353 22200 00095 10201 70004 333 91209
AAXX 19004 61096 32960 70402 10164 21028 39742 40125 80008 333 0//00 59017 87280
AAXX 19004 61096 32960 70402 10164 21028 39742 40125 80008 333 0//00 59017 87280
AAXX 19004 71359 16/// /3106 11052 21111 60001 333 11010 21052 70006
AAXX 19004 71888 16/// ///// 11055 21097 60001 333 11001 21055 70000
AAXX 19004 71067 16/// ///// 11068 21081 60001 333 11011 21068 70009
AAXX 19004 71283 16/// /1803 11105 21123 60001 333 11060 21110 70018
AAXX 19004 71673 16/// ///// 11065 21075 60001 333 11009 21065 70004
AAXX 19004 71690 16/// ///// 11075 21093 60001 333 11050 21124 70012
AAXX 19004 71788 16/// /3005 11007 21023 60001 333 10076 21010 70000
AAXX 19004 71792 16/// ///// 11089 21098 60001 333 11003 21089 7////
AAXX 19004 71405 16/// ///// 11078 21106 60001 333 11003 21078 70004
AAXX 19004 71417 16/// /3303 11128 21149 30200 40236 53017 60001 333 11076 21128 70000
AAXX 19004 71426 46/// /2317 11074 6///1 333 11069 21146 7////
AAXX 19004 71461 16/// /1704 11096 21111 60001 333 11045 21110 70015
AAXX 19004 71468 17/// /2205 11002 21002 39675 49996 58006 60051 7//4/ 333 21047 70052
AAXX 19004 71483 16/// ///// 11035 21083 60001 333 11002 21036 70000
AAXX 19004 71221 16/// /3001 11161 21173 60001 333 11081 21175 70000
AAXX 19004 71226 16/// /2107 11053 21077 60001 333 11021 21055 70005
AAXX 19004 71229 46/// /1908 11104 21140 6///1 333 11029 21152 7////
AAXX 19004 71010 16/// /2805 11067 21091 60001 333 11002 21067 70006
AAXX 19004 71011 16/// ///// 11053 21074 60001 333 10003 21057 70005
AAXX 19004 71500 17/// /2806 11041 21062 69941 7//4/ 333 11012 21041 70020
AAXX 19004 71504 17/// ///// 11059 21069 69941 7//4/ 333 11008 21086 70042
AAXX 19004 71526 16/// /3408 11024 21042 60001 333 11008 21034 70006
AAXX 19004 71541 16/// /2207 11090 21111 60001 333 11032 21105 70000
AAXX 19004 71543 16/// /0402 11115 21127 60001 333 11011 21183 70004
AAXX 19004 71546 16/// /2007 11073 21109 60001 333 11002 21114 70016
AAXX 19004 71547 16/// /2203 11079 21124 60001 333 11037 21096 70000
BBXX 46146 19001 99493 71237 46/// /2906 10072 40277 52011 22200 00068 10301 70003 333 91207
AAXX 19001 56144 32980 31101 11085 21171 36865 52007 80002 333 05351
AAXX 19001 56152 32680 32901 11188 21203 36300 52001 81402 333 05302 92502
AAXX 19001 56167 32980 02901 11095 21125 37097 52007 333 05452
AAXX 19001 56182 32980 20000 11098 21144 37205 52007 80002 333 05452 79999
AAXX 19001 56357 32980 02701 11149 21213 36445 57001 333 05352
AAXX 19001 56586 11457 83601 10005 21009 38064 52003 69901 71060 885// 333 05501 31003 79999
AAXX 19001 56748 32580 21401 10029 20020 38375 52005 82400 333 05200 30006
AAXX 19001 56763 32680 11403 10118 20052 40155 52011 81400 333 05304
AAXX 19001 56768 32680 61602 10072 20065 38203 52007 86400 333 05200 30041
AAXX 19001 56838 31/02 91402 10095 20086 40194 52011 74340 333 05100
AAXX 19001 56886 32760 72001 10064 20055 38321 52008 874// 333 05301 30048 79999
AAXX 19001 56946 32680 20901 10060 20060 40210 52010 82400 333 05151
AAXX 19001 56959 32765 60000 10143 20141 40195 52009 86400 333 05152
AAXX 19001 56969 31458 70901 10118 20112 40218 52005 71000 875// 333 05153
AAXX 19001 57731 32764 80000 10051 20010 40291 52007 885// 333 05401 30019
AAXX 19001 57766 32960 71601 10051 21005 40295 52001 8704/ 333 05400 30017
AAXX 19001 57845 32965 83601 10064 21015 40278 52007 8807/ 333 05401 30050
AAXX 19001 57853 31957 80901 10057 21015 40294 52002 70500 8807/ 333 05400 30037
AAXX 19001 57916 32662 80000 10109 20061 40246 52008 885// 333 05502
AAXX 19001 57922 32660 81601 10043 20015 40272 52005 885// 333 05402
AAXX 19001 57932 31659 80000 10079 20034 40277 52006 71000 885// 333 05400
AAXX 19001 58338 31920 00701 11023 21030 40319 52005 71000 333 05154 31048
AAXX 19001 59007 32461 81601 10075 20053 40233 52005 885// 333 05402 79999
AAXX 19001 59046 32762 80201 10090 20017 40267 52008 885// 333 05352 30036
AAXX 19001 59058 31950 71601 10054 20026 40276 52015 71000 8704/ 333 05155 30041
AAXX 19001 59072 31956 03201 10021 20021 40286 52012 71000 333 05254 30003
AAXX 19001 59087 32962 00903 10092 21037 40263 52016 333 05152
AAXX 19001 59209 32461 80000 10104 20071 40240 52011 888// 333 05401
BBXX 46146 19001 99493 71237 46/// /2906 10072 40277 52011 22200 00068 10301 70003 333 91207
BBXX 42013 19001 99272 70829 46/// ///// 1//// 40236 92340 22200 00197
BBXX 41010 19001 99289 70785 46/// /0607 10199 40245 90020 22200 00238 10604 20603 300// 40702 70018 333 91210 555 11074 22077
BBXX 41009 19001 99285 70802 46/// /0306 10212 20110 40248 90020 22200 00253 10703 20502 300// 40703 70016 333 91208 555 11058 22060
BBXX 44100 19001 99363 70756 46/// ///// 1//// 90022 22200 00125 10603 20603 306// 41201 70016
BBXX 41110 19001 99341 70777 46/// ///// 1//// 90021 22200 00140 11201 21001 311// 41201 70005
BBXX 42099 19001 99273 70842 46/// ///// 1//// 90027 22200 00232 10603 20603 70013
BBXX 41113 19001 99284 70805 46/// ///// 1//// 90021 22200 00215 11101 21001 310// 41101 70007
BBXX 42362 19001 99278 70907 46/// /0808 10183 20083 40254 90015
BBXX 42363 19001 99282 70892 46/// /0708 10167 20078 40264 90030 333 91208
BBXX 42361 19001 99276 70925 46/// ///09 10189 20089 40240 53003 90030 333 91211 555 11073 22078
BBXX 42364 19001 99291 70881 46/// /0606 10150 20072 40264 90030
BBXX 44258 19001 99445 70634 46/// /0211 11008 40184 52014 22200 00067 10603 70017 333 91213
BBXX 44258 19001 99445 70634 46/// /0211 11008 40184 52014 22200 00067 10603 70017 333 91213
AAXX 19001 21432 11998 21402 11253 21284 30273 40294 52008 69902 82030 333 21254 48007
AAXX 19004 96009 01440 10230 20227 30063 40098 52013 60314 76166 8392/ 333 20228 50560 55012 56409 57941 58007 60207 81915 82617 86467 80966
AAXX 19004 96011 11458 71203 10236 20229 30070 40096 52010 60084 70522 84531 333 20236 50170 55005 56000 84619
AAXX 19004 96035 12458 72505 10243 20227 30060 40098 53014 60054 85978 333 20232 50230 55010 56000 57901 58004 81917 84618 80958
AAXX 19004 96073 11457 70000 10228 20225 30086 40097 52015 61164 70522 83922 333 20214 5///0 55010 56000 57901 58011 83917 80960
AAXX 19004 96091 11458 80205 10262 20245 30062 40085 51010 60064 70262 8482/ 333 20244 50460 55066 56809 57881 59007 82613 83817 88460 80860
AAXX 19004 96109 01430 82705 10236 20234 30048 40087 52014 60154 76162 86572 333 20236 50580 55000 56000 58001 60147 86610
AAXX 19004 96145 01440 83611 10261 20237 30080 40082 5//// 60064 72162 8652/ 333 20250 50190 55000 56809 58000 60027 86615 88460
AAXX 19004 96147 NIL
AAXX 19004 96163 11557 80000 10246 20239 30088 40090 52014 60104 70262 84521 333 20235 55030 56000 59008 84620
AAXX 19004 96179 12460 70000 10248 20236 30062 40099 52008 60034 83208 333 20230 50070 55008 56000 57802 58002 83817 80850
AAXX 19004 96195 11456 73208 10250 20233 30059 40095 52009 60034 70522 83531 333 20232 50561 55062 56000 59003 83615
AAXX 19004 96221 01440 80000 10236 20234 30072 40087 52014 60124 72196 8352/ 333 20230 50490 55073 56999 59007 60057 83612 88460
AAXX 19004 96237 32457 70000 10249 20238 30043 40085 51015 83277 333 20241 50370 55051 56000 57801 59003 83816 85360 88280 80858
AAXX 19004 96249 01557 70000 10231 20230 30020 40080 52010 60794 70296 86976 333 20221 5//// 55007 56700 57971 57871 59007 69937 81917 85817 80981
AAXX 19004 96253 11458 70303 10249 20226 30048 40069 57005 60144 70296 83972 333 20234 50184 55054 55508 50822 56000 57900 57800 59012 69907 81915 82820 83360
AAXX 19004 96295 NIL
AAXX 19004 96509 32460 50000 10264 20246 30078 40090 53019 86231 333 20260 50500 55066 56000 57803 59002 86814 80865
AAXX 19004 96581 32458 60000 10251 20247 30074 40081 52014 81131 333 20236 50360 55087 56000 58000 81812 84361 80860
AAXX 19004 96633 12559 70703 10260 20242 30070 40077 52016 60204 82571 333 20238 50910 55051 56000 59001 82620 85461
AAXX 19004 96645 12456 63203 10250 20240 30052 40084 52026 60024 82572 333 20232 50160 55030 56000 58000 82613
AAXX 19004 96655 11420 80203 10242 20236 30076 40111 52019 60364 72842 8757/ 333 20234 50120 55020 56009 59002 87610
AAXX 19004 96685 11457 80000 10252 20245 30072 40098 50027 69924 76022 8752/ 333 20234 50120 55010 56009 58008 87610
AAXX 19004 96749 32564 32811 10270 20234 30077 40090 53017 81531 333 20242 50220 55004 56000 59009 81625
AAXX 19004 96781 31450 50000 10218 20186 39268 48732 52009 70511 82531 333 20206 56000 59013 82618
AAXX 19004 96805 11558 80000 10262 20241 30075 40084 51020 71422 85220 333 20254 50300 55025 56000 57801 59015 85820 86460 80860
AAXX 19004 96839 11450 70000 10262 20244 30072 40079 52023 60134 70592 84976 333 20248 50551 55062 56000 59008 81918 83619 80980
AAXX 19004 96935 12560 70905 10280 20254 30065 40072 53016 60084 82171 333 20250 50510 55074 56000 59014 82820 85460
AAXX 19004 41258 36/// /2404 10226 20169 30167 40172 333 0E/// 58018
BBXX 44140 19001 99429 70515 46/// /1506 10151 40046 57013 22200 00093 11106 70030 333 91208
AAXX 19004 97008 01458 70000 10254 20245 30071 40081 52012 60244 72162 85272 333 20248 50460 55071 56000 57801 58009 60197 85818 80860
AAXX 19004 97016 12563 40000 10292 20240 30078 40080 52017 60074 82131 333 20248 50370 55057 56000 57802 59002 82820 80860
AAXX 19004 97126 12460 40501 10270 20241 30025 40085 52014 60024 81521 333 20214 50430 55063 56000 59004 81618 84460
AAXX 19004 97142 12560 30000 10292 20244 30055 40069 5//// 60084 81231 333 20246 50440 55082 56000 57805 58000 81820 83080 80857
AAXX 19004 97182 12468 60700 10268 20241 30076 40081 55019 60414 82211 333 20253 50040 55000 56000 57901 57801 59006 81920 81820 84080 80977 80877
AAXX 19004 97240 01440 80000 10234 20231 39980 40095 52024 60741 76162 86271 333 20232 50340 55025 56000 57801 58012 60497 86816 80860
AAXX 19004 97284 12462 40000 10222 20197 38851 40089 5//// 60674 82131 333 20120 50230 55030 56000 58002 82813
AAXX 19004 97310 12568 20000 10284 20249 30058 40070 5//// 60104 82101 333 20208 50100 55008 56000 59003 82820
AAXX 19004 97320 12565 61304 10290 20250 30064 40077 5//// 60064 82231 333 20248 50240 55070 58004 82820 84360
AAXX 19004 97378 01562 70000 10274 20257 39926 40089 5//// 60034 76162 81171 333 20250 50240 55005 56000 58016 81820 84459
AAXX 19004 97380 12564 20000 10320 20249 30054 40074 5//// 64754 82101 333 20247 50410 55018 56000 59001 82820
AAXX 19004 97406 32463 60000 10264 20243 30058 40083 52021 83231 333 20222 50360 55038 56000 57801 58008 83818 80860
AAXX 19004 97570 NIL
AAXX 19004 97630 11464 51705 10284 10243 39933 40094 52025 60134 70522 84942 333 20240 50048 55028 56000 57901 58000 81911 83813 80978
AAXX 19004 97682 32475 52802 10298 20252 30074 40081 52010 82162 333 20246 55043 56000 57800 59010 82813 84080
AAXX 19004 97698 11460 70000 10290 20247 30084 40091 52011 69904 70562 85842 333 20256 55022 56000 57801 59010 82815 82618 87078 80880
AAXX 19004 97700 32460 62204 10270 20243 30060 40074 51016 82232 333 20240 50420 55041 56000 57803 59008 82818 84358 80856
AAXX 19004 97722 12565 30000 10294 20239 30066 40081 52005 69924 83232 333 20228 50320 55054 56000 57802 59009 83820 80850
AAXX 19004 97780 NIL
AAXX 19004 97790 11559 72904 10295 20257 30034 40055 52012 60374 70522 82236 333 20249 50210 55000 56000 57802 59012 82820 80866
AAXX 19004 96001 01456 81110 10248 20242 39953 40102 5//// 60524 71622 85522 333 20176 50000 55000 56200 59016 60477 85617
AAXX 19004 96015 11450 70000 10231 20230 30068 40075 5//// 60041 71062 85572 333 10227 50250 55011 56000 59017 85617
AAXX 19004 96033 01420 80608 10244 20235 30089 40095 57015 60324 76162 8592/ 333 20236 50124 55008 56909 57903 59002 60177 81920 85615 88457 80980
AAXX 19004 96075 31440 80000 10253 20248 30087 40093 57006 71792 8592/ 333 56009 57901 82915 83616 80965
AAXX 19004 96087 01456 80104 10255 20243 30051 40084 51013 60194 72162 8652/ 333 20250 50770 55036 56009 57902 59005 60067 81920 85615 88460 809//
AAXX 19004 96171 01430 80000 10240 20234 30067 40091 52015 60424 76162 8652/ 333 20238 5//// 55016 56009 58001 60417 86610
AAXX 19004 96207 NIL
AAXX 19004 96505 11410 80000 10206 20206 39061 4//// 5//// 60294 71042 886// 333 20200 55020 56099 58000 88710
AAXX 19004 96525 12459 72004 10271 20243 30083 40090 52021 69904 84275 333 20248 50190 55056 56000 59002 84815
AAXX 19004 96529 32460 40000 10264 20240 30078 40102 52019 83131 333 20244 50380 55048 56000 59005 82818
AAXX 19004 96535 02458 70000 10240 20236 30071 40091 5//// 60554 83231 333 20234 50500 55008 56000 57802 59006 60028 83814 84362 80864
AAXX 19004 96557 11450 50000 10244 20232 30027 40076 60154 70522 83111 333 20230 50830 55080 56200 57821 59009 83813 80857
AAXX 19004 96559 11350 70000 10250 20247 30042 40080 57018 60054 70522 85170 333 20232 50450 55030 56400 57844 59007 85809 85462 80849
AAXX 19004 96565 01356 80000 10250 20241 30041 40093 5//// 60104 70522 84771 333 20236 50330 55077 56009 59009 60088 84708 85457
AAXX 19004 96595 11220 70000 10234 20231 30054 40105 60144 71022 87631 333 20226 50520 55052 56600 58003 87705
AAXX 19004 96607 12458 83405 10257 30082 40097 52022 69904 8552/ 333 20246 50410 55050 56009 59005 85613 88459
AAXX 19004 96615 12456 80000 10254 20245 30080 40095 60134 8522/ 333 20240 50450 55051 56009 57801 58005 85812 88460 80856
AAXX 19004 96695 12457 40000 10254 20242 30077 40082 5//// 60084 82211 333 20234 5//// 55029 56000 57802 59002 82816 80860
AAXX 19004 96737 01456 82803 10254 20239 30046 40076 52017 69904 76062 85521 333 20252 50240 55011 56000 59003 69907 85615 83460
AAXX 19004 96739 NIL
AAXX 19004 96741 32559 52703 10269 20236 30076 40080 52018 82571 333 20261 55006 56000 58/// 82623
AAXX 19004 96745 32557 60000 10268 20235 30080 40085 52019 81571 333 20256 50420 55015 56000 59013 81620 85460
AAXX 19004 96751 12558 50000 10190 20176 39020 48920 52015 83511 333 20186 50320 55011 56000 59013 69927 83620
AAXX 19004 96791 11456 70000 10264 20249 30021 40095 52020 69904 71522 83551 333 20251 50314 55053 56000 59011 83618
AAXX 19004 96797 12560 71602 10266 20242 30068 40073 52014 60024 82231 333 20242 50520 55044 5//// 56000 57802 59019 82820 85360 80860
AAXX 19004 96837 11558 81003 10264 20241 30080 40083 52027 60034 70522 85276 333 20259 50630 55085 56000 57800 59014 85823
AAXX 19004 96925 11465 70000 10267 20258 30074 40078 51025 60084 70162 84272 333 20253 50410 55013 56600 57860 59004 84817 86460 80860
AAXX 19004 96933 12459 80604 10272 20246 30071 40075 52011 60564 8352/ 333 20247 50611 55073 56609 59018 83618 88458
AAXX 19004 96937 NIL
AAXX 19004 96973 12459 80000 10266 20255 30064 40069 52009 69904 82976 333 20258 50551 55076 56000 57902 59009 81919 80976 81820 80850
AAXX 19004 96987 01457 82204 10240 20233 30036 40095 52030 60054 76066 8332/ 333 20244 50321 55054 56009 57900 58008 60057 81918 82619 88458 80980
AAXX 19004 97014 12560 30000 10301 20247 30001 40094 52018 69924 82211 333 20232 50380 55084 55508 51840 56700 57873 59001 82821 80858
AAXX 19004 97028 32565 50902 10276 20238 30071 40077 51011 82471 333 20240 50470 55077 56000 58000 82620 84460
AAXX 19004 97048 32458 70000 10260 20245 30051 40075 52016 86122 333 20234 50420 55076 56000 57802 59013 85813 80860
AAXX 19004 97072 32560 60000 10274 20242 30004 40104 52025 82571 333 20248 50690 55060 56000 58002 82620 84460
AAXX 19004 97086 12560 51403 10294 20255 30062 40087 51018 69904 82271 333 20260 50480 55073 56000 57803 59002 82820 85460 80860
AAXX 19004 97096 32460 30000 10274 20248 30076 40097 52016 82231 333 20240 50680 55070 56000 57803 59017 82818 80857
AAXX 19004 97120 12462 42701 10278 20243 30044 40077 52010 69904 81231 333 20254 50440 55057 56000 57803 59008 81818 83360 80860
AAXX 19004 97146 11456 63005 10270 20250 30017 40078 5//// 69954 70522 82171 333 20240 56000 57803 59002 82813 83360 80858
AAXX 19004 97180 12459 50702 10282 20246 30070 40088 51019 60434 82231 333 20238 5//// 55011 55508 50890 56000 59006 82819 83080
AAXX 19004 97192 32466 20703 10278 20258 30037 40094 52016 81231 333 20254 51641 55066 56000 57804 59008 81816 80857
AAXX 19004 97230 01156 80205 10249 20242 30083 40090 52025 60854 76166 8427/ 333 20253 50/// 55035 56009 57801 58020 69937 84814 87459 80859
AAXX 19004 97260 12566 70000 10254 20242 30059 40066 50010 60154 83971 333 20238 50440 55040 56000 57904 58000 81920 80980 83080
AAXX 19004 97270 11457 50000 10270 20249 30068 40072 53019 60142 70521 83111 333 20248 50250 55031 56000 59005 83815
AAXX 19004 97300 12560 50000 10288 20248 30046 40086 52015 60014 82271 333 20246 50320 55040 56000 57802 58008 82820 80856
AAXX 19004 97340 12570 72103 10280 20258 30065 40079 51021 60144 81132 333 20236 50280 55600 56000 58005 81820 87080
AAXX 19004 97372 01462 60000 10272 20256 39964 40085 52021 60144 70266 82131 333 20240 50450 55061 56000 58006 69907 82819 84360
AAXX 19004 97430 32460 30804 10286 20248 30058 40088 52017 82202 333 20250 51050 55088 56700 57873 59003 82818 80860
AAXX 19004 97460 32461 30804 10292 20247 30052 40066 52008 82236 333 20232 50770 55063 56000 57803 59007 82818 80856
AAXX 19004 97502 31457 50204 10296 20257 30078 40082 52017 70544 84231 333 20247 55048 56000 58008 84810
AAXX 19004 97530 11460 33005 10298 20252 30084 40089 52021 60024 70262 82264 333 20246 55038 56000 57801 58000 82814 80833
AAXX 19004 97560 12460 70000 10286 20249 30068 40083 52008 69904 82238 333 20254 50030 55023 56000 57804 57014 82818 86361 85279 80860
AAXX 19004 97580 32462 50000 10294 20259 30096 40103 51018 82203 333 20200 55003 56000 57801 59016 82815 80860
AAXX 19004 97600 12562 50000 10296 20253 30070 40076 5//// 69904 82231 333 20250 5//// 55088 56600 57863 59001 82820 80860
AAXX 19004 97686 11460 73304 10216 20155 38349 40081 54000 60044 70522 85844 333 20144 50/// 55030 56000 57802 59003 84812 86361 80859
AAXX 19004 97690 12465 62709 10296 20229 39976 40078 52010 69944 81142 333 20244 55049 56000 59012 81816 86080
AAXX 19004 97724 31459 60903 10302 20256 30062 40079 52017 70522 83832 333 20247 50360 55009 56700 57872 59006 82815 80850
AAXX 19004 97748 31462 73104 10292 20246 30056 40058 55002 70522 83932 333 20262 50300 55020 56700 57972 58000 81914 82815 85075 80940 80850
AAXX 19004 97760 12463 72704 10287 20253 30079 40088 52017 60124 82902 333 20240 55020 56000 57901 59002 81915 82816 80960
AAXX 19004 97796 11458 70000 10276 20250 30003 40094 52005 60104 70522 83532 333 20238 55060 56000 59015 83613 87362
AAXX 19004 97810 12462 73012 10294 20251 30063 40072 52018 60104 83272 333 20251 50130 55000 56700 57873 58000 83819 80850
AAXX 19004 97876 32360 70503 10270 20247 30102 40132 51017 84551 333 20238 55/// 56000 58001 84608 86358
AAXX 19004 97900 12468 82405 10277 20261 30043 40071 58007 60474 8582/ 333 20256 50440 55015 56609 57861 59001 84617 88460 80857
AAXX 19004 97980 01450 82704 10271 20239 30080 40087 52019 60364 76022 86942 333 20248 50260 55/// 56000 57901 58009 69907 82915 84817 80980
BBXX ZNQO3 19000 99374 10031 41498 73110 10140 20037 40208 51007 70200 8/7// 22264 04175 2//// 3//// 4//// 5//// 80093
BBXX TBWUK17 19003 99157 30871 41498 61014 10268 20252 40132 53005 70311 84460 22253 04280 20101 313// 40503 5//// 80257
BBXX TBWUK12 19004 99279 50092 41/98 /0000 10185 20151 40266 51011 7//00 8//// 22263 04210 2//// 3//// 4//// 5//// 80165
BBXX A8HD5 19001 99070 10779 41397 80112 10270 20241 40105 54000 70322 8577/ 22235 04285 20604 305// 41004 5//// 80250
BBXX 44140 19001 99429 70515 46/// /1506 10151 40046 57013 22200 00093 11106 70030 333 91208
BBXX 46036 19001 99484 71339 46/// /2110 10084 40275 57007 22200 00085 11406 70030 333 91212
BBXX 46036 19001 99484 71339 46/// /2110 10084 40275 57007 22200 00085 11406 70030 333 91212
AAXX 19001 88900 46/// /3503 10016 21001 30087 40089 55001 333 10027 20014
BBXX 62123 19004 99563 10022 41/98 /2920 10055 20001 40133 52021 7//// 8//// 22200 20604 330// 40606 5////
BBXX AMOUK08 19004 99501 70061 46/// ///// 10097 20048 30220 40225 57005 92350
BBXX 63106 19004 99610 10017 46/// /3121 10035 40055 51003 22200
BBXX 63105 19004 99610 10017 47598 ///// 10047 21017 40054 51003 700// 22200
BBXX 62103 19004 99499 70029 46/// /3520 10084 20023 40206 50001 22200 00120 10703 70015 333 90710 91125
BBXX DHTK 19001 99409 70124 41698 20208 10150 20053 40300 51010 70311 82100 22214 00160 20803 80100
BBXX GHJV 19003 99378 70101 41/98 10509 10139 20057 40267 57/// 70200 81/// 22251 02166 20402 334// 40904 80100
AAXX 19004 48001 NIL
AAXX 19004 48004 31901 90000 10098 20098 74744 89/// 333 20088
AAXX 19004 48008 NIL
AAXX 19004 48010 31220 43601 10115 20111 40116 74044 84600 333 20105 56800 59011
AAXX 19004 48018 31940 00000 10123 20123 40159 74244 333 20059 58005
AAXX 19004 48019 32950 00000 10112 20110 40168 333 20109 59002
AAXX 19004 48020 NIL
AAXX 19004 48025 NIL
AAXX 19004 48035 31/01 90000 10076 20055 40181 74744 89/// 333 20060 56999 58006
AAXX 19004 48037 32920 00000 10130 20124 40184 333 20126 59001
AAXX 19004 48042 32557 10000 10145 20134 40152 81400 333 20137 56900 59002
AAXX 19004 48045 NIL
AAXX 19004 48048 32540 10000 10125 20120 40156 81500 333 20120 56900 59004
AAXX 19004 48053 32950 00000 10150 20134 40159 333 20145 58017
AAXX 19004 48057 31429 31401 10117 20102 71000 82806 333 20104 56409
AAXX 19004 48060 31420 10000 10116 20102 40196 74044 81100 333 20100 56500 58003
AAXX 19004 48062 NIL
AAXX 19004 48071 31903 00000 10163 20144 40145 74244 333 20150 58003
AAXX 19004 48077 31956 10402 10180 20147 40150 71011 80001 333 20154 56009 59001
AAXX 19004 48078 32950 13201 10172 20154 40145 80001 333 20152 56009 59002
AAXX 19004 48080 31540 30000 10155 20154 40123 71044 82806 333 20145 56900 59007
AAXX 19004 48094 32556 30000 10183 20178 40135 81506 333 20178 56909 58024
AAXX 19004 48097 32456 50501 10200 20185 40157 82806 333 20189 56909 58024
AAXX 19004 48108 31596 60000 10190 20175 40128 70522 82405 333 20185 56109 59000
AAXX 19004 48109 32496 60402 10265 20226 40118 84530 333 20235 56590 59003
AAXX 19004 48110 31995 21802 10225 20177 40118 70522 80006 333 20225 56009 59004
AAXX 19004 48112 31597 60409 10245 20205 40094 70522 82246 333 20185 56199 59010
AAXX 19004 48001 NIL
AAXX 19004 48004 31901 90000 10098 20098 74744 89/// 333 20088
AAXX 19004 48008 NIL
AAXX 19004 48010 31220 43601 10115 20111 40116 74044 84600 333 20105 56800 59011
AAXX 19004 48018 31940 00000 10123 20123 40159 74244 333 20059 58005
AAXX 19004 48019 32950 00000 10112 20110 40168 333 20109 59002
AAXX 19004 48020 NIL
AAXX 19004 48025 NIL
AAXX 19004 48035 31/01 90000 10076 20055 40181 74744 89/// 333 20060 56999 58006
AAXX 19004 48037 32920 00000 10130 20124 40184 333 20126 59001
AAXX 19004 48042 32557 10000 10145 20134 40152 81400 333 20137 56900 59002
AAXX 19004 48045 NIL
AAXX 19004 48048 32540 10000 10125 20120 40156 81500 333 20120 56900 59004
AAXX 19004 48053 32950 00000 10150 20134 40159 333 20145 58017
AAXX 19004 48057 31429 31401 10117 20102 71000 82806 333 20104 56409
AAXX 19004 48060 31420 10000 10116 20102 40196 74044 81100 333 20100 56500 58003
AAXX 19004 48062 NIL
AAXX 19004 48071 31903 00000 10163 20144 40145 74244 333 20150 58003
AAXX 19004 48077 31956 10402 10180 20147 40150 71011 80001 333 20154 56009 59001
AAXX 19004 48078 32950 13201 10172 20154 40145 80001 333 20152 56009 59002
AAXX 19004 48080 31540 30000 10155 20154 40123 71044 82806 333 20145 56900 59007
AAXX 19004 48094 32556 30000 10183 20178 40135 81506 333 20178 56909 58024
AAXX 19004 48097 32456 50501 10200 20185 40157 82806 333 20189 56909 58024
AAXX 19004 48108 31596 60000 10190 20175 40128 70522 82405 333 20185 56109 59000
AAXX 19004 48109 32496 60402 10265 20226 40118 84530 333 20235 56590 59003
AAXX 19004 48110 31995 21802 10225 20177 40118 70522 80006 333 20225 56009 59004
AAXX 19004 48112 31597 60409 10245 20205 40094 70522 82246 333 20185 56199 59010
AAXX 19004 41184 31956 22102 10160 20134 40181 70500 82030 333 58021 82360
AAXX 19004 41194 11657 21704 10177 20139 30182 40187 60001 70500 82500 333 58017 70000 82635
AAXX 19004 41196 31658 21806 10164 20134 30150 40191 70500 82500 333 58017 82635
AAXX 19004 41198 32960 02910 10200 20128 40179 333 58016
AAXX 19004 41217 31958 01803 10154 20126 30155 40185 70500 333 58021
AAXX 19004 41218 31645 40406 10151 20133 39884 40198 70510 84500 333 58021 84633
AAXX 19004 41258 36/// /2404 10226 20169 30167 40172 333 0E/// 58018
BBXX V7NV4 19004 99287 71396 41898 70519 10190 20141 40240 56010 7//21 86722 22273 00220 20204 30505 42204 50204 6//// 80160 ICE /////
BBXX V7MO2 19004 99262 70914 41/// /0813 10190 20104 40237 54000 7//// 8//// 22200 00230 20502 308// 40504 5//// 6//// 80140 ICE /////
BBXX WC5932 19004 99458 70871 43/// /2021 00/// 10022 21044 40073 55035 7//// 8//// 22200 0//// 2//// 3//// 4//// 5//// 6//// 81002 ICE /////
BBXX WDA2768 19004 99418 70874 43/// /2322 00/// 10056 20017 40166 57020 7//// 8//// 22283 0//// 2//// 3//// 4//// 5//// 6//// 80040 ICE /////
BBXX WRAH 19004 99360 70053 41698 31213 10120 2//// 40207 52004 7//// 8289/ 22254 00174 20102 326// 40303 5//// 6//// 8//// ICE /////
BBXX WKDY 19004 99377 10061 41498 83424 10110 20072 40180 57020 75052 8892/ 22223 00177 20303 332// 40604 5//// 6//// 80090 ICE /////
BBXX C6PZ8 19004 99259 70781 41/// 20532 10220 2016/ 40240 54/// 7//// 8//// 22263 00250 2//// 3//// 4//// 5//// 6//// 80180 ICE /////
BBXX WCZ5238 19004 99159 11791 41598 41019 10270 20228 40144 54/// 7//00 84105 22273 00270 20403 309// 40405 5//// 6//// 80240 ICE /////
AAXX 19004 83437 21597 81402 10230 20213 39395 40106 75022 887// 333 10296 29080 55066 59008 69941
AAXX 19004 83579 32596 83602 10212 20189 38999 40109 88800 333 10241 29084 55002 59001
AAXX 19004 83592 215// 80000 10215 20210 39439 40119 75052 8472/ 333 10258 29092 55003 59012 69981
AAXX 19004 83766 32997 00000 10248 20154 39454 40086 5//// 333 10318 29051 55108
AAXX 19004 83836 32997 02701 10167 20123 39114 40075 53012 333 10276 29061 55100
AAXX 19004 83881 31497 11802 10246 20147 39784 40062 53002 71310 81300 333 10310 29055 55106
AAXX 19004 83980 32997 00000 10222 20143 39776 40053 53002 333 10253 29060 55052
AAXX 19004 83997 21897 32310 10182 20165 30023 40066 51010 70265 83040 333 10222 29087 55006 60051
AAXX 19001 20046 41497 72308 11015 21020 30011 40042 53001 77173 875// 333 91114
AAXX 19001 20069 31458 71712 11050 21060 30143 40156 57010 73832 875// 333 21111 47017 87611 91117
AAXX 19001 20087 31998 71506 11268 21300 30251 40263 57003 73631 8703/ 333 21309 48019
AAXX 19001 20292 32998 01801 11235 21260 30272 40293 54000 333 21249 91103
AAXX 19001 20353 NIL
AAXX 19001 20667 NIL
AAXX 19001 20674 32998 31404 11245 21270 30187 40253 54000 83030 333 21246 48024 91105
AAXX 19001 20744 42998 31402 11029 21056 30137 40155 52003 80001
AAXX 19001 20891 31996 00000 11353 21371 30233 40281 52009 71000 333 21353 47/// 91101
AAXX 19001 23022 41496 82409 11017 21022 30107 40168 52009 71052 886// 333 91113
AAXX 19001 23032 41396 82210 11039 21044 30144 40175 52006 73873 886// 333 88709 91115
AAXX 19001 23058 42498 80000 11095 21116 30217 40222 52012 885// 333 88615
AAXX 19001 23242 41396 81901 11057 21064 30190 40206 52006 78582 889// 333 88909
AAXX 19001 23256 41498 82701 11116 21122 30189 40226 52014 70242 885// 333 88614
AAXX 19001 23330 42697 82603 11044 21075 30205 40226 52009 8453/ 333 84643
AAXX 19001 23445 42497 81802 11055 21062 30207 40233 52003 85507 333 88611
AAXX 19001 23552 42297 80401 11080 21090 30198 40233 52017 885// 333 88706
AAXX 19001 23631 42998 02203 11089 21118 30220 40263 52003
AAXX 19001 23662 41496 83202 11078 21092 30178 40224 52026 77172 8672/
AAXX 19001 23724 42998 32304 11045 21106 30256 40322 53009 80001
AAXX 19001 23734 42998 02903 11062 21121 30210 40304 52004
AAXX 19001 23849 42996 32706 11089 21108 40300 57002 83030
AAXX 19001 23867 41496 82606 11101 21121 30190 40265 57003 77173 8272/
AAXX 19001 23933 41997 22603 11061 21089 30272 40330 55003 73630 80001
AAXX 19001 28064 42998 02503 11068 21088 30302 40398 52008
AAXX 19001 28275 42997 02101 11144 21157 30365 40420 57004
AAXX 19001 28493 42997 12002 11186 21205 30331 40434 57006 81030
AAXX 19001 28698 41496 82603 11206 21225 30308 40480 57008 77177 8572/ 333 85713
AAXX 19001 23426 42983 52302 11096 21117 30218 40243 52004 80001
AAXX 19001 23625 42998 02301 11060 21139 30242 40277 52004
AAXX 19001 28076 42997 02502 11088 21091 30292 40368 54000
AAXX 19001 28367 42984 02202 11141 21154 30329 40468 52003
AAXX 19001 28382 42998 02202 11170 21183 30357 40434 57004
AAXX 19001 28481 42997 02102 11200 21219 30353 40463 57002
AAXX 19001 28491 41997 02303 11179 21191 30316 40437 57010 70271
AAXX 19001 28573 42997 01901 11218 21236 30370 40486 57004
AAXX 19001 28593 42997 72303 11163 21182 30338 40445 57003 87050
AAXX 19001 28786 42997 02804 11232 21250 30335 40513 57011
AAXX 19001 28797 41997 82702 11253 21270 30325 40504 57009 77671 80001
AAXX 19001 28799 42997 72302 11265 21290 30326 40491 57013 87070
BBXX 46238 19001 99334 71195 46/// ///// 1//// 90020 22200 00144 11404 20603 328// 41403 70021
BBXX 46239 19001 99363 71221 46/// ///// 1//// 90021 22200 00128 11506 21002 330// 41506 70032
AAXX 19004 63688 32980 11004 10110 20109 48/// 81020 333 58000 81358
AAXX 19004 63740 32260 60505 10172 20160 48507 8653/ 333 58005 82705 84616
AAXX 19004 63612 NIL
AAXX 19004 63661 NIL
AAXX 19004 63671 NIL
AAXX 19004 63695 NIL
AAXX 19004 63708 NIL
AAXX 19004 63714 NIL
AAXX 19004 63723 NIL
AAXX 19004 63772 NIL
AAXX 19004 63793 NIL
AAXX 19004 63820 NIL
AAXX 19003 63793 32480 80000 10235 20228 40086 885// 333 58005 88515
AAXX 19004 41863 31905 02702 10111 20110 30111 40157 74244 333 59012 70000
AAXX 19004 41886 31902 00000 10138 20130 30135 40157 74444 333 59009 70000
AAXX 19004 41895 32950 02701 10102 20100 30136 40161 333 59013 70000
AAXX 19004 41909 31910 00000 10137 20137 30134 40147 70404 333 59008 70000
AAXX 19004 41915 31/05 90302 10135 20135 30136 40162 74544 89/// 333 59007 70000
AAXX 19004 41926 31902 00000 10101 20100 30150 40164 74400 333 59010 70000
AAXX 19004 41929 31/04 93602 10136 20136 30145 40155 74540 89/// 333 59010 70000
AAXX 19004 41933 31904 00000 10134 20130 30144 40157 74244 333 59011 70000
AAXX 19004 41941 31409 63602 10127 20127 30157 40163 74242 85420 333 56990 58006 70000 84616 86460
AAXX 19004 41946 31908 00000 10122 20120 30154 40159 74640 333 59003 70000
AAXX 19004 41947 31905 00000 10115 20115 30143 40145 74444 333 59015 70000
AAXX 19004 41953 31305 83103 10142 20140 30153 40159 74044 886// 333 56999 58000 70000 88706
AAXX 19004 41958 31915 00000 10135 20135 30148 40150 71044 333 59005 70000
AAXX 19004 41960 31430 83601 10152 20150 30151 40153 70520 8452/ 333 56999 59007 70000 84616 88458
AAXX 19004 41964 31915 03601 10137 20130 30160 40162 71000 333 59002 70000
AAXX 19004 41984 31450 23606 10146 20140 30140 40142 70500 82500 333 56900 59012 70000 82618
BBXX 51204 19001 99213 71581 46/// ///// 1//// 90022 22200 00247 11303 20802 330// 41302 70015
BBXX 51202 19001 99214 71577 46/// ///// 1//// 90009 22200 00246 10805 20804 335// 41302 70023
BBXX 44060 19001 99413 70721 46/// ///06 11026 40262 90030 22200 00104 333 91208 555 11062 22067
BBXX 44022 19001 99409 70737 46/// ///02 11015 21129 40266 90030 22200 00082 333 91204 555 11021 22021
BBXX 44040 19001 99410 70736 46/// /0204 11016 21132 40269 90019 22200 1//00 70001 333 91205 555 11036 22041
BBXX 46243 19001 99462 71241 46/// ///// 1//// 90029 22200 00077 11306 21004 326// 41304 70030
BBXX 46236 19001 99368 71219 46/// ///// 1//// 90020 22200 00127 11504 20901 327// 41504 70019
BBXX 46229 19001 99438 71246 46/// ///// 1//// 90021 22200 00102 11407 20804 329// 41405 70034
BBXX 46225 19001 99329 71174 46/// ///// 1//// 90014 22200 00149 11701 20901 327// 41701 70007
BBXX 46213 19001 99403 71247 46/// ///// 1//// 90024 22200 00108 11506 21003 331// 41505 70029
BBXX 46215 19001 99352 71209 46/// ///// 1//// 90008 22200 00147 11704 21002 326// 41703 70019
BBXX 46219 19001 99332 71199 46/// ///// 1//// 90028 22200 00136 11706 20603 331// 41705 70028
BBXX 46224 19001 99332 71175 46/// ///// 1//// 90006 22200 00144 11301 21001 324// 41301 70005
BBXX 46214 19001 99379 71235 46/// ///// 1//// 90025 22200 00115 11405 21002 329// 41404 70025
BBXX TBWUK12 19004 99279 50092 41/98 /0000 10185 20151 40266 51011 7//00 8//// 22263 04210 2//// 3//// 4//// 5//// 80165
BBXX AMOUK15 19004 99101 50122 46/// ///// 10227 20188 30139 40172 54003 92350
BBXX A8NO8 19003 99241 10365 41/98 30412 10250 20207 40150 54000 7//11 8/1// 22275 04320 20303 30000 80220
BBXX DGZT2 19003 99107 10663 41497 20421 10265 20227 40110 55005 70200 8/1// 22264 04290 2//// 80238
BBXX WHKM 19004 99235 10370 41498 53015 10210 20195 40150 54/// 70511 858// 22233 0//// 20202 327// 40503 5//// 6//// 80200 ICE /////
BBXX A8HD5 19001 99070 10779 41397 80112 10270 20241 40105 54000 70322 8577/ 22235 04285 20604 305// 41004 5//// 80250
BBXX WCZ5238 19004 99159 11791 41598 41019 10270 20228 40144 54/// 7//00 84105 22273 00270 20403 309// 40405 5//// 6//// 80240 ICE /////
BBXX PBOF 19003 99388 11180 41996 02407 10000 21058 40330 54000 70000 80000 22200 04070 20101 30000 81020 90501
BBXX 52244 19001 99200 11452 46/// ///// 1//// 90008 22200 00270
BBXX 52246 19001 99152 11457 46/// ///// 1//// 90009 22200 00281
BBXX 52245 19001 99181 11458 46/// ///// 1//// 90005 22200 00282
BBXX 52248 19001 99135 11448 46/// ///// 1//// 90006 22200 00284
BBXX UFMK 19001 99452 11389 42598 33312 11055 40106 54000 83400 22253 00040 20302
BBXX UDWE 19001 99473 11526 42698 63411 11002 40038 52008 86260 22213 00032 20402 33500 40905
BBXX UEYO 19001 99459 11431 41798 53207 11020 40160 54000 85080 22223 00030 20301
BBXX A8MV6 19003 99117 10742 41997 09903 10280 20205 40115 56010 70000 80000 22273 04300 20100 31499 40503 5//// 80230
BBXX 52243 19001 99193 11666 46/// ///// 1//// 92354 22200 00260
BBXX ELUT5 19001 99123 11151 41596 30503 10280 40070 52025 76311 82717 22254 20506 305// 41007 5////
BBXX MGPU2 19003 99420 11337 41998 03325 11040 21045 40248 54000 70200 80000 22221 00018 20205 333// 40308 5//// 81040
BBXX 46036 19001 99484 71339 46/// /2110 10084 40275 57007 22200 00085 11406 70030 333 91212
BBXX 44140 19001 99429 70515 46/// /1506 10151 40046 57013 22200 00093 11106 70030 333 91208
BBXX 44258 19001 99445 70634 46/// /0211 11008 40184 52014 22200 00067 10603 70017 333 91213
BBXX 41009 19001 99285 70802 46/// /0306 10212 20110 40248 90020 22200 00253 10703 20502 300// 40703 70016 333 91208 555 11058 22060
BBXX 41113 19001 99284 70805 46/// ///// 1//// 90021 22200 00215 11101 21001 310// 41101 70007
BBXX 42361 19001 99276 70925 46/// ///09 10189 20089 40240 53003 90030 333 91211 555 11073 22078
BBXX 41110 19001 99341 70777 46/// ///// 1//// 90021 22200 00140 11201 21001 311// 41201 70005
BBXX 41010 19001 99289 70785 46/// /0607 10199 40245 90020 22200 00238 10604 20603 300// 40702 70018 333 91210 555 11074 22077
BBXX 44100 19001 99363 70756 46/// ///// 1//// 90022 22200 00125 10603 20603 306// 41201 70016
BBXX 42364 19001 99291 70881 46/// /0606 10150 20072 40264 90030
BBXX 42099 19001 99273 70842 46/// ///// 1//// 90027 22200 00232 10603 20603 70013
BBXX 42362 19001 99278 70907 46/// /0808 10183 20083 40254 90015
BBXX 42363 19001 99282 70892 46/// /0708 10167 20078 40264 90030 333 91208
BBXX 42013 19001 99272 70829 46/// ///// 1//// 40236 92340 22200 00197
BBXX 46146 19001 99493 71237 46/// /2906 10072 40277 52011 22200 00068 10301 70003 333 91207
BBXX 44039 19001 99411 70727 46/// /3305 11011 21133 40266 92353 22200 00095 10201 70004 333 91209
BBXX 44099 19001 99369 70757 46/// ///// 1//// 90022 22200 00122 10602 20602 308// 41101 70011
BBXX 46004 19001 99509 71361 46/// /2013 10085 40179 57021 22200 00074 10808 70042 333 91215
BBXX 46246 19001 99500 71451 46/// ///// 1//// 92359 22200 00074 11211 21006 324// 41209 70054
BBXX 46232 19001 99325 71174 46/// ///// 1//// 90008 22200 00153 11402 20801 329// 41402 70012
BBXX 46247 19001 99378 71228 46/// ///// 1//// 90021 22200 00113 11704 21002 329// 41704 70022
BBXX 46246 19001 99500 71451 46/// ///// 1//// 90029 22200 00074 11210 21006 324// 41208 70050
BBXX 46249 19001 99338 71197 46/// ///// 1//// 90012 22200 00146 10503 20503 326// 41501 70016
BBXX 46184 19001 99539 71389 46/// /2508 10073 40081 52031 22200 00065 11011 70053 333 91210
BBXX 44058 19001 99376 70763 46/// /3604 10051 40273 51026 90000 22200 00085 10201 70004 333 91205
BBXX 44058 19001 99376 70763 46/// /3503 1//// 40273 90010 333 91204
BBXX 44040 19001 99410 70736 46/// /0204 11016 21132 40269 90015 22200 1//00 70001 333 91205 555 11036 22041
BBXX 44059 19001 99368 70763 46/// /0203 10054 40271 51026 90000 22200 00098 333 91204
BBXX 44057 19001 99395 70761 46/// /0101 1//// 90020 333 91202
BBXX 44059 19001 99368 70763 46/// /0203 1//// 40274 90010 333 91205
BBXX 44059 19001 99368 70763 46/// /0502 1//// 90020 333 91204
BBXX 44058 19001 99376 70763 46/// /0104 1//// 90020 333 91204
BBXX 44057 19001 99395 70761 46/// /0102 1//// 40271 90010 333 91202
BBXX 44057 19001 99395 70761 46/// /0301 10016 40270 51021 90000 22200 00053 333 91202
BBXX 51176 19001 99278 71758 46/// ///// 1//// 90002 22200 00236
BBXX 51172 19001 99284 71783 46/// ///// 1//// 90014 22200 00232
BBXX 51173 19001 99260 71739 46/// ///// 1//// 90011 22200 00244
BBXX 46092 19001 99368 71220 46/// /3006 10110 40198 92357 22200 00126 555 11062 22067
BBXX DCDP2 19004 99387 70658 41/98 30133 10085 20075 40110 51005 70180 8//// 22213 00200 20608 80080
BBXX PBHZ 19003 99277 70783 41/97 /0112 10212 20206 40235 53019 70222 8//// 22223 20302 80208
BBXX GDTT 19004 99130 70699 41398 30620 10270 20204 40120 54000 7//00 82140 22232 00300 20402 306// 40505 80226
BBXX V7NV4 19004 99287 71396 41898 70519 10190 20141 40240 56010 7//21 86722 22273 00220 20204 30505 42204 50204 6//// 80160 ICE /////
BBXX WDA2768 19004 99418 70874 43/// /2322 00/// 10056 20017 40166 57020 7//// 8//// 22283 0//// 2//// 3//// 4//// 5//// 6//// 80040 ICE /////
BBXX WC5932 19004 99458 70871 43/// /2021 00/// 10022 21044 40073 55035 7//// 8//// 22200 0//// 2//// 3//// 4//// 5//// 6//// 81002 ICE /////
BBXX VQKZ6 19003 99043 70803 41397 82524 10255 20215 40101 58008 70262 83574 22224 02232 20202 323// 40304 5//// 80228
BBXX 62141 19003 99493 50591 41998 12518 10107 20097 40058 52014 70200 80004 22200 20503 33627 40702 50703 80102
BBXX DFCX2 19003 99076 50804 41697 31507 10212 20197 40123 53020 70211 8354/ 22234 06190 20501 320// 41504 80202
BBXX ZCDM6 19003 99260 70755 41598 40228 10220 20190 40196 54000 70200 845// 22235 00250 20302 304// 40203 5//// 80200
BBXX ZCDP8 19003 99261 70791 41498 20220 10218 20094 40224 52011 70111 82500 22224 00260 20203 301// 40304 5//// 80151
BBXX VREX7 19004 99242 70807 41398 50411 10230 20215 40220 54000 70211 837// 22254 20501 307// 40601 5//// 80220
BBXX 44043 19001 99392 70764 46/// /0401 10038 40266 51019 90000 22200 00068 1//00 70001 333 91202
BBXX 44043 19001 99392 70764 46/// /0301 1//// 90020 333 91201
BBXX 44043 19001 99392 70764 46/// /0501 1//// 40268 90010 333 91202
BBXX 44062 19001 99386 70764 46/// /2001 1//// 90020 22200 00084 333 91201
BBXX 44041 19001 99372 70768 46/// /0801 1//// 90020 333 91201
BBXX 44042 19001 99380 70763 46/// /0302 10044 40276 51024 90000 22200 00085 1//00 70002 333 91202
BBXX 44042 19001 99380 70763 46/// /0202 1//// 40276 90010 333 91202
BBXX 44062 19001 99386 70764 46/// /1701 1//// 40258 90010 22200 00084 333 91201
BBXX 44063 19001 99390 70764 46/// /0000 10029 40281 53019 90000 22200 00073 1//00 70001 333 91200
BBXX 44063 19001 99390 70764 46/// /0000 1//// 90020 333 91200
BBXX 44041 19001 99372 70768 46/// /1001 1//// 40301 90010 333 91202
BBXX 44041 19001 99372 70768 46/// /0602 10035 40299 51023 90000 22200 00094 1//00 70001 333 91202
BBXX 44062 19001 99386 70764 46/// /1401 10031 40256 90000 22200 00085 1//00 70001 333 91201
BBXX 44042 19001 99380 70763 46/// /0102 1//// 90020 333 91202
BBXX 44063 19001 99390 70764 46/// /0000 1//// 40283 90010 333 91200
BBXX 46181 19001 99538 71288 46/// /2102 10026 40277 54000 22200 00052 10300 70000 333 91202
BBXX 46205 19001 99542 71343 46/// /1717 10067 40131 57054 22200 00078 10708 70041 333 91220
BBXX 46206 19001 99488 71260 46/// /3205 10081 40277 52015 22200 00089 11406 70031 333 91207
BBXX DDLK 19003 99433 70618 41497 50434 10060 20039 40140 51020 76366 829/8 22213 04050 20506 304// 40406 80050
BBXX FLAO 1900/ 99764 70847 46/// ///// 11278 49928 52006
BBXX C6PZ8 19004 99259 70781 41/// 20532 10220 2016/ 40240 54/// 7//// 8//// 22263 00250 2//// 3//// 4//// 5//// 6//// 80180 ICE /////
BBXX 46185 19001 99524 71298 46/// /1509 10068 40264 57008 22200 00072 11003 70013 333 91210
BBXX 3FCA9 19004 99515 71659 41497 72517 00/// 10050 20030 49900 52020 72372 878// 22225 00060 21002 32725 40804 51001 6//// 80040 ///// /////
BBXX WDE2719 19003 99607 71514 41/96 81310 10006 2//// 49730 57/// 761// 8//// 222// 01011 2//01 322// 4//01 5//// 6//// 8//// ICE /////
BBXX 41036 19001 99342 70770 46/// ///// 10093 21016 40282 90020 22200 00164
BBXX 44030 19001 99432 70704 46/// /3406 1//// 40246 51019 90004 22200 00083 10603 70014 333 91208 555 11076 22080
BBXX 44060 19001 99413 70721 46/// ///06 11026 40258 90015 22200 00105 333 91207 555 11057 22062
BBXX 44029 19001 99425 70706 46/30 /3108 11027 40244 52019 90004 22200 00088 10603 70013 333 91210 555 11093 22096
BBXX 44034 19001 99441 70681 46/30 /3608 11054 40235 51019 90004 22200 00086 10502 70010 333 91210 555 11095 22098
BBXX 44039 19001 99411 70727 46/// /3405 11011 21135 40265 51016 90000 22200 00095 10201 70004 333 91207
BBXX 44022 19001 99409 70737 46/// ///03 11014 21124 40263 90015 22200 00082 333 91204 555 11026 22026
BBXX 44032 19001 99437 70694 46/30 /3608 11047 40238 51017 90004 22200 00087 10401 70007 333 91209 555 11088 22092
BBXX 46087 19001 99485 71247 46/// /1002 10082 20081 40273 90020 22200 00078 333 91204 555 11023 22027 30017 41004 60019 101019 109016 138014 141013 134018 126018
BBXX V7MO2 19004 99262 70914 41/// /0813 10190 20104 40237 54000 7//// 8//// 22200 00230 20502 308// 40504 5//// 6//// 80140 ICE /////
BBXX 51170 19001 99168 71695 46/// ///// 1//// 92348 22200 00262
BBXX 51171 19001 99064 71623 46/// ///// 1//// 92346 22200 00279
BBXX TBWUK17 19003 99157 30871 41498 61014 10268 20252 40132 53005 70311 84460 22253 04280 20101 313// 40503 5//// 80257
BBXX VMGO 19003 99390 31450 41298 72619 10192 20151 40066 52001 70311 8572/ 22233 00132 20401 326// 40503 5//// 80168
BBXX 51179 19001 99143 51708 46/// ///// 1//// 90003 22200 00288
BBXX UGWJ 19001 99028 10916 42498 80706 10262 40098 53010 88170 22252 00291 20201 31900 40602
BBXX 51178 19001 99142 51695 46/// ///// 1//// 92357 22200 00288
BBXX 51174 19001 99142 51697 46/// ///// 1//// 92354 22200 00286
BBXX 51169 19001 99004 51600 46/// ///// 1//// 92354 22200 00260
BBXX ZMFR 19004 99490 31670 43/// /17// 10097 20075 40193 54000 22221 00110
BBXX ZMENA 19004 99419 31743 46/// ///// 10117 20061 40181 57012 22214
BBXX VNAH 19004 99333 31157 46/// /1404 10199 20091 30116 40139 52013 22200 85137
BBXX VREN5 19003 99395 31729 41598 41226 10140 20080 40150 57020 70200 84165 22283 20410 314// 40610 80110
BBXX ZSAF 19004 99664 50007 41499 72509 11021 21037 49740 52020 70222 875// 22223 05016 2//// 300// 40000 5//// ICE 62610
BBXX ZDLP 19003 99607 50455 41598 81408 11006 21019 49984 57030 70222 8357/ 22200 04005 20201 31400 40901 5//// 81010 ICE 0/7/0
BBXX ZNQO3 19000 99374 10031 41498 73110 10140 20037 40208 51007 70200 8/7// 22264 04175 2//// 3//// 4//// 5//// 80093
BBXX BAREU00 19004 99515 70134 46/// ///// 40184 57017 22224
BBXX BAREU62 19004 99442 10091 46/// ///// 40133 22234
BBXX DQVI 19003 99519 10016 41/98 /3007 10030 21021 40170 52010 7//// 8//// 22200 00090 2//// 80010
BBXX WRAH 19004 99360 70053 41698 31213 10120 2//// 40207 52004 7//// 8289/ 22254 00174 20102 326// 40303 5//// 6//// 8//// ICE /////
BBXX WKDY 19004 99377 10061 41498 83424 10110 20072 40180 57020 75052 8892/ 22223 00177 20303 332// 40604 5//// 6//// 80090 ICE /////
BBXX MGPU2 19003 99420 11337 41998 03325 11040 21045 40248 54000 70200 80000 22221 00018 20205 333 // 40308 5//// 81040
BBXX UEYO 19001 99459 11431 41798 53207 11020 40160 54000 85080 22223 00030 20301
BBXX V7QN8 19003 99311 11226 41296 20010 10070 20030 40310 55/// 70122 82229 22200 04080 20601 300// 40601 5//// 6//// 80050 ICE /////
BBXX WCX8882 19004 99314 11281 41698 63424 10140 20060 40270 54000 7//22 861// 22200 00210 20606 302// 41004 5//// 6//// 80100 ICE /////
AAXX 19004 89003 46/79 /3220 11067 29068 39063 4//// 5////
AAXX 19004 89507 46/89 /1505 11273 29067 36841 4//// 5////
AAXX 19004 91723 NIL
AAXX 19004 91964 NIL
BBXX KS098 19004 99440 71243 43/// /2115 10095 40268 22271 06000
BBXX KS094 19004 99132 70598 43/// /0710 10265 40144 22252 06271
BBXX KS088 19004 99267 70801 43/// /0701 10219 40224 22200 06241
AAXX 1900/ 89329 46/// ///// 11131 38789 4//// 5//// 90020
AAXX 1900/ 89799 46/// ///// 11253 4//// 5//// 90020
AAXX 1900/ 89332 46/// ///// 11085 39270 4//// 5//// 90020
AAXX 1900/ 89108 46/// ///// 11225 36925 4//// 5//// 90010
AAXX 1900/ 89314 46/// ///// 11138 38238 4//// 5//// 90020
BBXX 44137 19001 99423 70620 46/// /0415 10062 40102 52010 22200 00100 11009 70043 333 91219
BBXX 44137 19001 99423 70620 46/// /0415 10062 40102 52010 22200 00100 11009 70043 333 91219
AAXX 19001 31152 32997 42001 11334 21363 39822 40275 52001 82032 333 21347 47027 55001
AAXX 19001 31163 NIL
AAXX 19001 31285 32999 82301 11293 21331 30157 40245 52005 86084 333 21302
AAXX 19001 31561 32998 20000 11288 21306 30196 40227 52006 82030 333 21307
AAXX 19001 31683 32999 20000 11264 21276 30119 40201 52004 80001 333 21285 47012
AAXX 19001 32010 11496 73106 11072 21077 30078 40128 52012 60040 78582 87900 333 21096 48049 87912 91009 91110
AAXX 19004 71761 16/// ///// 11042 21116 60001 333 11009 21043 70000
AAXX 19004 71592 16/// /3405 11213 21244 39858 49871 50000 60001 333 11185 21226 70000
AAXX 19004 71277 46/// /1808 11078 21086 6///1 333 11026 21084 7////
AAXX 19004 71049 16/// /3023 11241 39948 49972 51020 60001 333 11225 21253 70000
AAXX 19004 71923 16/// ///06 11237 21257 39670 40131 51016 60001 333 11173 21273 7////
AAXX 19004 71963 46/// /2203 11301 21330 39717 40142 50001 6///1 333 11256 21304 7////
AAXX 19004 71490 16/// /2608 11325 21355 39808 40148 50004 60001 333 11252 21326 70000
BBXX 44138 19001 99443 70536 46/// /0314 10057 40051 52001 22200 00089 10808 70042 333 91217
BBXX 44138 19001 99443 70536 46/// /0314 10057 40051 52001 22200 00089 10808 70042 333 91217
BBXX 46004 19001 99509 71361 46/// /2013 10085 40179 57021 22200 00074 10808 70042 333 91215
BBXX 46036 19001 99484 71339 46/// /2110 10084 40275 57007 22200 00085 11406 70030 333 91212
BBXX 46145 19001 99544 71324 46/// /1612 10062 40193 57027 22200 00071 11404 70022 333 91214
BBXX 46181 19001 99538 71288 46/// /2102 10026 40277 54000 22200 00052 10300 70000 333 91202
BBXX 46183 19001 99536 71311 46/// /1511 1//// 4//// 5//// 22200 0//// 1//// 70/// 333 912//
BBXX 46185 19001 99524 71298 46/// /1509 10068 40264 57008 22200 00072 11003 70013 333 91210
BBXX 46204 19001 99514 71288 46/// /1103 10064 40284 52004 22200 00083 11505 70027 333 91204
BBXX 46205 19001 99542 71343 46/// /1717 10067 40131 57054 22200 00078 10708 70041 333 91220
BBXX 46206 19001 99488 71260 46/// /3205 10081 40277 52015 22200 00089 11406 70031 333 91207
BBXX A8EH3 19003 99500 71285 41597 43410 10090 40285 54000 701// 848// 22234 04080 29901
BBXX KS098 19004 99440 71243 43/// /2115 10095 40268 22271 06000
BBXX WDJK 19004 99422 71258 41598 70230 10110 20072 40280 54000 70222 8748/ 22243 00110 20502 330// 41109 5//// 6//// 80090 ICE /////
AAXX 19001 38846 416// 80504 10006 21008 38539 48500 52004 71022 86933
AAXX 19001 38599 42497 62613 11067 21095 39821 40370 52017 86900 333 83715 81630 91118
AAXX 19001 38954 428// 80000 11023 21036 37946 48540 52004 8452/
AAXX 19001 38844 426// 61803 11013 21127 48500 57005 83902
AAXX 19004 96695 12457 40000 10254 20242 30077 40082 5//// 60084 82211 333 20234 50260 55029 56000 57802 59002 82816 80860
AAXX 19001 98134 11560 80406 10215 20176 39990 40183 5//// 60084 70284 8427/ 333 20168 56199 59006 70082 84820 88357 555 20010
AAXX 19001 98223 31565 73602 10259 20219 40115 53015 70544 81870 333 20237 56999 59019 81620
AAXX 19001 98232 11570 80410 10248 20234 40152 53021 60204 71542 8557/ 222// 20101 333 20233 56199 59033 70200 85620 88358
AAXX 19001 98325 11460 61801 10246 20210 40106 53017 69904 70544 82470 222// 20000 333 20220 56999 59012 79999 82617 84359 98308
AAXX 19001 98328 11462 71402 10190 20175 38520 40094 53029 69964 70544 82238 333 20154 50060 55000 56999 59007 70006 82814 85359 87279
AAXX 19001 98330 11470 73601 10257 20223 30084 40116 52016 69904 70544 83270 333 20235 56999 59009 79999 83818 87358 555 00020
AAXX 19001 98336 11460 80000 10226 20226 30137 40142 53028 62024 76166 8352/ 333 20206 56199 59013 72023 83615 88456 555 20780
AAXX 19001 98429 11560 50000 10267 20233 40112 52014 60044 70544 82831 333 20234 56999 59004 70035 82825 83360 85080
AAXX 19001 98430 11558 50202 10249 20228 40109 52015 60014 70542 82111 333 20222 56999 59002 79999 82820
AAXX 19001 98431 31470 71501 10260 20237 30057 40104 51015 70544 83230 333 20230 56999 59005 83818 87360
AAXX 19001 98440 11468 70000 10263 20252 30105 40110 52016 60144 71562 85208 333 20240 56199 59016 70136 85815 87279 555 20013
AAXX 19001 98444 11468 50601 10260 20252 30085 40104 53019 60264 72582 83378 333 20205 56299 59007 70258 81917 83818 83459 555 20072
AAXX 19001 98526 32575 80404 10290 20253 40098 53017 82107 333 20260 56299 59004 82820 88274 98335
AAXX 19001 98531 31570 50904 10287 20253 30083 40087 53015 70544 81202 333 20259 56199 59004 81820 85075
AAXX 19001 98536 11470 60402 10250 20231 39905 40110 53019 60194 72584 82270 222// 20000 333 20246 56199 58002 70190 82818 84357
AAXX 19001 98543 11475 60000 10270 20247 30097 40108 53014 60064 70162 82231 333 20245 56999 59006 70064 82818 84075 555 20064
AAXX 19001 98550 11460 40000 10262 20246 40103 53018 60094 70381 82262 333 20240 56999 59004 70088 82818 555 20006
AAXX 19001 98618 NIL
AAXX 19001 98630 32575 40202 10278 20246 40134 53016 82202 222// 2//01 333 20258 56199 58002 82820
AAXX 19001 98637 NIL
AAXX 19001 98646 32560 10401 10268 20252 30092 40120 52013 81200 333 20250 56999 58003 81820
AAXX 19001 98653 11468 11402 10288 20251 30045 40090 53023 69944 70544 81200 333 20235 56999 58009 70004 81818
AAXX 19001 98741 11470 70902 10250 20242 40085 52012 60704 70592 82908 333 20239 56199 58007 70697 82917 87275 555 20697
AAXX 19001 98747 31460 72101 10250 20231 39892 40097 52017 70544 83508 333 20235 56999 58010 83618 87275
AAXX 19001 98753 31468 50403 10278 20254 40102 53027 70544 83231 333 20256 55098 2//// 56999 58001 83816 83359
AAXX 19001 98755 11575 30402 10283 20253 40105 52017 60124 70182 83201 333 20251 56199 58013 70164 83820 555 20120
AAXX 19001 98836 11460 70402 10280 20254 40099 53018 60014 70544 82270 333 20250 56999 58005 70012 82818 86362
AAXX 19004 91532 45/// /0613 10299 20229 30062 40070 57011 333 20271
AAXX 19004 41128 32960 00000 10106 20000 38860 48562 333 58033 555 04410 50199
AAXX 19004 89611 41565 80842 10013 21023 39789 49841 58024 70332 81546
AAXX 19004 94290 46/// /1322 10268 30085 40094 50000 90024
AAXX 19004 94210 35/// /1907 10316 30066 40071 52009
AAXX 19004 94289 46/// /1318 10279 30078 40085 50001 90015
AAXX 19004 94379 46/// /1217 10254 30108 40117 56008 90026
AAXX 19004 94802 46/// /2705 10172 20141 30050 40132
AAXX 19004 94802 46/// /2705 10172 20141 30050 40132
AAXX 19004 94290 46/// /1322 10268 30085 40094 50000 90024
AAXX 19004 89611 41565 80842 10013 21023 39789 49841 58024 70332 81546
BBXX 41033 19001 99323 70804 46/// /0602 10119 40276 53016 90000 555 11029 22034
BBXX 44056 19001 99362 70757 46/// ///// 1//// 92350 22200 00108 10602 20602 306// 41301 70012
BBXX DNDD 19004 99409 11396 41596 73119 10020 21033 40179 57030 70372 8649/ 22214 2//// 331// 4//01 5//// 80000
BBXX OYGR2 19004 99372 10050 41598 23525 10130 20074 40206 50004 70200 8/101 22225 04170 20403 80100
AAXX 19001 55228 32980 00000 11172 21330 36027 52003 333 00052
AAXX 19001 55578 32980 01402 11063 21246 36367 52009 333 05107
AAXX 19001 55664 32980 00000 11133 21238 36012 52005 333 00001
AAXX 19001 55773 31/07 90000 11119 21128 36018 52004 74500 333 00104
AAXX 19001 56116 32980 02901 11121 21156 36331 52007 333 05200
AAXX 19001 56137 32980 00000 11099 21166 36793 52009 333 05300
AAXX 19001 56172 32980 21101 11059 21076 37359 52008 80002 333 05400
AAXX 19001 56247 32980 01401 11035 21137 37445 52007 333 05351
AAXX 19001 56312 32680 72701 11002 21070 37100 52007 874// 333 00000 31027
AAXX 19001 56462 32980 03203 11072 21109 37140 52005 333 05451
AAXX 19001 56651 32980 01601 11008 21047 37643 52005 333 05302
AAXX 19001 56691 11/03 91603 10012 20008 37782 52004 69921 76064 333 05404 30021 70002
AAXX 19001 56985 32562 11101 10091 20060 38744 40214 52006 81100 333 05300
AAXX 19001 57633 32760 80000 10034 20008 39491 40297 52006 885// 333 05301 30023
AAXX 19001 57902 11440 81103 10057 20057 38664 40234 52003 69901 76060 887// 333 05503 79999
AAXX 19001 55279 32980 02509 11066 21323 35691 52017 333 00012
AAXX 19001 55472 32980 03602 11104 21328 35729 52015 333 00008 91119 91525
AAXX 19001 55696 32980 00000 11109 21125 36358 52008 333 00000
AAXX 19001 56079 32780 22501 11149 21166 36669 52006 81402 333 05300 70001
AAXX 19001 56106 32980 00000 11146 21225 36196 52011 333 05301
AAXX 19001 56257 32980 01601 11118 21184 36266 52002 333 05301
AAXX 19001 56374 32580 81803 11042 21087 37426 57002 885// 333 05451 31048
AAXX 19001 56385 11/00 90000 11072 21075 37001 52001 69911 74964 333 05351 30001 70002 92508 93435
AAXX 19001 56954 31358 73201 10115 20115 40199 52007 71000 878// 333 05100
AAXX 19001 56966 32765 21104 10145 20095 40199 52011 82400 333 05251
AAXX 19001 57237 32860 80000 10021 20000 40295 52004 885// 333 05351 31009
AAXX 19001 57306 32961 70000 10058 20051 40276 52001 8704/ 333 05402 30047
AAXX 19001 57604 11730 83602 10068 20053 40267 52004 69901 76000 885// 333 05402 79999
AAXX 19001 57707 11450 80901 10017 20017 38528 52005 69951 76066 887// 333 05400 30029 70008
AAXX 19001 57832 11664 83602 10041 21007 39527 40290 52006 69901 70060 885// 333 05402 30005 79999
AAXX 19001 48969 NIL
AAXX 19001 48962 NIL
AAXX 19001 48990 NIL
AAXX 19001 48986 NIL
AAXX 19001 48995 NIL
AAXX 19001 48967 NIL
AAXX 19001 48992 NIL
AAXX 19001 48965 NIL
AAXX 19001 48985 NIL
AAXX 19001 48970 NIL
AAXX 19001 48991 32660 33604 10225 20188 30103 40125 82502 333 20223 58003
AAXX 19001 48964 NIL
AAXX 19001 48997 32997 20000 10206 20190 30102 40107 80001 333 20190 58000
AAXX 19001 48968 NIL
AAXX 19001 48973 NIL
AAXX 19001 48966 32997 13261 10197 20173 30104 40117 80001 333 20192 58008
AAXX 19001 48983 NIL
AAXX 19001 48972 NIL
AAXX 19001 48998 NIL
AAXX 19001 48993 NIL
AAXX 19001 48971 NIL
AAXX 19001 48963 NIL
AAXX 19001 48987 NIL
BBXX 3FCA9 19004 99515 71659 41497 72517 00/// 10050 20030 49900 52020 72372 878// 22225 00060 21002 32725 40804 51001 6//// 80040 ///// /////
BBXX SHIP 19004 99549 71563 41598 72543 10070 20001 49917 52057 70324 8775/ 90000 22262 00060 21010 325// 41217 80040
AAXX 19001 37470 41496 81605 10070 20058 30305 40283 51009 75152 886//
AAXX 19001 37472 41596 81307 10070 20056 30287 40264 52015 71022 8257/ 333 91012 91116
AAXX 19001 38111 42997 01010 11047 21124 30384 40354 52008 555 14106
AAXX 19001 38750 42997 00702 10014 20000 30334 40304 53018 555 10001
AAXX 19000 44218 119// 10000 11257 21281 38694 40523 53007 69942 70271 81040 333 21268 47003 55000 555 3//// 93100
AAXX 19004 62600 32970 03603 10150 20090 39951 40173 333 59002
AAXX 19004 62640 32970 00000 10180 20075 39750 40115 333 58003
AAXX 19004 62641 32970 73207 10228 20180 30087 40145 80007 333 56009 59003 87275
AAXX 19004 62650 32970 03504 10145 21030 39865 40145 333 59003
AAXX 19004 62660 32970 00000 10170 20070 39845 40152 333 58004
AAXX 19004 62660 31968 03604 10210 20100 39716 40113 70600 333 58007
AAXX 19004 62721 32970 73612 10210 20020 39678 40124 80007 333 56009 58002 87275
AAXX 19004 62730 32970 03603 10240 20130 39577 40102 333 58001
AAXX 19004 62733 32970 03602 10210 20100 39603 40115 333 58013
AAXX 19004 62750 32970 73609 10215 20015 39660 40092 80007 333 56009 59003 87275
AAXX 19004 62751 32970 73602 10190 20020 39651 40120 80007 333 56009 59003 87275
AAXX 19004 62752 32970 70505 10225 20050 39430 40108 80007 333 56009 58001 87275
AAXX 19004 62762 32970 73604 10150 20100 39622 40110 80007 333 56009 58003 87275
AAXX 19004 62771 32970 70405 10190 21020 39473 40130 80007 333 56009 59002 87275
AAXX 19004 62772 32970 03406 10198 20072 39686 40131 333 58009
AAXX 19004 62781 32970 70204 10185 21030 39489 40135 80007 333 56009 59003 87275
AAXX 19004 62790 32970 70206 10180 20000 39399 40136 80007 333 56009 58007 87275
AAXX 19004 62795 32970 70202 10238 20052 39600 40102 80007 333 56009 58005 87275
BBXX 42360 19001 99267 70905 46/// /0707 10200 90000 22200 00245 10603 70013 333 91210
AAXX 19004 71406 16/// /2807 11092 21148 30211 40221 53002 60001 333 11091 21111 70000
AAXX 19004 71418 46/// /0418 11027 21078 30158 40191 50004 6///1 333 11022 21036 7////
AAXX 19004 71354 16/// /2909 11056 21096 60001 333 21056 7////
AAXX 19004 71048 16/// /3011 11012 21053 60001 333 11002 21019 70000
AAXX 19004 71505 16/// /3111 10008 21067 39226 49944 56052 60001 333 10010 21186 7////
AAXX 19004 71981 16/// /0203 11020 21044 60001 333 10008 21031 70010
AAXX 19004 71982 16/// /0106 11019 21065 60001 333 10009 21027 70010
AAXX 19004 71986 16/// /2908 11024 21042 60001 333 11008 21024 70000
AAXX 19004 71990 16/// /2202 11118 21137 38431 40043 58041 60001 333 11103 21155 7////
AAXX 19004 71048 16/// /3011 11012 21053 60001 333 11002 21019 70000
AAXX 19004 71406 16/// /2807 11092 21148 30211 40221 53002 60001 333 11091 21111 70000
AAXX 19004 71418 46/// /0418 11027 21078 30158 40191 50004 6///1 333 11022 21036 7////
AAXX 19004 71981 16/// /0203 11020 21044 60001 333 10008 21031 70010
AAXX 19004 71982 16/// /0106 11019 21065 60001 333 10009 21027 70010
AAXX 19004 71986 16/// /2908 11024 21042 60001 333 11008 21024 70000
AAXX 19004 71990 16/// /2202 11118 21137 38431 40043 58041 60001 333 11103 21155 7////
AAXX 19004 71354 16/// /2909 11056 21096 60001 333 21056 7////
AAXX 19004 71505 16/// /3111 10008 21067 39226 49944 56052 60001 333 10010 21186 7////
AAXX 19004 89528 46/// /3412 36788 4//// 5////
AAXX 19004 89628 46/// /0000 4//// 5////
AAXX 19001 98618 12480 50906 10285 20255 40090 53021 60044 83961 333 20255 56299 58014 70044 81917 83820 555 0////
AAXX 19004 68263 32880 50204 10193 20106 38501 48527 56001 85070 333 10292 20193 91005 555 91021
AAXX 19004 42361 31994 00000 10064 20050 40184 71044 333 58007
AAXX 19004 48001 NIL
AAXX 19004 48004 31901 90000 10098 20098 74744 89/// 333 20088
AAXX 19004 48008 NIL
AAXX 19004 48010 31220 43601 10115 20111 40116 74044 84600 333 20105 56800 59011
AAXX 19004 48018 31940 00000 10123 20123 40159 74244 333 20059 58005
AAXX 19004 48019 32950 00000 10112 20110 40168 333 20109 59002
AAXX 19004 48020 NIL
AAXX 19004 48025 NIL
AAXX 19004 48035 31/01 90000 10076 20055 40181 74744 89/// 333 20060 56999 58006
AAXX 19004 48037 32920 00000 10130 20124 40184 333 20126 59001
AAXX 19004 48042 32557 10000 10145 20134 40152 81400 333 20137 56900 59002
AAXX 19004 48045 NIL
AAXX 19004 48048 32540 10000 10125 20120 40156 81500 333 20120 56900 59004
AAXX 19004 48053 32950 00000 10150 20134 40159 333 20145 58017
AAXX 19004 48057 31429 31401 10117 20102 71000 82806 333 20104 56409
AAXX 19004 48060 31420 10000 10116 20102 40196 74044 81100 333 20100 56500 58003
AAXX 19004 48062 NIL
AAXX 19004 48071 31903 00000 10163 20144 40145 74244 333 20150 58003
AAXX 19004 48077 31956 10402 10180 20147 40150 71011 80001 333 20154 56009 59001
AAXX 19004 48078 32950 13201 10172 20154 40145 80001 333 20152 56009 59002
AAXX 19004 48080 31540 30000 10155 20154 40123 71044 82806 333 20145 56900 59007
AAXX 19004 48094 32556 30000 10183 20178 40135 81506 333 20178 56909 58024
AAXX 19004 48097 32456 50501 10200 20185 40157 82806 333 20189 56909 58024
AAXX 19004 48108 31596 60000 10190 20175 40128 70522 82405 333 20185 56109 59000
AAXX 19004 48109 32496 60402 10265 20226 40118 84530 333 20235 56590 59003
AAXX 19004 48110 31995 21802 10225 20177 40118 70522 80006 333 20225 56009 59004
AAXX 19004 48112 31597 60409 10245 20205 40094 70522 82246 333 20185 56199 59010
AAXX 19001 40001 32970 00207 10034 20013 40292 58001
AAXX 19001 40007 32560 60603 10074 20044 40290 56005 83550 333 83630 86360
AAXX 19001 40025 32960 00203 10110 20045 40231 57004
AAXX 19001 40045 32970 02503 10030 20020 40287 53004
AAXX 19001 40061 32970 00000 10040 20020 40276 54000
AAXX 19001 40080 31558 30000 10031 20002 39537 40257 52004 71000 83700 333 83730
AAXX 19001 40087 NIL
AAXX 19001 40095 NIL
AAXX 19001 40009 NIL
AAXX 19001 40016 NIL
AAXX 19001 40022 32965 00202 10122 20062 40228 56005 222// 20000
AAXX 19001 40030 31960 00000 10044 20034 40272 56005 71000
AAXX 19001 40039 32970 00000 10017 20006 40282 54001
AAXX 19001 40066 32970 00604 10090 20047 40222 56006
AAXX 19001 40072 NIL
AAXX 19001 40083 32970 01201 10035 21030 48544 56002
AAXX 19004 89657 46/// /2502 10006 20133 49960 58020
BBXX 42362 19001 99278 70907 46/// /0808 10183 20083 40254 90030
AAXX 19003 64910 31456 60000 10264 20248 30098 40107 71022 83302 333 0//00 59005 83616 81920 85080 94944 95834
AAXX 19003 64910 31456 60000 10264 20248 30098 40107 71022 83302 333 0//00 59005 83616 81920 85080 94944 95834
AAXX 1900/ 89868 46/// ///// 11053 39868 4//// 5//// 90030
AAXX 1900/ 89769 46/// ///// 11065 39862 4//// 5//// 90020
AAXX 1900/ 89769 46/// ///// 11066 39862 4//// 5//// 90030
AAXX 1900/ 89327 46/// ///// 11030 39699 4//// 5//// 90020
AAXX 1900/ 89327 46/// ///// 11030 39697 4//// 5//// 90030
AAXX 1900/ 89872 46/// ///// 11049 39848 4//// 5//// 90020
AAXX 1900/ 89872 46/// ///// 11054 39847 4//// 5//// 90030
AAXX 1900/ 89869 46/// ///// 11054 39820 4//// 5//// 90030
AAXX 1900/ 89866 46/// ///// 11051 39775 4//// 5//// 90020
AAXX 1900/ 89332 46/// ///// 11081 39270 4//// 5//// 90030
AAXX 1900/ 89828 46/// ///// 11260 36551 4//// 5//// 90030
AAXX 1900/ 89108 46/// ///// 11219 36926 4//// 5//// 90020
AAXX 1900/ 89879 46/// ///// 10039 39818 4//// 5//// 90020
AAXX 1900/ 89314 46/// ///// 11135 38238 4//// 5//// 90030
AAXX 19004 89667 46/// /0707 11062 29056 39893 4//// 5////
AAXX 1900/ 89868 46/// ///// 11065 39845 4//// 5////
AAXX 1900/ 89769 46/// ///// 11061 39863 4//// 5////
AAXX 1900/ 89327 46/// ///// 11029 39706 4//// 5////
AAXX 19004 89667 46/// /0606 11064 29064 39891 4//// 5//// 90020
AAXX 19004 89667 46/// /0607 11066 39892 4//// 5//// 90010
AAXX 19004 89667 46/// /0707 11063 39893 4//// 5////
AAXX 19004 89667 46/// /0606 11062 29060 39890 4//// 5//// 90030
AAXX 19004 83811 32997 02302 10178 20118 39195 40085 53003 333 10294 29058 55124
AAXX 19004 83844 32597 314// 10254 20202 30054 40061 52011 81260 333 10350 29061 55///
AAXX 19004 83887 32597 20000 10176 20121 39052 40090 52010 82200 333 10246 29065 55097
AAXX 19004 83907 32997 02703 10254 20142 39804 40081 54000 333 10315 29048 55105
AAXX 19004 83914 31996 00000 10204 20099 39323 40081 53005 70510 333 10259 29051 55090
AAXX 19004 83919 21996 03201 10150 20125 38934 40104 53002 71052 333 10222 29072 55075 69941
AAXX 19004 83927 32997 03602 10270 20154 39979 40050 54000 333 10330 29050 55123
AAXX 19004 83936 31996 03203 10236 20126 39947 40066 54000 70540 333 10308 29049 55081
AAXX 19004 83948 21497 83604 10224 20203 30067 40073 51013 70262 889// 333 10282 29079 55069 69911
AAXX 19004 83964 32597 30000 10205 20136 39576 40060 54000 83100 333 10269 29062 55059
AAXX 19004 83995 32497 82302 10198 20198 30048 40051 54000 886// 333 10253 29088 55///
AAXX 19004 83064 31596 30000 10264 20233 39810 40078 70391 83200 333 10330 29079 55069 59023
AAXX 19004 83235 21697 60000 10235 20219 39428 40092 70395 86300 333 10315 29080 55/// 59018 69901
AAXX 19004 83332 21695 80000 10221 20211 39195 40091 70352 885// 333 10283 29088 55000 59012 69931
AAXX 19004 83423 21495 60000 10220 20208 39286 40102 70362 8377/ 333 10277 29085 55/// 59006 60021
AAXX 19004 83384 215// 80000 10224 20214 39534 40111 76362 888// 333 10307 29085 55/// 59016 60071
AAXX 19004 83386 32895 62702 10243 20234 39568 40092 84018 333 10298 29084 55056 59016
AAXX 19004 83388 32496 20503 10256 20167 39416 40076 82200 333 10315 29057 55101 59017
AAXX 19004 83393 329// 00000 10214 20172 39422 40141 333 10304 29068 55092 58012
AAXX 19004 83442 32595 20000 10246 20207 39752 40090 81150 333 10315 29071 55/// 59011
AAXX 19004 83479 21598 81808 10218 20215 39318 40111 79596 889// 333 10273 29092 55011 59013 60171
AAXX 19004 83483 21595 80901 10230 20225 39545 40106 70298 887// 333 10261 29091 55000 59006 60201
AAXX 19004 83531 325// 80502 10198 20191 39072 40101 889// 333 10239 29094 55000 59006
AAXX 19004 83538 21594 83601 10179 20177 38709 40101 76362 886// 333 10228 29082 55001 58000 60141
AAXX 19004 83574 327// 80904 10232 20202 39561 40175 5//// 88600 333 1//// 29067 55094
AAXX 19004 83582 215// 80503 10210 20207 39328 40009 53015 76362 88700 333 10270 29090 55000 60051
AAXX 19004 83595 325// 30902 10254 20229 30036 40120 82250 333 10310 29081 55010 59006
AAXX 19004 83692 32697 53206 10198 20190 39064 40094 54000 85200 333 10234 29092 55004
AAXX 19004 82863 31595 70000 10268 20239 39879 40089 71322 8437/ 333 10339 29076 55084 59021
AAXX 19004 83228 32999 00000 10254 20236 39812 40086 333 10306 29083 55044 59026
AAXX 19004 83368 31696 50000 10250 20221 39715 40078 71322 85200 333 10286 29084 55013 59013
AAXX 19004 83374 21595 83204 10227 20217 39532 40101 70265 885// 333 10304 29091 55038 59004 60031
AAXX 19004 83526 21497 80000 10221 20203 39166 40099 76122 885// 333 10269 29085 55/// 59005 60021
BBXX 41053 19001 99185 70661 46/// /0506 10261 40157 90030 333 91207
BBXX 41053 19001 99185 70661 46/// /0506 10262 40156 90020 333 91208
BBXX 41053 19001 99185 70661 46/// /0506 10262 40156 90010 333 91208
BBXX 41052 19001 99183 70648 46/// /0505 10260 40152 90030 333 91206
BBXX 41052 19001 99183 70648 46/// /0405 10260 40151 90020 333 91207
BBXX 41052 19001 99183 70648 46/// /0405 10260 40150 90010 333 91207
BBXX 42085 19001 99179 70665 46/// /0507 10261 40151 90030 333 91208
BBXX 42085 19001 99179 70665 46/// /0507 10260 40151 90020 333 91208
BBXX 42085 19001 99179 70665 46/// /0506 10260 40150 90010 333 91207
BBXX 44024 19001 99423 70659 46/26 /0111 10014 40172 52016 90004 22200 00086 10807 70033 333 91213 555 11130 22137
BBXX DNDD 19004 99409 11396 41596 73119 10020 21033 40179 57030 70372 8649/ 22214 2//// 331// 4//01 5//// 80000
BBXX OYGR2 19004 99372 10050 41598 23525 10130 20074 40206 50004 70200 8/101 22225 04170 20403 80100
BBXX A8QM9 19004 99363 70190 41898 82722 10170 20137 40270 54000 70300 89792 22263 20505 331// 40505 80150
BBXX DHTK 19001 99409 70124 41698 20208 10150 20053 40300 51010 70311 82100 22214 00160 20803 80100
BBXX GHJV 19003 99378 70101 41/98 10509 10139 20057 40267 57/// 70200 81/// 22251 02166 20402 334// 40904 80100
BBXX 42362 19001 99278 70907 46/// /0808 10183 20083 40254 90030
BBXX 42360 19001 99267 70905 46/// /0707 10200 90000 22200 00245 10603 70013 333 91210
BBXX 44056 19001 99362 70757 46/// ///// 1//// 92350 22200 00108 10602 20602 306// 41301 70012
BBXX 41033 19001 99323 70804 46/// /0602 10119 40276 53016 90000 555 11029 22034
BBXX 9HA2064 19003 99358 71251 41/// 83620 10140 20123 40230 51030 7//// 8//// 22264 0//// 2//// 3//// 4//// 5//// 6//// 80130 ICE /////
BBXX 44138 19001 99443 70536 46/// /0314 10057 40051 52001 22200 00089 10808 70042 333 91217
BBXX 44137 19001 99423 70620 46/// /0415 10062 40102 52010 22200 00100 11009 70043 333 91219
BBXX KS098 19004 99440 71243 43/// /2115 10095 40268 22271 06000
BBXX KS088 19004 99267 70801 43/// /0701 10219 40224 22200 06241
BBXX KS094 19004 99132 70598 43/// /0710 10265 40144 22252 06271
BBXX PCBT 19003 99124 70723 41/98 70518 10278 20211 40116 52017 7//22 8//// 22214 20605 80231
BBXX 46224 19001 99332 71175 46/// ///// 1//// 90006 22200 00144 11301 21001 324// 41301 70005
BBXX 46214 19001 99379 71235 46/// ///// 1//// 90025 22200 00115 11405 21002 329// 41404 70025
BBXX 46229 19001 99438 71246 46/// ///// 1//// 90021 22200 00102 11407 20804 329// 41405 70034
BBXX 46225 19001 99329 71174 46/// ///// 1//// 90014 22200 00149 11701 20901 327// 41701 70007
BBXX 46213 19001 99403 71247 46/// ///// 1//// 90024 22200 00108 11506 21003 331// 41505 70029
BBXX 46243 19001 99462 71241 46/// ///// 1//// 90029 22200 00077 11306 21004 326// 41304 70030
BBXX 46219 19001 99332 71199 46/// ///// 1//// 90028 22200 00136 11706 20603 331// 41705 70028
BBXX 46236 19001 99368 71219 46/// ///// 1//// 90020 22200 00127 11504 20901 327// 41504 70019
BBXX 46215 19001 99352 71209 46/// ///// 1//// 90008 22200 00147 11704 21002 326// 41703 70019
BBXX 44022 19001 99409 70737 46/// ///02 11015 21129 40266 90030 22200 00082 333 91204 555 11021 22021
BBXX 44060 19001 99413 70721 46/// ///06 11026 40262 90030 22200 00104 333 91208 555 11062 22067
BBXX 44040 19001 99410 70736 46/// /0204 11016 21132 40269 90019 22200 1//00 70001 333 91205 555 11036 22041
BBXX 46239 19001 99363 71221 46/// ///// 1//// 90021 22200 00128 11506 21002 330// 41506 70032
BBXX 46238 19001 99334 71195 46/// ///// 1//// 90020 22200 00144 11404 20603 328// 41403 70021
AAXX 19004 41858 31901 02705 10124 20120 30108 40157 74644 333 59015 70000
AAXX 19004 41939 31/03 90000 10140 20140 40163 74744 89/// 333 59013 70000
AAXX 19001 47008 32970 03201 11041 21125 30209 40265 53009 333 21065
AAXX 19001 47014 32950 50000 11228 21240 39891 40339 52013 80001 333 21232
AAXX 19001 47016 32770 50000 11218 21243 39418 40340 52021 85030 333 21218
AAXX 19001 47020 32965 00000 11168 21181 39937 40352 53005 333 21175
AAXX 19001 47025 32967 03201 11046 21117 30229 40259 52002 333 21085
AAXX 19001 47035 32970 00000 11114 21160 30312 40322 52010 333 21114
AAXX 19001 47041 32970 03201 11036 21144 30250 40278 52010 333 21090
AAXX 19001 47055 32970 00000 11018 21106 30245 40292 52011 333 21028
AAXX 19001 47058 31959 20000 11094 21106 30272 40323 53010 71000 80002 333 21106
AAXX 19001 47069 31956 30901 11048 21092 30209 40313 53010 71022 80001 333 21078
AAXX 19001 47003 32980 03206 11064 21159 30259 40263 54000 333 21078
AAXX 19001 47005 32980 21801 11199 21218 38592 57008 82030 333 21211
AAXX 19001 47022 32975 00000 11160 21187 38853 58001 333 21185
AAXX 19001 47028 32467 61802 11119 21146 30213 40315 52007 86600 333 21129
AAXX 19001 47031 32970 00000 11162 21175 38955 53004 333 21175
AAXX 19001 47037 32970 00000 11122 21135 30177 40310 52013 333 21131
AAXX 19001 47039 32960 00000 11144 21164 30123 40330 52008 333 21149
AAXX 19001 47046 32969 02301 11060 21134 30238 40262 52008 333 21072
AAXX 19001 47050 32965 00502 11107 21127 30281 40317 52012 333 21124
AAXX 19001 47052 32965 00000 11166 21185 39966 40337 52008 333 21171
AAXX 19001 47060 31940 00503 11076 21094 30247 40308 57006 71000 333 21077
AAXX 19001 47061 32980 03201 11009 21106 30219 40264 52001 333 21019
AAXX 19001 47065 31960 00000 11070 21098 30247 40315 53003 71000 333 21099
AAXX 19001 47067 32965 00000 11106 21126 30210 40339 52006 333 21115
AAXX 19001 47068 32560 50000 11053 21082 30267 40304 53003 85500 333 21096
AAXX 19001 47070 32970 00000 11077 21095 30221 40314 54000 333 21110
AAXX 19001 47075 32980 00000 11117 21137 39823 40282 52003 333 21151
AAXX 19004 47936 11/80 30507 10182 20122 30184 40244 51013 69902 72580 83800 333 20160 79999
AAXX 1900/ 89767 46/// ///// 11123 39810 4//// 5////
AAXX 19004 89016 46/83 /1702 11081 29070 39483 4//// 5////
BBXX VRCI9 19004 99396 11636 41398 82722 10120 20083 40025 54001 70252 8877/ 22225 00177 20709 327// 41108 80100
BBXX ZQDI9 19003 99017 11051 41497 80318 10270 20241 40077 54000 76086 8326/ 22282 00281 20504 303// 40505 80250
BBXX VRBQ6 19004 99345 71268 41498 43610 10140 20109 40260 56020 70200 845// 22225 00164 20402 80120
BBXX 9MEZ2 19004 99207 11214 41497 80530 10230 20183 40152 52040 70322 8582/ 22214 00267 20401 304// 40808 80200
BBXX 9MBW7 19004 99294 11271 41689 63106 10210 20204 40020 51002 70103 8672/ 22214 00230 20304 334// 40308 80205
BBXX 9VDD2 19004 99261 11218 41498 80417 10160 20140 40270 54000 70222 882// 22254 06125 20503 303// 40704 80145
BBXX OXVD2 19003 99262 31121 41598 41722 10243 20150 40127 53004 70222 84500 22273 04220 20303 80187
BBXX MFLM9 19003 99323 31156 41497 21208 10182 20127 40135 54000 70200 81768 22200 04208 21001 314// 41202 80151
BBXX 3FHX2 19003 99124 11342 41/97 40726 10290 20250 40110 54000 70000 8///4 22233 00/// 2////
BBXX S6JT 19004 99506 71325 41698 62520 10080 20058 40200 54000 71922 8677/ 22235 04080 20802 303// 41004 80070
AAXX 19004 89646 46/// ///09 11195 29068 37696 4//// 5////
AAXX 19004 89648 46/// /2614 11241 29059 37188 4//// 5////
AAXX 19004 89659 46/// /2815 11209 29068 37710 4//// 5////
AAXX 19004 89661 46/// /2415 11079 29055 39267 4//// 5////
AAXX 19004 89662 42930 11210 10001 21162 39785 49890 57032 81040 222 ICE 98015 333 81360
AAXX 19004 89666 46/// /3309 11062 29076 39705 4//// 5////
AAXX 19004 71974 46/// /1510 11366 21402 30021 40066 58014 6///1 333 11364 21395 7////
AAXX 19004 71013 16/// ///// 11062 21078 60001 333 10003 21062 7////
AAXX 19004 71060 16/// /0201 11063 21066 38683 40284 53019 60001 333 11017 21063 70056 555 10070
AAXX 19004 71793 16/// ///// 11059 21073 60001 333 10000 21060 70000
AAXX 19004 71495 16/// /3209 11049 21073 60001 333 11009 21049 70011
AAXX 19004 71399 16/// ///// 11040 21063 60001 333 10003 21054 70000
AAXX 19004 71848 16/// ///// 11011 21033 60001 333 10010 21020 70007
AAXX 19004 71565 16/// /0000 11087 21101 60001 333 11010 21087 70017
AAXX 19004 71566 17/// /2703 11052 21055 60021 7//4/ 333 11008 21052 70044
AAXX 19004 71567 16/// /3008 11050 21114 60001 333 11012 21050 70000
AAXX 19004 71576 16/// /1518 11153 21190 39756 49840 53010 60001 333 11122 21164 70000
AAXX 19004 71073 16/// /3309 11023 21043 60001 333 11010 21033 70006
AAXX 19004 71848 16/// ///// 11011 21033 60001 333 10010 21020 70007
AAXX 19004 71495 16/// /3209 11049 21073 60001 333 11009 21049 70011
AAXX 19004 71974 46/// /1510 11366 21402 30021 40066 58014 6///1 333 11364 21395 7////
AAXX 19004 71399 16/// ///// 11040 21063 60001 333 10003 21054 70000
AAXX 19004 71073 16/// /3309 11023 21043 60001 333 11010 21033 70006
AAXX 19004 71013 16/// ///// 11062 21078 60001 333 10003 21062 7////
AAXX 19004 71060 16/// /0201 11063 21066 38683 40284 53019 60001 333 11017 21063 70056 555 10070
BBXX 46241 19001 99330 71173 46/// ///// 1//// 90011 22200 00145 11501 20801 326// 41501 70006
AAXX 19004 71565 16/// /0000 11087 21101 60001 333 11010 21087 70017
AAXX 19004 71566 17/// /2703 11052 21055 60021 7//4/ 333 11008 21052 70044
AAXX 19004 71567 16/// /3008 11050 21114 60001 333 11012 21050 70000
AAXX 19004 71576 16/// /1518 11153 21190 39756 49840 53010 60001 333 11122 21164 70000
AAXX 19004 71793 16/// ///// 11059 21073 60001 333 10000 21060 70000
BBXX 46216 19001 99343 71198 46/// ///// 1//// 90027 22200 00145 10603 20603 326// 41501 70015
BBXX 46223 19001 99335 71178 46/// ///// 1//// 90030 22200 00154 11702 20801 327// 41701 70008
BBXX 46231 19001 99327 71174 46/// ///// 1//// 90024 22200 00147 11702 21001 329// 41701 70009
BBXX 46222 19001 99336 71183 46/// ///// 1//// 90026 22200 00154 11502 21001 327// 41501 70008
AAXX 19001 44385 32999 22703 11186 21241 38985 40410 53010 80001 333 21191 45998 555 31230
BBXX 44039 19001 99411 70727 46/// /3307 11010 21122 40271 90030 22200 00095 10201 70004 333 91210
AAXX 19004 48375 31957 00000 10160 20151 39914 40148 52016 71000 333 20155 59001
AAXX 1900/ 89879 46/// ///// 10040 39817 4//// 5////
AAXX 19004 96937 12558 83306 10275 20247 30070 40075 52017 61124 8412/ 333 20246 50350 55000 56009 59014 84820 88460
AAXX 19004 42492 31/91 90000 10084 20080 40168 74744 333 59007
AAXX 19004 42587 31994 00000 10062 20043 40180 71000 333 59006
AAXX 19004 42591 31/90 92305 10090 20090 40180 74744 333 58000
AAXX 19004 42701 31995 02902 10082 20043 39413 40175 70500 333 59007
AAXX 19004 42706 31994 00000 10096 20084 40160 71000 333 59008
AAXX 19004 42798 31995 00000 10084 20062 40167 70500 333 59005
AAXX 19004 42809 31994 00000 10128 20121 40159 71000 333 59002
AAXX 19004 43333 21495 60708 10258 20222 40102 70522 83402 333 56209 59005 6002/ 82616 83818 85070
BBXX 62123 19004 99563 10022 47599 /2918 10055 20002 40106 50003 700// 22200
BBXX 63106 19004 99610 10017 46/// /3121 10035 40055 51003 22200
BBXX 63113 19004 99610 10017 46/// /3319 10037 21012 40058 57001 22200 10808 70040
BBXX 62107 19004 99501 70061 46/// /3114 10094 20036 40225 58005 22200 00114 10703 70014 333 90710 91125
BBXX 62103 19004 99499 70029 46/// /3417 10085 20026 40202 57007 22200 00120 10703 70014
AAXX 19004 63820 32580 10000 10260 20246 40103 81130 333 58008 81821
AAXX 19004 65557 32958 0//// 10230 20210 39886 40125 333 58007
AAXX 19004 65560 32956 0//// 10236 20220 39807 40116 333 59001
AAXX 19004 65562 32958 0//// 10240 20225 3//// 4//// 333 5////
AAXX 19004 65563 31950 00000 10200 20192 39881 40121 71000 333 59001
AAXX 19004 65578 32457 62604 10267 20247 30109 40118 86500 333 59001 86616
AAXX 19004 65592 32456 2//// 10238 20237 30091 40114 82500 333 58000 82613
AAXX 19004 65594 32458 70000 10258 20241 30090 40124 82502 333 58000 82613 87080
AAXX 19004 65599 32958 0//// 10263 20242 30036 40110 333 58003
BBXX MINUK05 1900/ 99612 70027 46/// ///// 10038 40094 57010
BBXX MINUK03 1900/ 99539 10017 46/// ///// 10050 40144 57002
BBXX MINUK01 1900/ 99589 70014 46/// ///// 10050 40108 57001
BBXX VOXS 19004 99467 70480 41296 80315 10023 2002/ 40132 57027 76162 885// 22200 04026 20402 332// 40805 80021
BBXX VOXS 19004 99467 70480 41296 80315 10023 2002/ 40132 57027 76162 885// 22200 04026 20402 332// 40805 80021
AAXX 19001 01332 16/// /0000 11008 21018 60061 333 91101
BBXX 46221 19001 99339 71186 46/// ///// 1//// 90015 22200 00152 11501 21001 327// 41501 70007
AAXX 19004 71841 17/// /0000 11045 21050 39601 49999 58005 60051 7//4/ 333 11044 21076 70068 555 10070
AAXX 19004 71383 16/// ///// 11147 21187 39533 40172 58007 60001 333 11146 21293 7////
AAXX 19004 71102 16/// ///// 11053 21105 60001 333 11007 21054 70000
AAXX 19004 71105 16/// ///// 11008 21027 60001 333 10062 21010 70000
AAXX 19004 71006 16/// /2907 11054 21079 60001 333 10009 21057 70000
AAXX 19004 71007 46/// ///// 11008 21028 6///1 333 10091 21014 7////
AAXX 19004 71008 16/// /3112 11012 21032 60001 333 10006 21016 70000
AAXX 19004 71009 16/// /3207 11036 21051 60001 333 11003 21037 70012
AAXX 19004 71012 16/// /2807 11065 21095 60001 333 11001 21065 70000
AAXX 19004 71035 47/// ///// 11064 21080 6///1 7//4/ 333 11006 21064 7////
AAXX 19004 71502 16/// /0810 11225 21241 39960 49976 58023 60001 333 11225 21280 70000
AAXX 19004 71509 16/// /3403 10002 21011 60001 333 10094 21016 70005
AAXX 19004 71517 17/// /3205 11008 21014 69951 7//4/ 333 10081 21013 70014
AAXX 19004 71518 16/// /3507 11001 21017 60001 333 10055 21013 70008
AAXX 19004 71519 16/// /3103 11004 21022 60001 333 10058 21010 70004
AAXX 19004 71520 16/// /1512 11165 21181 39448 40148 58004 60001 333 11165 21260 70000
AAXX 19004 71521 16/// ///// 11170 21203 60001 333 11167 21368 70000
AAXX 19004 71522 46/// /1802 11147 21182 39680 40196 58016 6///1 333 11146 21309 70000
AAXX 19004 71523 16/// ///// 11134 21146 39768 40163 58015 60001 333 11133 21309 70000
AAXX 19004 71528 16/// /3406 10000 21016 60001 333 10095 21018 70000
AAXX 19004 71433 46/// /2125 10032 20008 39803 40032 56039 6///1 333 10032 21008 7////
AAXX 19004 71409 16/// ///// 11013 21033 60001 333 10049 21013 70000
AAXX 19004 71789 16/// ///// 11011 21021 60001 333 10087 21011 70005
AAXX 19004 71791 16/// /2812 11040 21100 60001 333 10000 21041 70000
AAXX 19004 71794 16/// ///// 11067 21104 60001 333 10001 21068 70005
AAXX 19004 71795 16/// ///// 11011 21032 60001 333 10084 21011 70004
AAXX 19004 71796 16/// ///// 11054 21083 60001 333 10003 21054 70000
AAXX 19004 71051 16/// ///// 11023 21044 60001 333 7////
AAXX 19004 71057 16/// ///// 11021 21040 60001 333 10006 21034 70004
AAXX 19004 71070 16/// ///// 11011 21025 60001 333 10067 21011 70000
AAXX 19004 71089 16/// ///// 11037 21095 60001 333 10004 21049 70000
AAXX 19004 71433 46/// /2125 10032 20008 39803 40032 56039 6///1 333 10032 21008 7////
AAXX 19004 71841 17/// /0000 11045 21050 39601 49999 58005 60051 7//4/ 333 11044 21076 70068 555 10070
BBXX 41112 19001 99307 70813 46/// ///// 1//// 90021 22200 00159 10502 20502 310// 41101 70009
AAXX 19004 41998 31930 00000 10147 20140 30137 40143 70500 333 59003 70000
AAXX 19004 89667 46/// /0706 11061 39890 4//// 5//// 90040
AAXX 1900/ 89872 46/// ///// 11050 39846 4//// 5//// 90040
AAXX 1900/ 89869 46/// ///// 11053 39820 4//// 5//// 90040
AAXX 1900/ 89327 46/// ///// 11034 39718 4//// 5//// 90040
AAXX 1900/ 89866 46/// ///// 11049 39775 4//// 5//// 90040
AAXX 1900/ 89332 46/// ///// 11079 39268 4//// 5//// 90040
AAXX 1900/ 89108 46/// ///// 11221 36929 4//// 5//// 90040
AAXX 1900/ 89329 46/// ///// 11129 38790 4//// 5//// 90040
AAXX 1900/ 89799 46/// ///// 11256 4//// 5//// 90040
AAXX 1900/ 89314 46/// ///// 11131 38240 4//// 5//// 90040
AAXX 19004 42867 31995 00000 10124 20097 40160 70500 333 58002
AAXX 19004 42933 32996 00000 10144 20098 40155 333 58003
BBXX 3ECI3 19004 99411 31732 41597 41805 10140 20106 40151 54000 70111 84431 22200 00180 20501 30000 80122
BBXX 3ECI3 19004 99411 31732 41597 41805 10140 20106 40151 54000 70111 84431 22200 00180 20501 30000 80122
BBXX BKHB 19004 99285 11273 41898 33608 10170 20119 40025 51020 70211 83200 22214 04260 20201 336// 40302 80140
BBXX VQGQ4 19004 99339 11400 41/98 52730 10120 20014 40168 51008 70211 8/2// 22284 00228 20404 329// 40504 80075
BBXX SHIP 19004 99186 11234 41397 80730 10250 20231 40141 57020 70222 88700 22273 00270 20301 306// 40605 80236
BBXX VRFJ6 19004 99092 11503 41598 30720 10300 20260 40081 54000 70200 858// 22274 00290 20503 300// 40502 80270
BBXX 3FHX2 19003 99124 11342 41/97 40726 10290 20250 40110 54000 70000 8///4 22233 00/// 2////
BBXX 9VDD2 19004 99261 11218 41498 80417 10160 20140 40270 54000 70222 882// 22254 06125 20503 303// 40704 80145
BBXX SHIP 19004 99294 11271 41689 63106 10210 20204 40020 51002 70103 8672/ 22214 00230 20304 334// 40308 80205
BBXX VRCI9 19004 99396 11636 41398 82722 10120 20083 40025 54001 70252 8877/ 22225 00177 20709 327// 41108 80100
BBXX SHIP 19004 99207 11214 41497 80530 10230 20183 40152 52040 70322 8582/ 22214 00267 20401 304// 40808 80200
BBXX MINUK03 1900/ 99539 10017 46/// ///// 10050 40144 57002
BBXX MINUK01 1900/ 99589 70014 46/// ///// 10050 40108 57001
BBXX MINUK05 1900/ 99612 70027 46/// ///// 10038 40094 57010
BBXX OXVD2 19003 99262 31121 41598 41722 10243 20150 40127 53004 70222 84500 22273 04220 20303 80187
BBXX MFLM9 19003 99323 31156 41497 21208 10182 20127 40135 54000 70200 81768 22200 04208 21001 314// 41202 80151
BBXX ZQDI9 19003 99017 11051 41497 80318 10270 20241 40077 54000 76086 8326/ 22282 00281 20504 303// 40505 80250
BBXX 41112 19001 99307 70813 46/// ///// 1//// 90021 22200 00159 10502 20502 310// 41101 70009
BBXX 46221 19001 99339 71186 46/// ///// 1//// 90015 22200 00152 11501 21001 327// 41501 70007
BBXX VOXS 19004 99467 70480 41296 80315 10023 2002/ 40132 57027 76162 885// 22200 04026 20402 332// 40805 80021
BBXX 44039 19001 99411 70727 46/// /3307 11010 21122 40271 90030 22200 00095 10201 70004 333 91210
BBXX 46216 19001 99343 71198 46/// ///// 1//// 90027 22200 00145 10603 20603 326// 41501 70015
BBXX 46231 19001 99327 71174 46/// ///// 1//// 90024 22200 00147 11702 21001 329// 41701 70009
BBXX 46223 19001 99335 71178 46/// ///// 1//// 90030 22200 00154 11702 20801 327// 41701 70008
BBXX 46222 19001 99336 71183 46/// ///// 1//// 90026 22200 00154 11502 21001 327// 41501 70008
BBXX 46241 19001 99330 71173 46/// ///// 1//// 90011 22200 00145 11501 20801 326// 41501 70006
BBXX S6JT 19004 99506 71325 41698 62520 10080 20058 40200 54000 71922 8677/ 22235 04080 20802 303// 41004 80070
BBXX SHIP 19004 99345 71268 41498 43610 10140 20109 40260 56020 70200 845// 22225 00164 20402 80120
BBXX 41052 19001 99183 70648 46/// /0405 10260 40151 90020 333 91207
BBXX 41052 19001 99183 70648 46/// /0405 10260 40150 90010 333 91207
BBXX 41052 19001 99183 70648 46/// /0505 10260 40152 90030 333 91206
BBXX 42085 19001 99179 70665 46/// /0506 10260 40150 90010 333 91207
BBXX 42085 19001 99179 70665 46/// /0507 10261 40151 90030 333 91208
BBXX 44024 19001 99423 70659 46/26 /0111 10014 40172 52016 90004 22200 00086 10807 70033 333 91213 555 11130 22137
BBXX 42085 19001 99179 70665 46/// /0507 10260 40151 90020 333 91208
BBXX 41053 19001 99185 70661 46/// /0506 10262 40156 90010 333 91208
BBXX 41053 19001 99185 70661 46/// /0506 10262 40156 90020 333 91208
BBXX 41053 19001 99185 70661 46/// /0506 10261 40157 90030 333 91207
BBXX DNDD 19004 99409 11396 41596 73119 10020 21033 40179 57030 70372 8649/ 22214 2//// 331// 4//01 5//// 80000
BBXX VQGQ4 19004 99339 11400 41/98 52730 10120 20014 40168 51008 70211 8/2// 22284 00228 20404 329// 40504 80075
BBXX TBWUK17 19003 99157 30871 41498 61014 10268 20252 40132 53005 70311 84460 22253 04280 20101 313// 40503 5//// 80257
AAXX 19004 60340 32565 30000 10056 20031 40249 51005 83500 333 83630
AAXX 19004 71360 16/// ///// 11039 21096 60001 333 10004 21040 70000
AAXX 19004 71380 16/// /3501 11076 21085 60001 333 11006 21078 70018
AAXX 19004 71249 16/// /3117 11058 21074 60001 333 11007 21058 70012
AAXX 19004 71857 46/// ///// 11048 21114 6///1 333 11011 21052 7////
AAXX 19004 71904 16/// ///// 11048 21068 60001 333 10002 21053 70012
AAXX 19004 71674 16/// ///// 11069 21093 60001 333 10010 21069 70005
AAXX 19004 71014 16/// /2703 11051 21071 60001 333 11007 21055 70004
AAXX 19004 71346 16/// /3303 10000 21021 60001 333 10081 21013 70005
AAXX 19004 71413 16/// ///// 11052 21073 60001 333 10007 21053 70000
AAXX 19004 71414 16/// ///// 11050 21116 60001 333 11017 21051 70000
AAXX 19004 71440 16/// ///// 11027 21044 60001 333 11004 21027 70011
AAXX 19004 71540 17/// /2804 11110 21134 60021 7//4/ 333 11003 21110 70030
AAXX 19004 71544 16/// ///// 11047 21082 60001 333 11011 7////
AAXX 19004 71548 16/// ///// 11059 21116 60001 333 11012 21062 70000
AAXX 19004 71481 17/// /2705 11048 21075 60011 7//4/ 333 11018 21051 70035
AAXX 19004 71498 16/// /3107 11021 21041 60001 333 11003 21029 70000
AAXX 19004 71797 16/// ///// 11066 21103 60001 333 11011 21066 70000
AAXX 19004 71055 46/// /3002 11242 21265 39661 40000 58032 6///1 333 11212 21257 7////
AAXX 19004 71065 16/// ///// 11040 21117 60001 333 11003 21040 70000
AAXX 19001 25282 41/08 93613 11180 21192 30009 40015 54000 73932 333 91992 91118
AAXX 19003 63612 32980 20000 10246 20212 40110 82030 333 58001 82359
AAXX 19003 63661 32980 10000 10139 20133 48533 81040 333 59008 81359
AAXX 19003 63708 32580 70000 10200 20188 48484 8143/ 333 59015 81620 87359
AAXX 19001 38725 426// 80902 11029 21067 37755 48500 53002 889//
AAXX 19001 38734 414// 63204 11073 21077 37450 47040 54000 78582 80900
AAXX 19004 82979 32993 00000 10228 20166 39647 40088 333 10326 29048 55117 59003
AAXX 19004 82986 32995 00913 10270 20199 39828 40110 333 10352 29055 55108 59003
AAXX 19004 83179 32994 00502 10283 20200 39647 40089 333 10348 29063 55100 58001
AAXX 19004 83192 32995 01404 10250 20187 39974 40138 333 10339 29053 55099 59002
AAXX 19004 83339 32995 01409 10235 20135 39147 40106 333 10256 29063 55082 59007
AAXX 19004 83096 32695 30905 10272 20224 30119 40126 83100 333 10297 29073 55108 59001
AAXX 19004 83186 32999 00906 10251 20169 39579 40107 333 10296 29058 55116 59003
AAXX 19004 83236 32968 22401 10255 20231 39600 40087 82020 333 10315 29/// 55095 59015
AAXX 19004 83242 32995 03602 10234 20183 39636 40129 333 10297 29067 55063 59008
AAXX 19004 83288 32995 00501 10258 20210 39610 40097 333 10321 29072 55085 59016
AAXX 19004 96741 32559 52703 10269 20236 30076 40080 52018 82571 333 20261 50500 55006 56000 59007 82623
BBXX 9HA2064 19003 99358 71251 41/// 83620 10140 20123 40230 51030 7//// 8//// 22264 0//// 2//// 3//// 4//// 5//// 6//// 80130 ICE /////
BBXX S6JT 19004 99506 71325 41698 62520 10080 20058 40200 54000 71922 8677/ 22235 04080 20802 303// 41004 80070
BBXX SHIP 19004 99345 71268 41498 43610 10140 20109 40260 56020 70200 845// 22225 00164 20402 80120
BBXX VRBQ6 19004 99345 71268 41498 43610 10140 20109 40260 56020 70200 845// 22225 00164 20402 80120
AAXX 19003 64800 NIL
AAXX 19003 64820 NIL
AAXX 19003 64860 32960 60000 10200 20100 39832 40100 80002 333 0//00 59006 86080
AAXX 19003 64861 NIL
AAXX 19003 64870 NIL
AAXX 19003 64871 NIL
AAXX 19003 64892 NIL
AAXX 19003 64893 NIL
AAXX 19003 64894 NIL
AAXX 19004 64910 31456 60000 10264 20248 30098 40107 71022 83302 333 0//00 59005 83616 81920 85080 94944 95834
AAXX 19004 64911 NIL
AAXX 19004 64950 NIL
AAXX 19001 58968 11556 81003 10153 20136 30237 40245 51016 69932 75155 887//
AAXX 19001 58974 32570 80412 10164 20101 30122 40248 52009 8252/
AAXX 19001 59358 31940 20204 10153 20129 30183 40215 52013 71000 80001
AAXX 19001 59559 32565 60408 10214 20156 30162 40190 52013 86400
AAXX 19001 59792 32460 80310 10206 20174 30189 40194 52015 8542/
AAXX 19001 59158 32665 20202 10164 20119 30112 40214 52015 82501
AAXX 19001 59562 32568 73401 10196 20141 30202 40214 52013 878//
AAXX 19001 59567 11460 83605 10179 20172 39820 40202 52016 60052 72162 885//
AAXX 19004 91844 46/// /0605 10282 40117 22200 00281
BBXX VRCI9 19004 99396 11636 41398 82722 10120 20083 40025 54001 70252 8877/ 22225 00177 20709 327// 41108 80100
AAXX 1900/ 89866 46/// ///// 11051 39777 4//// 5////
AAXX 1900/ 89869 46/// ///// 11053 39821 4//// 5////
AAXX 1900/ 89332 46/// ///// 11084 39271 4//// 5////
AAXX 19001 30521 115// 80901 11300 21317 39824 40416 57010 69902 70281 83901 333 21329 47019 55027
BBXX A8RU5 19004 99134 11148 41396 70436 10272 20242 40113 53012 71022 83698 22254 20508 306// 41612 80250
BBXX A8YJ9 19004 99034 50327 413// 21520 10255 20234 40110 54000 70200 821// 22243 04250 2//03 80240
BBXX DAJT 19004 99138 30716 41498 41212 10280 20239 40048 53012 70211 8/1// 22254 04280 2//02 80250
BBXX A8ZS7 19004 99348 30215 41698 52619 10210 20170 40110 51011 70122 8/6// 22254 04180 20402
BBXX A8UA9 19004 99291 70128 43598 30320 10180 20164 40240 51010 83445 22253 00170 20404 80170
AAXX 19001 80400 NIL
AAXX 19001 80403 11460 70000 10264 20245 30109 40128 60051 70266 875// 333 10286 33/// 569// 58006 87613 555 10131
AAXX 19001 80405 NIL
AAXX 19001 80407 NIL
AAXX 19001 80410 32460 71103 10231 20211 39438 40121 875// 333 10284 30/// 569// 58000 87616 555 10150
AAXX 19001 80413 32460 12702 10248 20154 39611 40102 81500 333 10311 30/// 56900 58001 81613 555 10128
AAXX 19001 80415 32460 50701 10255 20230 30066 40120 854// 333 10284 30/// 569//58004 85413 555 10122
AAXX 19001 80419 NIL
AAXX 19001 80421 NIL
AAXX 19001 80423 NIL
AAXX 19001 80428 32460 73602 10279 20217 39896 40080 82505 333 10321 30/// 56909 58005 82617 85075 555 10092
AAXX 19001 80432 NIL
AAXX 19001 80435 32960 40505 10259 20192 30020 40095 80002 333 10312 30/// 56009 58000 555 10093
AAXX 19001 80438 32357 82302 10182 20176 38517 48514 887// 333 10245 30/// 569// 58004 88710 555 10199
AAXX 19001 80444 32960 0//// 10280 2//// 30042 4//// 333 10320 30/// 58009 55 10090
AAXX 19001 80447 32560 50000 10240 20222 39670 40094 855// 333 10300 30/// 569// 58004 85620 555 10142
AAXX 19001 80448 32960 00000 10260 20226 3//// 4//// 333 10328 30/// 5////
AAXX 19001 80450 32960 51101 10272 20217 30049 40105 80008 333 10312 56009 59003 555 10101
AAXX 19001 80453 NIL
AAXX 19001 80457 11460 6//// 10269 20245 30012 40097 70225 8352/ 333 10356 31/// 5699/ 58012 83613 83459 555 10012
AAXX 19001 80462 NIL
AAXX 19001 0000110401SMVN20 SVMR 190000
AAXX 19001 80402 NIL
AAXX 19001 80412 NIL
AAXX 19001 80416 NIL
AAXX 19001 80420 32460 40706 10265 20177 30104 40110 84800 333 10312 30/// 56900 58002 84813 555 10123
AAXX 19001 80425 32460 50000 10272 20261 30075 40106 8242/ 333 10320 30/// 5699/ 58000 82613 83460 555 10107
AAXX 19001 80426 32560 63601 10238 20211 39475 40120 865// 333 10277 30/// 569// 59006 86623 555 10150
AAXX 19001 80427 32960 00704 10255 20242 39841 40091 333 10325 30/// 58000 555 10109
AAXX 19001 80431 32960 3//// 10240 20176 39618 40098 80008 333 10313 30/// 56009 58006 555 10120
AAXX 19001 80434 NIL
AAXX 19001 80437 11460 80000 10250 20245 39999 40085 60101 70258 8351/ 333 10320 33/// 5699/ 59007 83617 85457 555 10090
AAXX 19001 80440 32960 00904 10274 20229 39888 40199 333 10326 30/// 58017 555 10108
AAXX 19001 80442 32460 1//// 10284 2//// 39983 4//// 81400 333 10333 30/// 56900 59001 81613 555 10094
AAXX 19001 80472 32460 50203 10248 20208 39626 40105 8322/ 333 10304 30/// 5699/ 58000 83816 555 10128
AAXX 19001 80475 32560 50000 10232 20218 39740 40110 855// 333 10318 30/// 569// 59013 85623 555 10122
AAXX 19001 80476 32360 2//// 10270 20248 30090 40120 82500 333 10321 30/// 56900 58001 82610
AAXX 19001 80478 NIL
AAXX 19001 80479 NIL
AAXX 19001 0000058001SAVN20 SVMR 190000 METAR SVCR 190000Z 00000KT 9999 BKN013 25/25 Q1013
AAXX 19001 METAR SVMC 190000Z NIL
AAXX 19001 METAR SVBM 190000Z 11005KT 9999 BKN016 23/21 Q1015
AAXX 19001 METAR SVBS 190000Z NIL
AAXX 19001 METAR SVMI 190000Z 07001KT 9999 BKN013 26/23 Q1012 NOSIG METAR SVFM 190000Z NIL
AAXX 19001 METAR SVBC 190000Z NIL
AAXX 19001 METAR SVCU 190000Z NIL
AAXX 19001 METAR SVMG 190000Z /////KT 9999 SCT010 SCT080 26/21 1012 NOSIG
AAXX 19001 METAR SVAC 190000Z NIL
AAXX 19001 METAR SVMT 190000Z NIL
AAXX 19001 METAR SVBI 190000Z 09004KT CAVOK 27/26 Q1010
AAXX 19001 METAR SVCB 190000Z /////KT CAVOK 28/// Q1009
AAXX 19001 METAR SVVA 190000Z 02006KT 9999 SCT016 25/21 Q1012
AAXX 19001 METAR SVSO 190000Z NIL
AAXX 19001 0000063301SAVN21 SVMR 190000 METAR SVJC 190000Z AUTO 09005KT 9999 SCT025 25/23 Q1012
AAXX 19001 METAR SVLO 190000Z NIL
AAXX 19001 METAR SVGI 190000Z NIL
AAXX 19001 METAR SVMN 190000Z 00000KT 9999 FEW0123 SCT100 27/26 Q1010
AAXX 19001 METAR SVVL 190000Z NIL
AAXX 19001 METAR SVGU 190000Z NIL
AAXX 19001 METAR SVJM 190000Z /////KT CAVOK 24/18 Q1012
AAXX 19001 METAR SVCZ 190000Z NIL
AAXX 19001 METAR SVVP 190000Z NIL
AAXX 19001 METAR SVVG 190000Z 00000KT 9999 SCT017 BKN070 25/25 Q1009
AAXX 19001 METAR SVMD 190000Z NIL
AAXX 19001 METAR SVCL 190000Z /////KT 9999 FEW013 28/// Q1009
AAXX 19001 METAR SVSA 190000Z 00000KT 9999 BKN020 24/22 Q1014
AAXX 19001 METAR SVGD 190000Z NIL
AAXX 19001 METAR SVSR 190000Z NIL
AAXX 19001 METAR SVTM 190000Z NIL
AAXX 19001 METAR SVPA 190000Z NIL
AAXX 19001 METAR SVSE 190000Z NIL
AAXX 19001 01262 46/// /0000 10022 21022 333 91104
BBXX DAJT 19004 99138 30716 41498 41212 10280 20239 40048 53012 70211 8/1// 22254 04280 2//02 80250
BBXX A8ZS7 19004 99348 30215 41698 52619 10210 20170 40110 51011 70122 8/6// 22254 04180 20402
BBXX 3EIZ7 19004 99447 70468 41/93 81821 10140 2012/ 40110 56020 71064 88/// 22264 0//// 2//06 318// 4//// 5//// 6//// 80130 ICE /////
BBXX 62123 19004 99563 10022 41/98 /2920 10055 20001 40133 52021 7//// 8//// 22200 20604 330// 40606 5////
BBXX AMOUK08 19004 99501 70061 46/// ///// 10097 20048 30220 40225 57005 92350
BBXX 63106 19004 99610 10017 46/// /3121 10035 40055 51003 22200
BBXX 63105 19004 99610 10017 47598 ///// 10047 21017 40054 51003 700// 22200
BBXX 62103 19004 99499 70029 46/// /3520 10084 20023 40206 50001 22200 00120 10703 70015 333 90710 91125
BBXX AMOUK04 19004 99533 70062 46/// ///// 10079 20042 30158 4//// 57011 92350
BBXX ONFP 19004 99272 30554 41596 80930 10220 2021/ 40110 54000 75055 88777 22212 04241 20506 309// 4//// 5//// 6//// 80210 ICE /////
BBXX WDE8293 19004 99362 70025 41698 20509 10140 20063 40232 52012 70200 821// 22265 00180 20202 305// 40101 5//// 6//// 80100 ICE /////
BBXX A8RU5 19004 99134 11148 41396 70436 10272 20242 40113 53012 71022 83698 22254 20508 306// 41612 80250
BBXX A8UA9 19004 99291 70128 43598 30320 10180 20164 40240 51010 83445 22253 00170 20404 80170
BBXX A8ZS7 19004 99348 30215 41698 52619 10210 20170 40110 51011 70122 8/6// 22254 04180 20402
BBXX A8YJ9 19004 99034 50327 413// 21520 10255 20234 40110 54000 70200 821// 22243 04250 2//03 80240
BBXX ONFP 19004 99272 30554 41596 80930 10220 2021/ 40110 54000 75055 88777 22212 04241 20506 309// 4//// 5//// 6//// 80210 ICE /////
BBXX A8UX3 19004 99063 10033 41498 39904 10270 20257 40115 51/// 70211 82125 22200 04260 22503 80260
BBXX DAJT 19004 99138 30716 41498 41212 10280 20239 40048 53012 70211 8/1// 22254 04280 2//02 80250
BBXX 3ECI3 19004 99411 31732 41597 41805 10140 20106 40151 54000 70111 84431 22200 00180 20501 30000 80122
BBXX BSH03 19001 99540 10081 46/// ///// 22200 00054 20803 70017
BBXX BSH05 19001 99550 10079 46/// ///// 22200 20603 70016
BBXX WDE8293 19004 99362 70025 41698 20509 10140 20063 40232 52012 70200 821// 22265 00180 20202 305// 40101 5//// 6//// 80100 ICE /////
BBXX 3EIZ7 19004 99447 70468 41/93 81821 10140 2012/ 40110 56020 71064 88/// 22264 0//// 2//06 318// 4//// 5//// 6//// 80130 ICE /////
BBXX OYCY2 19004 99499 71450 41797 82010 10080 2006/ 40130 54000 70322 8572/ 22272 00100 20402 324// 41203 5//// 6//// 80070 ICE /////
OOXX GBP67 18221 99159 50057 ///// 04381 26/// /0704 10165 29084 39686 92210 333 60000
OOXX GBP67 18221 99159 50057 ///// 04381 26/// /0904 10164 29081 39685 92220 333 60000
OOXX GBP67 18221 99159 50057 ///// 04381 26/// /0904 10164 29082 39685 92230 333 60000
OOXX GBP67 18221 99159 50057 ///// 04381 26/// /0904 10166 29078 39686 92240 333 60000
OOXX GBP67 18221 99159 50057 ///// 04381 26/// /0904 10166 29076 39686 92250 333 60000
OOXX GBP67 18231 99159 50057 ///// 04381 26/// /0904 10165 29078 39684 92300 333 60000
OOXX GBP67 18231 99159 50057 ///// 04381 26/// /0904 10165 29083 39684 92310 333 60000
OOXX GBP67 18231 99159 50057 ///// 04381 26/// /0704 10164 29086 39685 92320 333 60000
OOXX GBP67 18231 99159 50057 ///// 04381 26/// /0704 10163 29084 39683 92330 333 60000
OOXX GBP67 18231 99159 50057 ///// 04381 26/// /0804 10164 29083 39683 92340 333 60000
OOXX GBP67 18231 99159 50057 ///// 04381 26/// /0804 10162 29089 39684 92350 333 60000
OOXX GBP67 19001 99159 50057 ///// 04381 26/// /0704 10160 29090 39684 90000 333 60000
OOXX PAP50 18211 99090 70795 ///// 00901 26/// /3404 10280 29061 39995 92140 333 60000
OOXX PAP50 18211 99090 70795 ///// 00901 26/// /3404 10270 29066 39995 92150 333 60000
OOXX PAP50 18221 99090 70795 ///// 00901 26/// /3404 10266 29069 39995 92200 333 60000
OOXX PAP50 18221 99090 70795 ///// 00901 26/// /3403 10263 29073 39997 92210 333 60000
OOXX PAP50 18221 99090 70795 ///// 00901 26/// /3403 10260 29075 39998 92220 333 60000
OOXX PAP50 18221 99090 70795 ///// 00901 26/// /3504 10255 29078 30001 92230 333 60000
OOXX PAP50 18221 99090 70795 ///// 00901 26/// /3403 10254 29080 30001 92240 333 60000
OOXX PAP50 18221 99090 70795 ///// 00901 26/// /3303 10251 29082 30003 92250 333 60000
OOXX PAP50 18231 99090 70795 ///// 00901 26/// /3403 10251 29082 30004 92300 333 60000
OOXX PAP50 18231 99090 70795 ///// 00901 26/// /3503 10251 29082 30006 92310 333 60000
OOXX PAP50 18231 99090 70795 ///// 00901 26/// /3403 10250 29083 30007 92320 333 60000
OOXX PAP50 18231 99090 70795 ///// 00901 26/// /3403 10248 29085 30006 92330 333 60000
OOXX CAP17 18211 99476 70527 ///// 01331 26/// /2606 11035 29096 30034 92150 333 60000
OOXX CAP17 18221 99476 70527 ///// 01331 26/// /2606 11035 29095 30033 92200 333 60000
OOXX CAP17 18221 99476 70527 ///// 01331 26/// /2706 11034 29096 30033 92210 333 60000
OOXX CAP17 18221 99476 70527 ///// 01331 26/// /2705 11034 29095 30036 92220 333 60000
OOXX CAP17 18221 99476 70527 ///// 01331 26/// /2605 11034 29095 30031 92230 333 60000
OOXX CAP17 18221 99476 70527 ///// 01331 26/// /2706 11035 29094 30026 92240 333 60000
OOXX CAP17 18221 99476 70527 ///// 01331 26/// /2707 11034 29093 30027 92250 333 60000
OOXX CAP17 18231 99476 70527 ///// 01331 26/// /2706 11033 29094 30026 92300 333 60000
OOXX CAP17 18231 99476 70527 ///// 01331 26/// /2706 11034 29094 30031 92310 333 60000
OOXX CAP17 18231 99476 70527 ///// 01331 26/// /2706 11035 29094 30032 92320 333 60000
OOXX CAP17 18231 99476 70527 ///// 01331 26/// /2705 11034 29095 30035 92330 333 60000
OOXX CAP17 18231 99476 70527 ///// 01331 26/// /2706 11035 29095 30033 92340 333 60000
OOXX CAP14 18221 99487 71234 ///// 00431 26/// /3302 10088 29065 30197 92230 333 60000
OOXX CAP14 18221 99487 71234 ///// 00431 26/// /2901 10088 29066 30196 92240 333 60000
OOXX CAP14 18221 99487 71234 ///// 00431 26/// /2802 10086 29068 30200 92250 333 60000
OOXX CAP14 18231 99487 71234 ///// 00431 26/// /2802 10085 29068 30199 92300 333 60000
OOXX CAP14 18231 99487 71234 ///// 00431 26/// /2802 10083 29068 30201 92310 333 60000
OOXX CAP14 18231 99487 71234 ///// 00431 26/// /2902 10080 29070 30201 92320 333 60000
OOXX CAP14 18231 99487 71234 ///// 00431 26/// /2902 10078 29072 30201 92330 333 60000
OOXX CAP14 18231 99487 71234 ///// 00431 26/// /2902 10074 29074 30200 92340 333 60000
OOXX CAP14 18231 99487 71234 ///// 00431 26/// /2702 10073 29074 30201 92350 333 60000
OOXX CAP14 19001 99487 71234 ///// 00431 26/// /2702 10070 29075 30200 90000 333 60000
OOXX CAP14 19001 99487 71234 ///// 00431 26/// /2701 10067 29075 30203 90010 333 60000
OOXX CAP14 19001 99487 71234 ///// 00431 26/// /2101 10057 29080 30206 90020 333 60000
OOXX AUP07 18221 99/// ///// ///// ///// 26/// /0502 10103 29075 30195 92249 333 60000
OOXX AUP07 18221 99/// ///// ///// ///// 26/// /3403 10106 29075 30195 92259 333 60000
OOXX AUP07 18231 99/// ///// ///// ///// 26/// /2703 10107 29073 30195 92309 333 60000
OOXX AUP07 18231 99/// ///// ///// ///// 26/// /1103 10103 29075 30195 92319 333 60000
OOXX AUP07 18231 99/// ///// ///// ///// 26/// /0803 10099 29075 30195 92329 333 60000
OOXX AUP07 18231 99/// ///// ///// ///// 26/// /0703 10092 29075 30196 92339 333 60000
OOXX AUP07 18231 99/// ///// ///// ///// 26/// /0703 10092 29076 30196 92349 333 60000
OOXX AUP07 18231 99/// ///// ///// ///// 26/// /0802 10097 29077 30196 92359 333 60000
OOXX AUP07 19001 99/// ///// ///// ///// 26/// /0803 10097 29076 30196 90009 333 60000
OOXX AUP07 19001 99/// ///// ///// ///// 26/// /0803 10096 29077 30196 90019 333 60000
OOXX AUP07 19001 99/// ///// ///// ///// 26/// /0703 10094 29077 30196 90029 333 60000
OOXX AUP07 19001 99/// ///// ///// ///// 26/// /0703 10099 29076 30197 90039 333 60000
OOXX MRP43 18221 99181 70159 ///// 00101 26/// /3602 10190 29015 30152 92240 333 60000
OOXX MRP43 18221 99181 70159 ///// 00101 26/// /3504 10206 29013 30154 92250 333 60000
OOXX MRP43 18231 99181 70159 ///// 00101 26/// /3603 10201 29014 30154 92300 333 60000
OOXX MRP43 18231 99181 70159 ///// 00101 26/// /0103 10200 29014 30154 92310 333 60000
OOXX MRP43 18231 99181 70159 ///// 00101 26/// /0203 10196 29014 30153 92320 333 60000
OOXX MRP43 18231 99181 70159 ///// 00101 26/// /0203 10193 29014 30154 92330 333 60000
OOXX MRP43 18231 99181 70159 ///// 00101 26/// /0203 10191 29014 30153 92340 333 60000
OOXX MRP43 18231 99181 70159 ///// 00101 26/// /0202 10185 29015 30151 92350 333 60000
OOXX MRP43 19001 99181 70159 ///// 00101 26/// /0402 10191 29015 30150 90000 333 60000
OOXX MRP43 19001 99181 70159 ///// 00101 26/// /0202 10188 29016 30150 90010 333 60000
OOXX MRP43 19001 99181 70159 ///// 00101 26/// /0202 10183 29016 30150 90020 333 60000
OOXX MRP43 19001 99181 70159 ///// 00101 26/// /0202 10179 29017 30148 90030 333 60000
OOXX KIP39 18221 99020 51574 ///// 00181 26/// /1105 10269 29069 30094 92230 333 60000
OOXX KIP39 18221 99020 51574 ///// 00181 26/// /1105 10269 29071 30093 92240 333 60000
OOXX KIP39 18221 99020 51574 ///// 00181 26/// /1105 10269 29071 30091 92250 333 60000
OOXX KIP39 18231 99020 51574 ///// 00181 26/// /1105 10271 29071 30089 92300 333 60000
OOXX KIP39 18231 99020 51574 ///// 00181 26/// /1105 10268 29070 30090 92310 333 60000
OOXX KIP39 18231 99020 51574 ///// 00181 26/// /1105 10269 29070 30088 92320 333 60000
OOXX KIP39 18231 99020 51574 ///// 00181 26/// /1106 10274 29069 30087 92330 333 60000
OOXX KIP39 18231 99020 51574 ///// 00181 26/// /1005 10274 29069 30086 92340 333 60000
OOXX KIP39 18231 99020 51574 ///// 00181 26/// /1105 10273 29070 30085 92350 333 60000
OOXX KIP39 19001 99020 51574 ///// 00181 26/// /1105 10276 29069 30084 90000 333 60000
OOXX KIP39 19001 99020 51574 ///// 00181 26/// /1005 10281 29068 30085 90010 333 60000
OOXX KIP39 19001 99020 51574 ///// 00181 26/// /1006 10274 29068 30083 90020 333 60000
OOXX NOP49 18221 99782 10154 ///// 04691 26/// /2010 11028 29077 39444 92210 333 6///0
OOXX NOP49 18221 99782 10154 ///// 04691 26/// /2008 11030 29078 39444 92220 333 6///0
OOXX NOP49 18221 99782 10154 ///// 04691 26/// /2107 11029 29078 39447 92230 333 6///0
OOXX NOP49 18221 99782 10154 ///// 04691 26/// /2108 11029 29079 39446 92240 333 6///0
OOXX NOP49 18221 99782 10154 ///// 04691 26/// /1909 11027 29077 39445 92250 333 6///0
OOXX NOP49 18231 99782 10154 ///// 04691 26/// /1811 11019 29076 39443 92300 333 6///0
OOXX NOP49 18231 99782 10154 ///// 04691 26/// /1908 11022 29077 39443 92310 333 6///0
OOXX NOP49 18231 99782 10154 ///// 04691 26/// /1610 11017 29075 39444 92320 333 6///0
OOXX NOP49 18231 99782 10154 ///// 04691 26/// /1508 11023 29077 39443 92330 333 6///0
OOXX NOP49 18231 99782 10154 ///// 04691 26/// /1508 11023 29076 39443 92340 333 6///0
OOXX NOP49 18231 99782 10154 ///// 04691 26/// /1711 11018 29077 39441 92350 333 6///0
OOXX NOP49 19001 99782 10154 ///// 04691 26/// /1712 11019 29077 39440 90000 333 6///0
OOXX GBP68 18221 99371 50123 ///// 00641 26/// /3508 10141 29000 30177 92210 333 60000
OOXX GBP68 18221 99371 50123 ///// 00641 26/// /3508 10141 29000 30175 92220 333 60000
OOXX GBP68 18221 99371 50123 ///// 00641 26/// /3509 10143 29000 30175 92230 333 60000
OOXX GBP68 18221 99371 50123 ///// 00641 26/// /3508 10144 29000 30175 92240 333 60000
OOXX GBP68 18221 99371 50123 ///// 00641 26/// /3506 10142 29000 30174 92250 333 60000
OOXX GBP68 18231 99371 50123 ///// 00641 26/// /3507 10140 29000 30173 92300 333 60000
OOXX GBP68 18231 99371 50123 ///// 00641 26/// /3506 10134 29000 30170 92310 333 60000
OOXX GBP68 18231 99371 50123 ///// 00641 26/// /3507 10131 29000 30171 92320 333 60000
OOXX GBP68 18231 99371 50123 ///// 00641 26/// /3508 10131 29000 30169 92330 333 60000
OOXX GBP68 18231 99371 50123 ///// 00641 26/// /3507 10134 29000 30170 92340 333 60000
OOXX GBP68 18231 99371 50123 ///// 00641 26/// /3508 10135 29000 30169 92350 333 60000
OOXX GBP68 19001 99371 50123 ///// 00641 26/// /3507 10133 29000 30166 90000 333 60000
OOXX ISP34 18221 99641 70219 ///// 01301 26/// /3203 10031 29001 39899 92210 333 6///0
OOXX ISP34 18221 99641 70219 ///// 01301 26/// /3103 10030 29001 39898 92220 333 6///0
OOXX ISP34 18221 99641 70219 ///// 01301 26/// /3003 10029 29001 39898 92230 333 6///0
OOXX ISP34 18221 99641 70219 ///// 01301 26/// /3002 10028 29001 39899 92240 333 6///0
OOXX ISP34 18221 99641 70219 ///// 01301 26/// /2802 10028 29001 39899 92250 333 6///0
OOXX ISP34 18231 99641 70219 ///// 01301 26/// /2702 10027 29001 39899 92300 333 6///0
OOXX ISP34 18231 99641 70219 ///// 01301 26/// /2602 10026 29001 39899 92310 333 6///0
OOXX ISP34 18231 99641 70219 ///// 01301 26/// /2802 10026 29001 39899 92320 333 6///0
OOXX ISP34 18231 99641 70219 ///// 01301 26/// /3002 10026 29001 39899 92330 333 6///0
OOXX ISP34 18231 99641 70219 ///// 01301 26/// /3002 10026 29001 39897 92340 333 6///0
OOXX ISP34 18231 99641 70219 ///// 01301 26/// /2801 10027 29001 39897 92350 333 6///0
OOXX ISP34 19001 99641 70219 ///// 01301 26/// /2701 10027 29001 39896 90000 333 6///0
OOXX AUP09 18221 99124 31309 ///// 00321 26/// ///// 1//// 29/// 3//// 92214 333 6///0
OOXX AUP09 18221 99124 31309 ///// 00321 26/// ///// 1//// 29/// 3//// 92224 333 6///0
OOXX AUP09 18221 99124 31309 ///// 00321 26/// ///// 1//// 29/// 3//// 92234 333 6///0
OOXX AUP09 18221 99124 31309 ///// 00321 26/// ///// 1//// 29/// 3//// 92244 333 6///0
OOXX AUP09 18221 99124 31309 ///// 00321 26/// ///// 1//// 29/// 3//// 92254 333 6///0
OOXX AUP09 18231 99124 31309 ///// 00321 26/// ///// 1//// 29/// 3//// 92304 333 6///0
OOXX AUP09 18231 99124 31309 ///// 00321 26/// ///// 1//// 29/// 3//// 92314 333 6///0
OOXX AUP09 18231 99124 31309 ///// 00321 26/// ///// 1//// 29/// 3//// 92324 333 6///0
OOXX AUP09 18231 99124 31309 ///// 00321 26/// ///// 1//// 29/// 3//// 92334 333 6///0
OOXX AUP09 18231 99124 31309 ///// 00321 26/// ///// 1//// 29/// 3//// 92344 333 6///0
OOXX AUP09 18231 99124 31309 ///// 00321 26/// ///// 1//// 29/// 3//// 92354 333 6///0
OOXX AUP09 19001 99124 31309 ///// 00321 26/// ///// 1//// 29/// 3//// 90004 333 6///0
OOXX RUP60 18221 99531 11588 ///// 00651 26/// /3504 11124 29067 39878 92252 333 60000
OOXX RUP60 18231 99531 11588 ///// 00651 26/// /3202 11118 29065 39878 92302 333 60000
OOXX RUP60 18231 99531 11588 ///// 00651 26/// /3304 11115 29064 39877 92312 333 60000
OOXX RUP60 18231 99531 11588 ///// 00651 26/// /3306 11108 29061 39877 92322 333 60000
OOXX RUP60 18231 99531 11588 ///// 00651 26/// /3002 11102 29060 39876 92332 333 60000
OOXX RUP60 18231 99531 11588 ///// 00651 26/// /2902 11100 29060 39876 92342 333 60000
OOXX RUP60 18231 99531 11588 ///// 00651 26/// /3506 11096 29058 39876 92352 333 60000
OOXX RUP60 19001 99531 11588 ///// 00651 26/// /3103 11093 29058 39875 90002 333 60000
OOXX RUP60 19001 99531 11588 ///// 00651 26/// /3604 11091 29059 39874 90012 333 60000
OOXX RUP60 19001 99531 11588 ///// 00651 26/// /3104 11088 29058 39873 90022 333 60000
OOXX RUP60 19001 99531 11588 ///// 00651 26/// /3203 11086 29057 39872 90032 333 60000
OOXX RUP60 19001 99531 11588 ///// 00651 26/// /3305 11083 29055 39871 90042 333 60000
OOXX RUP59 18221 99539 10848 ///// 02121 26/// /0000 11323 29066 30126 92240 333 60000
OOXX RUP59 18221 99539 10848 ///// 02121 26/// /0000 11325 29065 30125 92250 333 60000
OOXX RUP59 18231 99539 10848 ///// 02121 26/// /0000 11323 29066 30126 92300 333 60000
OOXX RUP59 18231 99539 10848 ///// 02121 26/// /0000 11320 29066 30125 92310 333 60000
OOXX RUP59 18231 99539 10848 ///// 02121 26/// /0000 11324 29065 30126 92320 333 60000
OOXX RUP59 18231 99539 10848 ///// 02121 26/// /0000 11324 29065 30127 92330 333 60000
OOXX RUP59 18231 99539 10848 ///// 02121 26/// /0000 11324 29065 30127 92340 333 60000
OOXX RUP59 18231 99539 10848 ///// 02121 26/// /0000 11324 29065 30129 92350 333 60000
OOXX RUP59 19001 99539 10848 ///// 02121 26/// /0000 11322 29066 30129 90000 333 60000
OOXX RUP59 19001 99539 10848 ///// 02121 26/// /0000 11322 29065 30130 90010 333 60000
OOXX RUP59 19001 99539 10848 ///// 02121 26/// /0000 11319 29066 30130 90020 333 60000
OOXX RUP59 19001 99539 10848 ///// 02121 26/// /0000 11317 29066 30131 90030 333 60000
OOXX PTP53 18221 99377 70257 ///// 00121 26/// /3404 10132 29001 30267 92210 333 60000
OOXX PTP53 18221 99377 70257 ///// 00121 26/// /3504 10132 29001 30267 92220 333 60000
OOXX PTP53 18221 99377 70257 ///// 00121 26/// /3504 10133 29001 30267 92230 333 60000
OOXX PTP53 18221 99377 70257 ///// 00121 26/// /3504 10133 29001 30266 92240 333 60000
OOXX PTP53 18221 99377 70257 ///// 00121 26/// /3404 10132 29001 30266 92250 333 60000
OOXX PTP53 18231 99377 70257 ///// 00121 26/// /3404 10133 29001 30267 92300 333 60000
OOXX PTP53 18231 99377 70257 ///// 00121 26/// /3404 10132 29001 30267 92310 333 60000
OOXX PTP53 18231 99377 70257 ///// 00121 26/// /3404 10130 29001 30267 92320 333 60000
OOXX PTP53 18231 99377 70257 ///// 00121 26/// /3404 10129 29001 30267 92330 333 60000
OOXX PTP53 18231 99377 70257 ///// 00121 26/// /3505 10130 29001 30268 92340 333 60000
OOXX PTP53 18231 99377 70257 ///// 00121 26/// /3404 10129 29001 30268 92350 333 60000
OOXX PTP53 19001 99377 70257 ///// 00121 26/// /3404 10129 29001 30268 90000 333 60000
OOXX FRP29 18211 99210 30556 ///// 00751 26/// /2505 10265 29078 39802 92156 333 60000
OOXX FRP29 18221 99210 30556 ///// 00751 26/// /2002 10256 29079 39798 92206 333 60000
OOXX FRP29 18221 99210 30556 ///// 00751 26/// /2403 10251 29082 39798 92216 333 60000
OOXX FRP29 18221 99210 30556 ///// 00751 26/// /2503 10251 29081 39797 92226 333 60000
OOXX FRP29 18221 99210 30556 ///// 00751 26/// /2604 10252 29080 39799 92236 333 60000
OOXX FRP29 18221 99210 30556 ///// 00751 26/// /2604 10254 29080 39800 92246 333 60000
OOXX FRP29 18221 99210 30556 ///// 00751 26/// /2605 10256 29079 39799 92256 333 60000
OOXX FRP29 18231 99210 30556 ///// 00751 26/// /2604 10257 29078 39801 92306 333 60000
OOXX FRP29 18231 99210 30556 ///// 00751 26/// /2504 10256 29079 39802 92316 333 60000
OOXX FRP29 18231 99210 30556 ///// 00751 26/// /2603 10253 29081 39802 92326 333 60000
OOXX FRP29 18231 99210 30556 ///// 00751 26/// /2603 10254 29081 39802 92336 333 60000
OOXX FRP29 18231 99210 30556 ///// 00751 26/// /2505 10253 29082 39806 92346 333 60000
OOXX MXP44 18221 99280 71140 ///// 00041 26/// /1422 10169 29055 30176 92210 333 60000
OOXX MXP44 18221 99280 71140 ///// 00041 26/// /1422 10165 29055 30177 92220 333 60000
OOXX MXP44 18221 99280 71140 ///// 00041 26/// /1422 10161 29055 30178 92230 333 60000
OOXX MXP44 18221 99280 71140 ///// 00041 26/// /1422 10161 29055 30175 92240 333 60000
OOXX MXP44 18221 99280 71140 ///// 00041 26/// /1422 10165 29055 30174 92250 333 60000
OOXX MXP44 18231 99280 71140 ///// 00041 26/// /1422 10164 29055 30175 92300 333 60000
OOXX MXP44 18231 99280 71140 ///// 00041 26/// /1422 10167 29055 30175 92310 333 60000
OOXX MXP44 18231 99280 71140 ///// 00041 26/// /1422 10166 29055 30175 92320 333 60000
OOXX MXP44 18231 99280 71140 ///// 00041 26/// /1422 10159 29055 30175 92330 333 60000
OOXX MXP44 18231 99280 71140 ///// 00041 26/// /1422 10156 29055 30175 92340 333 60000
OOXX MXP44 18231 99280 71140 ///// 00041 26/// /1422 10158 29055 30175 92350 333 60000
OOXX MXP44 19001 99280 71140 ///// 00041 26/// /1422 10158 29055 30176 90000 333 60000
OOXX NZP46 18221 99438 51765 ///// 00221 26/// /2206 10144 29052 30113 92230 333 60000
OOXX NZP46 18221 99438 51765 ///// 00221 26/// /2305 10147 29051 30112 92240 333 60000
OOXX NZP46 18221 99438 51765 ///// 00221 26/// /2206 10149 29050 30111 92250 333 60000
OOXX NZP46 18231 99438 51765 ///// 00221 26/// /2206 10145 29050 30111 92300 333 60000
OOXX NZP46 18231 99438 51765 ///// 00221 26/// /2306 10149 29053 30110 92310 333 60000
OOXX NZP46 18231 99438 51765 ///// 00221 26/// /2206 10152 29052 30109 92320 333 60000
OOXX NZP46 18231 99438 51765 ///// 00221 26/// /2107 10140 29055 30108 92330 333 60000
OOXX NZP46 18231 99438 51765 ///// 00221 26/// /2207 10150 29054 30108 92340 333 60000
OOXX NZP46 18231 99438 51765 ///// 00221 26/// /2307 10150 29052 30107 92350 333 60000
OOXX NZP46 19001 99438 51765 ///// 00221 26/// /2307 10155 29052 30106 90000 333 60000
OOXX NZP46 19001 99438 51765 ///// 00221 26/// /2307 10151 29054 30106 90010 333 60000
OOXX NZP46 19001 99438 51765 ///// 00221 26/// /2207 10145 29055 30106 90020 333 60000
OOXX ARP01 18221 99345 50585 ///// 00311 26/// /1101 10114 29037 30027 92210 333 60000
OOXX ARP01 18221 99345 50585 ///// 00311 26/// /1401 10113 29038 30026 92220 333 60000
OOXX ARP01 18221 99345 50585 ///// 00311 26/// /0000 10112 29038 30027 92230 333 60000
OOXX ARP01 18221 99345 50585 ///// 00311 26/// /0000 10111 29039 30027 92240 333 60000
OOXX ARP01 18221 99345 50585 ///// 00311 26/// /1101 10109 29039 30027 92250 333 60000
OOXX ARP01 18231 99345 50585 ///// 00311 26/// /1101 10107 29040 30026 92300 333 60000
OOXX ARP01 18231 99345 50585 ///// 00311 26/// /0000 10105 29040 30027 92310 333 60000
OOXX ARP01 18231 99345 50585 ///// 00311 26/// /0000 10106 29040 30027 92320 333 60000
OOXX ARP01 18231 99345 50585 ///// 00311 26/// /1401 10104 29040 30028 92330 333 60000
OOXX ARP01 18231 99345 50585 ///// 00311 26/// /0000 10106 29041 30030 92340 333 60000
OOXX ARP01 18231 99345 50585 ///// 00311 26/// /0000 10106 29041 30031 92350 333 60000
OOXX ARP01 19001 99345 50585 ///// 00311 26/// /0000 10106 29041 30033 90000 333 60000
OOXX AUP06 18221 99192 31468 ///// 00071 26/// /1305 10272 29067 30103 92252 333 60000
OOXX AUP06 18231 99192 31468 ///// 00071 26/// /1207 10280 29065 30102 92302 333 60000
OOXX AUP06 18231 99192 31468 ///// 00071 26/// /1107 10279 29065 30101 92312 333 60000
OOXX AUP06 18231 99192 31468 ///// 00071 26/// /1007 10274 29064 30101 92322 333 60000
OOXX AUP06 18231 99192 31468 ///// 00071 26/// /1008 10280 29065 30099 92332 333 60000
OOXX AUP06 18231 99192 31468 ///// 00071 26/// /1107 10279 29063 30099 92342 333 60000
OOXX AUP06 18231 99192 31468 ///// 00071 26/// /1107 10286 29063 30099 92352 333 60000
OOXX AUP06 19001 99192 31468 ///// 00071 26/// /1106 10288 29062 30097 90002 333 60000
OOXX AUP06 19001 99192 31468 ///// 00071 26/// /1206 10284 29061 30097 90012 333 60000
OOXX AUP06 19001 99192 31468 ///// 00071 26/// /1207 10289 29062 30097 90022 333 60000
OOXX AUP06 19001 99192 31468 ///// 00071 26/// /0907 10288 29060 30096 90032 333 60000
OOXX AUP06 19001 99192 31468 ///// 00071 26/// /0807 10291 29062 30094 90042 333 60000
AAXX 19004 91559 46/// /0302 10254 40072 22200 00286
AAXX 19004 71388 46/// /1203 11180 21203 30022 40222 58010 6///1 333 11118 21266 7////
AAXX 19004 71427 16/// /2418 11084 21118 30221 40229 58005 60001 333 11082 21205 70000
AAXX 19004 71428 16/// /2009 11157 21193 30230 40237 58001 60001 333 11093 21157 70000
AAXX 19004 71679 16/// /0302 11025 21027 39218 40252 55005 60001 333 11024 21056 70000
AAXX 19004 71915 11502 83230 11194 21226 39783 49865 58005 69901 77673 885// 333 11194 21266 48044 79999 90983
AAXX 19004 71319 16/// /2004 11166 21192 39317 40219 58002 60001 333 11127 21244 70005
AAXX 19004 71723 16/// /1604 11108 21140 30240 40250 58001 60001 333 11081 21143 70000
AAXX 19004 71915 11502 83230 11194 21226 39783 49865 58005 69901 77673 885// 333 11194 21266 48044 79999 90983
AAXX 19004 71319 16/// /2004 11166 21192 39317 40219 58002 60001 333 11127 21244 70005
AAXX 19004 71388 46/// /1203 11180 21203 30022 40222 58010 6///1 333 11118 21266 7////
AAXX 19004 71723 16/// /1604 11108 21140 30240 40250 58001 60001 333 11081 21143 70000
AAXX 19004 71427 16/// /2418 11084 21118 30221 40229 58005 60001 333 11082 21205 70000
AAXX 19004 71428 16/// /2009 11157 21193 30230 40237 58001 60001 333 11093 21157 70000
AAXX 19004 71679 16/// /0302 11025 21027 39218 40252 55005 60001 333 11024 21056 70000
AAXX 19004 91531 46/// /0711 1//// 40052 22200 00267
AAXX 19004 78873 01060 /0511 10245 20187 30111 52017 60001 70000 333 10275 20243 58005 60007 70004
AAXX 19004 78873 01060 /0511 10245 20187 30111 52017 60001 70000 333 10275 20243 58005 60007 70004
AAXX 19004 78873 01060 /0511 10245 20187 30111 52017 60001 70000 333 10275 20243 58005 60007 70004
AAXX 19004 71016 17/// ///// 11026 60021 7//4/ 333 10072 21026 70035
AAXX 19004 71016 17/// ///// 11026 60021 7//4/ 333 10072 21026 70035
AAXX 1900/ 89828 46/// ///// 11266 36551 4//// 5////
AAXX 1900/ 89108 46/// ///// 11216 36923 4//// 5////
AAXX 1900/ 89872 46/// ///// 11055 39849 4//// 5////
AAXX 1900/ 89329 46/// ///// 11130 38790 4//// 5////
AAXX 1900/ 89799 46/// ///// 11255 4//// 5////
AAXX 1900/ 89314 46/// ///// 11141 38237 4//// 5////
AAXX 19004 91642 46/// /0000 1//// 40069 22200 0////
BBXX 44056 19001 99362 70757 46/// ///// 1//// 90020 22200 00108 10602 20602 306// 41101 70012
BBXX 46109 19001 99481 71234 46/// /1003 10084 40273 92357 22200 00079
BBXX 46110 19001 99481 71230 46/// /2301 10080 40273 92358
AAXX 19004 78873 01060 /0511 10245 20187 30111 52017 60001 70000 333 10275 20243 58005 60007 70004
AAXX 19004 41515 NIL
AAXX 19004 41560 22996 03603 11030 21145 38248 48485 60002 333 58005 60007
AAXX 19004 41571 119// 00000 10035 20010 39586 40198 60002 71000 333 58010
AAXX 19004 41594 319// 00000 10060 20048 39966 40194 71000 333 58019
AAXX 19004 41685 32993 00000 10055 21023 38924 48495 333 58012
AAXX 19004 41710 02997 03102 10045 21128 39387 40196 60002 333 58023 60007
AAXX 19004 41718 11996 00000 10080 20053 30061 40170 60002 70400 333 58014
AAXX 19004 41739 02996 00506 10050 21030 39063 48497 60002 333 59002 60007
AAXX 19004 41744 32996 00000 10035 21051 38785 48498 333 58003
AAXX 19004 41749 21994 00000 10100 20079 30133 40166 60002 71000 333 58016 60007
AAXX 19004 41529 12995 00000 10033 20009 39811 40212 60002 333 58026
AAXX 19004 41598 11995 00000 10045 20020 39898 40184 60002 71000 333 58011
AAXX 19004 41620 32995 01805 10030 21103 38606 48506 333 58018
AAXX 19004 41624 02995 00502 10065 20042 39973 40183 60002 333 58020 60007
AAXX 19004 41640 01995 00000 10088 20057 39922 40180 60002 70400 333 58016 60007
AAXX 19004 41660 NIL
AAXX 19004 41675 11995 00000 10060 20036 30036 40180 60002 71000 333 58019
AAXX 19004 41712 12996 00502 10035 21051 39227 48510 60002 333 58013
AAXX 19004 41715 01695 50000 10100 20057 30095 40162 60002 70420 82530 333 56990 58007 60007 82635 83360
AAXX 19004 41756 01995 62704 10165 20139 30102 40167 60002 70404 86030 333 56090 58013 60007 86358
AAXX 19004 41764 32996 03404 10130 20080 30095 40146 60002 333 58012 60007
AAXX 19004 41768 02996 00000 10090 20069 30146 40153 60002 333 59004 60007
AAXX 19004 41780 01996 00000 10140 20122 30136 40164 70400 333 59002 60007
AAXX 19004 41515 NIL
AAXX 19004 41560 22996 03603 11030 21145 38248 48485 60002 333 58005 60007
AAXX 19004 41571 119// 00000 10035 20010 39586 40198 60002 71000 333 58010
AAXX 19004 41594 319// 00000 10060 20048 39966 40194 71000 333 58019
AAXX 19004 41685 32993 00000 10055 21023 38924 48495 333 58012
AAXX 19004 41710 02997 03102 10045 21128 39387 40196 60002 333 58023 60007
AAXX 19004 41718 11996 00000 10080 20053 30061 40170 60002 70400 333 58014
AAXX 19004 41739 02996 00506 10050 21030 39063 48497 60002 333 59002 60007
AAXX 19004 41744 32996 00000 10035 21051 38785 48498 333 58003
AAXX 19004 41749 21994 00000 10100 20079 30133 40166 60002 71000 333 58016 60007
AAXX 19004 41506 02694 60000 11030 21063 48531 60002 83420 333 56990 59007 60007 83640 83460
AAXX 19004 41508 22996 00000 11022 21069 48552 60002 333 58012 60007
AAXX 19004 41523 12996 00000 10000 21044 48517 60002 333 59002 60007
AAXX 19004 41535 12997 00000 10020 21006 48477 60002 333 58000
AAXX 19004 41536 02996 00000 10020 21036 48523 60002 333 58038 60007
AAXX 19004 41573 12996 00502 10020 21065 48511 60002 333 58007
AAXX 19004 41600 01995 00000 10040 20028 39875 40186 60002 71000 333 58011 60007
AAXX 19004 41630 11995 00000 10055 20033 40195 60002 71000 333 58019
AAXX 19004 41678 NIL
AAXX 19004 41696 NIL
AAXX 19004 41697 02996 00000 10072 20047 30000 40165 60002 333 58003 60007
AAXX 19004 41700 11995 00000 10070 20047 30028 40164 60002 70400 333 58008
AAXX 19004 41725 02996 00000 10110 20068 30084 40166 60002 333 58001 60007
AAXX 19004 41746 02996 00000 10090 20063 30090 40147 60002 333 59022 60007
AAXX 19004 41759 12996 00000 10170 20135 30162 40168 60002 333 58003
AAXX 19004 41785 NIL
AAXX 19004 41529 12995 00000 10033 20009 39811 40212 60002 333 58026
AAXX 19004 41598 11995 00000 10045 20020 39898 40184 60002 71000 333 58011
AAXX 19004 41620 32995 01805 10030 21103 38606 48506 333 58018
AAXX 19004 41624 02995 00502 10065 20042 39973 40183 60002 333 58020 60007
AAXX 19004 41640 01995 00000 10088 20057 39922 40180 60002 70400 333 58016 60007
AAXX 19004 41660 NIL
AAXX 19004 41675 11995 00000 10060 20036 30036 40180 60002 71000 333 58019
AAXX 19004 41712 12996 00502 10035 21051 39227 48510 60002 333 58013
AAXX 19004 41715 01695 50000 10100 20057 30095 40162 60002 70420 82530 333 56990 58007 60007 82635 83360
AAXX 19004 41756 01995 62704 10165 20139 30102 40167 60002 70404 86030 333 56090 58013 60007 86358
AAXX 19004 41764 32996 03404 10130 20080 30095 40146 60002 333 58012 60007
AAXX 19004 41768 02996 00000 10090 20069 30146 40153 60002 333 59004 60007
AAXX 19004 41780 01996 00000 10140 20122 30136 40164 70400 333 59002 60007
BBXX 46094 19001 99446 71243 46/// /3508 10095 92350
BBXX 46094 19001 99446 71243 46/// /3306 10095 92340
BBXX 46094 19001 99446 71243 46/// /3507 10094 90030
BBXX 46094 19001 99446 71243 46/// /3406 10095 90020
BBXX 46094 19001 99446 71243 46/// /3306 10095 90010
BBXX 46094 19001 99446 71243 46/// /3308 10096 90000
BBXX ZCDF4 19003 99248 71127 41598 23218 10195 20134 40204 53003 70100 82100 22274 00220 20402 332// 40703 5//// 80160
AAXX 19004 71026 16/// /3104 11002 21039 39360 40222 53027 60001 333 10050 7////
AAXX 19004 71165 46/// ///01 11220 21243 39798 40091 58018 6///1 333 11181 21222 7////
AAXX 19004 71322 16/// /3414 11242 21265 30067 40080 51028 60001 333 11211 21288 70052
AAXX 19004 71165 46/// ///01 11220 21243 39798 40091 58018 6///1 333 11181 21222 7////
AAXX 19004 71026 16/// /3104 11002 21039 39360 40222 53027 60001 333 10050 7////
AAXX 19004 92036 46/// /2603 10287 40073 22200 00313
BBXX 62123 19004 99563 10022 47599 /2918 10055 20002 40106 50003 700// 22200
BBXX 63106 19004 99610 10017 46/// /3121 10035 40055 51003 22200
BBXX 63113 19004 99610 10017 46/// /3319 10037 21012 40058 57001 22200 10808 70040
BBXX 62107 19004 99501 70061 46/// /3114 10094 20036 40225 58005 22200 00114 10703 70014 333 90710 91125
BBXX 62103 19004 99499 70029 46/// /3417 10085 20026 40202 57007 22200 00120 10703 70014
AAXX 19004 41268 36/// /1903 10180 20148 30156 48073 333 0E019 58014
AAXX 19004 93713 46/// /0000 10159 40142 22200 00165
BBXX 46094 19001 99446 71243 46/// /3406 10095 90020
BBXX 46094 19001 99446 71243 46/// /3308 10096 90000
BBXX 46094 19001 99446 71243 46/// /3306 10095 90010
BBXX 46094 19001 99446 71243 46/// /3306 10095 92340
BBXX 46094 19001 99446 71243 46/// /3508 10095 92350
BBXX 46094 19001 99446 71243 46/// /3507 10094 90030
BBXX 46109 19001 99481 71234 46/// /1003 10084 40273 92357 22200 00079
BBXX 46110 19001 99481 71230 46/// /2301 10080 40273 92358
BBXX 44056 19001 99362 70757 46/// ///// 1//// 90020 22200 00108 10602 20602 306// 41101 70012
BBXX ZCDF4 19003 99248 71127 41598 23218 10195 20134 40204 53003 70100 82100 22274 00220 20402 332// 40703 5//// 80160
BBXX 66022 19001 99541 10142 46/// /2412 10026 30030 22200 00041
BBXX AMOUK04 19004 99533 70062 46/// ///// 10079 20042 30158 4//// 57011 92350
BBXX OYCY2 19004 99499 71450 41797 82010 10080 20060 40130 54000 70322 8572/ 22272 00100 20402 324// 41203 5//// 6//// 80070 ICE /////
OOXX AAPIG 19004 99758 51003 56251 08502 46/// /1110 11098 21244 38863 49840 5//// 92340
AAXX 1900/ 68902 46/// ///// 40159 57010
AAXX 19004 91689 46/// /0122 10249 40085 22200 00279
AAXX 19004 94997 46/// ///// 10017 30010 40025 5////
AAXX 19004 94997 46/// ///// 10017 30010 40025 5////
AAXX 19004 41268 36/// /1903 10180 20148 30156 48073 333 0E019 58014
BBXX V2QD4 19003 99352 31676 41598 61207 10173 20146 40156 58003 70111 83441 22223 00190 20602
BBXX V2QD4 19003 99352 31676 41598 61207 10173 20146 40156 58003 70111 83441 22223 00190 20602
BBXX SKEC 19001 99544 10119 46/// ///// 10033 49993 52034 22236 00061
BBXX OYGR2 19004 99372 10050 41598 23525 10130 20074 40206 50004 70200 8/101 22225 04170 20403 80100
AAXX 19001 20667 41998 81306 11094 21110 30189 40196 52004 73632 8802/
AAXX 19004 04418 NIL
AAXX 19004 04425 NIL
AAXX 19004 04432 NIL
AAXX 19004 04436 46/// /0000 11262 21287 52048
AAXX 19004 04464 46/// /0000 11296 21323 333 553// 20004
AAXX 19004 04485 46/// /1012 11314 21331 37136 52004 333 553// 20000
AAXX 19004 04488 NIL
BBXX 44055 19001 99391 70753 46/// ///// 1//// 90030 22200 00080 10301 70004
AAXX 19001 37279 42994 00000 10054 20016 30092 40238 53002
BBXX BAREU62 19004 99442 10091 46/// ///// 40133 22234
BBXX 61001 19004 99434 10078 46/// /0518 10114 21043 40124 52012 22200 00149 10603 70017 555 1/026
BBXX BATFR22 19004 99430 10074 46/// /3219 10097 40132 55012 22224 00142
BBXX BATFR32 19004 99430 10080 46/// /0922 10110 21017 40118 53014 7//// 8//// 22264 00146
BBXX BATFR21 19004 99428 10070 46/// /3320 40125 51025 22263
BBXX DDBR2 19004 99425 10103 41/98 20416 10090 20032 40095 53020 70200 8//// 22274 20301 331// 40701 5//// 80065
BBXX 61002 19004 99421 10047 46/// ///34 10091 2//// 40190 57002 22200 00141 10808 70038 555 1/043
BBXX UBEF5 19001 99414 10290 41/96 90903 10080 40168 54000 76066 89/// 22250 00100 2////
BBXX BATFR41 19004 99411 10012 46/// ///// 10057 21022 40233 51009 22200
BBXX BAREU56 19004 99408 10143 46/// ///// 40087 22200
BBXX BAREU58 19004 99379 10236 46/// ///// 40147 22200
BBXX WKDY 19004 99377 10061 41498 83424 10110 20072 40180 57020 75052 8892/ 22223 00177 20303 332// 40604 5//// 6//// 80090 ICE /////
BBXX ZNQO3 19000 99374 10031 41498 73110 10140 20037 40208 51007 70200 8/7// 22264 04175 2//// 3//// 4//// 5//// 80093
BBXX BAREU51 19004 99370 10133 46/// ///// 40135 52020 22235
BBXX DEGI 19003 99364 10131 41/98 43112 10149 20147 40108 54000 70311 84404 22273 04182 29902 80148
BBXX BAREU63 19004 99350 10292 46/// /1411 10170 29086 40206 57007 22263
BBXX DGZL 19003 99324 10294 41/98 11015 10170 20137 40195 58005 70100 81/// 22264 00180 2//// 80150
BBXX BATFR04 19004 99598 70106 46/// /1626 10072 20042 40060 58041 22200 00100
BBXX 64045 19004 99591 70117 46/// /1720 10075 20057 40054 58039 22200 00101 10706 70029 333 90710 91128
BBXX AMOUK19 19004 99590 70030 46/// ///// 10031 21033 30113 40116 52006 92350
BBXX 62112 19004 99584 70002 47698 /3416 10046 21007 40103 58002 700// 22200
BBXX 62113 19004 99584 10002 47698 /3415 10054 21033 40096 58004 700// 22200
BBXX 62129 19004 99584 10003 46/// ///// 10051 21018 40094 58004 22200
BBXX BATUK01 19004 99583 70062 44596 42410 10037 21006 40117 58021 70211 8414/ 22200 00105 20402 304// 41002 5////
BBXX 62114 19004 99583 10000 46/// /3313 10048 21020 40104 58001 22200
BBXX AMOUK27 19004 99582 70064 46/// ///// 11177 2//// 30120 40124 57006 92350
BBXX PJAI 19004 99581 70014 47699 /3603 10051 21011 40111 50001 700// 22200
BBXX 62111 19004 99580 70003 46/// /0113 10050 20001 40108 56002 22200 10705 70026
BBXX 62117 19004 99579 10000 47699 /3307 10049 21004 40106 52001 700// 22200 10705 70023
BBXX 2AAY7 19004 99568 10002 41397 13016 10060 20031 40143 54000 70300 81/00 22232 20604 326// 40504 80048
BBXX 62105 19004 99554 70121 46/// /2222 10099 20094 40094 57042 22200 00106 10706 70028 333 90710 91129
BBXX BAREU04 19004 99548 70221 46/// ///// 40115 52005 22263
BBXX BATEU03 19004 99544 70097 46/// /2118 10085 20067 40146 56030 22222 00099
BBXX AMOUK14 19004 99535 70031 46/// ///// 10053 20037 30134 40166 57007 92350
BBXX AMOUK12 19004 99533 70060 46/// ///// 10056 20031 30151 40190 57012 92350
BBXX AMOUK11 19004 99533 70051 46/// ///// 10075 20048 30141 40188 57011 92350
BBXX 62095 19004 99531 70159 46/// /2416 10114 20105 40142 57017 22200 00113 10706 70031 333 90710 91128
BBXX 62301 19004 99524 70047 46/// /3014 10079 20044 40186 56010 22200 00091 10403 70015
BBXX AMOUK16 19004 99521 70051 46/// ///// 10077 20042 30193 40197 57008 92350
BBXX 62094 19004 99517 70067 46/// /2813 10087 20048 40204 57011 22200 00106 10503 70015
BBXX 62303 19004 99516 70051 46/// /3112 10089 20043 40198 58010 22200 00111 10503 70014
BBXX SKUN 19003 99515 70134 43/97 82326 10095 40185 56015 22224 00103 2//// 4////
BBXX 62023 19003 99514 70079 46/97 /2615 10093 2//// 40223 5//// 22200 10503 70014 555 70021 80012
BBXX A8NQ5 19003 99512 70253 41/96 /2320 10105 20077 40145 52025 74155 8//// 22265 299// 80090
BBXX 62081 19004 99510 70134 46/// ///// 10111 20070 40194 58029 22200 00120 10606 70028
BBXX AMOUK10 19004 99508 10003 46/// ///// 1//// 2//// 30196 40193 52010 92350
BBXX BATFR27 19004 99506 70011 46/// /3110 10070 20024 40196 50003 22242 00092
BBXX BATFR60 19004 99504 70005 46/// /3218 10055 21021 40204 53023 22253 00109
BBXX 62305 19004 99504 10000 46/98 /3417 10052 21023 40209 53011 22200 00117 10602 70009
BBXX TESTFR9 19004 99503 70042 46/// ///// 10079 29076 40238 22231
BBXX AMOUK08 19004 99501 70061 46/// ///// 10097 20048 30220 40225 57005 92350
BBXX A8XY2 19004 99499 70095 41/97 /2520 10105 20019 40230 54000 70322 8//// 22254 04110 20504 80065
BBXX 62103 19004 99499 70029 46/// /3520 10084 20023 40206 50001 22200 00120 10703 70015 333 90710 91125
BBXX A8LL8 19004 99496 70039 41/98 /3305 10090 20060 40220 57010 70022 8/875 22224 21006 80075
BBXX BATFR03 19004 99495 70004 46/// /0021 10070 21002 40201 22282
BBXX 62027 19004 99491 70022 46/// /3616 1//// 2//// 40210 52001 22200 00114 10603 329// 70017
BBXX 62442 19004 99490 70164 46/// /2023 1//// 2//// 40210 58024 22200 00127 333 90710 91131
BBXX PBBB 19003 99487 70135 41/98 /2311 10127 20057 40239 58019 7//11 8//// 22253 00125 20304 3//// 4//// 5//// 80091
BBXX 62029 19004 99487 70125 46/// /2418 10113 20061 40248 57015 22200 00130 10705 70024
BBXX WDD3826 19004 99483 70260 41/93 /2919 10120 2012/ 40190 5//// 74344 8//// 22224 00100 20304 318// 40705 5//// 6//// 80120 ICE /////
BBXX BATFR12 19004 99483 70073 46/// /3114 10104 20062 40252 58004 22200 00142
BBXX TBWUK35 19004 99482 70117 41/98 82618 10110 20056 40253 57030 70222 88/// 22284 00140 20604 80085
BBXX 62163 19004 99475 70084 46/// /3009 10104 20058 40266 56006 22200 00128 10704 70022
BBXX PDHW 19003 99467 70216 41397 82430 10140 20123 40195 57010 76066 8761/ 22263 00120 21006 80130
BBXX BATFR09 19004 99467 70031 46/// /3121 10097 20047 40232 58013 22213 00147
BBXX OXBB2 19001 99465 70073 41798 43508 10130 20074 40265 51005 70322 83465 22213 00130 20204 80100
BBXX BATFR42 19004 99463 70046 46/// /3222 10105 20057 40241 58012 222// 00142
BBXX BATFR16 19004 99462 70073 44698 33317 10112 20044 40264 50003 70200 833// 22264 00147 21004 332// 41004 5////
BBXX BATFR54 19004 99462 70020 46/// /2817 10090 20047 40236 57016 22272 00135
BBXX A8IO2 19004 99457 70164 41297 82026 10135 20116 40240 57020 70522 8/61/ 22214 20504 334// 41005 5//// 80125
BBXX 62001 19004 99452 70050 46/// /2808 10112 20059 40268 56002 22200 00143 10705 70024 333 90710 91128
BBXX BAREU08 19004 99438 70186 46/// ///// 40288 57010 22214
BBXX DDSD2 19003 99437 70185 41/98 /2013 40290 54000 702// 8//// 22214 21506 328// 41608 5////
BBXX C6JS 19003 99425 70211 41497 82314 10150 2013/ 40280 54000 70322 88/// 22254 20402 3//// 4//// 5//// 80140
BBXX PJFF 19004 99424 70164 41/97 /0510 10150 40290 57010 702// 8/7// 22254 04130 2//// 30000 80020
BBXX TBWUK03 19003 99421 70109 41498 20613 10121 20052 40311 54000 70200 81140 22243 20501 305// 40803 5//// 80086
BBXX A8IY4 19001 99413 70252 41/98 12705 10188 20172 40300 53010 70200 81/// 22254 00158 2//01 80178
BBXX DHTK 19001 99409 70124 41698 20208 10150 20053 40300 51010 70311 82100 22214 00160 20803 80100
BBXX DDYZ2 19004 99409 70098 41597 30527 10160 20127 40275 51/// 70211 83978 22213 20310 30533 40310 50310 80140
BBXX DGUG2 19004 99394 70132 41699 11012 10150 20053 40295 51014 70200 8/200 22254 04170 20402 30000 80100
BBXX GHJV 19003 99378 70101 41/98 10509 10139 20057 40267 57/// 70200 81/// 22251 02166 20402 334// 40904 80100
BBXX DBBH 19001 99370 70118 41/98 /0410 10144 20068 40273 52011 7//// 22281 04178
BBXX BATFR46 19004 99362 70048 44995 20311 10139 20059 40237 52006 72111 82122 22253 00157 20510
BBXX WKAB 19003 99362 70019 41498 40905 10140 20039 40252 52040 7//11 84/// 22224 00172 21001 3//// 41001 5//// 6//// 80090 ICE /////
BBXX WRAH 19004 99360 70053 41698 31213 10120 2//// 40207 52004 7//// 8289/ 22254 00174 20102 326// 40303 5//// 6//// 8//// ICE /////
BBXX C6WK7 19004 99358 70066 41998 00324 10120 2//// 40240 54000 702// 80000 22255 0//// 20202 303// 40504 5//// 6//// 8//// ICE /////
BBXX NWS0020 19004 99352 70119 43/// /0618 10155 20063 40242 5//// 7//// 8//// 222// 04194 2//// 3//// 4//// 5//// 6//// 8//// ICE /////
AAXX 19001 38847 416// 71802 10016 20008 40306 53010 70242 875//
BBXX 62123 19004 99563 10022 41/98 /2920 10055 20001 40133 52021 7//// 8//// 22200 20604 330// 40606 5////
BBXX AMOUK08 19004 99501 70061 46/// ///// 10097 20048 30220 40225 57005 92350
BBXX 63106 19004 99610 10017 46/// /3121 10035 40055 51003 22200
BBXX 63105 19004 99610 10017 47598 ///// 10047 21017 40054 51003 700// 22200
BBXX 62103 19004 99499 70029 46/// /3520 10084 20023 40206 50001 22200 00120 10703 70015 333 90710 91125
BBXX 42013 19001 99272 70829 46/// ///// 1//// 40240 90020 22200 00197
BBXX 42013 19001 99272 70829 46/// ///// 1//// 40238 53013 90000 22200 00197
BBXX BAREU61 19004 99094 70164 46/// /3409 10276 29060 40121 52005 22234
BBXX BAREU05 19004 99458 70530 46/// ///// 40105 57006 22264
BBXX BAREU54 19004 99097 70809 46/// ///// 40117 52014 22262
BBXX BAREU56 19004 99408 10143 46/// ///// 40087 22200
BBXX BAREU63 19004 99350 10292 46/// /1411 10170 29086 40206 57007 22263
BBXX TESTFR9 19004 99503 70042 46/// ///// 10079 29076 40238 22231
BBXX BAREU08 19004 99438 70186 46/// ///// 40288 57010 22214
BBXX BAREU04 19004 99548 70221 46/// ///// 40115 52005 22263
BBXX BAREU51 19004 99370 10133 46/// ///// 40135 52020 22235
BBXX UFLT 19001 99443 11361 42/98 03410 11012 40195 54001 80000 22213 00010 20302 332//
BBXX 44055 19001 99391 70753 46/// ///// 1//// 90030 22200 00080 10301 70004
BBXX V2QD4 19003 99352 31676 41598 61207 10173 20146 40156 58003 70111 83441 22223 00190 20602
BBXX SKEC 19001 99544 10119 46/// ///// 10033 49993 52034 22236 00061
AAXX 19004 71408 46/// /0124 11048 21096 30090 40171 56005 6///1 333 11043 7////
AAXX 19001 98132 31465 60706 10227 20203 40214 53024 70544 82230 333 20188 56199 59029 82817 86357
AAXX 19001 98133 11467 80408 10/// 20/// 40158 5//// 60064 70544 8527/ 222// 20703 333 20/// 56199 59028 70056 85818 88359
AAXX 19001 98222 31570 83602 10239 20208 40118 53010 70544 8457/ 333 20223 56899 59015 84622 88357
AAXX 19001 98233 11568 83602 10230 20213 40134 53023 60024 70564 8557/ 333 20185 56899 59025 70022 85620 88358 555 0//// 20010
AAXX 19001 98324 31465 50000 10264 20232 40098 51016 70544 81108 333 20238 40098 51016 70544 81108 33302 20232 56999 59014 81816 85280
AAXX 19001 98327 31668 73503 10256 20200 39947 40123 52022 70544 81178 333 20219 56999 59003 81842 83360 87280
AAXX 19001 98334 NIL
AAXX 19001 98425 11560 60402 10256 20220 40108 52013 60034 70542 83608 333 20238 56999 59007 70030 83620 86280
AAXX 19001 98426 31570 50804 10272 20203 40109 52011 70544 81170 333 20234 56999 59013 81820 85358
AAXX 19001 98427 11475 20102 10260 20238 39924 40102 53013 60144 70181 81202 333 20236 56199 59008 70137 81818 555 29995
AAXX 19001 98428 11460 50401 10267 20232 40104 53009 60044 82464 333 20243 56999 59009 70042 82618
AAXX 19001 98432 11568 40401 10269 20246 40107 52006 69954 70544 82232 333 20242 56999 59007 70005 82820
AAXX 19001 98433 31462 60906 10219 20206 39391 40114 53010 60024 71544 84931 333 20200 56999 58001 70026 84912
AAXX 19001 98434 11465 63602 10256 20251 30113 40121 53025 60114 71566 83871 333 20238 56199 59012 70107 83817 85358 555 20041
AAXX 19001 98435 11475 60000 10268 20240 40116 5//// 60064 70262 82201 333 20210 56999 59006 70058 82818 85074 555 20046
AAXX 19001 98442 NIL
AAXX 19001 98446 21475 60902 10270 20254 30072 40118 53016 60084 84202 333 20240 56299 59003 70076 84818 85070
AAXX 19001 98447 11475 60000 10250 20245 39850 40115 5//// 60154 71582 84208 222// 2//// 333 20/// 56999 59012 70152 84818 86270 555 20004
AAXX 19001 98538 31466 40902 10270 20247 30104 40109 53025 70542 82231 333 20262 56119 58006 81811
AAXX 19001 98546 NIL
AAXX 19001 98548 12480 31802 10260 20252 30092 40092 53018 60054 70381 83200 333 20235 56199 59004 70054 83810 555 29999
AAXX 19001 98553 11468 50402 10280 20254 30104 40108 53024 60294 70544 82201 333 20238 56999 59002 70287 82818 83075
AAXX 19001 98558 11466 70603 10262 20257 40105 53024 60074 72582 83978 222// 20500 33312 20245 56299 58006 70066 82915 85357
AAXX 19001 98642 32465 63602 10287 20248 30088 40097 52023 83270 333 20268 56199 58008 83815 84358
AAXX 19001 98644 11165 40501 10281 20253 30089 40098 53011 60184 70522 81231 333 20240 56999 58001 70176 81817 83075
AAXX 19001 98648 31470 20000 10280 20210 30020 40102 52020 70544 82201 333 20210 56299 58010 82817
AAXX 19001 98746 31462 50802 10278 20235 40097 52027 70594 82206 333 20238 56999 59007 82818 85075
AAXX 19001 98751 11458 80000 10225 20218 39439 40113 53029 70064 76164 333 20170 56999 58012 70062 84915 88456 555 20020
AAXX 19001 98752 12468 11602 10277 20257 40112 52020 60134 81200 333 20254 56999 58010 70130 81818
AAXX 19001 98851 11470 63201 10262 20249 39945 40094 53022 69924 72582 81278 333 20220 56999 58006 70002 81818 83358 85275 555 20002
AAXX 19001 23472 11497 81201 11173 21199 30165 40216 53012 60032 78582 889// 333 21176 47051 55000
BBXX MINUK04 1900/ 99532 10035 46/// ///// 10060 4//// 52062
BBXX 42369 19001 99272 70903 46/// /1006 1//// 92340 22200 10503 70013
BBXX 42370 19001 99273 70905 46/// ///// 10232 92340 22200 10603 70015
BBXX 42376 19001 99291 70879 46/// /0306 10152 40263 92340 22200 10302 70008
BBXX 42887 19001 99282 70885 46/// /0705 1//// 92340 22200 10502 70011
AAXX 1900/ 89866 46/// ///// 11049 39776 4//// 5//// 90030
AAXX 1900/ 89329 46/// ///// 11129 38790 4//// 5//// 90030
AAXX 1900/ 89799 46/// ///// 11258 4//// 5//// 90030
AAXX 1900/ 89828 46/// ///// 11260 36550 4//// 5//// 90040
AAXX 1900/ 89108 46/// ///// 11221 36928 4//// 5//// 90030
BBXX UFLT 19001 99443 11361 42/98 03410 11012 40195 54001 80000 22213 00010 20302 332//
BBXX 42370 19001 99273 70905 46/// ///// 10232 92340 22200 10603 70015
BBXX 42887 19001 99282 70885 46/// /0705 1//// 92340 22200 10502 70011
BBXX 42369 19001 99272 70903 46/// /1006 1//// 92340 22200 10503 70013
BBXX 42376 19001 99291 70879 46/// /0306 10152 40263 92340 22200 10302 70008
BBXX 42013 19001 99272 70829 46/// ///// 1//// 40238 53013 90000 22200 00197
BBXX 42013 19001 99272 70829 46/// ///// 1//// 40240 90020 22200 00197
BBXX BAREU61 19004 99094 70164 46/// /3409 10276 29060 40121 52005 22234
BBXX MINUK04 1900/ 99532 10035 46/// ///// 10060 4//// 52062
BBXX BAREU04 19004 99548 70221 46/// ///// 40115 52005 22263
BBXX BAREU51 19004 99370 10133 46/// ///// 40135 52020 22235
BBXX BAREU56 19004 99408 10143 46/// ///// 40087 22200
BBXX TESTFR9 19004 99503 70042 46/// ///// 10079 29076 40238 22231
BBXX BAREU63 19004 99350 10292 46/// /1411 10170 29086 40206 57007 22263
BBXX BAREU08 19004 99438 70186 46/// ///// 40288 57010 22214
BBXX A8CI9 19004 99128 10483 41997 60514 10255 20197 40160 57010 7//22 86030 22224 04269 2//// 80215
BBXX A8PB2 19004 99067 10798 41/97 60108 10240 20233 40030 54000 70222 83/78 22200 04290 29901 80235
BBXX VRDN3 19004 99061 10902 41398 20920 10250 20240 40110 54000 70200 824// 22264 00/// 20904 309// 40903 80240
BBXX AUYK 19004 99139 11134 44197 70325 10250 20236 41015 54000 70200 87000 22212 00268 29908
BBXX TBWUK37 19004 99226 11224 41/98 /0330 10225 20186 40192 51010 70222 8//// 22213 04260 20402 303// 40806 80200
BBXX MINFR03 1900/ 99020 30660 46/// ///// 10275 40093 57003
BBXX 62123 19004 99563 10022 47599 /2918 10055 20002 40106 50003 700// 22200
BBXX 63106 19004 99610 10017 46/// /3121 10035 40055 51003 22200
BBXX 63113 19004 99610 10017 46/// /3319 10037 21012 40058 57001 22200 10808 70040
BBXX 62107 19004 99501 70061 46/// /3114 10094 20036 40225 58005 22200 00114 10703 70014 333 90710 91125
BBXX 62103 19004 99499 70029 46/// /3417 10085 20026 40202 57007 22200 00120 10703 70014
BBXX ONFP 19004 99272 30554 41596 80930 10220 2021/ 40110 54000 75055 88777 22212 04241 20506 309// 4//// 5//// 6//// 80210
AAXX 19004 16310 11697 83006 10084 20044 39861 40084 58009 60041 71792 8292/ 333 82940 87557 555 0////
BBXX MINUK01 1900/ 99589 70014 46/// ///// 10050 40108 57001
BBXX AMOUK04 19004 99533 70062 46/// ///// 10079 20042 30158 4//// 57011 92350
BBXX A8QM9 19004 99363 70190 41898 82722 10170 20137 40270 54000 70300 89792 22263 20505 331// 40505 80150
BBXX WDE8293 19004 99362 70025 41698 20509 10140 20063 40232 52012 70200 821// 22265 00180 20202 305// 40101 5//// 6//// 80100
BBXX ZCAS2 19003 99187 11315 41698 70712 10279 20236 40139 52011 72581 85362 22283 00283 20102 302// 40204 80249
BBXX VNVG 19003 99049 31256 41498 43514 10310 20257 40073 53/// 70300 84265 22284 00300 20101 399// 4//01 80270
BBXX VNVG 19003 99049 31256 41498 43514 10310 20257 40073 53/// 70300 84265 22284 00300 20101 399// 4//01 80270
BBXX C6TH9 19003 99165 51515 41297 21115 10270 2023/ 40150 54/// 7//11 82/8/ 22200 00270 2//// 3//// 4//// 5//// 6//// 80240 ICE /////
BBXX TBWUK37 19004 99226 11224 41/98 /0330 10225 20186 40192 51010 70222 8//// 22213 04260 20402 303// 40806 80200
BBXX VRDN3 19004 99061 10902 41398 20920 10250 20240 40110 54000 70200 824// 22264 00/// 20904 309// 40903 80240
BBXX AUYK 19004 99139 11134 44197 70325 10250 20236 41015 54000 70200 87000 22212 00268 29908
BBXX A8PB2 19004 99067 10798 41/97 60108 10240 20233 40030 54000 70222 83/78 22200 04290 29901 80235
BBXX UCEE 19000 99480 11410 41598 73212 11007 40155 53000 70321 8926/ 22272 20403
BBXX MINFR03 1900/ 99020 30660 46/// ///// 10275 40093 57003
BBXX A8CI9 19004 99128 10483 41997 60514 10255 20197 40160 57010 7//22 86030 22224 04269 2//// 80215
AAXX 19001 98334 11440 83504 10218 20216 39932 40139 52024 60734 86362 8552/ 333 20187 56999 59012 70730 85616 88458 555 20204
AAXX 19001 98546 11575 20000 10267 20262 30092 40100 52010 60204 70182 81201 333 20226 56999 59012 70196 81820 555 20006
BBXX MINFR03 1900/ 99020 30660 46/// ///// 10275 40093 57003
AAXX 19004 91375 46/// /0409 10284 40083 22200 00283
BBXX 42369 19001 99272 70903 46/// /1006 1//// 90000 22200 10502 70012
BBXX 42370 19001 99273 70905 46/// ///// 10232 90000 22200 10603 70015
BBXX 42376 19001 99291 70879 46/// /0306 10153 40264 90000 22200 10302 70008
BBXX 42887 19001 99282 70885 46/// /1006 1//// 90000 22200 10502 70012
AAXX 19004 91165 32566 40517 10250 20183 30138 40171 58026 92353
AAXX 19004 91203 11474 21006 10289 20252 30119 40124 51017 60014 70182 82171
AAXX 19004 91212 32566 20815 10294 20217 31390 40124 51013 92354
AAXX 19004 91245 32966 00717 10290 20240 30157 92359
AAXX 19004 91285 12566 63009 10217 20178 30144 40158 56023 60011 92353
AAXX 19004 91317 11474 10912 10294 20272 30117 40121 5//// 60084 70282 81100
AAXX 19004 91334 12474 70410 10299 20249 30076 40079 52002 60244 82171
AAXX 19004 91348 11470 80504 10267 20246 30041 40093 58008 60324 78082 8722/
AAXX 19004 91367 32474 31014 10311 20267 83100
AAXX 19004 91376 11474 80612 10288 20247 30083 40086 58003 60024 70282 84878
AAXX 19004 91408 11474 80905 10294 20257 30059 40097 52019 60014 70282 81271
AAXX 19004 91413 11469 40911 10299 20252 30081 40107 52024 60044 70181 81101
AAXX 19004 91155 NIL
AAXX 19004 91217 NIL
AAXX 19004 91232 NIL
AAXX 19004 91250 NIL
AAXX 19004 91275 NIL
AAXX 19004 91324 NIL
AAXX 19004 91339 NIL
AAXX 19004 91353 NIL
AAXX 19004 91356 NIL
AAXX 19004 91366 NIL
AAXX 19004 91369 NIL
AAXX 19004 91371 NIL
AAXX 19004 91378 NIL
AAXX 19004 91425 NIL
AAXX 19004 91434 NIL
AAXX 19004 91601 NIL
AAXX 19004 91610 NIL
AAXX 19004 16280 11497 72806 10102 20065 39851 40072 55000 60011 79596 87300 333 83815 83820 83930 555 0////
BBXX UCEE 19000 99480 11410 41598 73212 11007 40155 53000 70321 8926/ 22272 20403
BBXX 62123 19004 99563 10022 41/98 /2920 10055 20001 40133 52021 7//// 8//// 22200 20604 330// 40606 5////
BBXX AMOUK08 19004 99501 70061 46/// ///// 10097 20048 30220 40225 57005 92350
BBXX 63106 19004 99610 10017 46/// /3121 10035 40055 51003 22200
BBXX 63105 19004 99610 10017 47598 ///// 10047 21017 40054 51003 700// 22200
BBXX 62103 19004 99499 70029 46/// /3520 10084 20023 40206 50001 22200 00120 10703 70015 333 90710 91125
AAXX 19004 42398 31995 00000 10080 20080 40163 71040 333 59008
AAXX 19004 91165 32566 40517 10250 20183 30138 40171 58026 92353
AAXX 19004 91212 32566 20815 10294 20217 31390 40124 51013 92354
AAXX 19004 91285 12566 63009 10217 20178 30144 40158 56023 60011 92353
AAXX 19004 91317 11474 10912 10294 20272 30117 40121 5//// 60084 70282 81100
AAXX 19004 91334 12474 70410 10299 20249 30076 40079 52002 60244 82171
AAXX 19004 91348 11470 80504 10267 20246 30041 40093 58008 60324 78082 8722/
AAXX 19004 91376 11474 80612 10288 20247 30083 40086 58003 60024 70282 84878
AAXX 19004 91408 11474 80905 10294 20257 30059 40097 52019 60014 70282 81271
AAXX 19004 91413 11469 40911 10299 20252 30081 40107 52024 60044 70181 81101
AAXX 19004 91245 32966 00717 10290 20240 30157 92359
BBXX A8VL8 19004 99025 30868 41/// 82512 10270 20243 40090 54000 7//22 8//// 22213 0//// 2//// 3//// 4//// 5//// 6//// 80250 ICE /////
BBXX C6TH9 19003 99165 51515 41297 21115 10270 2023/ 40150 54/// 7//11 82/8/ 22200 00270 2//// 3//// 4//// 5//// 6//// 80240 ICE /////
BBXX VNVG 19003 99049 31256 41498 43514 10310 20257 40073 53/// 70300 84265 22284 00300 20101 399// 4//01 80270
BBXX A8VL8 19004 99025 30868 41/// 82512 10270 20243 40090 54000 7//22 8//// 22213 0//// 2//// 3//// 4//// 5//// 6//// 80250 ICE /////
BBXX 42376 19001 99291 70879 46/// /0306 10153 40264 90000 22200 10302 70008
BBXX 42370 19001 99273 70905 46/// ///// 10232 90000 22200 10603 70015
BBXX 42369 19001 99272 70903 46/// /1006 1//// 90000 22200 10502 70012
BBXX 42887 19001 99282 70885 46/// /1006 1//// 90000 22200 10502 70012
BBXX ZCAS2 19003 99187 11315 41698 70712 10279 20236 40139 52011 72581 85362 22283 00283 20102 302// 40204 80249
AAXX 19004 71390 46/// /0103 11134 6///1 333 11113 21182 7////
AAXX 19004 71425 16/// /1709 11140 21169 30200 40238 58004 60001 333 11091 21146 70000
AAXX 19004 71429 16/// /3205 11116 21152 30212 40232 58003 60001 333 11078 21136 70000
AAXX 19004 71710 16/// /0308 11056 21108 30204 40214 50002 60001 333 11041 21062 70000
BBXX A8VL8 19004 99025 30868 41/// 82512 10270 20243 40090 54000 7//22 8//// 22213 0//// 2//// 3//// 4//// 5//// 6//// 80250
AAXX 19004 41660 117// 50000 11010 21054 38434 48527 60002 70511 82530 333 56990 58034 82650 83362
AAXX 19004 41660 117// 50000 11010 21054 38434 48527 60002 70511 82530 333 56990 58034 82650 83362
AAXX 19004 71988 16/// /3521 11018 21034 30193 40213 51012 60001 333 11006 21029 70000
AAXX 19004 41515 22995 00000 10038 21110 38572 48533 60002 333 59013 60007
AAXX 19004 41515 22995 00000 10038 21110 38572 48533 60002 333 59013 60007
AAXX 19004 41678 12996 00000 10090 20057 40175 60002 333 58002
AAXX 19004 41785 02996 00000 10140 20112 30127 40140 60002 333 58005 60007
AAXX 19004 41696 02996 00000 11040 21084 38013 48545 60002 333 58003 60007
AAXX 19004 17084 12670 61503 10060 20035 39320 40225 50000 60001 83550 333 83635 86360
BBXX 62123 19004 99563 10022 47599 /2918 10055 20002 40106 50003 700// 22200
BBXX 63106 19004 99610 10017 46/// /3121 10035 40055 51003 22200
BBXX 63113 19004 99610 10017 46/// /3319 10037 21012 40058 57001 22200 10808 70040
BBXX 62107 19004 99501 70061 46/// /3114 10094 20036 40225 58005 22200 00114 10703 70014 333 90710 91125
BBXX 62103 19004 99499 70029 46/// /3417 10085 20026 40202 57007 22200 00120 10703 70014
BBXX 42369 19001 99272 70903 46/// /1006 1//// 90020 22200 10502 70012
BBXX 42370 19001 99273 70905 46/// ///// 10232 90020 22200 10603 70014
BBXX 42376 19001 99291 70879 46/// /0306 10153 40264 90020 22200 10302 70008
BBXX 42887 19001 99282 70885 46/// /0905 1//// 90020 22200 10502 70011
BBXX 42887 19001 99282 70885 46/// /0905 1//// 90020 22200 10502 70011
BBXX 42369 19001 99272 70903 46/// /1006 1//// 90020 22200 10502 70012
BBXX 42370 19001 99273 70905 46/// ///// 10232 90020 22200 10603 70014
BBXX 42376 19001 99291 70879 46/// /0306 10153 40264 90020 22200 10302 70008
AAXX 19004 89266 46/// /3605 11035 21044 39751 49889 57002 90040
AAXX 19004 89272 46/// /0114 11115 21141 38059 49696 52004 90040
AAXX 19001 38932 41/// 90000 10006 20006 40300 52009 74544
AAXX 19001 38932 41/// 51501 10002 20002 40302 51001 74544
AAXX 19004 89013 46/// /0606 11178 21207 37654 49669 52010 90030
AAXX 19004 89266 46/// /3605 11036 21044 39751 49889 57002 90030
AAXX 19004 89272 46/// /0212 11114 21142 38060 49697 52005 90030
BBXX 62123 19004 99563 10022 41/98 /2920 10055 20001 40133 52021 7//// 8//// 22200 20604 330// 40606 5////
BBXX AMOUK08 19004 99501 70061 46/// ///// 10097 20048 30220 40225 57005 92350
BBXX 63106 19004 99610 10017 46/// /3121 10035 40055 51003 22200
BBXX 63105 19004 99610 10017 47598 ///// 10047 21017 40054 51003 700// 22200
BBXX 62103 19004 99499 70029 46/// /3520 10084 20023 40206 50001 22200 00120 10703 70015 333 90710 91125
AAXX 19001 26424 41497 82106 10015 20003 39888 49941 52021 78082 8695/ 333 91010 91111
AAXX 19004 97780 01462 62504 10200 20160 4//// 60044 70544 84962 333 20153 55060 57902 82913 84814 80960
BBXX 62123 19004 99563 10022 47599 /2918 10055 20002 40106 50003 700// 22200
BBXX 63106 19004 99610 10017 46/// /3121 10035 40055 51003 22200
BBXX 63113 19004 99610 10017 46/// /3319 10037 21012 40058 57001 22200 10808 70040
BBXX 62107 19004 99501 70061 46/// /3114 10094 20036 40225 58005 22200 00114 10703 70014 333 90710 91125
BBXX 62103 19004 99499 70029 46/// /3417 10085 20026 40202 57007 22200 00120 10703 70014
BBXX MINFR05 1900/ 99415 70109 46/// ///// 10118 40304 57003
AAXX 19003 63723 32980 60000 10250 20238 40099 86030 333 58018 86359
BBXX SHIP 19004 99299 11355 41497 32914 10145 20120 40235 55010 70101 83131 90025 22243 00215 1//// 20302 304// 40202 5//// 6//// 80130 /////
BBXX MINFR05 1900/ 99415 70109 46/// ///// 10118 40304 57003
BBXX SHIP 19004 99299 11355 41497 32914 10145 20120 40235 55010 70101 83131 90025 22243 00215 1//// 20302 304// 40202 5//// 6//// 80130 /////
AAXX 19003 64870 32960 70000 10133 20060 38903 48502 80002 333 0//00 59010 87080
BBXX MINFR05 1900/ 99415 70109 46/// ///// 10118 40304 57003
AAXX 19001 02805 41375 80106 11063 21073 39922 40058 57010 78582 887//
AAXX 19004 89257 46/// /0610 11070 21086 39827 49898 5//// 90030
BBXX 62123 19004 99563 10022 41/98 /2920 10055 20001 40133 52021 7//// 8//// 22200 20604 330// 40606 5////
BBXX AMOUK08 19004 99501 70061 46/// ///// 10097 20048 30220 40225 57005 92350
BBXX 63106 19004 99610 10017 46/// /3121 10035 40055 51003 22200
BBXX 63105 19004 99610 10017 47598 ///// 10047 21017 40054 51003 700// 22200
BBXX 62103 19004 99499 70029 46/// /3520 10084 20023 40206 50001 22200 00120 10703 70015 333 90710 91125
AAXX 19004 60640 12960 02905 10090 20020 40178 50001 60001 333 0//00
AAXX 19001 34579 42998 81104 11079 21096 30297 40343 52006 8005/
AAXX 19001 22324 /1418 81203 11001 21004 39968 40018 57017 78682 889// 333 55000 91005 93702
AAXX 19001 22349 /1596 81305 11002 21015 30052 40064 57010 78582 889// 333 55000 91006
AAXX 19004 96295 31450 83504 10250 20241 39989 40092 51021 70522 85521 333 20242 50300 55020 50677 56000 59002 85612 84462
AAXX 1900/ 89879 46/// ///// 10043 39818 4//// 5//// 90030
AAXX 19001 45032 36/// /0304 10085 20080 30225 40242 54000
AAXX 19001 45035 36/// /0804 10122 20046 30199 40242 52001
AAXX 19001 45039 36/// /0203 10137 20066 30220 40236 52001
AAXX 19001 45044 36/// /0104 10138 20106 30137 40233 52002
AAXX 19001 45032 36/// /0304 10085 20080 30225 40242 54000
AAXX 19001 45035 36/// /0804 10122 20046 30199 40242 52001
AAXX 19001 45039 36/// /0203 10137 20066 30220 40236 52001
AAXX 19001 45044 36/// /0104 10138 20106 30137 40233 52002
AAXX 19001 45032 NIL
AAXX 19001 45035 NIL
AAXX 19001 45039 NIL
AAXX 19001 45044 NIL
AAXX 19001 45032 NIL
AAXX 19001 45035 NIL
AAXX 19001 45039 NIL
AAXX 19001 45044 NIL
AAXX 19001 45032 NIL
AAXX 19001 45035 NIL
AAXX 19001 45039 NIL
AAXX 19001 45044 NIL
AAXX 19001 45032 NIL
AAXX 19001 45035 NIL
AAXX 19001 45039 NIL
AAXX 19001 45044 NIL
AAXX 19001 45032 NIL
AAXX 19001 45035 NIL
AAXX 19001 45039 NIL
AAXX 19001 45044 NIL
AAXX 19001 45032 NIL
AAXX 19001 45035 NIL
AAXX 19001 45039 NIL
AAXX 19001 45044 NIL
AAXX 19004 89002 43/// /1016 11038 21050 39805 49859 5//// 7//// 8//// 90020 333 929// 96111
AAXX 19004 48431 32960 10802 10182 20146 39945 40165 52013 80001 333 20180 59009
AAXX 19004 65319 33958 53204 10225 20069 39617 40117 80002 333 0//00 58005 85076
BBXX 62123 19004 99563 10022 47599 /2918 10055 20002 40106 50003 700// 22200
BBXX 63106 19004 99610 10017 46/// /3121 10035 40055 51003 22200
BBXX 63113 19004 99610 10017 46/// /3319 10037 21012 40058 57001 22200 10808 70040
BBXX 62107 19004 99501 70061 46/// /3114 10094 20036 40225 58005 22200 00114 10703 70014 333 90710 91125
BBXX 62103 19004 99499 70029 46/// /3417 10085 20026 40202 57007 22200 00120 10703 70014
AAXX 19004 61986 11468 40000 10259 20250 40089 60071 71511 82903 333 0//23 58003 819// 82818
AAXX 19004 64810 32459 42204 10258 20245 30077 40102 83530 333 55/// 58011 83613 84363
AAXX 19000 44314 32998 03405 11184 21235 39208 40391 54000 333 21248 46003 555 31270
AAXX 19004 48001 31903 90000 10043 20040 40209 74744 333 20025 59002
AAXX 19004 48008 31556 40401 10118 20115 40165 71044 82530 333 20110 56440 59012
AAXX 19004 48020 31/08 90000 10130 20122 74544 333 20112
AAXX 19004 48025 31230 70000 10144 20144 40173 74244 85840 333 20130 56550 59010
AAXX 19004 48045 32459 30000 10093 20093 82101 333 20087 56309
AAXX 19004 48062 31405 00903 10156 20140 40142 74244 84870 333 20135 56590 58002
AAXX 19004 48001 31903 90000 10043 20040 40209 74744 333 20025 59002
AAXX 19004 48008 31556 40401 10118 20115 40165 71044 82530 333 20110 56440 59012
AAXX 19004 48020 31/08 90000 10130 20122 74544 333 20112
AAXX 19004 48025 31230 70000 10144 20144 40173 74244 85840 333 20130 56550 59010
AAXX 19004 48045 32459 30000 10093 20093 82101 333 20087 56309
AAXX 19004 48062 31405 00903 10156 20140 40142 74244 84870 333 20135 56590 58002
AAXX 19003 63671 32980 00903 10244 20212
BBXX 62123 19004 99563 10022 41/98 /2920 10055 20001 40133 52021 7//// 8//// 22200 20604 330// 40606 5////
BBXX AMOUK08 19004 99501 70061 46/// ///// 10097 20048 30220 40225 57005 92350
BBXX 63106 19004 99610 10017 46/// /3121 10035 40055 51003 22200
BBXX 63105 19004 99610 10017 47598 ///// 10047 21017 40054 51003 700// 22200
BBXX 62103 19004 99499 70029 46/// /3520 10084 20023 40206 50001 22200 00120 10703 70015 333 90710 91125
AAXX 19003 63695 32980 20000 10124 20114 82030 333 82358
BBXX 62123 19004 99563 10022 47599 /2918 10055 20002 40106 50003 700// 22200
BBXX 63106 19004 99610 10017 46/// /3121 10035 40055 51003 22200
BBXX 63113 19004 99610 10017 46/// /3319 10037 21012 40058 57001 22200 10808 70040
BBXX 62107 19004 99501 70061 46/// /3114 10094 20036 40225 58005 22200 00114 10703 70014 333 90710 91125
BBXX 62103 19004 99499 70029 46/// /3417 10085 20026 40202 57007 22200 00120 10703 70014
AAXX 19004 67009 33580 40000 10265 20236 39962 40080 56008 84900 333 0//00 81820 81920 84640 94976/7 95816/7
AAXX 19004 67012 11465 7//// 10240 20227 30075 40088 56006 60121 7179/ 879// 333 0//22 81917 85817 84633 94974/5/6/7 95814/5/6/7 67073 33580 1//// 10272 20199 30048 40074 56010 81200 333 0//00 81820
AAXX 19004 67137 11265 80000 10190 20186 38830 48439 56008 60011 7156/ 885// 333 0//12 81705 88617
AAXX 19004 67157 33580 1//// 10/// 20/// 30065 40072 58004 81800 333 0//00 81820 555 81633
AAXX 19004 67023 33580 22006 10232 20214 30060 40066 58010 81802 333 0//00 81820 555 81640 82075
AAXX 19004 67131 33980 00000 10/// 20/// 30062 40067 56003 333 0//00
AAXX 19004 41529 12995 00000 10033 20009 39811 40212 60002 333 58026
AAXX 19004 41598 11995 00000 10045 20020 39898 40184 60002 71000 333 58011
AAXX 19004 41620 32995 01805 10030 21103 38606 48506 333 58018
AAXX 19004 41624 02995 00502 10065 20042 39973 40183 60002 333 58020 60007
AAXX 19004 41640 01995 00000 10088 20057 39922 40180 60002 70400 333 58016 60007
AAXX 19004 41675 11995 00000 10060 20036 30036 40180 60002 71000 333 58019
AAXX 19004 41712 12996 00502 10035 21051 39227 48510 60002 333 58013
AAXX 19004 41715 01695 50000 10100 20057 30095 40162 60002 70420 82530 333 56990 58007 60007 82635 83360
AAXX 19004 41756 01995 62704 10165 20139 30102 40167 60002 70404 86030 333 56090 58013 60007 86358
AAXX 19004 41764 32996 03404 10130 20080 30095 40146 60002 333 58012 60007
AAXX 19004 41768 02996 00000 10090 20069 30146 40153 60002 333 59004 60007
AAXX 19004 41780 01996 00000 10140 20122 30136 40164 70400 333 59002 60007
AAXX 19004 41529 12995 00000 10033 20009 39811 40212 60002 333 58026
AAXX 19004 41598 11995 00000 10045 20020 39898 40184 60002 71000 333 58011
AAXX 19004 41620 32995 01805 10030 21103 38606 48506 333 58018
AAXX 19004 41624 02995 00502 10065 20042 39973 40183 60002 333 58020 60007
AAXX 19004 41640 01995 00000 10088 20057 39922 40180 60002 70400 333 58016 60007
AAXX 19004 41675 11995 00000 10060 20036 30036 40180 60002 71000 333 58019
AAXX 19004 41712 12996 00502 10035 21051 39227 48510 60002 333 58013
AAXX 19004 41715 01695 50000 10100 20057 30095 40162 60002 70420 82530 333 56990 58007 60007 82635 83360
AAXX 19004 41756 01995 62704 10165 20139 30102 40167 60002 70404 86030 333 56090 58013 60007 86358
AAXX 19004 41764 32996 03404 10130 20080 30095 40146 60002 333 58012 60007
AAXX 19004 41768 02996 00000 10090 20069 30146 40153 60002 333 59004 60007
AAXX 19004 41780 01996 00000 10140 20122 30136 40164 70400 333 59002 60007
AAXX 19004 41560 22996 03603 11030 21145 38248 48485 60002 333 58005 60007
AAXX 19004 41571 119// 00000 10035 20010 39586 40198 60002 71000 333 58010
AAXX 19004 41594 319// 00000 10060 20048 39966 40194 71000 333 58019
AAXX 19004 41685 32993 00000 10055 21023 38924 48495 333 58012
AAXX 19004 41710 02997 03102 10045 21128 39387 40196 60002 333 58023 60007
AAXX 19004 41718 11996 00000 10080 20053 30061 40170 60002 70400 333 58014
AAXX 19004 41739 02996 00506 10050 21030 39063 48497 60002 333 59002 60007
AAXX 19004 41744 32996 00000 10035 21051 38785 48498 333 58003
AAXX 19004 41749 21994 00000 10100 20079 30133 40166 60002 71000 333 58016 60007
AAXX 19004 41560 22996 03603 11030 21145 38248 48485 60002 333 58005 60007
AAXX 19004 41571 119// 00000 10035 20010 39586 40198 60002 71000 333 58010
AAXX 19004 41594 319// 00000 10060 20048 39966 40194 71000 333 58019
AAXX 19004 41685 32993 00000 10055 21023 38924 48495 333 58012
AAXX 19004 41710 02997 03102 10045 21128 39387 40196 60002 333 58023 60007
AAXX 19004 41718 11996 00000 10080 20053 30061 40170 60002 70400 333 58014
AAXX 19004 41739 02996 00506 10050 21030 39063 48497 60002 333 59002 60007
AAXX 19004 41744 32996 00000 10035 21051 38785 48498 333 58003
AAXX 19004 41749 21994 00000 10100 20079 30133 40166 60002 71000 333 58016 60007
BBXX 62123 19004 99563 10022 41/98 /2920 10055 20001 40133 52021 7//// 8//// 22200 20604 330// 40606 5////
BBXX AMOUK08 19004 99501 70061 46/// ///// 10097 20048 30220 40225 57005 92350
BBXX 63106 19004 99610 10017 46/// /3121 10035 40055 51003 22200
BBXX 63105 19004 99610 10017 47598 ///// 10047 21017 40054 51003 700// 22200
BBXX 62103 19004 99499 70029 46/// /3520 10084 20023 40206 50001 22200 00120 10703 70015 333 90710 91125
AAXX 19004 41506 02694 60000 11030 21063 48531 60002 83420 333 56990 59007 60007 83640 83460
AAXX 19004 41508 22996 00000 11022 21069 48552 60002 333 58012 60007
AAXX 19004 41523 12996 00000 10000 21044 48517 60002 333 59002 60007
AAXX 19004 41535 12997 00000 10020 21006 48477 60002 333 58000
AAXX 19004 41536 02996 00000 10020 21036 48523 60002 333 58038 60007
AAXX 19004 41573 12996 00502 10020 21065 48511 60002 333 58007
AAXX 19004 41600 01995 00000 10040 20028 39875 40186 60002 71000 333 58011 60007
AAXX 19004 41630 11995 00000 10055 20033 40195 60002 71000 333 58019
AAXX 19004 41697 02996 00000 10072 20047 30000 40165 60002 333 58003 60007
AAXX 19004 41700 11995 00000 10070 20047 30028 40164 60002 70400 333 58008
AAXX 19004 41725 02996 00000 10110 20068 30084 40166 60002 333 58001 60007
AAXX 19004 41746 02996 00000 10090 20063 30090 40147 60002 333 59022 60007
AAXX 19004 41759 12996 00000 10170 20135 30162 40168 60002 333 58003
BBXX MINFR09 1900/ 99340 31512 46/// ///// 40107 57014
BBXX 62123 19004 99563 10022 47599 /2918 10055 20002 40106 50003 700// 22200
BBXX 63106 19004 99610 10017 46/// /3121 10035 40055 51003 22200
BBXX 63113 19004 99610 10017 46/// /3319 10037 21012 40058 57001 22200 10808 70040
BBXX 62107 19004 99501 70061 46/// /3114 10094 20036 40225 58005 22200 00114 10703 70014 333 90710 91125
BBXX 62103 19004 99499 70029 46/// /3417 10085 20026 40202 57007 22200 00120 10703 70014
BBXX MINFR09 1900/ 99340 31512 46/// ///// 40107 57014
BBXX 52243 19001 99193 11666 46/// ///// 1//// 90000 22200 00262
BBXX 51178 19001 99142 51695 46/// ///// 1//// 90000 22200 00290
BBXX 51174 19001 99142 51697 46/// ///// 1//// 90000 22200 00287
BBXX 51171 19001 99064 71623 46/// ///// 1//// 90000 22200 00279
BBXX 51170 19001 99168 71695 46/// ///// 1//// 90000 22200 00263
BBXX 51169 19001 99004 51600 46/// ///// 1//// 90000 22200 00260
BBXX 62123 19004 99563 10022 41/98 /2920 10055 20001 40133 52021 7//// 8//// 22200 20604 330// 40606 5////
BBXX AMOUK08 19004 99501 70061 46/// ///// 10097 20048 30220 40225 57005 92350
BBXX 63106 19004 99610 10017 46/// /3121 10035 40055 51003 22200
BBXX 63105 19004 99610 10017 47598 ///// 10047 21017 40054 51003 700// 22200
BBXX 62103 19004 99499 70029 46/// /3520 10084 20023 40206 50001 22200 00120 10703 70015 333 90710 91125
BBXX 52243 19001 99193 11666 46/// ///// 1//// 90000 22200 00262
BBXX 51178 19001 99142 51695 46/// ///// 1//// 90000 22200 00290
BBXX 51169 19001 99004 51600 46/// ///// 1//// 90000 22200 00260
BBXX 51174 19001 99142 51697 46/// ///// 1//// 90000 22200 00287
BBXX 51171 19001 99064 71623 46/// ///// 1//// 90000 22200 00279
BBXX 51170 19001 99168 71695 46/// ///// 1//// 90000 22200 00263
BBXX 62123 19004 99563 10022 47599 /2918 10055 20002 40106 50003 700// 22200
BBXX 63106 19004 99610 10017 46/// /3121 10035 40055 51003 22200
BBXX 63113 19004 99610 10017 46/// /3319 10037 21012 40058 57001 22200 10808 70040
BBXX 62107 19004 99501 70061 46/// /3114 10094 20036 40225 58005 22200 00114 10703 70014 333 90710 91125
BBXX 62103 19004 99499 70029 46/// /3417 10085 20026 40202 57007 22200 00120 10703 70014
AAXX 19004 13625 11660 80000 10076 20029 39912 40145 53004 69901 75055 885// 333 88643
AAXX 19004 65528 NIL
AAXX 19004 65536 NIL
AAXX 19004 65545 NIL
AAXX 19004 65548 NIL
AAXX 19004 65555 NIL
AAXX 19004 65557 32958 0//// 10230 20210 39886 40125 333 58007
AAXX 19004 65560 32956 0//// 10236 20220 39807 40116 333 59001
AAXX 19004 65562 32958 0//// 10240 20225 3//// 4//// 333 5////
AAXX 19004 65563 31950 00000 10200 20192 39881 40121 71000 333 59001
AAXX 19004 65578 32457 62604 10267 20247 30109 40118 86500 333 59001 86616
AAXX 19004 65585 NIL
AAXX 19004 65592 32456 2//// 10238 20237 30091 40114 82500 333 58000 82613
AAXX 19004 65594 32458 70000 10258 20241 30090 40124 82502 333 58000 82613 87080
AAXX 19004 65599 32958 0//// 10263 20242 30036 40110 333 58003
AAXX 19001 78090 15/// /0000 10200 30245 40249 69901 90000 222// 00136
AAXX 19004 13601 11660 81404 10098 20036 30001 40102 58005 69921 75062 86530 333 86633
BBXX 62123 19004 99563 10022 41/98 /2920 10055 20001 40133 52021 7//// 8//// 22200 20604 330// 40606 5////
BBXX AMOUK08 19004 99501 70061 46/// ///// 10097 20048 30220 40225 57005 92350
BBXX 63106 19004 99610 10017 46/// /3121 10035 40055 51003 22200
BBXX 63105 19004 99610 10017 47598 ///// 10047 21017 40054 51003 700// 22200
BBXX 62103 19004 99499 70029 46/// /3520 10084 20023 40206 50001 22200 00120 10703 70015 333 90710 91125
AAXX 19001 11659 02570 82502 11006 21031 39504 40160 51012 6///1 885// 333 55031 6///5 88621
AAXX 19001 11916 46/// /2613 11111 21128 37880 48407 52010 6///1 333 55008 91123
AAXX 19004 65528 NIL
AAXX 19004 65536 NIL
AAXX 19004 65545 NIL
AAXX 19004 65548 NIL
AAXX 19004 65555 NIL
AAXX 19004 65557 32958 0//// 10230 20210 39886 40125 333 58007
AAXX 19004 65560 32956 0//// 10236 20220 39807 40116 333 59001
AAXX 19004 65562 32958 0//// 10240 20225 3//// 4//// 333 5////
AAXX 19004 65563 31950 00000 10200 20192 39881 40121 71000 333 59001
AAXX 19004 65578 32457 62604 10267 20247 30109 40118 86500 333 59001 86616
AAXX 19004 65585 NIL
AAXX 19004 65592 32456 2//// 10238 20237 30091 40114 82500 333 58000 82613
AAXX 19004 65594 NIL
AAXX 19004 65599 32958 0//// 10263 20242 30036 40110 333 58003
BBXX 62123 19004 99563 10022 47599 /2918 10055 20002 40106 50003 700// 22200
BBXX 63106 19004 99610 10017 46/// /3121 10035 40055 51003 22200
BBXX 63113 19004 99610 10017 46/// /3319 10037 21012 40058 57001 22200 10808 70040
BBXX 62107 19004 99501 70061 46/// /3114 10094 20036 40225 58005 22200 00114 10703 70014 333 90710 91125
BBXX 62103 19004 99499 70029 46/// /3417 10085 20026 40202 57007 22200 00120 10703 70014
AAXX 19001 11487 07770 /2602 11007 21025 39526 40165 52015 69901 70087 333 55001 60005 87/50 91112
AAXX 19001 11858 16/// /1403 11015 21023 30022 40179 52005 60001 333 55075
AAXX 19001 11918 16/// /2504 11018 21053 39323 42756 52010 60001 333 55026
BBXX 62123 19004 99563 10022 41/98 /2920 10055 20001 40133 52021 7//// 8//// 22200 20604 330// 40606 5////
BBXX AMOUK08 19004 99501 70061 46/// ///// 10097 20048 30220 40225 57005 92350
BBXX 63106 19004 99610 10017 46/// /3121 10035 40055 51003 22200
BBXX 63105 19004 99610 10017 47598 ///// 10047 21017 40054 51003 700// 22200
BBXX 62103 19004 99499 70029 46/// /3520 10084 20023 40206 50001 22200 00120 10703 70015 333 90710 91125
AAXX 19001 26629 32797 82208 10017 21017 39920 40016 52023 885// 333 88650 91012 91114 555 1/000
AAXX 19001 15335 03/// /0000 11035 21035 30214 40222 53018 6///1 333 4//// 55063 6///7 91000 91101
AAXX 19001 01062 11481 82308 10008 21033 30058 40071 52009 60002 70320 885// 333 91111
AAXX 19004 91723 NIL
AAXX 19004 91964 NIL
AAXX 19004 67009 33580 40000 10265 20236 39962 40080 56008 84900 333 0//00 81820 81920 84640
AAXX 19004 67012 11465 7//// 10240 20227 30075 40088 56006 60121 7179/ 879// 333 0//22 81917 85817 84633
AAXX 19004 67073 33580 1//// 10272 20199 30048 40074 56010 81200 333 0//00 81820
AAXX 19004 67137 11265 80000 10190 20186 38830 48439 56008 60011 7156/ 885// 333 0//12 81705 88617
AAXX 19004 67157 33580 1//// 10/// 20/// 30065 40072 58004 81800 333 0//00 81820 555 81633
BBXX 62123 19004 99563 10022 47599 /2918 10055 20002 40106 50003 700// 22200
BBXX 63106 19004 99610 10017 46/// /3121 10035 40055 51003 22200
BBXX 63113 19004 99610 10017 46/// /3319 10037 21012 40058 57001 22200 10808 70040
BBXX 62107 19004 99501 70061 46/// /3114 10094 20036 40225 58005 22200 00114 10703 70014 333 90710 91125
BBXX 62103 19004 99499 70029 46/// /3417 10085 20026 40202 57007 22200 00120 10703 70014
AAXX 19004 17124 11660 60909 10062 20054 39283 40201 53002 69941 70284 83250 333 83835 85360
AAXX 19001 01062 11481 82308 10008 21033 30058 40071 52009 60001 70320 885// 333 91111
BBXX SHIP 19004 99110 31402 41/97 63211 10304 20228 40059 70252 222// 0//// 20300 335// 40301 5////
BBXX VNVD 19003 99387 31418 41/97 72919 10165 20148 40082 52/// 70311 8//// 22233 20601 80155
BBXX VNVD 19003 99387 31418 41/97 72919 10165 20148 40082 52/// 70311 8//// 22233 20601 80155
BBXX SHIP 19004 99110 31402 41/97 63211 10304 20228 40059 70252 222// 0//// 20300 335// 40301 5////
BBXX VNVD 19003 99387 31418 41/97 72919 10165 20148 40082 52/// 70311 8//// 22233 20601 80155
BBXX VNVD 19003 99387 31418 41/97 72919 10165 20148 40082 52/// 70311 8//// 22233 20601 80155
AAXX 19001 11918 16/// /2504 11018 21053 39323 42756 52010 69901 333 55026
BBXX DGOQ 19004 99545 10100 41997 02616 10023 40040 52015 7//11 22200 04060 323// 4//02
AAXX 19001 10763 12465 82603 10001 21016 39781 40175 51013 60001 875// 333 31/// 55/// 20159 30153 55300 20000 30000 84714 87641
AAXX 19003 91551 31598 60000 10295 20260 40066 54000 70222 83932 333 56999 82820 81925 83363 86080
AAXX 19003 91553 31598 79902 10290 20248 40066 57005 70222 8497/ 333 5689/ 83820 81925 87460
AAXX 19003 91554 11598 80000 10280 20255 40062 56006 60061 71322 8391/ 333 5699/ 60061 83820 81925 88461
AAXX 19003 91555 31598 60000 10277 20262 40066 54000 70222 85903 333 569/9 83820 82925 86078
AAXX 19003 91557 11398 71007 10264 20251 40047 51004 60131 78022 8597/ 333 5619/ 60131 81705 85818 81923 87460
AAXX 19003 91565 11498 80000 10250 20223 40072 53005 60021 72588 8397/ 333 5629/ 60021 83818 81920 88460
AAXX 19003 91568 31598 81208 10250 20208 40091 53006 71582 888// 333 563// 85820 88640
AAXX 19003 91551 31598 60000 10295 20260 40066 54000 70222 83932 333 56999 82820 81925 83363 86080
AAXX 19003 91553 31598 79902 10290 20248 40066 57005 70222 8497/ 333 5689/ 83820 81925 87460
AAXX 19003 91554 11598 80000 10280 20255 40062 56006 60061 71322 8391/ 333 5699/ 60061 83820 81925 88461
AAXX 19003 91555 31598 60000 10277 20262 40066 54000 70222 85903 333 569/9 83820 82925 86078
AAXX 19003 91557 11398 71007 10264 20251 40047 51004 60131 78022 8597/ 333 5619/ 60131 81705 85818 81923 87460
AAXX 19003 91565 11498 80000 10250 20223 40072 53005 60021 72588 8397/ 333 5629/ 60021 83818 81920 88460
AAXX 19003 91568 31598 81208 10250 20208 40091 53006 71582 888// 333 563// 85820 88640
AAXX 19004 96739 32562 62604 10242 20231 30043 40092 52020 83532 333 20236 50430 55000 56000 59009 83620
AAXX 19001 11938 16/// /2305 11042 21050 39085 42762 52012 60001 333 55025
AAXX 19004 RRA 91490 11599 21315 10296 2024/ 40094 60001 70121 82100 333 20248 563//
AAXX 19004 RRA 91490 11599 21315 10296 2024/ 40094 60001 70121 82100 333 20248 563//
BBXX 62123 19004 99563 10022 41/98 /2920 10055 20001 40133 52021 7//// 8//// 22200 20604 330// 40606 5////
BBXX AMOUK08 19004 99501 70061 46/// ///// 10097 20048 30220 40225 57005 92350
BBXX 63106 19004 99610 10017 46/// /3121 10035 40055 51003 22200
BBXX 63105 19004 99610 10017 47598 ///// 10047 21017 40054 51003 700// 22200
BBXX 62103 19004 99499 70029 46/// /3520 10084 20023 40206 50001 22200 00120 10703 70015 333 90710 91125
BBXX VNVD 19003 99387 31418 41/97 72919 10165 20148 40082 52/// 70311 8//// 22233 20601 80155
BBXX SHIP 19004 99110 31402 41/97 63211 10304 20228 40059 70252 222// 0//// 20300 335// 40301 5////
BBXX DGOQ 19004 99545 10100 41997 02616 10023 40040 52015 7//11 22200 04060 323// 4//02
BBXX BXHG 19004 99505 70076 41697 62715 11130 40218 70311 22252 20301
BBXX SDVY 19004 99518 70114 41398 62525 10110 40180 72528 22242 20105
BBXX SDVY 19004 99518 70114 41398 62525 10110 40180 72528 22242 20105
BBXX BXHG 19004 99505 70076 41697 62715 11130 40218 70311 22252 20301
BBXX SDVY 19004 99518 70114 41398 62525 10110 40180 72528 22242 20105
BBXX BXHG 19004 99505 70076 41697 62715 11130 40218 70311 22252 20301
BBXX 62123 19004 99563 10022 47599 /2918 10055 20002 40106 50003 700// 22200
BBXX 63106 19004 99610 10017 46/// /3121 10035 40055 51003 22200
BBXX 63113 19004 99610 10017 46/// /3319 10037 21012 40058 57001 22200 10808 70040
BBXX 62107 19004 99501 70061 46/// /3114 10094 20036 40225 58005 22200 00114 10703 70014 333 90710 91125
BBXX 62103 19004 99499 70029 46/// /3417 10085 20026 40202 57007 22200 00120 10703 70014
BBXX A8CI9 19004 99128 10483 41997 60514 10255 20197 40160 57010 7//22 86030 22224 04269 2//// 3//// 4//// 5//// 80215
BBXX A8CI9 19004 99128 10483 41997 60514 10255 20197 40160 57010 7//22 86030 22224 04269 2//// 3//// 4//// 5//// 80215
AAXX 19004 48427 31956 40206 10203 20158 30136 40144 52013 71000 80002 333 20200 59019
BBXX A8CI9 19004 99128 10483 41997 60514 10255 20197 40160 57010 7//22 86030 22224 04269 2//// 3//// 4//// 5//// 80215
AAXX 19004 65545 32956 0//// 10225 20194 39697 40122 333 59001
AAXX 19004 65585 32958 0//// 10250 20231 3//// 4//// 333 5////
AAXX 19004 67072 33580 7//14 10288 20236 30055 40058 56001 83606 333 0//00 81820 83640 87275 924/8
BBXX 62123 19004 99563 10022 41/98 /2920 10055 20001 40133 52021 7//// 8//// 22200 20604 330// 40606 5////
BBXX AMOUK08 19004 99501 70061 46/// ///// 10097 20048 30220 40225 57005 92350
BBXX 63106 19004 99610 10017 46/// /3121 10035 40055 51003 22200
BBXX 63105 19004 99610 10017 47598 ///// 10047 21017 40054 51003 700// 22200
BBXX 62103 19004 99499 70029 46/// /3520 10084 20023 40206 50001 22200 00120 10703 70015 333 90710 91125
BBXX PCDE 19003 99399 31306 41597 82908 10164 20138 40091 70288 885// 22223 20201 399// 40602 80148
BBXX SHIP 19004 99109 31428 41/97 23106 10283 20256 40049 70100 222// 0//// 20700 3//// 4//// 5////
BBXX PCDE 19003 99399 31306 41597 82908 10164 20138 40091 70288 885// 22223 20201 399// 40602 80148
BBXX SHIP 19004 99109 31428 41/97 23106 10283 20256 40049 70100 222// 0//// 20700 3//// 4//// 5////
BBXX VRDO9 19004 99063 10033 41396 41808 10240 20196 40120 5//// 70110 83626 22200 04200 20102 318// 40102 5//// 6//// 80210 ICE /////
BBXX S6SR 19004 99226 50096 41997 11009 10200 20185 40200 54000 7//00 811// 22213 0//// 2//// 3//// 4//// 5//// 6//// 80190 ICE /////
BBXX SHIP 19004 99109 31428 41/97 23106 10283 20256 40049 70100 222// 0//// 20700 3//// 4//// 5////
BBXX VRDO9 19004 99063 10033 41396 41808 10240 20196 40120 5//// 70110 83626 22200 04200 20102 318// 40102 5//// 6//// 80210 ICE /////
AAXX 19001 10946 07421 82901 11021 21023 39335 40193 51009 60031 77270 333 4/008 55/// 20321 30307 55300 20000 30000 60037 81/11 87/44 88/50
BBXX 42043 19001 99290 70949 46/// /1207 1//// 40234 90030 22200 00167 333 91209
BBXX S6SR 19004 99226 50096 41997 11009 10200 20185 40200 54000 7//00 811// 22213 0//// 2//// 3//// 4//// 5//// 6//// 80190 ICE /////
BBXX 42043 19001 99290 70949 46/// /1207 1//// 40234 90030 22200 00167 333 91209
AAXX 19004 65319 33958 53204 10225 20069 39617 40117 80002 333 0//00 58005 85076
AAXX 19004 DUPE
AAXX 19004 65338 33956 52802 10255 20234 39920 40105 80002 333 0//00 58006 85076
AAXX 19004 DUPE
BBXX VRXL7 19003 99439 70105 41297 73209 10110 2005/ 40300 50000 70111 87271 22253 00130 20105 32524 40104 50104 6//// 80080 ICE 0/0//
BBXX UBAU 19001 99156 70170 41/98 90606 10255 40163 54000 70011 22211 04225 20301
BBXX VRXL7 19003 99439 70105 41297 73209 10110 2005/ 40300 50000 70111 87271 22253 00130 20105 32524 40104 50104 6//// 80080 ICE 0/0//
AAXX 19004 60630 12960 60510 10138 20044 40200 51009 60001 82032 333 82362 85075
BBXX VRXL7 19003 99439 70105 41297 73209 10110 2005/ 40300 50000 70111 87271 22253 00130 20105 32524 40104 50104 6//// 80080 /////
AAXX 19001 32099 32998 73205 11070 21091 30101 40112 52006 87030 333 21088 48010 91008 91116
AAXX 19001 37472 42/// /1306 10069 20054 30275 40253 52008
AAXX 19004 44404 42905 02302 10030 20022 38104 48496 333 59002
AAXX 19004 44406 41/01 90000 10056 20056 39534 40178 740// 89/// 333 59010
AAXX 19004 44409 41/20 90000 10080 20078 39940 40147 74544 89/// 333 59002
AAXX 19004 44416 41915 00000 10044 20038 39407 40186 710// 333 58018
AAXX 19004 44418 41/01 90000 10096 20096 39988 40184 745// 89/// 333 59010
AAXX 19004 44424 42965 00902 11062 21079 37688 47141 333 59012
AAXX 19004 44429 NIL
AAXX 19004 44434 42550 10000 10070 20064 39251 48544 81100 333 59008
AAXX 19004 44438 41/00 90000 10082 20082 30049 40179 745// 89/// 333 59012
AAXX 19004 44449 41/00 90000 10100 20100 30016 40175 747// 333 59010
AAXX 19004 44454 41430 10000 10040 20022 38680 48512 71000 81100 333 59003
AAXX 19004 44462 42960 00000 10060 2//// 38261 48483 333 59004
AAXX 19004 44474 42660 10000 10054 20046 3//// 4//// 81100 333 5//// 44477 NIL
AAXX 19004 44478 41005 90000 10093 20093 30088 40170 743// 89/// 333 59012
AAXX 19001 01416 16/// ///// 10022 2//// 60011
AAXX 19004 03823 17579 /3006 10045 20038 39965 40213 58003 60011 782// 92350 333 55/// 20295 81/21 86/28
AAXX 19004 71934 11974 01503 11165 21178 39901 40167 50003 69901 72271 333 11126 21200 70004 90983
AAXX 19004 71934 11974 01503 11165 21178 39901 40167 50003 69901 72271 333 11126 21200 70004 90983
AAXX 19001 26518 /1206 82306 11001 21001 39769 49974 52023 77376 8872/ 333 88504 91009 91111 555 1/000 4/007 60051
AAXX 19001 10532 15969 02305 11007 21017 39902 40158 50007 60001 333 55/// 20225 30201 55300 20000 30000
AAXX 19004 71288 16/// /3008 11346 21381 30064 40090 58007 60001 333 11318 21348 70000
AAXX 19004 71288 16/// /3008 11346 21381 30064 40090 58007 60001 333 11318 21348 70000
BBXX A8JX8 19001 99445 11653 41298 42713 10040 20029 40010 56005 70211 83145 22224 2//// 3//// 4//// 5//// 80035
BBXX A8JX8 19001 99445 11653 41298 42713 10040 20029 40010 56005 70211 83145 22224 2//// 3//// 4//// 5//// 80035
BBXX WDF7020 19004 99455 70832 41/98 83220 1//// 2//// 40193 53/// 70272 8//// 222// 0//// 20703 3//// 4//// 5//// 6//// 8//// ICE /////
AAXX 19004 84072 11256 70902 10121 20115 37287 60051 75054 87700 333 10172 59011 555 10047 30096
AAXX 19004 84036 12564 80402 10116 20094 60061 8545/ 333 10168 555 10060 30086
AAXX 19004 84008 32565 21408 10232 20206 30095 40105 82800 00195 333 10281 59013 555 30085
AAXX 19004 84202 32570 82308 10304 20208 30113 8545/ 333 10339 59020 555 30057
AAXX 19004 84135 32975 70406 10249 20203 30047 87050 333 10335 59005 555 30076
AAXX 19004 84088 11110 80000 10097 20094 37057 60041 75056 887// 333 10154 59005 555 10040 30098
AAXX 19004 84105 31658 70000 10268 20224 39999 70544 84410 333 10311 58000 555 30077
AAXX 19004 84132 32565 70000 10255 20240 39867 83170 333 10306 58002 555 30091
AAXX 19004 84226 11/00 90000 10090 20090 69981 74745 89/// 333 10158 555 10008 30100
AAXX 19004 84140 32520 70404 10290 20211 39996 40081 85840 333 10338 59014 555 30062
AAXX 19004 84143 12558 70000 10149 20123 37385 69931 87800 333 10203 59012 555 10003 30085
AAXX 19004 84056 11250 82302 10114 20101 69921 72054 888// 333 10180 555 10002 30091
AAXX 19004 84270 11456 80000 10142 20136 60141 75165 8672/ 333 10212 555 10140 30096
AAXX 19004 84179 31550 70000 10217 20202 39042 74044 87400 333 10257 58001 555 30091
AAXX 19004 84204 31665 82312 10299 20196 70544 8481/ 333 10348 555 30054
AAXX 19004 84050 32565 83604 10259 20216 886// 333 10303 555 30077
AAXX 19004 84076 11460 83202 10129 20125 60031 72164 886// 333 10184 555 10025 30097
AAXX 19004 84160 31565 60000 10126 20098 37254 74144 84430 333 10189 59002 555 30083
AAXX 19004 84045 11/00 90000 10092 20087 60051 76066 89/// 333 10136 555 10054 30097
AAXX 19004 84001 31565 31414 10237 20194 30080 40100 70544 83400 333 10282 59013
AAXX 19004 84010 32570 31410 10230 20208 81430 333 10286
AAXX 19004 84117 31960 62807 10248 20207 30079 40102 70544 86030 333 10281 59010
AAXX 19004 84123 11265 73402 10150 20118 37286 47122 69931 70362 85430 333 10182 5//// 555 10003
AAXX 19004 84239 11460 82005 10140 20140 37529 47130 60111 71566 882// 333 10221 59008 555 10108
AAXX 19004 71245 46/// /0000 11105 21116 6///1 333 11039 7////
AAXX 19001 10020 07575 33108 10051 20034 30019 40051 51014 69941 70065 333 55/// 20146 30105 55300 20000 30000 69917 81/23 83/33 91114
BBXX A8CI9 19004 99128 10483 41997 60514 10255 20197 40160 57010 7//22 86030 22224 04269 2//// 80215
BBXX A8PB2 19004 99067 10798 41/97 60108 10240 20233 40030 54000 70222 83/78 22200 04290 29901 80235
BBXX VRDN3 19004 99061 10902 41398 20920 10250 20240 40110 54000 70200 824// 22264 00/// 20904 309// 40903 80240
BBXX AUYK 19004 99139 11134 44197 70325 10250 20236 41015 54000 70200 87000 22212 00268 29908
BBXX TBWUK37 19004 99226 11224 41/98 /0330 10225 20186 40192 51010 70222 8//// 22213 04260 20402 303// 40806 80200
AAXX 19001 10946 07421 82901 11021 21023 39335 40193 51009 60031 77270 333 4/006 55/// 20321 30307 55300 20000 30000 60037 81/11 87/44 88/50
AAXX 19004 71448 17/// /3310 11022 21043 39731 40062 53038 69971 7//4/ 333 7////
AAXX 19004 71372 16/// /1305 11094 21128 60001 333 11067 21129 70000
AAXX 19004 71372 16/// /1305 11094 21128 60001 333 11067 21129 70000
AAXX 19001 10131 07282 72306 10020 20009 30063 40078 53011 69921 72387 333 55/// 20090 30078 55300 20000 30000 69917 85/06 87/23 87/32
AAXX 19001 10946 07421 82901 11021 21023 39335 40193 51009 60031 77270 333 4/008 55/// 20321 30307 55300 20000 30000 60037 81/11 87/44 88/50
AAXX 19004 91772 31498 40704 10310 20264 4//// 60001 70221 82102 333 20260 561/9 79999 82710 84081
AAXX 19004 91776 11498 41007 1//// 2//// 4//// 60011 70181 842// 333 2//// 562// 70014 84818
AAXX 19004 91779 31498 60511 10296 20245 40111 58010 60001 70222 82201 333 20246 561/9 70000 82817 86080
AAXX 19004 91784 31598 70414 10299 20251 40106 58006 60001 70312 81107 333 20266 561/9 70000 81820 87278
AAXX 19004 91792 31498 73612 10286 20239 40109 58011 60001 70222 84702 333 20246 568/9 70002 84816 87277
