AAXX 31064 40270 31940 21905 10082 20047 39270 40175 52004 70400 80001 333 20074 31003 82070
BBXX ZMFR 31054 99413 31748 43/// /1821 10129 20115 40122 57005 22200 00145
BBXX 44172 31061 99445 70634 46/// ///// 1//// 90531 22200 00053 11003 21003 319// 41101 70015
BBXX 46218 31061 99345 71208 46/// ///// 1//// 90532 22200 00134 11705 21004 328// 41704 70027
AAXX 31064 40272 31957 30000 10050 20026 39340 40187 52004 71000 80001 333 20030 30002 83070
AAXX 31064 40255 32560 30000 10095 20064 39458 40181 52007 83100 333 20080 30003 83830
BBXX V7MO2 31064 99262 70914 41797 31510 10221 20187 40194 57004 70200 82/// 22200 00230 20201 3//// 40601 5//// 6//// 80198 ICE /////
BBXX WHKM 31064 99094 30826 41198 22709 10330 20278 40070 54000 7//00 824/1 22233 0//// 20302 327// 40604 5//// 6//// 80290 ICE /////
AAXX 31064 91334 32474 60409 10322 20243 30069 40072 55005 83101 333 562/9 70000 555 93106
AAXX 31064 91334 32474 60409 10322 20243 30069 40072 55005 83101 333 562/9 70000 555 93106
AAXX 31064 89054 11250 83014 10012 20009 49618 57012 69901 71022 886// 333 56799 88704
AAXX 31064 89056 11115 83021 10006 20000 49661 54001 69921 75652 886// 333 56799 88703 93100
AAXX 31064 89057 11460 82610 10010 20003 49650 54000 69981 70265 885// 333 56699 88612
AAXX 31064 89058 11457 83913 10005 21002 39643 49663 57003 60011 77076 8672/
AAXX 31064 89059 11460 80101 11008 21022 49661 52002 69931 70272 886// 333 78099 88713
AAXX 31064 89251 31257 83218 10007 20001 49652 57004 71022 8652/
AAXX 31064 08495 12970 02312 10117 21003 30288 40296 55009 60002 90550 333 20103 30007 70000
AAXX 31064 40340 12660 43606 10140 20063 40179 52008 69912 84200 333 20130 30011 70002 84830
AAXX 31064 40296 31958 30000 10127 20101 40188 52004 71000 80002 333 20112 30007 70004 83070
AAXX 31064 91413 32469 80813 10292 20227 30069 40095 55003 83878 333 56299 70005 555 93106
AAXX 31064 91413 32469 80813 10292 20227 30069 40095 55003 83878 333 56299 70005 555 93106
BBXX BAREU61 31064 99048 70032 46/// /2811 10268 29079 40121 52009 22224
AAXX 31064 68392 16/// /3610 10164 20140 30200 4//// 56007 60044 333 20152 91017 555 10251 20044
BBXX PCEO 31063 99283 70434 41/97 82403 10212 20179 40307 57009 758// 8//// 22253 04232 20501 330// 40601 5//// 80190
BBXX 46249 31061 99338 71197 46/// ///// 1//// 90540 22200 00148 11703 20802 326// 41702 70015
BBXX 46248 31061 99461 71247 46/// ///// 1//// 90534 22200 00096 11209 21006 328// 41206 70045
BBXX 46244 31061 99409 71244 46/// ///// 1//// 90535 22200 00103 11407 21005 328// 41405 70036
BBXX 42362 31061 99278 70907 46/// /2204 10217 20178 40200 90545
BBXX 42363 31061 99282 70892 46/// /2604 10217 20150 40203 90545 333 91204
BBXX 42364 31061 99291 70881 46/// /2603 10200 20161 40197 90545
BBXX 46211 31061 99469 71242 46/// ///// 1//// 90536 22200 00086 11209 20806 327// 41207 70046
BBXX 44098 31061 99428 70702 46/// ///// 1//// 90537 22200 00082 10502 20502 70010
BBXX 44097 31061 99410 70711 46/// ///// 1//// 90532 22200 00109 10502 20502 70009
AAXX 31064 67341 32580 20107 10248 20188 40138 52015 82500 333 20199 5///0 55/// 94350 555 10000
AAXX 31064 44404 42570 20906 10132 21036 38180 48524 81201 333 58016
AAXX 31064 44406 NIL
AAXX 31064 44409 42982 00000 10238 20148 39972 40179 333 58002
AAXX 31064 44416 42960 00000 10182 20041 39447 40226 80000 333 58018
AAXX 31064 44418 NIL
AAXX 31064 44424 NIL
AAXX 31064 44429 NIL
AAXX 31064 44434 42960 01103 10166 20094 39283 48574 333 58002
AAXX 31064 44438 41950 00000 10236 20115 30075 40204 70544 333 58003
AAXX 31064 44449 42962 00000 10256 2//// 30036 40194 333 58000
AAXX 31064 44454 42956 00903 10154 20020 38722 48552 333 58009
AAXX 31064 44462 42365 20000 10142 20066 38308 48529 82100 333 58005
AAXX 31064 44474 NIL
AAXX 31064 44477 NIL
AAXX 31064 44478 42960 03602 10258 20148 30109 40188 333 58000
BBXX 44025 31061 99402 70732 46/// /1706 10116 20086 40141 58021 90550 22200 00100 10602 20501 317// 40601 70009 333 91207 555 11065 22074 30509 41707 60549 172060 171062 170063 170060 171060 176062
BBXX 46114 31061 99364 71222 46/// ///// 1//// 90534 22200 00122 11507 21003 328// 41506 70034
BBXX 46060 31061 99606 71468 46/// /2204 11053 49987 90550 22200 00047 11002 20301 320// 41001 70008 333 91206 555 11038 22039 30510 42009 60549 214038 198052 209058 207061 201066 200060 81908 90509
BBXX 32012 31061 99197 50856 46/// ///// 1//// 90550 22200 11303 70017
BBXX 41114 31061 99276 70802 46/// ///// 1//// 90546 22200 00233 11301 21001 308// 41301 70006
BBXX 41012 31061 99300 70805 46/// /2108 10217 40190 56008 90550 22200 00223 10402 20401 309// 41101 70008 333 91209 555 11084 22089 30458 41910 60549 209079 210079 215079 209078 202080 196081
BBXX 46088 31061 99483 71232 46/// /2610 10050 40196 53053 90550 22200 00077 10503 20503 70014 333 91212 555 11109 22115
AAXX 31064 89664 32561 19906 10036 21081 39763 49804 56005 81500 333 56000 81630
AAXX 31064 89664 32561 19906 10036 21081 39763 49804 56005 81500 333 56000 81630
AAXX 31064 89009 41461 10411 11260 36829 53001 77670 333 81715
AAXX 31064 89009 41461 10411 11260 36829 53001 77670 333 81715
AAXX 31064 89664 32561 19906 10036 21081 39763 49804 56005 81500 333 56000 81630
BBXX BAREU56 31064 99426 10097 46/// ///// 40179 52011 22282
BBXX BAREU63 31064 99326 10195 46/// /3010 10150 29068 40112 52003 22252
AAXX 31064 16597 11660 43222 10114 20044 30042 40129 53020 60082 70286 82870 333 20094 30008 70098 81831 91132 91531
AAXX 31064 68906 11493 82513 10159 20144 30034 40098 56002 60124 76166 8802/ 222// 00136 333 20152 91025 555 10208 20124 60265 91009
AAXX 31064 68994 12598 32930 10085 20035 39938 49966 57007 60014 83500 222// 00062 306// 40403 333 20062 91043 555 10096 20013 69925 90996
AAXX 31064 68382 16/// /1102 10189 20148 39357 48533 53013 69924 333 20174 91003 555 10276 20002 91017
AAXX 31064 68352 16/// /2610 10179 21022 39076 48520 52007 69924 333 20173 91014 555 10295 20002 91017
BBXX DBBU 31061 99543 10120 46/// /2605 10040 20037 40506 54000 22201 00059
BBXX DBFR 31061 99535 10086 46/// /1903 10021 20021 40104 57009 22250 00060
BBXX DBKV 31061 99175 70245 46/// /0815 10209 20116 40207 57002 22211 00233
BBXX DBBT 31061 99339 30184 46/// /1408 10207 20099 40149 52008 22260 00154
BBXX DBJM 31061 99542 10079 46/// /2108 10045 20030 40096 57004 22200 00071
BBXX VRFO7 31064 99311 70382 41/98 81416 10210 20178 40350 52010 70222 8//// 22254 20504 80190
BBXX DBEA 31061 99540 10083 46/// /2309 10040 20027 40098 57005 22221 00060
AAXX 31061 78458 32466 40000 10217 20210 40194 57004 83230 333 10290 20200 31/// 56000 58006 83816
AAXX 31061 78460 32466 80000 10204 20198 40187 58008 885// 333 10300 20190 31/// 56199 58004 88614
AAXX 31061 78479 31466 31105 10251 20226 40158 57011 70166 83200 333 10290 20230 31/// 56000 59007 83818
AAXX 31061 78485 32466 20503 10209 20194 40182 57008 82200 333 10302 20200 30/// 56000 58005 82816
AAXX 31061 78486 32466 43602 10232 20218 40169 57003 84200 333 10306 20225 30/// 56000 58005 84818
BBXX BAREU08 31064 99460 70124 46/// ///// 40250 57008 22254
BBXX PCSV 31063 99305 30108 41798 62013 10190 20142 40207 53/// 70311 86070 22273 04181 20502 324// 40803 80160
AAXX 31061 13579 32670 53202 10000 21025 39253 40109 53008 84550 333 21003 31/// 84640 83360
AAXX 31064 08594 31459 30624 10202 20111 40203 70600 81502 333 20195 58013 81615 83070
AAXX 31064 08583 32562 50723 10200 20112 40200 83501 333 20200 58003 83625 83070
AAXX 31064 08589 31558 40518 10202 20140 40189 70600 84201 333 20201 58007 84620
BBXX TESTFR9 31064 99489 70038 46/// /2628 10123 29100 40200 52006 22254
AAXX 31061 78458 32466 40000 10217 20210 40194 57004 83230 333 10290 20200 31/// 56000 58006 83816
AAXX 31061 78460 32466 80000 10204 20198 40187 58008 885// 333 10300 20190 31/// 56199 58004 88614
AAXX 31061 78479 31466 31105 10251 20226 40158 57011 70166 83200 333 10290 20230 31/// 56000 59007 83818
AAXX 31061 78485 32466 20503 10209 20194 40182 57008 82200 333 10302 20200 30/// 56000 58005 82816
AAXX 31061 78486 32466 43602 10232 20218 40169 57003 84200 333 10306 20225 30/// 56000 58005 84818
BBXX BAREU05 31064 99388 70165 46/// ///// 40369 57010 22224
AAXX 31061 78458 32466 40000 10217 20210 40194 57004 83230 333 10290 20200 31/// 56000 58006 83816
AAXX 31061 78460 32466 80000 10204 20198 40187 58008 885// 333 10300 20190 31/// 56199 58004 88614
AAXX 31061 78479 31466 31105 10251 20226 40158 57011 70166 83200 333 10290 20230 31/// 56000 59007 83818
AAXX 31061 78485 32466 20503 10209 20194 40182 57008 82200 333 10302 20200 30/// 56000 58005 82816
AAXX 31061 78486 32466 43602 10232 20218 40169 57003 84200 333 10306 20225 30/// 56000 58005 84818
AAXX 31064 61901 169// /1112 10160 20133 39672 40182 53012 60002 90550 333 20157 3/015 70000 8//99 555 7/090
AAXX 31064 91772 31498 60907 10274 20235 4//// 60001 70212 8583/ 333 5629/ 82817 84640 86362
AAXX 31064 91776 NIL
AAXX 31064 91779 31498 60907 10271 20229 40092 53004 60001 70301 82101 333 562/9 82818 86079
AAXX 31064 91784 31498 50913 10282 20245 40093 53004 60001 70222 8327/ 333 5629/ 83818 85462
AAXX 31064 91792 31498 50906 10276 20231 40108 53004 60001 70222 82101 333 562/9 82820 85078
AAXX 31064 91772 31498 60907 10274 20235 4//// 60001 70212 8583/ 333 5629/ 82817 84640 86362
AAXX 31064 91776 NIL
AAXX 31064 91779 31498 60907 10271 20229 40092 53004 60001 70301 82101 333 562/9 82818 86079
AAXX 31064 91784 31498 50913 10282 20245 40093 53004 60001 70222 8327/ 333 5629/ 83818 85462
AAXX 31064 91792 31498 50906 10276 20231 40108 53004 60001 70222 82101 333 562/9 82820 85078
AAXX 3106/ 89872 46/// ///// 10005 39760 4//// 5////
AAXX 31064 91376 11474 80611 10263 20245 30080 40083 53015 69931 72582 84878 333 56119 70561 555 93106
AAXX 31064 81225 12465 60000 10246 20234 40119 60001 82832 333 56299 59001 81810 84360
AAXX 31064 81200 NIL
AAXX 31064 81202 NIL
AAXX 31064 81209 NIL
AAXX 31064 81251 NIL
AAXX 31064 91324 32474 80909 10317 20266 30061 40063 83201 333 562/9 70000 83819 88075 555 93106
AAXX 31064 91329 32474 80910 10300 20272 30112 40115 8331/ 333 56299 70000 83918 88462 555 93106
AAXX 31064 91336 32474 80710 10311 20250 30098 40101 82101 333 562/9 70000 82818 88075 555 93106
AAXX 31064 91339 11474 80810 10283 20246 30058 40064 60021 70282 8522/ 333 56299 70020 85818 88463 555 93106
AAXX 31064 91320 32474 80710 10306 20267 30095 40100 83101 333 562/9 70000 83816 85073 555 93106
BBXX WDC9175 31063 99535 71682 41/97 00115 1//// 2//// 40150 5//// 702// 8//// 222// 0//// 2//// 301// 4//05 5//// 6//// 8//// ICE /////
BBXX NWS0022 31064 99416 70714 43/// /3506 10031 21010 40166 5//// 7//// 8//// 222// 04091 2//// 3//// 4//// 5//// 6//// 8//// ICE /////
BBXX H3WD 31063 99179 71458 41/97 80618 10220 2019/ 40170 51/// 7//// 8//2/ 22263 0//// 2//// 3//// 4//// 5//// 6//// 80200 ICE /////
BBXX WDC6698 31064 99213 71579 43/// /3403 1//// 2//// 40160 5//// 7//// 8//// 222// 04238 2//// 3//// 4//// 5//// 6//// 8//// ICE /////
BBXX C6DM2 31064 99054 11003 41999 63404 10320 20238 40100 50030 7//11 8624/ 22200 0//// 2//// 3//// 4//// 5//// 6//// 80260 ICE /////
BBXX C6VV8 31063 99166 70878 412// 50629 10240 2024/ 40160 54/// 7//22 85931 22233 00240 20804 323// 40804 50804 6//// 80240 ICE /////
AAXX 31061 13586 11320 80000 11020 21028 39836 40137 53009 60012 77022 887// 333 21022 88720
AAXX 31064 81225 12465 60000 10246 20234 40119 60001 82832 333 56299 59001 81810 84360
AAXX 31064 81200 NIL
AAXX 31064 81202 NIL
AAXX 31064 81209 NIL
AAXX 31064 81251 NIL
BBXX PCSV 31063 99305 30108 41798 62013 10190 20142 40207 53/// 70311 86070 22273 04181 20502 324// 40803 80160
BBXX DBBT 31061 99339 30184 46/// /1408 10207 20099 40149 52008 22260 00154
BBXX DBKV 31061 99175 70245 46/// /0815 10209 20116 40207 57002 22211 00233
BBXX C6JE4 31063 99108 30632 41497 82929 10260 20253 40088 56001 72165 889// 22253 04280 20807 329// 40906 5//// 80255
BBXX BAREU61 31064 99048 70032 46/// /2811 10268 29079 40121 52009 22224
BBXX ONCE 31064 99163 11177 41798 10430 10260 2023/ 40150 50010 70204 81800 22213 00266 20603 303// 40907 5//// 6//// 80240 ICE /////
BBXX C6DM2 31064 99054 11003 41999 63404 10320 20238 40100 50030 7//11 8624/ 22200 0//// 2//// 3//// 4//// 5//// 6//// 80260 ICE /////
BBXX V7DI8 31063 99199 11214 41297 60423 10240 2021/ 40200 56015 78082 8696/ 22200 00280 20606 303// 40805 5//// 6//// 80220 ICE /////
BBXX ONFE 31064 99058 10842 436// 43005 10300 2020/ 40150 54000 7//// 8/616 22264 00280 2//// 3//// 4//// 5//// 6//// 80230 ICE 0/0//
BBXX SHIP 31064 99140 11329 41598 50518 10280 2024/ 40120 56010 70222 84236 22253 00290 20503 336// 40704 5//// 6//// 80250 ICE /////
AAXX 31064 91324 32474 80909 10317 20266 30061 40063 83201 333 562/9 70000 83819 88075 555 93106
AAXX 31064 91329 32474 80910 10300 20272 30112 40115 8331/ 333 56299 70000 83918 88462 555 93106
AAXX 31064 91336 32474 80710 10311 20250 30098 40101 82101 333 562/9 70000 82818 88075 555 93106
AAXX 31064 91339 11474 80810 10283 20246 30058 40064 60021 70282 8522/ 333 56299 70020 85818 88463 555 93106
AAXX 31064 91320 32474 80710 10306 20267 30095 40100 83101 333 562/9 70000 83816 85073 555 93106
BBXX VRFO7 31064 99311 70382 41/98 81416 10210 20178 40350 52010 70222 8//// 22254 20504 80190
BBXX DDAC2 31060 99469 71423 41/97 81315 10040 20040 40070 56030 76162 87790 22273 04080 2//// 328// 40408 5//// 80040
BBXX 9VVN 31064 99535 71362 41/97 12319 10030 2001/ 40160 51005 7//// 8//// 22274 00070 2//// 3//// 4//// 5//// 6//// 80020
BBXX WABS 31064 99459 71259 41498 13011 10078 2003/ 40240 52030 70200 81200 22283 0//// 2//// 3//// 4//// 5//// 6//// 80056 ICE /////
BBXX WSLH 31064 99279 71441 41598 81309 10194 2009/ 40220 5//// 70222 8864/ 22254 00172 20101 330// 40903 5//// 6//// 80139 ICE /////
BBXX C6VV8 31063 99166 70878 412// 50629 10240 2024/ 40160 54/// 7//22 85931 22233 00240 20804 323// 40804 50804 6//// 80240 ICE /////
BBXX WSRL 31063 99315 71376 41398 72307 10175 2013/ 40220 57005 702// 8//4/ 22254 0//// 2//// 3//// 4//// 5//// 6//// 80145 ICE 0/0//
BBXX A8UT7 31064 99398 70606 41498 59902 10156 20092 40220 54000 70211 814// 22263 20602 80120
BBXX 46060 31061 99606 71468 46/// /2204 11053 49987 90550 22200 00047 11002 20301 320// 41001 70008 333 91206 555 11038 22039 30510 42009 60549 214038 198052 209058 207061 201066 200060 81908 90509
BBXX 46114 31061 99364 71222 46/// ///// 1//// 90534 22200 00122 11507 21003 328// 41506 70034
BBXX 46088 31061 99483 71232 46/// /2610 10050 40196 53053 90550 22200 00077 10503 20503 70014 333 91212 555 11109 22115
BBXX 41114 31061 99276 70802 46/// ///// 1//// 90546 22200 00233 11301 21001 308// 41301 70006
BBXX 41012 31061 99300 70805 46/// /2108 10217 40190 56008 90550 22200 00223 10402 20401 309// 41101 70008 333 91209 555 11084 22089 30458 41910 60549 209079 210079 215079 209078 202080 196081
BBXX 44025 31061 99402 70732 46/// /1706 10116 20086 40141 58021 90550 22200 00100 10602 20501 317// 40601 70009 333 91207 555 11065 22074 30509 41707 60549 172060 171062 170063 170060 171060 176062
BBXX 44097 31061 99410 70711 46/// ///// 1//// 90532 22200 00109 10502 20502 70009
BBXX 44098 31061 99428 70702 46/// ///// 1//// 90537 22200 00082 10502 20502 70010
BBXX 46211 31061 99469 71242 46/// ///// 1//// 90536 22200 00086 11209 20806 327// 41207 70046
BBXX 42364 31061 99291 70881 46/// /2603 10200 20161 40197 90545
BBXX 42363 31061 99282 70892 46/// /2604 10217 20150 40203 90545 333 91204
BBXX 42362 31061 99278 70907 46/// /2204 10217 20178 40200 90545
BBXX 46248 31061 99461 71247 46/// ///// 1//// 90534 22200 00096 11209 21006 328// 41206 70045
BBXX 46244 31061 99409 71244 46/// ///// 1//// 90535 22200 00103 11407 21005 328// 41405 70036
BBXX 46249 31061 99338 71197 46/// ///// 1//// 90540 22200 00148 11703 20802 326// 41702 70015
BBXX PCEO 31063 99283 70434 41/97 82403 10212 20179 40307 57009 758// 8//// 22253 04232 20501 330// 40601 5//// 80190
BBXX A8LL8 31064 99321 70359 41/97 /1404 10195 20172 40350 55/// 70322 8/145 22254 20803 80180
BBXX KRGB 31064 99331 71330 41/98 3//// 10156 2015/ 40228 56002 7//00 83/// 22214 00167 20801 328// 41405 5//// 6//// 80150 ICE /////
BBXX A8PX5 31064 99391 71568 41597 62535 10120 20102 40020 54000 70322 8/8// 22224 04140 20908 327// 41210 5//// 80110
BBXX C6QK 31063 99301 70743 41798 20413 10210 2015/ 40210 54000 70111 82/// 22284 40201 80170
BBXX DQVK 31063 99134 70607 41498 30720 10265 20223 40155 51005 70311 83100 22274 00279 29905 3//// 4//// 5//// 80235
BBXX ONAI 31064 99249 50416 41997 00709 10210 2016/ 40110 54000 700// 80000 22214 00251 2//// 3//// 4//// 5//// 6//// 80180 ICE /////
BBXX 32012 31061 99197 50856 46/// ///// 1//// 90550 22200 11303 70017
BBXX C6TZ9 31064 99268 50475 417// 50813 10230 20185 40120 56/// 7//22 85/// 22255 00260 2//// 3//// 4//// 5//// 6//// 80200 ICE /////
BBXX H3WD 31063 99179 71458 41/97 80618 10220 2019/ 40170 51/// 7//// 8//2/ 22263 0//// 2//// 3//// 4//// 5//// 6//// 80200 ICE /////
BBXX DBEA 31061 99540 10083 46/// /2309 10040 20027 40098 57005 22221 00060
BBXX DBJM 31061 99542 10079 46/// /2108 10045 20030 40096 57004 22200 00071
BBXX DBFR 31061 99535 10086 46/// /1903 10021 20021 40104 57009 22250 00060
BBXX DBBU 31061 99543 10120 46/// /2605 10040 20037 40506 54000 22201 00059
BBXX ZQTP2 31064 99379 10086 41597 43135 10150 20096 40212 51011 70286 83590 22262 00160 2//// 3//// 4//// 5//// 80122
BBXX ZCDF8 31064 99404 31770 41290 81918 10190 20175 40067 57003 70354 886// 22253 00180 20303 302// 40404 5//// 80180
BBXX ZCBZ5 31063 99045 10989 41697 53607 10265 20230 40111 58008 75052 83344 22234 02283 20201 304// 40502 5//// 80241
BBXX A8CC9 31064 99127 31161 41697 63311 10330 20264 40090 55010 703// 85444 22243 06320 20701 318// 40702 5//// 80280
AAXX 31064 91376 11474 80611 10263 20245 30080 40083 53015 69931 72582 84878 333 56119 70561 555 93106
AAXX 31064 91324 32474 80909 10317 20266 30061 40063 83201 333 562/9 70000 83819 88075 555 93106
AAXX 31064 91329 32474 80910 10300 20272 30112 40115 8331/ 333 56299 70000 83918 88462 555 93106
AAXX 31064 91336 32474 80710 10311 20250 30098 40101 82101 333 562/9 70000 82818 88075 555 93106
AAXX 31064 91339 11474 80810 10283 20246 30058 40064 60021 70282 8522/ 333 56299 70020 85818 88463 555 93106
AAXX 31064 91320 32474 80710 10306 20267 30095 40100 83101 333 562/9 70000 83816 85073 555 93106
AAXX 31064 81405 04171 81403 10234 20227 30106 40115 60111 700// 333 3/023 55011 60027 58005 70147 555 60015
AAXX 31061 76040 32902 00201 10116 20059 30139 40153 52001 90548 333 10248 20061 30///55091 59013 98602
AAXX 31061 76342 32940 01702 10128 21013 39509 40203 52011 90550 333 10314 20100 30/// 55094 20558 58045
AAXX 31061 76390 31950 02002 10067 21100 38252 40153 54000 70544 90530 333 10235 20025 30/// 55095 21525 58024
AAXX 31061 76458 32960 00302 10158 20149 30140 40145 57001 90540 333 10264 20101 30/// 55086 59002
AAXX 31061 76525 32960 00306 10127 21099 37482 40100 52002 90540 333 10188 20098 30/// 55089 22472 58007
AAXX 31061 76548 32460 20502 10206 20203 30176 40186 50002 81130 90535 333 10276 20164 30/// 55071 56360 58019 81810
AAXX 31061 76556 32960 01502 10168 20143 39117 40118 52001 90534 333 10284 20124 30/// 55093 59002
AAXX 31061 76571 32910 30000 10138 20043 38172 40122 54010 80003 90550 333 10252 20052 30/// 55055 56005 58004
AAXX 31061 76577 32560 72303 10172 20132 38050 40101 52008 87500 90540 333 10260 20085 30/// 55062 56300 58000 87625
AAXX 31061 76593 32350 41404 10234 20226 30181 40183 52003 82560 90550 333 10310 20202 30/// 55080 21159 56330 58005 82620 82330
AAXX 31061 76654 31956 00000 10234 20213 30136 40140 50000 70544 90550 333 10288 20231 30/// 55050 20713 59014
AAXX 31061 76685 11550 80000 10126 20093 37886 40120 57004 60031 70296 887// 90550 333 10256 20080 31/// 55083 569// 58015 88727
AAXX 31061 76743 31940 00901 10235 20214 30146 40154 50003 70000 90540 333 10285 20214 30/// 55456 59002
AAXX 31061 76775 32960 01401 10156 20092 38531 40136 57005 90545 333 10296 20102 30/// 55060 59003
AAXX 31061 76805 32560 23501 10244 20228 30131 40134 52010 82200 90545 333 10310 20222 30/// 55094 21128 566// 59006 82830
AAXX 31061 76848 32450 60201 10151 20115 38396 40094 58002 86600 90550 333 10265 20137 30/// 55072 56100 58001 86715
AAXX 31061 76311 32940 00000 10134 20064 39875 40147 52017 90540 333 10332 20059 30/// 55084 58003
AAXX 31064 81405 04171 81403 10234 20227 30106 40115 60111 700// 333 3/023 55011 60027 58005 70147 555 60015
AAXX 31061 76040 32902 00201 10116 20059 30139 40153 52001 90548 333 10248 20061 30///55091 59013 98602
AAXX 31061 76342 32940 01702 10128 21013 39509 40203 52011 90550 333 10314 20100 30/// 55094 20558 58045
AAXX 31061 76390 31950 02002 10067 21100 38252 40153 54000 70544 90530 333 10235 20025 30/// 55095 21525 58024
AAXX 31061 76458 32960 00302 10158 20149 30140 40145 57001 90540 333 10264 20101 30/// 55086 59002
AAXX 31061 76525 32960 00306 10127 21099 37482 40100 52002 90540 333 10188 20098 30/// 55089 22472 58007
AAXX 31061 76548 32460 20502 10206 20203 30176 40186 50002 81130 90535 333 10276 20164 30/// 55071 56360 58019 81810
AAXX 31061 76556 32960 01502 10168 20143 39117 40118 52001 90534 333 10284 20124 30/// 55093 59002
AAXX 31061 76571 32910 30000 10138 20043 38172 40122 54010 80003 90550 333 10252 20052 30/// 55055 56005 58004
AAXX 31061 76577 32560 72303 10172 20132 38050 40101 52008 87500 90540 333 10260 20085 30/// 55062 56300 58000 87625
AAXX 31061 76593 32350 41404 10234 20226 30181 40183 52003 82560 90550 333 10310 20202 30/// 55080 21159 56330 58005 82620 82330
AAXX 31061 76654 31956 00000 10234 20213 30136 40140 50000 70544 90550 333 10288 20231 30/// 55050 20713 59014
AAXX 31061 76685 11550 80000 10126 20093 37886 40120 57004 60031 70296 887// 90550 333 10256 20080 31/// 55083 569// 58015 88727
AAXX 31061 76743 31940 00901 10235 20214 30146 40154 50003 70000 90540 333 10285 20214 30/// 55456 59002
AAXX 31061 76775 32960 01401 10156 20092 38531 40136 57005 90545 333 10296 20102 30/// 55060 59003
AAXX 31061 76805 32560 23501 10244 20228 30131 40134 52010 82200 90545 333 10310 20222 30/// 55094 21128 566// 59006 82830
AAXX 31061 76848 32450 60201 10151 20115 38396 40094 58002 86600 90550 333 10265 20137 30/// 55072 56100 58001 86715
AAXX 31061 76311 32940 00000 10134 20064 39875 40147 52017 90540 333 10332 20059 30/// 55084 58003
BBXX BAREU12 31064 99518 10031 46/// ///// 40072 52002 22262
BBXX BAREU11 31064 99536 10097 46/// ///// 40111 22261
AAXX 31061 76040 32902 00201 10116 20059 30139 40153 52001 90548 33310248 20061 30///55091 59013 98602
AAXX 31061 76342 32940 01702 10128 21013 39509 40203 52011 90550 33310314 20100 30/// 55094 20558 58045
AAXX 31061 76390 31950 02002 10067 21100 38252 40153 54000 70544 90530333 10235 20025 30/// 55095 21525 58024
AAXX 31061 76458 32960 00302 10158 20149 30140 40145 57001 90540 33310264 20101 30/// 55086 59002
AAXX 31061 76525 32960 00306 10127 21099 37482 40100 52002 90540 33310188 20098 30/// 55089 22472 58007
AAXX 31061 76548 32460 20502 10206 20203 30176 40186 50002 81130 90535333 10276 20164 30/// 55071 56360 58019 81810
AAXX 31061 76556 32960 01502 10168 20143 39117 40118 52001 90534 33310284 20124 30/// 55093 59002
AAXX 31061 76571 32910 30000 10138 20043 38172 40122 54010 80003 90550333 10252 20052 30/// 55055 56005 58004
AAXX 31061 76577 32560 72303 10172 20132 38050 40101 52008 87500 90540333 10260 20085 30/// 55062 56300 58000 87625
AAXX 31061 76593 32350 41404 10234 20226 30181 40183 52003 82560 90550333 10310 20202 30/// 55080 21159 56330 58005 82620 82330
AAXX 31061 76654 31956 00000 10234 20213 30136 40140 50000 70544 90550333 10288 20231 30/// 55050 20713 59014
AAXX 31061 76685 11550 80000 10126 20093 37886 40120 57004 60031 70296887// 90550 333 10256 20080 31/// 55083 569// 58015 88727
AAXX 31061 76743 31940 00901 10235 20214 30146 40154 50003 70000 90540333 10285 20214 30/// 55456 59002
AAXX 31061 76775 32960 01401 10156 20092 38531 40136 57005 90545 33310296 20102 30/// 55060 59003
AAXX 31061 76805 32560 23501 10244 20228 30131 40134 52010 82200 90545333 10310 20222 30/// 55094 21128 566// 59006 82830
AAXX 31061 76848 32450 60201 10151 20115 38396 40094 58002 86600 90550333 10265 20137 30/// 55072 56100 58001 86715
AAXX 31061 76311 32940 00000 10134 20064 39875 40147 52017 90540 33310332 20059 30/// 55084 58003
BBXX BAREU04 31064 99372 70752 46/// ///// 40153 57014 22213
BBXX BATFR53 31064 99182 51337 44598 21016 10254 20212 40162 51010 70000 82100 22222 00260 202// 310// 40702 5////
BBXX 42002 31061 99258 70937 46/// /1607 10237 20219 40182 58005 90550 22200 00244 10501 20501 70007 333 91208 555 11066 22070 30508 41509 60549 159067 161072 159066 153069 158072 157072
BBXX 42055 31061 99222 70940 46/// /0907 10247 20208 40170 50000 90550 22200 00250 10501 20501 70007 333 91208 555 11071 22075 30542 41008 60549 092067 093064 087062 086062 087061 084060 81007 90542
BBXX 41047 31061 99275 70715 46/// /1702 10236 40216 57013 90550 22200 00253 10903 20301 304// 40903 70013 333 91203 555 11021 22021 30454 42004 60549 172021 176022 174022 186029 177027 191026 81803 90516
BBXX 41043 31061 99211 70650 46/// /0909 10253 20218 40211 57008 90550 22200 00257 10804 20603 300// 40803 70021 333 91211 555 11099 22105 30548 40911 60549 091092 094085 094086 095087 093079 090083 80910 90548
BBXX 41036 31061 99342 70770 46/// ///// 10191 20143 40167 58013 90550 22200 00175 10503 70013
BBXX 44066 31061 99396 70726 46/// /2008 10140 20101 40152 58022 90550 22200 00123 10703 20703 70013 333 91210 555 11090 22099 30529 42010 60549 203082 202084 198084 196077 194069 190045
BBXX 46006 31061 99408 71375 46/// /1415 10114 40157 58040 90550 22200 00119 11108 20605 3//// 41106 70040 333 91218 555 11156 22166 30521 41519 60549 143144 142146 144145 142141 141136 140136
BBXX 46002 31061 99426 71305 46/// ///// 10101 40247 50000 90550 22200 00118 11107 70037
BBXX 46084 31061 99566 71361 46/// ///// 11005 21035 40106 53036 90550 22200 00068 11107 70035
BBXX 46075 31061 99539 71608 46/// /3607 11046 21071 40107 53019 90550 22200 00042 10403 20403 300// 41101 70015 333 91209 555 11073 22076 30528 43514 60549 002071 353097 000100 357079 354078 353084 83512 90530
BBXX 46005 31061 99461 71310 46/// ///03 10069 40228 51013 90550 22200 00096 11109 20301 3//// 41109 70043 333 91205 555 11034 22035
BBXX 46059 31061 99380 71300 46/// /0804 10125 40267 54000 90550 22200 00140 11407 20401 3//// 41407 70036 333 91205 555 11038 22040 30510 40806 60549 079037 070034 079032 079036 074035 071034
BBXX 46080 31061 99580 71500 46/// /2511 11085 21131 40026 51020 90550 22200 00047 10806 20705 3//// 40804 70030 333 91214 555 11114 22118 30534 42514 60549 250108 250104 252103 257094 245089 251091 82612 90550
BBXX 41001 31061 99347 70727 46/// ///// 10211 20133 40188 58015 90550 22200 00223 10603 70013
BBXX 41049 31061 99275 70630 46/// /1403 10231 20206 40250 56009 90550 22200 00231 11003 20401 300// 41003 70017 333 91203 555 11028 22029 30539 41504 60549 140027 146029 147027 147024 141023 130026 81503 90526
BBXX 41060 31061 99148 70510 46/// ///// 1//// 90550 22200 10907 70033
BBXX 42020 31061 99270 70967 46/// /1707 10191 20185 40169 58003 90550 22200 00196 10501 20501 70006 333 91207 555 11069 22073 30545 41707 60549 169064 170060 167060 166059 165057 163060
BBXX 41044 31061 99217 70587 46/// /0909 10253 20200 40227 58007 90550 22200 00261 333 91210 555 11095 22100 30502 40911 60549 092088 091087 091091 087095 089094 088089 80910 90502
BBXX 42065 31061 99149 70750 46/// /0509 10264 20234 90550 22200 10803 20603 3//// 40801 70014 333 91211 555 11095 22102 30543 40511 60549 053088 051091 056080 057082 055077 052079 80510 90543
BBXX 41048 31061 99320 70696 46/// /1307 10211 20182 40216 57015 90550 22200 00219 10902 20401 3//// 40902 70010 333 91208 555 11067 22070 30547 41308 60549 134067 132063 128064 126062 124063 126063 81307 90540
BBXX 42012 31061 99301 70876 46/// /2405 10190 20175 40179 57004 90550 22200 00188 10602 20401 313// 40601 70008 333 91206 555 11056 22060 30451 42408 60549 240052 244057 244059 238063 241063 240064
BBXX 42001 31061 99259 70897 46/// /1702 10228 20169 40200 58006 90550 22200 00237 10401 20401 3//// 40601 70004 333 91203 555 11022 22022 30542 41603 60549 164021 166020 163015 167015 171014 175016
BBXX 42035 31061 99292 70944 46/// /0802 10164 20164 40180 57003 90550 22200 00145 10601 20401 320// 40601 70006 333 91202 555 11025 22030 30545 40802 60549 084021 121014 105014 095017 088013 106017
BBXX 42060 31061 99163 70635 46/// /0808 10269 20218 40171 57014 90550 22200 00271 10804 20804 300// 40902 70020 333 91210 555 11089 22094 30548 40810 60549 081083 081076 077068 077073 076075 076074 80809 90549
BBXX 42058 31061 99149 70749 46/// /0708 10268 20228 40131 58011 90550 22200 00271 10804 20503 311// 40802 70019 333 91210 555 11088 22093 30502 40711 60549 065082 067082 070089 070084 066094 076087 80610 90503
BBXX 42036 31061 99285 70845 46/// /2504 10214 20150 40195 54000 90550 22200 00212 10601 20301 317// 40601 70007 333 91206 555 11045 22049 30549 42506 60549 249042 232034 221034 219036 218034 215036
BBXX 42056 31061 99198 70849 46/// /0807 10262 20230 40179 58007 90550 22200 00270 10502 20502 312// 40701 70009 333 91208 555 11073 22077 30531 40709 60549 076069 081069 085068 086068 082069 081068 80808 90531
BBXX 42059 31061 99151 70675 46/// /0910 10273 20217 40149 58014 90550 22200 00277 10805 20805 70025 333 91212 555 11109 22116 30453 40913 60549 091101 089096 091094 087100 091094 095101 81011 90453
BBXX 42019 31061 99279 70954 46/// /2304 10228 20208 40170 54000 90550 22200 10501 20401 319// 40501 70006 333 91204 555 11039 22042 30508 42806 60549 239037 283042 283044 283048 284042 286042
BBXX 44005 31061 99432 70691 46/// /1409 10082 20073 40183 58011 90550 22200 00081 10503 20503 3//// 40901 70015 333 91211 555 11092 22098 30503 41511 60549 144086 144086 146084 147083 147088 148084
BBXX 42040 31061 99292 70882 46/// /2707 10204 40188 50000 90550 22200 00220 10601 20601 70007 333 91209 555 11072 22076 30548 42609 60549 265072 264072 263068 267071 261068 260068
BBXX 42003 31061 99260 70856 46/// /1901 1//// 90550 22200 10501 20401 310// 40501 70005 333 91201 555 11013 22013 30537 41801 60549 190011 194010 195008 204006 233003 226006 81901 90544
BBXX 46014 31061 99394 71240 46/// /3607 10107 40255 51019 90550 22200 00111 11607 20602 3//// 41607 70036 333 91208 555 11069 22073 30457 43510 60549 356064 351071 351069 352074 348077 346077
BBXX 46011 31061 99350 71210 46/// /3309 10137 40189 58006 90550 22200 00131 11605 20502 330// 41605 70025 333 91210 555 11094 22101 30549 43310 60549 327085 334085 333076 343078 339077 336065
BBXX 46047 31061 99324 71195 46/// /3206 10141 40171 54000 90550 22200 00139 11707 20502 329// 41706 70033 333 91207 555 11063 22068 30453 43308 60549 324059 325057 331055 331056 330058 328062
BBXX 46027 31061 99419 71244 46/// /0503 10076 40270 53018 90550 22200 00093 11107 20301 329// 41107 70033 333 91205 555 11034 22035 30520 40806 60549 051034 054035 057035 066024 063019 070026
BBXX 46086 31061 99325 71180 46/// /3103 10119 40170 53003 90550 22200 00150 11904 20401 326// 41904 70022 333 91205 555 11030 22031 30513 43208 60549 317029 340035 315043 324052 316045 319054
BBXX 46088 31061 99483 71232 46/// /2610 10050 40196 90550 22200 00077 10503 20503 70014 333 91212 555 11109 22115
BBXX 46050 31061 99442 71246 46/// /3203 10079 40262 52032 90550 22200 00096 11208 20401 329// 41208 70041 333 91205 555 11032 22033 30520 43406 60549 323033 336038 341044 341048 335043 328044
BBXX 46069 31061 99337 71202 46/// /3209 10142 40161 56005 90550 22200 00133 11706 20804 330// 41705 70032 333 91211 555 11100 22109 30459 43311 60549 317092 320087 320092 322090 325091 327093
BBXX 46013 31061 99382 71233 46/// /3208 10108 40239 51010 90550 22200 00111 11606 20402 3//// 41605 70028 333 91210 555 11090 22095 30509 43211 60549 316085 321086 321088 318088 316092 313092
BBXX 46012 31061 99374 71229 46/// /3208 10117 40234 51003 90550 22200 00122 11406 20702 330// 41406 70030 333 91210 555 11081 22086 30547 43210 60549 322074 330068 330066 330067 329066 330061
BBXX 46087 31061 99485 71247 46/// /2911 10069 20021 40202 53038 90550 22200 00082 11310 20603 328// 41309 70050 333 91213 555 11116 22123 30549 42913 60549 289107 293097 293097 296101 294101 292103
BBXX 46029 31061 99461 71245 46/// /2808 10077 20016 40245 53037 90550 22200 00088 11109 20604 328// 41108 70045 333 91209 555 11080 22084 30453 42911 60549 284076 288075 286073 287079 290083 288091
BBXX 46054 31061 99342 71204 46/// /3311 10143 40160 57006 90550 22200 00133 11705 20703 300// 41705 70027 333 91213 555 11114 22124 30534 43213 60549 325107 323100 325092 323092 324093 324095
BBXX 46028 31061 99357 71219 46/// /3310 10126 40198 50000 90550 22200 00130 11506 20604 331// 41505 70029 333 91212 555 11110 22117 30541 43313 60549 330104 333101 338084 331087 326088 327093
BBXX 46025 31061 99337 71191 46/// /2902 10111 20109 40160 56007 90550 22200 00147 11903 20401 328// 41903 70014 333 91203 555 11018 22019 30450 42904 60549 289019 298016 346010 349003 018005 051013
BBXX 41008 31061 99314 70809 46/// /2106 10171 20152 40187 54000 90550 22200 00159 10401 20401 300// 41201 70006 333 91207 555 11067 22075 30548 42107 60549 207061 216057 216057 211056 206057 202059
BBXX 41004 31061 99325 70791 46/// /2211 10210 20141 40175 57011 90550 22200 00209 10502 20502 3//// 40901 70012 333 91213 555 11114 22121 30547 42213 60549 218105 218100 215099 215096 214101 214094
BBXX 44009 31061 99385 70747 46/// /2009 10116 40151 56021 90550 22200 00102 10603 20603 70013 333 91210 555 11093 22102 30533 42011 60549 202086 200089 197090 196087 196087 196081
BBXX 44014 31061 99366 70748 46/// /0910 1//// 40158 58017 90550 22200 00181 10402 20402 313// 41001 70011 333 91211 555 11097 22097 30540 41012 60549 095097 095100 096094 093095 089093 090089
BBXX 44027 31061 99443 70673 46/// /1209 10050 20022 40214 56015 90550 22200 00077 10802 20302 3//// 40801 70011 333 91210 555 11090 22094 30521 41210 60549 122085 123085 120085 115085 119084 123079
BBXX 44065 31061 99404 70737 46/// /1707 10115 20088 40137 58020 90550 22200 00105 10402 20402 314// 40801 70009 333 91209 555 11079 22087 30456 41809 60549 174073 173077 179077 177077 173077 175078 81808 90533
BBXX 41013 31061 99334 70777 46/// /2109 10210 20153 40167 57013 90550 22200 00210 10502 20502 70012 333 91211 555 11097 22104 30518 42112 60549 210092 212088 216091 210100 208091 207096
BBXX 44020 31061 99414 70702 46/// /1604 10081 20072 40172 58017 90550 22200 00066 1//00 70002 333 91204 555 11039 22042 30450 41605 60549 170038 260038 263037 263038 264039 259040
BBXX 46070 31061 99551 11753 46/// /2913 11038 21092 40104 54000 90550 22200 00032 10705 20705 3//// 41201 70025 333 91215 555 11133 22139 30539 43015 60549 289124 291102 288108 285098 306085 301104 82914 90539
BBXX 46105 31061 99590 71522 46/// ///// 1//// 90550 22200 10807 70035
AAXX 31064 41170 41958 10198 20142 30238 40251 70500 333 20161 59005 555 00126
AAXX 31064 48698 01566 73205 10314 20239 30082 40100 60001 70522 83832 333 60007 81822 86080
AAXX 31064 48698 01566 73205 10314 20239 30082 40100 60001 70522 83832 333 60007 81822 86080
AAXX 31064 91203 32474 70108 10318 20257 30104 40109 56015 82277 333 56299 70000 82818 87279 555 93106 91317 32474 20908 10306 20276 30072 40076 5//// 892100 333 562// 70000 82818 555 93106
AAXX 31064 97180 01456 61906 10273 20261 30080 40098 56018 60041 72162 82272 333 56000 60037 82819 83460
BBXX 42085 31061 99179 70665 46/// /0306 10253 40169 90540 333 91207
BBXX 44007 31061 99435 70701 46/// /0108 10006 21001 40186 58014 90550 22200 00074 10502 20501 3//// 40801 70008 333 91209 555 11083 22086 30505 40110 60549 011079 015076 011075 012078 009081 009077
AAXX 31064 85406 12960 62903 10211 20131 40137 58014 60001 86010 333 56000 86462
AAXX 31064 85418 12565 82107 10187 20146 40147 57007 60001 885// 333 56099 88630
AAXX 31064 85442 12575 19901 10182 20122 40139 58009 60001 81500 333 56400 81630
AAXX 31064 85469 42560 69903 10205 20159 40208 54001 83201 333 56300 83820 86075
AAXX 31064 85488 32560 82903 10158 20138 40139 51002 885// 333 56099 88620
AAXX 31064 61902 11575 61109 10230 20189 40148 69904 78082 868// 333 20225 59005 83820 85642
BBXX 46002 31061 99426 71305 46/// ///// 10101 40247 50000 90550 22200 00118 11107 70037
BBXX 46005 31061 99461 71310 46/// ///03 10069 40228 51013 90550 22200 00096 11109 20301 3//// 41109 70043 333 91205 555 11034 22035
BBXX 46013 31061 99382 71233 46/// /3208 10108 40239 51010 90550 22200 00111 11606 20402 3//// 41605 70028 333 91210 555 11090 22095 30509 43211 60549 316085 321086 321088 318088 316092 313092
BBXX 46014 31061 99394 71240 46/// /3607 10107 40255 51019 90550 22200 00111 11607 20602 3//// 41607 70036 333 91208 555 11069 22073 30457 43510 60549 356064 351071 351069 352074 348077 346077
BBXX 46029 31061 99461 71245 46/// /2808 10077 20016 40245 53037 90550 22200 00088 11109 20604 328// 41108 70045 333 91209 555 11080 22084 30453 42911 60549 284076 288075 286073 287079 290083 288091
BBXX 46050 31061 99442 71246 46/// /3203 10079 40262 52032 90550 22200 00096 11208 20401 329// 41208 70041 333 91205 555 11032 22033 30520 43406 60549 323033 336038 341044 341048 335043 328044
BBXX 46054 31061 99342 71204 46/// /3311 10143 40160 57006 90550 22200 00133 11705 20703 300// 41705 70027 333 91213 555 11114 22124 30534 43213 60549 325107 323100 325092 323092 324093 324095
BBXX 9VVN 31064 99535 71362 41/97 12319 10030 20010 40160 51005 7//// 8//// 22274 00070 2//// 3//// 4//// 5//// 6//// 80020
BBXX DDAC2 31060 99469 71423 41/97 81315 10040 20040 40070 56030 76162 87790 22273 04080 2//// 328// 40408 5//// 80040
BBXX KRGB 31064 99331 71330 41/98 3//// 10156 20150 40228 56002 7//00 83/// 22214 00167 20801 328// 41405 5//// 6//// 80150 ICE /////
BBXX WABS 31064 99459 71259 41498 13011 10078 20030 40240 52030 70200 81200 22283 0//// 2//// 3//// 4//// 5//// 6//// 80056 ICE /////
BBXX WSRL 31063 99315 71376 41398 72307 10175 20130 40220 57005 702// 8//4/ 22254 0//// 2//// 3//// 4//// 5//// 6//// 80145 ICE 0/0//
AAXX 31064 89578 46/// /3402 11314 36926 4//// 5////
AAXX 17064 78705 11560 50804 10232 20215 3014240160 58005 60031 70544 82150 333 10292 20213 30/// 56000 58000 82826 85358
AAXX 17064 78708 nil
AAXX 17064 333 78714 nil'
AAXX 17064 333 78717 31558 70000 10180 20177 38972 40142 58002 71044 87500 333 10244 20142 30// 56100 59004 87620
AAXX 17064 78720 31560 70103 10195 20172 39054 40151 52011 70544 86520 333 10240 20125 30/// 56800 59002 86620 83458
AAXX 17064 78724 32578 10212 10267 20224 30060 40117 51005 81500 333 10334 20256 30/// 56000 59004 81630
AAXX 31064 41170 41958 03410 10198 20142 30238 40251 70500 333 20161 59005 555 00126
AAXX 31064 91203 32474 70108 10318 20257 30104 40109 56015 82277 333 56299 70000 82818 87279 555 93106 91317 32474 20908 10306 20276 30072 40076 5//// 892100 333 562// 70000 82818 555 93106
AAXX 31063 91502 31470 42708 10316 20256 40058 55005 71521 84963 333 56799 84818 81919
AAXX 31063 91507 31475 63206 10314 20256 40055 55001 70521 82956 333 56999 82818 81919 86280
AAXX 31063 91520 31475 61803 10280 20244 40058 55002 70592 82906 333 56909 81818 81920 85280
AAXX 31063 91541 32480 50000 10285 20257 40067 57011 82206 333 56000 82817 85280
AAXX 31064 91203 32474 70108 10318 20257 30104 40109 56015 82277 333 56299 70000 82818 87279 555 93106 91317 32474 20908 10306 20276 30072 40076 5//// 892100 333 562// 70000 82818 555 93106
AAXX 31064 91503 31475 32704 10324 20243 40054 55005 70522 82250 333 56990 82820 83360
AAXX 31064 91517 31475 71805 10273 20249 40060 57002 71522 82938 333 56609 82818 81920 87280
AAXX 31064 86033 NIL
AAXX 31064 86086 31570 71802 10264 20178 39997 40086 52002 71392 81970 333 81940 86457
AAXX 31064 86097 NIL
AAXX 31064 86134 01570 70305 10238 20226 39989 40075 58015 60421 70296 85570 333 69987 85627 87457
AAXX 31064 86170 NIL
AAXX 31064 86192 NIL
AAXX 31064 86210 NIL
AAXX 31064 86218 31962 41902 10246 20236 39984 40079 56006 71012 83030 333 83358
AAXX 31064 86221 32970 00000 10240 20221 39969 40102 51009
AAXX 31064 86233 32970 00000 10238 20193 39905 40093 54000
AAXX 31064 86246 31470 80303 10218 20206 39791 40077 57023 71722 86970 333 86620 82940 88357
AAXX 31064 86255 NIL
AAXX 31064 86260 32970 00000 10234 20178 39913 40064 57009
AAXX 31064 86268 32870 40000 10226 20199 39898 40061 56005 84050 333 84358
AAXX 31064 86297 NIL
AAXX 31063 91502 31470 42708 10316 20256 40058 55005 71521 84963 333 56799 84818 81919
AAXX 31063 91507 31475 63206 10314 20256 40055 55001 70521 82956 333 56999 82818 81919 86280
AAXX 31063 91520 31475 61803 10280 20244 40058 55002 70592 82906 333 56909 81818 81920 85280
AAXX 31063 91541 32480 50000 10285 20257 40067 57011 82206 333 56000 82817 85280
AAXX 31064 91503 31475 32704 10324 20243 40054 55005 70522 82250 333 56990 82820 83360
AAXX 31064 91517 31475 71805 10273 20249 40060 57002 71522 82938 333 56609 82818 81920 87280
AAXX 31064 85406 12960 62903 10211 20131 40137 58014 60001 86010 333 56000 86462
AAXX 31064 85418 12565 82107 10187 20146 40147 57007 60001 885// 333 56099 88630
AAXX 31064 85442 12575 19901 10182 20122 40139 58009 60001 81500 333 56400 81630
AAXX 31064 85469 42560 69903 10205 20159 40208 54001 83201 333 56300 83820 86075
AAXX 31064 85488 32560 82903 10158 20138 40139 51002 885// 333 56099 88620
AAXX 31064 78925 14583 /0710 10260 20206 40158 58013 60001 700// 333 10295 20253 55067 21632 59001 79999
AAXX 31064 78925 14583 /0710 10260 20206 40158 58013 60001 700// 333 10295 20253 55067 21632 59001 79999
AAXX 31064 85874 32984 /9903 10124 20098 39523 40139 58007
AAXX 31064 85934 12580 33108 10079 20022 40045 52031 60001 82401 333 56707 82620 83070
AAXX 31064 89056 11115 83021 10006 20000 49661 54001 69921 75652 886// 333 56799 88703 93100
AAXX 31064 89057 11460 82610 10010 20003 49650 54000 69981 70265 885// 333 56699 88612
AAXX 31064 89058 11457 83913 10005 21002 39643 49663 57003 60011 77076 8672/
AAXX 31064 89059 11460 80101 11008 21022 49661 52002 69931 70272 886// 333 78099 88713
AAXX 31064 89251 31257 83218 10007 20001 49652 57004 71022 8652/
AAXX 31064 85574 12960 01606 10153 20105 39570 40121 58010 60001
AAXX 31064 85577 12960 00000 10159 20110 39521 40126 58009 60001
AAXX 31064 85585 339// 91709 10162 20097 30138 40174 58012
AAXX 31064 85682 12960 00105 10136 20122 40120 58005 60001
AAXX 31064 85743 12960 09903 10124 20107 40137 58004 60001
AAXX 31064 85799 12960 02404 10113 20111 40156 57013 60001
AAXX 31064 78397 112570 13305 10250 20214 30145 40161 60001 81800 333 00900 10324 20240 59001 81824
AAXX 31061 78221 NIL
AAXX 31061 78224 31960 00802 10191 20170 30124 40199 58013 70244
AAXX 31061 78229 32559 11001 10194 20169 30126 40201 52010 81200 333 81820
AAXX 31061 78239 NIL
AAXX 31061 78244 NIL
AAXX 31061 78243 42559 10501 10174 20168 30082 40206 57008 81110 333 81630
AAXX 31061 78255 42959 00203 10209 20196 30052 40201 57010
AAXX 31061 78264 31559 20103 10226 20192 30106 40182 57010 70500 82100 333 82820
AAXX 31061 78265 31558 13602 10210 20196 30087 40187 57010 71144 81100 333 81840
AAXX 31061 78256 NIL
AAXX 31061 78259 NIL
AAXX 31061 78268 NIL
AAXX 31064 68396 32680 70000 10200 20185 39446 48500 54000 87500 333 20185 555 10266 91014
AAXX 31061 01001 NIL
AAXX 31061 01008 11586 51008 11155 21196 30020 40056 55010 60002 70310 81571 333 21192 44008 70000 91110
AAXX 31061 01010 11588 22004 11049 21068 30035 40051 52014 69902 70281 82100 333 21089 70013 91105
AAXX 31061 01026 NIL
AAXX 31061 01055 NIL
AAXX 31061 01062 NIL
AAXX 31061 01098 16/// /0608 11004 21032 30036 40054 52016 6//// 333 21020 91115
AAXX 31061 01115 16/// /0806 10013 21011 30028 40049 53007 6//// 333 20006 91112
AAXX 31061 01152 NIL
AAXX 31061 01205 NIL
AAXX 31061 01212 NIL
AAXX 31061 01271 16/// /1203 11071 21083 30052 40074 57001 6//// 333 21074 91106
AAXX 31061 01288 11980 02403 11166 21180 39322 40123 53004 69932 70210 333 21190 47026 70013 91105
AAXX 31061 01300 NIL
AAXX 31061 01317 NIL
AAXX 31061 01367 NIL
AAXX 31061 01384 11989 00302 11069 21087 39837 40091 52009 60002 70200 333 21077 91105
AAXX 31061 01403 11582 61310 10020 21011 39970 40040 57014 60002 70222 86500 333 20006 70038 91114
AAXX 31061 01415 16/// /1405 10014 21042 30039 40050 57010 6//// 333 21020 91110
AAXX 31061 01482 46/// /0407 11030 21075 30077 40085 51007 333 21031 91109
AAXX 31061 01492 NIL
AAXX 31061 01003 NIL
AAXX 31061 01007 11989 01603 11140 21222 30025 40035 57019 60002 70200 333 21185 42/// 70000 91110
AAXX 31061 01028 NIL
AAXX 31061 01047 11656 83605 11056 21075 39652 40029 53018 60022 77172 8802/ 333 21070 48031 70023
AAXX 31061 01049 NIL
AAXX 31061 01078 NIL
AAXX 31061 01102 46/// /3305 10035 21044 30033 40052 50002 333 20011 91113
AAXX 31061 01160 NIL
AAXX 31061 01218 NIL
AAXX 31061 01238 41989 00601 11131 21145 38914 40052 57004 74182 333 21142 44015 91108
AAXX 31061 01241 NIL
AAXX 31061 01281 NIL
AAXX 31061 01338 16/// /0605 11009 21050 30000 40068 58009 60002 333 21009 70000 91112
AAXX 31061 01359 NIL
AAXX 31061 01397 NIL
AAXX 31061 01400 NIL
AAXX 31061 01427 11582 61105 11002 21045 30051 40067 57006 60002 70310 82450 333 21021 70000 91107
AAXX 31061 01447 NIL
AAXX 31061 01448 46/// /0204 11013 21047 30071 40081 50003 333 21016 91106
AAXX 31064 85874 32984 /9903 10124 20098 39523 40139 58007
AAXX 31064 85934 12580 33108 10079 20022 40045 52031 60001 82401 333 56707 82620 83070
AAXX 31064 89056 11115 83021 10006 20000 49661 54001 69921 75652 886// 333 56799 88703 93100
AAXX 31064 89057 11460 82610 10010 20003 49650 54000 69981 70265 885// 333 56699 88612
AAXX 31064 89058 11457 83913 10005 21002 39643 49663 57003 60011 77076 8672/
AAXX 31064 89059 11460 80101 11008 21022 49661 52002 69931 70272 886// 333 78099 88713
AAXX 31064 89251 31257 83218 10007 20001 49652 57004 71022 8652/
AAXX 31064 85574 12960 01606 10153 20105 39570 40121 58010 60001
AAXX 31064 85577 12960 00000 10159 20110 39521 40126 58009 60001
AAXX 31064 85585 339// 91709 10162 20097 30138 40174 58012
AAXX 31064 85682 12960 00105 10136 20122 40120 58005 60001
AAXX 31064 85743 12960 09903 10124 20107 40137 58004 60001
AAXX 31064 85799 12960 02404 10113 20111 40156 57013 60001
AAXX 31064 78397 112570 13305 10250 20214 30145 40161 60001 81800 333 00900 10324 20240 59001 81824
AAXX 31064 85874 32984 /9903 10124 20098 39523 40139 58007
AAXX 31064 85934 12580 33108 10079 20022 40045 52031 60001 82401 333 56707 82620 83070
AAXX 31064 89056 11115 83021 10006 20000 49661 54001 69921 75652 886// 333 56799 88703 93100
AAXX 31064 89057 11460 82610 10010 20003 49650 54000 69981 70265 885// 333 56699 88612
AAXX 31064 89058 11457 83913 10005 21002 39643 49663 57003 60011 77076 8672/
AAXX 31064 89059 11460 80101 11008 21022 49661 52002 69931 70272 886// 333 78099 88713
AAXX 31064 89251 31257 83218 10007 20001 49652 57004 71022 8652/
AAXX 31061 12772 31556 30000 11022 21029 39852 40146 53012 70142 81540 333 21030 4/000 55000 81626
AAXX 31061 12822 36/// /2301 10010 21016 30023 40170 52012 333 21001 70002
AAXX 31061 12843 31980 13203 10015 21016 39981 40155 53014 70311 81040 333 21008 4/000 55000 70001
AAXX 31061 12882 31645 82003 10004 20003 30012 40148 53012 71022 875// 333 21005 4/000 55000 87633
AAXX 31061 12925 36/// /0000 11044 21047 30009 40189 52012 333 21044
AAXX 31061 12942 31/06 92903 11022 21023 39927 40182 53010 74911 333 21026 4/000 55000 89/02
AAXX 31061 12982 31965 12601 11007 21023 30053 40158 53010 70311 81040 333 21007 4/000 55015
AAXX 31061 78221 NIL
AAXX 31061 78224 31960 00802 10191 20170 30124 40199 58013 70244
AAXX 31061 78229 32559 11001 10194 20169 30126 40201 52010 81200 333 81820
AAXX 31061 78239 NIL
AAXX 31061 78244 NIL
AAXX 31061 78243 42559 10501 10174 20168 30082 40206 57008 81110 333 81630
AAXX 31061 78255 42959 00203 10209 20196 30052 40201 57010
AAXX 31061 78264 31559 20103 10226 20192 30106 40182 57010 70500 82100 333 82820
AAXX 31061 78265 31558 13602 10210 20196 30087 40187 57010 71144 81100 333 81840
AAXX 31061 78256 NIL
AAXX 31061 78259 NIL
AAXX 31061 78268 NIL
AAXX 31064 91643 11498 52708 10286 20251 40074 55011 69921 71582 83260 333 5669/ 83818 85361
AAXX 31064 78897 11570 30806 10232 20198 40174 58013 60021 70186 81202 333 022// 10286 20229 58002 70048 81820
AAXX 31064 78897 11570 30806 10232 20198 40174 58013 60021 70186 81202 333 022// 10286 20229 58002 70048 81820
AAXX 31061 33815 31596 83002 10001 21003 39914 40126 52014 71022 885// 333 21002 555 80017
AAXX 31061 10004 NIL
AAXX 31061 10015 12380 62208 10044 20025 30084 40094 56008 69902 83630 222// 02060 333 10064 20041 31003 55027 55300 20000 30000 70003 83708 85358
AAXX 31061 10020 17583 81906 10044 20031 30055 40088 56007 69912 70065 333 10051 20037 3/101 55029 55300 20000 30000 70011 85/30 88/58 88/62
AAXX 31061 10035 11557 72003 10013 20008 30040 40100 58004 60002 71011 875// 333 10033 20001 31102 55024 55300 20000 30000 41106 70001 87633
AAXX 31061 10055 12975 02505 10034 20023 30092 40103 51002 60002 333 10048 20031 31001 55027 55300 20000 30000 79999
AAXX 31061 10147 11135 82104 10016 20016 30095 40114 58002 69902 71011 886// 333 10049 21006 31103 55037 55300 20000 30000 41122 70001 82702 88703
AAXX 31061 10162 12160 82403 10000 21003 30031 40116 53002 69902 886// 333 10045 20000 31101 55028 55300 20000 30000 79999 88703
AAXX 31061 10184 12965 02502 10005 20001 30101 40109 53009 69942 333 10045 20004 35102 55022 55300 20000 30000 70007
AAXX 31061 10200 01458 81805 10028 20018 30099 40097 58012 69922 75862 877// 333 10038 20020 32001 55031 55300 20000 30000 69927 70012 87713
AAXX 31061 10224 01665 42003 10020 20014 30105 40112 57008 69902 70261 82502 333 10048 20001 31102 55027 55300 20000 30000 69907 70001 82644 83075
AAXX 31061 10270 NIL
AAXX 31061 10338 01465 82102 10031 20016 30049 40123 56008 69902 70362 8457/ 333 10038 20024 31001 55025 55300 20000 30000 69907 70008 83617 83640 88460 96460
AAXX 31061 10361 12564 81601 10017 20004 30029 40135 57002 69912 885// 333 10039 20011 31101 55012 55300 20000 30000 70005 84627 88643
AAXX 31061 10393 01370 82804 10027 20013 39996 40125 52008 69912 70262 876// 333 10036 20027 31002 55010 55300 20000 30000 69907 70023 87709
AAXX 31061 10400 01245 81406 10029 20021 30055 40105 56026 60022 76362 875// 333 10043 20010 32101 55005 55300 20000 30000 60017 70019 83705 87613
AAXX 31061 10438 15464 81602 10012 20001 39849 40136 56014 69932 333 10030 20002 3/101 55013 55300 70019 82/14 88/56 88/59
AAXX 31061 10469 11780 72405 10025 20009 39973 40141 56003 69902 70362 875// 333 10026 20010 31101 55001 55300 70020 87650
AAXX 31061 10488 01781 72604 10021 21001 39858 40145 53003 69922 70286 875// 333 10027 20014 32100 55000 55300 20000 30000 41043 69907 70049 87650 91114
AAXX 31061 10506 01268 82204 10004 21002 39527 40121 56022 60012 76972 8772/ 333 10009 21004 3/102 43001 55001 55300 20000 30000 69947 70020 87705 96473
AAXX 31061 10548 11265 81903 10000 21010 39597 40151 56010 69902 70272 885// 333 10019 21001 31100 41998 55004 55300 20000 30000 79999 84706 87613
AAXX 31061 10637 01260 81803 10021 20011 30003 40144 56021 69982 76162 877// 333 10047 20021 31002 55009 55300 69987 70008 83704 87706
AAXX 31061 10685 01465 82102 11004 21016 39465 40155 56007 69912 72276 875// 333 10002 21005 3/102 44011 55001 55300 20000 30000 69907 70034 87610 96278 96477 96471
AAXX 31061 10738 01461 81502 10013 21001 39681 40161 56020 69922 76872 875// 333 10024 20013 31100 55018 55300 69927 70009 83711 85623 87640
AAXX 31061 10763 11575 81803 10007 21013 39772 40164 56012 69902 70362 8457/ 333 10026 20006 31100 55003 55300 20000 30000 70003 82625 83650 85360
AAXX 31061 10788 17671 11902 11006 21013 39736 40182 56006 69902 70065 333 10024 21006 3/103 55001 55300 20000 30000 70002 81/48
AAXX 31061 10852 01582 82002 10007 21006 39595 40178 56012 69902 72272 885// 333 10016 21002 31102 55002 55300 20000 30000 69907 70002 81625 88650
AAXX 31061 10946 NIL
BBXX VOXS 31064 99467 70480 41798 82727 10015 2000/ 40215 52025 70222 885// 22200 04016 20707 325// 41008 80010
AAXX 31061 01037 NIL
AAXX 31061 01046 NIL
AAXX 31061 01058 16/// /3304 11072 21088 39579 40056 52016 60042 333 21074 4/027 70055 91107
AAXX 31061 01065 NIL
AAXX 31061 01092 NIL
AAXX 31061 01107 16/// /0304 10023 21028 30047 40051 52005 69932 333 20008 70032 91115
AAXX 31061 01114 NIL
AAXX 31061 01144 46/// /1903 10000 21015 333 21009 91105
AAXX 31061 01199 NIL
AAXX 31061 01245 NIL
AAXX 31061 01259 16/// /3304 10038 21067 30034 40057 58003 60002 333 20026 70000 91111
AAXX 31061 01262 NIL
AAXX 31061 01278 11785 11501 11063 21071 39966 40072 55001 69902 70211 81400 333 21065 47014 70009
AAXX 31061 01293 16/// /1602 11056 21067 39865 40080 52002 60002 333 21078 70052 91103
AAXX 31061 01329 NIL
AAXX 31061 01337 NIL
AAXX 31061 01344 NIL
AAXX 31061 01364 NIL
AAXX 31061 01373 11989 00000 11110 21122 39906 40115 50002 60002 70200 333 21115 47002 70000 91102
AAXX 31061 01374 31989 13501 11137 21143 70200 80008 333 21150 44024 70000
AAXX 31061 01380 16/// /3501 11171 21200 6//// 333 21171 4/038 91106
AAXX 31061 01389 NIL
AAXX 31061 01393 NIL
AAXX 31061 01424 11780 3//// 11037 21057 30070 40074 57008 60002 70110 83400 333 21043 70000
AAXX 31061 01431 16/// /0403 11117 21129 39406 40108 56003 60002 333 21145 70000 91105
AAXX 31061 01436 NIL
AAXX 31061 01465 11982 10106 11005 21044 30066 40085 52003 60002 70200 80001 333 21011 70000 91107
AAXX 31061 01471 11989 00102 11088 21116 60002 70200 333 21096 70000 91104
AAXX 31061 01483 NIL
AAXX 31061 01015 NIL
AAXX 31061 01023 11989 02901 11176 21186 39972 40075 52017 60002 70200 333 21178 47016 70000 91102
AAXX 31061 01033 NIL
AAXX 31061 01059 11X50 93105 11030 21049 30046 40056 52014 69932 77072 333 21039 70003 91108
AAXX 31061 01089 16/// /0806 11019 21033 39926 40033 52016 6//// 333 21029 91111
AAXX 31061 01167 41888 22202 11057 21065 30047 40052 52013 70200 82030 333 21079 91104
AAXX 31061 01180 NIL
AAXX 31061 01210 16/// /1308 10009 21036 30006 40033 56019 6//// 333 20006 91111
AAXX 31061 01228 NIL
AAXX 31061 01240 16/// /1505 10030 21004 30034 40054 57009 6//// 333 20026 91109
AAXX 31061 01304 46/// /0000 10022 21039 39992 40024 58021 333 20017 91100
AAXX 31061 01311 46/// /1405 10000 21055 39977 40040 58014 333 21021 91106
AAXX 31061 01340 NIL
AAXX 31061 01355 16/// ///// 11042 21056 30073 40078 58012 60002 333 21043 70000
AAXX 31061 01360 NIL
AAXX 31061 01392 11982 00101 11097 21108 39863 40101 53007 69922 70200 333 21097 70002 91103
AAXX 31061 01406 NIL
AAXX 31061 01411 16/// /1307 10028 21031 30021 40046 57013 6//// 333 20015 91109
AAXX 31061 01425 NIL
AAXX 31061 01433 46/// /1005 11062 21132 38789 40072 57003 333 21116 91112
AAXX 31061 01442 NIL
AAXX 31061 01450 NIL
AAXX 31061 01452 11986 20101 11034 21056 30063 40085 52001 60002 70200 81031 333 21056 70000 91103
AAXX 31061 01473 16/// /1001 11086 21098 39884 40102 51005 6//// 333 21090 91102
AAXX 31061 01494 16/// /0202 11053 21064 30021 40089 51007 60002 333 21057 70000 91103
AAXX 31061 01025 16/// /1201 11077 21090 30051 40062 52017 60002 333 21097 44003 70000 91103
AAXX 31061 01052 16/// /0401 11061 21088 39957 40058 52015 60002 333 21068 70000 91103
AAXX 31061 01122 NIL
AAXX 31061 01132 NIL
AAXX 31061 01156 NIL
AAXX 31061 01203 46/// /1204 10020 21086 39977 40026 57019 333 20010 91109
AAXX 31061 01233 16/// /3201 11112 21122 60002 333 21117 70000 91105
AAXX 31061 01265 NIL
AAXX 31061 01273 NIL
AAXX 31061 01307 46/// /1210 10017 21024 30001 40029 58016 333 20005 91112
AAXX 31061 01321 16/// /1501 11067 21071 39789 40051 57017 69922 333 21075 70015 91103
AAXX 31061 01327 16/// /1001 11069 21085 60002 333 21088 70000 91102
AAXX 31061 01350 16/// /1007 11112 21137 38647 40048 57008 60002 333 21200 70000 91108
AAXX 31061 01361 NIL
AAXX 31061 01375 NIL
AAXX 31061 01378 NIL
AAXX 31061 01385 16/// /3301 11084 21096 39818 40102 52007 60002 333 21086 70000 91106
AAXX 31061 01412 16/// /1308 10017 21048 30018 40048 57011 60002 333 21016 70000 91111
AAXX 31061 01422 NIL
AAXX 31061 01440 NIL
AAXX 31061 01441 NIL
AAXX 31061 01467 NIL
AAXX 31061 01469 NIL
AAXX 31061 01477 NIL
AAXX 31061 01480 16/// /3401 11065 21081 60002 333 21073 70000 91105
AAXX 31061 01484 16/// /2801 11094 21107 39934 40098 52007 60002 333 21100 70000 91103
AAXX 31061 01490 16/// /0502 11053 21069 60002 333 21058 70000 91105
AAXX 31061 01495 16/// /0403 11036 21056 30075 40088 51009 60002 333 21037 70000 91105
AAXX 31061 01121 46/// /2603 10008 21016 30039 40051 52006 333 20004 91110
AAXX 31061 01135 NIL
AAXX 31061 01143 16/// /2204 11119 21132 69922 333 21129 70002 91106
AAXX 31061 01150 NIL
AAXX 31061 01192 NIL
AAXX 31061 01225 46/// /1105 10021 21011 30045 40050 57015 333 20014 91107
AAXX 31061 01230 NIL
AAXX 31061 01232 NIL
AAXX 31061 01234 16/// /1905 11062 21072 69972 333 21062 70039 91107
AAXX 31061 01253 NIL
AAXX 31061 01254 NIL
AAXX 31061 01257 NIL
AAXX 31061 01277 NIL
AAXX 31061 01291 NIL
AAXX 31061 01332 16/// /3401 11061 21077 60002 333 21071 70005 91104
AAXX 31061 01366 46/// /2801 11112 21139 38421 40088 57005 333 21173 91106
AAXX 31061 01370 NIL
AAXX 31061 01376 16/// /0302 11081 21099 60002 333 21082 70000 91104
AAXX 31061 01383 46/// /0000 11158 21169 39782 40119 52004 333 21160 91100
AAXX 31061 01386 NIL
AAXX 31061 01416 16/// ///// 10017 21043 60002 333 21008 70003
AAXX 31061 01419 NIL
AAXX 31061 01430 16/// ///// 11024 21047 60002 333 21025 70002
AAXX 31061 01434 16/// /0000 11196 21219 39101 40094 54001 60052 333 21203 70051 91101
AAXX 31061 01455 NIL
AAXX 31061 01468 16/// /0301 11090 21099 60002 333 21090 70000 91102
AAXX 31061 01470 NIL
AAXX 31061 01476 NIL
AAXX 31061 01481 NIL
AAXX 31061 01488 NIL
AAXX 31063 68452 NIL
AAXX 31063 68454 12389 40412 10196 20145 38390 48/// 53007 69974 84430 333 20160 555 10257 20007
AAXX 31063 68456 NIL
BBXX BATFR14 31064 99490 70054 44/96 92826 10122 20117 40179 53005 70044 22254 00119 20308 60000 ICE 0/0//
BBXX BATFR02 31064 99508 70011 46/// /2624 10109 20089 40128 58002 22283 00102
BBXX BATEU05 31064 99621 70029 46/// /1628 10069 49882 56044 22273
AAXX 31061 10007 NIL
AAXX 31061 10044 NIL
AAXX 31061 10046 12665 81903 10015 20003 30065 40105 58002 60002 875// 333 10036 20009 31102 55026 70000 87646
AAXX 31061 10091 12584 53004 10027 20005 30050 40102 53009 69902 85500 222// 06053 333 10047 20021 31100 55023 55300 20000 30000 79999 85620
AAXX 31061 10113 07359 71805 10031 20019 30075 40094 58011 69902 751// 333 10062 20031 3/003 55025 55300 20000 30000 69907 70001 83/09 87/34 87/48
AAXX 31061 10124 NIL
AAXX 31061 10131 11256 81903 10023 20015 30088 40103 58007 60002 71022 876// 222// 02049 333 10055 20022 31001 55026 55300 20000 30000 70002 87704
AAXX 31061 10170 12480 72203 10025 20015 30094 40110 53006 60002 875// 333 10052 20024 31001 55016 55300 20000 30000 70005 87611
AAXX 31061 10264 12668 32404 10004 21002 30007 40116 52004 69902 83500 333 10046 20004 31101 55006 55300 20000 30000 70004 83646
AAXX 31061 10291 11575 42604 10015 20008 30049 40118 53008 60052 70361 84500 333 10040 20012 31100 55013 55300 20000 30000 70078 84626
AAXX 31061 10315 01460 71504 10023 20015 30049 40114 56015 69922 76162 875// 333 10037 20022 31000 55024 55300 20000 30000 69927 70021 83615 87635
AAXX 31061 10379 01273 82505 10019 20011 30002 40126 53005 69902 72361 875// 333 10038 20011 31101 55004 55300 20000 30000 41122 69907 70043 81706 87631 96468
AAXX 31061 10382 11370 72603 10016 20004 30082 40128 53007 69902 70362 875// 333 10043 20015 31001 55008 55300 20000 30000 70025 83708 87620
AAXX 31061 10384 16/// /2604 10025 20009 30065 40126 52008 69912 333 10044 20024 3/002 55005 55300 20000 30000 70031
AAXX 31061 10427 01025 81907 11031 21033 39100 48395 57013 60012 77174 887// 333 11013 21031 3/103 48041 55000 55300 20000 30000 69957 70082 87701 96010 96471 96449 96441
AAXX 31061 10430 12770 61602 10021 20001 39930 40126 57012 69902 8553/ 333 10032 20020 31001 55001 55300 20000 30000 70030 85650 85359
AAXX 31061 10439 NIL
AAXX 31061 10453 11/90 92410 11043 21043 38765 48394 55005 60022 74984 333 11038 21044 3/104 49116 55000 55300 70215 91120 91217 96036 96485
AAXX 31061 10496 01580 82704 10029 20010 30046 40132 53008 69912 70276 885// 333 10035 20026 31001 55000 55300 20000 30000 69907 70037 88620
AAXX 31061 10499 11465 82905 10019 20002 39840 40136 53011 69912 70262 876// 333 10024 20017 32/// 55/// 55300 20000 30000 70043 87710 91114
AAXX 31061 10505 01280 82207 10042 20031 39815 40098 56023 69982 76166 8272/ 333 10042 20017 31001 55000 55300 20000 30000 69937 70023 82706 88515
AAXX 31061 10513 01560 81203 10023 20019 39995 40119 56028 60012 76162 8802/ 333 10044 20018 32000 55001 55300 20000 30000 60017 70023 88522 96463
AAXX 31061 10532 07360 71502 10016 20005 39883 40136 58016 69922 76776 333 10030 20013 3/100 55008 55300 20000 30000 69927 70005 85/09 86/23 87/58
AAXX 31061 10544 01/00 92307 11027 21027 39038 48409 56012 69992 77174 333 11019 21031 3/103 48022 55/// 55300 69917 70064 96049 96147
AAXX 31061 10554 11680 72204 10010 21008 39746 40142 56010 69902 70172 8251/ 333 10019 20008 31100 55000 55300 20000 30000 70005 82640 87463 96468
AAXX 31061 10567 02482 82004 10012 21001 39764 40148 58006 69902 875// 333 10024 20010 31101 55003 55300 20000 30000 69907 70010 87613
AAXX 31061 10578 11/01 92710 11050 21054 38718 48413 56003 69982 74974 333 11040 21050 3/105 48071 55000 55300 20000 30000 70123 96471 96436
BBXX BATEU07 31064 99080 10836 46/// /1609 10284 40135 58009 22253
BBXX BATFR27 31064 99437 70038 46/// /2625 10145 20094 40290 55010 22245 00144
BBXX BATEU01 31064 99470 70121 44796 82526 10137 20124 40217 56005 72022 886// 22254 00130 20806 325// 40806 5////
BBXX BATFR03 31064 99493 70002 46/// /2829 10109 20107 40150 52016 22243
BBXX FVNM 31064 99108 70807 46/// /0317 10274 20235 40123 58010 22271 00274
AAXX 31061 10609 01/06 92303 10018 20013 39794 40130 56023 60012 75864 333 10025 20014 31101 55014 55300 20000 30000 69947 70014 96047
AAXX 31061 10616 01006 81602 10002 21002 39518 40130 56024 69952 77174 875// 333 10017 21004 3/102 43001 55004 55300 69907 70005 81701 84606 87609 96041
AAXX 31061 10641 07360 81702 10021 20012 39994 40144 56020 69942 76165 333 10046 20021 3/001 55001 55300 69937 70004 83/08 87/23 88/31
AAXX 31061 10655 01474 72104 10016 20002 39820 40156 56012 69902 75862 875// 333 10033 20016 34000 55010 55300 20000 30000 69907 70004 83619 85640 87656
AAXX 31061 10675 17470 81502 10011 21004 39862 40161 56012 69902 70065 333 10033 20010 3/000 55001 55300 20000 30000 70019 87/17 88/58 88/65
AAXX 31061 10688 07464 81802 10004 21004 39632 40167 57008 60012 70075 333 10011 20002 3/100 55000 55300 20000 30000 69907 70023 87/14 88/50
AAXX 31061 10708 01040 81904 10015 20015 39749 40142 56022 60022 75076 887// 333 10032 20009 31100 55048 55300 20000 30000 60017 70026 82701 88702
AAXX 31061 10729 07349 81404 10025 20019 30034 40159 56021 60012 76265 333 10057 20024 3/001 55012 55300 20000 30000 60017 70012 87/08 87/15 88/19
AAXX 31061 10731 01470 81402 10028 20021 30000 40146 56025 60022 72165 888// 333 10050 20028 31002 55015 55300 20000 30000 69977 70020 82813 88626
AAXX 31061 10742 07460 81102 10011 20004 39820 40159 58017 69962 75176 333 10032 20008 3/000 55006 55300 20000 30000 69967 70009 88/10 88/30
AAXX 31061 10776 11980 71502 11001 21013 39719 40176 56007 69912 70262 8707/ 333 10021 21002 31101 55001 55300 20000 30000 70004 87366
AAXX 31061 10791 01/00 92607 11061 21066 38484 48431 56004 60042 77874 333 11053 21062 49130 55000 55300 69907 70168 91118 91213 96049
AAXX 31061 10805 01480 82103 10041 20024 39958 40152 56025 69992 72162 8212/ 333 10048 20032 31002 55010 55300 20000 30000 69947 70009 82815 88532
AAXX 31061 10815 01133 82405 10000 20000 39195 48426 56022 60032 77177 8572/ 333 10001 21019 3/103 43031 55013 55300 20000 30000 60017 70055 83703 83706 88513 96473 96471
AAXX 31061 10836 01357 82003 11014 21014 39277 40169 56014 69942 77177 877// 333 11002 21024 3/103 43005 55001 55300 20000 30000 69947 70020 87709
AAXX 31061 10870 12582 82001 11006 21019 39633 40183 56010 69902 8357/ 333 10018 21014 3/103 42997 55002 55300 70030 82622 87361
AAXX 31061 10895 01465 81803 11001 21009 39598 40183 56003 69902 77172 875// 333 10010 21001 3/101 44004 55002 55300 20000 30000 69907 70027 87614
AAXX 31061 10908 NIL
AAXX 31061 10929 01240 81601 10006 20005 39634 40179 56021 60022 77172 875// 222// 06051 333 10018 20002 3/101 43001 55041 55300 20000 30000 60017 70061 83704 87616 96473
AAXX 31061 10948 01445 81604 11013 21013 39217 48448 56015 69992 77172 877// 333 11001 21032 3/104 47038 55000 55300 20000 30000 69937 70095 87715
AAXX 31061 10961 11/00 93111 11127 21130 36988 47947 53001 60092 77174 333 11127 21174 49240 55000 55300 20000 41003 70296 91122 91215 96049
AAXX 31061 10962 01165 82005 11031 21033 39003 48438 57014 69912 77172 878// 333 11021 21034 3/105 48010 55009 55300 20000 30000 69907 70024 83802 87610
AAXX 31061 10980 11588 82307 11080 21092 38089 48448 57006 60032 72272 8452/ 333 11079 21091 3/110 44093 55000 55300 20000 30000 70096 84620 84446 91120 91214 96271 96471
BBXX BATFR52 31064 99489 70038 46/// /2526 10125 20120 40173 58003 22254 00127
BBXX BATFR45 31064 99088 10574 46/// ///// 10290 20179 40160 50000 22254 00287
BBXX BATFR24 31064 99433 10054 46/// /3005 10079 20032 40202 53020 22200 00114
BBXX BATEU08 31064 99588 70129 46/// /2033 10084 20072 49859 56042 22223
BBXX BATFR56 31064 99012 11038 46/// /2408 10287 20285 40099 58024 22231 00284
BBXX BATFR54 31064 99451 70007 46/// /2816 10127 20120 40248 22232 00075
BBXX PHQX 31063 99192 70572 41498 30913 10250 20207 40210 56010 70222 83165 22254 20704 309// 41005 5//// 80220
BBXX BATFR09 31064 99367 70090 44/98 03617 10132 20027 40334 53007 70200 22263 00177 20404 60//0 ICE 0/0//
BBXX BATFR22 31064 99417 10086 46/// /3308 10122 40185 53006 22224 00155
BBXX VOXS 31064 99467 70480 41798 82727 10015 2000/ 40215 52025 70222 885// 22200 04016 20707 325// 41008 80010
AAXX 31061 11816 12880 23004 10022 21016 39996 40163 52007 60002 82040 333 20018 31102 79999 82357
AAXX 31061 11826 12781 69901 10008 21018 39951 40156 52009 60002 86500 333 21015 3/104 44001 70031 82650 86656
AAXX 31061 11903 12660 29902 11028 21039 39759 40153 52013 69902 82500 333 21028 3/106 47005 70043 82640
AAXX 31061 11934 11465 22705 11025 21045 39294 42734 53012 69902 72687 82800 333 21026 3/103 47997 79999 81713
AAXX 31061 11968 12462 79901 10002 21015 39853 40140 52016 60002 87600 333 21002 31101 79999 87710
AAXX 31063 68452 NIL
AAXX 31063 68454 12389 40412 10196 20145 38390 48/// 53007 69974 84430 333 20160 555 10257 20007
AAXX 31063 68456 NIL
AAXX 31064 07005 02460 82613 10108 20097 30035 40124 53006 60092 875// 333 10110 20056 32005 55009 60007 70107 84710 87620 90710 91124 555 60005
AAXX 31064 07015 01260 82711 10099 20096 30050 40107 53003 60082 721// 875// 333 10099 20046 32004 55006 69947 70077 84705 87615 90710 91116 93100 555 69905
AAXX 31064 07020 06/// /2718 10121 20112 30132 40159 57003 69942 333 10122 20118 55/// 69907 70064 90710 91129 555 69905
AAXX 31064 07027 01470 82616 10116 20108 30075 40156 50002 60052 72152 887// 333 10117 20105 32010 55000 69927 7//// 88711 90710 91124 93100 555 69905
AAXX 31064 07037 01140 82714 10104 20102 39958 40141 53001 60102 72065 887// 333 10105 20059 32006 55001 69947 70131 88702 90710 91125 93100 555 69925
AAXX 31064 07070 04357 82710 10094 20088 30017 40127 55001 60102 700// 333 10094 20048 32004 55025 69947 70097 90710 91117 555 69925
AAXX 31064 07110 01230 82610 10118 20116 30082 40197 56007 60032 75155 887// 333 10118 20113 32011 55000 60017 70096 88704 90710 91121 555 69945
AAXX 31064 07117 01440 82515 10118 20115 30108 40178 58007 60022 76162 887// 333 10119 20114 69907 91027 90710 91128 92446 555 69905
AAXX 31064 07130 04486 82607 10124 20110 30139 40191 55001 60012 700// 333 10127 20115 31011 55000 69927 70022 90710 91114 555 60005
AAXX 31064 07139 01257 82711 10113 20097 39995 40168 56002 60022 75055 887// 333 10115 20097 31009 55000 69907 70052 88705 90710 91123 93100 555 69905
AAXX 31064 07149 01356 82709 10111 20103 30041 40149 53005 60052 75065 885// 333 10112 20059 32006 55006 69927 70066 85707 87610 90710 91117 93100 555 69925
AAXX 31064 07168 01256 82716 10106 20097 30004 40146 53002 60052 75055 877// 333 10106 20045 32004 55019 69927 70048 87706 90710 91124 93100 555 69905
AAXX 31064 07181 04350 82212 10038 20035 39724 40141 56012 60082 700// 333 10038 20014 3/001 55/// 60047 70084 90710 91119 555 69905
AAXX 31064 07190 04583 81907 10033 20020 39964 40151 56020 60012 700// 333 10038 20015 3/000 55036 69927 70018 90710 91114 555 69905
AAXX 31064 07207 01420 82919 10121 20113 69922 71022 886// 222// 328// 333 10125 20121 60007 90710 91134 92445 555 60005
AAXX 31064 07222 01260 82811 10122 20117 30177 40209 55001 60032 720// 876// 333 10123 20115 31011 55000 69907 70046 87705 90710 91119 555 69905
AAXX 31064 07240 01365 82509 10118 20107 30053 40188 55001 60062 750// 886// 333 10119 20101 32009 55001 69907 70070 88708 90710 91117 93100 555 69905
AAXX 31064 07255 01258 82707 10110 20104 39986 40186 55002 60142 76062 887// 333 10112 20089 32009 55000 69927 70188 87705 90710 91117 93100 555 69925
AAXX 31064 07280 04156 81911 10040 20037 39889 40168 56010 60092 758// 333 10054 20025 32003 55008 69987 70097 90710 91116 555 69965
AAXX 31064 07299 01356 81905 10023 20017 39830 40166 56019 60062 76366 878// 333 10035 20020 32001 55032 60057 70072 81806 87620 87633 90710 91110 93100 555 60035
AAXX 31064 07314 02558 82716 10124 20119 30205 40233 55003 69942 887// 333 10125 20115 30/// 55/// 60007 70014 88726 90710 91123 555 60005
AAXX 31064 07335 02380 82610 10118 20110 30063 40208 55003 60042 885// 333 10120 20095 31009 55001 69907 70056 88608 90710 91115 555 60005
AAXX 31064 07434 01104 82710 10099 20099 39735 40215 56005 60182 75866 886// 333 10099 20075 32007 55000 60017 70234 88703 90710 91121 93100 555 69965
AAXX 31064 07460 01570 62808 10120 20071 39806 40193 53002 60032 701// 86500 333 10121 20070 32006 55001 69907 70052 83630 84650 90710 91117 93100 555 60005
AAXX 31064 07471 01570 82907 10075 20061 39227 48812 55001 60132 76166 875// 333 10077 20040 32003 55000 60027 70173 87626 90710 91117 93100 555 69945
AAXX 31064 07481 01225 81803 10035 20029 39906 40202 55008 60152 76066 885// 333 10040 20021 32002 55/// 60057 70247 85705 88613 90710 91107 93100 555 69965
AAXX 31064 07510 01230 82712 10126 20121 30185 40251 56008 60052 75065 877// 333 10127 20100 32010 55006 69987 70068 87704 90710 91122 93100 555 69945
AAXX 31064 07535 01125 82607 10106 20104 39924 40238 55004 60072 75155 887// 333 10106 20083 32008 55000 60017 70094 88703 90710 91116 93100 555 69965
AAXX 31064 07558 01230 82509 10063 20063 39382 40229 55002 60052 75865 886// 333 10064 20057 32005 55000 60017 70068 88703 90710 91114 93100 555 69925
AAXX 31064 07577 01665 60105 10038 20028 30112 40204 55004 69982 72162 8257/ 333 10050 20035 32003 55000 69907 70062 82633 86359 90710 91110 93100 555 69905
AAXX 31064 07591 04/// /0000 11026 21036 39168 4//// 53007 60002 700// 333 11005 21038 3/110 55000 60007 70069 90710 91100 555 60005
AAXX 31064 07607 04220 82611 10103 20100 30204 40276 55008 60062 761// 333 10111 20095 3/009 55009 60047 70070 90710 91119 555 60025
AAXX 31064 07621 01563 82509 10100 20076 39848 40286 56007 69902 72065 885// 333 10100 20073 32007 55002 69907 70016 85620 88656 90710 91120 93100 555 69905
AAXX 31064 07627 01550 82909 10106 20063 39782 40274 56004 60012 76166 875// 333 10107 20081 32007 55002 69947 70012 87623 90710 91121 93100 555 69905
AAXX 31064 07630 01470 82616 10102 20085 30078 40261 55007 60022 70162 888// 333 10102 20085 32008 55003 69907 70018 87811 87633 90710 91126 93100 555 60005
AAXX 31064 07643 02784 42414 10124 20071 30191 40201 56006 60002 81542 333 10133 20058 30004 55078 60007 70000 81650 83070 90710 91120 93100 555 60005
AAXX 31064 07650 02882 61405 10028 20012 30157 40197 55006 60002 86530 333 10081 20022 30101 55082 60007 70000 86656 83358 90710 91106 555 60005
AAXX 31064 07661 02975 32617 10096 20042 30016 40179 53003 60002 83030 333 10116 20096 55/// 60007 70000 83358 90710 91129 555 60005
AAXX 31064 07690 02982 03312 10065 21014 30139 40174 55003 60002 333 10143 20064 30006 55087 60007 70000 90710 91116 93100 555 60005
AAXX 31064 07747 02670 43019 10137 20075 30182 40235 55001 69902 82140 333 10141 20119 30011 55073 60007 79999 82836 83360 91032 90710 91136 93100 555 60005
AAXX 31064 07761 02670 20408 10037 20004 30176 40187 53009 60002 82500 333 10084 20027 32002 55003 60007 70004 82633 90710 91111 93100 555 60005
AAXX 31064 07790 02982 02209 10051 21037 30164 40179 53009 60002 333 10120 20048 30101 55083 60007 70000 90710 91112 93100 555 60005
AAXX 31064 48601 11560 71504 10314 20233 30102 40106 69901 70522 82252 333 82820 86364 86078
AAXX 31064 48615 11560 80409 10275 20246 30107 40113 60011 76166 8352/ 333 83620 88469
AAXX 31064 48620 11465 72804 10285 20250 30096 40105 69921 78082 83947 333 81917 83825 85078
AAXX 31064 48647 11468 72908 10320 20259 30076 40100 60001 70522 83942 333 81917 83364 87078
AAXX 31064 48657 11475 73407 10311 20245 30073 40090 60001 70522 83331 333 81917 83818 87078
AAXX 31064 48665 11566 72506 10321 20258 30092 40101 60011 70562 83242 333 83820 83365 86078
AAXX 31064 96413 12580 72203 10323 20250 30072 40098 60001 85141 333 85822 86080
AAXX 31064 96421 12480 73304 10318 20235 30062 40097 69921 84131 333 84818 83365 85080
AAXX 31064 96441 11480 73507 10307 20253 30071 40098 69901 70362 82231 333 82814 84365 87080
AAXX 31064 96449 12480 70209 10313 20250 30076 40095 6///1 83171 333 83814 85365
AAXX 31064 96465 11478 70108 10298 20257 30062 40095 69941 70362 81838 333 81813 83364 87279
AAXX 31064 96471 12477 73504 10307 20246 30097 40100 60001 83848 333 81814 84364 87277
AAXX 31064 96481 12462 73507 10314 20244 30076 40095 60001 84842 333 83817 83364 87078
AAXX 31064 96491 11464 70510 10289 20252 30095 40107 69921 78086 84352 333 83815 81916 83364 87078
AAXX 31064 78388 111570 11104 10242 20208 30160 40169 60001 70500 81800 333 00900 10300 20232 58006 81824
AAXX 31064 03005 11135 81916 10069 20062 39817 49916 56030 60102 76366 887// 90550 333 20030 32002 55009 55300 20000 70098 83702 88707 90710 91128
AAXX 31064 03017 17358 /2716 10088 20085 39909 49940 51002 60122 710// 90550 333 20036 3/003 55001 55300 20000 70126 82/08 85/10 85/35 90710 91126
AAXX 31064 03023 17558 /2315 10086 20066 39964 49969 58012 69982 704// 90550 333 20085 3/007 70122 82/24
AAXX 31064 03026 17564 /2111 10075 20061 39937 49956 58002 60022 722// 90550 333 20075 3/006 55000 55300 20000 70134 81/20 87/25
AAXX 31064 03063 15386 /2009 10060 20052 39709 49984 52003 60012 90550 333 20022 3/001 55000 55300 20000 70124 81/07 87/29
AAXX 31064 03066 15589 /2208 10091 20068 39964 49970 51006 60032 90550 333 20031 3/003 55000 55300 20000 70076 83/25 86/33
AAXX 31064 03075 15778 /2509 10073 20070 39906 49950 53002 60062 90550 333 20040 3/003 70068 84/56 86/72
AAXX 31064 03091 15982 /2504 10081 20056 39896 49975 52001 60052 90550 333 20012 3/001 55002 55300 20000 70076 87/72
AAXX 31064 03100 17557 /2411 10093 20078 39982 49998 57008 69962 704// 90550 333 20087 3/007 55000 55300 20000 70174 84/21 83/57 86/61
AAXX 31064 03111 16561 /2509 10088 20075 30015 40027 57004 60022 90550 333 20088 3/007 70156 84/23 85/67
AAXX 31064 03134 16/// /2606 10082 20066 3//// 4//// 5//// 60062 90550 333 20028 3/003 55000 55300 20000 70144
AAXX 31064 03136 17466 /2413 10094 20081 39995 40028 50001 60022 722// 90550 333 20087 3/008 55000 55300 20000 70120 82/19 84/25 86/35
AAXX 31064 03162 17481 /2207 10077 20060 39748 40032 58001 60072 723// 90550 333 20019 3/002 55000 55300 20000 70160 85/14 86/32
AAXX 31064 03166 15568 /2207 10088 20059 39942 40011 51003 69962 90550 333 20033 3/003 55000 55300 20000 70046 87/28
AAXX 31064 03171 12682 72511 10066 20055 39985 49997 51003 69962 82532 90550 333 20024 32100 55000 55300 20000 70086 82635 85365 87074
AAXX 31064 03204 11362 82514 10105 20096 30034 40054 58003 60002 70352 886// 90550 333 20102 31009 55000 55300 20000 70106 86706 88712
AAXX 31064 03240 15984 /2508 10100 20061 39989 40017 51008 60012 90550 333 20041 3/004 55007 55300 20000 70092 86/74
AAXX 31064 03257 15975 /2610 10108 20074 30002 40041 53001 69942 90550 333 20041 3/004 55001 55300 20000 70056 87/69
AAXX 31064 03292 164// /2403 10088 20083 30020 40038 52002 60042 90550 333 20045 3/004 70066 81/15
AAXX 31064 03302 17459 /2310 10104 20100 30061 40073 58010 69922 710// 90550 333 20103 3/010 55000 55300 20000 70062 86/19 87/66
AAXX 31064 03354 15266 /2509 10102 20102 39932 40073 57003 60022 90550 333 20051 3/005 55000 55300 20000 70060 88/03
AAXX 31064 03377 12380 72511 10103 20095 39980 40063 50000 60012 875// 90550 333 20043 31004 55009 55300 20000 70046 82706 87618
AAXX 31064 03414 15480 /2510 10111 20102 39996 40083 51005 69962 90550 333 20074 3/007 55000 55300 20000 70062 88/12
AAXX 31064 03462 15484 /2415 10108 20100 39984 40072 58002 69982 90550 333 20051 3/005 55000 55300 20000 70036 81/16 83/22 86/70
AAXX 31064 03482 15477 /2703 10098 20088 30048 40073 52003 60032 90550 333 20047 3/004 70062 84/14 86/22 86/57
AAXX 31064 03502 15260 /2523 10103 20099 39939 40100 58009 69922 90550 333 20102 3/009 55000 55300 20000 70044 86/03 87/12 90710 91130
AAXX 31064 03535 15484 /2409 10112 20096 39967 40083 56003 60012 90550 333 20062 3/006 55001 55300 20000 70062 88/14
AAXX 31064 03590 17483 /2511 10101 20096 39973 40081 52001 60052 723// 90550 333 20045 3/004 55010 55300 20000 70068 85/11 84/17 85/28
AAXX 31064 03649 12368 72410 10108 20099 39999 40098 57004 69962 875// 90550 333 20079 31008 55000 55300 2//// 70058 84707 87613
AAXX 31064 03716 17121 /2615 10101 20098 30060 40119 51001 60062 762// 90550 333 20101 3/010 55000 55300 20000 70118 88/02
AAXX 31064 03740 16271 /2411 10103 20100 39937 40112 55001 69922 90550 333 20085 3/008 55000 55300 2//// 70052 88/04
AAXX 31064 03746 17350 /2813 10103 20103 39963 40116 56002 69942 710// 90550 333 20085 3/008 70048 88/08
AAXX 31064 03772 15580 /2613 10112 20096 30070 40100 57002 60032 90550 333 20068 3/006 55000 55300 20000 70052 85/22 86/57 85/59
AAXX 31064 03796 46/// /2808 10104 20096 39958 40099 52001 90550 333 20048
AAXX 31064 03803 NIL
AAXX 31064 03808 11133 82611 10111 20109 30050 40155 57006 69982 75865 887// 90550 333 20107 31010 55000 55300 20000 70062 88702
AAXX 31064 03809 11108 82710 10111 20109 30064 40157 57009 69982 75155 887// 90550 333 20108 31010 70072 88702
AAXX 31064 03827 17356 /2512 10111 20111 30088 40149 56005 69942 722// 90550 333 20110 3/011 70036 88/08
AAXX 31064 03840 17130 /2713 10099 20099 39825 40128 57006 60052 751// 90550 333 20097 3/009 70084 88/02 91024
AAXX 31064 03853 15484 /2713 10115 20103 30097 40121 57009 69962 90550 333 20107 3/009 55000 55300 20000 70032 86/18 86/27
AAXX 31064 03874 46/// /2917 10108 20092 30105 40115 56004 90550 333 20090 90710 91125
AAXX 31064 03882 17482 /2606 10108 20096 30046 40109 55000 60022 723// 90550 333 20057 3/005 55000 55300 20000 70054 87/11
AAXX 31064 03894 11160 82720 10113 20109 40162 57005 60012 75052 887// 333 20110 31011 84702 87703 90710 91133
AAXX 31064 03917 15284 /2109 10094 20084 39965 40041 58012 69922 90550 333 20088 3/007 55000 55300 20000 70058 87/04
AAXX 31064 61901 169// /1112 10160 20133 39672 40182 53012 60002 90550 333 20157 3/015 70000 8//99 555 7/090
AAXX 31064 61902 11575 61109 10230 20189 40148 69904 78082 868// 333 20225 59005 83820 85642
AAXX 31064 88889 11982 52720 10120 20051 39923 40006 52030 69901 70282 83032 90550 333 79999 83362 83072 91026 90710 91129
BBXX 46072 31061 99517 71722 46/// /3204 11012 21112 40181 53017 90550 22200 00042 10902 20401 3//// 40902 70012 333 91206 555 11041 22042 30457 40106 60549 320040 319041 327038 340033 348040 347047 83605 90457
BBXX 46026 31061 99378 71228 46/// /3207 10112 40232 54000 90550 22200 00114 11505 20602 328// 41505 70024 333 91209 555 11078 22083 30547 43209 60549 310072 283065 287069 285058 287051 287054
BBXX 46041 31061 99474 71247 46/// /2908 10063 40223 53035 90550 22200 00085 11210 20704 3//// 41209 70051 333 91211 555 11089 22093 30530 43015 60549 283087 282097 285084 288081 293080 288076
BBXX 46082 31061 99597 71434 46/// ///// 11043 40017 51028 90550 22200 00058 11106 70030
BBXX 46072 31061 99517 71722 46/// /3204 11012 21112 40181 53017 90550 22200 00042 10902 20401 3//// 40902 70012 333 91206 555 11041 22042 30457 40106 60549 320040 319041 327038 340033 348040 347047 83605 90457
BBXX 46035 31061 99571 71778 46/// /2305 1//// 40070 58011 90550 22200 10603 20401 300// 40603 70017 333 91207 555 11054 22057 30509 42313 60549 229053 249050 250072 232098 218090 163040 82213 90509
BBXX 46077 31061 99579 71543 46/// /2509 11127 21163 40022 51015 90550 22200 00036 10704 20704 70018 333 91212 555 11092 22095 30507 42715 60549 254088 261095 267098 269104 275115 271115 82713 90456
BBXX 42039 31061 99288 70860 46/// /2305 10219 40189 50000 90550 22200 00227 10602 20401 300// 40601 70008 333 91206 555 11054 22056 30500 42207 60549 228050 226049 220051 222052 218055 227054 82206 90501
BBXX 41040 31061 99145 70530 46/// /0711 10263 20205 40159 56014 90550 22200 00269 10807 20805 3//// 41304 70033 333 91213 555 11113 22120 30541 40714 60549 071108 071114 068112 069111 065105 063101 80712 90541
BBXX CGDS 31064 99429 70792 46/// /2613 10070 20029 40053 58013 7//// 8//// 22200 0//// 2////
BBXX 51004 31061 99175 71524 46/// /0608 10229 20206 90550 555 11080 22085
BBXX 51002 31061 99171 71578 46/// /0607 10237 40162 51010 90550 22200 00247 333 91209 555 11074 22078 30531 40609 60549 058070 054072 057068 061072 061073 054069
BBXX 51100 31061 99236 71539 46/// /0704 10217 40198 51008 90550 22200 00231 11205 20401 330// 41204 70023 333 91205 555 11043 22044 30546 40605 60549 064035 030011 005020 024020 038016 023011
AAXX 31061 01152 11789 71005 11029 21038 30036 40052 52009 69992 70311 878// 333 21054 70015 91107
AAXX 31061 01078 11370 80810 11004 21052 30048 40061 53015 69992 78582 86320 333 21025 70019 91115
AAXX 31061 01241 11586 21004 11009 21014 30047 40059 55008 69912 70281 81571 333 21027 70019 91107
AAXX 31064 78388 111570 11104 10242 20208 30160 40169 60001 70500 81800 333 00900 10300 20232 58006 81824
BBXX A8GH5 31063 99136 70227 41/97 /0520 10240 20146 40175 56010 700// 8//// 22254 04230 20303 305// 40605 80180
AAXX 31064 78016 11464 61503 10195 20184 30239 40243 57009 60051 71582 85530 333 10206 20162 70061 90920
AAXX 31061 89061 379// 01202 10016 21010 39669 49675 52023 70041 333 91004 91106
AAXX 31061 89061 379// 01202 10016 21010 39669 49675 52023 70041 333 91004 91106
AAXX 31064 78016 11464 61503 10195 20184 30239 40243 57009 60051 71582 85530 333 10206 20162 70061 90920
AAXX 31064 91487 NIL
AAXX 31064 91490 NIL
AAXX 31064 91533 NIL
AAXX 31064 91601 NIL
AAXX 31064 91610 11599 21010 10285 20239 40082 53016 60001 70100 81110 333 5629/
AAXX 31064 81820 82640
AAXX 31064 91623 NIL
AAXX 31064 91629 NIL
AAXX 31064 91701 11599 19903 10270 2025/ 60001 70200 81100 333 562// 81820
AAXX 31064 78016 11464 61503 10195 20184 30239 40243 57009 60051 71582 85530 333 10206 20162 70061 90920
AAXX 31064 91487 NIL
AAXX 31064 91490 NIL
AAXX 31064 91533 NIL
AAXX 31064 91601 NIL
AAXX 31064 91610 11599 21010 10285 20239 40082 53016 60001 70100 81110 333 5629/
AAXX 31064 81820 82640
AAXX 31064 91623 NIL
AAXX 31064 91629 NIL
AAXX 31064 91701 11599 19903 10270 2025/ 60001 70200 81100 333 562// 81820
BBXX VOPP 31064 99456 70735 46/// /0207 11077 21087 4//// 5//// 7//// 8//// 22200 0//// 2////
BBXX CZ9742 31064 99506 70969 46/// /1514 11068 21069 4//// 5//// 7//// 8//// 22200 0//// 2////
BBXX CG2350 31064 99433 70798 46/// /0107 10030 20028 40051 56018 7//// 8//// 22200 0//// 2////
BBXX CG2958 31064 99524 71285 46/// /2101 10022 21000 40187 51050 7//// 8//// 22242 0//// 2////
BBXX VCRG 31064 99474 70619 46/// /2105 11029 21052 40263 53015 7//// 8//// 22200 0//// 2////
BBXX CGUM 31064 99453 70606 46/// /3303 11024 21068 40271 53009 7//// 8//// 22213 0//// 2////
AAXX 31061 02741 37599 52903 11009 21041 30015 40031 52008 70000 85/// 90539 333 11001 21023 3/105
AAXX 31061 02755 37381 72202 11033 21041 39852 49948 52012 77170 87/// 90539 333 11020 21033 3//// 4/008
AAXX 31061 02805 17309 93607 11039 21050 39903 40038 52014 60052 77276 90539 333 11037 21057 3/106
AAXX 31061 02807 47459 70305 11033 21041 39823 40007 785// 87/// 90600 333 11031 21052 3////
AAXX 31061 02836 17544 80203 11049 21058 39751 49977 52018 60022 77770 88/// 90539 333 11045 21054 3/106 4/049
AAXX 31061 02845 47637 80204 11052 21055 39708 49960 52019 76776 88/// 90539 333 11051 21060 3/107 4/054
AAXX 31061 02849 47525 70502 11053 21059 39687 49964 52018 77170 87/// 90539 333 11047 21054 3////
AAXX 31061 02866 17350 70901 11043 21043 39791 49942 52019 69932 77170 87/// 90539 333 11031 21043 3/105 4/041
AAXX 31061 02897 47459 72302 11031 21035 39766 49949 771// 87/// 90600 333 11009 21031 3////
AAXX 31061 02913 47549 82403 11045 21053 39917 49970 771// 88/// 333 11026 21045 3////
AAXX 31061 02917 47475 72404 11026 21034 39839 49963 771// 87/// 90600 333 10004 21027 3////
AAXX 31061 02924 47559 32301 11066 21069 39779 49981 52013 724// 83/// 90539 333 11024 21069 3/109
AAXX 31061 02926 37699 82903 11006 21049 39991 40004 52008 780// 88/// 90600 333 11006 21023 3//// 4/998
AAXX 31061 02935 37466 12602 11052 21065 39801 49977 52013 72487 81/// 90539 333 11013 21053 3/107 4/007
AAXX 31061 02939 17260 82603 11013 21015 39764 49958 52021 69992 77187 88/// 90539 333 10004 21013 3/102 4/016
AAXX 31061 02944 47499 12502 11042 21052 39849 49999 700// 81/// 90600 333 11019 21042 3////
AAXX 31061 02947 47/60 72603 11034 21047 49984 52019 70072 87/// 90551 333 10007 21035 3////
AAXX 31061 02963 11580 62103 11028 21040 40003 52014 60014 70282 85570 333 1//// 2//// 3/104 47001
AAXX 31061 02974 11599 72803 11020 21051 39942 40009 52016 69902 79272 875// 333 10008 21021 3/103 45///
AAXX 31061 02976 46/// /3005 11012 21018 39980 49996 52016 90539 333 10026 21013 3////
AAXX 31061 02981 37599 83109 10012 2//// 30017 40026 52009 70000 88/// 90539 333 10014 21001 3////
AAXX 31061 02982 46/// /3005 10004 21023 30011 40019 52011 90539 333 10018 20001 3////
AAXX 31061 02741 37599 52903 11009 21041 30015 40031 52008 70000 85/// 90539 333 11001 21023 3/105
AAXX 31061 02755 37381 72202 11033 21041 39852 49948 52012 77170 87/// 90539 333 11020 21033 3//// 4/008
AAXX 31061 02805 17309 93607 11039 21050 39903 40038 52014 60052 77276 90539 333 11037 21057 3/106
AAXX 31061 02807 47459 70305 11033 21041 39823 40007 785// 87/// 90600 333 11031 21052 3////
AAXX 31061 02836 17544 80203 11049 21058 39751 49977 52018 60022 77770 88/// 90539 333 11045 21054 3/106 4/049
AAXX 31061 02845 47637 80204 11052 21055 39708 49960 52019 76776 88/// 90539 333 11051 21060 3/107 4/054
AAXX 31061 02849 47525 70502 11053 21059 39687 49964 52018 77170 87/// 90539 333 11047 21054 3////
AAXX 31061 02866 17350 70901 11043 21043 39791 49942 52019 69932 77170 87/// 90539 333 11031 21043 3/105 4/041
AAXX 31061 02897 47459 72302 11031 21035 39766 49949 771// 87/// 90600 333 11009 21031 3////
AAXX 31061 02913 47549 82403 11045 21053 39917 49970 771// 88/// 333 11026 21045 3////
AAXX 31061 02917 47475 72404 11026 21034 39839 49963 771// 87/// 90600 333 10004 21027 3////
AAXX 31061 02924 47559 32301 11066 21069 39779 49981 52013 724// 83/// 90539 333 11024 21069 3/109
AAXX 31061 02926 37699 82903 11006 21049 39991 40004 52008 780// 88/// 90600 333 11006 21023 3//// 4/998
AAXX 31061 02935 37466 12602 11052 21065 39801 49977 52013 72487 81/// 90539 333 11013 21053 3/107 4/007
AAXX 31061 02939 17260 82603 11013 21015 39764 49958 52021 69992 77187 88/// 90539 333 10004 21013 3/102 4/016
AAXX 31061 02944 47499 12502 11042 21052 39849 49999 700// 81/// 90600 333 11019 21042 3////
AAXX 31061 02947 47/60 72603 11034 21047 49984 52019 70072 87/// 90551 333 10007 21035 3////
AAXX 31061 02963 11580 62103 11028 21040 40003 52014 60014 70282 85570 333 1//// 2//// 3/104 47001
AAXX 31061 02974 11599 72803 11020 21051 39942 40009 52016 69902 79272 875// 333 10008 21021 3/103 45///
AAXX 31061 02976 46/// /3005 11012 21018 39980 49996 52016 90539 333 10026 21013 3////
AAXX 31061 02981 37599 83109 10012 2//// 30017 40026 52009 70000 88/// 90539 333 10014 21001 3////
AAXX 31061 02982 46/// /3005 10004 21023 30011 40019 52011 90539 333 10018 20001 3////
AAXX 31064 81401 06/// /0000 10245 20235 30107 40113 60001 333 55/// 60007 58000 7//// 555 60005
AAXX 31064 81408 06/// /3601 10236 2//// 30101 40109 69981 333 55/// 60007 58004 7//// 555 60005
BBXX VEP717 31064 99467 70487 41698 52830 10012 2103/ 40202 52025 70122 85500 22200 06020 20706 324// 40809 81004
AAXX 31064 81401 06/// /0000 10245 20235 30107 40113 60001 333 55/// 60007 58000 7//// 555 60005
AAXX 31064 81408 06/// /3601 10236 2//// 30101 40109 69981 333 55/// 60007 58004 7//// 555 60005
AAXX 31061 11423 01130 82707 11017 21019 39258 42755 57005 69962 710// 886// 333 21020 3/103 48012 60005 70034 88702 91112
AAXX 31061 11487 01475 82303 10001 21016 39531 40168 55000 69902 702// 885// 333 20000 3/101 43002 60005 70010 84616 88625
AAXX 31061 11518 NIL
AAXX 31061 11603 01468 72905 10010 21016 39651 40143 52008 69962 722// 87570 333 20005 3/100 43002 69905 70030 82614 83636 85646
AAXX 31061 11659 01770 63003 11001 21010 39503 40157 53007 69982 701// 86500 333 21008 3/102 43004 60005 70017 86650
AAXX 31061 11723 01770 12504 10000 21032 39851 40157 53006 69902 70171 81530 333 21002 34103 60005 70003 81650
AAXX 31061 11782 01660 82106 10010 21008 39826 40138 53008 69912 77072 885// 333 21001 3/101 44997 69905 70015 88641
BBXX VRYO3 31064 99456 70735 46/// /0109 11077 21097 40155 56011 7//// 8//// 22200 0//// 2////
BBXX VAAP 31064 99449 70617 46/// /0408 11017 21053 40256 51010 7//// 8//// 22213 0//// 2////
BBXX CGDX 31064 99468 70712 46/// /0617 11064 21099 40205 56005 7//// 8//// 22200 0//// 2////
BBXX CGDR 31064 99491 71235 46/// /2609 10063 20040 40185 51041 7//// 8//// 22221 00102 2////
BBXX VCLM 31064 99468 70712 46/// /0618 11063 21094 40198 57006 7//// 8//// 22200 0//// 2////
BBXX CGBR 31064 99519 71279 46/// /1919 10011 20011 40189 53053 7//// 8//// 22283 00061 2////
BBXX VCWL 31064 99468 70712 46/// /0616 11067 21097 40200 56005 7//// 8//// 22200 0//// 2////
BBXX VOKF 31064 99490 70669 46/// /1509 11116 21145 40250 51006 7//// 8//// 22200 0//// 2////
BBXX CGSB 31064 99483 70709 46/// /2303 11206 21233 40235 58014 7//// 8//// 22200 0//// 2////
BBXX CGDT 31064 99468 70712 46/// /0617 11064 21094 40206 56005 7//// 8//// 22200 0//// 2////
BBXX CGTF 31064 99476 70527 46/// /1706 11010 21053 40220 51037 7//// 8//// 22200 0//// 2////
BBXX VOFG 31064 99456 70614 46/// /1102 11081 21095 40271 53011 7//// 8//// 22200 0//// 2////
BBXX CGBY 31064 99487 71235 46/// /2805 10049 21015 40197 51049 7//// 8//// 22200 0//// 2////
BBXX CG2960 31064 99429 70824 46/// /1701 10064 20060 40022 53001 7//// 8//// 22200 0//// 2////
BBXX CGCC 31064 99463 70725 46/// /0516 11065 21101 40173 58016 7//// 8//// 22200 0//// 2////
BBXX CGJV 31064 99462 70631 46/// /0602 11059 21090 40262 50003 7//// 8//// 22200 0//// 2////
BBXX 3FZK3 31064 99489 71237 46/// /2803 10040 21030 40186 51044 7//// 8//// 22200 0//// 2////
BBXX VXKF 31064 99476 70591 46/// /2807 11017 21041 40239 51019 7//// 8//// 22200 0//// 2////
BBXX CGDG 31064 99447 70636 46/// /0802 11013 21016 40254 58002 7//// 8//// 22200 0//// 2////
BBXX VCBW 31064 99456 70735 46/// /0107 11076 21097 40142 58034 7//// 8//// 22200 0//// 2////
BBXX VOKJ 31064 99455 70735 46/// /0209 11083 21102 40157 57012 7//// 8//// 22200 0//// 2////
BBXX C6SI6 31064 99420 11459 46/// /3421 10024 21024 40146 52014 7//// 8//// 22212 0//// 2////
BBXX CGBN 31064 99447 70636 46/// /1003 11008 21086 40255 58002 7//// 8//// 22200 0//// 2////
BBXX VCSZ 31064 99467 70715 46/// /0726 11059 21063 40172 58005 7//// 8//// 22213 0//// 2////
BBXX CGHL 31064 99476 70527 46/// /3105 11008 21052 40220 51037 7//// 8//// 22200 0//// 2////
BBXX VOLG 31064 99446 70636 46/// /1006 11010 21075 40253 58002 7//// 8//// 22200 0//// 2////
AAXX 31064 96315 11470 70107 10317 20247 40094 60042 70266 83848 333 83817 83364 85080
AAXX 31064 96323 NIL
BBXX BATFR21 31064 99427 10089 46/// /1708 20252 40176 53005 22231
AAXX 31064 89642 42982 03005 10041 21046 39816 49868 51005 333 55083 23006 91127
BBXX BATFR04 31064 99558 70076 46/// /2120 10102 20090 49998 58005 22232 00107
AAXX 31061 14528 11001 90000 11024 21033 39891 40201 52022 69963 74544 333 10030 21024 3/104 41002 55004 70006 89/00
AAXX 31061 14537 11/02 90000 11004 21004 39989 40183 53010 69953 74544 333 10022 21008 3/101 43007 55000 70005 89///
AAXX 31061 14544 11660 83201 10000 21010 39501 40186 52012 60023 70272 885// 333 10020 21001 3/103 43007 55000 70021 88643
AAXX 31061 14557 11958 82401 10002 21003 39815 40194 52006 60012 710// 8807/ 333 10021 20000 32000 55000 70017 85360 88461
AAXX 31061 14640 11665 23207 10004 21029 39287 48434 52019 60073 77370 82200 333 10035 20004 3/102 43006 55002 70066 82843
BBXX BATFR19 31064 99067 30055 46/// /1814 10234 20194 40142 53014 22200 00255
BBXX BATFR60 31064 99453 70008 46/// /2714 10129 20120 40237 55009 22243 00084
BBXX VAAZ 31064 99/// ///// 46/// /3024 11019 21042 40110 51056 7//// 8//// 22200 0//// 2////
AAXX 31064 64500 32460 61606 10254 20234 30112 40125 84510 333 02600 20230 50341 55036 58005 84610 86460
AAXX 31064 63980 32470 63313 10296 20246 40134 69904 84232 333 20264 50450 55095 58002 84816 83357 943// 91119
AAXX 31064 60127 32960 00000 10055 20010 39714 40335 5/003 333 20045 30003
AAXX 31064 60141 32960 01808 10011 21028 39644 40348 55000 333 20001 30104
AAXX 31064 60210 32965 00000 10000 21040 39108 48596 55000 333 20000 34107
AAXX 31064 60265 32970 00000 21002 21089 39004 48599 57002 333 21015 31004
AAXX 31064 60060 NIL
AAXX 31064 60105 NIL
AAXX 31064 60106 NIL
AAXX 31064 60107 NIL
AAXX 31064 60185 NIL
AAXX 31064 60190 NIL
AAXX 31064 60191 NIL
AAXX 31064 60195 NIL
AAXX 31064 60220 NIL
AAXX 31064 60318 NIL
AAXX 31061 11812 36/// /3006 11012 21025 39448 42754 52018 333 21012 3////
AAXX 31061 11813 12675 42703 10009 21012 39810 40167 52011 60002 84540 333 20005 34102 79999 84633
AAXX 31061 11816 12880 23004 10022 21016 39996 40163 52007 60002 82040 333 20018 31102 79999 82357
AAXX 31061 11819 16/// /2904 10011 21016 39937 40158 52008 60012 333 21014 3/107
AAXX 31061 11826 12781 69901 10008 21018 39951 40156 52009 60002 86500 333 21015 3/104 44001 70031 82650 86656
AAXX 31061 11841 11358 82702 10001 21009 39762 40147 53009 69982 77172 887// 333 21012 3/103 47007 70047 85708 88712
AAXX 31061 11855 12570 39901 11008 21021 39993 40164 52013 60002 82540 333 21011 34103 70014 82621
AAXX 31061 11856 36/// /2903 10002 21018 39831 40157 52012 333 21006 3/104
AAXX 31061 11858 12681 12603 11001 21018 30009 40165 52013 60002 81540 333 21007 34106 70000 81640
AAXX 31061 11867 11361 80000 10003 21016 39828 40152 52010 69972 77172 885// 333 21007 3/102 43004 70069 82708 88626
AAXX 31061 11880 12560 69901 11008 21008 39981 40158 52014 60002 84540 333 21010 34104 70019 84630
AAXX 31061 11900 16/// /3001 10002 21030 39810 40153 52011 69932 333 21001 3//// 70039
AAXX 31061 11903 12660 29902 11028 21039 39759 40153 52013 69902 82500 333 21028 3/106 47005 70043 82640
AAXX 31061 11916 11/09 83409 11113 21132 37855 48382 51008 60022 77174 885// 333 21113 3//// 48050 70021 816// 88601 91014 93598 96048 444 16//0 16109
AAXX 31061 11918 11574 72304 11016 21033 39300 42736 53009 69932 78582 87800 333 21021 3/103 43001 70003 84820 85650
AAXX 31061 11927 12980 20000 11018 21025 39879 40149 52016 60002 81042 333 21030 34106 70018 81360
AAXX 31061 11930 11/00 93209 11158 21173 37225 47879 51012 60032 77174 333 21162 3//// 48035 70074 89/00 91014 91128 93530 96049
AAXX 31061 11933 11275 59901 11068 21072 38585 48403 53013 60022 77172 85540 333 21070 3/108 48043 70023 81603 85613 444 16113
AAXX 31061 11934 11465 22705 11025 21045 39294 42734 53012 69902 72687 82800 333 21026 3/103 47997 79999 81713
AAXX 31061 11938 12670 29902 11053 21062 39050 42732 52012 69912 82500 333 21068 3/110 44019 70014 82633
AAXX 31061 11952 16/// /0000 11032 21049 39287 42735 52013 60002 333 21036 3/106 70000
AAXX 31061 11958 36/// /3005 11069 21079 38670 48402 52011 333 21069 3////
AAXX 31061 11968 12462 79901 10002 21015 39853 40140 52016 60002 87600 333 21002 31101 79999 87710
AAXX 31061 11976 11325 80000 11004 21010 39867 40137 52012 69912 77072 885// 333 21008 3/103 43997 70001 83708 88620
AAXX 31061 11978 11215 60701 11012 21018 30005 40139 52015 60002 71022 86600 333 21014 34105 79999 86703
AAXX 31061 11993 11657 49902 10001 21002 39920 40142 52015 60002 71000 84500 333 21011 31103 79999 84644
BBXX DBLK 31061 99471 30036 41/93 93013 10076 20075 49959 57010 74754 89/// 22213 04064 20505 327// 40906
AAXX 31064 60150 32960 01306 10016 21011 39657 40348 55001 333 20013 34101
AAXX 31064 60096 NIL
AAXX 31064 60101 NIL
AAXX 31064 60115 NIL
AAXX 31064 60135 NIL
AAXX 31064 60155 NIL
AAXX 31064 60156 NIL
AAXX 31064 60230 NIL
AAXX 31064 60252 NIL
AAXX 31064 60285 NIL
AAXX 31064 60340 NIL
AAXX 31064 65338 32958 50000 10220 20208 39941 40128 80002 333 02200 20220 50594 55082 58004 85076
AAXX 31061 14648 12770 23604 10067 21056 30006 40127 52020 60022 81530 333 20036 31003 55000 70069 81650
AAXX 31061 14652 11/00 93623 11104 21107 37822 48403 53014 60052 74574 333 21104 3//// 49078 55000 70062 89///
AAXX 31061 14542 NIL
AAXX 31061 11518 02682 62305 11002 21016 39708 40159 53002 60012 86500 333 21008 3/102 43001 60005 70021 83633 85646 93704
AAXX 31064 78954 11576 60913 10250 20219 30081 40146 6///1 71586 86800 333 10303 20235 59001 82820 85638 90915
AAXX 31064 78954 11576 60913 10250 20219 30081 40146 6///1 71586 86800 333 10303 20235 59001 82820 85638 90915
BBXX 41010 31061 99289 70785 46/// /1406 10217 40195 58010 90550 22200 00236 10301 20301 300// 40901 70007 333 91207 555 11060 22062
BBXX 42057 31061 99168 70815 46/// /0510 10271 20224 40162 58011 90550 22200 00274 10803 20803 70014 333 91212 555 11100 22106 30543 40612 60549 053099 052089 060088 058087 058080 062086 80510 90545
BBXX 41009 31061 99285 70802 46/// /1805 10221 20166 40199 58013 90550 22200 00226 11301 20401 300// 41301 70006 333 91206 555 11056 22059
AAXX 31061 01026 11589 31802 11070 21080 39916 40062 52016 60002 70300 83100 333 21077 47025 70000 91103
AAXX 31061 01055 46/// /1804 11014 21056 30043 40061 52015 333 21017 91109
AAXX 31061 01317 11983 11604 10016 21087 30023 40038 57016 60002 70200 80008 333 21026 79999 91106
AAXX 31061 01115 11470 80806 10013 21011 30028 40049 53007 69922 70282 8196/ 333 20006 70037 91112
BBXX 51101 31061 99243 71621 46/// /1402 10229 20159 40186 52011 90550 22200 00237 11004 20401 312// 41004 70021 333 91203 555 11022 22022 30450 41404 60549 144021 138022 123023 117026 126030 126032
BBXX 46061 31061 99602 71468 46/// /2104 11056 49988 52036 90550 22200 00053 11002 20401 300// 41002 70012 333 91205 555 11036 22037 30456 42208 60549 202036 201038 201040 215037 223052 217056
AAXX 31064 71805 04686 /3009 10000 21032 30230 40239 53023 69922 700// 333 10010 21018 3/102 42/// 55000 69927 70002 90710 91118 555 60005
AAXX 31061 06407 11570 72508 10098 20084 30091 40097 55001 60052 70265 875// 333 20043 31005 87633 91111 91208
AAXX 31061 06447 NIL
AAXX 31061 06400 11480 72509 10114 20098 30087 40098 55000 60062 70162 8687/ 333 20049 31005 81815 85630 86358 91112 91210
AAXX 31061 06428 NIL
AAXX 31061 06451 11245 82306 10069 20061 30029 40097 55008 60022 75865 877// 333 20033 32003 84704 86706 91108 91206
AAXX 31061 06456 11128 82404 10047 20045 39746 40115 55004 60052 75866 877// 333 20024 31002 81702 85707 87709 91111 91208
AAXX 31061 06476 17004 82203 10005 20002 39453 40128 56009 60052 75276 333 21002 3/100 88/01 91108 91204
AAXX 31061 06479 17228 /2104 10043 20040 30017 40097 56023 60032 75265 333 20018 32100 81/03 85/05 88/09 91106 91204
AAXX 31061 06490 17245 82405 10018 20008 39539 40117 56013 60022 76175 333 20001 3/100 82/04 87/05 88/06 91116 91211
AAXX 31061 06590 11001 81803 10012 20012 39670 40131 57021 60032 75276 876// 333 21001 31101 87701 91106 91204
AAXX 31061 06431 NIL
AAXX 31061 06432 NIL
AAXX 31061 06449 11125 82205 10054 20049 39880 40109 56006 60052 75865 887// 333 20032 32003 83703 85705 85708 91110 91207
AAXX 31061 06450 11142 82303 10066 20053 30075 40091 56013 60022 75865 887// 333 20042 32003 88703 91106 91204
AAXX 31061 06458 NIL
AAXX 31061 06465 NIL
AAXX 31061 06478 11126 82007 10039 20031 39883 40105 56015 60022 75862 877// 333 20016 32001 82703 87708 91112 91208
AAXX 31061 06496 NIL
BBXX 44097 31061 99410 70711 46/// ///// 1//// 90602 22200 00109 10502 20502 70009
AAXX 31064 16021 12860 63202 11080 21140 37922 48456 53003 60002 86010 333 21092 47011 55/// 2//// 86457
AAXX 31064 16022 12988 52003 11083 21166 37798 48456 54000 60002 80006 333 21090 43013 55019 2//// 92872
AAXX 31064 16033 12962 42502 11064 21093 38745 48448 53003 60002 80008 333 21080 43022 55/// 2//// 92822
AAXX 31064 16040 13965 40000 11082 21097 39252 42780 5//// 60002 84010 333 21082 47009 55/// 2//// 84460 92830
AAXX 31064 16052 11/01 93519 11104 21119 36572 47001 52004 69902 74544 333 21188 49999 55000 22619 89/01
AAXX 31064 16061 12984 00302 10034 21050 39321 42772 54000 60002 333 20029 30/// 55063 2////
AAXX 31064 16098 11930 70000 10000 21016 30123 40176 52012 60002 71041 87030 333 21050 34/// 87362
AAXX 31064 16138 11965 10000 11015 21043 30167 40179 53014 60002 702// 81030 333 21031 34/// 55/// 2//// 81360 92601
AAXX 31064 16148 12960 02401 11007 21027 30163 40176 52012 60002 333 21007 34/// 55016 2//// 55300
AAXX 31064 16168 12965 03615 10036 21097 39404 42765 51008 60002 333 20030 30///
AAXX 31064 16172 12965 00000 11036 21047 39883 40198 52013 60002 333 21042 34/// 55/// 2//// 92612
AAXX 31064 16179 12968 02008 10018 21078 39483 42774 52021 60002 333 20016 30/// 55/// 2////
AAXX 31064 16224 12965 00307 10058 21007 39830 40153 52019 69962 333 20046 30/// 55062 2////
AAXX 31064 16232 11597 72732 10084 20057 30062 40116 52006 60042 72186 84830 333 20054 32/// 55022 20436 82820 83626 555 0547/
AAXX 31064 16245 12968 03610 10040 21004 30124 40151 52015 60012 333 20028 32/// 55/// 2////
AAXX 31064 16253 12970 00404 10060 21024 30127 40139 52027 60002 333 20050 31/// 55002 20296
AAXX 31064 16258 11462 43415 10008 21026 39089 42707 53009 60062 72176 84500 333 21010 42007 55/// 2//// 84612
AAXX 31064 16263 12460 83309 10010 21005 38850 48416 51008 60002 8427/ 333 20008 34/// 55/// 2//// 84615 84356 87457
AAXX 31064 16294 NIL
AAXX 31064 16337 12898 30405 10054 21013 39511 40087 53010 69942 83030 333 20052 31/// 55/// 2//// 83358 555 0100/
AAXX 31064 16344 11/00 92505 11022 21022 38209 48400 58010 60002 74544 333 2???? 3???? 4???? 55/// 2//// 89/00
AAXX 31064 16434 13470 53620 10024 21013 38925 48427 52021 60002 85200 333 20016 30/// 55/// 2//// 85815 91032 95000 95100
AAXX 31064 16450 11260 50305 10030 20030 39001 48464 52011 60072 70264 85200 333 20022 32/// 85805
AAXX 31064 16459 11560 72505 10076 20072 30072 40108 52010 60022 76062 84130 333 20068 32/// 55/// 2//// 84825 87356
AAXX 31064 16546 11458 83211 10114 20093 30161 40190 53011 60022 71022 8563/ 333 20112 31/// 55/// 2//// 82710 84825 85356
AAXX 31064 16564 12597 50204 10122 20051 30039 40182 53009 60022 85200 333 20108 30/// 55/// 2//// 85822 555 0////
AAXX 31064 16008 12560 60304 11060 21077 38500 48461 58003 60002 86500 333 21074 43025 55/// 2//// 86625 92810
AAXX 31064 16084 12975 12606 11024 21077 30011 40186 53010 60002 80001 333 21030 34/// 55055 20427
AAXX 31064 16088 12960 29901 11024 21024 30062 40186 51004 60002 81031 333 21024 30/// 55/// 2//// 81361 92600
AAXX 31064 16110 12998 29903 10044 21051 30162 40166 51003 60002 80001 333 20020 30/// 55017 20326 555 0////
AAXX 31064 16134 12984 03112 11052 21176 37775 48469 52006 60002 333 21074 44021 55045 2//// 92845
AAXX 31064 16153 12999 02309 10084 21025 39895 40162 54000 60002 333 20077 30/// 55078 2//// 555 0////
AAXX 31064 16158 12960 31206 11006 21016 30173 40180 53008 60002 83010 333 21016 34/// 55039 2//// 83460
AAXX 31064 16206 12982 00307 11022 21041 30170 40179 53010 60002 333 21022 34/// 55/// 2////
AAXX 31064 16219 NIL
AAXX 31064 16252 11465 33012 10000 21017 39183 42749 52008 60012 70371 82530 333 21004 43001 55040 2//// 82615 92800
AAXX 31064 16280 12998 00114 10080 20029 39912 40136 52021 60002 333 20078 30/// 55040 2//// 555 0////
AAXX 31064 16310 12898 13502 10070 21009 39872 40096 53018 60002 81030 333 20060 30/// 55018 2//// 55300 81358 555 0100/
AAXX 31064 16320 11456 83418 10084 20067 30065 40078 53001 60052 76362 888// 333 20070 32004 55032 20561 55300 83812 86620 55 0317/
AAXX 31064 16325 12598 63012 10066 20038 30074 40088 53010 60002 86500 333 20060 31/// 55/// 2//// 86630 98070 555 0100/
AAXX 31064 16360 11597 33314 10064 20039 39935 40072 53004 60042 70261 82501 333 20060 31/// 55021 2//// 82625 555 0217/
AAXX 31064 16400 12497 33514 10102 20023 39833 40123 52017 69982 82270 333 20098 30/// 55026 2//// 55300 82817 555 0437/
AAXX 31064 16420 11497 73011 10100 20062 30030 40095 53012 60062 72162 85870 333 20092 32/// 55059 2//// 82815 83620 86358 90916 96463 96560 555 0317/
AAXX 31064 16429 12562 43323 10130 20052 30141 40152 52020 60012 84200 333 20102 32/// 55042 2//// 55300 84825
AAXX 31064 16470 12660 43600 10130 20089 39926 40162 54000 60002 84100 333 20110 31001 40997 55021 2//// 55300 22/// 84836 95000
AAXX 31064 16480 12598 53306 10100 20040 30032 40094 53007 60002 83130 333 20090 30/// 55048 2//// 55300 83820 83358 555 0200/
AAXX 31064 16522 11597 63216 10124 20113 39939 40183 55000 69922 76011 86800 333 20118 31/// 55030 2//// 55300 83820 85625 555 0////
AAXX 31064 16539 NIL
AAXX 31064 16550 12898 23406 10110 20058 39990 40171 52012 60002 82040 333 20100 30/// 55075 2//// 82357 555 0////
AAXX 31064 16045 NIL
AAXX 31064 16090 12960 22804 10020 21045 30090 40175 52010 60002 82030 333 21022 30/// 55037 20492 82362
AAXX 31064 16149 11965 02503 11008 21030 30156 40172 52005 60002 71000 333 21013 34/// 55/// 2////
AAXX 31064 16261 NIL
AAXX 31064 16453 11997 32904 10102 20035 30050 40129 53018 69942 702// 83030 333 20096 32/// 55072 2//// 55300 83359 555 0200/
AAXX 31064 16560 11462 73012 10118 20095 30182 40188 53011 69982 76062 87870 333 20116 31011 55044 20637 82815 85620
BBXX 46232 31061 99325 71174 46/// ///// 1//// 90538 22200 00146 11803 20802 328// 41802 70017
BBXX 46247 31061 99378 71228 46/// ///// 1//// 90551 22200 00116 11305 21003 328// 41304 70024
BBXX 46240 31061 99366 71219 46/// ///// 1//// 90542 22200 00122 11203 21001 335// 41202 70013
BBXX 46237 31061 99378 71226 46/// ///// 1//// 90540 22200 00110 11705 21003 325// 41705 70027
BBXX 46212 31061 99408 71243 46/// ///// 1//// 90542 22200 00105 11106 21004 328// 41105 70032
BBXX 46217 31061 99342 71194 46/// ///// 1//// 90542 22200 00146 11302 21002 327// 41302 70012
BBXX 46225 31061 99329 71174 46/// ///// 1//// 90544 22200 00149 11802 20901 327// 41801 70010
BBXX 46213 31061 99403 71247 46/// ///// 1//// 90554 22200 00109 11508 21005 328// 41506 70038
BBXX 46215 31061 99352 71209 46/// ///// 1//// 90538 22200 00133 11704 21002 325// 41703 70021
AAXX 31064 61970 16/// ///// 10300 20255 40120 69964 333 20273 55/// 58003 555 60005
AAXX 31064 61972 16/// /1510 10294 20219 40124 60004 333 20251 55/// 58009 90710 91120 555 60005
AAXX 31064 61976 16/// /1006 10308 20232 40123 69984 333 20270 55/// 58007 90710 91110 555 60005
AAXX 31064 61980 12562 53604 10288 20235 40130 60004 83832 333 022// 20236 55091 58007 82820 85078 90710 91105 92427 555 60005
AAXX 31064 67005 12580 43213 10303 20232 40130 60004 84800 333 02500 20278 55101 58007 84822 90710 91117 555 60005
BBXX 46218 31061 99345 71208 46/// ///// 1//// 90602 22200 00133 11706 21004 329// 41705 70030
AAXX 31061 45032 36/// /3403 10208 20097 30200 40217 57002
AAXX 31061 45035 36/// /2803 10191 20110 30175 40217 57002
AAXX 31061 45039 36/// /0103 10199 20109 30201 40216 54000
AAXX 31061 45044 36/// /1304 10199 20124 30122 40216 57001
BBXX 44100 31061 99363 70756 46/// ///// 1//// 90552 22200 00121 10301 20301 70007
BBXX 41115 31061 99184 70673 46/// ///// 1//// 90535 22200 11302 21001 301// 41301 70010
BBXX 41110 31061 99341 70777 46/// ///// 1//// 90551 22200 00132 10501 20501 70007
BBXX 42099 31061 99273 70842 46/// ///// 1//// 90557 22200 00221 10601 20601 70007
AAXX 31061 45032 36/// /3403 10208 20097 30200 40217 57002
AAXX 31061 45035 36/// /2803 10191 20110 30175 40217 57002
AAXX 31061 45039 36/// /0103 10199 20109 30201 40216 54000
AAXX 31061 45044 36/// /1304 10199 20124 30122 40216 57001
BBXX 44099 31061 99369 70757 46/// ///// 1//// 90552 22200 00101 10402 20402 70008
BBXX 46219 31061 99332 71199 46/// ///// 1//// 90558 22200 00132 11807 20804 329// 41806 70035
BBXX 46214 31061 99379 71235 46/// ///// 1//// 90550 22200 00120 11206 21004 329// 41205 70031
BBXX 51203 31061 99208 71570 46/// ///// 1//// 90543 22200 00248 11301 21001 325// 41301 70007
BBXX 52200 31061 99134 11448 46/// ///// 1//// 90545 22200 00286 10804 20804 309// 41101 70020
BBXX 51201 31061 99217 71581 46/// ///// 1//// 90542 22200 00240 11303 21002 332// 41302 70013
BBXX 51202 31061 99214 71577 46/// ///// 1//// 90539 22200 00239 10903 20903 306// 41101 70016
BBXX 51205 31061 99210 71564 46/// ///// 1//// 90548 22200 00237 10904 20904 301// 41102 70021
BBXX 46238 31061 99334 71195 46/// ///// 1//// 90550 22200 00139 11806 21003 329// 41804 70028
BBXX 46239 31061 99363 71221 46/// ///// 1//// 90551 22200 00120 11406 21003 328// 41405 70030
AAXX 31064 48001 NIL
AAXX 31064 48004 32563 13201 10222 20136 81100 333 56900
AAXX 31064 48008 32958 00401 10240 20136 40187 333 58008
AAXX 31064 48010 32560 23601 10220 20185 40178 82800 333 56999 58001
AAXX 31064 48018 32960 03601 10246 20167 40188 333 58009
AAXX 31064 48019 32960 00402 10237 20114 40189 333 58000
AAXX 31064 48020 32560 32701 10233 20163 82420 333 56390
AAXX 31064 48025 31458 43601 10255 20205 40184 83640 333 56550 58012
AAXX 31064 48035 31960 00000 10221 20156 40156 70544 333 58007
AAXX 31064 48037 32964 00401 10268 20154 40173 333 58003
AAXX 31064 48042 32958 03601 10268 20191 40163 333 58016
AAXX 31064 48045 31/08 90000 10181 20165 74344 333
AAXX 31064 48048 32960 00401 10275 20184 40170 333 58002
AAXX 31064 48053 32950 03602 10260 20160 40173 333 58013
AAXX 31064 48057 NIL
AAXX 31064 48060 32456 13601 10238 20174 40166 81100 333 56500 58014
AAXX 31064 48062 32960 32302 10292 20210 40156 333 58009
AAXX 31064 48071 32960 03602 10285 20248 40159 333 58008
AAXX 31064 48077 32959 00402 10310 20181 40150 333 58000
AAXX 31064 48078 NIL
AAXX 31064 48080 32961 02201 10234 20191 40142 333 58006
AAXX 31064 48094 32962 00402 10310 20215 40145 333 59010
AAXX 31064 48097 32457 33601 10320 20208 40149 82501 333 56909 59001
AAXX 31064 48108 31596 30503 10340 20184 40136 70511 81105 333 56109 58010
AAXX 31064 48109 NIL
AAXX 31064 48110 NIL
AAXX 31064 48112 NIL
AAXX 31064 48601 11560 71504 10314 20233 30102 40106 69901 70522 82252 333 82820 86364 86078
AAXX 31064 48615 11560 80409 10275 20246 30107 40113 60011 76166 8352/ 333 83620 88469
AAXX 31064 48620 11465 72804 10285 20250 30096 40105 69921 78082 83947 333 81917 83825 85078
AAXX 31064 48647 11468 72908 10320 20259 30076 40100 60001 70522 83942 333 81917 83364 87078
AAXX 31064 48650 11460 71803 10312 20252 30080 40098 69941 70582 83942 333 81917 83818 86078
AAXX 31064 48657 11475 73407 10311 20245 30073 40090 60001 70522 83331 333 81917 83818 87078
AAXX 31064 48665 11566 72506 10321 20258 30092 40101 60011 70562 83242 333 83820 83365 86078
AAXX 31064 96413 12580 72203 10323 20250 30072 40098 60001 85141 333 85822 86080
AAXX 31064 96421 12480 73304 10318 20235 30062 40097 69921 84131 333 84818 83365 85080
AAXX 31064 96441 11480 73507 10307 20253 30071 40098 69901 70362 82231 333 82814 84365 87080
AAXX 31064 96449 12480 70209 10313 20250 30076 40095 6///1 83171 333 83814 85365
AAXX 31064 96465 11478 70108 10298 20257 30062 40095 69941 70362 81838 333 81813 83364 87279
AAXX 31064 96471 12477 73504 10307 20246 30097 40100 60001 83848 333 81814 84364 87277
AAXX 31064 96481 12462 73507 10314 20244 30076 40095 60001 84842 333 83817 83364 87078
AAXX 31064 96491 11464 70510 10289 20252 30095 40107 69921 78086 84352 333 83815 81916 83364 87078
AAXX 31064 91573 06/// /0000 10248 2//// 39976 4//// 55006 60001 333 59006 60007
AAXX 31064 91577 06/// /1506 10230 20207 30054 40075 55008 60021 333 58001 60017
AAXX 31064 91579 06/// /1404 10265 20234 30063 40071 55005 60001 333 58001 60007
AAXX 31064 91582 04570 81206 10258 20229 30038 40072 55005 69942 700// 333 10277 20226 3/022 55/// 60007 70057 90710 91110 555 60005
AAXX 31064 91583 06/// /0802 10238 20228 30058 40073 55004 60031 333 58001 60037
AAXX 31064 91587 06/// /1602 10247 20216 30029 40073 56011 60241 333 58001 60007
AAXX 31064 91590 04686 80603 10242 20205 30034 40076 55008 69902 700// 333 10271 20224 55002 69907 79999 90710 91105 555 69905
AAXX 31064 91592 06/// /0405 10246 20207 39995 40079 55007 69921 333 58000 69927
AAXX 31064 91596 06/// /1304 10239 20216 39970 40078 56006 69941 333 58000 69947
AAXX 31064 91574 46/// ///// 29080 30155 40161 58062
AAXX 31064 91570 NIL
AAXX 31064 91598 NIL
AAXX 31061 06206 47158 8//11 10072 20062 39992 40045 56021 78186 8//// 333 20047 84/02 87/04 88/05 91014 91114 91212
AAXX 31061 06207 47257 81812 10035 20019 30004 40059 56022 71086 8//// 333 20028 85/04 88/05 91014 91115 91212
AAXX 31061 06239 47258 8//12 10057 20041 39981 40043 56023 75885 8//// 333 20046 83/05 85/06 86/07 91014 91114 91212
AAXX 31061 06252 46/// /2809 10089 20086 30004 40050 55008 222// 00086 10603 333 20050 91011 91113 91211
AAXX 31061 06260 17139 81703 10039 20036 30078 40080 56018 60032 75286 8//// 333 20037 3/002 70034 86/03 88/04 91006 91108 91205
AAXX 31061 06270 17258 81605 10028 20026 30076 40076 56022 60012 72385 8//// 333 20010 3/101 70012 84/04 85/06 86/07 91008 91109 91206
AAXX 31061 06290 17259 81503 10021 20017 30060 40101 56019 60022 75186 8//// 333 20021 3/002 70029 82/05 85/07 87/08 91005 91107 91204
AAXX 31061 06201 47045 72506 10081 20077 39980 40032 56012 72385 8//// 333 20039 82/01 84/03 85/12 91010 91114 91212
AAXX 31061 06203 47356 82709 10100 20091 30014 40065 53001 75785 8//// 333 20055 81/07 85/14 88/17 91011 91114 91212
AAXX 31061 06204 47129 82808 10094 20087 39999 40050 56011 75186 8//// 333 20055 82/02 88/03 91010 91112 91210
AAXX 31061 06205 47156 8//10 10063 20055 39970 40029 56022 75286 8//// 333 20043 84/03 87/04 88/05 91012 91113 91211
AAXX 31061 06208 47247 81709 10027 20011 30028 40078 56022 78185 8//// 333 20026 82/05 84/08 87/13 91010 91111 91209
AAXX 31061 06211 47460 82508 10087 20081 39985 40041 56011 72386 8//// 333 20044 82/13 83/16 88/20 91009 91111 91209
AAXX 31061 06212 47020 81909 1//// 2//// 39994 40057 56016 75286 8//// 333 2//// 81/01 83/02 88/03 91010 91113 91211
AAXX 31061 06235 17250 81706 10042 20037 30065 40065 56020 60022 71085 8//// 333 20027 3/001 70024 88/04 91009 91109 91207
AAXX 31061 06240 17256 81606 10044 20043 30079 40074 56018 60022 75186 8//// 333 20034 3/003 70031 87/04 88/05 91007 91110 91207
AAXX 31061 06251 17133 81609 10035 20033 30069 40070 56017 60022 78185 8//// 333 20008 3/000 70016 85/03 88/04 91011 91112 91210
AAXX 31061 06258 46/// /1709 333 91010 91114 91210
AAXX 31061 06269 17140 81706 10037 20031 30087 40081 56019 60032 76150 8//// 333 20027 3/002 70032 82/03 87/05 88/06 91008 91109 91206
AAXX 31061 06280 17262 81604 10024 20017 30087 40091 57016 69962 75186 8//// 333 21001 3/101 70008 84/06 88/08 91006 91107 91205
AAXX 31061 06310 17564 82708 10091 20087 30074 40084 56004 60022 72381 8//// 333 20047 3/005 70021 81/24 85/28 88/35 91011 91111 91208
AAXX 31061 06344 17129 81904 10058 20056 30081 40074 56015 60032 76185 8//// 333 20020 3/000 70045 87/03 88/05 91005 91110 91206
AAXX 31061 06370 17246 81803 10044 20043 30062 40088 56019 60032 75365 8//// 333 20018 3/001 70063 84/04 88/05 91004 91108 91205
AAXX 31061 06380 17334 82007 10039 20031 39960 40101 56021 60022 75265 8//// 333 20019 3/001 70029 85/07 87/08 88/09 91009 91111 91209
AAXX 31064 85201 11140 71007 10060 20047 36295 57015 69911 74062 84672 333 56200 59002 81703 83613 86357 96021
AAXX 31064 85223 31550 70000 10141 20132 37500 47123 57012 70421 81531 333 56000 58000 81627 84357 85070
AAXX 31064 85244 31470 83410 10240 20231 39652 40080 56019 71392 8492/ 333 56799 58005 84717 81930 88457
AAXX 31061 01150 16/// /1501 11149 21169 69962 333 21155 70007 91103
AAXX 31061 01230 16/// /0702 11198 21208 69962 333 21220 4/046 70050 91103
AAXX 31061 01232 16/// /1605 11032 21064 39988 40070 57010 69962 333 21042 4/011 70064 91110
AAXX 31061 01254 16/// /3301 11089 21100 60002 333 21111 4/032 70025 91102
AAXX 31061 01291 16/// /3001 11104 21116 69962 333 21104 4/039 70056 91103
AAXX 31061 01386 16/// ///// 11094 21109 60002 333 21094 70000
AAXX 31061 01470 16/// /0702 11057 21073 39977 40096 52003 60002 333 21058 4/003 70002 91104
AAXX 31061 01344 16/// ///// 11069 21122 60002 333 21130 4/072 70000
AAXX 31061 01122 16/// /1902 11089 21098 39966 40060 52013 60032 333 21090 70072 91103
AAXX 31061 01132 16/// /0601 11077 21091 39660 40062 53008 69932 333 21077 70008 91103
AAXX 31061 01361 16/// /1503 11127 21131 39025 40100 57011 60002 333 21224 70017 91105
AAXX 31061 01378 16/// /3502 11088 21104 39795 40100 53006 60002 333 21092 70000 91105
AAXX 31061 01422 16/// /0903 10014 21068 60002 333 21008 70000 91107
AAXX 31061 01477 16/// /2601 11073 21085 69932 333 21085 4/014 70004 91104
AAXX 31061 01210 11987 31308 10009 21036 30006 40033 56019 69994 70281 81048 333 20006 70009 91111
AAXX 31064 13600 NIL
AAXX 31064 13610 NIL
AAXX 31064 13611 NIL
AAXX 31064 13619 NIL
AAXX 31064 13622 NIL
AAXX 31064 13624 NIL
AAXX 31064 13625 NIL
AAXX 31064 13629 NIL
AAXX 31064 13601 NIL
AAXX 31064 13602 NIL
AAXX 31064 13623 NIL
AAXX 31061 10908 01/01 92416 11020 21020 38433 48433 55008 60012 77374 333 11020 21065 3/107 49095 55000 55300 20000 30000 69927 70053 89/01 91121 91217 96049
AAXX 31061 10046 12665 81903 10015 20003 30065 40105 58002 60002 875// 333 10036 20009 31102 55026 79999 87646
BBXX 41046 31061 99238 70683 46/// /1408 10237 20211 40212 57008 90550 22200 00252 10803 20603 300// 40802 70017 333 91211 555 11088 22093 30450 41511 60549 144084 143078 134068 131061 128064 124061 81510 90550
BBXX 44011 31061 99411 70666 46/// /1205 10099 20088 40210 56012 90550 22200 00092 10702 20402 3//// 40702 70012 333 91206 555 11058 22064 30505 42908 60549 120053 117054 115056 113060 113065 113064
BBXX 42362 31061 99278 70907 46/// /2204 10217 20178 40200 50000 90600
BBXX 42363 31061 99282 70892 46/// /2704 10217 20150 40200 58003 90600 333 91204
BBXX 42364 31061 99291 70881 46/// /0000 10200 20167 40197 50000 90600
AAXX 31061 03951 17245 /2508 10110 20108 30090 40116 57017 60012 71081 88/// 333 20108 3/011 88/03
AAXX 31061 03953 11256 82306 10115 20111 30073 40109 56016 69992 75052 886// 333 20113 31011 55000 88704 92436
AAXX 31061 03955 11270 72407 10106 20103 39909 40104 56017 69912 75052 876// 333 20104 31009 55000 82703 86705 87624
AAXX 31061 03956 15263 /2405 10101 20094 30017 40093 58005 69922 86/// 333 20100 3/009 86/03 87/62
AAXX 31061 03962 NIL
AAXX 31061 03963 17232 /2311 10105 20101 30029 40057 57022 69912 7101/ 88/// 333 20102 3/010 88/03
AAXX 31061 03966 17257 /2406 10106 20099 39989 40081 57017 69952 7101/ 88/// 333 20102 3/010 81/03 85/05 87/08
AAXX 31061 03967 12470 42309 10106 20097 39956 40069 57013 69922 84600 333 20103 31008 55000 83714 83634
AAXX 31061 03969 11368 82406 10109 20096 39967 40069 58011 69902 70252 886// 333 20104 31010 55000 81708 83710 86713
AAXX 31061 03973 11/08 92106 10094 20094 39797 40048 58023 60022 76166 333 20091 3/009 55000 89/04
AAXX 31061 03976 11340 82209 10108 20106 30021 40033 57024 60042 75865 886// 333 20104 31010 55000 86708 88712
AAXX 31061 03980 17476 /2208 10104 20097 39989 40014 58018 69932 7031/ 88/// 333 20092 3/008 88/11
AAXX 31063 91551 NIL
AAXX 31063 91553 NIL
AAXX 31063 91554 31598 70506 10290 20242 40058 56002 70222 82206 333 561/9 82825 87278
AAXX 31063 91555 31598 60000 10292 20248 40061 56003 70222 84108 333 569/9 84825 86278
AAXX 31063 91557 11598 69903 10280 20237 40064 56006 60031 70228 81231 333 56999 60031 81820 86080
AAXX 31063 91565 31598 51505 10295 20238 40058 56006 70212 85201 333 565/9 85825
AAXX 31063 91568 31598 22606 10298 20244 40071 56006 70111 82931 333 56399 82825 81926
AAXX 31061 33135 NIL
AAXX 31061 33317 11496 82403 10000 21014 39770 40113 53008 69902 78582 889// 333 21010 88914
AAXX 31061 33345 NIL
AAXX 31061 33393 11460 82504 10011 21020 39722 40119 52013 69902 78582 889// 333 21004 42997 86711
AAXX 31061 33506 11992 91901 10010 20010 39925 40124 52008 69902 74342 333 20003
AAXX 31061 33587 11496 80000 10003 21003 39858 40126 52011 69902 71072 886// 333 20001 88711 555 32101
AAXX 31061 33631 11295 81402 10012 20009 39998 40144 52013 69952 71062 886// 333 20011 88703
AAXX 31061 33663 NIL
AAXX 31061 33658 31795 61101 11026 21029 39828 40137 52014 71041 86500 333 21047 86650
AAXX 31061 33711 11496 81902 10020 20012 39908 40120 52010 69902 75052 886// 333 20020 88714
AAXX 31061 33791 NIL
AAXX 31061 33837 31424 82701 10028 30078 40131 53014 71022 885// 333 20022 88713
AAXX 31061 33924 NIL
AAXX 31061 33946 11597 82003 10048 20026 39920 40141 52013 69902 70362 885// 333 20040 88628
AAXX 31061 34300 11/02 91402 10002 20002 39942 40137 53013 60022 74544 333 21011 47003
AAXX 31061 34504 11/01 91403 10005 20002 39954 40136 52011 69932 74540 333 21002
AAXX 31061 34519 31/02 91403 11005 21008 39869 40150 53012 74742 333 21024
AAXX 31061 34601 11/01 91501 10005 20005 30005 40144 52012 69952 74542 333 21001 89/01
AAXX 31063 91551 NIL
AAXX 31063 91553 NIL
AAXX 31063 91554 31598 70506 10290 20242 40058 56002 70222 82206 333 561/9 82825 87278
AAXX 31063 91555 31598 60000 10292 20248 40061 56003 70222 84108 333 569/9 84825 86278
AAXX 31063 91557 11598 69903 10280 20237 40064 56006 60031 70228 81231 333 56999 60031 81820 86080
AAXX 31063 91565 31598 51505 10295 20238 40058 56006 70212 85201 333 565/9 85825
AAXX 31063 91568 31598 22606 10298 20244 40071 56006 70111 82931 333 56399 82825 81926
AAXX 31064 89532 41/65 80511 11010 21060 39909 49936 51014 70272 885// 333 55124 23070
AAXX 31064 41859 31950 00504 10244 20120 30147 40185 70500 333 58006 70000
AAXX 31064 41883 32956 03602 10268 20140 30156 40176 333 58004 70000
AAXX 31064 41891 31950 01302 10264 20100 30131 40170 70500 333 58001 70000
AAXX 31064 41907 32957 03605 10255 20100 30162 40177 333 58008 70000
AAXX 31064 41923 31950 23602 10264 20080 30158 40168 70500 82030 333 56090 58009 70000 82360
AAXX 31064 41936 31930 03604 10270 20090 30178 70500 333 58012 70000
AAXX 31064 41943 32956 00000 10265 20120 30165 40173 333 59010 70000
AAXX 31064 41950 31950 30000 10265 20130 30166 40168 70510 83030 333 56090 58006 70000 83362
AAXX 31064 41978 31950 13206 10280 20090 30154 40160 70500 81030 333 56090 58006 70000 81360
AAXX 31064 41992 31935 03602 10298 20150 30148 40151 70500 333 58005 70000
OOXX AAUNI 31064 99798 50833 56093 07671 46/// ///02 11084 21140 38917 49799 52005 90600
AAXX 31064 68399 36/// /0502 10223 20198 30045 40154 53005 333 20186 91019 555 10331 91015
AAXX 31061 01028 11980 02713 11028 21037 39963 49983 53027 60022 73683 333 21058 70015 91123
AAXX 31061 01049 16/// /1301 11043 21057 30058 40062 52016 60002 333 21047 70002 91105
AAXX 31061 01160 41989 00503 11004 21037 30033 40051 52010 70200 333 21020 91105
AAXX 31061 01397 16/// /1101 11194 21208 39647 40122 51007 60002 333 21194 70002 91103
AAXX 31061 01001 11565 81510 10014 21015 39846 49857 58047 69972 70272 885// 333 21039 44999 70008 91118
AAXX 31061 01367 16/// /3103 11142 21160 39654 40127 50003 6//// 333 21143 91106
AAXX 31061 37682 32597 70000 11057 21064 38125 48534 57005 885// 333 21101 7000/
AAXX 31061 37717 NIL
AAXX 31061 37788 41995 60000 11064 21092 39256 40314 52014 71011 86030 333 21095
AAXX 31064 16294 12998 00603 10086 20006 39922 40116 53011 60002 333 20084 30/// 55/// 2//// 555 0211/
AAXX 31061 11157 11462 79901 11023 21032 39408 40202 52005 60032 72272 875// 333 21031 3/101 47029 81618 83632 87650 93115
AAXX 31061 45007 11941 23105 10189 20108 30211 40220 56031 60001 70511 80001 333 58002 82080
AAXX 31061 11010 01575 72403 10020 21002 39802 40189 52002 69902 77072 333 20016 31001 69905 82621 85626 86657
AAXX 31061 11012 17760 72303 10015 21007 39710 40189 54000 69922 7//4/ 8362/ 333 10018 20009 3/000 55300
AAXX 31061 11022 11565 42503 10016 21021 39769 40163 53010 69902 70282 84100 333 10028 20008 3/101 55300 84827
AAXX 31061 11035 12780 12805 10026 21003 39903 40160 53004 69902 81500 333 10035 20022 81656 91114
AAXX 31061 11036 32883 32905 10020 21021 39937 40165 52005 333 20019 30002 83358 91114 91209
AAXX 31061 11101 17/// /1605 10002 21002 39653 40195 58018 60042 7404/ 333 10029 20001 3/101 55300
AAXX 31061 11120 01350 72502 11034 21036 39482 40216 57004 69912 77172 333 21065 3/103 43021 69905 82708 84640 86656 93105
AAXX 31061 11126 17/// /2501 11118 21119 37671 48458 58002 69972 7404/ 333 11113 21129 55300 91116
AAXX 31061 11130 17/// /2403 11005 21019 39591 40196 58009 60052 7//8/ 333 10002 21014 3/000 55300
AAXX 31061 11146 11/09 73006 11166 21192 36844 47944 55000 60072 74174 876// 333 21176 49177 877// 91117 92613 93135
AAXX 31061 11150 11675 81604 10004 21008 39637 40191 56010 69922 70272 333 20002 3/100 47001 82645 86650 93100
AAXX 31061 11155 11240 82806 11074 21086 38318 48452 55000 60052 78584 872// 333 11066 21078 3/108 49085 55300 87805 93125
AAXX 31061 11157 NIL
AAXX 31061 11172 NIL
AAXX 31061 11190 12665 42504 10035 21033 39929 40166 53007 60002 84500 333 10047 20032 3/000 55300 91115
AAXX 31061 11204 11880 53102 11029 21053 39397 40217 52007 69902 70172 85500 333 10019 21059 41997 85658 93197 555 10031 6992/
AAXX 31061 11212 31/84 13406 11114 21137 37773 48467 52005 73630 81502 333 21114 42016 816// 91116 92600 93197 444 26076
AAXX 31061 11231 31016 83102 11054 21055 39617 40215 52009 74022 333 21054 3/109 43001 81701 88702
AAXX 31061 11240 32165 11702 11076 21076 39738 40201 52012 333 21089 34112 81703
AAXX 31061 11244 16/// /0000 11062 21076 39851 40197 53014 60002 333 11014 21067 55300
AAXX 31061 11389 12650 82205 10020 21001 39847 40180 53006 60002 885// 333 10027 20011 3/000 55300 91113
AAXX 31061 45007 11941 23105 10189 20108 30211 40220 56031 60001 70511 80001 333 58002 82080
AAXX 31061 34504 11/01 91403 10004 20004 39954 40136 52011 69932 74540 333 21002
AAXX 31061 76040 32902 00201 10116 20059 30139 40153 52001 90548 333 10248 20061 30///55091 59013 98602
AAXX 31061 76225 32920 00000 10064 21085 38648 40139 52005 90545 333 10223 20015 30/// 55093 58010
AAXX 31061 76342 32940 01702 10128 21013 39509 40203 52011 90550 333 10314 20100 30/// 55094 20558 58045
AAXX 31061 76382 32960 03601 10114 20061 38917 40145 52001 90548 333 10265 20030 30/// 55082 2//// 58010
AAXX 31061 76390 31950 02002 10067 21100 38252 40153 54000 70544 90530 333 10235 20025 30/// 55095 21525 58024
AAXX 31061 76393 31920 00000 10160 20090 39597 40160 52005 70500 90550 333 10314 20090 30/// 55095 58031
AAXX 31061 76423 32760 30000 10108 21079 38165 40120 52006 83060 90550 333 10250 20047 30/// 55078 21297 56090 58011 83358
AAXX 31061 76458 32960 00302 10158 20149 30140 40145 57001 90540 333 10264 20101 30/// 55086 59002
AAXX 31061 76525 32960 00306 10127 21099 37482 40100 52002 90540 333 10188 20098 30/// 55089 22472 58007
AAXX 31061 76548 32460 20502 10206 20203 30176 40186 50002 81130 90535 333 10276 20164 30/// 55071 56360 58019 81810
AAXX 31061 76556 32960 01502 10168 20143 39117 40118 52001 90534 333 10284 20124 30/// 55093 59002
AAXX 31061 76571 32910 30000 10138 20043 38172 40122 54010 80003 90550 333 10252 20052 30/// 55055 56005 58004
AAXX 31061 76577 32560 72303 10172 20132 38050 40101 52008 87500 90540 333 10260 20085 30/// 55062 56300 58000 87625
AAXX 31061 76593 32350 41404 10234 20226 30181 40183 52003 82560 90550 333 10310 20202 30/// 55080 21159 56330 58005 82620 82330
AAXX 31061 76644 32350 31202 10228 20214 30168 40181 52001 81270 90550 333 10318 20200 31/// 55065 20802 5611/ 58001 81810 82320
AAXX 31061 76654 31956 00000 10234 20213 30136 40140 50000 70544 90550 333 10288 20231 30/// 55050 20713 59014
AAXX 31061 76675 01560 02902 10055 20015 37392 40134 54000 69901 76066 90550 333 10212 20006 30/// 55067 2//// 58001 69907
AAXX 31061 76685 11550 80000 10126 20093 37886 40120 57004 60031 70296 887// 90550 333 10256 20080 31/// 55083 569// 58015 88727
AAXX 31061 76695 32956 20701 10230 20211 30154 40160 58001 82030 90545 333 10322 20180 30/// 55091 56/2/ 58001 82360
AAXX 31061 76743 31940 00901 10235 20214 30146 40154 50003 70000 90540 333 10285 20214 30/// 55456 59002
AAXX 31061 76775 32960 01401 10156 20092 38531 40136 57005 90545 333 10296 20102 30/// 55060 59003
AAXX 31061 76805 32560 23501 10244 20228 30131 40134 52010 82200 90545 333 10310 20222 30/// 55094 21128 566// 59006 82830
AAXX 31061 76848 32450 60201 10151 20115 38396 40094 58002 86600 90550 333 10265 20137 30/// 55072 56100 58001 86715
AAXX 31061 76311 32940 00000 10134 20064 39875 40147 52017 90540 333 10332 20059 30/// 55084 58003
AAXX 31061 76647 32365 20502 10221 20215 30158 40188 50002 82500 90550 333 10318 20202 30/// 55066 56200 58009 82808
AAXX 31061 76040 32902 00201 10116 20059 30139 40153 52001 90548 333 10248 20061 30///55091 59013 98602
AAXX 31061 76225 32920 00000 10064 21085 38648 40139 52005 90545 333 10223 20015 30/// 55093 58010
AAXX 31061 76342 32940 01702 10128 21013 39509 40203 52011 90550 333 10314 20100 30/// 55094 20558 58045
AAXX 31061 76382 32960 03601 10114 20061 38917 40145 52001 90548 333 10265 20030 30/// 55082 2//// 58010
AAXX 31061 76390 31950 02002 10067 21100 38252 40153 54000 70544 90530 333 10235 20025 30/// 55095 21525 58024
AAXX 31061 76393 31920 00000 10160 20090 39597 40160 52005 70500 90550 333 10314 20090 30/// 55095 58031
AAXX 31061 76423 32760 30000 10108 21079 38165 40120 52006 83060 90550 333 10250 20047 30/// 55078 21297 56090 58011 83358
AAXX 31061 76458 32960 00302 10158 20149 30140 40145 57001 90540 333 10264 20101 30/// 55086 59002
AAXX 31061 76525 32960 00306 10127 21099 37482 40100 52002 90540 333 10188 20098 30/// 55089 22472 58007
AAXX 31061 76548 32460 20502 10206 20203 30176 40186 50002 81130 90535 333 10276 20164 30/// 55071 56360 58019 81810
AAXX 31061 76556 32960 01502 10168 20143 39117 40118 52001 90534 333 10284 20124 30/// 55093 59002
AAXX 31061 76571 32910 30000 10138 20043 38172 40122 54010 80003 90550 333 10252 20052 30/// 55055 56005 58004
AAXX 31061 76577 32560 72303 10172 20132 38050 40101 52008 87500 90540 333 10260 20085 30/// 55062 56300 58000 87625
AAXX 31061 76593 32350 41404 10234 20226 30181 40183 52003 82560 90550 333 10310 20202 30/// 55080 21159 56330 58005 82620 82330
AAXX 31061 76644 32350 31202 10228 20214 30168 40181 52001 81270 90550 333 10318 20200 31/// 55065 20802 5611/ 58001 81810 82320
AAXX 31061 76654 31956 00000 10234 20213 30136 40140 50000 70544 90550 333 10288 20231 30/// 55050 20713 59014
AAXX 31061 76662 32960 00502 10140 20089 38464 40167 52007 90545 333 10290 20065 30/// 55071 21128 59005
AAXX 31061 76665 32958 01801 10140 20090 38128 40081 52007 90555 333 10272 20095 30/// 55066 21115 59005
AAXX 31061 76675 01560 02902 10055 20015 37392 40134 54000 69901 76066 90550 333 10212 20006 30/// 55067 2//// 58001 69907
AAXX 31061 76680 11558 42301 10140 20082 37766 40102 54000 70501 84130 90550 333 10235 20105 30/// 55070 56500 58000 81825 83458
AAXX 31061 76685 11550 80000 10126 20093 37886 40120 57004 60031 70296 887// 90550 333 10256 20080 31/// 55083 569// 58015 88727
AAXX 31061 76687 01/00 90401 10152 20137 38701 40172 57008 69901 74554 89/// 90545 333 10243 20100 30/// 55080 69907
AAXX 31061 76692 31420 20501 10232 20215 30157 40176 50003 74044 82100 90545 333 10270 20174 30/// 55060 562// 58008 81818 81623
AAXX 31061 76695 32956 20701 10230 20211 30154 40160 58001 82030 90545 333 10322 20180 30/// 55091 56/2/ 58001 82360
AAXX 31061 76737 01160 80000 10166 20153 38794 40161 50004 69991 75052 886// 90535 333 10239 20109 31/// 55064 569// 58008 69997 88703
AAXX 31061 76743 31940 00901 10235 20214 30146 40154 50003 70000 90540 333 10285 20214 30/// 55456 59002
AAXX 31061 76762 32904 01301 10188 20162 38764 40104 51004 90552 333 10320 20160 30/// 55095 21090 59005
AAXX 31061 76775 32960 01401 10156 20092 38531 40136 57005 90545 333 10296 20102 30/// 55060 59003
AAXX 31061 76805 32560 23501 10244 20228 30131 40134 52010 82200 90545 333 10310 20222 30/// 55094 21128 566// 59006 82830
AAXX 31061 76833 32958 03605 10254 20203 30128 40131 54000 90545 333 10322 20250 30/// 55097 58001 92000
AAXX 31061 76845 32230 80000 10116 20109 37961 40148 58001 88600 90545 333 10224 20066 30/// 55084 56200 58003 88600
AAXX 31061 76848 32450 60201 10151 20115 38396 40094 58002 86600 90550 333 10265 20137 30/// 55072 56100 58001 86715
AAXX 31061 76311 32940 00000 10134 20064 39875 40147 52017 90540 333 10332 20059 30/// 55084 58003
AAXX 31061 76640 31010 60000 10218 20215 30184 40195 52008 71044 8422/ 90540 333 10262 20174 30/// 55008 5669/ 58014 84801
AAXX 31061 76647 32365 20502 10221 20215 30158 40188 50002 82500 90550 333 10318 20202 30/// 55066 56200 58009 82808
AAXX 31061 76741 31340 40503 10238 20210 30126 40144 52013 70144 84200 90530 333 10270 20168 30/// 55056 561// 58/// 84809
AAXX 31061 76040 32902 00201 10116 20059 30139 40153 52001 90548 33310248 20061 30///55091 59013 98602
AAXX 31061 76225 32920 00000 10064 21085 38648 40139 52005 90545 33310223 20015 30/// 55093 58010
AAXX 31061 76342 32940 01702 10128 21013 39509 40203 52011 90550 33310314 20100 30/// 55094 20558 58045
AAXX 31061 76382 32960 03601 10114 20061 38917 40145 52001 90548 33310265 20030 30/// 55082 2//// 58010
AAXX 31061 76390 31950 02002 10067 21100 38252 40153 54000 70544 90530333 10235 20025 30/// 55095 21525 58024
AAXX 31061 76393 31920 00000 10160 20090 39597 40160 52005 70500 90550333 10314 20090 30/// 55095 58031
AAXX 31061 76423 32760 30000 10108 21079 38165 40120 52006 83060 90550333 10250 20047 30/// 55078 21297 56090 58011 83358
AAXX 31061 76458 32960 00302 10158 20149 30140 40145 57001 90540 33310264 20101 30/// 55086 59002
AAXX 31061 76525 32960 00306 10127 21099 37482 40100 52002 90540 33310188 20098 30/// 55089 22472 58007
AAXX 31061 76548 32460 20502 10206 20203 30176 40186 50002 81130 90535333 10276 20164 30/// 55071 56360 58019 81810
AAXX 31061 76556 32960 01502 10168 20143 39117 40118 52001 90534 33310284 20124 30/// 55093 59002
AAXX 31061 76571 32910 30000 10138 20043 38172 40122 54010 80003 90550333 10252 20052 30/// 55055 56005 58004
AAXX 31061 76577 32560 72303 10172 20132 38050 40101 52008 87500 90540333 10260 20085 30/// 55062 56300 58000 87625
AAXX 31061 76593 32350 41404 10234 20226 30181 40183 52003 82560 90550333 10310 20202 30/// 55080 21159 56330 58005 82620 82330
AAXX 31061 76644 32350 31202 10228 20214 30168 40181 52001 81270 90550333 10318 20200 31/// 55065 20802 5611/ 58001 81810 82320
AAXX 31061 76654 31956 00000 10234 20213 30136 40140 50000 70544 90550333 10288 20231 30/// 55050 20713 59014
AAXX 31061 76675 01560 02902 10055 20015 37392 40134 54000 69901 7606690550 333 10212 20006 30/// 55067 2//// 58001 69907
AAXX 31061 76685 11550 80000 10126 20093 37886 40120 57004 60031 70296887// 90550 333 10256 20080 31/// 55083 569// 58015 88727
AAXX 31061 76695 32956 20701 10230 20211 30154 40160 58001 82030 90545333 10322 20180 30/// 55091 56/2/ 58001 82360
AAXX 31061 76743 31940 00901 10235 20214 30146 40154 50003 70000 90540333 10285 20214 30/// 55456 59002
AAXX 31061 76775 32960 01401 10156 20092 38531 40136 57005 90545 33310296 20102 30/// 55060 59003
AAXX 31061 76805 32560 23501 10244 20228 30131 40134 52010 82200 90545333 10310 20222 30/// 55094 21128 566// 59006 82830
AAXX 31061 76848 32450 60201 10151 20115 38396 40094 58002 86600 90550333 10265 20137 30/// 55072 56100 58001 86715
AAXX 31061 76311 32940 00000 10134 20064 39875 40147 52017 90540 33310332 20059 30/// 55084 58003
AAXX 31061 76647 32365 20502 10221 20215 30158 40188 50002 82500 90550333 10318 20202 30/// 55066 56200 58009 82808
AAXX 31061 76040 32902 00201 10116 20059 30139 40153 52001 90548 333 10248 20061 30///55091 59013 98602
AAXX 31061 76225 32920 00000 10064 21085 38648 40139 52005 90545 333 10223 20015 30/// 55093 58010
AAXX 31061 76342 32940 01702 10128 21013 39509 40203 52011 90550 333 10314 20100 30/// 55094 20558 58045
AAXX 31061 76382 32960 03601 10114 20061 38917 40145 52001 90548 333 10265 20030 30/// 55082 2//// 58010
AAXX 31061 76390 31950 02002 10067 21100 38252 40153 54000 70544 90530 333 10235 20025 30/// 55095 21525 58024
AAXX 31061 76393 31920 00000 10160 20090 39597 40160 52005 70500 90550 333 10314 20090 30/// 55095 58031
AAXX 31061 76423 32760 30000 10108 21079 38165 40120 52006 83060 90550 333 10250 20047 30/// 55078 21297 56090 58011 83358
AAXX 31061 76458 32960 00302 10158 20149 30140 40145 57001 90540 333 10264 20101 30/// 55086 59002
AAXX 31061 76525 32960 00306 10127 21099 37482 40100 52002 90540 333 10188 20098 30/// 55089 22472 58007
AAXX 31061 76548 32460 20502 10206 20203 30176 40186 50002 81130 90535 333 10276 20164 30/// 55071 56360 58019 81810
AAXX 31061 76556 32960 01502 10168 20143 39117 40118 52001 90534 333 10284 20124 30/// 55093 59002
AAXX 31061 76571 32910 30000 10138 20043 38172 40122 54010 80003 90550 333 10252 20052 30/// 55055 56005 58004
AAXX 31061 76577 32560 72303 10172 20132 38050 40101 52008 87500 90540 333 10260 20085 30/// 55062 56300 58000 87625
AAXX 31061 76593 32350 41404 10234 20226 30181 40183 52003 82560 90550 333 10310 20202 30/// 55080 21159 56330 58005 82620 82330
AAXX 31061 76644 32350 31202 10228 20214 30168 40181 52001 81270 90550 333 10318 20200 31/// 55065 20802 5611/ 58001 81810 82320
AAXX 31061 76654 31956 00000 10234 20213 30136 40140 50000 70544 90550 333 10288 20231 30/// 55050 20713 59014
AAXX 31061 76662 32960 00502 10140 20089 38464 40167 52007 90545 333 10290 20065 30/// 55071 21128 59005
AAXX 31061 76665 32958 01801 10140 20090 38128 40081 52007 90555 333 10272 20095 30/// 55066 21115 59005
AAXX 31061 76675 01560 02902 10055 20015 37392 40134 54000 69901 76066 90550 333 10212 20006 30/// 55067 2//// 58001 69907
AAXX 31061 76680 11558 42301 10140 20082 37766 40102 54000 70501 84130 90550 333 10235 20105 30/// 55070 56500 58000 81825 83458
AAXX 31061 76685 11550 80000 10126 20093 37886 40120 57004 60031 70296 887// 90550 333 10256 20080 31/// 55083 569// 58015 88727
AAXX 31061 76687 01/00 90401 10152 20137 38701 40172 57008 69901 74554 89/// 90545 333 10243 20100 30/// 55080 69907
AAXX 31061 76692 31420 20501 10232 20215 30157 40176 50003 74044 82100 90545 333 10270 20174 30/// 55060 562// 58008 81818 81623
AAXX 31061 76695 32956 20701 10230 20211 30154 40160 58001 82030 90545 333 10322 20180 30/// 55091 56/2/ 58001 82360
AAXX 31061 76737 01160 80000 10166 20153 38794 40161 50004 69991 75052 886// 90535 333 10239 20109 31/// 55064 569// 58008 69997 88703
AAXX 31061 76743 31940 00901 10235 20214 30146 40154 50003 70000 90540 333 10285 20214 30/// 55456 59002
AAXX 31061 76762 32904 01301 10188 20162 38764 40104 51004 90552 333 10320 20160 30/// 55095 21090 59005
AAXX 31061 76775 32960 01401 10156 20092 38531 40136 57005 90545 333 10296 20102 30/// 55060 59003
AAXX 31061 76805 32560 23501 10244 20228 30131 40134 52010 82200 90545 333 10310 20222 30/// 55094 21128 566// 59006 82830
AAXX 31061 76833 32958 03605 10254 20203 30128 40131 54000 90545 333 10322 20250 30/// 55097 58001 92000
AAXX 31061 76845 32230 80000 10116 20109 37961 40148 58001 88600 90545 333 10224 20066 30/// 55084 56200 58003 88600
AAXX 31061 76848 32450 60201 10151 20115 38396 40094 58002 86600 90550 333 10265 20137 30/// 55072 56100 58001 86715
AAXX 31061 76311 32940 00000 10134 20064 39875 40147 52017 90540 333 10332 20059 30/// 55084 58003
AAXX 31061 76640 31010 60000 10218 20215 30184 40195 52008 71044 8422/ 90540 333 10262 20174 30/// 55008 5669/ 58014 84801
AAXX 31061 76647 32365 20502 10221 20215 30158 40188 50002 82500 90550 333 10318 20202 30/// 55066 56200 58009 82808
AAXX 31061 76741 31340 40503 10238 20210 30126 40144 52013 70144 84200 90530 333 10270 20168 30/// 55056 561// 58/// 84809
AAXX 31061 76040 32902 00201 10116 20059 30139 40153 52001 90548 33310248 20061 30///55091 59013 98602
AAXX 31061 76225 32920 00000 10064 21085 38648 40139 52005 90545 33310223 20015 30/// 55093 58010
AAXX 31061 76342 32940 01702 10128 21013 39509 40203 52011 90550 33310314 20100 30/// 55094 20558 58045
AAXX 31061 76382 32960 03601 10114 20061 38917 40145 52001 90548 33310265 20030 30/// 55082 2//// 58010
AAXX 31061 76390 31950 02002 10067 21100 38252 40153 54000 70544 90530333 10235 20025 30/// 55095 21525 58024
AAXX 31061 76393 31920 00000 10160 20090 39597 40160 52005 70500 90550333 10314 20090 30/// 55095 58031
AAXX 31061 76423 32760 30000 10108 21079 38165 40120 52006 83060 90550333 10250 20047 30/// 55078 21297 56090 58011 83358
AAXX 31061 76458 32960 00302 10158 20149 30140 40145 57001 90540 33310264 20101 30/// 55086 59002
AAXX 31061 76525 32960 00306 10127 21099 37482 40100 52002 90540 33310188 20098 30/// 55089 22472 58007
AAXX 31061 76548 32460 20502 10206 20203 30176 40186 50002 81130 90535333 10276 20164 30/// 55071 56360 58019 81810
AAXX 31061 76556 32960 01502 10168 20143 39117 40118 52001 90534 33310284 20124 30/// 55093 59002
AAXX 31061 76571 32910 30000 10138 20043 38172 40122 54010 80003 90550333 10252 20052 30/// 55055 56005 58004
AAXX 31061 76577 32560 72303 10172 20132 38050 40101 52008 87500 90540333 10260 20085 30/// 55062 56300 58000 87625
AAXX 31061 76593 32350 41404 10234 20226 30181 40183 52003 82560 90550333 10310 20202 30/// 55080 21159 56330 58005 82620 82330
AAXX 31061 76644 32350 31202 10228 20214 30168 40181 52001 81270 90550333 10318 20200 31/// 55065 20802 5611/ 58001 81810 82320
AAXX 31061 76654 31956 00000 10234 20213 30136 40140 50000 70544 90550333 10288 20231 30/// 55050 20713 59014
AAXX 31061 76662 32960 00502 10140 20089 38464 40167 52007 90545 33310290 20065 30/// 55071 21128 59005
AAXX 31061 76665 32958 01801 10140 20090 38128 40081 52007 90555 33310272 20095 30/// 55066 21115 59005
AAXX 31061 76675 01560 02902 10055 20015 37392 40134 54000 69901 7606690550 333 10212 20006 30/// 55067 2//// 58001 69907
AAXX 31061 76680 11558 42301 10140 20082 37766 40102 54000 70501 8413090550 333 10235 20105 30/// 55070 56500 58000 81825 83458
AAXX 31061 76685 11550 80000 10126 20093 37886 40120 57004 60031 70296887// 90550 333 10256 20080 31/// 55083 569// 58015 88727
AAXX 31061 76687 01/00 90401 10152 20137 38701 40172 57008 69901 7455489/// 90545 333 10243 20100 30/// 55080 69907
AAXX 31061 76692 31420 20501 10232 20215 30157 40176 50003 74044 8210090545 333 10270 20174 30/// 55060 562// 58008 81818 81623
AAXX 31061 76695 32956 20701 10230 20211 30154 40160 58001 82030 90545333 10322 20180 30/// 55091 56/2/ 58001 82360
AAXX 31061 76737 01160 80000 10166 20153 38794 40161 50004 69991 75052886// 90535 333 10239 20109 31/// 55064 569// 58008 6999788703
AAXX 31061 76743 31940 00901 10235 20214 30146 40154 50003 70000 90540333 10285 20214 30/// 55456 59002
AAXX 31061 76762 32904 01301 10188 20162 38764 40104 51004 90552 33310320 20160 30/// 55095 21090 59005
AAXX 31061 76775 32960 01401 10156 20092 38531 40136 57005 90545 33310296 20102 30/// 55060 59003
AAXX 31061 76805 32560 23501 10244 20228 30131 40134 52010 82200 90545333 10310 20222 30/// 55094 21128 566// 59006 82830
AAXX 31061 76833 32958 03605 10254 20203 30128 40131 54000 90545 33310322 20250 30/// 55097 58001 92000
AAXX 31061 76845 32230 80000 10116 20109 37961 40148 58001 88600 90545333 10224 20066 30/// 55084 56200 58003 88600
AAXX 31061 76848 32450 60201 10151 20115 38396 40094 58002 86600 90550333 10265 20137 30/// 55072 56100 58001 86715
AAXX 31061 76311 32940 00000 10134 20064 39875 40147 52017 90540 33310332 20059 30/// 55084 58003
AAXX 31061 76640 31010 60000 10218 20215 30184 40195 52008 71044 8422/90540 333 10262 20174 30/// 55008 5669/ 58014 84801
AAXX 31061 76647 32365 20502 10221 20215 30158 40188 50002 82500 90550333 10318 20202 30/// 55066 56200 58009 82808
AAXX 31061 76741 31340 40503 10238 20210 30126 40144 52013 70144 8420090530 333 10270 20168 30/// 55056 561// 58/// 84809
AAXX 31061 76040 32902 00201 10116 20059 30139 40153 52001 90548 333 10248 20061 30///55091 59013 98602
AAXX 31061 76225 32920 00000 10064 21085 38648 40139 52005 90545 333 10223 20015 30/// 55093 58010
AAXX 31061 76342 32940 01702 10128 21013 39509 40203 52011 90550 333 10314 20100 30/// 55094 20558 58045
AAXX 31061 76382 32960 03601 10114 20061 38917 40145 52001 90548 333 10265 20030 30/// 55082 2//// 58010
AAXX 31061 76390 31950 02002 10067 21100 38252 40153 54000 70544 90530 333 10235 20025 30/// 55095 21525 58024
AAXX 31061 76393 31920 00000 10160 20090 39597 40160 52005 70500 90550 333 10314 20090 30/// 55095 58031
AAXX 31061 76423 32760 30000 10108 21079 38165 40120 52006 83060 90550 333 10250 20047 30/// 55078 21297 56090 58011 83358
AAXX 31061 76458 32960 00302 10158 20149 30140 40145 57001 90540 333 10264 20101 30/// 55086 59002
AAXX 31061 76525 32960 00306 10127 21099 37482 40100 52002 90540 333 10188 20098 30/// 55089 22472 58007
AAXX 31061 76548 32460 20502 10206 20203 30176 40186 50002 81130 90535 333 10276 20164 30/// 55071 56360 58019 81810
AAXX 31061 76556 32960 01502 10168 20143 39117 40118 52001 90534 333 10284 20124 30/// 55093 59002
AAXX 31061 76571 32910 30000 10138 20043 38172 40122 54010 80003 90550 333 10252 20052 30/// 55055 56005 58004
AAXX 31061 76577 32560 72303 10172 20132 38050 40101 52008 87500 90540 333 10260 20085 30/// 55062 56300 58000 87625
AAXX 31061 76593 32350 41404 10234 20226 30181 40183 52003 82560 90550 333 10310 20202 30/// 55080 21159 56330 58005 82620 82330
AAXX 31061 76644 32350 31202 10228 20214 30168 40181 52001 81270 90550 333 10318 20200 31/// 55065 20802 5611/ 58001 81810 82320
AAXX 31061 76654 31956 00000 10234 20213 30136 40140 50000 70544 90550 333 10288 20231 30/// 55050 20713 59014
AAXX 31061 76675 01560 02902 10055 20015 37392 40134 54000 69901 76066 90550 333 10212 20006 30/// 55067 2//// 58001 69907
AAXX 31061 76685 11550 80000 10126 20093 37886 40120 57004 60031 70296 887// 90550 333 10256 20080 31/// 55083 569// 58015 88727
AAXX 31061 76695 32956 20701 10230 20211 30154 40160 58001 82030 90545 333 10322 20180 30/// 55091 56/2/ 58001 82360
AAXX 31061 76743 31940 00901 10235 20214 30146 40154 50003 70000 90540 333 10285 20214 30/// 55456 59002
AAXX 31061 76775 32960 01401 10156 20092 38531 40136 57005 90545 333 10296 20102 30/// 55060 59003
AAXX 31061 76805 32560 23501 10244 20228 30131 40134 52010 82200 90545 333 10310 20222 30/// 55094 21128 566// 59006 82830
AAXX 31061 76848 32450 60201 10151 20115 38396 40094 58002 86600 90550 333 10265 20137 30/// 55072 56100 58001 86715
AAXX 31061 76311 32940 00000 10134 20064 39875 40147 52017 90540 333 10332 20059 30/// 55084 58003
AAXX 31061 76647 32365 20502 10221 20215 30158 40188 50002 82500 90550 333 10318 20202 30/// 55066 56200 58009 82808
BBXX UFTA 31061 99844 71217 11/93 92410 11283 21314 40039 54000 69932 73933 333 92382 555 48040
AAXX 31064 68383 36/// /0000 10213 20169 39914 48562 52008 333 20201 91000 555 10321 91016
AAXX 31064 48300 31560 10000 10260 20198 39844 40155 57028 70140 81100 333 58012
AAXX 31064 48327 32562 20602 10303 20170 39804 40154 57032 82200 333 58008
AAXX 31064 48331 32560 10000 10296 20184 39926 40154 57035 81100 333 58009
AAXX 31064 48353 31659 21207 10290 20153 39869 40156 57031 70500 82100 333 58009
AAXX 31064 48356 32960 01203 10277 20158 39967 40163 57030 333 58009
AAXX 31064 48375 NIL
AAXX 31064 48378 32560 12005 10314 20175 30097 40149 57028 81101 333 58010
AAXX 31064 48381 32962 00604 10287 20163 39940 40156 56034 333 58011
AAXX 31064 48407 32960 30105 10290 20161 30003 40143 57027 80001 333 58010
AAXX 31064 48431 31959 10405 10276 20182 39940 40153 57033 70500 80001 333 58014
AAXX 31064 48456 NIL
AAXX 31064 48480 32560 60503 10305 20190 30116 40120 57026 84836 333 58006
AAXX 31064 48500 31556 50405 10302 20216 30129 40136 57016 70511 82505 333 58011
AAXX 31064 48551 31557 50306 10295 20240 30118 40126 57013 71011 83856 333 58008
AAXX 31064 48565 32560 60912 10313 20227 30110 40119 52002 82246 333 58009
AAXX 31064 48569 01458 80910 10258 20224 30090 40131 56010 69921 76062 85877 333 58016 69925 70164
AAXX 31064 48583 01456 80408 10256 20237 30110 40116 57015 60061 76062 8382/ 333 58003 60065 70568
AAXX 31064 91930 06/// ///// 10260 20233 69961 333 69947 555 69984
AAXX 31064 91943 36/// /0811 10269 20221 30137 40139 51016 333 20268 58002
AAXX 31064 89061 379// 01202 10016 21010 39669 49675 52023 70041 333 91004 91106
AAXX 31064 68024 12960 11205 10236 20192 48514 52016 69904 81082 333 20191
AAXX 31064 68029 12360 80704 10220 20207 48513 52017 60154 86570 333 20200
AAXX 31064 68030 12460 70306 10215 20207 48510 52018 60064 86570 333 20201
AAXX 31064 68032 32460 40809 10240 20212 48513 52019 84500 333 20208
AAXX 31064 68038 32960 20910 10231 20190 48510 50015 80002 333 20192
AAXX 31064 68040 42960 60207 10230 20181 48514 52012 81072 333 20175
AAXX 31064 68054 42360 50806 10203 20179 48530 51018 82580 333 20173
AAXX 31064 68070 32560 60707 10225 20188 48523 52012 82588 333 20181
AAXX 31064 68148 32460 40312 10220 20183 48519 52013 84500 333 20160
AAXX 31064 68226 32960 20209 10244 20195 48504 51012 81082 333 20206
AAXX 31064 68240 32460 20504 10228 20174 48520 52016 81570 333 20186
AAXX 31064 68325 12960 20905 10210 20181 48513 52013 60014 82084 333 20171
AAXX 31064 68328 32960 10105 10238 20188 48509 52012 80002 333 20197
AAXX 31064 48310 32562 22304 10285 20174 39703 40153 57030 82500 333 58007
AAXX 31064 48325 31662 30106 10310 20205 39898 40137 57037 70141 83500 333 58007
AAXX 31064 48329 31556 20000 10298 20190 39814 40148 57028 70500 82800 333 58005
AAXX 31064 48352 32962 03404 10280 20158 39962 40162 57032 333 58011
AAXX 31064 48357 32961 10705 10285 20155 39996 40164 57029 80001 333 58008
AAXX 31064 48380 31657 13401 10300 20200 30060 40153 57028 70520 81100 333 58012
AAXX 31064 48383 31959 00405 10282 20167 39992 40151 56034 70500 333 58004
AAXX 31064 48403 31558 20000 10295 20177 39940 40148 57032 70500 81505 333 58008
AAXX 31064 48405 31958 20408 10285 20174 39992 40154 57028 70500 80005 333 58014
AAXX 31064 48420 31956 20511 10304 20196 30133 40138 57021 70500 81045 333 58009
AAXX 31064 48421 31557 20000 10334 20191 30024 40135 57031 70500 82200 333 58013
AAXX 31064 48425 31958 20604 10300 20185 30137 40147 57026 70500 80005 333 58007
AAXX 31064 48426 32960 00000 10320 20192 30129 40142 57024 333 58009
AAXX 31064 48429 32560 30614 10301 20173 30135 40142 58020 81101 333 58012
AAXX 31064 48430 31959 20912 10315 20184 30133 40140 56022 70500 80002 333 58009
AAXX 31064 48450 31956 00205 10315 20174 30097 40130 57039 70500 333 59003
AAXX 31064 48459 32560 10604 10330 20204 30126 40128 57025 81100 333 58007
AAXX 31064 48465 31958 20310 10309 20196 30135 40139 57022 70500 80005 333 58013
AAXX 31064 48550 31458 60405 10290 20244 30118 40125 57012 71022 82846 333 58008
AAXX 31064 48552 31458 83303 10280 20233 30117 40123 57015 71022 84907 333 58004
AAXX 31064 48566 32560 70803 10273 20232 30122 40130 57009 82847 333 58024
AAXX 31064 48568 01440 81010 10231 20226 30124 40131 57004 60301 76062 8397/ 333 58018 60285 70978
AAXX 31064 48302 31558 50000 10192 20155 38519 40141 57017 71011 83806 333 58001
AAXX 31064 48304 32565 20000 10280 20194 39703 40159 57026 82100 333 58010
AAXX 31064 48334 31556 20000 10285 20180 39796 40154 57025 70500 82200 333 58015
AAXX 31064 48360 31960 00605 10270 20157 39900 40160 57020 70500 333 58017
AAXX 31064 48372 NIL
AAXX 31064 48373 31558 20000 10315 20187 30087 40149 57025 70500 81101 333 58016
AAXX 31064 48386 31950 01703 10296 20202 30102 40146 57028 70500 333 58014
AAXX 31064 48387 31558 20906 10235 20170 39194 40146 57024 71000 82500 333 58015
AAXX 31064 48408 32560 20208 10305 20180 39992 40140 58030 81105 333 58006
AAXX 31064 48415 32962 00614 10310 20187 30133 40144 57023 333 58007
AAXX 31064 48433 NIL
AAXX 31064 48437 32965 20305 10290 20180 39942 40151 57031 80005 333 58010
AAXX 31064 48440 31558 10605 10317 20203 30085 40134 57030 70500 81100 333 58012
AAXX 31064 48451 32564 60104 10280 20199 30139 40150 57023 83570 333 58010
AAXX 31064 48454 31559 20916 10311 20180 30066 40073 57086 70500 81105 333 59050
AAXX 31064 48457 31558 60512 10270 20208 30122 40138 58022 71021 82106 333 58009
AAXX 31064 48463 31558 20102 10340 20224 30047 40138 57019 70500 82101 333 58003
AAXX 31064 48464 32560 20304 10302 20202 30119 40131 57021 81130 333 58006
AAXX 31064 48479 31562 40402 10332 20192 30077 40128 57024 70511 82106 333 58012
AAXX 31064 48520 31559 60404 10288 20217 30119 40134 56012 71022 82546 333 58012
AAXX 31064 48554 31458 80000 10277 20248 30116 40120 57016 71022 84827 333 58003
AAXX 31064 48563 32560 60708 10302 20214 30082 40118 57012 82246 333 58009
AAXX 31064 48571 01461 80528 10255 20225 30120 40131 57002 69961 76122 83236 333 58020 69947 70212
AAXX 31064 03008 16/// /2417 10086 20086 39855 49923 56009 60082 90550 333 20036 70092
AAXX 31064 03010 46/// /2620 10090 20089 49937 51006 333 90710 91132
AAXX 31064 03014 46/// /2515 10033 20025 39888 49914 50009 90550 333 8////
AAXX 31064 03031 17580 /2708 10059 20034 39652 49975 50003 60022 723// 90550 333 20011 3/001 55/// 553// 20000 70110 85/27 84/34
AAXX 31064 03034 17571 /2213 10088 20061 39963 49977 50003 60042 723// 90550 333 20068 3/006 70140 87/20 84/31
AAXX 31064 03037 15562 /2209 10082 20060 39967 49989 55001 60012 90550 333 20082 3/007 70110 84/26 86/63
AAXX 31064 03039 46/// /2119 10031 20013 90550 333 20029 90710 91128
AAXX 31064 03041 46/// /2419 10002 20002 90550 333 20000 90710 91143 91036
AAXX 31064 03044 15576 /2305 10075 20055 39858 49956 51002 60042 90550 333 20031 3/003 55/// 553// 20000 70066 86/21 83/30
AAXX 31064 03047 15580 /2209 10072 20032 39706 40005 50005 60022 90550 333 20028 3/002 55/// 553// 20000 70128 81/23 86/27
AAXX 31064 03062 15682 /2110 10071 20054 39961 49965 52001 60032 90550 333 20031 3/002 55/// 553// 20000 70100 81/41
AAXX 31064 03065 46/// /2533 10002 20002 90550 333 20002 90710 91149 91046
AAXX 31064 03068 12684 82413 10084 20066 39961 49970 52005 60042 85532 90550 333 20028 32002 70058 85640 83365 88075
AAXX 31064 03080 15984 /2612 10074 20057 39809 49977 50001 60042 90550 333 21005 3/102 70068 83/66 87/71
AAXX 31064 03088 15984 /2413 10065 20057 39822 49984 53003 60062 90550 333 20023 3/002 55/// 553// 20000 70100 87/71
AAXX 31064 03094 15669 /2517 10089 20064 39959 49963 51003 60072 90550 333 20022 3/002 70074 81/39 86/57 86/73 90710 91125
AAXX 31064 03105 17457 /2409 10093 20086 30006 40023 58007 69982 723// 90550 333 20089 3/007 70156 81/11 84/25
AAXX 31064 03132 15574 /1903 10077 20071 30028 40041 58008 60012 90550 333 20077 3/004 70160 81/28
AAXX 31064 03144 15682 /2107 10077 20061 39962 40005 51001 60012 90550 333 20010 3/001 55/// 553// 20000 70084 86/30 85/67
AAXX 31064 03148 46/// /2712 10043 20043 90550 333 21004 90710 91129
AAXX 31064 03153 15570 /2512 10087 20079 39905 40041 50000 60032 90550 333 20076 3/007 55/// 553// 20000 70182 87/29 85/37
AAXX 31064 03155 16478 /2513 10073 20057 39729 40023 50003 60022 90550 333 20051 3/005 70070 81/13 87/29 90710 91125
AAXX 31064 03158 15684 /2411 10079 20057 39874 40010 50002 60012 90550 333 20010 3/000 55/// 553// 20000 70108 83/31 86/67
AAXX 31064 03210 16669 /2508 10081 20077 39906 40057 55000 60062 90550 333 20064 3/006 70204 83/31 83/60 90710 91126
AAXX 31064 03212 15480 /2805 10098 20071 39953 40051 52004 60102 90550 333 20057 3/005 70140 81/15 85/18 85/35
AAXX 31064 03214 17960 /2614 10090 20084 30037 40055 58003 60022 710// 90550 333 20060 3/006 70108 84/58 85/62
AAXX 31064 03220 16680 ///// 10093 20081 30002 40036 50000 60012 90550 333 20057 3/005 70070 86/37 87/68
AAXX 31064 03225 16580 /2609 10088 20047 39746 40048 50000 60012 90550 333 20043 3/003 55/// 553// 20000 70046 83/29 86/62
AAXX 31064 03226 15584 /3210 10089 20071 39771 40043 52002 60022 90550 333 20041 3/004 70114 81/23 87/27
AAXX 31064 03227 46/// /2842 10035 2//// 90550 333 21001 90710 91153
AAXX 31064 03230 16682 /2508 10079 20060 39772 40026 53003 60052 90550 333 20007 3/000 70096 85/30 85/67
AAXX 31064 03238 15484 /2610 10090 20073 39855 40026 53003 69942 90550 333 20029 3/003 70072 85/10 83/18 90710 91128
AAXX 31064 03261 16980 /2615 10107 20076 30004 40044 55001 60002 90550 333 20042 3/004 70062 88/69 90710 91127 91025
AAXX 31064 03265 15983 /2716 10115 20074 30013 40043 57001 69902 90550 333 20043 3/004 70048 81/62 87/68
AAXX 31064 03266 16484 /2615 10107 20084 30027 40044 58003 60002 90550 333 20045 3/004 70050 85/18 86/30
AAXX 31064 03275 15980 /2514 10083 20069 39839 40029 51004 60022 90550 333 20028 3/003 70064 8//99
AAXX 31064 03281 16/// /2613 10080 20080 60022 90550 333 20020 70068
AAXX 31064 03903 16363 /2011 10105 20105 39982 40039 58020 60022 90550 333 20095 3/009 55/// 553// 20000 70076 82/08 87/56
AAXX 31064 03904 16475 /2109 10102 20093 39973 40032 58018 69942 90550 333 20094 3/008 70052 86/10
AAXX 31064 03907 15382 /2112 10101 20088 30018 40025 56018 69902 90550 333 20089 3/008 55000 55300 20000 70090 87/09
AAXX 31064 03911 16150 /2207 10090 20090 39769 40038 58011 69962 90550 333 20084 3/007 70126 88/02
AAXX 31064 03915 16264 /1505 10092 20092 39956 40033 56015 69922 90550 333 20092 3/007 70086 86/03 86/09
AAXX 31064 03916 16384 /2503 10088 20078 39843 40031 55008 60012 90550 333 20082 3/007 55/// 553// 20000 70114 87/09
AAXX 31064 03923 17241 /2410 10098 20098 39851 40044 58011 69962 761// 90550 333 20093 3/007 70062 88/04
AAXX 31064 03301 16468 /2316 10104 20104 30003 40076 56012 69922 90550 333 20104 70062 88/17
AAXX 31064 03305 17450 /2525 10107 20088 39815 40073 55004 60032 704// 90550 333 20104 3/009 70120 87/11 90710 91139
AAXX 31064 03313 16487 /2810 10120 20095 39982 40074 50000 69922 90550 333 20117 3/010 70044 87/16
AAXX 31064 03316 15463 /2622 10096 20087 30057 40067 58004 60022 90550 333 20074 3/007 70106 81/10 85/58 90710 91127
AAXX 31064 03318 16/// /2615 10092 20085 60012 90550 333 20078 70084
AAXX 31064 03321 16580 /1602 10106 20092 30064 40076 52005 69962 90550 333 20076 3/007 55/// 553// 20000 70050 85/24 86/58
AAXX 31064 03330 17162 /2809 10088 20087 39721 40078 53002 60082 723// 90550 333 20049 3/005 70150 84/02 87/07
AAXX 31064 03344 15381 /2710 10088 20078 39745 40059 52003 60022 90550 333 20047 3/004 70054 86/06 84/14 91020
AAXX 31064 03346 16/// /2825 10091 20083 69962 90550 333 20044 3/004 70040 90710 91134
AAXX 31064 03348 17459 /2810 10103 20093 39967 40074 52002 60052 757// 90550 333 20069 3/007 55000 55300 20000 70106 85/12 87/25
AAXX 31064 03355 15485 /2714 10113 20091 30039 40049 53004 69902 90550 333 20047 3/004 55007 55300 20000 70032 81/18 87/70
AAXX 31064 03373 16461 /2311 10098 20093 39991 40060 54000 69982 90550 333 20044 3/005 70038 81/11 87/14
AAXX 31064 03379 16274 /2517 10102 20101 39989 40065 57004 60012 90550 333 20045 3/004 70036 82/05 87/27
AAXX 31064 03382 15481 /2412 10104 20095 30035 40044 50000 60022 90550 333 20045 3/004 55013 55300 20000 70036 86/15
AAXX 31064 03385 46480 /2408 10097 20096 30044 40054 52002 90550 333 20044 87/15 87/26
AAXX 31064 03391 12582 72615 10103 20092 30052 40060 58002 60022 83532 90550 333 20047 31004 70048 83626 84368 86072
AAXX 31064 03392 16574 /2513 10095 20094 30057 40061 55001 60022 90550 333 20047 3/004 70044 81/28
AAXX 31064 03405 16463 /2518 10100 20100 39975 40090 56014 60002 90550 333 20100 3/010 55/// 553// 20000 70064 82/14 84/58 87/64 90710 91125
AAXX 31064 03409 16/// /2410 10099 20092 60002 90550 333 20096 3/009 55000 55300 2//// 70022
AAXX 31064 03410 16132 /2621 10089 20089 39650 40079 55002 60032 90550 333 20089 3/008 55/// 553// 20000 70078 87/02 85/11 90710 91133
AAXX 31064 03469 15584 /2507 10099 20097 30066 40069 53002 60012 90550 333 20048 3/004 55/// 553// 20000 70030 82/28 83/32
AAXX 31064 03488 17781 /2517 10105 20098 30036 40062 51002 60042 757// 90550 333 20043 70058 87/50 90710 91125
AAXX 31064 03503 17264 /2509 10107 20103 30023 40099 56005 69962 723// 90550 333 20101 3/010 70106 87/04 85/17 90710 91128
AAXX 31064 03507 17268 /2803 10095 20095 39736 40104 55005 60032 781// 90550 333 20095 3/009 70142 88/03
AAXX 31064 03520 16480 /2402 10118 20094 39973 40092 53002 69962 90550 333 20062 3/005 55/// 553// 20000 70036 88/15
AAXX 31064 03522 15481 /2507 10119 20107 30007 40099 56003 69922 90550 333 20077 3/007 70030 88/14
AAXX 31064 03529 15481 /2107 10114 20097 30056 40099 55001 69902 90550 333 20084 3/008 70058 88/18
AAXX 31064 03544 15482 /2306 10104 20095 39954 40083 57005 60012 90550 333 20059 3/006 55/// 553// 20000 70050 88/14
AAXX 31064 03560 17482 /2409 10105 20097 39981 40084 52002 60022 723// 90550 333 20052 3/005 55/// 553// 20000 70046 88/15
AAXX 31064 03604 16157 /2815 10108 20104 30056 40109 56010 60002 90550 333 20107 3/011 70052 88/02 90710 91128
AAXX 31064 03605 16257 /2715 10106 20101 30104 40112 56008 69962 90550 333 20106 70042 88/05 90710 91126
AAXX 31064 03609 16/// /2521 10106 20103 30066 40118 55003 60012 90550 333 20100 3/010 70050 90710 91133
AAXX 31064 03628 17274 /2518 10103 20099 30037 40109 50000 69902 751// 90550 333 20102 3/010 55000 55300 20000 70026 88/04 90710 91125
AAXX 31064 03647 16264 /2511 10099 20097 39843 40095 57002 69942 90550 333 20068 3/007 55/// 553// 20000 70062 87/04 84/11
AAXX 31064 03658 16371 /2410 10111 20097 30033 40102 58003 60012 90550 333 20071 3/007 70052 82/09 87/59
AAXX 31064 03660 15268 /2806 10100 20095 39854 40099 55001 60012 90550 333 20057 3/006 70046 87/05
AAXX 31064 03672 16485 /2712 10112 20095 30059 40099 57001 60012 90550 333 20066 3/006 70044 85/13 85/57
AAXX 31064 03684 17480 /2409 10103 20094 39981 40087 53002 60052 723// 90550 333 20048 3/005 70070 87/12
AAXX 31064 03693 16480 /2608 10112 20101 30092 40094 52003 60032 90550 333 20056 3/005 70050 88/16
AAXX 31064 03707 17221 /2718 10111 20111 30123 40130 55003 69982 723// 90550 333 20109 3/011 70090 88/03 90710 91128
AAXX 31064 03710 16226 /2716 10093 20093 39708 40125 57003 60032 90550 333 20092 3/009 55/// 553// 20000 70094 87/03 85/11 90710 91129
AAXX 31064 03743 16260 /2508 10103 20100 39957 40116 54000 69942 90550 333 20085 3/008 70050 87/05 85/17
AAXX 31064 03749 16462 /2713 10107 20100 30005 40114 56003 69942 90550 333 20082 3/008 70048 88/12
AAXX 31064 03761 17360 /2611 10105 20093 39971 40113 55000 69962 704// 90550 333 20073 3/007 55000 55300 20000 70040 88/07
AAXX 31064 03768 16481 /2809 10115 20095 30032 40110 55000 60022 90550 333 20070 3/007 70058 86/13 86/23
AAXX 31064 03769 17485 /2711 10114 20097 30024 40104 56004 6///2 723// 90550 333 20061 3/006 55000 55300 20000 7//// 84/13 88/60
AAXX 31064 03781 17384 /2614 10104 20095 39898 40102 56003 60032 723// 90550 333 20052 3/005 55/// 553// 20000 70062 86/07 86/18 85/21 90710 91125
AAXX 31064 03797 17583 /2712 10112 20095 30036 40096 52002 60092 781// 90550 333 20048 3/004 55002 55300 20000 70116 85/20 87/57
AAXX 31064 03823 17124 /2716 10104 20104 39901 40142 58009 60032 751// 90550 333 20097 3/010 55/// 553// 20000 70184 88/02
AAXX 31064 03839 16/// ///// 10119 20111 60012 90550 333 20115 55/// 553// 20000 70048
AAXX 31064 03857 15461 /2721 10110 20110 30065 40128 55009 60002 90550 333 20108 3/010 70030 87/15 86/23 90710 91130
AAXX 31064 03862 15481 /2706 10117 20099 30111 40123 57001 69922 90550 333 20103 3/009 55000 55300 20000 70026 88/14
AAXX 31064 03866 16/// /2617 10107 20097 30097 40122 55003 60002 90550 333 20103 3/010 70066
AAXX 31064 03872 15483 /2804 10108 20102 30113 40118 55001 69922 90550 333 20086 3/009 55/// 553// 20000 70054 88/13
AAXX 31064 03876 16/// /2905 10112 20104 30112 40115 53001 60012 90550 333 20082 70042
AAXX 31064 03895 41025 82821 10113 20108 40164 57005 72854 886// 333 20110 84701 87703 90710 91129
AAXX 31064 03896 16/// ///// 10117 60022 333 20115 55000
BBXX PBAD 31061 99154 70618 414// 10717 10270 20210 40149 57021 70100 8/1// 22234 00280 20402 308// 40705 5//// 80230
BBXX WFLH 31063 99227 71545 41498 30910 10222 20199 40172 52010 7//00 832// 22224 00228 20202 332// 40806 5//// 6//// 80206 ICE /////
BBXX NWS0029 31064 99415 70707 43/// /1404 10091 20071 40168 5//// 7//// 8//// 222// 04067 2//// 3//// 4//// 5//// 6//// 8//// ICE /////
BBXX KAOU 31064 99002 10841 43/// /1291 10280 20234 40106 5//// 7//// 8//// 222// 04286 2//// 3//// 4//// 5//// 6//// 8//// ICE /////
BBXX NWS0003 31064 99539 71665 43/// /3500 11044 21084 40133 5//// 7//// 8//// 222// 0//// 2//// 3//// 4//// 5//// 6//// 8//// ICE /////
BBXX NWS0021 31064 99322 70663 43/// /1509 10215 20191 40215 5//// 7//// 8//// 222// 04220 2//// 3//// 4//// 5//// 6//// 8//// ICE /////
BBXX NWS0020 31064 99261 70779 43/// /2306 10223 20162 40199 5//// 7//// 8//// 222// 04245 2//// 3//// 4//// 5//// 6//// 8//// ICE /////
BBXX C6XC2 31064 99310 11260 41498 83214 10100 20037 40250 54000 70322 8897/ 22272 00180 20402 332// 40503 5//// 6//// 80070 ICE /////
BBXX ZCDG7 31064 99320 71171 41297 83213 10128 20126 40175 53008 70242 887// 22274 00160 20101 333// 40302 5////
BBXX WDE3569 31064 99431 70870 41/98 63624 10027 2//// 40051 53000 70222 86/// 22203 0//// 20202 3//// 4//// 5//// 6//// 8//// ICE /////
BBXX WXJ63 31063 99611 71464 41/94 80708 11075 21096 49985 52/// 771// 8//// 222// 0//// 2//// 3//// 4//// 5//// 6//// 8//// ICE /////
BBXX PHSG 31064 99102 70861 41/98 10624 10270 40110 54000 70200 8//// 22234 00290 20402
BBXX WE3592 31064 99450 70863 43/// /0110 10016 2//// 40091 5//// 7//// 8//// 222// 0//// 2//// 3//// 4//// 5//// 6//// 8//// ICE /////
BBXX 44008 31061 99405 70692 46/// /1605 10124 20102 40185 58014 90550 22200 00118 10402 20401 317// 40801 70010 333 91206 555 11058 22063 30538 41606 60549 161053 162051 163051 162052 163050 168049
BBXX 41041 31061 99142 70460 46/// /0708 10256 20208 40161 58009 90550 22200 00261 10906 20704 3//// 40905 70030 333 91210 555 11086 22091 30500 40811 60549 070079 080074 082086 083082 087088 082089 80810 90501
BBXX 41038 31061 99341 70777 46/// /2202 10148 40161 58016 90600 22200 00131 333 91203
BBXX 46083 31061 99582 71380 46/// /2809 11006 21060 40059 53025 90550 22200 00063 11109 20605 300// 41108 70046 333 91211 555 11091 22097 30510 42515 60549 277083 262096 262113 255122 260114 258100 82614 90511
BBXX 46001 31061 99563 71480 46/// /2612 11021 40057 51019 90550 22200 00042 10908 20606 300// 40906 70041 333 91215 555 11122 22128 30516 42717 60549 264115 268123 262123 265118 269118 259125
BBXX MGRH9 31064 99266 31532 41597 51424 10250 20170 40133 57002 7//22 855// 22200 00245 20801 312// 40802 5//// 80200
BBXX MIBR 31063 99149 30711 41597 71915 10275 20231 40097 53020 70122 877// 22254 00281 20302 314// 40808 5//// 80245
BBXX ZQAY4 31064 99160 31529 41597 31419 10270 20234 40051 53013 76066 83300 22243 00306 21003 31414 41205 50703 80245
BBXX VQNW6 31064 99028 30879 41/98 13613 10280 20244 40121 51003 701// 8///2 22233 00283 20202 327// 40503 5//// 80255
BBXX PCCL 31063 99392 31522 41397 33310 10189 40180 57011 70222 832// 22263 04204 20501 330// 40804
BBXX A8IH2 31063 99029 71474 41/98 60712 10250 21000 40120 53010 7//22 86160 22254 06250 21202 312// 41002 5//// 80125
BBXX A8KX4 31064 99418 51375 41/// /1430 10155 20118 40085 56010 75352 8//// 22264 04147 20308 324// 40506 80135
AAXX 31061 26554 31436 81601 11002 21014 39898 40063 53004 71022 886// 333 21003 555 90011
AAXX 31061 26666 31256 81901 11006 21015 39860 40078 54000 71022 886// 333 21013 88705 555 90012
AAXX 31061 26850 11256 81701 10000 21012 39793 40066 53002 69902 77172 885// 333 21004 88705 555 90010
AAXX 31061 26863 11215 81603 11005 21008 39846 40086 53001 69902 77172 8872/ 333 21006 88704
AAXX 31061 26941 11335 82403 10004 21002 39832 40072 53007 69962 72272 887// 333 20000 43001 88708 555 90010
AAXX 31061 26951 11350 82003 10002 21009 39876 40078 53006 69932 77172 8802/ 333 20002 88507 555 90011
AAXX 31061 33008 31345 82102 10011 21006 39892 40072 52002 71022 886// 333 20011 88708 555 90010
AAXX 31061 33019 11337 81201 11003 21009 39907 40084 52006 69932 71072 886// 333 21004 47001 88707 555 90010
AAXX 31061 33036 31119 71701 11005 21008 39860 40095 52003 71022 87500 333 21011 86702 555 90011
AAXX 31061 33041 31456 71301 10002 21004 39948 40106 53008 71022 875// 333 20000 87618 555 90012
BBXX PDMK 31063 99359 70066 41998 00510 10151 20104 40317 54000 70200 80000 22223 02154 20000 30000 80124
BBXX UCAB 31061 99598 10033 41/98 91611 10050 49992 57010 70022 8//// 22213 00090 20806
BBXX VRFX8 31064 99503 70138 41/95 /2715 10130 20110 40150 54000 74544 8//// 22224 0//// 2//// 3//// 4//// 80120
BBXX TBWUK35 31064 99539 10040 41/96 81925 40035 57017 75822 8//// 22242 00090 2//// 80075
BBXX A8OH4 31063 99321 70197 41597 50415 10180 20112 40320 58020 70011 842// 22224 04230 29903 80140
AAXX 31064 70026 NIL
AAXX 31064 70133 NIL
AAXX 31064 70174 NIL
AAXX 31064 70200 NIL
AAXX 31064 70219 NIL
AAXX 31064 70231 NIL
AAXX 31064 70261 NIL
AAXX 31064 70267 NIL
AAXX 31064 70271 NIL
AAXX 31064 70273 NIL
AAXX 31064 70308 NIL
AAXX 31064 70316 NIL
AAXX 31064 70326 NIL
AAXX 31064 70340 NIL
AAXX 31064 70350 NIL
AAXX 31064 70361 NIL
AAXX 31064 70381 NIL
AAXX 31064 70398 NIL
AAXX 31064 70414 NIL
BBXX 51000 31061 99235 71541 46/// /0803 10217 40193 51008 90550 22200 00228 11204 20401 328// 41204 70020 333 91204 555 11029 22030 30454 40805 60549 078028 087031 083032 080037 075041 083040
BBXX 51003 31061 99193 71606 46/// /0604 10235 40171 51007 90550 22200 00250 11004 20301 3//// 41004 70019 333 91205 555 11037 22039 30549 40705 60549 054036 056034 052023 045020 042025 043026
AAXX 31061 15015 02597 82301 11012 21018 39525 42737 52008 60002 885// 333 11006 21018 3/107 43007 60007 70006 91001 91102 92821
AAXX 31061 15020 01493 82601 11048 21048 39931 40138 53009 60002 74441 886// 333 10002 21048 34105 60007 70001 91001 91102 92600
AAXX 31061 15090 01491 82801 11032 21032 30041 40137 52012 60002 74611 886// 333 10010 21043 34103 55300 10069 20002 3//// 60007 70002 91002 91103 92611
AAXX 31061 15108 01698 33204 11100 21100 37982 48418 53009 60002 70344 81041 333 11092 21104 3//// 48018 60007 70003 92803 95000
AAXX 31061 15120 01996 50901 11038 21038 39641 40157 53009 60002 71042 85070 333 11008 21045 3/106 43004 55300 10054 2//// 3//// 60007 70005 91001 91102 92717 92822 93504
AAXX 31061 15150 01293 80000 11016 21016 39917 40136 52010 60002 744// 886// 333 10008 21016 31100 60007 70000 91000 91102
AAXX 31061 15170 02997 30502 11066 21071 39339 42737 53012 60002 82041 333 11013 21068 3/108 43002 60007 70000 91002 91102 92870
AAXX 31061 15200 01/91 92101 11011 21011 30007 40157 53010 60002 74741 333 11006 21029 34103 60007 70000 91003 91103 92600
AAXX 31061 15230 01596 83000 11030 21030 39856 40162 52008 60002 71011 885// 333 10007 21033 34103 55300 10100 20003 3//// 60007 70002 91001 91101 92600
AAXX 31061 15260 02597 83301 11010 21013 39605 40156 52009 60002 8657/ 333 11003 21021 3/102 41998 60007 70003 91001 91102
AAXX 31061 15280 01/93 83204 11123 21133 37376 47905 53004 69972 77174 8557/ 333 11093 21124 3//// 49035 69977 70007 92848 96041
AAXX 31061 15292 01/92 91500 11026 21026 39854 40160 52008 60002 74744 333 11018 21034 3/104 47002 60007 70004 91001 91102 92611 92822
AAXX 31061 15310 01495 80201 10001 21002 30050 40139 53012 69902 71022 886// 333 10008 20001 31000 55300 10019 20001 30001 60007 70000 91003 91104
AAXX 31061 15335 01496 81600 10000 20000 30128 40135 53011 60002 710// 886// 333 10015 21009 31000 60007 70000 91000 91101
AAXX 31061 15346 01596 61901 11006 21007 39832 40130 53006 60002 71022 86500 333 10019 21008 31101 60007 70000 91001 91101
AAXX 31061 15350 01492 80603 10000 20000 30015 40139 53010 60002 74442 886// 333 10008 21007 31100 60007 70000 91005 91105
AAXX 31061 15360 01996 83402 10006 20001 30114 40129 53009 60002 71022 8807/ 222// 06048 20000 333 10026 20003 3//// 60007 70000 91003 91104 92406
AAXX 31061 15410 02597 80101 11017 21022 30037 40137 53011 60002 885// 333 10010 21024 34105 60007 70000 91001 91101 92600
AAXX 31061 15420 01/92 90402 11011 21011 30015 40130 53009 60002 74341 333 11008 21045 34105 55300 0//// 20000 3//// 60007 70000 91002 91102 92600
AAXX 31061 15450 01996 73202 11028 21030 39889 40133 53012 60002 71011 87070 333 10010 21031 34104 55300 10087 20003 3//// 60007 70000 91003 91103 92611
AAXX 31061 15460 01995 71600 11007 21010 30105 40131 53011 60002 7102/ 87070 333 11001 21032 34104 60007 70000 91001 91101 92611
AAXX 31061 15470 01996 72600 11022 21022 39999 40130 53011 60002 7102/ 87070 333 10002 21029 34104 60007 70000 91001 91102 92600
AAXX 31061 15480 01496 62700 10001 20001 30115 40132 52012 60002 71011 86600 222// 06058 2//// 333 10024 21006 34101 60007 70000 91001 91101 92600 92416
BBXX 46089 31061 99459 71258 46/// /2904 10078 20008 40251 52026 90550 22200 00093 11109 20401 329// 41109 70046 333 91206 555 11042 22043 30539 43007 60549 289042 277047 272029 277019 304018 297024
BBXX 46042 31061 99368 71224 46/// /3408 10120 40223 51004 90550 22200 00125 11607 20502 330// 41607 70034 333 91210 555 11084 22089 30549 43410 60549 336079 340078 341077 343072 343073 343075
BBXX 46053 31061 99342 71198 46/// /0803 10123 40162 58003 90550 22200 00140 11703 20401 327// 41703 70017 333 91204 555 11035 22036 30537 40805 60549 078033 082035 087033 095033 091028 083019
BBXX DBBC 31061 99535 10100 46/// /2002 10018 20012 40113 57006 22220 00056
AAXX 31061 10270 16359 72101 10001 21004 30072 40129 51007 69902 222// 06042 333 10045 20001 3/103 55018 55300 70017 87/08 87/50
AAXX 31061 10946 07/29 /1902 11009 21011 39328 40181 56016 60022 77175 333 10004 21016 3/105 4/006 55000 55300 20000 30000 60017 70036
BBXX DBEB 31061 99539 10079 41/// /2007 10032 20032 40094 57007 7//// 22200 00060
BBXX DBKR 31061 99541 10121 46/// /2303 10020 20020 40108 52005 22200 00054
BBXX DBBA 31061 99541 10121 46/// /9901 10023 20014 40108 52005 22220 00057
BBXX DBBI 31061 99535 10100 46/// /2002 10017 20017 40110 57005 22200 00054
BBXX DBFH 31061 99535 10086 46/// /1903 10024 20018 40108 57007 22200 00053
BBXX DBCK 31061 99/// ///// 46/// ///// 10023 20023 40102 57009 22220 00056
AAXX 31064 48307 32562 30000 10301 20190 39780 40154 57033 82255 333 58011
AAXX 31064 48324 32560 20704 10310 20163 39928 40144 57032 82105 333 58012
AAXX 31064 48333 32560 10000 10295 20187 39858 40156 57031 81100 333 58010
AAXX 31064 48350 NIL
AAXX 31064 48355 31956 00000 10275 20152 39947 40166 57029 70500 333 58015
AAXX 31064 48358 32960 10906 10275 20143 39997 40172 57025 80001 333 58011
AAXX 31064 48384 32960 00903 10290 20177 39967 40156 57032 333 58012
AAXX 31064 48401 31957 20904 10310 20207 30043 40150 57030 70500 80005 333 58010
AAXX 31064 48404 31959 00709 10291 20189 39967 40144 58034 70500 333 58004
AAXX 31064 48409 32960 20102 10292 20190 39992 40139 57034 80001 333 58008
AAXX 31064 48419 31958 50404 10317 20192 30132 40140 56023 70511 80005 333 58009
AAXX 31064 48427 NIL
AAXX 31064 48435 32962 10922 10273 20163 39711 40146 57025 80001 333 58013
AAXX 31064 48453 32560 20406 10310 20187 30133 40136 57025 81105 333 58011
AAXX 31064 48458 32561 10506 10316 20192 30070 40149 57025 81100 333 58012
AAXX 31064 48474 31557 33305 10318 20187 30010 40132 57027 70500 82205 333 58015
AAXX 31064 48481 32560 70304 10312 20166 30097 40124 57020 85551 333 58009
AAXX 31064 48555 31550 73502 10285 20252 30110 40152 55011 71022 85176 333 58003
AAXX 31064 48556 32460 70210 10282 20243 30103 40119 57018 83877 333 58006 70008
AAXX 31064 48557 32560 60403 10293 20230 30085 40120 57018 86806 333 58006
AAXX 31064 48560 01520 80000 10256 20241 30122 40127 56008 60071 76166 84876 333 58011 69987 70230
AAXX 31064 48574 01561 70504 10270 20236 30101 40131 57008 69901 70262 84246 333 58021 69906 70180
AAXX 31064 48581 01556 81204 10290 20253 30086 40128 57013 60101 71062 83256 333 58010 60087 70374
BBXX 41101 31064 99146 70562 46/// /0822 10244 20204 40150 57010 22200 00268 10806 70030 555 1/031
BBXX TFBKF 31064 99635 70202 46/// ///// 22200 10705 70025
BBXX TFDRN 31064 99658 70212 46/// ///// 22200 10502 70012
BBXX TFGRS 31064 99663 70182 46/// ///// 22200 10703 70014
BBXX TFGRV 31064 99638 70225 46/// ///// 22200 10807 70037
BBXX TFGSK 31064 99641 70229 46/// ///// 22200 10807 70035
BBXX TFHFN 31064 99642 70152 46/// ///// 22200 10606 70031
BBXX TFKGR 31064 99657 70136 46/// ///// 22200 10808 70041
BBXX TFSRT 31064 99633 70203 46/// ///// 22200 10808 70041
BBXX TFSTD 31064 99664 70234 46/// ///// 22200 10807 70036
AAXX 31061 06414 16/// /2604 10102 20088 30064 40096 53003 60062 333 20046 91108 91206
AAXX 31061 06459 16/// /2105 10054 20054 39916 40110 55008 60042 333 20030 3/001 91110 91206
AAXX 31061 06494 16/// /2104 11002 21005 39307 40119 55014 60022 333 21022 4/003 91110 91207
BBXX 61001 31064 99434 10078 46/// /1805 10126 20028 40164 57002 22200 00141 10803 70016
AAXX 31064 78526 NIL
AAXX 31064 78543 NIL
AAXX 31061 11101 11430 81605 10002 21002 39653 40195 57018 60042 77372 887// 333 10029 20001 47003 88713 93103
AAXX 31064 78988 02475 61212 10259 20233 30124 40135 57011 60001 83200 333 59004 60007 83816 85081
BBXX DBLK 31061 99471 30036 41/93 93013 10076 20075 49959 57010 74754 89/// 22213 04064 20505 327// 40906
BBXX BATFR19 31064 99067 30055 46/// /1814 10234 20194 40142 53014 22200 00255
BBXX A8GH5 31063 99136 70227 41/97 /0520 10240 20146 40175 56010 700// 8//// 22254 04230 20303 305// 40605 80180
BBXX BATFR45 31064 99088 10574 46/// ///// 10290 20179 40160 50000 22254 00287
BBXX WGEB 31063 99212 11222 41397 80226 10200 2//// 40190 54000 72562 886// 22275 00245 20606 336// 40806 5//// 6//// 80210 ICE /////
BBXX C6SI6 31064 99420 11459 46/// /3421 10024 21024 40146 52014 7//// 8//// 22212 0//// 2////
BBXX BATEU07 31064 99080 10836 46/// /1609 10284 40135 58009 22253
BBXX C6XC2 31064 99310 11260 41498 83214 10100 20037 40250 54000 70322 8897/ 22272 00180 20402 332// 40503 5//// 6//// 80070 ICE /////
BBXX 46070 31061 99551 11753 46/// /2913 11038 21092 40104 54000 90550 22200 00032 10705 20705 3//// 41201 70025 333 91215 555 11133 22139 30539 43015 60549 289124 291102 288108 285098 306085 301104 82914 90539
BBXX OUJS2 31064 99414 11566 41497 82528 10090 2003/ 40000 56110 75877 88772 22224 00090 20807 31919 41206 51005 61/// 80060 ICE /////
BBXX ZCDD6 31063 99507 50574 41398 72631 10120 20101 40017 52008 70222 877// 22244 00110 20203 329// 40203 5//// 80110
BBXX P3GY9 31064 99214 50387 41697 60313 10250 2024/ 40145 57010 75155 86222 22243 00280 20702 309// 41103 5//// 6//// 80240 ICE /////
BBXX DDIG2 31064 99298 50717 41/98 71910 10160 20143 40140 54000 7//22 8//// 22244 04200 20201 319// 40803 80150
BBXX DBUT 31061 99145 50368 41998 00608 10265 20223 40191 57015 70200 80000 22245 21004 3//// 4//// 5//// 80235
BBXX A8DE3 31064 99384 50741 41/98 /2026 10134 20127 40174 51006 70200 8//// 22244 2//// 80130
BBXX WCX7445 31064 99566 50644 43/// /2725 10065 2//// 49872 5//// 7//// 8//// 22242 00055 2//// 3//// 4//// 5//// 6//// ICE /////
BBXX UFTA 31061 99844 71217 11/93 92410 11283 21314 40039 54000 69932 73933 333 92382 555 48040
BBXX PBIG 31064 99119 70687 41598 30929 10263 20196 40130 54000 7//// 8/1// 22222 00290 20203 80219
BBXX ICGU 31064 99159 70616 41797 30724 10260 20202 40160 56/// 70311 834// 22253 04270 21001 32324 41201 51801 6//// 85220 ICE /////
BBXX DPLE 31063 99447 70613 41/98 50210 11010 21054 40275 52015 70222 83/// 22264 00060 2//// 81025
BBXX 41046 31061 99238 70683 46/// /1408 10237 20211 40212 57008 90550 22200 00252 10803 20603 300// 40802 70017 333 91211 555 11088 22093 30450 41511 60549 144084 143078 134068 131061 128064 124061 81510 90550
BBXX 42364 31061 99291 70881 46/// /0000 10200 20167 40197 50000 90600
BBXX 44011 31061 99411 70666 46/// /1205 10099 20088 40210 56012 90550 22200 00092 10702 20402 3//// 40702 70012 333 91206 555 11058 22064 30505 42908 60549 120053 117054 115056 113060 113065 113064
BBXX 42363 31061 99282 70892 46/// /2704 10217 20150 40200 58003 90600 333 91204
BBXX 42362 31061 99278 70907 46/// /2204 10217 20178 40200 50000 90600
BBXX 46238 31061 99334 71195 46/// ///// 1//// 90550 22200 00139 11806 21003 329// 41804 70028
BBXX 46239 31061 99363 71221 46/// ///// 1//// 90551 22200 00120 11406 21003 328// 41405 70030
BBXX 51205 31061 99210 71564 46/// ///// 1//// 90548 22200 00237 10904 20904 301// 41102 70021
BBXX 46219 31061 99332 71199 46/// ///// 1//// 90558 22200 00132 11807 20804 329// 41806 70035
BBXX 44099 31061 99369 70757 46/// ///// 1//// 90552 22200 00101 10402 20402 70008
BBXX 46214 31061 99379 71235 46/// ///// 1//// 90550 22200 00120 11206 21004 329// 41205 70031
BBXX 42099 31061 99273 70842 46/// ///// 1//// 90557 22200 00221 10601 20601 70007
BBXX 44100 31061 99363 70756 46/// ///// 1//// 90552 22200 00121 10301 20301 70007
BBXX 41115 31061 99184 70673 46/// ///// 1//// 90535 22200 11302 21001 301// 41301 70010
BBXX 41110 31061 99341 70777 46/// ///// 1//// 90551 22200 00132 10501 20501 70007
BBXX 46218 31061 99345 71208 46/// ///// 1//// 90602 22200 00133 11706 21004 329// 41705 70030
BBXX 46213 31061 99403 71247 46/// ///// 1//// 90554 22200 00109 11508 21005 328// 41506 70038
BBXX 46217 31061 99342 71194 46/// ///// 1//// 90542 22200 00146 11302 21002 327// 41302 70012
BBXX 46232 31061 99325 71174 46/// ///// 1//// 90538 22200 00146 11803 20802 328// 41802 70017
BBXX 46212 31061 99408 71243 46/// ///// 1//// 90542 22200 00105 11106 21004 328// 41105 70032
BBXX 46215 31061 99352 71209 46/// ///// 1//// 90538 22200 00133 11704 21002 325// 41703 70021
BBXX 46225 31061 99329 71174 46/// ///// 1//// 90544 22200 00149 11802 20901 327// 41801 70010
BBXX 46247 31061 99378 71228 46/// ///// 1//// 90551 22200 00116 11305 21003 328// 41304 70024
BBXX 46240 31061 99366 71219 46/// ///// 1//// 90542 22200 00122 11203 21001 335// 41202 70013
BBXX 46237 31061 99378 71226 46/// ///// 1//// 90540 22200 00110 11705 21003 325// 41705 70027
BBXX 44097 31061 99410 70711 46/// ///// 1//// 90602 22200 00109 10502 20502 70009
BBXX 51101 31061 99243 71621 46/// /1402 10229 20159 40186 52011 90550 22200 00237 11004 20401 312// 41004 70021 333 91203 555 11022 22022 30450 41404 60549 144021 138022 123023 117026 126030 126032
BBXX 46061 31061 99602 71468 46/// /2104 11056 49988 52036 90550 22200 00053 11002 20401 300// 41002 70012 333 91205 555 11036 22037 30456 42208 60549 202036 201038 201040 215037 223052 217056
BBXX 42057 31061 99168 70815 46/// /0510 10271 20224 40162 58011 90550 22200 00274 10803 20803 70014 333 91212 555 11100 22106 30543 40612 60549 053099 052089 060088 058087 058080 062086 80510 90545
BBXX 41043 31061 99211 70650 46/// /0909 10253 20218 40211 57008 90550 22200 00257 10804 20603 300// 40803 70021 333 91211 555 11099 22105 30548 40911 60549 091092 094085 094086 095087 093079 090083 80910 90548
BBXX 41047 31061 99275 70715 46/// /1702 10236 40216 57013 90550 22200 00253 10903 20301 304// 40903 70013 333 91203 555 11021 22021 30454 42004 60549 172021 176022 174022 186029 177027 191026 81803 90516
BBXX 41036 31061 99342 70770 46/// ///// 10191 20143 40167 58013 90550 22200 00175 10503 70013
BBXX 44066 31061 99396 70726 46/// /2008 10140 20101 40152 58022 90550 22200 00123 10703 20703 70013 333 91210 555 11090 22099 30529 42010 60549 203082 202084 198084 196077 194069 190045
BBXX 42055 31061 99222 70940 46/// /0907 10247 20208 40170 50000 90550 22200 00250 10501 20501 70007 333 91208 555 11071 22075 30542 41008 60549 092067 093064 087062 086062 087061 084060 81007 90542
BBXX 42035 31061 99292 70944 46/// /0802 10164 20164 40180 57003 90550 22200 00145 10601 20401 320// 40601 70006 333 91202 555 11025 22030 30545 40802 60549 084021 121014 105014 095017 088013 106017
BBXX 42001 31061 99259 70897 46/// /1702 10228 20169 40200 58006 90550 22200 00237 10401 20401 3//// 40601 70004 333 91203 555 11022 22022 30542 41603 60549 164021 166020 163015 167015 171014 175016
BBXX 46080 31061 99580 71500 46/// /2511 11085 21131 40026 51020 90550 22200 00047 10806 20705 3//// 40804 70030 333 91214 555 11114 22118 30534 42514 60549 250108 250104 252103 257094 245089 251091 82612 90550
BBXX 46005 31061 99461 71310 46/// ///03 10069 40228 51013 90550 22200 00096 11109 20301 3//// 41109 70043 333 91205 555 11034 22035
BBXX 46059 31061 99380 71300 46/// /0804 10125 40267 54000 90550 22200 00140 11407 20401 3//// 41407 70036 333 91205 555 11038 22040 30510 40806 60549 079037 070034 079032 079036 074035 071034
BBXX 46002 31061 99426 71305 46/// ///// 10101 40247 50000 90550 22200 00118 11107 70037
BBXX 46006 31061 99408 71375 46/// /1415 10114 40157 58040 90550 22200 00119 11108 20605 3//// 41106 70040 333 91218 555 11156 22166 30521 41519 60549 143144 142146 144145 142141 141136 140136
BBXX 46075 31061 99539 71608 46/// /3607 11046 21071 40107 53019 90550 22200 00042 10403 20403 300// 41101 70015 333 91209 555 11073 22076 30528 43514 60549 002071 353097 000100 357079 354078 353084 83512 90530
BBXX 46084 31061 99566 71361 46/// ///// 11005 21035 40106 53036 90550 22200 00068 11107 70035
BBXX 42003 31061 99260 70856 46/// /1901 1//// 90550 22200 10501 20401 310// 40501 70005 333 91201 555 11013 22013 30537 41801 60549 190011 194010 195008 204006 233003 226006 81901 90544
BBXX 44005 31061 99432 70691 46/// /1409 10082 20073 40183 58011 90550 22200 00081 10503 20503 3//// 40901 70015 333 91211 555 11092 22098 30503 41511 60549 144086 144086 146084 147083 147088 148084
BBXX 42040 31061 99292 70882 46/// /2707 10204 40188 50000 90550 22200 00220 10601 20601 70007 333 91209 555 11072 22076 30548 42609 60549 265072 264072 263068 267071 261068 260068
BBXX 42056 31061 99198 70849 46/// /0807 10262 20230 40179 58007 90550 22200 00270 10502 20502 312// 40701 70009 333 91208 555 11073 22077 30531 40709 60549 076069 081069 085068 086068 082069 081068 80808 90531
BBXX 42019 31061 99279 70954 46/// /2304 10228 20208 40170 54000 90550 22200 10501 20401 319// 40501 70006 333 91204 555 11039 22042 30508 42806 60549 239037 283042 283044 283048 284042 286042
BBXX 42036 31061 99285 70845 46/// /2504 10214 20150 40195 54000 90550 22200 00212 10601 20301 317// 40601 70007 333 91206 555 11045 22049 30549 42506 60549 249042 232034 221034 219036 218034 215036
BBXX PHSG 31064 99102 70861 41/98 10624 10270 40110 54000 70200 8//// 22234 00290 20402
BBXX 46026 31061 99378 71228 46/// /3207 10112 40232 54000 90550 22200 00114 11505 20602 328// 41505 70024 333 91209 555 11078 22083 30547 43209 60549 310072 283065 287069 285058 287051 287054
BBXX 46041 31061 99474 71247 46/// /2908 10063 40223 53035 90550 22200 00085 11210 20704 3//// 41209 70051 333 91211 555 11089 22093 30530 43015 60549 283087 282097 285084 288081 293080 288076
BBXX 41040 31061 99145 70530 46/// /0711 10263 20205 40159 56014 90550 22200 00269 10807 20805 3//// 41304 70033 333 91213 555 11113 22120 30541 40714 60549 071108 071114 068112 069111 065105 063101 80712 90541
BBXX 42039 31061 99288 70860 46/// /2305 10219 40189 50000 90550 22200 00227 10602 20401 300// 40601 70008 333 91206 555 11054 22056 30500 42207 60549 228050 226049 220051 222052 218055 227054 82206 90501
BBXX 46082 31061 99597 71434 46/// ///// 11043 40017 51028 90550 22200 00058 11106 70030
BBXX 46072 31061 99517 71722 46/// /3204 11012 21112 40181 53017 90550 22200 00042 10902 20401 3//// 40902 70012 333 91206 555 11041 22042 30457 40106 60549 320040 319041 327038 340033 348040 347047 83605 90457
BBXX 46077 31061 99579 71543 46/// /2509 11127 21163 40022 51015 90550 22200 00036 10704 20704 70018 333 91212 555 11092 22095 30507 42715 60549 254088 261095 267098 269104 275115 271115 82713 90456
BBXX 46035 31061 99571 71778 46/// /2305 1//// 40070 58011 90550 22200 10603 20401 300// 40603 70017 333 91207 555 11054 22057 30509 42313 60549 229053 249050 250072 232098 218090 163040 82213 90509
BBXX PHQX 31063 99192 70572 41498 30913 10250 20207 40210 56010 70222 83165 22254 20704 309// 41005 5//// 80220
BBXX FVNM 31064 99108 70807 46/// /0317 10274 20235 40123 58010 22271 00274
BBXX VOXS 31064 99467 70480 41798 82727 10015 2000/ 40215 52025 70222 885// 22200 04016 20707 325// 41008 80010
BBXX WFLH 31063 99227 71545 41498 30910 10222 20199 40172 52010 7//00 832// 22224 00228 20202 332// 40806 5//// 6//// 80206 ICE /////
BBXX DFGX2 31063 99540 71595 41/98 73628 11035 21040 40096 53011 70372 87/// 22264 00040 2//// 82035
BBXX 2AKI3 31064 99148 70659 41/98 /0933 10255 20224 40149 54000 70211 8//// 22274 04278 2//// 3//// 4//// 5//// 80234
BBXX PBAD 31061 99154 70618 414// 10717 10270 20210 40149 57021 70100 8/1// 22234 00280 20402 308// 40705 5//// 80230
BBXX 42085 31061 99179 70665 46/// /0306 10253 40169 90540 333 91207
BBXX 44007 31061 99435 70701 46/// /0108 10006 21001 40186 58014 90550 22200 00074 10502 20501 3//// 40801 70008 333 91209 555 11083 22086 30505 40110 60549 011079 015076 011075 012078 009081 009077
BBXX 46028 31061 99357 71219 46/// /3310 10126 40198 50000 90550 22200 00130 11506 20604 331// 41505 70029 333 91212 555 11110 22117 30541 43313 60549 330104 333101 338084 331087 326088 327093
BBXX 46025 31061 99337 71191 46/// /2902 10111 20109 40160 56007 90550 22200 00147 11903 20401 328// 41903 70014 333 91203 555 11018 22019 30450 42904 60549 289019 298016 346010 349003 018005 051013
BBXX 46087 31061 99485 71247 46/// /2911 10069 20021 40202 53038 90550 22200 00082 11310 20603 328// 41309 70050 333 91213 555 11116 22123 30549 42913 60549 289107 293097 293097 296101 294101 292103
BBXX 46054 31061 99342 71204 46/// /3311 10143 40160 57006 90550 22200 00133 11705 20703 300// 41705 70027 333 91213 555 11114 22124 30534 43213 60549 325107 323100 325092 323092 324093 324095
BBXX 46012 31061 99374 71229 46/// /3208 10117 40234 51003 90550 22200 00122 11406 20702 330// 41406 70030 333 91210 555 11081 22086 30547 43210 60549 322074 330068 330066 330067 329066 330061
BBXX BATFR56 31064 99012 11038 46/// /2408 10287 20285 40099 58024 22231 00284
BBXX BATFR53 31064 99182 51337 44598 21016 10254 20212 40162 51010 70000 82100 22222 00260 202// 310// 40702 5////
BBXX CG2960 31064 99429 70824 46/// /1701 10064 20060 40022 53001 7//// 8//// 22200 0//// 2////
BBXX CG2350 31064 99433 70798 46/// /0107 10030 20028 40051 56018 7//// 8//// 22200 0//// 2////
BBXX CGDS 31064 99429 70792 46/// /2613 10070 20029 40053 58013 7//// 8//// 22200 0//// 2////
BBXX WDC6907 31064 99466 70087 41/// /2730 10138 2013/ 40242 52001 700// 8//// 22253 00140 2//// 3//// 4//// 5//// 6//// 80135 ICE /////
BBXX WDD3826 31064 99407 70271 41398 62324 10180 2016/ 40315 52010 7//22 867// 22254 00130 20302 323// 40704 5//// 6//// 80170 ICE /////
BBXX MCUV3 31063 99451 70131 41498 32728 10140 20122 40271 57005 70211 81145 22253 2//08 327// 4//08 5//// 80130
BBXX DK7210 31061 99540 10066 46/// /1710 10044 20044 30058
BBXX 41009 31061 99285 70802 46/// /1805 10221 20166 40199 58013 90550 22200 00226 11301 20401 300// 41301 70006 333 91206 555 11056 22059
BBXX 41010 31061 99289 70785 46/// /1406 10217 40195 58010 90550 22200 00236 10301 20301 300// 40901 70007 333 91207 555 11060 22062
BBXX WCX8883 31064 99411 71452 41397 72519 10130 2010/ 40036 52011 7//22 8761/ 22225 00110 20807 31622 40805 5//// 6//// 80115 ICE /////
BBXX WKAP 31063 99456 70543 41198 72725 10010 2001/ 40252 52030 70311 876// 22253 00030 20606 326// 41009 5//// 6//// 80010 ICE /////
BBXX WDC6736 31064 99299 70795 41/// /1815 10210 2016/ 40195 50017 702// 8//// 22284 00270 20302 3//// 4//// 5//// 6//// 80180 ICE /////
BBXX ZCDG7 31064 99320 71171 41297 83213 10128 20126 40175 53008 70242 887// 22274 00160 20101 333// 40302 5////
BBXX VQAJ8 31063 99486 71225 41498 62412 10060 20031 40093 52033 70022 841// 22200 00085 20402 300// 40000 5//// 80048
BBXX CGTF 31064 99476 70527 46/// /1706 11010 21053 40220 51037 7//// 8//// 22200 0//// 2////
BBXX CGBY 31064 99487 71235 46/// /2805 10049 21015 40197 51049 7//// 8//// 22200 0//// 2////
BBXX VCBW 31064 99456 70735 46/// /0107 11076 21097 40142 58034 7//// 8//// 22200 0//// 2////
BBXX 3FZK3 31064 99489 71237 46/// /2803 10040 21030 40186 51044 7//// 8//// 22200 0//// 2////
BBXX CGBR 31064 99519 71279 46/// /1919 10011 20011 40189 53053 7//// 8//// 22283 00061 2////
BBXX VOKF 31064 99490 70669 46/// /1509 11116 21145 40250 51006 7//// 8//// 22200 0//// 2////
BBXX VAAP 31064 99449 70617 46/// /0408 11017 21053 40256 51010 7//// 8//// 22213 0//// 2////
BBXX CGCC 31064 99463 70725 46/// /0516 11065 21101 40173 58016 7//// 8//// 22200 0//// 2////
BBXX CGJV 31064 99462 70631 46/// /0602 11059 21090 40262 50003 7//// 8//// 22200 0//// 2////
BBXX VOKJ 31064 99455 70735 46/// /0209 11083 21102 40157 57012 7//// 8//// 22200 0//// 2////
BBXX CGHL 31064 99476 70527 46/// /3105 11008 21052 40220 51037 7//// 8//// 22200 0//// 2////
BBXX VCLM 31064 99468 70712 46/// /0618 11063 21094 40198 57006 7//// 8//// 22200 0//// 2////
BBXX VRYO3 31064 99456 70735 46/// /0109 11077 21097 40155 56011 7//// 8//// 22200 0//// 2////
BBXX VOFG 31064 99456 70614 46/// /1102 11081 21095 40271 53011 7//// 8//// 22200 0//// 2////
BBXX CGDG 31064 99447 70636 46/// /0802 11013 21016 40254 58002 7//// 8//// 22200 0//// 2////
BBXX CGSB 31064 99483 70709 46/// /2303 11206 21233 40235 58014 7//// 8//// 22200 0//// 2////
BBXX CGBN 31064 99447 70636 46/// /1003 11008 21086 40255 58002 7//// 8//// 22200 0//// 2////
BBXX VCSZ 31064 99467 70715 46/// /0726 11059 21063 40172 58005 7//// 8//// 22213 0//// 2////
BBXX VOLG 31064 99446 70636 46/// /1006 11010 21075 40253 58002 7//// 8//// 22200 0//// 2////
BBXX CGDT 31064 99468 70712 46/// /0617 11064 21094 40206 56005 7//// 8//// 22200 0//// 2////
BBXX CGDR 31064 99491 71235 46/// /2609 10063 20040 40185 51041 7//// 8//// 22221 00102 2////
BBXX VCWL 31064 99468 70712 46/// /0616 11067 21097 40200 56005 7//// 8//// 22200 0//// 2////
BBXX VXKF 31064 99476 70591 46/// /2807 11017 21041 40239 51019 7//// 8//// 22200 0//// 2////
BBXX CGDX 31064 99468 70712 46/// /0617 11064 21099 40205 56005 7//// 8//// 22200 0//// 2////
BBXX VOPP 31064 99456 70735 46/// /0207 11077 21087 4//// 5//// 7//// 8//// 22200 0//// 2////
BBXX CG2958 31064 99524 71285 46/// /2101 10022 21000 40187 51050 7//// 8//// 22242 0//// 2////
BBXX CZ9742 31064 99506 70969 46/// /1514 11068 21069 4//// 5//// 7//// 8//// 22200 0//// 2////
BBXX VCRG 31064 99474 70619 46/// /2105 11029 21052 40263 53015 7//// 8//// 22200 0//// 2////
BBXX CGUM 31064 99453 70606 46/// /3303 11024 21068 40271 53009 7//// 8//// 22213 0//// 2////
BBXX PDZS 31063 99639 50538 41195 82325 10000 20000 49645 52005 70272 885// 22241 03008 20502 323// 40703 5//// 82000 ICE //7//
BBXX 42059 31061 99151 70675 46/// /0910 10273 20217 40149 58014 90550 22200 00277 10805 20805 70025 333 91212 555 11109 22116 30453 40913 60549 091101 089096 091094 087100 091094 095101 81011 90453
BBXX 42058 31061 99149 70749 46/// /0708 10268 20228 40131 58011 90550 22200 00271 10804 20503 311// 40802 70019 333 91210 555 11088 22093 30502 40711 60549 065082 067082 070089 070084 066094 076087 80610 90503
BBXX 42060 31061 99163 70635 46/// /0808 10269 20218 40171 57014 90550 22200 00271 10804 20804 300// 40902 70020 333 91210 555 11089 22094 30548 40810 60549 081083 081076 077068 077073 076075 076074 80809 90549
BBXX 41044 31061 99217 70587 46/// /0909 10253 20200 40227 58007 90550 22200 00261 333 91210 555 11095 22100 30502 40911 60549 092088 091087 091091 087095 089094 088089 80910 90502
BBXX 42012 31061 99301 70876 46/// /2405 10190 20175 40179 57004 90550 22200 00188 10602 20401 313// 40601 70008 333 91206 555 11056 22060 30451 42408 60549 240052 244057 244059 238063 241063 240064
BBXX 42020 31061 99270 70967 46/// /1707 10191 20185 40169 58003 90550 22200 00196 10501 20501 70006 333 91207 555 11069 22073 30545 41707 60549 169064 170060 167060 166059 165057 163060
BBXX 41060 31061 99148 70510 46/// ///// 1//// 90550 22200 10907 70033
BBXX 42002 31061 99258 70937 46/// /1607 10237 20219 40182 58005 90550 22200 00244 10501 20501 70007 333 91208 555 11066 22070 30508 41509 60549 159067 161072 159066 153069 158072 157072
BBXX 41001 31061 99347 70727 46/// ///// 10211 20133 40188 58015 90550 22200 00223 10603 70013
BBXX 41048 31061 99320 70696 46/// /1307 10211 20182 40216 57015 90550 22200 00219 10902 20401 3//// 40902 70010 333 91208 555 11067 22070 30547 41308 60549 134067 132063 128064 126062 124063 126063 81307 90540
BBXX 42065 31061 99149 70750 46/// /0509 10264 20234 90550 22200 10803 20603 3//// 40801 70014 333 91211 555 11095 22102 30543 40511 60549 053088 051091 056080 057082 055077 052079 80510 90543
BBXX 41049 31061 99275 70630 46/// /1403 10231 20206 40250 56009 90550 22200 00231 11003 20401 300// 41003 70017 333 91203 555 11028 22029 30539 41504 60549 140027 146029 147027 147024 141023 130026 81503 90526
BBXX BAREU04 31064 99372 70752 46/// ///// 40153 57014 22213
BBXX NWS0022 31064 99416 70714 43/// /3506 10031 21010 40166 5//// 7//// 8//// 222// 04091 2//// 3//// 4//// 5//// 6//// 8//// ICE /////
BBXX WDC9175 31063 99535 71682 41/97 00115 1//// 2//// 40150 5//// 702// 8//// 222// 0//// 2//// 301// 4//05 5//// 6//// 8//// ICE /////
BBXX WDC6698 31064 99213 71579 43/// /3403 1//// 2//// 40160 5//// 7//// 8//// 222// 04238 2//// 3//// 4//// 5//// 6//// 8//// ICE /////
BBXX J8PD 31063 99221 70849 434// 80320 10240 2021/ 40180 51010 7//// 88577 22213 00280 20302 314// 40302 5//// 6//// 80220 ICE /////
BBXX 5BDK2 31064 99204 70845 41898 20913 10250 2024/ 40230 54000 70000 8248/ 22233 00266 20502 3//// 40801 5//// 6//// 80240 ICE /////
BBXX A8LP6 31064 99341 70441 41/97 82006 10200 20153 40320 51010 70222 8//// 22224 04149 29902 399//
BBXX WSRH 31064 99318 71390 41498 80905 10183 2016/ 40220 54000 7//22 87/// 22214 00183 29902 327// 4//03 5//// 6//// 80167 ICE /////
BBXX LAVD4 31064 99205 71547 41498 80810 10225 2019/ 40183 51008 71521 84890 22263 00230 20603 31031 41205 50802 80200
BBXX 46013 31061 99382 71233 46/// /3208 10108 40239 51010 90550 22200 00111 11606 20402 3//// 41605 70028 333 91210 555 11090 22095 30509 43211 60549 316085 321086 321088 318088 316092 313092
BBXX 46029 31061 99461 71245 46/// /2808 10077 20016 40245 53037 90550 22200 00088 11109 20604 328// 41108 70045 333 91209 555 11080 22084 30453 42911 60549 284076 288075 286073 287079 290083 288091
BBXX 46069 31061 99337 71202 46/// /3209 10142 40161 56005 90550 22200 00133 11706 20804 330// 41705 70032 333 91211 555 11100 22109 30459 43311 60549 317092 320087 320092 322090 325091 327093
BBXX 46050 31061 99442 71246 46/// /3203 10079 40262 52032 90550 22200 00096 11208 20401 329// 41208 70041 333 91205 555 11032 22033 30520 43406 60549 323033 336038 341044 341048 335043 328044
BBXX 46088 31061 99483 71232 46/// /2610 10050 40196 90550 22200 00077 10503 20503 70014 333 91212 555 11109 22115
BBXX 46086 31061 99325 71180 46/// /3103 10119 40170 53003 90550 22200 00150 11904 20401 326// 41904 70022 333 91205 555 11030 22031 30513 43208 60549 317029 340035 315043 324052 316045 319054
BBXX 46047 31061 99324 71195 46/// /3206 10141 40171 54000 90550 22200 00139 11707 20502 329// 41706 70033 333 91207 555 11063 22068 30453 43308 60549 324059 325057 331055 331056 330058 328062
BBXX 46027 31061 99419 71244 46/// /0503 10076 40270 53018 90550 22200 00093 11107 20301 329// 41107 70033 333 91205 555 11034 22035 30520 40806 60549 051034 054035 057035 066024 063019 070026
BBXX 46014 31061 99394 71240 46/// /3607 10107 40255 51019 90550 22200 00111 11607 20602 3//// 41607 70036 333 91208 555 11069 22073 30457 43510 60549 356064 351071 351069 352074 348077 346077
BBXX 46011 31061 99350 71210 46/// /3309 10137 40189 58006 90550 22200 00131 11605 20502 330// 41605 70025 333 91210 555 11094 22101 30549 43310 60549 327085 334085 333076 343078 339077 336065
BBXX 44027 31061 99443 70673 46/// /1209 10050 20022 40214 56015 90550 22200 00077 10802 20302 3//// 40801 70011 333 91210 555 11090 22094 30521 41210 60549 122085 123085 120085 115085 119084 123079
BBXX 44020 31061 99414 70702 46/// /1604 10081 20072 40172 58017 90550 22200 00066 1//00 70002 333 91204 555 11039 22042 30450 41605 60549 170038 260038 263037 263038 264039 259040
BBXX 41008 31061 99314 70809 46/// /2106 10171 20152 40187 54000 90550 22200 00159 10401 20401 300// 41201 70006 333 91207 555 11067 22075 30548 42107 60549 207061 216057 216057 211056 206057 202059
BBXX 46105 31061 99590 71522 46/// ///// 1//// 90550 22200 10807 70035
BBXX 41004 31061 99325 70791 46/// /2211 10210 20141 40175 57011 90550 22200 00209 10502 20502 3//// 40901 70012 333 91213 555 11114 22121 30547 42213 60549 218105 218100 215099 215096 214101 214094
BBXX 44065 31061 99404 70737 46/// /1707 10115 20088 40137 58020 90550 22200 00105 10402 20402 314// 40801 70009 333 91209 555 11079 22087 30456 41809 60549 174073 173077 179077 177077 173077 175078 81808 90533
BBXX 41013 31061 99334 70777 46/// /2109 10210 20153 40167 57013 90550 22200 00210 10502 20502 70012 333 91211 555 11097 22104 30518 42112 60549 210092 212088 216091 210100 208091 207096
BBXX 44009 31061 99385 70747 46/// /2009 10116 40151 56021 90550 22200 00102 10603 20603 70013 333 91210 555 11093 22102 30533 42011 60549 202086 200089 197090 196087 196087 196081
BBXX 44014 31061 99366 70748 46/// /0910 1//// 40158 58017 90550 22200 00181 10402 20402 313// 41001 70011 333 91211 555 11097 22097 30540 41012 60549 095097 095100 096094 093095 089093 090089
AAXX 31064 78255 42959 00203 10209 20196 30052 40201 57010
AAXX 31064 78317 NIL
AAXX 31064 78318 NIL
AAXX 31064 78325 NIL
AAXX 31064 78333 NIL
AAXX 31064 78338 NIL
AAXX 31064 78348 NIL
AAXX 31064 78349 NIL
AAXX 31064 78353 NIL
AAXX 31064 78360 NIL
AAXX 31064 78367 NIL
AAXX 31064 78369 NIL
AAXX 31064 78988 02475 61212 10259 20233 30124 40135 57011 60001 83200 333 59004 60007 83816 85081
AAXX 31064 78988 02475 61212 10259 20233 30124 40135 57011 60001 83200 333 59004 60007 83816 85081
AAXX 31064 91925 06/// /0302 10256 20208 30077 40138 51021 69921 333 55076 60007 90710 91111 555 60005 10917 58005
AAXX 31064 91929 04958 80112 10267 20236 30119 40122 53016 60112 760// 333 10298 20242 55/// 69967 70119 90710 91116 555 69945
AAXX 31064 91938 01565 30707 10269 20221 30127 40129 51018 69942 72586 83800 333 10305 20263 31/// 55031 69907 70040 82820 90710 91115 555 69905 10620 58002
AAXX 31064 91943 36/// /0811 10269 20221 30137 40139 51016 333 20268 58002
AAXX 31064 91944 06/// /0811 10266 20220 30151 40154 53017 69942 333 10286 20235 55078 60007 70010 90710 91115 555 60005
AAXX 31064 91948 06/// /0103 10245 20198 30082 40184 51017 60001 333 55097 60007 90710 91109 555 60005 13610 59009
AAXX 31064 91954 06/// /3312 10254 20235 30129 40132 52018 60011 333 55/// 60017 555 58011
AAXX 31064 91958 06/// /3310 10241 20222 30154 40156 51021 60081 333 55003 60087 90710 91123 555 60065 13128 58014
AAXX 31064 91945 NIL
BBXX A8KH9 31064 99115 30733 41/98 72423 10285 20230 40070 54000 70222 8471/ 22214 20506 31300 41210 5//// 80245
BBXX PHAM 31063 99495 70011 41/97 82822 10118 20107 40147 57002 75186 88/// 22200 20505 80112 90982
BBXX PDNN 31063 99499 70016 41/98 82930 10120 20111 40141 52002 70022 88/// 22263 2//// 80115 90983
AAXX 31064 91165 NIL
AAXX 31064 91182 NIL
AAXX 31064 91190 NIL
AAXX 31064 91212 NIL
AAXX 31064 91217 NIL
AAXX 31064 91285 NIL
AAXX 31064 91317 NIL
AAXX 31064 91334 32474 60409 10322 20243 30069 40072 55005 83101 333 562/9 70000 555 93106
AAXX 31064 91348 NIL
AAXX 31064 91356 NIL
AAXX 31064 91366 NIL
AAXX 31064 91369 NIL
AAXX 31064 91371 NIL
AAXX 31064 91376 11474 80611 10263 20245 30080 40083 53015 69931 72582 84878 333 56119 70561 555 93106
AAXX 31064 91408 NIL
AAXX 31064 91413 32469 80813 10292 20227 30069 40095 55003 83878 333 56299 70005 555 93106
AAXX 31064 91425 NIL
AAXX 31064 91434 NIL
AAXX 31064 91765 NIL
AAXX 31064 91222 NIL
AAXX 31064 91245 NIL
AAXX 31064 91323 NIL
AAXX 31064 91339 NIL
AAXX 31064 91343 NIL
AAXX 31064 91353 NIL
AAXX 31064 91442 NIL
AAXX 31064 17600 12565 50406 10122 20089 30139 40149 53011 60162 84980 333 10155 20087 31006 50291 55063 70157 81825 81930 84656 92437
AAXX 31064 17601 11680 10304 10099 20079 30116 40148 53014 60192 72581 81833 90550 333 20084 31001 70188 81830
AAXX 31064 17607 11570 50000 10081 20073 39964 40161 52/// 60134 703// 83880 333 20044 70128 81825 83650
AAXX 31064 17609 12565 73304 10086 20072 30153 40157 53019 60062 8488/ 333 10155 20076 31004 50301 55076 70060 81820 84640
AAXX 31064 47101 31517 63402 11045 21066 30169 40270 57028 71022 86502
AAXX 31064 47105 369// /2507 10054 21192 30198 40230 55017
AAXX 31064 47108 31657 61802 10013 21085 30151 40260 57024 70522 82502
AAXX 31064 47115 32675 42705 10065 21029 39945 40217 57017 82501 333 92032
AAXX 31064 47133 31657 70903 10026 21068 30179 40266 57025 70522 82530
AAXX 31064 47138 32972 82306 10071 21204 30232 40235 57025 80005 333 92033
AAXX 31064 47159 32965 42905 10089 21106 30147 40232 57019 80001 333 92022
AAXX 31064 47165 32668 80206 10036 21027 30214 40262 56023 8252/ 333 92022
AAXX 31064 47168 32965 62907 10064 21091 30158 40238 57027 80002 333 92023
AAXX 31064 47184 32670 83407 10068 20006 30231 40256 57023 8452/ 333 92023
BBXX LAHV 31061 99589 10057 43/// /1405 10027 21038 40052 222// 04078 1////
BBXX LDGJ 31061 99603 10053 43/// /2202 10011 21061 40042 5//// 222/0 04073 1//// 3//// 4//// 5////
BBXX LF4H 31064 99596 10022 46/// /1524 10053 20038 49985 57021 8//// 22200 06079 10605 70027 333 91129
BBXX LMEL 31061 99603 10053 43/// /0602 10013 21080 40037 5//// 222/0 04078 1//// 3//// 4//// 5////
AAXX 31064 47090 32968 32707 10040 21101 30211 40234 55014 80001 333 92013
AAXX 31064 47095 31558 82304 11002 21077 30064 40259 56024 70522 8651/
AAXX 31064 47097 329// /0901 10005 21095 30166 40265 57029
AAXX 31064 47098 329// /2702 10005 21077 30119 40257 56022
AAXX 31064 47099 329// /0001 10007 21068 30224 40261 57022
AAXX 31064 47100 32970 42510 11028 21216 39299 40242 56017 80001
AAXX 31064 47102 31658 82509 10013 21014 30071 40253 57023 71022 8651/
AAXX 31064 47104 32970 63602 10046 21148 30130 40228 55016 80001
AAXX 31064 47106 329// /3405 10071 21186 30173 40222 57024
AAXX 31064 47112 31658 82006 10015 21061 30175 40261 57020 70522 8551/
AAXX 31064 47114 32961 41103 10008 21148 30072 40260 57026 80001
AAXX 31064 47119 31656 81803 10007 21059 30221 40264 56024 70522 8551/
AAXX 31064 47121 329// /2704 10008 21122 39957 40258 56029
AAXX 31064 47127 329// /3402 10012 21119 30121 40266 57025
AAXX 31064 47129 32662 61803 10024 21037 30232 40269 57019 83502
AAXX 31064 47130 42970 50504 10071 21122 30164 40226 80001 333 92030
AAXX 31064 47131 31657 82001 10013 21077 30193 40265 57024 70521 8251/
AAXX 31064 47135 329// /2511 10007 21085 39955 40262 57019
AAXX 31064 47136 32970 32707 10041 21128 30074 40248 57027 80001
AAXX 31064 47137 329// /2506 10022 21117 30134 40255 57020
AAXX 31064 47140 32665 61403 10021 21050 30237 40266 57025 83501 333 92012
AAXX 31064 47143 32966 62705 10047 21123 30173 40253 57028 80001
AAXX 31064 47145 32666 82301 10019 21088 30231 40258 57023 8552/
AAXX 31064 47146 32973 60703 10026 21068 30198 40265 57022 80002
AAXX 31064 47150 32668 82502 10021 21053 30245 40265 55019 8552/
AAXX 31064 47152 32965 40706 10073 21119 30186 40229 57021 80001
AAXX 31064 47154 329// /2908 10027 21105 30195 40257 57022
AAXX 31064 47155 32960 61405 10056 21106 30191 40237 57026 80002
AAXX 31064 47156 32673 63404 10037 21045 30173 40264 56025 82508
AAXX 31064 47157 32970 42505 10045 21133 39956 40229 57031 80002
AAXX 31064 47162 32965 62504 10066 21070 30195 40236 57024 80002 333 92022
AAXX 31064 47169 32668 83410 10052 21015 30163 40258 57023 8352/ 333 92033
AAXX 31064 47170 32673 83411 10038 21046 30212 40256 55024 8151/ 333 92024
AAXX 31064 47171 329// /3403 10027 21056 30210 40266 57021
AAXX 31064 47172 329// /3403 10029 21043 30190 40258 57022
AAXX 31064 47173 329// /3408 10028 21068 30149 40262 57025
AAXX 31064 47174 32966 63408 10025 21061 30045 40251 57023 80002
AAXX 31064 47175 32570 83408 10004 21033 39670 40258 55022 8452/ 333 92023
AAXX 31064 47185 32675 63215 10074 21003 30162 40254 57018 82501 333 92034
AAXX 31064 47188 32670 53206 10076 20007 30223 40245 56019 81501 333 92032
AAXX 31064 47189 32670 41607 10105 20025 30180 40240 56017 82501 333 92022
AAXX 31064 47192 32968 62702 10062 21145 30203 40241 57029 80002
AAXX 31061 38353 12998 00502 11027 21076 39497 40444 58008 69920 333 21070
AAXX 31061 38613 42999 00301 11021 21071 40398 54000 60020 333 21083
AAXX 31061 38616 12597 11801 11018 21079 39327 40387 58011 69930 81500 333 21100
AAXX 31061 38345 32999 01201 11052 21116 38925 48604 58004 333 21177
AAXX 31061 36911 12999 00000 11054 21109 39428 40451 58006 69930 333 21136
AAXX 31061 36974 12998 00000 11118 21153 38110 48680 52022 69970 333 21190
AAXX 31061 36982 42999 00000 11174 21224 36584 47280 52006 333 21240
AAXX 31061 33088 NIL
AAXX 31061 33177 32577 82302 10012 21007 39855 40095 52005 889// 333 20001
AAXX 31061 33261 11311 80000 10002 21001 39924 40109 53008 60022 77177 8772/ 333 20001 43002 87707
AAXX 31061 33275 11/93 91603 10002 20002 39889 40116 53009 60022 76176 333 20000 43002 96045
AAXX 31061 33301 11597 72004 11009 21016 39818 40106 52007 69942 70282 87500 333 21009 47001 87631
AAXX 31061 33325 31596 60000 11008 21015 39839 40112 52007 71042 83530 333 21010 93401
AAXX 31061 33377 11214 80000 10010 20005 39918 40115 53012 69962 75154 886// 333 20010 88705
AAXX 31061 33415 32697 72306 11002 21022 39712 40119 52008 85530 333 21018
AAXX 31061 33429 11496 72003 11012 21016 39693 40126 52011 69902 72272 85500 333 21015 85710
AAXX 31061 33466 NIL
AAXX 31061 33526 32560 71602 11043 21049 39779 40132 52012 86530 333 21059 86633
AAXX 31061 33562 NIL
AAXX 31061 33614 11497 81803 10032 20019 30009 40114 53009 69902 71022 886// 333 20026 88710
AAXX 31061 33761 11340 83201 10014 20011 39900 40126 53017 69962 71052 886// 333 10014 88707
AAXX 31061 33902 31594 80000 10025 20017 30059 40126 52013 71022 885// 333 20024
AAXX 31061 33983 32997 70000 10038 20023 30088 40150 53011 87050 333 20019
AAXX 31061 34415 NIL
AAXX 31061 34523 NIL
AAXX 31061 34712 NIL
AAXX 31061 33506 11992 91901 10010 20010 39925 40124 52008 69902 74342 333 20003 555 43///
AAXX 31061 33135 11/93 90000 10000 20000 39931 40113 53012 60012 74774 333 20000 43001
AAXX 31061 33345 11597 72901 10005 21003 39909 40117 52010 69972 70275 84989 333 20001 42997
AAXX 31061 33663 11495 80000 11004 21007 30028 40126 52010 69952 71022 886// 333 21005 88714
AAXX 31061 33791 31314 81903 10023 20018 39974 40127 52012 71022 886// 333 20023 88707
AAXX 31061 33924 11496 80102 10054 20042 30124 40136 53013 69922 75165 886// 333 20053
BBXX 3FZK3 31064 99489 71237 46/// /2803 10040 21030 40186 51044 7//// 8//// 22200 0//// 2////
BBXX 46001 31061 99563 71480 46/// /2612 11021 40057 51019 90550 22200 00042 10908 20606 300// 40906 70041 333 91215 555 11122 22128 30516 42717 60549 264115 268123 262123 265118 269118 259125
BBXX 46006 31061 99408 71375 46/// /1415 10114 40157 58040 90550 22200 00119 11108 20605 3//// 41106 70040 333 91218 555 11156 22166 30521 41519 60549 143144 142146 144145 142141 141136 140136
BBXX 46012 31061 99374 71229 46/// /3208 10117 40234 51003 90550 22200 00122 11406 20702 330// 41406 70030 333 91210 555 11081 22086 30547 43210 60549 322074 330068 330066 330067 329066 330061
BBXX 46026 31061 99378 71228 46/// /3207 10112 40232 54000 90550 22200 00114 11505 20602 328// 41505 70024 333 91209 555 11078 22083 30547 43209 60549 310072 283065 287069 285058 287051 287054
BBXX 46028 31061 99357 71219 46/// /3310 10126 40198 50000 90550 22200 00130 11506 20604 331// 41505 70029 333 91212 555 11110 22117 30541 43313 60549 330104 333101 338084 331087 326088 327093
BBXX 46042 31061 99368 71224 46/// /3408 10120 40223 51004 90550 22200 00125 11607 20502 330// 41607 70034 333 91210 555 11084 22089 30549 43410 60549 336079 340078 341077 343072 343073 343075
BBXX CG2958 31064 99524 71285 46/// /2101 10022 21000 40187 51050 7//// 8//// 22242 0//// 2////
BBXX CGBR 31064 99519 71279 46/// /1919 10011 20011 40189 53053 7//// 8//// 22283 00061 2////
BBXX CGBY 31064 99487 71235 46/// /2805 10049 21015 40197 51049 7//// 8//// 22200 0//// 2////
BBXX CGDR 31064 99491 71235 46/// /2609 10063 20040 40185 51041 7//// 8//// 22221 00102 2////
BBXX DGDD 31061 99323 71354 41/98 21508 10170 20128 40245 53010 70200 82/// 22224 04180 2//// 3//// 4//// 5//// 80145
AAXX 31064 60715 11558 72911 10124 20096 30198 40205 53004 60054 76086 8488/ 333 20118 58012 70048 83823 85359 91023 91143
AAXX 31064 60723 NIL
AAXX 31064 60725 12558 72808 10129 2//// 30060 40239 53003 60054 878// 333 20119 70046 84820 84630
AAXX 31064 60735 12558 33308 10134 20076 30121 40203 53004 60004 83800 333 20116 83823
AAXX 31064 60745 12560 2//// 10072 20006 39873 40254 53008 60004 82500 333 20060 82630
AAXX 31064 60748 13562 71808 10106 20039 39810 40234 58001 60004 878// 333 20086 84823 85640
AAXX 31064 60750 12560 62611 10120 20035 30189 40215 53009 60004 86800 333 20114 83820 84630
AAXX 31064 60760 12560 22508 10059 20000 30150 40258 53009 60004 82200 333 20059 70000 82830 91011 91118
AAXX 31064 60765 13558 22708 10108 20026 30247 40251 53010 60004 82500 333 20108 82630 92436 925//
AAXX 31064 60767 12558 32212 10079 20004 30097 40245 57015 60004 83200 333 20074 83820
AAXX 31064 60769 12558 42717 10141 20047 30213 40217 53004 60004 84800 333 20133 82820 83630
AAXX 31064 93004 16/// /3508 10184 20184 40019 57010 60001
AAXX 31064 93023 16/// /3105 10203 20196 40037 57012 60001
AAXX 31064 93069 16/// /0407 10200 20192 40041 57008 6///1
AAXX 31064 93110 17497 /0413 10213 20198 40033 57008 60001
AAXX 31064 93186 17396 /0307 10203 20198 40056 57009 60161
AAXX 31064 93196 16/// /3413 10193 20191 40091 57004 60001
AAXX 31064 93245 16496 /0410 10185 20174 40060 57006 60201
AAXX 31064 93292 17697 /2104 10212 20190 40072 52001 60041
AAXX 31064 93309 17698 /1521 10184 20158 40046 57008 60041
AAXX 31064 93334 16/// /1004 10145 20138 39133 57004 60261
AAXX 31064 93339 16/// /1205 10146 20141 39139 57005 60261
AAXX 31064 93373 17597 /2207 10170 20159 40084 52001 60101
AAXX 31064 93404 17597 /1508 10148 20129 40083 57001 60041
AAXX 31064 93420 17598 /2010 10144 20108 40095 52004 60031
AAXX 31064 93439 17496 /1723 10132 20103 40123 57002 60061
AAXX 31064 93498 16/// /2125 10137 20137 40091 57004 60171
AAXX 31064 93515 17898 /0406 10206 20180 40068 57006 60001
AAXX 31064 93527 16/// /1312 10149 20120 40079 57009 60051
AAXX 31064 93546 17898 /1806 10192 20117 40084 57006 60001
AAXX 31064 93597 16/// /1627 10132 20104 40113 52004 60001
AAXX 31064 93615 17/97 /2408 10215 20130 40077 57008 60001
AAXX 31064 93678 16898 /1913 10129 20096 40144 57010 60001
AAXX 31064 93709 16/// /2605 10203 20150 40082 57010 60001
AAXX 31064 93773 17798 /0707 10156 20097 40135 57014 60001
AAXX 31064 93781 17898 /0608 10153 20093 40142 57016 60001
AAXX 31064 93800 NIL
AAXX 31064 93805 NIL
AAXX 31064 93831 17/98 /1709 10242 20106 40068 57020 60001
AAXX 31064 93845 17/98 /1410 10187 20095 40108 57021 60001
AAXX 31064 93891 17/98 /1007 10194 20109 40114 57028 60001
AAXX 31064 93909 16/// /1507 10155 20091 40116 57020 60001
AAXX 31064 93929 16/// /2925 10106 20092 40056 57032 60001
AAXX 31064 93947 16/// /3112 10100 20087 40028 57030 60001
AAXX 31064 93987 NIL
AAXX 31064 93994 NIL
AAXX 31061 26509 11996 60000 11010 21013 30055 40064 52015 69942 71081 80002 333 21011 31/// 91001 91103 555 53006 7007/
AAXX 31061 26518 11156 83402 11006 21006 40061 52015 69962 72876 886// 333 21006 42997 88702 91003 91104 555 53005 7996/
AAXX 31061 26524 32697 73001 10008 20005 39919 40053 52009 87500 333 20006 32/// 87639 91003 91104 555 53006 7000/
AAXX 31061 26531 11629 80000 10008 20005 40049 52007 69932 71082 885// 333 20008 31/// 91001 91103 555 53007 7993/
AAXX 31061 26629 11225 80000 10002 21001 39959 40056 52010 60022 77172 8872/ 333 20000 43003 88703 91000 91103 93717 555 53005 7002/
AAXX 31061 26633 11456 81701 10002 21007 39920 40052 52005 69972 77172 8872/ 333 20001 43001 88710 91001 91104 555 53006 7997/
AAXX 31061 26730 11212 81501 10000 21003 39859 40052 53002 69962 77176 8802/ 333 21004 42001 88505 91002 91102 555 53006 7996/
AAXX 31061 01492 11989 00102 11047 21069 39968 40090 52007 60002 70200 333 21057 70000 91104
AAXX 31061 26645 11396 81801 11002 21014 39794 40057 52003 69902 77172 8872/ 333 21008 88707 555 90010
AAXX 31061 26659 31556 71802 11004 21009 39854 40071 53001 71022 875// 333 21020 87623 555 90010
AAXX 31061 26763 31332 81602 11003 21012 39851 40081 53002 71022 886// 333 21007 88707 555 90010
AAXX 31061 26825 11216 82002 10002 21001 39871 40056 53013 69972 77176 8872/ 333 20002 88704
AAXX 31061 26832 11250 81902 10006 20001 39864 40058 53004 69942 77172 8872/ 333 20003 86704 555 90010
AAXX 31061 26887 31496 82101 11005 21017 39893 40102 52007 71022 886// 333 21006 88715 555 90012
AAXX 31061 26961 31940 71701 11005 21013 39889 40084 53004 71022 8705/ 333 21016 555 90011
AAXX 31061 33027 11496 81701 10002 21004 39921 40091 53005 69902 77171 8672/ 333 21009 555 90012
AAXX 31061 26038 NIL
AAXX 31061 26045 NIL
AAXX 31061 26058 NIL
AAXX 31061 26115 NIL
AAXX 31061 26135 01284 72602 11005 21010 39951 40026 53015 69952 70222 87300 333 10017 21005 60007 87907 555 14100 21005 34100 50011 52101
AAXX 31061 26141 01384 82703 11008 21017 39869 40019 52016 60012 70287 875// 333 10014 21008 47001 60007 87609 555 1/101 21008 3/101 50007 52101
AAXX 31061 26231 01684 82402 10003 21020 30019 40034 52013 69912 70282 875// 333 10014 20000 60007 87643 555 12000 20000 32100 50016
AAXX 31061 26242 01684 72602 11002 21015 39943 40030 52013 60022 70272 87500 333 10027 21007 43997 69917 87640 555 1/100 21007 3/101 50018 52102
AAXX 31061 26247 NIL
AAXX 31061 14240 11/01 90000 11016 21018 30030 40192 52016 60002 74544 333 21016 31102 70001
AAXX 31061 14258 11/00 91601 11020 21020 39990 40186 52013 60002 74544 333 21020 34103 70000
AAXX 31061 14445 12684 10613 10070 21061 39969 40125 51017 60002 81100 222// 00140 333 20064 31001 70019 81896 91123 91505 92323
AAXX 31061 26038 01584 72702 11009 21037 39984 40025 52020 60012 70282 87500 333 10010 21009 43001 60007 87626 555 1/100 21009 3/100 50012 52102
AAXX 31064 16622 11330 83116 10050 20040 30071 40082 56007 60092 76166 8662/ 333 20034 33/// 5///0 55000 70093 83707 86625 88456 90730 91119 555 10000 30052 20000 89080 99100 30000 10052 2//// 30056 4//// 5//// 40000 47583 44210 50000 50046 60000 60093 60920 70000 77RY/ 7RY//
AAXX 31064 16641 11470 82003 10066 20066 30055 40060 52005 60022 72996 8582/ 333 20050 32/// 55002 70041 81818 85625 88458 90730 91110 555 10000 30088 20000 89070 99100 40000 47571 44200 50000 50066 60000 60021 60140 70000 77TR/ 7TRVP
AAXX 31064 16682 12560 50000 10076 20063 30031 40050 57007 60002 83145 333 20070 31/// 51790 55003 70177 83820 84358 85068 90730 91105 555 10000 30100 20000 89085 99100 30000 10080 20085 30090 40102 50115 60165 40000 47552 44190 50000 50070
AAXX 31064 16716 12560 60000 10074 20056 30033 40051 57007 69912 82255 333 20074 31/// 55008 70001 82820 83359 85070 555 10000 30126 20000 89059 99085 40000 47550 44160 50000 50066 60000 60001 60020
AAXX 31064 16734 NIL
AAXX 31064 16743 NIL
AAXX 31064 16749 12460 71005 10128 20080 30076 40091 57007 69922 85890 333 20110 30/// 55001 70073 82818 85625 87358 90730 91110 555 10000 30128 20000 89068 99090 40000 47588 44200 50000 50104 60000 60002 60100
AAXX 31064 16754 11465 61610 10114 20086 30023 40070 57010 60022 70262 83850 333 20100 31/// 50070 55023 70017 81818 83625 85358 90730 91112 555 10000 30120 20000 89069 99095 40000 47551 44220 50000 50100 60000 60016 60100 70000 77/// 7R///
AAXX 31063 78970 11466 30000 10234 20211 30108 40133 70511 82802 333 01209 10311 20231 58001 81816
AAXX 31061 15502 12968 80000 11008 21009 30091 40131 53006 60002 8807/ 333 10014 21046 55050 70000 555 34105 599// 92600
AAXX 31061 15525 11958 81802 11002 21008 39857 40130 53014 60002 71011 8805/ 333 10002 21042 70000 555 31107 596// 92600
AAXX 31061 15528 12962 80000 11018 21020 39919 40115 53033 60002 8802/ 333 11006 21033 55000 70000 555 34104 598//
AAXX 31061 15535 11959 80000 11005 21020 30073 40121 52008 60002 71022 8802/ 333 10012 21008 55065 70000 555 31/// 590// 92600
AAXX 31061 15549 12562 80502 11006 21024 39707 40134 53014 60002 886// 333 10001 21015 70000 555 34103 586//
AAXX 31061 15552 11540 80000 10022 20000 30069 40119 53005 60002 71022 8452/ 222// 2//00 314// 4//00 333 10025 20000 55033 70000 555 31103 586// 92014 92416 92600
AAXX 31061 15614 11640 80000 11030 21035 39413 40141 53013 69902 77172 8652/ 333 11027 21052 48005 55026 70000 555 3/108 595// 63599 70600
AAXX 31061 15615 11/02 91602 11096 21108 36989 47914 57003 60032 77377 333 11095 21125 48999 55022 70027 555 591// 69999 70649 92712
AAXX 31061 15626 11658 80000 10000 21006 39923 40116 53004 60022 77372 8802/ 333 10000 21032 47005 55014 70017 555 3/107 59602 69999 70666
AAXX 31061 15627 11/03 90504 11085 21096 37514 47934 56001 60022 77174 333 11068 21086 48020 55018 70024 93502 555 592// 69999 92713
AAXX 31061 15640 12964 80000 10020 21013 39799 40117 53006 60002 8802/ 333 10032 20006 55008 70000 555 31101 579//
AAXX 31061 15655 11520 80000 10052 20038 30076 40109 53004 60002 71022 885// 222// 00073 20000 333 10057 20041 70000 555 31/// 590// 92013 92415
AAXX 31061 15730 11505 80000 10002 21001 39710 40111 54000 60072 77376 8802/ 333 10010 21002 47003 55000 70069 555 3/102 59804 69999 70654
AAXX 31064 08001 11360 8//// 10118 20115 30234 40317 57011 69912 75052 887// 333 20106 31007 50144 55022 70001 924/6
AAXX 31064 08015 12660 71706 10084 20040 39905 40317 58013 60002 875// 333 20060 30004 50144 55070 70000
AAXX 31064 08023 12575 82407 10127 20061 30231 40303 57007 60002 8657/ 333 20100 50243 55002 79999
AAXX 31064 08027 12470 82513 10106 20077 39987 40301 57008 60002 888// 333 20087 31007 50200 55000 70014
AAXX 31064 08045 02566 82107 10068 20043 30027 40346 58009 60002 887// 333 20065 30004 55082 60007 70000
AAXX 31064 08141 NIL
AAXX 31064 08160 12660 52716 10086 20006 39984 40299 55012 60002 82550 333 20070
AAXX 31064 08181 02580 73509 10080 20014 30242 40248 55003 60002 81807 333 20079 3/010 55041 60007 70000
AAXX 31064 08221 02965 00202 11017 21036 39629 40354 55004 60002 333 21017 30103 55084 60007 70000
AAXX 31064 08231 12970 03504 10044 21006 39198 48584 55004 60002 333 20037 30003 50254 55079 70000
AAXX 31064 08261 NIL
AAXX 31064 08284 02965 32510 10084 20001 30193 40270 53001 60002 80008 333 20066 30005 50244 55087 60007 70000
AAXX 31064 08306 12570 42507 10118 20075 30250 40256 55005 60002 81108 333 20104 55080 70000
AAXX 31064 08314 02568 73107 10119 20076 30150 40254 55003 60002 878// 333 20099 3//// 55075 60007 70000
AAXX 31064 08430 12970 03005 10080 20048 30200 40277 56008 60002 333 20030 30002 50151 55094 70000
AAXX 31064 08482 NIL
AAXX 31064 60106 32965 00000 10002 21007 40352 56006 333 21004
AAXX 31064 60318 32960 02711 10127 20023 40305 58002 333 20105
AAXX 31061 14241 11110 82604 11017 21021 30055 40191 53014 60002 71042 886// 333 21022 31/// 70001
AAXX 31061 14284 11220 32803 11010 21015 30064 40177 52014 60002 71011 83600 333 21011 34103
AAXX 31061 14307 32982 20603 10014 21056 30100 40179 51017 80004 333 21003 31///
AAXX 31061 14317 NIL
AAXX 31061 14431 12770 10702 10036 21044 30065 40161 53021 60002 81100 333 21009 31/// 70036
AAXX 31061 14444 32980 02602 10065 21043 30113 40143 52024 333 20039 30/// 70036
AAXX 31061 14474 11780 60316 10070 21050 39901 40093 53012 60042 70162 82570 333 20046 31/// 70060 91022 91503 91125 91503
AAXX 31064 16643 12460 70206 10074 20061 30065 40070 55000 60132 85770 333 20060 32/// 70160 82710 83625 87358 90730 91108 555 10000 30100 20000 89082 99097 40000 47580 44215 50000 50068 60000 60134 60500 70000 77/// 7/Y//
AAXX 31064 16648 11315 80000 10042 20037 39987 40078 56007 60012 75165 8662/ 333 20038 32/// 50280 55000 70014 83708 86625 88457 90730 91103 555 10000 30046 20000 89078 99097 30000 10052 2//// 30056 40050 5//// 6//// 40000 47521 44210 50000 50040 60000 60014 61000 70000 77DY/ 7RDY/
AAXX 31064 16650 11460 71312 10108 20079 30035 40039 57011 60062 70262 86670 333 20104 31/// 55000 70059 81710 86620 87358 90730 91124 555 10000 30110 20000 89067 99093 30000 10090 20088 30086 40086 50096 60120 40000 47558 44230 50000 50094 60000 60059 60430 70000 77/// 7R///
AAXX 31064 16684 12460 73010 10108 20075 30015 40043 55000 60002 85670 333 20094 30/// 55015 70000 82712 85625 86358 90730 91112 555 10000 30116 20000 89061 99079 40000 47542 44210 50000 50092
AAXX 31064 16732 11465 71812 10132 20089 30049 40060 57022 60032 70262 84870 333 20084 31/// 55012 70032 82818 83625 87360 90730 91122 555 10000 30132 20000 89054 99088 40000 47561 44150 50000 50110 60000 60028 6//// 70000 77/// 7R///
AAXX 31064 16614 36/// /9901 11022 21027 39302 40103 52006 333 21022 90730 91103 555 10000 30007 20000 89059 99///
AAXX 31064 16627 11458 80510 10064 20050 30073 40076 56002 60012 76162 8682/ 333 20052 31/// 50060 55000 70010 82818 86630 88457 90730 91120 555 10000 30072 20000 89084 99093 30000 10054 20054 30054 40058 50076 6//// 40000 47585 44220 50000 50058 60000 60010 60220 70000 77R// 7R///
AAXX 31064 16667 11458 81510 10106 20082 30078 40083 56017 60022 76262 8682/ 333 20064 31/// 55040 70022 83818 85620 88458 90730 91118 555 10000 30120 20000 89052 99086 30000 20090 30096 40000 47588 44200 50000 50094 60000 60022 60300 70000 77R// 7R///
AAXX 31064 16675 NIL
AAXX 31064 16710 36/// /9901 10018 20010 39296 40078 57003 333 20016 90730 91106 555 10000 30062 20000 89072 99095
AAXX 31064 16723 11460 81216 10118 20094 30059 40075 57004 60122 70362 8487/ 333 20104 31/// 55/// 70121 82818 84620 88357 90730 91122 555 10000 30124 20000 89058 99092 40000 47575 44200 50000 50106 60000 60120 60300 70000 77/// 7R///
AAXX 31064 16738 NIL
AAXX 31064 16746 11560 70000 10094 20086 39886 40069 57003 60042 72162 84870 333 20090 31/// 55021 70047 82820 84630 87358 90730 91113 555 10000 30104 20000 89069 99095 40000 47443 44185 50000 50090 60000 60040 60250 70000 77R// 7R///
AAXX 31061 14008 12599 23207 11124 21226 37411 47949 52012 60002 81032 333 21142 49100 55008 70000 92868 95165 444 36086
AAXX 31061 14023 12999 12401 11047 21050 39893 40203 52012 60002 81040 333 21050 34109 55000 70000 555 20003 30011
AAXX 31061 14024 46/// ///// 1//// 2//// 3//// 4//// 5////
AAXX 31061 14026 12998 13001 11055 21064 39860 40198 52012 60002 81040 333 21059 34109 55000 70000 555 20004 30014
AAXX 31061 14031 11596 12602 11037 21045 39953 40192 52013 60002 710// 81500 333 21037 34107 55000 70000 81633 555 21006 30006
AAXX 31061 14106 12999 31601 11034 21038 30101 40173 53004 60002 80008 333 21047 34107 55014 70002 95000 555 20007 30016
AAXX 31061 14112 12/96 10000 11076 29095 60004 333 10039 21080 3/109
AAXX 31061 14121 12397 82602 11017 21021 39919 40196 52014 60002 886// 333 21017 31102 55000 70000 88707 555 20014 30022
AAXX 31061 14122 11130 82803 11013 21013 39996 40200 52016 60002 71022 886// 333 21014 31/// 70001 88703
BBXX BATUK01 31064 99560 70032 46/// /2505 10092 20042 40003 58003 22200 00059
AAXX 31063 04013 42589 61813 10030 20009 49660 57031 82220 555 3//18
AAXX 31063 04064 NIL
AAXX 31064 04005 NIL
AAXX 31064 04018 41562 41710 10037 21023 49673 57039 71011 81131 555 3//20 81828 84067
AAXX 31064 04030 41682 61405 10027 21003 49682 57038 71521 81571 555 3//10 81642 85366
AAXX 31064 04048 NIL
AAXX 31064 04063 42570 81306 10034 21030 49696 57026 8552/ 555 3//09
AAXX 31064 04077 NIL
AAXX 31064 04082 NIL
AAXX 31064 04097 41580 32302 10024 20014 49716 57009 71011 83800 555 3/408
AAXX 31064 48375 32960 00000 10315 20174 39904 40126 57029 333 58020
AAXX 31064 17022 12960 61004 10049 21004 39954 40122 55001 60002 83048 333 20043 30003 55011 83360 86270 91106 92427
AAXX 31064 17031 12970 31001 10021 20009 30133 40140 53003 60002 80001 333 21006 30101 83070
AAXX 31064 17038 12970 32210 10140 21080 30097 40148 56003 60002 83030 333 20052 30002 55076 20741 83360 92428
AAXX 31064 17050 12670 83604 10040 20038 30036 40099 50002 69922 8552/ 333 20040 31004 55021 70002 85635 88460 91109
AAXX 31064 17060 NIL
AAXX 31064 17096 12570 40202 11107 21111 38243 48524 51005 60002 84500 333 21207 3/121 47009 50014 55050 20368 83630
AAXX 31064 17124 11556 70908 11010 21025 39210 40155 55000 69922 71072 84550 333 21031 3/104 41998 50064 55025 20540 70002 84630 86360 93100
AAXX 31064 17128 11656 70803 11018 21031 39053 40188 52008 60002 71022 84550 333 21035 30105 50034 55009 20159 84635 86359
AAXX 31064 17170 NIL
AAXX 31064 17195 11513 60000 11027 21040 38942 48454 52008 60002 71011 81531 333 21067 3/108 45998 50024 55025 20896 81630 83360 86070
AAXX 31064 17199 12670 72302 10017 21030 39099 40219 52008 60002 83550 333 20003 30102 55070 20695 83635 87360
AAXX 31064 17219 11557 79902 10073 20056 39939 40085 55002 60022 78062 84250 333 20043 32003 55030 20217 7001 6 84830 87360
AAXX 31064 17240 11560 70501 10029 20004 38977 40137 53001 69962 76062 85550 333 20019 32002 55000 20268 700 14 85630 87360 91112
AAXX 31064 17244 11657 52704 10003 21016 38956 48448 52008 60002 71022 83550 333 21021 31/// 55/// 2//// 83635 85359
AAXX 31064 17280 12660 73302 10028 20007 39412 40226 53006 60002 82530 333 21021 34105 50121 55076 20360 82640 87360
AAXX 31064 17350 11560 80510 10093 20024 30086 40165 53015 69902 72122 8622/ 333 20083 30/// 79999 82725 84835 88460
AAXX 31064 17026 12970 50501 10080 20018 30097 40136 52007 60002 83035 333 20061 30002 55058 20833 83359 8527 0 91108 92418
AAXX 31064 17034 12970 40901 10091 21012 30103 40149 53003 60002 80001 333 20063 30003 84070 92428
AAXX 31064 17070 12565 63001 11010 21025 39260 40147 55001 60002 83550 333 21020 3/104 45998 50054 55019 20494 83630 86360 91107
AAXX 31064 17084 11956 70000 11049 21059 39258 40199 52008 60002 71000 83038 333 21057 34107 55040 83360 87270 91102
AAXX 31064 17090 12665 60000 11006 21067 38708 48478 52007 60002 84550 333 21022 3/103 47001 55041 84640 86360
AAXX 31064 17098 11916 00000 11153 21158 38219 48544 52008 60002 71040 333 21228 3/123 43014 50014 55013 20737
AAXX 31064 17150 11902 00301 11013 21013 39974 40101 57007 60002 74844 333 21022 34103 50021 55044 20670
AAXX 31064 17160 12670 72501 11010 21041 38990 48453 53006 60002 84550 333 21042 34106 55028 84640 87360 91108
AAXX 31064 17184 12670 50401 10027 20022 39980 40094 56010 60002 83230 333 20017 31000 55017 83840 85360 91102
AAXX 31064 17189 11657 61005 10006 21003 38963 48426 52003 69942 71022 84550 333 21005 3/102 41001 70004 84635 86360
AAXX 31064 17210 12670 63401 10052 21024 39172 40223 53007 60002 83570 333 20030 30101 55073 83633 86360
AAXX 31064 17234 12670 70704 10078 20051 30030 40098 55004 60002 83270 333 20075 31006 50084 55004 83840 87360 91113
AAXX 31064 17260 12560 50908 10044 21027 39373 40204 52018 60002 83530 333 20027 30001 50124 55071 21189 83630 85359
AAXX 31064 17290 12570 71307 10128 20095 30057 40089 57008 60022 84270 333 20103 32009 50064 55004 70111 8483 0 87360 91119 92428
AAXX 31064 17370 11665 72304 10113 20026 30153 40157 52010 69922 72522 84270 333 20102 32005 50144 55073 2//// 70002 84835 87460 92427
AAXX 31064 17024 12970 61813 10041 21003 30052 40131 53005 60002 81036 333 20033 31002 55058 81360 86270 91116 92428
AAXX 31064 17056 11657 70304 10071 20069 30091 40095 55000 60002 71000 83570 333 20045 31002 55013 20360 83634 87360 91109 92426
AAXX 31064 17067 12670 61303 10047 20008 30081 40104 56005 60002 83230 333 20026 30001 55000 82840 86360 91108 92408
AAXX 31064 17092 12660 62801 10015 21070 38868 48496 53008 60002 84550 333 21028 30104 50044 55078 21168 84640 86360
AAXX 31064 17112 1//// /0304 10068 20058 30075 40077 55000 60032 333 20059 3/002 4//// 70032
AAXX 31064 17115 11656 50000 11004 21007 30039 40092 57005 60002 71022 83230 333 21014 34102 50044 55043 20682 83835 85360
AAXX 31064 17116 12662 50903 10047 21005 39985 40109 53002 60002 83150 333 20039 30002 55036 20046 83835 85360 91111
AAXX 31064 17188 11660 70402 10037 20019 39048 40116 56002 60022 70262 85570 333 20029 32003 55000 70023 85635 87360 91109
AAXX 31064 17202 12670 62303 10007 21018 39181 40241 52007 60002 82550 333 21017 31103 82635 86359
AAXX 31064 17248 12671 70302 10006 21026 38945 48450 53008 60002 83570 333 21017 34105 55049 2//// 83640 87360
AAXX 31064 17292 11560 71302 10063 20061 39347 40109 57004 60012 78082 84270 333 20045 32004 50054 55000 20138 70064 84830 87359 91108
AAXX 31064 17300 11457 70104 10085 20075 30065 40137 53008 60062 78088 87900 333 20084 3//// 50251 55/// 2//// 70118 81915 86825
AAXX 31064 17310 11670 60502 10125 20037 30132 40139 53007 69902 70282 83250 333 20119 31008 55045 79999 8383 5 86360 91104 92438
AAXX 31064 17330 12670 50704 10131 21005 30142 40160 52019 60002 83230 333 20094 31005 50141 55071 83840 85360
AAXX 31064 48372 31958 20000 10303 20217 30092 40150 57028 70500 80001 333 58013
AAXX 31064 71900 46/// /25// 11163 21214 30180 40193 53019 6///1 333 11042 21169 7////
AAXX 31064 71903 NIL
AAXX 31064 71904 NIL
AAXX 31064 71914 16/// /2601 10012 21023 39973 40196 53044 60001 333 10068 20008 70017 555 30218 40071
AAXX 31064 71916 NIL
AAXX 31064 71918 460// ///// 11320 6///1 333 7////
AAXX 31064 71920 NIL
AAXX 31064 71921 NIL
AAXX 31064 71923 NIL
AAXX 31064 71927 16/// /2705 10045 21034 30139 40197 53044 60001 333 10086 20038 70028 555 32723 40231
AAXX 31064 71941 15466 81305 11106 21122 39713 40144 58007 60001 333 11106 21301 70000
AAXX 31064 71947 17658 81204 11156 21172 39795 40157 56016 60001 771// 333 11156 21337 70000
AAXX 31064 71102 NIL
AAXX 31064 71105 NIL
AAXX 31064 71107 NIL
AAXX 31064 71110 NIL
AAXX 31064 71111 15966 02104 11016 21041 30172 40180 51038 60001
AAXX 31064 71112 16/// ///// 60001 333 70006
AAXX 31064 71113 16/// /2703 10052 20000 30159 40182 53053 60001 333 10089 20032 70050 555 32324 40001
AAXX 31064 71115 16/// /2906 10048 21049 39513 40090 53052 60001 333 10075 21006 70018 555 32522 40051
AAXX 31064 71116 16/// /2618 10023 21060 38918 40000 53007 60001 333 10088 21041 70000 555 32628 40012
AAXX 31064 71118 16/// /2307 11076 21101 39148 49970 53027 60001 333 10012 21137 70000 555 31518 40181
AAXX 31064 71121 16764 63008 11044 21119 39161 49981 53029 60001 333 11015 21104 70000
AAXX 31064 71127 16/// /3008 11031 21056 39076 49984 53030 60001 333 11027 21086 70000
AAXX 31064 71130 15566 61513 11019 21038 39450 49905 56020 60001 333 11010 21142 70000
AAXX 31064 71132 15466 80705 11117 21137 39703 40019 53008 60001 333 11076 21117 70005
AAXX 31064 71133 NIL
AAXX 31064 71139 NIL
AAXX 31064 71141 NIL
AAXX 31064 71142 15966 62515 10001 21031 39010 49965 51015 60001 333 10043 21070 70000
AAXX 31064 71143 NIL
AAXX 31064 71144 NIL
AAXX 31064 71147 NIL
AAXX 31064 71149 NIL
AAXX 31064 71350 16/// /1504 11099 21114 30188 40256 51003 60001 333 11059 21104 70000 555 32632 40072
AAXX 31064 71351 NIL
AAXX 31064 71352 17/// /1006 10000 21001 39592 40045 56011 60041 7//4/ 333 10002 21034 70050 555 31017 40001
AAXX 31064 71353 NIL
AAXX 31064 71354 NIL
AAXX 31064 71355 16/// /2803 11320 21353 39942 40031 58001 60001 333 11304 21384 70000
AAXX 31064 71356 16/// /3517 11207 21231 39990 40058 53005 60001 333 11154 21208 70000 555 10030 33519 40061
AAXX 31064 71357 NIL
AAXX 31064 71358 17/// /2902 11335 21371 30029 40066 53002 60021 7//4/ 333 11282 21359 70093
AAXX 31064 71359 NIL
AAXX 31064 71360 NIL
AAXX 31064 71361 NIL
AAXX 31064 71362 NIL
AAXX 31064 71363 NIL
AAXX 31064 71364 NIL
AAXX 31064 71365 NIL
AAXX 31064 71368 17/12 /1205 10005 20002 39661 40049 56011 60051 7614/ 333 10008 21016 70058
AAXX 31064 71369 15566 82814 11053 21067 39288 49993 53030 60001 333 11014 21108 70000
AAXX 31064 71370 46/// /0507 11075 21104 30031 40172 58015 6///1 333 11075 21246 7////
AAXX 31064 71371 16566 80309 11078 30127 40162 58013 60001 333 11077 21186 70000
AAXX 31064 71372 16/// /0305 11076 21091 60001 333 11076 21182 70000
AAXX 31064 71373 16/// /3601 11036 21054 60001 333 11029 21215 70000
AAXX 31064 71374 NIL
AAXX 31064 71375 NIL
AAXX 31064 71376 17/// /0903 11073 21086 39854 40158 57012 60021 7//4/ 333 11072 21286 70020
AAXX 31064 71377 17/// /0408 11081 21101 30103 40153 58015 69931 7//4/ 333 11081 21195 70003 555 10010 20003 30417 40201
AAXX 31064 71378 16/// /3404 11152 21188 39978 40197 57013 60001 333 11151 21327 70000
AAXX 31064 71379 16/// /2903 11240 21269 30032 40214 55006 60001 333 11199 21314 70000
AAXX 31064 71380 NIL
AAXX 31064 71381 NIL
AAXX 31064 71382 16/// /0000 11130 21144 39221 40198 58005 60001 333 11100 21317 70000
AAXX 31064 71383 NIL
AAXX 31064 71384 NIL
AAXX 31064 71385 NIL
AAXX 31064 71386 NIL
AAXX 31064 71387 NIL
AAXX 31064 71388 46/// /2703 11198 21227 30019 40218 56015 6///1 333 11188 21261 7////
AAXX 31064 71389 46/// /1006 11064 21117 6///1 333 11064 21269 7//// 555 30919 40051
AAXX 31064 71390 46/// /3605 11122 6///1 333 11053 21123 7//// 555 32920 40071
AAXX 31064 71391 17/// ///// 11086 21099 60011 7//4/ 333 11086 21230 70013
AAXX 31064 71392 16/// /0815 11070 21103 60001 333 11070 21201 70000 555 30622 40061
AAXX 31064 71393 NIL
AAXX 31064 71395 12774 41205 11041 21088 30072 40255 53001 60001 84500 333 10003 21059 70000 555 10000 20000 32525 40070
AAXX 31064 71398 15966 00704 11223 21242 30137 40149 56010 60001 333 11186 21297 70000
AAXX 31064 71399 NIL
AAXX 31064 71150 46/// /1809 11048 21053 39299 49978 58025 6///1 333 11046 21133 7////
AAXX 31064 71151 NIL
AAXX 31064 71152 16/// /3110 11014 21065 30228 40241 53025 60001 333 10003 21052 70009 555 32547 40083
AAXX 31064 71153 16/// /2612 11009 21051 60001 333 10058 21017 70000 555 32623 40211
AAXX 31064 71154 16/// /2318 11009 21072 60001 333 10037 21023 70006 555 32039 40113
AAXX 31064 71155 NIL
AAXX 31064 71156 NIL
AAXX 31064 71157 NIL
AAXX 31064 71158 NIL
AAXX 31064 71159 NIL
AAXX 31064 71160 NIL
AAXX 31064 71161 16/// /0509 11076 21088 39958 40110 58021 60001 333 11076 21143 70004 555 10010 20004
AAXX 31064 71162 NIL
AAXX 31064 71163 46/// /0301 11163 21177 39710 40059 51019 6///1 333 11160 21166 7////
AAXX 31064 71164 NIL
AAXX 31064 71165 NIL
AAXX 31064 71166 NIL
AAXX 31064 71167 17620 82905 11085 21099 38913 40017 53038 60001 771// 333 11051 21130 70000
AAXX 31064 71168 16/// /1505 11009 21010 39505 40088 58016 60001 333 10032 21011 70007 555 33222 40171
AAXX 31064 71170 16/// /1812 11042 21053 60001 333 11042 21146 70021 555 31717 40061
AAXX 31064 71171 17/// /1204 10035 20031 39943 40039 58015 60031 7//4/ 333 10058 20007 70036
AAXX 31064 71172 17/// ///// 11013 21021 39842 40060 56024 60031 7//4/ 333 11013 21074 70034 555 10020 20034
AAXX 31064 71175 16/// /3303 11079 21088 30239 40275 53015 60001 333 7////
AAXX 31064 71176 460// /2644 11199 39396 40099 58004 6///1 333 11160 21199 7//// 555 30356 40063
AAXX 31064 71177 460// /2315 11204 39081 40120 55003 6///1 333 11122 21211 7////
AAXX 31064 71178 16/// /3119 11021 21059 30170 40202 53032 60001 333 11003 21028 70000 555 32559 40083
AAXX 31064 71179 460// /2810 11174 39301 40152 51015 6///1 333 11070 21174 7////
AAXX 31064 71180 16/// /3110 11011 21049 30210 40250 51018 60001 333 10001 21058 70007 555 32544 40083
AAXX 31064 71181 16564 83011 11001 21062 30174 40211 53026 60001 333 10002 21034 70010
AAXX 31064 71183 16/// /0408 30117 58013 60001 333 70000
AAXX 31064 71184 46/// /0207 11069 21092 6///1 333 11066 21215 7////
AAXX 31064 71186 NIL
AAXX 31064 71187 15766 12916 10061 21018 30116 40164 52056 60001 333 10083 20023 70000
AAXX 31064 71189 NIL
AAXX 31064 71190 NIL
AAXX 31064 71191 16/// ///// 11059 21099 60001 333 11019 21094 70000
AAXX 31064 71192 15966 01302 11068 21107 39464 40134 51058 60001 333 10005 21068 70016
AAXX 31064 71193 16/// /1102 11129 21143 39750 40124 58003 60001 333 11128 21254 70003 555 10010 20003
AAXX 31064 71196 17/// /0702 11103 21110 39922 40127 58023 60021 7//4/ 333 11103 21227 70022 555 10030 20022
AAXX 31064 71197 17040 82909 11017 21040 30197 40247 53016 60001 745// 333 11005 21056 70005 555 32754 40103
AAXX 31064 71198 46/// /0414 11061 21110 6///1 333 11060 21183 7//// 555 30519 40231
AAXX 31064 71199 46/// /0000 11256 21283 39228 40104 53028 6///1 333 11235 21317 7////
AAXX 31064 71700 17566 80404 11068 21105 30222 40249 55003 60001 771// 333 11043 21115 70000
AAXX 31064 71701 11569 80000 11065 21107 30185 40249 55003 69901 72611 8557/ 333 11048 21119 79999 90910 555 19999 29999 32421 40070
AAXX 31064 71702 16/// /1103 11088 21119 30231 40247 50001 60001 333 11053 21110 70000 555 32631 40082
AAXX 31064 71703 NIL
AAXX 31064 71704 17364 81907 10054 20050 39801 40020 55000 60021 76144 333 10057 20018 70101
AAXX 31064 71710 16/// /2406 11028 21052 30244 40254 51012 60001 333 11015 21079 70011 555 32639 40073
AAXX 31064 71712 16/// /0710 11074 21090 30079 40143 58017 60001 333 11074 21199 70000 555 30519 40141
AAXX 31064 71713 16/// /0604 11114 21143 60001 333 11103 21169 70000 555 32232 40072
AAXX 31064 71716 NIL
AAXX 31064 71717 NIL
AAXX 31064 71720 NIL
AAXX 31064 71721 16/// /3402 11109 21122 39885 40140 58014 60001 333 11109 21249 70000
AAXX 31064 71723 NIL
AAXX 31064 71724 NIL
AAXX 31064 71732 NIL
AAXX 31064 71733 16/// /0408 11090 21095 39663 40106 58011 60001 333 11088 21151 70000
AAXX 31064 71734 NIL
AAXX 31064 71736 NIL
AAXX 31064 71737 NIL
AAXX 31064 71741 16/// /2614 10035 21033 39696 40114 53077 60001 333 10092 20013 70000 555 33335 40053
AAXX 31064 71742 NIL
AAXX 31064 71743 NIL
AAXX 31064 71744 NIL
AAXX 31064 71745 NIL
AAXX 31064 71746 NIL
AAXX 31064 71747 NIL
AAXX 31064 71748 NIL
AAXX 31064 71401 16/// /1807 10022 21016 39408 40091 53033 60001 333 10057 21002 70056 555 31918 40231
AAXX 31064 71402 NIL
AAXX 31064 71404 NIL
AAXX 31064 71405 NIL
AAXX 31064 71406 NIL
AAXX 31064 71407 NIL
AAXX 31064 71408 NIL
AAXX 31064 71409 NIL
AAXX 31064 71410 15266 81708 11056 21063 39727 40007 56018 60001 333 11050 21082 70000
AAXX 31064 71413 NIL
AAXX 31064 71414 NIL
AAXX 31064 71415 16/// /1904 11055 21077 30251 40254 50001 60001 333 11031 21072 70000 555 32330 40092
AAXX 31064 71417 NIL
AAXX 31064 71418 NIL
AAXX 31064 71419 46/// /1802 11041 21055 30261 40271 51012 6///1 333 11002 21051 7//// 555 32434 40093
AAXX 31064 71423 NIL
AAXX 31064 71424 46/// /0424 6///1 333 7//// 555 30429 40062
AAXX 31064 71425 16/// /1910 11083 21124 30218 40255 53006 60001 333 11066 21093 70010 555 32744 40083
AAXX 31064 71426 NIL
AAXX 31064 71427 NIL
AAXX 31064 71428 16/// /1809 11126 21158 30244 40251 51007 60001 333 11083 21126 70000 555 32337 40083
AAXX 31064 71429 NIL
AAXX 31064 71434 NIL
AAXX 31064 71436 17261 80605 11047 21054 39846 40085 56024 60001 771// 333 11046 21092 70000
AAXX 31064 71437 46/// /3408 10031 20020 39953 40048 58013 6///1 333 10047 20005 7//// 555 30221 40031
AAXX 31064 71438 NIL
AAXX 31064 71439 NIL
AAXX 31064 71440 NIL
AAXX 31064 71442 16/// /1709 11047 21057 39714 40030 58016 60001 333 11046 21156 70000 555 31518 40051
AAXX 31064 71445 NIL
AAXX 31064 71446 16/// /2719 10003 21041 38998 49961 51015 60001 333 10042 21074 70011 555 31631 40192
AAXX 31064 71448 16/// /1506 11078 21090 39720 40055 58013 60001 333 11067 21157 70000
AAXX 31064 71449 16/// /1805 11046 21059 39660 40067 56020 60001 333 11046 21134 70000
AAXX 31064 71001 15966 02906 11324 21359 39021 40051 53026 60001 333 11264 21361 70000
AAXX 31064 71002 15466 82605 11170 21197 39671 40237 51004 60001 333 11107 21222 70000
AAXX 31064 71003 15966 00804 11264 21288 39812 40216 58011 60001 333 11180 21290 70000
AAXX 31064 71005 NIL
AAXX 31064 71006 NIL
AAXX 31064 71007 NIL
AAXX 31064 71008 NIL
AAXX 31064 71009 NIL
AAXX 31064 71010 NIL
AAXX 31064 71011 NIL
AAXX 31064 71012 NIL
AAXX 31064 71013 NIL
AAXX 31064 71014 NIL
AAXX 31064 71015 NIL
AAXX 31064 71016 NIL
AAXX 31064 71017 NIL
AAXX 31064 71018 NIL
AAXX 31064 71019 NIL
AAXX 31064 71020 NIL
AAXX 31064 71021 NIL
AAXX 31064 71022 17666 13107 10010 21064 30119 40163 53047 69931 7004/ 333 10022 21005 70028 555 32827 40021
AAXX 31064 71023 17448 83604 11065 21077 39186 49957 53019 60031 74544 333 11037 21144 70030
AAXX 31064 71024 16/// /0901 11160 21171 60001 333 11148 21223 70000
AAXX 31064 71026 NIL
AAXX 31064 71027 16/// /2403 11028 21067 30251 40261 53016 60001 333 11021 21070 70009 555 32527 40091
AAXX 31064 71028 16/// /3503 11098 21106 39107 40157 53040 60001 333 10020 21098 70027 555 10040 20027 31622 40001
AAXX 31064 71029 NIL
AAXX 31064 71030 16/64 /1006 10014 21010 30132 40223 56010 60001 333 10014 21083 70000
AAXX 31064 71032 46/// /2205 10000 21059 39304 40138 53052 6///1 333 10030 21020 7//// 555 10020 31920 40061
AAXX 31064 71033 46/// /0606 11109 21118 39357 49990 53002 6///1 333 11046 21109 7////
AAXX 31064 71035 NIL
AAXX 31064 71036 15766 80302 11042 21058 39605 49979 57030 60001 333 11025 21129 70000
AAXX 31064 71039 46/// /0000 11360 6///1 333 11237 21365 7////
AAXX 31064 71040 46/// /3001 11209 21239 30003 40214 58013 6///1 333 11184 21258 7////
AAXX 31064 71041 15966 00602 11110 21122 30121 40268 51011 60001 333 11037 21114 70000 555 32836 40113
AAXX 31064 71042 16/// /2003 10018 21001 30178 40182 53037 60001 333 10091 20018 70015 555 32320 40131
AAXX 31064 71044 16/// /0805 11274 21310 39743 40076 53013 60001 333 11238 21276 70000
AAXX 31064 71046 460// /1703 11247 30072 40090 53012 6///1 333 11247 21301 7//// 555 32619 40111
AAXX 31064 71047 NIL
AAXX 31064 71048 NIL
AAXX 31064 71049 NIL
AAXX 31064 71060 NIL
AAXX 31064 71063 NIL
AAXX 31064 71043 11083 00000 11301 21348 39992 40090 52016 69901 7677 333 11227 21309 48034 70010 90983 555 10010 20010
AAXX 31064 71045 16/// /0000 11239 21264 39180 40075 52030 60001 333 11146 21246 70000
AAXX 31064 71050 46/// /0601 11104 21134 39051 40150 53039 6///1 333 10014 21135 7//// 555 32631 40012
AAXX 31064 71051 NIL
AAXX 31064 71052 NIL
AAXX 31064 71066 12574 80000 11141 21172 39609 40038 53023 60001 865// 333 11130 21245 70000 555 10000 20000
AAXX 31064 71068 11574 82905 11079 21098 39322 40017 53037 69901 77172 885// 333 11050 21108 47007 70026 90927 555 10026 20026
AAXX 31064 71069 16464 62812 11053 21062 39289 49993 53031 60001 333 11014 21116 70000 555 32819 40071
AAXX 31064 71076 16/// /0201 11117 21129 39623 40020 53008 60001 333 11106 21126 70000
AAXX 31064 71077 17/// /0108 11057 21067 39431 49969 53010 69931 7//4/ 333 11008 21070 70003
AAXX 31064 71079 11266 81803 11067 21069 39719 49999 55008 69941 77177 885// 333 11067 21145 48009 70014 90983 555 10022 20014
AAXX 31064 71081 46964 03312 11298 21342 30029 40041 53001 6///1 333 11219 21304 7////
AAXX 31064 71082 NIL
AAXX 31064 71083 11566 73202 11169 21178 30003 40046 50001 69901 77177 87500 333 11134 21169 48058 70007 90983 555 10011 20007
AAXX 31064 71090 46961 02803 11334 21371 30030 40067 6///1 333 11281 21356 7////
AAXX 31064 71091 460// /0714 11250 39831 40047 56008 6///1 333 7////
AAXX 31064 71092 NIL
AAXX 31064 71093 460// ///// 11242 39534 40047 53001 6///1 333 11229 21271 7////
AAXX 31064 71094 46064 /0205 11246 39091 40010 55001 6///1 333 11195 21246 7//// 555 33436 40103
AAXX 31064 71095 46962 01902 11345 21388 39986 40071 55001 6///1 333 11302 21367 7////
AAXX 31064 71101 160// /2104 30172 51037 60001 333 70180 555 32936 40013
AAXX 31064 71104 12974 03108 11043 21149 39011 40129 52057 60001 333 10039 21043 70004 555 10004 20004 31527 40081
AAXX 31064 71108 11574 61810 10034 21007 30118 40191 52047 69901 70281 85230 333 10083 20032 70017 90951 555 10000 20000
AAXX 31064 71109 11462 62308 10010 21012 30174 40201 51046 60021 78582 84870 333 10048 20008 43999 70140 90927 555 10014 20014 32727 40200
AAXX 31064 71051 NIL
AAXX 31064 71055 NIL
AAXX 31064 71057 NIL
AAXX 31064 71059 460// ///// 11317 30046 40142 51013 6///1 333 11315 21330 7//// 555 31018 40071
AAXX 31064 71061 16/// /2505 11073 21092 39198 49982 53031 60001 333 11028 21124 70000
AAXX 31064 71062 46/// /2505 11064 21102 38907 49976 53029 6///1 333 11023 21088 7//// 555 10010
AAXX 31064 71064 460// /3512 11368 39921 40153 52009 6///1 333 11360 21394 7//// 555 30118 40171
AAXX 31064 71065 NIL
AAXX 31064 71067 NIL
AAXX 31064 71070 NIL
AAXX 31064 71073 NIL
AAXX 31064 71074 16/// ///02 11344 21378 30031 40113 51009 60001 333 11343 21360 70000 555 10010
AAXX 31064 71075 NIL
AAXX 31064 71078 NIL
AAXX 31064 71084 460// ///// 11349 30072 40123 53012 6///1 333 11348 21362 7////
AAXX 31064 71085 15966 02618 11008 21077 38644 40006 53003 60001 333 10052 21031 70005
AAXX 31064 71087 NIL
AAXX 31064 71088 460// /2906 11212 58003 6///1 333 11207 21242 7////
AAXX 31064 71089 NIL
AAXX 31064 71096 460// ///// 11264 39296 40052 53001 6///1 333 11230 21283 7////
AAXX 31064 71097 46064 02407 11216 39604 40095 53003 6///1 333 11206 21223 7//// 555 30427 40081
AAXX 31064 71098 43/// /1604 11099 21111 39694 40059 58008 6///1 333 11087 21122 7////
AAXX 31064 71099 43/// /1907 11143 21181 30061 40082 56007 6///1 333 11143 21185 7//// 555 32017 40111
AAXX 31064 71250 NIL
AAXX 31064 71251 16/// /2717 10006 21048 39080 49993 53014 60001 333 10087 20006 70000 555 32639 40233
AAXX 31064 71252 NIL
AAXX 31064 71253 46/// /0000 11198 21212 6///1 333 11135 21225 7////
AAXX 31064 71254 16/// /3403 11058 21074 60001 333 10003 21134 70000 555 10010 31220 40151
AAXX 31064 71255 17/// /3507 11091 21107 69971 7//4/ 333 11017 21095 70007 555 10010 20007 33218 40101
AAXX 31064 71256 46/// /2908 11054 21066 39066 40002 53034 6///1 333 11031 21102 7////
AAXX 31064 71257 NIL
AAXX 31064 71258 NIL
AAXX 31064 71259 NIL
AAXX 31064 71261 17/// /1307 10031 20026 39762 40020 56009 60071 7//4/ 333 10034 20007 70085 555 31020 40041
AAXX 31064 71263 NIL
AAXX 31064 71264 16/// /0604 11030 21083 30223 40255 55003 60001 333 10016 21040 70000 555 32629 40072
AAXX 31064 71265 17248 80618 10016 20010 39962 40056 56024 60031 7104/ 333 10016 21017 70040
AAXX 31064 71266 NIL
AAXX 31064 71267 15966 02623 10010 21059 38926 40002 53006 60001 333 10085 21045 70000
AAXX 31064 71268 NIL
AAXX 31064 71269 NIL
AAXX 31064 71270 NIL
AAXX 31064 71271 16/// ///// 11103 21114 60001 333 11031 21118 70000
AAXX 31064 71272 15266 83207 11105 21112 39638 49992 53011 60001 333 11063 21127 70000
AAXX 31064 71273 17/// /3006 11062 21066 39280 49938 53021 69981 7//4/ 333 11019 21170 70045
AAXX 31064 71274 NIL
AAXX 31064 71275 NIL
AAXX 31064 71276 NIL
AAXX 31064 71277 NIL
AAXX 31064 71278 NIL
AAXX 31064 71279 16/// /0205 11161 21188 30188 40257 51009 60001 333 11067 21162 70000 555 33317 40071
AAXX 31064 71281 NIL
AAXX 31064 71282 46/// /0905 11018 21018 39800 40073 56027 6///1 333 11018 21086 7//// 555 30917 40071
AAXX 31064 71283 NIL
AAXX 31064 71284 16/// ///// 11062 21092 60001 333 11022 21103 70000
AAXX 31064 71285 NIL
AAXX 31064 71286 NIL
AAXX 31064 71287 NIL
AAXX 31064 71288 NIL
AAXX 31064 71289 NIL
AAXX 31064 71290 15566 33403 11050 21084 39242 40080 53050 60001 333 11030 21098 70000
AAXX 31064 71291 16/// /2802 11065 21077 39818 40113 55000 60001 333 11054 21082 70000
AAXX 31064 71292 15966 31812 11014 21014 39342 49944 56016 60001 333 11014 21062 70000
AAXX 31064 71294 17/// /0303 11098 21107 39690 40102 56024 60031 7//4/ 333 11098 70039 555 10020 20039
AAXX 31064 71295 NIL
AAXX 31064 71296 NIL
AAXX 31064 71297 17/// /0505 10024 20024 60061 7//4/ 333 10038 20003 70064
AAXX 31064 71298 17/// /2313 10055 20045 39801 40029 52006 60011 7//4/ 333 10072 20011 70092 555 32221 40031
AAXX 31064 71299 NIL
AAXX 31064 71930 NIL
AAXX 31064 71931 16/// /2908 11040 21089 30176 40188 53033 60001 333 10030 21049 70000 555 32649 40083
AAXX 31064 71934 12874 70000 11195 21217 39774 40041 53012 60001 87500 333 11164 21247 47029 79999 555 10002 29999
AAXX 31064 71935 12874 92303 11172 21203 39844 40059 53019 60001 87020 333 11163 21240 79999 555 10004 29999
AAXX 31064 71936 11574 80000 11170 21202 39792 40059 52014 69901 70272 885// 333 11157 21176 48028 70012 90922 555 10046 20012
AAXX 31064 71937 NIL
AAXX 31064 71938 11759 80506 11285 21314 30099 40130 53012 69961 77177 8857/ 333 11283 21314 48028 70010 90983 93102 555 10040 20010
AAXX 31064 71940 NIL
AAXX 31064 71943 11774 51503 11098 21124 39188 40032 52032 69901 72211 85500 333 11044 21100 46003 70022 90942 555 10024 20022
AAXX 31064 71944 160// ///// 11072 53052 60001 333 11032 21103 70000
AAXX 31064 71945 11558 80000 11151 21193 39574 40059 52030 60001 77122 885// 333 11150 21226 47014 70010 90952 93101 555 10010 20010
AAXX 31064 71946 12274 80000 11275 21291 39863 40089 52024 60001 886// 333 11252 21297 48045 79999 555 19999 29999
AAXX 31064 71948 47008 /0829 11286 39985 40104 51010 6///1 745// 333 11275 21293 7//// 555 30843 40113
AAXX 31064 71949 46/// /0702 11247 21276 39145 40053 51018 6///1 333 11172 21279 7////
AAXX 31064 71951 11774 20000 11058 21069 39874 40145 53047 69901 70181 82500 333 10001 21062 47041 70058 90940 555 10072 20058 33625 40080
AAXX 31064 71957 46561 82902 11263 21333 39995 40088 52012 6///1 333 11201 21270 7////
AAXX 31064 71964 12986 41507 11140 21168 39155 40027 53022 60001 84070 333 11114 21191 70000 555 10000 20000 31722 40050
AAXX 31064 71966 17/// /0000 11299 21334 39575 40064 51013 60031 7//4/ 333 11281 21371 70073
AAXX 31064 71968 460// /2306 11302 30017 40085 53012 6///1 333 11220 21316 7//// 555 32718 40131
AAXX 31064 71604 16/// /2906 11067 21068 60001 333 11059 21108 70007 555 10060 20007 32647 40103
AAXX 31064 71605 16/// /2503 10041 21037 30025 40175 53046 60001 333 10079 20026 70052 555 30019 40001
AAXX 31064 71611 16/// /2101 11043 21066 60001 333 11040 21189 70000
AAXX 31064 71612 NIL
AAXX 31064 71614 17/// /0706 11071 21090 30076 40144 58014 69931 7//4/ 333 11070 21220 70003
AAXX 31064 71616 16/// /0708 11069 21103 30059 40183 58013 60001 333 11069 21255 70000
AAXX 31064 71617 16/// /2602 11211 21233 30051 40235 57011 60001 333 11180 21239 70000 555 32719 40071
AAXX 31064 71618 15466 82106 11078 21089 39962 40000 56003 60001 333 11077 21166 70000
AAXX 31064 71619 16/// /3404 11128 21148 30191 40252 53006 60001 333 11065 21136 70000 555 32837 40073
AAXX 31064 71622 NIL
AAXX 31064 71632 46/// /0403 11083 21097 39546 49985 53002 6///1 333 11049 21088 7//// 555 10020 31817 40111
AAXX 31064 71634 16/// /0000 11145 21158 30099 40259 50003 60001 333 11080 21172 70000 555 32922 40081
AAXX 31064 71638 16/// /3301 11001 21016 30073 40179 53045 60001 333 10082 21008 70017 555 31021 40071
AAXX 31064 71639 11132 80907 11001 21019 39819 40062 56024 60021 72462 886// 333 11001 21045 40007 70020 90946 555 19999 29999
AAXX 31064 71642 NIL
AAXX 31064 71397 12674 80702 11023 21068 30215 40251 55002 60001 8557/ 333 11010 21043 70000 555 10000 20000 32733 40071
AAXX 31064 71400 16/64 /2905 11055 21094 60001 333 10000 21061 70000 555 32132 40102
AAXX 31064 71403 46/// /0507 11013 21051 30241 40261 50003 6///1 333 10020 21031 7//// 555 32543 40073
AAXX 31064 71411 16/// /0806 10019 21021 30239 40252 55002 60001 333 10036 21041 70000 555 32621 40091
AAXX 31064 71412 16/// /2504 11077 21106 30252 40262 53008 60001 333 11049 21090 70000 555 32634 40073
AAXX 31064 71421 NIL
AAXX 31064 71430 16/// /0711 11006 21009 39979 40076 58025 60001 333 11004 21057 70000 555 30622 40071
AAXX 31064 71431 NIL
AAXX 31064 71432 NIL
AAXX 31064 71433 NIL
AAXX 31064 71435 NIL
AAXX 31064 71441 NIL
AAXX 31064 71443 16/// /3405 11050 21059 39536 49945 56033 60001 333 11022 21126 70000 555 32419 40181
AAXX 31064 71444 NIL
AAXX 31064 71447 16/// /1813 11023 21023 39445 49988 56023 60001 333 11023 21137 70000 555 31719 40051
AAXX 31064 71467 16/// /1007 11283 21310 30031 40152 51012 60001 333 11281 21321 70000 555 10010 30820 40141
AAXX 31064 71472 NIL
AAXX 31064 71474 16564 63204 11022 21109 38881 40121 51061 60001 333 10037 21028 70000 555 32227 40231
AAXX 31064 71510 16/// /2907 11035 21058 39244 49943 51023 60001 333 10014 21143 70036 555 32618 40021
AAXX 31064 71538 11458 82311 10063 20051 39801 40029 52007 60021 76162 885// 333 10070 20009 70094 90917 555 10000 20000 31617 40000
AAXX 31064 71600 168// 30304 10016 21029 30267 40273 53012 60001 333 10046 20014 70030 555 32546 40103
AAXX 31064 71601 NIL
AAXX 31064 71114 160// /2816 10062 21024 30117 40165 52056 60011 333 10084 20025 70150 555 30336 40063
AAXX 31064 71120 NIL
AAXX 31064 71122 16/// /2304 11046 21089 38428 40020 53020 60001 333 7//// 555 10010
AAXX 31064 71123 11774 52905 11051 21074 39123 49988 53028 69901 71582 82530 333 11022 21143 44005 79999 90920 555 19999 29999 31126 40151
AAXX 31064 71125 NIL
AAXX 31064 71129 12974 42202 11028 21061 39135 49957 53017 60001 81071 333 10022 21060 79999 555 19999 29999
AAXX 31064 71131 16/// /2415 11026 21042 38744 49987 53007 60001 333 10028 21060 70000 555 32727 40021
AAXX 31064 71135 16/// /2710 11001 21038 38913 49984 53005 60001 333 10026 21054 70000 555 31926 40221
AAXX 31064 71137 NIL
AAXX 31064 71140 11874 81006 11063 21064 39499 40004 5/033 60001 70242 8807/ 333 11061 21128 70024 555 10028 20024
AAXX 31064 71145 11374 81706 11073 21082 39739 40035 58011 69921 72272 885// 333 11060 21090 48037 70004 90973 555 10004 20004
AAXX 31064 71148 16/// /1816 11051 21056 39447 40030 56021 60001 333 11050 21121 70040 555 10010 20040 30523 40151
AAXX 31064 71185 16964 03107 11055 30197 40221 53027 60001 333 11007 21057 70030 555 32146 40073
AAXX 31064 71188 11574 83202 11075 21109 30209 40253 52005 69901 70272 885// 333 11039 21099 44009 79999 90922 555 19999 29999 32918 40090
AAXX 31064 71200 17/// /2527 10026 20005 69921 7//4/ 333 10084 20026 70038 555 32346 40153
AAXX 31064 71207 16/// /0902 10010 30106 40171 53051 60001 333 10063 20001 70214 555 31826 40201
AAXX 31064 71260 13/// ///// 11029 21035 39858 40097 58002 60001 333 11024 21059 70002 555 19999 29999
AAXX 31064 71816 12974 02510 11192 21224 30173 40237 51020 60001 333 11022 21194 79999 555 19999 29999 33437 40111
AAXX 31064 71817 NIL
AAXX 31064 71818 12674 12510 11118 21166 30170 40189 53032 60001 81500 333 10002 21120 70066 555 10066 20066 33363 40083
AAXX 31064 71822 NIL
AAXX 31064 71825 11474 21803 11285 21327 39537 40250 53002 69921 70277 82500 333 11129 21285 48126 70012 90923 555 10018 20012 33523 40090
AAXX 31064 71827 12974 11006 11253 21292 39927 40186 55016 60001 80001 333 11211 21301 70000 555 10000 20000
AAXX 31064 71828 16464 82206 11197 21228 39558 40227 53002 60001 333 11156 21197 70000 555 33428 40072
AAXX 31064 71831 11474 81504 11125 21135 39841 40131 57002 69901 77172 885// 333 11120 21234 48042 79999 90931 555 19999 29999
AAXX 31064 71832 NIL
AAXX 31064 71834 12374 80000 11110 21126 39683 40122 53004 60001 886// 333 11103 21176 70010 555 10010 20010
AAXX 31064 71841 NIL
AAXX 31064 71842 11274 82006 11092 21099 39618 40097 55008 69901 77177 886// 333 11072 21103 47008 79999 90973 555 19999 29999
AAXX 31064 71844 NIL
AAXX 31064 71845 NIL
AAXX 31064 71850 11266 81608 11090 21095 39575 40084 56014 69901 77122 887// 333 11088 21113 48014 79999 90921 555 19999 29999
AAXX 31064 71852 16258 81816 11049 21054 39741 40038 56020 60001 333 11049 21128 70000 555 30224 40061
AAXX 31064 71854 NIL
AAXX 31064 71858 NIL
AAXX 31064 71861 16/// /2211 10010 21018 39236 49951 56015 60001 333 10013 21093 70005 555 32127 40041
AAXX 31064 71862 12674 82413 10022 21017 39280 49972 56010 60001 885// 333 10024 21065 70002 555 10002 20002
AAXX 31064 71863 46964 02510 11008 21034 39266 49958 53004 6///1 333 10013 21100 7//// 555 31520 40221
AAXX 31064 71500 NIL
AAXX 31064 71501 NIL
AAXX 31064 71502 NIL
AAXX 31064 71503 NIL
AAXX 31064 71504 NIL
AAXX 31064 71505 NIL
AAXX 31064 71506 NIL
AAXX 31064 71507 NIL
AAXX 31064 71508 17/// ///// 10015 20015 39923 40061 56023 60021 7//4/ 333 10015 21023 70026
AAXX 31064 71509 NIL
AAXX 31064 71511 NIL
AAXX 31064 71512 16/// /0203 11152 21165 30250 40265 52014 60001 333 11045 21182 70000
AAXX 31064 71513 15966 03606 11149 21182 30241 40257 53019 60001 333 11018 21149 70000
AAXX 31064 71514 NIL
AAXX 31064 71515 16/// /1909 11026 21039 39257 49950 55004 60001 333 10005 21058 70000 555 31933 40012
AAXX 31064 71516 16/// /2808 10021 21018 60001 333 10031 21055 70007 555 33128 40082
AAXX 31064 71517 NIL
AAXX 31064 71518 NIL
AAXX 31064 71519 NIL
AAXX 31064 71520 NIL
AAXX 31064 71521 NIL
AAXX 31064 71522 NIL
AAXX 31064 71523 NIL
AAXX 31064 71524 16/// /0206 11086 21109 30150 40178 58011 60001 333 11085 21253 70010
AAXX 31064 71525 NIL
AAXX 31064 71526 NIL
AAXX 31064 71527 15266 81912 11090 21095 39582 40098 55004 60001 333 11084 21098 70000
AAXX 31064 71528 NIL
AAXX 31064 71529 46/// /0805 11174 21201 39819 40052 52012 6///1 333 11162 21188 7//// 555 30819 40071
AAXX 31064 71532 17361 81005 11026 21026 39724 40072 58025 60001 771// 333 11026 21087 70000
AAXX 31064 71534 17258 81403 11013 21013 39790 40063 58018 60031 7//44 333 11012 21066 70040
AAXX 31064 71535 NIL
AAXX 31064 71536 NIL
AAXX 31064 71537 NIL
AAXX 31064 71539 NIL
AAXX 31064 71540 NIL
AAXX 31064 71541 NIL
AAXX 31064 71542 16/// /0402 11154 21169 60001 333 11126 21194 70000
AAXX 31064 71543 NIL
AAXX 31064 71544 NIL
AAXX 31064 71545 17/// ///// 11108 21125 69941 7//4/ 333 11008 21127 70010
AAXX 31064 71546 NIL
AAXX 31064 71547 NIL
AAXX 31064 71548 NIL
AAXX 31064 71549 NIL
AAXX 31064 71744 NIL
AAXX 31064 71750 16/// /0505 11066 21077 39868 40106 53003 60001 333 11051 21086 70017 555 10020 20017
AAXX 31064 71751 NIL
AAXX 31064 71752 NIL
AAXX 31064 71753 16/// /1001 11068 21081 30222 40252 50000 60001 333 10001 21090 70000 555 32630 40102
AAXX 31064 71754 NIL
AAXX 31064 71755 43/// /2209 11103 21120 39718 40068 56008 6///1 333 11089 21142 7////
AAXX 31064 71756 16/// /1503 11033 21054 39050 40148 51042 60001 333 10021 21037 70057 555 10050 20057 31419 40141
AAXX 31064 71758 NIL
AAXX 31064 71760 NIL
AAXX 31064 71761 NIL
AAXX 31064 71762 NIL
AAXX 31064 71763 NIL
AAXX 31064 71765 16/// /2012 10036 21008 39855 40129 53062 60001 333 10055 20015 70046 555 32038 40223
AAXX 31064 71766 16/// /2702 10001 21017 30112 40184 53042 60001 333 10089 21001 70000 555 33327 40231
AAXX 31064 71767 17/// /0507 10005 20001 39801 40062 56018 60021 7//4/ 333 10012 21021 70015 555 31117 40081
AAXX 31064 71768 46/// /2601 10039 21068 39573 40119 53048 6///1 333 10071 20006 7//// 555 32023 40091
AAXX 31064 71769 16/// /2710 10053 21001 30158 40174 53041 60001 333 10089 20053 70000 555 32538 40213
AAXX 31064 71770 NIL
AAXX 31064 71771 NIL
AAXX 31064 71772 16/// /2709 10051 20005 30171 40177 53044 60001 333 10094 20048 70000 555 33531 40002
AAXX 31064 71773 16/// /1905 11142 21158 39153 40026 53022 60001 333 11113 21183 70000
AAXX 31064 71774 46/// ///// 10014 6///1 333 10064 20006 7////
AAXX 31064 71775 16/// /2304 10036 20002 30180 40186 53048 60001 333 10081 20026 70034 555 32222 40131
AAXX 31064 71776 46/// /1803 10013 20002 39440 40079 53031 6///1 333 10048 20009 7////
AAXX 31064 71777 16/// ///// 11010 21012 39903 40157 53051 60001 333 10028 21013 70033
AAXX 31064 71778 46/// /2525 6///1 333 7//// 555 32749 40233
AAXX 31064 71779 16/// /1302 11076 21124 39460 40130 51058 60001 333 10009 21076 70020 555 10030 20020 33323 40011
AAXX 31064 71780 NIL
AAXX 31064 71781 46/// /2707 10053 20003 30158 40183 53046 6///1 333 10089 20052 7//// 555 31245 40073
AAXX 31064 71782 46/// /1501 11033 21053 38725 40042 53028 6///1 333 10017 21036 7//// 555 31624 40181
AAXX 31064 71783 NIL
AAXX 31064 71784 16/// /3401 10016 21022 39972 40178 53051 60001 333 10074 20014 70015 555 32718 40001
AAXX 31064 71785 16/// /2502 10057 20016 30180 40196 53048 60001 333 10095 20050 70048 555 31718 40091
AAXX 31064 71786 46/// /2810 11059 21067 38221 40044 53022 6///1 333 11030 21059 7//// 555 32122 40221
AAXX 31064 71787 17/// /1305 11077 21123 39740 40243 55000 69931 7//4/ 333 11064 21133 70003 555 32835 40083
AAXX 31064 71788 NIL
AAXX 31064 71789 NIL
AAXX 31064 71791 NIL
AAXX 31064 71792 NIL
AAXX 31064 71793 NIL
AAXX 31064 71794 NIL
AAXX 31064 71795 NIL
AAXX 31064 71796 NIL
AAXX 31064 71797 NIL
AAXX 31064 71201 16/// ///// 10040 21012 60001 333 10098 20040 70010
AAXX 31064 71202 16/// ///// 11056 21082 60001 333 10007 21101 70011
AAXX 31064 71203 15766 81910 10043 21044 39589 40107 53045 60001 333 10073 21002 70023
AAXX 31064 71209 46/// /2709 10061 6///1 333 10092 20047 7//// 555 33536 40003
AAXX 31064 71211 46/// /3403 10040 21016 30167 40179 53048 6///1 333 10082 20034 7//// 555 30367 40073
AAXX 31064 71212 NIL
AAXX 31064 71213 46/// /0305 11110 21122 39815 40125 58008 6///1 333 11108 21272 7////
AAXX 31064 71214 NIL
AAXX 31064 71215 46/// /0502 10005 21036 39765 40110 53044 6///1 333 10087 20000 7////
AAXX 31064 71216 16/// /3204 10035 21018 39463 40075 53040 60001 333 10053 20002 70053
AAXX 31064 71217 NIL
AAXX 31064 71218 16/// /2402 10025 20001 39671 40097 51064 60001 333 10091 21008 70036 555 33533 40042
AAXX 31064 71219 46/// /3316 10012 21089 30156 40162 53047 6///1 333 10036 21003 7//// 555 32936 40003
AAXX 31064 71220 46/// /3117 10015 21071 6///1 333 10037 20004 7////
AAXX 31064 71221 NIL
AAXX 31064 71222 16/// /0601 11217 21238 39118 40122 53035 60001 333 11155 21227 70000
AAXX 31064 71223 NIL
AAXX 31064 71224 NIL
AAXX 31064 71225 NIL
AAXX 31064 71226 NIL
AAXX 31064 71227 NIL
AAXX 31064 71228 NIL
AAXX 31064 71229 NIL
AAXX 31064 71230 17/// /2304 11082 21096 39133 40030 51045 69961 7//4/ 333 11037 21082 70006 555 10020 20006 30717 40151
AAXX 31064 71231 16/// /2616 10006 21055 60001 333 10093 21012 70000 555 33040 40003
AAXX 31064 71232 16/// /2615 11003 21139 38497 49971 53018 60001 333 10024 21013 70000 555 32429 40042
AAXX 31064 71233 NIL
AAXX 31064 71234 16/// /1307 11002 21065 38817 49984 55000 60001 333 10085 21065 70000 555 33134 40223
AAXX 31064 71235 16/// /3111 11006 21127 60001 333 10049 21023 70000 555 32926 40211
AAXX 31064 71236 46/// /2808 11006 21105 6///1 333 10040 21017 7//// 555 32832 40222
AAXX 31064 71237 46/// /3104 11004 21090 39164 49967 53017 6///1 333 10087 21064 7//// 555 32822 40231
AAXX 31064 71238 NIL
AAXX 31064 71239 16/// /2017 11039 21053 39549 40012 58021 60001 333 11039 21099 70037 555 10040 20037 31823 40061
AAXX 31064 71240 16/// ///// 11015 21067 39126 49964 53014 60001 333 10031 21118 70009
AAXX 31064 71241 NIL
AAXX 31064 71242 16/// /1502 11099 21120 60001 333 10033 21099 70000
AAXX 31064 71243 NIL
AAXX 31064 71244 16/// /2617 11007 21052 38786 49989 53006 60001 333 10091 21021 70000 555 32328 40212
AAXX 31064 71245 NIL
AAXX 31064 71246 NIL
AAXX 31064 71247 15966 02009 11011 21046 39141 49982 53015 60001 333 10093 21024 70000
AAXX 31064 71248 16/// /2703 11061 21133 38694 49981 51025 60001 333 10052 21062 70000 555 32330 40232
AAXX 31064 71249 NIL
AAXX 31064 71812 47320 90913 11114 21124 30008 40022 55002 6///1 745// 333 11111 21153 7////
AAXX 31064 71819 15966 03208 11096 21128 30160 40202 53029 60001 333 11009 21096 70003
AAXX 31064 71820 16/// /0510 11063 21073 39977 40094 58027 60001 333 11062 21112 70000 555 10020 30422 40101
AAXX 31064 71823 16964 01004 11282 21315 39813 40218 58011 60001 333 11190 21311 70000
AAXX 31064 71824 46/// /0902 11197 21226 6///1 333 11194 21350 7////
AAXX 31064 71826 16/// /0000 11275 21323 30056 40102 53003 60001 333 11261 21288 70000
AAXX 31064 71829 16/// /2908 11163 21189 30073 40241 55001 60001 333 11099 21173 70000 555 32621 40071
AAXX 31064 71833 46/// /0908 10001 20001 6///1 333 10001 21032 7////
AAXX 31064 71835 16/// /1803 11103 21112 39592 40081 58012 60001 333 11103 21143 70000
AAXX 31064 71837 NIL
AAXX 31064 71839 NIL
AAXX 31064 71840 NIL
AAXX 31064 71846 16/// /1703 11132 21141 39780 40105 58012 60001 333 11132 21240 70000
AAXX 31064 71847 NIL
AAXX 31064 71848 NIL
AAXX 31064 71849 NIL
AAXX 31064 71550 NIL
AAXX 31064 71551 NIL
AAXX 31064 71552 46/// /1610 11064 21085 6///1 333 11034 21109 7////
AAXX 31064 71553 NIL
AAXX 31064 71554 16/// /1206 11149 21177 30241 40247 50002 60001 333 11104 21157 70000 555 32827 40071
AAXX 31064 71555 16/// /2615 11023 21135 38443 49988 55000 60001 333 10043 21042 70004 555 32639 40043
AAXX 31064 71556 16/// /2905 11001 21025 39339 49936 53012 60001 333 10015 21120 70000 555 31926 40001
AAXX 31064 71557 46/// /1606 10024 21049 6///1 333 10056 21011 7//// 555 32122 40211
AAXX 31064 71558 46/// ///// 11095 21128 30156 40194 53029 6///1 333 11010 21095 7////
AAXX 31064 71559 46/// /2311 10021 21014 39277 49969 56010 6///1 333 10024 21062 7//// 555 32319 40051
AAXX 31064 71560 16/// /1709 11053 21058 39742 40048 57022 60001 333 11050 21094 70011
AAXX 31064 71563 NIL
AAXX 31064 71564 16/// /1506 11054 21063 39662 40034 56022 60001 333 11039 21089 70037
AAXX 31064 71565 NIL
AAXX 31064 71566 NIL
AAXX 31064 71567 NIL
AAXX 31064 71568 17/// /3410 10030 20003 30179 40191 53040 69961 7//4/ 333 10061 20021 70102 555 32849 40193
AAXX 31064 71569 16/// /2414 11002 21027 39253 49945 53005 60001 333 10017 21095 70011 555 31422 40231
AAXX 31064 71570 NIL
AAXX 31064 71571 NIL
AAXX 31064 71572 NIL
AAXX 31064 71573 17/// /1903 10050 20043 39753 40032 56008 60091 7//4/ 333 10051 20005 70091
AAXX 31064 71574 12574 80000 11163 21176 30183 40260 52008 60001 885// 333 11074 21170 70000 555 10000 20000 32725 40080
AAXX 31064 71575 NIL
AAXX 31064 71576 16/// /1801 11346 21385 39982 40072 55001 60001 333 11302 21368 70000
AAXX 31064 71577 46/// /1714 11064 21071 6///1 333 11056 21103 7//// 555 31918 40061
AAXX 31064 71578 16/// /0818 11062 21107 60001 333 11062 21199 70000 555 30823 40061
AAXX 31064 71579 16/// /2003 11050 21061 39750 40036 56020 60001 333 11046 21114 70000
AAXX 31064 71580 11974 03604 11360 30066 40105 52009 69901 70277 333 11293 21375 48030 79999 90960 555 19999 29999
AAXX 31064 71581 NIL
AAXX 31064 71582 17666 61504 11002 21006 30144 40198 53045 60021 7614/ 333 10054 21005 70149
AAXX 31064 71583 NIL
AAXX 31064 71584 15566 80406 11150 21168 30213 40263 51014 60001 333 11034 21177 70000
AAXX 31064 71585 NIL
AAXX 31064 71586 17/// /0509 11060 21068 39472 49934 56006 60021 7//4/ 333 11017 21103 70023 555 10030 20023
AAXX 31064 71587 NIL
AAXX 31064 71588 16/// /2803 11057 21092 60001 333 11016 21057 70000
AAXX 31064 71589 17/// /2904 11042 21071 30071 40206 53031 69971 7//4/ 333 11025 21051 70007 555 32437 40103
AAXX 31064 71590 16/// /0000 11159 21178 30044 40244 56004 60001 333 11102 21202 70000 555 32920 40101
AAXX 31064 71592 NIL
AAXX 31064 71593 NIL
AAXX 31064 71596 NIL
AAXX 31064 71598 16/64 /2205 11124 21143 30251 40257 53006 60001 333 11063 21127 70000 555 32936 40073
AAXX 31064 71599 NIL
AAXX 31064 71864 NIL
AAXX 31064 71865 16/// /2513 10004 21031 39254 49923 53004 60001 333 10019 21096 70000 555 31730 40012
AAXX 31064 71866 46964 02808 11052 21076 39332 49942 53023 6///1 333 10008 21133 7////
AAXX 31064 71867 11532 81418 11045 21048 39615 49948 58033 69961 77122 885// 333 11043 21127 47025 70006 90942 93101 555 10010 20006 3////
AAXX 31064 71868 NIL
AAXX 31064 71869 11474 80000 11047 21048 39396 49920 53012 69961 70177 885// 333 11036 21165 47011 70016 90942 93101 555 10016 20016
AAXX 31064 71871 15966 02815 11089 21101 39151 49957 53023 60001 333 11032 21148 70000
AAXX 31064 71877 12974 23207 11005 21127 38738 49992 53025 60001 82030 333 10064 21034 70000 555 10000 20000 32632 40191
AAXX 31064 71878 12974 20000 11107 21147 38927 40003 53029 60001 80001 333 10015 21115 70000 555 10000 20000
AAXX 31064 71879 16764 83011 11032 21085 39182 49981 53029 60001 333 11009 21089 70000 555 31218 40171
AAXX 31064 71880 11882 21504 11024 21046 38959 40061 52029 69901 70181 82070 333 10042 21038 42001 70028 90951 555 10030 20028
AAXX 31064 71882 160// /3002 10006 20003 39543 40080 53039 60021 333 10037 20005 70070
AAXX 31064 71883 46/// /0512 10009 21056 39260 40076 53055 6///1 333 10029 21012 7//// 555 30523 40051
AAXX 31064 71887 11783 82713 10041 21050 39699 40119 53078 69921 72122 885// 333 10093 20011 70002 90920 555 10000 20000 33537 40052
AAXX 31064 71889 12874 62211 10061 21097 39699 40114 53044 60001 86070 333 10074 20030 70034 555 10000 20000 31928 40091
AAXX 31064 71891 16964 02113 10037 21005 39858 40132 53062 60001 333 10056 20017 70060 555 32140 40223
AAXX 31064 71892 11680 12709 10047 21005 30183 40188 53047 69901 78081 81500 333 10088 20038 70002 90960 555 10000 20000 33031 40012
AAXX 31064 71665 16/// /2926 11174 21240 30164 40174 50001 60001 333 11063 21175 70012 555 33245 40133
AAXX 31064 71666 16/// /2302 11095 21116 30208 40254 53002 60001 333 11050 21128 70000 555 10010 32428 40072
AAXX 31064 71667 NIL
AAXX 31064 71668 16/// /0803 11068 21112 30202 40247 55002 60001 333 11046 21113 70000 555 32724 40081
AAXX 31064 71669 NIL
AAXX 31064 71670 16/// ///// 11110 21123 60001 333 11055 21143 70000
AAXX 31064 71671 16/// /0000 11030 21051 30185 40247 53001 60001 333 11017 21044 70000 555 32532 40082
AAXX 31064 71672 17/// /0703 11034 21044 39816 40084 56022 60011 7//4/ 333 11034 21090 70022 555 10010 20022
AAXX 31064 71673 NIL
AAXX 31064 71674 NIL
AAXX 31064 71675 17466 81907 11096 21107 39791 40075 57011 60031 7714/ 333 11096 21158 70174
AAXX 31064 71679 16/// /2611 11040 21079 39088 40111 53039 60001 333 10007 21061 70000 555 10030 32730 40232
AAXX 31064 71680 NIL
AAXX 31064 71681 46/// /0608 10040 21053 6///1 333 10096 21009 7//// 555 31928 40222
AAXX 31064 71682 NIL
AAXX 31064 71683 NIL
AAXX 31064 71684 15466 80206 11111 21127 39818 40129 58008 60001 333 11109 21267 70000
AAXX 31064 71685 17466 83104 10006 20006 39542 40079 53040 60021 76144 333 10036 20004 70048
AAXX 31064 71686 469// /0602 11186 21207 39119 40102 53035 6///1 333 11140 21197
AAXX 31064 71687 16/// /0000 11017 21022 39367 40153 51045 60001 333 10021 21017 70075 555 10060 20075
AAXX 31064 71688 16/// /0802 11037 21044 39104 40144 53044 60001 333 10007 21037 70105 555 10120 20105
AAXX 31064 71689 17420 83106 11080 21088 39534 49990 53022 69981 7714/ 333 11002 21080 70008
AAXX 31064 71690 NIL
AAXX 31064 71691 17466 83305 11142 21155 30222 40251 52004 60001 771// 333 11090 21194 70000
AAXX 31064 71692 NIL
AAXX 31064 71694 17/// /0804 11022 21030 39719 40085 58024 60041 7//4/ 333 11022 21087 70041 555 10020 20041
AAXX 31064 71695 17/// /1108 11044 21054 39611 49943 58034 69951 7//4/ 333 11044 21125 70005 555 10010 20005 31217 40061
AAXX 31064 71696 16/// /1707 11078 21090 39957 49994 56003 60001 333 11078 21169 70003 555 31618 40231
AAXX 31064 71697 17364 80911 10003 20003 39891 40063 58022 60011 7004/ 333 10003 21051 70013
AAXX 31064 71699 16/// /0405 11035 21071 30230 40238 58002 60001 333 11016 21084 70000
AAXX 31064 71726 16/// /1203 11126 21157 39603 40162 58011 60001 333 11126 21362 70033
AAXX 31064 71727 12674 82403 11204 21227 30012 40221 57014 60001 885// 333 11175 21246 70000 555 10000 20000
AAXX 31064 71728 11782 83402 11217 21268 39991 40227 56011 69901 77111 885// 333 11211 21290 48997 79999 90910 555 19999 29999
AAXX 31064 71730 11116 80610 11092 21092 39672 40107 58010 69901 71072 886// 333 11090 21152 48013 70002 90953 555 10006 20002
AAXX 31064 71731 11274 80810 11105 21117 39640 40103 58016 69901 77177 887// 333 11104 21150 48016 70004 90983 555 10008 20004 31124 40151
AAXX 31064 71735 NIL
AAXX 31064 71738 NIL
AAXX 31064 71739 41374 80000 11127 21142 39751 40126 58003 6//// 77177 887// 333 11125 21244 4//// 7//// 90983 555 1//// 2////
AAXX 31064 71749 16564 80000 11037 21043 39860 40108 57003 60001 333 11026 21053 70005
AAXX 31064 71799 12683 62607 10040 21024 30180 40204 53052 60001 81570 333 10095 20033 70034 555 10000 20000 32134 40182
AAXX 31064 71800 16/// /2806 11015 21034 30192 40226 53030 60001 333 10030 21024 70000 555 32459 40093
AAXX 31064 71801 12574 62810 11031 21057 30041 40218 52035 60001 86500 333 10002 21031 41001 79999 555 19999 29999 32550 40093
AAXX 31064 71803 11474 72811 11042 21091 30020 40211 53029 69921 70282 87500 333 11017 21062 47004 70010 90941 555 10010 20010 32443 40082
AAXX 31064 71807 NIL
AAXX 31064 71808 12974 00108 11123 21159 30164 40212 52022 60001 333 11015 21124 70010 555 10010 20010 32437 40072
AAXX 31064 71809 11674 32608 11046 21102 30205 40233 52026 69901 70188 83500 333 11004 21057 42001 70006 90913 555 10006 20006 32230 40071
AAXX 31064 71810 16/// /0506 11092 21117 30179 40248 53010 60001 333 11046 21096 70025 555 32923 40071
AAXX 31064 71811 NIL
AAXX 31064 71813 16/// /3605 11147 21178 30238 40252 53019 60001 333 11020 21147 70000 555 32828 40072
AAXX 31064 71814 16/// /3306 11148 21177 30232 40242 53021 60001 333 11013 21148 70003 555 33526 40141
AAXX 31064 71815 12574 63107 11023 21065 30209 40240 52025 60001 86500 333 11002 21057 70000 555 10020 20020 32640 40073
AAXX 31064 71108 11574 61810 10034 21007 30118 40191 52047 69901 70281 85230 333 10083 20032 70017 90951 555 10000 20000 32028 40141
AAXX 31064 71950 17766 62602 11080 21089 39480 40119 53043 60001 771// 333 11019 21099 70005
AAXX 31064 71952 16/// /3601 11184 21203 39251 40122 53044 60001 333 11026 21184 70020 555 10020 20020
AAXX 31064 71954 NIL
AAXX 31064 71956 NIL
AAXX 31064 71959 NIL
AAXX 31064 71960 460// /0710 11246 39954 40091 53014 6///1 333 11222 21249 7//// 555 30922 40071
AAXX 31064 71962 16/// /1104 11097 21106 39674 40105 50000 60001 333 11070 21149 70000 555 31532 40232
AAXX 31064 71963 NIL
AAXX 31064 71967 NIL
AAXX 31064 71970 NIL
AAXX 31064 71971 NIL
AAXX 31064 71972 460// ///// 11182 39628 40104 55008 6///1 333 11167 21195 7////
AAXX 31064 71973 46/// /2703 11056 21091 30042 40234 53025 6///1 333 11014 21068 7//// 555 32532 40082
AAXX 31064 71974 NIL
AAXX 31064 71975 460// /2729 11241 39303 40054 56001 6///1 333 11216 21254 7//// 555 30337 40063
AAXX 31064 71976 NIL
AAXX 31064 71977 NIL
AAXX 31064 71978 NIL
AAXX 31064 71979 NIL
AAXX 31064 71980 NIL
AAXX 31064 71981 NIL
AAXX 31064 71982 NIL
AAXX 31064 71983 NIL
AAXX 31064 71984 NIL
AAXX 31064 71985 NIL
AAXX 31064 71986 NIL
AAXX 31064 71987 17/// /1904 11090 21119 30238 40248 50002 69961 7//4/ 333 11054 21094 70006 555 32842 40113
AAXX 31064 71988 16/// /1211 10015 21015 30219 40239 55007 60001 333 10016 21022 70000 555 32838 40083
AAXX 31064 71989 NIL
AAXX 31064 71990 NIL
AAXX 31064 71999 46/// ///// 10060 6///1 333 10081 20008 7////
AAXX 31064 71851 16/// /1611 11042 21049 39676 40012 58027 60001 333 11029 21101 70000
AAXX 31064 71857 NIL
AAXX 31064 71860 NIL
AAXX 31064 71876 17258 82710 11033 21034 39290 49951 51021 60001 710// 333 11021 21137 70000
AAXX 31064 71885 NIL
AAXX 31064 71886 NIL
AAXX 31064 71888 NIL
AAXX 31064 71890 16/// /0605 11142 21162 30218 40246 52004 60001 333 11091 21202 70000 555 30517 40071
AAXX 31064 71895 NIL
AAXX 31064 71603 12774 80908 10007 21037 30181 40235 55005 60001 885// 333 10014 21016 70000 555 10000 20000 32727 40071
AAXX 31064 71607 16/// /0604 11037 21068 30201 40234 56007 60001 333 11018 21123 70000
AAXX 31064 71609 11569 80000 11042 21101 30109 40247 55000 69901 78511 885// 333 11031 21108 79999 90931 555 19999 29999 32821 40070
AAXX 31064 71610 17556 80803 11043 21063 39872 40175 56010 60001 771// 333 11043 21201 70000
AAXX 31064 71621 17259 80603 11047 21060 39984 40092 58021 60001 747// 333 11047 21095 70005
AAXX 31064 71623 NIL
AAXX 31064 71624 11159 80805 10010 20009 39846 40058 57023 60041 75165 886// 333 10010 21031 43002 70044 90973 555 19999 29999
AAXX 31064 71625 17437 80903 11099 21107 39964 40130 58023 60011 74544 333 11099 21231 70015
AAXX 31064 71627 NIL
AAXX 31064 71628 11460 80710 11084 21101 39987 40132 58019 69981 77172 81500 333 11084 21196 70012 909/7 555 10299 20199 30716 40221
AAXX 31064 71630 NIL
AAXX 31064 71631 17/// /1105 10009 20003 39542 40039 56014 60051 7//4/ 333 10012 21037 70146
AAXX 31064 71633 11248 80608 10008 20002 39782 40053 57016 60061 75162 887// 333 10023 21034 43006 70068 90973 555 10004 20004
AAXX 31064 71705 12774 70000 11083 21111 30165 40256 53003 60001 87500 333 11048 21112 70000 555 10000 20000 32631 40081
AAXX 31064 71706 12974 41402 11097 21110 30201 40264 51003 60001 80001 333 11064 21119 79999 555 19999 29999 32737 40101
AAXX 31064 71707 12574 42104 11048 21078 30189 40268 53011 60001 84500 333 11035 21069 70002 555 10004 20002 32631 40071
AAXX 31064 71709 NIL
AAXX 31064 71711 NIL
AAXX 31064 71714 16/// /0709 11066 21112 30121 40216 58009 60001 333 11066 21273 7////
AAXX 31064 71715 16/// /0801 11131 21153 30041 40230 58005 60001 333 11116 21174 70000
AAXX 31064 71718 12883 21410 11151 21194 30182 40251 52003 60001 82070 333 11110 21154 79999 555 19999 29999
AAXX 31064 71719 16/// /2203 11072 21084 30248 40254 53008 60001 333 11042 21102 70000 555 10010 32736 40093
AAXX 31064 71450 16/// /2308 10003 21031 39241 49950 53014 60001 333 10028 21119 70003 555 32724 40051
AAXX 31064 71451 16/// /0306 11064 21079 39550 49973 55003 60001 333 11005 21070 70006
AAXX 31064 71452 NIL
AAXX 31064 71453 16/// /3205 10009 21053 39083 49982 53012 60001 333 10091 21021 70000 555 31733 40162
AAXX 31064 71454 17/// /3301 11056 21068 39227 49912 55002 60051 7//4/ 333 11038 21113 70057
AAXX 31064 71455 NIL
AAXX 31064 71456 16/// /2510 11045 21057 39321 49915 53005 60001 333 11003 21120 70000 555 31523 40021
AAXX 31064 71457 16/// /2608 11020 21054 39093 49971 53020 60001 333 10066 21034 70000 555 32627 40001
AAXX 31064 71458 16/// /2703 11106 21127 39207 49980 53027 60001 333 10003 21146 70000
AAXX 31064 71459 NIL
AAXX 31064 71460 16/// /0204 11055 21062 39844 40089 58014 60001 333 11053 21097 70000 555 30721 40071
AAXX 31064 71461 NIL
AAXX 31064 71462 NIL
AAXX 31064 71463 NIL
AAXX 31064 71464 NIL
AAXX 31064 71465 NIL
AAXX 31064 71466 NIL
AAXX 31064 71468 NIL
AAXX 31064 71470 NIL
AAXX 31064 71471 15866 80102 11106 21115 39237 40036 51035 60001 333 11045 21109 70000
AAXX 31064 71473 16/// /2505 10029 21035 30162 40192 53049 60001 333 10073 20026 70010 555 32340 40163
AAXX 31064 71475 NIL
AAXX 31064 71476 NIL
AAXX 31064 71477 16/// /2519 10003 21038 60001 333 10026 21002 70084 555 33040 40213
AAXX 31064 71478 NIL
AAXX 31064 71479 NIL
AAXX 31064 71480 NIL
AAXX 31064 71481 NIL
AAXX 31064 71482 NIL
AAXX 31064 71483 NIL
AAXX 31064 71484 NIL
AAXX 31064 71485 17/// /3514 10020 20003 30177 40198 53053 60041 7//4/ 333 10064 20018 70152 555 33046 40173
AAXX 31064 71486 16/// /1404 11018 21032 38820 40011 53035 60001 333 10011 21052 70008
AAXX 31064 71487 16/// /2614 10013 21027 39112 49965 53006 60001 333 10033 21059 70000 555 31723 40211
AAXX 31064 71489 NIL
AAXX 31064 71490 NIL
AAXX 31064 71491 NIL
AAXX 31064 71492 NIL
AAXX 31064 71493 16/// /0402 11059 21088 30209 40248 51001 60001 333 11020 21089 70000 555 32524 40081
AAXX 31064 71494 16/// /0806 11051 21082 39644 40175 56010 60001 333 11051 21247 70003 555 10010 20003
AAXX 31064 71495 NIL
AAXX 31064 71496 16/// /2908 11053 21062 39329 49936 53023 60001 333 10007 21135 70000 555 31418 40221
AAXX 31064 71497 46/// /0000 11234 21262 39803 40081 52019 6///1 333 11211 21248 7////
AAXX 31064 71498 NIL
AAXX 31064 71499 15266 80607 11103 21111 39357 49987 53001 60001 333 11043 21103 70000
AAXX 31064 06011 07559 72621 10074 20046 39783 49850 54000 60132 71086 333 10084 20044 55300 20000 69937 85/22 87/27 91140
AAXX 31064 71300 NIL
AAXX 31064 71301 16/// ///// 11121 21132 39713 40124 58006 60001 333 11121 21253 70010
AAXX 31064 71302 16/// /2308 11070 21094 39284 40108 51053 60001 333 10004 21070 70076 555 10070 20076 32019 40211
AAXX 31064 71303 46/// ///// 10049 20038 6///1 333 10073 20027 7////
AAXX 31064 71305 15366 80704 11136 21148 39727 40025 53013 60001 333 11124 21225 70003
AAXX 31064 71306 17424 81923 11130 21150 30115 40148 58010 60001 771// 333 11133 21276 70000 555 32029 40052
AAXX 31064 71307 NIL
AAXX 31064 71308 16/// /1803 11079 21090 30184 40271 51010 60001 333 11035 21086 70000 555 10010 32529 40112
AAXX 31064 71309 NIL
AAXX 31064 71310 16/// /1904 11091 21123 30224 40262 53004 60001 333 11063 21105 70000 555 32536 40073
AAXX 31064 71311 NIL
AAXX 31064 71312 17/// /1712 11021 21042 39447 49901 56019 60011 7//4/ 333 11011 21148 70013 555 31018 40021
AAXX 31064 71314 17/// /1006 11019 21026 39706 40060 56027 60021 7//4/ 333 11017 21075 70034 555 31018 40081
AAXX 31064 71315 NIL
AAXX 31064 71316 16/// /2907 11061 21070 39286 49969 53028 60001 333 11031 21129 70024
AAXX 31064 71317 NIL
AAXX 31064 71318 16/// /3207 11050 21084 39034 49972 53025 60001 333 10029 21118 70000 555 10010 31317 40161
AAXX 31064 71319 16/// /0304 11120 21142 39303 40188 58009 60001 333 11070 21220 70000
AAXX 31064 71320 NIL
AAXX 31064 71321 16/// /0102 11205 21229 30098 40143 57001 60001 333 11205 21274 70000
AAXX 31064 71322 46/// /1012 11113 21123 30008 40021 55002 6///1 333 11110 21151 7//// 555 10060
AAXX 31064 71323 16/// /1403 11056 21098 39894 40182 57010 60001 333 11056 21210 70000
AAXX 31064 71331 16/// /0804 11091 21105 60001 333 11030 21092 70000 555 10010
AAXX 31064 71332 NIL
AAXX 31064 71334 46/// /3306 11107 21122 39663 49993 53011 6///1 333 11064 21129 7////
AAXX 31064 71335 46964 0//// 11176 53005 6///1 333 11125 21178 7////
AAXX 31064 71336 46/// ///12 11011 21036 30167 40190 53036 6///1 333 10008 21025 7////
AAXX 31064 71337 46/// /2909 11065 21114 39957 40199 53026 6///1 333 11017 21065 7//// 555 32138 40073
AAXX 31064 71338 46964 01812 11265 21308 30065 40073 56002 6///1 333 11265 21344 7////
AAXX 31064 71339 16964 02909 11117 21173 30178 40193 53034 60001 333 11003 21117 70000 555 33338 40143
AAXX 31064 71340 NIL
AAXX 31064 71341 NIL
AAXX 31064 71342 NIL
AAXX 31064 71343 NIL
AAXX 31064 71344 NIL
AAXX 31064 71345 NIL
AAXX 31064 71346 NIL
AAXX 31064 71347 NIL
AAXX 31064 71348 NIL
AAXX 31064 71349 NIL
AAXX 31064 71893 12880 42803 10008 21012 30160 40192 52042 60001 84030 333 10085 21001 70020 555 10000 20000 31433 40071
AAXX 31064 71894 17/// /3209 10024 20014 30198 40207 53045 69961 7//4/ 333 10083 20023 70036 555 32857 40193
AAXX 31064 71896 15966 02309 11074 21099 39273 40112 51053 69931 333 10004 21080 70066
AAXX 31064 71897 12474 52725 10032 210045 3//// 4//// 52040 60031 70287 853XX 333 10035 20010 42997 70163 90936 555 19999 20032
AAXX 31064 71898 160// ///// 10009 53048 69951 333 10025 21008 70175
AAXX 31064 71899 11566 62722 10018 21053 3//// 4//// 53031 69921 71582 86300 333 10040 21005 47997 70024 90965 555 19999 20006 33042 40213
AAXX 31064 71902 NIL
AAXX 31064 71905 NIL
AAXX 31064 71906 11574 82407 11163 21222 30161 40213 55000 69901 77177 885// 333 11125 21175 44015 79999 90983 555 19999 29999
AAXX 31064 71907 16737 81922 11159 21193 30115 40149 57011 60001 333 11158 21309 70010 555 31926 40051
AAXX 31064 71909 16564 80302 11207 21244 30082 40127 56001 60001 333 11206 21276 70000
AAXX 31064 71910 47448 82514 11152 21178 30029 40093 57007 6///1 745// 333 11148 21199 7//// 555 32521 40211
AAXX 31064 71911 46964 00212 11367 30038 40098 53011 6///1 333 11291 21369 7////
AAXX 31064 71912 11474 81808 11069 21078 39831 40015 56005 69901 77122 885// 333 11068 21156 47021 79999 90962 555 10002 29999
AAXX 31064 71915 11459 80904 11184 21213 39981 40064 57007 60031 77177 885// 333 11183 21243 44042 70030 90983 93103 555 10030 20030
AAXX 31064 71917 11956 00000 11416 21453 30082 40097 54000 69901 7767/ 333 11393 21426 44014 79999 90999 555 19999 29999
AAXX 31064 71922 11348 80510 11059 21067 39475 49939 56006 60031 77122 885// 333 11015 21103 47033 70030 90931 93103 555 10030 20030
AAXX 31064 71924 NIL
AAXX 31064 71925 11169 20307 11361 21406 30108 40152 52012 69901 77677 81730 333 11359 21395 42021 79999 90983 555 19999 29999
AAXX 31064 71926 11874 83515 11167 21257 30032 40057 53005 69901 77172 8807/ 333 11152 21205 48043 79999 90983 555 19999 29999
AAXX 31064 71928 16/// /2603 11101 21153 38833 40001 53028 60001 333 10047 21139 70000 555 32827 40221
AAXX 31061 01037 16/// /1302 11127 21139 30061 40067 53018 60002 333 21136 70000 91103
AAXX 31061 01046 16/// /2601 11089 21105 30056 40063 53015 6//// 333 21095 91103
AAXX 31061 01065 11610 80304 11037 21053 39872 40037 52017 60022 78688 888// 333 21055 70029 91110
AAXX 31061 01114 16/// /0502 11056 21071 30041 40052 52010 69982 333 21070 70055 91106
AAXX 31061 01245 11980 02902 11107 21159 39358 40098 57007 60002 70281 333 21108 47045 70028 91105
AAXX 31061 01364 16/// /0501 11198 21217 38940 40149 50006 60002 333 21211 4/047 70000 91103
AAXX 31061 01389 11985 00000 11196 21213 39788 40127 52006 60002 70200 333 21199 43012 70000 91103
AAXX 31061 13160 32997 02803 10004 21006 30058 40170 52014 333 20002 34101 55000 70000
AAXX 31061 13262 11696 80000 10010 20008 30024 40177 52014 60032 71062 885// 333 20010 32000 55000 70058
AAXX 31061 13272 11240 72804 10014 20008 30043 40166 52013 69992 71052 87500 333 20003 55002 85704 87633
AAXX 31061 13285 31695 82302 11007 21012 30055 40161 52015 71022 885// 333 21008 31104 55000 70000
AAXX 31061 13289 11/91 93211 11047 21053 38902 48400 53009 69972 74544 333 21047 3/106 47004 55005 70010 91018 91118 93101
AAXX 31061 13376 11696 82502 10016 20006 39899 40168 52017 60022 76876 885// 333 20000 32001 50006 70045
AAXX 31061 13388 11697 83204 10017 21005 39890 40144 53014 69942 70276 885// 333 21005 31103 55009 70004 93197
AAXX 31061 13462 11660 70207 10076 21026 30061 40101 53010 60022 70262 85570 333 21010 31003 55/// 85640 87458
AAXX 31061 13473 NIL
AAXX 31061 13489 11494 80602 11005 21009 39604 40136 53015 69902 77172 887// 333 20004 34103 55000 79999
AAXX 31064 06030 02970 21803 11021 21028 30062 40078 57001 6///2 80001 333 10017 21028 31/// 6///7 70000 82070
AAXX 31064 06060 02670 61903 11009 21016 30019 40086 56001 6///2 84530 333 10013 21016 34103 6///7 70004 84641 85365
AAXX 31064 06070 07/57 02302 11042 21049 30062 40092 52002 6///2 71000 333 10008 21046 6///7 70000
AAXX 31064 06120 36963 12204 11002 21003 30070 40096 54000 333 10014 21015 81/69
AAXX 31064 06180 01108 12303 11038 21044 30089 40096 52002 6///2 74140 81600 333 10040 21045 34106 6///7 70000 81703
AAXX 31064 06193 05/84 02403 10005 21008 30086 40098 52010 69902 333 10047 20001 55300 20000 6///7 70004
AAXX 31061 01293 11565 81602 11056 21067 39865 40080 52002 60002 70272 885// 333 21078 70052 91103
AAXX 31061 01033 46/// /1302 11019 21061 30022 40054 52014 333 21024 91105
AAXX 31061 01406 46/// /1407 10015 21034 30019 40037 57014 333 20009 91111
AAXX 31061 01442 11989 03503 11042 21072 39828 40094 52001 69922 70200 333 21043 70018 91106
AAXX 31061 26106 32997 72201 10009 21006 40051 52011 87030 333 20009
AAXX 31061 26346 11496 82602 11006 21008 40042 52009 69972 77172 8872/ 333 21008 47001 86710
AAXX 31061 26406 12697 72802 10030 21024 40059 52011 69902 87500 333 20013 87638
AAXX 31061 26416 33/// /2502 11007 21013 40057 52011 333 21008
AAXX 31061 26424 33/// /2802 11004 21013 40053 52011 333 21004
AAXX 31061 26544 11496 82001 11001 21009 40053 52006 69942 78582 889// 333 21001 47997
AAXX 31061 26313 NIL
AAXX 31061 01156 16/// /1002 11013 21032 30038 40048 51009 60002 333 21039 70000 91105
AAXX 31061 01273 16/// /1501 11082 21093 39878 40083 55002 69942 333 21086 70014 91104
BBXX MINUK05 3106/ 99571 70021 46/// ///// 10073 49977 54000
BBXX MINUK04 3106/ 99530 10029 46/// ///// 10095 4//// 52095
BBXX FLAO 3106/ 99764 70847 46/// ///// 11388 40074 52003
BBXX MINUK03 3106/ 99528 10039 46/// ///// 10088 40120 52064
AAXX 31061 10044 46/// /2106 10024 20009 30067 40100 58003 222// 00046 333 10048 20018 55039 55300
AAXX 31061 10124 46/// ///// 10030 2//// 30055 40094 58007 222// 00059 333 10064 20027 55/// 553//
AAXX 31064 60710 11558 82924 10135 20107 30146 40226 53008 60094 78082 888// 333 20125 70086 84820 86630
AAXX 31064 60714 11458 63419 10135 20099 30206 40212 53010 60264 70186 86800 333 20112 70260 84816 83630
AAXX 31064 60720 13558 43112 10131 20086 30145 40179 53016 60094 84200 333 20110 70092 84820
AAXX 31064 60728 13558 63119 10117 20117 30087 40181 53006 60074 7258/ 85802 333 20106 70070 83823 83626
AAXX 31064 60729 11556 72910 10107 20096 30026 40215 53007 60034 7006/ 878// 333 20098 70034 82820 86623
AAXX 31064 60731 07556 53315 10129 20078 30191 40198 53009 69964 70060 333 10137 20109 3//// 58010 5///4 69927 70006 83/31 85/57 91023 91136
AAXX 31064 60732 13558 73112 10099 20047 39621 40235 53008 60014 878// 333 20078 70012 83820 85626
AAXX 31064 60734 11558 70000 10091 20085 39691 40219 54000 60014 7606/ 8588/ 333 20082 70010 82823 84630
AAXX 31064 60738 12006 8//// 10036 20036 38972 48528 53003 60014 887// 333 20025 70014 88700
AAXX 31064 60739 13556 63216 10085 20029 39406 40238 53010 69904 85882 333 20076 70000 81826 85833 94269
AAXX 31064 60740 12458 62910 10134 20087 30199 40201 53002 69924 84880 333 20126 70002 81816 83626
AAXX 31064 60742 NIL
AAXX 31064 60764 NIL
AAXX 31064 60770 13658 42914 10102 20037 30097 40238 53010 60004 82582 333 20097 82640
AAXX 31064 60772 13565 22616 10103 20024 39986 40247 53008 60004 82500 333 20097 82630
AAXX 31064 60775 13975 02608 10068 20011 39895 40261 53005 60004 333 20066 55087
AAXX 31064 60780 13960 02304 10032 20013 39966 40287 53003 60004 333 20012
BBXX A8IM7 31064 99338 71381 41498 31917 10170 20137 40230 52010 70100 8/100 22224 20303 329// 40505 5//// 80150
AAXX 31064 08055 12965 50202 11010 21021 39243 48577 57005 60002 84072 333 21016 34103 55090 70000 95090
AAXX 31064 08075 11568 61603 10000 21011 39268 48581 58007 60002 702// 84530 333 20000 55043 70000
AAXX 31064 08084 02680 32711 10084 20004 39867 40308 56004 60002 82570 333 20066 3/005 55013 60007 70000
AAXX 31064 08171 NIL
AAXX 31064 08184 02567 20000 10040 20015 30077 40238 55001 60002 8187/ 333 20030 3/001 55076 60007 70000
AAXX 31064 08202 NIL
AAXX 31064 08235 NIL
AAXX 31064 08238 12780 13510 10138 20047 30188 40248 56003 60002 81500 333 20123 55078 70000
AAXX 31064 08280 12980 19904 11006 21030 39478 40343 55005 60002 80001 333 21006 50374 55083 70000
AAXX 31064 08330 12965 01901 11007 21014 30097 40342 57003 60002 333 21008 34102 50134 55081 70000
AAXX 31064 08348 12970 02302 10004 21007 39579 40354 56006 60002 333 20002 50094 55088 70000
AAXX 31064 08360 02970 03014 10126 21026 30232 40270 55001 60002 333 20079 3/009 55088 60007 70000
AAXX 31064 08373 02965 03106 10079 20054 30245 40267 55001 60002 333 20077 3/005 55084 60007 70000
AAXX 31064 08410 02970 00000 11003 21016 30219 40337 55001 60002 333 21005 31101 55090 60007 70000
AAXX 31064 08419 02975 00000 11032 21049 39645 40360 53001 60002 333 21034 34104 55069 60007 70000
AAXX 31064 08451 02970 03408 10048 20011 30284 40319 55004 60002 333 20032 3/001 55/// 60007 70000
AAXX 31064 08487 NIL
AAXX 31064 08141 12960 01602 11014 21033 39455 40360 58005 60002 333 21018 34104 55062 70000
AAXX 31061 12120 12570 30201 10012 21017 30082 40089 52016 69992 83500 333 10035 20012 34102 70015 93091
AAXX 31061 12250 11340 82603 10015 20014 39998 40088 52011 69992 76162 8772/ 333 10015 20004 31101 70021 87707 93094
AAXX 31061 12295 11111 82401 10001 20001 39874 40061 53010 60022 77152 8772/ 333 10012 20001 3/100 43001 55024 70018 87703 93001
AAXX 31061 12330 11262 82805 10026 20022 39997 40107 52016 60032 72586 876// 333 10027 20018 32002 70087 87706 93002
AAXX 31061 12375 11256 82604 10006 20005 39956 40089 51017 60022 71072 876// 333 10025 20003 3/100 43001 55008 70021 87704 91111 93002
AAXX 31061 12424 11499 72805 10024 20014 39968 40123 53013 60022 72682 875// 333 10032 20016 32001 55009 70048 85613 91112 93002
AAXX 31061 33088 NIL
AAXX 31061 33177 32577 82302 10012 21007 39855 40095 52005 889// 333 20001
AAXX 31061 33261 11311 80000 10002 21001 39924 40109 53008 60022 77177 8772/ 333 20001 43002 87707
AAXX 31061 33275 11/93 91603 10002 20002 39889 40116 53009 60022 76176 333 20000 43002 96045
AAXX 31061 33301 11597 72004 11009 21016 39818 40106 52007 69942 70282 87500 333 21009 47001 87631
AAXX 31061 33325 31596 60000 11008 21015 39839 40112 52007 71042 83530 333 21010 93401
AAXX 31061 33377 11214 80000 10010 20005 39918 40115 53012 69962 75154 886// 333 20010 88705
AAXX 31061 33415 32697 72306 11002 21022 39712 40119 52008 85530 333 21018
AAXX 31061 33429 11496 72003 11012 21016 39693 40126 52011 69902 72272 85500 333 21015 85710
AAXX 31061 33466 NIL
AAXX 31061 33526 32560 71602 11043 21049 39779 40132 52012 86530 333 21059 86633
AAXX 31061 33562 NIL
AAXX 31061 33614 11497 81803 10032 20019 30009 40114 53009 69902 71022 886// 333 20026 88710
AAXX 31061 33761 11340 83201 10014 20011 39900 40126 53017 69962 71052 886// 333 10014 88707
AAXX 31061 33902 31594 80000 10025 20017 30059 40126 52013 71022 885// 333 20024
AAXX 31061 33983 32997 70000 10038 20023 30088 40150 53011 87050 333 20019
AAXX 31061 34415 NIL
AAXX 31061 34523 NIL
AAXX 31061 34712 NIL
AAXX 31064 17022 12960 61004 10049 21004 39954 40122 55001 60002 83048 333 20043 30003 55011 83360 86270 91106 92427
AAXX 31064 17031 12970 31001 10021 20009 30133 40140 53003 60002 80001 333 21006 30101 83070
AAXX 31064 17038 12970 32210 10140 21080 30097 40148 56003 60002 83030 333 20052 30002 55076 20741 83360 92428
AAXX 31064 17050 12670 83604 10040 20038 30036 40099 50002 69922 8552/ 333 20040 31004 55021 70002 85635 88460 91109
AAXX 31064 17060 NIL
AAXX 31064 17096 12570 40202 11107 21111 38243 48524 51005 60002 84500 333 21207 3/121 47009 50014 55050 20368 83630
AAXX 31064 17124 11556 70908 11010 21025 39210 40155 55000 69922 71072 84550 333 21031 3/104 41998 50064 55025 20540 70002 84630 86360 93100
AAXX 31064 17128 11656 70803 11018 21031 39053 40188 52008 60002 71022 84550 333 21035 30105 50034 55009 20159 84635 86359
AAXX 31064 17170 NIL
AAXX 31064 17195 11513 60000 11027 21040 38942 48454 52008 60002 71011 81531 333 21067 3/108 45998 50024 55025 20896 81630 83360 86070
AAXX 31064 17199 12670 72302 10017 21030 39099 40219 52008 60002 83550 333 20003 30102 55070 20695 83635 87360
AAXX 31064 17219 11557 79902 10073 20056 39939 40085 55002 60022 78062 84250 333 20043 32003 55030 20217 70016 84830 87360
AAXX 31064 17240 11560 70501 10029 20004 38977 40137 53001 69962 76062 85550 333 20019 32002 55000 20268 70014 85630 87360 91112
AAXX 31064 17244 11657 52704 10003 21016 38956 48448 52008 60002 71022 83550 333 21021 31/// 55/// 2//// 83635 85359
AAXX 31064 17280 12660 73302 10028 20007 39412 40226 53006 60002 82530 333 21021 34105 50121 55076 20360 82640 87360
AAXX 31064 17350 11560 80510 10093 20024 30086 40165 53015 69902 72122 8622/ 333 20083 30/// 79999 82725 84835 88460
AAXX 31064 60127 32960 00000 10055 20010 39714 40335 5/003 333 20045 30003
AAXX 31064 60141 32960 01808 10011 21028 39644 40348 55000 333 20001 30104
AAXX 31064 60210 32965 00000 10000 21040 39108 48596 55000 333 20000 34107
AAXX 31064 60265 32970 00000 11002 21089 39004 48599 57002 333 21015 31004
AAXX 31064 60060 NIL
AAXX 31064 60105 NIL
AAXX 31064 60106 NIL
AAXX 31064 60107 NIL
AAXX 31064 60185 NIL
AAXX 31064 60190 NIL
AAXX 31064 60191 NIL
AAXX 31064 60195 NIL
AAXX 31064 60220 NIL
AAXX 31064 60318 NIL
AAXX 31064 17026 12970 50501 10080 20018 30097 40136 52007 60002 83035 333 20061 30002 55058 20833 83359 85270 91108 92418
AAXX 31064 17034 12970 40901 10091 21012 30103 40149 53003 60002 80001 333 20063 30003 84070 92428
AAXX 31064 17070 12565 63001 11010 21025 39260 40147 55001 60002 83550 333 21020 3/104 45998 50054 55019 20494 83630 86360 91107
AAXX 31064 17084 11956 70000 11049 21059 39258 40199 52008 60002 71000 83038 333 21057 34107 55040 83360 87270 91102
AAXX 31064 17090 12665 60000 11006 21067 38708 48478 52007 60002 84550 333 21022 3/103 47001 55041 84640 86360
AAXX 31064 17098 11916 00000 11153 21158 38219 48544 52008 60002 71040 333 21228 3/123 43014 50014 55013 20737
AAXX 31064 17150 11902 00301 11013 21013 39974 40101 57007 60002 74844 333 21022 34103 50021 55044 20670
AAXX 31064 17160 12670 72501 11010 21041 38990 48453 53006 60002 84550 333 21042 34106 55028 84640 87360 91108
AAXX 31064 17184 12670 50401 10027 20022 39980 40094 56010 60002 83230 333 20017 31000 55017 83840 85360 91102
AAXX 31064 17189 11657 61005 10006 21003 38963 48426 52003 69942 71022 84550 333 21005 3/102 41001 70004 84635 86360
AAXX 31064 17210 12670 63401 10052 21024 39172 40223 53007 60002 83570 333 20030 30101 55073 83633 86360
AAXX 31064 17234 12670 70704 10078 20051 30030 40098 55004 60002 83270 333 20075 31006 50084 55004 83840 87360 91113
AAXX 31064 17260 12560 50908 10044 21027 39373 40204 52018 60002 83530 333 20027 30001 50124 55071 21189 83630 85359
AAXX 31064 17290 12570 71307 10128 20095 30057 40089 57008 60022 84270 333 20103 32009 50064 55004 70111 84830 87360 91119 92428
AAXX 31064 17370 11665 72304 10113 20026 30153 40157 52010 69922 72522 84270 333 20102 32005 50144 55073 2//// 70002 84835 87460 92427
AAXX 31064 17024 12970 61813 10041 21003 30052 40131 53005 60002 81036 333 20033 31002 55058 81360 86270 91116 92428
AAXX 31064 17056 11657 70304 10071 20069 30091 40095 55000 60002 71000 83570 333 20045 31002 55013 20360 83634 87360 91109 92426
AAXX 31064 17067 12670 61303 10047 20008 30081 40104 56005 60002 83230 333 20026 30001 55000 82840 86360 91108 92408
AAXX 31064 17092 12660 62801 10015 21070 38868 48496 53008 60002 84550 333 21028 30104 50044 55078 21168 84640 86360
AAXX 31064 17112 1//// /0304 10068 20058 30075 40077 55000 60032 333 20059 3/002 4//// 70032
AAXX 31064 17115 11656 50000 11004 21007 30039 40092 57005 60002 71022 83230 333 21014 34102 50044 55043 20682 83835 85360
AAXX 31064 17116 12662 50903 10047 21005 39985 40109 53002 60002 83150 333 20039 30002 55036 20046 83835 85360 91111
AAXX 31064 17188 11660 70402 10037 20019 39048 40116 56002 60022 70262 85570 333 20029 32003 55000 70023 85635 87360 91109
AAXX 31064 17202 12670 62303 10007 21018 39181 40241 52007 60002 82550 333 21017 31103 82635 86359
AAXX 31064 17248 12671 70302 10006 21026 38945 48450 53008 60002 83570 333 21017 34105 55049 2//// 83640 87360
AAXX 31064 17292 11560 71302 10063 20061 39347 40109 57004 60012 78082 84270 333 20045 32004 50054 55000 20138 70064 84830 87359 91108
AAXX 31064 17300 11457 70104 10085 20075 30065 40137 53008 60062 78088 87900 333 20084 3//// 50251 55/// 2//// 70118 81915 86825
AAXX 31064 17310 11670 60502 10125 20037 30132 40139 53007 69902 70282 83250 333 20119 31008 55045 79999 83835 86360 91104 92438
AAXX 31064 17330 12670 50704 10131 21005 30142 40160 52019 60002 83230 333 20094 31005 50141 55071 83840 85360
AAXX 31064 17042 12970 01116 10126 21100 30122 40162 56002 60002 333 20038 30002 55061 92428
AAXX 31064 17074 12565 81902 11070 21084 39216 40194 53004 60002 8452/ 333 21075 34108 55037 20532 84630 88460 91105
AAXX 31064 17086 12970 02502 10032 21050 39439 40167 52009 60002 333 20023 30101 55067 20917
AAXX 31064 17088 12970 32201 11018 21098 38796 48493 51004 60002 83030 333 21021 34104 55010 20163 83360
AAXX 31064 17140 12665 60101 10012 21044 38666 48453 52006 60002 86200 333 21020 32104 55060 2//// 86838
AAXX 31064 17155 11670 50805 10023 20007 38994 40129 51001 69942 70172 83550 333 21006 3/101 45997 55027 70004 83635 85359 91110 93101
AAXX 31064 17203 12670 80000 11045 21072 38913 48551 52007 60002 8452/ 333 21062 34106 55074 2//// 84640 88460
AAXX 31064 17237 12670 53002 10062 20043 39601 40105 54000 69982 83530 333 20055 32005 55004 70024 83635 85360
AAXX 31064 17250 12675 70303 11001 21042 38772 48462 53012 60002 83570 333 21015 34102 55065 83640 87360
AAXX 31064 17270 12670 51701 10045 21042 39553 40213 52018 60002 83550 333 20033 30102 55059 83640 85360
AAXX 31064 17295 11556 70106 10084 20076 30110 40117 53004 60162 78082 84270 333 20082 32008 50234 55000 70728 84825 87359
AAXX 31064 17320 11570 73405 10096 20060 30138 40143 53003 60102 70192 84270 333 20088 30004 50121 55086 70096 84830 87360 92428
AAXX 31064 17375 1//// /3503 10105 20093 30129 40130 52007 60022 333 20090 3/007 4//// 70244
AAXX 31061 01327 11986 71001 11069 21085 60002 70211 80008 333 21088 44058 70000 91102
AAXX 31064 17500 12560 51107 10066 20059 30102 40162 52009 60182 84830 333 20063 32005 50101 55084 20654 70183 82825 83630
AAXX 31064 17501 12560 31606 10102 20062 30127 40146 53007 60102 83100 333 20104 32009 55071 21085 70010 83825 92437
AAXX 31064 17505 12560 31006 10097 20073 30043 40157 52010 60132 83100 333 20082 32006 55060 20942 70126 83825
AAXX 31064 17507 12560 52207 10100 20060 30045 40167 53006 60342 84830 333 20096 32008 5///1 55/// 2//// 70340 82825 83630
AAXX 31064 17510 11560 20000 10117 20086 30120 40130 52010 60082 70181 82200 333 20106 32006 50201 55026 20460 70078 82830 92417
AAXX 31064 17515 11560 30000 10069 20054 39994 40174 52017 60102 70281 83100 333 20061 32003 50061 55068 20986 70096 83825
AAXX 31064 17521 11558 41104 10071 20059 30013 40153 52021 69998 71081 83830 333 20065 32/// 50121 55072 20495 70102 82620
AAXX 31064 17530 11560 30000 10068 20058 30106 40164 52020 60092 70281 83100 333 20063 32004 55/// 2//// 70090 83825
AAXX 31064 17535 11560 43403 10086 20070 30103 40140 52018 60082 70281 84100 333 20085 32007 55023 21183 70084 84825
AAXX 31064 17540 11560 42406 10109 20085 30145 40169 5//// 60042 84100 333 20009 31005 50211 55/// 2//// 84830 70038 92427
AAXX 31064 17547 12560 40710 10093 20078 39908 40155 5//// 60002 84100 333 20090 30005 55078 20954 84830 92427
AAXX 31064 17550 11560 40706 10102 20079 30006 40153 52025 60082 70181 84100 333 20096 32007 55072 21143 70080 84825 92427
AAXX 31064 17572 11560 2//// 10123 20085 30137 40162 5//// 60132 70181 82200 333 20105 32006 70133 82830 92417
AAXX 31061 13168 32997 22503 11003 21008 30060 40170 53012 80002 333 21003 31102 55012 70000
AAXX 31061 13174 31695 22501 11015 21018 30051 40155 53010 72841 81501 333 21016 31103 55006 70000
AAXX 31061 13269 11597 82702 10014 20007 39953 40173 52013 60022 72162 885// 333 20009 32001 55016 70062
AAXX 31061 13274 11696 82902 10015 20001 30001 40166 52015 69932 72162 8452/ 333 20010 34001 55000 70003
AAXX 31061 13278 NIL
AAXX 31061 13378 NIL
AAXX 31061 13397 NIL
AAXX 31061 13457 11670 73507 10087 21036 30090 40097 52017 60042 70262 84520 333 20017 32001 55/// 84650 86459 91112
AAXX 31061 13481 NIL
BBXX 2ALE5 31063 99226 70173 41998 00523 10170 20115 40270 56007 70200 80000 22253 20505 80140
BBXX A8EH3 31063 99434 11474 41397 83533 10015 40110 52060 78887 887// 22255 04030 20808 335// 40808
BBXX DDIJ 31063 99461 71589 41497 80330 10057 20031 49875 52040 76162 8/800 22264 04140 2//// 399// 40812 80045
AAXX 31061 13378 11/93 90504 11084 21091 38178 48396 53014 60042 77174 333 21084 3/108 48017 55018 70048 91110 93108
AAXX 31061 13278 11596 80000 10018 20004 39935 40166 52022 60012 71022 885// 333 20018 31001 55015 70018
AAXX 31061 13397 11697 82502 11011 21025 39590 40143 53011 69922 77172 885// 333 21026 3/103 42001 93101 55042 70002
AAXX 31061 13369 11496 83204 11034 21044 38928 48404 52031 60022 77177 8802/ 333 21034 3/104 47015 55019 70024 93106
AAXX 31061 13180 31694 83203 10001 21002 30052 40166 58016 71022 885// 333 21008 31101 55000 70000
AAXX 31061 13173 31993 32702 11004 21009 30059 40162 52009 74244 82031 333 21009 31101 55000 70000
AAXX 31061 13266 11996 32802 10000 21008 30069 40173 53013 69912 71000 81042 333 20000 34101 55000 70008
AAXX 31061 13383 11697 82602 10016 20012 39950 40158 52019 60042 70272 885// 333 20002 31000 55000 70038 93197
AAXX 31061 13384 11596 83401 10009 21002 30004 40160 52016 69922 71062 885// 333 20012 31100 55016 70009
AAXX 31061 13389 11596 80301 10006 20001 39857 40145 53017 60012 77177 8802/ 333 21004 3/102 43001 55033 70010 93101
AAXX 31061 12160 11456 70000 10007 20006 30024 40078 52013 60012 72611 873// 333 10026 21009 31102 70028 93001
AAXX 31061 12205 11363 72502 10021 20015 30103 40111 53013 60012 70182 876// 333 10040 20020 31002 55004 70047 93097
AAXX 31061 12465 11250 82503 10009 20009 39863 40101 53010 60022 71072 886// 333 10014 20002 3/000 41998 55/// 20084 70037 88704 93097
AAXX 31061 12566 11556 72406 10006 21003 39825 40125 52010 60022 77182 875// 333 10011 21012 3/101 43001 70028 93001
AAXX 31061 12105 11584 63301 10012 20005 30054 40097 53014 60012 70182 82530 333 10032 20012 32101 55007 70012 93096
AAXX 31061 12195 11357 83402 10001 20001 39829 40060 53014 60042 72264 886// 333 10006 21001 3/101 43006 55011 70044 93004
AAXX 31061 12235 11467 83002 10019 20018 39878 40091 53017 69912 70286 885// 333 10021 20004 31101 70007 93091
AAXX 31061 12270 11459 82903 10005 20004 39897 40082 52013 60042 71072 885// 333 10007 20000 3/100 43003 70054 93097
AAXX 31061 12280 11558 82802 10006 20003 39910 40069 52016 69962 71072 885// 333 10008 20004 31000 55003 70011 93094
AAXX 31061 12300 11770 73103 10018 20009 30022 40113 52014 69962 70182 875// 333 10032 20018 31001 70041 93094
AAXX 31061 12400 11365 72803 10015 20011 39884 40124 53014 60032 70382 875// 333 10023 20013 31001 70055 91111 93001
AAXX 31061 12435 11460 82704 10019 20012 39929 40103 53011 60022 72187 875// 333 10020 20001 31102 55002 70050 93001
AAXX 31061 12495 11360 82707 10001 20000 39799 40097 53019 60012 72272 886// 333 10011 20001 3/000 43003 55007 70012 93001
AAXX 31061 12530 11562 82804 10014 20011 39920 40123 53011 60022 78582 889// 333 10020 20004 3/000 43997 55001 70029 93001
AAXX 31061 12570 11250 82603 10004 20001 39786 40110 52011 60022 72687 887// 333 10006 21008 3/102 43002 55003 70025 93001
AAXX 31061 12580 11470 72405 10008 20001 39854 40119 52017 60012 70187 875// 333 10022 20004 3/102 43001 55008 70012 87613 91112 93001
BBXX A8ZP9 31063 99272 30424 41497 39904 10250 40140 53010 70200 82146 22264 00260 20101 320// 40502 5////
AAXX 31061 01135 16/// /0801 11079 21084 39904 40062 51013 60042 333 21079 4/169 70048 91105
AAXX 31061 01192 16/// /2301 11082 21125 60002 333 21093 4/016 70000 91103
AAXX 31061 01253 16/// /2001 11116 21126 69922 333 21119 70019 91106
AAXX 31061 01370 16/// /2302 11116 21133 38969 40198 55001 60002 333 21132 4/027 70000 91105
AAXX 31061 01455 16/// /0201 11070 21090 39777 40100 52004 60002 333 21070 70000 91102
AAXX 31061 01481 16/// /0101 11041 21065 30058 40091 52007 60002 333 21047 70000 91103
AAXX 31064 71043 11083 00000 11301 21348 39992 40090 52016 69901 7677 333 11227 21309 48034 70010 90983 555 10010 20010
AAXX 31064 71045 16/// /0000 11239 21264 39180 40075 52030 60001 333 11146 21246 70000
AAXX 31064 71050 46/// /0601 11104 21134 39051 40150 53039 6///1 333 10014 21135 7//// 555 32631 40012
AAXX 31064 71051 NIL
AAXX 31064 71052 NIL
AAXX 31064 71066 12574 80000 11141 21172 39609 40038 53023 60001 865// 333 11130 21245 70000 555 10000 20000
AAXX 31064 71068 11574 82905 11079 21098 39322 40017 53037 69901 77172 885// 333 11050 21108 47007 70026 90927 555 10026 20026
AAXX 31064 71069 16464 62812 11053 21062 39289 49993 53031 60001 333 11014 21116 70000 555 32819 40071
AAXX 31064 71076 16/// /0201 11117 21129 39623 40020 53008 60001 333 11106 21126 70000
AAXX 31064 71077 17/// /0108 11057 21067 39431 49969 53010 69931 7//4/ 333 11008 21070 70003
AAXX 31064 71079 11266 81803 11067 21069 39719 49999 55008 69941 77177 885// 333 11067 21145 48009 70014 90983 555 10022 20014
AAXX 31064 71081 46964 03312 11298 21342 30029 40041 53001 6///1 333 11219 21304 7////
AAXX 31064 71082 NIL
AAXX 31064 71083 11566 73202 11169 21178 30003 40046 50001 69901 77177 87500 333 11134 21169 48058 70007 90983 555 10011 20007
AAXX 31064 71090 46961 02803 11334 21371 30030 40067 6///1 333 11281 21356 7////
AAXX 31064 71091 460// /0714 11250 39831 40047 56008 6///1 333 7////
AAXX 31064 71092 NIL
AAXX 31064 71093 460// ///// 11242 39534 40047 53001 6///1 333 11229 21271 7////
AAXX 31064 71094 46064 /0205 11246 39091 40010 55001 6///1 333 11195 21246 7//// 555 33436 40103
AAXX 31064 71095 46962 01902 11345 21388 39986 40071 55001 6///1 333 11302 21367 7////
AAXX 31064 71101 160// /2104 30172 51037 60001 333 70180 555 32936 40013
AAXX 31064 71104 12974 03108 11043 21149 39011 40129 52057 60001 333 10039 21043 70004 555 10004 20004 31527 40081
AAXX 31064 71108 11574 61810 10034 21007 30118 40191 52047 69901 70281 85230 333 10083 20032 70017 90951 555 10000 20000
AAXX 31064 71109 11462 62308 10010 21012 30174 40201 51046 60021 78582 84870 333 10048 20008 43999 70140 90927 555 10014 20014 32727 40200
AAXX 31064 71816 12974 02510 11192 21224 30173 40237 51020 60001 333 11022 21194 79999 555 19999 29999 33437 40111
AAXX 31064 71817 NIL
AAXX 31064 71818 12674 12510 11118 21166 30170 40189 53032 60001 81500 333 10002 21120 70066 555 10066 20066 33363 40083
AAXX 31064 71822 NIL
AAXX 31064 71825 11474 21803 11285 21327 39537 40250 53002 69921 70277 82500 333 11129 21285 48126 70012 90923 555 10018 20012 33523 40090
AAXX 31064 71827 12974 11006 11253 21292 39927 40186 55016 60001 80001 333 11211 21301 70000 555 10000 20000
AAXX 31064 71828 16464 82206 11197 21228 39558 40227 53002 60001 333 11156 21197 70000 555 33428 40072
AAXX 31064 71831 11474 81504 11125 21135 39841 40131 57002 69901 77172 885// 333 11120 21234 48042 79999 90931 555 19999 29999
AAXX 31064 71832 NIL
AAXX 31064 71834 12374 80000 11110 21126 39683 40122 53004 60001 886// 333 11103 21176 70010 555 10010 20010
AAXX 31064 71841 NIL
AAXX 31064 71842 11274 82006 11092 21099 39618 40097 55008 69901 77177 886// 333 11072 21103 47008 79999 90973 555 19999 29999
AAXX 31064 71844 NIL
AAXX 31064 71845 NIL
AAXX 31064 71850 11266 81608 11090 21095 39575 40084 56014 69901 77122 887// 333 11088 21113 48014 79999 90921 555 19999 29999
AAXX 31064 71852 16258 81816 11049 21054 39741 40038 56020 60001 333 11049 21128 70000 555 30224 40061
AAXX 31064 71854 NIL
AAXX 31064 71858 NIL
AAXX 31064 71861 16/// /2211 10010 21018 39236 49951 56015 60001 333 10013 21093 70005 555 32127 40041
AAXX 31064 71862 12674 82413 10022 21017 39280 49972 56010 60001 885// 333 10024 21065 70002 555 10002 20002
AAXX 31064 71863 46964 02510 11008 21034 39266 49958 53004 6///1 333 10013 21100 7//// 555 31520 40221
AAXX 31064 71114 160// /2816 10062 21024 30117 40165 52056 60011 333 10084 20025 70150 555 30336 40063
AAXX 31064 71120 NIL
AAXX 31064 71122 16/// /2304 11046 21089 38428 40020 53020 60001 333 7//// 555 10010
AAXX 31064 71123 11774 52905 11051 21074 39123 49988 53028 69901 71582 82530 333 11022 21143 44005 79999 90920 555 19999 29999 31126 40151
AAXX 31064 71125 NIL
AAXX 31064 71129 12974 42202 11028 21061 39135 49957 53017 60001 81071 333 10022 21060 79999 555 19999 29999
AAXX 31064 71131 16/// /2415 11026 21042 38744 49987 53007 60001 333 10028 21060 70000 555 32727 40021
AAXX 31064 71135 16/// /2710 11001 21038 38913 49984 53005 60001 333 10026 21054 70000 555 31926 40221
AAXX 31064 71137 NIL
AAXX 31064 71140 11874 81006 11063 21064 39499 40004 5/033 60001 70242 8807/ 333 11061 21128 70024 555 10028 20024
AAXX 31064 71145 11374 81706 11073 21082 39739 40035 58011 69921 72272 885// 333 11060 21090 48037 70004 90973 555 10004 20004
AAXX 31064 71148 16/// /1816 11051 21056 39447 40030 56021 60001 333 11050 21121 70040 555 10010 20040 30523 40151
AAXX 31064 71185 16964 03107 11055 30197 40221 53027 60001 333 11007 21057 70030 555 32146 40073
AAXX 31064 71188 11574 83202 11075 21109 30209 40253 52005 69901 70272 885// 333 11039 21099 44009 79999 90922 555 19999 29999 32918 40090
AAXX 31064 71200 17/// /2527 10026 20005 69921 7//4/ 333 10084 20026 70038 555 32346 40153
AAXX 31064 71207 16/// /0902 10010 30106 40171 53051 60001 333 10063 20001 70214 555 31826 40201
AAXX 31064 71260 13/// ///// 11029 21035 39858 40097 58002 60001 333 11024 21059 70002 555 19999 29999
AAXX 31064 71102 NIL
AAXX 31064 71105 NIL
AAXX 31064 71107 NIL
AAXX 31064 71110 NIL
AAXX 31064 71111 15966 02104 11016 21041 30172 40180 51038 60001
AAXX 31064 71112 16/// ///// 60001 333 70006
AAXX 31064 71113 16/// /2703 10052 20000 30159 40182 53053 60001 333 10089 20032 70050 555 32324 40001
AAXX 31064 71115 16/// /2906 10048 21049 39513 40090 53052 60001 333 10075 21006 70018 555 32522 40051
AAXX 31064 71116 16/// /2618 10023 21060 38918 40000 53007 60001 333 10088 21041 70000 555 32628 40012
AAXX 31064 71118 16/// /2307 11076 21101 39148 49970 53027 60001 333 10012 21137 70000 555 31518 40181
AAXX 31064 71121 16764 63008 11044 21119 39161 49981 53029 60001 333 11015 21104 70000
AAXX 31064 71127 16/// /3008 11031 21056 39076 49984 53030 60001 333 11027 21086 70000
AAXX 31064 71130 15566 61513 11019 21038 39450 49905 56020 60001 333 11010 21142 70000
AAXX 31064 71132 15466 80705 11117 21137 39703 40019 53008 60001 333 11076 21117 70005
AAXX 31064 71133 NIL
AAXX 31064 71139 NIL
AAXX 31064 71141 NIL
AAXX 31064 71142 15966 62515 10001 21031 39010 49965 51015 60001 333 10043 21070 70000
AAXX 31064 71143 NIL
AAXX 31064 71144 NIL
AAXX 31064 71147 NIL
AAXX 31064 71149 NIL
AAXX 31064 71700 17566 80404 11068 21105 30222 40249 55003 60001 771// 333 11043 21115 70000
AAXX 31064 71701 11569 80000 11065 21107 30185 40249 55003 69901 72611 8557/ 333 11048 21119 79999 90910 555 19999 29999 32421 40070
AAXX 31064 71702 16/// /1103 11088 21119 30231 40247 50001 60001 333 11053 21110 70000 555 32631 40082
AAXX 31064 71703 NIL
AAXX 31064 71704 17364 81907 10054 20050 39801 40020 55000 60021 76144 333 10057 20018 70101
AAXX 31064 71710 16/// /2406 11028 21052 30244 40254 51012 60001 333 11015 21079 70011 555 32639 40073
AAXX 31064 71712 16/// /0710 11074 21090 30079 40143 58017 60001 333 11074 21199 70000 555 30519 40141
AAXX 31064 71713 16/// /0604 11114 21143 60001 333 11103 21169 70000 555 32232 40072
AAXX 31064 71716 NIL
AAXX 31064 71717 NIL
AAXX 31064 71720 NIL
AAXX 31064 71721 16/// /3402 11109 21122 39885 40140 58014 60001 333 11109 21249 70000
AAXX 31064 71723 NIL
AAXX 31064 71724 NIL
AAXX 31064 71732 NIL
AAXX 31064 71733 16/// /0408 11090 21095 39663 40106 58011 60001 333 11088 21151 70000
AAXX 31064 71734 NIL
AAXX 31064 71736 NIL
AAXX 31064 71737 NIL
AAXX 31064 71741 16/// /2614 10035 21033 39696 40114 53077 60001 333 10092 20013 70000 555 33335 40053
AAXX 31064 71742 NIL
AAXX 31064 71743 NIL
AAXX 31064 71744 NIL
AAXX 31064 71745 NIL
AAXX 31064 71746 NIL
AAXX 31064 71747 NIL
AAXX 31064 71748 NIL
AAXX 31064 71043 11083 00000 11301 21348 39992 40090 52016 69901 7677 333 11227 21309 48034 70010 90983 555 10010 20010
AAXX 31064 71045 16/// /0000 11239 21264 39180 40075 52030 60001 333 11146 21246 70000
AAXX 31064 71050 46/// /0601 11104 21134 39051 40150 53039 6///1 333 10014 21135 7//// 555 32631 40012
AAXX 31064 71051 NIL
AAXX 31064 71052 NIL
AAXX 31064 71066 12574 80000 11141 21172 39609 40038 53023 60001 865// 333 11130 21245 70000 555 10000 20000
AAXX 31064 71068 11574 82905 11079 21098 39322 40017 53037 69901 77172 885// 333 11050 21108 47007 70026 90927 555 10026 20026
AAXX 31064 71069 16464 62812 11053 21062 39289 49993 53031 60001 333 11014 21116 70000 555 32819 40071
AAXX 31064 71076 16/// /0201 11117 21129 39623 40020 53008 60001 333 11106 21126 70000
AAXX 31064 71077 17/// /0108 11057 21067 39431 49969 53010 69931 7//4/ 333 11008 21070 70003
AAXX 31064 71079 11266 81803 11067 21069 39719 49999 55008 69941 77177 885// 333 11067 21145 48009 70014 90983 555 10022 20014
AAXX 31064 71081 46964 03312 11298 21342 30029 40041 53001 6///1 333 11219 21304 7////
AAXX 31064 71082 NIL
AAXX 31064 71083 11566 73202 11169 21178 30003 40046 50001 69901 77177 87500 333 11134 21169 48058 70007 90983 555 10011 20007
AAXX 31064 71090 46961 02803 11334 21371 30030 40067 6///1 333 11281 21356 7////
AAXX 31064 71091 460// /0714 11250 39831 40047 56008 6///1 333 7////
AAXX 31064 71092 NIL
AAXX 31064 71093 460// ///// 11242 39534 40047 53001 6///1 333 11229 21271 7////
AAXX 31064 71094 46064 /0205 11246 39091 40010 55001 6///1 333 11195 21246 7//// 555 33436 40103
AAXX 31064 71095 46962 01902 11345 21388 39986 40071 55001 6///1 333 11302 21367 7////
AAXX 31064 71101 160// /2104 30172 51037 60001 333 70180 555 32936 40013
AAXX 31064 71104 12974 03108 11043 21149 39011 40129 52057 60001 333 10039 21043 70004 555 10004 20004 31527 40081
AAXX 31064 71108 11574 61810 10034 21007 30118 40191 52047 69901 70281 85230 333 10083 20032 70017 90951 555 10000 20000
AAXX 31064 71109 11462 62308 10010 21012 30174 40201 51046 60021 78582 84870 333 10048 20008 43999 70140 90927 555 10014 20014 32727 40200
AAXX 31064 71150 46/// /1809 11048 21053 39299 49978 58025 6///1 333 11046 21133 7////
AAXX 31064 71151 NIL
AAXX 31064 71152 16/// /3110 11014 21065 30228 40241 53025 60001 333 10003 21052 70009 555 32547 40083
AAXX 31064 71153 16/// /2612 11009 21051 60001 333 10058 21017 70000 555 32623 40211
AAXX 31064 71154 16/// /2318 11009 21072 60001 333 10037 21023 70006 555 32039 40113
AAXX 31064 71155 NIL
AAXX 31064 71156 NIL
AAXX 31064 71157 NIL
AAXX 31064 71158 NIL
AAXX 31064 71159 NIL
AAXX 31064 71160 NIL
AAXX 31064 71161 16/// /0509 11076 21088 39958 40110 58021 60001 333 11076 21143 70004 555 10010 20004
AAXX 31064 71162 NIL
AAXX 31064 71163 46/// /0301 11163 21177 39710 40059 51019 6///1 333 11160 21166 7////
AAXX 31064 71164 NIL
AAXX 31064 71165 NIL
AAXX 31064 71166 NIL
AAXX 31064 71167 17620 82905 11085 21099 38913 40017 53038 60001 771// 333 11051 21130 70000
AAXX 31064 71168 16/// /1505 11009 21010 39505 40088 58016 60001 333 10032 21011 70007 555 33222 40171
AAXX 31064 71170 16/// /1812 11042 21053 60001 333 11042 21146 70021 555 31717 40061
AAXX 31064 71171 17/// /1204 10035 20031 39943 40039 58015 60031 7//4/ 333 10058 20007 70036
AAXX 31064 71172 17/// ///// 11013 21021 39842 40060 56024 60031 7//4/ 333 11013 21074 70034 555 10020 20034
AAXX 31064 71175 16/// /3303 11079 21088 30239 40275 53015 60001 333 7////
AAXX 31064 71176 460// /2644 11199 39396 40099 58004 6///1 333 11160 21199 7//// 555 30356 40063
AAXX 31064 71177 460// /2315 11204 39081 40120 55003 6///1 333 11122 21211 7////
AAXX 31064 71178 16/// /3119 11021 21059 30170 40202 53032 60001 333 11003 21028 70000 555 32559 40083
AAXX 31064 71179 460// /2810 11174 39301 40152 51015 6///1 333 11070 21174 7////
AAXX 31064 71180 16/// /3110 11011 21049 30210 40250 51018 60001 333 10001 21058 70007 555 32544 40083
AAXX 31064 71181 16564 83011 11001 21062 30174 40211 53026 60001 333 10002 21034 70010
AAXX 31064 71183 16/// /0408 30117 58013 60001 333 70000
AAXX 31064 71184 46/// /0207 11069 21092 6///1 333 11066 21215 7////
AAXX 31064 71186 NIL
AAXX 31064 71187 15766 12916 10061 21018 30116 40164 52056 60001 333 10083 20023 70000
AAXX 31064 71189 NIL
AAXX 31064 71190 NIL
AAXX 31064 71191 16/// ///// 11059 21099 60001 333 11019 21094 70000
AAXX 31064 71192 15966 01302 11068 21107 39464 40134 51058 60001 333 10005 21068 70016
AAXX 31064 71193 16/// /1102 11129 21143 39750 40124 58003 60001 333 11128 21254 70003 555 10010 20003
AAXX 31064 71196 17/// /0702 11103 21110 39922 40127 58023 60021 7//4/ 333 11103 21227 70022 555 10030 20022
AAXX 31064 71197 17040 82909 11017 21040 30197 40247 53016 60001 745// 333 11005 21056 70005 555 32754 40103
AAXX 31064 71198 46/// /0414 11061 21110 6///1 333 11060 21183 7//// 555 30519 40231
AAXX 31064 71199 46/// /0000 11256 21283 39228 40104 53028 6///1 333 11235 21317 7////
AAXX 31064 71001 15966 02906 11324 21359 39021 40051 53026 60001 333 11264 21361 70000
AAXX 31064 71002 15466 82605 11170 21197 39671 40237 51004 60001 333 11107 21222 70000
AAXX 31064 71003 15966 00804 11264 21288 39812 40216 58011 60001 333 11180 21290 70000
AAXX 31064 71005 NIL
AAXX 31064 71006 NIL
AAXX 31064 71007 NIL
AAXX 31064 71008 NIL
AAXX 31064 71009 NIL
AAXX 31064 71010 NIL
AAXX 31064 71011 NIL
AAXX 31064 71012 NIL
AAXX 31064 71013 NIL
AAXX 31064 71014 NIL
AAXX 31064 71015 NIL
AAXX 31064 71016 NIL
AAXX 31064 71017 NIL
AAXX 31064 71018 NIL
AAXX 31064 71019 NIL
AAXX 31064 71020 NIL
AAXX 31064 71021 NIL
AAXX 31064 71022 17666 13107 10010 21064 30119 40163 53047 69931 7004/ 333 10022 21005 70028 555 32827 40021
AAXX 31064 71023 17448 83604 11065 21077 39186 49957 53019 60031 74544 333 11037 21144 70030
AAXX 31064 71024 16/// /0901 11160 21171 60001 333 11148 21223 70000
AAXX 31064 71026 NIL
AAXX 31064 71027 16/// /2403 11028 21067 30251 40261 53016 60001 333 11021 21070 70009 555 32527 40091
AAXX 31064 71028 16/// /3503 11098 21106 39107 40157 53040 60001 333 10020 21098 70027 555 10040 20027 31622 40001
AAXX 31064 71029 NIL
AAXX 31064 71030 16/64 /1006 10014 21010 30132 40223 56010 60001 333 10014 21083 70000
AAXX 31064 71032 46/// /2205 10000 21059 39304 40138 53052 6///1 333 10030 21020 7//// 555 10020 31920 40061
AAXX 31064 71033 46/// /0606 11109 21118 39357 49990 53002 6///1 333 11046 21109 7////
AAXX 31064 71035 NIL
AAXX 31064 71036 15766 80302 11042 21058 39605 49979 57030 60001 333 11025 21129 70000
AAXX 31064 71039 46/// /0000 11360 6///1 333 11237 21365 7////
AAXX 31064 71040 46/// /3001 11209 21239 30003 40214 58013 6///1 333 11184 21258 7////
AAXX 31064 71041 15966 00602 11110 21122 30121 40268 51011 60001 333 11037 21114 70000 555 32836 40113
AAXX 31064 71042 16/// /2003 10018 21001 30178 40182 53037 60001 333 10091 20018 70015 555 32320 40131
AAXX 31064 71044 16/// /0805 11274 21310 39743 40076 53013 60001 333 11238 21276 70000
AAXX 31064 71046 460// /1703 11247 30072 40090 53012 6///1 333 11247 21301 7//// 555 32619 40111
AAXX 31064 71047 NIL
AAXX 31064 71048 NIL
AAXX 31064 71049 NIL
AAXX 31064 71060 NIL
AAXX 31064 71063 NIL
AAXX 31064 71401 16/// /1807 10022 21016 39408 40091 53033 60001 333 10057 21002 70056 555 31918 40231
AAXX 31064 71402 NIL
AAXX 31064 71404 NIL
AAXX 31064 71405 NIL
AAXX 31064 71406 NIL
AAXX 31064 71407 NIL
AAXX 31064 71408 NIL
AAXX 31064 71409 NIL
AAXX 31064 71410 15266 81708 11056 21063 39727 40007 56018 60001 333 11050 21082 70000
AAXX 31064 71413 NIL
AAXX 31064 71414 NIL
AAXX 31064 71415 16/// /1904 11055 21077 30251 40254 50001 60001 333 11031 21072 70000 555 32330 40092
AAXX 31064 71417 NIL
AAXX 31064 71418 NIL
AAXX 31064 71419 46/// /1802 11041 21055 30261 40271 51012 6///1 333 11002 21051 7//// 555 32434 40093
AAXX 31064 71423 NIL
AAXX 31064 71424 46/// /0424 6///1 333 7//// 555 30429 40062
AAXX 31064 71425 16/// /1910 11083 21124 30218 40255 53006 60001 333 11066 21093 70010 555 32744 40083
AAXX 31064 71426 NIL
AAXX 31064 71427 NIL
AAXX 31064 71428 16/// /1809 11126 21158 30244 40251 51007 60001 333 11083 21126 70000 555 32337 40083
AAXX 31064 71429 NIL
AAXX 31064 71434 NIL
AAXX 31064 71436 17261 80605 11047 21054 39846 40085 56024 60001 771// 333 11046 21092 70000
AAXX 31064 71437 46/// /3408 10031 20020 39953 40048 58013 6///1 333 10047 20005 7//// 555 30221 40031
AAXX 31064 71438 NIL
AAXX 31064 71439 NIL
AAXX 31064 71440 NIL
AAXX 31064 71442 16/// /1709 11047 21057 39714 40030 58016 60001 333 11046 21156 70000 555 31518 40051
AAXX 31064 71445 NIL
AAXX 31064 71446 16/// /2719 10003 21041 38998 49961 51015 60001 333 10042 21074 70011 555 31631 40192
AAXX 31064 71448 16/// /1506 11078 21090 39720 40055 58013 60001 333 11067 21157 70000
AAXX 31064 71449 16/// /1805 11046 21059 39660 40067 56020 60001 333 11046 21134 70000
AAXX 31064 71350 16/// /1504 11099 21114 30188 40256 51003 60001 333 11059 21104 70000 555 32632 40072
AAXX 31064 71351 NIL
AAXX 31064 71352 17/// /1006 10000 21001 39592 40045 56011 60041 7//4/ 333 10002 21034 70050 555 31017 40001
AAXX 31064 71353 NIL
AAXX 31064 71354 NIL
AAXX 31064 71355 16/// /2803 11320 21353 39942 40031 58001 60001 333 11304 21384 70000
AAXX 31064 71356 16/// /3517 11207 21231 39990 40058 53005 60001 333 11154 21208 70000 555 10030 33519 40061
AAXX 31064 71357 NIL
AAXX 31064 71358 17/// /2902 11335 21371 30029 40066 53002 60021 7//4/ 333 11282 21359 70093
AAXX 31064 71359 NIL
AAXX 31064 71360 NIL
AAXX 31064 71361 NIL
AAXX 31064 71362 NIL
AAXX 31064 71363 NIL
AAXX 31064 71364 NIL
AAXX 31064 71365 NIL
AAXX 31064 71368 17/12 /1205 10005 20002 39661 40049 56011 60051 7614/ 333 10008 21016 70058
AAXX 31064 71369 15566 82814 11053 21067 39288 49993 53030 60001 333 11014 21108 70000
AAXX 31064 71370 46/// /0507 11075 21104 30031 40172 58015 6///1 333 11075 21246 7////
AAXX 31064 71371 16566 80309 11078 30127 40162 58013 60001 333 11077 21186 70000
AAXX 31064 71372 16/// /0305 11076 21091 60001 333 11076 21182 70000
AAXX 31064 71373 16/// /3601 11036 21054 60001 333 11029 21215 70000
AAXX 31064 71374 NIL
AAXX 31064 71375 NIL
AAXX 31064 71376 17/// /0903 11073 21086 39854 40158 57012 60021 7//4/ 333 11072 21286 70020
AAXX 31064 71377 17/// /0408 11081 21101 30103 40153 58015 69931 7//4/ 333 11081 21195 70003 555 10010 20003 30417 40201
AAXX 31064 71378 16/// /3404 11152 21188 39978 40197 57013 60001 333 11151 21327 70000
AAXX 31064 71379 16/// /2903 11240 21269 30032 40214 55006 60001 333 11199 21314 70000
AAXX 31064 71380 NIL
AAXX 31064 71381 NIL
AAXX 31064 71382 16/// /0000 11130 21144 39221 40198 58005 60001 333 11100 21317 70000
AAXX 31064 71383 NIL
AAXX 31064 71384 NIL
AAXX 31064 71385 NIL
AAXX 31064 71386 NIL
AAXX 31064 71387 NIL
AAXX 31064 71388 46/// /2703 11198 21227 30019 40218 56015 6///1 333 11188 21261 7////
AAXX 31064 71389 46/// /1006 11064 21117 6///1 333 11064 21269 7//// 555 30919 40051
AAXX 31064 71390 46/// /3605 11122 6///1 333 11053 21123 7//// 555 32920 40071
AAXX 31064 71391 17/// ///// 11086 21099 60011 7//4/ 333 11086 21230 70013
AAXX 31064 71392 16/// /0815 11070 21103 60001 333 11070 21201 70000 555 30622 40061
AAXX 31064 71393 NIL
AAXX 31064 71395 12774 41205 11041 21088 30072 40255 53001 60001 84500 333 10003 21059 70000 555 10000 20000 32525 40070
AAXX 31064 71398 15966 00704 11223 21242 30137 40149 56010 60001 333 11186 21297 70000
AAXX 31064 71399 NIL
AAXX 31064 71930 NIL
AAXX 31064 71931 16/// /2908 11040 21089 30176 40188 53033 60001 333 10030 21049 70000 555 32649 40083
AAXX 31064 71934 12874 70000 11195 21217 39774 40041 53012 60001 87500 333 11164 21247 47029 79999 555 10002 29999
AAXX 31064 71935 12874 92303 11172 21203 39844 40059 53019 60001 87020 333 11163 21240 79999 555 10004 29999
AAXX 31064 71936 11574 80000 11170 21202 39792 40059 52014 69901 70272 885// 333 11157 21176 48028 70012 90922 555 10046 20012
AAXX 31064 71937 NIL
AAXX 31064 71938 11759 80506 11285 21314 30099 40130 53012 69961 77177 8857/ 333 11283 21314 48028 70010 90983 93102 555 10040 20010
AAXX 31064 71940 NIL
AAXX 31064 71943 11774 51503 11098 21124 39188 40032 52032 69901 72211 85500 333 11044 21100 46003 70022 90942 555 10024 20022
AAXX 31064 71944 160// ///// 11072 53052 60001 333 11032 21103 70000
AAXX 31064 71945 11558 80000 11151 21193 39574 40059 52030 60001 77122 885// 333 11150 21226 47014 70010 90952 93101 555 10010 20010
AAXX 31064 71946 12274 80000 11275 21291 39863 40089 52024 60001 886// 333 11252 21297 48045 79999 555 19999 29999
AAXX 31064 71948 47008 /0829 11286 39985 40104 51010 6///1 745// 333 11275 21293 7//// 555 30843 40113
AAXX 31064 71949 46/// /0702 11247 21276 39145 40053 51018 6///1 333 11172 21279 7////
AAXX 31064 71951 11774 20000 11058 21069 39874 40145 53047 69901 70181 82500 333 10001 21062 47041 70058 90940 555 10072 20058 33625 40080
AAXX 31064 71957 46561 82902 11263 21333 39995 40088 52012 6///1 333 11201 21270 7////
AAXX 31064 71964 12986 41507 11140 21168 39155 40027 53022 60001 84070 333 11114 21191 70000 555 10000 20000 31722 40050
AAXX 31064 71966 17/// /0000 11299 21334 39575 40064 51013 60031 7//4/ 333 11281 21371 70073
AAXX 31064 71968 460// /2306 11302 30017 40085 53012 6///1 333 11220 21316 7//// 555 32718 40131
AAXX 31064 71900 46/// /25// 11163 21214 30180 40193 53019 6///1 333 11042 21169 7////
AAXX 31064 71903 NIL
AAXX 31064 71904 NIL
AAXX 31064 71914 16/// /2601 10012 21023 39973 40196 53044 60001 333 10068 20008 70017 555 30218 40071
AAXX 31064 71916 NIL
AAXX 31064 71918 460// ///// 11320 6///1 333 7////
AAXX 31064 71920 NIL
AAXX 31064 71921 NIL
AAXX 31064 71923 NIL
AAXX 31064 71927 16/// /2705 10045 21034 30139 40197 53044 60001 333 10086 20038 70028 555 32723 40231
AAXX 31064 71941 15466 81305 11106 21122 39713 40144 58007 60001 333 11106 21301 70000
AAXX 31064 71947 17658 81204 11156 21172 39795 40157 56016 60001 771// 333 11156 21337 70000
AAXX 31064 71397 12674 80702 11023 21068 30215 40251 55002 60001 8557/ 333 11010 21043 70000 555 10000 20000 32733 40071
AAXX 31064 71400 16/64 /2905 11055 21094 60001 333 10000 21061 70000 555 32132 40102
AAXX 31064 71403 46/// /0507 11013 21051 30241 40261 50003 6///1 333 10020 21031 7//// 555 32543 40073
AAXX 31064 71411 16/// /0806 10019 21021 30239 40252 55002 60001 333 10036 21041 70000 555 32621 40091
AAXX 31064 71412 16/// /2504 11077 21106 30252 40262 53008 60001 333 11049 21090 70000 555 32634 40073
AAXX 31064 71421 NIL
AAXX 31064 71430 16/// /0711 11006 21009 39979 40076 58025 60001 333 11004 21057 70000 555 30622 40071
AAXX 31064 71431 NIL
AAXX 31064 71432 NIL
AAXX 31064 71433 NIL
AAXX 31064 71435 NIL
AAXX 31064 71441 NIL
AAXX 31064 71443 16/// /3405 11050 21059 39536 49945 56033 60001 333 11022 21126 70000 555 32419 40181
AAXX 31064 71444 NIL
AAXX 31064 71447 16/// /1813 11023 21023 39445 49988 56023 60001 333 11023 21137 70000 555 31719 40051
AAXX 31064 71467 16/// /1007 11283 21310 30031 40152 51012 60001 333 11281 21321 70000 555 10010 30820 40141
AAXX 31064 71472 NIL
AAXX 31064 71474 16564 63204 11022 21109 38881 40121 51061 60001 333 10037 21028 70000 555 32227 40231
AAXX 31064 71510 16/// /2907 11035 21058 39244 49943 51023 60001 333 10014 21143 70036 555 32618 40021
AAXX 31064 71538 11458 82311 10063 20051 39801 40029 52007 60021 76162 885// 333 10070 20009 70094 90917 555 10000 20000 31617 40000
AAXX 31064 71600 168// 30304 10016 21029 30267 40273 53012 60001 333 10046 20014 70030 555 32546 40103
AAXX 31064 71601 NIL
AAXX 31063 91553 31598 60000 10295 20251 40062 56006 70222 84901 333 564/9 84820 81925 86080
AAXX 31064 91636 11498 70000 10265 20251 40078 60211 78088 83370 333 5689/
AAXX 31064 71930 NIL
AAXX 31064 71931 16/// /2908 11040 21089 30176 40188 53033 60001 333 10030 21049 70000 555 32649 40083
AAXX 31064 71934 12874 70000 11195 21217 39774 40041 53012 60001 87500 333 11164 21247 47029 79999 555 10002 29999
AAXX 31064 71935 12874 92303 11172 21203 39844 40059 53019 60001 87020 333 11163 21240 79999 555 10004 29999
AAXX 31064 71936 11574 80000 11170 21202 39792 40059 52014 69901 70272 885// 333 11157 21176 48028 70012 90922 555 10046 20012
AAXX 31064 71937 NIL
AAXX 31064 71938 11759 80506 11285 21314 30099 40130 53012 69961 77177 8857/ 333 11283 21314 48028 70010 90983 93102 555 10040 20010
AAXX 31064 71940 NIL
AAXX 31064 71943 11774 51503 11098 21124 39188 40032 52032 69901 72211 85500 333 11044 21100 46003 70022 90942 555 10024 20022
AAXX 31064 71944 160// ///// 11072 53052 60001 333 11032 21103 70000
AAXX 31064 71945 11558 80000 11151 21193 39574 40059 52030 60001 77122 885// 333 11150 21226 47014 70010 90952 93101 555 10010 20010
AAXX 31064 71946 12274 80000 11275 21291 39863 40089 52024 60001 886// 333 11252 21297 48045 79999 555 19999 29999
AAXX 31064 71948 47008 /0829 11286 39985 40104 51010 6///1 745// 333 11275 21293 7//// 555 30843 40113
AAXX 31064 71949 46/// /0702 11247 21276 39145 40053 51018 6///1 333 11172 21279 7////
AAXX 31064 71951 11774 20000 11058 21069 39874 40145 53047 69901 70181 82500 333 10001 21062 47041 70058 90940 555 10072 20058 33625 40080
AAXX 31064 71957 46561 82902 11263 21333 39995 40088 52012 6///1 333 11201 21270 7////
AAXX 31064 71964 12986 41507 11140 21168 39155 40027 53022 60001 84070 333 11114 21191 70000 555 10000 20000 31722 40050
AAXX 31064 71966 17/// /0000 11299 21334 39575 40064 51013 60031 7//4/ 333 11281 21371 70073
AAXX 31064 71968 460// /2306 11302 30017 40085 53012 6///1 333 11220 21316 7//// 555 32718 40131
AAXX 31064 71500 NIL
AAXX 31064 71501 NIL
AAXX 31064 71502 NIL
AAXX 31064 71503 NIL
AAXX 31064 71504 NIL
AAXX 31064 71505 NIL
AAXX 31064 71506 NIL
AAXX 31064 71507 NIL
AAXX 31064 71508 17/// ///// 10015 20015 39923 40061 56023 60021 7//4/ 333 10015 21023 70026
AAXX 31064 71509 NIL
AAXX 31064 71511 NIL
AAXX 31064 71512 16/// /0203 11152 21165 30250 40265 52014 60001 333 11045 21182 70000
AAXX 31064 71513 15966 03606 11149 21182 30241 40257 53019 60001 333 11018 21149 70000
AAXX 31064 71514 NIL
AAXX 31064 71515 16/// /1909 11026 21039 39257 49950 55004 60001 333 10005 21058 70000 555 31933 40012
AAXX 31064 71516 16/// /2808 10021 21018 60001 333 10031 21055 70007 555 33128 40082
AAXX 31064 71517 NIL
AAXX 31064 71518 NIL
AAXX 31064 71519 NIL
AAXX 31064 71520 NIL
AAXX 31064 71521 NIL
AAXX 31064 71522 NIL
AAXX 31064 71523 NIL
AAXX 31064 71524 16/// /0206 11086 21109 30150 40178 58011 60001 333 11085 21253 70010
AAXX 31064 71525 NIL
AAXX 31064 71526 NIL
AAXX 31064 71527 15266 81912 11090 21095 39582 40098 55004 60001 333 11084 21098 70000
AAXX 31064 71528 NIL
AAXX 31064 71529 46/// /0805 11174 21201 39819 40052 52012 6///1 333 11162 21188 7//// 555 30819 40071
AAXX 31064 71532 17361 81005 11026 21026 39724 40072 58025 60001 771// 333 11026 21087 70000
AAXX 31064 71534 17258 81403 11013 21013 39790 40063 58018 60031 7//44 333 11012 21066 70040
AAXX 31064 71535 NIL
AAXX 31064 71536 NIL
AAXX 31064 71537 NIL
AAXX 31064 71539 NIL
AAXX 31064 71540 NIL
AAXX 31064 71541 NIL
AAXX 31064 71542 16/// /0402 11154 21169 60001 333 11126 21194 70000
AAXX 31064 71543 NIL
AAXX 31064 71544 NIL
AAXX 31064 71545 17/// ///// 11108 21125 69941 7//4/ 333 11008 21127 70010
AAXX 31064 71546 NIL
AAXX 31064 71547 NIL
AAXX 31064 71548 NIL
AAXX 31064 71549 NIL
AAXX 31064 71950 17766 62602 11080 21089 39480 40119 53043 60001 771// 333 11019 21099 70005
AAXX 31064 71952 16/// /3601 11184 21203 39251 40122 53044 60001 333 11026 21184 70020 555 10020 20020
AAXX 31064 71954 NIL
AAXX 31064 71956 NIL
AAXX 31064 71959 NIL
AAXX 31064 71960 460// /0710 11246 39954 40091 53014 6///1 333 11222 21249 7//// 555 30922 40071
AAXX 31064 71962 16/// /1104 11097 21106 39674 40105 50000 60001 333 11070 21149 70000 555 31532 40232
AAXX 31064 71963 NIL
AAXX 31064 71967 NIL
AAXX 31064 71970 NIL
AAXX 31064 71971 NIL
AAXX 31064 71972 460// ///// 11182 39628 40104 55008 6///1 333 11167 21195 7////
AAXX 31064 71973 46/// /2703 11056 21091 30042 40234 53025 6///1 333 11014 21068 7//// 555 32532 40082
AAXX 31064 71974 NIL
AAXX 31064 71975 460// /2729 11241 39303 40054 56001 6///1 333 11216 21254 7//// 555 30337 40063
AAXX 31064 71976 NIL
AAXX 31064 71977 NIL
AAXX 31064 71978 NIL
AAXX 31064 71979 NIL
AAXX 31064 71980 NIL
AAXX 31064 71981 NIL
AAXX 31064 71982 NIL
AAXX 31064 71983 NIL
AAXX 31064 71984 NIL
AAXX 31064 71985 NIL
AAXX 31064 71986 NIL
AAXX 31064 71987 17/// /1904 11090 21119 30238 40248 50002 69961 7//4/ 333 11054 21094 70006 555 32842 40113
AAXX 31064 71988 16/// /1211 10015 21015 30219 40239 55007 60001 333 10016 21022 70000 555 32838 40083
AAXX 31064 71989 NIL
AAXX 31064 71990 NIL
AAXX 31064 71999 46/// ///// 10060 6///1 333 10081 20008 7////
AAXX 31064 71051 NIL
AAXX 31064 71055 NIL
AAXX 31064 71057 NIL
AAXX 31064 71059 460// ///// 11317 30046 40142 51013 6///1 333 11315 21330 7//// 555 31018 40071
AAXX 31064 71061 16/// /2505 11073 21092 39198 49982 53031 60001 333 11028 21124 70000
AAXX 31064 71062 46/// /2505 11064 21102 38907 49976 53029 6///1 333 11023 21088 7//// 555 10010
AAXX 31064 71064 460// /3512 11368 39921 40153 52009 6///1 333 11360 21394 7//// 555 30118 40171
AAXX 31064 71065 NIL
AAXX 31064 71067 NIL
AAXX 31064 71070 NIL
AAXX 31064 71073 NIL
AAXX 31064 71074 16/// ///02 11344 21378 30031 40113 51009 60001 333 11343 21360 70000 555 10010
AAXX 31064 71075 NIL
AAXX 31064 71078 NIL
AAXX 31064 71084 460// ///// 11349 30072 40123 53012 6///1 333 11348 21362 7////
AAXX 31064 71085 15966 02618 11008 21077 38644 40006 53003 60001 333 10052 21031 70005
AAXX 31064 71087 NIL
AAXX 31064 71088 460// /2906 11212 58003 6///1 333 11207 21242 7////
AAXX 31064 71089 NIL
AAXX 31064 71096 460// ///// 11264 39296 40052 53001 6///1 333 11230 21283 7////
AAXX 31064 71097 46064 02407 11216 39604 40095 53003 6///1 333 11206 21223 7//// 555 30427 40081
AAXX 31064 71098 43/// /1604 11099 21111 39694 40059 58008 6///1 333 11087 21122 7////
AAXX 31064 71099 43/// /1907 11143 21181 30061 40082 56007 6///1 333 11143 21185 7//// 555 32017 40111
AAXX 31064 71550 NIL
AAXX 31064 71551 NIL
AAXX 31064 71552 46/// /1610 11064 21085 6///1 333 11034 21109 7////
AAXX 31064 71553 NIL
AAXX 31064 71554 16/// /1206 11149 21177 30241 40247 50002 60001 333 11104 21157 70000 555 32827 40071
AAXX 31064 71555 16/// /2615 11023 21135 38443 49988 55000 60001 333 10043 21042 70004 555 32639 40043
AAXX 31064 71556 16/// /2905 11001 21025 39339 49936 53012 60001 333 10015 21120 70000 555 31926 40001
AAXX 31064 71557 46/// /1606 10024 21049 6///1 333 10056 21011 7//// 555 32122 40211
AAXX 31064 71558 46/// ///// 11095 21128 30156 40194 53029 6///1 333 11010 21095 7////
AAXX 31064 71559 46/// /2311 10021 21014 39277 49969 56010 6///1 333 10024 21062 7//// 555 32319 40051
AAXX 31064 71560 16/// /1709 11053 21058 39742 40048 57022 60001 333 11050 21094 70011
AAXX 31064 71563 NIL
AAXX 31064 71564 16/// /1506 11054 21063 39662 40034 56022 60001 333 11039 21089 70037
AAXX 31064 71565 NIL
AAXX 31064 71566 NIL
AAXX 31064 71567 NIL
AAXX 31064 71568 17/// /3410 10030 20003 30179 40191 53040 69961 7//4/ 333 10061 20021 70102 555 32849 40193
AAXX 31064 71569 16/// /2414 11002 21027 39253 49945 53005 60001 333 10017 21095 70011 555 31422 40231
AAXX 31064 71570 NIL
AAXX 31064 71571 NIL
AAXX 31064 71572 NIL
AAXX 31064 71573 17/// /1903 10050 20043 39753 40032 56008 60091 7//4/ 333 10051 20005 70091
AAXX 31064 71574 12574 80000 11163 21176 30183 40260 52008 60001 885// 333 11074 21170 70000 555 10000 20000 32725 40080
AAXX 31064 71575 NIL
AAXX 31064 71576 16/// /1801 11346 21385 39982 40072 55001 60001 333 11302 21368 70000
AAXX 31064 71577 46/// /1714 11064 21071 6///1 333 11056 21103 7//// 555 31918 40061
AAXX 31064 71578 16/// /0818 11062 21107 60001 333 11062 21199 70000 555 30823 40061
AAXX 31064 71579 16/// /2003 11050 21061 39750 40036 56020 60001 333 11046 21114 70000
AAXX 31064 71580 11974 03604 11360 30066 40105 52009 69901 70277 333 11293 21375 48030 79999 90960 555 19999 29999
AAXX 31064 71581 NIL
AAXX 31064 71582 17666 61504 11002 21006 30144 40198 53045 60021 7614/ 333 10054 21005 70149
AAXX 31064 71583 NIL
AAXX 31064 71584 15566 80406 11150 21168 30213 40263 51014 60001 333 11034 21177 70000
AAXX 31064 71585 NIL
AAXX 31064 71586 17/// /0509 11060 21068 39472 49934 56006 60021 7//4/ 333 11017 21103 70023 555 10030 20023
AAXX 31064 71587 NIL
AAXX 31064 71588 16/// /2803 11057 21092 60001 333 11016 21057 70000
AAXX 31064 71589 17/// /2904 11042 21071 30071 40206 53031 69971 7//4/ 333 11025 21051 70007 555 32437 40103
AAXX 31064 71590 16/// /0000 11159 21178 30044 40244 56004 60001 333 11102 21202 70000 555 32920 40101
AAXX 31064 71592 NIL
AAXX 31064 71593 NIL
AAXX 31064 71596 NIL
AAXX 31064 71598 16/64 /2205 11124 21143 30251 40257 53006 60001 333 11063 21127 70000 555 32936 40073
AAXX 31064 71599 NIL
AAXX 31064 71201 16/// ///// 10040 21012 60001 333 10098 20040 70010
AAXX 31064 71202 16/// ///// 11056 21082 60001 333 10007 21101 70011
AAXX 31064 71203 15766 81910 10043 21044 39589 40107 53045 60001 333 10073 21002 70023
AAXX 31064 71209 46/// /2709 10061 6///1 333 10092 20047 7//// 555 33536 40003
AAXX 31064 71211 46/// /3403 10040 21016 30167 40179 53048 6///1 333 10082 20034 7//// 555 30367 40073
AAXX 31064 71212 NIL
AAXX 31064 71213 46/// /0305 11110 21122 39815 40125 58008 6///1 333 11108 21272 7////
AAXX 31064 71214 NIL
AAXX 31064 71215 46/// /0502 10005 21036 39765 40110 53044 6///1 333 10087 20000 7////
AAXX 31064 71216 16/// /3204 10035 21018 39463 40075 53040 60001 333 10053 20002 70053
AAXX 31064 71217 NIL
AAXX 31064 71218 16/// /2402 10025 20001 39671 40097 51064 60001 333 10091 21008 70036 555 33533 40042
AAXX 31064 71219 46/// /3316 10012 21089 30156 40162 53047 6///1 333 10036 21003 7//// 555 32936 40003
AAXX 31064 71220 46/// /3117 10015 21071 6///1 333 10037 20004 7////
AAXX 31064 71221 NIL
AAXX 31064 71222 16/// /0601 11217 21238 39118 40122 53035 60001 333 11155 21227 70000
AAXX 31064 71223 NIL
AAXX 31064 71224 NIL
AAXX 31064 71225 NIL
AAXX 31064 71226 NIL
AAXX 31064 71227 NIL
AAXX 31064 71228 NIL
AAXX 31064 71229 NIL
AAXX 31064 71230 17/// /2304 11082 21096 39133 40030 51045 69961 7//4/ 333 11037 21082 70006 555 10020 20006 30717 40151
AAXX 31064 71231 16/// /2616 10006 21055 60001 333 10093 21012 70000 555 33040 40003
AAXX 31064 71232 16/// /2615 11003 21139 38497 49971 53018 60001 333 10024 21013 70000 555 32429 40042
AAXX 31064 71233 NIL
AAXX 31064 71234 16/// /1307 11002 21065 38817 49984 55000 60001 333 10085 21065 70000 555 33134 40223
AAXX 31064 71235 16/// /3111 11006 21127 60001 333 10049 21023 70000 555 32926 40211
AAXX 31064 71236 46/// /2808 11006 21105 6///1 333 10040 21017 7//// 555 32832 40222
AAXX 31064 71237 46/// /3104 11004 21090 39164 49967 53017 6///1 333 10087 21064 7//// 555 32822 40231
AAXX 31064 71238 NIL
AAXX 31064 71239 16/// /2017 11039 21053 39549 40012 58021 60001 333 11039 21099 70037 555 10040 20037 31823 40061
AAXX 31064 71240 16/// ///// 11015 21067 39126 49964 53014 60001 333 10031 21118 70009
AAXX 31064 71241 NIL
AAXX 31064 71242 16/// /1502 11099 21120 60001 333 10033 21099 70000
AAXX 31064 71243 NIL
AAXX 31064 71244 16/// /2617 11007 21052 38786 49989 53006 60001 333 10091 21021 70000 555 32328 40212
AAXX 31064 71245 NIL
AAXX 31064 71246 NIL
AAXX 31064 71247 15966 02009 11011 21046 39141 49982 53015 60001 333 10093 21024 70000
AAXX 31064 71248 16/// /2703 11061 21133 38694 49981 51025 60001 333 10052 21062 70000 555 32330 40232
AAXX 31064 71249 NIL
AAXX 31064 71665 16/// /2926 11174 21240 30164 40174 50001 60001 333 11063 21175 70012 555 33245 40133
AAXX 31064 71666 16/// /2302 11095 21116 30208 40254 53002 60001 333 11050 21128 70000 555 10010 32428 40072
AAXX 31064 71667 NIL
AAXX 31064 71668 16/// /0803 11068 21112 30202 40247 55002 60001 333 11046 21113 70000 555 32724 40081
AAXX 31064 71669 NIL
AAXX 31064 71670 16/// ///// 11110 21123 60001 333 11055 21143 70000
AAXX 31064 71671 16/// /0000 11030 21051 30185 40247 53001 60001 333 11017 21044 70000 555 32532 40082
AAXX 31064 71672 17/// /0703 11034 21044 39816 40084 56022 60011 7//4/ 333 11034 21090 70022 555 10010 20022
AAXX 31064 71673 NIL
AAXX 31064 71674 NIL
AAXX 31064 71675 17466 81907 11096 21107 39791 40075 57011 60031 7714/ 333 11096 21158 70174
AAXX 31064 71679 16/// /2611 11040 21079 39088 40111 53039 60001 333 10007 21061 70000 555 10030 32730 40232
AAXX 31064 71680 NIL
AAXX 31064 71681 46/// /0608 10040 21053 6///1 333 10096 21009 7//// 555 31928 40222
AAXX 31064 71682 NIL
AAXX 31064 71683 NIL
AAXX 31064 71684 15466 80206 11111 21127 39818 40129 58008 60001 333 11109 21267 70000
AAXX 31064 71685 17466 83104 10006 20006 39542 40079 53040 60021 76144 333 10036 20004 70048
AAXX 31064 71686 469// /0602 11186 21207 39119 40102 53035 6///1 333 11140 21197
AAXX 31064 71687 16/// /0000 11017 21022 39367 40153 51045 60001 333 10021 21017 70075 555 10060 20075
AAXX 31064 71688 16/// /0802 11037 21044 39104 40144 53044 60001 333 10007 21037 70105 555 10120 20105
AAXX 31064 71689 17420 83106 11080 21088 39534 49990 53022 69981 7714/ 333 11002 21080 70008
AAXX 31064 71690 NIL
AAXX 31064 71691 17466 83305 11142 21155 30222 40251 52004 60001 771// 333 11090 21194 70000
AAXX 31064 71692 NIL
AAXX 31064 71694 17/// /0804 11022 21030 39719 40085 58024 60041 7//4/ 333 11022 21087 70041 555 10020 20041
AAXX 31064 71695 17/// /1108 11044 21054 39611 49943 58034 69951 7//4/ 333 11044 21125 70005 555 10010 20005 31217 40061
AAXX 31064 71696 16/// /1707 11078 21090 39957 49994 56003 60001 333 11078 21169 70003 555 31618 40231
AAXX 31064 71697 17364 80911 10003 20003 39891 40063 58022 60011 7004/ 333 10003 21051 70013
AAXX 31064 71699 16/// /0405 11035 21071 30230 40238 58002 60001 333 11016 21084 70000
AAXX 31064 71603 12774 80908 10007 21037 30181 40235 55005 60001 885// 333 10014 21016 70000 555 10000 20000 32727 40071
AAXX 31064 71607 16/// /0604 11037 21068 30201 40234 56007 60001 333 11018 21123 70000
AAXX 31064 71609 11569 80000 11042 21101 30109 40247 55000 69901 78511 885// 333 11031 21108 79999 90931 555 19999 29999 32821 40070
AAXX 31064 71610 17556 80803 11043 21063 39872 40175 56010 60001 771// 333 11043 21201 70000
AAXX 31064 71621 17259 80603 11047 21060 39984 40092 58021 60001 747// 333 11047 21095 70005
AAXX 31064 71623 NIL
AAXX 31064 71624 11159 80805 10010 20009 39846 40058 57023 60041 75165 886// 333 10010 21031 43002 70044 90973 555 19999 29999
AAXX 31064 71625 17437 80903 11099 21107 39964 40130 58023 60011 74544 333 11099 21231 70015
AAXX 31064 71627 NIL
AAXX 31064 71628 11460 80710 11084 21101 39987 40132 58019 69981 77172 81500 333 11084 21196 70012 909/7 555 10299 20199 30716 40221
AAXX 31064 71630 NIL
AAXX 31064 71631 17/// /1105 10009 20003 39542 40039 56014 60051 7//4/ 333 10012 21037 70146
AAXX 31064 71633 11248 80608 10008 20002 39782 40053 57016 60061 75162 887// 333 10023 21034 43006 70068 90973 555 10004 20004
AAXX 31064 71705 12774 70000 11083 21111 30165 40256 53003 60001 87500 333 11048 21112 70000 555 10000 20000 32631 40081
AAXX 31064 71706 12974 41402 11097 21110 30201 40264 51003 60001 80001 333 11064 21119 79999 555 19999 29999 32737 40101
AAXX 31064 71707 12574 42104 11048 21078 30189 40268 53011 60001 84500 333 11035 21069 70002 555 10004 20002 32631 40071
AAXX 31064 71709 NIL
AAXX 31064 71711 NIL
AAXX 31064 71714 16/// /0709 11066 21112 30121 40216 58009 60001 333 11066 21273 7////
AAXX 31064 71715 16/// /0801 11131 21153 30041 40230 58005 60001 333 11116 21174 70000
AAXX 31064 71718 12883 21410 11151 21194 30182 40251 52003 60001 82070 333 11110 21154 79999 555 19999 29999
AAXX 31064 71719 16/// /2203 11072 21084 30248 40254 53008 60001 333 11042 21102 70000 555 10010 32736 40093
AAXX 31064 71812 47320 90913 11114 21124 30008 40022 55002 6///1 745// 333 11111 21153 7////
AAXX 31064 71819 15966 03208 11096 21128 30160 40202 53029 60001 333 11009 21096 70003
AAXX 31064 71820 16/// /0510 11063 21073 39977 40094 58027 60001 333 11062 21112 70000 555 10020 30422 40101
AAXX 31064 71823 16964 01004 11282 21315 39813 40218 58011 60001 333 11190 21311 70000
AAXX 31064 71824 46/// /0902 11197 21226 6///1 333 11194 21350 7////
AAXX 31064 71826 16/// /0000 11275 21323 30056 40102 53003 60001 333 11261 21288 70000
AAXX 31064 71829 16/// /2908 11163 21189 30073 40241 55001 60001 333 11099 21173 70000 555 32621 40071
AAXX 31064 71833 46/// /0908 10001 20001 6///1 333 10001 21032 7////
AAXX 31064 71835 16/// /1803 11103 21112 39592 40081 58012 60001 333 11103 21143 70000
AAXX 31064 71837 NIL
AAXX 31064 71839 NIL
AAXX 31064 71840 NIL
AAXX 31064 71846 16/// /1703 11132 21141 39780 40105 58012 60001 333 11132 21240 70000
AAXX 31064 71847 NIL
AAXX 31064 71848 NIL
AAXX 31064 71849 NIL
AAXX 31064 71893 12880 42803 10008 21012 30160 40192 52042 60001 84030 333 10085 21001 70020 555 10000 20000 31433 40071
AAXX 31064 71894 17/// /3209 10024 20014 30198 40207 53045 69961 7//4/ 333 10083 20023 70036 555 32857 40193
AAXX 31064 71896 15966 02309 11074 21099 39273 40112 51053 69931 333 10004 21080 70066
AAXX 31064 71897 12474 52725 10032 210045 3//// 4//// 52040 60031 70287 853XX 333 10035 20010 42997 70163 90936 555 19999 20032
AAXX 31064 71898 160// ///// 10009 53048 69951 333 10025 21008 70175
AAXX 31064 71899 11566 62722 10018 21053 3//// 4//// 53031 69921 71582 86300 333 10040 21005 47997 70024 90965 555 19999 20006 33042 40213
AAXX 31064 71902 NIL
AAXX 31064 71905 NIL
AAXX 31064 71906 11574 82407 11163 21222 30161 40213 55000 69901 77177 885// 333 11125 21175 44015 79999 90983 555 19999 29999
AAXX 31064 71907 16737 81922 11159 21193 30115 40149 57011 60001 333 11158 21309 70010 555 31926 40051
AAXX 31064 71909 16564 80302 11207 21244 30082 40127 56001 60001 333 11206 21276 70000
AAXX 31064 71910 47448 82514 11152 21178 30029 40093 57007 6///1 745// 333 11148 21199 7//// 555 32521 40211
AAXX 31064 71911 46964 00212 11367 30038 40098 53011 6///1 333 11291 21369 7////
AAXX 31064 71912 11474 81808 11069 21078 39831 40015 56005 69901 77122 885// 333 11068 21156 47021 79999 90962 555 10002 29999
AAXX 31064 71915 11459 80904 11184 21213 39981 40064 57007 60031 77177 885// 333 11183 21243 44042 70030 90983 93103 555 10030 20030
AAXX 31064 71917 11956 00000 11416 21453 30082 40097 54000 69901 7767/ 333 11393 21426 44014 79999 90999 555 19999 29999
AAXX 31064 71922 11348 80510 11059 21067 39475 49939 56006 60031 77122 885// 333 11015 21103 47033 70030 90931 93103 555 10030 20030
AAXX 31064 71924 NIL
AAXX 31064 71925 11169 20307 11361 21406 30108 40152 52012 69901 77677 81730 333 11359 21395 42021 79999 90983 555 19999 29999
AAXX 31064 71926 11874 83515 11167 21257 30032 40057 53005 69901 77172 8807/ 333 11152 21205 48043 79999 90983 555 19999 29999
AAXX 31064 71928 16/// /2603 11101 21153 38833 40001 53028 60001 333 10047 21139 70000 555 32827 40221
AAXX 31063 91553 31598 60000 10295 20251 40062 56006 70222 84901 333 564/9 84820 81925 86080
AAXX 31064 71450 16/// /2308 10003 21031 39241 49950 53014 60001 333 10028 21119 70003 555 32724 40051
AAXX 31064 71451 16/// /0306 11064 21079 39550 49973 55003 60001 333 11005 21070 70006
AAXX 31064 71452 NIL
AAXX 31064 71453 16/// /3205 10009 21053 39083 49982 53012 60001 333 10091 21021 70000 555 31733 40162
AAXX 31064 71454 17/// /3301 11056 21068 39227 49912 55002 60051 7//4/ 333 11038 21113 70057
AAXX 31064 71455 NIL
AAXX 31064 71456 16/// /2510 11045 21057 39321 49915 53005 60001 333 11003 21120 70000 555 31523 40021
AAXX 31064 71457 16/// /2608 11020 21054 39093 49971 53020 60001 333 10066 21034 70000 555 32627 40001
AAXX 31064 71458 16/// /2703 11106 21127 39207 49980 53027 60001 333 10003 21146 70000
AAXX 31064 71459 NIL
AAXX 31064 71460 16/// /0204 11055 21062 39844 40089 58014 60001 333 11053 21097 70000 555 30721 40071
AAXX 31064 71461 NIL
AAXX 31064 71462 NIL
AAXX 31064 71463 NIL
AAXX 31064 71464 NIL
AAXX 31064 71465 NIL
AAXX 31064 71466 NIL
AAXX 31064 71468 NIL
AAXX 31064 71470 NIL
AAXX 31064 71471 15866 80102 11106 21115 39237 40036 51035 60001 333 11045 21109 70000
AAXX 31064 71473 16/// /2505 10029 21035 30162 40192 53049 60001 333 10073 20026 70010 555 32340 40163
AAXX 31064 71475 NIL
AAXX 31064 71476 NIL
AAXX 31064 71477 16/// /2519 10003 21038 60001 333 10026 21002 70084 555 33040 40213
AAXX 31064 71478 NIL
AAXX 31064 71479 NIL
AAXX 31064 71480 NIL
AAXX 31064 71481 NIL
AAXX 31064 71482 NIL
AAXX 31064 71483 NIL
AAXX 31064 71484 NIL
AAXX 31064 71485 17/// /3514 10020 20003 30177 40198 53053 60041 7//4/ 333 10064 20018 70152 555 33046 40173
AAXX 31064 71486 16/// /1404 11018 21032 38820 40011 53035 60001 333 10011 21052 70008
AAXX 31064 71487 16/// /2614 10013 21027 39112 49965 53006 60001 333 10033 21059 70000 555 31723 40211
AAXX 31064 71489 NIL
AAXX 31064 71490 NIL
AAXX 31064 71491 NIL
AAXX 31064 71492 NIL
AAXX 31064 71493 16/// /0402 11059 21088 30209 40248 51001 60001 333 11020 21089 70000 555 32524 40081
AAXX 31064 71494 16/// /0806 11051 21082 39644 40175 56010 60001 333 11051 21247 70003 555 10010 20003
AAXX 31064 71495 NIL
AAXX 31064 71496 16/// /2908 11053 21062 39329 49936 53023 60001 333 10007 21135 70000 555 31418 40221
AAXX 31064 71497 46/// /0000 11234 21262 39803 40081 52019 6///1 333 11211 21248 7////
AAXX 31064 71498 NIL
AAXX 31064 71499 15266 80607 11103 21111 39357 49987 53001 60001 333 11043 21103 70000
AAXX 31064 71300 NIL
AAXX 31064 71301 16/// ///// 11121 21132 39713 40124 58006 60001 333 11121 21253 70010
AAXX 31064 71302 16/// /2308 11070 21094 39284 40108 51053 60001 333 10004 21070 70076 555 10070 20076 32019 40211
AAXX 31064 71303 46/// ///// 10049 20038 6///1 333 10073 20027 7////
AAXX 31064 71305 15366 80704 11136 21148 39727 40025 53013 60001 333 11124 21225 70003
AAXX 31064 71306 17424 81923 11130 21150 30115 40148 58010 60001 771// 333 11133 21276 70000 555 32029 40052
AAXX 31064 71307 NIL
AAXX 31064 71308 16/// /1803 11079 21090 30184 40271 51010 60001 333 11035 21086 70000 555 10010 32529 40112
AAXX 31064 71309 NIL
AAXX 31064 71310 16/// /1904 11091 21123 30224 40262 53004 60001 333 11063 21105 70000 555 32536 40073
AAXX 31064 71311 NIL
AAXX 31064 71312 17/// /1712 11021 21042 39447 49901 56019 60011 7//4/ 333 11011 21148 70013 555 31018 40021
AAXX 31064 71314 17/// /1006 11019 21026 39706 40060 56027 60021 7//4/ 333 11017 21075 70034 555 31018 40081
AAXX 31064 71315 NIL
AAXX 31064 71316 16/// /2907 11061 21070 39286 49969 53028 60001 333 11031 21129 70024
AAXX 31064 71317 NIL
AAXX 31064 71318 16/// /3207 11050 21084 39034 49972 53025 60001 333 10029 21118 70000 555 10010 31317 40161
AAXX 31064 71319 16/// /0304 11120 21142 39303 40188 58009 60001 333 11070 21220 70000
AAXX 31064 71320 NIL
AAXX 31064 71321 16/// /0102 11205 21229 30098 40143 57001 60001 333 11205 21274 70000
AAXX 31064 71322 46/// /1012 11113 21123 30008 40021 55002 6///1 333 11110 21151 7//// 555 10060
AAXX 31064 71323 16/// /1403 11056 21098 39894 40182 57010 60001 333 11056 21210 70000
AAXX 31064 71331 16/// /0804 11091 21105 60001 333 11030 21092 70000 555 10010
AAXX 31064 71332 NIL
AAXX 31064 71334 46/// /3306 11107 21122 39663 49993 53011 6///1 333 11064 21129 7////
AAXX 31064 71335 46964 0//// 11176 53005 6///1 333 11125 21178 7////
AAXX 31064 71336 46/// ///12 11011 21036 30167 40190 53036 6///1 333 10008 21025 7////
AAXX 31064 71337 46/// /2909 11065 21114 39957 40199 53026 6///1 333 11017 21065 7//// 555 32138 40073
AAXX 31064 71338 46964 01812 11265 21308 30065 40073 56002 6///1 333 11265 21344 7////
AAXX 31064 71339 16964 02909 11117 21173 30178 40193 53034 60001 333 11003 21117 70000 555 33338 40143
AAXX 31064 71340 NIL
AAXX 31064 71341 NIL
AAXX 31064 71342 NIL
AAXX 31064 71343 NIL
AAXX 31064 71344 NIL
AAXX 31064 71345 NIL
AAXX 31064 71346 NIL
AAXX 31064 71347 NIL
AAXX 31064 71348 NIL
AAXX 31064 71349 NIL
AAXX 31064 71604 16/// /2906 11067 21068 60001 333 11059 21108 70007 555 10060 20007 32647 40103
AAXX 31064 71605 16/// /2503 10041 21037 30025 40175 53046 60001 333 10079 20026 70052 555 30019 40001
AAXX 31064 71611 16/// /2101 11043 21066 60001 333 11040 21189 70000
AAXX 31064 71612 NIL
AAXX 31064 71614 17/// /0706 11071 21090 30076 40144 58014 69931 7//4/ 333 11070 21220 70003
AAXX 31064 71616 16/// /0708 11069 21103 30059 40183 58013 60001 333 11069 21255 70000
AAXX 31064 71617 16/// /2602 11211 21233 30051 40235 57011 60001 333 11180 21239 70000 555 32719 40071
AAXX 31064 71618 15466 82106 11078 21089 39962 40000 56003 60001 333 11077 21166 70000
AAXX 31064 71619 16/// /3404 11128 21148 30191 40252 53006 60001 333 11065 21136 70000 555 32837 40073
AAXX 31064 71622 NIL
AAXX 31064 71632 46/// /0403 11083 21097 39546 49985 53002 6///1 333 11049 21088 7//// 555 10020 31817 40111
AAXX 31064 71634 16/// /0000 11145 21158 30099 40259 50003 60001 333 11080 21172 70000 555 32922 40081
AAXX 31064 71638 16/// /3301 11001 21016 30073 40179 53045 60001 333 10082 21008 70017 555 31021 40071
AAXX 31064 71639 11132 80907 11001 21019 39819 40062 56024 60021 72462 886// 333 11001 21045 40007 70020 90946 555 19999 29999
AAXX 31064 71642 NIL
AAXX 31064 71816 12974 02510 11192 21224 30173 40237 51020 60001 333 11022 21194 79999 555 19999 29999 33437 40111
AAXX 31064 71817 NIL
AAXX 31064 71818 12674 12510 11118 21166 30170 40189 53032 60001 81500 333 10002 21120 70066 555 10066 20066 33363 40083
AAXX 31064 71822 NIL
AAXX 31064 71825 11474 21803 11285 21327 39537 40250 53002 69921 70277 82500 333 11129 21285 48126 70012 90923 555 10018 20012 33523 40090
AAXX 31064 71827 12974 11006 11253 21292 39927 40186 55016 60001 80001 333 11211 21301 70000 555 10000 20000
AAXX 31064 71828 16464 82206 11197 21228 39558 40227 53002 60001 333 11156 21197 70000 555 33428 40072
AAXX 31064 71831 11474 81504 11125 21135 39841 40131 57002 69901 77172 885// 333 11120 21234 48042 79999 90931 555 19999 29999
AAXX 31064 71832 NIL
AAXX 31064 71834 12374 80000 11110 21126 39683 40122 53004 60001 886// 333 11103 21176 70010 555 10010 20010
AAXX 31064 71841 NIL
AAXX 31064 71842 11274 82006 11092 21099 39618 40097 55008 69901 77177 886// 333 11072 21103 47008 79999 90973 555 19999 29999
AAXX 31064 71844 NIL
AAXX 31064 71845 NIL
AAXX 31064 71850 11266 81608 11090 21095 39575 40084 56014 69901 77122 887// 333 11088 21113 48014 79999 90921 555 19999 29999
AAXX 31064 71852 16258 81816 11049 21054 39741 40038 56020 60001 333 11049 21128 70000 555 30224 40061
AAXX 31064 71854 NIL
AAXX 31064 71858 NIL
AAXX 31064 71861 16/// /2211 10010 21018 39236 49951 56015 60001 333 10013 21093 70005 555 32127 40041
AAXX 31064 71862 12674 82413 10022 21017 39280 49972 56010 60001 885// 333 10024 21065 70002 555 10002 20002
AAXX 31064 71863 46964 02510 11008 21034 39266 49958 53004 6///1 333 10013 21100 7//// 555 31520 40221
AAXX 31064 71864 NIL
AAXX 31064 71865 16/// /2513 10004 21031 39254 49923 53004 60001 333 10019 21096 70000 555 31730 40012
AAXX 31064 71866 46964 02808 11052 21076 39332 49942 53023 6///1 333 10008 21133 7////
AAXX 31064 71867 11532 81418 11045 21048 39615 49948 58033 69961 77122 885// 333 11043 21127 47025 70006 90942 93101 555 10010 20006 3////
AAXX 31064 71868 NIL
AAXX 31064 71869 11474 80000 11047 21048 39396 49920 53012 69961 70177 885// 333 11036 21165 47011 70016 90942 93101 555 10016 20016
AAXX 31064 71871 15966 02815 11089 21101 39151 49957 53023 60001 333 11032 21148 70000
AAXX 31064 71877 12974 23207 11005 21127 38738 49992 53025 60001 82030 333 10064 21034 70000 555 10000 20000 32632 40191
AAXX 31064 71878 12974 20000 11107 21147 38927 40003 53029 60001 80001 333 10015 21115 70000 555 10000 20000
AAXX 31064 71879 16764 83011 11032 21085 39182 49981 53029 60001 333 11009 21089 70000 555 31218 40171
AAXX 31064 71880 11882 21504 11024 21046 38959 40061 52029 69901 70181 82070 333 10042 21038 42001 70028 90951 555 10030 20028
AAXX 31064 71882 160// /3002 10006 20003 39543 40080 53039 60021 333 10037 20005 70070
AAXX 31064 71883 46/// /0512 10009 21056 39260 40076 53055 6///1 333 10029 21012 7//// 555 30523 40051
AAXX 31064 71887 11783 82713 10041 21050 39699 40119 53078 69921 72122 885// 333 10093 20011 70002 90920 555 10000 20000 33537 40052
AAXX 31064 71889 12874 62211 10061 21097 39699 40114 53044 60001 86070 333 10074 20030 70034 555 10000 20000 31928 40091
AAXX 31064 71891 16964 02113 10037 21005 39858 40132 53062 60001 333 10056 20017 70060 555 32140 40223
AAXX 31064 71892 11680 12709 10047 21005 30183 40188 53047 69901 78081 81500 333 10088 20038 70002 90960 555 10000 20000 33031 40012
AAXX 31064 71744 NIL
AAXX 31064 71750 16/// /0505 11066 21077 39868 40106 53003 60001 333 11051 21086 70017 555 10020 20017
AAXX 31064 71751 NIL
AAXX 31064 71752 NIL
AAXX 31064 71753 16/// /1001 11068 21081 30222 40252 50000 60001 333 10001 21090 70000 555 32630 40102
AAXX 31064 71754 NIL
AAXX 31064 71755 43/// /2209 11103 21120 39718 40068 56008 6///1 333 11089 21142 7////
AAXX 31064 71756 16/// /1503 11033 21054 39050 40148 51042 60001 333 10021 21037 70057 555 10050 20057 31419 40141
AAXX 31064 71758 NIL
AAXX 31064 71760 NIL
AAXX 31064 71761 NIL
AAXX 31064 71762 NIL
AAXX 31064 71763 NIL
AAXX 31064 71765 16/// /2012 10036 21008 39855 40129 53062 60001 333 10055 20015 70046 555 32038 40223
AAXX 31064 71766 16/// /2702 10001 21017 30112 40184 53042 60001 333 10089 21001 70000 555 33327 40231
AAXX 31064 71767 17/// /0507 10005 20001 39801 40062 56018 60021 7//4/ 333 10012 21021 70015 555 31117 40081
AAXX 31064 71768 46/// /2601 10039 21068 39573 40119 53048 6///1 333 10071 20006 7//// 555 32023 40091
AAXX 31064 71769 16/// /2710 10053 21001 30158 40174 53041 60001 333 10089 20053 70000 555 32538 40213
AAXX 31064 71770 NIL
AAXX 31064 71771 NIL
AAXX 31064 71772 16/// /2709 10051 20005 30171 40177 53044 60001 333 10094 20048 70000 555 33531 40002
AAXX 31064 71773 16/// /1905 11142 21158 39153 40026 53022 60001 333 11113 21183 70000
AAXX 31064 71774 46/// ///// 10014 6///1 333 10064 20006 7////
AAXX 31064 71775 16/// /2304 10036 20002 30180 40186 53048 60001 333 10081 20026 70034 555 32222 40131
AAXX 31064 71776 46/// /1803 10013 20002 39440 40079 53031 6///1 333 10048 20009 7////
AAXX 31064 71777 16/// ///// 11010 21012 39903 40157 53051 60001 333 10028 21013 70033
AAXX 31064 71778 46/// /2525 6///1 333 7//// 555 32749 40233
AAXX 31064 71779 16/// /1302 11076 21124 39460 40130 51058 60001 333 10009 21076 70020 555 10030 20020 33323 40011
AAXX 31064 71780 NIL
AAXX 31064 71781 46/// /2707 10053 20003 30158 40183 53046 6///1 333 10089 20052 7//// 555 31245 40073
AAXX 31064 71782 46/// /1501 11033 21053 38725 40042 53028 6///1 333 10017 21036 7//// 555 31624 40181
AAXX 31064 71783 NIL
AAXX 31064 71784 16/// /3401 10016 21022 39972 40178 53051 60001 333 10074 20014 70015 555 32718 40001
AAXX 31064 71785 16/// /2502 10057 20016 30180 40196 53048 60001 333 10095 20050 70048 555 31718 40091
AAXX 31064 71786 46/// /2810 11059 21067 38221 40044 53022 6///1 333 11030 21059 7//// 555 32122 40221
AAXX 31064 71787 17/// /1305 11077 21123 39740 40243 55000 69931 7//4/ 333 11064 21133 70003 555 32835 40083
AAXX 31064 71788 NIL
AAXX 31064 71789 NIL
AAXX 31064 71791 NIL
AAXX 31064 71792 NIL
AAXX 31064 71793 NIL
AAXX 31064 71794 NIL
AAXX 31064 71795 NIL
AAXX 31064 71796 NIL
AAXX 31064 71797 NIL
AAXX 31064 71250 NIL
AAXX 31064 71251 16/// /2717 10006 21048 39080 49993 53014 60001 333 10087 20006 70000 555 32639 40233
AAXX 31064 71252 NIL
AAXX 31064 71253 46/// /0000 11198 21212 6///1 333 11135 21225 7////
AAXX 31064 71254 16/// /3403 11058 21074 60001 333 10003 21134 70000 555 10010 31220 40151
AAXX 31064 71255 17/// /3507 11091 21107 69971 7//4/ 333 11017 21095 70007 555 10010 20007 33218 40101
AAXX 31064 71256 46/// /2908 11054 21066 39066 40002 53034 6///1 333 11031 21102 7////
AAXX 31064 71257 NIL
AAXX 31064 71258 NIL
AAXX 31064 71259 NIL
AAXX 31064 71261 17/// /1307 10031 20026 39762 40020 56009 60071 7//4/ 333 10034 20007 70085 555 31020 40041
AAXX 31064 71263 NIL
AAXX 31064 71264 16/// /0604 11030 21083 30223 40255 55003 60001 333 10016 21040 70000 555 32629 40072
AAXX 31064 71265 17248 80618 10016 20010 39962 40056 56024 60031 7104/ 333 10016 21017 70040
AAXX 31064 71266 NIL
AAXX 31064 71267 15966 02623 10010 21059 38926 40002 53006 60001 333 10085 21045 70000
AAXX 31064 71268 NIL
AAXX 31064 71269 NIL
AAXX 31064 71270 NIL
AAXX 31064 71271 16/// ///// 11103 21114 60001 333 11031 21118 70000
AAXX 31064 71272 15266 83207 11105 21112 39638 49992 53011 60001 333 11063 21127 70000
AAXX 31064 71273 17/// /3006 11062 21066 39280 49938 53021 69981 7//4/ 333 11019 21170 70045
AAXX 31064 71274 NIL
AAXX 31064 71275 NIL
AAXX 31064 71276 NIL
AAXX 31064 71277 NIL
AAXX 31064 71278 NIL
AAXX 31064 71279 16/// /0205 11161 21188 30188 40257 51009 60001 333 11067 21162 70000 555 33317 40071
AAXX 31064 71281 NIL
AAXX 31064 71282 46/// /0905 11018 21018 39800 40073 56027 6///1 333 11018 21086 7//// 555 30917 40071
AAXX 31064 71283 NIL
AAXX 31064 71284 16/// ///// 11062 21092 60001 333 11022 21103 70000
AAXX 31064 71285 NIL
AAXX 31064 71286 NIL
AAXX 31064 71287 NIL
AAXX 31064 71288 NIL
AAXX 31064 71289 NIL
AAXX 31064 71290 15566 33403 11050 21084 39242 40080 53050 60001 333 11030 21098 70000
AAXX 31064 71291 16/// /2802 11065 21077 39818 40113 55000 60001 333 11054 21082 70000
AAXX 31064 71292 15966 31812 11014 21014 39342 49944 56016 60001 333 11014 21062 70000
AAXX 31064 71294 17/// /0303 11098 21107 39690 40102 56024 60031 7//4/ 333 11098 70039 555 10020 20039
AAXX 31064 71295 NIL
AAXX 31064 71296 NIL
AAXX 31064 71297 17/// /0505 10024 20024 60061 7//4/ 333 10038 20003 70064
AAXX 31064 71298 17/// /2313 10055 20045 39801 40029 52006 60011 7//4/ 333 10072 20011 70092 555 32221 40031
AAXX 31064 71299 NIL
AAXX 31064 71851 16/// /1611 11042 21049 39676 40012 58027 60001 333 11029 21101 70000
AAXX 31064 71857 NIL
AAXX 31064 71860 NIL
AAXX 31064 71876 17258 82710 11033 21034 39290 49951 51021 60001 710// 333 11021 21137 70000
AAXX 31064 71885 NIL
AAXX 31064 71886 NIL
AAXX 31064 71888 NIL
AAXX 31064 71890 16/// /0605 11142 21162 30218 40246 52004 60001 333 11091 21202 70000 555 30517 40071
AAXX 31064 71895 NIL
AAXX 31064 71108 11574 61810 10034 21007 30118 40191 52047 69901 70281 85230 333 10083 20032 70017 90951 555 10000 20000 32028 40141
AAXX 31064 71726 16/// /1203 11126 21157 39603 40162 58011 60001 333 11126 21362 70033
AAXX 31064 71727 12674 82403 11204 21227 30012 40221 57014 60001 885// 333 11175 21246 70000 555 10000 20000
AAXX 31064 71728 11782 83402 11217 21268 39991 40227 56011 69901 77111 885// 333 11211 21290 48997 79999 90910 555 19999 29999
AAXX 31064 71730 11116 80610 11092 21092 39672 40107 58010 69901 71072 886// 333 11090 21152 48013 70002 90953 555 10006 20002
AAXX 31064 71731 11274 80810 11105 21117 39640 40103 58016 69901 77177 887// 333 11104 21150 48016 70004 90983 555 10008 20004 31124 40151
AAXX 31064 71735 NIL
AAXX 31064 71738 NIL
AAXX 31064 71739 41374 80000 11127 21142 39751 40126 58003 6//// 77177 887// 333 11125 21244 4//// 7//// 90983 555 1//// 2////
AAXX 31064 71749 16564 80000 11037 21043 39860 40108 57003 60001 333 11026 21053 70005
AAXX 31064 71799 12683 62607 10040 21024 30180 40204 53052 60001 81570 333 10095 20033 70034 555 10000 20000 32134 40182
AAXX 31064 71800 16/// /2806 11015 21034 30192 40226 53030 60001 333 10030 21024 70000 555 32459 40093
AAXX 31064 71801 12574 62810 11031 21057 30041 40218 52035 60001 86500 333 10002 21031 41001 79999 555 19999 29999 32550 40093
AAXX 31064 71803 11474 72811 11042 21091 30020 40211 53029 69921 70282 87500 333 11017 21062 47004 70010 90941 555 10010 20010 32443 40082
AAXX 31064 71807 NIL
AAXX 31064 71808 12974 00108 11123 21159 30164 40212 52022 60001 333 11015 21124 70010 555 10010 20010 32437 40072
AAXX 31064 71809 11674 32608 11046 21102 30205 40233 52026 69901 70188 83500 333 11004 21057 42001 70006 90913 555 10006 20006 32230 40071
AAXX 31064 71810 16/// /0506 11092 21117 30179 40248 53010 60001 333 11046 21096 70025 555 32923 40071
AAXX 31064 71811 NIL
AAXX 31064 71813 16/// /3605 11147 21178 30238 40252 53019 60001 333 11020 21147 70000 555 32828 40072
AAXX 31064 71814 16/// /3306 11148 21177 30232 40242 53021 60001 333 11013 21148 70003 555 33526 40141
AAXX 31064 71815 12574 63107 11023 21065 30209 40240 52025 60001 86500 333 11002 21057 70000 555 10020 20020 32640 40073
AAXX 31064 68234 12960 40910 10221 20188 48515 52011 60224 82081 333 20175
AAXX 31064 60020 NIL
AAXX 31064 60030 02560 73610 10168 20095 30244 40301 55000 60004 875// 333 015// 20155 55064 60007 924/6
AAXX 31064 60040 02570 20207 10144 20104 30285 40310 53001 60004 82500 333 013// 20142 55033 60007 924/7
AAXX 31064 60338 12980 00000 10082 20064 30235 40303 56004 60004 333 20082 55085 92418
AAXX 31061 02019 05/99 /2404 11108 21143 39420 40058 52014 69912 333 11094 21142 60005 70002 90710 91108
AAXX 31061 02081 07/99 /0104 11064 21080 39615 40025 53016 60012 70070 333 11061 21073 60005 70018 90710 91109
AAXX 31061 02095 07556 /3605 11043 21054 39786 49992 52019 60042 77177 333 11043 21055 69925 70052 88/30 90710 91109
AAXX 31061 02101 45984 /3303 11137 21152 39486 40063 51012 8//// 333 11043 21148
AAXX 31061 02119 05/99 /2801 11272 21297 39647 40056 52016 69932 333 11210 21283 60005 70003 90710 91103
AAXX 31061 02124 05/99 /0201 11106 21139 39500 40039 53018 60002 333 11086 21159 60005 70000 90710 91104
AAXX 31061 02126 05/99 /3303 11142 21159 39685 40035 52013 60002 333 11109 21149 60005 70000 90710 91105
AAXX 31061 02151 36/// ///// 1//// 2//// 3//// 4//// 5//// 6///2 333 1//// 2//// 6///5 7//// 910// 90710 911// 90710 912//
AAXX 31061 02186 07458 83405 11043 21054 39943 49968 52021 60022 74174 333 11042 21055 69915 70022 82/11 84/14 88/19 91009 90710 91109 90710 91206
AAXX 31061 02197 07/50 /0104 11044 21047 39937 49956 53023 60042 77174 333 11036 21046 69925 70065 90710 91107
AAXX 31061 02207 07480 /2101 11068 21076 39356 40067 54000 69912 70087 333 11032 21068 60005 70032 90710 91104
AAXX 31061 02219 07/61 /2902 11044 21048 39371 40046 53006 69902 70010 333 11042 21059 60005 70000 90710 91108
AAXX 31061 02226 45980 /3007 11033 21057 39590 40050 53008 8//// 333 11023 21036
AAXX 31061 02243 07/56 /2201 11176 21191 39762 40042 53015 60002 71010 333 11133 21211 60005 70000 90710 91102
AAXX 31061 02269 05999 /3005 11053 21075 60002 333 11052 21065 60005 70001 87/61 90710 91108
AAXX 31061 02287 05680 /3208 11048 21066 39972 49982 52011 60002 333 11048 21062 60005 70000 88/46 90710 91111
AAXX 31061 02297 07317 /3110 11045 21048 39922 49968 53013 60012 77177 333 11045 21063 69965 70012 87/09 90710 91113
AAXX 31061 02308 05/99 /3301 11100 21112 39193 40076 53001 60002 333 11053 21100 60005 70001 90710 91103
AAXX 31061 02327 05/99 /3002 11140 21159 39622 40073 52003 60002 333 11034 21157 60005 70002 90710 91104
AAXX 31061 02355 NIL
AAXX 31061 02366 45/84 /3203 11043 21068 30027 40033 52009 8//// 333 11041 21105
AAXX 31061 02407 05/99 /0001 11119 21128 39705 40087 52007 60002 333 11054 21121 60005 70000 90710 91101
AAXX 31061 02418 45984 /3502 11062 21069 39951 40086 53007 8//// 333 11021 21082
AAXX 31061 02435 45984 /2605 11062 21088 39879 40071 52008 8//// 333 11034 21062
AAXX 31061 02440 05/99 /2701 11102 21114 60002 333 11015 21102 60005 70000 90710 91103
AAXX 31061 02452 05/99 /3104 11060 21071 60002 333 11031 21067 60005 70000 90710 91105
AAXX 31061 02456 05/99 /2301 11067 21078 30008 40051 52009 60002 333 11038 21075 60005 70000 90710 91102
AAXX 31061 02469 05/99 /0000 11089 21101 60002 333 11025 21095 60005 70000 90710 91101
AAXX 31061 02498 05499 /2907 11006 21024 30027 40044 51011 60002 333 10002 21008 60005 70000 90710 91109
AAXX 31061 02518 46/// /1505 10030 20024 333 10040 20015 90710 91106
AAXX 31061 02520 35983 01101 11043 21055 30019 40088 53006 60002 333 10004 21050 60005 70000 91002 90710 91102 90710 91202
AAXX 31061 02550 45984 /0000 11073 21073 39805 40088 53005 8//// 333 11022 21074
AAXX 31061 02562 35983 02501 11054 21059 39962 40080 53007 60002 333 11003 21064 60005 70000 91002 90710 91104 90710 91203
AAXX 31061 02563 05/99 /3104 11023 21039 30046 40068 52008 60002 333 11004 21023 60005 70000 90710 91106
AAXX 31061 02565 07/64 /2402 11058 21064 39960 40083 52007 60002 70010 333 11025 21073 60005 70000 90710 91103
AAXX 31061 02589 05599 /3206 10006 21030 30032 40053 53011 60002 333 10017 21001 60005 70001 86/24 90710 91110
AAXX 31061 02590 45484 /3204 10009 21020 30001 40063 52008 8//// 333 10021 20007 83/18
AAXX 31061 02618 05/75 /2102 11048 21048 39921 40089 52003 60002 333 11016 21051 60005 70003 90710 91103
AAXX 31061 02664 32982 50000 11039 21046 30020 40093 53009 60002 85030 333 10003 21046 34/// 60005 79999 85362 91001 90710 91102 90710 91201
AAXX 31061 02679 05/99 /3305 10012 21016 30025 40071 52009 60002 333 10022 20010 60005 70001 90710 91109
AAXX 31061 01098 11360 80608 11004 21032 30036 40054 52016 69902 78582 873// 333 21020 48999 70005 91115
AAXX 31061 01359 11989 00000 11153 21173 39160 40134 57002 60002 70200 333 21154 48024 70002 91103
AAXX 31061 01400 41296 71611 10054 20047 40014 57019 75862 877// 22200 06078 10504 70022 333 91113
AAXX 31061 01062 11882 81206 11060 21081 30052 40065 56008 60002 70222 8801/ 333 21135 70000 91108
AAXX 31061 01205 46/// /1404 10023 21030 39982 40028 57016 333 20018 91107
AAXX 31061 01212 16/// /1210 10014 21022 30017 40034 58024 6//// 333 20013 91111
AAXX 31061 01300 41597 71715 10048 20021 49977 57031 78082 87/// 90610 22200 02067 10606 70032 333 91117
AAXX 31064 64600 31/01 93204 10198 20192 39476 40125 74544 333 01700 20183 55057 58004 89/00
AAXX 31064 64601 31940 33612 10195 20019 39013 48525 70411 80002 333 01500 20195 58001 83080
AAXX 31064 64605 32958 00000 10174 20163 39376 40117 333 01100 20147 59001
AAXX 31064 64610 32970 11002 10132 20118 3//// 4//// 80002 333 00900 20118 5//// 81080
AAXX 31064 64650 31530 72802 10210 20178 39713 40125 71011 81530 333 02000 20205 55090 58002 81620 87365
AAXX 31064 64654 32970 00806 10165 20067 39544 40115 333 01100 20132 59008
AAXX 31064 64655 31120 80000 10160 20146 39483 40131 71011 886// 333 01300 20145 58001 88703
AAXX 31064 64656 31304 70000 10221 20215 39569 40119 74444 875// 333 01900 20195 58005 87608
AAXX 31064 64659 NIL
AAXX 31064 64660 NIL
AAXX 31064 64662 32960 80000 10204 20193 39614 40109 85032 333 01800 20193 58007 85365 88080
AAXX 31064 64665 32970 80000 10232 20222 3//// 4//// 8803/ 333 01200 20220 5//// 88365
AAXX 31061 10004 46/60 /1711 10046 20029 30077 400/7 56016 222// 00075 333 10074 20044 55021 55300 91211
AAXX 31064 17203 12670 80000 11045 21072 38913 48551 52007 60002 8442/ 333 21062 34106 55074 2//// 84640 88460
AAXX 31064 17320 11570 73405 10096 20060 30138 40143 53003 60102 70192 84270 333 20088 32004 50121 55086 70096 84830 87360 92448
AAXX 31061 02464 45984 /2502 11036 21059 30039 40058 52010 8//// 333 11005 21040
AAXX 31061 02500 05/99 /0303 11016 21055 30042 40085 52005 60002 333 10031 21016 60005 70000 90710 91105
AAXX 31061 02513 05/81 /0301 11029 21037 30076 40080 52003 60002 333 10001 21035 60005 70000 90710 91101
AAXX 31061 02615 05/65 /2603 10022 20011 30093 40097 52002 60002 333 10047 20000 60005 70000 90710 91103
AAXX 31061 02635 05/64 /1501 11046 21052 60002 333 10034 21047 60005 70000 90710 91101
AAXX 31061 06431 16/// /2303 10078 20075 30079 40091 55004 60022 333 20047 3/004 91111 91206
AAXX 31061 06432 17/19 /0000 10083 20082 30030 40106 55003 60052 76186 333 20042 3/003 83/02 87/05 88/07 91108 91206
AAXX 31061 06458 17126 /2206 10058 20058 39948 40102 56009 60022 78186 333 20032 3/002 81/02 83/04 85/07 91109 91207
AAXX 31061 06465 17126 /2003 10053 20051 30027 40094 56016 60022 75286 333 20024 3/100 83/02 87/04 88/06 91107 91205
AAXX 31061 06496 17235 /2003 10000 21001 39432 40119 56016 60022 76187 333 21009 3/100 88/03 91107 91205
AAXX 31061 06428 17121 /2202 10082 20080 30050 40098 55003 60032 78186 333 20044 3/003 83/02 87/04 91108 91205
AAXX 31061 15501 11940 80000 11007 21012 30081 40126 51008 60002 71022 8807/ 333 10015 21009 70000 555 34/// 596//
AAXX 31061 15505 12665 81401 11004 21016 39749 40131 52013 60002 885// 333 10006 21012 42001 70000 555 3/109 592//
AAXX 31061 15511 11561 82302 10009 20002 30110 40150 52017 69902 70272 885// 333 10018 21008 55053 70000 555 31/// 594// 63299
AAXX 31061 15514 11556 80000 10002 21012 30094 40131 52016 60002 71011 885// 333 10026 21011 70000 555 31/// 590// 92601
AAXX 31061 15530 11958 80000 11018 21037 39901 40147 52024 60002 71011 8802/ 333 11001 21032 42001 70000 555 3/108 587// 92601
AAXX 31061 15533 11558 80000 11004 21016 30068 40101 52011 60002 71022 885// 333 10010 21010 70000 555 34/// 592//
AAXX 31061 15550 11956 80000 11002 21014 30098 40118 53008 60002 71011 8802/ 333 10018 21007 70000 555 31/// 592// 92601
AAXX 31061 15561 12470 83204 10008 21015 30117 40125 53010 60002 885// 222// 00075 2//00 333 10010 21017 70000 555 34105 585// 92013 92418
AAXX 31061 15562 12465 73608 10022 21012 30048 40122 53007 60002 87500 222// 2//01 333 10060 20020 55027 70000 555 31001 578// 92024 92427
AAXX 31061 15600 11/00 93608 11070 21075 38201 48412 57005 60002 74724 333 11068 21070 47006 55015 555 596//
AAXX 31061 15601 11510 80000 11030 21035 39478 40117 53006 69952 77177 885// 333 11030 21050 47002 55000 70005 555 3/108 59501 69999 70600
AAXX 31061 15605 12664 82902 11014 21022 39261 40123 53012 60002 885// 333 11011 21062 44004 70000 555 3/108 594//
AAXX 31061 15613 11/01 90506 11086 21088 37599 47931 54000 69982 77172 333 11080 21092 48046 55058 70008 555 598// 69999 70600 92717
AAXX 31061 15628 11518 80000 11012 21022 39863 40128 53007 60012 77172 8802/ 333 11012 21065 47007 55007 70010 555 3/108 59301 65499 70662
AAXX 31061 15642 11520 80000 10022 20017 39923 40094 54000 69932 71062 885// 333 10038 20015 55021 70003 555 31101 596//
AAXX 31061 15661 12970 52902 10046 20031 30066 40102 54000 60002 85050 222// 20000 333 10062 20030 70000 555 31101 590// 92012 92418
AAXX 31061 15726 11/02 90901 11030 21037 38146 48412 57004 60062 77377 333 11018 21031 47038 55056 70056 555 59504 69999 70653
BBXX VCXF 31064 99464 70484 41798 22828 10004 2101/ 40200 52028 78522 82100 22200 02020 20707 325// 40908 80000
AAXX 31064 71943 11774 51503 11098 21124 39188 40032 52032 69901 72211 85500 333 11044 21100 46003 70022 90952 555 10024 20022
AAXX 31064 71943 11774 51503 11098 21124 39188 40032 52032 69901 72211 85500 333 11044 21100 46003 70022 90952 555 10024 20022
AAXX 31064 68299 16/// /2302 10163 20127 38941 48530 52005 69924 333 20118 91005 555 10191 20002 91020
AAXX 31064 91408 11474 81106 10289 20244 30042 40080 57014 60021 72582 86978 333 56999 70069 555 93106
AAXX 31064 91408 11474 81106 10289 20244 30042 40080 57014 60021 72582 86978 333 56999 70069 555 93106
AAXX 31064 61401 NIL
AAXX 31064 61404 32960 00808 10085 21008 39853 40259 333 0//00 20085 5//// 55/// 58001
AAXX 31064 61415 32958 30414 10144 20041 30256 40261 80002 333 20143 51114 55081 58014 83080
AAXX 31064 61421 NIL
AAXX 31064 61437 NIL
AAXX 31064 61442 32956 30509 10148 21045 30226 40230 80002 333 01300 20148 51014 55080 58018 83076
AAXX 31064 61450 NIL
AAXX 31064 61461 NIL
AAXX 31064 61489 NIL
AAXX 31064 61492 NIL
AAXX 31064 61497 NIL
AAXX 31064 61498 31950 03606 10130 20066 30062 40198 705// 333 0//00 20130 5//// 55/// 58008
AAXX 31064 61499 NIL
AAXX 31064 61510 NIL
AAXX 31061 14105 12998 61206 11001 21010 30170 40175 53007 60002 80006 333 21014 34103 55000 79999 555 20019 30032
AAXX 31061 14024 12899 13502 11034 21094 39063 48448 52012 60002 81040 333 21038 3/104 48015 55000 79999 92805 95000 95180 444 66041
AAXX 31064 78948 11578 30924 10263 20236 30145 40153 69901 70581 83201 333 02205 10296 20250 59001 79999 83822 83080 90910
AAXX 31064 SALC31 TLPL 310600 METAR TLPL 310600Z 09024KT 9999 SCT022 SCT300 26/24 Q1015
AAXX 31061 33088 11997 82401 11002 21005 39903 40098 52008 69902 70272 8805/ 333 21004 47997
AAXX 31061 33466 11323 82701 10001 21002 39930 40121 52012 60022 71076 886// 333 20001 43001 88707
AAXX 31061 33562 11/09 92503 11006 21006 39753 40122 53009 69922 74774 333 21007 47001 93401
AAXX 31061 34415 11323 80000 10002 21004 30046 40144 53011 60022 76176 8772/ 333 21011 43001 93401
AAXX 31061 34523 32597 81702 10004 21012 30079 40157 53010 8455/ 333 21004
AAXX 31061 34712 31/02 91204 10012 20012 30068 40155 53010 74544 333 21017
AAXX 31061 91925 06/// /0302 10256 20208 30077 40138 51021 69921 333 55076 60007 90710 91111 555 60005 10917 58005
AAXX 31061 91944 06/// /0811 10266 20220 30151 40154 53017 69942 333 10286 20235 55078 60007 70010 90710 91115 555 60005
AAXX 31061 91948 06/// /0103 10245 20198 30082 40184 51017 60001 333 55097 60007 90710 91109 555 60005 13610 59009
AAXX 31061 91929 04958 80112 10267 20236 30119 40122 53016 60112 760// 333 10298 20242 55/// 69967 70119 90710 91116 555 69945
AAXX 31061 91938 01565 30707 10269 20221 30127 40129 51018 69942 72586 83800 333 10305 20263 31/// 55031 69907 70040 82820 90710 91115 555 69905 10620 58002
AAXX 31061 91943 36/// /0811 10269 20221 30137 40139 51016 333 20268 58002
AAXX 31061 91954 06/// /3312 10254 20235 30129 40132 52018 60011 333 55/// 60017 555 58011
AAXX 31061 91958 06/// /3310 10241 20222 30154 40156 51021 60081 333 55003 60087 90710 91123 555 60065 13128 58014
AAXX 31061 91945 36/// /0312 10272 20217 30150 40155 51020 555 58006 69984
AAXX 31060 67690 12580 71702 10274 20232 69904 84538 333 20228 5//// 55/// 79999 84620 83359 87280 555 10325 7//96
AAXX 31060 67693 12580 70000 10245 20212 39272 48523 69904 83138 333 20201 5//// 55/// 58000 79999 83820 85362 87281 555 10277 7//95
AAXX 31064 68098 32589 80506 10168 20136 30048 52013 885// 333 20141 555 10315 91015
AAXX 31064 68014 32989 22402 10221 20155 38600 48517 52011 80001 333 20140 555 10304 91019
AAXX 31064 91375 NIL
AAXX 31064 91519 NIL
AAXX 31064 91531 NIL
AAXX 31064 91532 45/// /0508 10279 20222 30072 40080 52004
AAXX 31064 91559 NIL
AAXX 31064 91611 NIL
AAXX 31064 91642 NIL
AAXX 31064 91679 NIL
AAXX 31064 91689 NIL
AAXX 31064 91756 NIL
AAXX 31064 91844 NIL
AAXX 31064 92036 NIL
AAXX 31064 93713 NIL
AAXX 31064 94310 46/// /3209 10313 20151 30065 40076 57006
AAXX 31064 95283 46/// /1211 10287 20225 30068 40075
AAXX 31064 95288 46/// /1622 10277 30052 40067 57008
AAXX 31064 95675 46/// /2011
AAXX 31064 95872 46/// /1408
AAXX 31064 95961 35/// /2907 10207 30127 40169 57007
AAXX 31064 NIL
AAXX 31064 85585 339// 91709 10162 20097 30138 40174 58012
AAXX 31064 85586 NIL
AAXX 31064 85629 NIL
AAXX 31064 85672 NIL
AAXX 31064 85682 12960 00105 10136 20122 40120 58005 60001
AAXX 31064 85743 12960 09903 10124 20107 40137 58004 60001
AAXX 31064 85766 NIL
AAXX 31064 85782 NIL
AAXX 31064 85799 12960 02404 10113 20111 40156 57013 60001
AAXX 31064 85830 NIL
AAXX 31063 NIL
AAXX 31064 94102 46/// /2511 10326 20269 30053 40062
AAXX 31064 94103 NIL
AAXX 31064 94120 46/// /3017 10329 20250 30014 40054
AAXX 31064 94122 46/// /2711 10322 20258 30055 40063
AAXX 31064 94131 46/// /2505 10364 20199 39901 40051
AAXX 31064 94132 NIL
AAXX 31064 94147 NIL
AAXX 31064 94150 46/// /0107 10318 20253 39996 40055
AAXX 31064 94151 46/// /1008 10332 20257 30042 4////
AAXX 31064 94170 46/// /2707 10320 20242 30026 40048
AAXX 31064 94200 NIL
AAXX 31064 94203 46/// /2513 10339 20234 30046 40056
AAXX 31064 94206 46/// /3614 10354 2//// 39916 40044
AAXX 31064 94207 46/// /1705 10283 30068 40076 58012
AAXX 31064 94211 NIL
AAXX 31064 94212 46/// /2403 10347 20162 39589 40051
AAXX 31064 94216 46/// /1405 10383 20193 39995 40045
AAXX 31064 94236 NIL
AAXX 31064 94238 46/// /0404 10383 20056 39631 40043
AAXX 31064 94248 NIL
AAXX 31064 94255 46/// /1403 10372 20139 39794 40050
AAXX 31064 94268 46/// /2808 10314 20246 30043 40055
AAXX 31064 94287 46/// /1316 10306 20191 30071 40080
AAXX 31064 94290 NIL
AAXX 31064 94294 46/// /0717 10302 20199 30083 40093
AAXX 31064 94296 35/// /1516 10270 30051 40061 57007
AAXX 31064 94298 46/// /1319 10266 30070 40076 56006
AAXX 31064 95641 NIL
AAXX 31064 89564 41575 81322 11008 21056 39935 49955 51008 77072 885//
AAXX 31064 89570 46/// /3504 10012 21112 39260 57004
AAXX 31064 89571 41575 12412 10017 21046 39897 49926 57007 70200 81530
AAXX 31064 89573 NIL
AAXX 31064 89610 NIL
AAXX 31064 89611 41470 60405 11008 21041 39840 49892 58013 70311 84501
AAXX 31064 89614 NIL
AAXX 31064 89615 46/// /0107 11008 21109 38992 56009
AAXX 31064 89807 NIL
AAXX 31064 89809 46/// /0000 10002 21012 39436 56012
AAXX 31064 85874 32984 /9903 10124 20098 39523 40139 58007
AAXX 31064 85934 12580 33108 10079 20022 40045 52031 60001 82401 333 56707 82620 83070
AAXX 31064 89054 11250 83014 10012 20009 49618 57012 69901 71022 886// 333 56799 88704
AAXX 31064 89056 11115 83021 10006 20000 49661 54001 69921 75652 886// 333 56799 88703 93100
AAXX 31064 89057 11460 82610 10010 20003 49650 54000 69981 70265 885// 333 56699 88612
AAXX 31064 89058 11457 83913 10005 21002 39643 49663 57003 60011 77076 8672/
AAXX 31064 89059 11460 80101 11008 21022 49661 52002 69931 70272 886// 333 78099 88713
AAXX 31064 89251 31257 83218 10007 20001 49652 57004 71022 8652/
AAXX 31064 94500 NIL
AAXX 31064 94510 46/// /1010 10274 20189 39758 40097
AAXX 31064 94515 46/// /1307 10301 20116 39758 40099
AAXX 31064 94552 46/// /1016 10256 20138 39665 40124
AAXX 31064 94578 46/// /1310 10243 20149 30134 40145
AAXX 31064 94584 46/// /1426 10236 20154 30019 40128
AAXX 31064 94601 46/// /1318 10225 20171 30076 40093
AAXX 31064 94610 46/// /2515 10280 20179 30030 40053
AAXX 31064 94637 46/// /1801 10301 20134 39621 40035
AAXX 31064 94638 46/// /1911 10265 20187 30025 40056
AAXX 31064 94642 NIL
AAXX 31064 94643 NIL
AAXX 31064 94647 46/// /1609 10381 20078 39925 40043
AAXX 31064 94651 46/// /1114 10417 20008 39972 40047
AAXX 31064 94653 46/// /1718 10401 21082 30051 40069
AAXX 31064 94659 46/// /0207 10401 21150 39895 40085
AAXX 31064 94672 46/// /2114 10315 20085 30105 40115
AAXX 31064 94691 46/// /1510 10366 20048 39786 40106
AAXX 31064 94693 46/// /1208 10366 20053 30051 40111
AAXX 31064 94700 NIL
AAXX 31064 94703 46/// /0606 10332 20093 39988 40111
AAXX 31064 94710 46/// /1009 10321 20056 39874 40121
AAXX 31064 94729 46/// /1505 10240 20103 39307 40142
AAXX 31064 94750 46/// /0712 10230 20156 30044 40167
AAXX 31064 94767 46/// /0711 10226 20126 30172 40178
AAXX 31064 94776 46/// /1011 10230 20107 30166 40176
AAXX 31064 94791 NIL
AAXX 31064 94802 46/// /2008 10206 20172 30001 40082
AAXX 31064 94804 46/// /1114 10274 20130 30077 40114
AAXX 31064 94807 NIL
AAXX 31064 94821 46/// /1613 10304 20080 30058 40140
AAXX 31064 94842 46/// /0907 10214 20173 30053 40151
AAXX 31064 94847 NIL
AAXX 31064 94850 46/// /2310 10234 20165 30103 40149
AAXX 31064 94865 46/// /1512 10329 20090 30101 40125
AAXX 31064 94866 46/// /3109 10334 20048 39991 40130
AAXX 31064 94875 46/// /2306 10324 20080 30006 40139
AAXX 31064 94299 46/// /1621 10282 20224 30060 40070
AAXX 31064 94300 46/// /2216 10274 20156 30089 40099
AAXX 31064 94302 46/// /2109 10335 20085 30075 40081
AAXX 31064 94312 46/// /3216 10327 20182 30053 40062
AAXX 31064 94313 NIL
AAXX 31064 94317 46/// /3613 10381 20012 39457 40024
AAXX 31064 94319 46/// /3611 10368 20174 39719 40040
AAXX 31064 94324 NIL
AAXX 31064 94326 46/// /2106 10404 21046 39445 40044
AAXX 31064 94327 46/// /0907 10400 20050 39684 40047
AAXX 31064 94332 46/// /1308 10370 20136 39672 40048
AAXX 31064 94333 NIL
AAXX 31064 94341 46/// /1112 10354 20111 39836 40065
AAXX 31064 94346 46/// /0912 10348 20120 39857 40071
AAXX 31064 94363 46/// /0905 10310 20158 39881 40094
AAXX 31064 94366 NIL
AAXX 31064 94367 46/// /1313 10273 20208 30065 40106
AAXX 31064 94374 46/// /0810 10277 20162 30093 40109
AAXX 31064 94388 46/// /1320 10258 20173 30118 40123
AAXX 31064 94393 46/// /1524 10254 30073 40085 56007
AAXX 31064 94394 46/// /1422 10246 30096 40104 56008
AAXX 31064 94403 46/// /2217 10233 20170 30053 40094
AAXX 31064 94429 46/// /2406 10314 20132 39595 40046
AAXX 31064 94430 46/// /3311 10338 20072 39466 40032
AAXX 31064 94449 46/// /2916 10362 20034 39521 40035
AAXX 31064 94451 NIL
AAXX 31064 94461 46/// /0109 10379 20062 39392 40043
AAXX 31064 94462 46/// /0704 10397 21007 39499 40038
AAXX 31064 94477 NIL
AAXX 31064 94488 NIL
AAXX 31064 85406 12960 62903 10211 20131 40137 58014 60001 86010 333 56000 86462
AAXX 31064 85418 12565 82107 10187 20146 40147 57007 60001 885// 333 56099 88630
AAXX 31064 85432 NIL
AAXX 31064 85442 12575 19901 10182 20122 40139 58009 60001 81500 333 56400 81630
AAXX 31064 85467 NIL
AAXX 31064 85469 42560 69903 10205 20159 40208 54001 83201 333 56300 83820 86075
AAXX 31064 85488 32560 82903 10158 20138 40139 51002 885// 333 56099 88620
AAXX 31064 85574 12960 01606 10153 20105 39570 40121 58010 60001
AAXX 31064 85577 12960 00000 10159 20110 39521 40126 58009 60001
AAXX 31064 41241 NIL
AAXX 31064 41242 NIL
AAXX 31064 41244 NIL
AAXX 31064 41246 NIL
AAXX 31064 41251 32465 30212 10085 20029 38064 40209 83600 333 20052 3/006 58001 81710
AAXX 31064 41252 32960 00608 10218 20080 39847 40221 333 20170 58000
AAXX 31064 41253 36/// /0000 10203 20142 39856 40241 333 0E016 20154 58008
AAXX 31064 41254 36/// /3004 10095 20021 38191 48196 333 0E003 20043 59038
AAXX 31064 41255 32960 01602 10206 20095 39687 40212 333 20138 3/019 5////
AAXX 31064 41256 32560 22605 10233 20138 30220 40230 81430 333 20167 3/018 58010 81625
AAXX 31064 41257 NIL
AAXX 31064 41258 NIL
AAXX 31064 41259 36/// /3114 10066 21292 37135 40310 333 0E/// 21001 58002
AAXX 31064 41262 NIL
AAXX 31064 41263 NIL
AAXX 31064 41264 NIL
AAXX 31064 41265 36/// /0306 10217 20120 39678 40233 333 0E020 20142 58003
AAXX 31064 41267 35/// /3616 10243 20126 30205 40220 333 0E021 20221 58009
AAXX 31064 41268 32560 33614 10248 20128 30202 40218 83500 333 20220 3/022 58008 83625
AAXX 31064 41270 NIL
AAXX 31064 41275 NIL
AAXX 31064 41287 NIL
AAXX 31064 41288 31456 20515 10245 20160 30196 40218 70400 82500 333 20225 58001 82610
AAXX 31064 41290 NIL
AAXX 31064 41295 36/// /3110 10189 20115 30034 40216 333 0E015 20127 59004
AAXX 31064 41304 NIL
AAXX 31064 41312 NIL
AAXX 31064 41314 NIL
AAXX 31064 41315 36/// /3517 10133 21040 39208 42845 333 0E/// 20101 59001
AAXX 31064 41316 NIL
BBXX 2ALD3 31063 99281 31537 41598 51309 10230 20184 40139 56006 70322 83892 22244 04230 20305 333// 40706 80199
BBXX VRAE2 31064 99221 31634 41599 71612 10260 20215 40072 57010 70322 8455/ 22274 04270 20302 318// 40403 80230
BBXX VRZN7 31064 99368 31502 416// 20519 10200 2017/ 40165 51015 7//11 824/9 22283 04180 20404 306// 4//// 5//// 85180
BBXX 3ECI3 31064 99397 31742 41297 81435 10160 20143 40059 54000 70282 8671/ 22231 00170 20403 314// 41307 80150
BBXX VRDU8 31063 99210 31100 41498 11720 10285 20184 40137 57010 70200 815// 22284 04270 20605 80220
BBXX ZCBU6 31064 99413 31628 41598 52128 10160 20114 40144 57029 70222 844// 22234 00167 20403 319// 40505 5//// 80135
BBXX SHIP 31063 99117 31234 41/96 81813 10312 20238 40089 76186 222// 0//// 20301 320// 40301 5////
BBXX VNSZ 31054 99412 31464 46/// /0108 10213 20143 30143 40169 57024 22200 04195 85169
BBXX 9HA2479 31054 99250 31629 46/// /1618 10230 20191 30060 40089 57018 22214 04247 85204
BBXX C6FS9 31054 99393 31461 46/// /1308 10184 20166 30126 40163 57010 22223 04184 85172
BBXX A8TX8 31063 99080 31239 41698 52706 10305 20256 40080 57025 702// 834/5 22224 04290 20501 30000 80270
BBXX VNSZ 31044 99412 31464 46/// /0108 10212 20134 30151 40177 57021 22200 85164
BBXX 9HA2479 31044 99252 31627 46/// /1722 10229 20187 30063 40092 57019 22214 04246 85201
BBXX C6FS9 31044 99392 31458 46/// /1709 10198 20166 30130 40166 57007 22223 04182 85177
BBXX VROB 31044 99274 31532 46/// /1416 10237 20138 30130 40155 57014 22281 04247 85175
BBXX VROB 31054 99272 31533 46/// /1521 10233 20147 30124 40149 57015 22283 04245 85178
BBXX FHZI 31054 99632 31449 46/// /1816 10019 21013 39832 49843 52013 22283 05006 85006
BBXX FHZI 31044 99634 31449 46/// /1816 10015 21020 39826 49837 52010 22283 05007 85001
AAXX 31064 94893 NIL
AAXX 31064 94907 46/// /1112 10276 20161 30127 40137
AAXX 31064 94910 46/// /1906 10291 20109 39895 40141
AAXX 31064 94926 46/// /0106 10264 20101 39488 40146
AAXX 31064 94935 46/// /0509 10228 20173 30127 40153
AAXX 31064 94954 46/// /0210 10207 20159 30051 40162
AAXX 31064 94956 46/// /2308 10213 20152 30140 40166
AAXX 31064 94975 46/// /1817 10206 20144 30120 40152
AAXX 31064 94983 NIL
AAXX 31064 94995 46/// /0707 10208 20120 30134 40142
AAXX 31064 94996 46/// /1908 10218 20181 39953 40080
AAXX 31064 94997 NIL
AAXX 31064 94998 46/// /2525 10074 20050 39859 49869
AAXX 31064 95111 46/// /2407 10339 20247 30033 40069
AAXX 31064 95205 46/// /2707 10384 20198 30042 40049
AAXX 31064 95322 NIL
AAXX 31064 95448 46/// /3521 10371 20030 39470 40015
AAXX 31064 95458 46/// /1109 10402 21021 39814 40067
AAXX 31064 95480 46/// /1503 10408 20017 30029 40087
AAXX 31064 95481 46/// /1310 10395 20048 30041 40085
AAXX 31064 95482 46/// /1510 10407 20031 30015 40069
AAXX 31064 95485 46/// /1513 10355 2//// 39903 40102
AAXX 31064 95492 46/// /1008 10359 20062 39940 40091
AAXX 31064 95527 46/// /2003 10297 20092 39872 40120
AAXX 31064 95634 46/// /2711 10353 20082 39640 40030
AAXX 31064 95637 46/// /1607 10269 20167 39731 40057
AAXX 31064 95646 46/// /3114 10416 20038 39854 40036
AAXX 31064 95666 NIL
AAXX 31064 95719 46/// /1205 10287 20117 39814 40138
AAXX 31064 95762 46/// /1708 10280 20073 39677 40125
AAXX 31064 95826 NIL
AAXX 31064 95839 46/// /2007 10363 20012 39954 40111
AAXX 31064 95864 NIL
AAXX 31064 95909 NIL
AAXX 31064 95954 NIL
AAXX 31064 95966 46/// /3312 10240 20120 39947 40146
AAXX 31064 96995 46/// /1607 10277 20216 39806 40100
AAXX 31064 96996 41459 81209 10283 20255 30112 40116 57009 71682 885//
BBXX 2ALD3 31063 99281 31537 41598 51309 10230 20184 40139 56006 70322 83892 22244 04230 20305 333// 40706 80199
BBXX VRAE2 31064 99221 31634 41599 71612 10260 20215 40072 57010 70322 8455/ 22274 04270 20302 318// 40403 80230
BBXX VRZN7 31064 99368 31502 416// 20519 10200 2017/ 40165 51015 7//11 824/9 22283 04180 20404 306// 4//// 5//// 85180
BBXX 3ECI3 31064 99397 31742 41297 81435 10160 20143 40059 54000 70282 8671/ 22231 00170 20403 314// 41307 80150
BBXX VRDU8 31063 99210 31100 41498 11720 10285 20184 40137 57010 70200 815// 22284 04270 20605 80220
BBXX ZCBU6 31064 99413 31628 41598 52128 10160 20114 40144 57029 70222 844// 22234 00167 20403 319// 40505 5//// 80135
BBXX SHIP 31063 99117 31234 41/96 81813 10312 20238 40089 76186 222// 0//// 20301 320// 40301 5////
BBXX VNSZ 31054 99412 31464 46/// /0108 10213 20143 30143 40169 57024 22200 04195 85169
BBXX 9HA2479 31054 99250 31629 46/// /1618 10230 20191 30060 40089 57018 22214 04247 85204
BBXX C6FS9 31054 99393 31461 46/// /1308 10184 20166 30126 40163 57010 22223 04184 85172
BBXX A8TX8 31063 99080 31239 41698 52706 10305 20256 40080 57025 702// 834/5 22224 04290 20501 30000 80270
BBXX VNSZ 31044 99412 31464 46/// /0108 10212 20134 30151 40177 57021 22200 85164
BBXX 9HA2479 31044 99252 31627 46/// /1722 10229 20187 30063 40092 57019 22214 04246 85201
BBXX C6FS9 31044 99392 31458 46/// /1709 10198 20166 30130 40166 57007 22223 04182 85177
BBXX VROB 31044 99274 31532 46/// /1416 10237 20138 30130 40155 57014 22281 04247 85175
BBXX VROB 31054 99272 31533 46/// /1521 10233 20147 30124 40149 57015 22283 04245 85178
AAXX 31064 94102 46/// /2511 10326 20269 30053 40062
AAXX 31064 94103 NIL
AAXX 31064 94120 46/// /3017 10329 20250 30014 40054
AAXX 31064 94122 46/// /2711 10322 20258 30055 40063
AAXX 31064 94131 46/// /2505 10364 20199 39901 40051
AAXX 31064 94132 NIL
AAXX 31064 94147 NIL
AAXX 31064 94150 46/// /0107 10318 20253 39996 40055
AAXX 31064 94151 46/// /1008 10332 20257 30042 4////
AAXX 31064 94170 46/// /2707 10320 20242 30026 40048
AAXX 31064 94200 NIL
AAXX 31064 94203 46/// /2513 10339 20234 30046 40056
AAXX 31064 94206 46/// /3614 10354 2//// 39916 40044
AAXX 31064 94207 46/// /1705 10283 30068 40076 58012
AAXX 31064 94211 NIL
AAXX 31064 94212 46/// /2403 10347 20162 39589 40051
AAXX 31064 94216 46/// /1405 10383 20193 39995 40045
AAXX 31064 94236 NIL
AAXX 31064 94238 46/// /0404 10383 20056 39631 40043
AAXX 31064 94248 NIL
AAXX 31064 94255 46/// /1403 10372 20139 39794 40050
AAXX 31064 94268 46/// /2808 10314 20246 30043 40055
AAXX 31064 94287 46/// /1316 10306 20191 30071 40080
AAXX 31064 94290 NIL
AAXX 31064 94294 46/// /0717 10302 20199 30083 40093
AAXX 31064 94296 35/// /1516 10270 30051 40061 57007
AAXX 31064 94298 46/// /1319 10266 30070 40076 56006
AAXX 31064 95641 NIL
AAXX 31064 94500 NIL
AAXX 31064 94510 46/// /1010 10274 20189 39758 40097
AAXX 31064 94515 46/// /1307 10301 20116 39758 40099
AAXX 31064 94552 46/// /1016 10256 20138 39665 40124
AAXX 31064 94578 46/// /1310 10243 20149 30134 40145
AAXX 31064 94584 46/// /1426 10236 20154 30019 40128
AAXX 31064 94601 46/// /1318 10225 20171 30076 40093
AAXX 31064 94610 46/// /2515 10280 20179 30030 40053
AAXX 31064 94637 46/// /1801 10301 20134 39621 40035
AAXX 31064 94638 46/// /1911 10265 20187 30025 40056
AAXX 31064 94642 NIL
AAXX 31064 94643 NIL
AAXX 31064 94647 46/// /1609 10381 20078 39925 40043
AAXX 31064 94651 46/// /1114 10417 20008 39972 40047
AAXX 31064 94653 46/// /1718 10401 21082 30051 40069
AAXX 31064 94659 46/// /0207 10401 21150 39895 40085
AAXX 31064 94672 46/// /2114 10315 20085 30105 40115
AAXX 31064 94691 46/// /1510 10366 20048 39786 40106
AAXX 31064 94693 46/// /1208 10366 20053 30051 40111
AAXX 31064 94700 NIL
AAXX 31064 94703 46/// /0606 10332 20093 39988 40111
AAXX 31064 94710 46/// /1009 10321 20056 39874 40121
AAXX 31064 94729 46/// /1505 10240 20103 39307 40142
AAXX 31064 94750 46/// /0712 10230 20156 30044 40167
AAXX 31064 94767 46/// /0711 10226 20126 30172 40178
AAXX 31064 94776 46/// /1011 10230 20107 30166 40176
AAXX 31064 94791 NIL
AAXX 31064 94802 46/// /2008 10206 20172 30001 40082
AAXX 31064 94804 46/// /1114 10274 20130 30077 40114
AAXX 31064 94807 NIL
AAXX 31064 94821 46/// /1613 10304 20080 30058 40140
AAXX 31064 94842 46/// /0907 10214 20173 30053 40151
AAXX 31064 94847 NIL
AAXX 31064 94850 46/// /2310 10234 20165 30103 40149
AAXX 31064 94865 46/// /1512 10329 20090 30101 40125
AAXX 31064 94866 46/// /3109 10334 20048 39991 40130
AAXX 31064 94875 46/// /2306 10324 20080 30006 40139
AAXX 31064 94299 46/// /1621 10282 20224 30060 40070
AAXX 31064 94300 46/// /2216 10274 20156 30089 40099
AAXX 31064 94302 46/// /2109 10335 20085 30075 40081
AAXX 31064 94312 46/// /3216 10327 20182 30053 40062
AAXX 31064 94313 NIL
AAXX 31064 94317 46/// /3613 10381 20012 39457 40024
AAXX 31064 94319 46/// /3611 10368 20174 39719 40040
AAXX 31064 94324 NIL
AAXX 31064 94326 46/// /2106 10404 21046 39445 40044
AAXX 31064 94327 46/// /0907 10400 20050 39684 40047
AAXX 31064 94332 46/// /1308 10370 20136 39672 40048
AAXX 31064 94333 NIL
AAXX 31064 94341 46/// /1112 10354 20111 39836 40065
AAXX 31064 94346 46/// /0912 10348 20120 39857 40071
AAXX 31064 94363 46/// /0905 10310 20158 39881 40094
AAXX 31064 94366 NIL
AAXX 31064 94367 46/// /1313 10273 20208 30065 40106
AAXX 31064 94374 46/// /0810 10277 20162 30093 40109
AAXX 31064 94388 46/// /1320 10258 20173 30118 40123
AAXX 31064 94393 46/// /1524 10254 30073 40085 56007
AAXX 31064 94394 46/// /1422 10246 30096 40104 56008
AAXX 31064 94403 46/// /2217 10233 20170 30053 40094
AAXX 31064 94429 46/// /2406 10314 20132 39595 40046
AAXX 31064 94430 46/// /3311 10338 20072 39466 40032
AAXX 31064 94449 46/// /2916 10362 20034 39521 40035
AAXX 31064 94451 NIL
AAXX 31064 94461 46/// /0109 10379 20062 39392 40043
AAXX 31064 94462 46/// /0704 10397 21007 39499 40038
AAXX 31064 94477 NIL
AAXX 31064 94488 NIL
AAXX 31064 94893 NIL
AAXX 31064 94907 46/// /1112 10276 20161 30127 40137
AAXX 31064 94910 46/// /1906 10291 20109 39895 40141
AAXX 31064 94926 46/// /0106 10264 20101 39488 40146
AAXX 31064 94935 46/// /0509 10228 20173 30127 40153
AAXX 31064 94954 46/// /0210 10207 20159 30051 40162
AAXX 31064 94956 46/// /2308 10213 20152 30140 40166
AAXX 31064 94975 46/// /1817 10206 20144 30120 40152
AAXX 31064 94983 NIL
AAXX 31064 94995 46/// /0707 10208 20120 30134 40142
AAXX 31064 94996 46/// /1908 10218 20181 39953 40080
AAXX 31064 94997 NIL
AAXX 31064 94998 46/// /2525 10074 20050 39859 49869
AAXX 31064 95111 46/// /2407 10339 20247 30033 40069
AAXX 31064 95205 46/// /2707 10384 20198 30042 40049
AAXX 31064 95322 NIL
AAXX 31064 95448 46/// /3521 10371 20030 39470 40015
AAXX 31064 95458 46/// /1109 10402 21021 39814 40067
AAXX 31064 95480 46/// /1503 10408 20017 30029 40087
AAXX 31064 95481 46/// /1310 10395 20048 30041 40085
AAXX 31064 95482 46/// /1510 10407 20031 30015 40069
AAXX 31064 95485 46/// /1513 10355 2//// 39903 40102
AAXX 31064 95492 46/// /1008 10359 20062 39940 40091
AAXX 31064 95527 46/// /2003 10297 20092 39872 40120
AAXX 31064 95634 46/// /2711 10353 20082 39640 40030
AAXX 31064 95637 46/// /1607 10269 20167 39731 40057
AAXX 31064 95646 46/// /3114 10416 20038 39854 40036
AAXX 31064 95666 NIL
AAXX 31064 95719 46/// /1205 10287 20117 39814 40138
AAXX 31064 95762 46/// /1708 10280 20073 39677 40125
AAXX 31064 95826 NIL
AAXX 31064 95839 46/// /2007 10363 20012 39954 40111
AAXX 31064 95864 NIL
AAXX 31064 95909 NIL
AAXX 31064 95954 NIL
AAXX 31064 95966 46/// /3312 10240 20120 39947 40146
AAXX 31064 96995 46/// /1607 10277 20216 39806 40100
AAXX 31064 96996 41459 81209 10283 20255 30112 40116 57009 71682 885//
AAXX 31064 89564 41575 81322 11008 21056 39935 49955 51008 77072 885//
AAXX 31064 89570 46/// /3504 10012 21112 39260 57004
AAXX 31064 89571 41575 12412 10017 21046 39897 49926 57007 70200 81530
AAXX 31064 89573 NIL
AAXX 31064 89610 NIL
AAXX 31064 89611 41470 60405 11008 21041 39840 49892 58013 70311 84501
AAXX 31064 89614 NIL
AAXX 31064 89615 46/// /0107 11008 21109 38992 56009
AAXX 31064 89807 NIL
AAXX 31064 89809 46/// /0000 10002 21012 39436 56012
AAXX 31061 38141 32998 00702 11045 21101 30166 40332 53006 333 21070
AAXX 31061 38149 42998 00603 11033 21093 30260 40341 57003 333 21066
AAXX 31061 38178 42998 01305 11037 21153 30099 40402 57006 333 21070
AAXX 31061 38262 32998 00502 11022 21073 30244 40328 57016 333 21086
AAXX 31061 38264 42998 01005 11023 21055 30246 40344 57004 333 21084
AAXX 31061 38396 42997 01106 11015 21052 30221 40352 53003 333 21065
AAXX 31061 38403 42997 00903 11043 21128 30233 40361 57009 333 21060
AAXX 31061 38413 42998 81305 11027 21087 30087 40392 53005 8803/ 333 21051
AAXX 31061 38457 32999 02001 11002 21068 39771 40383 57004 333 21092
AAXX 31061 38462 42999 00000 11057 21146 38878 48591 57008 333 21128
AAXX 31061 38565 32998 00000 11026 21083 39760 40373 57009 333 21077
AAXX 31061 38579 31/93 90101 11049 21052 39950 40396 57006 74344 89/// 333 21073
AAXX 31061 38583 31/92 90701 11048 21048 30055 40397 57008 74944 333 21065
AAXX 31061 38611 NIL
AAXX 31061 38618 31995 42001 10008 21042 39658 40373 57003 71000 80008 333 21064
AAXX 31061 38683 42997 00903 10002 21046 30061 40349 57004 333 21045
AAXX 31061 38696 32997 01603 11048 21066 39472 40377 57002 333 21092
AAXX 31061 38812 42997 01302 10021 21007 39870 40337 54000 333 21033
AAXX 31061 38927 31103 90302 10009 20006 39959 40349 56003 74544 89/// 333 21003 89/01
AAXX 31061 37395 32999 20904 10076 21027 30047 40187 53020 82030 333 20090
AAXX 31061 37409 32598 60906 11031 21054 38782 48497 57019 85540 333 21025 95010
AAXX 31061 37432 32697 20000 11060 21087 38987 48508 57015 82200 333 21080
AAXX 31061 37514 32999 00000 11037 21081 39066 40268 52002 333 21061
AAXX 31061 37545 32599 60000 11014 21020 39700 40233 52012 84244 555 21026 7000/
AAXX 31061 37621 32699 60000 11016 21050 39571 40234 53007 80001 333 21032
AAXX 31061 37484 NIL
AAXX 31061 26313 12/97 33303 10020 21044 40047 52011 69942 83900 333 20016
AAXX 31063 64501 32360 62006 10250 20236 3//// 4//// 86500 333 0//00 20250 50194 55010 5//// 83608 86630
AAXX 31063 64550 32458 8//// 10230 20223 30/// 40/// 885// 333 02200 20219 50064 55/// 5//// 84611 88616
AAXX 31063 64556 32460 8//// 10220 20215 39552 40147 885// 333 0//00 20214 50024 55010 58002 88610
AAXX 31063 64560 32260 7//// 10213 20208 39595 40132 875// 333 0//00 20210 50074 55/// 59002 87606
AAXX 31061 02947 47/60 72603 11034 21047 49984 52019 70072 87/// 90551 333 10007 21035 3////
AAXX 31061 02947 47/60 72603 11034 21047 49984 52019 70072 87/// 90551 333 10007 21035 3////
AAXX 31064 91487 NIL
AAXX 31064 91490 NIL
AAXX 31064 91533 NIL
AAXX 31064 91601 NIL
AAXX 31064 91610 11599 21010 10285 20239 40082 53016 60001 70100 81110 333 5629/ 81820 82640
AAXX 31064 91623 NIL
AAXX 31064 91629 NIL
AAXX 31064 91701 11599 19903 10270 2025/ 60001 70200 81100 333 562// 81820
BBXX A8IN9 31063 99399 70243 41/97 /2321 10170 20149 40319 56009 700// 8//// 22254 06160 20502 327// 41103 5//// 80158
BBXX PCKU 31060 99066 31166 41498 72508 10272 20243 40093 56016 7//22 8311/ 22253 04293 20402 30000 80251
AAXX 31061 01271 16/// /1203 11071 21083 30052 40074 57001 69922 333 21074 47001 70027 91106
AAXX 31061 01281 16/// ///// 1//// 2//// 39888 40071 53008 60002 333 70008
AAXX 31061 01447 16/// /0000 11140 21155 39409 40123 52003 60002 333 21140 70003 91100
AAXX 31061 33088 11997 82401 11002 21005 39903 40098 52008 69902 70272 8805/ 333 21004 47997
AAXX 31061 33466 11323 82701 10001 21002 39930 40121 52012 60022 71076 886// 333 20001 43001 88707
AAXX 31061 33562 11/09 92503 11006 21006 39753 40122 53009 69922 74774 333 21007 47001 93401
AAXX 31061 34415 11323 80000 10002 21004 30046 40144 53011 60022 76176 8772/ 333 21011 43001 93401
AAXX 31061 34523 32597 81702 10004 21012 30079 40157 53010 8455/ 333 21004
AAXX 31061 34712 31/02 91204 10012 20012 30068 40155 53010 74544 333 21017
AAXX 31064 64570 32465 82602 10215 20210 39641 40153 8555/ 333 02000 20213 50084 55/// 58002 85611 88362
AAXX 31063 64560 32260 7//// 10213 20208 39595 40132 875// 333 0//00 20210 50074 55/// 59002 87606
AAXX 31061 01473 11680 41001 11086 21098 39884 40102 51005 60002 70222 82440 333 21090 47012 79999 91102
AAXX 31061 01494 11985 00202 11053 21064 30021 40089 51007 60002 70200 333 21057 70000 91103
AAXX 31061 01015 46/// /1608 11037 21058 333 21037 91110
AAXX 31061 01180 11980 02601 11071 21088 39998 40058 52013 60002 70200 333 21077 70000 91104
AAXX 31061 01228 46/// /1403 10014 21020 30046 40054 57012 333 20014 91104
AAXX 31061 01340 16/// /1006 11092 21142 39193 40098 55005 60002 333 21117 70005 91110
AAXX 31061 01425 16/// /3101 11028 21039 39997 40079 55003 60002 333 21033 70000 91103
AAXX 31061 01450 16/// /3001 11150 21166 38917 40129 54000 60002 333 21151 70002 91103
AAXX 31064 78988 02475 61212 10259 20233 30124 40135 57011 60001 83200 333 59004 60007 83816 85081
AAXX 31064 78948 11578 30924 10263 20236 30145 40153 69901 70581 83201 333 02205 10296 20250 59001 79999 83822 83080 90910
AAXX 31064 65352 31950 70406 10180 21002 3//// 4//// 70522 80002 333 20180 5//// 87076
AAXX 31064 65361 32960 72804 10214 21043 3//// 4//// 80002 333 20208 5//// 87076
AAXX 31064 65376 32958 73604 10240 20045 39672 40130 80002 333 20222 58006 87076
AAXX 31064 65387 31918 70000 10225 20219 30090 40108 71022 80002 333 20225 58002 87073
AAXX 31064 04005 41489 79901 10022 20000 49644 57030 76162 87800 555 3/204
AAXX 31061 26045 01684 82502 10001 21025 30011 40013 53019 69902 70222 875// 333 10028 21001 60007 87634 555 11100 21001 31100 50021
AAXX 31061 26115 27684 73402 10016 21040 30026 40034 52009 70000 87/// 333 10022 20007 60007 87/35 555 1/100 20007 3/100 50022
AAXX 31061 01092 46/// /1106 11017 21045 333 21029 91114
AAXX 31061 01199 11460 80106 11059 21071 39552 40026 52015 60032 73673 8672/ 333 21076 47036 70026 91110
AAXX 31061 01262 46/// /3005 10030 21044 333 20023 91111
AAXX 31061 01329 11980 10803 11003 21042 39995 40057 58010 60002 70200 80005 333 21012 70000 91113
AAXX 31061 01337 16/// /0801 11060 21080 30008 40077 57009 60002 333 21060 70000 91104
AAXX 31061 01393 16/// /3101 11208 21228 39266 40138 52004 6//// 333 21208 91103
AAXX 31061 01436 11680 40607 10006 21044 60002 70310 81106 333 21008 70000 91109
AAXX 31061 26058 27383 72403 10009 20000 30001 40009 52014 72470 87/// 333 10029 20006 69947 87/08 555 1/100 20006 3/100 50022 52100
AAXX 31061 26247 27/81 /2102 10000 21006 39957 40038 52013 70040 333 10023 21001 60007 555 1/100 21001 3/101 50020
AAXX 31061 01265 16/// /2801 11164 21183 39505 40129 53005 69932 333 21177 70006 91102
AAXX 31061 01375 16/// /2403 11091 21101 6//// 333 21094 91107
AAXX 31061 01440 46/// /1206 11116 21130 38762 40097 54003 333 21141 91107
AAXX 31061 01441 16/// /0501 11205 21227 39073 40143 57003 60002 333 21243 70000 91102
AAXX 31061 01469 16/// /3402 11080 21096 39923 40103 52005 60002 333 21080 70000 91103
AAXX 31061 01257 11567 62203 11059 21074 39906 40073 56006 60002 70222 82570 333 21063 70014 91105
AAXX 31061 01277 16/// /0000 11083 21094 60002 333 21084 70014 91102
AAXX 31061 01419 16/// /0101 11019 21052 60002 333 21040 70000 91104
AAXX 31061 01476 16/// /0103 11010 21051 30079 40086 52003 6//// 333 21016 91104
AAXX 31061 01144 41886 81903 10000 21015 70322 84016 333 21009 91105
BBXX 44139 31061 99442 70571 46/// /3106 10022 40286 52021 22200 00044 11106 70031 333 91208
BBXX 46035 31061 99571 71778 46/// /2305 1//// 40070 58011 90550 22200 10603 20401 300// 40603 70017 333 91207 555 11054 22057 30509 42313 60549 229053 249050 250072 232098 218090 163040 82213 90509
BBXX A8PX5 31064 99391 71568 41597 62535 10120 20102 40020 54000 70322 8/8// 22224 04140 20908 327// 41210 5//// 80110
BBXX DDIJ 31063 99461 71589 41497 80330 10057 20031 49875 52040 76162 8/800 22264 04140 2//// 399// 40812 80045
BBXX DFGX2 31063 99540 71595 41/98 73628 11035 21040 40096 53011 70372 87/// 22264 00040 2//// 82035
BBXX NWS0003 31064 99539 71665 43/// /3500 11044 21084 40133 5//// 7//// 8//// 222// 0//// 2//// 3//// 4//// 5//// 6//// 8//// ICE /////
BBXX OZDQ2 31063 99476 71757 41/97 /0217 10023 40206 52016 7//// 8//// 22224 00060 20404
BBXX WDC9175 31063 99535 71682 41/97 00115 1//// 2//// 40150 5//// 702// 8//// 222// 0//// 2//// 301// 4//05 5//// 6//// 8//// ICE /////
AAXX 31061 48845 01497 83601 10172 20155 30213 40220 57021 60033 70262 888// 333 58010 60031 85894 88696 555 20163
AAXX 31061 48855 01560 82902 10235 20190 30175 40183 57030 60013 70262 888// 333 58005 69901 84895 88697
AAXX 31061 48848 01565 83205 10191 20163 30203 40211 57020 69913 70262 888// 333 58018 69911 82895 88697
AAXX 31061 48887 12770 70908 10277 20236 30117 40123 57018 69913 875// 333 58011 87697
AAXX 31061 48877 12570 70205 10263 20230 30153 40158 57019 69973 872// 333 58014 87895
AAXX 31061 48870 12574 60205 10257 20227 30155 40162 58021 60093 868// 333 58010 84894 84696
AAXX 31061 48920 12598 70204 10287 20262 30111 40114 57029 69913 83208 222// 00278 2//01 333 58003 83895 8729 9
AAXX 31064 06610 01456 82310 10024 20011 39592 40188 57/// 60032 76366 887// 333 20015 32001 55009 55300 20000 69965 70065 88714 90768 93100 91117 91210
AAXX 31064 41257 36/// /0708 10204 20109 39745 40236 333 0E015 20154 58005
AAXX 31061 48840 32498 83403 10165 20133 30214 40220 57026 888// 333 58013 83894 88696 555 20164
AAXX 31064 06670 01235 81507 10007 21002 39653 40178 56/// 60022 77176 8572/ 333 21002 3/103 41001 55028 55300 20000 69965 70039 81703 85715 88531 90768 93101 91114 91209
AAXX 31064 06700 01257 82502 10025 20014 39697 40201 56/// 60112 76176 8272/ 333 20002 32000 55000 55300 20000 60015 70157 82704 88535 90768 93100 91106 91204
AAXX 31064 06680 01/01 92423 11059 21059 37436 47965 53/// 60092 77174 333 21130 47363 55000 55300 20000 60025 70308 90768 93103 91153 91236
AAXX 31064 06990 01/06 91706 10000 21016 39634 40198 56/// 69962 77333 333 21008 3/103 47/// 55000 55300 20000 69945 70053 91117 91209
AAXX 31064 06760 32875 83502 10022 21056 39736 40195 52/// 8802/ 333 20013 31102 55012 55300 20000 70017 88458 90768 93100 91104 91203
AAXX 31064 06720 03/// /0000 10005 20001 39619 40212 57/// 60092 333 20003 3/000 55000 55300 20000 60025 70124 91102 91202
AAXX 31061 48892 32598 60505 10302 20257 30118 40123 57020 82208 333 58005 82895 86299
AAXX 31061 01218 16/// /1507 10018 21095 30030 40052 55016 69922 333 21029 70070 91113
AAXX 31064 91753 02582 11502 10284 20242 30045 40077 53010 60002 81100 333 10309 20243 30024 55071 60007 79999 81825 90710 91104 555 60005
AAXX 31064 91754 06/// /0602 10285 20230 30035 40076 53007 60001 333 60007 555 10316 20247 60004 60005
AAXX 31064 71120 11474 83105 11058 21077 39300 49957 53023 60021 72277 886// 333 11050 21160 44006 70051 90973 93102 555 10060 20051
AAXX 31064 71137 16/// /2610 11009 21033 39054 49987 53007 60001 333 10032 21063 70000 555 31821 40191
AAXX 31064 71920 16/// /1310 10058 20041 30232 40238 55006 60001 333 10058 20006 70000 555 32835 40073
AAXX 31064 71431 16/// /0808 11012 21021 39968 40064 56022 60001 333 11011 21068 70009 555 30919 40071
AAXX 31064 71441 46/// /1713 11057 21065 39732 40044 56015 6///1 333 11051 21107 7//// 555 31717 40061
AAXX 31064 71444 16/// /1903 11049 21052 39231 49987 58024 60001 333 11049 21152 70000
AAXX 31064 71472 16/// /3211 10021 21081 60001 333 10043 20003 70006 555 33442 40193
AAXX 31064 71300 16/// /0704 11080 21091 39997 40123 58020 60001 333 11079 21172 70006 555 10010 20006
AAXX 31064 71309 16/// /0701 11239 21265 30135 40147 56010 60001 333 11191 21296 70008
AAXX 31064 71311 16/// /0701 11074 21091 30232 40257 55000 60001 333 11031 21112 70000 555 32522 40111
AAXX 31064 71317 16/// /0602 11077 21110 30210 40258 53002 60001 333 11025 21112 70000 555 32736 40073
AAXX 31064 71320 16/// /3212 11297 21326 30034 40035 53002 60001 333 11219 21304 70003 555 10010 20003
AAXX 31064 71858 16/// /1603 11048 21054 39706 49987 58020 60001 333 11046 21093 70000
AAXX 31064 71734 17/// /0804 11121 21144 39730 40135 58005 60011 7//4/ 333 11121 21268 70012
AAXX 31064 71736 46/// ///// 11008 21080 6///1 333 10052 21031 7//// 555 10010
AAXX 31064 71742 46/// /2810 11041 21083 30022 40212 53030 6///1 333 11016 21061 7//// 555 32444 40093
AAXX 31064 71744 16/// /0000 11113 21134 30215 40258 53001 60001 333 11047 21140 70000 555 32726 40141
AAXX 31064 71752 17/// /1704 10047 20035 39830 40044 58010 60031 7//4/ 333 10079 20019 70042 555 10010 20042
AAXX 31064 71754 16/// /2708 11038 21048 39287 49946 51022 60001 333 11027 21158 70008 555 10010 20008 31325 40221
AAXX 31064 71758 16/// /2004 11049 21069 30189 40269 53011 60001 333 11038 21071 70000 555 32440 40073
AAXX 31064 71771 46/// /2707 10000 21025 30161 40182 51039 6///1 333 10044 7////
AAXX 31064 71780 17/// /2718 10038 20018 30184 40212 53047 60041 7//4/ 333 10089 20019 70058 555 32806 41063
AAXX 31064 71783 16/// /2409 10033 20002 30122 40196 51046 60001 333 10082 20031 70044 555 32525 40151
AAXX 31064 71940 11680 72607 11065 21070 39228 40037 52047 69981 77122 83570 333 11037 21111 48003 70010 90931 93102 555 10024 20010
AAXX 31064 71015 16/// ///// 11036 60001 333 10052 21036 70000
AAXX 31064 71017 16/// /2710 11342 21378 30136 40152 55000 60001 333 11325 21384 7////
AAXX 31064 71018 16/// ///04 11366 21404 30020 40113 53004 60001 333 11287 21387 70000
AAXX 31064 71019 46/// /0902 11123 21143 39927 40240 55003 6///1 333 11082 21178 7//// 555 32920 40081
AAXX 31064 71020 46/// /0000 11280 21310 39796 40065 53019 6///1 333 11244 21310 7//// 555 10010
AAXX 31064 71021 46/// /0000 11291 21324 39703 40075 52021 6///1 333 11234 21305 7////
AAXX 31064 71110 16/// /2907 11015 21038 30169 40230 53024 60001 333 10001 21034 70006 555 10010 20006 32551 40083
AAXX 31064 71133 46/// /2813 11031 21047 39212 49914 51016 6///1 333 11029 21147 7//// 555 10020 32818 40061
AAXX 31064 71139 16/// /2609 11004 21081 38538 49977 53010 60001 333 10029 21052 70000 555 32725 40021
AAXX 31064 71141 16/// /3406 11365 21403 30105 40133 53010 60001 333 11354 21375 7////
AAXX 31064 71147 16/// /1613 11052 21058 60001 333 11044 21101 70000 555 31617 40061
AAXX 31064 71149 16/// /1608 11058 21072 60001 333 11032 21136 70000
AAXX 31064 71212 16/// /3102 11103 21126 39362 40184 58004 60001 333 11050 21275 70000
AAXX 31064 71243 16/// /2714 10010 21076 38943 40002 53012 60001 333 10086 21007 70000 555 33032 40232
AAXX 31064 71246 17/// /3203 11089 21100 39338 40005 53027 60031 7//4/ 333 11036 21133 70030
AAXX 31064 71075 16/// /0203 11121 21135 39389 49999 53007 60001 333 11075 21121 70000 555 10010
AAXX 31064 71087 46/// /2803 11184 21206 39854 40066 53021 6///1 333 11170 21280 7////
AAXX 31064 71669 16/// /2609 11011 21133 38385 49982 53001 60001 333 10014 21033 70005 555 32424 40051
AAXX 31064 71551 16/// /2612 10002 21026 39294 49939 53020 60001 333 10033 21109 70015 555 32723 40021
AAXX 31064 71553 16/// /1811 11031 21035 60001 333 11031 21118 70000 555 31718 40051
AAXX 31064 71570 16/// /1508 11080 21101 39744 40060 58011 60001 333 11071 21135 70000
AAXX 31064 71571 16/// /2809 11093 21103 38817 40018 51039 60001 333 11055 21094 70006
AAXX 31064 71581 17/// /1002 11106 21119 39606 40100 58025 60031 7//4/ 333 11106 70044 555 10040 20044
AAXX 31064 71585 17/// /3206 11081 21086 39525 49984 53021 60011 7//4/ 333 7//// 555 10010
AAXX 31064 71599 16/// /1301 11021 21064 30047 40254 55001 60001 333 10009 21077 70000 555 10020
AAXX 31064 71627 11559 80411 11078 21111 30112 40158 58016 69921 77987 885// 333 11078 21174 47004 70008 90921 555 10008 20008
AAXX 31064 71622 17/// ///// 10047 20041 39698 40032 58006 60071 7//4/ 333 10048 20008 70093
AAXX 31064 71151 16/// /1609 11091 21099 39565 40077 56014 60001 333 11088 21114 70000
AAXX 31064 71155 16/// ///// 11055 21060 60001 333 11019 21142 70000
AAXX 31064 71156 16/// /2905 11070 21078 38911 40012 53037 60001 333 11056 21131 70000
AAXX 31064 71157 46/// ///// 11033 21066 6///1 333 11013 21083 7////
AAXX 31064 71158 16/// /1407 11060 21067 39742 40019 58019 60001 333 11060 21116 70000 555 31617 40201
AAXX 31064 71159 16/// /2904 11031 21068 30161 40235 53025 60001 333 11006 21063 70008 555 32534 40083
AAXX 31064 71160 16/// /0605 11198 21233 39841 40062 53011 60001 333 11185 21221 70000
AAXX 31064 71162 16/// /0107 11162 21187 39829 40043 53014 60001 333 11141 21163 70000
AAXX 31064 71165 46/// ///00 11236 21259 39782 40074 51017 6///1 333 11162 21300 7////
AAXX 31064 71166 46/// /0501 11202 21221 39422 40050 53018 6///1 333 11106 21203 7////
AAXX 31064 71452 46/// /2305 10012 21018 39263 49965 55009 6///1 333 10012 21052 7//// 555 10020 31621 40021
AAXX 31064 71455 46/// /2719 10000 21031 39162 49947 53011 6///1 333 10035 21080 7//// 555 32025 40221
AAXX 31064 71459 16/// /2612 11010 21046 39167 49964 51018 60001 333 10048 21056 70000 555 32524 40221
AAXX 31064 71465 46/// /2015 10058 20046 39815 40029 52002 6///1 333 10072 20039 7//// 555 31424 40011
AAXX 31064 71470 16/// /1309 11258 21285 39438 40088 51012 60001 333 11243 21267 70000
AAXX 31064 71475 16/// /3203 11014 21016 30107 40202 53043 60001 333 10077 21020 70046
AAXX 31064 71476 46/// /2810 30148 53048 6///1 333 7////
AAXX 31064 71480 16/// /0201 11324 21359 39956 40084 51016 60001 333 11229 21327 70003 555 10010 20003
AAXX 31064 71484 46/// /3115 10022 21051 30149 40168 5/040 6///1 333 10046 20011 7////
AAXX 31064 71489 16/// /2710 11061 21081 39157 49951 53021 60001 333 11018 21163 70007
AAXX 31064 71492 46/// ///07 11242 21278 39344 40058 51014 6///1 333 11215 21245 7////
AAXX 31064 71501 16/// /3606 11258 21289 30077 40079 53011 60001 333 11226 21282 70000 555 10030 33017 40161
AAXX 31064 71505 46/// /0805 11227 21255 39263 40019 53015 6///1 333 11157 21303 7////
AAXX 31064 71511 16/// /2811 11017 21042 39304 49936 53017 60001 333 10013 21128 70000 555 31825 40001
AAXX 31064 71522 46/// /3107 11269 21305 39720 40239 56008 6///1 333 11177 21276 70000
AAXX 31064 71868 16/// /2006 11015 21046 39492 49928 58016 60001 333 11015 21129 70000
AAXX 31064 71954 46/// /0806 11066 21071 39579 49954 58026 6///1 333 11062 21128 7////
AAXX 31064 71956 16/// /0511 11052 21053 39843 40078 58012 60001 333 11045 21071 70000 555 30717 40071
AAXX 31064 71959 16/// ///// 11027 21061 60001 333 11021 21070 70014 555 10020 20014
AAXX 31064 71970 17/// /3008 11057 21065 39348 49932 53017 60021 7//4/ 333 11037 21153 70045
AAXX 31064 71977 46/// /0000 11330 21330 39330 40076 52014 6///1 333 11225 21331 7////
AAXX 31064 71978 46/// /0000 11350 21387 39743 40073 52012 6///1 333 11237 21350 7////
AAXX 31064 71989 16/// /3206 11331 21365 30201 40218 53006 60001 333 11292 21358 70000
AAXX 31064 71807 16/// /3012 10005 21048 30214 40233 52035 60001 333 10016 21016 70007 555 32649 40103
AAXX 31064 71250 16/// /2907 11016 21056 30071 40210 53035 60001 333 10008 21022 70000 555 32342 40103
AAXX 31064 71288 16/// /0308 11359 21396 30118 40145 52012 60001 333 11358 21394 70003
AAXX 31064 71295 16/// /1803 11091 21102 39634 40087 56010 60001 333 11082 21100 70000
AAXX 31064 71837 16/// ///// 11016 60001 333 10061 21044 70000
AAXX 31064 71839 16/// ///// 11015 60001 333 10057 21023 70000
AAXX 31064 71849 16/// /1816 11050 21056 39741 40041 56019 60001 333 11050 21130 70000 555 31821 40061
AAXX 31064 71361 16/// /0000 11171 21192 39835 40049 52020 60001 333 11162 21240 70000
AAXX 31064 71362 16/// /0000 11191 21213 39768 40033 53012 60001 333 11166 21239 70005
AAXX 31064 71364 16/// /2902 11267 21295 39941 40080 51011 60001 333 11205 21272 70000
AAXX 31064 71365 16/// /3101 11273 21299 39858 40082 53024 60001 333 11252 21302 70000
AAXX 31064 71384 16/// /0903 11058 21120 30205 40213 56004 60001 333 11050 21200 70000
AAXX 31064 71393 16/// ///// 11021 21122 38731 49984 53025 60001 333 10061 21051 70000
AAXX 31064 71402 46/// /2916 11046 21104 30085 40202 53029 6///1 333 11015 21050 7//// 555 32451 40083
AAXX 31064 71407 16/// /2504 11354 21395 30068 40090 53008 60001 333 11280 21365 70000
AAXX 31064 71427 16/// /3606 11113 21140 30242 40250 52004 60001 333 11069 21129 70000 555 32724 40101
AAXX 31064 71885 16/// ///// 11021 60001 333 10060 21025 70000
AAXX 31064 71886 16/// /1811 11014 21035 39341 49941 56016 60001 333 11014 21063 70000 555 31724 40051
AAXX 31064 89002 42599 81011 11030 21044 39815 49869 52013 888//
AAXX 31064 17189 11657 61005 10006 21003 38963 48426 52003 69942 71062 84550 333 21005 3/102 41997 70004 84635 86360
BBXX DMQN 31064 99064 70292 41/97 /0520 10250 20207 40122 57013 700// 8//// 22244 04270 2//// 3//// 4//// 5//// 80220
BBXX SHJC 31061 99131 10574 43/98 40215 10249 40179 55009 22274 00260 2//// 4////
AAXX 31061 14015 11456 81601 11012 21021 39829 40201 52011 60002 71022 886// 333 21013 35101 41000 55000 70001 88710 555 20012 30018
AAXX 31061 37279 32999 00000 10046 21014 30028 40174 53004 555 21002
AAXX 31061 37308 32999 30000 11020 21050 39551 40255 54000 83030 333 21035
AAXX 31061 37531 32999 40000 11063 21067 39507 40272 52006 80002 333 21070
AAXX 31061 37651 16/// ///00 11011 21021 3//// 4//// 5//// 60002 333 21050
AAXX 31061 37492 NIL
AAXX 31061 37553 NIL
AAXX 31064 71858 16/// /1603 11048 21054 39706 49987 58020 60001 333 11046 21093 70000
AAXX 31064 71431 16/// /0808 11012 21021 39968 40064 56022 60001 333 11011 21068 70009 555 30919 40071
AAXX 31064 71441 46/// /1713 11057 21065 39732 40044 56015 6///1 333 11051 21107 7//// 555 31717 40061
AAXX 31064 71444 16/// /1903 11049 21052 39231 49987 58024 60001 333 11049 21152 70000
AAXX 31064 71472 16/// /3211 10021 21081 60001 333 10043 20003 70006 555 33442 40193
AAXX 31064 71120 11474 83105 11058 21077 39300 49957 53023 60021 72277 886// 333 11050 21160 44006 70051 90973 93102 555 10060 20051
AAXX 31064 71137 16/// /2610 11009 21033 39054 49987 53007 60001 333 10032 21063 70000 555 31821 40191
AAXX 31064 71940 11680 72607 11065 21070 39228 40037 52047 69981 77122 83570 333 11037 21111 48003 70010 90931 93102 555 10024 20010
AAXX 31064 71752 17/// /1704 10047 20035 39830 40044 58010 60031 7//4/ 333 10079 20019 70042 555 10010 20042
AAXX 31064 71754 16/// /2708 11038 21048 39287 49946 51022 60001 333 11027 21158 70008 555 10010 20008 31325 40221
AAXX 31064 71758 16/// /2004 11049 21069 30189 40269 53011 60001 333 11038 21071 70000 555 32440 40073
AAXX 31064 71771 46/// /2707 10000 21025 30161 40182 51039 6///1 333 10044 7////
AAXX 31064 71780 17/// /2718 10038 20018 30184 40212 53047 60041 7//4/ 333 10089 20019 70058 555 32806 41063
AAXX 31064 71783 16/// /2409 10033 20002 30122 40196 51046 60001 333 10082 20031 70044 555 32525 40151
AAXX 31064 71110 16/// /2907 11015 21038 30169 40230 53024 60001 333 10001 21034 70006 555 10010 20006 32551 40083
AAXX 31064 71133 46/// /2813 11031 21047 39212 49914 51016 6///1 333 11029 21147 7//// 555 10020 32818 40061
AAXX 31064 71139 16/// /2609 11004 21081 38538 49977 53010 60001 333 10029 21052 70000 555 32725 40021
AAXX 31064 71141 16/// /3406 11365 21403 30105 40133 53010 60001 333 11354 21375 7////
AAXX 31064 71147 16/// /1613 11052 21058 60001 333 11044 21101 70000 555 31617 40061
AAXX 31064 71149 16/// /1608 11058 21072 60001 333 11032 21136 70000
AAXX 31064 71300 16/// /0704 11080 21091 39997 40123 58020 60001 333 11079 21172 70006 555 10010 20006
AAXX 31064 71309 16/// /0701 11239 21265 30135 40147 56010 60001 333 11191 21296 70008
AAXX 31064 71311 16/// /0701 11074 21091 30232 40257 55000 60001 333 11031 21112 70000 555 32522 40111
AAXX 31064 71317 16/// /0602 11077 21110 30210 40258 53002 60001 333 11025 21112 70000 555 32736 40073
AAXX 31064 71320 16/// /3212 11297 21326 30034 40035 53002 60001 333 11219 21304 70003 555 10010 20003
AAXX 31064 71734 17/// /0804 11121 21144 39730 40135 58005 60011 7//4/ 333 11121 21268 70012
AAXX 31064 71736 46/// ///// 11008 21080 6///1 333 10052 21031 7//// 555 10010
AAXX 31064 71742 46/// /2810 11041 21083 30022 40212 53030 6///1 333 11016 21061 7//// 555 32444 40093
AAXX 31064 71744 16/// /0000 11113 21134 30215 40258 53001 60001 333 11047 21140 70000 555 32726 40141
AAXX 31064 71807 16/// /3012 10005 21048 30214 40233 52035 60001 333 10016 21016 70007 555 32649 40103
AAXX 31064 71627 11559 80411 11078 21111 30112 40158 58016 69921 77987 885// 333 11078 21174 47004 70008 90921 555 10008 20008
AAXX 31064 71151 16/// /1609 11091 21099 39565 40077 56014 60001 333 11088 21114 70000
AAXX 31064 71155 16/// ///// 11055 21060 60001 333 11019 21142 70000
AAXX 31064 71156 16/// /2905 11070 21078 38911 40012 53037 60001 333 11056 21131 70000
AAXX 31064 71157 46/// ///// 11033 21066 6///1 333 11013 21083 7////
AAXX 31064 71158 16/// /1407 11060 21067 39742 40019 58019 60001 333 11060 21116 70000 555 31617 40201
AAXX 31064 71159 16/// /2904 11031 21068 30161 40235 53025 60001 333 11006 21063 70008 555 32534 40083
AAXX 31064 71160 16/// /0605 11198 21233 39841 40062 53011 60001 333 11185 21221 70000
AAXX 31064 71162 16/// /0107 11162 21187 39829 40043 53014 60001 333 11141 21163 70000
AAXX 31064 71165 46/// ///00 11236 21259 39782 40074 51017 6///1 333 11162 21300 7////
AAXX 31064 71166 46/// /0501 11202 21221 39422 40050 53018 6///1 333 11106 21203 7////
AAXX 31064 71015 16/// ///// 11036 60001 333 10052 21036 70000
AAXX 31064 71017 16/// /2710 11342 21378 30136 40152 55000 60001 333 11325 21384 7////
AAXX 31064 71018 16/// ///04 11366 21404 30020 40113 53004 60001 333 11287 21387 70000
AAXX 31064 71019 46/// /0902 11123 21143 39927 40240 55003 6///1 333 11082 21178 7//// 555 32920 40081
AAXX 31064 71020 46/// /0000 11280 21310 39796 40065 53019 6///1 333 11244 21310 7//// 555 10010
AAXX 31064 71021 46/// /0000 11291 21324 39703 40075 52021 6///1 333 11234 21305 7////
AAXX 31064 71551 16/// /2612 10002 21026 39294 49939 53020 60001 333 10033 21109 70015 555 32723 40021
AAXX 31064 71553 16/// /1811 11031 21035 60001 333 11031 21118 70000 555 31718 40051
AAXX 31064 71570 16/// /1508 11080 21101 39744 40060 58011 60001 333 11071 21135 70000
AAXX 31064 71571 16/// /2809 11093 21103 38817 40018 51039 60001 333 11055 21094 70006
AAXX 31064 71581 17/// /1002 11106 21119 39606 40100 58025 60031 7//4/ 333 11106 70044 555 10040 20044
AAXX 31064 71585 17/// /3206 11081 21086 39525 49984 53021 60011 7//4/ 333 7//// 555 10010
AAXX 31064 71599 16/// /1301 11021 21064 30047 40254 55001 60001 333 10009 21077 70000 555 10020
AAXX 31064 71669 16/// /2609 11011 21133 38385 49982 53001 60001 333 10014 21033 70005 555 32424 40051
AAXX 31064 71622 17/// ///// 10047 20041 39698 40032 58006 60071 7//4/ 333 10048 20008 70093
AAXX 31064 71452 46/// /2305 10012 21018 39263 49965 55009 6///1 333 10012 21052 7//// 555 10020 31621 40021
AAXX 31064 71455 46/// /2719 10000 21031 39162 49947 53011 6///1 333 10035 21080 7//// 555 32025 40221
AAXX 31064 71459 16/// /2612 11010 21046 39167 49964 51018 60001 333 10048 21056 70000 555 32524 40221
AAXX 31064 71465 46/// /2015 10058 20046 39815 40029 52002 6///1 333 10072 20039 7//// 555 31424 40011
AAXX 31064 71470 16/// /1309 11258 21285 39438 40088 51012 60001 333 11243 21267 70000
AAXX 31064 71475 16/// /3203 11014 21016 30107 40202 53043 60001 333 10077 21020 70046
AAXX 31064 71476 46/// /2810 30148 53048 6///1 333 7////
AAXX 31064 71480 16/// /0201 11324 21359 39956 40084 51016 60001 333 11229 21327 70003 555 10010 20003
AAXX 31064 71484 46/// /3115 10022 21051 30149 40168 5/040 6///1 333 10046 20011 7////
AAXX 31064 71489 16/// /2710 11061 21081 39157 49951 53021 60001 333 11018 21163 70007
AAXX 31064 71492 46/// ///07 11242 21278 39344 40058 51014 6///1 333 11215 21245 7////
AAXX 31064 71212 16/// /3102 11103 21126 39362 40184 58004 60001 333 11050 21275 70000
AAXX 31064 71243 16/// /2714 10010 21076 38943 40002 53012 60001 333 10086 21007 70000 555 33032 40232
AAXX 31064 71246 17/// /3203 11089 21100 39338 40005 53027 60031 7//4/ 333 11036 21133 70030
AAXX 31064 71920 16/// /1310 10058 20041 30232 40238 55006 60001 333 10058 20006 70000 555 32835 40073
AAXX 31064 71075 16/// /0203 11121 21135 39389 49999 53007 60001 333 11075 21121 70000 555 10010
AAXX 31064 71087 46/// /2803 11184 21206 39854 40066 53021 6///1 333 11170 21280 7////
AAXX 31064 71868 16/// /2006 11015 21046 39492 49928 58016 60001 333 11015 21129 70000
AAXX 31064 71501 16/// /3606 11258 21289 30077 40079 53011 60001 333 11226 21282 70000 555 10030 33017 40161
AAXX 31064 71505 46/// /0805 11227 21255 39263 40019 53015 6///1 333 11157 21303 7////
AAXX 31064 71511 16/// /2811 11017 21042 39304 49936 53017 60001 333 10013 21128 70000 555 31825 40001
AAXX 31064 71522 46/// /3107 11269 21305 39720 40239 56008 6///1 333 11177 21276 70000
AAXX 31064 71885 16/// ///// 11021 60001 333 10060 21025 70000
AAXX 31064 71886 16/// /1811 11014 21035 39341 49941 56016 60001 333 11014 21063 70000 555 31724 40051
AAXX 31064 71402 46/// /2916 11046 21104 30085 40202 53029 6///1 333 11015 21050 7//// 555 32451 40083
AAXX 31064 71407 16/// /2504 11354 21395 30068 40090 53008 60001 333 11280 21365 70000
AAXX 31064 71427 16/// /3606 11113 21140 30242 40250 52004 60001 333 11069 21129 70000 555 32724 40101
AAXX 31064 71837 16/// ///// 11016 60001 333 10061 21044 70000
AAXX 31064 71839 16/// ///// 11015 60001 333 10057 21023 70000
AAXX 31064 71849 16/// /1816 11050 21056 39741 40041 56019 60001 333 11050 21130 70000 555 31821 40061
AAXX 31064 71250 16/// /2907 11016 21056 30071 40210 53035 60001 333 10008 21022 70000 555 32342 40103
AAXX 31064 71288 16/// /0308 11359 21396 30118 40145 52012 60001 333 11358 21394 70003
AAXX 31064 71295 16/// /1803 11091 21102 39634 40087 56010 60001 333 11082 21100 70000
AAXX 31064 71361 16/// /0000 11171 21192 39835 40049 52020 60001 333 11162 21240 70000
AAXX 31064 71362 16/// /0000 11191 21213 39768 40033 53012 60001 333 11166 21239 70005
AAXX 31064 71364 16/// /2902 11267 21295 39941 40080 51011 60001 333 11205 21272 70000
AAXX 31064 71365 16/// /3101 11273 21299 39858 40082 53024 60001 333 11252 21302 70000
AAXX 31064 71384 16/// /0903 11058 21120 30205 40213 56004 60001 333 11050 21200 70000
AAXX 31064 71393 16/// ///// 11021 21122 38731 49984 53025 60001 333 10061 21051 70000
AAXX 31064 71954 46/// /0806 11066 21071 39579 49954 58026 6///1 333 11062 21128 7////
AAXX 31064 71956 16/// /0511 11052 21053 39843 40078 58012 60001 333 11045 21071 70000 555 30717 40071
AAXX 31064 71959 16/// ///// 11027 21061 60001 333 11021 21070 70014 555 10020 20014
AAXX 31064 71970 17/// /3008 11057 21065 39348 49932 53017 60021 7//4/ 333 11037 21153 70045
AAXX 31064 71977 46/// /0000 11330 21330 39330 40076 52014 6///1 333 11225 21331 7////
AAXX 31064 71978 46/// /0000 11350 21387 39743 40073 52012 6///1 333 11237 21350 7////
AAXX 31064 71989 16/// /3206 11331 21365 30201 40218 53006 60001 333 11292 21358 70000
AAXX 31004 91636 11498 89902 10267 20251 40075 60591 78082 83370 333 20264 5689/ 70625
AAXX 31064 91631 11498 89903 10271 20250 4//// 69981 71582 83370 333 5689/
AAXX 31060 67695 12580 51603 10265 20237 69944 84830 333 20225 5//// 55/// 70004 81825 83630 85360 555 10310 7//96
AAXX 31064 68026 32460 60000 10234 20213 48512 53013 83551 333 20212
BBXX 44150 31061 99425 70640 46/// /1607 10078 40250 57008 22200 00075 10903 70014 333 91208
AAXX 31064 48433 31959 00402 10300 20180 39982 40146 57032 70500 333 58002
AAXX 31064 48427 32562 50408 10300 20202 30133 40141 57031 82131 333 58006
AAXX 31064 68298 36/// /0407 1//// 2//// 39498 4//// 52001 333 2//// 91011 555 1//// 91016
AAXX 31061 48852 01460 82901 10184 20181 30185 40195 57027 60143 76166 888// 333 58014 60051 86894 88697 9616 0
AAXX 31064 40356 42560 52205 10120 20050 39189 48491 85500 333 20080 59031 85630 555 04410 50164
AAXX 31064 40357 42960 71212 10105 20050 39536 40179 84029 333 20102 59049 84460 83170
AAXX 31064 40360 42960 02604 10096 20070 39577 40175 333 20082 59022
AAXX 31064 40361 42660 81109 10124 21050 39388 40159 81520 333 20116 59043 81640 87460
AAXX 31064 40362 NIL
AAXX 31064 40373 42660 71412 10116 20030 39806 40232 87500 333 20065 59024 87635
AAXX 31064 40375 42660 63508 10126 20000 39279 40157 83240 333 20091 59015 83840 84560
AAXX 31064 40377 42660 41715 10121 20030 39739 40229 82430 333 20080 59035 82640 83358
AAXX 31064 40394 42660 42306 10130 20020 39055 48530 84500 333 20096 59023 84645 555 04410 50184
AAXX 31064 40400 42660 80000 10235 20190 30132 40160 885// 333 20214 59007 88640
AAXX 31064 40401 NIL
AAXX 31064 40405 42960 01608 10140 20050 39459 40204 333 20080 59021
AAXX 31064 40416 41957 02804 10180 20150 30211 40231 71000 333 20100 59004
AAXX 31064 40417 42960 02904 10127 20070 30234 40249 333 20086 59005
AAXX 31064 40420 41957 00000 10143 20050 30037 40250 70500 333 20077 59004
AAXX 31064 40430 41959 03503 10186 20010 39450 40168 70600 333 20155 59016
AAXX 31064 40435 42960 21710 10150 21030 39168 40217 80001 333 20090 58002 82070
AAXX 31064 40437 42960 01505 10140 21030 39528 40245 333 20066 59018
AAXX 31064 40439 42960 20504 10220 20150 30140 40159 80001 333 20200 59010 83070
AAXX 31064 41024 41958 01102 10254 20220 30131 40150 71000 333 20190 59013
AAXX 31064 41030 42960 00000 10240 20190 39877 40149 333 20220 59012
AAXX 31064 41036 42960 02105 10174 20080 38601 48551 333 20114 59004 555 04410 5 0160
AAXX 31064 41055 42960 00000 10190 20020 38408 48556 333 20100 58000 555 04410 50177
AAXX 31064 41061 42960 01108 10140 20060 39513 40234 333 20080 59005
AAXX 31064 41084 42960 00000 10146 20010 38913 48562 333 20068 59002 555 04410 50195
AAXX 31064 41112 42960 00000 10160 20010 37998 48571 333 20080 58003 555 04410 50218
AAXX 31064 41114 42960 00000 10168 20070 38030 48567 333 20060 58003 555 04410 50212
AAXX 31064 41128 42960 01504 10150 21010 38883 48581 333 20065 58004 555 04410 50236
AAXX 31064 41136 42960 01007 10164 20020 39404 40233 333 20090 59001
AAXX 31064 41140 42960 01310 10260 20190 30172 40183 333 20210 59006
AAXX 31064 40550 47/61 /1602 10144 20013 40249 52003 70086 333 55303 00249 10000 20720 30226 41100 51340 60947 55407 40494 90069 90400 91003 91105 91201 91301
AAXX 31064 40551 46/// /0907 10133 21034 333 90401 91009 91109 91207 91303
AAXX 31064 40552 37/69 /0806 10131 21037 40248 50006 70086 333 55305 90069 90401 91007 91107 91205 91303
AAXX 31064 40553 37/64 /1402 10143 21018 40250 50009 70086 333 55305 90069 90401 91001 91105 91205 91301
AAXX 31064 40568 36/// /0102 10153 20039 333 90401 91003 91107 91205 91303
AAXX 31064 40569 NIL
AAXX 31064 40570 35/69 /1312 10125 21044 40240 50001 333 55300 90069 90400 91017 91117 91213 91307
AAXX 31064 40571 NIL
AAXX 31064 40572 NIL
AAXX 31064 40573 36/// /1309 10122 21041 333 90400 91011 91111 91209 91303
AAXX 31064 40580 36/// /2001 10156 21026 333 553// 00247 10002 20673 30161 41075 51332 60835 55407 40512 90400 91001 91103 91201 91300
AAXX 31064 40581 36/// /0702 10157 20061 333 90400 91003 91105 91201 91301
AAXX 31064 40582 31958 40000 10120 21055 40254 53013 70500 84030 333 55302 00296 10000 20760 30252 41106 51313 61012 55407 40509 84360 90401 91001 91105 91203 91301
AAXX 31064 40583 NIL
AAXX 31064 40585 36/// /3006 10149 20068 222// 1//// 3//// 4//// 70/// 333 90401 91009 91111 91209 91305
AAXX 31064 40586 36/// /1601 10137 21038 333 90401 91003 91103 91201 91301
AAXX 31064 40587 36/// /2002 10131 21037 333 553// 00278 10000 20737 30239 41096 51310 60976 55407 40497 90401 91003 91105 91205 91303
AAXX 31064 40588 35/62 /3506 10141 20073 40251 53013 333 55302 90069 90401 91007 91109 91207 91303
AAXX 31064 40589 NIL
AAXX 31064 40590 36/// /1004 10137 21042 333 90400 91005 91105 91205 91303
AAXX 31064 40591 NIL
AAXX 31064 40592 37/59 /2701 10162 20009 40253 53010 71010 333 55306 00352 10000 20754 30200 41149 51357 60954 55407 40555 90069 90400 91001 91103 91201 91301
AAXX 31064 40593 36/// /3304 10154 20062 333 90401 91005 91105 91203 91301
AAXX 31064 40594 36/// /3103 10153 20011 333 90400 91005 91107 91205 91303
AAXX 31064 40596 36/// /0703 10181 20117 333 90400 91003 91109 91207 91303
AAXX 31064 04211 47/61 /0707 11189 21215 39822 49991 52001 77777 333 11177 21191
AAXX 31064 04220 05584 33212 11112 21163 39905 49959 52002 69902 333 11102 21198 55300 20004 6///7 70007 81/29 83/33
AAXX 31064 04221 47666 80913 11178 21244 39925 49964 52005 77877 333 11167 21194 81/38 88/43
AAXX 31064 04231 NIL
AAXX 31064 04234 473// 73118 11109 21134 39969 49979 52010 77177 333 11091 21124 87/08 91134 91221 91027
AAXX 31064 04241 45/84 /3311 11108 21241 39925 49965 52017 333 11101 21124 91125
AAXX 31064 04250 07915 70234 11135 21196 39834 49943 52028 60052 78587 333 11126 21147 55300 20000 69987 70079 87/69 91044 91155 91246
AAXX 31064 04254 47/06 /0325 11147 21202 39837 49956 52032 77177 333 11129 21151
AAXX 31064 04260 47/07 93441 11105 21140 39766 49810 52009 77187 333 11061 21109 89/02 91151 91051
AAXX 31064 04270 47/12 90608 11044 21056 39704 49742 57024 77177 333 11020 21048 89/06
AAXX 31064 04272 07363 8//// 11052 21053 39679 49750 57016 60032 77777 333 11017 21055 69917 70116 81/09 83/11 85/14 88/17
AAXX 31064 04312 46/// /2207 11330 21374 39963 40005 57010
AAXX 31064 04320 NIL
AAXX 31064 04339 47/14 ///// 11171 21185 39718 49811 57056 77171 333 11157 21173 55300 20000
AAXX 31064 04360 06/// /1404 11035 21070 39608 49676 57022 6///2 333 11020 21061 55300 20000 6///7 70010
AAXX 31064 04361 466// 80805 11063 21075 39631 49682 57021 333 11042 21063 88/45
AAXX 31064 04390 07984 72607 11026 21062 39639 49730 57019 60052 70087 333 11023 21065 60037 70089 81/61 87/64 91219
AAXX 31061 06447 16/// /2502 10068 20060 39975 40100 55004 60042 333 20038 3/002 91110 91205
BBXX 44255 31061 99473 70573 46/// /3007 10005 40233 5//// 22200 00034 11205 70025 333 91209
AAXX 31064 41529 11996 00000 10122 20014 39843 40239 60001 70500 333 58007
AAXX 31064 41598 11996 00000 10130 20028 39937 40216 60001 70500 333 58004
AAXX 31064 41620 32997 02705 10070 21167 38633 48532 333 59012
AAXX 31064 41624 02997 10140 21004 30009 40215 60001 333 58002 60007
AAXX 31064 41640 01994 00000 10160 20081 39958 40212 60001 70400 333 58009 60007
AAXX 31064 41660 11996 02706 10030 21046 38483 48573 60001 70500 333 59004
AAXX 31064 41675 11994 00000 10155 20035 30068 40212 60001 70500 333 59001
AAXX 31064 41712 12997 00506 10100 21063 39277 48561 60001 333 58001
AAXX 31064 41715 01996 00502 10165 20050 30138 40205 60001 70500 333 59018 60007
AAXX 31064 41756 01996 00510 10215 20175 30151 40215 60001 70504 333 58016 60007
AAXX 31064 41764 31995 03602 10180 20029 30147 40197 60001 70400 333 59011 60007
AAXX 31064 41768 01995 00502 10210 20048 30193 40200 60001 70400 333 59009 60007
AAXX 31064 41780 02996 00502 10220 20064 40200 60001 333 59010 60007
BBXX 44032 31061 99437 70694 46/30 /1607 10084 40178 58011 90604 22200 00082 10503 70014 333 91209 555 11087 22093
BBXX 44067 31061 99384 70770 46/// /2303 10103 40114 58016 90600
AAXX 31064 41529 11996 00000 10122 20014 39843 40239 60001 70500 333 58007
AAXX 31064 41598 11996 00000 10130 20028 39937 40216 60001 70500 333 58004
AAXX 31064 41620 32997 02705 10070 21167 38633 48532 333 59012
AAXX 31064 41624 02997 10140 21004 30009 40215 60001 333 58002 60007
AAXX 31064 41640 01994 00000 10160 20081 39958 40212 60001 70400 333 58009 60007
AAXX 31064 41660 11996 02706 10030 21046 38483 48573 60001 70500 333 59004
AAXX 31064 41675 11994 00000 10155 20035 30068 40212 60001 70500 333 59001
AAXX 31064 41712 12997 00506 10100 21063 39277 48561 60001 333 58001
AAXX 31064 41715 01996 00502 10165 20050 30138 40205 60001 70500 333 59018 60007
AAXX 31064 41756 01996 00510 10215 20175 30151 40215 60001 70504 333 58016 60007
AAXX 31064 41764 31995 03602 10180 20029 30147 40197 60001 70400 333 59011 60007
AAXX 31064 41768 01995 00502 10210 20048 30193 40200 60001 70400 333 59009 60007
AAXX 31064 41780 02996 00502 10220 20064 40200 60001 333 59010 60007
AAXX 31064 47407 12/80 13401 11010 21084 30027 40205 53005 60001 81501
AAXX 31064 47409 11/65 73311 11003 21027 30130 40185 53015 60021 78582 872//
AAXX 31064 47418 11/80 43316 10012 21059 30127 40177 53023 69901 70282 84200
AAXX 31064 47421 17/70 /3411 10017 21019 30160 40204 53003 69901 72476
AAXX 31064 47430 11/65 72806 10025 21032 30151 40206 53009 69901 70281 872//
AAXX 31064 47570 15/70 /2708 10024 21023 39975 40241 53006 60001
AAXX 31064 47575 11/65 62410 10024 21033 30215 40220 53008 69901 70281 86800
AAXX 31064 47584 11/75 12806 10031 21055 30025 40219 53002 69901 70181 81200
AAXX 31064 47604 11/75 71907 10028 20002 30236 40245 53003 69901 70282 872//
AAXX 31064 47605 11/70 71004 10066 21028 30213 40255 55005 69901 78082 87200
AAXX 31064 47610 12/82 10508 10038 21059 39727 40240 55005 60001 81200
AAXX 31064 47624 12/82 13605 10081 21076 30080 40220 55006 60001 81800
AAXX 31064 47629 12/80 12202 10086 21093 30184 40223 53001 60001 81100
AAXX 31064 47636 12/80 13311 10087 21063 30164 40233 56011 60001 81100
AAXX 31064 47651 12/80 23211 10080 21026 30221 40244 55007 60001 82200
AAXX 31064 47655 15/70 /1903 10100 21026 30158 40215 56005 60001
AAXX 31064 47675 15/70 /0808 10081 21020 30130 40223 55000 60001
AAXX 31064 47741 12/82 33003 10099 21003 30209 40237 56022 60001 82801
AAXX 31064 47746 12/80 31303 10083 21032 30224 40244 56018 60001 81801
AAXX 31064 47750 12/80 20506 10083 21010 30218 40246 56013 60001 82201
AAXX 31064 47765 12/82 72308 10092 21037 30179 40245 56019 60001 81801
AAXX 31064 47772 12/80 10603 10091 21041 30139 40241 56021 60001 81500
AAXX 31064 47800 15/61 /1905 10097 20028 30227 40232 56016 60001
AAXX 31064 47815 12/82 70907 10102 20000 30226 40243 56021 60001 81102
AAXX 31064 47817 12/80 71303 10109 20001 30193 40237 56020 60001 872//
AAXX 31064 47830 12/82 61105 10115 21006 30221 40239 56017 60001 81131
AAXX 31064 47887 12975 53105 10108 21065 30200 40242 56017 60001 80001
AAXX 31064 47891 12/80 10303 10092 21047 30230 40247 56019 60001 81131
AAXX 31064 47895 12/84 13611 10090 21049 30238 40246 56017 60001 81501
AAXX 31064 47927 11/65 80410 10172 20150 30158 40208 58011 60041 76162 8782/
AAXX 31064 47401 12/84 41205 10000 21041 30184 40199 53003 60001 842//
AAXX 31064 47412 11/56 73607 10001 21021 30170 40203 53008 69901 78581 873//
AAXX 31064 47420 17/70 /3421 10016 21029 30114 40148 53024 69901 70060
AAXX 31064 47426 15/70 /3015 10023 21070 30130 40178 53013 60001
AAXX 31064 47582 11/65 63106 10037 21047 30201 40228 55000 69901 72681 86300
AAXX 31064 47590 12/75 22810 10051 21047 30170 40225 53005 60001 82200
AAXX 31064 47600 15/70 /2606 10064 21046 30243 40251 55003 60001
AAXX 31064 47648 12/70 10404 10075 21052 30193 40228 53001 60001 81100
AAXX 31064 47662 12/80 13205 10095 21100 30178 40223 55004 60001 81200
AAXX 31064 47678 17/67 /0703 10091 20058 30029 40219 53005 60021 76160
AAXX 31064 47740 15/80 /2005 10073 20005 30204 40239 56018 60001
AAXX 31064 47778 15/70 /1505 10089 21043 30147 40232 56017 60001
AAXX 31064 47807 12/80 81404 10116 21012 30216 40234 56020 60001 888//
AAXX 31064 47827 12/84 61405 10136 20009 30196 40234 56023 60001 81132
AAXX 31064 47843 15/81 /3208 10109 20030 30207 40240 56019 60001
AAXX 31064 47893 12/81 22105 10117 21087 30228 40234 56013 60001 81102
AAXX 31064 47909 12/70 71102 10165 20090 30204 40214 58013 60001 8757/
AAXX 31064 47918 11/58 80409 10177 20162 30184 40202 56021 60041 76162 8382/
AAXX 31064 47936 11/70 70308 10176 20090 30151 40210 55013 69901 72161 8387/
AAXX 31064 47945 12/65 50509 10207 20093 30173 40197 56015 60001 83801
AAXX 31064 47971 11/70 63510 10180 20088 30180 40190 53001 69901 70282 86200
AAXX 31064 47991 16/// /2308 10259 20211 30121 40131 53002 60001
AAXX 31064 40100 12560 31804 10150 20094 30136 40168 53014 60074 83270 906// 333 20124 32/// 50204 55021 20651 83826 92437
AAXX 31064 40101 11550 70000 10065 20054 39094 48489 52011 60024 76066 87200 906// 333 20042 31/// 50194 55035 20652 87826
AAXX 31064 40103 12560 42208 10133 20067 40156 52008 69944 84200 333 20079 31/// 50174 20949 84824 555 10175
AAXX 31064 40102 NIL
AAXX 31064 41515 02697 60000 10060 21123 38599 48559 60001 84520 333 56990 59024 60007 84650 82458
AAXX 31064 41560 22697 41303 10045 21030 38287 48517 60001 83420 333 58000 60007
AAXX 31064 41571 11995 00000 10150 20022 39627 40218 60001 70500 333 58004
AAXX 31064 41594 31994 00000 10160 20056 39993 40217 70500 333 58003
AAXX 31064 41685 32997 03604 10125 21081 38959 48535 333 59005
AAXX 31064 41710 02997 01302 10095 21129 39450 40249 60001 333 58003 60007
AAXX 31064 41718 11995 00000 10140 20056 30098 40202 60001 70400 333 59013
AAXX 31064 41739 02997 00000 10130 21009 39105 48552 60001 333 59005 60007
AAXX 31064 41744 32996 00000 10140 21098 38812 48534 333 59003
AAXX 31064 41749 01994 03104 10165 20076 30177 40212 60001 70400 333 59022 60007
AAXX 31064 16682 12560 50000 10076 20063 30031 40050 57007 60182 83145 333 20070 31/// 51800 55003 70178 83820 84358 85068 90730 91105 555 10000 30100 20000 89085 99100 30000 10080 20085 30090 40102 50115 60165 40000 47552 44190 50000 50070 60000 60176 60840
AAXX 31064 41515 02697 60000 10060 21123 38599 48559 60001 84520 333 56990 59024 60007 84650 82458
AAXX 31064 41560 22697 41303 10045 21030 38287 48517 60001 83420 333 58000 60007
AAXX 31064 41571 11995 00000 10150 20022 39627 40218 60001 70500 333 58004
AAXX 31064 41594 31994 00000 10160 20056 39993 40217 70500 333 58003
AAXX 31064 41685 32997 03604 10125 21081 38959 48535 333 59005
AAXX 31064 41710 02997 01302 10095 21129 39450 40249 60001 333 58003 60007
AAXX 31064 41718 11995 00000 10140 20056 30098 40202 60001 70400 333 59013
AAXX 31064 41739 02997 00000 10130 21009 39105 48552 60001 333 59005 60007
AAXX 31064 41744 32996 00000 10140 21098 38812 48534 333 59003
AAXX 31064 41749 01994 03104 10165 20076 30177 40212 60001 70400 333 59022 60007
AAXX 31064 78958 11465 40805 10257 20230 30131 40141 69911 72500 83801 333 10306 20232 58000 83818
AAXX 31064 41506 02696 70000 10065 21010 48545 60001 83420 333 56990 59044 60007 83640 84460
AAXX 31064 41508 22697 31802 10061 21095 48572 60001 83200 333 56900 59009 60007 83835
AAXX 31064 41523 12997 00000 10125 21036 48560 60001 333 59007 60007
AAXX 31064 41535 12997 00000 10125 21018 48521 60001 333 59010
AAXX 31064 41536 12997 01803 10120 21046 48547 60001 333 59005
AAXX 31064 41573 12997 01304 10100 21048 48527 60001 333 59008
AAXX 31064 41600 01995 00000 10155 20063 39909 40208 60001 70400 333 58007 60007
AAXX 31064 41630 11995 01304 10170 20028 40215 60001 70500 333 59001
AAXX 31064 41678 02997 00000 10130 20043 40217 60001 333 59007 60007
AAXX 31064 41696 32997 03102 10030 21140 38044 48564 60001 333 59013 60007
AAXX 31064 41697 02997 00000 10186 20065 40203 60001 333 59022 60007
AAXX 31064 41700 11996 00000 10150 20056 40198 60001 70400 333 59006
AAXX 31064 41725 01995 03602 10170 20070 40196 60001 70500 333 59022 60007
AAXX 31064 41746 02996 03602 10150 20103 40206 60001 333 59024 60007
AAXX 31064 41759 11996 03606 10200 21025 30211 40217 60001 70500 333 58013
AAXX 31064 41785 02997 00502 10175 20051 40194 60001 333 59017 60007
AAXX 31061 56187 31940 80902 10084 20048 39615 40277 57036 71000 8807/ 333 00100 20029
AAXX 31061 56778 32565 11604 10172 20055 38132 57038 81100 333 00100 20023
AAXX 31061 57461 31950 01602 10109 20039 30110 40276 57034 70500 333 20037
AAXX 31061 58102 32965 02502 10065 20002 30222 40272 57030 333 21002
AAXX 31061 58150 31950 72001 10067 21033 30278 40282 57022 70500 80002 333 21015
AAXX 31061 58238 31957 51602 10083 21007 30227 40273 57031 70500 85040 333 20007
AAXX 31061 58251 31550 21602 10074 21008 30268 40273 57025 70500 82500 333 21023
AAXX 31061 58606 31756 82901 10098 20014 30218 40277 57028 70500 885// 333 20069
AAXX 31061 58752 31758 70202 10119 20042 30220 40267 57024 70500 875// 333 20074
AAXX 31061 58847 32664 80701 10135 20064 30145 40249 57023 885// 333 20097
AAXX 31061 59134 32766 71104 10165 20077 30067 40236 57025 875// 333 20122
AAXX 31061 59644 31557 73405 10161 20078 30211 40228 57034 70500 878// 333 20127
AAXX 31061 59758 11465 80404 10176 20145 30139 40216 57027 69911 70060 888// 333 20153
AAXX 31061 50745 32965 03402 11141 21212 30111 40314 57009 333 21235
AAXX 31061 50774 32960 60000 11183 21233 39968 40307 57012 80002 333 21293
AAXX 31061 54094 32975 01601 11127 21214 39959 40287 57018 333 21256
AAXX 31061 54102 32980 02005 11160 21197 39083 40380 57014 333 21244
AAXX 31061 54374 32970 01601 11091 21161 39786 40287 57028 333 21216
AAXX 31061 56029 32980 02002 10009 21245 36481 57036 333 00151 21188
AAXX 31064 43400 NIL
AAXX 31064 43404 22470 3//// 10285 20228 30124 40134 83101 333 58043 60007 70399 83818
AAXX 31064 43410 NIL
AAXX 31064 43413 22470 40901 10286 20246 30125 40129 84200 333 58036 60007 70000 84818
AAXX 31064 43415 22470 40501 10296 20212 30017 40125 84100 333 58028 60007 70000 84818
AAXX 31064 43418 22470 51605 10285 20231 3//// 4//// 84332 333 5//// 60007 70000 83818 81920 83278
AAXX 31064 43421 22470 42301 10286 20224 30022 40124 84100 333 58024 60007 70000 84818
AAXX 31064 43422 21470 311// 10292 20228 39993 40123 7034/ 83100 333 58021 60007 70000 83819
AAXX 31064 43424 22478 22303 10299 20204 30109 40113 82100 333 58022 60007 70000 82818
AAXX 31064 43436 22470 20506 10298 20221 30120 40124 82100 333 58024 60007 70000 82818
AAXX 31064 43441 22470 323// 10310 20194 39982 40111 83600 333 58017 60007 70000 83716
AAXX 31064 43444 22470 10502 10278 20188 39584 40117 81100 333 58014 60007 70000 81818
AAXX 31064 43467 22966 02302 10310 20183 30113 40118 333 58012 60007 70000
AAXX 31064 43473 22970 00906 10216 20035 38139 48497 333 58014 60007 70000
AAXX 31064 43475 22470 21402 10296 20232 30111 40120 82200 333 58017 60007 70000 82818
AAXX 31064 43476 22970 00906 10228 20160 38785 48532 333 58017 60007 70000
AAXX 31064 43479 21460 10501 10269 20173 39275 70240 81100 333 58017 60007 70000 81818
AAXX 31064 43486 22470 10000 10318 20182 30017 40111 81100 333 58010 60007 70000 81810
AAXX 31064 43495 22470 5//// 10310 20212 30107 40123 82131 333 58012 60007 70000 81818 85278
AAXX 31064 43497 22476 11803 10294 20230 30100 40117 81200 333 58017 60007 70000 81818
AAXX 31064 78958 11465 40805 10257 20230 30131 40141 69911 72500 83801 333 10306 20232 58000 83818
AAXX 31061 57265 32962 01602 10111 20032 30155 40269 57030 333 21011
AAXX 31061 57494 31959 72501 10103 20036 30246 40276 57028 70500 8703/ 333 20044
AAXX 31061 59287 32663 50204 10189 20091 30142 40228 57035 81540 333 20117
AAXX 31061 59316 32962 50901 10183 20104 30220 40225 57028 85040 333 20142
AAXX 31061 59431 32760 83403 10140 20051 30101 40250 57040 885// 333 20108
AAXX 31061 57516 31920 03601 10119 20055 39955 40271 57046 71000 333 00002 20054
AAXX 31061 57816 32560 21401 10085 20007 38845 40267 57037 82100 333 00006 20006
AAXX 31061 51463 11768 73401 11060 21077 39305 40491 57004 69961 77077 86502 333 01305 21124
AAXX 31061 52203 32980 01103 11057 21150 39460 40405 57019 333 00151 21176
AAXX 31064 43466 22970 01403 10310 20205 30100 40112 333 58009 60007 70000
AAXX 31061 38353 12998 00502 11027 21076 39497 40444 58008 69920 333 21070
AAXX 31061 38613 42999 00301 11021 21071 40398 54000 60020 333 21083
AAXX 31061 38616 12597 11801 11018 21079 39327 40387 58011 69930 81500 333 21100
AAXX 31061 38345 32999 01201 11052 21116 38925 48604 58004 333 21177
AAXX 31061 36911 12999 00000 11054 21109 39428 40451 58006 69930 333 21136
AAXX 31061 36974 12998 00000 11118 21153 38110 48680 52022 69970 333 21190
AAXX 31061 36982 42999 00000 11174 21224 36584 47280 52006 333 21240
AAXX 31061 57687 31750 82502 10087 20043 30201 40287 57028 70500 885// 333 20056
AAXX 31061 58040 31957 72502 10048 21023 30264 40278 57028 70500 8704/ 333 21027
AAXX 31061 58221 31658 23601 10086 21012 30240 40269 57031 70500 82500 333 21012
AAXX 31061 58457 31740 71802 10073 20009 30219 40273 57033 71000 875// 333 20026
AAXX 31061 59117 31958 61401 10160 20080 30130 40237 57032 70500 86040 333 20114
AAXX 31061 50468 32970 03202 11209 21258 30097 40332 57008 333 21301
AAXX 31061 53463 32961 02203 11033 21133 39040 40344 57020 333 00152 21108
AAXX 31061 53513 32970 01802 11018 21136 39070 40352 57020 333 00102 21156
AAXX 31061 54337 32980 00402 11021 21166 30199 40287 57018 333 21139
AAXX 31061 54471 32960 00204 11031 21164 30277 40283 57016 333 21108
AAXX 31061 54497 11557 80702 11040 21076 30252 40269 57018 69961 71070 885// 333 21110
AAXX 31061 52533 32980 00902 11006 21169 38593 40358 57012 333 05101 21151
AAXX 31061 52652 32980 03204 10016 21173 38593 40327 57017 333 05304 21180
AAXX 31061 52983 31956 00402 11004 21076 38154 57030 70500 333 05101 21128
AAXX 31061 53588 32980 02904 11051 21172 37794 57007 333 21106
AAXX 31061 53772 31912 71801 10011 21047 39345 40305 57025 70440 80002 333 21070
AAXX 31061 53915 32962 00701 10057 21059 38721 40302 57031 333 05103 21070
AAXX 31061 54511 32961 02203 10045 21116 30230 40272 57024 333 21065
AAXX 31061 56080 32980 00202 10027 21230 37159 57036 333 00000 21172
AAXX 31061 56096 32968 01802 10076 21024 39002 40270 57047 333 00002 21014
AAXX 31061 58362 32968 00403 10087 21003 30263 40271 57030 333 20001
AAXX 31061 50953 32960 23601 11105 21185 30090 40284 57011 80002 333 21222
AAXX 31061 52866 32968 02501 10023 21167 37727 57037 333 00001 21164
AAXX 31061 54342 32960 32902 11054 21155 30216 40281 57010 80002 333 21162
AAXX 31061 54823 31958 73202 10040 21018 30062 40277 57018 71000 80001 333 21004
AAXX 31061 57083 31920 50402 10050 21010 30127 40268 57020 71040 80002 333 21023
AAXX 31061 51288 11580 72902 11111 21147 38458 57002 69901 72270 82532 333 00859 21193
AAXX 31061 54218 32965 00702 11035 21171 39455 40300 57020 333 21158
AAXX 31061 51133 11680 72202 11048 21076 39797 40487 52002 69931 70070 86502 333 01552 21062
AAXX 31061 51431 32975 40902 11005 21053 39638 40472 54000 80002 333 01605 21053
AAXX 31061 52418 32980 02706 11020 21151 38991 40391 57011 333 00101 21154
AAXX 31061 52681 32980 01102 10008 21148 38705 40342 57024 333 05103 21127
AAXX 31061 53564 31960 02201 11019 21097 39276 40349 57024 70040 333 00100 21151
AAXX 31061 53959 31920 03601 10038 21014 39848 40306 57032 71000 333 21026
AAXX 31061 50136 32970 00000 11224 21274 39766 40373 57009 333 21357
AAXX 31061 50788 32970 43402 11172 21220 30197 40291 57002 80002 333 21245
AAXX 31061 53614 31940 70401 10000 21089 38995 40345 57023 70500 80002 333 00101 21108
AAXX 31061 53646 32970 03203 11009 21144 38930 40330 57020 333 00151 21119
AAXX 31061 53845 32965 01602 10033 21093 39156 40316 57030 333 00000 21068
AAXX 31061 54292 32970 60701 11117 21205 39926 40273 57019 80002 333 21222
AAXX 31061 54843 32964 83202 10044 21027 30248 40277 57020 8807/ 333 21037
AAXX 31061 54909 32964 80000 10039 20001 30202 40268 57022 8807/ 333 21010
AAXX 31061 57131 31956 72202 10047 21007 39799 40310 57034 71000 8703/ 333 21022
AAXX 31061 54161 32960 43201 11093 21193 39963 40279 57011 80002 333 21192
AAXX 31061 57127 32960 81401 10070 20023 39672 40296 57034 8807/ 333 20025
AAXX 31061 08501 NIL
AAXX 31061 08505 NIL
AAXX 31061 08509 32560 42206 10170 20144 30268 40333 58005 83150 333 20168 50294 55017 83822 91011 91112
AAXX 31061 08512 32375 42404 10167 20146 30267 40353 57005 84800 333 20166 30015 5//// 55065 20911 81708 83812 91107
AAXX 31061 08515 32480 11702 10147 20127 30238 40361 57007 81200 333 20144 31013 50384 55/// 81816 910// 911//
AAXX 31061 08533 32/// /0502 10088 20037 30302 40332 57005 333 20072 30001 5//// 55086 21298 91107
AAXX 31061 08541 32/// /3605 10066 20042 30215 40339 57005 333 20063 30004 5//// 55081 21117
AAXX 31061 08545 31458 50904 10052 20020 30259 40346 57009 71011 85802 333 20046 30001 50224 55080 20805 83814 83625 91009 91109
AAXX 31061 08548 32/// /0701 10069 20039 30133 40345 57007 333 20048 30001 5//// 55080 20947
AAXX 31061 08554 32965 09901 10064 20011 30319 40329 57004 333 20040 30006 5//// 55085 21162
AAXX 31061 08558 32/// /3202 10045 20025 30029 40335 57002 333 20029 30102 5//// 55000 21049
AAXX 31061 08560 32/// /3304 10050 21012 39562 40343 57009 333 20043 30102 5//// 55076 20925 91106
AAXX 31061 08567 32/// /0000 10021 20002 39664 40356 57005 333 20013 30101 5//// 55062 20783
AAXX 31061 08570 32/// /2701 1//// 29068 3//// 4//// 5//// 333 21170 30001 5//// 55082 20951
AAXX 31061 08575 32/// /0000 11013 21020 39507 40360 57006 333 21019 30103 5//// 55073 20900
AAXX 31061 08579 32/// /2402 10098 20073 30211 40340 57003 333 20093 30007 5//// 55083 21007 91105
AAXX 31064 60285 32956 01404 10107 20093 40303 5//// 333 20097
AAXX 31064 65306 32960 50000 10147 20020 39812 40148 80002 333 01000 20147 50934 55102 58004 85076
AAXX 31064 65319 32960 51404 10190 20005 39625 40140 80002 333 01800 20183 50614 55095 58006 85076
AAXX 31064 65330 31956 50406 10190 20006 39689 40127 70522 80002 333 01700 20189 50764 55094 0//// 58000 85076
AAXX 31064 65335 32958 50402 10201 20077 39903 40127 80002 333 01600 20190 50564 55093 59001 85076
AAXX 31064 65344 31325 73404 10245 20238 30109 40120 71022 85502 333 02300 20242 50274 55075 58001 85608 85076
AAXX 31061 40706 11650 60703 10002 21037 38689 40278 51008 60001 70522 81471 333 31409 70000 81640 84359
AAXX 31061 40718 11557 72705 10092 20079 30240 40211 53011 60001 71020 84570 222// 00100 20202 333 30000 50101 70000 84630 87360
AAXX 31061 40732 12660 49901 10082 20045 30223 40199 53006 60001 84501 333 30103 50091 70000 84635
AAXX 31061 40745 11958 00000 10020 21045 39114 40308 54000 60001 70500 333 30109 70000
AAXX 31061 40754 11957 30000 10052 21033 38903 40284 52008 60001 70521 81032 333 30105 5//// 70000 81360
AAXX 31061 40766 12660 81502 10052 21036 38761 40281 52013 60001 8432/ 333 30107 70000 82935 83640 88458
AAXX 31061 40800 11940 50000 10004 21046 38531 40309 53009 60001 70500 82032 333 30109 5///1 70000 82360 83070
AAXX 31061 40811 11657 70000 10114 20042 30221 40248 53015 60001 70522 86370 90545 333 30002 50231 70000 82935 84640 87359
AAXX 31061 40841 12965 00000 10024 21071 38330 40303 51006 60001 333 30112 5//// 70000
AAXX 31061 40848 12960 30000 10048 21058 38604 40296 52016 60001 80002 333 30106 5///1 70000 83070
AAXX 31061 40856 12962 00202 10090 21103 38705 40276 50016 60001 333 30110 5///1 70000
AAXX 31061 40875 12965 00405 10210 21083 30231 40242 50018 60001 333 30007 50631 70000
AAXX 31061 40706 11650 60703 10002 21037 38689 40278 51008 60001 70522 81471 333 31409 70000 81640 84359
AAXX 31061 40718 11557 72705 10092 20079 30240 40211 53011 60001 71020 84570 222// 00100 20202 333 30000 50101 70000 84630 87360
AAXX 31061 40732 12660 49901 10082 20045 30223 40199 53006 60001 84501 333 30103 50091 70000 84635
AAXX 31061 40745 11958 00000 10020 21045 39114 40308 54000 60001 70500 333 30109 70000
AAXX 31061 40754 11957 30000 10052 21033 38903 40284 52008 60001 70521 81032 333 30105 5//// 70000 81360
AAXX 31061 40766 12660 81502 10052 21036 38761 40281 52013 60001 8432/ 333 30107 70000 82935 83640 88458
AAXX 31061 40800 11940 50000 10004 21046 38531 40309 53009 60001 70500 82032 333 30109 5///1 70000 82360 83070
AAXX 31061 40811 11657 70000 10114 20042 30221 40248 53015 60001 70522 86370 90545 333 30002 50231 70000 82935 84640 87359
AAXX 31061 40841 12965 00000 10024 21071 38330 40303 51006 60001 333 30112 5//// 70000
AAXX 31061 40848 12960 30000 10048 21058 38604 40296 52016 60001 80002 333 30106 5///1 70000 83070
AAXX 31061 40856 12962 00202 10090 21103 38705 40276 50016 60001 333 30110 5///1 70000
AAXX 31061 40875 12965 00405 10210 21083 30231 40242 50018 60001 333 30007 50631 70000
AAXX 31061 28676 32697 51803 11105 21138 30179 40313 52030 82509 333 21112
AAXX 31061 28766 32997 62305 11117 21166 30114 40315 52021 80001 333 21112
AAXX 31061 28867 NIL
AAXX 31061 28879 32997 02404 11105 21151 30040 40344 52027 333 21115
AAXX 31061 28952 NIL
AAXX 31061 28966 32998 22103 11144 21185 30055 40359 52022 80001 333 21145
AAXX 31061 29802 32597 81903 11072 21098 30170 40319 52019 85531 333 21082
AAXX 31061 29807 32997 02502 11104 21141 30208 40333 52014 333 21087
AAXX 31061 34691 32998 81604 10006 21044 30194 40181 57003 8802/ 333 21009
AAXX 31061 35067 32998 21903 11124 21180 30090 40385 52019 80001 333 21140
AAXX 31061 35078 31998 02307 11146 21179 39983 40390 52024 73630 333 21157
AAXX 31061 35085 11998 02405 11122 21160 39865 40370 52020 69930 70231 333 21125
AAXX 31061 35108 32597 61104 11098 21119 30198 40246 57002 86500 333 21117
AAXX 31061 35188 11998 32403 11092 21131 39936 40393 52025 69900 73673 82039 333 21105
AAXX 31061 35217 31998 21408 11098 21110 30214 40255 57010 73630 82040 333 21147
AAXX 31061 35229 NIL
AAXX 31061 35302 32998 61806 11084 21099 30209 40229 57008 86050 333 21102
AAXX 31061 35357 32997 02005 11105 21133 39962 40422 52013 333 21134
AAXX 31061 35394 11997 82205 11104 21124 39714 40431 52011 69920 77173 8802/ 333 21115
AAXX 31061 35406 32997 21509 11063 21095 30234 40236 57008 82030 333 21120
AAXX 31061 35416 NIL
AAXX 31061 35426 NIL
AAXX 31061 35497 11998 82002 11103 21132 39614 40460 52014 69950 70273 8801/ 333 21116
AAXX 31061 35532 NIL
AAXX 31061 35671 32998 82204 11048 21084 30008 40456 52013 8807/ 333 21102
AAXX 31061 35700 32998 21306 11032 21075 30250 40226 57004 82080 333 21041
AAXX 31061 35746 32998 20803 11102 21108 30343 40414 53008 82030 333 21120
AAXX 31061 35796 11597 72704 11059 21094 30022 40477 52005 69900 77772 87600 333 21120
AAXX 31061 35849 32998 01101 11041 21083 30320 40409 53003 333 21092
AAXX 31061 35925 32998 01408 11058 21076 40313 52002 333 21070
AAXX 31061 35953 32699 61004 11031 21073 30287 40422 52001 86500 333 21050
AAXX 31061 35969 32999 00501 11048 21084 30265 40446 54000 333 21040
AAXX 31061 36003 11999 22804 11059 21094 30191 40348 52013 69920 70171 80001 333 21068
AAXX 31061 36152 32598 52504 11062 21138 30189 40385 52017 83530 333 21061
AAXX 31061 36177 11596 82206 11066 21086 30148 40404 52001 69940 78583 883// 333 21067
AAXX 31061 36208 11999 72703 11074 21116 39399 40417 52014 69990 73633 85041 333 21090
AAXX 31061 36397 32699 71804 11065 21110 39849 40434 52007 82530 333 21106
AAXX 31061 36428 11496 82902 11069 21094 39936 40457 52007 69900 77172 8372/ 333 21103 95070
AAXX 31061 36535 32599 70000 11140 21167 39800 40479 52010 84530 333 21189
AAXX 31061 36639 11996 80000 11056 21078 39847 40477 52002 60010 77172 8802/ 333 21075
AAXX 31061 36821 31996 70000 11077 21087 39964 40480 58002 71011 80002 333 21111
AAXX 31061 36859 11599 20902 11020 21065 39667 40474 52002 69940 70171 81240 333 21060
AAXX 31061 36864 NIL
AAXX 31061 36870 12597 70102 11036 21067 39395 40447 58008 69900 87900 333 21050
AAXX 31061 38001 32597 80710 10028 21020 30181 40151 57003 885// 333 20017
AAXX 31061 38062 32999 00903 11011 21077 30251 40419 57003 333 21026
AAXX 31061 38069 32998 00702 11019 21076 30218 40416 57002 333 21039
AAXX 31061 38196 NIL
AAXX 31061 38198 NIL
AAXX 31061 38222 32998 00000 11132 21159 39872 40478 58004 333 21199
AAXX 31061 38232 32998 11307 11002 21075 30155 40256 57023 80009 333 21024
AAXX 31061 38328 NIL
AAXX 31061 38334 NIL
AAXX 31061 38341 32999 00000 11080 21121 39610 40444 58006 333 21144
AAXX 31061 38343 32998 00000 11107 21143 39557 40461 58007 333 21160
AAXX 31061 38439 NIL
AAXX 31064 88878 46/// /2322 10134 20086 40008 52033
AAXX 31064 88883 46/// /2312 10102 20053 40019 52032
AAXX 31064 88897 46/// /2818 10101 20070 49979 52033
AAXX 31061 28676 32697 51803 11105 21138 30179 40313 52030 82509 333 21112
AAXX 31061 28766 32997 62305 11117 21166 30114 40315 52021 80001 333 21112
AAXX 31061 28867 NIL
AAXX 31061 28879 32997 02404 11105 21151 30040 40344 52027 333 21115
AAXX 31061 28952 NIL
AAXX 31061 28966 32998 22103 11144 21185 30055 40359 52022 80001 333 21145
AAXX 31061 29802 32597 81903 11072 21098 30170 40319 52019 85531 333 21082
AAXX 31061 29807 32997 02502 11104 21141 30208 40333 52014 333 21087
AAXX 31061 34691 32998 81604 10006 21044 30194 40181 57003 8802/ 333 21009
AAXX 31061 35067 32998 21903 11124 21180 30090 40385 52019 80001 333 21140
AAXX 31061 35078 31998 02307 11146 21179 39983 40390 52024 73630 333 21157
AAXX 31061 35085 11998 02405 11122 21160 39865 40370 52020 69930 70231 333 21125
AAXX 31061 35108 32597 61104 11098 21119 30198 40246 57002 86500 333 21117
AAXX 31061 35188 11998 32403 11092 21131 39936 40393 52025 69900 73673 82039 333 21105
AAXX 31061 35217 31998 21408 11098 21110 30214 40255 57010 73630 82040 333 21147
AAXX 31061 35229 NIL
AAXX 31061 35302 32998 61806 11084 21099 30209 40229 57008 86050 333 21102
AAXX 31061 35357 32997 02005 11105 21133 39962 40422 52013 333 21134
AAXX 31061 35394 11997 82205 11104 21124 39714 40431 52011 69920 77173 8802/ 333 21115
AAXX 31061 35406 32997 21509 11063 21095 30234 40236 57008 82030 333 21120
AAXX 31061 35416 NIL
AAXX 31061 35426 NIL
AAXX 31061 35497 11998 82002 11103 21132 39614 40460 52014 69950 70273 8801/ 333 21116
AAXX 31061 35532 NIL
AAXX 31061 35671 32998 82204 11048 21084 30008 40456 52013 8807/ 333 21102
AAXX 31061 35700 32998 21306 11032 21075 30250 40226 57004 82080 333 21041
AAXX 31061 35746 32998 20803 11102 21108 30343 40414 53008 82030 333 21120
AAXX 31061 35796 11597 72704 11059 21094 30022 40477 52005 69900 77772 87600 333 21120
AAXX 31061 35849 32998 01101 11041 21083 30320 40409 53003 333 21092
AAXX 31061 35925 32998 01408 11058 21076 40313 52002 333 21070
AAXX 31061 35953 32699 61004 11031 21073 30287 40422 52001 86500 333 21050
AAXX 31061 35969 32999 00501 11048 21084 30265 40446 54000 333 21040
AAXX 31061 36003 11999 22804 11059 21094 30191 40348 52013 69920 70171 80001 333 21068
AAXX 31061 36152 32598 52504 11062 21138 30189 40385 52017 83530 333 21061
AAXX 31061 36177 11596 82206 11066 21086 30148 40404 52001 69940 78583 883// 333 21067
AAXX 31061 36208 11999 72703 11074 21116 39399 40417 52014 69990 73633 85041 333 21090
AAXX 31061 36397 32699 71804 11065 21110 39849 40434 52007 82530 333 21106
AAXX 31061 36428 11496 82902 11069 21094 39936 40457 52007 69900 77172 8372/ 333 21103 95070
AAXX 31061 36535 32599 70000 11140 21167 39800 40479 52010 84530 333 21189
AAXX 31061 36639 11996 80000 11056 21078 39847 40477 52002 60010 77172 8802/ 333 21075
AAXX 31061 36821 31996 70000 11077 21087 39964 40480 58002 71011 80002 333 21111
AAXX 31061 36859 11599 20902 11020 21065 39667 40474 52002 69940 70171 81240 333 21060
AAXX 31061 36864 NIL
AAXX 31061 36870 12597 70102 11036 21067 39395 40447 58008 69900 87900 333 21050
AAXX 31061 38001 32597 80710 10028 21020 30181 40151 57003 885// 333 20017
AAXX 31061 38062 32999 00903 11011 21077 30251 40419 57003 333 21026
AAXX 31061 38069 32998 00702 11019 21076 30218 40416 57002 333 21039
AAXX 31061 38196 NIL
AAXX 31061 38198 NIL
AAXX 31061 38222 32998 00000 11132 21159 39872 40478 58004 333 21199
AAXX 31061 38232 32998 11307 11002 21075 30155 40256 57023 80009 333 21024
AAXX 31061 38328 NIL
AAXX 31061 38334 NIL
AAXX 31061 38341 32999 00000 11080 21121 39610 40444 58006 333 21144
AAXX 31061 38343 32998 00000 11107 21143 39557 40461 58007 333 21160
AAXX 31061 38439 NIL
AAXX 31061 48916 32698 60202 10284 20241 30069 40116 58021 865// 333 59001 86696
AAXX 31061 48919 32598 70508 10269 20246 30099 40121 58023 83208 22200 02265 2//04 333 58018 83895 87299
AAXX 31061 48823 01396 83602 10139 20114 30227 40230 57028 69913 71052 8712/ 333 58020 69911 86793 88499 555 20130
AAXX 31063 64800 NIL
AAXX 31063 64820 NIL
AAXX 31063 64860 32960 70000 10194 20094 39856 40125 80002 333 00800 20181 50850 55103 58005 87080
AAXX 31063 64861 NIL
AAXX 31063 64870 32960 71804 10093 20065 38928 48518 80002 333 00800 20083 50560 55108 59007 87080
AAXX 31063 64871 NIL
AAXX 31063 64892 NIL
AAXX 31063 64893 NIL
AAXX 31063 64894 NIL
AAXX 31063 64910 31440 70000 10254 20245 30118 40127 71799 87900 333 02100 20254 50011 55080 59007 87613 82916 94979 95879
AAXX 31063 64911 NIL
AAXX 31063 64950 NIL
AAXX 31061 48917 32598 70504 10290 20215 30123 40129 58017 8321/ 222// 00285 2//00 333 58005 83895 86499
AAXX 31061 48914 12598 80905 10300 20214 30112 40114 57027 69923 888// 333 58005 82895 86696
AAXX 31061 48900 32497 60307 10302 20194 30106 40116 57029 868// 333 58013 81894 85696
AAXX 31061 48918 01470 80506 10262 20228 30109 40120 57022 69913 70382 889// 222// 00263 2//03 333 58004 6991 1 81894 82995 86696 91116 91507
AAXX 31061 48820 32598 80202 10148 20117 30225 40233 57029 888// 333 58012 83895 88697
AAXX 31064 87007 NIL
AAXX 31064 87022 NIL
AAXX 31064 87046 11960 32904 10200 20192 39085 48484 57020 60041 70162 83070 333 56090 83360
AAXX 31064 87047 NIL
AAXX 31064 87097 31930 60504 10211 20211 39770 40077 57016 71022 85076 333 56099 85360 85275
AAXX 31064 87121 NIL
AAXX 31064 87129 32965 00000 10254 20207 39853 40076 58009
AAXX 31064 87155 31960 00000 10206 20181 30014 40073 57013 70400
AAXX 31064 87162 32970 30000 10250 20204 30000 40070 57008 83070 333 56060 83460
AAXX 31064 87166 NIL
AAXX 31064 87178 32970 00000 10233 20178 39918 40059 57013
AAXX 31064 87217 NIL
AAXX 31064 87222 32970 00510 10269 20158 39546 40050 58005
AAXX 31064 87257 32965 00905 10220 20134 30001 40100 50003
AAXX 31064 87270 NIL
AAXX 31064 87289 NIL
AAXX 31064 87311 32665 21809 10280 20105 39426 40072 58004 82500 333 56000 82640
AAXX 31064 87320 NIL
AAXX 31064 87328 32980 00508 10214 20145 39468 40096 52008 333 95090
AAXX 31063 87148 32970 00000 10241 20209 39961 40066 58004
AAXX 31061 30372 42999 00000 11272 21296 39446 40417 57010
AAXX 31061 30433 42999 70602 11173 21199 39727 40366 58012 83031
AAXX 31061 30554 42998 00000 11229 21262 39215 40410 58012
AAXX 31061 30635 41999 01203 11179 21213 39748 40365 58016 73631
AAXX 31061 30673 42999 00000 11196 21229 39527 40358 58010
AAXX 31061 30692 41996 00000 11225 21257 39800 40342 58/// 71000
AAXX 31061 30758 41995 00000 11237 21277 39518 40423 58004 70500
AAXX 31061 30802 41698 73201 11104 21140 38716 48500 57008 71522 8597/ 333 95755
AAXX 31061 30823 42999 30000 11254 21285 39708 40418 58023 80001
AAXX 31061 30879 42999 00000 11242 21274 39542 40381 58006
AAXX 31061 30935 42999 00000 11244 21276 39400 40438 58015
AAXX 31061 30949 42999 20000 11119 21181 39212 40360 58005 80001
AAXX 31061 30965 42999 20401 11199 21240 39488 40385 52001 80002
AAXX 31061 31168 NIL
AAXX 31061 31300 41999 00000 11260 21271 30016 40339 57010 74000
AAXX 31061 31329 42999 00000 11250 21305 39588 40326 57010
AAXX 31061 31369 42999 82701 11189 21201 30191 40283 57005 80007
AAXX 31061 31416 42998 80000 11204 21216 30200 40297 57006 82017
AAXX 31061 31484 42999 00000 11182 21215 39933 40297 57012
AAXX 31061 31512 429// 03202 11199 21248 30142 40324 58006
AAXX 31061 31538 42999 22201 11234 21274 39835 40311 57010 80001
AAXX 31061 31707 42999 83401 11161 21221 30191 40290 57007 83051
AAXX 31061 31735 42997 70102 11222 21249 30195 40292 55005 80001
AAXX 31061 31770 42599 83402 11123 21206 30226 40258 54000 82531
BBXX PBIG 31064 99119 70687 41598 30929 10263 20196 40130 54000 7//// 8/1// 22222 00290 20203 80219
BBXX V7NV4 31064 99343 11374 41797 63234 10080 20013 40200 56015 7//21 85461 22273 00180 20410 33131 40410 50410 6//// 80050 ICE /////
BBXX WE4805 31064 99439 70866 41/99 60415 10027 2//// 40068 54000 70202 84452 22201 00033 20602 3//// 4//// 5//// 6//// 8//// ICE /////
BBXX NAZJ 31064 99543 71535 41/97 63317 11033 2//// 40091 52/// 7//77 8666/ 22243 04039 20301 32121 40704 50703 6//// 8//// ICE /////
AAXX 31061 22028 11579 71311 11008 21030 39986 40024 52012 69952 73683 87900 333 21015 48049 91014 91120
AAXX 31061 22106 32998 80502 11039 21058 39930 40009 52019 8805/ 333 21041 47020 91005 93501
AAXX 31061 22127 32498 70702 11058 21069 39806 40010 52012 86930 333 21152 47026 84913 91005
AAXX 31061 22324 11472 80503 11033 21044 39919 49969 53018 69992 78582 889// 333 21059 47023 91007
AAXX 31061 22621 11397 82202 10004 21002 39801 49939 52019 60012 77087 8672/ 333 20003 43025 86707
AAXX 31061 22831 11496 82103 10009 20004 39939 49999 52021 60062 78582 889// 333 20006 43036
AAXX 31061 22892 11497 72705 11004 21019 39971 49987 52010 69972 70282 86330 333 51004 86711
AAXX 31061 26275 11497 81803 10005 21003 30017 40048 52011 69902 77172 8802/ 333 20003 88510
AAXX 31061 26389 32497 71902 11004 21028 39803 40069 52003 87600 333 21008
AAXX 31061 26499 32598 71903 11008 21029 39861 40092 52011 87500 333 21014 42003 87620
AAXX 31061 26695 31396 82702 11002 21008 39797 40109 52011 71022 886// 333 21005 42005 88708
AAXX 31061 26882 32465 71602 11006 21021 39828 40107 53013 82530 333 21006
AAXX 31061 22271 32598 80806 11050 21071 30007 40017 52004 885// 333 21080
AAXX 31061 22520 11497 80000 11001 21001 39921 49930 52015 60022 72272 885// 333 21004 88613
AAXX 31061 22550 11470 71803 10012 21008 39972 49982 52011 69990 72682 87400 333 20009 88613
AAXX 31061 22583 12482 71401 11001 21007 39953 40033 52011 60020 875// 333 21043 87612
AAXX 31061 22768 12497 81905 10013 21013 39984 40040 52009 69900 8695/ 333 20010 84912
AAXX 31061 22845 11698 81905 10012 21020 39869 40025 52014 69900 70272 875// 333 20011
AAXX 31061 22887 12499 71704 10008 21009 30016 40087 52010 69910 8555/ 333 20001 85618 91108
AAXX 31061 23205 NIL
AAXX 31061 23219 NIL
AAXX 31061 23418 NIL
AAXX 31061 23606 11260 82003 11010 21013 39921 40093 52012 69970 889// 333 21048 85706
AAXX 31061 23711 11497 81502 11026 21032 39960 40135 52020 69940 78587 889// 21049 86710
AAXX 31061 23804 12397 81802 11005 21017 39963 40111 52012 69900 885// 333 21029 84707
AAXX 31061 27037 32598 81903 10008 21012 39910 40072 52008 885// 333 20010 88632
AAXX 31061 27199 11498 81802 11029 21036 39951 40151 52006 69970 70275 886// 333 21028
AAXX 31061 27271 11494 81103 11019 21021 39965 40123 53006 69940 77372 8872/ 333 21010
AAXX 31061 27459 11498 81702 11030 21043 39932 40132 53008 60020 70272 886// 333 21022 88710
AAXX 31061 27730 11497 82002 11022 21034 39919 40117 53006 60040 70272 885// 333 21025 47010 88610
AAXX 31064 NIL
AAXX 31061 20107 32597 50504 11133 21168 39953 40054 57011 85500 333 21176 91007
AAXX 31061 22003 NIL
AAXX 31061 22004 NIL
AAXX 31061 22100 NIL
AAXX 31061 22140 NIL
AAXX 31061 22113 11584 50801 11027 21046 39959 40022 52017 69942 70381 85500 333 21023 47010 91003
AAXX 31061 22212 11567 70303 11048 21068 39835 40000 52014 69902 70281 85930 333 21078 47029 91005
AAXX 31061 22213 NIL
AAXX 31061 22217 11359 80603 11040 21059 39947 49979 53014 60032 78583 889// 333 21045 47036 86709 91008
AAXX 31061 22235 11430 80704 11047 21053 39795 49991 52014 60042 78682 889// 333 21105 47029 91007
AAXX 31061 22249 11481 82402 11037 21045 39802 49991 52007 60012 77172 8672/ 333 21049 47019 91003
AAXX 31061 22312 11465 80505 11035 21046 39954 49976 52021 69992 73683 885// 333 21051 47022 91009 91110
AAXX 31061 22334 11460 80406 11019 21030 39942 49949 52008 60012 78583 889// 333 21032 47009 91007
AAXX 31061 22349 11596 80607 11013 21023 39949 49961 52007 60032 78583 889// 333 21028 47011 91008 91110
AAXX 31061 22408 11250 83201 11019 21021 39786 49936 52010 69982 77172 8872/ 333 21019 47036 88706
AAXX 31061 22602 11359 82602 11012 21017 39722 49946 52025 60022 77172 885// 333 21013 47027 88608
AAXX 31061 22619 11480 72603 10004 21002 39787 49946 52021 60012 72272 87500 333 20004 43012 87614
AAXX 31061 22721 11498 72601 10007 20001 39861 49961 52028 60022 72682 87900 333 20006 43038 85712
AAXX 31061 22802 11580 71903 10011 20000 39951 49974 53016 69922 70282 87900 333 20010 41998
AAXX 31061 22820 11484 72403 10009 21002 39839 49976 52018 69982 70271 86520 333 20008 43003 86617
AAXX 31061 26059 11396 82503 10006 20000 39988 40013 52014 60022 78582 889// 333 20004 43001 86907
AAXX 31061 26063 11597 62303 10015 21001 39996 40004 52014 69902 72272 86500 333 20015 86627
AAXX 31061 26094 11456 82003 10004 21002 39949 40025 52013 69992 77172 8872/ 333 20004 43001 88713
AAXX 31061 26157 11597 72303 10006 20001 39972 40022 52012 69942 70282 85530 333 20005
AAXX 31061 26167 11465 82003 10009 21008 39915 40027 52005 69942 70282 8595/ 333 20003 42997 85916
AAXX 31061 26258 11497 82301 10009 21005 39984 40040 52009 69902 78582 889// 333 20003
AAXX 31061 26298 32597 72002 10000 21024 39832 40063 52007 87500 333 20000 42001
AAXX 31061 26359 11461 81802 10004 21005 39918 40053 52007 69982 78582 889// 333 20001 43001
AAXX 31061 26702 11596 63001 10012 20004 30045 40071 52016 69982 71084 86500 333 21006 91001 91103
AAXX 31061 26781 31296 81402 11008 21014 39795 40091 53006 71022 886// 333 21015 42998 88705
AAXX 31061 27208 32597 72002 10001 21026 39896 40074 53013 87500 333 20000 42003
AAXX 31061 27402 32997 22001 11015 21023 39905 40087 52009 82030 333 21015 43002
AAXX 31061 26997 11321 80000 11003 21006 39891 40112 53008 60032 77175 8872/ 333 21006 43001 87709
AAXX 31061 27595 32/98 81403 11070 21081 30038 40188 54001 8807/ 333 21074
AAXX 31061 27612 11496 80000 10006 21002 39906 40100 53008 69982 71072 887// 333 20005 43008
AAXX 31061 27707 11549 72001 11005 21011 39812 40109 52011 69942 71072 87500 333 21006 43015 87625
AAXX 31061 27719 11495 80000 10002 21004 39862 40114 53010 60022 72272 8872/ 333 20002 43005
AAXX 31061 27786 31497 81204 11058 21069 30024 40190 57003 77172 885// 333 21065 88612
AAXX 31061 27857 31496 81703 11023 21026 39975 40141 53004 75152 886// 333 21034 88710 93401
AAXX 31061 27906 11395 81702 10002 21001 39869 40113 52010 69952 71082 886// 333 20000 43001
AAXX 31061 27928 NIL
AAXX 31061 27947 11397 81603 11013 21023 39976 40138 53005 69900 72452 887// 333 21033 42005 88708
AAXX 31061 27962 31497 81102 11038 21053 40160 50001 77172 885// 333 21056 88610
AAXX 31061 27983 11497 81303 11061 21069 30067 40200 56006 69900 77172 886// 333 21084 88712
AAXX 31061 27995 11498 81403 11062 21089 40216 54000 69900 77172 8802/ 333 21089
AAXX 31061 28506 32997 81703 11074 21092 30106 40223 53003 8801/ 333 21080
AAXX 31061 28704 32998 81203 11065 21085 30120 40218 57003 85072 333 21135
AAXX 31061 28711 31998 81705 11090 21113 39857 40250 54001 70331 88050 333 21100
AAXX 31061 28807 32697 81103 11078 21100 30180 40234 58001 8757/ 333 21105 87645
AAXX 31061 34009 11494 81701 11002 21005 39809 40118 53009 60032 78587 889// 333 21004 43008 93713
AAXX 31061 34110 NIL
AAXX 31061 34123 11542 82101 11012 21022 39945 40132 53004 69930 71072 889// 333 21028 88920
AAXX 31061 34152 31297 81601 11008 21008 39948 40148 57002 77172 8872/ 333 86706
AAXX 31061 34163 11498 80902 11039 21047 40167 54000 69930 70288 885// 333 88620
AAXX 31061 34171 11230 81605 11024 21027 39970 40168 55002 69960 77172 8872/ 333 21056 88504
AAXX 31061 34186 11496 81506 11052 21059 30058 40201 53003 69920 77172 8872/ 333 21080 88711
AAXX 31061 34247 11558 82102 11001 21009 30039 40155 52011 69900 71072 885// 333 21010 88620
AAXX 31061 34336 31956 81701 11003 21009 30049 40154 53013 71022 8802/ 333 21003
AAXX 31061 34391 12497 81605 11031 21041 30166 40198 53002 69900 885// 333 21063 88619 93401
AAXX 31061 35011 32999 81104 11125 21160 40281 57001 80001 333 21140
AAXX 31061 35121 32998 21103 11155 21186 30157 40316 54000 80001 333 21169
AAXX 31064 NIL
AAXX 31064 NIL
AAXX 31064 NIL
AAXX 31064 NIL
AAXX 31064 82022 32970 00502 10237 20197 30008 40104 333 59005
AAXX 31064 82193 32970 00903 10252 20238 30082 40102 333 59002
AAXX 31064 82281 32970 00706 10264 20210 30037 40099 333 59002
AAXX 31064 82332 32270 31402 10254 20244 30011 40104 81530 333 58005
AAXX 31064 82398 32470 40912 10257 20228 30080 40109 84500 333 59002
AAXX 31064 82400 NIL
AAXX 31064 82579 32970 03202 10266 20231 30010 40085 333 59009
AAXX 31064 82917 31457 43303 10236 20228 39882 40104 71011 82530 333 59003
AAXX 31064 82965 NIL
AAXX 31064 82993 32470 30302 10228 20222 39985 40121 83100 333 59004
AAXX 31064 83208 NIL
AAXX 31064 83349 32470 42704 10249 20238 30120 40126 84200 333 59007
AAXX 31064 83362 21570 63608 10239 20211 39882 40098 70261 84130 333 59009 69931
AAXX 31064 83378 21565 63203 10201 20183 38953 48510 72162 83530 333 59007 69901
AAXX 31064 83460 32570 63604 10232 20220 30062 40119 81130 333 59013
AAXX 31064 83497 NIL
AAXX 31064 83566 21158 70000 10172 20170 39203 48/// 72196 85600 333 58004 60041
AAXX 31064 83599 NIL
AAXX 31064 83612 32170 50403 10221 20202 39463 48510 57011 81630
AAXX 31064 83649 32570 60000 10236 20226 30111 40116 57021 82230
AAXX 31064 83650 NIL
AAXX 31064 83780 31460 60604 10201 20160 39213 48510 58017 70522 86500
AAXX 31064 83827 NIL
AAXX 31064 83840 21256 80907 10168 20158 39097 48500 56022 71062 886// 333 60021
AAXX 31064 83899 NIL
AAXX 31064 83925 NIL
AAXX 31064 83970 NIL
AAXX 31064 83971 32970 51110 10212 20192 30087 40091 58012 85030
AAXX 31064 82143 NIL
AAXX 31064 82599 32470 41206 10250 20226 30048 40108 84100 333 59006
AAXX 31064 82824 42970 53302 10254 20238 30003 40103 85010 333 59002
AAXX 31064 82899 32570 41007 10266 20220 30110 40122 84200 333 59002
AAXX 31064 83117 NIL
AAXX 31064 83248 32470 30906 10279 20250 30103 40125 83200 333 59004
AAXX 31064 83746 31965 31207 10219 20199 30105 40115 58019 71011 83500
AAXX 31064 NIL
AAXX 31064 NIL
AAXX 31064 NIL
AAXX 31064 NIL
AAXX 31064 NIL
AAXX 31064 70133 31956 00805 11344 30082 40088 710// 90553 333 11294 21350 555 93106
AAXX 31064 70174 31466 40000 11433 39839 40114 53019 90553 333 11394 21450 4/076 555 93106
AAXX 31064 70200 32966 60103 11333 21356 30086 40091 51012 90553 333 11261 21344 555 93106
AAXX 31064 70219 12966 02307 11328 21361 30063 40124 51011 69901 90553 333 11294 21339 555 93106
AAXX 31064 70231 15466 40000 11378 39965 40105 51007 69931 90553 333 11333 21383 555 93106
AAXX 31064 70261 11259 80703 11311 21344 39908 40097 51017 69901 771// 90553 333 11306 21361 96010 555 93106
AAXX 31064 70267 11561 80000 11300 21333 39576 40116 51020 69901 771// 90553 333 11294 21356 555 93106
AAXX 31064 70271 12666 81303 11233 21256 39399 40039 51026 69901 90553 333 11217 21294 4/010 555 93106
AAXX 31064 70273 11420 80000 11128 21150 39946 40006 51023 69931 771// 90553 333 11128 21156 4/071 555 93106
AAXX 31064 70316 15566 63508 11106 21144 30083 40120 53013 69901 90553 333 11056 21106 555 93106
AAXX 31064 70326 32966 00000 11333 21367 30089 40102 51016 90554 333 11250 21333 4/005 555 93106
AAXX 31064 70340 32966 03505 11272 21322 30029 40096 53021 90553 333 11233 21272 555 93106
AAXX 31064 70350 32566 22405 11150 21222 30003 40043 53021 90553 333 11106 21161 4/003 555 93106
AAXX 31064 70361 17440 62506 11044 21078 30033 40044 51022 69981 771// 90553 333 11033 21117 555 93106
AAXX 31064 70381 11566 80904 11022 21050 30071 40080 51031 69931 771// 90553 333 11022 21078 4/015 555 93106
AAXX 31064 70414 37448 83219 11044 21067 30102 40141 52002 771// 90556 333 11011 21044 96010 555 93106
BBXX WDE8288 31063 99144 10537 41598 10322 10240 2018/ 40185 52028 7//10 811// 22264 0//// 20204 336// 40506 5//// 6//// 80200 ICE /////
BBXX SHJC 31061 99131 10574 43/98 40215 10249 40179 55009 22274 00260 2//// 4////
BBXX DMQN 31064 99064 70292 41/97 /0520 10250 20207 40122 57013 700// 8//// 22244 04270 2//// 3//// 4//// 5//// 80220
BBXX A8ZP9 31063 99272 30424 41497 39904 10250 40140 53010 70200 82146 22264 00260 20101 320// 40502 5////
BBXX 2ALE5 31063 99226 70173 41998 00523 10170 20115 40270 56007 70200 80000 22253 20505 80140
BBXX A8UU3 31064 99112 50006 41398 81415 10220 20190 40150 54000 7//22 8/7// 22233 2//// 317// 40502 80200
BBXX UBAU 31061 99128 70174 41498 80406 10250 40143 54000 70222 8822/ 22211 04255 20402
BBXX PHKL 31060 99127 10572 41598 30111 10253 20193 40170 50/// 70222 831// 22224 00260 20301 30631 40803 50401 80212
BBXX MZDL7 31063 99515 50556 41/97 /2615 10096 20090 40006 52023 70122 8//// 22213 00100 2//// 3//// 4//// 5//// 80093
BBXX OWFD2 31061 99053 50818 41/97 /1607 10230 20211 40120 55020 700// 8//// 22244 04180 2//// 80217
BBXX DCPY2 31064 99339 11284 41/98 72719 10090 20045 40240 57025 70222 8750/ 22200 2//01 80070
BBXX V7NV4 31064 99343 11374 41797 63234 10080 20013 40200 56015 7//21 85461 22273 00180 20410 33131 40410 50410 6//// 80050 ICE /////
BBXX A8EH3 31063 99434 11474 41397 83533 10015 40110 52060 78887 887// 22255 04030 20808 335// 40808
BBXX A8UD6 31061 99170 11244 41598 40308 10290 20262 40170 56010 70366 84245 2229/ 20602 303// 41003 5//// 80270
BBXX PCIM 31064 99054 11068 41498 30919 10272 20240 40100 58010 70111 82145 22213 00254 20401 302// 40804 80249
BBXX MTFH5 31063 99102 10871 41397 40913 10282 20241 40138 54000 70200 84200 22273 20504 333// 40803 5//// 80252
BBXX DFNB2 31063 99127 11107 41597 60522 10275 20238 40156 54000 78011 863// 22284 00240 20507 304// 41407 80248
BBXX WE3592 31064 99450 70863 43/// /0110 10016 2//// 40091 5//// 7//// 8//// 222// 0//// 2//// 3//// 4//// 5//// 6//// 8//// ICE /////
BBXX WDE3569 31064 99431 70870 41/98 63624 10027 2//// 40051 53000 70222 86/// 22203 0//// 20202 3//// 4//// 5//// 6//// 8//// ICE /////
BBXX 44067 31061 99384 70770 46/// /2303 10103 40114 58016 90600
BBXX 44032 31061 99437 70694 46/30 /1607 10084 40178 58011 90604 22200 00082 10503 70014 333 91209 555 11087 22093
BBXX 44255 31061 99473 70573 46/// /3007 10005 40233 5//// 22200 00034 11205 70025 333 91209
BBXX NAZJ 31064 99543 71535 41/97 63317 11033 2//// 40091 52/// 7//77 8666/ 22243 04039 20301 32121 40704 50703 6//// 8//// ICE /////
BBXX OXBB2 31061 99205 70634 41798 50908 10235 20175 40190 58005 70322 84445 22255 00260 20204 80195
BBXX S6IH 31061 99281 70374 41498 21107 10240 20210 40330 54000 70100 81140 22223 04214 20801 311// 41003 5//// 80220
BBXX C6UB2 31064 99547 71716 43/// /2719 10010 2102/ 40150 54000 7//// 8//// 22263 00100 2//// 3//// 4//// 5//// 6//// 80000 ICE /////
BBXX 44150 31061 99425 70640 46/// /1607 10078 40250 57008 22200 00075 10903 70014 333 91208
BBXX 44139 31061 99442 70571 46/// /3106 10022 40286 52021 22200 00044 11106 70031 333 91208
BBXX A8IN7 31064 99299 70746 41497 32317 10215 20183 40205 53/// 70211 8316/ 22244 20501 80195
BBXX J8PE4 31063 99226 70717 414// 52419 10280 2022/ 40210 51010 70311 85188 22234 00280 20503 324// 40302 5//// 6//// 80240 ICE /////
BBXX VCXF 31064 99464 70484 41798 22828 10004 2101/ 40200 52028 78522 82100 22200 02020 20707 325// 40908 80000
BBXX DDIJ 31063 99461 71589 41497 80330 10057 20031 49875 52040 76162 8/800 22264 04140 2//// 399// 40812 80045
BBXX FLAO 3106/ 99764 70847 46/// ///// 11388 40074 52003
BBXX A8IM7 31064 99338 71381 41498 31917 10170 20137 40230 52010 70100 8/100 22224 20303 329// 40505 5//// 80150
BBXX WDC3786 31064 99276 71355 41598 81013 10170 2012/ 40250 54000 7//22 886// 22254 0//// 20302 332// 41007 5//// 6//// 80140 ICE /////
BBXX OZBY2 31064 99376 71379 41/// 81837 10150 2012/ 40200 55010 7//21 8//// 22224 00140 20606 335// 41208 5//// 6//// 80130 ICE /////
BBXX VQKR7 31064 99322 71171 41297 52605 10135 20106 40178 55011 70222 84670 22200 04050 20000 30000 80120
BBXX C6T2064 31063 99297 70616 41598 21415 10220 2019/ 40255 56005 70200 82200 22264 20403 80200
BBXX 4XFV 31063 99392 71783 43298 73225 00/// 10085 20060 40220 51010 7//// 88/// 22224 0//// 20504 399// 40810 5//// 6//// 80070 ICE /////
BBXX ELQQ4 31064 99252 70831 43/// /2709 10230 2022/ 40160 56010 7//// 8//// 22244 00230 205// 3//// 4//// 5//// 6//// 80220 ICE /////
BBXX 9HA2583 31064 99177 70628 41498 5//13 10260 20260 40200 55010 70311 8518/ 22272 04270 20604 309// 4//// 5//// 6//// 80260 ICE /////
BBXX J8AZ2 31063 99202 70679 41597 41219 10000 2000/ 40210 52005 7//10 83481 22233 0//// 20403 31211 40404 50504 6//// 80000 ICE /////
BBXX 41101 31064 99146 70562 46/// /0822 10244 20204 40150 57010 22200 00268 10806 70030 555 1/031
BBXX 46042 31061 99368 71224 46/// /3408 10120 40223 51004 90550 22200 00125 11607 20502 330// 41607 70034 333 91210 555 11084 22089 30549 43410 60549 336079 340078 341077 343072 343073 343075
BBXX 46053 31061 99342 71198 46/// /0803 10123 40162 58003 90550 22200 00140 11703 20401 327// 41703 70017 333 91204 555 11035 22036 30537 40805 60549 078033 082035 087033 095033 091028 083019
BBXX 46089 31061 99459 71258 46/// /2904 10078 20008 40251 52026 90550 22200 00093 11109 20401 329// 41109 70046 333 91206 555 11042 22043 30539 43007 60549 289042 277047 272029 277019 304018 297024
BBXX OZDL2 31064 99244 71134 41498 13010 10190 20159 40160 70100 80003 22234 00180 2//03 30000 80170
BBXX LAJK7 31064 99290 70468 41898 41102 10210 2018/ 40320 54000 70000 8118/ 22253 00240 20401 328// 40201 5//// 6//// 80190
BBXX A8IP2 31063 99335 70429 41598 41107 10190 20175 40320 50000 70111 83465 22224 2//// 3//// 4//// 5//// 80180
BBXX PCKU 31060 99066 31166 41498 72508 10272 20243 40093 56016 7//22 8311/ 22253 04293 20402 30000 80251
BBXX A8TX8 31063 99080 31239 41698 52706 10305 20256 40080 57025 702// 834/5 22224 04290 20501 30000 80270
BBXX ZCBU6 31064 99413 31628 41598 52128 10160 20114 40144 57029 70222 844// 22234 00167 20403 319// 40505 5//// 80135
BBXX SHIP 31063 99117 31234 41/96 81813 10312 20238 40089 76186 222// 0//// 20301 320// 40301 5////
BBXX VRDU8 31063 99210 31100 41498 11720 10285 20184 40137 57010 70200 815// 22284 04270 20605 80220
BBXX 3ECI3 31064 99397 31742 41297 81435 10160 20143 40059 54000 70282 8671/ 22231 00170 20403 314// 41307 80150
BBXX VRAE2 31064 99221 31634 41599 71612 10260 20215 40072 57010 70322 8455/ 22274 04270 20302 318// 40403 80230
BBXX VRZN7 31064 99368 31502 416// 20519 10200 2017/ 40165 51015 7//11 824/9 22283 04180 20404 306// 4//// 5//// 85180
BBXX 2ALD3 31063 99281 31537 41598 51309 10230 20184 40139 56006 70322 83892 22244 04230 20305 333// 40706 80199
BBXX ZCBU3 31064 99343 31694 41698 81830 10210 20164 40048 50/// 7//11 8971/ 22224 00185 20303 323// 40506 5//// 80182
BBXX ONDY 31064 99119 30781 41697 73132 10300 2026/ 40060 52030 70182 872// 22213 00294 2//// 3//// 4//// 5//// 6//// 80270 ICE /////
BBXX ZCBU3 31064 99343 31694 41298 81830 10210 20164 40048 50/// 7//11 8971/ 22224 00185 20303 323// 40507 5//// 80182
BBXX A8KH9 31064 99115 30733 41/98 72423 10285 20230 40070 54000 70222 8471/ 22214 20506 31300 41210 5//// 80245
BBXX A8KX4 31064 99418 51375 41/// /1430 10155 20118 40085 56010 75352 8//// 22264 04147 20308 324// 40506 80135
BBXX A8IH2 31063 99029 71474 41/98 60712 10250 21000 40120 53010 7//22 86160 22254 06250 21202 312// 41002 5//// 80125
BBXX ZQAY4 31064 99160 31529 41597 31419 10270 20234 40051 53013 76066 83300 22243 00306 21003 31414 41205 50703 80245
BBXX VQNW6 31064 99028 30879 41/98 13613 10280 20244 40121 51003 701// 8///2 22233 00283 20202 327// 40503 5//// 80255
BBXX MIBR 31063 99149 30711 41597 71915 10275 20231 40097 53020 70122 877// 22254 00281 20302 314// 40808 5//// 80245
BBXX PCCL 31063 99392 31522 41397 33310 10189 40180 57011 70222 832// 22263 04204 20501 330// 40804
BBXX MGRH9 31064 99266 31532 41597 51424 10250 20170 40133 57002 7//22 855// 22200 00245 20801 312// 40802 5//// 80200
BBXX KAOU 31064 99002 10841 43/// /1291 10280 20234 40106 5//// 7//// 8//// 222// 04286 2//// 3//// 4//// 5//// 6//// 8//// ICE /////
BBXX OZDQ2 31063 99476 71757 41/97 /0217 10023 40206 52016 7//// 8//// 22224 00060 20404
BBXX PHDL 31063 99276 70721 41/98 29904 10225 20203 40200 57020 70200 8//// 22223 00238 299// 80210 90982
BBXX DFFA2 31063 99306 70808 41598 22124 10210 20164 40180 54000 70000 8/4// 22244 00200 2//// 3//// 4//// 5//// 80180
BBXX 9LD2206 31063 99143 70473 41296 30818 10260 20210 40170 57010 71881 83200 22262 04268 20602 309// 40803 80225
BBXX DGDD 31061 99323 71354 41/98 21508 10170 20128 40245 53010 70200 82/// 22224 04180 2//// 3//// 4//// 5//// 80145
BBXX DDJS2 31063 99243 71128 41998 03104 10181 20163 40135 57019 701// 80000 22274 04210 299// 33000 40401 5//// 80170
BBXX 41041 31061 99142 70460 46/// /0708 10256 20208 40161 58009 90550 22200 00261 10906 20704 3//// 40905 70030 333 91210 555 11086 22091 30500 40811 60549 070079 080074 082086 083082 087088 082089 80810 90501
BBXX 41038 31061 99341 70777 46/// /2202 10148 40161 58016 90600 22200 00131 333 91203
BBXX 46083 31061 99582 71380 46/// /2809 11006 21060 40059 53025 90550 22200 00063 11109 20605 300// 41108 70046 333 91211 555 11091 22097 30510 42515 60549 277083 262096 262113 255122 260114 258100 82614 90511
BBXX 46001 31061 99563 71480 46/// /2612 11021 40057 51019 90550 22200 00042 10908 20606 300// 40906 70041 333 91215 555 11122 22128 30516 42717 60549 264115 268123 262123 265118 269118 259125
BBXX 44008 31061 99405 70692 46/// /1605 10124 20102 40185 58014 90550 22200 00118 10402 20401 317// 40801 70010 333 91206 555 11058 22063 30538 41606 60549 161053 162051 163051 162052 163050 168049
BBXX WXJ63 31063 99611 71464 41/94 80708 11075 21096 49985 52/// 771// 8//// 222// 0//// 2//// 3//// 4//// 5//// 6//// 8//// ICE /////
BBXX NWS0003 31064 99539 71665 43/// /3500 11044 21084 40133 5//// 7//// 8//// 222// 0//// 2//// 3//// 4//// 5//// 6//// 8//// ICE /////
BBXX NWS0029 31064 99415 70707 43/// /1404 10091 20071 40168 5//// 7//// 8//// 222// 04067 2//// 3//// 4//// 5//// 6//// 8//// ICE /////
BBXX NWS0021 31064 99322 70663 43/// /1509 10215 20191 40215 5//// 7//// 8//// 222// 04220 2//// 3//// 4//// 5//// 6//// 8//// ICE /////
BBXX NWS0020 31064 99261 70779 43/// /2306 10223 20162 40199 5//// 7//// 8//// 222// 04245 2//// 3//// 4//// 5//// 6//// 8//// ICE /////
BBXX C6OT4 31064 99110 70977 41/98 /0713 10252 20221 40121 57/// 70222 8/100 22223 04277 20503 30000 4//// 5//// 80231
BBXX WAHV 31063 99359 10194 41499 83012 10120 2011/ 40060 55012 79286 87903 22274 00179 20302 326// 40803 80113
BBXX A8IN9 31063 99399 70243 41/97 /2321 10170 20149 40319 56009 700// 8//// 22254 06160 20502 327// 41103 5//// 80158
BBXX 62023 31063 99514 70079 46/96 /2527 10109 2//// 40128 5//// 22200 10505 70025 333 91134 555 70051 81005
BBXX MINUK05 3106/ 99571 70021 46/// ///// 10073 49977 54000
BBXX MINUK04 3106/ 99530 10029 46/// ///// 10095 4//// 52095
BBXX MINUK03 3106/ 99528 10039 46/// ///// 10088 40120 52064
BBXX LAHV 31061 99589 10057 43/// /1405 10027 21038 40052 222// 04078 1////
BBXX LF4H 31064 99596 10022 46/// /1524 10053 20038 49985 57021 8//// 22200 06079 10605 70027 333 91129
BBXX LMEL 31061 99603 10053 43/// /0602 10013 21080 40037 5//// 222/0 04078 1//// 3//// 4//// 5////
BBXX LDGJ 31061 99603 10053 43/// /2202 10011 21061 40042 5//// 222/0 04073 1//// 3//// 4//// 5////
BBXX PDNN 31063 99499 70016 41/98 82930 10120 20111 40141 52002 70022 88/// 22263 2//// 80115 90983
BBXX PHAM 31063 99495 70011 41/97 82822 10118 20107 40147 57002 75186 88/// 22200 20505 80112 90982
BBXX TFBKF 31064 99635 70202 46/// ///// 22200 10705 70025
BBXX TFGRV 31064 99638 70225 46/// ///// 22200 10807 70037
BBXX TFGRS 31064 99663 70182 46/// ///// 22200 10703 70014
BBXX TFDRN 31064 99658 70212 46/// ///// 22200 10502 70012
BBXX TFSRT 31064 99633 70203 46/// ///// 22200 10808 70041
BBXX TFHFN 31064 99642 70152 46/// ///// 22200 10606 70031
BBXX TFSTD 31064 99664 70234 46/// ///// 22200 10807 70036
BBXX TFKGR 31064 99657 70136 46/// ///// 22200 10808 70041
BBXX TFGSK 31064 99641 70229 46/// ///// 22200 10807 70035
BBXX DBBC 31061 99535 10100 46/// /2002 10018 20012 40113 57006 22220 00056
BBXX DBBA 31061 99541 10121 46/// /9901 10023 20014 40108 52005 22220 00057
BBXX DBEB 31061 99539 10079 41/// /2007 10032 20032 40094 57007 7//// 22200 00060
BBXX DBBI 31061 99535 10100 46/// /2002 10017 20017 40110 57005 22200 00054
BBXX DBKR 31061 99541 10121 46/// /2303 10020 20020 40108 52005 22200 00054
BBXX DBFH 31061 99535 10086 46/// /1903 10024 20018 40108 57007 22200 00053
BBXX VRFX8 31064 99503 70138 41/95 /2715 10130 20110 40150 54000 74544 8//// 22224 0//// 2//// 3//// 4//// 80120
BBXX PDMK 31063 99359 70066 41998 00510 10151 20104 40317 54000 70200 80000 22223 02154 20000 30000 80124
BBXX UCAB 31061 99598 10033 41/98 91611 10050 49992 57010 70022 8//// 22213 00090 20806
BBXX TBWUK35 31064 99539 10040 41/96 81925 40035 57017 75822 8//// 22242 00090 2//// 80075
BBXX A8OH4 31063 99321 70197 41597 50415 10180 20112 40320 58020 70011 842// 22224 04230 29903 80140
AAXX 31061 38598 NIL
AAXX 31061 38599 NIL
AAXX 31061 38725 42699 50000 11073 21177 48590 58007 82501
AAXX 31061 38734 42699 40702 11095 21146 47080 58008 82503
AAXX 31061 38744 42699 20000 11076 21121 38090 48620 53004 82500
AAXX 31061 38836 NIL
AAXX 31061 38838 41994 00000 11002 21020 39648 40345 57002 71000
AAXX 31061 38844 NIL
AAXX 31061 38846 41996 80302 11048 24059 38586 48550 58004 82000
AAXX 31061 38847 NIL
AAXX 31061 38932 NIL
AAXX 31061 38933 11796 70901 10042 20014 39817 40345 53002 60030 71042 87500 333 20014
AAXX 31061 38944 11597 80000 10034 20024 39717 40266 52001 60050 70282 889// 333 20023
AAXX 31061 38954 32999 30000 11039 21127 37991 48580 58020 80001 333 21082
AAXX 31064 78526 12566 80000 10244 20222 30159 40182 58013 60011 90556 333 10256 20228 555 93106
AAXX 31064 78543 15666 80509 10239 20222 30098 40181 58012 60011 90553 333 10256 20217 91017 555 93106
AAXX 31061 80001 32470 30603 10270 20244 30135 40136 83200 333 561// 58003 83816
AAXX 31061 80002 NIL
AAXX 31061 80009 NIL
AAXX 31061 80022 31464 10203 10264 20241 30089 40091 70500 81101 333 561/0 59011 81820
AAXX 31061 80028 NIL
AAXX 31061 80035 NIL
AAXX 31061 80036 NIL
AAXX 31061 80063 NIL
AAXX 31061 80084 NIL
AAXX 31061 80091 NIL
AAXX 31061 80094 NIL
AAXX 31061 80097 NIL
AAXX 31061 80099 NIL
AAXX 31061 80110 NIL
AAXX 31061 80112 31357 50000 10144 20137 37907 70522 85500 333 560// 58000 85608
AAXX 31061 80139 NIL
AAXX 31061 80144 NIL
AAXX 31061 80149 NIL
AAXX 31061 80210 NIL
AAXX 31061 80211 NIL
AAXX 31061 80214 NIL
AAXX 31061 80222 31565 10701 10094 20073 37526 70500 81101 333 569/9 58003 81820
AAXX 31061 80234 NIL
AAXX 31061 80241 NIL
AAXX 31061 80259 31560 60902 10224 20180 39045 70522 81530 333 5624/ 59002 81625 86360
AAXX 31061 80315 NIL
AAXX 31061 80342 NIL
AAXX 31061 80370 NIL
AAXX 31061 80398 01358 80000 10239 20232 30023 40118 60021 76122 887// 333 560// 58000 60023 88707
AAXX 31061 08521 32470 63603 10158 20089 30274 40345 55002 86800 333 20154 30/// 55062 85818
AAXX 31061 08524 32465 50802 10155 20086 30251 40351 57002 85800 333 20154 30015 5//// 55043 20954 83815 84630 91105
AAXX 31064 60360 12560 62713 10128 20091 40254 53009 60024 85830 333 0//19 20109 82826 84640 95990
AAXX 31064 60390 12570 12206 10079 20057 40305 53003 60004 81230 333 00400 20068 81820 95990
AAXX 31064 60402 12560 32003 10070 20059 40287 53009 69934 83800 333 00600 20065 82820 95990
AAXX 31064 60419 12560 52908 10074 20022 40270 53005 60014 85800 333 00200 20061 82820 85623 95990
AAXX 31064 60475 12558 73014 10054 20041 39289 48538 53015 60024 878// 333 00019 20042 83820 86833 95990
AAXX 31064 60490 12470 32404 10061 20054 40311 55001 60004 83200 333 05100 20048 83816 95990
AAXX 31064 60525 12960 03218 10100 20028 40253 55002 60004 333 00100 20095 95990
AAXX 31064 60531 12970 00000 10031 20013 40324 55002 60004 333 05200 20024 95990
AAXX 31064 60566 12960 03306 10063 20019 40305 55001 60004 333 05000 20056
AAXX 31064 60571 12962 00000 10000 21014 39363 48590 58004 60004 333 0//00 20000 95990
AAXX 31064 60580 12960 00000 10043 20026 40289 55000 60004 333 00000 20023
AAXX 31064 60590 12960 03306 10014 21011 40313 53005 60004 333 0//00 20007
AAXX 31064 60611 12960 02304 10011 21047 40303 53008 60004 333 05100 20009
AAXX 31064 60620 12960 00408 10042 20000 40298 53008 60004 333 0//00 20040
AAXX 31064 60630 NIL
AAXX 31064 60656 12965 00108 10031 21025 40299 53002 60004 333 00000 20031
AAXX 31064 60670 12970 20000 10048 21020 39133 48560 52004 60004 333 00100 20035 95900
AAXX 31064 60680 12980 20716 10064 21052 38679 48549 53011 60004 80002 333 00600 20064 82073 95900
AAXX 31064 60360 12560 62713 10128 20091 40254 53009 60024 85830 333 0//19 20109 82826 84640 95990
AAXX 31064 60390 12570 12206 10079 20057 40305 53003 60004 81230 333 00400 20068 81820 95990
AAXX 31064 60402 12560 32003 10070 20059 40287 53009 69934 83800 333 00600 20065 82820 95990
AAXX 31064 60419 12560 52908 10074 20022 40270 53005 60014 85800 333 00200 20061 82820 85623 95990
AAXX 31064 60475 12558 73014 10054 20041 39289 48538 53015 60024 878// 333 00019 20042 83820 86833 95990
AAXX 31064 60490 12470 32404 10061 20054 40311 55001 60004 83200 333 05100 20048 83816 95990
AAXX 31064 60525 12960 03218 10100 20028 40253 55002 60004 333 00100 20095 95990
AAXX 31064 60531 12970 00000 10031 20013 40324 55002 60004 333 05200 20024 95990
AAXX 31064 60566 12960 03306 10063 20019 40305 55001 60004 333 05000 20056
AAXX 31064 60571 12962 00000 10000 21014 39363 48590 58004 60004 333 0//00 20000 95990
AAXX 31064 60580 12960 00000 10043 20026 40289 55000 60004 333 00000 20023
AAXX 31064 60590 12960 03306 10014 21011 40313 53005 60004 333 0//00 20007
AAXX 31064 60611 12960 02304 10011 21047 40303 53008 60004 333 05100 20009
AAXX 31064 60620 12960 00408 10042 20000 40298 53008 60004 333 0//00 20040
AAXX 31064 60630 NIL
AAXX 31064 60656 12965 00108 10031 21025 40299 53002 60004 333 00000 20031
AAXX 31064 60670 12970 20000 10048 21020 39133 48560 52004 60004 333 00100 20035 95900
AAXX 31064 60680 12980 20716 10064 21052 38679 48549 53011 60004 80002 333 00600 20064 82073 95900
AAXX 31064 60351 12558 72614 10140 20091 40266 53008 60034 878// 333 01100 20122 83820 85633 95990
AAXX 31064 60355 12660 32805 10140 20071 40256 53007 60054 83202 333 0//19 20129 83833 95990
AAXX 31064 60445 12450 32206 10002 21001 39103 48564 53007 60024 83200 333 05400 21005 81710 83826 95990
AAXX 31064 60468 12560 63010 10038 20008 39306 48556 58002 60014 86200 333 05200 20026 86820 95990
AAXX 31064 60507 12960 00000 10006 20001 40328 54000 60004 333 05200 20006 95990
AAXX 31064 60511 12560 52506 10013 20003 39160 48577 53001 60004 85200 333 05200 20010 85823 95990
AAXX 31064 60535 11460 63412 10022 20015 38917 48570 58003 69924 700// 86700 333 00159 20020 86716 95990
AAXX 31064 60536 12960 00000 10003 21002 39422 48577 57003 60004 333 05600 20000 95990
AAXX 31064 60549 11960 01806 11012 21020 39020 48599 53002 60004 700// 333 05300 21014 95990
AAXX 31064 60550 12960 00000 11010 21015 38758 48588 58002 60004 333 05400 21016 95990
AAXX 31064 60555 12970 00000 10035 20009 40280 53001 60004 333 05100 20032
AAXX 31064 60559 12960 12403 10059 20011 40268 53001 60004 81030 333 0//00 20055 81360
AAXX 31064 60581 12960 02404 10015 21013 40287 53002 60004 333 05100 20010
AAXX 31064 60602 11960 00000 10021 21015 40321 53003 60004 700// 333 0//00 20021 95990
AAXX 31064 60607 12960 00110 10031 21029 40302 53003 60004 333 0//00 20028
AAXX 31064 60640 12960 00000 10010 21020 40299 53012 60004 333 05100 20010
AAXX 31064 60690 NIL
BBXX BATFR53 31064 99182 51337 44598 21016 10254 20212 40162 51010 70000 82100 22222 00260 202// 310// 40702 5////
BBXX BATFR56 31064 99012 11038 46/// /2408 10287 20285 40099 58024 22231 00284
AAXX 31064 60351 12558 72614 10140 20091 40266 53008 60034 878// 333 01100 20122 83820 85633 95990
AAXX 31064 60355 12660 32805 10140 20071 40256 53007 60054 83202 333 0//19 20129 83833 95990
AAXX 31064 60445 12450 32206 10002 21001 39103 48564 53007 60024 83200 333 05400 21005 81710 83826 95990
AAXX 31064 60468 12560 63010 10038 20008 39306 48556 58002 60014 86200 333 05200 20026 86820 95990
AAXX 31064 60507 12960 00000 10006 20001 40328 54000 60004 333 05200 20006 95990
AAXX 31064 60511 12560 52506 10013 20003 39160 48577 53001 60004 85200 333 05200 20010 85823 95990
AAXX 31064 60535 11460 63412 10022 20015 38917 48570 58003 69924 700// 86700 333 00159 20020 86716 95990
AAXX 31064 60536 12960 00000 10003 21002 39422 48577 57003 60004 333 05600 20000 95990
AAXX 31064 60549 11960 01806 11012 21020 39020 48599 53002 60004 700// 333 05300 21014 95990
AAXX 31064 60550 12960 00000 11010 21015 38758 48588 58002 60004 333 05400 21016 95990
AAXX 31064 60555 12970 00000 10035 20009 40280 53001 60004 333 05100 20032
AAXX 31064 60559 12960 12403 10059 20011 40268 53001 60004 81030 333 0//00 20055 81360
AAXX 31064 60581 12960 02404 10015 21013 40287 53002 60004 333 05100 20010
AAXX 31064 60602 11960 00000 10021 21015 40321 53003 60004 700// 333 0//00 20021 95990
AAXX 31064 60607 12960 00110 10031 21029 40302 53003 60004 333 0//00 20028
AAXX 31064 60640 12960 00000 10010 21020 40299 53012 60004 333 05100 20010
AAXX 31064 60690 NIL
BBXX PCEO 31063 99283 70434 41/97 82403 10212 20179 40307 57009 758// 8//// 22253 04232 20501 330// 40601 5//// 80190
BBXX VRFO7 31064 99311 70382 41/98 81416 10210 20178 40350 52010 70222 8//// 22254 20504 80190
BBXX BAREU04 31064 99372 70752 46/// ///// 40153 57014 22213
BBXX FVNM 31064 99108 70807 46/// /0317 10274 20235 40123 58010 22271 00274
BBXX PHQX 31063 99192 70572 41498 30913 10250 20207 40210 56010 70222 83165 22254 20704 309// 41005 5//// 80220
BBXX 41101 31064 99146 70562 46/// /0822 10244 20204 40150 57010 22200 00268 10806 70030 555 1/031
BBXX A8IM7 31064 99338 71381 41498 31917 10170 20137 40230 52010 70100 8/100 22224 20303 329// 40505 5//// 80150
BBXX DDIJ 31063 99461 71589 41497 80330 10057 20031 49875 52040 76162 8/800 22264 04140 2//// 399// 40812 80045
AAXX 31063 04064 42660 80505 10012 20007 49724 57040 8372/ 555 3//09
BBXX BAREU61 31064 99048 70032 46/// /2811 10268 29079 40121 52009 22224
BBXX PCSV 31063 99305 30108 41798 62013 10190 20142 40207 53/// 70311 86070 22273 04181 20502 324// 40803 80160
BBXX BATFR45 31064 99088 10574 46/// ///// 10290 20179 40160 50000 22254 00287
BBXX BATFR19 31064 99067 30055 46/// /1814 10234 20194 40142 53014 22200 00255
BBXX A8ZP9 31063 99272 30424 41497 39904 10250 40140 53010 70200 82146 22264 00260 20101 320// 40502 5////
BBXX 2ALE5 31063 99226 70173 41998 00523 10170 20115 40270 56007 70200 80000 22253 20505 80140
BBXX DMQN 31064 99064 70292 41/97 /0520 10250 20207 40122 57013 700// 8//// 22244 04270 2//// 3//// 4//// 5//// 80220
BBXX IDDUK02 31064 99528 50401 46/// ///// 49896 222//
AAXX 3106/ 41858 NIL
AAXX 3106/ 41863 NIL
AAXX 3106/ 41886 NIL
AAXX 3106/ 41895 NIL
AAXX 3106/ 41909 NIL
AAXX 3106/ 41915 NIL
AAXX 3106/ 41926 NIL
AAXX 3106/ 41929 NIL
AAXX 3106/ 41933 NIL
AAXX 3106/ 41939 NIL
AAXX 3106/ 41941 NIL
AAXX 3106/ 41946 NIL
AAXX 3106/ 41947 NIL
AAXX 3106/ 41951 NIL
AAXX 3106/ 41953 NIL
AAXX 3106/ 41958 NIL
AAXX 3106/ 41960 NIL
AAXX 3106/ 41963 NIL
AAXX 3106/ 41964 NIL
AAXX 3106/ 41965 NIL
AAXX 3106/ 41966 NIL
AAXX 3106/ 41984 NIL
AAXX 3106/ 41989 NIL
AAXX 3106/ 41998 NIL
BBXX BAREU63 31064 99326 10195 46/// /3010 10150 29068 40112 52003 22252
BBXX BAREU56 31064 99426 10097 46/// ///// 40179 52011 22282
BBXX TESTFR9 31064 99489 70038 46/// /2628 10123 29100 40200 52006 22254
BBXX BAREU05 31064 99388 70165 46/// ///// 40369 57010 22224
BBXX BAREU08 31064 99460 70124 46/// ///// 40250 57008 22254
BBXX BAREU11 31064 99536 10097 46/// ///// 40111 22261
BBXX BAREU12 31064 99518 10031 46/// ///// 40072 52002 22262
BBXX BATFR02 31064 99508 70011 46/// /2624 10109 20089 40128 58002 22283 00102
BBXX BATFR22 31064 99417 10086 46/// /3308 10122 40185 53006 22224 00155
BBXX BATFR14 31064 99490 70054 44/96 92826 10122 20117 40179 53005 70044 22254 00119 20308 60000 ICE 0/0//
BBXX BATFR54 31064 99451 70007 46/// /2816 10127 20120 40248 22232 00075
BBXX BATFR52 31064 99489 70038 46/// /2526 10125 20120 40173 58003 22254 00127
BBXX BATEU05 31064 99621 70029 46/// /1628 10069 49882 56044 22273
BBXX BATFR09 31064 99367 70090 44/98 03617 10132 20027 40334 53007 70200 22263 00177 20404 60//0 ICE 0/0//
BBXX BATFR03 31064 99493 70002 46/// /2829 10109 20107 40150 52016 22243
BBXX BATEU01 31064 99470 70121 44796 82526 10137 20124 40217 56005 72022 886// 22254 00130 20806 325// 40806 5////
BBXX BATEU08 31064 99588 70129 46/// /2033 10084 20072 49859 56042 22223
BBXX BATFR27 31064 99437 70038 46/// /2625 10145 20094 40290 55010 22245 00144
BBXX BATFR24 31064 99433 10054 46/// /3005 10079 20032 40202 53020 22200 00114
BBXX BATFR04 31064 99558 70076 46/// /2120 10102 20090 49998 58005 22232 00107
BBXX BATFR60 31064 99453 70008 46/// /2714 10129 20120 40237 55009 22243 00084
BBXX BATFR21 31064 99427 10089 46/// /1708 20252 40176 53005 22231
BBXX 61001 31064 99434 10078 46/// /1805 10126 20028 40164 57002 22200 00141 10803 70016
BBXX BATUK01 31064 99560 70032 46/// /2505 10092 20042 40003 58003 22200 00059
AAXX 31064 91245 32966 00812 10270 20220 30137 90550 555 93106
AAXX 31064 91945 36/// /0312 10272 20217 30150 40155 51020 555 58006 69984
AAXX 31064 91165 12566 63004 10194 20172 30145 40182 53005 69981 90553 555 93106
AAXX 31064 91182 12566 60203 10233 20189 30174 40177 51008 69901 90553 333 10267 20222 555 93106
AAXX 31064 91190 32666 40000 10189 20161 30161 40180 51010 90554 333 10272 20189 555 93106
AAXX 31064 91212 12566 80707 10256 20217 31368 40104 56010 69951 90554 333 10289 20244 555 93106
AAXX 31064 91285 32666 80000 10211 20189 30165 40178 52012 90553 333 10256 20178 555 93106
AAXX 31064 91408 11474 81106 10289 20244 30042 40080 57014 60021 72582 86978 333 56999 70069 555 93106
BBXX C6KD6 31064 99499 70023 41/97 92724 10125 20114 40151 57020 71044 8972/ 22224 02113 20607 80119
BBXX DCDO2 31063 99009 31393 41698 73610 10270 20243 40070 54000 70322 87464 22234 00300 20301 305// 41003 5//// 80250
BBXX 46207 31061 99509 71299 46/// /3104 10039 40201 52041 22200 00081 11008 70040 333 91207
AAXX 31061 80001 32470 30603 10270 20244 30135 40136 83200 333 561// 58003 83816
AAXX 31061 80002 NIL
AAXX 31061 80009 NIL
AAXX 31061 80022 31464 10203 10264 20241 30089 40091 70500 81101 333 561/0 59011 81820
AAXX 31061 80028 NIL
AAXX 31061 80035 NIL
AAXX 31061 80036 NIL
AAXX 31061 80063 NIL
AAXX 31061 80084 NIL
AAXX 31061 80091 NIL
AAXX 31061 80094 NIL
AAXX 31061 80097 NIL
AAXX 31061 80099 NIL
AAXX 31061 80110 NIL
AAXX 31061 80112 31357 50000 10144 20137 37907 70522 85500 333 560// 58000 85608
AAXX 31061 80139 NIL
AAXX 31061 80144 NIL
AAXX 31061 80149 NIL
AAXX 31061 80210 NIL
AAXX 31061 80211 NIL
AAXX 31061 80214 NIL
AAXX 31061 80222 31565 10701 10094 20073 37526 70500 81101 333 569/9 58003 81820
AAXX 31061 80234 NIL
AAXX 31061 80241 NIL
AAXX 31061 80259 31560 60902 10224 20180 39045 70522 81530 333 5624/ 59002 81625 86360
AAXX 31061 80315 NIL
AAXX 31061 80342 NIL
AAXX 31061 80370 NIL
AAXX 31061 80398 01358 80000 10239 20232 30023 40118 60021 76122 887// 333 560// 58000 60023 88707
AAXX 31061 01488 16/// /2801 11081 21091 60002 333 21081 4/007 70000 91103
BBXX 41029 31061 99328 70796 46/// /2504 1//// 90600 555 11041 22042
BBXX 46111 31061 99481 71227 46/// /2606 10063 40210 53048 90600 22200 00050
BBXX 3ERR2 31064 99635 10053 41998 81419 10040 21030 40026 57015 70222 8801/ 22200 06098 11005 70026 333 91122
BBXX LF3F 31064 99643 10078 43/// /1212 10039 21069 40048 57014 22200 04084 10906 70028 333 91114
BBXX LF3N 31064 99653 10073 41698 81510 10042 21068 40046 57012 70222 8//// 22200 00089 10806 70030
BBXX LF4B 31064 99606 10037 47/98 /1526 10043 40012 57021 700// 22200 00053 10604 70022 333 91129
BBXX LF4C 31064 99584 10019 41496 71626 10061 20049 49974 57028 760// 89/// 22200 00073 10605 70025 333 91131
BBXX LF5T 31064 99660 10081 436// /1507 10031 21067 40051 57009 22200 10806 70031 333 91114
BBXX 46207 31061 99509 71299 46/// /3104 10039 40201 52041 22200 00081 11008 70040 333 91207
AAXX 31061 40703 11658 40000 11010 21017 38949 40255 53004 60001 71021 81570 333 34102 70000 81640 84460
AAXX 31061 40712 11640 71602 11018 21032 38714 40274 50003 60001 71021 83570 333 34112 70000 83640 87460
AAXX 31061 40729 12660 71004 11008 21025 38387 40280 52012 60001 83470 333 34107 70000 83635 86358
AAXX 31061 40736 12960 40000 10074 20041 30232 40206 51003 60001 80009 333 30000 50041 70000 84170
AAXX 31061 40739 12965 22403 10014 21024 38757 40304 51006 60001 80002 333 30108 70000 82069
AAXX 31061 40743 12965 10705 10028 21056 39151 40305 51005 60001 80001 333 30103 70000
AAXX 31061 40762 12965 00000 10022 21073 38614 40294 52004 60001 333 30112 70000
AAXX 31061 40768 11656 62903 11016 21035 38310 40306 52003 60001 71021 84470 333 34110 70000 84640 84359
AAXX 31061 40769 11657 80000 11028 21049 38358 40304 51009 60001 71021 8151/ 333 30107 5//// 70000 81640 88460
AAXX 31061 40785 12660 50000 10054 21026 39169 40295 52012 60001 82502 333 30101 5///1 70000 82640 84070
AAXX 31061 40809 12968 01103 10054 21131 38569 40291 50004 60001 333 30109 70000
AAXX 31061 40821 12665 31404 10036 21049 38871 40309 51012 60001 81501 333 30104 5//// 70000 81635 83070
AAXX 31061 40831 12660 60000 10134 20036 30241 40249 52013 60001 82570 333 30004 50301 70000 82640 86460
AAXX 31061 40701 11658 40000 11058 21072 38621 40298 52005 60001 71010 82505 333 3/114 47004 70000 82635 83268
AAXX 31061 40704 12665 62405 10040 21078 38635 40227 52011 60001 83578 333 31102 70000 83640 84458 85270
AAXX 31061 40708 12660 72103 10042 21039 38678 40202 52012 60001 84376 333 30101 70000 82935 83640 85358 86267
AAXX 31061 40710 12680 73103 10022 21098 38346 40264 50007 60001 85920 333 34111 70000 83635 82936 87459
AAXX 31061 40713 11658 71602 10030 21056 38704 40255 53015 60001 70522 82520 333 34102 70000 82640 87460
AAXX 31061 40719 11540 72102 10078 20065 30222 40212 52013 60001 71021 82470 333 31101 50051 70000 82620 87360
AAXX 31061 40731 12560 70904 10025 21017 38805 40291 52010 60001 84370 333 30104 70000 82930 82640 87460
AAXX 31061 40738 12960 30000 10088 20072 30220 40222 52010 60001 80001 333 31103 50041 70000 83070
AAXX 31061 40740 12960 01004 11012 21056 38783 40274 54000 60001 333 3/110 45002 70000
AAXX 31061 40747 12760 72101 11010 21053 38679 40277 52006 60001 82570 333 30108 70000 82650 86358
AAXX 31061 40757 12965 00000 10050 21030 38975 40292 52006 60001 333 30104 70000
AAXX 31061 40763 12965 00000 10034 21068 38997 40301 51016 60001 333 30106 70000
AAXX 31061 40782 12662 81202 10044 21038 38951 40298 51009 60001 8351/ 333 30106 5//// 70000 83640 88459
AAXX 31061 40783 12665 61702 11004 21092 38036 40277 50007 60001 82536 333 30110 5///1 70000 82640 84359 86269
AAXX 31061 40789 12965 50000 10028 21048 39293 40306 51008 60001 80001 333 30105 50151 70000 85070
AAXX 31061 40798 12660 40000 11020 21095 38025 40334 53008 60001 81446 333 30112 70000 81640 83269
AAXX 31061 40818 12965 30000 10016 21105 38042 40291 53020 60001 82032 333 30109 5///1 70000 82360
AAXX 31061 40827 12970 00000 10082 21089 38909 40308 50009 60001 333 30106 5//// 70000
AAXX 31061 40836 12962 10000 10026 21075 38266 40294 50014 60001 81040 333 30108 5///1 70000 81359
AAXX 31061 40851 12960 00000 10010 21044 38338 40304 52013 60001 333 30110 5//// 70000
AAXX 31061 40853 12965 03004 10030 21146 37797 40259 53009 60001 333 30110 5//// 70000
AAXX 31061 40854 12960 02902 10110 21062 39035 40260 50005 60001 333 30002 50311 70000
AAXX 31061 40857 12960 30000 10170 20069 30236 40246 52014 60001 80002 222// 00180 20000 333 30008 50261 70000 83070
AAXX 31061 40859 12962 00000 10088 21041 38790 40252 52015 60001 333 30105 50231 70000
AAXX 31061 40878 12965 02803 10098 21106 38913 40275 51016 60001 333 30102 5//// 70000
AAXX 31061 40879 12960 00000 10139 21081 39568 40260 50007 60001 333 30002 50401 70000
AAXX 31061 40883 12960 00705 10212 20082 30209 40232 51019 60001 222// 00194 20501 333 30011 50521 70000
AAXX 31061 40898 11958 00404 10220 21042 30204 40213 52024 60001 70500 222// 00236 10500 333 30011 50531 70000
AAXX 31061 40701 11658 40000 11058 21072 38621 40298 52005 60001 71010 82505 333 3/114 47004 70000 82635 83268
AAXX 31061 40704 12665 62405 10040 21078 38635 40227 52011 60001 83578 333 31102 70000 83640 84458 85270
AAXX 31061 40708 12660 72103 10042 21039 38678 40202 52012 60001 84376 333 30101 70000 82935 83640 85358 86267
AAXX 31061 40710 12680 73103 10022 21098 38346 40264 50007 60001 85920 333 34111 70000 83635 82936 87459
AAXX 31061 40713 11658 71602 10030 21056 38704 40255 53015 60001 70522 82520 333 34102 70000 82640 87460
AAXX 31061 40719 11540 72102 10078 20065 30222 40212 52013 60001 71021 82470 333 31101 50051 70000 82620 87360
AAXX 31061 40731 12560 70904 10025 21017 38805 40291 52010 60001 84370 333 30104 70000 82930 82640 87460
AAXX 31061 40738 12960 30000 10088 20072 30220 40222 52010 60001 80001 333 31103 50041 70000 83070
AAXX 31061 40740 12960 01004 11012 21056 38783 40274 54000 60001 333 3/110 45002 70000
AAXX 31061 40747 12760 72101 11010 21053 38679 40277 52006 60001 82570 333 30108 70000 82650 86358
AAXX 31061 40757 12965 00000 10050 21030 38975 40292 52006 60001 333 30104 70000
AAXX 31061 40763 12965 00000 10034 21068 38997 40301 51016 60001 333 30106 70000
AAXX 31061 40782 12662 81202 10044 21038 38951 40298 51009 60001 8351/ 333 30106 5//// 70000 83640 88459
AAXX 31061 40783 12665 61702 11004 21092 38036 40277 50007 60001 82536 333 30110 5///1 70000 82640 84359 86269
AAXX 31061 40789 12965 50000 10028 21048 39293 40306 51008 60001 80001 333 30105 50151 70000 85070
AAXX 31061 40798 12660 40000 11020 21095 38025 40334 53008 60001 81446 333 30112 70000 81640 83269
AAXX 31061 40818 12965 30000 10016 21105 38042 40291 53020 60001 82032 333 30109 5///1 70000 82360
AAXX 31061 40827 12970 00000 10082 21089 38909 40308 50009 60001 333 30106 5//// 70000
AAXX 31061 40836 12962 10000 10026 21075 38266 40294 50014 60001 81040 333 30108 5///1 70000 81359
AAXX 31061 40851 12960 00000 10010 21044 38338 40304 52013 60001 333 30110 5//// 70000
AAXX 31061 40853 12965 03004 10030 21146 37797 40259 53009 60001 333 30110 5//// 70000
AAXX 31061 40854 12960 02902 10110 21062 39035 40260 50005 60001 333 30002 50311 70000
AAXX 31061 40857 12960 30000 10170 20069 30236 40246 52014 60001 80002 222// 00180 20000 333 30008 50261 70000 83070
AAXX 31061 40859 12962 00000 10088 21041 38790 40252 52015 60001 333 30105 50231 70000
AAXX 31061 40878 12965 02803 10098 21106 38913 40275 51016 60001 333 30102 5//// 70000
AAXX 31061 40879 12960 00000 10139 21081 39568 40260 50007 60001 333 30002 50401 70000
AAXX 31061 40883 12960 00705 10212 20082 30209 40232 51019 60001 222// 00194 20501 333 30011 50521 70000
AAXX 31061 40898 11958 00404 10220 21042 30204 40213 52024 60001 70500 222// 00236 10500 333 30011 50531 70000
AAXX 31061 40703 11658 40000 11010 21017 38949 40255 53004 60001 71021 81570 333 34102 70000 81640 84460
AAXX 31061 40712 11640 71602 11018 21032 38714 40274 50003 60001 71021 83570 333 34112 70000 83640 87460
AAXX 31061 40729 12660 71004 11008 21025 38387 40280 52012 60001 83470 333 34107 70000 83635 86358
AAXX 31061 40736 12960 40000 10074 20041 30232 40206 51003 60001 80009 333 30000 50041 70000 84170
AAXX 31061 40739 12965 22403 10014 21024 38757 40304 51006 60001 80002 333 30108 70000 82069
AAXX 31061 40743 12965 10705 10028 21056 39151 40305 51005 60001 80001 333 30103 70000
AAXX 31061 40762 12965 00000 10022 21073 38614 40294 52004 60001 333 30112 70000
AAXX 31061 40768 11656 62903 11016 21035 38310 40306 52003 60001 71021 84470 333 34110 70000 84640 84359
AAXX 31061 40769 11657 80000 11028 21049 38358 40304 51009 60001 71021 8151/ 333 30107 5//// 70000 81640 88460
AAXX 31061 40785 12660 50000 10054 21026 39169 40295 52012 60001 82502 333 30101 5///1 70000 82640 84070
AAXX 31061 40809 12968 01103 10054 21131 38569 40291 50004 60001 333 30109 70000
AAXX 31061 40821 12665 31404 10036 21049 38871 40309 51012 60001 81501 333 30104 5//// 70000 81635 83070
AAXX 31061 40831 12660 60000 10134 20036 30241 40249 52013 60001 82570 333 30004 50301 70000 82640 86460
AAXX 31061 40701 11658 40000 11058 21072 38621 40298 52005 60001 71010 82505 333 3/114 47004 70000 82635 83268
AAXX 31061 40704 12665 62405 10040 21078 38635 40227 52011 60001 83578 333 31102 70000 83640 84458 85270
AAXX 31061 40708 12660 72103 10042 21039 38678 40202 52012 60001 84376 333 30101 70000 82935 83640 85358 86267
AAXX 31061 40710 12680 73103 10022 21098 38346 40264 50007 60001 85920 333 34111 70000 83635 82936 87459
AAXX 31061 40713 11658 71602 10030 21056 38704 40255 53015 60001 70522 82520 333 34102 70000 82640 87460
AAXX 31061 40719 11540 72102 10078 20065 30222 40212 52013 60001 71021 82470 333 31101 50051 70000 82620 87360
AAXX 31061 40731 12560 70904 10025 21017 38805 40291 52010 60001 84370 333 30104 70000 82930 82640 87460
AAXX 31061 40738 12960 30000 10088 20072 30220 40222 52010 60001 80001 333 31103 50041 70000 83070
AAXX 31061 40740 12960 01004 11012 21056 38783 40274 54000 60001 333 3/110 45002 70000
AAXX 31061 40747 12760 72101 11010 21053 38679 40277 52006 60001 82570 333 30108 70000 82650 86358
AAXX 31061 40757 12965 00000 10050 21030 38975 40292 52006 60001 333 30104 70000
AAXX 31061 40763 12965 00000 10034 21068 38997 40301 51016 60001 333 30106 70000
AAXX 31061 40782 12662 81202 10044 21038 38951 40298 51009 60001 8351/ 333 30106 5//// 70000 83640 88459
AAXX 31061 40783 12665 61702 11004 21092 38036 40277 50007 60001 82536 333 30110 5///1 70000 82640 84359 86269
AAXX 31061 40789 12965 50000 10028 21048 39293 40306 51008 60001 80001 333 30105 50151 70000 85070
AAXX 31061 40798 12660 40000 11020 21095 38025 40334 53008 60001 81446 333 30112 70000 81640 83269
AAXX 31061 40818 12965 30000 10016 21105 38042 40291 53020 60001 82032 333 30109 5///1 70000 82360
AAXX 31061 40827 12970 00000 10082 21089 38909 40308 50009 60001 333 30106 5//// 70000
AAXX 31061 40836 12962 10000 10026 21075 38266 40294 50014 60001 81040 333 30108 5///1 70000 81359
AAXX 31061 40851 12960 00000 10010 21044 38338 40304 52013 60001 333 30110 5//// 70000
AAXX 31061 40853 12965 03004 10030 21146 37797 40259 53009 60001 333 30110 5//// 70000
AAXX 31061 40854 12960 02902 10110 21062 39035 40260 50005 60001 333 30002 50311 70000
AAXX 31061 40857 12960 30000 10170 20069 30236 40246 52014 60001 80002 222// 00180 20000 333 30008 50261 70000 83070
AAXX 31061 40859 12962 00000 10088 21041 38790 40252 52015 60001 333 30105 50231 70000
AAXX 31061 40878 12965 02803 10098 21106 38913 40275 51016 60001 333 30102 5//// 70000
AAXX 31061 40879 12960 00000 10139 21081 39568 40260 50007 60001 333 30002 50401 70000
AAXX 31061 40883 12960 00705 10212 20082 30209 40232 51019 60001 222// 00194 20501 333 30011 50521 70000
AAXX 31061 40898 11958 00404 10220 21042 30204 40213 52024 60001 70500 222// 00236 10500 333 30011 50531 70000
AAXX 31063 64800 NIL
AAXX 31063 64820 NIL
AAXX 31063 64860 32960 70000 10194 20094 39856 40125 80002 333 00800 20181 50850 55103 58005 87080
AAXX 31063 64861 NIL
AAXX 31063 64870 32960 71804 10093 20065 38928 48518 80002 333 00800 20083 50560 55108 59007 87080
AAXX 31063 64871 NIL
AAXX 31063 64892 NIL
AAXX 31063 64893 NIL
AAXX 31063 64894 NIL
AAXX 31064 64910 31440 70000 10254 20245 30118 40127 71799 87900 333 02100 20254 50011 55080 59007 87613 82916 94979 95879
AAXX 31064 64911 NIL
AAXX 31064 64950 NIL
AAXX 31064 41312 36/// /0010 10221 21010 30171 40211 333 0E/// 20202 59001
AAXX 31064 41314 36/// /3110 10165 21041 39713 40269 333 0E010 20097 59010
AAXX 31064 41316 36/68 /0017 10217 21034 30191 40217 333 0E018 20192 58000
AAXX 31064 87344 32560 22904 10211 20159 39572 40099 58003 82500 333 56500 82625
AAXX 31064 87349 32970 00000 10206 20174 39712 40092 58003
AAXX 31064 87371 32962 01104 10226 20161 30081 40102 57005
AAXX 31064 87374 32965 00000 10209 20123 30010 40096 58004
AAXX 31064 87395 32965 01608 10194 20127 30044 40088 58004
AAXX 31064 87418 32965 20000 10270 20123 39313 40071 57009 80005 333 56005 82270
AAXX 31064 87436 32970 20506 10238 20142 39298 40073 58011 82070 333 56080 82360
AAXX 31064 87448 32965 00000 10180 20157 39554 40095 57005
AAXX 31064 87453 NIL
AAXX 31064 87467 32970 00906 10194 20123 39973 40104 57003
AAXX 31064 87497 NIL
AAXX 31064 87506 NIL
AAXX 31064 87509 32970 01802 10197 20106 39275 40096 57005
AAXX 31064 87534 32960 00000 10193 20140 39954 40111 50008
AAXX 31064 87548 32962 00704 10183 20128 30012 40105 57001
AAXX 31064 87576 32960 00706 10224 20166 30094 40118 56007
AAXX 31064 87582 32960 00906 10228 20177 30113 40120 56001
AAXX 31064 87585 32960 00507 10229 20185 30085 40114 58003
AAXX 31063 87480 32962 00905 10232 20112 30070 40099 58004
AAXX 31063 87532 32970 00000 10220 20182 39934 40098 57008
AAXX 31061 22165 NIL
AAXX 31061 22676 12482 81803 10011 21012 39958 40036 52009 69930 887// 333 20000
AAXX 31061 22954 32676 81805 10002 21009 39809 40058 52012 885// 333 21001 88636
AAXX 31061 23405 NIL
AAXX 31061 23412 11396 80902 11065 21073 39978 40077 52010 69940 77172 8572/ 333 21089 85708
AAXX 31061 23803 32599 81802 11014 21029 39965 40146 58067 889// 333 21041 88923
AAXX 31061 27066 11396 81702 11002 21005 39928 40107 52006 69930 77172 8872/ 333 88707
AAXX 31061 27083 31456 81803 11009 21016 39898 40123 52011 77172 8802/ 333 20015
AAXX 31061 27113 32960 71904 10010 21016 39912 40058 52008 8705/ 333 20012
AAXX 31061 27242 32365 82602 10008 20005 39964 40092 52006 889// 333 20008 88707
AAXX 31061 27329 32680 81901 10002 21001 39969 40095 53008 885// 333 20001
AAXX 31061 27355 11495 81803 11014 21019 39949 40115 57001 60020 77372 8872/ 333 21010
AAXX 31061 27373 11396 81705 11032 21036 39916 40138 53003 60010 75672 886// 333 21034 88707 93400
AAXX 31061 27665 12497 81502 11044 21067 39872 40149 54000 69900 886// 333 21046 88716
AAXX 31061 27835 11350 81501 11018 21026 39968 40129 53014 69950 72222 886// 333 21022 88709
AAXX 31061 28009 11465 81903 11022 21031 39950 40164 52008 69900 78582 889// 333 21028
AAXX 31061 28411 12597 81604 11081 21104 30023 40256 52012 69900 8557/ 333 21083
AAXX 31061 28418 71703 11076 21107 30059 40233 52006 87500 333 21059 87628
AAXX 31061 34560 11/02 91903 10004 20004 39996 40164 52010 69900 74554 333 21003 89/01
AAXX 31061 34720 11991 91202 10007 20006 30119 40160 52009 69910 74742 333 21008
AAXX 31061 34730 11/01 91102 11002 21002 30072 40166 52014 60010 74542 333 21011
AAXX 31061 34740 31/92 92601 10016 20016 30074 40172 51016 75042 333 21027
AAXX 31061 34824 11594 81601 10027 20025 30151 40156 52013 60010 71011 885// 333 21002
AAXX 31061 34858 31996 62303 10005 21015 30071 40180 52011 71042 85032 333 21017
AAXX 31061 34866 11993 02602 10014 20014 30185 40176 51014 69950 74724 333 20013
AAXX 31061 34880 31596 71102 10015 21005 30197 40171 52011 71042 87500 333 20008 87621
AAXX 31061 37018 32698 60803 10076 20018 30082 40158 52010 82131 333 20055
AAXX 31061 37054 32998 82701 11029 21031 39804 40201 52007 8003/ 333 21042
AAXX 31061 37472 32997 52804 10040 21014 30198 40175 51021 85071 333 21006
AAXX 31061 22282 315// 81210 11041 21060 30016 40024 52002 78583 889// 333 21057
AAXX 31061 22438 NIL
AAXX 31061 22471 11241 81804 10003 20000 39970 49994 52011 60020 78582 889// 333 21084 86704
AAXX 31061 22563 11397 81903 10006 20001 39964 40002 52012 60010 70282 886// 333 21015 88709
AAXX 31061 22641 11398 81302 10011 20003 39942 49958 52007 60030 78082 889// 333 20007 85707 91106
AAXX 31061 22695 11498 82303 10002 21003 39914 40067 52018 60020 889// 333 21030 85710
AAXX 31061 22867 12498 81802 10011 21009 39944 40057 52012 69900 885// 333 20012 88617 91105
AAXX 31061 22939 32697 71905 10007 21032 39883 40045 52013 87500 333 20013 87636
AAXX 31061 22996 11597 81703 11005 21020 39935 40126 52009 69900 77172 8452/ 333 21025
AAXX 31061 23324 32478 80703 11078 21088 30030 40110 51012 886// 333 21088 88710
AAXX 31061 27051 12397 81802 10004 20019 39912 40079 52005 69900 8655/ 333 20003 84911
AAXX 31061 27225 32463 81804 10009 21014 39951 40082 52008 885// 333 20008 88619
AAXX 31061 27252 11940 81802 11005 21008 39918 40105 52005 69900 77175 8802/ 333 21002
AAXX 31061 27333 11280 82104 10005 21001 39929 40087 52003 69910 77172 887// 333 20004 43003 88706
AAXX 31061 27369 11665 81703 11024 21036 39994 40134 52005 69980 70275 885// 333 21022
AAXX 31061 27393 11498 82006 11038 21056 30001 40173 52003 69900 70262 8362/ 333 21036 93402
AAXX 31061 27479 31999 81702 11036 21054 30016 40153 53006 70132 8805/ 333 21028
AAXX 31061 27532 11296 81902 11005 21011 39890 40105 53008 60010 77172 8872/ 333 21004
AAXX 31061 27648 11395 81702 11026 21036 39955 40126 53001 69930 77172 886// 333 21030 88707
AAXX 31061 27675 32597 81405 11053 21063 39984 40158 57006 88500 333 21048
AAXX 31061 27679 32498 81402 11057 21068 39938 40168 57006 885// 333 21055 88618
AAXX 31061 28214 11496 81805 11042 21054 39974 40191 52005 69920 77172 8872/ 333 21039
AAXX 31064 67665 11370 70503 10214 20212 48527 60024 75056 8563/ 333 10257 20174 58008 85707 87359
AAXX 31061 45032 36/// /3102 10208 20093 30198 40215 57002
AAXX 31061 45035 36/// /2603 10196 20108 30173 40215 57002
AAXX 31061 45039 36/// /0203 10201 20109 30198 40212 57003
AAXX 31061 45044 36/// /1504 10199 20124 30121 40215 57001
AAXX 31061 45032 36/// /3102 10208 20093 30198 40215 57002
AAXX 31061 45035 36/// /2603 10196 20108 30173 40215 57002
AAXX 31061 45039 36/// /0203 10201 20109 30198 40212 57003
AAXX 31061 45044 36/// /1504 10199 20124 30121 40215 57001
AAXX 31061 37717 32599 62302 11146 21173 38078 48529 54000 84531 333 21168 7000/
AAXX 31061 15712 11420 83601 11009 21012 39841 40099 53003 60052 77376 8802/ 333 11007 21019 47003 55000 70049 555 3/101 598// 69999
AAXX 31064 60395 12660 70000 10095 20076 40288 54000 60004 8327/ 333 00600 20091 83840 85360 95990
AAXX 31064 60421 11560 52210 10042 20030 39212 48542 54000 60034 700// 85200 333 05119 20029 85830 95970
AAXX 31064 60423 11560 73017 10055 20046 39246 48507 53003 60094 700// 878// 333 20047 81830 86640 95990
AAXX 31064 60430 11358 62810 10068 20054 40312 56001 60014 700// 86200 333 005// 20060 82706 85820 95990
AAXX 31064 60437 11/01 92605 10040 20040 39067 48558 53002 69944 7474/ 333 00259 20035 89/// 95990
AAXX 31064 60444 12560 20000 10013 21001 39170 48566 51003 69954 82200 333 00000 20010 82830 95990
AAXX 31064 60452 12565 5//// 10111 20070 40296 58004 60004 85200 222// 2//// 333 20102 85820 91837
AAXX 31064 60457 12560 40000 10090 20069 40301 58008 60004 84200 333 00300 20075 84820 95990
AAXX 31064 60514 11960 40000 10038 20025 39379 48589 53008 60004 700// 83602 333 05200 20032 83713 83073 95990
AAXX 31064 60518 11965 02410 10096 20027 40290 56005 60004 700// 222// 20000 333 00500 20094 91807 95990
AAXX 31064 60520 11960 00000 10005 21009 40316 56002 60004 700// 333 05400 21004 95990
AAXX 31064 60540 11960 02605 11010 21022 39113 48561 5//// 60004 700// 333 05500 21010 95990
AAXX 31064 60560 11660 00000 11010 21018 39062 48592 53003 60004 700// 333 05300 21011 95990
AAXX 31061 38836 11596 70000 10018 21033 39368 40335 58005 60030 71042 87900 333 20001
AAXX 31061 60370 36/// /2503 10104 20054 333 20099
AAXX 31061 60371 36/// /1701 10109 20059 333 20102
AAXX 31061 60372 36/// /2604 10085 20059 333 20083
AAXX 31061 60373 NIL
AAXX 31061 60374 NIL
AAXX 31061 60376 NIL
AAXX 31061 60379 NIL
AAXX 31061 60380 NIL
AAXX 31061 60381 NIL
AAXX 31061 60393 NIL
AAXX 31061 60394 NIL
AAXX 31061 60593 NIL
AAXX 31061 60595 NIL
AAXX 31061 60605 NIL
AAXX 31061 60613 NIL
AAXX 31061 60623 NIL
AAXX 31064 60624 36/// /0000 10073 21035 333 20064
AAXX 31064 60639 NIL
AAXX 31064 60645 36/// /0000 10067 21002 333 20063
AAXX 31064 67665 11370 70503 10214 20212 48527 60024 75056 8563/ 333 10257 20174 58008 85707 87359
AAXX 31064 60353 11558 73220 10147 20105 40268 53013 60124 700// 878// 333 011// 20137 83820 86630 91866 95930
AAXX 31064 60367 11560 7//// 10090 20063 40254 51005 60224 700// 8313/ 333 0//// 20078 83820 85360
AAXX 31064 60369 NIL
AAXX 31064 60401 NIL
AAXX 31064 60403 11558 70000 10097 20072 40266 53008 60074 700// 878// 333 00359 20085 82826 86836 95990
AAXX 31064 60425 12558 60000 10076 20072 40306 54000 60004 84202 333 00100 20065 84820 83073 95990
AAXX 31064 60461 13570 21812 10098 20071 40307 54000 60004 82500 222// 20000 333 20098 82626 91828 95990
AAXX 31064 60467 11660 12812 10038 20031 40294 53004 60004 700// 81100 333 00200 20004 81833 95990
AAXX 31064 60492 11665 61810 10094 20078 40309 58004 60004 700// 86200 333 00400 20056 86830 95990
AAXX 31064 60515 11960 22410 10072 20035 40293 55001 60004 700// 80002 333 00100 20057 82070 95990
AAXX 31064 60517 11960 01405 10072 20046 40310 58003 60004 700// 333 0//00 20072 95990
AAXX 31064 60522 12970 00000 10009 20001 40329 5//// 60004 700// 333 05300 20001 95990
AAXX 31064 60557 11965 00000 11010 21018 38960 48589 55003 60004 700// 333 05400 21021 95990
AAXX 31064 60563 12960 03108 10016 20009 39389 48573 53005 60004 333 05200 21002
AAXX 31064 60603 12958 33504 10019 21009 40312 52015 60004 80001 333 0//00 20016 83073
AAXX 31064 60638 12960 0//// 10013 21027 40298 53020 60004 333 05200 20006
AAXX 31064 60686 NIL
AAXX 31064 64500 32460 61606 10254 20234 30112 40125 84510 333 02600 20230 50341 55036 58005 84610 86460
AAXX 31063 64501 32360 62006 10250 20236 3//// 4//// 86500 333 0//00 20250 50194 55010 5//// 83608 86630
AAXX 31063 64507 NIL
AAXX 31063 64510 NIL
AAXX 31063 64550 32458 8//// 10230 20223 30/// 40/// 885// 333 02200 20219 50064 55/// 5//// 84611 88616
AAXX 31064 64551 32340 50000 10238 20228 30118 40147 71022 83530 333 0//00 20225 50044 55/// 58008 83608 85360
AAXX 31063 64556 32460 8//// 10220 20215 39552 40147 885// 333 0//00 20214 50024 55010 58002 88610
AAXX 31064 64570 32465 82602 10215 20210 39641 40153 8555/ 333 02000 20213 50084 55/// 58002 85611 88362
AAXX 31061 08501 NIL
AAXX 31061 08505 NIL
AAXX 31061 08506 32/// /2305 10170 20156 30269 40342 57008 333 20170 30017 5//// 55058 20864 91010 91110 555 60005
AAXX 31061 08509 32560 42206 10170 20144 30268 40333 58005 83150 333 20168 50294 55017 83822 91011 91112 555 60007
AAXX 31061 08511 NIL
AAXX 31061 08512 32375 42404 10167 20146 30267 40353 57005 84800 333 20166 30015 5//// 55065 20911 81708 83812 91107 555 60005
AAXX 31061 08515 32480 11702 10147 20127 30238 40361 57007 81200 333 20144 31013 50384 55/// 81816 910// 911// 555 60007 912//
AAXX 31061 08521 32470 63603 10158 20089 30274 40345 55002 86800 333 20154 30/// 55062 85818 555 60007
AAXX 31061 08522 32/// /0503 10143 20065 30277 40348 57001 333 20138 30010 5//// 55067 21163 91105 555 60005
AAXX 31061 08524 32465 50802 10155 20086 30251 40351 57002 85800 333 20154 30015 5//// 55043 20954 83815 84630 91105 555 60005
AAXX 31061 08530 NIL
AAXX 31061 08531 32/// /0207 10131 20087 30302 40341 57006 333 20122 30011 5//// 55082 20969 555 60005
AAXX 31061 08532 NIL
AAXX 31061 08533 32/// /0502 10088 20037 30302 40332 57005 333 20072 30001 5//// 55086 21298 91107 555 60005
AAXX 31060 08534 32970 00000 10054 20046 30321 40339 56003 333 20054 50094 55092 555 60007
AAXX 31061 08535 32/// /9902 10101 20076 30245 40340 57002 333 20099 30005 5//// 55083 21157 91106 555 60005
AAXX 31061 08537 NIL
AAXX 31061 08540 31558 70000 10038 20029 30271 40343 57007 71011 875// 333 20030 50124 55077 87623 555 60007
AAXX 31061 08541 32/// /3605 10066 20042 30215 40339 57005 333 20063 30004 5//// 55081 21117 555 60005
AAXX 31061 08544 32960 09901 10024 20014 30317 40339 57014 333 20020 50134 55084 555 60007
AAXX 31061 08545 31458 50904 10052 20020 30259 40346 57009 71011 85802 333 20046 30001 50224 55080 20805 83814 83625 91009 91109 555 60005
AAXX 31061 08548 32/// /0701 10069 20039 30133 40345 57007 333 20048 30001 5//// 55080 20947 555 60005
AAXX 31061 08551 NIL
AAXX 31061 08554 32965 09901 10064 20011 30319 40329 57004 333 20040 30006 5//// 55085 21162 555 60005
AAXX 31061 08558 32/// /3202 10045 20025 30029 40335 57002 333 20029 30102 5//// 55000 21049 555 60005
AAXX 31061 08560 32/// /3304 10050 21012 39562 40343 57009 333 20043 30102 5//// 55076 20925 91106 555 60005
AAXX 31061 08561 NIL
AAXX 31061 08562 32/// /3203 10050 20010 30027 40333 57005 333 20031 30103 5//// 55084 21209 91105 555 60005
AAXX 31061 08567 32/// /0000 10021 20002 39664 40356 57005 333 20013 30101 5//// 55062 20783 555 60005
AAXX 31061 08568 32/// /3108 10072 2//// 38748 48615 57004 333 20056 30004 5//// 55079 21218 555 60005
AAXX 31061 08570 32/// /2701 1//// 29068 3//// 4//// 5//// 333 21170 30001 5//// 55082 20951 555 60005
AAXX 31061 08571 32/// /9901 10100 21054 39612 40324 57004 333 20073 30006 5//// 55068 20963 555 60005
AAXX 31061 08575 32/// /0000 11013 21020 39507 40360 57006 333 21019 30103 5//// 55073 20900 555 60005
AAXX 31061 08579 32/// /2402 10098 20073 30211 40340 57003 333 20093 30007 5//// 55083 21007 91105 555 60005
AAXX 31061 14235 12960 0//// 11035 21068 39001 48443 52014 60002 333 21045 44019 70002 93197
AAXX 31061 14246 NIL
AAXX 31061 14314 12675 10305 10073 21036 30100 40165 52015 60002 81100 333 20070 31002 70064 92312 92428
AAXX 31061 14323 12980 03504 10051 21028 30136 40170 52007 60002 333 20034 31100 70001 92322 92428
AAXX 31061 14324 12280 20909 11088 21099 38349 48458 52018 60002 82600 333 21090 3/110 44034 70019
AAXX 31061 14328 11958 03302 11051 21058 39783 40199 52016 60002 710// 333 21051 3/110 43006
AAXX 31061 14330 12960 12701 11056 21063 39500 40201 52019 60002 81030 333 21060 3/111 43008 70011 93100 92872
AAXX 31061 14438 12681 10105 10059 21046 30048 40141 53021 60002 81200 222// 00150 333 20050 31002 70024 92312
AAXX 31061 14443 12698 432// 10090 20050 30022 40121 52017 60022 84800 333 20074 92334
AAXX 31061 14447 12584 20302 10078 21061 30100 40131 52/// 60002 82100 222// 00152 333 20069 31005 70101 92311
AAXX 31061 14472 12670 30308 10083 21085 30021 40086 53010 60072 83200 222// 00156 333 20050 32/// 70177 92312
AAXX 31061 03962 11230 82307 10108 20105 30060 40084 58021 60012 75152 886// 333 20101 3/010 55000 81703 87705
BBXX A8EH3 31063 99434 11474 41397 83533 10015 40110 52060 78887 887// 22255 04030 20808 335// 40808
BBXX C6SI6 31064 99420 11459 46/// /3421 10024 21024 40146 52014 7//// 8//// 22212 0//// 2////
BBXX C6XC2 31064 99310 11260 41498 83214 10100 20037 40250 54000 70322 8897/ 22272 00180 20402 332// 40503 5//// 6//// 80070 ICE /////
BBXX DCPY2 31064 99339 11284 41/98 72719 10090 20045 40240 57025 70222 8750/ 22200 2//01 80070
BBXX UFLC 31060 99537 11466 41297 80311 11040 40252 54000 77072 8672/ 22212 06010 20402
BBXX V7NV4 31064 99343 11374 41797 63234 10080 20013 40200 56015 7//21 85461 22273 00180 20410 33131 40410 50410 6//// 80050 ICE /////
AAXX 31061 11157 11462 79901 11023 21032 39408 40202 51004 60032 72272 875// 333 21031 3/101 47029 81618 83632 87650 93115
AAXX 31061 44214 32998 22708 11100 21204 38338 40401 58001 82040
AAXX 31061 44231 31996 80000 11203 21255 38758 40440 58033 70422 8801/
AAXX 31061 44259 41997 03303 11177 21207 39402 40378 53011 70171
AAXX 31061 44277 32699 72906 11083 21153 37828 40366 58011 83577
AAXX 31061 44288 32899 41003 11044 21209 38186 40305 58022 82044
AAXX 31061 44292 32999 01303 11175 21225 38759 40410 57013
AAXX 31061 44304 32999 02302 11204 21244 39073 40404 52001
AAXX 31061 44354 31997 01403 11183 21219 39168 40380 58011 71000
AAXX 31061 44373 32999 10902 11024 21106 38580 40292 58022 80004
AAXX 31061 38847 41596 70000 10009 20001 40360 54000 74142 875//
AAXX 31061 50844 32962 00204 11127 21205 40310 57008 333 21233
AAXX 31061 50854 32965 00704 11130 21210 40298 57003 333 21229
AAXX 31061 50968 32962 42001 11105 21196 40290 57014 80002 333 21270
AAXX 31061 51379 11770 82902 11067 21096 40499 57004 69901 77070 885// 333 01302 21204
AAXX 31061 51467 32980 73603 11015 21205 38356 57015 80002 333 00551 21131
AAXX 31061 51495 32980 03616 11003 21150 40387 52008 333 00004 21108 91131 91536
AAXX 31061 53480 32980 03203 11024 21184 40321 57018 333 21155
AAXX 31061 53673 31909 80000 11055 21069 40327 57018 74844 8801/ 333 21089
AAXX 31061 53698 NIL
AAXX 31061 53898 31917 70402 10016 21022 40279 57020 71000 8703/ 333 21041
AAXX 31061 54308 NIL
AAXX 31061 54602 NIL
AAXX 31061 54725 31930 82702 10018 21025 40281 57020 71000 8802/ 333 21035
AAXX 31061 54751 11930 82705 10014 21018 40271 57018 69901 71070 8807/ 333 21006
AAXX 31061 54916 32762 70000 10054 21017 40276 57025 875// 333 21029
AAXX 31061 57014 32962 20901 10049 21039 40307 57039 80002 333 00153 21066
AAXX 31061 57025 31956 02002 10073 21022 40295 57034 70500 333 21039
AAXX 31061 57046 32962 02509 11017 21057 37975 57017 333 05151 21059
AAXX 31061 58208 32962 02903 10099 20015 40271 57023 333 21007
AAXX 31060 44214 32998 22708 11100 21204 38338 40401 58001 82040
AAXX 31060 44231 31996 80000 11203 21255 38758 40440 58033 70422 8801/
AAXX 31060 44259 41997 03303 11177 21207 39402 40378 53011 70171
AAXX 31060 44277 32699 72906 11083 21153 37828 40366 58011 83577
AAXX 31060 44288 32899 41003 11044 21209 38186 40305 58022 82044
AAXX 31060 44292 32999 01303 11175 21225 38759 40410 57013
AAXX 31060 44304 32999 02302 11204 21244 39073 40404 52001
AAXX 31060 44354 31997 01403 11183 21219 39168 40380 58011 71000
AAXX 31060 44373 32999 10902 11024 21106 38580 40292 58022 80004
AAXX 31061 40700 12660 72403 10006 21016 30129 40221 53006 60001 87500 333 30103 70000 87640
AAXX 31061 40723 12960 00000 10006 21039 38974 40289 50001 60001 333 31107 70000
AAXX 31061 40726 12960 50000 10004 21061 38688 40258 52001 60001 85030 333 34107 70000 85359
AAXX 31061 40727 12660 50000 10000 21027 38523 40281 53007 60001 85500 333 34108 70000 85645
AAXX 31061 40734 12968 29901 10088 20047 30230 40204 54000 60001 82030 333 31103 50130 70000 82359
AAXX 31061 40737 12965 30000 10058 20044 30195 40214 53007 60001 81031 333 30103 50051 70000 81361
AAXX 31061 40741 12962 01203 10039 21013 39961 40311 57012 60001 333 30102 70000
AAXX 31061 40780 12660 81503 10070 21033 38743 40257 55002 69911 8532/ 333 30001 5//// 70001 82935 83640 88459
AAXX 31061 40791 12965 10000 10076 21062 39446 40293 51012 60001 80002 333 30104 50231 70000 81067
AAXX 31061 40792 12970 00000 10024 21115 38784 40288 51003 60001 333 30105 70000
AAXX 31061 40794 12660 80000 10104 20061 30153 40253 53008 60001 8432/ 90545 333 30004 50181 70000 81935 83640 88458
AAXX 31061 40812 12660 80000 10110 20022 39855 40238 51005 60001 8252/ 90545 333 30005 50141 70000 82640 88460
AAXX 31061 40829 12960 03107 10081 21052 39690 40281 51011 60001 333 30101 5//// 70000
AAXX 31061 40833 12660 50000 10120 20028 30225 40258 53014 60001 83470 333 30004 50281 70000 83640 83360
AAXX 31061 40835 12970 20000 10126 21045 39418 40267 52019 60001 82030 333 30101 50231 70000 82359
AAXX 31061 40845 11958 31203 10176 20117 30232 40237 52013 60003 7050/ 80002 90545 333 30010 50251 70000
AAXX 31061 40882 11958 00403 10212 20119 30198 40234 52022 60001 70500 333 30010 50611 70000
AAXX 31061 40889 12960 00609 10222 20110 30230 40236 52022 60003 222// 00242 20402 333 30014 50661 70000
AAXX 31061 40890 11958 00609 10230 20082 30214 40222 51022 60003 70700 222// 00226 20503 333 30019 50640 70000
AAXX 31061 40893 12960 00205 10217 21026 30222 40228 52021 60001 222// 00180 20301 333 30017 50521 70000
AAXX 31061 40897 15960 00504 10224 21023 30214 40228 51015 60001 333 30012 50601 70000
AAXX 31061 40700 12660 72403 10006 21016 30129 40221 53006 60001 87500 333 30103 70000 87640
AAXX 31061 40723 12960 00000 10006 21039 38974 40289 50001 60001 333 31107 70000
AAXX 31061 40726 12960 50000 10004 21061 38688 40258 52001 60001 85030 333 34107 70000 85359
AAXX 31061 40727 12660 50000 10000 21027 38523 40281 53007 60001 85500 333 34108 70000 85645
AAXX 31061 40734 12968 29901 10088 20047 30230 40204 54000 60001 82030 333 31103 50130 70000 82359
AAXX 31061 40737 12965 30000 10058 20044 30195 40214 53007 60001 81031 333 30103 50051 70000 81361
AAXX 31061 40741 12962 01203 10039 21013 39961 40311 57012 60001 333 30102 70000
AAXX 31061 40780 12660 81503 10070 21033 38743 40257 55002 69911 8532/ 333 30001 5//// 70001 82935 83640 88459
AAXX 31061 40791 12965 10000 10076 21062 39446 40293 51012 60001 80002 333 30104 50231 70000 81067
AAXX 31061 40792 12970 00000 10024 21115 38784 40288 51003 60001 333 30105 70000
AAXX 31061 40794 12660 80000 10104 20061 30153 40253 53008 60001 8432/ 90545 333 30004 50181 70000 81935 83640 88458
AAXX 31061 40812 12660 80000 10110 20022 39855 40238 51005 60001 8252/ 90545 333 30005 50141 70000 82640 88460
AAXX 31061 40829 12960 03107 10081 21052 39690 40281 51011 60001 333 30101 5//// 70000
AAXX 31061 40833 12660 50000 10120 20028 30225 40258 53014 60001 83470 333 30004 50281 70000 83640 83360
AAXX 31061 40835 12970 20000 10126 21045 39418 40267 52019 60001 82030 333 30101 50231 70000 82359
AAXX 31061 40845 11958 31203 10176 20117 30232 40237 52013 60003 7050/ 80002 90545 333 30010 50251 70000
AAXX 31061 40882 11958 00403 10212 20119 30198 40234 52022 60001 70500 333 30010 50611 70000
AAXX 31061 40889 12960 00609 10222 20110 30230 40236 52022 60003 222// 00242 20402 333 30014 50661 70000
AAXX 31061 40890 11958 00609 10230 20082 30214 40222 51022 60003 70700 222// 00226 20503 333 30019 50640 70000
AAXX 31061 40893 12960 00205 10217 21026 30222 40228 52021 60001 222// 00180 20301 333 30017 50521 70000
AAXX 31061 40897 15960 00504 10224 21023 30214 40228 51015 60001 333 30012 50601 70000
AAXX 31061 40700 12660 72403 10006 21016 30129 40221 53006 60001 87500 333 30103 70000 87640
AAXX 31061 40723 12960 00000 10006 21039 38974 40289 50001 60001 333 31107 70000
AAXX 31061 40726 12960 50000 10004 21061 38688 40258 52001 60001 85030 333 34107 70000 85359
AAXX 31061 40727 12660 50000 10000 21027 38523 40281 53007 60001 85500 333 34108 70000 85645
AAXX 31061 40734 12968 29901 10088 20047 30230 40204 54000 60001 82030 333 31103 50130 70000 82359
AAXX 31061 40737 12965 30000 10058 20044 30195 40214 53007 60001 81031 333 30103 50051 70000 81361
AAXX 31061 40741 12962 01203 10039 21013 39961 40311 57012 60001 333 30102 70000
AAXX 31061 40780 12660 81503 10070 21033 38743 40257 55002 69911 8532/ 333 30001 5//// 70001 82935 83640 88459
AAXX 31061 40791 12965 10000 10076 21062 39446 40293 51012 60001 80002 333 30104 50231 70000 81067
AAXX 31061 40792 12970 00000 10024 21115 38784 40288 51003 60001 333 30105 70000
AAXX 31061 40794 12660 80000 10104 20061 30153 40253 53008 60001 8432/ 90545 333 30004 50181 70000 81935 83640 88458
AAXX 31061 40812 12660 80000 10110 20022 39855 40238 51005 60001 8252/ 90545 333 30005 50141 70000 82640 88460
AAXX 31061 40829 12960 03107 10081 21052 39690 40281 51011 60001 333 30101 5//// 70000
AAXX 31061 40833 12660 50000 10120 20028 30225 40258 53014 60001 83470 333 30004 50281 70000 83640 83360
AAXX 31061 40835 12970 20000 10126 21045 39418 40267 52019 60001 82030 333 30101 50231 70000 82359
AAXX 31061 40845 11958 31203 10176 20117 30232 40237 52013 60003 7050/ 80002 90545 333 30010 50251 70000
AAXX 31061 40882 11958 00403 10212 20119 30198 40234 52022 60001 70500 333 30010 50611 70000
AAXX 31061 40889 12960 00609 10222 20110 30230 40236 52022 60003 222// 00242 20402 333 30014 50661 70000
AAXX 31061 40890 11958 00609 10230 20082 30214 40222 51022 60003 70700 222// 00226 20503 333 30019 50640 70000
AAXX 31061 40893 12960 00205 10217 21026 30222 40228 52021 60001 222// 00180 20301 333 30017 50521 70000
AAXX 31061 40897 15960 00504 10224 21023 30214 40228 51015 60001 333 30012 50601 70000
AAXX 31063 NIL
AAXX 31063 87016 11560 20000 10232 20220 39661 40053 58027 60011 70196 81550 333 81625
AAXX 31061 23914 11998 82305 11030 21031 39916 40178 57017 69950 70272 8807/ 333 21051
AAXX 31061 23921 32699 71402 11053 21071 30054 40175 52016 83530 333 21112
AAXX 31061 23955 41698 72404 11072 21089 30149 40212 52020 78582 87300
AAXX 31061 23966 41396 82302 11062 21081 30060 40188 53034 78582 889//
AAXX 31061 28138 11595 82301 11072 21077 39645 40234 52013 69980 71082 885// 333 21075
AAXX 31061 28224 11497 82103 11059 21070 30003 40223 52015 69990 75652 886// 333 21056 93400
AAXX 31061 28255 32699 82702 11041 21059 30103 40236 52014 8353/ 333 21069
AAXX 31061 28440 32599 72602 11057 21108 39903 40263 52018 87500 333 21055
AAXX 31061 28645 32969 62501 11058 21142 39994 40301 52026 86030 333 21080
AAXX 31061 28661 32698 82104 11062 21108 30197 40293 53021 82501 333 21095
AAXX 31061 28722 32997 71801 11110 21142 30145 40284 52005 87030 333 21103
AAXX 31061 28748 32960 52304 11078 21151 30071 40323 52021 80001 333 21092
AAXX 31061 28838 32997 22302 11124 21159 39841 40349 52021 82030 333 21092
AAXX 31061 29231 41597 72402 11053 21082 30151 40249 52027 78582 85930
AAXX 31061 29313 41698 82303 11070 21083 30144 40270 52020 70282 8657/
AAXX 31061 29612 41597 72003 11067 21079 30151 40308 52018 78582 86330
AAXX 31061 29638 41465 72003 11063 21079 30151 40323 52023 78583 87900
AAXX 31061 29838 41596 82204 11054 21079 30115 40357 52021 78583 883//
AAXX 31061 29846 41435 82406 11058 21076 39950 40348 52018 78583 889// 333 86712
AAXX 31061 36061 NIL
AAXX 31061 48803 32460 81802 10176 20133 30110 40226 57036 888// 333 58011 84894 88696
AAXX 31064 87078 NIL
AAXX 31064 87244 NIL
AAXX 31064 87393 NIL
AAXX 31064 87416 32965 22302 10246 20125 39369 40079 58003 80005 333 56005 82270
AAXX 31064 87563 NIL
AAXX 31064 87640 NIL
AAXX 31064 87688 NIL
AAXX 31064 87774 NIL
AAXX 31064 87852 NIL
AAXX 31064 87896 NIL
AAXX 31064 87593 NIL
AAXX 31064 87623 32980 03603 10226 20178 39884 40100 57008
AAXX 31064 87641 32965 00907 10164 20125 39956 40125 52001
AAXX 31064 87645 32965 00705 10166 20156 39930 40132 58008
AAXX 31064 87648 NIL
AAXX 31064 87692 31958 00206 10166 20152 30122 40148 54000 71000
AAXX 31064 87715 31960 00000 10182 20137 39781 40086 58004 70600
AAXX 31064 87750 32965 03404 10164 20159 30004 40100 57008
AAXX 31064 87765 NIL
AAXX 31064 87784 NIL
AAXX 31064 87791 NIL
AAXX 31064 87800 NIL
AAXX 31064 87803 NIL
AAXX 31064 87828 32980 22704 10222 21003 30041 40090 50007 80001 333 56000 82070
AAXX 31064 87860 NIL
AAXX 31064 87904 NIL
AAXX 31064 87909 NIL
AAXX 31064 87925 32980 22702 10079 20007 30050 40073 52024 82070 333 56000 82360
AAXX 31064 87938 NIL
AAXX 31064 89022 46/// /0615 11056 21063 39804 49842 52007
AAXX 31064 89062 46/// /3502 10023 21071 39666 49706 52018 333 55098
AAXX 31061 44203 32998 80000 11259 21277 38450 40479 57010 8802/
AAXX 31061 44207 32999 82006 11139 21191 38314 40312 58015 8801/
AAXX 31061 44212 32997 41801 11262 21294 39274 40541 52009 80007
AAXX 31061 44213 41999 30000 11243 21272 38882 40519 57004 70172 82082
AAXX 31061 44215 32698 52704 11097 21190 38460 40358 57007 82544 555 96612
AAXX 31061 44218 32998 23602 11194 21235 38673 40444 52002 82040
AAXX 31061 44225 41996 80000 11246 21270 38301 40478 57008 77172 8802/
AAXX 31061 44230 32998 80000 11184 21223 38828 40420 57017 8802/
AAXX 31061 44232 32999 72801 11244 21271 39167 40422 57020 87010
AAXX 31061 44237 NIL
AAXX 31061 44239 32999 71701 11158 21200 38829 40360 58019 86033
AAXX 31061 44241 32999 21802 11214 21239 39332 40398 58021 80009
AAXX 31061 44256 41999 02703 11186 21205 39443 40370 50000 70271
AAXX 31061 44265 32999 70000 11120 21155 38972 40454 51010 87070
AAXX 31061 44272 41993 80000 11125 21177 38258 40345 52002 77172 8802/
AAXX 31061 44275 32898 70000 11140 21167 37749 40362 58008 86058
AAXX 31061 44282 NIL
AAXX 31061 44284 32899 40000 11194 21216 37885 40493 52016 84071
AAXX 31061 44285 32899 61402 11131 21185 38337 40353 58029 83041
AAXX 31061 44287 32999 20606 11083 21205 38149 40353 58020 80008
AAXX 31061 44294 32998 03301 11144 21182 38611 40400 58006
AAXX 31061 44298 32999 03606 11184 21190 38767 40390 54000
AAXX 31061 44302 32999 12503 11185 21240 39191 40393 58007 80002
AAXX 31061 44305 32999 03202 11168 21198 39116 40358 51002
AAXX 31061 44313 41999 70000 11191 21224 39467 40381 58006 70272 85071
AAXX 31061 44314 41995 83606 11151 21178 39198 40361 57004 77372 8802/
AAXX 31061 44317 41997 83205 11136 21163 38980 40348 57008 77071 8802/
AAXX 31061 44336 32999 31002 11154 21200 38738 40407 57020 80004
AAXX 31061 44341 32999 20000 11130 21186 38651 40387 56007 80004
AAXX 31061 44347 32999 22702 11067 21164 38766 40336 57017 80009
AAXX 31061 44352 32999 00000 11168 21202 38972 40368 53003
AAXX 31061 44358 32998 00000 11110 21154 39153 40357 57012
AAXX 31061 23909 11398 82103 11018 21023 39913 40163 52015 69930 70272 886// 333 21045
AAXX 31061 28044 NIL
AAXX 31061 28116 11496 81703 11034 21045 39947 40184 52012 69920 78582 889// 333 21040
AAXX 31061 28240 31598 82404 11057 21078 39907 40240 52017 73632 889// 333 21057
AAXX 31061 28522 32998 82005 11099 21135 39997 40268 52006 8807/ 333 21105
AAXX 31061 28621 32998 71604 11098 21139 30016 40261 52003 82031 333 21093
AAXX 31061 28719 32999 716// 11116 21151 39820 40285 53005 82032 333 21114
AAXX 31061 29023 41396 82603 11072 21093 30124 40224 52023 78582 883// 333 86709
AAXX 31061 29122 41597 72204 11065 21085 30165 40240 52023 78583 84330 333 84924
AAXX 31061 29328 41498 82403 11065 21093 30139 40283 52023 78582 889// 333 84919
AAXX 31061 29348 41496 72304 11051 21076 30128 40277 52024 78583 83930
AAXX 31061 29405 41496 82402 11068 21077 30128 40279 52019 78582 883// 333 88919
AAXX 31061 29418 41498 81904 11074 21087 30130 40295 52021 70282 889//
AAXX 31061 29430 41498 82302 11063 21078 30115 40297 52026 70287 8653/ 333 86617
AAXX 31061 29524 41498 72203 11066 21094 30132 40300 52022 70283 87900
AAXX 31061 29605 42998 02102 11089 21100 30152 40300 52021
AAXX 31061 29631 41597 82303 11074 21080 30126 40320 52026 72682 889//
AAXX 31061 29645 41598 51802 11056 21086 30131 40324 52026 72682 85900
AAXX 31061 29706 42598 82304 11072 21085 30167 40319 52021 883//
AAXX 31061 29736 41496 82503 11055 21081 30076 40334 52021 78583 85301
AAXX 31061 29937 41596 82005 11054 21068 30144 40374 52013 78582 889//
AAXX 31061 36034 41496 82009 11056 21074 30099 40384 52009 78587 889// 333 85711
AAXX 31061 36096 41996 80101 11212 21237 39624 40477 52007 77172 8807/ 333 95090
AAXX 31061 34357 11597 82601 10002 20001 39993 40151 52011 69940 70282 8535/ 333 20000
AAXX 31061 34363 11/92 91604 11009 21009 30013 40168 52006 69970 74574 333 21033
AAXX 31061 34545 32397 82401 11000 21001 30052 40166 52014 886// 333 21003
AAXX 31061 34579 32998 81401 10007 21012 30132 40177 52007 8005/ 333 20003
AAXX 31061 34838 32997 60101 10008 21002 30073 40171 52014 80031 333 21014
AAXX 31061 34927 32697 80601 10027 20012 30131 40168 51016 83531 333 20004
AAXX 31061 34949 32998 71703 10020 21014 39630 40182 52007 80001 333 21030
AAXX 31061 37001 12597 60701 10063 20036 30112 40153 52009 69940 82502 333 20080
AAXX 31061 37031 32997 81301 11017 21027 39979 40180 52006 80004 333 21031
AAXX 31061 37061 31595 72202 11024 21026 30022 40193 53010 72842 85531 333 21030
AAXX 31061 37085 31497 82904 10026 20019 30206 40233 51018 76162 8872/ 333 20016
AAXX 31061 37107 32999 60000 11006 21027 39503 40196 52009 81049 333 21007
AAXX 31061 37126 32999 72001 11018 21191 37902 48471 53004 84031 333 21025 42001
AAXX 31061 37171 32996 60507 10048 21012 30144 40163 53010 80001 333 20037
AAXX 31061 37228 32999 41701 10027 21087 39343 40184 52007 82049 333 21016
AAXX 31061 37470 32995 61702 10060 20003 30208 40186 53021 83031 333 20022
AAXX 31061 37663 32/// /3206 10065 21170 38996 48477 51020 333 20044
AAXX 31061 28049 32999 61805 11051 21059 30040 40209 52018 86030 333 21087
AAXX 31061 28144 11499 82103 11032 21050 30055 40215 52018 69900 70282 883// 333 21064 84916
AAXX 31061 28319 32499 81903 11059 21090 30061 40231 52011 8357/ 333 21062
AAXX 31061 28321 12999 81303 11063 21079 30008 40219 52007 69970 8803/ 333 21057
AAXX 31061 28334 11498 82002 11067 21094 39941 40255 52013 69930 70252 8802/ 333 21072
AAXX 31061 28434 32999 81402 11073 21118 39999 40267 52012 80007 333 21070
AAXX 31061 28552 12597 82703 11053 21116 30167 40283 52023 69900 82532 333 21070
AAXX 31061 28666 32698 72104 11052 21084 30112 40292 52021 87500 333 21101
AAXX 31061 28825 32998 71802 11105 21136 30123 40305 52002 80006 333 21109
AAXX 31061 29111 41497 82304 11064 21084 30149 40239 51017 78581 8395/
AAXX 31061 29209 41596 72503 11074 21080 30131 40261 52014 77172 87500
AAXX 31061 29551 41497 72304 11055 21093 30113 40301 52025 73683 84302
AAXX 31061 29602 41999 01803 11088 21103 30157 40304 52022 70281
AAXX 31061 29636 41597 72303 11061 21080 30092 40317 52020 78582 87300
AAXX 31061 29654 41396 82505 11083 21097 39688 40322 52025 78583 889// 333 85708
AAXX 31061 29712 41897 81902 11088 21099 30170 40320 52021 77172 8455/
AAXX 31061 29724 41598 72006 11074 21091 30119 40330 52020 78583 83370
AAXX 31061 29726 41598 82003 11063 21082 30165 40340 52016 70283 883// 333 88921
AAXX 31061 29814 41499 82004 11074 21091 30181 40333 52019 72681 889// 333 88910
AAXX 31061 29827 41697 82305 11054 21064 30187 40346 51015 78583 889//
AAXX 31061 29923 41598 82406 11054 21076 30072 40357 52017 73673 8802/ 333 88524
AAXX 31061 29939 41495 82505 11050 21063 30084 40377 52018 78583 889// 333 88918
AAXX 31061 35026 32997 60000 11188 21212 39678 40375 52002 80001 333 21186
AAXX 31061 36021 41599 52404 11059 21090 30166 40353 52014 70282 85500
AAXX 31061 36022 41398 82206 11052 21069 30094 40364 52004 73687 885// 333 83709
AAXX 31061 36038 41495 81606 11067 21087 39948 40408 51007 78583 889// 333 88912
AAXX 31061 36058 42699 81401 11015 21145 39851 40382 51012 8651/
AAXX 31061 36064 41699 80601 11025 21108 39775 40382 52016 71422 8251/
AAXX 31061 36229 42599 82904 11073 21139 39208 40425 52010 8597/ 333 82929
AAXX 31061 36259 41599 60000 11116 21225 38300 48578 52007 71522 83902
AAXX 31063 91802 NIL
AAXX 31063 91809 NIL
AAXX 31063 91831 36/// /1502 10250 20226 40099 52006
AAXX 31063 91841 36/// /0000 10243 20228 40080 52020
AAXX 31063 91843 11498 71506 10240 20225 40091 51021 69911 78088 8527/ 333 5639/ 85816 87459
AAXX 31063 91848 36/// /1506 10237 20220 49883 57022
AAXX 31064 71228 16/// /3007 11055 21094 60001 333 10014 21141 70006 555 31217 40151
AAXX 31064 71478 16/// /2919 10036 21023 30060 40198 51042 60001 333 10071 20012 7////
AAXX 31064 71479 16/// /3210 10028 20003 30079 40201 53040 60001 333 10078 20021 7////
AAXX 31064 71482 46/// /2006 10017 30152 40191 53051 6///1 333 10044 20004 7//// 555 32234 40213
AAXX 31064 71374 46/// /3511 11113 21142 6///1 333 11009 21115 7////
AAXX 31064 71387 16/// /0000 11268 21294 39816 40227 56009 60001 333 11160 21310 70000
AAXX 31064 71976 46/// /2207 11272 21302 39488 40147 58004 6///1 333 11226 21276 7//// 555 10010
AAXX 31064 71423 16/// /3306 11069 21087 30241 40251 51018 60001 333 11027 21093 70000 555 32735 40073
AAXX 31064 71434 16/// /1808 11137 21166 30034 40102 58007 60001 333 11136 70000 555 31717 40161
AAXX 31064 71026 16/// /2106 11020 21067 39136 49976 53016 60001 333 7////
AAXX 31064 71063 17/// /0611 11077 21087 30027 40129 58021 69981 7//4/ 333 11077 21182 70008 555 30617 40171
AAXX 31064 71421 16/// ///// 11287 21315 39516 40276 53007 60001 333 11075 21292 70003
AAXX 31064 71435 16/// /1803 11074 21077 39495 40096 58001 60001 333 11054 21087 70003
AAXX 31064 71832 16/// /1402 11105 21122 39780 40114 58002 60001 333 11093 21175 70000
AAXX 31064 71903 46/// /3021 10003 21019 30101 40151 5/035 6///1 333 7////
AAXX 31064 71667 16/// /2002 11037 21051 39855 40103 56003 60001 333 11026 21053 70000
AAXX 31064 71682 16/// /0000 11277 21301 39846 40088 52020 60001 333 11270 21332 70005
AAXX 31064 71737 16/// /0802 11109 21132 39620 40159 56012 60001 333 11109 21335 70000
AAXX 31064 71743 16/// /1906 11181 21208 39962 40188 57007 60001 333 11169 21187 70000
AAXX 31064 71746 17/// /1907 10054 20046 39795 40013 55000 60021 7//4/ 333 10057 20017 70093 555 31218 40011
AAXX 31064 71748 16/// /1610 11065 21072 39748 40039 58016 60001 333 11053 21151 70000 555 31817 40061
AAXX 31064 71186 46/// /0824 11120 21144 6///1 333 11120 21212 7//// 555 30930 40062
AAXX 31064 71190 46/// /2912 11100 21119 6///1 333 11099 21151 7////
AAXX 31064 71269 16/// /2713 11004 21043 60001 333 10061 21038 70000 555 32529 40012
AAXX 31064 71270 17/// /1505 11009 21020 39837 40059 56021 60021 7//4/ 333 11009 21059 70035 555 31417 40151
AAXX 31064 71285 46/// /3003 11133 21140 6///1 333 11030 21151 7////
AAXX 31064 71296 17/// /1104 11014 21015 39749 40057 58020 69931 7//4/ 333 11014 70012
AAXX 31064 71299 46/// /1603 11126 21137 39842 40126 57003 6///1 333 11122 21232 7////
AAXX 31064 71340 16/// /3103 11139 21154 60001 333 11017 21144 70000 555 30917 40171
AAXX 31064 71341 16/// /0000 11013 21064 60001 333 10063 21037 70006 555 32324 40191
AAXX 31064 71342 16/// /2611 11032 21077 60001 333 10029 21085 70015 555 32622 40011
AAXX 31064 71344 16/// /2515 11042 21101 60001 333 10040 21054 70000 555 32121 40171
AAXX 31064 71347 16/// /2805 11072 21078 60001 333 11042 21127 70017
AAXX 31064 71348 16/// /2807 11060 21077 60001 333 11040 21105 70011
AAXX 31064 71349 16/// ///// 11069 21077 60001 333 11054 21164 70026
AAXX 31061 40716 11958 80000 11028 21057 38973 40293 53011 60001 71022 8852X 333 30107 70000 81640 88459
AAXX 31061 40719 11540 72102 10078 20065 30222 40212 52013 60001 71021 82470 333 31101 50051 70000 82620 87360
AAXX 31061 40721 12960 21511 10132 21055 39668 40210 50005 60001 80001 333 30007 50591 70000 82070
AAXX 31061 40858 12960 20000 10158 20058 30235 40246 52019 60001 80002 333 30005 50151 70000 82068
AAXX 31061 40872 12960 00000 10210 20005 30225 40230 52011 60001 222// 00222 20000 333 30009 50461 70000
AAXX 31061 40877 12960 00000 10120 21035 39678 40233 52024 60001 333 30003 50181 70000
AAXX 31061 40898 11958 00404 10220 21042 30204 40213 52024 60001 70500 222// 00236 10500 333 30011 50531 70000
AAXX 31064 60595 36/// /0000 11451 333 21451
AAXX 31061 13463 11568 80206 10085 21033 30039 40099 52011 60042 70262 8682/ 333 20045 32002 55000 91120
AAXX 31061 13459 11670 70203 10018 21025 39337 40109 53003 60062 70172 84870 333 21002 37108 55004 47004 93103 91113 84696 87499
AAXX 31061 13461 11665 80505 10088 21026 30079 40087 52010 69972 72052 8552/ 333 20071 31004 55015 84645 91119 92323 92438 92512
AAXX 31061 13363 11530 82501 11013 21013 39225 48434 52021 60052 77177 8802/ 333 21013 3/102 47017 55001 93107
AAXX 31064 71550 16/// /0502 11045 21061 39605 49979 58029 60001 333 11029 21137 70000
AAXX 31064 71575 16/// /2713 11150 21169 30021 40087 58007 60001 333 11147 21199 70000 555 10030 32720 40211
AAXX 31064 71840 46/// /1509 11038 21049 6///1 333 11037 21112 7//// 555 31817 40041
AAXX 31064 71107 16/// /3520 10015 21037 30077 40191 51038 60001 333 10057 20009 70000 555 33657 40143
AAXX 31064 71503 46/// /2705 11225 21253 39800 40083 51018 6///1 333 11215 21320 7////
AAXX 31064 71506 46/// /0000 11262 21284 39115 40036 52012 6///1 333 11249 21297 7////
AAXX 31064 71514 17/// /2510 11009 21036 39265 49957 53004 69981 7//4/ 333 10012 21099 70008 555 31524 40231
AAXX 31064 71539 16/// /2611 10016 21025 39276 49961 53010 60001 333 10040 21093 70000 555 32029 40232
AAXX 31060 44203 32998 80000 11259 21277 38450 40479 57010 8802/
AAXX 31060 44207 32999 82006 11139 21191 38314 40312 58015 8801/
AAXX 31060 44212 32997 41801 11262 21294 39274 40541 52009 80007
AAXX 31060 44213 41999 30000 11243 21272 38882 40519 57004 70172 82082
AAXX 31060 44215 32698 52704 11097 21190 38460 40358 57007 82544 555 96612
AAXX 31060 44218 32998 23602 11194 21235 38673 40444 52002 82040
AAXX 31060 44225 41996 80000 11246 21270 38301 40478 57008 77172 8802/
AAXX 31060 44230 32998 80000 11184 21223 38828 40420 57017 8802/
AAXX 31060 44232 32999 72801 11244 21271 39167 40422 57020 87010
AAXX 31060 44237 NIL
AAXX 31060 44239 32999 71701 11158 21200 38829 40360 58019 86033
AAXX 31060 44241 32999 21802 11214 21239 39332 40398 58021 80009
AAXX 31060 44256 41999 02703 11186 21205 39443 40370 50000 70271
AAXX 31060 44265 32999 70000 11120 21155 38972 40454 51010 87070
AAXX 31060 44272 41993 80000 11125 21177 38258 40345 52002 77172 8802/
AAXX 31060 44275 32898 70000 11140 21167 37749 40362 58008 86058
AAXX 31060 44282 NIL
AAXX 31060 44284 32899 40000 11194 21216 37885 40493 52016 84071
AAXX 31060 44285 32899 61402 11131 21185 38337 40353 58029 83041
AAXX 31060 44287 32999 20606 11083 21205 38149 40353 58020 80008
AAXX 31060 44294 32998 03301 11144 21182 38611 40400 58006
AAXX 31060 44298 32999 03606 11184 21190 38767 40390 54000
AAXX 31060 44302 32999 12503 11185 21240 39191 40393 58007 80002
AAXX 31060 44305 32999 03202 11168 21198 39116 40358 51002
AAXX 31060 44313 41999 70000 11191 21224 39467 40381 58006 70272 85071
AAXX 31060 44314 41995 83606 11151 21178 39198 40361 57004 77372 8802/
AAXX 31060 44317 41997 83205 11136 21163 38980 40348 57008 77071 8802/
AAXX 31060 44336 32999 31002 11154 21200 38738 40407 57020 80004
AAXX 31060 44341 32999 20000 11130 21186 38651 40387 56007 80004
AAXX 31060 44347 32999 22702 11067 21164 38766 40336 57017 80009
AAXX 31060 44352 32999 00000 11168 21202 38972 40368 53003
AAXX 31060 44358 32998 00000 11110 21154 39153 40357 57012
AAXX 31064 71374 46/// /3511 11113 21142 6///1 333 11009 21115 7////
AAXX 31064 71387 16/// /0000 11268 21294 39816 40227 56009 60001 333 11160 21310 70000
AAXX 31064 71903 46/// /3021 10003 21019 30101 40151 5/035 6///1 333 7////
AAXX 31064 71423 16/// /3306 11069 21087 30241 40251 51018 60001 333 11027 21093 70000 555 32735 40073
AAXX 31064 71434 16/// /1808 11137 21166 30034 40102 58007 60001 333 11136 70000 555 31717 40161
AAXX 31064 71421 16/// ///// 11287 21315 39516 40276 53007 60001 333 11075 21292 70003
AAXX 31064 71435 16/// /1803 11074 21077 39495 40096 58001 60001 333 11054 21087 70003
AAXX 31064 71478 16/// /2919 10036 21023 30060 40198 51042 60001 333 10071 20012 7////
AAXX 31064 71479 16/// /3210 10028 20003 30079 40201 53040 60001 333 10078 20021 7////
AAXX 31064 71482 46/// /2006 10017 30152 40191 53051 6///1 333 10044 20004 7//// 555 32234 40213
AAXX 31064 71832 16/// /1402 11105 21122 39780 40114 58002 60001 333 11093 21175 70000
AAXX 31064 71026 16/// /2106 11020 21067 39136 49976 53016 60001 333 7////
AAXX 31064 71063 17/// /0611 11077 21087 30027 40129 58021 69981 7//4/ 333 11077 21182 70008 555 30617 40171
AAXX 31064 71228 16/// /3007 11055 21094 60001 333 10014 21141 70006 555 31217 40151
AAXX 31064 71737 16/// /0802 11109 21132 39620 40159 56012 60001 333 11109 21335 70000
AAXX 31064 71743 16/// /1906 11181 21208 39962 40188 57007 60001 333 11169 21187 70000
AAXX 31064 71746 17/// /1907 10054 20046 39795 40013 55000 60021 7//4/ 333 10057 20017 70093 555 31218 40011
AAXX 31064 71748 16/// /1610 11065 21072 39748 40039 58016 60001 333 11053 21151 70000 555 31817 40061
AAXX 31064 71269 16/// /2713 11004 21043 60001 333 10061 21038 70000 555 32529 40012
AAXX 31064 71270 17/// /1505 11009 21020 39837 40059 56021 60021 7//4/ 333 11009 21059 70035 555 31417 40151
AAXX 31064 71285 46/// /3003 11133 21140 6///1 333 11030 21151 7////
AAXX 31064 71296 17/// /1104 11014 21015 39749 40057 58020 69931 7//4/ 333 11014 70012
AAXX 31064 71299 46/// /1603 11126 21137 39842 40126 57003 6///1 333 11122 21232 7////
AAXX 31064 71667 16/// /2002 11037 21051 39855 40103 56003 60001 333 11026 21053 70000
AAXX 31064 71682 16/// /0000 11277 21301 39846 40088 52020 60001 333 11270 21332 70005
AAXX 31064 71186 46/// /0824 11120 21144 6///1 333 11120 21212 7//// 555 30930 40062
AAXX 31064 71190 46/// /2912 11100 21119 6///1 333 11099 21151 7////
AAXX 31064 71976 46/// /2207 11272 21302 39488 40147 58004 6///1 333 11226 21276 7//// 555 10010
AAXX 31064 71340 16/// /3103 11139 21154 60001 333 11017 21144 70000 555 30917 40171
AAXX 31064 71341 16/// /0000 11013 21064 60001 333 10063 21037 70006 555 32324 40191
AAXX 31064 71342 16/// /2611 11032 21077 60001 333 10029 21085 70015 555 32622 40011
AAXX 31064 71344 16/// /2515 11042 21101 60001 333 10040 21054 70000 555 32121 40171
AAXX 31064 71347 16/// /2805 11072 21078 60001 333 11042 21127 70017
AAXX 31064 71348 16/// /2807 11060 21077 60001 333 11040 21105 70011
AAXX 31064 71349 16/// ///// 11069 21077 60001 333 11054 21164 70026
AAXX 31064 16682 12560 50000 10076 20063 30031 40050 57007 60182 83145 333 20070 31/// 5///0 55003 70178 83820 84358 85068 90730 91105 555 10000 30100 20000 89085 99100 30000 10080 20085 30090 40102 50115 60165 40000 47552 44190 50000 50070 60000 60176 60840
AAXX 31061 23226 11560 72304 11095 21121 39885 40109 52018 69970 72287 87500 333 21090 87632 93404
AAXX 31061 23701 11499 82104 11002 21011 39960 40090 52010 60010 70272 885// 333 21034 88612
AAXX 31061 28909 32997 71404 11107 21120 30156 40262 53001 80001 333 21112
AAXX 31064 41270 36/69 /0113 10241 20157 30160 40171 333 0E021 20213 58005
AAXX 31064 41287 36/// /0109 10229 20144 30173 40242 333 0E018 20166 58000
AAXX 31061 37575 42999 01202 10018 21029 39619 40219 52002
AAXX 31061 37675 42999 70000 10006 21008 39528 40202 52027 87070
AAXX 31061 37735 42699 52901 10010 21043 39784 40168 53004 85160
AAXX 31061 37749 42598 83602 10031 21007 30057 40216 57042 885//
AAXX 31061 37756 42999 62704 10007 21016 39334 40257 53004 80002
AAXX 31061 37864 32997 61803 10070 20025 40199 52010 84041 333 20067 555 31///
AAXX 31061 37985 42598 40000 10039 20024 30238 40223 53002 85540
AAXX 31061 22213 11462 70703 11030 21054 39819 49986 52016 69982 78582 85930 333 21052 47037 91005
AAXX 31061 22140 31597 70810 11010 21071 39983 49998 52008 73632 87500 333 21024 47009 91013 91114
AAXX 31061 22004 11510 80504 11017 21031 39914 40027 52015 60112 78683 889// 333 21044 47017 91007
AAXX 31061 28216 12699 81802 11057 21072 39915 40205 52013 69930 885// 333 21054
AAXX 31061 28428 12998 82003 11088 21126 30066 40261 52012 69900 83031 333 21077
AAXX 31061 28451 32998 82505 11046 21097 30101 40265 52020 8807/ 333 21050
AAXX 31061 28541 31984 82401 11074 21150 39774 40286 52023 70331 8807/ 333 21090
AAXX 31061 28655 32998 72304 11085 21155 30068 40301 52021 80002 333 21100
AAXX 31061 28756 32998 61903 11115 21158 30164 40321 52024 80005 333 21123
AAXX 31061 29557 41698 22706 11052 21097 30034 40308 52022 70181 82500
AAXX 31061 29625 41598 72503 11067 21087 30138 40323 52022 78582 85930
AAXX 31061 29813 41497 82103 11074 21083 30132 40319 52016 78581 8597/ 333 84711
AAXX 31061 29822 41997 72303 11064 21084 30170 40340 52014 70272 87070
AAXX 31061 29915 41498 52103 11079 21097 30180 40346 52019 70283 82902
AAXX 31061 36020 41496 82106 11054 21064 30152 40360 52011 78583 889// 333 88916
AAXX 31061 22100 12599 80703 11029 21056 39859 40003 52014 69942 885// 333 21049 47020 91007
AAXX 31064 41858 31956 00903 10256 20130 30137 40183 70540 333 58002 70000
AAXX 31064 41863 32957 00902 10255 20120 30140 40183 333 58001 70000
AAXX 31064 41886 31956 00000 10260 20150 30158 40179 70040 333 58011 70000
AAXX 31064 41895 32958 03602 10244 20110 30162 40185 333 58008 70000
AAXX 31064 41909 31956 22902 10256 20090 30154 40166 70341 82030 333 56090 59001 70000 82362
AAXX 31064 41915 32956 20502 10270 20110 30148 40173 82030 333 56090 59001 70000 82360
AAXX 31064 41926 32957 23603 10255 20120 30169 40183 82030 333 56090 58012 70000 82362
AAXX 31064 41929 31950 03603 10252 20120 30167 40176 70500 58014 70000
AAXX 31064 41933 32958 23103 10260 20070 30166 40175 82030 333 56090 58010 70000 82362
AAXX 31064 41939 31956 00000 10262 20140 40185 70540 333 58011 70000
AAXX 31064 41941 32956 03602 10264 20120 30160 40165 333 58003 70000
AAXX 31064 41946 32956 43602 10252 20130 30171 40175 84030 333 56090 58006 70000 84362
AAXX 31064 41947 31950 50000 10254 20140 30177 40179 70542 85030 333 56090 58016 70000 85362
AAXX 31064 41953 31950 03604 10264 20100 30161 40166 70500 333 58006 70000
AAXX 31064 41958 31950 53604 10256 20140 30167 40169 70522 85030 333 56090 58009 70000 85362
AAXX 31064 41960 32456 63602 10266 20130 30174 40176 82530 333 56990 58011 70000 82618 85362
AAXX 31064 41963 32850 60301 10266 20150 30163 40166 86010 333 56090 58007 70000 86458
AAXX 31064 41964 32956 00402 10272 20120 30171 40173 333 58006 70000
AAXX 31064 41966 32956 03602 10268 20140 30085 40164 333 58006 70000
AAXX 31064 41984 32957 33605 10265 20130 30163 40165 83030 333 56090 58011 70000 83362
AAXX 31064 41998 32956 02701 10300 20190 30141 40147 333 59001 70000
AAXX 31061 22003 11496 80812 10005 21026 30031 40041 53020 69992 78583 889// 333 21006 48008 91015 91117
AAXX 31064 08487 02984 10902 10059 20002 30264 40291 55002 60002 80001 333 20057 30005 55087 60007 70000
AAXX 31061 60381 36/// /1901 10062 20051 333 20062
AAXX 31061 60639 36/// /2202 10012 21047 333 20012
AAXX 31061 60605 36/// /0000 10065 21032 333 20059
AAXX 31064 40153 11000 /2407 10077 20076 39095 48489 52011 60062 75064 333 20067 70057
AAXX 31064 40179 11550 61910 10131 20094 30140 40178 52011 60002 71000 86100 333 20096 70000
AAXX 31064 40180 11540 21507 10127 20088 30133 40182 52011 60002 71021 82500 333 20097 70000
AAXX 31064 40190 16/// ///// 10087 20073 39850 40189 52007 60002 333 20076 70000
AAXX 31064 40199 12975 70703 10149 20063 30160 40183 52012 60002 85066 333 20144 50291 70000
BBXX ZCDL9 31063 99255 30139 41497 61824 10160 20143 40210 52020 703// 8/2// 22244 04140 20606 318// 40606 5//// 80150
AAXX 31064 86330 32998 01204 10218 20190 40076 58005
AAXX 31064 86360 NIL
AAXX 31064 86460 NIL
AAXX 31064 86490 NIL
AAXX 31064 86530 NIL
AAXX 31064 86545 32997 20000 10170 20153 40123 52/// 80005
AAXX 31064 86565 32997 31206 10188 20170 40126 58013 80005
AAXX 31064 86580 32997 00804 10194 20171 40125 57004
AAXX 31064 71120 11474 83105 11058 21077 39300 49957 53023 60021 72277 886// 333 11050 21160 44008 70051 90973 93102 555 10060 20051
AAXX 31061 56146 32980 02901 10033 21225 36754 57039 333 00251 21124
AAXX 31061 56444 32980 01601 10077 21072 36830 57021 333 00102 21063
AAXX 31061 56492 31557 20402 10134 20040 39851 40264 57040 71000 82100 333 00004 20078
AAXX 31061 56571 32680 12202 10143 21009 38430 57044 81100 333 00453 20045
AAXX 31061 57799 32762 80701 10107 20063 30188 40279 57023 885// 333 20074
AAXX 31061 57866 11756 80701 10066 20039 30075 40289 57030 69901 76060 885// 333 20054
AAXX 31061 57957 31756 80402 10092 20038 30076 40280 57030 71000 885// 333 20075
AAXX 31061 57993 32760 80402 10105 20070 30096 40267 57026 885// 333 20080
AAXX 31061 58027 32961 01102 10080 21021 30210 40263 57030 333 20000
AAXX 31061 58141 31930 80201 10062 21012 30258 40278 57029 70500 8807/ 333 21003
AAXX 31061 58265 31550 60703 10069 20008 30271 40279 57028 70500 82502 333 21003
AAXX 31061 58472 32961 00205 10081 20021 30175 40272 57028 333 20057
AAXX 31061 58477 32465 83202 10105 20021 30219 40265 57029 8117/ 333 20035
AAXX 31061 58527 31956 70000 10105 20021 30197 40275 57029 70500 8704/ 333 21479
AAXX 31061 58633 31757 80701 10069 20001 30176 40280 57026 70500 885// 333 20050
AAXX 31061 58666 32965 83606 10080 20046 30160 40265 57022 8807/ 333 20061
AAXX 31061 58725 32662 82902 10096 20061 39998 40266 57021 885// 333 20081
AAXX 31061 58921 32660 82703 10119 20096 30000 40252 57023 885// 333 20108
AAXX 31061 59082 NIL
AAXX 31061 59211 11562 82702 10134 20078 30044 40256 57042 69901 70060 888// 333 20101
AAXX 31061 59265 31750 83402 10141 20067 30105 40246 57035 70500 885// 333 20101
AAXX 31061 59293 32765 70702 10168 20072 30146 40233 57038 875// 333 20105
AAXX 31061 59501 32560 10701 10203 20104 30193 40214 57033 81100 333 20140
AAXX 31061 59663 32660 70402 10201 20088 30110 40219 57033 875// 333 20140
AAXX 31061 59838 32962 70406 10208 20156 30181 40191 57033 8704/ 333 20191
AAXX 31061 59948 32480 60707 10217 20162 39705 40191 57027 86800 333 20172
AAXX 31061 59981 11578 70405 10249 20212 30161 40168 57019 69911 70060 872// 333 20222
AAXX 31061 36061 41597 80000 11053 21067 39965 40387 52013 78582 86901
AAXX 31064 71120 11474 83105 11058 21077 39300 49957 53023 60021 72277 886// 333 11050 21160 44008 70051 90973 93102 555 10060 20051
AAXX 31064 40401 41959 01005 10190 20030 39468 40164 70600 333 20120 59013
AAXX 31060 67586 12580 70603 10230 20195 38796 48520 60104 86988 333 20180 50541 55027 58006 70100 81920 85622 87280 555 10262 7//96
AAXX 31061 44210 32999 20000 11151 21185 38591 54000 81071
AAXX 31061 44216 32999 40000 11235 21260 39094 40482 58001 82044
AAXX 31061 44217 32998 40000 11116 21188 37910 40412 53009 82044
AAXX 31061 44219 32998 73602 11217 21242 38701 40487 51009 87010
AAXX 31061 44221 NIL
AAXX 31061 44224 31998 82006 11133 21215 38091 40374 54000 73632 8802/ 333 91010 91112 44221 41996 63203 11215 21233 38661 40475 52018 71672 86070
AAXX 31061 44229 NIL
AAXX 31061 44242 32998 40000 11246 21276 39397 40417 57024 80002
AAXX 31061 44243 32999 10000 11225 21268 39496 40415 57028 80001
AAXX 31061 44254 32998 22704 11171 21209 39113 40371 58003 80002
AAXX 31061 44257 32998 20000 11200 21238 39054 40433 50001 80001
AAXX 31061 44263 32998 20000 11097 21182 38132 40419 58002 82040
AAXX 31061 44266 32598 80703 11055 21155 37797 40293 58008 8352/
AAXX 31061 44286 32998 60000 11103 21174 38679 40331 58014 80008
AAXX 31061 44291 31996 00000 11202 21249 38798 40446 58013 70400
AAXX 31061 44325 32999 60502 11158 21192 38932 40419 58017 83084
AAXX 31061 44329 32998 02505 11048 21148 37798 40297 58015
AAXX 31061 44338 32999 02707 10009 21125 38499 40242 58030 333 91112
AAXX 31061 44348 32997 22909 11103 21147 38733 40319 58004 80004
AAXX 31061 44374 32999 00203 11008 21199 38302 40307 58016
AAXX 31061 44385 32999 00000 11027 21145 38981 40320 58022
AAXX 31061 44386 32999 02706 11084 21142 39111 40332 57015
AAXX 31064 64500 32460 61606 10254 20234 30112 40125 84510 333 02600 20230 50341 55036 58005 84610 86460
AAXX 31064 64501 32360 62006 10250 20236 3//// 4//// 86500 333 0//00 20250 50194 55010 5//// 83608 86630
AAXX 31064 64507 NIL
AAXX 31064 64510 NIL
AAXX 31064 64550 32458 8//// 10230 20223 30/// 40/// 885// 333 02200 20219 50064 55/// 5//// 84611 88616
AAXX 31064 64551 32340 50000 10238 20228 30118 40147 71022 83530 333 0//00 20225 50044 55/// 58008 83608 85360
AAXX 31064 64556 32460 8//// 10220 20215 39552 40147 885// 333 0//00 20214 50024 55010 58002 88610
AAXX 31064 64570 32465 82602 10215 20210 39641 40153 8555/ 333 02000 20213 50084 55/// 58002 85611 88362
AAXX 31064 89528 46/// /3624 4//// 5////
AAXX 31064 67241 32580 42704 10310 20270 40102 84200 333 20260 50/// 55072 58003 94356 555 10000
AAXX 31064 67273 12580 60000 10286 20265 40068 60444 84201 333 20250 50/// 55/// 58011 94320 555 00437 10000
AAXX 31064 67280 12375 7//// 10260 20246 40114 60044 8623/ 333 20210 50170 55017 58004 94324 555 00045 10000
AAXX 31064 67291 12570 8//// 10223 20217 3//// 48/// 60174 889// 333 20195 50/// 55009 5//// 94390 555 00174 10247
AAXX 31064 67327 32580 20802 10260 20181 40132 52009 82200 333 20200 50300 55095 94320 555 10029
AAXX 31064 67331 32580 32710 10248 20192 40130 57015 82101 333 20170 50/// 55/// 94310 555 10000
AAXX 31064 67346 32580 53608 10/// 20/// 40134 52014 81150 333 20/// 50610 55113 94310 555 10000
AAXX 31061 23205 11598 81302 11143 21170 30051 40067 51005 69900 70341 8653/ 333 21153 86631 91104
AAXX 31064 64500 32460 61606 10254 20234 30112 40125 84510 333 02600 20230 50341 55036 58005 84610 86460
AAXX 31064 64501 32360 62006 10250 20236 3//// 4//// 86500 333 0//00 20250 50194 55010 5//// 83608 86630
AAXX 31064 64507 NIL
AAXX 31064 64510 NIL
AAXX 31064 64550 32458 8//// 10230 20223 30/// 40/// 885// 333 02200 20219 50064 55/// 5//// 84611 88616
AAXX 31064 64551 32340 50000 10238 20228 30118 40147 71022 83530 333 0//00 20225 50044 55/// 58008 83608 85360
AAXX 31064 64556 32460 8//// 10220 20215 39552 40147 885// 333 0//00 20214 50024 55010 58002 88610
AAXX 31064 64570 32465 82602 10215 20210 39641 40153 8555/ 333 02000 20213 50084 55/// 58002 85611 88362
AAXX 31061 08561 32970 03103 10030 20021 30097 40341 57013 333 20024 50194 55083 555 60007
BBXX PDHY 31063 99461 70496 41398 82718 10020 40214 52006 70222 887// 22263 04030 20612 3//// 4//// 5////
BBXX PDHY 31063 99461 70496 41398 82718 10020 40214 52006 70222 887// 22263 04030 20612 3//// 4//// 5////
AAXX 31064 60340 32965 02204 10023 20008 40322 53001 333 20021
AAXX 31061 50353 32970 00000 11227 21282 30091 40343 57010 333 21338
AAXX 31061 50557 32962 52201 11208 21262 39990 40328 57008 80002 333 21294
AAXX 31061 50756 32960 03202 11188 21224 39981 40311 57006 333 21245
AAXX 31061 50949 32965 00201 11101 21214 30102 40287 57007 333 21203
AAXX 31061 50963 32960 32201 11150 21212 30136 40288 57013 80002 333 21273
AAXX 31061 50978 32970 72502 11116 21214 39906 40283 57013 80002 333 21223
AAXX 31061 51087 NIL
AAXX 31061 51156 NIL
AAXX 31061 51644 NIL
AAXX 31061 51656 32961 62902 11040 21100 39259 40429 52002 80002 333 00302 21115
AAXX 31061 51886 32980 02702 11090 21274 37154 57015 333 05152 21202
AAXX 31061 52602 32980 00000 11040 21269 37304 57013 333 05101 21213
AAXX 31061 52713 32980 02902 11065 21263 36937 57013 333 05154 21204
AAXX 31061 52754 32980 02501 11031 21235 36808 57023 333 05101 21177
AAXX 31061 52818 32980 02903 11053 21214 37271 57017 333 05252 21158
AAXX 31061 52836 32980 02902 10015 21269 36908 57018 333 05304 21138
AAXX 31061 52955 32980 03401 10008 21245 36988 57026 333 05101 21206
AAXX 31061 53068 32980 02904 11091 21165 39144 40381 57015 333 00205 21231
AAXX 31061 53276 32980 02905 11081 21162 38929 40364 57013 333 21178
AAXX 31061 54135 32978 03204 11090 21207 30064 40304 57012 333 21167
AAXX 31061 54236 32980 13406 11057 21187 30177 40290 57013 80002 333 21172
AAXX 31061 54539 NIL
AAXX 31061 54662 32260 73604 11010 21049 30153 40271 57015 86602 333 21024
AAXX 31061 54753 31657 82504 10013 21025 30268 40275 57019 71000 885// 333 21024
AAXX 31061 54857 31940 83602 10035 21029 30181 40277 57022 70400 8807/ 333 21015
AAXX 31061 57067 31930 70701 10048 21023 39592 40296 57035 71000 8703/ 333 21055
AAXX 31061 57178 31920 31801 10073 20009 30112 40275 57028 71000 80002 333 20014
AAXX 31061 57245 31956 20701 10058 20024 39938 40301 57032 71000 80002 333 05152 20006
AAXX 31061 57297 32960 63201 10111 21004 30127 40271 57024 86030 333 20013
AAXX 31061 53798 32960 83601 11005 21034 30186 40287 57022 8807/ 333 21024
AAXX 31061 51087 11980 81102 11132 21167 39446 40496 52004 69911 77070 8802/ 333 01154 21133
AAXX 31061 51156 32780 72001 11077 21158 38872 40450 52001 85502 333 01153 21110
AAXX 31061 51644 32960 60902 11055 21114 39084 40438 52008 80002 333 00451 21148
AAXX 31061 54539 32962 20703 11004 21086 30269 40284 57017 80002 333 21049
AAXX 31061 51747 32965 02201 11058 21141 39061 40455 52003 333 00400 21241
AAXX 31061 53798 32960 83601 11005 21034 30186 40287 57022 8807/ 333 21024
AAXX 31061 54423 32970 01101 11009 21134 39750 40292 57026 333 21149
AAXX 31061 54618 32962 70901 10028 21035 30260 40278 57020 8703/ 333 21050
AAXX 31061 59082 32660 83401 10124 20060 30104 40254 57032 885// 333 20086
AAXX 31061 89062 46/// /3502 10023 21071 39666 49706 52018 333 55098
AAXX 31061 91945 36/// /0312 10272 20217 30150 40155 51020 555 58006 69984
AAXX 31061 48806 32470 81603 10173 20122 39435 40216 57022 888// 333 58010 83894 88696
AAXX 31061 23219 32498 81804 11086 21105 30003 40112 52012 886// 333 47044
BBXX 62301 31064 99524 70047 46/// /2414 10100 20093 40094 57010 22200 00095 10603 70016
BBXX 62029 31064 99487 70125 46/// /2423 10131 20126 40184 56012 22200 00126 10707 70035 333 90710 91129
BBXX 62001 31064 99452 70050 46/// /2618 10136 20129 40264 56011 22200 00129 10707 70035 333 90710 91125
BBXX 64046 31064 99606 70049 46/// /2518 10081 20072 49900 52006 22200 00076 10606 70030
BBXX 62442 31064 99490 70164 46/// /2321 1//// 2//// 40152 58019 22200 00122 333 90710 91129
BBXX 62081 31064 99510 70134 46/// ///// 10123 20116 40112 58016 22200 00118 10708 70042
BBXX 62303 31064 99516 70051 46/// /2620 10114 20107 40114 58011 22200 00110 10605 70025 333 90710 91127
BBXX 64045 31064 99591 70117 46/// /2020 10088 20066 49880 58039 22200 00100 10708 70042 333 90710 91128
BBXX 62105 31064 99554 70122 46/// /2323 10111 20107 49972 57032 22200 00106 10809 70045 333 90710 91130
BBXX DEDI 31064 99445 70276 41/96 82942 10149 20142 40220 52007 70122 8//// 22224 00156 2//// 322// 41006 80145
BBXX 62113 31064 99584 10002 47295 /2213 10074 20068 49966 57013 762// 22200
BBXX 62129 31064 99584 10003 46/// ///// 10074 20069 49966 57013 22200
BBXX 62128 31064 99587 10014 47396 /1627 10061 20042 49973 57025 700// 22200 10606 70030
BBXX 63057 31064 99592 10015 47496 /1727 10055 20035 49972 57026 762// 22200 10606 70028
BBXX 63110 31064 99595 10015 46/// ///// 22200
BBXX 63056 31064 99597 10016 47496 /1527 10053 20032 49974 57022 771// 22200 10606 70030
BBXX 62121 31064 99535 10027 46/// ///// 22200
BBXX 62144 31064 99534 10017 47797 /2521 10090 20079 40059 50002 700// 22200 10402 70012
BBXX 62145 31064 99531 10028 47597 /2617 10088 20074 40058 55002 700// 22200 10503 70016
BBXX 62111 31064 99580 70003 46/// /2515 10078 20070 49974 58001 22200 10605 70023
BBXX PJAI 31064 99581 70014 47498 /2315 10092 20064 49960 50000 700// 22200
BBXX 62112 31064 99584 70002 47394 /2315 10078 20072 49962 58008 762// 22200
BBXX 63055 31064 99606 10016 47297 /1428 10044 20043 49961 57030 704// 22200 10606 70031
BBXX 63108 31064 99608 10017 47296 /1732 10039 20015 49961 57029 762// 22200 10706 70029
BBXX 63106 31064 99610 10017 46/// /1630 10056 49969 57029 22200
BBXX 63105 31064 99610 10017 47497 ///// 10054 20025 49972 57028 751// 22200
BBXX 63113 31064 99610 10017 46/// /1732 10055 20026 49971 57028 22200 10607 70033
BBXX 63112 31064 99611 10010 47/97 /1630 10054 20022 49952 57032 751// 22200 10607 70036
BBXX 63107 31064 99611 10017 46/// /1633 10060 49968 57030 22200
BBXX 63101 31064 99612 10009 46/// /1731 10054 20029 49965 57029 22200
BBXX 63103 31064 99612 10011 46/// /1732 10057 20024 49954 57033 22200 10708 70039
BBXX 63104 31064 99612 10016 47496 /1632 10058 20023 49967 57032 762// 22200
BBXX 63117 31064 99613 10011 47497 /1632 10058 20002 49973 57028 762// 22200
BBXX 63115 31064 99616 10013 47496 /1431 10077 20025 49957 57032 762// 22200 10708 70039
BBXX MWYG6 31064 99603 70040 47997 /2517 10092 700// 22200
BBXX 62142 31064 99530 10021 47497 /2719 10096 20081 40058 53002 700// 22200 10402 70012
BBXX 64041 31064 99607 70026 47297 /2416 10087 20082 49899 56010 700// 22200 10806 70030
BBXX 62150 31064 99536 10007 47499 /2619 10098 20087 40059 58001 700// 22200 10502 70011
BBXX 62148 31064 99536 10015 46/// /2416 10091 20080 40054 53002 22200
BBXX 62149 31064 99537 10011 47798 /2416 10095 20087 40052 51003 751// 22200 10502 70012
BBXX 62131 31064 99539 10012 46/// /23// 10094 20083 40044 55001 22200
BBXX 62127 31064 99540 10007 47998 ///// 10094 20080 40046 50005 700// 22200 10503 70013
BBXX 62165 31064 99540 10009 47798 /2518 10095 20080 40046 56002 700// 22200 10503 70013
BBXX 62123 31064 99563 10022 47395 /1717 10078 20060 40002 57020 700// 22200
BBXX 62132 31064 99564 10020 46/// /2214 10079 20067 49999 57018 22200
BBXX 62120 31064 99564 10021 47196 /2016 10078 20079 40000 57020 751// 22200
BBXX 62154 31064 99564 10022 46/// /1817 10071 20065 40001 57021 22200
BBXX 62152 31064 99570 10018 47/97 /1618 10076 20056 49993 57020 700// 22200 10505 70024
BBXX 62119 31064 99570 10019 47296 /1616 10074 20058 49992 57021 740// 22200 10605 70024
BBXX 62133 31064 99571 10009 46/// /2511 10077 20059 49987 56021 22200 10605 70023
BBXX PJGO 31064 99571 10022 47/95 /1521 10065 20054 40004 57023 762// 22200
BBXX 62164 31064 99572 10008 47298 /2512 10088 20073 49985 56014 700// 22200 00090 10605 70023
BBXX 62146 31064 99572 10021 47/95 /1720 10061 20050 49992 57023 763// 22200 10604 70022
BBXX 62140 31064 99573 10013 46/// /22// 10081 20074 49986 57025 22200
BBXX ZQSD5 31064 99583 10007 46/// /1722 10075 20064 49971 57023 22200 10706 70030
BBXX 62122 31064 99573 10016 47296 /1716 10071 20062 49988 57020 753// 22200 10605 70025
BBXX 62153 31064 99573 10020 47295 /1617 10065 20056 49993 57023 762// 22200 10605 70024
BBXX 62104 31064 99574 10013 47196 /1914 10079 20070 49983 57021 762// 22200
BBXX 62116 31064 99576 10011 47296 /2211 10077 20070 49980 57030 710// 22200 10605 70026
BBXX 62155 31064 99577 10007 47298 /2311 10076 20070 49980 57013 751// 22200 10605 70023
BBXX 62118 31064 99577 10009 47296 /2111 10088 20072 49972 57015 700// 22200 10605 70023
BBXX 62143 31064 99577 10018 47296 /1724 10064 20054 49986 57024 762// 22200 10505 70024
BBXX 62117 31064 99579 10000 47296 /2314 10078 20069 49973 57008 751// 22200 10605 70023
BBXX 62102 31064 99579 10018 46/// /1627 10065 20037 49996 57023 22200 10605 70026
BBXX 62134 31064 99580 10014 47397 /1725 10069 20048 49978 57025 700// 22200 10605 70027
BBXX 62114 31064 99583 10000 46/// /2215 10076 20072 49964 57009 22200
BBXX 62027 31064 99491 70022 46/// /2818 1//// 2//// 40171 58004 22200 00108 10805 330// 70025
BBXX UASP 31061 99692 10352 41/97 90808 11011 40039 52010 70011 8//// 222// 20403
BBXX MYSU5 31064 99480 70092 41/97 81135 10135 20126 40195 54000 70222 8//// 22253 00130 20707 3//// 4//// 5//// 80130
BBXX 63119 31064 99583 10009 41296 81927 10073 20058 49962 57020 70222 886// 22200 20305 318// 40807 5////
BBXX 2AUO5 31063 99606 10016 41296 81629 10061 20050 49971 57028 76366 887// 22241 20604 316// 41007 80056
BBXX 62103 31064 99499 70029 46/96 /2625 10119 20111 40148 55001 22200 00119 10704 70021 333 90710 91134
BBXX 62081 31064 99510 70134 46/// ///// 10123 20116 40112 58016 22200 00118 10708 70041
BBXX 62163 31064 99475 70084 46/// /2520 10121 20111 40224 57014 22200 00125 10807 70035 333 90710 91128
BBXX 62094 31064 99517 70067 46/// /2424 10112 20108 40110 58017 22200 00106 10505 70023 333 90710 91133
BBXX 62170 31064 99514 10020 46/98 /2722 10115 20103 40088 55000 22200 00104 10601 70006 333 90710 91129
BBXX 62304 31064 99511 10018 46/99 /2518 10110 20097 40097 55000 22200 00105 10602 70008
BBXX 62305 31064 99504 10000 46/98 /2624 10118 20108 40129 52003 22200 00115 10703 70017 333 90710 91132
BBXX A8RL2 31064 99476 70097 41/97 /2721 10135 40230 57020 70022 8//// 22214 04135 2//06
BBXX 62103 31064 99499 70029 46/98 /2724 10119 20110 40148 50000 22200 00119 10704 70018 333 90710 91133
BBXX A8JC5 31064 99340 70231 41598 51007 10182 20094 40352 57008 70222 854// 22224 04211 299// 3//// 4//// 5//// 80132
BBXX DEDI 31063 99445 70275 41/96 82226 10149 20142 40220 52007 70122 8//// 22224 00156 2//// 322// 41006 80145
AAXX 31061 51076 32980 71103 11092 21126 39524 40469 52005 80002 333 01051 21126
AAXX 31061 51243 32865 70902 11107 21151 39891 40495 52001 82502 333 01204 21149
AAXX 31061 51573 32970 71102 11043 21153 30369 40416 52005 80002 333 00101 21105
AAXX 31061 51709 32960 72001 11063 21105 38843 40423 52009 82032 333 00351 21134
AAXX 31061 54401 32980 03402 10007 21181 39404 40297 57027 333 21102
AAXX 31061 29998 41996 81801 11194 21200 38662 48515 57005 77172 8802/
AAXX 31061 30385 42999 20000 11253 21278 39781 40368 58008 82030
AAXX 31061 30469 42999 00000 11260 21291 39577 40418 58005
AAXX 31061 30636 42998 31001 11272 21296 39738 40418 58014 80001
AAXX 31061 30650 42999 11801 11240 21272 39194 40419 58007 80001
AAXX 31061 30664 42999 30000 11246 21279 39322 40410 58019 80001
AAXX 31061 30781 42999 00000 11210 21259 39862 40373 57013
AAXX 31061 30777 42998 02302 11249 21289 39689 40411 57008
AAXX 31061 30844 42999 51102 11216 21248 39353 40417 58017 80001
AAXX 31061 30925 42999 80203 11164 21198 39338 40373 58017 80004
AAXX 31061 31371 42999 00000 11258 21297 30051 40345 58011
AAXX 31061 31388 42999 00000 11210 21243 30033 40319 57006
AAXX 31061 31478 NIL
AAXX 31061 31532 42999 80000 11273 21298 39952 40334 57009 88059
AAXX 31061 31594 42998 03001 11225 21265 30124 40310 58004
AAXX 31061 31655 42997 00000 11220 21233 30244 40295 57003
AAXX 31061 31754 42999 20000 11167 21217 39751 40286 57012 80001
AAXX 31061 53698 31956 73601 10007 21036 40289 57019 71000 80002 333 21016
AAXX 31061 54602 31957 82001 10019 21048 40282 57022 71000 80007 333 21068
AAXX 31061 22165 32598 80509 11042 21054 39969 40031 58002 82504 333 21083 91112
AAXX 31061 28465 32999 81902 11055 21076 30191 40271 52022 8803/ 333 21089
AAXX 31061 28586 12998 82202 11109 21122 30129 40285 52017 69920 80007 333 21130
AAXX 31061 28688 12998 22403 11105 21125 30133 40301 52020 69900 82030 333 21124
AAXX 31061 28383 11959 72002 11072 21089 30175 40262 52023 69900 77172 87070 333 21111
AAXX 31061 28588 32978 72302 11093 21105 30121 40288 52020 87050 333 21124
AAXX 31061 28696 12970 02002 11112 21118 30158 40306 52021 69900 333 21111
AAXX 31061 22438 11566 81002 10004 21013 39902 49923 53011 60010 70272 885// 333 21003
BBXX SHIP 31064 99034 11472 41497 71011 10277 20241 40067 57011 70222 8682/ 22241 06292 11404 20301 30806 41004 50803
AAXX 31064 61974 11462 52203 10294 20261 40116 60074 72598 84943 333 0//11 20253 58006 82916 82817 94329
AAXX 31064 61986 12580 21108 10311 20254 40111 60004 82202 333 20268 58002 82820 94322
AAXX 31064 61988 12580 20614 10281 20220 40127 69944 82800 333 0//17 20242 50582 59002 82820 91124
AAXX 31064 61989 12480 30912 10296 20227 40133 60004 83800 333 0//00 20246 59001 82818
AAXX 31064 61990 12475 30806 10292 20232 40131 69904 83202 333 02013 20223 50502 58006 83818 94322
AAXX 31064 61995 12475 50503 10275 20206 39657 60104 85202 333 01817 20196 55026 58009 85818 94312
AAXX 31061 23929 32678 82202 11072 21081 30127 40196 52020 85531 333 21103
AAXX 31064 04203 46/// /3406 11191 21220 39967 49985 57005
AAXX 31064 04205 45/84 /1401 11291 21332 39965 49989 52003 333 11253 21304
AAXX 31064 04208 46/// /2110 11208 21238 39938 49984 52002
AAXX 31064 04213 46/// /3415 11156 21183 39854 49969 52004 333 11148 21159 91130
AAXX 31064 04214 46/// /3014 11139 21177 39943 49976 52004
AAXX 31064 04224 45584 13014 11111 21187 39922 49956 52001 333 11101 21153 81/31
AAXX 31064 04228 NIL
AAXX 31064 04242 46/// /0615 11125 21180 39954 49970 52020
AAXX 31064 04253 46/// /3528 11099 21161 39835 49862 52043
AAXX 31064 04266 46/// /3152 11066 21106 39739 49777 54000 333 91065
AAXX 31064 04285 46/// /2823 11046 21075 39741 49760 57006
AAXX 31064 04301 46/// /2618 11271 21320 39983 49988 57009
AAXX 31064 04313 46/// /0208 11235 21268 39983 49995 57025
AAXX 31064 04330 46/// /3535 11228 21263 39909 49927 57033 333 91046
AAXX 31064 04351 46/// /3621 11052 21079 39665 49681 57048 333 91038
AAXX 31064 04373 46/// /3026 11072 21134 39589 49681 57025
AAXX 31064 04382 46/// /2208 11048 21077 39660 49708 57024
AAXX 31064 04416 46/// ///// 11509 21524 36364 57002
AAXX 31061 13492 ///// 8//// 11050 2//// 4//// 5//// 770// 333 21070
AAXX 31061 13585 11596 80000 11047 21048 39292 40114 53003 60022 77177 885// 333 21062 3/106 47003 99503 92200
AAXX 31061 13597 11695 83604 10005 20005 30003 40078 54000 60102 76166 887// 333 20003 31102
AAXX 31061 13598 11594 80000 11022 21025 48384 51003 60072 77177 8802/ 333 21030 3/103 47017 99513 92200
BBXX DGHX 31063 99186 11182 41798 80531 10238 20197 40188 57032 70222 8677/ 22244 00230 20805 306// 41208 80210
BBXX A8UL6 31063 99314 11378 41398 33404 10130 20113 40190 52011 7//00 8/2// 22264 04230 2//02 334// 4//03 5//// 80120
BBXX SHIP 31064 99294 11462 41798 50417 10170 20119 40149 52010 70122 84361 22282 00242 20302 334// 40403 80140
BBXX H9UY 31064 99324 11446 41698 73531 00/// 10130 40190 51010 70322 86516 9//// 22263 04200 20408 318// 40308 5//// 6//// 80100
BBXX SHIP 31064 99351 11313 41698 71918 10095 20031 40239 57089 70222 865// 22263 00165 20000 302// 40505 80065
BBXX DHYW 31061 99417 11427 41998 02815 10070 21030 40170 57030 7//77 80000 22224 00090 20507 33600 40904 5//// 80030
BBXX SHIP 31064 99115 11284 41298 30519 10300 20260 40097 56025 70300 82384 22283 00293 20403 302// 40606 5//// 80270
BBXX SHIP 31064 99270 11353 41598 60416 10230 20134 40200 56010 70311 85360 22254 00210 20402 302// 40603 80170
BBXX SHIP 31064 99232 11221 41798 80515 10210 20180 40199 56011 70222 87453 22213 00240 20306 303// 40306 80190
BBXX 3FMH7 31064 99334 11706 41497 81435 00/// 10195 2//// 40094 57020 70322 887// 9//// 22263 00190 1//// 20505 32028 40807 50506 6//// 80180
BBXX SHIP 31064 99212 11216 41498 70321 10210 20180 40178 57020 78022 8675/ 22214 00248 1//// 20605 303// 40605 80190
BBXX 44034 31061 99441 70681 46/30 /1506 10077 40201 56014 90604 22200 00077 10402 70009 333 91208 555 11079 22084
BBXX 42362 31061 99278 70907 46/// /2104 10217 20178 40200 90615
BBXX 42363 31061 99282 70892 46/// /2704 10222 20150 40203 90615 333 91204
BBXX 42363 31061 99282 70892 46/// /2505 10222 20150 40200 90630 333 91205
BBXX 42364 31061 99291 70881 46/// /2702 10200 20167 40197 90615
BBXX DGZT2 31063 99429 70098 41/98 /2506 10135 20118 40320 57020 70182 8//// 22284 04150 2//// 80125
BBXX SHIP 31064 99400 71755 41/97 63435 10090 20071 40189 52012 70203 8//// 90550 22224 00120 2//// 3//// 4//// 5//// 80080
BBXX ZCAO7 31064 99093 31234 41498 62412 10280 20244 40065 57021 70388 83232 22253 00307 20302 30000 80255
BBXX SHIP 31064 99033 71383 41/97 21214 10255 20217 40124 52020 70211 8//// 22233 04252
BBXX SHIP 31064 99499 31100 41697 23226 10062 20016 49977 52005 70200 82841 22270 00065 10907 20506 33301 40908 51008 6/00/ 85041
BBXX ZCAO7 31064 99093 31234 41498 62412 10280 20244 40065 57021 70388 83232 22253 00307 20302 30000 80255
BBXX SHIP 31064 99033 71383 41/97 21214 10255 20217 40124 52020 70211 8//// 22233 04252
BBXX SHIP 31064 99499 31100 41697 23226 10062 20016 49977 52005 70200 82841 22270 00065 10907 20506 33301 40908 51008 6/00/ 85041
AAXX 31064 62305 32560 12313 10072 20058 40156 54000 81500 333 20070
AAXX 31064 62306 32960 02318 10088 20033 40166 52005 333 20082
AAXX 31064 62318 32960 02207 10085 20042 40178 52009 333 20062
AAXX 31064 62337 NIL
AAXX 31064 62366 31940 02104 10112 20064 40192 52012 71000 333 20108
AAXX 31064 62393 32960 03302 10084 20060 40211 51012 333 20084
AAXX 31064 62405 31958 60000 10120 20044 40180 52019 70520 86050 333 20108
AAXX 31064 62414 32960 23606 10146 20023 40184 52022 80001 333 20129
AAXX 31064 62417 32960 32502 10088 20024 40191 52009 83030 333 20046
AAXX 31064 62440 31512 31305 10078 20068 40183 52021 71000 83500 333 20066
AAXX 31064 62463 32560 62915 10149 20103 40175 52013 82220 333 20136
AAXX 31064 62465 32560 73307 10184 20139 40162 52016 87236 333 20168
AAXX 31064 62419 NIL
AAXX 31064 93800 16/// /2415 10166 20122 40080 57013 60001
AAXX 31064 93805 16/// /1515 10137 20109 40109 57015 60001
AAXX 31064 93987 NIL
AAXX 31064 93994 16/// /0802 10216 20205 40140 54000 60001
BBXX ZMENA 31064 99435 31729 46/// ///// 10145 20078 40143 222//
BBXX ZMFR 31064 99413 31748 43/// /1917 10130 20112 40123 57003 22200 00145
BBXX V2QD4 31063 99341 31615 41497 71922 10200 20185 40136 51020 70211 8677/ 22263 00220 20403 318// 41204
BBXX VRDX2 31063 99001 31316 41497 52508 10344 20278 40064 7//// 8/442 22224 00310 20301 30000
AAXX 31061 14216 12982 01101 10029 21041 30024 40179 53014 60002 333 20028 31104 79999 923// 924/8
AAXX 31061 14219 12580 12701 11051 21066 39156 48446 53/// 60002 81400 333 21057 3/111 43018 79999 93197
AAXX 31061 14232 11/03 91801 11025 21025 30055 40197 52016 60002 74544 333 21025 34103
AAXX 31061 14234 11/01 92301 11043 21043 39942 40201 53017 69912 7454/ 333 21043 34104 70001
AAXX 31061 14236 11/03 93001 11011 21016 39981 40186 52/// 60002 745// 333 21013 31102 70000
AAXX 31061 14244 11410 82801 11008 21011 30063 40197 52018 60002 7102/ 886// 333 21010 32102 70001
AAXX 31061 14248 11515 82302 11011 21015 30010 40190 52/// 60002 7102/ 886// 333 21001 35102
AAXX 31061 14253 11/02 92201 11014 21013 30009 40189 52016 69902 74354 333 21014 35102 79999
AAXX 31061 14256 11410 60000 11025 21026 39855 40187 51015 60002 7104/ 86600 333 21026 34/// 41998
AAXX 31061 14280 12960 03003 11006 21014 30060 40173 52014 60002 333 21006 34103 70001
AAXX 31061 14308 12982 20000 11051 21061 39817 40189 51008 60002 80001 333 21056 34110 92612
AAXX 31061 14321 12682 20302 10068 21044 30145 40170 52/// 60002 81101 222// 00112 333 20065 31004 70013 92312 92428
AAXX 31061 14370 11/06 92402 11002 21007 30068 40181 52016 60002 74342 333 21008 32102
AAXX 31061 14382 11620 60000 11003 21005 30051 40175 52014 60002 7102/ 86500 333 21003 31102
AAXX 31061 14428 12470 10601 10051 21048 30150 40157 53026 60002 81100 222// 00134 333 20051 31102 70021 92301
AAXX 31061 14441 12589 13606 10083 21021 30100 40125 53018 69982 81100 222// 00159 333 20075 31003 70161 92313
AAXX 31061 14452 12599 20404 10074 20008 39883 40120 51/// 60182 81530 333 20059 92312
AAXX 31061 14454 12780 10313 10086 21062 30033 40093 52025 69912 81140 333 20071 31005 70023 91027 91131 91504 92323
AAXX 31061 14462 12580 10210 10075 21050 30113 40119 52/// 69932 81100 333 20050 31004 70068 91116
BBXX ZMENA 31064 99435 31729 46/// ///// 10145 20078 40143 222//
BBXX ZMFR 31064 99413 31748 43/// /1917 10130 20112 40123 57003 22200 00145
BBXX V2QD4 31063 99341 31615 41497 71922 10200 20185 40136 51020 70211 8677/ 22263 00220 20403 318// 41204
BBXX VRDX2 31063 99001 31316 41497 52508 10344 20278 40064 7//// 8/442 22224 00310 20301 30000
AAXX 31064 62305 32560 12313 10072 20058 40156 54000 81500 333 20070
AAXX 31064 62306 32960 02318 10088 20033 40166 52005 333 20082
AAXX 31064 62318 32960 02207 10085 20042 40178 52009 333 20062
AAXX 31064 62337 NIL
AAXX 31064 62366 31940 02104 10112 20064 40192 52012 71000 333 20108
AAXX 31064 62393 32960 03302 10084 20060 40211 51012 333 20084
AAXX 31064 62405 31958 60000 10120 20044 40180 52019 70520 86050 333 20108
AAXX 31064 62414 32960 23606 10146 20023 40184 52022 80001 333 20129
AAXX 31064 62417 32960 32502 10088 20024 40191 52009 83030 333 20046
AAXX 31064 62440 31512 31305 10078 20068 40183 52021 71000 83500 333 20066
AAXX 31064 62463 32560 62915 10149 20103 40175 52013 82220 333 20136
AAXX 31064 62465 32560 73307 10184 20139 40162 52016 87236 333 20168
AAXX 31064 62419 NIL
AAXX 31061 21432 41996 72209 11191 21217 30087 40107 52002 73873 87030
AAXX 31061 21824 41998 21611 11200 21210 30158 40167 53002 73631 82031 333 91123
AAXX 31061 21908 42999 51801 11200 21219 30046 40130 58011 85020
AAXX 31061 21921 41997 81902 11222 21254 30188 40235 58006 77172 8802/
AAXX 31061 21931 41998 62302 11266 21297 30165 40200 58001 70272 86030
AAXX 31061 21946 41598 82303 11300 21323 30127 40214 58001 77871 885// 333 88630
AAXX 31061 21982 12998 03403 11244 21262 30127 40156 53004 69902 333 11243 91105
AAXX 31061 25062 32998 02403 11341 21378 30189 40193 52006 333 11310 91105
AAXX 31061 25123 41996 81403 11292 21322 30200 40236 53005 77173 8802/
AAXX 31061 25138 41598 80000 11300 21323 30107 40242 53003 77172 8452/ 333 91102
AAXX 31061 25173 32999 12803 11300 21323 30180 40185 52006 81030 333 11271 91106
AAXX 31061 25248 41998 60000 11319 21350 39740 40239 53001 70272 86030 333 91101
AAXX 31061 25282 32984 12905 11292 21309 30162 40169 52002 80001 333 11290 91108
AAXX 31061 25325 NIL
AAXX 31061 25356 32999 60000 11411 21451 30106 40221 54000 82031 333 11/// 91000
AAXX 31061 25399 11465 83205 11260 21291 30110 40120 52006 69900 73683 84801 333 1//// 91108
AAXX 31061 25428 41956 70000 11415 21449 39919 40307 53003 71072 82031 333 91101
AAXX 31061 25551 32998 70000 11397 21429 30188 40223 53003 80006 333 11/// 91101
AAXX 31061 25563 32984 03306 11347 21370 30110 40199 53001 333 11341 91108
AAXX 31061 25594 32998 40000 11226 21268 30088 40143 53005 84030 333 11210 91103
AAXX 31061 25677 31998 02603 11343 21371 30184 40190 53005 70230 333 11321 91106
AAXX 31061 31054 41999 30000 11384 21413 30067 40382 57008 70171 82026
AAXX 31061 31123 42599 51501 11350 21387 30049 40423 53002 82502
AAXX 31061 08511 32/// /2306 10163 2//// 30230 40339 57011 333 20161 30015 5//// 55010 24154 555 60005
AAXX 31061 08501 32/// /1902 10176 20132 30277 40314 57002 333 20170 30014 5//// 55005 20371 91107 555 60005
AAXX 31064 61600 31945 70608 10160 20028 30182 40187 70622 80002 333 20159 50784 55068 58004 87073
AAXX 31064 61612 32958 00404 10151 20006 30197 40205 333 01600 20148 50811 55034 58010
AAXX 31064 61627 32956 00804 10154 20034 3//// 4//// 333 00500 20150 50863 55055 5////
AAXX 31064 61630 32958 03604 10170 20043 30177 40197 333 01300 20160 50692 55045 58011
AAXX 31064 61641 31940 60418 10195 20091 30144 40177 70722 80002 333 01900 20190 51164 55044 58009 86073
AAXX 31064 61666 32956 50406 10180 20118 30170 40179 80002 333 01400 20142 50554 55052 58016 85073
AAXX 31064 61679 32956 20408 10195 20126 30172 40180 80002 333 01900 20195 50924 55046 58012 82073
AAXX 31064 61687 31935 00410 10185 21036 30114 40172 70600 333 01500 20164 51061 55070 58011
AAXX 31064 61695 32958 50208 10190 20026 30129 40155 80002 333 01940 20190 50544 55083 58007 85070
AAXX 31064 61697 31956 40214 10198 20034 30137 40152 70711 81032 333 01900 20166 50714 55072 58006 81363 84073
AAXX 31064 61698 NIL
AAXX 31064 61699 32958 51404 10158 20049 39946 40137 80002 333 01400 20140 50764 55087 59001 85073
AAXX 31064 89577 46/// /2808 11323 35794 4//// 5////
AAXX 31061 10499 11465 82905 10019 20002 39840 40136 53011 69912 70262 876// 333 10024 20017 32000 55002 55300 20000 30000 70043 87710 91114
AAXX 3106/ 89767 46/// ///// 11040 39860 4//// 5////
AAXX 31064 04048 41465 81615 10045 20028 49686 57050 76166 8472/ 555 3/526
AAXX 31064 65528 NIL
AAXX 31064 65536 NIL
AAXX 31064 65545 NIL
AAXX 31064 65548 NIL
AAXX 31064 65555 NIL
AAXX 31064 65557 NIL
AAXX 31064 65560 NIL
AAXX 31064 65562 NIL
AAXX 31064 65563 NIL
AAXX 31064 65578 31540 73604 10248 20245 30115 40132 71011 87500 333 20248 58003 87620
AAXX 31064 65585 NIL
AAXX 31064 65592 NIL
AAXX 31064 65594 NIL
AAXX 31064 65599 NIL
AAXX 31061 60373 36/// /2604 10089 20080 333 20088
AAXX 31061 60623 36/// /0000 10030 21079 333 20029
AAXX 31061 60393 16/// /1702 10079 20057 69924 333 20079
AAXX 31061 14246 11958 22601 11031 21041 39973 40186 52011 60002 7100/ 82032 333 21042 34107
BBXX 46088 31061 99483 71232 46/// /2613 10039 40208 90620 22200 00077 10503 20502 326// 40901 70013 333 91214 555 11133 22140 30603 42517 60619 258125 256138 263120 261104 268116 268108
BBXX 46248 31061 99461 71247 46/// ///// 1//// 90604 22200 00096 11310 21006 329// 41307 70048
AAXX 31064 87860 32980 02707 10220 20114 30028 40080 52008
AAXX 31061 08501 32/// /1902 10176 20132 30277 40314 57002 333 20170 30014 5//// 55005 20371 91107
BBXX 46237 31061 99378 71226 46/// ///// 1//// 90610 22200 00110 11705 21003 325// 41705 70027
BBXX 41113 31061 99284 70805 46/// ///// 1//// 90551 22200 00214 11301 21001 308// 41301 70005
AAXX 31061 48826 01430 83403 10152 20134 30086 40223 57028 69923 71064 888// 333 58013 69911 83894 88697 555 20141
AAXX 31061 48839 32697 80509 10169 20126 30149 40216 57034 885// 222// 00185 2//03 333 58010 88696 555 20158
BBXX 46241 31061 99330 71173 46/// ///// 1//// 90541 22200 00146 11802 20801 326// 41801 70010
BBXX 46236 31061 99368 71219 46/// ///// 1//// 90550 22200 00122 11304 21002 328// 41304 70022
BBXX 46229 31061 99438 71246 46/// ///// 1//// 90551 22200 00098 11208 21006 330// 41206 70040
AAXX 31061 48808 11440 80000 10136 20111 39954 40246 57031 69943 71022 888// 333 58008 83894 88696
AAXX 31061 48830 31440 83603 10121 20082 39925 40244 57037 71022 888// 333 58010 85894 88697
BBXX 3FMH7 31064 99334 11706 41497 81435 00/// 10195 2//// 40094 57020 70322 887// 9//// 22263 00190 1//// 20505 32028 40807 50506 6//// 80180
BBXX OUJS2 31064 99414 11566 41497 82528 10090 20030 40000 56110 75877 88772 22224 00090 20807 31919 41206 51005 61/// 80060 ICE /////
BBXX 46207 31061 99509 71299 46/// /3104 10039 40201 52041 22200 00081 11008 70040 333 91207
BBXX A8IM7 31064 99338 71381 41498 31917 10170 20137 40230 52010 70100 8/100 22224 20303 329// 40505 5//// 80150
BBXX OZBY2 31064 99376 71379 41/// 81837 10150 20120 40200 55010 7//21 8//// 22224 00140 20606 335// 41208 5//// 6//// 80130 ICE /////
BBXX VQAJ8 31063 99486 71225 41498 62412 10060 20031 40093 52033 70022 841// 22200 00085 20402 300// 40000 5//// 80048
BBXX WCX8883 31064 99411 71452 41397 72519 10130 20100 40036 52011 7//22 8761/ 22225 00110 20807 31622 40805 5//// 6//// 80115 ICE /////
BBXX WSRH 31064 99318 71390 41498 80905 10183 20160 40220 54000 7//22 87/// 22214 00183 29902 327// 4//03 5//// 6//// 80167 ICE /////
BBXX 46216 31061 99343 71198 46/// ///// 1//// 90557 22200 00144 11303 20902 327// 41302 70014
BBXX 46223 31061 99335 71178 46/// ///// 1//// 90600 22200 00148 11802 21001 328// 41801 70010
BBXX 46147 31061 99518 71312 46/// /3007 10037 40193 52040 22200 00078 11008 70042 333 91211
BBXX 46212 31061 99408 71243 46/// ///// 1//// 90612 22200 00105 11507 21004 329// 41505 70033
BBXX 46217 31061 99342 71194 46/// ///// 1//// 90612 22200 00146 11802 20802 326// 41802 70012
BBXX 46211 31061 99469 71242 46/// ///// 1//// 90606 22200 00085 11310 20906 327// 41307 70048
BBXX 46231 31061 99327 71174 46/// ///// 1//// 90554 22200 00148 12003 20802 327// 42002 70014
BBXX 46222 31061 99336 71183 46/// ///// 1//// 90556 22200 00146 12003 21002 327// 42002 70013
BBXX 46242 31061 99332 71174 46/// ///// 1//// 90558 22200 00142 11502 21001 322// 41501 70008
BBXX 46147 31061 99518 71312 46/// /3007 10037 40193 52040 22200 00078 11008 70042 333 91211
BBXX 41114 31061 99276 70802 46/// ///// 1//// 90616 22200 00233 11301 21001 307// 41301 70006
BBXX 46221 31061 99339 71186 46/// ///// 1//// 90545 22200 00148 11803 20702 325// 41802 70014
BBXX 44172 31061 99445 70634 46/// ///// 1//// 90601 22200 00053 11103 21002 320// 41101 70014
BBXX 44098 31061 99428 70702 46/// ///// 1//// 90607 22200 00082 10502 20502 70010
BBXX 41052 31061 99183 70648 46/// /0709 10260 40168 58012 90600 22200 00268 333 91212
BBXX 41052 31061 99183 70648 46/// /0809 10265 40169 90550 333 91211
BBXX 41052 31061 99183 70648 46/// /0809 10265 40170 90540 333 91211
AAXX 31061 25703 41999 30000 11474 21501 30015 40338 53003 77671 80001
AAXX 31061 25745 42698 50901 11364 21394 30188 40243 53004 85500
AAXX 31061 25913 42599 42803 11164 21177 30079 40236 57003 81501
AAXX 31061 25954 42999 23605 11211 21268 30083 40206 53004 80001
AAXX 31061 25956 42699 50203 11200 21233 30145 40151 53007 85500
AAXX 31061 31088 42999 33604 11237 21232 30259 40267 58007 83040
AAXX 31061 31873 42999 81101 11185 21237 30145 40290 56009 80009
AAXX 31061 31909 42999 53204 11062 21209 30149 40229 57004 80009
AAXX 31061 31960 42998 23507 11115 21199 30007 40255 56014 81031 333 91114
AAXX 31061 31961 42997 80601 11120 21182 30226 40275 57015 80004
AAXX 31061 32053 41495 83103 11127 21147 30189 40241 53006 78582 889// 333 87712 91006 91108
AAXX 31061 32061 41596 83504 11123 21158 30211 40252 55000 78582 889// 333 91006 91107
AAXX 31061 32098 41295 83403 11077 21095 30212 40222 53003 78682 889// 333 88706 91006 91107
AAXX 31061 32150 41498 33604 11020 21045 30170 40200 53005 78581 83900 333 91006 91108
AAXX 31061 32165 41597 83407 10003 21016 30090 40151 53024 78783 889// 333 91013 91115
AAXX 31061 32215 42684 32802 11051 21096 30177 40207 56008 82501 333 91003 91104
AAXX 31061 32252 NIL
AAXX 31061 32389 41698 51301 11267 21285 30190 40231 54000 74042 82530
AAXX 31061 32477 41496 81501 11073 21078 30187 40219 56001 78582 889//
AAXX 31061 32583 41999 13303 11081 21117 30183 40215 57009 70241 80001
AAXX 31061 32618 42598 73606 11074 21128 30181 40203 58002 87500
AAXX 31064 87453 32965 03205 10210 20147 39621 40090 57008
AAXX 31061 48826 01430 83403 10152 20134 30086 40223 57028 69923 71064 888// 333 58013 69911 83894 88697 555 20141
AAXX 31061 48839 32697 80509 10169 20126 30149 40216 57034 885// 222// 00185 2//03 333 58010 88696 555 20158
AAXX 31060 67423 31580 72802 10280 20225 39529 48550 71792 84933 333 20237 55/// 55/// 58008 81925 84830 86359 555 10325 7//92
AAXX 31060 67699 11465 61302 10254 20222 60444 74052 86530 333 20200 55/// 55/// 70437 86615 84359 555 10270 7//96
AAXX 31064 71924 11974 02904 11363 21406 30019 40115 53003 69901 77677 333 11286 21387 48038 79999 90983 555 19999 29999
AAXX 31064 71432 17/// /0812 10038 20030 39951 40047 58015 60021 7//4/ 333 10042 20006 70026 555 30717 40001
AAXX 31064 89002 42599 81011 11030 21044 39815 49869 52013 888//
AAXX 31064 71217 16/// /2209 11045 21075 60001 333 10076 21051 70000 555 32540 40233
AAXX 31064 71224 16/// /2607 11039 21077 60001 333 10045 21039 70000 555 32425 40211
AAXX 31064 71375 46/// /0312 11127 6///1 333 11027 21127 7//// 555 32927 40071
AAXX 31064 71463 46/// /2120 10067 20006 39828 40049 58014 6///1 333 10072 20048 7//// 555 32424 40111
AAXX 31064 71979 16/// ///// 11070 21110 38348 40015 53048 60001 333 10000 21181 70000
AAXX 31064 71343 16/// /2515 11006 21055 60001 333 10088 21018 70000 555 32534 40203
AAXX 31064 71276 46/// ///09 11119 21133 6///1 333 11026 21125 7////
AAXX 31064 71189 46/// /1007 11144 21166 6///1 333 11144 21204 7//// 555 32947 40073
AAXX 31064 71924 11974 02904 11363 21406 30019 40115 53003 69901 77677 333 11286 21387 48038 79999 90983 555 19999 29999
AAXX 31064 71432 17/// /0812 10038 20030 39951 40047 58015 60021 7//4/ 333 10042 20006 70026 555 30717 40001
AAXX 31064 71217 16/// /2209 11045 21075 60001 333 10076 21051 70000 555 32540 40233
AAXX 31064 71224 16/// /2607 11039 21077 60001 333 10045 21039 70000 555 32425 40211
BBXX 46183 31061 99536 71311 46/// /0604 10023 40177 52044 22200 00074 10402 70012 333 91208
AAXX 31061 56193 NIL
AAXX 31061 56196 31925 80701 10062 20037 40290 57032 71040 8807/ 333 00151 20021
AAXX 31061 56287 32561 70402 10100 20058 40277 57036 8114/ 333 00102 20038
AAXX 31061 56684 32570 80401 10034 21010 37929 57034 885// 333 00359 20006
AAXX 31061 56751 32980 00701 10146 20015 38041 57033 333 00100 20021
AAXX 31061 56786 11558 81402 10050 20025 38141 57033 69901 72160 885// 333 00360 20032
AAXX 31061 56977 32580 61102 10197 20156 40190 57028 86400 333 00151 20113
AAXX 31061 57259 32968 02502 10109 20032 40276 57038 333 20008
AAXX 31061 57279 31958 02702 10105 20021 40277 57027 70500 333 20016
AAXX 31061 57348 32860 81603 10097 20047 40284 57028 885// 333 20073
AAXX 31061 57399 11957 71802 10093 20028 40284 57024 69901 70560 87030 333 20039
AAXX 31061 57554 31957 42901 10109 20025 40276 57037 70500 80002 333 20017
AAXX 31061 57793 31720 83201 10107 20063 40279 57029 71000 885// 333 20070
AAXX 31061 58345 32961 00401 10092 21007 40273 57029 333 21003
AAXX 31061 58506 32862 82502 10031 21011 40286 57021 885// 333 21011
AAXX 31061 58813 31659 80202 10091 20077 40276 57021 71000 885// 333 20075
AAXX 31061 58834 11760 80202 10112 20084 40258 57024 69921 70060 885// 333 20095
AAXX 31061 58926 32670 83401 10146 20085 40242 57025 8557/ 333 20116
AAXX 31061 58944 32568 70205 10121 20068 40248 57019 875// 333 20106
AAXX 31061 59096 32562 80402 10154 20067 40241 57033 885// 333 20095
AAXX 31061 59102 32662 80403 10109 20070 40257 57022 885// 333 20078
AAXX 31061 59278 32860 72901 10174 20083 40233 57036 875// 333 20127
AAXX 31061 59456 32868 70201 10193 20083 40218 57038 875// 333 20139
AAXX 31061 59493 31558 10201 10203 20098 40215 57035 70500 81100 333 20141
AAXX 31061 59658 32761 70901 10194 20104 40218 57035 875// 333 20147
AAXX 31061 59673 32962 70404 10176 20105 40219 57032 8704/ 333 20148
AAXX 31061 59845 11560 80901 10174 20150 40215 57034 69911 70060 888// 333 20156
AAXX 31061 50434 32980 03401 11228 21283 39383 40378 57010 333 21334
AAXX 31061 50527 32970 63402 11285 21317 39505 40404 57002 80002 333 21327
AAXX 31061 50603 11980 23401 11218 21264 39637 40398 52002 69901 70070 80002 333 21294
AAXX 31061 50632 32980 03403 11173 21238 39363 40336 57007 333 21223
AAXX 31061 50727 11580 53602 11188 21231 39058 40349 57008 69901 77077 85500 333 21238
AAXX 31061 50915 32980 72202 11160 21216 39264 40372 57012 80002 333 21264
AAXX 31061 51716 32962 02001 11034 21103 39036 40416 52009 333 00300 21143
AAXX 31061 51765 32980 01802 11047 21126 39356 40437 57002 333 00302 21191
AAXX 31061 51777 32970 02901 11053 21125 39313 40438 52004 333 00452 21158
AAXX 31061 51811 32962 01101 11025 21096 38905 40411 52004 333 00305 21145
AAXX 31061 51828 32962 00701 11023 21123 38747 40401 52006 333 00401 21109
AAXX 31061 52267 32980 02701 11056 21190 39200 40382 57022 333 00000 21181
AAXX 31061 52323 32980 03406 11071 21160 38290 57008 333 00154 21185
AAXX 31061 52495 32980 03203 11018 21192 38757 40371 57019 333 00001 21187
AAXX 31061 53149 32980 02705 11048 21160 38846 40348 57014 333 00201 21168
AAXX 31061 53192 32980 02903 11194 21220 38950 40413 57011 333 21271
AAXX 31061 53231 32978 02204 11044 21194 38550 57013 333 00101 21157
AAXX 31061 53336 32980 02002 11035 21149 38786 40342 57015 333 00100 21119
AAXX 31061 53391 32980 03204 11089 21170 38547 40351 57010 333 00155 21160
AAXX 31061 53529 32980 02702 10004 21183 38691 40334 57018 333 00152 21131
AAXX 31061 53543 32980 03202 11021 21166 38592 40328 57016 333 21097
AAXX 31061 53723 32970 03201 10014 21127 38722 40320 57021 333 00103 21116
AAXX 31061 54012 32980 12702 11142 21199 39071 40375 57013 80002 333 21292
AAXX 31061 54026 32980 21102 11070 21192 39946 40296 57015 80002 333 21158
AAXX 31061 54027 32980 10204 11038 21174 39662 40288 57022 81032 333 21165
AAXX 31061 54208 32980 02905 11107 21180 38801 40353 57013 333 21195
AAXX 31061 54776 31458 83204 10015 21034 30210 40269 57021 71000 886// 333 21015
AAXX 31061 56004 32980 00401 11066 21323 35842 57021 333 00000 21251
AAXX 31061 56033 32980 12202 11072 21281 36036 57020 80002 333 00151 21238
AAXX 31061 56046 32980 00702 11044 21210 36275 57031 333 00154 21215
AAXX 31061 38844 41999 50000 11041 21087 48520 52002 70284 82032
AAXX 31061 38598 42597 10707 10018 21013 40376 57016 81600
BBXX 46183 31061 99536 71311 46/// /0604 10023 40177 52044 22200 00074 10402 70012 333 91208
AAXX 31061 28044 32/// /2301 11043 21063 30028 40195 52015 333 21061
AAXX 31061 60379 36/// /2103 10089 20089 333 20081
AAXX 31061 60380 36/// /3202 10081 20065 333 20076
AAXX 31061 60394 36/// /0000 10052 20051 333 20052
AAXX 31061 60374 36/// /1904 10109 20073 333 20106
AAXX 31061 60613 36/// /0000 11005 21075 333 21006
BBXX 46131 31061 99499 71250 46/// /3104 1//// 40196 52046 22200 00074 10300 70002 333 91205
BBXX 46131 31061 99499 71250 46/// /3104 1//// 40196 52046 22200 00074 10300 70002 333 91205
AAXX 31064 78583 32470 30903 10247 20237 40164 60001 83800 333 01200 58000 83817
AAXX 31064 40582 31958 40000 10120 21055 40254 53013 70500 84030 333 55302 00296 10000 20760 30252 41106 51313 61012 55407 40509 84360 90401 91001 91105 91203 91301
AAXX 31064 41150 NIL
AAXX 31064 41168 NIL
AAXX 31064 41170 41958 03410 10198 20142 30238 40251 70500 333 20161 59005 555 00126
AAXX 31064 41176 NIL
AAXX 31064 41184 42960 00000 10195 20114 40228 333 20100 58003
AAXX 31064 41194 12960 09903 10214 20104 30229 40234 60001 333 20154 59001
AAXX 31064 41196 42960 09902 10207 20094 30198 40238 333 20090 30008 59001
AAXX 31064 41198 32583 40711 10242 20086 30202 40231 84530 333 20173 58008 84625
AAXX 31064 41210 NIL
AAXX 31064 41216 NIL
AAXX 31064 41217 42960 00804 10180 20121 30197 40227 333 20138 30011 58000
AAXX 31064 41218 42960 00409 10203 20100 39920 40229 333 20130 30012 59006
AAXX 31064 41226 NIL
AAXX 31064 41244 NIL
AAXX 31064 41246 NIL
AAXX 31064 41254 36/// /3004 10095 20021 38191 48196 333 0E003 20043 59038
AAXX 31064 41256 32560 22605 10233 20138 30220 40230 81430 333 20167 3/018 58010 81625
AAXX 31064 41258 NIL
AAXX 31064 41268 32560 33614 10248 20128 30202 40218 83500 333 20220 3/022 58008 83625
AAXX 31064 41312 36/// /0010 10221 21010 30171 40211 333 0E/// 20202 59001
AAXX 31064 41314 36/// /3110 10165 21041 39713 40269 333 0E010 20097 59010
AAXX 31064 41316 36/68 /0017 10217 21034 30191 40217 333 0E018 20192 58000
AAXX 31064 41404 42960 01402 10142 21075 37921 48579 333 20035 30104 59002
AAXX 31064 41407 42970 00606 10168 21020 38996 48547 333 20082 30/// 58002
AAXX 31064 41431 42960 01208 10246 20181 30166 40179 333 20202 30/// 59004
AAXX 31064 41466 42960 01606 10210 20058 38606 48406 333 20096 30/// 59011
AAXX 31064 41477 42960 01712 10244 20180 333 20225 30///
AAXX 31064 41480 42560 39902 10252 20174 30201 40204 83500 333 20204 30/// 59004 83620
AAXX 31064 41258 36/// /3201 10242 20130 30217 40221 333 0E/// 20216 58009
AAXX 31064 78583 32470 30903 10247 20237 40164 60001 83800 333 01200 58000 83817
AAXX 31060 67791 11365 72201 10280 20194 60024 74042 876// 333 20175 5//// 55034 70024 84709 87620 555 10259 7//96
BBXX 46204 31061 99514 71288 46/// /2509 10051 40191 52042 22200 00078 11207 70036 333 91212
AAXX 31064 89667 46/// /3307 10014 39804 4//// 5////
AAXX 31064 89667 46/// /3307 10015 29070 39804 4//// 5////
AAXX 31064 89667 46/// /3306 10017 29068 39803 4//// 5//// 90610
AAXX 3106/ 89828 46/// ///// 11124 36555 4//// 5//// 90610
AAXX 3106/ 89828 46/// ///// 11125 36554 4//// 5////
AAXX 3106/ 89866 46/// ///// 10025 39717 4//// 5////
AAXX 3106/ 89866 46/// ///// 10025 39717 4//// 5//// 90610
AAXX 3106/ 89799 46/// ///// 11245 4//// 5////
AAXX 3106/ 89799 46/// ///// 11249 4//// 5//// 90610
AAXX 3106/ 89314 46/// ///// 11128 38110 4//// 5////
AAXX 3106/ 89327 46/// ///// 11040 39537 4//// 5////
AAXX 3106/ 89108 46/// ///// 11216 36921 4//// 5////
AAXX 3106/ 89108 46/// ///// 11216 36921 4//// 5//// 90610
AAXX 3106/ 89879 46/// ///// 10081 39746 4//// 5////
AAXX 3106/ 89879 46/// ///// 10078 39745 4//// 5//// 90610
AAXX 3106/ 89872 46/// ///// 10001 39759 4//// 5//// 90610
AAXX 3106/ 89869 46/// ///// 10019 39743 4//// 5////
AAXX 3106/ 89869 46/// ///// 10019 39743 4//// 5//// 90610
AAXX 3106/ 89329 46/// ///// 11105 38627 4//// 5////
AAXX 3106/ 89868 46/// ///// 10008 39745 4//// 5////
AAXX 3106/ 89868 46/// ///// 10011 39745 4//// 5//// 90610
AAXX 3106/ 89332 46/// ///// 11021 39106 4//// 5////
AAXX 3106/ 89769 46/// ///// 10021 39795 4//// 5////
BBXX FHZI 31064 99630 31449 46/// /1917 10002 21017 39838 49849 52018 22283 04001 86006
BBXX VNSZ 31064 99412 31464 46/// /3608 10208 20143 30140 40166 57019 22200 04193 85167
BBXX C6FS9 31064 99393 31464 46/// /0908 10184 20172 30118 40155 57015 22223 04186 85176
BBXX VROB 31064 99270 31533 46/// /1419 10232 20138 30122 40147 57016 22284 04246 85173
BBXX VNAH 31064 99383 31416 46/// /1412 10214 20132 30127 40150 57009 22200 04199 85163
BBXX A8KO3 31063 99287 31135 41898 32220 10220 20190 40100 54000 70311 821// 22284 00170 20503 323// 40504 80200
AAXX 31064 48350 32665 13602 10290 20180 39851 40148 57037 81100 333 58002
AAXX 31061 35229 31596 80801 11088 21103 30069 40356 53001 77072 885// 333 21166
AAXX 31061 35416 32997 01405 11085 21100 30183 40310 52002 333 21150
AAXX 31061 35426 11999 51102 11119 21132 30051 40363 53007 69900 70272 80005 333 21132
AAXX 31061 35532 31992 01114 11010 21136 39844 40362 57001 73933 333 21102 91018 91118
AAXX 31061 36864 32698 80903 11040 21074 39525 40455 58002 885// 333 21062
AAXX 31061 38196 31496 53604 11054 21092 39397 40424 56003 73831 85600 333 21119
AAXX 31061 38198 31995 00000 11073 21103 30141 40416 57005 71000 333 21141
AAXX 31061 38328 32999 01103 11032 21137 39625 40384 57010 333 21156
AAXX 31061 38334 31998 00607 11042 21101 39394 40396 57012 73630 333 21116
AAXX 31061 38439 32998 00000 11016 21040 30036 40387 57011 333 21061
AAXX 31061 35229 31596 80801 11088 21103 30069 40356 53001 77072 885// 333 21166
AAXX 31061 35416 32997 01405 11085 21100 30183 40310 52002 333 21150
AAXX 31061 35426 11999 51102 11119 21132 30051 40363 53007 69900 70272 80005 333 21132
AAXX 31061 35532 31992 01114 11010 21136 39844 40362 57001 73933 333 21102 91018 91118
AAXX 31061 36864 32698 80903 11040 21074 39525 40455 58002 885// 333 21062
AAXX 31061 38196 31496 53604 11054 21092 39397 40424 56003 73831 85600 333 21119
AAXX 31061 38198 31995 00000 11073 21103 30141 40416 57005 71000 333 21141
AAXX 31061 38328 32999 01103 11032 21137 39625 40384 57010 333 21156
AAXX 31061 38334 31998 00607 11042 21101 39394 40396 57012 73630 333 21116
AAXX 31061 38439 32998 00000 11016 21040 30036 40387 57011 333 21061
BBXX VNSZ 31064 99412 31464 46/// /3608 10208 20143 30140 40166 57019 22200 04193 85167
BBXX C6FS9 31064 99393 31464 46/// /0908 10184 20172 30118 40155 57015 22223 04186 85176
BBXX VROB 31064 99270 31533 46/// /1419 10232 20138 30122 40147 57016 22284 04246 85173
BBXX VNAH 31064 99383 31416 46/// /1412 10214 20132 30127 40150 57009 22200 04199 85163
BBXX A8KO3 31063 99287 31135 41898 32220 10220 20190 40100 54000 70311 821// 22284 00170 20503 323// 40504 80200
AAXX 31061 21802 42999 21504 11221 21249 30075 40100 58006 82040
AAXX 31061 24125 42998 80000 11211 21223 39846 40143 57011 80005
AAXX 31061 24136 41998 82901 11252 21284 30082 40189 58016 77172 8802/
AAXX 31061 24143 41999 31807 11287 21325 30200 40255 58012 73673 83070
AAXX 31061 24266 42999 12601 11428 21455 30092 40299 54000 80001
AAXX 31061 24329 42999 20000 11318 21341 39876 40211 57012 82070
AAXX 31061 24343 41498 61603 11298 21321 30144 40276 57011 70272 82632
AAXX 31061 24382 41994 60000 11400 21427 30011 40302 53004 71022 81031
AAXX 31061 24639 41998 80000 11222 21240 30086 40252 57011 77172 85017
AAXX 31061 24641 41998 80602 11275 21306 30111 40268 57012 77177 86071
AAXX 31061 24652 42998 81205 11300 21330 30191 40329 57005 86031
AAXX 31061 24656 41998 80902 11321 21357 30235 40350 57004 77177 80007
AAXX 31061 24671 42999 00000 11461 21485 39797 40405 57004
AAXX 31061 24688 41999 20000 11520 21551 39368 40494 57003 70440 80001
AAXX 31061 24724 41596 82204 11108 21121 39669 40213 57009 78683 889//
AAXX 31061 24738 41999 81902 11157 21163 30068 40253 57010 70287 85031
AAXX 31061 24768 41996 70802 11336 21372 30076 40342 57005 77172 87010
AAXX 31061 24923 41698 82306 11162 21196 30061 40286 57015 77173 86501 333 86633 91112
AAXX 31061 24944 42998 82602 11213 21231 39998 40314 57010 84031
AAXX 31061 24951 41999 82701 11220 21245 30121 40302 58018 70272 8807/
AAXX 31061 24661 42999 20000 11399 21427 30049 40360 57005 80001
AAXX 31061 24959 41997 80201 11344 21374 30187 40336 57005 77172 80005
AAXX 31061 24962 41998 80000 11337 21365 30128 40342 57006 77172 8807/
AAXX 31061 24966 41997 80000 11376 21399 30100 40352 57006 77171 82037
AAXX 31061 24967 41998 80000 11341 21378 30103 40354 57010 77172 80006
AAXX 31061 25206 41999 72201 11344 21374 30223 40254 53008 70272 80001
AAXX 31061 25400 42999 81901 11368 21391 30198 40261 53003 80001
AAXX 31061 30054 42998 71501 11272 21303 30061 40329 57020 84041
AAXX 31061 30089 42999 80000 11240 21265 30107 40352 57014 80001
AAXX 31061 30393 42999 89901 11304 21327 39237 40411 58004 80007
AAXX 31061 30493 42999 81801 11187 21220 39222 40340 58006 82031
AAXX 31061 31004 41997 82302 11183 21202 39442 40334 57006 77172 84037
AAXX 31061 31137 42999 20000 11327 21358 39234 40405 58020 80001
BBXX C6VG7 31064 99022 70860 41697 41120 10270 2//// 40180 54/// 7//// 843// 22214 00270 20402 3//// 4//// 5//// 6//// 8//// ICE /////
BBXX WKAB 31064 99256 10568 41998 00709 10230 20080 40226 52016 70200 80000 22235 00243 20404 308// 40504 5//// 6//// 80145 ICE /////
BBXX WKAE 31063 99243 70819 41998 01005 10237 20186 40198 58006 70200 80000 22264 00240 2//// 3//// 4//// 5//// 6//// 80203 ICE /////
BBXX WAZV 31064 99521 71353 41598 32705 10020 2104/ 40200 52010 70200 838// 22233 00070 20703 330// 41107 5//// 6//// 81005 ICE /////
BBXX C6WK7 31064 99288 70136 417// 30315 10160 2//// 40320 54/// 7//11 8119/ 22213 00210 2//// 314// 40502 5//// 6//// 8//// ICE /////
AAXX 31064 91650 NIL
AAXX 31064 91652 NIL
AAXX 31064 91656 NIL
AAXX 31064 91659 11599 31006 10283 2024/ 40080 55000 60001 70200 81801 333 569/9 81822
AAXX 31064 91660 NIL
AAXX 31064 91669 36/// /1112 10285 20267 40079 5//// 90619
AAXX 31064 91670 36/// /0200 10288 20235 40070
AAXX 31064 91676 14/// /0804 10275 20235 30010 40070 50002 60001
AAXX 31064 91680 11599 51807 10275 20241 40073 53006 60001 70311 85800 333 569// 83828 83650
AAXX 31064 91682 NIL
AAXX 31064 91683 11599 60000 10285 20244 40076 53003 60001 70122 86801 333 569/9 84822 85650
AAXX 31064 91691 14/// /0801 10275 20243 30082 40085 50005 69951
AAXX 31064 91693 NIL
AAXX 31064 91697 14/// /0902 10271 20215 30078 40083 50003 60001
AAXX 31064 91699 14/// /0805 10269 20232 30066 40098 50005 60001
AAXX 31061 30157 42998 21603 11291 21322 30083 40404 57015 80001
AAXX 31064 40250 NIL
AAXX 31064 40265 NIL
AAXX 31064 40296 31958 30000 10127 20101 40188 52004 71000 80002 333 20112 30007 70004 83070
AAXX 31064 40310 NIL
BBXX WKAB 31064 99256 10568 41998 00709 10230 20080 40226 52016 70200 80000 22235 00243 20404 308// 40504 5//// 6//// 80145 ICE /////
BBXX ZCDL9 31063 99255 30139 41497 61824 10160 20143 40210 52020 703// 8/2// 22244 04140 20606 318// 40606 5//// 80150
BBXX C6TL7 31061 99205 50166 41698 51108 10210 20178 40200 54000 70211 85266 22273 04220 20201 312// 40401 5//// 80190
BBXX PHAL 31063 99066 70134 41/98 /9902 10276 20200 40133 50011 70222 8//// 22273 2//// 80223 90983
BBXX PHAA 31063 99197 70195 41999 00518 10201 20106 40230 57014 70200 80000 22253 20504 80145 90983
BBXX PHPP 31064 99224 10604 41597 40518 10272 20205 40205 51010 70511 8/2// 22244 00260 2//03 80225
BBXX WCX8812 31064 99501 11613 41298 40718 11010 2104/ 40200 57010 71671 844// 22264 00030 2//// 3//// 4//// 5//// 6//// 81020 ICE /////
BBXX SHIP 31064 99212 11216 41498 70321 10210 20180 40178 57020 78022 8675/ 22214 00248 1//// 20605 303// 40605 80190
BBXX 3FMH7 31064 99334 11706 41497 81435 00/// 10195 2//// 40094 57020 70322 887// 9//// 22263 00190 1//// 20505 32028 40807 50506 6//// 80180
BBXX SHIP 31064 99270 11353 41598 60416 10230 20134 40200 56010 70311 85360 22254 00210 20402 302// 40603 80170
BBXX SHIP 31064 99232 11221 41798 80515 10210 20180 40199 56011 70222 87453 22213 00240 20306 303// 40306 80190
BBXX SHIP 31064 99115 11284 41298 30519 10300 20260 40097 56025 70300 82384 22283 00293 20403 302// 40606 5//// 80270
BBXX DGHX 31063 99186 11182 41798 80531 10238 20197 40188 57032 70222 8677/ 22244 00230 20805 306// 41208 80210
BBXX H9UY 31064 99324 11446 41698 73531 00/// 10130 40190 51010 70322 86516 9//// 22263 04200 20408 318// 40308 5//// 6//// 80100
BBXX DHYW 31061 99417 11427 41998 02815 10070 21030 40170 57030 7//77 80000 22224 00090 20507 33600 40904 5//// 80030
BBXX SHIP 31064 99351 11313 41698 71918 10095 20031 40239 57089 70222 865// 22263 00165 20000 302// 40505 80065
BBXX A8UL6 31063 99314 11378 41398 33404 10130 20113 40190 52011 7//00 8/2// 22264 04230 2//02 334// 4//03 5//// 80120
BBXX SHIP 31064 99294 11462 41798 50417 10170 20119 40149 52010 70122 84361 22282 00242 20302 334// 40403 80140
BBXX OYCY2 31064 99346 11290 41897 82814 10070 2005/ 40270 54000 70222 8661/ 22253 00200 20401 306// 40902 5//// 6//// 80060 ICE /////
BBXX DCLH2 31060 99298 11783 41/98 60907 10220 20166 40185 54000 70311 8//// 22263 06230 2//// 3//// 4//// 5//// 80185
BBXX UFLC 31060 99537 11466 41297 80311 11040 40252 54000 77072 8672/ 22212 06010 20402
BBXX IDDUK02 31064 99528 50401 46/// ///// 49896 222//
BBXX WE4805 31064 99439 70866 41/99 60415 10027 2//// 40068 54000 70202 84452 22201 00033 20602 3//// 4//// 5//// 6//// 8//// ICE /////
BBXX 46204 31061 99514 71288 46/// /2509 10051 40191 52042 22200 00078 11207 70036 333 91212
BBXX 46131 31061 99499 71250 46/// /3104 1//// 40196 52046 22200 00074 10300 70002 333 91205
BBXX 46183 31061 99536 71311 46/// /0604 10023 40177 52044 22200 00074 10402 70012 333 91208
BBXX WAZV 31064 99521 71353 41598 32705 10020 2104/ 40200 52010 70200 838// 22233 00070 20703 330// 41107 5//// 6//// 81005 ICE /////
BBXX WKAE 31063 99243 70819 41998 01005 10237 20186 40198 58006 70200 80000 22264 00240 2//// 3//// 4//// 5//// 6//// 80203 ICE /////
BBXX WCDP 31064 99243 70817 41498 10907 10234 2//// 40210 54000 70200 812// 22264 00239 2//// 3//// 4//// 5//// 6//// ICE /////
BBXX A8JF3 31064 99402 70502 41/97 /2730 10190 2015/ 40290 52010 700// 8//// 22264 00170 20409 327// 40809 5//// 6//// 80165 ICE /////
BBXX 41052 31061 99183 70648 46/// /0809 10265 40170 90540 333 91211
BBXX 41052 31061 99183 70648 46/// /0809 10265 40169 90550 333 91211
BBXX 44172 31061 99445 70634 46/// ///// 1//// 90601 22200 00053 11103 21002 320// 41101 70014
BBXX 44098 31061 99428 70702 46/// ///// 1//// 90607 22200 00082 10502 20502 70010
BBXX 46221 31061 99339 71186 46/// ///// 1//// 90545 22200 00148 11803 20702 325// 41802 70014
BBXX 41052 31061 99183 70648 46/// /0709 10260 40168 58012 90600 22200 00268 333 91212
BBXX 41114 31061 99276 70802 46/// ///// 1//// 90616 22200 00233 11301 21001 307// 41301 70006
BBXX 46211 31061 99469 71242 46/// ///// 1//// 90606 22200 00085 11310 20906 327// 41307 70048
BBXX 46222 31061 99336 71183 46/// ///// 1//// 90556 22200 00146 12003 21002 327// 42002 70013
BBXX 46231 31061 99327 71174 46/// ///// 1//// 90554 22200 00148 12003 20802 327// 42002 70014
BBXX 46242 31061 99332 71174 46/// ///// 1//// 90558 22200 00142 11502 21001 322// 41501 70008
BBXX 46147 31061 99518 71312 46/// /3007 10037 40193 52040 22200 00078 11008 70042 333 91211
BBXX 46223 31061 99335 71178 46/// ///// 1//// 90600 22200 00148 11802 21001 328// 41801 70010
BBXX 46216 31061 99343 71198 46/// ///// 1//// 90557 22200 00144 11303 20902 327// 41302 70014
BBXX 46212 31061 99408 71243 46/// ///// 1//// 90612 22200 00105 11507 21004 329// 41505 70033
BBXX 46217 31061 99342 71194 46/// ///// 1//// 90612 22200 00146 11802 20802 326// 41802 70012
BBXX 46229 31061 99438 71246 46/// ///// 1//// 90551 22200 00098 11208 21006 330// 41206 70040
BBXX 46237 31061 99378 71226 46/// ///// 1//// 90610 22200 00110 11705 21003 325// 41705 70027
BBXX 41113 31061 99284 70805 46/// ///// 1//// 90551 22200 00214 11301 21001 308// 41301 70005
BBXX 46241 31061 99330 71173 46/// ///// 1//// 90541 22200 00146 11802 20801 326// 41801 70010
BBXX 46236 31061 99368 71219 46/// ///// 1//// 90550 22200 00122 11304 21002 328// 41304 70022
BBXX 46248 31061 99461 71247 46/// ///// 1//// 90604 22200 00096 11310 21006 329// 41307 70048
BBXX 46088 31061 99483 71232 46/// /2613 10039 40208 90620 22200 00077 10503 20502 326// 40901 70013 333 91214 555 11133 22140 30603 42517 60619 258125 256138 263120 261104 268116 268108
BBXX DDSC2 31063 99192 70663 41398 20918 10260 20225 40190 57015 70200 8/100 22254 00263 20704 314// 40604 80235
BBXX SHIP 31064 99400 71755 41/97 63435 10090 20071 40189 52012 70203 8//// 90550 22224 00120 2//// 3//// 4//// 5//// 80080
BBXX 42363 31061 99282 70892 46/// /2505 10222 20150 40200 90630 333 91205
BBXX 42364 31061 99291 70881 46/// /2702 10200 20167 40197 90615
BBXX 42363 31061 99282 70892 46/// /2704 10222 20150 40203 90615 333 91204
BBXX 42362 31061 99278 70907 46/// /2104 10217 20178 40200 90615
BBXX 44034 31061 99441 70681 46/30 /1506 10077 40201 56014 90604 22200 00077 10402 70009 333 91208 555 11079 22084
BBXX PDHY 31063 99461 70496 41398 82718 10020 40214 52006 70222 887// 22263 04030 20612 3//// 4//// 5////
BBXX KCHV 31064 99259 70800 41498 22407 10211 2017/ 40200 50013 7//00 821// 22243 0//// 2//// 3//// 4//// 5//// 6//// 80183 ICE /////
BBXX A8UE5 31064 99523 71401 41398 31913 10030 21067 40150 52020 75055 82795 22224 04050 20402 326// 41006 5//// 80000
BBXX C6SE3 31064 99119 70695 41597 30929 10260 20239 40170 54/// 7//// 8/9// 22283 00270 2//// 3//// 40404 5//// 6//// 80245 ICE /////
BBXX WQVY 31064 99354 70507 41/// 82324 10195 2018/ 40290 51010 7//22 8/6// 22223 0//// 20502 39999 40604 50403 6//// 80185 ICE /////
BBXX PBKH 31064 99304 71166 41298 83127 10141 20120 40179 54000 70322 887// 22284 2//// 3//// 4//// 5////
BBXX 9HXD9 31064 99193 70652 41898 30927 10250 2//// 40160 54/// 70211 8228/ 22274 04280 20804 308// 4//// 5//// 6//// 8//// ICE /////
BBXX 41029 31061 99328 70796 46/// /2504 1//// 90600 555 11041 22042
BBXX 46111 31061 99481 71227 46/// /2606 10063 40210 53048 90600 22200 00050
BBXX 46207 31061 99509 71299 46/// /3104 10039 40201 52041 22200 00081 11008 70040 333 91207
BBXX SHIP 31064 99499 31100 41697 23226 10062 20016 49977 52005 70200 82841 22270 00065 10907 20506 333 01 40908 51008 6/00/ 85041
BBXX V2QD4 31063 99341 31615 41497 71922 10200 20185 40136 51020 70211 8677/ 22263 00220 20403 318// 41204
BBXX VRDX2 31063 99001 31316 41497 52508 10344 20278 40064 7//// 8/442 22224 00310 20301 30000
BBXX ZMFR 31064 99413 31748 43/// /1917 10130 20112 40123 57003 22200 00145
BBXX ZMENA 31064 99435 31729 46/// ///// 10145 20078 40143 222//
BBXX ZCAO7 31064 99093 31234 41498 62412 10280 20244 40065 57021 70388 83232 22253 00307 20302 30000 80255
BBXX SHIP 31064 99499 31100 41697 23226 10062 20016 49977 52005 70200 82841 22270 00065 10907 20506 33301 40908 51008 6/00/ 85041
BBXX SHIP 31064 99033 71383 41/97 21214 10255 20217 40124 52020 70211 8//// 22233 04252
BBXX SHIP 31064 99034 11472 41497 71011 10277 20241 40067 57011 70222 8682/ 22241 06292 11404 20301 30806 41004 50803
BBXX DCDO2 31063 99009 31393 41698 73610 10270 20243 40070 54000 70322 87464 22234 00300 20301 305// 41003 5//// 80250
BBXX DGZT2 31063 99429 70098 41/98 /2506 10135 20118 40320 57020 70182 8//// 22284 04150 2//// 80125
BBXX DEDI 31063 99445 70275 41/96 82226 10149 20142 40220 52007 70122 8//// 22224 00156 2//// 322// 41006 80145
BBXX A8RL2 31064 99476 70097 41/97 /2721 10135 40230 57020 70022 8//// 22214 04135 2//06
BBXX A8JC5 31064 99340 70231 41598 51007 10182 20094 40352 57008 70222 854// 22224 04211 299// 3//// 4//// 5//// 80132
BBXX 62103 31064 99499 70029 46/98 /2724 10119 20110 40148 50000 22200 00119 10704 70018 333 90710 91133
BBXX 62305 31064 99504 10000 46/98 /2624 10118 20108 40129 52003 22200 00115 10703 70017 333 90710 91132
BBXX 62304 31064 99511 10018 46/99 /2518 10110 20097 40097 55000 22200 00105 10602 70008
BBXX 62170 31064 99514 10020 46/98 /2722 10115 20103 40088 55000 22200 00104 10601 70006 333 90710 91129
BBXX 62163 31064 99475 70084 46/// /2520 10121 20111 40224 57014 22200 00125 10807 70035 333 90710 91128
BBXX 62094 31064 99517 70067 46/// /2424 10112 20108 40110 58017 22200 00106 10505 70023 333 90710 91133
BBXX 62103 31064 99499 70029 46/96 /2625 10119 20111 40148 55001 22200 00119 10704 70021 333 90710 91134
BBXX 62081 31064 99510 70134 46/// ///// 10123 20116 40112 58016 22200 00118 10708 70041
BBXX 2AUO5 31063 99606 10016 41296 81629 10061 20050 49971 57028 76366 887// 22241 20604 316// 41007 80056
BBXX 63119 31064 99583 10009 41296 81927 10073 20058 49962 57020 70222 886// 22200 20305 318// 40807 5////
BBXX MYSU5 31064 99480 70092 41/97 81135 10135 20126 40195 54000 70222 8//// 22253 00130 20707 3//// 4//// 5//// 80130
BBXX 62027 31064 99491 70022 46/// /2818 1//// 2//// 40171 58004 22200 00108 10805 330// 70025
BBXX 62114 31064 99583 10000 46/// /2215 10076 20072 49964 57009 22200
BBXX 62134 31064 99580 10014 47397 /1725 10069 20048 49978 57025 700// 22200 10605 70027
BBXX UASP 31061 99692 10352 41/97 90808 11011 40039 52010 70011 8//// 222// 20403
BBXX 62122 31064 99573 10016 47296 /1716 10071 20062 49988 57020 753// 22200 10605 70025
BBXX 62102 31064 99579 10018 46/// /1627 10065 20037 49996 57023 22200 10605 70026
BBXX 62117 31064 99579 10000 47296 /2314 10078 20069 49973 57008 751// 22200 10605 70023
BBXX ZQSD5 31064 99583 10007 46/// /1722 10075 20064 49971 57023 22200 10706 70030
BBXX 62143 31064 99577 10018 47296 /1724 10064 20054 49986 57024 762// 22200 10505 70024
BBXX 62118 31064 99577 10009 47296 /2111 10088 20072 49972 57015 700// 22200 10605 70023
BBXX 62155 31064 99577 10007 47298 /2311 10076 20070 49980 57013 751// 22200 10605 70023
BBXX 62153 31064 99573 10020 47295 /1617 10065 20056 49993 57023 762// 22200 10605 70024
BBXX 62104 31064 99574 10013 47196 /1914 10079 20070 49983 57021 762// 22200
BBXX 62116 31064 99576 10011 47296 /2211 10077 20070 49980 57030 710// 22200 10605 70026
BBXX 62140 31064 99573 10013 46/// /22// 10081 20074 49986 57025 22200
BBXX 62133 31064 99571 10009 46/// /2511 10077 20059 49987 56021 22200 10605 70023
BBXX 62152 31064 99570 10018 47/97 /1618 10076 20056 49993 57020 700// 22200 10505 70024
BBXX PJGO 31064 99571 10022 47/95 /1521 10065 20054 40004 57023 762// 22200
BBXX 62164 31064 99572 10008 47298 /2512 10088 20073 49985 56014 700// 22200 00090 10605 70023
BBXX 62146 31064 99572 10021 47/95 /1720 10061 20050 49992 57023 763// 22200 10604 70022
BBXX 62119 31064 99570 10019 47296 /1616 10074 20058 49992 57021 740// 22200 10605 70024
BBXX 62165 31064 99540 10009 47798 /2518 10095 20080 40046 56002 700// 22200 10503 70013
BBXX 62154 31064 99564 10022 46/// /1817 10071 20065 40001 57021 22200
BBXX 62120 31064 99564 10021 47196 /2016 10078 20079 40000 57020 751// 22200
BBXX 62132 31064 99564 10020 46/// /2214 10079 20067 49999 57018 22200
BBXX PCBZ 31064 99075 70839 41998 02511 10260 20235 40108 57007 70100 80000 22223 00245 20301 80242 90983
BBXX 62123 31064 99563 10022 47395 /1717 10078 20060 40002 57020 700// 22200
BBXX 62127 31064 99540 10007 47998 ///// 10094 20080 40046 50005 700// 22200 10503 70013
BBXX 62150 31064 99536 10007 47499 /2619 10098 20087 40059 58001 700// 22200 10502 70011
BBXX 62142 31064 99530 10021 47497 /2719 10096 20081 40058 53002 700// 22200 10402 70012
BBXX 62148 31064 99536 10015 46/// /2416 10091 20080 40054 53002 22200
BBXX 62131 31064 99539 10012 46/// /23// 10094 20083 40044 55001 22200
BBXX 62149 31064 99537 10011 47798 /2416 10095 20087 40052 51003 751// 22200 10502 70012
BBXX MWYG6 31064 99603 70040 47997 /2517 10092 700// 22200
BBXX 64041 31064 99607 70026 47297 /2416 10087 20082 49899 56010 700// 22200 10806 70030
BBXX 63117 31064 99613 10011 47497 /1632 10058 20002 49973 57028 762// 22200
BBXX 63115 31064 99616 10013 47496 /1431 10077 20025 49957 57032 762// 22200 10708 70039
BBXX 63113 31064 99610 10017 46/// /1732 10055 20026 49971 57028 22200 10607 70033
BBXX 63107 31064 99611 10017 46/// /1633 10060 49968 57030 22200
BBXX 63112 31064 99611 10010 47/97 /1630 10054 20022 49952 57032 751// 22200 10607 70036
BBXX 63105 31064 99610 10017 47497 ///// 10054 20025 49972 57028 751// 22200
BBXX 63106 31064 99610 10017 46/// /1630 10056 49969 57029 22200
BBXX 63104 31064 99612 10016 47496 /1632 10058 20023 49967 57032 762// 22200
BBXX 63103 31064 99612 10011 46/// /1732 10057 20024 49954 57033 22200 10708 70039
BBXX 63101 31064 99612 10009 46/// /1731 10054 20029 49965 57029 22200
BBXX 63108 31064 99608 10017 47296 /1732 10039 20015 49961 57029 762// 22200 10706 70029
BBXX 62144 31064 99534 10017 47797 /2521 10090 20079 40059 50002 700// 22200 10402 70012
BBXX PJAI 31064 99581 70014 47498 /2315 10092 20064 49960 50000 700// 22200
BBXX 62112 31064 99584 70002 47394 /2315 10078 20072 49962 58008 762// 22200
BBXX 62145 31064 99531 10028 47597 /2617 10088 20074 40058 55002 700// 22200 10503 70016
BBXX 63055 31064 99606 10016 47297 /1428 10044 20043 49961 57030 704// 22200 10606 70031
BBXX 62111 31064 99580 70003 46/// /2515 10078 20070 49974 58001 22200 10605 70023
BBXX 63056 31064 99597 10016 47496 /1527 10053 20032 49974 57022 771// 22200 10606 70030
BBXX 62121 31064 99535 10027 46/// ///// 22200
BBXX 63057 31064 99592 10015 47496 /1727 10055 20035 49972 57026 762// 22200 10606 70028
BBXX 63110 31064 99595 10015 46/// ///// 22200
BBXX 62303 31064 99516 70051 46/// /2620 10114 20107 40114 58011 22200 00110 10605 70025 333 90710 91127
BBXX 62128 31064 99587 10014 47396 /1627 10061 20042 49973 57025 700// 22200 10606 70030
BBXX 62113 31064 99584 10002 47295 /2213 10074 20068 49966 57013 762// 22200
BBXX DEDI 31064 99445 70276 41/96 82942 10149 20142 40220 52007 70122 8//// 22224 00156 2//// 322// 41006 80145
BBXX 62129 31064 99584 10003 46/// ///// 10074 20069 49966 57013 22200
BBXX 62105 31064 99554 70122 46/// /2323 10111 20107 49972 57032 22200 00106 10809 70045 333 90710 91130
BBXX 64046 31064 99606 70049 46/// /2518 10081 20072 49900 52006 22200 00076 10606 70030
BBXX 64045 31064 99591 70117 46/// /2020 10088 20066 49880 58039 22200 00100 10708 70042 333 90710 91128
BBXX 62081 31064 99510 70134 46/// ///// 10123 20116 40112 58016 22200 00118 10708 70042
BBXX 62001 31064 99452 70050 46/// /2618 10136 20129 40264 56011 22200 00129 10707 70035 333 90710 91125
BBXX 62442 31064 99490 70164 46/// /2321 1//// 2//// 40152 58019 22200 00122 333 90710 91129
BBXX 62029 31064 99487 70125 46/// /2423 10131 20126 40184 56012 22200 00126 10707 70035 333 90710 91129
BBXX 62301 31064 99524 70047 46/// /2414 10100 20093 40094 57010 22200 00095 10603 70016
BBXX LF3N 31064 99653 10073 41698 81510 10042 21068 40046 57012 70222 8//// 22200 00089 10806 70030
BBXX LF5T 31064 99660 10081 436// /1507 10031 21067 40051 57009 22200 10806 70031 333 91114
BBXX LF4B 31064 99606 10037 47/98 /1526 10043 40012 57021 700// 22200 00053 10604 70022 333 91129
BBXX 3ERR2 31064 99635 10053 41998 81419 10040 21030 40026 57015 70222 8801/ 22200 06098 11005 70026 333 91122
BBXX LF3F 31064 99643 10078 43/// /1212 10039 21069 40048 57014 22200 04084 10906 70028 333 91114
BBXX LF4C 31064 99584 10019 41496 71626 10061 20049 49974 57028 760// 89/// 22200 00073 10605 70025 333 91131
BBXX C6KD6 31064 99499 70023 41/97 92724 10125 20114 40151 57020 71044 8972/ 22224 02113 20607 80119
BBXX BATFR21 31064 99427 10089 46/// /1708 20252 40176 53005 22231
BBXX 61001 31064 99434 10078 46/// /1805 10126 20028 40164 57002 22200 00141 10803 70016
BBXX BATUK01 31064 99560 70032 46/// /2505 10092 20042 40003 58003 22200 00059
BBXX BATFR60 31064 99453 70008 46/// /2714 10129 20120 40237 55009 22243 00084
BBXX BATFR04 31064 99558 70076 46/// /2120 10102 20090 49998 58005 22232 00107
BBXX BATFR24 31064 99433 10054 46/// /3005 10079 20032 40202 53020 22200 00114
BBXX BATEU08 31064 99588 70129 46/// /2033 10084 20072 49859 56042 22223
BBXX BATEU01 31064 99470 70121 44796 82526 10137 20124 40217 56005 72022 886// 22254 00130 20806 325// 40806 5////
BBXX BATEU05 31064 99621 70029 46/// /1628 10069 49882 56044 22273
BBXX BATFR27 31064 99437 70038 46/// /2625 10145 20094 40290 55010 22245 00144
BBXX BATFR54 31064 99451 70007 46/// /2816 10127 20120 40248 22232 00075
BBXX BATFR52 31064 99489 70038 46/// /2526 10125 20120 40173 58003 22254 00127
BBXX BATFR09 31064 99367 70090 44/98 03617 10132 20027 40334 53007 70200 22263 00177 20404 60//0 ICE 0/0//
BBXX BATFR03 31064 99493 70002 46/// /2829 10109 20107 40150 52016 22243
BBXX BATFR02 31064 99508 70011 46/// /2624 10109 20089 40128 58002 22283 00102
BBXX BAREU12 31064 99518 10031 46/// ///// 40072 52002 22262
BBXX BATFR22 31064 99417 10086 46/// /3308 10122 40185 53006 22224 00155
BBXX TESTFR9 31064 99489 70038 46/// /2628 10123 29100 40200 52006 22254
BBXX BAREU63 31064 99326 10195 46/// /3010 10150 29068 40112 52003 22252
BBXX BAREU11 31064 99536 10097 46/// ///// 40111 22261
BBXX BATFR14 31064 99490 70054 44/96 92826 10122 20117 40179 53005 70044 22254 00119 20308 60000 ICE 0/0//
BBXX BAREU56 31064 99426 10097 46/// ///// 40179 52011 22282
BBXX BAREU08 31064 99460 70124 46/// ///// 40250 57008 22254
BBXX BAREU05 31064 99388 70165 46/// ///// 40369 57010 22224
AAXX 31061 38611 41996 01601 10007 21032 39803 40397 57005 71000 333 21043
BBXX 51203 31061 99208 71570 46/// ///// 1//// 90613 22200 00248 11101 20901 324// 41101 70006
BBXX 51201 31061 99217 71581 46/// ///// 1//// 90612 22200 00240 11102 20902 332// 41102 70012
BBXX 46185 31061 99524 71298 46/// /3008 10035 40186 52044 22200 00069 10705 70023 333 91212
BBXX 46114 31061 99364 71222 46/// ///// 1//// 90604 22200 00122 11406 21003 328// 41405 70031
BBXX 46088 31061 99483 71232 46/// /2613 10039 40208 90620 22200 00077 10503 20502 326// 40901 70013 333 91214 555 11133 22140 30603 42517 60619 258125 256138 263120 261104 268116 268108
BBXX 46087 31061 99485 71247 46/// /3210 10059 20029 40211 90620 22200 00083 333 91213 555 11111 22117 30608 43114 60619 323105 301108 289105 289107 293097 293097
BBXX 42085 31061 99179 70665 46/// /1012 10257 40169 90610 333 91215
BBXX 44029 31061 99425 70706 46/30 /0302 10075 40166 58017 90604 22200 00080 10401 70007 333 91202 555 11019 22020
BBXX 44030 31061 99432 70704 46/// /0108 1//// 40179 58015 90604 22200 00081 10402 70008 333 91209 555 11094 22100
BBXX 44033 31061 99441 70690 46/30 /0106 10030 40194 58016 90604 22200 00066 10301 70006 333 91207 555 11069 22072
AAXX 31064 42309 32596 10000 10246 20157 40176 81500 333 59001
AAXX 31064 42314 32996 10505 10246 20125 40187 81030 333 58000 81360
AAXX 31064 42410 31996 00506 10232 20163 40193 70500 333 58007
AAXX 31064 42415 32596 10503 10256 20138 40201 81100 333 58002 81825
AAXX 31064 42492 31995 00000 10234 20108 40187 70540 333 58004
AAXX 31064 42587 32996 30000 10252 20153 40174 83030 333 58000 83360
AAXX 31064 42591 31995 00706 10260 20143 40182 70500 333 59003
AAXX 31064 42623 31596 13202 10208 20102 39294 40162 70500 81500 333 59001 81620
AAXX 31064 42701 31996 71802 10260 20128 39445 40164 70511 87030 333 58004 87360
AAXX 31064 42706 31495 50602 10266 20125 40180 70510 82530 333 56390 58008 82618 83360
AAXX 31064 42724 31996 30000 10264 20109 40173 70502 83030 333 58006 83360
AAXX 31064 42798 31994 40000 10250 20130 40162 70422 84030 333 58004 84360
AAXX 31064 42809 31495 63202 10276 20135 40174 70522 82530 333 58005 82615 85360
AAXX 31064 42886 31595 83201 10250 20158 40178 70522 8652/ 333 58010 86620 88460
AAXX 31064 42895 32596 63602 10262 20141 40174 82530 333 58007 82620 86360
AAXX 31064 42971 31595 70506 10288 20171 40166 70522 83531 333 58005 83620 85360
AAXX 31064 43333 31496 30708 10298 20247 40130 70511 83400 333 56100 59010 81618 83820
AAXX 31064 42398 NIL
AAXX 31064 42977 NIL
AAXX 31064 43368 NIL
AAXX 31061 27928 11396 81801 11017 21022 39910 40121 53005 60020 71072 885// 333 21026 47004
AAXX 31061 34110 11496 81901 11008 21012 39849 40131 53015 60012 71022 886// 333 21023 47002 88719
AAXX 31061 55299 32980 01602 10020 21245 35883 57025 333 00102 21186
AAXX 31061 55591 32980 02201 10080 21207 36550 57027 333 00202 21059
AAXX 31061 56739 32980 02003 10169 21027 38392 57024 333 00101 20016
AAXX 31061 56951 32980 00202 10201 20025 38537 57032 333 00200 20043
AAXX 31061 56964 32580 22502 10225 20100 38745 40179 57025 82100 333 00103 20092
AAXX 31061 57328 31940 80000 10104 20039 39863 40282 57030 71000 8807/ 333 20061
AAXX 31061 57411 31930 73602 10078 20053 39906 40289 57035 71040 8704/ 333 20040
AAXX 31061 57447 31960 00901 10107 20018 39724 40278 57035 70040 333 20018
AAXX 31061 57662 32962 72002 10100 20001 30237 40282 57032 8704/ 333 20055
AAXX 31061 57745 31950 81801 10084 20015 39949 40286 57040 71000 8807/ 333 20046
AAXX 31061 57972 11750 80201 10062 20052 30056 40289 57024 69921 71060 885// 333 20054
AAXX 31061 58203 32965 72702 10083 21002 30230 40273 57025 80002 333 21029
AAXX 31061 58314 32960 70000 10104 20030 30156 40266 57025 87040 333 21005
AAXX 31061 58424 31958 82002 10075 21012 30252 40278 57025 70500 8807/ 333 20031
AAXX 31061 59023 32862 80202 10125 20029 39946 40263 57038 885// 333 20095
AAXX 31061 59417 31558 82901 10128 20091 30092 40250 57037 71000 888// 333 20105
AAXX 31061 59985 32580 20406 10267 20229 30163 40168 57025 82100 333 20224
AAXX 31061 59995 NIL
BBXX 46185 31061 99524 71298 46/// /3008 10035 40186 52044 22200 00069 10705 70023 333 91212
AAXX 31064 17060 12660 60804 10092 20018 30062 40102 55000 60002 83250 333 20066 30002 50131 55014 20419 83835 85360
AAXX 31064 89050 41295 83516 10004 20004 49664 54000 76162 8802/
AAXX 31064 89512 32598 71330 11023 21101 39720 49869 52018 87500 333 21025
AAXX 31064 89574 42998 11002 10015 21080 49932 57008 81030
AAXX 31064 89592 42998 50000 10023 21052 49898 57006 80001
AAXX 31064 89606 41998 23212 11247 21296 36305 47761 54000 73631 80001 333 21318
AAXX 31064 17112 11550 80404 10068 20058 30075 40077 55001 60042 76000 8452/ 333 20059 32003 50064 55000 20033 70041 84630 88459 91111 92416
AAXX 31064 41263 36/// /3202 10193 20108 39542 40237 333 0E013 20131 58004
AAXX 31064 61698 32958 70406 10197 20037 30155 40166 80002 333 01700 20195 50914 55055 58019 87073
AAXX 31061 24790 41999 00000 11485 21499 39430 40430 57003 77670
AAXX 31061 24988 42999 03101 11310 21347 30003 40286 57007
AAXX 31061 25378 32998 22201 11280 21318 30141 40178 53003 80001 333 11255 91102
AAXX 31061 25503 41699 61302 11430 21455 30160 40310 53004 77672 82531
AAXX 31061 25705 41996 60000 11467 21494 39930 40326 57002 71022 80001
AAXX 31061 25927 42698 22701 11217 21229 30220 40227 57012 82500
AAXX 31061 25932 42999 02001 11187 21220 30186 40228 53002
AAXX 31061 31152 NIL
AAXX 31061 31174 42599 10000 11168 21187 30287 40299 57006 81500
AAXX 31061 31489 42998 60000 11219 21245 30176 40304 57006 80002
AAXX 31061 31866 41598 80405 11057 21095 30225 40231 53001 78582 889//
AAXX 31061 31959 42598 52704 11029 21149 30178 40222 57007 81132
AAXX 31061 31989 42999 11902 11012 21081 30167 40222 57009 80001
AAXX 31061 32027 41596 83610 11152 21172 30256 40265 54000 78583 889// 333 91012 91114
AAXX 31061 32076 41540 80202 11097 21109 30215 40225 53003 78582 889// 333 91004 91104
AAXX 31061 32099 42598 80209 11053 21067 30191 40199 53002 82931 333 91011 91112
AAXX 31061 32121 42999 73404 11044 21075 30188 40221 53004 87050 333 91005 91105
AAXX 31061 32213 42599 10907 11034 21077 30137 40202 56008 81500
AAXX 31061 32287 41597 71202 11124 21130 30202 40213 57003 78582 86970 333 86920
AAXX 31061 32408 42999 03502 11254 21278 30181 40224 53005
AAXX 31061 32509 42999 22902 11081 21175 30172 40208 56002 80001
AAXX 31061 32594 42599 20806 11068 21141 30169 40206 57007 81501
BBXX 41053 31061 99185 70661 46/// /1106 10261 40171 58014 90600 22200 00271 10704 70018 333 91209
BBXX A8OZ4 31064 99340 10285 43698 32113 10160 20110 40120 53010 7//// 8378/ 22234 00172 20401 322// 40 401 5//// 80130
BBXX A8IZ2 31112 31006 99358 10180 41/98 73010 10125 20060 40075 57060 22234 80090
AAXX 31064 61017 31956 50434 10142 21040 39761 40174 7072/ 80002 333 00700 20142 50754 55095 58021 85080
AAXX 31064 61024 32960 51014 10168 21015 39587 40156 80002 333 01400 20165 51191 5//// 58012 85080
AAXX 31064 61036 32965 70000 10154 21018 39907 40149 80008 333 01300 20151 50801 50654 55101 59003 87280
AAXX 31064 61043 32960 70608 10177 21053 39695 40137 80008 333 0//00 20170 50931 5///4 55105 59003 87280
AAXX 31064 61045 32965 70404 10150 21052 30654 40156 80008 333 01200 20150 5//// 50604 55098 58019 87280
AAXX 31064 61049 32960 70804 10160 21028 39820 40142 82038 333 01500 20160 50951 50834 55096 58015 82364 87280
AAXX 31064 61052 32960 20404 10154 21010 39891 40150 80002 333 01200 20145 51181 55106 58008 82080
AAXX 31064 61075 32960 30000 10180 21012 39826 40137 80002 333 01500 20170 50731 50504 55108 58001 83080
AAXX 31064 61080 32960 70806 10165 21006 39724 40147 80008 333 01400 20162 51081 50774 55104 58003 87280
AAXX 31064 61090 32960 70406 10180 21050 39636 40147 80008 333 01600 20180 51081 50994 55107 58015 87280
AAXX 31064 61091 NIL
AAXX 31064 61096 32965 70404 10165 21027 39771 40155 80008 333 01500 20161 51031 50794 55106 58017 87280
AAXX 31064 61099 32965 73608 10184 21010 39899 40129 80008 333 01700 20177 51041 51201 58002 87280
AAXX 31064 65563 31130 33604 10130 20121 39897 40141 71000 83600 333 20126 58003 83702
AAXX 31064 65592 11440 7//// 10235 20232 30092 40115 60024 71044 8223/ 333 20230 58002 82613 87360
AAXX 31064 65594 32456 72604 10240 20234 30094 40128 875// 333 20236 58000 87613
AAXX 31064 65599 31303 3//// 10233 20232 30042 40115 74644 83500 333 20232 58002 82705 83613
AAXX 31061 60376 36/// /1904 10091 20091 333 20086
AAXX 31061 60593 36/// /0000 10040 333 20040
BBXX A8OZ4 31064 99340 10285 43698 32113 10160 20110 40120 53010 7//// 8378/ 22234 00172 20401 322// 40401 5//// 80130
AAXX 31064 64700 32960 60208 10180 21001 397795 40135 80002 333 01300 20165 51221 55107 58012 86075
AAXX 31064 64701 NIL
AAXX 31064 64702 NIL
AAXX 31064 64705 33960 30000 10150 20066 3//// 4//// 80002 90558 333 0//00 2//// 50694 55/// ///// 5//// 83075
AAXX 31064 64706 32960 50000 10192 20072 39652 40123 80002 333 01400 20172 51854 ///// 55105 58002 85075
AAXX 31064 64708 NIL
AAXX 31064 64709 33960 20404 10205 20024 3//// 4//// 80002 90615 333 0//00 20179 ///// 55/// 5//// 82075
AAXX 31064 64710 NIL
AAXX 31064 64713 NIL
AAXX 31064 64722 33960 10190 20120 3//// 4//// 80002 90600 333 0//00 20140 50674 ///// 55/// 5//// 81075 64750 32960 53206 10186 20068 39702 40114 80002 90557 333 01100 20160 50821 ///// 55095 59003 85075
AAXX 31064 64751 31956 40406 10182 21004 3//// 4//// 706// 82032 90550 333 0//00 20176 50853 ///// 55/// 5//// 82365 83075
AAXX 31064 64753 32960 25410 10175 21008 3//// 4//// 80002 90550 333 0//00 20160 51304 ///// 55/// 5//// 82075
AAXX 31064 64754 33960 33204 10195 20034 3//// 4//// 80002 90610 333 0//00 20150 50584 ///// 55/// 5//// 83075
AAXX 31064 64756 42962 31006 10219 20021 39510 4//// 80002 90600 333 0//00 20174 5//// ///// 55/// 58010 83075
AAXX 31064 64757 NIL
AAXX 31064 64758 NIL
AAXX 31064 64761 NIL
AAXX 31064 89132 NIL
AAXX 31064 89542 46/// /0906 11012 20051 49958 52016
AAXX 31064 89575 NIL
AAXX 31064 89657 NIL
AAXX 31064 40250 NIL
AAXX 31064 40265 NIL
AAXX 31064 40296 31958 30000 10127 20101 40188 52004 71000 80002 333 20112 30007 70004 83070
AAXX 31064 40310 NIL
AAXX 31064 40255 32560 30000 10095 20064 39458 40181 52007 83100 333 20080 30003 83830
AAXX 31064 40260 NIL
AAXX 31064 40270 31940 21905 10082 20047 39270 40175 52004 70400 80001 333 20074 31003 82070
AAXX 31064 40272 31957 30000 10050 20026 39340 40187 52004 71000 80001 333 20030 30002 83070
AAXX 31064 40290 NIL
AAXX 31064 40340 12660 43606 10140 20063 40179 52008 69912 84200 333 20130 30011 70002 84830
BBXX NIL
AAXX 31064 06610 01456 82310 10024 20011 39592 40188 57015 60032 76366 887// 333 20015 32001 55009 55300 20000 69965 70065 88714 90768 93100 91117 91210
BBXX NIL
BBXX NIL
BBXX NIL
BBXX NIL
AAXX 31064 06670 01235 81507 10007 21002 39653 40178 56020 60022 77176 8572/ 333 21002 3/103 41001 55028 55300 20000 69965 70039 81703 85715 88531 90768 93101 91114 91209
AAXX 31064 06700 01257 82502 10025 20014 39697 40201 56015 60112 76176 8272/ 333 20002 32000 55000 55300 20000 60015 70157 82704 88535 90768 93100 91106 91204
AAXX 31064 06680 01/01 92423 11059 21059 37436 47965 53000 60092 77174 333 21130 47363 55000 55300 20000 60025 70308 90768 93103 91153 91236
AAXX 31064 06990 01/06 91706 10000 21016 39634 40198 56014 69962 77333 333 21008 3/103 47/// 55000 55300 20000 69945 70053 91117 91209
AAXX 31064 06760 32875 83502 10022 21056 39736 40195 52011 8802/ 333 20013 31102 55012 55300 20000 70017 88458 90768 93100 91104 91203
AAXX 31064 06720 03/// /0000 10005 20001 39619 40212 57013 60092 333 20003 3/000 55000 55300 20000 60025 70124 91102 91202
AAXX 31064 41258 36/// /3201 10242 20130 30217 40221 333 0E/// 20216 58009
AAXX 3106/ 89327 46/// ///// 11039 39568 4//// 5////
AAXX 3106/ 89828 46/// ///// 11128 36555 4//// 5////
AAXX 3106/ 89108 46/// ///// 11221 36921 4//// 5////
AAXX 3106/ 89869 46/// ///// 10015 39741 4//// 5////
AAXX 3106/ 89866 46/// ///// 10026 39716 4//// 5////
AAXX 3106/ 89329 46/// ///// 11106 38627 4//// 5////
AAXX 3106/ 89799 46/// ///// 11245 4//// 5////
AAXX 3106/ 89769 46/// ///// 10009 39794 4//// 5////
AAXX 3106/ 89314 46/// ///// 11126 38111 4//// 5////
AAXX 31064 87166 32960 01605 10205 20176 39998 40070 57015
AAXX 31061 23074 41997 81907 11120 21140 30009 40034 52019 77173 8802/
AAXX 31061 23274 41496 72303 11095 21107 30037 40073 52021 78583 879// 333 85918
AAXX 31061 23383 41596 80401 11131 21151 39758 40121 52005 77172 8451/
AAXX 31061 23472 41497 82204 11071 21100 30057 40100 52023 78583 889//
AAXX 31061 23678 41596 81601 11058 21069 30083 40142 52013 77172 8211/
AAXX 31061 23884 41967 82402 11045 21054 30102 40176 52013 77172 8801/
AAXX 31061 23891 41598 80401 11128 21148 39870 52008 70272 82536
AAXX 31061 24507 41698 60000 11216 21234 39925 40186 52001 70272 82506
AAXX 31061 24817 41999 81902 11136 21149 39854 40238 57010 70182 82041
AAXX 31061 24908 41561 82302 11096 21112 39893 40231 58001 77177 8251/
AAXX 31061 29263 41596 72002 11040 21059 30139 40245 52014 78582 82932
AAXX 31061 29282 41597 62802 11085 21100 30081 40256 52006 70471 85901
AAXX 31061 29379 42999 72503 11057 21093 30063 40276 52005 80002
AAXX 31061 29570 41599 72304 11049 21094 39943 40298 52015 78581 85901
AAXX 31061 29698 41696 83401 11140 21167 39787 40330 52002 70422 82972
AAXX 31061 30230 42599 80000 11214 21254 39960 40315 57015 82531
AAXX 31061 30252 42999 20000 11328 21351 30070 40432 58015 80001
AAXX 31061 30309 41598 80000 11117 21130 39755 40299 51002 72272 8292/
AAXX 31061 30328 42998 61401 11211 21244 39881 40343 57018 85041
AAXX 31061 30521 42997 80000 11247 21265 39798 40377 58008 8807/
AAXX 31061 30710 42599 82803 11114 21140 39715 40325 52007 8597/
AAXX 31061 23973 42997 82103 11046 21052 30115 40178 52006 77172 8802/
AAXX 31061 23975 41598 72403 11049 21055 30068 40179 53020 78583 87900
AAXX 31061 23986 41599 61903 11076 21094 39564 40210 52014 70132 86300
AAXX 31061 23987 41496 71902 11047 21067 30127 40201 52012 78582 85930
AAXX 31061 24606 41599 80000 11165 21184 39916 40197 58005 70272 86507
AAXX 31061 29253 41997 82302 11044 21079 30063 40038 52018 77172 8802/
AAXX 31061 29471 42599 72102 11057 21095 30049 40282 52007 86901
AAXX 31061 29481 42999 33001 11120 21133 30046 40296 52016 80001
AAXX 31061 29553 41571 52504 11060 21104 39922 40297 52018 70272 85900
AAXX 31061 29562 41598 52403 11049 21112 39872 40298 52014 70232 83930
AAXX 31061 29581 42998 12702 11084 21121 30036 40302 52010 80001
AAXX 31061 29594 41999 52502 11039 21101 39903 40295 52007 70182 82041
AAXX 31061 29653 42598 71401 11111 21131 39814 40320 52016 85201
AAXX 31061 29675 41898 82701 11053 21094 39714 40318 52009 72271 8801/
AAXX 31061 29676 41699 82903 11027 21106 39866 40292 52009 70232 85801
AAXX 31061 29752 41492 72407 11123 21136 38840 48485 52010 78683 87900 333 91121
AAXX 31061 29759 41599 52704 11089 21123 39257 40317 53014 78582 84901 333 91112
AAXX 31061 29766 42899 70000 11095 21098 39970 40340 52006 86051
AAXX 31061 29789 NIL
AAXX 31061 29864 42699 32605 11055 21131 39665 40332 52017 81942 333 91115
AAXX 31061 29866 42699 82402 11060 21071 30010 40340 51011 86512
AAXX 31061 29869 42997 81901 11088 21103 39975 40366 51006 8802/ 333 95030
AAXX 31061 29956 42698 52503 11047 21091 39793 40366 52012 82972
AAXX 31061 30337 42998 20000 11217 21249 39865 40353 58006 80001
AAXX 31061 30405 41598 80000 11115 21128 39764 40315 57001 70282 8255/
AAXX 31061 30504 41598 80000 11123 21136 39649 40328 51001 70282 8337/
AAXX 31061 30603 41594 80000 11137 21137 39725 40326 57004 78682 889//
AAXX 31061 30612 41598 83201 11153 21166 39766 40331 52001 78582 8292/
AAXX 31061 30622 42698 81901 11270 21302 39673 40390 58009 82903
AAXX 31061 30627 42999 80302 11203 21222 39346 40349 57008 80006
AAXX 31061 30703 41995 80000 11132 21138 39616 40323 58011 77372 8802/
AAXX 31061 36307 41899 71401 11234 21282 39073 48582 52010 70272 87030 333 95000
AAXX 31061 38388 32998 00906 11024 21072 30235 40308 54000 333 21066
AAXX 31061 38392 32998 01008 11024 21057 30243 40351 53001 333 21073
AAXX 31061 38507 32998 30000 10043 21063 30115 40219 53004 82031 333 20002
AAXX 31061 38511 32998 01106 11003 21044 30113 40259 57005 333 21030
AAXX 31061 38545 32998 00904 11018 21075 30168 40352 57010 333 21052
AAXX 31061 38647 32999 20912 10006 21025 30178 40222 54000 80001 333 21013
AAXX 31061 38656 32998 00906 10007 21050 30172 40285 57013 333 21020
AAXX 31061 38687 32997 00903 10002 21027 30104 40349 57008 333 21050
AAXX 31061 38750 32997 01202 10047 20035 30251 40222 53011 333 20006
AAXX 31061 38763 32998 21007 10002 21029 30132 40241 53008 80001 333 21018
AAXX 31061 38774 32998 01404 10014 21041 30062 40263 53003 333 21028
AAXX 31061 38799 32997 01103 11005 21032 30104 40346 57008 333 21074
AAXX 31061 38806 32997 01102 11007 21038 30077 40350 53001 333 21054
AAXX 31061 38880 32997 01206 10017 21030 39998 40261 57007 333 21026
AAXX 31061 38886 32997 01205 10038 21035 30062 40296 57007 333 21020
AAXX 31061 38895 32996 01104 10014 21030 30036 40337 56002 333 21049
AAXX 31061 38911 31/92 91403 11024 21024 30035 40346 57006 74544 333 21044
AAXX 31061 38915 31597 80902 10011 20000 30013 40349 58004 70341 886// 333 21032
AAXX 31061 38974 32998 01404 10038 21021 39959 40402 57004 333 21023
AAXX 31061 38987 32996 00000 10004 21034 39556 40328 57003 333 21042
AAXX 31064 71683 46/// /3404 11248 39949 40063 53015 6///1 333 11200 21248 7////
AAXX 31064 71351 16/// /3202 11065 21089 60001 333 10003 21115 70009
AAXX 31064 71353 16/// /3008 11045 21103 60001 333 10037 21090 70004 555 32417 40191
AAXX 31064 71445 17/// /1614 11061 21076 39733 40011 58017 60011 7//4/ 333 11055 21078 70021 555 31826 40021
AAXX 31064 71525 16/// /2513 11005 21040 60001 333 10091 21032 70000 555 32339 40213
AAXX 31064 71535 16/// /2416 10009 21046 60001 333 10100 21004 70000 555 32839 40003
AAXX 31064 71536 16/// /2517 10005 21052 60001 333 10083 21031 70000 555 33134 40003
AAXX 31064 71537 47/// /2509 11041 21071 6///1 7//4/ 333 10076 21059 7//// 555 31929 40172
AAXX 31064 71464 46/// ///18 10070 39819 40030 56006 6///1 333 10080 20054 7////
AAXX 31064 71916 46/// /3301 11389 21427 30124 40183 53006 6///1 333 11355 21402 7////
AAXX 31064 71214 16/// /3005 11046 21074 60001 333 10023 21113 70012 555 31619 40161
AAXX 31064 71223 16/// /2912 11053 21084 60001 333 10025 21122 70000 555 32621 40231
AAXX 31064 71225 16/// /2315 10000 21054 60001 333 10098 21015 70000 555 32431 40212
AAXX 31064 71227 46/// /2906 11079 21104 6///1 333 11001 21137 7//// 555 31220 40161
AAXX 31064 71345 16/// /2014 11013 21049 60001 333 10099 21022 70000 555 32033 40212
AAXX 31064 71257 16/// /1801 11048 21100 60001 333 10049 21054 70005 555 32624 40231
AAXX 31064 71258 16/// /2608 11058 21137 60001 333 10043 21075 70000 555 32424 40211
AAXX 31064 71259 16/// /2510 11062 21092 60001 333 10060 21079 70000 555 32324 40231
AAXX 31064 71274 16/// /3005 11081 21088 60001 333 11022 21161 70000 555 31019 40191
AAXX 31064 71275 46/// /2806 11102 21108 6///1 333 11056 21171 7////
AAXX 31064 71278 16/// /2908 11097 21109 60001 333 11014 21160 70012 555 31420 40181
AAXX 31064 71286 16/// /3209 11119 21126 60001 333 11014 21140 70000 555 31117 40181
AAXX 31064 71287 16/// /2906 11055 21068 60001 333 11053 21128 70011 555 10010 20011
AAXX 31064 71289 16/// /2405 11058 21092 60001 333 10039 21065 70000 555 31219 40121
AAXX 31061 31168 42999 00502 11156 30267 40279 52011
AAXX 31063 61701 31959 30915 10192 20000 40151 70500 83030 333 20187 50871 55079 58006 83360
AAXX 31063 61705 NIL
AAXX 31063 61707 NIL
AAXX 31063 61711 NIL
AAXX 31063 61712 32960 63609 10190 20031 4//// 86070 333 20160 50301 55071 5//// 83460 85362
AAXX 31063 61717 NIL
AAXX 31063 61720 NIL
AAXX 31063 61721 NIL
AAXX 31063 61722 NIL
AAXX 31063 61731 NIL
AAXX 31063 61733 NIL
AAXX 31064 64400 11356 80000 10246 20223 30118 40137 69904 70252 888// 333 02161 20222 50124 55000 58003 83808 88623
AAXX 31064 64401 32460 80000 10223 20211 39766 40141 8257/ 333 01800 20215 50084 55000 58003 82613 88363
AAXX 31064 64450 32458 72402 10234 20213 39774 40127 8187/ 333 02100 20226 50264 55034 58004 81810 87363
AAXX 31064 64453 32160 82602 10202 20195 39/// 40/// 886// 333 02000 20199 50064 55013 5//// 88702
AAXX 31064 64456 32958 60000 10230 20223 39/// 40/// 85030 333 0//00 20224 50154 55047 5//// 86362
AAXX 31064 64458 31404 40000 10215 20212 39724 40114 74644 82502 333 01900 20206 50154 55/// 58002 82610 84080
AAXX 31064 64459 32460 62202 10235 20220 39768 40129 82570 333 02000 20231 50254 55/// 59002 82610 86360
AAXX 31061 78310 12501 10701 10210 20203 30185 40195 56003 60001 81100 333 10280 20194 30/// 56900 58012 81820 92011
AAXX 31061 78315 12464 60401 10183 20176 30128 40194 58006 60001 86200 333 10279 20156 30/// 56900 58014 86819
AAXX 31061 78318 12565 10703 10208 20187 30189 40193 58007 60001 81100 333 10279 20178 30/// 56900 58008 81821
AAXX 31061 78322 12556 30000 10188 20177 30185 40202 58012 60001 82240 333 10280 20158 30/// 56990 58011 82820
AAXX 31061 78324 NIL
AAXX 31061 78325 11930 01101 10208 20185 30139 40197 58011 60001 70400 333 10262 20188 30/// 56/// 58009
AAXX 31061 78328 12/62 11303 10230 20203 30198 40/// 58009 60001 81100 333 10258 20214 30/// 56900 58008 818//
AAXX 31061 78333 12910 00602 10210 20194 30190 40197 56007 60001 333 10280 20182 30/// 56000 58013
AAXX 31061 78344 12950 00403 10215 20200 30143 40191 58008 60001 333 10301 20187 30/// 56000 58012
AAXX 31061 78345 12965 00301 10200 20191 30180 40183 58016 60001 333 10297 20186 30/// 58003
AAXX 31061 78348 11557 10602 10221 20202 30143 40196 58008 60001 70500 81100 333 10250 20206 31/// 56900 58012 70184 81823
AAXX 31061 78349 12550 73101 10206 20197 30095 40204 58006 60001 871// 333 10290 20204 30/// 56299 58012 87820 555 10903
AAXX 31061 78351 12550 10000 10206 20203 30165 40167 58005 60001 81500 333 10298 20172 31/// 56900 59004 70018 81626
AAXX 31061 78353 12560 20601 10241 20201 30174 40196 58008 60001 82200 333 10280 20221 30/// 56900 58012 82820
AAXX 31061 78355 12560 10104 10214 20207 30053 40189 58006 60001 81100 333 10281 20190 30/// 56900 58008 81820
AAXX 31061 78358 12530 10403 10241 20221 30168 40183 58012 60001 81200 333 10284 20172 30/// 56900 58009 81823
AAXX 31061 78360 12/60 10203 10225 20210 30169 40180 58007 60001 81200 333 10302 20200 30/// 56900 58006 818// 92022
AAXX 31061 78363 12956 00000 10218 20208 30054 40168 58008 60001 333 10303 20155 30/// 56/// 58009
AAXX 31061 78365 01550 40705 10249 20231 30190 40195 58002 69971 72581 84260 333 10280 20216 31/// 56290 57862 58012 69975 70007 84820 92023 555 10702
AAXX 31061 78369 12464 10504 10245 20217 30170 40179 57012 60001 81200 333 10281 20220 30/// 56900 57860 58008 81818
AAXX 31061 63330 32980 01408 10166 2//// 37830 40310 333 20110 59002
AAXX 31061 63331 32980 00104 10204 20030 38082 40270 333 20153 5800
AAXX 31061 63332 32980 03202 10130 20040 38242 40185 333 20040 59003
AAXX 31061 63333 32980 03602 10162 21007 38203 40230 333 20068 59007
AAXX 31061 63334 NIL
AAXX 31061 63340 32980 01802 10140 20054 37979 40211 333 20102 58010
AAXX 31061 63402 31950 10000 10058 20058 38395 4//// 7100/ 81030 333 20014 58004 81360
AAXX 31061 63403 31970 21102 10180 20042 7050/ 82030 333 20097 82360
AAXX 31061 63450 32980 00101 10135 20050 37766 40182 333 20045 59002
AAXX 31061 63451 32980 00000 10148 20023 38183 40182 333 21010 58003
AAXX 31061 63453 31975 02701 10152 2//// 39106 7051/ 333 20060 58003
AAXX 31061 63460 32980 00000 10160 20043 333 20078
AAXX 31061 63471 31960 02401 10235 20047 38904 40170 70500 333 20125 59007
AAXX 31061 63474 32980 00000 10146 20034 333 20025
AAXX 31061 63478 31965 00808 10260 20148 39852 40233 7050/ 333 20190 58010
AAXX 31061 63500 31570 30000 10204 20080 7050/ 81140 333 20102 81820 82359
AAXX 31061 63533 NIL
AAXX 31061 NNNN
AAXX 31064 63729 32480 70000 10217 20176 38894 48/// 8397/ 333 20192 50501 55015 55300 58008 83618 81920 87359
AAXX 31064 63733 32480 70000 10224 20188 38883 48522 8193/ 333 20201 50291 55051 55300 58006 81918 87358
AAXX 31064 63756 63756 12580 70000 10226 20186 38894 48531 60224 8293/ 333 55308 58008 82821 81922 87359
AAXX 31064 63791 12580 31205 10253 20136 39151 48536 69904 82230 333 20170 50201 55019 55310 59044 82824 Q1017
AAXX 31064 63801 11480 70000 10230 20208 39231 48553 60024 71792 8197/ 333 0//19 20214 50221 55047 55300 58004 81819 81920 87358
AAXX 31064 63832 12480 70000 10200 20184 38825 48524 81978 333 20184 50461 55010 55300 59017 81817 81918 87353
AAXX 31064 63866 12580 20000 10252 20220 39535 48/// 60074 82500 333 20212 50351 55063 55310 58006 82620
AAXX 31064 63870 32575 50212 10292 20244 30113 40131 85200 333 20255 50651 55109 55309 59003 85820
AAXX 31064 63881 01480 80000 10162 20151 38221 48/// 60034 76022 8592/ 333 0//22 20140 50271 55059 55300 58004 69907 85616 81919 88456
AAXX 31064 63887 12480 80000 10191 20176 38612 48534 60144 8277/ 333 0//99 20178 50321 55043 55300 58005 82705 85617 87357
AAXX 31064 63971 12580 70315 10281 20258 39990 40118 69904 879// 333 0//19 20242 50951 55078 55307 59003 87820 81921
AAXX 31064 63862 NIL
AAXX 31064 63894 NIL
AAXX 31064 63932 NIL
AAXX 31064 63962 NIL
AAXX 31064 42027 31995 00000 10046 21068 38482 48568 70500 333 59015
AAXX 31064 42101 31994 00000 10164 20091 40206 71044 333 58001
AAXX 31064 42111 31996 31801 10166 20080 39427 40205 70500 83030 333 58011 83346
AAXX 31064 42131 31992 02701 10096 20092 40216 74244 333 59004
AAXX 31064 42165 31994 00501 10168 20072 40191 70500 333 5901/
AAXX 31064 42182 31994 00904 10198 20152 40200 70444 333 59005
AAXX 31064 42189 31995 01402 10200 20109 40198 70500 333 58003
AAXX 31064 42260 31995 00704 10203 20113 40192 70540 333 59008
AAXX 31064 42328 31995 00902 10190 20013 40189 70500 333 59014
AAXX 31064 42339 31995 00502 10186 20071 40183 70500 333 58015
AAXX 31064 42348 31994 00909 10178 20094 40183 70400 333 59014
AAXX 31064 42361 31994 40502 10190 20114 40186 71044 84030 333 59012 84360
AAXX 31064 42369 31595 50906 10216 20129 40191 70522 83530 333 59005 83620 83360
AAXX 31064 42379 31995 01402 10226 20097 40190 70500 333 58003
AAXX 31064 42452 31593 30502 10174 20111 40175 70541 82530 333 59021
AAXX 31064 42475 31995 59902 10222 20132 40182 70522 82031 333 59009 82360 85070
AAXX 31064 42071 NIL
AAXX 31063 42071 31993 00000 10134 20107 40213 74244 333 58003
AAXX 31061 51711 32980 12505 11030 21144 38082 52004 80002 333 00203 21138
AAXX 31061 51730 32970 02702 11017 21103 40419 52006 333 00301 21169
AAXX 31061 52112 32965 22904 11071 21163 40435 57016 80002 333 00500 21140
AAXX 31061 52737 32980 00701 10008 21274 37097 57024 333 05305 21142
AAXX 31061 52787 32980 03404 11005 21213 37038 57019 333 00002 21116
AAXX 31061 53352 32980 01601 11030 21153 40354 57018 333 21200
AAXX 31061 53593 32960 00901 11013 21101 40316 57022 333 21133
AAXX 31061 53705 32965 02901 10014 21139 40335 57029 333 05102 21108
AAXX 31061 53863 31960 02503 10067 21088 40282 57029 70040 333 21073
AAXX 31061 53975 32963 51602 10044 21036 40285 57029 80002 333 21057
AAXX 31061 54273 32970 71101 11135 21190 40294 57018 80002 333 21279
AAXX 31061 54324 32962 01101 11028 21180 40291 57024 333 21188
AAXX 31061 54405 32970 02909 10006 21172 40298 57023 333 21094
AAXX 31061 54436 32965 01801 10018 21139 40288 57023 333 21139
AAXX 31061 54808 32961 83401 10019 21008 40277 57020 8802/ 333 21007
AAXX 31061 54826 31965 02704 11034 21042 38476 57015 72844 333 21079
AAXX 31061 54836 32662 72902 10038 21028 40278 57025 875// 333 21023
AAXX 31061 54863 31950 83601 10015 21044 40277 57019 71000 8802/ 333 21039
AAXX 31061 56018 32980 02702 11030 21276 36208 57033 333 00151 21193
AAXX 31061 56021 32980 00000 11047 21274 36097 57025 333 00001 21241
AAXX 31061 57071 31957 02501 10089 21007 40267 57025 70500 333 21024
AAXX 31064 91367 11474 80808 10283 20253 69911 70262 85235 333 56229 85815 82760 82180 70119 555 93106
AAXX 31064 68513 36/// /1311 10181 20121 30038 40150 53005 333 20137 91017 555 10244 91015
AAXX 31064 68514 32/// /1103 10221 20043 39667 48537 52002 333 20155 91005 555 10396 91014
AAXX 31064 68523 36/// /1508 10231 20093 39095 48516 52007 333 20154 91014 555 10355 91015
AAXX 31064 68527 36/// /0703 10244 20112 39053 48502 53002 333 20206 91006 555 10370 91014
AAXX 31064 68572 11674 40904 10178 20121 38413 48521 52016 60074 70366 84200 333 20116 91007 555 10285 20076 91021
AAXX 31064 68575 16/// /0000 10192 20164 39108 48533 53012 69924 333 20176 91001 555 10280 20002 91018
AAXX 31064 68581 36/// /1802 10211 20179 39380 48533 52015 333 20177 91005 555 10294 91016
AAXX 31064 68583 36/// /2102 10242 20197 30026 40134 52012 333 20215 91007 555 10267 91013
AAXX 31064 68589 16/// /0302 10167 20114 38261 48521 52005 60114 333 20128 91004 555 10252 20112 91022
AAXX 31064 68613 36/// /2003 10162 20116 30047 40163 53007 333 20118 91006 555 10226 91016
AAXX 31064 68647 36/// /1208 10163 20113 38925 48520 53005 333 20153 91011 555 10315 91018
AAXX 31064 68651 36/// /1008 10141 20118 38566 48528 54000 333 20131 91013 555 10281 91021
AAXX 31064 68715 36/// /2504 10218 20125 30025 40151 52005 333 20135 91007 555 10281 91015
AAXX 31064 68717 36/// /3603 10184 20120 30004 40147 52005 333 20139 91006 555 10328 91014
AAXX 31064 68723 36/// /1205 10202 20098 39402 48534 52008 333 20162 91009 555 10296 91016
AAXX 31064 68737 32470 81804 10171 20118 39251 48519 53002 885// 333 20152 91007 555 10315 91016
AAXX 31064 68744 36/// /1306 10189 20127 39099 48513 52001 333 20142 91009 555 10326 91016
AAXX 31064 68747 36/// /1405 10190 20151 39631 48542 52006 333 20173 91008 555 10332 91016
AAXX 31064 68754 16/// /1204 10176 20156 39152 48536 53004 69984 333 20157 91007 555 10298 20008 91019
AAXX 31064 68817 36/// /1716 10212 20124 30142 40154 52010 333 20195 91027 555 10253 91015
AAXX 31064 68821 36/// /1310 10206 20111 39915 40152 52006 333 20165 91014 555 10317 91015
AAXX 31064 68835 36/// /2602 10185 20140 30054 40168 53005 333 20144 91003 555 10282 91017
AAXX 31064 68843 36/// /2402 10186 20166 30060 40159 52006 333 20180 91003 555 10245 91016
AAXX 31064 68849 36/// /1806 10159 20146 39425 48528 52005 333 20148 91008 555 10270 91017
AAXX 31064 68912 NIL
AAXX 31064 68918 36/// /1304 10204 20137 30152 40170 55000 333 20170 91006 555 10230 91017
AAXX 31064 68921 NIL
AAXX 31064 68925 NIL
AAXX 31064 68926 32170 10702 10212 20122 39988 40165 52005 81500 333 20151 91005 555 10284 91016
AAXX 31064 68935 36/// /0000 10221 20150 30104 40167 53003 333 20162 91004 555 10253 91016
BBXX CFO383 31064 99439 70602 47998 /9903 10037 2101/ 40270 5//// 700// 8//// 22200 00065 10804 2//// 3//// 70022 80017 91007
BBXX A8IZ2 31006 99358 10180 41/98 73010 10125 20060 40075 57060 22234 80090
AAXX 31064 60663 36/// /1304 10059 21033 333 20058
AAXX 31064 60612 36/// /0212 10050 21057 333 20050
BBXX 62087 31061 99547 10068 46/// /9901 10054 20029 4//// 5//// 22270 00080
AAXX 31064 60621 36/// /0210 10033 21014 333 20030
AAXX 31061 89064 36/// /1300 10006 29091 49656 52004
BBXX 61002 31064 99421 10047 46/// ///25 10139 2//// 40222 57002 22200 00133 10707 70033 555 1/033
AAXX 31064 60619 36/// /0106 10007 21020 333 20000
AAXX 31064 60645 36/// /0000 10067 21002 333 20063
AAXX 31060 44237 32999 62302 11110 21163 38501 40309 57013 83031
AAXX 31060 44282 32999 72901 11038 21197 38303 40257 57024 87010
AAXX 31064 78922 46/// /1019 10260 20206 30116 40161 58013
BBXX CFO383 31064 99439 70602 47998 /9903 10037 2101/ 40270 5//// 700// 8//// 22200 00065 10804 2//// 3//// 70022 80017 91007
AAXX 31060 44237 32999 62302 11110 21163 38501 40309 57013 83031
AAXX 31060 44282 32999 72901 11038 21197 38303 40257 57024 87010
AAXX 31064 68912 NIL
AAXX 31064 68921 NIL
AAXX 31064 68925 NIL
AAXX 31061 50548 32980 00000 11157 21229 40325 57011 333 21292
AAXX 31061 50564 32965 00901 11195 21246 40332 57007 333 21293
AAXX 31061 51334 32780 72201 11015 21072 40481 52003 82532 333 01210 21133
AAXX 31061 51818 32965 00901 11020 21123 40408 52002 333 00303 21140
AAXX 31061 52378 32980 03202 11043 21165 40383 57014 333 00052 21169
AAXX 31061 53487 32970 00401 11012 21131 40313 57021 333 21130
AAXX 31061 53502 32980 00701 11017 21174 40360 57024 333 00051 21145
AAXX 31061 53923 32980 03202 10036 21112 40306 57026 333 21043
AAXX 31061 54049 32970 23403 11120 21232 40289 57005 80002 333 21187
AAXX 31061 54115 32980 02504 11053 21177 40300 57016 333 21162
AAXX 31061 54157 32965 63203 11094 21189 40285 57008 80002 333 21189
AAXX 31061 54186 32970 50402 11099 21222 40284 57013 80002 333 21244
AAXX 31061 54311 32980 02906 11059 21196 40296 57013 333 21155
AAXX 31061 54346 11658 82702 11058 21119 40282 57011 69911 71070 885// 333 21130
AAXX 31061 54377 32965 22001 11053 21136 40279 57027 80001 333 21178
AAXX 31061 54386 32970 02501 11098 21190 40280 57030 333 21246
AAXX 31061 54493 11962 52201 11046 21085 40275 57023 69931 70070 80002 333 21166
AAXX 31061 54587 NIL
AAXX 31061 54715 31956 83602 10010 21024 40281 57018 71000 8802/ 333 21025
AAXX 31061 54929 31957 80902 10037 21017 40277 57028 71000 8807/ 333 21036
AAXX 31061 54945 32663 72702 10054 21020 40279 57024 875// 333 21011
AAXX 31061 56065 32980 02901 11004 21232 36634 57029 333 00001 21230
AAXX 31061 57193 31950 02002 10074 20021 40268 57025 71040 333 21017
AAXX 31061 57290 32960 02901 10096 20017 40268 57024 333 21001
BBXX 41053 31061 99185 70661 46/// /1205 10258 40173 90550 333 91207
BBXX 41053 31061 99185 70661 46/// /1205 10258 40175 90540 333 91208
AAXX 31064 42559 32996 00502 10212 20128 40154 333 59017
AAXX 31064 42571 31996 00902 10250 20150 40161 70500 333 59010
AAXX 31064 42667 31594 10240 20172 39560 40146 71022 83530 333 59017 83620 85360
AAXX 31064 42675 31996 00000 10252 20164 40156 70500 333 59007
AAXX 31064 42754 31995 41409 10232 20125 39503 40135 70511 83830 333 59021 82620 83360
AAXX 31064 42779 32596 62302 10244 20151 39475 40169 83530 333 58004 83620 85360
AAXX 31064 42867 31995 21104 10280 20204 40148 70500 82030 333 59003 82360
AAXX 31064 42874 32596 70502 10262 20191 40155 82530 333 59006 82625 86360
AAXX 31064 42933 32997 01406 10304 20141 40136 333 59017
AAXX 31064 43041 32596 70903 10260 20194 39541 40153 86530 333 58003 86625 86360
AAXX 31064 68174 31470 22804 10181 20146 38798 48521 52008 70500 81501 333 20144 91007 555 10236 91019
AAXX 31064 68191 36/// /0707 10235 20178 39643 48547 52013 333 20175 91010 555 10285 91015
AAXX 31064 68242 12980 10111 10195 20148 38723 48503 52008 60044 80004 333 20148 91015 555 10243 20042 91017
AAXX 31064 68262 36/// /2502 10213 20150 38711 48520 52012 333 20181 91005 555 10250 91019
AAXX 31064 68263 32780 33005 10198 20148 38494 48519 53010 82430 333 20165 91009 555 10242 91020
AAXX 31064 68267 31465 81010 10156 20129 38259 48531 51011 70544 885// 333 20130 91014 555 10254 91023
AAXX 31064 68289 36/// /0704 10183 20159 39160 48527 52015 333 20177 91006 555 10244 91018
AAXX 31064 68350 16/// /0105 10250 20163 38668 48522 53010 69944 333 20182 91009 555 10305 20004 91019
AAXX 31064 68368 12960 53507 10185 20152 38332 48528 53016 60044 82572 333 20159 555 10234 20040 91022
AAXX 31064 68403 36/// /1806 10183 20138 30142 40175 52013 333 20138 91013 555 10243 91017
AAXX 31064 68424 31975 02208 10236 20078 39182 48512 53006 70500 333 20172 91012 555 10395 91014
AAXX 31064 68438 32982 03312 10233 20133 38798 48496 52008 333 20171 91018 555 10340 91015
AAXX 31064 68442 32882 13410 10209 20144 38652 48505 53003 81030 333 20136 91015 555 10316 91018
AAXX 31064 68461 12780 60506 10176 20135 38335 48520 53006 60024 81272 333 20145 91008 555 10263 20025 91021
AAXX 31064 68512 32982 01504 10192 21011 39023 48521 53002 333 20134 91006 555 10287 91017
AAXX 31064 68538 31974 01112 10198 20128 38704 48490 52010 70500 333 20152 91017 555 10340 91015
AAXX 31064 68587 36/// /1804 10233 20197 30132 40144 52007 333 20219 91006 555 10258 91014
AAXX 31064 68588 NIL
AAXX 31064 68591 36/// /2202 10231 20193 39973 40151 53001 333 20210 91005 555 10250 91015
AAXX 31064 68592 NIL
AAXX 31064 68618 32980 00000 10197 20079 39051 48520 53008 333 20119 91003 555 10315 91017
AAXX 31064 68633 36/// /1611 10161 20102 38499 48494 53006 333 20128 91015 555 10311 91017
AAXX 31064 68668 NIL
AAXX 31064 68714 36/// /1813 10196 20114 30111 40147 53001 333 20136 91019 555 10254 91014
AAXX 31064 68727 36/// /0509 10159 20102 39130 48510 53002 333 20148 91014 555 10333 91016
AAXX 31064 68752 36/// /1806 10185 20168 39482 48537 53003 333 20175 91008 555 10300 91017
AAXX 31064 68816 32582 11816 10212 20104 30099 40153 51004 81500 333 20177 91016 555 10240 91026
AAXX 31064 68828 32580 13203 10195 20140 39934 40165 53008 81500 333 20147 555 10224 91016
AAXX 31064 68842 32780 32317 10212 20123 30090 40159 51008 83500 333 20173 555 10243 91015
AAXX 31064 68858 11270 82607 10194 20189 30001 40156 51008 69904 72126 885// 333 20156 555 10242 20000 91015
AAXX 31064 68906 11493 82513 10159 20144 30034 40098 56002 60124 76166 8802/ 222// 00136 333 20152 91025 555 10208 20124 60265 91009
AAXX 31064 68994 12598 32930 10085 20035 39938 49966 57007 60014 83500 222// 00062 306// 40403 333 20062 91043 555 10096 20013 69925 90996
AAXX 31064 89004 32780 50915 11082 21134 38865 49881 53007 85030 333 21103 91018 555 11063 90981
AAXX 31064 87121 32965 03210 10242 20206 39566 40062 57017
BBXX 46206 31061 99488 71260 46/// /3010 10064 40213 52043 22200 00080 11210 70050 333 91213
BBXX 46206 31061 99488 71260 46/// /3010 10064 40213 52043 22200 00080 11210 70050 333 91213
AAXX 31064 68588 NIL
AAXX 31064 68592 NIL
AAXX 31064 68668 NIL
AAXX 31061 50658 31940 83601 11171 21214 40314 57006 70400 80007 333 21269
AAXX 31061 50888 32980 73602 11145 21204 40286 57007 80002 333 21220
AAXX 31061 50983 32960 70000 11168 21217 40293 57009 80002 333 21264
AAXX 31061 51053 32975 71401 11071 21111 40474 52005 81032 333 01203 21123
AAXX 31061 51542 32980 70401 11168 21199 37659 52002 80002 333 00652 21247
AAXX 31061 52436 32980 02905 11019 21160 38539 40373 57011 333 00051 21158
AAXX 31061 52908 32980 02709 11030 21341 35772 57019 333 05104 21222
AAXX 31061 52996 32970 01102 10010 21138 37593 57021 333 00007 21084
AAXX 31061 53083 32980 02202 11173 21205 40396 57012 333 00152 21286
AAXX 31061 53764 32961 73401 11007 21063 40329 57022 80002 333 21070
AAXX 31061 53787 31913 22501 10014 21043 40289 57024 71040 80002 333 21089
AAXX 31061 54096 32970 50902 11122 21210 40282 57010 80002 333 21224
AAXX 31061 54226 32980 03402 11050 21184 40298 57017 333 21181
AAXX 31061 54259 11968 02503 11063 21114 40278 57016 69901 70070 333 21197
AAXX 31061 54527 31958 03602 10036 21116 40281 57020 70500 333 21044
AAXX 31061 54534 32965 00403 10028 21119 40277 57020 333 21086
BBXX 46132 31061 99497 71279 46/// /3008 10055 40210 5//// 22200 00084 11109 70044 333 91212
BBXX 46205 31061 99542 71343 46/// /2810 10027 40157 52025 22200 00071 11108 70041 333 91213
BBXX 46132 31061 99497 71279 46/// /3008 10055 40210 5//// 22200 00084 11109 70044 333 91212
AAXX 31061 28952 32999 61802 11100 21163 30143 40344 52014 80001 333 21114
AAXX 31061 28867 32998 22504 11128 21180 30057 40346 52021 80002 333 21135
BBXX 46181 31061 99538 71288 46/// /2211 10016 40165 52054 22200 00042 10201 70003 333 91214
AAXX 31064 89020 46/// /0613 11058 21065 39801 49836 52006 90540
AAXX 31064 88900 46/// /1302 10039 20033 39854 49857 56033
AAXX 31060 44229 32999 72504 11169 21228 37941 40389 57012 87010
AAXX 31064 68155 36/// /0503 10225 20168 39198 48529 53007 333 20185 91008 555 10271 91016
AAXX 31064 68171 NIL
AAXX 31064 68176 36/// /0000 10242 20150 39138 48530 52006 333 20144 91003 555 10289 91016
AAXX 31064 68181 NIL
AAXX 31064 68182 16/// /2202 10234 20170 39346 48540 52008 69944 333 20157 91005 555 10254 20004 91016
AAXX 31064 68185 NIL
AAXX 31064 68253 36/// /0803 10218 20164 39056 48528 53012 333 20189 91011 555 10273 91018
AAXX 31064 68255 36/// /3502 10236 20152 38864 48516 53011 333 20192 91005 555 10246 91017
AAXX 31064 68271 36/// /3304 10208 20154 38921 48525 53007 333 20169 91007 555 10253 91018
AAXX 31064 68273 36/// /2603 10206 20164 38468 48522 52008 333 20166 91006 555 10236 91021
AAXX 31064 68287 36/// /2402 10185 20157 38585 48521 52007 333 20141 91003 555 10195 91020
AAXX 31064 68291 36/// /0204 10241 20188 39540 48544 52013 333 20172 91009 555 10283 91015
AAXX 31064 68297 NIL
AAXX 31064 68329 36/// /0603 10248 20174 39082 48520 53008 333 20191 91005 555 10355 91016
AAXX 31064 68331 36/// /3605 10215 20158 38830 48516 53002 333 20163 91010 555 10331 91018
AAXX 31064 68335 16/// /3308 10214 20155 38927 48536 53011 60054 333 20171 91013 555 10306 20056 91019
AAXX 31064 68341 36/// /3509 10214 20155 38539 48524 53011 333 20162 91015 555 10242 91021
AAXX 31064 68342 NIL
AAXX 31064 68343 36/// /2507 10222 20163 38777 48503 52006 333 20157 91013 555 10295 91016
AAXX 31064 68349 36/// /3210 10201 20160 38513 48507 53010 333 20177 91014 555 10258 91019
AAXX 31064 68353 16/// /0703 10192 20153 38527 48506 53010 60074 333 20173 91005 555 10260 20074 91018
AAXX 31064 68355 36/// /3507 10212 20153 38583 48517 52010 333 20158 91011 555 10280 91020
AAXX 31064 68370 32970 80000 10176 20171 38382 48531 52013 885// 333 20165 555 10252 91022
AAXX 31064 68377 16/// /0000 10193 20160 38766 48505 52005 60124 333 20165 91003 555 10319 20122 91017
AAXX 31064 68380 36/// /3103 10203 20151 3//// 4//// 5//// 333 20153 91013 555 10257
AAXX 31064 68387 16/// /3108 10199 20143 38858 48518 53007 60054 333 20171 91019 555 10283 20058 91018
AAXX 31064 68411 36/// /3602 10225 20084 39947 40153 52014 333 20195 91004 555 10384 91015
AAXX 31064 68429 36/// ///// 10221 20153 38678 48500 52008 333 20168 555 10332 91017
AAXX 31064 68449 36/// /0803 10205 20142 38395 48507 52008 333 20163 91006 555 10266 91019
AAXX 31064 68471 NIL
AAXX 31064 68474 NIL
AAXX 31064 68479 16/// /3402 10201 20162 38951 48515 57005 60124 333 20174 91005 555 10329 20128 91017
AAXX 31064 68481 36/// /0802 10211 20190 39774 40141 52013 333 20204 91004 555 10324 91015
AAXX 31064 68487 36/// /2104 10211 20138 38994 48519 52012 333 20190 91005 555 10295 91017
AAXX 31064 68491 36/// /0204 10243 20202 30120 40129 52010 333 20214 91007 555 10280 91012
AAXX 31064 68497 36/// /2506 10238 20187 30092 40136 52009 333 20208 91009 555 10282 91013
AAXX 31064 68183 31978 22003 10218 20172 39444 48536 52007 70500 80002 333 20164 91005 555 10250 91016
AAXX 31064 68188 36/// /0000 10229 20163 39203 48536 52008 333 20152 91003 555 10255 91017
AAXX 31064 68268 36/// /0204 10234 20163 38895 48539 52007 333 20169 91006 555 10278 91020
AAXX 31064 68272 NIL
AAXX 31064 68296 36/// /3003 1//// 2//// 38916 4//// 52001 333 2//// 91005 555 1////
AAXX 31064 68322 32982 01806 10267 20028 39130 48516 52008 333 20176 91012 555 10409 91014
AAXX 31064 68338 12775 13307 10207 20163 38771 48505 52006 69984 81070 333 20135 91010 555 10290 20008 91017
AAXX 31064 68345 36/// /3607 10215 20154 38671 48515 52012 333 20158 91011 555 10298 91019
AAXX 31064 68362 36/// /0507 10192 20151 38513 48516 52005 333 20153 91011 555 10283 91020
AAXX 31064 68400 16/// /0000 10235 20184 30059 40132 52013 69924 333 20198 91003 555 10353 20002 91013
AAXX 31064 68408 36/// /1506 10168 20139 30154 40162 52005 333 20122 91011 555 10203 91016
AAXX 31064 68416 36/// /2010 10188 20057 39035 48508 52012 333 20148 91013 555 10350 91016
AAXX 31064 68478 12589 61802 10211 20148 38877 48519 55000 69924 86500 333 20168 91004 555 10321 20002 91018
AAXX 31064 68488 36/// /0802 10232 20132 39268 48529 52013 333 20178 91004 555 10292 91016
AAXX 31064 68494 36/// /1802 10235 20182 30002 40131 52008 333 20193 91006 555 10273 91013
AAXX 31064 68524 32986 01202 10243 20096 39049 48511 52011 333 20173 91005 555 10370 91015
AAXX 31064 68546 36/// /2103 10205 20135 38647 48494 52006 333 20136 91006 555 10305 91016
AAXX 31064 68558 16/// /1705 10174 20123 38183 48496 50000 69924 333 20104 91009 555 10257 20002 91019
AAXX 31064 68570 32370 80804 10155 20115 38521 48513 52005 888// 333 20130 91007 555 10294 91019
AAXX 31064 68580 16/// /1406 10175 20156 38961 48523 52012 69924 333 20151 91010 555 10283 20002 91018
AAXX 31064 68614 36/// /0902 10198 20124 30108 40149 52010 333 20139 91005 555 10306 91015
AAXX 31064 68624 32982 11305 10196 20071 38740 48513 52008 80006 333 20138 91010 555 10339 91018
AAXX 31064 68674 NIL
AAXX 31064 68712 32970 01712 10156 20123 30085 40150 53006 333 20130 91015 555 10191 91015
AAXX 31064 68718 NIL
AAXX 31064 68722 32980 01003 10182 20074 38553 48511 52005 333 20106 91010 555 10293 91019
AAXX 31064 68814 36/// /1914 1//// 2//// 30154 4//// 52007 333 2//// 91017 555 1//// 91016
AAXX 31064 68832 36/// /0806 10175 20064 39204 48524 53003 333 20105 91010 555 10289 91017
AAXX 31064 68916 36/// /0711 10185 20132 39895 40162 52002 333 20170 91021 555 10223 91016
AAXX 31064 68920 NIL
AAXX 31064 68928 36/// /2003 10227 20127 30010 40168 53007 333 20165 91006 555 10242 91017
AAXX 31061 30455 42999 01201 11252 21277 38986 48504 58008
AAXX 31061 30731 42999 01202 11113 21166 39698 40336 58016
AAXX 31061 30739 42999 80502 11272 21296 39525 40441 58022 80002
AAXX 31061 30741 42998 62201 11144 21179 38759 48540 58012 80001
AAXX 31061 30745 42999 11602 11233 21258 39158 40414 58013 80002
AAXX 31061 30764 42999 00000 11248 21247 39532 40411 58018
AAXX 31061 30829 42999 80000 11241 21260 39662 40423 58018 84041
AAXX 31061 30838 41997 00000 11228 21253 39338 40413 58027 70411
AAXX 31061 30846 42999 03502 11152 21194 39420 40385 58006
AAXX 31061 30859 42999 00000 11192 21241 39486 40389 57006
AAXX 31061 30862 41997 02401 11259 21315 39595 40413 58005 70411
AAXX 31061 30957 42999 00000 11127 21170 39427 40368 58005
AAXX 31061 30975 42899 82001 11279 21325 39679 40404 58004 86027
AAXX 31061 31825 42699 70000 11134 21186 30043 40262 55012 82539
AAXX 31061 31845 42999 50000 11168 21218 30104 40279 57012 80001
AAXX 31061 31878 42999 80000 11138 21223 30153 40285 56011 80002
AAXX 31061 31915 42999 89901 11120 21192 39994 40273 57012 80001
AAXX 31061 31921 42998 60702 11139 21182 30176 40281 56011 80001
AAXX 31061 31969 42598 62903 11056 21209 30199 40250 56022 82532
AAXX 31061 31981 42999 60102 11132 21214 30023 40272 56016 80002
AAXX 31061 31987 42999 83605 11045 21234 39967 40233 56013 86089
AAXX 31061 32069 41562 83208 11086 21101 30233 40238 53004 78583 889// 333 91009 91112
BBXX MLRM6 31063 99389 30086 41798 83018 10127 20061 40186 50000 70222 8807/ 22262 00147 20202 324// 40507 5////
BBXX PFFH 31063 99042 70101 41/// /3610 10272 40112 76096 8//// 22233 00284 2////
BBXX VQIB9 31064 99344 30263 41298 82803 10215 20157 40150 53012 78081 887// 22264 29901 327// 40302 5//// 80180
BBXX LAVN4 31064 99122 70225 41/97 80625 10230 2017/ 40146 57002 70203 88/// 22213 00230 21004 303// 40903 5//// 6//// 80190 NNNN
BBXX A8MV6 31063 99200 10684 41997 00525 10240 20117 40170 50010 70200 80000 22233 04270 20504 304// 40603 5//// 80170
BBXX ZDLP 31063 99528 50401 41297 82927 10062 20060 49893 55020 75152 886// 22222 04041 20204 330// 40606 5//// 80061
BBXX 62141 31063 99493 50591 41/97 /2229 10123 20115 40054 52018 700// 8//// 22200 20502 329// 40702 5//// 80119
BBXX ZCDD6 31063 99507 50574 41398 72631 10120 20101 40017 52008 70222 877// 22244 00110 20203 329// 40203 5//// 80110
BBXX PENR 31064 99116 70618 41497 33130 10270 20241 40130 58024 70200 82145 22244 20502 310// 41004 80250
AAXX 31061 30499 42999 02403 11247 21265 39639 40360 58009
AAXX 31061 30683 42998 00000 11166 21208 39646 40336 58001
AAXX 31061 30695 42999 03403 11229 21269 39979 40346 56010
AAXX 31061 31253 41999 00000 11321 21350 39845 40364 58009 70240
AAXX 31061 31295 42998 02302 11202 21243 39837 40329 58009
AAXX 31061 31348 42999 00000 11200 21212 30099 40310 57009
AAXX 31061 31418 42999 00000 11198 21217 30029 40305 57005
AAXX 31061 31439 42999 82501 11169 21195 30230 40277 57002 85070
AAXX 31061 31442 42999 03301 11204 21271 39941 40323 57006
AAXX 31061 31445 42999 03602 11196 21245 30041 40315 57010
AAXX 31061 31474 42999 00000 11218 21275 39784 40307 57011
AAXX 31061 31521 32970 00701 11225 21250 30000 40317 57009
AAXX 31061 31527 42998 03401 11210 21243 39984 40313 57005
AAXX 31061 31534 42999 20000 11203 21252 39933 40305 57014 80001
AAXX 31061 31587 42997 12701 21250 30167 40326 57003 80001
AAXX 31061 31632 NIL
AAXX 31061 31702 42998 32601 11214 21271 39942 40307 57006 80001
AAXX 31061 31713 42998 51101 11180 21214 30187 40294 57008 82049
AAXX 31061 31725 42998 30702 11191 21203 30219 40291 57008 80002
AAXX 31061 31801 42998 80000 11167 21217 30035 40279 57015 80005
BBXX 41036 31061 99342 70770 46/// ///// 10192 20145 40164 90620 22200 00174
BBXX 44062 31061 99386 70764 46/// /1906 1//// 90620 22200 00080 333 91208
BBXX 44062 31061 99386 70764 46/// /1906 10099 40100 90610 22200 00080 333 91207
BBXX 44063 31061 99390 70764 46/// /2206 1//// 90620 333 91208
BBXX 44063 31061 99390 70764 46/// /2206 1//// 40127 90610 333 91206
BBXX 44063 31061 99390 70764 46/// /2206 10090 40129 56021 90600 22200 00070 10301 70004 333 91207
BBXX 44041 31061 99372 70768 46/// /2105 1//// 90620 333 91206
BBXX 44041 31061 99372 70768 46/// /2205 1//// 40155 90610 333 91208
BBXX 44041 31061 99372 70768 46/// /2205 10121 40156 58017 90600 22200 00084 1//00 70002 333 91207
BBXX 44042 31061 99380 70763 46/// /2106 1//// 90620 333 91208
BBXX 44042 31061 99380 70763 46/// /2106 1//// 40124 90610 333 91207
BBXX 44042 31061 99380 70763 46/// /2107 10116 40126 58017 90600 22200 00083 10301 70005 333 91208
BBXX 44043 31061 99392 70764 46/// /2005 1//// 90620 333 91206
BBXX 44043 31061 99392 70764 46/// /2105 1//// 40102 90610 333 91206
BBXX 44043 31061 99392 70764 46/// /2006 10091 40104 58024 90600 22200 00057 10301 70005 333 91207
BBXX 42364 31061 99291 70881 46/// /2703 10200 20167 40197 90630
BBXX 44059 31061 99368 70763 46/// /2005 1//// 90620 333 91206
BBXX 44059 31061 99368 70763 46/// /1904 1//// 40134 90610 333 91206
BBXX 44059 31061 99368 70763 46/// /1904 10114 40135 58018 90600 22200 00103 333 91207
BBXX 44057 31061 99395 70761 46/// /3601 1//// 90620 333 91201
BBXX 44057 31061 99395 70761 46/// /3601 1//// 40110 90610 333 91201
BBXX 44057 31061 99395 70761 46/// /3601 10062 40111 56025 90600 22200 00043 333 91201
BBXX 44058 31061 99376 70763 46/// /2106 1//// 90620 333 91208
BBXX 44058 31061 99376 70763 46/// /2106 1//// 40131 90610 333 91207
BBXX 44058 31061 99376 70763 46/// /2106 10112 40133 58015 90600 22200 00086 10301 70004 333 91207
BBXX 46181 31061 99538 71288 46/// /2211 10016 40165 52054 22200 00042 10201 70003 333 91214
AAXX 31061 26424 32/97 62802 11004 21013 40053 52011 82530 333 21004
AAXX 31064 91367 11474 80808 10283 20253 69911 70262 85235 333 56229 85815 82760 82180 70119 555 93106
BBXX 61002 31064 99421 10047 46/// ///25 10139 2//// 40222 57002 22200 00133 10707 70033 555 1/033
AAXX 31064 60660 36/// /3408 10094 21028 333 20094
AAXX 31064 60692 36/// /0423 10135 21044 333 20135
AAXX 31064 60662 36/// /0000 10026 21050 333 20024
AAXX 31064 60667 36/// /0000 10012 21061 333 20012
AAXX 31064 60633 36/// /3315 10092 21056 333 20092
AAXX 31064 60677 36/// /0000 10041 21036 333 20011
AAXX 31064 60679 36/// /0405 10008 21266 333 21026
AAXX 31064 60672 36/// /0000 10034 21067 333 20034
AAXX 31064 60650 36/// /0000 10059 21034 333 20059
AAXX 31064 60691 36/// /0623 10131 21058 333 20131
AAXX 31064 60661 36/// /0114 10038 21038 333 20024
AAXX 31064 60676 36/// /0113 10059 21045 333 20057
AAXX 31060 67692 12580 70901 10226 20203 60084 875// 333 20190 5//// 55/// 70084 87626 555 10254 7//96
AAXX 31060 67796 12680 61002 10261 20246 40058 60364 85330 333 20185 5//// 55/// 59005 70355 83630 85360 555 10290 7//96
AAXX 31064 68171 NIL
AAXX 31064 68181 NIL
AAXX 31064 68185 NIL
AAXX 31064 68297 NIL
AAXX 31064 68342 NIL
AAXX 31064 68471 NIL
AAXX 31064 68474 NIL
BBXX 46184 31061 99539 71389 46/// /2507 10021 40140 52018 22200 00059 11007 70037 333 91210
AAXX 31061 01271 17/82 01203 11071 21083 30052 40074 57001 69922 700// 333 21074 47001 70027 91106
AAXX 31061 01415 17984 81405 10014 21042 30039 40050 57010 6//// 700// 333 21020 91110
BBXX 46184 31061 99539 71389 46/// /2507 10021 40140 52018 22200 00059 11007 70037 333 91210
AAXX 31064 42634 31995 00504 10210 20121 40176 70500 333 59013
AAXX 31064 42647 31995 03405 10222 20082 40163 70400 333 59017
AAXX 31064 42737 32996 00212 10242 20101 40165 333 59009
AAXX 31064 42840 31995 43603 10230 20142 40150 70500 84030 333 59014 84360
AAXX 31064 42909 32997 00209 10252 20064 40153 222// 20000 333 59014
AAXX 31064 42921 32996 00000 10280 20146 40156 333 59022
AAXX 31064 43003 31995 02705 10262 20154 40129 70400 333 59014
AAXX 31064 43014 32996 01408 10270 20149 39484 40122 333 59018
AAXX 31064 43063 32997 01103 10280 20154 39499 40113 333 59023
AAXX 31064 43110 31996 01402 10312 20186 40123 70540 333 59010
AAXX 31064 43117 32597 61402 10288 20172 40132 86400 333 59002
AAXX 31064 43192 32997 00905 10318 20186 40117 333 59020
AAXX 31064 68674 NIL
AAXX 31061 54308 32980 03409 11018 21179 40308 57019 333 21163
AAXX 31064 45011 47558 /0212 10196 20107 40219 57031 70411 333 58000
AAXX 31061 31913 43/// /1201 11141 21190 30157 40282 55009
AAXX 31061 32128 41599 50102 11023 21048 30154 40207 53005 72681 84301 333 91005 91105
AAXX 31061 24856 41997 80202 11348 21377 30157 40333 58007 77177 80007
AAXX 31061 30679 NIL
AAXX 31061 30686 42999 01602 11254 21285 39949 40359 58009
AAXX 31061 30961 42999 03305 11208 21233 39541 40396 58001
AAXX 31061 30971 41999 40000 11210 21250 39312 40376 58006 70271 80002
AAXX 31061 30978 41999 00000 11256 21303 39640 40394 58005 70270
AAXX 31061 31513 42999 03802 11230 21249 30074 40321 57003
AAXX 31061 31624 NIL
AAXX 31061 31832 42998 81302 11161 21203 30191 40283 57010 82042
AAXX 31064 91723 NIL
AAXX 31064 91759 11598 61004 10278 20232 40080 53011 60001 71520 83102 333 83820 86078
AAXX 31064 91762 11598 60205 10288 20251 40076 53009 60001 71500 832/2 333 83822 86079
AAXX 31061 01025 17482 81201 11077 21090 30051 40062 52017 60002 700// 333 21097 44003 70000 91103
AAXX 31061 01311 47/84 /1405 10000 21055 39977 40040 58014 700// 333 21021 91106
AAXX 31064 08482 12980 02910 10134 21042 30283 40292 57005 60002 333 20134 55083 70000
AAXX 31064 62002 32960 02816 10055 20003 39514 48549 58001 333 20045 50454 55087 62010 12560 62716 10092 20025 40219 50001 60034 86800 333 0//17 55074 82826 84633
AAXX 31064 62012 12560 72622 10118 20058 30150 40180 56004 60054 878//333 0//18 20112 50304 55/// 82825 86630
AAXX 31064 62016 12560 42310 10100 20031 40202 55001 99944 84800 333 0//18 20100 50604 55071 81820 84625
AAXX 31064 62053 11557 72512 10112 20073 40134 56005 60124 72186 86550 333 0//29 20008 50124 55050 86620 87358
AAXX 31064 62124 32960 22904 10040 21006 39736 40253 51003 80004 20030 50504 55098 82068
AAXX 31064 62161 32970 02408 10075 20033 40184 53005 333 20068 50454 55097
AAXX 31064 62259 32970 30000 10045 21016 40253 53022 83070 333 20034 50504 55074 83360
AAXX 31064 60360 12560 62713 10128 20091 40254 53009 60024 85830 333 0//19 20108 82826 84640 95990
BBXX 4XFV 31063 99392 71783 43298 73225 00/// 10085 20060 40220 51010 7//// 88/// 22224 0//// 20504 399// 40810 5//// 6//// 80070 ICE /////
BBXX C6UB2 31064 99547 71716 43/// /2719 10010 21020 40150 54000 7//// 8//// 22263 00100 2//// 3//// 4//// 5//// 6//// 80000 ICE /////
BBXX NAZJ 31064 99543 71535 41/97 63317 11033 2//// 40091 52/// 7//77 8666/ 22243 04039 20301 32121 40704 50703 6//// 8//// ICE /////
BBXX SHIP 31064 99400 71755 41/97 63435 10090 20071 40189 52012 70203 8//// 90550 22224 00120 2//// 3//// 4//// 5//// 80080
AAXX 31061 26424 32497 62802 11004 21013 40053 52011 82530 333 21004
AAXX 31061 56671 32780 11802 10158 20019 38228 57038 81100 333 00251 20007
AAXX 31061 57378 31956 02002 10100 20031 40280 57027 70500 333 20045
AAXX 31061 57426 31856 72901 10118 20006 40282 57032 71000 87500 333 00103 20017
AAXX 31061 57476 32960 01803 10105 20033 40276 57033 333 20029
AAXX 31061 57584 31920 62502 10085 20039 40288 57029 71000 86040 333 20051
AAXX 31061 57598 31658 83401 10099 20043 40280 57029 70500 885// 333 20057
AAXX 31061 57655 32962 00000 10113 20023 40276 57039 333 20047
AAXX 31061 57713 NIL
AAXX 31061 57776 31/00 93201 10026 20022 40292 57022 74544 333 21007
AAXX 31061 58321 31950 71801 10082 20014 40278 57030 70500 8704/ 333 21004
AAXX 31061 58437 31770 83405 11021 21066 38180 57016 70040 885// 333 21052
AAXX 31061 58445 NIL
AAXX 31061 58556 11756 82901 10051 20007 40280 57028 69901 72160 885// 333 21004
AAXX 31061 58569 32763 73602 10094 20018 40271 57022 875// 333 20042
AAXX 31061 58646 31656 80702 10088 20028 40275 57022 70500 885// 333 20066
AAXX 31061 58653 NIL
AAXX 31061 58660 NIL
AAXX 31061 58715 31756 83403 10095 20047 40278 57022 71000 8557/ 333 20072
AAXX 31061 58730 32765 80201 10101 20066 40270 57021 885// 333 20083
AAXX 31061 58731 11260 83605 10077 20043 40273 57023 69901 72160 885// 333 20067
AAXX 31061 58754 11968 80203 10122 20032 40261 57024 69901 70060 8807/ 333 20078
AAXX 31061 58911 31558 82903 10101 20066 40265 57023 71000 885// 333 20078
AAXX 31061 58931 31/00 92904 10055 20054 38388 57017 74540 333 20018
AAXX 31061 59254 31740 70401 10146 20088 40248 57034 70500 875// 333 20116
AAXX 31061 59632 31957 03404 10174 20063 40234 57040 70500 333 20125
AAXX 31061 59855 11470 83402 10196 20166 40209 57031 60021 70060 888// 333 20179
BBXX 46004 31061 99509 71361 46/// /2002 10029 40189 52007 22200 00072 11007 70033 333 91203
BBXX 46004 31061 99509 71361 46/// /2002 10029 40189 52007 22200 00072 11007 70033 333 91203
AAXX 31064 43086 32597 81803 10284 20222 39979 40156 8357/ 333 58000
AAXX 31064 43128 31496 71405 10242 20195 39542 40147 70522 86720 333 56390 58002 83710 84615 86458
AAXX 31064 43150 21496 80210 10234 20225 30089 40165 76166 8452/ 333 58009 6006/ 84615 88460
AAXX 31064 43185 21597 60203 10276 20232 30145 40148 70265 85830 333 58012 6991/ 84620 83360
AAXX 31064 43189 31597 80703 10262 20233 30150 40159 70262 8457/ 333 58009
AAXX 31064 43198 32496 40912 10260 20144 39302 40117 82501 333 56209 59007 82615 83075
AAXX 31064 43201 32497 70906 10256 20169 39407 40119 83532 333 58000 83618 84358
AAXX 31064 43213 32597 71405 10288 20196 39821 40135 82832 333 56399 58006
AAXX 31064 43226 32897 20901 10314 20173 30087 40116 82030 333 59005
AAXX 31064 43233 32597 40709 10258 20125 39315 40116 81532 333 56299 59002
AAXX 31064 43237 32496 81408 10250 20201 39738 40132 8547/ 333 56339 58013 83618 86358
AAXX 31064 43245 32597 63202 10264 20229 30113 40140 82837 333 58014
AAXX 31064 43279 32597 61802 10270 20247 30124 40141 85430 333 58023 85820 85360
AAXX 31064 43284 32596 30912 10306 20178 39985 40099 82530 333 58002 82620
AAXX 31064 43295 21397 70903 10200 20137 39119 48522 75052 83531 333 56299 58030 6990/ 83608 84358 85075
AAXX 31064 43311 31497 53608 10310 20251 40100 70352 84402 333 56899 59001 82618 83822
AAXX 31064 43314 21597 70000 10284 20211 40109 70262 83432 333 58019 6990/
AAXX 31064 43321 21395 83609 10200 20197 39694 40150 75055 8357/ 333 58041 6998/
AAXX 31064 43344 31596 61406 10264 20238 30038 40137 70522 82531 333 58065 82620 84360
AAXX 31064 43346 32597 21406 10290 20232 30119 40126 81501 333 58040 81620
AAXX 31064 43353 21295 81112 10236 20230 40124 76206 8393/ 333 56699 57922 58027 6007/ 83705 83610 88458
AAXX 31064 43369 32597 62706 10306 20252 40107 82531 333 59011 82620 83360
AAXX 31064 43371 21596 73206 10252 20246 30043 40116 75065 84970 333 57912 58018 6001/ 84618 81925 86458
AAXX 31064 43329 NIL
AAXX 31064 65319 32960 51404 10190 20005 39625 40140 80002 333 01800 20183 50614 55101 58006 85076
AAXX 31064 71067 16/// ///// 11053 21088 60001 333 11026 21125 70000
AAXX 31064 71984 16/// /2506 11234 21257 30082 40091 51016 60001 333 11210 21272 70000
AAXX 31064 71357 17/// /1912 11266 21292 30069 40076 56002 69931 7//4/ 333 11266 21351 70003
AAXX 31064 71359 16/// /2906 11092 21098 60001 333 11046 21150 70027
AAXX 31064 71221 17/// /2604 11077 21091 69941 7//4/ 333 11044 21133 70027
AAXX 31064 71226 16/// /2809 11050 21063 60001 333 11025 21106 70008 555 30817 40181
AAXX 31064 71229 46/// /0000 11098 21109 6///1 333 11072 21177 7//// 555 10020
AAXX 31064 71315 16/// /0000 11171 21195 30206 40262 51013 60001 333 11096 21174 70000 555 32727 40071
AAXX 31064 71888 16/// ///// 11084 21109 60001 333 10005 21121 70000
AAXX 31064 71895 16/// ///// 11033 21046 60001 333 11004 21140 7////
AAXX 31064 71283 16/// /2806 11080 21089 60001 333 11055 21135 70034
AAXX 31064 71761 16/// ///// 11101 21111 60001 333 11045 21154 70000
AAXX 31064 71788 16/// /2313 11009 21045 60001 333 10097 21011 70000 555 32841 40003
AAXX 31064 71792 16/// ///// 11078 21107 60001 333 10045 21100 70008
AAXX 31064 71461 16/// /2808 11057 21067 60001 333 11040 21092 70018
AAXX 31064 71468 16/// /3003 11047 21048 39784 40111 53001 60001 333 21090 7////
AAXX 31064 71483 16/// ///// 11103 21135 60001 333 11028 21119 70000
AAXX 31064 71405 16/// ///// 11072 21105 60001 333 11005 21127 70000
AAXX 31064 71417 16/// /2614 11072 21100 30173 40208 51032 60001 333 11004 21072 70000 555 32546 40103
AAXX 31064 71426 46/// /0810 11092 6///1 333 11091 21161 7//// 555 33034 40083
AAXX 31064 71673 16/// ///// 11027 21061 60001 333 11010 21135 70004
AAXX 31064 71690 16/// ///// 11074 21087 60001 333 11046 21126 70005
AAXX 31064 71010 16/// /2610 11052 21083 60001 333 10018 21092 7////
AAXX 31064 71011 16/// ///// 11035 21117 60001 333 10054 21045 70000
AAXX 31064 71049 16/// /3004 11246 30032 40056 50003 60001 333 11191 21246 70000
AAXX 31064 71500 16/// /2906 11046 21074 60001 333 11036 21086 70000 555 31017 40151
AAXX 31064 71504 46/// ///// 11048 21072 6///1 333 11025 21119 7////
AAXX 31064 71541 16/// /2706 11076 21087 60001 333 11045 21096 70018
AAXX 31064 71543 46/// /2803 11094 21102 6///1 333 11043 21163 7////
AAXX 31064 71546 16/// /2605 11067 21078 60001 333 11048 21091 70005
AAXX 31064 71547 17/// /2608 11075 21087 69941 7//4/ 333 11053 21095 70012
BBXX 46232 31061 99325 71174 46/// ///// 1//// 90608 22200 00146 11203 20803 328// 41202 70016
BBXX 46249 31061 99338 71197 46/// ///// 1//// 90610 22200 00147 11803 20802 326// 41803 70016
BBXX 46247 31061 99378 71228 46/// ///// 1//// 90621 22200 00115 11705 21003 328// 41704 70026
BBXX 46244 31061 99409 71244 46/// ///// 1//// 90605 22200 00103 11407 21004 328// 41406 70037
BBXX 46246 31061 99500 71451 46/// ///// 1//// 90559 22200 00068 10906 20905 326// 41303 70030
AAXX 31061 56144 32980 01802 10048 21222 36887 57044 333 00201 21092
AAXX 31061 56152 32980 01602 10026 21200 36327 57030 333 00252 21197
AAXX 31061 56167 32980 01801 10072 21194 37100 57056 333 00200 21113
AAXX 31061 56182 32980 02001 10063 21128 37211 57051 333 00300 21111
AAXX 31061 56357 32980 01401 10070 21157 36462 57035 333 00151 21136
AAXX 31061 56586 11665 52501 10059 21006 38087 57039 69901 70060 85100 333 00204 21008 93427
AAXX 31061 56748 32980 01803 10175 20011 38391 57030 333 00201 20020
AAXX 31061 56763 32680 11604 10234 20039 40137 57051 81100 333 00100 20064
AAXX 31061 56768 32680 12005 10163 20059 38204 57033 81100 333 00101 20035
AAXX 31061 56838 32665 12901 10179 20103 40210 57034 81100 333 00151 20080
AAXX 31061 56886 31740 81602 10069 20052 38334 57034 71000 884// 333 00258 20046
AAXX 31061 56946 32680 11401 10211 20087 40195 57035 81400 333 00101 20056
AAXX 31061 56959 32775 21401 10248 20168 40172 57040 82130 333 00001 20136
AAXX 31061 56969 32580 22201 10256 20173 40173 57038 82800 333 00005 20147
AAXX 31061 57731 32762 72902 10108 20011 40275 57039 875// 333 05103 20047
AAXX 31061 57766 31757 82201 10079 20045 40290 57030 71000 8757/ 333 20049
AAXX 31061 57845 11960 83401 10072 20029 40284 57037 69911 70060 8807/ 333 20043
AAXX 31061 57853 11450 82002 10082 20029 40284 57036 69901 71060 887// 333 20045
AAXX 31061 57916 32963 70000 10128 20050 40263 57042 87030 333 00002 20078
AAXX 31061 57922 32661 72701 10083 20032 40276 57035 875// 333 00002 20016
AAXX 31061 57932 11758 71601 10103 20031 40276 57043 69901 70560 875// 333 00001 20061
AAXX 31061 58338 32960 72702 10090 21001 40271 57028 8704/ 333 20011
AAXX 31061 59007 11665 80000 10069 20033 40260 57034 69901 70060 885// 333 20052
AAXX 31061 59046 31756 80202 10107 20037 40268 57035 70500 885// 333 20098
AAXX 31061 59058 31840 82903 10093 20043 40265 57032 71000 885// 333 20086
AAXX 31061 59072 32760 80404 10112 20047 40263 57033 885// 333 20076
AAXX 31061 59087 32761 70703 10167 20068 40235 57038 87500 333 20107
AAXX 31061 59209 11463 82501 10094 20059 40259 57033 69901 76066 887// 333 20080
BBXX 46146 31061 99493 71237 46/// /2905 10063 40193 52046 22200 00071 10401 70003 333 91207
BBXX 46146 31061 99493 71237 46/// /2905 10063 40193 52046 22200 00071 10401 70003 333 91207
AAXX 31064 60360 12560 62713 10128 20091 40254 53009 60024 85830 333 0//19 20108 82826 84640 95990
AAXX 31064 60060 32956 00000 10136 20035 40299 5//// 333 20136 30007
AAXX 31063 41150 41950 13105 10181 20145 40246 70500 81030 333 20147 30012 58001 81362
BBXX 41010 31061 99289 70785 46/// /1506 10211 40195 90620 22200 00236 10801 20301 300// 40801 70007 333 91207 555 11060 22062
BBXX 41009 31061 99285 70802 46/// /1805 10221 20167 40198 90620 22200 00227 11301 20401 300// 41301 70006 333 91206 555 11053 22055
BBXX 41115 31061 99184 70673 46/// ///// 1//// 90605 22200 11302 21001 300// 41301 70010
BBXX 42361 31061 99276 70925 46/// ///04 10222 20194 40183 50000 90630 555 11035 22037
AAXX 31064 62002 32960 02816 10055 20003 39514 48549 58001 333 20045 50454 55087
AAXX 31064 62010 12560 62716 10092 20025 40219 50001 60034 86800 333 0//17 55074 82826 84633
AAXX 31064 62012 12560 72622 10118 20058 30150 40180 56004 60054 878// 333 0//18 20112 50304 55/// 82825 86630
AAXX 31064 62016 12560 42310 10100 20031 40202 55001 69944 84800 333 0//18 20100 50604 55071 81820 84625
AAXX 31064 62053 11557 72512 10112 20073 40134 56005 60124 72186 86550 333 0//29 20008 50124 55050 86620 87358
AAXX 31064 62124 32960 22904 10040 21006 39736 40253 51003 80004 333 20030 50504 55098 82068
AAXX 31064 62161 32970 02408 10075 20033 40184 53005 333 20068 50454 55097
AAXX 31064 62259 32970 30000 10045 21016 40253 53022 83070 333 20034 50504 55074 83360
BBXX 42013 31061 99272 70829 46/// ///// 1//// 40202 90540 22200 00203
BBXX KS007 31064 99267 70801 43/// ///// 10178 40162 22200
BBXX KS094 31064 99172 70626 43/// /0803 10257 40179 22200 06261
BBXX KS088 31064 99267 70801 43/// /0703 10177 40201 22200 06218
AAXX 31061 45032 36/// /3503 10211 20097 30197 40214 57001
AAXX 31061 45035 36/// /2604 10197 20110 30172 40214 57001
AAXX 31061 45039 36/// /0103 10201 20110 30197 40212 57001
AAXX 31061 45044 36/// /1703 10195 20122 30121 40215 54000
AAXX 31061 45032 36/// /3503 10211 20097 30197 40214 57001
AAXX 31061 45035 36/// /2604 10197 20110 30172 40214 57001
AAXX 31061 45039 36/// /0103 10201 20110 30197 40212 57001
AAXX 31061 45044 36/// /1703 10195 20122 30121 40215 54000
AAXX 31060 67689 11370 70000 10205 20189 69904 71522 8663/ 333 20169 5//// 55/// 79999 82706 86615 87359 555 10236 7//96
BBXX 44258 31061 99445 70634 46/// /0903 10014 40256 54000 22200 00052 10903 70015 333 91204
BBXX 44258 31061 99445 70634 46/// /0903 10014 40256 54000 22200 00052 10903 70015 333 91204
AAXX 31064 96009 01450 80906 10260 20239 30078 40113 57020 60071 76162 8692/ 333 56009 57904 60027 82915 84616 80965
AAXX 31064 96011 01456 80706 10296 20229 30088 40114 57014 69901 76022 8692/ 333 56009 57902 83916 83618 80965
AAXX 31064 96035 11460 73104 10290 20232 30076 40114 57016 69901 70262 85271 333 56000 57802 85817 80840
AAXX 31064 96073 31558 70000 10305 20230 30100 40111 56019 70522 83222 333 56000 57802 83820 80860
AAXX 31064 96091 32460 52506 10314 20245 30087 40110 57017 83221 333 56800 57882 83817 80860
AAXX 31064 96109 32460 53005 10312 20233 30050 40090 57021 82221 333 56000 57804 82815 80830
AAXX 31064 96145 32462 73306 10282 20244 30094 40097 58013 83202 333 56800 57883 83817 84070 80857
AAXX 31064 96147 NIL
AAXX 31064 96163 32562 62511 10326 20238 30111 40113 57012 81131 333 56000 57802 81820 80825
AAXX 31064 96179 32460 72805 10324 20241 30065 40102 57020 83208 333 56700 57873 83817 87273 80840
AAXX 31064 96195 32462 73008 10318 20225 30069 40106 56022 83531 333 56000 83815
AAXX 31064 96221 32460 72704 10306 20236 30087 40102 57015 84276 333 56999 83815
AAXX 31064 96237 32459 70307 10296 20250 30060 40102 57015 84932 333 56000 57901 82918 82816 83360 85080 80980
AAXX 31064 96249 32561 73208 10292 20246 30040 40101 57017 85932 333 56700 57971 57871 81920 84820 80981
AAXX 31064 96253 32560 62606 10308 20222 30083 40103 57002 82832 333 56000 57802 81820 84080 80840
AAXX 31064 96295 21460 82611 10272 20237 30002 40105 56019 60021 70262 8652/ 333 56009 86612
AAXX 31064 96509 11460 70000 10292 20255 30081 40092 57032 69901 70262 84171 333 56000 84815
AAXX 31064 96581 32460 72509 10320 20231 30096 40103 57019 85131 333 56600 85812 80860
AAXX 31064 96633 32560 70706 10297 20253 30078 40086 57016 82971 333 56000 57900 81920 82620 809//
AAXX 31064 96645 32457 73305 10314 20258 30056 40088 57026 85232 333 56000 57801 85812 80858
AAXX 31064 96655 31459 83403 10318 20240 30072 40107 57021 71422 85277 333 56600 57862 82812 83612 80860
AAXX 31064 96685 32460 63604 10316 20246 30067 40093 57025 84511 333 56000 84616
AAXX 31064 96749 01560 72517 10288 20236 30090 40103 58015 60021 72162 82471 333 56500 69907 82620 86460
AAXX 31064 96781 NIL
AAXX 31064 96805 32560 72615 10302 20244 30090 40099 56012 83271 333 56000 57801 83820 84360 80858
AAXX 31064 96839 31457 73312 10306 20248 30081 40088 57017 85932 333 56600 57961 82918 84819 80980
AAXX 31064 96935 01520 82110 10250 20237 30084 40090 57016 60141 79596 889// 333 56099 57900 57800 60147 83920 86820 80860 80980
AAXX 31064 96001 11558 81110 10274 20263 39988 40136 57004 60061 70522 84572 333 56200 84620
AAXX 31064 96015 32457 61704 10287 20250 30097 40104 57030 84272 333 56000 57802 84617 80860
AAXX 31064 96033 11450 80000 10280 20245 30113 40119 57016 69901 71562 8492/ 333 56009 57903 81918 84617 88457 80980
AAXX 31064 96075 32462 50809 10316 20237 30102 40108 57016 83271 333 56000 57801 83816 80850
AAXX 31064 96087 32460 60105 10308 20225 30065 40098 56021 83131 333 56700 57874 83815 80860
AAXX 31064 96171 32458 70000 10318 20224 30070 40094 57025 85222 333 56000 57802 85815 80856
AAXX 31064 96207 32458 62219 10269 20149 39244 40165 57010 84531 333 56000 84619
AAXX 31064 96505 32460 61805 10279 20224 39079 4//// 57016 86131 333 56000 86817
AAXX 31064 96525 32460 70411 10318 20244 30087 40094 57033 84275 333 56000 84615
AAXX 31064 96529 32460 60000 10314 20251 30081 40105 57035 83131 333 56000 83818
AAXX 31064 96535 32460 62803 10332 20253 30088 40109 58017 82131 333 56000 82814
AAXX 31064 96557 32460 62504 10310 20231 30049 40099 57016 84271 333 56600 57861 84813 80857
AAXX 31064 96559 32459 52708 10320 20239 30070 40107 57015 84231 333 56400 57843 84812 80858
AAXX 31064 96565 32460 63604 10308 20257 30057 40109 57019 84231 333 56000 57803 84810 80840
AAXX 31064 96595 31462 72703 10329 20240 30047 40099 57021 70522 82536 333 56000 82612
AAXX 31064 96607 32460 61904 10318 20237 30084 40099 57021 85221 333 56000 85815
AAXX 31064 96615 32460 63307 10308 20245 30094 40108 57019 83131 333 56600 57863 83812 80856
AAXX 31064 96695 32458 70903 10316 20241 30076 40082 58024 83211 333 56000 57802 83616 84460 80860
AAXX 31064 96737 11450 82811 10286 20234 30064 40095 58012 69981 70562 85521 333 56700 85616 83460
AAXX 31064 96739 12465 72514 10286 20240 30055 40104 57025 60021 70162 84132 333 56000 83818
AAXX 31064 96741 01560 82907 10290 20248 30096 40100 57029 60021 70262 8457/ 333 56009 69997 84620 86460
AAXX 31064 96745 01559 72405 10288 20245 30099 40104 57021 60021 70262 84871 333 56600 57861 69937 83820 87460 80825
AAXX 31064 96751 11560 62605 10260 20198 39030 48920 57017 69911 70162 83271 333 56600 57862 83820 80860
AAXX 31064 96791 32460 62704 10312 20249 30034 40109 57012 84271 333 56000 57802 84817 80860
AAXX 31064 96797 32462 53208 10302 20256 30080 40086 57022 82231 333 56000 57802 82820 80860
AAXX 31064 96837 32559 73308 10302 20256 30081 40084 56020 84231 333 56000 57800 84823
AAXX 31064 96925 01464 82806 10295 20256 30085 40090 56015 69941 72162 85272 333 56600 57860 69907 85817 80860
AAXX 31064 96933 31459 82810 10314 20248 30082 40086 57020 71721 8692/ 333 56609 57961 82915 84819 88458 80975
AAXX 31064 96937 32562 83409 10322 20258 30080 40085 57020 84266 333 56800 57880 84820 86360 80860
AAXX 31064 96973 01458 82903 10268 20254 30083 40088 57015 60011 79196 84976 333 56700 57971 60017 82919 80976 82820 80850
AAXX 31064 96987 31460 60511 10316 20241 30025 40085 57015 70292 84921 333 56000 57902 82918 82618 80980
AAXX 31064 97014 11459 82704 10276 20234 30010 40103 57022 69921 70262 84871 333 56700 83818
AAXX 31064 97028 01463 72301 10288 20233 30086 40092 58026 60021 82162 83221 333 56000 57802 69937 83819 86460 80860
AAXX 31064 97048 32459 70106 10304 20237 30052 40076 57025 84972 333 56000 57901 57801 81917 83817 80980 80860
AAXX 31064 97072 32560 73305 10314 20230 30999 40099 58032 82271 333 56000 57804 82820 84460 80856
AAXX 31064 97086 01560 70903 10308 20261 30060 40085 56023 70262 83820 333 56000 57803 69907 82820 86460 80858
AAXX 31064 97096 NIL
AAXX 31064 97120 32462 72905 10320 20220 30054 40087 57018 82231 333 56000 57803 82818 84360 80860
AAXX 31064 97146 NIL
AAXX 31064 97180 01456 61906 10273 20261 30080 40098 56018 60041 72162 82272 333 56000 60037 82819 83460
AAXX 31064 97192 01440 83105 10254 20245 30054 40111 57018 60371 72196 8452/ 333 56609 60017 84615 88460
AAXX 31064 97230 NIL
AAXX 31064 97260 32562 53306 10304 20234 30070 40077 52024 82131 333 56000 82820
AAXX 31064 97270 01410 80000 10256 20244 30087 40092 57006 60021 76062 86871 333 56000 60027 83813
AAXX 31064 97300 32560 50506 10305 20248 30049 40089 57018 83231 333 56000 57801 83820 80858
AAXX 31064 97340 32565 72509 10276 20248 30070 40085 57001 85232 333 56000 85620
AAXX 31064 97372 01459 72909 10284 20260 39964 40085 57013 69901 70262 84271 333 56000 69907 84816 85459
AAXX 31064 97430 01450 83011 10264 20246 30061 40090 57014 60081 71466 84972 333 56700 57971 57871 60067 81915 83818 85459 80980 80860
AAXX 31064 97460 01458 72702 10288 20230 30058 40072 57016 60141 71662 84872 333 56400 57842 69907 83817 80858
AAXX 31064 97502 01457 82304 10286 20257 30069 40073 57019 69901 72162 86921 333 56000 57901 69907 82910 85614 80960
AAXX 31064 97530 NIL
AAXX 31064 97560 32460 82809 10304 20255 30047 40062 57018 84847 333 56000 57802 82818 83620 85361 87279 80860
AAXX 31064 97580 32462 73408 10312 20268 30053 40060 56023 84808 333 56700 57872 83814 86275 80856
AAXX 31064 97600 32460 60906 10308 20242 30074 40080 57022 82271 333 56600 57864 82818 84459 80858
AAXX 31064 97686 31462 71320 10250 20153 38310 40042 57012 71622 85844 333 56000 57802 84815 86361 80860
AAXX 31064 97690 32462 72704 10318 20247 39944 40046 57016 83942 333 56000 57901 82915 86080 80970
AAXX 31064 97724 31462 73604 10290 20228 30061 40077 57031 84872 333 56700 57871 83815 80850
AAXX 31064 97748 NIL
AAXX 31064 97760 01458 71303 10272 20255 30081 40091 57022 60041 72166 84920 333 56000 57901 60037 81915 83816 80960
AAXX 31064 97796 32460 72712 10333 20227 30036 40087 57021 83132 333 56000 83814 86362
AAXX 31064 97810 11464 73308 10300 20248 30059 40068 56028 60041 70262 82232 333 56700 57874 82819 84076 80835
AAXX 31064 97876 31358 62808 10318 20244 30066 40096 57031 71422 85231 333 56600 57801 83808 83609 80858
AAXX 31064 97900 32568 72505 10324 20253 30042 40070 58021 84230 333 56600 57861 84820 87360 80850
AAXX 31064 97980 32460 42708 10312 20252 30048 40055 57008 83842 333 56000 81817 83620
AAXX 31064 97008 11560 80000 10284 20249 30078 40088 57014 60081 70262 8357/ 333 56009 83620 87460
AAXX 31064 97016 32563 73112 10300 20221 30093 40091 57010 83272 333 56000 57801 83820 85460 80860
AAXX 31064 97126 32458 81001 10294 20244 30026 40086 57026 8392/ 333 56009 57901 81916 82616 88460 80980
AAXX 31064 97142 NIL
AAXX 31064 97182 01468 62204 10290 20250 30086 40090 60131 70162 83271 333 56000 57800 60077 83820 86460 80861
AAXX 31064 97240 NIL
AAXX 31064 97284 01450 80000 10214 20208 38861 40099 58007 60061 76162 86221 333 56000 57801 60067 86810 80837
AAXX 31064 97310 NIL
AAXX 31064 97320 32565 72815 10324 20259 30063 40076 57023 83228 333 56000 57801 83820 85280 80850
AAXX 31064 97378 01450 80000 10236 20236 39920 40083 56018 60491 79196 8472/ 333 56609 60477 84717 88456
AAXX 31064 97380 01462 70000 10278 20264 30062 40082 57034 60141 76062 82271 333 56000 57802 69977 82819 85459 80850
AAXX 31064 97406 NIL
AAXX 31064 97570 32460 72912 10310 20246 30060 40067 57019 83208 333 56600 83815 86277
AAXX 31064 97630 01408 83515 10256 20241 39928 40088 56016 60031 76366 8892/ 333 56609 57960 60037 84809 88458 80970
AAXX 31064 97682 32465 62105 10320 20247 30035 40042 57021 83842 333 56000 57803 82816 86362 80858
AAXX 31064 97698 NIL
AAXX 31064 97700 32462 70205 10296 20244 30054 40065 57023 82232 333 56000 57804 82817 84074 80850
AAXX 31064 97722 32462 72511 10306 20233 30062 40077 57027 85972 333 56600 57961 57861 81918 83819 80971 80857
AAXX 31064 97780 NIL
AAXX 31064 97790 01440 82510 10250 20241 30044 40064 57013 60111 76366 8362/ 333 56009 60117 83715 88458
AAXX 31061 80402 NIL
AAXX 31061 80412 NIL
AAXX 31061 80416 NIL
AAXX 31061 80420 32960 00704 10246 20226 30119 40125 333 30/// 58004 555 10138
AAXX 31061 80425 32460 20701 10258 20233 30089 40120 82400 333 30/// 56900 59010 82613 555 10121
AAXX 31061 80426 NIL
AAXX 31061 80427 32960 03602 10226 20217 39894 40149 333 30/// 58007 555 10166
AAXX 31061 80431 32560 2//// 10210 20205 39638 40126 80008 333 30/// 56009 59004 555 10140
AAXX 31061 80434 NIL
AAXX 31061 80437 11460 20000 10227 20221 30018 40102 69941 70252 82500 333 31/// 56900 58004 82617 555 10110
AAXX 31061 80440 32960 03603 10233 20184 39912 40122 333 30/// 58000 555 10132
AAXX 31061 80442 NIL
AAXX 31061 80472 32460 70902 10235 20210 39646 40120 8552/ 333 30/// 5699/ 59006 85616 555 10148
AAXX 31061 80475 32570 30000 10204 20198 39809 40179 83500 333 30/// 56900 58018 83620 555 10194
AAXX 31061 80476 NIL
AAXX 31061 80478 NIL
AAXX 31061 80479 NIL
AAXX 31061 80400 NIL
AAXX 31061 80403 32460 20705 10256 20222 30119 40138 82500 333 30/// 56900 58002 82613 555 10140
AAXX 31061 80405 NIL
AAXX 31061 80407 NIL
AAXX 31061 80410 32460 61102 10208 20198 39452 40126 867// 333 30/// 569// 59010 86713 555 10165
AAXX 31061 80413 32960 03601 10194 20156 39642 40130 333 30/// 59004 555 10174
AAXX 31061 80415 NIL
AAXX 31061 80419 NIL
AAXX 31061 80421 NIL
AAXX 31061 80423 NIL
AAXX 31061 80428 NIL
AAXX 31061 80432 NIL
AAXX 31061 80435 32960 30000 10239 20239 30016 40090 80003 333 30/// 56009 59026 555 10089
AAXX 31061 80438 32560 60902 10170 20164 38526 48523 83508 333 30/// 56909 59012 83627 83280 555 10210
AAXX 31061 80444 NIL
AAXX 31061 80447 32560 40000 10233 20217 39677 40091 84500 333 30/// 56900 59010 84620 555 10140
AAXX 31061 80448 32960 00000 10240 20228 3//// 4//// 333 30///
AAXX 31061 80450 32460 60902 10264 20233 30081 40136 865// 333 30/// 569// 58003 86616 555 10133
AAXX 31061 80453 NIL
AAXX 31061 80457 32960 2//// 10261 20179 30030 40115 80020 333 30/// 56090 58006 555 10115
AAXX 31061 80462 NIL
AAXX 31064 65501 32960 70000 10131 21002 39838 40159 80002 333 01300 20131 50864 55098 58002 87076
AAXX 31064 65502 32960 60406 10153 21050 39772 40157 80002 333 01400 20153 50964 55092 58000 86076
AAXX 31064 65503 32960 73604 10158 20019 39803 40152 81032 333 01400 20156 50850 55102 51751 59004 81363 87076
AAXX 31064 65505 32960 53602 10146 21001 39815 40159 80002 333 01400 20140 50954 55090 58000 85076
AAXX 31064 65507 32960 70202 10159 21015 39793 40146 80002 333 01400 20159 50894 55100 58001 87076
AAXX 31064 65510 31958 60208 10160 21034 39631 40152 70622 80002 333 01500 20156 51010 55079 59005 86076
AAXX 31064 65516 32960 50402 10158 21019 39839 40149 80002 333 01600 20151 50854 55078 59005 85076
AAXX 31064 65518 32965 73602 10163 21029 39775 40142 80002 333 01300 20155 51244 55100 59002 87076
AAXX 31064 65522 32960 70000 10155 20008 39816 40147 80002 333 01200 20155 51054 55096 58002 87076
BBXX 44140 31061 99429 70515 46/// /2908 10128 40270 52018 22200 00086 11208 70040 333 91210
AAXX 31061 23405 11472 71302 11030 21040 39957 40059 52014 60020 70273 87500 333 21091 87619
AAXX 31061 98134 31456 80403 10220 20200 39982 40175 57024 71644 8552/ 333 56199 85617 88456
AAXX 31061 98223 31565 13404 10303 20232 40124 57030 70544 81100 333 56999 81820
AAXX 31061 98232 31570 70405 10253 20228 40172 56010 70142 82270 222// 20102 333 56199 82820 87358
AAXX 31061 98325 31462 33403 10322 20282 40128 57025 70544 82201 333 56999 82817
AAXX 31061 98328 31457 62202 10240 20201 38547 40115 57016 74644 86201 333 56999 86813
AAXX 31061 98330 31475 51803 10305 20251 30104 40136 57031 70544 83330 333 56999 83918 83358
AAXX 31061 98336 31470 70404 10278 20241 30156 40161 57018 70544 82277 333 56199 82815 83357 87275
AAXX 31061 98429 31560 31104 10299 20233 40134 57022 70544 83900 333 56999 81923 82825
AAXX 31061 98430 31558 70000 10292 20230 40132 58023 70544 84970 333 56999 81918 83358
AAXX 31061 98431 31470 20000 10290 20240 30083 40130 58024 70544 82100 333 56999 82818
AAXX 31061 98440 11470 20904 10296 20249 30135 40140 57023 69901 70584 82200 333 56299 82815
AAXX 31061 98444 11458 80403 10289 20260 30110 40129 58020 60041 78182 83377 333 56199 82918 85459 88270
AAXX 31061 98526 32575 21203 10312 20255 40120 57031 82100 333 56299 82820 98325
AAXX 31061 98531 31570 13006 10325 20246 30117 40121 58019 70544 81200 333 56799 81820
AAXX 31061 98536 31470 30404 10277 20233 39927 40126 58026 70544 82201 222// 20101 333 56199 82818
AAXX 31061 98543 32480 60000 10300 20261 30113 40124 57025 82201 333 56199 82818 85075
AAXX 31061 98550 11460 70403 10291 20253 40114 57015 69921 72582 82268 333 56199 82818 87272
AAXX 31061 98618 32580 40906 10310 20247 40111 58025 83251 333 56999 83820
AAXX 31061 98630 32575 30204 10306 20262 40131 58011 82201 222// 2//03 333 56199 82820
AAXX 31061 98637 NIL
AAXX 31061 98646 32560 60502 10302 20261 30102 40130 57021 82238 333 56199 82820 83360 85275
AAXX 31061 98653 11468 40403 10307 20259 30050 40095 57016 60121 70584 83202 333 56199 83818
AAXX 31061 98741 11468 80402 10264 20245 40107 58007 60081 71582 83907 333 56199 83917 88275
AAXX 31061 98747 31458 73203 10280 20254 39888 40092 57033 70544 83870 333 56999 83618 87358
AAXX 31061 98753 11465 73603 10284 20252 40095 57031 69901 72164 82278 333 56999 82816 85359 87279
AAXX 31061 98755 NIL
AAXX 31061 98836 31460 71802 10310 20250 40103 57022 70544 83370 333 56199 83918 86362
BBXX 44140 31061 99429 70515 46/// /2908 10128 40270 52018 22200 00086 11208 70040 333 91210
BBXX 46036 31061 99484 71339 46/// /1602 10051 40212 52005 22200 00078 11007 70034 333 91204
BBXX 46036 31061 99484 71339 46/// /1602 10051 40212 52005 22200 00078 11007 70034 333 91204
AAXX 31061 88900 46/// /1302 10039 20033 39854 49857 56033
BBXX 62081 31064 99510 70134 46/// ///// 10123 20116 40112 58016 22200 00118 10708 70042
BBXX 63055 31064 99606 10016 47297 /1428 10044 20043 49961 57030 704// 22200 10606 70031
BBXX 63106 31064 99610 10017 46/// /1630 10056 49969 57029 22200
BBXX 63105 31064 99610 10017 47497 ///// 10054 20025 49972 57028 751// 22200
BBXX 62103 31064 99499 70029 46/96 /2625 10119 20111 40148 55001 22200 00119 10704 70021 333 90710 91134
BBXX 62107 31064 99501 70061 46/// /2627 10117 20112 40155 57012 22200 00116 10705 70024 333 90710 91136
BBXX 62095 31064 99530 70159 46/// /2320 10119 20117 40026 57020 22200 00111 10708 70041 333 90710 91129
BBXX 62095 31064 99530 70159 46/// ///20 1//// 2//// 40026 57020 22200 10708 70041 333 90710 91129
BBXX PHBO 31063 99451 70181 41/97 52321 10147 20138 40260 58019 75065 8//// 22214 20503 326// 41203 80142
AAXX 31064 87047 11962 50000 10178 20169 38777 48498 57017 69911 71062 85030 333 56000 85360
AAXX 31064 78318 12565 10703 10208 20187 30189 40193 58007 60001 81100 333 10279 20178 30/// 56900 58008 81821
AAXX 31064 78325 11930 01101 10208 20185 30139 40197 58011 60001 70400 333 10262 20188 30/// 56/// 58009
AAXX 31064 78333 12910 00602 10210 20194 30190 40197 56007 60001 333 10280 20182 30/// 56000 58013
AAXX 31064 78348 11557 10602 10221 20202 30143 40196 58008 60001 70500 81100 333 10250 20206 31/// 56900 58012 70184 81823
AAXX 31064 78349 12550 73101 10206 20197 30095 40204 58006 60001 871// 333 10290 20204 30/// 56299 58012 87820 555 10903
AAXX 31064 78353 12560 20601 10241 20201 30174 40196 58008 60001 82200 333 10280 20221 30/// 56900 58012 82820
AAXX 31064 78360 12/60 10203 10225 20210 30169 40180 58007 60001 81200 333 10302 20200 30/// 56900 58006 818// 92022
AAXX 31064 78369 12464 10504 10245 20217 30170 40179 57012 60001 81200 333 10281 20220 30/// 56900 57860 58008 81818
AAXX 31061 23426 32989 80000 11194 21123 30097 40123 52019 80001 333 21127
AAXX 31061 23625 32999 81601 11063 21071 30095 40129 52016 80005
AAXX 31061 28076 12997 60000 11081 21087 30150 40225 52027 69900 80001 333 21112
AAXX 31061 28367 32996 82102 11046 21066 30127 40259 52023 8807/ 333 21094
AAXX 31061 28382 11584 82303 11078 21096 30186 40260 52026 69900 70282 8392/ 333 21092
AAXX 31061 28481 32997 82101 11082 21088 30164 40268 52020 8802/ 333 21119
AAXX 31061 28491 11967 82102 11093 21105 30157 40272 52022 69900 70271 8807/ 333 21086
AAXX 31061 28573 32998 72203 11061 21084 30170 40277 52021 82031 333 21140
AAXX 31061 28593 12998 22202 11107 21113 30183 40287 52023 69900 80001 333 21092
AAXX 31061 28786 32998 22704 11103 21131 30147 40313 52022 82030 333 21099
AAXX 31061 28797 12997 22504 11108 21128 30144 40311 52023 69900 81039 333 21116
AAXX 31061 28799 12998 02202 11115 21135 30165 40318 52018 69900 333 21119
AAXX 31061 20046 31998 03305 11232 21250 30054 40088 52021 70230 333 21262
AAXX 31061 20069 NIL
AAXX 31061 20087 41296 80404 11124 21144 39913 49923 54000 77373 8672/ 333 86704
AAXX 31061 20292 NIL
AAXX 31061 20353 46/// /3313 11122 21143 39984 49988 52029 333 91117
AAXX 31061 20667 31998 73109 11070 21079 39954 49961 52036 73632 87070 333 21139
AAXX 31061 20674 41897 82404 11095 21107 39855 49915 52022 77172 8802/ 333 91106
AAXX 31061 20744 11498 60607 11096 21122 30062 40081 52027 69920 70231 83131 333 21094
AAXX 31061 20891 42998 71503 11145 21188 30006 40049 58005 85031 333 91105
AAXX 31061 23022 11597 52605 11107 21151 30019 40081 52028 69920 70283 82531 333 21100 91112
AAXX 31061 23032 11996 72904 11068 21092 30021 40051 52038 69930 70282 80060 333 21076
AAXX 31061 23058 11498 72607 11072 21081 30013 40017 53038 69960 73683 82530 333 21180
AAXX 31061 23242 11496 72809 11076 21102 30057 40073 52033 69900 73873 86830 333 21225 84614 91113
AAXX 31061 23256 11397 82508 11085 21096 30020 40056 52033 69940 77173 885// 333 21166 85709 91012 91113
AAXX 31061 23330 32998 71802 11175 21187 30093 40115 52025 83031 333 21168
AAXX 31061 23445 12997 81903 11178 21190 30103 40130 52031 69900 80001 333 21165
AAXX 31061 23552 11997 02302 11157 21176 30096 40132 52030 60020 70171 333 21124
AAXX 31061 23631 11999 72002 11092 21099 30095 40138 52013 69900 70271 87050 333 21201
AAXX 31061 23662 11599 72503 11119 21139 30099 40145 52031 60010 70272 85530 333 21097
AAXX 31061 23724 32999 82003 11062 21070 30086 40152 52018 8805/ 333 21067
AAXX 31061 23734 32998 60000 11100 21106 30072 40167 52021 86070 333 21145
AAXX 31061 23849 41356 72403 11092 21103 40203 52025 71022 87500 333 83707
AAXX 31061 23867 11997 82404 11083 21102 30126 40200 52023 69960 77172 86071 333 21090
AAXX 31061 23933 12697 82102 11093 21104 30141 40199 52025 69900 8553/ 333 21135
AAXX 31061 28064 32599 82001 11068 21080 30124 40219 52018 885// 333 21087
AAXX 31061 28275 32598 82202 11066 21082 30189 40250 52027 885// 333 21087
AAXX 31061 28493 12998 81902 11096 21108 30175 40272 52020 69950 80009 333 21115
AAXX 31061 28698 12998 12101 11094 21106 30141 40303 52020 69920 81030 333 21123
BBXX ZCDM8 31063 99071 30073 41698 41710 10247 20203 40131 52011 70111 83468 22243 00251 20202 317// 40505 5//// 80218
BBXX WC5932 31064 99445 70873 41/98 23517 00/// 10013 21150 40100 50009 70012 8//// 22253 0//// 2//02 3//// 4//// 5//// 6//// 81032 ICE /////
BBXX WDA2768 31064 99417 70874 43/// /1717 00/// 10038 20022 40083 52026 7//// 8//// 22200 0//// 2//// 3//// 4//// 5//// 6//// 80031 ICE /////
BBXX C6FN2 31064 99260 70778 41/// /2208 10210 20180 40220 54000 7//// 8//// 22224 00270 20403 32222 40403 50403 6//// 80190 ICE /////
AAXX 31064 63708 32570 71208 10224 20117 48528 8213/ 333 20188 58007 82822 87358
AAXX 31064 63820 32580 53609 10280 20230 40143 85200 333 20240 58002 85821
AAXX 31064 63612 NIL
AAXX 31064 63661 NIL
AAXX 31064 63671 NIL
AAXX 31064 63688 NIL
AAXX 31064 63695 NIL
AAXX 31064 63714 NIL
AAXX 31064 63723 NIL
AAXX 31064 63740 NIL
AAXX 31064 63772 NIL
AAXX 31064 63793 NIL
AAXX 31063 63661 32480 70000 10160 20123 48561 8153/ 333 20132 58009 81618 87359
AAXX 31063 63671 32480 10905 10267 20181 81100 333 20200 81818
AAXX 31063 63695 32980 30000 10198 20116 83030 333 20116 83359
AAXX 31063 63723 32982 10610 10280 20197 40138 81030 333 20240 59005 81359
AAXX 31063 63772 32580 50515 10285 20235 85100 333 20225 85823
AAXX 31063 63793 32580 40208 10254 20206 40127 84100 333 20210 59002 84821
AAXX 31060 63688 32570 70906 10155 20072 48/// 8397/ 333 20102 58009 81920 83520 87758
BBXX 46246 31061 99500 71451 46/// ///// 1//// 90629 22200 00068 11105 20904 326// 41102 70025
BBXX 46243 31061 99462 71241 46/// ///// 1//// 90629 22200 00069 11307 21005 326// 41305 70037
BBXX 46236 31061 99368 71219 46/// ///// 1//// 90620 22200 00122 11505 21002 328// 41504 70024
BBXX 46229 31061 99438 71246 46/// ///// 1//// 90621 22200 00098 11309 21005 329// 41306 70043
BBXX 46225 31061 99329 71174 46/// ///// 1//// 90614 22200 00149 11802 20901 327// 41801 70010
BBXX 46213 31061 99403 71247 46/// ///// 1//// 90624 22200 00109 11508 21005 328// 41506 70038
BBXX 46215 31061 99352 71209 46/// ///// 1//// 90608 22200 00124 11704 20902 324// 41704 70021
BBXX 44099 31061 99369 70757 46/// ///// 1//// 90622 22200 00101 10402 20402 70008
BBXX 51205 31061 99210 71564 46/// ///// 1//// 90618 22200 00237 11104 20904 335// 41102 70022
BBXX 46238 31061 99334 71195 46/// ///// 1//// 90620 22200 00138 11705 20803 329// 41704 70025
AAXX 31064 60764 13962 30702 10019 21017 30208 40262 53011 60004 83080 333 20017 83360
AAXX 31064 61091 32965 30000 10115 20047 39707 40162 80002 333 00800 20102 60641 50574 55098 58016 83080
BBXX 51204 31061 99213 71581 46/// ///// 1//// 90622 22200 00247 11202 21002 330// 41201 70011
BBXX 52200 31061 99134 11448 46/// ///// 1//// 90615 22200 00286 11104 21003 308// 41102 70019
BBXX 51202 31061 99214 71577 46/// ///// 1//// 90609 22200 00239 11003 21003 306// 41101 70016
BBXX UIFY 31061 99494 11406 42498 43610 11102 21160 40252 52011 82110 22283 01004 2//// 61033 ICE 62092
BBXX UGSN 31061 99514 11409 41697 72909 11118 40271 56012 72272 8701/ 22200 00014 2//// ICE 51092
BBXX 62141 31063 99493 50591 41/97 /2229 10123 20115 40054 52018 700// 8//// 22200 20502 329// 40702 5//// 80119
BBXX ZDLP 31063 99528 50401 41297 82927 10062 20060 49893 55020 75152 886// 22222 04041 20204 330// 40606 5//// 80061
BBXX C6VG7 31064 99022 70860 41697 41120 10270 2//// 40180 54/// 7//// 843// 22214 00270 20402 3//// 4//// 5//// 6//// 8//// ICE /////
BBXX 46036 31061 99484 71339 46/// /1602 10051 40212 52005 22200 00078 11007 70034 333 91204
BBXX 44140 31061 99429 70515 46/// /2908 10128 40270 52018 22200 00086 11208 70040 333 91210
BBXX A8QM9 31064 99397 70734 41698 61818 10120 20083 40130 54000 70211 86572 22243 21001 318// 41001 80100
BBXX 44258 31061 99445 70634 46/// /0903 10014 40256 54000 22200 00052 10903 70015 333 91204
BBXX KS088 31064 99267 70801 43/// /0703 10177 40201 22200 06218
BBXX KS094 31064 99172 70626 43/// /0803 10257 40179 22200 06261
BBXX KS007 31064 99267 70801 43/// ///// 10178 40162 22200
BBXX 41010 31061 99289 70785 46/// /1506 10211 40195 90620 22200 00236 10801 20301 300// 40801 70007 333 91207 555 11060 22062
BBXX 42361 31061 99276 70925 46/// ///04 10222 20194 40183 50000 90630 555 11035 22037
BBXX 41009 31061 99285 70802 46/// /1805 10221 20167 40198 90620 22200 00227 11301 20401 300// 41301 70006 333 91206 555 11053 22055
BBXX 41115 31061 99184 70673 46/// ///// 1//// 90605 22200 11302 21001 300// 41301 70010
BBXX 42013 31061 99272 70829 46/// ///// 1//// 40202 90540 22200 00203
BBXX 46146 31061 99493 71237 46/// /2905 10063 40193 52046 22200 00071 10401 70003 333 91207
BBXX 46246 31061 99500 71451 46/// ///// 1//// 90559 22200 00068 10906 20905 326// 41303 70030
BBXX 46247 31061 99378 71228 46/// ///// 1//// 90621 22200 00115 11705 21003 328// 41704 70026
BBXX 46249 31061 99338 71197 46/// ///// 1//// 90610 22200 00147 11803 20802 326// 41803 70016
BBXX 46244 31061 99409 71244 46/// ///// 1//// 90605 22200 00103 11407 21004 328// 41406 70037
BBXX 46232 31061 99325 71174 46/// ///// 1//// 90608 22200 00146 11203 20803 328// 41202 70016
BBXX 46004 31061 99509 71361 46/// /2002 10029 40189 52007 22200 00072 11007 70033 333 91203
BBXX 46184 31061 99539 71389 46/// /2507 10021 40140 52018 22200 00059 11007 70037 333 91210
BBXX C6KD9 31060 99266 70579 41497 21207 10232 20209 40255 58020 70100 82485 22214 02239 20903 312// 40804 5//// 80217
BBXX 44059 31061 99368 70763 46/// /2005 1//// 90620 333 91206
BBXX 44057 31061 99395 70761 46/// /3601 10062 40111 56025 90600 22200 00043 333 91201
BBXX 44058 31061 99376 70763 46/// /2106 1//// 40131 90610 333 91207
BBXX 44058 31061 99376 70763 46/// /2106 10112 40133 58015 90600 22200 00086 10301 70004 333 91207
BBXX 44057 31061 99395 70761 46/// /3601 1//// 90620 333 91201
BBXX 44059 31061 99368 70763 46/// /1904 1//// 40134 90610 333 91206
BBXX 44057 31061 99395 70761 46/// /3601 1//// 40110 90610 333 91201
BBXX 44059 31061 99368 70763 46/// /1904 10114 40135 58018 90600 22200 00103 333 91207
BBXX 44058 31061 99376 70763 46/// /2106 1//// 90620 333 91208
BBXX 44043 31061 99392 70764 46/// /2006 10091 40104 58024 90600 22200 00057 10301 70005 333 91207
BBXX 44043 31061 99392 70764 46/// /2105 1//// 40102 90610 333 91206
BBXX 42364 31061 99291 70881 46/// /2703 10200 20167 40197 90630
BBXX 44042 31061 99380 70763 46/// /2107 10116 40126 58017 90600 22200 00083 10301 70005 333 91208
BBXX 44043 31061 99392 70764 46/// /2005 1//// 90620 333 91206
BBXX 44042 31061 99380 70763 46/// /2106 1//// 40124 90610 333 91207
BBXX 44062 31061 99386 70764 46/// /1906 10099 40100 90610 22200 00080 333 91207
BBXX 41036 31061 99342 70770 46/// ///// 10192 20145 40164 90620 22200 00174
BBXX 44063 31061 99390 70764 46/// /2206 1//// 40127 90610 333 91206
BBXX 44063 31061 99390 70764 46/// /2206 10090 40129 56021 90600 22200 00070 10301 70004 333 91207
BBXX 44063 31061 99390 70764 46/// /2206 1//// 90620 333 91208
BBXX 44042 31061 99380 70763 46/// /2106 1//// 90620 333 91208
BBXX 44041 31061 99372 70768 46/// /2105 1//// 90620 333 91206
BBXX 44041 31061 99372 70768 46/// /2205 1//// 40155 90610 333 91208
BBXX TBWUK30 31064 99013 10051 41698 71908 10261 20260 40118 54000 70282 8/470 22242 00281 20201 316// 40101 5//// 80260
BBXX PFFH 31063 99042 70101 41/// /3610 10272 40112 76096 8//// 22233 00284 2////
BBXX MLRM6 31063 99389 30086 41798 83018 10127 20061 40186 50000 70222 8807/ 22262 00147 20202 324// 40507 5////
BBXX A8MV6 31063 99200 10684 41997 00525 10240 20117 40170 50010 70200 80000 22233 04270 20504 304// 40603 5//// 80170
BBXX VQIB9 31064 99344 30263 41298 82803 10215 20157 40150 53012 78081 887// 22264 29901 327// 40302 5//// 80180
BBXX LAVN4 31064 99122 70225 41/97 80625 10230 2017/ 40146 57002 70203 88/// 22213 00230 21004 303// 40903 5//// 6//// 80190 NNNN
BBXX C6WK7 31064 99288 70136 417// 30315 10160 2//// 40320 54/// 7//11 8119/ 22213 00210 2//// 314// 40502 5//// 6//// 8//// ICE /////
BBXX ZCDM8 31063 99071 30073 41698 41710 10247 20203 40131 52011 70111 83468 22243 00251 20202 317// 40505 5//// 80218
BBXX FHZI 31064 99630 31449 46/// /1917 10002 21017 39838 49849 52018 22283 04001 86006
BBXX VROB 31064 99270 31533 46/// /1419 10232 20138 30122 40147 57016 22284 04246 85173
BBXX VNAH 31064 99383 31416 46/// /1412 10214 20132 30127 40150 57009 22200 04199 85163
BBXX A8KO3 31063 99287 31135 41898 32220 10220 20190 40100 54000 70311 821// 22284 00170 20503 323// 40504 80200
BBXX VNSZ 31064 99412 31464 46/// /3608 10208 20143 30140 40166 57019 22200 04193 85167
BBXX C6FS9 31064 99393 31464 46/// /0908 10184 20172 30118 40155 57015 22223 04186 85176
BBXX 44041 31061 99372 70768 46/// /2205 10121 40156 58017 90600 22200 00084 1//00 70002 333 91207
BBXX 44062 31061 99386 70764 46/// /1906 1//// 90620 22200 00080 333 91208
BBXX PENR 31064 99116 70618 41497 33130 10270 20241 40130 58024 70200 82145 22244 20502 310// 41004 80250
BBXX 46181 31061 99538 71288 46/// /2211 10016 40165 52054 22200 00042 10201 70003 333 91214
BBXX 46132 31061 99497 71279 46/// /3008 10055 40210 5//// 22200 00084 11109 70044 333 91212
BBXX 46205 31061 99542 71343 46/// /2810 10027 40157 52025 22200 00071 11108 70041 333 91213
BBXX 46206 31061 99488 71260 46/// /3010 10064 40213 52043 22200 00080 11210 70050 333 91213
BBXX 41053 31061 99185 70661 46/// /1205 10258 40175 90540 333 91208
BBXX 41053 31061 99185 70661 46/// /1205 10258 40173 90550 333 91207
BBXX CFO383 31064 99439 70602 47998 /9903 10037 2101/ 40270 5//// 700// 8//// 22200 00065 10804 2//// 3//// 70022 80017 91007
BBXX C6FN2 31064 99260 70778 41/// /2208 10210 20180 40220 54000 7//// 8//// 22224 00270 20403 32222 40403 50403 6//// 80190 ICE /////
BBXX 41053 31061 99185 70661 46/// /1106 10261 40171 58014 90600 22200 00271 10704 70018 333 91209
BBXX 46087 31061 99485 71247 46/// /3210 10059 20029 40211 90620 22200 00083 333 91213 555 11111 22117 30608 43114 60619 323105 301108 289105 289107 293097 293097
BBXX 46114 31061 99364 71222 46/// ///// 1//// 90604 22200 00122 11406 21003 328// 41405 70031
BBXX 44030 31061 99432 70704 46/// /0108 1//// 40179 58015 90604 22200 00081 10402 70008 333 91209 555 11094 22100
BBXX 44033 31061 99441 70690 46/30 /0106 10030 40194 58016 90604 22200 00066 10301 70006 333 91207 555 11069 22072
BBXX 42085 31061 99179 70665 46/// /1012 10257 40169 90610 333 91215
BBXX 44029 31061 99425 70706 46/30 /0302 10075 40166 58017 90604 22200 00080 10401 70007 333 91202 555 11019 22020
BBXX 46185 31061 99524 71298 46/// /3008 10035 40186 52044 22200 00069 10705 70023 333 91212
BBXX HZRX 31063 99241 70889 41497 41015 /// 10240 20235 40192 55004 70311 84110 22223 10150 20101 31010 40200 5//// 6//// 80230 ///// /////
BBXX WDA2768 31064 99417 70874 43/// /1717 00/// 10038 20022 40083 52026 7//// 8//// 22200 0//// 2//// 3//// 4//// 5//// 6//// 80031 ICE /////
BBXX WC5932 31064 99445 70873 41/98 23517 00/// 10013 21150 40100 50009 70012 8//// 22253 0//// 2//02 3//// 4//// 5//// 6//// 81032 ICE /////
BBXX 61002 31064 99421 10047 46/// ///25 10139 2//// 40222 57002 22200 00133 10707 70033 555 1/033
BBXX 62087 31061 99547 10068 46/// /9901 10054 20029 4//// 5//// 22270 00080
BBXX 3EPD8 31064 99310 70144 41598 30719 10160 20103 40319 54000 7//11 8/5// 22284 04194 29904 399// 4//05 80130
BBXX A8OZ4 31064 99340 10285 43698 32113 10160 20110 40120 53010 7//// 8378/ 22234 00172 20401 322// 40401 5//// 80130
BBXX A8OZ4 31064 99340 10285 43698 32113 10160 20110 40120 53010 7//// 8378/ 22234 00172 20401 322// 40 401 5//// 80130
AAXX 31064 63862 12580 70000 10219 20199 38923 48534 60224 83970 333 0//63 20194 50671 55069 55300 59003 70217 83820 81922 86358
AAXX 31064 63932 01580 80000 10170 20170 38330 48529 60954 76022 8392/ 333 20120 50451 55051 55300 58003 60507 83820 81922 88458
AAXX 31064 63962 32580 40807 10231 20199 38961 48522 84900 333 20196 50701 55107 55310 58008 84821 81923
AAXX 31061 01380 11989 03501 11171 21200 60002 70200 333 21171 49038 70000 91106
AAXX 31064 94996 41475 51708 10218 20180 39947 40082 55000 71522 83802 90630
AAXX 31064 94996 41475 51708 10218 20180 39947 40082 55000 71522 83802 90630
AAXX 31064 91723 NIL
AAXX 31064 91964 36/// /0613 10218 20189 40203 52015
AAXX 31064 60764 13962 30702 10019 21017 30208 40262 53011 60004 83080 333 20017 83360
AAXX 31064 40179 11550 61910 10131 20094 30140 40178 52011 60002 71000 86100 333 20096 70000
AAXX 31064 40179 11550 61910 10131 20094 30140 40178 52011 60002 71022 86100 333 20096 70000
AAXX 31064 60195 32960 00000 11009 21083 38611 48619 5//// 333 21014 34140 95500
BBXX A8UL6 31063 99314 11378 41398 33404 10130 20113 40190 52011 7//00 8/2// 22264 04230 2//02 334// 4//03 5//// 80120
BBXX DHYW 31061 99417 11427 41998 02815 10070 21030 40170 57030 7//77 80000 22224 00090 20507 33600 40904 5//// 80030
BBXX H9UY 31064 99324 11446 41698 73531 00/// 10130 40190 51010 70322 86516 9//// 22263 04200 20408 318// 40308 5//// 6//// 80100
BBXX OYCY2 31064 99346 11290 41897 82814 10070 20050 40270 54000 70222 8661/ 22253 00200 20401 306// 40902 5//// 6//// 80060 ICE /////
BBXX SHIP 31064 99351 11313 41698 71918 10095 20031 40239 57089 70222 865// 22263 00165 20000 302// 40505 80065
BBXX UGSN 31061 99514 11409 41697 72909 11118 40271 56012 72272 8701/ 22200 00014 2//// ICE 51092
BBXX UIFY 31061 99494 11406 42498 43610 11102 21160 40252 52011 82110 22283 01004 2//// 61033 ICE 62092
BBXX 44137 31061 99423 70620 46/// /1404 10083 40268 57002 22200 00091 10904 70019 333 91205
AAXX 31061 23418 11334 81603 11033 21040 30016 40091 52018 60010 77372 8872/ 333 21103 86708 93403
AAXX 31064 63705 32558 73106 10215 20187 48533 82953 333 58008 82822 81924 87364555 10195
AAXX 31061 31152 NIL
AAXX 31061 31163 NIL
AAXX 31061 31285 42999 02001 11254 21293 30235 40322 57024
AAXX 31061 31561 41998 32301 11189 21222 30267 40297 56008 70272 80005
AAXX 31061 31683 42999 00000 11126 21188 30191 40270 56003
AAXX 31061 32010 41496 83204 11147 21160 30210 40262 56002 78582 889// 333 88912 91006 91107
AAXX 31064 60723 11560 72910 10130 20031 3//// 40221 51006 60044 7606/ 8428/ 333 20116 70044 84823 84360
AAXX 31064 71592 16/// /0101 11321 21360 30057 40071 53001 60001 333 11270 21341 70000
AAXX 31064 71963 16/// /0510 11275 21301 39661 40082 51006 60001 333 11253 21324 70000
AAXX 31064 71490 16/// /0412 11290 21316 39785 40125 53012 60001 333 11281 21310 70000 555 30223 40101
AAXX 31064 71923 16/// ///11 11170 21184 39580 40031 53009 60001 333 11148 21171 7//// 555 10010
AAXX 31061 40650 11557 81102 10086 20050 40237 53004 60022 76186 86186
AAXX 31061 40608 11556 71502 10092 21027 40237 50006 60002 70522 87500
AAXX 31061 40621 11556 83502 10085 20024 40174 52022 60012 76062 886//
AAXX 31061 40629 11558 80802 10078 20055 40221 54000 60012 76062 86530
AAXX 31061 40642 11558 80000 10102 20027 40217 53023 69942 76062 8452/
AAXX 31061 40665 12960 80000 10116 20010 40258 51006 60002 82037
AAXX 31061 40670 11560 71204 10100 20045 40227 57003 69912 72166 87800
AAXX 31061 40680 12560 53001 10134 20062 40232 53007 60002 83230
AAXX 31061 40674 12560 81605 10118 21006 40237 50000 60002 888//
AAXX 31061 40691 12960 43302 10152 20023 40270 52012 60002 82031
BBXX 44138 31061 99443 70536 46/// /2810 10042 40269 52025 22200 00092 11210 70051 333 91212
BBXX 44138 31061 99443 70536 46/// /2810 10042 40269 52025 22200 00092 11210 70051 333 91212
AAXX 31064 40362 42960 61316 10120 21050 39666 40184 86070 333 20095 59051 86360
AAXX 31064 60252 32960 01005 10052 20027 40310 56001 333 20040 95800
BBXX 46004 31061 99509 71361 46/// /2002 10029 40189 52007 22200 00072 11007 70033 333 91203
BBXX 46036 31061 99484 71339 46/// /1602 10051 40212 52005 22200 00078 11007 70034 333 91204
BBXX 46181 31061 99538 71288 46/// /2211 10016 40165 52054 22200 00042 10201 70003 333 91214
BBXX 46183 31061 99536 71311 46/// /0604 10023 40177 52044 22200 00074 10402 70012 333 91208
BBXX 46185 31061 99524 71298 46/// /3008 10035 40186 52044 22200 00069 10705 70023 333 91212
BBXX 46204 31061 99514 71288 46/// /2509 10051 40191 52042 22200 00078 11207 70036 333 91212
BBXX 46205 31061 99542 71343 46/// /2810 10027 40157 52025 22200 00071 11108 70041 333 91213
BBXX 46206 31061 99488 71260 46/// /3010 10064 40213 52043 22200 00080 11210 70050 333 91213
BBXX A8UE5 31064 99523 71401 41398 31913 10030 21067 40150 52020 75055 82795 22224 04050 20402 326// 41006 5//// 80000
BBXX WAZV 31064 99521 71353 41598 32705 10020 21040 40200 52010 70200 838// 22233 00070 20703 330// 41107 5//// 6//// 81005 ICE /////
AAXX 31064 62458 12960 53503 10142 20059 40168 52007 69914 83014 333 20138
AAXX 31064 62420 32960 40000 10074 20031 40207 52010 80002 333 20057
AAXX 31064 62432 32960 23202 10122 20046 40198 52008 80002 333 20088
AAXX 31064 62435 32960 23602 10130 20052 40198 52016 82040 333 20112
AAXX 31064 62455 32960 50000 10103 20071 40172 52009 85010 333 20088
AAXX 31064 62476 32960 43609 10230 20207 40140 52011 84010 333 20210
AAXX 31064 62309 32960 02304 10090 20026 40165 52006 333 20080
AAXX 31064 62325 32960 02108 10108 20082 40178 52007 333 20100
AAXX 31064 62332 31540 22208 10117 20090 40182 52012 71000 82100 333 20108
AAXX 31064 62387 31910 60000 10079 20077 40202 52006 71020 86040 333 20061
AAXX 31064 62459 32960 50210 10146 20057 40167 52009 85020 333 20124
AAXX 31064 62452 11556 31904 10048 20040 40219 52007 60074 71020 83500 333 20036
AAXX 31064 62357 32960 31904 10090 20047 40179 52005 80004 333 20080
AAXX 31064 62423 32960 61903 10062 20027 40217 52014 86020 333 20048
AAXX 31064 62403 32960 42601 10118 20055 40180 52006 84040 333 20106
AAXX 31064 62357 32960 31904 10090 20047 40179 52005 80004 333 20080
AAXX 31064 62423 32960 61903 10062 20027 40217 52014 86020 333 20048
AAXX 31064 62403 32960 42601 10118 20055 40180 52006 84040 333 20106
AAXX 31064 62458 12960 53503 10142 20059 40168 52007 69914 83014 333 20138
AAXX 31064 62420 32960 40000 10074 20031 40207 52010 80002 333 20057
AAXX 31064 62432 32960 23202 10122 20046 40198 52008 80002 333 20088
AAXX 31064 62435 32960 23602 10130 20052 40198 52016 82040 333 20112
AAXX 31064 62455 32960 50000 10103 20071 40172 52009 85010 333 20088
AAXX 31064 62476 32960 43609 10230 20207 40140 52011 84010 333 20210
AAXX 31064 63729 32480 70000 10217 20176 38894 48/// 8397/ 333 20192 50501 55015 55300 58008 83618 81920 87359
AAXX 31064 63733 32480 70000 10224 20188 38883 48522 8193/ 333 20201 50291 55051 55300 58006 81918 87358
AAXX 31064 63756 63756 12580 10226 20186 38894 48531 60224 8293/ 333 55308 58008 82821 81922 87359
AAXX 31064 63791 12580 31205 10253 20136 39151 48536 69904 82230 333 20170 50201 55019 55310 59044 82824 91017
AAXX 31064 63801 11480 70000 10230 20208 39231 48553 60024 71792 8197/ 333 0//19 20214 50221 55047 55300 58004 81819 81920 87358
AAXX 31064 63832 12480 70000 10200 20184 38825 48524 81978 333 20184 50461 55010 55300 59017 81817 81918 87353
AAXX 31064 63866 12580 20000 10252 20220 39535 48/// 60074 82500 333 20212 50351 55063 55310 58006 82620
AAXX 31064 63870 32575 50212 10292 20244 30113 40131 85200 333 20255 50651 55109 55309 59003 85820
AAXX 31064 63881 01480 80000 10162 20151 38221 48/// 60034 76022 8592/ 333 0//22 20140 50271 55059 55300 58004 69907 85616 81919 88456
AAXX 31064 63887 12480 80000 10191 20176 38612 48534 60144 8277/ 333 0//99 20178 50321 55043 55300 58005 82705 85617 87357
AAXX 31064 63971 12580 70315 10281 20258 39990 40118 69904 879// 333 0//19 20242 50951 55078 55307 59003 87820 81921
AAXX 31064 63862 NIL
AAXX 31064 63894 NIL
AAXX 31064 63932 NIL
AAXX 31064 63962 NIL
AAXX 31064 63894 32580 43516 10288 20239 30077 40137 84200 333 20262 50701 55102 55310 58004 84822
AAXX 31064 62309 32960 02304 10090 20026 40165 52006 333 20080
AAXX 31064 62325 32960 02108 10108 20082 40178 52007 333 20100
AAXX 31064 62332 31540 22208 10117 20090 40182 52012 71000 82100 333 20108
AAXX 31064 62387 31910 60000 10079 20077 40202 52006 71020 86040 333 20061
AAXX 31064 62459 32960 50210 10146 20057 40167 52009 85020 333 20124
AAXX 31064 62452 11556 31904 10048 20040 40219 52007 60074 71020 83500 333 20036
AAXX 31064 61017 31956 50434 10142 21040 39761 40174 7072/ 80002 333 00700 20142 50754 55095 58021 85080
AAXX 31064 61024 32960 51014 10168 21015 39587 40156 80002 333 01400 20165 51191 5//// 58012 85080
AAXX 31064 61036 32965 70000 10154 21018 39907 40149 80008 333 01300 20151 50801 50654 55101 59003 87280
AAXX 31064 61043 32960 70608 10177 21053 39695 40137 80008 333 0//00 20170 50931 5///4 55105 59003 87280
AAXX 31064 61045 32965 70404 10150 21052 30654 40156 80008 333 01200 20150 5//// 50604 55098 58019 87280
AAXX 31064 61049 32960 70804 10160 21028 39820 40142 82038 333 01500 20160 50951 50834 55096 58015 82364 87280
AAXX 31064 61052 32960 20404 10154 21010 39891 40150 80002 333 01200 20145 51181 55106 58008 82080
AAXX 31064 61075 32960 30000 10180 21012 39826 40137 80002 333 01500 20170 50731 50504 55108 58001 83080
AAXX 31064 61080 32960 70806 10165 21006 39724 40147 80008 333 01400 20162 51081 50774 55104 58003 87280
AAXX 31064 61090 32960 70406 10180 21050 39636 40147 80008 333 01600 20180 51081 50994 55107 58015 87280
AAXX 31064 61091 NIL
AAXX 31064 61096 32965 70404 10165 21027 39771 40155 80008 333 01500 20161 51031 50794 55106 58017 87280
AAXX 31064 61099 32965 73608 10184 21010 39899 40129 80008 333 01700 20177 51041 51201 58002 87280
AAXX 31064
AAXX 31064 61017 31956 50434 10142 21040 39761 40174 7072/ 80002 333 00700 20142 50754 55095 58021 85080
AAXX 31064 61024 32960 51014 10168 21015 39587 40156 80002 333 01400 20165 51191 5//// 58012 85080
AAXX 31064 61036 32965 70000 10154 21018 39907 40149 80008 333 01300 20151 50801 50654 55101 59003 87280
AAXX 31064 61043 32960 70608 10177 21053 39695 40137 80008 333 0//00 20170 50931 5///4 55105 59003 87280
AAXX 31064 61045 32965 70404 10150 21052 30654 40156 80008 333 01200 20150 5//// 50604 55098 58019 87280
AAXX 31064 61049 32960 70804 10160 21028 39820 40142 82038 333 01500 20160 50951 50834 55096 58015 82364 87280
AAXX 31064 61052 32960 20404 10154 21010 39891 40150 80002 333 01200 20145 51181 55106 58008 82080
AAXX 31064 61075 32960 30000 10180 21012 39826 40137 80002 333 01500 20170 50731 50504 55108 58001 83080
AAXX 31064 61080 32960 70806 10165 21006 39724 40147 80008 333 01400 20162 51081 50774 55104 58003 87280
AAXX 31064 61090 32960 70406 10180 21050 39636 40147 80008 333 01600 20180 51081 50994 55107 58015 87280
AAXX 31064 61091 NIL
AAXX 31064 61096 32965 70404 10165 21027 39771 40155 80008 333 01500 20161 51031 50794 55106 58017 87280
AAXX 31064 61099 32965 73608 10184 21010 39899 40129 80008 333 01700 20177 51041 51201 58002 87280
AAXX 31064 68916 32370 20711 10185 20132 39895 40162 52002 82500 333 20170 91021 555 10223 91016
AAXX 31064 64700 32960 60208 10180 21001 39795 40135 80002 333 01300 20165 51221 55107 58012 86075
AAXX 31064 64701 NIL
AAXX 31064 64702 NIL
AAXX 31064 64705 33960 30000 10150 20066 3//// 4//// 80002 90558 333 0//00 2//// 50694 55/// ///// 5//// 83075
AAXX 31064 64706 32960 50000 10192 20072 39652 40123 80002 333 01400 20172 51854 55105 58002 85075
AAXX 31064 64708 NIL
AAXX 31064 64709 33960 20404 10205 20024 3//// 4//// 80002 90615 333 0//00 20179 55/// 5//// 82075
AAXX 31064 64710 NIL
AAXX 31064 64713 NIL
AAXX 31064 64722 33960 10190 20120 3//// 4//// 80002 90600 333 0//00 20140 50674 55/// 5//// 81075
AAXX 31064 64750 32960 53206 10186 20068 39702 40114 80002 90557 333 01100 20160 50821 55095 59003 85075
AAXX 31064 64751 31956 40406 10182 21004 3//// 4//// 706// 82032 90550 333 0//00 20176 50853 55/// 5//// 82365 83075
AAXX 31064 64753 32960 10175 21008 3//// 4//// 80002 90550 333 0//00 20160 51304 55/// 5//// 82075
AAXX 31064 64754 33960 33204 10195 20034 3//// 4//// 80002 90610 333 0//00 20150 50584 55/// 5//// 83075
AAXX 31064 64756 42962 31006 10219 20021 39510 4//// 80002 90600 333 0//00 20174 5//// 55/// 58010 83075
AAXX 31064 64757 NIL
AAXX 31064 64758 NIL
AAXX 31064 64761 NIL
AAXX 31060 44203 32998 80000 11259 21277 38450 40479 57010 8802/
AAXX 31060 44207 32999 82006 11139 21191 38314 40312 58015 8801/
AAXX 31060 44212 32997 41801 11262 21294 39274 40541 52009 80007
AAXX 31060 44213 41999 30000 11243 21272 38882 40519 57004 70172 82082
AAXX 31060 44215 32698 52704 11097 21190 38460 40358 57007 82544 555 96612
AAXX 31060 44218 32998 23602 11194 21235 38673 40444 52002 82040
AAXX 31060 44225 41996 80000 11246 21270 38301 40478 57008 77172 8802/
AAXX 31060 44230 32998 80000 11184 21223 38828 40420 57017 8802/
AAXX 31060 44232 32999 72801 11244 21271 39167 40422 57020 87010
AAXX 31060 44237 32999 62302 11110 21163 38501 40309 57013 83031
AAXX 31060 44239 32999 71701 11158 21200 38829 40360 58019 86033
AAXX 31060 44241 32999 21802 11214 21239 39332 40398 58021 80009
AAXX 31060 44256 41999 02703 11186 21205 39443 40370 50000 70271
AAXX 31060 44265 32999 70000 11120 21155 38972 40454 51010 87070
AAXX 31060 44272 41993 80000 11125 21177 38258 40345 52002 77172 8802/
AAXX 31060 44275 32898 70000 11140 21167 37749 40362 58008 86058
AAXX 31060 44282 32999 72901 11038 21197 38303 40257 57024 87010
AAXX 31060 44284 32899 40000 11194 21216 37885 40493 52016 84071
AAXX 31060 44285 32899 61402 11131 21185 38337 40353 58029 83041
AAXX 31060 44287 32999 20606 11083 21205 38149 40353 58020 80008
AAXX 31060 44294 32998 03301 11144 21182 38611 40400 58006
AAXX 31060 44298 32999 03606 11184 21190 38767 40390 54000
AAXX 31060 44302 32999 12503 11185 21240 39191 40393 58007 80002
AAXX 31060 44305 32999 03202 11168 21198 39116 40358 51002
AAXX 31060 44313 41999 70000 11191 21224 39467 40381 58006 70272 85071
AAXX 31060 44314 41995 83606 11151 21178 39198 40361 57004 77372 8802/
AAXX 31060 44317 41997 83205 11136 21163 38980 40348 57008 77071 8802/
AAXX 31060 44336 32999 31002 11154 21200 38738 40407 57020 80004
AAXX 31060 44341 32999 20000 11130 21186 38651 40387 56007 80004
AAXX 31060 44347 32999 22702 11067 21164 38766 40336 57017 80009
AAXX 31060 44352 32999 00000 11168 21202 38972 40368 53003
AAXX 31060 44358 32998 00000 11110 21154 39153 40357 57012
BBXX MINFR09 3106/ 99265 11435 46/// ///// 40183 52015
AAXX 31064 67002 31580 43408 10298 20244 30108 40142 60034 84800 333 20261 58007 82820 84630 92417
AAXX 31064 67009 32582 72819 10285 20242 30008 40126 50000 879// 333 02400 10325 20250 50704 55060 86820 81920 94974/6 95834/6
AAXX 31064 67012 11382 72808 10270 20243 30118 40129 50003 60024 70162 8483/ 333 0//52 10324 20244 50364 55/// 82707 83817 85360 555 82640=2.3 67025 12581 62204 10294 20237 30007 40103 52006 60174 86800 333 0//00 10328 20232 50204 55/// 82817 85633
AAXX 31064 67027 11535 80804 10280 20256 30107 40128 52010 69924 79592 8297/ 333 02121 10327 20257 50304 55110 82820 81920 94979 95839 555 83640 85460
AAXX 31064 67045 NIL
AAXX 31064 67072 32582 72804 10290 20234 30113 40116 51002 60774 81538 333 02309 10315 20240 50244 55/// 81640 85360 92428 555 83275=77.0 67073 11575 7//// 10276 20256 30092 40118 50009 69914 76062 8583/ 333 0//11 10328 20256 50//4 55/// 85820 555 81633 81360
AAXX 31064 67083 32582 50000 10244 20188 38746 48522 54001 84832 333 01400 20178 50344 55087 84820
AAXX 31064 67095 12481 62008 10295 20230 30103 40110 54001 60054 82832 333 02219 10315 20220 50224 55/// 82817 84360 555 81633 82073=5.2 67113 NIL
AAXX 31064 67117 NIL
AAXX 31064 67137 11475 70000 10228 20195 38899 48505 51010 60074 71562 86832 333 0//14 10284 20190 50244 55/// 85817 555 82620 82360 81073=6.6 67143 11465 1//// 10/// 20/// 30125 40132 51013 60034 76066 888// 333 0//10 10/// 20/// 50//4 55/// 81827 88630 92438
AAXX 31064 67152 32482 4//// 10252 20220 39194 48508 51007 84800 333 01700 10290 20210 50454 55/// 83817 555 82620
AAXX 31064 67157 11470 8//// 10/// 20/// 30147 40154 53013 60044 71562 888// 333 0//18 10/// 20/// 50//4 55/// 82817 88633=3 7 67161 NIL
AAXX 31064 67197 22582 10000 10273 20209 30120 40130 50003 69914 81230 333 01219 10280 20212 50304 55078 81820 555 81360
BBXX TBWUK17 31063 99342 30258 41498 32618 10220 20202 40182 53004 70100 82405 22263 04260 20203 326// 40405 5//// 80208
BBXX ZNQO3 31060 99503 70009 41/97 82512 10120 20101 40138 52020 70222 8//// 22264 04111 2//// 3//// 4//// 5//// 80110
BBXX A8HD5 31061 99357 11209 41296 63204 10080 20019 40280 56010 71022 82676 22200 04065 20601 30000 40000 5//// 80055
BBXX TBWUK18 31063 99317 30427 41198 21312 10220 20220 40147 51010 70100 8214/ 22222 00240 20502 303// 40502 5//// 80220
AAXX 31061 37553 32999 80801 10015 21033 39553 40214 53008 333 21026
AAXX 31060 67421 32580 70901 10254 20184 37841 48527 82238 333 20184 5//// 55070 58017 82825 84363 87275 555 10301 7//92
AAXX 31061 63330 32980 01408 10166 2//// 37830 40310 333 20110 59002
AAXX 31061 63331 32980 00104 10204 20030 38082 40270 333 20153
AAXX 31061 63332 32980 03202 10130 20040 38242 40185 333 20040 59003
AAXX 31061 63333 32980 03602 10162 21007 38203 40230 333 20068 59007
AAXX 31061 63334 NIL
AAXX 31061 63340 32980 01802 10140 20054 37979 40211 333 20102 58010
AAXX 31061 63402 31950 10000 10058 20058 38395 4//// 7100/ 81030 333 20014 58004 81360
AAXX 31061 63403 31970 21102 10180 20042 7050/ 82030 333 20097 82360
AAXX 31061 63450 32980 00101 10135 20050 37766 40182 333 20045 59002
AAXX 31061 63451 32980 00000 10148 20023 38183 40182 333 21010 58003
AAXX 31061 63453 31975 02701 10152 2//// 39106 7051/ 333 20060 58003
AAXX 31061 63460 32980 00000 10160 20043 333 20078
AAXX 31061 63471 31960 02401 10235 20047 38904 40170 70500 333 20125 59007
AAXX 31061 63474 32980 00000 10146 20034 333 20025
AAXX 31061 63478 31965 00808 10260 20148 39852 40233 7050/ 333 20190 58010
AAXX 31061 63500 31570 30000 10204 20080 7050/ 81140 333 20102 81820 82359
AAXX 31061 63533 NIL
AAXX 31061
AAXX 31061 40608 11556 71502 10092 21027 40237 50006 60002 70522 87500
AAXX 31061 40621 11556 83502 10085 20024 40174 52022 60012 76062 886//
AAXX 31061 40629 11558 80802 10078 20055 40221 54000 60012 76062 86530
AAXX 31061 40642 11558 80000 10102 20027 40217 53023 69942 76062 8452/
AAXX 31061 40650 11557 81102 10086 20050 40237 53004 60022 76186 86186
AAXX 31061 40665 12960 80000 10116 20010 40258 51006 60002 82037
AAXX 31061 40670 11560 71204 10100 20045 40227 57003 69912 72166 87800
AAXX 31061 40674 12560 81605 10118 21006 40237 50000 60002 888//
AAXX 31061 40680 12560 53001 10134 20062 40232 53007 60002 83230
AAXX 31061 40691 12960 43302 10152 20023 40270 52012 60002 82031
AAXX 31064 89614 46/// /0104 11025 29061 39024 4//// 5//// 333 90700 91109
AAXX 31064 89807 46/// /1208 11017 29091 39824 4//// 5//// 333 90700 91110
AAXX 31064 94997 46/// ///// 10041 30107 40122 5////
AAXX 31064 94210 35/// /2208 10329 30054 40059 57023
AAXX 31064 94289 46/// /1321 10276 30063 40070 56009 90615
AAXX 31064 94379 46/// /1526 10255 30096 40105 55002 90626
AAXX 31064 94290 46/// /1417 10278 30074 40083 55006 90624
AAXX 31060 44210 32999 20000 11151 21185 38591 54000 81071
AAXX 31060 44216 32999 40000 11235 21260 39094 40482 58001 82044
AAXX 31060 44217 32998 40000 11116 21188 37910 40412 53009 82044
AAXX 31060 44219 32998 73602 11217 21242 38701 40487 51009 87010
AAXX 31060 44221 NIL
AAXX 31060 44224 31998 82006 11133 21215 38091 40374 54000 73632 8802/ 333 91010 91112 44221 41996 63203 11215 21233 38661 40475 52018 71672 86070
AAXX 31060 44229 32999 72504 11169 21228 37941 40389 57012 87010
AAXX 31060 44242 32998 40000 11246 21276 39397 40417 57024 80002
AAXX 31060 44243 32999 10000 11225 21268 39496 40415 57028 80001
AAXX 31060 44254 32998 22704 11171 21209 39113 40371 58003 80002
AAXX 31060 44257 32998 20000 11200 21238 39054 40433 50001 80001
AAXX 31060 44263 32998 20000 11097 21182 38132 40419 58002 82040
AAXX 31060 44266 32598 80703 11055 21155 37797 40293 58008 8352/
AAXX 31060 44286 32998 60000 11103 21174 38679 40331 58014 80008
AAXX 31060 44291 31996 00000 11202 21249 38798 40446 58013 70400
AAXX 31060 44325 32999 60502 11158 21192 38932 40419 58017 83084
AAXX 31060 44329 32998 02505 11048 21148 37798 40297 58015
AAXX 31060 44338 32999 02707 10009 21125 38499 40242 58030 333 91112
AAXX 31060 44348 32997 22909 11103 21147 38733 40319 58004 80004
AAXX 31060 44374 32999 00203 11008 21199 38302 40307 58016
AAXX 31060 44385 32999 00000 11027 21145 38981 40320 58022
AAXX 31060 44386 32999 02706 11084 21142 39111 40332 57015
AAXX 31064 89614 46/// /0104 11025 29061 39024 4//// 5//// 333 90700 91109
AAXX 31064 89807 46/// /1208 11017 29091 39824 4//// 5//// 333 90700 91110
AAXX 31064 94997 46/// ///// 10041 30107 40122 5////
AAXX 31064 94290 46/// /1417 10278 30074 40083 55006 90624
AAXX 31064 60630 12970 03608 10067 20021 40286 55002 60004 333 05100 20046
BBXX 41033 31061 99323 70804 46/// /2405 1//// 40179 58003 90600 555 11054 22055
AAXX 31064 67017 NIL
AAXX 31064 67020 NIL
AAXX 31064 67023 12582 60406 10305 20256 30094 40100 51002 60024 82802 333 02119 10330 20220 50264 55/// 81820 86073 555 82640=2.2 67037 11570 7//// 10/// 20/// 30072 40113 5/013 60024 71700 86903 333 0//// 10/// 20/// 50//4 55/// 84820 82920 83633 94971/3/7/8 95831/3/7/8 555 81073=1.8 67067 11570 7//// 10246 20208 39354 48/// 51004 60214 7102/ 878// 333 0//00 10303 20188 50314 55/// 83823 85633
AAXX 31064 67107 NIL
AAXX 31064 67131 12582 33406 10/// 20/// 30097 40102 51001 60034 82830 333 0//19 10/// 20/// 50//4 55/// 82823 555 81640 82360=3.3
AAXX 31061 37661 42998 23601 10002 21004 39442 40220 53006 82058
AAXX 31061 37675 42999 70000 10006 21008 39528 40202 52027 87070
AAXX 31061 37729 42598 52503 11050 21054 38542 57004 85500 333 21092
AAXX 31061 37735 42699 52901 10010 21043 39784 40168 53004 85760
AAXX 31061 37740 42999 40901 10005 21015 39396 40222 52008 84030
AAXX 31061 37749 42598 83602 10031 21007 30097 40216 57042 885//
AAXX 31061 37832 32998 73601 21013 40217 52001 87/20 333 21018
AAXX 31061 37851 42598 71602 10066 20017 30139 40209 53011 82549 555 20065
AAXX 31061 37864 32997 61803 10070 20025 40199 52010 84041 333 20067 555 31//
AAXX 31061 37905 42997 62701 10009 20001 40227 57017 86030
AAXX 31061 37923 42996 72706 10055 20018 40205 58028 87070 333 20035
AAXX 31061 37925 42998 63201 10040 20017 30245 40215 53001 86050 333 20024
AAXX 31061 37985 42598 40000 10039 20024 30238 40223 53002 85540
AAXX 31061 37989 42699 60000 10062 20041 40224 53001 86500
AAXX 31061 37470 32995 61702 10060 20003 30208 40186 53021 83031 333 20022
AAXX 31061 37472 32997 52804 10040 21014 30198 40175 51021 85071 333 21006
AAXX 31061 38111 32597 81308 10030 21015 30204 40175 53002 886// 333 20004
AAXX 31061 38750 32997 01202 10047 20035 30231 40222 53011 333 20006
BBXX SHIP 31064 99087 11096 41497 70418 10275 20227 40125 57022 70222 8652/ 22252 00258 20202 300// 40504 80240
BBXX SHIP 31064 99232 11221 41798 80515 10210 20180 40199 56011 70222 87453 22213 00240 20306 303// 40306 80190
AAXX 31061 55228 32780 22201 11063 21353 36035 57008 82100 333 05201 21202
AAXX 31061 55578 32980 03402 10066 21208 36407 57022 333 00100 21125
AAXX 31061 55664 32980 02206 10088 21252 36038 57019 333 00102 21122
AAXX 31061 55773 32970 02005 10078 21232 36046 57018 333 00102 21139
AAXX 31061 56116 32980 03201 10033 21201 36375 57025 333 00101 21128
AAXX 31061 56137 32980 02501 10059 21204 36826 57040 333 00100 21108
AAXX 31061 56172 32980 02903 10083 21127 37359 57054 333 00200 21080
AAXX 31061 56247 32980 02701 10110 21105 37454 57051 333 00100 21038
AAXX 31061 56312 32980 01102 10086 21076 37115 57041 333 00100 21052
AAXX 31061 56462 32980 01605 10118 21076 37128 57050 333 00200 21058
AAXX 31061 56651 32980 00202 10142 21031 37651 57037 333 00151 21018
AAXX 31061 56691 11474 71403 10041 20003 37804 57035 69901 70060 876// 333 00202 21025 93428
AAXX 31061 56985 32565 12202 10172 20096 38741 40186 57033 81100 333 00101 20110
AAXX 31061 57633 32961 21102 10109 20003 39476 40271 57042 82040 333 05205 21001
AAXX 31061 57902 32668 81101 10076 20040 38686 40266 57034 885// 333 00203 20030
AAXX 31061 55279 32980 02210 10028 21283 35733 57014 333 00103 21158
AAXX 31061 55472 32980 02707 10030 21269 35764 57019 333 00102 21125
AAXX 31061 55696 32980 01601 10062 21171 36376 57034 333 00101 21123
AAXX 31061 56079 32980 02202 10020 21175 36697 57029 333 00201 21184
AAXX 31061 56106 32980 00401 11005 21256 36250 57030 333 00100 21172
AAXX 31061 56257 32980 02501 10070 21151 36293 57031 333 00201 21115
AAXX 31061 56374 32980 00908 10052 21080 37438 57047 333 00204 21048
AAXX 31061 56385 32980 03202 11011 21146 37033 57023 333 00205 21081
AAXX 31061 56954 32680 21601 10231 20124 40186 57036 82140 333 00103 20100
AAXX 31061 56966 32780 11103 10246 20116 40172 57045 81100 333 00251 20163
AAXX 31061 57237 32962 80000 10080 20007 40291 57032 8807/ 333 20003
AAXX 31061 57306 31956 82201 10076 20049 40293 57035 71000 8807/ 333 20029
AAXX 31061 57604 31830 73603 10124 20071 40265 57040 71000 875// 333 20071
AAXX 31061 57707 31456 60901 10079 20032 38541 57035 71000 86600 333 00106 20015
AAXX 31061 57832 32764 81401 10093 20002 39520 40275 57038 885// 333 05103 20035
AAXX 31061 31152 42999 00502 11152 30267 40279 52011
AAXX 31064 63705 32558 73106 10215 20187 48533 82953 333 58008 82822 81924
AAXX 31064 61091 32965 30000 10115 20047 39707 40162 80002 333 00800 20102 50574 55098 58016 83080
AAXX 31064
AAXX 31064 61091 32965 30000 10115 20047 39707 40162 80002 333 00800 20102 50574 55098 58016 83080
AAXX 31064 63705 32558 73106 10215 20187 48533 82953 333 58008 82822 81924
AAXX 31064 89610 46/// /0412 11037 39716 4//// 5//// 333 90700 91115
AAXX 31064 89610 46/// /0412 11037 39716 4//// 5//// 333 90700 91115
AAXX 31064 67002 31580 43408 10298 20244 30108 40142 60034 84800 333 20261 58007 82820 84630 92417
AAXX 31064 67009 32582 72819 10285 20242 30008 40126 50000 879// 333 02400 10325 20250 50704 55060 86820 81920 94974
AAXX 31064 67012 11382 72808 10270 20243 30118 40129 50003 60024 70162 8483/ 333 0//52 10324 20244 50364 55/// 82707 83817 85360 555 82640
AAXX 31064 67025 12581 62204 10294 20237 30007 40103 52006 60174 86800 333 0//00 10328 20232 50204 55/// 82817 85633
AAXX 31064 67027 11535 80804 10280 20256 30107 40128 52010 69924 79592 8297/ 333 02121 10327 20257 50304 55110 82820 81920 94979 95839 555 83640 85460
AAXX 31064 67045 NIL
AAXX 31064 67072 32582 72804 10290 20234 30113 40116 51002 60774 81538 333 02309 10315 20240 50244 55/// 81640 85360 92428 555 83275
AAXX 31064 67073 11575 7//// 10276 20256 30092 40118 50009 69914 76062 8583/ 333 0//11 10328 20256 50//4 55/// 85820 555 81633 81360
AAXX 31064 67083 32582 50000 10244 20188 38746 48522 54001 84832 333 01400 20178 50344 55087 84820
AAXX 31064 67095 12481 62008 10295 20230 30103 40110 54001 60054 82832 333 02219 10315 20220 50224 55/// 82817 84360 555 81633 82073
AAXX 31064 67113 NIL
AAXX 31064 67117 NIL
AAXX 31064 67137 11475 70000 10228 20195 38899 48505 51010 60074 71562 86832 333 0//14 10284 20190 50244 55/// 85817 555 82620 82360 81073
AAXX 31064 67143 11465 1//// 10/// 20/// 30125 40132 51013 60034 76066 888// 333 0//10 10/// 20/// 50//4 55/// 81827 88630 92438
AAXX 31064 67152 32482 4//// 10252 20220 39194 48508 51007 84800 333 01700 10290 20210 50454 55/// 83817 555 82620
AAXX 31064 67157 11470 8//// 10/// 20/// 30147 40154 53013 60044 71562 888// 333 0//18 10/// 20/// 50//4 55/// 82817 88633
AAXX 31064 67161 NIL
AAXX 31064 67197 22582 10000 10273 20209 30120 40130 50003 69914 81230 333 01219 10280 20212 50304 55078 81820 555 81360
AAXX 31064 89610 46/// /0412 11037 39716 4//// 5//// 333 90700 91115
AAXX 31064 89514 32697 31421 11016 49864 52016 8802/ 333 88435
BBXX WCX8812 31064 99501 11613 41298 40718 11010 21040 40200 57010 71671 844// 22264 00030 2//// 3//// 4//// 5//// 6//// 81020 ICE /////
AAXX 3106/ 48969 NIL
AAXX 3106/ 48962 NIL
AAXX 3106/ 48990 NIL
AAXX 3106/ 48986 NIL
AAXX 3106/ 48995 NIL
AAXX 3106/ 48967 NIL
AAXX 3106/ 48992 NIL
AAXX 3106/ 48965 NIL
AAXX 3106/ 48985 NIL
AAXX 3106/ 48970 NIL
AAXX 3106/ 48991 NIL
AAXX 3106/ 48964 NIL
AAXX 3106/ 48997 NIL
AAXX 3106/ 48968 NIL
AAXX 3106/ 48973 NIL
AAXX 3106/ 48966 NIL
AAXX 3106/ 48983 NIL
AAXX 3106/ 48972 NIL
AAXX 3106/ 48998 NIL
AAXX 3106/ 48993 NIL
AAXX 3106/ 48971 NIL
AAXX 3106/ 48963 NIL
AAXX 3106/ 48987 NIL
AAXX 31064 67017 NIL
AAXX 31064 67020 NIL
AAXX 31064 67023 12582 60406 10305 20256 30094 40100 51002 60024 82802 333 02119 10330 20220 50264 55/// 81820 86073 555 82640
AAXX 31064 67037 11570 7//// 10/// 20/// 30072 40113 5/013 60024 71700 86903 333 0//// 10/// 20/// 50//4 55/// 84820 82920 83633 94971
AAXX 31064 67067 11570 7//// 10246 20208 39354 48/// 51004 60214 7102/ 878// 333 0//00 10303 20188 50314 55/// 83823 85633
AAXX 31064 67107 NIL
AAXX 31064 67131 12582 33406 10/// 20/// 30097 40102 51001 60034 82830 333 0//19 10/// 20/// 50//4 55/// 82823 555 81640 82360
AAXX 31064
AAXX 31064 67017 NIL
AAXX 31064 67020 NIL
AAXX 31064 67023 12582 60406 10305 20256 30094 40100 51002 60024 82802 333 02119 10330 20220 50264 55/// 81820 86073 555 82640
AAXX 31064 67037 11570 7//// 10/// 20/// 30072 40113 5/013 60024 71700 86903 333 0//// 10/// 20/// 50//4 55/// 84820 82920 83633 94971
AAXX 31064 67067 11570 7//// 10246 20208 39354 48/// 51004 60214 7102/ 878// 333 0//00 10303 20188 50314 55/// 83823 85633
AAXX 31064 67107 NIL
AAXX 31064 67131 12582 33406 10/// 20/// 30097 40102 51001 60034 82830 333 0//19 10/// 20/// 50//4 55/// 82823 555 81640 82360
AAXX 31061 14121 12397 82602 11017 21021 39919 40196 52014 60002 886// 333 21017 31102 55000 70005 88707 555 20014 30022
AAXX 31064 71277 46/// /2507 11069 21076 6///1 333 11026 21092 7////
AAXX 31064 71048 16/// /2613 11033 21061 60001 333 10047 21062 70000 555 33028 40022
AAXX 31064 71981 17/// /2802 11010 21141 69941 7//4/ 333 10053 21049 70004 555 32320 40181
AAXX 31064 71982 46/// /0504 11041 21128 6///1 333 7////
AAXX 31064 71986 16/// /2611 11018 21057 60001 333 10047 21046 70000 555 32529 40002
AAXX 31064 71990 16/// /0602 11190 21211 38379 40009 53015 60001 333 11129 21230 70016 555 32519 40101
AAXX 31064 71354 16/// /2806 11092 21115 60001 333 11001 21112 70000
AAXX 31064 71406 16/// /3114 11067 21108 30200 40210 53028 60001 333 11007 21068 70045 555 32352 40073
AAXX 31064 71418 46/// /2818 11012 21042 30210 40243 53017 6///1 333 11003 21054 7//// 555 32555 40073
BBXX 41052 31061 99183 70648 46/// /1006 10256 40166 90630 333 91208
BBXX 41052 31061 99183 70648 46/// /1007 10250 40167 90620 333 91209
BBXX 41052 31061 99183 70648 46/// /1109 10251 40169 90610 333 91213
BBXX 41053 31061 99185 70661 46/// /0909 10269 40168 90630 333 91212
BBXX 41053 31061 99185 70661 46/// /0909 10269 40168 90620 333 91211
BBXX 41053 31061 99185 70661 46/// /1007 10265 40171 90610 333 91211
BBXX 42085 31061 99179 70665 46/// /0912 10252 40168 90630 333 91215
BBXX 42085 31061 99179 70665 46/// /0912 10255 40166 90620 333 91217
BBXX 42085 31061 99179 70665 46/// /0911 10242 40172 58007 90600 22200 00272 10703 70015 333 91215
AAXX 31061 31152 42999 00502 11152 30267 40279 52011
AAXX 31064 67002 31580 43408 10298 20244 30108 40142 60034 84800 333 20261 58007 82820 84630 92417
AAXX 31064 67009 32582 72819 10285 20242 30008 40126 50000 879// 333 02400 10325 20250 50704 55060 86820 81920 94974
AAXX 31064 67012 11382 72808 10270 20243 30118 40129 50003 60024 70162 8483/ 333 0//52 10324 20244 50364 55/// 82707 83817 85360 555 82640
AAXX 31064 67025 12581 62204 10294 20237 30007 40103 52006 60174 86800 333 0//00 10328 20232 50204 55/// 82817 85633
AAXX 31064 67027 11535 80804 10280 20256 30107 40128 52010 69924 79592 8297/ 333 02121 10327 20257 50304 55110 82820 81920 94979 95839 555 83640 85460
AAXX 31064 67045 NIL
AAXX 31064 67072 32582 72804 10290 20234 30113 40116 51002 60774 81538 333 02309 10315 20240 50244 55/// 81640 85360 92428 555 83275
AAXX 31064 67073 11575 7//// 10276 20256 30092 40118 50009 69914 76062 8583/ 333 0//11 10328 20256 50//4 55/// 85820 555 81633 81360
AAXX 31064 67083 32582 50000 10244 20188 38746 48522 54001 84832 333 01400 20178 50344 55087 84820
AAXX 31064 67095 12481 62008 10295 20230 30103 40110 54001 60054 82832 333 02219 10315 20220 50224 55/// 82817 84360 555 81633 82073
AAXX 31064 67113 NIL
AAXX 31064 67117 NIL
AAXX 31064 67137 11475 70000 10228 20195 38899 48505 51010 60074 71562 86832 333 0//14 10284 20190 50244 55/// 85817 555 82620 82360 81073
AAXX 31064 67143 11465 1//// 10/// 20/// 30125 40132 51013 60034 76066 888// 333 0//10 10/// 20/// 50//4 55/// 81827 88630 92438
AAXX 31064 67152 32482 4//// 10252 20220 39194 48508 51007 84800 333 01700 10290 20210 50454 55/// 83817 555 82620
AAXX 31064 67157 11470 8//// 10/// 20/// 30147 40154 53013 60044 71562 888// 333 0//18 10/// 20/// 50//4 55/// 82817 88633
AAXX 31064 67161 NIL
AAXX 31064 67197 22582 10000 10273 20209 30120 40130 50003 69914 81230 333 01219 10280 20212 50304 55078 81820 555 81360
AAXX 31064 89657 46/// /2904 11024 20006 49812 57008
AAXX 31064 60369 12560 12010 10120 20012 40291 53006 60004 81200 333 20110 81826 91837
AAXX 31064 68342 36/// /3406 10217 20163 38518 48516 52006 333 2//// 91012 555 10300 91020
BBXX VREX7 31063 99149 70721 41397 80922 10270 20241 40150 50000 76066 8/800 22213 20604 30909 40804 50803 80250
BBXX ZCDF4 31063 99122 70726 41998 41123 10250 20228 40119 53005 70200 82080 22215 00270 20503 302// 40404 5//// 80235
BBXX PCGM 31064 99264 70322 41/98 80620 10213 20165 40290 52009 70222 8//// 22283 00238 2//// 80182
BBXX TBWUK34 31063 99025 70068 41498 81406 10259 20234 40128 54000 70252 83268 22224 00300 20200 314// 40501 5//// 80242
BBXX DANV 31064 99137 10511 41/97 /1012 10270 20228 40200 54000 70322 8//// 22224 04240 20201 80240
BBXX 42360 31061 99267 70905 46/// /1605 10225 90600 22200 00245 10501 70005 333 91206
BBXX 42023 31061 99261 70831 46/// /1802 1//// 90630 333 91205
BBXX 42023 31061 99261 70831 46/// /1802 1//// 90600 333 91205
BBXX 44056 31061 99362 70757 46/// ///// 1//// 90550 22200 00118 11101 20601 70004
BBXX C6FN4 31064 99261 70788 41797 12307 10250 20222 40200 54000 7//11 81100 22274 04280 20404 32399 40202 50301 6//// 80230 ICE /////
BBXX SHIP 31064 99087 11096 41497 70418 10275 20227 40125 57022 70222 8652/ 22252 00258 20202 300// 40504 80240
BBXX A8HD5 31061 99357 11209 41296 63204 10080 20019 40280 56010 71022 82676 22200 04065 20601 30000 40000 5//// 80055
BBXX MINFR09 3106/ 99265 11435 46/// ///// 40183 52015
BBXX MQPF2 31063 99079 10756 41397 82310 10285 20235 40116 52/// 70522 89617 22264 21003 32324 41003 50802 80250
BBXX ZNQO3 31060 99503 70009 41/97 82512 10120 20101 40138 52020 70222 8//// 22264 04111 2//// 3//// 4//// 5//// 80110
BBXX 62095 31064 99530 70159 46/// ///20 1//// 2//// 40026 57020 22200 10708 70041 333 90710 91129
BBXX 62095 31064 99530 70159 46/// /2320 10119 20117 40026 57020 22200 00111 10708 70041 333 90710 91129
BBXX 62107 31064 99501 70061 46/// /2627 10117 20112 40155 57012 22200 00116 10705 70024 333 90710 91136
BBXX PHBO 31063 99451 70181 41/97 52321 10147 20138 40260 58019 75065 8//// 22214 20503 326// 41203 80142
BBXX 3FMV6 31063 99235 30569 41498 30118 10280 20237 40097 51010 70200 83444 22213 06270 20101 80250
BBXX PDHO 31064 99145 10530 41698 40213 10250 20166 40140 54000 70311 83540 22254 00247 20301 307// 40602 80195
BBXX TBWUK17 31063 99342 30258 41498 32618 10220 20202 40182 53004 70100 82405 22263 04260 20203 326// 40405 5//// 80208
BBXX TBWUK18 31063 99317 30427 41198 21312 10220 20220 40147 51010 70100 8214/ 22222 00240 20502 303// 40502 5//// 80220
BBXX C6FN4 31064 99261 70788 41797 12307 10250 20222 40200 54000 7//11 81100 22274 04280 20404 32399 40202 50301 6//// 80230 ICE /////
BBXX 42085 31061 99179 70665 46/// /0912 10255 40166 90620 333 91217
BBXX 41053 31061 99185 70661 46/// /0909 10269 40168 90630 333 91212
BBXX 42085 31061 99179 70665 46/// /0912 10252 40168 90630 333 91215
BBXX 41053 31061 99185 70661 46/// /0909 10269 40168 90620 333 91211
BBXX 41052 31061 99183 70648 46/// /1007 10250 40167 90620 333 91209
BBXX 41052 31061 99183 70648 46/// /1109 10251 40169 90610 333 91213
BBXX 41052 31061 99183 70648 46/// /1006 10256 40166 90630 333 91208
BBXX 41053 31061 99185 70661 46/// /1007 10265 40171 90610 333 91211
BBXX 42085 31061 99179 70665 46/// /0911 10242 40172 58007 90600 22200 00272 10703 70015 333 91215
BBXX 41033 31061 99323 70804 46/// /2405 1//// 40179 58003 90600 555 11054 22055
BBXX 44138 31061 99443 70536 46/// /2810 10042 40269 52025 22200 00092 11210 70051 333 91212
BBXX 9HXC9 31064 99261 70793 41798 22510 10221 20051 40188 51003 7//00 82003 22254 04262 20502 3//// 40802 5//// 6//// 80130 ICE /////
BBXX 44137 31061 99423 70620 46/// /1404 10083 40268 57002 22200 00091 10904 70019 333 91205
BBXX 46238 31061 99334 71195 46/// ///// 1//// 90620 22200 00138 11705 20803 329// 41704 70025
BBXX 46236 31061 99368 71219 46/// ///// 1//// 90620 22200 00122 11505 21002 328// 41504 70024
BBXX 44099 31061 99369 70757 46/// ///// 1//// 90622 22200 00101 10402 20402 70008
BBXX 46246 31061 99500 71451 46/// ///// 1//// 90629 22200 00068 11105 20904 326// 41102 70025
BBXX 46215 31061 99352 71209 46/// ///// 1//// 90608 22200 00124 11704 20902 324// 41704 70021
BBXX 46243 31061 99462 71241 46/// ///// 1//// 90629 22200 00069 11307 21005 326// 41305 70037
BBXX 51205 31061 99210 71564 46/// ///// 1//// 90618 22200 00237 11104 20904 335// 41102 70022
BBXX 46225 31061 99329 71174 46/// ///// 1//// 90614 22200 00149 11802 20901 327// 41801 70010
BBXX 46213 31061 99403 71247 46/// ///// 1//// 90624 22200 00109 11508 21005 328// 41506 70038
BBXX 46229 31061 99438 71246 46/// ///// 1//// 90621 22200 00098 11309 21005 329// 41306 70043
AAXX 31064 60190 32975 00604 10015 21016 40240 54000 333 20015 30101
AAXX 31064 60191 32970 01403 1005/ 21007 40341 5//// 333 21005 30107
AAXX 31061 14112 12/96 10000 11076 29095 60004 333 10039 21080 3/109 70000
AAXX 31064 60101 32458 21002 10042 20032 40328 58007 82500 333 20036 82616
AAXX 31064 60135 32558 21405 10062 20048 40327 53001 82500 333 20048 30002 82620
AAXX 31064 60155 32960 020// 10062 20048 40317 57002 333 20060 31002
AAXX 31064 60230 12957 00000 10030 21003 40334 58002 60004 333 20028
AAXX 31064 47401 12/84 41205 10000 21041 30184 40199 53003 60001 84200
AAXX 31064 68925 36/// /1102 10189 20105 39796 40157 53001 333 20140 91009 555 10237 91016
AAXX 31061 45032 36/// /0003 10212 20096 30196 40213 57001
AAXX 31061 45035 36/// /2504 10196 20104 30172 40214 54000
AAXX 31061 45039 36/// /0203 10199 20109 30196 40211 57001
AAXX 31061 45044 36/// /1304 10188 20122 30121 40215 54000
AAXX 31061 45032 36/// /0003 10212 20096 30196 40213 57001
AAXX 31061 45035 36/// /2504 10196 20104 30172 40214 54000
AAXX 31061 45039 36/// /0203 10199 20109 30196 40211 57001
AAXX 31061 45044 36/// /1304 10188 20122 30121 40215 54000
BBXX 42362 31061 99278 70907 46/// /2205 10217 20178 40200 90630
AAXX 31064 89625 46/// /3107 11190 29070 36533 4//// 5//// 90600
AAXX 31064 89646 46/// /0114 11118 29081 37620 4//// 5////
AAXX 31064 89648 46/// /2413 11150 29073 37200 4//// 5////
AAXX 31064 89659 46/// /2110 11126 29068 37667 4//// 5////
AAXX 31064 89661 46/// /2417 11025 29051 39185 4//// 5////
AAXX 31064 89662 42980 02535 10046 21105 39691 49793 52004 222 ICE 98012 333 10051
AAXX 31064 89666 46/// /0504 10001 29068 39627 4//// 5////
AAXX 31064 71399 16/// ///// 11039 21081 60001 333 10025 21100 70000
AAXX 31064 71013 16/// ///// 11048 21086 60001 333 10046 21069 7////
AAXX 31064 71060 16/// /3302 11029 21093 38466 40016 53027 60001 333 10022 21091 70000 555 32318 40231
AAXX 31064 71565 16/// /3201 11140 21151 60001 333 10007 21148 70014
AAXX 31064 71566 17/// /2602 11065 21065 69971 7//4/ 333 11011 21079 70013 555 31120 40131
AAXX 31064 71567 16/// /2709 11067 21074 60001 333 7////
AAXX 31064 71495 16/// /2807 11076 21125 60001 333 10046 21077 70000 555 32632 40192
AAXX 31064 71974 46/// /2402 11386 21423 30162 40208 50002 6///1 333 11365 21411 7////
AAXX 31064 71848 16/// ///// 11017 21062 60001 333 10072 21025 7////
AAXX 31064 71073 16/// /2309 11033 21076 60001 333 10053 21046 70000 555 32527 40231
AAXX 31064 71793 16/// ///// 11037 21084 60001 333 10039 21095 70000
BBXX 46241 31061 99330 71173 46/// ///// 1//// 90611 22200 00145 11802 21001 326// 41802 70012
BBXX 41110 31061 99341 70777 46/// ///// 1//// 90621 22200 00132 10501 20501 70007
BBXX 41113 31061 99284 70805 46/// ///// 1//// 90621 22200 00213 11301 21001 307// 41301 70005
BBXX 46216 31061 99343 71198 46/// ///// 1//// 90627 22200 00144 11803 21002 326// 41802 70013
BBXX 46223 31061 99335 71178 46/// ///// 1//// 90630 22200 00148 11802 20801 328// 41802 70010
BBXX 46231 31061 99327 71174 46/// ///// 1//// 90624 22200 00148 11803 20902 328// 41802 70015
BBXX 46222 31061 99336 71183 46/// ///// 1//// 90626 22200 00145 11803 20702 327// 41802 70013
AAXX 31064 97240 31460 63006 10304 20242 39970 40085 57021 71792 84931 333 56000 57901 81916 84816 80982
AAXX 31064 97230 11460 72706 10283 20252 30075 40082 56020 69951 71796 86972 333 56600 57961 57861 81916 84817 80958 80857
AAXX 31061 02981 12599 83109 10012 2//// 30017 40026 52009 69912 700// 88/// 333 10014 21001 3////
AAXX 31061 02924 11559 32301 11066 21069 39779 49981 52013 60014 722// 83/// 333 11024 21069 3/109 4/006
BBXX 63106 31064 99610 10017 46/// /1630 10056 49969 57029 22200
BBXX 63113 31064 99610 10017 46/// /1732 10055 20026 49971 57028 22200 10607 70033
BBXX 2AUO5 31063 99606 10016 41296 81629 10061 20050 49971 57028 76366 887// 22241 20604 316// 41007 80056
BBXX 62081 31064 99510 70134 46/// ///// 10123 20116 40112 58016 22200 00118 10708 70041
BBXX 62103 31064 99499 70029 46/98 /2724 10119 20110 40148 50000 22200 00119 10704 70018 333 90710 91133
BBXX 62095 31064 99530 70159 46/// /2320 10119 20117 40026 57020 22200 00111 10708 70041 333 90710 91129
BBXX MCZN2 31064 99556 10159 41/98 52707 10030 21174 40092 52010 70322 85/35 22253 04060 20000 30000 40000 50000 81020
BBXX ZCBF3 31063 99387 70163 41597 13404 10140 20080 40379 7//// 8/105 22234 20102 334// 40102 5//// 80110
BBXX 62169 31063 99614 10014 41/97 /2240 10050 20045 49959 57031 78186 8//// 22200 02080 20306 327// 41004 5//// 80048
AAXX 31061 02849 11525 70502 11053 21059 39687 49964 52018 60064 771// 87/// 333 11047 21054 3//// 4/035
AAXX 31061 02935 11466 12602 11052 21065 39801 49977 52013 60042 722// 81/// 333 11013 21053 3/107 4/007
AAXX 31063 87007 11562 80000 10087 20075 36741 47142 56008 60021 72196 8652/ 333 86625 86558
AAXX 31064 93987 NIL
AAXX 31064 60686 12960 20416 10061 21060 40219 53006 60004 80002 333 00500 20060 82073
BBXX VRBQ6 31064 99543 71764 41296 81520 10010 20010 40126 57020 77370 885// 22254 00045 2//// 3//// 4//// 80010
BBXX VRWE7 31064 99142 10531 41497 70420 10270 20228 40200 51010 70322 87721 22234 00260 21403 31617 41302 80240
BBXX VRBQ6 31064 99543 71764 41296 81520 10010 20010 40126 57020 77370 885// 22254 00045 2//// 3//// 4//// 80010
BBXX VRWE7 31064 99142 10531 41497 70420 10270 20228 40200 51010 70322 87721 22234 00260 21403 31617 41302 80240
AAXX 31064 63705 32558 73106 10215 20187 48533 82953 333 58008 82822 81924 87364555 10195
BBXX 46242 31061 99332 71174 46/// ///// 1//// 90628 22200 00142 11802 20801 325// 41801 70009
BBXX 46214 31061 99379 71235 46/// ///// 1//// 90620 22200 00120 11506 21004 329// 41505 70031
BBXX 46221 31061 99339 71186 46/// ///// 1//// 90615 22200 00148 11803 21002 327// 41802 70014
AAXX 31061 11130 36/// ///// 1//// 2//// 333 49038 93124
AAXX 31064 71409 16/// ///// 11012 21049 60001 333 10095 21035 70000
AAXX 31064 71789 17/// ///// 11034 21061 69941 7//4/ 333 10068 21039 70004
AAXX 31064 71791 16/// /2404 11103 21120 60001 333 11021 21136 70004 555 31224 40171
AAXX 31064 71794 16/// ///// 11070 21099 60001 333 10008 21122 70006
AAXX 31064 71795 16/// ///// 11011 21048 60001 333 10090 21026 70000
AAXX 31064 71796 16/// ///// 11047 21084 60001 333 10023 21136 70000
AAXX 31064 71797 16/// ///// 11122 21131 60001 333 11023 21139 70009
AAXX 31064 71383 16/// ///// 11353 21399 39590 40246 58004 60001 333 11215 21368 70000
AAXX 31064 71006 16/// /2604 11053 21069 60001 333 10042 21096 70000 555 33025 40021
AAXX 31064 71007 17/// ///// 11031 21054 69941 7//4/ 333 10073 21031 70015
AAXX 31064 71008 16/// /2509 11044 21076 60001 333 10062 21065 70000 555 32428 40022
AAXX 31064 71009 16/// /2203 11063 21101 60001 333 10057 21071 70000 555 32932 40212
AAXX 31064 71012 16/// /2708 11059 21090 60001 333 10007 21133 70007 555 32724 40031
AAXX 31064 71035 16/// ///// 11084 21112 60001 333 10053 21086 70000
AAXX 31064 71502 16/// /1603 11236 21254 30043 40059 52016 60001 333 11214 21236 70000 555 31021 40071
AAXX 31064 71509 16/// /2619 10010 21059 60001 333 10085 21011 7////
AAXX 31064 71517 16/// /2620 11003 21051 60001 333 10074 21027 70000 555 33144 40233
AAXX 31064 71518 16/// /2510 11013 21052 60001 333 10084 21013 70000 555 32336 40203
AAXX 31064 71519 16/// /2510 10001 21039 60001 333 10092 21014 70000 555 32736 40003
AAXX 31064 71520 16/// ///// 11372 21409 39517 40238 55003 60001 333 11193 21374 70000
AAXX 31064 71521 16/// /1003 11298 21337 60001 333 11243 21337 70000
AAXX 31064 71523 16/// ///// 11241 21267 39802 40198 56007 60001 333 11178 21328 70000
AAXX 31064 71528 16/// /2515 11019 21043 60001 333 10077 21021 70000 555 33043 40233
AAXX 31064 71841 16/// /1503 11105 21115 39700 40108 58006 60001 333 11104 21207 70000
AAXX 31064 71102 16/// ///// 11096 21107 60001 333 11023 21139 7////
AAXX 31064 71105 16/// ///// 10005 21048 60001 333 10089 21038 70000
AAXX 31064 71433 46/// /0607 11005 21020 39862 40094 53001 6///1 333 10008 21013 7////
AAXX 31064 71051 16/// ///// 11001 21052 60001 333 10103 21050 7////
AAXX 31064 71057 16/// ///// 11036 21076 60001 333 10058 21061 70000
AAXX 31064 71070 17/// ///// 10003 21050 69951 7//4/ 333 10102 21018 70005
AAXX 31064 71089 16/// ///// 11053 21089 60001 333 11002 21132 70017
AAXX 31061 35532 31992 01114 11100 21136 39844 40362 57001 73933 333 21102 91018 91118
AAXX 31064 71841 16/// /1503 11105 21115 39700 40108 58006 60001 333 11104 21207 70000
AAXX 31064 71433 46/// /0607 11005 21020 39862 40094 53001 6///1 333 10008 21013 7////
AAXX 31064 89667 46/// /3406 10014 29069 39801 4//// 5//// 90640
AAXX 3106/ 89327 46/// ///// 11040 39544 4//// 5//// 90640
AAXX 3106/ 89108 46/// ///// 11221 36922 4//// 5//// 90640
AAXX 3106/ 89879 46/// ///// 10058 39745 4//// 5//// 90640
AAXX 3106/ 89667 46/// ///// 10014 39802 4//// 5//// 90630
AAXX 3106/ 89667 46/// ///// 10017 39803 4//// 5//// 90620
AAXX 3106/ 89872 46/// ///// 10000 39758 4//// 5//// 90640
AAXX 3106/ 89869 46/// ///// 10035 39742 4//// 5//// 90640
AAXX 3106/ 89866 46/// ///// 10029 39716 4//// 5//// 90640
AAXX 3106/ 89329 46/// ///// 11104 38629 4//// 5//// 90640
AAXX 3106/ 89799 46/// ///// 11244 4//// 5//// 90640
AAXX 3106/ 89868 46/// ///// 11010 39746 4//// 5//// 90640
AAXX 3106/ 89332 46/// ///// 11038 39107 4//// 5//// 90640
AAXX 3106/ 89769 46/// ///// 10066 39796 4//// 5//// 90630
AAXX 3106/ 89769 46/// ///// 10089 39798 4//// 5//// 90640
AAXX 3106/ 89314 46/// ///// 11129 38108 4//// 5//// 90630
AAXX 3106/ 89314 46/// ///// 11126 38106 4//// 5//// 90640
AAXX 31064 17042 12970 01116 10126 21100 30122 40162 55002 60002 333 20038 30002 55061 92428
BBXX A8HD5 31061 99357 11209 41296 63204 10080 20019 40280 56010 71022 82676 22200 04065 20601 30000 40000 5//// 80055
BBXX 9MET6 31064 99133 11189 41898 40320 10310 20241 40134 56010 70100 84171 22244 00283 20302 308// 40302 80260
BBXX ELZU8 31063 99015 11044 41598 43421 10290 20235 40105 58005 70211 81442 22200 00/// 20203 303// 40405 80250
BBXX VRDN3 31064 99058 10854 41398 11803 10280 20260 40170 54000 70203 816// 22224 00/// 20201 326// 40802 80230
BBXX WDE8264 31063 99055 10807 41798 11815 10280 20267 40140 54/// 7//00 81080 22223 00290 21001 333// 41501 80270
BBXX A8PB2 31064 99061 10902 41598 50210 10270 20243 40060 54000 70322 8556/ 22224 04290 20401 304// 40603 80250
BBXX MYJU 31063 99110 10638 41697 50416 10270 20185 40146 51015 70522 85200 22224 00265 20503 80215
BBXX 9VBS 31064 99221 11142 41497 60411 10210 20142 40225 57/// 70122 8573/ 22200 00150 20501 306// 40702 80170
BBXX ELYJ7 31063 99123 11154 41/98 40518 10290 20286 40140 55010 70211 8//// 22254 00/// 20502 305// 41204 80287
BBXX V7SY6 31064 99153 11150 41697 70526 10280 20239 40320 51010 7//22 87922 22213 00260 20606 305// 40606 80250
BBXX DGZS2 31063 99086 11090 41597 80418 10285 20251 40120 57/// 70222 8771/ 22254 00250 20603 302// 40803 80260
BBXX ELYP7 31064 99079 31160 41/97 /2907 10304 20294 40080 57020 70222 8/468 22243 00/// 20301 80296
BBXX VRAR7 31063 99360 11493 41298 32826 10120 20062 40180 54000 70222 832// 22214 00190 20707 331// 41110 80090
BBXX 9MET6 31064 99133 11189 41898 40320 10310 20241 40134 56010 70100 84171 22244 00283 20302 308// 40302 80260
BBXX ELZU8 31063 99015 11044 41598 43421 10290 20235 40105 58005 70211 81442 22200 00/// 20203 303// 40405 80250
BBXX VRDN3 31064 99058 10854 41398 11803 10280 20260 40170 54000 70203 816// 22224 00/// 20201 326// 40802 80230
BBXX WDE8264 31063 99055 10807 41798 11815 10280 20267 40140 54/// 7//00 81080 22223 00290 21001 333// 41501 80270
BBXX A8PB2 31064 99061 10902 41598 50210 10270 20243 40060 54000 70322 8556/ 22224 04290 20401 304// 40603 80250
BBXX MYJU 31063 99110 10638 41697 50416 10270 20185 40146 51015 70522 85200 22224 00265 20503 80215
BBXX 9VBS 31064 99221 11142 41497 60411 10210 20142 40225 57/// 70122 8573/ 22200 00150 20501 306// 40702 80170
BBXX ELYJ7 31063 99123 11154 41/98 40518 10290 20286 40140 55010 70211 8//// 22254 00/// 20502 305// 41204 80287
BBXX V7SY6 31064 99153 11150 41697 70526 10280 20239 40320 51010 7//22 87922 22213 00260 20606 305// 40606 80250
BBXX DGZS2 31063 99086 11090 41597 80418 10285 20251 40120 57/// 70222 8771/ 22254 00250 20603 302// 40803 80260
BBXX ELYP7 31064 99079 31160 41/97 /2907 10304 20294 40080 57020 70222 8/468 22243 00/// 20301 80296
BBXX VRAR7 31063 99360 11493 41298 32826 10120 20062 40180 54000 70222 832// 22214 00190 20707 331// 41110 80090
AAXX 31064 89628 46/// /3118 4//// 5////
AAXX 31064 03008 11/02 92417 10086 20086 49923 60082 75165 90550 333 20036 32/// 70092
BBXX VRIO2 31064 99224 50070 41597 41114 10200 20169 40170 55010 70111 83/71 22273 00180 20203 324// 40303 5//// 6//// 80180 ICE /////
BBXX WZJC 31064 99202 70715 41398 81118 10250 2020/ 40170 58010 70222 886// 22263 00267 20604 3//// 4//// 5//// 6//// 80217 ICE /////
BBXX C6VG8 31064 99337 70754 41/98 21927 10210 2//// 40170 56020 7//00 8//// 22284 00240 20204 319// 40304 5//// 6//// 8//// ICE /////
AAXX 31063 63682 32482 70000 10202 20190 48/// 83972 333 20178 83819 81922 87360 555 10194
AAXX 31063 63654 32565 42903 10220 20164 48/// 83901 333 83820 81922 555 10174
AAXX 31063 63630 32975 82004 10245 20196 48/// 84057 333 20203 84360 88279 555 10212
AAXX 31063 63702 11430 73206 10192 20174 60024 71044 81538 333 20173 81618 83362 87280 555 10180
AAXX 31063 63631 32960 70000 10190 20/// 80030 333 20140 87362 555 10///
AAXX 31063 63680 12565 72003 10209 20186 38851 60434 8596/ 333 20165 59001 85821 81923 86362 555 10194
BBXX MYJU 31063 99110 10638 41697 50416 10270 20185 40146 51015 70522 85200 22224 00265 20503 80215
BBXX SHIP 31064 99142 10531 41497 70420 10270 20228 40200 51010 70322 87721 22234 00260 21403 31617 41302 80240
BBXX VRIO2 31064 99224 50070 41597 41114 10200 20169 40170 55010 70111 83/71 22273 00180 20203 324// 40303 5//// 6//// 80180 ICE /////
BBXX PCGM 31064 99264 70322 41/98 80620 10213 20165 40290 52009 70222 8//// 22283 00238 2//// 80182
BBXX DANV 31064 99137 10511 41/97 /1012 10270 20228 40200 54000 70322 8//// 22224 04240 20201 80240
BBXX TBWUK34 31063 99025 70068 41498 81406 10259 20234 40128 54000 70252 83268 22224 00300 20200 314// 40501 5//// 80242
BBXX 46221 31061 99339 71186 46/// ///// 1//// 90615 22200 00148 11803 21002 327// 41802 70014
BBXX 46214 31061 99379 71235 46/// ///// 1//// 90620 22200 00120 11506 21004 329// 41505 70031
BBXX 46242 31061 99332 71174 46/// ///// 1//// 90628 22200 00142 11802 20801 325// 41801 70009
BBXX SHIP 31064 99543 71764 41296 81520 10010 20010 40126 57020 77370 885// 22254 00045 2//// 3//// 4//// 80010
BBXX A8JI2 31064 99234 70604 41/98 20922 10250 20243 40200 57020 70200 8//// 22214 20602 309// 41004 5//// 80245
BBXX 46231 31061 99327 71174 46/// ///// 1//// 90624 22200 00148 11803 20902 328// 41802 70015
BBXX 46216 31061 99343 71198 46/// ///// 1//// 90627 22200 00144 11803 21002 326// 41802 70013
BBXX 46223 31061 99335 71178 46/// ///// 1//// 90630 22200 00148 11802 20801 328// 41802 70010
BBXX 46222 31061 99336 71183 46/// ///// 1//// 90626 22200 00145 11803 20702 327// 41802 70013
BBXX WZJC 31064 99202 70715 41398 81118 10250 2020/ 40170 58010 70222 886// 22263 00267 20604 3//// 4//// 5//// 6//// 80217 ICE /////
BBXX 46241 31061 99330 71173 46/// ///// 1//// 90611 22200 00145 11802 21001 326// 41802 70012
BBXX 41110 31061 99341 70777 46/// ///// 1//// 90621 22200 00132 10501 20501 70007
BBXX 41113 31061 99284 70805 46/// ///// 1//// 90621 22200 00213 11301 21001 307// 41301 70005
BBXX 42362 31061 99278 70907 46/// /2205 10217 20178 40200 90630
BBXX 42023 31061 99261 70831 46/// /1802 1//// 90630 333 91205
BBXX 42023 31061 99261 70831 46/// /1802 1//// 90600 333 91205
BBXX 42360 31061 99267 70905 46/// /1605 10225 90600 22200 00245 10501 70005 333 91206
BBXX 44056 31061 99362 70757 46/// ///// 1//// 90550 22200 00118 11101 20601 70004
BBXX VREX7 31063 99149 70721 41397 80922 10270 20241 40150 50000 76066 8/800 22213 20604 30909 40804 50803 80250
BBXX ZCDF4 31063 99122 70726 41998 41123 10250 20228 40119 53005 70200 82080 22215 00270 20503 302// 40404 5//// 80235
BBXX ELYP7 31064 99079 31160 41/97 /2907 10304 20294 40080 57020 70222 8/468 22243 00/// 20301 80296
BBXX ELZU8 31063 99015 11044 41598 43421 10290 20235 40105 58005 70211 81442 22200 00/// 20203 303// 40405 80250
BBXX 62169 31063 99614 10014 41/97 /2240 10050 20045 49959 57031 78186 8//// 22200 02080 20306 327// 41004 5//// 80048
BBXX ZCBF3 31063 99387 70163 41597 13404 10140 20080 40379 7//// 8/105 22234 20102 334// 40102 5//// 80110
BBXX MCZN2 31064 99556 10159 41/98 52707 10030 21174 40092 52010 70322 85/35 22253 04060 20000 30000 40000 50000 81020
BBXX 66022 31061 99541 10142 46/// /2806 10028 30100 22200 00040
BBXX A8PB2 31064 99061 10902 41598 50210 10270 20243 40060 54000 70322 8556/ 22224 04290 20401 304// 40603 80250
BBXX V7SY6 31064 99153 11150 41697 70526 10280 20239 40320 51010 7//22 87922 22213 00260 20606 305// 40606 80250
BBXX 9VBS 31064 99221 11142 41497 60411 10210 20142 40225 57/// 70122 8573/ 22200 00150 20501 306// 40702 80170
BBXX ELYJ7 31063 99123 11154 41/98 40518 10290 20286 40140 55010 70211 8//// 22254 00/// 20502 305// 41204 80287
BBXX SHIP 31064 99133 11189 41898 40320 10310 20241 40134 56010 70100 84171 22244 00283 20302 308// 40302 80260
BBXX DGZS2 31063 99086 11090 41597 80418 10285 20251 40120 57/// 70222 8771/ 22254 00250 20603 302// 40803 80260
BBXX VRDN3 31064 99058 10854 41398 11803 10280 20260 40170 54000 70203 816// 22224 00/// 20201 326// 40802 80230
BBXX SHIP 31063 99360 11493 41298 32826 10120 20062 40180 54000 70222 832// 22214 00190 20707 331// 41110 80090
BBXX WDE8264 31063 99055 10807 41798 11815 10280 20267 40140 54/// 7//00 81080 22223 00290 21001 333// 41501 80270
BBXX VRFJ6 31064 99258 11203 41/97 90309 10150 20097 40241 57040 70200 8//// 22252 00167 20503 304// 40502 80120
AAXX 31064 89016 46/89 /3407 11049 29081 39448 4//// 5////
BBXX 44024 31061 99423 70659 46/30 /1207 10075 40222 57008 90604 22200 00077 10803 70015 333 91208 555 11087 22093
BBXX ZCDM8 31063 99071 30073 41698 41710 10247 20203 40131 52011 70111 83468 22243 00251 20202 317// 40505 5//// 80218
BBXX 3FMV6 31063 99235 30569 41498 30118 10280 20237 40097 51010 70200 83444 22213 06270 20101 80250
BBXX ZCDL9 31063 99255 30139 41497 61824 10160 20143 40210 52020 703// 8/2// 22244 04140 20606 318// 40606 5//// 80150
BBXX TBWUK18 31063 99317 30427 41198 21312 10220 20220 40147 51010 70100 8214/ 22222 00240 20502 303// 40502 5//// 80220
BBXX TBWUK17 31063 99342 30258 41498 32618 10220 20202 40182 53004 70100 82405 22263 04260 20203 326// 40405 5//// 80208
BBXX VQIB9 31064 99344 30263 41298 82803 10215 20157 40150 53012 78081 887// 22264 29901 327// 40302 5//// 80180
BBXX MLRM6 31063 99389 30086 41798 83018 10127 20061 40186 50000 70222 8807/ 22262 00147 20202 324// 40507 5////
AAXX 31064 67020 12582 60000 10298 20242 30092 40119 58002 60034 85802 333 024// 10349 20242 50404 55/// 83820 83640 555 83073=3.4
AAXX 31064 71857 16/// ///// 11066 21076 60001 333 11043 21182 7////
AAXX 31064 71014 16/// /2803 11044 21123 60001 333 10053 21055 70000
AAXX 31064 71346 16/// /2414 11002 21051 60001 333 10094 21006 70000 555 32939 40003
AAXX 31064 71481 16/// /2804 11063 21070 60001 333 11034 21092 70000
AAXX 31064 71498 16/// /2607 11032 21076 60001 333 10058 21039 70000 555 32524 40221
AAXX 31064 71055 46/// /1301 11303 21332 39720 40066 53014 6///1 333 11238 21341 7////
AAXX 31064 71065 16/// ///// 11126 21141 60001 333 11039 21168 70012
AAXX 31064 71904 16/// ///// 11042 21120 60001 333 10047 21109 70000
AAXX 31064 71249 16/// /2918 11046 21102 60001 333 10043 21065 70000 555 32524 40231
AAXX 31064 71360 16/// ///// 11070 21100 60001 333 11005 21160 70014
AAXX 31064 71380 16/// /1603 11068 21089 60001 333 11001 21145 70000 555 31217 40141
AAXX 31064 71540 16/// /3104 11104 21146 60001 333 10021 21114 70000
AAXX 31064 71544 16/// ///// 11083 21107 60001 333 11015 21089 70000
AAXX 31064 71548 16/// ///// 11076 21085 60001 333 11054 21157 7////
AAXX 31064 71413 16/// ///// 11033 21077 60001 333 10056 21086 70000
AAXX 31064 71414 16/// ///// 11056 21065 60001 333 11056 21180 70033
AAXX 31064 71440 16/// ///// 11029 21086 60001 333 10060 21052 70000
AAXX 31064 71674 16/// ///// 11038 21075 60001 333 10018 21108 70004
AAXX 31064 67020 12582 60000 10298 20242 30092 40119 58002 60034 85802 333 024// 10349 20242 50404 55/// 83820 83640 555 83073
AAXX 31064 71857 16/// ///// 11066 21076 60001 333 11043 21182 7////
AAXX 31064 71055 46/// /1301 11303 21332 39720 40066 53014 6///1 333 11238 21341 7////
AAXX 31064 71065 16/// ///// 11126 21141 60001 333 11039 21168 70012
AAXX 31064 71481 16/// /2804 11063 21070 60001 333 11034 21092 70000
AAXX 31064 71498 16/// /2607 11032 21076 60001 333 10058 21039 70000 555 32524 40221
AAXX 31064 71014 16/// /2803 11044 21123 60001 333 10053 21055 70000
AAXX 31064 71249 16/// /2918 11046 21102 60001 333 10043 21065 70000 555 32524 40231
AAXX 31064 71346 16/// /2414 11002 21051 60001 333 10094 21006 70000 555 32939 40003
AAXX 31064 71540 16/// /3104 11104 21146 60001 333 10021 21114 70000
AAXX 31064 71544 16/// ///// 11083 21107 60001 333 11015 21089 70000
AAXX 31064 71548 16/// ///// 11076 21085 60001 333 11054 21157 7////
AAXX 31064 71360 16/// ///// 11070 21100 60001 333 11005 21160 70014
AAXX 31064 71380 16/// /1603 11068 21089 60001 333 11001 21145 70000 555 31217 40141
AAXX 31064 71674 16/// ///// 11038 21075 60001 333 10018 21108 70004
AAXX 31064 71413 16/// ///// 11033 21077 60001 333 10056 21086 70000
AAXX 31064 71414 16/// ///// 11056 21065 60001 333 11056 21180 70033
AAXX 31064 71440 16/// ///// 11029 21086 60001 333 10060 21052 70000
AAXX 31064 71904 16/// ///// 11042 21120 60001 333 10047 21109 70000
AAXX 31064 17124 11556 70908 11010 21025 39210 40155 55000 69922 71072 84550 333 21031 3/104 41998 50064 55025 20540 70002 84630 86360 93197
AAXX 3106/ 89872 46/// ///// 10004 39760 4//// 5////
AAXX 31061 38974 32998 01404 10038 21021 39959 40302 57004 333 21023
AAXX 31064 89573 35980 00907 10015 21097 39907 49929 57008
BBXX MQPF2 31063 99079 10756 41397 82310 10285 20235 40116 52/// 70522 89617 22264 21003 32324 41003 50802 80250
AAXX 31064 89573 35980 00907 10015 21097 39907 49929 57008
AAXX 31064 83899 21570 50105 10218 20196 30114 40120 57015 70262 85500 333 60021
BBXX AVMI 31063 99330 31517 41498 63005 10240 20/// 40269 53002 70111 82101 22200 00230
AAXX 31061 20292 41995 32112 11135 21155 39954 49974 58004 73873 83030 333 91114
BBXX MINUK01 3106/ 99572 70019 46/// ///// 10073 49977 52026
AAXX 31064 60107 32965 01804 10058 21001 40297 56005 333 20047 30003
AAXX 31064 91844 46/// /0704 10246 40085 22200 00266
AAXX 31061 20069 41312 83614 11202 21226 39971 49984 52029 77373 8472/ 333 84707 91119 92982
BBXX 62081 31064 99510 70134 46/// ///// 10123 20116 40112 58016 22200 00118 10708 70042
BBXX 63055 31064 99606 10016 47297 /1428 10044 20043 49961 57030 704// 22200 10606 70031
BBXX 63106 31064 99610 10017 46/// /1630 10056 49969 57029 22200
BBXX 63105 31064 99610 10017 47497 ///// 10054 20025 49972 57028 751// 22200
BBXX 62103 31064 99499 70029 46/96 /2625 10119 20111 40148 55001 22200 00119 10704 70021 333 90710 91134
BBXX 62095 31064 99530 70159 46/// ///20 1//// 2//// 40026 57020 22200 10708 70041 333 90710 91129
AAXX 31064 67205 12580 83409 10290 20251 40109 60094 84206 333 20251 50630 55118 58004 94328 555 00090 10000
AAXX 31064 67215 32575 73507 10295 20246 40129 81106 333 20255 50980 55113 58007 94310 555 10000
BBXX VRDT5 31063 99089 31346 413// 42812 10380 2036/ 40040 57020 7//00 841// 22233 00350 20602 39999 40703 50703 6//// 80360 ICE /////
BBXX 9V7645 31064 99258 71152 41/// /2513 10170 20137 40160 703// 8/293 22274 00200 2//// 3//// 4//// 5//// 6//// 80150 ICE /////
BBXX WDE8264 31063 99055 10807 41798 11815 10280 20267 40140 54/// 7//00 81080 22223 00290 21001 333 // 41501 80270
BBXX VRDT5 31063 99089 31346 413// 42812 10380 2036/ 40040 57020 7//00 841// 22233 00350 20602 39999 40703 50703 6//// 80360 ICE /////
BBXX AVMI 31063 99330 31517 41498 63005 10240 20/// 40269 53002 70111 82101 22200 00230
BBXX 9V7645 31064 99258 71152 41/// /2513 10170 20137 40160 5010 703// 8/293 22274 00200 2//// 3//// 4//// 5//// 6//// 80150 ICE /////
BBXX 44024 31061 99423 70659 46/30 /1207 10075 40222 57008 90604 22200 00077 10803 70015 333 91208 555 11087 22093
BBXX C6VG8 31064 99337 70754 41/98 21927 10210 2//// 40170 56020 7//00 8//// 22284 00240 20204 319// 40304 5//// 6//// 8//// ICE /////
BBXX MINUK01 3106/ 99572 70019 46/// ///// 10073 49977 52026
BBXX BSH03 31061 99540 10081 46/// ///// 22200 00065 20702 70012
OOXX ISP34 31041 99641 70219 ///// 01301 26/// /2703 10034 29001 39638 90410 333 6///0
OOXX ISP34 31041 99641 70219 ///// 01301 26/// /2804 10035 29001 39635 90420 333 6///0
OOXX ISP34 31041 99641 70219 ///// 01301 26/// /2904 10037 29001 39633 90430 333 6///0
OOXX ISP34 31041 99641 70219 ///// 01301 26/// /2704 10038 29001 39630 90440 333 6///0
OOXX ISP34 31041 99641 70219 ///// 01301 26/// /2703 10037 29001 39628 90450 333 6///0
OOXX ISP34 31051 99641 70219 ///// 01301 26/// /2703 10036 29001 39626 90500 333 6///0
OOXX ISP34 31051 99641 70219 ///// 01301 26/// /2502 10035 29001 39624 90510 333 6///0
OOXX ISP34 31051 99641 70219 ///// 01301 26/// /2402 10034 29001 39621 90520 333 6///0
OOXX ISP34 31051 99641 70219 ///// 01301 26/// /2502 10034 29001 39620 90530 333 6///0
OOXX ISP34 31051 99641 70219 ///// 01301 26/// /2502 10034 29001 39619 90540 333 6///0
OOXX ISP34 31051 99641 70219 ///// 01301 26/// /2403 10036 29001 39617 90550 333 6///0
OOXX ISP34 31061 99641 70219 ///// 01301 26/// /2303 10038 29001 39613 90600 333 6///0
OOXX NZP46 31041 99438 51765 ///// 00221 26/// /3505 10165 29/// 30126 90430 333 69920
OOXX NZP46 31041 99438 51765 ///// 00221 26/// /3605 10168 29/// 30126 90440 333 69920
OOXX NZP46 31041 99438 51765 ///// 00221 26/// /3605 10167 29/// 30125 90450 333 69980
OOXX NZP46 31051 99438 51765 ///// 00221 26/// /3605 10166 29/// 30125 90500 333 60000
OOXX NZP46 31051 99438 51765 ///// 00221 26/// /3605 10164 29/// 30125 90510 333 69940
OOXX NZP46 31051 99438 51765 ///// 00221 26/// /3605 10164 29/// 30124 90520 333 69940
OOXX NZP46 31051 99438 51765 ///// 00221 26/// /3606 10164 29/// 30124 90530 333 69940
OOXX NZP46 31051 99438 51765 ///// 00221 26/// /3606 10162 29/// 30125 90540 333 69920
OOXX NZP46 31051 99438 51765 ///// 00221 26/// /3506 10161 29/// 30125 90550 333 69920
OOXX NZP46 31061 99438 51765 ///// 00221 26/// /3506 10161 29/// 30125 90600 333 60000
OOXX NZP46 31061 99438 51765 ///// 00221 26/// /3506 10161 29/// 30126 90610 333 69920
OOXX NZP46 31061 99438 51765 ///// 00221 26/// /3506 10162 29/// 30125 90620 333 69920
OOXX AUP06 31041 99192 31468 ///// 00071 26/// /0609 10304 29053 30079 90456 333 60000
OOXX AUP06 31051 99192 31468 ///// 00071 26/// /0609 10312 29050 30078 90506 333 60000
OOXX AUP06 31051 99192 31468 ///// 00071 26/// /0709 10305 29054 30077 90516 333 60000
OOXX AUP06 31051 99192 31468 ///// 00071 26/// /0709 10305 29051 30078 90526 333 60000
OOXX AUP06 31051 99192 31468 ///// 00071 26/// /0709 10304 29053 30078 90536 333 60000
OOXX AUP06 31051 99192 31468 ///// 00071 26/// /0708 10307 29052 30078 90546 333 60000
OOXX AUP06 31051 99192 31468 ///// 00071 26/// /0609 10304 29054 30078 90556 333 60000
OOXX AUP06 31061 99192 31468 ///// 00071 26/// /0709 10302 29055 30080 90606 333 60000
OOXX AUP06 31061 99192 31468 ///// 00071 26/// /0608 10297 29056 30080 90616 333 60000
OOXX AUP06 31061 99192 31468 ///// 00071 26/// /0608 10300 29056 30081 90626 333 60000
OOXX AUP06 31061 99192 31468 ///// 00071 26/// /0608 10299 29057 30082 90636 333 60000
OOXX AUP06 31061 99192 31468 ///// 00071 26/// /0708 10295 29056 30083 90646 333 60000
OOXX RUP54 31041 99586 10494 ///// 01271 26/// /0604 11040 29089 39993 90427 333 60120
OOXX RUP54 31041 99586 10494 ///// 01271 26/// /0604 11040 29089 39994 90437 333 60120
OOXX RUP54 31041 99586 10494 ///// 01271 26/// /0504 11040 29089 39995 90447 333 60120
OOXX RUP54 31041 99586 10494 ///// 01271 26/// /0504 11040 29089 39996 90457 333 60120
OOXX RUP54 31051 99586 10494 ///// 01271 26/// /0604 11039 29089 39997 90507 333 60120
OOXX RUP54 31051 99586 10494 ///// 01271 26/// /0704 11038 29089 39996 90517 333 60120
OOXX RUP54 31051 99586 10494 ///// 01271 26/// /0604 11038 29089 39996 90527 333 60120
OOXX RUP54 31051 99586 10494 ///// 01271 26/// /0604 11038 29089 39994 90537 333 60120
OOXX RUP54 31051 99586 10494 ///// 01271 26/// /0604 11038 29089 39994 90547 333 60120
OOXX RUP54 31051 99586 10494 ///// 01271 26/// /0605 11038 29089 39995 90557 333 60120
OOXX RUP54 31061 99586 10494 ///// 01271 26/// /0704 11038 29089 39996 90607 333 60120
OOXX RUP54 31061 99586 10494 ///// 01271 26/// /0605 11038 29089 39995 90617 333 60120
OOXX AUP07 31041 99/// ///// ///// ///// 26/// /3013 10079 29094 39859 90450 333 60000
OOXX AUP07 31051 99/// ///// ///// ///// 26/// /3013 10080 29094 39858 90500 333 60000
OOXX AUP07 31051 99/// ///// ///// ///// 26/// /2913 10080 29094 39857 90510 333 60000
OOXX AUP07 31051 99/// ///// ///// ///// 26/// /2913 10080 29093 39857 90520 333 60000
OOXX AUP07 31051 99/// ///// ///// ///// 26/// /2815 10079 29093 39860 90530 333 60000
OOXX AUP07 31051 99/// ///// ///// ///// 26/// /2515 10070 29089 39863 90540 333 60000
OOXX AUP07 31051 99/// ///// ///// ///// 26/// /2513 10071 29088 39863 90550 333 60000
OOXX AUP07 31061 99/// ///// ///// ///// 26/// /2513 10075 29086 39861 90600 333 60000
OOXX AUP07 31061 99/// ///// ///// ///// 26/// /2512 10075 29086 39862 90610 333 60000
OOXX AUP07 31061 99/// ///// ///// ///// 26/// /2612 10077 29084 39862 90620 333 60000
OOXX AUP07 31061 99/// ///// ///// ///// 26/// /2712 10075 29084 39862 90630 333 60000
OOXX AUP07 31061 99/// ///// ///// ///// 26/// /2712 10075 29083 39862 90640 333 60000
OOXX RUP59 31041 99539 10848 ///// 02121 26/// /1102 11056 29080 30034 90450 333 60000
OOXX RUP59 31051 99539 10848 ///// 02121 26/// /1103 11056 29078 30035 90500 333 60000
OOXX RUP59 31051 99539 10848 ///// 02121 26/// /1103 11054 29078 30036 90510 333 60000
OOXX RUP59 31051 99539 10848 ///// 02121 26/// /1203 11055 29078 30038 90520 333 60000
OOXX RUP59 31051 99539 10848 ///// 02121 26/// /1203 11054 29078 30040 90530 333 60000
OOXX RUP59 31051 99539 10848 ///// 02121 26/// /1203 11053 29076 30041 90540 333 60000
OOXX RUP59 31051 99539 10848 ///// 02121 26/// /1204 11054 29076 30042 90550 333 60000
OOXX RUP59 31061 99539 10848 ///// 02121 26/// /1203 11054 29076 30043 90600 333 60000
OOXX RUP59 31061 99539 10848 ///// 02121 26/// /1203 11053 29076 30043 90610 333 60000
OOXX RUP59 31061 99539 10848 ///// 02121 26/// /1103 11052 29076 30042 90620 333 60000
OOXX RUP59 31061 99539 10848 ///// 02121 26/// /1103 11051 29076 30044 90630 333 60000
OOXX RUP59 31061 99539 10848 ///// 02121 26/// /1103 11051 29076 30044 90640 333 60000
OOXX RUP58 31041 99442 11320 ///// 01121 26/// /2702 11112 29044 30097 90452 333 60000
OOXX RUP58 31051 99442 11320 ///// 01121 26/// /2902 11112 29045 30097 90502 333 60000
OOXX RUP58 31051 99442 11320 ///// 01121 26/// /2901 11106 29043 30097 90512 333 60000
OOXX RUP58 31051 99442 11320 ///// 01121 26/// /1502 11112 29039 30096 90522 333 60000
OOXX RUP58 31051 99442 11320 ///// 01121 26/// /1802 11117 29041 30096 90532 333 60000
OOXX RUP58 31051 99442 11320 ///// 01121 26/// /1502 11120 29041 30096 90542 333 60000
OOXX RUP58 31051 99442 11320 ///// 01121 26/// /1801 11122 29042 30096 90552 333 60000
OOXX RUP58 31061 99442 11320 ///// 01121 26/// /1901 11121 29043 30095 90602 333 60000
OOXX RUP58 31061 99442 11320 ///// 01121 26/// /1502 11121 29041 30096 90612 333 60000
OOXX RUP58 31061 99442 11320 ///// 01121 26/// /1502 11123 29042 30095 90622 333 60000
OOXX RUP58 31061 99442 11320 ///// 01121 26/// /1602 11127 29044 30095 90632 333 60000
OOXX RUP58 31061 99442 11320 ///// 01121 26/// /1503 11131 29046 30094 90642 333 60000
OOXX ARP01 31041 99345 50585 ///// 00311 26/// /1101 10104 29039 30097 90410 333 60000
OOXX ARP01 31041 99345 50585 ///// 00311 26/// /1101 10104 29039 30096 90420 333 60000
OOXX ARP01 31041 99345 50585 ///// 00311 26/// /1101 10104 29038 30095 90430 333 60000
OOXX ARP01 31041 99345 50585 ///// 00311 26/// /1102 10103 29037 30094 90440 333 60000
OOXX ARP01 31041 99345 50585 ///// 00311 26/// /1101 10104 29036 30094 90450 333 60000
OOXX ARP01 31051 99345 50585 ///// 00311 26/// /1101 10104 29036 30094 90500 333 60000
OOXX ARP01 31051 99345 50585 ///// 00311 26/// /1101 10103 29037 30093 90510 333 60000
OOXX ARP01 31051 99345 50585 ///// 00311 26/// /1101 10102 29037 30094 90520 333 60000
OOXX ARP01 31051 99345 50585 ///// 00311 26/// /1101 10102 29037 30094 90530 333 60000
OOXX ARP01 31051 99345 50585 ///// 00311 26/// /1101 10101 29038 30094 90540 333 60000
OOXX ARP01 31051 99345 50585 ///// 00311 26/// /1101 10101 29038 30093 90550 333 60000
OOXX ARP01 31061 99345 50585 ///// 00311 26/// /1101 10099 29038 30093 90600 333 60000
OOXX AUP09 31041 99124 31309 ///// 00321 26/// ///// 1//// 29/// 3//// 90418 333 6///0
OOXX AUP09 31041 99124 31309 ///// 00321 26/// ///// 1//// 29/// 3//// 90428 333 6///0
OOXX AUP09 31041 99124 31309 ///// 00321 26/// ///// 1//// 29/// 3//// 90438 333 6///0
OOXX AUP09 31041 99124 31309 ///// 00321 26/// ///// 1//// 29/// 3//// 90448 333 6///0
OOXX AUP09 31041 99124 31309 ///// 00321 26/// ///// 1//// 29/// 3//// 90458 333 6///0
OOXX AUP09 31051 99124 31309 ///// 00321 26/// ///// 1//// 29/// 3//// 90508 333 6///0
OOXX AUP09 31051 99124 31309 ///// 00321 26/// ///// 1//// 29/// 3//// 90518 333 6///0
OOXX AUP09 31051 99124 31309 ///// 00321 26/// ///// 1//// 29/// 3//// 90528 333 6///0
OOXX AUP09 31051 99124 31309 ///// 00321 26/// ///// 1//// 29/// 3//// 90538 333 6///0
OOXX AUP09 31051 99124 31309 ///// 00321 26/// ///// 1//// 29/// 3//// 90548 333 6///0
OOXX AUP09 31051 99124 31309 ///// 00321 26/// ///// 1//// 29/// 3//// 90558 333 6///0
OOXX AUP09 31061 99124 31309 ///// 00321 26/// ///// 1//// 29/// 3//// 90608 333 6///0
OOXX MXP44 31041 99280 71140 ///// 00041 26/// /1422 10126 29054 30136 90410 333 60000
OOXX MXP44 31041 99280 71140 ///// 00041 26/// /1422 10123 29054 30136 90420 333 60000
OOXX MXP44 31041 99280 71140 ///// 00041 26/// /1422 10121 29054 30136 90430 333 60000
OOXX MXP44 31041 99280 71140 ///// 00041 26/// /1422 10119 29054 30137 90440 333 60000
OOXX MXP44 31041 99280 71140 ///// 00041 26/// /1422 10117 29054 30137 90450 333 60000
OOXX MXP44 31051 99280 71140 ///// 00041 26/// /1422 10118 29054 30138 90500 333 60000
OOXX MXP44 31051 99280 71140 ///// 00041 26/// /1422 10119 29054 30139 90510 333 60000
OOXX MXP44 31051 99280 71140 ///// 00041 26/// /1422 10117 29054 30139 90520 333 60000
OOXX MXP44 31051 99280 71140 ///// 00041 26/// /1422 10115 29054 30139 90530 333 60000
OOXX MXP44 31051 99280 71140 ///// 00041 26/// /1422 10115 29054 30139 90540 333 60000
OOXX MXP44 31051 99280 71140 ///// 00041 26/// /1422 10119 29054 30138 90550 333 60000
OOXX MXP44 31061 99280 71140 ///// 00041 26/// /1422 10127 29054 30138 90600 333 60000
OOXX FRP28 31031 99163 70615 ///// 00091 26/// /0000 10249 29080 30219 90359 333 60000
OOXX FRP28 31041 99163 70615 ///// 00091 26/// /0000 10249 29080 30215 90409 333 60000
OOXX FRP28 31041 99163 70615 ///// 00091 26/// /0000 10246 29081 30214 90419 333 60000
OOXX FRP28 31041 99163 70615 ///// 00091 26/// /0000 10251 29077 30213 90429 333 60000
OOXX FRP28 31041 99163 70615 ///// 00091 26/// /0000 10250 29078 30212 90439 333 60000
OOXX FRP28 31041 99163 70615 ///// 00091 26/// /0000 10244 29082 30214 90449 333 60000
OOXX FRP28 31041 99163 70615 ///// 00091 26/// /0000 10237 29085 30212 90459 333 60000
OOXX FRP28 31051 99163 70615 ///// 00091 26/// /0000 10235 29085 30212 90509 333 60000
OOXX FRP28 31051 99163 70615 ///// 00091 26/// /0000 10234 29086 30210 90519 333 60000
OOXX FRP28 31051 99163 70615 ///// 00091 26/// /0000 10231 29087 30211 90529 333 60000
OOXX FRP28 31051 99163 70615 ///// 00091 26/// /0000 10232 29087 30207 90539 333 60000
OOXX FRP28 31051 99163 70615 ///// 00091 26/// /0000 10232 29086 30209 90549 333 60000
OOXX MRP43 31041 99181 70159 ///// 00101 26/// /0203 10136 29028 30220 90450 333 60000
OOXX MRP43 31051 99181 70159 ///// 00101 26/// /0202 10135 29028 30221 90500 333 60000
OOXX MRP43 31051 99181 70159 ///// 00101 26/// /0202 10130 29029 30222 90510 333 60000
OOXX MRP43 31051 99181 70159 ///// 00101 26/// /0102 10127 29030 30223 90520 333 60000
OOXX MRP43 31051 99181 70159 ///// 00101 26/// /0202 10129 29030 30225 90530 333 60000
OOXX MRP43 31051 99181 70159 ///// 00101 26/// /0203 10128 29030 30224 90540 333 60000
OOXX MRP43 31051 99181 70159 ///// 00101 26/// /0203 10127 29030 30223 90550 333 60000
OOXX MRP43 31061 99181 70159 ///// 00101 26/// /0303 10131 29030 30223 90600 333 60000
OOXX MRP43 31061 99181 70159 ///// 00101 26/// /0303 10135 29029 30221 90610 333 60000
OOXX MRP43 31061 99181 70159 ///// 00101 26/// /0303 10136 29029 30219 90620 333 60000
OOXX MRP43 31061 99181 70159 ///// 00101 26/// /0304 10137 29029 30218 90630 333 60000
OOXX MRP43 31061 99181 70159 ///// 00101 26/// /0404 10139 29029 30219 90640 333 60000
OOXX CAP14 31041 99487 71234 ///// 00431 26/// /2705 10052 29055 30104 90440 333 60000
OOXX CAP14 31041 99487 71234 ///// 00431 26/// /2604 10049 29054 30106 90450 333 60000
OOXX CAP14 31051 99487 71234 ///// 00431 26/// /2503 10047 29056 30109 90500 333 60000
OOXX CAP14 31051 99487 71234 ///// 00431 26/// /2603 10045 29059 30110 90510 333 60000
OOXX CAP14 31051 99487 71234 ///// 00431 26/// /2704 10049 29058 30115 90520 333 60000
OOXX CAP14 31051 99487 71234 ///// 00431 26/// /2704 10048 29058 30120 90530 333 60000
OOXX CAP14 31051 99487 71234 ///// 00431 26/// /2702 10046 29059 30123 90540 333 60000
OOXX CAP14 31051 99487 71234 ///// 00431 26/// /2703 10044 29058 30128 90550 333 60000
OOXX CAP14 31061 99487 71234 ///// 00431 26/// /2802 10043 29062 30131 90600 333 60000
OOXX CAP14 31061 99487 71234 ///// 00431 26/// /2802 10041 29064 30133 90610 333 60000
OOXX CAP14 31061 99487 71234 ///// 00431 26/// /2502 10034 29066 30134 90620 333 60000
OOXX CAP14 31061 99487 71234 ///// 00431 26/// /2603 10038 29062 30136 90630 333 60000
OOXX PAP50 31031 99090 70795 ///// 00901 26/// /3503 10258 29072 30017 90350 333 60000
OOXX PAP50 31041 99090 70795 ///// 00901 26/// /3603 10258 29072 30015 90400 333 60000
OOXX PAP50 31041 99090 70795 ///// 00901 26/// /3503 10256 29074 30016 90410 333 60000
OOXX PAP50 31041 99090 70795 ///// 00901 26/// /3602 10256 29074 30013 90420 333 60000
OOXX PAP50 31041 99090 70795 ///// 00901 26/// /3602 10256 29074 30012 90430 333 60000
OOXX PAP50 31041 99090 70795 ///// 00901 26/// /3605 10259 29071 30012 90440 333 60000
OOXX PAP50 31041 99090 70795 ///// 00901 26/// /3503 10257 29073 30013 90450 333 60000
OOXX PAP50 31051 99090 70795 ///// 00901 26/// /3603 10257 29073 30013 90500 333 60000
OOXX PAP50 31051 99090 70795 ///// 00901 26/// /3603 10258 29072 30012 90510 333 60000
OOXX PAP50 31051 99090 70795 ///// 00901 26/// /3604 10259 29071 30011 90520 333 60000
OOXX PAP50 31051 99090 70795 ///// 00901 26/// /3603 10258 29073 30012 90530 333 60000
OOXX PAP50 31051 99090 70795 ///// 00901 26/// /3503 10256 29074 30012 90540 333 60000
OOXX KIP39 31041 99020 51574 ///// 00181 26/// /1105 10258 29080 30098 90430 333 60000
OOXX KIP39 31041 99020 51574 ///// 00181 26/// /1105 10258 29080 30101 90440 333 60000
OOXX KIP39 31041 99020 51574 ///// 00181 26/// /1105 10258 29081 30103 90450 333 60000
OOXX KIP39 31051 99020 51574 ///// 00181 26/// /1105 10258 29080 30104 90500 333 60000
OOXX KIP39 31051 99020 51574 ///// 00181 26/// /1005 10257 29081 30103 90510 333 60000
OOXX KIP39 31051 99020 51574 ///// 00181 26/// /1105 10258 29082 30103 90520 333 60000
OOXX KIP39 31051 99020 51574 ///// 00181 26/// /1105 10257 29083 30106 90530 333 60000
OOXX KIP39 31051 99020 51574 ///// 00181 26/// /1105 10257 29082 30107 90540 333 60000
OOXX KIP39 31051 99020 51574 ///// 00181 26/// /1105 10257 29082 30109 90550 333 60000
OOXX KIP39 31061 99020 51574 ///// 00181 26/// /1005 10256 29082 30109 90600 333 60000
OOXX KIP39 31061 99020 51574 ///// 00181 26/// /1005 10257 29083 30109 90610 333 60000
OOXX KIP39 31061 99020 51574 ///// 00181 26/// /1005 10256 29083 30110 90620 333 60000
OOXX GBP67 31041 99159 50057 ///// 04381 26/// /0503 10168 29072 39668 90410 333 60000
OOXX GBP67 31041 99159 50057 ///// 04381 26/// /0603 10169 29074 39669 90420 333 60000
OOXX GBP67 31041 99159 50057 ///// 04381 26/// /0503 10167 29083 39671 90430 333 60000
OOXX GBP67 31041 99159 50057 ///// 04381 26/// /0803 10165 29081 39670 90440 333 60000
OOXX GBP67 31041 99159 50057 ///// 04381 26/// /0803 10165 29083 39670 90450 333 60000
OOXX GBP67 31051 99159 50057 ///// 04381 26/// /0703 10166 29083 39671 90500 333 60000
OOXX GBP67 31051 99159 50057 ///// 04381 26/// /0704 10162 29091 39673 90510 333 60000
OOXX GBP67 31051 99159 50057 ///// 04381 26/// /0604 10158 29093 39674 90520 333 60000
OOXX GBP67 31051 99159 50057 ///// 04381 26/// /0404 10158 29094 39674 90530 333 60000
OOXX GBP67 31051 99159 50057 ///// 04381 26/// /0504 10159 29090 39676 90540 333 60000
OOXX GBP67 31051 99159 50057 ///// 04381 26/// /0603 10161 29088 39678 90550 333 60000
OOXX GBP67 31061 99159 50057 ///// 04381 26/// /0603 10162 29085 39679 90600 333 60000
OOXX FJP26 31041 99178 31775 ///// 00311 26/// /3205 10312 29066 30031 90420 333 60000
OOXX FJP26 31041 99178 31775 ///// 00311 26/// /3205 10313 29066 30033 90430 333 60000
OOXX FJP26 31041 99178 31775 ///// 00311 26/// /3205 10309 29067 30034 90440 333 60000
OOXX FJP26 31041 99178 31775 ///// 00311 26/// /3205 10303 29069 30034 90450 333 60000
OOXX FJP26 31051 99178 31775 ///// 00311 26/// /3304 10301 29069 30035 90500 333 60000
OOXX FJP26 31051 99178 31775 ///// 00311 26/// /3402 10299 29070 30036 90510 333 60000
OOXX FJP26 31051 99178 31775 ///// 00311 26/// /1403 10291 29074 30036 90520 333 60000
OOXX FJP26 31051 99178 31775 ///// 00311 26/// /1603 10290 29074 30038 90530 333 60000
OOXX FJP26 31051 99178 31775 ///// 00311 26/// /1604 10280 29077 30039 90540 333 60000
OOXX FJP26 31051 99178 31775 ///// 00311 26/// /1302 10276 29079 30040 90550 333 60000
OOXX FJP26 31061 99178 31775 ///// 00311 26/// /1202 10275 29081 30042 90600 333 60000
OOXX FJP26 31061 99178 31775 ///// 00311 26/// /1003 10273 29081 30044 90610 333 60000
OOXX FJP26 31061 99178 31775 ///// 00311 26/// /0803 10272 29082 30045 90620 333 60000
OOXX ARP03 31041 99412 50712 ///// 08491 26/// /1301 10151 29060 39183 90410 333 60000
OOXX ARP03 31041 99412 50712 ///// 08491 26/// /1401 10152 29060 39183 90420 333 60000
OOXX ARP03 31041 99412 50712 ///// 08491 26/// /1401 10154 29059 39182 90430 333 60000
OOXX ARP03 31041 99412 50712 ///// 08491 26/// /1201 10157 29057 39182 90440 333 60000
OOXX ARP03 31041 99412 50712 ///// 08491 26/// /1202 10159 29056 39183 90450 333 60000
OOXX ARP03 31051 99412 50712 ///// 08491 26/// /1202 10160 29057 39183 90500 333 60000
OOXX ARP03 31051 99412 50712 ///// 08491 26/// /1201 10155 29059 39181 90510 333 60000
OOXX ARP03 31051 99412 50712 ///// 08491 26/// /1201 10151 29060 39181 90520 333 60000
OOXX ARP03 31051 99412 50712 ///// 08491 26/// /3401 10141 29063 39182 90530 333 60000
OOXX ARP03 31051 99412 50712 ///// 08491 26/// /0000 10132 29066 39182 90540 333 60000
OOXX ARP03 31051 99412 50712 ///// 08491 26/// /2001 10133 29064 39180 90550 333 60000
OOXX ARP03 31061 99412 50712 ///// 08491 26/// /1401 10133 29065 39180 90600 333 60000
AAXX 31064 89807 46/// /1307 11016 29096 39812 4//// 5//// 90630 333 90700 91109
AAXX 31064 89807 46/// /1307 11016 29096 39812 4//// 5//// 90630 333 90700 91109
AAXX 31061 47008 11570 80502 11022 21044 30206 40262 57011 69941 70272 8655/
AAXX 31061 47014 42950 80000 11093 21168 39837 40260 57034 8802/
AAXX 31061 47016 42770 10000 11094 21192 39361 40270 57041 81030
AAXX 31061 47020 42965 00000 11060 21123 39884 40279 57024
AAXX 31061 47025 42968 80901 10027 20000 30208 40237 57025 80002
AAXX 31061 47035 11560 80000 11037 21091 30263 40272 57015 69931 77077 885//
AAXX 31061 47041 42765 22701 10030 21111 30187 40215 57041 82030
AAXX 31061 47055 42570 62704 10026 21040 30191 40237 57021 81501
AAXX 31061 47058 11556 80000 11040 21055 30225 40274 57019 69961 77177 8802/
AAXX 31061 47069 11556 80702 11018 21036 30166 40269 57018 69901 77872 885//
AAXX 31061 47090 NIL
AAXX 31061 47095 NIL
AAXX 31061 47097 NIL
AAXX 31061 47098 NIL
AAXX 31061 47099 NIL
AAXX 31061 47100 NIL
AAXX 31061 47102 NIL
AAXX 31061 47104 NIL
AAXX 31061 47106 NIL
AAXX 31061 47112 NIL
AAXX 31061 47114 NIL
AAXX 31061 47119 NIL
AAXX 31061 47121 NIL
AAXX 31061 47127 NIL
AAXX 31061 47129 NIL
AAXX 31061 47130 NIL
AAXX 31061 47131 NIL
AAXX 31061 47135 NIL
AAXX 31061 47136 NIL
AAXX 31061 47137 NIL
AAXX 31061 47140 NIL
AAXX 31061 47143 NIL
AAXX 31061 47145 NIL
AAXX 31061 47146 NIL
AAXX 31061 47150 NIL
AAXX 31061 47152 NIL
AAXX 31061 47154 NIL
AAXX 31061 47155 NIL
AAXX 31061 47156 NIL
AAXX 31061 47157 NIL
AAXX 31061 47162 NIL
AAXX 31061 47169 NIL
AAXX 31061 47170 NIL
AAXX 31061 47171 NIL
AAXX 31061 47172 NIL
AAXX 31061 47173 NIL
AAXX 31061 47174 NIL
AAXX 31061 47175 NIL
AAXX 31061 47185 NIL
AAXX 31061 47188 NIL
AAXX 31061 47189 NIL
AAXX 31061 47192 NIL
AAXX 31061 47003 42980 80000 11029 21091 30241 40245 57022 80002
AAXX 31061 47005 42580 72701 11074 21163 38582 57020 87500
AAXX 31061 47022 42975 10901 11039 21196 38828 57050 80002
AAXX 31061 47028 11965 70000 11030 21047 30167 40266 57027 69921 70272 80002
AAXX 31061 47031 42970 00000 11050 21067 38917 57031
AAXX 31061 47037 11542 80000 11034 21055 30146 40274 57021 69911 77072 8802/
AAXX 31061 47039 12560 80000 11023 21084 30069 40266 57029 69911 86502
AAXX 31061 47046 41969 20000 10018 21061 30204 40227 57022 71000 80002
AAXX 31061 47050 NIL
AAXX 31061 47052 NIL
AAXX 31061 47060 11520 80503 11052 21066 30204 40265 57022 69951 77177 8802/
AAXX 31061 47061 42980 00000 10041 21050 30198 40242 57020
AAXX 31061 47065 41560 81401 11011 21043 30217 40286 57006 71022 885//
AAXX 31061 47067 41560 80000 11032 21060 30162 40287 57028 71022 885//
AAXX 31061 47068 11540 80000 11002 21022 30229 40265 57012 69911 77777 886//
AAXX 31061 47070 41940 80000 11006 21054 30176 40266 57022 71000 885//
AAXX 31061 47075 41560 82302 11031 21062 39755 40196 57018 71022 885//
AAXX 31061 47101 31517 63402 11045 21066 30169 40270 57028 71022 86502
AAXX 31061 47105 369// /2507 10054 21192 30198 40230 55017
AAXX 31061 47108 31657 61802 10013 21085 30151 40260 57024 70522 82502
AAXX 31061 47115 32675 42705 10065 21029 39945 40217 57017 82501 333 92032
AAXX 31061 47133 31657 70903 10026 21068 30179 40266 57025 70522 82530
AAXX 31061 47138 32972 82306 10071 21204 30232 40235 57025 80005 333 92033
AAXX 31061 47159 32965 42905 10089 21106 30147 40232 57019 80001 333 92022
AAXX 31061 47165 32668 80206 10036 21027 30214 40262 56023 8252/ 333 92022
AAXX 31061 47168 32965 62907 10064 21091 30158 40238 57027 80002 333 92023
AAXX 31061 47184 32670 83407 10068 20006 30231 40256 57023 8452/ 333 92023
AAXX 31061 47101 NIL
AAXX 31061 47105 NIL
AAXX 31061 47108 NIL
AAXX 31061 47115 NIL
AAXX 31061 47133 NIL
AAXX 31061 47138 NIL
AAXX 31061 47159 NIL
AAXX 31061 47165 NIL
AAXX 31061 47168 NIL
AAXX 31061 47184 NIL
BBXX DAJT 31064 99293 50169 41598 10209 10222 20186 40185 54000 70200 8/4// 22264 04220 2//01 80198
BBXX ELWO6 31063 99306 70440 41498 21110 10215 20180 40320 54000 70200 81144 22254 00218 21004 331// 41304 80192
BBXX DFVY2 31064 99040 50366 41/98 21022 10260 20232 40111 57014 70111 22274 00270 80240
BBXX A8RU5 31064 99156 10415 41997 01526 10258 20194 40177 51015 70200 22275 20705 80214
AAXX 31064 91559 46/// /0603 10279 40052 22200 00294
AAXX 31064 71967 16/// /3604 11048 21064 30069 40177 56012 60001 333 11045 21231 70000
AAXX 31064 71386 16/// /1503 11196 21225 30035 40252 52004 60001 333 11121 21204 70000 555 33025 40091
AAXX 31064 71307 17/// /2212 10060 20047 39784 40031 51002 60011 7//4/ 333 10074 20009 70057 555 31218 40001
AAXX 31064 71639 11132 80907 11001 21019 39819 40062 56024 60021 72462 886// 333 11001 21045 40007 70024 90946 555 19999 29999
AAXX 31064 71612 16/// /0205 11073 21098 30073 40166 58013 60001 333 11073 21162 70000
AAXX 31064 71429 16/// /0204 11050 21080 30223 40243 53009 60001 333 11026 21106 70000 555 32626 40071
AAXX 31061 10379 01273 82505 10019 20011 30002 40126 53005 69902 72361 875// 333 10038 20011 31101 55004 55300 20000 30000 41122 69907 70043 81706 87631 96268 96468
BBXX SHIP 31064 99543 71764 41296 81520 10010 20010 40126 57020 77370 885// 22254 00045 2//// 3//// 4//// 80010
BBXX VRBQ6 31064 99543 71764 41296 81520 10010 20010 40126 57020 77370 885// 22254 00045 2//// 3//// 4//// 80010
AAXX 31064 91531 46/// /0505 1//// 40062 22200 00265
AAXX 31064 87765 32960 01403 10115 20065 39186 48502 58003 333 96120
AAXX 31064 67767 NIL
AAXX 31064 67843 NIL
AAXX 31064 67969 12575 70601 10215 20193 38/// 48/// 69924 81538 333 20171 5//// 81615 87280
AAXX 31064 67771 12580 73604 10203 20189 38/// 48/// 60214 875// 333 20182 5//// 87625
AAXX 31064 67785 11350 80106 10187 20184 38/// 48/// 60134 76162 8677/ 333 20179 5//// 86706
AAXX 31064 67975 11480 81005 10214 20178 38927 48517 69914 84537 333 20180 59009 84615 85360 88280
AAXX 31064 67983 11050 80904 10190 20184 38895 48521 69934 74041 886// 333 20166 59002 88700
AAXX 31064 67765 11375 80507 10193 20188 38670 48513 60204 72165 8767/ 333 20172 59002 87706 88460
AAXX 31064 67775 11380 80412 10181 20171 38512 48516 69464 70265 8777/ 333 20162 59003 87708
AAXX 31064 67779 11380 70701 10207 20198 39060 48515 60204 70296 8763/ 333 20185 58005 87708
AAXX 31064 67853 NIL
AAXX 31064 67861 NIL
AAXX 31064 67867 NIL
AAXX 31064 67881 NIL
AAXX 31064 67965 12480 71405 10202 20161 38690 48514 69904 875// 333 20180 59015 87615
AAXX 31064 67975 NIL
AAXX 31064 67977 NIL
AAXX 31064 67983 NIL
AAXX 31064 67991 32980 70000 10248 20184 39592 48502 80008 333 20180 59029 87280
AAXX 31064 08261 12980 00000 10018 21013 39853 40358 54000 60002 333 20014 31101 55079 70000
AAXX 31064 67867 12480 71306 10198 20171 38578 48506 69904 87532 333 20162 5//// 87610
AAXX 31064 67861 11002 80602 10189 20188 38726 48506 60354 74642 886// 333 20181 59001 88701
AAXX 31064 67863 32480 51701 10225 20189 38/// 48/// 82532 333 20183 5//// 82612 83080
BBXX SHIP 31063 99360 11493 41298 32826 10120 20062 40180 54000 70222 832// 22214 00190 20707 331// 41110 80090
BBXX VRAR7 31063 99360 11493 41298 32826 10120 20062 40180 54000 70222 832// 22214 00190 20707 331// 41110 80090
AAXX 31064 67765 11375 80507 10193 20188 38670 48513 60204 72165 8767/ 333 20172 59002 87706 88460
AAXX 31064 67775 11380 80412 10181 20171 38512 48516 69464 70265 8777/ 333 20162 59003 87708
AAXX 31064 67779 11380 70701 10207 20198 39060 48515 60204 70296 8763/ 333 20185 58005 87708
AAXX 31064 67853 NIL
AAXX 31064 67861 NIL
AAXX 31064 67867 NIL
AAXX 31064 67881 NIL
AAXX 31064 67965 12480 71405 10202 20161 38690 48514 69904 875// 333 20180 59015 87615
AAXX 31064 67975 NIL
AAXX 31064 67977 NIL
AAXX 31064 67983 NIL
AAXX 31064 67991 32980 70000 10248 20184 39592 48502 80008 333 20180 59029 87280
AAXX 31064 67785 11350 80106 10187 20184 38/// 48/// 60134 76162 8677/ 333 20179 5//// 86706
AAXX 31064 67867 12480 71306 10198 20171 38578 48506 69904 87532 333 20162 5//// 87610
AAXX 31064 67861 11002 80602 10189 20188 38726 48506 60354 74642 886// 333 20181 59001 88701
AAXX 31064 71016 16/// ///// 11035 60001 333 10037 21038 70000
AAXX 31064 71016 16/// ///// 11035 60001 333 10037 21038 70000
AAXX 31064 91642 46/// /0000 1//// 40067 22200 0////
AAXX 31061 15310 01495 80201 10001 21002 30050 40139 53012 69902 71022 886// 333 10008 20001 31000 55300 10019 20001 30001 60007 70000 91003 91104
AAXX 3106/ 89332 46/// ///// 11019 39106 4//// 5////
BBXX 44056 31061 99362 70757 46/// ///// 1//// 90620 22200 00118 11301 20601 70004
BBXX 46109 31061 99481 71234 46/// /2611 10055 40214 90557 22200 00077
BBXX 46110 31061 99481 71230 46/// /2406 10055 40207 90558
BBXX 44055 31061 99391 70753 46/// ///// 1//// 90630 22200 00070 1//00 70002
AAXX 31064 83827 22570 73004 10217 20214 39807 40078 55006 82230 333 69911
BBXX 44055 31061 99391 70753 46/// ///// 1//// 90630 22200 00070 1//00 70002
BBXX 46110 31061 99481 71230 46/// /2406 10055 40207 90558
BBXX 46109 31061 99481 71234 46/// /2611 10055 40214 90557 22200 00077
BBXX 44056 31061 99362 70757 46/// ///// 1//// 90620 22200 00118 11301 20601 70004
BBXX ELWO6 31063 99306 70440 41498 21110 10215 20180 40320 54000 70200 81144 22254 00218 21004 331// 41304 80192
BBXX 9V7645 31064 99258 71152 41/// /2513 10170 20137 40160 703// 8/293 22274 00200 2//// 3//// 4//// 5//// 6//// 80150 ICE /////
BBXX WKDY 31064 99192 10596 41698 40517 10280 20193 40200 52030 70311 84180 22214 00244 20303 305// 4//// 5//// 6//// 80220 ICE /////
BBXX A8RU5 31064 99156 10415 41997 01526 10258 20194 40177 51015 70200 22275 20705 80214
BBXX DAJT 31064 99293 50169 41598 10209 10222 20186 40185 54000 70200 8/4// 22264 04220 2//01 80198
BBXX DFVY2 31064 99040 50366 41/98 21022 10260 20232 40111 57014 70111 22274 00270 80240
BBXX WKDY 31064 99192 10596 41698 40517 10280 20193 40200 52030 70311 84180 22214 00244 20303 305// 4//// 5//// 6//// 80220 ICE /////
AAXX 31064 88963 11460 82320 10006 21004 39630 49660 54000 69901 70272 885// 333 56799 84710 88630 92417 94070 95000
AAXX 31064 88968 31457 73606 10012 20001 39748 49763 56005 71042 87600 333 56700 87712 90043 90092 92416 92734 92851 94072 95062
AAXX 31064 89034 11256 80507 11051 21079 39498 49812 52003 69951 71072 886// 333 56199 88706 92840
AAXX 31064 89053 11215 82726 10008 21002 39658 49671 54000 60011 76062 8572/ 333 56669 85704 88525 90063 90089 90268 90280 90937 92434 94072 94479 95092 96010 97536 98515
AAXX 31064 89055 11105 82011 11023 21026 39426 49664 52008 69951 77174 886// 333 56499 88702 90068 90096 90268 90276 92730 92800 95190 96044
AAXX 31064 89066 32970 70720 10018 21075 39713 49721 53013 87070 333 56020 87360 92427 94030
AAXX 31061 32121 42999 73404 11044 21075 30188 40211 53004 87050 333 91005 91105
AAXX 31064 71238 16/// /2904 11069 21105 60001 333 10007 21145 70000 555 31420 40151
BBXX 46094 31061 99446 71243 46/// /3003 10081 90630
BBXX 46094 31061 99446 71243 46/// /3002 10081 90620
BBXX 46094 31061 99446 71243 46/// /2702 10080 90610
BBXX 46094 31061 99446 71243 46/// /2703 10079 90600
BBXX 46094 31061 99446 71243 46/// /3103 10079 90550
BBXX 46094 31061 99446 71243 46/// /3103 10080 90540
AAXX 31064 92036 46/// /0509 10296 40051 22200 00317
BBXX 63106 31064 99610 10017 46/// /1630 10056 49969 57029 22200
BBXX 63113 31064 99610 10017 46/// /1732 10055 20026 49971 57028 22200 10607 70033
BBXX 2AUO5 31063 99606 10016 41296 81629 10061 20050 49971 57028 76366 887// 22241 20604 316// 41007 80056
BBXX 62081 31064 99510 70134 46/// ///// 10123 20116 40112 58016 22200 00118 10708 70041
BBXX 62103 31064 99499 70029 46/98 /2724 10119 20110 40148 50000 22200 00119 10704 70018 333 90710 91133
BBXX 62095 31064 99530 70159 46/// /2320 10119 20117 40026 57020 22200 00111 10708 70041 333 90710 91129
AAXX 31064 93713 46/// /0000 10211 40062 22200 00166
AAXX 31061 38599 31396 40807 10001 21017 39836 40371 58013 71011 84600 333 21029
AAXX 31061 38599 31396 40807 10001 21017 39836 40371 58013 71011 84600 333 21029
OOXX AAPIG 31064 99758 51003 56251 08502 46/// /0915 11133 21267 38791 49773 52006 90550
AAXX 31064 67755 NIL
AAXX 31064 67771 NIL
AAXX 31064 67773 11480 70506 10221 20197 38/// 48/// 60564 70262 8457/ 333 20185 5//// 84615 87360
AAXX 31064 67774 NIL
AAXX 31064 67785 NIL
AAXX 31064 67789 11480 70102 10182 20176 38/// 48/// 60494 70262 8157/ 333 20167 5//// 81610 87459
AAXX 31064 67855 11370 50602 10232 20172 38/// 48/// 60044 82707
AAXX 31064 67857 NIL
AAXX 31064 67863 NIL
AAXX 31064 67871 NIL
AAXX 31064 67875 NIL
AAXX 31064 67891 NIL
AAXX 31064 67895 NIL
AAXX 31064 67897 NIL
AAXX 31064 67899 NIL
AAXX 31064 67951 12980 60607 10208 20170 38/// 48/// 69904 80008 333 20164 5//// 86280
AAXX 31064 67963 12480 71009 10194 20175 38/// 48/// 69904 875// 333 20175 5//// 81706 87610
AAXX 31064 67967 NIL
AAXX 31064 67971 31275 71503 10220 20191 38/// 48/// 70242 8557/ 333 20180 5//// 85610 87460
AAXX 31064 67976 12475 71508 10230 20198 38/// 48/// 69914 81132 333 20189 5//// 81812 86080
AAXX 31064 67979 12580 51301 10234 20189 38/// 48/// 69944 82531 333 20189 5//// 82620 85358
AAXX 31064 67755 NIL
AAXX 31064 67771 NIL
AAXX 31064 67773 11480 70506 10221 20197 38/// 48/// 60564 70262 8457/ 333 20185 5//// 84615 87360
AAXX 31064 67774 NIL
AAXX 31064 67785 NIL
AAXX 31064 67789 11480 70102 10182 20176 38/// 48/// 60494 70262 8157/ 333 20167 5//// 81610 87459
AAXX 31064 67855 11370 50602 10232 20172 38/// 48/// 60044 82707
AAXX 31064 67857 NIL
AAXX 31064 67863 NIL
AAXX 31064 67871 NIL
AAXX 31064 67875 NIL
AAXX 31064 67891 NIL
AAXX 31064 67895 NIL
AAXX 31064 67897 NIL
AAXX 31064 67899 NIL
AAXX 31064 67951 12980 60607 10208 20170 38/// 48/// 69904 80008 333 20164 5//// 86280
AAXX 31064 67963 12480 71009 10194 20175 38/// 48/// 69904 875// 333 20175 5//// 81706 87610
AAXX 31064 67967 NIL
AAXX 31064 67971 31275 71503 10220 20191 38/// 48/// 70242 8557/ 333 20180 5//// 85610 87460
AAXX 31064 67976 12475 71508 10230 20198 38/// 48/// 69914 81132 333 20189 5//// 81812 86080
AAXX 31064 67979 12580 51301 10234 20189 38/// 48/// 69944 82531 333 20189 5//// 82620 85358
AAXX 31061 01212 16/// /1210 10014 21022 30017 40034 58024 60104 333 20013 70095 91111
BBXX A8VL8 31064 99209 11108 41596 80308 10190 20141 40210 57030 70222 887// 22200 0//// 20303 303// 40303 5//// 6//// 80160 ICE /////
BBXX MINFR00 3106/ 99086 51219 46/// ///// 10235 40152 52017
AAXX 31061 11231 31016 83102 11054 21055 39617 40215 52009 74022 333 21054 3/109 42001 81701 88702
AAXX 31061 98755 11575 83201 10268 20247 40104 55021 60121 72582 8257/ 333 56999 82620 88359
BBXX A8VL8 31064 99209 11108 41596 80308 10190 20141 40210 57030 70222 887// 22200 0//// 20303 303// 40303 5//// 6//// 80160 ICE /////
BBXX 46094 31061 99446 71243 46/// /3103 10079 90550
BBXX 46094 31061 99446 71243 46/// /3103 10080 90540
BBXX 46094 31061 99446 71243 46/// /2702 10080 90610
BBXX 46094 31061 99446 71243 46/// /3002 10081 90620
BBXX 46094 31061 99446 71243 46/// /2703 10079 90600
BBXX 46094 31061 99446 71243 46/// /3003 10081 90630
BBXX MINUK01 3106/ 99572 70019 46/// ///// 10073 49977 52026
BBXX ZCBF3 31063 99387 70163 41597 13404 10140 20080 40379 7//// 8/105 22234 20102 334// 40102 5//// 80110
AAXX 3106/ 89868 46/// ///// 10019 39745 4//// 5////
BBXX OXVA2 31063 99387 10082 41297 73235 40212 56005 70222 877// 22222 00150 20510 3//// 4//// 5////
BBXX VQNW6 31064 99028 30879 41/98 13613 10280 20244 40121 51003 701// 8///2 22233 00283 20202 327// 40503 5//// 80255
BBXX BATFR19 31064 99067 30055 46/// /1814 10234 20194 40142 53014 22200 00255
BBXX C6JE4 31063 99108 30632 41497 82929 10260 20253 40088 56001 72165 889// 22253 04280 20807 329// 40906 5//// 80255
BBXX A8KH9 31064 99115 30733 41/98 72423 10285 20230 40070 54000 70222 8471/ 22214 20506 31300 41210 5//// 80245
BBXX ONDY 31064 99119 30781 41697 73132 10300 2026/ 40060 52030 70182 872// 22213 00294 2//// 3//// 4//// 5//// 6//// 80270 /////
BBXX MIBR 31063 99149 30711 41597 71915 10275 20231 40097 53020 70122 877// 22254 00281 20302 314// 40808 5//// 80245
BBXX VRDU8 31063 99210 31100 41498 11720 10285 20184 40137 57010 70200 815// 22284 04270 20605 80220
BBXX A8ZP9 31063 99272 30424 41497 39904 10250 40140 53010 70200 82146 22264 00260 20101 320// 40502 5////
BBXX PCSV 31063 99305 30108 41798 62013 10190 20142 40207 53/// 70311 86070 22273 04181 20502 324// 40803 80160
BBXX DBBT 31061 99339 30184 46/// /1408 10207 20099 40149 52008 22260 00154
BBXX DBLK 31061 99471 30036 41/93 93013 10076 20075 49959 57010 74754 89/// 22213 04064 20505 327// 40906
BBXX SHIP 31064 99499 31100 41697 23226 10062 20016 49977 52005 70200 82841 22270 00065 10907 20506 33301 40908 51008 6/00/ 85041
BBXX 42013 31061 99272 70829 46/// ///// 1//// 40203 90620
BBXX 42013 31061 99272 70829 46/// ///// 1//// 40202 57005 90600 22200 00203
BBXX OXVA2 31063 99387 10082 41297 73235 40212 56005 70222 877// 22222 00150 20510 3//// 4//// 5////
BBXX BATFR54 31064 99451 70007 46/// /2816 10127 20120 40248 22232 00075
BBXX 61001 31064 99434 10078 46/// /1805 10126 20028 40164 57002 22200 00141 10803 70016
BBXX BATFR24 31064 99433 10054 46/// /3005 10079 20032 40202 53020 22200 00114
BBXX BATFR21 31064 99427 10089 46/// /1708 20252 40176 53005 22231
BBXX BAREU56 31064 99426 10097 46/// ///// 40179 52011 22282
BBXX 61002 31064 99421 10047 46/// ///25 10139 2//// 40222 57002 22200 00133 10707 70033 555 1/033
BBXX BATFR22 31064 99417 10086 46/// /3308 10122 40185 53006 22224 00155
BBXX ZQTP2 31064 99379 10086 41597 43135 10150 20096 40212 51011 70286 83590 22262 00160 2//// 3//// 4//// 5//// 80122
BBXX WAHV 31063 99359 10194 41499 83012 10120 2011/ 40060 55012 79286 87903 22274 00179 20302 326// 40803 80113
BBXX A8OZ4 31064 99340 10285 43698 32113 10160 20110 40120 53010 7//// 8378/ 22234 00172 20401 322// 40401 5//// 80130
BBXX BAREU63 31064 99326 10195 46/// /3010 10150 29068 40112 52003 22252
BBXX OXVA2 31063 99387 10082 41297 73235 40212 56005 70222 877// 22222 00150 20510 3//// 4//// 5////
AAXX 31064 08202 02965 01201 11032 21039 39391 42914 55006 60002 333 21036 34105 55090 60007 70000
AAXX 31061 98132 31462 70404 10222 20206 40217 57014 70544 85270 333 56199 85816 87357
AAXX 31061 98133 31470 60703 10/// 20/// 40160 5//// 71544 83230 222// 20602 333 56299 83818 83360
AAXX 31061 98222 31575 13604 10293 20241 40128 57019 70544 81200 333 56999 81820
AAXX 31061 98233 31570 70000 10265 20217 40151 57026 70544 83570 333 56999 83620 87358
AAXX 31061 98324 31465 52703 10312 20243 40126 57024 70544 83361 333 56999 81915 82816
AAXX 31061 98327 31665 60802 10307 20209 39960 40135 57025 70544 85208 333 56999 85842 86280
AAXX 31061 98334 32480 60000 10283 20260 39950 40153 57022 83230 333 56999 83818 84358
AAXX 31061 98425 31562 82702 10289 20228 40132 57021 70544 8427/ 333 56999 84820 88358
AAXX 31061 98426 31570 40805 10301 20216 40137 55019 70544 82170 333 56999 82820 84358
AAXX 31061 98427 31475 60202 10280 20240 39940 40118 57020 71622 83270 333 56199 83818 86357
AAXX 31061 98428 31465 71404 10300 20245 40132 57024 70544 83974 333 56999 81917 84359
AAXX 31061 98432 31568 30403 10305 20240 40134 57027 70544 82202 333 56199 82820
AAXX 31061 98433 31460 70706 10234 20212 39413 40135 57011 71564 85970 333 56999 85912 87357
AAXX 31061 98434 11462 83603 10265 20245 30139 40147 57018 60261 71666 8487/ 333 56199 84817 88357
AAXX 31061 98435 32470 30403 10289 20250 40135 5//// 83200 333 56199 83818
AAXX 31061 98442 NIL
AAXX 31061 98446 11480 50402 10296 20270 30090 40136 57018 69961 70282 83201 333 56199 83818 84070
AAXX 31061 98447 32480 60406 10272 20243 39871 40136 5//// 83230 333 56199 83818 86357
AAXX 31061 98538 31468 63604 10295 20249 30120 40125 58022 70544 82266 333 56119 82811 83357 86072
AAXX 31061 98546 32575 70403 10304 20269 30117 40125 57019 83268 333 56999 83820 87275
AAXX 31061 98548 32475 60703 10320 20243 30100 40106 58019 83208 333 56199 83816 86272 98323
AAXX 31061 98553 11468 73603 10291 20262 30115 40119 57017 60031 70564 83878 333 56899 83618 85358 87272
AAXX 31061 98558 11460 80410 10243 20242 40116 58019 60151 78084 8457/ 222// 20605 333 56199 84615 88357
AAXX 31061 98642 11460 80000 10280 20254 30099 40108 57020 60031 71566 8427/ 333 56199 84815 88358
AAXX 31061 98644 11465 80202 10290 20257 30104 40113 57021 69921 70564 82267 333 56199 82817 83358 88272
AAXX 31061 98648 11462 83601 10250 20239 30041 40123 57017 60091 78084 83968 333 56299 83912 85358 88270
AAXX 31061 98746 31465 81502 10328 20256 40076 58030 70544 83278 333 56299 83818 85358 87275
AAXX 31061 98751 31475 80402 10278 20221 39424 40092 57025 70544 8497/ 333 56199 84915 88356
AAXX 31061 98752 11462 52803 10303 20256 40102 57024 69901 70182 81971 333 56999 81916 83358
AAXX 31061 98851 11468 83602 10290 20253 39945 40094 57023 69951 71582 8397/ 333 56299 83918 88358
BBXX 62081 31064 99510 70134 46/// ///// 10123 20116 40112 58016 22200 00118 10708 70042
BBXX 63055 31064 99606 10016 47297 /1428 10044 20043 49961 57030 704// 22200 10606 70031
BBXX 63106 31064 99610 10017 46/// /1630 10056 49969 57029 22200
BBXX 63105 31064 99610 10017 47497 ///// 10054 20025 49972 57028 751// 22200
BBXX 62103 31064 99499 70029 46/96 /2625 10119 20111 40148 55001 22200 00119 10704 70021 333 90710 91134
BBXX 62095 31064 99530 70159 46/// ///20 1//// 2//// 40026 57020 22200 10708 70041 333 90710 91129
BBXX WYP8657 31064 99444 70828 43/98 70725 10039 2//// 40046 5//// 70222 8//// 22283 00055 20302 3//// 4//// 5//// 6//// 8//// ICE /////
BBXX WYP8657 31064 99444 70828 43/98 70725 10039 2//// 40046 5//// 70222 8//// 22283 00055 20302 3//// 4//// 5//// 6//// 8//// ICE /////
BBXX PHOB 31064 99059 10829 41/97 60000 10300 20274 40108 58017 70211 8/178 22263 00270 2//// 325// 40201 5//// 80280
BBXX 42013 31061 99272 70829 46/// ///// 1//// 40203 90620
BBXX 42013 31061 99272 70829 46/// ///// 1//// 40202 57005 90600 22200 00203
BBXX OXVA2 31063 99387 10082 41297 73235 40212 56005 70222 877// 22222 00150 20510 3//// 4//// 5////
BBXX MINFR00 3106/ 99086 51219 46/// ///// 10235 40152 52017
BBXX SKEC 31061 99575 10178 46/// ///// 10010 40027 52002 22231 00048
AAXX 3106/ 89869 46/// ///// 10048 39741 4//// 5//// 90630
AAXX 3106/ 89329 46/// ///// 11104 38628 4//// 5//// 90630
AAXX 3106/ 89799 46/// ///// 11245 4//// 5//// 90630
AAXX 3106/ 89327 46/// ///// 11040 39538 4//// 5//// 90630
AAXX 3106/ 89828 46/// ///// 11121 36554 4//// 5//// 90630
AAXX 3106/ 89828 46/// ///// 11121 36554 4//// 5//// 90640
AAXX 3106/ 89108 46/// ///// 11221 36921 4//// 5//// 90630
AAXX 3106/ 89879 46/// ///// 10061 39746 4//// 5//// 90630
AAXX 3106/ 89332 46/// ///// 11026 39107 4//// 5//// 90630
AAXX 31064 89003 46/89 /3209 11079 29064 39068 4//// 5////
AAXX 31064 89507 46/89 /1109 11249 29074 36811 4//// 5////
BBXX 42369 31061 99272 70903 46/// /2201 1//// 90540 22200 10401 70005
BBXX 42370 31061 99273 70905 46/// ///// 10221 90540 22200 10401 70006
BBXX 42376 31061 99291 70879 46/// /2207 10212 40177 90540 22200 10201 70007
BBXX 42392 31061 99272 70900 46/// ///// 1//// 90540 22200 10401 70006
BBXX 42887 31061 99282 70885 46/// /3004 10226 90540 22200 10401 70006
BBXX 64045 31064 99591 70117 46/// /2020 10088 20066 49880 58039 22200 00100 10708 70042 333 90710 91128
BBXX BATEU08 31064 99588 70129 46/// /2033 10084 20072 49859 56042 22223
BBXX 62112 31064 99584 70002 47394 /2315 10078 20072 49962 58008 762// 22200
BBXX 62113 31064 99584 10002 47295 /2213 10074 20068 49966 57013 762// 22200
BBXX 62129 31064 99584 10003 46/// ///// 10074 20069 49966 57013 22200
BBXX 62114 31064 99583 10000 46/// /2215 10076 20072 49964 57009 22200
BBXX PJAI 31064 99581 70014 47498 /2315 10092 20064 49960 50000 700// 22200
BBXX 62111 31064 99580 70003 46/// /2515 10078 20070 49974 58001 22200 10605 70023
BBXX 62117 31064 99579 10000 47296 /2314 10078 20069 49973 57008 751// 22200 10605 70023
BBXX MINUK05 3106/ 99571 70021 46/// ///// 10073 49977 54000
BBXX BATUK01 31064 99560 70032 46/// /2505 10092 20042 40003 58003 22200 00059
BBXX BATFR04 31064 99558 70076 46/// /2120 10102 20090 49998 58005 22232 00107
BBXX 62105 31064 99554 70122 46/// /2323 10111 20107 49972 57032 22200 00106 10809 70045 333 90710 91130
BBXX 62095 31064 99530 70159 46/// /2320 10119 20117 40026 57020 22200 00111 10708 70041 333 90710 91129
BBXX 62301 31064 99524 70047 46/// /2414 10100 20093 40094 57010 22200 00095 10603 70016
BBXX 62094 31064 99517 70067 46/// /2424 10112 20108 40110 58017 22200 00106 10505 70023 333 90710 91133
BBXX 62303 31064 99516 70051 46/// /2620 10114 20107 40114 58011 22200 00110 10605 70025 333 90710 91127
BBXX 62023 31063 99514 70079 46/96 /2527 10109 2//// 40128 5//// 22200 10505 70025 333 91134 555 70051 81005
BBXX 62081 31064 99510 70134 46/// ///// 10123 20116 40112 58016 22200 00118 10708 70042
BBXX BATFR02 31064 99508 70011 46/// /2624 10109 20089 40128 58002 22283 00102
BBXX 62305 31064 99504 10000 46/98 /2624 10118 20108 40129 52003 22200 00115 10703 70017 333 90710 91132
BBXX VRFX8 31064 99503 70138 41/95 /2715 10130 20110 40150 54000 74544 8//// 22224 0//// 2//// 3//// 4//// 80120
BBXX ZNQO3 31060 99503 70009 41/97 82512 10120 20101 40138 52020 70222 8//// 22264 04111 2//// 3//// 4//// 5//// 80110
BBXX 62107 31064 99501 70061 46/// /2627 10117 20112 40155 57012 22200 00116 10705 70024 333 90710 91136
BBXX 62103 31064 99499 70029 46/96 /2625 10119 20111 40148 55001 22200 00119 10704 70021 333 90710 91134
BBXX C6KD6 31064 99499 70023 41/97 92724 10125 20114 40151 57020 71044 8972/ 22224 02113 20607 80119
BBXX BATFR03 31064 99493 70002 46/// /2829 10109 20107 40150 52016 22243
BBXX 62027 31064 99491 70022 46/// /2818 1//// 2//// 40171 58004 22200 00108 10805 330// 70025
BBXX 62442 31064 99490 70164 46/// /2321 1//// 2//// 40152 58019 22200 00122 333 90710 91129
BBXX BATFR14 31064 99490 70054 44/96 92826 10122 20117 40179 53005 70044 22254 00119 20308 60000 ICE 0/0//
BBXX TESTFR9 31064 99489 70038 46/// /2628 10123 29100 40200 52006 22254
BBXX 62029 31064 99487 70125 46/// /2423 10131 20126 40184 56012 22200 00126 10707 70035 333 90710 91129
BBXX MYSU5 31064 99480 70092 41/97 81135 10135 20126 40195 54000 70222 8//// 22253 00130 20707 3//// 4//// 5//// 80130
BBXX A8RL2 31064 99476 70097 41/97 /2721 10135 40230 57020 70022 8//// 22214 04135 2//06
BBXX 62163 31064 99475 70084 46/// /2520 10121 20111 40224 57014 22200 00125 10807 70035 333 90710 91128
BBXX BATEU01 31064 99470 70121 44796 82526 10137 20124 40217 56005 72022 886// 22254 00130 20806 325// 40806 5////
BBXX WDC6907 31064 99466 70087 41/// /2730 10138 2013/ 40242 52001 700// 8//// 22253 00140 2//// 3//// 4//// 5//// 6//// 80135 /////
BBXX BAREU08 31064 99460 70124 46/// ///// 40250 57008 22254
BBXX BATFR60 31064 99453 70008 46/// /2714 10129 20120 40237 55009 22243 00084
BBXX 62001 31064 99452 70050 46/// /2618 10136 20129 40264 56011 22200 00129 10707 70035 333 90710 91125
BBXX PHBO 31063 99451 70181 41/97 52321 10147 20138 40260 58019 75065 8//// 22214 20503 326// 41203 80142
BBXX MCUV3 31063 99451 70131 41498 32728 10140 20122 40271 57005 70211 81145 22253 2//08 327// 4//08 5//// 80130
BBXX BATFR54 31064 99451 70007 46/// /2816 10127 20120 40248 22232 00075
BBXX DEDI 31064 99445 70276 41/96 82942 10149 20142 40220 52007 70122 8//// 22224 00156 2//// 322// 41006 80145
BBXX DEDI 31063 99445 70275 41/96 82226 10149 20142 40220 52007 70122 8//// 22224 00156 2//// 322// 41006 80145
BBXX BATFR27 31064 99437 70038 46/// /2625 10145 20094 40290 55010 22245 00144
BBXX DGZT2 31063 99429 70098 41/98 /2506 10135 20118 40320 57020 70182 8//// 22284 04150 2//// 80125
BBXX WDD3826 31064 99407 70271 41398 62324 10180 2016/ 40315 52010 7//22 867// 22254 00130 20302 323// 40704 5//// 6//// 80170 /////
BBXX A8IN9 31063 99399 70243 41/97 /2321 10170 20149 40319 56009 700// 8//// 22254 06160 20502 327// 41103 5//// 80158
BBXX BAREU05 31064 99388 70165 46/// ///// 40369 57010 22224
BBXX BATFR09 31064 99367 70090 44/98 03617 10132 20027 40334 53007 70200 22263 00177 20404 60//0 ICE 0/0//
BBXX PDMK 31063 99359 70066 41998 00510 10151 20104 40317 54000 70200 80000 22223 02154 20000 30000 80124
BBXX WYR4481 31064 99471 70907 41/98 82006 11026 41000 70222 22252 20100
BBXX 42392 31061 99272 70900 46/// ///// 1//// 90540 22200 10401 70006
BBXX 42376 31061 99291 70879 46/// /2207 10212 40177 90540 22200 10201 70007
BBXX 42370 31061 99273 70905 46/// ///// 10221 90540 22200 10401 70006
BBXX 42887 31061 99282 70885 46/// /3004 10226 90540 22200 10401 70006
BBXX 42369 31061 99272 70903 46/// /2201 1//// 90540 22200 10401 70005
BBXX WYR4481 31064 99471 70907 41/98 82006 11026 41000 70222 22252 20100
BBXX SKEC 31061 99575 10178 46/// ///// 10010 40027 52002 22231 00048
BBXX VRFH2 31063 99370 71445 41397 53225 10090 20030 40200 5//// 70200 842// 22215 00/// 20305 332// 40205 80060
BBXX A8SZ5 31064 99054 11197 41697 40218 10310 20257 40090 57020 703// 8/4// 22283 00/// 2//02 80270
BBXX VRFH2 31063 99370 71445 41397 53225 10090 20030 40200 5//// 70200 842// 22215 00/// 20305 332// 40205 80060
BBXX A8SZ5 31064 99054 11197 41697 40218 10310 20257 40090 57020 703// 8/4// 22283 00/// 2//02 80270
AAXX 31064 16219 42475 30144 11058 21079 38058 48455 55/// 6///2 83200 333 21058 41008 55/// 2//// 83610 9500/ 9510/ 92846
BBXX 63106 31064 99610 10017 46/// /1630 10056 49969 57029 22200
BBXX 63113 31064 99610 10017 46/// /1732 10055 20026 49971 57028 22200 10607 70033
BBXX 2AUO5 31063 99606 10016 41296 81629 10061 20050 49971 57028 76366 887// 22241 20604 316// 41007 80056
BBXX 62081 31064 99510 70134 46/// ///// 10123 20116 40112 58016 22200 00118 10708 70041
BBXX 62103 31064 99499 70029 46/98 /2724 10119 20110 40148 50000 22200 00119 10704 70018 333 90710 91133
BBXX 62095 31064 99530 70159 46/// /2320 10119 20117 40026 57020 22200 00111 10708 70041 333 90710 91129
BBXX 64049 31063 99571 10022 41/97 81726 10075 20075 49990 58023 75252 8//// 22200 20606 3//// 4//// 5//// 80075
AAXX 31064 17375 12570 63602 10102 20093 30129 40131 52007 60022 83250 333 20090 32007 50041 55000 70244 83830 86360 91107 92428
BBXX VTXB 31063 99125 10839 41397 52623 10280 20257 40080 54000 70302 82231 22273
BBXX GRFP 31064 99220 31697 41498 81813 10240 20225 40115 54000 7//// 87578 22284 00240 20301 30432 40301 50301 80230
BBXX GRFP 31064 99220 31697 41498 81813 10240 20225 40115 54000 7//// 87578 22284 00240 20301 30432 40301 50301 80230
BBXX A8SZ5 31064 99054 11197 41697 40218 10310 20257 40090 57020 703// 8/4// 22283 00/// 2//02 80270
BBXX 64049 31063 99571 10022 41/97 81726 10075 20075 49990 58023 75252 8//// 22200 20606 3//// 4//// 5//// 80075
BBXX VRFH2 31063 99370 71445 41397 53225 10090 20030 40200 5//// 70200 842// 22215 00/// 20305 332// 40205 80060
AAXX 31064 89257 46/// /1902 11089 21110 39740 49811 5//// 90640
AAXX 31064 89262 46/// /1409 11013 21017 39685 49728 52018 90640
AAXX 31064 89262 46/// /1409 11015 21018 39684 49727 52018 90630
AAXX 31061 31513 42999 03602 11230 21249 30074 40321 57003
AAXX 31064 13601 12660 80000 10038 20038 39954 40056 54002 60002 8342/ 333 20036 31/// 83640 86460
AAXX 31064 60141 32960 01808 10011 21028 39644 40348 55000 333 20001 33104
AAXX 31064 89013 46/// /0712 11204 21236 37602 49624 52003 90630
AAXX 31064 89257 46/// /2002 11088 21111 39740 49810 5//// 90630
AAXX 31064 89262 46/// /1409 11015 21018 39684 49727 52018 90630
AAXX 31064 89272 46/// /0708 11188 21212 37975 49641 52007 90640
AAXX 31064 91375 46/// /0507 10252 40082 22200 00280
BBXX 42369 31061 99272 70903 46/// /2201 1//// 90600 22200 10401 70006
BBXX 42370 31061 99273 70905 46/// ///// 10221 90600 22200 10401 70006
AAXX 31064 71720 16/// /0000 11002 21013 30038 40192 53045 60001 333 10078 21005 70008 555 31129 40072
AAXX 31064 91165 12566 63004 10194 20172 30145 40182 53005 69981 90553
AAXX 31064 91203 32474 70108 10318 20257 30104 40109 56015 82277
AAXX 31064 91212 12566 80707 10256 20217 31368 40104 56010 69951 90554
AAXX 31064 91245 32966 00812 10270 20220 30137 90550
AAXX 31064 91285 32666 80000 10211 20189 30165 40178 52012 90553
AAXX 31064 91324 32474 80909 10317 20266 30061 40063 83201
AAXX 31064 91334 32474 60409 10322 20243 30069 40072 55005 83101
AAXX 31064 91367 11474 80808 10283 20253 69911 70262 85235
AAXX 31064 91376 11474 80611 10263 20245 30080 40083 53015 69931 72582 84878
AAXX 31064 91408 11474 81106 10289 20244 30042 40080 57014 60021 72582 86978
AAXX 31064 91413 32469 80813 10292 20227 30069 40095 55003 83878
AAXX 31064 91610 11599 21010 10285 20239 40082 53016 60001 70100 81110
AAXX 31064 91155 NIL
AAXX 31064 91217 NIL
AAXX 31064 91232 NIL
AAXX 31064 91250 NIL
AAXX 31064 91275 NIL
AAXX 31064 91317 NIL
AAXX 31064 91339 NIL
AAXX 31064 91348 NIL
AAXX 31064 91353 NIL
AAXX 31064 91356 NIL
AAXX 31064 91366 NIL
AAXX 31064 91369 NIL
AAXX 31064 91371 NIL
AAXX 31064 91378 NIL
AAXX 31064 91425 NIL
AAXX 31064 91434 NIL
AAXX 31064 91601 NIL
BBXX 42376 31061 99291 70879 46/// /2307 10212 40178 56003 90600 22200 10201 70007
BBXX 42392 31061 99272 70900 46/// ///// 1//// 90600 22200 10501 70006
BBXX 42887 31061 99282 70885 46/// /3004 10225 90600 22200 10401 70006
BBXX VRFH2 31063 99370 71445 41397 53225 10090 20030 40200 5//// 70200 842// 22215 00/// 20305 332// 40205 80060
BBXX 62081 31064 99510 70134 46/// ///// 10123 20116 40112 58016 22200 00118 10708 70042
BBXX PJGO 31064 99571 10022 47/95 /1521 10065 20054 40004 57023 762// 22200
BBXX 63055 31064 99606 10016 47297 /1428 10044 20043 49961 57030 704// 22200 10606 70031
BBXX 63106 31064 99610 10017 46/// /1630 10056 49969 57029 22200
BBXX 63105 31064 99610 10017 47497 ///// 10054 20025 49972 57028 751// 22200
BBXX 62103 31064 99499 70029 46/96 /2625 10119 20111 40148 55001 22200 00119 10704 70021 333 90710 91134
BBXX 62095 31064 99530 70159 46/// ///20 1//// 2//// 40026 57020 22200 10708 70041 333 90710 91129
BBXX PHET 31061 99145 70716 41/98 /0917 10268 20213 40130 58010 7//// 8//// 22274 00280 2//// 325// 4//// 5////
AAXX 31064 91165 12566 63004 10194 20172 30145 40182 53005 69981 90553
AAXX 31064 91212 12566 80707 10256 20217 31368 40104 56010 69951 90554
AAXX 31064 91285 32666 80000 10211 20189 30165 40178 52012 90553
AAXX 31064 91334 32474 60409 10322 20243 30069 40072 55005 83101
AAXX 31064 91376 11474 80611 10263 20245 30080 40083 53015 69931 72582 84878
AAXX 31064 91408 11474 81106 10289 20244 30042 40080 57014 60021 72582 86978
AAXX 31064 91413 32469 80813 10292 20227 30069 40095 55003 83878
AAXX 31064 91245 32966 00812 10270 20220 30137 90550
BBXX 42392 31061 99272 70900 46/// ///// 1//// 90600 22200 10501 70006
BBXX 42887 31061 99282 70885 46/// /3004 10225 90600 22200 10401 70006
BBXX 42376 31061 99291 70879 46/// /2307 10212 40178 56003 90600 22200 10201 70007
BBXX 42369 31061 99272 70903 46/// /2201 1//// 90600 22200 10401 70006
BBXX 42370 31061 99273 70905 46/// ///// 10221 90600 22200 10401 70006
BBXX PHET 31061 99145 70716 41/98 /0917 10268 20213 40130 58010 7//// 8//// 22274 00280 2//// 325// 4//// 5////
BBXX VTXB 31063 99125 10839 41397 52623 10280 20257 40080 54000 70302 82231 22273
BBXX GRFP 31064 99220 31697 41498 81813 10240 20225 40115 54000 7//// 87578 22284 00240 20301 30432 40301 50301 80230
AAXX 31064 13600 12760 60908 10040 20017 30039 40092 56002 60002 86500 333 20030 30/// 86650
AAXX 31064 13622 11660 80000 10070 20061 30060 40067 54002 60002 70266 885// 333 20052 31/// 88636
AAXX 31064 13610 11906 00000 11016 21035 39708 40147 54000 60012 77122 333 21018 3/000 47001
AAXX 31064 13624 12970 80000 10038 20031 30035 40075 54002 60002 8802/ 333 20026 31/// 88460
AAXX 31064 13619 11910 00000 11030 21034 39325 42721 54000 60002 74542 333 21064 34///
BBXX KNJK 31063 99265 70865 41798 10211 20168 40180 54000 70200 821// 22223 00228 20201 313// 40401 5//// 6//// 80183 ICE /////
AAXX 31064 78762 32970 01013 10210 20150 39087 40090 57016 333 10278 20210 30/// 59012
BBXX KNJK 31063 99265 70865 41798 2139 10211 20168 40180 54000 70200 821// 22223 00228 20201 313// 40401 5//// 6//// 80183 ICE /////
AAXX 31064 78762 32970 01013 10210 20150 39087 40090 57016 333 10278 20210 30/// 59012
AAXX 31064 78762 32970 01013 10210 20150 39087 40090 57016 333 10278 20210 30/// 59012
AAXX 31064 13629 11630 81402 10000 20000 39014 42682 57010 60022 71077 885// 333 21024 47013 88640
AAXX 31064 13623 12960 60000 10026 20005 30121 40127 57004 60002 86050 333 20020 30/// 86360
AAXX 31064 62337 32960 01606 10093 20070 40179 52006 333 20070
AAXX 31064 13611 12662 40000 10062 21005 39973 40064 52006 60002 84500 333 20048 30/// 84636
BBXX 63106 31064 99610 10017 46/// /1630 10056 49969 57029 22200
BBXX 63113 31064 99610 10017 46/// /1732 10055 20026 49971 57028 22200 10607 70033
BBXX 2AUO5 31063 99606 10016 41296 81629 10061 20050 49971 57028 76366 887// 22241 20604 316// 41007 80056
BBXX 62081 31064 99510 70134 46/// ///// 10123 20116 40112 58016 22200 00118 10708 70041
BBXX 62103 31064 99499 70029 46/98 /2724 10119 20110 40148 50000 22200 00119 10704 70018 333 90710 91133
BBXX 62095 31064 99530 70159 46/// /2320 10119 20117 40026 57020 22200 00111 10708 70041 333 90710 91129
BBXX 64049 31063 99571 10022 41/97 81726 10075 20075 49990 58023 75252 8//// 22200 20606 3//// 4//// 5//// 80075
AAXX 31064 13625 11903 00000 10014 21011 39853 40090 57015 60032 74544 333 20010 31///
AAXX 31064 67215 32575 73507 10295 20246 40129 81106 333 20255 50980 55113 58007 94310 555 10000
BBXX ONAN 31064 99336 11242 41597 83416 10080 2004/ 40250 57015 71211 8822/ 22273 00100 20301 335// 40212 5//// 6//// 80060 ICE /////
BBXX KNJK 31063 99265 70865 41798 10211 20168 40180 54000 70200 821// 22223 00228 20201 313// 40401 5//// 6//// 80183 ICE /////
BBXX ONAN 31064 99336 11242 41597 83416 10080 2004/ 40250 57015 71211 8822/ 22273 00100 20301 335// 40212 5//// 6//// 80060 ICE /////
BBXX 52243 31061 99193 11666 46/// ///// 1//// 90600 22200 00271
BBXX 51179 31061 99143 51708 46/// ///// 1//// 90600 22200 00288
BBXX 51178 31061 99142 51695 46/// ///// 1//// 90600 22200 00286
BBXX 52246 31061 99152 11457 46/// ///// 1//// 90600 22200 00282
BBXX 51176 31061 99278 71758 46/// ///// 1//// 90600 22200 00238
BBXX 52245 31061 99181 11458 46/// ///// 1//// 90600 22200 00281
BBXX 51174 31061 99142 51697 46/// ///// 1//// 90600 22200 00285
BBXX 52244 31061 99200 11452 46/// ///// 1//// 90600 22200 00268
BBXX 51173 31061 99260 71739 46/// ///// 1//// 90600 22200 00249
BBXX 51172 31061 99284 71783 46/// ///// 1//// 90600 22200 00224
BBXX 51171 31061 99064 71623 46/// ///// 1//// 90600 22200 00276
BBXX 51170 31061 99168 71695 46/// ///// 1//// 90600 22200 00259
BBXX 51169 31061 99004 51600 46/// ///// 1//// 90600 22200 00253
BBXX 52248 31061 99135 11448 46/// ///// 1//// 90600 22200 00286
BBXX 42369 31061 99272 70903 46/// /2201 1//// 90620 22200 10401 70006
BBXX 42370 31061 99273 70905 46/// ///// 10221 90620 22200 10401 70006
BBXX 42376 31061 99291 70879 46/// /2307 10212 40178 90620 22200 10201 70007
BBXX 42392 31061 99272 70900 46/// ///// 1//// 90620 22200 10501 70006
BBXX 42887 31061 99282 70885 46/// /3105 10225 90620 22200 10401 70006
AAXX 3106/ 68902 46/// ///// 40129 54000
AAXX 31064 60185 32960 /1003 10041 20031 40281 5//// 8//// 333 20039 30001 8////
BBXX DBBH 31061 99382 10156 41398 73006 10103 20051 40106 52021 70398 868// 22251 04159 200//
BBXX 62081 31064 99510 70134 46/// ///// 10123 20116 40112 58016 22200 00118 10708 70042
BBXX PJGO 31064 99571 10022 47/95 /1521 10065 20054 40004 57023 762// 22200
BBXX 63055 31064 99606 10016 47297 /1428 10044 20043 49961 57030 704// 22200 10606 70031
BBXX 63106 31064 99610 10017 46/// /1630 10056 49969 57029 22200
BBXX 63105 31064 99610 10017 47497 ///// 10054 20025 49972 57028 751// 22200
BBXX 62103 31064 99499 70029 46/96 /2625 10119 20111 40148 55001 22200 00119 10704 70021 333 90710 91134
BBXX 62095 31064 99530 70159 46/// ///20 1//// 2//// 40026 57020 22200 10708 70041 333 90710 91129
AAXX 3106/ 89879 46/// ///// 10078 39746 4//// 5////
BBXX 52246 31061 99152 11457 46/// ///// 1//// 90600 22200 00282
BBXX 52244 31061 99200 11452 46/// ///// 1//// 90600 22200 00268
BBXX 52245 31061 99181 11458 46/// ///// 1//// 90600 22200 00281
BBXX 52243 31061 99193 11666 46/// ///// 1//// 90600 22200 00271
BBXX 52248 31061 99135 11448 46/// ///// 1//// 90600 22200 00286
BBXX 42376 31061 99291 70879 46/// /2307 10212 40178 90620 22200 10201 70007
BBXX 42392 31061 99272 70900 46/// ///// 1//// 90620 22200 10501 70006
BBXX 42887 31061 99282 70885 46/// /3105 10225 90620 22200 10401 70006
BBXX 42370 31061 99273 70905 46/// ///// 10221 90620 22200 10401 70006
BBXX 42369 31061 99272 70903 46/// /2201 1//// 90620 22200 10401 70006
BBXX 51176 31061 99278 71758 46/// ///// 1//// 90600 22200 00238
BBXX 51172 31061 99284 71783 46/// ///// 1//// 90600 22200 00224
BBXX 51173 31061 99260 71739 46/// ///// 1//// 90600 22200 00249
BBXX DBBH 31061 99382 10156 41398 73006 10103 20051 40106 52021 70398 868// 22251 04159 200//
BBXX 51174 31061 99142 51697 46/// ///// 1//// 90600 22200 00285
BBXX 51178 31061 99142 51695 46/// ///// 1//// 90600 22200 00286
BBXX 51169 31061 99004 51600 46/// ///// 1//// 90600 22200 00253
BBXX 51179 31061 99143 51708 46/// ///// 1//// 90600 22200 00288
BBXX 51170 31061 99168 71695 46/// ///// 1//// 90600 22200 00259
BBXX 51171 31061 99064 71623 46/// ///// 1//// 90600 22200 00276
BBXX DBBH 31061 99382 10156 41398 73006 10103 20051 40106 52021 70398 868// 22251 04159 200//
OOXX AAEMI 31064 99785 31731 57083 00521 46/// /2504 11014 21093 39780 49844 52001 90550
OOXX AAVIT 31064 99785 31778 57087 00501 46/// /2211 11045 21081 39741 49803 57001 90550
OOXX AAERI 31064 99849 51288 60048 09901 46/// /0928 11104 21117 38665 49780 57003 90550
OOXX AAMIZ 31064 99707 30443 58304 22602 46/// /0812 11066 2//// 37472 49636 52014 90540
OOXX AAPEG 31064 99779 31666 57186 00051 46/// /3307 10014 21031 39804 49810 57005 90550
OOXX AABRI 31064 99839 51342 60134 05251 46/// /0806 11065 2//// 39105 49717 54000 90550
OOXX AALAU 31064 99775 31708 57070 00371 46/// /2506 11005 21086 39765 49810 54000 90550
OOXX AAERC 31064 99815 31639 60713 00451 46/// /3505 11006 21080 39729 49784 57003 90550
BBXX ONAN 31064 99336 11242 41597 83416 10080 20040 40250 57015 71211 8822/ 22273 00100 20301 335// 40212 5//// 6//// 80060 ICE /////
AAXX 31064 89108 46/// /3208 11221 36919 4//// 52002 90550
AAXX 31064 89327 46/// /0000 11040 39507 49785 5//// 90550
AAXX 31064 89329 46/// /0005 11106 38624 49684 52010 90550
AAXX 31064 89332 46/// /0000 11019 39105 49700 52007 90550
AAXX 31064 89376 46/// /2115 11031 39701 49767 52002 90550
AAXX 31064 89667 46/// /3307 10014 39804 49814 57005 90550
AAXX 31064 89734 46/// /2404 11283 36023 4//// 5//// 90550
AAXX 31064 89744 46/// /3209 11243 36431 4//// 52011 90550
AAXX 31064 89769 46/// /2206 10009 39749 49800 57002 90550
AAXX 31064 89865 46/// ///// 1//// 3//// 4//// 5//// 90550
AAXX 31064 89869 46/// ///01 11005 39718 49795 52001 90550
AAXX 31064 89872 46/// /2507 10004 39748 49803 57003 90550
AAXX 31064 89879 46/// ///02 10081 39707 49742 52001 90550
BBXX 63106 31064 99610 10017 46/// /1630 10056 49969 57029 22200
BBXX 63113 31064 99610 10017 46/// /1732 10055 20026 49971 57028 22200 10607 70033
BBXX 2AUO5 31063 99606 10016 41296 81629 10061 20050 49971 57028 76366 887// 22241 20604 316// 41007 80056
BBXX 62081 31064 99510 70134 46/// ///// 10123 20116 40112 58016 22200 00118 10708 70041
BBXX 62103 31064 99499 70029 46/98 /2724 10119 20110 40148 50000 22200 00119 10704 70018 333 90710 91133
BBXX 62095 31064 99530 70159 46/// /2320 10119 20117 40026 57020 22200 00111 10708 70041 333 90710 91129
BBXX 64049 31063 99571 10022 41/97 81726 10075 20075 49990 58023 75252 8//// 22200 20606 3//// 4//// 5//// 80075
AAXX 31064 97310 32568 31806 10302 20256 30068 40080 57024 83101 333 56000 83820
AAXX 31064 97760 32458 70000 10270 20250 30082 40091 54000 83932 333 56000 57901 81915 82816 80960
AAXX 31064 60105 32950 00000 10056 20050 40326 5//// 333 20050
BBXX 46208 31061 99525 71327 46/// /3105 1//// 40190 52031 22200 0//// 1//// 70/// 333 91207
BBXX 46145 31061 99544 71324 46/// /2610 1//// 40159 52038 22200 0//// 1//// 70/// 333 91214
BBXX 46145 31061 99544 71324 46/// /2610 1//// 40159 52038 22200 0//// 1//// 70/// 333 91214
BBXX 46208 31061 99525 71327 46/// /3105 1//// 40190 52031 22200 0//// 1//// 70/// 333 91207
AAXX 31064 96837 21557 83104 10294 20259 30074 40077 56007 76062 86376 333 56000 57900 60047 81920 85823
AAXX 31061 29789 42699 80000 11063 21117 39097 40302 54000 82931
AAXX 31061 23921 32699 72002 11056 21070 30054 40175 52014 83530 333 21113
BBXX 46145 31061 99544 71324 46/// /2610 1//// 40159 52038 22200 0//// 1//// 70/// 333 91214
BBXX 46208 31061 99525 71327 46/// /3105 1//// 40190 52031 22200 0//// 1//// 70/// 333 91207
AAXX 31061 01065 11610 80304 11037 21053 39872 40037 52017 60022 78688 888// 333 21055 47028 70029 91110
AAXX 31061 24790 41999 00000 11485 21499 39450 40430 57003 77670
AAXX 31063 63612 32580 60000 10246 20083 40162 8253/ 333 20184 59001 82627 85359
BBXX MINFR05 3106/ 99055 10000 46/// ///// 10243 40130 52013
AAXX 31061 28661 42998 82205 11079 21136 30211 40307 52014 80001
AAXX 31061 30309 42998 82601 11118 21131 39771 40316 52016 83041
AAXX 31064 89065 46/// /9901 11034 21063 39649 49726 52012 90550
AAXX 31061 28655 42998 72303 11053 21135 30076 40306 52008 80002
AAXX 31061 25745 42698 50901 11364 21394 30188 40247 53004 85500
AAXX 31061 89065 46/// /9901 11034 21063 39649 49726 52012 90550
BBXX 62081 31064 99510 70134 46/// ///// 10123 20116 40112 58016 22200 00118 10708 70042
BBXX PJGO 31064 99571 10022 47/95 /1521 10065 20054 40004 57023 762// 22200
BBXX 63055 31064 99606 10016 47297 /1428 10044 20043 49961 57030 704// 22200 10606 70031
BBXX 63106 31064 99610 10017 46/// /1630 10056 49969 57029 22200
BBXX 63105 31064 99610 10017 47497 ///// 10054 20025 49972 57028 751// 22200
BBXX 62103 31064 99499 70029 46/96 /2625 10119 20111 40148 55001 22200 00119 10704 70021 333 90710 91134
BBXX 62095 31064 99530 70159 46/// ///20 1//// 2//// 40026 57020 22200 10708 70041 333 90710 91129
AAXX 31061 26518 11156 83402 11006 21006 40061 52015 69962 72876 886// 333 21007 42997 88702 91003 91104 555 53005 7996/
BBXX MINFR05 3106/ 99055 10000 46/// ///// 10243 40130 52013
AAXX 31064 71723 16/// /0510 11068 21118 30163 40173 56013 60001 333 11068 21206 70000
AAXX 31064 71724 16/// /0615 11058 21093 30167 40175 58013 60001 333 11057 21201 70000 555 30620 40051
AAXX 31061 23074 41997 81907 11120 21140 30009 40034 52019 77187 8802/
BBXX 46145 31061 99544 71324 46/// /2610 1//// 40159 52038 22200 0//// 1//// 70/// 333 91214
BBXX 46208 31061 99525 71327 46/// /3105 1//// 40190 52031 22200 0//// 1//// 70/// 333 91207
AAXX 31061 28791 12999 32504 11103 21123 30153 40305 52020 69900 83040 333 21142
AAXX 31064 97096 01460 80000 10298 20243 30079 40100 57020 60291 70262 8222/ 333 56009 57803 60297 82816 88460 80857
AAXX 31061 33325 31596 60000 11008 21015 39839 40112 52007 71042 83530 333 21010 93401
AAXX 31061 01218 11787 61507 10018 21095 30030 40052 55016 69922 70182 83280 333 21029 42003 70070 91113
AAXX 31064 71971 16/// /0601 11364 21400 30021 40069 53001 60001 333 11296 21372 70000
AAXX 31061 33325 31596 60000 11008 21015 39839 40112 52007 71042 83530 333 21010 93401
BBXX 63106 31064 99610 10017 46/// /1630 10056 49969 57029 22200
BBXX 63113 31064 99610 10017 46/// /1732 10055 20026 49971 57028 22200 10607 70033
BBXX 2AUO5 31063 99606 10016 41296 81629 10061 20050 49971 57028 76366 887// 22241 20604 316// 41007 80056
BBXX 62081 31064 99510 70134 46/// ///// 10123 20116 40112 58016 22200 00118 10708 70041
BBXX 62103 31064 99499 70029 46/98 /2724 10119 20110 40148 50000 22200 00119 10704 70018 333 90710 91133
BBXX 62095 31064 99530 70159 46/// /2320 10119 20117 40026 57020 22200 00111 10708 70041 333 90710 91129
BBXX 64049 31063 99571 10022 41/97 81726 10075 20075 49990 58023 75252 8//// 22200 20606 3//// 4//// 5//// 80075
AAXX 31064 41264 36/70 /0808 10213 20090 39841 40212 333 0E017 20140 58005
AAXX 31064 97698 32462 70312 10316 20251 30053 40060 57026 84942 333 56000 57902 57802 81916 83817 86079 80970 80862
AAXX 31064 67231 12270 80000 10238 20226 39459 48502 60234 882// 333 20210 5///0 55/// 58044 94378 555 00233 10150
AAXX 31064 67283 32580 6//// 10286 20251 40125 84230 333 20226 5///0 55107 58001 555 10000
AAXX 31064 67301 32475 80406 10200 20186 39054 48/// 888// 333 20180 50/// 55/// 58004 94382 555 10384
AAXX 31064 67243 12570 82707 10198 20172 4//// 60644 8623/ 333 20176 50/// 55/// 5//// 94320 555 00643 10000
AAXX 31064 87648 32960 00506 10178 20165 30118 40129 52003
AAXX 31064 97748 11459 72506 10295 20250 30054 40056 56002 60101 72992 84946 333 56600 57960 81914 83815 86358 80940 80850
AAXX 31064 78982 01480 50914 10260 20229 30123 40128 57009 69921 72522 83231 333 59006 69927 83817 85081
AAXX 31064 62600 32970 73607 10170 20070 39970 40191 80007 10305 20140 56009 58026 87275
AAXX 31064 62640 32970 00403 10220 20090 39764 40124 10336 20175 58000
AAXX 31064 62641 31960 22706 10250 20220 30127 40175 70611 83040 10292 20194 56090 58000 82365
AAXX 31064 62650 32970 73611 10190 21020 39875 40152 80007 10336 201650 56009 58012 87275
AAXX 31064 62660 32970 73405 10200 20070 39844 40148 80007 10345 20175 65009 58000 87275
AAXX 31064 62680 31968 00905 10240 20140 39730 40126 70600 10375 20208 58006
AAXX 31064 62721 31958 70208 10255 20105 39686 40125 70622 80007 10380 20210 56009 58007 87275
AAXX 31064 62730 32970 00906 10275 20115 39587 40146 10400 20235 58005
AAXX 31064 62733 32970 03603 10225 20085 39606 40117 10350 20190 59007
AAXX 31064 62750 32970 70209 10240 20120 39664 40092 80007 10375 20225 56009 58L001 87275
AAXX 31064 62751 32970 70304 10267 20053 39662 40123 80007 10402 20210 56009 58006 87275
AAXX 31064 62752 32970 00401 10250 20095 39443 40116 10405 20210 58016
AAXX 31064 62760 32970 73203 10160 21030 39310 40142 80007 10346 20135 56009 59001 87275
AAXX 31064 62762 32970 70506 10205 20095 39625 40104 80007 10393 20150 56009 58015 87275
AAXX 31064 62770 31968 70510 1090 20106 39234 40137 706I22 80007 10393 20140 56009 58004 87275
AAXX 31064 62771 32970 73210 10210 20050 39490 40136 80007 10350 20190 56009 58008 87275
AAXX 31064 62772 31965 03605 10234 20124 39686 40120 70600 10368 20215 5L8016
AAXX 31064 62600 32970 73607 10170 20070 39970 40191 80007 10305 20140 56009 58026 87275
AAXX 31064 62640 32970 00403 10220 20090 39764 40124 10336 20175 58000
AAXX 31064 62641 31960 22706 10250 20220 30127 40175 70611 83040 10292 20194 56090 58000 82365
AAXX 31064 62650 32970 73611 10190 21020 39875 40152 80007 10336 201650 56009 58012 87275
AAXX 31064 62660 32970 73405 10200 20070 39844 40148 80007 10345 20175 65009 58000 87275
AAXX 31064 62680 31968 00905 10240 20140 39730 40126 70600 10375 20208 58006
AAXX 31064 62721 31958 70208 10255 20105 39686 40125 70622 80007 10380 20210 56009 58007 87275
AAXX 31064 62730 32970 00906 10275 20115 39587 40146 10400 20235 58005
AAXX 31064 62733 32970 03603 10225 20085 39606 40117 10350 20190 59007
AAXX 31064 62750 32970 70209 10240 20120 39664 40092 80007 10375 20225 56009 58L001 87275
AAXX 31064 62751 32970 70304 10267 20053 39662 40123 80007 10402 20210 56009 58006 87275
AAXX 31064 62752 32970 00401 10250 20095 39443 40116 10405 20210 58016
AAXX 31064 62760 32970 73203 10160 21030 39310 40142 80007 10346 20135 56009 59001 87275
AAXX 31064 62762 32970 70506 10205 20095 39625 40104 80007 10393 20150 56009 58015 87275
AAXX 31064 62770 31968 70510 1090 20106 39234 40137 706I22 80007 10393 20140 56009 58004 87275
AAXX 31064 62771 32970 73210 10210 20050 39490 40136 80007 10350 20190 56009 58008 87275
AAXX 31064 62772 31965 03605 10234 20124 39686 40120 70600 10368 20215 5L8016
BBXX 62081 31064 99510 70134 46/// ///// 10123 20116 40112 58016 22200 00118 10708 70042
BBXX PJGO 31064 99571 10022 47/95 /1521 10065 20054 40004 57023 762// 22200
BBXX 63055 31064 99606 10016 47297 /1428 10044 20043 49961 57030 704// 22200 10606 70031
BBXX 63106 31064 99610 10017 46/// /1630 10056 49969 57029 22200
BBXX 63105 31064 99610 10017 47497 ///// 10054 20025 49972 57028 751// 22200
BBXX 62103 31064 99499 70029 46/96 /2625 10119 20111 40148 55001 22200 00119 10704 70021 333 90710 91134
BBXX 62095 31064 99530 70159 46/// ///20 1//// 2//// 40026 57020 22200 10708 70041 333 90710 91129
AAXX 31064 61401 33960 00000 10070 20048 39860 40286 333 0//00 20063 5//// 55/// 58002
AAXX 31064 61450 31950 50806 10096 21032 39750 40222 706// 80002 333 0//00 20075 5//// 55/// 58002 85073
AAXX 31064 61461 31940 40806 10135 21020 30178 40229 70600 80002 333 20135 5//// 55/// 58024 84073
AAXX 31064 61489 31956 50406 10162 21011 30214 40221 70622 85070 333 0//00 20154 50934 55/// 58022 85363
AAXX 31064 61492 31956 70408 10175 21031 30206 40226 70622 83072 333 0//00 20715 5//// 58015 83363 86073
AAXX 31064 61497 34940 40414 10120 21030 39938 4//// 707// 80001 333 20117 5//// 55/// 59009 84073
AAXX 31064 61499 31950 63610 10114 21040 39940 40203 70622 80002 333 0//00 20075 5//// 55/// 58002 85073
BBXX 63106 31064 99610 10017 46/// /1630 10056 49969 57029 22200
BBXX 63113 31064 99610 10017 46/// /1732 10055 20026 49971 57028 22200 10607 70033
BBXX 2AUO5 31063 99606 10016 41296 81629 10061 20050 49971 57028 76366 887// 22241 20604 316// 41007 80056
BBXX 62081 31064 99510 70134 46/// ///// 10123 20116 40112 58016 22200 00118 10708 70041
BBXX 62103 31064 99499 70029 46/98 /2724 10119 20110 40148 50000 22200 00119 10704 70018 333 90710 91133
BBXX 62095 31064 99530 70159 46/// /2320 10119 20117 40026 57020 22200 00111 10708 70041 333 90710 91129
BBXX 64049 31063 99571 10022 41/97 81726 10075 20075 49990 58023 75252 8//// 22200 20606 3//// 4//// 5//// 80075
AAXX 31064 71854 43/// ///// 333 11088 21124 48017 79999 555 10004 29999
AAXX 31064 71854 43/// ///// 333 11088 21124 48017 79999 555 10004 29999
BBXX VNW6069 31063 99122 31230 41396 72104 10322 20249 40066 58021 71422 83772 22200 02300 2//// 80270
BBXX VNW6069 31063 99122 31230 41396 72104 10322 20249 40066 58021 71422 83772 22200 02300 2//// 80270
AAXX 31064 89065 46/// /9901 11034 21062 39654 49731 52016 90640
BBXX 62081 31064 99510 70134 46/// ///// 10123 20116 40112 58016 22200 00118 10708 70042
BBXX PJGO 31064 99571 10022 47/95 /1521 10065 20054 40004 57023 762// 22200
BBXX 63055 31064 99606 10016 47297 /1428 10044 20043 49961 57030 704// 22200 10606 70031
BBXX 63106 31064 99610 10017 46/// /1630 10056 49969 57029 22200
BBXX 63105 31064 99610 10017 47497 ///// 10054 20025 49972 57028 751// 22200
BBXX 62103 31064 99499 70029 46/96 /2625 10119 20111 40148 55001 22200 00119 10704 70021 333 90710 91134
BBXX 62095 31064 99530 70159 46/// ///20 1//// 2//// 40026 57020 22200 10708 70041 333 90710 91129
BBXX VNW6069 31063 99122 31230 41396 72104 10322 20249 40066 58021 71422 83772 22200 02300 2//// 80270
AAXX 31064 71732 16/// /1303 11092 21110 60001 333 11087 21185 70000
AAXX 31061 31168 42999 00000 11207 21247 30269 40281 57009
BBXX 63106 31064 99610 10017 46/// /1630 10056 49969 57029 22200
BBXX 63113 31064 99610 10017 46/// /1732 10055 20026 49971 57028 22200 10607 70033
BBXX 2AUO5 31063 99606 10016 41296 81629 10061 20050 49971 57028 76366 887// 22241 20604 316// 41007 80056
BBXX 62081 31064 99510 70134 46/// ///// 10123 20116 40112 58016 22200 00118 10708 70041
BBXX 62103 31064 99499 70029 46/98 /2724 10119 20110 40148 50000 22200 00119 10704 70018 333 90710 91133
BBXX 62095 31064 99530 70159 46/// /2320 10119 20117 40026 57020 22200 00111 10708 70041 333 90710 91129
BBXX 64049 31063 99571 10022 41/97 81726 10075 20075 49990 58023 75252 8//// 22200 20606 3//// 4//// 5//// 80075
BBXX 52249 31061 99052 31503 46/// ///// 1//// 90600 22200 00309
AAXX 31061 31088 42999 33604 11237 21292 30259 40267 58007 83040
BBXX 62081 31064 99510 70134 46/// ///// 10123 20116 40112 58016 22200 00118 10708 70042
BBXX PJGO 31064 99571 10022 47/95 /1521 10065 20054 40004 57023 762// 22200
BBXX 63055 31064 99606 10016 47297 /1428 10044 20043 49961 57030 704// 22200 10606 70031
BBXX 63106 31064 99610 10017 46/// /1630 10056 49969 57029 22200
BBXX 63105 31064 99610 10017 47497 ///// 10054 20025 49972 57028 751// 22200
BBXX 62103 31064 99499 70029 46/96 /2625 10119 20111 40148 55001 22200 00119 10704 70021 333 90710 91134
BBXX 62095 31064 99530 70159 46/// ///20 1//// 2//// 40026 57020 22200 10708 70041 333 90710 91129
BBXX 52249 31061 99052 31503 46/// ///// 1//// 90600 22200 00309
AAXX 31061 29263 41596 72002 11040 21059 30139 40240 52014 78582 82932
BBXX 63106 31064 99610 10017 46/// /1630 10056 49969 57029 22200
BBXX 63113 31064 99610 10017 46/// /1732 10055 20026 49971 57028 22200 10607 70033
BBXX 2AUO5 31063 99606 10016 41296 81629 10061 20050 49971 57028 76366 887// 22241 20604 316// 41007 80056
BBXX 62081 31064 99510 70134 46/// ///// 10123 20116 40112 58016 22200 00118 10708 70041
BBXX 62103 31064 99499 70029 46/98 /2724 10119 20110 40148 50000 22200 00119 10704 70018 333 90710 91133
BBXX 62095 31064 99530 70159 46/// /2320 10119 20117 40026 57020 22200 00111 10708 70041 333 90710 91129
BBXX 64049 31063 99571 10022 41/97 81726 10075 20075 49990 58023 75252 8//// 22200 20606 3//// 4//// 5//// 80075
AAXX 31061 78090 15/// /0000 10170 30212 40216 69901 90600 222// 00200
BBXX MINFR03 3106/ 99244 10601 46/// ///// 10235 40224 52020
AAXX 31064 89065 46/// /9901 11034 21062 39654 49731 5//// 90640
BBXX 62081 31064 99510 70134 46/// ///// 10123 20116 40112 58016 22200 00118 10708 70042
BBXX PJGO 31064 99571 10022 47/95 /1521 10065 20054 40004 57023 762// 22200
BBXX 63055 31064 99606 10016 47297 /1428 10044 20043 49961 57030 704// 22200 10606 70031
BBXX 63106 31064 99610 10017 46/// /1630 10056 49969 57029 22200
BBXX 63105 31064 99610 10017 47497 ///// 10054 20025 49972 57028 751// 22200
BBXX 62103 31064 99499 70029 46/96 /2625 10119 20111 40148 55001 22200 00119 10704 70021 333 90710 91134
BBXX 62095 31064 99530 70159 46/// ///20 1//// 2//// 40026 57020 22200 10708 70041 333 90710 91129
BBXX MINFR03 3106/ 99244 10601 46/// ///// 10235 40224 52020
BBXX 63106 31064 99610 10017 46/// /1630 10056 49969 57029 22200
BBXX 63113 31064 99610 10017 46/// /1732 10055 20026 49971 57028 22200 10607 70033
BBXX 2AUO5 31063 99606 10016 41296 81629 10061 20050 49971 57028 76366 887// 22241 20604 316// 41007 80056
BBXX 62081 31064 99510 70134 46/// ///// 10123 20116 40112 58016 22200 00118 10708 70041
BBXX 62103 31064 99499 70029 46/98 /2724 10119 20110 40148 50000 22200 00119 10704 70018 333 90710 91133
BBXX 62095 31064 99530 70159 46/// /2320 10119 20117 40026 57020 22200 00111 10708 70041 333 90710 91129
BBXX 64049 31063 99571 10022 41/97 81726 10075 20075 49990 58023 75252 8//// 22200 20606 3//// 4//// 5//// 80075
AAXX 31064 71642 13/// ///// 11105 69901 333 11105 21132 70022 555 10022 20022
AAXX 31064 71642 13/// ///// 11105 69901 333 11105 21132 70022 555 10022 20022
BBXX 62081 31064 99510 70134 46/// ///// 10123 20116 40112 58016 22200 00118 10708 70042
BBXX PJGO 31064 99571 10022 47/95 /1521 10065 20054 40004 57023 762// 22200
BBXX 63055 31064 99606 10016 47297 /1428 10044 20043 49961 57030 704// 22200 10606 70031
BBXX 63106 31064 99610 10017 46/// /1630 10056 49969 57029 22200
BBXX 63105 31064 99610 10017 47497 ///// 10054 20025 49972 57028 751// 22200
BBXX 62103 31064 99499 70029 46/96 /2625 10119 20111 40148 55001 22200 00119 10704 70021 333 90710 91134
BBXX 62095 31064 99530 70159 46/// ///20 1//// 2//// 40026 57020 22200 10708 70041 333 90710 91129
AAXX 31061 38932 41599 70501 10004 21018 40347 57011 70274 82201
AAXX 31061 25745 32698 30000 11374 21401 30188 40247 58001 83500 333 11363
AAXX 31064 91723 NIL
AAXX 31064 91964 36/// /0613 10218 20189 40203 52015
AAXX 31061 01046 11989 32601 11089 21105 30056 40063 53015 69922 70120 80002 333 21095 44016 70002 91103
BBXX 63106 31064 99610 10017 46/// /1630 10056 49969 57029 22200
BBXX 63113 31064 99610 10017 46/// /1732 10055 20026 49971 57028 22200 10607 70033
BBXX 2AUO5 31063 99606 10016 41296 81629 10061 20050 49971 57028 76366 887// 22241 20604 316// 41007 80056
BBXX 62081 31064 99510 70134 46/// ///// 10123 20116 40112 58016 22200 00118 10708 70041
BBXX 62103 31064 99499 70029 46/98 /2724 10119 20110 40148 50000 22200 00119 10704 70018 333 90710 91133
BBXX 62095 31064 99530 70159 46/// /2320 10119 20117 40026 57020 22200 00111 10708 70041 333 90710 91129
BBXX 64049 31063 99571 10022 41/97 81726 10075 20075 49990 58023 75252 8//// 22200 20606 3//// 4//// 5//// 80075
AAXX 31061 10655 01474 72104 10016 20002 39820 40156 56012 69902 75862 875// 333 10033 20016 31000 55010 55300 20000 30000 69907 70004 83619 85640 87656
BBXX SHIP 31063 99117 31234 41/96 81813 10312 20238 40089 76186 222// 0//// 20301 320// 40301 5////
BBXX SHIP 31063 99117 31234 41/96 81813 10312 20238 40089 76186 222// 0//// 20301 320// 40301 5////
AAXX 31064 71770 16/// /1103 10025 21049 39409 40183 51053 60001 333 10076 21001 70023 555 31517 40151
BBXX 62081 31064 99510 70134 46/// ///// 10123 20116 40112 58016 22200 00118 10708 70042
BBXX PJGO 31064 99571 10022 47/95 /1521 10065 20054 40004 57023 762// 22200
BBXX 63055 31064 99606 10016 47297 /1428 10044 20043 49961 57030 704// 22200 10606 70031
BBXX 63106 31064 99610 10017 46/// /1630 10056 49969 57029 22200
BBXX 63105 31064 99610 10017 47497 ///// 10054 20025 49972 57028 751// 22200
BBXX 62103 31064 99499 70029 46/96 /2625 10119 20111 40148 55001 22200 00119 10704 70021 333 90710 91134
BBXX 62095 31064 99530 70159 46/// ///20 1//// 2//// 40026 57020 22200 10708 70041 333 90710 91129
AAXX 31064 71845 43/// ///// 333 11103 21143 44021 79999 90999 555 19999 29999
AAXX 31064 71845 43/// ///// 333 11103 21143 44021 79999 90999 555 19999 29999
BBXX 63106 31064 99610 10017 46/// /1630 10056 49969 57029 22200
BBXX 63113 31064 99610 10017 46/// /1732 10055 20026 49971 57028 22200 10607 70033
BBXX 2AUO5 31063 99606 10016 41296 81629 10061 20050 49971 57028 76366 887// 22241 20604 316// 41007 80056
BBXX 62081 31064 99510 70134 46/// ///// 10123 20116 40112 58016 22200 00118 10708 70041
BBXX 62103 31064 99499 70029 46/98 /2724 10119 20110 40148 50000 22200 00119 10704 70018 333 90710 91133
BBXX 62095 31064 99530 70159 46/// /2320 10119 20117 40026 57020 22200 00111 10708 70041 333 90710 91129
BBXX 64049 31063 99571 10022 41/97 81726 10075 20075 49990 58023 75252 8//// 22200 20606 3//// 4//// 5//// 80075
AAXX 31064 67113 11465 8//// 10256 20237 30/// 40/// 5//// 6//// 72166 888// 333 0//// 10313 20254 50254 55/// 81710 84817 87633
BBXX 62081 31064 99510 70134 46/// ///// 10123 20116 40112 58016 22200 00118 10708 70042
BBXX PJGO 31064 99571 10022 47/95 /1521 10065 20054 40004 57023 762// 22200
BBXX 63055 31064 99606 10016 47297 /1428 10044 20043 49961 57030 704// 22200 10606 70031
BBXX 63106 31064 99610 10017 46/// /1630 10056 49969 57029 22200
BBXX 63105 31064 99610 10017 47497 ///// 10054 20025 49972 57028 751// 22200
BBXX 62103 31064 99499 70029 46/96 /2625 10119 20111 40148 55001 22200 00119 10704 70021 333 90710 91134
BBXX 62095 31064 99530 70159 46/// ///20 1//// 2//// 40026 57020 22200 10708 70041 333 90710 91129
BBXX ONCT 31064 99139 70685 41898 20825 10270 2024/ 40120 56005 70300 821// 22274 04260 2//// 3//// 4//// 5//// 6//// 80245 ICE /////
BBXX ONCT 31064 99139 70685 41898 20825 10270 2024/ 40120 56005 70300 821// 22274 04260 2//// 3//// 4//// 5//// 6//// 80245 ICE /////
BBXX ZQAY4 31064 99160 31529 41597 31419 10270 20234 40051 53013 76066 83300 22243 00306 21003 31414 41205 50703 80245
AAXX 31061 10980 11588 82307 11080 21092 38089 48448 57006 60032 72272 8452/ 333 11079 21091 3/110 48093 55000 55300 20000 30000 70096 84620 84446 91120 91214 96271 96471
AAXX 31061 32098 41294 83403 11077 21095 30212 40222 53003 78682 889// 333 88706 91006 91107
BBXX WKPY 31064 99423 70420 41/96 /3232 10150 20133 40220 54/// 762// 8//// 22264 00184 20708 3//// 4//// 5//// 6//// 80140 ICE /////
BBXX WKPY 31064 99423 70420 41/96 /3232 10150 20133 40220 54/// 762// 8//// 22264 00184 20708 3//// 4//// 5//// 6//// 80140 ICE /////
BBXX DEFY 31063 99143 70732 41998 00828 10273 20233 40137 57004 70200 22252 02268 80244
BBXX DEFY 31063 99143 70732 41998 00828 10273 20233 40137 57004 70200 22252 02268 80244
AAXX 31061 10488 01781 72604 10021 21001 39858 40145 53003 69922 70286 875// 333 10027 20014 32100 55000 55300 20000 30000 41043 69907 70049 87650 91114 96483
AAXX 31061 10544 01/00 92307 11027 21027 39038 48409 56012 69992 77174 333 11019 21031 3/103 48022 55000 55300 69917 70064 96049 96147
AAXX 31061 10113 01360 81805 10031 20019 30075 40094 58011 69902 75065 886// 222// 06055 333 10062 20031 32003 55025 55300 20000 30000 69907 70001 88708
AAXX 31061 10496 01580 82704 10029 20010 30046 40132 53008 69912 70265 885// 333 10035 20026 31001 55000 55300 20000 30000 69907 70037 88620
AAXX 31061 10513 01560 81203 10023 20019 39995 40119 56028 60012 76162 8802/ 333 10044 20018 31000 55001 55300 20000 30000 60017 70023 88522 96463
AAXX 31061 10567 01482 82004 10012 21001 39764 40148 58006 69902 72011 875// 333 10024 20010 31101 55003 55300 20000 30000 69907 70010 87613
AAXX 31064 71268 43/// ///// 333 11075 21110 79999 555 19999 29999
AAXX 31064 71268 43/// ///// 333 11075 21110 79999 555 19999 29999
AAXX 31061 10908 01/01 92416 11020 21020 38433 48433 55008 60012 77374 333 11020 21065 3/107 49095 55000 55300 20000 30000 69927 70052 89/01 91121 91217 96049
AAXX 31061 10496 01580 82704 10029 20010 30046 40132 53008 69912 70276 885// 333 10035 20026 31001 55000 55300 20000 30000 69907 70037 88620
AAXX 31064 71363 16/// /3510 11368 21408 30040 40098 51008 60001 333 11310 21371 70000 555 30117 40141
AAXX 31064 71332 17/// /0606 11285 21316 30088 40119 53012 69951 7//4/ 333 11284 21310 7//// 555 10010
AAXX 31064 71029 47/// /0605 11325 21359 30112 40154 5/009 6///1 7//4/ 333 11293 21339 7////
AAXX 31061 10496 01580 82704 10029 20010 30046 40132 53008 69912 70265 885// 333 10035 20026 31001 55000 55300 20000 30000 69907 70037 88620
AAXX 31061 10200 01458 81805 10028 20018 30099 40097 58012 69922 75865 877// 333 10038 20020 32001 55031 55300 20000 30000 69927 70012 87713
