BBXX ZMENA 31114 99436 31727 46/// ///// 10128 20088 40123 57017 22200
BBXX ZMFR 31114 99413 31748 43/// /1915 10132 20108 40114 57007 22200 00144
BBXX A8SF9 31124 99042 70875 41397 62013 10255 20234 40110 55015 70311 8461/ 22224 04270 80240
BBXX 44172 31121 99445 70634 46/// ///// 1//// 91131 22200 00053 10903 20902 316// 41101 70013
AAXX 31124 40270 31540 42108 10122 20046 39253 40149 57013 70511 84200 333 84830
BBXX 42362 31121 99278 70907 46/// /2004 10228 20183 40207 91145
BBXX 42363 31121 99282 70892 46/// /2404 10211 20139 40210 91145 333 91204
BBXX 42364 31121 99291 70881 46/// /2702 10200 20172 40207 91145
BBXX C6CL6 31124 99334 70540 41498 52116 00/// 10260 2023/ 40320 54000 70321 85170 22262 00230 20202 321// 40303 5//// 6//// 80240 0/0/0
BBXX WDD2876 31124 99440 70866 41/98 80118 10033 2//// 40108 54/// 70222 8//// 22203 00056 2//02 3//// 4//// 5//// 6//// 8//// ICE /////
AAXX 31124 40255 11556 70000 10118 20078 39447 40164 57010 69901 70522 86830 333 84830 85635
BBXX BAREU56 31124 99430 10086 46/// ///// 40167 57021 22262
AAXX 31124 91643 11498 82810 10275 20254 40079 58009 60021 71582 8437/ 333 10305 5669/ 84918 88460
BBXX 46249 31121 99338 71197 46/// ///// 1//// 91140 22200 00148 11203 20902 327// 41202 70015
BBXX 46248 31121 99461 71247 46/// ///// 1//// 91134 22200 00095 11110 21006 330// 41108 70050
BBXX 44098 31121 99428 70702 46/// ///// 1//// 91137 22200 00081 10502 20502 70011
BBXX 44097 31121 99410 70711 46/// ///// 1//// 91132 22200 00109 10702 20702 70011
BBXX 46237 31121 99378 71226 46/// ///// 1//// 91140 22200 00109 11504 21002 325// 41503 70021
BBXX 46212 31121 99408 71243 46/// ///// 1//// 91142 22200 00104 11107 21004 330// 41105 70034
BBXX 46218 31121 99345 71208 46/// ///// 1//// 91132 22200 00133 11706 21004 329// 41705 70031
AAXX 31124 68906 11393 82614 10172 20143 30053 40117 53005 69921 74022 8767/ 222// 00132 320// 40601 333 10191 20152 91024 555 20002 91011
AAXX 31124 68392 16/// /1110 10191 20152 30185 4//// 58010 60011 333 10202 20152 91014 555 20014 69925
BBXX DBKV 31121 99179 70242 46/// /0815 10215 20126 40228 52013 22211 00231
BBXX DBEA 31121 99540 1008/ 46/// /1811 10038 20060 40082 57017 22221 00055
BBXX DBJM 31121 99542 10079 46/// /1710 10056 20031 40079 57020 22220 00071
BBXX DBBT 31121 99339 30184 46/// /0102 10202 20121 40149 57004 22220 00143
BBXX DBBU 31121 99544 10122 46/// /2406 10014 20012 40112 57004 22240 00055
AAXX 31124 40272 31956 32810 10140 20044 39320 40153 57010 70522
AAXX 31124 40340 32660 43606 10190 20082 40156 57015 84200 333 84830
AAXX 31124 40296 32960 00000 10215 20114 40168 57020
BBXX DBFR 31121 99535 10086 46/// /1504 10034 20032 40088 57017 22230 00058
BBXX DBFH 31121 99535 10086 46/// /1503 10036 20025 40093 57013 22260 00056
AAXX 31124 61901 11581 71014 10181 20124 39681 40188 69921 72582 878// 91150 333 59004 81820 87635
AAXX 31124 61902 11584 51512 10269 20182 40155 69901 70182 85800 333 59002 81825 85650
BBXX 41115 31121 99184 70673 46/// ///// 1//// 91135 22200 11202 21002 301// 41201 70010
BBXX 41114 31121 99276 70802 46/// ///// 1//// 91146 22200 00232 11201 20901 307// 41201 70005
BBXX 51205 31121 99210 71564 46/// ///// 1//// 91148 22200 00236 11004 21003 306// 41102 70019
BBXX 46114 31121 99364 71222 46/// ///// 1//// 91134 22200 00119 11507 21004 329// 41505 70034
BBXX 46060 31121 99606 71468 46/// /1906 11054 40049 51031 91150 22200 00048 333 91208 555 11064 22067 31109 41710 61149 196062 180050 181050 169071 192073 185063 81709 91109
BBXX 51203 31121 99208 71570 46/// ///// 1//// 91143 22200 00246 11301 21001 327// 41301 70007
BBXX 46088 31121 99483 71232 46/// /2509 10058 40267 53042 91150 22200 00076 10502 20502 70012 333 91211 555 11092 22097 31050 42513 61149 248088 248083 256087 255093 256101 255104
AAXX 31124 91408 32473 80910 10272 20233 30073 40111 52015 81278 333 10306 56999 58004 70066 555 93112
AAXX 31124 91376 11474 80712 10269 20243 30090 40093 58007 69951 70282 85878 333 10282 56229 58003 70300 555 93112
AAXX 31124 91334 32474 50411 10279 20240 30097 40100 50005 81171 333 10339 56199 59006 555 93112
BBXX BAREU61 31124 99046 70017 46/// /3018 10263 29083 40126 57018 22224
AAXX 31124 91408 32473 80910 10272 20233 30073 40111 52015 81278 333 10306 56999 58004 70066 555 93112
AAXX 31124 91376 11474 80712 10269 20243 30090 40093 58007 69951 70282 85878 333 10282 56229 58003 70300 555 93112
AAXX 31124 91334 32474 50411 10279 20240 30097 40100 50005 81171 333 10339 56199 59006 555 93112
AAXX 31124 16597 32670 13324 10134 20026 30082 40169 53006 81100 333 81840 91137 91531
AAXX 31124 89054 11207 82405 10010 20005 49712 52034 60021 74075 886// 333 10020 20004 56599 88703 96073
AAXX 31124 89056 11015 82409 10003 20000 49708 52032 60012 77152 884// 333 10012 20003 55001 56599 88601 93101
AAXX 31124 89057 NIL
AAXX 31124 89058 11456 82510 10007 20000 39677 49698 52026 69981 77076 886//
AAXX 31124 89059 12460 81636 10020 21029 49693 52021 69932 885// 333 01650 10020 21008 42998 55/// 74099 88613
AAXX 31124 89251 11140 82710 10008 20001 49692 52026 69912 77177 8672/ 333 20006
AAXX 31121 13579 32770 73405 10023 21036 39284 40130 51003 87500 333 87650
AAXX 31124 08594 31458 70827 10220 20128 40203 70621 83532 333 58000 83615 87070
AAXX 31124 08589 31450 70524 10221 20130 40197 70622 878// 333 59008 83613 87626
AAXX 31124 08583 31557 60624 10240 20125 40219 83534 333 58012 83624 83360
AAXX 31124 68994 32598 43025 10101 20049 39961 49989 53003 84440 222// 00062 20201 333 10111 20062 91041 555 90998
AAXX 31124 78858 11578 60712 10255 20218 30137 40193 69932 7038/ 82802 333 10291 20229 59005 82820 85070
AAXX 31124 68382 16/// /0603 10223 20132 39352 48538 58001 60011 333 10224 20174 91009 555 20010 91016
AAXX 31124 68352 16/// /1210 10224 20016 39068 48520 56004 69921 333 10250 20173 91015 555 20002 91016
AAXX 31124 89664 32961 13511 10009 21049 39751 49791 56002 81070 333 10053 20008 56000 59029 81360
AAXX 31124 89664 32961 13511 10009 21049 39751 49791 56002 81070 333 10053 20008 56000 59029 81360
AAXX 31124 89664 32961 13511 10009 21049 39751 49791 56002 81070 333 10053 20008 56000 59029 81360
BBXX BAREU08 31124 99449 70147 46/// ///// 40261 52004 22254
BBXX BAREU63 31124 99322 10199 46/// ///// 10161 29066 40112 57009 22251
AAXX 31124 68396 22660 70000 10215 20192 39447 48505 54000 87500 333 20200 555 91014
AAXX 31124 78862 11478 50815 10257 20211 30168 40191 60001 70511 84202 333 10284 20239 59002 84820
AAXX 31124 TAF TKPN 302200Z 3100/3124 08016KT 9999 SCT020 PROB40 TEMPO 3100/3112 08016G26KT SHRA BKN015
AAXX 31124 TAF TQPF 302200Z 3100/3124 08016KT 9999 SCT020 PROB40 TEMPO 3100/3112 08016G26KT SHRA BKN015
AAXX 31124 TAF TUPJ 302200Z 3100/3124 08016KT 9999 SCT020 PROB40 TEMPO 3100/3112 08016G26KT SHRA BKN015
AAXX 31124 7016G26KT SHRA
AAXX 31124 TAF TUPJ 232200Z 2400/2424 07016KT 9999 SCT020 SCT040 PROB40 TEMPO 2400/2412 07018G28KT SHRA TEMPO 2412/2424 07016G26KT SHRA
AAXX 31124 TAF TUPJ 041000Z 04012/0512 07008KT 9999 SCT016 BKN038 SCT270 TEMPO 0412/0512 SHRA BKN015 PROB40 TEMPO 0418/0512 5000 SHRA BKN014 BKN036 PROB30 0420/0512 4000 TSRA FEW012CB
AAXX 31124 918 4000 TSRA FEW012CB
AAXX 31124 N015 BKN036 PROB40 TEMPO 0704/0724 3000 +TSRA SCT011CB BKN012 BECMG 0712/0714 14008KT
AAXX 31124 21/2712 07017G28KT 5000 SHRA BKN015 BKN036 PROB TEMPO 2700/2712 4000 TSRA FEW013CB
AAXX 31124 PROB30 TEMPO 0800/0806 4000 TSRA FEW012CB PROB40 TEMPO 0800/0824 2000 +SHRA/TSRA SCT010CB BKN012 BKN250
AAXX 31124 78862 11478 50815 10257 20211 30168 40191 60001 70511 84202 333 10284 20239 59002 84820
AAXX 31124 TAF TKPN 302200Z 3100/3124 08016KT 9999 SCT020 PROB40 TEMPO 3100/3112 08016G26KT SHRA BKN015
AAXX 31124 TAF TQPF 302200Z 3100/3124 08016KT 9999 SCT020 PROB40 TEMPO 3100/3112 08016G26KT SHRA BKN015
AAXX 31124 TAF TUPJ 302200Z 3100/3124 08016KT 9999 SCT020 PROB40 TEMPO 3100/3112 08016G26KT SHRA BKN015
AAXX 31124 7016G26KT SHRA
AAXX 31124 TAF TUPJ 232200Z 2400/2424 07016KT 9999 SCT020 SCT040 PROB40 TEMPO 2400/2412 07018G28KT SHRA TEMPO 2412/2424 07016G26KT SHRA
AAXX 31124 TAF TUPJ 041000Z 04012/0512 07008KT 9999 SCT016 BKN038 SCT270 TEMPO 0412/0512 SHRA BKN015 PROB40 TEMPO 0418/0512 5000 SHRA BKN014 BKN036 PROB30 0420/0512 4000 TSRA FEW012CB
AAXX 31124 918 4000 TSRA FEW012CB
AAXX 31124 N015 BKN036 PROB40 TEMPO 0704/0724 3000 +TSRA SCT011CB BKN012 BECMG 0712/0714 14008KT
AAXX 31124 21/2712 07017G28KT 5000 SHRA BKN015 BKN036 PROB TEMPO 2700/2712 4000 TSRA FEW013CB
AAXX 31124 PROB30 TEMPO 0800/0806 4000 TSRA FEW012CB PROB40 TEMPO 0800/0824 2000 +SHRA/TSRA SCT010CB BKN012 BKN250
BBXX WDF7994 31124 99446 70828 41/98 80216 10016 2//// 40091 51000 70222 8//// 22233 00050 20304 3//// 4//// 5//// 6//// 8//// ICE /////
BBXX NWS0022 31124 99416 70714 43/// /3608 10033 20023 40136 5//// 7//// 8//// 222// 04095 2//// 3//// 4//// 5//// 6//// 8//// ICE /////
BBXX WDE3569 31124 99442 70865 43/// 80111 10011 2//// 40088 5//// 7//// 8//// 22283 00056 20301 3//// 4//// 5//// 6//// 8//// ICE /////
BBXX WDC6698 31124 99213 71579 43/// /2401 1//// 2//// 40150 5//// 7//// 8//// 222// 04238 2//// 3//// 4//// 5//// 6//// 8//// ICE /////
BBXX C6WK7 31124 99289 70135 41898 20716 10170 2//// 40360 54/// 7//11 821// 222// 04180 20101 3//// 4//// 5//// 6//// 8//// ICE /////
AAXX 31124 78862 11478 50815 10257 20211 30168 40191 60001 70511 84202 333 10284 20239 59002 84820
AAXX 31124 TAF TKPN 302200Z 3100/3124 08016KT 9999 SCT020 PROB40 TEMPO 3100/3112 08016G26KT SHRA BKN015
AAXX 31124 TAF TQPF 302200Z 3100/3124 08016KT 9999 SCT020 PROB40 TEMPO 3100/3112 08016G26KT SHRA BKN015
AAXX 31124 TAF TUPJ 302200Z 3100/3124 08016KT 9999 SCT020 PROB40 TEMPO 3100/3112 08016G26KT SHRA BKN015
AAXX 31124 7016G26KT SHRA
AAXX 31124 TAF TUPJ 232200Z 2400/2424 07016KT 9999 SCT020 SCT040 PROB40 TEMPO 2400/2412 07018G28KT SHRA TEMPO 2412/2424 07016G26KT SHRA
AAXX 31124 TAF TUPJ 041000Z 04012/0512 07008KT 9999 SCT016 BKN038 SCT270 TEMPO 0412/0512 SHRA BKN015 PROB40 TEMPO 0418/0512 5000 SHRA BKN014 BKN036 PROB30 0420/0512 4000 TSRA FEW012CB
AAXX 31124 918 4000 TSRA FEW012CB
AAXX 31124 N015 BKN036 PROB40 TEMPO 0704/0724 3000 +TSRA SCT011CB BKN012 BECMG 0712/0714 14008KT
AAXX 31124 21/2712 07017G28KT 5000 SHRA BKN015 BKN036 PROB TEMPO 2700/2712 4000 TSRA FEW013CB
AAXX 31124 PROB30 TEMPO 0800/0806 4000 TSRA FEW012CB PROB40 TEMPO 0800/0824 2000 +SHRA/TSRA SCT010CB BKN012 BKN250
BBXX KFMV 31123 99184 11719 41698 10916 10244 2021/ 40162 54000 70210 8183/ 22265 00267 20302 311// 40603 5//// 6//// 80222 ICE /////
BBXX ONFE 31124 99057 10823 41998 00204 10270 2018/ 40120 5//// 7//00 80000 22264 00280 2//// 321// 40502 5//// 6//// 80210 ICE /////
BBXX LAGB5 31124 99310 11712 41696 82429 10210 2021/ 40105 58005 70222 886// 22223 ///// 20804 325// 41103 80210
BBXX BAREU61 31124 99046 70017 46/// /3018 10263 29083 40126 57018 22224
BBXX DBBT 31121 99339 30184 46/// /0102 10202 20121 40149 57004 22220 00143
BBXX DBKV 31121 99179 70242 46/// /0815 10215 20126 40228 52013 22211 00231
BBXX DCCP2 31120 99148 30660 41698 31007 10281 20239 40085 56010 70200 83300 22254 00280 29903 313// 40806 5//// 80250
BBXX KABL 31124 99186 10581 41998 00514 10250 2025/ 40160 57020 7//00 8//// 22215 00250 20803 304// 40804 5//// 6//// 80250 ICE /////
BBXX WDD2876 31124 99440 70866 41/98 80118 10033 2//// 40108 54/// 70222 8//// 22203 00056 2//02 3//// 4//// 5//// 6//// 8//// ICE /////
BBXX MZDL7 31123 99505 50539 41/98 33114 10105 20085 40082 52046 70111 83100 22213 00090 20201 331// 40404 5//// 80095
BBXX A8DE3 31124 99400 50741 41/91 /1919 10130 20130 40150 52005 747// 8//// 22244 29901 80130
BBXX DBUT 31121 99165 50375 41598 50408 10277 20204 40211 52015 70222 84365 22245 20403 3//// 4//// 5//// 80226
BBXX C6TZ9 31124 99288 50484 415// 80517 10220 20174 40190 54/// 7//22 883// 22254 00230 2//// 3//// 4//// 5//// 6//// 80190 ICE /////
BBXX ONAI 31124 99239 50404 41597 51409 10240 2018/ 40130 53015 70222 85270 22213 00260 2//// 3//// 4//// 5//// 6//// 80200 ICE /////
BBXX C6LU4 31124 99404 70287 41298 72419 10170 2015/ 40350 54000 70111 86917 22224 20403 3//// 4//// 5//// 80160
BBXX DBBU 31121 99544 10122 46/// /2406 10014 20012 40112 57004 22240 00055
BBXX DBFH 31121 99535 10086 46/// /1503 10036 20025 40093 57013 22260 00056
BBXX DBFR 31121 99535 10086 46/// /1504 10034 20032 40088 57017 22230 00058
BBXX DBEA 31121 99540 1008/ 46/// /1811 10038 20060 40082 57017 22221 00055
BBXX DBJM 31121 99542 10079 46/// /1710 10056 20031 40079 57020 22220 00071
BBXX WBDS 31124 99408 70253 415// 82427 10159 2015/ 40320 51010 75052 886// 22225 00156 20404 326// 40602 5//// 6//// 80151 ICE /////
BBXX C6T2064 31123 99307 70634 41598 21415 10220 2021/ 40233 56022 70211 84110 22264 20403 80210
BBXX SHIP 31124 99337 71691 41798 63118 10140 2006/ 40235 54000 70222 84210 22223 00200 21005 332// 41407 5//// 6//// 80100 ICE /////
BBXX A8EY7 31123 99423 71788 41/98 71012 10065 21021 40220 58010 703// 8//// 22224 2//// 3//// 4//// 5//// 80030
BBXX A8LP6 31124 99342 70418 41298 81502 10200 20148 40345 52010 70322 8777/ 22224 04160 2//// 328// 41406 80167
BBXX 51205 31121 99210 71564 46/// ///// 1//// 91148 22200 00236 11004 21003 306// 41102 70019
BBXX 46088 31121 99483 71232 46/// /2509 10058 40267 53042 91150 22200 00076 10502 20502 70012 333 91211 555 11092 22097 31050 42513 61149 248088 248083 256087 255093 256101 255104
BBXX 46114 31121 99364 71222 46/// ///// 1//// 91134 22200 00119 11507 21004 329// 41505 70034
BBXX 46060 31121 99606 71468 46/// /1906 11054 40049 51031 91150 22200 00048 333 91208 555 11064 22067 31109 41710 61149 196062 180050 181050 169071 192073 185063 81709 91109
BBXX 41115 31121 99184 70673 46/// ///// 1//// 91135 22200 11202 21002 301// 41201 70010
BBXX 41114 31121 99276 70802 46/// ///// 1//// 91146 22200 00232 11201 20901 307// 41201 70005
BBXX WDC6736 31124 99317 70803 43/98 02613 10180 2013/ 40180 52005 7//// 8//// 22274 00200 2//// 3//// 4//// 5//// 6//// 80150 ICE /////
BBXX 2AKI3 31123 99158 70675 41598 60921 10271 20211 40175 52027 70211 83255 22264 04277 20504 306// 40604 5//// 80231
BBXX 46218 31121 99345 71208 46/// ///// 1//// 91132 22200 00133 11706 21004 329// 41705 70031
BBXX 46212 31121 99408 71243 46/// ///// 1//// 91142 22200 00104 11107 21004 330// 41105 70034
BBXX 46237 31121 99378 71226 46/// ///// 1//// 91140 22200 00109 11504 21002 325// 41503 70021
BBXX 44098 31121 99428 70702 46/// ///// 1//// 91137 22200 00081 10502 20502 70011
BBXX 44097 31121 99410 70711 46/// ///// 1//// 91132 22200 00109 10702 20702 70011
BBXX 46249 31121 99338 71197 46/// ///// 1//// 91140 22200 00148 11203 20902 327// 41202 70015
BBXX 46248 31121 99461 71247 46/// ///// 1//// 91134 22200 00095 11110 21006 330// 41108 70050
BBXX DDBR2 31123 99238 70514 41497 60922 10230 20191 40255 54000 70388 84010 22264 04250 2//03 309// 4//04 5//// 80205
BBXX C6UB2 31124 99547 71737 41/90 92337 11040 2105/ 40080 55020 77373 89/// 22263 00040 20804 32323 40708 50508 64//4 81040 ICE 00///
BBXX WDD3825 31124 99419 70386 43598 62917 10190 2016/ 40265 52015 7//// 86235 22214 00170 20705 309// 40804 5//// 6//// 80170 ICE /////
BBXX 42363 31121 99282 70892 46/// /2404 10211 20139 40210 91145 333 91204
BBXX 42364 31121 99291 70881 46/// /2702 10200 20172 40207 91145
BBXX 42362 31121 99278 70907 46/// /2004 10228 20183 40207 91145
BBXX ZCBZ5 31123 99032 11004 41398 62708 10295 20241 40108 53001 70122 84778 22234 02305 2//// 327// 40301 5//// 80257
BBXX 4XIS 31123 99113 70905 43/98 30617 10260 2025/ 40125 54000 22235 80250
AAXX 31124 96315 33470 70105 10283 20252 40115 82848 333 10323 82815 85080
AAXX 31124 96323 NIL
BBXX 46070 31121 99551 11753 46/// /3313 11037 21071 40101 54000 91150 22200 00031 10805 20804 3//// 41003 70026 333 91215 555 11136 22143 31135 43216 61149 327126 323129 302094 309099 306105 299101 83314 91147
BBXX 32012 31121 99197 50856 46/// ///// 1//// 91150 22200 11203 70016
BBXX 46002 31121 99426 71305 46/// ///// 10110 40210 56028 91150 22200 00119 11107 70035
BBXX 46006 31121 99408 71375 46/// /1909 10140 40095 56016 91150 22200 00121 10808 20807 3//// 41304 70041 333 91211 555 11096 22106 31120 41913 61149 195088 192094 187105 186100 185087 181100
BBXX 46084 31121 99566 71361 46/// ///// 10005 21011 40140 53019 91150 22200 00068 11108 70038
BBXX 46075 31121 99539 71608 46/// /3408 11042 21114 40129 51009 91150 22200 00042 10503 20503 300// 41101 70015 333 91212 555 11088 22092 31104 43512 61149 342084 341077 343081 352083 344086 341082 83510 91105
BBXX 46059 31121 99380 71300 46/// /1407 10125 40242 58014 91150 22200 00139 11407 20302 3//// 41406 70033 333 91209 555 11074 22078 31131 41510 61149 144071 148073 157070 156071 159073 148075
BBXX 46005 31121 99461 71310 46/// ///09 10082 40192 58022 91150 22200 00096 11107 20502 3//// 41107 70037 333 91211 555 11092 22097
BBXX 46080 31121 99580 71500 46/// /2807 11083 21146 40066 53016 91150 22200 00046 10905 20503 3//// 40904 70026 333 91210 555 11069 22071 31142 42810 61149 283067 276062 275066 276062 277063 279064 82708 91130
BBXX 44025 31121 99402 70732 46/// /1906 10115 20088 40117 56008 91150 22200 00099 10602 20602 317// 40601 70011 333 91207 555 11064 22073 31059 42008 61149 189058 185054 178054 186054 196059 197061
BBXX 41008 31121 99314 70809 46/// /2407 10159 20147 40194 53011 91150 22200 00159 333 91209 555 11076 22081 31134 42409 61149 239071 234074 234071 233069 236077 238074
BBXX 41004 31121 99325 70791 46/// /2410 10189 20142 40176 53006 91150 22200 00199 333 91212 555 11103 22109 31052 42413 61149 240098 240096 243106 241103 239102 241107
BBXX 44009 31121 99385 70747 46/// /2110 10111 40131 56006 91150 22200 00102 10603 20603 70014 333 91212 555 11106 22114 31143 42012 61149 206097 203082 200076 199072 195068 194064
BBXX 44014 31121 99366 70748 46/// /0807 1//// 40138 55010 91150 22200 00135 10602 20502 314// 40601 70010 333 91208 555 11070 22070 31112 40909 61149 079071 075067 073068 080075 082067 082068
BBXX 44027 31121 99443 70673 46/// /1311 10073 20046 40186 56013 91150 22200 00078 10603 20603 3//// 41001 70017 333 91213 555 11113 22120 31142 41313 61149 127106 130103 130104 132101 131100 133101
BBXX 41013 31121 99334 70777 46/// /2411 10187 20150 40157 53003 91150 22200 00183 10705 20705 70024 333 91213 555 11116 22124 31057 42416 61149 241107 242117 241114 240121 244127 244122
BBXX 44065 31121 99404 70737 46/// /1906 10106 20082 40116 57003 91150 22200 00103 10602 20602 315// 40701 70010 333 91207 555 11064 22070 31135 41908 61149 193061 194063 195063 192066 191064 189065 81907 91059
BBXX 44020 31121 99414 70702 46/// /1605 10091 20085 40141 56011 91150 22200 00064 10301 20301 70004 333 91205 555 11051 22054 31109 42608 61149 174048 250054 251056 259064 262068 259062
BBXX 41012 31121 99300 70805 46/// /2607 10194 40204 53013 91150 22200 00224 10402 20402 302// 41301 70008 333 91209 555 11075 22078 31053 42609 61149 263071 263073 264075 267080 268078 264079
BBXX 41001 31121 99347 70727 46/// ///// 10210 20122 40170 56010 91150 22200 00219 10605 70024
BBXX 41049 31121 99275 70630 46/// /1306 10235 20192 40256 53011 91150 22200 00231 11004 20502 300// 41003 70018 333 91208 555 11067 22072 31149 41408 61149 133062 132056 135057 136056 135050 135053 81307 91149
BBXX 41060 31121 99148 70510 46/// ///// 1//// 91150 22200 10907 70033
BBXX 42020 31121 99270 70967 46/// /2603 10188 20188 40175 53009 91150 22200 00196 10501 20301 316// 40501 70005 333 91204 555 11031 22032 31128 42505 61149 264030 265031 239034 249026 197025 196019
BBXX 41044 31121 99217 70587 46/// /0909 10249 20194 40231 53014 91150 22200 00261 10906 20605 300// 40903 70028 333 91213 555 11099 22105 31125 40814 61149 095096 086097 084118 098110 097107 098096 81113 91150
BBXX 41048 31121 99320 70696 46/// /1907 10217 20178 40215 53005 91150 22200 00220 10602 20602 3//// 40901 70011 333 91207 555 11067 22071 31112 41908 61149 193067 183059 186062 187066 184063 181064 81907 91149
BBXX 42065 31121 99149 70750 46/// /0608 10265 20223 91150 22200 10803 20603 3//// 40801 70015 333 91211 555 11089 22095 31134 40611 61149 062082 062088 061084 059088 060073 059076 80710 91123
BBXX 42001 31121 99259 70897 46/// /3501 10226 20177 40208 53010 91150 22200 00237 10501 3//// 40501 70004 333 91201 555 11009 22009 31139 43402 61149 346010 352012 347011 334005 311004 342002
BBXX 42035 31121 99292 70944 46/// /1503 10162 20162 40174 55000 91150 22200 00143 10601 320// 40601 70005 333 91204 555 11040 22047 31102 41505 61149 151034 152032 155037 153039 155040 154040
BBXX 42012 31121 99301 70876 46/// /2705 10183 20171 40198 51015 91150 22200 00189 10501 20401 319// 40501 70006 333 91205 555 11047 22049 31138 42606 61149 269046 265046 262045 259045 261045 259044
BBXX 42058 31121 99149 70749 46/// /0809 10260 20226 40141 53018 91150 22200 00271 10805 20804 301// 41302 70023 333 91210 555 11090 22095 31121 40713 61149 083085 079086 079098 089079 083096 084088 80812 91122
BBXX 42060 31121 99163 70635 46/// /0710 10269 20206 40184 53018 91150 22200 00271 10605 20605 70026 333 91212 555 11108 22115 31114 40714 61149 071099 072096 073105 075114 071112 076107 80812 91115
BBXX 42036 31121 99285 70845 46/// /2603 10215 20156 40204 53011 91150 22200 00211 10601 20401 317// 40601 70005 333 91203 555 11031 22035 31107 42704 61149 263028 269028 268027 271028 270028 273028
BBXX 42056 31121 99198 70849 46/// /0807 10260 20232 40175 53009 91150 22200 00270 10502 20502 312// 40801 70010 333 91208 555 11074 22078 31129 40809 61149 076069 072069 069068 070067 070065 074066 80708 91137
BBXX 42059 31121 99151 70675 46/// /1009 10274 20218 40168 53022 91150 22200 00277 10805 20804 3//// 41002 70025 333 91210 555 11093 22099 31118 40912 61149 094086 096093 092093 090097 093090 091096 80911 91117
BBXX 42019 31121 99279 70954 46/// /2005 10227 20211 40170 52005 91150 22200 10501 20401 317// 40501 70005 333 91205 555 11048 22051 31130 42805 61149 215044 284044 284042 284043 283044 282044
BBXX 44005 31121 99432 70691 46/// /1308 10088 20088 40150 56019 91150 22200 00081 10603 20603 3//// 40801 70014 333 91209 555 11087 22095 31119 41311 61149 133081 133082 131087 130087 134084 133083
BBXX 42040 31121 99292 70882 46/// /2706 10196 40202 52011 91150 22200 00219 10601 20401 320// 40601 70006 333 91207 555 11057 22059 31051 42707 61149 267058 267061 267059 264058 270057 269059
BBXX 42055 31121 99222 70940 46/// /1007 10248 20212 40168 52004 91150 22200 00250 10502 20502 70009 333 91208 555 11069 22073 31110 41008 61149 099064 099064 094063 098066 097066 100067 81007 91052
BBXX 42003 31121 99260 70856 46/// /0000 1//// 91150 22200 10501 20401 309// 40501 70004 333 91201 555 11001 22001 31058 41001 61149 180001 047003 074004 091001 108003 121004 81001 91058
BBXX 42002 31121 99258 70937 46/// /1506 10236 20217 40189 53008 91150 22200 00244 10601 20601 312// 40801 70007 333 91207 555 11063 22067 31124 41508 61149 153063 155059 157062 152060 153056 152058
BBXX 41047 31121 99275 70715 46/// /1903 10234 40227 53012 91150 22200 00252 10902 20401 308// 40902 70011 333 91204 555 11032 22033 31051 41705 61149 186032 177029 169034 155036 151040 159039 81504 91106
BBXX 41043 31121 99211 70650 46/// /0910 10254 20215 40218 53014 91150 22200 00257 10805 20604 300// 40802 70023 333 91211 555 11102 22108 31134 41011 61149 094095 094092 090092 091092 088094 089089 80910 91104
BBXX 41036 31121 99342 70770 46/// ///// 10176 20129 40147 56004 91150 22200 00173 10603 70016
BBXX 44066 31121 99396 70726 46/// /2004 10132 20102 40131 58008 91150 22200 00123 10603 20401 3//// 40602 70013 333 91206 555 11049 22055 31105 42108 61149 195044 202048 199052 199055 201059 197055
AAXX 31124 41170 32964 10108 10229 20127 30192 40205 80001 333 59011 81074
BBXX 46014 31121 99394 71240 46/// /0305 10087 40243 58011 91150 22200 00110 11307 20501 3//// 41307 70035 333 91206 555 11056 22059 31125 40307 61149 027054 023056 020057 018055 016054 017053
BBXX 46011 31121 99350 71210 46/// /3507 10130 40190 50004 91150 22200 00131 11605 20602 328// 41605 70027 333 91209 555 11076 22080 31057 43609 61149 350073 351073 356059 006055 001072 359080
BBXX 46047 31121 99324 71195 46/// /3207 10140 40156 56010 91150 22200 00139 11606 20602 329// 41606 70031 333 91209 555 11072 22077 31143 43209 61149 321067 323061 326062 330056 331060 331061
BBXX 46086 31121 99325 71180 46/// /3003 10114 40154 56007 91150 22200 00149 11704 20301 328// 41704 70022 333 91204 555 11029 22029 31125 42905 61149 297027 269029 284027 273025 240027 241027
BBXX 46027 31121 99419 71244 46/// /0803 10065 40264 58013 91150 22200 00091 11206 20401 329// 41206 70032 333 91204 555 11029 22030 31051 41007 61149 078028 089030 083036 093041 103047 103048
BBXX 46050 31121 99442 71246 46/// /1404 10072 40278 50000 91150 22200 00094 11109 20401 329// 41109 70044 333 91207 555 11046 22047 31104 41309 61149 141045 138050 135048 132052 135052 133055
BBXX 46088 31121 99483 71232 46/// /2509 10058 40267 91150 22200 00076 10502 20502 70012 333 91211 555 11092 22097 31050 42513 61149 248088 248083 256087 255093 256101 255104
BBXX 46069 31121 99337 71202 46/// /3406 10140 40157 57003 91150 22200 00132 333 91208 555 11068 22075 31117 43411 61149 337064 337074 332087 332090 330087 328089
BBXX 46013 31121 99382 71233 46/// /1002 10100 40230 57004 91150 22200 00112 11205 20401 3//// 41205 70027 333 91204 555 11025 22025 31050 43407 61149 095024 065024 007037 357045 356048 353053
BBXX 46012 31121 99374 71229 46/// /3607 10106 40224 57006 91150 22200 00121 11605 20603 329// 41605 70027 333 91208 555 11073 22076 31059 43511 61149 001069 355068 001073 358079 352083 353084
BBXX 46087 31121 99485 71247 46/// /0702 10057 20014 40270 52032 91150 22200 00080 11106 20301 327// 41106 70031 333 91204 555 11021 22021 31055 40506 61149 071021 060022 043024 045030 051035 044037
BBXX 46029 31121 99461 71245 46/// /1902 10077 20018 40281 51015 91150 22200 00083 11309 20401 329// 41309 70045 333 91204 555 11024 22025 31058 41904 61149 190022 188024 198029 196022 197023 194029
BBXX 46054 31121 99342 71204 46/// /3306 10147 40159 54000 91150 22200 00130 11705 20602 300// 41704 70025 333 91207 555 11069 22077 31051 43311 61149 332061 330068 335076 332074 332083 332090
BBXX 46028 31121 99357 71219 46/// /3111 10124 40187 58005 91150 22200 00129 11206 20804 330// 41205 70031 333 91213 555 11114 22122 31120 43114 61149 313106 313104 313108 315111 320106 325105
BBXX 46025 31121 99337 71191 46/// /0401 10105 20103 40154 56004 91150 22200 00146 11703 329// 41703 70015 333 91202 555 11007 22007 31114 42603 61149 036007 238004 288007 288010 325006 000005
AAXX 31124 81405 01450 72202 10255 20243 30129 40138 60214 76086 87800 333 20232 60067 58002 82816 84633 555 69965
BBXX BAREU05 31124 99381 70146 46/// ///// 40379 52002 22234
BBXX BAREU04 31124 99381 70734 46/// ///// 40133 57009 22213
AAXX 31124 81405 01450 72202 10255 20243 30129 40138 60214 76086 87800 333 20232 60067 58002 82816 84633 555 69965
AAXX 31124 78954 11478 31018 10269 20216 30104 40169 60062 70181 83840 333 10303 20223 58001 70060 83818 90956
AAXX 31124 78954 11478 31018 10269 20216 30104 40169 60062 70181 83840 333 10303 20223 58001 70060 83818 90956
BBXX VCXF 31124 99464 70484 41698 63122 10012 2101/ 40259 52034 71622 86400 22200 02020 20404 32532 40908 50903 80001
BBXX VCXF 31124 99464 70484 41698 63122 10012 2101/ 40259 52034 71622 86400 22200 02020 20404 32532 40908 50903 80001
AAXX 31124 78862 11478 50815 10257 20211 30168 40191 60001 70511 84202 333 10284 20239 59002 84820
AAXX 31124 TAF TKPN 302200Z 3100/3124 08016KT 9999 SCT020 PROB40 TEMPO 3100/3112 08016G26KT SHRA BKN015
AAXX 31124 TAF TQPF 302200Z 3100/3124 08016KT 9999 SCT020 PROB40 TEMPO 3100/3112 08016G26KT SHRA BKN015
AAXX 31124 TAF TUPJ 302200Z 3100/3124 08016KT 9999 SCT020 PROB40 TEMPO 3100/3112 08016G26KT SHRA BKN015
AAXX 31124 7016G26KT SHRA
AAXX 31124 TAF TUPJ 232200Z 2400/2424 07016KT 9999 SCT020 SCT040 PROB40 TEMPO 2400/2412 07018G28KT SHRA TEMPO 2412/2424 07016G26KT SHRA
AAXX 31124 TAF TUPJ 041000Z 04012/0512 07008KT 9999 SCT016 BKN038 SCT270 TEMPO 0412/0512 SHRA BKN015 PROB40 TEMPO 0418/0512 5000 SHRA BKN014 BKN036 PROB30 0420/0512 4000 TSRA FEW012CB
AAXX 31124 918 4000 TSRA FEW012CB
AAXX 31124 N015 BKN036 PROB40 TEMPO 0704/0724 3000 +TSRA SCT011CB BKN012 BECMG 0712/0714 14008KT
AAXX 31124 21/2712 07017G28KT 5000 SHRA BKN015 BKN036 PROB TEMPO 2700/2712 4000 TSRA FEW013CB
AAXX 31124 PROB30 TEMPO 0800/0806 4000 TSRA FEW012CB PROB40 TEMPO 0800/0824 2000 +SHRA/TSRA SCT010CB BKN012 BKN250
AAXX 31124 78384 12460 20610 10255 20234 40179 60002 82200 333 10292 20251 58002 70000 82818
AAXX 31124 78383 NIL
AAXX 31124 85934 12580 72909 10099 20013 40074 52018 69924 84103 333 20063 55125 56606 70002 84820 85070
AAXX 31124 89056 11015 82409 10003 20000 49708 52032 60012 77152 884// 333 10012 20003 55001 56599 88601 93101
AAXX 31124 89058 11456 82510 10007 20000 39677 49698 52026 69981 77076 886//
AAXX 31124 89059 12460 81636 10020 21029 49693 52021 69932 885// 333 01650 10020 21008 42998 55/// 74099 88613
AAXX 31124 89251 11140 82710 10008 20001 49692 52026 69912 77177 8672/ 333 20006
AAXX 31124 78073 11565 20000 10163 20157 40215 60001 74140 82100 333 10269 20157 58017 82820
AAXX 31124 78384 12460 20610 10255 20234 40179 60002 82200 333 10292 20251 58002 70000 82818
AAXX 31124 78383 NIL
AAXX 31124 85574 12960 01804 10167 20111 39596 40146 51020 60004 333 20137 30/// 55125 70000
AAXX 31124 85585 12598 11607 10181 20126 40182 52017 60004 81100 333 20149 309/// 55106 56300 70000 81830
AAXX 31124 85629 12970 00308 10168 20127 40140 52/// 60004 333 20126 30/// 50810 55136 70000
AAXX 31124 85672 12965 00305 10178 20146 40137 52035 60004 333 20120 30/// 55134 70000
AAXX 31124 85703 12960 01807 10180 20172 40130 57002 333 20150 30///
AAXX 31124 85743 12960 09904 10145 20117 40148 51011 60004 333 20084 30/// 50420 55101 70000
AAXX 31124 85766 12960 09902 10179 20137 40150 52012 60004 333 20111 30/// 55134 70000
AAXX 31124 85799 11230 81903 10124 20124 40155 53004 60001 71041 887// 333 20096 30/// 50780 55138 56499 70000 88705
AAXX 31124 85406 12660 72702 10227 20139 40145 53013 60004 87600 333 20203 30/// 55087 56000 70000 87640
AAXX 31124 85418 12565 60000 10210 20128 40154 53012 60004 86530 333 20186 30/// 55083 56000 70000 83630 83364
AAXX 31124 85432 12970 60711 10134 20012 37768 48453 52008 60004 80001 333 20068 30/// 51390 55112 56000 70000 86073
AAXX 31124 85442 12568 49902 10200 20134 40147 52012 60004 81504 333 20170 30/// 50600 55091 56407 70000 81626 83080
AAXX 31124 85467 13980 00207 10188 20119 40171 52012 60004 333 20156 30/// 5///0 55073 70000
AAXX 31124 85469 42560 59903 10196 20153 40188 57005 83201 333 56300 83820 85075
AAXX 31124 85488 12565 80000 10175 20139 40160 51013 60004 885// 333 20157 30012 50450 55005 56099 70000 88622
AAXX 31124 85682 11260 80205 10134 20125 40144 51023 60004 71021 886// 333 20121 31/// 50880 55122 56899 70000 88704
BBXX VOXS 31124 99467 70480 41698 83022 10010 2102/ 40277 51040 70222 885/ 22200 04016 20605 324// 40908 80000
BBXX VOXS 31124 99467 70480 41698 83022 10010 2102/ 40277 51040 70222 885/ 22200 04016 20605 324// 40908 80000
AAXX 31124 78925 12575 40711 10272 20212 40179 53023 60001 84800 333 10295 20256 58001 70000 82825 83656
AAXX 31124 78925 12575 40711 10272 20212 40179 53023 60001 84800 333 10295 20256 58001 70000 82825 83656
AAXX 31121 33815 41596 80000 10011 21008 39922 40133 58003 71042 885// 555 11004
AAXX 31124 97180 32458 50601 10266 20259 30090 40108 51015 81232 333 10293 56000 81819
AAXX 31124 91324 32474 80908 10294 20256 30095 40097 82201 333 562/9 59004 83819 88075 555 93112
AAXX 31124 91329 NIL
AAXX 31124 91336 NIL
AAXX 31124 91339 11474 80812 10294 20249 30091 40097 69931 70282 8637/ 333 56299 59007 70032 86918 88362 555 93112
AAXX 31124 91320 NIL
AAXX 31124 91413 32469 70710 10276 20219 30097 40122 52015 83171 333 10307 56199 58010 70005 555 93112
AAXX 31124 78583 32470 41203 10234 20218 40161 60001 84200 333 01200 10283 20 / / / 59004 84817
AAXX 31124 85406 12660 72702 10227 20139 40145 53013 60004 87600 333 20203 30/// 55087 56000 70000 87640
AAXX 31124 85418 12565 60000 10210 20128 40154 53012 60004 86530 333 20186 30/// 55083 56000 70000 83630 83364
AAXX 31124 85432 12970 60711 10134 20012 37768 48453 52008 60004 80001 333 20068 30/// 51390 55112 56000 70000 86073
AAXX 31124 85442 12568 49902 10200 20134 40147 52012 60004 81504 333 20170 30/// 50600 55091 56407 70000 81626 83080
AAXX 31124 85467 13980 00207 10188 20119 40171 52012 60004 333 20156 30/// 5///0 55073 70000
AAXX 31124 85469 42560 59903 10196 20153 40188 57005 83201 333 56300 83820 85075
AAXX 31124 85488 12565 80000 10175 20139 40160 51013 60004 885// 333 20157 30012 50450 55005 56099 70000 88622
AAXX 31124 85574 12960 01804 10167 20111 39596 40146 51020 60004 333 20137 30/// 55125 70000
AAXX 31124 85585 12598 11607 10181 20126 40182 52017 60004 81100 333 20149 309/// 55106 56300 70000 81830
AAXX 31124 85629 12970 00308 10168 20127 40140 52/// 60004 333 20126 30/// 50810 55136 70000
AAXX 31124 85672 12965 00305 10178 20146 40137 52035 60004 333 20120 30/// 55134 70000
AAXX 31124 85703 12960 01807 10180 20172 40130 57002 333 20150 30///
AAXX 31124 85743 12960 09904 10145 20117 40148 51011 60004 333 20084 30/// 50420 55101 70000
AAXX 31124 85766 12960 09902 10179 20137 40150 52012 60004 333 20111 30/// 55134 70000
AAXX 31124 85799 11230 81903 10124 20124 40155 53004 60001 71041 887// 333 20096 30/// 50780 55138 56499 70000 88705
AAXX 31121 12772 31204 61303 10002 21011 39867 40159 57003 74641 86600 333 86705
AAXX 31121 12822 36/// /3004 10063 21011 30023 40167 58009
AAXX 31121 12843 31685 53004 10049 21018 39988 40160 57007 70311 83242 333 83840
AAXX 31121 12882 41330 81902 10012 20009 30029 40165 52001 71042 886// 333 88708
AAXX 31121 12925 36/// /2303 10047 21013 30008 40182 58015
AAXX 31121 12942 31930 13004 10014 21004 39933 40185 58012 71040 81040
AAXX 31121 12982 31582 13305 10057 20001 30063 40165 58006 70200 81140 333 81820
AAXX 31121 76040 32902 00201 10073 20029 30143 40157 52001 91145 333 10248 20061 30/// 59013 70000 98602
AAXX 31121 76243 32974 01902 10078 20046 39879 40189 54000 91135 333 10258 20064 30058 59011 70000
AAXX 31121 76305 32970 00000 10085 21022 30139 40148 5//// 91150 333 10240 20075 30045 59013 70000
AAXX 31121 76342 32940 01703 10100 21026 39499 40213 52002 91150 333 10314 20096 30090 58023 70000
AAXX 31121 76390 31950 02201 10093 21066 38239 40184 57001 70544 91130 333 10235 20057 30050 58000 70000
AAXX 31121 76458 32960 03502 10132 20104 30128 40132 55002 91140 333 10264 20103 30096 59016 70000
AAXX 31121 76525 32860 31902 10123 20016 37475 40109 57001 82031 91140 333 10188 20120 30103 55089 22472 56/55 58001 70000 82358 81080
AAXX 31121 76548 32360 43601 10194 20191 30170 40180 53002 84400 91140 333 10276 20188 30184 56100 58020 70000 84606
AAXX 31121 76556 32960 01402 10127 20094 39103 40123 56008 91130 333 10284 20124 30110 59014 70000
AAXX 31121 76632 31950 00504 10094 20041 37639 40152 5//// 70500 91140 333 10194 20090 30/// 58001 70000 98550
AAXX 31121 76634 31970 01403 10102 20053 37858 40177 5//// 70500 91150 333 10247 20095 30066 58001 70000
AAXX 31121 76654 31956 00000 10220 20192 30125 40129 5//// 70544 91150 333 10288 20219 30203 59022 70000
AAXX 31121 76685 32550 10000 10088 20072 37871 40153 57004 81100 91150 333 10256 20086 30060 56900 58000 70030 81827
AAXX 31121 76743 31940 00901 10230 20204 30138 40146 53007 70000 91150 333 10285 20230 30205 59006 70000
AAXX 31121 76773 32930 00000 10104 20093 38428 40132 52006 91148 333 10287 20092 30081 50121 55084 59002 70012
AAXX 31121 76775 32960 00501 10101 20074 38531 40177 52005 91145 333 10296 20096 30/// 59002 70012
AAXX 31121 76840 32920 00205 10260 20193 30063 40129 54000 91145 333 10350 20220 30/// 55096 59005 70000
AAXX 31121 76845 31/10 90000 10076 20072 37954 40274 5//// 74744 89/// 91145 333 10224 20070 30062 59002 70000 89///
AAXX 31121 76311 32920 00000 10082 20049 39859 40140 56009 91140 333 10332 20080 30060 59013 70000
AAXX 31121 76750 32558 23401 10203 20202 30155 40165 5//// 81107 91145 333 10312 20198 30192 56106 58000 70000 81820
AAXX 31124 78925 12575 40711 10272 20212 40179 53023 60001 84800 333 10295 20256 58001 70000 82825 83656
AAXX 31124 78583 32470 41203 10234 20218 40161 60001 84200 333 01200 10283 20 / / / 59004 84817
AAXX 31124 91413 32469 70710 10276 20219 30097 40122 52015 83171 333 10307 56199 58010 70005 555 93112
BBXX BATFR03 31124 99497 70011 46/// /2618 10124 20117 40155 22273
BBXX BATFR53 31124 99180 51327 46/// /1010 10247 20202 40142 56010 22222 00262
BBXX BATFR02 31124 99498 70005 46/// /2528 10117 20104 40155 50011 22244 00119
BBXX BATFR13 31124 99300 70450 44498 61114 10219 20172 40332 51009 70311 863// 22254 00230 329// 41204 5////
BBXX BATFR09 31124 99380 70097 44897 30022 10144 20089 40341 58001 70211 83400 22283 00170
BBXX BATFR15 31124 99461 70141 44597 82419 10179 20139 40238 58017 70011 888// 22214 00137 21002 315// 41504 5////
AAXX 31124 91324 32474 80908 10294 20256 30095 40097 82201 333 562/9 59004 83819 88075 555 93112
AAXX 31124 91329 NIL
AAXX 31124 91336 NIL
AAXX 31124 91339 11474 80812 10294 20249 30091 40097 69931 70282 8637/ 333 56299 59007 70032 86918 88362 555 93112
AAXX 31124 91320 NIL
AAXX 31121 76040 32902 00201 10073 20029 30143 40157 52001 91145 333 10248 20061 30/// 59013 70000 98602
AAXX 31121 76243 32974 01902 10078 20046 39879 40189 54000 91135 333 10258 20064 30058 59011 70000
AAXX 31121 76305 32970 00000 10085 21022 30139 40148 5//// 91150 333 10240 20075 30045 59013 70000
AAXX 31121 76342 32940 01703 10100 21026 39499 40213 52002 91150 333 10314 20096 30090 58023 70000
AAXX 31121 76390 31950 02201 10093 21066 38239 40184 57001 70544 91130 333 10235 20057 30050 58000 70000
AAXX 31121 76458 32960 03502 10132 20104 30128 40132 55002 91140 333 10264 20103 30096 59016 70000
AAXX 31121 76525 32860 31902 10123 20016 37475 40109 57001 82031 91140 333 10188 20120 30103 55089 22472 56/55 58001 70000 82358 81080
AAXX 31121 76548 32360 43601 10194 20191 30170 40180 53002 84400 91140 333 10276 20188 30184 56100 58020 70000 84606
AAXX 31121 76556 32960 01402 10127 20094 39103 40123 56008 91130 333 10284 20124 30110 59014 70000
AAXX 31121 76632 31950 00504 10094 20041 37639 40152 5//// 70500 91140 333 10194 20090 30/// 58001 70000 98550
AAXX 31121 76634 31970 01403 10102 20053 37858 40177 5//// 70500 91150 333 10247 20095 30066 58001 70000
AAXX 31121 76654 31956 00000 10220 20192 30125 40129 5//// 70544 91150 333 10288 20219 30203 59022 70000
AAXX 31121 76685 32550 10000 10088 20072 37871 40153 57004 81100 91150 333 10256 20086 30060 56900 58000 70030 81827
AAXX 31121 76743 31940 00901 10230 20204 30138 40146 53007 70000 91150 333 10285 20230 30205 59006 70000
AAXX 31121 76773 32930 00000 10104 20093 38428 40132 52006 91148 333 10287 20092 30081 50121 55084 59002 70012
AAXX 31121 76775 32960 00501 10101 20074 38531 40177 52005 91145 333 10296 20096 30/// 59002 70012
AAXX 31121 76840 32920 00205 10260 20193 30063 40129 54000 91145 333 10350 20220 30/// 55096 59005 70000
AAXX 31121 76845 31/10 90000 10076 20072 37954 40274 5//// 74744 89/// 91145 333 10224 20070 30062 59002 70000 89///
AAXX 31121 76311 32920 00000 10082 20049 39859 40140 56009 91140 333 10332 20080 30060 59013 70000
AAXX 31121 76750 32558 23401 10203 20202 30155 40165 5//// 81107 91145 333 10312 20198 30192 56106 58000 70000 81820
BBXX BATFR04 31124 99551 70058 46/// /2330 10117 20089 49994 58005 22232 00100
BBXX BATFR08 31124 99210 30551 44597 33110 10277 20234 40112 702// 831// 22253 00280 21502 330// 415// 5////
AAXX 31121 01001 11357 81314 10010 21000 39733 49744 58070 69921 76876 887// 222// 00003 333 91122
AAXX 31121 01008 41480 72302 11110 21131 30000 40035 58003 70272 8657/ 333 91110
AAXX 31121 01010 41589 31505 11033 21056 30053 40069 52004 70200 81108 333 91106
AAXX 31121 01026 NIL
AAXX 31121 01055 46/// /1604 11014 21060 30069 40087 52010 333 91106
AAXX 31121 01062 NIL
AAXX 31121 01098 41360 80607 10001 21043 30066 40084 52013 78582 883// 333 91114
AAXX 31121 01115 41488 21404 10013 21032 30027 40048 57006 70200 81201 333 91107
AAXX 31121 01152 11281 11007 11051 21063 30044 40060 57000 60001 70211 81671 333 91109
AAXX 31121 01205 NIL
AAXX 31121 01212 16/// /1309 10029 21036 39981 49997 58027 6//// 333 91113
AAXX 31121 01271 NIL
AAXX 31121 01288 41920 00000 11206 21225 39319 40133 58011 71041 333 91105
AAXX 31121 01300 NIL
AAXX 31121 01317 41670 81606 10027 21048 30003 40018 57016 77072 8652/ 333 91114
AAXX 31121 01367 41789 23202 11126 21148 39645 40115 58016 70210 83070 333 91105
AAXX 31121 01384 41989 20201 11055 21078 39838 40091 58008 70200 80008 333 91104
AAXX 31121 01403 11570 81416 10021 20002 39952 40021 58014 60011 70262 8572/ 333 91122
AAXX 31121 01415 NIL
AAXX 31121 01482 46/// /0504 11045 21075 30077 40084 58010 333 91108
AAXX 31121 01492 NIL
AAXX 31124 81225 11360 70905 10238 20228 40148 69984 78082 85842 333 56199 58002 82808 84630 85360
AAXX 31124 81200 11460 70000 10244 20226 40146 60074 71582 85832 333 56329 58005 103810 83630 85358
AAXX 31124 81202 11460 61106 10256 20233 40149 60074 71581 86932 333 56236 56299 58002 81812 81918 86625
AAXX 31124 81209 NIL
AAXX 31124 81251 NIL
BBXX BATFR45 31124 99072 10564 46/// ///// 10277 20210 40122 56014 22254 00289
AAXX 31121 01003 NIL
AAXX 31121 01007 11989 71306 11087 21182 30010 40020 56009 60001 70321 82036 333 91109
AAXX 31121 01028 NIL
AAXX 31121 01047 41588 83605 11053 21073 39680 40057 52011 70222 885//
AAXX 31121 01049 16/// /2001 11074 21084 30084 40087 52008 69931 333 91102
AAXX 31121 01078 41360 81508 11010 21028 30073 40086 51015 78688 8732/ 333 91115
AAXX 31121 01102 46/// /1407 10014 21023 30022 40041 58010 333 91111
AAXX 31121 01160 41789 40506 11010 21037 30044 40062 50000 70200 84800 333 91109
AAXX 31121 01218 NIL
AAXX 31121 01238 41675 83402 11088 21122 38899 40036 56018 70220 8117/ 333 91107
AAXX 31121 01241 NIL
AAXX 31121 01281 NIL
AAXX 31121 01338 16/// /0705 11004 21048 39983 40050 57016 60001 333 91111
AAXX 31121 01359 NIL
AAXX 31121 01397 16/// /0000 11169 21183 39651 40121 57009 60001 333 91103
AAXX 31121 01400 NIL
AAXX 31121 01427 11456 81008 10019 21010 30036 40052 58013 69921 76162 8562/ 333 91112
AAXX 31121 01447 NIL
AAXX 31121 01448 46/// /0605 10014 21025 30066 40076 58010 333 91107
AAXX 31121 76040 32902 00201 10073 20029 30143 40157 52001 91145 33310248 20061 30/// 59013 70000 98602
AAXX 31121 76243 32974 01902 10078 20046 39879 40189 54000 91135 33310258 20064 30058 59011 70000
AAXX 31121 76305 32970 00000 10085 21022 30139 40148 5//// 91150 33310240 20075 30045 59013 70000
AAXX 31121 76342 32940 01703 10100 21026 39499 40213 52002 91150 33310314 20096 30090 58023 70000
AAXX 31121 76390 31950 02201 10093 21066 38239 40184 57001 70544 91130333 10235 20057 30050 58000 70000
AAXX 31121 76458 32960 03502 10132 20104 30128 40132 55002 91140 33310264 20103 30096 59016 70000
AAXX 31121 76525 32860 31902 10123 20016 37475 40109 57001 82031 91140333 10188 20120 30103 55089 22472 56/55 58001 70000 8235881080
AAXX 31121 76548 32360 43601 10194 20191 30170 40180 53002 84400 91140333 10276 20188 30184 56100 58020 70000 84606
AAXX 31121 76556 32960 01402 10127 20094 39103 40123 56008 91130 33310284 20124 30110 59014 70000
AAXX 31121 76632 31950 00504 10094 20041 37639 40152 5//// 70500 91140333 10194 20090 30/// 58001 70000 98550
AAXX 31121 76634 31970 01403 10102 20053 37858 40177 5//// 70500 91150333 10247 20095 30066 58001 70000
AAXX 31121 76654 31956 00000 10220 20192 30125 40129 5//// 70544 91150333 10288 20219 30203 59022 70000
AAXX 31121 76685 32550 10000 10088 20072 37871 40153 57004 81100 91150333 10256 20086 30060 56900 58000 70030 81827
AAXX 31121 76743 31940 00901 10230 20204 30138 40146 53007 70000 91150333 10285 20230 30205 59006 70000
AAXX 31121 76773 32930 00000 10104 20093 38428 40132 52006 91148 33310287 20092 30081 50121 55084 59002 70012
AAXX 31121 76775 32960 00501 10101 20074 38531 40177 52005 91145 33310296 20096 30/// 59002 70012
AAXX 31121 76840 32920 00205 10260 20193 30063 40129 54000 91145 33310350 20220 30/// 55096 59005 70000
AAXX 31121 76845 31/10 90000 10076 20072 37954 40274 5//// 74744 89///91145 333 10224 20070 30062 59002 70000 89///
AAXX 31121 76311 32920 00000 10082 20049 39859 40140 56009 91140 33310332 20080 30060 59013 70000
AAXX 31121 76750 32558 23401 10203 20202 30155 40165 5//// 81107 91145333 10312 20198 30192 56106 58000 70000 81820
AAXX 31124 78970 11465 50000 10271 20228 30128 40153 60001 71511 83842 333 02299 10311 20231 58005 70001 83816 83080
AAXX 31124 78962 11458 70610 10238 20221 30158 40166 60061 71681 84872 333 02299 10300 20221 58006 70087 83814 83640 85358 90914
BBXX BATFR19 31124 99064 30055 46/// /1909 10257 20190 40147 58007 22282 00259
BBXX BATEU01 31124 99461 70147 44/97 82433 10154 20132 40213 58006 70222 8//// 22254 00139 22102 322// 41004 5////
AAXX 31124 67665 42680 63302 10271 20214 48507 85232 333 58003 85835 82360 81080
AAXX 31124 67665 42680 63302 10271 20214 48507 85232 333 58003 85835 82360 81080
AAXX 31124 78897 11575 40906 10256 20215 40189 53020 60021 70386 83802 333 022// 10286 20222 59004 70062 83821
AAXX 31124 78897 11575 40906 10256 20215 40189 53020 60021 70386 83802 333 022// 10286 20222 59004 70062 83821
AAXX 31124 81225 11360 70905 10238 20228 40148 69984 78082 85842 333 56199 58002 82808 84630 85360
AAXX 31124 81200 11460 70000 10244 20226 40146 60074 71582 85832 333 56329 58005 103810 83630 85358
AAXX 31124 81202 11460 61106 10256 20233 40149 60074 71581 86932 333 56236 56299 58002 81812 81918 86625
AAXX 31124 81209 NIL
AAXX 31124 81251 NIL
AAXX 31121 78221 11462 10703 10213 20199 30175 40202 52010 60004 70302 81200 333 81815
AAXX 31121 78224 32960 41103 10182 20169 30128 40204 50007 84040 333 20167 84361
AAXX 31121 78229 11940 11001 10194 20169 30126 40201 52010 60004 71000 81002 333 81070
AAXX 31121 78239 11559 20504 10227 20198 30200 40203 52010 60144 70500 82800 333 20216 81820
AAXX 31121 78244 NIL
AAXX 31121 78243 11505 21001 10171 20166 30085 40209 52008 60004 71240 82510 333 82625
AAXX 31121 78255 11458 20304 10206 20193 30056 40205 52010 60004 74000 81801 333 20202 81816
AAXX 31121 78264 NIL
AAXX 31121 78265 11557 10502 10195 20183 30090 40190 52010 60004 71144 81100 333 20193 81820
AAXX 31121 78256 NIL
AAXX 31121 78259 NIL
AAXX 31121 78268 NIL
AAXX 31124 85682 11260 80205 10134 20125 40144 51023 60004 71021 886// 333 20121 31/// 50880 55122 56899 70000 88704
AAXX 31124 85934 12580 72909 10099 20013 40074 52018 69924 84103 333 20063 55125 56606 70002 84820 85070
AAXX 31124 89056 11015 82409 10003 20000 49708 52032 60012 77152 884// 333 10012 20003 55001 56599 88601 93101
AAXX 31124 89058 11456 82510 10007 20000 39677 49698 52026 69981 77076 886//
AAXX 31124 89059 12460 81636 10020 21029 49693 52021 69932 885// 333 01650 10020 21008 42998 55/// 74099 88613
AAXX 31124 89251 11140 82710 10008 20001 49692 52026 69912 77177 8672/ 333 20006
AAXX 31121 10004 NIL
AAXX 31121 10015 01359 81710 10041 20023 30067 40077 58016 69901 72162 875// 333 31/// 55300 20310 30310 69907 83709 87625 91113 91211
AAXX 31121 10020 17458 81709 10037 20024 30045 40078 58014 69901 70065 333 55300 20323 30310 86/11 87/16 88/56
AAXX 31121 10035 11115 81803 10017 20016 30037 40097 58010 60001 72842 886// 333 31/// 55300 20104 30100 41150 88703
AAXX 31121 10055 11/02 91904 10010 20008 30096 40107 57005 60001 74711 333 31/// 55300 20126 30126
AAXX 31121 10147 12460 51503 10042 20019 30085 40104 58012 60001 83601 333 31/// 55306 20537 30379 40975 83710 83075
AAXX 31121 10162 11256 81902 10029 20028 30029 40113 58011 60001 71042 886// 333 31/// 55300 20393 30385 88705
AAXX 31121 10184 11024 82003 10011 20011 30112 40120 50001 60001 72841 886// 333 31/// 55300 20207 30207 88701
AAXX 31121 10200 01256 81606 10033 20028 30077 40075 58016 69941 76162 877// 333 32/// 55300 20088 30088 69937 87705
AAXX 31121 10224 01465 71403 10039 20019 30087 40093 58017 69901 76062 875// 333 31/// 55300 20337 30336 69907 87616
AAXX 31121 10270 NIL
AAXX 31121 10338 12570 71705 10041 20012 30030 40103 58017 60001 85531 333 31/// 55300 20457 30449 85623 86073
AAXX 31121 10361 11970 31803 10046 20007 30019 40124 58013 69901 70161 82031 333 31/// 55310 20753 30336 82364
AAXX 31121 10393 01475 72404 10035 20013 30003 40132 58007 69901 70362 86206 333 31/// 55304 20590 30440 69907 86812 85270
AAXX 31121 10400 01125 81704 10049 20044 30047 40097 58008 60051 75165 886// 333 32/// 55300 20136 30136 60027 84702 88706 96010
AAXX 31121 10438 07250 81704 10018 20013 39831 40116 58016 69911 75776 333 55300 69917 88/05
AAXX 31121 10469 12582 72104 10046 20001 39962 40129 58015 60001 81184 333 31/// 55307 81820 86073
AAXX 31121 10488 12481 72003 10036 20003 39854 40139 58009 60001 83806 333 31/// 55300 20348 30336 41031 83819 86274
AAXX 31121 10506 01165 82503 10041 20034 39533 40119 50000 69981 72076 886// 333 31/// 55300 20230 30230 69917 88702
AAXX 31121 10548 01120 81704 10000 21002 39585 40139 58012 60011 76872 886// 333 42001 55300 20218 30218 60017 88702
AAXX 31121 10637 01142 82004 10039 20032 39991 40131 58011 60031 75365 877// 333 31/// 55300 60017 82702 87704 96010
AAXX 31121 10685 01358 71904 11002 21013 39452 40140 58016 69901 77772 875// 333 44011 55300 20447 30446 69907 85707 83630 85657 96477
AAXX 31121 10738 01459 82102 10041 20028 39668 40142 58009 60021 76376 885// 333 32/// 55300 60027 83710 88625
AAXX 31121 10763 01257 81703 10022 20011 39756 40145 58016 69961 76877 877// 333 31/// 55300 20261 30256 69967 81705 87707
AAXX 31121 10788 07357 81402 10014 20006 39724 40166 58012 69911 77176 333 55300 20191 30191 69917 88/08
AAXX 31121 10852 01357 81603 10010 20010 39576 40157 58014 69991 76872 8572/ 333 31/// 55300 20205 30205 69997 85707 88512
AAXX 31121 10946 07467 82104 10022 20015 39319 40161 58004 60031 76176 333 4/004 55300 20176 30176 60027 83/11 88/36
AAXX 31121 01015 NIL
AAXX 31121 01023 41689 30000 11210 21225 39991 40095 52003 70200 81508 333 91102
AAXX 31121 01033 46/// /1504 11017 21057 30044 40076 53008 333 91108
AAXX 31121 01059 41440 83504 11025 21039 30074 40083 53013 77172 886// 333 91106
AAXX 31121 01089 16/// /0605 11006 21037 39959 40066 52014 6//// 333 91110
AAXX 31121 01167 41887 73302 11060 21070 30060 40064 56003 70320 81047 333 91103
AAXX 31121 01180 NIL
AAXX 31121 01210 16/// /1308 10024 21048 39969 49996 58023 6//// 333 91112
AAXX 31121 01228 NIL
AAXX 31121 01240 16/// /1210 10016 21033 30005 40025 58025 6//// 333 91113
AAXX 31121 01304 46/// /0000 10038 21030 39955 49986 58026 333 91100
AAXX 31121 01311 46/// /1507 10027 21045 39957 40019 58017 333 91112
AAXX 31121 01340 NIL
AAXX 31121 01355 16/// ///// 11026 21053 30054 40059 58018 60001
AAXX 31121 01360 NIL
AAXX 31121 01392 11978 30501 11088 21104 39868 40104 58007 60001 70300 80001 333 91102
AAXX 31121 01406 46/// /1410 10027 21022 30000 40018 58017 333 91116
AAXX 31121 01411 16/// /1311 10032 21010 30004 40030 58014 6//// 333 91117
AAXX 31121 01425 NIL
AAXX 31121 01433 46/// /1105 11056 21116 38787 40067 57007 333 91111
AAXX 31121 01442 11889 73504 11036 21070 39823 40088 57012 60001 70311 87072 333 91108
AAXX 31121 01450 NIL
AAXX 31121 01452 11588 70404 11009 21037 30059 40081 57010 60001 70320 8157/ 333 91107
AAXX 31121 01473 41880 40801 11063 21089 39879 40096 58013 70220 82040 333 91102
AAXX 31121 01494 16/// /3602 11042 21053 30023 40091 58008 60001 333 91104
AAXX 31121 01037 16/// /1302 11156 21171 30082 40089 52007 69931 333 91103
AAXX 31121 01046 41989 12001 11104 21116 30081 40088 51009 70100 80002 333 91103
AAXX 31121 01058 16/// /3404 11067 21082 39602 40080 52008 69971 333 4/027 91107
AAXX 31121 01065 11650 80402 11029 21040 39903 40067 52013 60011 78588 888// 333 91109
AAXX 31121 01092 NIL
AAXX 31121 01107 16/// /1403 10006 2//// 30045 40050 58004 60001 333 91106
AAXX 31121 01114 16/// /0603 11063 21079 30044 40055 58003 60001 333 91104
AAXX 31121 01144 41886 11306 11011 21038 70100 81050 333 91108
AAXX 31121 01199 NIL
AAXX 31121 01245 11983 63303 11035 21115 39330 40047 56022 60001 70320 80008 333 91107
AAXX 31121 01259 16/// /1607 10004 21050 30016 40039 58018 60001 333 91109
AAXX 31121 01262 NIL
AAXX 31121 01278 41485 71405 11070 21078 39956 40062 58012 70222 81601
AAXX 31121 01293 11984 51502 11088 21102 39858 40075 58012 60001 70221 81031 333 91104
AAXX 31121 01329 NIL
AAXX 31121 01337 NIL
AAXX 31121 01344 16/// ///// 11022 21120 60001 333 4/072
AAXX 31121 01364 16/// /0906 11094 21124 38927 40084 50012 60001 333 4/047 91108
AAXX 31121 01373 11989 30000 11097 21110 39894 40102 58019 69921 70300 80005 333 91101
AAXX 31121 01374 41989 60000 11107 21114 70321 80008
AAXX 31121 01380 16/// /0101 11135 21151 6//// 333 4/035 91103
AAXX 31121 01389 NIL
AAXX 31121 01393 NIL
AAXX 31121 01424 11780 4//// 11007 21042 30055 40058 57016 60001 70210 84400
AAXX 31121 01431 16/// /2402 11030 21056 39394 40071 56013 60001 333 91106
AAXX 31121 01436 NIL
AAXX 31121 01465 11682 60207 11001 21037 30065 40084 58010 60001 70321 81542 333 91108
AAXX 31121 01471 16/// /0101 11082 21117 60001 333 91105
AAXX 31121 01483 NIL
AAXX 31121 01025 16/// /2101 11052 21068 30072 40083 52006 6//// 333 91106
AAXX 31121 01052 16/// /0101 11062 21072 39982 40083 52008 60001 333 91103
AAXX 31121 01122 16/// /1801 11118 21130 39976 40071 50000 60001 333 91103
AAXX 31121 01132 16/// /0401 11135 21150 39669 40081 58001 60001 333 91103
AAXX 31121 01156 16/// /0906 11014 21036 30049 40059 54001 69931 333 91108
AAXX 31121 01203 46/// /1708 10044 21059 39933 49981 58027 333 91121
AAXX 31121 01233 16/// /0701 11118 21127 60011 333 91103
AAXX 31121 01265 NIL
AAXX 31121 01273 NIL
AAXX 31121 01307 46/// /1516 10032 21013 39972 40000 58019 333 91121
AAXX 31121 01321 16/// /1602 11027 21032 39761 40019 57020 60001 333 91104
AAXX 31121 01327 11880 81403 11026 21078 60001 70222 8807/ 333 91106
AAXX 31121 01350 16/// /1205 11092 21114 38642 40039 58011 60001 222// 00049 333 91109
AAXX 31121 01361 16/// /0905 11099 21127 39004 40066 56016 60001 333 4/072 91113
AAXX 31121 01375 NIL
AAXX 31121 01378 16/// /0101 11103 21121 39792 40099 58011 60001 333 91105
AAXX 31121 01385 16/// /0501 11075 21100 39818 40101 58010 60001 333 91103
AAXX 31121 01412 16/// /1309 10016 21008 30000 40030 58016 60001 333 91115
AAXX 31121 01422 16/// /0904 10034 21057 60001 333 91109
AAXX 31121 01440 NIL
AAXX 31121 01441 NIL
AAXX 31121 01467 NIL
AAXX 31121 01469 NIL
AAXX 31121 01477 16/// /3501 11040 21064 60001 333 4/014 91103
AAXX 31121 01480 16/// /3301 11057 21081 69931 333 91104
AAXX 31121 01484 16/// /0000 11059 21080 39935 40097 58007 69991 333 91102
AAXX 31121 01490 16/// /1102 11039 21076 60001 333 91105
AAXX 31121 01495 16/// /0504 11020 21047 30073 40086 58011 60001 333 91106
AAXX 31121 37575 42998 10119 21022 39598 40174 57009 82050 555 11007
AAXX 31121 37675 42999 03202 10110 21103 39523 40171 57004 555 11014- 37735 42998 02901 10101 21019 39771 40143 57010 555 10012
AAXX 31121 37749 42998 02501 10083 20023 30091 40207 57004 555 11008
AAXX 31121 37756 42999 21701 10070 21025 39320 40228 58015 80002 555 11006
AAXX 31121 37864 32997 43504 10083 20039 40189 55001 82041
AAXX 31121 37985 42998 20201 10091 20038 30204 40190 57020 82040 555 11013
BBXX PHQX 31123 99183 70589 41497 20908 10259 20212 40208 52010 70200 82201 22254 20403 3//// 4//04 5//// 80226
AAXX 31121 10609 01057 82303 10053 20049 39799 40131 58002 69931 72065 886// 333 31/// 55300 20266 30265 69927 82701 88705 96445
AAXX 31121 10616 01/00 92804 10035 20035 39522 40127 58001 69971 74776 333 32/// 4/998 55300 69927 96251 96469 96459
AAXX 31121 10641 07235 71502 10032 20026 39982 40131 58012 60051 75776 333 55300 60037 87/05
AAXX 31121 10655 01257 81603 10024 20021 39805 40139 57013 69981 76176 877// 333 31/// 55300 20178 30174 69977 83704 87706
AAXX 31121 10675 07250 71503 10018 20009 39848 40146 58014 69971 75776 333 55300 20233 30233 69977 87/06 87/15 87/21
AAXX 31121 10688 07327 81802 10004 21002 39621 40156 58013 69941 77170 333 55300 20245 30245 69947 87/08 87/21 88/33
AAXX 31121 10708 01/07 92202 10056 20055 39749 40136 58003 60011 75165 333 31/// 55300 20171 30167 69967 96047
AAXX 31121 10729 07225 81603 10042 20038 30020 40144 58011 60021 75265 333 55300 20172 30172 60017 87/06 88/15
AAXX 31121 10731 01245 82504 10061 20055 39991 40135 58008 60031 75165 877// 333 31/// 55300 20087 30086 60037 87704
AAXX 31121 10742 07331 82401 10036 20028 39804 40140 58013 60021 75865 333 55300 20198 30198 60027 87/06 88/11
AAXX 31121 10776 01228 81403 10004 21001 39704 40159 58015 69961 77172 877// 333 31/// 55300 20231 30231 69967 87706
AAXX 31121 10791 01/90 92107 11059 21064 38475 48423 58013 69901 77174 333 49130 55300 69907 96049
AAXX 31121 10805 01465 82006 10066 20053 39959 40151 58004 60021 72162 878// 333 31/// 55300 20144 30144 60017 82814 87624
AAXX 31121 10815 01257 82507 10023 20023 39196 48432 58003 60021 75976 877// 333 43028 55300 20457 30456 60017 85704 85707 96471 96468 96459 96458
AAXX 31121 10836 01215 82104 10007 20007 39264 40147 58010 60021 75175 877// 333 43006 55300 20329 30329 60017 87704
AAXX 31121 10870 01220 81703 10004 20003 39618 40165 58013 60011 77172 8772/ 333 42001 55300 60017 84704 86712 88520 96273 96473 96471
AAXX 31121 10895 01465 82002 10007 21010 39587 40170 57013 69901 77172 875// 333 42003 55300 20364 30356 69907 87613
AAXX 31121 10908 01/00 92712 10011 20011 38453 48451 51002 60071 76176 333 49092 55300 20455 30455 60057 89/01 91118 91216 96045 96477 96473 96467 96457
AAXX 31121 10929 01260 82504 10039 20031 39629 40167 58006 60061 76176 8752/ 333 42997 55300 20111 30111 60047 81706 87611
AAXX 31121 10948 01350 81603 10006 20006 39216 48452 53002 60121 76376 8172/ 333 43039 55300 20097 30097 60097 81707 88530 96473 96465
AAXX 31121 10961 11/01 93111 11084 21084 37004 47965 50002 60091 77374 333 49250 55300 20375 41068 91122 91215 96049
AAXX 31121 10962 01/01 92407 10000 21001 38992 48434 58008 60031 77374 333 43014 55300 20226 30222 60027 96045
AAXX 31121 10980 11/01 92718 11038 21040 38083 48436 58005 60031 77174 333 49094 55300 20272 30272 91122 90208 91218 91218 96049 96471 96449
AAXX 31124 65338 31956 50404 10325 20078 39927 40112 70522 80002 333 0//00 59004 85076
AAXX 31121 78221 11462 10703 10213 20199 30175 40202 52010 60004 70302 81200 333 81815
AAXX 31121 78224 32960 41103 10182 20169 30128 40204 50007 84040 333 20167 84361
AAXX 31121 78229 11940 11001 10194 20169 30126 40201 52010 60004 71000 81002 333 81070
AAXX 31121 78239 11559 20504 10227 20198 30200 40203 52010 60144 70500 82800 333 20216 81820
AAXX 31121 78244 NIL
AAXX 31121 78243 11505 21001 10171 20166 30085 40209 52008 60004 71240 82510 333 82625
AAXX 31121 78255 11458 20304 10206 20193 30056 40205 52010 60004 74000 81801 333 20202 81816
AAXX 31121 78264 NIL
AAXX 31121 78265 11557 10502 10195 20183 30090 40190 52010 60004 71144 81100 333 20193 81820
AAXX 31121 78256 NIL
AAXX 31121 78259 NIL
AAXX 31121 78268 NIL
AAXX 31121 10007 NIL
AAXX 31121 10044 NIL
AAXX 31121 10046 41227 81804 10022 20014 30062 40102 57010 71042 876// 333 87704
AAXX 31121 10091 11005 62306 10034 20025 30057 40109 58003 60001 74611 86601 222// 06053 333 31/// 55307 20598 30349 86700
AAXX 31121 10113 072// 81706 10032 20025 30054 40073 57015 69911 7//// 333 55300 20137 30130 69917 88/05
AAXX 31121 10124 NIL
AAXX 31121 10131 12564 81605 10034 20016 30074 40089 58016 60001 875// 333 31/// 55300 20351 30350 87624
AAXX 31121 10170 11140 81904 11004 21007 30099 40115 56006 60001 71011 886// 333 31/// 55300 20250 30247 88702 98040
AAXX 31121 10264 11464 61802 10035 20014 30007 40115 58011 60001 70141 86200 333 31/// 55305 20559 30431 86810
AAXX 31121 10291 12268 82303 10017 20006 30062 40131 58001 60001 876// 333 31/// 55300 20211 30211 87706
AAXX 31121 10315 01230 81603 10038 20033 30027 40092 58013 69981 75162 876// 333 31/// 55300 20139 30139 69947 83704 87707 96010
AAXX 31121 10379 12476 52002 10045 20009 30003 40126 58009 60001 82808 333 31/// 55308 20669 30302 40899 81815 85275
AAXX 31121 10382 11375 72501 10038 20011 30085 40131 58008 69901 70152 875// 333 31/// 55307 20647 30425 81708 87614
AAXX 31121 10384 16/// /3101 10043 20015 30068 40129 58008 69901 333 55306 20527 30319
AAXX 31121 10427 01/01 92106 11012 21012 39089 48390 58008 60021 77174 333 48042 55300 20269 30269 69977 96041
AAXX 31121 10430 01458 81603 10031 20017 39909 40104 58012 69911 76165 886// 333 31/// 55300 20174 30174 69917 87710
AAXX 31121 10439 NIL
AAXX 31121 10453 11/90 92111 11041 21041 38752 48382 58013 69921 77174 333 49115 55300 91115 91212 96049 96036 96449 96441 96436
AAXX 31121 10496 12771 42702 10050 20011 30048 40134 58010 60001 82101 333 31/// 55309 20750 30404 82850 84073
AAXX 31121 10499 12468 82404 10041 20003 39845 40138 58009 60001 85507 333 31/// 55304 20481 30294 85617 88270
AAXX 31121 10505 01017 82507 10085 20085 39825 40104 50000 60011 75965 887// 333 31/// 55300 20093 30093 69977 88701
AAXX 31121 10513 01120 81202 10045 20045 39988 40110 58008 60041 75965 877// 333 31/// 55300 20150 30150 60027 87702 96010 96453
AAXX 31121 10532 07143 71503 10020 20018 39868 40121 58011 60031 76176 333 55300 20158 30158 69987 86/02 87/28
AAXX 31121 10544 01/01 90000 11016 21016 39027 48402 58011 69991 77174 333 48022 55300 69987 96049
AAXX 31121 10554 01680 72005 10033 21003 39731 40123 58015 69901 76022 8457/ 333 31/// 55301 20519 30476 69907 84636 87460
AAXX 31121 10567 12472 72105 10028 20002 39751 40132 58017 60001 81138 333 31/// 55306 20614 30445 81816 84358 87273
AAXX 31121 10578 11/01 92709 11051 21055 38713 48409 58010 69911 74974 333 48071 55300 20519 30503
AAXX 31121 01121 46/// /1207 10000 21041 30038 40050 58008 333 91110
AAXX 31121 01135 16/// /1002 11084 21089 39911 40070 57003 60001 333 4/029 91104
AAXX 31121 01143 16/// /2002 11112 21126 60001 333 91105
AAXX 31121 01150 16/// /1002 11138 21162 60001 333 91105
AAXX 31121 01192 16/// /2501 11089 21135 60001 333 4/016 91103
AAXX 31121 01225 46/// /1205 10019 21052 30004 40009 58019 333 91114
AAXX 31121 01230 16/// /2004 11077 21102 60001 333 4/045 91108
AAXX 31121 01232 16/// /1705 11012 21078 39961 40042 58021 60001 333 4/010 91111
AAXX 31121 01234 16/// /2004 11103 21112 60001 333 91106
AAXX 31121 01253 16/// /1603 11117 21134 60001 333 91106
AAXX 31121 01254 16/// /1801 11116 21131 60001 333 4/031 91103
AAXX 31121 01257 NIL
AAXX 31121 01277 NIL
AAXX 31121 01291 16/// /2901 11105 21117 60001 333 4/039 91103
AAXX 31121 01332 16/// /3501 11035 21055 6//// 333 91103
AAXX 31121 01366 46/// /1606 11099 21134 38409 40065 57014 333 91109
AAXX 31121 01370 NIL
AAXX 31121 01376 16/// /0301 11066 21099 60001 333 91104
AAXX 31121 01383 46/// /0000 11156 21169 39784 40121 58011 333 91100
AAXX 31121 01386 16/// ///// 11078 21100 60001
AAXX 31121 01416 16/// ///// 10024 21024 60001
AAXX 31121 01419 NIL
AAXX 31121 01430 16/// ///// 10003 21030 60001
AAXX 31121 01434 16/// /0000 11124 21141 39094 40077 58010 60001 333 91101
AAXX 31121 01455 16/// /3301 11033 21055 39773 40091 58012 60001 333 91103
AAXX 31121 01468 16/// /1101 11063 21075 60001 333 91102
AAXX 31121 01470 16/// /0501 11051 21075 39975 40093 58011 60001 333 4/003 91104
AAXX 31121 01476 NIL
AAXX 31121 01481 16/// /0102 11024 21056 30056 40089 57012 60001 333 91104
AAXX 31121 01488 NIL
AAXX 31124 78583 32470 41203 10234 20218 40161 60001 84200 333 01200 10283 20/// 59004 84817
AAXX 31124 78583 32470 41203 10234 20218 40161 60001 84200 333 01200 10283 20/// 59004 84817
BBXX CGDS 31124 99429 70792 46/// /2809 10061 20054 40077 52016 7//// 8//// 22200 0//// 2////
AAXX 31121 11816 12580 42805 10061 21018 30000 40165 57010 60001 83240 333 83830
AAXX 31121 11826 12580 59902 10047 20001 39960 40162 58006 60001 82141 333 82820 83358
AAXX 31121 11903 12570 62102 10015 20002 39769 40157 58002 60001 86800 333 81830 83637 85656
AAXX 31121 11934 11460 72607 10005 21034 39304 42743 57001 69901 78522 87800 333 81710 83850 85656
AAXX 31121 11968 12260 89902 10005 21012 39865 40152 57003 60001 886// 333 83706 87709
AAXX 31121 02741 47583 52804 11002 21037 30033 40049 52002 70000 85/// 91139
AAXX 31121 02755 47257 81602 11036 21043 39887 49983 52016 77170 88/// 91139
AAXX 31121 02805 47535 70103 11030 21040 39936 40070 52014 76776 87/// 91139
AAXX 31121 02807 47499 70505 11035 21052 39861 40046 700// 87/// 91200
AAXX 31121 02836 47544 80302 11052 21060 39789 40015 52016 77170 88/// 91139
AAXX 31121 02845 47531 70203 11056 21059 39749 40002 52018 77176 85/// 91139
AAXX 31121 02849 47431 70402 11051 21057 39727 40006 52018 77170 87/// 91139
AAXX 31121 02866 47450 70801 11040 21040 39834 49986 52019 77176 87/// 91139
AAXX 31121 02897 47375 82201 11036 21043 39808 49992 700// 88/// 91200
AAXX 31121 02913 47429 82203 11033 21038 39937 49990 771// 88///
AAXX 31121 02917 47499 22302 11053 21073 39881 40007 700// 82/// 91200
AAXX 31121 02924 47757 72401 11061 21068 39804 40006 52008 78587 87/// 91139
AAXX 31121 02926 47668 73103 11009 21047 30004 40017 54001 785// 87/// 91200
AAXX 31121 02935 47475 10000 11078 21083 39833 40012 52010 78587 81/// 91139
AAXX 31121 02939 47381 72202 11021 21028 39804 49999 52017 77187 83/// 91139
AAXX 31121 02944 47680 52103 11030 21043 39866 40016 777// 85/// 91200
AAXX 31121 02947 47575 72301 11040 21055 40024 52014 70000 87/// 91151
AAXX 31121 02963 41670 52102 11018 21037 40020 51005 78582 85300
AAXX 31121 02974 41582 72502 11009 21038 39967 40034 52006 70281 875//
AAXX 31121 02976 46/// /2803 11017 21047 30018 40034 52011 91139
AAXX 31121 02981 47999 02908 10013 2//// 30034 40044 54000 70000 91139
AAXX 31121 02982 46/// /2805 10013 21046 30028 40036 52002 91139
AAXX 31124 61901 11581 71014 10181 20124 39681 40188 69921 72582 878// 91150 333 59004 81820 87635
AAXX 31124 61902 11584 51512 10269 20182 40155 69901 70182 85800 333 59002 81825 85650
AAXX 31124 88889 12683 72519 10132 20043 39993 40076 52032 60004 81102 91150 333 20096 30008 81830 87080 90710 91126 91026
BBXX 42039 31121 99288 70860 46/// /2805 10220 40200 53009 91150 22200 00227 10501 20401 300// 40501 70007 333 91206 555 11050 22053 31107 42706 61149 279048 281050 268048 275050 272049 274049 82706 91107
BBXX 41040 31121 99145 70530 46/// /0711 10265 20215 40177 53020 91150 22200 00269 10906 20605 3//// 40903 70032 333 91214 555 11114 22122 31121 40715 61149 071106 063095 068115 068112 070109 068106 80713 91121
AAXX 31124 03005 11257 72320 10075 20069 39811 49910 58011 60021 78082 878// 91150 333 55300 20175 83705 87618 90710 91130
AAXX 31124 03017 17780 /1913 10072 20062 39887 49918 58021 69921 723// 91150 333 55300 20131 87/50
AAXX 31124 03023 17250 /2225 10103 20103 39915 49920 58015 60011 710// 91150 333 88/04 90710 91134
AAXX 31124 03026 17484 /2019 10105 20098 39878 49896 56035 60011 723// 91150 333 55300 20096 81/10 90710 91132
AAXX 31124 03063 15468 /2211 10068 20048 39681 49954 56026 60001 91150 333 55300 20265 85/14 90710 91129 91021
AAXX 31124 03066 15780 /2113 10093 20048 39934 49940 57027 60001 91150 333 55300 20225 81/56
AAXX 31124 03075 17766 /1918 10074 20048 39878 49922 58029 69901 781// 91150 333 87/56 85/61 90710 91126
AAXX 31124 03091 15981 /1003 10075 20038 39883 49961 58019 60001 91150 333 55300 20150 87/58
AAXX 31124 03100 17125 /2320 10105 20105 39943 49958 58011 69981 723// 91150 333 55300 20153 88/02 90710 91127
AAXX 31124 03111 16577 /2317 10118 20101 39984 49996 57018 69981 91150 333 82/26 87/50 90710 91126
AAXX 31124 03134 16/// /2115 10098 20095 3//// 4//// 5//// 69941 91150 333 55300 20202
AAXX 31124 03136 17442 /2218 10108 20100 39971 40003 58016 69921 723// 91150 333 55300 20120 87/10 90710 91131
AAXX 31124 03162 11234 81909 10085 20081 39738 40020 58015 60011 75352 887// 91150 333 55300 20145 88703
AAXX 31124 03166 17784 /2213 10112 20089 39922 49990 58020 69901 723// 91150 333 55300 20321 87/50 90710 91125 91025
AAXX 31124 03171 12472 72613 10089 20073 39972 49985 58018 60001 83531 91150 333 55300 20191 82711 83620 87075
AAXX 31124 03204 11370 72319 10112 20101 30014 40034 58018 6///1 72162 876// 91150 333 55300 20285 81708 86715 86645 90710 91125
AAXX 31124 03240 15984 /2315 10104 20085 39980 40007 58013 60001 91150 333 55300 20113 85/58 87/65 90710 91125
AAXX 31124 03257 15879 /2008 10111 20089 30004 40044 58005 60001 91150 333 55300 20122 88/57
AAXX 31124 03292 169// /2408 10104 20085 30022 40040 55009 60001 91150 333 84/58 90710 91128
AAXX 31124 03302 17556 /2017 10110 20107 30049 40061 58011 60001 710// 91150 333 55301 20338 82/24
AAXX 31124 03354 15280 /2511 10109 20103 39933 40073 58004 60001 91150 333 55300 20246 87/05 91024
AAXX 31124 03377 12383 72515 10112 20094 39985 40068 58005 60001 865/1 91150 333 55300 20198 84709 85620
AAXX 31124 03414 15483 /2210 10119 20103 39994 40080 58006 60001 91150 333 55300 20260 87/13 83/44
AAXX 31124 03462 15485 /2513 10113 20099 39992 40080 58001 60001 91150 333 55300 20100 85/11 87/61
AAXX 31124 03482 15476 /2414 10116 20101 30057 40083 58002 69901 91150 333 87/15
AAXX 31124 03502 17122 /2523 10105 20103 39936 40096 58007 69901 722// 91150 333 55300 20218 88/02 90710 91131
AAXX 31124 03535 15480 /2207 10109 20098 39971 40087 57008 69921 91150 333 55300 20273 83/16 84/56 86/62
AAXX 31124 03590 15483 /2512 10117 20103 39984 40092 50000 60001 91150 333 55300 20430 86/12 87/56
AAXX 31124 03649 12382 72612 10114 20098 30006 40105 57008 60001 876// 91150 333 55300 2//// 87709
AAXX 31124 03716 17272 /2516 10109 20106 30057 40116 58009 60021 751// 91150 333 55300 20200 87/04 90710 91128
AAXX 31124 03740 16381 /2514 10110 20100 39940 40115 58011 60001 91150 333 55300 2//// 88/06
AAXX 31124 03746 17483 /2612 10116 20105 39970 40122 58004 69921 723// 91150 333 87/12
AAXX 31124 03772 15484 /2617 10125 20100 30076 40106 57007 69901 91150 333 55300 20365 87/14 90710 91125
AAXX 31124 03796 46/// /2616 10115 20099 39966 40107 58003 91150
AAXX 31124 03803 NIL
AAXX 31124 03808 11256 82717 10117 20111 30041 40146 58011 69901 72065 886// 91150 333 55300 20207 88704 90710 91126
AAXX 31124 03809 11003 82610 10113 20113 30059 40151 58008 69921 75152 887// 91150 333 83701 88702 91021
AAXX 31124 03827 17258 /2512 10115 20115 30085 40146 58009 69921 710// 91150 333 88/05
AAXX 31124 03840 15281 /2513 10106 20105 39827 40130 58007 69921 91150 333 88/04
AAXX 31124 03853 15482 /2412 10130 20108 30099 40123 58009 60001 91150 333 55301 20613 82/17 84/38 87/64
AAXX 31124 03874 46/// /2624 10107 20097 30112 40123 58006 91150 333 90710 91127
AAXX 31124 03882 17262 /2608 10109 20101 30055 40118 58002 69901 723// 91150 333 55300 20134 88/05
AAXX 31124 03894 11058 82621 10116 20114 40168 58005 69921 72054 886// 333 83701 87703 90710 91131
AAXX 31124 03917 15484 /2114 10111 20100 39941 40016 57014 60011 91150 333 55300 20251 83/10 85/30
AAXX 31124 78073 11565 20000 10163 20157 40215 60001 74140 82100 333 10269 20157 58017 82820
BBXX 46082 31121 99597 71434 46/// ///// 11024 40069 51025 91150 22200 00061 11106 70029
BBXX 46072 31121 99517 71722 46/// /2208 10000 21066 40176 58009 91150 22200 00042 10802 20301 3//// 40802 70011 333 91210 555 11081 22085 31122 42310 61149 219077 227077 228081 228070 220069 222064 82109 91149
BBXX 46077 31121 99579 71543 46/// /2606 11124 21169 40059 51013 91150 22200 00031 10603 20502 3//// 40602 70013 333 91209 555 11060 22062 31143 42509 61149 258056 254055 249048 260052 255060 247051 82507 91104
BBXX 46035 31121 99571 71778 46/// /2509 1//// 40048 58009 91150 22200 10704 20703 300// 41101 70018 333 91210 555 11092 22098 31144 42610 61149 255091 245073 226066 208036 207027 219024 82610 91150
BBXX 46072 31121 99517 71722 46/// /2208 10000 21066 40176 58009 91150 22200 00042 10802 20301 3//// 40802 70011 333 91210 555 11081 22085 31122 42310 61149 219077 227077 228081 228070 220069 222064 82109 91149
BBXX 46026 31121 99378 71228 46/// /1104 10100 40228 57004 91150 22200 00113 11605 20401 326// 41605 70025 333 91205 555 11041 22042 31054 42706 61149 111039 266035 260034 258036 260043 266048
BBXX 46041 31121 99474 71247 46/// /2902 10068 40275 53023 91150 22200 00084 11309 20401 3//// 41309 70043 333 91204 555 11017 22018 31100 42705 61149 287017 297019 291021 300022 297029 302027
BBXX 51004 31121 99175 71524 46/// /0707 10230 20201 91150 555 11072 22076
BBXX 51002 31121 99171 71578 46/// /0508 10228 40148 58016 91150 22200 00246 333 91210 555 11086 22090 31128 40611 61149 053082 057084 060087 066083 066074 054078
BBXX 51100 31121 99236 71539 46/// /1106 10214 40172 58021 91150 22200 00231 10904 20501 311// 40904 70021 333 91207 555 11058 22060 31146 41207 61149 114054 118049 112040 112038 099038 095039
BBXX 44007 31121 99435 70701 46/// /3507 10006 20006 40154 56021 91150 22200 00077 10602 20502 3//// 40601 70010 333 91209 555 11076 22079 31122 43510 61149 351074 351080 002086 347082 002079 011071
AAXX 31124 07005 01359 82516 10111 20102 30051 40140 50003 69901 76062 888// 333 69907 81808 88613 91026 90710 91127 93100 555 69905
AAXX 31124 07015 01265 82612 10112 20101 30063 40120 58002 69901 76065 887// 333 69907 83705 88709 90710 91118 93100 555 69905
AAXX 31124 07020 01/08 92518 10122 20117 30139 40166 58005 69921 76064 333 69927 90710 91129 555 69925
AAXX 31124 07027 01481 72515 10129 20113 30086 40167 58003 69901 70252 875// 333 69907 87612 90710 91126 93100 555 60005
AAXX 31124 07037 01260 82712 10112 20109 39973 40155 58002 60011 75865 877// 333 69987 87704 87710 90710 91122 93100 555 69905
AAXX 31124 07070 04470 82814 10117 20104 30031 40140 58004 69921 700// 333 69907 90710 91120 555 69905
AAXX 31124 07110 01220 82513 10125 20123 30081 40195 58007 60011 75865 887// 333 69987 88704 90710 91124 555 69945
AAXX 31124 07117 01415 82518 10123 20120 30107 40177 58009 69921 75155 8802/ 333 69927 91032 90710 91132 92434 555 69905
AAXX 31124 07130 04468 82209 10135 20119 30145 40197 58005 6///1 700// 333 6///7 90710 91113 555 6///5
AAXX 31124 07139 01465 82509 10122 20103 30009 40182 58001 69901 70152 885// 333 60007 88610 90710 91116 93100 555 60005
AAXX 31124 07149 01475 82711 10122 20106 30056 40164 58001 69921 76065 875// 333 69927 84610 87612 90710 91123 93100 555 69925
AAXX 31124 07168 01462 82713 10119 20098 30024 40166 50002 69901 70152 875// 333 60007 87613 90710 91124 93100 555 60005
AAXX 31124 07181 04250 82709 10096 20095 39738 40146 50001 69901 710// 333 69907 90710 91118 555 69905
AAXX 31124 07190 04482 81806 10064 20053 39962 40146 58004 60011 700// 333 69947 90710 91114 555 69905
AAXX 31124 07207 01420 82819 10126 20118 69921 76062 886// 222// 328// 333 69927 90710 91129 92445 555 69925
AAXX 31124 07222 01240 82812 10130 20125 30185 40216 58005 69921 75065 877// 333 69927 87704 90710 91120 555 69925
AAXX 31124 07240 04257 82412 10125 20117 30065 40200 58004 69941 751// 333 69907 90710 91119 555 69905
AAXX 31124 07255 01259 82709 10121 20112 30002 40201 50001 60011 72065 887// 333 69907 88705 90710 91119 93100 555 69905
AAXX 31124 07280 04483 82104 10109 20104 39906 40178 50002 69901 700// 333 60007 90710 91108 555 60005
AAXX 31124 07299 01260 81605 10044 20038 39836 40170 58003 60031 70165 888// 333 69927 82805 88606 90710 91107 93100 555 69905
AAXX 31124 07314 01550 82515 10128 20123 30214 40242 58005 69901 76162 887// 333 69907 88726 90710 91122 555 69905
AAXX 31124 07335 04384 82613 10129 20116 30076 40220 58002 69921 700// 333 60007 90710 91120 555 60005
AAXX 31124 07434 01104 82710 10107 20107 39750 40230 58002 60041 75865 887// 333 60037 88702 90710 91119 93100 555 69985
AAXX 31124 07460 01565 62809 10140 20094 39820 40205 50002 60001 71522 85531 333 60007 82623 84643 85071 90710 91119 93100 555 60005
AAXX 31124 07471 01575 62812 10102 20076 39239 48823 58009 60021 72162 85502 333 69907 85620 83075 90710 91120 93100 555 69905
AAXX 31124 07481 01265 81405 10074 20065 39917 40209 51001 60021 72165 875// 333 69967 81706 87630 90710 91110 93100 555 60005
AAXX 31124 07510 01258 82814 10138 20130 30193 40258 58006 60031 75065 877// 333 60017 87706 87614 90710 91123 93100 555 69985
AAXX 31124 07535 06/// /2706 10120 20118 39933 40246 58003 60011 333 69967 90710 91117 555 69925
AAXX 31124 07558 06/// /2819 10093 20093 39385 40222 58007 60021 333 69987 91031 90710 91131 555 69925
AAXX 31124 07577 02568 30210 10087 20051 30113 40204 58009 60001 81831 333 60007 81820 83075 90710 91115 93100 555 60005
AAXX 31124 07591 04/// /0602 10053 20003 39168 4//// 58005 60001 700// 333 60007 90710 91108 555 60005
AAXX 31124 07607 04237 82710 10127 20124 30204 40276 58008 60101 752// 333 60057 90710 91116 555 60015
AAXX 31124 07621 01558 82609 10111 20097 39850 40286 58006 69941 76065 885// 333 69947 85620 88630 90710 91115 93100 555 69905
AAXX 31124 07627 01556 83503 10105 20084 39787 40279 50000 60011 76162 875// 333 60017 87626 90710 91117 93100 555 60015
AAXX 31124 07630 01458 72720 10119 20105 30081 40263 58007 69941 75165 875// 333 69947 85611 85618 87635 90710 91130 93100 555 69905
AAXX 31124 07643 02784 23021 10175 20089 30196 40206 58011 60001 81542 333 60007 81650 90710 91134 555 60005
AAXX 31124 07650 02789 42703 10123 20057 30157 40196 58010 60001 83532 333 60007 83656 90710 91107 93100 555 60005
AAXX 31124 07661 02980 42834 10132 20070 30001 40161 58025 60001 84030 333 60007 84358 90710 91147 555 60005
AAXX 31124 07690 02584 20801 10143 20022 30138 40172 58010 60001 81102 333 60007 81830 90710 91106 93100 555 60005
AAXX 31124 07747 02680 73024 10165 20092 30184 40237 58001 60001 81142 333 60007 81836 83363 85075 91037 90710 91140 93100 555 60005
AAXX 31124 07761 02575 71002 10114 20050 30172 40183 58014 60001 878// 333 60007 81830 84636 85650 90710 91106 93100 555 60005
AAXX 31124 07790 02982 11211 10135 20008 30159 40173 58019 60001 80001 333 60007 81075 90710 91117 93100 555 60005
AAXX 31124 78792 31559 79902 10262 20205 30092 40105 52009 70500 82101 333 010// 10326 20243 30/// 59003 82820 85080
AAXX 31124 78793 32370 60000 10232 20224 30064 40095 52004 81130 333 10308 20228 30/// 568// 59004 81810 85360
AAXX 31124 78795 32370 30000 10218 20211 39997 40097 5//// 815// 333 10330 20218 31/// 5600/ 59009 81610
BBXX BATFR21 31124 99429 10084 46/// /2316 20349 40165 22273
BBXX BATFR46 31124 99431 10046 44/97 02828 10142 20102 40197 56006 701// 22263 00142
BBXX BATEU08 31124 99588 70099 46/// /2436 10099 20069 49846 55001 22223
AAXX 31121 14528 11001 90000 11009 21020 39890 40198 57010 60001 74544 333 89/00
AAXX 31121 14537 11/02 90000 10003 20003 39999 40193 58013 60001 74544 333 89///
AAXX 31121 14544 11670 50401 10036 21026 39514 40191 57008 60011 70272 85500 333 85643
AAXX 31121 14557 11658 52301 10036 21003 39825 40200 58008 69911 71072 83130 333 83833
AAXX 31121 14640 12670 32001 10044 21021 39311 48465 50000 60001 83200 333 83843
AAXX 31121 11812 36/// /3004 10014 21032 39455 42761 57005
AAXX 31121 11813 12583 22603 10054 21022 39813 40164 57012 60001 82240 333 82830
AAXX 31121 11816 12580 42805 10061 21018 30000 40165 57010 60001 83240 333 83830
AAXX 31121 11819 36/// /2802 10042 21017 39947 40166 57003
AAXX 31121 11826 12580 59902 10047 20001 39960 40162 58006 60001 82141 333 82820 83358
AAXX 31121 11841 11456 89902 10016 21006 39775 40158 55000 69921 77172 885// 333 82713 85617 88626
AAXX 31121 11855 12582 32906 10055 21001 39997 40164 58007 60001 82840 333 81825
AAXX 31121 11856 36/// /9903 10034 21010 39839 40162 57005
AAXX 31121 11858 12582 13105 10064 21006 30011 40163 57009 60001 81540 333 81630
AAXX 31121 11867 11570 79902 10022 21016 39840 40162 58002 69921 70277 875// 333 87623
AAXX 31121 11880 12565 52702 10042 20035 39988 40162 57006 60001 84840 333 82630
AAXX 31121 11900 16/// /9901 10040 21004 39820 40159 57003 69901
AAXX 31121 11903 12570 62102 10015 20002 39769 40157 58002 60001 86800 333 81830 83637 85656
AAXX 31121 11916 11/00 93607 11097 21113 37871 48395 50004 69901 74974 333 89/00 93598
AAXX 31121 11918 11162 82504 11011 21022 39315 42750 53001 69941 78588 888// 333 81702 87818
AAXX 31121 11927 12684 39902 10051 21009 39884 40148 58005 60001 81140 333 81840 83360
AAXX 31121 11930 11/00 93006 11141 21154 37238 47895 51001 60051 77174 333 89/00 91011 93550 96049
AAXX 31121 11933 11/05 99901 11043 21050 38595 48413 51001 69961 78574 333 89/00
AAXX 31121 11934 11460 72607 10005 21034 39304 42743 57001 69901 78522 87800 333 81710 83850 85656
AAXX 31121 11938 11480 32204 11025 21048 39059 42738 58005 69901 78511 83240 333 81813 83830
AAXX 31121 11952 16/// /2906 11002 21036 39296 42743 57002 60001
AAXX 31121 11958 36/// /9901 11037 21044 38683 48416 54000
AAXX 31121 11968 12260 89902 10005 21012 39865 40152 57003 60001 886// 333 83706 87709
AAXX 31121 11976 11350 81702 10008 21003 39881 40151 58003 69921 77072 885// 333 86708 88623
AAXX 31121 11978 11658 71604 10022 20001 30020 40153 55002 60001 71042 87800 333 82833 86640
AAXX 31121 11993 12560 52102 10026 20000 39933 40153 54000 60001 85200 333 85830
AAXX 31121 14648 12665 10506 10085 21061 30029 40150 56001 60001 81500 333 81646
AAXX 31121 14652 NIL
AAXX 31121 14542 41/03 90201 10019 20006 30007 40202 57007 60001 74542 333 89/01 95990
AAXX 31124 78792 31559 79902 10262 20205 30092 40105 52009 70500 82101 333 010// 10326 20243 30/// 59003 82820 85080
AAXX 31124 78793 32370 60000 10232 20224 30064 40095 52004 81130 333 10308 20228 30/// 568// 59004 81810 85360
AAXX 31124 78795 32370 30000 10218 20211 39997 40097 5//// 815// 333 10330 20218 31/// 5600/ 59009 81610
BBXX VCRG 31124 99474 70619 46/// /1806 11024 21060 40282 51005 7//// 8//// 22200 0//// 2////
AAXX 31121 76040 32902 00201 10073 20029 30143 40157 52001 91145 333 10248 20061 30/// 59013 70000 98602
AAXX 31121 76220 32920 00000 11060 21060 38170 40243 5//// 91150 333 10220 21060 31084 55099 59001 70000
AAXX 31121 76225 32920 00000 10030 21088 38636 40162 5//// 91145 333 10226 20030 31004 59008 70000
AAXX 31121 76243 32974 01902 10078 20046 39879 40189 54000 91135 333 10258 20064 30058 59011 70000
AAXX 31121 76305 32970 00000 10085 21022 30139 40148 5//// 91150 333 10240 20075 30045 59013 70000
AAXX 31121 76323 32950 00000 11012 21058 38292 40247 57005 91140 333 10245 21012 31034 59008 70000
AAXX 31121 76342 32940 01703 10100 21026 39499 40213 52002 91150 333 10314 20096 30090 58023 70000
AAXX 31121 76373 32910 00000 11014 21120 38239 40192 5//// 91155 333 10250 21040 31010 58001 70000
AAXX 31121 76382 32960 20000 10075 20055 38918 40177 52006 82080 91148 333 10265 20055 30030 59004 70000 82354
AAXX 31121 76390 31950 02201 10093 21066 38239 40184 57001 70544 91130 333 10235 20057 30050 58000 70000
AAXX 31121 76458 32960 03502 10132 20104 30128 40132 55002 91140 333 10264 20103 30096 59016 70000
AAXX 31121 76525 32860 31902 10123 20016 37475 40109 57001 82031 91140 333 10188 20120 30103 55089 22472 56/55 58001 70000 82358 81080
AAXX 31121 76548 32360 43601 10194 20191 30170 40180 53002 84400 91140 333 10276 20188 30184 56100 58020 70000 84606
AAXX 31121 76556 32960 01402 10127 20094 39103 40123 56008 91130 333 10284 20124 30110 59014 70000
AAXX 31121 76577 32560 83602 10128 20104 38048 40133 51002 85503 91140 333 10260 20120 30105 56305 59002 70000 85623
AAXX 31121 76581 32960 01401 10104 20097 39080 40195 5//// 91150 333 10305 20040 30030 55100 58024 70000
AAXX 31121 76585 32680 70000 10150 20145 30018 40177 53028 874// 91140 333 10280 20134 30124 55079 562// 58025 70000 87640
AAXX 31121 76593 32960 01402 10212 20209 30174 40176 52010 91150 333 10310 20208 30204 58005 70000
AAXX 31121 76612 32958 00000 10100 20092 38474 40167 52003 91150 333 10271 20100 30088 55087 21079 58006 70000
AAXX 31121 76632 31950 00504 10094 20041 37639 40152 5//// 70500 91140 333 10194 20090 30/// 58001 70000 98550
AAXX 31121 76634 31970 01403 10102 20053 37858 40177 5//// 70500 91150 333 10247 20095 30066 58001 70000
AAXX 31121 76654 31956 00000 10220 20192 30125 40129 5//// 70544 91150 333 10288 20219 30203 59022 70000
AAXX 31121 76665 31258 22102 10109 20084 38127 40148 52006 70310 82200 91145 333 10272 20100 30086 56100 57812 59001 70000 82805
AAXX 31121 76675 31760 10501 20032 20012 37387 40200 51002 70544 81060 91150 333 10212 20019 31007 56090 59002 79999
AAXX 31121 76683 32660 50000 10076 20051 37835 40212 55002 85070 91145 333 10245 20076 30050 50271 55063 21177 56070 59001 70046 85358
AAXX 31121 76685 32550 10000 10088 20072 37871 40153 57004 81100 91150 333 10256 20086 30060 56900 58000 70030 81827
AAXX 31121 76743 31940 00901 10230 20204 30138 40146 53007 70000 91150 333 10285 20230 30205 59006 70000
AAXX 31121 76773 32930 00000 10104 20093 38428 40132 52006 91148 333 10287 20092 30081 50121 55084 59002 70012
AAXX 31121 76775 32960 00501 10101 20074 38531 40177 52005 91145 333 10296 20096 30/// 59002 70012
AAXX 31121 76840 32920 00205 10260 20193 30063 40129 54000 91145 333 10350 20220 30/// 55096 59005 70000
AAXX 31121 76843 32565 53601 10201 20180 39498 40136 52013 85100 91130 333 10326 20199 30189 569// 59001 70000 85830
AAXX 31121 76845 31/10 90000 10076 20072 37954 40274 5//// 74744 89/// 91145 333 10224 20070 30062 59002 70000 89///
AAXX 31121 76848 32450 70502 10143 20118 38388 40111 51004 87600 91155 333 10265 20143 30129 56100 59001 70000 87710
AAXX 31121 76903 32970 00801 10218 20176 39987 40117 5//// 91140 333 10343 20218 30195 59016 70000
AAXX 31121 76311 32920 00000 10082 20049 39859 40140 56009 91140 333 10332 20080 30060 59013 70000
AAXX 31121 76647 32970 00901 10206 20200 30157 40187 52004 91150 333 10318 20204 30192 58008 79999
AAXX 31121 76750 32558 23401 10203 20202 30155 40165 5//// 81107 91145 333 10312 20198 30192 56106 58000 70000 81820
AAXX 31124 48601 11560 70206 10279 20235 30099 40103 60001 70522 82551 333 10318 82625 85364 87077
AAXX 31124 48615 11357 80805 10248 20239 30103 40109 60021 76262 8457/ 333 10276 81708 84620 88469
AAXX 31124 48620 11410 72803 10278 20246 30096 40105 69901 70582 84558 333 10313 81710 83626 87276
AAXX 31124 48647 11464 73005 10296 20258 30081 40106 60001 71322 82931 333 10335 81917 87078
AAXX 31124 48657 11458 72401 10250 20245 30076 40094 60141 76186 84542 333 10320 81712 83624 86078
AAXX 31124 48665 11464 62703 10282 20255 30097 40107 60001 71322 82942 333 10324 81917 84364 85078
AAXX 31124 96413 11565 73602 10269 20248 30090 40116 60001 70392 83541 333 10325 83620 86080
AAXX 31124 96421 12465 70105 10270 20248 30079 40115 60001 83531 333 10332 83618 83365 85080
AAXX 31124 96441 12468 70103 10274 20254 30087 40114 60001 82532 333 10309 82614 86080
AAXX 31124 96449 12465 70104 10270 20251 30096 40115 60001 83531 333 10319 83614 86365
AAXX 31124 96465 12470 73604 10281 20253 30083 40116 60001 81842 333 10306 81813 87080
AAXX 31124 96471 11468 70302 10279 20247 30112 40115 60001 70222 81848 333 10317 81814 83364 87277
AAXX 31124 96481 12462 73605 10265 20224 30095 40114 69921 8387/ 333 10328 82817 86364
AAXX 31124 96491 11465 70611 10277 20247 30110 40122 60081 70162 82832 333 10303 82814 87078
AAXX 31121 76040 32902 00201 10073 20029 30143 40157 52001 91145 33310248 20061 30/// 59013 70000 98602
AAXX 31121 76220 32920 00000 11060 21060 38170 40243 5//// 91150 33310220 21060 31084 55099 59001 70000
AAXX 31121 76225 32920 00000 10030 21088 38636 40162 5//// 91145 33310226 20030 31004 59008 70000
AAXX 31121 76243 32974 01902 10078 20046 39879 40189 54000 91135 33310258 20064 30058 59011 70000
AAXX 31121 76305 32970 00000 10085 21022 30139 40148 5//// 91150 33310240 20075 30045 59013 70000
AAXX 31121 76323 32950 00000 11012 21058 38292 40247 57005 91140 33310245 21012 31034 59008 70000
AAXX 31121 76342 32940 01703 10100 21026 39499 40213 52002 91150 33310314 20096 30090 58023 70000
AAXX 31121 76373 32910 00000 11014 21120 38239 40192 5//// 91155 33310250 21040 31010 58001 70000
AAXX 31121 76382 32960 20000 10075 20055 38918 40177 52006 82080 91148333 10265 20055 30030 59004 70000 82354
AAXX 31121 76390 31950 02201 10093 21066 38239 40184 57001 70544 91130333 10235 20057 30050 58000 70000
AAXX 31121 76458 32960 03502 10132 20104 30128 40132 55002 91140 33310264 20103 30096 59016 70000
AAXX 31121 76525 32860 31902 10123 20016 37475 40109 57001 82031 91140333 10188 20120 30103 55089 22472 56/55 58001 70000 8235881080
AAXX 31121 76548 32360 43601 10194 20191 30170 40180 53002 84400 91140333 10276 20188 30184 56100 58020 70000 84606
AAXX 31121 76556 32960 01402 10127 20094 39103 40123 56008 91130 33310284 20124 30110 59014 70000
AAXX 31121 76577 32560 83602 10128 20104 38048 40133 51002 85503 91140333 10260 20120 30105 56305 59002 70000 85623
AAXX 31121 76581 32960 01401 10104 20097 39080 40195 5//// 91150 33310305 20040 30030 55100 58024 70000
AAXX 31121 76585 32680 70000 10150 20145 30018 40177 53028 874// 91140333 10280 20134 30124 55079 562// 58025 70000 87640
AAXX 31121 76593 32960 01402 10212 20209 30174 40176 52010 91150 33310310 20208 30204 58005 70000
AAXX 31121 76612 32958 00000 10100 20092 38474 40167 52003 91150 33310271 20100 30088 55087 21079 58006 70000
AAXX 31121 76632 31950 00504 10094 20041 37639 40152 5//// 70500 91140333 10194 20090 30/// 58001 70000 98550
AAXX 31121 76634 31970 01403 10102 20053 37858 40177 5//// 70500 91150333 10247 20095 30066 58001 70000
AAXX 31121 76654 31956 00000 10220 20192 30125 40129 5//// 70544 91150333 10288 20219 30203 59022 70000
AAXX 31121 76665 31258 22102 10109 20084 38127 40148 52006 70310 8220091145 333 10272 20100 30086 56100 57812 59001 70000 82805
AAXX 31121 76675 31760 10501 20032 20012 37387 40200 51002 70544 8106091150 333 10212 20019 31007 56090 59002 79999
AAXX 31121 76683 32660 50000 10076 20051 37835 40212 55002 85070 91145333 10245 20076 30050 50271 55063 21177 56070 59001 7004685358
AAXX 31121 76685 32550 10000 10088 20072 37871 40153 57004 81100 91150333 10256 20086 30060 56900 58000 70030 81827
AAXX 31121 76743 31940 00901 10230 20204 30138 40146 53007 70000 91150333 10285 20230 30205 59006 70000
AAXX 31121 76773 32930 00000 10104 20093 38428 40132 52006 91148 33310287 20092 30081 50121 55084 59002 70012
AAXX 31121 76775 32960 00501 10101 20074 38531 40177 52005 91145 33310296 20096 30/// 59002 70012
AAXX 31121 76840 32920 00205 10260 20193 30063 40129 54000 91145 33310350 20220 30/// 55096 59005 70000
AAXX 31121 76843 32565 53601 10201 20180 39498 40136 52013 85100 91130333 10326 20199 30189 569// 59001 70000 85830
AAXX 31121 76845 31/10 90000 10076 20072 37954 40274 5//// 74744 89///91145 333 10224 20070 30062 59002 70000 89///
AAXX 31121 76848 32450 70502 10143 20118 38388 40111 51004 87600 91155333 10265 20143 30129 56100 59001 70000 87710
AAXX 31121 76903 32970 00801 10218 20176 39987 40117 5//// 91140 33310343 20218 30195 59016 70000
AAXX 31121 76311 32920 00000 10082 20049 39859 40140 56009 91140 33310332 20080 30060 59013 70000
AAXX 31121 76647 32970 00901 10206 20200 30157 40187 52004 91150 33310318 20204 30192 58008 79999
AAXX 31121 76750 32558 23401 10203 20202 30155 40165 5//// 81107 91145333 10312 20198 30192 56106 58000 70000 81820
AAXX 31121 76040 32902 00201 10073 20029 30143 40157 52001 91145 333 10248 20061 30/// 59013 70000 98602
AAXX 31121 76220 32920 00000 11060 21060 38170 40243 5//// 91150 333 10220 21060 31084 55099 59001 70000
AAXX 31121 76225 32920 00000 10030 21088 38636 40162 5//// 91145 333 10226 20030 31004 59008 70000
AAXX 31121 76243 32974 01902 10078 20046 39879 40189 54000 91135 333 10258 20064 30058 59011 70000
AAXX 31121 76305 32970 00000 10085 21022 30139 40148 5//// 91150 333 10240 20075 30045 59013 70000
AAXX 31121 76323 32950 00000 11012 21058 38292 40247 57005 91140 333 10245 21012 31034 59008 70000
AAXX 31121 76342 32940 01703 10100 21026 39499 40213 52002 91150 333 10314 20096 30090 58023 70000
AAXX 31121 76373 32910 00000 11014 21120 38239 40192 5//// 91155 333 10250 21040 31010 58001 70000
AAXX 31121 76382 32960 20000 10075 20055 38918 40177 52006 82080 91148 333 10265 20055 30030 59004 70000 82354
AAXX 31121 76390 31950 02201 10093 21066 38239 40184 57001 70544 91130 333 10235 20057 30050 58000 70000
AAXX 31121 76458 32960 03502 10132 20104 30128 40132 55002 91140 333 10264 20103 30096 59016 70000
AAXX 31121 76525 32860 31902 10123 20016 37475 40109 57001 82031 91140 333 10188 20120 30103 55089 22472 56/55 58001 70000 82358 81080
AAXX 31121 76548 32360 43601 10194 20191 30170 40180 53002 84400 91140 333 10276 20188 30184 56100 58020 70000 84606
AAXX 31121 76556 32960 01402 10127 20094 39103 40123 56008 91130 333 10284 20124 30110 59014 70000
AAXX 31121 76577 32560 83602 10128 20104 38048 40133 51002 85503 91140 333 10260 20120 30105 56305 59002 70000 85623
AAXX 31121 76581 32960 01401 10104 20097 39080 40195 5//// 91150 333 10305 20040 30030 55100 58024 70000
AAXX 31121 76585 32680 70000 10150 20145 30018 40177 53028 874// 91140 333 10280 20134 30124 55079 562// 58025 70000 87640
AAXX 31121 76593 32960 01402 10212 20209 30174 40176 52010 91150 333 10310 20208 30204 58005 70000
AAXX 31121 76612 32958 00000 10100 20092 38474 40167 52003 91150 333 10271 20100 30088 55087 21079 58006 70000
AAXX 31121 76632 31950 00504 10094 20041 37639 40152 5//// 70500 91140 333 10194 20090 30/// 58001 70000 98550
AAXX 31121 76634 31970 01403 10102 20053 37858 40177 5//// 70500 91150 333 10247 20095 30066 58001 70000
AAXX 31121 76654 31956 00000 10220 20192 30125 40129 5//// 70544 91150 333 10288 20219 30203 59022 70000
AAXX 31121 76665 31258 22102 10109 20084 38127 40148 52006 70310 82200 91145 333 10272 20100 30086 56100 57812 59001 70000 82805
AAXX 31121 76675 31760 10501 20032 20012 37387 40200 51002 70544 81060 91150 333 10212 20019 31007 56090 59002 79999
AAXX 31121 76683 32660 50000 10076 20051 37835 40212 55002 85070 91145 333 10245 20076 30050 50271 55063 21177 56070 59001 70046 85358
AAXX 31121 76685 32550 10000 10088 20072 37871 40153 57004 81100 91150 333 10256 20086 30060 56900 58000 70030 81827
AAXX 31121 76743 31940 00901 10230 20204 30138 40146 53007 70000 91150 333 10285 20230 30205 59006 70000
AAXX 31121 76773 32930 00000 10104 20093 38428 40132 52006 91148 333 10287 20092 30081 50121 55084 59002 70012
AAXX 31121 76775 32960 00501 10101 20074 38531 40177 52005 91145 333 10296 20096 30/// 59002 70012
AAXX 31121 76840 32920 00205 10260 20193 30063 40129 54000 91145 333 10350 20220 30/// 55096 59005 70000
AAXX 31121 76843 32565 53601 10201 20180 39498 40136 52013 85100 91130 333 10326 20199 30189 569// 59001 70000 85830
AAXX 31121 76845 31/10 90000 10076 20072 37954 40274 5//// 74744 89/// 91145 333 10224 20070 30062 59002 70000 89///
AAXX 31121 76848 32450 70502 10143 20118 38388 40111 51004 87600 91155 333 10265 20143 30129 56100 59001 70000 87710
AAXX 31121 76903 32970 00801 10218 20176 39987 40117 5//// 91140 333 10343 20218 30195 59016 70000
AAXX 31121 76311 32920 00000 10082 20049 39859 40140 56009 91140 333 10332 20080 30060 59013 70000
AAXX 31121 76647 32970 00901 10206 20200 30157 40187 52004 91150 333 10318 20204 30192 58008 79999
AAXX 31121 76750 32558 23401 10203 20202 30155 40165 5//// 81107 91145 333 10312 20198 30192 56106 58000 70000 81820
AAXX 31124 78016 32364 61810 10211 20196 30246 40250 53014 84170 333 10206 20191 70061
AAXX 31124 78016 32364 61810 10211 20196 30246 40250 53014 84170 333 10206 20191 70061
BBXX VAAP 31124 99455 70602 46/// /0902 11011 21052 40289 51017 7//// 8//// 22213 0//// 2////
BBXX CGBR 31124 99522 71286 46/// /0810 10015 20013 40241 53023 7//// 8//// 22262 00067 2////
BBXX CGDG 31124 99447 70636 46/// /1002 10019 20049 40258 58006 7//// 8//// 22200 0//// 2////
BBXX CZ9742 31124 99506 70969 46/// /1815 11038 21039 4//// 5//// 7//// 8//// 22200 0//// 2////
BBXX CGBY 31124 99487 71235 46/// /2908 10044 21027 40270 51039 7//// 8//// 22200 0//// 2////
BBXX VRYO3 31124 99456 70735 46/// /0210 11054 21065 40111 56018 7//// 8//// 22200 0//// 2////
BBXX CGBN 31124 99447 70636 46/// /1404 10023 21014 40258 58006 7//// 8//// 22200 0//// 2////
BBXX VOFG 31124 99456 70614 46/// /1203 11047 21063 40293 51012 7//// 8//// 22200 0//// 2////
BBXX VOKJ 31124 99455 70735 46/// /0212 11058 21066 40115 56015 7//// 8//// 22200 0//// 2////
BBXX CGSB 31124 99483 70709 46/// /0712 11086 21108 40191 56016 7//// 8//// 22200 0//// 2////
BBXX VOLG 31124 99446 70635 46/// /1108 10018 21016 40256 58007 7//// 8//// 22200 0//// 2////
BBXX CGDT 31124 99468 70712 46/// /0517 11057 21076 40170 56022 7//// 8//// 22200 0//// 2////
BBXX VCWL 31124 99468 70712 46/// /0519 11062 21082 40162 56023 7//// 8//// 22200 0//// 2////
BBXX CG2958 31124 99519 71279 46/// /0406 10011 21002 40253 53028 7//// 8//// 22241 0//// 2////
BBXX CGJV 31124 99462 70631 46/// /1208 11033 21063 40271 55000 7//// 8//// 22200 0//// 2////
BBXX VOPP 31124 99456 70735 46/// /0308 11054 21054 4//// 5//// 7//// 8//// 22200 0//// 2////
BBXX VCSZ 31124 99478 70699 46/// /0115 11079 21080 40196 58003 7//// 8//// 22213 0//// 2////
BBXX CGUM 31124 99462 70597 46/// /2205 11029 21055 40295 53014 7//// 8//// 22212 0//// 2////
BBXX 3FZK3 31124 99489 71237 46/// /1401 10016 21024 40264 51040 7//// 8//// 22200 0//// 2////
BBXX CG2350 31124 99433 70798 46/// /0403 10032 20030 40068 51012 7//// 8//// 22200 0//// 2////
BBXX VCLM 31124 99468 70712 46/// /0513 11054 21073 40163 56021 7//// 8//// 22200 0//// 2////
BBXX CGDR 31124 99487 71233 46/// /2209 10050 20013 40267 51041 7//// 8//// 22251 00106 2////
BBXX VCBW 31124 99456 70735 46/// /0416 11025 21044 40116 56026 7//// 8//// 22200 0//// 2////
BBXX CG2960 31124 99429 70824 46/// /3110 10036 20035 40082 51038 7//// 8//// 22200 0//// 2////
BBXX C6SI6 31124 99426 11471 46/// /3520 10023 21015 40167 53008 7//// 8//// 22212 0//// 2////
BBXX VXKF 31124 99463 70602 46/// /2010 11043 21064 40282 53027 7//// 8//// 22253 0//// 2////
AAXX 31121 01062 11410 81010 11040 21044 30017 40030 58026 69911 77373 8172/ 333 91114
AAXX 31121 01205 46/// /1406 10049 21075 39937 49982 58025 333 91111
AAXX 31121 01271 16/// /1106 11057 21076 30034 40056 58021 6//// 333 91108
AAXX 31121 01415 16/// /1407 10025 21022 30024 40035 58013 6//// 333 91113
AAXX 31121 01028 11585 22307 11036 21081 30029 40049 52023 60001 70132 82800 222// 01011 333 91117
AAXX 31121 01218 11789 51404 10033 21110 30000 40021 57023 60001 70122 82288 333 91114
AAXX 31121 01241 11986 71311 11014 21044 30010 40021 58034 60001 70222 82077 333 91114
AAXX 31121 01281 16/// ///// 1//// 2//// 39891 40073 50000 60001
AAXX 31121 01359 11889 60000 11114 21144 39150 40107 58011 60001 70320 86050 333 91104
BBXX 46002 31121 99426 71305 46/// ///// 10110 40210 56028 91150 22200 00119 11107 70035
BBXX 46005 31121 99461 71310 46/// ///09 10082 40192 58022 91150 22200 00096 11107 20502 3//// 41107 70037 333 91211 555 11092 22097
BBXX 46006 31121 99408 71375 46/// /1909 10140 40095 56016 91150 22200 00121 10808 20807 3//// 41304 70041 333 91211 555 11096 22106 31120 41913 61149 195088 192094 187105 186100 185087 181100
BBXX 46012 31121 99374 71229 46/// /3607 10106 40224 57006 91150 22200 00121 11605 20603 329// 41605 70027 333 91208 555 11073 22076 31059 43511 61149 001069 355068 001073 358079 352083 353084
BBXX 46013 31121 99382 71233 46/// /1002 10100 40230 57004 91150 22200 00112 11205 20401 3//// 41205 70027 333 91204 555 11025 22025 31050 43407 61149 095024 065024 007037 357045 356048 353053
BBXX 46014 31121 99394 71240 46/// /0305 10087 40243 58011 91150 22200 00110 11307 20501 3//// 41307 70035 333 91206 555 11056 22059 31125 40307 61149 027054 023056 020057 018055 016054 017053
BBXX 46028 31121 99357 71219 46/// /3111 10124 40187 58005 91150 22200 00129 11206 20804 330// 41205 70031 333 91213 555 11114 22122 31120 43114 61149 313106 313104 313108 315111 320106 325105
BBXX 46029 31121 99461 71245 46/// /1902 10077 20018 40281 51015 91150 22200 00083 11309 20401 329// 41309 70045 333 91204 555 11024 22025 31058 41904 61149 190022 188024 198029 196022 197023 194029
BBXX 46050 31121 99442 71246 46/// /1404 10072 40278 50000 91150 22200 00094 11109 20401 329// 41109 70044 333 91207 555 11046 22047 31104 41309 61149 141045 138050 135048 132052 135052 133055
BBXX 46054 31121 99342 71204 46/// /3306 10147 40159 54000 91150 22200 00130 11705 20602 300// 41704 70025 333 91207 555 11069 22077 31051 43311 61149 332061 330068 335076 332074 332083 332090
BBXX CGHL 31124 99476 70527 46/// /3402 11005 21076 40279 51029 7//// 8//// 22200 0//// 2////
AAXX 31124 68399 36/// /2706 10270 20179 30021 40128 57007 333 10279 20186 91043 555 91013
AAXX 31124 68383 36/// /0000 10258 20165 39901 48571 57005 333 10266 20201 91000 555 91014
AAXX 31121 11423 01157 82502 11009 21013 39255 42752 58013 69991 77122 887// 333 69905 88703 91111
AAXX 31121 11487 02580 79901 10018 21028 39525 40158 58012 60001 86545 333 60005 86624 83270
AAXX 31121 11518 02480 62304 10026 21012 39707 40153 57011 60001 84804 333 60005 81815 84650
AAXX 31121 11603 02480 52203 10018 21031 39656 40147 57009 60001 85831 333 60005 81813 83833 85650
AAXX 31121 11659 02681 33005 10023 21031 39503 40151 58007 60001 83200 333 60005 83835
AAXX 31121 11723 02681 23002 10052 21029 39855 40155 57010 60001 82130 333 60005 82833
AAXX 31121 11782 01680 72104 10026 21003 39841 40152 57004 69901 70287 878// 333 60005 82836 87648
AAXX 31124 64500 32465 32406 10285 20235 30106 40119 83200 333 0//00 59006 83813 94913 95833
BBXX VAAZ 31124 99/// ///// 46/// /3129 11023 21067 40179 53037 7//// 8//// 22200 0//// 2////
BBXX CGDX 31124 99468 70712 46/// /0514 11059 21080 40172 56021 7//// 8//// 22200 0//// 2////
BBXX CGTF 31124 99476 70527 46/// /1903 11007 21077 40279 51028 7//// 8//// 22200 0//// 2////
BBXX VOKF 31124 99490 70669 46/// /1003 11087 21122 40237 56010 7//// 8//// 22200 0//// 2////
AAXX 31124 60155 32958 004// 10153 20068 40323 50002
AAXX 31124 60096 NIL
AAXX 31124 60101 NIL
AAXX 31124 60115 NIL
AAXX 31124 60135 NIL
AAXX 31124 60150 NIL
AAXX 31124 60156 NIL
AAXX 31124 60230 NIL
AAXX 31124 60252 NIL
AAXX 31124 60127 32965 02704 10144 20015 39721 40322 58010
AAXX 31124 60185 32970 00405 10148 20080 40337 50000
AAXX 31124 60190 32975 02602 10147 20026 40317 58003
AAXX 31124 60191 32970 02603 10150 20044 40331 52007
AAXX 31124 60195 32970 00000 10055 21036 38618 48628 58002 333 95500
AAXX 31124 60210 32970 02804 10116 21015 39114 48626 58010
AAXX 31124 60220 32958 03608 10152 20059 40331 52017
AAXX 31124 60265 32970 00000 10106 21076 39012 48325 58009
AAXX 31124 60060 NIL
AAXX 31124 60105 NIL
AAXX 31124 60106 NIL
AAXX 31124 60107 NIL
AAXX 31124 60141 NIL
AAXX 31124 60318 NIL
BBXX DBKR 31121 99541 10121 46/// /1904 11004 21004 40115 57003 22200 00055
BBXX DBBC 31121 99535 10100 46/// /1702 10044 20017 40105 57011 22230 00055
AAXX 31124 89642 42982 01217 10025 21072 39805 49857 56004 333 10045 20021
BBXX DBND 31121 99536 10086 46/// /1504 10035 20024 40086 57017 22260 00064
AAXX 31124 60340 32970 01807 10141 20044 40313 56012
AAXX 31124 60285 NIL
BBXX 61001 31124 99434 10078 46/// /1107 10133 20057 40162 57010 22200 00143 10803 70013
BBXX DBBI 31121 99535 10100 46/// /9901 10046 20036 40103 57010 22270 00053
BBXX DBBA 31121 99541 10121 46/// /1603 11002 21004 40114 57005 22220 00056
BBXX 62087 31121 99547 10068 46/// /3302 10051 20044 4//// 5//// 22230 00081
BBXX DBCK 31121 99/// ///// 46/// ///// 10035 20035 40086 57017 22220 00058
BBXX DBLK 31121 99462 30046 41296 83010 10083 20083 49940 57008 75864 8572/ 22213 04072 20503 326// 40906
BBXX 41101 31124 99146 70562 46/// /0722 10265 20216 40168 52024 22200 00269 10806 70030 555 1/028
AAXX 31064 91772 31498 20000 10259 20237 4//// 60001 70212 82100 333 10313 569// 82707
AAXX 31064 91776 NIL
AAXX 31064 91779 =NIL 91784 31498 20908 10262 20234 40103 58003 58003 60001 70110 82100 333 10297 562// 82818 =40108 53004 91792 31498 20804 10250 20221 40120 50808 60001 70210 333 10287 562// 82816
AAXX 31124 91503 31475 20000 10265 20255 40089 50012 70500 81270 333 10334 56990 59006 81816
AAXX 31124 91517 31475 11806 10255 20241 40091 52010 70500 81230 333 10325 56990 59009 81816
AAXX 31064 91772 31498 20000 10259 20237 4//// 60001 70212 82100 333 10313 569// 82707
AAXX 31064 91776 NIL
AAXX 31064 91779 =NIL 91784 31498 20908 10262 20234 40103 58003 58003 60001 70110 82100 333 10297 562// 82818 =40108 53004 91792 31498 20804 10250 20221 40120 50808 60001 70210 333 10287 562// 82816
AAXX 31124 89009 41261 80212 11241 36831 53001 70277 886// 333 11241 21262 87705
AAXX 31121 89061 379// 03304 10018 21013 39738 49744 52036 70010 333 10019 20005 91005 91106
AAXX 31124 91503 31475 20000 10265 20255 40089 50012 70500 81270 333 10334 56990 59006 81816
AAXX 31124 91517 31475 11806 10255 20241 40091 52010 70500 81230 333 10325 56990 59009 81816
AAXX 31124 89009 41261 80212 11241 36831 53001 70277 886// 333 11241 21262 87705
AAXX 31121 89061 379// 03304 10018 21013 39738 49744 52036 70010 333 10019 20005 91005 91106
BBXX 41010 31121 99289 70785 46/// /2406 10226 40200 52003 91150 22200 00236 333 91207 555 11062 22065
BBXX 41009 31121 99285 70802 46/// /2607 10211 20160 40210 53009 91150 22200 00226 10301 20301 300// 41001 70006 333 91208 555 11075 22079
BBXX 42057 31121 99168 70815 46/// /0609 10271 20219 40160 53010 91150 22200 00274 10603 20603 3//// 40801 70014 333 91211 555 11089 22094 31111 40711 61149 065088 068093 071089 072089 069090 071090 80710 91133
AAXX 31124 48698 01464 71205 10275 20249 30088 40106 60001 70522 82832 333 10323 50420 55091 60007 81818 85080
AAXX 31121 01026 41489 53101 11076 21086 39936 40083 52005 70310 84101 333 4/024 91104
AAXX 31121 01492 16/// /0000 11030 21061 39969 40090 58009 6//// 333 91104
AAXX 31124 78958 01457 31012 10265 20230 30153 40163 60051 71581 83400 333 10306 20217 58003 70051 82817
BBXX 51101 31121 99243 71621 46/// /0101 10226 20153 40183 58011 91150 22200 00237 11004 20401 303// 41004 70019 333 91202 555 11011 22012 31125 43603 61149 009012 000013 009016 030016 008013 017012
BBXX 46061 31121 99602 71468 46/// /2106 11057 40047 51028 91150 22200 00052 10903 20502 300// 40902 70013 333 91210 555 11064 22066 31053 42410 61149 213063 214051 220060 227063 232057 235075
AAXX 31124 48698 01464 71205 10275 20249 30088 40106 60001 70522 82832 333 10323 50420 55091 60007 81818 85080
AAXX 31124 16021 NIL
AAXX 31124 16022 12989 29902 11060 21136 37801 48453 58006 60001 80001 333 55310 92872
AAXX 31124 16033 11550 83002 11022 21047 38770 48473 58007 60031 77177 885// 333 88625 92802 93103
AAXX 31124 16040 12965 80000 11016 21030 39245 42773 57010 60001 8801/ 333 88461 92830
AAXX 31124 16052 11/01 93626 11086 21101 36595 47024 52013 60011 77174 333 55300 89/01 93199
AAXX 31124 16061 12984 01804 10050 21026 39331 42781 58001 60001 333 55310
AAXX 31124 16098 12965 00602 10070 20033 30130 40182 58013 60001
AAXX 31124 16138 12984 12702 10046 21006 30178 40189 58006 60001 80001
AAXX 31124 16148 12970 33202 10078 21014 30178 40191 58008 60001 80001 333 55310
AAXX 31124 16168 12980 01904 10068 21173 39431 42790 51011 60001
AAXX 31124 16172 NIL
AAXX 31124 16179 12982 02903 10046 21107 39500 42790 58003 60001
AAXX 31124 16224 12970 10504 10086 21035 39856 40177 58003 60001 80001 333 55310
AAXX 31124 16232 12598 62719 10100 20060 30109 40163 52019 60001 85130 333 55308 85825 555 0547/
AAXX 31124 16245 12970 03605 10104 21001 30155 40181 58003 60001
AAXX 31124 16253 12674 13104 10130 21046 30161 40173 51003 60001 81100 333 55310 81840
AAXX 31124 16258 12465 23414 10020 21043 39130 42742 52004 60001 82200 333 82615
AAXX 31124 16263 11360 73314 10012 21011 38889 48451 52009 60001 70242 87800 333 84806 83613
AAXX 31124 16294 12998 00203 10102 21018 39970 40164 51009 60001 555 0211/
AAXX 31124 16337 12598 23318 10098 21007 39552 40122 50004 60001 82100 333 82825 91030 91134 555 0326/
AAXX 31124 16344 11270 50310 11022 21050 38241 48431 50032 60001 70342 85800 333 55308 82805 83606 95000 95100
AAXX 31124 16434 12475 20215 10052 21046 38959 48462 58001 60001 82200 333 82817 95000 95100
AAXX 31124 16450 11262 52407 10066 21006 39035 48500 53006 69921 70261 83240 333 83805 83357
AAXX 31124 16459 11566 52911 10128 20024 30113 40149 50008 69941 70262 85500 333 85625
AAXX 31124 16546 11258 63113 10130 20112 30169 40197 58013 60001 72162 86800 333 82705 83815
AAXX 31124 16564 12497 82723 10116 20105 30055 40197 58006 60001 8653/ 333 82815 86620 555 0300/
AAXX 31124 16008 11430 80000 11050 21065 38500 48461 54000 69901 77177 886// 333 88715 92810 93100
AAXX 31124 16084 12975 13305 10074 21057 30012 40181 58008 60001 81030 333 55310 81360
AAXX 31124 16088 12970 42403 10062 21022 30067 40186 58004 60001 84030 333 84362
AAXX 31124 16110 12998 53304 10102 21025 30176 40181 58006 60001 80005 333 55310 555 0100/
AAXX 31124 16134 12984 02419 11034 21094 37782 48470 58004 60001 333 55310 92845
AAXX 31124 16153 12999 00405 10126 20035 39910 40174 51008 60001 333 55310 555 0214/
AAXX 31124 16158 12975 01106 10102 21042 30186 40193 58008 60001 333 55310
AAXX 31124 16206 12980 21001 10104 21037 30184 40193 58006 60001 80001
AAXX 31124 16219 42975 00434 11054 21104 38078 48474 53012 6///1 333 55310
AAXX 31124 16252 12364 73105 10030 21038 39220 42780 51007 69961 87800 333 55303 83808 84610
AAXX 31124 16280 12998 03609 10094 20011 39946 40170 58002 60001 333 55310 555 0338/
AAXX 31124 16310 12998 03308 10112 21057 39921 40142 52009 60001 333 55310 555 0316/
AAXX 31124 16320 11458 70110 10092 20070 30100 40113 51015 60051 76066 87200 333 55300 82815 85820 555 0318/
AAXX 31124 16325 12598 33119 10098 20058 30115 40130 51022 60001 83500 333 83630 98070 555 0431/
AAXX 31124 16360 11497 53520 10086 20050 39962 40098 51008 69901 72051 83830 333 55304 81818 83358 91032 555 0418/
AAXX 31124 16400 12998 02712 10134 20019 39884 40173 50002 60001 333 55310 555 0326/
AAXX 31124 16420 11698 30210 10138 20044 30073 40138 51004 60071 70196 83500 333 55310 83640 90944 91024 96496 96563 555 0438/
AAXX 31124 16429 12975 03316 10136 20025 30173 40184 54001 60001 333 55310
AAXX 31124 16470 12560 43600 10140 20092 39960 40196 54001 60001 84100 333 55303 22/// 84830 95000
AAXX 31124 16480 NIL
AAXX 31124 16522 11497 73417 10140 20124 39949 40192 58003 69941 70162 84220 333 55300 84818 85457 555 0600/
AAXX 31124 16539 NIL
AAXX 31124 16550 12698 71903 10134 20078 30003 40183 58004 60001 84230 333 55303 84840 84358 555 0100/
AAXX 31124 16546 11258 63113 10130 20112 30169 40197 58013 60081 72162 86800 333 82705 83815
AAXX 31124 16480 12598 33610 10146 20025 30071 40132 53011 60001 83200 333 55310 83820 555 0316/
AAXX 31124 81401 06/// /0000 10246 20236 30136 40142 60064 333 20232 69967 58003 555 60005
AAXX 31124 81408 06/// /2002 10246 20237 30130 40138 60254 333 20233 60037 58002 555 60005
AAXX 31124 16045 NIL
AAXX 31124 16090 12860 21603 10072 21062 30101 40184 58007 60001 82040 333 55307 82358
AAXX 31124 16149 12970 33301 10088 21070 30173 40189 58006 60001 80001
AAXX 31124 16261 NIL
AAXX 31124 16453 12597 40110 10150 20008 30088 40166 58002 60001 84400 333 55310 84630 555 0316/
AAXX 31124 16560 11150 73010 10126 20108 30205 40212 56003 60041 76062 87820 333 55300 81703 83810 85620
BBXX BATEU05 31124 99626 70045 46/// /2025 10069 49819 58032 22272
AAXX 31124 71805 02460 63005 11001 21018 30279 40288 53025 60001 86500 333 46997 60007 86618 90710 91114 93100 555 60005
AAXX 31124 13600 12970 40914 10100 21044 30072 40124 52009 60001 84030 333 84360
AAXX 31124 13610 11656 43612 10036 21020 39716 40147 57006 60001 77122 84500 333 84633
AAXX 31124 13611 12665 43206 10102 20023 39994 40085 52015 60001 84500 333 84640
AAXX 31124 13619 12665 30000 10026 21014 39350 42744 54004 60001 83500 333 83643
AAXX 31124 13622 12665 40402 10118 20056 30081 40088 54004 60001 84500 333 84640
AAXX 31124 13624 12970 30000 10110 20088 30043 40082 54002 60001 83030 333 83360
AAXX 31124 13625 NIL
AAXX 31124 13629 12960 70404 10014 20014 39028 42693 52012 60001 80001
AAXX 31124 13601 12660 20404 10116 21023 39966 40066 54002 60001 81101 333 81840
AAXX 31124 13602 NIL
AAXX 31124 13623 12970 20404 10092 21058 30135 40141 52010 60001 82030 333 82360
BBXX FVNM 31124 99115 70809 46/// /0519 10274 20234 40130 53014 22281 00274
AAXX 31121 10004 46/58 /1711 10050 20045 30059 40059 58015 222// 00075 333 55300 91115 91212
BBXX 44172 31121 99445 70634 46/// ///// 1//// 91201 22200 00053 10903 20902 317// 41101 70013
BBXX 44097 31121 99410 70711 46/// ///// 1//// 91202 22200 00109 10702 20702 70012
AAXX 31124 61968 16/// /2806 10322 20240 40104 60001 333 58006 90710 91114 555 60005
AAXX 31124 61970 16/// ///// 10307 20255 40101 60001 333 58011 555 60005
AAXX 31124 61980 11460 63212 10277 20247 40107 69961 72996 85902 333 59001 83818 82923 84640 85078 90710 91115 92427 555 69965
AAXX 31124 67005 12580 53215 10304 20238 40104 60001 83802 333 58008 83823 83080 90710 91122 555 60005
AAXX 31121 45007 11649 51503 10175 20122 30217 40226 51010 60002 70511 81530 333 10197 59011 81640 84359
AAXX 31124 78958 01457 31012 10265 20230 30153 40163 60051 71581 83400 333 10306 20217 58003 70051 82817
AAXX 31121 45007 11649 51503 10175 20122 30217 40226 51010 60002 70511 81530 333 10197 59011 81640 84359
AAXX 31124 78384 12460 20610 10255 20234 40179 60002 82200 333 10292 20251 58002 70000 82818
AAXX 31124
AAXX 31124 78383 12460 30806 10255 20215 40183 60002 83201 333 10304 20244 58002 70000 83816
AAXX 31121 45032 36/// /1201 10157 20118 30212 40229 52001
AAXX 31121 45035 36/// /1103 10167 20123 30183 40225 54000
AAXX 31121 45039 36/// /1501 10152 20120 30213 40228 52001
AAXX 31121 45044 36/// /1204 10147 20129 30132 40228 54000
AAXX 31121 45032 36/// /1201 10157 20118 30212 40229 52001
AAXX 31121 45035 36/// /1103 10167 20123 30183 40225 54000
AAXX 31121 45039 36/// /1501 10152 20120 30213 40228 52001
AAXX 31121 45044 36/// /1204 10147 20129 30132 40228 54000
BBXX 46232 31121 99325 71174 46/// ///// 1//// 91138 22200 00146 11804 20902 328// 41803 70018
BBXX 46240 31121 99366 71219 46/// ///// 1//// 91142 22200 00121 11203 21001 335// 41202 70014
BBXX 46236 31121 99368 71219 46/// ///// 1//// 91150 22200 00121 11304 21003 328// 41303 70022
BBXX 46229 31121 99438 71246 46/// ///// 1//// 91151 22200 00099 11208 21005 329// 41206 70040
BBXX 46225 31121 99329 71174 46/// ///// 1//// 91144 22200 00148 11802 21001 327// 41802 70011
BBXX 46213 31121 99403 71247 46/// ///// 1//// 91154 22200 00109 11207 21004 329// 41206 70036
BBXX 46215 31121 99352 71209 46/// ///// 1//// 91138 22200 00126 11704 21002 325// 41703 70020
BBXX 46219 31121 99332 71199 46/// ///// 1//// 91158 22200 00132 11706 20804 329// 41704 70028
BBXX 46224 31121 99332 71175 46/// ///// 1//// 91136 22200 00146 11802 21001 327// 41801 70009
BBXX 46211 31121 99469 71242 46/// ///// 1//// 91136 22200 00082 11209 20905 328// 41207 70043
BBXX 46214 31121 99379 71235 46/// ///// 1//// 91150 22200 00121 11306 21004 329// 41304 70029
AAXX 31124 78384 12460 20610 10255 20234 40179 60002 82200 333 10292 20251 58002 70000 82818
AAXX 31124 78383 12460 30806 10255 20215 40183 60002 83201 333 10304 20244 58002 70000 83816
BBXX 44099 31121 99369 70757 46/// ///// 1//// 91152 22200 00100 10601 20601 70007
BBXX 41110 31121 99341 70777 46/// ///// 1//// 91151 22200 00132 10602 20602 70009
BBXX 41113 31121 99284 70805 46/// ///// 1//// 91151 22200 00211 11301 21001 70005
BBXX 41112 31121 99307 70813 46/// ///// 1//// 91151 22200 00163 11301 20401 70005
BBXX 51204 31121 99213 71581 46/// ///// 1//// 91152 22200 00246 11102 21002 328// 41101 70010
BBXX 52200 31121 99134 11448 46/// ///// 1//// 91145 22200 00286 11004 21003 308// 41101 70019
BBXX 51201 31121 99217 71581 46/// ///// 1//// 91142 22200 00240 11203 20902 332// 41202 70013
BBXX 51202 31121 99214 71577 46/// ///// 1//// 91140 22200 00238 10903 20903 306// 41101 70016
BBXX 46239 31121 99363 71221 46/// ///// 1//// 91151 22200 00120 11706 21004 329// 41705 70032
AAXX 31124 48601 11560 70206 10279 20235 30099 40103 60001 70522 82551 333 10318 82625 85364 87077
AAXX 31124 48615 11357 80805 10248 20239 30103 40109 60021 76262 8457/ 333 10276 81708 84620 88469
AAXX 31124 48620 11410 72803 10278 20246 30096 40105 69901 70582 84558 333 10313 81710 83626 87276
AAXX 31124 48647 11464 73005 10296 20258 30081 40106 60001 71322 82931 333 10335 81917 87078
AAXX 31124 48650 11460 72801 10275 20252 30086 40104 69921 71322 82942 333 10317 81917 83364 87078
AAXX 31124 48657 11458 72401 10250 20245 30076 40094 60141 76186 84542 333 10320 81712 83624 86078
AAXX 31124 48665 11464 62703 10282 20255 30097 40107 60001 71322 82942 333 10324 81917 84364 85078
AAXX 31124 96413 11565 73602 10269 20248 30090 40116 60001 70392 83541 333 10325 83620 86080
AAXX 31124 96421 12465 70105 10270 20248 30079 40115 60001 83531 333 10332 83618 83365 85080
AAXX 31124 96441 12468 70103 10274 20254 30087 40114 60001 82532 333 10309 82614 86080
AAXX 31124 96449 12465 70104 10270 20251 30096 40115 60001 83531 333 10319 83614 86365
AAXX 31124 96465 12470 73604 10281 20253 30083 40116 60001 81842 333 10306 81813 87080
AAXX 31124 96471 11468 70302 10279 20247 30112 40115 60001 70222 81848 333 10317 81814 83364 87277
AAXX 31124 96481 12462 73605 10265 20224 30095 40114 69921 8387/ 333 10328 82817 86364
AAXX 31124 96491 11465 70611 10277 20247 30110 40122 60081 70162 82832 333 10303 82814 87078
BBXX 44011 31121 99411 70666 46/// /1405 10112 20102 40191 57013 91150 22200 00093 10602 20501 3//// 40602 70011 333 91206 555 11061 22070 31149 43206 61149 136054 135052 137047 134045 132046 132043
BBXX 41046 31121 99238 70683 46/// /1407 10254 20212 40219 53013 91150 22200 00252 10804 20502 300// 40803 70018 333 91208 555 11070 22075 31116 41309 61149 139065 137068 137064 136070 136067 138069 81408 91112
BBXX 42362 31121 99278 70907 46/// /1904 10228 20183 40207 52004 91200
BBXX 42363 31121 99282 70892 46/// /2404 10211 20133 40214 52011 91200 333 91204
BBXX 42364 31121 99291 70881 46/// /2702 10200 20172 40210 52010 91200
AAXX 31124 91573 06/// /0000 10239 2//// 30001 4//// 50008 69924 333 20234 59002 60007
AAXX 31124 91577 06/// /1502 10221 20198 30075 40096 50009 60044 333 20228 58002 69927
AAXX 31124 91579 06/// /1206 10253 20203 30085 40093 50004 60034 333 20242 58001 60007
AAXX 31124 91582 04470 81302 10246 20225 30059 40093 50002 60001 700// 333 60007 90710 91107 555 60005
AAXX 31124 91583 06/// /2002 10220 20213 30084 40099 50009 60064 333 20222 58005 69927
AAXX 31124 91587 06/// /2204 10220 20208 30051 40096 53003 60314 333 20224 58003 69967
AAXX 31124 91590 04664 80000 10225 20213 30055 40098 50003 69981 700// 333 60007 90710 91102 555 60005
AAXX 31124 91592 06/// /0403 10232 20213 30014 40099 50006 69964 333 20231 58000 60007
AAXX 31124 91596 06/// /3604 10223 20209 39989 40098 50003 60024 333 20225 58000 69987
AAXX 31121 06206 47470 7//07 10096 20086 39999 40052 50001 70186 8//// 333 83/19 84/21 87/25 91008 91114 91211
AAXX 31121 06207 47150 82708 10073 20066 30001 40054 56004 71086 8//// 333 84/03 86/04 87/10 91009 91114 91212
AAXX 31121 06239 47034 8//09 10085 20080 39969 40031 58006 76185 8//// 333 82/00 86/02 88/03 91011 91114 91212
AAXX 31121 06252 46/// /2710 10097 20088 30018 40064 50001 222// 00089 10503 333 91012 91113 91212
AAXX 31121 06260 17229 82703 10101 20099 30081 40083 56004 60011 75286 8//// 333 83/04 87/05 88/07 91006 91107 91204
AAXX 31121 06270 17131 81903 10053 20051 30066 40066 56007 60021 78185 8//// 333 88/02 91005 91110 91207
AAXX 31121 06290 17123 81903 10048 20047 30043 40084 56012 69991 72265 8//// 333 87/02 88/04 91004 91106 91203
AAXX 31121 06201 47668 52508 10086 20079 39993 40045 50003 70180 8//// 333 81/38 85/71 91009 91113 91212
AAXX 31121 06203 47550 72509 10103 20093 30030 40081 50001 76185 8//// 333 82/24 83/30 85/37 91010 91112 91210
AAXX 31121 06204 47567 82812 10099 20086 30013 40064 50002 70265 8//// 333 81/31 86/37 88/41 91014 91114 91212
AAXX 31121 06205 47269 82608 10089 20083 39965 40024 58001 70281 8//// 333 81/06 84/11 87/13 91009 91112 91210
AAXX 31121 06208 47034 82008 10051 20045 30012 40062 57010 71086 8//// 333 82/01 85/03 87/04 91010 91111 91210
AAXX 31121 06211 45966 42511 10090 20079 39998 40054 50002 8//// 333 84/70 91012 91114 91212
AAXX 31121 06212 47572 72610 1//// 2//// 30005 40068 58001 72385 8//// 333 87/30 87/35 91011 91112 91210
AAXX 31121 06235 17359 82606 10095 20090 30068 40068 50000 69971 71085 8//// 333 83/07 85/10 86/12 91007 91109 91207
AAXX 31121 06240 17464 82707 10106 20099 30086 40081 51002 69911 70285 8//// 333 81/10 87/21 88/24 91010 91111 91208
AAXX 31121 06251 17124 82203 10068 20067 30058 40059 56009 60021 72286 8//// 333 82/02 86/04 88/05 91004 91112 91209
AAXX 31121 06258 46/// /2506 333 91007 91111 91209
AAXX 31121 06269 17114 82203 10078 20075 30083 40077 56004 60021 78165 8//// 333 87/03 88/04 91004 91109 91206
AAXX 31121 06280 17128 81904 10042 20040 30067 40071 57015 60011 72286 8//// 333 86/03 88/04 91006 91108 91205
AAXX 31121 06310 17457 82508 10088 20085 30091 40101 58001 69941 71085 8//// 333 84/10 87/12 88/20 91009 91112 91210
AAXX 31121 06344 17356 82505 10103 20098 30095 40088 51002 60011 71085 8//// 333 81/07 83/12 86/15 91007 91111 91207
AAXX 31121 06370 17229 82604 10104 20104 30070 40096 51001 60011 75286 8//// 333 85/04 88/05 91006 91108 91205
AAXX 31121 06380 17139 82505 10096 20095 39969 40109 58001 60011 75186 8//// 333 84/02 88/03 91008 91109 91207
AAXX 31124 91574 46/// ///// 29088 39934 49940 56072
AAXX 31124 91570 NIL
AAXX 31124 91598 NIL
AAXX 31124 63980 42470 73115 10291 20236 40106 84202 333 58006 84817 87075 943// 91124
BBXX DBBH 31121 99382 10156 41598 33513 10134 20026 40148 53005 70198 832// 22281 04159 20402 399// 40501
AAXX 31121 10044 46/// /1907 10018 20016 30067 40100 58009 222// 00042 333 55300
AAXX 31121 10124 46/// ///// 10030 2//// 30036 40075 58017 222// 00055 333 553//
AAXX 31121 37682 32996 70901 11068 21076 38133 48534 52002 87040
AAXX 31121 37717 32598 52204 11011 21081 38060 48489 57007 83531 555 1/104
AAXX 31121 37788 41996 52302 10026 21044 39214 40230 57015 71011 85030
AAXX 31121 01257 11980 51202 11041 21078 39885 40051 58023 60001 70122 80008 333 91105
AAXX 31121 01277 16/// /1002 11043 21050 60001 333 91104
AAXX 31121 01370 16/// /2501 11090 21117 38957 40172 58014 60001 333 4/027 91103
AAXX 31121 01419 16/// /3601 10008 21047 60001 333 91109
AAXX 31121 01476 16/// /0503 11008 21052 30080 40086 57010 6//// 333 91106
AAXX 31121 01015 46/// /1608 11045 21061 333 91111
AAXX 31121 01228 46/// /1410 10017 21035 30004 40011 58033 333 91113
AAXX 31121 01340 16/// /0807 11048 21105 39179 40068 57015 60001 333 91112
AAXX 31121 01425 16/// /3301 11013 21023 39983 40065 58014 60001 333 91102
AAXX 31121 01450 16/// /0801 11086 21117 38911 40091 57011 60001 333 91103
AAXX 31121 01265 16/// /0000 11206 21225 39499 40133 58013 60001 333 91102
AAXX 31121 01273 16/// /0501 11091 21105 39860 40065 58023 60001 333 91103
AAXX 31121 01375 16/// /1906 11092 21116 6//// 333 91107
AAXX 31121 01440 46/// /1308 11089 21105 38756 40076 57011 333 91109
AAXX 31121 01469 16/// /0401 11058 21079 39921 40099 58011 60001 333 91104
AAXX 31121 01210 41987 81308 10024 21048 39969 49996 58023 70221 83077 333 91112
AAXX 31121 01092 46/// /0906 11003 21041 333 91113
AAXX 31121 01199 11570 80307 11054 21068 39582 40057 52012 6//// 73632 885// 333 91111
AAXX 31121 01262 46/// /1408 10016 21020 333 91110
AAXX 31121 01329 11989 80611 10024 21064 39971 40033 58020 60001 70221 8802/ 333 91115
AAXX 31121 01337 16/// /0504 11029 21067 39986 40053 57018 60001 333 91107
AAXX 31121 01389 11810 80000 11137 21151 39789 40120 58010 60001 71042 8802/ 333 91102
AAXX 31121 01436 41465 80713 10029 21004 76062 8672/ 222// 00080 333 91115
AAXX 31121 03951 17229 /2413 10116 20113 30069 40095 58015 69931 71081 88/// 333 88/03
AAXX 31121 03953 11250 82210 10122 20118 30050 40086 58012 60011 76165 886// 333 88704 92436
AAXX 31121 03955 11145 82308 10113 20113 39893 40087 58016 69911 75052 886// 333 83702 87703 98857
AAXX 31121 03956 17/16 92505 10106 20103 30005 40081 58011 60001 7101/ 333 89/03
AAXX 31121 03962 11258 82207 10112 20109 30043 40067 58012 60021 75065 886// 333 82704 87708
AAXX 31121 03963 17229 /2212 10108 20103 30009 40037 58014 69941 78185 88/// 333 88/03
AAXX 31121 03966 17229 /2204 10115 20110 39968 40060 58012 60011 75285 88/// 333 81/03 85/05 87/08
AAXX 31121 03967 11470 72311 10123 20107 39936 40047 57015 69901 70351 876// 333 87712
AAXX 31121 03969 11475 72308 10124 20106 39948 40050 58013 69901 70252 876// 333 83710 87713
AAXX 31121 03973 11156 82206 10103 20103 39779 40029 58009 60051 75865 886// 333 88702
AAXX 31121 03976 11362 82209 10112 20108 39996 40008 58015 60011 72165 886// 333 83708 88715
AAXX 31121 03980 17459 /2412 10112 20105 39959 49984 58012 60031 71085 87/// 333 87/12 90710 91117
OOXX AAUNI 31124 99798 50833 56093 07671 46/// /2412 11095 21153 38928 49815 52008 91200
AAXX 31124 89532 41/70 81203 10009 21053 39932 49959 51008 72222 8757/ 333 10010 21037
AAXX 31124 85041 12270 73604 10242 20236 39838 40104 52016 60064 81730 333 20234 31/// 55040 56000 59002 70062 81704 87358
AAXX 31124 85140 31458 80000 10220 20220 39890 40098 54000 71622 8652/ 333 20205 30/// 55105 56709 59010 86612 88458
AAXX 31124 85141 11256 80000 10250 20237 39867 40095 52011 60074 76162 887// 333 20226 32/// 55060 56799 59004 70070 86704 88612
AAXX 31124 85151 NIL
AAXX 31124 85152 32470 83404 10257 20240 39860 40088 52010 8452/ 333 20242 30/// 55065 56799 59004 84612 88457
AAXX 31124 85201 11265 82505 10056 20044 36301 52011 69974 70262 8667/ 333 20053 31004 55032 56200 59007 70007 81704 85613 88457
AAXX 31124 85230 NIL
AAXX 31124 85242 12484 80000 10080 20063 36554 52007 60074 8242/ 333 20053 32/// 56889 59003 70066 82617 88457
AAXX 3112/ 89866 46/// ///// 10006 39695 4//// 5////
AAXX 3112/ 89828 46/// ///// 11129 36543 4//// 5////
AAXX 31124 89667 46/// /0103 11005 29075 39794 4//// 5////
AAXX 31124 84452 31560 81806 10206 20178 30100 40131 70322 8351/ 333 20206 5649/ 59008 83630 88460
AAXX 31124 84401 31660 81405 10221 20168 30090 40135 70222 8453/ 333 20220 5600/ 58006 85640 83359
AAXX 31124 84673 31660 60405 10148 20105 37357 70220 82120 333 20131 56990 59001 82846 84466
AAXX 31124 84628 34760 82103 10217 20193 30121 40137 70224 8553/ 333 20199 56518 58006 85656 83358
AAXX 31124 84658 21562 73003 10247 20238 39867 40102 703// 8751/ 333 20230 5679/ 58001 60124 84630 83460
AAXX 31124 84501 31658 71205 10201 20172 30105 40132 71022 876// 333 20185 56000 58005 87760
AAXX 31124 84782 31962 60000 10193 20145 39637 40144 70222 8603/ 333 20183 5609/ 58020 86360
AAXX 31124 84515 21460 80000 10240 20225 39940 40118 70322 8253/ 333 20215 5690/ 59005 60114 82620 86360
AAXX 31124 84686 31660 80000 10112 20070 36888 70222 82507 333 20089 56909 58002 82640 88273
AAXX 31124 84472 21560 83301 10117 20107 37413 7022/ 885// 333 20090 56900 59002 60014 84730 87640
AAXX 31124 84691 31450 82602 10210 20199 30130 40137 71044 8862/ 333 20163 5600/ 58014 83712 88460
AAXX 31124 84720 31430 89902 10195 20176 39520 40187 710// 884// 333 20170 569// 58020 88615
AAXX 31124 84688 31458 60000 10081 20021 36671 702// 866// 333 20031 560// 58000 83613 83650
AAXX 31124 84688 31458 60000 10081 20021 36671 702// 866// 333 20031 560// 58000 83613 83650
AAXX 31124 84377 21460 70000 10255 20239 30010 40116 70222 87800 333 20237 56100 59007 69904 82810 85650
AAXX 31124 84425 21360 80000 10238 20232 39931 40150 701// 8163/ 333 20/// 5689/ 59001 60084 81709 85360 84455 31460 80000 10235 20228 39820 40172 70312 8313/ 333 20230 5600/ 58000 83820 85358
AAXX 31124 84370 31660 89902 10251 20234 30080 40113 702// 885// 333 20201 56000 58000 88640
AAXX 31121 06407 11368 82406 10110 20091 30105 40111 50001 69901 70262 875// 333 81709 86617 91111 91209
AAXX 31121 06447 NIL
AAXX 31121 33135 NIL
AAXX 31121 33317 /1497 72404 10013 21003 39775 40116 54000 70282 86330 555 69971
AAXX 31121 33345 32498 72303 10020 21005 39909 40116 58004 86580 333 86714
AAXX 31121 33393 /1497 82705 10018 21013 39736 40132 52002 70287 885// 333 88614 555 69901
AAXX 31121 33506 /1496 82002 10020 20015 39924 40122 58002 72842 886// 555 69901
AAXX 31121 33587 31496 83601 10014 20000 39867 40134 58002 71022 883// 333 88916
AAXX 31121 33631 31597 71603 10026 21001 30013 40158 58003 70242 87500 333 87620
AAXX 31121 33663 32598 83401 10019 20000 30038 40135 52002 8653/ 333 86631
AAXX 31121 33658 31919 40000 10029 20024 39839 40141 54000 71041 84030
AAXX 31121 33711 /1497 83003 10025 20012 39914 40126 54000 70265 886// 333 88712 555 69981
AAXX 31121 33791 NIL
AAXX 31121 33837 31456 83302 10042 20011 30080 40132 58002 71022 8553/ 333 85711
AAXX 31121 33924 /1497 83501 10062 20033 30121 40133 57002 70252 8262/ 555 69901
AAXX 31121 33946 32597 82501 10082 20017 39908 40127 56008 8257/
AAXX 31121 34300 /1/01 91302 10008 20008 39938 40132 56003 74554 555 69901
AAXX 31121 34504 /1/02 90000 10017 20017 39948 40129 57003 74564 555 69901
AAXX 31121 34519 31/03 91502 10009 20006 39864 40143 57004 74544
AAXX 31121 34601 31110 82102 10030 20027 39996 40134 57004 71042 886// 333 88702
AAXX 31121 06431 NIL
AAXX 31121 06432 NIL
AAXX 31121 06449 11138 82505 10097 20090 39895 40121 50001 60021 75865 887// 333 83703 86704 91109 91206
AAXX 31121 06450 11230 82504 10105 20091 30092 40107 51003 60011 75165 877// 333 84704 87706 91108 91206
AAXX 31121 06458 NIL
AAXX 31121 06465 NIL
AAXX 31121 06478 11125 72505 10092 20086 39894 40112 50001 60011 75865 877// 333 82703 87704 91109 91207
AAXX 31121 06496 NIL
AAXX 31121 13586 12560 82801 10032 21010 39860 40156 55000 69931 8772/ 333 82720 87640 88457
AAXX 31121 06400 11577 82306 10120 20111 30103 40114 58005 69901 70165 875// 333 81621 83627 87631 91112 91209
AAXX 31121 06428 NIL
AAXX 31121 06451 11257 82605 10105 20095 30046 40112 50001 69961 72165 876// 333 86705 91109 91206
AAXX 31121 06456 11235 82707 10095 20092 39760 40122 50001 60011 75865 877// 333 85703 87705 91109 91207
AAXX 31121 06476 17/01 92503 10059 20057 39466 40128 50002 60021 7//64 333 91106 91203
AAXX 31121 06479 17219 /2505 10099 20096 30027 40106 50001 60011 75286 333 83/03 87/05 88/07 91107 91205
AAXX 31121 06490 17/03 92704 10070 20064 39551 40118 51002 60041 75264 333 91110 91205
AAXX 31121 06590 11158 72705 10065 20062 39679 40131 50001 69911 75154 876// 333 81703 87704 91108 91205
AAXX 31121 11010 32583 79901 10041 21012 39785 40168 57017 333 81828 86365 85076
AAXX 31121 11012 16/// /2801 10032 21010 39692 40167 58016 60001 333 55300
AAXX 31121 11022 12582 32704 10050 21030 39768 40157 58011 60001 83800 333 55309 82827
AAXX 31121 11035 32584 22805 10065 21016 39907 40161 57012 82800 333 55310 81830
AAXX 31121 11036 32686 12705 10066 21030 39941 40165 58009 333 81840
AAXX 31121 11101 11425 81605 10013 20009 39648 40187 58006 60041 76977 887// 333 88710
AAXX 31121 11120 01215 82704 11014 21016 39470 40197 58012 60011 77377 333 69925 81705 84610 87620
AAXX 31121 11126 17/// /2909 11049 21049 37674 48440 58002 60021 7408/ 333 55300 91113
AAXX 31121 11130 17/// /2101 11003 21014 39580 40184 58015 60021 7404/ 333 55300
AAXX 31121 11146 11/02 93413 11102 21117 36855 47953 52002 60031 77074 333 89/00 91121 92613
AAXX 31121 11150 01220 81504 10006 21006 39623 40176 57014 69911 77377 333 69915 81704 85618 86624
AAXX 31121 11155 11/20 82703 11061 21075 38307 48441 58011 69901 77172 875// 333 55300 876// 91115
AAXX 31121 11157 11435 89901 11011 21028 39397 40187 58014 69901 77082 875// 333 81712 84630 87635
AAXX 31121 11172 NIL
AAXX 31121 11190 12670 22703 10074 21044 39929 40163 58015 60001 82500 333 55310
AAXX 31121 11204 11480 83001 10003 21022 39393 40202 58010 69901 72682 887// 333 88715
AAXX 31121 11212 31/68 72509 11097 21129 37773 48462 58009 73631 84778 333 827// 85272 444 26076
AAXX 31121 11231 32256 79901 11033 21034 39611 40204 57017 333 83704 87460
AAXX 31121 11240 32875 49901 10032 21027 39730 40175 57017 333 81657
AAXX 31121 11244 16/// /1902 10047 21051 39842 40174 58021 60001 333 55310
AAXX 31121 11389 12670 32204 10043 21023 39840 40170 58012 60001 83200 333 55310
AAXX 31121 01447 16/// /0000 11103 21121 39404 40107 57011 60001 333 91100
AAXX 31124 48300 32560 11204 10255 20208 39821 40133 52005 81100 333 10294 59007
AAXX 31124 48327 32962 00000 10262 20161 39790 40145 52008 333 10315 59003
AAXX 31124 48331 32560 10000 10263 20205 39912 40142 52009 81100 333 10322 59005
AAXX 31124 48353 31957 00000 10254 20165 39857 40147 52011 70500 333 10306 58002
AAXX 31124 48356 32960 01202 10242 20160 39969 40167 53017 333 10292 58000
AAXX 31124 48375 NIL
AAXX 31124 48378 31558 23303 10277 20206 30085 40137 52009 71000 81105 333 10319 59004
AAXX 31124 48381 32560 20507 10267 20177 39930 40147 52010 82505 333 10306 59003
AAXX 31124 48407 31959 30202 10255 20175 30003 40145 52012 70511 80001 333 10310 58002
AAXX 31124 48431 31959 10000 10269 20197 39930 40143 52010 71000 80001 333 10301 59004
AAXX 31124 48456 NIL
AAXX 31124 48480 31558 60603 10292 20187 30118 40123 52017 70522 83876 333 10338 58002
AAXX 31124 48500 31556 60505 10270 20200 30120 40127 52010 71022 82236 333 10312 59001
AAXX 31124 48551 31556 60103 10265 20239 30108 40116 52009 71092 82557 333 10296 59002
AAXX 31124 48565 32560 60910 10289 20219 30090 40100 52018 82246 333 10314 59001
AAXX 31124 48569 01456 80203 10243 20224 30083 40124 51014 60042 76062 86877 333 10290 58002 69926 70206
AAXX 31124 48583 11456 80411 10258 20235 30101 40107 52012 60082 71062 8282/ 333 10282 59011 70410
AAXX 31121 15015 01593 80302 11008 21011 39538 42748 54000 60001 74622 886// 333 43006 60007 91003 91103
AAXX 31121 15020 01996 61600 10010 20010 39938 40141 54001 60001 71042 86070 333 60007 91001 91106
AAXX 31121 15090 01395 82800 11013 21013 30053 40149 55006 60001 71044 8461/ 333 55300 00242 20447 30428 60007 91001 91102 92611 92717 93501
AAXX 31121 15108 02298 63204 11091 21091 38000 48437 52009 60001 81571 333 48018 60007 95000
AAXX 31121 15120 01596 80701 11012 21012 39653 40165 57003 69901 71074 8267/ 333 43004 55300 00042 20566 30515 69907 91002 91103
AAXX 31121 15150 01596 61701 10010 21003 39926 40143 57007 60001 71022 84570 333 60007 91002 91102
AAXX 31121 15170 02698 60302 11006 21041 39345 42744 57009 60001 81146 333 43002 60007 91003 91103
AAXX 31121 15200 01495 81701 11003 21003 30020 40170 58003 60001 71042 886// 333 60007 91002 91104
AAXX 31121 15230 01496 83601 10016 21004 39868 40168 58005 60001 71022 886// 333 55300 00265 20545 30517 60007 91001 91102
AAXX 31121 15260 02597 83101 10003 21012 39615 40164 58003 60001 8557/ 333 60007 91002 91102 95080
AAXX 31121 15280 01297 73404 11132 21132 37379 47897 57008 69941 70274 8457/ 333 49035 60007 444 66214
AAXX 31121 15292 01/93 93001 11007 21007 39875 40179 50000 60001 74544 333 43002 60007 91002 91102
AAXX 31121 15310 01996 70501 10028 20001 30054 40142 57005 60001 71022 82038 333 55307 00396 20853 30826 60007 91002 91103
AAXX 31121 15335 01496 83101 10024 20003 30134 40141 57002 60001 71022 886// 333 60007 91002 91104
AAXX 31121 15346 01594 61801 10039 20021 39845 40139 57008 60001 71041 83570 333 60007 91002 91102
AAXX 31121 15350 01595 82102 10023 20008 30023 40146 57006 60001 71042 886// 333 60007 91002 91102
AAXX 31121 15360 01495 73405 10017 20004 30115 40130 57008 60001 71022 87600 222// 06058 20200 333 60007 91006 91106 92415
AAXX 31121 15410 02997 33003 10060 21020 30044 40141 58010 60001 83030 333 60007 91005 91105
AAXX 31121 15420 01493 80201 10002 20002 30029 40144 58005 60001 74644 886// 333 55300 0//// 20241 3//// 60007 91002 91103
AAXX 31121 15450 01491 83102 11008 21008 39903 40146 58002 60001 74444 886// 333 55300 00259 20355 30333 60007 91003 91103 92611
AAXX 31121 15460 01492 83402 10003 20002 30115 40140 57003 60001 74642 886// 333 60007 91003 91103
AAXX 31121 15470 01595 82901 10012 20012 30015 40145 57004 69911 72272 8457/ 333 69917 91001 91102
AAXX 31121 15480 01496 83402 10021 20021 30117 40134 57006 60001 71011 886// 222// 06054 2//// 333 60007 91004 91105 92426
AAXX 31124 17600 11558 70204 10130 20105 30119 40129 58015 60181 79198 879// 333 83820 82935 85640 92426
AAXX 31124 17607 41565 70706 10129 20106 39945 40137 57016 76062 8588/ 333 82825 84650 86360
AAXX 31124 17601 11470 70608 10150 20112 30094 40125 57023 60021 78082 879// 91150 333 81710 81920 84828 86650
AAXX 31124 17609 11562 70605 10153 20109 30132 40136 58016 69911 78081 879// 333 81925 86650
BBXX TFBKF 31124 99635 70202 46/// ///// 22200 10705 70026
BBXX TFDRN 31124 99658 70212 46/// ///// 22200 10803 70015
BBXX TFGRS 31124 99663 70182 46/// ///// 22200 10804 70020
BBXX TFGRV 31124 99638 70225 46/// ///// 22200 10909 70043
BBXX TFGSK 31124 99641 70229 46/// ///// 22200 10808 70038
BBXX TFHFN 31124 99642 70152 46/// ///// 22200 10806 70032
BBXX TFKGR 31124 99657 70136 46/// ///// 22200 10907 70033
BBXX TFSRT 31124 99633 70203 46/// ///// 22200 10808 70041
BBXX TFSTD 31124 99664 70234 46/// ///// 22200 10807 70037
AAXX 31124 48310 32960 00000 10242 20199 39691 40147 52008 333 10308 59002
AAXX 31124 48325 32960 20000 10255 20211 39886 40130 52013 80001 333 10332 59003
AAXX 31124 48329 31956 00000 10260 20198 39797 40135 52004 71000 333 10311 58005
AAXX 31124 48352 32960 00000 10255 20179 39954 40156 52009 333 10307 59001
AAXX 31124 48357 32961 10902 10230 20157 30001 40173 52020 80001 333 10295 59001
AAXX 31124 48380 31957 00000 10274 20212 30049 40143 52009 71000 333 10322 58003
AAXX 31124 48383 31959 00606 10230 20155 30002 40164 51019 70500 333 10295 59004
AAXX 31124 48403 31958 00202 10270 20187 39932 40142 52010 70500 333 10311 59002
AAXX 31124 48405 31958 20103 10256 20183 39989 40152 52014 70500 80005 333 10297 58002
AAXX 31124 48420 31950 20304 10278 20209 30120 40125 51009 71000 81045 333 10322 59002
AAXX 31124 48421 31956 00000 10274 20214 30016 40129 52015 71000 333 10340 58000
AAXX 31124 48425 31957 20000 10276 20203 30126 40136 52009 70500 80005 333 10315 59001
AAXX 31124 48426 31558 10000 10289 20196 30118 40131 52013 70500 81101 333 10335 59001
AAXX 31124 48429 32560 30505 10289 20187 30120 40127 52007 81101 333 10315 59003
AAXX 31124 48430 31959 30000 10296 20195 30121 40128 52011 70510 82035 333 10336 59006
AAXX 31124 48450 31956 00000 10275 20195 30101 40134 52022 70500 333 10325 59002
AAXX 31124 48459 32960 20000 10309 20207 30121 40124 52018 80005 333 10346 59003
AAXX 31124 48465 31958 23303 10281 20215 30123 40128 52008 71000 80005 333 10316 59001
AAXX 31124 48550 31558 60306 10275 20240 30109 40116 52009 71022 82146 333 10300 59001
AAXX 31124 48552 11457 82903 10240 20228 30116 40122 52010 60192 71092 84907 333 10292 58004 70189
AAXX 31124 48566 32560 70903 10265 20223 30111 40119 52015 82847 333 10303 58008
AAXX 31124 48568 01458 80506 10245 20235 30109 40117 52013 60522 76162 8497/ 333 10294 59002 60097 71198
AAXX 31124 48302 31558 31004 10170 20134 38509 40142 52004 71011 82205 333 10200 59002
AAXX 31124 48304 32960 00000 10241 20209 39678 40138 51001 333 10295 59011
AAXX 31124 48334 31556 20000 10260 20198 39776 40137 52006 71000 82500 333 10305 59001
AAXX 31124 48360 31959 01002 10242 20178 39887 40149 52008 71000 333 10292 58002
AAXX 31124 48372 31956 20000 10278 20239 30078 40136 52008 71000 80001 333 10327 58003
AAXX 31124 48373 NIL
AAXX 31124 48386 31930 00000 10270 20221 30090 40134 52009 71000 333 10313 59001
AAXX 31124 48387 31958 00000 10188 20166 39185 40152 52007 71000 333 10246 58009
AAXX 31124 48408 32960 20202 10255 20179 39995 40145 52014 80005 333 10322 59004
AAXX 31124 48415 32560 80608 10289 20199 30117 40128 52007 82556 333 10333 59004
AAXX 31124 48433 31958 00000 10258 20201 39979 40145 52013 71000 333 10315 59003
AAXX 31124 48437 32962 00000 10245 20199 39941 40153 333 10305 58003
AAXX 31124 48440 31957 00000 10283 20214 30081 40130 52013 71000 333 10328 59002
AAXX 31124 48451 32961 00000 10255 20225 30126 40137 52010 333 10300 59001
AAXX 31124 48454 31959 20804 10303 20182 30116 40123 51007 70500 80001 333 10321 58012
AAXX 31124 48457 31558 60212 10285 20216 30106 40123 53008 71022 81146 333 10291 59001
AAXX 31124 48463 31558 40706 10305 20184 30032 40125 52009 70511 82801 333 10345 59017
AAXX 31124 48464 32960 00000 10270 20213 30107 40120 52007 333 10310 59002
AAXX 31124 48479 NIL
AAXX 31124 48520 31959 40000 10260 20215 30108 40124 52008 71011 80005 333 10297 58004
AAXX 31124 48554 01420 81406 10235 20232 30120 40124 52016 60062 76296 889// 333 10279 58007 69945 70055
AAXX 31124 48563 32460 80805 10252 20221 30078 40114 52016 82846 333 10310 58005
AAXX 31124 48571 01459 80304 10245 20227 30114 40126 52010 60102 76122 83888 333 10293 58013 60036 70302
AAXX 31124 48307 31957 00000 10244 20207 39770 40151 52012 71000 333 10319 58000
AAXX 31124 48324 32960 01003 10255 20186 39919 40139 52006 333 10325 59001
AAXX 31124 48333 31958 10000 10255 20196 39842 40144 52009 71000 81050 333 10313 58006
AAXX 31124 48350 NIL
AAXX 31124 48355 31958 00000 10238 20163 39939 40160 50013 70500 333 10295 59004
AAXX 31124 48358 32960 10902 10220 20160 39998 40177 52019 80001 333 10280 58004
AAXX 31124 48384 32960 00501 10250 20187 39958 40150 52009 333 10316 59001
AAXX 31124 48401 31950 10502 10280 20214 30031 40138 52020 71000 80005 333 10325 59005
AAXX 31124 48404 31959 00706 10251 20187 39968 40147 53013 71000 333 10300 59008
AAXX 31124 48409 32960 10102 10264 20178 39995 40143 52020 80001 333 10306 59009
AAXX 31124 48419 31959 53402 10290 20216 30123 40131 51012 70511 80005 333 10327 59001
AAXX 31124 48427 31958 23102 10256 20202 30116 40123 57001 71000 80001 333 10310 59011
AAXX 31124 48435 31959 20914 10252 20168 39700 40138 52007 70500 80001 333 10296 59006
AAXX 31124 48453 32960 20502 10298 20203 30121 40124 52006 80005 333 10324 59003
AAXX 31124 48458 32960 40000 10281 20195 30066 40146 52020 80005 333 10331 59001
AAXX 31124 48474 31957 30000 10274 20197 30004 40127 52012 70500 80005 333 10322 58000
AAXX 31124 48481 32560 30902 10288 20200 30099 40126 52014 81141 333 10335 58003
AAXX 31124 48555 31550 60000 10263 20241 30101 40143 51013 71022 84576 333 10295 58000
AAXX 31124 48556 01460 80000 10255 20240 30099 40115 52010 60022 70262 83847 333 10296 59001 69927 70017
AAXX 31124 48557 01558 60000 10243 20234 30083 40118 52009 60042 71062 85806 333 10305 58012 60037 70037
AAXX 31124 48560 01550 80000 10250 20235 30120 40124 52012 60112 76162 84876 333 10263 58010 60016 70270
AAXX 31124 48574 01560 70000 10258 20232 30096 40125 52010 69942 70262 84246 333 10295 58011 69916 70184
AAXX 31124 48581 01540 80000 10245 20238 30076 40118 52009 60302 76162 83576 333 10293 59005 60147 70378
AAXX 31124 78948 11578 10924 10275 20244 30168 40176 60001 70500 81800 333 00200 10296 20260 58002 79999 81822
AAXX 31124 SALC31 TLPL 311200 METAR TLPL 311200Z 09024KT 9999 FEW022 28/24 Q1017
AAXX 31124 67341 32580 51211 10288 20183 40115 56011 83230 333 94320
BBXX UFTA 31121 99844 71213 41/93 92412 11271 21301 40033 58005 73933 333 11271 92382
AAXX 31124 91930 16/// ///// 10239 20230 69941 333 10304
AAXX 31124 91943 36/// /0710 10259 20211 30116 40118 56017 333 59002
AAXX 31124 78397 111574 63607 10253 20217 30154 40170 60001 70511 85840 333 01990 10324 20241 58003 81816 84632 85358
AAXX 31121 89061 379// 03304 10018 21013 39738 49744 52036 70010 333 10019 20005 91005 91106
AAXX 31124 03301 16264 /2117 10105 20105 39992 40064 58011 60001 91150 333 83/04 87/20 90710 91125
AAXX 31124 03305 17224 /2224 10097 20087 39814 40073 58007 69921 781// 91150 333 87/03 90710 91132
AAXX 31124 03313 16785 /2313 10126 20098 39969 40061 58014 60001 91150 333 81/50 85/57 90710 91125
AAXX 31124 03316 15580 /2010 10106 20089 30052 40062 58010 60001 91150 333 82/21 83/56 85/62
AAXX 31124 03318 16/// /2215 10098 20089 69921 91150
AAXX 31124 03321 16781 /2613 10127 20097 30057 40069 58011 60001 91150 333 553// 20482 81/56 86/61
AAXX 31124 03330 17022 /2311 10093 20093 39721 40077 58006 69981 751// 91150 333 88/01
AAXX 31124 03344 17327 /2314 10098 20091 39741 40054 58008 69921 751// 91150 333 81/06 86/36
AAXX 31124 03346 16/// /2516 10101 20093 60001 91150 333 90710 91125
AAXX 31124 03348 17471 /2112 10108 20104 39963 40069 58009 60011 751// 91150 333 55300 20238 81/16 87/21
AAXX 31124 03355 15886 /2512 10115 20100 30041 40052 58009 60001 91150 333 55300 20163 82/57 84/60 86/65
AAXX 31124 03373 16473 /2313 10108 20097 39994 40063 58005 60001 91150 333 87/11
AAXX 31124 03379 16483 /2517 10113 20101 39998 40074 58004 60001 91150 333 88/10
AAXX 31124 03382 15484 /2309 10112 20094 30039 40048 58004 60001 91150 333 55300 20320 82/18 87/66
AAXX 31124 03385 46972 /2319 10112 20102 30047 40057 58005 91150 333 83/59 90710 91125
AAXX 31124 03391 12480 82510 10115 20098 30062 40069 58003 60001 8763/ 91150 333 87714
AAXX 31124 03392 16470 /2312 10111 20105 30066 40070 58003 60001 91150 333 87/12 83/58
AAXX 31124 03405 16160 /2323 10104 20104 39967 40082 58009 60001 91150 333 553// 20393 87/02 90710 91131
AAXX 31124 03409 16/// /2514 10099 20093 60001 91150 333 55300 2////
AAXX 31124 03410 16107 /2310 10085 20085 39651 40082 58005 60021 91150 333 553// 20138 88/02
AAXX 31124 03469 15484 /2514 10115 20108 30072 40076 58003 60001 91150 333 553// 20253 87/14
AAXX 31124 03488 15482 /2417 10115 20102 30041 40067 58003 69901 91150 333 85/10 87/58
AAXX 31124 03503 17259 /2608 10110 20106 30020 40096 58006 69921 723// 91150 333 88/05
AAXX 31124 03507 17233 /2210 10097 20097 39735 40103 58007 60021 752// 91150 333 88/03
AAXX 31124 03520 16980 /2516 10117 20097 39974 40093 58009 60001 91150 333 553// 20431 8//99
AAXX 31124 03522 15983 /2512 10125 20101 30004 40095 58014 60001 91150 333 8//99
AAXX 31124 03529 15580 /2110 10117 20101 30057 40100 58009 69901 91150 333 82/21 85/31 85/65
AAXX 31124 03544 15580 /2306 10108 20094 39963 40092 56006 60001 91150 333 553// 20314 82/22 86/64
AAXX 31124 03560 15981 /2411 10110 20095 39984 40087 57009 60001 91150 333 553// 20185 86/63 84/69
AAXX 31124 03604 16260 /2615 10111 20106 30054 40107 58006 69921 91150 333 88/03 90710 91125
AAXX 31124 03605 16218 /2517 10108 20105 30104 40112 58003 69921 91150 333 88/03
AAXX 31124 03609 16/// /2323 10103 20103 30065 40117 58009 60011 91150 333 90710 91127
AAXX 31124 03628 15276 /2522 10114 20106 30039 40110 58010 69901 91150 333 55300 20284 88/05 90710 91131
AAXX 31124 03647 16382 /2413 10106 20098 39847 40099 58009 60001 91150 333 553// 20222 86/07 87/32
AAXX 31124 03658 16481 /2310 10120 20099 30040 40109 58004 60001 91150 333 88/11
AAXX 31124 03660 15384 /2707 10107 20097 39859 40104 56005 69921 91150 333 88/07
AAXX 31124 03672 16487 /2612 10124 20097 30064 40104 57007 60001 91150 333 88/13 91022
AAXX 31124 03684 15480 /2410 10113 20095 39992 40096 58001 60001 91150 333 88/11
AAXX 31124 03693 16481 /2409 10118 20099 30100 40103 58001 60001 91150 333 87/14
AAXX 31124 03707 15265 /2617 10117 20117 30120 40127 58007 69921 91150 333 87/04 86/11
AAXX 31124 03710 16124 /2612 10097 20097 39709 40126 58007 60011 91150 333 553// 20221 88/02 90710 91125
AAXX 31124 03743 16484 /2509 10117 20104 39962 40120 58006 69921 91150 333 87/13 83/22
AAXX 31124 03749 16461 /2512 10119 20104 30011 40120 58004 60001 91150 333 87/15
AAXX 31124 03761 17357 /2414 10109 20099 39973 40116 58005 60001 704// 91150 333 55300 20149 86/06 86/14
AAXX 31124 03768 16367 /2612 10116 20102 30035 40113 58005 60001 91150 333 88/09
AAXX 31124 03769 17484 /2509 10121 20103 30032 40112 58003 6///1 723// 91150 333 55300 20260 88/12
AAXX 31124 03781 15384 /2514 10113 20100 39906 40110 58005 69901 91150 333 553// 20318 88/09
AAXX 31124 03797 15483 /2613 10121 20100 30045 40104 58002 69901 91150 333 55300 20498 82/13 87/63
AAXX 31124 03823 17/04 /2513 10107 20107 39898 40139 58008 69941 733// 91150 333 553// 20133
AAXX 31124 03839 16/// ///// 10133 20113 60001 91150 333 553// 20327
AAXX 31124 03857 17259 /2623 10114 20114 30070 40133 58004 60001 710// 91150 333 81/03 90710 91129
AAXX 31124 03862 17480 /2409 10125 20110 30118 40130 58003 69901 723// 91150 333 55300 20198 88/13
AAXX 31124 03866 16/// /2620 10110 20103 30106 40130 58005 60001 91150 333 90710 91125
AAXX 31124 03872 15380 /2518 10119 20110 30120 40125 58004 60001 91150 333 553// 20404 88/09
AAXX 31124 03876 16/// /2616 10113 20106 30118 40120 58008 60001 91150
AAXX 31124 03895 41025 82617 10116 20111 40173 58004 72854 886// 333 84700 87701 90710 91127
AAXX 31124 03008 16/// /2012 10081 20080 39848 49917 58015 69961 91150
AAXX 31124 03010 46/// /1820 10088 20066 49901 57030 333 90710 91135
AAXX 31124 03014 46/// /2422 10040 20025 49914 58011 91150 333 8//// 90710 91128
AAXX 31124 03031 17458 /2313 10093 20077 39615 49932 58029 69981 761// 91150 333 553// 20099 87/13 90710 91127
AAXX 31124 03034 17338 /2122 10105 20096 39909 49922 56029 69921 757// 91150 333 86/08 84/15 90710 91134
AAXX 31124 03037 17322 /2313 10106 20101 39926 49947 56016 60021 710// 91150 333 87/07 86/15 90710 91125
AAXX 31124 03039 46/// /2141 10059 20041 91150 333 90710 91153
AAXX 31124 03041 46/// /2244 10040 20040 91150 333 90710 91165 91063
AAXX 31124 03044 17650 /2109 10083 20060 39817 49914 58032 69901 781// 91150 333 553// 20143 82/32 84/41 86/50 91020
AAXX 31124 03047 17456 /2013 10086 20076 39674 49971 56025 60011 751// 91150 333 553// 20105 87/19 85/28
AAXX 31124 03062 15961 /2017 10079 20045 39924 49929 58030 60001 91150 333 553// 20210 81/64
AAXX 31124 03065 46/// /2248 10028 20028 91150 333 90710 91165 91058
AAXX 31124 03068 12775 72113 10090 20044 39935 49943 57022 60001 8353/ 91150 333 83650 87362
AAXX 31124 03080 15980 /2906 10076 20043 39796 49964 58014 60001 91150 333 87/62
AAXX 31124 03088 15966 /2520 10070 20045 39808 49969 58014 60001 91150 333 553// 20119 82/58 87/62 90710 91132 91031
AAXX 31124 03094 15980 /1714 10071 20040 39942 49946 58020 60001 91150 333 86/58
AAXX 31124 03105 17220 /2217 10106 20106 39977 49993 56014 69981 710// 91150 333 88/03 90710 91126
AAXX 31124 03132 15382 /2108 10112 20112 30007 40020 58013 60011 91150 333 87/09 86/33
AAXX 31124 03144 17327 /2904 10080 20071 39943 49986 58019 69901 752// 91150 333 553// 20133 87/06 85/17
AAXX 31124 03148 46/// /2018 10059 20059 91150 333 90710 91129
AAXX 31124 03153 17/03 /2212 10092 20092 39886 40022 58013 60021 732// 91150 333 553// 20056
AAXX 31124 03155 16462 /2016 10090 20082 39707 49999 58021 69941 91150 333 87/10 83/27
AAXX 31124 03158 15984 /2315 10088 20077 39863 49998 58016 60001 91150 333 553// 20213 81/58 86/63
AAXX 31124 03210 16/02 /1812 10087 20087 39889 40039 58011 60031 91150
AAXX 31124 03212 17466 /1302 10108 20094 39937 40034 58015 69981 781// 91150 333 87/18
AAXX 31124 03214 17256 /2213 10090 20086 30025 40044 58014 60011 762// 91150 333 88/05
AAXX 31124 03220 16377 ///// 10106 20102 39992 40026 58015 69921 91150 333 85/06 86/15
AAXX 31124 03225 16256 /2220 10093 20083 39736 40037 58013 69921 91150 333 553// 20432 81/04 87/50 90710 91125
AAXX 31124 03226 15284 /2210 10088 20085 39768 40040 58007 60001 91150 333 88/03
AAXX 31124 03227 46/// /2328 10049 2//// 91150 333 90710 91132
AAXX 31124 03230 16375 /2515 10095 20085 39765 40017 58012 60001 91150 333 85/08 83/58 90710 91126 91026
AAXX 31124 03238 15484 /2507 10100 20078 39847 40017 58008 60001 91150 333 84/15 87/64
AAXX 31124 03261 16779 /2316 10111 20093 30010 40050 58004 60001 91150 333 81/50 87/58
AAXX 31124 03265 17884 /2416 10112 20091 30018 40048 58004 69901 723// 91150 333 87/57
AAXX 31124 03266 16485 /2706 10113 20090 30032 40049 58006 60001 91150 333 82/16 87/58
AAXX 31124 03275 17764 /2217 10094 20077 39839 40028 58007 69921 781// 91150 333 82/50 86/57 90710 91127
AAXX 31124 03281 16/// /2214 10079 20076 69921 91150
AAXX 31124 03903 16363 /2306 10114 20113 39962 40019 58012 60021 91150 333 553// 20115 88/08
AAXX 31124 03904 16482 /2214 10117 20104 39950 40008 57011 60021 91150 333 88/10
AAXX 31124 03907 15483 /2217 10111 20098 39992 49999 56011 69921 91150 333 55300 20166 87/10
AAXX 31124 03911 16256 /2210 10102 20102 39747 40015 56012 60021 91150 333 88/03
AAXX 31124 03915 16381 /1909 10111 20111 39932 40008 57011 69921 91150 333 87/06
AAXX 31124 03916 16489 /2609 10110 20098 39809 49994 57018 60001 91150 333 553// 20299 87/12 91019
AAXX 31124 03923 17250 /2413 10108 20108 39830 40022 57010 60011 723// 91150 333 87/05
AAXX 31124 68026 42660 73602 10302 20219 48502 57014 84973
AAXX 31124 68029 42560 62705 10285 20202 48498 57020 85370
AAXX 31124 68030 42560 60202 10277 20211 48494 57013 85374
AAXX 31124 68032 42660 62705 10318 20212 48500 57016 85202
AAXX 31124 68038 42660 53404 10310 20210 48500 57013 84281
AAXX 31124 68040 42660 61004 10314 20173 48502 57017 82202
AAXX 31124 68054 42560 71406 10284 20190 48516 58009 86272
AAXX 31124 68070 42660 40905 10293 20174 48513 57011 82182
AAXX 31124 68148 42660 43607 10305 20175 48512 57017 83281
AAXX 31124 68226 42660 52705 10345 20132 48503 58010 85200
AAXX 31124 68234 42660 42706 10300 20180 48508 57011 83280
AAXX 31124 68320 42660 43004 10336 20171 48506 57017 83180
AAXX 31124 68325 42660 51808 10292 20178 48502 57012 85800
AAXX 31124 68328 42660 63210 10353 20157 48496 57016 86200
AAXX 31124 70026 NIL
AAXX 31124 70133 NIL
AAXX 31124 70174 NIL
AAXX 31124 70200 NIL
AAXX 31124 70219 NIL
AAXX 31124 70231 NIL
AAXX 31124 70261 NIL
AAXX 31124 70267 NIL
AAXX 31124 70271 NIL
AAXX 31124 70273 NIL
AAXX 31124 70308 NIL
AAXX 31124 70316 NIL
AAXX 31124 70326 NIL
AAXX 31124 70340 NIL
AAXX 31124 70350 NIL
AAXX 31124 70361 NIL
AAXX 31124 70381 NIL
AAXX 31124 70398 NIL
AAXX 31124 70414 NIL
AAXX 31121 26554 41213 81701 10002 21003 39896 40061 58008 77172 8872/ 555 1/000
AAXX 31121 26666 41256 81802 10006 21005 39855 40072 58010 72272 886// 333 88706 555 11000
AAXX 31121 26850 41458 82202 10004 21016 39794 40069 58004 71072 885// 333 88715 555 1/100
AAXX 31121 26863 41214 81803 10000 21003 39840 40079 58007 77372 8872/ 333 88703 555 1/100
AAXX 31121 26941 41337 82102 10008 21000 39833 40073 58006 71022 887// 333 88708 555 1/000
AAXX 31121 26951 41335 82204 10006 21002 39878 40079 58006 71072 886// 333 88707 555 11001
AAXX 31121 33008 41356 83004 10010 21005 39917 40098 52010 71076 885// 333 86707 555 11002
AAXX 31121 33019 41457 81901 10012 20001 39907 40083 58007 71022 886// 333 86712 555 12001
AAXX 31121 33036 41128 82001 10003 21008 39860 40094 58008 78582 883// 333 86702 555 1/000
AAXX 31121 33041 42560 71804 10027 20000 39938 40094 58011 875// 333 87626 555 11003
BBXX PCKU 31123 99077 31161 41597 79904 10272 20245 40099 52009 7//22 8/84/ 22253 04280 2//01 80252
BBXX DCQR2 31123 99173 31532 41598 61421 10268 20222 40092 54000 70311 82366 22284 04270 20505 3//// 4//// 5//// 80235
BBXX MGRH9 31124 99266 31532 41/97 81420 10235 20152 40156 52/// 70322 8//// 22200 00245 20804 314// 41004 5//// 80185
BBXX A8KX4 31124 99413 51402 41596 61727 10133 20104 40090 53010 70222 8583/ 22264 04149 20705 322// 41004 80118
BBXX ELXS8 31123 99050 31256 41/98 /0106 10285 20264 40103 51040 7//// 8//// 22243 02290 2//// 3//// 4//// 5//// 80270
BBXX PCCL 31123 99392 31507 41598 40110 10216 20145 40162 53007 70300 82840 22263 04196 20301 334// 40604 80171
AAXX 31124 78526 NIL
AAXX 31124 78543 NIL
BBXX 46089 31121 99459 71258 46/// /1004 10076 20038 40270 50000 91150 22200 00093 11209 20401 331// 41209 70044 333 91205 555 11037 22039 31121 41206 61149 104035 111032 118031 128028 130027 110028
BBXX 46053 31121 99342 71198 46/// /0601 10106 40158 54000 91150 22200 00136 11704 326// 41704 70019 333 91203 555 11011 22011 31147 40803 61149 050010 354013 340013 007003 096006 062005
BBXX 46042 31121 99368 71224 46/// /0206 10111 40215 50000 91150 22200 00123 11606 20502 331// 41606 70031 333 91207 555 11064 22067 31051 40112 61149 019061 019068 015080 011089 017094 013096
BBXX PHAM 31123 99495 70011 41496 82516 10127 20115 40155 55000 7//// 8/700 22200 20701 80120 90992
BBXX DEDI 31123 99445 70249 41297 62722 10150 20125 40250 53025 70322 82678 22224 00147 20604 325// 41006 80135
BBXX 46083 31121 99582 71380 46/// /2706 10002 21073 40113 51026 91150 22200 00062 11109 20502 300// 41108 70043 333 91208 555 11061 22065 31110 43010 61149 262057 252064 259059 279053 281053 246027 82507 91137
BBXX 46001 31121 99563 71480 46/// /2606 11014 40082 53007 91150 22200 00041 10906 20503 300// 40906 70032 333 91208 555 11062 22064 31119 42510 61149 260060 240067 251070 249074 250071 252077
BBXX 41041 31121 99142 70460 46/// /0811 10264 20208 40177 52019 91150 22200 00260 11206 20604 3//// 41204 70028 333 91213 555 11112 22120 31139 40813 61149 084104 082104 079097 078101 076092 083098 80911 91149
BBXX 41038 31121 99341 70777 46/// /2406 10151 40150 53003 91200 22200 00132 333 91207
BBXX 44008 31121 99405 70692 46/// /1508 10134 20121 40152 57018 91150 22200 00120 10802 20602 320// 40801 70011 333 91209 555 11086 22095 31145 41509 61149 151078 155062 155050 153056 145074 144072
BBXX 51000 31121 99235 71541 46/// /1204 10218 40167 58020 91150 22200 00228 11004 20401 303// 41004 70021 333 91205 555 11036 22038 31124 41105 61149 119034 113035 111035 103034 099034 093038
BBXX 51003 31121 99193 71606 46/// /0604 10237 40164 57003 91150 22200 00250 11003 20401 3//// 41003 70017 333 91205 555 11045 22047 31103 40706 61149 061043 066043 061045 067047 067047 077044
BBXX 3FPQ9 31123 99248 70893 41696 61308 10230 2017/ 40180 54000 70222 868// 22284 00240 20502 30707 40502 50502 6//// 80190 ICE /////
BBXX 3EUS 31123 99277 71155 41896 20225 10140 2//// 40140 56010 7//00 82/// 22274 00170 20204 333// 4//// 5//// 6//// 80010 ICE /////
BBXX WYP8657 31124 99455 70835 41/98 83610 10000 40108 70222 22273 00050 2//02
BBXX WCOB 31123 99285 70509 41598 30909 10220 20190 40307 51025 70211 81241 22223 0//// 20101 331// 41206 5//// 6//// 80200 ICE /////
BBXX NWS0029 31124 99415 70707 43/// /1610 10116 20087 40138 5//// 7//// 8//// 222// 04068 2//// 3//// 4//// 5//// 6//// 8//// ICE /////
BBXX ICRA 31124 99046 30554 419// 33007 10290 2024/ 40110 54040 7//// 83090 222// 00270 2//// 3//// 4//// 5//// 6//// 80250 ICE /////
BBXX NWS0003 31124 99539 71665 43/// /3200 11029 21113 40156 5//// 7//// 8//// 222// 0//// 2//// 3//// 4//// 5//// 6//// 8//// ICE /////
BBXX KAOU 31124 99000 10842 43/// /0290 10282 20236 40091 5//// 7//// 8//// 222// 04288 2//// 3//// 4//// 5//// 6//// 8//// ICE /////
BBXX NWS0021 31124 99322 70675 43/// /1608 10214 20198 40209 5//// 7//// 8//// 222// 04214 2//// 3//// 4//// 5//// 6//// 8//// ICE /////
BBXX NWS0020 31124 99262 70791 43/// /3108 10228 20148 40207 5//// 7//// 8//// 222// 04253 2//// 3//// 4//// 5//// 6//// 8//// ICE /////
BBXX PFRO 31124 99207 70692 41298 61121 10246 20224 40187 52007 70311 8471/ 22274 20303 311// 40404 80231
BBXX 3ETA8 31124 99247 70911 41/// /0913 10230 2015/ 40180 5//// 7//// 8//// 22214 00240 20303 3//// 4//// 5//// 6//// 80180 ICE /////
BBXX H3VR 31124 99242 70737 41798 41205 10260 20217 40190 52010 70200 83200 22274 04270 20201 309// 40701 5//// 6//// 80230 ICE /////
BBXX WKAE 31124 99250 70836 41398 11109 10230 20201 40210 52012 70200 811// 22284 00230 2//// 3//// 4//// 5//// 6//// 80210 ICE /////
BBXX WHKM 31124 99103 30839 41298 32509 10360 20282 40082 52009 7//00 822/1 22233 0//// 20201 32799 40804 50804 6//// 80300 ICE /////
BBXX VRZQ9 31124 99203 70203 41298 50823 10200 2013/ 40280 56/// 70211 85101 22253 00240 20606 305// 40606 5//// 6//// 80160 ICE /////
BBXX WDB9950 31123 99512 11636 41/// /3610 11010 21010 40210 54/// 701// 8//// 22264 00040 2//02 3//// 4//// 5//// 6//// 81010 ICE /////
AAXX 31124 78255 11458 20304 10206 20193 30056 40205 52010 60004 74000 81801 333 20202 81816
AAXX 31124 78317 NIL
AAXX 31124 78318 NIL
AAXX 31124 78325 NIL
AAXX 31124 78333 NIL
AAXX 31124 78338 NIL
AAXX 31124 78348 NIL
AAXX 31124 78349 NIL
AAXX 31124 78353 NIL
AAXX 31124 78360 NIL
AAXX 31124 78367 NIL
AAXX 31124 78369 NIL
AAXX 31124 91165 NIL
AAXX 31124 91182 NIL
AAXX 31124 91190 NIL
AAXX 31124 91212 NIL
AAXX 31124 91217 NIL
AAXX 31124 91285 NIL
AAXX 31124 91317 NIL
AAXX 31124 91334 32474 50411 10279 20240 30097 40100 50005 81171 333 10339 56199 59006 555 93112
AAXX 31124 91348 NIL
AAXX 31124 91356 NIL
AAXX 31124 91366 NIL
AAXX 31124 91369 NIL
AAXX 31124 91371 NIL
AAXX 31124 91376 11474 80712 10269 20243 30090 40093 58007 69951 70282 85878 333 10282 56229 58003 70300 555 93112
AAXX 31124 91408 32473 80910 10272 20233 30073 40111 52015 81278 333 10306 56999 58004 70066 555 93112
AAXX 31124 91413 32469 70710 10276 20219 30097 40122 52015 83171 333 10307 56199 58010 70005 555 93112
AAXX 31124 91425 NIL
AAXX 31124 91434 NIL
AAXX 31124 91765 NIL
AAXX 31124 91222 NIL
AAXX 31124 91245 NIL
AAXX 31124 91323 NIL
AAXX 31124 91339 NIL
AAXX 31124 91343 NIL
AAXX 31124 91353 NIL
AAXX 31124 91442 NIL
AAXX 31124 43533 11458 72705 10292 20239 30083 40086 60002 70500 81232 333 10308 58004 81818 86362
AAXX 31124 43555 12970 22907 10294 20215 30091 40094 60002 80001 333 10308 58003 82078
AAXX 31124 43577 12465 32707 10298 20236 30092 40094 60002 82201 333 10327 58004 82818
AAXX 31124 43588 12462 72910 10285 20242 30090 40092 69902 82238 333 10306 58001 82818 87277
AAXX 31124 43599 11459 73205 10270 20250 30090 40092 60062 72582 83962 333 10304 59002 82817 83918 86362
AAXX 31124 78397 111574 63607 10253 20217 30154 40170 60001 70511 85840 333 01990 10324 20241 58003 81816 84632 85358
AAXX 31121 06414 36/// /2505 10112 20093 30079 40111 58002 60001 333 91108 91205
AAXX 31121 06459 16/// /2506 10100 20100 39931 40122 50001 60021 333 91109 91206
AAXX 31121 06494 16/// /2704 10048 20046 39321 40118 50003 60041 333 91108 91205
AAXX 31124 43533 11458 72705 10292 20239 30083 40086 60002 70500 81232 333 10308 58004 81818 86362
AAXX 31124 43555 12970 22907 10294 20215 30091 40094 60002 80001 333 10308 58003 82078
AAXX 31124 43577 12465 32707 10298 20236 30092 40094 60002 82201 333 10327 58004 82818
AAXX 31124 43588 12462 72910 10285 20242 30090 40092 69902 82238 333 10306 58001 82818 87277
AAXX 31124 43599 11459 73205 10270 20250 30090 40092 60062 72582 83962 333 10304 59002 82817 83918 86362
AAXX 31124 04005 41488 71408 10024 21003 49607 57016 76161 83820 555 3/209
AAXX 31124 04018 41370 72412 10020 20009 49610 57020 71572 85370 555 3//17 81709 83920 85633
AAXX 31124 04030 41430 72009 10023 20015 49614 57024 72162 84872 555 3//12 82713 84824 86450
AAXX 31124 04048 41468 62429 10039 21001 49628 56017 72586 86900 555 3/532
AAXX 31124 04063 41682 82702 10028 21014 49630 57042 71522 8552/ 555 3//11
AAXX 31124 04077 NIL
AAXX 31124 04082 42983 71411 10050 20025 49630 57012 87672 555 3//11 81456 87456
AAXX 31124 04097 41570 81715 10038 20023 49667 57039 78082 883// 555 3/419
BBXX VRZQ9 31124 99203 70203 41298 50823 10200 2013/ 40280 56/// 70211 85101 22253 00240 20606 305// 40606 5//// 6//// 80160 ICE /////
BBXX DBLK 31121 99462 30046 41296 83010 10083 20083 49940 57008 75864 8572/ 22213 04072 20503 326// 40906
BBXX BATFR08 31124 99210 30551 44597 33110 10277 20234 40112 702// 831// 22253 00280 21502 330// 415// 5////
BBXX BATFR19 31124 99064 30055 46/// /1909 10257 20190 40147 58007 22282 00259
BBXX BATFR45 31124 99072 10564 46/// ///// 10277 20210 40122 56014 22254 00289
BBXX ICRA 31124 99046 30554 419// 33007 10290 2024/ 40110 54040 7//// 83090 222// 00270 2//// 3//// 4//// 5//// 6//// 80250 ICE /////
BBXX C6WK7 31124 99289 70135 41898 20716 10170 2//// 40360 54/// 7//11 821// 222// 04180 20101 3//// 4//// 5//// 6//// 8//// ICE /////
BBXX P3GY9 31124 99225 50396 41797 30909 10280 2025/ 40150 55005 76011 83163 22253 00280 20705 323// 41104 5//// 6//// 80260 ICE /////
BBXX WCX7445 31124 99576 50641 43/// /2630 10061 2//// 49885 5//// 7//// 8//// 22242 00052 2//// 3//// 4//// 5//// 6//// ICE /////
BBXX 32012 31121 99197 50856 46/// ///// 1//// 91150 22200 11203 70016
BBXX WDB9950 31123 99512 11636 41/// /3610 11010 21010 40210 54/// 701// 8//// 22264 00040 2//02 3//// 4//// 5//// 6//// 81010 ICE /////
BBXX C6SI6 31124 99426 11471 46/// /3520 10023 21015 40167 53008 7//// 8//// 22212 0//// 2////
BBXX DCLH2 31120 99295 11766 41/98 71309 10213 20198 40160 57002 70200 8//// 22264 06220 2//// 3//// 4//// 5//// 80203
BBXX 46070 31121 99551 11753 46/// /3313 11037 21071 40101 54000 91150 22200 00031 10805 20804 3//// 41003 70026 333 91215 555 11136 22143 31135 43216 61149 327126 323129 302094 309099 306105 299101 83314 91147
BBXX WHIA 31123 99254 11209 41/// 80324 10170 2012/ 40241 52010 7//// 88/// 22213 0//// 2//// 3//// 4//// 5//// 6//// 80140 ICE /////
BBXX UFTA 31121 99844 71213 41/93 92412 11271 21301 40033 58005 73933 333 11271 92382
BBXX DANM 31124 99378 70744 41598 72421 10141 20094 40113 56008 70222 8487/ 22244 00110 20602 317// 40704 80115
BBXX WKAP 31124 99451 70567 41398 22713 10030 2105/ 40310 52020 70111 8213/ 22254 00040 20501 3//// 4//// 5//// 6//// 80000 ICE /////
BBXX WKAE 31124 99250 70836 41398 11109 10230 20201 40210 52012 70200 811// 22284 00230 2//// 3//// 4//// 5//// 6//// 80210 ICE /////
BBXX 44011 31121 99411 70666 46/// /1405 10112 20102 40191 57013 91150 22200 00093 10602 20501 3//// 40602 70011 333 91206 555 11061 22070 31149 43206 61149 136054 135052 137047 134045 132046 132043
BBXX 42362 31121 99278 70907 46/// /1904 10228 20183 40207 52004 91200
BBXX 41046 31121 99238 70683 46/// /1407 10254 20212 40219 53013 91150 22200 00252 10804 20502 300// 40803 70018 333 91208 555 11070 22075 31116 41309 61149 139065 137068 137064 136070 136067 138069 81408 91112
BBXX 42363 31121 99282 70892 46/// /2404 10211 20133 40214 52011 91200 333 91204
BBXX 42364 31121 99291 70881 46/// /2702 10200 20172 40210 52010 91200
BBXX 46239 31121 99363 71221 46/// ///// 1//// 91151 22200 00120 11706 21004 329// 41705 70032
BBXX 41113 31121 99284 70805 46/// ///// 1//// 91151 22200 00211 11301 21001 70005
BBXX 41110 31121 99341 70777 46/// ///// 1//// 91151 22200 00132 10602 20602 70009
BBXX 41112 31121 99307 70813 46/// ///// 1//// 91151 22200 00163 11301 20401 70005
BBXX 44099 31121 99369 70757 46/// ///// 1//// 91152 22200 00100 10601 20601 70007
BBXX 46224 31121 99332 71175 46/// ///// 1//// 91136 22200 00146 11802 21001 327// 41801 70009
BBXX 46215 31121 99352 71209 46/// ///// 1//// 91138 22200 00126 11704 21002 325// 41703 70020
BBXX 46211 31121 99469 71242 46/// ///// 1//// 91136 22200 00082 11209 20905 328// 41207 70043
BBXX 46219 31121 99332 71199 46/// ///// 1//// 91158 22200 00132 11706 20804 329// 41704 70028
BBXX 46225 31121 99329 71174 46/// ///// 1//// 91144 22200 00148 11802 21001 327// 41802 70011
BBXX 46214 31121 99379 71235 46/// ///// 1//// 91150 22200 00121 11306 21004 329// 41304 70029
BBXX 46236 31121 99368 71219 46/// ///// 1//// 91150 22200 00121 11304 21003 328// 41303 70022
BBXX 46229 31121 99438 71246 46/// ///// 1//// 91151 22200 00099 11208 21005 329// 41206 70040
BBXX 46240 31121 99366 71219 46/// ///// 1//// 91142 22200 00121 11203 21001 335// 41202 70014
BBXX 46232 31121 99325 71174 46/// ///// 1//// 91138 22200 00146 11804 20902 328// 41803 70018
BBXX 46213 31121 99403 71247 46/// ///// 1//// 91154 22200 00109 11207 21004 329// 41206 70036
BBXX 44097 31121 99410 70711 46/// ///// 1//// 91202 22200 00109 10702 20702 70012
BBXX 44172 31121 99445 70634 46/// ///// 1//// 91201 22200 00053 10903 20902 317// 41101 70013
BBXX FVNM 31124 99115 70809 46/// /0519 10274 20234 40130 53014 22281 00274
BBXX 46061 31121 99602 71468 46/// /2106 11057 40047 51028 91150 22200 00052 10903 20502 300// 40902 70013 333 91210 555 11064 22066 31053 42410 61149 213063 214051 220060 227063 232057 235075
BBXX 51101 31121 99243 71621 46/// /0101 10226 20153 40183 58011 91150 22200 00237 11004 20401 303// 41004 70019 333 91202 555 11011 22012 31125 43603 61149 009012 000013 009016 030016 008013 017012
BBXX 41009 31121 99285 70802 46/// /2607 10211 20160 40210 53009 91150 22200 00226 10301 20301 300// 41001 70006 333 91208 555 11075 22079
BBXX 42057 31121 99168 70815 46/// /0609 10271 20219 40160 53010 91150 22200 00274 10603 20603 3//// 40801 70014 333 91211 555 11089 22094 31111 40711 61149 065088 068093 071089 072089 069090 071090 80710 91133
BBXX 41010 31121 99289 70785 46/// /2406 10226 40200 52003 91150 22200 00236 333 91207 555 11062 22065
BBXX 41101 31124 99146 70562 46/// /0722 10265 20216 40168 52024 22200 00269 10806 70030 555 1/028
BBXX CGDX 31124 99468 70712 46/// /0514 11059 21080 40172 56021 7//// 8//// 22200 0//// 2////
BBXX VOKF 31124 99490 70669 46/// /1003 11087 21122 40237 56010 7//// 8//// 22200 0//// 2////
BBXX CGTF 31124 99476 70527 46/// /1903 11007 21077 40279 51028 7//// 8//// 22200 0//// 2////
BBXX 9HXC9 31124 99257 70801 41598 23204 10184 20114 40200 52020 7//00 82700 22200 00235 2//// 3//// 4//// 5//// 6//// 80143 ICE /////
BBXX 3ETA8 31124 99247 70911 41/// /0913 10230 2015/ 40180 5//// 7//// 8//// 22214 00240 20303 3//// 4//// 5//// 6//// 80180 ICE /////
BBXX H3VR 31124 99242 70737 41798 41205 10260 20217 40190 52010 70200 83200 22274 04270 20201 309// 40701 5//// 6//// 80230 ICE /////
BBXX DFKP2 31124 99301 71699 41598 63521 10190 20142 40210 57010 75851 86500 22224 00220 20303 331// 40603 80160
BBXX CGHL 31124 99476 70527 46/// /3402 11005 21076 40279 51029 7//// 8//// 22200 0//// 2////
BBXX VCSZ 31124 99478 70699 46/// /0115 11079 21080 40196 58003 7//// 8//// 22213 0//// 2////
BBXX VCWL 31124 99468 70712 46/// /0519 11062 21082 40162 56023 7//// 8//// 22200 0//// 2////
BBXX CGDG 31124 99447 70636 46/// /1002 10019 20049 40258 58006 7//// 8//// 22200 0//// 2////
BBXX CGBY 31124 99487 71235 46/// /2908 10044 21027 40270 51039 7//// 8//// 22200 0//// 2////
BBXX VXKF 31124 99463 70602 46/// /2010 11043 21064 40282 53027 7//// 8//// 22253 0//// 2////
BBXX VOLG 31124 99446 70635 46/// /1108 10018 21016 40256 58007 7//// 8//// 22200 0//// 2////
BBXX 3FZK3 31124 99489 71237 46/// /1401 10016 21024 40264 51040 7//// 8//// 22200 0//// 2////
BBXX CGDR 31124 99487 71233 46/// /2209 10050 20013 40267 51041 7//// 8//// 22251 00106 2////
BBXX VOPP 31124 99456 70735 46/// /0308 11054 21054 4//// 5//// 7//// 8//// 22200 0//// 2////
BBXX CG2958 31124 99519 71279 46/// /0406 10011 21002 40253 53028 7//// 8//// 22241 0//// 2////
BBXX CGBN 31124 99447 70636 46/// /1404 10023 21014 40258 58006 7//// 8//// 22200 0//// 2////
BBXX CGUM 31124 99462 70597 46/// /2205 11029 21055 40295 53014 7//// 8//// 22212 0//// 2////
BBXX VOFG 31124 99456 70614 46/// /1203 11047 21063 40293 51012 7//// 8//// 22200 0//// 2////
BBXX CGBR 31124 99522 71286 46/// /0810 10015 20013 40241 53023 7//// 8//// 22262 00067 2////
BBXX VRYO3 31124 99456 70735 46/// /0210 11054 21065 40111 56018 7//// 8//// 22200 0//// 2////
BBXX CGSB 31124 99483 70709 46/// /0712 11086 21108 40191 56016 7//// 8//// 22200 0//// 2////
BBXX VCLM 31124 99468 70712 46/// /0513 11054 21073 40163 56021 7//// 8//// 22200 0//// 2////
BBXX VOKJ 31124 99455 70735 46/// /0212 11058 21066 40115 56015 7//// 8//// 22200 0//// 2////
BBXX CZ9742 31124 99506 70969 46/// /1815 11038 21039 4//// 5//// 7//// 8//// 22200 0//// 2////
BBXX VCBW 31124 99456 70735 46/// /0416 11025 21044 40116 56026 7//// 8//// 22200 0//// 2////
BBXX CGJV 31124 99462 70631 46/// /1208 11033 21063 40271 55000 7//// 8//// 22200 0//// 2////
BBXX CGDT 31124 99468 70712 46/// /0517 11057 21076 40170 56022 7//// 8//// 22200 0//// 2////
BBXX VAAP 31124 99455 70602 46/// /0902 11011 21052 40289 51017 7//// 8//// 22213 0//// 2////
BBXX VCRG 31124 99474 70619 46/// /1806 11024 21060 40282 51005 7//// 8//// 22200 0//// 2////
BBXX 46041 31121 99474 71247 46/// /2902 10068 40275 53023 91150 22200 00084 11309 20401 3//// 41309 70043 333 91204 555 11017 22018 31100 42705 61149 287017 297019 291021 300022 297029 302027
BBXX 46026 31121 99378 71228 46/// /1104 10100 40228 57004 91150 22200 00113 11605 20401 326// 41605 70025 333 91205 555 11041 22042 31054 42706 61149 111039 266035 260034 258036 260043 266048
BBXX 44007 31121 99435 70701 46/// /3507 10006 20006 40154 56021 91150 22200 00077 10602 20502 3//// 40601 70010 333 91209 555 11076 22079 31122 43510 61149 351074 351080 002086 347082 002079 011071
BBXX 46082 31121 99597 71434 46/// ///// 11024 40069 51025 91150 22200 00061 11106 70029
BBXX 46035 31121 99571 71778 46/// /2509 1//// 40048 58009 91150 22200 10704 20703 300// 41101 70018 333 91210 555 11092 22098 31144 42610 61149 255091 245073 226066 208036 207027 219024 82610 91150
BBXX 46077 31121 99579 71543 46/// /2606 11124 21169 40059 51013 91150 22200 00031 10603 20502 3//// 40602 70013 333 91209 555 11060 22062 31143 42509 61149 258056 254055 249048 260052 255060 247051 82507 91104
BBXX 41040 31121 99145 70530 46/// /0711 10265 20215 40177 53020 91150 22200 00269 10906 20605 3//// 40903 70032 333 91214 555 11114 22122 31121 40715 61149 071106 063095 068115 068112 070109 068106 80713 91121
BBXX 42039 31121 99288 70860 46/// /2805 10220 40200 53009 91150 22200 00227 10501 20401 300// 40501 70007 333 91206 555 11050 22053 31107 42706 61149 279048 281050 268048 275050 272049 274049 82706 91107
BBXX 46072 31121 99517 71722 46/// /2208 10000 21066 40176 58009 91150 22200 00042 10802 20301 3//// 40802 70011 333 91210 555 11081 22085 31122 42310 61149 219077 227077 228081 228070 220069 222064 82109 91149
BBXX PHQX 31123 99183 70589 41497 20908 10259 20212 40208 52010 70200 82201 22254 20403 3//// 4//04 5//// 80226
BBXX BATFR13 31124 99300 70450 44498 61114 10219 20172 40332 51009 70311 863// 22254 00230 329// 41204 5////
BBXX WDE9193 31123 99226 70875 41698 40909 10247 2022/ 40170 53006 70000 82899 22273 00240 20204 30709 40610 50408 6//// 80230 ICE /////
BBXX PFRO 31124 99207 70692 41298 61121 10246 20224 40187 52007 70311 8471/ 22274 20303 311// 40404 80231
BBXX WJBJ 31123 99185 70665 41398 60916 10250 2022/ 40192 54000 78062 84631 22264 00277 20402 309// 40704 5//// 6//// 80230 ICE /////
BBXX ZCDG8 31123 99152 70613 41698 40104 10275 20216 40183 53010 70211 83340 22200 00280 2//// 300// 40000 5//// 80235
BBXX 9VVN 31124 99540 71398 41897 61512 10070 2003/ 40160 51010 70211 863// 22264 04060 2//// 3//// 4//// 5//// 6//// 80050
BBXX WABS 31124 99471 71262 41598 31208 10072 2000/ 40265 50005 7//00 8383/ 22283 0//// 2//// 3//// 4//// 5//// 6//// 80044 ICE /////
BBXX HZRX 31123 99243 70874 41497 41015 /// 10240 20240 40192 55004 70311 84110 22223 10150 20101 31010 40200 5//// 6//// 80230 ///// /////
BBXX VOXS 31124 99467 70480 41698 83022 10010 2102/ 40277 51040 70222 885/ 22200 04016 20605 324// 40908 80000
BBXX VCXF 31124 99464 70484 41698 63122 10012 2101/ 40259 52034 71622 86400 22200 02020 20404 32532 40908 50903 80001
BBXX BAREU04 31124 99381 70734 46/// ///// 40133 57009 22213
BBXX 46025 31121 99337 71191 46/// /0401 10105 20103 40154 56004 91150 22200 00146 11703 329// 41703 70015 333 91202 555 11007 22007 31114 42603 61149 036007 238004 288007 288010 325006 000005
BBXX 46087 31121 99485 71247 46/// /0702 10057 20014 40270 52032 91150 22200 00080 11106 20301 327// 41106 70031 333 91204 555 11021 22021 31055 40506 61149 071021 060022 043024 045030 051035 044037
BBXX 46029 31121 99461 71245 46/// /1902 10077 20018 40281 51015 91150 22200 00083 11309 20401 329// 41309 70045 333 91204 555 11024 22025 31058 41904 61149 190022 188024 198029 196022 197023 194029
BBXX 46028 31121 99357 71219 46/// /3111 10124 40187 58005 91150 22200 00129 11206 20804 330// 41205 70031 333 91213 555 11114 22122 31120 43114 61149 313106 313104 313108 315111 320106 325105
BBXX 46054 31121 99342 71204 46/// /3306 10147 40159 54000 91150 22200 00130 11705 20602 300// 41704 70025 333 91207 555 11069 22077 31051 43311 61149 332061 330068 335076 332074 332083 332090
BBXX 46069 31121 99337 71202 46/// /3406 10140 40157 57003 91150 22200 00132 333 91208 555 11068 22075 31117 43411 61149 337064 337074 332087 332090 330087 328089
BBXX 46027 31121 99419 71244 46/// /0803 10065 40264 58013 91150 22200 00091 11206 20401 329// 41206 70032 333 91204 555 11029 22030 31051 41007 61149 078028 089030 083036 093041 103047 103048
BBXX 46086 31121 99325 71180 46/// /3003 10114 40154 56007 91150 22200 00149 11704 20301 328// 41704 70022 333 91204 555 11029 22029 31125 42905 61149 297027 269029 284027 273025 240027 241027
BBXX 46047 31121 99324 71195 46/// /3207 10140 40156 56010 91150 22200 00139 11606 20602 329// 41606 70031 333 91209 555 11072 22077 31143 43209 61149 321067 323061 326062 330056 331060 331061
BBXX 46050 31121 99442 71246 46/// /1404 10072 40278 50000 91150 22200 00094 11109 20401 329// 41109 70044 333 91207 555 11046 22047 31104 41309 61149 141045 138050 135048 132052 135052 133055
BBXX 46013 31121 99382 71233 46/// /1002 10100 40230 57004 91150 22200 00112 11205 20401 3//// 41205 70027 333 91204 555 11025 22025 31050 43407 61149 095024 065024 007037 357045 356048 353053
BBXX 46012 31121 99374 71229 46/// /3607 10106 40224 57006 91150 22200 00121 11605 20603 329// 41605 70027 333 91208 555 11073 22076 31059 43511 61149 001069 355068 001073 358079 352083 353084
BBXX 46014 31121 99394 71240 46/// /0305 10087 40243 58011 91150 22200 00110 11307 20501 3//// 41307 70035 333 91206 555 11056 22059 31125 40307 61149 027054 023056 020057 018055 016054 017053
BBXX 46011 31121 99350 71210 46/// /3507 10130 40190 50004 91150 22200 00131 11605 20602 328// 41605 70027 333 91209 555 11076 22080 31057 43609 61149 350073 351073 356059 006055 001072 359080
BBXX 46088 31121 99483 71232 46/// /2509 10058 40267 91150 22200 00076 10502 20502 70012 333 91211 555 11092 22097 31050 42513 61149 248088 248083 256087 255093 256101 255104
BBXX 41012 31121 99300 70805 46/// /2607 10194 40204 53013 91150 22200 00224 10402 20402 302// 41301 70008 333 91209 555 11075 22078 31053 42609 61149 263071 263073 264075 267080 268078 264079
BBXX 46080 31121 99580 71500 46/// /2807 11083 21146 40066 53016 91150 22200 00046 10905 20503 3//// 40904 70026 333 91210 555 11069 22071 31142 42810 61149 283067 276062 275066 276062 277063 279064 82708 91130
BBXX 46084 31121 99566 71361 46/// ///// 10005 21011 40140 53019 91150 22200 00068 11108 70038
BBXX 46059 31121 99380 71300 46/// /1407 10125 40242 58014 91150 22200 00139 11407 20302 3//// 41406 70033 333 91209 555 11074 22078 31131 41510 61149 144071 148073 157070 156071 159073 148075
BBXX 41060 31121 99148 70510 46/// ///// 1//// 91150 22200 10907 70033
BBXX 46005 31121 99461 71310 46/// ///09 10082 40192 58022 91150 22200 00096 11107 20502 3//// 41107 70037 333 91211 555 11092 22097
BBXX 46075 31121 99539 71608 46/// /3408 11042 21114 40129 51009 91150 22200 00042 10503 20503 300// 41101 70015 333 91212 555 11088 22092 31104 43512 61149 342084 341077 343081 352083 344086 341082 83510 91105
BBXX 41047 31121 99275 70715 46/// /1903 10234 40227 53012 91150 22200 00252 10902 20401 308// 40902 70011 333 91204 555 11032 22033 31051 41705 61149 186032 177029 169034 155036 151040 159039 81504 91106
BBXX 42003 31121 99260 70856 46/// /0000 1//// 91150 22200 10501 20401 309// 40501 70004 333 91201 555 11001 22001 31058 41001 61149 180001 047003 074004 091001 108003 121004 81001 91058
BBXX 42055 31121 99222 70940 46/// /1007 10248 20212 40168 52004 91150 22200 00250 10502 20502 70009 333 91208 555 11069 22073 31110 41008 61149 099064 099064 094063 098066 097066 100067 81007 91052
BBXX 41036 31121 99342 70770 46/// ///// 10176 20129 40147 56004 91150 22200 00173 10603 70016
BBXX 42002 31121 99258 70937 46/// /1506 10236 20217 40189 53008 91150 22200 00244 10601 20601 312// 40801 70007 333 91207 555 11063 22067 31124 41508 61149 153063 155059 157062 152060 153056 152058
BBXX 41043 31121 99211 70650 46/// /0910 10254 20215 40218 53014 91150 22200 00257 10805 20604 300// 40802 70023 333 91211 555 11102 22108 31134 41011 61149 094095 094092 090092 091092 088094 089089 80910 91104
BBXX 44066 31121 99396 70726 46/// /2004 10132 20102 40131 58008 91150 22200 00123 10603 20401 3//// 40602 70013 333 91206 555 11049 22055 31105 42108 61149 195044 202048 199052 199055 201059 197055
BBXX 44020 31121 99414 70702 46/// /1605 10091 20085 40141 56011 91150 22200 00064 10301 20301 70004 333 91205 555 11051 22054 31109 42608 61149 174048 250054 251056 259064 262068 259062
BBXX 44065 31121 99404 70737 46/// /1906 10106 20082 40116 57003 91150 22200 00103 10602 20602 315// 40701 70010 333 91207 555 11064 22070 31135 41908 61149 193061 194063 195063 192066 191064 189065 81907 91059
BBXX 44027 31121 99443 70673 46/// /1311 10073 20046 40186 56013 91150 22200 00078 10603 20603 3//// 41001 70017 333 91213 555 11113 22120 31142 41313 61149 127106 130103 130104 132101 131100 133101
BBXX 41013 31121 99334 70777 46/// /2411 10187 20150 40157 53003 91150 22200 00183 10705 20705 70024 333 91213 555 11116 22124 31057 42416 61149 241107 242117 241114 240121 244127 244122
BBXX 44014 31121 99366 70748 46/// /0807 1//// 40138 55010 91150 22200 00135 10602 20502 314// 40601 70010 333 91208 555 11070 22070 31112 40909 61149 079071 075067 073068 080075 082067 082068
BBXX 44009 31121 99385 70747 46/// /2110 10111 40131 56006 91150 22200 00102 10603 20603 70014 333 91212 555 11106 22114 31143 42012 61149 206097 203082 200076 199072 195068 194064
BBXX 41004 31121 99325 70791 46/// /2410 10189 20142 40176 53006 91150 22200 00199 333 91212 555 11103 22109 31052 42413 61149 240098 240096 243106 241103 239102 241107
BBXX 41008 31121 99314 70809 46/// /2407 10159 20147 40194 53011 91150 22200 00159 333 91209 555 11076 22081 31134 42409 61149 239071 234074 234071 233069 236077 238074
BBXX 44025 31121 99402 70732 46/// /1906 10115 20088 40117 56008 91150 22200 00099 10602 20602 317// 40601 70011 333 91207 555 11064 22073 31059 42008 61149 189058 185054 178054 186054 196059 197061
BBXX 42040 31121 99292 70882 46/// /2706 10196 40202 52011 91150 22200 00219 10601 20401 320// 40601 70006 333 91207 555 11057 22059 31051 42707 61149 267058 267061 267059 264058 270057 269059
BBXX 44005 31121 99432 70691 46/// /1308 10088 20088 40150 56019 91150 22200 00081 10603 20603 3//// 40801 70014 333 91209 555 11087 22095 31119 41311 61149 133081 133082 131087 130087 134084 133083
BBXX 42019 31121 99279 70954 46/// /2005 10227 20211 40170 52005 91150 22200 10501 20401 317// 40501 70005 333 91205 555 11048 22051 31130 42805 61149 215044 284044 284042 284043 283044 282044
BBXX 42059 31121 99151 70675 46/// /1009 10274 20218 40168 53022 91150 22200 00277 10805 20804 3//// 41002 70025 333 91210 555 11093 22099 31118 40912 61149 094086 096093 092093 090097 093090 091096 80911 91117
BBXX LAIG7 31124 99272 71316 41498 80716 10180 2013/ 40230 54000 70222 8822/ 22223 00200 20503 329// 41005 5//// 6//// 80150 ICE /////
BBXX 42056 31121 99198 70849 46/// /0807 10260 20232 40175 53009 91150 22200 00270 10502 20502 312// 40801 70010 333 91208 555 11074 22078 31129 40809 61149 076069 072069 069068 070067 070065 074066 80708 91137
BBXX 42036 31121 99285 70845 46/// /2603 10215 20156 40204 53011 91150 22200 00211 10601 20401 317// 40601 70005 333 91203 555 11031 22035 31107 42704 61149 263028 269028 268027 271028 270028 273028
BBXX 42060 31121 99163 70635 46/// /0710 10269 20206 40184 53018 91150 22200 00271 10605 20605 70026 333 91212 555 11108 22115 31114 40714 61149 071099 072096 073105 075114 071112 076107 80812 91115
BBXX 42058 31121 99149 70749 46/// /0809 10260 20226 40141 53018 91150 22200 00271 10805 20804 301// 41302 70023 333 91210 555 11090 22095 31121 40713 61149 083085 079086 079098 089079 083096 084088 80812 91122
BBXX 42012 31121 99301 70876 46/// /2705 10183 20171 40198 51015 91150 22200 00189 10501 20401 319// 40501 70006 333 91205 555 11047 22049 31138 42606 61149 269046 265046 262045 259045 261045 259044
BBXX 42035 31121 99292 70944 46/// /1503 10162 20162 40174 55000 91150 22200 00143 10601 320// 40601 70005 333 91204 555 11040 22047 31102 41505 61149 151034 152032 155037 153039 155040 154040
BBXX 42001 31121 99259 70897 46/// /3501 10226 20177 40208 53010 91150 22200 00237 10501 3//// 40501 70004 333 91201 555 11009 22009 31139 43402 61149 346010 352012 347011 334005 311004 342002
BBXX 42065 31121 99149 70750 46/// /0608 10265 20223 91150 22200 10803 20603 3//// 40801 70015 333 91211 555 11089 22095 31134 40611 61149 062082 062088 061084 059088 060073 059076 80710 91123
BBXX 41048 31121 99320 70696 46/// /1907 10217 20178 40215 53005 91150 22200 00220 10602 20602 3//// 40901 70011 333 91207 555 11067 22071 31112 41908 61149 193067 183059 186062 187066 184063 181064 81907 91149
BBXX 42020 31121 99270 70967 46/// /2603 10188 20188 40175 53009 91150 22200 00196 10501 20301 316// 40501 70005 333 91204 555 11031 22032 31128 42505 61149 264030 265031 239034 249026 197025 196019
BBXX 41044 31121 99217 70587 46/// /0909 10249 20194 40231 53014 91150 22200 00261 10906 20605 300// 40903 70028 333 91213 555 11099 22105 31125 40814 61149 095096 086097 084118 098110 097107 098096 81113 91150
BBXX 41049 31121 99275 70630 46/// /1306 10235 20192 40256 53011 91150 22200 00231 11004 20502 300// 41003 70018 333 91208 555 11067 22072 31149 41408 61149 133062 132056 135057 136056 135050 135053 81307 91149
BBXX 41001 31121 99347 70727 46/// ///// 10210 20122 40170 56010 91150 22200 00219 10605 70024
BBXX 46006 31121 99408 71375 46/// /1909 10140 40095 56016 91150 22200 00121 10808 20807 3//// 41304 70041 333 91211 555 11096 22106 31120 41913 61149 195088 192094 187105 186100 185087 181100
BBXX 46002 31121 99426 71305 46/// ///// 10110 40210 56028 91150 22200 00119 11107 70035
BBXX NWS0022 31124 99416 70714 43/// /3608 10033 20023 40136 5//// 7//// 8//// 222// 04095 2//// 3//// 4//// 5//// 6//// 8//// ICE /////
BBXX WDC6698 31124 99213 71579 43/// /2401 1//// 2//// 40150 5//// 7//// 8//// 222// 04238 2//// 3//// 4//// 5//// 6//// 8//// ICE /////
BBXX DQVK 31123 99145 70625 41598 20825 10270 20206 40172 52022 70300 81261 22274 00280 20705 3//// 4//// 5//// 80225
BBXX 3FPQ9 31123 99248 70893 41696 61308 10230 2017/ 40180 54000 70222 868// 22284 00240 20502 30707 40502 50502 6//// 80190 ICE /////
BBXX WCOB 31123 99285 70509 41598 30909 10220 20190 40307 51025 70211 81241 22223 0//// 20101 331// 41206 5//// 6//// 80200 ICE /////
BBXX 3EUS 31123 99277 71155 41896 20225 10140 2//// 40140 56010 7//00 82/// 22274 00170 20204 333// 4//// 5//// 6//// 80010 ICE /////
BBXX CG2960 31124 99429 70824 46/// /3110 10036 20035 40082 51038 7//// 8//// 22200 0//// 2////
BBXX CG2350 31124 99433 70798 46/// /0403 10032 20030 40068 51012 7//// 8//// 22200 0//// 2////
BBXX CGDS 31124 99429 70792 46/// /2809 10061 20054 40077 52016 7//// 8//// 22200 0//// 2////
BBXX WDF7994 31124 99446 70828 41/98 80216 10016 2//// 40091 51000 70222 8//// 22233 00050 20304 3//// 4//// 5//// 6//// 8//// ICE /////
BBXX WDE3569 31124 99442 70865 43/// 80111 10011 2//// 40088 5//// 7//// 8//// 22283 00056 20301 3//// 4//// 5//// 6//// 8//// ICE /////
BBXX WYP8657 31124 99455 70835 41/98 83610 10000 40108 70222 22273 00050 2//02
BBXX WHKM 31124 99103 30839 41298 32509 10360 20282 40082 52009 7//00 822/1 22233 0//// 20201 32799 40804 50804 6//// 80300 ICE /////
BBXX ZCBU2 31123 99364 31757 41598 83632 10195 20187 40037 57000 70200 87875 22224 00190 20401 310// 40403 5//// 80190
BBXX BATFR53 31124 99180 51327 46/// /1010 10247 20202 40142 56010 22222 00262
BBXX ONDY 31124 99109 30790 41598 83224 10295 2026/ 40075 54000 70321 88810 22213 00297 2//// 3//// 4//// 5//// 6//// 80265 ICE /////
BBXX 9VVP 31124 99175 71028 41598 02103 10260 20232 40130 52010 70000 80001 22224 00250 2//// 33317 41003 51101 6//// 80240 ICE /////
BBXX TFGRV 31124 99638 70225 46/// ///// 22200 10909 70043
BBXX TFBKF 31124 99635 70202 46/// ///// 22200 10705 70026
BBXX TFSRT 31124 99633 70203 46/// ///// 22200 10808 70041
BBXX TFGRS 31124 99663 70182 46/// ///// 22200 10804 70020
BBXX TFHFN 31124 99642 70152 46/// ///// 22200 10806 70032
BBXX TFDRN 31124 99658 70212 46/// ///// 22200 10803 70015
BBXX TFKGR 31124 99657 70136 46/// ///// 22200 10907 70033
BBXX TFGSK 31124 99641 70229 46/// ///// 22200 10808 70038
BBXX TFSTD 31124 99664 70234 46/// ///// 22200 10807 70037
BBXX WDD3826 31124 99398 70291 41398 62324 10190 2018/ 40330 52010 70122 86/91 22254 00150 20303 323// 40801 5//// 6//// 80180 ICE /////
BBXX DBBH 31121 99382 10156 41598 33513 10134 20026 40148 53005 70198 832// 22281 04159 20402 399// 40501
BBXX 62087 31121 99547 10068 46/// /3302 10051 20044 4//// 5//// 22230 00081
BBXX DBBA 31121 99541 10121 46/// /1603 11002 21004 40114 57005 22220 00056
BBXX DBBI 31121 99535 10100 46/// /9901 10046 20036 40103 57010 22270 00053
BBXX DBND 31121 99536 10086 46/// /1504 10035 20024 40086 57017 22260 00064
BBXX DBKR 31121 99541 10121 46/// /1904 11004 21004 40115 57003 22200 00055
BBXX DBBC 31121 99535 10100 46/// /1702 10044 20017 40105 57011 22230 00055
BBXX WAHV 31123 99363 10171 41499 33530 10138 2011/ 40113 52032 78181 83903 22274 00173 20805 80120
BBXX 3EPD8 31124 99326 70138 41298 30312 10175 20167 40348 7//00 82105 22284 04187 21002 329// 41402 80170
BBXX MCUV3 31123 99444 70145 41297 82729 10140 20122 40277 57004 70222 887// 22253 04123 20307 328// 40206 5//// 80130
BBXX DK7210 31121 99540 10066 46/// /1710 10047 20047 30040
BBXX SHIP 31124 99367 10239 41598 62812 10170 2012/ 40060 54000 70161 8623/ 22273 00170 21002 323// 41002 5//// 6//// 80140 ICE /////
BBXX WBP3210 31124 99636 50957 43/// /3405 10018 2//// 49753 5//// 7//// 8//// 22252 00024 2//// 3//// 4//// 5//// 6//// ICE /////
AAXX 31124 85032 32565 63605 10250 20236 39955 40116 52022 83534 333 20220 30/// 55033 56886 58005 83620 84358 86070
AAXX 31124 85043 32565 70000 10252 20235 39944 40105 52024 84530 333 20230 30/// 55040 56880 58002 84620 86358
AAXX 31124 85104 12365 33206 10250 20236 39940 40100 52012 60184 81530 333 20229 31/// 55072 56770 59008 70177 81608 83358
AAXX 31124 85109 32865 53208 10250 20236 39940 40100 52017 85030 333 20232 30/// 56070 59007 85358
AAXX 31124 85114 12865 60000 10250 20236 39943 40106 52012 60144 86030 333 20226 32/// 55033 56070 59007 70143 86358
AAXX 31124 85116 12565 73604 10252 20229 39939 40121 52015 60054 82530 333 20229 31/// 55052 56880 58001 70053 82620 87358
AAXX 31124 85123 12465 73207 10258 20238 39934 40099 52011 69994 81234 333 20243 31/// 55010 56776 59006 70009 81817 84358 86070
AAXX 31124 85139 12465 83608 10248 20234 39880 40073 52021 60044 82537 333 20241 31/// 55080 56877 58005 70035 82612 85358 88270
AAXX 31124 85153 32465 83205 10250 20233 39910 40094 51010 84507 333 20240 30/// 56706 59001 84615 88270
AAXX 31124 85154 12470 73305 10253 20235 39929 40107 52021 60034 81542 333 20228 31023 55015 56776 59003 70032 81617 85358 86070
BBXX PDNN 31123 99498 70031 41298 82830 10128 20112 40159 52005 70322 886// 22252 20303 327// 40605 80119 90992
BBXX DDYZ2 31124 99374 10069 41698 32927 10155 20130 40260 51010 7//22 82414 22224 00170 20506 322// 40406 80140
AAXX 31124 91925 06/// /3104 10238 20207 30050 40111 56015 60001 333 10303 58001 60007 90710 91107 555 60005 13107
AAXX 31124 91929 04357 82308 10240 20226 30110 40113 57012 60111 761// 333 60107 90710 91110 555 60025
AAXX 31124 91938 01560 70709 10266 20222 30114 40116 57019 60041 71561 878// 333 60007 83820 86650 90710 91118 555 60005 10821
AAXX 31124 91943 36/// /0710 10259 20211 30116 40118 56017 333 59002
AAXX 31124 91944 06/// /0808 10259 20209 30130 40133 56016 60001 333 60007 90710 91113 555 60005
AAXX 31124 91948 06/// /1207 10239 20202 30063 40165 56015 60011 333 10284 59010 60007 90710 91112 555 60005 11215
AAXX 31124 91954 06/// /3312 10242 20235 30121 40124 56012 60181 333 10264 58014 60127
AAXX 31124 91958 06/// /3209 10256 20229 30135 40137 57014 69921 333 10271 58010 60007 90710 91126 555 60005 13126
AAXX 31124 91945 NIL
BBXX UCAB 31121 99611 10042 41/97 91714 10050 49970 54000 70022 8//// 22213 00090 20907
AAXX 31124 86011 01670 73606 10258 20245 39935 40094 57014 60014 70262 85570 333 20238 5//// 69967 70012 85635 87457
AAXX 31124 86033 01207 80209 10242 20239 30007 40102 52015 60594 79592 889//
AAXX 31124 86065 NIL
AAXX 31124 86068 NIL
AAXX 31124 86086 01370 73603 10230 20199 39999 40089 52007 61054 70299 83576 333 20214 5//// 60757 71052 83610 84457 86270
AAXX 31124 86097 01570 73610 10228 20217 39464 40105 51013 60034 70262 81870 333 20220 57274 60017 70027 81827 87357
AAXX 31124 86128 NIL
AAXX 31124 86134 01430 81908 10240 20238 30011 40098 53019 60644 79596 8192/ 333 20238 50564 60207 70636 88515 81940
AAXX 31124 86170 02970 42402 10282 20235 39970 40074 52013 60024 80001 333 20224 50454 70016 84270
AAXX 31124 86185 32870 30000 10268 20241 39999 40091 52009 83070 333 20240 5//// 83457
AAXX 31124 86192 32970 40000 10274 20191 39887 40102 52004 84070 333 20230 5//// 84357
AAXX 31124 86210 02470 80502 10238 20225 39741 40080 54000 60164 885// 333 20225 50264 70155 88610
AAXX 31124 86218 32970 13202 10278 20235 39998 40092 52015 81030 333 20232 50384 81358
AAXX 31124 86221 32670 22702 10284 20235 39974 40106 52015 82100 333 20232 50384 82840
AAXX 31124 86233 32970 00000 10264 20211 39918 40105 51012 333 20220 5////
AAXX 31124 86234 31565 32704 10276 20237 39868 40048 51017 71011 83500 333 20215 50074 83630
AAXX 31124 86246 01370 73308 10242 20222 39807 40091 51013 60024 70222 86770 333 20204 5//// 70018 86708 87357
AAXX 31124 86251 32570 32304 10268 20177 39919 40085 53036 86800 333 20222 5//// 84633 82840
AAXX 31124 86255 32670 21804 10286 20167 30041 40107 51001 82220 333 20200 50704 82840
AAXX 31124 86260 32970 01702 10260 20183 39938 40088 52018 333 20217 50544
AAXX 31124 86268 32970 02502 10276 20189 39918 40079 52008 333 20210 5////
AAXX 31124 86285 32970 00000 10240 20193 39801 40091 52019 333 20194 50464
AAXX 31124 86297 32970 03305 10262 20215 39933 40035 52017 333 20200 50604
AAXX 31124 47101 31520 80000 11036 21062 30162 40262 58003 71022 8552/ 333 11034 3/104 41///
AAXX 31124 47105 369// /2704 10013 21085 30200 40233 58004 333 10062 3/000
AAXX 31124 47108 31656 82703 11001 21065 30149 40258 58002 70522 8552/ 333 10014 34101
AAXX 31124 47115 12670 53404 10032 21054 39943 40219 57004 69902 81501 333 10078 3/000 46003 92032
AAXX 31124 47133 31656 83201 10011 21060 30176 40263 57001 70522 8352/ 333 10028 34000
AAXX 31124 47138 32965 62306 10025 21088 30238 40241 58002 80001 333 10077 30002 92032
AAXX 31124 47159 32965 62504 10028 21123 30148 40235 57004 80002 333 10097 30002 92022
AAXX 31124 47165 32665 80000 10024 21027 30216 40264 57004 8452/ 333 10038 31002 92020
AAXX 31124 47168 32965 53413 10033 21066 30167 40248 54000 80001 333 10067 30001 92024
AAXX 31124 47184 32670 82005 10070 21011 30238 40263 58002 8452/ 333 10072 30005 92022
AAXX 31121 26038 21262 71902 11007 21014 30001 40042 52003 77172 86730 333 10001 21015 60007 86504 555 1/100 21015 3/102 50003 52103
AAXX 31121 26045 27681 72202 11004 21030 30040 40042 52008 78588 87/// 333 10011 21005 60007 87/36 555 1/100 21005 3/100 50013
AAXX 31121 26058 27161 72402 11006 21009 30037 40044 52012 77187 87/// 333 10016 21009 60027 87/03 91109 555 1/100 21009 3/101 50015 52101
AAXX 31121 26115 27584 82902 10007 21001 30043 40051 52003 70087 88/// 333 10019 21004 69997 88/26 91109 555 1/000 21004 3/100 50015
AAXX 31121 26135 27581 72001 11008 21015 39974 40049 52003 70000 87/// 333 10005 21009 60007 87/32 555 1/100 21009 3/101 50004 52102
AAXX 31121 26141 21684 72403 11016 21031 39898 40049 53007 70222 87500 333 11000 21020 60007 87650 555 1/101 21020 3/102 51000 52103
AAXX 31121 26231 21684 72502 10009 21017 30038 40053 52002 70282 87530 333 10009 20000 60007 87647 555 1/001 20000 3/100 50009
AAXX 31121 26242 NIL
AAXX 31121 26247 27/84 /2401 10005 21009 39978 40058 53004 70000 333 10013 21002 60007 555 1/000 21002 3/101 50013
AAXX 31124 78762 32970 71011 10214 20162 39087 40098 55010 83051 333 10278 20209 30/// 59002 83362 85075
AAXX 31124 47090 32665 23403 10008 21079 30206 40229 58003 81501 333 10067 3/102 43001 92012
AAXX 31124 47095 31540 82302 11014 21067 30062 40257 58002 70522 8552/ 333 10002 34102
AAXX 31124 47097 329// /0000 11030 21084 30163 40263 56002 333 10008 3/102
AAXX 31124 47098 329// /2301 11008 21061 30115 40254 58003 333 10008 3/101
AAXX 31124 47099 329// /3601 11010 21057 30220 40258 57004 333 10010 3/101
AAXX 31124 47100 31458 62507 11049 21090 39302 40253 50001 71022 83501 333 11024 3/105 49022
AAXX 31124 47102 11658 83404 10008 21019 30075 40258 54000 69952 71022 8552/ 333 10018 31000
AAXX 31124 47104 32965 41803 11014 21086 30132 40233 57004 80001 333 10058 3/101 43003
AAXX 31124 47106 329// /2506 10022 21085 30179 40229 58003 333 10079 3/000
AAXX 31124 47112 31640 81404 10011 21047 30171 40257 58004 70522 8552/ 333 10019 30000 92012
AAXX 31124 47114 31550 70001 11014 21102 30071 40260 54000 70522 85502 333 10011 30103
AAXX 31124 47119 31650 80000 11004 21046 30216 40259 57004 71022 8552/ 333 10021 34102
AAXX 31124 47121 329// /0000 11021 21090 39956 40261 50001 333 10019 3/102
AAXX 31124 47127 329// /0001 11016 21073 30117 40264 54000 333 10019 3/101
AAXX 31124 47129 31650 80000 10003 21025 30227 40264 58004 71022 8552/ 333 10027 31001
AAXX 31124 47130 32965 62306 10017 21118 30167 40230 58002 80001 333 10084 34102 92032
AAXX 31124 47131 31657 82702 10009 21071 30188 40261 57002 70510 8252/ 333 10014 34000
AAXX 31124 47135 329// /2501 11002 21068 39951 40259 57003 333 10009 3/101
AAXX 31124 47136 32660 63401 11016 21092 30078 40256 50005 82501 333 10044 30105
AAXX 31124 47137 329// /2503 10008 21084 30136 40258 54000 333 10026 3/101
AAXX 31124 47140 32661 81103 10009 21047 30234 40264 58003 8352/ 333 10025 31001 92011
AAXX 31124 47143 32961 62503 10017 21084 30182 40263 58001 80001 333 10051 30102
AAXX 31124 47145 31658 80001 10001 21051 30227 40254 58001 70522 8552/ 333 10025 34000
AAXX 31124 47146 32665 80000 10015 21054 30197 40265 50001 8552/ 333 10032 31000
AAXX 31124 47150 32662 83201 10010 21048 30239 40259 58003 8552/ 333 10024 34000
AAXX 31124 47152 32965 63406 10021 21089 30194 40238 50002 80002 333 10092 30101
AAXX 31124 47154 329// /3403 10003 21070 30196 40258 54000 333 10032 3/101
AAXX 31124 47155 32963 61605 10031 21074 30199 40246 50001 80002 333 10059 30000
AAXX 31124 47156 32665 80000 10026 21035 30176 40267 58001 8552/ 333 10043 31001
AAXX 31124 47157 32968 62707 11023 21072 39970 40250 50005 80001 333 10052 30104
AAXX 31124 47162 32965 60703 10032 21097 30203 40244 54000 80002 333 10083 30002 92021
AAXX 31124 47169 32661 83406 10057 21008 30167 40262 58001 8352/ 333 10058 31004 92033
AAXX 31124 47170 32665 80001 10031 21046 30218 40262 58003 8352/ 333 10044 30002 92021
AAXX 31124 47171 329// /2001 10011 21045 30209 40266 54000 333 10031 3/000
AAXX 31124 47172 329// /0000 10012 21031 30193 40261 56001 333 10030 3/000
AAXX 31124 47173 329// /0000 11007 21051 30151 40266 57002 333 10034 3/101
AAXX 31124 47174 32662 82908 10012 21057 30051 40258 57002 8352/ 333 10030 31000
AAXX 31124 47175 32562 83209 10006 21024 39674 40261 58007 8552/ 333 10019 31000 92023
AAXX 31124 47185 32665 83215 10080 20004 30169 40261 57004 8552/ 333 10085 30006 92024
AAXX 31124 47188 32670 63207 10069 21008 30227 40249 57004 86500 333 10084 30005 92022
AAXX 31124 47189 32670 62901 10084 20019 30184 40244 51001 85500 333 10120 30006 92022
AAXX 31124 47192 32967 60000 11009 21074 30215 40254 52004 80001 333 10068 30101
AAXX 31121 76040 32902 00201 10073 20029 30143 40157 52001 91145 333 10248 20061 30/// 59013 70000 98602
AAXX 31121 76056 06/// /2603 10121 21052 30125 40149 52004 60001 7//// 8//// 91150 333 0//// 10247 20108 30/// 4//// 50249 54/// 55082 56/// 57/// 59007 60007 70000 8//// 8//// 8//// 9/
AAXX 31121 76113 32970 00301 10088 21003 39671 40137 5//// 91150 333 10274 20086 30080 50211 55080 59009 70000
AAXX 31121 76122 32956 00000 10022 21034 38550 40197 5//// 91150 333 10218 20022 30101 55095 59012 70000
AAXX 31121 76123 06/// 01603 10018 21047 3//// 4//// 5//// 60001 7//// 80000 91150 333 0//// 10241 20014 4//// 50239 55086 56000 57/// 5//// 60007 70000 8//// 8//// 8//// 8//// 9//// 9/
AAXX 31121 76220 32920 00000 11060 21060 38170 40243 5//// 91150 333 10220 21060 31084 55099 59001 70000
AAXX 31121 76225 32920 00000 10030 21088 38636 40162 5//// 91145 333 10226 20030 31004 59008 70000
AAXX 31121 76226 02/// ///// 1//// 2//// 3//// 4//// 5//// 6//// 7//// 8//// 9//// 333 0//// 1//// 2//// 30/// 4//// 5//// 54/// 55/// 56/// 57/// 5//// 6//// 7//// 8//// 8//// 8//// 9/
AAXX 31121 76243 32974 01902 10078 20046 39879 40189 54000 91135 333 10258 20064 30058 59011 70000
AAXX 31121 76305 32970 00000 10085 21022 30139 40148 5//// 91150 333 10240 20075 30045 59013 70000
AAXX 31121 76323 32950 00000 11012 21058 38292 40247 57005 91140 333 10245 21012 31034 59008 70000
AAXX 31121 76342 32940 01703 10100 21026 39499 40213 52002 91150 333 10314 20096 30090 58023 70000
AAXX 31121 76373 32910 00000 11014 21120 38239 40192 5//// 91155 333 10250 21040 31010 58001 70000
AAXX 31121 76382 32960 20000 10075 20055 38918 40177 52006 82080 91148 333 10265 20055 30030 59004 70000 82354
AAXX 31121 76390 31950 02201 10093 21066 38239 40184 57001 70544 91130 333 10235 20057 30050 58000 70000
AAXX 31121 76393 32920 01901 10124 20041 39591 40170 52003 91155 333 10314 20110 30100 58021 70000
AAXX 31121 76423 32760 30000 10064 21049 38167 40174 52005 82060 91155 333 10250 20054 30/// 56090 58003 70000 82358
AAXX 31121 76458 32960 03502 10132 20104 30128 40132 55002 91140 333 10264 20103 30096 59016 70000
AAXX 31121 76471 32980 00000 10078 21002 37700 40113 5//// 91150 333 10227 20063 30050 55069 58000 70000
AAXX 31121 76490 06/// /2401 10122 20063 39781 40179 53006 60001 7//// 8//// 91150 333 0//// 10303 20113 30/// 50319 54/// 55079 56/// 57/// 58028 60007 70000 8//// 8//// 8//// 8//// 9/
AAXX 31121 76525 32860 31902 10123 20016 37475 40109 57001 82031 91140 333 10188 20120 30103 55089 22472 56/55 58001 70000 82358 81080
AAXX 31121 76538 06/// /0000 10052 20023 38174 40227 51005 60001 7//// 8//// 91150 333 0//// 10273 20052 30/// 4//// 50269 54/// 55074 56/// 57/// 58007 60007 70000 8//// 8//// 8//// 9/
AAXX 31121 76547 06/// /0201 10194 20193 30160 40172 53006 60001 7//// 8//// 91150 333 0//// 10278 20189 4//// 50269 55074 56/// 57/// 58020 60007 70000 8//// 8//// 8//// 8//// 9//// 9/
AAXX 31121 76548 32360 43601 10194 20191 30170 40180 53002 84400 91140 333 10276 20188 30184 56100 58020 70000 84606
AAXX 31121 76556 32960 01402 10127 20094 39103 40123 56008 91130 333 10284 20124 30110 59014 70000
AAXX 31121 76577 32560 83602 10128 20104 38048 40133 51002 85503 91140 333 10260 20120 30105 56305 59002 70000 85623
AAXX 31121 76578 06/// /0702 10120 20038 38046 40164 53003 60001 7//// 8//// 91150 333 0//// 10271 20115 30/// 4//// 50289 54/// 55052 56/// 57/// 59002 60007 70000 8//// 8//// 8//// 9/
AAXX 31121 76581 32960 01401 10104 20097 39080 40195 5//// 91150 333 10305 20040 30030 55100 58024 70000
AAXX 31121 76585 32680 70000 10150 20145 30018 40177 53028 874// 91140 333 10280 20134 30124 55079 562// 58025 70000 87640
AAXX 31121 76586 06/// /0000 10170 20170 30021 40179 53005 60001 7//// 8//// 91150 333 0//// 10299 20144 30/// 4//// 50249 54/// 55076 56/// 57/// 58025 60007 70000 8//// 8//// 8//// 9/
AAXX 31121 76592 06/// /0905 10214 20055 30175 40175 53006 60001 7//// 8//// 91150 333 0//// 10310 20214 30/// 4//// 50669 54/// 55060 56/// 57/// 58006 60007 70000 8//// 8//// 8//// 9/
AAXX 31121 76593 32960 01402 10212 20209 30174 40176 52010 91150 333 10310 20208 30204 58005 70000
AAXX 31121 76612 32958 00000 10100 20092 38474 40167 52003 91150 333 10271 20100 30088 55087 21079 58006 70000
AAXX 31121 76625 32560 11801 10142 20050 38147 40119 57006 81100 91140 333 10268 20138 30124 56200 58000 70000 81825
AAXX 31121 76632 31950 00504 10094 20041 37639 40152 5//// 70500 91140 333 10194 20090 30/// 58001 70000 98550
AAXX 31121 76634 31970 01403 10102 20053 37858 40177 5//// 70500 91150 333 10247 20095 30066 58001 70000
AAXX 31121 76641 06/// /0000 10183 20182 30165 40177 53007 60001 7//// 8//// 91150 333 0//// 10274 20183 30/// 4//// 50159 54/// 55000 56/// 57/// 58024 60007 70000 8//// 8//// 8//// 8/
AAXX 31121 76644 32950 01101 10209 20202 30161 40174 56002 91150 333 10318 20209 30199 58005 70013
AAXX 31121 76645 06/// /0802 10208 20205 30165 40178 52006 60001 7//// 8//// 91150 333 0//// 10318 20208 30/// 4//// 50339 54/// 55051 56/// 57/// 58006 60007 70014 8//// 8//// 8//// 9/
AAXX 31121 76648 06/// /0801 10202 20189 30144 40175 53005 60001 7//// 8//// 91150 333 0//// 10325 20202 30/// 4//// 50259 54/// 55000 56/// 57/// 58006 60007 70000 8//// 8//// 8//// 8/
AAXX 31121 76654 31956 00000 10220 20192 30125 40129 5//// 70544 91150 333 10288 20219 30203 59022 70000
AAXX 31121 76659 06/// /0302 10177 20145 3//// 4//// 5//// 60001 7//// 8//// 91150 333 0//// 10317 20177 30/// 4//// 50349 54/// 55/// 56/// 57/// 5//// 60007 70000 8//// 8//// 8//// 9/
AAXX 31121 76662 32960 01001 10104 20079 38466 40150 52006 91145 333 10290 20090 30074 59003 70000
AAXX 31121 76665 31258 22102 10109 20084 38127 40148 52006 70310 82200 91145 333 10272 20100 30086 56100 57812 59001 70000 82805
AAXX 31121 76675 31760 10501 10032 20012 37387 40200 51002 70544 81060 91150 333 10212 20019 31007 56090 59002 79999
AAXX 31121 76680 31558 31801 10104 20080 37760 40096 54000 70101 83200 91150 333 10233 20100 30086 56500 58000 79999 83825
AAXX 31121 76683 32660 50000 10076 20051 37835 40212 55002 85070 91145 333 10245 20076 30050 50271 55063 21177 56070 59001 70046 85358
AAXX 31121 76684 06/// /3401 10067 20043 37838 40237 55001 69921 7//// 8//// 91150 333 0//// 10269 20067 30/// 4//// 50339 54/// 55/// 56/// 57/// 59001 60007 70048 8//// 8//// 8//// 9/
AAXX 31121 76685 32550 10000 10088 20072 37871 40153 57004 81100 91150 333 10256 20086 30060 56900 58000 70030 81827
AAXX 31121 76687 31240 72001 10138 20124 38693 40183 52008 74042 876// 91142 333 10243 20136 30130 563// 58018 79999 83708 84610
AAXX 31121 76692 31520 62701 10218 20212 30150 40170 52007 71042 864// 91145 333 10270 20214 30210 568// 58019 70000 86630
AAXX 31121 76693 06/// /2701 10217 20211 30151 40170 53008 60001 7//// 8//// 91150 333 0//// 10270 20214 30/// 4//// 50189 55000 56/// 57/// 58015 60007 70000 8//// 8//// 8//// 8//// 9/
AAXX 31121 76695 32956 00602 10205 20198 30152 40158 5//// 91150 333 10322 10198 30193 59004 70000
AAXX 31121 76698 32558 10000 10184 20179 30165 40177 5//// 81200 91155 333 10313 20184 30156 56200 58000 70000 81820
AAXX 31121 76727 06/// /3501 10148 20054 38393 40130 55010 60001 7//// 8//// 91150 333 0//// 10289 20148 30/// 4//// 50229 54/// 55000 56/// 57/// 59007 60007 70000 8//// 8//// 8//// 9/
AAXX 31121 76737 11465 80000 10144 20131 38787 40175 50007 69911 70252 886// 91135 333 10239 20136 30115 569// 58016 70010 88710
AAXX 31121 76738 06/// /0101 10145 20134 38789 40181 52010 60001 7//// 8//// 333 10246 20127 30/// 50179 55000 56/// 57/// 58016 60007 70012 8//// 8//// 8//// 8//// 9//// 9//// 9//// 44
AAXX 31121 76743 31940 00901 10230 20204 30138 40146 53007 70000 91150 333 10285 20230 30205 59006 70000
AAXX 31121 76751 06/// /3501 10197 20196 30155 40166 53006 60001 7//// 8//// 91150 333 0//// 10311 20196 30/// 4//// 50239 54/// 55000 56/// 57/// 58001 60007 70000 8//// 8//// 8//// 9/
AAXX 31121 76772 06/// /2201 10095 20086 38432 40199 53004 60001 7//// 8//// 91150 333 0//// 10293 20095 30/// 4//// 5///9 55000 56/// 57/// 59005 60007 70012 8//// 8//// 8//// 9//// 9/
AAXX 31121 76773 32930 00000 10104 20093 38428 40132 52006 91148 333 10287 20092 30081 50121 55084 59002 70012
AAXX 31121 76775 32960 00501 10101 20074 38531 40177 52005 91145 333 10296 20096 30/// 59002 70012
AAXX 31121 76776 06/// /0501 10088 20070 38516 40200 53006 60001 7//// 8//// 91150 333 0//// 10312 20088 30/// 4//// 50349 55068 56/// 57/// 59002 60007 70010 8//// 8//// 8//// 9//// 9/
AAXX 31121 76805 32760 23001 10226 20220 30116 40118 53001 82040 91150 333 10310 20224 30212 56/6/ 59020 70000 82357
AAXX 31121 76806 06/// /3101 10224 20214 30118 40122 55000 60001 7//// 8//// 91150 333 10304 20224 30215 30/// 50239 55000 56/// 57/// 59020 60007 70000 8//// 8//// 8//// 8//// 9//// 9/
AAXX 31121 76840 32920 00205 10260 20193 30063 40129 54000 91145 333 10350 20220 30/// 55096 59005 70000
AAXX 31121 76843 32565 53601 10201 20180 39498 40136 52013 85100 91130 333 10326 20199 30189 569// 59001 70000 85830
AAXX 31121 76845 31/10 90000 10076 20072 37954 40274 5//// 74744 89/// 91145 333 10224 20070 30062 59002 70000 89///
AAXX 31121 76848 32450 70502 10143 20118 38388 40111 51004 87600 91155 333 10265 20143 30129 56100 59001 70000 87710
AAXX 31121 76902 06/// /0000 10213 20172 39985 40125 53003 60001 7//// 8//// 91150 333 0//// 10341 20213 30/// 4//// 50399 54/// 56/// 57/// 59015 60007 70000 8//// 8//// 8//// 8//// 9/
AAXX 31121 76903 32970 00801 10218 20176 39987 40117 5//// 91140 333 10343 20218 30195 59016 70000
AAXX 31121 76311 32920 00000 10082 20049 39859 40140 56009 91140 333 10332 20080 30060 59013 70000
AAXX 31121 76640 31010 40000 10196 20193 30177 40189 52009 71044 845// 91140 333 10262 20182 30178 563// 58022 70000 84601
AAXX 31121 76647 32970 00901 10206 20200 30157 40187 52004 91150 333 10318 20204 30192 58008 79999
AAXX 31121 76656 32968 00000 10094 20083 38508 40162 54000 91150 333 10268 20080 30043 59003 70000
AAXX 31121 76741 31340 50504 10224 20204 30120 40138 57017 70544 83230 91130 333 10270 20175 30170 5688/ 58002 70000 83808
AAXX 31121 76750 32558 23401 10203 20202 30155 40165 5//// 81107 91145 333 10312 20198 30192 56106 58000 70000 81820
AAXX 31121 76855 32980 03601 10216 20196 30066 40116 5//// 91145 333 10323 20206 30198 55095 59003 70000 92000
BBXX LAHV 31121 99589 10057 43/// /1206 10030 21022 40037 222// 04080 1////
BBXX LDGJ 31121 99603 10053 43/// /1505 10027 21044 40020 5//// 222/0 04078 1//// 3//// 4//// 5////
BBXX LF4H 31124 99596 10022 46/// /1527 10065 20059 49949 57020 8//// 22200 06079 10605 70027 333 91135
BBXX LMEL 31121 99603 10053 43/// /1506 10027 21055 40016 5//// 222/0 04081 1//// 3//// 4//// 5////
AAXX 31124 78762 32970 71011 10214 20162 39087 40098 55010 83051 333 10278 20209 30/// 59002 83362 85075
AAXX 31121 33135 31496 81803 10011 20003 39928 40109 58005 71042 886// 333 88711
AAXX 31121 33791 32497 82603 10030 20020 39973 40125 55000 886// 333 88714
AAXX 31121 33088 32597 82603 10014 20003 39900 40093 58006 888//
AAXX 31121 33177 /1482 82703 10016 21015 39874 40114 52011 70282 889// 555 69971
AAXX 31121 33261 /1396 82401 10011 20006 39924 40109 58004 71072 889// 333 87708 555 60011
AAXX 31121 33275 /1294 81904 10011 20008 39886 40112 58004 76165 8772/ 333 87704 555 69961
AAXX 31121 33301 /1497 82508 10003 21008 39824 40110 54000 72682 883// 333 86915 555 69901
AAXX 31121 33325 32497 72701 10018 21007 39842 40113 58005 85330 333 85916 934//
AAXX 31121 33377 /1443 82401 10014 20006 39921 40117 58004 71075 886// 333 88711 555 69951
AAXX 31121 33415 32597 72905 10019 21038 39724 40126 54000 87500 333 87630
AAXX 31121 33429 32598 72704 10016 21018 39701 40130 52001 87500 333 87623
AAXX 31121 33466 31558 72302 10026 20008 39934 40123 58004 71042 84301
AAXX 31121 33526 32560 62705 10035 21036 39793 40136 58003 86500 333 86620
AAXX 31121 33562 31440 72303 10005 21009 39761 40128 58002 71042 83630
AAXX 31121 33614 /1494 82801 10023 20018 30013 40119 58001 76162 8872/ 333 88710 555 69961
AAXX 31121 33761 32698 63502 10033 20007 39907 40132 57001 85204
AAXX 31121 33902 31596 72601 10050 20015 30061 40127 55001 71022 87500
AAXX 31121 33983 32997 71504 10099 20048 30075 40136 57007 80001
AAXX 31121 34415 /1324 80000 10014 20006 30042 40140 58006 71062 886// 555 69911
AAXX 31121 34523 31496 81401 10027 20009 30073 40150 57004 71022 886// 333 88714
AAXX 31121 34712 NIL
AAXX 31124 78762 32970 71011 10214 20162 39087 40098 55010 83051 333 10278 20209 30/// 59002 83362 85075
AAXX 31124 17022 12662 52802 10122 20043 39931 40096 57020 60001 82135 333 82834 83360 85070 91112 92427
AAXX 31124 17031 12670 72104 10143 21014 30118 40124 57009 60001 83250 333 83836 87360
AAXX 31124 17038 12965 50602 10132 20065 30087 40138 56006 60001 85030 333 85360 92427
AAXX 31124 17050 11558 83506 10032 20031 30034 40097 55008 60061 76162 8552/ 333 85630 88458 91113
AAXX 31124 17060 12560 70802 10109 20022 30040 40080 56018 60001 84250 333 84830 86359
AAXX 31124 17096 11560 70808 11034 21055 38225 48503 57008 69901 77071 85560 333 85625 87357 93197
AAXX 31124 17124 12660 70906 10046 20006 39186 40118 57022 60001 84570 333 84635 86360
AAXX 31124 17128 11458 70107 10017 21001 39034 40162 57015 69941 72272 85520 333 82710 84640 87458 93100 9601 0
AAXX 31124 17170 NIL
AAXX 31124 17195 11656 30000 10071 21029 38923 48443 57014 60001 70511 83100 333 83840
AAXX 31124 17199 12670 70401 10041 21018 39077 40190 55012 60001 83550 333 83635 87360
AAXX 31124 17219 11565 71907 10093 20074 39922 40067 56022 60041 78082 84250 333 84830 87360 91120
AAXX 31124 17240 11560 71308 10048 20020 38955 40108 57020 69941 78062 85250 333 85830 87360
AAXX 31124 17244 12670 71710 10067 21001 38931 48431 57020 60001 84520 333 84635 87459
AAXX 31124 17280 11660 71504 10072 20003 39392 40197 55013 69901 70262 84250 333 84835 87359
AAXX 31124 17350 12660 70512 10106 20023 30077 40156 57017 60001 84250 333 84835 87360
AAXX 31121 76040 32902 00201 10073 20029 30143 40157 52001 91145 333 10248 20061 30/// 59013 70000 98602
AAXX 31121 76056 06/// /2603 10121 21052 30125 40149 52004 60001 7//// 8//// 91150 333 0//// 10247 20108 30/// 4//// 50249 54/// 55082 56/// 57/// 59007 60007 70000 8//// 8//// 8//// 9/
AAXX 31121 76113 32970 00301 10088 21003 39671 40137 5//// 91150 333 10274 20086 30080 50211 55080 59009 70000
AAXX 31121 76122 32956 00000 10022 21034 38550 40197 5//// 91150 333 10218 20022 30101 55095 59012 70000
AAXX 31121 76123 06/// 01603 10018 21047 3//// 4//// 5//// 60001 7//// 80000 91150 333 0//// 10241 20014 4//// 50239 55086 56000 57/// 5//// 60007 70000 8//// 8//// 8//// 8//// 9//// 9/
AAXX 31121 76220 32920 00000 11060 21060 38170 40243 5//// 91150 333 10220 21060 31084 55099 59001 70000
AAXX 31121 76225 32920 00000 10030 21088 38636 40162 5//// 91145 333 10226 20030 31004 59008 70000
AAXX 31121 76226 02/// ///// 1//// 2//// 3//// 4//// 5//// 6//// 7//// 8//// 9//// 333 0//// 1//// 2//// 30/// 4//// 5//// 54/// 55/// 56/// 57/// 5//// 6//// 7//// 8//// 8//// 8//// 9/
AAXX 31121 76243 32974 01902 10078 20046 39879 40189 54000 91135 333 10258 20064 30058 59011 70000
AAXX 31121 76305 32970 00000 10085 21022 30139 40148 5//// 91150 333 10240 20075 30045 59013 70000
AAXX 31121 76323 32950 00000 11012 21058 38292 40247 57005 91140 333 10245 21012 31034 59008 70000
AAXX 31121 76342 32940 01703 10100 21026 39499 40213 52002 91150 333 10314 20096 30090 58023 70000
AAXX 31121 76373 32910 00000 11014 21120 38239 40192 5//// 91155 333 10250 21040 31010 58001 70000
AAXX 31121 76382 32960 20000 10075 20055 38918 40177 52006 82080 91148 333 10265 20055 30030 59004 70000 82354
AAXX 31121 76390 31950 02201 10093 21066 38239 40184 57001 70544 91130 333 10235 20057 30050 58000 70000
AAXX 31121 76393 32920 01901 10124 20041 39591 40170 52003 91155 333 10314 20110 30100 58021 70000
AAXX 31121 76423 32760 30000 10064 21049 38167 40174 52005 82060 91155 333 10250 20054 30/// 56090 58003 70000 82358
AAXX 31121 76458 32960 03502 10132 20104 30128 40132 55002 91140 333 10264 20103 30096 59016 70000
AAXX 31121 76471 32980 00000 10078 21002 37700 40113 5//// 91150 333 10227 20063 30050 55069 58000 70000
AAXX 31121 76490 06/// /2401 10122 20063 39781 40179 53006 60001 7//// 8//// 91150 333 0//// 10303 20113 30/// 50319 54/// 55079 56/// 57/// 58028 60007 70000 8//// 8//// 8//// 8//// 9/
AAXX 31121 76525 32860 31902 10123 20016 37475 40109 57001 82031 91140 333 10188 20120 30103 55089 22472 56/55 58001 70000 82358 81080
AAXX 31121 76538 06/// /0000 10052 20023 38174 40227 51005 60001 7//// 8//// 91150 333 0//// 10273 20052 30/// 4//// 50269 54/// 55074 56/// 57/// 58007 60007 70000 8//// 8//// 8//// 9/
AAXX 31121 76547 06/// /0201 10194 20193 30160 40172 53006 60001 7//// 8//// 91150 333 0//// 10278 20189 4//// 50269 55074 56/// 57/// 58020 60007 70000 8//// 8//// 8//// 8//// 9//// 9/
AAXX 31121 76548 32360 43601 10194 20191 30170 40180 53002 84400 91140 333 10276 20188 30184 56100 58020 70000 84606
AAXX 31121 76556 32960 01402 10127 20094 39103 40123 56008 91130 333 10284 20124 30110 59014 70000
AAXX 31121 76577 32560 83602 10128 20104 38048 40133 51002 85503 91140 333 10260 20120 30105 56305 59002 70000 85623
AAXX 31121 76578 06/// /0702 10120 20038 38046 40164 53003 60001 7//// 8//// 91150 333 0//// 10271 20115 30/// 4//// 50289 54/// 55052 56/// 57/// 59002 60007 70000 8//// 8//// 8//// 9/
AAXX 31121 76581 32960 01401 10104 20097 39080 40195 5//// 91150 333 10305 20040 30030 55100 58024 70000
AAXX 31121 76585 32680 70000 10150 20145 30018 40177 53028 874// 91140 333 10280 20134 30124 55079 562// 58025 70000 87640
AAXX 31121 76586 06/// /0000 10170 20170 30021 40179 53005 60001 7//// 8//// 91150 333 0//// 10299 20144 30/// 4//// 50249 54/// 55076 56/// 57/// 58025 60007 70000 8//// 8//// 8//// 9/
AAXX 31121 76592 06/// /0905 10214 20055 30175 40175 53006 60001 7//// 8//// 91150 333 0//// 10310 20214 30/// 4//// 50669 54/// 55060 56/// 57/// 58006 60007 70000 8//// 8//// 8//// 9/
AAXX 31121 76593 32960 01402 10212 20209 30174 40176 52010 91150 333 10310 20208 30204 58005 70000
AAXX 31121 76612 32958 00000 10100 20092 38474 40167 52003 91150 333 10271 20100 30088 55087 21079 58006 70000
AAXX 31121 76625 32560 11801 10142 20050 38147 40119 57006 81100 91140 333 10268 20138 30124 56200 58000 70000 81825
AAXX 31121 76632 31950 00504 10094 20041 37639 40152 5//// 70500 91140 333 10194 20090 30/// 58001 70000 98550
AAXX 31121 76634 31970 01403 10102 20053 37858 40177 5//// 70500 91150 333 10247 20095 30066 58001 70000
AAXX 31121 76641 06/// /0000 10183 20182 30165 40177 53007 60001 7//// 8//// 91150 333 0//// 10274 20183 30/// 4//// 50159 54/// 55000 56/// 57/// 58024 60007 70000 8//// 8//// 8//// 8/
AAXX 31121 76644 32950 01101 10209 20202 30161 40174 56002 91150 333 10318 20209 30199 58005 70013
AAXX 31121 76645 06/// /0802 10208 20205 30165 40178 52006 60001 7//// 8//// 91150 333 0//// 10318 20208 30/// 4//// 50339 54/// 55051 56/// 57/// 58006 60007 70014 8//// 8//// 8//// 9/
AAXX 31121 76648 06/// /0801 10202 20189 30144 40175 53005 60001 7//// 8//// 91150 333 0//// 10325 20202 30/// 4//// 50259 54/// 55000 56/// 57/// 58006 60007 70000 8//// 8//// 8//// 8/
AAXX 31121 76654 31956 00000 10220 20192 30125 40129 5//// 70544 91150 333 10288 20219 30203 59022 70000
AAXX 31121 76659 06/// /0302 10177 20145 3//// 4//// 5//// 60001 7//// 8//// 91150 333 0//// 10317 20177 30/// 4//// 50349 54/// 55/// 56/// 57/// 5//// 60007 70000 8//// 8//// 8//// 9/
AAXX 31121 76662 32960 01001 10104 20079 38466 40150 52006 91145 333 10290 20090 30074 59003 70000
AAXX 31121 76665 31258 22102 10109 20084 38127 40148 52006 70310 82200 91145 333 10272 20100 30086 56100 57812 59001 70000 82805
AAXX 31121 76675 31760 10501 10032 20012 37387 40200 51002 70544 81060 91150 333 10212 20019 31007 56090 59002 79999
AAXX 31121 76680 31558 31801 10104 20080 37760 40096 54000 70101 83200 91150 333 10233 20100 30086 56500 58000 79999 83825
AAXX 31121 76683 32660 50000 10076 20051 37835 40212 55002 85070 91145 333 10245 20076 30050 50271 55063 21177 56070 59001 70046 85358
AAXX 31121 76684 06/// /3401 10067 20043 37838 40237 55001 69921 7//// 8//// 91150 333 0//// 10269 20067 30/// 4//// 50339 54/// 55/// 56/// 57/// 59001 60007 70048 8//// 8//// 8//// 9/
AAXX 31121 76685 32550 10000 10088 20072 37871 40153 57004 81100 91150 333 10256 20086 30060 56900 58000 70030 81827
AAXX 31121 76687 31240 72001 10138 20124 38693 40183 52008 74042 876// 91142 333 10243 20136 30130 563// 58018 79999 83708 84610
AAXX 31121 76692 31520 62701 10218 20212 30150 40170 52007 71042 864// 91145 333 10270 20214 30210 568// 58019 70000 86630
AAXX 31121 76693 06/// /2701 10217 20211 30151 40170 53008 60001 7//// 8//// 91150 333 0//// 10270 20214 30/// 4//// 50189 55000 56/// 57/// 58015 60007 70000 8//// 8//// 8//// 8//// 9/
AAXX 31121 76695 32956 00602 10205 20198 30152 40158 5//// 91150 333 10322 10198 30193 59004 70000
AAXX 31121 76698 32558 10000 10184 20179 30165 40177 5//// 81200 91155 333 10313 20184 30156 56200 58000 70000 81820
AAXX 31121 76727 06/// /3501 10148 20054 38393 40130 55010 60001 7//// 8//// 91150 333 0//// 10289 20148 30/// 4//// 50229 54/// 55000 56/// 57/// 59007 60007 70000 8//// 8//// 8//// 9/
AAXX 31121 76737 11465 80000 10144 20131 38787 40175 50007 69911 70252 886// 91135 333 10239 20136 30115 569// 58016 70010 88710
AAXX 31121 76738 06/// /0101 10145 20134 38789 40181 52010 60001 7//// 8//// 333 10246 20127 30/// 50179 55000 56/// 57/// 58016 60007 70012 8//// 8//// 8//// 8//// 9//// 9//// 9//// 44
AAXX 31121 76743 31940 00901 10230 20204 30138 40146 53007 70000 91150 333 10285 20230 30205 59006 70000
AAXX 31121 76751 06/// /3501 10197 20196 30155 40166 53006 60001 7//// 8//// 91150 333 0//// 10311 20196 30/// 4//// 50239 54/// 55000 56/// 57/// 58001 60007 70000 8//// 8//// 8//// 9/
AAXX 31121 76772 06/// /2201 10095 20086 38432 40199 53004 60001 7//// 8//// 91150 333 0//// 10293 20095 30/// 4//// 5///9 55000 56/// 57/// 59005 60007 70012 8//// 8//// 8//// 9//// 9/
AAXX 31121 76773 32930 00000 10104 20093 38428 40132 52006 91148 333 10287 20092 30081 50121 55084 59002 70012
AAXX 31121 76775 32960 00501 10101 20074 38531 40177 52005 91145 333 10296 20096 30/// 59002 70012
AAXX 31121 76776 06/// /0501 10088 20070 38516 40200 53006 60001 7//// 8//// 91150 333 0//// 10312 20088 30/// 4//// 50349 55068 56/// 57/// 59002 60007 70010 8//// 8//// 8//// 9//// 9/
AAXX 31121 76805 32760 23001 10226 20220 30116 40118 53001 82040 91150 333 10310 20224 30212 56/6/ 59020 70000 82357
AAXX 31121 76806 06/// /3101 10224 20214 30118 40122 55000 60001 7//// 8//// 91150 333 10304 20224 30215 30/// 50239 55000 56/// 57/// 59020 60007 70000 8//// 8//// 8//// 8//// 9//// 9/
AAXX 31121 76840 32920 00205 10260 20193 30063 40129 54000 91145 333 10350 20220 30/// 55096 59005 70000
AAXX 31121 76843 32565 53601 10201 20180 39498 40136 52013 85100 91130 333 10326 20199 30189 569// 59001 70000 85830
AAXX 31121 76845 31/10 90000 10076 20072 37954 40274 5//// 74744 89/// 91145 333 10224 20070 30062 59002 70000 89///
AAXX 31121 76848 32450 70502 10143 20118 38388 40111 51004 87600 91155 333 10265 20143 30129 56100 59001 70000 87710
AAXX 31121 76902 06/// /0000 10213 20172 39985 40125 53003 60001 7//// 8//// 91150 333 0//// 10341 20213 30/// 4//// 50399 54/// 56/// 57/// 59015 60007 70000 8//// 8//// 8//// 8//// 9/
AAXX 31121 76903 32970 00801 10218 20176 39987 40117 5//// 91140 333 10343 20218 30195 59016 70000
AAXX 31121 76311 32920 00000 10082 20049 39859 40140 56009 91140 333 10332 20080 30060 59013 70000
AAXX 31121 76640 31010 40000 10196 20193 30177 40189 52009 71044 845// 91140 333 10262 20182 30178 563// 58022 70000 84601
AAXX 31121 76647 32970 00901 10206 20200 30157 40187 52004 91150 333 10318 20204 30192 58008 79999
AAXX 31121 76656 32968 00000 10094 20083 38508 40162 54000 91150 333 10268 20080 30043 59003 70000
AAXX 31121 76741 31340 50504 10224 20204 30120 40138 57017 70544 83230 91130 333 10270 20175 30170 5688/ 58002 70000 83808
AAXX 31121 76750 32558 23401 10203 20202 30155 40165 5//// 81107 91145 333 10312 20198 30192 56106 58000 70000 81820
AAXX 31121 76855 32980 03601 10216 20196 30066 40116 5//// 91145 333 10323 20206 30198 55095 59003 70000 92000
AAXX 31124 60715 11558 73115 10145 20109 30212 40219 50006 69961 72162 8687/ 333 58028 50281 83823 83636 86359 91024 91134
AAXX 31124 60723 11560 73008 10123 20117 30058 40249 56006 60101 76062 8428/ 333 50131 84823 84360
AAXX 31124 60725 11560 72906 10138 2//// 30055 40254 50006 60021 70282 878// 333 50151 84820 84630
AAXX 31124 60735 11558 73304 10142 20108 30147 40230 58004 69921 72161 878// 333 50491 84823 84630
AAXX 31124 60745 12560 63311 10165 20036 39879 40248 57012 60001 85202 333 50371 85823
AAXX 31124 60748 12560 82608 10131 20067 39822 40242 51006 60001 888// 333 50391 84823 85640
AAXX 31124 60750 12560 73010 10146 20069 30209 40234 56006 60001 878// 333 83820 85630
AAXX 31124 60760 12560 22710 10174 21003 30156 40260 56017 60001 82200 333 50571 82830 91015 91119
AAXX 31124 60765 12560 42714 10162 20029 30249 40253 56009 60001 84800 333 82820 83630 92446 925//
AAXX 31124 60767 12560 62319 10128 20024 30106 40252 57013 60001 83532 333 50121 83630 83360
AAXX 31124 60769 12560 42816 10159 20054 30229 40233 58009 60001 84800 333 50511 81820 84630
AAXX 31121 76040 32902 00201 10073 20029 30143 40157 52001 91145 33310248 20061 30/// 59013 70000 98602
AAXX 31121 76056 06/// /2603 10121 21052 30125 40149 52004 60001 7////8//// 91150 333 0//// 10247 20108 30/// 4//// 50249 54///55082 56/// 57/// 59007 60007 70000 8//// 8//// 8//// 9/
AAXX 31121 76113 32970 00301 10088 21003 39671 40137 5//// 91150 33310274 20086 30080 50211 55080 59009 70000
AAXX 31121 76122 32956 00000 10022 21034 38550 40197 5//// 91150 33310218 20022 30101 55095 59012 70000
AAXX 31121 76123 06/// 01603 10018 21047 3//// 4//// 5//// 60001 7////80000 91150 333 0//// 10241 20014 4//// 50239 55086 5600057/// 5//// 60007 70000 8//// 8//// 8//// 8//// 9//// 9/
AAXX 31121 76220 32920 00000 11060 21060 38170 40243 5//// 91150 33310220 21060 31084 55099 59001 70000
AAXX 31121 76225 32920 00000 10030 21088 38636 40162 5//// 91145 33310226 20030 31004 59008 70000
AAXX 31121 76226 02/// ///// 1//// 2//// 3//// 4//// 5//// 6//// 7////8//// 9//// 333 0//// 1//// 2//// 30/// 4//// 5//// 54///55/// 56/// 57/// 5//// 6//// 7//// 8//// 8//// 8//// 9/
AAXX 31121 76243 32974 01902 10078 20046 39879 40189 54000 91135 33310258 20064 30058 59011 70000
AAXX 31121 76305 32970 00000 10085 21022 30139 40148 5//// 91150 33310240 20075 30045 59013 70000
AAXX 31121 76323 32950 00000 11012 21058 38292 40247 57005 91140 33310245 21012 31034 59008 70000
AAXX 31121 76342 32940 01703 10100 21026 39499 40213 52002 91150 33310314 20096 30090 58023 70000
AAXX 31121 76373 32910 00000 11014 21120 38239 40192 5//// 91155 33310250 21040 31010 58001 70000
AAXX 31121 76382 32960 20000 10075 20055 38918 40177 52006 82080 91148333 10265 20055 30030 59004 70000 82354
AAXX 31121 76390 31950 02201 10093 21066 38239 40184 57001 70544 91130333 10235 20057 30050 58000 70000
AAXX 31121 76393 32920 01901 10124 20041 39591 40170 52003 91155 33310314 20110 30100 58021 70000
AAXX 31121 76423 32760 30000 10064 21049 38167 40174 52005 82060 91155333 10250 20054 30/// 56090 58003 70000 82358
AAXX 31121 76458 32960 03502 10132 20104 30128 40132 55002 91140 33310264 20103 30096 59016 70000
AAXX 31121 76471 32980 00000 10078 21002 37700 40113 5//// 91150 33310227 20063 30050 55069 58000 70000
AAXX 31121 76490 06/// /2401 10122 20063 39781 40179 53006 60001 7////8//// 91150 333 0//// 10303 20113 30/// 50319 54/// 5507956/// 57/// 58028 60007 70000 8//// 8//// 8//// 8//// 9/
AAXX 31121 76525 32860 31902 10123 20016 37475 40109 57001 82031 91140333 10188 20120 30103 55089 22472 56/55 58001 70000 8235881080
AAXX 31121 76538 06/// /0000 10052 20023 38174 40227 51005 60001 7////8//// 91150 333 0//// 10273 20052 30/// 4//// 50269 54///55074 56/// 57/// 58007 60007 70000 8//// 8//// 8//// 9/
AAXX 31121 76547 06/// /0201 10194 20193 30160 40172 53006 60001 7////8//// 91150 333 0//// 10278 20189 4//// 50269 55074 56///57/// 58020 60007 70000 8//// 8//// 8//// 8//// 9//// 9/
AAXX 31121 76548 32360 43601 10194 20191 30170 40180 53002 84400 91140333 10276 20188 30184 56100 58020 70000 84606
AAXX 31121 76556 32960 01402 10127 20094 39103 40123 56008 91130 33310284 20124 30110 59014 70000
AAXX 31121 76577 32560 83602 10128 20104 38048 40133 51002 85503 91140333 10260 20120 30105 56305 59002 70000 85623
AAXX 31121 76578 06/// /0702 10120 20038 38046 40164 53003 60001 7////8//// 91150 333 0//// 10271 20115 30/// 4//// 50289 54///55052 56/// 57/// 59002 60007 70000 8//// 8//// 8//// 9/
AAXX 31121 76581 32960 01401 10104 20097 39080 40195 5//// 91150 33310305 20040 30030 55100 58024 70000
AAXX 31121 76585 32680 70000 10150 20145 30018 40177 53028 874// 91140333 10280 20134 30124 55079 562// 58025 70000 87640
AAXX 31121 76586 06/// /0000 10170 20170 30021 40179 53005 60001 7////8//// 91150 333 0//// 10299 20144 30/// 4//// 50249 54///55076 56/// 57/// 58025 60007 70000 8//// 8//// 8//// 9/
AAXX 31121 76592 06/// /0905 10214 20055 30175 40175 53006 60001 7////8//// 91150 333 0//// 10310 20214 30/// 4//// 50669 54///55060 56/// 57/// 58006 60007 70000 8//// 8//// 8//// 9/
AAXX 31121 76593 32960 01402 10212 20209 30174 40176 52010 91150 33310310 20208 30204 58005 70000
AAXX 31121 76612 32958 00000 10100 20092 38474 40167 52003 91150 33310271 20100 30088 55087 21079 58006 70000
AAXX 31121 76625 32560 11801 10142 20050 38147 40119 57006 81100 91140333 10268 20138 30124 56200 58000 70000 81825
AAXX 31121 76632 31950 00504 10094 20041 37639 40152 5//// 70500 91140333 10194 20090 30/// 58001 70000 98550
AAXX 31121 76634 31970 01403 10102 20053 37858 40177 5//// 70500 91150333 10247 20095 30066 58001 70000
AAXX 31121 76641 06/// /0000 10183 20182 30165 40177 53007 60001 7////8//// 91150 333 0//// 10274 20183 30/// 4//// 50159 54///55000 56/// 57/// 58024 60007 70000 8//// 8//// 8//// 8/
AAXX 31121 76644 32950 01101 10209 20202 30161 40174 56002 91150 33310318 20209 30199 58005 70013
AAXX 31121 76645 06/// /0802 10208 20205 30165 40178 52006 60001 7////8//// 91150 333 0//// 10318 20208 30/// 4//// 50339 54///55051 56/// 57/// 58006 60007 70014 8//// 8//// 8//// 9/
AAXX 31121 76648 06/// /0801 10202 20189 30144 40175 53005 60001 7////8//// 91150 333 0//// 10325 20202 30/// 4//// 50259 54///55000 56/// 57/// 58006 60007 70000 8//// 8//// 8//// 8/
AAXX 31121 76654 31956 00000 10220 20192 30125 40129 5//// 70544 91150333 10288 20219 30203 59022 70000
AAXX 31121 76659 06/// /0302 10177 20145 3//// 4//// 5//// 60001 7////8//// 91150 333 0//// 10317 20177 30/// 4//// 50349 54///55/// 56/// 57/// 5//// 60007 70000 8//// 8//// 8//// 9/
AAXX 31121 76662 32960 01001 10104 20079 38466 40150 52006 91145 33310290 20090 30074 59003 70000
AAXX 31121 76665 31258 22102 10109 20084 38127 40148 52006 70310 8220091145 333 10272 20100 30086 56100 57812 59001 70000 82805
AAXX 31121 76675 31760 10501 10032 20012 37387 40200 51002 70544 8106091150 333 10212 20019 31007 56090 59002 79999
AAXX 31121 76680 31558 31801 10104 20080 37760 40096 54000 70101 8320091150 333 10233 20100 30086 56500 58000 79999 83825
AAXX 31121 76683 32660 50000 10076 20051 37835 40212 55002 85070 91145333 10245 20076 30050 50271 55063 21177 56070 59001 7004685358
AAXX 31121 76684 06/// /3401 10067 20043 37838 40237 55001 69921 7////8//// 91150 333 0//// 10269 20067 30/// 4//// 50339 54///55/// 56/// 57/// 59001 60007 70048 8//// 8//// 8//// 9/
AAXX 31121 76685 32550 10000 10088 20072 37871 40153 57004 81100 91150333 10256 20086 30060 56900 58000 70030 81827
AAXX 31121 76687 31240 72001 10138 20124 38693 40183 52008 74042 876//91142 333 10243 20136 30130 563// 58018 79999 83708 84610
AAXX 31121 76692 31520 62701 10218 20212 30150 40170 52007 71042 864//91145 333 10270 20214 30210 568// 58019 70000 86630
AAXX 31121 76693 06/// /2701 10217 20211 30151 40170 53008 60001 7////8//// 91150 333 0//// 10270 20214 30/// 4//// 50189 5500056/// 57/// 58015 60007 70000 8//// 8//// 8//// 8//// 9/
AAXX 31121 76695 32956 00602 10205 20198 30152 40158 5//// 91150 33310322 10198 30193 59004 70000
AAXX 31121 76698 32558 10000 10184 20179 30165 40177 5//// 81200 91155333 10313 20184 30156 56200 58000 70000 81820
AAXX 31121 76727 06/// /3501 10148 20054 38393 40130 55010 60001 7////8//// 91150 333 0//// 10289 20148 30/// 4//// 50229 54///55000 56/// 57/// 59007 60007 70000 8//// 8//// 8//// 9/
AAXX 31121 76737 11465 80000 10144 20131 38787 40175 50007 69911 70252886// 91135 333 10239 20136 30115 569// 58016 70010 88710
AAXX 31121 76738 06/// /0101 10145 20134 38789 40181 52010 60001 7////8//// 333 10246 20127 30/// 50179 55000 56/// 57/// 5801660007 70012 8//// 8//// 8//// 8//// 9//// 9//// 9//// 44
AAXX 31121 76743 31940 00901 10230 20204 30138 40146 53007 70000 91150333 10285 20230 30205 59006 70000
AAXX 31121 76751 06/// /3501 10197 20196 30155 40166 53006 60001 7////8//// 91150 333 0//// 10311 20196 30/// 4//// 50239 54///55000 56/// 57/// 58001 60007 70000 8//// 8//// 8//// 9/
AAXX 31121 76772 06/// /2201 10095 20086 38432 40199 53004 60001 7////8//// 91150 333 0//// 10293 20095 30/// 4//// 5///9 5500056/// 57/// 59005 60007 70012 8//// 8//// 8//// 9//// 9/
AAXX 31121 76773 32930 00000 10104 20093 38428 40132 52006 91148 33310287 20092 30081 50121 55084 59002 70012
AAXX 31121 76775 32960 00501 10101 20074 38531 40177 52005 91145 33310296 20096 30/// 59002 70012
AAXX 31121 76776 06/// /0501 10088 20070 38516 40200 53006 60001 7////8//// 91150 333 0//// 10312 20088 30/// 4//// 50349 5506856/// 57/// 59002 60007 70010 8//// 8//// 8//// 9//// 9/
AAXX 31121 76805 32760 23001 10226 20220 30116 40118 53001 82040 91150333 10310 20224 30212 56/6/ 59020 70000 82357
AAXX 31121 76806 06/// /3101 10224 20214 30118 40122 55000 60001 7////8//// 91150 333 10304 20224 30215 30/// 50239 55000 56///57/// 59020 60007 70000 8//// 8//// 8//// 8//// 9//// 9/
AAXX 31121 76840 32920 00205 10260 20193 30063 40129 54000 91145 33310350 20220 30/// 55096 59005 70000
AAXX 31121 76843 32565 53601 10201 20180 39498 40136 52013 85100 91130333 10326 20199 30189 569// 59001 70000 85830
AAXX 31121 76845 31/10 90000 10076 20072 37954 40274 5//// 74744 89///91145 333 10224 20070 30062 59002 70000 89///
AAXX 31121 76848 32450 70502 10143 20118 38388 40111 51004 87600 91155333 10265 20143 30129 56100 59001 70000 87710
AAXX 31121 76902 06/// /0000 10213 20172 39985 40125 53003 60001 7////8//// 91150 333 0//// 10341 20213 30/// 4//// 50399 54///56/// 57/// 59015 60007 70000 8//// 8//// 8//// 8//// 9/
AAXX 31121 76903 32970 00801 10218 20176 39987 40117 5//// 91140 33310343 20218 30195 59016 70000
AAXX 31121 76311 32920 00000 10082 20049 39859 40140 56009 91140 33310332 20080 30060 59013 70000
AAXX 31121 76640 31010 40000 10196 20193 30177 40189 52009 71044 845//91140 333 10262 20182 30178 563// 58022 70000 84601
AAXX 31121 76647 32970 00901 10206 20200 30157 40187 52004 91150 33310318 20204 30192 58008 79999
AAXX 31121 76656 32968 00000 10094 20083 38508 40162 54000 91150 33310268 20080 30043 59003 70000
AAXX 31121 76741 31340 50504 10224 20204 30120 40138 57017 70544 8323091130 333 10270 20175 30170 5688/ 58002 70000 83808
AAXX 31121 76750 32558 23401 10203 20202 30155 40165 5//// 81107 91145333 10312 20198 30192 56106 58000 70000 81820
AAXX 31121 76855 32980 03601 10216 20196 30066 40116 5//// 91145 33310323 20206 30198 55095 59003 70000 92000
AAXX 31124 17024 12670 60804 10099 20053 30030 40108 57020 60001 82550 333 82635 86360 91116 92428
AAXX 31124 17056 11565 80203 10078 20077 30076 40080 50000 60021 76022 8552/ 333 85629 88458 91109 92427
AAXX 31124 17067 12670 60704 10129 20036 30053 40075 57023 60001 83230 333 83840 85360 91112 92418
AAXX 31124 17092 12670 71315 10053 21066 38845 48476 56015 60001 84530 333 84638 87359
AAXX 31124 17112 11456 80406 10075 20067 30055 40057 57013 60071 76022 8572/ 333 82710 83630 88459 91112 92416
AAXX 31124 17115 11656 72503 10056 20043 30016 40068 57022 60011 78022 84250 333 84835 87360
AAXX 31124 17116 11557 70902 10097 20026 39956 40078 57024 69901 78022 84250 333 84830 87359 91110
AAXX 31124 17188 11658 70908 10055 20034 39027 40092 55018 69961 76122 85510 333 85637 87459 91117
AAXX 31124 17202 12670 71010 10048 21024 39160 40205 55012 60001 84550 333 84635 87360
AAXX 31124 17248 12975 42001 10100 21020 38924 48438 57015 60001 82031 333 82360 84070
AAXX 31124 17292 11558 71103 10066 20065 39321 40080 57022 60221 78082 85270 333 85830 87359 91112
AAXX 31124 17300 11460 70407 10112 20088 30034 40106 57028 60011 78088 87900 333 81915 86825
AAXX 31124 17310 11670 71102 10149 20064 30109 40116 57025 69931 70282 83250 333 83835 87360 91105 92428
AAXX 31124 17330 12670 60607 10128 20020 30137 40155 57013 60001 83230 333 83840 86360
AAXX 31124 16622 11360 73419 10050 20020 30094 40105 52009 69921 70262 85650 333 82707 85625 87358 90730 91126 555 30000 10062 2//// 30060 4//// 5//// 40000 47599 44205 50000 50038 60000 65555 60130 70000 77/// 7RY//
AAXX 31124 16641 12470 40000 10124 20070 30066 40071 58003 60001 84202 333 84815 84068 90730 91106 555 40000 47581 44220 50000 50098
AAXX 31124 16682 11460 73004 10118 20082 30040 40059 57003 60041 70262 85805 333 82818 85620 85068 90730 91107 555 30000 10120 20105 30102 40100 50109 60165 40000 47560 44190 50000 50100 60000 65555 60001 70000 77/// 7R///
AAXX 31124 16716 12570 53109 10154 20064 30031 40049 58009 60001 83253 333 83820 83358 555 40000 47553 44195 50000 50110
AAXX 31124 16734 NIL
AAXX 31124 16743 NIL
AAXX 31124 16749 11456 79906 10130 20111 30055 40070 57019 60031 76360 87870 333 82812 87625 87358 90730 91114 555 40000 47572 44205 50000 50120 60000 60027 60110 70000 77R// 7R///
AAXX 31124 16754 11465 61812 10124 20097 39993 40039 57027 60021 70162 84850 333 81818 84635 85358 90730 91118 555 40000 47527 44210 50000 50110 60000 60007 60120 70000 77/// 7R///
AAXX 31124 17026 12670 61606 10122 20013 30077 40116 57016 60001 83250 333 83833 86359 91111 92428
AAXX 31124 17034 12670 70102 10106 20054 30095 40141 55005 60001 83250 333 83835 87360 92428
AAXX 31124 17070 12562 62804 10069 20008 39239 40118 57019 60001 83550 333 83630 86359 91108
AAXX 31124 17084 11660 71702 10035 21027 39241 40169 55013 60001 70522 83570 333 83635 87360 91105
AAXX 31124 17090 12665 71404 10024 21053 38691 48463 55013 60001 84570 333 84640 87360
AAXX 31124 17098 12660 32801 11097 21097 38193 48514 57013 60001 83500 333 83635
AAXX 31124 17150 11412 70000 10042 20035 39950 40076 57021 60011 71082 85250 333 82715 84835 86360
AAXX 31124 17160 12670 71905 10056 21019 38974 48443 55008 60001 84470 333 84640 87360 91108
AAXX 31124 17184 11660 73202 10088 20082 39959 40071 57022 60011 72582 84220 333 84840 87460 91104
AAXX 31124 17189 12670 71511 10060 20020 38939 48409 57020 60001 84550 333 84635 87360
AAXX 31124 17210 12670 81502 10070 21017 39154 40200 57009 60001 8452/ 333 84633 88459
AAXX 31124 17234 11660 71104 10088 20080 30008 40076 57028 60091 78022 84270 333 84838 87359 91111
AAXX 31124 17260 11556 70609 10050 20000 39351 40183 57010 60001 71022 84550 333 84630 87359
AAXX 31124 17290 11558 71606 10125 20107 30028 40060 57021 60021 79598 85970 333 81920 84830 87359 91126 9242 6
AAXX 31124 17370 11665 71405 10118 20035 30153 40157 57012 60011 70282 84270 333 84835 87460 92417
AAXX 31121 26509 32497 33204 10033 21021 30073 40082 52003 83200 333 91007 91107 555 1/001
AAXX 31121 26518 31670 62502 10000 21003 39872 40079 52001 70242 86500 333 91003 91103 555 1/001 4/997
AAXX 31121 26524 32598 72701 10014 21005 39939 40073 51002 87500 333 87631 91003 91104 555 1/002
AAXX 31121 26531 32768 63002 10017 21002 39990 40066 51004 84570 333 91003 91104 555 1/002
AAXX 31121 26629 /1658 83102 10008 20005 39979 40076 52004 71072 885// 333 88648 91004 91105 937// 555 1/001 4/001 69901
AAXX 31121 26633 /1227 83201 10003 21003 39930 40062 51001 77177 8872/ 333 88704 91003 91103 555 1/100 4/004 60021
AAXX 31121 26730 /1216 83102 11001 21001 39870 40063 52002 77176 8802/ 333 88504 91004 91105 555 1/000 42003 60031
AAXX 31121 26645 41246 82301 10001 21005 39795 40057 57005 77172 8872/ 333 88703 555 14100
AAXX 31121 26659 41336 81701 10000 21003 39849 40066 58009 71072 886// 333 88707 555 1/000
AAXX 31121 26763 41332 81604 10004 21007 39846 40076 58010 77172 8872/ 333 88708 555 1/000
AAXX 31121 26825 41335 83004 10004 21002 39890 40075 52005 72272 886// 333 88707 555 1/000
AAXX 31121 26832 41231 82702 10008 21000 39870 40064 58003 77172 8872/ 333 86704 555 11000
AAXX 31121 26887 42597 71602 10011 21012 39887 40094 58012 83530 555 11001
AAXX 31121 26961 41458 82202 10003 21006 39888 40083 57006 72682 883// 333 88914 555 1////
AAXX 31121 33027 41996 80000 10011 20003 39923 40092 58003 71072 8802/ 555 11001
AAXX 31121 14240 11/08 91901 11001 21011 30033 40194 57014 60001 74544 333 70001
AAXX 31121 14258 11/05 92802 11013 21013 39998 40194 57014 60001 74344 333 70000
AAXX 31121 14445 12684 10608 10086 21074 39999 40154 51001 60001 81100 222// 00140 333 70019 81896 91119 91506 92323
AAXX 31121 01271 17/81 01106 11057 21076 30034 40056 58021 6//// 700// 333 91108
AAXX 31121 01415 17/72 31407 10025 21022 30024 40035 58013 6//// 761// 333 91113
AAXX 31121 15502 12970 32904 10074 21004 30102 40141 58008 60001 82055 333 10078 21012 555 558//
AAXX 31121 15525 11516 80000 10009 21002 39877 40149 58006 60031 77172 8802/ 333 10009 21002 47002 555 59202 69999 71253
AAXX 31121 15528 11506 82502 10004 21007 39933 40128 58005 60011 77377 8802/ 333 10010 21018 41998 555 592// 69999 71249
AAXX 31121 15535 11506 80000 10004 21002 30084 40132 58004 69941 77174 8802/ 333 10006 21005 47997 555 59600 69999
AAXX 31121 15549 11435 83602 11004 21014 39716 40143 58005 60011 77172 8872/ 333 10005 21007 47001 555 59201 61899 71250
AAXX 31121 15552 11440 80202 10031 20002 30070 40120 58009 69901 76162 8802/ 222// 314// 4//00 333 10040 20022 555 58100 65499 71200 92012 92416
AAXX 31121 15614 11540 80000 10004 21010 39427 40147 58001 60031 77377 8802/ 333 10010 21030 48008 555 589// 69999 71253
AAXX 31121 15615 11/05 90506 11128 21143 36989 47914 58004 60021 77177 333 11094 21128 555 588// 69999 71245 92711
AAXX 31121 15626 11630 82704 10006 20000 39929 40122 58010 60091 77177 8802/ 333 10008 21002 47006 555 59605 69999 71268
AAXX 31121 15627 11/03 90206 11105 21118 37512 47925 58015 60181 77374 333 11085 21105 48031 93505 555 590// 69999 92713 93018
AAXX 31121 15640 11462 80204 10030 21014 39796 40113 58013 69921 75152 8802/ 333 10052 20020 555 57300 69999 71200
AAXX 31121 15655 11556 83408 10029 20013 30074 40108 58009 60021 76362 8802/ 222// 00078 20501 333 10053 20025 555 58902 63699 71248 81341 92025 92426
AAXX 31121 15712 11920 80901 10012 21005 39857 40113 58002 60071 77177 8802/ 333 10014 21009 47009 555 58901 69999 71251
AAXX 31121 15730 11630 83402 10012 20008 39709 40108 58008 60101 77174 885// 333 10015 21004 47009 555 59704 69999 71253
BBXX BATUK01 31124 99560 70032 46/// /2305 10115 20070 49987 58020 22200 00057
AAXX 31124 08001 NIL
AAXX 31124 08015 12565 61402 10136 20069 39902 40306 58004 60001 83541
AAXX 31124 08023 11565 73013 10140 20115 30229 40300 58004 69901 71562 8587/
AAXX 31124 08027 11472 83008 10122 20103 39985 40297 58004 69901 76062 888//
AAXX 31124 08045 01110 82207 10081 20072 30030 40348 58005 69911 75052 8877/ 333 69917
AAXX 31124 08141 12770 21803 10056 21004 39452 40333 58010 60001 81041 333 5///1
AAXX 31124 08160 12782 23014 10135 20030 39989 40299 58006 60001 81531
AAXX 31124 08181 02677 33312 10146 20033 30236 40242 58014 60001 83871 333 60007
AAXX 31124 08221 02980 20000 10089 21005 39627 40323 58010 60001 80001 333 60007
AAXX 31124 08231 12870 73302 10131 20043 39201 48607 58011 60001 82038
AAXX 31124 08261 12982 30501 10100 20031 39858 40348 58001 60001 80001
AAXX 31124 08284 02982 32410 10199 20031 30193 40267 58015 60001 81048 333 60007
AAXX 31124 08306 12980 12509 10171 20095 30248 40254 58019 60001 80008
AAXX 31124 08314 02972 22714 10152 20082 30145 40248 58010 60001 81032 333 60007
AAXX 31124 08430 12980 23107 10198 20013 30209 40283 58010 60001 80001
AAXX 31124 08482 12980 11507 10178 20084 30282 40290 57011 60001 80001
AAXX 31124 60106 32965 01810 10145 20067 40330 58010
AAXX 31124 60141 32960 03502 10138 20030 39648 40320 56011
AAXX 31124 60318 32960 02516 10177 20059 40309 56010
AAXX 31124 78016 32364 61810 10211 20196 30246 40250 53014 84170 333 10206 20191 70061
AAXX 31121 06447 16/// /2604 10102 20096 39990 40114 54000 60021 333 91109 91205
BBXX MINUK01 3112/ 99571 70021 46/// ///// 10078 49972 57018
AAXX 31124 17500 11560 71109 10138 20103 30082 40142 57021 69921 70382 85931 333 81925 84830
AAXX 31124 17501 12560 71003 10146 20104 30108 40127 55019 60001 84950 333 81925 83830 85360 92437
AAXX 31124 17505 11560 70908 10139 20091 30025 40138 57020 69921 70281 84950 333 81925 83830 85360
AAXX 31124 17507 11560 71113 10138 20102 30026 40146 56020 69911 72522 85931 333 81925 84830
AAXX 31124 17510 11560 71212 10145 20096 30106 40116 57016 69901 70281 82830 333 81630 81830 87360 92437
AAXX 31124 17515 11560 70510 10129 20089 39978 40153 57019 69921 70281 84850 333 82825 83630 85360
AAXX 31124 17521 11560 70810 10132 20100 39994 40135 57018 69921 70381 85850 333 82825 84630 87360
AAXX 31124 17530 11560 70713 10139 20096 30091 40148 57019 69921 72581 84850 333 82825 83630 85360
AAXX 31124 17535 12560 70604 10136 20089 30096 40132 57015 60001 84850 333 82825 83630 85360
AAXX 31124 17540 12560 70414 10153 20096 30137 40156 56019 60001 84850 333 81625 83830 85360 92427
AAXX 31124 17547 12560 70610 10118 20085 39902 40146 56013 60001 84850 333 81625 83830 85360 92427
AAXX 31124 17550 11560 70510 10128 20085 39997 40142 57014 69921 72511 84850 333 82825 83630 85360 92447
AAXX 31124 17572 11560 7//// 10149 20099 30121 40145 57018 69911 70281 82830 333 81630 81830 92437
AAXX 31123 04013 42584 81109 10026 20016 49606 57015 83220 555 3//13
AAXX 31123 04064 42680 62302 10020 20012 49629 57035 70182 83232 555 3//05
AAXX 31124 17042 12970 02601 10125 20032 30108 40148 55002 60001 333 92428
AAXX 31124 17074 12565 80203 10013 21028 39200 40166 57013 60001 8452/ 333 84630 88460 91105
AAXX 31124 17086 12670 71004 10086 21036 39422 40139 55010 60001 84520 333 84635 86460
AAXX 31124 17088 12670 81407 10058 21064 38765 48467 57015 60001 8452/ 333 84640 88460
AAXX 31124 17140 11458 82004 10034 21022 38651 48440 57012 69901 77022 8672/ 333 82710 85637 88459 93100
AAXX 31124 17155 12670 71504 10061 20019 38972 40096 57020 60001 85550 333 85635 87359 91112
AAXX 31124 17203 11658 80000 11001 21052 38885 48527 57017 69901 77022 8552/ 333 85633 88457 93100
AAXX 31124 17237 11665 71105 10113 20048 39570 40071 57023 69921 78022 85250 333 85833 87358 91113
AAXX 31124 17250 12975 32405 10087 21032 38750 48445 57015 60001 83050 333 83360
AAXX 31124 17270 11556 81205 10074 20023 39526 40183 57011 60001 71022 8761/ 333 83720 84635 88460
AAXX 31124 17295 11460 71213 10131 20093 30077 40084 57029 60211 72598 84950 333 81910 83820 86358
AAXX 31124 17320 11556 70304 10123 20032 30140 40145 56013 69921 78022 85270 333 85830 87358 92456
AAXX 31124 17375 11556 73505 10102 20102 30105 40107 57024 60081 79596 85970 333 81927 84829 87358 91110 92436
AAXX 31124 16643 12460 40000 10124 20061 30071 40076 56004 60001 83760 333 82710 83630 90730 91109 555 40000 47584 44210 50000 50094
AAXX 31124 16648 12360 72806 10064 20046 39994 40085 58002 60001 85670 333 83708 85625 87357 90730 91110 555 30000 10060 2//// 30062 40052 5//// 6//// 40000 47526 44210 50000 50056 70000 77/// 7/Y//
AAXX 31124 16650 11560 60407 10120 20096 30038 40042 57012 60131 70392 84555 333 84620 84358 86068 90730 91111 555 30000 10110 20104 30092 40098 50096 60118 40000 47559 44220 50000 50108 60000 65555 60000 70000 77/// 7T///
AAXX 31124 16684 12465 62818 10110 20064 30022 40049 55003 60001 84601 333 81712 84625 90730 91124 555 40000 47547 44210 50000 50088
AAXX 31124 16732 12470 71913 10152 20094 30030 40042 57023 60001 85846 333 82818 84625 86068 90730 91122 555 40000 47546 44150 50000 50122
AAXX 31124 60710 11560 82727 10149 20103 30158 40237 50003 60041 70282 8498/ 333 50901 84820 81926 86360
AAXX 31124 60714 11458 83417 10140 20117 30229 40235 58004 60041 72186 888// 333 50451 84816 86630
AAXX 31124 60720 12560 43112 10161 20102 30171 40205 56003 60001 84800 333 50371 83820
AAXX 31124 60728 12560 63114 10138 20133 30117 40211 58003 60001 84802 333 5//// 83820 83070
AAXX 31124 60729 11556 73110 10128 20117 30050 40238 58003 69921 70262 878// 333 50201 82820 86623
AAXX 31124 60731 NIL
AAXX 31124 60732 12560 62914 10117 20042 39638 40250 50009 60001 86800 333 50141 83820 84626
AAXX 31124 60734 11558 73010 10105 20099 39709 40235 57005 60011 70282 878// 333 50181 84823 84630
AAXX 31124 60738 12006 8//// 10056 20056 38994 48551 56002 60001 887// 333 50101 88700
AAXX 31124 60739 12558 63328 10102 20044 39411 40238 57016 60001 85882 333 50241 81830 85833 94269
AAXX 31124 60740 12460 63113 10152 20098 30220 40222 56006 60001 85880 333 50161 83816 83623
AAXX 31124 60742 NIL
AAXX 31124 60764 12562 32508 10161 20038 30212 40264 58014 60001 83200 333 50701 83830
AAXX 31124 60770 12675 72817 10157 20049 30106 40245 58014 60001 8558/ 333 50301 85640 83360
AAXX 31124 60772 12565 52617 10146 20028 39992 40249 56012 60001 85800 333 5///1 82823 84630
AAXX 31124 60775 12575 43012 10139 20002 39901 40259 56016 60001 83580 333 5///1 83626
AAXX 31124 60780 12960 13010 10123 20013 39977 40288 58015 60001 81080 333 5///1 81360
AAXX 31124 16614 11560 63519 10032 21029 39319 40105 50002 60001 70341 84550 333 84620 84358 90730 91131 555 70000 77/// 7FY//
AAXX 31124 16627 11460 70218 10062 20039 30066 40070 57010 60051 72162 86770 333 82715 86625 87357 90730 91129 555 30000 10060 20062 30062 40064 50072 6//// 40000 47583 44240 50000 50052 60000 60025 60230 70000 77R// 7R///
AAXX 31124 16667 11458 81906 10090 20073 30060 40066 57018 60111 76162 8682/ 333 83818 85620 88457 90730 91122 555 30000 20096 30100 40000 47571 44170 50000 50082 60000 60102 60300 70000 77R// 7R///
AAXX 31124 16675 NIL
AAXX 31124 16710 36/// /0000 10091 20020 39290 40051 57011 333 90730 91108
AAXX 31124 16723 11460 71206 10126 20099 30042 40058 57024 60061 76062 86870 333 82816 85625 87358 90730 91115 555 40000 47563 44210 50000 50112 60000 60044 60230 70000 77R// 7R///
AAXX 31124 16738 17/// /9904 10128 20087 39845 40042 57015 69971 741// 333 90730 91113 555 60000 60007 60037
AAXX 31124 16746 11559 73014 10130 20111 39858 40038 57020 60041 76162 85870 333 82820 85625 87358 90730 91122 555 40000 47422 44180 50000 50120 60000 65555 60015 70000 77R// 7R///
AAXX 31121 14241 11/04 92102 11014 21018 30058 40194 58014 60001 74742
AAXX 31121 14284 11965 02704 10055 20009 30071 40181 52012 60001 70241
AAXX 31121 14307 32984 21501 10106 21038 30105 40182 57011 80001 333 70000
AAXX 31121 14317 NIL
AAXX 31121 14431 12770 13001 10106 21054 30081 40175 57003 60001 81100 333 81850
AAXX 31121 14444 33984 00605 10102 21051 30134 40163 52006 333
AAXX 31121 14474 12782 10210 10093 21067 39935 40126 51011 60001 81100 333 91126 91506
AAXX 31124 17026 12670 61606 10122 20013 30077 40116 57016 60001 83250 333 83833 86359 91111 92428
AAXX 31124 17034 12670 70102 10106 20054 30095 40141 55005 60001 83250 333 83835 87360 92428
AAXX 31124 17070 12562 62804 10069 20008 39239 40118 57019 60001 83550 333 83630 86359 91108
AAXX 31124 17084 11660 71702 10035 21027 39241 40169 55013 60001 70522 83570 333 83635 87360 91105
AAXX 31124 17090 12665 71404 10024 21053 38691 48463 55013 60001 84570 333 84640 87360
AAXX 31124 17098 12660 32801 11097 21097 38193 48514 57013 60001 83500 333 83635
AAXX 31124 17150 11412 70000 10042 20035 39950 40076 57021 60011 71082 85250 333 82715 84835 86360
AAXX 31124 17160 12670 71905 10056 21019 38974 48443 55008 60001 84470 333 84640 87360 91108
AAXX 31124 17184 11660 73202 10088 20082 39959 40071 57022 60011 72582 84220 333 84840 87460 91104
AAXX 31124 17189 12670 71511 10060 20020 38939 48409 57020 60001 84550 333 84635 87360
AAXX 31124 17210 12670 81502 10070 21017 39154 40200 57009 60001 8452/ 333 84633 88459
AAXX 31124 17234 11660 71104 10088 20080 30008 40076 57028 60091 78022 84270 333 84838 87359 91111
AAXX 31124 17260 11556 70609 10050 20000 39351 40183 57010 60001 71022 84550 333 84630 87359
AAXX 31124 17290 11558 71606 10125 20107 30028 40060 57021 60021 79598 85970 333 81920 84830 87359 91126 92426
AAXX 31124 17370 11665 71405 10118 20035 30153 40157 57012 60011 70282 84270 333 84835 87460 92417
AAXX 31121 14008 12099 73207 11099 21128 37408 47950 58013 60001 82870 333 95177 444 56086
AAXX 31121 14015 11459 60301 10006 21014 39828 40198 58020 60001 71022 84502 333 82618 83635
AAXX 31121 14023 12799 51302 10039 21019 39884 40184 58020 60001 81178 333 81850
AAXX 31121 14024 12899 42203 10006 21108 39062 48455 57013 60001 82035 333 95000 95182 333 56046
AAXX 31121 14026 12898 21903 10061 21022 39849 40172 58020 60001 82070
AAXX 31121 14031 12997 13101 10052 21008 39945 40176 57019 60001 81070
AAXX 31121 14105 12799 32601 10099 21022 30176 40181 58014 60001 81101 333 81850
AAXX 31121 14106 12999 51101 10069 21016 30111 40180 58012 60001 80008 333 95000
AAXX 31121 14112 12/97 42702 10016 29088 60001
AAXX 31121 14121 12497 70000 10000 21006 39914 40188 58017 60001 87500 333 87610
AAXX 31121 14122 11250 82503 11004 21009 39993 40196 57014 60001 71022 886// 333 88705
AAXX 31124 17022 12662 52802 10122 20043 39931 40096 57020 60001 82135 333 82834 83360 85070 91112 92427
AAXX 31124 17031 12670 72104 10143 21014 30118 40124 57009 60001 83250 333 83836 87360
AAXX 31124 17038 12965 50602 10132 20065 30087 40138 56006 60001 85030 333 85360 92427
AAXX 31124 17050 11558 83506 10032 20031 30034 40097 55008 60061 76162 8552/ 333 85630 88458 91113
AAXX 31124 17060 12560 70802 10109 20022 30040 40080 56018 60001 84250 333 84830 86359
AAXX 31124 17096 11560 70808 11034 21055 38225 48503 57008 69901 77071 85560 333 85625 87357 93197
AAXX 31124 17124 12660 70906 10046 20006 39186 40118 57022 60001 84570 333 84635 86360
AAXX 31124 17128 11458 70107 10017 21001 39034 40162 57015 69941 72272 85520 333 82710 84640 87458 93100 96010
AAXX 31124 17170 NIL
AAXX 31124 17195 11656 30000 10071 21029 38923 48443 57014 60001 70511 83100 333 83840
AAXX 31124 17199 12670 70401 10041 21018 39077 40190 55012 60001 83550 333 83635 87360
AAXX 31124 17219 11565 71907 10093 20074 39922 40067 56022 60041 78082 84250 333 84830 87360 91120
AAXX 31124 17240 11560 71308 10048 20020 38955 40108 57020 69941 78062 85250 333 85830 87360
AAXX 31124 17244 12670 71710 10067 21001 38931 48431 57020 60001 84520 333 84635 87459
AAXX 31124 17280 11660 71504 10072 20003 39392 40197 55013 69901 70262 84250 333 84835 87359
AAXX 31124 17350 12660 70512 10106 20023 30077 40156 57017 60001 84250 333 84835 87360
AAXX 31124 93004 16/// /2218 10172 20172 40037 52008 69981 333 10200
AAXX 31124 93023 16/// /3504 10190 20187 40033 57005 60041 333 10228
AAXX 31124 93069 16/// /0510 10196 20190 40038 57011 6///1 333 10220
AAXX 31124 93110 17396 /0310 10201 20195 40036 57005 60001 333 10235
AAXX 31124 93186 17396 /0109 10203 20200 40055 57008 69961 333 10209
AAXX 31124 93196 16/// /3619 10191 20189 40083 57010 60001 333 10215
AAXX 31124 93245 16497 /0905 10181 20171 40057 57011 60071 333 10233
AAXX 31124 93292 17297 /1406 10168 20166 40080 57007 60041 333 10261
AAXX 31124 93309 17498 /1514 10153 20145 40041 57011 60061 333 10198
AAXX 31124 93334 16/// /0000 10132 20122 39129 57008 69961 333 10199
AAXX 31124 93339 16/// /0607 10133 20123 39136 57006 69961 333 10189
AAXX 31124 93373 17498 /2304 10158 20146 40082 57013 60051 333 10203
AAXX 31124 93404 17998 /1211 10142 20115 40076 57011 60011 333 10172
AAXX 31124 93420 17998 /1910 10138 20098 40075 57014 69921 333 10158
AAXX 31124 93439 17597 /1718 10131 20098 40105 57019 69941 333 10138
AAXX 31124 93498 16/// /2119 10131 20131 40084 57015 60051 333 10154
AAXX 31124 93515 17997 /0807 10168 20138 40071 57005 60001 333 10247
AAXX 31124 93527 16/// /1517 10146 20103 40076 57008 60001 333 10154
AAXX 31124 93546 17798 /1707 10166 20111 40082 57005 69941 333 10201
AAXX 31124 93597 16/// /1621 10132 20101 40102 57013 60001 333 10146
AAXX 31124 93615 17/98 /1003 10129 20101 40076 57010 60001 333 10269
AAXX 31124 93678 16898 /2003 10120 20088 40120 57022 60001 333 10143
AAXX 31124 93709 16/// /0000 10125 20116 40082 57004 60001 333 10221
AAXX 31124 93773 17/98 /0402 10099 20091 40104 57024 60001 333 10199
AAXX 31124 93781 17998 /0707 10113 20087 40114 57025 60001 333 10170
AAXX 31124 93800 NIL
AAXX 31124 93805 NIL
AAXX 31124 93831 17/98 /0303 10135 20104 40077 54000 60001 333 10257
AAXX 31124 93845 17/97 /2406 10109 20101 40080 57014 60001 333 10204
AAXX 31124 93891 17/98 /0613 10119 20088 40076 57028 60001 333 10196
AAXX 31124 93909 16/// /2708 10108 20094 40082 57017 60001
AAXX 31124 93929 16/// /3023 10100 20097 40003 57031 60001
AAXX 31124 93947 16/// /3416 10095 20092 49978 57030 69961
AAXX 31124 93987 NIL
AAXX 31124 93994 16/// /0902 10214 20206 40141 57009 60001
AAXX 31121 13160 32997 03302 10056 20002 30070 40180 56004
AAXX 31121 13262 32697 53201 10057 21002 30034 40185 57013 85800
AAXX 31121 13272 11560 53304 10049 21001 30053 40175 57008 71011 85200 333 82720 85833
AAXX 31121 13285 31696 82701 10016 20001 30070 40175 58003 71022 885//
AAXX 31121 13289 31/92 93111 11041 21046 38913 48411 58003 74544 333 91022 91123
AAXX 31121 13376 11697 73004 10038 20004 39914 40181 58007 69921 70275 87500
AAXX 31121 13388 11596 63303 10026 20007 39912 40165 50000 69901 71027 86500
AAXX 31121 13462 32670 20108 10098 21056 30090 40130 52001 81530 333 81634
AAXX 31121 13473 NIL
AAXX 31121 13489 11596 80603 10012 21002 39627 40156 52001 69901 71072 886//
AAXX 31121 26242 21684 82601 11001 21020 39968 40056 52007 70272 875// 333 10007 21007 60007 87643 555 1/000 21007 3/101 50010 52102
AAXX 31121 12160 11470 23002 10029 20008 30052 40105 52006 69941 70181 81230 333 93094
AAXX 31121 12205 12476 72702 10033 20012 30118 40126 50002 60001 875// 333 93000
AAXX 31121 12465 11361 82705 10026 20017 39883 40120 51003 69901 70265 885// 333 86707 88614 93097
AAXX 31121 12566 11358 82606 10014 20005 39845 40145 53005 69921 76872 875// 333 83709 87613 93092
AAXX 31121 12120 12970 02404 10039 20011 30102 40109 53003 60001 333 93000
AAXX 31121 12250 11563 32802 10034 20010 30023 40113 52004 69901 70361 83200 333 93097
AAXX 31121 12295 11232 82703 10002 20002 39899 40086 52006 60011 77172 8772/ 333 87703 93001
AAXX 31121 12330 11470 72705 10027 21002 30018 40128 52002 69901 70382 879// 333 93097
AAXX 31121 12375 11250 82704 10020 20017 39974 40107 53003 60011 72582 877// 333 87706 93001
AAXX 31121 12424 11482 62805 10039 20013 39984 40138 58005 69901 70182 86800 333 82813 93097
AAXX 31124 08055 12984 52714 10104 20064 39241 48605 58010 60001 82042 333 5///0 95000
AAXX 31124 08075 12575 22106 10074 20013 39270 48601 58010 60001 82500 333 5///1
AAXX 31124 08084 02682 22708 10120 20024 39871 40306 58011 60001 82500 333 60007
AAXX 31124 08171 12881 10701 10130 20052 30037 40277 58003 60001 81040
AAXX 31124 08184 06/// /0000 10155 20060 30075 40229 58013 60001 333 60007
AAXX 31124 08202 02970 32705 10098 20024 39389 42918 58006 60001 80006 333 5///0 60007
AAXX 31124 08235 NIL
AAXX 31124 08238 NIL
AAXX 31124 08280 12980 53013 10124 20014 39473 40297 58014 60001 81031
AAXX 31124 08330 12960 12501 10089 20023 30101 40337 58007 60001 80001
AAXX 31124 08348 12965 63102 10092 20028 39584 40334 58006 60001 80002
AAXX 31124 08360 02984 00807 10184 20023 30238 40276 58007 60001 333 60007
AAXX 31124 08373 02965 12310 10173 20097 30244 40265 58011 60001 80001 333 60007
AAXX 31124 08410 06/// /0503 10108 20013 30213 40326 58013 60001 333 60007
AAXX 31124 08419 02970 60000 10105 21022 39633 40311 58018 60001 80004 333 60007
AAXX 31124 08451 02980 23206 10144 20049 30291 40324 58007 60001 80001 333 60007
AAXX 31124 08487 02984 12207 10163 20091 30263 40288 58010 60001 80001 333 60007
AAXX 31121 12105 12581 52302 10039 20019 30074 40117 52002 60001 85200 333 93000
AAXX 31121 12195 11260 73303 10004 20000 39853 40084 53007 69911 70182 876// 333 93091
AAXX 31121 12235 12580 33102 10018 21009 39903 40117 51005 60001 83200 333 93000
AAXX 31121 12270 11458 73303 10010 20009 39920 40105 53005 60001 71022 875// 333 93000
AAXX 31121 12280 11480 73103 10020 20005 39936 40095 53011 69901 70281 8653/ 333 93097
AAXX 31121 12300 12470 73003 10027 20009 30038 40129 58002 60001 875// 333 93000
AAXX 31121 12400 11570 62802 10028 20007 39895 40134 58005 69901 70382 85230 333 93097
AAXX 31121 12435 12462 82806 10023 20004 39955 40130 52003 60001 885// 333 93000
AAXX 31121 12495 11463 82603 10014 20005 39819 40116 53002 69901 72622 885// 333 93097
AAXX 31121 12530 11465 73003 10034 20011 39938 40140 58004 69901 70182 878// 333 84816 93097
AAXX 31121 12570 11258 82702 10013 20009 39803 40127 53002 69931 72687 885// 333 86704 88611 93093
AAXX 31121 12580 11470 72506 10024 20008 39867 40130 56003 69901 70182 8583/ 333 83813 93097
AAXX 31124 06030 02970 51302 10020 20005 30068 40084 56007 6///1 85072 333 6///7 85360
AAXX 31124 06060 01770 41804 10028 20017 30013 40079 57012 69921 72581 81531 333 69927 81650 84068
AAXX 31124 06070 05570 11503 10036 20022 30061 40091 57011 69911 333 69917 81/32
AAXX 31124 06120 36/05 /1906 10018 20017 30069 40095 57008
AAXX 31124 06180 01658 32302 10023 20018 30097 40103 57004 69911 71040 82531 333 6///7 82638 83075
AAXX 31124 06193 05/84 02409 10028 21002 30096 40108 57003 6///1 333 55302 20342 6///7
AAXX 31121 26106 42/97 62202 10019 21023 30023 40066 52001 82531
AAXX 31121 26313 43/// /3003 10025 21039 30056 40063 52003
AAXX 31121 26346 41597 80000 11006 21017 39812 40059 52002 70371 885// 333 88621
AAXX 31121 26406 41566 53003 10033 21038 30073 40079 52004 70282 82332
AAXX 31121 26416 43/// /2702 10001 21008 39932 40074 52001
AAXX 31121 26424 42998 62803 10012 21009 30016 40070 52001 86030
AAXX 31121 26544 41456 80000 11001 21004 39904 40059 57002 78582 889//
AAXX 31124 78948 11578 10924 10275 20244 30168 40176 60001 70500 81800 333 00200 10296 20260 58002 79999 81822
AAXX 31121 13168 32697 12904 10055 20021 30071 40179 58003 81100
AAXX 31121 13174 32698 53204 10049 20007 30065 40167 58006 85200
AAXX 31121 13269 32598 52403 10042 20014 39965 40183 57007 85500
AAXX 31121 13274 32597 73002 10044 20001 30013 40177 58008 87800
AAXX 31121 13278 31596 83202 10032 20003 39948 40177 58004 71022 885//
AAXX 31121 13378 11/93 90204 11080 21091 38197 48415 50001 69951 77174
AAXX 31121 13397 11598 83006 10018 21022 39603 40150 56003 69941 70272 885// 333 91012 91112
AAXX 31121 13457 32970 00206 10110 21053 30117 40124 54003
AAXX 31121 13481 NIL
AAXX 31121 13173 32698 52903 10053 21001 30070 40172 57005 85200
AAXX 31121 13180 32697 73202 10036 20020 30061 40173 56005 87500
AAXX 31121 13266 32698 23303 10060 20015 30076 40178 57014 82200
AAXX 31121 13369 11598 83403 11025 21061 38951 48425 51003 69911 70272 885//
AAXX 31121 13383 11697 80901 10019 20009 39966 40174 58002 69901 70262 885//
AAXX 31121 13384 31696 83601 10020 20009 30021 40177 58005 71022 885//
AAXX 31121 13389 11597 83602 10026 21002 39882 40169 51002 69901 72277 886//
AAXX 31121 13477 NIL
AAXX 31124 65501 32960 70202 10272 21091 39839 40155 80002 333 0//00 59003 87076
AAXX 31124 65502 32965 60410 10255 21069 39773 40156 80002 333 0//00 59003 86076
AAXX 31124 65503 32960 50808 10273 20025 39806 40152 80002 333 0//00 59002 85076
AAXX 31124 65505 32965 33606 10265 21016 39816 40157 80002 333 0//00 59001 83076
AAXX 31124 65507 32960 70406 10293 21006 39788 40137 80002 333 0//00 59003 87076
AAXX 31124 65510 31958 50412 10255 21006 39630 40147 70622 80002 333 0//00 59004 85076
AAXX 31124 65516 32965 50408 10269 21010 39840 40148 80002 333 0//00 59001 85076
AAXX 31124 65518 32965 70806 10286 21035 39769 40132 80002 333 0//00 59003 87076
AAXX 31124 65522 32960 70410 10278 21027 39811 40140 80002 333 0//00 59002 87076
AAXX 31121 15501 12970 03207 10063 21005 30091 40135 58007 60001 333 10064 21007 555 562//
AAXX 31121 15505 11668 82902 10025 21011 39767 40146 57004 69981 70272 885// 333 10030 21006 42001 555 577//
AAXX 31121 15511 12968 73204 10046 20007 30117 40157 58007 60001 84058 333 10046 20009 555 576//
AAXX 31121 15514 12962 83204 10023 21020 30111 40147 54000 60001 8802/ 333 10026 20002 555 573//
AAXX 31121 15530 11930 80000 10006 21008 39904 40148 58005 60041 77372 8802/ 333 10008 21018 47007 555 59003 69999 71259
AAXX 31121 15533 11511 80000 10007 21001 30082 40115 58011 69931 77172 8802/ 333 10017 21004 555 59400 69999
AAXX 31121 15550 11/07 93601 10002 21004 30110 40130 57001 69901 77174 333 10009 21002 555 59600 67199
AAXX 31121 15561 12465 83406 10044 20019 30112 40119 58012 60001 885// 222// 00074 2//01 333 10052 20005 555 584// 81280 92024 92427
AAXX 31121 15562 11450 83608 10034 20013 30047 40120 58016 60001 71022 886// 222// 2//02 333 10038 20020 555 586// 92035 92436
AAXX 31121 15600 11/00 93612 11072 21072 38207 48417 50002 60031 77374 333 11068 21072 47009 555 500// 60900
AAXX 31121 15601 11670 80000 10028 21035 39488 40113 54000 69901 70272 885// 333 10028 21030 41998 555 563// 71200
AAXX 31121 15605 11668 72905 11004 21030 39275 40135 58009 69921 70172 87500 333 10000 21016 44004 555 581// 69299 71250
AAXX 31121 15613 11/01 90212 11108 21112 37615 47940 51004 69911 77174 333 11086 21108 48046 555 597// 61199 71200 92711
AAXX 31121 15628 11518 82503 10006 21002 39865 40128 56005 60101 77377 8802/ 333 10006 21013 47012 555 59404 69999 71255
AAXX 31121 15642 11568 80503 10018 20015 39922 40093 58003 60101 76162 8802/ 333 10030 20014 555 59806 69999 71245
AAXX 31121 15661 12565 80204 10060 20046 30067 40103 58004 60001 885// 222// 00080 20401 333 10080 20045 555 591// 92023 92427
AAXX 31121 15726 11/02 93604 11063 21067 38146 48417 58004 60121 77377 333 11025 21063 49048 92982 555 59704 69999 71257
AAXX 31124 65306 32960 50000 10320 20004 39803 40133 80002 333 0//00 59006 85076
AAXX 31124 65319 32958 51404 10323 20052 39622 40130 80002 333 0//00 58006 85076
AAXX 31124 65330 31956 50404 10322 20002 39681 40114 70522 80002 333 0//00 59004 85076
AAXX 31124 65335 32958 50806 10328 20068 39892 40115 80002 333 0//00 59004 85076
AAXX 31124 65344 32458 62208 10307 20227 30110 40121 82802 333 0//00 58000 81612 85076 94901 95831
AAXX 31124 60020 NIL
AAXX 31124 60030 02675 20513 10200 20098 30259 40315 58002 60001 82800 333 60007 92438
AAXX 31124 60040 02575 20509 10205 20110 30303 40328 58001 60001 82800 333 60007 92428
AAXX 31124 60338 12980 02707 10186 20030 30234 40299 58012 60001 333 92418
AAXX 31121 01180 11982 12202 11065 21082 30015 40075 52003 60001 70200 80008 333 91104
AAXX 31121 01393 16/// /3101 11192 21216 39262 40128 57010 6//// 333 91103
AAXX 31121 01311 47673 81507 10027 21045 39957 40019 58017 781// 333 91112
AAXX 31121 01494 11584 33602 11042 21053 30023 40091 58008 60001 70300 81276 333 91104
AAXX 31121 01488 16/// /2701 11078 21088 60001 333 91103
AAXX 31121 01025 17380 82101 11052 21068 30072 40083 52006 6//// 700// 333 91106
AAXX 31124 71950 15966 01902 11120 21123 39570 40218 51046 60001 333 11019 21127 70000
AAXX 31124 71952 16/// /3201 11234 21256 39342 40229 51046 60001 333 11026 21236 4/042 70003
AAXX 31124 71954 46/// /0805 11047 21051 39567 49942 53002 6///1 333 11062 21106 7////
AAXX 31124 71956 NIL
AAXX 31124 71959 NIL
AAXX 31124 71960 460// /0808 11262 39988 40126 52020 6///1 333 11222 21262 7////
AAXX 31124 71962 16/// /1107 11071 21083 39642 40070 56018 60001 333 11070 21149 4/005 70000
AAXX 31124 71963 NIL
AAXX 31124 71967 17/// /0109 11039 21044 30033 40140 55008 69931 7//4/ 333 11045 21077 4/006 70003 555 10010
AAXX 31124 71970 NIL
AAXX 31124 71971 NIL
AAXX 31124 71972 460// ///// 11150 39657 40133 53014 6///1 333 11167 21183 7////
AAXX 31124 71973 46/// /2203 11049 21079 30082 40275 51022 6///1 333 11014 21099 7////
AAXX 31124 71974 NIL
AAXX 31124 71975 460// /2723 11220 39315 40067 50006 6///1 333 11216 21254 7////
AAXX 31124 71976 NIL
AAXX 31124 71977 NIL
AAXX 31124 71978 NIL
AAXX 31124 71979 NIL
AAXX 31124 71980 NIL
AAXX 31124 71981 NIL
AAXX 31124 71982 NIL
AAXX 31124 71983 NIL
AAXX 31124 71984 16/// /1602 11255 21280 30113 40122 51018 60001 333 11210 21264 70000
AAXX 31124 71985 NIL
AAXX 31124 71986 NIL
AAXX 31124 71987 16/// /1606 11038 21083 30243 40253 58003 60001 333 11054 21094 70006
AAXX 31124 71988 17/// /1119 10053 20026 30191 40211 58015 69971 7//4/ 333 10016 20008 70007
AAXX 31124 71989 NIL
AAXX 31124 71990 NIL
AAXX 31124 71999 46/// ///// 10012 6///1 333 10081 20009 7////
AAXX 31124 71201 16/// ///// 10024 20002 60001 333 10098 20021 70002
AAXX 31124 71202 16/// ///// 11051 21081 60001 333 10007 21064 70006
AAXX 31124 71203 15766 83002 10001 21019 39704 40229 51047 60001 333 10073 21005 70003
AAXX 31124 71209 46/// /2610 10047 6///1 333 10092 20046 7////
AAXX 31124 71211 46/// /3205 10028 20002 30247 40259 53042 6///1 333 10082 20028 7////
AAXX 31124 71212 17/// /0000 11085 21097 39333 40161 56016 60021 7//4/ 333 11050 21176 4/034 70020
AAXX 31124 71213 46/// /3405 11103 21112 39823 40132 53008 6///1 333 11108 21113 7////
AAXX 31124 71214 NIL
AAXX 31124 71215 46/// /2902 10034 21085 39873 40220 53052 6///1 333 10087 21010 7////
AAXX 31124 71216 17/// /3506 10015 21049 39572 40191 51059 60011 7//4/ 333 10053 20003 4/008 70028
AAXX 31124 71217 NIL
AAXX 31124 71218 16/// /2405 10015 21067 39782 40213 51050 60001 333 10091 20009 70000
AAXX 31124 71219 46/// /1109 11006 21035 30216 40222 51025 6///1 333 10036 21021 7////
AAXX 31124 71220 46/// /1419 10003 21020 6///1 333 10037 21004 7////
AAXX 31124 71221 NIL
AAXX 31124 71222 16/// /0000 11224 21246 39176 40189 51027 60001 333 11155 21249 4/033 70000
AAXX 31124 71223 NIL
AAXX 31124 71224 NIL
AAXX 31124 71225 NIL
AAXX 31124 71226 NIL
AAXX 31124 71227 NIL
AAXX 31124 71228 NIL
AAXX 31124 71229 NIL
AAXX 31124 71230 16/// /2613 11065 21135 39221 40127 51049 60001 333 11037 21084 70006
AAXX 31124 71231 16/// /2714 11003 21084 60001 333 10093 21012 70000
AAXX 31124 71232 16/// /2607 11015 21096 38603 40099 53068 60001 333 10024 21020 70000
AAXX 31124 71233 NIL
AAXX 31124 71234 16/// /3304 11036 21113 38910 40103 53052 60001 333 10085 21065 70000
AAXX 31124 71235 16/// /3410 11046 21072 60001 333 10049 21046 70000
AAXX 31124 71236 46/// /3304 11012 21085 6///1 333 10040 21019 7////
AAXX 31124 71237 46/// /3502 11041 21080 39279 40095 51069 6///1 333 10087 21075 7////
AAXX 31124 71238 16/// /3004 11081 21098 60001 333 10007 21081 4/007 70000
AAXX 31124 71239 16/// /2014 11009 21025 39524 49984 55006 60001 333 11039 21064 4/005 70000
AAXX 31124 71240 16/// ///// 11048 21083 39224 40072 51058 60001 333 10031 21070 70009
AAXX 31124 71241 NIL
AAXX 31124 71242 16/// /3208 11037 21071 60001 333 10033 21109 4/005 70000
AAXX 31124 71243 NIL
AAXX 31124 71244 16/// /2712 11021 21079 38864 40091 52048 60001 333 10091 21037 4/001 70000
AAXX 31124 71245 NIL
AAXX 31124 71246 NIL
AAXX 31124 71247 15966 82810 11005 21073 39227 40076 53062 60001 333 10093 21015 70000
AAXX 31124 71248 16/// /2301 11053 21084 38806 40113 51074 60001 333 10052 21109 4/016 70000
AAXX 31124 71249 NIL
AAXX 31124 71603 12574 80909 10050 20025 30156 40210 58017 60001 8357/ 333 10014 21006 70000
AAXX 31124 71607 16/// /0704 10001 21016 30174 40207 57015 60001 333 11018 21044 4/001 70000 555 10010
AAXX 31124 71609 11574 81309 11002 21041 30094 40232 56005 69901 70282 8657/ 333 11031 21103 79999 90952
AAXX 31124 71610 15966 80706 11028 21035 39834 40134 56014 60001 333 11043 21062 70000
AAXX 31124 71621 NIL
AAXX 31124 71623 NIL
AAXX 31124 71624 11148 83502 10011 20011 39859 40071 53010 69961 75165 887// 333 10010 21001 42001 55000 70046 90983
AAXX 31124 71625 17361 82602 11090 21101 39954 40119 53003 69951 745// 333 11099 21113 70020
AAXX 31124 71627 NIL
AAXX 31124 71628 11260 80608 11063 21075 39966 40110 55004 69901 76872 85700 333 11084 21118 4-6015 70012 909/7
AAXX 31124 71630 NIL
AAXX 31124 71631 NIL
AAXX 31124 71633 11256 80204 10016 20014 39809 40080 53024 69941 75155 887// 333 10023 20007 43005 55001 70068 90983
AAXX 31124 71705 11574 80905 11054 21107 30155 40246 58011 69901 70282 885// 333 11048 21110 79999 90941
AAXX 31124 71706 12574 81506 11035 21067 30208 40271 58001 60001 885// 333 11064 21119 42001 79999
AAXX 31124 71707 12774 42205 11071 21091 30215 40295 52015 60001 82570 333 11035 21079 45997 70002
AAXX 31124 71709 13580 71904 11027 21065 30265 40279 53007 69902 87500 333 11018 21034 46001 70002 90999 555 10006 20006
AAXX 31124 71711 NIL
AAXX 31124 71714 47/// /0710 11061 21078 30087 40182 6///1 7//4/ 333 11066 21110 4/014 7////
AAXX 31124 71715 17/// /0702 11102 21116 30015 40204 56011 60021 7//4/ 333 11116 21174 70016
AAXX 31124 71718 11683 80806 11106 21212 30160 40228 55008 69901 78522 885// 333 11110 21154 48002 79999 90910
AAXX 31124 71719 17/// /2003 11069 21104 30253 40259 57003 69931 7//4/ 333 11042 21119 4/002 70003
AAXX 31124 71397 12674 80505 11009 21055 30207 40242 58010 60001 8657/ 333 11010 21040 45997 70000
AAXX 31124 71400 NIL
AAXX 31124 71403 46/// /1013 10034 20010 30250 40270 50002 6///1 333 10020 21021 7////
AAXX 31124 71411 16/// /1011 10054 20039 30225 40238 58012 60001 333 10036 21002 70000
AAXX 31124 71412 16/// /1808 11017 21053 30264 40274 53002 60001 333 11049 21083 70000
AAXX 31124 71421 NIL
AAXX 31124 71430 17/// /1007 10020 20016 39980 40077 53006 60011 7//4/ 333 11004 21044 70011
AAXX 31124 71431 16/// /0604 10008 21005 39973 40069 53009 60001 333 11011 21030 4/003 70003
AAXX 31124 71432 NIL
AAXX 31124 71433 NIL
AAXX 31124 71435 NIL
AAXX 31124 71441 46/// /1818 11033 21040 39697 40007 56011 6///1 333 11051 21069 7////
AAXX 31124 71443 16/// /2210 11034 21044 39534 49943 53005 60001 333 11022 21117 70000
AAXX 31124 71444 NIL
AAXX 31124 71447 NIL
AAXX 31124 71467 16/// /0708 11281 21308 30057 40178 51018 60001 333 11281 21311 4/004 70000 555 10010
AAXX 31124 71472 NIL
AAXX 31124 71474 16964 30000 11090 21127 38958 40215 51037 60001 333 10037 21094 70000
AAXX 31124 71510 16/// /2913 11060 21100 39315 40020 53042 60001 333 10014 21063 70036
AAXX 31124 71538 11361 82908 10037 20024 39866 40095 53039 69921 70265 887// 333 10070 20034 70096 90937
AAXX 31124 71600 167// 81212 10045 20017 30284 40290 51010 60001 333 10046 21009 70005
AAXX 31124 71601 NIL
AAXX 31124 71114 160// /2508 10031 20008 30211 40260 51047 69951 333 10084 20027 70095
AAXX 31124 71120 11459 82908 11052 21070 39379 40047 52050 60011 77122 887// 333 11050 21064 44009 70057 90931 93101
AAXX 31124 71122 46/// /2504 11032 21120 38515 40123 51056 6///1 333 21047 4/017 7//// 555 10010
AAXX 31124 71123 11974 13113 11046 21092 39231 40107 52054 69961 70181 81071 333 11022 21086 44006 70006 90935
AAXX 31124 71125 11/24 93012 11058 21070 39435 40022 53052 60042 7718/ 333 47011 70077 90999 93107
AAXX 31124 71129 12774 22812 11062 21099 39220 40050 53052 60001 81501 333 10022 21065 42997 79999
AAXX 31124 71131 16/// /3013 11050 21094 38798 40047 53035 60001 333 10028 21088 70000
AAXX 31124 71135 16/// /3011 11020 21069 38951 40028 53022 60001 333 10026 21045 4/004 70000
AAXX 31124 71137 NIL
AAXX 31124 71140 12974 83005 11056 21056 39487 49990 5/006 60001 8807/ 333 11061 21080 48006 79999
AAXX 31124 71145 11274 81410 11080 21091 39714 40009 56021 69901 72222 885// 333 11060 21103 48037 70004 90931
AAXX 31124 71148 NIL
AAXX 31124 71185 16964 02607 11061 30239 40263 51023 60001 333 11007 21064 70000
AAXX 31124 71188 12474 82702 11076 21106 30215 40259 55000 60001 885// 333 11039 21082 44009 55010 79999
AAXX 31124 71200 17/// /2515 10029 20005 69921 7//4/ 333 10084 20021 70030
AAXX 31124 71207 16/// /3501 11007 30190 40255 53042 60001 333 10063 21011 70138
AAXX 31124 71260 13/// ///// 11082 21087 39885 40125 53012 60001 333 11024 21083 44002 70002
AAXX 31124 71893 12580 22903 11009 21032 30233 40265 51040 60001 82500 333 10085 21015 55031 70000
AAXX 31124 71894 16/// /0610 11001 21001 30250 40259 50026 60001 333 10083 21001 70014
AAXX 31124 71896 15966 02107 11088 21118 39363 40211 53045 60001 333 10004 21127 70026
AAXX 31124 71897 12274 32310 10024 21015 3//// 4//// 52008 60001 82801 333 10048 20016 70000
AAXX 31124 71898 NIL
AAXX 31124 71899 11474 22413 10018 21034 3//// 4//// 53022 69921 70181 82500 333 10040 21004 46997 70008 90950
AAXX 31124 71902 12974 02506 11187 21247 30193 40202 51009 60002 333 11077 21188 48048 70004 555 10050 20050
AAXX 31124 71905 NIL
AAXX 31124 71906 11574 82108 11177 21226 30163 40215 57002 69901 77177 885// 333 11125 21178 44015 79999 90983
AAXX 31124 71907 16864 81917 11148 21181 30105 40139 57011 60001 333 11158 21171 70010
AAXX 31124 71909 16964 00702 11196 21224 30077 40122 55005 60001 333 11206 21227 70000
AAXX 31124 71910 47422 92612 11138 21158 30014 40078 56006 6///1 745// 333 11148 21160 7////
AAXX 31124 71911 46964 03505 11334 30058 40118 51010 6///1 333 11291 21369 7////
AAXX 31124 71912 11274 81904 11064 21071 39825 40009 55003 69901 70277 886// 333 11068 21078 45021 79999 90943
AAXX 31124 71915 11459 80204 11175 21204 39976 40059 57002 69921 77177 885// 333 11183 21198 55/// 70032 90983
AAXX 31124 71917 11658 61202 11375 21425 30089 40104 52002 69901 77177 86500 333 11393 21426 47014 55/// 10150 20000 79999 90993
AAXX 31124 71922 11469 80210 11050 21062 39515 49982 53034 60011 77177 885// 333 11015 21097 47034 70042 90973 93101
AAXX 31124 71924 11974 03204 11358 21399 30032 40128 52006 69901 77677 333 11286 21380 48038 55/// 79999 90983
AAXX 31124 71925 11469 20103 11369 21412 30125 40169 51008 69901 77677 81530 333 11359 21373 42021 79999 90983
AAXX 31124 71926 11574 83519 11235 21289 30054 40079 51011 69981 77177 885// 333 11152 21235 47403 70008 90983
AAXX 31124 71928 16/// /3112 11030 21107 38945 40116 52055 60001 333 10047 21118 4/009 70000
AAXX 31124 71812 47219 90613 11118 21129 30018 40032 53005 6///1 745// 333 11111 21120 7////
AAXX 31124 71819 15966 02608 11138 21158 30205 40248 53020 60001 333 11009 21149 70000
AAXX 31124 71820 16/// /0306 11042 21052 39974 40090 53005 60001 333 11062 21088 4/002 70000 555 10010
AAXX 31124 71823 16964 01002 11302 21343 39809 40217 56006 60001 333 11190 21316 70000
AAXX 31124 71824 NIL
AAXX 31124 71826 16/// /1102 11256 21292 30051 40097 58004 60001 333 11261 21282 4/014 70000
AAXX 31124 71829 16/// /0207 11094 21115 30061 40229 57008 60001 333 11099 21173 70000
AAXX 31124 71833 46/// /1001 10005 20005 6///1 333 10001 21001 7////
AAXX 31124 71835 16/// /2008 11088 21096 39581 40068 57011 60001 333 11103 21113 4/020 70000
AAXX 31124 71837 NIL
AAXX 31124 71839 NIL
AAXX 31124 71840 46/// /1808 11003 21019 6///1 333 11037 21055 7////
AAXX 31124 71846 16/// /1803 11107 21114 39766 40089 58011 60001 333 11132 21140 4/008 70000
AAXX 31124 71847 NIL
AAXX 31124 71848 NIL
AAXX 31124 71849 NIL
AAXX 31124 71043 11083 00000 11335 21387 30029 40128 52019 69901 77677 333 11227 21341 48034 70006 90983
AAXX 31124 71045 17/// /0201 11245 21272 39230 40129 52030 69961 7//4/ 333 11146 21269 4/028 70006
AAXX 31124 71050 NIL
AAXX 31124 71051 NIL
AAXX 31124 71052 NIL
AAXX 31124 71066 11/24 93606 11116 21144 39666 40095 51034 69961 77172 333 11130 21152 47025 70006 90962 93101
AAXX 31124 71068 11674 72712 11057 21083 39390 40089 52032 69941 73672 83570 333 11050 21095 47007 70030 90973 93101
AAXX 31124 71069 17564 62915 11039 21063 39371 40081 51042 60001 745// 333 11014 21116 70000
AAXX 31124 71076 16/// /0703 11116 21129 39664 40063 51025 60001 333 11106 21125 4/036 55/// 20000 70000
AAXX 31124 71077 17/// /3207 11075 21087 39496 40038 52041 69931 7//4/ 333 11008 21075 4/018 55/// 20000 70006 555 10020
AAXX 31124 71079 11116 80804 11061 21061 39710 49990 56007 69921 76877 887// 333 11067 21074 48009 70016 90983
AAXX 31124 71081 46264 83110 11326 21370 30045 40057 52007 6///1 333 11219 21326 7////
AAXX 31124 71082 NIL
AAXX 31124 71083 11548 80103 11176 21184 30014 40057 52002 69901 77172 885// 333 11134 21184 48058 70005 90937
AAXX 31124 71090 46964 02704 11348 21380 30035 40072 51003 6///1 333 11281 21354 7////
AAXX 31124 71091 460// /0513 11263 39830 40046 55002 6///1 333 7////
AAXX 31124 71092 NIL
AAXX 31124 71093 460// ///// 11237 39538 40050 51002 6///1 333 11229 21259 7////
AAXX 31124 71094 46064 /0108 11256 39096 40018 51001 6///1 333 11195 21258 7////
AAXX 31124 71095 46964 31903 11353 21396 39989 40074 54000 6///1 333 11302 21364 7////
AAXX 31124 71101 160// /1906 30213 51020 60001 333 70000
AAXX 31124 71104 12674 40000 11078 21106 39090 40218 52042 60001 83570 333 10039 21097 44028 79999
AAXX 31124 71108 12774 71706 10020 21006 30195 40269 52039 60001 85530 333 10083 20012 70004
AAXX 31124 71109 11674 82106 10008 21013 30224 40251 51024 60031 70288 8557/ 333 10048 20001 43002 70140 9095193103
AAXX 31124 71816 12574 22515 11198 21228 30191 40256 52005 60001 81501 333 11022 21223 47089 55000 79999
AAXX 31124 71817 NIL
AAXX 31124 71818 12874 12215 11159 21202 30204 40223 52006 60001 81070 333 10002 21165 44025 55000 70006
AAXX 31124 71822 11566 80904 11161 21194 39673 40172 56010 69901 77122 885// 333 11240 21242 43046 79999 90999
AAXX 31124 71825 12274 41802 11231 21272 39534 40247 58003 60001 84500 333 11129 21314 48126 70006
AAXX 31124 71827 12974 11110 11262 21302 39914 40174 56010 60001 80001 333 11211 21263 47018 70000
AAXX 31124 71828 16148 61904 11216 21253 39557 40229 58001 60001 333 11156 21217 70000
AAXX 31124 71831 11574 81404 11122 21132 39852 40142 53004 69901 77177 885// 333 11120 21136 48042 79999 90973
AAXX 31124 71832 NIL
AAXX 31124 71834 12266 80000 11090 21103 39683 40121 53002 60001 886// 333 11103 21116 48027 79999
AAXX 31124 71841 NIL
AAXX 31124 71842 11274 81605 11092 21101 39598 40075 56019 69901 70277 886// 333 11072 21096 47008 79999 90953
AAXX 31124 71844 NIL
AAXX 31124 71845 11274 81907 11089 21095 39590 40073 56011 69902 771// 887// 333 11103 21114 44021 79999 90999 555 19999 29999
AAXX 31124 71850 NIL
AAXX 31124 71852 17340 81917 11037 21047 39709 40004 55003 60001 743// 333 11049 21076 70000
AAXX 31124 71854 11132 81507 11083 21093 39564 40043 56022 69902 710// 886// 333 11088 21102 48017 79999 90999 555 10004 29999
AAXX 31124 71858 16/// /1703 11042 21052 39667 49946 58008 60001 333 11046 21052 70000
AAXX 31124 71861 16/// /2811 11016 21046 39262 49981 53024 60001 333 10013 21030 4/013 70000
AAXX 31124 71862 12974 63008 11024 21053 39311 40009 53025 60001 80001 333 10024 21024 47009 79999
AAXX 31124 71863 46964 03013 11062 21095 39312 40008 53033 6///1 333 10013 21084 7////
AAXX 31124 71102 NIL
AAXX 31124 71105 NIL
AAXX 31124 71107 NIL
AAXX 31124 71110 NIL
AAXX 31124 71111 15966 01807 11016 21058 30213 40221 51021 60001 333 21045
AAXX 31124 71112 16/// ///// 60001 333 70002
AAXX 31124 71113 17/// /0000 10031 20015 30238 40262 52040 60021 7//4/ 333 10089 20027 70026
AAXX 31124 71115 16/// /3502 11004 21027 39632 40218 51052 60001 333 10075 21005 70000
AAXX 31124 71116 NIL
AAXX 31124 71118 16/// /3012 11091 21111 39242 40077 51060 60001 333 10012 21096 70000
AAXX 31124 71121 16964 02813 11061 21125 39265 40097 51051 60001 333 11015 21066 70000
AAXX 31124 71127 16/// /3112 11050 21086 39180 40101 51050 60001 333 11027 21051 4/011 70000
AAXX 31124 71130 17459 82514 11026 21043 39486 49940 51022 60001 771// 333 11010 21050 70000
AAXX 31124 71132 15566 80803 11114 21138 39743 40061 51023 60001 333 11076 21133 70000
AAXX 31124 71133 46/// /3113 11047 21071 39282 49988 51045 6///1 333 11029 21067 4/003 7//// 555 10020
AAXX 31124 71139 NIL
AAXX 31124 71141 NIL
AAXX 31124 71142 15966 62413 11035 21052 39074 40037 53041 60001 333 10043 21035 70000
AAXX 31124 71143 NIL
AAXX 31124 71144 NIL
AAXX 31124 71147 16/// /1811 11022 21031 60001 333 11044 21059 70000
AAXX 31124 71149 16/// /2608 10000 21025 60001 333 11032 21079 70000
AAXX 31124 71604 16/// /1802 11079 21081 60001 333 11059 21082 4/033 70007 555 10060
AAXX 31124 71605 16/// /3102 10013 21017 30104 40256 53042 60001 333 10079 20009 70015
AAXX 31124 71611 NIL
AAXX 31124 71612 NIL
AAXX 31124 71614 NIL
AAXX 31124 71616 17/// /0608 11059 21069 30028 40151 55014 60021 7//4/ 333 11069 21094 70020
AAXX 31124 71617 16/// /2901 11170 21188 30021 40205 56011 60001 333 11180 21239 70000
AAXX 31124 71618 17466 82506 11077 21084 39964 40002 50005 60001 771// 333 11077 21104 70000
AAXX 31124 71619 NIL
AAXX 31124 71622 NIL
AAXX 31124 71632 46/// /0306 11101 21115 39556 49997 53008 6///1 333 11049 21101 4/019 7////
AAXX 31124 71634 16/// /0000 11095 21119 30098 40258 56009 60001 333 11080 21172 4/005 70000
AAXX 31124 71638 16/// /3203 10010 21012 30148 40255 52039 60001 333 10082 21010 70014
AAXX 31124 71639 11248 80000 10004 21013 39833 40076 53011 69921 71062 886// 333 11001 21019 70026 90921
AAXX 31124 71642 13174 80000 11100 21107 39575 40135 53006 60001 887// 333 11105 21110 48024 70018
AAXX 31124 71930 NIL
AAXX 31124 71931 16/// /2707 11051 21094 30233 40245 53026 60001 333 10030 21056 70000
AAXX 31124 71934 11174 82803 11196 21225 39829 40097 51028 69901 77171 886// 333 11164 21245 47029 79999 90942
AAXX 31124 71935 11466 82603 11163 21194 39900 40116 52027 69901 77122 887// 333 11163 21208 47028 79999 90910
AAXX 31124 71936 12574 80000 11168 21198 39836 40104 52022 60001 885// 333 11157 21176 48027 70008
AAXX 31124 71937 NIL
AAXX 31124 71938 11862 30503 11293 21323 30128 40159 53015 69941 77677 83030 333 11283 21294 46029 70014 90983 93101
AAXX 31124 71940 11882 22715 11065 21120 39314 40133 52052 69901 73671 81030 333 11037 21083 48003 70010 90962
AAXX 31124 71943 12974 42608 11093 21142 39277 40128 51055 60001 84030 333 11044 21109 46003 70022
AAXX 31124 71944 160// ///// 11112 51044 60001 333 11032 21144 70000
AAXX 31124 71945 11574 70000 11172 21218 39640 40127 52036 69921 70277 87500 333 11150 21183 47014 70012 90943
AAXX 31124 71946 12274 80000 11284 21300 39902 40129 51025 60001 886// 333 11252 21290 48045 79999
AAXX 31124 71948 47016 /0825 11274 30015 40134 51017 6///1 745// 333 11275 21289 7////
AAXX 31124 71949 46/// /1303 11230 21255 39191 40100 53024 6///1 333 11172 21253 7////
AAXX 31124 71951 12474 31806 11042 21060 39962 40235 51039 69901 82830 333 10001 21076 47041 70020
AAXX 31124 71957 46458 60000 11267 21338 30032 40125 51020 6///1 333 11201 21270 7////
AAXX 31124 71964 12786 41511 11151 21197 39208 40083 52025 60001 85500 333 11114 21187 47019 70000
AAXX 31124 71966 16/// /2303 11255 21285 39626 40114 51027 60001 333 11281 21359 4/045 70073
AAXX 31124 71968 460// /2005 11318 30051 40119 53020 6///1 333 11220 21329 7////
AAXX 31124 71900 46/// /23// 11180 21231 30195 40208 51008 6///1 333 11042 21184 7////
AAXX 31124 71903 NIL
AAXX 31124 71904 NIL
AAXX 31124 71914 16/// /1702 11002 21019 30045 40271 53040 60001 333 10068 21005 70004
AAXX 31124 71916 NIL
AAXX 31124 71918 460// ///// 11342 6///1 333 7////
AAXX 31124 71920 NIL
AAXX 31124 71921 NIL
AAXX 31124 71923 NIL
AAXX 31124 71927 16/// /1501 11003 21029 30210 40269 53039 60001 333 10086 21003 70015
AAXX 31124 71941 15366 80403 11100 21109 39709 40137 53003 60001 333 11106 21126 70000
AAXX 31124 71947 15466 80902 11137 21150 39792 40153 53002 60001 333 11156 21192 70000
AAXX 31124 71500 NIL
AAXX 31124 71501 NIL
AAXX 31124 71502 NIL
AAXX 31124 71503 NIL
AAXX 31124 71504 NIL
AAXX 31124 71505 46/// /3506 11096 21215 39313 40058 51033 6///1 333 11157 21253 7////
AAXX 31124 71506 NIL
AAXX 31124 71507 NIL
AAXX 31124 71508 17/// ///// 10029 20028 39935 40073 53009 69971 7//4/ 333 10015 20003 70033
AAXX 31124 71509 NIL
AAXX 31124 71511 NIL
AAXX 31124 71512 NIL
AAXX 31124 71513 15966 00106 11171 21199 30266 40282 53004 60001 333 11018 21187 70000
AAXX 31124 71514 NIL
AAXX 31124 71515 16/// /2815 11029 21054 39295 49991 53026 60001 333 10005 21038 55/// 20000 70000
AAXX 31124 71516 16/// /2909 11027 21057 60001 333 10031 21037 70007
AAXX 31124 71517 NIL
AAXX 31124 71518 NIL
AAXX 31124 71519 NIL
AAXX 31124 71520 NIL
AAXX 31124 71521 NIL
AAXX 31124 71522 NIL
AAXX 31124 71523 NIL
AAXX 31124 71524 17/// /0306 11059 21070 30108 40135 56015 60011 7//4/ 333 11085 21106 4/006 70020
AAXX 31124 71525 NIL
AAXX 31124 71526 NIL
AAXX 31124 71527 15266 81606 11078 21083 39553 40066 55017 60001 333 11084 21095 70000
AAXX 31124 71528 NIL
AAXX 31124 71529 46/// /0403 11176 21204 39860 40094 51028 6///1 333 11162 21179 4/018 7////
AAXX 31124 71532 17248 80803 11015 21015 39736 40083 53015 60001 771// 333 11026 21056 70000
AAXX 31124 71534 16004 90000 11006 21006 39804 40077 53015 60001 333 11012 21038 70035
AAXX 31124 71535 NIL
AAXX 31124 71536 NIL
AAXX 31124 71537 NIL
AAXX 31124 71539 NIL
AAXX 31124 71540 NIL
AAXX 31124 71541 NIL
AAXX 31124 71542 16/// /2503 11146 21161 60001 333 11126 21160 70000
AAXX 31124 71543 NIL
AAXX 31124 71544 NIL
AAXX 31124 71545 16/// ///// 11091 21107 60001 333 11008 21108 70010
AAXX 31124 71546 NIL
AAXX 31124 71547 NIL
AAXX 31124 71548 NIL
AAXX 31124 71549 NIL
AAXX 31124 71744 NIL
AAXX 31124 71750 16/// /0505 11061 21071 39874 40112 58001 60001 333 11051 21068 4/015 70000
AAXX 31124 71751 NIL
AAXX 31124 71752 NIL
AAXX 31124 71753 16/// /0405 11021 21041 30228 40258 58005 60001 333 10001 21090 4/002 70000
AAXX 31124 71754 16/// /2816 11071 21087 39364 40033 51050 60001 333 11027 21121 4/002 55/// 20000 70008 555 10010
AAXX 31124 71755 43/// /2004 11096 21112 39698 40047 55013 6///1 333 11089 21105 7////
AAXX 31124 71756 16/// /1704 11043 21076 39123 40233 51038 60001 333 10021 21057 4/064 70022 555 10010
AAXX 31124 71758 NIL
AAXX 31124 71760 NIL
AAXX 31124 71761 NIL
AAXX 31124 71762 NIL
AAXX 31124 71763 NIL
AAXX 31124 71765 16/// /1814 10025 21034 39949 40226 51045 60001 333 10055 20022 70017
AAXX 31124 71766 16/// /2702 11022 21030 30188 40261 51042 60001 333 10089 21026 70000
AAXX 31124 71767 16/// /3610 11021 21022 39838 40100 53025 60001 333 10012 21021 4/006 70015
AAXX 31124 71768 46/// /2906 11003 21088 39676 40228 51046 6///1 333 10071 21005 7////
AAXX 31124 71769 16/// /2506 10039 21003 30236 40252 52041 60001 333 10089 20039 70000
AAXX 31124 71770 NIL
AAXX 31124 71771 NIL
AAXX 31124 71772 16/// /2605 10039 21007 30248 40254 51041 60001 333 10094 20032 70000
AAXX 31124 71773 16/// /1905 11153 21161 39205 40080 51025 60001 333 11113 21192 4/028 70000
AAXX 31124 71774 46/// ///// 10006 6///1 333 10064 20003 7////
AAXX 31124 71775 16/// /1002 10006 21006 30261 40267 51041 60001 333 10081 21013 70012
AAXX 31124 71776 46/// /2908 10022 21039 39543 40188 51058 6///1 333 10048 20010 7////
AAXX 31124 71777 16/// ///// 11019 21020 39990 40246 51042 60001 333 10028 21022 70013
AAXX 31124 71778 46/// /2722 6///1 333 7////
AAXX 31124 71779 16/// /3401 11122 21137 39550 40228 51047 60001 333 10009 21129 4/025 70000 555 10040
AAXX 31124 71780 17/// /2603 10024 20002 30255 40283 51040 60011 7//4/ 333 10089 20019 70056
AAXX 31124 71781 46/// /3103 10045 21008 30231 40256 52039 6///1 333 10089 20045 7////
AAXX 31124 71782 46/// /2102 11016 21057 38806 40135 51044 6///1 333 10017 21039 7////
AAXX 31124 71783 16/// /2405 10027 20008 30201 40276 52047 60001 333 10082 20017 70034
AAXX 31124 71784 16/// /0000 10005 21019 30048 40256 53039 60001 333 10074 20004 70008
AAXX 31124 71785 16/// /1401 10022 21007 30256 40272 53039 60001 333 10095 20021 70032
AAXX 31124 71786 46/// /2609 11086 21100 38308 40158 51054 6///1 333 11030 21086 7////
AAXX 31124 71787 16/// /1509 11041 21055 39733 40235 56006 60001 333 11064 21094 70003
AAXX 31124 71788 NIL
AAXX 31124 71789 NIL
AAXX 31124 71791 NIL
AAXX 31124 71792 NIL
AAXX 31124 71793 NIL
AAXX 31124 71794 NIL
AAXX 31124 71795 NIL
AAXX 31124 71796 NIL
AAXX 31124 71797 NIL
AAXX 31124 71550 NIL
AAXX 31124 71551 NIL
AAXX 31124 71552 46/// /1810 11031 21047 6///1 333 11034 21073 7////
AAXX 31124 71553 NIL
AAXX 31124 71554 16/// /0601 11098 21133 30220 40226 56012 60001 333 11104 21157 70000
AAXX 31124 71555 16/// /2914 11014 21146 38531 40098 51050 60001 333 10043 21042 70004
AAXX 31124 71556 16/// /2917 11043 21077 39385 49985 51029 60001 333 10015 21044 4/002 70000 555 10010
AAXX 31124 71557 46/// /2007 10006 21074 6///1 333 10056 20003 7////
AAXX 31124 71558 46/// ///// 11141 21160 30203 40241 53021 6///1 333 11010 21157 7////
AAXX 31124 71559 46/// /2907 11021 21046 39307 40004 53024 6///1 333 10024 21021 55/// 20000 7////
AAXX 31124 71560 16/// /1712 11036 21040 39714 40018 56010 60001 333 11050 21066 70011
AAXX 31124 71563 NIL
AAXX 31124 71564 NIL
AAXX 31124 71565 NIL
AAXX 31124 71566 NIL
AAXX 31124 71567 NIL
AAXX 31124 71568 16/// /1604 10022 21004 30252 40265 51042 60001 333 10061 20021 70050
AAXX 31124 71569 16/// /2514 11047 21068 39295 49992 51032 60001 333 10017 21051 4/002 70011
AAXX 31124 71570 16/// /1610 11037 21053 39696 40010 56023 60001 333 11071 21103 70000
AAXX 31124 71571 NIL
AAXX 31124 71572 NIL
AAXX 31124 71573 17/// /2206 10051 20041 39778 40058 53017 60011 7//4/ 333 10051 20022 70105
AAXX 31124 71574 11574 80000 11105 21122 30180 40256 58006 69901 77771 886// 333 11074 21170 43017 79999 90931
AAXX 31124 71575 NIL
AAXX 31124 71576 16/// /1901 11352 21392 39985 40075 54000 60001 333 11302 21367 4/002 55/// 20000 70000
AAXX 31124 71577 NIL
AAXX 31124 71578 17/// /0717 11058 21082 60011 7//4/ 333 11062 21103 70013
AAXX 31124 71579 NIL
AAXX 31124 71580 12974 01302 11361 21396 30079 40118 50005 60001 333 11293 21376 43030 79999
AAXX 31124 71581 NIL
AAXX 31124 71582 17966 01603 11023 21023 30203 40257 51028 69951 7004/ 333 10054 21036 70101
AAXX 31124 71583 NIL
AAXX 31124 71584 17566 80608 11134 21162 30228 40278 53006 60001 771// 333 11034 21177 70000
AAXX 31124 71585 NIL
AAXX 31124 71586 17/// /0113 11051 21062 39510 49975 53032 60031 7//4/ 333 11017 21098 4/043 70050 555 10080
AAXX 31124 71587 NIL
AAXX 31124 71588 16/// /0503 11093 21107 60001 333 11016 21100 70000
AAXX 31124 71589 16/// /2907 11070 21101 30127 40263 51028 60001 333 11025 21071 4/001 70007
AAXX 31124 71590 17/// /0000 11114 21129 30015 40215 58016 60011 7//4/ 333 11102 21202 4/011 70012 555 10010
AAXX 31124 71592 NIL
AAXX 31124 71593 NIL
AAXX 31124 71596 NIL
AAXX 31124 71598 16/64 /1402 11079 21111 30254 40260 55005 60001 333 11063 21128 4/003 70000
AAXX 31124 71599 NIL
AAXX 31124 71300 NIL
AAXX 31124 71301 NIL
AAXX 31124 71302 16/// /2207 11077 21101 39374 40207 53046 60001 333 10004 21107 4/028 70010 555 10020
AAXX 31124 71303 46/// ///// 10032 20024 6///1 333 10073 20032 7////
AAXX 31124 71305 15264 83004 11132 21141 39782 40080 51029 60001 333 11124 21167 70000
AAXX 31124 71306 15466 81816 11120 21139 30106 40139 57010 60001 333 11133 21144 70000
AAXX 31124 71307 16/// /2809 10038 20031 39832 40081 53032 60001 333 10074 20038 4/001 70057
AAXX 31124 71308 16/// /1305 11032 21069 30198 40285 51007 60001 333 11035 21086 4/001 70000 555 10010
AAXX 31124 71309 NIL
AAXX 31124 71310 16/// /1304 11044 21072 30232 40270 56002 60001 333 11063 21105 70000
AAXX 31124 71311 NIL
AAXX 31124 71312 16/// /2813 11028 21045 39484 49937 51023 60001 333 11011 21051 70013
AAXX 31124 71314 16/// /0703 11015 21021 39720 40074 53014 60001 333 11017 21048 4/017 70034
AAXX 31124 71315 NIL
AAXX 31124 71316 16/// /2912 11047 21063 39372 40060 51046 60001 333 11031 21062 70024
AAXX 31124 71317 NIL
AAXX 31124 71318 16/// /3116 11040 21073 39130 40082 51062 60001 333 10029 21078 4/027 70000 555 10240
AAXX 31124 71319 17/// /0205 11115 21124 39284 40177 56010 60031 7//4/ 333 11070 21173 70030
AAXX 31124 71320 NIL
AAXX 31124 71321 NIL
AAXX 31124 71322 NIL
AAXX 31124 71323 NIL
AAXX 31124 71331 17/// /0404 11081 21098 60031 7//4/ 333 11030 21093 4/026 55/// 20000 70029 555 10040
AAXX 31124 71332 NIL
AAXX 31124 71334 46/// /3406 11143 21162 39691 40023 51013 6///1 333 11064 21143 7////
AAXX 31124 71335 46964 0//// 11178 53007 6///1 333 11125 21180 7////
AAXX 31124 71336 46/// ///15 11023 21079 30222 40245 51029 6///1 333 10008 21024 7////
AAXX 31124 71337 46/// /2705 11090 21119 30004 40249 51020 6///1 333 11017 21091 7////
AAXX 31124 71338 46661 61811 11243 21285 30063 40071 58004 6///1 333 11265 21315 7////
AAXX 31124 71339 16964 02707 11159 21207 30216 40231 52014 60001 333 11003 21160 70000
AAXX 31124 71340 NIL
AAXX 31124 71341 NIL
AAXX 31124 71342 NIL
AAXX 31124 71343 NIL
AAXX 31124 71344 NIL
AAXX 31124 71345 NIL
AAXX 31124 71346 NIL
AAXX 31124 71347 NIL
AAXX 31124 71348 NIL
AAXX 31124 71349 NIL
AAXX 31124 71150 NIL
AAXX 31124 71151 NIL
AAXX 31124 71152 16/// /3305 11017 21057 30270 40283 52024 60001 333 10003 21027 70000
AAXX 31124 71153 16/// /2613 10005 21096 60001 333 10058 21022 70000
AAXX 31124 71154 16/// /2208 11001 21103 60001 333 10037 21023 70006
AAXX 31124 71155 NIL
AAXX 31124 71156 NIL
AAXX 31124 71157 46/// ///// 11052 21072 6///1 333 11013 21054 7////
AAXX 31124 71158 NIL
AAXX 31124 71159 NIL
AAXX 31124 71160 NIL
AAXX 31124 71161 16/// /0604 11042 21052 39942 40093 55001 60001 333 11076 21100 4/001 70004 555 10010
AAXX 31124 71162 NIL
AAXX 31124 71163 46/// /1401 11163 21177 39753 40104 53022 6///1 333 11160 21164 7////
AAXX 31124 71164 NIL
AAXX 31124 71165 NIL
AAXX 31124 71166 NIL
AAXX 31124 71167 17956 02921 11038 21171 39012 40122 51050 60001 771// 333 11051 21103 70000
AAXX 31124 71168 16/// /1514 11002 21008 39430 40011 56047 60001 333 10032 21016 70000
AAXX 31124 71170 16/// /1906 11021 21033 60001 333 11042 21089 70000
AAXX 31124 71171 NIL
AAXX 31124 71172 17/// ///// 11019 21026 39858 40076 53016 69961 7//4/ 333 11013 21039 4/011 70037 555 10010
AAXX 31124 71175 NIL
AAXX 31124 71176 460// /2541 11203 39408 40114 50000 6///1 333 11160 21205 7////
AAXX 31124 71177 460// /2705 11198 39100 40141 53011 6///1 333 11122 21211 7////
AAXX 31124 71178 16/// /3019 11028 21084 30228 40261 52030 60001 333 11003 21032 55/// 20000 70000
AAXX 31124 71179 460// /2608 11192 39315 40173 51015 6///1 333 11070 21204 7////
AAXX 31124 71180 16/// /2907 11020 21057 30249 40289 51020 60001 333 10001 21020 70007
AAXX 31124 71181 16564 83107 11010 21065 30224 40261 60001 333 10002 21012 70010
AAXX 31124 71183 16/// /0209 30078 56013 60001 333 70000
AAXX 31124 71184 46/// /0408 11044 21058 6///1 333 11066 21097 7////
AAXX 31124 71186 NIL
AAXX 31124 71187 17664 82509 10030 20013 30210 40259 51047 60001 761// 333 10083 20026 70000
AAXX 31124 71189 NIL
AAXX 31124 71190 NIL
AAXX 31124 71191 16/// ///// 11027 21064 60001 333 11019 21084 4/003 70000 555 10010
AAXX 31124 71192 15966 02502 11115 21128 39554 40233 51047 60001 333 10005 21120 70003
AAXX 31124 71193 16/// /3501 11124 21135 39765 40139 53010 60001 333 11128 21137 4/031 70003
AAXX 31124 71196 16/// /3002 11092 21097 39911 40115 55000 60001 333 11103 21123 4/019 70022 555 10030
AAXX 31124 71197 16464 82606 11018 21058 30238 40289 51021 60001 333 11005 21021 70005
AAXX 31124 71198 46/// /0417 11040 21058 6///1 333 11060 21093 7////
AAXX 31124 71199 46/// /0000 11339 21375 39286 40172 51032 6///1 333 11235 21341 4/033 7////
AAXX 31124 71726 16/// /1103 11104 21117 39588 40145 56005 60001 333 11126 21151 4/030 70033
AAXX 31124 71727 11648 81011 11100 21120 39982 40189 57010 60011 78522 885// 333 11175 21246 44041 70010 90952
AAXX 31124 71728 11562 82904 11196 21245 39963 40198 57016 69941 77177 885// 333 11211 21268 44997 70004 90973
AAXX 31124 71730 12262 80108 11085 21086 39684 40119 52015 60001 886// 333 11090 21108 48013 79999
AAXX 31124 71731 11266 80707 11092 21107 39648 40110 53012 69901 77177 887// 333 11104 21114 48016 70008 90983
AAXX 31124 71735 NIL
AAXX 31124 71738 13574 60000 11152 21170 39777 40140 50013 60002 86500 333 11057 21157 47028 70004 555 10100 20056
AAXX 31124 71739 41 74 80000 11122 21137 39766 40141 53010 6//// 77077 887// 333 11125 21137 4//// 7//// 90983
AAXX 31124 71749 16559 81604 11061 21066 39861 40110 57009 60001 333 11026 21068 70005
AAXX 31124 71799 12983 12708 10005 21024 30249 40273 52041 60001 81070 333 10095 21014 55063 70006
AAXX 31124 71800 16/// /2801 11005 21043 30246 40280 51026 60001 333 10030 21026 70000
AAXX 31124 71801 12674 72908 11021 21079 30098 40275 52030 60001 87500 333 10002 21035 41001 79999
AAXX 31124 71803 11580 12808 11068 21105 30076 40268 51026 69901 70181 81500 333 11017 21071 46004 70010 90930
AAXX 31124 71807 NIL
AAXX 31124 71808 12474 20000 11146 21185 30205 40253 53020 60001 82500 333 11015 21152 44020 70010
AAXX 31124 71809 12574 70000 11113 21128 30250 40278 52023 60001 87500 333 11004 21119 42001 70002
AAXX 31124 71810 16/// /0807 11085 21105 30191 40260 53005 60001 333 11046 21095 70000
AAXX 31124 71811 NIL
AAXX 31124 71813 16/// /0105 11172 21196 30263 40277 53004 60001 333 11020 21187 70000
AAXX 31124 71814 16/// /3306 11181 21205 30269 40279 51021 60001 333 11013 21183 70000
AAXX 31124 71815 12474 83108 11026 21075 30246 40277 51020 60001 885// 333 11002 21028 46005 70010
AAXX 31124 71350 16/// /1507 11038 21066 30194 40262 56001 60001 333 11059 21104 70000
AAXX 31124 71351 NIL
AAXX 31124 71352 17/// /0403 10006 20005 39613 40067 53017 60021 7//4/ 333 10002 21001 70070
AAXX 31124 71353 NIL
AAXX 31124 71354 NIL
AAXX 31124 71355 NIL
AAXX 31124 71356 NIL
AAXX 31124 71357 16/// /1911 11243 21272 30067 40074 58004 60001 333 11266 21308 4/070 70003
AAXX 31124 71358 17/// /2804 11360 21400 30034 40071 51004 60011 7//4/ 333 11282 21361 4/042 70061
AAXX 31124 71359 NIL
AAXX 31124 71360 NIL
AAXX 31124 71361 NIL
AAXX 31124 71362 NIL
AAXX 31124 71363 NIL
AAXX 31124 71364 NIL
AAXX 31124 71365 NIL
AAXX 31124 71368 17/04 /0601 10011 20010 39679 40068 53015 69931 730// 333 10008 20004 70061
AAXX 31124 71369 17466 82816 11038 21069 39370 40081 51041 60001 771// 333 11014 21108 70000
AAXX 31124 71370 46/// /0608 11061 21072 30002 40142 56015 6///1 333 11075 21105 7////
AAXX 31124 71371 16966 30210 11062 30085 40120 56014 60001 333 11077 21103 70000
AAXX 31124 71372 NIL
AAXX 31124 71373 17/// /1902 10012 21018 60011 7//4/ 333 11029 21085 70012
AAXX 31124 71374 NIL
AAXX 31124 71375 NIL
AAXX 31124 71376 17/// /0904 11043 21054 39822 40123 56006 60011 7//4/ 333 11072 21089 70030
AAXX 31124 71377 16/// /0308 11058 21070 30067 40117 56012 60001 333 11081 21106 4/003 70003 555 10010
AAXX 31124 71378 16/// /3604 11138 21164 39950 40168 56013 60001 333 11151 21170 4/023 70000
AAXX 31124 71379 16/// /3005 11194 21223 30005 40187 56011 60001 333 11199 21294 70000
AAXX 31124 71380 NIL
AAXX 31124 71381 NIL
AAXX 31124 71382 17/// /0000 11093 21102 39197 40181 56013 60031 7//4/ 333 11100 21220 70030
AAXX 31124 71383 NIL
AAXX 31124 71384 17/// /1904 11055 21070 30170 40178 56021 60021 7//4/ 333 11050 21130 70020
AAXX 31124 71385 NIL
AAXX 31124 71386 NIL
AAXX 31124 71387 NIL
AAXX 31124 71388 46/// /0905 11093 21117 39989 40186 56010 6///1 333 11188 21261 7////
AAXX 31124 71389 46/// /0910 11057 21078 6///1 333 11064 21112 7////
AAXX 31124 71390 46/// /3604 11109 6///1 333 11053 21127 7////
AAXX 31124 71391 16/// ///// 11069 21081 60001 333 11086 21105 70013
AAXX 31124 71392 NIL
AAXX 31124 71393 NIL
AAXX 31124 71395 11674 81212 11021 21052 30074 40258 58008 69901 70282 8657/ 333 10003 21057 79999 90921
AAXX 31124 71398 15666 81202 11172 21189 30134 40146 56007 60001 333 11186 21246 70000
AAXX 31124 71399 NIL
AAXX 31124 71700 17566 80507 11063 21086 30208 40235 56008 60001 771// 333 11043 21115 70000
AAXX 31124 71701 NIL
AAXX 31124 71702 16/// /1305 11036 21072 30234 40250 58007 60001 333 11053 21110 4/001 70000
AAXX 31124 71703 11516 80803 11092 21103 39909 40219 56012 69983 771// 885// 333 11090 21178 48007 70008 90999 555 19999 29999 32920 40080
AAXX 31124 71704 17132 83111 10033 20032 39861 40081 53039 60011 7104/ 333 10057 20032 70111
AAXX 31124 71710 16/// /1904 11025 21058 30264 40274 51008 60001 333 11015 21031 70011
AAXX 31124 71712 16/// /0708 11056 21065 30048 40111 56007 60001 333 11074 21102 70000
AAXX 31124 71713 17/// /0405 11090 21100 60011 7//4/ 333 11103 21149 70010
AAXX 31124 71716 NIL
AAXX 31124 71717 NIL
AAXX 31124 71720 16/// /1101 11009 21015 30110 40266 51039 60001 333 10078 21016 70000
AAXX 31124 71721 NIL
AAXX 31124 71723 NIL
AAXX 31124 71724 17/// /0510 11046 21064 30134 40142 56016 60011 7//4/ 333 11057 21106 70013
AAXX 31124 71732 NIL
AAXX 31124 71733 16/// /3606 11084 21088 39677 40119 53016 60001 333 11088 21106 4/007 70000
AAXX 31124 71734 16/// /0303 11113 21130 39731 40135 53005 60001 333 11121 21142 70012
AAXX 31124 71736 NIL
AAXX 31124 71737 NIL
AAXX 31124 71741 16/// /0202 11023 21043 39798 40224 51038 60001 333 10092 21024 70000
AAXX 31124 71742 NIL
AAXX 31124 71743 NIL
AAXX 31124 71744 NIL
AAXX 31124 71745 NIL
AAXX 31124 71746 NIL
AAXX 31124 71747 NIL
AAXX 31124 71748 NIL
AAXX 31124 71731 11266 80707 11092 21107 39648 40110 53012 69901 77177 887// 333 11104 21114 48016 70002 90983
AAXX 31124 71864 NIL
AAXX 31124 71865 16/// /2710 11053 21073 39301 49976 53029 60001 333 10019 21054 70000
AAXX 31124 71866 46364 82915 11065 21088 39396 40009 53038 6///1 333 10008 21100 7////
AAXX 31124 71867 11274 81410 11048 21054 39600 49933 55001 69931 70272 885// 333 11043 21084 47025 70009 90927
AAXX 31124 71868 16/// /2609 11017 21040 39502 49938 51020 60001 333 11015 21049 70000
AAXX 31124 71869 11462 82814 11043 21056 39449 49971 52039 69941 77122 885// 333 11036 21075 47011 70020 90931
AAXX 31124 71871 15464 82919 11066 21071 39238 40047 51047 60001 333 11032 21099 70000
AAXX 31124 71877 12974 23411 11043 21071 38843 40120 53074 60001 82030 333 10076 21043 41997 70000
AAXX 31124 71878 NIL
AAXX 31124 71879 16964 02911 11049 21090 39287 40098 51052 60001 333 11009 21054 70000
AAXX 31124 71880 12882 21910 11009 21062 39040 40149 52045 60001 82070 333 10042 21040 42001 70006
AAXX 31124 71882 160// /0311 10010 21058 39658 40201 51057 60001 333 10037 21006 70030
AAXX 31124 71883 46/// /0000 11059 21101 39381 40214 51050 6///1 333 10029 21059 7////
AAXX 31124 71887 11774 40202 11022 21045 39801 40227 52038 69901 70281 83570 333 10093 21024 45997 70002 90920
AAXX 31124 71889 12874 20000 11015 21087 39807 40229 51049 60001 82070 333 10074 21018 70008
AAXX 31124 71891 16964 01915 10027 21033 39951 40228 51046 60001 333 10056 20024 70020
AAXX 31124 71892 12680 20000 10009 21019 30260 40265 52039 60001 82600 333 10088 20000 55037 79999
AAXX 31124 71250 NIL
AAXX 31124 71251 16/// /2709 11016 21081 39163 40088 51052 60001 333 10087 21027 70000
AAXX 31124 71252 NIL
AAXX 31124 71253 46/// /0000 11186 21199 6///1 333 11135 21203 4/027 7////
AAXX 31124 71254 16/// /3015 11053 21077 60001 333 10003 21072 4/004 70000
AAXX 31124 71255 17/// /3504 11100 21116 69931 7//4/ 333 11017 21100 4/020 70010 555 10030
AAXX 31124 71256 46/// /2909 11067 21101 39163 40110 51052 6///1 333 11031 21076 7////
AAXX 31124 71257 NIL
AAXX 31124 71258 NIL
AAXX 31124 71259 NIL
AAXX 31124 71261 17/// /3507 10025 20024 39810 40070 53032 69931 7//4/ 333 10034 20020 70084
AAXX 31124 71263 11160 80000 10038 20039 39782 40070 53013 60081 70264 825// 333 4-9000 70090
AAXX 31124 71264 16/// /0606 10004 21023 30225 40257 58005 60001 333 10016 21031 70000
AAXX 31124 71265 17448 80806 10030 20022 39976 40070 53010 60001 710// 333 10016 20006 70035
AAXX 31124 71266 NIL
AAXX 31124 71267 15966 82619 10013 21080 39008 40102 51046 60001 333 10085 21045 70000
AAXX 31124 71268 NIL
AAXX 31124 71269 NIL
AAXX 31124 71270 NIL
AAXX 31124 71271 16/// ///// 11068 21087 60001 333 11031 21118 70000
AAXX 31124 71272 17466 83308 11142 21154 39664 40020 51011 60001 771// 333 11063 21142 70000
AAXX 31124 71273 16/// /3107 11051 21065 39362 40024 53051 60001 333 11019 21065 55/// 20000 70045
AAXX 31124 71274 NIL
AAXX 31124 71275 NIL
AAXX 31124 71276 NIL
AAXX 31124 71277 NIL
AAXX 31124 71278 NIL
AAXX 31124 71279 16/// /0305 11138 21164 30185 40254 58009 60001 333 11067 21163 70000
AAXX 31124 71281 NIL
AAXX 31124 71282 46/// /1003 11017 21017 39811 40083 53013 6///1 333 11018 21052 7////
AAXX 31124 71283 NIL
AAXX 31124 71284 16/// ///// 11065 21090 60001 333 11022 21086 70000
AAXX 31124 71285 NIL
AAXX 31124 71286 NIL
AAXX 31124 71287 NIL
AAXX 31124 71288 NIL
AAXX 31124 71289 NIL
AAXX 31124 71290 15666 11403 11110 21126 39333 40184 52043 60001 333 11030 21145 70000
AAXX 31124 71291 16/// /1504 11063 21072 39816 40112 55009 60001 333 11054 21072 4/017 55/// 20000 70000
AAXX 31124 71292 15966 02413 11027 21028 39364 49967 51019 60001 333 11014 21059 70000
AAXX 31124 71294 16/// /0402 11077 21087 39687 40098 53005 60001 333 11098 4/013 70036 555 10030
AAXX 31124 71295 NIL
AAXX 31124 71296 NIL
AAXX 31124 71297 17/// /0000 10026 20026 69951 7//4/ 333 10038 20022 70069
AAXX 31124 71298 16/// /2908 10032 20026 39864 40093 53039 60001 333 10072 20032 70092
AAXX 31124 71299 NIL
AAXX 31124 71001 15966 00601 11369 21415 39082 40114 51031 60001 333 11264 21370 70000
AAXX 31124 71002 15966 02701 11260 21287 39679 40252 58004 60001 333 11107 21263 70000
AAXX 31124 71003 15966 03301 11277 21304 39809 40216 56005 60001 333 11180 21295 70000
AAXX 31124 71005 NIL
AAXX 31124 71006 NIL
AAXX 31124 71007 NIL
AAXX 31124 71008 NIL
AAXX 31124 71009 NIL
AAXX 31124 71010 NIL
AAXX 31124 71011 NIL
AAXX 31124 71012 NIL
AAXX 31124 71013 NIL
AAXX 31124 71014 NIL
AAXX 31124 71015 NIL
AAXX 31124 71016 NIL
AAXX 31124 71017 NIL
AAXX 31124 71018 NIL
AAXX 31124 71019 NIL
AAXX 31124 71020 NIL
AAXX 31124 71021 NIL
AAXX 31124 71022 15966 01306 11030 21047 30175 40220 51023 60001 333 10022 21028 70028
AAXX 31124 71023 NIL
AAXX 31124 71024 16/// /2201 11148 21156 60001 333 11148 21169 4/017 70000
AAXX 31124 71026 NIL
AAXX 31124 71027 16/// /2403 11052 21073 30275 40285 51014 60001 333 11021 21054 70009
AAXX 31124 71028 16/// /3603 11123 21133 39188 40254 51043 60001 333 10020 21123 4/005 70016 555 10010
AAXX 31124 71029 NIL
AAXX 31124 71030 16/64 /1208 10046 20015 30113 40204 57009 60001 333 10014 21021 4/002 70000
AAXX 31124 71032 46/// /2501 11052 21070 39392 40239 51040 6///1 333 10030 21061 4/017 7////
AAXX 31124 71033 46/// /3503 11113 21123 39387 40022 52017 6///1 333 11046 21114 4/026 55/// 20000 7////
AAXX 31124 71035 NIL
AAXX 31124 71036 15964 32308 11008 21027 39585 49958 51001 60001 333 11025 21065 70000
AAXX 31124 71039 46/// /0000 11377 6///1 333 11237 21377 7////
AAXX 31124 71040 46/// /2503 11159 21186 39975 40186 56012 6///1 333 11184 21258 7////
AAXX 31124 71041 15666 80805 11050 21070 30142 40289 53012 60001 333 11037 21114 70000
AAXX 31124 71042 16/// /1902 11014 21022 30255 40259 53040 60001 333 10091 21016 70007
AAXX 31124 71044 16/// /2901 11336 21371 39783 40120 51022 60001 333 11238 21348 4/016 70000
AAXX 31124 71046 460// /2502 11279 30108 40126 53022 6///1 333 11247 21304 7////
AAXX 31124 71047 NIL
AAXX 31124 71048 NIL
AAXX 31124 71049 NIL
AAXX 31124 71060 NIL
AAXX 31124 71063 NIL
AAXX 31124 71665 16/// /2508 11191 21248 30187 40197 51009 60001 333 11063 21193 4/020 70006
AAXX 31124 71666 16/// /0904 11054 21097 30200 40246 58008 60001 333 11050 21128 4/001 70000
AAXX 31124 71667 NIL
AAXX 31124 71668 16/// /0704 11063 21084 30188 40233 56008 60001 333 11046 21100 4/001 70000
AAXX 31124 71669 NIL
AAXX 31124 71670 16/// ///// 11068 21087 60001 333 11055 21143 70000
AAXX 31124 71671 16/// /0603 11017 21052 30178 40240 58009 60001 333 11017 21040 70000
AAXX 31124 71672 16/// /0602 11022 21034 39816 40083 53005 60001 333 11034 21063 4/012 70012
AAXX 31124 71673 NIL
AAXX 31124 71674 NIL
AAXX 31124 71675 17466 81806 11092 21103 39772 40055 58012 60031 7004/ 333 11096 21106 70149
AAXX 31124 71679 16/// /3207 11064 21093 39171 40203 51041 60001 333 10007 21070 4/006 70000
AAXX 31124 71680 NIL
AAXX 31124 71681 46/// /1202 11020 21042 6///1 333 10096 21020 7////
AAXX 31124 71682 NIL
AAXX 31124 71683 NIL
AAXX 31124 71684 15366 83405 11104 21117 39825 40135 53008 60001 333 11109 21114 70000
AAXX 31124 71685 15966 10212 10009 21046 39656 40200 51055 60001 333 10036 21003 70020
AAXX 31124 71686 469// /0101 11204 21225 39177 40170 51028 6///1 333 11140 21211
AAXX 31124 71687 16/// /1703 11026 21037 39443 40238 51039 60001 333 10021 21026 4/033 70028
AAXX 31124 71688 16/// /0000 11042 21044 39177 40227 52038 60001 333 10007 21047 4/094 70053 555 10050
AAXX 31124 71689 17548 83009 11097 21109 39602 40062 51040 69951 7714/ 333 11002 21098 70013
AAXX 31124 71690 NIL
AAXX 31124 71691 17466 80916 11067 21082 30203 40231 56012 60001 771// 333 11090 21194 70000
AAXX 31124 71692 NIL
AAXX 31124 71694 16/// /0602 11011 21017 39731 40097 53016 60001 333 11022 21056 4/018 70041 555 10010
AAXX 31124 71695 17/// /1308 11047 21061 39596 49928 56001 69951 7//4/ 333 11044 21081 4/024 70010 555 10010
AAXX 31124 71696 16/// /1903 11077 21084 39959 49996 50005 60001 333 11078 21105 70003
AAXX 31124 71697 15462 80804 10010 20010 39903 40075 53012 60001 333 10003 21016 70010
AAXX 31124 71699 16/// /1113 10041 20013 30211 40219 56011 60001 333 11016 21037 4/001 70000
AAXX 31124 71450 16/// /2713 11037 21089 39304 40018 51035 60001 333 10028 21044 70003
AAXX 31124 71451 NIL
AAXX 31124 71452 NIL
AAXX 31124 71453 NIL
AAXX 31124 71454 17/// /3206 11063 21078 39285 49974 53046 69981 7//4/ 333 11038 21063 55/// 20000 70065
AAXX 31124 71455 NIL
AAXX 31124 71456 NIL
AAXX 31124 71457 16/// /3312 11017 21081 39191 40079 53069 60001 333 10066 21052 70000
AAXX 31124 71458 16/// /3110 11075 21096 39303 40086 51052 60001 333 10003 21142 4/009 70000 555 10010
AAXX 31124 71459 16/// /3211 11038 21077 39251 40057 53054 60001 333 10048 21066 70000
AAXX 31124 71460 16/// /0302 11047 21059 39869 40114 53017 60001 333 11053 21074 70000
AAXX 31124 71461 NIL
AAXX 31124 71462 NIL
AAXX 31124 71463 NIL
AAXX 31124 71464 NIL
AAXX 31124 71465 NIL
AAXX 31124 71466 NIL
AAXX 31124 71468 NIL
AAXX 31124 71470 NIL
AAXX 31124 71471 15966 02614 11051 21130 39325 40127 51052 60001 333 11045 21109 70000
AAXX 31124 71473 16/// /2506 10016 21031 30235 40266 53041 60001 333 10073 20016 70004
AAXX 31124 71475 16/// /3402 11036 21039 30179 40275 51039 60001 333 10077 21045 70012
AAXX 31124 71476 NIL
AAXX 31124 71477 46/// /1910 11019 21058 6///1 333 10026 21042 7////
AAXX 31124 71478 NIL
AAXX 31124 71479 NIL
AAXX 31124 71480 NIL
AAXX 31124 71481 NIL
AAXX 31124 71482 NIL
AAXX 31124 71483 NIL
AAXX 31124 71484 NIL
AAXX 31124 71485 16/// /1508 10032 20004 30225 40246 51023 60001 333 10064 20018 70110
AAXX 31124 71486 17/// /2002 11040 21097 38935 40144 51060 69941 7//4/ 333 10011 21049 4/017 70012 555 10010
AAXX 31124 71487 NIL
AAXX 31124 71489 16/// /2918 11088 21106 39237 40044 53049 60001 333 11018 21088 70007
AAXX 31124 71490 NIL
AAXX 31124 71491 NIL
AAXX 31124 71492 NIL
AAXX 31124 71493 16/// /1008 11021 21056 30204 40243 57012 60001 333 11020 21089 70000
AAXX 31124 71494 17/// /0909 11024 21030 39613 40141 56018 60011 7//4/ 333 11051 21075 4/004 70015
AAXX 31124 71495 NIL
AAXX 31124 71496 16/// /3015 11066 21079 39392 40002 53038 60001 333 10007 21101 55/// 20000 70000
AAXX 31124 71497 46/// /2205 11235 21264 39848 40127 52020 6///1 333 11211 21245 7////
AAXX 31124 71498 NIL
AAXX 31124 71499 15366 83604 11107 21118 39388 40021 52018 60001 333 11043 21108 70000
AAXX 31124 71051 NIL
AAXX 31124 71055 NIL
AAXX 31124 71057 NIL
AAXX 31124 71059 460// ///// 11309 30065 40161 53009 6///1 333 11315 21322 7////
AAXX 31124 71061 16/// /2807 11055 21094 39305 40099 51054 60001 333 11028 21095 4/004 70000
AAXX 31124 71062 46/// /3114 11041 21121 39013 40090 51053 6///1 333 11023 21076 4/012 7////
AAXX 31124 71064 460// /3610 11364 39941 40173 51010 6///1 333 11360 21371 7////
AAXX 31124 71065 NIL
AAXX 31124 71067 NIL
AAXX 31124 71070 NIL
AAXX 31124 71073 NIL
AAXX 31124 71074 NIL
AAXX 31124 71075 NIL
AAXX 31124 71078 NIL
AAXX 31124 71084 460// ///// 11355 30090 40141 51012 6///1 333 11348 21357 7////
AAXX 31124 71085 15966 02620 11016 21082 38727 40112 52053 60001 333 10052 21031 70005
AAXX 31124 71087 NIL
AAXX 31124 71088 460// /3309 11230 52004 6///1 333 11207 21231 7////
AAXX 31124 71089 NIL
AAXX 31124 71096 460// ///// 11256 39297 40056 50000 6///1 333 11230 21283 7////
AAXX 31124 71097 46964 03304 11203 39615 40106 51007 6///1 333 11206 21223 7////
AAXX 31124 71098 43/// /1405 11087 21100 39666 40030 56019 6///1 333 11087 21122 7////
AAXX 31124 71099 43/// /1807 11112 21134 30041 40062 56011 6///1 333 11143 21159 7////
AAXX 31124 71851 16/// /1705 11022 21029 39654 49988 56010 60001 333 11029 21047 70000
AAXX 31124 71857 NIL
AAXX 31124 71860 NIL
AAXX 31124 71876 15366 82815 11063 21070 39368 40036 51050 60001 333 11021 21111 70000
AAXX 31124 71885 NIL
AAXX 31124 71886 16/// /2412 11027 21051 39363 49966 51019 60001 333 11014 21061 4/006 55/// 20000 70000
AAXX 31124 71888 NIL
AAXX 31124 71890 16/// /0215 11068 21096 30200 40228 56011 60001 333 11091 21202 4/021 70000
AAXX 31124 71895 NIL
AAXX 31124 71401 16/// /1603 10002 21045 39513 40202 51056 60001 333 10057 20001 4/013 70014
AAXX 31124 71402 NIL
AAXX 31124 71404 NIL
AAXX 31124 71405 NIL
AAXX 31124 71406 NIL
AAXX 31124 71407 NIL
AAXX 31124 71408 NIL
AAXX 31124 71409 NIL
AAXX 31124 71410 15266 81406 11062 21070 39702 49981 53001 60001 333 11050 21064 70000
AAXX 31124 71413 NIL
AAXX 31124 71414 NIL
AAXX 31124 71415 16/// /1607 11028 21055 30259 40262 58003 60001 333 11031 21068 4/001 70000
AAXX 31124 71417 NIL
AAXX 31124 71418 NIL
AAXX 31124 71419 46/// /1903 11010 21038 30279 40289 51013 6///1 333 11002 21051 7////
AAXX 31124 71423 NIL
AAXX 31124 71424 46/// /0328 6///1 333 7////
AAXX 31124 71425 16/// /1607 11089 21117 30214 40252 56004 60001 333 11066 21107 70000
AAXX 31124 71426 NIL
AAXX 31124 71427 16/// /0309 11098 21120 30232 40240 57006 60001 333 11069 21129 70000
AAXX 31124 71428 NIL
AAXX 31124 71429 16/// /1806 11050 21092 30230 40250 51002 60001 333 11026 21058 70000
AAXX 31124 71434 NIL
AAXX 31124 71436 15462 80203 11034 21041 39848 40086 53006 60001 333 11046 21067 70000
AAXX 31124 71437 46/// /3603 10028 20015 39968 40063 53010 6///1 333 10047 20027 7////
AAXX 31124 71438 NIL
AAXX 31124 71439 NIL
AAXX 31124 71440 NIL
AAXX 31124 71442 NIL
AAXX 31124 71445 NIL
AAXX 31124 71446 NIL
AAXX 31124 71448 16/// /1510 11033 21042 39668 40000 56028 60001 333 11067 21112 70000
AAXX 31124 71449 NIL
AAXX 31124 71603 12574 80909 10050 20025 30156 40210 58017 60001 8357/ 333 10014 21006 70000
AAXX 31124 71607 16/// /0704 10001 21016 30174 40207 57015 60001 333 11018 21044 4/001 70000 555 10010
AAXX 31124 71609 11574 81309 11002 21041 30094 40232 56005 69901 70282 8657/ 333 11031 21103 79999 90952
AAXX 31124 71610 15966 80706 11028 21035 39834 40134 56014 60001 333 11043 21062 70000
AAXX 31124 71621 NIL
AAXX 31124 71623 NIL
AAXX 31124 71624 11148 83502 10011 20011 39859 40071 53010 69961 75165 887// 333 10010 21001 42001 55000 70046 90983
AAXX 31124 71625 17361 82602 11090 21101 39954 40119 53003 69951 745// 333 11099 21113 70020
AAXX 31124 71627 NIL
AAXX 31124 71628 11260 80608 11063 21075 39966 40110 55004 69901 76872 85700 333 11084 21118 4-6015 70012 909/7
AAXX 31124 71630 NIL
AAXX 31124 71631 NIL
AAXX 31124 71633 11256 80204 10016 20014 39809 40080 53024 69941 75155 887// 333 10023 20007 43005 55001 70068 90983
AAXX 31124 71705 11574 80905 11054 21107 30155 40246 58011 69901 70282 885// 333 11048 21110 79999 90941
AAXX 31124 71706 12574 81506 11035 21067 30208 40271 58001 60001 885// 333 11064 21119 42001 79999
AAXX 31124 71707 12774 42205 11071 21091 30215 40295 52015 60001 82570 333 11035 21079 45997 70002
AAXX 31124 71709 13580 71904 11027 21065 30265 40279 53007 69902 87500 333 11018 21034 46001 70002 90999 555 10006 20006
AAXX 31124 71711 NIL
AAXX 31124 71714 47/// /0710 11061 21078 30087 40182 6///1 7//4/ 333 11066 21110 4/014 7////
AAXX 31124 71715 17/// /0702 11102 21116 30015 40204 56011 60021 7//4/ 333 11116 21174 70016
AAXX 31124 71718 11683 80806 11106 21212 30160 40228 55008 69901 78522 885// 333 11110 21154 48002 79999 90910
AAXX 31124 71719 17/// /2003 11069 21104 30253 40259 57003 69931 7//4/ 333 11042 21119 4/002 70003
AAXX 31124 71893 12580 22903 11009 21032 30233 40265 51040 60001 82500 333 10085 21015 55031 70000
AAXX 31124 71894 16/// /0610 11001 21001 30250 40259 50026 60001 333 10083 21001 70014
AAXX 31124 71896 15966 02107 11088 21118 39363 40211 53045 60001 333 10004 21127 70026
AAXX 31124 71897 12274 32310 10024 21015 3//// 4//// 52008 60001 82801 333 10048 20016 70000
AAXX 31124 71898 NIL
AAXX 31124 71899 11474 22413 10018 21034 3//// 4//// 53022 69921 70181 82500 333 10040 21004 46997 70008 90950
AAXX 31124 71902 12974 02506 11187 21247 30193 40202 51009 60002 333 11077 21188 48048 70004 555 10050 20050
AAXX 31124 71905 NIL
AAXX 31124 71906 11574 82108 11177 21226 30163 40215 57002 69901 77177 885// 333 11125 21178 44015 79999 90983
AAXX 31124 71907 16864 81917 11148 21181 30105 40139 57011 60001 333 11158 21171 70010
AAXX 31124 71909 16964 00702 11196 21224 30077 40122 55005 60001 333 11206 21227 70000
AAXX 31124 71910 47422 92612 11138 21158 30014 40078 56006 6///1 745// 333 11148 21160 7////
AAXX 31124 71911 46964 03505 11334 30058 40118 51010 6///1 333 11291 21369 7////
AAXX 31124 71912 11274 81904 11064 21071 39825 40009 55003 69901 70277 886// 333 11068 21078 45021 79999 90943
AAXX 31124 71915 11459 80204 11175 21204 39976 40059 57002 69921 77177 885// 333 11183 21198 55/// 70032 90983
AAXX 31124 71917 11658 61202 11375 21425 30089 40104 52002 69901 77177 86500 333 11393 21426 47014 55/// 10150 20000 79999 90993
AAXX 31124 71922 11469 80210 11050 21062 39515 49982 53034 60011 77177 885// 333 11015 21097 47034 70042 90973 93101
AAXX 31124 71924 11974 03204 11358 21399 30032 40128 52006 69901 77677 333 11286 21380 48038 55/// 79999 90983
AAXX 31124 71925 11469 20103 11369 21412 30125 40169 51008 69901 77677 81530 333 11359 21373 42021 79999 90983
AAXX 31124 71926 11574 83519 11235 21289 30054 40079 51011 69981 77177 885// 333 11152 21235 47403 70008 90983
AAXX 31124 71928 16/// /3112 11030 21107 38945 40116 52055 60001 333 10047 21118 4/009 70000
AAXX 31124 71816 12574 22515 11198 21228 30191 40256 52005 60001 81501 333 11022 21223 47089 55000 79999
AAXX 31124 71817 NIL
AAXX 31124 71818 12874 12215 11159 21202 30204 40223 52006 60001 81070 333 10002 21165 44025 55000 70006
AAXX 31124 71822 11566 80904 11161 21194 39673 40172 56010 69901 77122 885// 333 11240 21242 43046 79999 90999
AAXX 31124 71825 12274 41802 11231 21272 39534 40247 58003 60001 84500 333 11129 21314 48126 70006
AAXX 31124 71827 12974 11110 11262 21302 39914 40174 56010 60001 80001 333 11211 21263 47018 70000
AAXX 31124 71828 16148 61904 11216 21253 39557 40229 58001 60001 333 11156 21217 70000
AAXX 31124 71831 11574 81404 11122 21132 39852 40142 53004 69901 77177 885// 333 11120 21136 48042 79999 90973
AAXX 31124 71832 NIL
AAXX 31124 71834 12266 80000 11090 21103 39683 40121 53002 60001 886// 333 11103 21116 48027 79999
AAXX 31124 71841 NIL
AAXX 31124 71842 11274 81605 11092 21101 39598 40075 56019 69901 70277 886// 333 11072 21096 47008 79999 90953
AAXX 31124 71844 NIL
AAXX 31124 71845 11274 81907 11089 21095 39590 40073 56011 69902 771// 887// 333 11103 21114 44021 79999 90999 555 19999 29999
AAXX 31124 71850 NIL
AAXX 31124 71852 17340 81917 11037 21047 39709 40004 55003 60001 743// 333 11049 21076 70000
AAXX 31124 71854 11132 81507 11083 21093 39564 40043 56022 69902 710// 886// 333 11088 21102 48017 79999 90999 555 10004 29999
AAXX 31124 71858 16/// /1703 11042 21052 39667 49946 58008 60001 333 11046 21052 70000
AAXX 31124 71861 16/// /2811 11016 21046 39262 49981 53024 60001 333 10013 21030 4/013 70000
AAXX 31124 71862 12974 63008 11024 21053 39311 40009 53025 60001 80001 333 10024 21024 47009 79999
AAXX 31124 71863 46964 03013 11062 21095 39312 40008 53033 6///1 333 10013 21084 7////
AAXX 31124 71114 160// /2508 10031 20008 30211 40260 51047 69951 333 10084 20027 70095
AAXX 31124 71120 11459 82908 11052 21070 39379 40047 52050 60011 77122 887// 333 11050 21064 44009 70057 90931 93101
AAXX 31124 71122 46/// /2504 11032 21120 38515 40123 51056 6///1 333 21047 4/017 7//// 555 10010
AAXX 31124 71123 11974 13113 11046 21092 39231 40107 52054 69961 70181 81071 333 11022 21086 44006 70006 90935
AAXX 31124 71125 11/24 93012 11058 21070 39435 40022 53052 60042 7718/ 333 47011 70077 90999 93107
AAXX 31124 71129 12774 22812 11062 21099 39220 40050 53052 60001 81501 333 10022 21065 42997 79999
AAXX 31124 71131 16/// /3013 11050 21094 38798 40047 53035 60001 333 10028 21088 70000
AAXX 31124 71135 16/// /3011 11020 21069 38951 40028 53022 60001 333 10026 21045 4/004 70000
AAXX 31124 71137 NIL
AAXX 31124 71140 12974 83005 11056 21056 39487 49990 5/006 60001 8807/ 333 11061 21080 48006 79999
AAXX 31124 71145 11274 81410 11080 21091 39714 40009 56021 69901 72222 885// 333 11060 21103 48037 70004 90931
AAXX 31124 71148 NIL
AAXX 31124 71185 16964 02607 11061 30239 40263 51023 60001 333 11007 21064 70000
AAXX 31124 71188 12474 82702 11076 21106 30215 40259 55000 60001 885// 333 11039 21082 44009 55010 79999
AAXX 31124 71200 17/// /2515 10029 20005 69921 7//4/ 333 10084 20021 70030
AAXX 31124 71207 16/// /3501 11007 30190 40255 53042 60001 333 10063 21011 70138
AAXX 31124 71260 13/// ///// 11082 21087 39885 40125 53012 60001 333 11024 21083 44002 70002
AAXX 31124 71043 11083 00000 11335 21387 30029 40128 52019 69901 77677 333 11227 21341 48034 70006 90983
AAXX 31124 71045 17/// /0201 11245 21272 39230 40129 52030 69961 7//4/ 333 11146 21269 4/028 70006
AAXX 31124 71050 NIL
AAXX 31124 71051 NIL
AAXX 31124 71052 NIL
AAXX 31124 71066 11/24 93606 11116 21144 39666 40095 51034 69961 77172 333 11130 21152 47025 70006 90962 93101
AAXX 31124 71068 11674 72712 11057 21083 39390 40089 52032 69941 73672 83570 333 11050 21095 47007 70030 90973 93101
AAXX 31124 71069 17564 62915 11039 21063 39371 40081 51042 60001 745// 333 11014 21116 70000
AAXX 31124 71076 16/// /0703 11116 21129 39664 40063 51025 60001 333 11106 21125 4/036 55/// 20000 70000
AAXX 31124 71077 17/// /3207 11075 21087 39496 40038 52041 69931 7//4/ 333 11008 21075 4/018 55/// 20000 70006 555 10020
AAXX 31124 71079 11116 80804 11061 21061 39710 49990 56007 69921 76877 887// 333 11067 21074 48009 70016 90983
AAXX 31124 71081 46264 83110 11326 21370 30045 40057 52007 6///1 333 11219 21326 7////
AAXX 31124 71082 NIL
AAXX 31124 71083 11548 80103 11176 21184 30014 40057 52002 69901 77172 885// 333 11134 21184 48058 70005 90937
AAXX 31124 71090 46964 02704 11348 21380 30035 40072 51003 6///1 333 11281 21354 7////
AAXX 31124 71091 460// /0513 11263 39830 40046 55002 6///1 333 7////
AAXX 31124 71092 NIL
AAXX 31124 71093 460// ///// 11237 39538 40050 51002 6///1 333 11229 21259 7////
AAXX 31124 71094 46064 /0108 11256 39096 40018 51001 6///1 333 11195 21258 7////
AAXX 31124 71095 46964 31903 11353 21396 39989 40074 54000 6///1 333 11302 21364 7////
AAXX 31124 71101 160// /1906 30213 51020 60001 333 70000
AAXX 31124 71104 12674 40000 11078 21106 39090 40218 52042 60001 83570 333 10039 21097 44028 79999
AAXX 31124 71108 12774 71706 10020 21006 30195 40269 52039 60001 85530 333 10083 20012 70004
AAXX 31124 71109 11674 82106 10008 21013 30224 40251 51024 60031 70288 8557/ 333 10048 20001 43002 70140 9095193103
AAXX 31124 71726 16/// /1103 11104 21117 39588 40145 56005 60001 333 11126 21151 4/030 70033
AAXX 31124 71727 11648 81011 11100 21120 39982 40189 57010 60011 78522 885// 333 11175 21246 44041 70010 90952
AAXX 31124 71728 11562 82904 11196 21245 39963 40198 57016 69941 77177 885// 333 11211 21268 44997 70004 90973
AAXX 31124 71730 12262 80108 11085 21086 39684 40119 52015 60001 886// 333 11090 21108 48013 79999
AAXX 31124 71731 11266 80707 11092 21107 39648 40110 53012 69901 77177 887// 333 11104 21114 48016 70008 90983
AAXX 31124 71735 NIL
AAXX 31124 71738 13574 60000 11152 21170 39777 40140 50013 60002 86500 333 11057 21157 47028 70004 555 10100 20056
AAXX 31124 71739 41 74 80000 11122 21137 39766 40141 53010 6//// 77077 887// 333 11125 21137 4//// 7//// 90983
AAXX 31124 71749 16559 81604 11061 21066 39861 40110 57009 60001 333 11026 21068 70005
AAXX 31124 71799 12983 12708 10005 21024 30249 40273 52041 60001 81070 333 10095 21014 55063 70006
AAXX 31124 71800 16/// /2801 11005 21043 30246 40280 51026 60001 333 10030 21026 70000
AAXX 31124 71801 12674 72908 11021 21079 30098 40275 52030 60001 87500 333 10002 21035 41001 79999
AAXX 31124 71803 11580 12808 11068 21105 30076 40268 51026 69901 70181 81500 333 11017 21071 46004 70010 90930
AAXX 31124 71807 NIL
AAXX 31124 71808 12474 20000 11146 21185 30205 40253 53020 60001 82500 333 11015 21152 44020 70010
AAXX 31124 71809 12574 70000 11113 21128 30250 40278 52023 60001 87500 333 11004 21119 42001 70002
AAXX 31124 71810 16/// /0807 11085 21105 30191 40260 53005 60001 333 11046 21095 70000
AAXX 31124 71811 NIL
AAXX 31124 71813 16/// /0105 11172 21196 30263 40277 53004 60001 333 11020 21187 70000
AAXX 31124 71814 16/// /3306 11181 21205 30269 40279 51021 60001 333 11013 21183 70000
AAXX 31124 71815 12474 83108 11026 21075 30246 40277 51020 60001 885// 333 11002 21028 46005 70010
AAXX 31124 71864 NIL
AAXX 31124 71865 16/// /2710 11053 21073 39301 49976 53029 60001 333 10019 21054 70000
AAXX 31124 71866 46364 82915 11065 21088 39396 40009 53038 6///1 333 10008 21100 7////
AAXX 31124 71867 11274 81410 11048 21054 39600 49933 55001 69931 70272 885// 333 11043 21084 47025 70009 90927
AAXX 31124 71868 16/// /2609 11017 21040 39502 49938 51020 60001 333 11015 21049 70000
AAXX 31124 71869 11462 82814 11043 21056 39449 49971 52039 69941 77122 885// 333 11036 21075 47011 70020 90931
AAXX 31124 71871 15464 82919 11066 21071 39238 40047 51047 60001 333 11032 21099 70000
AAXX 31124 71877 12974 23411 11043 21071 38843 40120 53074 60001 82030 333 10076 21043 41997 70000
AAXX 31124 71878 NIL
AAXX 31124 71879 16964 02911 11049 21090 39287 40098 51052 60001 333 11009 21054 70000
AAXX 31124 71880 12882 21910 11009 21062 39040 40149 52045 60001 82070 333 10042 21040 42001 70006
AAXX 31124 71882 160// /0311 10010 21058 39658 40201 51057 60001 333 10037 21006 70030
AAXX 31124 71883 46/// /0000 11059 21101 39381 40214 51050 6///1 333 10029 21059 7////
AAXX 31124 71887 11774 40202 11022 21045 39801 40227 52038 69901 70281 83570 333 10093 21024 45997 70002 90920
AAXX 31124 71889 12874 20000 11015 21087 39807 40229 51049 60001 82070 333 10074 21018 70008
AAXX 31124 71891 16964 01915 10027 21033 39951 40228 51046 60001 333 10056 20024 70020
AAXX 31124 71892 12680 20000 10009 21019 30260 40265 52039 60001 82600 333 10088 20000 55037 79999
AAXX 31124 71397 12674 80505 11009 21055 30207 40242 58010 60001 8657/ 333 11010 21040 45997 70000
AAXX 31124 71400 NIL
AAXX 31124 71403 46/// /1013 10034 20010 30250 40270 50002 6///1 333 10020 21021 7////
AAXX 31124 71411 16/// /1011 10054 20039 30225 40238 58012 60001 333 10036 21002 70000
AAXX 31124 71412 16/// /1808 11017 21053 30264 40274 53002 60001 333 11049 21083 70000
AAXX 31124 71421 NIL
AAXX 31124 71430 17/// /1007 10020 20016 39980 40077 53006 60011 7//4/ 333 11004 21044 70011
AAXX 31124 71431 16/// /0604 10008 21005 39973 40069 53009 60001 333 11011 21030 4/003 70003
AAXX 31124 71432 NIL
AAXX 31124 71433 NIL
AAXX 31124 71435 NIL
AAXX 31124 71441 46/// /1818 11033 21040 39697 40007 56011 6///1 333 11051 21069 7////
AAXX 31124 71443 16/// /2210 11034 21044 39534 49943 53005 60001 333 11022 21117 70000
AAXX 31124 71444 NIL
AAXX 31124 71447 NIL
AAXX 31124 71467 16/// /0708 11281 21308 30057 40178 51018 60001 333 11281 21311 4/004 70000 555 10010
AAXX 31124 71472 NIL
AAXX 31124 71474 16964 30000 11090 21127 38958 40215 51037 60001 333 10037 21094 70000
AAXX 31124 71510 16/// /2913 11060 21100 39315 40020 53042 60001 333 10014 21063 70036
AAXX 31124 71538 11361 82908 10037 20024 39866 40095 53039 69921 70265 887// 333 10070 20034 70096 90937
AAXX 31124 71600 167// 81212 10045 20017 30284 40290 51010 60001 333 10046 21009 70005
AAXX 31124 71601 NIL
AAXX 31124 71930 NIL
AAXX 31124 71931 16/// /2707 11051 21094 30233 40245 53026 60001 333 10030 21056 70000
AAXX 31124 71934 11174 82803 11196 21225 39829 40097 51028 69901 77171 886// 333 11164 21245 47029 79999 90942
AAXX 31124 71935 11466 82603 11163 21194 39900 40116 52027 69901 77122 887// 333 11163 21208 47028 79999 90910
AAXX 31124 71936 12574 80000 11168 21198 39836 40104 52022 60001 885// 333 11157 21176 48027 70008
AAXX 31124 71937 NIL
AAXX 31124 71938 11862 30503 11293 21323 30128 40159 53015 69941 77677 83030 333 11283 21294 46029 70014 90983 93101
AAXX 31124 71940 11882 22715 11065 21120 39314 40133 52052 69901 73671 81030 333 11037 21083 48003 70010 90962
AAXX 31124 71943 12974 42608 11093 21142 39277 40128 51055 60001 84030 333 11044 21109 46003 70022
AAXX 31124 71944 160// ///// 11112 51044 60001 333 11032 21144 70000
AAXX 31124 71945 11574 70000 11172 21218 39640 40127 52036 69921 70277 87500 333 11150 21183 47014 70012 90943
AAXX 31124 71946 12274 80000 11284 21300 39902 40129 51025 60001 886// 333 11252 21290 48045 79999
AAXX 31124 71948 47016 /0825 11274 30015 40134 51017 6///1 745// 333 11275 21289 7////
AAXX 31124 71949 46/// /1303 11230 21255 39191 40100 53024 6///1 333 11172 21253 7////
AAXX 31124 71951 12474 31806 11042 21060 39962 40235 51039 69901 82830 333 10001 21076 47041 70020
AAXX 31124 71957 46458 60000 11267 21338 30032 40125 51020 6///1 333 11201 21270 7////
AAXX 31124 71964 12786 41511 11151 21197 39208 40083 52025 60001 85500 333 11114 21187 47019 70000
AAXX 31124 71966 16/// /2303 11255 21285 39626 40114 51027 60001 333 11281 21359 4/045 70073
AAXX 31124 71968 460// /2005 11318 30051 40119 53020 6///1 333 11220 21329 7////
AAXX 31124 71731 11266 80707 11092 21107 39648 40110 53012 69901 77177 887// 333 11104 21114 48016 70002 90983
AAXX 31124 71043 11083 00000 11335 21387 30029 40128 52019 69901 77677 333 11227 21341 48034 70006 90983
AAXX 31124 71045 17/// /0201 11245 21272 39230 40129 52030 69961 7//4/ 333 11146 21269 4/028 70006
AAXX 31124 71050 NIL
AAXX 31124 71051 NIL
AAXX 31124 71052 NIL
AAXX 31124 71066 11/24 93606 11116 21144 39666 40095 51034 69961 77172 333 11130 21152 47025 70006 90962 93101
AAXX 31124 71068 11674 72712 11057 21083 39390 40089 52032 69941 73672 83570 333 11050 21095 47007 70030 90973 93101
AAXX 31124 71069 17564 62915 11039 21063 39371 40081 51042 60001 745// 333 11014 21116 70000
AAXX 31124 71076 16/// /0703 11116 21129 39664 40063 51025 60001 333 11106 21125 4/036 55/// 20000 70000
AAXX 31124 71077 17/// /3207 11075 21087 39496 40038 52041 69931 7//4/ 333 11008 21075 4/018 55/// 20000 70006 555 10020
AAXX 31124 71079 11116 80804 11061 21061 39710 49990 56007 69921 76877 887// 333 11067 21074 48009 70016 90983
AAXX 31124 71081 46264 83110 11326 21370 30045 40057 52007 6///1 333 11219 21326 7////
AAXX 31124 71082 NIL
AAXX 31124 71083 11548 80103 11176 21184 30014 40057 52002 69901 77172 885// 333 11134 21184 48058 70005 90937
AAXX 31124 71090 46964 02704 11348 21380 30035 40072 51003 6///1 333 11281 21354 7////
AAXX 31124 71091 460// /0513 11263 39830 40046 55002 6///1 333 7////
AAXX 31124 71092 NIL
AAXX 31124 71093 460// ///// 11237 39538 40050 51002 6///1 333 11229 21259 7////
AAXX 31124 71094 46064 /0108 11256 39096 40018 51001 6///1 333 11195 21258 7////
AAXX 31124 71095 46964 31903 11353 21396 39989 40074 54000 6///1 333 11302 21364 7////
AAXX 31124 71101 160// /1906 30213 51020 60001 333 70000
AAXX 31124 71104 12674 40000 11078 21106 39090 40218 52042 60001 83570 333 10039 21097 44028 79999
AAXX 31124 71108 12774 71706 10020 21006 30195 40269 52039 60001 85530 333 10083 20012 70004
AAXX 31124 71109 11674 82106 10008 21013 30224 40251 51024 60031 70288 8557/ 333 10048 20001 43002 70140 9095193103
AAXX 31124 71930 NIL
AAXX 31124 71931 16/// /2707 11051 21094 30233 40245 53026 60001 333 10030 21056 70000
AAXX 31124 71934 11174 82803 11196 21225 39829 40097 51028 69901 77171 886// 333 11164 21245 47029 79999 90942
AAXX 31124 71935 11466 82603 11163 21194 39900 40116 52027 69901 77122 887// 333 11163 21208 47028 79999 90910
AAXX 31124 71936 12574 80000 11168 21198 39836 40104 52022 60001 885// 333 11157 21176 48027 70008
AAXX 31124 71937 NIL
AAXX 31124 71938 11862 30503 11293 21323 30128 40159 53015 69941 77677 83030 333 11283 21294 46029 70014 90983 93101
AAXX 31124 71940 11882 22715 11065 21120 39314 40133 52052 69901 73671 81030 333 11037 21083 48003 70010 90962
AAXX 31124 71943 12974 42608 11093 21142 39277 40128 51055 60001 84030 333 11044 21109 46003 70022
AAXX 31124 71944 160// ///// 11112 51044 60001 333 11032 21144 70000
AAXX 31124 71945 11574 70000 11172 21218 39640 40127 52036 69921 70277 87500 333 11150 21183 47014 70012 90943
AAXX 31124 71946 12274 80000 11284 21300 39902 40129 51025 60001 886// 333 11252 21290 48045 79999
AAXX 31124 71948 47016 /0825 11274 30015 40134 51017 6///1 745// 333 11275 21289 7////
AAXX 31124 71949 46/// /1303 11230 21255 39191 40100 53024 6///1 333 11172 21253 7////
AAXX 31124 71951 12474 31806 11042 21060 39962 40235 51039 69901 82830 333 10001 21076 47041 70020
AAXX 31124 71957 46458 60000 11267 21338 30032 40125 51020 6///1 333 11201 21270 7////
AAXX 31124 71964 12786 41511 11151 21197 39208 40083 52025 60001 85500 333 11114 21187 47019 70000
AAXX 31124 71966 16/// /2303 11255 21285 39626 40114 51027 60001 333 11281 21359 4/045 70073
AAXX 31124 71968 460// /2005 11318 30051 40119 53020 6///1 333 11220 21329 7////
AAXX 31124 71726 16/// /1103 11104 21117 39588 40145 56005 60001 333 11126 21151 4/030 70033
AAXX 31124 71727 11648 81011 11100 21120 39982 40189 57010 60011 78522 885// 333 11175 21246 44041 70010 90952
AAXX 31124 71728 11562 82904 11196 21245 39963 40198 57016 69941 77177 885// 333 11211 21268 44997 70004 90973
AAXX 31124 71730 12262 80108 11085 21086 39684 40119 52015 60001 886// 333 11090 21108 48013 79999
AAXX 31124 71731 11266 80707 11092 21107 39648 40110 53012 69901 77177 887// 333 11104 21114 48016 70008 90983
AAXX 31124 71735 NIL
AAXX 31124 71738 13574 60000 11152 21170 39777 40140 50013 60002 86500 333 11057 21157 47028 70004 555 10100 20056
AAXX 31124 71739 41 74 80000 11122 21137 39766 40141 53010 6//// 77077 887// 333 11125 21137 4//// 7//// 90983
AAXX 31124 71749 16559 81604 11061 21066 39861 40110 57009 60001 333 11026 21068 70005
AAXX 31124 71799 12983 12708 10005 21024 30249 40273 52041 60001 81070 333 10095 21014 55063 70006
AAXX 31124 71800 16/// /2801 11005 21043 30246 40280 51026 60001 333 10030 21026 70000
AAXX 31124 71801 12674 72908 11021 21079 30098 40275 52030 60001 87500 333 10002 21035 41001 79999
AAXX 31124 71803 11580 12808 11068 21105 30076 40268 51026 69901 70181 81500 333 11017 21071 46004 70010 90930
AAXX 31124 71807 NIL
AAXX 31124 71808 12474 20000 11146 21185 30205 40253 53020 60001 82500 333 11015 21152 44020 70010
AAXX 31124 71809 12574 70000 11113 21128 30250 40278 52023 60001 87500 333 11004 21119 42001 70002
AAXX 31124 71810 16/// /0807 11085 21105 30191 40260 53005 60001 333 11046 21095 70000
AAXX 31124 71811 NIL
AAXX 31124 71813 16/// /0105 11172 21196 30263 40277 53004 60001 333 11020 21187 70000
AAXX 31124 71814 16/// /3306 11181 21205 30269 40279 51021 60001 333 11013 21183 70000
AAXX 31124 71815 12474 83108 11026 21075 30246 40277 51020 60001 885// 333 11002 21028 46005 70010
AAXX 31124 71816 12574 22515 11198 21228 30191 40256 52005 60001 81501 333 11022 21223 47089 55000 79999
AAXX 31124 71817 NIL
AAXX 31124 71818 12874 12215 11159 21202 30204 40223 52006 60001 81070 333 10002 21165 44025 55000 70006
AAXX 31124 71822 11566 80904 11161 21194 39673 40172 56010 69901 77122 885// 333 11240 21242 43046 79999 90999
AAXX 31124 71825 12274 41802 11231 21272 39534 40247 58003 60001 84500 333 11129 21314 48126 70006
AAXX 31124 71827 12974 11110 11262 21302 39914 40174 56010 60001 80001 333 11211 21263 47018 70000
AAXX 31124 71828 16148 61904 11216 21253 39557 40229 58001 60001 333 11156 21217 70000
AAXX 31124 71831 11574 81404 11122 21132 39852 40142 53004 69901 77177 885// 333 11120 21136 48042 79999 90973
AAXX 31124 71832 NIL
AAXX 31124 71834 12266 80000 11090 21103 39683 40121 53002 60001 886// 333 11103 21116 48027 79999
AAXX 31124 71841 NIL
AAXX 31124 71842 11274 81605 11092 21101 39598 40075 56019 69901 70277 886// 333 11072 21096 47008 79999 90953
AAXX 31124 71844 NIL
AAXX 31124 71845 11274 81907 11089 21095 39590 40073 56011 69902 771// 887// 333 11103 21114 44021 79999 90999 555 19999 29999
AAXX 31124 71850 NIL
AAXX 31124 71852 17340 81917 11037 21047 39709 40004 55003 60001 743// 333 11049 21076 70000
AAXX 31124 71854 11132 81507 11083 21093 39564 40043 56022 69902 710// 886// 333 11088 21102 48017 79999 90999 555 10004 29999
AAXX 31124 71858 16/// /1703 11042 21052 39667 49946 58008 60001 333 11046 21052 70000
AAXX 31124 71861 16/// /2811 11016 21046 39262 49981 53024 60001 333 10013 21030 4/013 70000
AAXX 31124 71862 12974 63008 11024 21053 39311 40009 53025 60001 80001 333 10024 21024 47009 79999
AAXX 31124 71863 46964 03013 11062 21095 39312 40008 53033 6///1 333 10013 21084 7////
AAXX 31124 71603 12574 80909 10050 20025 30156 40210 58017 60001 8357/ 333 10014 21006 70000
AAXX 31124 71607 16/// /0704 10001 21016 30174 40207 57015 60001 333 11018 21044 4/001 70000 555 10010
AAXX 31124 71609 11574 81309 11002 21041 30094 40232 56005 69901 70282 8657/ 333 11031 21103 79999 90952
AAXX 31124 71610 15966 80706 11028 21035 39834 40134 56014 60001 333 11043 21062 70000
AAXX 31124 71621 NIL
AAXX 31124 71623 NIL
AAXX 31124 71624 11148 83502 10011 20011 39859 40071 53010 69961 75165 887// 333 10010 21001 42001 55000 70046 90983
AAXX 31124 71625 17361 82602 11090 21101 39954 40119 53003 69951 745// 333 11099 21113 70020
AAXX 31124 71627 NIL
AAXX 31124 71628 11260 80608 11063 21075 39966 40110 55004 69901 76872 85700 333 11084 21118 4-6015 70012 909/7
AAXX 31124 71630 NIL
AAXX 31124 71631 NIL
AAXX 31124 71633 11256 80204 10016 20014 39809 40080 53024 69941 75155 887// 333 10023 20007 43005 55001 70068 90983
AAXX 31124 71705 11574 80905 11054 21107 30155 40246 58011 69901 70282 885// 333 11048 21110 79999 90941
AAXX 31124 71706 12574 81506 11035 21067 30208 40271 58001 60001 885// 333 11064 21119 42001 79999
AAXX 31124 71707 12774 42205 11071 21091 30215 40295 52015 60001 82570 333 11035 21079 45997 70002
AAXX 31124 71709 13580 71904 11027 21065 30265 40279 53007 69902 87500 333 11018 21034 46001 70002 90999 555 10006 20006
AAXX 31124 71711 NIL
AAXX 31124 71714 47/// /0710 11061 21078 30087 40182 6///1 7//4/ 333 11066 21110 4/014 7////
AAXX 31124 71715 17/// /0702 11102 21116 30015 40204 56011 60021 7//4/ 333 11116 21174 70016
AAXX 31124 71718 11683 80806 11106 21212 30160 40228 55008 69901 78522 885// 333 11110 21154 48002 79999 90910
AAXX 31124 71719 17/// /2003 11069 21104 30253 40259 57003 69931 7//4/ 333 11042 21119 4/002 70003
AAXX 31124 71114 160// /2508 10031 20008 30211 40260 51047 69951 333 10084 20027 70095
AAXX 31124 71120 11459 82908 11052 21070 39379 40047 52050 60011 77122 887// 333 11050 21064 44009 70057 90931 93101
AAXX 31124 71122 46/// /2504 11032 21120 38515 40123 51056 6///1 333 21047 4/017 7//// 555 10010
AAXX 31124 71123 11974 13113 11046 21092 39231 40107 52054 69961 70181 81071 333 11022 21086 44006 70006 90935
AAXX 31124 71125 11/24 93012 11058 21070 39435 40022 53052 60042 7718/ 333 47011 70077 90999 93107
AAXX 31124 71129 12774 22812 11062 21099 39220 40050 53052 60001 81501 333 10022 21065 42997 79999
AAXX 31124 71131 16/// /3013 11050 21094 38798 40047 53035 60001 333 10028 21088 70000
AAXX 31124 71135 16/// /3011 11020 21069 38951 40028 53022 60001 333 10026 21045 4/004 70000
AAXX 31124 71137 NIL
AAXX 31124 71140 12974 83005 11056 21056 39487 49990 5/006 60001 8807/ 333 11061 21080 48006 79999
AAXX 31124 71145 11274 81410 11080 21091 39714 40009 56021 69901 72222 885// 333 11060 21103 48037 70004 90931
AAXX 31124 71148 NIL
AAXX 31124 71185 16964 02607 11061 30239 40263 51023 60001 333 11007 21064 70000
AAXX 31124 71188 12474 82702 11076 21106 30215 40259 55000 60001 885// 333 11039 21082 44009 55010 79999
AAXX 31124 71200 17/// /2515 10029 20005 69921 7//4/ 333 10084 20021 70030
AAXX 31124 71207 16/// /3501 11007 30190 40255 53042 60001 333 10063 21011 70138
AAXX 31124 71260 13/// ///// 11082 21087 39885 40125 53012 60001 333 11024 21083 44002 70002
AAXX 31124 71864 NIL
AAXX 31124 71865 16/// /2710 11053 21073 39301 49976 53029 60001 333 10019 21054 70000
AAXX 31124 71866 46364 82915 11065 21088 39396 40009 53038 6///1 333 10008 21100 7////
AAXX 31124 71867 11274 81410 11048 21054 39600 49933 55001 69931 70272 885// 333 11043 21084 47025 70009 90927
AAXX 31124 71868 16/// /2609 11017 21040 39502 49938 51020 60001 333 11015 21049 70000
AAXX 31124 71869 11462 82814 11043 21056 39449 49971 52039 69941 77122 885// 333 11036 21075 47011 70020 90931
AAXX 31124 71871 15464 82919 11066 21071 39238 40047 51047 60001 333 11032 21099 70000
AAXX 31124 71877 12974 23411 11043 21071 38843 40120 53074 60001 82030 333 10076 21043 41997 70000
AAXX 31124 71878 NIL
AAXX 31124 71879 16964 02911 11049 21090 39287 40098 51052 60001 333 11009 21054 70000
AAXX 31124 71880 12882 21910 11009 21062 39040 40149 52045 60001 82070 333 10042 21040 42001 70006
AAXX 31124 71882 160// /0311 10010 21058 39658 40201 51057 60001 333 10037 21006 70030
AAXX 31124 71883 46/// /0000 11059 21101 39381 40214 51050 6///1 333 10029 21059 7////
AAXX 31124 71887 11774 40202 11022 21045 39801 40227 52038 69901 70281 83570 333 10093 21024 45997 70002 90920
AAXX 31124 71889 12874 20000 11015 21087 39807 40229 51049 60001 82070 333 10074 21018 70008
AAXX 31124 71891 16964 01915 10027 21033 39951 40228 51046 60001 333 10056 20024 70020
AAXX 31124 71892 12680 20000 10009 21019 30260 40265 52039 60001 82600 333 10088 20000 55037 79999
AAXX 31124 78700 32578 50406 10264 20222 30132 40137 81106 333 10354 20262 30/// 56000 59007 70000 81828 85075
AAXX 31124 78703 11570 51018 10255 20220 30154 40156 60052 705// 82230 333 10294 20230 31/// 56200 59006 70047 82820 83357
AAXX 31124 78704 11570 31203 10252 20212 30155 40160 60102 705// 82230 333 10286 20222 31/// 56300 58001 70098 82824
AAXX 31124 78705 31570 40000 10205 20195 3013 40155 53010 705// 83230 333 10292 20205 30/// 56000 59008 83826 83358
AAXX 31124 78706 11568 40000 10227 20221 30155 40160 60072 705// 84200 333 10294 20210 31/// 56200 58006 84825
AAXX 31124 78707 NIL
AAXX 31124 333 78708 31560 70000 10228 20228 30122 40153 53012 70544 82570 333 10296 20228 30/// 56000 59010 70000 82625 83358
AAXX 31124 78711 NIL
AAXX 31124 333 78714 NIl
AAXX 31124 333 78717 31350 73402 10174 20171 38964 40147 710// 87530 333 10244 20170 30/// 56110 59008 70000 83706 86620
AAXX 31124 78718 31560 23504 10202 705// 81431 333 10304 20174 30/// 56800 70000 81630
AAXX 31124 78719 32450 70506 10148 20136 38359 40131 87400 333 10217 20128 30/// 56100 59002 70000 87618
AAXX 31124 78720 31560 70203 10180 20164 39051 40154 53011 70544 86530 333 10240 20178 30/// 56110 59002 70000 86620
AAXX 31124 78724 32578 60320 10256 20182 30064 40121 82506 333 10334 20256 30/// 56100 59001 82630 86075
AAXX 31124 78982 01480 70912 10259 20225 30140 40145 52019 60001 82231 333 10303 20253 58002 60007 70014 82817 84458 86081
AAXX 31124 71812 47219 90613 11118 21129 30018 40032 53005 6///1 745// 333 11111 21120 7////
AAXX 31124 71819 15966 02608 11138 21158 30205 40248 53020 60001 333 11009 21149 70000
AAXX 31124 71820 16/// /0306 11042 21052 39974 40090 53005 60001 333 11062 21088 4/002 70000 555 10010
AAXX 31124 71823 16964 01002 11302 21343 39809 40217 56006 60001 333 11190 21316 70000
AAXX 31124 71824 NIL
AAXX 31124 71826 16/// /1102 11256 21292 30051 40097 58004 60001 333 11261 21282 4/014 70000
AAXX 31124 71829 16/// /0207 11094 21115 30061 40229 57008 60001 333 11099 21173 70000
AAXX 31124 71833 46/// /1001 10005 20005 6///1 333 10001 21001 7////
AAXX 31124 71835 16/// /2008 11088 21096 39581 40068 57011 60001 333 11103 21113 4/020 70000
AAXX 31124 71837 NIL
AAXX 31124 71839 NIL
AAXX 31124 71840 46/// /1808 11003 21019 6///1 333 11037 21055 7////
AAXX 31124 71846 16/// /1803 11107 21114 39766 40089 58011 60001 333 11132 21140 4/008 70000
AAXX 31124 71847 NIL
AAXX 31124 71848 NIL
AAXX 31124 71849 NIL
AAXX 31124 71950 15966 01902 11120 21123 39570 40218 51046 60001 333 11019 21127 70000
AAXX 31124 71952 16/// /3201 11234 21256 39342 40229 51046 60001 333 11026 21236 4/042 70003
AAXX 31124 71954 46/// /0805 11047 21051 39567 49942 53002 6///1 333 11062 21106 7////
AAXX 31124 71956 NIL
AAXX 31124 71959 NIL
AAXX 31124 71960 460// /0808 11262 39988 40126 52020 6///1 333 11222 21262 7////
AAXX 31124 71962 16/// /1107 11071 21083 39642 40070 56018 60001 333 11070 21149 4/005 70000
AAXX 31124 71963 NIL
AAXX 31124 71967 17/// /0109 11039 21044 30033 40140 55008 69931 7//4/ 333 11045 21077 4/006 70003 555 10010
AAXX 31124 71970 NIL
AAXX 31124 71971 NIL
AAXX 31124 71972 460// ///// 11150 39657 40133 53014 6///1 333 11167 21183 7////
AAXX 31124 71973 46/// /2203 11049 21079 30082 40275 51022 6///1 333 11014 21099 7////
AAXX 31124 71974 NIL
AAXX 31124 71975 460// /2723 11220 39315 40067 50006 6///1 333 11216 21254 7////
AAXX 31124 71976 NIL
AAXX 31124 71977 NIL
AAXX 31124 71978 NIL
AAXX 31124 71979 NIL
AAXX 31124 71980 NIL
AAXX 31124 71981 NIL
AAXX 31124 71982 NIL
AAXX 31124 71983 NIL
AAXX 31124 71984 16/// /1602 11255 21280 30113 40122 51018 60001 333 11210 21264 70000
AAXX 31124 71985 NIL
AAXX 31124 71986 NIL
AAXX 31124 71987 16/// /1606 11038 21083 30243 40253 58003 60001 333 11054 21094 70006
AAXX 31124 71988 17/// /1119 10053 20026 30191 40211 58015 69971 7//4/ 333 10016 20008 70007
AAXX 31124 71989 NIL
AAXX 31124 71990 NIL
AAXX 31124 71999 46/// ///// 10012 6///1 333 10081 20009 7////
AAXX 31124 71550 NIL
AAXX 31124 71551 NIL
AAXX 31124 71552 46/// /1810 11031 21047 6///1 333 11034 21073 7////
AAXX 31124 71553 NIL
AAXX 31124 71554 16/// /0601 11098 21133 30220 40226 56012 60001 333 11104 21157 70000
AAXX 31124 71555 16/// /2914 11014 21146 38531 40098 51050 60001 333 10043 21042 70004
AAXX 31124 71556 16/// /2917 11043 21077 39385 49985 51029 60001 333 10015 21044 4/002 70000 555 10010
AAXX 31124 71557 46/// /2007 10006 21074 6///1 333 10056 20003 7////
AAXX 31124 71558 46/// ///// 11141 21160 30203 40241 53021 6///1 333 11010 21157 7////
AAXX 31124 71559 46/// /2907 11021 21046 39307 40004 53024 6///1 333 10024 21021 55/// 20000 7////
AAXX 31124 71560 16/// /1712 11036 21040 39714 40018 56010 60001 333 11050 21066 70011
AAXX 31124 71563 NIL
AAXX 31124 71564 NIL
AAXX 31124 71565 NIL
AAXX 31124 71566 NIL
AAXX 31124 71567 NIL
AAXX 31124 71568 16/// /1604 10022 21004 30252 40265 51042 60001 333 10061 20021 70050
AAXX 31124 71569 16/// /2514 11047 21068 39295 49992 51032 60001 333 10017 21051 4/002 70011
AAXX 31124 71570 16/// /1610 11037 21053 39696 40010 56023 60001 333 11071 21103 70000
AAXX 31124 71571 NIL
AAXX 31124 71572 NIL
AAXX 31124 71573 17/// /2206 10051 20041 39778 40058 53017 60011 7//4/ 333 10051 20022 70105
AAXX 31124 71574 11574 80000 11105 21122 30180 40256 58006 69901 77771 886// 333 11074 21170 43017 79999 90931
AAXX 31124 71575 NIL
AAXX 31124 71576 16/// /1901 11352 21392 39985 40075 54000 60001 333 11302 21367 4/002 55/// 20000 70000
AAXX 31124 71577 NIL
AAXX 31124 71578 17/// /0717 11058 21082 60011 7//4/ 333 11062 21103 70013
AAXX 31124 71579 NIL
AAXX 31124 71580 12974 01302 11361 21396 30079 40118 50005 60001 333 11293 21376 43030 79999
AAXX 31124 71581 NIL
AAXX 31124 71582 17966 01603 11023 21023 30203 40257 51028 69951 7004/ 333 10054 21036 70101
AAXX 31124 71583 NIL
AAXX 31124 71584 17566 80608 11134 21162 30228 40278 53006 60001 771// 333 11034 21177 70000
AAXX 31124 71585 NIL
AAXX 31124 71586 17/// /0113 11051 21062 39510 49975 53032 60031 7//4/ 333 11017 21098 4/043 70050 555 10080
AAXX 31124 71587 NIL
AAXX 31124 71588 16/// /0503 11093 21107 60001 333 11016 21100 70000
AAXX 31124 71589 16/// /2907 11070 21101 30127 40263 51028 60001 333 11025 21071 4/001 70007
AAXX 31124 71590 17/// /0000 11114 21129 30015 40215 58016 60011 7//4/ 333 11102 21202 4/011 70012 555 10010
AAXX 31124 71592 NIL
AAXX 31124 71593 NIL
AAXX 31124 71596 NIL
AAXX 31124 71598 16/64 /1402 11079 21111 30254 40260 55005 60001 333 11063 21128 4/003 70000
AAXX 31124 71599 NIL
AAXX 31124 71604 16/// /1802 11079 21081 60001 333 11059 21082 4/033 70007 555 10060
AAXX 31124 71605 16/// /3102 10013 21017 30104 40256 53042 60001 333 10079 20009 70015
AAXX 31124 71611 NIL
AAXX 31124 71612 NIL
AAXX 31124 71614 NIL
AAXX 31124 71616 17/// /0608 11059 21069 30028 40151 55014 60021 7//4/ 333 11069 21094 70020
AAXX 31124 71617 16/// /2901 11170 21188 30021 40205 56011 60001 333 11180 21239 70000
AAXX 31124 71618 17466 82506 11077 21084 39964 40002 50005 60001 771// 333 11077 21104 70000
AAXX 31124 71619 NIL
AAXX 31124 71622 NIL
AAXX 31124 71632 46/// /0306 11101 21115 39556 49997 53008 6///1 333 11049 21101 4/019 7////
AAXX 31124 71634 16/// /0000 11095 21119 30098 40258 56009 60001 333 11080 21172 4/005 70000
AAXX 31124 71638 16/// /3203 10010 21012 30148 40255 52039 60001 333 10082 21010 70014
AAXX 31124 71639 11248 80000 10004 21013 39833 40076 53011 69921 71062 886// 333 11001 21019 70026 90921
AAXX 31124 71642 13174 80000 11100 21107 39575 40135 53006 60001 887// 333 11105 21110 48024 70018
AAXX 31124 71500 NIL
AAXX 31124 71501 NIL
AAXX 31124 71502 NIL
AAXX 31124 71503 NIL
AAXX 31124 71504 NIL
AAXX 31124 71505 46/// /3506 11096 21215 39313 40058 51033 6///1 333 11157 21253 7////
AAXX 31124 71506 NIL
AAXX 31124 71507 NIL
AAXX 31124 71508 17/// ///// 10029 20028 39935 40073 53009 69971 7//4/ 333 10015 20003 70033
AAXX 31124 71509 NIL
AAXX 31124 71511 NIL
AAXX 31124 71512 NIL
AAXX 31124 71513 15966 00106 11171 21199 30266 40282 53004 60001 333 11018 21187 70000
AAXX 31124 71514 NIL
AAXX 31124 71515 16/// /2815 11029 21054 39295 49991 53026 60001 333 10005 21038 55/// 20000 70000
AAXX 31124 71516 16/// /2909 11027 21057 60001 333 10031 21037 70007
AAXX 31124 71517 NIL
AAXX 31124 71518 NIL
AAXX 31124 71519 NIL
AAXX 31124 71520 NIL
AAXX 31124 71521 NIL
AAXX 31124 71522 NIL
AAXX 31124 71523 NIL
AAXX 31124 71524 17/// /0306 11059 21070 30108 40135 56015 60011 7//4/ 333 11085 21106 4/006 70020
AAXX 31124 71525 NIL
AAXX 31124 71526 NIL
AAXX 31124 71527 15266 81606 11078 21083 39553 40066 55017 60001 333 11084 21095 70000
AAXX 31124 71528 NIL
AAXX 31124 71529 46/// /0403 11176 21204 39860 40094 51028 6///1 333 11162 21179 4/018 7////
AAXX 31124 71532 17248 80803 11015 21015 39736 40083 53015 60001 771// 333 11026 21056 70000
AAXX 31124 71534 16004 90000 11006 21006 39804 40077 53015 60001 333 11012 21038 70035
AAXX 31124 71535 NIL
AAXX 31124 71536 NIL
AAXX 31124 71537 NIL
AAXX 31124 71539 NIL
AAXX 31124 71540 NIL
AAXX 31124 71541 NIL
AAXX 31124 71542 16/// /2503 11146 21161 60001 333 11126 21160 70000
AAXX 31124 71543 NIL
AAXX 31124 71544 NIL
AAXX 31124 71545 16/// ///// 11091 21107 60001 333 11008 21108 70010
AAXX 31124 71546 NIL
AAXX 31124 71547 NIL
AAXX 31124 71548 NIL
AAXX 31124 71549 NIL
AAXX 31124 71201 16/// ///// 10024 20002 60001 333 10098 20021 70002
AAXX 31124 71202 16/// ///// 11051 21081 60001 333 10007 21064 70006
AAXX 31124 71203 15766 83002 10001 21019 39704 40229 51047 60001 333 10073 21005 70003
AAXX 31124 71209 46/// /2610 10047 6///1 333 10092 20046 7////
AAXX 31124 71211 46/// /3205 10028 20002 30247 40259 53042 6///1 333 10082 20028 7////
AAXX 31124 71212 17/// /0000 11085 21097 39333 40161 56016 60021 7//4/ 333 11050 21176 4/034 70020
AAXX 31124 71213 46/// /3405 11103 21112 39823 40132 53008 6///1 333 11108 21113 7////
AAXX 31124 71214 NIL
AAXX 31124 71215 46/// /2902 10034 21085 39873 40220 53052 6///1 333 10087 21010 7////
AAXX 31124 71216 17/// /3506 10015 21049 39572 40191 51059 60011 7//4/ 333 10053 20003 4/008 70028
AAXX 31124 71217 NIL
AAXX 31124 71218 16/// /2405 10015 21067 39782 40213 51050 60001 333 10091 20009 70000
AAXX 31124 71219 46/// /1109 11006 21035 30216 40222 51025 6///1 333 10036 21021 7////
AAXX 31124 71220 46/// /1419 10003 21020 6///1 333 10037 21004 7////
AAXX 31124 71221 NIL
AAXX 31124 71222 16/// /0000 11224 21246 39176 40189 51027 60001 333 11155 21249 4/033 70000
AAXX 31124 71223 NIL
AAXX 31124 71224 NIL
AAXX 31124 71225 NIL
AAXX 31124 71226 NIL
AAXX 31124 71227 NIL
AAXX 31124 71228 NIL
AAXX 31124 71229 NIL
AAXX 31124 71230 16/// /2613 11065 21135 39221 40127 51049 60001 333 11037 21084 70006
AAXX 31124 71231 16/// /2714 11003 21084 60001 333 10093 21012 70000
AAXX 31124 71232 16/// /2607 11015 21096 38603 40099 53068 60001 333 10024 21020 70000
AAXX 31124 71233 NIL
AAXX 31124 71234 16/// /3304 11036 21113 38910 40103 53052 60001 333 10085 21065 70000
AAXX 31124 71235 16/// /3410 11046 21072 60001 333 10049 21046 70000
AAXX 31124 71236 46/// /3304 11012 21085 6///1 333 10040 21019 7////
AAXX 31124 71237 46/// /3502 11041 21080 39279 40095 51069 6///1 333 10087 21075 7////
AAXX 31124 71238 16/// /3004 11081 21098 60001 333 10007 21081 4/007 70000
AAXX 31124 71239 16/// /2014 11009 21025 39524 49984 55006 60001 333 11039 21064 4/005 70000
AAXX 31124 71240 16/// ///// 11048 21083 39224 40072 51058 60001 333 10031 21070 70009
AAXX 31124 71241 NIL
AAXX 31124 71242 16/// /3208 11037 21071 60001 333 10033 21109 4/005 70000
AAXX 31124 71243 NIL
AAXX 31124 71244 16/// /2712 11021 21079 38864 40091 52048 60001 333 10091 21037 4/001 70000
AAXX 31124 71245 NIL
AAXX 31124 71246 NIL
AAXX 31124 71247 15966 82810 11005 21073 39227 40076 53062 60001 333 10093 21015 70000
AAXX 31124 71248 16/// /2301 11053 21084 38806 40113 51074 60001 333 10052 21109 4/016 70000
AAXX 31124 71249 NIL
AAXX 31124 71744 NIL
AAXX 31124 71750 16/// /0505 11061 21071 39874 40112 58001 60001 333 11051 21068 4/015 70000
AAXX 31124 71751 NIL
AAXX 31124 71752 NIL
AAXX 31124 71753 16/// /0405 11021 21041 30228 40258 58005 60001 333 10001 21090 4/002 70000
AAXX 31124 71754 16/// /2816 11071 21087 39364 40033 51050 60001 333 11027 21121 4/002 55/// 20000 70008 555 10010
AAXX 31124 71755 43/// /2004 11096 21112 39698 40047 55013 6///1 333 11089 21105 7////
AAXX 31124 71756 16/// /1704 11043 21076 39123 40233 51038 60001 333 10021 21057 4/064 70022 555 10010
AAXX 31124 71758 NIL
AAXX 31124 71760 NIL
AAXX 31124 71761 NIL
AAXX 31124 71762 NIL
AAXX 31124 71763 NIL
AAXX 31124 71765 16/// /1814 10025 21034 39949 40226 51045 60001 333 10055 20022 70017
AAXX 31124 71766 16/// /2702 11022 21030 30188 40261 51042 60001 333 10089 21026 70000
AAXX 31124 71767 16/// /3610 11021 21022 39838 40100 53025 60001 333 10012 21021 4/006 70015
AAXX 31124 71768 46/// /2906 11003 21088 39676 40228 51046 6///1 333 10071 21005 7////
AAXX 31124 71769 16/// /2506 10039 21003 30236 40252 52041 60001 333 10089 20039 70000
AAXX 31124 71770 NIL
AAXX 31124 71771 NIL
AAXX 31124 71772 16/// /2605 10039 21007 30248 40254 51041 60001 333 10094 20032 70000
AAXX 31124 71773 16/// /1905 11153 21161 39205 40080 51025 60001 333 11113 21192 4/028 70000
AAXX 31124 71774 46/// ///// 10006 6///1 333 10064 20003 7////
AAXX 31124 71775 16/// /1002 10006 21006 30261 40267 51041 60001 333 10081 21013 70012
AAXX 31124 71776 46/// /2908 10022 21039 39543 40188 51058 6///1 333 10048 20010 7////
AAXX 31124 71777 16/// ///// 11019 21020 39990 40246 51042 60001 333 10028 21022 70013
AAXX 31124 71778 46/// /2722 6///1 333 7////
AAXX 31124 71779 16/// /3401 11122 21137 39550 40228 51047 60001 333 10009 21129 4/025 70000 555 10040
AAXX 31124 71780 17/// /2603 10024 20002 30255 40283 51040 60011 7//4/ 333 10089 20019 70056
AAXX 31124 71781 46/// /3103 10045 21008 30231 40256 52039 6///1 333 10089 20045 7////
AAXX 31124 71782 46/// /2102 11016 21057 38806 40135 51044 6///1 333 10017 21039 7////
AAXX 31124 71783 16/// /2405 10027 20008 30201 40276 52047 60001 333 10082 20017 70034
AAXX 31124 71784 16/// /0000 10005 21019 30048 40256 53039 60001 333 10074 20004 70008
AAXX 31124 71785 16/// /1401 10022 21007 30256 40272 53039 60001 333 10095 20021 70032
AAXX 31124 71786 46/// /2609 11086 21100 38308 40158 51054 6///1 333 11030 21086 7////
AAXX 31124 71787 16/// /1509 11041 21055 39733 40235 56006 60001 333 11064 21094 70003
AAXX 31124 71788 NIL
AAXX 31124 71789 NIL
AAXX 31124 71791 NIL
AAXX 31124 71792 NIL
AAXX 31124 71793 NIL
AAXX 31124 71794 NIL
AAXX 31124 71795 NIL
AAXX 31124 71796 NIL
AAXX 31124 71797 NIL
AAXX 31124 71900 46/// /23// 11180 21231 30195 40208 51008 6///1 333 11042 21184 7////
AAXX 31124 71903 NIL
AAXX 31124 71904 NIL
AAXX 31124 71914 16/// /1702 11002 21019 30045 40271 53040 60001 333 10068 21005 70004
AAXX 31124 71916 NIL
AAXX 31124 71918 460// ///// 11342 6///1 333 7////
AAXX 31124 71920 NIL
AAXX 31124 71921 NIL
AAXX 31124 71923 NIL
AAXX 31124 71927 16/// /1501 11003 21029 30210 40269 53039 60001 333 10086 21003 70015
AAXX 31124 71941 15366 80403 11100 21109 39709 40137 53003 60001 333 11106 21126 70000
AAXX 31124 71947 15466 80902 11137 21150 39792 40153 53002 60001 333 11156 21192 70000
AAXX 31124 71102 NIL
AAXX 31124 71105 NIL
AAXX 31124 71107 NIL
AAXX 31124 71110 NIL
AAXX 31124 71111 15966 01807 11016 21058 30213 40221 51021 60001 333 21045
AAXX 31124 71112 16/// ///// 60001 333 70002
AAXX 31124 71113 17/// /0000 10031 20015 30238 40262 52040 60021 7//4/ 333 10089 20027 70026
AAXX 31124 71115 16/// /3502 11004 21027 39632 40218 51052 60001 333 10075 21005 70000
AAXX 31124 71116 NIL
AAXX 31124 71118 16/// /3012 11091 21111 39242 40077 51060 60001 333 10012 21096 70000
AAXX 31124 71121 16964 02813 11061 21125 39265 40097 51051 60001 333 11015 21066 70000
AAXX 31124 71127 16/// /3112 11050 21086 39180 40101 51050 60001 333 11027 21051 4/011 70000
AAXX 31124 71130 17459 82514 11026 21043 39486 49940 51022 60001 771// 333 11010 21050 70000
AAXX 31124 71132 15566 80803 11114 21138 39743 40061 51023 60001 333 11076 21133 70000
AAXX 31124 71133 46/// /3113 11047 21071 39282 49988 51045 6///1 333 11029 21067 4/003 7//// 555 10020
AAXX 31124 71139 NIL
AAXX 31124 71141 NIL
AAXX 31124 71142 15966 62413 11035 21052 39074 40037 53041 60001 333 10043 21035 70000
AAXX 31124 71143 NIL
AAXX 31124 71144 NIL
AAXX 31124 71147 16/// /1811 11022 21031 60001 333 11044 21059 70000
AAXX 31124 71149 16/// /2608 10000 21025 60001 333 11032 21079 70000
AAXX 31124 71051 NIL
AAXX 31124 71055 NIL
AAXX 31124 71057 NIL
AAXX 31124 71059 460// ///// 11309 30065 40161 53009 6///1 333 11315 21322 7////
AAXX 31124 71061 16/// /2807 11055 21094 39305 40099 51054 60001 333 11028 21095 4/004 70000
AAXX 31124 71062 46/// /3114 11041 21121 39013 40090 51053 6///1 333 11023 21076 4/012 7////
AAXX 31124 71064 460// /3610 11364 39941 40173 51010 6///1 333 11360 21371 7////
AAXX 31124 71065 NIL
AAXX 31124 71067 NIL
AAXX 31124 71070 NIL
AAXX 31124 71073 NIL
AAXX 31124 71074 NIL
AAXX 31124 71075 NIL
AAXX 31124 71078 NIL
AAXX 31124 71084 460// ///// 11355 30090 40141 51012 6///1 333 11348 21357 7////
AAXX 31124 71085 15966 02620 11016 21082 38727 40112 52053 60001 333 10052 21031 70005
AAXX 31124 71087 NIL
AAXX 31124 71088 460// /3309 11230 52004 6///1 333 11207 21231 7////
AAXX 31124 71089 NIL
AAXX 31124 71096 460// ///// 11256 39297 40056 50000 6///1 333 11230 21283 7////
AAXX 31124 71097 46964 03304 11203 39615 40106 51007 6///1 333 11206 21223 7////
AAXX 31124 71098 43/// /1405 11087 21100 39666 40030 56019 6///1 333 11087 21122 7////
AAXX 31124 71099 43/// /1807 11112 21134 30041 40062 56011 6///1 333 11143 21159 7////
AAXX 31124 71665 16/// /2508 11191 21248 30187 40197 51009 60001 333 11063 21193 4/020 70006
AAXX 31124 71666 16/// /0904 11054 21097 30200 40246 58008 60001 333 11050 21128 4/001 70000
AAXX 31124 71667 NIL
AAXX 31124 71668 16/// /0704 11063 21084 30188 40233 56008 60001 333 11046 21100 4/001 70000
AAXX 31124 71669 NIL
AAXX 31124 71670 16/// ///// 11068 21087 60001 333 11055 21143 70000
AAXX 31124 71671 16/// /0603 11017 21052 30178 40240 58009 60001 333 11017 21040 70000
AAXX 31124 71672 16/// /0602 11022 21034 39816 40083 53005 60001 333 11034 21063 4/012 70012
AAXX 31124 71673 NIL
AAXX 31124 71674 NIL
AAXX 31124 71675 17466 81806 11092 21103 39772 40055 58012 60031 7004/ 333 11096 21106 70149
AAXX 31124 71679 16/// /3207 11064 21093 39171 40203 51041 60001 333 10007 21070 4/006 70000
AAXX 31124 71680 NIL
AAXX 31124 71681 46/// /1202 11020 21042 6///1 333 10096 21020 7////
AAXX 31124 71682 NIL
AAXX 31124 71683 NIL
AAXX 31124 71684 15366 83405 11104 21117 39825 40135 53008 60001 333 11109 21114 70000
AAXX 31124 71685 15966 10212 10009 21046 39656 40200 51055 60001 333 10036 21003 70020
AAXX 31124 71686 469// /0101 11204 21225 39177 40170 51028 6///1 333 11140 21211
AAXX 31124 71687 16/// /1703 11026 21037 39443 40238 51039 60001 333 10021 21026 4/033 70028
AAXX 31124 71688 16/// /0000 11042 21044 39177 40227 52038 60001 333 10007 21047 4/094 70053 555 10050
AAXX 31124 71689 17548 83009 11097 21109 39602 40062 51040 69951 7714/ 333 11002 21098 70013
AAXX 31124 71690 NIL
AAXX 31124 71691 17466 80916 11067 21082 30203 40231 56012 60001 771// 333 11090 21194 70000
AAXX 31124 71692 NIL
AAXX 31124 71694 16/// /0602 11011 21017 39731 40097 53016 60001 333 11022 21056 4/018 70041 555 10010
AAXX 31124 71695 17/// /1308 11047 21061 39596 49928 56001 69951 7//4/ 333 11044 21081 4/024 70010 555 10010
AAXX 31124 71696 16/// /1903 11077 21084 39959 49996 50005 60001 333 11078 21105 70003
AAXX 31124 71697 15462 80804 10010 20010 39903 40075 53012 60001 333 10003 21016 70010
AAXX 31124 71699 16/// /1113 10041 20013 30211 40219 56011 60001 333 11016 21037 4/001 70000
AAXX 31124 71300 NIL
AAXX 31124 71301 NIL
AAXX 31124 71302 16/// /2207 11077 21101 39374 40207 53046 60001 333 10004 21107 4/028 70010 555 10020
AAXX 31124 71303 46/// ///// 10032 20024 6///1 333 10073 20032 7////
AAXX 31124 71305 15264 83004 11132 21141 39782 40080 51029 60001 333 11124 21167 70000
AAXX 31124 71306 15466 81816 11120 21139 30106 40139 57010 60001 333 11133 21144 70000
AAXX 31124 71307 16/// /2809 10038 20031 39832 40081 53032 60001 333 10074 20038 4/001 70057
AAXX 31124 71308 16/// /1305 11032 21069 30198 40285 51007 60001 333 11035 21086 4/001 70000 555 10010
AAXX 31124 71309 NIL
AAXX 31124 71310 16/// /1304 11044 21072 30232 40270 56002 60001 333 11063 21105 70000
AAXX 31124 71311 NIL
AAXX 31124 71312 16/// /2813 11028 21045 39484 49937 51023 60001 333 11011 21051 70013
AAXX 31124 71314 16/// /0703 11015 21021 39720 40074 53014 60001 333 11017 21048 4/017 70034
AAXX 31124 71315 NIL
AAXX 31124 71316 16/// /2912 11047 21063 39372 40060 51046 60001 333 11031 21062 70024
AAXX 31124 71317 NIL
AAXX 31124 71318 16/// /3116 11040 21073 39130 40082 51062 60001 333 10029 21078 4/027 70000 555 10240
AAXX 31124 71319 17/// /0205 11115 21124 39284 40177 56010 60031 7//4/ 333 11070 21173 70030
AAXX 31124 71320 NIL
AAXX 31124 71321 NIL
AAXX 31124 71322 NIL
AAXX 31124 71323 NIL
AAXX 31124 71331 17/// /0404 11081 21098 60031 7//4/ 333 11030 21093 4/026 55/// 20000 70029 555 10040
AAXX 31124 71332 NIL
AAXX 31124 71334 46/// /3406 11143 21162 39691 40023 51013 6///1 333 11064 21143 7////
AAXX 31124 71335 46964 0//// 11178 53007 6///1 333 11125 21180 7////
AAXX 31124 71336 46/// ///15 11023 21079 30222 40245 51029 6///1 333 10008 21024 7////
AAXX 31124 71337 46/// /2705 11090 21119 30004 40249 51020 6///1 333 11017 21091 7////
AAXX 31124 71338 46661 61811 11243 21285 30063 40071 58004 6///1 333 11265 21315 7////
AAXX 31124 71339 16964 02707 11159 21207 30216 40231 52014 60001 333 11003 21160 70000
AAXX 31124 71340 NIL
AAXX 31124 71341 NIL
AAXX 31124 71342 NIL
AAXX 31124 71343 NIL
AAXX 31124 71344 NIL
AAXX 31124 71345 NIL
AAXX 31124 71346 NIL
AAXX 31124 71347 NIL
AAXX 31124 71348 NIL
AAXX 31124 71349 NIL
AAXX 31124 71450 16/// /2713 11037 21089 39304 40018 51035 60001 333 10028 21044 70003
AAXX 31124 71451 NIL
AAXX 31124 71452 NIL
AAXX 31124 71453 NIL
AAXX 31124 71454 17/// /3206 11063 21078 39285 49974 53046 69981 7//4/ 333 11038 21063 55/// 20000 70065
AAXX 31124 71455 NIL
AAXX 31124 71456 NIL
AAXX 31124 71457 16/// /3312 11017 21081 39191 40079 53069 60001 333 10066 21052 70000
AAXX 31124 71458 16/// /3110 11075 21096 39303 40086 51052 60001 333 10003 21142 4/009 70000 555 10010
AAXX 31124 71459 16/// /3211 11038 21077 39251 40057 53054 60001 333 10048 21066 70000
AAXX 31124 71460 16/// /0302 11047 21059 39869 40114 53017 60001 333 11053 21074 70000
AAXX 31124 71461 NIL
AAXX 31124 71462 NIL
AAXX 31124 71463 NIL
AAXX 31124 71464 NIL
AAXX 31124 71465 NIL
AAXX 31124 71466 NIL
AAXX 31124 71468 NIL
AAXX 31124 71470 NIL
AAXX 31124 71471 15966 02614 11051 21130 39325 40127 51052 60001 333 11045 21109 70000
AAXX 31124 71473 16/// /2506 10016 21031 30235 40266 53041 60001 333 10073 20016 70004
AAXX 31124 71475 16/// /3402 11036 21039 30179 40275 51039 60001 333 10077 21045 70012
AAXX 31124 71476 NIL
AAXX 31124 71477 46/// /1910 11019 21058 6///1 333 10026 21042 7////
AAXX 31124 71478 NIL
AAXX 31124 71479 NIL
AAXX 31124 71480 NIL
AAXX 31124 71481 NIL
AAXX 31124 71482 NIL
AAXX 31124 71483 NIL
AAXX 31124 71484 NIL
AAXX 31124 71485 16/// /1508 10032 20004 30225 40246 51023 60001 333 10064 20018 70110
AAXX 31124 71486 17/// /2002 11040 21097 38935 40144 51060 69941 7//4/ 333 10011 21049 4/017 70012 555 10010
AAXX 31124 71487 NIL
AAXX 31124 71489 16/// /2918 11088 21106 39237 40044 53049 60001 333 11018 21088 70007
AAXX 31124 71490 NIL
AAXX 31124 71491 NIL
AAXX 31124 71492 NIL
AAXX 31124 71493 16/// /1008 11021 21056 30204 40243 57012 60001 333 11020 21089 70000
AAXX 31124 71494 17/// /0909 11024 21030 39613 40141 56018 60011 7//4/ 333 11051 21075 4/004 70015
AAXX 31124 71495 NIL
AAXX 31124 71496 16/// /3015 11066 21079 39392 40002 53038 60001 333 10007 21101 55/// 20000 70000
AAXX 31124 71497 46/// /2205 11235 21264 39848 40127 52020 6///1 333 11211 21245 7////
AAXX 31124 71498 NIL
AAXX 31124 71499 15366 83604 11107 21118 39388 40021 52018 60001 333 11043 21108 70000
AAXX 31124 71150 NIL
AAXX 31124 71151 NIL
AAXX 31124 71152 16/// /3305 11017 21057 30270 40283 52024 60001 333 10003 21027 70000
AAXX 31124 71153 16/// /2613 10005 21096 60001 333 10058 21022 70000
AAXX 31124 71154 16/// /2208 11001 21103 60001 333 10037 21023 70006
AAXX 31124 71155 NIL
AAXX 31124 71156 NIL
AAXX 31124 71157 46/// ///// 11052 21072 6///1 333 11013 21054 7////
AAXX 31124 71158 NIL
AAXX 31124 71159 NIL
AAXX 31124 71160 NIL
AAXX 31124 71161 16/// /0604 11042 21052 39942 40093 55001 60001 333 11076 21100 4/001 70004 555 10010
AAXX 31124 71162 NIL
AAXX 31124 71163 46/// /1401 11163 21177 39753 40104 53022 6///1 333 11160 21164 7////
AAXX 31124 71164 NIL
AAXX 31124 71165 NIL
AAXX 31124 71166 NIL
AAXX 31124 71167 17956 02921 11038 21171 39012 40122 51050 60001 771// 333 11051 21103 70000
AAXX 31124 71168 16/// /1514 11002 21008 39430 40011 56047 60001 333 10032 21016 70000
AAXX 31124 71170 16/// /1906 11021 21033 60001 333 11042 21089 70000
AAXX 31124 71171 NIL
AAXX 31124 71172 17/// ///// 11019 21026 39858 40076 53016 69961 7//4/ 333 11013 21039 4/011 70037 555 10010
AAXX 31124 71175 NIL
AAXX 31124 71176 460// /2541 11203 39408 40114 50000 6///1 333 11160 21205 7////
AAXX 31124 71177 460// /2705 11198 39100 40141 53011 6///1 333 11122 21211 7////
AAXX 31124 71178 16/// /3019 11028 21084 30228 40261 52030 60001 333 11003 21032 55/// 20000 70000
AAXX 31124 71179 460// /2608 11192 39315 40173 51015 6///1 333 11070 21204 7////
AAXX 31124 71180 16/// /2907 11020 21057 30249 40289 51020 60001 333 10001 21020 70007
AAXX 31124 71181 16564 83107 11010 21065 30224 40261 60001 333 10002 21012 70010
AAXX 31124 71183 16/// /0209 30078 56013 60001 333 70000
AAXX 31124 71184 46/// /0408 11044 21058 6///1 333 11066 21097 7////
AAXX 31124 71186 NIL
AAXX 31124 71187 17664 82509 10030 20013 30210 40259 51047 60001 761// 333 10083 20026 70000
AAXX 31124 71189 NIL
AAXX 31124 71190 NIL
AAXX 31124 71191 16/// ///// 11027 21064 60001 333 11019 21084 4/003 70000 555 10010
AAXX 31124 71192 15966 02502 11115 21128 39554 40233 51047 60001 333 10005 21120 70003
AAXX 31124 71193 16/// /3501 11124 21135 39765 40139 53010 60001 333 11128 21137 4/031 70003
AAXX 31124 71196 16/// /3002 11092 21097 39911 40115 55000 60001 333 11103 21123 4/019 70022 555 10030
AAXX 31124 71197 16464 82606 11018 21058 30238 40289 51021 60001 333 11005 21021 70005
AAXX 31124 71198 46/// /0417 11040 21058 6///1 333 11060 21093 7////
AAXX 31124 71199 46/// /0000 11339 21375 39286 40172 51032 6///1 333 11235 21341 4/033 7////
AAXX 31124 71851 16/// /1705 11022 21029 39654 49988 56010 60001 333 11029 21047 70000
AAXX 31124 71857 NIL
AAXX 31124 71860 NIL
AAXX 31124 71876 15366 82815 11063 21070 39368 40036 51050 60001 333 11021 21111 70000
AAXX 31124 71885 NIL
AAXX 31124 71886 16/// /2412 11027 21051 39363 49966 51019 60001 333 11014 21061 4/006 55/// 20000 70000
AAXX 31124 71888 NIL
AAXX 31124 71890 16/// /0215 11068 21096 30200 40228 56011 60001 333 11091 21202 4/021 70000
AAXX 31124 71895 NIL
AAXX 31121 34712 /1/02 91102 10023 20023 30059 40146 57004 74554 555 69901
AAXX 31124 71350 16/// /1507 11038 21066 30194 40262 56001 60001 333 11059 21104 70000
AAXX 31124 71351 NIL
AAXX 31124 71352 17/// /0403 10006 20005 39613 40067 53017 60021 7//4/ 333 10002 21001 70070
AAXX 31124 71353 NIL
AAXX 31124 71354 NIL
AAXX 31124 71355 NIL
AAXX 31124 71356 NIL
AAXX 31124 71357 16/// /1911 11243 21272 30067 40074 58004 60001 333 11266 21308 4/070 70003
AAXX 31124 71358 17/// /2804 11360 21400 30034 40071 51004 60011 7//4/ 333 11282 21361 4/042 70061
AAXX 31124 71359 NIL
AAXX 31124 71360 NIL
AAXX 31124 71361 NIL
AAXX 31124 71362 NIL
AAXX 31124 71363 NIL
AAXX 31124 71364 NIL
AAXX 31124 71365 NIL
AAXX 31124 71368 17/04 /0601 10011 20010 39679 40068 53015 69931 730// 333 10008 20004 70061
AAXX 31124 71369 17466 82816 11038 21069 39370 40081 51041 60001 771// 333 11014 21108 70000
AAXX 31124 71370 46/// /0608 11061 21072 30002 40142 56015 6///1 333 11075 21105 7////
AAXX 31124 71371 16966 30210 11062 30085 40120 56014 60001 333 11077 21103 70000
AAXX 31124 71372 NIL
AAXX 31124 71373 17/// /1902 10012 21018 60011 7//4/ 333 11029 21085 70012
AAXX 31124 71374 NIL
AAXX 31124 71375 NIL
AAXX 31124 71376 17/// /0904 11043 21054 39822 40123 56006 60011 7//4/ 333 11072 21089 70030
AAXX 31124 71377 16/// /0308 11058 21070 30067 40117 56012 60001 333 11081 21106 4/003 70003 555 10010
AAXX 31124 71378 16/// /3604 11138 21164 39950 40168 56013 60001 333 11151 21170 4/023 70000
AAXX 31124 71379 16/// /3005 11194 21223 30005 40187 56011 60001 333 11199 21294 70000
AAXX 31124 71380 NIL
AAXX 31124 71381 NIL
AAXX 31124 71382 17/// /0000 11093 21102 39197 40181 56013 60031 7//4/ 333 11100 21220 70030
AAXX 31124 71383 NIL
AAXX 31124 71384 17/// /1904 11055 21070 30170 40178 56021 60021 7//4/ 333 11050 21130 70020
AAXX 31124 71385 NIL
AAXX 31124 71386 NIL
AAXX 31124 71387 NIL
AAXX 31124 71388 46/// /0905 11093 21117 39989 40186 56010 6///1 333 11188 21261 7////
AAXX 31124 71389 46/// /0910 11057 21078 6///1 333 11064 21112 7////
AAXX 31124 71390 46/// /3604 11109 6///1 333 11053 21127 7////
AAXX 31124 71391 16/// ///// 11069 21081 60001 333 11086 21105 70013
AAXX 31124 71392 NIL
AAXX 31124 71393 NIL
AAXX 31124 71395 11674 81212 11021 21052 30074 40258 58008 69901 70282 8657/ 333 10003 21057 79999 90921
AAXX 31124 71398 15666 81202 11172 21189 30134 40146 56007 60001 333 11186 21246 70000
AAXX 31124 71399 NIL
AAXX 31124 71250 NIL
AAXX 31124 71251 16/// /2709 11016 21081 39163 40088 51052 60001 333 10087 21027 70000
AAXX 31124 71252 NIL
AAXX 31124 71253 46/// /0000 11186 21199 6///1 333 11135 21203 4/027 7////
AAXX 31124 71254 16/// /3015 11053 21077 60001 333 10003 21072 4/004 70000
AAXX 31124 71255 17/// /3504 11100 21116 69931 7//4/ 333 11017 21100 4/020 70010 555 10030
AAXX 31124 71256 46/// /2909 11067 21101 39163 40110 51052 6///1 333 11031 21076 7////
AAXX 31124 71257 NIL
AAXX 31124 71258 NIL
AAXX 31124 71259 NIL
AAXX 31124 71261 17/// /3507 10025 20024 39810 40070 53032 69931 7//4/ 333 10034 20020 70084
AAXX 31124 71263 11160 80000 10038 20039 39782 40070 53013 60081 70264 825// 333 4-9000 70090
AAXX 31124 71264 16/// /0606 10004 21023 30225 40257 58005 60001 333 10016 21031 70000
AAXX 31124 71265 17448 80806 10030 20022 39976 40070 53010 60001 710// 333 10016 20006 70035
AAXX 31124 71266 NIL
AAXX 31124 71267 15966 82619 10013 21080 39008 40102 51046 60001 333 10085 21045 70000
AAXX 31124 71268 NIL
AAXX 31124 71269 NIL
AAXX 31124 71270 NIL
AAXX 31124 71271 16/// ///// 11068 21087 60001 333 11031 21118 70000
AAXX 31124 71272 17466 83308 11142 21154 39664 40020 51011 60001 771// 333 11063 21142 70000
AAXX 31124 71273 16/// /3107 11051 21065 39362 40024 53051 60001 333 11019 21065 55/// 20000 70045
AAXX 31124 71274 NIL
AAXX 31124 71275 NIL
AAXX 31124 71276 NIL
AAXX 31124 71277 NIL
AAXX 31124 71278 NIL
AAXX 31124 71279 16/// /0305 11138 21164 30185 40254 58009 60001 333 11067 21163 70000
AAXX 31124 71281 NIL
AAXX 31124 71282 46/// /1003 11017 21017 39811 40083 53013 6///1 333 11018 21052 7////
AAXX 31124 71283 NIL
AAXX 31124 71284 16/// ///// 11065 21090 60001 333 11022 21086 70000
AAXX 31124 71285 NIL
AAXX 31124 71286 NIL
AAXX 31124 71287 NIL
AAXX 31124 71288 NIL
AAXX 31124 71289 NIL
AAXX 31124 71290 15666 11403 11110 21126 39333 40184 52043 60001 333 11030 21145 70000
AAXX 31124 71291 16/// /1504 11063 21072 39816 40112 55009 60001 333 11054 21072 4/017 55/// 20000 70000
AAXX 31124 71292 15966 02413 11027 21028 39364 49967 51019 60001 333 11014 21059 70000
AAXX 31124 71294 16/// /0402 11077 21087 39687 40098 53005 60001 333 11098 4/013 70036 555 10030
AAXX 31124 71295 NIL
AAXX 31124 71296 NIL
AAXX 31124 71297 17/// /0000 10026 20026 69951 7//4/ 333 10038 20022 70069
AAXX 31124 71298 16/// /2908 10032 20026 39864 40093 53039 60001 333 10072 20032 70092
AAXX 31124 71299 NIL
AAXX 31124 71401 16/// /1603 10002 21045 39513 40202 51056 60001 333 10057 20001 4/013 70014
AAXX 31124 71402 NIL
AAXX 31124 71404 NIL
AAXX 31124 71405 NIL
AAXX 31124 71406 NIL
AAXX 31124 71407 NIL
AAXX 31124 71408 NIL
AAXX 31124 71409 NIL
AAXX 31124 71410 15266 81406 11062 21070 39702 49981 53001 60001 333 11050 21064 70000
AAXX 31124 71413 NIL
AAXX 31124 71414 NIL
AAXX 31124 71415 16/// /1607 11028 21055 30259 40262 58003 60001 333 11031 21068 4/001 70000
AAXX 31124 71417 NIL
AAXX 31124 71418 NIL
AAXX 31124 71419 46/// /1903 11010 21038 30279 40289 51013 6///1 333 11002 21051 7////
AAXX 31124 71423 NIL
AAXX 31124 71424 46/// /0328 6///1 333 7////
AAXX 31124 71425 16/// /1607 11089 21117 30214 40252 56004 60001 333 11066 21107 70000
AAXX 31124 71426 NIL
AAXX 31124 71427 16/// /0309 11098 21120 30232 40240 57006 60001 333 11069 21129 70000
AAXX 31124 71428 NIL
AAXX 31124 71429 16/// /1806 11050 21092 30230 40250 51002 60001 333 11026 21058 70000
AAXX 31124 71434 NIL
AAXX 31124 71436 15462 80203 11034 21041 39848 40086 53006 60001 333 11046 21067 70000
AAXX 31124 71437 46/// /3603 10028 20015 39968 40063 53010 6///1 333 10047 20027 7////
AAXX 31124 71438 NIL
AAXX 31124 71439 NIL
AAXX 31124 71440 NIL
AAXX 31124 71442 NIL
AAXX 31124 71445 NIL
AAXX 31124 71446 NIL
AAXX 31124 71448 16/// /1510 11033 21042 39668 40000 56028 60001 333 11067 21112 70000
AAXX 31124 71449 NIL
AAXX 31124 71700 17566 80507 11063 21086 30208 40235 56008 60001 771// 333 11043 21115 70000
AAXX 31124 71701 NIL
AAXX 31124 71702 16/// /1305 11036 21072 30234 40250 58007 60001 333 11053 21110 4/001 70000
AAXX 31124 71703 11516 80803 11092 21103 39909 40219 56012 69983 771// 885// 333 11090 21178 48007 70008 90999 555 19999 29999 32920 40080
AAXX 31124 71704 17132 83111 10033 20032 39861 40081 53039 60011 7104/ 333 10057 20032 70111
AAXX 31124 71710 16/// /1904 11025 21058 30264 40274 51008 60001 333 11015 21031 70011
AAXX 31124 71712 16/// /0708 11056 21065 30048 40111 56007 60001 333 11074 21102 70000
AAXX 31124 71713 17/// /0405 11090 21100 60011 7//4/ 333 11103 21149 70010
AAXX 31124 71716 NIL
AAXX 31124 71717 NIL
AAXX 31124 71720 16/// /1101 11009 21015 30110 40266 51039 60001 333 10078 21016 70000
AAXX 31124 71721 NIL
AAXX 31124 71723 NIL
AAXX 31124 71724 17/// /0510 11046 21064 30134 40142 56016 60011 7//4/ 333 11057 21106 70013
AAXX 31124 71732 NIL
AAXX 31124 71733 16/// /3606 11084 21088 39677 40119 53016 60001 333 11088 21106 4/007 70000
AAXX 31124 71734 16/// /0303 11113 21130 39731 40135 53005 60001 333 11121 21142 70012
AAXX 31124 71736 NIL
AAXX 31124 71737 NIL
AAXX 31124 71741 16/// /0202 11023 21043 39798 40224 51038 60001 333 10092 21024 70000
AAXX 31124 71742 NIL
AAXX 31124 71743 NIL
AAXX 31124 71744 NIL
AAXX 31124 71745 NIL
AAXX 31124 71746 NIL
AAXX 31124 71747 NIL
AAXX 31124 71748 NIL
AAXX 31124 71001 15966 00601 11369 21415 39082 40114 51031 60001 333 11264 21370 70000
AAXX 31124 71002 15966 02701 11260 21287 39679 40252 58004 60001 333 11107 21263 70000
AAXX 31124 71003 15966 03301 11277 21304 39809 40216 56005 60001 333 11180 21295 70000
AAXX 31124 71005 NIL
AAXX 31124 71006 NIL
AAXX 31124 71007 NIL
AAXX 31124 71008 NIL
AAXX 31124 71009 NIL
AAXX 31124 71010 NIL
AAXX 31124 71011 NIL
AAXX 31124 71012 NIL
AAXX 31124 71013 NIL
AAXX 31124 71014 NIL
AAXX 31124 71015 NIL
AAXX 31124 71016 NIL
AAXX 31124 71017 NIL
AAXX 31124 71018 NIL
AAXX 31124 71019 NIL
AAXX 31124 71020 NIL
AAXX 31124 71021 NIL
AAXX 31124 71022 15966 01306 11030 21047 30175 40220 51023 60001 333 10022 21028 70028
AAXX 31124 71023 NIL
AAXX 31124 71024 16/// /2201 11148 21156 60001 333 11148 21169 4/017 70000
AAXX 31124 71026 NIL
AAXX 31124 71027 16/// /2403 11052 21073 30275 40285 51014 60001 333 11021 21054 70009
AAXX 31124 71028 16/// /3603 11123 21133 39188 40254 51043 60001 333 10020 21123 4/005 70016 555 10010
AAXX 31124 71029 NIL
AAXX 31124 71030 16/64 /1208 10046 20015 30113 40204 57009 60001 333 10014 21021 4/002 70000
AAXX 31124 71032 46/// /2501 11052 21070 39392 40239 51040 6///1 333 10030 21061 4/017 7////
AAXX 31124 71033 46/// /3503 11113 21123 39387 40022 52017 6///1 333 11046 21114 4/026 55/// 20000 7////
AAXX 31124 71035 NIL
AAXX 31124 71036 15964 32308 11008 21027 39585 49958 51001 60001 333 11025 21065 70000
AAXX 31124 71039 46/// /0000 11377 6///1 333 11237 21377 7////
AAXX 31124 71040 46/// /2503 11159 21186 39975 40186 56012 6///1 333 11184 21258 7////
AAXX 31124 71041 15666 80805 11050 21070 30142 40289 53012 60001 333 11037 21114 70000
AAXX 31124 71042 16/// /1902 11014 21022 30255 40259 53040 60001 333 10091 21016 70007
AAXX 31124 71044 16/// /2901 11336 21371 39783 40120 51022 60001 333 11238 21348 4/016 70000
AAXX 31124 71046 460// /2502 11279 30108 40126 53022 6///1 333 11247 21304 7////
AAXX 31124 71047 NIL
AAXX 31124 71048 NIL
AAXX 31124 71049 NIL
AAXX 31124 71060 NIL
AAXX 31124 71063 NIL
AAXX 31121 33088 32597 82603 10014 20003 39900 40093 58006 888//
AAXX 31121 33177 /1482 82703 10016 21015 39874 40114 52011 70282 889// 555 69971
AAXX 31121 33261 /1396 82401 10011 20006 39924 40109 58004 71072 889// 333 87708 555 60011
AAXX 31121 33275 /1294 81904 10011 20008 39886 40112 58004 76165 8772/ 333 87704 555 69961
AAXX 31121 33301 /1497 82508 10003 21008 39824 40110 54000 72682 883// 333 86915 555 69901
AAXX 31121 33325 32497 72701 10018 21007 39842 40113 58005 85330 333 85916 934//
AAXX 31121 33377 /1443 82401 10014 20006 39921 40117 58004 71075 886// 333 88711 555 69951
AAXX 31121 33415 32597 72905 10019 21038 39724 40126 54000 87500 333 87630
AAXX 31121 33429 32598 72704 10016 21018 39701 40130 52001 87500 333 87623
AAXX 31121 33466 31558 72302 10026 20008 39934 40123 58004 71042 84301
AAXX 31121 33526 32560 62705 10035 21036 39793 40136 58003 86500 333 86620
AAXX 31121 33562 31440 72303 10005 21009 39761 40128 58002 71042 83630
AAXX 31121 33614 /1494 82801 10023 20018 30013 40119 58001 76162 8872/ 333 88710 555 69961
AAXX 31121 33761 32698 63502 10033 20007 39907 40132 57001 85204
AAXX 31121 33902 31596 72601 10050 20015 30061 40127 55001 71022 87500
AAXX 31121 33983 32997 71504 10099 20048 30075 40136 57007 80001
AAXX 31121 34415 /1324 80000 10014 20006 30042 40140 58006 71062 886// 555 69911
AAXX 31121 34523 31496 81401 10027 20009 30073 40150 57004 71022 886// 333 88714
AAXX 31121 34712 NIL
AAXX 31121 01300 41395 81818 10060 20050 49922 57030 76062 8872/ 22200 02068 10811 70057 333 91121
AAXX 31121 01492 41989 40000 11030 21061 39969 40090 58009 70300 80008 333 91104
AAXX 31121 01400 41295 82405 10081 20079 40003 57005 71062 886// 22200 06078 10604 70021 333 91113
AAXX 31124 85223 11220 82605 10132 20130 37521 47144 52024 60104 76062 8472/ 333 20124 31/// 55019 56009 58009 70097 82705 83625 88427 96010 96004
AAXX 31124 85283 11484 70000 10141 20124 37220 47157 52006 60154 70162 83504 333 20103 31003 55048 56100 58020 70148 83610 86070
AAXX 31124 85293 12484 70000 10084 20064 36378 52003 60104 84504 333 20036 32/// 56000 58012 70102 84620 86070
AAXX 31124 85312 12884 80000 10200 20200 38785 52025 60104 88021 333 20196 31/// 55055 56009 58025 70096 88457
AAXX 31124 85345 11484 70000 10230 20216 39638 40092 52008 60294 72162 86520 333 20200 31/// 56440 58013 70286 82610 84620 86458
AAXX 31124 85364 11550 80000 10142 20131 38170 48194 53016 60014 76092 8852/ 333 20140 31/// 55070 56009 58028 70014 83623 85627 88457
AAXX 31124 85365 12584 71807 10247 20217 39376 40088 52012 60264 81538 333 20197 31/// 56400 58016 70263 81623 84357 86270
AAXX 31124 85394 32484 53608 10242 20225 39673 40106 52012 83530 333 20220 30/// 56400 58013 83620 85357
AAXX 31124 61766 31950 80614 10228 20020 30107 40150 70622 80002 333 0//00 58006 88075
AAXX 31124 61769 31958 70405 10226 20048 3//// 4//// 70522 80001 333 0//00 5//// 87075
AAXX 31124 65352 32956 70406 10303 21013 3//// 4//// 80002 333 5//// 87076
AAXX 31124 65361 32960 71404 10312 21032 3//// 4//// 80002 333 5//// 87076
AAXX 31124 65376 32960 70404 10290 20020 39673 40133 80002 333 59003 87076
AAXX 31124 65387 31462 72207 10312 20222 30091 40108 70342 82802 333 59001 82616 87073
AAXX 31124 64600 31580 72404 10300 20160 39452 40093 70344 83102 333 58003 83820 87080 94909 95839
AAXX 31124 64601 32960 00417 10315 20009 38991 48511 333 59001
AAXX 31124 64605 32980 00202 10320 20042 39350 40080 333 58005
AAXX 31124 64610 32970 02206 10345 20056 3//// 4//// 333 5////
AAXX 31124 64650 32558 31802 10325 20210 39681 40087 83100 333 59001 83823 94909 95879
AAXX 31124 64654 32980 00604 10364 20052 39533 40093 333 58011
AAXX 31124 64655 32575 10000 10320 20206 39450 40088 81100 333 58005 81823 94906 95816
AAXX 31124 64656 31580 32806 10301 20224 39538 40083 70344 83200 333 59004 83823 94929 95839
AAXX 31124 64659 NIL
AAXX 31124 64660 NIL
AAXX 31124 64662 32580 41802 10315 20222 39591 40080 84200 333 58009 84820 94919 95879
AAXX 31124 64665 32580 80000 10320 20219 3//// 4//// 83202 333 5//// 83828 88080 94919 95879
AAXX 31121 06428 17345 /2504 10109 20103 30068 40116 50000 69921 71086 333 81/06 83/08 85/17 91107 91205
AAXX 31121 06432 17/30 /9901 10106 20102 30047 40123 50000 69921 71086 333 81/03 85/05 87/09 91108 91205
AAXX 31121 06458 17124 /2504 10100 20100 39963 40115 50002 69921 75286 333 83/02 87/04 88/06 91107 91206
AAXX 31121 06465 17246 /2504 10103 20099 30042 40107 50002 69981 75286 333 81/03 85/05 88/08 91107 91205
AAXX 31121 06496 17/16 92402 10037 20037 39441 40118 50001 60031 75186 333 89/03 91105 91203
AAXX 31121 02019 05/99 /1401 11150 21182 39439 40083 53003 60001 333 60005 90710 91106
AAXX 31121 02081 05/99 /0104 11058 21071 39643 40054 53011 60001 333 60005 90710 91108
AAXX 31121 02095 07437 /3403 11047 21060 39816 40022 51011 69921 78587 333 69915 81/18 88/32 90710 91106
AAXX 31121 02101 47965 /0000 11189 21210 39503 40087 50004 785// 8////
AAXX 31121 02119 05/99 /3401 11256 21279 39675 40083 51010 60001 333 60005 90710 91103
AAXX 31121 02124 05/99 /2801 11135 21170 39527 40069 52009 60001 333 60005 90710 91105
AAXX 31121 02126 05/99 /3202 11123 21146 39714 40063 52010 60001 333 60005 90710 91105
AAXX 31121 02151 36/// ///// 1//// 2//// 3//// 4//// 5//// 6///1 333 6///5 910// 90710 911// 90710 912//
AAXX 31121 02186 17571 83505 11043 21060 39984 40009 51014 69921 78084 333 60005 88/23 91008 90710 91109 90710 91206
AAXX 31121 02197 07/61 /0103 11047 21051 39976 49995 52014 69931 70074 333 60005 90710 91106
AAXX 31121 02207 05/83 /0401 11100 21112 39347 40063 58010 60001 333 60005 90710 91108
AAXX 31121 02219 07/57 /1301 11061 21061 39381 40059 54000 60001 71010 333 60005 90710 91103
AAXX 31121 02226 45981 /3101 11048 21065 39603 40065 53001 8////
AAXX 31121 02243 07/59 /2801 11161 21173 39782 40061 52005 60001 71010 333 60005 90710 91102
AAXX 31121 02269 05799 /3204 11056 21092 60001 333 60005 83/50 84/57 86/60 90710 91109
AAXX 31121 02287 07550 /3404 11039 21055 30003 40013 51013 69911 77170 333 69905 85/32 87/59 90710 91110
AAXX 31121 02297 07456 /3513 11027 21028 39958 40004 52016 60041 72477 333 69915 81/12 83/18 87/24 90710 91118
AAXX 31121 02308 05/99 /2701 11100 21111 39196 40078 58008 60001 333 60005 90710 91103
AAXX 31121 02327 05/99 /2703 11097 21110 39634 40081 58002 60001 333 60005 90710 91105
AAXX 31121 02355 NIL
AAXX 31121 02366 45/82 /0102 11061 21084 30050 40056 52004 8////
AAXX 31121 02407 05/75 /2001 11078 21093 39710 40089 58004 60001 333 60005 90710 91102
AAXX 31121 02418 45982 /2601 11037 21053 39959 40094 57003 8////
AAXX 31121 02435 45972 /2604 11038 21077 39890 40082 54000 8////
AAXX 31121 02440 05/83 /2802 11041 21067 60001 333 60005 90710 91105
AAXX 31121 02452 05/99 /3402 11019 21066 60001 333 60005 90710 91104
AAXX 31121 02456 05/81 /2801 11031 21055 30026 40069 52004 60001 333 60005 90710 91103
AAXX 31121 02469 05/83 /2602 11031 21048 60001 333 60005 90710 91104
AAXX 31121 02498 05/83 /2908 11008 21030 30046 40062 50004 60001 333 60005 90710 91109
AAXX 31121 02518 460// /1406 10020 20020 333 85/01 90710 91107
AAXX 31121 02520 35981 01001 11011 21028 30024 40093 58005 60001 333 60005 91002 90710 91102 90710 91202
AAXX 31121 02550 45982 /2102 11018 21018 39815 40095 58001 8////
AAXX 31121 02562 35983 00000 11007 21024 39976 40093 58001 60001 333 60005 91001 90710 91102 90710 91202
AAXX 31121 02563 05/99 /3102 11014 21042 30063 40085 57001 60001 333 60005 90710 91105
AAXX 31121 02565 07/68 /2302 11007 21031 39975 40097 54001 60001 70010 333 60005 90710 91103
AAXX 31121 02589 05599 /3105 10008 21033 30052 40073 52005 60001 333 60005 82/22 90710 91109
AAXX 31121 02590 45584 /3004 10013 21020 30021 40085 52005 333 81/21
AAXX 31121 02618 07/09 /0701 11022 21022 39931 40098 58003 69911 73287 333 60005 90710 91101
AAXX 31121 02664 32984 10000 10011 21020 30031 40104 58004 60001 81001 333 60005 81075 91001 90710 91102 90710 91202
AAXX 31121 02679 05499 /3205 10017 21009 30046 40091 52002 60001 333 60005 85/12 90710 91107
AAXX 31123 91551 31598 20000 10240 20223 40085 51002 70122 82100 333 10320 569// 59008 82820
AAXX 31123 91553 NIL
AAXX 31123 91554 NIL
AAXX 31123 91555 31598 40000 10266 20242 40087 51004 70122 82101 333 10310 569/9 59006 82825 84080=86/25 91557 11598 19901 10236 20227 40090 51001 69901 70112 81100 333 10/// 569// 59008 69901 81820
AAXX 31123 91565 31598 10000 10245 20223 40077 58001 70111 81100 333 10305 569// 59007 81825
AAXX 31123 91568 31598 10000 10235 20228 40092 51002 70112 81800 333 10305 569// 59004 81825
AAXX 31124 68299 36/// /1705 10165 20138 38936 48525 52002 333 10182 20118 91009 555 91019
AAXX 31124 68240 42560 53402 10302 20158 48507 57014 85380
AAXX 31123 91551 31598 20000 10240 20223 40085 51002 70122 82100 333 10320 569// 59008 82820
AAXX 31123 91553 NIL
AAXX 31123 91554 NIL
AAXX 31123 91555 31598 40000 10266 20242 40087 51004 70122 82101 333 10310 569/9 59006 82825 84080=86/25 91557 11598 19901 10236 20227 40090 51001 69901 70112 81100 333 10/// 569// 59008 69901 81820
AAXX 31123 91565 31598 10000 10245 20223 40077 58001 70111 81100 333 10305 569// 59007 81825
AAXX 31123 91568 31598 10000 10235 20228 40092 51002 70112 81800 333 10305 569// 59004 81825
AAXX 31124 16734 12565 72910 10120 20061 39973 40035 58006 60001 83270 333 83820 87360 90730 91114 555 40000 47502 44125 50000 50092
AAXX 31124 78388 111574 61308 10236 20193 30163 40172 60001 70500 81900 333 06200 10300 20224 81922 86642
AAXX 31121 12345 12559 10703 10191 20187 30155 40200 52011 60004 81100 333 81820
AAXX 31121 78264 11559 23503 10218 20194 30114 40189 52020 60004 70500 82100 333 20216 82820
AAXX 31121 02464 45982 /2604 11017 21057 30057 40075 52003 8////
AAXX 31121 02500 05/81 /0903 11006 21034 30040 40083 58011 60001 333 60005 90710 91105
AAXX 31121 02513 05/73 /1402 10018 20006 30082 40086 58005 60001 333 60005 90710 91103
AAXX 31121 02615 05/70 /2402 10035 20019 30101 40105 58003 60001 333 60005 90710 91104
AAXX 31121 02635 07/58 /1701 10021 20015 60001 71010 333 60005 90710 91103
AAXX 31124 783388 11574 61308 10236 20193 30163 40172 60001 70500 86900 333 06200 10300 20224 58003 81922 86642
AAXX 31124 783388 11574 61308 10236 20193 30163 40172 60001 70500 86900 333 06200 10300 20224 58003 81922 86642
AAXX 31124 78388 111574 61308 10236 20193 30163 40172 60001 70500 81900 333 06200 10300 20224 81922 86642
AAXX 31124 65201 31458 60000 10320 20235 30079 40132 70522 82280 333 56500 57832 59006 82814 86200 91111 94919
BBXX PCEO 31123 99274 70449 41297 41806 10220 20190 40316 52010 7//00 83564 22254 04236 20602 329// 40402 5//// 80200
AAXX 31121 12345 12559 10703 10191 20187 30155 40200 52011 60004 81100 333 81820
AAXX 31121 78264 11559 23503 10218 20194 30114 40189 52020 60004 70500 82100 333 20216 82820
AAXX 31124 91925 06/// /3104 10238 20207 30050 40111 56015 60001 333 10303 58001 60007 90710 91107 555 60005 13107
AAXX 31124 91943 36/// /0710 10259 20211 30116 40118 56017 333 59002= 91944 06/// /0808 10259 20209 30130 40133 56016 60001 333 60007 90710 91113 555 60005
AAXX 31124 91948 06/// /1207 10239 20202 30063 40165 56015 60011 333 10284 59010 60007 90710 91112 555 60005 11215
AAXX 31124 91954 06/// /3312 10242 20235 30121 40124 56012 60181 333 10264 58014 60127
AAXX 31124 91958 06/// /3209 10256 20229 30135 40137 57014 69921 333 10271 58010 60007 90710 91126 555 60005 13126
AAXX 31124 91929 04357 82308 10240 20226 30110 40113 57012 60111 761// 333 60107 90710 91110 555 60025
AAXX 31124 91938 01560 70709 10266 20222 30114 40116 57019 60041 71561 878// 333 60007 83820 86650 90710 91118 555 60005 10821
AAXX 31124 91945 36/// /0310 10268 20226 30131 40136 56014 333 10294
AAXX 31124 94500 NIL
AAXX 31124 94510 46/// /0701 10212 20193 39778 40118
AAXX 31124 94515 46/// /0403 10190 20141 39784 40126
AAXX 31124 94552 46/// /0710 10181 20134 39698 40158
AAXX 31124 94578 46/// /1905 10205 20149 30156 40167
AAXX 31124 94584 46/// /1228 10225 20154 30036 40145
AAXX 31124 94601 46/// /1518 10189 20164 30103 40120
AAXX 31124 94610 46/// /2411 10236 20189 30047 40070
AAXX 31124 94637 46/// /2209 10237 20160 39618 40032
AAXX 31124 94638 46/// /1111 10202 20189 30024 40055
AAXX 31124 94642 NIL
AAXX 31124 94643 NIL
AAXX 31124 94647 46/// /0911 10304 20055 39933 40051
AAXX 31124 94651 46/// /1013 10292 20072 39975 40050
AAXX 31124 94653 46/// /1314 10312 21031 30061 40079
AAXX 31124 94659 46/// /0709 10309 21070 39908 40099
AAXX 31124 94672 46/// /1711 10273 20023 30114 40124
AAXX 31124 94691 46/// /0709 10286 20055 39802 40122
AAXX 31124 94693 46/// /0707 10269 20120 30060 40121
AAXX 31124 94700 NIL
AAXX 31124 94703 46/// /0907 10263 20112 30012 40135
AAXX 31124 94710 46/// /0907 10262 20068 39893 40141
AAXX 31124 94729 46/// /0404 10143 20113 39323 40160
AAXX 31124 94750 46/// /2503 10162 20144 30053 40176
AAXX 31124 94767 46/// /0504 10194 20130 30179 40185
AAXX 31124 94776 46/// /0000 10148 20130 30178 40188
AAXX 31124 94791 NIL
AAXX 31124 94802 46/// /2005 10177 20164 30029 40110
AAXX 31124 94804 46/// /0914 10226 20157 30080 40117
AAXX 31124 94807 NIL
AAXX 31124 94821 46/// /1704 10161 20115 30069 40151
AAXX 31124 94842 46/// /0710 10185 20122 30061 40160
AAXX 31124 94847 NIL
AAXX 31124 94850 46/// /1604 10148 20139 30107 40153
AAXX 31124 94865 46/// /2408 10199 20151 30129 40153
AAXX 31124 94866 46/// /2607 10186 20145 30018 40157
AAXX 31124 94875 46/// /0304 10232 20119 30007 40140
AAXX 31124 94102 46/// /3013 10295 20265 30074 40083
AAXX 31124 94103 NIL
AAXX 31124 94120 46/// /3309 10288 20257 30047 40087
AAXX 31124 94122 46/// /2908 10296 20249 30081 40089
AAXX 31124 94131 46/// /0201 10296 20209 39919 40069
AAXX 31124 94132 NIL
AAXX 31124 94147 NIL
AAXX 31124 94150 46/// /0103 10278 20265 30023 40082
AAXX 31124 94151 46/// /0706 10292 20254 30063 4////
AAXX 31124 94170 46/// /2704 10239 20232 30068 40090
AAXX 31124 94200 NIL
AAXX 31124 94203 46/// /2711 10302 20251 30061 40071
AAXX 31124 94206 46/// /0000 10295 2//// 39941 40069
AAXX 31124 94207 46/// /2510 10281 30069 40077 52014
AAXX 31124 94211 NIL
AAXX 31124 94212 46/// /3502 10307 20181 39600 40063
AAXX 31124 94216 46/// /3609 10318 20225 30020 40070
AAXX 31124 94236 NIL
AAXX 31124 94238 46/// /0405 10315 20099 39642 40055
AAXX 31124 94248 NIL
AAXX 31124 94255 46/// /0105 10311 20155 39814 40070
AAXX 31124 94268 46/// /2804 10272 20259 30064 40076
AAXX 31124 94287 46/// /1607 10257 20208 30100 40109
AAXX 31124 94290 NIL
AAXX 31124 94294 46/// /1112 10265 20206 30115 40125
AAXX 31124 94296 35/// /1416 10267 30081 40091 52011
AAXX 31124 94298 46/// /1424 10261 30099 40105 51008
AAXX 31124 95641 NIL
AAXX 31124 41241 36/// /3310 10248 20041 30161 40199 333 0E019 58006
AAXX 31124 41242 NIL
AAXX 31124 41244 NIL
AAXX 31124 41246 NIL
AAXX 31124 41251 32567 50103 10112 20035 38043 40160 84401 333 58005 84620
AAXX 31124 41252 36/// /2704 10251 20054 39803 40092 333 0E015 58002
AAXX 31124 41253 36/// /3504 10232 20087 39813 40197 333 0E016 58006
AAXX 31124 41254 NIL
AAXX 31124 41255 32960 01204 10243 20057 39644 40161 333 5////
AAXX 31124 41256 32960 50612 10244 20100 30182 40192 85030 333 58009 85360
AAXX 31124 41257 36/// /3408 10228 20098 39705 40194 333 0E015 58012
AAXX 31124 41258 NIL
AAXX 31124 41259 36/// /3010 10063 21053 37119 40289 333 0E/// 58007
AAXX 31124 41262 NIL
AAXX 31124 41263 36/// /1904 10230 20061 39500 40193 333 0E013 58006
AAXX 31124 41264 NIL
AAXX 31124 41265 36/// /0406 10232 20098 39640 40194 333 0E020 58014
AAXX 31124 41267 NIL
AAXX 31124 41268 32560 40410 10244 20110 30172 40188 84500 333 58015 84625
AAXX 31124 41270 36/70 /0413 10237 20104 30132 40144 333 0E021 58014
AAXX 31124 41275 NIL
AAXX 31124 41287 NIL
AAXX 31124 41288 31956 00718 10261 20164 30151 40173 70500 333 58003
AAXX 31124 41290 NIL
AAXX 31124 41295 36/// /0107 10260 20091 39989 40165 333 0E015 58002
AAXX 31124 41304 NIL
AAXX 31124 41312 36/// /3512 10266 21002 30126 40165 333 0E034 58003
AAXX 31124 41314 32960 03505 10214 20000 39681 40187 333 5////
AAXX 31124 41315 36/// /3514 10181 21028 39182 42820 333 0E/// 58006
AAXX 31124 41316 32560 13513 10268 21020 30144 40170 81500 333 58001 81625
AAXX 31121 34712 /1/02 91102 10023 20023 30059 40146 57004 74554 555 69901
BBXX A8OZ4 31124 99337 10304 43698 42225 10200 20120 40110 56010 7//// 842// 22234 00172 20605 322// 4/ /// 5//// 80150
AAXX 31124 85406 12660 72702 10227 20139 40145 53013 60004 87600 333 20203 30/// 55087 56000 70000 87640
AAXX 31124 85418 12565 60000 10210 20128 40154 53012 60004 86530 333 20186 30/// 55083 56000 70000 83630 83364
AAXX 31124 85432 12970 60711 10134 20012 37768 48453 52008 60004 80001 333 20068 30/// 51390 55112 56000 70000 86073
AAXX 31124 85442 12568 49902 10200 20134 40147 52012 60004 81504 333 20170 30/// 50600 55091 56407 70000 81626 83080
AAXX 31124 85467 13980 00207 10188 20119 40171 52012 60004 333 20156 30/// 5///0 55073 70000
AAXX 31124 85469 42560 59903 10196 20153 40188 57005 83201 333 56300 83820 85075
AAXX 31124 85488 12565 80000 10175 20139 40160 51013 60004 885// 333 20157 30012 50450 55005 56099 70000 88622
AAXX 31124 85574 12960 01804 10167 20111 39596 40146 51020 60004 333 20137 30/// 55125 70000
AAXX 31124 85577 11958 02202 10179 20115 39544 40147 51017 60004 70500 333 20138 30012 50770 55119 70000
AAXX 31124 94102 46/// /3013 10295 20265 30074 40083
AAXX 31124 94103 NIL
AAXX 31124 94120 46/// /3309 10288 20257 30047 40087
AAXX 31124 94122 46/// /2908 10296 20249 30081 40089
AAXX 31124 94131 46/// /0201 10296 20209 39919 40069
AAXX 31124 94132 NIL
AAXX 31124 94147 NIL
AAXX 31124 94150 46/// /0103 10278 20265 30023 40082
AAXX 31124 94151 46/// /0706 10292 20254 30063 4////
AAXX 31124 94170 46/// /2704 10239 20232 30068 40090
AAXX 31124 94200 NIL
AAXX 31124 94203 46/// /2711 10302 20251 30061 40071
AAXX 31124 94206 46/// /0000 10295 2//// 39941 40069
AAXX 31124 94207 46/// /2510 10281 30069 40077 52014
AAXX 31124 94211 NIL
AAXX 31124 94212 46/// /3502 10307 20181 39600 40063
AAXX 31124 94216 46/// /3609 10318 20225 30020 40070
AAXX 31124 94236 NIL
AAXX 31124 94238 46/// /0405 10315 20099 39642 40055
AAXX 31124 94248 NIL
AAXX 31124 94255 46/// /0105 10311 20155 39814 40070
AAXX 31124 94268 46/// /2804 10272 20259 30064 40076
AAXX 31124 94287 46/// /1607 10257 20208 30100 40109
AAXX 31124 94290 NIL
AAXX 31124 94294 46/// /1112 10265 20206 30115 40125
AAXX 31124 94296 35/// /1416 10267 30081 40091 52011
AAXX 31124 94298 46/// /1424 10261 30099 40105 51008
AAXX 31124 95641 NIL
AAXX 31123 91502 01470 10000 10270 20256 40090 50009 69921 71380 81903 333 10338 56909 58003 69927 81815 81916
AAXX 31123 91507 31470 60000 10272 20251 40092 51010 71522 83936 333 10342 56999 59012 83816 81917 86280
AAXX 31123 91520 31475 40000 10260 20247 40089 50009 70522 82906 333 10317 56909 59012 81816 81917 84280
AAXX 31123 91541 NIL
BBXX FHZI 31114 99620 31451 46/// /2220 10000 21013 39877 49888 52027 22283 04002 86005
BBXX FHZI 31104 99622 31451 46/// /2120 11001 21016 39870 49881 52027 22283 04000 86006
AAXX 31124 94893 NIL
AAXX 31124 94907 46/// /1804 10190 20163 30138 40148
AAXX 31124 94910 46/// /0104 10229 20120 39902 40148
AAXX 31124 94926 46/// /1005 10177 20110 39509 40169
AAXX 31124 94935 46/// /3408 10184 20155 30129 40155
AAXX 31124 94954 46/// /1911 10164 20150 30052 40163
AAXX 31124 94956 46/// /2304 10161 20145 30142 40168
AAXX 31124 94975 46/// /1106 10176 20143 30142 40175
AAXX 31124 94983 NIL
AAXX 31124 94995 46/// /3305 10197 20115 30151 40159
AAXX 31124 94996 46/// /2004 10200 20169 39973 40101
AAXX 31124 94997 NIL
AAXX 31124 94998 46/// /2922 10063 20045 39827 49837
AAXX 31124 95111 46/// /3404 10293 20251 30046 40082
AAXX 31124 95205 46/// /3212 10325 20233 30057 40064
AAXX 31124 95322 NIL
AAXX 31124 95448 46/// /2208 10311 20115 39479 40025
AAXX 31124 95458 46/// /0814 10350 21011 39823 40077
AAXX 31124 95480 46/// /0407 10335 20024 30039 40097
AAXX 31124 95481 46/// /0907 10291 20071 30063 40107
AAXX 31124 95482 46/// /1107 10341 20038 30037 40091
AAXX 31124 95485 46/// /0907 10271 2//// 39919 40119
AAXX 31124 95492 46/// /1408 10294 20085 39964 40115
AAXX 31124 95527 46/// /1807 10217 20111 39890 40138
AAXX 31124 95634 46/// /1010 10276 20103 39653 40044
AAXX 31124 95637 46/// /2205 10210 20173 39756 40082
AAXX 31124 95646 46/// /2006 10324 20073 39863 40046
AAXX 31124 95666 NIL
AAXX 31124 95719 46/// /0808 10186 20119 39831 40157
AAXX 31124 95762 46/// /1408 10175 20111 39707 40156
AAXX 31124 95826 NIL
AAXX 31124 95839 46/// /1708 10223 20065 39973 40130
AAXX 31124 95864 NIL
AAXX 31124 95909 NIL
AAXX 31124 95954 NIL
AAXX 31124 95966 46/// /3604 10161 20138 39962 40161
AAXX 31124 96995 46/// /2103 10240 20218 39808 40102
AAXX 31124 96996 476// 71105 10264 20243 30112 40116 53010 7//44
AAXX 31124 89564 41581 80510 10005 21043 39944 49964 50001 70222 885//
AAXX 31124 89570 46/// /2910 11019 21049 39252 57004 333 10028
AAXX 31124 89571 41575 12408 10013 21036 39888 49917 58006 70200 81500
AAXX 31124 89573 35980 02706 10021 21062 39887 49909 57012 333 80000 00276
AAXX 31124 89610 NIL
AAXX 31124 89611 41275 72105 10000 21037 39793 49845 58022 70322 81618
AAXX 31124 89614 NIL
AAXX 31124 89615 46/// /0921 11050 21100 38952 56021 333 10004
AAXX 31124 89807 NIL
AAXX 31124 89809 46/// /0917 11032 21046 39390 57022 333 10026
BBXX SHIP 31124 99004 31054 41/97 30110 10274 20254 40027 70322 222// 0//// 20201 300// 40101 5////
BBXX VNSZ 31114 99403 31458 46/// /2208 10174 20161 30146 40172 52010 22275 04181 85165
BBXX ZCAS2 31123 99047 31256 41398 73407 10275 20245 40102 52003 71382 8577/ 22243 00294 20601 80254
BBXX C6FS9 31114 99389 31478 46/// /3302 10185 20173 30123 40160 52007 22223 04190 85177
BBXX VROB 31114 99259 31533 46/// /1521 10235 20145 30136 40161 52008 22283 04252 85178
BBXX VNAH 31114 99383 31416 46/// /1105 10188 20160 30134 40158 52010 22200 85170
BBXX VRAE2 31124 99207 31622 41/// /1414 10235 20228 40097 50006 70055 8//// 22274 04270 20602 80230
BBXX VNSZ 31104 99406 31461 46/// /2202 10175 20154 30139 40165 52003 22275 04185 85162
BBXX 9HA2479 31104 99241 31641 46/// /1213 10240 20189 30077 40106 52016 22214 04258 85205
BBXX C6FS9 31104 99390 31475 46/// /0203 10182 20170 30121 40158 52006 22223 04184 85174
BBXX VNSZ 31124 99399 31456 46/// /1507 10171 20156 30137 40163 54000 22275 04183 85162
BBXX 9HA2479 31124 99238 31645 46/// /1312 10240 20198 30075 40104 52001 22214 04259 85211
BBXX C6FS9 31124 99388 31481 46/// /2204 10184 20175 30123 40160 52005 22223 04188 85178
BBXX VNAH 31104 99383 31416 46/// /1504 10190 20156 30134 40158 52010 22200 85169
BBXX GRFP 31124 99201 31690 41598 71311 10255 20241 40088 70322 8647/ 22284 00270 20201 80245
BBXX 2ALD3 31123 99298 31535 41398 41318 10215 20208 40166 52008 70311 84462 22244 04230 20304 80210
BBXX VRZN7 31124 99356 31506 41798 13414 10200 2015/ 40167 54002 70200 81000 22213 04210 2//// 3//// 4//// 5//// 85170
BBXX VROC 31124 99389 31470 41/98 /0000 10205 20146 40155 53014 70300 8//4/ 22263 04250 2//// 304// 40901 80170
BBXX A8VJ2 31123 99095 31376 41599 42915 10298 20244 40087 54000 70100 82145 22273 00260 20201 30000 80260
BBXX YJZC5 31123 99195 31622 41395 62017 10255 20226 40091 51/// 70211 84795 22253 02265 2//// 320// 40102 80235
AAXX 31124 85585 12598 11607 10181 20126 40182 52017 60004 81100 333 20149 309/// 55106 56300 70000 81830
AAXX 31124 85586 11340 83204 10158 20131 40165 52026 60004 7052/ 886// 333 20099 30/// 50330 55058 56799 88708
AAXX 31124 85629 12970 00308 10168 20127 40140 52/// 60004 333 20126 30/// 50810 55136 70000
AAXX 31124 85672 12965 00305 10178 20146 40137 52035 60004 333 20120 30/// 55134 70000
AAXX 31124 85682 11260 80205 10134 20125 40144 51023 60004 71021 886// 333 20121 31/// 50880 55122 56899 70000 88704
AAXX 31124 85743 12960 09904 10145 20117 40148 51011 60004 333 20084 30/// 50420 55101 70000
AAXX 31124 85766 12960 09902 10179 20137 40150 52012 60004 333 20111 30/// 55134 70000
AAXX 31124 85782 12260 71505 10136 20122 40156 54000 60004 87600 333 20080 30/// 56400 70000 87706
AAXX 31124 85799 11230 81903 10124 20124 40155 53004 60001 71041 887// 333 20096 30/// 50780 55138 56499 70000 88705
AAXX 31124 85830 NIL
AAXX 31124 94299 46/// /1421 10269 20213 30090 40100
AAXX 31124 94300 46/// /2018 10239 20178 30093 40103
AAXX 31124 94302 46/// /2119 10245 20161 30086 40092
AAXX 31124 94312 46/// /3212 10266 20200 30065 40074
AAXX 31124 94313 NIL
AAXX 31124 94317 46/// /3008 10346 20022 39462 40030
AAXX 31124 94319 46/// /3406 10333 20183 39722 40043
AAXX 31124 94324 NIL
AAXX 31124 94326 46/// /0905 10302 20022 39457 40056
AAXX 31124 94327 46/// /0307 10330 20100 39703 40067
AAXX 31124 94332 46/// /0000 10254 20166 39690 40066
AAXX 31124 94333 NIL
AAXX 31124 94341 46/// /0905 10281 20120 39857 40086
AAXX 31124 94346 46/// /0911 10277 20143 39882 40097
AAXX 31124 94363 46/// /0610 10245 20172 39910 40124
AAXX 31124 94366 NIL
AAXX 31124 94367 46/// /1211 10253 20182 30092 40134
AAXX 31124 94374 46/// /1206 10234 20171 30131 40147
AAXX 31124 94388 46/// /1318 10239 20171 30141 40146
AAXX 31124 94393 46/// /1424 10250 30103 40115 51009
AAXX 31124 94394 46/// /1319 10239 30121 40129 51009
AAXX 31124 94403 46/// /2112 10215 20164 30063 40104
AAXX 31124 94429 46/// /2307 10295 20085 39598 40049
AAXX 31124 94430 46/// /2606 10308 20032 39475 40042
AAXX 31124 94449 46/// /0711 10321 20123 39520 40034
AAXX 31124 94451 NIL
AAXX 31124 94461 46/// /2508 10295 20119 39407 40059
AAXX 31124 94462 46/// /1804 10298 20082 39507 40047
AAXX 31124 94477 NIL
AAXX 31124 94488 NIL
AAXX 31124 94299 46/// /1421 10269 20213 30090 40100
AAXX 31124 94300 46/// /2018 10239 20178 30093 40103
AAXX 31124 94302 46/// /2119 10245 20161 30086 40092
AAXX 31124 94312 46/// /3212 10266 20200 30065 40074
AAXX 31124 94313 NIL
AAXX 31124 94317 46/// /3008 10346 20022 39462 40030
AAXX 31124 94319 46/// /3406 10333 20183 39722 40043
AAXX 31124 94324 NIL
AAXX 31124 94326 46/// /0905 10302 20022 39457 40056
AAXX 31124 94327 46/// /0307 10330 20100 39703 40067
AAXX 31124 94332 46/// /0000 10254 20166 39690 40066
AAXX 31124 94333 NIL
AAXX 31124 94341 46/// /0905 10281 20120 39857 40086
AAXX 31124 94346 46/// /0911 10277 20143 39882 40097
AAXX 31124 94363 46/// /0610 10245 20172 39910 40124
AAXX 31124 94366 NIL
AAXX 31124 94367 46/// /1211 10253 20182 30092 40134
AAXX 31124 94374 46/// /1206 10234 20171 30131 40147
AAXX 31124 94388 46/// /1318 10239 20171 30141 40146
AAXX 31124 94393 46/// /1424 10250 30103 40115 51009
AAXX 31124 94394 46/// /1319 10239 30121 40129 51009
AAXX 31124 94403 46/// /2112 10215 20164 30063 40104
AAXX 31124 94429 46/// /2307 10295 20085 39598 40049
AAXX 31124 94430 46/// /2606 10308 20032 39475 40042
AAXX 31124 94449 46/// /0711 10321 20123 39520 40034
AAXX 31124 94451 NIL
AAXX 31124 94461 46/// /2508 10295 20119 39407 40059
AAXX 31124 94462 46/// /1804 10298 20082 39507 40047
AAXX 31124 94477 NIL
AAXX 31124 94488 NIL
AAXX 31124 85864 11680 70204 10161 20156 40130 54000 60004 702// 87500 333 20132 30/// 55050 56600 70000 87633
AAXX 31124 85934 12580 72909 10099 20013 40074 52018 69924 84103 333 20063 55125 56606 70002 84820 85070
AAXX 31124 89054 11207 82405 10010 20005 49712 52034 60021 74075 886// 333 10020 20004 56599 88703 96073
AAXX 31124 89056 11015 82409 10003 20000 49708 52032 60012 77152 884// 333 10012 20003 55001 56599 88601 93101
AAXX 31124 89057 41330 82305 10008 20001 49661 52011 76822 886// 333 56799 88707
AAXX 31124 89058 11456 82510 10007 20000 39677 49698 52026 69981 77076 886//
AAXX 31124 89059 12460 81636 10020 21029 49693 52021 69932 885// 333 01650 10020 21008 42998 55/// 74099 88613
AAXX 31124 89251 11140 82710 10008 20001 49692 52026 69912 77177 8672/ 333 20006
AAXX 31124 89564 41581 80510 10005 21043 39944 49964 50001 70222 885//
AAXX 31124 89570 46/// /2910 11019 21049 39252 57004 333 10028
AAXX 31124 89571 41575 12408 10013 21036 39888 49917 58006 70200 81500
AAXX 31124 89573 35980 02706 10021 21062 39887 49909 57012 333 80000 00276
AAXX 31124 89610 NIL
AAXX 31124 89611 41275 72105 10000 21037 39793 49845 58022 70322 81618
AAXX 31124 89614 NIL
AAXX 31124 89615 46/// /0921 11050 21100 38952 56021 333 10004
AAXX 31124 89807 NIL
AAXX 31124 89809 46/// /0917 11032 21046 39390 57022 333 10026
AAXX 31124 94893 NIL
AAXX 31124 94907 46/// /1804 10190 20163 30138 40148
AAXX 31124 94910 46/// /0104 10229 20120 39902 40148
AAXX 31124 94926 46/// /1005 10177 20110 39509 40169
AAXX 31124 94935 46/// /3408 10184 20155 30129 40155
AAXX 31124 94954 46/// /1911 10164 20150 30052 40163
AAXX 31124 94956 46/// /2304 10161 20145 30142 40168
AAXX 31124 94975 46/// /1106 10176 20143 30142 40175
AAXX 31124 94983 NIL
AAXX 31124 94995 46/// /3305 10197 20115 30151 40159
AAXX 31124 94996 46/// /2004 10200 20169 39973 40101
AAXX 31124 94997 NIL
AAXX 31124 94998 46/// /2922 10063 20045 39827 49837
AAXX 31124 95111 46/// /3404 10293 20251 30046 40082
AAXX 31124 95205 46/// /3212 10325 20233 30057 40064
AAXX 31124 95322 NIL
AAXX 31124 95448 46/// /2208 10311 20115 39479 40025
AAXX 31124 95458 46/// /0814 10350 21011 39823 40077
AAXX 31124 95480 46/// /0407 10335 20024 30039 40097
AAXX 31124 95481 46/// /0907 10291 20071 30063 40107
AAXX 31124 95482 46/// /1107 10341 20038 30037 40091
AAXX 31124 95485 46/// /0907 10271 2//// 39919 40119
AAXX 31124 95492 46/// /1408 10294 20085 39964 40115
AAXX 31124 95527 46/// /1807 10217 20111 39890 40138
AAXX 31124 95634 46/// /1010 10276 20103 39653 40044
AAXX 31124 95637 46/// /2205 10210 20173 39756 40082
AAXX 31124 95646 46/// /2006 10324 20073 39863 40046
AAXX 31124 95666 NIL
AAXX 31124 95719 46/// /0808 10186 20119 39831 40157
AAXX 31124 95762 46/// /1408 10175 20111 39707 40156
AAXX 31124 95826 NIL
AAXX 31124 95839 46/// /1708 10223 20065 39973 40130
AAXX 31124 95864 NIL
AAXX 31124 95909 NIL
AAXX 31124 95954 NIL
AAXX 31124 95966 46/// /3604 10161 20138 39962 40161
AAXX 31124 96995 46/// /2103 10240 20218 39808 40102
AAXX 31124 96996 476// 71105 10264 20243 30112 40116 53010 7//44
AAXX 31124 94500 NIL
AAXX 31124 94510 46/// /0701 10212 20193 39778 40118
AAXX 31124 94515 46/// /0403 10190 20141 39784 40126
AAXX 31124 94552 46/// /0710 10181 20134 39698 40158
AAXX 31124 94578 46/// /1905 10205 20149 30156 40167
AAXX 31124 94584 46/// /1228 10225 20154 30036 40145
AAXX 31124 94601 46/// /1518 10189 20164 30103 40120
AAXX 31124 94610 46/// /2411 10236 20189 30047 40070
AAXX 31124 94637 46/// /2209 10237 20160 39618 40032
AAXX 31124 94638 46/// /1111 10202 20189 30024 40055
AAXX 31124 94642 NIL
AAXX 31124 94643 NIL
AAXX 31124 94647 46/// /0911 10304 20055 39933 40051
AAXX 31124 94651 46/// /1013 10292 20072 39975 40050
AAXX 31124 94653 46/// /1314 10312 21031 30061 40079
AAXX 31124 94659 46/// /0709 10309 21070 39908 40099
AAXX 31124 94672 46/// /1711 10273 20023 30114 40124
AAXX 31124 94691 46/// /0709 10286 20055 39802 40122
AAXX 31124 94693 46/// /0707 10269 20120 30060 40121
AAXX 31124 94700 NIL
AAXX 31124 94703 46/// /0907 10263 20112 30012 40135
AAXX 31124 94710 46/// /0907 10262 20068 39893 40141
AAXX 31124 94729 46/// /0404 10143 20113 39323 40160
AAXX 31124 94750 46/// /2503 10162 20144 30053 40176
AAXX 31124 94767 46/// /0504 10194 20130 30179 40185
AAXX 31124 94776 46/// /0000 10148 20130 30178 40188
AAXX 31124 94791 NIL
AAXX 31124 94802 46/// /2005 10177 20164 30029 40110
AAXX 31124 94804 46/// /0914 10226 20157 30080 40117
AAXX 31124 94807 NIL
AAXX 31124 94821 46/// /1704 10161 20115 30069 40151
AAXX 31124 94842 46/// /0710 10185 20122 30061 40160
AAXX 31124 94847 NIL
AAXX 31124 94850 46/// /1604 10148 20139 30107 40153
AAXX 31124 94865 46/// /2408 10199 20151 30129 40153
AAXX 31124 94866 46/// /2607 10186 20145 30018 40157
AAXX 31124 94875 46/// /0304 10232 20119 30007 40140
AAXX 31123 NIL
AAXX 31124 NIL
AAXX 31124 41024 31958 02316 10310 20210 30095 40114 70700 333 59016
AAXX 31124 41030 32960 01806 10348 20100 39836 40103 333 59015
AAXX 31124 41036 32960 02011 10275 20060 38571 48522 333 59004 555 04410 50100
AAXX 31124 41055 32960 01706 10284 20050 38377 48523 333 59003 555 04410 50125
AAXX 31124 41061 32960 01410 10240 20080 39460 40170 333 59013
AAXX 31124 41084 32960 00904 10310 20040 38862 48520 333 59014 555 04410 50114
AAXX 31124 41112 32960 01910 10225 20070 37967 48533 333 58002 555 04410 50163
AAXX 31124 41114 32960 02106 10250 20050 37997 48526 333 58002 555 04410 50142
AAXX 31124 41128 32960 01006 10262 21020 38839 48543 333 59001 555 04410 50169
AAXX 31124 41136 32960 00306 10235 20020 39357 40179 333 58003
AAXX 31124 41140 32960 01912 10296 20220 30130 40143 333 59009
AAXX 31124 91375 NIL
AAXX 31124 91519 NIL
AAXX 31124 91531 NIL
AAXX 31124 91532 45/// /0505 10262 20225 30088 40096 57004 333 10302
AAXX 31124 91559 NIL
AAXX 31124 91611 NIL
AAXX 31124 91642 NIL
AAXX 31124 91679 NIL
AAXX 31124 91689 NIL
AAXX 31124 91756 NIL
AAXX 31124 91844 NIL
AAXX 31124 92036 NIL
AAXX 31124 93713 NIL
AAXX 31124 40356 32960 32804 10160 20070 39155 48465 80006 333 59031 83070 555 04410 50123
AAXX 31124 40357 12660 81512 10156 20040 39489 40125 60022 83510 333 59053 83640 85460
AAXX 31124 40360 32960 22706 10174 20040 39546 40135 80005 333 59020 82270
AAXX 31124 40361 32660 63206 10204 20020 39361 40122 82520 333 59038 82640 84460
AAXX 31124 40362 32660 61514 10210 21010 39615 40126 83570 333 59058 83640 86360
AAXX 31124 40373 31959 01418 10220 20020 39753 40172 70700 333 59040
AAXX 31124 40375 31650 62118 10230 20080 39252 40112 70700 84220 333 59027 84840 84560
AAXX 31124 40377 31940 01821 10233 20070 39685 40164 70700 333 59051
AAXX 31124 40394 32660 42418 10264 20020 39008 48495 82440 333 59036 82645 555 04410 50111
AAXX 31124 40400 32660 53114 10256 20210 30109 40136 85500 333 59008 85640
AAXX 31124 40401 31650 52410 10270 20130 39437 40112 70600 85500 333 59011 85645
AAXX 31124 40405 32960 02010 10250 20060 39407 40140 333 59041
AAXX 31124 40416 32960 60805 10220 20160 30165 40185 81031 333 59012 81360 85070
AAXX 31124 40417 32960 31203 10230 20060 30183 40198 80003 333 59018 83070
AAXX 31124 40420 32960 01008 10223 20050 39991 40201 333 59011
AAXX 31124 40430 31958 51904 10290 20100 39407 40115 70600 80001 333 59022 85070
AAXX 31124 40435 NIL
AAXX 31124 40437 31957 01512 10204 21020 39482 40191 70600 333 59024
AAXX 31124 40439 32660 31608 10288 20210 30111 40129 81102 333 59013 81840
AAXX 31124 94310 46/// /3017 10264 20215 30060 40071 52012 333 10325
AAXX 31124 95283 46/// /1309 10272 20225 30093 40100
AAXX 31124 95288 46/// /1524 10277 30078 40093 51015
AAXX 31124 95675 46/// /1706
AAXX 31124 95872 46/// /2009
AAXX 31124 95961 35/// /1507 10162 30132 40174 52005
BBXX SHIP 31124 99004 31054 41/97 30110 10274 20254 40027 70322 222// 0//// 20201 300// 40101 5////
BBXX VNSZ 31114 99403 31458 46/// /2208 10174 20161 30146 40172 52010 22275 04181 85165
BBXX ZCAS2 31123 99047 31256 41398 73407 10275 20245 40102 52003 71382 8577/ 22243 00294 20601 80254
BBXX C6FS9 31114 99389 31478 46/// /3302 10185 20173 30123 40160 52007 22223 04190 85177
BBXX VROB 31114 99259 31533 46/// /1521 10235 20145 30136 40161 52008 22283 04252 85178
BBXX VNAH 31114 99383 31416 46/// /1105 10188 20160 30134 40158 52010 22200 85170
BBXX VRAE2 31124 99207 31622 41/// /1414 10235 20228 40097 50006 70055 8//// 22274 04270 20602 80230
BBXX VNSZ 31104 99406 31461 46/// /2202 10175 20154 30139 40165 52003 22275 04185 85162
BBXX 9HA2479 31104 99241 31641 46/// /1213 10240 20189 30077 40106 52016 22214 04258 85205
BBXX C6FS9 31104 99390 31475 46/// /0203 10182 20170 30121 40158 52006 22223 04184 85174
BBXX VNSZ 31124 99399 31456 46/// /1507 10171 20156 30137 40163 54000 22275 04183 85162
BBXX 9HA2479 31124 99238 31645 46/// /1312 10240 20198 30075 40104 52001 22214 04259 85211
BBXX C6FS9 31124 99388 31481 46/// /2204 10184 20175 30123 40160 52005 22223 04188 85178
BBXX VNAH 31104 99383 31416 46/// /1504 10190 20156 30134 40158 52010 22200 85169
BBXX GRFP 31124 99201 31690 41598 71311 10255 20241 40088 70322 8647/ 22284 00270 20201 80245
BBXX 2ALD3 31123 99298 31535 41398 41318 10215 20208 40166 52008 70311 84462 22244 04230 20304 80210
BBXX VRZN7 31124 99356 31506 41798 13414 10200 2015/ 40167 54002 70200 81000 22213 04210 2//// 3//// 4//// 5//// 85170
BBXX VROC 31124 99389 31470 41/98 /0000 10205 20146 40155 53014 70300 8//4/ 22263 04250 2//// 304// 40901 80170
BBXX A8VJ2 31123 99095 31376 41599 42915 10298 20244 40087 54000 70100 82145 22273 00260 20201 30000 80260
BBXX YJZC5 31123 99195 31622 41395 62017 10255 20226 40091 51/// 70211 84795 22253 02265 2//// 320// 40102 80235
AAXX 31121 38141 42998 20704 10010 21082 30116 40278 57021 80002 555 1/000
AAXX 31121 38149 42998 00906 10026 21068 30206 40284 57020 555 11004
AAXX 31121 38178 42998 01305 11007 21156 30059 40357 57012 555 10101
AAXX 31121 38262 42998 00903 10019 21058 30199 40280 57015 555 11004
AAXX 31121 38264 42998 00907 10010 21043 30192 40288 57019 555 14000
AAXX 31121 38396 42997 00906 10018 21047 30170 40298 57014 555 10000
AAXX 31121 38403 42997 00906 10019 21099 30195 40320 57019 555 11007
AAXX 31121 38413 42998 00904 10010 21054 30048 40348 57038 555 11101
AAXX 31121 38457 42999 02101 11004 21075 39731 40340 57009 555 1/107
AAXX 31121 38462 42999 00000 11057 21146 38839 48557 57014 555 1/110
AAXX 31121 38565 32998 00000 10028 21065 39718 40316 57015 555 11007
AAXX 31121 38579 31595 31301 11032 21036 39914 40354 57006 71041 83500 555 1/108
AAXX 31121 38583 31/93 91801 11032 21032 30019 40359 57006 74944 555 1/100
AAXX 31121 38611 41294 80000 11014 21017 39759 40355 57010 71011 886// 333 80487 555 11100
AAXX 31121 38618 41/93 93401 11010 21016 39614 40329 57005 74742 555 11100
AAXX 31121 38683 42997 00903 10040 21032 30025 40307 57011 555 10006
AAXX 31121 38696 32999 00702 11036 21057 39434 40331 57022 555 14106
AAXX 31121 38812 42997 00203 10043 21025 39831 40294 57010 555 11006
AAXX 31121 38927 31560 50903 10066 20008 39909 40291 57011 70342 85400 333 85630 555 11006
AAXX 31124 40550 45/69 /1805 10220 21017 40192 56024 333 0/023 55302 00239 10003 20860 30264 41186 51549 61124 55407 40596 90069 90401 91011 91113 91205 91303
AAXX 31124 40551 46/// /1108 10206 21003 333 0//// 90401 91019 91125 91209 91307
AAXX 31124 40552 35/68 /1414 10196 20027 40191 56023 333 0/020 55307 90069 90401 91017 91121 91215 91311
AAXX 31124 40553 35/67 /1515 10199 21012 40195 56020 333 0/021 55309 90069 90401 91019 91119 91215 91309
AAXX 31124 40568 36/// /1407 10163 20122 333 0//// 90400 91009 91111 91207 91305
AAXX 31124 40569 NIL
AAXX 31124 40570 45/68 /1414 10206 21021 40179 56026 333 0/022 55306 90069 90401 91025 91127 91219 91313
AAXX 31124 40571 NIL
AAXX 31124 40572 NIL
AAXX 31124 40573 36/// /1518 10209 21044 333 0//// 90400 91027 91129 91219 91315
AAXX 31124 40580 36/// /1103 10198 20037 333 0/021 553// 00273 10003 20855 30165 41140 51570 61020 55407 40690 90400 91009 91111 91205 91303
AAXX 31124 40581 36/// /0904 10172 20117 333 0//// 90401 91007 91109 91205 91303
AAXX 31124 40582 32960 31208 10191 20067 40196 56020 83030 333 00020 55300 00210 10000 20782 30239 41202 51542 61021 55407 40543 83360 90401 91013 91113 91207 91305
AAXX 31124 40583 NIL
AAXX 31124 40585 36/// /1506 10160 20123 222// 1//// 3//// 4//// 70/// 333 0//// 90401 91011 91117 91209 91303
AAXX 31124 40586 36/// /1107 10207 20033 333 0//// 90401 91013 91115 91207 91303
AAXX 31124 40587 46/// /1206 10209 20036 333 0/023 553// 00287 10000 20855 30249 41216 51538 61104 55407 40606 90401 91011 91113 91207 91303
AAXX 31124 40588 35/61 /1109 10181 20112 40197 56020 333 0/020 55300 90069 90401 91013 91113 91209 91305
AAXX 31124 40589 NIL
AAXX 31124 40590 36/// /1416 10209 21010 333 0//// 90401 91019 91121 91215 91311
AAXX 31124 40591 NIL
AAXX 31124 40592 35/70 /1410 10214 20027 40196 56019 333 0/024 55310 00587 10000 21224 30256 41165 51546 61479 55407 40968 90069 90401 91015 91115 91209 91305
AAXX 31124 40593 36/// /1008 10169 20130 333 0//// 90400 91009 91109 91209 91303
AAXX 31124 40594 36/// /1109 10203 20117 333 0//// 90400 91013 91115 91211 91305
AAXX 31124 40596 46/// /1503 10201 20135 333 0//// 90400 91003 91107 91205 91303
AAXX 31124 71123 11974 13113 11046 21092 39231 40107 52054 69961 70181 81070 333 11022 21086 44006 70006 90935
AAXX 31121 37395 42999 20906 10162 21009 30015 40151 57013 82030 555 10013
AAXX 31121 37409 16/// /0805 10017 21060 38744 48472 57012 60001
AAXX 31121 37432 42997 00000 10015 21076 38931 48483 57026 555 10101
AAXX 31121 37514 42999 00000 10075 21074 39041 40188 57004
AAXX 31121 37545 16/// /3001 10087 21023 39664 40177 56019 60001
AAXX 31121 37621 42699 30000 10072 21044 39540 40180 57011 80030 555 11003
AAXX 31121 37484 NIL
BBXX A8OZ4 31124 99337 10304 43698 42225 10200 20120 40110 56010 7//// 842// 22234 00172 20605 322// 4//// 5//// 80150
AAXX 31124 48373 31956 20000 10261 20203 30075 40137 52011 71000 80001 333 10320 58004
AAXX 31124 48479 31957 20000 10280 20213 30076 40128 52017 71000 80001 333 10341 58003
AAXX 31124 16021 12688 63002 11040 21156 37925 48451 54000 60001 86170 333 82840 83356 92832
AAXX 31124 41859 31930 20000 10203 20150 30119 40158 70510 82030 333 10266 56090 58000 70000 82362
AAXX 31124 41883 32930 50000 10210 20150 30129 40150 85030 333 10293 56060 59005 70000 85362
AAXX 31124 41891 31940 00000 10223 20120 30106 40145 70510 333 10307 59005 70000
AAXX 31124 41907 32910 30000 10200 20150 30132 40148 83030 333 10278 56090 59003 70000 83362
AAXX 31124 41923 31440 70000 10238 20080 30130 40139 70500 84530 333 10287 56990 59007 70000 84616
AAXX 31124 41936 39130 50000 10240 20150 40150 70522 85030 333 10304 56090 59002 70000 85362
AAXX 31124 41943 32450 60000 10226 20150 30133 40140 83520 333 10280 56990 59002 70000 83618 86460
AAXX 31124 41950 31450 60000 10218 20180 30140 40143 70521 82530 333 10288 56690 58000 70000 82618 86362
AAXX 31124 41978 31945 33008 10250 20130 30131 40137 70500 83030 333 10281 56090 58002 70000 83362
AAXX 31124 41992 31930 03602 10245 20160 30134 40136 70510 333 10308 58007 70000
AAXX 31124 71123 11974 13113 11046 21092 39231 40107 52054 69961 70181 81070 333 11022 21086 44006 70006 90935
AAXX 31124 06610 01557 82311 10055 20038 39604 40194 5//// 60031 76262 8672/ 333 553// 20227 69955 86724 88534
AAXX 31124 06670 01250 81908 10044 20031 39657 40175 5//// 60031 76176 8772/ 333 553// 20090 69925 83706 86713
AAXX 31124 06700 01240 82502 10048 20038 39715 40216 5//// 60071 76166 877// 333 553// 20266 69965 82704 87712
AAXX 31124 06680 01/01 92425 11041 21041 37447 47980 5//// 60281 77074 333 553// 20241 60065
AAXX 31124 06990 01430 81609 10009 21005 39630 40192 5//// 60051 723// 887// 333 553// 20133 60015 88512
AAXX 31124 06760 31270 71104 10048 20008 39741 40196 5//// 70172 82771 333 553// 21091 81704 87458
AAXX 31124 06720 01256 80000 10011 20008 39632 40224 5//// 60141 76366 887// 333 553// 20248 60015 88704
AAXX 31121 48892 32598 70505 10268 20250 30134 40139 52012 82108 333 10304 58000 70000 82895 87299
AAXX 31121 48887 01798 60708 10261 20230 30122 40128 53014 69914 70262 865// 333 00027 10280 59003 69902 7000 1 86697
AAXX 31121 48870 12498 83603 10242 20221 30163 40170 53013 60094 888// 333 01024 10259 59004 70089 84894 8869 6
AAXX 31121 48877 12598 63604 10252 20219 30150 40155 51006 69974 868// 333 00025 10265 59011 70007 84895
AAXX 31121 48920 12598 60205 10260 20250 30126 40129 52018 69914 82908 222// 00277 2//03 333 10287 59004 7000 1 81895 82996 86299
AAXX 31121 10270 16358 81302 10026 20015 30075 40131 58010 60001 222// 06043 333 55300 88/06
BBXX 44139 31121 99442 70571 46/// /1301 10027 40318 52014 22200 00044 10905 70026 333 91202
AAXX 31124 41515 02697 71306 10082 21137 38569 48531 60002 84520 333 10096 56990 59010 60007 84650 83458
AAXX 31124 41560 22697 41803 10045 21030 38288 48519 60002 83430 333 10075 59003 60007
AAXX 31124 41571 11996 00000 10195 20003 39603 40183 60002 70500 333 10310 58013
AAXX 31124 41594 31996 00504 10190 20045 39971 40189 70500 333 10205 58012
AAXX 31124 41685 32997 03102 10150 21099 38921 48505 333 10165 59020
AAXX 31124 41710 02997 01302 10165 21118 39408 40183 60002 333 10172 59004 60007
AAXX 31124 41718 11996 00502 10200 20046 30070 40174 60002 70500 333 10213 58000
AAXX 31124 41739 02997 03110 10155 21060 39074 48529 60002 333 10160 59004 60007
AAXX 31124 41744 32996 03602 10170 21073 38789 48515 333 10180 59002
AAXX 31124 41749 01995 03104 10220 20064 30132 40166 60002 70400 333 10230 59003 60007
AAXX 31124 41515 02697 71306 10082 21137 38569 48531 60002 84520 333 10096 56990 59010 60007 84650 83458
AAXX 31124 41560 22697 41803 10045 21030 38288 48519 60002 83430 333 10075 59003 60007
AAXX 31124 41571 11996 00000 10195 20003 39603 40183 60002 70500 333 10310 58013
AAXX 31124 41594 31996 00504 10190 20045 39971 40189 70500 333 10205 58012
AAXX 31124 41685 32997 03102 10150 21099 38921 48505 333 10165 59020
AAXX 31124 41710 02997 01302 10165 21118 39408 40183 60002 333 10172 59004 60007
AAXX 31124 41718 11996 00502 10200 20046 30070 40174 60002 70500 333 10213 58000
AAXX 31124 41739 02997 03110 10155 21060 39074 48529 60002 333 10160 59004 60007
AAXX 31124 41744 32996 03602 10170 21073 38789 48515 333 10180 59002
AAXX 31124 41749 01995 03104 10220 20064 30132 40166 60002 70400 333 10230 59003 60007
AAXX 31124 41506 02696 80000 10100 21007 48540 60002 8442/ 333 10120 5699/ 58000 60007 84640 84460
AAXX 31124 41508 22997 32302 10128 21127 48562 60002 80020 333 10152 56090 58006 60007 83460
AAXX 31124 41523 12997 00000 10145 21019 48551 60002 333 10175 58001 60007
AAXX 31124 41535 12997 00000 10130 21009 48513 60002 333 10165 58003
AAXX 31124 41536 12997 00000 10125 21001 48526 60002 333 10187 58009
AAXX 31124 41573 12997 00000 10065 21092 48525 60002 333 10106 58008
AAXX 31124 41600 01995 00000 10190 20096 39879 40174 60002 70400 333 10218 58014 60007
AAXX 31124 41630 11996 00000 10185 20037 40188 60002 70500 333 10210 58009
AAXX 31124 41678 02997 00000 10190 20072 40181 60002 333 10210 59001 60007
AAXX 31124 41696 02997 03102 10080 21176 38015 48525 60002 333 10090 59012 60007
AAXX 31124 41697 02997 00000 10239 20094 30006 40161 60002 333 10255 59012 60007
AAXX 31124 41700 11996 03102 10190 20059 30041 40170 60002 70500 333 10205 58000
AAXX 31124 41725 02996 00504 10225 21011 30082 40161 60002 333 10230 59006 60007
AAXX 31124 41746 02996 03102 10215 20083 30113 40168 60002 333 10220 59006 60007
AAXX 31124 41759 11996 03614 10235 21058 30170 40176 60002 70500 333 10245 59003
AAXX 31124 41785 22997 00502 10225 20058 30147 40160 60002 333 10230 59007 60007
BBXX 44139 31121 99442 70571 46/// /1301 10027 40318 52014 22200 00044 10905 70026 333 91202
AAXX 31121 01441 16/// /0201 11118 21133 39065 40097 57011 60001 333 91102
AAXX 31124 60621 36/// /0412 10172 21034
AAXX 31124 60645 36/// /0000 10174 21005
AAXX 31124 60663 36/// /0213 10150 21065
AAXX 31124 60612 36/// /0521 10155 21059
AAXX 31121 89064 11150 61102 10028 29083 49723 52044 60034 71125 8154/ 333 20003
AAXX 31124 60619 36/// /0414 10132 21011
AAXX 31124 60692 36/// /0520 10226 21050
AAXX 31124 89002 42999 10914 11029 21062 39842 49896 52013 81030 333 11020 21036
BBXX 61002 31124 99421 10047 46/// ///24 10142 2//// 40224 57006 22200 00133 10706 70030 555 1/030
AAXX 31124 60667 36/// /0000 10139 21052
BBXX DHEB 31123 99533 11727 41/97 83615 11030 21098 40105 52021 70000 8//// 22264 2//// 3//// 4//// 5//// 81050
BBXX LAGB5 31124 99310 11712 41696 82429 10210 20210 40105 58005 70222 886// 22223 ///// 20804 325// 41103 80210
BBXX WDB9950 31123 99512 11636 41/// /3610 11010 21010 40210 54/// 701// 8//// 22264 00040 2//02 3//// 4//// 5//// 6//// 81010 ICE /////
BBXX 46035 31121 99571 71778 46/// /2509 1//// 40048 58009 91150 22200 10704 20703 300// 41101 70018 333 91210 555 11092 22098 31144 42610 61149 255091 245073 226066 208036 207027 219024 82610 91150
BBXX A8EY7 31123 99423 71788 41/98 71012 10065 21021 40220 58010 703// 8//// 22224 2//// 3//// 4//// 5//// 80030
BBXX C6UB2 31124 99547 71737 41/90 92337 11040 21050 40080 55020 77373 89/// 22263 00040 20804 32323 40708 50508 64//4 81040 ICE 00///
BBXX DFGX2 31123 99541 71625 41/97 83612 11035 21065 40130 51010 70222 8//// 22264 04040 2////
BBXX DFKP2 31124 99301 71699 41598 63521 10190 20142 40210 57010 75851 86500 22224 00220 20303 331// 40603 80160
BBXX DGBE 31123 99515 71516 41/96 80217 10040 20002 40000 58030 77077 8//// 22223 00060 2//// 80024
BBXX NWS0003 31124 99539 71665 43/// /3200 11029 21113 40156 5//// 7//// 8//// 222// 0//// 2//// 3//// 4//// 5//// 6//// 8//// ICE /////
BBXX OZDQ2 31123 99478 71725 41/97 /0313 10010 40208 53015 70022 8//// 22224 00040 20403
BBXX SHIP 31124 99337 71691 41798 63118 10140 20060 40235 54000 70222 84210 22223 00200 21005 332// 41407 5//// 6//// 80100 ICE /////
AAXX 31124 78922 46/// /1017 10267 20208 30139 40184 53024
AAXX 31124 61974 11450 72405 10282 20250 40101 60031 71582 85972 333 0//12 58019 81710 81915 84817 85360 94325
AAXX 31124 61986 11580 21206 10300 20257 40099 69991 70181 82200 333 0//14 58011 82820 94322
AAXX 31124 61988 12480 21011 10291 20222 40108 60001 82800 333 59001 82818 91124
AAXX 31124 61989 12480 21212 10300 20228 40116 60001 82200 333 58001 82818
AAXX 31124 61990 11468 70607 10300 20234 40108 60001 71511 84802 333 58000 819// 82818 83075 94322
AAXX 31124 61995 11460 73503 10263 20214 39637 60001 71522 86306 333 58004 81915 86816 91113 94328
AAXX 31124 41254 36/// /3308 10113 20038 38087 48092 333 0E003 58014
AAXX 31121 48900 32497 60405 10284 20212 30116 40126 52018 868// 333 10314 58004 82894 85696
AAXX 31121 48917 32598 70504 10290 20212 30118 40124 52005 8321/ 222// 00281 2//00 333 00029 10314 59010 7000 0 83895 87499
AAXX 31121 48914 12498 70704 10276 20217 30123 40125 52019 69924 878// 333 00028 10304 58001 70002 83894 8769 6
AAXX 31121 48918 02498 70507 10254 20224 30121 40132 52018 69914 82208 222// 00257 2//03 333 00026 10270 5900 1 69912 70001 81894 87299 91117 91509
AAXX 31121 48916 32598 70503 10274 20234 30079 40126 53011 878// 333 00/// 10293 58000 70000 82895 87696
AAXX 31121 48919 32498 70508 10262 20243 30107 40129 53017 82908 22200 02263 2//04 333 10269 58002 70000 8189 4 82995 87499
AAXX 31124 91753 04985 /0000 10245 20233 30049 40081 58009 60001 700// 333 60007 90710 91102 555 60005
AAXX 31124 91754 06/// /0202 10252 20229 30042 40083 58007 60001 333 10316 55104 2//// 59004 60007 555 60005
AAXX 31124 71015 16/// ///// 11011 60001 333 10052 21047 70000
AAXX 31124 71017 46/// /2710 11350 21387 30147 40163 6///1 333 11325 21354 7////
AAXX 31124 71018 16/// ///04 11361 21398 30033 40126 51006 60001 333 11287 21379 70000
AAXX 31124 71020 46/// /0000 11270 21301 39835 40104 51018 6///1 333 11244 21292 4/011 7////
AAXX 31124 71021 46/// /0000 11283 21315 39742 40113 51019 6///1 333 11234 21292 4/006 7////
AAXX 31124 71243 16/// /2613 10010 21093 39023 40106 51049 60001 333 10086 21006 70000
AAXX 31124 71246 17/// /2401 11087 21096 39405 40076 51030 69961 7//4/ 333 11036 21095 70036
AAXX 31124 71885 16/// ///// 11026 60001 333 10060 21041 70000
AAXX 31124 71752 17/// /2104 10059 20052 39855 40071 53016 60021 7//4/ 333 10079 20019 4/003 70059 555 10020
AAXX 31124 71758 16/// /2205 11082 21088 30216 40296 51017 60001 333 11038 21088 70000
AAXX 31124 71771 46/// /2404 10005 21026 30202 40223 51019 6///1 333 10044 21008 7////
AAXX 31124 71832 16/// /1603 11102 21116 39795 40130 53006 60001 333 11093 21109 4/048 70000
AAXX 31124 71850 11116 81810 11056 21058 39538 40043 58021 69901 71077 886// 333 11088 21095 48014 79999 90933
AAXX 31124 71501 16/// /3507 11264 21294 30108 40110 52017 60001 333 11226 21287 4/059 70000 555 10030
AAXX 31124 71511 16/// /2919 11047 21083 39351 49984 53028 60001 333 10013 21048 55/// 20000 70000
AAXX 31124 71522 46/// /0503 11168 21192 39702 40216 56011 6///1 333 11177 21271 70000
AAXX 31124 71878 11674 83313 11029 21070 39041 40123 53068 69901 77111 8457/ 333 10015 21122 48008 79999 90931
AAXX 31124 71807 16/// /3010 10002 21052 30265 40284 51027 60001 333 10016 20000 70000
AAXX 31124 71614 17/// /0704 11070 21085 30039 40106 56008 69951 7//4/ 333 11070 21103 4/003 70008 555 10010
AAXX 31124 71701 11564 80000 11066 21088 30170 40234 56008 69994 76887 885// 333 11048 21119 41997 70004 90936
AAXX 31124 71736 46/// ///// 11017 21088 6///1 333 10052 21031 4/001 7//// 555 10010
AAXX 31124 71742 46/// /2806 11065 21095 30076 40268 52024 6///1 333 11016 21067 7////
AAXX 31124 71744 16/// /0803 11083 21107 30212 40255 56010 60001 333 11047 21140 4/001 70000
AAXX 31124 71920 16/// /1117 10065 20054 30208 40214 56019 60001 333 10058 20018 70000
AAXX 31124 71402 46/// /2914 11055 21116 30137 40255 53022 6///1 333 11015 21055 7////
AAXX 31124 71407 16/// /2707 11366 21408 30089 40111 53011 60001 333 11280 21378 70000
AAXX 31124 71434 16/// /1709 11141 21158 30016 40084 58014 60001 333 11136 4/009 70000
AAXX 31124 71442 16/// /1811 11041 21053 39669 49983 56020 60001 333 11046 21061 70000
AAXX 31124 71446 16/// /2815 11032 21065 39061 40033 53040 60001 333 10042 21032 70011
AAXX 31124 71449 16/// /1604 11033 21041 39629 40036 55020 60001 333 11046 21125 70000
AAXX 31124 71137 16/// /2912 11021 21054 39104 40043 53030 60001 333 10032 21026 70000
AAXX 31124 71148 16/// /1913 11015 21022 39418 49996 55007 60001 333 11050 21064 4/015 70000 555 10060
AAXX 31124 71107 16/// /1709 10013 21043 30113 40228 50014 60001 333 10057 20004 70000
AAXX 31124 71110 16/// /2807 11007 21038 30220 40281 53026 60001 333 10001 21021 4/001 70006 555 10010
AAXX 31124 71139 16/// /3011 11033 21102 38598 40047 53043 60001 333 10029 21035 70000
AAXX 31124 71141 16/// /3507 11362 21400 30120 40148 51008 60001 333 11354 21372 4/004 7////
AAXX 31124 71150 46/// /2304 11042 21046 39293 49972 53001 6///1 333 11046 21074 7////
AAXX 31124 71151 16/// /1811 11056 21061 39528 40036 58022 60001 333 11088 21095 4/004 55/// 20000 70000
AAXX 31124 71155 16/// ///// 11045 21072 60001 333 11019 21086 4/001 70000
AAXX 31124 71156 17/// /2910 11036 21174 39012 40119 51052 69931 7//4/ 333 11056 21102 4/017 70003
AAXX 31124 71158 16/// /1509 11055 21065 39700 49976 55017 60001 333 11060 21072 70000
AAXX 31124 71159 16/// /2603 11034 21076 30199 40273 51021 60001 333 11006 21035 70000
AAXX 31124 71160 16/// /0403 11191 21225 39876 40097 53023 60001 333 11185 21202 4/042 70000
AAXX 31124 71162 46/// /3508 11159 21188 39875 40090 51024 6///1 333 11141 21167 7////
AAXX 31124 71166 46/// /1304 11216 21236 39466 40099 51022 6///1 333 11106 21216 7////
AAXX 31124 71451 16/// /0303 11085 21103 39567 49993 51014 60001 333 11005 21093 4/023 70000
AAXX 31124 71452 46/// /3007 11043 21069 39302 40010 53028 6///1 333 10012 21043 4/007 7////
AAXX 31124 71453 16/// /2810 11011 21069 39157 40065 53055 60001 333 10091 21013 55/// 20000 70000
AAXX 31124 71455 46/// /2914 11043 21078 39230 40022 53038 6///1 333 10035 21044 7////
AAXX 31124 71456 16/// /2914 11038 21050 39363 49955 53021 60001 333 11003 21049 70000
AAXX 31124 71465 46/// /2709 10041 20032 39861 40076 53032 6///1 333 10072 20041 7////
AAXX 31124 71470 16/// /1204 11275 21304 39465 40118 51013 60001 333 11243 21275 70000
AAXX 31124 71476 16/// /1516 30204 51020 60001 333 7////
AAXX 31124 71478 16/// /1405 10036 21035 30104 40243 51018 60001 333 10071 20012 7////
AAXX 31124 71479 46/// /1010 10026 20002 30123 40246 5/019 6///1 333 10078 20021 7////
AAXX 31124 71480 16/// /0000 11354 21391 39992 40121 52018 60001 333 11229 21355 4/028 70003
AAXX 31124 71482 46/// /1803 10003 30214 40253 51028 6///1 333 10044 20000 7////
AAXX 31124 71484 16/// /1604 10014 21077 30201 40220 51023 60001 333 10046 20013 7////
AAXX 31124 71487 16/// /2709 11033 21055 39161 40022 53030 60001 333 10033 21038 70000
AAXX 31124 71492 46/// ///06 11245 21281 39372 40090 51022 6///1 333 11215 21256 4/012 7////
AAXX 31124 71250 16/// /2908 11015 21078 30127 40266 51028 60001 333 10008 21024 70000
AAXX 31124 71288 16/// /0204 11367 21405 30135 40162 51008 60001 333 11358 21371 4/001 70003
AAXX 31124 71295 16/// /1104 11084 21094 39604 40055 58017 60001 333 11082 21092 4/025 55/// 20000 70000
AAXX 31124 71299 46/// /1504 11124 21141 39854 40138 53004 6///1 333 11122 21129 4/031 7////
AAXX 31124 71553 16/// /2310 11048 21053 60001 333 11031 21055 70000
AAXX 31124 71564 16/// /1712 11009 21026 39624 49991 58014 60001 333 11039 21056 70010
AAXX 31124 71571 17/// /2612 11081 21133 38896 40107 51047 69971 7//4/ 333 11055 21094 70013
AAXX 31124 71577 46/// /2015 11035 21047 6///1 333 11056 21070 7////
AAXX 31124 71579 16/// /2107 11034 21053 39716 40000 56010 60001 333 11046 21072 70000
AAXX 31124 71581 16/// /0901 11088 21098 39608 40102 53009 60001 333 11106 4/020 70033 555 10020
AAXX 31124 71585 47/// /3009 11097 21106 39593 40058 51039 6///1 7//4/ 333 21098 4/018 7//// 555 10030
AAXX 31124 71599 16/// /0903 11002 21031 30034 40241 56011 60001 333 10009 21026 4/003 70000 555 10010
AAXX 31124 71300 17/// /0603 11050 21057 39976 40101 55003 60011 7//4/ 333 11079 21107 4/010 70016 555 10010
AAXX 31124 71309 17/// /1001 11174 21195 30131 40143 56008 69981 7//4/ 333 11191 21254 4/036 70013
AAXX 31124 71311 16/// /0302 11034 21073 30221 40246 57013 60001 333 11031 21112 4/001 70000
AAXX 31124 71317 16/// /0803 11031 21066 30212 40260 58006 60001 333 11025 21112 70000
AAXX 31124 71322 46/// /0712 11118 21128 30018 40031 53005 6///1 333 11110 21119 4/016 7//// 555 10070
AAXX 31124 71837 16/// ///// 11003 60001 333 10061 21044 70000
AAXX 31124 71839 16/// ///// 11001 60001 333 10057 21032 70000
AAXX 31124 71849 16/// /1917 11038 21049 39708 40006 55004 60001 333 11050 21077 4/001 70000
AAXX 31124 71667 16/// /1604 11062 21072 39856 40105 57009 60001 333 11026 21066 4/013 70000
AAXX 31124 71669 16/// /3002 11025 21134 38474 40097 53058 60001 333 10014 21030 70005
AAXX 31124 71074 16/// ///17 11306 21336 30051 40132 51012 60001 333 11343 21355 4/009 70000
AAXX 31124 71075 16/// /3603 11139 21155 39419 40032 52019 60001 333 11075 21139 4/063 70000
AAXX 31124 71087 46/// /2802 11192 21214 39905 40117 51028 6///1 333 11170 21198 7////
AAXX 31124 71355 16/// /0000 11300 21331 39947 40036 58004 60001 333 11304 21353 4/012 70000
AAXX 31124 71356 16/// /3519 11237 21264 30014 40082 51013 60001 333 11154 21237 4/006 70000
AAXX 31124 71361 16/// /3004 11162 21183 39892 40107 51030 60001 333 11162 21207 70000
AAXX 31124 71362 17/// /2603 11195 21214 39822 40087 52027 69991 7//4/ 333 11166 21229 70014
AAXX 31124 71364 16/// /2602 11272 21301 39979 40119 52020 60001 333 11205 21272 4/030 70000
AAXX 31124 71365 16/// /0000 11287 21314 39898 40124 51026 60001 333 11252 21290 4/029 70000
AAXX 31124 71372 17/// /0103 11065 21072 60011 7//4/ 333 11076 21097 70010
AAXX 31124 71381 47/// /2202 11184 21208 6///1 7//4/ 333 21285 7////
AAXX 31124 71386 16/// /1402 11150 21176 30017 40233 57011 60001 333 11121 21204 70000
AAXX 31124 71387 16/// /0000 11180 21201 39790 40200 56014 60001 333 11160 21295 70000
AAXX 31124 71392 17/// /0714 11065 21082 60021 7//4/ 333 11070 21109 70022
AAXX 31124 71393 16/// ///// 11045 21070 38834 40111 51071 60001 333 10061 21051 70000
AAXX 31124 71627 11266 80310 11056 21080 30076 40122 56012 69901 70266 8467/ 333 11078 21097 47004 70008 90942
AAXX 31124 71631 16/// /1501 10013 20010 39567 40065 53020 60001 333 10012 20005 70146
AAXX 31124 71432 17/// /2104 10057 20045 39973 40069 53015 69991 7//4/ 333 10042 20034 70035
AAXX 31124 71444 16/// /2102 11031 21033 39220 49975 53001 60001 333 11049 21079 4/015 70000
AAXX 31124 71447 16/// /2005 11012 21019 39445 49987 53009 60001 333 11023 21043 70000
AAXX 31124 71472 16/// /1207 10011 21048 60001 333 10043 20003 70002
BBXX 44150 31121 99425 70640 46/// /1508 10103 40230 57011 22200 00080 10803 70014 333 91209
AAXX 31124 71956 16/// /0206 11036 21036 39877 40112 53020 60001 333 11045 21055 4/005 70000
AAXX 31124 71959 16/// ///// 11038 21069 60001 333 11021 21043 4/002 70007 555 10020
AAXX 31124 71977 46/// /0000 11338 21338 39359 40110 53016 6///1 333 11225 21342 4/034 7////
AAXX 31124 71978 46/// /2206 11340 21375 39779 40111 53020 6///1 333 11237 4/008 7////
AAXX 31124 71989 16/// /3206 11322 21355 30219 40236 53012 60001 333 11292 21333 4/049 70000
AAXX 31121 14024 12899 42203 10006 21108 39062 48455 57013 60001 82035 333 95000 95182 444 56046
BBXX SHJC 31121 99136 10559 43/98 10114 10234 40158 55003 22274 00260 2//// 4////
AAXX 31124 71432 17/// /2104 10057 20045 39973 40069 53015 69991 7//4/ 333 10042 20034 70035
AAXX 31124 71444 16/// /2102 11031 21033 39220 49975 53001 60001 333 11049 21079 4/015 70000
AAXX 31124 71447 16/// /2005 11012 21019 39445 49987 53009 60001 333 11023 21043 70000
AAXX 31124 71472 16/// /1207 10011 21048 60001 333 10043 20003 70002
AAXX 31124 71137 16/// /2912 11021 21054 39104 40043 53030 60001 333 10032 21026 70000
AAXX 31124 71148 16/// /1913 11015 21022 39418 49996 55007 60001 333 11050 21064 4/015 70000 555 10060
AAXX 31124 71832 16/// /1603 11102 21116 39795 40130 53006 60001 333 11093 21109 4/048 70000
AAXX 31124 71850 11116 81810 11056 21058 39538 40043 58021 69901 71077 886// 333 11088 21095 48014 79999 90933
AAXX 31124 71627 11266 80310 11056 21080 30076 40122 56012 69901 70266 8467/ 333 11078 21097 47004 70008 90942
AAXX 31124 71631 16/// /1501 10013 20010 39567 40065 53020 60001 333 10012 20005 70146
AAXX 31124 71878 11674 83313 11029 21070 39041 40123 53068 69901 77111 8457/ 333 10015 21122 48008 79999 90931
AAXX 31124 71807 16/// /3010 10002 21052 30265 40284 51027 60001 333 10016 20000 70000
BBXX 44150 31121 99425 70640 46/// /1508 10103 40230 57011 22200 00080 10803 70014 333 91209
BBXX 41053 31121 99185 70661 46/// /1205 10256 40189 53016 91200 22200 00269 10703 70017 333 91207
BBXX 41052 31121 99183 70648 46/// /0809 10268 40184 53019 91200 22200 00268 333 91212
BBXX 41052 31121 99183 70648 46/// /0908 10267 40183 91150 333 91210
BBXX 41052 31121 99183 70648 46/// /0909 10267 40182 91140 333 91212
BBXX 41053 31121 99185 70661 46/// /1105 10256 40188 91150 333 91207
BBXX 41053 31121 99185 70661 46/// /1105 10252 40187 91140 333 91206
AAXX 31121 48840 32498 80503 10152 20134 30211 40217 52007 888// 333 00016 10170 58011 70000 84894 88696 555 20152
AAXX 31121 48845 02498 83601 10170 20159 30210 40217 52006 60034 888// 333 01017 10175 58004 60032 70025 8589 4 88697
AAXX 31124 04211 47/25 /0507 11193 21220 39828 49997 52002 77777
AAXX 31124 04220 07/02 92919 11119 21133 39905 49958 57002 69951 77387 333 55300 20004 69957 89/04 91129
AAXX 31124 04221 45684 50918 11172 21245 39930 49970 52001 333 85/45
AAXX 31124 04231 11540 70504 11215 21247 39925 40003 54000 69961 77177 8157/ 333 81630 87356
AAXX 31124 04234 474// 83120 11136 21167 39985 49995 52006 771// 333 88/10 91133
AAXX 31124 04241 47518 73313 11108 21160 39941 49982 52007 77177 333 81/20 83/29 87/37 91125
AAXX 31124 04250 07684 80615 11126 21185 39874 49983 52012 69911 70080 333 55300 20000 6///7 88/48 91140 91236
AAXX 31124 04254 45782 70614 11133 21199 39870 49988 52009 333 87/56 91135
AAXX 31124 04260 47/50 93337 11112 21206 39852 49897 52044 78587 333 89/02 91155
AAXX 31124 04270 47430 82210 11046 21069 39696 49735 54000 77177 333 81/14 87/17 88/20
AAXX 31124 04272 07/24 0//// 11090 21108 39668 49740 57003 69901 78587 333 69907
AAXX 31124 04312 46/// /2107 11294 21342 39967 40009 52003
AAXX 31124 04320 47/10 /3408 11225 21263 39947 49963 57023 77177 333 55300
AAXX 31124 04339 47/08 ///// 11157 21170 39638 49730 57037 77277 333 55300 20000
AAXX 31124 04360 06/// /1703 11045 21110 39575 49643 57011 6///1 333 55300 20000 6///7
AAXX 31124 04361 468// 61404 11065 21087 39599 49651 57008 333 86/57
AAXX 31124 04390 07/07 02727 11043 21107 39585 49676 57026 60071 77187 333 60067 91037 91143
AAXX 31121 37279 42999 40901 10159 21044 30010 40149 57013 80001
AAXX 31121 37308 42999 00000 10094 21038 39528 40172 57023 555 11012
AAXX 31121 37531 42999 20000 10070 21036 39487 40212 53013 80050
AAXX 31121 37553 42999 01001 10110 21041 39534 40171 57009 555 10011
AAXX 31121 37651 16/// ///00 10105 21033 3//// 4//// 5//// 60001
AAXX 31121 37492 NIL
AAXX 31121 40706 12660 83302 10052 21045 38656 40226 57015 60001 8141/ 333 81640 88459
AAXX 31121 40718 12565 73606 10116 20096 30203 40174 56007 60001 84570 222// 00124 20103 84630 87360
AAXX 31121 40732 12670 41202 10126 20077 30188 40164 55021 60001 84300 333 82935 83840
AAXX 31121 40745 11958 01102 10086 21042 39063 40243 56018 60001 70500 333
AAXX 31121 40754 11657 61902 10082 21039 38861 40232 56016 60001 70521 82130 333 82840 86360
AAXX 31121 40766 11658 81106 10054 20029 38732 40253 56014 69941 76162 8432/ 333 82935 83640 88558
AAXX 31121 40800 11950 10000 10086 21048 38486 40239 56018 60001 70521 81030 333 81360
AAXX 31121 40811 12660 41101 10210 20013 30173 40200 57017 60001 82131 333 82840 83360
AAXX 31121 40841 12962 10602 10126 21108 38282 40237 57021 60001 80002 333 81070
AAXX 31121 40848 12962 00000 10128 21069 38559 40286 58016 60001 333
AAXX 31121 40856 12970 00602 10134 21123 38670 40232 55007 60001 333
AAXX 31121 40875 12962 01905 10243 21011 30185 40196 55019 60001 333
AAXX 31123 91553 31598 20000 10250 20248 40088 51013 70222 82900 333 10315 569// 58010 82820 81925
AAXX 31123 91553 31598 20000 10250 20248 40088 51013 70222 82900 333 10315 569// 58010 82820 81925
AAXX 31121 50136 NIL
AAXX 31121 50745 32965 03601 11204 21232 30132 40338 52012
AAXX 31121 50774 NIL
AAXX 31121 50788 NIL
AAXX 31121 51133 NIL
AAXX 31121 51431 NIL
AAXX 31121 51747 NIL
AAXX 31121 52203 NIL
AAXX 31121 52418 NIL
AAXX 31121 52681 NIL
AAXX 31121 53564 NIL
AAXX 31121 53614 NIL
AAXX 31121 53646 NIL
AAXX 31121 53798 NIL
AAXX 31121 53845 NIL
AAXX 31121 53959 NIL
AAXX 31121 54094 31958 01601 11192 21231 39966 40300 52005 70400
AAXX 31121 54102 NIL
AAXX 31121 54161 NIL
AAXX 31121 54292 NIL
AAXX 31121 54374 NIL
AAXX 31121 54423 NIL
AAXX 31121 54618 NIL
AAXX 31121 54843 NIL
AAXX 31121 54909 NIL
AAXX 31121 56029 32980 00902 11046 21204 36460 52004 333 05200
AAXX 31121 57127 NIL
AAXX 31121 57131 NIL
AAXX 31124 47407 12/70 71003 11091 21106 30045 40229 51006 60002 875// 333 10000
AAXX 31124 47409 11/70 23005 11022 21053 30152 40208 50005 60032 70282 82230 333 10002
AAXX 31124 47418 12/70 23410 11015 21070 30161 40212 51011 69902 82200 333 10029
AAXX 31124 47421 17/70 /2404 10012 21050 30167 40211 58002 69902 70076 333 10025
AAXX 31124 47430 12/75 30208 11015 21052 30161 40217 58002 69902 81230 333 10044
AAXX 31124 47570 17/61 /0402 11004 21014 39980 40249 58006 69902 70076 333 10038
AAXX 31124 47575 11/65 12106 11007 21040 30221 40226 58002 69902 70281 81100 333 10042
AAXX 31124 47584 12/70 11103 11036 21062 30039 40238 50001 69902 81200 333 10041
AAXX 31124 47604 11/65 72006 10021 21003 30239 40248 56005 69902 70282 878// 333 10057
AAXX 31124 47605 11/70 21203 10020 21027 30200 40243 56009 69902 70281 81202 333 10071
AAXX 31124 47610 12980 03002 11024 21054 39733 40259 56005 60002 333 10042
AAXX 31124 47624 12981 03105 10016 21077 30099 40243 53001 60002 333 10088
AAXX 31124 47629 12980 03202 11001 21051 30201 40241 50003 60002 333 10094
AAXX 31124 47636 12975 23604 10037 21038 30170 40241 50000 60002 80001 333 10095
AAXX 31124 47651 12980 42605 10037 21018 30218 40241 58007 60002 80002 333 10094
AAXX 31124 47655 15/70 /1006 10095 21001 30165 40222 50000 60002 333 10107
AAXX 31124 47675 15/70 /1008 10075 20000 30140 40233 50001 60002 333 10098
AAXX 31124 47741 12/80 72603 10048 20011 30197 40225 58007 60002 86801 333 10101
AAXX 31124 47746 12970 71208 10013 21008 30216 40236 57007 60002 80001 333 10086
AAXX 31124 47750 11/80 10000 10004 21007 30217 40246 56004 69902 70281 81600 333 10090
AAXX 31124 47765 12/75 43608 10048 21008 30177 40244 58002 60002 81131 333 10101
AAXX 31124 47772 12975 70703 10056 21027 30145 40248 56002 60002 80001 333 10095
AAXX 31124 47800 15/83 /1503 10071 20010 30227 40232 58001 60002 333 10114
AAXX 31124 47815 12/75 71603 10057 20003 30227 40244 58004 60002 81101 333 10112
AAXX 31124 47817 11/70 70000 10089 20039 30195 40239 58007 69902 72582 872// 333 10120
AAXX 31124 47830 12/70 72906 10052 20026 30224 40243 50000 60002 83831 333 10124
AAXX 31124 47887 12975 70806 10060 21047 30200 40243 58004 60002 80002 333 10112
AAXX 31124 47891 12970 72203 10042 21040 30233 40251 52004 60002 80001 333 10095
AAXX 31124 47895 12/75 62601 10047 21022 30243 40251 53001 60002 81101 333 10102
AAXX 31124 47927 11/58 80409 10169 20146 30169 40219 52003 60062 76162 8582/ 333 10178
AAXX 31124 41287 36/// /0407 10279 20074 30128 40195 333 0E018 58007
AAXX 31124 47401 12/70 71904 11022 21048 30191 40206 50000 60002 8127/ 333 10006
AAXX 31124 47412 11/56 81203 11012 21040 30181 40214 50002 69902 70282 882// 333 10030
AAXX 31124 47420 17/68 /3215 10002 21028 30155 40189 51016 69902 77176 333 10022
AAXX 31124 47426 15/70 /0406 11028 21077 30161 40210 51007 60002 333 10029
AAXX 31124 47582 12/60 40704 11011 21041 30209 40237 58003 69902 84400 333 10045
AAXX 31124 47590 12/65 30302 11004 21031 30185 40241 53001 60002 83200 333 10068
AAXX 31124 47600 15/70 /2006 11002 21018 30233 40242 58012 60002 333 10073
AAXX 31124 47648 12/70 12302 10057 21068 30206 40241 50002 60002 81100 333 10085
AAXX 31124 47662 12/80 23104 10054 21074 30195 40241 50004 60002 81132 333 10100
AAXX 31124 47678 17/70 /1102 10061 20052 30036 40229 58001 60032 70060 333 10118
AAXX 31124 47740 17/73 /3103 10039 20024 30183 40218 58012 69902 78085 333 10084
AAXX 31124 47778 15/70 /0403 10067 21005 30159 40245 53005 60002 333 10097
AAXX 31124 47807 12/70 72103 10087 20021 30220 40239 58001 60002 872// 333 10118
AAXX 31124 47827 12/80 73506 10097 20030 30198 40237 58003 60002 8653/ 333 10148
AAXX 31124 47843 15/80 /2003 10075 20046 30209 40242 58007 60002 333 10121
AAXX 31124 47893 12970 72602 10058 21018 30242 40248 50006 60002 81031 333 10126
AAXX 31124 47909 11/65 71803 10131 20101 30210 40220 50001 69902 72162 8257/ 333 10181
AAXX 31124 47918 11/60 80408 10174 20159 30195 40213 50008 60062 76062 888// 333 10183
AAXX 31124 47936 11/70 80404 10159 20111 30164 40224 51007 69902 72162 8387/ 333 10180
AAXX 31124 47945 11/65 70906 10191 20107 30184 40208 50003 69902 70281 878// 333 10214
AAXX 31124 47971 12/70 73304 10164 20065 30201 40211 51008 69902 872// 333 10195
AAXX 31124 47991 16/// /3309 10243 20212 30138 40148 52004 69902 333 10271
AAXX 31124 88963 01330 82320 10014 21008 39670 49699 52032 60024 76872 887// 333 10016 20004 41001 56799 69921 88708 90020 90088 90320 90620 90921 92415 92800 94075 95015 96115
AAXX 31124 88968 01335 83218 10014 20003 39754 49769 51004 60014 77072 8472/ 333 10014 20004 56889 69951 84708 87530 90010 90088 90265 90291 90910 92425 92732 92801 93001 93100 95065 96010
AAXX 31124 89034 11230 80518 11039 21061 39505 49819 52003 69974 71022 886// 333 11039 21069 56199 88705 92425 92800
AAXX 31124 89053 AUS
AAXX 31124 89055 01102 81824 11018 21026 39466 49705 52025 60164 74474 886// 333 11018 21026 56499 60021 88702 90068 90090 92730 92813 92943 95190
AAXX 31124 89066 32570 80930 10022 21045 39750 49758 51016 8567/ 333 10030 20011 56119 85730 88360 92417 94070
AAXX 31121 52866 32975 00000 11063 21180 37731 52018 333 05153
AAXX 31124 40100 12560 52308 10179 20108 30112 40143 56013 60001 85200 912// 333 85826 92437
AAXX 31124 40101 12557 72103 10111 20062 39071 48478 56017 60001 87200 912// 333 87826
AAXX 31124 40103 31560 70806 10154 20113 40147 57016 70162 87800 333 83824 85640 555 10181
AAXX 31124 40102 NIL
AAXX 31121 50468 32970 23402 11279 21302 30111 40350 52004 80002
AAXX 31121 54823 31950 00901 10004 21023 30081 40298 52009 71000
AAXX 31121 57083 31920 00901 10004 21030 30158 40301 52018 71000
AAXX 31121 53614 31940 40201 11038 21085 39004 40370 52012 71000 80002 333 00000
AAXX 31121 57131 31956 00202 10014 21008 39808 40324 52016 71000
AAXX 31121 53564 32972 00000 11103 21137 39286 40388 52008 333 00252
AAXX 31121 53959 31915 01601 11017 21036 39857 40321 52008 71000
AAXX 31121 54102 11980 72902 11195 21218 39110 40428 52018 69911 77170 85032
AAXX 31121 54161 32960 03602 11142 21209 39981 40299 52009
AAXX 31121 54292 32965 20000 11148 21199 39932 40281 52004 80002
AAXX 31121 57127 32960 70901 10050 20022 39676 40302 52013 8703/
AAXX 31121 40716 11658 71202 10046 21022 38935 40241 58012 60001 70522 81436 333 81640 87269
AAXX 31121 40719 11540 63304 10124 20084 30182 40172 55006 60001 70521 81555 333 81625 85266
AAXX 31121 40721 12960 12803 10160 21015 39649 40189 53001 60001 80002 333 81070
AAXX 31121 40858 12962 13502 10200 20125 30193 40204 56017 60001 80002 333 81069
AAXX 31121 40872 12960 00000 10242 20080 30191 40196 57022 60001 222// 00228 20000 333
AAXX 31121 40877 12960 00904 10200 21039 39631 40179 57031 60001 333
AAXX 31121 40898 12960 02003 10246 20011 30170 40179 56013 60001 222// 00234 10400 333
AAXX 31121 52418 32980 02504 11045 21152 39016 40434 52021 333 00303
AAXX 31121 52681 32980 00901 11039 21158 38716 40374 52012 333 05200
BBXX FLAO 3112/ 99764 70847 46/// ///// 11400 40081 52005
AAXX 31121 08501 32/// /2206 10189 20138 30280 40316 54000 333 91011 91112
AAXX 31121 08505 32368 72206 10178 20158 30297 40347 50008 86832 333 82708 83812 85630
AAXX 31121 08509 32560 72605 10182 20137 30274 40338 55001 84871 333 82820 83640 86357 91013 91117
AAXX 31121 08512 NIL
AAXX 31121 08515 NIL
AAXX 31121 08533 32/// /0207 10145 20083 30308 40337 57004 333 91011 91111
AAXX 31121 08541 NIL
AAXX 31121 08545 31456 71102 10105 20049 30262 40347 57006 71022 86802 222// 00145 333 82811 85625 91105
AAXX 31121 08548 32/// /9901 10110 20055 30136 40346 57004
AAXX 31121 08554 32970 01302 10166 20081 30322 40332 57008
AAXX 31121 08558 32/// /3502 10128 20058 30032 40330 57005
AAXX 31121 08560 32/// /3102 10114 20045 39570 40333 57004
AAXX 31121 08567 32/// /9901 10094 20033 39666 40340 57010
AAXX 31121 08570 NIL
AAXX 31121 08575 32/// /1602 10071 20016 39504 40331 57011
AAXX 31121 08579 NIL
AAXX 31121 06431 16/// /2404 10106 20103 30096 40108 54000 69911 333 91107 91205
AAXX 31121 50788 32970 00000 11216 21238 30203 40298 54000
AAXX 31121 54374 32662 50000 11132 21167 39790 40295 52003 85500
AAXX 31121 57494 32962 70000 10031 20022 30250 40281 52004 8703/
AAXX 31121 54218 32965 02902 11100 21171 39477 40339 52013
AAXX 31121 54337 32960 00703 11071 21163 30213 40302 52010
AAXX 31121 54471 32960 00702 11081 21160 30292 40298 52006
AAXX 31121 54497 31950 00000 11084 21102 30255 40272 52003 71000
AAXX 31121 56187 11920 80201 10072 20047 39622 40287 52013 69901 76060 8807/ 333 05300
AAXX 31121 57461 31930 00401 10073 20041 30121 40289 52014 71000
AAXX 31121 57687 31930 70000 10064 20044 30200 40287 52006 71000 87040
AAXX 31121 58040 31958 80000 10033 21018 30274 40288 52006 71000 8802/
AAXX 31121 58251 31930 00702 10032 21010 30280 40285 52006 70500
AAXX 31121 58606 31956 61401 10074 20031 30226 40286 52008 71000 86040
AAXX 31121 50136 32970 00000 11323 21362 39774 40397 52003
AAXX 31121 50774 31959 00000 11250 21270 39981 40327 52007 70400
AAXX 31121 53646 32970 03401 11040 21129 38937 40358 52005 333 00051
AAXX 31121 53845 32962 00000 11020 21079 39168 40347 52015 333 00051
AAXX 31121 54843 31957 83401 10017 21007 30263 40292 52006 71000 8807/
AAXX 31121 54909 32964 83402 10021 21005 30226 40292 52014 8807/
AAXX 31121 58102 31956 03401 10016 20003 30240 40290 52012 71000
AAXX 31121 58221 31956 00000 10027 21001 30253 40283 52007 71000
AAXX 31121 58238 31950 03601 10032 21008 30236 40282 52005 71000
AAXX 31121 58847 32663 83402 10124 20073 30162 40266 52007 885//
AAXX 31121 59134 32763 70702 10139 20079 30079 40249 52007 875//
AAXX 31121 59431 32962 70201 10130 20072 30097 40246 52005 8703/
AAXX 31121 59758 32465 80703 10172 20145 30143 40220 52013 888//
AAXX 31121 51243 32865 70000 11127 21153 39895 40505 52008 83502 333 01102
AAXX 31121 51463 11765 70401 11066 21080 39316 40493 52011 69961 72277 86502 333 01205
AAXX 31121 51573 32970 22501 11052 21156 30383 40430 52020 80002 333 00402
AAXX 31121 52983 31956 02502 11059 21098 38163 52015 70500 333 05201
AAXX 31121 54401 32970 0////
AAXX 31121 56778 32970 02202 10126 20000 38126 52010 333 00001
AAXX 31121 58752 32660 83601 10098 20040 30225 40272 52002 885//
AAXX 31121 59117 32665 83603 10141 20076 30143 40251 52013 885//
AAXX 31121 59287 32664 73603 10158 20090 30144 40231 52010 875//
AAXX 31121 59316 32962 20702 10156 20112 30234 40239 52014 82040
AAXX 31124 96315 13470 70105 10283 20252 40115 69942 82848 333 10323 82815 85080
AAXX 31124 96323 NIL
AAXX 31121 51288 32980 10402 11156 21184 38470 52005 81030 333 00958
AAXX 31121 53463 32960 00000 11075 21133 39052 40371 52005 333 00151
AAXX 31121 53513 32970 00000 11097 21145 39074 40386 52004 333 00152
AAXX 31121 40703 12660 50000 10038 21002 38925 40228 57014 60001 82570 333 82640 84360
AAXX 31121 40712 11656 50702 10050 21034 38681 40221 56013 60001 70521 85300 333 81935 84640
AAXX 31121 40729 11658 80303 10030 21010 38359 40237 55007 69901 77022 8442/ 333 84635 88558
AAXX 31121 40736 12960 07002 10128 20070 30206 40180 55011 60001 81030 333 83360
AAXX 31121 40739 12965 32102 10056 21062 38722 40255 58013 60001 81030 333 81359
AAXX 31121 40743 12965 22603 10104 21066 39112 40252 56013 60001 80001 333 82070
AAXX 31121 40762 12965 12302 10090 21071 38583 40256 57011 60001 80001 333
AAXX 31121 40768 12660 60000 10084 21053 38266 40218 56014 60001 84370 333 81935 83640 84359
AAXX 31121 40769 11658 40000 10110 21024 38312 40207 56016 60001 70510 81170 333 81840 84360
AAXX 31121 40785 12660 63302 10080 21029 39131 40254 55010 60001 82506 333 82640 86270
AAXX 31121 40809 12970 12804 10122 21129 38536 40245 55003 60001 81032 333
AAXX 31121 40821 12665 31603 10134 21115 38821 40234 56022 60001 81502 333 81635
AAXX 31121 40831 12960 51106 10230 20016 30185 40193 57029 60001 85070 333 85460
AAXX 31121 58457 31950 02002 10056 20017 30229 40284 52008 71000
AAXX 31121 59644 31556 53605 10148 20076 30215 40232 52013 70500 85800
AAXX 31121 57516 31930 03402 10092 20048 39954 40273 52014 71000 333 05300
AAXX 31121 57816 32661 70405 10071 20005 38841 40265 52010 875// 333 05204
AAXX 31121 58150 31950 00401 10028 21031 30290 40294 52007 70500
AAXX 31121 53588 32980 03202 11110 21189 37806 52005
AAXX 31121 53772 31912 50000 11021 21063 39360 40325 52009 71000 80002
AAXX 31121 54342 32962 00402 11098 21180 30232 40298 52008
AAXX 31121 54511 31956 03201 11022 21075 30251 40293 52012 71000
AAXX 31121 50953 32961 00202 11162 21198 30101 40296 52005
AAXX 31121 52533 32980 03202 11066 21174 38622 40424 52025 333 00100
AAXX 31121 52652 32980 03402 11059 21162 38623 40412 52028 333 00051
AAXX 31121 53915 32962 03201 11027 21067 38735 40347 52017 333 05101
AAXX 31121 56080 32980 00901 11038 21214 37168 52024 333 05202
AAXX 31121 56096 32968 00901 10054 21020 39005 40284 52021 333 05300
AAXX 31121 57265 31957 00000 10048 20022 30163 40279 52013 71000
AAXX 31121 58362 32962 20402 10064 20013 30272 40280 52007 82030
AAXX 31121 52203 32980 52901 11075 21154 39476 40431 52017 80002 333 00303
AAXX 31121 53798 31958 70000 11022 21041 30206 40307 52013 71000 8703/
AAXX 31121 54423 32980 03203 11045 21164 39774 40323 52017
AAXX 31121 54618 32961 70000 11032 21055 30282 40301 52017 83032
BBXX 44067 31121 99384 70770 46/// /2401 10097 40110 53003 91200
BBXX 44032 31121 99437 70694 46/30 /1309 10088 40138 58027 91204 22200 00082 10603 70015 333 91210 555 11110 22119
BBXX 44033 31121 99441 70690 46/30 /1403 10081 40159 56022 91204 22200 00065 10602 70011 333 91204 555 11045 22053
AAXX 31121 28676 426// 31802 11118 21169 30212 40347 52023 82509 555 1/112
AAXX 31121 28766 42997 82003 11108 21171 30144 40345 52017 80001 555 1/113
AAXX 31121 28867 NIL
AAXX 31121 28879 429// 52205 11101 21156 30071 40375 52024 80001 555 1/113
AAXX 31121 28952 NIL
AAXX 31121 28966 429// 32005 11114 21169 30077 40378 52015 82031 555 1/115
AAXX 31121 29802 429// 62102 11110 21136 30212 40363 52025 85031 555 1/111
AAXX 31121 29807 429// 02502 11126 21161 30235 40361 52011 555 1/115
AAXX 31121 34691 42998 81603 10006 21044 30200 40187 53010 8802/ 555 1/100
AAXX 31121 35067 429// 61804 11144 21180 30114 40412 52019 80005 555 1/116
AAXX 31121 35078 41998 42307 11141 21173 30009 40416 52016 73633 80001 555 1/116
AAXX 31121 35085 429// 62304 11125 21170 39900 40408 52016 80001 555 1/114
AAXX 31121 35108 42597 81805 11063 21095 30170 40217 57010 885//
AAXX 31121 35188 419// 02002 11104 21137 39963 40423 52012 70130 555 1/114
AAXX 31121 35217 41998 61407 11058 21089 30185 40225 57011 70332 86040 555 1/107
AAXX 31121 35229 NIL
AAXX 31121 35302 42998 51804 11043 21074 30184 40204 57014 82075 555 1/104
AAXX 31121 35357 42997 02004 11127 21154 39975 40442 53013 555 1/116
AAXX 31121 35394 41598 62304 11098 21114 39732 40448 52014 70273 86700 555 1/111
AAXX 31121 35406 42997 21607 11030 21081 30205 40207 57012 82030 555 1/104
AAXX 31121 35416 NIL
AAXX 31121 35426 NIL
AAXX 31121 35497 429// 82302 11103 21131 39619 40465 53008 8801/ 555 1/111
AAXX 31121 35532 NIL
AAXX 31121 35671 42998 81303 11062 21098 39995 40444 54000 8807/ 555 1/107
AAXX 31121 35700 42598 81504 11006 21062 30219 40195 57007 885// 555 1/102
AAXX 31121 35746 42998 00705 11061 21080 30309 40379 57009 555 1/109
AAXX 31121 35796 41597 83601 11075 21093 30020 40478 53007 77772 83606 555 1/109
AAXX 31121 35849 42998 00000 11020 21078 30278 40366 57011 555 1/105
AAXX 31121 35925 42998 21608 11027 21058 30057 40271 57020 80002 333 91114
AAXX 31121 35953 42999 20903 11018 21067 30248 40381 57018 80002 555 1/102
AAXX 31121 35969 42999 00903 11038 21067 30222 40401 57022 555 1/105
AAXX 31121 36003 42998 02802 11116 21138 30224 40385 52021 555 1/114
AAXX 31121 36152 429// 22502 11114 21172 30209 40409 52011 80002 555 1/114
AAXX 31121 36177 415// 72603 11059 21108 30169 40425 52019 78582 87300 555 1/108
AAXX 31121 36208 429// 70901 11077 21120 39410 40432 52002 83031 555 1/110
AAXX 31121 36397 426// 72006 11068 21110 39846 40432 54000 87500 555 1/108
AAXX 31121 36428 415// 80702 11069 21082 39949 40471 53008 77177 8272/ 333 95090 555 1/107
AAXX 31121 36535 425// 72402 11121 21148 39804 40478 53004 87500 555 1/116
AAXX 31121 36639 419// 80000 11066 21090 39845 40478 53004 70272 8807/ 555 1/108
AAXX 31121 36821 415// 70502 11062 21070 39947 40460 57001 74642 87900
AAXX 31121 36859 429// 00201 11052 21101 39650 40467 54000 555 1/111
AAXX 31121 36864 42899 10503 11058 21092 39503 40438 57002 81030
AAXX 31121 36870 42597 70000 11040 21069 39375 40426 56002 83202 555 1/107
AAXX 31121 38001 42997 83603 10054 20030 30189 40160 53018 8807/ 555 10007
AAXX 31121 38062 42999 01003 11008 21065 30213 40380 57010 555 1/103
AAXX 31121 38069 42998 00202 11006 21051 30174 40371 57014
AAXX 31121 38196 NIL
AAXX 31121 38198 NIL
AAXX 31121 38222 42997 00000 11114 21149 39827 40378 57012 555 1/112
AAXX 31121 38232 42998 71307 10039 21043 30112 40211 57038 85082 555 1/002
AAXX 31121 38328 NIL
AAXX 31121 38334 NIL
AAXX 31121 38341 41596 80000 11086 21097 39579 40412 57007 71041 886// 555 1/107
AAXX 31121 38343 42998 01402 11081 21117 39521 40413 57007
AAXX 31121 38439 NIL
AAXX 31124 88878 46/// /2220 10130 20056 40067 52029
AAXX 31124 88883 46/// /2418 10118 20049 40078 52028
AAXX 31124 88897 46/// /2818 10118 20060 40043 52025
AAXX 31121 28676 426// 31802 11118 21169 30212 40347 52023 82509 555 1/112
AAXX 31121 28766 42997 82003 11108 21171 30144 40345 52017 80001 555 1/113
AAXX 31121 28867 NIL
AAXX 31121 28879 429// 52205 11101 21156 30071 40375 52024 80001 555 1/113
AAXX 31121 28952 NIL
AAXX 31121 28966 429// 32005 11114 21169 30077 40378 52015 82031 555 1/115
AAXX 31121 29802 429// 62102 11110 21136 30212 40363 52025 85031 555 1/111
AAXX 31121 29807 429// 02502 11126 21161 30235 40361 52011 555 1/115
AAXX 31121 34691 42998 81603 10006 21044 30200 40187 53010 8802/ 555 1/100
AAXX 31121 35067 429// 61804 11144 21180 30114 40412 52019 80005 555 1/116
AAXX 31121 35078 41998 42307 11141 21173 30009 40416 52016 73633 80001 555 1/116
AAXX 31121 35085 429// 62304 11125 21170 39900 40408 52016 80001 555 1/114
AAXX 31121 35108 42597 81805 11063 21095 30170 40217 57010 885//
AAXX 31121 35188 419// 02002 11104 21137 39963 40423 52012 70130 555 1/114
AAXX 31121 35217 41998 61407 11058 21089 30185 40225 57011 70332 86040 555 1/107
AAXX 31121 35229 NIL
AAXX 31121 35302 42998 51804 11043 21074 30184 40204 57014 82075 555 1/104
AAXX 31121 35357 42997 02004 11127 21154 39975 40442 53013 555 1/116
AAXX 31121 35394 41598 62304 11098 21114 39732 40448 52014 70273 86700 555 1/111
AAXX 31121 35406 42997 21607 11030 21081 30205 40207 57012 82030 555 1/104
AAXX 31121 35416 NIL
AAXX 31121 35426 NIL
AAXX 31121 35497 429// 82302 11103 21131 39619 40465 53008 8801/ 555 1/111
AAXX 31121 35532 NIL
AAXX 31121 35671 42998 81303 11062 21098 39995 40444 54000 8807/ 555 1/107
AAXX 31121 35700 42598 81504 11006 21062 30219 40195 57007 885// 555 1/102
AAXX 31121 35746 42998 00705 11061 21080 30309 40379 57009 555 1/109
AAXX 31121 35796 41597 83601 11075 21093 30020 40478 53007 77772 83606 555 1/109
AAXX 31121 35849 42998 00000 11020 21078 30278 40366 57011 555 1/105
AAXX 31121 35925 42998 21608 11027 21058 30057 40271 57020 80002 333 91114
AAXX 31121 35953 42999 20903 11018 21067 30248 40381 57018 80002 555 1/102
AAXX 31121 35969 42999 00903 11038 21067 30222 40401 57022 555 1/105
AAXX 31121 36003 42998 02802 11116 21138 30224 40385 52021 555 1/114
AAXX 31121 36152 429// 22502 11114 21172 30209 40409 52011 80002 555 1/114
AAXX 31121 36177 415// 72603 11059 21108 30169 40425 52019 78582 87300 555 1/108
AAXX 31121 36208 429// 70901 11077 21120 39410 40432 52002 83031 555 1/110
AAXX 31121 36397 426// 72006 11068 21110 39846 40432 54000 87500 555 1/108
AAXX 31121 36428 415// 80702 11069 21082 39949 40471 53008 77177 8272/ 333 95090 555 1/107
AAXX 31121 36535 425// 72402 11121 21148 39804 40478 53004 87500 555 1/116
AAXX 31121 36639 419// 80000 11066 21090 39845 40478 53004 70272 8807/ 555 1/108
AAXX 31121 36821 415// 70502 11062 21070 39947 40460 57001 74642 87900
AAXX 31121 36859 429// 00201 11052 21101 39650 40467 54000 555 1/111
AAXX 31121 36864 42899 10503 11058 21092 39503 40438 57002 81030
AAXX 31121 36870 42597 70000 11040 21069 39375 40426 56002 83202 555 1/107
AAXX 31121 38001 42997 83603 10054 20030 30189 40160 53018 8807/ 555 10007
AAXX 31121 38062 42999 01003 11008 21065 30213 40380 57010 555 1/103
AAXX 31121 38069 42998 00202 11006 21051 30174 40371 57014
AAXX 31121 38196 NIL
AAXX 31121 38198 NIL
AAXX 31121 38222 42997 00000 11114 21149 39827 40378 57012 555 1/112
AAXX 31121 38232 42998 71307 10039 21043 30112 40211 57038 85082 555 1/002
AAXX 31121 38328 NIL
AAXX 31121 38334 NIL
AAXX 31121 38341 41596 80000 11086 21097 39579 40412 57007 71041 886// 555 1/107
AAXX 31121 38343 42998 01402 11081 21117 39521 40413 57007
AAXX 31121 38439 NIL
AAXX 31124 40435 32960 02014 10255 20000 39117 40146 333 59035
AAXX 31124 87007 NIL
AAXX 31124 87022 NIL
AAXX 31124 87046 12965 43204 10228 20182 39108 48499 53013 60084 83075 333 10228 20185 56006 83360 84270
AAXX 31124 87047 12970 71603 10187 20178 38804 48521 51017 60124 85035 333 10204 20160 31/// 56066 85360
AAXX 31124 87097 11460 83605 10240 20230 39794 40102 52017 60434 70342 8557/ 333 10240 20210 56669 85610 88360
AAXX 31124 87121 12965 13209 10268 20206 39590 40086 52012 60034 80006 333 10278 20217 56007 81270
AAXX 31124 87129 32965 00706 10294 20215 39877 40100 52020 333 10300 20223
AAXX 31124 87155 31962 01802 10284 20180 30042 40101 52019 70400 333 10284 20188
AAXX 31124 87162 32570 31606 10287 20194 30025 40091 52018 83500 333 10287 20220 56300 83620
AAXX 31124 87166 32960 01603 10279 20163 30028 40099 52019 333 10281 20194
AAXX 31124 87178 32970 02704 10270 20163 39944 40086 52021 333 10279 20216
AAXX 31124 87217 32970 61808 10288 20219 39616 40092 5//// 86070 333 10330 20240 56040 86360
AAXX 31124 87222 NIL
AAXX 31124 87257 32965 10701 10288 20164 30016 40116 52013 81080 333 10296 20199 56050 81360
AAXX 31124 87270 32965 01803 10278 20143 30049 40110 52019 333 10278 20172 30015
AAXX 31124 87289 31560 11410 10248 20196 30016 40096 52016 7040/ 81100 333 10248 20178 56300 81820 90005
AAXX 31124 87311 32965 30510 10274 20175 39442 40093 52012 83030 333 10320 20237 56000 83360
AAXX 31124 87320 NIL
AAXX 31124 87328 32980 01402 10264 20140 39480 40110 52021 333 10267 20196 30000 95000
AAXX 31124 70133 32961 01008 11356 30119 40124 53014 91153 333 21361 4/127 555 93112
AAXX 31124 70174 31066 60000 11433 39868 40145 51014 91153 333 21450 4/076 555 93112
AAXX 31124 70200 32466 40000 11350 21372 30113 40119 52016 91153 333 21350 555 93112
AAXX 31124 70219 32466 42103 11344 21380 30097 40156 53017 91153 333 21356 555 93112
AAXX 31124 70231 11561 80000 11383 30005 40147 51022 69901 771// 91153 333 21394 4/097 70003 555 93112
AAXX 31124 70261 12966 60000 11322 21350 39948 40137 53016 69901 91153 333 21328 70003 555 93112
AAXX 31124 70267 15566 80000 11328 21367 39612 40154 53018 69901 91153 333 21333 555 93112
AAXX 31124 70271 35866 60000 11289 21317 39451 40089 53025 91153 333 21306 555 93112
AAXX 31124 70273 11359 60104 11172 21194 30000 40063 51022 69931 771// 91153 333 21172 4/071 70020 555 93112
AAXX 31124 70316 11464 8//03 11094 21111 30100 40137 52011 69901 771// 91153 333 21122 4/018 70023 555 93112
AAXX 31124 70326 32966 00000 11344 21380 30123 40137 51017 91154 333 21344 4/005 555 93112
AAXX 31124 70340 35966 03207 11278 21328 30069 40137 53022 91153 333 21278 555 93112
AAXX 31124 70350 32966 03105 11161 21233 30040 40083 91153 333 21167 4/003 70003 555 93112
AAXX 31124 70361 12566 80503 11072 21083 30087 40097 53026 69981 91153 333 21089 70053 555 93112
AAXX 31124 70381 11258 80811 11022 21044 30122 40131 51019 69981 771// 91153 333 21033 4/015 70023 91018 96010 555 93112
AAXX 31124 70414 35666 42920 11044 21106 30116 40152 51007 91156 333 21050 555 93112
AAXX 31121 20107 41497 60000 11132 21152 39944 40044 53001 78582 84930 333 91001
AAXX 31121 22003 NIL
AAXX 31121 22004 NIL
AAXX 31121 22100 NIL
AAXX 31121 22140 NIL
AAXX 31121 22113 42584 70604 11033 21057 39993 40058 52014 85531 333 91006
AAXX 31121 22212 41599 83606 11045 21068 39869 40034 51014 70282 8655/ 333 86629 91007
AAXX 31121 22213 NIL
AAXX 31121 22217 41395 83602 11030 21054 39985 40017 52019 78682 889// 333 86707 91005
AAXX 31121 22235 41472 80904 11032 21042 39821 40017 52011 78583 889// 333 86913 91007
AAXX 31121 22249 41457 80402 11032 21039 39824 40012 52009 78587 889// 333 91003
AAXX 31121 22312 41496 80405 11030 21040 39986 40008 52019 78583 889// 333 91009 91110
AAXX 31121 22334 41462 80307 11027 21037 39973 49980 52013 78583 889// 333 91008 91110
AAXX 31121 22349 41596 81403 10001 21008 39974 49986 52006 78583 889// 333 91004
AAXX 31121 22408 41350 83502 11023 21026 39828 49979 52019 77172 8872/ 333 88708 93402
AAXX 31121 22602 41470 72601 11021 21026 39766 49992 52019 70272 87500 333 87610
AAXX 31121 22619 41458 72902 11001 21012 39832 49992 52016 78582 87900 333 87912
AAXX 31121 22721 41499 71401 10005 21003 39902 40002 52017 70282 87900 333 85915
AAXX 31121 22802 41599 72702 11009 21022 39997 41020 52022 72682 88900 333 93701
AAXX 31121 22820 41499 32202 10006 21017 39881 40019 52017 70271 82530
AAXX 31121 26059 41406 72902 11005 21020 30022 40047 52018 78582 87900 333 86919
AAXX 31121 26063 41497 72703 10003 21008 30030 40038 52017 72876 86530 333 96042
AAXX 31121 26094 41456 81803 10010 21004 39974 40051 53020 77172 8802/ 333 88523
AAXX 31121 26157 41571 72902 11002 21033 30003 40053 52010 72782 84330
AAXX 31121 26167 41469 82302 10006 21023 39941 40054 52009 70282 8495/
AAXX 31121 26258 41598 62301 10006 21017 30004 40060 52005 70182 83530
AAXX 31121 26298 42597 71903 10000 21027 39847 40078 52003 87500
AAXX 31121 26359 41450 81902 11001 21004 39937 40073 52006 78582 889//
AAXX 31121 26702 42597 33002 10036 21014 30071 40097 52006 83800 333 91005 91105
AAXX 31121 26781 41396 81802 11001 21010 39798 40093 58001 71022 886// 333 88708
AAXX 31121 27208 42497 52001 10008 21034 39908 40085 52005 82632
AAXX 31121 27402 42497 72002 11004 21028 39918 40100 53003 86630 333 86714
AAXX 31121 26997 41426 80401 10005 20002 39889 40110 58005 77177 8872/ 333 87710
AAXX 31121 27595 41/97 81503 11056 21069 30024 40173 56005 77172 8007/
AAXX 31121 27612 42597 82601 10013 21022 39916 40110 52002 885//
AAXX 31121 27707 41849 81601 10000 21006 39810 40106 58006 77172 8802/
AAXX 31121 27719 41496 80000 10008 20000 39872 40124 52006 71022 886//
AAXX 31121 27786 41496 81602 11052 21069 30014 40179 57003 77172 8802/ 333 88512
AAXX 31121 27857 41498 81601 11006 21021 39974 40139 54000 70252 886// 333 88713
AAXX 31121 27906 41395 81102 10005 20002 39865 40109 58004 77174 8872/
AAXX 31121 27928 41395 81902 10000 21003 39915 40124 54000 77072 886//
AAXX 31121 27947 41496 81904 10003 21017 39974 40136 56003 75122 887// 333 88710 934//
AAXX 31121 27962 41496 89902 11020 21035 39935 40158 53005 77172 885// 333 88610
AAXX 31121 27983 41498 81603 11073 21090 30056 40190 56003 70272 886// 333 88712
AAXX 31121 27995 41598 81302 11072 21085 40199 57005 77177 8802/
AAXX 31121 28506 41997 81703 11042 21112 30091 40207 57005 70272 8801/
AAXX 31121 28704 41396 81607 11079 21097 30103 40202 55001 77173 8802/ 333 88508 91010 91112
AAXX 31121 28711 42798 81705 11096 21129 39834 40228 58022 8353/ 333 91110
AAXX 31121 28807 41497 81404 11076 21102 30158 40212 57008 77172 885// 333 88614
AAXX 31121 34009 41394 81702 10004 20001 39804 40112 58005 78584 889//
AAXX 31121 34110 41496 82002 10008 20003 39846 40127 58007 71022 886// 333 88718
AAXX 31121 34123 41541 81802 10006 21005 39945 40130 58001 78582 889// 333 88920
AAXX 31121 34152 41499 82001 11002 21017 39951 40150 52002 70272 886// 333 88713
AAXX 31121 34163 41496 81001 11009 21016 40157 57001 78582 889// 333 88919
AAXX 31121 34171 41230 81503 11016 21021 39964 40160 55002 77172 8872/ 333 88505
AAXX 31121 34186 41396 81605 11039 21047 30041 40184 57003 71072 8872/ 333 88707
AAXX 31121 34247 41459 82102 10011 20000 30036 40151 57002 72272 885// 333 86711
AAXX 31121 34336 41460 81902 10020 20004 30048 40153 58003 70282 8432/
AAXX 31121 34391 42597 81603 11017 21031 30150 40181 57003 885// 333 88621 93401
AAXX 31121 35011 42999 81505 11085 21138 30087 40249 57010 80001
AAXX 31121 35121 42998 61403 11086 21114 30130 40284 57004 80001
AAXX 31121 38598 42998 00904 10200 21014 40333 57011
AAXX 31121 38599 NIL
AAXX 31121 38725 42699 20000 11044 21231 37786 48530 56003 81401
AAXX 31121 38734 42999 21402 11072 21136 37473 47060 56001 80003
AAXX 31121 38744 42699 40902 11066 21132 38068 48600 53003 82502
AAXX 31121 38836 42599 50000 10025 21024 39326 40284 57015 85900
AAXX 31121 38838 42698 42301 10062 20026 39608 40286 57025 82930
AAXX 31121 38844 42999 60203 11014 21172 48470 56003 80002
AAXX 31121 38846 41696 62303 11044 21062 38552 48520 57015 71022 82933
AAXX 31121 38847 42899 70000 10042 20003 40303 57014 82553
AAXX 31121 38932 42598 71403 10029 20005 40305 57010 87600
AAXX 31121 38933 42797 72501 10052 20003 39712 40295 57012 87500
AAXX 31121 38944 42697 80000 10046 20031 39683 40228 57019 885//
AAXX 31121 38954 42999 50000 11022 21144 37968 48560 57006 82011
AAXX 31121 22028 41598 60909 11014 21028 30025 40063 52012 78583 86900 333 91014 91119
AAXX 31121 22106 42998 70502 11047 21064 39965 40045 51014 87040 333 91004 93501
AAXX 31121 22127 42498 80402 11054 21072 39836 40041 52012 8697/ 333 84631 91004
AAXX 31121 22324 41468 80504 11029 21039 39950 40000 52013 78582 889// 333 91008
AAXX 31121 22621 41498 72102 11004 21016 39851 49990 52020 70272 87900 333 84919
AAXX 31121 22831 41497 72401 10010 20005 39974 40034 52016 78582 87900
AAXX 31121 22892 41598 82803 11028 21051 30020 40036 52021 70282 885// 333 88626
AAXX 31121 26275 41297 81803 10001 20010 30030 40061 52002 77172 8872/ 333 88706
AAXX 31121 26389 42566 61802 11008 21040 39814 40080 54000 84530
AAXX 31121 26499 42598 41903 11009 21041 39871 40102 52001 82501
AAXX 31121 26695 42497 81903 10002 21022 39797 40108 58005 83507
AAXX 31121 26882 42468 72002 10006 21010 39823 40100 58007 82130
AAXX 31123 87148 32970 01408 10280 20188 39984 40089 52023 333 10306 20228 30000
BBXX 42085 31121 99179 70665 46/// /0906 10250 40185 52019 91200 22200 00271 10803 70016 333 91208
AAXX 31121 30372 32999 00000 11345 21368 39440 40442 58008 333 11257
AAXX 31121 30433 32999 30201 11184 21210 39718 40360 57004 80001 333 11156
AAXX 31121 30554 329// 00000 11315 21333 39212 40452 52003 333 11210
AAXX 31121 30635 318// 81303 11199 21225 39745 40367 58004 70331 8805/ 333 11174
AAXX 31121 30673 32999 03101 11282 21288 39538 40402 52005 333 11187
AAXX 31121 30692 31996 00000 11334 21350 39808 40375 53/// 71000 333 11223
AAXX 31121 30758 31920 00000 11285 21317 39509 40437 57006 70500 333 11220
AAXX 31121 30802 11698 50000 11162 21162 38752 48522 57020 60012 71582 82331 333 11093 95752
AAXX 31121 30823 32999 71001 11233 21273 39696 40398 57004 8702/ 333 11232
AAXX 31121 30879 32999 00000 11287 21312 39549 40405 58004 333 11241
AAXX 31121 30935 32999 00000 11248 21280 39382 40420 57005 333 11222
AAXX 31121 30949 32999 00000 11246 21265 39227 40439 52009 333 11100
AAXX 31121 30965 329// 01201 11310 21334 39509 40451 52008 333 11187
AAXX 31121 31168 32999 00202 11246 21279 30271 40283 58005 333 11185
AAXX 31121 31300 31910 00000 11289 21301 30019 40346 57001 71000 333 11258
AAXX 31121 31329 32999 00000 11337 21359 39597 40373 52005 333 11247
AAXX 31121 31369 12998 62702 11226 21232 30198 40292 52004 69900 80002 333 11177
AAXX 31121 31416 32999 00000 11304 21315 30206 40307 54000 333 11201
AAXX 31121 31484 31999 50000 11271 21288 39943 40319 52002 70271 85070 333 11170
AAXX 31121 31512 329// 02801 11267 21299 30155 40342 52005 333 11197
AAXX 31121 31538 32998 03601 11279 21297 39842 40328 52002 333 11234
AAXX 31121 31707 32998 23201 11201 21250 30204 40304 52006 80001 333 11161
AAXX 31121 31735 32997 40101 11263 21292 30200 40299 58002 80001 333 11220
AAXX 31121 31770 32582 22302 11173 21232 30237 40269 52004 82500 333 11115
AAXX 31121 22271 41495 80910 11039 21054 30028 40038 52012 77373 8872/ 333 92982
AAXX 31121 22520 41494 80000 11001 21004 39963 49972 52019 78582 889// 333 88710
AAXX 31121 22550 41496 81803 10011 21006 30001 40011 52014 78582 889// 333 88919
AAXX 31121 22583 41473 71602 10000 21008 39979 40059 52012 77072 875// 333 87614
AAXX 31121 22768 42497 81805 10013 21013 30006 40062 51007 885// 333 88619
AAXX 31121 22845 42698 81904 10009 21023 39898 40054 52013 875//
AAXX 31121 22887 42599 71804 10009 21005 30027 40098 53001 8355/ 333 91107
AAXX 31121 23205 41296 80902 11099 21116 30064 40079 52003 77172 8672/ 333 86704 91105
AAXX 31121 23219 41396 81802 11074 21091 30017 40126 52004 77172 8802/
AAXX 31121 23418 41465 81803 11013 21023 30043 40117 52015 70272 886// 333 88710 93403
AAXX 31121 23606 42460 81803 11005 21011 39943 40115 52009 885// 333 88610
AAXX 31121 23711 41498 81402 11016 21021 39977 40153 52006 70282 889// 333 86711
AAXX 31121 23804 41296 82102 11005 21014 39976 40125 52006 77172 885// 333 84705
AAXX 31121 27037 42698 81702 10008 21015 39928 40090 52007 885// 333 88633
AAXX 31121 27199 41498 81703 11048 21068 39957 40159 53006 70272 885//
AAXX 31121 27271 41496 81204 11025 21034 39973 40131 53007 77172 8872/
AAXX 31121 27459 41498 81702 11026 21049 39934 40133 53002 77122 8652/
AAXX 31121 27730 42497 81702 11010 21023 39924 40120 52003 885// 333 88610
BBXX 42085 31121 99179 70665 46/// /1008 10252 40185 91150 333 91211
BBXX 42085 31121 99179 70665 46/// /0707 10262 40181 91140 333 91209
AAXX 31124 82143 NIL
AAXX 31124 82599 32570 51214 10285 20223 30067 40127 85200 333 20246 59008
AAXX 31124 82824 42970 70000 10261 20243 30025 40126 87030 333 20247 59011
AAXX 31124 82899 32570 40706 10292 20212 30129 40141 84200 333 20264 59005
AAXX 31124 83117 NIL
AAXX 31124 83248 32470 50712 10305 20243 30119 40141 85200 333 20270 59014
AAXX 31124 83746 32470 51110 10256 20203 30111 40121 51002 82501 333 20217
AAXX 31124 83384 NIL
AAXX 31124 83386 NIL
AAXX 31124 83388 NIL
AAXX 31124 83393 NIL
AAXX 31124 83442 NIL
AAXX 31124 83479 NIL
AAXX 31124 83483 NIL
AAXX 31124 83531 NIL
AAXX 31124 83538 NIL
AAXX 31124 83574 NIL
AAXX 31124 83582 NIL
AAXX 31124 83595 NIL
AAXX 31124 83687 NIL
AAXX 31124 83692 NIL
AAXX 31124 83695 32697 80000 10246 20219 30001 40137 54000 8655/ 333 20226
AAXX 31124 83718 21595 70000 10230 20192 39566 40131 52002 70544 87800 333 20199 69944
AAXX 31124 NIL
AAXX 31124 82022 32970 00408 10274 20214 30047 40143 333 20235 59007
AAXX 31124 82193 22470 50607 10284 20243 30106 40124 85100 333 20244 59005 60084
AAXX 31124 82281 32570 50615 10293 20192 30061 40123 85200 333 20264 59004
AAXX 31124 82332 22270 70000 10266 20244 30039 40132 84530 333 20250 59002 60014
AAXX 31124 82398 21470 50914 10283 20227 30069 40126 70261 85200 333 20257 59009 69914
AAXX 31124 82400 32470 21210 10277 20237 30069 40134 82100 333 20256 59006
AAXX 31124 82579 32570 60000 10295 20233 30049 40125 85250 333 20258 59002
AAXX 31124 82917 21470 73502 10242 20237 39905 40127 70262 82530 333 20232 59002 60014
AAXX 31124 82965 21470 71802 10264 20231 39796 40124 7016/ 81534 333 20230 59004 60064
AAXX 31124 82993 32470 51013 10285 20213 30004 40139 85200 333 20226 59008
AAXX 31124 83208 32070 43107 10254 20224 39441 48540 82630 333 20218 59003
AAXX 31124 83349 22570 70406 10277 20247 30159 40165 84254 333 20243 58010 60014
AAXX 31124 83362 22570 63607 10252 20213 39900 40116 82130 333 20234 58000 69944
AAXX 31124 83378 22570 62707 10234 20170 38970 48530 83531 333 20201 59012 69904
AAXX 31124 83460 32570 50109 10269 20222 30077 40133 83130 333 20230 59012
AAXX 31124 83497 NIL
AAXX 31124 83566 21235 83503 10187 20178 39215 48520 76062 887// 333 20172 59009 60314
AAXX 31124 83599 NIL
AAXX 31124 83612 22270 73411 10235 20202 39481 48520 52016 87530 333 2021169924
AAXX 31124 83649 22470 70206 10278 20223 30127 40132 50010 84530 333 20234 69904
AAXX 31124 83650 NIL
AAXX 31124 83780 21235 73604 10199 20181 39223 48510 52006 76166 84520 333 20193 60094
AAXX 31124 83827 22470 63505 10250 20225 39820 40094 51016 84530 333 20214 60034
AAXX 31124 83840 21365 70103 10186 20168 39105 48500 51005 71062 87500 333 20166 60084
AAXX 31124 83899 21456 73302 10211 20191 30122 40128 53008 76166 87500 333 20211 60094
AAXX 31124 83925 NIL
AAXX 31124 83970 NIL
AAXX 31124 83971 31970 71109 10229 20196 30085 40089 58001 71792 87930 333 20208
AAXX 31124 NIL
AAXX 31124 NIL
AAXX 31124 NIL
AAXX 31124 NIL
AAXX 31124 783388 11574 61308 10236 20193 30163 40172 60001 70500 86900 333 06200 10300 20224 58003 81922 86642
AAXX 31124 NIL
AAXX 31124 NIL
AAXX 31124 83437 NIL
AAXX 31124 83550 21396 8//// 10238 20226 30093 40123 75055 8472/ 333 20230 59006 60114
AAXX 31124 83552 NIL
AAXX 31124 83565 NIL
AAXX 31124 83579 NIL
AAXX 31124 83592 NIL
AAXX 31124 83623 NIL
AAXX 31124 83630 NIL
AAXX 31124 83676 NIL
AAXX 31124 83698 32998 80000 10266 20235 30119 40133 50000 8802/ 333 20235
AAXX 31124 83702 NIL
AAXX 31124 83704 NIL
AAXX 31124 83716 NIL
AAXX 31124 83726 NIL
AAXX 31124 83738 31696 82703 10220 20195 39620 40115 52002 71040 886// 333 20205
AAXX 31124 NIL
AAXX 31124 78526 12564 41106 10233 20224 30176 40198 53018 60071 91156 333 10300 20228 70079 555 93112
AAXX 31124 78543 12966 00610 10244 20217 30115 40196 53019 60021 91153 333 10306 20222 70028 555 93112
AAXX 31124 91165 12266 62905 10200 20178 30135 40172 58011 69901 91153 333 20189 70015 555 93112
AAXX 31124 91182 32566 23303 10200 20183 30161 40164 58010 91153 333 20200 555 93112
AAXX 31124 91190 35966 01505 10167 20133 30151 40171 58006 91154 333 20156 555 93112
AAXX 31124 91212 32566 40104 10233 20222 31394 40128 51009 91154 333 20233 70005 555 93112
AAXX 31124 91285 32566 42604 10200 20180 30144 91202 555 93112
AAXX 31124 91245 32666 40909 10260 20220 30150 91154 555 93112
BBXX WFLH 31123 99234 71528 41/98 61509 10222 20162 40170 57005 75055 8//// 22214 00222 20402 332// 41404 5//// 6//// 80183 ICE /////
BBXX C6FM8 31124 99252 70773 41898 13107 10210 20164 40220 54000 7//11 81000 22273 00250 20301 308// 40000 50000 6//// 80180 ICE /////
BBXX C6XC6 31124 99154 70970 418// 31006 10260 2//// 40110 54000 70200 8317/ 22264 04290 2//// 330// 40401 5//// 6//// 8//// ICE /////
BBXX ONFW 31124 99093 11203 41197 20413 10280 20239 40110 54/// 70200 8228/ 22243 04200 20203 335// 40404 5//// 6//// 80250 ICE /////
BBXX A8VL8 31124 99209 11108 41/// /0910 10195 20156 40220 51010 74422 8//// 22200 0//// 20202 30909 40404 50202 6//// 80170 ICE /////
BBXX PBWQ 31124 99193 70869 41398 30929 10259 20202 40169 52010 70111 8/7// 22284 00272 20403
BBXX ELNY2 31124 99241 10644 41697 30524 10230 20201 40170 54/// 7//00 83097 22223 0//// 20604 305// 41006 5//// 6//// 80210 ICE /////
BBXX NAZJ 31124 99531 71542 41/// 60226 10011 2//// 40081 51/// 7//// 8/6// 22243 04039 20501 30101 40401 50401 6//// 8//// ICE /////
BBXX 46111 31121 99481 71227 46/// /2103 10045 40279 51045 91200 22200 00053
AAXX 31124 71145 11274 81410 11080 21091 39714 40009 56021 69901 73672 885// 333 11060 21081 48037 70004 90911
AAXX 31124 65201 31458 60000 10320 20235 30079 40132 70522 82280 333 56500 57832 59006 82814 86280 91111 94919
BBXX ELNY2 31124 99241 10644 41697 30524 10230 20201 40170 54/// 7//00 83097 22223 0//// 20604 305// 41006 5//// 6//// 80210 ICE /////
BBXX SHJC 31121 99136 10559 43/98 10114 10234 40158 55003 22274 00260 2//// 4////
BBXX WDE8288 31124 99139 10514 41998 00709 10240 2015/ 40145 57020 70200 80/// 22255 0//// 20301 309// 40602 5//// 6//// 80180 ICE /////
BBXX A8UX3 31124 99124 70177 41497 70425 10220 20101 40170 50010 70322 85728 22283 04260 20603 80150
BBXX PHPP 31124 99204 10601 41697 40507 10250 20158 40163 55010 70100 84100 22244 00265 20804 80190
BBXX A8AX3 31123 99047 30117 41697 41605 10300 40140 56/// 70300 83372 22200 2//00
BBXX PDKK 31123 99052 50068 41498 41613 10249 20224 40136 58008 7//// 84200 22254 20301 314// 40802 80231
BBXX PDHO 31124 99138 10512 41997 00409 10252 20140 40163 57031 70000 80000 22264 00255 20401 80181
BBXX UBAU 31121 99121 70174 41598 80405 10260 40148 52002 70222 8822/ 22261 04250 20301
BBXX A8JS5 31124 99107 30091 41598 71810 10255 20174 40145 58002 70222 8413/ 22244 04251 20402 320// 40503 5//// 80201
BBXX PHKL 31120 99121 10590 41597 23610 10273 20201 40124 56017 70300 81100 22224 00264 20704 3//// 4//// 5//// 80223
AAXX 31124 60360 12460 52616 10152 20108 40250 58014 60001 84802 333 0//00 83820 83633 95900
AAXX 31124 60390 12570 32510 10164 20087 40298 56017 60001 82232 333 82820 95900
AAXX 31124 60402 12565 42406 10170 20089 40289 58006 60001 81232 333 81820 83359 95900
AAXX 31124 60419 12565 32912 10114 20052 40271 58011 60001 83800 333 0//00 81820 83626 95900
AAXX 31124 60475 12565 73016 10095 20053 39303 48556 58006 60001 878// 333 83820 86833 95910
AAXX 31124 60490 12981 12408 10157 20070 40301 58017 60001 80001 333 81073 95900
AAXX 31124 60525 12960 33018 10155 20032 40259 50012 60001 80032 333 0//00 81360 83073 95900
AAXX 31124 60531 12970 12212 10154 20038 40312 58018 60001 80002 333 0//00 81073 95900
AAXX 31124 60566 12960 03504 10136 20019 40303 58007 60001 333 0//00
AAXX 31124 60571 12970 00000 10119 20037 39367 48601 58009 60001 333 0//00 95900
AAXX 31124 60580 12960 03506 10158 20084 40288 58019 60001
AAXX 31124 60590 12960 00000 10140 20022 40315 58014 60001
AAXX 31124 60611 12960 03206 10144 21005 40268 56010 60001 333 0//00
AAXX 31124 60620 12960 00415 10165 20002 40308 58002 60001 333 0//00
AAXX 31124 60630 12982 00316 10172 20018 40280 58002 60001 333 0//00
AAXX 31124 60656 12965 00805 10150 20004 40319 51016 333 0//00
AAXX 31124 60670 12983 30000 10162 21024 39130 48566 58017 60001 80002 333 0//00 83073 95900
AAXX 31124 60680 12982 10811 10157 21108 38682 48557 56012 60001 80002 333 0//00 81073 95900
AAXX 31124 60351 12560 62612 10160 20079 40267 58008 60001 86800 333 83820 85633 95900
AAXX 31124 60355 12560 62808 10168 20074 40255 58011 60001 86800 333 0//00 83830 84840 95900
AAXX 31124 60445 11460 22605 10088 20046 39104 48573 58011 60001 70244 82200 333 81710 95900
AAXX 31124 60468 12570 22808 10104 20024 39313 48570 58002 60002 82200 333 0//00 82820 95900
AAXX 31124 60507 12970 12208 10135 20030 40316 58016 60001 80001 333 81073 95900
AAXX 31124 60511 12560 12708 10096 20045 39167 48590 58004 60001 81230 333 81823 95900
AAXX 31124 60535 12570 23412 10064 20021 38923 48578 58009 60001 82200 333 0//00 82823 95900
AAXX 31124 60536 12975 10000 10143 20039 39429 48598 58002 60001 80002 333 81073 95900
AAXX 31124 60549 12960 20000 10085 20019 39029 48612 58003 60001 80002 333 82073 95900
AAXX 31124 60550 11960 30000 10052 20015 38768 48598 58009 60001 70141 80002 333 83073 95900
AAXX 31124 60555 12970 13310 10157 20014 40285 58013 60001 80002 333 0//00 81073
AAXX 31124 60559 12960 22805 10158 20037 40277 58016 60001 80002 333 0//00 82073
AAXX 31124 60581 12960 03206 10150 20028 40292 58012 60001 333 0//00
AAXX 31124 60602 12965 00000 10124 20014 40322 58009 60001 333 0//00 95900
AAXX 31124 60607 12960 00214 10146 21037 40303 58006 60001 333 0//00
AAXX 31124 60640 12960 03506 10144 20011 40288 53020 60001 333 0//00
AAXX 31124 60690 NIL
AAXX 31124 60360 12460 52616 10152 20108 40250 58014 60001 84802 333 0//00 83820 83633 95900
AAXX 31124 60390 12570 32510 10164 20087 40298 56017 60001 82232 333 82820 95900
AAXX 31124 60402 12565 42406 10170 20089 40289 58006 60001 81232 333 81820 83359 95900
AAXX 31124 60419 12565 32912 10114 20052 40271 58011 60001 83800 333 0//00 81820 83626 95900
AAXX 31124 60475 12565 73016 10095 20053 39303 48556 58006 60001 878// 333 83820 86833 95910
AAXX 31124 60490 12981 12408 10157 20070 40301 58017 60001 80001 333 81073 95900
AAXX 31124 60525 12960 33018 10155 20032 40259 50012 60001 80032 333 0//00 81360 83073 95900
AAXX 31124 60531 12970 12212 10154 20038 40312 58018 60001 80002 333 0//00 81073 95900
AAXX 31124 60566 12960 03504 10136 20019 40303 58007 60001 333 0//00
AAXX 31124 60571 12970 00000 10119 20037 39367 48601 58009 60001 333 0//00 95900
AAXX 31124 60580 12960 03506 10158 20084 40288 58019 60001
AAXX 31124 60590 12960 00000 10140 20022 40315 58014 60001
AAXX 31124 60611 12960 03206 10144 21005 40268 56010 60001 333 0//00
AAXX 31124 60620 12960 00415 10165 20002 40308 58002 60001 333 0//00
AAXX 31124 60630 12982 00316 10172 20018 40280 58002 60001 333 0//00
AAXX 31124 60656 12965 00805 10150 20004 40319 51016 333 0//00
AAXX 31124 60670 12983 30000 10162 21024 39130 48566 58017 60001 80002 333 0//00 83073 95900
AAXX 31124 60680 12982 10811 10157 21108 38682 48557 56012 60001 80002 333 0//00 81073 95900
BBXX C6XC6 31124 99154 70970 418// 31006 10260 2//// 40110 54000 70200 8317/ 22264 04290 2//// 330// 40401 5//// 6//// 8//// ICE /////
BBXX C6OT4 31124 99106 70963 41398 30510 10261 20223 40112 55000 70200 836// 22223 04266 20904 323// 41404 5//// 80235
BBXX GRFP 31124 99201 31690 41598 71311 10255 20241 40088 70322 8647/ 22284 00270 20201 80245
BBXX C6FS9 31124 99388 31481 46/// /2204 10184 20175 30123 40160 52005 22223 04188 85178
BBXX A8VJ2 31123 99095 31376 41599 42915 10298 20244 40087 54000 70100 82145 22273 00260 20201 30000 80260
BBXX YJZC5 31123 99195 31622 41395 62017 10255 20226 40091 51/// 70211 84795 22253 02265 2//// 320// 40102 80235
BBXX VRZN7 31124 99356 31506 41798 13414 10200 2015/ 40167 54002 70200 81000 22213 04210 2//// 3//// 4//// 5//// 85170
BBXX VROC 31124 99389 31470 41/98 /0000 10205 20146 40155 53014 70300 8//4/ 22263 04250 2//// 304// 40901 80170
BBXX 2ALD3 31123 99298 31535 41398 41318 10215 20208 40166 52008 70311 84462 22244 04230 20304 80210
BBXX VNSZ 31124 99399 31456 46/// /1507 10171 20156 30137 40163 54000 22275 04183 85162
BBXX 9HA2479 31124 99238 31645 46/// /1312 10240 20198 30075 40104 52001 22214 04259 85211
BBXX VRAE2 31124 99207 31622 41/// /1414 10235 20228 40097 50006 70055 8//// 22274 04270 20602 80230
BBXX ZCAS2 31123 99047 31256 41398 73407 10275 20245 40102 52003 71382 8577/ 22243 00294 20601 80254
BBXX SHIP 31124 99004 31054 41/97 30110 10274 20254 40027 70322 222// 0//// 20201 300// 40101 5////
BBXX KAOU 31124 99000 10842 43/// /0290 10282 20236 40091 5//// 7//// 8//// 222// 04288 2//// 3//// 4//// 5//// 6//// 8//// ICE /////
BBXX DCQR2 31123 99173 31532 41598 61421 10268 20222 40092 54000 70311 82366 22284 04270 20505 3//// 4//// 5//// 80235
BBXX PCCL 31123 99392 31507 41598 40110 10216 20145 40162 53007 70300 82840 22263 04196 20301 334// 40604 80171
BBXX A8KX4 31124 99413 51402 41596 61727 10133 20104 40090 53010 70222 8583/ 22264 04149 20705 322// 41004 80118
BBXX PCKU 31123 99077 31161 41597 79904 10272 20245 40099 52009 7//22 8/84/ 22253 04280 2//01 80252
BBXX MGRH9 31124 99266 31532 41/97 81420 10235 20152 40156 52/// 70322 8//// 22200 00245 20804 314// 41004 5//// 80185
BBXX ELXS8 31123 99050 31256 41/98 /0106 10285 20264 40103 51040 7//// 8//// 22243 02290 2//// 3//// 4//// 5//// 80270
BBXX C6JD9 31124 99276 50466 41498 80613 10230 20165 40135 54000 70022 83970 22253 20402 31400 40902 5//// 80190
BBXX TBWUK03 31123 99174 50367 41598 50514 10297 20241 40154 51013 70222 83406 22253 20401 306// 40902 5//// 80256
BBXX 46001 31121 99563 71480 46/// /2606 11014 40082 53007 91150 22200 00041 10906 20503 300// 40906 70032 333 91208 555 11062 22064 31119 42510 61149 260060 240067 251070 249074 250071 252077
BBXX 41038 31121 99341 70777 46/// /2406 10151 40150 53003 91200 22200 00132 333 91207
BBXX 46083 31121 99582 71380 46/// /2706 10002 21073 40113 51026 91150 22200 00062 11109 20502 300// 41108 70043 333 91208 555 11061 22065 31110 43010 61149 262057 252064 259059 279053 281053 246027 82507 91137
BBXX 41041 31121 99142 70460 46/// /0811 10264 20208 40177 52019 91150 22200 00260 11206 20604 3//// 41204 70028 333 91213 555 11112 22120 31139 40813 61149 084104 082104 079097 078101 076092 083098 80911 91149
BBXX 46053 31121 99342 71198 46/// /0601 10106 40158 54000 91150 22200 00136 11704 326// 41704 70019 333 91203 555 11011 22011 31147 40803 61149 050010 354013 340013 007003 096006 062005
BBXX 46042 31121 99368 71224 46/// /0206 10111 40215 50000 91150 22200 00123 11606 20502 331// 41606 70031 333 91207 555 11064 22067 31051 40112 61149 019061 019068 015080 011089 017094 013096
BBXX 46089 31121 99459 71258 46/// /1004 10076 20038 40270 50000 91150 22200 00093 11209 20401 331// 41209 70044 333 91205 555 11037 22039 31121 41206 61149 104035 111032 118031 128028 130027 110028
BBXX OZDQ2 31123 99478 71725 41/97 /0313 10010 40208 53015 70022 8//// 22224 00040 20403
BBXX PIAG 31123 99408 70620 41598 31710 10150 20113 40258 57007 70000 82461 22263 00140 2//// 80130
BBXX PCEX 31123 99293 70945 41/91 /1814 10173 20173 40169 58002 74444 8//// 22200 02155 2//// 80173
BBXX DGBE 31123 99515 71516 41/96 80217 10040 20002 40000 58030 77077 8//// 22223 00060 2//// 80024
BBXX DGDD 31121 99322 71331 41/97 71805 10160 20127 40230 5/000 70322 8//// 22224 04170 2//// 3//// 4//// 5//// 80140
BBXX A8CH2 31124 99268 70531 41598 51011 10240 20196 40285 50005 70222 85555 22254 04220 20302 330// 40405 80210
BBXX DFGX2 31123 99541 71625 41/97 83612 11035 21065 40130 51010 70222 8//// 22264 04040 2////
BBXX DHEE 31123 99199 71065 41998 03614 10210 20188 40114 53002 70122 80000 22273 00250 2//// 80195
AAXX 31124 71145 11274 81410 11080 21091 39714 40009 56021 69901 73672 885// 333 11060 21081 48037 70004 90911
BBXX A8OZ4 31124 99337 10304 43698 42225 10200 20120 40110 56010 7//// 842// 22234 00172 20605 322// 4//// 5//// 80150
BBXX A8OZ4 31124 99337 10304 43698 42225 10200 20120 40110 56010 7//// 842// 22234 00172 20605 322// 4/ /// 5//// 80150
BBXX VRCZ7 31123 99485 70060 41397 83224 10125 20106 40181 52010 70222 887// 22254 20605 332// 40605 5//// 80115
BBXX 62023 31123 99514 70079 46/96 /2429 10109 2//// 40117 5//// 22200 10605 70025 555 70036 80005
BBXX KABP 31123 99373 10055 43/95 /2630 10160 2011/ 40270 50010 7//// 8//// 22211 0//// 2//// 3//// 4//// 5//// 6//// 80132 ICE /////
BBXX MINUK01 3112/ 99571 70021 46/// ///// 10078 49972 57018
BBXX LAHV 31121 99589 10057 43/// /1206 10030 21022 40037 222// 04080 1////
BBXX LMEL 31121 99603 10053 43/// /1506 10027 21055 40016 5//// 222/0 04081 1//// 3//// 4//// 5////
BBXX LDGJ 31121 99603 10053 43/// /1505 10027 21044 40020 5//// 222/0 04078 1//// 3//// 4//// 5////
BBXX LF4H 31124 99596 10022 46/// /1527 10065 20059 49949 57020 8//// 22200 06079 10605 70027 333 91135
BBXX UCAB 31121 99611 10042 41/97 91714 10050 49970 54000 70022 8//// 22213 00090 20907
BBXX PDNN 31123 99498 70031 41298 82830 10128 20112 40159 52005 70322 886// 22252 20303 327// 40605 80119 90992
BBXX DDYZ2 31124 99374 10069 41698 32927 10155 20130 40260 51010 7//22 82414 22224 00170 20506 322// 40406 80140
BBXX PHAM 31123 99495 70011 41496 82516 10127 20115 40155 55000 7//// 8/700 22200 20701 80120 90992
BBXX DEDI 31123 99445 70249 41297 62722 10150 20125 40250 53025 70322 82678 22224 00147 20604 325// 41006 80135
AAXX 31124 41858 31956 20000 10210 20130 30108 40154 70500 82030 333 10277 56090 59003 70000 82362
AAXX 31124 41863 32950 00000 10220 20060 30108 40152 333 10280 59004 70000
AAXX 31124 41886 31950 20000 10216 20150 30123 40144 70511 82030 333 10282 56090 59009 82365
AAXX 31124 41895 32956 50000 10214 20160 30127 40150 85030 333 10270 56090 59005 70000 85362
AAXX 31124 41909 NIL
AAXX 31124 41915 NIL
AAXX 31124 41926 NIL
AAXX 31124 41929 NIL
AAXX 31124 41933 31450 73101 10234 20100 30136 40145 70520 82570 333 10284 56990 59008 70000 82615 85458
AAXX 31124 41939 31450 70000 10220 20170 40152 70542 83570 333 10276 56890 59005 70000 83617 85460
AAXX 31124 41941 NIL
AAXX 31124 41946 32940 50000 10230 20200 30148 40152 85050 333 10262 56090 58001 70000 85362
AAXX 31124 41947 NIL
AAXX 31124 41951 NIL
AAXX 31124 41953 31940 60000 10230 20180 30136 40142 70522 86030 333 10272 56090 59003 70000 86361
AAXX 31124 41958 31440 70000 10230 20180 30141 40143 70522 82570 333 10270 56990 59001 70000 82618 85460
AAXX 31124 41960 NIL
AAXX 31124 41963 NIL
AAXX 31124 41964 NIL
AAXX 31124 41965 NIL
AAXX 31124 41966 NIL
AAXX 31124 41984 32940 23602 10240 20130 30135 10137 82030 333 10300 56090 58001 70000 82362
AAXX 31124 41989 NIL
AAXX 31124 41998 32930 00000 10230 20170 30119 40125 333 10305 58001 70000
BBXX A8VL8 31124 99209 11108 41/// /0910 10195 20156 40220 51010 74422 8//// 22200 0//// 20202 30909 40404 50202 6//// 80170 ICE /////
BBXX ONFW 31124 99093 11203 41197 20413 10280 20239 40110 54/// 70200 8228/ 22243 04200 20203 335// 40404 5//// 6//// 80250 ICE /////
BBXX DPRB 31121 99304 11226 41/97 /0202 10090 20038 40280 54000 70211 8//// 22200 20302 304// 40403 5//// 80065
BBXX DHEB 31123 99533 11727 41/97 83615 11030 21098 40105 52021 70000 8//// 22264 2//// 3//// 4//// 5//// 81050
BBXX PHOB 31124 99058 10812 41598 40710 10280 20224 40086 55005 70211 83145 22264 00270 20201 328// 40303 5//// 80240
BBXX DFNB2 31123 99141 11112 41/97 80418 10240 20226 40158 52028 72586 88/// 22284 00240 2//04 306// 40706 80230
BBXX VNVZ 31124 99284 11352 41/98 40309 10160 20143 40230 70110 8//// 22213 00215 2//// 3//// 4//// 5//// 6//// 80143
BBXX DGWD2 31123 99063 10789 41/98 21806 10275 20189 40082 56004 70200 8//// 22224 00280 2//01 80216
BBXX PDWT 31123 99305 11301 41598 59903 10140 20064 40240 54000 70000 848// 22253 04200 20201 33500 40101 5//// 80100
AAXX 31124 60351 12560 62612 10160 20079 40267 58008 60001 86800 333 83820 85633 95900
AAXX 31124 60355 12560 62808 10168 20074 40255 58011 60001 86800 333 0//00 83830 84840 95900
AAXX 31124 60445 11460 22605 10088 20046 39104 48573 58011 60001 70244 82200 333 81710 95900
AAXX 31124 60468 12570 22808 10104 20024 39313 48570 58002 60002 82200 333 0//00 82820 95900
AAXX 31124 60507 12970 12208 10135 20030 40316 58016 60001 80001 333 81073 95900
AAXX 31124 60511 12560 12708 10096 20045 39167 48590 58004 60001 81230 333 81823 95900
AAXX 31124 60535 12570 23412 10064 20021 38923 48578 58009 60001 82200 333 0//00 82823 95900
AAXX 31124 60536 12975 10000 10143 20039 39429 48598 58002 60001 80002 333 81073 95900
AAXX 31124 60549 12960 20000 10085 20019 39029 48612 58003 60001 80002 333 82073 95900
AAXX 31124 60550 11960 30000 10052 20015 38768 48598 58009 60001 70141 80002 333 83073 95900
AAXX 31124 60555 12970 13310 10157 20014 40285 58013 60001 80002 333 0//00 81073
AAXX 31124 60559 12960 22805 10158 20037 40277 58016 60001 80002 333 0//00 82073
AAXX 31124 60581 12960 03206 10150 20028 40292 58012 60001 333 0//00
AAXX 31124 60602 12965 00000 10124 20014 40322 58009 60001 333 0//00 95900
AAXX 31124 60607 12960 00214 10146 21037 40303 58006 60001 333 0//00
AAXX 31124 60640 12960 03506 10144 20011 40288 53020 60001 333 0//00
AAXX 31124 60690 NIL
BBXX 44032 31121 99437 70694 46/30 /1309 10088 40138 58027 91204 22200 00082 10603 70015 333 91210 555 11110 22119
BBXX 44033 31121 99441 70690 46/30 /1403 10081 40159 56022 91204 22200 00065 10602 70011 333 91204 555 11045 22053
BBXX 44067 31121 99384 70770 46/// /2401 10097 40110 53003 91200
BBXX FLAO 3112/ 99764 70847 46/// ///// 11400 40081 52005
BBXX NAZJ 31124 99531 71542 41/// 60226 10011 2//// 40081 51/// 7//// 8/6// 22243 04039 20501 30101 40401 50401 6//// 8//// ICE /////
BBXX PBWQ 31124 99193 70869 41398 30929 10259 20202 40169 52010 70111 8/7// 22284 00272 20403
BBXX PBFM 31123 99356 70545 41498 61706 10202 20173 40305 51005 70222 84830 22224 20301 331// 40904 80183
BBXX 41053 31121 99185 70661 46/// /1205 10256 40189 53016 91200 22200 00269 10703 70017 333 91207
BBXX 41052 31121 99183 70648 46/// /0809 10268 40184 53019 91200 22200 00268 333 91212
BBXX 41053 31121 99185 70661 46/// /1105 10252 40187 91140 333 91206
BBXX 41053 31121 99185 70661 46/// /1105 10256 40188 91150 333 91207
BBXX 41052 31121 99183 70648 46/// /0909 10267 40182 91140 333 91212
BBXX 41052 31121 99183 70648 46/// /0908 10267 40183 91150 333 91210
BBXX 44150 31121 99425 70640 46/// /1508 10103 40230 57011 22200 00080 10803 70014 333 91209
BBXX 44139 31121 99442 70571 46/// /1301 10027 40318 52014 22200 00044 10905 70026 333 91202
BBXX C6KD9 31120 99234 70561 41498 41009 10235 20209 40288 51015 70111 81112 22214 02237 20802 331// 41003 5//// 80218
BBXX DDAC2 31120 99478 71441 41/96 /0513 10050 20028 49830 57000 7//66 8/770 22273 04100 2//// 329// 4//08 5//// 80040
BBXX A8PX5 31123 99387 71542 41597 82430 10120 20120 49970 57/// 79199 88/// 22229 04150 21014 325// 41212 5//// 80120
BBXX A8CN9 31120 99513 71334 41498 51303 10050 20003 40200 50/// 70211 83760 22273 21006 32727 41006 50905 80030
BBXX A8WP6 31124 99256 70656 41698 41217 00/// 10230 2020/ 40275 53010 70211 84/// 22273 00234 2//// 3//// 4//// 5//// 6//// 80220
BBXX WBWK 31123 99283 71424 41598 81710 10194 2013/ 40300 55004 7//22 886// 22252 0//// 2//// 332// 41205 5//// 6//// 80156 ICE /////
BBXX PCEO 31123 99274 70449 41297 41806 10220 20190 40316 52010 7//00 83564 22254 04236 20602 329// 40402 5//// 80200
BBXX C6FM8 31124 99252 70773 41898 13107 10210 20164 40220 54000 7//11 81000 22273 00250 20301 308// 40000 50000 6//// 80180 ICE /////
BBXX C6FV9 31123 99199 70812 41798 50628 10256 2024/ 40190 54/// 7//11 8287/ 22274 00270 20503 3//// 40704 5//// 6//// 80245 ICE /////
BBXX WFLH 31123 99234 71528 41/98 61509 10222 20162 40170 57005 75055 8//// 22214 00222 20402 332// 41404 5//// 6//// 80183 ICE /////
BBXX A8IP2 31123 99342 70407 41598 51106 10199 20160 40353 53/// 70322 8/47/ 22224 06200 20504 332// 40904 5//// 80174
BBXX PECF 31123 99281 70888 41498 10000 10210 20164 40205 52/// 70200 81100 22233 20000 30000 80180
BBXX NWS0021 31124 99322 70675 43/// /1608 10214 20198 40209 5//// 7//// 8//// 222// 04214 2//// 3//// 4//// 5//// 6//// 8//// ICE /////
BBXX NWS0020 31124 99262 70791 43/// /3108 10228 20148 40207 5//// 7//// 8//// 222// 04253 2//// 3//// 4//// 5//// 6//// 8//// ICE /////
BBXX NWS0003 31124 99539 71665 43/// /3200 11029 21113 40156 5//// 7//// 8//// 222// 0//// 2//// 3//// 4//// 5//// 6//// 8//// ICE /////
BBXX NWS0029 31124 99415 70707 43/// /1610 10116 20087 40138 5//// 7//// 8//// 222// 04068 2//// 3//// 4//// 5//// 6//// 8//// ICE /////
BBXX 44008 31121 99405 70692 46/// /1508 10134 20121 40152 57018 91150 22200 00120 10802 20602 320// 40801 70011 333 91209 555 11086 22095 31145 41509 61149 151078 155062 155050 153056 145074 144072
BBXX DDSD2 31123 99449 70147 41/95 82428 10150 20147 40260 54000 71055 88/// 22254 00133 21010 331// 40908 5//// 80148
AAXX 31121 40701 11658 50000 10014 21067 38589 40237 57021 60001 70521 85500 333 85635
AAXX 31121 40704 12665 72408 10060 21080 38602 40181 57014 60001 83320 81940 82640 87458
AAXX 31121 40708 12960 11407 10082 21050 38652 40163 58001 60001 81040 333 81359
AAXX 31121 40710 12680 63304 10042 21099 38313 40219 58012 60001 82970 333 82635 82936 86459
AAXX 31121 40713 11660 81103 10032 21008 38676 40218 55005 69921 70282 8532X 82935 83640 88459
AAXX 31121 40719 11540 63304 10124 20084 30182 40172 55006 60001 70521 81555 333 81625 85266
AAXX 31121 40731 12560 71202 10055 21005 38762 40234 57021 60001 84370 333 81930 83640 87460
AAXX 31121 40738 12560 32705 10132 20073 30209 40211 55002 60001 81130 333 81830 83360
AAXX 31121 40740 12965 01302 10062 21031 38751 40222 56007 60001 333
AAXX 31121 40747 11658 81706 10072 20007 38644 40214 55013 69901 78022 8632/ 333 83935 83640 87458
AAXX 31121 40757 12565 29902 10082 21024 38938 40247 57026 60001 82100 333 82830
AAXX 31121 40763 12965 12704 10084 21035 38964 40258 55007 60001 80001 333 81070
AAXX 31121 40782 11559 80302 10090 20006 38918 40249 58010 69921 706182 8632/ 333 81930 85635 88457
AAXX 31121 40783 12662 53002 10090 21066 38006 40207 51006 60001 82531 333 82640 83359
AAXX 31121 40789 12965 30000 10104 21042 39249 40245 56024 60001 81071 333 81360 83070
AAXX 31121 40798 12660 32505 10130 21069 37980 40222 56015 60001 81470 333 81640 83359
AAXX 31121 40818 12665 22809 10136 21034 37999 40201 55014 60001 81140 333 82360
AAXX 31121 40827 12970 02406 10144 21113 38872 40262 56019 60001 333
AAXX 31121 40836 12770 33105 10142 21077 38227 40215 57015 60001 81142 333 81850 83358
AAXX 31121 40851 12960 00000 10124 21141 38296 40233 57019 60001 333
AAXX 31121 40853 12965 02704 10122 21208 37772 40203 56007 60001 333
AAXX 31121 40854 12960 00702 10144 21062 38990 40207 57021 60001 333
AAXX 31121 40857 12960 33202 10214 20150 30193 40202 56018 60001 80002 222// 00196 20301 333 83070
AAXX 31121 40859 12962 00000 10156 21087 38744 40198 57023 60001 333
AAXX 31121 40878 12965 00406 10135 21135 38876 40237 56005 60001 333
AAXX 31121 40879 12962 02104 10190 21082 39524 40216 56012 60001 333
AAXX 31121 40883 12960 01305 10228 20026 30173 40196 56016 60001 222// 00208 20302 3333
AAXX 31121 40898 12960 02003 10246 20011 30170 40179 56013 60001 222// 00234 10400 333
AAXX 31124 86011 01670 73606 10258 20245 39935 40094 57014 60014 70262 85570 333 20238 5//// 69967 70012 85635 87457
AAXX 31124 86033 01207 80209 10242 20239 30007 40102 52015 60594 79592 889// 333 5//// 60567 70592 88604 81940
AAXX 31124 86065 NIL
AAXX 31124 86068 NIL
AAXX 31124 86086 01370 73603 10230 20199 39999 40089 52007 61054 70299 83576 333 20214 5//// 60757 71052 83610 84457 86270
AAXX 31124 86097 01570 73610 10228 20217 39464 40105 51013 60034 70262 81870 333 20220 57274 60017 70027 81827 87357
AAXX 31124 86128 NIL
AAXX 31124 86134 01430 81908 10240 20238 30011 40098 53019 60644 79596 8192/ 333 20238 50564 60207 70636 88515 81940
AAXX 31124 86170 02970 42402 10282 20235 39970 40074 52013 60024 80001 333 20224 50454 70016 84270
AAXX 31124 86185 32870 30000 10268 20241 39999 40091 52009 83070 333 20240 5//// 83457
AAXX 31124 86192 32970 40000 10274 20191 39887 40102 52004 84070 333 20230 5//// 84357
AAXX 31124 86210 02470 80502 10238 20225 39741 40080 54000 60164 885// 333 20225 50264 70155 88610
AAXX 31124 86218 32970 13202 10278 20235 39998 40092 52015 81030 333 20232 50384 81358
AAXX 31124 86221 32670 22702 10284 20235 39974 40106 52015 82100 333 20232 50384 82840
AAXX 31124 86233 32970 00000 10264 20211 39918 40105 51012 333 20220 5////
AAXX 31124 86234 31565 32704 10276 20237 39868 40048 51017 71011 83500 333 20215 50074 83630
AAXX 31124 86246 01370 73308 10242 20222 39807 40091 51013 60024 70222 86770 333 20204 5//// 70018 86708 87357
AAXX 31124 86251 32570 32304 10268 20177 39919 40085 53036 86800 333 20222 5//// 84633 82840
AAXX 31124 86255 32670 21804 10286 20167 30041 40107 51001 82220 333 20200 50704 82840
AAXX 31124 86260 32970 01702 10260 20183 39938 40088 52018 333 20217 50544
AAXX 31124 86268 32970 02502 10276 20189 39918 40079 52008 333 20210 5////
AAXX 31124 86285 32970 00000 10240 20193 39801 40091 52019 333 20194 50464
AAXX 31124 86297 32970 03305 10262 20215 39933 40035 52017 333 20200 50604
AAXX 31124 91945 36/// /0310 10268 20226 30131 40136 56014 333 10294
AAXX 31124 78988 01470 51313 10247 20230 30142 40153 52020 69961 78011 84260 333 10292 20237 59001 69947 70017 84816 83358
AAXX 31124 78990 01465 60914 10248 20227 30156 40163 52024 69931 78008 85801 333 10298 20229 58002 60007 70008 85816 83081
AAXX 31124 78873 020// /0811 10257 20213 30151 40196 52019 60001 8//// 333 10288 20231 59005 60007 70001
AAXX 31121 08521 32570 50204 10178 20079 30291 40362 52005 85800 333 83820
AAXX 31121 08524 32465 70603 10170 20089 30264 40363 52001 87800 333 83815 86630 91007 91107
BBXX 46207 31121 99509 71299 46/// /1104 10046 40227 52007 22200 00080 11106 70030 333 91207
BBXX 3ERR2 31124 99635 10053 41999 81720 10053 21030 49974 57032 70222 8807/ 22200 06098 11204 70021 333 91126
BBXX LF3F 31124 99643 10078 43/// /1323 10031 21057 40005 57028 91210 22200 04083 10705 70025 333 91129
BBXX LF3N 31124 99653 10073 41698 61524 10047 21030 49998 57030 70321 8313/ 22200 00089 10705 70024
BBXX LF4B 31124 99606 10037 47/96 /1537 10036 49969 57022 761// 22200 00053 10708 70042 333 91143
BBXX LF4C 31124 99584 10019 41393 82110 10084 20082 49974 52001 76064 886// 22200 00076 10604 70022 333 91130
BBXX LF5T 31124 99660 10081 41998 71722 10040 21043 40011 57025 70322 85/5/ 91210 22200 06078 10804 70021 333 91126
AAXX 31124 78988 01470 51313 10247 20230 30142 40153 52020 69961 78011 84260 333 10292 20237 59001 69947 70017 84816 83358
AAXX 31124 78990 01465 60914 10248 20227 30156 40163 52024 69931 78008 85801 333 10298 20229 58002 60007 70008 85816 83081
AAXX 31124 78873 020// /0811 10257 20213 30151 40196 52019 60001 8//// 333 10288 20231 59005 60007 70001
AAXX 31123 64800 NIL
AAXX 31123 64820 NIL
AAXX 31123 64860 32960 73202 10348 20065 39840 40106 80002 333 0//00 58008 87080
AAXX 31123 64861 NIL
AAXX 31123 64870 32560 70608 10298 20064 38912 48510 80002 333 0//00 58001 87080
AAXX 31123 64871 NIL
AAXX 31123 64892 NIL
AAXX 31123 64893 NIL
AAXX 31123 64894 NIL
AAXX 31124 64910 32460 62604 10304 20241 30109 40118 86300 333 0//00 59008 86816 82920 94945 95835
AAXX 31124 64911 NIL
AAXX 31124 64950 NIL
AAXX 31124 78988 01470 51313 10247 20230 30142 40153 52020 69961 78011 84260 333 10292 20237 59001 69947 70017 84816 83358
AAXX 31124 78990 01465 60914 10248 20227 30156 40163 52024 69931 78008 85801 333 10298 20229 58002 60007 70008 85816 83081
AAXX 31124 78873 020// /0811 10257 20213 30151 40196 52019 60001 8//// 333 10288 20231 59005 60007 70001
BBXX 46207 31121 99509 71299 46/// /1104 10046 40227 52007 22200 00080 11106 70030 333 91207
AAXX 31121 45032 36/// /9901 10153 20120 30212 40229 54000
AAXX 31121 45035 36/// /0903 10168 20117 30183 40225 54000
AAXX 31121 45039 36/// /1201 10148 20122 30213 40228 54000
AAXX 31121 45044 36/// /1105 10148 20128 30132 40228 54000
BBXX 3FZK3 31124 99489 71237 46/// /1401 10016 21024 40264 51040 7//// 8//// 22200 0//// 2////
BBXX 46001 31121 99563 71480 46/// /2606 11014 40082 53007 91150 22200 00041 10906 20503 300// 40906 70032 333 91208 555 11062 22064 31119 42510 61149 260060 240067 251070 249074 250071 252077
BBXX 46026 31121 99378 71228 46/// /1104 10100 40228 57004 91150 22200 00113 11605 20401 326// 41605 70025 333 91205 555 11041 22042 31054 42706 61149 111039 266035 260034 258036 260043 266048
BBXX 46042 31121 99368 71224 46/// /0206 10111 40215 50000 91150 22200 00123 11606 20502 331// 41606 70031 333 91207 555 11064 22067 31051 40112 61149 019061 019068 015080 011089 017094 013096
BBXX 9VVN 31124 99540 71398 41897 61512 10070 20030 40160 51010 70211 863// 22264 04060 2//// 3//// 4//// 5//// 6//// 80050
BBXX A8CN9 31120 99513 71334 41498 51303 10050 20003 40200 50/// 70211 83760 22273 21006 32727 41006 50905 80030
BBXX CG2958 31124 99519 71279 46/// /0406 10011 21002 40253 53028 7//// 8//// 22241 0//// 2////
BBXX CGBR 31124 99522 71286 46/// /0810 10015 20013 40241 53023 7//// 8//// 22262 00067 2////
BBXX CGBY 31124 99487 71235 46/// /2908 10044 21027 40270 51039 7//// 8//// 22200 0//// 2////
BBXX CGDR 31124 99487 71233 46/// /2209 10050 20013 40267 51041 7//// 8//// 22251 00106 2////
BBXX DDAC2 31120 99478 71441 41/96 /0513 10050 20028 49830 57000 7//66 8/770 22273 04100 2//// 329// 4//08 5//// 80040
BBXX DGDD 31121 99322 71331 41/97 71805 10160 20127 40230 5/000 70322 8//// 22224 04170 2//// 3//// 4//// 5//// 80140
BBXX WABS 31124 99471 71262 41598 31208 10072 20000 40265 50005 7//00 8383/ 22283 0//// 2//// 3//// 4//// 5//// 6//// 80044 ICE /////
AAXX 31124 87344 32560 23603 10266 20173 39589 40117 52016 82500 333 10267 20209 56600 82630
AAXX 31124 87349 32570 10000 10252 20169 39732 40113 52020 81100 333 10251 20188 30018 56000 81830
AAXX 31124 87371 32962 00905 10256 20155 30105 40126 52015 333 10279 20177
AAXX 31124 87374 32965 00902 10244 20167 30030 40116 52012 333 10262 20190
AAXX 31124 87395 32965 01406 10240 20184 30070 40114 52021 333 10250 20181
AAXX 31124 87418 32965 10000 10278 20130 39328 40088 52013 81070 333 10314 20222 56060 81360
AAXX 31124 87436 32970 03202 10280 20161 39326 40102 50017 333 10295 20187
AAXX 31124 87448 32965 00000 10258 20185 39572 40114 52013 333 10271 20158
AAXX 31124 87453 32965 03403 10264 20163 39636 40109 52012 333 10265 20192
AAXX 31124 87467 32970 00507 10266 20152 39985 40116 50005 333 10266 20146
AAXX 31124 87497 32965 00905 10243 20184 30096 40122 51009 333 10247 20180
AAXX 31124 87506 32970 02304 10216 20030 38602 48528 52008 333 10250 20128 95000
AAXX 31124 87509 32970 01403 10250 20126 39290 40111 57021 333 10272 20163 30015
AAXX 31124 87534 32960 00506 10268 20130 39962 40119 52007 333 10274 20173 30011
AAXX 31124 87548 32965 00207 10250 20163 30030 40124 52012 333 10256 20160
AAXX 31124 87576 32560 30508 10244 20171 30120 40143 52012 83500 333 10245 20177 56100 83625
AAXX 31124 87582 NIL
AAXX 31124 87585 32460 60504 10241 20192 30116 40145 53017 86800 333 10246 20214 30020 56200 85615 83825
AAXX 31121 34560 41397 73103 10000 21002 30002 40171 52007 70242 87600 333 87709
AAXX 31121 34720 41493 80501 10032 20029 30108 40148 56006 74254 886//
AAXX 31121 34730 41/01 90903 10025 20025 30062 40155 57005 74542
AAXX 31121 34740 41/92 91001 10022 20022 30066 40169 55005 74754
AAXX 31121 34824 41996 81702 10091 20046 30137 40142 55006 71022 8003/
AAXX 31121 34858 42997 20602 10081 20016 30060 40167 56005 80001
AAXX 31121 34866 41998 20602 10064 20027 30180 40171 55003 70144 8003/
AAXX 31121 34880 41496 80000 10028 20012 30199 40172 53002 71022 8672/ 333 88412
AAXX 31121 37018 42698 31604 10118 20035 30068 40142 57007 81131
AAXX 31121 37054 42998 31005 10085 21005 39783 40163 55004 80004
AAXX 31121 37472 42997 61102 10058 20028 30199 40176 55001 86074
AAXX 31121 22282 415// 81108 11048 21061 30024 40032 53006 78583 889//
AAXX 31121 22438 NIL
AAXX 31121 22471 41556 71904 10004 20001 39998 40022 51008 78588 86930 333 86924
AAXX 31121 22563 41350 81802 10006 20003 39991 40029 52011 77172 8872/ 333 86707
AAXX 31121 22641 41499 81601 10013 20005 39985 40001 52019 70282 885// 333 85713 91106
AAXX 31121 22695 41997 82303 11003 21009 39937 40090 52011 77187 8802/
AAXX 31121 22867 42598 71802 10010 21016 39958 40071 52007 83530 333 91106
AAXX 31121 22939 42597 61804 10008 21045 39906 40068 52010 85530 333 85630
AAXX 31121 22996 41495 81803 11026 21036 39991 40134 52003 77372 8472/
AAXX 31121 23324 41460 81402 11058 21065 30048 40127 52009 77172 885// 333 88617
AAXX 31121 27008 42698 71803 10005 21018 39898 40069 52009 86530
AAXX 31121 27051 42497 71602 10006 21008 39920 40086 52005 86530 333 86619
AAXX 31121 27225 42464 82403 10012 21017 39962 40093 52002 885// 333 88618
AAXX 31121 27252 41459 81803 11006 21012 39925 40113 52004 71072 885// 333 88619
AAXX 31121 27333 42480 82404 10010 21001 39945 40102 52006 887// 333 88713
AAXX 31121 27369 42968 81802 11029 21052 39999 40139 52005 8801/
AAXX 31121 27393 41498 81402 11058 21069 30009 40182 52003 70232 885// 333 91112
AAXX 31121 27479 42599 81704 11039 21058 30011 40148 58006 885// 333 88627
AAXX 31121 27532 41296 81901 11006 21012 39899 40114 52003 72272 8872/
AAXX 31121 27648 41395 81701 11018 21026 39958 40129 54000 77172 886// 333 88700
AAXX 31121 27675 42597 81403 11038 21053 39979 40153 54000 885// 333 88616
AAXX 31121 27679 41496 81504 11047 21057 39930 40159 53003 77372 8872/ 333 88511
AAXX 31121 28214 41999 81303 11060 21083 39981 40201 52006 70272 8805/
AAXX 31121 22165 NIL
AAXX 31121 22676 41482 81604 10011 21012 39983 40061 52009 70272 887//
AAXX 31121 22837 41461 81802 10014 21011 39975 40045 53012 78582 889// 333 86916
AAXX 31121 22954 42680 71804 10000 21014 39831 40081 52006 87500 333 87640
AAXX 31121 23405 41570 61502 11019 21021 39984 40084 52011 72682 83930
AAXX 31121 23412 41396 81303 11024 21030 30000 40097 52010 78587 883// 333 85708
AAXX 31121 23803 42999 81802 11011 21021 39969 40149 52002 8805/
AAXX 31121 27066 41498 81802 11012 21019 39936 40116 52006 72272 8655/ 333 86617
AAXX 31121 27083 41450 81803 11025 21028 39907 40133 52008 77172 8802/
AAXX 31121 27113 42960 72003 10008 21025 39931 40078 52009 87030
AAXX 31121 27242 42471 82802 10011 20006 39972 40100 52004 889// 333 88713
AAXX 31121 27329 42681 81901 10008 21003 39981 40107 51001 885//
AAXX 31121 27355 41496 81803 11020 21026 39962 40129 52009 71072 885//
AAXX 31121 27373 41599 82006 11041 21075 39922 40145 52002 70252 885// 333 88620 93402
AAXX 31121 27665 42497 81401 11032 21053 39871 40147 53002 886// 333 88712
AAXX 31121 27835 41450 82001 11010 21023 39977 40138 51001 71022 886// 333 88711
AAXX 31121 28009 41465 81904 11034 21045 39954 40168 54000 78583 889//
AAXX 31121 28411 41597 81603 11069 21098 30022 40224 58003 77172 885//
AAXX 31121 28418 42599 81504 11062 21107 30054 40227 58006 885// 333 88625
AAXX 31123 87480 32965 00704 10263 20179 30094 40123 52017 333 10265 20189
AAXX 31123 87532 32965 01402 10249 20182 39952 40117 51013 333 10270 20204
AAXX 31121 45032 36/// /9901 10153 20120 30212 40229 54000
AAXX 31121 45035 36/// /0903 10168 20117 30183 40225 54000
AAXX 31121 45039 36/// /1201 10148 20122 30213 40228 54000
AAXX 31121 45044 36/// /1105 10148 20128 30132 40228 54000
BBXX BAREU56 31124 99430 10086 46/// ///// 40167 57021 22262
BBXX BAREU63 31124 99322 10199 46/// ///// 10161 29066 40112 57009 22251
BBXX BAREU08 31124 99449 70147 46/// ///// 40261 52004 22254
BBXX BAREU05 31124 99381 70146 46/// ///// 40379 52002 22234
BBXX BATFR02 31124 99498 70005 46/// /2528 10117 20104 40155 50011 22244 00119
BBXX BATFR04 31124 99551 70058 46/// /2330 10117 20089 49994 58005 22232 00100
BBXX BATFR09 31124 99380 70097 44897 30022 10144 20089 40341 58001 70211 83400 22283 00170
BBXX BATFR03 31124 99497 70011 46/// /2618 10124 20117 40155 22273
BBXX BATFR15 31124 99461 70141 44597 82419 10179 20139 40238 58017 70011 888// 22214 00137 21002 315// 41504 5////
BBXX BATEU01 31124 99461 70147 44/97 82433 10154 20132 40213 58006 70222 8//// 22254 00139 22102 322// 41004 5////
BBXX BATEU08 31124 99588 70099 46/// /2436 10099 20069 49846 55001 22223
BBXX BATFR21 31124 99429 10084 46/// /2316 20349 40165 22273
BBXX BATFR46 31124 99431 10046 44/97 02828 10142 20102 40197 56006 701// 22263 00142
BBXX 61001 31124 99434 10078 46/// /1107 10133 20057 40162 57010 22200 00143 10803 70013
BBXX BATEU05 31124 99626 70045 46/// /2025 10069 49819 58032 22272
BBXX BATUK01 31124 99560 70032 46/// /2305 10115 20070 49987 58020 22200 00057
BBXX 61002 31124 99421 10047 46/// ///24 10142 2//// 40224 57006 22200 00133 10706 70030 555 1/030
BBXX BAREU04 31124 99381 70734 46/// ///// 40133 57009 22213
BBXX BATFR13 31124 99300 70450 44498 61114 10219 20172 40332 51009 70311 863// 22254 00230 329// 41204 5////
BBXX PHQX 31123 99183 70589 41497 20908 10259 20212 40208 52010 70200 82201 22254 20403 3//// 4//04 5//// 80226
BBXX 41101 31124 99146 70562 46/// /0722 10265 20216 40168 52024 22200 00269 10806 70030 555 1/028
BBXX FVNM 31124 99115 70809 46/// /0519 10274 20234 40130 53014 22281 00274
BBXX PCEO 31123 99274 70449 41297 41806 10220 20190 40316 52010 7//00 83564 22254 04236 20602 329// 40402 5//// 80200
AAXX 31124 60107 32965 23604 10180 20031 4030/ 58007 80002 333 82070 95300
AAXX 31124 60101 32460 22307 10154 20097 40335 56008 82500 333 82616
AAXX 31124 60115 32970 02215 10149 20049 40302 56014
AAXX 31124 60135 32558 20303 10156 20086 40329 56009 82500 333 82620
AAXX 31124 60156 17960 00606 10145 20056 40337 56007 60001 70010
AAXX 31124 60230 15942 03503 10172 20012 40314 56008 60001
AAXX 31124 60252 32960 00504 10190 20020 40314 58010 333 95800
BBXX IDDUK02 31124 99528 50401 46/// ///// 49911 222//
BBXX BATFR53 31124 99180 51327 46/// /1010 10247 20202 40142 56010 22222 00262
AAXX 31121 08579 32/// /2403 10147 20092 30213 40339 57006 333 91006 91106
BBXX BAREU61 31124 99046 70017 46/// /3018 10263 29083 40126 57018 22224
BBXX BATFR45 31124 99072 10564 46/// ///// 10277 20210 40122 56014 22254 00289
BBXX BATFR08 31124 99210 30551 44597 33110 10277 20234 40112 702// 831// 22253 00280 21502 330// 415// 5////
BBXX BATFR19 31124 99064 30055 46/// /1909 10257 20190 40147 58007 22282 00259
AAXX 31124 60395 12660 62202 10144 20091 40286 58012 60001 86200 333 86840 95900
AAXX 31124 60421 12560 63010 10092 20050 39213 48558 58009 60001 84204 333 0//00 84830 85070 95900
AAXX 31124 60423 12665 73018 10086 20064 39265 48528 50002 60001 878// 333 83833 86640 95900
AAXX 31124 60430 12458 72610 10082 20061 40311 58006 60001 878// 333 0//00 82816 86823 95960
AAXX 31124 60437 11456 72604 10060 20051 39069 48561 58005 60001 70142 872// 333 82713 86820 95960
AAXX 31124 60444 12565 20000 10113 20036 39173 48576 58007 60001 82200 333 82830 95900
AAXX 31124 60452 12965 0//// 10157 20077 40298 56015 60001 222// 20000 333 91826
AAXX 31124 60457 12965 03506 10153 20067 40304 58006 60001 333 95900
AAXX 31124 60514 12560 13008 10100 20042 39375 48596 58010 60001 81500 333 0//00 81626 95900
AAXX 31124 60518 12965 12404 10173 20071 40290 58007 60001 80002 222// 20000 333 0//00 81073 91807 95900
AAXX 31124 60520 12970 12306 10143 20034 40293 58013 60001 80001 333 81073 95900
AAXX 31124 60540 12960 22611 10075 20017 39114 48567 58012 60001 80002 333 82073 95900
AAXX 31124 60560 12670 00000 10106 21035 39060 48595 58008 60001 333 95900
AAXX 31121 14235 12970 0//// 10010 21086 39003 48453 57011 60001 333 70002
AAXX 31121 14246 12981 11603 10057 21007 39968 40174 57018 60001 81030 333 70000
AAXX 31121 14314 12984 00303 10100 21062 30113 40177 58004 60001 333 70004 92311 92418
AAXX 31121 14323 12982 11303 10110 21040 30147 40181 50008 60001 80002 333 70000 92322 92428
AAXX 31121 14324 12380 30904 11041 21124 38367 48473 58006 60001 82602 333 70000
AAXX 31121 14328 12760 10000 10063 21031 39783 40181 58011 60001 81102 333 70000
AAXX 31121 14330 12982 12101 10040 21042 39503 40179 57013 60001 81030 333 70009
AAXX 31121 14438 12684 10104 10101 21063 30067 40158 53001 60001 81100 333 70014 92322
AAXX 31121 14443 32698 234// 10104 200660 30056 40155 52004 82100 333 70046 92334
AAXX 31121 14447 12684 10102 10116 21040 30122 40153 54000 60001 81200 222// 00153 333 70047 92312
AAXX 31121 14472 12970 00306 10111 21098 30059 40124 52017 60001 222// 00155 333 70173 92312
AAXX 31124 60353 12565 62814 10158 20101 40256 58023 60001 83280 333 0//00 83820 86359 91857 95900
AAXX 31124 60367 11560 6//// 10157 20123 40263 51003 60041 70261 82130 333 0//12 82820 85360
AAXX 31124 60369 12560 33308 10171 20025 40284 58018 60001 81282 333 0//00 81826 91837
AAXX 31124 60401 NIL
AAXX 31124 60403 11565 62812 10146 20064 40264 58012 60001 84230 333 0//00 81830 84836 95950
AAXX 31124 60425 12557 22410 10138 20089 40309 58010 60001 82102 333 0//00 82826 95990
AAXX 31124 60461 12970 02004 10170 20059 40300 58011 60001 222// 20000 333 91808 95900
AAXX 31124 60467 12660 22818 10118 20064 40300 58007 60001 81230 333 0//00 81833 95900
AAXX 31124 60492 12965 01808 10149 20092 40308 58007 60001 333 95900
AAXX 31124 60515 12560 12314 10126 20050 40292 58014 60001 81200 333 0//00 81820 95900
AAXX 31124 60517 12960 03402 10152 20082 40308 58013 60001 333 0//00 95900
AAXX 31124 60522 12970 12110 10143 20026 40319 58011 60001 80001 333 0//00 81073 95900
AAXX 31124 60557 12975 10000 10074 20017 38964 48595 58008 60001 80001 333 81073 95900
AAXX 31124 60563 12960 00112 10110 20019 39392 48583 58009 60002
AAXX 31124 60603 12960 03604 10142 20014 40309 57022 60001 333 0//00
AAXX 31124 60638 12960 0//// 10145 20019 40288 58021 60001 333 0//00
AAXX 31124 60686 11910 00828 10201 21072 40215 57015 60001 70700 333 0//00
AAXX 31121 60370 36/// /2705 10160 20079
AAXX 31121 60371 36/// /2004 10155 20080
AAXX 31121 60372 36/// /2707 10131 20080
AAXX 31121 60373 NIL
AAXX 31121 60374 NIL
AAXX 31121 60376 NIL
AAXX 31121 60379 NIL
AAXX 31121 60380 NIL
AAXX 31121 60381 NIL
AAXX 31121 60393 NIL
AAXX 31121 60394 NIL
AAXX 31121 60593 NIL
AAXX 31121 60595 NIL
AAXX 31121 60605 NIL
AAXX 31121 60613 NIL
AAXX 31121 60623 NIL
AAXX 31121 60624 NIL
AAXX 31121 60639 NIL
AAXX 31124 60645 36/// /0000 10174 21005
AAXX 31124 61017 31915 70420 10228 21009 39780 40189 70722 80008 333 0//00 58037 87280
AAXX 31124 61024 31958 21019 10264 21064 39594 40159 70711 80002 333 0//00 58010 82080
AAXX 31124 61036 32965 71406 10282 20014 39906 40145 80008 333 0//00 59009 87280
AAXX 31124 61043 32960 70812 10300 21068 39696 40134 80008 333 0//00 59003 87280
AAXX 31124 61045 32960 70408 10265 21055 39659 40157 80008 333 0//00 58027 87280
AAXX 31124 61049 32960 70806 10275 21018 39821 40140 80008 333 0//00 58021 87280
AAXX 31124 61052 32965 51006 10292 21027 39893 40151 80002 333 0//00 59002 85080
AAXX 31124 61075 32960 31006 10304 20026 39832 40140 80002 333 0//00 58007 83080
AAXX 31124 61080 32960 71006 10284 20028 39736 40155 80008 333 0//00 58019 87280
AAXX 31124 61090 32965 70408 10270 21080 39655 40164 80008 333 0//00 58034 87280
AAXX 31124 61091 32965 50804 10284 20080 39707 40162 80002 333 0//00 58027 85080
AAXX 31124 61096 32960 73606 10295 20020 39765 40144 80008 333 0//00 58016 87280
AAXX 31124 61099 32965 70410 10315 20032 39900 40128 80008 333 0//00 58006 87280
AAXX 31121 08501 32/// /2206 10189 20138 30280 40316 54000 333 91011 91112 555 50004 60005
AAXX 31121 08505 32368 72206 10178 20158 30297 40347 50008 86832 333 82708 83812 85630 555 50004 60007
AAXX 31121 08506 32/// /2204 10174 20156 30280 40353 52011 333 91010 91111 555 50004 60005
AAXX 31121 08509 32560 72605 10182 20137 30274 40338 55001 84871 333 82820 83640 86357 91013 91117 555 50004 60007
AAXX 31121 08511 32565 72503 10172 20172 30246 40355 52008 86840 333 83707 86820 91006 91106 555 50004 60005
AAXX 31121 08512 NIL
AAXX 31121 08515 NIL
AAXX 31121 08521 32570 50204 10178 20079 30291 40362 52005 85800 333 83820 555 50004 60007
AAXX 31121 08522 32/// /9902 10183 20078 30290 40360 54000 555 50004 60005
AAXX 31121 08524 32465 70603 10170 20089 30264 40363 52001 87800 333 83815 86630 91007 91107 555 50004 60005
AAXX 31121 08530 NIL
AAXX 31121 08531 32/// /0501 10136 20102 30310 40349 57002 555 50004 60005
AAXX 31121 08532 NIL
AAXX 31121 08533 32/// /0207 10145 20083 30308 40337 57004 333 91011 91111 555 50004 60005
AAXX 31120 08534 32970 09901 10142 20084 30324 40341 58003 555 50004 60007
AAXX 31121 08535 32/// /0103 10156 20098 30246 40340 57007 333 91006 91107 555 50004 60005
AAXX 31121 08537 NIL
AAXX 31121 08540 32560 50101 10122 20093 30275 40345 58001 85501 33385625 555 50004 60007
AAXX 31121 08541 NIL
AAXX 31121 08544 32960 73602 10134 20086 30321 40341 58004 87500 333 87622 555 50004 60007
AAXX 31121 08545 31456 71102 10105 20049 30262 40347 57006 71022 86802 222// 00145 333 82811 85625 91105 555 50004 60005
AAXX 31121 08548 32/// /9901 10110 20055 30136 40346 57004 555 50004 60005
AAXX 31121 08551 NIL
AAXX 31121 08554 32970 01302 10166 20081 30322 40332 57008 555 50004 60005
AAXX 31121 08558 32/// /3502 10128 20058 30032 40330 57005 555 50004 60005
AAXX 31121 08560 32/// /3102 10114 20045 39570 40333 57004 555 50004 60005
AAXX 31121 08561 32970 23202 10106 20063 30098 40336 58008 80001 333 82072 555 50004 60007
AAXX 31121 08562 32/// /9902 10112 20052 30031 40329 57007 555 50004 60005
AAXX 31121 08567 32/// /9901 10094 20033 39666 40340 57010 555 50004 60005
AAXX 31121 08568 32/// /3005 10103 20067 38755 48624 57002 333 91109 555 50004 60005
AAXX 31121 08570 NIL
AAXX 31121 08571 32/// /3301 10114 20029 39617 40326 57002 555 50004 60005
AAXX 31121 08575 32/// /1602 10071 20016 39504 40331 57011 555 50004 60005
AAXX 31121 08579 32/// /2403 10147 20092 30213 40339 57006 333 91006 91106 555 50004 60005
AAXX 31120 44203 NIL
AAXX 31120 44207 NIL
AAXX 31120 44212 329// 50000 11322 21352 39297 40608 52017 80007 333 11262
AAXX 31120 44213 12999 00000 11306 21334 38912 40601 52010 69942 333 11219 555 93100
AAXX 31120 44215 32998 52704 11131 21213 38495 40432 52023 80008 333 11090
AAXX 31120 44218 329// 02201 11219 21251 38700 40503 52020 333 11162 91108
AAXX 31120 44225 NIL
AAXX 31120 44230 NIL
AAXX 31120 44232 329// 80000 11218 21244 39162 40403 52004 8802/ 333 11218 555 99600
AAXX 31120 44237 32999 70000 11082 21163 38519 40311 53018 87010 333 11076
AAXX 31120 44239 326// 71601 11152 21186 38824 40330 56004 87500 333 11142 555 99601 99805
AAXX 31120 44241 329// 71802 11215 21240 39316 40390 57013 87010 333 11206
AAXX 31120 44256 12999 00000 11245 21257 39455 40412 51005 69902 333 11168 555 93100
AAXX 31120 44265 329// 30000 11172 21198 38973 40485 53006 82044 333 11114
AAXX 31120 44272 NIL
AAXX 31120 44275 NIL
AAXX 31120 44282 32999 83404 11047 21196 38311 40277 52005 8802/ 333 11017
AAXX 31120 44284 NIL
AAXX 31120 44285 32899 60000 11168 21208 38334 40382 51001 84047 333 11114
AAXX 31120 44287 NIL
AAXX 31120 44294 329// 03301 11243 21273 38626 40495 52010 333 11112
AAXX 31120 44298 329// 01405 11195 21195 38786 40427 52012 333 11177
AAXX 31120 44302 329// 02703 11268 21296 39218 40481 53012 333 11184
AAXX 31120 44305 32999 03201 11220 21247 39148 40423 51009 333 11137
AAXX 31120 44313 11999 53603 11250 21281 39482 40416 52024 69932 70272 85080 333 21191 555 93100
AAXX 31120 44314 NIL
AAXX 31120 44317 119// 80000 11194 21220 39025 40420 52017 69942 77072 8802/ 333 11132 555 93100
AAXX 31120 44336 329// 50801 11184 21215 38729 40418 58003 80003 333 11123
AAXX 31120 44341 329// 30000 11161 21200 38656 40416 53002 80004 333 11099
AAXX 31120 44347 32999 00000 11114 21186 38758 40349 56008 333 11036
AAXX 31120 44352 32999 00000 11199 21218 39001 40416 51001 333 11151
AAXX 31120 44358 329// 00503 11183 21202 39171 40416 52012 333 11100
AAXX 31121 40700 NIL
AAXX 31121 40723 12960 00000 10100 21091 38934 40229 54000 60001 333
AAXX 31121 40726 11660 82006 10036 21004 38661 40212 58009 69971 70272 8352/ 333 83635 88458
AAXX 31121 40727 11650 80305 10014 20009 38490 40245 57014 60021 77072 8552/ 333 85645 88559
AAXX 31121 40734 12968 31006 10116 20074 30194 40168 57016 60001 83030 333 83359
AAXX 31121 40737 12965 10000 10132 20060 30168 40187 57010 60001 81030 333
AAXX 31121 40741 12960 01009 10108 21016 39896 40241 57021 60001 333
AAXX 31121 40780 11458 81502 10048 20039 38707 40215 57023 60041 76362 8472/ 333 84715 88557
AAXX 31121 40791 12965 30000 10130 21063 39395 40236 57025 60001 80002 333 83067
AAXX 31121 40792 12970 32702 10122 21101 38762 40243 56012 60001 80002 333 83070
AAXX 31121 40794 11660 80000 10180 20057 30112 40211 57021 69941 70262 8432/ 91145 333 81935 83640 88458
AAXX 31121 40812 12660 60000 10178 20021 39820 40199 57018 60001 82570 333 82640 86360
AAXX 31121 40829 12962 03002 10150 21078 39647 40230 56010 60001 333
AAXX 31121 40833 12660 52202 10234 20009 30180 40212 57022 60001 82402 333 82640 83070
AAXX 31121 40835 12970 50000 10204 21126 39374 40214 57016 60001 82036 333 82362 84268
AAXX 31121 40845 12960 10000 10198 20082 30195 40200 57019 60001 80001 91145 333
AAXX 31121 40882 12960 11204 10238 20025 30159 40194 56017 60001 80001 333 81070
AAXX 31121 40889 12960 00707 10230 20215 30196 40201 55015 60001 222// 00246 20503 333
AAXX 31121 40890 12962 00706 10236 20053 30183 40190 56014 60001 222// 00234 20403 333
AAXX 31121 40893 12960 01806 10242 20077 30185 40191 56012 60001 222// 00200 20501 333
AAXX 31121 40897 15960 01705 10246 21013 30169 40183 56015 60001 333
AAXX 31120 44214 32698 52705 11146 21221 38362 40475 52020 83850 333 11097
AAXX 31120 44231 NIL
AAXX 31120 44259 12997 02903 11208 21232 39426 40422 51011 69962 333 11163 555 93101
AAXX 31120 44277 115// 83403 11118 21131 37841 40423 52006 69952 77372 8852/ 333 11048
AAXX 31120 44288 32699 63402 11105 21201 38181 40355 53001 84570 333 11039
AAXX 31120 44292 NIL
AAXX 31120 44304 329// 12703 11293 21324 39092 40472 52006 81040 333 11193
AAXX 31120 44354 329// 00000 11172 21206 39195 40409 52008 333 11159
AAXX 31120 44373 32999 00201 11135 21186 38574 40365 58005 333 11019
BBXX C6SI6 31124 99426 11471 46/// /3520 10023 21015 40167 53008 7//// 8//// 22212 0//// 2////
BBXX DPRB 31121 99304 11226 41/97 /0202 10090 20038 40280 54000 70211 8//// 22200 20302 304// 40403 5//// 80065
BBXX PDWT 31123 99305 11301 41598 59903 10140 20064 40240 54000 70000 848// 22253 04200 20201 33500 40101 5//// 80100
BBXX UBSF2 31120 99455 11422 42/98 61407 1100 40329 55021 70000 8//// 22233 00000 2////
BBXX UFLC 31120 99547 11474 42398 80108 11076 40275 54000 8712/ 22213 06012 20402
AAXX 31121 50844 32962 00201 11190 21226 40333 52010
AAXX 31121 50854 32962 00703 11186 21230 40319 52011
AAXX 31121 50968 32962 02501 11213 21240 40305 52007
AAXX 31121 51379 11765 71801 11111 21131 40526 52009 69951 77077 875// 333 01405
AAXX 31121 51467 32980 03403 11028 21196 38367 52022 333 00704
AAXX 31121 51495 32980 73613 11023 21138 40408 52015 82032 333 00305 91126 91536
AAXX 31121 53480 32980 02701 11104 21177 40390 52007
AAXX 31121 53673 31920 72201 11070 21084 40346 52008 71040 80002
AAXX 31121 53698 31950 63401 11013 21037 40307 52015 71000 80002
AAXX 31121 53898 31920 70401 11024 21034 40306 52014 71000 8703/
AAXX 31121 54308 32980 03205 11063 21180 40331 52011
AAXX 31121 54602 31956 51601 11045 21060 40299 52010 71000 80002
AAXX 31121 54725 31950 82901 11004 21023 40303 52014 71000 80007
AAXX 31121 54751 31950 72905 10005 21038 40283 52008 71000 8703/
AAXX 31121 54916 31958 20000 10007 21017 40293 52011 71000 80002
AAXX 31121 57014 32970 02901 11009 21044 40330 52018 333 05253
AAXX 31121 57025 31957 03603 10003 21038 40319 52015 71000
AAXX 31121 57046 32962 02905 11042 21057 37986 52008 333 05151
AAXX 31121 58208 31958 00401 10030 20014 40282 52010 71000
AAXX 31124 71701 11564 80000 11066 21088 30170 40234 56008 69941 76887 885// 333 11048 21119 41997 70004 90936
AAXX 31124 68386 36/// /1503 10267 20204 39695 48631 58001 333 10276 20181 91005 555 91023
AAXX 31121 48820 01597 80901 10148 20114 30216 40224 53006 69904 70262 888// 333 00015 10151 58012 69902 7999 9 85895 88697
AAXX 31124 89022 41250 83307 11022 21039 39830 49867 52017 77072 87011 333 11022 21061 87402
AAXX 31124 89062 42682 70103 10026 21069 39710 49750 52022 8657/ 333 10027 20017 81540 86556
AAXX 31124 43466 22970 02304 10283 20209 30080 40092 333 00012 10315 58009 60007
AAXX 31124 71701 11564 80000 11066 21088 30170 40234 56008 69941 76887 885// 333 11048 21119 41997 70004 90936
AAXX 31121 48823 01696 83202 10142 20120 30213 40216 53001 69914 71022 885// 333 00015 10144 58002 69912 7000 1 88696
AAXX 31121 23914 41498 81805 11047 21053 39924 40187 52003 72272 8577/
AAXX 31121 23921 42998 80000 11055 21066 30070 40192 52007 8807/
AAXX 31121 23955 11684 82303 11061 21072 30201 40264 52025 69902 70282 883// 333 11060
AAXX 31121 23966 11499 82201 11074 21091 30116 40246 52030 69972 70282 889// 333 11052
AAXX 31121 28138 42998 72102 11080 21086 39653 40243 52004 87030
AAXX 31121 28224 41998 71602 11071 21096 30008 40229 52003 70175 80008
AAXX 31121 28255 42594 82402 11032 21068 30126 40258 52015 885// 333 88628
AAXX 31121 28440 42597 71702 11049 21139 39912 40273 52005 85506
AAXX 31121 28645 42997 62001 11058 21154 30003 40310 52006 80001
AAXX 31121 28661 42994 62104 11088 21137 30226 40323 52014 80001
AAXX 31121 28722 42997 71803 11072 21136 30128 40265 57009 82031
AAXX 31121 28748 42960 02002 11094 21170 30082 40335 52005
AAXX 31121 28838 42997 21903 11115 21150 39837 40343 57003 80002
AAXX 31121 29231 11596 72402 11060 21068 30201 40300 52023 69952 78582 87900 333 10049
AAXX 31121 29313 11498 82103 11065 21077 30182 40309 52017 69902 70282 885// 333 11059 88616
AAXX 31121 29612 11998 21803 11096 21108 30183 40342 52015 69902 70281 82030 333 11062
AAXX 31121 29638 11598 62104 11069 21094 30193 40365 52024 69942 72682 86900 333 11058
AAXX 31121 29838 11596 72002 11063 21079 30144 40387 52015 69962 77187 87500 333 11052
AAXX 31121 29846 11450 82204 11063 21070 39985 40386 52018 69962 78582 889// 333 11052 86713
AAXX 31121 36061 11598 80000 11075 21081 39989 40416 52010 69932 70282 84501 333 11040
AAXX 31124 87016 NIL
AAXX 31124 87078 32970 40000 10288 20204 39945 40091 52009 80006 333 10300 20225 56002 84270
AAXX 31124 87244 01568 70000 10231 20186 39736 40121 5//// 69904 70152 85720 333 10291 2//// 56440 69902 85722 84525
AAXX 31124 87393 32970 01106 10254 20194 30042 40105 52017 333 10254 20167
AAXX 31124 87416 32665 11802 10252 20141 39381 40097 52017 81100 333 10294 20209 30019 56600 81845
AAXX 31124 87563 32965 03604 10233 20176 30081 40124 53019 333 10261 20137
AAXX 31124 87640 32965 03608 10217 20145 30025 40133 52014 333 10278 20138 30012
AAXX 31124 87688 32965 03612 10250 20144 30005 40138 52013 333 10250 20170
AAXX 31124 87774 NIL
AAXX 31124 87852 32984 72315 10170 20098 39676 40171 56009 84074 333 10212 20136 56000 84360 84070
AAXX 31124 87593 32560 50910 10224 20175 30116 40143 50/// 85200 333 10230 20175 56200 57899 85820
AAXX 31124 87623 31950 00000 10261 20189 39905 40122 52011 70500 333 10272 20170
AAXX 31124 87641 32965 03607 10214 20172 39976 40145 52009 333 10282 20149 30014
AAXX 31124 87645 31470 10211 10219 20174 39950 40151 52012 70141 81100 333 10249 20156 56100 81813
AAXX 31124 87648 32560 53610 10225 20174 30146 40156 52023 85100 333 10235 20172 56800 85825
AAXX 31124 87692 32460 20213 10224 20173 30141 40166 52008 82101 333 10224 20140 56807 82815
AAXX 31124 87715 32965 00902 10266 20094 39794 40098 52013 333 10285 20138
AAXX 31124 87750 32962 02703 10240 30030 40126 50012 333 10240 20138
AAXX 31124 87765 31959 03203 10175 20087 39186 48505 50003 70400 333 10253 20100 96104 96120
AAXX 31124 87784 32980 23208 10300 20086 30100 40122 54000 80002 333 10301 20256 56007 82070
AAXX 31124 87791 31980 22907 10250 20169 30114 40123 50004 70240 80001 333 10250 20145 56006 82070
AAXX 31124 87800 31680 30000 10192 20142 39757 40142 52016 70410 83500 333 10275 20115 56700 83645 96104
AAXX 31124 87803 32980 20000 10183 20053 39222 40107 52003 80005 333 10245 20144 56000 82070
AAXX 31124 87828 32980 10000 10276 20086 30060 40109 52013 80001 333 10288 20173 30016 56004 81070
AAXX 31124 87860 32980 62710 10252 20112 30045 40097 51007 80006 333 10314 20208 56005 86270
AAXX 31124 87904 31680 83602 10130 20049 39842 40083 5//// 702// 83670 333 10158 20120 56660 83735 85360
AAXX 31124 87909 NIL
AAXX 31124 87925 32980 73206 10113 21009 30074 40097 51011 85076 333 10160 20030 56069 85360
AAXX 31124 87938 01580 52515 10088 20027 39961 40030 52016 69974 71521 85800 333 10095 20056 56500 69922 85830
AAXX 31123 NIL
AAXX 31123 87896 32980 61118 10156 20116 30018 40111 5//// 80006 333 10289 2//// 56006 86270
AAXX 31123 87007 01267 72702 10100 20072 36757 47163 52011 60194 72166 83625 333 10141 20075 56000 60171 83705
AAXX 31121 34357 42598 82001 10013 21003 39998 40155 55001 885//
AAXX 31121 34363 41/92 91801 11002 21002 30007 40162 54000 75654 333 93403 96045
AAXX 31121 34545 42296 82102 10009 20005 30054 40167 53004 886//
AAXX 31121 34579 41596 82301 10013 20003 30127 40172 53002 71022 8850/
AAXX 31121 34838 42997 80102 10086 20029 30054 40149 56011 80004
AAXX 31121 34927 42997 80902 10104 20006 30110 40146 56011 80001
AAXX 31121 34949 42998 61304 10080 21016 39616 40155 55005 80001
AAXX 31121 37001 42997 51805 10103 20072 30092 40132 56012 80032
AAXX 31121 37031 42997 81202 10093 20001 39955 40148 56010 80004
AAXX 31121 37061 42597 71301 10091 20011 30004 40168 55008 82101
AAXX 31121 37085 41998 53503 10059 20028 30200 40227 57006 70262 8000/
AAXX 31121 37126 42999 60702 11010 21162 37896 48466 57002 82031
AAXX 31121 37171 42998 51303 10133 20002 30126 40144 57009 80001
AAXX 31121 37228 42999 02902 10080 21044 39324 40147 58013
AAXX 31121 37470 42998 61302 10079 20026 30201 40178 53009 80001
AAXX 31121 37663 42999 00906 10077 21107 38986 48470 53010
AAXX 31124 87022 11560 42708 10264 20219 39583 40076 52007 62104 70296 81208 333 10266 20195 56909 81830
AAXX 31121 23909 41498 72004 11029 21036 39915 40165 54000 73673 875//
AAXX 31121 28044 42597 81902 11035 21059 30043 40210 52004
AAXX 31121 28116 41598 81603 11051 21072 39955 40193 52001 70287 889//
AAXX 31121 28240 42598 82201 11059 21104 39919 40252 52010 885//
AAXX 31121 28522 NIL
AAXX 31121 28621 42998 71605 11084 21142 30001 40244 57013 82032
AAXX 31121 28719 42999 723// 11110 21172 39803 40266 57005 82032
AAXX 31121 29023 11496 82603 11069 21086 30173 40273 52027 69942 78582 883// 333 11064 87710
AAXX 31121 29122 11597 82104 11065 21081 30212 40288 52026 69922 78582 8535/ 333 11059 85921
AAXX 31121 29328 11998 82203 11065 21089 30187 40331 52028 69902 70282 8805/ 333 11040
AAXX 31121 29348 11496 72103 11067 21087 30178 40328 52024 69922 78583 87900 333 11040 85710
AAXX 31121 29405 11597 52002 11096 21104 30166 40320 52023 69902 70282 82301 333 11063
AAXX 31121 29418 12498 82203 11066 21090 30163 40328 52015 69902 8697/ 333 11062
AAXX 31121 29430 11498 82301 11074 21087 30157 40340 52019 69942 70282 885// 333 11048 88618
AAXX 31121 29524 11497 81903 11088 21103 30173 40344 52022 69922 78582 889// 333 11052
AAXX 31121 29605 32998 32302 11113 21119 30184 40334 52017 83030 333 11075
AAXX 31121 29631 11597 62204 11074 21087 30166 40360 52022 69952 70282 86900 333 11064
AAXX 31121 29645 11596 81702 11063 21078 30167 40361 52021 69942 78582 87901 333 11047 87920
AAXX 31121 29706 32698 82404 11092 21103 30198 40352 52018 85501 333 11070
AAXX 31121 29736 11498 62402 11069 21090 30112 40373 52018 69942 70283 82401 333 11053
AAXX 31121 29937 11597 82104 11059 21082 30169 40399 52017 69942 70282 885// 333 11051
AAXX 31121 36034 11596 82305 11064 21080 30121 40408 52016 69922 78583 889// 333 11046 85925
AAXX 31121 36096 11997 52401 11241 21267 39652 40518 52014 60012 70272 80001 333 11203
AAXX 31121 28049 42997 61805 11046 21056 30057 40225 51009 86030
AAXX 31121 28144 42498 82203 11038 21061 30071 40233 52006 8531/
AAXX 31121 28319 42499 81302 11070 21108 30063 40234 54000 8557/
AAXX 31121 28321 42599 81404 11080 21107 30014 40225 52003 8553/
AAXX 31121 28334 42498 71901 11075 21115 39941 40261 58001 83470
AAXX 31121 28434 42998 82501 11088 21132 39994 40263 57003 80007
AAXX 31121 28552 42598 50000 11074 21136 30188 40306 52011 82502
AAXX 31121 28666 42999 71904 11115 21151 30146 40332 52020 80002
AAXX 31121 28825 42997 72004 11050 21147 30100 40278 57007 80001
AAXX 31121 29111 11498 82204 11057 21075 30197 40287 52024 69922 70282 889// 333 11053 88915
AAXX 31121 29209 11598 82001 11062 21071 30168 40298 52014 69902 70272 885// 333 11060
AAXX 31121 29551 11497 81901 11069 21086 30154 40344 52020 78583 883// 333 11044
AAXX 31121 29602 12999 41802 11121 21134 30191 40340 52019 69902 84030 333 11075
AAXX 31121 29636 11597 82503 11056 21070 30134 40360 52023 69932 78582 883// 333 11047
AAXX 31121 29654 11396 82204 11081 21091 39725 40361 52021 60042 78583 889// 333 11068 84708
AAXX 31121 29712 11898 61802 11080 21094 30198 40348 52016 69932 70272 86070 333 11070
AAXX 31121 29724 11597 72002 11104 21117 30156 40370 52020 69932 72683 82370 333 11065
AAXX 31121 29726 11998 22002 11088 21108 30198 40374 52019 69932 70181 80008 333 11049
AAXX 31121 29814 12999 01801 11115 21128 30221 40376 52028 69902 333 11069
AAXX 31121 29827 11697 82002 11082 21096 30219 40380 53019 69952 78582 889// 333 11054
AAXX 31121 29923 11597 72504 11074 21091 30102 40390 52020 69942 77172 8752/ 333 11051
AAXX 31121 29939 11597 82802 11045 21092 30112 40405 52018 60012 78583 889// 333 11038 88920
AAXX 31121 35026 42998 41801 11077 21131 39661 40326 57009 80001
AAXX 31121 36021 12599 22201 11099 21116 30202 40392 52019 69902 82500 333 11052
AAXX 31121 36022 11598 72104 11079 21101 30126 40400 52016 69962 70283 87500 333 11050 87621
AAXX 31121 36038 11598 71707 11062 21089 39963 40424 52012 60032 73683 82530 333 11062
AAXX 31121 36058 32699 81301 11020 21150 39874 40409 52011 86905 333 11014
AAXX 31121 36064 32699 83403 11059 21116 39801 40419 52014 81508 333 11018
AAXX 31121 36229 32999 83503 11080 21161 39232 40456 52015 8393/ 333 11063
AAXX 31121 36259 32599 50000 11186 21254 38318 48601 52015 82902 333 11088
AAXX 31124 64501 32465 62210 10280 20231 3//// 4//// 86800 333 0//00 5//// 83811 86630 94919 95839
AAXX 31124 71228 16/// /3006 11093 21107 60001 333 10014 21097 70000
AAXX 31124 71269 16/// /2710 11045 21070 60001 333 10061 21045 70000
AAXX 31124 71270 16/// /1302 10000 21008 39854 40076 53018 60001 333 11009 21032 70035
AAXX 31124 71285 46/// /2808 11082 21096 6///1 333 11030 21140 7////
AAXX 31124 71296 16/// /0000 11006 21006 39764 40071 53015 60001 333 11014 4/013 70012
AAXX 31124 71621 11364 80304 11036 21049 39981 40089 53004 69901 702// 885// 333 11047 21080 40001 70014 90999
AAXX 31124 71421 16/// ///// 11318 21349 39528 40300 53005 60001 333 11075 21321 70000
AAXX 31124 71435 16/// /1605 11082 21086 39491 40092 56012 60001 333 11054 21083 4/020 70003
AAXX 31124 71374 46/// /3304 11132 21160 6///1 333 11009 7////
AAXX 31124 71423 16/// /2403 11053 21082 30265 40275 51009 60001 333 11027 21093 70000
AAXX 31124 71682 16/// /2701 11276 21300 39887 40130 51021 60001 333 11270 21298 70005
AAXX 31124 71503 46/// /2802 11233 21260 39837 40120 51019 6///1 333 11215 21241 4/007 7////
AAXX 31124 71506 46/// /1402 11258 21280 39146 40068 51021 6///1 333 11249 21279 7////
AAXX 31124 71514 16/// /2912 11067 21085 39312 40009 53032 60001 333 10012 21082 4/003 55/// 20000 70008
AAXX 31124 71539 16/// /2812 11020 21053 39325 40016 51031 60001 333 10040 21023 55/// 20000 70000
AAXX 31124 71737 17/// /0602 11087 21099 39595 40129 56009 69971 7//4/ 333 11109 21120 4/021 70007
AAXX 31124 71743 16/// /2006 11182 21211 39955 40181 56009 60001 333 11169 21192 70000
AAXX 31124 71746 17/// /3109 10033 20029 39856 40076 53040 60011 7//4/ 333 10057 20032 70104
AAXX 31124 71747 46/// /1304 11083 21089 39607 40089 5/014 6///1 333 4/015 7////
AAXX 31124 71748 16/// /1914 11038 21050 39711 49999 55008 60001 333 11053 21070 70000
AAXX 31124 71970 17/// /3110 11057 21069 39431 40019 51053 69931 7//4/ 333 11037 21065 70048
AAXX 31124 71976 46/// /2006 11233 21259 39482 40141 55004 6///1 333 11226 21276 4/001 7////
AAXX 31124 71340 16/// /2513 11066 21095 60001 333 11017 21144 70000
AAXX 31124 71341 16/// /0000 11011 21084 60001 333 10063 21037 70006
AAXX 31124 71342 16/// /3217 11043 21074 60001 333 10029 21060 70000
AAXX 31124 71344 17/// /3216 11043 21059 69961 7//4/ 333 10040 21046 70006
AAXX 31124 71347 17/// /2817 11054 21093 69951 7//4/ 333 11042 21086 70022
AAXX 31124 71348 16/// /2610 11048 21110 60001 333 11040 21083 70011
AAXX 31124 71349 16/// ///// 11056 21072 60001 333 11054 21075 70026
AAXX 31124 71026 46/// /2810 11003 21088 39221 40072 53062 6///1 333 21023 7////
AAXX 31124 71063 16/// /0608 11055 21064 30009 40110 55003 60001 333 11077 21107 4/016 70008
AAXX 31124 71622 17/// ///// 10046 20041 39729 40064 53020 69951 7//4/ 333 10048 20025 70098
AAXX 31124 04203 46/// /0504 11196 21231 39982 40000 52007
AAXX 31124 04205 45/84 /1401 11294 21336 39982 40006 52008
AAXX 31124 04208 46/// /2106 11212 21242 39950 49996 52004
AAXX 31124 04213 46/// /2913 11164 21212 39858 49973 57001
AAXX 31124 04214 46/// /2914 11159 21192 39953 49986 52002
AAXX 31124 04224 47302 72927 11115 21139 39921 49954 57004 77277 333 87/07 91034
AAXX 31124 04228 NIL
AAXX 31124 04242 46/// /1010 11131 21156 39975 49991 52006
AAXX 31124 04253 46/// /3626 11108 21170 39914 49941 52045
AAXX 31124 04266 46/// /3262 11077 21122 39775 49813 52028 333 91078
AAXX 31124 04285 46/// /3041 11056 21101 39708 49727 57015
AAXX 31124 04301 46/// /2712 11235 21302 39983 49988 52003
AAXX 31124 04313 46/// /0409 11212 21243 39987 49999 52002
AAXX 31124 04330 46/// /0239 11211 21244 39857 49874 57024 333 91063
AAXX 31124 04351 46/// /0411 11044 21055 39637 49653 57005
AAXX 31124 04373 46/// /3044 11097 21142 39556 49647 57021 333 91055
AAXX 31124 04382 46/// /3616 11046 21078 39631 49679 57010
AAXX 31124 04416 NIL
AAXX 31121 40700 NIL
AAXX 31121 40723 12960 00000 10100 21091 38934 40229 54000 60001 333
AAXX 31121 40726 11660 82006 10036 21004 38661 40212 58009 69971 70272 8352/ 333 83635 88458
AAXX 31121 40727 11650 80305 10014 20009 38490 40245 57014 60021 77072 8552/ 333 85645 88559
AAXX 31121 40734 12968 31006 10116 20074 30194 40168 57016 60001 83030 333 83359
AAXX 31121 40737 12965 10000 10132 20060 30168 40187 57010 60001 81030 333
AAXX 31121 40741 12960 01009 10108 21016 39896 40241 57021 60001 333
AAXX 31121 40780 11458 81502 10048 20039 38707 40215 57023 60041 76362 8472/ 333 84715 88557
AAXX 31121 40791 12965 30000 10130 21063 39395 40236 57025 60001 80002 333 83067
AAXX 31121 40792 12970 32702 10122 21101 38762 40243 56012 60001 80002 333 83070
AAXX 31121 40794 11660 80000 10180 20057 30112 40211 57021 69941 70262 8432/ 91145 333 81935 83640 88458
AAXX 31121 40812 12660 60000 10178 20021 39820 40199 57018 60001 82570 333 82640 86360
AAXX 31121 40829 12962 03002 10150 21078 39647 40230 56010 60001 333
AAXX 31121 40833 12660 52202 10234 20009 30180 40212 57022 60001 82402 333 82640 83070
AAXX 31121 40835 12970 50000 10204 21126 39374 40214 57016 60001 82036 333 82362 84268
AAXX 31121 40845 12960 10000 10198 20082 30195 40200 57019 60001 80001 91145 333
AAXX 31121 40882 12960 11204 10238 20025 30159 40194 56017 60001 80001 333 81070
AAXX 31121 40889 12960 00707 10230 20215 30196 40201 55015 60001 222// 00246 20503 333
AAXX 31121 40890 12962 00706 10236 20053 30183 40190 56014 60001 222// 00234 20403 333
AAXX 31121 40893 12960 01806 10242 20077 30185 40191 56012 60001 222// 00200 20501 333
AAXX 31121 40897 15960 01705 10246 21013 30169 40183 56015 60001 333
AAXX 31124 71186 46/// /0827 11097 21116 6///1 333 11120 21190 7////
AAXX 31124 71190 46/// /3203 11072 21088 6///1 333 11099 21128 7////
AAXX 31124 71550 16/// /2308 11010 21028 39585 49957 53002 60001 333 11029 21075 4/003 70000
AAXX 31124 71551 16/// /2716 11048 21088 39359 40010 53038 60001 333 10033 21050 70015
AAXX 31124 71575 16/// /2811 11137 21155 30008 40074 55007 60001 333 11147 21158 4/015 70000 555 10010
AAXX 31124 71621 11364 80304 11036 21049 39981 40089 53004 69901 702// 885// 333 11047 21080 40001 70014 90999
AAXX 31124 71421 16/// ///// 11318 21349 39528 40300 53005 60001 333 11075 21321 70000
AAXX 31124 71435 16/// /1605 11082 21086 39491 40092 56012 60001 333 11054 21083 4/020 70003
AAXX 31124 71423 16/// /2403 11053 21082 30265 40275 51009 60001 333 11027 21093 70000
AAXX 31124 71186 46/// /0827 11097 21116 6///1 333 11120 21190 7////
AAXX 31124 71190 46/// /3203 11072 21088 6///1 333 11099 21128 7////
AAXX 31124 61972 16/// /1510 10301 20220 40106 60001 333 58006 90710 91122 555 60005
AAXX 31124 61976 16/// /1206 10312 20231 40105 60001 333 58010 90710 91111 555 60005
AAXX 31124 71550 16/// /2308 11010 21028 39585 49957 53002 60001 333 11029 21075 4/003 70000
AAXX 31124 71551 16/// /2716 11048 21088 39359 40010 53038 60001 333 10033 21050 70015
AAXX 31124 71575 16/// /2811 11137 21155 30008 40074 55007 60001 333 11147 21158 4/015 70000 555 10010
BBXX 42362 31121 99278 70907 46/// /2004 10233 20183 40210 91215
BBXX 42363 31121 99282 70892 46/// /2504 10217 20139 40214 91215 333 91204
BBXX 42364 31121 99291 70881 46/// /0000 10200 20172 40210 91215
BBXX 44100 31121 99363 70756 46/// ///// 1//// 91152 22200 00122 10501 20501 70006
AAXX 31124 43400 NIL
AAXX 31124 43404 22470 1//// 10269 20217 30097 40107 81100 333 00022 10300 58011 60007 81818
AAXX 31124 43410 NIL
AAXX 31124 43413 22470 23601 10274 20233 30097 40101 82100 333 00022 10303 58019 60007 82818
AAXX 31124 43415 22470 10501 10290 20235 39991 40099 81100 333 00019 10312 58017 60007 81818
AAXX 31124 43418 22970 41404 10260 20213 3//// 4//// 81037 333 10290 5//// 60007 81360 84280
AAXX 31124 43421 22470 22601 10290 20202 39994 40096 82100 333 00021 10314 58016 60007 82818
AAXX 31124 43422 22970 005// 10288 20217 39966 40096 333 00012 10317 58013 60007
AAXX 31124 43424 22978 02303 10284 20215 30085 40088 333 00020 10301 58016 60007
AAXX 31124 43436 22470 10903 10274 20224 30092 40096 81100 333 00021 10300 58012 60007 81818
AAXX 31124 43441 22470 634// 10300 20210 39953 40082 83630 333 00017 10326 58010 60007 81716 83818 85360
AAXX 31124 43444 22470 33601 10258 20205 39562 40094 83100 333 10296 58009 60007 83818
AAXX 31124 43467 22966 02306 10294 20201 30087 40092 333 00019 10323 58006 60007
AAXX 31124 43473 22470 40902 10180 20152 38125 48487 82102 333 00001 10222 58007 60007 82812 84080
AAXX 31124 43475 22970 00902 10284 20222 30086 40095 333 10305 58009 60007
AAXX 31124 43476 22470 30906 10198 20166 38769 48514 83100 333 10235 58012 60007 83812
AAXX 31124 43479 22460 30000 10236 20184 39258 81101 333 10273 58012 60007 81818
AAXX 31124 43486 22470 21401 10300 20166 39993 40087 82100 333 10349 58004 60007 82810
AAXX 31124 43495 NIL
AAXX 31124 43497 22976 00904 10284 20209 30073 40091 333 10312 58014 60007
BBXX 46249 31121 99338 71197 46/// ///// 1//// 91210 22200 00148 11703 21002 327// 41703 70016
BBXX 46248 31121 99461 71247 46/// ///// 1//// 91204 22200 00095 11209 21006 330// 41207 70047
AAXX 31120 44210 32999 30000 11210 21235 38609 53008 83010 333 11142
AAXX 31120 44216 32999 02703 11289 21313 39127 40558 53033 333 11235
AAXX 31120 44217 326// 82703 11143 21204 37917 40447 53003 8581/ 333 11111
AAXX 31120 44219 NIL
AAXX 31120 44221 NIL
AAXX 31120 44224 NIL
AAXX 31120 44229 32999 72703 11153 21195 37948 40381 53007 87010 333 11151
AAXX 31120 44242 329// 51802 11216 21245 39386 40392 57006 85050 333 11215
AAXX 31120 44243 329// 70000 11244 21273 39485 40410 57007 87070 333 11220
AAXX 31120 44254 329// 02704 11208 21232 39124 40404 51004 333 11116
AAXX 31120 44257 319// 20000 11294 21325 39060 40497 50002 77600 82040 333 11185
AAXX 31120 44263 32998 00000 11184 21252 38144 40513 53013 333 11091
AAXX 31120 44266 326// 53603 11120 21192 37807 40371 52007 85500 333 11050
AAXX 31120 44286 329// 80000 11173 21216 38667 40370 58005 80007 333 11091
AAXX 31120 44291 319// 21801 11278 21305 38792 40495 58003 70410 80001 333 11191
AAXX 31120 44325 329// 70000 11170 21196 38922 40413 53002 87010 333 11103
AAXX 31120 44329 NIL
AAXX 31120 44338 32899 20000 11099 21196 38505 40321 53011 82038 333 11023
AAXX 31120 44348 329// 03203 11155 21182 38747 40383 51003 333 11098
AAXX 31120 44374 32999 02301 11094 21214 38307 40384 53008 333 10009
AAXX 31120 44385 32999 02307 11075 21186 38981 40347 54000 333 11016
AAXX 31120 44386 329// 00000 11162 21212 39131 40395 53011 333 11078
AAXX 31121 40700 NIL
AAXX 31121 40723 12960 00000 10100 21091 38934 40229 54000 60001 333
AAXX 31121 40726 11660 82006 10036 21004 38661 40212 58009 69971 70272 8352/ 333 83635 88458
AAXX 31121 40727 11650 80305 10014 20009 38490 40245 57014 60021 77072 8552/ 333 85645 88559
AAXX 31121 40734 12968 31006 10116 20074 30194 40168 57016 60001 83030 333 83359
AAXX 31121 40737 12965 10000 10132 20060 30168 40187 57010 60001 81030 333
AAXX 31121 40741 12960 01009 10108 21016 39896 40241 57021 60001 333
AAXX 31121 40780 11458 81502 10048 20039 38707 40215 57023 60041 76362 8472/ 333 84715 88557
AAXX 31121 40791 12965 30000 10130 21063 39395 40236 57025 60001 80002 333 83067
AAXX 31121 40792 12970 32702 10122 21101 38762 40243 56012 60001 80002 333 83070
AAXX 31121 40794 11660 80000 10180 20057 30112 40211 57021 69941 70262 8432/ 91145 333 81935 83640 88458
AAXX 31121 40812 12660 60000 10178 20021 39820 40199 57018 60001 82570 333 82640 86360
AAXX 31121 40829 12962 03002 10150 21078 39647 40230 56010 60001 333
AAXX 31121 40833 12660 52202 10234 20009 30180 40212 57022 60001 82402 333 82640 83070
AAXX 31121 40835 12970 50000 10204 21126 39374 40214 57016 60001 82036 333 82362 84268
AAXX 31121 40845 12960 10000 10198 20082 30195 40200 57019 60001 80001 91145 333
AAXX 31121 40882 12960 11204 10238 20025 30159 40194 56017 60001 80001 333 81070
AAXX 31121 40889 12960 00707 10230 20215 30196 40201 55015 60001 222// 00246 20503 333
AAXX 31121 40890 12962 00706 10236 20053 30183 40190 56014 60001 222// 00234 20403 333
AAXX 31121 40893 12960 01806 10242 20077 30185 40191 56012 60001 222// 00200 20501 333
AAXX 31121 40897 15960 01705 10246 21013 30169 40183 56015 60001 333
BBXX 46241 31121 99330 71173 46/// ///// 1//// 91141 22200 00143 11702 21001 326// 41702 70010
AAXX 31121 22140 41597 80813 11009 21048 30006 40021 52011 73632 885// 333 91016 91117
AAXX 31121 28216 42899 71804 11074 21100 39920 40212 52004 87010
AAXX 31121 28428 42598 81001 11077 21132 30062 40256 57004 86501
AAXX 31121 28451 42996 32503 11051 21130 30122 40286 52012 83030
AAXX 31121 28541 42984 62101 11046 21187 39777 40285 53005 86030
AAXX 31121 28655 42998 72103 11087 21148 30085 40318 52009 82032
AAXX 31121 28756 42997 62004 11110 21152 30186 40343 52017 80005
AAXX 31121 29557 114// 82803 11059 21081 30076 40351 52023 69902 78581 883// 333 11041 84916
AAXX 31121 29625 11998 02303 11101 21114 30173 40361 52021 69902 70281 333 11065
AAXX 31121 29813 11499 71803 11101 21107 30167 40356 52020 69922 70282 82552 333 11068
AAXX 31121 29822 12997 82304 11080 21103 30208 40380 52017 69902 8807/ 333 11062
AAXX 31121 29915 12598 82202 11098 21115 30211 40378 52022 69902 8653/ 333 11070 86625
AAXX 31121 36020 11498 82104 11102 21115 30186 40397 52016 69922 70281 889// 333 11051 86915
BBXX 46240 31121 99366 71219 46/// ///// 1//// 91212 22200 00121 11403 21001 335// 41402 70014
BBXX 46212 31121 99408 71243 46/// ///// 1//// 91212 22200 00104 11506 21004 330// 41505 70032
BBXX 46217 31121 99342 71194 46/// ///// 1//// 91212 22200 00143 11302 21002 327// 41302 70012
BBXX 46223 31121 99335 71178 46/// ///// 1//// 91200 22200 00147 11802 20901 328// 41802 70012
AAXX 31121 22100 42599 80803 11037 21066 39901 40047 52019 885// 333 88627 91006
AAXX 31124 48375 32960 00000 10270 20184 39899 40124 52012 333 10330 59001
BBXX 46218 31121 99345 71208 46/// ///// 1//// 91202 22200 00133 11706 21004 329// 41704 70030
AAXX 31121 22003 41499 80811 10010 21019 30062 40072 52013 73683 889// 333 91013 91115
AAXX 31121 22004 41599 80103 11020 21038 39953 40067 51014 72682 8697/ 333 91005
AAXX 31121 13463 32670 10205 10099 21044 30070 40130 52003 81200 333 91121
AAXX 31121 13459 32670 20205 10033 21066 39378 40151 51004 81230 333 47003 81896 91116
AAXX 31121 13461 32970 30507 10109 21049 30111 40110 52004 81530 333 81645 92333 92438 92513
AAXX 31121 13363 11665 82001 10015 21022 39244 48457 56003 69951 70272 885// 333 43017
AAXX 31121 14008 12099 73207 11099 21128 37408 47950 58013 60001 82870 333 95177 444 56086
AAXX 31121 14015 11459 60301 10006 21014 39828 40198 58020 60001 71022 84502 333 82618 83635
AAXX 31121 14023 12799 51302 10039 21019 39884 40184 58020 60001 81178 333 81850
AAXX 31121 14024 12899 42203 10006 21108 39062 48455 57013 60001 82035 333 95000 95182
AAXX 31121 14026 12898 21903 10061 21022 39849 40172 58020 60001 82070
AAXX 31121 14031 12997 13101 10052 21008 39945 40176 57019 60001 81070
AAXX 31121 14105 12799 32601 10099 21022 30176 40181 58014 60001 81101 333 81850
AAXX 31121 14106 12999 51101 10069 21016 30111 40180 58012 60001 80008 333 95000
AAXX 31121 14112 12/97 42702 10016 29088 60001
AAXX 31121 14121 12497 70000 10000 21006 39914 40188 58017 60001 87500 333 87610
AAXX 31121 14122 11250 82503 11004 21009 39993 40196 57014 60001 71022 886// 333 88705
BBXX 46211 31121 99469 71242 46/// ///// 1//// 91206 22200 00082 11308 21005 327// 41306 70040
BBXX 46231 31121 99327 71174 46/// ///// 1//// 91154 22200 00148 11703 21002 328// 41703 70016
BBXX 46222 31121 99336 71183 46/// ///// 1//// 91156 22200 00147 11803 20802 326// 41802 70014
BBXX 46242 31121 99332 71174 46/// ///// 1//// 91158 22200 00141 11802 20601 324// 41801 70009
AAXX 31121 23226 41/03 91201 11105 21118 39920 40144 52011 74974 333 936//
AAXX 31121 23701 41362 82103 11002 21014 39981 40111 52011 77172 8802/ 333 88509
AAXX 31121 28909 42497 81406 11072 21120 30120 40223 57013 83532
AAXX 31124 60595 36/// /0000 11451
AAXX 31124 60381 16/// /2303 10170 20090 69921
AAXX 31124 60639 36/// /3506 10142 21004
AAXX 31124 60605 36/// /0405 10132 21024
AAXX 31124 71639 11248 80000 10004 21013 39833 40076 53011 69921 71062 886// 333 11001 21019 40007 70026 90921
AAXX 31121 56146 32980 03601 11002 21199 36741 52010 333 05151
AAXX 31121 56444 32980 02702 10000 21073 36834 52016 333 00001
AAXX 31121 56492 31940 00000 10097 20057 39859 40275 52021 71000 333 05301
AAXX 31121 56571 32980 03602 10096 20013 38415 52012 333 00252
AAXX 31121 57799 32762 80000 10094 20065 30189 40280 52002 885//
AAXX 31121 57866 11758 80000 10069 20039 30074 40288 52005 69901 71060 885//
AAXX 31121 57957 31757 80402 10085 20039 30073 40278 52009 71000 885//
AAXX 31121 57993 32760 83601 10098 20067 30103 40274 52003 885//
AAXX 31121 58027 32960 70701 10051 21022 30224 40277 52007 8704/
AAXX 31121 58141 31920 00401 10029 21009 30271 40291 52008 70500
AAXX 31121 58265 31938 00701 10044 20002 30280 40288 52006 70500
AAXX 31121 58472 32962 73602 10072 20011 30183 40280 52007 8704/
AAXX 31121 58477 31459 73601 10075 20018 30232 40278 52008 70500 8214/
AAXX 31121 58527 31658 70000 10086 20034 30209 40287 52011 71000 875//
AAXX 31121 58633 31956 83401 10056 20024 30185 40289 52007 70500 8807/
AAXX 31121 58666 32762 83605 10080 20044 30166 40271 52005 885//
AAXX 31121 58725 32760 82501 10088 20068 30010 40279 52009 885//
AAXX 31121 58921 11660 80701 10107 20091 30015 40267 52007 69901 70060 885//
AAXX 31121 59082 31657 82703 10110 20062 30108 40258 52006 70500 885//
AAXX 31121 59211 32960 80901 10130 20085 30031 40243 52008 8807/
AAXX 31121 59265 31740 83601 10119 20066 30108 40250 52008 71000 885//
AAXX 31121 59293 32966 20403 10132 20059 30158 40246 52013 82040
AAXX 31121 59501 32960 00000 10152 20129 30212 40233 52016
AAXX 31121 59663 31758 70405 10166 20091 30119 40228 52012 70500 875//
AAXX 31121 59838 32962 70405 10195 20154 30188 40198 52012 8703/
AAXX 31121 59948 32370 70709 10185 20157 39718 40207 52015 878//
AAXX 31121 59981 32570 70705 10237 20206 30177 40184 52017 878//
AAXX 31124 71639 11248 80000 10004 21013 39833 40076 53011 69921 71062 886// 333 11001 21019 40007 70026 90921
AAXX 31124 08238 12765 53609 10168 20075 30193 40253 54000 60001 81442
AAXX 31124 87320 32970 30000 10297 20171 39581 40087 52013 83050 333 10324 20245 56070 83360
AAXX 31123 87016 32560 42706 10268 20227 39682 40079 53004 60014 82150 333 10268 20230 56608 82820
AAXX 31121 38599 41996 02604 11016 21036 39801 40339 55004 71000
AAXX 31121 08515 32480 72004 10173 20139 30250 40374 50007 878// 222//00175 333 82818 86648 910// 911//
AAXX 31124 60060 32958 03003 10184 20051 40312 58003
AAXX 31121 08515 32480 72004 10173 20139 30250 40374 50007 878// 222//00175 333 82818 86648 910// 911// 555 50004 60007 912//
AAXX 31121 13492 ///// 5//// 11060
AAXX 31121 13585 12698 70507 10016 21025 39321 40125 51001 69931 87500
AAXX 31121 13597 12698 83606 10066 21006 30017 40091 51008 69971 885//
AAXX 31121 13598 11595 83603 11005 21009 48395 52006 60041 77177 8802/
AAXX 31120 67699 31660 71803 10301 20213 71792 87930 333 81930 87835 555 10306 29059
AAXX 31121 50353 31970 00000 11296 21329 30102 40359 52006 77600
AAXX 31121 50557 32970 00201 11260 21287 30005 40348 52006
AAXX 31121 50756 32960 03402 11213 21246 39990 40322 52006
AAXX 31121 50949 32965 03603 11160 21232 30125 40313 52012
AAXX 31121 50963 31957 00401 11238 21270 30142 40297 52007 70400
AAXX 31121 50978 32970 01601 11163 21223 39915 40297 52006
AAXX 31121 51087 NIL
AAXX 31121 51156 NIL
AAXX 31121 51644 NIL
AAXX 31121 51656 NIL
AAXX 31121 51886 32980 00000 11107 21278 37162 52015 333 00154
AAXX 31121 52602 32980 00000 11112 21278 37305 52010 333 05101
AAXX 31121 52713 32980 01401 11078 21269 36933 52009 333 05200
AAXX 31121 52754 32980 00000 11133 21238 36811 52010 333 05251
AAXX 31121 52818 32980 02502 11069 21224 37282 52018 333 05100
AAXX 31121 52836 32980 01601 11111 21273 36920 52015 333 05300
AAXX 31121 52955 32980 02201 11127 21271 36991 52014 333 05351
AAXX 31121 53068 32980 00402 11164 21203 39170 40432 52017 333 00202
AAXX 31121 53276 32980 02502 11140 21184 38947 40406 52008
AAXX 31121 54135 32980 00203 11122 21225 30083 40325 52011
AAXX 31121 54236 32965 03603 11113 21199 30194 40308 52007
AAXX 31121 54539 32962 00000 11050 21089 30287 40302 52007
AAXX 31121 54662 32960 03604 11046 21106 30168 40287 52010
AAXX 31121 54753 31657 83202 10014 21024 30279 40286 52008 71000 885//
AAXX 31121 54857 31950 83403 10026 21021 30194 40290 52006 71000 8802/
AAXX 31121 57067 31930 70000 11014 21036 39606 40321 52015 71000 8703/
AAXX 31121 57178 31920 00402 10043 20004 30125 40290 52015 71000
AAXX 31121 57245 31958 00901 10041 20018 39932 40297 52009 71000 333 05451
AAXX 31121 57297 31956 03201 10057 20009 30137 40282 52012 71000
AAXX 31121 40650 41558 71104 10115 20052 40182 56007 70562 87800
AAXX 31121 40608 41558 81203 10074 20051 40219 57010 72162 885//
AAXX 31121 40621 41556 80302 10080 20063 40257 57015 76166 888//
AAXX 31121 40629 41558 70605 10086 20068 40217 57012 76266 86502
AAXX 31121 40631 41550 80000 10081 20068 40221 57019 76366 885//
AAXX 31121 40634 41558 80000 10090 20082 40191 57016 71062 888//
AAXX 31121 40670 41558 81211 10130 20080 40156 57041 76261 8582/
AAXX 31121 40676 42960 70904 10212 21014 40196 57023 87070
AAXX 31121 40690 42960 61306 10230 20008 40192 58008 83036
AAXX 31121 40638 42560 80000 10110 20059 40192 55014 886//
AAXX 31121 40642 42660 20000 10156 20039 40178 57011 82100
AAXX 31121 40691 42960 10303 10214 20024 40216 57020 80001
AAXX 31121 40664 41658 80902 10136 20041 40203 57013 76062 8522X
AAXX 31121 40643 42560 20603 10136 20079 40149 58004 81110
AAXX 31121 40689 42660 51507 10225 20013 40200 57025 84530
AAXX 31121 40680 42560 70403 10200 20085 40211 57013 87800
AAXX 31121 40660 41558 71404 10128 20055 40188 57031 70162 87800
AAXX 31121 40616 41557 81308 10077 20052 40224 57027 76165 887//
AAXX 31121 40611 41458 81805 10036 20021 40174 57030 76276 888//
AAXX 31121 40623 41558 83302 10045 20045 40250 58012 76166 8312/
AAXX 31121 40622 41556 80000 10055 20043 40205 57012 76366 8672/
AAXX 31121 40605 41558 80902 10083 20012 40222 57055 76062 8252/
AAXX 31121 40606 42557 80903 10073 20011 40166 57020 76062 888//
AAXX 31121 40637 41558 80000 10104 20088 40221 50008 78082 888//
AAXX 31121 48852 01497 82901 10180 20178 30192 40202 52018 60164 76166 888// 333 01019 10187 58003 60072 7016 2 86894 88697 96160
AAXX 31124 91945 36/// /0310 10268 20226 30131 40136 56014 333 10294
AAXX 31124 89062 42682 70103 10026 21069 39710 49750 52022 8657/ 333 10027 20017 81540 86556
BBXX 62159 31124 99605 10017 41595 81634 10074 20070 49927 57040 70222 885// 22200 10908 70042
BBXX A8RL2 31123 99487 70073 41/97 82524 10140 20122 40180 57/// 71122 8662/ 22214 04123 20906 329// 41406 80130
BBXX 62029 31124 99487 70125 46/// /2423 10132 20121 40162 58011 22200 00126 10708 70040 333 90710 91132
BBXX 62163 31124 99475 70084 46/// /2420 10124 20113 40214 58009 22200 00124 10707 70033 333 90710 91126
BBXX 62001 31124 99452 70050 46/// /2618 10135 20123 40270 58002 22200 00130 10706 70032 333 90710 91126
BBXX 64046 31124 99606 70049 46/// /1919 10083 20066 49856 58035 22200 00078 10707 70033
BBXX 62442 31124 99490 70164 46/// /2320 1//// 2//// 40132 58010 22200 00122 333 90710 91132
BBXX 62301 31124 99524 70047 46/// /2419 10100 20096 40084 58011 22200 00092 10504 70022
BBXX 62303 31124 99516 70051 46/// /2416 10115 20106 40108 58006 22200 00110 10605 70027 333 90710 91126
BBXX 64045 31124 99591 70117 46/// /2525 10093 20050 49822 55014 22200 00101 10809 70047 333 90710 91139
BBXX 62105 31124 99554 70121 46/// /2518 10111 20085 49952 57007 22200 00104 10708 70041 333 90710 91141
BBXX 62081 31124 99510 70134 46/// ///// 10124 20117 40092 57007 22200 00119 10708 70041
BBXX 62027 31124 99491 70022 46/// /2717 1//// 2//// 40173 58004 22200 00108 10804 331// 70021
BBXX 2AUO5 31123 99606 10016 41296 81735 10076 20058 49929 57027 75455 8/6// 22241 20607 333// 41010 80068
BBXX 63110 31124 99595 10015 46/// ///// 22200
BBXX 63056 31124 99597 10016 47296 /1727 10075 20066 49944 58019 740// 22200 10607 70034
BBXX 62148 31124 99536 10015 46/// /2317 10092 20081 40065 58001 22200
BBXX 62150 31124 99536 10007 47998 /2512 10101 20079 40067 58005 700// 22200 10502 70008
BBXX 62121 31124 99535 10027 46/// ///// 22200
BBXX 62111 31124 99580 70003 46/// /2213 10089 20064 49968 57016 22200 10604 70018
BBXX PJAI 31124 99581 70014 47898 /1911 10097 20046 49949 58019 700// 22200
BBXX 62112 31124 99584 70002 47998 /2114 10083 20079 49962 57011 700// 22200
BBXX 62144 31124 99534 10017 47597 /2418 10088 20078 40070 58002 700// 22200 10402 70009
BBXX 63055 31124 99606 10016 47293 /1526 10067 20067 49917 57020 704// 22200 10709 70043
BBXX 63108 31124 99608 10017 47194 /1837 10057 20045 49913 57026 762// 22200 11108 70038
BBXX 63106 31124 99610 10017 46/// /1735 10066 49921 57026 22200
BBXX 63105 31124 99610 10017 47295 ///// 10071 20060 49920 57027 761// 22200
BBXX 63113 31124 99610 10017 46/// /1835 10068 20059 49924 57026 22200 10810 70050
BBXX 63112 31124 99611 10010 47/96 /1826 10080 20064 49907 57024 761// 22200 10811 70053
BBXX 63107 31124 99611 10017 46/// /1738 10068 49920 57027 22200
BBXX 63101 31124 99612 10009 46/// /1925 10078 20072 49914 57032 22200
BBXX 63103 31124 99612 10011 46/// /1830 10074 20069 49906 57025 22200 10810 70051
BBXX 63104 31124 99612 10016 47194 /1735 10066 20057 49916 57030 762// 22200
BBXX 63117 31124 99613 10011 47395 /1831 10073 20058 49924 57032 762// 22200
BBXX 63115 31124 99616 10013 47295 /1633 10085 20059 49899 57031 762// 22200 10812 70059
BBXX MWYG6 31124 99603 70040 47997 /2030 10094 700// 22200
BBXX 62145 31124 99531 10028 47698 /2519 10092 20076 40072 50001 700// 22200 10403 70013
BBXX 64041 31124 99607 70026 47497 /2022 10080 20076 49888 57017 700// 22200 10705 70026
BBXX 62142 31124 99530 10021 47598 /2516 10095 20083 40070 50003 700// 22200 10402 70010
BBXX 62149 31124 99537 10011 47598 /2211 10094 20080 40063 50003 700// 22200 10502 70009
BBXX 62131 31124 99539 10012 46/// /23// 10093 20078 40055 58003 22200
BBXX 62127 31124 99540 10007 47999 ///// 10099 20072 40052 58002 700// 22200 10502 70010
BBXX 62165 31124 99540 10009 47998 /2415 10095 20073 40057 58003 700// 22200 10502 70010
BBXX 62123 31124 99563 10022 47997 /2413 10089 20077 40005 58003 700// 22200
BBXX 62132 31124 99564 10020 46/// /2609 10088 20078 40002 58008 22200
BBXX 62120 31124 99564 10021 47997 /2614 10086 20086 40003 58005 700// 22200
BBXX 62154 31124 99564 10022 46/// /2513 10083 20081 40002 58004 22200
BBXX 62152 31124 99570 10018 47/98 /2108 10085 20073 49998 58005 700// 22200 10504 70019
BBXX 62119 31124 99570 10019 47297 /2511 10086 20076 49996 58005 700// 22200 10604 70018
BBXX 62133 31124 99571 10009 46/// /2412 10085 20063 49988 58008 22200 10603 70015
BBXX PJGO 31124 99571 10022 47/95 /2308 10080 49997 58004 704// 22200
BBXX 62164 31124 99572 10008 47998 /2311 10097 20078 49989 57006 700// 22200 00090 10604 70018
BBXX 62146 31124 99572 10021 47/95 /2307 10081 20076 49991 58006 704// 22200 10604 70018
BBXX 62140 31124 99573 10013 46/// /24// 10084 20078 49987 57004 22200
BBXX 62122 31124 99573 10016 47598 /2210 10088 20081 49992 58005 700// 22200 10604 70019
BBXX 63057 31124 99592 10015 47195 /2213 10084 20076 49954 57009 751// 22200 10605 70025
BBXX 62128 31124 99587 10014 47197 /2315 10083 20076 49965 58008 700// 22200 10605 70023
BBXX 62129 31124 99584 10003 46/// ///// 10085 20075 49965 58011 22200
BBXX 62113 31124 99584 10002 47998 /2215 10083 20078 49966 58009 700// 22200
BBXX ZQSD5 31124 99583 10007 46/// /2212 10091 20075 49972 58006 22200 10705 70025
BBXX 62114 31124 99583 10000 46/// /2118 10084 20074 49964 57010 22200
BBXX 62134 31124 99580 10014 47497 /2212 10086 20075 49977 58007 700// 22200 10604 70020
BBXX 62102 31124 99579 10018 46/// /2209 10085 20076 49982 58006 22200 10604 70020
BBXX 62117 31124 99579 10000 47998 /2012 10087 20074 49971 58011 700// 22200 10603 70017
BBXX 62143 31124 99577 10018 47297 /2109 10084 20081 49985 58005 700// 22200 10504 70019
BBXX 62118 31124 99577 10009 47997 /2113 10104 20082 49971 57010 700// 22200 10604 70018
BBXX 62155 31124 99577 10007 47598 /2111 10088 20081 49978 57010 700// 22200 10604 70019
BBXX 62116 31124 99576 10011 47597 /2411 10086 20079 49980 57007 700// 22200 10604 70019
BBXX 62104 31124 99574 10013 47597 /2211 10088 20080 49984 57006 700// 22200
BBXX 62153 31124 99573 10020 47196 /2112 10083 20083 49990 58006 710// 22200 10604 70018
BBXX 62169 31123 99614 10014 41296 81745 10070 20070 49914 57040 76362 886// 22200 02080 20309 399// 40904 5//// 80070
BBXX 62103 31124 99499 70029 46/98 /2626 10120 20110 40150 50001 22200 00119 10704 70019 333 90710 91135
BBXX 62094 31124 99517 70067 46/// /2322 10110 20107 40100 57011 22200 00106 10505 70023 333 90710 91133
BBXX 62170 31124 99514 10020 46/97 /2315 10110 20106 40106 58006 22200 00105 10701 70005
BBXX 62304 31124 99511 10018 46/// /2416 10111 20098 40113 58005 22200 00105 10701 70005
BBXX 62305 31124 99504 10000 46/98 /2533 10120 20112 40137 58008 22200 00116 10603 70014 333 90710 91139
BBXX V2AI7 31123 99402 10185 32898 13630 10120 20/// 40095 52015 70100 81318 22274 00/// 20609 ......
BBXX 62301 31124 99524 70047 46/// /2419 10180 20176 40084 58011 22200 00092 10504 70022
BBXX 62107 31124 99501 70061 46/// /2626 10117 20113 40147 58009 22200 00116 10804 70022 333 90710 91133
BBXX 62095 31124 99531 70159 46/// /2421 10113 20075 40012 58001 22200 00112 10809 70045 333 90710 91132
BBXX 62103 31124 99499 70029 46/98 /2730 10120 20110 40144 58008 22200 00119 10704 70020 333 90710 91138
AAXX 31121 48855 01597 83202 10201 20190 30188 40196 52016 60024 72162 888// 333 01021 10238 59001 69932 7001 5 83895 88697
AAXX 31121 48848 02597 83202 10182 20159 30200 40208 53009 69914 888// 333 01017 10195 59001 69912 70001 8289 5 88697
AAXX 31121 48803 32497 81402 10158 20133 30097 40213 53007 888// 333 00016 10180 58004 70000 84894 88696
AAXX 31121 48839 32497 70508 10170 20125 30151 40218 51011 878// 222// 00182 2//02 333 00/// 10175 58003 7000 0 83894 87696
AAXX 31121 48826 01595 83403 10143 20117 30082 40222 53007 69924 71022 888// 333 00015 10153 58010 69912 7999 2 82895 88697
AAXX 31124 40582 32960 31208 10191 20067 40196 56020 83030 333 00020 55300 00210 10000 20782 30239 41202 51542 61021 55407 40543 83360 90401 91013 91113 91207 91305
AAXX 31124 41150 NIL
AAXX 31124 41168 NIL
AAXX 31124 41170 32964 10108 10229 20127 30192 40205 80001 333 59011 81074
AAXX 31124 41176 NIL
AAXX 31124 41184 32660 23408 10254 20060 40183 82100 333 59003 82840
AAXX 31124 41194 12960 00212 10245 20055 30188 40193 60001 333 59003
AAXX 31124 41196 32660 13609 10243 20058 30156 40195 81500 333 59001 81640
AAXX 31124 41198 32583 11108 10240 20084 30169 40198 81100 333 58013 81825
AAXX 31124 41210 NIL
AAXX 31124 41216 NIL
AAXX 31124 41217 32960 13414 10258 20085 30151 40180 80001 333 59013 81075
AAXX 31124 41218 32660 10703 10249 20059 39877 40180 81500 333 59005 81640
AAXX 31124 41226 NIL
AAXX 31124 41244 NIL
AAXX 31124 41246 NIL
AAXX 31124 41254 36/// /3308 10113 20038 38087 48092 333 0E003 58014
AAXX 31124 41256 32960 50612 10244 20100 30182 40192 85030 333 58009 85360
AAXX 31124 41258 NIL
AAXX 31124 41268 32560 40410 10244 20110 30172 40188 84500 333 58015 84625
AAXX 31124 41312 36/// /3512 10266 21002 30126 40165 333 0E034 58003
AAXX 31124 41314 32960 03505 10214 20000 39681 40187 333 5////
AAXX 31124 41316 32560 13513 10268 21020 30144 40170 81500 333 58001 81625
AAXX 31124 41404 12960 00608 10236 21070 3//// 48/// 6///2 333 58///
AAXX 31124 41407 12970 00908 10256 21020 38953 48520 60002 333 58006
AAXX 31124 41431 12960 01816 10288 20200 30130 40143 60002 333 58000
AAXX 31124 41466 12960 01812 10256 20066 38582 48482 60002 333 58004
AAXX 31124 41477 12960 01820 10274 20179 60002 333
AAXX 31124 41480 12462 21211 10274 20172 30161 40164 60002 82100 333 59003 82818
AAXX 31124 41242 36/// /0406 10241 20065 30186 40210 333 0E016 58010
AAXX 31124 41267 35/// /0310 10237 20112 30175 40191 333 0E022 58015
AAXX 31121 22165 41596 70415 11030 21057 39990 40052 52009 73832 82531 333 91120
AAXX 31121 29998 11996 80000 11175 21178 38691 48540 52015 60042 77177 8802/ 333 11169
AAXX 31121 30385 32999 00000 11310 21322 39788 40390 53010 333 11252
AAXX 31121 30469 329// 00000 11351 21368 39582 40456 53005 333 11248
AAXX 31121 30636 329// 80000 11302 21313 39730 40418 57008 80001 333 11272
AAXX 31121 30650 32984 00701 11282 21300 39187 40434 58004 333 11224
AAXX 31121 30664 32999 20000 11326 21342 38323 40449 58002 80001 333 11208
AAXX 31121 30781 32999 00000 11312 21330 39883 40415 52007 333 11205
AAXX 31121 30777 32998 02601 11291 21322 39688 40422 54000 333 11257
AAXX 31121 30844 32999 81401 11305 21318 39347 40452 57001 80007 333 11216
AAXX 31121 30925 328// 80103 11207 21232 39330 40382 55004 85075 333 11158
AAXX 31121 31371 32999 00000 11323 21353 30055 40356 54000 333 11257
AAXX 31121 31388 32984 00000 11325 21342 30039 40339 52003 333 11206
AAXX 31121 31478 NIL
AAXX 31121 31532 32999 00000 11328 21344 39956 40348 53005 333 11273
AAXX 31121 31594 32998 03201 11278 21297 30131 40323 51002 333 11223
AAXX 31121 31655 32998 00000 11257 21268 30243 40295 58003 333 11218
AAXX 31121 31754 32999 00000 11293 21324 39757 40329 54000 333 11163
AAXX 31121 38388 42998 20906 10074 21030 30174 40246 57022 80001 555 18005
AAXX 31121 38392 42998 00909 10032 21067 30190 40295 57018 555 10005
AAXX 31121 38507 42998 71504 10086 21050 30098 40201 57002 86031 555 10012
AAXX 31121 38511 42998 21108 10076 21025 30074 40215 57011 80003 555 10007
AAXX 31121 38545 42998 00906 10037 21044 30121 40300 57013 555 10004
AAXX 31121 38647 42998 20908 10069 21017 30150 40193 57006 82050 555 10008
AAXX 31121 38656 42998 21105 10080 21054 30122 40232 57018 80002 555 10007
AAXX 31121 38687 42997 00903 10045 21022 30061 40301 57015 555 11006
AAXX 31121 38750 42997 42502 10096 20073 30222 40194 54000 80001 555 10012
AAXX 31121 38763 42998 21006 10075 21002 30102 40207 57007 80003 555 10008
AAXX 31121 38774 42998 21802 10096 21002 30035 40231 53004 80003 555 10008
AAXX 31121 38799 42997 00906 10064 21035 30050 40285 57016 555 10006
AAXX 31121 38806 42997 00701 10029 21010 30038 40305 57011 555 11006
AAXX 31121 38880 42997 41502 10110 21022 39956 40209 57010 80001 555 10010
AAXX 31121 38886 42997 01306 10101 21044 30014 40241 57010 555 10009
AAXX 31121 38895 42996 01004 10083 21038 39978 40270 57017 555 10007
AAXX 31121 38911 42998 00202 10044 21007 39994 40295 57012 555 11006
AAXX 31121 38915 42998 00000 10062 20003 39967 40295 57010 555 11008
AAXX 31121 38974 42998 01102 10098 21036 39893 40227 57019 555 10008
AAXX 31121 38987 42996 00702 10063 21002 39506 40257 57016 555 11008
AAXX 31121 22438 42564 81002 10004 21007 39920 49941 52010 885//
BBXX 46221 31121 99339 71186 46/// ///// 1//// 91145 22200 00148 11703 21002 327// 41702 70013
BBXX 51205 31121 99210 71564 46/// ///// 1//// 91218 22200 00236 10904 20904 303// 41102 70021
AAXX 31121 28588 42997 22003 11105 21133 30162 40330 52022 82031
BBXX 41029 31121 99328 70796 46/// /2507 1//// 91200 555 11073 22075
BBXX 44098 31121 99428 70702 46/// ///// 1//// 91207 22200 00082 10502 20502 70011
BBXX 44034 31121 99441 70681 46/30 /1310 10079 40168 58020 91204 22200 00077 10604 70018 333 91213 555 11121 22130
BBXX 44024 31121 99423 70659 46/26 /1305 10086 40198 56011 91204 22200 00079 10503 70013 333 91206 555 11062 22068
AAXX 31121 28586 42997 22103 11117 21123 30169 40326 52019 80001
BBXX 51201 31121 99217 71581 46/// ///// 1//// 91212 22200 00240 11202 20902 333// 41201 70012
AAXX 31121 28791 42998 22003 11122 21142 30196 40350 52023 80001
AAXX 31121 28688 42997 21901 11114 21134 30174 40343 52023 82030
AAXX 31121 28383 41997 81702 11086 21097 30218 40306 52023 70272 82044
AAXX 31121 28465 42998 82003 11030 21072 30217 40296 52018 8803/
AAXX 31121 23929 42679 82003 11049 21063 30148 40217 52009 82531
AAXX 31121 48830 31740 83602 10120 20086 39920 40237 53005 71022 885// 333 00012 10125 58004 70000 88697
AAXX 31121 48808 11496 81101 10124 20111 39945 40239 52011 69944 71022 888// 333 01013 10139 58002 70004 8389 4 88696
AAXX 31124 67767 NIL
AAXX 31124 67843 NIL
AAXX 31124 67969 42680 60801 10280 20201 38/// 4//// 83101 333 5//// 83835 84080
BBXX 41115 31121 99184 70673 46/// ///// 1//// 91205 22200 11302 20902 301// 41301 70010
AAXX 31124 78988 01470 51313 10247 20230 30142 40153 52020 69961 78011 84260 333 10292 20237 59001 69947 70017 84816 83358
AAXX 31124 78990 01465 60914 10248 20227 30156 40163 52024 69931 78008 85801 333 10298 20229 58002 60007 70008 85816 83081
AAXX 31124 78873 020// /0811 10257 20213 30151 40196 52019 60001 8//// 333 10288 20231 59005 60007 70001
AAXX 31121 28696 42997 22002 11114 21127 30195 40344 52019 82030
AAXX 31121 60373 36/// /3105 10149 20098
AAXX 31121 60623 36/// /0000 10142 21090
AAXX 31121 60393 36/// /2203 10168 20082
AAXX 31121 37545 42599 00000 10087 21002 39667 40178 57018
BBXX 3FMH7 31124 99336 11694 41597 82815 00/// 10200 20185 40167 5//// 71882 87/// 9//// 22272 0//// 1//// 2//// 3//// 4//// 5//// 6//// 80190
BBXX SHIP 31124 99079 11089 41497 70419 10270 20257 40128 52005 70222 8662/ 22252 00254 80260
BBXX H9UY 31124 99327 11432 41697 73519 00/// 10130 40231 51/// 70222 86393 9//// 22273 04200 20303 336// 40306 5//// 6//// 80120
BBXX SHIP 31124 99117 11297 41/97 12909 10300 20259 40087 57022 71722 81/// 22273 00305 80269
AAXX 31124 61017 31915 70420 10228 21009 39780 40189 70722 80008 333 0//00 58037 87280
AAXX 31124 61024 31958 21019 10264 21064 39594 40159 70711 80002 333 0//00 58010 82080
AAXX 31124 61036 32965 71406 10282 20014 39906 40145 80008 333 0//00 59009 87280
AAXX 31124 61043 32960 70812 10300 21068 39696 40134 80008 333 0//00 59003 87280
AAXX 31124 61045 32960 70408 10265 21055 39659 40157 80008 333 0//00 58027 87280
AAXX 31124 61049 32960 70806 10275 21018 39821 40140 80008 333 0//00 58021 87280
AAXX 31124 61052 32965 51006 10292 21027 39893 40151 80002 333 0//00 59002 85080
AAXX 31124 61075 32960 31006 10304 20026 39832 40140 80002 333 0//00 58007 83080
AAXX 31124 61080 32960 71006 10284 20028 39736 40155 80008 333 0//00 58019 87280
AAXX 31124 61090 32965 70408 10270 21080 39655 40164 80008 333 0//00 58034 87280
AAXX 31124 61091 32965 50804 10284 20080 39707 40162 80002 333 0//00 58027 85080
AAXX 31124 61096 32960 73606 10295 20020 39765 40144 80008 333 0//00 58016 87280
AAXX 31124 61099 32965 70410 10315 20032 39900 40128 80008 333 0//00 58006 87280
AAXX 31124
AAXX 31121 51087 11980 72001 11170 21196 39463 40522 52013 69901 72270 80002 333 01355
AAXX 31121 51156 32780 70401 11119 21154 38884 40493 52014 85502 333 01155
AAXX 31121 51644 32960 00000 11071 21126 39096 40460 52015 333 00600
AAXX 31121 51656 32962 21601 11047 21105 39276 40443 52019 80002 333 00601
BBXX SHIP 31124 99511 31100 41697 62728 10049 20014 49968 55004 70211 86800 22243 00058 11209 20504 32823 40910 50809 6/00/
AAXX 31121 51133 11670 81101 11052 21075 39798 40488 52008 69901 77070 885// 333 01000
AAXX 31121 51431 32980 10201 11043 21079 39623 40463 57001 80002 333 00851
AAXX 31121 51747 32962 00701 11099 21166 39076 40493 52017 333 00601
AAXX 31121 14216 12982 22402 10106 21070 30025 40176 58012 60001 80008 333 70000 92311 92418
AAXX 31121 14219 12884 61501 10015 21042 39156 48461 58012 60001 81036 333 70000
AAXX 31121 14232 11305 80901 11010 21013 30058 40198 58011 60001 74444 886// 333 70000
AAXX 31121 14234 11/02 91101 11017 21017 39941 40197 58013 60001 7434/ 333 70001
AAXX 31121 14236 11312 83102 10000 21015 39987 40191 57012 60001 71044 886// 333 70000
AAXX 31121 14244 11458 82802 10005 20003 30064 40197 58012 60001 7102/ 886// 333 70001
AAXX 31121 14248 11/03 92302 11011 21014 30014 40194 57012 60001 7474/ 333 70000
AAXX 31121 14253 11/04 92301 11011 21012 30014 40194 58011 60001 74544 333 70000
AAXX 31121 14256 11920 02303 11009 21014 39858 40187 58009 60001 71000 333 70000
AAXX 31121 14280 12960 03002 10061 20000 30069 40179 57010 60001 333 70001
AAXX 31121 14308 12984 20201 10086 21051 39828 40181 56005 60001 80001 333 70000
AAXX 31121 14321 12684 23302 10105 21045 30158 40182 50001 60001 81101 333 70000 92312 92429
AAXX 31121 14370 11/02 92402 10000 21002 30077 40190 57011 60001 74544 333 70000
AAXX 31121 14382 11956 03002 10059 21008 30059 40180 57012 60001 7100/ 333 70000
AAXX 31121 14428 12470 12401 10118 21049 30167 40174 58002 60001 81100 222// 00133 333 70000 92301
AAXX 31121 14441 12589 10504 10116 21029 30127 40151 50002 60001 81200 222// 00162 333 70067 92313
AAXX 31121 14452 12999 00204 10085 21018 39920 40146 51002 60001 333 92312
AAXX 31121 14454 12781 10406 10107 21048 30077 40137 51018 60001 81100 333 70023 91117 91504 92322
AAXX 31121 14462 12980 00206 10101 21041 30143 40150 51001 60001 333 70067
AAXX 31124 48437 32962 00000 10245 20199 39941 40153 52010 333 10305 58003
AAXX 31121 51076 11975 70201 11128 21149 39539 40498 52010 69911 72270 80002 333 01255
AAXX 31121 51709 32962 72201 11039 21097 38848 40429 52015 82032 333 00501
AAXX 31124 61017 31915 70420 10228 21009 39780 40189 70722 80008 333 0//00 58037 87280
AAXX 31124 61024 31958 21019 10264 21064 39594 40159 70711 80002 333 0//00 58010 82080
AAXX 31124 61036 32965 71406 10282 20014 39906 40145 80008 333 0//00 59009 87280
AAXX 31124 61043 32960 70812 10300 21068 39696 40134 80008 333 0//00 59003 87280
AAXX 31124 61045 32960 70408 10265 21055 39659 40157 80008 333 0//00 58027 87280
AAXX 31124 61049 32960 70806 10275 21018 39821 40140 80008 333 0//00 58021 87280
AAXX 31124 61052 32965 51006 10292 21027 39893 40151 80002 333 0//00 59002 85080
AAXX 31124 61075 32960 31006 10304 20026 39832 40140 80002 333 0//00 58007 83080
AAXX 31124 61080 32960 71006 10284 20028 39736 40155 80008 333 0//00 58019 87280
AAXX 31124 61090 32965 70408 10270 21080 39655 40164 80008 333 0//00 58034 87280
AAXX 31124 61091 32965 50804 10284 20080 39707 40162 80002 333 0//00 58027 85080
AAXX 31124 61096 32960 73606 10295 20020 39765 40144 80008 333 0//00 58016 87280
AAXX 31124 61099 32965 70410 10315 20032 39900 40128 80008 333 0//00 58006 87280
BBXX SHIP 31124 99511 31100 41697 62728 10049 20014 49968 55004 70211 86800 22243 00058 11209 20504 32823 40910 50809 6/00/
AAXX 31124 61017 31915 70420 10228 21009 39780 40189 70722 80008 333 0//00 58037 87280
AAXX 31124 61024 31958 21019 10264 21064 39594 40159 70711 80002 333 0//00 58010 82080
AAXX 31124 61036 32965 71406 10282 20014 39906 40145 80008 333 0//00 59009 87280
AAXX 31124 61043 32960 70812 10300 21068 39696 40134 80008 333 0//00 59003 87280
AAXX 31124 61045 32960 70408 10265 21055 39659 40157 80008 333 0//00 58027 87280
AAXX 31124 61049 32960 70806 10275 21018 39821 40140 80008 333 0//00 58021 87280
AAXX 31124 61052 32965 51006 10292 21027 39893 40151 80002 333 0//00 59002 85080
AAXX 31124 61075 32960 31006 10304 20026 39832 40140 80002 333 0//00 58007 83080
AAXX 31124 61080 32960 71006 10284 20028 39736 40155 80008 333 0//00 58019 87280
AAXX 31124 61090 32965 70408 10270 21080 39655 40164 80008 333 0//00 58034 87280
AAXX 31124 61091 32965 50804 10284 20080 39707 40162 80002 333 0//00 58027 85080
AAXX 31124 61096 32960 73606 10295 20020 39765 40144 80008 333 0//00 58016 87280
AAXX 31124 61099 32965 70410 10315 20032 39900 40128 80008 333 0//00 58006 87280
AAXX 31124 48350 32962 00000 10230 20182 39852 40155 52016 333 10301 59003
AAXX 31124 93800 16/// /2205 10130 20116 40085 57002 60001
AAXX 31124 93805 16/// /2305 10123 20103 40098 57009 60001
AAXX 31124 93987 NIL
AAXX 31121 21432 11998 72207 11221 21247 30086 40107 58003 69902 73632 87030 333 11184
AAXX 31121 21824 31998 62316 11193 21211 30158 40167 53003 73731 85071 333 11190 91020 91123
AAXX 31121 21908 32599 41803 11213 21231 30035 40119 57002 82501 333 11185
AAXX 31121 21921 NIL
AAXX 31121 21931 11997 81802 11238 21277 30172 40206 52005 69902 77171 83017 333 11236
AAXX 31121 21946 NIL
AAXX 31121 21982 42998 03302 11241 21260 30136 40165 52006 333 91104
AAXX 31121 25062 42998 02104 11339 21375 30198 40202 52005 333 91106
AAXX 31121 25123 NIL
AAXX 31121 25138 NIL
AAXX 31121 25173 42999 02704 11287 21312 30190 40195 52005 333 91106
AAXX 31121 25248 12998 60000 11330 21360 39748 40249 52005 69930 84031 333 11292 91101
AAXX 31121 25282 42984 03105 11309 21325 30168 40175 52001 333 91108
AAXX 31121 25325 NIL
AAXX 31121 25356 NIL
AAXX 31121 25399 41459 73204 11252 21284 30130 40140 52010 78583 87900 333 91106
AAXX 31121 25428 11928 70000 11441 21475 39926 40319 52004 69900 71022 80001 333 1//// 91101
AAXX 31121 25551 42998 31401 11426 21461 30183 40219 57002 80006 333 91101
AAXX 31121 25563 42984 03306 11351 21374 30114 40203 58003 333 91106
AAXX 31121 25594 42998 23502 11228 21260 30099 40154 52004 80001 333 91103
AAXX 31121 25677 42998 02904 11295 21320 30183 40189 53001 333 91107
AAXX 31121 31054 11998 80000 11392 21415 30073 40375 57004 69902 77171 8802/ 333 11375
AAXX 31121 31123 11997 81901 11345 21389 30032 40406 58012 69902 77172 80007 333 11340
AAXX 31124 87222 32770 20902 10293 20148 39578 40076 52028 81470 333 10325 20244 56660 80650
AAXX 31124 61600 31930 70608 10204 20040 30204 40209 70722 84082 333 58012 84363 87073
AAXX 31124 61612 32957 50810 10210 21021 30209 40217 83082 333 0//00 58011 83363 83073
AAXX 31124 61627 31945 61008 10220 21003 3//// 4//// 7061/ 86030 333 0//00 5//// 86363
AAXX 31124 61630 31945 61012 10231 20036 30189 40209 70711 86070 333 0//00 58012 86363
AAXX 31124 61641 31948 60220 10205 20100 30155 40189 70622 86080 333 0//00 58002 86363
AAXX 31124 61666 31940 60808 10220 20146 30128 40197 70622 86070 333 0//00 58013 86363
AAXX 31124 61679 31940 60814 10230 20182 30092 40200 70611 86030 333 0//00 58019 86363
AAXX 31124 61687 31935 50614 10240 21020 30121 40180 70611 80002 333 0//00 58006 81363 84073
AAXX 31124 61695 32958 70410 10232 20018 30150 40177 83032 333 0//00 58019 83363 86073
AAXX 31124 61697 31956 60418 10227 20033 30147 40162 70711 82032 333 0//00 58006 82363 86073
AAXX 31124 61698 32960 60608 10240 20008 30159 40170 80002 333 0//00 58006 86073
AAXX 31124 61699 33958 61608 10237 20086 39969 40161 80002 333 0//00 58013 86073
AAXX 31124 65528 NIL
AAXX 31124 65536 NIL
AAXX 31124 65545 NIL
AAXX 31124 65548 NIL
AAXX 31124 65555 NIL
AAXX 31124 65557 31940 0//// 10285 20252 39890 40130 70511 333 58000
AAXX 31124 65560 31930 5//// 10285 20025 39820 40129 70511 80002 333 58004 85076
AAXX 31124 65562 NIL
AAXX 31124 65563 31930 00810 10295 20048 39892 40134 70500 333 58001
AAXX 31124 65578 32457 30206 10292 20207 30120 40137 83100 333 58001 83812 94919
AAXX 31124 65585 NIL
AAXX 31124 65592 31940 5//// 10285 20185 30096 40119 70522 81032 333 59004 81360 85076
AAXX 31124 65594 31958 63410 10283 20175 30096 40130 70544 80002 333 58002 86080
AAXX 31124 65599 31440 4//// 10280 20173 30045 40119 70544 81102 333 58004 81360 85076
AAXX 31121 08570 32/// /9901 10140 20020 39864 40324 57003
AAXX 31121 08541 32/// /3605 10130 20079 30221 40342 57004 333 91007 91108
AAXX 31121 08570 32/// /9901 10140 20020 39864 40324 57003 555 50004 60005
AAXX 31121 08541 32/// /3605 10130 20079 30221 40342 57004 333 91007 91108 555 50004 60005
BBXX 46147 31121 99518 71312 46/// /1504 10039 40221 52009 22200 00077 11107 70035 333 91208
AAXX 31121 21921 11998 81802 11218 21250 30180 40227 57004 69942 77872 83057 333 11211
BBXX 46147 31121 99518 71312 46/// /1504 10039 40221 52009 22200 00077 11107 70035 333 91208
AAXX 31124 86330 32598 21112 10229 20176 40096 52015 82200 333 10240 20203 30016
AAXX 31124 86360 32997 01510 10243 20183 40106 52015 333 10320 20154 30013
AAXX 31124 86460 32498 60910 10232 20170 40114 53004 86205 333 1//// 20198 30015
AAXX 31124 86490 32997 10606 10235 20175 40121 51012 80001 333 10235 20186 30013
AAXX 31124 86530 32597 51315 10234 20169 40126 52025 85505 333 10240 20170 30///
AAXX 31124 86545 32497 60910 10232 20170 40134 52008 86400 333 10236 20164 31014
AAXX 31124 86565 32598 50814 10238 20163 40135 51008 84205 333 10238 20178 30015
AAXX 31124 86580 42497 21011 10224 20186 40141 51/// 81105 333 10224 20190 30///
AAXX 31121 25703 31998 60000 11475 21511 30020 40344 52004 77671 80001 333 11463
AAXX 31121 25745 NIL
AAXX 31121 25913 32999 02802 11180 21186 30074 40236 57001 333 11149
AAXX 31121 25954 32998 63509 11208 21265 30083 40205 53001 80001 333 11191 91012 91114
AAXX 31121 25956 32699 60603 11208 21248 30155 40161 52006 86500 333 11196
AAXX 31121 31088 32999 13605 11266 21320 30255 40263 57003 81040 333 11232
AAXX 31121 31873 32997 40000 11215 21243 30146 40293 58001 80001 333 11179
AAXX 31121 31909 32998 13304 11119 21214 30161 40243 57002 81030 333 11052
AAXX 31121 31960 32997 53606 11148 21208 30018 40270 52008 80006 333 11113 91112
AAXX 31121 31961 32997 33501 11215 21240 30231 40282 52005 80001 333 11116
AAXX 31121 32053 11497 83103 11141 21168 30190 40242 58004 60040 78582 889// 333 11113 88918 91005 91105
AAXX 31121 32061 11535 80902 11164 21190 30216 40258 54000 60010 78582 889// 333 11121 91002 91102
AAXX 31121 32098 11598 63404 11119 21146 30224 40235 58003 60020 70282 82930 333 11057 91005 91106
AAXX 31121 32150 11996 03303 11082 21088 30185 40216 52004 69900 71081 333 11030 91004 91105
AAXX 31121 32165 11597 73204 10004 21021 30123 40184 52016 60020 70283 86930 333 10007 91006 91108
AAXX 31121 32215 32596 83402 11035 21079 30177 40207 58003 885// 333 11020 91003 91103
AAXX 31121 32252 NIL
AAXX 31121 32389 31696 70000 11266 21284 30180 40221 57006 74022 82530 333 11249
AAXX 31121 32477 12597 80201 11086 21085 30187 40195 58004 60010 70282 885// 333 11064
AAXX 31121 32583 32999 03403 11075 21119 30177 40209 57003 333 11066
AAXX 31121 32618 32598 80105 11066 21127 30180 40202 58002 885// 333 11066
AAXX 31121 31873 32997 40000 11215 21243 30146 40293 58001 80001 333 11179
AAXX 31121 31961 32997 33501 11215 21240 30231 40282 52005 80001 333 11116
AAXX 31121 31909 32998 13304 11119 21214 30161 40243 57002 81030 333 11052
AAXX 31121 31960 32997 53606 11148 21208 30018 40270 52008 80006 333 11113 91112
AAXX 31124 40153 11008 92412 10088 20078 39076 48474 57012 60001 74354
AAXX 31124 40179 12560 72211 10179 20116 30119 40156 57014 60001 8653/
AAXX 31124 40180 12560 52313 10173 20103 30113 40161 57013 60001 85100
AAXX 31124 40190 16/// ///// 10175 20047 39829 40157 57012 60001
AAXX 31124 40199 13/// /0404 10194 20068 30132 40155 57018 60001
AAXX 31124 71276 16/// ///16 11094 21104 60001 333 11026 21135 7////
AAXX 31124 71343 16/// /2617 10003 21083 60001 333 10088 21018 70000
AAXX 31124 71979 16/// ///// 11103 21144 38432 40106 51039 60001 333 10000 21136 4/044 70000
AAXX 31124 71050 46/// /2702 11156 21172 39136 40243 51043 6///1 333 10014 21156 7////
AAXX 31124 71860 12674 33413 11044 21085 38720 40131 53069 60002 82570 333 10050 21050 70000 555 10000 20000
AAXX 31124 71189 46/// /0908 11101 21122 6///1 333 11144 21190 7////
AAXX 31124 71217 16/// /2708 11044 21098 60001 333 10076 21076 70000
AAXX 31124 71224 16/// /2616 11015 21082 60001 333 10045 21043 70000
AAXX 31124 60672 36/// /1010 10116 21079
AAXX 31124 60661 36/// /0614 10147 21045
AAXX 31124 60633 36/// /3511 10200 21074
AAXX 31124 60660 36/// /3607 10182 21035
AAXX 31124 60679 36/// /1209 10068 21229
AAXX 31124 60650 36/// /0000 10159 21041
AAXX 31124 60677 36/// /0000 10123 21071
AAXX 31124 89002 42999 10914 11029 21062 39842 49896 52013 81030 333 11020 21036
AAXX 31124 60676 36/// /0314 10133 21059
AAXX 31124 60662 36/// /0000 10104 21086
AAXX 31124 60691 36/// /0726 10219 21067
AAXX 31121 37409 42598 20902 10018 21051 38751 48475 57006 82530 333 95010 555 1/101
AAXX 31124 71050 46/// /2702 11156 21172 39136 40243 51043 6///1 333 10014 21156 7////
AAXX 31124 71189 46/// /0908 11101 21122 6///1 333 11144 21190 7////
AAXX 31124 71217 16/// /2708 11044 21098 60001 333 10076 21076 70000
AAXX 31124 71224 16/// /2616 11015 21082 60001 333 10045 21043 70000
AAXX 31124 71276 16/// ///16 11094 21104 60001 333 11026 21135 7////
AAXX 31124 71979 16/// ///// 11103 21144 38432 40106 51039 60001 333 10000 21136 4/044 70000
AAXX 31124 71343 16/// /2617 10003 21083 60001 333 10088 21018 70000
AAXX 31124 71860 12674 33413 11044 21085 38720 40131 53069 60002 82570 333 10050 21050 70000 555 10000 20000
BBXX 46183 31121 99536 71311 46/// /3302 10029 40221 52020 22200 00073 11101 70007 333 91204
AAXX 31121 80400 NIL
AAXX 31121 80403 32470 40904 10256 20237 30127 40146 82230 333 20248 30/// 50514 55073 2//// 56990 58004 82813 555 10148
AAXX 31121 80405 NIL
AAXX 31121 80407 32470 3//// 10232 20215 30056 4//// 83400 333 20230 30/// 50174 55075 2//// 56900 5//// 83613 555 10131
AAXX 31121 80410 11210 80903 10200 20200 39464 40148 69994 71155 887// 333 20200 31/// 5//// 55065 2//// 562// 59006 88703 555 10170
AAXX 31121 80413 32470 61101 10230 20192 39662 40153 866// 333 20186 30/// 50244 55075 21609 569// 58002 86713 555 10181
AAXX 31121 80415 12470 20000 10226 20208 30083 40137 69974 82500 333 20220 30/// 5//// 55090 2//// 56900 58000 82616 555 10139
AAXX 31121 80419 NIL
AAXX 31121 80421 12364 3//// 10264 20216 30129 40151 60104 81808 333 10233 30/// 50234 55083 2//// 56909 58008 81810 555 10150
AAXX 31121 80423 NIL
AAXX 31121 80428 11468 83603 10237 20220 39946 40131 60034 70226 887// 333 20228 31/// 50324 55055 21435 569// 58010 88713 555 10142
AAXX 31121 80432 NIL
AAXX 31121 80435 12970 30202 10243 20217 30058 40133 60094 80003 333 20232 30/// 50054 55070 2//// 56009 58002 555 10132
AAXX 31121 80438 32975 00903 10144 20098 38530 48527 333 20142 30/// 50124 55073 21569 59012 555 10214
AAXX 31121 80444 NIL
AAXX 31121 80447 32560 11808 10244 20158 39671 40094 81500 333 20238 30/// 50364 55056 21348 56900 59010 81620 555 10158
AAXX 31121 80448 32470 83601 10217 20209 3//// 4//// 8553/ 333 20213 30/// 5//// 55080 21645 5699/ 85617
AAXX 31121 80450 32475 80902 10253 20239 30094 40149 83508 333 20238 30/// 5//// 55091 21748 56909 58003 83616 85280 555 10146
AAXX 31121 80453 NIL
AAXX 31121 80457 32470 4//// 10261 20193 30043 40128 82520 333 20249 30/// 51104 55101 2//// 56990 58005 82613 555 10128
AAXX 31121 80462 NIL
AAXX 31121 80402 NIL
AAXX 31121 80412 NIL
AAXX 31121 80416 NIL
AAXX 31121 80420 NIL
AAXX 31121 80425 32470 30501 10256 20210 30094 40125 83400 333 20254 30/// 50214 55040 20811 56900 58002 83613 555 10126
AAXX 31121 80426 32570 61601 10204 20154 39495 40143 81508 333 20204 30/// 5//// 55035 20980 56909 58000 81633 85280 555 10170
AAXX 31121 80427 11565 50701 10218 20215 39890 40146 60034 72055 857// 333 20216 32/// 5//// 55058 21886 569// 59001 85717 555 10159
AAXX 31121 80431 12570 5//// 10201 20201 39642 40124 60054 858// 333 20191 31/// 50264 55058 20640 569// 59003 85820 555 10144
AAXX 31121 80434 NIL
AAXX 31121 80437 12470 60000 10224 20218 30019 40105 61004 865// 333 20218 31/// 5///4 55033 2//// 569// 58009 86613 555 10111
AAXX 31121 80440 11462 70702 10222 20219 39936 40148 60044 75028 8357/ 31/// 50514 55064 21429 5699/ 58009 83617 84458 555 10156
AAXX 31121 80442 NIL
AAXX 31121 80472 32465 80501 10226 20202 39662 40143 8752/ 333 20218 30/// 50644 55099 21821 5699/ 58002 87616 555 10165
AAXX 31121 80475 32560 50000 10204 20183 39795 40164 855// 333 20185 30/// 5//// 55045 2//// 569// 58036 85623 555 10179
AAXX 31121 80476 32370 1//// 10253 20224 30102 40132 81500 333 20246 30/// 50460 55059 21585 56900 58002 81610
AAXX 31121 80478 NIL
AAXX 31121 80479 NIL
BBXX 46183 31121 99536 71311 46/// /3302 10029 40221 52020 22200 00073 11101 70007 333 91204
AAXX 31121 50434 32980 02002 11316 21348 39406 40431 52010
AAXX 31121 50527 32970 02202 11314 21345 39524 40437 52007
AAXX 31121 50603 32980 03202 11251 21291 39659 40425 52007
AAXX 31121 50632 32980 02904 11228 21266 39387 40377 52012
AAXX 31121 50727 11570 73601 11234 21266 39085 40396 52013 69911 77077 875//
AAXX 31121 50915 11980 23604 11189 21230 39297 40415 52017 60011 72270 80002
AAXX 31121 51716 32965 01101 11038 21106 39042 40431 52016 333 00501
AAXX 31121 51765 32980 02001 11097 21141 39377 40477 52015 333 00751
AAXX 31121 51777 32975 00901 11095 21154 39330 40470 52014 333 00753
AAXX 31121 51811 32962 01101 11035 21101 38913 40434 52015 333 00501
AAXX 31121 51828 32965 00901 11022 21120 38752 40410 52014 333 00501
AAXX 31121 52267 32980 02703 11072 21201 39206 40403 52008 333 00000
AAXX 31121 52323 32980 02705 11123 21175 38316 52017 333 00254
AAXX 31121 52495 32980 02702 11115 21230 38760 40418 52006 333 05153
AAXX 31121 53149 32980 00000 11113 21185 38860 40395 52009 333 00100
AAXX 31121 53192 32980 02704 11228 21250 38976 40462 52016
AAXX 31121 53231 32980 01803 11124 21222 38555 52007 333 00051
AAXX 31121 53336 32980 00401 11089 21150 38793 40375 52004 333 00051
AAXX 31121 53391 32980 02905 11132 21173 38558 40385 52002 333 00152
AAXX 31121 53529 32980 00000 11079 21180 38698 40383 52007 333 00053
AAXX 31121 53543 32980 03601 11060 21174 38604 40361 52007
AAXX 31121 53723 32970 03201 11066 21106 38733 40377 52009 333 05151
AAXX 31121 54012 11678 72902 11165 21193 39093 40413 52014 69961 77070 85502
AAXX 31121 54026 32980 70000 11120 21205 39970 40324 52011 80002
AAXX 31121 54027 32980 80203 11093 21188 39696 40332 52018 80007
AAXX 31121 54208 32980 02706 11146 21189 38811 40385 52003
AAXX 31121 54776 31558 83204 10013 21025 30216 40275 52002 71000 884//
AAXX 31121 56004 32980 03205 11051 21246 35829 52009 333 05108 91119 91525
AAXX 31121 56033 32980 00701 11113 21288 36031 52008 333 05100
AAXX 31121 56046 32980 01601 11075 21207 36271 52011 333 05202
AAXX 31121 56193 NIL
AAXX 31121 56196 31915 82701 10061 20047 40293 52009 71000 8807/ 333 05300
AAXX 31121 56287 31956 80202 10067 20044 40298 52015 71000 8807/ 333 05300
AAXX 31121 56684 32580 70901 10038 20005 37922 52011 874// 333 00152
AAXX 31121 56751 32980 02001 10089 21002 38031 52007 333 00052
AAXX 31121 56786 31556 83404 10054 20026 38134 52011 71000 885// 333 00257
AAXX 31121 56977 32980 02701 10154 20148 40182 52009 333 00001
AAXX 31121 57259 32970 03601 10046 20025 40289 52013
AAXX 31121 57279 31959 00401 10053 20020 40284 52011 71000
AAXX 31121 57348 32960 70000 10088 20044 40276 52001 8703/
AAXX 31121 57399 31957 00401 10056 20024 40290 52009 71000
AAXX 31121 57554 31957 60000 10059 20020 40286 52014 71000 86040
AAXX 31121 57793 31920 83201 10085 20074 40282 52001 71000 8807/
AAXX 31121 58345 31957 00000 10036 20010 40283 52003 71000
AAXX 31121 58506 32/56 70000 10000 21001 40303 52005 871//
AAXX 31121 58813 32661 70000 10080 20074 40283 52010 8354/
AAXX 31121 58834 31758 80402 10098 20079 40278 52009 71000 885//
AAXX 31121 58926 32665 80000 10129 20090 40260 52012 885//
AAXX 31121 58944 32464 73603 10115 20076 40263 52002 875//
AAXX 31121 59096 32562 80201 10120 20061 40258 52012 885//
AAXX 31121 59102 32661 80201 10094 20068 40268 52006 885//
AAXX 31121 59278 31759 80000 10168 20092 40235 52008 70500 885//
AAXX 31121 59456 32968 00202 10161 20081 40225 52013
AAXX 31121 59493 31958 10201 10175 20109 40227 52013 70500 81040
AAXX 31121 59658 31657 73601 10167 20099 40223 52011 70500 875//
AAXX 31121 59673 32962 70403 10171 20118 40228 52013 8704/
AAXX 31121 59845 11458 81102 10168 20160 40221 52011 69901 76060 887//
AAXX 31121 78310 12556 30803 10209 20206 30181 40192 53003 60001 82840 333 10280 20204 30/// 56990 58008 81820 92013
AAXX 31121 78315 NIL
AAXX 31121 78318 11560 60802 10204 20186 30192 40196 53006 60001 70511 83830 333 10279 20200 30/// 56990 58010 81820 84358
AAXX 31121 78322 11558 40201 10184 20177 30187 40205 53010 60001 71000 81242 333 10280 20177 30/// 56999 58011 81820 83359
AAXX 31121 78324 11/10 10603 10230 20212 30179 40190 53005 60001 70500 81200 333 10268 20222 30/// 56900 58010 818//
AAXX 31121 78325 11/58 61005 10203 20184 30144 40203 53008 60001 70411 86800 333 10262 20199 30/// 55101 56900 58013 818// 86621
AAXX 31121 78328 11/61 21202 10226 20199 30200 40/// 51008 60001 70500 82200 333 10258 20220 30/// 50590 56900 58010 828// 92417
AAXX 31121 78333 12/10 10802 10204 20190 30188 40195 51005 60001 81200 333 10280 20194 30/// 56900 57845 58009 818//
AAXX 31121 78344 11563 10504 10205 20193 30146 40195 53009 60001 70500 81200 333 10301 20205 30/// 50630 56900 58009 81820
AAXX 31121 78345 11560 10101 10199 20194 30193 40197 51024 60001 71000 81500 333 10297 20192 30/// 56900 58009 81623
AAXX 31121 78348 11556 30602 10222 20207 30149 40202 53007 60001 70500 83200 333 10250 20210 31/// 56200 57813 58014 70090 83822 555 10902
AAXX 31121 78349 11440 13301 10202 20199 30097 40207 53011 60001 71011 81400 333 10290 20195 30/// 50254 56900 58009 81819
AAXX 31121 78351 11520 10000 10189 20185 30168 40170 53006 60001 71040 81500 333 10298 20180 31/// 56900 59004 70018 81626
AAXX 31121 78353 12560 20601 10238 20197 30180 40202 53018 60001 82800 333 10280 20235 30/// 50144 56900 58010 81820
AAXX 31121 78355 11560 20204 10208 20205 30053 40190 53010 60001 71000 82800 333 10281 20198 30/// 55089 56900 58006 81820
AAXX 31121 78358 11530 30301 10235 20220 30174 40189 52015 60001 71000 83800 333 10284 20230 30/// 50160 56900 58007 82823
AAXX 31121 78360 11558 10302 10214 20202 30167 40179 53010 60001 71000 81800 333 10302 20214 30/// 56900 57837 59004 81820 92012
AAXX 31121 78363 11558 30000 10217 20203 30057 40172 53013 60001 71000 83500 333 10303 20203 30/// 50480 56900 58004 83621
AAXX 31121 78365 11562 40905 10260 20225 30189 40194 53010 60031 70580 84200 333 10280 20234 32/// 56200 57833 58003 70034 84820 92023 555 10902
AAXX 31121 78369 11568 40803 10256 20227 30175 40184 52012 60001 70500 84200 333 10281 20240 30/// 55076 56900 57863 58011 84820 92012
AAXX 31124 87774 32982 00905 10240 20096 39132 48512 5//// 333 10280 20108
AAXX 31121 01471 11889 50101 11082 21117 60001 70320 84055 333 91105
AAXX 31123 61701 31959 60920 10230 21005 40160 83032 333 58005 83361 85071
AAXX 31123 61705 31959 50915 10240 20020 4//// 70522 82032 333 5//// 82362 84073
AAXX 31123 61707 31959 60912 10240 20011 4//// 70500 80006 333 5//// 84272 83073
AAXX 31123 61711 32960 60905 10280 20110 4//// 86070 333 5//// 82461 85362
AAXX 31123 61712 32960 62715 10245 20049 4//// 84032 333 5//// 84362 83073
AAXX 31123 61717 NIL
AAXX 31123 61720 NIL
AAXX 31123 61721 32960 70912 10245 21010 4//// 84032 333 5//// 84362 85073
AAXX 31123 61722 32960 60817 10245 20029 4//// 83032 333 5//// 83363 84073
AAXX 31123 61731 31959 60910 10245 20012 4//// 70522 83032 333 5//// 83362
AAXX 31123 61733
AAXX 31121 08512 32280 62204 10174 20151 30275 40361 52004 85801 222// 0//// 333 81706 85813 91107
AAXX 31121 08512 32280 62204 10174 20151 30275 40361 52004 85801 222// 0//// 333 81706 85813 91107 555 50004 60005
AAXX 31121 60379 36/// /2505 10163 20107
AAXX 31121 60380 36/// /3004 10162 20076
AAXX 31121 60394 36/// /2502 10171 20091
AAXX 31121 60374 36/// /2506 10160 20105
AAXX 31121 60613 36/// /3309 10128 21004
AAXX 31120 44288 32699 63402 11105 21201 38181 40355 53001 84570 333 11039
BBXX 46131 31121 99499 71250 46/// /2802 1//// 40268 52040 22200 00072 10400 70001 333 91203
BBXX 46131 31121 99499 71250 46/// /2802 1//// 40268 52040 22200 00072 10400 70001 333 91203
AAXX 31123 61701 31959 60920 10230 21005 40160 83032 333 58005 83361 85071
AAXX 31123 61705 31959 50915 10240 20020 4//// 70522 82032 333 5//// 82362 84073
AAXX 31123 61707 31959 60912 10240 20011 4//// 70500 80006 333 5//// 84272 83073
AAXX 31123 61711 32960 60905 10280 20110 4//// 86070 333 5//// 82461 85362
AAXX 31123 61712 32960 62715 10245 20049 4//// 84032 333 5//// 84362 83073
AAXX 31123 61717 NIL
AAXX 31123 61720 NIL
AAXX 31123 61721 32960 70912 10245 21010 4//// 84032 333 5//// 84362 85073
AAXX 31123 61722 32960 60817 10245 20029 4//// 83032 333 5//// 83363 84073
AAXX 31123 61731 31959 60910 10245 20012 4//// 70522 83032 333 5//// 83362
AAXX 31123 61733 NIL
AAXX 31121 26059 41496 72902 11005 21020 30022 40047 52018 78582 87900 333 86919
AAXX 31124 41909 32456 40000 10200 20150 30130 40142 81530 333 10278 56990 59004 70000 81615 84362
AAXX 31124 41915 32450 30000 10186 20150 30127 40153 81530 333 10288 56990 59003 70000 81618 83362
AAXX 31124 41929 32956 50000 10224 20150 30136 40145 85050 333 10276 56090 59004 70000 85365
AAXX 31124 41941 32450 60000 10214 21050 30137 40143 85470 333 10286 56990 59007 70000 84615 84460
AAXX 31124 41947 31450 80000 10243 20220 30141 40143 70544 8551/ 333 10265 56699 59003 70000 85618 88460
AAXX 31124 41960 31450 53201 10240 20160 30150 40152 70522 82530 333 10287 56990 58000 70000 82618 84362
AAXX 31124 41963 32930 53502 10220 20170 30139 40142 85030 333 10284 56090 59003 70000 85362
AAXX 31124 41964 31450 53601 10226 20170 30150 40153 70522 83570 333 10290 56990 59004 70000 83618 84460
AAXX 31124 41966 32940 30000 10225 20170 30066 40147 83030 333 10304 56090 59004 70000
AAXX 31124 41989 31440 40000 10245 20170 30137 40140 70522 82530 333 10283 56990 58002 70000 82618 83362
AAXX 31121 10544 01/01 91811 11016 21016 39027 48402 58011 69991 77174 333 48022 55300 69987 96049
BBXX 46204 31121 99514 71288 46/// /0601 10047 40238 52017 22200 00077 11106 70029 333 91202
BBXX 46204 31121 99514 71288 46/// /0601 10047 40238 52017 22200 00077 11106 70029 333 91202
AAXX 31121 35229 41998 31204 11069 21094 30034 40318 57012 70271 83070 555 1/108
AAXX 31121 35416 41997 51409 11043 21108 30135 40259 57023 73631 80001 333 91115 555 1/106
AAXX 31121 35426 42999 81604 11070 21087 30024 40328 57012 8802/ 555 1/107
AAXX 31121 35532 41992 01114 11096 21122 39821 40338 57019 73933 333 91018 555 1/111
AAXX 31121 38196 41496 10504 11054 21105 39376 40401 56004 73833 81600
AAXX 31121 38198 42999 00000 11045 21076 30100 40370 57010 555 1/106
AAXX 31121 38328 42999 00701 11036 21139 39583 40339 57010 555 1/117
AAXX 31121 38334 41998 00904 11060 21118 39361 40367 57011 73630 555 1/112
AAXX 31121 38439 42998 00000 11002 21035 39995 40343 57008 555 14100
AAXX 31121 35229 41998 31204 11069 21094 30034 40318 57012 70271 83070 555 1/108
AAXX 31121 35416 41997 51409 11043 21108 30135 40259 57023 73631 80001 333 91115 555 1/106
AAXX 31121 35426 42999 81604 11070 21087 30024 40328 57012 8802/ 555 1/107
AAXX 31121 35532 41992 01114 11096 21122 39821 40338 57019 73933 333 91018 555 1/111
AAXX 31121 38196 41496 10504 11054 21105 39376 40401 56004 73833 81600
AAXX 31121 38198 42999 00000 11045 21076 30100 40370 57010 555 1/106
AAXX 31121 38328 42999 00701 11036 21139 39583 40339 57010 555 1/117
AAXX 31121 38334 41998 00904 11060 21118 39361 40367 57011 73630 555 1/112
AAXX 31121 38439 42998 00000 11002 21035 39995 40343 57008 555 14100
BBXX FHZI 31124 99618 31451 46/// /2220 10001 21013 39887 49898 52028 22283 04001 86005
AAXX 31124 40608 41558 81203 10074 20051 40219 57010 72162 885//
AAXX 31124 40605 41558 80902 10083 20012 40222 57055 76062 8252/
AAXX 31124 40606 42557 80903 10073 20011 40166 57020 76062 888//
AAXX 31124 40611 41458 81805 10036 20021 40174 57030 76276 888//
AAXX 31124 40616 41557 81308 10077 20052 40224 57027 76165 887//
AAXX 31124 40621 41556 80302 10080 20063 40257 57015 76166 888//
AAXX 31124 40622 41556 80000 10055 20043 40205 57012 76366 8672/
AAXX 31124 40623 41558 83302 10045 20045 40250 58012 76166 8312/
AAXX 31124 40629 41558 70605 10086 20068 40217 57012 76266 86502
AAXX 31124 40631 41550 80000 10081 20068 40221 57019 76366 885//
AAXX 31124 40634 41558 80000 10090 20082 40191 57016 71062 888//
AAXX 31124 40637 41558 80000 10104 20088 40221 50008 78082 888//
AAXX 31124 40638 42560 80000 10110 20059 40192 55014 886//
AAXX 31124 40642 42660 20000 10156 20039 40178 57011 82100
AAXX 31124 40643 42560 20603 10136 20079 40149 58004 81110
AAXX 31124 40650 41558 71104 10115 20052 40182 56007 70562 87800
AAXX 31121 40660 41558 71404 10128 20055 40188 57031 70162 87800
AAXX 31121 40664 41658 80902 10136 20041 40203 57013 76062 8522X
AAXX 31121 40670 41558 81211 10130 20080 40156 57041 76261 8582/
AAXX 31121 40676 42960 70904 10212 21014 40196 57023 87070
AAXX 31121 40680 42560 70403 10200 20085 40211 57013 87800
AAXX 31121 40689 42660 51507 10225 20013 40200 57025 84530
AAXX 31121 40690 42960 61306 10230 20008 40192 58008 83036
AAXX 31121 40691 42960 10303 10214 20024 40216 57020 80001
AAXX 31124 42309 31996 00000 10184 20139 40164 70500 333 10274 58005
AAXX 31124 42314 31595 20000 10200 20149 40165 70500 81530 333 10270 58000 81620
AAXX 31124 42398 32996 09901 10173 20144 40162 333 10269 59003
AAXX 31124 42410 31996 00000 10224 20169 40152 70500 333 10270 59002
AAXX 31124 42415 31996 00000 10206 20145 40176 70500 333 10276 59006
AAXX 31124 42492 31995 60000 10232 20148 40152 70500 86030 333 10262 59007 86360
AAXX 31124 42587 32496 60000 10260 20163 40135 83530 333 10302 59009 83618 85360
AAXX 31124 42591 31995 20503 10254 20174 40151 70500 82030 333 10281 59009 82360
AAXX 31124 42623 31595 20000 10204 20110 39270 40136 70500 82500 333 10255 59010 82620
AAXX 31124 42701 31496 71406 10222 20147 39423 40148 70522 83530 333 10264 58005 83618 86360
AAXX 31124 42706 31495 61601 10256 20150 40145 70510 82530 333 10301 59001 82618 85360
AAXX 31124 42724 31996 63202 10230 20129 40151 70522 82530 333 10290 59005 82620 85360
AAXX 31124 42798 31495 60000 10244 20162 40143 70522 84430 333 10284 58001 83615 83825 85360
AAXX 31124 42809 31495 40000 10242 20149 40150 70521 81530 333 10286 58000 81616 84360
AAXX 31124 42886 31596 80901 10234 20176 40154 70522 8652/ 333 10263 58016 86620 88460
AAXX 31124 42895 32596 60000 10250 20177 40146 82530 333 10275 58003 82620 85360
AAXX 31124 42971 31595 70704 10276 20175 40146 70522 83531 333 10312 58002 83620 86360
AAXX 31124 43333 31495 50704 10270 20232 40121 70511 84401 333 10310 56109 58004 81616 83818
AAXX 31124 42977 NIL
AAXX 31124 43368 NIL
BBXX VROB 31124 99257 31534 46/// /1423 10236 20142 30131 40156 52001 22283 04250 85176
BBXX VNAH 31124 99383 31416 46/// /1307 10185 20160 30139 40163 52010 22200 04207 85169
AAXX 31124 91650 NIL
AAXX 31124 91652 NIL
AAXX 31124 91656 NIL
AAXX 31124 91659 11598 50000 10258 2023/ 40090 58010 69901 70308 82871 333 10317 56999 81827
AAXX 31124 91660 NIL
AAXX 31124 91669 36/// /1009 10282 20263 40093 57004 91217 333 10327
AAXX 31124 91670 36/// /0600 10270 20233 40087
AAXX 31124 91676 14/// /0604 10271 20233 30023 40083 55004 60001 333 10320
AAXX 31124 91680 11698 61206 10255 20233 40091 58007 60001 70312 868// 333 10317 569// 83830 85650
AAXX 31124 91682 NIL
AAXX 31124 91683 11598 50000 10260 20253 40092 58010 60001 70122 858// 333 10304 569// 83820 84645
AAXX 31124 91691 14/// /0801 10251 20245 30093 40096 55006 60011 333 10314
AAXX 31124 91693 NIL
AAXX 31124 91697 14/// /0701 10262 20229 30091 40096 55006 60001 333 10306
AAXX 31124 91699 14/// /0805 10258 20221 30076 40108 55006 60001 333 10310
BBXX VROB 31124 99257 31534 46/// /1423 10236 20142 30131 40156 52001 22283 04250 85176
BBXX VNAH 31124 99383 31416 46/// /1307 10185 20160 30139 40163 52010 22200 04207 85169
BBXX VRJI2 31123 99213 70239 41697 60524 10210 2015/ 40240 50010 7//21 85467 22253 00220 21004 30504 41504 51002 6//// 80170
BBXX KNJK 31123 99257 70853 41798 21805 10228 20186 40200 51020 7//00 82//9 22233 00239 2//// 3//// 4//// 5//// 6//// 80200 ICE /////
BBXX H3GS 31124 99302 70802 41998 02825 10190 2012/ 40210 52020 702// 80/// 22243 04231 20406 31819 40804 50604 6//// 80150 ICE /////
BBXX 3EBL5 31124 99256 70766 41897 23211 10240 20163 40210 51020 70100 811// 22264 04270 2//02 311// 4//02 5//// 6//// 80190 ICE /////
BBXX C6FR4 31124 99130 70831 41698 40423 10240 2//// 40140 53020 7//// 82290 22283 04290 20402 304// 40803 5//// 6//// 8//// ICE /////
BBXX WKAB 31124 99249 10588 41/98 10603 10230 20041 40201 5//// 7//00 8//// 22224 00238 2//// 3//// 4//// 5//// 6//// 80130 ICE /////
AAXX 31124 68024 42660 62705 10333 20180 48497 57018 85202
AAXX 31121 21802 32999 81503 11210 21219 30078 40103 54000 8807/ 333 11205
AAXX 31121 24125 11998 80000 11218 21230 39849 40147 52001 69922 77172 80007 333 11199
AAXX 31121 24136 NIL
AAXX 31121 24143 NIL
AAXX 31121 24266 32998 22501 11427 21455 30090 40297 58002 80001 333 11428
AAXX 31121 24329 NIL
AAXX 31121 24343 11598 81503 11281 21311 30138 40270 57006 69922 77173 86502 333 11275 86622
AAXX 31121 24382 31994 60000 11418 21443 30017 40310 52002 71022 80001 333 11387
AAXX 31121 24639 11997 82102 11173 21192 30070 40231 57007 60012 77177 8802/ 333 11173
AAXX 31121 24641 11998 80802 11277 21308 30102 40259 57008 69952 77177 8801/ 333 11266
AAXX 31121 24652 11997 81206 11290 21320 30184 40322 57005 69902 77173 8802/ 333 11288 91110
AAXX 31121 24656 11998 80702 11339 21364 30236 40348 57003 69922 77177 80007 333 11329
AAXX 31121 24671 32999 03601 11467 21494 39795 40406 58005 333 11461
AAXX 31121 24688 31996 10000 11516 21551 39367 40490 57002 71000 80001 333 11518
AAXX 31121 24724 11597 82206 11137 21150 39671 40221 53001 60022 78583 85931 333 11107
AAXX 31121 24738 11997 81802 11129 21135 30057 40240 57008 69952 77172 80007 333 11121
AAXX 31121 24768 11996 70701 11338 21374 30068 40334 57006 69922 77172 80007 333 11332
AAXX 31121 24923 11698 82306 11145 21172 39949 40270 57008 69922 77173 82507 333 11144 91111
AAXX 31121 24944 32996 80000 11253 21270 39987 40308 58011 84031 333 11205
AAXX 31121 24951 11998 82901 11215 21233 30112 40293 58007 69922 77172 87027 333 11214
AAXX 31121 24661 32999 50000 11392 21417 30044 40354 58005 80001 333 11398
AAXX 31121 24959 11997 80101 11330 21360 30178 40325 57006 69932 77172 83035 333 11330
AAXX 31121 24962 11998 80000 11346 21367 30121 40335 57005 69932 77172 8807/ 333 11337
AAXX 31121 24966 11998 80000 11377 21399 30091 40343 57005 69920 77172 82037 333 11373
AAXX 31121 24967 11997 80000 11321 21350 30079 40338 57008 69922 77172 8807/ 333 11431
AAXX 31121 25206 12999 02201 11350 21380 30231 40261 52003 69900 333 11320
AAXX 31121 25400 32999 61802 11362 21384 30208 40271 52003 80001 333 11363
AAXX 31121 30054 11996 80000 11218 21250 30050 40312 57006 69922 77172 85047 333 11218
AAXX 31121 30089 32999 80000 11292 21309 30103 40354 57001 80001 333 11239
AAXX 31121 30393 32999 80701 11327 21344 39238 40423 57004 80007 333 11301 47///
AAXX 31121 30493 11999 50000 11243 21268 39224 40368 58004 69902 70272 80001 333 11187
AAXX 31121 31004 11999 82402 11214 21233 39435 40339 58007 69932 70272 82037 333 11177
AAXX 31121 31137 12999 00000 11333 21343 39256 40482 52012 69902 333 11322
AAXX 31124 82106 22898 61804 10257 20238 3//// 4//// 86032 333 20235 5//// 60024
AAXX 31124 82113 32596 62304 10252 20245 3//// 4//// 85402 333 20239 5////
AAXX 31124 82212 22897 60000 10244 20232 30052 40134 83143 333 20236 58000 69984
AAXX 31124 82336 22698 61402 10250 20241 3//// 4//// 83420 333 20240 5//// 60054
AAXX 31124 82425 22696 61404 10252 20240 3//// 4//// 86050 333 20243 5//// 60124
AAXX 31124 82533 32297 61802 10260 20246 3//// 4//// 85650 333 20241 5////
AAXX 31124 82704 32696 60000 10243 20235 39882 40076 86400 333 20234 59004
AAXX 31124 82723 22196 62702 10249 20234 30056 40138 88265 333 20231 59003 60064
AAXX 31124 83096 32695 20905 10285 20235 30130 40137 82100 333 20251 58000
AAXX 31124 83186 32596 81404 10238 20203 39594 40122 885// 333 20211 59012
AAXX 31124 83236 32798 31402 10253 20219 39625 40111 83040 333 20206 59020
AAXX 31124 83242 21496 81803 10244 20207 39658 40151 70251 887// 333 20238 59012 69924
AAXX 31124 83288 32598 32702 10273 20223 39631 40117 81134 333 20228 59017
AAXX 31124 83344 32598 80508 10237 20199 39169 40122 82104 333 20191 59010
BBXX 41036 31121 99342 70770 46/// ///// 10173 20129 40148 91220 22200 00173
BBXX 46088 31121 99483 71232 46/// /2709 10052 40273 91220 22200 00076 10502 20502 70010 333 91210 555 11092 22097 31151 42612 61219 266088 265091 266103 248088 248083 256087
BBXX 46088 31121 99483 71232 46/// /2709 10052 40273 91220 22200 00076 10502 20502 70010 333 91210 555 11092 22097 31151 42612 61219 266088 265091 266103 248088 248083 256087
BBXX 46087 31121 99485 71247 46/// /0903 10059 20019 40268 91220 22200 00080 333 91205 555 11029 22030 31204 41006 61219 087028 091035 082024 071021 060022 043024
AAXX 31124 83264 21897 60502 10257 20231 39691 40156 70066 84038 333 20219 59009 60154
AAXX 31124 83358 22798 73202 10248 20225 39694 40092 84562 333 20212 58000 60044
AAXX 31124 82042 32697 60504 10253 20229 3//// 4//// 84422 333 20234 5////
AAXX 31124 82240 21696 80000 10249 20234 3//// 4//// 70362 889// 333 20246 5//// 60074
AAXX 31124 82317 32893 70000 10252 20245 3//// 4//// 87050 333 20228 5////
AAXX 31124 82610 21695 60000 10237 20231 3//// 4//// 70266 83043 333 20224 5//// 60024
AAXX 31124 82807 32295 80000 10242 20241 3//// 4//// 887// 333 20236 5////
AAXX 31121 30157 32998 81802 11282 21321 30070 40388 56008 80007 333 11279
BBXX 44029 31121 99425 70706 46/30 /1301 10082 40131 56015 91204 22200 00079 10502 70008 333 91202 555 11020 22024
BBXX 44030 31121 99432 70704 46/// /0107 1//// 91204 22200 00081 10502 70009 333 91210 555 11092 22098
AAXX 31121 48900 32497 60405 10284 20212 30116 40126 52018 868// 333 10314 58004 82894 85696
AAXX 31121 48917 32598 70504 10290 20212 30118 40124 52005 8321/ 222// 00281 2//00 333 00029 10314 59010 70000 83895 87499
AAXX 31121 48914 12498 70704 10276 20217 30123 40125 52019 69924 878// 333 00028 10304 58001 70002 83894 87696
AAXX 31121 48918 02498 70507 10254 20224 30121 40132 52018 69914 82208 222// 00257 2//03 333 00026 10270 59001 69912 70001 81894 87299 91117 91509
AAXX 31124 67755 NIL
AAXX 31124 67771 41670 72001 10240 20209 38/// 48/// 72582 83232 333 5//// 83830 83360 87080
AAXX 31124 67773 NIL
AAXX 31124 67774 NIL
AAXX 31124 67785 NIL
AAXX 31124 67789 NIL
AAXX 31124 67855 42780 53101 10294 20195 38/// 48/// 85201 333 5//// 85850
AAXX 31124 67857 NIL
AAXX 31124 67863 42680 60000 10272 20198 38/// 48/// 82232 333 5//// 82830 83080
AAXX 31124 67871 NIL
AAXX 31124 67875 NIL
AAXX 31124 67891 NIL
AAXX 31124 67895 NIL
AAXX 31124 67897 NIL
AAXX 31124 67899 NIL
AAXX 31124 67951 41680 62706 10276 20175 38/// 48/// 71792 84203 333 5//// 81920 84830 85080
AAXX 31124 67963 NIL
AAXX 31124 67967 NIL
AAXX 31124 67971 42680 60901 10271 20197 38/// 48/// 85230 333 5//// 85830 83360
AAXX 31124 67976 42680 51110 10279 20202 38/// 48/// 84231 333 5//// 84834
AAXX 31124 67979 NIL
AAXX 31124 67765 41675 72701 10259 20186 38650 48494 71592 84233 333 58006 81927 84832
AAXX 31124 67775 NIL
AAXX 31124 67779 41580 60104 10256 20199 39031 48488 70252 81132 333 58003 81826 86360
AAXX 31124 67853 NIL
AAXX 31124 67861 NIL
AAXX 31124 67867 42680 70000 10254 20174 38566 48495 84232 333 5//// 84830 84359
AAXX 31124 67881 41680 62803 10246 20177 38570 48500 71522 83233 333 58000 819// 83830 83360 85080
AAXX 31124 67965 41680 60205 10260 20175 38673 48499 71791 86203 333 59011 81930 86835
AAXX 31124 67975 NIL
AAXX 31124 67977 NIL
AAXX 31124 67983 41680 61203 10244 20212 38874 48501 71522 85232 333 59009 85832
AAXX 31124 67991 42880 71405 10320 20176 39576 48505 82108 333 59008 82856 87280
AAXX 31124 40250 NIL
AAXX 31124 40265 NIL
AAXX 31124 40296 32960 00000 10215 20114 40168 57020
AAXX 31124 40310 NIL
BBXX H9UY 31124 99327 11432 41697 73519 00/// 10130 40231 51/// 70222 86393 9//// 22273 04200 20303 336// 40306 5//// 6//// 80120
BBXX SHIP 31124 99117 11297 41/97 12909 10300 20259 40087 57022 71722 81/// 22273 00305 80269
BBXX SHIP 31124 99079 11089 41497 70419 10270 20257 40128 52005 70222 8662/ 22252 00254 80260
BBXX 3FMH7 31124 99336 11694 41597 82815 00/// 10200 20185 40167 5//// 71882 87/// 9//// 22272 0//// 1//// 2//// 3//// 4//// 5//// 6//// 80190
BBXX WCX8882 31124 99374 11456 41497 73230 10060 2004/ 40218 54000 7//11 8742/ 22214 00130 20508 301// 40606 5//// 6//// 80050 ICE /////
BBXX UBSF2 31120 99455 11422 42/98 61407 1100 40329 55021 70000 8//// 22233 00000 2////
BBXX UFLC 31120 99547 11474 42398 80108 11076 40275 54000 8712/ 22213 06012 20402
BBXX IDDUK02 31124 99528 50401 46/// ///// 49911 222//
BBXX A8IN7 31124 99278 70746 41397 41106 10230 20199 40210 55010 70322 82464 22244 06240 20304 80210
BBXX 46111 31121 99481 71227 46/// /2103 10045 40279 51045 91200 22200 00053
BBXX 42085 31121 99179 70665 46/// /0707 10262 40181 91140 333 91209
BBXX 42085 31121 99179 70665 46/// /1008 10252 40185 91150 333 91211
BBXX 42085 31121 99179 70665 46/// /0906 10250 40185 52019 91200 22200 00271 10803 70016 333 91208
BBXX WKAB 31124 99249 10588 41/98 10603 10230 20041 40201 5//// 7//00 8//// 22224 00238 2//// 3//// 4//// 5//// 6//// 80130 ICE /////
BBXX MDGV9 31124 99235 70176 41497 50920 10180 20146 40308 54000 70211 83141 22253 02170 10302 70010 80160
BBXX WKPF 31123 99231 10367 41697 31609 10255 2023/ 40125 56010 70500 83010 22234 00249 20101 312// 40702 5//// 6//// 80240 ICE /////
BBXX VRJI2 31123 99213 70239 41697 60524 10210 2015/ 40240 50010 7//21 85467 22253 00220 21004 30504 41504 51002 6//// 80170
BBXX 46204 31121 99514 71288 46/// /0601 10047 40238 52017 22200 00077 11106 70029 333 91202
BBXX 46131 31121 99499 71250 46/// /2802 1//// 40268 52040 22200 00072 10400 70001 333 91203
BBXX 46183 31121 99536 71311 46/// /3302 10029 40221 52020 22200 00073 11101 70007 333 91204
BBXX C6FR4 31124 99130 70831 41698 40423 10240 2//// 40140 53020 7//// 82290 22283 04290 20402 304// 40803 5//// 6//// 8//// ICE /////
BBXX A8JF3 31124 99403 70527 41898 60707 10170 2014/ 40320 51020 70211 86872 22264 0//// 2//// 3//// 4//// 5//// 6//// 80150 ICE /////
BBXX 46147 31121 99518 71312 46/// /1504 10039 40221 52009 22200 00077 11107 70035 333 91208
BBXX PJKV 31123 99215 70707 41497 41421 10268 20264 40203 53023 70300 842/1 22214 04280 20402 314// 40803 5//// 80265
BBXX 44024 31121 99423 70659 46/26 /1305 10086 40198 56011 91204 22200 00079 10503 70013 333 91206 555 11062 22068
BBXX 44034 31121 99441 70681 46/30 /1310 10079 40168 58020 91204 22200 00077 10604 70018 333 91213 555 11121 22130
BBXX 44098 31121 99428 70702 46/// ///// 1//// 91207 22200 00082 10502 20502 70011
BBXX 41029 31121 99328 70796 46/// /2507 1//// 91200 555 11073 22075
BBXX 51205 31121 99210 71564 46/// ///// 1//// 91218 22200 00236 10904 20904 303// 41102 70021
BBXX 46221 31121 99339 71186 46/// ///// 1//// 91145 22200 00148 11703 21002 327// 41702 70013
BBXX 41115 31121 99184 70673 46/// ///// 1//// 91205 22200 11302 20902 301// 41301 70010
BBXX KNJK 31123 99257 70853 41798 21805 10228 20186 40200 51020 7//00 82//9 22233 00239 2//// 3//// 4//// 5//// 6//// 80200 ICE /////
BBXX 9HXD9 31124 99202 70668 41698 30816 10250 20222 40180 52010 7//00 834// 22274 00284 20405 310// 4//// 5//// 6//// 80230 ICE /////
BBXX H3GS 31124 99302 70802 41998 02825 10190 2012/ 40210 52020 702// 80/// 22243 04231 20406 31819 40804 50604 6//// 80150 ICE /////
BBXX 3EBL5 31124 99256 70766 41897 23211 10240 20163 40210 51020 70100 811// 22264 04270 2//02 311// 4//02 5//// 6//// 80190 ICE /////
BBXX 46211 31121 99469 71242 46/// ///// 1//// 91206 22200 00082 11308 21005 327// 41306 70040
BBXX 46218 31121 99345 71208 46/// ///// 1//// 91202 22200 00133 11706 21004 329// 41704 70030
BBXX 46242 31121 99332 71174 46/// ///// 1//// 91158 22200 00141 11802 20601 324// 41801 70009
BBXX 46231 31121 99327 71174 46/// ///// 1//// 91154 22200 00148 11703 21002 328// 41703 70016
BBXX 46222 31121 99336 71183 46/// ///// 1//// 91156 22200 00147 11803 20802 326// 41802 70014
BBXX 46212 31121 99408 71243 46/// ///// 1//// 91212 22200 00104 11506 21004 330// 41505 70032
BBXX 46217 31121 99342 71194 46/// ///// 1//// 91212 22200 00143 11302 21002 327// 41302 70012
BBXX 46240 31121 99366 71219 46/// ///// 1//// 91212 22200 00121 11403 21001 335// 41402 70014
BBXX 46223 31121 99335 71178 46/// ///// 1//// 91200 22200 00147 11802 20901 328// 41802 70012
BBXX 46241 31121 99330 71173 46/// ///// 1//// 91141 22200 00143 11702 21001 326// 41702 70010
BBXX 46248 31121 99461 71247 46/// ///// 1//// 91204 22200 00095 11209 21006 330// 41207 70047
BBXX 46249 31121 99338 71197 46/// ///// 1//// 91210 22200 00148 11703 21002 327// 41703 70016
BBXX 42364 31121 99291 70881 46/// /0000 10200 20172 40210 91215
BBXX 42362 31121 99278 70907 46/// /2004 10233 20183 40210 91215
BBXX 42363 31121 99282 70892 46/// /2504 10217 20139 40214 91215 333 91204
BBXX 44100 31121 99363 70756 46/// ///// 1//// 91152 22200 00122 10501 20501 70006
BBXX DGXS 31124 99541 71586 41598 43611 11030 21061 40115 50030 70322 83473 22224 00040 20801 33232 40801 50601 81040
BBXX 46207 31121 99509 71299 46/// /1104 10046 40227 52007 22200 00080 11106 70030 333 91207
BBXX SHIP 31124 99511 31100 41697 62728 10049 20014 49968 55004 70211 86800 22243 00058 11209 20504 32823 40910 50809 6/00/
BBXX HZGN 31123 99028 11009 41697 43111 10295 20233 40132 52010 70011 841// 22274 02264 20301 331// 40502 5//// 80250
BBXX C6UA2 31124 99189 31676 41497 50909 10270 20243 40090 54000 70300 838// 22234 00280 23002 3//// 40000 5//// 6//// 80250 ICE /////
BBXX PCBZ 31124 99071 70826 41699 62914 10258 20233 40100 52009 70122 83461 22223 00250 299// 322// 41002 80240 90992
BBXX 62103 31124 99499 70029 46/98 /2730 10120 20110 40144 58008 22200 00119 10704 70020 333 90710 91138
BBXX 62095 31124 99531 70159 46/// /2421 10113 20075 40012 58001 22200 00112 10809 70045 333 90710 91132
BBXX V2AI7 31123 99402 10185 32898 13630 10120 20/// 40095 52015 70100 81318 22274 00/// 20609 ......
BBXX 62107 31124 99501 70061 46/// /2626 10117 20113 40147 58009 22200 00116 10804 70022 333 90710 91133
BBXX 62301 31124 99524 70047 46/// /2419 10180 20176 40084 58011 22200 00092 10504 70022
BBXX 62304 31124 99511 10018 46/// /2416 10111 20098 40113 58005 22200 00105 10701 70005
BBXX 62305 31124 99504 10000 46/98 /2533 10120 20112 40137 58008 22200 00116 10603 70014 333 90710 91139
BBXX 62170 31124 99514 10020 46/97 /2315 10110 20106 40106 58006 22200 00105 10701 70005
BBXX 62094 31124 99517 70067 46/// /2322 10110 20107 40100 57011 22200 00106 10505 70023 333 90710 91133
BBXX PJGO 31124 99571 10022 47/95 /2308 10080 49997 58004 704// 22200
BBXX 62103 31124 99499 70029 46/98 /2626 10120 20110 40150 50001 22200 00119 10704 70019 333 90710 91135
BBXX 62169 31123 99614 10014 41296 81745 10070 20070 49914 57040 76362 886// 22200 02080 20309 399// 40904 5//// 80070
BBXX 62116 31124 99576 10011 47597 /2411 10086 20079 49980 57007 700// 22200 10604 70019
BBXX 62118 31124 99577 10009 47997 /2113 10104 20082 49971 57010 700// 22200 10604 70018
BBXX 62153 31124 99573 10020 47196 /2112 10083 20083 49990 58006 710// 22200 10604 70018
BBXX 62104 31124 99574 10013 47597 /2211 10088 20080 49984 57006 700// 22200
BBXX 62155 31124 99577 10007 47598 /2111 10088 20081 49978 57010 700// 22200 10604 70019
BBXX 62102 31124 99579 10018 46/// /2209 10085 20076 49982 58006 22200 10604 70020
BBXX 62143 31124 99577 10018 47297 /2109 10084 20081 49985 58005 700// 22200 10504 70019
BBXX 62117 31124 99579 10000 47998 /2012 10087 20074 49971 58011 700// 22200 10603 70017
BBXX 62114 31124 99583 10000 46/// /2118 10084 20074 49964 57010 22200
BBXX ZQSD5 31124 99583 10007 46/// /2212 10091 20075 49972 58006 22200 10705 70025
BBXX 62134 31124 99580 10014 47497 /2212 10086 20075 49977 58007 700// 22200 10604 70020
BBXX 62113 31124 99584 10002 47998 /2215 10083 20078 49966 58009 700// 22200
BBXX 62129 31124 99584 10003 46/// ///// 10085 20075 49965 58011 22200
BBXX 62122 31124 99573 10016 47598 /2210 10088 20081 49992 58005 700// 22200 10604 70019
BBXX 62128 31124 99587 10014 47197 /2315 10083 20076 49965 58008 700// 22200 10605 70023
BBXX 63057 31124 99592 10015 47195 /2213 10084 20076 49954 57009 751// 22200 10605 70025
BBXX 62140 31124 99573 10013 46/// /24// 10084 20078 49987 57004 22200
BBXX 62146 31124 99572 10021 47/95 /2307 10081 20076 49991 58006 704// 22200 10604 70018
BBXX 62164 31124 99572 10008 47998 /2311 10097 20078 49989 57006 700// 22200 00090 10604 70018
BBXX 62133 31124 99571 10009 46/// /2412 10085 20063 49988 58008 22200 10603 70015
BBXX 62119 31124 99570 10019 47297 /2511 10086 20076 49996 58005 700// 22200 10604 70018
BBXX 62152 31124 99570 10018 47/98 /2108 10085 20073 49998 58005 700// 22200 10504 70019
BBXX 62165 31124 99540 10009 47998 /2415 10095 20073 40057 58003 700// 22200 10502 70010
BBXX 62154 31124 99564 10022 46/// /2513 10083 20081 40002 58004 22200
BBXX 62120 31124 99564 10021 47997 /2614 10086 20086 40003 58005 700// 22200
BBXX 62127 31124 99540 10007 47999 ///// 10099 20072 40052 58002 700// 22200 10502 70010
BBXX 62132 31124 99564 10020 46/// /2609 10088 20078 40002 58008 22200
BBXX 62123 31124 99563 10022 47997 /2413 10089 20077 40005 58003 700// 22200
BBXX 62131 31124 99539 10012 46/// /23// 10093 20078 40055 58003 22200
BBXX 62149 31124 99537 10011 47598 /2211 10094 20080 40063 50003 700// 22200 10502 70009
AAXX 31124 06610 01557 82311 10055 20038 39604 40194 50001 60031 76262 8672/ 333 55300 20227 69955 86724 88534 91121 91212
AAXX 31124 06670 01250 81908 10044 20031 39657 40175 57003 60031 76176 8772/ 333 55300 20090 69925 83706 86713 91117 91210
AAXX 31124 06700 01240 82502 10048 20038 39715 40216 50002 60071 76166 877// 333 55300 20266 69965 82704 87712 91107 91204
AAXX 31124 06680 01/01 92425 11041 21041 37447 47980 58001 60281 77074 333 55300 20241 60065 91148 91227
AAXX 31124 06990 01430 81609 10009 21005 39630 40192 57006 60051 723// 887// 333 55300 20133 60015 88512 91118 91210
AAXX 31124 06760 31270 71104 10048 20008 39741 40196 57015 70172 82771 333 55305 21091 81704 87458 91108 91205
AAXX 31124 06720 01256 80000 10011 20008 39632 40224 50001 60141 76366 887// 333 55300 20248 60015 88704 91103 91202
BBXX 62142 31124 99530 10021 47598 /2516 10095 20083 40070 50003 700// 22200 10402 70010
BBXX 62145 31124 99531 10028 47698 /2519 10092 20076 40072 50001 700// 22200 10403 70013
BBXX 64041 31124 99607 70026 47497 /2022 10080 20076 49888 57017 700// 22200 10705 70026
BBXX MWYG6 31124 99603 70040 47997 /2030 10094 700// 22200
BBXX 63115 31124 99616 10013 47295 /1633 10085 20059 49899 57031 762// 22200 10812 70059
BBXX 63104 31124 99612 10016 47194 /1735 10066 20057 49916 57030 762// 22200
BBXX 63117 31124 99613 10011 47395 /1831 10073 20058 49924 57032 762// 22200
BBXX 63103 31124 99612 10011 46/// /1830 10074 20069 49906 57025 22200 10810 70051
BBXX 63101 31124 99612 10009 46/// /1925 10078 20072 49914 57032 22200
BBXX 63112 31124 99611 10010 47/96 /1826 10080 20064 49907 57024 761// 22200 10811 70053
BBXX 63113 31124 99610 10017 46/// /1835 10068 20059 49924 57026 22200 10810 70050
BBXX 63107 31124 99611 10017 46/// /1738 10068 49920 57027 22200
BBXX 63105 31124 99610 10017 47295 ///// 10071 20060 49920 57027 761// 22200
BBXX 63106 31124 99610 10017 46/// /1735 10066 49921 57026 22200
BBXX 63108 31124 99608 10017 47194 /1837 10057 20045 49913 57026 762// 22200 11108 70038
BBXX 63055 31124 99606 10016 47293 /1526 10067 20067 49917 57020 704// 22200 10709 70043
BBXX 62144 31124 99534 10017 47597 /2418 10088 20078 40070 58002 700// 22200 10402 70009
BBXX 62112 31124 99584 70002 47998 /2114 10083 20079 49962 57011 700// 22200
BBXX PJAI 31124 99581 70014 47898 /1911 10097 20046 49949 58019 700// 22200
BBXX 62111 31124 99580 70003 46/// /2213 10089 20064 49968 57016 22200 10604 70018
BBXX 62121 31124 99535 10027 46/// ///// 22200
BBXX 63056 31124 99597 10016 47296 /1727 10075 20066 49944 58019 740// 22200 10607 70034
BBXX 62150 31124 99536 10007 47998 /2512 10101 20079 40067 58005 700// 22200 10502 70008
BBXX 62148 31124 99536 10015 46/// /2317 10092 20081 40065 58001 22200
BBXX 63110 31124 99595 10015 46/// ///// 22200
BBXX 2AUO5 31123 99606 10016 41296 81735 10076 20058 49929 57027 75455 8/6// 22241 20607 333// 41010 80068
BBXX 62301 31124 99524 70047 46/// /2419 10100 20096 40084 58011 22200 00092 10504 70022
BBXX 62027 31124 99491 70022 46/// /2717 1//// 2//// 40173 58004 22200 00108 10804 331// 70021
BBXX 62081 31124 99510 70134 46/// ///// 10124 20117 40092 57007 22200 00119 10708 70041
BBXX 64045 31124 99591 70117 46/// /2525 10093 20050 49822 55014 22200 00101 10809 70047 333 90710 91139
BBXX 62105 31124 99554 70121 46/// /2518 10111 20085 49952 57007 22200 00104 10708 70041 333 90710 91141
BBXX 62303 31124 99516 70051 46/// /2416 10115 20106 40108 58006 22200 00110 10605 70027 333 90710 91126
BBXX 62442 31124 99490 70164 46/// /2320 1//// 2//// 40132 58010 22200 00122 333 90710 91132
BBXX 64046 31124 99606 70049 46/// /1919 10083 20066 49856 58035 22200 00078 10707 70033
BBXX 62001 31124 99452 70050 46/// /2618 10135 20123 40270 58002 22200 00130 10706 70032 333 90710 91126
BBXX 62163 31124 99475 70084 46/// /2420 10124 20113 40214 58009 22200 00124 10707 70033 333 90710 91126
BBXX 62029 31124 99487 70125 46/// /2423 10132 20121 40162 58011 22200 00126 10708 70040 333 90710 91132
BBXX A8RL2 31123 99487 70073 41/97 82524 10140 20122 40180 57/// 71122 8662/ 22214 04123 20906 329// 41406 80130
BBXX 62159 31124 99605 10017 41595 81634 10074 20070 49927 57040 70222 885// 22200 10908 70042
BBXX BATEU01 31124 99461 70147 44/97 82433 10154 20132 40213 58006 70222 8//// 22254 00139 22102 322// 41004 5////
BBXX BATFR15 31124 99461 70141 44597 82419 10179 20139 40238 58017 70011 888// 22214 00137 21002 315// 41504 5////
BBXX BATFR03 31124 99497 70011 46/// /2618 10124 20117 40155 22273
BBXX BATFR09 31124 99380 70097 44897 30022 10144 20089 40341 58001 70211 83400 22283 00170
BBXX BATFR04 31124 99551 70058 46/// /2330 10117 20089 49994 58005 22232 00100
BBXX BATFR02 31124 99498 70005 46/// /2528 10117 20104 40155 50011 22244 00119
BBXX BAREU05 31124 99381 70146 46/// ///// 40379 52002 22234
BBXX BAREU08 31124 99449 70147 46/// ///// 40261 52004 22254
BBXX 61002 31124 99421 10047 46/// ///24 10142 2//// 40224 57006 22200 00133 10706 70030 555 1/030
BBXX BATUK01 31124 99560 70032 46/// /2305 10115 20070 49987 58020 22200 00057
BBXX 61001 31124 99434 10078 46/// /1107 10133 20057 40162 57010 22200 00143 10803 70013
BBXX BATEU05 31124 99626 70045 46/// /2025 10069 49819 58032 22272
BBXX BATFR21 31124 99429 10084 46/// /2316 20349 40165 22273
BBXX BATFR46 31124 99431 10046 44/97 02828 10142 20102 40197 56006 701// 22263 00142
BBXX BATEU08 31124 99588 70099 46/// /2436 10099 20069 49846 55001 22223
BBXX BAREU63 31124 99322 10199 46/// ///// 10161 29066 40112 57009 22251
BBXX BAREU56 31124 99430 10086 46/// ///// 40167 57021 22262
BBXX LF4C 31124 99584 10019 41393 82110 10084 20082 49974 52001 76064 886// 22200 00076 10604 70022 333 91130
BBXX LF3F 31124 99643 10078 43/// /1323 10031 21057 40005 57028 91210 22200 04083 10705 70025 333 91129
BBXX LF5T 31124 99660 10081 41998 71722 10040 21043 40011 57025 70322 85/5/ 91210 22200 06078 10804 70021 333 91126
BBXX LF4B 31124 99606 10037 47/96 /1537 10036 49969 57022 761// 22200 00053 10708 70042 333 91143
BBXX LF3N 31124 99653 10073 41698 61524 10047 21030 49998 57030 70321 8313/ 22200 00089 10705 70024
BBXX 3ERR2 31124 99635 10053 41999 81720 10053 21030 49974 57032 70222 8807/ 22200 06098 11204 70021 333 91126
BBXX DDSD2 31123 99449 70147 41/95 82428 10150 20147 40260 54000 71055 88/// 22254 00133 21010 331// 40908 5//// 80148
AAXX 31121 40009 32565 71003 10093 20030 40154 57010 84550 333 84630 87360
AAXX 31121 40016 31960 51304 10086 20041 40217 56018 70720 80001 333 85070
AAXX 31121 40022 32565 20804 10156 20080 40137 56013 82200 222// 20000 333 83830
AAXX 31121 40030 31560 70000 10063 20037 40174 56013 71041 84570 333 84630 87360
AAXX 31121 40039 31960 50000 10108 20012 40166 56008 72004 85030 333 85360
AAXX 31121 40066 11570 61301 10104 20083 40150 56007 60083 76062 86400 333 86626
AAXX 31121 40072 11570 80000 10114 20099 40184 57020 60052 76202 8552/ 333 85630 88460
AAXX 31121 40083 32970 00301 10108 20028 48448 56007
AAXX 31124 67765 41675 72701 10259 20186 38650 48494 71592 84233 333 58006 81927 84832
AAXX 31124 67775 NIL
AAXX 31124 67779 41580 60104 10256 20199 39031 48488 70252 81132 333 58003 81826 86360
AAXX 31124 67853 NIL
AAXX 31124 67861 NIL
AAXX 31124 67867 42680 70000 10254 20174 38566 48495 84232 333 5//// 84830 84359
AAXX 31124 67881 41680 62803 10246 20177 38570 48500 71522 83233 333 58000 819// 83830 83360 85080
AAXX 31124 67965 41680 60205 10260 20175 38673 48499 71791 86203 333 59011 81930 86835
AAXX 31124 67975 NIL
AAXX 31124 67977 NIL
AAXX 31124 67983 41680 61203 10244 20212 38874 48501 71522 85232 333 59009 85832
AAXX 31124 67991 42880 71405 10320 20176 39576 48505 82108 333 59008 82856 87280
AAXX 31124 67755 NIL
AAXX 31124 67771 41670 72001 10240 20209 38/// 48/// 72582 83232 333 5//// 83830 83360 87080
AAXX 31124 67773 NIL
AAXX 31124 67774 NIL
AAXX 31124 67785 NIL
AAXX 31124 67789 NIL
AAXX 31124 67855 42780 53101 10294 20195 38/// 48/// 85201 333 5//// 85850
AAXX 31124 67857 NIL
AAXX 31124 67863 42680 60000 10272 20198 38/// 48/// 82232 333 5//// 82830 83080
AAXX 31124 67871 NIL
AAXX 31124 67875 NIL
AAXX 31124 67891 NIL
AAXX 31124 67895 NIL
AAXX 31124 67897 NIL
AAXX 31124 67899 NIL
AAXX 31124 67951 41680 62706 10276 20175 38/// 48/// 71792 84203 333 5//// 81920 84830 85080
AAXX 31124 67963 NIL
AAXX 31124 67967 NIL
AAXX 31124 67971 42680 60901 10271 20197 38/// 48/// 85230 333 5//// 85830 83360
AAXX 31124 67976 42680 51110 10279 20202 38/// 48/// 84231 333 5//// 84834
AAXX 31124 67979 NIL
AAXX 31124 89050 11295 82906 10005 20005 49713 52035 60022 77176 8802/
AAXX 31124 89512 42598 71326 10003 21073 39743 49891 52007 87500
AAXX 31124 89574 32998 02304 10027 21056 49911 57011 333 10036
AAXX 31124 89592 32998 00000 11007 21031 49873 57017
AAXX 31124 89606 31998 03208 11259 21309 36299 47764 57003 70231
AAXX 31124 94996 456// 71906 10201 20175 39965 40100 50001 91230 333 10234
AAXX 31121 55299 32980 01101 11020 21260 35868 52005 333 05104
AAXX 31121 55591 32980 00000 10033 21209 36519 52003 333 00101
AAXX 31121 56739 32980 02001 10115 20045 38380 52004 333 00000
AAXX 31121 56951 32970 02702 10146 20069 38529 52011 333 00000
AAXX 31121 56964 32975 03401 10163 20123 38731 40185 52004 333 00000
AAXX 31121 57328 31930 00000 10080 20040 39857 40278 52009 71000
AAXX 31121 57411 31940 00202 10070 20045 39905 40289 52011 71000
AAXX 31121 57447 32960 02001 10062 20040 39721 40283 52014
AAXX 31121 57662 32962 00901 10076 20031 30234 40279 52008
AAXX 31121 57745 31950 83201 10080 20023 39945 40282 52007 71000 8807/
AAXX 31121 57972 11450 80401 10062 20055 30054 40287 52004 69901 72160 885//
AAXX 31121 58203 31957 00000 10010 21016 30244 40287 52010 71000
AAXX 31121 58314 32960 61801 10030 20020 30171 40282 52009 86040
AAXX 31121 58424 31956 02701 10052 21002 30261 40288 52009 71000
AAXX 31121 59023 32861 70901 10115 20045 39944 40261 52013 875//
AAXX 31121 59417 32562 80000 10125 20097 30084 40242 52006 888//
AAXX 31121 59985 32570 60406 10235 20215 30177 40182 52012 86200
AAXX 31121 59995 NIL
AAXX 31124 94996 456// 71906 10201 20175 39965 40100 50001 91230 333 10234
AAXX 31124 62305 31520 32326 10159 20079 40125 57020 70700 83500
AAXX 31124 62306 31940 02528 10184 20065 40136 57034 70700
AAXX 31124 62318 32960 02314 10176 20073 40150 57024
AAXX 31124 62337 32960 02807 10193 20035 40159 57017
AAXX 31124 62366 32960 02010 10181 20038 40167 57019
AAXX 31124 62393 32960 53408 10182 20028 40190 56016 85010
AAXX 31124 62405 32960 23306 10224 20059 40165 57017 80002
AAXX 31124 62414 32960 23512 10234 20008 40161 57014 80001
AAXX 31124 62417 32960 02816 10182 20037 40173 57021
AAXX 31124 62440 32960 02409 10192 20039 40160 57021
AAXX 31124 62463 32560 60117 10216 20077 40155 57018 82280
AAXX 31124 62465 32960 33611 10232 20120 40145 57017 80004
AAXX 31124 62419 NIL
AAXX 31124 62305 31520 32326 10159 20079 40125 57020 70700 83500
AAXX 31124 62306 31940 02528 10184 20065 40136 57034 70700
AAXX 31124 62318 32960 02314 10176 20073 40150 57024
AAXX 31124 62337 32960 02807 10193 20035 40159 57017
AAXX 31124 62366 32960 02010 10181 20038 40167 57019
AAXX 31124 62393 32960 53408 10182 20028 40190 56016 85010
AAXX 31124 62405 32960 23306 10224 20059 40165 57017 80002
AAXX 31124 62414 32960 23512 10234 20008 40161 57014 80001
AAXX 31124 62417 32960 02816 10182 20037 40173 57021
AAXX 31124 62440 32960 02409 10192 20039 40160 57021
AAXX 31124 62463 32560 60117 10216 20077 40155 57018 82280
AAXX 31124 62465 32960 33611 10232 20120 40145 57017 80004
AAXX 31124 62419 NIL
AAXX 31124 62420 32960 42508 10190 20034 40174 57035 80002
AAXX 31124 62432 32960 43204 10194 20029 40179 57015 80002
AAXX 31124 62435 32960 43410 10210 20048 40181 57008 84030
AAXX 31124 62455 32960 02005 10192 20076 40156 57013
AAXX 31124 62458 32960 43011 10182 20083 40158 57009 80004
AAXX 31124 62476 32960 30410 10250 20213 40122 56012 80002
AAXX 31124 62309 31956 02314 10177 20063 40141 57022 70700
AAXX 31124 62325 32960 02209 10187 20079 40151 57020
AAXX 31124 62332 32960 02413 10182 20062 40160 57021
AAXX 31124 62387 32960 32706 10190 20018 40186 52019 83030
AAXX 31124 62452 32960 32606 10160 20045 40174 57016 80001
AAXX 31124 62459 32960 43225 10198 20089 40157 57010 84010
AAXX 31124 62357 32960 01806 10194 20038 40160 57019
AAXX 31124 62403 32960 33507 10232 21013 40163 57018 80002
AAXX 31124 62423 32960 02710 10180 20023 40197 57022
AAXX 31124 62309 31956 02314 10177 20063 40141 57022 70700
AAXX 31124 62325 32960 02209 10187 20079 40151 57020
AAXX 31124 62332 32960 02413 10182 20062 40160 57021
AAXX 31124 62387 32960 32706 10190 20018 40186 52019 83030
AAXX 31124 62452 32960 32606 10160 20045 40174 57016 80001
AAXX 31124 62459 32960 43225 10198 20089 40157 57010 84010
AAXX 31124 62420 32960 42508 10190 20034 40174 57035 80002
AAXX 31124 62432 32960 43204 10194 20029 40179 57015 80002
AAXX 31124 62435 32960 43410 10210 20048 40181 57008 84030
AAXX 31124 62455 32960 02005 10192 20076 40156 57013
AAXX 31124 62458 32960 43011 10182 20083 40158 57009 80004
AAXX 31124 62476 32960 30410 10250 20213 40122 56012 80002
AAXX 31124 62357 32960 01806 10194 20038 40160 57019
AAXX 31124 62403 32960 33507 10232 21013 40163 57018 80002
AAXX 31124 62423 32960 02710 10180 20023 40197 57022
BBXX 46185 31121 99524 71298 46/// /1202 10032 40234 52017 22200 00068 11003 70017 333 91204
BBXX 46185 31121 99524 71298 46/// /1202 10032 40234 52017 22200 00068 11003 70017 333 91204
BBXX ZMENA 31124 99436 31727 46/// ///// 10127 20091 40114 57024 22200
BBXX ZMFR 31124 99413 31748 43/// /1817 10132 20104 40105 57018 22200 00144
BBXX VRDX2 31123 99094 31336 41/97 /3316 10300 20246 40092 7//// 8/776 22224 00310 20404
AAXX 31121 47003 32980 80000 11090 21115 30253 40257 52004 80002 333 11029
AAXX 31121 47005 32580 50000 11153 21195 38587 52001 85500 333 11068
AAXX 31121 47022 32975 00000 11154 21196 38831 52003 333 11027
AAXX 31121 47028 12965 01801 11071 21084 30166 40266 53001 69922 333 11021
AAXX 31121 47031 NIL
AAXX 31121 47037 11567 80000 11078 21084 30139 40268 54000 69912 70170 885// 333 11029
AAXX 31121 47039 11556 00000 11086 21110 30068 40270 52005 69912 71000 333 11009
AAXX 31121 47046 32969 80000 11024 21072 30205 40228 53001 80002 333 10031
AAXX 31121 47050 11956 00901 11076 21089 30231 40266 54000 69912 71044 333 11035
AAXX 31121 47052 12565 80000 11046 21070 39915 40268 57001 69912 885// 333 11037
AAXX 31121 47060 11520 80000 11046 21055 30207 40268 54000 69952 71022 885// 333 11041
AAXX 31121 47061 32980 03201 10010 21050 30192 40236 57003 333 10059
AAXX 31121 47065 11540 80000 11029 21039 30202 40270 57010 69902 71077 885// 333 10006
AAXX 31121 47067 31560 80000 11034 21048 30161 40286 57001 71022 885// 333 11030
AAXX 31121 47068 11540 80000 11025 21041 30218 40254 57001 60012 71072 885// 333 10002
AAXX 31121 47070 31560 80000 11011 21040 30173 40263 58004 71000 885// 333 11001
AAXX 31121 47075 11560 80000 11043 21059 39753 40198 57001 69922 72272 885// 333 11025
AAXX 31121 47008 12570 80000 11031 21045 30201 40257 58005 69942 885// 333 11009
AAXX 31121 47014 32950 70000 11151 21178 39847 40279 53010 87040 333 11085
AAXX 31121 47016 32970 50000 11157 21184 39365 40284 58004 85040 333 11090
AAXX 31121 47020 32965 60000 11122 21142 39877 40280 58007 86030 333 11047
AAXX 31121 47025 32560 83201 11014 21044 30207 40237 54000 885// 333 10047
AAXX 31121 47035 11965 00000 11067 21133 30261 40270 52002 69932 70072 333 11033
AAXX 31121 47041 NIL
AAXX 31121 47055 32970 00000 11005 21061 30191 40238 58003 333 10040
AAXX 31121 47058 11559 80000 11042 21058 30228 40277 54000 69962 71072 885// 333 11034
AAXX 31121 47069 11556 83601 11017 21028 30158 40261 57004 69902 71072 885// 333 11010
AAXX 31121 24790 31999 20000 11483 21499 39449 40428 53001 77670 80001 333 11483
AAXX 31121 24988 32999 00000 11374 21407 30001 40291 58002 333 11269
AAXX 31121 25378 42998 00000 11286 21324 30153 40190 52006 333 91102
AAXX 31121 25503 31999 30903 11446 21469 30169 40321 53009 77673 80001 333 11430
AAXX 31121 25705 31996 60000 11468 21494 39936 40333 52001 71022 83041 333 11463
AAXX 31121 25927 32998 02701 11255 21273 30223 40231 53004 333 11188
AAXX 31121 25932 32999 50000 11211 21244 30186 40228 52002 80005 333 11180
AAXX 31121 31152 32997 50000 11386 21420 39907 40376 57006 82032 333 11367
AAXX 31121 31174 32999 00202 11292 21303 30293 40303 54000 333 11157
AAXX 31121 31489 32998 60000 11273 21298 30182 40313 54000 80002 333 11201
AAXX 31121 31866 11698 83604 11088 21181 30231 40237 57004 69900 70282 885// 333 11048
AAXX 31121 31959 32598 63204 11089 21175 30182 40225 58002 82502 333 11027
AAXX 31121 31989 32999 10205 11068 21100 30172 40228 54001 81040 333 11001
AAXX 31121 32027 11596 83610 11159 21178 30261 40270 52001 60040 78583 889// 333 11147 91012 91114
AAXX 31121 32076 11598 80000 11139 21152 30222 40233 54000 60030 70282 8497/ 333 11079 91000 91104
AAXX 31121 32099 31597 83607 11066 21075 30205 40213 52005 78583 889// 333 11058 91009 91111
AAXX 31121 32121 12997 70102 11071 21109 30202 40225 52003 69940 87030 333 11005 91004 91105
AAXX 31121 32213 32598 70507 11038 21083 30138 40203 58004 87500 333 11027
AAXX 31121 32287 11999 00502 11148 21161 30205 40216 52001 69900 70281 333 11110
AAXX 31121 32408 32999 01103 11257 21281 30176 40219 57003 333 11201
AAXX 31121 32509 32998 03304 11075 21172 30174 40209 53003 333 11039
AAXX 31121 32594 32598 20806 11109 21162 30167 40205 58002 81501 333 11068
AAXX 31121 47101 31520 80000 11036 21062 30162 40262 58003 71022 8552/ 333 11034 3/104 41///
AAXX 31121 47105 369// /2704 10013 21085 30200 40233 58004 333 10062 3/000
AAXX 31121 47108 31656 82703 11001 21065 30149 40258 58002 70522 8552/ 333 10014 34101
AAXX 31121 47115 12670 53404 10032 21054 39943 40219 57004 69902 81501 333 10078 3/000 46003 92032
AAXX 31121 47133 31656 83201 10011 21060 30176 40263 57001 70522 8352/ 333 10028 34000
AAXX 31121 47138 32965 62306 10025 21088 30238 40241 58002 80001 333 10077 30002 92032
AAXX 31121 47159 32965 62504 10028 21123 30148 40235 57004 80002 333 10097 30002 92022
AAXX 31121 47165 32665 80000 10024 21027 30216 40264 57004 8452/ 333 10038 31002 92020
AAXX 31121 47168 32965 53413 10033 21066 30167 40248 54000 80001 333 10067 30001 92024
AAXX 31121 47184 32670 82005 10070 21011 30238 40263 58002 8452/ 333 10072 30005 92022
AAXX 31121 47090 32665 23403 10008 21079 30206 40229 58003 81501 333 10067 3/102 43001 92012
AAXX 31121 47095 31540 82302 11014 21067 30062 40257 58002 70522 8552/ 333 10002 34102
AAXX 31121 47097 329// /0000 11030 21084 30163 40263 56002 333 10008 3/102
AAXX 31121 47098 329// /2301 11008 21061 30115 40254 58003 333 10008 3/101
AAXX 31121 47099 329// /3601 11010 21057 30220 40258 57004 333 10010 3/101
AAXX 31121 47100 31458 62507 11049 21090 39302 40253 50001 71022 83501 333 11024 3/105 49022
AAXX 31121 47102 11658 83404 10008 21019 30075 40258 54000 69952 71022 8552/ 333 10018 31000
AAXX 31121 47104 32965 41803 11014 21086 30132 40233 57004 80001 333 10058 3/101 43003
AAXX 31121 47106 329// /2506 10022 21085 30179 40229 58003 333 10079 3/000
AAXX 31121 47112 31640 81404 10011 21047 30171 40257 58004 70522 8552/ 333 10019 30000 92012
AAXX 31121 47114 31550 70001 11014 21102 30071 40260 54000 70522 85502 333 10011 30103
AAXX 31121 47119 31650 80000 11004 21046 30216 40259 57004 71022 8552/ 333 10021 34102
AAXX 31121 47121 329// /0000 11021 21090 39956 40261 50001 333 10019 3/102
AAXX 31121 47127 329// /0001 11016 21073 30117 40264 54000 333 10019 3/101
AAXX 31121 47129 31650 80000 10003 21025 30227 40264 58004 71022 8552/ 333 10027 31001
AAXX 31121 47130 32965 62306 10017 21118 30167 40230 58002 80001 333 10084 34102 92032
AAXX 31121 47131 31657 82702 10009 21071 30188 40261 57002 70510 8252/ 333 10014 34000
AAXX 31121 47135 329// /2501 11002 21068 39951 40259 57003 333 10009 3/101
AAXX 31121 47136 32660 63401 11016 21092 30078 40256 50005 82501 333 10044 30105
AAXX 31121 47137 329// /2503 10008 21084 30136 40258 54000 333 10026 3/101
AAXX 31121 47140 32661 81103 10009 21047 30234 40264 58003 8352/ 333 10025 31001 92011
AAXX 31121 47143 32961 62503 10017 21084 30182 40263 58001 80001 333 10051 30102
AAXX 31121 47145 31658 80001 10001 21051 30227 40254 58001 70522 8552/ 333 10025 34000
AAXX 31121 47146 32665 80000 10015 21054 30197 40265 50001 8552/ 333 10032 31000
AAXX 31121 47150 32662 83201 10010 21048 30239 40259 58003 8552/ 333 10024 34000
AAXX 31121 47152 32965 63406 10021 21089 30194 40238 50002 80002 333 10092 30101
AAXX 31121 47154 329// /3403 10003 21070 30196 40258 54000 333 10032 3/101
AAXX 31121 47155 32963 61605 10031 21074 30199 40246 50001 80002 333 10059 30000
AAXX 31121 47156 32665 80000 10026 21035 30176 40267 58001 8552/ 333 10043 31001
AAXX 31121 47157 32968 62707 11023 21072 39970 40250 50005 80001 333 10052 30104
AAXX 31121 47162 32965 60703 10032 21097 30203 40244 54000 80002 333 10083 30002 92021
AAXX 31121 47169 32661 83406 10057 21008 30167 40262 58001 8352/ 333 10058 31004 92033
AAXX 31121 47170 32665 80001 10031 21046 30218 40262 58003 8352/ 333 10044 30002 92021
AAXX 31121 47171 329// /2001 10011 21045 30209 40266 54000 333 10031 3/000
AAXX 31121 47172 329// /0000 10012 21031 30193 40261 56001 333 10030 3/000
AAXX 31121 47173 329// /0000 11007 21051 30151 40266 57002 333 10034 3/101
AAXX 31121 47174 32662 82908 10012 21057 30051 40258 57002 8352/ 333 10030 31000
AAXX 31121 47175 32562 83209 10006 21024 39674 40261 58007 8552/ 333 10019 31000 92023
AAXX 31121 47185 32665 83215 10080 20004 30169 40261 57004 8552/ 333 10085 30006 92024
AAXX 31121 47188 32670 63207 10069 21008 30227 40249 57004 86500 333 10084 30005 92022
AAXX 31121 47189 32670 62901 10084 20019 30184 40244 51001 85500 333 10120 30006 92022
AAXX 31121 47192 32967 60000 11009 21074 30215 40254 52004 80001 333 10068 30101
BBXX ZMENA 31124 99436 31727 46/// ///// 10127 20091 40114 57024 22200
BBXX ZMFR 31124 99413 31748 43/// /1817 10132 20104 40105 57018 22200 00144
BBXX VRDX2 31123 99094 31336 41/97 /3316 10300 20246 40092 7//// 8/776 22224 00310 20404
AAXX 31124 87582 32460 31107 10231 20182 30137 40144 52015 83600 333 10239 20215 30000 56200 83717
AAXX 31121 28952 42999 21801 11106 21159 30162 40365 52012 80001 555 1/115
AAXX 31121 28867 42998 42303 11105 21158 30079 40366 52013 80002 555 1/111
AAXX 31121 28867 42998 42303 11105 21158 30079 40366 52013 80002 555 1/111
AAXX 31121 28952 42999 21801 11106 21159 30162 40365 52012 80001 555 1/115
BBXX NIL
BBXX NIL
AAXX 31121 60376 36/// /2404 10167 20167
AAXX 31121 60593 36/// /0405 10138
BBXX NIL
BBXX NIL
AAXX 31124 89132 NIL
AAXX 31124 89542 46/// /0809 11006 20031 49973 54001
AAXX 31124 89575 NIL
AAXX 31124 89657 NIL
BBXX NIL
AAXX 31124 40255 11556 70000 10118 20078 39447 40164 57010 69901 70522 86830 333 84830 85635
AAXX 31124 40260 NIL
AAXX 31124 40270 31540 42108 10122 20046 39253 40149 57013 70511 84200 333 84830
AAXX 31124 40272 31956 32810 10140 20044 39320 40153 57010 70522
AAXX 31124 40290 NIL
AAXX 31124 40340 32660 43606 10190 20082 40156 57015 84200 333 84830
AAXX 31124 40250 NIL
AAXX 31124 40265 NIL
AAXX 31124 40296 32960 00000 10215 20114 40168 57020
AAXX 31124 40310 NIL
AAXX 31121 80001 32470 40706 10270 20238 30135 40136 81206 333 20258 30/// 50320 55097 562/0 58003 81818 83070
AAXX 31121 80002 12470 60605 10270 20241 69904 82108 333 20262 32/// 5///0 55086 561/0 70000 82817 84270
AAXX 31121 80001 32470 40706 10270 20238 30135 40136 81206 333 20258 30/// 50320 55097 562/0 58003 81818 83070
AAXX 31121 80022 31962 30000 10242 20227 30102 40104 70500 80001 333 20242 30/// 50430 55075 56//0 58006 83070
AAXX 31121 80028 31960 30204 10254 20225 30078 40113 70500 80005 333 20248 30/// 5///0 55094 56//0 58000
AAXX 31121 80035 31965 40803 10246 20226 30132 40137 7052/ 333 20234 30/// 50330 55078 58001
AAXX 31121 80036 31468 30504 10232 20209 7050/ 81502 333 20231 30/// 50660 55090 560/0 81615
AAXX 31121 80063 31404 70000 10250 20244 7462/ 81610 333 20238 30/// 5600/ 81712 87459
AAXX 31121 80084 31450 40203 10254 20239 7052/ 84800 333 20242 30/// 55078 565// 84812
AAXX 31121 80091 31462 50000 10248 20239 7052/ 82801 333 20246 30/// 50250 55012 569/0 82615 83070
AAXX 31121 80094 31968 21702 10192 20186 38811 7050/ 81031 333 20179 30/// 50300 55027 56/99 59003 81360
AAXX 31121 80097 32570 31804 10246 20178 39759 40106 82102 333 20217 30/// 50500 55058 569/9 59012 82822
AAXX 31121 80099 31462 60000 10236 20224 39947 40092 7052/ 85812 333 20228 30/// 50770 55095 56999 58000 85817
AAXX 31121 80110 31460 80000 10192 20168 38510 70522 8457/ 333 20184 31/// 5500 5600/ 59003 84615 86357
AAXX 31121 80112 NIL
AAXX 31121 80139 32570 50406 10252 20234 83531 333 20240 30/// 50730 55094 55299 83623
AAXX 31121 80144 NIL
AAXX 31121 80149 NIL
AAXX 31121 80210 11458 50902 10190 20168 38663 60024 74022 82530 333 20180 30/// 50280 55032 5677/ 59006 82615 83357
AAXX 31121 80211 11570 50000 10188 20179 69994 7052/ 83570 333 20180 30/// 50240 55031 5682/ 83625 83362
AAXX 31121 80214 31450 70000 10200 20185 39128 7412/ 84871 333 20186 30/// 50310 55033 56500 59003 84815 83359
AAXX 31121 80222 31567 20503 10098 20072 37535 70500 81141 333 20083 30/// 55060 56999 58000 81820
AAXX 31121 80234 32962 40000 10222 20176 39622 40110 82032 333 20200 300// 50430 55063 56/39 59003 82359
AAXX 31121 80241 NIL
AAXX 31121 80259 NIL
AAXX 31121 80315 32665 10000 10238 20218 39603 40107 81150 333 20235 30/// 50560 55078 5609/ 58003 81843
AAXX 31121 80342 31540 40000 10146 20136 38214 7402/ 84800 333 20146 30/// 50490 55072 564// 59011 84620
AAXX 31121 80370 NIL
AAXX 31121 80398 12262 70000 10244 20240 30029 40129 60184 85530 333 20239 31/// 50290 55031 5699/ 59009 85605 86358
AAXX 31124 63729 32580 60605 10262 20199 38875 48/// 8193/ 333 55304 58011 81822 81924 86362
AAXX 31124 63733 32580 73011 10235 20193 38866 48507 81931 333 55300 58013 81824 81925 86359
AAXX 31124 63756 01580 61805 10238 20183 38871 48509 69951 70262 82931 333 0//12 55304 58004 69957 82825 81926 85361
AAXX 31124 63791 32680 42705 10328 20118 39105 48510 84930 333 55308 59009 81932 83834 Q1012
AAXX 31124 63801 01480 70000 10215 20200 39227 48548 60211 76196 8191/ 333 0//96 55300 58021 81819 81920 87458
AAXX 31124 63832 32480 62405 10237 20197 38831 48510 8397/ 333 55300 58019 83819 81920 86358
AAXX 31124 63862 32580 50610 10270 20177 38889 48502 85971 333 55310 58022 85825 81927
AAXX 31124 63866 32580 30610 10306 20218 39503 48/// 83100 333 55310 58014 83827
AAXX 31124 63870 32580 13617 10322 20233 30078 40096 81200 333 55310 58009 81824
AAXX 31124 63887 32580 73512 10245 20178 38580 48505 8597/ 333 55303 58013 85822 81923 86358
AAXX 31124 63894 32580 50219 10306 20233 30044 40104 85200 333 55310 58011 85825
AAXX 31124 63962 32580 41216 10283 20207 38929 48498 84900 333 55310 59005 84825 81927
AAXX 31124 63971 12580 40318 10296 20248 39975 40102 69901 84900 333 55307 58011 84823 81924
AAXX 31124 63881 NIL
AAXX 31124 63932 NIL
AAXX 31121 40700 12960 21202 10106 20015 30096 40186 57014 60001 80002 333 82068
AAXX 31123 91487 NIL
AAXX 31123 91490 NIL
AAXX 31123 91533 NIL
AAXX 31123 91601 NIL
AAXX 31123 91610 11599 11007 10266 20215 40087 58010 60001 70200 81100 333 10///
AAXX 31123 562//
AAXX 31123 91623 NIL
AAXX 31123 91629 NIL
AAXX 31123 91701 NIL
AAXX 31123 91487 NIL
AAXX 31123 91490 NIL
AAXX 31123 91533 NIL
AAXX 31123 91601 NIL
AAXX 31123 91610 11599 11007 10266 20215 40087 58010 60001 70200 81100 333 10///
AAXX 31123 562//
AAXX 31123 91623 NIL
AAXX 31123 91629 NIL
AAXX 31123 91701 NIL
OOXX AAVIT 31124 99785 31778 57087 00501 46/// /1904 11082 21112 39744 49807 5//// 91150
AAXX 31121 23973 11997 82503 11058 21065 30167 40230 52018 60012 77172 8802/ 333 11046
AAXX 31121 23975 119// 82602 11059 21063 30127 40238 52022 69962 77187 8802/ 333 11042
AAXX 31121 23986 11497 81803 11082 21096 39595 40245 53020 69922 77187 8371/ 333 11068 95005
AAXX 31121 23987 11495 72203 11059 21082 30174 40249 52025 60022 78583 87900 333 11047 92980
AAXX 31121 24606 119// 80701 11139 21152 39926 40206 52004 69952 77172 8802/ 333 11139
AAXX 31121 29253 119// 82002 11052 21077 30106 40282 52024 69952 77172 8802/ 333 11044
AAXX 31121 29471 32598 32503 11060 21104 30087 40322 52018 83900 333 11041
AAXX 31121 29481 32999 22501 11110 21130 30074 40323 52018 80001 333 11064
AAXX 31121 29553 11875 62504 11078 21109 39966 40345 52023 69922 70283 83071 333 11056
AAXX 31121 29562 31584 82504 11072 21115 39914 40345 52022 73632 8491/ 333 11048
AAXX 31121 29581 329// 02403 11088 21122 30069 40336 52021 333 11055
AAXX 31121 29594 12999 32402 11069 21107 39934 40332 52015 69902 80001 333 11039
AAXX 31121 29653 11597 72102 11150 21184 39856 40372 52023 69902 70182 85201 333 11047
AAXX 31121 29675 12998 33101 11094 21129 39742 40358 52018 69922 80005 333 11053
AAXX 31121 29676 32698 72803 11055 21116 39904 40339 52018 82505 333 11017
AAXX 31121 29752 114// 82507 11127 21132 38881 48520 52021 60042 78683 889// 333 11109 91119
AAXX 31121 29759 115// 62301 11095 21125 39298 40365 52027 60022 78583 83931 333 11077
AAXX 31121 29766 32899 70701 11119 21125 30005 40380 52020 87050 333 11072
AAXX 31121 29789 32699 30000 11125 21160 39126 40367 52016 82901 333 11044
AAXX 31121 29864 329// 60000 11113 21157 39701 40385 52020 80002 333 11048
AAXX 31121 29866 329// 22404 11053 21094 30039 40369 52016 80001 333 11031
AAXX 31121 29869 326// 62501 11066 21103 39998 40385 52013 86500 333 11033 95030
AAXX 31121 29956 11672 82505 11050 21090 39826 40402 52021 69922 70282 889// 333 11036 88940
AAXX 31121 30337 32998 70000 11255 21280 39856 40350 57002 83031 333 11217
AAXX 31121 30405 129// 80000 11150 21163 39793 40355 51012 69952 82037 333 11113
AAXX 31121 30504 12997 80000 11149 21162 39678 40366 52014 69972 80007 333 11116
AAXX 31121 30603 11996 80000 11137 21137 39755 40358 52015 60022 71082 83036 333 11122
AAXX 31121 30612 115// 80000 11146 21159 39788 40353 52012 60022 70282 8491/ 333 11140
AAXX 31121 30622 116// 80000 11224 21249 39674 40378 53003 69942 78522 8392/ 333 11221
AAXX 31121 30627 11997 80202 11138 21151 39364 40341 52007 69922 77172 8802/ 333 11138
AAXX 31121 30703 119// 80000 11098 21106 39649 40348 52013 60022 77172 8802/ 333 11098
AAXX 31121 36307 12897 72701 11284 21308 39094 48579 53016 69942 84032 333 11230 95090
AAXX 31121 23074 11497 72006 11102 21122 30033 40058 52011 60022 78587 8693/ 333 11058
AAXX 31121 23274 11497 82002 11102 21115 30080 40117 52020 60012 78582 889// 333 11049 85711
AAXX 31121 23383 11597 81001 11169 21188 38779 40148 52011 69952 77172 83537 333 11113
AAXX 31121 23472 11497 82103 11096 21117 30106 40156 52026 60012 78583 889// 333 11048
AAXX 31121 23678 114// 52201 11084 21103 30145 40205 52030 60012 78587 85900 333 11054
AAXX 31121 23884 115// 82502 11056 21067 30150 40225 52023 60012 77172 8252/ 333 11042
AAXX 31121 23891 11996 80000 11144 21164 39895 52013 69922 77172 82036 333 11117
AAXX 31121 24507 119// 20000 11246 21265 39946 40210 52010 69902 70272 82070 333 11190
AAXX 31121 24817 115// 81903 11133 21146 39856 40240 52001 69942 78587 83906 333 11132
AAXX 31121 24908 11497 81801 11090 21106 39917 40256 52012 60022 78587 889// 333 11087 84713
AAXX 31121 29263 11558 82004 11048 21072 30180 40283 52024 69932 78582 8395/ 333 11040
AAXX 31121 29282 11563 82302 11055 21085 30109 40283 52014 69902 77122 8377/ 333 11048
AAXX 31121 29379 32998 72504 11081 21107 30098 40314 52018 80002 333 11045
AAXX 31121 29570 11596 72403 11064 21096 39980 40338 52018 69922 78582 86901 333 11045
AAXX 31121 29698 316// 60000 11175 21187 39824 40376 52019 70422 82902 333 11136
AAXX 31121 30230 32998 60000 11248 21273 39964 40325 58004 80001 333 11211
AAXX 31121 30252 329// 70000 11342 21365 30067 40431 58003 80001 333 11328
AAXX 31121 30309 12999 80000 11134 21147 39784 40331 52013 69952 80007 333 11113
AAXX 31121 30328 119// 80000 11192 21218 39902 40361 52011 69962 77172 8802/ 333 11192
AAXX 31121 30521 115// 80000 11205 21224 39801 40368 58001 60022 78587 889// 333 11205
AAXX 31121 30710 11494 82802 11121 21135 39738 40351 52011 69962 78682 889// 333 11104
AAXX 31124 71351 17/// /3008 11048 21084 69951 7//4/ 333 10003 21072 70009
AAXX 31124 71353 16/// /3316 11042 21083 60001 333 10037 21047 70004
AAXX 31124 71375 46/// /0513 11117 6///1 333 11027 21129 7////
AAXX 31124 71525 16/// /2911 11017 21069 60001 333 10091 21020 70000
AAXX 31124 71535 16/// /2410 10005 21074 60001 333 10100 21004 70000
AAXX 31124 71536 16/// /2621 10017 21089 60001 333 10083 21031 70000
AAXX 31124 71537 16/// /3106 11037 21073 60001 333 10076 21070 7////
AAXX 31124 71683 46/// /2601 11264 39985 40100 51022 6///1 333 11200 21264 7////
AAXX 31124 71345 16/// /2716 11001 21083 60001 333 10099 21022 70000
AAXX 31124 71257 17/// /3512 11025 21058 69961 7//4/ 333 10049 21087 70006
AAXX 31124 71258 16/// /3110 11044 21074 60001 333 10043 21076 70000
AAXX 31124 71259 16/// /3317 11013 21044 60001 333 10060 21091 70000
AAXX 31124 71274 16/// /3008 11069 21089 60001 333 11022 21145 70000
AAXX 31124 71275 46/// /2814 11057 21071 6///1 333 11056 7////
AAXX 31124 71278 16/// /3112 11058 21070 60001 333 11014 21106 70008
AAXX 31124 71286 16/// /2910 11090 21099 60001 333 11014 21140 70000
AAXX 31124 71287 16/// /2914 11041 21071 60001 333 11053 21109 4/001 70007 555 10010
AAXX 31124 71289 16/// /3013 11038 21078 60001 333 10039 21076 70000
AAXX 31124 71464 46/// ///19 10058 39846 40057 53015 6///1 333 10080 20057 7////
AAXX 31124 71445 16/// /1617 11058 21072 39694 49970 55011 60001 333 11055 21063 4/049 70011
AAXX 31124 71916 46/// /3405 11379 21416 30130 40189 53004 6///1 333 11355 21400 7////
AAXX 31124 71214 17/// /2811 11069 21102 69941 7//4/ 333 10023 21073 70016
AAXX 31124 71223 16/// /2918 11053 21077 60001 333 10025 21066 70000
AAXX 31124 71225 16/// /2717 10007 21084 60001 333 10098 21015 70000
AAXX 31124 71227 46/// /3111 11077 21093 6///1 333 11001 21114 7////
BBXX 51171 31121 99064 71623 46/// ///// 1//// 91146 22200 00276
BBXX 51170 31121 99168 71695 46/// ///// 1//// 91147 22200 00256
BBXX 51169 31121 99004 51600 46/// ///// 1//// 91154 22200 00252
BBXX 52243 31121 99193 11666 46/// ///// 1//// 91154 22200 00268
BBXX 51174 31121 99142 51697 46/// ///// 1//// 91155 22200 00285
AAXX 31124 71916 46/// /3405 11379 21416 30130 40189 53004 6///1 333 11355 21400 7////
AAXX 31124 71351 17/// /3008 11048 21084 69951 7//4/ 333 10003 21072 70009
AAXX 31124 71353 16/// /3316 11042 21083 60001 333 10037 21047 70004
AAXX 31124 71375 46/// /0513 11117 6///1 333 11027 21129 7////
AAXX 31124 71345 16/// /2716 11001 21083 60001 333 10099 21022 70000
AAXX 31124 71214 17/// /2811 11069 21102 69941 7//4/ 333 10023 21073 70016
AAXX 31124 71223 16/// /2918 11053 21077 60001 333 10025 21066 70000
AAXX 31124 71225 16/// /2717 10007 21084 60001 333 10098 21015 70000
AAXX 31124 71227 46/// /3111 11077 21093 6///1 333 11001 21114 7////
AAXX 31124 71525 16/// /2911 11017 21069 60001 333 10091 21020 70000
AAXX 31124 71535 16/// /2410 10005 21074 60001 333 10100 21004 70000
AAXX 31124 71536 16/// /2621 10017 21089 60001 333 10083 21031 70000
AAXX 31124 71537 16/// /3106 11037 21073 60001 333 10076 21070 7////
AAXX 31124 71445 16/// /1617 11058 21072 39694 49970 55011 60001 333 11055 21063 4/049 70011
AAXX 31124 71683 46/// /2601 11264 39985 40100 51022 6///1 333 11200 21264 7////
AAXX 31124 71257 17/// /3512 11025 21058 69961 7//4/ 333 10049 21087 70006
AAXX 31124 71258 16/// /3110 11044 21074 60001 333 10043 21076 70000
AAXX 31124 71259 16/// /3317 11013 21044 60001 333 10060 21091 70000
AAXX 31124 71274 16/// /3008 11069 21089 60001 333 11022 21145 70000
AAXX 31124 71275 46/// /2814 11057 21071 6///1 333 11056 7////
AAXX 31124 71278 16/// /3112 11058 21070 60001 333 11014 21106 70008
AAXX 31124 71286 16/// /2910 11090 21099 60001 333 11014 21140 70000
AAXX 31124 71287 16/// /2914 11041 21071 60001 333 11053 21109 4/001 70007 555 10010
AAXX 31124 71289 16/// /3013 11038 21078 60001 333 10039 21076 70000
AAXX 31124 71464 46/// ///19 10058 39846 40057 53015 6///1 333 10080 20057 7////
AAXX 31121 51711 32980 00901 11099 21140 38103 52022 333 00652
AAXX 31121 51730 32970 01101 11060 21131 40453 52015 333 00602
AAXX 31121 52112 32965 72902 11059 21151 40422 52009 80002 333 00404
AAXX 31121 52737 32980 00000 11084 21274 37100 52010 333 05402
AAXX 31121 52787 32980 00000 11080 21195 37051 52010 333 05151
AAXX 31121 53352 32980 01402 11123 21189 40422 52007
AAXX 31121 53593 32960 02501 11079 21119 40355 52012
AAXX 31121 53705 32965 00000 11045 21101 40368 52014 333 05251
AAXX 31121 53863 32962 02502 11005 21118 40328 52015
AAXX 31121 53975 32964 00401 10015 21075 40310 52014
AAXX 31121 54273 11970 00000 11202 21229 40310 52007 69901 70070
AAXX 31121 54324 32962 01602 11119 21185 40311 52008
AAXX 31121 54405 32970 03206 11007 21178 40309 52009
AAXX 31121 54436 32965 01401 11052 21107 40311 52008
AAXX 31121 54808 31958 83402 10000 21014 40301 52015 71000 8802/
AAXX 31121 54826 32960 00204 11060 21069 38492 52008
AAXX 31121 54836 32660 82502 10025 21026 40297 52010 885//
AAXX 31121 54863 31940 82502 10003 21038 40285 52004 71000 80007
AAXX 31121 56018 32980 00000 11033 21215 36182 52005 333 05202
AAXX 31121 56021 32980 00202 11071 21301 36084 52008 333 05203
AAXX 31121 57071 31920 00405 10009 21015 40299 52020 71000
OOXX AAERC 31124 99815 31639 60713 00451 46/// /3406 11069 21098 39723 49779 5//// 91150
AAXX 31124 42027 32596 10000 10074 21008 38455 48542 81500 333 10105 59004
AAXX 31124 42071 31994 00000 10153 20104 40184 70500 333 10197 58008
AAXX 31124 42101 31995 00000 10166 20128 40177 70500 333 10211 58002
AAXX 31124 42111 31695 70000 10166 20101 39394 40171 70522 85830 333 10208 58003 82625 84830 86360
AAXX 31124 42131 31995 00000 10164 20128 40173 70540 333 10182 59006
AAXX 31124 42165 31995 00000 10190 20013 40157 70500 333 10220 59005
AAXX 31124 42182 31694 30000 10200 20130 40115 70400 81530 333 10233 59006 81640 83360
AAXX 31124 42189 31595 20000 10212 20136 40155 70500 82500 333 10244 59006 82625
AAXX 31124 42260 31995 50504 10203 20126 40153 70500 83031 333 10232 59013
AAXX 31124 42328 32996 03606 10204 21038 40159 333 10226 59006
AAXX 31124 42339 31995 03603 10208 20011 40148 70500 333 10223 59011
AAXX 31124 42348 31695 40904 10196 20095 40150 70400 84500 333 10210 59014 84640
AAXX 31124 42361 21594 80000 10192 20155 40148 76044 8442/ 333 10232 59012 6990/ 84620 83825 88458
AAXX 31124 42369 31596 70000 10214 20150 40156 70500 83530 333 10240 59006 83620 85360
AAXX 31124 42379 31595 10000 10196 20145 40152 70500 81500 333 10256 59004 81625
AAXX 31124 42452 31595 73602 10204 20126 40135 70522 85531 333 10214 59022
AAXX 31124 42475 31595 50000 10226 20149 40149 70522 83530 333 10253 59010 83630 85360
AAXX 31124 68513 36/// /1619 10236 20111 30036 40146 50000 333 10242 20137 91026 555 91014
AAXX 31124 68514 32/// ///// 1//// 2//// 3//// 4//// 5//// 333 1//// 2//// 555
AAXX 31124 68523 36/// /2209 10322 20007 39082 48521 57005 333 10324 20154 91019 555 91014
AAXX 31124 68527 36/// /2909 10334 21033 39031 48497 58006 333 10341 20206 91017 555 91011
AAXX 31124 68572 11674 72317 10098 20087 38407 48518 53015 60131 71799 879// 333 10237 20098 91034 555 20134 61005 91020
AAXX 31124 68575 NIL
AAXX 31124 68581 36/// /1008 10254 20191 39354 48520 58012 333 10260 20177 91014 555 91013
AAXX 31124 68583 36/// /1109 10244 20215 30013 40121 57007 333 10282 20215 91019 555 91012
AAXX 31124 68589 NIL
AAXX 31124 68613 36/// /2409 10217 20126 30041 40155 57010 333 10227 20118 91016 555 91015
AAXX 31124 68647 36/// /1509 10192 20130 38916 48515 58001 333 10199 20153 91012 555 91017
AAXX 31124 68651 36/// /1210 10175 20134 38558 48520 53000 333 10184 20131 91015 555 91020
AAXX 31124 68715 36/// /2006 10287 20106 30009 40131 57007 333 10299 20135 91014 555 91013
AAXX 31124 68717 36/// /2205 10301 20050 39982 40119 57013 333 10301 20139 91011 555 91012
AAXX 31124 68723 36/// /2404 10305 20022 39371 48535 57013 333 10306 20162 91010 555 91013
AAXX 31124 68737 32675 61909 10238 20126 39244 48530 57003 86500 333 10242 20152 91019 555 91016
AAXX 31124 68744 36/// /1615 10230 20136 39088 48511 57003 333 10239 20142 91023 555 91015
AAXX 31124 68747 16/// /1308 10196 20174 39628 48541 51000 69941 333 10213 20173 91012 555 20004 91016
AAXX 31124 68754 16/// /1506 10162 20152 39147 48528 52005 60011 333 10218 20157 91012 555 20010 69965 91018
AAXX 31124 68817 36/// /1809 10260 20126 30137 40149 57005 333 10262 20195 91021 555 91015
AAXX 31124 68821 36/// /1003 10284 20068 39885 40115 58011 333 10284 20165 91007 555 91012
AAXX 31124 68835 NIL
AAXX 31124 68843 36/// /1406 10238 20126 30051 40148 57006 333 10241 20180 91011 555 91015
AAXX 31124 68849 36/// /1306 10184 20147 39420 48531 57006 333 10188 20148 91008 555 91017
AAXX 31124 68912 NIL
AAXX 31124 68918 36/// /1712 10221 20143 30137 40155 58005 333 10223 20170 91016 555 91015
AAXX 31124 68921 NIL
AAXX 31124 68925 NIL
AAXX 31124 68926 32570 21509 10264 20123 39962 40135 57006 82500 333 10280 20151 91016 555 91014
AAXX 31124 68935 NIL
AAXX 31120 44203 326// 50000 11296 21319 38473 40540 52014 82810 333 11253
AAXX 31120 44207 119// 80000 11210 21250 38345 40410 51021 69902 70272 8802/ 333 11124 555 93100
AAXX 31120 44225 119// 23602 11262 21287 38329 40520 52022 69902 70272 82010 333 11217
AAXX 31120 44230 329// 71502 11210 21241 38886 40447 53009 87010 333 11184
AAXX 31120 44272 119// 70000 11148 21175 38261 40372 52007 69942 70272 87070 333 11117
AAXX 31120 44275 328// 72304 11128 21148 37746 40350 51006 83086 333 11122
AAXX 31120 44284 329// 70000 11227 21250 37878 40522 53001 80008 333 11164
AAXX 31120 44287 328// 70505 11142 21203 38142 40401 57002 84074 333 11074
AAXX 31120 44314 11998 03607 11206 21231 39239 40435 52021 69932 70171 333 11143 555 93100
AAXX 31120 44231 319// 50000 11206 21256 38774 40463 52015 70422 80008 333 11182
AAXX 31120 44292 32999 01102 11204 21244 38755 40423 56002 333 11165
BBXX BAREU12 31124 99514 10039 46/// ///// 40103 52009 22223
AAXX 31124 68575 NIL
AAXX 31124 68589 NIL
AAXX 31124 68835 NIL
AAXX 31124 68912 NIL
AAXX 31124 68921 NIL
AAXX 31124 68925 NIL
AAXX 31124 68935 NIL
AAXX 31121 50548 32975 20000 11261 21295 40357 52009 80002
AAXX 31121 50564 32970 02202 11293 21317 40354 52005
AAXX 31121 51334 32980 12201 11081 21113 40488 52014 80002 333 01005
AAXX 31121 51818 32965 00702 11027 21124 40428 52015 333 00403
AAXX 31121 52378 32980 02503 11099 21184 40410 52011 333 00051
AAXX 31121 53487 31958 00402 11059 21162 40358 52016 71000
AAXX 31121 53502 32980 03201 11078 21177 40388 52009 333 05152
AAXX 31121 53923 32980 00701 11009 21090 40331 52011
AAXX 31121 54049 32970 00202 11165 21228 40314 52008
AAXX 31121 54115 32680 73601 11105 21180 40348 52019 86502
AAXX 31121 54157 32962 43401 11139 21216 40307 52007 80002
AAXX 31121 54186 32665 82201 11147 21198 40297 52002 885//
AAXX 31121 54311 32980 03204 11109 21186 40348 52011
AAXX 31121 54346 32965 00901 11099 21164 40300 52008
AAXX 31121 54377 32962 20202 11114 21140 40285 52003 80001
AAXX 31121 54386 32970 00202 11157 21198 40302 52004
AAXX 31121 54493 32960 02501 11112 21124 40283 52003
AAXX 31121 54587 NIL
AAXX 31121 54715 31940 80000 11012 21034 40303 52014 71000 80007
AAXX 31121 54929 31940 30000 11001 21023 40294 52008 71000 80002
AAXX 31121 54945 32562 82901 10038 21016 40290 52006 885//
AAXX 31121 56065 32980 00000 11105 21182 36632 52011 333 05301
AAXX 31121 57193 31957 00201 10024 21007 40292 52016 71000
AAXX 31121 57290 32960 00901 10044 20011 40286 52014
AAXX 31124 67861 41580 43201 10254 20192 38708 48489 70264 82242 333 58003 82825
AAXX 31124 67975 42680 60602 10268 20220 38904 48498 83232 333 59016 83840 83360
AAXX 31124 67755 42680 70302 10288 20216 39/// 48/// 81131 333 5//// 81830 87080
AAXX 31124 67773 42680 70604 10216 20180 38/// 48/// 875// 333 5//// 87635
AAXX 31124 67899 41683 50303 10256 20175 38/// 48/// 71792 84203 333 5//// 81930 84840
AAXX 31124 67843 41580 73604 10270 20211 38929 48490 71522 85273 333 58008 81920 84830
AAXX 31120 44338 32899 20000 11099 21196 38505 40321 53011 82038 333 10023
AAXX 31120 44219 329// 00000 11264 21282 38707 40530 51005 333 11202
AAXX 31120 44221 129// 00000 11278 21296 38684 40547 52017 69932 333 11212
AAXX 31120 44224 329// 00000 11293 21331 38106 40566 52012 333 11100
AAXX 31120 44329 328// 60000 11108 21181 37794 40347 57003 82047 333 11045
BBXX 46206 31121 99488 71260 46/// /3302 10056 40262 52021 22200 00079 11107 70035 333 91203
AAXX 31124 68174 31765 33206 10284 20137 38778 48511 58007 70500 81282 333 10288 20144 91011 555 91017
AAXX 31124 68191 36/// /0905 10311 20154 39618 48552 58010 333 10323 20175 91009 555 91012
AAXX 31124 68242 32680 43003 10284 20148 38713 48500 58007 84200 333 10284 20148 91009 555 91016
AAXX 31124 68262 16/// /2903 10266 20145 38698 48510 58009 69921 333 10268 20181 91009 555 20002 91017
AAXX 31124 68263 32680 63108 10245 20147 38484 48509 57010 86200 333 10248 20165 91014 555 91019
AAXX 31124 68267 11665 73409 10170 20146 38252 48523 58002 60051 76099 871// 333 10204 20130 91013 555 20052 69925 91022
AAXX 31124 68289 36/// /1104 10253 20173 39140 48523 58007 333 10261 20177 91007 555 91015
AAXX 31124 68350 36/// /2705 10308 20130 38653 48510 58009 333 10322 20182 91011 555 91018
AAXX 31124 68368 11658 73006 10187 20160 38324 48519 55006 69961 79596 82963 333 20186 555 20006 91020
AAXX 31124 68403 36/// /2021 10229 20132 30132 40164 58003 333 10233 20138 91029 555 91016
AAXX 31124 68424 32782 12310 10353 21052 39169 48526 57008 81100 333 10353 20172 91028 555 91013
AAXX 31124 68438 32782 42811 10324 20028 38775 48482 58008 84100 333 10341 20171 91022 555 91013
AAXX 31124 68442 32782 42511 10311 20018 38625 48483 58008 84200 333 10323 20136 91022 555 91015
AAXX 31124 68461 31580 53209 10241 20146 38311 48492 58008 72522 82272 333 10257 20144 91013 555 91018
AAXX 31124 68512 32982 02313 10255 20031 39023 48532 52002 333 10258 20134 91019 555 91017
AAXX 31124 68538 32782 42509 10300 20087 38687 48479 58007 84100 333 10302 20152 91017 555 91014
AAXX 31124 68587 NIL
AAXX 31124 68588 16/// /0713 10241 20207 30120 40136 57008 69981 333 10257 20224 91018 555 20008 91013
AAXX 31124 68591 NIL
AAXX 31124 68592 NIL
AAXX 31124 68618 32980 02512 10296 21024 39043 48530 57005 333 10297 20119 91020 555 91016
AAXX 31124 68633 36/// /1902 10260 20078 38484 48478 58008 333 10271 20128 91006 555 91015
AAXX 31124 68668 NIL
AAXX 31124 68714 36/// /2117 10248 20093 30103 40138 58005 333 10258 20136 91024 555 91014
AAXX 31124 68727 36/// /0907 10265 20077 39108 48511 57010 333 10267 20148 91013 555 91014
AAXX 31124 68752 36/// /1308 10213 20159 39477 48542 51001 333 10213 20175 91012 555 91016
AAXX 31124 68816 32982 01822 10234 20128 30099 40152 56004 333 20216 91026 555 91015
AAXX 31124 68828 32570 31308 10217 20143 39911 40140 58014 83500 333 20193 555 91014
AAXX 31124 68842 32680 42011 10239 20123 30084 40153 58009 81570 333 20173 555 91015
AAXX 31124 68858 32480 71405 10215 20176 30000 40154 50001 875// 333 20185 555 91015
AAXX 31124 68906 11393 82614 10172 20143 30053 40117 53005 69921 74022 8767/ 222// 00132 320// 40601 333 10191 20152 91024 555 20002 91011
AAXX 31124 68994 32598 43025 10101 20049 39961 49989 53003 84440 222// 00062 20201 333 10111 20062 91041 555 90998
AAXX 31124 89004 36/// /0918 11082 21122 38895 49915 52021 333 11080 21104 91022 555 90985
BBXX 46206 31121 99488 71260 46/// /3302 10056 40262 52021 22200 00079 11107 70035 333 91203
BBXX BAREU12 31124 99514 10039 46/// ///// 40103 52009 22223
AAXX 31124 71129 12774 22812 11062 21099 39220 40050 53052 60001 81501 333 10022 21065 40997 79999
AAXX 31124 71129 12774 22812 11062 21099 39220 40050 53052 60001 81501 333 10022 21065 40997 79999
AAXX 31121 50658 32962 03602 11222 21243 40334 52007
AAXX 31121 50888 32970 32701 11221 21242 40296 54000 80002
AAXX 31121 50983 32970 53602 11189 21232 40296 57002 80002
AAXX 31121 51053 32973 70902 11096 21124 40494 52012 83032 333 01352
AAXX 31121 51542 32980 03201 11228 21254 37660 52008 333 00753
AAXX 31121 52436 32980 02903 11078 21164 38569 40425 52023 333 00200
AAXX 31121 52908 32980 12502 11095 21321 35770 52007 80002 333 05103 91124 91527
AAXX 31121 52996 32970 00902 11049 21095 37602 52011 333 05103
AAXX 31121 53083 32980 00205 11217 21238 40452 52017 333 00352
AAXX 31121 53764 32962 33201 11045 21109 40354 52006 80002
AAXX 31121 53787 32962 00402 11043 21103 40325 52012
AAXX 31121 54096 32970 00000 11173 21213 40298 52003
AAXX 31121 54226 32980 00000 11141 21202 40314 52004
AAXX 31121 54259 32962 00201 11126 21168 40299 52009
AAXX 31121 54527 32960 01602 11024 21102 40298 52010
AAXX 31121 54534 32965 31402 11036 21081 40302 52012 80002
AAXX 31124 42559 32596 50501 10222 20151 40117 82530 333 10250 59015 82620 85360
AAXX 31124 42571 31596 30502 10250 20158 40129 70500 82101 333 10292 59010
AAXX 31124 42667 31596 50000 10264 20208 39532 40110 70500 83201 333 10287 59014 82625 83830 85075
AAXX 31124 42754 31996 22505 10264 20153 39476 40100 82500 333 10292 59016 82620
AAXX 31124 42779 32596 80000 10224 20153 39447 40142 8451/ 333 10261 58003 84620 88458
AAXX 31124 42867 21596 71406 10270 20200 40119 76020 85930 333 10303 58001 6990/ 83620 83825 81930 85360
AAXX 31124 42874 31596 70702 10264 20193 40128 70522 84530 333 10278 58005 84625 86360
AAXX 31124 42933 32597 41801 10303 20152 40102 81532 333 10335 59008 81630 83360
AAXX 31124 43041 21496 80904 10214 20205 39525 40144 76162 8572/ 333 10265 56499 58012 6004/ 83715 84520 88458
AAXX 31124 42675 NIL
BBXX 46205 31121 99542 71343 46/// /2108 10036 40188 52015 22200 00071 11007 70034 333 91210
BBXX 46132 31121 99497 71279 46/// /0204 10049 40244 52009 22200 00083 11007 70035 333 91205
BBXX 46132 31121 99497 71279 46/// /0204 10049 40244 52009 22200 00083 11007 70035 333 91205
BBXX 46205 31121 99542 71343 46/// /2108 10036 40188 52015 22200 00071 11007 70034 333 91210
AAXX 31124 68183 32670 50505 10289 20173 39423 48538 58007 83102 333 10289 20164 91012 555 91013
AAXX 31124 68188 36/// /1502 10257 20180 39190 48530 58005 333 10279 20152 91004 555 91016
AAXX 31124 68268 NIL
AAXX 31124 68272 NIL
AAXX 31124 68296 36/// /0603 1//// 2//// 38913 4//// 57001 333 1//// 2//// 91006 555
AAXX 31124 68322 32982 02505 10376 21035 39113 48522 57008 333 10383 20176 91013 555 91012
AAXX 31124 68338 12680 33009 10303 20142 38745 48487 57006 69921 83100 333 10308 20135 91015 555 20002 91014
AAXX 31124 68345 36/// /3311 10300 20144 38646 48494 58012 333 10300 20158 91017 555 91016
AAXX 31124 68362 36/// /3604 10267 20136 38492 48494 57012 333 10280 20153 91007 555 91017
AAXX 31124 68400 36/// /0502 10287 20180 30044 40115 57006 333 10287 20198 91004 555 91011
AAXX 31124 68408 32/// /1510 10204 20137 30153 40161 58002 333 10207 20122 91017 555 91016
AAXX 31124 68416 32/// /2011 10316 20012 39019 48515 57008 333 10320 20148 91020 555 91014
AAXX 31124 68478 16/// /0207 10286 20131 38848 48500 57014 69921 333 10291 20168 91014 555 20002 91015
AAXX 31124 68488 36/// /0807 10267 20159 39253 48523 57010 333 10277 20178 91013 555 91014
AAXX 31124 68494 36/// /1503 10264 20201 39987 40115 58011 333 10285 20193 91006 555 91012
AAXX 31124 68524 32586 33304 10337 20057 39022 48502 57012 83100 333 10337 20173 91009 555 91012
AAXX 31124 68546 36/// /3209 10296 20072 38619 48470 58012 333 10297 20136 91018 555 91013
AAXX 31124 68558 36/// /2611 10224 20093 38168 48475 57004 333 10251 20104 91018 555 91017
AAXX 31124 68570 12370 80912 10206 20116 38493 48485 58003 69921 889// 333 10231 20130 91020 555 20002 91016
AAXX 31124 68580 36/// /1108 10219 20167 38940 48509 57008 333 10234 20151 91012 555 91016
AAXX 31124 68614 32980 02507 10290 20104 30091 40130 57005 333 10300 20139 91017 555 91013
AAXX 31124 68624 32882 23205 10295 21004 38723 48504 57007 82200 333 10308 20138 91009 555 91016
AAXX 31124 68674 NIL
AAXX 31124 68712 36/// /2014 10191 20131 30083 40148 57006 333 10196 20130 91018 555 91014
AAXX 31124 68718 NIL
AAXX 31124 68722 32480 12106 10264 21029 38543 48502 57002 81100 333 10272 20106 91017 555 91018
AAXX 31124 68814 NIL
AAXX 31124 68832 32970 00908 10243 20076 39185 48522 57007 333 10254 20105 91014 555 91015
AAXX 31124 68916 32970 10220 20124 39897 40161 58000 333 10224 20170 91013 555 91016
AAXX 31124 68920 NIL
AAXX 31124 68928 NIL
AAXX 31124 89744 46/// /3103 11176 36450 4//// 52009 91150
AAXX 31124 89769 46/// /0004 11046 39738 49790 5//// 91150
AAXX 31124 89799 46/// /2010 11236 36734 4//// 5//// 91150
AAXX 31124 89832 46/// ///01 10016 39529 49817 52001 91150
AAXX 31124 89865 46/// ///// 1//// 3//// 4//// 5//// 91150
AAXX 31124 89879 46/// ///01 10035 39703 49739 5//// 91150
BBXX ZCBU2 31123 99364 31757 41598 83632 10195 20187 40037 57000 70200 87875 22224 00190 20401 310// 40403 5//// 80190
AAXX 31124 88900 46/// /2202 10042 20037 39854 49857 58002 333 10044 20032
BBXX PCGM 31123 99279 70316 41498 70424 10235 20166 40330 52020 70222 853/3 22283 04234 20504 80190
BBXX A8QL5 31121 99075 70278 41/96 80512 10260 20202 40150 52010 70222 87777 22284 04280 21005 308// 41205 80220
BBXX VQHO7 31124 99096 50246 41398 40926 10240 20225 40135 58005 70200 84100 22234 00230 20502 310// 40605 5//// 80230
BBXX VQIB9 31124 99347 30241 41/98 31115 10230 20146 40146 54000 70200 8/404 22264 2//// 319// 40806 5//// 80180
BBXX LAVN4 31124 99133 70219 41/97 90728 10230 2017/ 40168 56010 70200 8//// 22213 00220 21004 304// 40704 NNNN
BBXX A8FQ8 31123 99046 50060 41899 31411 10280 20224 40150 50010 70200 82260 22274 00250 20504 80240
BBXX DANV 31124 99142 10532 41997 10417 10241 20147 40160 56030 7//00 80007 22225 04230 20102 305// 40203 80181
BBXX MQYA3 31123 99207 11164 41497 80425 10205 20175 40198 52020 70222 8/7// 22214 20504 304// 40505 5//// 80185
AAXX 31121 48806 32498 81402 10158 20123 39423 40205 52006 888// 333 00017 10182 59001 70000 82894 88696
BBXX 44062 31121 99386 70764 46/// /2304 1//// 91220 22200 00080 333 91205
BBXX 44062 31121 99386 70764 46/// /2305 1//// 40094 91210 22200 00080 333 91205
BBXX 44062 31121 99386 70764 46/// /2305 10099 40094 55000 91200 22200 00080 10301 70004 333 91206
BBXX 44063 31121 99390 70764 46/// /0000 1//// 91220 333 91202
BBXX 44063 31121 99390 70764 46/// /0000 1//// 40123 91210 333 91200
BBXX 44063 31121 99390 70764 46/// /0000 10086 40121 56002 91200 22200 00069 1//00 70002 333 91200
BBXX 44041 31121 99372 70768 46/// /2502 1//// 91220 333 91205
BBXX 44041 31121 99372 70768 46/// /2303 1//// 40141 91210 333 91204
BBXX 44041 31121 99372 70768 46/// /2204 10109 40142 55002 91200 22200 00085 1//00 70001 333 91205
BBXX 44042 31121 99380 70763 46/// /2305 1//// 91220 333 91206
BBXX 44042 31121 99380 70763 46/// /2305 1//// 40115 91210 333 91206
BBXX 44042 31121 99380 70763 46/// /2305 10108 40115 55000 91200 22200 00083 10201 70004 333 91207
BBXX 44043 31121 99392 70764 46/// /1503 1//// 91220 333 91203
BBXX 44043 31121 99392 70764 46/// /1502 1//// 40101 91210 333 91203
BBXX 44043 31121 99392 70764 46/// /1101 10072 40102 53003 91200 22200 00056 1//00 70002 333 91202
BBXX 42363 31121 99282 70892 46/// /2704 10217 20139 40214 91230 333 91204
BBXX 42364 31121 99291 70881 46/// /2703 10200 20172 40214 91230
BBXX PHHD 31121 99195 70596 41/97 50714 10260 20218 40205 53006 70222 8/3// 22243 04240 2//06 80230
BBXX ZDLP 31123 99528 50400 41293 82728 10053 20053 49911 52020 72052 896// 22200 04040 20401 327// 40403 5//// 80053
AAXX 31124 41258 36/// /0907 10237 20124 30183 40188 333 0E/// 58012
AAXX 31121 30455 329// 60000 11282 21300 38983 48491 53001 80005 333 11242
AAXX 31121 30731 329// 80901 11129 21156 39692 40333 58008 8801/ 333 11111
AAXX 31121 30739 329// 80000 11289 21314 39516 40438 57004 80006 333 11///
AAXX 31121 30741 329// 33001 11196 21215 38754 48537 57002 80007 333 11142
AAXX 31121 30745 329// 01501 11278 21303 39150 40432 57007 333 11207
AAXX 31121 30764 32998 00000 11317 21348 39537 40443 52003 333 11248
AAXX 31121 30829 32984 80000 11249 21268 39645 40408 57007 8807/ 333 11225
AAXX 31121 30838 32998 60000 11234 21246 39337 40415 58003 80005 333 11190
AAXX 31121 30846 32999 02801 11252 21284 39414 40418 58010 333 11136
AAXX 31121 30859 32999 00000 11275 21300 39492 40427 50001 333 11171
AAXX 31121 30862 31963 02703 11280 21319 39590 40416 57002 70400 333 11235
AAXX 31121 30957 329// 00000 11243 21249 39433 40420 50000 333 11111
AAXX 31121 30975 32898 20000 11345 21381 39694 40440 52007 82030 333 11271
AAXX 31121 30499 32999 02603 11296 21307 39645 40382 52002 333 11245
AAXX 31121 30683 329// 00000 11276 21293 39649 40370 58006 333 11162
AAXX 31121 30695 32999 03203 11298 21322 39987 40366 51001 333 11227
AAXX 31121 31253 32999 00000 11347 21377 39846 40372 53001 333 11308
AAXX 31121 31295 32999 00000 11271 21295 39844 40350 58001 333 11197
AAXX 31121 31348 32999 00000 11315 21321 30102 40323 58001 333 11199
AAXX 31121 31418 31984 00000 11231 21244 30033 40312 58001 72271 333 11170
AAXX 31121 31439 11998 80502 11176 21195 30235 40284 52002 69930 77172 8803/ 333 11150
AAXX 31121 31442 32997 00000 11312 21342 39949 40350 52002 333 11202
AAXX 31121 31445 32984 03001 11279 21303 30053 40336 52004 333 11194
AAXX 31121 31474 32998 00000 11329 21365 39799 40348 52003 333 11215
AAXX 31121 31521 32980 03501 11270 21288 30012 40336 52003 333 11225
AAXX 31121 31527 32998 03401 11262 21274 39994 40329 51003 333 11204
AAXX 31121 31534 32999 20000 11285 21304 39948 40335 52006 80005 333 11190
AAXX 31121 31587 32997 02801 11280 21298 30176 40340 52008 333 11216
AAXX 31121 31632 NIL
AAXX 31121 31702 32998 00000 11317 21348 39957 40340 51003 333 11197
AAXX 31121 31713 32998 00000 11269 21281 30194 40303 52001 333 11176
AAXX 31121 31725 32998 00202 11251 21257 30226 40300 54000 333 11190
AAXX 31121 31801 32998 20000 11253 21272 30040 40292 53003 80002 333 11160
AAXX 31124 68155 36/// /2903 10313 20134 39178 48530 58007 333 10317 20185 91008 555 91014
AAXX 31124 68171 NIL
AAXX 31124 68176 36/// /0204 10334 20128 39111 48523 58006 333 10337 20144 91011 555 91014
AAXX 31124 68181 NIL
AAXX 31124 68182 36/// /0603 10304 20180 39326 48540 58005 333 10304 20157 91008 555 91014
AAXX 31124 68185 NIL
AAXX 31124 68253 36/// /1302 10293 20160 39039 48526 58008 333 10294 20189 91006 555 91016
AAXX 31124 68255 36/// /3605 10271 20147 38848 48504 58007 333 10275 20192 91012 555 91015
AAXX 31124 68271 36/// /2905 10283 20120 38900 48515 58008 333 10297 20169 91008 555 91016
AAXX 31124 68273 36/// /2607 10242 20153 38459 48512 57005 333 10263 20166 91012 555 91020
AAXX 31124 68287 36/// /0704 10183 20164 38576 48511 50000 333 10217 20141 91007 555 91019
AAXX 31124 68291 36/// /1002 10303 20189 39518 48544 58006 333 10309 20172 91005 555 91013
AAXX 31124 68297 NIL
AAXX 31124 68329 36/// /2808 10364 20040 39058 48519 58009 333 10372 20191 91017 555 91013
AAXX 31124 68331 36/// /3012 10321 20087 38822 48520 58002 333 10323 20163 91022 555 91017
AAXX 31124 68335 36/// /3009 10332 20120 38897 48523 57007 333 10332 20171 91016 555 91016
AAXX 31124 68341 36/// /2908 10294 20122 38522 48507 58006 333 10295 20162 91015 555 91019
AAXX 31124 68342 NIL
AAXX 31124 68343 36/// /2208 10314 20099 38754 48488 58007 333 10318 20157 91017 555 91014
AAXX 31124 68349 36/// /3109 10299 20130 38494 48487 58008 333 10299 20177 91014 555 91016
AAXX 31124 68353 36/// /3106 10259 20157 38505 48484 57011 333 10259 20173 91012 555 91016
AAXX 31124 68355 36/// /3310 10289 20121 38560 48496 57010 333 10296 20158 91016 555 91017
AAXX 31124 68370 31480 83106 10158 20154 38386 48536 52008 76099 885// 333 1//// 20156 555 91023
AAXX 31124 68377 16/// /0803 10277 20159 38735 48482 58012 69921 333 10277 20165 91007 555 20002 91014
AAXX 31124 68380 36/// /2803 10198 20144 3//// 4//// 5//// 333 10245 20153 91007 555
AAXX 31124 68387 36/// /0809 10257 20180 38846 48513 58005 333 10261 20171 91017 555 91017
AAXX 31124 68411 36/// /1808 10353 20008 39915 40112 57011 333 10355 20195 91018 555 91012
AAXX 31124 68429 36/// ///// 10316 20039 38662 48489 57006 333 10324 20168 555 91015
AAXX 31124 68449 36/// /3312 10266 20121 38368 48476 58009 333 10276 20163 91019 555 91016
AAXX 31124 68471 36/// /1310 10233 20144 38306 48480 57012 333 10236 20142 91015 555 91017
AAXX 31124 68474 32470 71105 10244 20137 38599 48493 57012 8/100 333 10264 20135 91011 555 91016
AAXX 31124 68479 36/// /0908 10282 20132 38920 48497 58015 333 10284 20174 91014 555 91014
AAXX 31124 68481 36/// /0505 10258 20181 39760 40121 57007 333 10260 20204 91008 555 91013
AAXX 31124 68487 36/// /1207 10244 20172 38977 48508 58012 333 10265 20190 91013 555 91015
AAXX 31124 68491 36/// /0611 10271 20223 30112 40121 57005 333 10291 20214 91018 555 91012
AAXX 31124 68497 36/// /1106 10287 20206 30079 40122 57011 333 10291 20208 91010 555 91012
AAXX 31124 68587 NIL
AAXX 31124 68591 NIL
AAXX 31124 68592 NIL
AAXX 31124 68668 NIL
AAXX 31124 82863 32598 80000 10253 20230 39911 40123 8497/ 333 20233 59005
AAXX 31124 83228 32799 71801 10270 20237 39841 40113 87900 333 20235 59010
AAXX 31124 83270 21698 70000 10242 20228 39665 40147 70296 84490 333 20209 59019 60044
AAXX 31124 83309 21695 80000 10256 20239 39796 40117 71061 8853/ 333 20213 58005 60084
AAXX 31124 83319 21697 60000 10248 20234 39781 40153 70362 84720 333 20218 59017 60204
AAXX 31124 83374 21597 83604 10219 20205 39558 40130 70296 885// 333 20206 59002 60084
AAXX 31124 83405 21696 8//// 10262 20244 39960 40085 71044 885// 333 20230 58008 60024
AAXX 31124 83526 21498 63203 10225 20205 39178 40112 70362 86500 333 20200 59013 60044
AAXX 31124 83650 41698 60406 10278 20233 40180 52010 71522 8609/ 222// 02255 21005 80237 333 20210
AAXX 31124 83970 41393 81607 10220 20206 40121 57005 7166/ 887// 222// 02215 20402 80210 333 20210
AAXX 31124 82979 32498 40000 10281 20191 39669 40111 82170 333 20232 59003
AAXX 31124 82986 32597 61406 10282 20194 39842 40124 86200 333 20230 59010
AAXX 31124 83179 32598 40503 10263 20216 39679 40125 84200 333 20216 58005
AAXX 31124 83192 32597 41106 10286 20195 39974 40137 84200 333 20216 59010
AAXX 31124 83339 21497 80905 10215 20201 39163 40127 70262 8622/ 333 20186 59013 60334
AAXX 31124 83498 32595 73602 10268 20237 30143 40148 83630 333 20243 59002
BBXX 46092 31121 99368 71220 46/// /0605 10103 40217 91157 22200 00120 555 11051 22051
BBXX 44059 31121 99368 70763 46/// /2001 1//// 91220 333 91202
BBXX 44059 31121 99368 70763 46/// /2001 1//// 40119 91210 333 91202
BBXX 44059 31121 99368 70763 46/// /1801 10121 40118 54000 91200 22200 00107 333 91202
BBXX 44057 31121 99395 70761 46/// /3602 1//// 91220 333 91202
BBXX 44057 31121 99395 70761 46/// /0101 1//// 40107 91210 333 91202
BBXX 44057 31121 99395 70761 46/// /3402 10047 40107 52004 91200 22200 00039 333 91203
BBXX 44058 31121 99376 70763 46/// /2305 1//// 91220 333 91205
BBXX 44058 31121 99376 70763 46/// /2204 1//// 40116 91210 333 91205
BBXX 44058 31121 99376 70763 46/// /2103 10098 40114 58006 91200 22200 00085 1//00 70002 333 91204
AAXX 31124 83064 32598 81803 10275 20230 39852 40119 84370 333 2//// 58000
AAXX 31124 83235 32698 50000 10262 20212 39447 40109 85400 333 20228 59011
AAXX 31124 83332 32698 70000 10245 20204 39211 40104 83460 333 20208 59020
AAXX 31124 83423 21498 80000 10216 20206 39304 40121 7612/ 8572/ 333 20200 59007 60444
AAXX 31124 83470 22698 82702 10220 20205 39256 40111 885// 333 20193 59005 60174
AAXX 31124 83117 31297 70801 10260 20233 40129 54005 7022/ 8872/ 222// 02220 20101 80240 333 20220
BBXX 51178 31121 99142 51695 46/// ///// 1//// 91201 22200 00285
BBXX 51179 31121 99143 51708 46/// ///// 1//// 91202 22200 00286
BBXX 51176 31121 99278 71758 46/// ///// 1//// 91205 22200 00237
BBXX 52245 31121 99181 11458 46/// ///// 1//// 91206 22200 00279
BBXX 52248 31121 99135 11448 46/// ///// 1//// 91206 22200 00280
BBXX 52246 31121 99152 11457 46/// ///// 1//// 91207 22200 00280
BBXX 52244 31121 99200 11452 46/// ///// 1//// 91208 22200 00265
BBXX 51173 31121 99260 71739 46/// ///// 1//// 91212 22200 00248
BBXX 51172 31121 99284 71783 46/// ///// 1//// 91216 22200 00220
AAXX 31121 31825 32984 70000 11208 21227 30052 40278 51001 80008 333 11128
AAXX 31121 31845 32998 20000 11268 21293 30106 40289 57004 80001 333 11167
AAXX 31121 31878 31957 00000 11235 21254 30155 40292 54000 71011 333 11127
AAXX 31121 31915 32998 22803 11196 21237 30004 40292 52006 80001 333 11120
AAXX 31121 31921 32997 03302 11168 21187 30182 40287 52004 333 11138
AAXX 31121 31969 32997 80601 11096 21173 30208 40260 51005 80001 333 11052
AAXX 31121 31981 32999 22101 11242 21267 30031 40292 51006 80001 333 11132
AAXX 31121 31987 NIL
AAXX 31121 32069 11597 83203 11095 21116 30239 40244 58009 69950 78583 889// 333 11071 91004 91110
BBXX 46181 31121 99538 71288 46/// /2502 10000 40239 52033 22200 00038 10200 70000 333 91203
BBXX 46181 31121 99538 71288 46/// /2502 10000 40239 52033 22200 00038 10200 70000 333 91203
AAXX 31124 42634 32996 00504 10232 20110 40146 333 10250 58001
AAXX 31124 42647 32596 23203 10244 20089 40131 82500 333 10258 59007 82625
AAXX 31124 42737 32996 03612 10244 20089 40138 333 10275 59002
AAXX 31124 42840 31996 03606 10244 20143 40116 70400 333 10274 59012
AAXX 31124 42909 32997 03609 10258 20023 40128 222// 20000 333 10284 58002
AAXX 31124 42921 32596 52703 10260 20140 40131 84330 333 10313 59010 82620 83925
AAXX 31124 43003 31995 03405 10286 20135 40100 70400 80001 333 10310 59007 82075
AAXX 31124 43014 32596 41806 10292 20125 39455 40085 84400 333 10308 59009 81620 83825
AAXX 31124 43063 32597 42302 10290 20139 39470 40080 84500 333 10323 59008 84626
AAXX 31124 43110 31596 73204 10284 20219 40097 70544 85530 333 10344 58004 85620 85356
AAXX 31124 43117 32597 71403 10284 20156 40092 85430 333 10314 59001
AAXX 31124 43192 32997 42506 10308 20213 40086 82032 333 10345 58004
BBXX 46184 31121 99539 71389 46/// /1606 10034 40145 57003 22200 00059 11006 70030 333 91208
AAXX 31124 68171 NIL
AAXX 31124 68181 NIL
AAXX 31124 68185 NIL
AAXX 31124 68297 NIL
AAXX 31124 68342 NIL
BBXX 46184 31121 99539 71389 46/// /1606 10034 40145 57003 22200 00059 11006 70030 333 91208
AAXX 31124 68674 NIL
AAXX 31124 91723 NIL
AAXX 31124 91759 11598 11802 10248 20236 40082 60001 81100 333 81824
AAXX 31124 91762 11598 20000 10252 20240 40080 58010 60001 70200 82100 333 82822
AAXX 31121 24856 11997 80303 11324 21348 30147 40322 57005 69932 77177 8802/ 333 11324
AAXX 31121 30679 NIL
AAXX 31121 30686 32999 00701 11322 21346 39956 40386 53003 333 11243
AAXX 31121 30961 32999 00000 11268 21287 39547 40424 54000 333 11208
AAXX 31121 30971 12999 02102 11302 21332 39331 40440 52008 69902 333 11198
AAXX 31121 30978 12999 00000 11315 21345 39655 40430 52007 69902 333 11255
AAXX 31121 31513 31996 03601 11268 21274 30083 40335 51003 70400 333 11228
AAXX 31121 31624 NIL
AAXX 31121 31832 32965 80000 11228 21246 30196 40291 58002 82032 333 11158
AAXX 31121 31913 NIL
AAXX 31121 32128 12599 70000 11043 21070 30162 40216 54000 69900 83531 333 11011 91002 91103
AAXX 31121 37575 42998 10119 21022 39598 40174 57009 82050 555 11007
AAXX 31121 37675 42999 03202 10110 21103 39523 40171 57004 555 11014
AAXX 31121 37735 42998 02901 10101 21019 39771 40143 57010 555 10012
AAXX 31121 37749 42998 02501 10083 20023 30091 40207 57004 555 11008
AAXX 31121 37756 42999 21701 10070 21025 39320 40228 58015 80002 555 11006
AAXX 31121 37864 32997 43504 10083 20039 40189 55001 82041
AAXX 31121 37985 42998 20201 10091 20038 30204 40190 57020 82040 555 11013
BBXX 46004 31121 99509 71361 46/// /1411 10047 40155 57026 22200 00072 11107 70034 333 91214
AAXX 31124 43086 31596 81803 10268 20233 39949 40126 71792 8397/ 333 10288 57942 58005
AAXX 31124 43128 21496 71303 10254 20194 39513 40115 70552 85830 333 10262 56390 58001 6990/ 82615 83825 86360
AAXX 31124 43150 21496 50205 10248 20227 30067 40142 70566 83830 222// 20000 333 10260 58003 6008/ 82618
AAXX 31124 43185 21596 60908 10260 20237 30117 40121 70262 83530 333 10298 58006 6001/ 83620 85360
AAXX 31124 43189 32597 50704 10256 20233 30127 40136 82531 333 10286 58005
AAXX 31124 43213 32597 79902 10290 20181 39787 40100 82832 333 10312 59001
AAXX 31124 43237 21496 80000 10256 20211 39712 40103 72052 8457/ 333 10270 56299 58000 6990/ 84618 86358
AAXX 31124 43245 21597 60502 10250 20238 30089 40116 70262 81830 333 10283 58004 6009/
AAXX 31124 43279 32597 51402 10268 20248 30102 40119 82430 333 10305 58003 82820 84360
AAXX 31124 43311 22597 73605 10290 20247 40076 85437 333 10324 58005 6990/ 85620 85075
AAXX 31124 43314 21597 80000 10288 20249 40095 70262 8447/ 333 10306 59013 6990/
AAXX 31124 43321 21495 83605 10228 20203 39666 40116 70552 83572 333 10230 58038 6998/
AAXX 31124 43329 32597 40000 10280 20257 30095 40108 81431 333 10305 58012
AAXX 31124 43344 31496 60706 10270 20241 30006 40105 70522 82531 333 10295 58027 82616 84358
AAXX 31124 43346 32597 31404 10266 20215 30098 40105 81531 333 10289 58017 81620
AAXX 31124 43353 21496 81405 10250 20238 40104 70565 83821 333 10254 56699 58030 6014/ 83612 88458
AAXX 31124 43369 21496 83603 10258 20255 40079 76262 8497/ 333 10322 57912 58007 6023/ 83618 81925 84458
AAXX 31124 43371 21596 60000 10260 20246 30022 40095 70565 82430 333 10272 58021 6013/ 82620 85360
AAXX 31124 43198 NIL
AAXX 31124 43201 NIL
AAXX 31124 43226 NIL
AAXX 31124 43233 NIL
AAXX 31124 43284 NIL
AAXX 31124 43295 NIL
AAXX 31121 45032 36/// /0201 10149 20118 30212 40229 54000
AAXX 31121 45035 36/// /0904 10169 20109 30183 40225 54000
AAXX 31121 45039 36/// /9901 10145 20125 30213 40228 54000
AAXX 31121 45044 36/// /1104 10147 20128 30132 40228 54000
AAXX 31121 45032 36/// /0201 10149 20118 30212 40229 54000
AAXX 31121 45035 36/// /0904 10169 20109 30183 40225 54000
AAXX 31121 45039 36/// /9901 10145 20125 30213 40228 54000
AAXX 31121 45044 36/// /1104 10147 20128 30132 40228 54000
BBXX A8PX5 31123 99387 71542 41597 82430 10120 20120 49970 57/// 79199 88/// 22229 04150 21014 325// 41212 5//// 80120
BBXX DGXS 31124 99541 71586 41598 43611 11030 21061 40115 50030 70322 83473 22224 00040 20801 33232 40801 50601 81040
BBXX NAZJ 31124 99531 71542 41/// 60226 10011 2//// 40081 51/// 7//// 8/6// 22243 04039 20501 30101 40401 50401 6//// 8//// ICE /////
BBXX 46181 31121 99538 71288 46/// /2502 10000 40239 52033 22200 00038 10200 70000 333 91203
BBXX 46183 31121 99536 71311 46/// /3302 10029 40221 52020 22200 00073 11101 70007 333 91204
BBXX 46185 31121 99524 71298 46/// /1202 10032 40234 52017 22200 00068 11003 70017 333 91204
BBXX 46204 31121 99514 71288 46/// /0601 10047 40238 52017 22200 00077 11106 70029 333 91202
BBXX 46205 31121 99542 71343 46/// /2108 10036 40188 52015 22200 00071 11007 70034 333 91210
BBXX 46206 31121 99488 71260 46/// /3302 10056 40262 52021 22200 00079 11107 70035 333 91203
BBXX 46207 31121 99509 71299 46/// /1104 10046 40227 52007 22200 00080 11106 70030 333 91207
BBXX 46004 31121 99509 71361 46/// /1411 10047 40155 57026 22200 00072 11107 70034 333 91214
AAXX 31121 56671 32980 03602 10101 20020 38214 52004 333 00051
AAXX 31121 57378 31956 01401 10068 20031 40285 52010 71000
AAXX 31121 57426 31757 30401 10053 20040 40281 52008 71000 83500 333 05352
AAXX 31121 57476 32960 01801 10063 20031 40277 52005
AAXX 31121 57584 31920 01401 10074 20040 40286 52001 71000
AAXX 31121 57598 31958 80000 10069 20049 40285 52004 71000 8807/
AAXX 31121 57655 32960 03401 10067 20035 40279 52012
AAXX 31121 57713 NIL
AAXX 31121 57776 31465 80704 10016 20010 40291 52004 72840 885//
AAXX 31121 58321 31950 22201 10030 20012 40290 52008 71000 82040
AAXX 31121 58437 32980 03406 11025 21053 38190 52005
AAXX 31121 58445 NIL
AAXX 31121 58556 31956 80000 10051 20007 40288 52010 70500 8807/
AAXX 31121 58569 32760 73602 10072 20027 40280 52010 875//
AAXX 31121 58646 31656 70701 10073 20028 40285 52010 70500 875//
AAXX 31121 58653 NIL
AAXX 31121 58660 NIL
AAXX 31121 58715 31950 80201 10088 20050 40285 52007 71000 8807/
AAXX 31121 58730 32762 72901 10090 20073 40283 52012 875//
AAXX 31121 58731 32662 73601 10070 20043 40287 52012 875//
AAXX 31121 58754 32962 73401 10096 20048 40272 52006 8703/
AAXX 31121 58911 31558 82701 10090 20066 40276 52007 71000 885//
AAXX 31121 58931 11/00 93605 10025 20025 38397 52004 69921 74564
AAXX 31121 59254 31750 80701 10133 20086 40249 52010 70500 885//
AAXX 31121 59632 31757 70203 10152 20062 40237 52013 70500 875//
AAXX 31121 59855 32565 83602 10192 20161 40217 52013 888//
BBXX A8GH5 31123 99121 70234 41396 60521 10245 20169 40185 54000 70522 866// 22253 20402 80195
AAXX 31123 61701 31959 60920 10230 21005 40160 83032 333 58005 83361 85071
AAXX 31124 61401 32960 00814 10175 20066 39867 40290 333 0//00 58004
AAXX 31124 61404 33960 10816 10166 20008 39873 40279 80002 333 0//00 58003 81073
AAXX 31124 61415 32958 30515 10192 20038 30274 40279 80002 333 58015 83080
AAXX 31124 61421 32970 40612 10190 20010 39865 40126 80002 333 0//00 59010 82080
AAXX 31124 61437 31956 00808 10198 20074 30130 40271 705// 333 0//00 58013
AAXX 31124 61442 31920 50921 10205 21049 30236 40240 70722 80002 333 0//00 58011 85076
AAXX 31124 61450 31930 60818 10164 21025 39753 40224 707// 80002 333 0//00 58002 86073
AAXX 31124 61461 31908 00816 10200 21040 30159 40239 731// 333 0//00 58020
AAXX 31124 61489 31950 70414 10205 21031 30216 40223 707// 8707/ 333 0//00 58014 87363
AAXX 31124 61492 31930 50816 10210 21042 30217 40237 70722 82072 333 0//00 58011 82363 85073
AAXX 31124 61497 34930 70416 10210 21026 39940 4//// 707// 87071 333 0//00 58004 87363 84073
AAXX 31124 61498 31930 30410 10196 20092 30070 40206 705// 83030 333 0//00 58010 83363
AAXX 31124 61499 NIL
AAXX 31124 71116 16/// /2918 11008 21079 38988 40076 53044 60001 333 10088 21015 70000
AAXX 31124 71221 16/// /3112 11073 21092 60001 333 11044 21085 70027
AAXX 31124 71226 16/// /2716 11030 21094 60001 333 11025 21106 70008
AAXX 31124 71229 46/// /2403 11083 21092 6///1 333 11072 21099 4/007 7//// 555 10040
AAXX 31124 71321 16/// /0401 11197 21212 30093 40138 56005 60001 333 11205 21226 4/010 70000
AAXX 31124 71010 16/// /2906 11079 21091 60001 333 10018 21081 7////
AAXX 31124 71011 16/// ///// 11028 21074 60001 333 10054 21063 70000
AAXX 31124 71673 16/// ///// 11044 21081 60001 333 11010 21076 70000
AAXX 31124 71690 16/// ///// 11074 21112 60001 333 11046 21104 70005
AAXX 31124 71283 17/// /2812 11066 21084 69951 7//4/ 333 11055 21117 70034
AAXX 31124 71888 16/// ///// 11095 21113 60001 333 10005 21120 70000
AAXX 31124 71895 16/// ///// 11046 21082 60001 333 11004 21072 7////
AAXX 31124 71067 16/// ///// 11057 21094 60001 333 11026 21075 70000
AAXX 31124 71400 16/64 /2604 11110 21115 60001 333 10000 21120 70000
AAXX 31124 71461 16/// /2716 11039 21104 60001 333 11040 21077 70018
AAXX 31124 71468 46/// /2208 11036 21036 39774 40100 56011 6///1 333 21064 7////
AAXX 31124 71483 16/// ///// 11040 21109 60001 333 11028 21124 70000
AAXX 31124 71405 16/// ///// 11059 21085 60001 333 11005 21105 70000
AAXX 31124 71417 16/// /2806 11084 21111 30215 40251 53019 60001 333 11004 21084 70000
AAXX 31124 71426 46/// /0910 11081 6///1 333 11091 21117 7////
AAXX 31124 71359 16/// /3013 11050 21062 60001 333 11046 21099 70027
AAXX 31124 71788 16/// /2512 11010 21072 60001 333 10097 21021 70000
AAXX 31124 71792 16/// ///// 11034 21073 60001 333 10045 21085 70000
AAXX 31124 71500 16/// /3113 11058 21090 60001 333 11036 21072 70000
AAXX 31124 71504 16/// ///// 11062 21093 60001 333 11025 7////
AAXX 31124 71541 16/// /2511 11081 21100 60001 333 11045 21081 70018
AAXX 31124 71543 16/// /2510 11081 21125 60001 333 11043 7////
AAXX 31124 71546 16/// /2717 11037 21115 60001 333 11048 21085 70005
AAXX 31124 71547 16/// /2710 11067 21098 60001 333 11053 21080 70012
AAXX 31124 71400 16/64 /2604 11110 21115 60001 333 10000 21120 70000
BBXX 46146 31121 99493 71237 46/// /2602 10054 40268 52038 22200 00071 10301 70003 333 91203
AAXX 31124 71116 16/// /2918 11008 21079 38988 40076 53044 60001 333 10088 21015 70000
AAXX 31124 71221 16/// /3112 11073 21092 60001 333 11044 21085 70027
AAXX 31124 71226 16/// /2716 11030 21094 60001 333 11025 21106 70008
AAXX 31124 71229 46/// /2403 11083 21092 6///1 333 11072 21099 4/007 7//// 555 10040
AAXX 31121 56144 32980 02901 11009 21171 36869 52006 333 05151
AAXX 31121 56152 32980 00000 11050 21211 36324 52010 333 05151
AAXX 31121 56167 32980 00000 11010 21139 37091 52023 333 00155
AAXX 31121 56182 32980 00000 11020 21110 37213 52021 333 05152
AAXX 31121 56357 32980 02202 10023 21210 36463 52013 333 00001
AAXX 31121 56586 32963 03602 10035 20011 38081 52013 333 05103
AAXX 31121 56748 32980 02902 10120 20025 38381 52004 333 00051
AAXX 31121 56763 32980 01402 10182 20029 40141 52017 333 00051
AAXX 31121 56768 32980 00901 10136 20045 38195 52007 333 00000
AAXX 31121 56838 32670 13601 10168 20115 40188 52004 81400 333 05101
AAXX 31121 56886 31758 82202 10051 20044 38327 52015 71000 884// 333 00153
AAXX 31121 56946 32980 00000 10169 20093 40193 52006 333 00001
AAXX 31121 56959 32770 11801 10209 20173 40154 52008 81400 333 05101
AAXX 31121 56969 32960 00000 10195 20171 40166 52012 333 05101
AAXX 31121 57731 32662 80703 10098 20024 40272 52011 885// 333 05303
AAXX 31121 57766 31758 81101 10074 20047 40288 52005 71000 885//
AAXX 31121 57845 32960 72001 10045 20027 40281 52008 8704/
AAXX 31121 57853 31950 80701 10073 20037 40287 52007 71000 8807/
AAXX 31121 57916 32664 70901 10113 20066 40250 52010 8653/ 333 05202
AAXX 31121 57922 32661 81801 10060 20028 40277 52012 885// 333 05101
AAXX 31121 57932 31957 02201 10074 20042 40274 52013 71000 333 05252
AAXX 31121 58338 31958 20000 10047 20012 40280 52006 71000 82040
AAXX 31121 59007 32464 80000 10063 20040 40253 52007 885//
AAXX 31121 59046 31757 82901 10112 20044 40264 52010 70500 885//
AAXX 31121 59058 31856 83202 10095 20045 40262 52007 71000 885//
AAXX 31121 59072 32762 80202 10094 20040 40266 52005 885//
AAXX 31121 59087 32760 83402 10133 20066 40248 52014 885//
AAXX 31121 59209 11462 83401 10093 20071 40248 52006 69901 76066 887//
AAXX 31124 71321 16/// /0401 11197 21212 30093 40138 56005 60001 333 11205 21226 4/010 70000
AAXX 31124 71283 17/// /2812 11066 21084 69951 7//4/ 333 11055 21117 70034
AAXX 31124 71461 16/// /2716 11039 21104 60001 333 11040 21077 70018
AAXX 31124 71468 46/// /2208 11036 21036 39774 40100 56011 6///1 333 21064 7////
AAXX 31124 71483 16/// ///// 11040 21109 60001 333 11028 21124 70000
AAXX 31124 71888 16/// ///// 11095 21113 60001 333 10005 21120 70000
AAXX 31124 71895 16/// ///// 11046 21082 60001 333 11004 21072 7////
AAXX 31124 71673 16/// ///// 11044 21081 60001 333 11010 21076 70000
AAXX 31124 71690 16/// ///// 11074 21112 60001 333 11046 21104 70005
AAXX 31124 71067 16/// ///// 11057 21094 60001 333 11026 21075 70000
AAXX 31124 71010 16/// /2906 11079 21091 60001 333 10018 21081 7////
AAXX 31124 71011 16/// ///// 11028 21074 60001 333 10054 21063 70000
BBXX 46146 31121 99493 71237 46/// /2602 10054 40268 52038 22200 00071 10301 70003 333 91203
AAXX 31124 71405 16/// ///// 11059 21085 60001 333 11005 21105 70000
AAXX 31124 71417 16/// /2806 11084 21111 30215 40251 53019 60001 333 11004 21084 70000
AAXX 31124 71426 46/// /0910 11081 6///1 333 11091 21117 7////
AAXX 31124 71500 16/// /3113 11058 21090 60001 333 11036 21072 70000
AAXX 31124 71504 16/// ///// 11062 21093 60001 333 11025 7////
AAXX 31124 71541 16/// /2511 11081 21100 60001 333 11045 21081 70018
AAXX 31124 71543 16/// /2510 11081 21125 60001 333 11043 7////
AAXX 31124 71546 16/// /2717 11037 21115 60001 333 11048 21085 70005
AAXX 31124 71547 16/// /2710 11067 21098 60001 333 11053 21080 70012
AAXX 31124 71788 16/// /2512 11010 21072 60001 333 10097 21021 70000
AAXX 31124 71792 16/// ///// 11034 21073 60001 333 10045 21085 70000
AAXX 31124 71359 16/// /3013 11050 21062 60001 333 11046 21099 70027
BBXX 41010 31121 99289 70785 46/// /2506 10227 40205 91220 22200 00236 10502 20501 300// 41001 70008 333 91208 555 11063 22066
BBXX 41009 31121 99285 70802 46/// /2607 10208 20166 40215 91220 22200 00226 10301 20301 300// 41201 70007 333 91208 555 11073 22076
BBXX 42361 31121 99276 70925 46/// ///07 10222 20189 40190 53007 91230 555 11059 22062
BBXX 41110 31121 99341 70777 46/// ///// 1//// 91221 22200 00132 10602 20602 70010
BBXX 42099 31121 99273 70842 46/// ///// 1//// 91227 22200 00222 10501 20501 70005
BBXX 41113 31121 99284 70805 46/// ///// 1//// 91221 22200 00211 11201 20901 70004
BBXX 41114 31121 99276 70802 46/// ///// 1//// 91216 22200 00232 11301 21001 308// 41301 70005
BBXX 41112 31121 99307 70813 46/// ///// 1//// 91221 22200 00163 11301 20401 70005
BBXX 42013 31121 99272 70829 46/// ///// 1//// 40200 91140
AAXX 31124 45011 17958 /0107 10159 20108 40225 52009 60002 70211 333 10206 59010
AAXX 31124 45011 17958 /0107 10159 20108 40225 52009 60002 70211 333 10206 59010
AAXX 31124 65019 32960 20912 10296 21004 39424 40125 80008 333 58001 82280
AAXX 31124 65028 32964 70805 10278 20030 39592 40183 80008 333 58001 87280
AAXX 31124 65123 32962 81209 10348 20105 30082 40096 80008 333 59002 87280
AAXX 31124 65125 31940 51008 10345 20145 40137 70522 80008 333 58006 85280
AAXX 31124 65232 31957 70905 10340 20129 30740 40111 70422 80008 333 59012 80008
AAXX 31124 65252 11458 70000 10245 20226 39975 40110 60251 86508 333 59008 86612
AAXX 31124 65271 31456 40904 10349 20077 30019 40116 70522 82208 333 58007 82816 86280
AAXX 31124 68587 16/// /0309 10249 20196 30109 40121 57008 60021 333 10256 20219 91016 555 20024 91012
BBXX 44258 31121 99445 70634 46/// /1206 10051 40256 57005 22200 00052 10802 70012 333 91207
BBXX 44258 31121 99445 70634 46/// /1206 10051 40256 57005 22200 00052 10802 70012 333 91207
AAXX 31124 97014 01558 81903 10249 20237 30034 40127 52020 60031 76162 8287/ 333 10282 56709 59011 60037 81821 85460
AAXX 31124 97028 01460 81102 10264 20252 30096 40102 51016 60021 76062 84521 333 10295 56000 58002 60017 84619 87459
AAXX 31124 97048 01430 70000 10248 20238 30091 40115 52031 60091 76062 84972 333 10310 56000 57901 57801 58013 60097 81917 83817 85360 80980 80860
AAXX 31124 97072 32559 50000 10270 20240 30025 40125 52029 82521 333 10320 56000 58003 82620
AAXX 31124 97086 31458 72603 10286 20240 30070 40095 51012 71522 84570 333 10304 56000 59014 84617 86460
AAXX 31124 97096 NIL
AAXX 31124 97120 32459 50000 10286 20217 30062 40095 51021 81231 333 10328 56000 57803 59005 81818 83360 80860
AAXX 31124 97146 NIL
AAXX 31124 97180 32458 50601 10266 20259 30090 40108 51015 81232 333 10293 56000 81819
AAXX 31124 97192 32440 70000 10250 20247 30063 40120 52017 82520 333 10324 56000 59001 82616 87460
AAXX 31124 97230 NIL
AAXX 31124 97260 32560 51303 10272 20243 30093 40100 52025 84501 333 56000 58010 84620
AAXX 31124 97270 01440 80000 10258 20249 30102 40106 52020 60011 76166 8682/ 333 10306 56009 58006 69927 83815 87460
AAXX 31124 97300 31560 60000 10281 20250 30066 40106 52020 71521 83231 333 10319 56000 57802 59005 83820 83360 80857
AAXX 31124 97340 11558 80000 10254 20234 30090 40104 51020 60021 70162 87232 333 10322 56000 58001 87620
AAXX 31124 97372 NIL
AAXX 31124 97430 01430 83516 10244 20234 30088 40117 52017 60451 76166 8597/ 333 10292 56709 57970 57870 59004 60287 82914 83818 87459 80980 80860
AAXX 31124 97460 01458 70000 10246 20228 30089 40103 52027 60011 72162 84976 333 10316 56000 57901 58002 60017 81916 83817 80859
AAXX 31124 97502 01450 80000 10246 20243 30098 40102 52011 60081 72122 8652/ 333 10298 56000 57600 58001 60037 86614
AAXX 31124 97530 NIL
AAXX 31124 97560 32460 73308 10272 20252 30076 40091 52015 83847 333 10306 56000 57803 58002 83818 83360 85279 80860
AAXX 31124 97580 01456 80000 10266 20253 30085 40092 52008 60051 76166 84807 333 10322 56000 57901 59015 60037 81915 83814 88275 80970
AAXX 31124 97600 32460 60000 10276 20250 30098 40104 52024 83271 333 10312 56600 57863 59001 82818 85459 80858
AAXX 31124 97686 01450 81609 10190 20144 38354 40080 52017 69931 71522 85847 333 10264 56000 57800 56016 57800 59016 69907 84811 87361 80856
AAXX 31124 97690 01450 70000 10274 20254 39978 40080 52020 69901 72122 84968 333 10322 56000 57900 59005 81915 83816 87279
AAXX 31124 97724 32460 83602 10266 20236 30084 40100 52015 8387/ 333 10295 56700 57873 58002 82819 86459 80850
AAXX 31124 97748 01458 82209 10278 20261 30053 40055 56003 60011 71562 85971 333 10316 56600 57960 59003 69947 83913 85458 80940
AAXX 31124 97760 32440 70000 10254 20248 30099 40108 52017 83932 333 10292 56000 57901 58001 81915 82816 80960
AAXX 31124 97796 31456 70000 10271 20242 30058 40109 57013 70522 85832 333 10340 56000 59014 82813 84613 86362
AAXX 31124 97810 32458 63218 10279 20259 30077 40086 51015 85832 333 10334 56700 57871 59001 84819 80858
AAXX 31124 97876 11350 80000 10254 20239 30112 40142 52026 60051 70282 86252 333 10328 56000 57800 82808 84609
AAXX 31124 97900 31463 63003 10284 20258 30068 40097 52020 71322 81906 333 10331 56000 57905 59008 81917 86275 80975
AAXX 31124 97980 32458 52606 10288 20239 30078 40085 51014 83842 333 10318 56600 58007 83817
AAXX 31124 96009 11457 81205 10261 20225 30070 40105 53010 69901 70262 84932 333 10283 56200 57924 59001 81915 83617 84360 80964
AAXX 31124 96011 11458 80504 10274 20230 30083 40110 52020 69901 71662 8592/ 333 10316 56009 57902 58002 82916 83620 80965
AAXX 31124 96035 31456 83004 10274 20239 30070 40108 52022 70521 86976 333 10308 56000 57901 88000 81917 85618 80956
AAXX 31124 96073 31456 70000 10282 20240 30096 40108 52010 70522 83922 333 10314 56000 57901 58004 83917 80960
AAXX 31124 96091 32460 50704 10268 20245 30089 40113 52018 82221 333 10316 56000 57803 59006 82817 80860
AAXX 31124 96109 32458 50000 10302 20231 30049 40089 52018 82931 333 10338 56000 57903 58004 81915 81620 80960
AAXX 31124 96145 32450 30000 10264 20237 30106 40109 53021 82131 333 10310 56800 58013 82817
AAXX 31124 96147 NIL
AAXX 31124 96163 32562 30000 10268 20229 30115 40118 52016 82021 333 10326 56000 58008 82462
AAXX 31124 96179 32460 70000 10274 20251 30067 40104 52008 82208 333 10334 56000 57802 59007 82817 87273 80850
AAXX 31124 96195 31450 51802 10288 20248 30073 40110 52016 70521 81531 333 10326 56000 58001 81613
AAXX 31124 96221 31450 60000 10282 20238 30081 40096 52009 70522 81136 333 10325 56999 59004 81817 83362
AAXX 31124 96237 32457 80000 10281 20259 30061 40103 51016 82117 333 10314 56000 59001 82817 86460 88280
AAXX 31124 96249 32560 70000 10268 20249 30045 40106 52019 83232 333 10300 56700 57871 59004 83820 80863
AAXX 31124 96253 32558 60000 10279 20247 30080 40100 52005 82832 333 10313 56000 57800 59001 81820 83081 80800
AAXX 31124 96295 01460 80000 10266 20211 39998 40101 51020 69901 70262 8552/ 333 10306 56009 69907 85615 88462
AAXX 31124 96509 31458 30000 10278 20255 30101 40112 52013 71321 83901 333 10305 56000 57902 57802 59001 81915 82815 80970 80858
AAXX 31124 96581 32958 52703 10279 20249 30103 40110 52025 85031 333 10328 56000 85362
AAXX 31124 96633 01458 83403 10258 20250 30087 40095 52017 60011 70296 84971 333 10314 56000 57900 59010 69957 82918 82618 85460 809//
AAXX 31124 96645 01430 80000 10242 20238 30073 40105 52017 60121 76166 86332 333 10334 56000 57901 59002 60047 81912 86612 80982
AAXX 31124 96655 31458 72106 10274 20248 30093 40127 52032 71322 86921 333 10336 56800 57981 59002 81910 85812 87462 80976
AAXX 31124 96685 12460 60904 10255 20245 30084 40108 52017 60301 84511 333 10317 56000 59006 69907 84618
AAXX 31124 96749 32559 72516 10267 20220 30090 40103 51022 84471 333 10307 56500 59012 84620 86460
AAXX 31124 96781 NIL
AAXX 31124 96805 32558 70000 10283 20240 30091 40100 51013 83211 333 10320 56000 57801 58011 83820 80860
AAXX 31124 96839 11457 80000 10272 20243 30087 40094 52017 60021 71796 8497/ 333 10312 56009 57901 59015 81919 84820 88460 80980
AAXX 31124 96935 01558 83004 10248 20238 30096 40102 52025 60341 72996 83972 333 10306 56000 57901 59005 60187 81920 83620 85460 80980
AAXX 31124 96001 NIL
AAXX 31124 96015 32458 71606 10281 20253 30095 40102 52016 85972 333 10322 56000 57902 59002 82915 83617 80978
AAXX 31124 96033 NIL
AAXX 31124 96075 31450 60000 10286 20244 30105 40110 52014 70522 83571 333 10320 56000 58009
AAXX 31124 96087 32458 60606 10275 20244 30072 40105 51017 81231 333 10320 56800 57883 59009 81814 83360 80858
AAXX 31124 96171 32457 70000 10296 20253 30068 40093 52015 84522 333 10334 56000 58006 84616
AAXX 31124 96207 32457 62809 10228 20172 39248 40170 52009 84531 333 10281 56000 84617
AAXX 31124 96525 31458 60000 10275 20251 30104 40111 52021 71322 84975 333 10302 56000 57901 59003 81914 84614 80980
AAXX 31124 96529 32450 40000 10278 20249 30100 40124 52026 83131 333 10338 56000 59007 83818
AAXX 31124 96535 32460 60000 10283 20255 30098 40119 52019 83131 333 10333 56000 58001 83814
AAXX 31124 96557 32457 60000 10288 20251 30052 40101 52019 85271 333 10321 56400 57840 59010 85813 80857
AAXX 31124 96559 31450 60000 10286 20243 30059 40098 52016 71322 84930 333 10338 56000 57904 57804 59002 81915 83814 83362 80975 80860
AAXX 31124 96565 31457 70000 10282 20264 30068 40120 52023 70522 83231 333 10328 56000 57803 59003 83811 84357 80850
AAXX 31124 96595 31457 80000 10286 20263 30062 40113 52024 71322 8497/ 333 10331 56009 57900 59018 81916 84611
AAXX 31124 96607 NIL
AAXX 31124 96615 NIL
AAXX 31124 96695 01458 70000 10266 20247 30096 40102 53023 69901 72192 85321 333 10322 56000 57901 57802 58010 69907 82916 84616 80980 80860
AAXX 31124 96737 31450 82406 10262 20238 30058 40088 53016 70522 85521 333 10286 56000 59012 85616 83460
AAXX 31124 96739 NIL
AAXX 31124 96741 32556 82709 10282 20227 30093 40097 52022 8357/ 333 10302 56009 59011 83620 85460
AAXX 31124 96745 32556 72706 10282 20223 30099 40104 52021 83521 333 10310 56000 59008 83620 87460
AAXX 31124 96751 31540 70000 10222 20187 39039 48920 52019 71522 85210 333 10268 56600 57862 59009 82820 83620 80880
AAXX 31124 96791 31456 80000 10276 20250 30036 40111 52014 71522 8352/ 333 10324 56009 59016 83618 87460
AAXX 31124 96797 01457 82203 10254 20239 30090 40096 53008 69941 70296 8497/ 333 10306 56009 57902 59018 69907 81918 83620 85460 80980
AAXX 31124 96837 01557 81402 10272 20240 30089 40093 52016 60151 72162 85376 333 10308 56000 57900 59016 60127 81920 84823
AAXX 31124 96925 01460 82903 10264 20250 30098 40103 51016 60131 76166 8424/ 333 10304 56600 57860 58000 60037 84817 86460 80860
AAXX 31124 96933 01430 83404 10250 20238 30099 40102 52026 60471 79596 8692/ 333 10323 56609 57961 59006 60477 82912 84812 88457 80980
AAXX 31124 96937 NIL
AAXX 31124 96973 01558 60000 10264 20255 30089 40094 52014 60021 70162 82231 333 10300 56000 57803 59007 69927 82820 80850
AAXX 31124 96987 32560 60000 10270 20243 30036 40096 52014 83271 333 10320 56000 57803 59006 82820 80860
AAXX 31124 97008 32560 70000 10260 20245 30092 40102 52013 83572 333 10294 56000 59001 83620 85460
AAXX 31124 97016 31463 82707 10283 20224 30107 40109 52014 84972 333 10304 56000 57901 57801 58000 81918 83820 80984 80860
AAXX 31124 97126 31456 80401 10274 20254 30053 40113 52029 71322 8392/ 333 10301 56009 57900 58003 81917 82617 88460 80980
AAXX 31124 97142 32460 50000 10268 20251 30071 40085 51016 82531 333 10316 56000 59003 82619 83360
AAXX 31124 97182 32560 50902 10278 20255 30097 40102 52015 82271 333 10300 56000 57802 58003 82820 80865
AAXX 31124 97240 31458 60000 10258 20255 39986 40100 52014 70592 84131 333 10310 56000 59004 84816
AAXX 31124 97284 11458 70000 10200 20196 38875 40113 52016 60011 71562 85221 333 10232 56000 57801 59001 85810 80837
AAXX 31124 97310 11560 10000 10264 20237 30085 40097 52013 60081 70262 81101 333 10312 56000 59007 81820
AAXX 31124 97320 31460 70000 10282 20252 30089 40102 52021 71322 84928 333 10332 56000 57901 57801 59003 81919 83820 84280 80960 80850
AAXX 31124 97378 11560 80000 10244 20235 39940 40103 54023 60021 70262 84271 333 10296 56000 59011 84820 88459
AAXX 31124 97380 01456 80000 10258 20252 30078 40099 52020 60041 76062 82271 333 10308 56000 57802 59001 60047 82818 86459 80856
AAXX 31124 97406 01459 80000 10238 20233 30072 40098 52012 60031 71362 84962 333 10292 56000 57901 57801 59010 60027 81917 83818 85360 80975 80860
AAXX 31124 97570 31458 72805 10284 20237 30076 40083 52015 70542 86802 333 10322 56600 57802 58003 85815 80862
AAXX 31124 97630 01440 80206 10236 20224 39958 40119 51022 60371 76366 8692/ 333 10310 56009 57900 58009 60227 81911 86808 88459 80976
AAXX 31124 97682 NIL
AAXX 31124 97698 01440 83310 10284 20234 30090 40097 52029 60021 76022 85968 333 10333 56000 57900 57800 60027 82915 84816 86461 88278
AAXX 31124 97700 32460 70000 10274 20252 30084 40098 52021 83872 333 10304 56000 57804 58002 82817 84074 80850
AAXX 31124 97722 32461 73504 10282 20238 30089 40104 52018 85972 333 10310 56600 57861 59002 83818 80857
AAXX 31124 97780 NIL
AAXX 31124 97790 11457 82407 10283 20253 30061 40081 52016 60021 70562 85872 333 10312 56600 57861 58015 83818 85458 80858
AAXX 31121 98134 NIL
AAXX 31121 98223 31562 10202 10250 20222 40138 52017 70140 81100 333 10307 56999 59012 81820
AAXX 31121 98232 31565 80203 10245 20224 40163 53002 70342 8227/ 333 10262 56199 58022 82820 88358
AAXX 31121 98325 31458 53403 10278 20254 40144 53022 70342 83270 333 10324 56999 59004 83816
AAXX 31121 98328 11440 81801 10180 20168 38552 40135 53010 69941 78084 885// 333 10252 56999 58003 88612
AAXX 31121 98330 31470 20000 10260 20226 30122 40154 53026 70144 81230 333 10315 56999 59001 81818
AAXX 31121 98336 32468 33601 10240 20226 30168 40173 52013 82201 333 10304 56899 59002 82815
AAXX 31121 98429 31560 51303 10267 20229 40157 52023 70544 82230 333 10311 56999 58000 82825 83360
AAXX 31121 98430 31558 11401 10259 20235 40148 52014 70541 81130 333 10310 56999 59002 81820
AAXX 31121 98431 31458 50901 10262 20236 30103 40150 53023 70242 82230 333 10301 56999 59002 82818 85360
AAXX 31121 98440 31468 20704 10270 20236 30153 40158 52022 70544 82200 333 10299 56199 59007 82815
AAXX 31121 98444 11465 20402 10265 20223 30124 40143 53014 69921 70182 82200 333 10302 56199 59002 82818
AAXX 31121 98526 32570 10000 10256 20243 40142 52029 81100 333 10/// 56999 59003 81820
AAXX 31121 98531 NIL
AAXX 31121 98536 31465 30404 10254 20228 39941 40141 52010 70141 82261 333 10277 56199 59007 82818
AAXX 31121 98543 32468 50702 10266 20245 30123 40134 52017 82201 333 10323 56999 59001 82818 84075
AAXX 31121 98550 32460 33601 10268 20237 40131 52025 81241 333 10300 56999 59007 81818
AAXX 31121 98618 32570 30704 10283 20232 40134 53023 82281 333 10316 56999 59002 82820
AAXX 31121 98630 32575 30204 10272 20256 40136 53009 82201 222// 2//03 333 10310 56199 58000 82820
AAXX 31121 98637 NIL
AAXX 31121 98646 11560 63201 10256 20248 30122 40150 52013 60051 70282 82202 333 10310 56999 59004 82820 85075
AAXX 31121 98653 NIL
AAXX 31121 98741 32468 70402 10269 20256 40118 52014 82870 333 10285 56199 58014 82817 87358
AAXX 31121 98747 31460 52902 10260 20247 39912 40117 51016 70544 83470 333 10300 56999 59008 83618 84358
AAXX 31121 98753 11465 73602 10261 20238 40116 52011 69901 70564 82238 333 10291 56999 59006 82816 84359 86279
AAXX 31121 98755 11460 83601 10262 20257 40130 52023 60051 78022 8352/ 333 10305 56999 58006 83618 88458
AAXX 31121 98836 NIL
BBXX 46036 31121 99484 71339 46/// /1313 10065 40162 57032 22200 00079 11307 70036 333 91216
AAXX 31121 80001 32470 40706 10270 20238 30135 40136 81206 333 20258 30/// 50320 55097 562/0 58003 81818 83070
AAXX 31121 80002 12470 60605 10270 20241 69904 82108 333 20262 32/// 5///0 55086 561/0 70000 82817 84270
AAXX 31121 80001 32470 40706 10270 20238 30135 40136 81206 333 20258 30/// 50320 55097 562/0 58003 81818 83070
AAXX 31121 80022 31962 30000 10242 20227 30102 40104 70500 80001 333 20242 30/// 50430 55075 56//0 58006 83070
AAXX 31121 80028 31960 30204 10254 20225 30078 40113 70500 80005 333 20248 30/// 5///0 55094 56//0 58000
AAXX 31121 80035 31965 40803 10246 20226 30132 40137 7052/ 333 20234 30/// 50330 55078 58001
AAXX 31121 80036 31468 30504 10232 20209 7050/ 81502 333 20231 30/// 50660 55090 560/0 81615
AAXX 31121 80063 31404 70000 10250 20244 7462/ 81610 333 20238 30/// 5600/ 81712 87459
AAXX 31121 80084 31450 40203 10254 20239 7052/ 84800 333 20242 30/// 55078 565// 84812
AAXX 31121 80091 31462 50000 10248 20239 7052/ 82801 333 20246 30/// 50250 55012 569/0 82615 83070
AAXX 31121 80094 31968 21702 10192 20186 38811 7050/ 81031 333 20179 30/// 50300 55027 56/99 59003 81360
AAXX 31121 80097 32570 31804 10246 20178 39759 40106 82102 333 20217 30/// 50500 55058 569/9 59012 82822
AAXX 31121 80099 31462 60000 10236 20224 39947 40092 7052/ 85812 333 20228 30/// 50770 55095 56999 58000 85817
AAXX 31121 80110 31460 80000 10192 20168 38510 70522 8457/ 333 20184 31/// 5500 5600/ 59003 84615 86357
AAXX 31121 80112 NIL
AAXX 31121 80139 32570 50406 10252 20234 83531 333 20240 30/// 50730 55094 55299 83623
AAXX 31121 80144 NIL
AAXX 31121 80149 NIL
AAXX 31121 80210 11458 50902 10190 20168 38663 60024 74022 82530 333 20180 30/// 50280 55032 5677/ 59006 82615 83357
AAXX 31121 80211 11570 50000 10188 20179 69994 7052/ 83570 333 20180 30/// 50240 55031 5682/ 83625 83362
AAXX 31121 80214 31450 70000 10200 20185 39128 7412/ 84871 333 20186 30/// 50310 55033 56500 59003 84815 83359
AAXX 31121 80222 31567 20503 10098 20072 37535 70500 81141 333 20083 30/// 55060 56999 58000 81820
AAXX 31121 80234 32962 40000 10222 20176 39622 40110 82032 333 20200 300// 50430 55063 56/39 59003 82359
AAXX 31121 80241 NIL
AAXX 31121 80259 NIL
AAXX 31121 80315 32665 10000 10238 20218 39603 40107 81150 333 20235 30/// 50560 55078 5609/ 58003 81843
AAXX 31121 80342 31540 40000 10146 20136 38214 7402/ 84800 333 20146 30/// 50490 55072 564// 59011 84620
AAXX 31121 80370 NIL
AAXX 31121 80398 12262 70000 10244 20240 30029 40129 60184 85530 333 20239 31/// 50290 55031 5699/ 59009 85605 86358
BBXX 46036 31121 99484 71339 46/// /1313 10065 40162 57032 22200 00079 11307 70036 333 91216
AAXX 31121 40664 41658 80902 10136 20041 40203 57013 76062 8522/
AAXX 31121 88900 46/// /2202 10042 20037 39854 49857 58002 333 10044 20032
BBXX 62301 31124 99524 70047 46/// /2419 10100 20096 40084 58011 22200 00092 10504 70022
BBXX 2AUO5 31123 99606 10016 41296 81735 10076 20058 49929 57027 75455 8/6// 22241 20607 333// 41010 80068
BBXX 63106 31124 99610 10017 46/// /1735 10066 49921 57026 22200
BBXX 63105 31124 99610 10017 47295 ///// 10071 20060 49920 57027 761// 22200
BBXX 62103 31124 99499 70029 46/98 /2626 10120 20110 40150 50001 22200 00119 10704 70019 333 90710 91135
BBXX PHBO 31123 99460 70159 41297 82327 10143 20127 40231 58013 70222 8472/ 22214 20705 327// 41205 80134
AAXX 31121 23426 41964 82002 11133 21153 30130 40155 52013 77172 8807/
AAXX 31121 23625 42598 81101 11052 21062 30122 40156 52011 889//
AAXX 31121 28076 42697 72002 11053 21056 30179 40253 52013 87500
AAXX 31121 28367 42984 72104 11030 21088 30152 40283 52015 87030
AAXX 31121 28382 42598 80000 11079 21097 30224 40298 52018 885//
AAXX 31121 28481 42997 71802 11072 21081 30198 40300 52024 83031
AAXX 31121 28491 42597 81501 11083 21097 30195 40310 52018 885// 333 88622
AAXX 31121 28573 42997 72003 11070 21095 30205 40313 52020 87030
AAXX 31121 28593 42997 82003 11097 21109 30222 40324 52023 8807/
AAXX 31121 28786 42997 22202 11104 21132 30186 40352 52022 80002
AAXX 31121 28797 42997 82402 11116 21136 30181 40348 52015 80001
AAXX 31121 28799 42997 02101 11133 21153 30204 40359 52020 80009
AAXX 31121 20046 NIL
AAXX 31121 20069 NIL
AAXX 31121 20087 11996 70112 11184 21203 39968 49979 52029 60012 73873 86031 333 11121 91115
AAXX 31121 20292 NIL
AAXX 31121 20353 46/// /3314 11125 21151 30057 40061 54040 333 91119
AAXX 31121 20667 41595 83107 11075 21084 30036 40043 52040 77373 8802/
AAXX 31121 20674 11897 82903 11120 21133 39920 49980 52029 69942 77172 8801/ 333 11090 91106
AAXX 31121 20744 41598 60502 11099 21121 30118 40137 52023 70282 85530 333 85622
AAXX 31121 20891 32998 71603 11142 21177 30022 40066 52006 8705/ 333 11134 91105
AAXX 31121 23022 42997 12204 11126 21169 30070 40133 51019 81030
AAXX 31121 23032 41598 62703 11087 21120 30087 40118 52030 70282 83501
AAXX 31121 23058 41998 82606 11090 21101 30086 40090 52031 73632 8805/
AAXX 31121 23242 41997 72806 11117 21152 30123 40139 52034 73632 82031 333 91113
AAXX 31121 23256 41498 72609 11091 21106 30087 40123 52028 73687 87500 333 87611 91112
AAXX 31121 23330 41195 81801 11201 21213 30143 40165 52022 71022 886// 333 88602
AAXX 31121 23445 42997 22003 11196 21215 30154 40182 52027 80001
AAXX 31121 23552 42997 02203 11182 21201 30155 40192 52023
AAXX 31121 23631 42598 72102 11068 21073 30127 40169 52010 83550 333 83627
AAXX 31121 23662 41998 02503 11147 21167 30165 40212 52029 70281
AAXX 31121 23724 42699 82002 11049 21055 30106 40172 52008 885//
AAXX 31121 23734 42998 80000 11104 21110 30102 40195 52009 82031
AAXX 31121 23849 41696 72203 11083 21095 40248 52020 71022 83530 333 83635
AAXX 31121 23867 41597 82402 11073 21090 30180 40254 52024 77172 8652/
AAXX 31121 23933 42697 82202 11108 21117 30175 40234 52015 84507
AAXX 31121 28064 42998 81901 11050 21060 30146 40239 52010 8801/
AAXX 31121 28275 42597 81702 11058 21073 30218 40279 52016 885//
AAXX 31121 28493 42997 71802 11092 21112 30213 40310 52026 87070
AAXX 31121 28698 42997 22101 11114 21134 30182 40346 52023 80001
AAXX 31124 41258 36/// /0907 10237 20124 30183 40188 333 0E/// 58012
BBXX WE4805Q 31124 99451 70859 41/99 70210 10016 2//// 40119 53001 70102 87/// 22213 00050 20201 3//// 4//// 5//// 6//// 8//// ICE /////
BBXX WDA2768 31124 99417 70874 43/// /2806 00/// 10016 21006 40142 50019 7//// 8//// 22200 0//// 2//// 3//// 4//// 5//// 6//// 80008 ICE /////
BBXX VRIO2 31124 99215 50083 41598 31217 10250 20207 40200 51015 70000 81/88 22273 00230 21202 320// 41001 5//// 6//// 80220 ICE /////
AAXX 31124 78318 11560 60802 10204 20186 30192 40196 53006 60001 70511 83830 333 10279 20200 30/// 56990 58010 81820 84358
AAXX 31124 78325 11/58 61005 10203 20184 30144 40203 53008 60001 70411 86800 333 10262 20199 30/// 55101 56900 58013 818// 86621
AAXX 31124 78333 12/10 10802 10204 20190 30188 40195 51005 60001 81200 333 10280 20194 30/// 56900 57845 58009 818//
AAXX 31124 78348 11556 30602 10222 20207 30149 40202 53007 60001 70500 83200 333 10250 20210 31/// 56200 57813 58014 70090 83822 555 10902
AAXX 31124 78349 11440 13301 10202 20199 30097 40207 53011 60001 71011 81400 333 10290 20195 30/// 50254 56900 58009 81819
AAXX 31124 78353 12560 20601 10238 20197 30180 40202 53018 60001 82800 333 10280 20235 30/// 50144 56900 58010 81820
AAXX 31124 78360 11558 10302 10214 20202 30167 40179 53010 60001 71000 81800 333 10302 20214 30/// 56900 57837 59004 81820 92012
AAXX 31124 78369 11568 40803 10256 20227 30175 40184 52012 60001 70500 84200 333 10281 20240 30/// 55076 56900 57863 58011 84820 92012
AAXX 31124 63688 32580 70907 10225 20091 48/// 8197/ 333 58010 81925 87360
AAXX 31124 63714 32580 43615 10236 20098 48495 82230 333 58011 82823 84362
AAXX 31124 63772 32580 20915 10307 20234 82200 333 82828
AAXX 31124 63820 32580 20510 10310 20222 40103 82900 333 58008 82828 81929
AAXX 31124 63612 NIL
AAXX 31124 63661 NIL
AAXX 31124 63671 NIL
AAXX 31124 63695 NIL
AAXX 31124 63708 NIL
AAXX 31124 63723 NIL
AAXX 31124 63740 NIL
AAXX 31124 63793 NIL
AAXX 31123 63612 32980 11416 10348 20084 40090 81030 333 58002 81361
AAXX 31123 63661 32580 43610 10259 20065 48515 81230 333 58010 81826 81361
AAXX 31123 63671 32980 00510 10341 20127
AAXX 31123 63695 32583 30505 10251 20095 81130 333 81826 83360
AAXX 31123 63723 32682 20210 10348 20164 40091 82200 333 58004 82830
AAXX 31123 63793 32580 23612 10317 20168 40069 82200 333 58005 82826
AAXX 31124 82141 32598 43605 10292 20250 30109 40121 83230 333 20261 59003
AAXX 31124 82145 32598 40903 10296 20226 30076 40117 84200 333 20191 59001
AAXX 31124 82181 32498 40510 10280 20225 30008 40148 81239 333 20248 58005
AAXX 31124 82198 32495 60506 10292 20236 30067 40118 83261 333 20258 58000
AAXX 31124 82353 32598 63606 10265 20239 30018 40102 84130 333 20234 59004
AAXX 31124 82361 32597 70504 10272 20245 30094 40131 85510 333 20251 59009
AAXX 31124 82476 32595 40905 10281 20233 30002 40120 84100 333 20250 59009
AAXX 31124 82861 32597 61804 10259 20229 39922 40091 86800 333 20236 59007
AAXX 31124 82098 32497 63605 10284 20238 30101 40117 8367/ 333 20249 59009
AAXX 31124 82246 32497 20502 10271 20248 39940 40138 82020 333 20232 58003
AAXX 31124 82445 32497 60000 10278 20256 30091 40143 83620 333 20259 59003
AAXX 31124 82460 32597 73601 10272 20245 30098 40127 87200 333 20250 58002
AAXX 31124 82562 32598 63604 10270 20245 30017 40125 85201 333 20244 59021
AAXX 31124 82571 21497 83604 10257 20233 39950 40123 70262 885// 333 20245 59011 69994
AAXX 31124 82765 32598 71403 10266 20243 39909 40149 82180 333 20247 59013
BBXX 51204 31121 99213 71581 46/// ///// 1//// 91222 22200 00246 11202 21002 330// 41201 70012
BBXX 52200 31121 99134 11448 46/// ///// 1//// 91215 22200 00286 10804 20803 309// 41101 70018
BBXX 51202 31121 99214 71577 46/// ///// 1//// 91209 22200 00239 11003 21003 305// 41101 70017
BBXX 44099 31121 99369 70757 46/// ///// 1//// 91222 22200 00100 10401 20401 70007
BBXX 46238 31121 99334 71195 46/// ///// 1//// 91220 22200 00139 11704 20802 328// 41703 70020
BBXX 46239 31121 99363 71221 46/// ///// 1//// 91221 22200 00120 11406 21004 329// 41405 70031
BBXX 46232 31121 99325 71174 46/// ///// 1//// 91208 22200 00147 11303 20902 326// 41303 70016
BBXX 46247 31121 99378 71228 46/// ///// 1//// 91221 22200 00114 11505 21003 326// 41504 70025
BBXX 46244 31121 99409 71244 46/// ///// 1//// 91205 22200 00101 11307 21004 328// 41305 70035
BBXX 46243 31121 99462 71241 46/// ///// 1//// 91229 22200 00082 11307 20905 326// 41304 70034
BBXX 46237 31121 99378 71226 46/// ///// 1//// 91210 22200 00110 11504 21003 327// 41504 70022
BBXX 46229 31121 99438 71246 46/// ///// 1//// 91221 22200 00099 11308 21005 329// 41306 70040
BBXX 46225 31121 99329 71174 46/// ///// 1//// 91214 22200 00148 11702 20801 327// 41702 70011
BBXX 46213 31121 99403 71247 46/// ///// 1//// 91224 22200 00109 11107 21004 330// 41105 70034
BBXX 46215 31121 99352 71209 46/// ///// 1//// 91208 22200 00141 11304 21002 328// 41303 70019
BBXX 46219 31121 99332 71199 46/// ///// 1//// 91228 22200 00133 11705 20804 329// 41704 70025
BBXX 46224 31121 99332 71175 46/// ///// 1//// 91206 22200 00146 11402 20801 322// 41402 70010
BBXX 46214 31121 99379 71235 46/// ///// 1//// 91220 22200 00121 11406 21004 329// 41404 70029
BBXX A8GH5 31123 99121 70234 41396 60521 10245 20169 40185 54000 70522 866// 22253 20402 80195
BBXX VRIO2 31124 99215 50083 41598 31217 10250 20207 40200 51015 70000 81/88 22273 00230 21202 320// 41001 5//// 6//// 80220 ICE /////
BBXX DANV 31124 99142 10532 41997 10417 10241 20147 40160 56030 7//00 80007 22225 04230 20102 305// 40203 80181
BBXX LAVN4 31124 99133 70219 41/97 90728 10230 2017/ 40168 56010 70200 8//// 22213 00220 21004 304// 40704 NNNN
BBXX VQHO7 31124 99096 50246 41398 40926 10240 20225 40135 58005 70200 84100 22234 00230 20502 310// 40605 5//// 80230
BBXX A8FQ8 31123 99046 50060 41899 31411 10280 20224 40150 50010 70200 82260 22274 00250 20504 80240
BBXX A8QL5 31121 99075 70278 41/96 80512 10260 20202 40150 52010 70222 87777 22284 04280 21005 308// 41205 80220
BBXX PCGM 31123 99279 70316 41498 70424 10235 20166 40330 52020 70222 853/3 22283 04234 20504 80190
BBXX VQIB9 31124 99347 30241 41/98 31115 10230 20146 40146 54000 70200 8/404 22264 2//// 319// 40806 5//// 80180
BBXX 52245 31121 99181 11458 46/// ///// 1//// 91206 22200 00279
BBXX 52246 31121 99152 11457 46/// ///// 1//// 91207 22200 00280
BBXX 52244 31121 99200 11452 46/// ///// 1//// 91208 22200 00265
BBXX 52248 31121 99135 11448 46/// ///// 1//// 91206 22200 00280
BBXX UGSN 31121 99514 11409 42/98 /2910 11136 40276 57003 22200 00014 2//// ICE 51092
BBXX UIFY 31121 99507 11408 41/95 /3608 11121 21183 40269 52006 77172 22283 01005 2//// 61013 ICE 41092
BBXX MQYA3 31123 99207 11164 41497 80425 10205 20175 40198 52020 70222 8/7// 22214 20504 304// 40505 5//// 80185
BBXX 52243 31121 99193 11666 46/// ///// 1//// 91154 22200 00268
BBXX 44062 31121 99386 70764 46/// /2304 1//// 91220 22200 00080 333 91205
BBXX PHHD 31121 99195 70596 41/97 50714 10260 20218 40205 53006 70222 8/3// 22243 04240 2//06 80230
BBXX 46132 31121 99497 71279 46/// /0204 10049 40244 52009 22200 00083 11007 70035 333 91205
BBXX 46205 31121 99542 71343 46/// /2108 10036 40188 52015 22200 00071 11007 70034 333 91210
BBXX 46206 31121 99488 71260 46/// /3302 10056 40262 52021 22200 00079 11107 70035 333 91203
BBXX MVQP8 31124 99285 70941 41597 51611 10215 20207 40180 52011 70122 83552 22200 00220 20201 305// 40201 5//// 80210
BBXX 46185 31121 99524 71298 46/// /1202 10032 40234 52017 22200 00068 11003 70017 333 91204
BBXX 44030 31121 99432 70704 46/// /0107 1//// 91204 22200 00081 10502 70009 333 91210 555 11092 22098
BBXX 44029 31121 99425 70706 46/30 /1301 10082 40131 56015 91204 22200 00079 10502 70008 333 91202 555 11020 22024
BBXX 41036 31121 99342 70770 46/// ///// 10173 20129 40148 91220 22200 00173
BBXX 46087 31121 99485 71247 46/// /0903 10059 20019 40268 91220 22200 00080 333 91205 555 11029 22030 31204 41006 61219 087028 091035 082024 071021 060022 043024
BBXX 46088 31121 99483 71232 46/// /2709 10052 40273 91220 22200 00076 10502 20502 70010 333 91210 555 11092 22097 31151 42612 61219 266088 265091 266103 248088 248083 256087
BBXX WPGK 31124 99285 70786 41498 32209 10233 2018/ 40190 54000 70200 83800 22234 00267 20503 3//// 4//// 5//// 6//// 80200 ICE /////
BBXX WQVY 31124 99355 70488 41/// 91925 10190 2019/ 40330 51040 76322 8//// 22223 0//// 20303 32019 40506 50404 6//// 80190 ICE /////
BBXX ZDLP 31123 99528 50400 41293 82728 10053 20053 49911 52020 72052 896// 22200 04040 20401 327// 40403 5//// 80053
BBXX SHIP 31123 99049 50815 41697 62308 10200 20169 40120 52020 70322 8699/ 22244 04190 2//// 80144
BBXX WDA2768 31124 99417 70874 43/// /2806 00/// 10016 21006 40142 50019 7//// 8//// 22200 0//// 2//// 3//// 4//// 5//// 6//// 80008 ICE /////
BBXX 51171 31121 99064 71623 46/// ///// 1//// 91146 22200 00276
BBXX 51170 31121 99168 71695 46/// ///// 1//// 91147 22200 00256
BBXX 46036 31121 99484 71339 46/// /1313 10065 40162 57032 22200 00079 11307 70036 333 91216
BBXX C6FU4 31124 99253 70758 41698 22301 10240 20211 40220 51010 70200 82400 22234 00240 2//// 3//// 4//// 5//// 6//// 80220 ICE /////
BBXX 44258 31121 99445 70634 46/// /1206 10051 40256 57005 22200 00052 10802 70012 333 91207
BBXX 42013 31121 99272 70829 46/// ///// 1//// 40200 91140
BBXX 41114 31121 99276 70802 46/// ///// 1//// 91216 22200 00232 11301 21001 308// 41301 70005
BBXX 41010 31121 99289 70785 46/// /2506 10227 40205 91220 22200 00236 10502 20501 300// 41001 70008 333 91208 555 11063 22066
BBXX 41110 31121 99341 70777 46/// ///// 1//// 91221 22200 00132 10602 20602 70010
BBXX 41113 31121 99284 70805 46/// ///// 1//// 91221 22200 00211 11201 20901 70004
BBXX 41112 31121 99307 70813 46/// ///// 1//// 91221 22200 00163 11301 20401 70005
BBXX 41009 31121 99285 70802 46/// /2607 10208 20166 40215 91220 22200 00226 10301 20301 300// 41201 70007 333 91208 555 11073 22076
BBXX 42099 31121 99273 70842 46/// ///// 1//// 91227 22200 00222 10501 20501 70005
BBXX 42361 31121 99276 70925 46/// ///07 10222 20189 40190 53007 91230 555 11059 22062
BBXX 46146 31121 99493 71237 46/// /2602 10054 40268 52038 22200 00071 10301 70003 333 91203
BBXX 46004 31121 99509 71361 46/// /1411 10047 40155 57026 22200 00072 11107 70034 333 91214
BBXX 46184 31121 99539 71389 46/// /1606 10034 40145 57003 22200 00059 11006 70030 333 91208
BBXX 46181 31121 99538 71288 46/// /2502 10000 40239 52033 22200 00038 10200 70000 333 91203
BBXX 51172 31121 99284 71783 46/// ///// 1//// 91216 22200 00220
BBXX 51173 31121 99260 71739 46/// ///// 1//// 91212 22200 00248
BBXX 44057 31121 99395 70761 46/// /3402 10047 40107 52004 91200 22200 00039 333 91203
BBXX 44058 31121 99376 70763 46/// /2305 1//// 91220 333 91205
BBXX 44058 31121 99376 70763 46/// /2204 1//// 40116 91210 333 91205
BBXX 51176 31121 99278 71758 46/// ///// 1//// 91205 22200 00237
BBXX 44058 31121 99376 70763 46/// /2103 10098 40114 58006 91200 22200 00085 1//00 70002 333 91204
BBXX 44057 31121 99395 70761 46/// /0101 1//// 40107 91210 333 91202
BBXX 44057 31121 99395 70761 46/// /3602 1//// 91220 333 91202
BBXX 46092 31121 99368 71220 46/// /0605 10103 40217 91157 22200 00120 555 11051 22051
BBXX 44059 31121 99368 70763 46/// /1801 10121 40118 54000 91200 22200 00107 333 91202
BBXX 44059 31121 99368 70763 46/// /2001 1//// 40119 91210 333 91202
BBXX 44059 31121 99368 70763 46/// /2001 1//// 91220 333 91202
BBXX 42363 31121 99282 70892 46/// /2704 10217 20139 40214 91230 333 91204
BBXX 42364 31121 99291 70881 46/// /2703 10200 20172 40214 91230
BBXX 44043 31121 99392 70764 46/// /1503 1//// 91220 333 91203
BBXX 44043 31121 99392 70764 46/// /1101 10072 40102 53003 91200 22200 00056 1//00 70002 333 91202
BBXX 44042 31121 99380 70763 46/// /2305 10108 40115 55000 91200 22200 00083 10201 70004 333 91207
BBXX 44041 31121 99372 70768 46/// /2303 1//// 40141 91210 333 91204
BBXX 44042 31121 99380 70763 46/// /2305 1//// 91220 333 91206
BBXX 44041 31121 99372 70768 46/// /2204 10109 40142 55002 91200 22200 00085 1//00 70001 333 91205
BBXX 44041 31121 99372 70768 46/// /2502 1//// 91220 333 91205
BBXX 44043 31121 99392 70764 46/// /1502 1//// 40101 91210 333 91203
BBXX 44042 31121 99380 70763 46/// /2305 1//// 40115 91210 333 91206
BBXX 44063 31121 99390 70764 46/// /0000 1//// 91220 333 91202
BBXX 44063 31121 99390 70764 46/// /0000 10086 40121 56002 91200 22200 00069 1//00 70002 333 91200
BBXX 44063 31121 99390 70764 46/// /0000 1//// 40123 91210 333 91200
BBXX 44062 31121 99386 70764 46/// /2305 1//// 40094 91210 22200 00080 333 91205
BBXX 44062 31121 99386 70764 46/// /2305 10099 40094 55000 91200 22200 00080 10301 70004 333 91206
BBXX 51179 31121 99143 51708 46/// ///// 1//// 91202 22200 00286
BBXX 51178 31121 99142 51695 46/// ///// 1//// 91201 22200 00285
BBXX 51174 31121 99142 51697 46/// ///// 1//// 91155 22200 00285
BBXX 51169 31121 99004 51600 46/// ///// 1//// 91154 22200 00252
BBXX VRDX2 31123 99094 31336 41/97 /3316 10300 20246 40092 7//// 8/776 22224 00310 20404
BBXX ZMFR 31124 99413 31748 43/// /1817 10132 20104 40105 57018 22200 00144
BBXX ZMENA 31124 99436 31727 46/// ///// 10127 20091 40114 57024 22200
BBXX VNAH 31124 99383 31416 46/// /1307 10185 20160 30139 40163 52010 22200 04207 85169
BBXX VROB 31124 99257 31534 46/// /1423 10236 20142 30131 40156 52001 22283 04250 85176
BBXX BAREU12 31124 99514 10039 46/// ///// 40103 52009 22223
BBXX FHZI 31124 99618 31451 46/// /2220 10001 21013 39887 49898 52028 22283 04001 86005
BBXX PDZS 31123 99640 50549 41092 81930 11015 49695 52040 77342 885// 22241 03005 20503 320// 40604 5//// ICE //9//
BBXX KS098 31124 99442 71246 43/// /1307 10072 40275 22241 06000
BBXX KS094 31124 99179 70629 43/// /0920 10263 40198 22212 06256
BBXX KS088 31124 99267 70801 43/// /0702 10161 40210 22200 06224
BBXX KS007 31124 99267 70801 43/// ///// 10163 40171 22200
OOXX AAEMI 31124 99785 31731 57083 00521 46/// /2807 11073 21118 39774 49839 57001 91150
OOXX AABRI 31124 99839 51342 60134 05251 46/// /0413 11084 21175 39115 49732 5//// 91140
AAXX 31124 63881 12480 72206 10216 20159 38201 48/// 60012 85920 333 0//11 58004 85619 81921 83457
AAXX 31124 63932 32580 70000 10200 20184 38309 48505 8492/ 333 55300 58006 84822 81924 87458
AAXX 31124 91723 NIL
AAXX 31124 91964 36/// /1106 10214 20199 40183 57013
BBXX 44137 31121 99423 70620 46/// /1206 10104 40260 52001 22200 00094 10803 70014 333 91208
BBXX 3FMH7 31124 99336 11694 41597 82815 00/// 10200 20185 40167 5//// 71882 87/// 9//// 22272 0//// 1//// 2//// 3//// 4//// 5//// 6//// 80190
BBXX H9UY 31124 99327 11432 41697 73519 00/// 10130 40231 51/// 70222 86393 9//// 22273 04200 20303 336// 40306 5//// 6//// 80120
BBXX UGSN 31121 99514 11409 42/98 /2910 11136 40276 57003 22200 00014 2//// ICE 51092
BBXX UIFY 31121 99507 11408 41/95 /3608 11121 21183 40269 52006 77172 22283 01005 2//// 61013 ICE 41092
BBXX WCX8882 31124 99374 11456 41497 73230 10060 20040 40218 54000 7//11 8742/ 22214 00130 20508 301// 40606 5//// 6//// 80050 ICE /////
BBXX 44137 31121 99423 70620 46/// /1206 10104 40260 52001 22200 00094 10803 70014 333 91208
OOXX AAPEG 31124 99779 31666 57186 00051 46/// /0103 11005 21044 39794 49800 57002 91150
OOXX AAERI 31124 99849 51288 60048 09901 46/// /0823 11112 2//// 38672 49792 5//// 91150
AAXX 31124 41926 32950 60000 10215 20180 30141 40155 86030 333 10280 56090 59006 70000 86362
AAXX 31121 21946 11497 82203 11246 21270 30134 40219 51002 69920 77172 885// 333 11263 88619
OOXX AAMIZ 31124 99707 30443 58304 22602 46/// /0005 11092 2//// 37490 49681 52006 91140
OOXX AALAU 31124 99775 31708 57070 00371 46/// /3104 11044 21058 39753 49799 57006 91140
AAXX 31124 63729 32580 60605 10262 20199 38875 48/// 8193/ 333 55304 58011 81822 81924 86362
AAXX 31124 63733 32580 73011 10235 20193 38866 48507 81931 333 55300 58013 81824 81925 86359
AAXX 31124 63756 01580 61805 10238 20183 38871 48509 69951 70262 82931 333 0//12 55304 58004 69957 82825 81926 85361
AAXX 31124 63791 32680 42705 10328 20118 39105 48510 84930 333 55308 59009 81932 83834 91012
AAXX 31124 63801 01480 70000 10215 20200 39227 48548 60211 76196 8191/ 333 0//96 55300 58021 81819 81920 87458
AAXX 31124 63832 32480 62405 10237 20197 38831 48510 8397/ 333 55300 58019 83819 81920 86358
AAXX 31124 63862 32580 50610 10270 20177 38889 48502 85971 333 55310 58022 85825 81927
AAXX 31124 63866 32580 30610 10306 20218 39503 48/// 83100 333 55310 58014 83827
AAXX 31124 63870 32580 13617 10322 20233 30078 40096 81200 333 55310 58009 81824
AAXX 31124 63887 32580 73512 10245 20178 38580 48505 8597/ 333 55303 58013 85822 81923 86358
AAXX 31124 63894 32580 50219 10306 20233 30044 40104 85200 333 55310 58011 85825
AAXX 31124 63962 32580 41216 10283 20207 38929 48498 84900 333 55310 59005 84825 81927
AAXX 31124 63971 12580 40318 10296 20248 39975 40102 69901 84900 333 55307 58011 84823 81924
AAXX 31124 63881 NIL
AAXX 31124 63932 NIL
AAXX 31121 31152 32997 50000 11386 21420 39907 40376 57006 82032 333 11367
AAXX 31121 31163 NIL
AAXX 31121 31285 32999 00000 11304 21334 30250 40340 52002 333 11231
AAXX 31121 31561 12998 01401 11281 21292 30273 40304 52001 69900 333 11182
AAXX 31121 31683 32999 00000 11214 21239 30207 40288 52005 333 11125
AAXX 31121 32010 11395 83206 11155 21168 30211 40263 58002 60010 78582 889// 333 11141 87708 91007 91108
AAXX 31124 71049 16/// /0502 11240 30053 40077 51011 60001 333 11191 21264 70000
AAXX 31124 71490 16/// /0213 11309 21337 39809 40150 53014 60001 333 11281 21309 4/009 70000
AAXX 31124 71277 46/// /2613 11054 21108 6///1 333 11026 21092 7////
AAXX 31124 71923 16/// ///08 11182 21197 39612 40065 53021 60001 333 11148 21183 4/001 7//// 555 10010
AAXX 31124 71592 16/// /0607 11325 21369 30065 40079 53004 60001 333 11270 21342 4/011 70000
AAXX 31124 71761 16/// ///// 11050 21072 60001 333 11045 21135 70000
AAXX 31124 71963 16/// /0507 11267 21292 39693 40118 53021 60001 333 11253 21324 4/005 70000
AAXX 31124 64700 32960 60410 10310 20003 39780 40122 80002 333 0//00 58002 86075
AAXX 31124 64701 NIL
AAXX 31124 64702 NIL
AAXX 31124 64705 32965 20406 10360 20117 3//// 4//// 80002 91150 333 0//00 5//// 82075
AAXX 31124 64706 32960 33616 10355 20000 39627 40089 80002 333 0//00 58007 83075
AAXX 31124 64708 32962 50817 10360 20076 3//// 4//// 80002 91200 333 0//00 5//// 85075
AAXX 31124 64709 32962 23610 10340 21030 3//// 4//// 80002 91150 333 0//00 5//// 82075
AAXX 31124 64710 NIL
AAXX 31124 64713 NIL
AAXX 31124 64722 32962 10000 10360 21028 3//// 4//// 80002 91150 333 0//00 5//// 81075
AAXX 31124 64750 32965 53608 10370 20015 39683 40086 80002 91158 333 0//00 58001 85075
AAXX 31124 64751 31959 73606 10326 21003 3//// 4//// 78500 84032 91148 333 0//00 5//// 84365 86075
AAXX 31124 64753 NIL
AAXX 31124 64754 32962 00408 10380 20095 3//// 4//// 91150 333 0//00 5////
AAXX 31124 64756 32962 60608 10352 20035 39491 4//// 80002 91150 333 0//00 58004 86075
AAXX 31124 64757 NIL
AAXX 31124 64758 NIL
AAXX 31124 64761 NIL
AAXX 31121 25123 11996 81803 11281 21311 30207 40243 52004 60010 77173 86025 333 11277
AAXX 31124 71963 16/// /0507 11267 21292 39693 40118 53021 60001 333 11253 21324 4/005 70000
AAXX 31124 71761 16/// ///// 11050 21072 60001 333 11045 21135 70000
AAXX 31124 71490 16/// /0213 11309 21337 39809 40150 53014 60001 333 11281 21309 4/009 70000
AAXX 31124 71923 16/// ///08 11182 21197 39612 40065 53021 60001 333 11148 21183 4/001 7//// 555 10010
AAXX 31124 71592 16/// /0607 11325 21369 30065 40079 53004 60001 333 11270 21342 4/011 70000
AAXX 31124 71049 16/// /0502 11240 30053 40077 51011 60001 333 11191 21264 70000
AAXX 31124 71277 46/// /2613 11054 21108 6///1 333 11026 21092 7////
AAXX 31124 64700 32960 60410 10310 20003 39780 40122 80002 333 0//00 58002 86075
AAXX 31124 64701 NIL
AAXX 31124 64702 NIL
AAXX 31124 64705 32965 20406 10360 20117 3//// 4//// 80002 91150 333 0//00 5//// 82075
AAXX 31124 64706 32960 33616 10355 20000 39627 40089 80002 333 0//00 58007 83075
AAXX 31124 64708 32962 50817 10360 20076 3//// 4//// 80002 91200 333 0//00 5//// 85075
AAXX 31124 64709 32962 23610 10340 21030 3//// 4//// 80002 91150 333 0//00 5//// 82075
AAXX 31124 64710 NIL
AAXX 31124 64713 NIL
AAXX 31124 64722 32962 10000 10360 21028 3//// 4//// 80002 91150 333 0//00 5//// 81075
AAXX 31124 64750 32965 53608 10370 20015 39683 40086 80002 91158 333 0//00 58001 85075
AAXX 31124 64751 31959 73606 10326 21003 3//// 4//// 78500 84032 91148 333 0//00 5//// 84365 86075
AAXX 31124 64753 NIL
AAXX 31124 64754 32962 00408 10380 20095 3//// 4//// 91150 333 0//00 5////
AAXX 31124 64756 32962 60608 10352 20035 39491 4//// 80002 91150 333 0//00 58004 86075
AAXX 31124 64757 NIL
AAXX 31124 64758 NIL
AAXX 31124 64761 NIL
BBXX 44138 31121 99443 70536 46/// /2806 10038 40316 52028 22200 00092 11107 70034 333 91208
BBXX 44138 31121 99443 70536 46/// /2806 10038 40316 52028 22200 00092 11107 70034 333 91208
AAXX 31121 78458 21466 60000 10220 20219 40199 53012 70362 81230 333 10290 20208 31/// 56000 58008 69985 70492 81816 85357
AAXX 31121 78460 21430 41202 10216 20210 40197 53013 71061 83501 333 10300 20197 31/// 56100 58011 60027 70044 83615
AAXX 31121 78467 21466 20000 10206 20197 40192 5//// 702// 82200 333 10285 20178 31/// 56200 58004 60032 70033 82818
AAXX 31121 78479 21458 61304 10224 20218 40175 51006 76062 84822 333 10290 20213 32/// 56220 58013 60090 70475 84816 84457
AAXX 31121 78482 32466 10000 10195 20187 40211 5//// 81200 333 10302 20188 30/// 56000 58006 70001 81816
AAXX 31121 78485 32466 70203 10207 20200 40193 52015 83280 333 10302 20200 30/// 56000 58009 83616 85457
AAXX 31121 78486 32466 20000 10228 20211 40176 52015 82200 333 10306 20188 30/// 50543 56000 58008 82816
AAXX 31121 78488 32466 30903 10225 20221 40190 5//// 83800 333 10305 20175 30/// 56000 58012 83612
AAXX 31121 78458 21466 60000 10220 20219 40199 53012 70362 81230 333 10290 20208 31/// 56000 58008 69985 70492 81816 85357
AAXX 31121 78460 21430 41202 10216 20210 40197 53013 71061 83501 333 10300 20197 31/// 56100 58011 60027 70044 83615
AAXX 31121 78467 21466 20000 10206 20197 40192 5//// 702// 82200 333 10285 20178 31/// 56200 58004 60032 70033 82818
AAXX 31121 78479 21458 61304 10224 20218 40175 51006 76062 84822 333 10290 20213 32/// 56220 58013 60090 70475 84816 84457
AAXX 31121 78482 32466 10000 10195 20187 40211 5//// 81200 333 10302 20188 30/// 56000 58006 70001 81816
AAXX 31121 78485 32466 70203 10207 20200 40193 52015 83280 333 10302 20200 30/// 56000 58009 83616 85457
AAXX 31121 78486 32466 20000 10228 20211 40176 52015 82200 333 10306 20188 30/// 50543 56000 58008 82816
AAXX 31121 78488 32466 30903 10225 20221 40190 5//// 83800 333 10305 20175 30/// 56000 58012 83612
AAXX 31124 87909 32980 70518 10152 20090 30040 40112 52015 85078 333 10245 20136 56000 85360 87270
AAXX 31124 68925 36/// /1904 10234 20125 39783 40138 57005 333 10242 20140 91010 555 91015
AAXX 31120 44291 319// 21801 11278 21305 38792 40495 58003 70410 80001 333 11191
BBXX 41033 31121 99323 70804 46/// /2407 1//// 40181 52009 91200 555 11075 22077
AAXX 31124 94290 46/// /1220 10269 30097 40106 51012 91224
AAXX 31124 94210 35/// /2808 10284 30072 40077 52021
AAXX 31124 94289 46/// /1323 10275 30090 40097 52010 91215
AAXX 31124 94379 46/// /1221 10253 30119 40128 50003 91226
AAXX 31124 94290 46/// /1220 10269 30097 40106 51012 91224
BBXX 44056 31121 99362 70757 46/// ///// 1//// 91150 22200 00119 11001 21001 70004
BBXX SHIP 31124 99303 11459 41797 60102 10150 20106 40190 56014 70388 853// 22282 00234 80125
BBXX SHIP 31124 99128 11289 41398 30422 10280 20253 40127 52016 70111 81361 22283 00291 399// 4//// 5//// 80260
BBXX SHIP 31124 99406 71735 41697 73623 10070 20049 40211 51009 70103 8//// 91150 22224 00120 2//// 3//// 4//// 5//// 80050
BBXX SHIP 31124 99406 71735 41697 73623 10070 20049 40211 51009 70103 8//// 91150 22224 00120 2//// 3//// 4//// 5//// 80050
BBXX SHIP 31124 99024 71374 41/97 11318 10246 20215 40099 57018 70100 8//// 22233 04248
BBXX SHIP 31124 99024 71374 41/97 11318 10246 20215 40099 57018 70100 8//// 22233 04248
AAXX 31121 55228 32780 62505 11017 21274 36022 52011 86900 333 00002
AAXX 31121 55578 32980 00000 10013 21225 36380 52002 333 00152
AAXX 31121 55664 32980 02205 10034 21265 36036 52010 333 00100
AAXX 31121 55773 32970 03201 11013 21208 36042 52008 333 00100
AAXX 31121 56116 32980 00000 11009 21176 36354 52006 333 05101
AAXX 31121 56137 32980 00000 10037 21214 36798 52006 333 05151
AAXX 31121 56172 32980 00701 11001 21103 37358 52027 333 00000
AAXX 31121 56247 32980 00000 10090 21110 37430 52014 333 00000
AAXX 31121 56312 32980 02502 10038 21059 37092 52009 333 05151
AAXX 31121 56462 32980 02904 10036 21053 37149 52033 333 00101
AAXX 31121 56651 32980 00403 10102 21025 37645 52010 333 00000
AAXX 31121 56691 32468 70000 10024 20000 37803 52013 876// 333 00003
AAXX 31121 56985 32565 11103 10132 20091 38729 40185 52009 81100 333 00000
AAXX 31121 57633 32960 32201 10047 20008 39481 40291 52016 83040 333 05401
AAXX 31121 57902 32664 81102 10074 20047 38677 40257 52011 885// 333 00004
AAXX 31121 55279 32980 02501 11038 21247 35724 52008 333 00004 91118 91527
AAXX 31121 55472 32980 02506 10002 21279 35756 52008 333 00103 91120 91527
AAXX 31121 55696 32980 02002 10080 21197 36353 52011 333 00105
AAXX 31121 56079 32980 00402 11050 21168 36690 52002 333 05202
AAXX 31121 56106 32980 02703 10021 21264 36216 54000 333 05104
AAXX 31121 56257 32980 02501 10036 21232 36292 52013 333 00003
AAXX 31121 56374 32980 00000 11002 21086 37457 52028 333 00002
AAXX 31121 56385 32980 00000 11033 21153 37037 52009 333 05105
AAXX 31121 56954 32575 10000 10170 20125 40189 52011 81100 333 00000
AAXX 31121 56966 32975 01107 10198 20113 40158 52015 333 00151
AAXX 31121 57237 32962 02901 10034 21001 40298 52010
AAXX 31121 57306 31958 80000 10073 20054 40293 52009 71000 8807/
AAXX 31121 57604 31930 03602 10096 20061 40270 52016 71000
AAXX 31121 57707 32460 80000 10054 20027 38543 52014 885// 333 05104
AAXX 31121 57832 32766 81401 10055 20011 39517 40277 52007 885// 333 05300
AAXX 31124 43198 32496 61106 10272 20119 39268 40074 83531 333 10298 56299 59002 83615 84358
AAXX 31124 43201 32497 60908 10278 20095 39376 40082 82532 333 10304 56299 59001 82615 83358
AAXX 31124 43226 32497 62702 10290 20216 30061 40090 83531 333 10345 58001
AAXX 31124 43233 32597 50906 10274 20068 39291 40084 82532 333 10289 56299 58003
AAXX 31124 43284 32496 61804 10290 20216 39969 40083 83530 333 10335 58024 83615 85359
AAXX 31124 43295 21396 70902 10214 20149 39098 48506 70522 83631 333 10226 56299 58022 6990/ 81708 83615 85358
AAXX 31121 28522 42998 71805 11083 21145 39990 40259 57004 87040
AAXX 3112/ 48969 NIL
AAXX 3112/ 48962 NIL
AAXX 3112/ 48990 NIL
AAXX 3112/ 48986 NIL
AAXX 3112/ 48995 NIL
AAXX 3112/ 48967 NIL
AAXX 3112/ 48992 NIL
AAXX 3112/ 48965 NIL
AAXX 3112/ 48985 NIL
AAXX 3112/ 48970 NIL
AAXX 3112/ 48991 NIL
AAXX 3112/ 48964 NIL
AAXX 3112/ 48997 NIL
AAXX 3112/ 48968 NIL
AAXX 3112/ 48973 NIL
AAXX 3112/ 48966 NIL
AAXX 3112/ 48983 NIL
AAXX 3112/ 48972 NIL
AAXX 3112/ 48998 NIL
AAXX 3112/ 48993 NIL
AAXX 3112/ 48971 NIL
AAXX 3112/ 48963 NIL
AAXX 3112/ 48987 NIL
AAXX 31124 63705 32559 71407 10245 20206 38859 48515 8292/ 333 58017 82824 81926 87468 555 10216
AAXX 31124 71019 46/// /0804 11092 21093 39903 40217 58013 6///1 333 11082 21178 7////
AAXX 31124 71048 16/// /3222 11027 21066 60001 333 10047 21045 70000
AAXX 31124 71354 16/// /3014 11068 21091 60001 333 11001 21097 70000
AAXX 31124 71981 16/// /3506 11023 21123 60001 333 10053 21055 70004
AAXX 31124 71982 16/// /0212 11034 21082 60001 333 10050 21074 70000
AAXX 31124 71986 16/// /3316 11028 21070 60001 333 10047 21061 70000
AAXX 31124 71990 46/// /1904 11163 21184 38419 40057 5/025 6///1 333 11129 21208 4/094 7////
AAXX 31124 71824 46/// /0902 11157 21177 6///1 333 11194 21260 7////
AAXX 31124 71406 16/// /2710 11072 21118 30237 40247 51018 60001 333 11007 21076 70007
AAXX 31124 71418 46/// /1906 11015 21050 30238 40271 50012 6///1 333 11003 21015 7////
BBXX MINUK05 3112/ 99571 70021 46/// ///// 10073 49964 57019
BBXX MINUK04 3112/ 99519 10013 46/// ///// 10123 4//// 52078
BBXX MINUK03 3112/ 99525 10046 46/// ///// 10095 40108 57014
AAXX 31124 71019 46/// /0804 11092 21093 39903 40217 58013 6///1 333 11082 21178 7////
AAXX 31124 71048 16/// /3222 11027 21066 60001 333 10047 21045 70000
AAXX 31124 71354 16/// /3014 11068 21091 60001 333 11001 21097 70000
AAXX 31124 71406 16/// /2710 11072 21118 30237 40247 51018 60001 333 11007 21076 70007
AAXX 31124 71418 46/// /1906 11015 21050 30238 40271 50012 6///1 333 11003 21015 7////
AAXX 31124 71981 16/// /3506 11023 21123 60001 333 10053 21055 70004
AAXX 31124 71982 16/// /0212 11034 21082 60001 333 10050 21074 70000
AAXX 31124 71986 16/// /3316 11028 21070 60001 333 10047 21061 70000
AAXX 31124 71990 46/// /1904 11163 21184 38419 40057 5/025 6///1 333 11129 21208 4/094 7////
AAXX 31124 71824 46/// /0902 11157 21177 6///1 333 11194 21260 7////
AAXX 31124 43495 22468 5//// 10274 20201 30084 40100 82101 333 10322 58008 60007 82818 84078
AAXX 31121 98531 31570 12101 10280 20243 30130 40134 53015 70544 81200 333 10348 56599 59002 81820
AAXX 31121 98653 11465 60000 10276 20256 30070 40115 52020 69981 70584 82270 333 10312 56999 59006 82818 85358
AAXX 31124 67002 32580 53209 10315 20244 30092 40125 85802 333 0//00 58004 82820 83630 92408
AAXX 31124 67009 NIL
AAXX 31124 67012 32582 72608 10310 20266 30083 40094 57017 872// 333 0//00 87820 67025 NIL
AAXX 31124 67027 11580 62812 10288 20248 30078 40099 58015 60371 70292 83952 333 0//24 82820 81920 85360 94967 95837 555 82640 81073= RR37.3MM 67045 NIL
AAXX 31124 67072 31470 62008 10297 20249 30097 40100 56013 71799 84966 333 0//00 83817 81917 85275 92428 94997/8 95875/7/8 555 82640 82360
AAXX 31124 67073 31580 6//// 10308 20243 30075 40101 56010 71522 83933 333 0//00 81920 83820 94962/3 95832/3 555 82633 81360 81073
AAXX 31124 67083 32582 60606 10288 20173 38715 48492 57017 86800 333 0//00 86820
AAXX 31124 67095 31470 51810 10320 20238 30083 40090 57019 71522 84903 333 0//00 82917 83817 84073 94946/7/8 95866/7/8 555 82633
AAXX 31124 67113 11575 5//// 10293 20237 30/// 40/// 5//// 6//// 70162 82930 333 0//// 81820 81920 84360 94997 95817 555 81640
AAXX 31124 67117 NIL
AAXX 31124 67137 11465 80000 10218 20196 38883 48488 55005 60131 72196 82973 333 0//11 82817 81917 86460 94999 95819 555 81620 82073= RR 13,1 67143 NIL
AAXX 31124 67152 NIL
AAXX 31124 67157 32580 2//// 10/// 20/// 30122 40129 58010 82800 333 0//00 81820 555 81640
AAXX 31124 67161 NIL
AAXX 31124 67197 32580 51212 10287 20220 30110 40120 58008 85800 333 0//00 82820 84633
AAXX 31124 67017 NIL
AAXX 31124 67020 NIL
AAXX 31124 67023 32582 51206 10300 20249 30085 40091 56008 82932 333 0//00 82820 81920 84073 94976/7 95836/7 555 82360 67037 NIL
AAXX 31124 67067 NIL
AAXX 31124 67107 NIL
AAXX 31124 67131 32582 52606 10/// 20/// 30081 40086 57010 85800 333 0//00 84820 555 81640
AAXX 31124 91772 31498 20000 10259 20237 4//// 60001 70212 82100 333 10313 569// 82707
AAXX 31124 91776 NIL
AAXX 31124 91779 NIL
AAXX 31124 91784 31498 20908 10262 20234 40103 58003 60001 70110 82100 333 10297 562// 82818
AAXX 31124 91792 31498 20804 10250 20221 40120 58008 60001 70210 82100 333 10287 562// 82816
AAXX 31124 91772 31498 20000 10259 20237 4//// 60001 70212 82100 333 10313 569// 82707
AAXX 31124 91776 NIL
AAXX 31124 91779 NIL
AAXX 31124 91784 31498 20908 10262 20234 40103 58003 60001 70110 82100 333 10297 562// 82818
AAXX 31124 91792 31498 20804 10250 20221 40120 58008 60001 70210 82100 333 10287 562// 82816
AAXX 31124 91367 11474 81004 10261 20222 60501 70382 84227 333 10294 56229 84815 84460 88280 555 93112 91369 32474 40905 10272 20243 30099 40102 83100 333 10289 562// 83815 555 93112
BBXX 42360 31121 99267 70905 46/// /0902 10225 91200 22200 00244 10501 70005 333 91203
BBXX 42023 31121 99261 70831 46/// /1002 1//// 91230 333 91203
BBXX 42023 31121 99261 70831 46/// /1002 1//// 91200 333 91203
AAXX 31124 89657 46/// /0000 11050 20002 49819 53006
AAXX 31124 40250 32660 30000 10186 20029 39334 40112 57030 83100 333 83830
AAXX 31124 40265 31540 53106 10128 20058 39373 40173 57020 70500 85130 333 83830 82360
AAXX 31124 40310 32960 00000 10148 21011 38916 48469 57014 80002 333 84070
AAXX 31124 89108 46/// /3210 11229 36920 4//// 57001 91150
AAXX 31124 89667 46/// /0103 11005 39794 49804 57002 91150
AAXX 31124 89734 46/// /2806 11258 36036 4//// 5//// 91150
AAXX 31124 89834 46/// /1721 11111 38133 4//// 52003 91150
AAXX 31124 89869 46/// /0000 11008 39708 49785 57003 91150
BBXX ZCDY2 31124 99245 70748 41498 12827 10231 20186 40250 53012 70200 81100 22235 00250 20101 327// 40202 5////
BBXX A8CF2 31124 99046 50815 41897 61517 10209 40110 53010 70122 82028 22244 2//// 320// 41203
AAXX 31124 83811 21496 80502 10208 20196 39210 40093 53003 71062 8427/ 333 20198 60024
AAXX 31124 83844 21596 827// 10208 20203 30108 40115 54000 76165 8572/ 333 20206 60164
AAXX 31124 83887 22597 70506 10196 20168 39064 40103 51006 87500 333 20168 60094
AAXX 31124 83907 32997 01403 10246 20203 39822 40098 51010 333 20192
AAXX 31124 83914 21596 53610 10225 20192 39322 40082 51010 71096 85300 333 20171 60364
AAXX 31124 83919 21596 73605 10180 20156 38948 40119 53006 71065 84820 333 20152 60044
AAXX 31124 83927 32997 00902 10234 20183 30014 40085 52011 333 20182
AAXX 31124 83936 31496 81403 10216 20188 39982 40102 51008 71042 885// 333 20198
AAXX 31124 83948 21493 80512 10211 20204 30106 40112 51004 76186 8572/ 333 20205 60084
AAXX 31124 83964 21595 81406 10174 20157 39604 40090 57004 79596 889// 333 20171 60014
AAXX 31124 83995 32397 80512 10210 20176 30118 40121 54000 887// 333 20210
AAXX 31124 83766 21597 80000 10210 20198 39460 40094 5//// 75062 885// 333 20204 60364
AAXX 31124 83836 21496 80503 10186 20173 39131 40092 51007 71062 886// 333 20174 60064
AAXX 31124 83881 22597 43203 10254 20215 39811 40086 53006 82204 333 20212 69904
AAXX 31124 83980 22597 81410 10206 20166 39828 40104 52013 885// 333 20175 60014
AAXX 31124 83997 32497 70914 10232 20167 30118 40161 51011 8447/ 333 20201
AAXX 31124 83437 21598 62301 10241 20195 39403 40119 70552 82732 333 20196 59017 60114
AAXX 31124 83552 21598 8//// 10249 20248 39951 40127 71062 885// 333 2//// 59003 60224
AAXX 31124 83565 21597 83604 10238 20215 39636 40102 70266 887// 333 20215 59022 60194
AAXX 31124 83579 21599 83603 10198 20191 39012 40129 70362 885// 333 20188 59026 60124
AAXX 31124 83592 21597 80503 10236 20207 39439 40113 70265 885// 333 20197 59016 60094
AAXX 31124 83623 21996 8//// 1//// 2//// 39516 4//// 53026 70362 8837/ 333 2//// 60024
AAXX 31124 83630 21397 80000 10194 20181 3//// 4//// 51015 76162 887// 333 20183 60034
AAXX 31124 83676 21596 83604 10215 20207 39462 40086 51003 72096 885// 333 20207 60264
AAXX 31124 83702 21699 83206 10226 20216 39351 40104 53010 70266 83470 333 20210 60084
AAXX 31124 83704 32698 83202 10247 20227 39667 40071 51005 86470 333 2////
AAXX 31124 83716 21297 80503 10227 20213 39607 40097 53015 70262 887// 333 20210 60424
AAXX 31124 83726 21597 83602 10202 20197 39170 40131 51007 76661 887// 333 20185 60714
BBXX 41053 31121 99185 70661 46/// /1204 10258 40192 91230 333 91205
BBXX 41053 31121 99185 70661 46/// /1205 10261 40192 91220 333 91207
BBXX 41053 31121 99185 70661 46/// /1205 10261 40191 91210 333 91207
AAXX 31124 83384 21597 70000 10228 20206 39552 40131 70365 85470 333 20206 59008 60034
AAXX 31124 83386 31498 63601 10268 20218 39586 40110 70342 81796 333 20203 59022
AAXX 31124 83388 32497 53204 10262 20205 39446 40111 83230 333 20204 59021
AAXX 31124 83393 22599 63603 10258 20206 39408 40120 84430 333 20210 59015 69914
AAXX 31124 83442 22597 80000 10268 20231 39764 40102 888// 333 20212 59026 60014
AAXX 31124 83479 21598 83606 10218 20210 39336 40131 70286 885// 333 20198 59014 60514
AAXX 31124 83483 21498 83202 10220 20210 39565 40126 72066 8672/ 333 20215 59008 60214
AAXX 31124 83531 21597 83603 10210 20198 39087 40118 70166 8852/ 333 20183 59011 60784
AAXX 31124 83538 21494 83602 10193 20182 38714 40106 74042 886// 333 20166 59008 60054
AAXX 31124 83574 21794 83602 10228 20216 39586 40194 5//// 76366 88600 333 20212 60234
AAXX 31124 83582 21597 83603 10220 20205 39350 40113 52002 76362 88600 333 20202 60014
AAXX 31124 83595 21597 81802 10250 20236 30067 40152 75166 855// 333 20220 59003 60074
AAXX 31124 83687 21697 80902 10204 20197 39106 40103 53002 75162 887// 333 20192 60114
AAXX 31124 83692 32698 80506 10194 20184 39088 40119 53003 882// 333 20165
BBXX MINUK05 3112/ 99571 70021 46/// ///// 10073 49964 57019
BBXX MINUK03 3112/ 99525 10046 46/// ///// 10095 40108 57014
BBXX MINUK04 3112/ 99519 10013 46/// ///// 10123 4//// 52078
BBXX WNDP 31124 99364 10148 43799 13330 10140 2009/ 40145 52020 7//// 812// 22274 00167 20308 328// 40410 5//// 6//// 80110 ICE /////
BBXX PHBO 31123 99460 70159 41297 82327 10143 20127 40231 58013 70222 8472/ 22214 20705 327// 41205 80134
BBXX SHIP 31124 99128 11289 41398 30422 10280 20253 40127 52016 70111 81361 22283 00291 399// 4//// 5//// 80260
BBXX SHIP 31124 99303 11459 41797 60102 10150 20106 40190 56014 70388 853// 22282 00234 80125
BBXX SHIP 31124 99024 71374 41/97 11318 10246 20215 40099 57018 70100 8//// 22233 04248
BBXX WE4805Q 31124 99451 70859 41/99 70210 10016 2//// 40119 53001 70102 87/// 22213 00050 20201 3//// 4//// 5//// 6//// 8//// ICE /////
BBXX 42023 31121 99261 70831 46/// /1002 1//// 91230 333 91203
BBXX 42023 31121 99261 70831 46/// /1002 1//// 91200 333 91203
BBXX 42360 31121 99267 70905 46/// /0902 10225 91200 22200 00244 10501 70005 333 91203
BBXX SHIP 31124 99406 71735 41697 73623 10070 20049 40211 51009 70103 8//// 91150 22224 00120 2//// 3//// 4//// 5//// 80050
BBXX 44056 31121 99362 70757 46/// ///// 1//// 91150 22200 00119 11001 21001 70004
BBXX 41033 31121 99323 70804 46/// /2407 1//// 40181 52009 91200 555 11075 22077
BBXX 44138 31121 99443 70536 46/// /2806 10038 40316 52028 22200 00092 11107 70034 333 91208
BBXX 3FQS8 31124 99469 71379 41/96 91442 00/// 10064 2006/ 40050 56020 75755 89/// 22274 0//// 2//// 3//// 4//// 5//// 6//// 80640 /////
BBXX 44137 31121 99423 70620 46/// /1206 10104 40260 52001 22200 00094 10803 70014 333 91208
BBXX 9LD2206 31123 99143 70483 41397 40816 10275 20219 40182 52020 7//00 84400 22262 04268 20502 309// 40703 80235
BBXX KS007 31124 99267 70801 43/// ///// 10163 40171 22200
BBXX KS088 31124 99267 70801 43/// /0702 10161 40210 22200 06224
BBXX KS094 31124 99179 70629 43/// /0920 10263 40198 22212 06256
BBXX KS098 31124 99442 71246 43/// /1307 10072 40275 22241 06000
BBXX 46214 31121 99379 71235 46/// ///// 1//// 91220 22200 00121 11406 21004 329// 41404 70029
BBXX 46224 31121 99332 71175 46/// ///// 1//// 91206 22200 00146 11402 20801 322// 41402 70010
BBXX 46219 31121 99332 71199 46/// ///// 1//// 91228 22200 00133 11705 20804 329// 41704 70025
BBXX 46213 31121 99403 71247 46/// ///// 1//// 91224 22200 00109 11107 21004 330// 41105 70034
BBXX 46215 31121 99352 71209 46/// ///// 1//// 91208 22200 00141 11304 21002 328// 41303 70019
BBXX 46229 31121 99438 71246 46/// ///// 1//// 91221 22200 00099 11308 21005 329// 41306 70040
BBXX 46225 31121 99329 71174 46/// ///// 1//// 91214 22200 00148 11702 20801 327// 41702 70011
BBXX 46244 31121 99409 71244 46/// ///// 1//// 91205 22200 00101 11307 21004 328// 41305 70035
BBXX 46243 31121 99462 71241 46/// ///// 1//// 91229 22200 00082 11307 20905 326// 41304 70034
BBXX 46237 31121 99378 71226 46/// ///// 1//// 91210 22200 00110 11504 21003 327// 41504 70022
BBXX 46232 31121 99325 71174 46/// ///// 1//// 91208 22200 00147 11303 20902 326// 41303 70016
BBXX 46247 31121 99378 71228 46/// ///// 1//// 91221 22200 00114 11505 21003 326// 41504 70025
BBXX 46239 31121 99363 71221 46/// ///// 1//// 91221 22200 00120 11406 21004 329// 41405 70031
BBXX 44099 31121 99369 70757 46/// ///// 1//// 91222 22200 00100 10401 20401 70007
BBXX 46238 31121 99334 71195 46/// ///// 1//// 91220 22200 00139 11704 20802 328// 41703 70020
AAXX 31124 40260 32960 22910 10173 21060 39349 40124 57023 80001 333 82070
AAXX 31124 40340 32660 43606 10190 20082 40156 57015 84200 333 84830
AAXX 31124 40250 32660 30000 10186 20029 39334 40112 57030 83100 333 83830
AAXX 31124 40260 32960 22910 10173 21060 39349 40124 57023 80001 333 82070
AAXX 31124 40265 31540 53106 10128 20058 39373 40173 57020 70500 85130 333 83830 82360
AAXX 31124 40310 32960 00000 10148 21011 38916 48469 57014 80002 333 84070
AAXX 31124 91367 11474 81004 10261 20222 60501 70382 84227 333 10294 56229 84815 84460 88280 555 93112 91369 32474 40905 10272 20243 30099 40102 83100 333 10289 562// 83815 555 93112
AAXX 31124 40250 32660 30000 10186 20029 39334 40112 57030 83100 333 83830
AAXX 31124 40265 31540 53106 10128 20058 39373 40173 57020 70500 85130 333 83830 82360
AAXX 31124 40310 32960 00000 10148 21011 38916 48469 57014 80002 333 84070
AAXX 31121 47003 32980 80000 11090 21115 30253 40257 52004 80002 333 11029
AAXX 31121 47005 32580 50000 11153 21195 38587 52001 85500 333 11068
AAXX 31121 47022 32975 00000 11154 21196 38831 52003 333 11027
AAXX 31121 47028 12965 01801 11071 21084 30166 40266 53001 69922 333 11021
AAXX 31121 47037 11567 80000 11078 21084 30139 40268 54000 69912 70170 885// 333 11029
AAXX 31121 47039 11556 00000 11086 21110 30068 40270 52005 69912 71000 333 11009
AAXX 31121 47046 32969 80000 11024 21072 30205 40228 53001 80002 333 10031
AAXX 31121 47050 11956 00901 11076 21089 30231 40266 54000 69912 71044 333 11035
AAXX 31121 47052 12565 80000 11046 21070 39915 40268 57001 69912 885// 333 11037
AAXX 31121 47060 11520 80000 11046 21055 30207 40268 54000 69952 71022 885// 333 11041
AAXX 31121 47061 32980 03201 10010 21050 30192 40236 57003 333 10059
AAXX 31121 47065 11540 80000 11029 21039 30202 40270 57010 69902 71077 885// 333 10006
AAXX 31121 47067 31560 80000 11034 21048 30161 40286 57001 71022 885// 333 11030
AAXX 31121 47068 11540 80000 11025 21041 30218 40254 57001 60012 71072 885// 333 10002
AAXX 31121 47070 31560 80000 11011 21040 30173 40263 58004 71000 885// 333 11001
AAXX 31121 47075 11560 80000 11043 21059 39753 40198 57001 69922 72272 885// 333 11025
AAXX 31121 47008 12570 80000 11031 21045 30201 40257 58005 69942 885// 333 11009
AAXX 31121 47014 32950 70000 11151 21178 39847 40279 53010 87040 333 11085
AAXX 31121 47016 32970 50000 11157 21184 39365 40284 58004 85040 333 11090
AAXX 31121 47020 32965 60000 11122 21142 39877 40280 58007 86030 333 11047
AAXX 31121 47025 32560 83201 11014 21044 30207 40237 54000 885// 333 10047
AAXX 31121 47035 11965 00000 11067 21133 30261 40270 52002 69932 70072 333 11033
AAXX 31121 47055 32970 00000 11005 21061 30191 40238 58003 333 10040
AAXX 31121 47058 11559 80000 11042 21058 30228 40277 54000 69962 71072 885// 333 11034
AAXX 31121 47069 11556 83601 11017 21028 30158 40261 57004 69902 71072 885// 333 11010
AAXX 31124 47409 11/70 23005 11022 21053 30152 40208 50005 60032 70182 82230 333 10002
AAXX 31121 47041 32970 00000 11028 21088 30203 40231 52012 333 10042
AAXX 31121 47031 NIL
AAXX 31124 08495 12675 42615 10169 20025 30295 40303 58006 60001 81501 91150 333 81630 84080
AAXX 31121 45032 36/// /0901 10151 20119 30212 40229 54000
AAXX 31121 45035 36/// /0905 10170 20110 30183 40225 54000
AAXX 31121 45039 36/// /9901 10146 20126 30214 40230 52001
AAXX 31121 45044 36/// /1005 10153 20129 30132 40228 54000
AAXX 31121 45032 36/// /0901 10151 20119 30212 40229 54000
AAXX 31121 45035 36/// /0905 10170 20110 30183 40225 54000
AAXX 31121 45039 36/// /9901 10146 20126 30214 40230 52001
AAXX 31121 45044 36/// /1005 10153 20129 30132 40228 54000
AAXX 31124 71495 16/// /3210 11067 21081 60001 333 10046 21077 70000
AAXX 31124 71013 46/// ///// 11027 21051 6///1 333 10046 21079 7////
AAXX 31124 71060 16/// /0000 11058 21072 38564 40141 51052 60001 333 10022 21058 4/013 70000
AAXX 31124 71848 16/// ///// 11009 21097 60001 333 10072 21032 7////
AAXX 31124 71073 16/// /3315 11036 21097 60001 333 10053 21062 70000
AAXX 31124 71793 16/// ///// 11037 21061 60001 333 10039 21096 70000
AAXX 31124 71974 46/// /3101 11385 21423 30174 40220 53008 6///1 333 11365 21403 7////
AAXX 31124 71399 16/// ///// 11043 21068 60001 333 10025 21100 70000
AAXX 31124 71320 16/// /3109 11324 21356 30049 40049 52006 60001 333 11219 21326 4/063 70000 555 10010
AAXX 31124 71565 17/// /3211 11032 21068 69941 7//4/ 333 10007 21151 4/001 70008
AAXX 31124 71566 16/// /2905 11079 21101 60001 333 11011 21081 70013
AAXX 31124 71567 16/// /3014 11053 21069 60001 333 21073 70045
AAXX 31124 89662 42980 02633 10039 21133 39656 49759 57013 222 ICE 98012
AAXX 31124 17237 11665 71105 10113 20048 39570 40071 57023 69921 78082 85250 333 85833 87358 91113
AAXX 31124 71495 16/// /3210 11067 21081 60001 333 10046 21077 70000
AAXX 31124 71013 46/// ///// 11027 21051 6///1 333 10046 21079 7////
AAXX 31124 71060 16/// /0000 11058 21072 38564 40141 51052 60001 333 10022 21058 4/013 70000
AAXX 31124 71848 16/// ///// 11009 21097 60001 333 10072 21032 7////
AAXX 31124 71974 46/// /3101 11385 21423 30174 40220 53008 6///1 333 11365 21403 7////
AAXX 31124 71320 16/// /3109 11324 21356 30049 40049 52006 60001 333 11219 21326 4/063 70000 555 10010
AAXX 31124 71793 16/// ///// 11037 21061 60001 333 10039 21096 70000
AAXX 31124 71399 16/// ///// 11043 21068 60001 333 10025 21100 70000
AAXX 31124 71073 16/// /3315 11036 21097 60001 333 10053 21062 70000
AAXX 31124 71565 17/// /3211 11032 21068 69941 7//4/ 333 10007 21151 4/001 70008
AAXX 31124 71566 16/// /2905 11079 21101 60001 333 11011 21081 70013
AAXX 31124 71567 16/// /3014 11053 21069 60001 333 21073 70045
BBXX 3FQS8 31124 99469 71379 41/96 91442 00/// 10064 20060 40050 56020 75755 89/// 22274 0//// 2//// 3//// 4//// 5//// 6//// 80640 /////
BBXX 46004 31121 99509 71361 46/// /1411 10047 40155 57026 22200 00072 11107 70034 333 91214
BBXX 46036 31121 99484 71339 46/// /1313 10065 40162 57032 22200 00079 11307 70036 333 91216
BBXX KS098 31124 99442 71246 43/// /1307 10072 40275 22241 06000
BBXX A8PB2 31124 99061 10920 41597 60714 10282 20244 40040 54000 71522 83894 22224 04290 29903 307// 40703 80254
BBXX ELYP7 31124 99090 31156 41698 52214 10280 20239 40090 52010 70322 844// 22243 00/// 20503 80250
BBXX DDSX2 31124 99093 10728 41997 60308 10275 20249 40080 56008 70252 80008 22234 00298 20201 335// 40702 80256
BBXX VRFH2 31123 99380 11467 41297 63222 10090 21020 40210 53010 7//22 86266 22214 00050 20805 33232 40805 5//// 80040
BBXX V7SY6 31124 99162 11159 41797 70524 10270 20228 40270 54000 7//22 87746 22213 00280 21002 30305 41005 51005 80240
BBXX VRFX2 31124 99311 11311 41798 13601 10130 20074 40230 54000 70101 81/// 22253 00190 2//// 80100
BBXX VRWE8 31123 99221 11142 41/96 90710 10170 20137 40230 54000 74144 8//// 22200 00170 2//// 80150
BBXX A8IY8 31124 99060 10796 41998 01908 10277 20193 40101 51006 70200 80000 22264 04280 20501 80219
BBXX WDE8264 31123 99056 10823 41297 10602 10280 20209 40120 54000 70200 8110/ 22223 00290 2//// 322// 40602 80230
AAXX 31123 41150 32962 33504 10215 20114 40204 80001 333 59008 83075
AAXX 31124 96607 32458 40504 10284 20252 30103 40118 52025 82221 333 10342 56000 59002 82815
AAXX 31124 97682 32440 70000 10268 20247 30078 40086 52030 83872 333 10328 56000 57803 58004 83816 86361 80858
AAXX 31121 38353 NIL
AAXX 31121 38613 NIL
AAXX 31121 38616 NIL
AAXX 31121 38345 42999 00000 11112 21174 38900 48570 57003 555 1/110
AAXX 31121 36911 42999 00901 11050 21099 39394 40411 57003 555 1/104
AAXX 31121 36974 429// 00000 11164 21190 38036 48619 57027 555 17117
AAXX 31121 36982 NIL
AAXX 31121 36982 429// 00000 11212 21212 36585 47259 53007
AAXX 31121 38353 42998 00000 11044 21078 39461 40410 57007
AAXX 31121 38616 42597 20901 11051 21080 39291 40361 56002 82500
AAXX 31121 38613 42999 01801 11014 21062 39413 40350 57014 555 1/102
AAXX 31121 10763 01257 81703 10022 20011 39756 40145 58016 69961 76877 877// 333 31/// 55300 20261 30256 69967 81805 87807
BBXX 63055 31124 99606 10016 47293 /1526 10067 20067 49917 57020 704// 22200 10709 70043
BBXX 63106 31124 99610 10017 46/// /1735 10066 49921 57026 22200
BBXX 63113 31124 99610 10017 46/// /1835 10068 20059 49924 57026 22200 10810 70050
BBXX 62301 31124 99524 70047 46/// /2419 10180 20176 40084 58011 22200 00092 10504 70022
BBXX 62103 31124 99499 70029 46/98 /2730 10120 20110 40144 58008 22200 00119 10704 70020 333 90710 91138
BBXX MYSU5 31124 99473 70111 41496 82330 10135 20128 40199 50002 72522 8//// 22253 00130 20203 325// 40505 5//// 80131
BBXX A8JC5 31124 99342 70211 41298 80604 10155 20088 40374 51015 7//// 887// 22223 04198 2//01 311// 4//02 5//// 80118
AAXX 31123 63680 32568 81103 10248 20191 38830 8697/ 333 58010 86823 81924 88362 555 10210
AAXX 31123 63702 31540 73610 10270 20134 70642 82938 333 82823 81925 87280 555 10185
AAXX 31123 63658 32580 71103 10310 20113 38865 48500 81137 333 58009 81825 83360 87280 555 10190
AAXX 31123 63682 32582 71807 10246 20186 48/// 8297/ 333 84841 81924 87362 555 10206
AAXX 31124 93987 NIL
AAXX 31121 36982 429// 00000 11212 21244 36585 47259 53007
AAXX 31121 38613 42999 01801 11014 26062 39413 40350 57014 555 1/102
BBXX VRBQ6 31124 99542 71792 41/98 82718 10010 20010 40104 54010 77070 8//// 22254 00045 2//// 3//// 4//// 80010
BBXX VRBQ6 31124 99542 71792 41/98 82718 10010 20010 40104 54010 77070 8//// 22254 00045 2//// 3//// 4//// 80010
AAXX 31124 68747 16/// /1308 10195 20169 39628 48541 57004 69941 333 10213 20173 91011 555 20004 91016
AAXX 31124 71433 46/// /0706 10001 21028 39883 40115 50004 6///1 333 10008 21010 7////
AAXX 31124 71409 16/// ///// 10008 21076 60001 333 10095 21016 70000
AAXX 31124 71789 16/// ///// 10001 21084 60001 333 10068 21040 70004
AAXX 31124 71791 16/// /2921 11065 21073 60001 333 11021 21111 70004
AAXX 31124 71794 16/// ///// 11081 21109 60001 333 10008 21083 70006
AAXX 31124 71795 16/// ///// 11026 21064 60001 333 10090 21036 70000
AAXX 31124 71796 16/// ///// 11054 21074 60001 333 10023 21079 70000
AAXX 31124 71105 16/// ///// 11046 21081 60001 333 10089 21046 70000
AAXX 31124 71006 16/// /3015 11040 21064 60001 333 10042 21077 70000
AAXX 31124 71007 46/// ///// 11029 21089 6///1 333 10073 21082 7////
AAXX 31124 71008 16/// /3420 11035 21043 60001 333 10062 21057 70000
AAXX 31124 71009 16/// /3509 11054 21066 60001 333 10057 21100 70000
AAXX 31124 71012 16/// /3115 11062 21098 60001 333 10007 21080 70007
AAXX 31124 71035 16/// ///// 11034 21060 60001 333 10053 21112 70000
AAXX 31124 71051 16/// ///// 11017 21076 60001 333 10103 21064 70000
AAXX 31124 71057 16/// ///// 11026 21069 60001 333 10058 21061 70000
AAXX 31124 71070 16/// ///// 10006 21080 60001 333 10102 21031 70005
AAXX 31124 71089 16/// ///// 11071 21090 60001 333 11002 21077 70017
AAXX 31124 71383 16/// ///// 11244 21279 39573 40228 56010 60001 333 11215 21368 70000
AAXX 31124 71841 16/// /1805 11066 21074 39687 40091 57014 60001 333 11104 21112 4/021 70000
AAXX 31124 71502 16/// /1603 11240 21258 30076 40092 51017 60001 333 11214 21241 70000
AAXX 31124 71509 16/// /2516 10011 21078 60001 333 10085 21007 70000
AAXX 31124 71517 16/// /2722 10010 21087 60001 333 10074 21027 70000
AAXX 31124 71518 16/// /2805 11023 21082 60001 333 10084 21045 70000
AAXX 31124 71519 16/// /2608 11006 21066 60001 333 10092 21018 70000
AAXX 31124 71520 16/// ///// 11314 21345 39504 40230 55009 60001 333 11193 21374 70000
AAXX 31124 71521 16/// /1005 11251 21284 60001 333 11243 21337 70000
AAXX 31124 71523 17/// ///// 11179 21196 39778 40173 56009 69961 7//4/ 333 11178 21275 70000
AAXX 31124 71528 16/// /2716 11002 21066 60001 333 10077 21044 70000
AAXX 31124 16172 12965 00000 10058 21061 39900 40205 58003 60001
AAXX 31124 71433 46/// /0706 10001 21028 39883 40115 50004 6///1 333 10008 21010 7////
AAXX 31124 71841 16/// /1805 11066 21074 39687 40091 57014 60001 333 11104 21112 4/021 70000
AAXX 31124 71105 16/// ///// 11046 21081 60001 333 10089 21046 70000
AAXX 31124 71409 16/// ///// 10008 21076 60001 333 10095 21016 70000
AAXX 31124 71789 16/// ///// 10001 21084 60001 333 10068 21040 70004
AAXX 31124 71791 16/// /2921 11065 21073 60001 333 11021 21111 70004
AAXX 31124 71794 16/// ///// 11081 21109 60001 333 10008 21083 70006
AAXX 31124 71795 16/// ///// 11026 21064 60001 333 10090 21036 70000
AAXX 31124 71796 16/// ///// 11054 21074 60001 333 10023 21079 70000
AAXX 31124 71051 16/// ///// 11017 21076 60001 333 10103 21064 70000
AAXX 31124 71057 16/// ///// 11026 21069 60001 333 10058 21061 70000
AAXX 31124 71070 16/// ///// 10006 21080 60001 333 10102 21031 70005
AAXX 31124 71089 16/// ///// 11071 21090 60001 333 11002 21077 70017
AAXX 31124 71383 16/// ///// 11244 21279 39573 40228 56010 60001 333 11215 21368 70000
AAXX 31124 71006 16/// /3015 11040 21064 60001 333 10042 21077 70000
AAXX 31124 71007 46/// ///// 11029 21089 6///1 333 10073 21082 7////
AAXX 31124 71008 16/// /3420 11035 21043 60001 333 10062 21057 70000
AAXX 31124 71009 16/// /3509 11054 21066 60001 333 10057 21100 70000
AAXX 31124 71012 16/// /3115 11062 21098 60001 333 10007 21080 70007
AAXX 31124 71035 16/// ///// 11034 21060 60001 333 10053 21112 70000
AAXX 31124 71502 16/// /1603 11240 21258 30076 40092 51017 60001 333 11214 21241 70000
AAXX 31124 71509 16/// /2516 10011 21078 60001 333 10085 21007 70000
AAXX 31124 71517 16/// /2722 10010 21087 60001 333 10074 21027 70000
AAXX 31124 71518 16/// /2805 11023 21082 60001 333 10084 21045 70000
AAXX 31124 71519 16/// /2608 11006 21066 60001 333 10092 21018 70000
AAXX 31124 71520 16/// ///// 11314 21345 39504 40230 55009 60001 333 11193 21374 70000
AAXX 31124 71521 16/// /1005 11251 21284 60001 333 11243 21337 70000
AAXX 31124 71523 17/// ///// 11179 21196 39778 40173 56009 69961 7//4/ 333 11178 21275 70000
AAXX 31124 71528 16/// /2716 11002 21066 60001 333 10077 21044 70000
BBXX 44100 31121 99363 70756 46/// ///// 1//// 91222 22200 00122 10601 20601 70006
BBXX 46246 31121 99500 71451 46/// ///// 1//// 91229 22200 00069 10706 20706 328// 41102 70031
BBXX 46246 31121 99500 71451 46/// ///// 1//// 91159 22200 00069 10706 20706 326// 41102 70030
BBXX 46241 31121 99330 71173 46/// ///// 1//// 91211 22200 00144 11802 21001 326// 41801 70010
BBXX 46236 31121 99368 71219 46/// ///// 1//// 91220 22200 00121 11405 21003 328// 41404 70024
BBXX 46216 31121 99343 71198 46/// ///// 1//// 91227 22200 00143 11703 20802 326// 41702 70015
BBXX 46216 31121 99343 71198 46/// ///// 1//// 91157 22200 00143 11803 21002 327// 41802 70013
BBXX 46223 31121 99335 71178 46/// ///// 1//// 91230 22200 00147 11802 21001 328// 41802 70011
BBXX 46231 31121 99327 71174 46/// ///// 1//// 91224 22200 00148 11703 21002 328// 41703 70016
BBXX 46222 31121 99336 71183 46/// ///// 1//// 91226 22200 00147 11703 20802 327// 41702 70014
BBXX 3ECI3 31124 99402 31739 41297 81535 10170 20153 40077 54000 75852 887// 22241 00180 20810 314// 41010 80160
BBXX 3ECI3 31124 99402 31739 41297 81535 10170 20153 40077 54000 75852 887// 22241 00180 20810 314// 41010 80160
BBXX 46242 31121 99332 71174 46/// ///// 1//// 91228 22200 00141 11402 20801 323// 41401 70009
BBXX A8CF2 31124 99046 50815 41897 61517 10209 40110 53010 70122 82028 22244 2//// 320// 41203
BBXX VRDN3 31124 99060 10876 41398 40000 00/// 10290 20240 40110 55000 70200 8274/ 22225 0//// 20200 306// 40300 5//// 6//// 80250
BBXX VRFJ6 31124 99251 11197 41/96 /0309 10150 20097 40241 54000 70200 8//// 22252 00157 20503 302// 40602 80120
BBXX VRDN3 31124 99060 10876 41398 40000 00/// 10290 2024/ 40110 55000 70200 8274/ 22225 0//// 20200 306// 40300 5//// 6//// 80250
BBXX VQGQ4 31124 99182 11305 41/98 40417 10255 20210 40140 56010 70122 8/4// 22234 00282 20404 305// 40604 80225
BBXX SHIP 31124 99106 11306 41/98 80618 10270 20243 40121 57020 70252 88/// 22234 00260 2//// 3//// 4//// 80250
BBXX WDE8264 31123 99056 10823 41297 10602 10280 20209 40120 54000 70200 8110/ 22223 00290 2//// 322// 40602 80230
BBXX VRFH2 31123 99380 11467 41297 63222 10090 21020 40210 53010 7//22 86266 22214 00050 20805 33232 40805 5//// 80040
BBXX VRFX2 31124 99311 11311 41798 13601 10130 20074 40230 54000 70101 81/// 22253 00190 2//// 80100
BBXX V7SY6 31124 99162 11159 41797 70524 10270 20228 40270 54000 7//22 87746 22213 00280 21002 30305 41005 51005 80240
BBXX VRWE8 31123 99221 11142 41/96 90710 10170 20137 40230 54000 74144 8//// 22200 00170 2//// 80150
BBXX A8IY8 31124 99060 10796 41998 01908 10277 20193 40101 51006 70200 80000 22264 04280 20501 80219
BBXX DDSX2 31124 99093 10728 41997 60308 10275 20249 40080 56008 70252 80008 22234 00298 20201 335// 40702 80256
BBXX A8PB2 31124 99061 10920 41597 60714 10282 20244 40040 54000 71522 83894 22224 04290 29903 307// 40703 80254
BBXX 46231 31121 99327 71174 46/// ///// 1//// 91224 22200 00148 11703 21002 328// 41703 70016
BBXX 46222 31121 99336 71183 46/// ///// 1//// 91226 22200 00147 11703 20802 327// 41702 70014
BBXX 46223 31121 99335 71178 46/// ///// 1//// 91230 22200 00147 11802 21001 328// 41802 70011
BBXX 46216 31121 99343 71198 46/// ///// 1//// 91157 22200 00143 11803 21002 327// 41802 70013
BBXX 46216 31121 99343 71198 46/// ///// 1//// 91227 22200 00143 11703 20802 326// 41702 70015
BBXX 46236 31121 99368 71219 46/// ///// 1//// 91220 22200 00121 11405 21003 328// 41404 70024
BBXX 46241 31121 99330 71173 46/// ///// 1//// 91211 22200 00144 11802 21001 326// 41801 70010
BBXX 46246 31121 99500 71451 46/// ///// 1//// 91159 22200 00069 10706 20706 326// 41102 70030
BBXX 46246 31121 99500 71451 46/// ///// 1//// 91229 22200 00069 10706 20706 328// 41102 70031
BBXX 44100 31121 99363 70756 46/// ///// 1//// 91222 22200 00122 10601 20601 70006
BBXX SHIP 31124 99542 71792 41/98 82718 10010 20010 40104 54010 77070 8//// 22254 00045 2//// 3//// 4//// 80010
BBXX 41053 31121 99185 70661 46/// /1205 10261 40192 91220 333 91207
BBXX 41053 31121 99185 70661 46/// /1204 10258 40192 91230 333 91205
BBXX 41053 31121 99185 70661 46/// /1205 10261 40191 91210 333 91207
BBXX ZCDY2 31124 99245 70748 41498 12827 10231 20186 40250 53012 70200 81100 22235 00250 20101 327// 40202 5////
BBXX SHIP 31124 99488 70055 41197 /2619 10140 20123 40180 56025 71044 8//// 22213 00134 20405 3//// 4//// 80130
BBXX MYSU5 31124 99473 70111 41496 82330 10135 20128 40199 50002 72522 8//// 22253 00130 20203 325// 40505 5//// 80131
BBXX A8JC5 31124 99342 70211 41298 80604 10155 20088 40374 51015 7//// 887// 22223 04198 2//01 311// 4//02 5//// 80118
BBXX 66022 31121 99541 10142 46/// /2305 10024 30110 22200 00040
BBXX ELYP7 31124 99090 31156 41698 52214 10280 20239 40090 52010 70322 844// 22243 00/// 20503 80250
AAXX 31124 42675 31596 41805 10270 20164 40121 70521 82530 333 10300 82625 83360
BBXX 46221 31121 99339 71186 46/// ///// 1//// 91215 22200 00148 11802 21001 326// 41802 70012
BBXX 46145 31121 99544 71324 46/// /2208 10032 40200 52017 22200 00066 11006 70028 333 91209
BBXX 46208 31121 99525 71327 46/// /1406 10036 40211 52005 22200 00070 11106 70028 333 91209
BBXX VQIB9 31124 99347 30241 41/98 31115 10230 20146 40146 54000 70200 8/404 22264 2//// 319// 40806 5//// 80180
BBXX 46208 31121 99525 71327 46/// /1406 10036 40211 52005 22200 00070 11106 70028 333 91209
BBXX 46145 31121 99544 71324 46/// /2208 10032 40200 52017 22200 00066 11006 70028 333 91209
BBXX SHIP 31124 99406 71735 41697 73623 10070 20049 40211 51009 70103 8//// 91150 22224 00120 2//// 3//// 4//// 5//// 80050
BBXX SHIP 31124 99542 71792 41/98 82718 10010 20010 40104 54010 77070 8//// 22254 00045 2//// 3//// 4//// 80010
BBXX VRBQ6 31124 99542 71792 41/98 82718 10010 20010 40104 54010 77070 8//// 22254 00045 2//// 3//// 4//// 80010
BBXX SHIP 31124 99303 11459 41797 60102 10150 20106 40190 56014 70388 853// 22282 00234 80125
BBXX VRFH2 31123 99380 11467 41297 63222 10090 21020 40210 53010 7//22 86266 22214 00050 20805 33232 40805 5//// 80040
BBXX VRFX2 31124 99311 11311 41798 13601 10130 20074 40230 54000 70101 81/// 22253 00190 2//// 80100
AAXX 31124 71249 16/// /3417 11034 21058 60001 333 10043 21065 70000
AAXX 31124 71014 16/// /3213 11029 21074 60001 333 10053 21060 70000
AAXX 31124 71413 16/// ///// 11027 21056 60001 333 10056 21074 70000
AAXX 31124 71414 17/// ///// 11056 21071 69941 7//4/ 333 11056 21063 70037
AAXX 31124 71440 16/// ///// 11043 21054 60001 333 10060 21052 70000
AAXX 31124 71360 16/// ///// 11075 21091 60001 333 11005 21095 70014
AAXX 31124 71380 16/// /3110 11046 21074 60001 333 11001 21089 70000
AAXX 31124 71346 16/// /2411 11012 21075 60001 333 10094 21023 70000
AAXX 31124 71857 46/// ///// 11054 21067 6///1 333 11043 7////
AAXX 31124 71540 16/// /3311 11030 21067 60001 333 10021 21123 70000
AAXX 31124 71544 16/// ///// 11059 21087 60001 333 11015 21086 70000
AAXX 31124 71548 16/// ///// 11051 21069 60001 333 11054 21103 7////
AAXX 31124 71904 16/// ///// 11029 21064 60001 333 10047 21062 70000
AAXX 31124 71674 16/// ///// 11046 21076 60001 333 10018 21081 70000
AAXX 31124 71055 46/// /0000 11327 21359 39755 40105 51018 6///1 333 11238 21363 7////
AAXX 31124 71065 16/// ///// 11057 21076 60001 333 11039 21131 70012
AAXX 31124 71797 16/// ///// 11068 21072 60001 333 11023 21135 70009
AAXX 31124 71481 16/// /2910 11048 21120 60001 333 11034 21073 70000
AAXX 31124 71498 16/// /3310 11040 21069 60001 333 10058 21065 70000
AAXX 31124 71540 16/// /3311 11030 21067 60001 333 10021 21123 70000
AAXX 31124 71544 16/// ///// 11059 21087 60001 333 11015 21086 70000
AAXX 31124 71548 16/// ///// 11051 21069 60001 333 11054 21103 7////
AAXX 31124 71360 16/// ///// 11075 21091 60001 333 11005 21095 70014
AAXX 31124 71380 16/// /3110 11046 21074 60001 333 11001 21089 70000
AAXX 31124 71797 16/// ///// 11068 21072 60001 333 11023 21135 70009
AAXX 31124 71904 16/// ///// 11029 21064 60001 333 10047 21062 70000
AAXX 31124 71346 16/// /2411 11012 21075 60001 333 10094 21023 70000
AAXX 31124 71055 46/// /0000 11327 21359 39755 40105 51018 6///1 333 11238 21363 7////
AAXX 31124 71065 16/// ///// 11057 21076 60001 333 11039 21131 70012
AAXX 31124 71481 16/// /2910 11048 21120 60001 333 11034 21073 70000
AAXX 31124 71498 16/// /3310 11040 21069 60001 333 10058 21065 70000
AAXX 31124 71014 16/// /3213 11029 21074 60001 333 10053 21060 70000
AAXX 31124 71249 16/// /3417 11034 21058 60001 333 10043 21065 70000
AAXX 31124 71413 16/// ///// 11027 21056 60001 333 10056 21074 70000
AAXX 31124 71414 17/// ///// 11056 21071 69941 7//4/ 333 11056 21063 70037
AAXX 31124 71440 16/// ///// 11043 21054 60001 333 10060 21052 70000
AAXX 31124 71857 46/// ///// 11054 21067 6///1 333 11043 7////
AAXX 31124 71674 16/// ///// 11046 21076 60001 333 10018 21081 70000
AAXX 3112/ 89872 46/// ///// 11040 39748 4//// 5////
AAXX 3112/ 89869 46/// ///// 11008 39730 4//// 5////
AAXX 3112/ 89329 46/// ///// 11096 38638 4//// 5////
AAXX 3112/ 89799 46/// ///// 11235 4//// 5////
AAXX 3112/ 89868 46/// ///// 11058 39742 4//// 5////
AAXX 3112/ 89332 46/// ///// 11066 39119 4//// 5////
AAXX 3112/ 89769 46/// ///// 11046 39771 4//// 5////
AAXX 3112/ 89108 46/// ///// 11229 36921 4//// 5////
AAXX 3112/ 89879 46/// ///// 10035 39730 4//// 5////
AAXX 3112/ 89799 46/// ///// 11236 4//// 5////
AAXX 3112/ 89828 46/// ///// 11128 36542 4//// 5////
AAXX 31124 89578 46/// /1403 11313 36920 4//// 5////
AAXX 31124 89577 46/// /2512 11307 35794 4//// 5////
AAXX 3112/ 89767 46/// ///// 11009 39834 4//// 5////
AAXX 31124 94997 46/// ///// 10048 30118 40133 5////
AAXX 31124 94997 46/// ///// 10048 30118 40133 5////
AAXX 31124 96937 01458 82003 10256 20248 30097 40102 53026 60481 79196 8692/ 333 10330 56000 57901 59002 60487 82918 85820 88460 80860
AAXX 31124 89646 46/// ///09 11160 29086 37614 4//// 5////
AAXX 31124 89648 46/// /2510 11185 29075 37186 4//// 5////
AAXX 31124 89661 46/// /2306 11031 29053 39182 4//// 5////
AAXX 31124 89666 46/// /3307 11036 29092 39612 4//// 5////
AAXX 31124 89659 46/// /2804 11169 29072 37661 4//// 5////
AAXX 31124 71621 11364 80304 11036 21049 39981 40089 53004 69901 7006/ 885// 333 11047 21080 43002 70014 90999
AAXX 31124 71621 11364 80304 11036 21049 39981 40089 53004 69901 7006/ 885// 333 11047 21080 43002 70014 90999
AAXX 31124 96937 01458 82003 10256 20248 30097 40102 53026 60481 79196 8692/ 333 10330 56000 57901 59002 60487 82918 85820 88460 80960
AAXX 31124 88903 45/// /0907 10121 20062 39826 49826 57008 333 10126 20025
BBXX C6PP9 31124 99545 70414 41196 32941 10000 2102/ 49930 52040 78977 83646 22252 00040 21011 325// 86010ICE BRGDS MASTER M.V.F DERAL FUJI
AAXX 31124 89013 46/// /0213 11181 21219 37626 49636 52016 91150
AAXX 31124 89257 46/// /2302 11066 21103 39757 49827 5//// 91150
AAXX 31124 89266 46/// /1711 11076 21095 39688 49828 5//// 91150
AAXX 31124 89272 46/// /1008 11138 21173 37989 49626 5//// 91150
BBXX A8MV6 31123 99194 10697 41997 00425 10240 20117 40130 56010 70200 80000 22233 04270 20504 304// 40604 5//// 80170
BBXX A8RV9 31124 99131 50225 41697 40920 10246 20189 40145 51/// 70222 83545 22234 20402 311// 40704 5//// 80207
AAXX 31121 58968 31558 81103 10151 20132 30229 40237 50009 71022 885//
AAXX 31121 58974 32565 80307 10156 20099 30115 40241 50005 885//
AAXX 31121 59358 11630 63605 10169 20135 30186 40218 52007 69902 71022 86500
AAXX 31121 59559 32564 50503 10202 20152 30175 40204 51005 83220
AAXX 31121 59792 11459 70308 10202 20178 30203 40208 52014 69902 71022 85410
AAXX 31121 59997 32460 30505 10283 20259 30129 40137 52015 83800
AAXX 31121 59158 12660 60102 10164 20118 30111 40213 50003 69902 86500
AAXX 31121 59562 12665 83301 10190 20144 30198 40210 51008 69952 885//
AAXX 31121 59567 11/01 90110 10169 20169 39822 40206 50008 60062 76164
OOXX FRP29 31101 99210 30556 ///// 00751 26/// /0403 10295 29082 39836 91007 333 69920
OOXX FRP29 31101 99210 30556 ///// 00751 26/// /0403 10292 29083 39834 91017 333 69920
OOXX FRP29 31101 99210 30556 ///// 00751 26/// /0403 10297 29082 39832 91027 333 60000
OOXX FRP29 31101 99210 30556 ///// 00751 26/// /0303 10294 29083 39834 91037 333 69920
OOXX FRP29 31101 99210 30556 ///// 00751 26/// /0202 10289 29085 39833 91047 333 69980
OOXX FRP29 31101 99210 30556 ///// 00751 26/// /0103 10292 29086 39830 91057 333 69940
OOXX FRP29 31111 99210 30556 ///// 00751 26/// /3503 10290 29087 39825 91107 333 60010
OOXX FRP29 31111 99210 30556 ///// 00751 26/// /3201 10288 29089 39825 91117 333 69920
OOXX FRP29 31111 99210 30556 ///// 00751 26/// /3401 10286 29090 39823 91127 333 60000
OOXX FRP29 31111 99210 30556 ///// 00751 26/// /0103 10287 29089 39824 91137 333 69920
OOXX FRP29 31111 99210 30556 ///// 00751 26/// /0303 10295 29085 39822 91147 333 60000
OOXX FRP29 31111 99210 30556 ///// 00751 26/// /0404 10300 29082 39819 91157 333 60000
AAXX 31124 71898 160// ///// 11023 51023 69951 333 10025 21024 70150
AAXX 31124 71898 160// ///// 11023 51023 69951 333 10025 21024 70150
AAXX 31124 91844 46/// /9901 10250 40083 22200 00265
BBXX VEP717 31124 99467 70487 41598 72925 10009 2105/ 40274 53047 71687 87500 22200 06022 20504 326// 40909 81013
BBXX 62301 31124 99524 70047 46/// /2419 10100 20096 40084 58011 22200 00092 10504 70022
BBXX 2AUO5 31123 99606 10016 41296 81735 10076 20058 49929 57027 75455 8/6// 22241 20607 333// 41010 80068
BBXX 63106 31124 99610 10017 46/// /1735 10066 49921 57026 22200
BBXX 63105 31124 99610 10017 47295 ///// 10071 20060 49920 57027 761// 22200
BBXX 62103 31124 99499 70029 46/98 /2626 10120 20110 40150 50001 22200 00119 10704 70019 333 90710 91135
BBXX ONGI 31124 99188 50109 41798 61419 10230 20201 40200 54000 7//21 851// 22233 00230 20505 314// 40302 5//// 6//// 80210 ICE /////
BBXX WCZ5238 31124 99340 11282 41898 42713 10060 20014 40247 57008 70200 844// 22272 00062 20302 3//// 4//// 5//// 6//// 80040 ICE /////
BBXX 9V7645 31123 99269 71167 418// 33611 10155 20139 40165 51010 70300 832// 22274 04180 2//// 3//// 4//// 5//// 6//// 80145 ICE /////
BBXX A8MV6 31123 99194 10697 41997 00425 10240 20117 40130 56010 70200 80000 22233 04270 20504 304// 40604 5//// 80170
BBXX A8RV9 31124 99131 50225 41697 40920 10246 20189 40145 51/// 70222 83545 22234 20402 311// 40704 5//// 80207
BBXX ONGI 31124 99188 50109 41798 61419 10230 20201 40200 54000 7//21 851// 22233 00230 20505 314// 40302 5//// 6//// 80210 ICE /////
BBXX WCZ5238 31124 99340 11282 41898 42713 10060 20014 40247 57008 70200 844// 22272 00062 20302 3//// 4//// 5//// 6//// 80040 ICE /////
BBXX 9V7645 31123 99269 71167 418// 33611 10155 20139 40165 51010 70300 832// 22274 04180 2//// 3//// 4//// 5//// 6//// 80145 ICE /////
BBXX SHIP 31124 99299 71765 41597 41417 10180 20148 40190 51/// 7//11 8428/ 22253 00220 20403 32932 40606 51207 6//// 80160 ICE /////
BBXX C6PP9 31124 99545 70414 41196 32941 10000 2102/ 49930 52040 78977 83646 22252 00040 21011 325// 86010ICE BRGDS MASTER M.V.F DERAL FUJI
BBXX 46208 31121 99525 71327 46/// /1406 10036 40211 52005 22200 00070 11106 70028 333 91209
BBXX 46145 31121 99544 71324 46/// /2208 10032 40200 52017 22200 00066 11006 70028 333 91209
BBXX 46221 31121 99339 71186 46/// ///// 1//// 91215 22200 00148 11802 21001 326// 41802 70012
BBXX 46242 31121 99332 71174 46/// ///// 1//// 91228 22200 00141 11402 20801 323// 41401 70009
BBXX 3ECI3 31124 99402 31739 41297 81535 10170 20153 40077 54000 75852 887// 22241 00180 20810 314// 41010 80160
BBXX BSH03 31121 99540 10081 46/// ///// 22200 00062 20702 70009
BBXX BSH05 31121 99549 10082 46/// ///// 22200 22013 70063
AAXX 31124 48620 11456 72803 10278 20246 30096 40105 69901 70582 84558 333 10313 81710 83626 87276
OOXX RUP60 31101 99531 11588 ///// 00651 26/// /3102 11101 29064 30115 91052 333 60000
OOXX RUP60 31111 99531 11588 ///// 00651 26/// /3203 11100 29063 30115 91102 333 60000
OOXX RUP60 31111 99531 11588 ///// 00651 26/// /3303 11101 29063 30114 91112 333 60000
OOXX RUP60 31111 99531 11588 ///// 00651 26/// /3001 11103 29064 30114 91122 333 60000
OOXX RUP60 31111 99531 11588 ///// 00651 26/// /3202 11114 29066 30114 91132 333 60000
OOXX RUP60 31111 99531 11588 ///// 00651 26/// /3403 11104 29066 30113 91142 333 60000
OOXX RUP60 31111 99531 11588 ///// 00651 26/// /3002 11107 29065 30112 91152 333 60000
OOXX RUP60 31121 99531 11588 ///// 00651 26/// /3102 11107 29066 30111 91202 333 60000
OOXX RUP60 31121 99531 11588 ///// 00651 26/// /3001 11104 29065 30110 91212 333 60000
OOXX RUP60 31121 99531 11588 ///// 00651 26/// /3102 11112 29067 30110 91222 333 60000
OOXX RUP60 31121 99531 11588 ///// 00651 26/// /3203 11108 29066 30110 91232 333 60000
OOXX RUP60 31121 99531 11588 ///// 00651 26/// /3403 11102 29063 30110 91242 333 60000
OOXX MXP44 31101 99280 71140 ///// 00041 26/// /1422 10137 29054 30133 91010 333 60000
OOXX MXP44 31101 99280 71140 ///// 00041 26/// /1422 10136 29054 30132 91020 333 60000
OOXX MXP44 31101 99280 71140 ///// 00041 26/// /1422 10136 29054 30131 91030 333 60000
OOXX MXP44 31101 99280 71140 ///// 00041 26/// /1422 10137 29054 30132 91040 333 60000
OOXX MXP44 31101 99280 71140 ///// 00041 26/// /1422 10137 29054 30131 91050 333 60000
OOXX MXP44 31111 99280 71140 ///// 00041 26/// /1422 10138 29054 30131 91100 333 60000
OOXX MXP44 31111 99280 71140 ///// 00041 26/// /1422 10138 29054 30131 91110 333 60000
OOXX MXP44 31111 99280 71140 ///// 00041 26/// /1422 10137 29054 30131 91120 333 60000
OOXX MXP44 31111 99280 71140 ///// 00041 26/// /1422 10137 29054 30131 91130 333 60000
OOXX MXP44 31111 99280 71140 ///// 00041 26/// /1422 10137 29054 30132 91140 333 60000
OOXX MXP44 31111 99280 71140 ///// 00041 26/// /1422 10136 29054 30132 91150 333 60000
OOXX MXP44 31121 99280 71140 ///// 00041 26/// /1422 10135 29054 30132 91200 333 60000
OOXX RUP59 31101 99539 10848 ///// 02121 26/// /0801 11063 29085 30072 91050 333 60000
OOXX RUP59 31111 99539 10848 ///// 02121 26/// /0802 11062 29085 30073 91100 333 60000
OOXX RUP59 31111 99539 10848 ///// 02121 26/// /0802 11062 29084 30073 91110 333 60000
OOXX RUP59 31111 99539 10848 ///// 02121 26/// /0802 11062 29084 30074 91120 333 60000
OOXX RUP59 31111 99539 10848 ///// 02121 26/// /0802 11061 29084 30074 91130 333 60000
OOXX RUP59 31111 99539 10848 ///// 02121 26/// /0902 11060 29084 30075 91140 333 60000
OOXX RUP59 31111 99539 10848 ///// 02121 26/// /0902 11059 29083 30077 91150 333 60000
OOXX RUP59 31121 99539 10848 ///// 02121 26/// /0902 11059 29083 30077 91200 333 60000
OOXX RUP59 31121 99539 10848 ///// 02121 26/// /0902 11058 29084 30077 91210 333 60000
OOXX RUP59 31121 99539 10848 ///// 02121 26/// /1002 11058 29084 30079 91220 333 60000
OOXX RUP59 31121 99539 10848 ///// 02121 26/// /0902 11059 29084 30080 91230 333 60000
OOXX RUP59 31121 99539 10848 ///// 02121 26/// /0902 11058 29083 30081 91240 333 60000
OOXX KIP39 31101 99020 51574 ///// 00181 26/// /1005 10254 29085 30105 91030 333 60000
OOXX KIP39 31101 99020 51574 ///// 00181 26/// /1005 10255 29084 30103 91040 333 60000
OOXX KIP39 31101 99020 51574 ///// 00181 26/// /1005 10254 29084 30102 91050 333 60000
OOXX KIP39 31111 99020 51574 ///// 00181 26/// /1005 10254 29084 30102 91100 333 60000
OOXX KIP39 31111 99020 51574 ///// 00181 26/// /1005 10255 29084 30101 91110 333 60000
OOXX KIP39 31111 99020 51574 ///// 00181 26/// /1005 10254 29085 30101 91120 333 60000
OOXX KIP39 31111 99020 51574 ///// 00181 26/// /1005 10254 29085 30099 91130 333 60000
OOXX KIP39 31111 99020 51574 ///// 00181 26/// /1006 10254 29084 30098 91140 333 60000
OOXX KIP39 31111 99020 51574 ///// 00181 26/// /1005 10254 29084 30098 91150 333 60000
OOXX KIP39 31121 99020 51574 ///// 00181 26/// /1005 10253 29084 30096 91200 333 60000
OOXX KIP39 31121 99020 51574 ///// 00181 26/// /1005 10254 29085 30098 91210 333 60000
OOXX KIP39 31121 99020 51574 ///// 00181 26/// /1005 10253 29084 30098 91220 333 60000
OOXX AUP07 31101 99/// ///// ///// ///// 26/// /3011 10065 29087 39837 91050 333 60000
OOXX AUP07 31111 99/// ///// ///// ///// 26/// /2911 10066 29086 39836 91100 333 60000
OOXX AUP07 31111 99/// ///// ///// ///// 26/// /2911 10066 29087 39835 91110 333 60000
OOXX AUP07 31111 99/// ///// ///// ///// 26/// /2912 10066 29086 39832 91120 333 60000
OOXX AUP07 31111 99/// ///// ///// ///// 26/// /2814 10064 29087 39832 91130 333 60000
OOXX AUP07 31111 99/// ///// ///// ///// 26/// /2813 10063 29088 39832 91140 333 60000
OOXX AUP07 31111 99/// ///// ///// ///// 26/// /2912 10063 29088 39830 91150 333 60000
OOXX AUP07 31121 99/// ///// ///// ///// 26/// /2812 10063 29088 39829 91200 333 60000
OOXX AUP07 31121 99/// ///// ///// ///// 26/// /2910 10063 29089 39829 91210 333 69920
OOXX AUP07 31121 99/// ///// ///// ///// 26/// /2911 10062 29090 39827 91220 333 60000
OOXX AUP07 31121 99/// ///// ///// ///// 26/// /2812 10062 29092 39828 91230 333 60000
OOXX AUP07 31121 99/// ///// ///// ///// 26/// /2811 10062 29091 39827 91240 333 60000
OOXX MRP43 31101 99181 70159 ///// 00101 26/// /0608 10182 29022 30240 91050 333 60000
OOXX MRP43 31111 99181 70159 ///// 00101 26/// /0608 10184 29021 30242 91100 333 60000
OOXX MRP43 31111 99181 70159 ///// 00101 26/// /0608 10189 29020 30240 91110 333 60000
OOXX MRP43 31111 99181 70159 ///// 00101 26/// /0709 10189 29019 30241 91120 333 60000
OOXX MRP43 31111 99181 70159 ///// 00101 26/// /0709 10193 29019 30237 91130 333 60000
OOXX MRP43 31111 99181 70159 ///// 00101 26/// /0709 10191 29019 30235 91140 333 60000
OOXX MRP43 31111 99181 70159 ///// 00101 26/// /0709 10195 29019 30235 91150 333 60000
OOXX MRP43 31121 99181 70159 ///// 00101 26/// /0709 10196 29019 30233 91200 333 60000
OOXX MRP43 31121 99181 70159 ///// 00101 26/// /0610 10203 29018 30228 91210 333 60000
OOXX MRP43 31121 99181 70159 ///// 00101 26/// /0709 10197 29018 30227 91220 333 60000
OOXX MRP43 31121 99181 70159 ///// 00101 26/// /0709 10199 29018 30226 91230 333 60000
OOXX MRP43 31121 99181 70159 ///// 00101 26/// /0508 10206 29017 30222 91240 333 60000
OOXX GBP67 31101 99159 50057 ///// 04381 26/// /0304 10176 29073 39695 91010 333 60000
OOXX GBP67 31101 99159 50057 ///// 04381 26/// /0304 10172 29077 39695 91020 333 60000
OOXX GBP67 31101 99159 50057 ///// 04381 26/// /0404 10174 29076 39695 91030 333 60000
OOXX GBP67 31101 99159 50057 ///// 04381 26/// /0404 10175 29076 39693 91040 333 60000
OOXX GBP67 31101 99159 50057 ///// 04381 26/// /0503 10178 29076 39693 91050 333 60000
OOXX GBP67 31111 99159 50057 ///// 04381 26/// /0403 10180 29078 39691 91100 333 60000
OOXX GBP67 31111 99159 50057 ///// 04381 26/// /0403 10177 29079 39691 91110 333 60000
OOXX GBP67 31111 99159 50057 ///// 04381 26/// /0403 10171 29087 39689 91120 333 69920
OOXX GBP67 31111 99159 50057 ///// 04381 26/// /0503 10166 29091 39689 91130 333 60000
OOXX GBP67 31111 99159 50057 ///// 04381 26/// /0304 10171 29083 39687 91140 333 60000
OOXX GBP67 31111 99159 50057 ///// 04381 26/// /0304 10177 29078 39688 91150 333 60000
OOXX GBP67 31121 99159 50057 ///// 04381 26/// /0304 10183 29070 39688 91200 333 60000
OOXX AUP09 31101 99124 31309 ///// 00321 26/// ///// 1//// 29/// 3//// 91018 333 6///0
OOXX AUP09 31101 99124 31309 ///// 00321 26/// ///// 1//// 29/// 3//// 91028 333 6///0
OOXX AUP09 31101 99124 31309 ///// 00321 26/// ///// 1//// 29/// 3//// 91038 333 6///0
OOXX AUP09 31101 99124 31309 ///// 00321 26/// ///// 1//// 29/// 3//// 91048 333 6///0
OOXX AUP09 31101 99124 31309 ///// 00321 26/// ///// 1//// 29/// 3//// 91058 333 6///0
OOXX AUP09 31111 99124 31309 ///// 00321 26/// ///// 1//// 29/// 3//// 91108 333 6///0
OOXX AUP09 31111 99124 31309 ///// 00321 26/// ///// 1//// 29/// 3//// 91118 333 6///0
OOXX AUP09 31111 99124 31309 ///// 00321 26/// ///// 1//// 29/// 3//// 91128 333 6///0
OOXX AUP09 31111 99124 31309 ///// 00321 26/// ///// 1//// 29/// 3//// 91138 333 6///0
OOXX AUP09 31111 99124 31309 ///// 00321 26/// ///// 1//// 29/// 3//// 91148 333 6///0
OOXX AUP09 31111 99124 31309 ///// 00321 26/// ///// 1//// 29/// 3//// 91158 333 6///0
OOXX AUP09 31121 99124 31309 ///// 00321 26/// ///// 1//// 29/// 3//// 91208 333 6///0
OOXX NZP46 31101 99438 51765 ///// 00221 26/// /3608 10160 29/// 30121 91030 333 69920
OOXX NZP46 31101 99438 51765 ///// 00221 26/// /3609 10160 29/// 30120 91040 333 69920
OOXX NZP46 31101 99438 51765 ///// 00221 26/// /3608 10160 29/// 30120 91050 333 60000
OOXX NZP46 31111 99438 51765 ///// 00221 26/// /3609 10160 29/// 30119 91100 333 60000
OOXX NZP46 31111 99438 51765 ///// 00221 26/// /3608 10160 29/// 30118 91110 333 60000
OOXX NZP46 31111 99438 51765 ///// 00221 26/// /3609 10160 29/// 30116 91120 333 69920
OOXX NZP46 31111 99438 51765 ///// 00221 26/// /3608 10160 29/// 30116 91130 333 60000
OOXX NZP46 31111 99438 51765 ///// 00221 26/// /3608 10160 29/// 30115 91140 333 60000
OOXX NZP46 31111 99438 51765 ///// 00221 26/// /3608 10160 29/// 30114 91150 333 69920
OOXX NZP46 31121 99438 51765 ///// 00221 26/// /3608 10160 29/// 30114 91200 333 60000
OOXX NZP46 31121 99438 51765 ///// 00221 26/// /3607 10160 29/// 30112 91210 333 60000
OOXX NZP46 31121 99438 51765 ///// 00221 26/// /3608 10159 29/// 30110 91220 333 69920
OOXX ARP01 31101 99345 50585 ///// 00311 26/// /0000 10100 29039 30111 91010 333 60000
OOXX ARP01 31101 99345 50585 ///// 00311 26/// /0000 10101 29039 30113 91020 333 60000
OOXX ARP01 31101 99345 50585 ///// 00311 26/// /1101 10100 29039 30115 91030 333 60000
OOXX ARP01 31101 99345 50585 ///// 00311 26/// /1101 10100 29039 30115 91040 333 60000
OOXX ARP01 31101 99345 50585 ///// 00311 26/// /1101 10102 29039 30115 91050 333 60000
OOXX ARP01 31111 99345 50585 ///// 00311 26/// /1101 10103 29039 30114 91100 333 60000
OOXX ARP01 31111 99345 50585 ///// 00311 26/// /1101 10104 29038 30115 91110 333 60000
OOXX ARP01 31111 99345 50585 ///// 00311 26/// /0000 10104 29038 30118 91120 333 60000
OOXX ARP01 31111 99345 50585 ///// 00311 26/// /1101 10105 29039 30118 91130 333 60000
OOXX ARP01 31111 99345 50585 ///// 00311 26/// /1101 10106 29039 30119 91140 333 60000
OOXX ARP01 31111 99345 50585 ///// 00311 26/// /0000 10108 29038 30119 91150 333 60000
OOXX ARP01 31121 99345 50585 ///// 00311 26/// /0000 10109 29038 30119 91200 333 60000
OOXX AUP04 31111 99377 31451 ///// 00311 26/// /2801 10235 29050 30090 91108 333 60000
OOXX AUP04 31111 99377 31451 ///// 00311 26/// /3201 10225 29051 30091 91118 333 60000
OOXX AUP04 31111 99377 31451 ///// 00311 26/// /2701 10227 29050 30090 91128 333 60000
OOXX AUP04 31111 99377 31451 ///// 00311 26/// /3001 10226 29050 30091 91138 333 60000
OOXX AUP04 31111 99377 31451 ///// 00311 26/// /2701 10223 29052 30091 91148 333 60000
OOXX AUP04 31111 99377 31451 ///// 00311 26/// /3401 10219 29052 30092 91158 333 60000
OOXX AUP04 31121 99377 31451 ///// 00311 26/// /3001 10214 29057 30092 91208 333 60000
OOXX AUP04 31121 99377 31451 ///// 00311 26/// /2801 10215 29056 30092 91218 333 60000
OOXX AUP04 31121 99377 31451 ///// 00311 26/// /3001 10216 29063 30092 91228 333 60000
OOXX AUP04 31121 99377 31451 ///// 00311 26/// /2501 10215 29066 30091 91238 333 60000
OOXX AUP04 31121 99377 31451 ///// 00311 26/// /2901 10215 29069 30092 91248 333 60000
OOXX AUP04 31121 99377 31451 ///// 00311 26/// /3301 10212 29071 30093 91258 333 60000
OOXX SEP63 31101 99594 10180 ///// 00401 26/// /1602 11025 29075 30020 91010 333 60000
OOXX SEP63 31101 99594 10180 ///// 00401 26/// /1402 11025 29074 30030 91020 333 60000
OOXX SEP63 31101 99594 10180 ///// 00401 26/// /1401 11021 29073 30030 91030 333 60000
OOXX SEP63 31101 99594 10180 ///// 00401 26/// /1602 11022 29074 30030 91040 333 60000
OOXX SEP63 31101 99594 10180 ///// 00401 26/// /1302 11023 29074 30030 91050 333 60000
OOXX SEP63 31111 99594 10180 ///// 00401 26/// /1402 11023 29074 30020 91100 333 60000
OOXX SEP63 31111 99594 10180 ///// 00401 26/// /1102 11023 29074 30030 91110 333 60000
OOXX SEP63 31111 99594 10180 ///// 00401 26/// /1302 11022 29073 30030 91120 333 60000
OOXX SEP63 31111 99594 10180 ///// 00401 26/// /1302 11019 29071 30030 91130 333 60000
OOXX SEP63 31111 99594 10180 ///// 00401 26/// /1203 11017 29070 30030 91140 333 60000
OOXX SEP63 31111 99594 10180 ///// 00401 26/// /1403 11015 29070 30030 91150 333 60000
OOXX SEP63 31121 99594 10180 ///// 00401 26/// /1203 11015 29070 30030 91200 333 60000
OOXX CAP17 31101 99476 70527 ///// 01331 26/// /0104 11022 29064 30112 91000 333 60000
OOXX CAP17 31101 99476 70527 ///// 01331 26/// /0304 11022 29065 30116 91010 333 60000
OOXX CAP17 31101 99476 70527 ///// 01331 26/// /0303 11021 29065 30118 91020 333 60000
OOXX CAP17 31101 99476 70527 ///// 01331 26/// /0103 11021 29065 30117 91030 333 60000
OOXX CAP17 31101 99476 70527 ///// 01331 26/// /0102 11020 29065 30119 91040 333 60000
OOXX CAP17 31101 99476 70527 ///// 01331 26/// /0203 11020 29066 30120 91050 333 60000
OOXX CAP17 31111 99476 70527 ///// 01331 26/// /0305 11019 29064 30122 91100 333 60000
OOXX CAP17 31111 99476 70527 ///// 01331 26/// /0204 11019 29063 30121 91110 333 60000
OOXX CAP17 31111 99476 70527 ///// 01331 26/// /0205 11019 29063 30123 91120 333 60000
OOXX CAP17 31111 99476 70527 ///// 01331 26/// /0204 11019 29063 30126 91130 333 60000
OOXX CAP17 31111 99476 70527 ///// 01331 26/// /0205 11019 29062 30127 91140 333 60000
OOXX CAP17 31111 99476 70527 ///// 01331 26/// /0204 11018 29062 30130 91150 333 60000
OOXX ARP03 31101 99412 50712 ///// 08491 26/// /1301 10138 29064 39182 91010 333 60000
OOXX ARP03 31101 99412 50712 ///// 08491 26/// /0000 10130 29065 39181 91020 333 60000
OOXX ARP03 31101 99412 50712 ///// 08491 26/// /0000 10133 29066 39183 91030 333 60000
OOXX ARP03 31101 99412 50712 ///// 08491 26/// /3201 10130 29067 39181 91040 333 60000
OOXX ARP03 31101 99412 50712 ///// 08491 26/// /0000 10143 29063 39181 91050 333 60000
OOXX ARP03 31111 99412 50712 ///// 08491 26/// /0000 10160 29056 39182 91100 333 60000
OOXX ARP03 31111 99412 50712 ///// 08491 26/// /0000 10179 29050 39183 91110 333 60000
OOXX ARP03 31111 99412 50712 ///// 08491 26/// /0000 10166 29055 39183 91120 333 60000
OOXX ARP03 31111 99412 50712 ///// 08491 26/// /0000 10171 29054 39184 91130 333 60000
OOXX ARP03 31111 99412 50712 ///// 08491 26/// /0000 10186 29050 39182 91140 333 60000
OOXX ARP03 31111 99412 50712 ///// 08491 26/// /2501 10194 29047 39181 91150 333 60000
OOXX ARP03 31121 99412 50712 ///// 08491 26/// /2901 10200 29047 39181 91200 333 60000
OOXX RUP58 31101 99442 11320 ///// 01121 26/// /1201 11148 29048 30100 91052 333 60000
OOXX RUP58 31111 99442 11320 ///// 01121 26/// /1302 11148 29049 30100 91102 333 60000
OOXX RUP58 31111 99442 11320 ///// 01121 26/// /1201 11150 29049 30100 91112 333 60000
OOXX RUP58 31111 99442 11320 ///// 01121 26/// /1201 11153 29050 30101 91122 333 60000
OOXX RUP58 31111 99442 11320 ///// 01121 26/// /1101 11155 29051 30100 91132 333 60000
OOXX RUP58 31111 99442 11320 ///// 01121 26/// /1101 11156 29051 30100 91142 333 60000
OOXX RUP58 31111 99442 11320 ///// 01121 26/// /1001 11160 29052 30099 91152 333 60000
OOXX RUP58 31121 99442 11320 ///// 01121 26/// /1202 11165 29054 30098 91202 333 60000
OOXX RUP58 31121 99442 11320 ///// 01121 26/// /1101 11167 29055 30098 91212 333 60000
OOXX RUP58 31121 99442 11320 ///// 01121 26/// /1201 11167 29055 30099 91222 333 60000
OOXX RUP58 31121 99442 11320 ///// 01121 26/// /1201 11171 29056 30098 91232 333 60000
OOXX RUP58 31121 99442 11320 ///// 01121 26/// /1201 11174 29057 30099 91242 333 60000
OOXX FJP26 31101 99178 31775 ///// 00311 26/// /1103 10256 29086 30062 91020 333 60000
OOXX FJP26 31101 99178 31775 ///// 00311 26/// /0903 10254 29087 30062 91030 333 60000
OOXX FJP26 31101 99178 31775 ///// 00311 26/// /0903 10253 29088 30062 91040 333 60000
OOXX FJP26 31101 99178 31775 ///// 00311 26/// /1002 10253 29088 30061 91050 333 60000
OOXX FJP26 31111 99178 31775 ///// 00311 26/// /1201 10254 29087 30060 91100 333 60000
OOXX FJP26 31111 99178 31775 ///// 00311 26/// /1202 10253 29088 30060 91110 333 60000
OOXX FJP26 31111 99178 31775 ///// 00311 26/// /1202 10252 29089 30059 91120 333 60000
OOXX FJP26 31111 99178 31775 ///// 00311 26/// /1202 10252 29088 30058 91130 333 60000
OOXX FJP26 31111 99178 31775 ///// 00311 26/// /1102 10255 29087 30057 91140 333 60000
OOXX FJP26 31111 99178 31775 ///// 00311 26/// /1302 10256 29085 30057 91150 333 60000
OOXX FJP26 31121 99178 31775 ///// 00311 26/// /1202 10255 29086 30055 91200 333 60000
OOXX FJP26 31121 99178 31775 ///// 00311 26/// /1402 10255 29086 30053 91210 333 60000
OOXX CAP14 31101 99487 71234 ///// 00431 26/// /3103 10037 29063 30180 91040 333 60000
OOXX CAP14 31101 99487 71234 ///// 00431 26/// /2902 10035 29064 30181 91050 333 60000
OOXX CAP14 31111 99487 71234 ///// 00431 26/// /2603 10038 29061 30186 91100 333 60000
OOXX CAP14 31111 99487 71234 ///// 00431 26/// /2502 10027 29065 30188 91110 333 60000
OOXX CAP14 31111 99487 71234 ///// 00431 26/// /2502 10028 29064 30189 91120 333 60000
OOXX CAP14 31111 99487 71234 ///// 00431 26/// /2502 10026 29066 30192 91130 333 60000
OOXX CAP14 31111 99487 71234 ///// 00431 26/// /2502 10028 29066 30196 91140 333 60000
OOXX CAP14 31111 99487 71234 ///// 00431 26/// /2502 10031 29063 30199 91150 333 60000
OOXX CAP14 31121 99487 71234 ///// 00431 26/// /2502 10030 29062 30200 91200 333 60000
OOXX CAP14 31121 99487 71234 ///// 00431 26/// /2602 10029 29065 30201 91210 333 60000
OOXX CAP14 31121 99487 71234 ///// 00431 26/// /2502 10029 29064 30202 91220 333 60000
OOXX CAP14 31121 99487 71234 ///// 00431 26/// /2602 10030 29062 30199 91230 333 60000
OOXX RUP54 31101 99586 10494 ///// 01271 26/// /0604 11037 29089 39995 91027 333 60120
OOXX RUP54 31101 99586 10494 ///// 01271 26/// /0504 11038 29089 39996 91037 333 60120
OOXX RUP54 31101 99586 10494 ///// 01271 26/// /0504 11039 29089 39996 91047 333 60120
OOXX RUP54 31101 99586 10494 ///// 01271 26/// /0505 11040 29089 39996 91057 333 60120
OOXX RUP54 31111 99586 10494 ///// 01271 26/// /0504 11041 29089 39996 91107 333 60120
OOXX RUP54 31111 99586 10494 ///// 01271 26/// /0604 11042 29089 39997 91117 333 60120
OOXX RUP54 31111 99586 10494 ///// 01271 26/// /0604 11044 29089 39999 91127 333 60120
OOXX RUP54 31111 99586 10494 ///// 01271 26/// /0604 11049 29089 30000 91137 333 60120
OOXX RUP54 31111 99586 10494 ///// 01271 26/// /0506 11053 29089 30000 91147 333 60120
OOXX RUP54 31111 99586 10494 ///// 01271 26/// /0605 11055 29089 30002 91157 333 60120
OOXX RUP54 31121 99586 10494 ///// 01271 26/// /0605 11057 29089 30003 91207 333 60120
OOXX RUP54 31121 99586 10494 ///// 01271 26/// /0605 11057 29089 30004 91217 333 60120
BBXX 2BLY5 31123 99084 50347 41598 40613 10280 20229 40137 50003 7//11 8/26/ 22284 00284 20302 80245
AAXX 31124 89667 46/// /0703 11013 39792 4//// 5//// 91240
AAXX 31124 89667 46/// /0301 10003 39792 4//// 5//// 91210
AAXX 31124 89667 46/// /0203 11007 39793 4//// 5////
AAXX 3112/ 89327 46/// ///// 11041 39535 4//// 5//// 91240
AAXX 3112/ 89828 46/// ///// 11143 36541 4//// 5//// 91240
AAXX 3112/ 89879 46/// ///// 10021 39727 4//// 5//// 91230
AAXX 3112/ 89879 46/// ///// 10019 39727 4//// 5//// 91240
AAXX 3112/ 89667 46/// ///// 4//// 5//// 91230
AAXX 3112/ 89667 46/// ///// 4//// 5//// 91220
AAXX 3112/ 89872 46/// ///// 11011 39747 4//// 5//// 91240
AAXX 3112/ 89869 46/// ///// 11038 39731 4//// 5//// 91230
AAXX 3112/ 89869 46/// ///// 11036 39731 4//// 5//// 91240
AAXX 3112/ 89866 46/// ///// 10010 39693 4//// 5//// 91240
AAXX 3112/ 89329 46/// ///// 11088 38639 4//// 5//// 91240
AAXX 3112/ 89332 46/// ///// 11071 39122 4//// 5//// 91240
AAXX 3112/ 89769 46/// ///// 11059 39766 4//// 5//// 91240
AAXX 3112/ 89314 46/// ///// 11130 38117 4//// 5//// 91240
BBXX A8IM7 31124 99339 71356 41598 81818 10160 20108 40240 703// 8/8// 22224 04200 2//03 329// 4//05 5//// 80130
BBXX A8EH3 31123 99421 11454 41/98 33330 10010 21016 40190 52025 70200 82105 22254 04050 20507 80000
AAXX 31124 91559 46/// /0000 10241 40074 22200 00293
AAXX 31124 71611 16/// /0805 11028 21039 60001 333 11040 21053 70000
AAXX 31124 71619 16/// /0502 11078 21098 30193 40254 55006 60001 333 11065 21136 70000
AAXX 31124 71171 16/// /2305 10060 20049 39965 40061 53013 60001 333 10058 20031 70036
AAXX 31124 71323 17/// /1801 11042 21054 39860 40147 56022 60021 7//4/ 333 11056 21094 70020
AAXX 31124 71721 17/// /3303 11076 21084 39863 40116 53001 60021 7//4/ 333 11109 21132 70020
AAXX 31124 71723 17/// /0510 11053 21074 30127 40137 56016 60011 7//4/ 333 11068 21097 70012
AAXX 31124 71428 16/// /1502 11112 21142 30230 40237 58010 60001 333 11083 21146 70000
AAXX 31124 71512 16/// /0504 11134 21154 30260 40275 52005 60001 333 11045 21182 70000
BBXX DCSL2 31124 99314 11481 41298 83424 10150 20092 40190 54000 70211 887// 22224 00201 20310 80120
BBXX DGZS2 31123 99073 11081 41/97 80420 10265 20245 40110 54000 70222 8//// 22254 00240 2//// 80250
BBXX A8HO3 31124 99319 70111 41598 40408 10190 20124 40330 54000 70300 83131 22213 20204 304// 40204 5//// 80150
BBXX DGHJ 31123 99316 11325 41498 13610 10130 20039 40230 50020 70300 8//// 22255 00200 2//// 3//// 4//// 5//// 80085
BBXX A8FA5 31123 99327 70100 41698 40409 10195 20110 40350 50000 7//22 8/164 22254 20402 301// 40502 5//// 80145
BBXX VRFO7 31124 99303 70402 41698 41412 10220 20189 40350 57020 70300 842// 22254 21201 332// 40805 80200
BBXX A8LN2 31123 99499 10160 41597 52424 10125 20116 40120 54000 70122 8461/ 22224 04120 21006 327// 41308 80120
BBXX V7OX3 31124 99331 50260 41698 63204 10220 20205 40170 54000 7//22 85468 22223 04240 21002 335// 41003 5//// 80210
BBXX VSXC9 31124 99350 70182 41298 83606 10170 20119 40380 50005 70322 887// 22264 2//// 303// 40502 80140
BBXX DMQN 31124 99048 70297 41/// /0519 10260 20232 40145 50004 70522 8//// 22244 04280 2//// 3//// 4//// 5//// 80240
BBXX KAOU 31124 99000 10842 43/// /0290 10282 20236 40091 5//// 7//// 8//// 222// 04288 2//// 3//// 4//// 5//// 6//// 8//// /////
BBXX SHIP 31124 99004 31054 41/97 30110 10274 20254 40027 70322 222// 0//// 20201 300// 40101 5////
BBXX ICRA 31124 99046 30554 419// 33007 10290 2024/ 40110 54040 7//// 83090 222// 00270 2//// 3//// 4//// 5//// 6//// 80250 /////
BBXX A8AX3 31123 99047 30117 41697 41605 10300 40140 56/// 70300 83372 22200 2//00
BBXX BATFR19 31124 99064 30055 46/// /1909 10257 20190 40147 58007 22282 00259
BBXX WHKM 31124 99103 30839 41298 32509 10360 20282 40082 52009 7//00 822/1 22233 0//// 20201 32799 40804 50804 6//// 80300 /////
BBXX A8JS5 31124 99107 30091 41598 71810 10255 20174 40145 58002 70222 8413/ 22244 04251 20402 320// 40503 5//// 80201
BBXX ONDY 31124 99109 30790 41598 83224 10295 2026/ 40075 54000 70321 88810 22213 00297 2//// 3//// 4//// 5//// 6//// 80265 /////
BBXX DCCP2 31120 99148 30660 41698 31007 10281 20239 40085 56010 70200 83300 22254 00280 29903 313// 40806 5//// 80250
BBXX BATFR08 31124 99210 30551 44597 33110 10277 20234 40112 702// 831// 22253 00280 21502 330// 415// 5////
BBXX DBBT 31121 99339 30184 46/// /0102 10202 20121 40149 57004 22220 00143
BBXX DBLK 31121 99462 30046 41296 83010 10083 20083 49940 57008 75864 8572/ 22213 04072 20503 326// 40906
BBXX SHIP 31124 99511 31100 41697 62728 10049 20014 49968 55004 70211 86800 22243 00058 11209 20504 32823 40910 50809 6/00/
AAXX 31124 48620 11460 72803 10278 20246 30096 40105 69901 70582 84558 333 10313 81710 83626 87276
AAXX 31124 91531 46/// /0303 1//// 40077 22200 00272
BBXX 3EYJ5 31123 99057 30064 41398 82315 10250 20220 40140 56010 70322 8977/ 22244 04300 2//// 31999 41003 5//// 80230
BBXX A8GU5 31124 99373 10051 41598 52715 10180 20106 40300 56010 7//// 85474 22223 04170 20504 80140
AAXX 31124 96615 32456 40000 10284 20249 30097 40112 52018 81131 333 10314 56000 57803 59013 81812 83362 80856
BBXX 64045 31124 99591 70117 46/// /2525 10093 20050 49822 55014 22200 00101 10809 70047 333 90710 91139
BBXX BATEU08 31124 99588 70099 46/// /2436 10099 20069 49846 55001 22223
BBXX 62112 31124 99584 70002 47998 /2114 10083 20079 49962 57011 700// 22200
BBXX 62113 31124 99584 10002 47998 /2215 10083 20078 49966 58009 700// 22200
BBXX 62129 31124 99584 10003 46/// ///// 10085 20075 49965 58011 22200
BBXX 62114 31124 99583 10000 46/// /2118 10084 20074 49964 57010 22200
BBXX PJAI 31124 99581 70014 47898 /1911 10097 20046 49949 58019 700// 22200
BBXX 62111 31124 99580 70003 46/// /2213 10089 20064 49968 57016 22200 10604 70018
BBXX 62117 31124 99579 10000 47998 /2012 10087 20074 49971 58011 700// 22200 10603 70017
BBXX MINUK01 3112/ 99571 70021 46/// ///// 10078 49972 57018
BBXX BATUK01 31124 99560 70032 46/// /2305 10115 20070 49987 58020 22200 00057
BBXX 62105 31124 99554 70121 46/// /2518 10111 20085 49952 57007 22200 00104 10708 70041 333 90710 91141
BBXX BATFR04 31124 99551 70058 46/// /2330 10117 20089 49994 58005 22232 00100
BBXX 62095 31124 99531 70159 46/// /2421 10113 20075 40012 58001 22200 00112 10809 70045 333 90710 91132
BBXX 62301 31124 99524 70047 46/// /2419 10100 20096 40084 58011 22200 00092 10504 70022
BBXX 62094 31124 99517 70067 46/// /2322 10110 20107 40100 57011 22200 00106 10505 70023 333 90710 91133
BBXX 62303 31124 99516 70051 46/// /2416 10115 20106 40108 58006 22200 00110 10605 70027 333 90710 91126
BBXX 62023 31123 99514 70079 46/96 /2429 10109 2//// 40117 5//// 22200 10605 70025 555 70036 80005
BBXX 62081 31124 99510 70134 46/// ///// 10124 20117 40092 57007 22200 00119 10708 70041
BBXX 62305 31124 99504 10000 46/98 /2533 10120 20112 40137 58008 22200 00116 10603 70014 333 90710 91139
BBXX 62107 31124 99501 70061 46/// /2626 10117 20113 40147 58009 22200 00116 10804 70022 333 90710 91133
BBXX 62103 31124 99499 70029 46/98 /2626 10120 20110 40150 50001 22200 00119 10704 70019 333 90710 91135
BBXX BATFR02 31124 99498 70005 46/// /2528 10117 20104 40155 50011 22244 00119
BBXX BATFR03 31124 99497 70011 46/// /2618 10124 20117 40155 22273
BBXX 62027 31124 99491 70022 46/// /2717 1//// 2//// 40173 58004 22200 00108 10804 331// 70021
BBXX 62442 31124 99490 70164 46/// /2320 1//// 2//// 40132 58010 22200 00122 333 90710 91132
BBXX 62029 31124 99487 70125 46/// /2423 10132 20121 40162 58011 22200 00126 10708 70040 333 90710 91132
BBXX A8RL2 31123 99487 70073 41/97 82524 10140 20122 40180 57/// 71122 8662/ 22214 04123 20906 329// 41406 80130
BBXX VRCZ7 31123 99485 70060 41397 83224 10125 20106 40181 52010 70222 887// 22254 20605 332// 40605 5//// 80115
BBXX 62163 31124 99475 70084 46/// /2420 10124 20113 40214 58009 22200 00124 10707 70033 333 90710 91126
BBXX BATEU01 31124 99461 70147 44/97 82433 10154 20132 40213 58006 70222 8//// 22254 00139 22102 322// 41004 5////
BBXX BATFR15 31124 99461 70141 44597 82419 10179 20139 40238 58017 70011 888// 22214 00137 21002 315// 41504 5////
BBXX PHBO 31123 99460 70159 41297 82327 10143 20127 40231 58013 70222 8472/ 22214 20705 327// 41205 80134
BBXX 62001 31124 99452 70050 46/// /2618 10135 20123 40270 58002 22200 00130 10706 70032 333 90710 91126
BBXX BAREU08 31124 99449 70147 46/// ///// 40261 52004 22254
BBXX DEDI 31123 99445 70249 41297 62722 10150 20125 40250 53025 70322 82678 22224 00147 20604 325// 41006 80135
BBXX MCUV3 31123 99444 70145 41297 82729 10140 20122 40277 57004 70222 887// 22253 04123 20307 328// 40206 5//// 80130
BBXX WBDS 31124 99408 70253 415// 82427 10159 2015/ 40320 51010 75052 886// 22225 00156 20404 326// 40602 5//// 6//// 80151 /////
BBXX C6LU4 31124 99404 70287 41298 72419 10170 2015/ 40350 54000 70111 86917 22224 20403 3//// 4//// 5//// 80160
BBXX WDD3826 31124 99398 70291 41398 62324 10190 2018/ 40330 52010 70122 86/91 22254 00150 20303 323// 40801 5//// 6//// 80180 /////
BBXX BAREU05 31124 99381 70146 46/// ///// 40379 52002 22234
BBXX BATFR09 31124 99380 70097 44897 30022 10144 20089 40341 58001 70211 83400 22283 00170
BBXX 61001 31124 99434 10078 46/// /1107 10133 20057 40162 57010 22200 00143 10803 70013
BBXX BATFR46 31124 99431 10046 44/97 02828 10142 20102 40197 56006 701// 22263 00142
BBXX BAREU56 31124 99430 10086 46/// ///// 40167 57021 22262
BBXX BATFR21 31124 99429 10084 46/// /2316 20349 40165 22273
BBXX 61002 31124 99421 10047 46/// ///24 10142 2//// 40224 57006 22200 00133 10706 70030 555 1/030
BBXX V2AI7 31123 99402 10185 32898 13630 10120 20/// 40095 52015 70100 81318 22274 00/// 20609 /////
BBXX DBBH 31121 99382 10156 41598 33513 10134 20026 40148 53005 70198 832// 22281 04159 20402 399// 40501
BBXX DDYZ2 31124 99374 10069 41698 32927 10155 20130 40260 51010 7//22 82414 22224 00170 20506 322// 40406 80140
BBXX KABP 31123 99373 10055 43/95 /2630 10160 2011/ 40270 50010 7//// 8//// 22211 0//// 2//// 3//// 4//// 5//// 6//// 80132 /////
BBXX SHIP 31124 99367 10239 41598 62812 10170 2012/ 40060 54000 70161 8623/ 22273 00170 21002 323// 41002 5//// 6//// 80140 /////
BBXX WAHV 31123 99363 10171 41499 33530 10138 2011/ 40113 52032 78181 83903 22274 00173 20805 80120
BBXX BAREU63 31124 99322 10199 46/// ///// 10161 29066 40112 57009 22251
AAXX 31124 48620 11460 72803 10278 20246 30096 40105 69901 70582 84558 333 10313 81710 83626 87276
AAXX 31124 48620 11456 72803 10278 20246 30096 40105 69901 70582 84558 333 10313 81710 83626 87276
AAXX 31121 40001 11540 80916 10064 20037 40196 58003 60041 76062 8452/ 333 84626 88460
AAXX 31121 40007 11560 60704 10080 20029 40174 56014 69931 70262 83250 333 83830 86360
AAXX 31121 40025 11560 60304 10143 20120 40141 57015 60012 70269 86900 333 83926 86630
AAXX 31121 40045 31550 21503 10120 20012 40185 57012 70622 84570 84630 87360
AAXX 31121 40061 NIL
AAXX 31121 40080 31557 22410 10150 20053 39429 40143 57017 70500 82100 333 82830
AAXX 31121 40087 NIL
AAXX 31121 40095 NIL
BBXX 3EYJ5 31123 99057 30064 41398 82315 10250 20220 40140 56010 70322 8977/ 22244 04300 2//// 31999 41003 5//// 80230
AAXX 31124 71315 16/// /0000 11112 21137 30196 40252 58009 60001 333 11096 21174 4/010 70000
AAXX 31124 71016 16/// ///// 11026 60001 333 10037 21038 70000
BBXX 46145 31121 99544 71324 46/// /2208 10032 40200 52017 22200 00066 11006 70028 333 91209
BBXX 46208 31121 99525 71327 46/// /1406 10036 40211 52005 22200 00070 11106 70028 333 91209
BBXX A8IM7 31124 99339 71356 41598 81818 10160 20108 40240 703// 8/8// 22224 04200 2//03 329// 4//05 5//// 80130
AAXX 3112/ 89327 46/// ///// 11040 39534 4//// 5//// 91220
AAXX 31124 91642 46/// /0000 1//// 40069 22200 0////
AAXX 31121 40001 11540 80916 10064 20037 40196 58003 60041 76062 8452/ 333 84626 88460
AAXX 31121 40007 11560 60704 10080 20029 40174 56014 69931 70262 83250 333 83830 86360
AAXX 31121 40025 11560 60304 10143 20120 40141 57015 60012 70269 86900 333 83926 86630
AAXX 31121 40045 31550 21503 10120 20012 40185 57012 70622 84570 84630 87360
AAXX 31121 40061 NIL
AAXX 31121 40080 31557 22410 10150 20053 39429 40143 57017 70500 82100 333 82830
AAXX 31121 40087 NIL
AAXX 31121 40095 NIL
AAXX 31121 40009 32565 71003 10093 20030 40154 57010 84550 333 84630 87360
AAXX 31121 40016 31960 51304 10086 20041 40217 56018 70720 80001 333 85070
AAXX 31121 40022 32565 20804 10156 20080 40137 56013 82200 222// 20000 333 83830
AAXX 31121 40030 31560 70000 10063 20037 40174 56013 71041 84570 333 84630 87360
AAXX 31121 40039 31960 50000 10108 20012 40166 56008 72004 85030 333 85360
AAXX 31121 40066 11570 61301 10104 20083 40150 56007 60083 76062 86400 333 86626
AAXX 31121 40072 11570 80000 10114 20099 40184 57020 60052 76202 8552/ 333 85630 88460
AAXX 31121 40083 32970 00301 10108 20028 48448 56007
AAXX 31121 40001 11540 80916 10064 20037 40196 58003 60041 76062 8452/ 333 84626 88460
AAXX 31121 40007 11560 60704 10080 20029 40174 56014 69931 70262 83250 333 83830 86360
AAXX 31121 40025 11560 60304 10143 20120 40141 57015 60012 70269 86900 333 83926 86630
AAXX 31121 40045 31550 21503 10120 20012 40185 57012 70622 84570 84630 87360
AAXX 31121 40061 NIL
AAXX 31121 40080 31557 22410 10150 20053 39429 40143 57017 70500 82100 333 82830
AAXX 31121 40087 NIL
AAXX 31121 40095 NIL
AAXX 31121 40009 32565 71003 10093 20030 40154 57010 84550 333 84630 87360
AAXX 31121 40016 31960 51304 10086 20041 40217 56018 70720 80001 333 85070
AAXX 31121 40022 32565 20804 10156 20080 40137 56013 82200 222// 20000 333 83830
AAXX 31121 40030 31560 70000 10063 20037 40174 56013 71041 84570 333 84630 87360
BBXX 41052 31121 99183 70648 46/// /0809 10268 40190 91230 333 91211
BBXX 41052 31121 99183 70648 46/// /0909 10269 40188 91220 333 91211
BBXX 41052 31121 99183 70648 46/// /0809 10270 40187 91210 333 91211
BBXX 42085 31121 99179 70665 46/// /0710 10248 40190 91230 333 91212
BBXX 42085 31121 99179 70665 46/// /0611 10255 40187 91220 333 91214
BBXX 42085 31121 99179 70665 46/// /0806 10256 40187 91210 333 91208
BBXX 46109 31121 99481 71234 46/// /2501 10031 40278 91157 22200 00078
BBXX 46110 31121 99481 71230 46/// /1403 10041 40279 91159
BBXX SHIP 31124 99243 11227 41697 80524 10200 20153 40232 52010 70255 86617 22214 00237 20704 306// 40604 80170
BBXX 46094 31121 99446 71243 46/// /1104 10069 91230
BBXX 46094 31121 99446 71243 46/// /1104 10068 91220
BBXX 46094 31121 99446 71243 46/// /1203 10067 91210
BBXX 46094 31121 99446 71243 46/// /1205 10066 91200
BBXX 46094 31121 99446 71243 46/// /1404 10066 91150
BBXX 46094 31121 99446 71243 46/// /1006 10066 91140
BBXX 44055 31121 99391 70753 46/// ///// 1//// 91230 22200 00070 1//00 70002
BBXX C6W2032 31123 99159 70184 41393 40635 10210 2009/ 40200 53020 7//44 84030 22284 00240 20411 31818 40413 50413 6//// 80140 ICE/////
BBXX MLJA8 31123 99253 10566 41998 11103 10240 20176 40201 54000 7//00 80001 22200 04260 20201 31000 40201 5//// 80200
BBXX 44056 31121 99362 70757 46/// ///// 1//// 91220 22200 00120 11001 21001 70004
AAXX 31124 82586 32598 60910 10262 20221 39885 40122 86400 333 20244 59011
AAXX 31124 82678 32596 30901 10300 20211 39981 40119 82100 333 20238 59016
AAXX 31124 82791 32599 30910 10290 20196 39844 40119 82100 333 20244 59012
AAXX 31124 82983 32598 20908 10282 20220 39709 40117 82100 333 20247 59008
AAXX 31124 82583 32589 60913 10285 20190 39777 40111 86200 333 20245 59015
AAXX 31124 82594 32697 40910 10300 20211 30111 40119 82100 333 20230 59010
AAXX 31124 82683 32595 50506 10285 20193 39679 40127 85200 333 20240 59008
AAXX 31124 82780 21598 40504 10304 20209 39888 40138 70251 84200 333 20246 59023 69944
AAXX 31124 82789 32599 71405 10211 20164 38945 40035 85700 333 20176 59009
AAXX 31124 82879 32598 60906 10294 20205 39852 40114 86100 333 20246 59008
BBXX C6VG7 31124 99226 70847 41698 41309 10241 2018/ 40187 52003 7//11 84/5/ 22214 00270 20101 306// 4//// 5//// 6//// 80197 ICE /////
BBXX S6SR 31124 99042 70068 41997 80109 10250 20236 40150 54000 7//22 88/2/ 22263 00260 2//// 3//// 4//// 5//// 6//// 80240 ICE /////
BBXX C6VG8 31124 99353 70747 41/// /2120 10200 2//// 40140 5//// 7//// 8//// 22214 00230 2//// 3//// 4//// 5//// 6//// 8//// ICE /////
BBXX ONFI 31123 99282 50206 41998 00609 10260 2022/ 40200 52020 7//// 80/// 22233 00250 2//// 3//// 4//// 5//// 6//// 80230 ICE /////
AAXX 31124 89614 46/// /0921 11043 29071 38988 4//// 5//// 91230 333 90700 91131
AAXX 31124 89016 46/89 /3314 11031 29079 39473 4//// 5////
AAXX 31124 89003 46/89 /3215 11081 29064 39093 4//// 5////
AAXX 31124 89507 46/89 /3409 11197 29074 36836 4//// 5////
BBXX S6SR 31124 99042 70068 41997 80109 10250 20236 40150 54000 7//22 88/2/ 22263 00260 2//// 3//// 4//// 5//// 6//// 80240 ICE /////
BBXX 3EYJ5 31123 99057 30064 41398 82315 10250 20220 40140 56010 70322 8977/ 22244 04300 2//// 31999 41003 5//// 80230
BBXX DMQN 31124 99048 70297 41/// /0519 10260 20232 40145 50004 70522 8//// 22244 04280 2//// 3//// 4//// 5//// 80240
BBXX V7OX3 31124 99331 50260 41698 63204 10220 20205 40170 54000 7//22 85468 22223 04240 21002 335// 41003 5//// 80210
BBXX 2BLY5 31123 99084 50347 41598 40613 10280 20229 40137 50003 7//11 8/26/ 22284 00284 20302 80245
BBXX 44055 31121 99391 70753 46/// ///// 1//// 91230 22200 00070 1//00 70002
BBXX 46094 31121 99446 71243 46/// /1104 10069 91230
BBXX 46094 31121 99446 71243 46/// /1006 10066 91140
BBXX 46094 31121 99446 71243 46/// /1404 10066 91150
BBXX 46094 31121 99446 71243 46/// /1205 10066 91200
BBXX 46094 31121 99446 71243 46/// /1104 10068 91220
BBXX 46094 31121 99446 71243 46/// /1203 10067 91210
BBXX 42085 31121 99179 70665 46/// /0611 10255 40187 91220 333 91214
BBXX 46109 31121 99481 71234 46/// /2501 10031 40278 91157 22200 00078
BBXX 42085 31121 99179 70665 46/// /0806 10256 40187 91210 333 91208
BBXX 46110 31121 99481 71230 46/// /1403 10041 40279 91159
BBXX 42085 31121 99179 70665 46/// /0710 10248 40190 91230 333 91212
BBXX 41052 31121 99183 70648 46/// /0909 10269 40188 91220 333 91211
BBXX 41052 31121 99183 70648 46/// /0809 10270 40187 91210 333 91211
BBXX 41052 31121 99183 70648 46/// /0809 10268 40190 91230 333 91211
BBXX C6VG7 31124 99226 70847 41698 41309 10241 2018/ 40187 52003 7//11 84/5/ 22214 00270 20101 306// 4//// 5//// 6//// 80197 ICE /////
BBXX SHIP 31124 99243 11227 41697 80524 10200 20153 40232 52010 70255 86617 22214 00237 20704 306// 40604 80170
BBXX A8GU5 31124 99373 10051 41598 52715 10180 20106 40300 56010 7//// 85474 22223 04170 20504 80140
BBXX A8LN2 31123 99499 10160 41597 52424 10125 20116 40120 54000 70122 8461/ 22224 04120 21006 327// 41308 80120
BBXX VSXC9 31124 99350 70182 41298 83606 10170 20119 40380 50005 70322 887// 22264 2//// 303// 40502 80140
BBXX A8HO3 31124 99319 70111 41598 40408 10190 20124 40330 54000 70300 83131 22213 20204 304// 40204 5//// 80150
BBXX A8FA5 31123 99327 70100 41698 40409 10195 20110 40350 50000 7//22 8/164 22254 20402 301// 40502 5//// 80145
AAXX 31124 89614 46/// /0921 11043 29071 38988 4//// 5//// 91230 333 90700 91131
AAXX 31124 78767 11465 80000 10205 20191 30140 40142 51010 60172 715// 85570 333 10206 20187 32/// 56000 59010 70176 85610 83359
AAXX 31124 78767 11465 80000 10205 20191 30140 40142 51010 60172 715// 85570 333 10206 20187 32/// 56000 59010 70176 85610 83359
AAXX 31124 78767 11465 80000 10205 20191 30140 40142 51010 60172 715// 85570 333 10206 20187 32/// 56000 59010 70176 85610 83359
AAXX 3112/ 89332 46/// ///// 11073 39121 4//// 5//// 91230
AAXX 3112/ 89872 46/// ///// 11653 30231 4//// 5//// 91230
AAXX 3112/ 89329 46/// ///// 11093 38639 4//// 5//// 91230
AAXX 3112/ 89799 46/// ///// 11239 4//// 5//// 91230
AAXX 3112/ 89868 46/// ///// 11061 39745 4//// 5//// 91230
AAXX 3112/ 89868 46/// ///// 11061 39745 4//// 5//// 91240
AAXX 3112/ 89327 46/// ///// 11041 39534 4//// 5//// 91230
AAXX 3112/ 89108 46/// ///// 11228 36922 4//// 5//// 91230
AAXX 3112/ 89108 46/// ///// 11226 36922 4//// 5//// 91240
AAXX 3112/ 89314 46/// ///// 11130 38117 4//// 5//// 91230
BBXX A8IM7 31124 99339 71356 41598 81818 10160 20108 40240 703// 8/8// 22224 04200 2//03 329// 4//05 5//// 80130
BBXX VRFO7 31124 99303 70402 41698 41412 10220 20189 40350 57020 70300 842// 22254 21201 332// 40805 80200
BBXX 2BLY5 31123 99084 50347 41598 40613 10280 20229 40137 50003 7//11 8/26/ 22284 00284 20302 80245
BBXX V7OX3 31124 99331 50260 41698 63204 10220 20205 40170 54000 7//22 85468 22223 04240 21002 335// 41003 5//// 80210
BBXX DMQN 31124 99048 70297 41/// /0519 10260 20232 40145 50004 70522 8//// 22244 04280 2//// 3//// 4//// 5//// 80240
BBXX 3EYJ5 31123 99057 30064 41398 82315 10250 20220 40140 56010 70322 8977/ 22244 04300 2//// 31999 41003 5//// 80230
BBXX A8HO3 31124 99319 70111 41598 40408 10190 20124 40330 54000 70300 83131 22213 20204 304// 40204 5//// 80150
BBXX A8FA5 31123 99327 70100 41698 40409 10195 20110 40350 50000 7//22 8/164 22254 20402 301// 40502 5//// 80145
BBXX A8LN2 31123 99499 10160 41597 52424 10125 20116 40120 54000 70122 8461/ 22224 04120 21006 327// 41308 80120
BBXX VSXC9 31124 99350 70182 41298 83606 10170 20119 40380 50005 70322 887// 22264 2//// 303// 40502 80140
BBXX A8GU5 31124 99373 10051 41598 52715 10180 20106 40300 56010 7//// 85474 22223 04170 20504 80140
AAXX 31123 91802 NIL
AAXX 31123 91809 NIL
AAXX 31123 91831 36/// /1603 10245 20228 40095 58013 333 1////
AAXX 31123 91841 NIL
AAXX 31123 91848 NIL
AAXX 31123 91843 11498 41606 10247 20235 40086 58013 60004 70182 84270 333 10276 5639/ 84816
AAXX 31124 71165 46/// ///00 11217 21240 39822 40119 51022 6///1 333 11162 21300 7////
AAXX 31124 71971 16/// /1001 11370 21406 30028 40077 51002 60001 333 11296 21377 70000
AAXX 31124 71971 16/// /1001 11370 21406 30028 40077 51002 60001 333 11296 21377 70000
AAXX 31124 92036 46/// /0511 10295 40083 22200 00317
AAXX 31121 29282 11563 82302 11055 21085 30109 40283 52014 69902 77122 8377/ 333 11048
BBXX 63055 31124 99606 10016 47293 /1526 10067 20067 49917 57020 704// 22200 10709 70043
BBXX 63106 31124 99610 10017 46/// /1735 10066 49921 57026 22200
BBXX 63113 31124 99610 10017 46/// /1835 10068 20059 49924 57026 22200 10810 70050
BBXX 62301 31124 99524 70047 46/// /2419 10180 20176 40084 58011 22200 00092 10504 70022
BBXX 62103 31124 99499 70029 46/98 /2730 10120 20110 40144 58008 22200 00119 10704 70020 333 90710 91138
AAXX 31124 93713 46/// /0000 10173 40065 22200 00167
BBXX DCSL2 31124 99314 11481 41298 83424 10150 20092 40190 54000 70211 887// 22224 00201 20310 80120
BBXX DGHJ 31123 99316 11325 41498 13610 10130 20039 40230 50020 70300 8//// 22255 00200 2//// 3//// 4//// 5//// 80085
BBXX WCZ5238 31124 99340 11282 41898 42713 10060 20014 40247 57008 70200 844// 22272 00062 20302 3//// 4//// 5//// 6//// 80040 ICE /////
OOXX AAPIG 31124 99758 51003 56251 08502 46/// /1015 11147 21311 38799 49788 5//// 91150
AAXX 31121 28799 42997 82101 11133 21153 30204 40359 52020 80009
AAXX 31121 01380 41785 50101 11135 21151 70221 82078 333 4/035 91103
AAXX 31124 91689 46/// /0515 10270 40084 22200 00293
AAXX 31124 63708 32580 62412 10278 20136 48492 82230 333 58009 82828 86359
BBXX V2QD4 31123 99341 31600 41298 41518 10206 20182 40167 51012 70111 8/73/ 22263 00196 20504 318// 41305
BBXX V2QD4 31123 99341 31600 41298 41518 10206 20182 40167 51012 70111 8/73/ 22263 00196 20504 318// 41305
BBXX SHIP 31124 99488 70055 41197 /2619 10140 20123 40180 56025 71044 8//// 22213 00134 20405 3//// 4//// 80130
BBXX MYSU5 31124 99473 70111 41496 82330 10135 20128 40199 50002 72522 8//// 22253 00130 20203 325// 40505 5//// 80131
BBXX VSXC9 31124 99350 70182 41298 83606 10170 20119 40380 50005 70322 887// 22264 2//// 303// 40502 80140
AAXX 31124 89610 46/// /0431 11044 39658 4//// 5//// 333 90700 91137
AAXX 31124 89610 46/// /0431 11044 39658 4//// 5//// 333 90700 91137
AAXX 31124 89610 46/// /0431 11044 39658 4//// 5//// 333 90700 91137
BBXX ONFI 31123 99282 50206 41998 00609 10260 2022/ 40200 52020 7//// 80/// 22233 00250 2//// 3//// 4//// 5//// 6//// 80230 ICE /////
BBXX MLJA8 31123 99253 10566 41998 11103 10240 20176 40201 54000 7//00 80001 22200 04260 20201 31000 40201 5//// 80200
BBXX C6W2032 31123 99159 70184 41393 40635 10210 2009/ 40200 53020 7//44 84030 22284 00240 20411 31818 40413 50413 6//// 80140 ICE/////
BBXX DGHJ 31123 99316 11325 41498 13610 10130 20039 40230 50020 70300 8//// 22255 00200 2//// 3//// 4//// 5//// 80085
BBXX DGZS2 31123 99073 11081 41/97 80420 10265 20245 40110 54000 70222 8//// 22254 00240 2//// 80250
BBXX DCSL2 31124 99314 11481 41298 83424 10150 20092 40190 54000 70211 887// 22224 00201 20310 80120
BBXX A8EH3 31123 99421 11454 41/98 33330 10010 21016 40190 52025 70200 82105 22254 04050 20507 80000
BBXX VRFO7 31124 99303 70402 41698 41412 10220 20189 40350 57020 70300 842// 22254 21201 332// 40805 80200
BBXX A8IM7 31124 99339 71356 41598 81818 10160 20108 40240 703// 8/8// 22224 04200 2//03 329// 4//05 5//// 80130
BBXX C6VG8 31124 99353 70747 41/// /2120 10200 2//// 40140 5//// 7//// 8//// 22214 00230 2//// 3//// 4//// 5//// 6//// 8//// ICE /////
BBXX 44056 31121 99362 70757 46/// ///// 1//// 91220 22200 00120 11001 21001 70004
AAXX 31124 89528 46/// /3526 11163 36765 4//// 5////
AAXX 31124 89628 46/// /3117 36812 4//// 5////
AAXX 31124 82392 32499 50908 10300 20208 30008 40109 83200 333 20228 59012
BBXX 42013 31121 99272 70829 46/// ///// 1//// 40200 50000 91200
AAXX 31121 98132 11460 80403 10207 20192 40221 53010 60021 76066 8687/ 333 10240 56199 59015 86816 88357
AAXX 31121 98133 NIL
AAXX 31121 98222 31575 10201 10256 20230 40136 53010 70544 81200 333 10308 56999 59006 81820
AAXX 31121 98233 31570 50000 10225 20196 40159 52012 70544 82510 333 10270 56999 58015 82625 83358
AAXX 31121 98324 31462 60000 10280 20248 40150 52022 70544 83278 333 10322 56999 58006 83816 84358 86280
AAXX 31121 98327 31665 61901 10252 20203 39981 40157 52019 70544 82230 333 10309 56999 59001 82842 86360
AAXX 31121 98334 32465 80000 10240 20219 39968 40174 52018 8427/ 333 10290 56999 58002 84817 88357
AAXX 31121 98425 31560 83603 10282 20231 40143 52012 70544 8482/ 333 10302 56999 59007 84620 88459
AAXX 31121 98426 31568 20804 10256 20212 40153 52017 70544 81101 333 10323 56999 59002 81820
AAXX 31121 98427 11475 60000 10250 20234 39955 40134 53012 69901 78082 83270 333 10285 56199 59007 83818 86357
AAXX 31121 98428 32458 31406 10280 20230 40149 52017 81431 333 10301 56999 58001 81618
AAXX 31121 98432 31568 20403 10263 20223 40152 52017 70544 81202 333 10310 56199 59010 81820
AAXX 31121 98433 31460 40905 10217 20204 39420 40145 53012 70544 84230 333 10240 56999 59010 84812
AAXX 31121 98434 11462 83602 10249 20234 30155 40163 53022 60011 71562 8487/ 333 10270 56199 58004 84817 88357
AAXX 31121 98435 32470 30402 10265 20241 40158 5//// 83200 333 10305 56199 59001 83818
AAXX 31121 98442 NIL
AAXX 31121 98446 32470 63301 10254 20246 30103 40149 52011 82231 333 10304 56199 58003 82818 84358 86070
AAXX 31121 98447 11470 50705 10246 20233 39880 40146 5//// 60011 72522 85200 333 10/// 56299 59016 85818
AAXX 31121 98538 11468 43604 10280 20240 30132 40137 53012 69901 72164 82206 333 10295 56999 59008 82811 84072
AAXX 31121 98546 32575 60404 10277 20252 30136 40144 52013 82208 333 10318 56999 59005 82820 86275
AAXX 31121 98548 32468 20000 10269 20246 30125 40131 51025 81201 333 10330 56999 58002 81816
AAXX 31121 98553 11465 63602 10263 20246 30122 40126 52014 60011 72584 83908 333 10306 56999 59002 82915 85272
AAXX 31121 98558 11464 70307 10268 20256 40135 53019 60031 71584 84978 333 10287 56999 58003 82915 85357
AAXX 31121 98642 11460 80000 10266 20236 30121 40130 52012 60011 70282 8527/ 333 10282 56199 58001 85815 88358
AAXX 31121 98644 11465 80402 10256 20241 30125 40134 51017 60051 70284 8227/ 333 10300 56999 58001 82817 88358
AAXX 31121 98648 31466 63602 10250 20236 30050 40132 52013 71544 83968 333 10270 56999 59003 82912 83358 85270
AAXX 31121 98746 11462 80000 10272 20229 40112 52032 60011 70584 82977 333 10334 56999 59005 82918 85358 87275
AAXX 31121 98751 11465 73401 10230 20216 39450 40125 52018 69941 70264 84970 333 10300 56999 59004 84915 87356
AAXX 31121 98752 31460 50000 10268 20258 40132 52019 82570 333 10304 56999 59002 82616 84358
AAXX 31121 98851 32468 72701 10267 20238 39960 40109 53017 81270 333 10300 56999 59012 81818 87358
AAXX 31121 20046 42998 03005 11253 21270 30099 40133 52024
BBXX 62301 31124 99524 70047 46/// /2419 10100 20096 40084 58011 22200 00092 10504 70022
BBXX 2AUO5 31123 99606 10016 41296 81735 10076 20058 49929 57027 75455 8/6// 22241 20607 333// 41010 80068
BBXX 63106 31124 99610 10017 46/// /1735 10066 49921 57026 22200
BBXX 63105 31124 99610 10017 47295 ///// 10071 20060 49920 57027 761// 22200
BBXX 62103 31124 99499 70029 46/98 /2626 10120 20110 40150 50001 22200 00119 10704 70019 333 90710 91135
BBXX 3EMK6 31124 99266 70925 41/// /1408 10222 2//// 40210 51010 7//// 8//// 22200 00229 2//// 3//// 4//// 5//// 6//// 8//// ICE /////
BBXX C6TH9 31123 99165 51517 41296 83010 10230 2022/ 40110 54/// 78066 886// 22200 00250 2//// 3//// 4//// 5//// 6//// 80220 ICE /////
BBXX 42013 31121 99272 70829 46/// ///// 1//// 40200 50000 91200
BBXX V2QD4 31123 99341 31600 41298 41518 10206 20182 40167 51012 70111 8/73/ 22263 00196 20504 318// 41305
AAXX 31121 20292 11998 32008 11131 21151 39964 49984 54000 69902 73630 80001 333 11107 91111
AAXX 31121 20069 11923 23512 11221 21248 30049 40063 52041 60012 73873 82030 333 11182 91117
AAXX 31124 71408 46/// /2915 11012 21059 30194 40275 51028 6///1 333 21014 7////
BBXX SKEC 31121 99587 10193 46/// ///// 10000 40031 57006 22241 00069
AAXX 31121 98836 31460 50000 10284 20242 40121 52017 70544 81278 333 10322 56999 59011 81818 84281
BBXX 42369 31121 99272 70903 46/// /1201 1//// 91140 22200 10501 70006
BBXX 42370 31121 99273 70905 46/// ///// 10223 91140 22200 10501 70006
BBXX 42376 31121 99291 70879 46/// /2206 10206 40196 91140 22200 10201 70006
BBXX 42392 31121 99272 70900 46/// ///// 1//// 91140 22200 10501 70006
BBXX 42887 31121 99282 70885 46/// /2902 10224 91140 22200 10501 70006
AAXX 31124 63705 32559 71407 10245 20206 38859 48515 8292/ 333 58017 82824 81926 87468 555 10216
AAXX 31124 67002 32580 53209 10315 20244 30092 40125 85802 333 0//00 58004 82820 83630 92408
AAXX 31124 67009 NIL
AAXX 31124 67012 32582 72608 10310 20266 30083 40094 57017 872// 333 0//00 87820
AAXX 31124 67025 NIL
AAXX 31124 67027 11580 62812 10288 20248 30078 40099 58015 60371 70292 83952 333 0//24 82820 81920 85360 94967 95837 555 82640 81073
AAXX 31124 67045 NIL
AAXX 31124 67072 31470 62008 10297 20249 30097 40100 56013 71799 84966 333 0//00 83817 81917 85275 92428 94997
AAXX 31124 67073 31580 6//// 10308 20243 30075 40101 56010 71522 83933 333 0//00 81920 83820 94962
AAXX 31124 67083 32582 60606 10288 20173 38715 48492 57017 86800 333 0//00 86820
AAXX 31124 67095 31470 51810 10320 20238 30083 40090 57019 71522 84903 333 0//00 82917 83817 84073 94946
AAXX 31124 67113 11575 5//// 10293 20237 30/// 40/// 5//// 6//// 70162 82930 333 0//// 81820 81920 84360 94997 95817 555 81640
AAXX 31124 67117 NIL
AAXX 31124 67137 11465 80000 10218 20196 38883 48488 55005 60131 72196 82973 333 0//11 82817 81917 86460 94999 95819 555 81620 82073
AAXX 31124 67143 NIL
AAXX 31124 67152 NIL
AAXX 31124 67157 32580 2//// 10/// 20/// 30122 40129 58010 82800 333 0//00 81820 555 81640
AAXX 31124 67161 NIL
AAXX 31124 67197 32580 51212 10287 20220 30110 40120 58008 85800 333 0//00 82820 84633
AAXX 31124 67017 NIL
AAXX 31124 67020 NIL
AAXX 31124 67023 32582 51206 10300 20249 30085 40091 56008 82932 333 0//00 82820 81920 84073 94976
AAXX 31124 67037 NIL
AAXX 31124 67067 NIL
AAXX 31124 67107 NIL
AAXX 31124 67131 32582 52606 10/// 20/// 30081 40086 57010 85800 333 0//00 84820 555 81640
AAXX 31124 67017 NIL
AAXX 31124 67020 NIL
AAXX 31124 67023 32582 51206 10300 20249 30085 40091 56008 82932 333 0//00 82820 81920 84073 94976
AAXX 31124 67037 NIL
AAXX 31124 67067 NIL
AAXX 31124 67107 NIL
AAXX 31124 67131 32582 52606 10/// 20/// 30081 40086 57010 85800 333 0//00 84820 555 81640
AAXX 31124 64500 32465 32406 10285 20235 30106 40119 83200 333 0//00 59006 83813 94913 95833
AAXX 31124 64507 32460 6//// 10301 20240 3//// 40/// 86800 333 5//// 83813 86630 94919 95839
AAXX 31124 64510 64550 32470 20226 30/// 40/// 878// 333 0//00 5//// 83816 87626 94939 95839
AAXX 31124 64551 64556 32465 10281 20221 39529 40110 86400 333 0//00 59005 87612
AAXX 31124 64560 32260 8//// 10258 20223 39580 40115 885// 333 0//00 58005 88605
AAXX 31124 64570 32570 52902 10284 20221 39615 40139 85200 333 0//00 59007 85825 94919 95839
AAXX 31124 82795 32597 50908 10240 20201 39528 40143 85200 333 20214 59008
BBXX WKPY 31124 99424 70444 41498 52930 10125 20067 40285 52030 7//11 8548/ 22264 00188 20710 330// 41208 5//// 6//// 80095 ICE /////
BBXX WKPY 31124 99424 70444 41498 52930 10125 20067 40285 52030 7//11 8548/ 22264 00188 20710 330// 41208 5//// 6//// 80095 ICE /////
BBXX 42376 31121 99291 70879 46/// /2206 10206 40196 91140 22200 10201 70006
BBXX 42887 31121 99282 70885 46/// /2902 10224 91140 22200 10501 70006
BBXX 42370 31121 99273 70905 46/// ///// 10223 91140 22200 10501 70006
BBXX 42369 31121 99272 70903 46/// /1201 1//// 91140 22200 10501 70006
BBXX 42392 31121 99272 70900 46/// ///// 1//// 91140 22200 10501 70006
BBXX PHDL 31123 99284 70702 41298 69903 10230 20198 40225 52015 70282 84760 22224 00254 20100 399// 4//02 80208 90994
BBXX PHDL 31123 99284 70702 41298 69903 10230 20198 40225 5/015 70282 84760 22224 00254 20100 399// 4//02 80208 90994
BBXX 3EMK6 31124 99266 70925 41/// /1408 10222 2//// 40210 51010 7//// 8//// 22200 00229 2//// 3//// 4//// 5//// 6//// 8//// ICE /////
BBXX C6TH9 31123 99165 51517 41296 83010 10230 2022/ 40110 54/// 78066 886// 22200 00250 2//// 3//// 4//// 5//// 6//// 80220 ICE /////
BBXX SKEC 31121 99587 10193 46/// ///// 10000 40031 57006 22241 00069
BBXX MINFR05 3112/ 99055 10000 46/// ///// 10260 40129 57016
AAXX 31124 67002 32580 53209 10315 20244 30092 40125 85802 333 0//00 58004 82820 83630 92408
AAXX 31124 67009 NIL
AAXX 31124 67012 32582 72608 10310 20266 30083 40094 57017 872// 333 0//00 87820
AAXX 31124 67025 NIL
AAXX 31124 67027 11580 62812 10288 20248 30078 40099 58015 60371 70292 83952 333 0//24 82820 81920 85360 94967 95837 555 82640 81073
AAXX 31124 67045 NIL
AAXX 31124 67072 31470 62008 10297 20249 30097 40100 56013 71799 84966 333 0//00 83817 81917 85275 92428 94997
AAXX 31124 67073 31580 6//// 10308 20243 30075 40101 56010 71522 83933 333 0//00 81920 83820 94962
AAXX 31124 67083 32582 60606 10288 20173 38715 48492 57017 86800 333 0//00 86820
AAXX 31124 67095 31470 51810 10320 20238 30083 40090 57019 71522 84903 333 0//00 82917 83817 84073 94946
AAXX 31124 67113 11575 5//// 10293 20237 30/// 40/// 5//// 6//// 70162 82930 333 0//// 81820 81920 84360 94997 95817 555 81640
AAXX 31124 67117 NIL
AAXX 31124 67137 11465 80000 10218 20196 38883 48488 55005 60131 72196 82973 333 0//11 82817 81917 86460 94999 95819 555 81620 82073
AAXX 31124 67143 NIL
AAXX 31124 67152 NIL
AAXX 31124 67157 32580 2//// 10/// 20/// 30122 40129 58010 82800 333 0//00 81820 555 81640
AAXX 31124 67161 NIL
AAXX 31124 67197 32580 51212 10287 20220 30110 40120 58008 85800 333 0//00 82820 84633
AAXX 31121 89063 42799 80000 11005 21010 39731 49742 52035 8552/ 333 10011 21022
BBXX 63055 31124 99606 10016 47293 /1526 10067 20067 49917 57020 704// 22200 10709 70043
BBXX 63106 31124 99610 10017 46/// /1735 10066 49921 57026 22200
BBXX 63113 31124 99610 10017 46/// /1835 10068 20059 49924 57026 22200 10810 70050
BBXX 62301 31124 99524 70047 46/// /2419 10180 20176 40084 58011 22200 00092 10504 70022
BBXX 62103 31124 99499 70029 46/98 /2730 10120 20110 40144 58008 22200 00119 10704 70020 333 90710 91138
BBXX VRGW2 31124 99059 10860 41499 50808 10290 20/// 40123 53/// 7//11 83543 22265 04300 2////
AAXX 31121 37661 42998 03503 10122 20027 39419 40163 57004 555 10010
AAXX 31121 37675 42999 03202 10110 21103 39523 40171 57004 555 11014
AAXX 31121 37735 42998 02901 10101 21019 39771 40143 57010 555 10012
AAXX 31121 37729 42598 42904 10083 20040 38520 57017 84100
AAXX 31121 37740 42999 21801 10061 21021 39374 40181 57012 8230 555 10009
AAXX 31121 37749 42998 02501 10083 20023 30091 40207 57004 555 11008
AAXX 31121 37832 42598 20000 10105 20023 30098 40182 57022 82002 555 10010
AAXX 31121 37851 42998 00000 10089 20040 30125 40194 57003
AAXX 31121 37864 32997 42504 10083 20039 40189 55001 82041
AAXX 31121 37905 42997 70000 10073 20023 30175 40258 57014 87030 555 10008
AAXX 31121 37923 42997 32704 10070 20019 30179 40159 56015 83030 555 11012
AAXX 31121 37925 42998 50000 10109 20017 30219 40190 57009 85050 555 11012
AAXX 31121 37985 42998 20201 10091 20038 30204 40190 57020 82040 555 11013
AAXX 31121 37989 42698 50404 10092 20046 30224 40197 57011 85500 555 10015
AAXX 31121 38111 38750
AAXX 31124 89807 46/// /1712 11016 29090 39777 4//// 5//// 91230 333 90700 91117
AAXX 3112/ 89799 46/// ///// 11239 4//// 5//// 91240
AAXX 31124 89807 46/// /1712 11016 29090 39777 4//// 5//// 91230 333 90700 91117
AAXX 31121 89063 42799 80000 11005 21010 39731 49742 52035 8552/ 333 10011 21022
BBXX A8TX8 31123 99081 31252 41/98 82808 10280 20252 40108 52017 70322 8//// 22224 04300 20601 80260
BBXX A8TX8 31123 99081 31252 41/98 82808 10280 20252 40108 52017 70322 8//// 22224 04300 20601 80260
BBXX MINFR05 3112/ 99055 10000 46/// ///// 10260 40129 57016
BBXX VRGW2 31124 99059 10860 41499 50808 10290 20/// 40123 53/// 7//11 83543 22265 04300 2////
AAXX 31124 91375 46/// /0609 10275 40090 22200 00280
BBXX 42369 31121 99272 70903 46/// /1101 1//// 91200 22200 10501 70006
BBXX 42370 31121 99273 70905 46/// ///// 10223 91200 22200 10501 70006
AAXX 31124 91165 12266 62905 10200 20178 30135 40172 58011 69901 91153
AAXX 31124 91212 32566 40104 10233 20222 31394 40128 51009 91154
AAXX 31124 91245 32666 40909 10260 20220 30150 91154
AAXX 31124 91285 32566 42604 10200 20180 30144 91202
AAXX 31124 91324 32474 80908 10294 20256 30095 40097 82201
AAXX 31124 91334 32474 50411 10279 20240 30097 40100 50005 81171
AAXX 31124 91367 11474 81004 10261 20222 60501 70382 84227
AAXX 31124 91376 11474 80712 10269 20243 30090 40093 58007 69951 70282 85878
AAXX 31124 91408 32473 80910 10272 20233 30073 40111 52015 81278
AAXX 31124 91413 32469 70710 10276 20219 30097 40122 52015 83171
AAXX 31124 91155 NIL
AAXX 31124 91203 NIL
AAXX 31124 91217 NIL
AAXX 31124 91232 NIL
AAXX 31124 91250 NIL
AAXX 31124 91275 NIL
AAXX 31124 91317 NIL
AAXX 31124 91339 NIL
AAXX 31124 91348 NIL
AAXX 31124 91353 NIL
AAXX 31124 91356 NIL
AAXX 31124 91366 NIL
AAXX 31124 91369 NIL
AAXX 31124 91371 NIL
AAXX 31124 91378 NIL
AAXX 31124 91425 NIL
AAXX 31124 91434 NIL
AAXX 31124 91601 NIL
AAXX 31124 91610 NIL
BBXX 42376 31121 99291 70879 46/// /2304 10207 40200 91200 22200 10201 70006
BBXX 42392 31121 99272 70900 46/// ///// 1//// 91200 22200 10501 70006
BBXX 42887 31121 99282 70885 46/// /2902 10225 91200 22200 10601 70006
BBXX 62301 31124 99524 70047 46/// /2419 10100 20096 40084 58011 22200 00092 10504 70022
BBXX 2AUO5 31123 99606 10016 41296 81735 10076 20058 49929 57027 75455 8/6// 22241 20607 333// 41010 80068
BBXX 63106 31124 99610 10017 46/// /1735 10066 49921 57026 22200
BBXX 63105 31124 99610 10017 47295 ///// 10071 20060 49920 57027 761// 22200
BBXX 62103 31124 99499 70029 46/98 /2626 10120 20110 40150 50001 22200 00119 10704 70019 333 90710 91135
AAXX 31124 03008 11275 72012 10081 20080 49917 69961 70254 876// 91150 333 83705 87708
AAXX 31124 91165 12266 62905 10200 20178 30135 40172 58011 69901 91153
AAXX 31124 91212 32566 40104 10233 20222 31394 40128 51009 91154
AAXX 31124 91285 32566 42604 10200 20180 30144 91202
AAXX 31124 91334 32474 50411 10279 20240 30097 40100 50005 81171
AAXX 31124 91376 11474 80712 10269 20243 30090 40093 58007 69951 70282 85878
AAXX 31124 91408 32473 80910 10272 20233 30073 40111 52015 81278
AAXX 31124 91413 32469 70710 10276 20219 30097 40122 52015 83171
AAXX 31124 91245 32666 40909 10260 20220 30150 91154
BBXX 42887 31121 99282 70885 46/// /2902 10225 91200 22200 10601 70006
BBXX 42392 31121 99272 70900 46/// ///// 1//// 91200 22200 10501 70006
BBXX 42376 31121 99291 70879 46/// /2304 10207 40200 91200 22200 10201 70006
BBXX 42369 31121 99272 70903 46/// /1101 1//// 91200 22200 10501 70006
BBXX 42370 31121 99273 70905 46/// ///// 10223 91200 22200 10501 70006
BBXX A8TX8 31123 99081 31252 41/98 82808 10280 20252 40108 52017 70322 8//// 22224 04300 20601 80260
BBXX A8GU5 31124 99373 10051 41598 52715 10180 20106 40300 56010 7//// 85474 22223 04170 20504 80140
BBXX WNDP 31124 99364 10148 43799 13330 10140 2009/ 40145 52020 7//// 812// 22274 00167 20308 328// 40410 5//// 6//// 80110 /////
AAXX 31124 71732 17/// /3603 11075 21095 60011 7//4/ 333 11087 21098 4/014 70012
BBXX MINFR00 3112/ 99091 51235 46/// ///// 10233 40127 57005
AAXX 3112/ 89869 46/// ///// 11025 39731 4//// 5//// 91220
AAXX 3112/ 89866 46/// ///// 10013 39694 4//// 5//// 91230
AAXX 3112/ 89769 46/// ///// 11055 39767 4//// 5//// 91230
AAXX 3112/ 89828 46/// ///// 11141 36541 4//// 5//// 91230
AAXX 3112/ 89879 46/// ///// 10026 39728 4//// 5//// 91220
BBXX MINFR00 3112/ 99091 51235 46/// ///// 10233 40127 57005
AAXX 31124 71120 11459 82908 11052 21070 39387 40047 52050 69961 77122 887// 333 11050 21064 44009 70057 90931 93101
AAXX 31124 71120 11459 82908 11052 21070 39387 40047 52050 69961 77122 887// 333 11050 21064 44009 70057 90931 93101
BBXX 63055 31124 99606 10016 47293 /1526 10067 20067 49917 57020 704// 22200 10709 70043
BBXX 63106 31124 99610 10017 46/// /1735 10066 49921 57026 22200
BBXX 63113 31124 99610 10017 46/// /1835 10068 20059 49924 57026 22200 10810 70050
BBXX 62301 31124 99524 70047 46/// /2419 10180 20176 40084 58011 22200 00092 10504 70022
BBXX 62103 31124 99499 70029 46/98 /2730 10120 20110 40144 58008 22200 00119 10704 70020 333 90710 91138
BBXX 42369 31121 99272 70903 46/// /1101 1//// 91220 22200 10501 70006
BBXX 42370 31121 99273 70905 46/// ///// 10223 91220 22200 10401 70006
BBXX 42376 31121 99291 70879 46/// /2304 10207 40200 91220 22200 10201 70006
BBXX 42392 31121 99272 70900 46/// ///// 1//// 91220 22200 10501 70006
BBXX 42887 31121 99282 70885 46/// /2902 10229 91220 22200 10601 70006
BBXX 42369 31121 99272 70903 46/// /1101 1//// 91220 22200 10501 70006
BBXX 42392 31121 99272 70900 46/// ///// 1//// 91220 22200 10501 70006
BBXX 42370 31121 99273 70905 46/// ///// 10223 91220 22200 10401 70006
BBXX 42376 31121 99291 70879 46/// /2304 10207 40200 91220 22200 10201 70006
BBXX 42887 31121 99282 70885 46/// /2902 10229 91220 22200 10601 70006
BBXX 62301 31124 99524 70047 46/// /2419 10100 20096 40084 58011 22200 00092 10504 70022
BBXX 2AUO5 31123 99606 10016 41296 81735 10076 20058 49929 57027 75455 8/6// 22241 20607 333// 41010 80068
BBXX 63106 31124 99610 10017 46/// /1735 10066 49921 57026 22200
BBXX 63105 31124 99610 10017 47295 ///// 10071 20060 49920 57027 761// 22200
BBXX 62103 31124 99499 70029 46/98 /2626 10120 20110 40150 50001 22200 00119 10704 70019 333 90710 91135
BBXX PFFH 31123 99035 70089 41497 50205 10260 20237 40128 58007 701// 82238 22233 00278 20000 399// 4//03 80243 90996
AAXX 31121 30925 418// 80103 11194 21220 39334 40381 52004 77172 8807/
BBXX DGOQ 31124 99545 10100 41/92 /2112 10010 40090 54000 75555 22262 04053 321// 4//01
BBXX ELWO6 31123 99298 70457 41498 21305 10230 20201 40315 7//22 8216/ 22254 04232 20301 80210
BBXX DAJT 31124 99290 50190 41598 53416 10230 20193 40190 54000 70300 8/44/ 22264 04220 329// 4//03 80205
BBXX DEFY 31123 99139 70738 41498 40825 10279 20231 40131 51010 70311 84200 22252 02271 80244
BBXX A8CB7 31123 99074 30085 41398 31916 10300 20260 40140 54000 70122 83122 22284 06240 21102 323// 41003 80270
BBXX A8CB7 31123 99074 30085 41398 31916 10300 20260 40140 54000 70122 83122 22284 06240 21102 323// 41003 80270
BBXX DGOQ 31124 99545 10100 41/92 /2112 10010 40090 54000 75555 22262 04053 321// 4//01
BBXX A8CB7 31123 99074 30085 41398 31916 10300 20260 40140 54000 70122 83122 22284 06240 21102 323// 41003 80270
BBXX DAJT 31124 99290 50190 41598 53416 10230 20193 40190 54000 70300 8/44/ 22264 04220 329// 4//03 80205
BBXX ELWO6 31123 99298 70457 41498 21305 10230 20201 40315 7//22 8216/ 22254 04232 20301 80210
BBXX DEFY 31123 99139 70738 41498 40825 10279 20231 40131 51010 70311 84200 22252 02271 80244
AAXX 31121 02805 41435 80103 11030 21040 39936 40070 52014 78582 8771/
BBXX 63055 31124 99606 10016 47293 /1526 10067 20067 49917 57020 704// 22200 10709 70043
BBXX 63106 31124 99610 10017 46/// /1735 10066 49921 57026 22200
BBXX 63113 31124 99610 10017 46/// /1835 10068 20059 49924 57026 22200 10810 70050
BBXX 62301 31124 99524 70047 46/// /2419 10180 20176 40084 58011 22200 00092 10504 70022
BBXX 62103 31124 99499 70029 46/98 /2730 10120 20110 40144 58008 22200 00119 10704 70020 333 90710 91138
AAXX 31121 23921 42998 80000 11057 21064 30071 40193 51008 8807/
AAXX 31121 23734 32998 71201 11115 21121 30114 40205 52012 87030 333 11092
AAXX 31124 89266 46/// /1811 11074 21094 39691 49831 52010 91230
AAXX 31124 89272 46/// /0907 11133 21172 37992 49627 52009 91230
AAXX 31124 89257 46/// /2304 11069 21102 39760 49830 52010 91230
AAXX 31124 48358 32960 10902 10220 20160 39998 40177 52019 80001 333 10280 58004
BBXX 62301 31124 99524 70047 46/// /2419 10100 20096 40084 58011 22200 00092 10504 70022
BBXX 2AUO5 31123 99606 10016 41296 81735 10076 20058 49929 57027 75455 8/6// 22241 20607 333// 41010 80068
BBXX 63106 31124 99610 10017 46/// /1735 10066 49921 57026 22200
BBXX 63105 31124 99610 10017 47295 ///// 10071 20060 49920 57027 761// 22200
BBXX 62103 31124 99499 70029 46/98 /2626 10120 20110 40150 50001 22200 00119 10704 70019 333 90710 91135
BBXX MINFR03 3112/ 99249 10584 46/// ///// 10243 40193 57007
AAXX 31124 71301 16/// ///// 11120 21126 39717 40127 51005 60001 333 11121 21131 4/010 70006
BBXX MINFR03 3112/ 99249 10584 46/// ///// 10243 40193 57007
BBXX 63055 31124 99606 10016 47293 /1526 10067 20067 49917 57020 704// 22200 10709 70043
BBXX 63106 31124 99610 10017 46/// /1735 10066 49921 57026 22200
BBXX 63113 31124 99610 10017 46/// /1835 10068 20059 49924 57026 22200 10810 70050
BBXX 62301 31124 99524 70047 46/// /2419 10180 20176 40084 58011 22200 00092 10504 70022
BBXX 62103 31124 99499 70029 46/98 /2730 10120 20110 40144 58008 22200 00119 10704 70020 333 90710 91138
BBXX 3FPR9 31124 99267 71155 41/// /3112 10160 20144 40160 54000 7//11 8//// 22274 04180 20202 33131 40303 50202 6//// 80150 ICE /////
AAXX 31124 67009 32582 62823 10300 20228 39983 40101 56010 86900 333 0//00 86820 81920 94976 95816
AAXX 31121 24143 11999 61808 11261 21300 30154 40248 53013 69902 77173 86072 333 11261
AAXX 31121 24136 11998 81704 11240 21272 30083 40190 54000 69952 77172 8802/ 333 1/123
BBXX 4XFB 31124 99365 10234 41498 52005 10160 20115 40070 57020 70310 858// 22254 00180 20202 322// 402// 5//// 80075
BBXX 4XFB 31124 99365 10234 41498 52005 10160 20115 40070 57020 70310 858// 22254 00180 20202 322// 402// 5//// 80075
BBXX 62301 31124 99524 70047 46/// /2419 10100 20096 40084 58011 22200 00092 10504 70022
BBXX 2AUO5 31123 99606 10016 41296 81735 10076 20058 49929 57027 75455 8/6// 22241 20607 333// 41010 80068
BBXX 63106 31124 99610 10017 46/// /1735 10066 49921 57026 22200
BBXX 63105 31124 99610 10017 47295 ///// 10071 20060 49920 57027 761// 22200
BBXX 62103 31124 99499 70029 46/98 /2626 10120 20110 40150 50001 22200 00119 10704 70019 333 90710 91135
BBXX 3FPR9 31124 99267 71155 41/// /3112 10160 20144 40160 54000 7//11 8//// 22274 04180 20202 33131 40303 50202 6//// 80150 ICE /////
BBXX 4XFB 31124 99365 10234 41498 52005 10160 20115 40070 57020 70310 858// 22254 00180 20202 322// 402// 5//// 80075
AAXX 31124 42182 31694 30000 10200 20130 40165 70410 81530 333 10233 59006 81640 83360
AAXX 31121 30337 41597 80000 11205 21224 39865 40349 53009 78582 889//
BBXX 63055 31124 99606 10016 47293 /1526 10067 20067 49917 57020 704// 22200 10709 70043
BBXX 63106 31124 99610 10017 46/// /1735 10066 49921 57026 22200
BBXX 63113 31124 99610 10017 46/// /1835 10068 20059 49924 57026 22200 10810 70050
BBXX 62301 31124 99524 70047 46/// /2419 10180 20176 40084 58011 22200 00092 10504 70022
BBXX 62103 31124 99499 70029 46/98 /2730 10120 20110 40144 58008 22200 00119 10704 70020 333 90710 91138
AAXX 3112/ 68902 46/// ///// 40131 57002
AAXX 31124 89065 46/// /9902 11017 21048 39681 49758 52010 91230
AAXX 31124 89065 46/// /9902 11017 21048 39681 49758 52010 91230
BBXX 62301 31124 99524 70047 46/// /2419 10100 20096 40084 58011 22200 00092 10504 70022
BBXX 2AUO5 31123 99606 10016 41296 81735 10076 20058 49929 57027 75455 8/6// 22241 20607 333// 41010 80068
BBXX 63106 31124 99610 10017 46/// /1735 10066 49921 57026 22200
BBXX 63105 31124 99610 10017 47295 ///// 10071 20060 49920 57027 761// 22200
BBXX 62103 31124 99499 70029 46/98 /2626 10120 20110 40150 50001 22200 00119 10704 70019 333 90710 91135
AAXX 31124 71612 17/// /0205 11051 21064 30034 40127 56013 60011 7//4/ 333 11073 21103 70010
AAXX 31124 71612 17/// /0205 11051 21064 30034 40127 56013 60011 7//4/ 333 11073 21103 70010
BBXX 42043 31121 99290 70949 46/// /1802 1//// 40171 91200 333 91203
BBXX 63055 31124 99606 10016 47293 /1526 10067 20067 49917 57020 704// 22200 10709 70043
BBXX 63106 31124 99610 10017 46/// /1735 10066 49921 57026 22200
BBXX 63113 31124 99610 10017 46/// /1835 10068 20059 49924 57026 22200 10810 70050
BBXX 62301 31124 99524 70047 46/// /2419 10180 20176 40084 58011 22200 00092 10504 70022
BBXX 62103 31124 99499 70029 46/98 /2730 10120 20110 40144 58008 22200 00119 10704 70020 333 90710 91138
BBXX 42043 31121 99290 70949 46/// /1802 1//// 40171 91200 333 91203
BBXX 52243 31121 99193 11666 46/// ///// 1//// 91200 22200 00268
BBXX 51174 31121 99142 51697 46/// ///// 1//// 91200 22200 00285
BBXX 51171 31121 99064 71623 46/// ///// 1//// 91200 22200 00276
BBXX 51170 31121 99168 71695 46/// ///// 1//// 91200 22200 00255
BBXX 51169 31121 99004 51600 46/// ///// 1//// 91200 22200 00252
AAXX 31124 89065 46/// /9901 10003 21038 39680 49756 5//// 91220
AAXX 31124 89262 46/// /1609 11006 21016 39729 49772 52021 91230
BBXX 62301 31124 99524 70047 46/// /2419 10100 20096 40084 58011 22200 00092 10504 70022
BBXX 2AUO5 31123 99606 10016 41296 81735 10076 20058 49929 57027 75455 8/6// 22241 20607 333// 41010 80068
BBXX 63106 31124 99610 10017 46/// /1735 10066 49921 57026 22200
BBXX 63105 31124 99610 10017 47295 ///// 10071 20060 49920 57027 761// 22200
BBXX 62103 31124 99499 70029 46/98 /2626 10120 20110 40150 50001 22200 00119 10704 70019 333 90710 91135
BBXX 51169 31121 99004 51600 46/// ///// 1//// 91200 22200 00252
BBXX 51174 31121 99142 51697 46/// ///// 1//// 91200 22200 00285
BBXX 52243 31121 99193 11666 46/// ///// 1//// 91200 22200 00268
BBXX 51170 31121 99168 71695 46/// ///// 1//// 91200 22200 00255
BBXX 51171 31121 99064 71623 46/// ///// 1//// 91200 22200 00276
BBXX 63055 31124 99606 10016 47293 /1526 10067 20067 49917 57020 704// 22200 10709 70043
BBXX 63106 31124 99610 10017 46/// /1735 10066 49921 57026 22200
BBXX 63113 31124 99610 10017 46/// /1835 10068 20059 49924 57026 22200 10810 70050
BBXX 62301 31124 99524 70047 46/// /2419 10180 20176 40084 58011 22200 00092 10504 70022
BBXX 62103 31124 99499 70029 46/98 /2730 10120 20110 40144 58008 22200 00119 10704 70020 333 90710 91138
AAXX 31121 78090 15/// /0000 10255 30232 40235 69901 91200 222// 00229
AAXX 31123 42182 31694 30000 10200 20130 40165 70410 81530 333 10233 59006 81640 83360
BBXX 62301 31124 99524 70047 46/// /2419 10100 20096 40084 58011 22200 00092 10504 70022
BBXX 2AUO5 31123 99606 10016 41296 81735 10076 20058 49929 57027 75455 8/6// 22241 20607 333// 41010 80068
BBXX 63106 31124 99610 10017 46/// /1735 10066 49921 57026 22200
BBXX 63105 31124 99610 10017 47295 ///// 10071 20060 49920 57027 761// 22200
BBXX 62103 31124 99499 70029 46/98 /2626 10120 20110 40150 50001 22200 00119 10704 70019 333 90710 91135
AAXX 31121 25703 41998 20000 11481 21511 30018 40342 58002 77671 80001
BBXX 63055 31124 99606 10016 47293 /1526 10067 20067 49917 57020 704// 22200 10709 70043
BBXX 63106 31124 99610 10017 46/// /1735 10066 49921 57026 22200
BBXX 63113 31124 99610 10017 46/// /1835 10068 20059 49924 57026 22200 10810 70050
BBXX 62301 31124 99524 70047 46/// /2419 10180 20176 40084 58011 22200 00092 10504 70022
BBXX 62103 31124 99499 70029 46/98 /2730 10120 20110 40144 58008 22200 00119 10704 70020 333 90710 91138
BBXX 62301 31124 99524 70047 46/// /2419 10100 20096 40084 58011 22200 00092 10504 70022
BBXX 2AUO5 31123 99606 10016 41296 81735 10076 20058 49929 57027 75455 8/6// 22241 20607 333// 41010 80068
BBXX 63106 31124 99610 10017 46/// /1735 10066 49921 57026 22200
BBXX 63105 31124 99610 10017 47295 ///// 10071 20060 49920 57027 761// 22200
BBXX 62103 31124 99499 70029 46/98 /2626 10120 20110 40150 50001 22200 00119 10704 70019 333 90710 91135
AAXX 31124 91723 NIL
AAXX 31124 91964 36/// /1106 10214 20199 40183 57013
BBXX 63055 31124 99606 10016 47293 /1526 10067 20067 49917 57020 704// 22200 10709 70043
BBXX 63106 31124 99610 10017 46/// /1735 10066 49921 57026 22200
BBXX 63113 31124 99610 10017 46/// /1835 10068 20059 49924 57026 22200 10810 70050
BBXX 62301 31124 99524 70047 46/// /2419 10180 20176 40084 58011 22200 00092 10504 70022
BBXX 62103 31124 99499 70029 46/98 /2730 10120 20110 40144 58008 22200 00119 10704 70020 333 90710 91138
AAXX 31124 71770 16/// /2306 10020 21081 39496 40279 53042 60001 333 10076 20005 70008
AAXX 31124 71770 16/// /2306 10020 21081 39496 40279 53042 60001 333 10076 20005 70008
AAXX 31124 48353 31957 00000 10272 20181 39857 40145 52011 70500 333 10306 58000
BBXX 62301 31124 99524 70047 46/// /2419 10100 20096 40084 58011 22200 00092 10504 70022
BBXX 2AUO5 31123 99606 10016 41296 81735 10076 20058 49929 57027 75455 8/6// 22241 20607 333// 41010 80068
BBXX 63106 31124 99610 10017 46/// /1735 10066 49921 57026 22200
BBXX 63105 31124 99610 10017 47295 ///// 10071 20060 49920 57027 761// 22200
BBXX 62103 31124 99499 70029 46/98 /2626 10120 20110 40150 50001 22200 00119 10704 70019 333 90710 91135
BBXX V7QN8 31123 99159 11194 41297 40516 10280 2025/ 40140 57/// 70322 84299 22243 04280 21004 305// 41004 5//// 6//// 80260 ICE /////
AAXX 31123 91554 31598 70000 10260 20238 40080 58001 70222 83206 333 10310 569/9 59013 83820 87678
AAXX 31123 91554 31598 70000 10260 20238 40080 58001 70222 83206 333 10310 569/9 59013 83820 87678
BBXX V7QN8 31123 99159 11194 41297 40516 10280 2025/ 40140 57/// 70322 84299 22243 04280 21004 305// 41004 5//// 6//// 80260 ICE /////
BBXX 63055 31124 99606 10016 47293 /1526 10067 20067 49917 57020 704// 22200 10709 70043
BBXX 63106 31124 99610 10017 46/// /1735 10066 49921 57026 22200
BBXX 63113 31124 99610 10017 46/// /1835 10068 20059 49924 57026 22200 10810 70050
BBXX 62301 31124 99524 70047 46/// /2419 10180 20176 40084 58011 22200 00092 10504 70022
BBXX 62103 31124 99499 70029 46/98 /2730 10120 20110 40144 58008 22200 00119 10704 70020 333 90710 91138
BBXX WDF6832 31123 99386 70434 41398 72518 10200 2017/ 40310 51020 70322 8713/ 22224 00200 20502 330// 41706 5//// 6//// 80180 ICE /////
BBXX WDF6832 31123 99386 70434 41398 72518 10200 2017/ 40310 51020 70322 8713/ 22224 00200 20502 330// 41706 5//// 6//// 80180 ICE /////
AAXX 31124 62600 31968 50616 10240 20010 39952 40165 70711 80005 56009 58013 85075
AAXX 31124 62640 32970 73605 10340 20150 39744 40089 80007 56009 58006 87275
AAXX 31124 62721 32570 51108 10295 20195 30081 40129 85500 56900 59019 85630
AAXX 31124 62650 31956 70215 10295 20015 39863 40129 70722 80007 56009 58029 87275
AAXX 31124 62660 32970 70401 10320 20120 39818 40109 80007 56009 58008 87275
AAXX 31124 62680 32970 70505 10360 20120 39722 40080 80007 56009 58007 87275
AAXX 31124 62721 31962 70907 10375 20115 39651 40073 70622 80007 56009 58013 87275
AAXX 31124 62730 32970 00000 10375 20035 39575 40120 59021
AAXX 31124 62733 32970 03603 10350 20160 39500 40078 59002
AAXX 31124 62750 32970 70408 10358 20143 39645 40059 80007 56009 58016 87275
AAXX 31124 62751 32970 70306 10 40073 80007 56009 58001 87275
AAXX 31124 62762 32970 70907 10375 20105 39593 40043 80007 56009 58005 87275
AAXX 31124 62770 31962 70904 10320 21060 39226 40089 70622 80007 56009 58005 87275
AAXX 31124 62771 32970 70305 10340 20080 39468 40084 80007 56009 58016 87275
AAXX 31124 62781 32970 70504 10345 20055 39477 40067 80007 56009 58017 87275
AAXX 31124 62790 32970 70216 10334 20016 39383 40082 80007 56009 58002 87275
AAXX 31124 62795 32970 71601 10375 20090 39579 40057 80007 56009 5801887275
AAXX 31124 62805 32970 71494 10367 20097 39547 40048 80007 56009 58017 87275
AAXX 31124 62809 32970 70503 10355 20061 39590 40081 80007 56009 58002 87275
BBXX 62301 31124 99524 70047 46/// /2419 10100 20096 40084 58011 22200 00092 10504 70022
BBXX 2AUO5 31123 99606 10016 41296 81735 10076 20058 49929 57027 75455 8/6// 22241 20607 333// 41010 80068
BBXX 63106 31124 99610 10017 46/// /1735 10066 49921 57026 22200
BBXX 63105 31124 99610 10017 47295 ///// 10071 20060 49920 57027 761// 22200
BBXX 62103 31124 99499 70029 46/98 /2626 10120 20110 40150 50001 22200 00119 10704 70019 333 90710 91135
AAXX 31124 82784 21598 73603 10256 20221 39672 40125 70222 87200 333 20217 59010 60054
AAXX 31124 89065 46/// /9901 10003 21038 39680 49756 5//// 91220
AAXX 31124 89262 46/// /1609 11006 21016 39729 49772 52021 91230
AAXX 31124 42182 31694 30000 10200 20130 40165 70410 81530 333 10233 59006 81640 83360
BBXX MINFR09 3112/ 99279 11429 46/// ///// 40211 52010
BBXX MINFR09 3112/ 99279 11429 46/// ///// 40211 52010
BBXX ZCDG7 31124 99333 71180 41298 40109 10123 20117 58010 70222 817// 22283 00160 20101 333// 40302 5//// 80120
BBXX ZCDG7 31124 99335 71181 41298 40109 10123 20117 40188 58010 70222 817// 22283 00160 20101 333// 40302 5//// 80120
BBXX ZCDG7 31124 99333 71180 41298 40109 10123 20117 58010 70222 817// 22283 00160 20101 333// 40302 5//// 80120
BBXX ZCDG7 31124 99335 71181 41298 40109 10123 20117 40188 58010 70222 817// 22283 00160 20101 333// 40302 5//// 80120
BBXX WC5932 31124 99437 70876 41/98 13117 00/// 11010 21161 40133 53023 700// 8//// 22244 0//// 2//02 3//// 4//// 5//// 6//// 81050 ICE /////
BBXX WC5932 31124 99437 70876 41/98 13117 00/// 11010 21161 40133 53023 700// 8//// 22244 0//// 2//02 3//// 4//// 5//// 6//// 81050 ICE /////
AAXX 31124 71023 160// /3206 11066 21077 39262 40035 51046 60021 333 11037 21070 70050
AAXX 31121 31987 32999 80105 11103 21223 39978 40250 52005 80001 333 11041
AAXX 31124 85442 12568 49902 10200 20134 40147 52012 60004 81504 333 20170 30/// 50600 55098 56407 70000 81626 83080
AAXX 31124 97372 32458 80803 10261 20245 39989 40110 52018 83271 333 10306 56000 58001 83816 86459
AAXX 31121 24136 11998 81704 11240 21272 30083 40190 54000 69952 77172 8802/ 333 11233
AAXX 31124 97230 01460 82401 10256 20246 30081 40088 52009 60021 70296 83972 333 10302 56000 57901 57801 59010 69987 81917 83815 87460 80981 80858
AAXX 31124 71463 46/// /2311 10056 20033 39856 40078 52017 6///1 333 10072 20050 7////
AAXX 31121 25138 11597 80000 11290 21313 30112 40247 52003 69950 77172 8652/ 333 11300 91102
AAXX 31121 32098 11598 63404 11119 21146 30224 40235 52003 60020 70282 82930 333 11057 91005 91106
AAXX 31124 48001 32330 32301 10160 20144 40170 83900 333 10225 56500 58016
AAXX 31124 48004 32520 10000 10197 20185 81100 333 10262 56900
AAXX 31124 48008 32540 31801 10190 20159 40164 86400 333 10278 56400 58010
AAXX 31124 48010 32510 10000 10225 20185 40156 81400 333 10265 56900 59008
AAXX 31124 48018 32950 00000 10226 20163 40161 333 10292 58008
AAXX 31124 48019 32950 00000 10208 20130 40153 333 10274 59008
AAXX 31124 48020 32440 10000 10215 20166 81400 333 10265 56500
AAXX 31124 48025 32456 50000 10238 20209 40155 82840 333 10280 56550 59002
AAXX 31124 48035 31456 30000 10218 20205 40134 70500 83800 333 10284 56100 59002
AAXX 31124 48037 32940 00000 10265 20179 40136 333 10300 59007
AAXX 31124 48042 32967 00000 10266 20211 40137 333 10292 59005
AAXX 31124 48045 31130 80000 10167 20154 74044 887// 333 10197 56999
AAXX 31124 48048 32940 00401 10273 20211 40136 333 10302 59005
AAXX 31124 48053 32950 00000 10270 20191 40131 333 10300 59006
AAXX 31124 48057 32456 30000 10214 20143 83800 333 10264 56600
AAXX 31124 48060 32410 10000 10226 20163 40146 81100 333 10280 56500 59006
AAXX 31124 48062 31558 22705 10270 20210 40132 70522 82500 333 10320 56900 58002
AAXX 31124 48071 32956 03202 10275 20233 40139 333 10298 58000
AAXX 31124 48077 32956 00000 10290 20196 40128 333 10335 58002
AAXX 31124 48078 32550 22701 10297 20219 40127 81201 333 10334 56909 59002
AAXX 31124 48080 31556 20000 10285 20230 40126 70511 81870 333 10355 56990 58002
AAXX 31124 48094 32956 00000 10280 20230 40127 333 10325 59002
AAXX 31124 48097 32456 33201 10280 20226 40141 82801 333 10345 56909 58013
AAXX 31124 48108 31595 40501 10285 20225 40136 70522 82205 333 10353 56109 58007
AAXX 31124 48109 32496 10402 10280 20250 40127 81500 333 10319 56500 58002
AAXX 31124 48110 31996 53202 10285 20232 40117 70522 80006 333 10325 56009 59001
AAXX 31124 48112 31597 80407 10285 20225 40109 84876 333 10315 56199 59003
AAXX 31121 25356 42999 20000 11443 21482 30115 40234 52007 80001 333 91000
AAXX 31124 96033 31450 70000 10274 20245 30097 40103 52007 70522 83928 333 10288 56000 57903 59009 81920 83617 80980
BBXX ONFP 31124 99042 10994 43797 51313 10300 2025/ 40110 54010 7//// 85134 22233 04280 20202 30505 40202 50202 6//// 80260 ICE /////
BBXX ONFP 31124 99042 10994 43797 51313 10300 2025/ 40110 54010 7//// 85134 22233 04280 20202 30505 40202 50202 6//// 80260 ICE /////
AAXX 31124 41246 32560 21008 10239 20120 30192 40196 82500 333 58014 82630
AAXX 31124 41246 32560 21008 10239 20120 30192 40196 82500 333 58014 82630
AAXX 31124 03770 16/// ///// 10127 20103 60001 91150
AAXX 31121 10113 01230 81706 10032 20025 30054 40073 57015 69911 72065 886// 333 32/// 55300 20137 30130 69917 88705
AAXX 31121 08540 32560 50101 10122 20093 30275 40345 58001 85501 333 85625 555 50004 60007
AAXX 31124 71363 16/// /0108 11376 21418 30064 40122 53012 60001 333 11310 21382 70000
AAXX 31124 71363 16/// /0108 11376 21418 30064 40122 53012 60001 333 11310 21382 70000
AAXX 31124 71332 16/// /0603 11293 21325 30117 40148 51016 60001 333 11284 21295 4/013 7//// 555 10010
AAXX 31124 71029 16/// /0705 11340 21376 30131 40173 52010 60001 333 11293 21344 4/029 7////
