BBXX 44172 06181 99445 70634 46/// ///// 1//// 91731 22200 00054 11002 21001 316// 41101 70008
BBXX 44097 06181 99410 70711 46/// ///// 1//// 91732 22200 00108 10503 20503 70017
BBXX ZMFR 06174 99428 51758 43/// /3419 10167 20157 40145 52008 22222 00156
BBXX 46218 06181 99345 71208 46/// ///// 1//// 91732 22200 00132 11709 20806 329// 41707 70047
AAXX 06184 40296 32960 00000 10146 20064 40159 54000 333 10234
AAXX 06184 40255 12960 00000 10068 20050 39452 40180 52011 60012 333 10116
AAXX 06184 40250 32960 00000 10078 20022 39366 40172 52015 333 10144
AAXX 06184 40260 32960 03006 10080 20047 39370 40164 52004 333 10120
AAXX 06184 40340 32960 00000 10140 20013 40150 52009 333 10210
AAXX 06184 81225 11570 30609 10305 20236 40108 69901 70181 83933 333 56299 59007 82825 81930
AAXX 06184 81200 12565 40508 10296 20239 40109 60001 84963 333 56299 59005 81920 83825
AAXX 06184 81202 12570 30613 10280 20240 40118 60001 83832 333 56299 59003 83825
AAXX 06184 81209 NIL
AAXX 06184 81251 NIL
AAXX 06184 81225 11570 30609 10305 20236 40108 69901 70181 83933 333 56299 59007 82825 81930
AAXX 06184 81200 12565 40508 10296 20239 40109 60001 84963 333 56299 59005 81920 83825
AAXX 06184 81202 12570 30613 10280 20240 40118 60001 83832 333 56299 59003 83825
AAXX 06184 81209 NIL
AAXX 06184 81251 NIL
BBXX WDD2876 06184 99452 70831 41/98 72518 10072 2//// 40000 53/// 70222 8//// 22243 00028 2//01 3//// 4//// 5//// 6//// 8//// ICE /////
BBXX C6DM2 06183 99055 11001 419// 00509 10270 20228 40120 51020 7//00 80/// 22271 0//// 2//// 3//// 4//// 5//// 6//// 80240 ICE /////
BBXX DBKV 06181 99276 70158 46/// /0907 10187 20154 40247 54000 22271 00191
BBXX DBBU 06181 99542 10137 46/// /2808 10049 20060 40115 52012 22222 00042
BBXX DBFR 06181 99539 10069 46/// /2911 10072 20040 40160 52008 22262 00074
BBXX DBBT 06181 99321 30170 46/// /1712 10205 20184 40160 57002 22273 00197
AAXX 06184 08495 12565 12514 10165 20116 30240 40248 58001 60002 81502 91750 333 10193 81627
AAXX 06184 89577 46/// /2904 11322 35816 4//// 5////
AAXX 06184 89578 46/// /0808 11308 36884 4//// 5////
AAXX 06184 91643 11599 53507 10275 20236 40102 51015 60001 70301 82206 333 568/9 82820 85080
AAXX 06184 89664 32861 82603 10014 21114 39690 49731 56005 85077 333 56044 85457 87260 99116 91117
AAXX 06184 89664 32861 82603 10014 21114 39690 49731 56005 85077 333 56044 85457 87260 99116 91117
AAXX 06184 40270 31956 00000 10066 20013 39263 40175 52008 70500 333 10113
AAXX 06184 89664 32861 82603 10014 21114 39690 49731 56005 85077 333 56044 85457 87260 99116 91117
BBXX 46249 06181 99338 71197 46/// ///// 1//// 91737 22200 00143 11706 20904 327// 41704 70028
BBXX 46248 06181 99461 71247 46/// ///// 1//// 91734 22200 00094 11509 21004 327// 41508 70046
BBXX 46244 06181 99409 71244 46/// ///// 1//// 91735 22200 00106 11510 21005 328// 41509 70051
BBXX 46240 06181 99366 71219 46/// ///// 1//// 91742 22200 00117 11405 21002 335// 41404 70024
BBXX 46237 06181 99378 71226 46/// ///// 1//// 91740 22200 00112 11708 20904 326// 41707 70041
BBXX 46212 06181 99408 71243 46/// ///// 1//// 91742 22200 00105 11509 21005 329// 41507 70044
BBXX 46217 06181 99342 71194 46/// ///// 1//// 91742 22200 00144 11505 20903 326// 41503 70023
BBXX 46211 06181 99469 71242 46/// ///// 1//// 91736 22200 00085 11508 21005 327// 41506 70039
BBXX 46214 06181 99379 71235 46/// ///// 1//// 91748 22200 00114 11510 20906 329// 41507 70048
AAXX 06184 61902 11584 11414 10258 20197 40126 69902 70181 81800 333 10291 59001 81824
BBXX 44098 06181 99428 70702 46/// ///// 1//// 91737 22200 00078 10402 20402 312// 41101 70009
AAXX 06184 78062 12669 33106 10216 20110 40223 60001 83500 333 59017 83640 90908
AAXX 06184 91334 32474 80610 10271 20250 30097 40100 55007 82171 333 56199 70272 555 90618
AAXX 06184 68392 16/// /1110 1//// 2//// 30204 4//// 53016 60012 333 1//// 2//// 91014 555 20012 69945
AAXX 06184 91334 32474 80610 10271 20250 30097 40100 55007 82171 333 56199 70272 555 90618
AAXX 06184 78062 12669 33106 10216 20110 40223 60001 83500 333 59017 83640 90908
AAXX 06184 78062 12669 33106 10216 20110 40223 60001 83500 333 59017 83640 90908
BBXX 41115 06181 99184 70673 46/// ///// 1//// 91735 22200 11305 20804 335// 41303 70024
BBXX 41114 06181 99276 70802 46/// ///// 1//// 91746 22200 00210 11301 21001 306// 41301 70007
BBXX 44060 06181 99413 70721 46/// ///08 10082 40087 91745 22200 00085 333 91210 555 11093 22098
BBXX 44022 06181 99409 70737 46/// ///05 10074 21001 40090 91745 22200 00055 333 91207 555 11062 22067
BBXX 51203 06181 99208 71570 46/// ///// 1//// 91743 22200 00244 10902 20902 326// 41301 70012
BBXX 52200 06181 99134 11448 46/// ///// 1//// 91745 22200 00285 10704 20704 309// 41101 70021
BBXX 51205 06181 99210 71564 46/// ///// 1//// 91748 22200 00239 11305 20803 336// 41304 70024
BBXX 46114 06181 99364 71222 46/// ///// 1//// 91734 22200 00110 11510 20905 327// 41509 70050
BBXX 46060 06181 99606 71468 46/// /2906 11032 49940 52011 91750 22200 00046 333 91207 555 11061 22063 31728 43011 61749 288059 296068 299077 296071 270042 211048 83009 91728
AAXX 06181 13579 11562 83304 10000 21021 39087 49923 52019 60182 77177 8552/ 333 10047 84723 85633 88550 99604
AAXX 06184 78954 12480 31013 10286 20220 30071 40135 60001 70100 83200 333 10290 20217 58004 83818
AAXX 06184 68994 11394 82929 10105 20103 39846 49874 51007 60242 72055 886// 222// 00063 333 10115 20097 91042 555 20242 60305 90987
AAXX 06184 78954 12480 31013 10286 20220 30071 40135 60001 70100 83200 333 10290 20217 58004 83818
AAXX 06184 78905 12478 51213 10271 20209 30130 40153 60001 70311 85200 333 10295 20223 58005 70016 85819
AAXX 06181 13586 11560 83005 10028 21004 39655 49945 52015 60122 76066 887// 333 10036 85720 88633
AAXX 06184 68906 32598 32818 10170 20123 30066 40130 56001 82202 222// 00135 333 10195 20167 91036 555 91013
AAXX 06184 78905 12478 51213 10271 20209 30130 40153 60001 70311 85200 333 10295 20223 58005 70016 85819
AAXX 06184 78905 12478 51213 10271 20209 30130 40153 60001 70311 85200 333 10295 20223 58005 70016 85819
AAXX 06184 78062 12669 33106 10216 20110 40223 60001 83500 333 59017 83640 90908
AAXX 06184 16597 11665 13112 10085 20040 39951 40039 53011 60022 70198 81500 333 10156 81640 91132 91531
AAXX 06184 61901 169// /1315 10175 20148 39663 40170 55002 60002 91750 333 10199 8//99 555 7/090
AAXX 06184 91772 11398 83008 10253 20241 4//// 60061 76186 8772/ 333 5679/ 83756 87630 88460
AAXX 06184 91776 NIL
AAXX 06184 91779 11398 83112 10260 20254 40068 53009 60271 72566 8671/ 333 5679/ 83707 86816 88460
AAXX 06184 91784 NIL
AAXX 06184 91792 11398 62406 10265 20257 40063 52013 69921 70282 82272 333 56699 82708 84816 86361
BBXX 41012 06181 99300 70805 46/// /2603 10171 40223 91750 22200 00215 11101 315// 41101 70005 333 91204 555 11029 22029 31735 42505 61749 259027 247030 255029 257027 255028 251028
BBXX 41001 06181 99347 70727 46/// ///// 10169 20070 40190 56028 91750 22200 00217 10803 70014
BBXX 41049 06181 99275 70630 46/// /3207 10212 20142 40187 56017 91750 555 11079 22084
BBXX 42020 06181 99270 70967 46/// /1411 10201 20161 40190 58011 91750 22200 00220 10602 20602 70008 333 91214 555 11114 22120 31749 41414 61749 142107 133075 130043 125043 132036 133029
BBXX 41044 06181 99217 70587 46/// /2502 10255 20194 40177 56016 91750 22200 00259 11206 20401 300// 41206 70031 333 91202 555 11015 22016 31657 41805 61749 251014 216011 216016 213015 194023 193027 82003 91654
BBXX 41048 06181 99320 70696 46/// /3303 10176 20060 40206 57015 91750 22200 00214 10804 20301 3//// 40804 70022 333 91204 555 11031 22032 31657 43206 61749 326031 308042 343045 343036 342040 335045 83505 91722
BBXX 41060 06181 99148 70510 46/// ///// 1//// 91750 22200 11405 70027
BBXX 42065 06181 99170 70817 46/// /0508 10253 20185 91750 22200 10704 20704 70018 333 91210 555 11081 22087 31713 40410 61749 046076 044077 044078 047081 036078 037079 80409 91708
BBXX 42001 06181 99259 70897 46/// /1806 10212 20108 40230 58006 91750 22200 00234 10301 20301 70004 333 91207 555 11065 22068 31738 41708 61749 175060 165059 166054 171053 168057 163061
BBXX 42012 06181 99301 70876 46/// /0000 10164 20150 40220 58010 91750 22200 00173 10401 20401 70004 333 91201 555 11005 22005 31657 43102 61749 339005 322007 310010 306011 303015 301019
BBXX 42035 06181 99292 70944 46/// /1803 10168 20164 40195 58006 91750 22200 00154 10502 20301 317// 40501 70008 333 91204 555 11036 22043 31650 41905 61749 182031 179033 191027 210024 205032 201040
BBXX 42058 06181 99149 70749 46/// /0809 10266 20216 40132 58018 91750 22200 00271 10604 20604 335// 41301 70019 333 91212 555 11100 22106 31654 40812 61749 080095 082097 078102 082101 073103 079104 80811 91713
BBXX 42060 06181 99163 70635 46/// /1007 10267 20207 40150 58024 91750 22200 00273 11003 20502 300// 41002 70015 333 91208 555 11071 22075 31717 41108 61749 101067 100067 101061 106063 111062 114058 81007 91743
BBXX 42036 06181 99285 70845 46/// /0602 10191 20129 40220 58015 91750 22200 00206 10401 70003 333 91203 555 11024 22024 31739 40603 61749 060023 085019 115013 117014 090016 096013
BBXX 42056 06181 99198 70849 46/// /0709 10238 20172 40193 58020 91750 22200 00265 10603 20603 309// 40801 70015 333 91211 555 11092 22097 31704 40612 61749 067087 059088 057090 056089 057091 055087 80610 91705
BBXX 42019 06181 99279 70954 46/// /2401 10214 20167 40192 58006 91750 22200 10602 20401 316// 40602 70010 333 91201 555 11008 22009 31659 42402 61749 247009 238010 240010 234012 252013 258016
BBXX 42059 06181 99151 70675 46/// /0906 10270 20213 40144 58022 91750 22200 00278 11404 20502 3//// 41403 70018 333 91207 555 11061 22064 31656 40807 61749 085058 083058 085057 084055 081058 082057 80806 91656
BBXX 44005 06181 99432 70691 46/// /1507 10015 21011 40103 56037 91750 22200 00076 11101 20401 3//// 41101 70007 333 91209 555 11074 22077 31736 41509 61749 150070 149067 152061 148067 150059 144057
BBXX 42040 06181 99292 70882 46/// /2903 10190 40222 58008 91750 22200 00218 10601 325// 40601 70003 333 91203 555 11027 22028 31651 42904 61749 292027 289024 288027 290028 288029 286029
BBXX 42003 06181 99260 70856 46/// /2602 1//// 91750 22200 10401 20301 336// 40401 70005 333 91204 555 11025 22027 31708 42304 61749 264025 229022 237025 228019 240024 256024 82303 91708
BBXX 42055 06181 99222 70940 46/// /1207 10236 20157 40195 58005 91750 22200 00246 10502 20502 70010 333 91209 555 11075 22079 31702 41309 61749 125072 123070 119069 125062 127071 128071 81308 91745
BBXX 41047 06181 99275 70715 46/// /3504 10214 40215 58019 91750 22200 00249 10904 20401 335// 40904 70019 333 91206 555 11044 22045 31746 43606 61749 350044 339040 341039 343041 340038 350044 83605 91747
BBXX 42002 06181 99258 70937 46/// /2009 10227 20134 40208 58006 91750 22200 00245 10502 20502 70008 333 91211 555 11094 22100 31721 41911 61749 195092 188087 187092 186087 188086 173087
BBXX 41043 06181 99211 70650 46/// /0309 10240 20216 40175 58021 91750 22200 00260 11206 20604 300// 41204 70029 333 91211 555 11100 22105 31721 40412 61749 029093 031093 028096 028098 027098 025094 80311 91709
BBXX 41036 06181 99342 70770 46/// ///// 10171 20084 40188 58023 91750 22200 00190 10302 70008
BBXX 44066 06181 99396 70726 46/// /2211 10110 20055 40106 58032 91750 22200 00126 10603 20603 70016 333 91213 555 11122 22129 31742 42313 61749 225113 227107 229109 232106 233101 229106
BBXX KCDK 06184 99272 70909 41498 41721 10211 2014/ 40225 54000 7//00 84100 22233 0//// 20201 31421 40302 50202 6//// 80167 ICE /////
BBXX WYR4481 06184 99450 70861 41/98 72218 10051 40028 70222 22213 20201
BBXX C6VG8 06184 99296 70765 41/// /2810 10180 2//// 40210 5//// 7//// 8//// 22284 00230 2//// 3//// 4//// 5//// 6//// 8//// ICE /////
BBXX WDJK 06184 99549 71406 41497 82842 10051 20031 49996 52040 76022 8824/ 22273 00050 20805 327// 41010 5//// 6//// 80042 ICE /////
BBXX WDE3569 06184 99434 70834 41/98 62016 10061 2//// 40007 54000 70222 84026 22243 0//// 20201 3//// 4//// 5//// 6//// 8//// ICE /////
BBXX PINX 06184 99209 70740 41598 30725 10240 2//// 40170 58010 70200 832/1 22273 00260 20102 336// 40805 5//// 6//// 8//// ICE /////
BBXX WDC6698 06184 99213 71579 43/// /1200 10256 20195 40190 5//// 7//// 8//// 222// 04242 2//// 3//// 4//// 5//// 6//// 8//// ICE /////
BBXX A8TG2 06183 99256 71526 41/// 30908 10250 20204 40220 54000 7//// 8//// 22263 00220 20801 305// 41005 5//// 80220
BBXX 44025 06181 99402 70732 46/// /2210 10089 20043 40094 56032 91750 22200 00092 10503 20503 70016 333 91212 555 11104 22110 31653 42212 61749 218096 219093 219097 222101 218096 218102
BBXX 41008 06181 99314 70809 46/// /2205 10141 20094 40216 58020 91750 22200 00152 11001 300// 41001 70004 333 91206 555 11050 22052 31745 42206 61749 217048 219045 222043 227045 231046 231044
BBXX 41004 06181 99325 70791 46/// /2405 10166 20066 91750 22200 00192 11101 20301 3//// 41101 70006 333 91206 555 11051 22053 31729 42407 61749 236050 237051 240051 238047 240047 243045
BBXX 44009 06181 99385 70747 46/// /2107 10089 40138 58023 91750 22200 00085 10602 20602 300// 41001 70011 333 91208 555 11070 22076 31700 42109 61749 209066 209073 205077 206076 205074 209076
BBXX 44014 06181 99366 70748 46/// ///10 1//// 40155 58025 91750 22200 00189 10603 20603 306// 41101 70014 333 91212 555 11098 22098
BBXX 44027 06181 99443 70673 46/// /0803 11041 21088 40127 57026 91750 22200 00071 11001 3//// 41001 70006 333 91205 555 11033 22034 31743 40905 61749 077030 097027 065025 062024 061028 076022
BBXX 41013 06181 99334 70777 46/// /2306 10173 20086 40193 58023 91750 22200 00183 11101 20401 311// 41101 70007 333 91208 555 11068 22071 31700 42309 61749 229066 227069 227071 224075 220079 218077
BBXX 44065 06181 99404 70737 46/// /1907 10085 20034 40095 56029 91750 22200 00083 10502 20502 304// 41101 70011 333 91208 555 11074 22079 31707 42009 61749 193068 196068 198073 198079 198082 203077 82009 91713
BBXX 44020 06181 99414 70702 46/// /1906 10069 20035 40094 58040 91750 22200 00048 10301 20301 70004 333 91206 555 11060 22063 31651 42508 61749 199055 248055 249059 249062 248065 244066
BBXX 46014 06181 99394 71240 46/// /3411 10103 40250 53015 91750 22200 00108 11610 20804 3//// 41609 70051 333 91214 555 11122 22130 31733 43415 61749 341115 339116 341116 340114 342112 343113
BBXX 46011 06181 99350 71210 46/// /3211 10117 40207 53015 91750 22200 00127 11308 20804 330// 41307 70040 333 91214 555 11119 22126 31739 43214 61749 323113 321114 321112 324116 323113 322112
BBXX 46047 06181 99324 71195 46/// /3210 10135 40184 53021 91750 22200 00135 11609 20805 330// 41607 70044 333 91211 555 11102 22108 31711 43112 61749 321094 326090 324090 318099 319096 319097
BBXX 46086 06181 99325 71180 46/// /3103 10152 40173 51020 91750 22200 00151 11606 20401 329// 41606 70032 333 91204 555 11030 22033 31655 43004 61749 307027 305024 322025 323025 310027 303025
BBXX 46027 06181 99419 71244 46/// /0301 10080 40269 53012 91750 22200 00096 11508 20401 327// 41508 70040 333 91203 555 11014 22015 31749 40905 61749 031015 020019 027017 008019 352021 023020
BBXX 46088 06181 99483 71232 46/// /1306 10058 40251 56006 91750 22200 00077 11301 325// 41301 70005 333 91207 555 11065 22068 31745 41307 61749 134062 134059 134055 130054 130051 124050
BBXX 46050 06181 99442 71246 46/// /2101 10082 40275 52005 91750 22200 00093 11508 20301 328// 41508 70042 333 91203 555 11012 22013 31744 41803 61749 210012 228013 239009 236010 167005 208004
BBXX 46069 06181 99337 71202 46/// /3312 10126 40186 53014 91750 22200 00137 11509 20606 329// 41507 70045 333 91215 555 11127 22135 31739 43216 61749 325118 325116 323118 325111 327114 325118
BBXX 46013 06181 99382 71233 46/// /3212 10103 40225 53014 91750 22200 00107 11409 20605 3//// 41408 70045 333 91215 555 11132 22140 31739 43316 61749 322124 323132 326124 325123 326123 323127
BBXX 46012 06181 99374 71229 46/// /3211 10106 40232 53016 91750 22200 00115 11610 20605 331// 41609 70051 333 91213 555 11113 22120 31656 43114 61749 322108 322113 317110 315109 323110 313106
BBXX 46087 06181 99485 71247 46/// /1405 10070 20035 40250 56003 91750 22200 00083 11406 20501 326// 41406 70031 333 91208 555 11054 22056 31657 41408 61749 137051 133049 135043 131050 146056 145055
BBXX 46029 06181 99461 71245 46/// /2006 10079 20035 40261 56004 91750 22200 00088 11508 20502 328// 41508 70041 333 91207 555 11060 22063 31740 42108 61749 196058 201059 199060 204053 182052 192053
BBXX 46054 06181 99342 71204 46/// /3214 10120 40185 51021 91750 22200 00126 11709 20805 300// 41708 70045 333 91216 555 11148 22158 31737 43217 61749 316139 319134 321134 320130 324134 323130
BBXX 46028 06181 99357 71219 46/// /3212 10112 40211 51017 91750 22200 00129 11709 20805 330// 41707 70044 333 91215 555 11128 22136 31702 43215 61749 323120 326114 320113 320115 321122 327120
BBXX 46025 06181 99337 71191 46/// /3505 10150 20127 40166 52018 91750 22200 00150 11605 20401 328// 41605 70024 333 91206 555 11052 22055 31744 43406 61749 349049 352042 353039 352045 001047 355047
BBXX 32012 06181 99197 50856 46/// ///// 1//// 91750 22200 11603 70017
BBXX 46002 06181 99426 71305 46/// ///// 10112 40278 56003 91750 22200 00117 11408 70038
BBXX 46006 06181 99408 71375 46/// /1907 10126 40278 53006 91750 22200 00117 11206 20602 3//// 41205 70030 333 91208 555 11071 22078 31656 41908 61749 193066 192065 192067 191066 194065 193067
BBXX 46084 06181 99566 71361 46/// ///// 10040 20030 40019 56029 91750 22200 00069 11110 70051
BBXX 46078 06181 99561 71526 46/// /1608 11024 21096 40021 91750 333 91210 555 11081 22087
BBXX 46075 06181 99539 71608 46/// /0514 11016 21042 49916 56062 91750 22200 00034 11205 20404 300// 41204 70026 333 91218 555 11150 22159 31650 40518 61749 053142 052138 050137 051138 053136 050135 80515 91749
BBXX 46005 06181 99461 71310 46/// ///10 10102 40205 53017 91750 22200 00097 11107 20805 3//// 41105 70035 333 91213 555 11109 22117
BBXX 46059 06181 99380 71300 46/// /3607 10118 40312 51013 91750 22200 00136 11407 20602 3//// 41407 70036 333 91208 555 11074 22077 31651 43409 61749 004070 001072 001069 357074 353069 000067
BBXX 46080 06181 99580 71500 46/// /2909 11050 21115 40026 55000 91750 22200 00040 11107 20805 3//// 41105 70036 333 91212 555 11098 22102 31722 43014 61749 287093 294098 291109 286100 286096 290103 82912 91725
BBXX 46070 06181 99551 11753 46/// /3106 11047 21081 40059 57005 91750 22200 00028 11203 20501 3//// 41202 70013 333 91210 555 11062 22065 31651 43210 61749 315058 317047 329043 344036 326041 321074 83209 91653
BBXX 46105 06181 99590 71522 46/// ///// 1//// 91750 22200 10705 70024
BBXX 46078 06181 99561 71526 46/// /1608 11024 21096 40021 91750 333 91210 555 11081 22087
BBXX LAYG5 06184 99454 11639 41597 80918 10030 21050 40010 51020 70322 885// 22213 00086 20804 327// 41404 80000
BBXX ZCBH7 06184 99104 11100 41596 40130 10261 20248 40161 51031 70322 8/272 2229/ 04261 20404 301// 40305 5//// 80252
BBXX C6FY8 06183 99414 11464 41898 62824 10040 2113/ 40170 5//// 70222 862// 22211 0//// 20703 32728 40706 51208 6//// 81010 ICE /////
BBXX PCSV 06183 99141 50191 41598 50813 10242 20208 40161 56/// 70322 8482/ 22273 04233 20501 320// 40501 80218
BBXX DBBT 06181 99321 30170 46/// /1712 10205 20184 40160 57002 22273 00197
BBXX DBKV 06181 99276 70158 46/// /0907 10187 20154 40247 54000 22271 00191
BBXX A8QM9 06184 99263 70783 41698 10000 10210 20164 40230 54000 70211 81145 22200 2//// 30000 80180
BBXX WYR4481 06184 99450 70861 41/98 72218 10051 40028 70222 22213 20201
BBXX WDD2876 06184 99452 70831 41/98 72518 10072 2//// 40000 53/// 70222 8//// 22243 00028 2//01 3//// 4//// 5//// 6//// 8//// ICE /////
BBXX KSPH 06183 99360 10159 43/// ///// 1//// 2//// 4//// 5//// 7//// 8//// 22211 0//// 2//// 3//// 4//// 5//// 6//// ICE /////
BBXX DBFR 06181 99539 10069 46/// /2911 10072 20040 40160 52008 22262 00074
BBXX DBBU 06181 99542 10137 46/// /2808 10049 20060 40115 52012 22222 00042
BBXX A8SE8 06184 99349 70371 41598 51813 10200 20130 40240 55010 7//22 83372 22214 00215 29901 323// 41004 80160
BBXX V2NA1 06184 99361 70477 41496 72233 10225 20180 40120 55040 76366 877/8 22264 04200 21408 80195
BBXX AA8IG4 06184 99133 70661 41598 10712 10285 20211 40120 58010 70200 81100 22223 04270 20402 306// 40602 80235
BBXX DGAF 06183 99264 71145 41297 73406 10185 20162 40180 51030 70311 8/779 22274 00180 20000 328// 41204 80170
BBXX 3FSB4 06184 99264 70745 43497 43605 10210 2015/ 40230 5//// 7//// 84198 22244 00230 20305 3//// 4//// 5//// 6//// 80170 ICE /////
BBXX WSRL 06183 99382 71413 41498 21815 10155 2013/ 40260 54000 70100 8/040 22215 0//// 2//// 32729 40905 51004 6//// 80140 ICE 0/0//
BBXX C6LU3 06183 99186 70674 41397 83615 10250 2024/ 40185 50020 71552 876// 22254 20504 3//// 80240
BBXX WSLH 06184 99388 71354 41498 30505 10133 2004/ 40300 5//// 70100 83//8 22215 00122 20101 328// 40802 5//// 6//// 80089 ICE /////
BBXX PINX 06184 99209 70740 41598 30725 10240 2//// 40170 58010 70200 832/1 22273 00260 20102 336// 40805 5//// 6//// 8//// ICE /////
BBXX 44022 06181 99409 70737 46/// ///05 10074 21001 40090 91745 22200 00055 333 91207 555 11062 22067
BBXX 41115 06181 99184 70673 46/// ///// 1//// 91735 22200 11305 20804 335// 41303 70024
BBXX 41114 06181 99276 70802 46/// ///// 1//// 91746 22200 00210 11301 21001 306// 41301 70007
BBXX 44060 06181 99413 70721 46/// ///08 10082 40087 91745 22200 00085 333 91210 555 11093 22098
BBXX 51205 06181 99210 71564 46/// ///// 1//// 91748 22200 00239 11305 20803 336// 41304 70024
BBXX 46060 06181 99606 71468 46/// /2906 11032 49940 52011 91750 22200 00046 333 91207 555 11061 22063 31728 43011 61749 288059 296068 299077 296071 270042 211048 83009 91728
BBXX 46114 06181 99364 71222 46/// ///// 1//// 91734 22200 00110 11510 20905 327// 41509 70050
BBXX 44098 06181 99428 70702 46/// ///// 1//// 91737 22200 00078 10402 20402 312// 41101 70009
BBXX 46214 06181 99379 71235 46/// ///// 1//// 91748 22200 00114 11510 20906 329// 41507 70048
BBXX 46211 06181 99469 71242 46/// ///// 1//// 91736 22200 00085 11508 21005 327// 41506 70039
BBXX 46240 06181 99366 71219 46/// ///// 1//// 91742 22200 00117 11405 21002 335// 41404 70024
BBXX 46237 06181 99378 71226 46/// ///// 1//// 91740 22200 00112 11708 20904 326// 41707 70041
BBXX 46217 06181 99342 71194 46/// ///// 1//// 91742 22200 00144 11505 20903 326// 41503 70023
BBXX 46212 06181 99408 71243 46/// ///// 1//// 91742 22200 00105 11509 21005 329// 41507 70044
BBXX 46244 06181 99409 71244 46/// ///// 1//// 91735 22200 00106 11510 21005 328// 41509 70051
BBXX 46248 06181 99461 71247 46/// ///// 1//// 91734 22200 00094 11509 21004 327// 41508 70046
BBXX 46249 06181 99338 71197 46/// ///// 1//// 91737 22200 00143 11706 20904 327// 41704 70028
BBXX WDJK 06184 99549 71406 41497 82842 10051 20031 49996 52040 76022 8824/ 22273 00050 20805 327// 41010 5//// 6//// 80042 ICE /////
BBXX VSXC9 06184 99282 70632 41498 53020 10210 20164 40200 54000 70211 857// 22264 20301 327// 40506 80180
BBXX A8UT7 06184 99385 70711 41698 52012 10148 20084 40111 57015 70200 81184 22213 20603 80113
BBXX SHIP 06183 99385 71468 41/97 72720 10150 20133 40160 52010 74642 87/7/ 22225 00135 20404 325// 41205 80140
BBXX V7OQ7 06184 99367 70564 41/95 63240 10220 2019/ 40010 56040 76462 8/2// 22263 00190 20511 33027 41012 51010 6//// 80200 ICE /////
BBXX KCDK 06184 99272 70909 41498 41721 10211 2014/ 40225 54000 7//00 84100 22233 0//// 20201 31421 40302 50202 6//// 80167 ICE /////
BBXX DMDZ 06184 99279 70401 41298 11112 10223 20175 40225 57025 70200 81100 22223 00230 2//// 331// 40705 5//// 80191
AAXX 06184 89054 11150 83227 10016 20011 49916 57030 69941 71076 886// 333 56799 88703 91046 96462 96472
AAXX 06184 89056 11225 83423 10009 20005 49898 57053 69913 76772 8552/ 333 56889 85606 88520 93100
AAXX 06184 89057 11220 82817 10001 20005 49900 57050 60013 76922 8572/ 333 56669 85705 88515
AAXX 06184 89058 11457 83221 10016 20003 49895 49916 57047 69901 77000 8172/
AAXX 06184 89059 12460 82115 10004 21046 49899 57033 60003 886// 333 73099 88713
AAXX 06184 89251 41256 82127 10013 20003 48999 57051 76872 8672/
BBXX DNCQ 06183 99125 70945 41998 03614 10250 20207 40135 58010 70200 80000 22233 04230 20302 3//// 4//// 5//// 80220
AAXX 06184 89009 41361 40309 11254 36787 53001 77671 84600 333 84707
BBXX A8TG2 06183 99256 71526 41/// 30908 10250 20204 40220 54000 7//// 8//// 22263 00220 20801 305// 41005 5//// 80220
AAXX 06184 78855 12580 30910 10281 20232 30146 40150 60001 83201 333 10285 20/// 58006 70129 83822
AAXX 06184 78862 11578 30910 10271 20189 30129 40152 60001 70500 83102 333 10284 20228 58009 83824
AAXX 06184 077
AAXX 06184 TAF TKPN 041000Z 0412/0512 09010KT 9999 SCT020 SCT040 TEMPO 0416/0512 SHRA PROB30 TEMPO 0500/0510 00000KT
AAXX 06184 TAF TQPF 041000Z 0412/0512 08010KT 9999 SCT020 SCT040 TEMPO 0414/0512 SHRA PROB30 TEMPO 0500/0510 00000KT
AAXX 06184 TAF TUPJ 041000Z 0412/0512 05012KT 9999 SCT018 SCT035 TEMPO 0412/0512 SHRA PROB30 TEMPO 0412/0422 VRB02KT 5000 +SHRA FEW015CB BKN018
AAXX 06184 032200Z 0400/0424 09014KT 9999 SCT022 SCT038 BKN270 TEMPO 0400/0424 4000 SHRA BKN013 BKN036 BKN260
AAXX 06184 BKN038 SCT270 TEMPO 0412/0512 SHRA BKN015 PROB40 TEMPO 0418/0512 5000 SHRA BKN014 BKN036 PROB30 0420/0512 4000 TSRA FEW012CB
AAXX 06184 918 4000 TSRA FEW012CB
AAXX 06184 N015 BKN036 PROB40 TEMPO 0704/0724 3000 +TSRA SCT011CB BKN012 BECMG 0712/0714 14008KT
AAXX 06184 21/2712 07017G28KT 5000 SHRA BKN015 BKN036 PROB TEMPO 2700/2712 4000 TSRA FEW013CB
AAXX 06184 PROB30 TEMPO 0800/0806 4000 TSRA FEW012CB PROB40 TEMPO 0800/0824 2000 +SHRA/TSRA SCT010CB BKN012 BKN250
AAXX 06181 76055 32980 00302 10206 20020 30135 40154 52014 91740 333 10273 20088 30/// 59044
AAXX 06181 76061 32981 11003 10170 20092 30110 40185 52020 80001 91740 333 10176 20080 30/// 56006 59046 81072
AAXX 06181 76122 32970 10000 10168 21041 38545 40216 52003 80002 91750 333 10170 21042 30/// 56009 59080
AAXX 06181 76220 32958 20000 10056 21052 38178 40313 52003 80004 91740 333 10056 21094 30/// 56007 59038
AAXX 06181 76225 32960 01101 10152 21037 38637 40180 50002 91739 333 10152 21037 30/// 59085
AAXX 06181 76256 32980 00000 10200 20031 30170 40184 52022 91745 333 10219 20095 30/// 59005
AAXX 06181 76342 32962 00101 10222 20031 39498 40217 57004 91750 333 10227 20080 30/// 59085
AAXX 06181 76382 32980 01103 10170 20067 38929 40205 52006 91750 333 10176 20048 30/// 59056
AAXX 06181 76390 32970 02804 10153 21011 38244 40209 57002 91730 333 10165 20023 30/// 59047
AAXX 06181 76423 32975 32001 10138 20020 38174 40233 58002 80004 91740 333 10153 20005 30/// 56009 59021 83067
AAXX 06181 76458 31466 31302 10227 20181 30169 40174 58001 70144 82404 91745 333 10246 20139 30/// 56206 58001 82619 81079
AAXX 06181 76491 32960 01401 10210 20159 39812 40206 52002 91750 333 10216 20088 31/// 59075
AAXX 06181 76499 32560 41503 10230 20174 30159 40181 57008 84200 91745 333 10231 20136 32/// 563// 59074 84821
AAXX 06181 76525 32980 32704 10084 21020 37482 40198 52005 80001 91740 333 10086 20041 30/// 56//1 59009 83080
AAXX 06181 76539 31962 20000 10150 20072 38177 40219 54000 70544 80005 91745 333 10165 20023 30/// 56005 59027 82070
AAXX 06181 76543 32975 13602 10232 20158 30172 40205 58012 80005 91739 333 10233 20156 31/// 56005 59067
AAXX 06181 76548 11475 70802 10220 20175 30197 40207 58014 69941 70252 8513/ 91738 333 10224 20168 31/// 56130 59061 85612
AAXX 06181 76556 32970 61201 10240 20082 39138 40175 50010 80006 91730 333 10240 20108 30/// 56006 59005 86270 99021
AAXX 06181 76571 31965 40000 10164 20041 38188 40225 56001 705// 80004 91748 333 10170 20050 30/// 56005 59005
AAXX 06181 76577 32570 72303 10157 20119 38058 40201 50005 87403 91740 333 10164 20055 30/// 56105 59013 81625 86082
AAXX 06181 76581 32975 62502 10181 20128 39087 40212 57004 84036 91750 333 10188 20087 30/// 56033 59053 84360
AAXX 06181 76612 32962 61701 10170 20034 38499 40213 58002 80005 91750 333 10181 20060 30/// 56006 59007 86272
AAXX 06181 76625 32750 33203 10171 20053 38162 40188 52004 83030 91740 333 10173 20089 30/// 56060 59013 83357
AAXX 06181 76632 31550 52303 10128 20065 37639 40172 57003 70511 85800 91745 333 10136 20052 30/// 56600 59010 85726
AAXX 06181 76634 31570 63505 10164 20049 37858 40213 57001 70511 85204 91750 333 30/// 565/5 59023 85827
AAXX 06181 76644 32460 31102 10271 20115 30184 40197 57027 81101 91750 333 10277 20135 30/// 563/9 59047 81810
AAXX 06181 76665 31562 21603 10209 20078 38130 40175 57007 70310 82200 91745 333 10220 20065 30/// 56100 57811 59015 82824
AAXX 06181 76695 32960 00303 10272 20155 30178 40184 57017 91750 333 10275 20127 30/// 59046
AAXX 06181 76698 32560 20401 10275 20195 30193 40205 57019 82200 91750 333 10291 20145 30/// 56100 59039 82820
AAXX 06181 76750 32560 10903 10279 20150 30186 40197 57017 81100 91750 333 10279 20141 30/// 56100 59045 81820
AAXX 06181 76762 32904 33302 10260 20209 38772 40168 57011 80001 91739 333 10264 20108 30/// 56006 59017 83070
AAXX 06181 76775 31970 31801 10227 20062 38532 40199 57017 70300 80002 91730 333 10229 20060 30/// 56002 59026
AAXX 06181 76805 32570 61701 10293 20227 30141 40146 58009 82109 91750 333 10315 20218 30/// 561/5 59011 82830 82163 82064
AAXX 06181 76833 32970 03608 10286 20157 30147 40149 57001 91745 333 10286 20208 30/// 59026 92000
AAXX 06181 76840 32950 00304 10296 20197 30090 40146 57014 80000 91745 333 10305 20195 30/// 56000 58072 80000
AAXX 06181 76843 32965 00202 10230 20132 39512 40163 57002 91737 333 10244 20135 30/// 59004
AAXX 06181 76845 32960 01702 10210 20140 37953 40218 56017 91747 333 10218 20038 30/// 59015
AAXX 06181 76848 32970 00701 10208 20101 38390 40128 57013 91750 333 10208 20103 30/// 59031
AAXX 06181 76160 32962 30201 10196 21022 39926 40177 52019 80006 91730 333 10196 20090 30/// 56009 59019 83070
AAXX 06181 76243 32973 00601 10196 20069 39875 40177 57009 91735 333 10208 20040 30/// 59108
AAXX 06181 76323 32970 03001 10182 21022 38296 40287 52008 91740 333 10182 21022 30/// 59058
AAXX 06181 76405 32980 60000 10239 20140 30152 40174 57005 80005 91750 333 10240 20118 30/// 56004 59014 86080
AAXX 06181 76412 32966 02201 10220 20163 30144 40189 57002 91740 333 10230 20120 30/// 58000
AAXX 06181 76647 32670 20903 10282 20126 30179 40209 57020 81101 91750 333 10286 20130 30/// 54305 5630/ 59052 81850
AAXX 06181 76855 32580 71301 10288 20221 30085 40135 51008 82270 91740 333 10295 20216 30/// 56990 59015 82820 85360 92000
AAXX 06184 89009 41361 40309 11254 36787 53001 77671 84600 333 84707
AAXX 06184 78862 11578 30910 10271 20189 30129 40152 60001 70500 83102 333 10284 20228 58009 83824
AAXX 06184 077
AAXX 06184 TAF TKPN 041000Z 0412/0512 09010KT 9999 SCT020 SCT040 TEMPO 0416/0512 SHRA PROB30 TEMPO 0500/0510 00000KT
AAXX 06184 TAF TQPF 041000Z 0412/0512 08010KT 9999 SCT020 SCT040 TEMPO 0414/0512 SHRA PROB30 TEMPO 0500/0510 00000KT
AAXX 06184 TAF TUPJ 041000Z 0412/0512 05012KT 9999 SCT018 SCT035 TEMPO 0412/0512 SHRA PROB30 TEMPO 0412/0422 VRB02KT 5000 +SHRA FEW015CB BKN018
AAXX 06184 032200Z 0400/0424 09014KT 9999 SCT022 SCT038 BKN270 TEMPO 0400/0424 4000 SHRA BKN013 BKN036 BKN260
AAXX 06184 BKN038 SCT270 TEMPO 0412/0512 SHRA BKN015 PROB40 TEMPO 0418/0512 5000 SHRA BKN014 BKN036 PROB30 0420/0512 4000 TSRA FEW012CB
AAXX 06184 918 4000 TSRA FEW012CB
AAXX 06184 N015 BKN036 PROB40 TEMPO 0704/0724 3000 +TSRA SCT011CB BKN012 BECMG 0712/0714 14008KT
AAXX 06184 21/2712 07017G28KT 5000 SHRA BKN015 BKN036 PROB TEMPO 2700/2712 4000 TSRA FEW013CB
AAXX 06184 PROB30 TEMPO 0800/0806 4000 TSRA FEW012CB PROB40 TEMPO 0800/0824 2000 +SHRA/TSRA SCT010CB BKN012 BKN250
AAXX 06181 76055 32980 00302 10206 20020 30135 40154 52014 91740 333 10273 20088 30/// 59044
AAXX 06181 76061 32981 11003 10170 20092 30110 40185 52020 80001 91740 333 10176 20080 30/// 56006 59046 81072
AAXX 06181 76122 32970 10000 10168 21041 38545 40216 52003 80002 91750 333 10170 21042 30/// 56009 59080
AAXX 06181 76220 32958 20000 10056 21052 38178 40313 52003 80004 91740 333 10056 21094 30/// 56007 59038
AAXX 06181 76225 32960 01101 10152 21037 38637 40180 50002 91739 333 10152 21037 30/// 59085
AAXX 06181 76256 32980 00000 10200 20031 30170 40184 52022 91745 333 10219 20095 30/// 59005
AAXX 06181 76342 32962 00101 10222 20031 39498 40217 57004 91750 333 10227 20080 30/// 59085
AAXX 06181 76382 32980 01103 10170 20067 38929 40205 52006 91750 333 10176 20048 30/// 59056
AAXX 06181 76390 32970 02804 10153 21011 38244 40209 57002 91730 333 10165 20023 30/// 59047
AAXX 06181 76423 32975 32001 10138 20020 38174 40233 58002 80004 91740 333 10153 20005 30/// 56009 59021 83067
AAXX 06181 76458 31466 31302 10227 20181 30169 40174 58001 70144 82404 91745 333 10246 20139 30/// 56206 58001 82619 81079
AAXX 06181 76491 32960 01401 10210 20159 39812 40206 52002 91750 333 10216 20088 31/// 59075
AAXX 06181 76499 32560 41503 10230 20174 30159 40181 57008 84200 91745 333 10231 20136 32/// 563// 59074 84821
AAXX 06181 76525 32980 32704 10084 21020 37482 40198 52005 80001 91740 333 10086 20041 30/// 56//1 59009 83080
AAXX 06181 76539 31962 20000 10150 20072 38177 40219 54000 70544 80005 91745 333 10165 20023 30/// 56005 59027 82070
AAXX 06181 76543 32975 13602 10232 20158 30172 40205 58012 80005 91739 333 10233 20156 31/// 56005 59067
AAXX 06181 76548 11475 70802 10220 20175 30197 40207 58014 69941 70252 8513/ 91738 333 10224 20168 31/// 56130 59061 85612
AAXX 06181 76556 32970 61201 10240 20082 39138 40175 50010 80006 91730 333 10240 20108 30/// 56006 59005 86270 99021
AAXX 06181 76571 31965 40000 10164 20041 38188 40225 56001 705// 80004 91748 333 10170 20050 30/// 56005 59005
AAXX 06181 76577 32570 72303 10157 20119 38058 40201 50005 87403 91740 333 10164 20055 30/// 56105 59013 81625 86082
AAXX 06181 76581 32975 62502 10181 20128 39087 40212 57004 84036 91750 333 10188 20087 30/// 56033 59053 84360
AAXX 06181 76612 32962 61701 10170 20034 38499 40213 58002 80005 91750 333 10181 20060 30/// 56006 59007 86272
AAXX 06181 76625 32750 33203 10171 20053 38162 40188 52004 83030 91740 333 10173 20089 30/// 56060 59013 83357
AAXX 06181 76632 31550 52303 10128 20065 37639 40172 57003 70511 85800 91745 333 10136 20052 30/// 56600 59010 85726
AAXX 06181 76634 31570 63505 10164 20049 37858 40213 57001 70511 85204 91750 333 30/// 565/5 59023 85827
AAXX 06181 76644 32460 31102 10271 20115 30184 40197 57027 81101 91750 333 10277 20135 30/// 563/9 59047 81810
AAXX 06181 76665 31562 21603 10209 20078 38130 40175 57007 70310 82200 91745 333 10220 20065 30/// 56100 57811 59015 82824
AAXX 06181 76695 32960 00303 10272 20155 30178 40184 57017 91750 333 10275 20127 30/// 59046
AAXX 06181 76698 32560 20401 10275 20195 30193 40205 57019 82200 91750 333 10291 20145 30/// 56100 59039 82820
AAXX 06181 76750 32560 10903 10279 20150 30186 40197 57017 81100 91750 333 10279 20141 30/// 56100 59045 81820
AAXX 06181 76762 32904 33302 10260 20209 38772 40168 57011 80001 91739 333 10264 20108 30/// 56006 59017 83070
AAXX 06181 76775 31970 31801 10227 20062 38532 40199 57017 70300 80002 91730 333 10229 20060 30/// 56002 59026
AAXX 06181 76805 32570 61701 10293 20227 30141 40146 58009 82109 91750 333 10315 20218 30/// 561/5 59011 82830 82163 82064
AAXX 06181 76833 32970 03608 10286 20157 30147 40149 57001 91745 333 10286 20208 30/// 59026 92000
AAXX 06181 76840 32950 00304 10296 20197 30090 40146 57014 80000 91745 333 10305 20195 30/// 56000 58072 80000
AAXX 06181 76843 32965 00202 10230 20132 39512 40163 57002 91737 333 10244 20135 30/// 59004
AAXX 06181 76845 32960 01702 10210 20140 37953 40218 56017 91747 333 10218 20038 30/// 59015
AAXX 06181 76848 32970 00701 10208 20101 38390 40128 57013 91750 333 10208 20103 30/// 59031
AAXX 06181 76160 32962 30201 10196 21022 39926 40177 52019 80006 91730 333 10196 20090 30/// 56009 59019 83070
AAXX 06181 76243 32973 00601 10196 20069 39875 40177 57009 91735 333 10208 20040 30/// 59108
AAXX 06181 76323 32970 03001 10182 21022 38296 40287 52008 91740 333 10182 21022 30/// 59058
AAXX 06181 76405 32980 60000 10239 20140 30152 40174 57005 80005 91750 333 10240 20118 30/// 56004 59014 86080
AAXX 06181 76412 32966 02201 10220 20163 30144 40189 57002 91740 333 10230 20120 30/// 58000
AAXX 06181 76647 32670 20903 10282 20126 30179 40209 57020 81101 91750 333 10286 20130 30/// 54305 5630/ 59052 81850
AAXX 06181 76855 32580 71301 10288 20221 30085 40135 51008 82270 91740 333 10295 20216 30/// 56990 59015 82820 85360 92000
AAXX 06181 76055 32980 00302 10206 20020 30135 40154 52014 91740 33310273 20088 30/// 59044
AAXX 06181 76061 32981 11003 10170 20092 30110 40185 52020 80001 91740333 10176 20080 30/// 56006 59046 81072
AAXX 06181 76122 32970 10000 10168 21041 38545 40216 52003 80002 91750333 10170 21042 30/// 56009 59080
AAXX 06181 76220 32958 20000 10056 21052 38178 40313 52003 80004 91740333 10056 21094 30/// 56007 59038
AAXX 06181 76225 32960 01101 10152 21037 38637 40180 50002 91739 33310152 21037 30/// 59085
AAXX 06181 76256 32980 00000 10200 20031 30170 40184 52022 91745 33310219 20095 30/// 59005
AAXX 06181 76342 32962 00101 10222 20031 39498 40217 57004 91750 33310227 20080 30/// 59085
AAXX 06181 76382 32980 01103 10170 20067 38929 40205 52006 91750 33310176 20048 30/// 59056
AAXX 06181 76390 32970 02804 10153 21011 38244 40209 57002 91730 33310165 20023 30/// 59047
AAXX 06181 76423 32975 32001 10138 20020 38174 40233 58002 80004 91740333 10153 20005 30/// 56009 59021 83067
AAXX 06181 76458 31466 31302 10227 20181 30169 40174 58001 70144 8240491745 333 10246 20139 30/// 56206 58001 82619 81079
AAXX 06181 76491 32960 01401 10210 20159 39812 40206 52002 91750 33310216 20088 31/// 59075
AAXX 06181 76499 32560 41503 10230 20174 30159 40181 57008 84200 91745333 10231 20136 32/// 563// 59074 84821
AAXX 06181 76525 32980 32704 10084 21020 37482 40198 52005 80001 91740333 10086 20041 30/// 56//1 59009 83080
AAXX 06181 76539 31962 20000 10150 20072 38177 40219 54000 70544 8000591745 333 10165 20023 30/// 56005 59027 82070
AAXX 06181 76543 32975 13602 10232 20158 30172 40205 58012 80005 91739333 10233 20156 31/// 56005 59067
AAXX 06181 76548 11475 70802 10220 20175 30197 40207 58014 69941 702528513/ 91738 333 10224 20168 31/// 56130 59061 85612
AAXX 06181 76556 32970 61201 10240 20082 39138 40175 50010 80006 91730333 10240 20108 30/// 56006 59005 86270 99021
AAXX 06181 76571 31965 40000 10164 20041 38188 40225 56001 705// 8000491748 333 10170 20050 30/// 56005 59005
AAXX 06181 76577 32570 72303 10157 20119 38058 40201 50005 87403 91740333 10164 20055 30/// 56105 59013 81625 86082
AAXX 06181 76581 32975 62502 10181 20128 39087 40212 57004 84036 91750333 10188 20087 30/// 56033 59053 84360
AAXX 06181 76612 32962 61701 10170 20034 38499 40213 58002 80005 91750333 10181 20060 30/// 56006 59007 86272
AAXX 06181 76625 32750 33203 10171 20053 38162 40188 52004 83030 91740333 10173 20089 30/// 56060 59013 83357
AAXX 06181 76632 31550 52303 10128 20065 37639 40172 57003 70511 8580091745 333 10136 20052 30/// 56600 59010 85726
AAXX 06181 76634 31570 63505 10164 20049 37858 40213 57001 70511 8520491750 333 30/// 565/5 59023 85827
AAXX 06181 76644 32460 31102 10271 20115 30184 40197 57027 81101 91750333 10277 20135 30/// 563/9 59047 81810
AAXX 06181 76665 31562 21603 10209 20078 38130 40175 57007 70310 8220091745 333 10220 20065 30/// 56100 57811 59015 82824
AAXX 06181 76695 32960 00303 10272 20155 30178 40184 57017 91750 33310275 20127 30/// 59046
AAXX 06181 76698 32560 20401 10275 20195 30193 40205 57019 82200 91750333 10291 20145 30/// 56100 59039 82820
AAXX 06181 76750 32560 10903 10279 20150 30186 40197 57017 81100 91750333 10279 20141 30/// 56100 59045 81820
AAXX 06181 76762 32904 33302 10260 20209 38772 40168 57011 80001 91739333 10264 20108 30/// 56006 59017 83070
AAXX 06181 76775 31970 31801 10227 20062 38532 40199 57017 70300 8000291730 333 10229 20060 30/// 56002 59026
AAXX 06181 76805 32570 61701 10293 20227 30141 40146 58009 82109 91750333 10315 20218 30/// 561/5 59011 82830 82163 82064
AAXX 06181 76833 32970 03608 10286 20157 30147 40149 57001 91745 33310286 20208 30/// 59026 92000
AAXX 06181 76840 32950 00304 10296 20197 30090 40146 57014 80000 91745333 10305 20195 30/// 56000 58072 80000
AAXX 06181 76843 32965 00202 10230 20132 39512 40163 57002 91737 33310244 20135 30/// 59004
AAXX 06181 76845 32960 01702 10210 20140 37953 40218 56017 91747 33310218 20038 30/// 59015
AAXX 06181 76848 32970 00701 10208 20101 38390 40128 57013 91750 33310208 20103 30/// 59031
AAXX 06181 76160 32962 30201 10196 21022 39926 40177 52019 80006 91730333 10196 20090 30/// 56009 59019 83070
AAXX 06181 76243 32973 00601 10196 20069 39875 40177 57009 91735 33310208 20040 30/// 59108
AAXX 06181 76323 32970 03001 10182 21022 38296 40287 52008 91740 33310182 21022 30/// 59058
AAXX 06181 76405 32980 60000 10239 20140 30152 40174 57005 80005 91750333 10240 20118 30/// 56004 59014 86080
AAXX 06181 76412 32966 02201 10220 20163 30144 40189 57002 91740 33310230 20120 30/// 58000
AAXX 06181 76647 32670 20903 10282 20126 30179 40209 57020 81101 91750333 10286 20130 30/// 54305 5630/ 59052 81850
AAXX 06181 76855 32580 71301 10288 20221 30085 40135 51008 82270 91740333 10295 20216 30/// 56990 59015 82820 85360 92000
AAXX 06184 78862 11578 30910 10271 20189 30129 40152 60001 70500 83102 333 10284 20228 58009 83824
AAXX 06184 077
AAXX 06184 TAF TKPN 041000Z 0412/0512 09010KT 9999 SCT020 SCT040 TEMPO 0416/0512 SHRA PROB30 TEMPO 0500/0510 00000KT
AAXX 06184 TAF TQPF 041000Z 0412/0512 08010KT 9999 SCT020 SCT040 TEMPO 0414/0512 SHRA PROB30 TEMPO 0500/0510 00000KT
AAXX 06184 TAF TUPJ 041000Z 0412/0512 05012KT 9999 SCT018 SCT035 TEMPO 0412/0512 SHRA PROB30 TEMPO 0412/0422 VRB02KT 5000 +SHRA FEW015CB BKN018
AAXX 06184 032200Z 0400/0424 09014KT 9999 SCT022 SCT038 BKN270 TEMPO 0400/0424 4000 SHRA BKN013 BKN036 BKN260
AAXX 06184 BKN038 SCT270 TEMPO 0412/0512 SHRA BKN015 PROB40 TEMPO 0418/0512 5000 SHRA BKN014 BKN036 PROB30 0420/0512 4000 TSRA FEW012CB
AAXX 06184 918 4000 TSRA FEW012CB
AAXX 06184 N015 BKN036 PROB40 TEMPO 0704/0724 3000 +TSRA SCT011CB BKN012 BECMG 0712/0714 14008KT
AAXX 06184 21/2712 07017G28KT 5000 SHRA BKN015 BKN036 PROB TEMPO 2700/2712 4000 TSRA FEW013CB
AAXX 06184 PROB30 TEMPO 0800/0806 4000 TSRA FEW012CB PROB40 TEMPO 0800/0824 2000 +SHRA/TSRA SCT010CB BKN012 BKN250
BBXX 46002 06181 99426 71305 46/// ///// 10112 40278 56003 91750 22200 00117 11408 70038
BBXX 46005 06181 99461 71310 46/// ///10 10102 40205 53017 91750 22200 00097 11107 20805 3//// 41105 70035 333 91213 555 11109 22117
BBXX 46006 06181 99408 71375 46/// /1907 10126 40278 53006 91750 22200 00117 11206 20602 3//// 41205 70030 333 91208 555 11071 22078 31656 41908 61749 193066 192065 192067 191066 194065 193067
BBXX 46012 06181 99374 71229 46/// /3211 10106 40232 53016 91750 22200 00115 11610 20605 331// 41609 70051 333 91213 555 11113 22120 31656 43114 61749 322108 322113 317110 315109 323110 313106
BBXX 46013 06181 99382 71233 46/// /3212 10103 40225 53014 91750 22200 00107 11409 20605 3//// 41408 70045 333 91215 555 11132 22140 31739 43316 61749 322124 323132 326124 325123 326123 323127
BBXX 46014 06181 99394 71240 46/// /3411 10103 40250 53015 91750 22200 00108 11610 20804 3//// 41609 70051 333 91214 555 11122 22130 31733 43415 61749 341115 339116 341116 340114 342112 343113
BBXX 46029 06181 99461 71245 46/// /2006 10079 20035 40261 56004 91750 22200 00088 11508 20502 328// 41508 70041 333 91207 555 11060 22063 31740 42108 61749 196058 201059 199060 204053 182052 192053
BBXX 46050 06181 99442 71246 46/// /2101 10082 40275 52005 91750 22200 00093 11508 20301 328// 41508 70042 333 91203 555 11012 22013 31744 41803 61749 210012 228013 239009 236010 167005 208004
BBXX 46054 06181 99342 71204 46/// /3214 10120 40185 51021 91750 22200 00126 11709 20805 300// 41708 70045 333 91216 555 11148 22158 31737 43217 61749 316139 319134 321134 320130 324134 323130
BBXX WSLH 06184 99388 71354 41498 30505 10133 20040 40300 5//// 70100 83//8 22215 00122 20101 328// 40802 5//// 6//// 80089 ICE /////
BBXX WSRL 06183 99382 71413 41498 21815 10155 20130 40260 54000 70100 8/040 22215 0//// 2//// 32729 40905 51004 6//// 80140 ICE 0/0//
AAXX 06184 81405 02560 70711 10296 20231 30099 40108 60001 8587/ 333 60007 59004 84824 87368 555 60005
AAXX 06184 81405 02560 70711 10296 20231 30099 40108 60001 8587/ 333 60007 59004 84824 87368 555 60005
BBXX BAREU08 06184 99204 70640 46/// ///// 40171 57022 22254
AAXX 06184 67665 41780 51402 10243 20222 48503 71322 81930 333 10294 59007 81956 85360
AAXX 06184 78073 12565 20805 10230 20076 40219 60001 82100 333 59009 82825
AAXX 06184 08583 31958 00623 10252 20105 40160 70610 333 10271 58002
AAXX 06184 08589 31450 70319 10231 20183 40158 70522 81534 333 10260 58012 81516 87070
AAXX 06184 08594 31457 40617 10236 20151 40160 70610 82530 333 10256 58009 82616 84360
AAXX 06184 40265 32960 00000 10050 20011 39381 40192 52006 333 10106
AAXX 06184 78384 12460 40712 10249 20180 40187 60001 84801 333 10266 20223 59016 70000 83818
AAXX 06184 78383 12460 60610 10250 20169 40191 60001 86800 333 10279 20221 59014 70000 82818 84630
BBXX VEP717 06184 99467 70487 41494 82432 10055 2006/ 40034 55029 76362 885// 22200 06021 20808 80055
AAXX 06184 66160 35565 62407 10252 20223 40079 82130 333 10295 58002
BBXX 42085 06181 99179 70665 46/// /1205 10271 40142 91740 333 91206
BBXX 44007 06181 99435 70701 46/// /1406 10026 20015 40093 57038 91750 22200 00067 11101 20301 3//// 41101 70006 333 91207 555 11058 22060 31654 41507 61749 142056 145055 147051 153053 150053 146052
AAXX 06184 85574 12960 51614 10261 20129 39591 40123 58013 60001 82032 333 56011 82366 84075
AAXX 06184 85577 11958 52009 10264 20131 39544 40128 58011 60001 70511 80001 333 56001 85075
AAXX 06184 85586 12560 82408 10192 20124 40179 52016 60001 885// 333 56599 88630
AAXX 06184 85672 12657 23406 10274 20158 40136 58013 60001 80002 333 56005 82070
AAXX 06184 85682 12560 73614 10203 20145 40154 58002 60001 87500 333 56800 87625
AAXX 06184 85743 12960 02411 10263 20152 40119 55009 60001
AAXX 06184 85782 11930 39902 10290 20156 40115 57019 60001 70411 80001 333 56000 83070
AAXX 06184 85799 11957 31510 10238 20168 40126 57017 60001 70400 80001 333 56006 83070
AAXX 06184 85832 12980 39903 10299 20092 40112 57027 60001 80002 333 56000 83070
AAXX 06184 85836 12970 52507 10310 20117 40162 57026 60001 80002 333 56007 85070
AAXX 06184 85864 11970 71908 10228 20122 40148 57028 60001 70522 80008 333 56009 87070
AAXX 06184 85874 12970 72804 10222 20070 39552 40149 58028 60001 80006 333 56006 87270
AAXX 06184 85886 12970 70106 10196 20170 40170 57031 60001 80008 333 56006 87270
AAXX 06184 85892 12670 82005 10260 20073 40108 57028 60001 81101 333 56606 81840 88070
AAXX 06184 85934 12980 42910 10162 20012 40111 57027 60001 80001 333 56007 84070
AAXX 06184 85968 12960 52710 10136 21003 40056 57040 60001 85010 333 56060 85459
AAXX 06184 89056 11225 83423 10009 20005 49898 57053 69913 76772 8552/ 333 56889 85606 88520 93100
AAXX 06184 89057 11220 82817 10001 20005 49900 57050 60013 76922 8572/ 333 56669 85705 88515
AAXX 06184 89058 11457 83221 10016 20003 49895 49916 57047 69901 77000 8172/
AAXX 06184 89059 12460 82115 10004 21046 49899 57033 60003 886// 333 73099 88713
AAXX 06184 89251 41256 82127 10013 20003 48999 57051 76872 8672/
AAXX 06184 91824 11498 83206 10254 20236 40085 52009 60221 70228 8587/ 333 5679/ 555 1////
AAXX 06184 Scanned by MailMarshal - M86 Security's comprehensive email content s ecur
AAXX 06184 ity solution.
AAXX 06184 --_000_15A73B2E9A32B34CBBB7D7F59DAEB2C0DCC0AE4Bmailniuegovloca_ html code found in mail The rest of this message has been deleted
AAXX 06184 78016 11664 63013 10185 20097 30180 40184 57007 69951 70281 86800 333 10194 20152 70083 90945
AAXX 06184 85406 12970 02019 10243 20154 40118 56010 60001
AAXX 06184 85418 12970 02321 10244 20142 40126 57016 60001
AAXX 06184 85442 12480 11814 10223 20155 40134 58011 60001 81500 333 56400 81615
AAXX 06184 85469 42565 60818 10250 20154 40233 52008 86200 333 56200 84820
AAXX 06184 85488 12460 82807 10205 20136 40165 58008 885// 333 56099 88617
AAXX 06184 78925 12575 60710 10290 20207 40144 58026 60001 83801 333 10296 20231 58002 82832 86076
BBXX FVNM 06184 99195 70869 46/// /0911 10252 20147 40192 58017 22281 00269
BBXX BAREU51 06184 99383 10128 46/// ///// 40043 57009 22224
BBXX BAREU04 06184 99467 70290 46/// ///// 40293 52007 22223
BBXX BAREU11 06184 99478 70116 46/// ///// 40348 52014 22254
AAXX 06184 40272 31958 00000 10065 20020 39332 40181 52010 70500 333 10118
BBXX BAREU06 06184 99386 10003 46/// ///// 40262 52019 22254
BBXX BAREU00 06184 99455 70424 46/// ///// 40133 57054 22263
AAXX 06184 78905 12478 51213 10271 20209 30130 40153 60001 70311 85200 333 10295 20223 58005 70016 85819
BBXX BATFR02 06184 99539 10045 46/// /2622 10062 20017 40190 58025 22214 00094
AAXX 06184 78016 11664 63013 10185 20097 30180 40184 57007 69951 70281 86800 333 10194 20152 70083 90945
AAXX 06184 48698 01562 70105 10253 20242 30111 40130 60001 70522 81132 333 60007 81820 83365 86080
AAXX 06184 78925 12575 60710 10290 20207 40144 58026 60001 83801 333 10296 20231 58002 82832 86076
AAXX 06184 48698 01562 70105 10253 20242 30111 40130 60001 70522 81132 333 60007 81820 83365 86080
AAXX 06184 78925 12575 60710 10290 20207 40144 58026 60001 83801 333 10296 20231 58002 82832 86076
AAXX 06184 78792 32460 40513 10314 20204 30099 40114 57007 84100 333 10314 20229 30/// 560// 59008 84818
AAXX 06184 78793 31459 81306 10274 20227 30086 40117 57012 71522 8422/ 333 10284 20210 30/// 568// 57861 59002 84815 85460
AAXX 06184 78795 32570 40000 10310 20212 30021 40121 57010 84100 333 10316 20212 30/// 560// 59004 84820
AAXX 06184 78384 12460 40712 10249 20180 40187 60001 84801 333 10266 20223 59016 70000 83818
AAXX 06184 78383 12460 60610 10250 20169 40191 60001 86800 333 10279 20221 59014 70000 82818 84630
AAXX 06184 91408 32474 80905 10272 20250 30052 40090 57022 83278 333 56299 70013 555 90618
AAXX 06184 78384 12460 40712 10249 20180 40187 60001 84801 333 10266 20223 59016 70000 83818
AAXX 06184 78383 12460 60610 10250 20169 40191 60001 86800 333 10279 20221 59014 70000 82818 84630
AAXX 06184 91408 32474 80905 10272 20250 30052 40090 57022 83278 333 56299 70013 555 90618
AAXX 06184 78792 32460 40513 10314 20204 30099 40114 57007 84100 333 10314 20229 30/// 560// 59008 84818
AAXX 06184 78793 31459 81306 10274 20227 30086 40117 57012 71522 8422/ 333 10284 20210 30/// 568// 57861 59002 84815 85460
AAXX 06184 78795 32570 40000 10310 20212 30021 40121 57010 84100 333 10316 20212 30/// 560// 59004 84820
AAXX 06184 68352 16/// /0610 10253 20041 39082 48540 52020 69922 333 10303 20249 91014 555 20002 91018
AAXX 06184 78792 32460 40513 10314 20204 30099 40114 57007 84100 333 10314 20229 30/// 560// 59008 84818
AAXX 06184 78793 31459 81306 10274 20227 30086 40117 57012 71522 8422/ 333 10284 20210 30/// 568// 57861 59002 84815 85460
AAXX 06184 78795 32570 40000 10310 20212 30021 40121 57010 84100 333 10316 20212 30/// 560// 59004 84820
AAXX 06184 78858 11581 10608 10280 20207 30096 40152 69931 70281 81100 333 10287 20219 58006 81824
AAXX 06181 12772 31982 43204 10039 21021 39761 40046 51036 70111 84030 333 10075 4/000
AAXX 06181 12822 36/// /3206 10047 21022 39961 40105 52041 333 10071
AAXX 06181 12843 31983 13207 10042 21014 39892 40063 52035 70111 80002 333 10065 4/000
AAXX 06181 12882 31980 43502 10029 21009 39906 40039 53034 70311 80002 333 10059 4/000
AAXX 06181 12925 36/// /3606 10057 21044 39929 40101 51040 333 10081
AAXX 06181 12942 31586 43411 10044 21027 39829 40075 52034 70122 84500 333 10063 4/000 84630
AAXX 06181 12982 31982 23307 10036 21010 39947 40049 53044 70111 80002 333 10064 4/000
AAXX 06184 78862 11578 30910 10271 20189 30129 40152 60001 70500 83102 333 10284 20228 58009 83824
AAXX 06184 077
AAXX 06184 TAF TKPN 041000Z 0412/0512 09010KT 9999 SCT020 SCT040 TEMPO 0416/0512 SHRA PROB30 TEMPO 0500/0510 00000KT
AAXX 06184 TAF TQPF 041000Z 0412/0512 08010KT 9999 SCT020 SCT040 TEMPO 0414/0512 SHRA PROB30 TEMPO 0500/0510 00000KT
AAXX 06184 TAF TUPJ 041000Z 0412/0512 05012KT 9999 SCT018 SCT035 TEMPO 0412/0512 SHRA PROB30 TEMPO 0412/0422 VRB02KT 5000 +SHRA FEW015CB BKN018
AAXX 06184 032200Z 0400/0424 09014KT 9999 SCT022 SCT038 BKN270 TEMPO 0400/0424 4000 SHRA BKN013 BKN036 BKN260
AAXX 06184 BKN038 SCT270 TEMPO 0412/0512 SHRA BKN015 PROB40 TEMPO 0418/0512 5000 SHRA BKN014 BKN036 PROB30 0420/0512 4000 TSRA FEW012CB
AAXX 06184 918 4000 TSRA FEW012CB
AAXX 06184 N015 BKN036 PROB40 TEMPO 0704/0724 3000 +TSRA SCT011CB BKN012 BECMG 0712/0714 14008KT
AAXX 06184 21/2712 07017G28KT 5000 SHRA BKN015 BKN036 PROB TEMPO 2700/2712 4000 TSRA FEW013CB
AAXX 06184 PROB30 TEMPO 0800/0806 4000 TSRA FEW012CB PROB40 TEMPO 0800/0824 2000 +SHRA/TSRA SCT010CB BKN012 BKN250
AAXX 06184 78583 11570 60505 10241 20178 40192 69901 70381 86800 333 01100 59039 82822 86650
AAXX 06184 78897 14686 /1412 10281 20199 40147 58023 60001 700// 333 10292 20200 58005 70032
AAXX 06181 01003 NIL
AAXX 06181 01007 16/// /1303 11092 21156 30151 40161 58008 60002 333 11078 91105
AAXX 06181 01028 NIL
AAXX 06181 01047 11670 83603 11058 21079 39605 49980 53005 69912 77177 8802/ 333 11058
AAXX 06181 01049 NIL
AAXX 06181 01078 11365 60807 10017 21046 39981 49994 53005 60042 78582 85340 333 10018 91111
AAXX 06181 01102 46/// /3606 10017 21039 39963 49982 52012 333 10034 91122
AAXX 06181 01160 41989 00403 11022 21084 39970 49988 52004 70200 333 11015 91109
AAXX 06181 01218 NIL
AAXX 06181 01238 46/// /2202 11052 21058 38850 49980 57003 333 91109
AAXX 06181 01241 NIL
AAXX 06181 01281 NIL
AAXX 06181 01338 16/// /2106 10035 20002 39968 40034 56012 60002 333 10039 91113
AAXX 06181 01359 NIL
AAXX 06181 01397 NIL
AAXX 06181 01400 NIL
AAXX 06181 01427 11582 72911 10063 20011 30056 40072 58021 60002 70322 81858 333 10063 91114
AAXX 06181 01447 NIL
AAXX 06181 01448 46/// /2804 10038 20003 30059 40068 58016 333 10041 91110
AAXX 06181 48921 NIL
AAXX 06181 48924 NIL
AAXX 06181 48925 NIL
AAXX 06181 48926 NIL
AAXX 06181 48927 NIL
AAXX 06181 48928 NIL
AAXX 06181 48930 31940 00000 10190 20182 39823 40178 52010 71044 333 58007
AAXX 06181 48935 NIL
AAXX 06181 48938 NIL
AAXX 06181 48940 31910 00901 10210 20195 39968 40164 52012 71044 333 58010
AAXX 06181 48941 NIL
AAXX 06181 48944 NIL
AAXX 06181 48945 NIL
AAXX 06181 48946 NIL
AAXX 06181 48947 NIL
AAXX 06181 48948 NIL
AAXX 06181 48952 NIL
AAXX 06181 48953 NIL
AAXX 06181 48955 32560 23601 10208 20162 30038 40155 52013 82500 333 58018
AAXX 06181 48956 NIL
AAXX 06181 48957 NIL
AAXX 06181 01001 NIL
AAXX 06181 01008 11585 51206 11051 21099 30119 40153 57002 60002 70121 85500 333 11043 91110
AAXX 06181 01010 41989 12501 11074 21118 39979 49996 52003 70200 81030 333 11026 91104
AAXX 06181 01026 11689 10000 11087 21097 39858 40005 50005 69912 70200 81100 333 11073 4/016 91102
AAXX 06181 01055 46/// /1802 11002 21022 39981 49999 52002 333 10006 91106
AAXX 06181 01062 NIL
AAXX 06181 01098 11X03 90507 11001 21010 39968 49986 52007 60032 78683 333 10011 91112
AAXX 06181 01115 11482 60507 11001 21049 39958 49979 53013 69992 70222 81260 333 10012 91114
AAXX 06181 01152 11889 10905 11059 21083 39970 49986 53008 60002 70200 81031 333 11050 91109
AAXX 06181 01205 NIL
AAXX 06181 01212 16/// /3303 10026 20011 30004 40020 57009 6//// 333 10047 91116
AAXX 06181 01271 16/// /3205 11017 21045 39980 40002 51016 60062 333 10016 91116
AAXX 06181 01288 16/// /3106 11044 21066 39239 49996 53012 6//// 333 11023 91115
AAXX 06181 01300 NIL
AAXX 06181 01317 11478 81603 10022 20007 30033 40048 58022 60032 72582 8597/ 333 10025 91104
AAXX 06181 01367 NIL
AAXX 06181 01384 11989 61102 11045 21064 39758 40009 56015 60002 70222 80008 333 11026 91106
AAXX 06181 01403 16/// /2606 10047 20017 39993 40062 58020 60032 333 10056 91115
AAXX 06181 01415 16/// /3202 10041 20011 30060 40071 58019 6//// 333 10055 91113
AAXX 06181 01482 46/// /2612 10035 21014 30019 40027 58021 333 10036 91114
AAXX 06181 01492 NIL
AAXX 06184 78897 14686 /1412 10281 20199 40147 58023 60001 700// 333 10292 20200 58005 70032
AAXX 06184 97180 12457 60603 10242 20242 30082 40100 58019 60001 83532 333 56000 83619 83360
AAXX 06184 85406 12970 02019 10243 20154 40118 56010 60001
AAXX 06184 85418 12970 02321 10244 20142 40126 57016 60001
AAXX 06184 85442 12480 11814 10223 20155 40134 58011 60001 81500 333 56400 81615
AAXX 06184 85469 42565 60818 10250 20154 40233 52008 86200 333 56200 84820
AAXX 06184 85488 12460 82807 10205 20136 40165 58008 885// 333 56099 88617
AAXX 06184 85574 12960 51614 10261 20129 39591 40123 58013 60001 82032 333 56011 82366 84075
AAXX 06184 85577 11958 52009 10264 20131 39544 40128 58011 60001 70511 80001 333 56001 85075
AAXX 06184 85586 12560 82408 10192 20124 40179 52016 60001 885// 333 56599 88630
AAXX 06184 85672 12657 23406 10274 20158 40136 58013 60001 80002 333 56005 82070
AAXX 06184 85682 12560 73614 10203 20145 40154 58002 60001 87500 333 56800 87625
AAXX 06184 85743 12960 02411 10263 20152 40119 55009 60001
AAXX 06184 85782 11930 39902 10290 20156 40115 57019 60001 70411 80001 333 56000 83070
AAXX 06184 85799 11957 31510 10238 20168 40126 57017 60001 70400 80001 333 56006 83070
AAXX 06181 10004 NIL
AAXX 06181 10015 01565 32909 10064 20042 30144 40154 50004 69902 72511 83802 222// 02064 333 10076 20061 31004 55300 20000 30000 69907 82822 91114 91212
AAXX 06181 10020 15975 12908 10058 20042 30097 40130 50005 60002 333 10061 20025 3/001 55300 20000 30000 81/70
AAXX 06181 10035 12570 32804 10030 20017 30075 40135 50005 60002 81501 333 10041 20000 31101 55300 20000 30000 40916 81627 83067
AAXX 06181 10055 12680 52709 10043 20021 30112 40123 52001 69902 82501 333 10043 20025 31002 55300 20000 30000 82640 85075 91211
AAXX 06181 10147 12681 42804 10046 20027 30129 40148 53007 60002 83501 333 10048 20012 31101 55300 20000 30000 40959 83634
AAXX 06181 10162 15581 12604 10005 21017 30053 40138 53007 69902 333 10035 20005 3/102 55300 20000 30000 81/28
AAXX 06181 10184 12780 12604 10017 21001 30112 40120 51015 60002 81500 333 10043 20016 31101 55300 20000 30000 81650
AAXX 06181 10200 07478 42905 10051 20034 30177 40175 50002 69952 72365 333 10078 20049 3/003 55300 20000 30000 69917 81/10 83/19 91113
AAXX 06181 10224 01468 52805 10052 20033 30162 40168 52010 69952 70182 82201 333 10070 20042 33003 55300 20000 30000 69907 82817 85074 91114
AAXX 06181 10270 16960 02702 10001 21017 30089 40146 51017 60002 222// 06040 333 10035 20001 3/103 55300
AAXX 06181 10338 01575 42704 10039 20023 30097 40171 53015 69902 70181 83801 333 10062 20027 31001 55300 20000 30000 69907 81825 83640
AAXX 06181 10361 12686 12802 10017 21003 30054 40160 53016 60002 81100 333 10051 20013 31102 55300 20000 30000 81840
AAXX 06181 10393 01584 12904 10013 21008 30009 40139 51023 69902 70186 81500 333 10040 20013 31100 55300 20000 30000 69907 81633
AAXX 06181 10400 01575 32805 10059 20031 30170 40220 53013 60022 70181 83800 333 10080 20051 32004 55300 20000 30000 69907 81822 83646 91113 96481
AAXX 06181 10438 07775 82604 10041 20015 39913 40198 51025 60022 70065 333 10058 20021 3/001 55300 69917 86/56 88/57
AAXX 06181 10469 12686 12404 11006 21024 39999 40170 51024 60002 81201 333 10036 21010 31104 55300 81835 91113
AAXX 06181 10488 11580 82904 10018 21018 39873 40161 51027 69902 70362 878// 333 10025 20014 31001 55300 20000 30000 41104 81825 87631
AAXX 06181 10506 01570 62703 10020 20004 39644 40241 51021 60022 70282 86500 333 10038 20016 31000 55300 20000 30000 69907 86630 91113 96480
AAXX 06181 10548 01580 63005 10023 20001 39645 40197 51029 60032 78081 86300 333 10032 20002 3/000 42002 55300 20000 30000 69927 82930 85636
AAXX 06181 10637 01582 43004 10055 20016 30085 40225 51029 69912 70381 83801 333 10072 20042 31003 55300 69907 81820
AAXX 06181 10685 15481 12703 11008 21029 39497 40190 51032 60012 333 10017 21009 3/104 4/005 55300 20000 30000 81/14
AAXX 06181 10738 01481 72604 10033 20009 39760 40240 51031 69932 72581 878// 333 10045 20021 31000 55300 69937 81813 83826 85636 91115 91211 96280 96487
AAXX 06181 10763 01481 72804 10034 20014 39812 40202 51031 69942 72182 878// 333 10050 20023 31001 55300 20000 30000 69907 81813 87630 91114
AAXX 06181 10788 07687 52504 10020 20005 39752 40194 51035 69942 70076 333 10048 20008 3/000 55300 20000 30000 69907 81/37 85/56 91114
AAXX 06181 10852 07483 82606 10024 20014 39643 40225 51037 69932 70087 333 10032 20007 3/000 55300 20000 30000 69937 84/15 87/33 88/56 91113
AAXX 06181 10946 07482 72804 10013 21005 39397 40249 51040 60012 72476 333 10016 20000 3/101 55300 20000 30000 69957 83/16 87/50 87/56 91113
BBXX CGDS 06184 99429 70792 46/// /3120 10068 20018 40047 56010 7//// 8//// 22200 0//// 2////
BBXX BATFR22 06184 99433 10053 46/// /3234 10127 40214 52010 22243 00137
BBXX BATFR08 06184 99466 30539 44697 83119 10072 20052 40128 58003 702// 886// 22223 00067
BBXX BATFR05 06184 99298 70142 46/// /0417 10172 20135 40261 50001 22212 00172
BBXX BATFR34 06184 99476 70054 46/// /3013 4//// 22200 00132
BBXX BATFR27 06184 99564 10073 46/// /2932 10079 20022 40106 58026 22214 00082
BBXX BATFR19 06184 99061 30058 46/// /2111 10247 20204 40110 53009 22222 00259
AAXX 06181 10007 NIL
AAXX 06181 10044 NIL
AAXX 06181 10046 12580 62504 10029 20007 30095 40135 53004 60002 84501 333 10037 20003 31102 84630 86070
AAXX 06181 10091 15483 72907 10031 20010 30056 40108 51014 60002 333 10038 20016 3/001 55300 20000 30000 87/16 91115 91211
AAXX 06181 10113 12562 73009 10068 20043 30148 40167 50002 69932 878// 333 10076 20060 32005 55300 20000 30000 81820 87640 91116 91213
AAXX 06181 10124 NIL
AAXX 06181 10131 12568 62807 10057 20038 30138 40153 51007 60002 85802 333 10064 20040 31002 55300 20000 30000 81827 85639
AAXX 06181 10170 12484 22605 10026 21001 30111 40127 51009 60002 82500 333 10043 20023 31001 55300 20000 30000 82616 91113 91211
AAXX 06181 10264 16982 02503 10000 21018 30028 40138 53008 69942 333 10030 20000 3/103 55300 20000 30000
AAXX 06181 10291 11988 32805 10006 21014 30060 40130 51022 69902 70371 80004 333 10032 20005 31101 55300 20000 30000 83072
AAXX 06181 10315 01667 62604 10052 20034 30132 40197 53011 69912 72581 865// 333 10078 20049 31003 55300 20000 30000 69907 81638 86640
AAXX 06181 10379 01983 02705 10008 21016 30018 40143 51020 69902 70161 333 10027 20006 31103 55300 20000 30000 40835 69907
AAXX 06181 10382 11983 02503 11002 21026 30096 40142 51020 69902 70161 333 10036 21002 34104 55300 20000 30000
AAXX 06181 10384 16/// /2704 10020 21014 30079 40140 51023 69902 333 10039 20019 3/101 55300 20000 30000
AAXX 06181 10427 01/03 93108 11004 21004 39178 48468 52024 60052 78787 333 11001 21009 3/101 48031 55300 20000 30000 69937 91120 91213 96041 96287 96486 96477 96441
AAXX 06181 10430 01470 60301 10032 20023 30003 40199 53021 60032 72581 86800 333 10054 20027 31101 55300 20000 30000 69917 81816 83821
AAXX 06181 10439 11468 63004 10037 20016 39980 40205 51025 60042 78082 86800 333 10056 20026 32001 82818 86650
AAXX 06181 10453 11/90 93214 11028 21028 38803 48429 51018 60042 77174 333 11028 21045 3//// 49128 55300 91122 91216 96049 96036 96438
AAXX 06181 10496 12586 62903 10020 21002 30059 40146 51030 60002 86500 333 10036 20020 31001 55300 20000 30000 86631
AAXX 06181 10499 12481 73003 10007 21011 39851 40148 51035 69912 878// 333 10021 20007 31000 55300 20000 30000 83811 87630
AAXX 06181 10505 01265 72707 10042 20033 39951 40238 51011 60022 72582 878// 333 10061 20037 32003 55300 20000 30000 69967 86806 96487
AAXX 06181 10513 01572 72703 10058 20034 30107 40230 51018 60042 70382 878// 333 10069 20042 31001 55300 20000 30000 69907 84820 87650 91115
AAXX 06181 10532 07980 22102 10027 20018 39961 40215 51029 69972 72365 333 10062 20022 3/100 55300 20000 30000 69977 82/71
AAXX 06181 10544 01/02 93109 11010 21010 39098 48465 51029 60062 74174 333 11007 21017 3/102 48020 55300 60017 91121 91215 96271
AAXX 06181 10554 12581 62904 10024 20005 39788 40184 52023 69912 86500 333 10042 20012 31101 55300 20000 30000 86632
AAXX 06181 10567 12982 02704 10010 21023 39794 40180 51030 69902 333 10042 20009 31102 55300 20000 30000 91114
AAXX 06181 10578 11/02 93015 11053 21053 38731 48425 53030 60022 74974 333 11036 21053 3/105 49071 55300 20000 30000 96022
BBXX BATFR12 06184 99483 70057 46/// /2714 10119 20100 40316 56001 22272 00139
BBXX BATFR60 06184 99540 10082 46/// /2726 10065 20040 40152 50012 22262 00052
BBXX BATFR35 06184 99166 51516 46/// /3115 10252 20215 40100 22272 00287
BBXX BATFR03 06184 99502 70007 46/// /2723 10100 20052 40263 58029 22284
BBXX BATFR55 06184 99206 30557 46/// /1216 10262 20210 40156 53015 22222 00272
BBXX BATFR14 06184 99321 70375 44798 32005 10202 20139 40242 56013 70000 83162 22254 00205
BBXX BATFR58 06184 99432 10067 46/// /2917 40173 51023 22200 00155
BBXX BATFR04 06184 99575 70061 46/// /2627 10094 20052 40069 55005 22200 00097
AAXX 06181 10609 01472 82604 10042 20021 39916 40253 51024 69952 72581 878// 333 10061 20026 31001 55300 20000 30000 69907 82813 87623 91113
AAXX 06181 10616 01375 72805 10021 20009 39630 40245 51025 69982 70381 878// 333 10035 20007 32000 55300 69907 81809 87612
AAXX 06181 10641 17676 62604 10051 20015 30071 40220 51029 69902 70050 333 10073 20045 3/003 55300 81/49 84/56 86/70
AAXX 06181 10655 01480 72904 10036 20023 39877 40212 51028 60022 72582 878// 333 10059 20029 31001 55300 20000 30000 60017 82813 83650 85657
AAXX 06181 10675 07485 72604 10038 20015 39901 40198 51028 60022 72365 333 10059 20023 3/002 55300 20000 30000 69907 83/18 87/27 87/35
AAXX 06181 10688 15968 02903 11001 21010 39657 40195 51032 60012 333 10029 21003 3/103 4/001 55300 20000 30000
AAXX 06181 10708 01484 72505 10042 20016 39864 40258 51028 69912 72581 878// 333 10052 20018 32001 55300 20000 30000 69907 81815 87619
AAXX 06181 10729 07447 83003 10059 20024 30119 40243 51029 69912 76265 333 10079 20050 3/004 55300 20000 30000 69917 81/12 87/38 88/48 91114
AAXX 06181 10731 01782 42405 10046 20018 30099 40246 51029 69902 70261 84500 333 10070 20040 31003 55300 20000 30000 69907 84650
AAXX 06181 10742 07581 82806 10043 20020 39891 40229 51031 69932 72265 333 10056 20026 3/001 55300 20000 30000 69907 82/20 87/27 88/50
AAXX 06181 10776 01784 22904 10018 21002 39741 40196 51031 69912 70181 82500 333 10051 20009 31102 55300 20000 30000 69907 82656 91115
AAXX 06181 10791 11/90 93211 11061 21065 38491 48438 51035 69982 74974 333 11045 21062 49137 55300
AAXX 06181 10805 01582 72404 10054 20020 30072 40267 51030 69902 70162 875// 333 10066 20040 31003 55300 20000 30000 69907 87629
AAXX 06181 10815 07480 82907 10004 21002 39290 48508 51028 60032 72487 333 10005 21012 3/101 4/007 55300 20000 30000 60017 81/12 87/33 88/48 91116
AAXX 06181 10836 01/01 92807 10001 20001 39344 40237 51037 60032 77074 333 10004 21012 3/101 44006 553// 2//// 3//// 69927 89/01 91114
AAXX 06181 10870 01382 72804 10021 20010 39669 40216 51040 69992 72686 878// 333 10037 20002 32000 55300 69957 81807 83812 86625 91113 96283 96484
AAXX 06181 10895 01582 62703 10010 21010 39611 40195 52041 60032 72687 86500 333 10022 21003 3/101 44997 55300 20000 30000 69917 81625 86646 91115 96286 96483 96468
AAXX 06181 10908 03011 83111 11044 21044 38520 48514 51029 60022 8//// 333 11044 21060 3/106 55300 20000 30000 69947 88/00 91120 91215
AAXX 06181 10929 01565 72605 10028 20009 39718 40263 51036 69902 72588 878// 333 10044 20010 31000 55300 20000 30000 69907 85820 85625
AAXX 06181 10948 07/48 /3603 10003 20003 39283 48508 53039 60082 77170 333 10007 21016 3/102 4/044 55300 20000 30000 60037
AAXX 06181 10961 11/00 93512 11146 21149 37024 47986 53035 60292 77374 333 11143 21168 49290 55300 20000 40992 91117 96049
AAXX 06181 10962 01/01 92804 11013 21014 39060 48491 51042 60032 77174 333 11013 21030 3/103 48014 55300 20000 30000 69997 91113 96045 96273 96473
AAXX 06181 10980 11/01 93113 11070 21073 38123 48479 51035 60082 77174 333 11069 21086 3/109 49088 55300 20000 30000 91128 91218 90315 91218 96049
BBXX BATEU08 06184 99585 70020 46/// /2824 10079 20059 40024 56057 22262
BBXX BATEU06 06184 99496 70052 46/// /2822 10127 20090 40280 53019 22254 00120
AAXX 06181 63333 42880 20000 10162 20070 38178 40203 82030 333 10270 59008 82358
AAXX 06181 63334 42980 02502 10146 20000 37638 40144 333 10245 59005
AAXX 06181 63340 42980 03302 10170 20093 37951 40155 333 10280 58002
AAXX 06181 63450 42980 00406 10160 20087 37748 40139 333 10245 58000
AAXX 06181 63451 42980 0//// 1//// 2//// 38152 4//// 333 10280 59007
AAXX 06181 63471 NIL
AAXX 06181 NNNN
BBXX BATFR42 06184 99503 70018 46/// /2432 10102 20077 40249 22244 00117
BBXX BATEU05 06184 99642 70524 46/// /0506 11073 40049 22282
BBXX BATEU04 06184 99586 70028 46/// /2225 10070 20052 40026 56026 22223
AAXX 06181 11816 11775 53312 10039 21036 39956 40121 52046 69902 70161 82541 333 10065 82650 84358 91019 91122
AAXX 06181 11826 12584 73210 10034 21012 39903 40105 52043 69932 875// 333 10050 87627 91015
AAXX 06181 11903 12675 49902 10034 21008 39686 40068 52038 60002 82530 333 10045 43007 82635 83358
AAXX 06181 11934 11560 81703 10008 21026 39227 42675 52038 69922 77177 885// 333 10020 43002 83623 88643
AAXX 06181 11968 12675 73402 10039 20001 39766 40047 52037 60002 87500 333 10056 84635 87648
BBXX BATFR54 06184 99365 70087 46/// /0207 10144 20090 40272 55009 22222 00167
AAXX 06184 07790 02980 03119 10132 21049 30127 40141 53032 60002 333 10137 20120 60007 91035 90710 91135 93100 555 60005
AAXX 06184 07005 04/70 /2006 10046 20018 30175 40268 56005 60002 700// 333 10071 20044 60007 90710 91108 555 60005
AAXX 06184 07015 02982 22507 10038 20005 30197 40256 58005 60002 80001 333 10079 20037 60007 82073 90710 91108 93100 555 60005
AAXX 06184 07020 06/// /2517 10108 20075 30257 40284 56012 60002 333 10109 20094 60007 90710 91123 555 60005
AAXX 06184 07027 02875 72307 10076 20051 30202 40285 57006 60002 8707/ 333 10098 20067 60007 87357 90710 91110 93100 555 60005
AAXX 06184 07037 04982 /2605 10027 20014 30095 40286 53001 60002 700// 333 10085 20026 60007 90710 91108 555 60005
AAXX 06184 07070 04970 /2206 10033 20005 30166 40280 53006 60002 700// 333 10076 20033 60007 90710 91107 555 60005
AAXX 06184 07110 01260 72808 10104 20101 30188 40305 56006 69922 75065 876// 333 10116 20060 69927 87704 90710 91114 93100 555 69925
AAXX 06184 07117 01420 82311 10094 20086 30223 40295 56009 69922 75122 886// 333 10115 20094 69927 90710 91119 92435 555 69925
AAXX 06184 07130 04567 82004 10083 20056 30252 40305 55000 60002 700// 333 10117 20036 60007 90710 91105 555 60005
AAXX 06184 07139 06/// /2203 10050 20015 30119 40299 52003 60002 333 10091 20044 60007 90710 91106 555 60005
AAXX 06184 07149 02975 22303 10032 21001 30177 40290 52005 60002 80001 333 10083 20029 60007 82075 90710 91108 93100 555 60005
AAXX 06184 07168 04/70 /2407 10007 21012 30149 40299 51015 60002 700// 333 10074 20004 60007 90710 91107 555 60005
AAXX 06184 07181 04586 82808 10040 20009 39857 40280 51023 60002 700// 333 10048 20016 60007 90710 91117 555 60005
AAXX 06184 07190 04585 62809 10055 20010 30072 40259 51024 69902 700// 333 10078 20040 69907 90710 91115 555 60005
AAXX 06184 07207 02865 82911 10110 20071 60002 8808/ 222// 328// 333 10121 20090 60007 90710 91116 92437 555 60005
AAXX 06184 07222 02865 62604 10080 20056 30283 40315 52006 60002 86500 333 10113 20051 60007 86657 90710 91106 555 60005
AAXX 06184 07240 02670 32404 10052 20020 30171 40311 51011 69902 83100 333 10095 20052 60007 83836 90710 91105 93100 555 60005
AAXX 06184 07255 04570 /2703 10051 20014 30103 40310 51011 60002 700// 333 10090 20048 60007 90710 91105 555 60005
AAXX 06184 07280 04684 /2504 10023 21013 30020 40305 51020 60002 700// 333 10076 20023 60007 90710 91108 555 60005
AAXX 06184 07299 01565 72616 10041 20013 39939 40277 51025 69942 70286 878// 333 10049 20025 69907 82826 86657 90710 91125 93100 555 60005
AAXX 06184 07314 06/// /3208 10100 20071 30298 40326 51005 60002 333 10107 20099 60007 90710 91112 555 60005
AAXX 06184 07335 04682 /2803 10042 20022 30171 40322 51012 60002 700// 333 10101 20041 60007 90710 91104 555 60005
AAXX 06184 07434 04569 /3103 10034 20011 39825 40322 53006 60002 700// 333 10068 20030 60007 90710 91106 555 60005
AAXX 06184 07460 02680 13403 10019 21022 39911 40318 53015 69922 81501 333 10076 20019 60007 81633 90710 91105 93100 555 60005
AAXX 06184 07471 04570 /3310 10000 21025 39298 48874 50010 69962 700// 333 10033 21004 60007 90710 91116 555 60005
AAXX 06184 07481 02782 30107 10038 20000 30001 40300 51012 69902 83500 333 10075 20023 60007 83656 90710 91110 93100 555 60005
AAXX 06184 07510 02965 02804 10075 20039 30263 40330 52014 60002 333 10122 20063 60007 90710 91107 93100 555 60005
AAXX 06184 07535 06/// /1901 10040 20027 30000 40325 53013 60002 333 10087 20040 60007 90710 91105 555 60005
AAXX 06184 07558 06/// /3112 10021 21012 39435 40302 51022 60002 333 10051 20020 60007 90710 91122 555 60005
AAXX 06184 07577 04/70 /3617 10080 21005 30176 40268 53021 69902 700// 333 10088 20070 60007 91034 90710 91136 555 60005
AAXX 06184 07591 04/// /3506 10045 21139 39161 4//// 51033 60002 700// 333 10057 21013 60007 90710 91134 555 60005
AAXX 06184 07607 04968 /3002 10071 20046 30261 40335 53014 60002 700// 333 10125 20062 60007 90710 91108 555 60005
AAXX 06184 07621 02665 42604 10043 20028 39894 40344 53013 69902 84500 333 10102 20041 60007 84643 90710 91108 93100 555 60005
AAXX 06184 07627 06/// /2603 10057 20020 39830 40333 51016 60002 333 10091 20053 60007 90710 91106 555 60005
AAXX 06184 07630 02681 12908 10068 20027 30141 40327 51017 60002 81502 333 10111 20066 60007 81635 90710 91111 93100 555 60005
AAXX 06184 07643 02884 13410 10089 21054 30261 40271 53026 60002 81400 333 10135 20086 60007 81856 90710 91113 93100 555 60005
AAXX 06184 07650 02986 03325 10084 21023 30191 40231 53007 60002 333 10107 20084 60007 91036 90710 91149 93100 555 60005
AAXX 06184 07661 02975 02930 10082 21040 30015 40179 53005 60002 333 10112 20081 60007 91042 90710 91152 555 60005
AAXX 06184 07690 02980 03209 10084 21058 30128 40162 51030 60002 333 10162 20084 60007 90710 91110 93100 555 60005
AAXX 06184 07747 02680 23220 10107 20012 30228 40282 53016 60002 81502 333 10127 20104 60007 81643 91040 90710 91147 93100 555 60005
AAXX 06184 07761 02584 13413 10133 21099 30137 40148 51031 60002 81100 333 10151 20117 60007 81830 90710 91125 93100 555 60005
AAXX 06184 CCA 91772 11398 83008 10253 20241 4//// 60061 76186 8772/ 333 5679/ 83756 87630 88460
AAXX 06181 01037 NIL
AAXX 06181 01046 NIL
AAXX 06181 01058 16/// /3204 11084 21095 39526 40003 52006 60002 333 11084 4/017 91106
AAXX 06181 01065 NIL
AAXX 06181 01092 NIL
AAXX 06181 01107 16/// /0503 11002 21068 39987 49992 52011 60002 333 10017 91116
AAXX 06181 01114 NIL
AAXX 06181 01144 46/// /1303 11025 21062 333 11006 91111
AAXX 06181 01199 NIL
AAXX 06181 01245 NIL
AAXX 06181 01259 16/// /0108 10024 21064 39964 49987 51017 60002 333 10038 91121
AAXX 06181 01262 NIL
AAXX 06181 01278 11585 10000 11030 21041 39886 49990 53019 60032 70181 81400 333 10007
AAXX 06181 01293 11665 53502 11027 21042 39782 49993 53020 60052 70282 85100 333 11001 91109
AAXX 06181 01329 NIL
AAXX 06181 01337 NIL
AAXX 06181 01344 16/// ///// 11019 21036 60012 333 11017 4/082
AAXX 06181 01364 NIL
AAXX 06181 01373 16/// /0000 11139 21153 39824 40032 56010 60002 333 11131 91102
AAXX 06181 01374 NIL
AAXX 06181 01380 16/// /3203 11048 21063 6//// 333 11043 4/047 91112
AAXX 06181 01389 NIL
AAXX 06181 01393 NIL
AAXX 06181 01424 11510 8//// 11010 21019 30067 40070 58016 60032 78582 883// 333 11010 45002
AAXX 06181 01431 16/// /2801 11016 21025 39396 40069 58017 69972 333 11013 91107
AAXX 06181 01436 NIL
AAXX 06181 01465 11982 82607 10027 21002 30039 40058 58015 60002 70221 8801/ 333 10036 91111
AAXX 06181 01471 11889 52202 11010 21051 60002 70222 84045 333 10021 91109
AAXX 06181 01483 NIL
AAXX 06181 01025 16/// /0801 11093 21109 39992 40004 50005 60002 333 11088 91104
AAXX 06181 01052 16/// /3101 11041 21059 39898 49998 52004 60002 333 11034 91102
AAXX 06181 01122 16/// /0000 11127 21139 39897 49992 52017 60012 333 91103
AAXX 06181 01132 16/// /0601 11126 21142 39586 49993 51017 60022 333 11064 91103
AAXX 06181 01156 NIL
AAXX 06181 01203 46/// /2506 10043 21011 39973 40021 58023 333 10051 91113
AAXX 06181 01233 16/// /0901 11026 21032 60032 333 11022 91107
AAXX 06181 01265 NIL
AAXX 06181 01273 NIL
AAXX 06181 01307 46/// /2605 10045 20007 30010 40038 58023 333 10062 91115
AAXX 06181 01321 16/// /1401 11019 21020 39774 40031 58014 60052 333 10001 91103
AAXX 06181 01327 11258 82903 11006 21015 60062 72687 888// 333 11001 91108
AAXX 06181 01350 16/// /2909 11050 21054 38619 40003 56005 69942 333 11047 91118
AAXX 06181 01361 16/// /3006 11032 21055 38978 40010 58007 60022 333 11028 4/090 91111
AAXX 06181 01375 NIL
AAXX 06181 01378 16/// /0000 11066 21077 39709 40009 56005 60002 333 11053 91103
AAXX 06181 01385 16/// /0401 11056 21079 39732 40010 57008 60002 333 11023 91105
AAXX 06181 01412 16/// /3008 10058 20023 30043 40072 58019 60052 333 91116
AAXX 06181 01422 16/// /1502 10031 20013 69962 333 10033 91105
AAXX 06181 01440 NIL
AAXX 06181 01441 NIL
AAXX 06181 01467 NIL
AAXX 06181 01469 NIL
AAXX 06181 01477 NIL
AAXX 06181 01480 16/// /3302 11003 21051 60002 333 11002 91104
AAXX 06181 01484 16/// /3601 11075 21092 39857 40019 57017 69942 333 91104
AAXX 06181 01490 16/// /3203 11019 21038 60002 333 11016 91111
AAXX 06181 01495 16/// /2611 10040 21016 30008 40021 57023 60002 333 10045 91113
AAXX 06181 01015 NIL
AAXX 06181 01023 11889 20000 11187 21203 39912 40015 51006 60002 70300 81058 333 11152 91119
AAXX 06181 01033 46/// /1402 11013 21056 39965 49996 50004 333 11009 91105
AAXX 06181 01059 11487 83601 11060 21068 39990 40000 53002 69902 70272 885// 333 11049 91105
AAXX 06181 01089 16/// /0000 11049 21051 39870 49979 52003 6//// 333 11046 91101
AAXX 06181 01167 41988 13502 11062 21085 39987 49992 52002 70100 80008 333 11044 91104
AAXX 06181 01180 NIL
AAXX 06181 01210 41475 72403 10025 20006 39993 40020 58014 71582 85268 333 10042 91111
AAXX 06181 01228 NIL
AAXX 06181 01240 16/// /3505 10016 21033 39978 49998 51010 6//// 333 10042 91122
AAXX 06181 01304 46/// ///// 10041 20001 39997 40028 58024 333 10060
AAXX 06181 01311 46/// /1402 10012 20009 39988 40051 58019 333 10020 91104
AAXX 06181 01340 NIL
AAXX 06181 01355 16/// ///// 11008 21025 30026 40031 56013 60002 333 11007
AAXX 06181 01360 NIL
AAXX 06181 01392 16/// /3601 11064 21076 39783 40015 57006 60002 333 11023 91102
AAXX 06181 01406 NIL
AAXX 06181 01411 16/// /2804 10049 20019 30040 40066 58019 6//// 333 10058 91112
AAXX 06181 01425 NIL
AAXX 06181 01433 46/// /2907 11038 21052 38781 40050 58012 333 11034 91111
AAXX 06181 01442 NIL
AAXX 06181 01450 NIL
AAXX 06181 01452 11982 61903 10012 21004 30047 40069 58014 60002 70222 80006 333 10019 91106
AAXX 06181 01473 11980 21701 11043 21059 39818 40031 57017 60002 70200 80008 333 11039 91103
AAXX 06181 01494 16/// /1602 10006 21044 39958 40024 57018 60002 333 10010 91106
AAXX 06181 01121 46/// /0305 11006 21063 39967 49979 50013 333 91114
AAXX 06181 01135 NIL
AAXX 06181 01143 16/// /2103 11110 21124 60002 333 11082 91106
AAXX 06181 01150 16/// /1802 11148 21189 60002 333 11117 4/061 91107
AAXX 06181 01192 NIL
AAXX 06181 01225 46/// /3506 10035 21029 30006 40010 57003 333 10059 91119
AAXX 06181 01230 16/// /2802 11022 21025 60142 333 11020 4/075 91106
AAXX 06181 01232 NIL
AAXX 06181 01234 16/// /1804 11008 21021 6//// 333 10031 91111
AAXX 06181 01253 16/// /3303 11019 21040 60072 333 10003 91112
AAXX 06181 01254 16/// /3201 11014 21025 60002 333 10005 4/054 91110
AAXX 06181 01257 NIL
AAXX 06181 01277 NIL
AAXX 06181 01291 NIL
AAXX 06181 01332 16/// /0000 11010 21020 69972 333 11010 91101
AAXX 06181 01366 46/// /2708 11081 21093 38383 40022 58007 333 11074 91111
AAXX 06181 01370 NIL
AAXX 06181 01376 16/// /0101 11122 21134 60002 333 11093 91103
AAXX 06181 01383 46/// /0000 11093 21098 39699 40025 53008 333 11093 91100
AAXX 06181 01386 NIL
AAXX 06181 01416 16/// ///// 10034 20028 60022 333 10039
AAXX 06181 01419 NIL
AAXX 06181 01430 16/// ///// 10034 20004 60002 333 10035
AAXX 06181 01434 16/// /1702 11022 21056 39070 40038 56008 60002 333 11014 91106
AAXX 06181 01455 NIL
AAXX 06181 01468 16/// /2801 11078 21086 60002 333 11039 91104
AAXX 06181 01470 16/// /1301 11018 21045 39920 40036 57016 60002 333 10001 4/008 91105
AAXX 06181 01476 NIL
AAXX 06181 01481 NIL
AAXX 06181 01488 NIL
AAXX 06184 03005 11230 82223 10059 20055 39889 49988 57061 60032 76362 887// 91750 333 10060 55300 20000 88704 90710 91130
AAXX 06184 03017 17362 /2418 10079 20075 39987 40018 56042 60042 761// 91750 333 10079 55300 20000 86/08 86/14 90710 91127
AAXX 06184 03023 17758 /2817 10087 20063 30084 40089 53004 60032 723// 91750 333 10097 86/50 90710 91135
AAXX 06184 03026 17760 /2615 10078 20046 30040 40058 55004 60022 723// 91750 333 10094 55300 20000 85/50 90710 91133
AAXX 06184 03063 15369 /2105 10057 20052 39796 40074 56027 69962 91750 333 10057 55300 20000 83/09 83/15 85/35
AAXX 06184 03066 15586 /2313 10081 20059 30047 40054 56033 69962 91750 333 10081 55300 20000 82/25 83/56
AAXX 06184 03075 17671 /2109 10062 20052 39990 40034 56036 69922 723// 91750 333 10064 83/36 87/50
AAXX 06184 03091 17781 /2211 10065 20034 39990 40070 56037 69902 723// 91750 333 10066 55300 20000 81/56 87/58
AAXX 06184 03100 NIL
AAXX 06184 03111 16259 /2621 10097 20093 30124 40137 56016 60022 91750 333 10097 87/04 85/11 90710 91129
AAXX 06184 03134 16/// /2515 10094 20086 3//// 4//// 5//// 60022 91750 333 10094 55300 20000 90710 91125
AAXX 06184 03136 17227 /2221 10088 20083 30097 40130 56026 69982 723// 91750 333 10088 55300 20000 81/04 87/09 90710 91132
AAXX 06184 03162 17236 /2310 10068 20059 39848 40136 56034 60022 761// 91750 333 10068 55300 20000 88/05
AAXX 06184 03166 17470 /2317 10089 20075 30033 40102 57035 69902 723// 91750 333 10090 55300 20000 83/13 86/60 90710 91128 91028
AAXX 06184 03171 12480 72617 10074 20059 30074 40086 58040 60002 8753/ 91750 333 10074 55300 20000 82713 84620
AAXX 06184 03204 11250 82519 10096 20088 30151 40170 58029 60012 75865 886// 91750 333 10097 55300 20000 83703 86705 88712 90710 91127
AAXX 06184 03240 15484 /2313 10080 20062 30100 40128 56029 60002 91750 333 10081 55300 20000 82/14 87/50
AAXX 06184 03257 15474 /2410 10086 20063 30124 40164 56030 69902 91750 333 10086 55300 20000 83/14 85/50
AAXX 06184 03292 NIL
AAXX 06184 03302 17558 /2119 10097 20089 30188 40200 58022 69902 710// 91750 333 10098 55300 20000 88/21 90710 91126
AAXX 06184 03354 15470 /2308 10068 20043 30056 40201 58025 60002 91750 333 10073 55300 20000 87/14
AAXX 06184 03377 12675 72417 10069 20043 30109 40194 57027 60002 8353/ 91750 333 10071 55300 20000 83638 87357
AAXX 06184 03414 15781 /2513 10081 20067 30117 40205 58027 69902 91750 333 10088 55300 20000 86/50
AAXX 06184 03462 15680 /2415 10072 20032 30119 40210 56021 60002 91750 333 10073 55300 20000 81/44 85/50
AAXX 06184 03482 15767 /2210 10059 20031 30185 40211 58019 60002 91750 333 10067 88/50
AAXX 06184 03502 17557 /2421 10090 20082 30073 40236 58012 69922 710// 91750 333 10091 55300 20000 87/22 83/29 90710 91129
AAXX 06184 03535 15466 /2010 10071 20050 30094 40213 56024 69902 91750 333 10080 55300 20000 88/14
AAXX 06184 03590 15780 /2409 10050 20026 30114 40226 58014 60002 91750 333 10062 55300 20000 88/56
AAXX 06184 03649 12465 72509 10083 20062 30133 40234 58016 60002 875// 91750 333 10083 55300 2//// 85612 86620
AAXX 06184 03716 17181 /2714 10096 20091 30183 40244 56016 69942 761// 91750 333 10097 55300 20000 86/02 84/33 90710 91125
AAXX 06184 03740 16028 /2208 10069 20066 30064 40243 58016 60002 91750 333 10080 55300 2//// 86/01 87/06
AAXX 06184 03746 15362 /2309 10075 20056 30093 40248 57017 60002 91750 333 10091 87/08
AAXX 06184 03772 15470 /2513 10079 20047 30210 40241 58014 60002 91750 333 10089 55300 20000 83/19 83/43 86/56
AAXX 06184 03796 46/// /2512 10059 20024 30099 40244 58015 91750 333 10074
AAXX 06184 03803 17261 /2816 10100 20096 30257 40295 57002 69922 710// 91750 333 10110 87/05
AAXX 06184 03808 11240 83013 10094 20088 30177 40285 56003 69922 75052 887// 91750 333 10105 55300 20000 88704
AAXX 06184 03809 11358 72912 10097 20085 30190 40284 56004 69922 75052 875// 91750 333 10105 84709 86618
AAXX 06184 03827 17571 /2812 10097 20081 30211 40273 56012 69922 723// 91750 333 10102 87/24
AAXX 06184 03840 17126 /2410 10072 20072 39949 40258 58015 69922 761// 91750 333 10074 87/02
AAXX 06184 03853 17480 /2408 10088 20070 30231 40256 56015 69902 723// 91750 333 10096 55300 20000 82/15 87/29
AAXX 06184 03874 46/// /2719 10091 20068 30244 40255 57013 91750 333 10102
AAXX 06184 03882 15762 /2506 10070 20049 30186 40251 56015 60002 91750 333 10084 55300 20000 88/56
AAXX 06184 03894 11468 72513 10097 20063 40284 57012 69902 70252 875// 333 10100 87618
AAXX 06184 03917 17031 /2213 10091 20089 30081 40158 58020 69942 722// 91750 333 10091 55300 20000 84/01 87/06
AAXX 06184 85832 12980 39903 10299 20092 40112 57027 60001 80002 333 56000 83070
AAXX 06184 85836 12970 52507 10310 20117 40162 57026 60001 80002 333 56007 85070
AAXX 06184 85864 11970 71908 10228 20122 40148 57028 60001 70522 80008 333 56009 87070
AAXX 06184 85874 12970 72804 10222 20070 39552 40149 58028 60001 80006 333 56006 87270
AAXX 06184 85886 12970 70106 10196 20170 40170 57031 60001 80008 333 56006 87270
AAXX 06184 85892 12670 82005 10260 20073 40108 57028 60001 81101 333 56606 81840 88070
AAXX 06184 85934 12980 42910 10162 20012 40111 57027 60001 80001 333 56007 84070
AAXX 06184 85968 12960 52710 10136 21003 40056 57040 60001 85010 333 56060 85459
AAXX 06184 89056 11225 83423 10009 20005 49898 57053 69913 76772 8552/ 333 56889 85606 88520 93100
AAXX 06184 89057 11220 82817 10001 20005 49900 57050 60013 76922 8572/ 333 56669 85705 88515
AAXX 06184 89058 11457 83221 10016 20003 49895 49916 57047 69901 77000 8172/
AAXX 06184 89059 12460 82115 10004 21046 49899 57033 60003 886// 333 73099 88713
AAXX 06184 89251 41256 82127 10013 20003 48999 57051 76872 8672/
AAXX 06184 61901 169// /1315 10175 20148 39663 40170 55002 60002 91750 333 10199 8//99 555 7/090
AAXX 06184 61902 11584 11414 10258 20197 40126 69902 70181 81800 333 10291 59001 81824
AAXX 06184 88889 11689 72416 10100 20016 30081 40166 58003 69961 70282 874// 91750 333 87640 90710 91126
AAXX 06184 78073 12565 20805 10230 20076 40219 60001 82100 333 59009 82825
AAXX 06181 78221 11562 50606 10221 20112 30194 40221 57020 60004 70220 85200 333 85820
AAXX 06181 78224 33580 49903 10229 20121 30139 40214 58022 84500 333 84636
AAXX 06181 78229 42560 21001 10227 20102 30141 40216 57020 82400 333 82620
AAXX 06181 78239 31559 40406 10226 20140 30207 40210 57020 70500 84800 333 83820
AAXX 06181 12345 42560 20704 10236 20118 30160 40200 57025 82100 333 81825
AAXX 06181 78243 42559 20505 10226 20101 30091 40215 57022 82100 333 82820
AAXX 06181 78255 42560 50707 10237 20118 30054 40203 57010 85200 333 10230 20139 85820
AAXX 06181 78264 31559 10303 10286 20119 30098 40173 57030 70500 81100 333 10292 20168 81820
AAXX 06181 78265 41560 40607 10253 20147 30086 40186 57020 70544 84200 333 10262 20148 84825
AAXX 06181 78256 11559 30606 10271 20091 30130 40189 57029 60004 70544 83100 333 10273 20197 83825
AAXX 06181 78259 31559 50905 10274 20125 30110 40193 57027 70544 85200 333 10274 20255 85820
AAXX 06181 78268 NIL
AAXX 06184 87692 32460 31618 10209 20147 30168 40193 52019 82501 333 56406 82618 555 10192
BBXX 46072 06181 99517 71722 46/// /0211 10001 21064 49940 54000 91750 22200 00040 10907 20805 3//// 40905 70036 333 91213 555 11113 22119 31748 40313 61749 025105 031102 028107 028103 026101 027101 80312 91724
BBXX 46082 06181 99597 71434 46/// ///// 11005 49961 55000 91750 22200 00057
BBXX 46072 06181 99517 71722 46/// /0211 10001 21064 49940 54000 91750 22200 00040 10907 20805 3//// 40905 70036 333 91213 555 11113 22119 31748 40313 61749 025105 031102 028107 028103 026101 027101 80312 91724
BBXX 46077 06181 99579 71543 46/// /2603 11071 21145 40018 58021 91750 22200 00039 10401 20301 3//// 40401 70007 333 91206 555 11032 22032 31658 42506 61749 260031 260037 256037 253042 252039 243041 82605 91656
BBXX 46035 06181 99571 71778 46/// /1003 1//// 40048 57006 91750 22200 11102 300// 41102 70011 333 91204 555 11025 22026 31655 42105 61749 095023 124014 156023 178032 191033 200028 82104 91655
BBXX 42039 06181 99288 70860 46/// /3502 10204 40219 57012 91750 22200 00212 10401 20401 70004 333 91203 555 11021 22021 31652 43603 61749 347019 345017 347018 338019 344018 351021 83603 91653
BBXX 41040 06181 99145 70530 46/// /0707 10263 20219 40146 56023 91750 22200 00271 11406 20403 3//// 41405 70029 333 91210 555 11079 22083 31747 40810 61749 074075 075073 077074 076072 078072 081075 80808 91748
BBXX 46026 06181 99378 71228 46/// /3308 10103 40229 53018 91750 22200 00113 11608 20703 329// 41607 70038 333 91212 555 11085 22090 31717 42713 61749 319081 279096 279099 278103 280100 285101
BBXX 46041 06181 99474 71247 46/// /2007 10078 40248 56007 91750 22200 00085 11207 20602 3//// 41207 70035 333 91208 555 11072 22076 31721 41609 61749 199068 183059 173067 178063 172061 170064
BBXX 44040 06181 99410 70736 46/// /2406 10073 20008 40096 91745 22200 10201 70003 333 91207 555 11072 22088
BBXX 51004 06181 99175 71524 46/// /0709 10233 20158 91750 555 11096 22103
BBXX 51002 06181 99171 71578 46/// /0711 10239 40187 51016 91750 22200 00243 333 91214 555 11118 22125 31747 40714 61749 069110 070106 068110 066101 070096 070100
BBXX 51100 06181 99236 71539 46/// /0807 10223 40229 53009 91750 22200 00234 11205 20502 333// 41204 70024 333 91208 555 11069 22072 31709 40809 61749 079065 073070 074071 075071 079070 079073
BBXX VCRG 06184 99474 70619 46/// /2611 11079 21120 40106 53002 7//// 8//// 22200 0//// 2////
AAXX 06181 14648 11665 83411 10072 21021 39863 49983 52048 69912 76066 8352/ 333 10096 83643 88457
AAXX 06181 14652 11000 83644 11095 21098 37676 48249 52010 60072 77074 8802/ 333 11078 49078 88500
AAXX 06181 14542 12670 73405 10058 21012 39897 40087 52034 60002 85570 333 10112 85646 82460 95900
AAXX 06184 65338 31940 50000 10295 20174 39901 40087 70522 80002 333 10343 59017 85076
AAXX 06181 11423 01686 12905 11026 21031 39281 42774 50024 60022 70181 81140 333 11001 48013 60005 81840
AAXX 06181 11487 02686 72904 10010 21022 39536 40172 52035 69912 875// 333 10034 60005 87633 91115
AAXX 06181 11518 02584 73204 10013 21034 39716 40165 52034 60002 875// 333 10039 60005 87631 91117
AAXX 06181 11603 01473 83006 11003 21027 39658 40153 51035 60022 72272 885// 333 10012 44003 69905 83616 87625 91114
AAXX 06181 11659 02572 83309 11002 21031 39497 40151 53042 69942 885// 333 10013 44003 60005 88621 91119
AAXX 06181 11723 02581 73006 10025 21038 39835 40138 52047 69912 87500 333 10041 60005 87630 91116
AAXX 06181 11782 01575 83307 10025 21011 39806 40116 52045 69942 72186 875// 333 10038 69905 85620 87630 91113
AAXX 06181 02741 17999 02302 11036 21054 39938 49954 57009 69912 70000 91739 333 11004 21042
AAXX 06181 02755 17371 82203 11057 21069 39810 49907 52014 69992 77170 88/// 91739 333 11017 21057
AAXX 06181 02805 17447 70105 11039 21054 39852 49985 52004 69932 77476 83/// 91739 333 11039 21115
AAXX 06181 02807 47408 80403 11059 21063 39785 49971 772// 88/// 91800 333 11059 21118
AAXX 06181 02836 37362 80102 11065 21076 39720 49947 52004 77187 88/// 91739 333 11065 21109
AAXX 06181 02845 47438 70305 11062 21067 39672 49924 52010 76776 87/// 91739 333 11062 21102
AAXX 06181 02849 47445 83401 11055 21063 39658 49935 52008 77187 88/// 91739 333 11043 21082
AAXX 06181 02866 17380 80902 11005 21005 39749 49897 52012 60012 77187 88/// 91739 333 11003 21042
AAXX 06181 02897 47460 80000 11019 21026 39718 49900 771// 88/// 91800 333 11001 21019
AAXX 06181 02913 47570 70000 11103 21109 39864 49918 785// 87/// 333 11029 21106
AAXX 06181 02917 47456 82803 11029 21034 39783 49906 771// 88/// 91800 333 10001 21029
AAXX 06181 02924 47450 82901 11082 21089 39727 49929 52008 77187 88/// 91739 333 11032 21084
AAXX 06181 02926 37578 81403 11045 21053 39918 49931 57008 700// 88/// 91800 333 11024 21061
AAXX 06181 02935 37456 73103 11069 21083 39749 49926 52014 78587 87/// 91739 333 11018 21069
AAXX 06181 02939 17148 71403 11001 21001 39711 49903 52006 60022 77170 87/// 91739 333 10004 21004
AAXX 06181 02944 47975 00000 11087 21090 39790 49942 700// 91800 333 11028 21087
AAXX 06181 02947 47383 82803 11030 21035 49921 52014 70022 88/// 91751 333 10005 21030
AAXX 06181 02963 46/// /0000 11082 21087 49944 333 1//// 2////
AAXX 06181 02974 12480 83006 11033 21054 39875 49942 52018 69902 70122 885// 333 10005 21034 42///
AAXX 06181 02976 46/// /3205 11006 21013 39906 49922 52018 91739 333 10021 21006
AAXX 06181 02981 17499 52706 10003 2//// 39951 49961 54002 69942 70084 85/// 91739 333 10012 21008
AAXX 06181 02982 46/// /3207 11007 21047 39947 49955 52013 91739 333 10006 21010
AAXX 06181 02741 17999 02302 11036 21054 39938 49954 57009 69912 70000 91739 333 11004 21042
AAXX 06181 02755 17371 82203 11057 21069 39810 49907 52014 69992 77170 88/// 91739 333 11017 21057
AAXX 06181 02805 17447 70105 11039 21054 39852 49985 52004 69932 77476 83/// 91739 333 11039 21115
AAXX 06181 02807 47408 80403 11059 21063 39785 49971 772// 88/// 91800 333 11059 21118
AAXX 06181 02836 37362 80102 11065 21076 39720 49947 52004 77187 88/// 91739 333 11065 21109
AAXX 06181 02845 47438 70305 11062 21067 39672 49924 52010 76776 87/// 91739 333 11062 21102
AAXX 06181 02849 47445 83401 11055 21063 39658 49935 52008 77187 88/// 91739 333 11043 21082
AAXX 06181 02866 17380 80902 11005 21005 39749 49897 52012 60012 77187 88/// 91739 333 11003 21042
AAXX 06181 02897 47460 80000 11019 21026 39718 49900 771// 88/// 91800 333 11001 21019
AAXX 06181 02913 47570 70000 11103 21109 39864 49918 785// 87/// 333 11029 21106
AAXX 06181 02917 47456 82803 11029 21034 39783 49906 771// 88/// 91800 333 10001 21029
AAXX 06181 02924 47450 82901 11082 21089 39727 49929 52008 77187 88/// 91739 333 11032 21084
AAXX 06181 02926 37578 81403 11045 21053 39918 49931 57008 700// 88/// 91800 333 11024 21061
AAXX 06181 02935 37456 73103 11069 21083 39749 49926 52014 78587 87/// 91739 333 11018 21069
AAXX 06181 02939 17148 71403 11001 21001 39711 49903 52006 60022 77170 87/// 91739 333 10004 21004
AAXX 06181 02944 47975 00000 11087 21090 39790 49942 700// 91800 333 11028 21087
AAXX 06181 02947 47383 82803 11030 21035 49921 52014 70022 88/// 91751 333 10005 21030
AAXX 06181 02963 46/// /0000 11082 21087 49944 333 1//// 2////
AAXX 06181 02974 12480 83006 11033 21054 39875 49942 52018 69902 70122 885// 333 10005 21034 42///
AAXX 06181 02976 46/// /3205 11006 21013 39906 49922 52018 91739 333 10021 21006
AAXX 06181 02981 17499 52706 10003 2//// 39951 49961 54002 69942 70084 85/// 91739 333 10012 21008
AAXX 06181 02982 46/// /3207 11007 21047 39947 49955 52013 91739 333 10006 21010
BBXX CZ9742 06184 99506 70969 46/// /3210 11050 21059 4//// 5//// 7//// 8//// 22200 0//// 2////
BBXX CGUM 06184 99457 70602 46/// /3016 11053 21102 40104 51006 7//// 8//// 22251 0//// 2////
BBXX CG2960 06184 99453 70817 46/// /2314 10056 20030 49994 58005 7//// 8//// 22200 0//// 2////
BBXX CG2350 06184 99433 70798 46/// /2314 10068 20018 40020 58010 7//// 8//// 22200 0//// 2////
AAXX 06184 89514 32514 83204 11032 49675 54000 8372/ 333 83720 87435
AAXX 06184 89514 32514 83204 11032 49675 54000 8372/ 333 83720 87435
AAXX 06184 78762 31570 71113 10230 20156 39100 40119 57015 71522 81570 333 10236 20182 30/// 5622/ 59007 81630 83456 85362
AAXX 06184 81401 06/// /0604 10286 20250 30100 40106 60021 333 60027 59003 555 69965
AAXX 06184 81408 06/// /0504 10277 20241 30097 40105 60021 333 60027 59006 555 60025
BBXX 41010 06181 99289 70785 46/// /2804 10201 40219 58016 91750 22200 00231 11102 20401 300// 41102 70009 333 91205 555 11039 22040
BBXX 41009 06181 99285 70802 46/// /2802 10176 20119 40231 58016 91750 22200 00207 10702 20401 300// 40701 70008 333 91203 555 11025 22025
BBXX 42057 06181 99168 70815 46/// /0409 10260 20185 40170 58014 91750 22200 00271 10804 20504 3//// 40802 70021 333 91210 555 11086 22091 31716 40311 61749 042085 039090 039086 034092 036089 041090 80410 91705
BBXX CGDX 06184 99468 70712 46/// /0409 11115 21154 40106 58037 7//// 8//// 22200 0//// 2////
BBXX VOLG 06184 99446 70636 46/// /3103 11047 21121 40130 56013 7//// 8//// 22200 0//// 2////
BBXX CGDT 06184 99463 70725 46/// /0308 11105 21135 40078 58042 7//// 8//// 22200 0//// 2////
BBXX VCBW 06184 99500 70668 46/// /2508 11120 21189 40104 56011 7//// 8//// 22243 00018 2////
BBXX CGTF 06184 99476 70527 46/// /1512 10010 21060 40032 52002 7//// 8//// 22200 0//// 2////
BBXX 3FZK3 06184 99552 71376 46/// /2329 10054 20053 49948 58063 7//// 8//// 22262 0//// 2////
BBXX VXKF 06184 99472 70599 46/// /2928 11062 21114 40044 55013 7//// 8//// 22253 0//// 2////
BBXX CGJV 06184 99459 70628 46/// /2914 11086 21126 40129 57012 7//// 8//// 22233 00015 2////
BBXX VCSZ 06184 99463 70726 46/// /0516 11114 21128 40074 58055 7//// 8//// 22252 0//// 2////
BBXX VRYO3 06184 99492 70639 46/// /3022 11094 21146 40089 56021 7//// 8//// 22225 00004 2////
BBXX CGSB 06184 99479 70695 46/// /1904 11129 21181 40128 56029 7//// 8//// 22200 0//// 2////
BBXX VCLM 06184 99468 70712 46/// /0611 11110 21146 40099 58038 7//// 8//// 22200 0//// 2////
BBXX CGDG 06184 99447 70636 46/// /3106 11056 21118 40132 56013 7//// 8//// 22200 0//// 2////
BBXX CGDR 06184 99543 71304 46/// /1015 10038 20020 40130 56037 7//// 8//// 22200 0//// 2////
BBXX VCWL 06184 99468 70712 46/// /0515 11119 21155 40101 58040 7//// 8//// 22200 0//// 2////
BBXX CGBR 06184 99534 71293 46/// /1607 10019 20019 40170 56009 7//// 8//// 22200 0//// 2////
AAXX 06184 86011 01565 83612 10248 20220 39941 40100 56006 60021 79592 8597/ 333 60027 85830 81940 88457
AAXX 06184 86033 NIL
AAXX 06184 86065 NIL
AAXX 06184 86068 NIL
AAXX 06184 86086 32570 33602 10364 20150 39989 40075 56030 82201 333 82833
AAXX 06184 86097 32570 52712 10348 20136 39456 40071 57019 85800 333 85827
AAXX 06184 86128 NIL
AAXX 06184 86134 31865 12508 10370 20121 39996 40079 57020 70511 81080 333 81357
AAXX 06184 86170 32970 41904 10372 20094 39976 40074 57006 84070 333 84457
AAXX 06184 86185 32570 31808 10368 20123 39995 40084 57017 83200 333 83833
AAXX 06184 86192 32970 00505 10358 20131 39876 40086 56019
AAXX 06184 86210 32670 33206 10360 20106 39727 40069 57019 83200 333 83840
AAXX 06184 86218 32970 32110 10354 20106 39996 40088 57016 80002 333 83070
AAXX 06184 86221 32970 01804 10344 20122 39981 40110 57009
AAXX 06184 86233 32970 01402 10346 20138 39913 40095 56007
AAXX 06184 86234 32570 11810 10348 20111 39860 40036 56009 81100 333 81830
AAXX 06184 86246 32570 42814 10348 20140 39800 40073 57011 81106 333 81833 84670
AAXX 06184 86251 NIL
AAXX 06184 86255 32670 11812 10332 20193 30029 40094 57018 81200 333 81840
AAXX 06184 86260 32670 32106 10322 20180 39929 40076 52024 83200 333 83640
AAXX 06184 86268 32670 32502 10340 20149 39929 40087 52005 83100 333 83840
AAXX 06184 86285 NIL
AAXX 06184 86297 32670 32305 10332 20195 39938 40038 58010 83200 333 83836
AAXX 06181 01007 11789 11303 11092 21156 30151 40161 58008 60002 70200 81040 333 11078 91105
AAXX 06181 01238 41460 82202 11052 21058 38850 49980 57003 70283 8594/ 333 91109
AAXX 06181 01049 16/// /1402 11090 21110 30004 40007 52002 60002 333 11090 91103
AAXX 06181 01241 11480 53605 10010 21038 39989 40000 51010 69932 70282 82860 333 10040 91120
AAXX 06181 01397 16/// /1701 11093 21100 39561 40014 50000 69962 333 11093 91103
AAXX 06181 01403 11580 42606 10047 20017 39993 40062 58020 60032 70281 84900 333 10056 91115
BBXX CGCC 06184 99463 70725 46/// /0312 11117 21149 40080 58041 7//// 8//// 22200 0//// 2////
BBXX CGBY 06184 99487 71235 46/// /2603 10039 20026 40260 55002 7//// 8//// 22200 0//// 2////
BBXX VOPP 06184 99456 70735 46/// /0207 11124 21136 4//// 5//// 7//// 8//// 22200 0//// 2////
BBXX C6SI6 06184 99543 71644 46/// /0225 11085 21120 49955 56042 7//// 8//// 22223 0//// 2////
BBXX VOKJ 06184 99455 70735 46/// /0211 11126 21145 40056 56034 7//// 8//// 22200 0//// 2////
BBXX CGHL 06184 99476 70527 46/// /2513 10013 21059 40032 52002 7//// 8//// 22200 0//// 2////
BBXX CGBN 06184 99475 70527 46/// /2514 10012 21058 40030 51003 7//// 8//// 22200 0//// 2////
BBXX CG2958 06184 99500 71272 46/// /1210 10036 20027 40221 56010 7//// 8//// 22200 0//// 2////
BBXX VOFG 06184 99456 70614 46/// /3016 11059 21118 40113 56004 7//// 8//// 22200 0//// 2////
AAXX 06184 81401 06/// /0604 10286 20250 30100 40106 60021 333 60027 59003 555 69965
AAXX 06184 81408 06/// /0504 10277 20241 30097 40105 60021 333 60027 59006 555 60025
AAXX 06184 78762 31570 71113 10230 20156 39100 40119 57015 71522 81570 333 10236 20182 30/// 5622/ 59007 81630 83456 85362
AAXX 06184 78762 31570 71113 10230 20156 39100 40119 57015 71522 81570 333 10236 20182 30/// 5622/ 59007 81630 83456 85362
BBXX VCXF 06184 99464 70484 41496 81740 10069 2007/ 40015 57037 78062 887// 22200 02027 20605 32232 40804 50803 80069
BBXX VOXS 06184 99467 70480 41596 81626 10061 2006/ 40049 56042 76166 885// 22200 04019 20403 320// 40607 80059
AAXX 06184 97180 32457 60603 10242 20242 30082 40100 58019 83532 333 56000 83619 83360
AAXX 06184 78397 111570 72006 10299 20200 30136 40152 60001 70511 82808 333 01909 10296 20214 59010 81820 85074
AAXX 06181 33815 32597 80000 10054 20034 39781 49986 52024 885// 333 10063 555 80014
BBXX C6SI6 06184 99543 71644 46/// /0225 11085 21120 49955 56042 7//// 8//// 22223 0//// 2////
BBXX CGHL 06184 99476 70527 46/// /2513 10013 21059 40032 52002 7//// 8//// 22200 0//// 2////
BBXX CG2958 06184 99500 71272 46/// /1210 10036 20027 40221 56010 7//// 8//// 22200 0//// 2////
BBXX CGBY 06184 99487 71235 46/// /2603 10039 20026 40260 55002 7//// 8//// 22200 0//// 2////
BBXX VOFG 06184 99456 70614 46/// /3016 11059 21118 40113 56004 7//// 8//// 22200 0//// 2////
BBXX VOKJ 06184 99455 70735 46/// /0211 11126 21145 40056 56034 7//// 8//// 22200 0//// 2////
BBXX VOPP 06184 99456 70735 46/// /0207 11124 21136 4//// 5//// 7//// 8//// 22200 0//// 2////
BBXX CGBN 06184 99475 70527 46/// /2514 10012 21058 40030 51003 7//// 8//// 22200 0//// 2////
BBXX CGCC 06184 99463 70725 46/// /0312 11117 21149 40080 58041 7//// 8//// 22200 0//// 2////
AAXX 06181 11812 36/// /3310 11003 21045 39411 42723 52055 333 10019
AAXX 06181 11813 12582 63205 10024 21035 39773 40127 52044 60002 85540 333 10051 82625 85638 91012
AAXX 06181 11816 11775 53312 10039 21036 39956 40121 52046 69902 70161 82541 333 10065 82650 84358 91019 91122
AAXX 06181 11819 16/// /3110 10027 21013 39890 40109 52051 69972 333 10049
AAXX 06181 11826 12584 73210 10034 21012 39903 40105 52043 69932 875// 333 10050 87627 91015
AAXX 06181 11841 11370 89901 10019 21003 39716 40096 52037 69982 76866 885// 333 10029 42003 83707 86710 88617
AAXX 06181 11855 11584 83007 10036 21006 39933 40100 52043 69902 72122 888// 333 10063 81820 88630
AAXX 06181 11856 16/// /3205 10025 21005 39773 40094 52054 69912 333 10041
AAXX 06181 11858 12570 23208 10033 21009 39948 40101 52048 60002 82500 333 10071 82630
AAXX 06181 11867 11668 79901 10020 21007 39771 40091 52041 60012 76162 875// 333 10031 42002 87634
AAXX 06181 11880 12570 32806 10037 20037 39912 40084 52046 60002 83500 333 10063 83626
AAXX 06181 11900 16/// /3301 10034 21006 39744 40081 52045 69902 333 10039
AAXX 06181 11903 12675 49902 10034 21008 39686 40068 52038 60002 82530 333 10045 43007 82635 83358
AAXX 06181 11916 11/00 93424 11088 21103 37788 48307 52027 60062 77343 333 11085 49080 89/00 91034 91135 92993 93598 96049
AAXX 06181 11918 11356 83105 11005 21009 39254 42697 52037 60052 77177 887// 333 10000 43013 88708
AAXX 06181 11927 12665 32703 10028 21014 39800 40064 52041 60002 81530 333 10073 81643 83357
AAXX 06181 11930 11/00 93408 11129 21141 37181 47834 52033 60262 77374 333 11128 48056 89/00 91021 91127 93559 96049
AAXX 06181 11933 11/58 89902 11031 21045 38521 48344 52033 60052 77174 885// 333 11030 48065 817// 88610 444 17//1
AAXX 06181 11934 11560 81703 10008 21026 39227 42675 52038 69922 77177 885// 333 10020 43002 83623 88643
AAXX 06181 11938 11540 73205 11005 21038 38986 42671 52038 69922 71088 878// 333 10013 44030 83826 87640
AAXX 06181 11952 16/// /2502 10010 21026 39220 42677 52040 69922 333 10017
AAXX 06181 11958 36/// ///// 11038 21045 38600 48339 52040 333 11026
AAXX 06181 11968 12675 73402 10039 20001 39766 40047 52037 60002 87500 333 10056 84635 87648
AAXX 06181 11976 11570 83302 10029 20013 39787 40052 52043 69932 76162 885// 333 10048 88623
AAXX 06181 11978 12675 43404 10045 20010 39909 40039 52036 60002 84500 333 10064 84633
AAXX 06181 11993 11667 89902 10038 20020 39830 40047 52039 69912 76162 885// 333 10050 88644
AAXX 06184 64500 32460 62410 10274 20244 30081 40094 82502 333 10286 82611 83650 86073
AAXX 06181 14528 NIL
AAXX 06181 14537 NIL
AAXX 06181 14544 NIL
AAXX 06181 14557 12960 82802 10044 21022 39708 40077 53037 69912 8807/ 333 87360 88461
AAXX 06181 14640 NIL
AAXX 06181 89061 379// 00606 10027 21004 39819 49826 57025 74144 333 91011 91122
AAXX 06184 78948 11470 71712 10240 20217 30137 40145 60041 71586 878// 333 05299 10269 20226 58006 70131 81812 83816 86635 90916
BBXX VAAZ 06184 99/// ///// 46/// /2815 10014 21045 40031 53001 7//// 8//// 22200 0//// 2////
BBXX VOKF 06184 99490 70669 46/// /2109 11132 21185 40115 58012 7//// 8//// 22200 0//// 2////
AAXX 06184 78397 111570 72006 10299 20200 30136 40152 60001 70511 82808 333 01909 10296 20214 59010 81820 85074
AAXX 06184 60060 32957 23202 10168 20126 40248 50001 80002 333 10182 82070 95300
AAXX 06184 60105 32450 43209 10124 20110 40273 55006 84600 333 10148 84716
AAXX 06184 60127 32960 00000 10151 20017 39662 40258 57001 333 10205
AAXX 06184 60141 32960 00000 10115 20000 39599 40273 58001 333 10196
AAXX 06184 60185 32970 00211 10160 20081 40256 56004 333 10217
AAXX 06184 60190 32975 00202 10185 20082 40237 57007 333 10220
AAXX 06184 60191 32970 00802 10174 20067 40247 56012 333 10229
AAXX 06184 60195 32970 00000 10167 21252 38585 48599 56005 333 10202 95500
AAXX 06184 60210 32970 00804 10203 21200 39049 48580 55000 333 10250
AAXX 06184 60220 32958 00212 10157 20112 40249 56010 333 10170
AAXX 06184 60265 32970 00000 10168 21118 38953 48580 56006 333 10205
AAXX 06184 60106 NIL
AAXX 06184 60107 NIL
AAXX 06184 60318 NIL
BBXX DBCK 06181 99/// ///// 46/// ///// 10055 20054 40150 54000 22220 00085
BBXX DBBC 06181 99575 10100 46/// /2806 10052 20029 40149 52010 22220 00050
AAXX 06184 60285 32960 13410 10164 20143 40243 53005 80002 333 10218 81070
AAXX 06184 60340 32965 20000 10143 20049 40257 53010 80002 333 10241 82070
BBXX DBJM 06181 99543 10072 46/// /2910 10057 20030 40156 52006 22231 00064
BBXX DBND 06181 99/// ///// 46/// ///// 10040 20018 40134 52005 22220 00463
AAXX 06184 60101 32458 30000 1//// 2//// 40278 58005 83500 333 1//// 83616
AAXX 06184 60115 32970 33604 10145 20033 40250 53005 80002 333 10219 83073
AAXX 06184 60135 31100 70101 10085 20079 40268 57005 74442 875// 333 10124 87701 84613
AAXX 06184 60150 32960 00000 10137 20058 39609 40266 58003 333 10192
AAXX 06184 60155 32456 306// 10122 20108 40262 57003 83600 333 10154 83710
AAXX 06184 60156 15250 20107 10134 20080 40271 58001 60002 82600 333 10204 82606
AAXX 06184 60230 15960 03604 10206 21007 40234 58005 60002 333 10242
AAXX 06184 60252 15960 02406 10159 20089 40243 53010 60002 333 10237
AAXX 06184 60096 NIL
BBXX DBBI 06181 99535 10100 46/// /2806 10052 20049 40146 52008 22240 00048
BBXX DBFH 06181 99535 10086 46/// /2904 10060 20041 40164 52007 22200 00055
BBXX DBKR 06181 99541 10121 46/// /2603 10019 20006 40125 52009 22200 00048
BBXX DBEA 06181 99540 10083 46/// /3010/10063 /0043 40150 52007 22250 00057
BBXX 61001 06184 99434 10078 46/// /2608 10135 20038 40158 52026 22200 00134 10604 70018
BBXX 41101 06184 99146 70562 46/// /0914 10262 20203 40136 57022 22200 00268 10905 70026
AAXX 06184 78970 11472 20910 10323 20216 30098 40123 60001 71500 82802 333 02200 10328 20223 58000 82818
AAXX 06184 78962 12572 40909 10289 20199 30127 40135 60001 82832 333 01299 10309 20229 58002 81820
BBXX VCXF 06184 99464 70484 41496 81740 10069 2007/ 40015 57037 78062 887// 22200 02027 20605 32232 40804 50803 80069
BBXX VOXS 06184 99467 70480 41596 81626 10061 2006/ 40049 56042 76166 885// 22200 04019 20403 320// 40607 80059
BBXX DBLK 06181 99339 30184 41/97 /1407 10227 20161 40162 54000 7//// 22200 04161
BBXX VOKF 06184 99490 70669 46/// /2109 11132 21185 40115 58012 7//// 8//// 22200 0//// 2////
BBXX VAAZ 06184 99/// ///// 46/// /2815 10014 21045 40031 53001 7//// 8//// 22200 0//// 2////
AAXX 06181 89061 379// 00606 10027 21004 39819 49826 57025 74144 333 91011 91122
BBXX 44011 06181 99411 70666 46/// /2506 10048 21011 40140 57015 91750 22200 00084 10804 20502 3//// 40804 70022 333 91207 555 11065 22067 31713 40608 61749 252062 245061 242060 238063 243061 243055
BBXX 41046 06181 99238 70683 46/// /0505 10226 20135 40197 58023 91750 22200 00250 11105 20401 300// 41105 70024 333 91208 555 11055 22057 31744 40508 61749 047054 048052 054055 048053 046054 044054 80506 91731
BBXX 46089 06181 99459 71258 46/// /1908 10084 20048 40255 56009 91750 22200 00092 11408 20602 327// 41408 70040 333 91209 555 11080 22084 31741 41910 61749 189076 191077 189074 185075 191071 193069
BBXX 51101 06181 99243 71621 46/// /0903 10229 20191 40223 53016 91750 22200 00237 11905 20401 332// 41905 70024 333 91204 555 11026 22027 31659 41305 61749 086026 088023 090025 104030 124032 117034
BBXX 46061 06181 99602 71468 46/// /2206 11020 49938 53007 91750 22200 00035 11106 20502 300// 41105 70028 333 91208 555 11063 22065 31712 42110 61749 220062 213065 215078 205077 208046 198052
AAXX 06181 76040 32960 03401 10180 20044 30163 40177 52002 91749 333 10184 20051 30/// 59057 98660
AAXX 06181 76055 32980 00302 10206 20020 30135 40154 52014 91740 333 10273 20088 30/// 59044
AAXX 06181 76061 32981 11003 10170 20092 30110 40185 52020 80001 91740 333 10176 20080 30/// 56006 59046 81072
AAXX 06181 76122 32970 10000 10168 21041 38545 40216 52003 80002 91750 333 10170 21042 30/// 56009 59080
AAXX 06181 76220 32958 20000 10056 21052 38178 40313 52003 80004 91740 333 10056 21094 30/// 56007 59038
AAXX 06181 76225 32960 01101 10152 21037 38637 40180 50002 91739 333 10152 21037 30/// 59085
AAXX 06181 76256 32980 00000 10200 20031 30170 40184 52022 91745 333 10219 20095 30/// 59005
AAXX 06181 76258 32970 21106 10246 20049 30123 40169 52015 80001 91750 333 10255 20072 30/// 59008
AAXX 06181 76305 32970 51602 10254 20032 30158 40166 50008 81014 91738 333 10254 20120 30/// 56066 59018 81460 84070
AAXX 06181 76342 32962 00101 10222 20031 39498 40217 57004 91750 333 10227 20080 30/// 59085
AAXX 06181 76382 32980 01103 10170 20067 38929 40205 52006 91750 333 10176 20048 30/// 59056
AAXX 06181 76390 32970 02804 10153 21011 38244 40209 57002 91730 333 10165 20023 30/// 59047
AAXX 06181 76393 32950 00601 10222 20077 39591 40172 57010 91755 333 10229 20094 30/// 59077
AAXX 06181 76402 31958 31403 10262 20068 30108 40165 52007 70544 80006 91750 333 10264 20086 30/// 56006 59011
AAXX 06181 76423 32975 32001 10138 20020 38174 40233 58002 80004 91740 333 10153 20005 30/// 56009 59021 83067
AAXX 06181 76458 31466 31302 10227 20181 30169 40174 58001 70144 82404 91745 333 10246 20139 30/// 56206 58001 82619 81079
AAXX 06181 76471 32980 32702 10166 21048 37705 40196 52005 80001 91755 333 10170 20001 30/// 56004 59023 83075
AAXX 06181 76491 32960 01401 10210 20159 39812 40206 52002 91750 333 10216 20088 31/// 59075
AAXX 06181 76499 32560 41503 10230 20174 30159 40181 57008 84200 91745 333 10231 20136 32/// 563// 59074 84821
AAXX 06181 76525 32980 32704 10084 21020 37482 40198 52005 80001 91740 333 10086 20041 30/// 56//1 59009 83080
AAXX 06181 76539 31962 20000 10150 20072 38177 40219 54000 70544 80005 91745 333 10165 20023 30/// 56005 59027 82070
AAXX 06181 76543 32975 13602 10232 20158 30172 40205 58012 80005 91739 333 10233 20156 31/// 56005 59067
AAXX 06181 76548 11475 70802 10220 20175 30197 40207 58014 69941 70252 8513/ 91738 333 10224 20168 31/// 56130 59061 85612
AAXX 06181 76556 32970 61201 10240 20082 39138 40175 50010 80006 91730 333 10240 20108 30/// 56006 59005 86270 99021
AAXX 06181 76571 31965 40000 10164 20041 38188 40225 56001 705// 80004 91748 333 10170 20050 30/// 56005 59005
AAXX 06181 76577 32570 72303 10157 20119 38058 40201 50005 87403 91740 333 10164 20055 30/// 56105 59013 81625 86082
AAXX 06181 76581 32975 62502 10181 20128 39087 40212 57004 84036 91750 333 10188 20087 30/// 56033 59053 84360
AAXX 06181 76585 32980 20000 10190 20157 30031 40188 58009 80006 91740 333 10210 20138 30/// 56//6 59062 82067
AAXX 06181 76593 32370 12205 10264 20222 30196 40198 57023 81100 91750 333 10281 20120 30/// 565// 59053 81820 91006 91522
AAXX 06181 76612 32962 61701 10170 20034 38499 40213 58002 80005 91750 333 10181 20060 30/// 56006 59007 86272
AAXX 06181 76625 32750 33203 10171 20053 38162 40188 52004 83030 91740 333 10173 20089 30/// 56060 59013 83357
AAXX 06181 76632 31550 52303 10128 20065 37639 40172 57003 70511 85800 91745 333 10136 20052 30/// 56600 59010 85726
AAXX 06181 76634 31570 63505 10164 20049 37858 40213 57001 70511 85204 91750 333 30/// 565/5 59023 85827
AAXX 06181 76644 32460 31102 10271 20115 30184 40197 57027 81101 91750 333 10277 20135 30/// 563/9 59047 81810
AAXX 06181 76654 31940 52502 10285 20232 30166 40170 50000 70544 80001 91750 333 10286 20207 30/// 56900 59026 85070
AAXX 06181 76658 31960 42702 10274 20144 39652 40162 56011 70541 80002 91748 333 10280 20155 30/// 56001 59012 84070 98924
AAXX 06181 76665 31562 21603 10209 20078 38130 40175 57007 70310 82200 91745 333 10220 20065 30/// 56100 57811 59015 82824
AAXX 06181 76681 31970 20502 10190 20040 37782 40187 57005 70510 80008 91745 333 10190 20020 30/// 59019 82077
AAXX 06181 76695 32960 00303 10272 20155 30178 40184 57017 91750 333 10275 20127 30/// 59046
AAXX 06181 76698 32560 20401 10275 20195 30193 40205 57019 82200 91750 333 10291 20145 30/// 56100 59039 82820
AAXX 06181 76743 31557 60903 10239 20185 30171 40179 57017 70211 862// 91750 333 10250 20186 30/// 562// 59052 86822
AAXX 06181 76750 32560 10903 10279 20150 30186 40197 57017 81100 91750 333 10279 20141 30/// 56100 59045 81820
AAXX 06181 76762 32904 33302 10260 20209 38772 40168 57011 80001 91739 333 10264 20108 30/// 56006 59017 83070
AAXX 06181 76773 31568 30901 10226 20058 38429 40155 57014 70500 81103 91746 333 10228 20062 30/// 56209 59021 81820
AAXX 06181 76775 31970 31801 10227 20062 38532 40199 57017 70300 80002 91730 333 10229 20060 30/// 56002 59026
AAXX 06181 76805 32570 61701 10293 20227 30141 40146 58009 82109 91750 333 10315 20218 30/// 561/5 59011 82830 82163 82064
AAXX 06181 76833 32970 03608 10286 20157 30147 40149 57001 91745 333 10286 20208 30/// 59026 92000
AAXX 06181 76840 32950 00304 10296 20197 30090 40146 57014 80000 91745 333 10305 20195 30/// 56000 58072 80000
AAXX 06181 76843 32965 00202 10230 20132 39512 40163 57002 91737 333 10244 20135 30/// 59004
AAXX 06181 76845 32960 01702 10210 20140 37953 40218 56017 91747 333 10218 20038 30/// 59015
AAXX 06181 76848 32970 00701 10208 20101 38390 40128 57013 91750 333 10208 20103 30/// 59031
AAXX 06181 76903 32580 42802 10302 20219 30011 40141 57014 84200 91750 333 10315 20228 30/// 56600 59013 84833
AAXX 06181 76160 32962 30201 10196 21022 39926 40177 52019 80006 91730 333 10196 20090 30/// 56009 59019 83070
AAXX 06181 76243 32973 00601 10196 20069 39875 40177 57009 91735 333 10208 20040 30/// 59108
AAXX 06181 76323 32970 03001 10182 21022 38296 40287 52008 91740 333 10182 21022 30/// 59058
AAXX 06181 76405 32980 60000 10239 20140 30152 40174 57005 80005 91750 333 10240 20118 30/// 56004 59014 86080
AAXX 06181 76412 32966 02201 10220 20163 30144 40189 57002 91740 333 10230 20120 30/// 58000
AAXX 06181 76647 32670 20903 10282 20126 30179 40209 57020 81101 91750 333 10286 20130 30/// 54305 5630/ 59052 81850
AAXX 06181 76855 32580 71301 10288 20221 30085 40135 51008 82270 91740 333 10295 20216 30/// 56990 59015 82820 85360 92000
BBXX 51000 06181 99235 71541 46/// /0907 10223 40225 53010 91750 22200 00230 11205 20602 334// 41205 70027 333 91208 555 11069 22072 31708 40910 61749 086066 088073 087076 087075 086077 084078
BBXX 44008 06181 99405 70692 46/// /1808 10078 20033 40123 56033 91750 22200 00095 10703 20602 323// 40702 70013 333 91209 555 11080 22084 31708 41910 61749 181077 184079 184077 188078 192077 188077
BBXX 44172 06181 99445 70634 46/// ///// 1//// 91801 22200 00054 11102 21001 315// 41101 70009
BBXX 44097 06181 99410 70711 46/// ///// 1//// 91802 22200 00107 10604 20604 70019
BBXX VAAP 06184 99492 70586 46/// /2632 11062 21116 40025 53002 7//// 8//// 22272 0//// 2////
AAXX 06181 76040 32960 03401 10180 20044 30163 40177 52002 91749 333 10184 20051 30/// 59057 98660
AAXX 06181 76055 32980 00302 10206 20020 30135 40154 52014 91740 333 10273 20088 30/// 59044
AAXX 06181 76061 32981 11003 10170 20092 30110 40185 52020 80001 91740 333 10176 20080 30/// 56006 59046 81072
AAXX 06181 76122 32970 10000 10168 21041 38545 40216 52003 80002 91750 333 10170 21042 30/// 56009 59080
AAXX 06181 76220 32958 20000 10056 21052 38178 40313 52003 80004 91740 333 10056 21094 30/// 56007 59038
AAXX 06181 76225 32960 01101 10152 21037 38637 40180 50002 91739 333 10152 21037 30/// 59085
AAXX 06181 76256 32980 00000 10200 20031 30170 40184 52022 91745 333 10219 20095 30/// 59005
AAXX 06181 76258 32970 21106 10246 20049 30123 40169 52015 80001 91750 333 10255 20072 30/// 59008
AAXX 06181 76305 32970 51602 10254 20032 30158 40166 50008 81014 91738 333 10254 20120 30/// 56066 59018 81460 84070
AAXX 06181 76342 32962 00101 10222 20031 39498 40217 57004 91750 333 10227 20080 30/// 59085
AAXX 06181 76382 32980 01103 10170 20067 38929 40205 52006 91750 333 10176 20048 30/// 59056
AAXX 06181 76390 32970 02804 10153 21011 38244 40209 57002 91730 333 10165 20023 30/// 59047
AAXX 06181 76393 32950 00601 10222 20077 39591 40172 57010 91755 333 10229 20094 30/// 59077
AAXX 06181 76402 31958 31403 10262 20068 30108 40165 52007 70544 80006 91750 333 10264 20086 30/// 56006 59011
AAXX 06181 76423 32975 32001 10138 20020 38174 40233 58002 80004 91740 333 10153 20005 30/// 56009 59021 83067
AAXX 06181 76458 31466 31302 10227 20181 30169 40174 58001 70144 82404 91745 333 10246 20139 30/// 56206 58001 82619 81079
AAXX 06181 76471 32980 32702 10166 21048 37705 40196 52005 80001 91755 333 10170 20001 30/// 56004 59023 83075
AAXX 06181 76491 32960 01401 10210 20159 39812 40206 52002 91750 333 10216 20088 31/// 59075
AAXX 06181 76499 32560 41503 10230 20174 30159 40181 57008 84200 91745 333 10231 20136 32/// 563// 59074 84821
AAXX 06181 76525 32980 32704 10084 21020 37482 40198 52005 80001 91740 333 10086 20041 30/// 56//1 59009 83080
AAXX 06181 76539 31962 20000 10150 20072 38177 40219 54000 70544 80005 91745 333 10165 20023 30/// 56005 59027 82070
AAXX 06181 76543 32975 13602 10232 20158 30172 40205 58012 80005 91739 333 10233 20156 31/// 56005 59067
AAXX 06181 76548 11475 70802 10220 20175 30197 40207 58014 69941 70252 8513/ 91738 333 10224 20168 31/// 56130 59061 85612
AAXX 06181 76556 32970 61201 10240 20082 39138 40175 50010 80006 91730 333 10240 20108 30/// 56006 59005 86270 99021
AAXX 06181 76571 31965 40000 10164 20041 38188 40225 56001 705// 80004 91748 333 10170 20050 30/// 56005 59005
AAXX 06181 76577 32570 72303 10157 20119 38058 40201 50005 87403 91740 333 10164 20055 30/// 56105 59013 81625 86082
AAXX 06181 76581 32975 62502 10181 20128 39087 40212 57004 84036 91750 333 10188 20087 30/// 56033 59053 84360
AAXX 06181 76585 32980 20000 10190 20157 30031 40188 58009 80006 91740 333 10210 20138 30/// 56//6 59062 82067
AAXX 06181 76593 32370 12205 10264 20222 30196 40198 57023 81100 91750 333 10281 20120 30/// 565// 59053 81820 91006 91522
AAXX 06181 76612 32962 61701 10170 20034 38499 40213 58002 80005 91750 333 10181 20060 30/// 56006 59007 86272
AAXX 06181 76625 32750 33203 10171 20053 38162 40188 52004 83030 91740 333 10173 20089 30/// 56060 59013 83357
AAXX 06181 76632 31550 52303 10128 20065 37639 40172 57003 70511 85800 91745 333 10136 20052 30/// 56600 59010 85726
AAXX 06181 76634 31570 63505 10164 20049 37858 40213 57001 70511 85204 91750 333 30/// 565/5 59023 85827
AAXX 06181 76644 32460 31102 10271 20115 30184 40197 57027 81101 91750 333 10277 20135 30/// 563/9 59047 81810
AAXX 06181 76654 31940 52502 10285 20232 30166 40170 50000 70544 80001 91750 333 10286 20207 30/// 56900 59026 85070
AAXX 06181 76658 31960 42702 10274 20144 39652 40162 56011 70541 80002 91748 333 10280 20155 30/// 56001 59012 84070 98924
AAXX 06181 76665 31562 21603 10209 20078 38130 40175 57007 70310 82200 91745 333 10220 20065 30/// 56100 57811 59015 82824
AAXX 06181 76681 31970 20502 10190 20040 37782 40187 57005 70510 80008 91745 333 10190 20020 30/// 59019 82077
AAXX 06181 76695 32960 00303 10272 20155 30178 40184 57017 91750 333 10275 20127 30/// 59046
AAXX 06181 76698 32560 20401 10275 20195 30193 40205 57019 82200 91750 333 10291 20145 30/// 56100 59039 82820
AAXX 06181 76743 31557 60903 10239 20185 30171 40179 57017 70211 862// 91750 333 10250 20186 30/// 562// 59052 86822
AAXX 06181 76750 32560 10903 10279 20150 30186 40197 57017 81100 91750 333 10279 20141 30/// 56100 59045 81820
AAXX 06181 76762 32904 33302 10260 20209 38772 40168 57011 80001 91739 333 10264 20108 30/// 56006 59017 83070
AAXX 06181 76773 31568 30901 10226 20058 38429 40155 57014 70500 81103 91746 333 10228 20062 30/// 56209 59021 81820
AAXX 06181 76775 31970 31801 10227 20062 38532 40199 57017 70300 80002 91730 333 10229 20060 30/// 56002 59026
AAXX 06181 76805 32570 61701 10293 20227 30141 40146 58009 82109 91750 333 10315 20218 30/// 561/5 59011 82830 82163 82064
AAXX 06181 76833 32970 03608 10286 20157 30147 40149 57001 91745 333 10286 20208 30/// 59026 92000
AAXX 06181 76840 32950 00304 10296 20197 30090 40146 57014 80000 91745 333 10305 20195 30/// 56000 58072 80000
AAXX 06181 76843 32965 00202 10230 20132 39512 40163 57002 91737 333 10244 20135 30/// 59004
AAXX 06181 76845 32960 01702 10210 20140 37953 40218 56017 91747 333 10218 20038 30/// 59015
AAXX 06181 76848 32970 00701 10208 20101 38390 40128 57013 91750 333 10208 20103 30/// 59031
AAXX 06181 76903 32580 42802 10302 20219 30011 40141 57014 84200 91750 333 10315 20228 30/// 56600 59013 84833
AAXX 06181 76160 32962 30201 10196 21022 39926 40177 52019 80006 91730 333 10196 20090 30/// 56009 59019 83070
AAXX 06181 76243 32973 00601 10196 20069 39875 40177 57009 91735 333 10208 20040 30/// 59108
AAXX 06181 76323 32970 03001 10182 21022 38296 40287 52008 91740 333 10182 21022 30/// 59058
AAXX 06181 76405 32980 60000 10239 20140 30152 40174 57005 80005 91750 333 10240 20118 30/// 56004 59014 86080
AAXX 06181 76412 32966 02201 10220 20163 30144 40189 57002 91740 333 10230 20120 30/// 58000
AAXX 06181 76647 32670 20903 10282 20126 30179 40209 57020 81101 91750 333 10286 20130 30/// 54305 5630/ 59052 81850
AAXX 06181 76855 32580 71301 10288 20221 30085 40135 51008 82270 91740 333 10295 20216 30/// 56990 59015 82820 85360 92000
AAXX 06181 76040 32960 03401 10180 20044 30163 40177 52002 91749 33310184 20051 30/// 59057 98660
AAXX 06181 76055 32980 00302 10206 20020 30135 40154 52014 91740 33310273 20088 30/// 59044
AAXX 06181 76061 32981 11003 10170 20092 30110 40185 52020 80001 91740333 10176 20080 30/// 56006 59046 81072
AAXX 06181 76122 32970 10000 10168 21041 38545 40216 52003 80002 91750333 10170 21042 30/// 56009 59080
AAXX 06181 76220 32958 20000 10056 21052 38178 40313 52003 80004 91740333 10056 21094 30/// 56007 59038
AAXX 06181 76225 32960 01101 10152 21037 38637 40180 50002 91739 33310152 21037 30/// 59085
AAXX 06181 76256 32980 00000 10200 20031 30170 40184 52022 91745 33310219 20095 30/// 59005
AAXX 06181 76258 32970 21106 10246 20049 30123 40169 52015 80001 91750333 10255 20072 30/// 59008
AAXX 06181 76305 32970 51602 10254 20032 30158 40166 50008 81014 91738333 10254 20120 30/// 56066 59018 81460 84070
AAXX 06181 76342 32962 00101 10222 20031 39498 40217 57004 91750 33310227 20080 30/// 59085
AAXX 06181 76382 32980 01103 10170 20067 38929 40205 52006 91750 33310176 20048 30/// 59056
AAXX 06181 76390 32970 02804 10153 21011 38244 40209 57002 91730 33310165 20023 30/// 59047
AAXX 06181 76393 32950 00601 10222 20077 39591 40172 57010 91755 33310229 20094 30/// 59077
AAXX 06181 76402 31958 31403 10262 20068 30108 40165 52007 70544 8000691750 333 10264 20086 30/// 56006 59011
AAXX 06181 76423 32975 32001 10138 20020 38174 40233 58002 80004 91740333 10153 20005 30/// 56009 59021 83067
AAXX 06181 76458 31466 31302 10227 20181 30169 40174 58001 70144 8240491745 333 10246 20139 30/// 56206 58001 82619 81079
AAXX 06181 76471 32980 32702 10166 21048 37705 40196 52005 80001 91755333 10170 20001 30/// 56004 59023 83075
AAXX 06181 76491 32960 01401 10210 20159 39812 40206 52002 91750 33310216 20088 31/// 59075
AAXX 06181 76499 32560 41503 10230 20174 30159 40181 57008 84200 91745333 10231 20136 32/// 563// 59074 84821
AAXX 06181 76525 32980 32704 10084 21020 37482 40198 52005 80001 91740333 10086 20041 30/// 56//1 59009 83080
AAXX 06181 76539 31962 20000 10150 20072 38177 40219 54000 70544 8000591745 333 10165 20023 30/// 56005 59027 82070
AAXX 06181 76543 32975 13602 10232 20158 30172 40205 58012 80005 91739333 10233 20156 31/// 56005 59067
AAXX 06181 76548 11475 70802 10220 20175 30197 40207 58014 69941 702528513/ 91738 333 10224 20168 31/// 56130 59061 85612
AAXX 06181 76556 32970 61201 10240 20082 39138 40175 50010 80006 91730333 10240 20108 30/// 56006 59005 86270 99021
AAXX 06181 76571 31965 40000 10164 20041 38188 40225 56001 705// 8000491748 333 10170 20050 30/// 56005 59005
AAXX 06181 76577 32570 72303 10157 20119 38058 40201 50005 87403 91740333 10164 20055 30/// 56105 59013 81625 86082
AAXX 06181 76581 32975 62502 10181 20128 39087 40212 57004 84036 91750333 10188 20087 30/// 56033 59053 84360
AAXX 06181 76585 32980 20000 10190 20157 30031 40188 58009 80006 91740333 10210 20138 30/// 56//6 59062 82067
AAXX 06181 76593 32370 12205 10264 20222 30196 40198 57023 81100 91750333 10281 20120 30/// 565// 59053 81820 91006 91522
AAXX 06181 76612 32962 61701 10170 20034 38499 40213 58002 80005 91750333 10181 20060 30/// 56006 59007 86272
AAXX 06181 76625 32750 33203 10171 20053 38162 40188 52004 83030 91740333 10173 20089 30/// 56060 59013 83357
AAXX 06181 76632 31550 52303 10128 20065 37639 40172 57003 70511 8580091745 333 10136 20052 30/// 56600 59010 85726
AAXX 06181 76634 31570 63505 10164 20049 37858 40213 57001 70511 8520491750 333 30/// 565/5 59023 85827
AAXX 06181 76644 32460 31102 10271 20115 30184 40197 57027 81101 91750333 10277 20135 30/// 563/9 59047 81810
AAXX 06181 76654 31940 52502 10285 20232 30166 40170 50000 70544 8000191750 333 10286 20207 30/// 56900 59026 85070
AAXX 06181 76658 31960 42702 10274 20144 39652 40162 56011 70541 8000291748 333 10280 20155 30/// 56001 59012 84070 98924
AAXX 06181 76665 31562 21603 10209 20078 38130 40175 57007 70310 8220091745 333 10220 20065 30/// 56100 57811 59015 82824
AAXX 06181 76681 31970 20502 10190 20040 37782 40187 57005 70510 8000891745 333 10190 20020 30/// 59019 82077
AAXX 06181 76695 32960 00303 10272 20155 30178 40184 57017 91750 33310275 20127 30/// 59046
AAXX 06181 76698 32560 20401 10275 20195 30193 40205 57019 82200 91750333 10291 20145 30/// 56100 59039 82820
AAXX 06181 76743 31557 60903 10239 20185 30171 40179 57017 70211 862//91750 333 10250 20186 30/// 562// 59052 86822
AAXX 06181 76750 32560 10903 10279 20150 30186 40197 57017 81100 91750333 10279 20141 30/// 56100 59045 81820
AAXX 06181 76762 32904 33302 10260 20209 38772 40168 57011 80001 91739333 10264 20108 30/// 56006 59017 83070
AAXX 06181 76773 31568 30901 10226 20058 38429 40155 57014 70500 8110391746 333 10228 20062 30/// 56209 59021 81820
AAXX 06181 76775 31970 31801 10227 20062 38532 40199 57017 70300 8000291730 333 10229 20060 30/// 56002 59026
AAXX 06181 76805 32570 61701 10293 20227 30141 40146 58009 82109 91750333 10315 20218 30/// 561/5 59011 82830 82163 82064
AAXX 06181 76833 32970 03608 10286 20157 30147 40149 57001 91745 33310286 20208 30/// 59026 92000
AAXX 06181 76840 32950 00304 10296 20197 30090 40146 57014 80000 91745333 10305 20195 30/// 56000 58072 80000
AAXX 06181 76843 32965 00202 10230 20132 39512 40163 57002 91737 33310244 20135 30/// 59004
AAXX 06181 76845 32960 01702 10210 20140 37953 40218 56017 91747 33310218 20038 30/// 59015
AAXX 06181 76848 32970 00701 10208 20101 38390 40128 57013 91750 33310208 20103 30/// 59031
AAXX 06181 76903 32580 42802 10302 20219 30011 40141 57014 84200 91750333 10315 20228 30/// 56600 59013 84833
AAXX 06181 76160 32962 30201 10196 21022 39926 40177 52019 80006 91730333 10196 20090 30/// 56009 59019 83070
AAXX 06181 76243 32973 00601 10196 20069 39875 40177 57009 91735 33310208 20040 30/// 59108
AAXX 06181 76323 32970 03001 10182 21022 38296 40287 52008 91740 33310182 21022 30/// 59058
AAXX 06181 76405 32980 60000 10239 20140 30152 40174 57005 80005 91750333 10240 20118 30/// 56004 59014 86080
AAXX 06181 76412 32966 02201 10220 20163 30144 40189 57002 91740 33310230 20120 30/// 58000
AAXX 06181 76647 32670 20903 10282 20126 30179 40209 57020 81101 91750333 10286 20130 30/// 54305 5630/ 59052 81850
AAXX 06181 76855 32580 71301 10288 20221 30085 40135 51008 82270 91740333 10295 20216 30/// 56990 59015 82820 85360 92000
AAXX 06181 10004 46/60 /2811 10061 20037 30165 40165 58002 222// 00069 333 10082 20071 55300 91117 91214
BBXX 46218 06181 99345 71208 46/// ///// 1//// 91802 22200 00132 11509 20805 329// 41508 70047
BBXX VAAP 06184 99492 70586 46/// /2632 11062 21116 40025 53002 7//// 8//// 22272 0//// 2////
AAXX 06184 68386 36/// /1103 10266 20219 39717 48651 52022 333 10330 20266 91006 555 91025
AAXX 06184 68399 16/// /0903 10270 20204 30038 40145 52020 69922 333 10348 20270 91023 555 20002 91015
BBXX 46232 06181 99325 71174 46/// ///// 1//// 91738 22200 00148 11705 21002 328// 41704 70025
BBXX 46247 06181 99378 71228 46/// ///// 1//// 91751 22200 00115 11409 20805 328// 41407 70043
BBXX 46243 06181 99462 71241 46/// ///// 1//// 91759 22200 00090 11407 21004 326// 41405 70033
BBXX 46236 06181 99368 71219 46/// ///// 1//// 91750 22200 00117 11409 21004 327// 41408 70043
BBXX 46229 06181 99438 71246 46/// ///// 1//// 91751 22200 00096 11310 21004 328// 41309 70048
BBXX 46225 06181 99329 71174 46/// ///// 1//// 91744 22200 00149 11704 21002 326// 41703 70018
BBXX 46213 06181 99403 71247 46/// ///// 1//// 91754 22200 00107 11511 21006 329// 41509 70053
BBXX 46215 06181 99352 71209 46/// ///// 1//// 91738 22200 00127 11707 20804 325// 41705 70034
BBXX 44099 06181 99369 70757 46/// ///// 1//// 91752 22200 00095 10401 20401 70007
BBXX 44039 06181 99411 70727 46/// /2605 10072 20030 40098 91745 22200 00068 10301 70005 333 91206
BBXX 46238 06181 99334 71195 46/// ///// 1//// 91750 22200 00136 11707 21004 328// 41706 70036
BBXX 46239 06181 99363 71221 46/// ///// 1//// 91751 22200 00118 11710 21005 329// 41708 70050
AAXX 06184 78016 11664 63013 10185 20097 30180 40184 57007 69951 70281 86800 333 10194 20152 70083 90945
AAXX 06184 13600 NIL
AAXX 06184 13610 11440 83610 10014 21020 39534 49961 52008 60122 76166 885// 333 10078 88613
AAXX 06184 13611 NIL
AAXX 06184 13619 NIL
AAXX 06184 13622 NIL
AAXX 06184 13624 11950 83208 10066 20027 39839 49878 52050 60052 76066 8802/ 333 10084 88460
AAXX 06184 13625 NIL
AAXX 06184 13629 11630 83206 11002 21002 38831 42517 52028 60142 77077 885// 333 10035 47014 88636
AAXX 06184 13601 NIL
AAXX 06184 13602 NIL
AAXX 06184 13623 12670 81606 10066 21037 39953 49959 52006 60122 885// 333 10090 88640
AAXX 06184 48310 31957 00000 10180 20167 39703 40169 52012 71000 333 58032
AAXX 06184 48325 NIL
AAXX 06184 48329 31950 00000 10200 20181 39818 40164 52014 71000 333 58014
AAXX 06184 48352 NIL
AAXX 06184 48357 NIL
AAXX 06184 48380 31956 10000 10237 20222 30063 40158 52006 71010 80001 333 58014
AAXX 06184 48383 31957 00502 10176 20147 30020 40185 52003 71000 333 58015
AAXX 06184 48403 31957 00000 10220 20188 39952 40166 52004 71000 333 58011
AAXX 06184 48405 32960 20705 10200 20167 30002 40169 52004 80005 333 58012
AAXX 06184 48420 31930 20000 10259 20239 30144 40148 56000 71000 80005 333 58005
AAXX 06184 48421 NIL
AAXX 06184 48425 NIL
AAXX 06184 48426 31957 00000 10246 20190 30138 40151 51004 71000 333 58008
AAXX 06184 48429 31950 20000 10258 20227 30133 40140 57008 71000 80001 333 59005
AAXX 06184 48430 31958 20903 10250 20187 30144 40151 53001 71000 80002 333 58006
AAXX 06184 48450 31956 00000 10248 20213 30116 40150 55000 71000 333 58007
AAXX 06184 48459 31958 00000 10260 20231 30145 40148 57000 71000 333 58006
AAXX 06184 48465 31958 20000 10250 20228 30146 40150 57001 71000 80005 333 58011
AAXX 06184 48550 31558 52702 10263 20234 30139 40146 57003 71021 81106 333 58005
AAXX 06184 48552 31458 30000 10241 20231 30139 40145 57006 71011 81205 333 58010
AAXX 06184 48566 32560 20605 10261 20211 30128 40137 57013 81101 333 58021
AAXX 06184 48568 32460 41002 10264 20224 30135 40143 57004 83801 333 58005
AAXX 06184 48300 31558 10000 10186 20171 39850 40170 51013 71000 81100 333 58023
AAXX 06184 48327 32960 00000 10208 20172 39810 40172 52015 333 58021
AAXX 06184 48331 32960 00000 10198 20187 39934 40170 51012 333 58018
AAXX 06184 48353 NIL
AAXX 06184 48356 32960 01503 10178 20139 39990 40194 52004 333 58016
AAXX 06184 48375 32960 00000 10200 20176 39919 40150 52009 333 58020
AAXX 06184 48378 31556 40000 10232 20217 30097 40150 57002 71000 82206 333 58006
AAXX 06184 48381 32960 00000 10216 20175 39952 40173 52006 333 58011
AAXX 06184 48407 NIL
AAXX 06184 48431 NIL
AAXX 06184 48456 NIL
AAXX 06184 48480 31957 20000 10245 20223 30142 40146 52001 71000 80001 333 58008
AAXX 06184 48500 31956 20000 10237 20230 30141 40148 57006 71000 80005 333 58001
AAXX 06184 48551 31956 20000 10240 20225 30142 40151 52007 71000 80005 333 58010
AAXX 06184 48565 NIL
AAXX 06184 48569 31558 30000 10235 20201 30105 40145 57005 71000 81101 333 58004
AAXX 06184 48583 NIL
AAXX 06184 65201 31920 61903 10285 20227 30066 40119 70522 80008 333 10340 56000 59006 86280 91106
AAXX 06184 16008 NIL
AAXX 06184 16084 12975 03013 10064 21080 39980 40149 52020 60002 333 10102
AAXX 06184 16088 12970 03015 10051 21025 30014 40134 51018 60002 333 10102
AAXX 06184 16110 12998 00707 10054 21029 30081 40085 52032 60002 333 10132 555 0////
AAXX 06184 16134 12980 03235 11068 21110 37734 48430 52025 60002 333 11060 44028 92845
AAXX 06184 16153 12999 03616 10090 21171 39880 40147 51020 60002 333 10129 555 0////
AAXX 06184 16158 12965 03415 10100 21081 30110 40118 52030 60002 333 10142
AAXX 06184 16206 NIL
AAXX 06184 16219 42960 00224 11060 21095 37979 48378 52029 6///2 333 11044 44012 92825
AAXX 06184 16252 11335 83018 10000 21004 39096 42672 52021 60022 79597 883// 333 10044 85708 83915
AAXX 06184 16280 12597 43635 10110 21008 39814 40034 52039 60002 84100 333 10136 84820 555 0////
AAXX 06184 16310 12898 33418 10078 21022 39765 49986 52025 69922 83030 333 10096 83357 555 0////
AAXX 06184 16320 NIL
AAXX 06184 16325 12597 83128 10092 20025 39941 49955 52028 60022 8552/ 333 10114 85620 84457 91050 91151 98062 555 0////
AAXX 06184 16360 11497 83325 10094 21002 39771 49904 52021 60072 70296 8687/ 333 10130 83813 83615 86357 91159 555 0////
AAXX 06184 16400 12497 53427 10110 21022 39738 40025 53028 69962 84270 333 10196 55300 84817 555 0767/
AAXX 06184 16420 12597 70207 10124 21019 39932 49997 52025 60062 84576 333 10154 84630 83358 555 0////
AAXX 06184 16429 11562 53427 10120 21008 30046 40057 53020 60022 72396 85900 333 10150 82921 83825
AAXX 06184 16470 11558 33425 10116 20067 39836 40072 51021 60012 72161 83200 333 10154 55300 22/// 83825 95000
AAXX 06184 16480 11497 73511 10098 20017 39940 40002 52023 69962 70362 84270 333 10164 84815 84358 85459 91131 555 0////
AAXX 06184 16522 12997 03424 10110 20058 39914 40159 52022 60002 333 10122 55300 555 0////
AAXX 06184 16539 NIL
AAXX 06184 16550 12698 23317 10096 20002 39928 40108 52031 60002 82200 333 10126 82840 555 0////
AAXX 06184 16021 12560 33527 11064 21133 37910 48441 52043 60012 83600 333 11054 43044 83725 92825
AAXX 06184 16022 11984 03527 11088 21095 37771 48430 52029 60002 72842 333 11080 48019 92862
AAXX 06184 16033 11557 80000 11018 21064 38715 48424 52043 69942 71072 885// 333 11012 47050 88625 92802
AAXX 06184 16040 12565 33601 11018 21032 39206 42740 52040 60002 83200 333 10010 43003 83830 92824
AAXX 06184 16052 11/01 90631 11190 21212 36555 47997 52064 60032 77174 333 11188 49999 89/01 93199 96045
AAXX 06184 16061 12984 03505 10066 21106 39317 42769 51018 60002 333 10078
AAXX 06184 16098 12980 02306 10068 21104 30052 40104 52040 60002 333 10140
AAXX 06184 16138 12988 03306 10074 21032 30100 40111 52035 60002 333 10109
AAXX 06184 16148 12980 03016 10067 21003 30101 40113 52036 60002 333 10098
AAXX 06184 16168 NIL
AAXX 06184 16172 12970 02705 10064 21108 39812 40113 52037 60002 333 10102
AAXX 06184 16179 12981 03115 10048 21109 39408 42712 52032 60002 333 10063
AAXX 06184 16224 12970 03418 10086 21088 39749 40066 52029 60002 333 10100
AAXX 06184 16232 11597 73540 10100 21014 39968 40021 52035 60022 72992 87900 333 10126 83920 85823 555 0////
AAXX 06184 16245 12970 03115 10086 21089 30050 40076 52031 60002 333 10122
AAXX 06184 16253 12570 50415 10074 21053 30040 40052 52048 60002 85800 333 10138 81825 84640
AAXX 06184 16258 12365 63640 10010 21083 38962 42593 52017 69942 86800 333 10030 82807 84611
AAXX 06184 16263 11/00 93318 11006 21006 38759 48332 52022 60022 77074 333 10014 43997 89/00 92802 93197
AAXX 06184 16294 42597 33010 10102 20021 39827 40018 52032 6///2 83100 333 10126 83825 555 0////
AAXX 06184 16337 12598 52422 10054 21085 39405 49975 52023 60002 85200 333 10082 85820 555 0////
AAXX 06184 16344 11260 43320 11030 21037 38110 48304 52020 60132 70274 84100 333 10040 42040 84805 95000 95100
AAXX 06184 16434 NIL
AAXX 06184 16450 NIL
AAXX 06184 16459 11464 83012 10074 20068 30003 40038 52038 60042 72996 888// 333 10150 84815 86625
AAXX 06184 16546 12964 03112 10098 20019 30114 40142 52036 60002 333 10166
AAXX 06184 16564 12597 13600 10122 20006 39982 40123 52029 60002 81100 333 10152 81820 555 0////
AAXX 06184 71805 01458 62821 11010 21035 30048 40057 55001 60012 72687 85201 333 10040 21012 69907 85811 90710 91133 93100 555 69905
AAXX 06184 16045 NIL
AAXX 06184 16090 12970 03207 10064 21069 30042 40125 51038 60002 333 10124
AAXX 06184 16149 12970 02917 10085 21022 30078 40094 52028 60002 333 10108
AAXX 06184 16261 NIL
AAXX 06184 16453 11597 60206 10102 20028 39962 40040 53032 69922 76022 86500 333 10162 55300 86620 555 0426/
AAXX 06184 16560 11566 23113 10104 21007 30136 40143 52036 69962 70161 82100 333 10162 55300 82830
AAXX 06181 06400 32570 32304 10030 20014 30237 40248 58012 81131 333 10078 81825 91110 91208
AAXX 06181 06428 15967 02403 10037 20013 30202 40252 58004 69922 333 10074 91109 91206
AAXX 06181 06451 12570 42604 10045 20015 30180 40249 51003 69922 83801 333 10065 81824 83640 91110 91208
AAXX 06181 06456 11464 72603 10035 20015 39886 40262 51006 60012 70282 878// 333 10052 81816 86632 91110 91208
AAXX 06181 06476 17562 82703 10012 20004 39579 40261 52009 60032 70061 333 10018 85/25 88/29 91113 91209
AAXX 06181 06479 11664 52504 10047 20030 30159 40240 51006 69962 70282 85500 333 10079 85642 91108 91205
AAXX 06181 06490 161// 82903 10024 20016 39666 40250 51013 60022 333 10033 86/02 88/03 91112 91207
AAXX 06181 06590 11470 22704 10030 20017 39795 40259 52021 60022 70281 81831 333 10041 81815 91111 91207
AAXX 06181 06407 12570 12204 10028 20005 30239 40246 57012 60002 81501 333 10076 81628 91111 91209
AAXX 06181 06447 NIL
AAXX 06181 06431 NIL
AAXX 06181 06432 35/61 02403 10029 20007 30180 40259 50000 333 10070 91110 91208
AAXX 06181 06449 12565 52603 10034 20011 30025 40260 52004 69942 82502 333 10060 82632 83070 91111 91206
AAXX 06181 06450 12570 62605 10057 20019 30225 40242 50000 60002 865// 333 10080 82625 85640 91112 91208
AAXX 06181 06458 17668 /2503 10045 20023 30096 40253 53004 69962 70086 333 10064 81/39 91111 91207
AAXX 06181 06465 37465 /2704 10054 20026 30175 40243 51004 70085 333 10081 81/19 85/43 91111 91208
AAXX 06181 06478 11463 72704 10037 20022 30022 40248 51008 69972 70282 878// 333 10057 82818 85643 91110 91207
AAXX 06181 06496 17260 /2806 10018 20009 39551 40242 51013 60042 72386 333 10029 81/03 83/05 85/07 91113 91209
AAXX 06184 64550 32460 6//// 10268 20238 30/// 40/// 86500 333 10320 5//// 84610 86625
AAXX 06184 64551 32460 30000 10285 20243 30063 40092 83200 333 10312 59014 83815 94941 95831
AAXX 06184 48302 NIL
AAXX 06184 48304 31958 00000 10174 20167 39697 40169 50007 71000 333 58024
AAXX 06184 48334 31958 00000 10210 20186 39781 40148 52003 71000 333 58015
AAXX 06184 48360 32961 00000 10203 20165 39903 40169 52007 333 58001
AAXX 06184 48372 31556 20102 10235 20233 30093 40152 52008 71000 81535 333 58012
AAXX 06184 48373 NIL
AAXX 06184 48386 NIL
AAXX 06184 48387 31550 50000 10158 20149 39200 40179 52016 71011 82556 333 58015
AAXX 06184 48408 NIL
AAXX 06184 48415 31950 60605 10241 20209 30141 40152 51003 71021 80006 333 58008
AAXX 06184 48433 31956 00000 10198 20173 39997 40167 52001 71000 333 58012
AAXX 06184 48437 32960 00402 10207 20176 39952 40167 52004 333 58011
AAXX 06184 48440 NIL
AAXX 06184 48451 31907 00000 10234 20226 30144 40155 52004 74200 333 58010
AAXX 06184 48454 NIL
AAXX 06184 48457 NIL
AAXX 06184 48463 NIL
AAXX 06184 48464 NIL
AAXX 06184 48479 NIL
AAXX 06184 48520 31958 50000 10228 20216 30134 40149 56002 71011 80005 333 58004
AAXX 06184 48554 31557 50000 10256 20247 30134 40138 57013 71011 82206 333 58007
AAXX 06184 48563 NIL
AAXX 06184 48571 32560 31004 10252 20211 30131 40143 57007 82102 333 58006
AAXX 06181 45032 36/// /3402 10112 20071 30234 40250 57001
AAXX 06181 45035 36/// /0003 10117 20085 30212 40256 54000
AAXX 06181 45039 36/// /0202 10118 20085 30233 40248 57002
AAXX 06181 45044 36/// /3607 10122 20093 30145 40242 57001
BBXX 44100 06181 99363 70756 46/// ///// 1//// 91752 22200 00100 11201 21001 310// 41201 70006
BBXX 41110 06181 99341 70777 46/// ///// 1//// 91751 22200 00120 11201 21001 70005
BBXX 42099 06181 99273 70842 46/// ///// 1//// 91757 22200 00214 10501 20501 70005
BBXX 41113 06181 99284 70805 46/// ///// 1//// 91751 22200 00194 11301 21001 309// 41301 70004
BBXX 41112 06181 99307 70813 46/// ///// 1//// 91751 22200 00152 11101 310// 41101 70004
AAXX 06184 48307 31950 00000 10203 20190 39766 40152 52004 71000 333 59007
AAXX 06184 48324 32560 30701 10214 20200 39940 40163 52012 82105 333 58017
AAXX 06184 48333 31956 00000 10210 20194 39863 40170 52009 71000 333 58013
AAXX 06184 48350 NIL
AAXX 06184 48355 32960 00000 10170 20144 39965 40192 50008 333 58018
AAXX 06184 48358 31959 10000 10165 20148 30010 40192 56001 71000 80005 333 58015
AAXX 06184 48384 31958 00000 10205 20182 39976 40171 52005 71000 333 58010
AAXX 06184 48401 31950 20000 10230 20196 30051 40160 53003 71000 80005 333 58004
AAXX 06184 48404 32961 00810 10205 20172 39986 40168 52004 333 58013
AAXX 06184 48409 NIL
AAXX 06184 48419 NIL
AAXX 06184 48427 NIL
AAXX 06184 48435 NIL
AAXX 06184 48453 31957 40000 10259 20244 30146 40149 52003 71011 80005 333 58009
AAXX 06184 48458 NIL
AAXX 06184 48474 31958 30000 10220 20203 30030 40155 51002 71011 80005 333 58010
AAXX 06184 48481 NIL
AAXX 06184 48555 31550 30000 10230 20222 30124 40167 55002 71011 81105 333 59002
AAXX 06184 48556 31556 30000 10230 20221 30127 40143 57003 71011 82505 333 58001
AAXX 06184 48557 32960 40000 10235 20228 30113 40149 52002 80001 333 58017
AAXX 06184 48560 31558 10000 10264 20241 30116 40121 57012 71000 81100 333 58004
AAXX 06184 48574 32560 30000 10255 20248 30108 40138 57005 82101 333 58002
AAXX 06184 48581 NIL
AAXX 06181 45032 36/// /3402 10112 20071 30234 40250 57001
AAXX 06181 45035 36/// /0003 10117 20085 30212 40256 54000
AAXX 06181 45039 36/// /0202 10118 20085 30233 40248 57002
AAXX 06181 45044 36/// /3607 10122 20093 30145 40242 57001
BBXX 51204 06181 99213 71581 46/// ///// 1//// 91752 22200 00245 10703 20702 327// 41301 70014
BBXX 51201 06181 99217 71581 46/// ///// 1//// 91742 22200 00241 11204 21002 335// 41203 70020
BBXX 51202 06181 99214 71577 46/// ///// 1//// 91740 22200 00239 11305 20803 301// 41303 70023
AAXX 06181 15015 02997 51901 10004 21006 39421 42651 52030 60002 85050 333 10042 21001 31005 60007 91002 91103 92600
AAXX 06181 15020 02597 52902 10022 20006 39810 40010 53031 60002 82570 333 10084 20022 31012 60007 91002 91103
AAXX 06181 15090 01596 82801 10040 20031 39911 40003 52033 60002 71022 8657/ 333 10075 20016 31007 55300 10037 20002 3//// 60007 91002 91102
AAXX 06181 15108 01/91 92906 11063 21063 37903 48335 52021 60002 74544 333 11047 21063 3//// 44018 60007 92727 92873
AAXX 06181 15120 02997 72702 10006 21008 39531 40033 52036 60002 83079 333 10055 20005 34011 55300 10193 2//// 3//// 60007 91003 91105 99021
AAXX 06181 15150 01596 83201 10050 20030 39787 49999 52031 69902 76122 8557/ 333 10053 20014 31005 69907 91003 91103 96010
AAXX 06181 15170 02997 83101 10009 20002 39214 42631 52028 60002 8807/ 333 10031 20002 3/003 41998 60007 91001 91103
AAXX 06181 15200 02998 53502 10028 20017 39885 40031 52035 60002 85070 333 10055 20028 31007 60007 91005 91105
AAXX 06181 15230 02597 53105 10038 21001 39722 40015 51031 60002 85500 333 10063 20029 31007 55300 10143 20004 3//// 60007 91007 91107
AAXX 06181 15260 01997 82702 10021 20012 39480 40017 52030 69942 70282 8809/ 333 10056 20012 31008 69947 91003 91105
AAXX 06181 15280 01/93 80216 11112 21121 37282 47803 52012 69982 77174 885// 333 11066 21114 3//// 49038 69987 91024 92818 92966 96038 96041
AAXX 06181 15292 02998 83203 10026 20013 39717 40013 52025 60002 8807/ 333 10047 20021 31007 60007 91005 91105
AAXX 06181 15310 01496 80204 10060 20060 39884 49969 52014 60062 76162 8802/ 333 10072 20038 31009 55300 10012 20001 3//// 60057 91007 91107 96010
AAXX 06181 15335 01497 81503 10074 20074 39958 49965 52014 60042 76162 8802/ 333 10093 20052 31011 60037 91005 91107
AAXX 06181 15346 02997 80105 10070 21009 39664 49948 51013 60002 8807/ 333 10072 20018 31009 60007 91011 91111
AAXX 06181 15350 01597 81006 10061 20047 39843 49962 52014 60032 76162 8802/ 333 10072 20013 31010 60027 91011 91112
AAXX 06181 15360 01497 81404 10084 20074 39957 49971 52015 60022 76122 8672/ 222// 06070 20502 333 10087 20063 3//// 60027 91005 91109 92437
AAXX 06181 15410 01997 83201 10061 21008 39865 49959 51019 69912 70262 8807/ 333 10074 20025 31011 60007 91004 91104
AAXX 06181 15420 01497 80405 10063 20055 39830 49940 52012 60052 76166 8572/ 333 10064 20037 31008 55300 0//// 20000 3//// 60027 91011 91111
AAXX 06181 15450 01496 83402 10041 20039 39710 49944 52011 60022 76164 8672/ 333 10044 20015 31006 55300 10028 20001 3//// 69927 91004 91104 96010
AAXX 06181 15460 01496 80902 10080 20077 39909 49933 53009 60112 76166 8572/ 333 10088 20062 31009 60057 91004 91104 96010
AAXX 06181 15470 01496 80204 10055 20055 39806 49931 52009 60042 76166 8572/ 333 10056 20036 31006 60017 91007 91107
AAXX 06181 15480 01497 81102 10081 20081 39936 49953 52005 60132 76166 8672/ 222// 06073 2//// 333 10097 20068 31010 60077 91006 91106 92437
AAXX 06184 17600 11560 71609 10152 20106 30119 40129 53008 60022 72181 8788/ 333 10171 20105 81825 87644
AAXX 06184 17601 11565 72205 10133 20103 30100 40131 53009 60032 78081 85871 91750 333 10173 82825 84630
AAXX 06184 17607 NIL
AAXX 06184 17609 11570 42803 10117 20096 30130 40134 53007 69932 72186 83830 333 10176 20097 81825 83656
AAXX 06184 61968 16/// /3602 10278 20236 40117 60002 333 10325 58005 90710 91109 555 60005
AAXX 06184 61970 16/// ///// 10266 20252 40078 60652 333 10267 59016 555 60005
AAXX 06184 61976 16/// /0913 10275 20233 40132 60012 333 10328 58002 90710 91117 555 60005
AAXX 06184 61980 12560 31309 10252 20196 40152 60002 83800 333 10294 59003 81823 83658 90710 91113 924/7 555 60005
AAXX 06184 67005 14/// /3606 10271 20244 40110 60222 700// 333 10311 58003 90710 91112 555 60005
AAXX 06181 01028 11380 40410 11018 21037 30052 40072 55002 60002 70221 83160 333 11015 91115
AAXX 06181 01218 11475 83602 10008 20000 39999 40021 57006 60112 78382 889// 333 10021 91107
AAXX 06181 01359 11489 60000 11032 21077 39110 40033 56013 60002 78582 83340 333 11017 91110
AAXX 06184 64570 32560 53202 10254 20235 39596 40100 82530 333 10300 59011 82623 85075
AAXX 06181 01288 11440 83106 11044 21066 39239 49996 53012 60032 77172 85720 333 11023 91115
AAXX 06181 01001 11665 50807 10000 21020 30012 40024 57012 60002 70222 84860 333 91110
AAXX 06181 01367 11989 1//// 11163 21182 39575 40048 57007 60002 70200 80001 333 11141 91103
AAXX 06181 01492 11988 82901 11018 21046 39894 40014 57016 60002 70322 82049 333 10005 91104
BBXX 46219 06181 99332 71199 46/// ///// 1//// 91758 22200 00137 11809 20806 327// 41807 70046
BBXX 46224 06181 99332 71175 46/// ///// 1//// 91736 22200 00148 11303 21001 327// 41303 70014
AAXX 06184 87162 31558 11812 10344 20132 30024 40094 57011 70400 81100 333 56200 81820 555 10101 20000
AAXX 06181 15015 02997 51901 10004 21006 39421 42651 52030 60002 85050 333 10042 21001 31005 60007 91002 91103 92600
AAXX 06181 15020 02597 52902 10022 20006 39810 40010 53031 60002 82570 333 10084 20022 31012 60007 91002 91103
AAXX 06181 15090 01596 82801 10040 20031 39911 40003 52033 60002 71022 8657/ 333 10075 20016 31007 55300 10037 20002 3//// 60007 91002 91102
AAXX 06181 15108 01/91 92906 11063 21063 37903 48335 52021 60002 74544 333 11047 21063 3//// 44018 60007 92727 92873
AAXX 06181 15120 02997 72702 10006 21008 39531 40033 52036 60002 83079 333 10055 20005 34011 55300 10193 2//// 3//// 60007 91003 91105 99021
AAXX 06181 15150 01596 83201 10050 20030 39787 49999 52031 69902 76122 8557/ 333 10053 20014 31005 69907 91003 91103 96010
AAXX 06181 15170 02997 83101 10009 20002 39214 42631 52028 60002 8807/ 333 10031 20002 3/003 41998 60007 91001 91103
AAXX 06181 15200 02998 53502 10028 20017 39885 40031 52035 60002 85070 333 10055 20028 31007 60007 91005 91105
AAXX 06181 15230 02597 53105 10038 21001 39722 40015 51031 60002 85500 333 10063 20029 31007 55300 10143 20004 3//// 60007 91007 91107
AAXX 06181 15260 01997 82702 10021 20012 39480 40017 52030 69942 70282 8809/ 333 10056 20012 31008 69947 91003 91105
AAXX 06181 15280 01/93 80216 11112 21121 37282 47803 52012 69982 77174 885// 333 11066 21114 3//// 49038 69987 91024 92818 92966 96038 96041
AAXX 06181 15292 02998 83203 10026 20013 39717 40013 52025 60002 8807/ 333 10047 20021 31007 60007 91005 91105
AAXX 06181 15310 01496 80204 10060 20060 39884 49969 52014 60062 76162 8802/ 333 10072 20038 31009 55300 10012 20001 3//// 60057 91007 91107 96010
AAXX 06181 15335 01497 81503 10074 20074 39958 49965 52014 60042 76162 8802/ 333 10093 20052 31011 60037 91005 91107
AAXX 06181 15346 02997 80105 10070 21009 39664 49948 51013 60002 8807/ 333 10072 20018 31009 60007 91011 91111
AAXX 06181 15350 01597 81006 10061 20047 39843 49962 52014 60032 76162 8802/ 333 10072 20013 31010 60027 91011 91112
AAXX 06181 15360 01497 81404 10084 20074 39957 49971 52015 60022 76122 8672/ 222// 06070 20502 333 10087 20063 3//// 60027 91005 91109 92437
AAXX 06181 15410 01997 83201 10061 21008 39865 49959 51019 69912 70262 8807/ 333 10074 20025 31011 60007 91004 91104
AAXX 06181 15420 01497 80405 10063 20055 39830 49940 52012 60052 76166 8572/ 333 10064 20037 31008 55300 0//// 20000 3//// 60027 91011 91111
AAXX 06181 15450 01496 83402 10041 20039 39710 49944 52011 60022 76164 8672/ 333 10044 20015 31006 55300 10028 20001 3//// 69927 91004 91104 96010
AAXX 06181 15460 01496 80902 10080 20077 39909 49933 53009 60112 76166 8572/ 333 10088 20062 31009 60057 91004 91104 96010
AAXX 06181 15470 01496 80204 10055 20055 39806 49931 52009 60042 76166 8572/ 333 10056 20036 31006 60017 91007 91107
AAXX 06181 15480 01497 81102 10081 20081 39936 49953 52005 60132 76166 8672/ 222// 06073 2//// 333 10097 20068 31010 60077 91006 91106 92437
AAXX 06184 48601 11558 50307 10262 20206 30124 40128 60001 70522 81141 333 81628 85080
AAXX 06184 48615 11562 71102 10245 20222 30138 40144 60001 70522 83542 333 83620 87074
AAXX 06184 48620 11562 70601 10257 20248 30117 40126 60001 70522 82542 333 82630 83365 87078
AAXX 06184 48647 11456 73301 10262 20245 30102 40127 60001 71322 82931 333 81917 87078
AAXX 06184 48650 11560 70608 10259 20225 30107 40126 60001 70522 82542 333 82630 86078
AAXX 06184 48657 11560 70202 10230 20219 30121 40139 60001 70522 82531 333 82625 86078
AAXX 06184 48665 12564 70306 10248 20221 30125 40135 60001 81542 333 81630 83364 86077
AAXX 06184 96413 11565 72004 10228 20223 30093 40120 60061 70262 8457/ 333 84620 87365
AAXX 06184 96421 11358 72104 10237 20233 30080 40116 60101 76062 8557/ 333 82708 84616 87365
AAXX 06184 96441 11156 81703 10235 20230 30076 40103 60341 76166 8552/ 333 82703 84614 88464
AAXX 06184 96449 NIL
AAXX 06184 96465 11465 80000 10247 20242 30073 40107 60281 70162 84877 333 82810 83635 85364
AAXX 06184 96471 11468 81103 10244 20233 30105 40108 60021 72166 82847 333 81814 84363 88276
AAXX 06184 96481 12462 63403 10243 20227 30085 40104 60001 82841 333 81817 83364 86080
AAXX 06184 96491 11356 72403 10249 20240 30097 40109 6///1 76162 84858 333 82708 83640 87276
AAXX 06184 91574 46/// ///// 29077 39893 49899 56034
AAXX 06184 91570 NIL
AAXX 06184 91598 NIL
AAXX 06184 91573 06/// /0000 10237 2//// 39983 4//// 53001 60001 333 58016 60007
AAXX 06184 91577 06/// /0000 10210 20186 30054 40075 55000 60001 333 58016 60007
AAXX 06184 91579 06/// /2302 10218 20211 30068 40076 53003 60071 333 58032 60067
AAXX 06184 91582 04670 81603 10224 20214 30038 40073 53003 60002 700// 333 10277 20222 60007 90710 91106 555 60005
AAXX 06184 91583 06/// /2002 10212 20193 30059 40074 53001 60001 333 58022 60007
AAXX 06184 91587 06/// /2004 10184 20178 30027 40073 53004 60001 333 58029 60007
AAXX 06184 91590 04965 /0000 10204 20196 30041 40084 53002 69902 700// 333 10278 20204 69907 90710 91102 555 60005
AAXX 06184 91592 06/// /1605 10217 20185 30000 40085 53002 60001 333 58027 60007
AAXX 06184 91596 06/// /1906 10204 20176 39972 40082 53007 60001 333 58031 60007
AAXX 06181 06201 47866 72408 10065 20030 30113 40166 58023 70280 8//// 333 10084 87/58 91009 91114 91212
AAXX 06181 06203 45578 62611 10069 20011 30165 40217 58008 8//// 333 10083 81/26 86/59 91012 91112 91211
AAXX 06181 06204 45879 72611 10064 20017 30145 40196 58009 8//// 333 10080 86/58 87/70 91012 91113 91211
AAXX 06181 06205 45573 82412 10067 20021 30081 40141 57023 8//// 333 10079 82/21 88/60 91014 91114 91212
AAXX 06181 06208 45569 82808 10071 20025 30131 40181 51002 8//// 333 10080 81/31 86/36 88/40 91010 91116 91214
AAXX 06181 06211 45468 82311 10064 20029 30125 40181 58016 8//// 333 10079 81/12 88/56 91013 91113 91211
AAXX 06181 06212 47481 72509 1//// 2//// 30138 40202 58005 703// 8//// 333 1//// 83/19 84/22 85/28 91011 91115 91213
AAXX 06181 06235 15570 22706 10057 20026 30202 40202 58003 60002 8//// 333 10083 82/23 91008 91111 91207
AAXX 06181 06240 17666 82706 10056 20025 30220 40215 57004 69922 72100 8//// 333 10085 85/37 88/42 91009 91114 91210
AAXX 06181 06251 15570 72806 10061 20015 30187 40188 58003 60002 8//// 333 10082 83/32 87/36 87/40 91008 91113 91209
AAXX 06181 06258 46/// /2607 333 91008 91112 91209
AAXX 06181 06269 15667 82604 10057 20032 30213 40207 58004 69942 8//// 333 10079 86/36 88/40 91006 91111 91207
AAXX 06181 06280 15662 82604 10050 20034 30182 40186 55001 69922 8//// 333 10081 88/36 91006 91112 91208
AAXX 06181 06310 15980 12608 10063 20024 30224 40234 58010 60002 8//// 333 10079 81/62 91011 91111 91209
AAXX 06181 06344 15572 22504 10048 20018 30231 40224 58005 60002 8//// 333 10083 82/28 91005 91112 91208
AAXX 06181 06370 17667 62604 10054 20031 30203 40229 51005 69922 70185 8//// 333 10085 85/40 86/46 91005 91112 91207
AAXX 06181 06380 17463 82503 10049 20035 30100 40243 53008 60022 70285 8//// 333 10070 81/14 83/18 87/21 91005 91108 91204
AAXX 06181 06206 46474 7//03 10064 20013 30127 40180 58015 8//// 333 10084 82/19 87/59 91005 91113 91211
AAXX 06181 06207 47565 62609 1//// 2//// 30125 40180 58009 78000 8//// 333 1//// 81/25 83/33 86/60 91010 91115 91212
AAXX 06181 06239 45579 8//10 10067 20021 30086 40148 58019 8//// 333 10078 83/20 84/29 85/33 91013 91115 91211
AAXX 06181 06252 46/// /2611 10062 20022 30149 40196 58013 222// 00072 10704 333 10078 91013 91113 91211
AAXX 06181 06260 15465 82704 10064 20034 30215 40217 58001 69992 8//// 333 10088 81/19 88/42 91006 91109 91205
AAXX 06181 06270 15670 72704 10053 20030 30190 40190 58001 60002 8//// 333 10078 87/37 91006 91113 91209
AAXX 06181 06290 17461 82704 10059 20040 30160 40201 53004 60012 70385 8//// 333 10077 83/14 85/17 85/25 91006 91112 91207
AAXX 06181 37682 32597 71801 11079 21085 38080 48470 54000 875// 333 11032
AAXX 06181 37717 325// 82201 11036 21080 38030 48464 57003 8653/ 333 11002
AAXX 06181 37788 41695 60000 11016 21064 39182 40210 52005 71022 8353/ 333 10023
AAXX 06181 10908 01/01 93111 11044 21044 38520 48514 51029 60022 74974 333 11044 21060 3/106 49100 55300 20000 30000 69947 89/01 91120 91215 96036
AAXX 06181 10044 46/// /2608 10042 20017 30096 40128 53003 222// 00048 333 10044 20023 55300
AAXX 06181 03951 17457 /2609 10104 20097 30241 40268 58008 69922 7101/ 87/// 333 10106 87/10
AAXX 06181 03953 11362 82508 10112 20096 30229 40266 57010 69982 75052 886// 333 10112 88708 92437
AAXX 06181 03955 12375 72306 10096 20087 30056 40255 57007 69902 876// 333 10103 87708
AAXX 06181 03956 15263 /2406 10096 20088 30152 40229 57016 69912 87/// 333 10096 84/04 87/18
AAXX 06181 03962 11230 82510 10102 20099 30210 40234 57010 60012 75065 886// 333 10108 83703 86705 87707
AAXX 06181 03963 17236 /2613 10103 20096 30185 40213 56009 69912 72285 88/// 333 10104 88/04
AAXX 06181 03966 17362 /2507 10102 20092 30125 40218 57013 69942 70385 87/// 333 10103 81/08 85/13 87/18
AAXX 06181 03967 11240 82510 10101 20096 30084 40198 58016 69922 75865 886// 333 10101 81705 87707 87711
AAXX 06181 03969 11257 82612 10102 20096 30089 40193 58017 69932 75152 886// 333 10102 81704 85707 87710
AAXX 06181 03973 11150 82610 10095 20093 39942 40197 57011 60022 75165 886// 333 10098 88702 90710 91118
AAXX 06181 03976 11458 52609 10106 20100 30183 40195 56004 60022 78065 85300 333 10111 82714 82920 81820
AAXX 06181 03980 17257 /2613 10100 20096 30116 40141 57008 69982 78185 87/// 333 10103 87/04 90710 91117
AAXX 06184 89532 41/70 12206 10011 21023 39760 49787 56007 70241 81630
AAXX 06184 96315 11260 71403 10241 20240 40107 60123 76186 85878 333 81703 83814 85465
AAXX 06184 96323 NIL
AAXX 06181 33135 31696 80000 10023 20015 39812 49989 52020 71022 8555/ 333 10045
AAXX 06181 33317 32497 71802 10026 20002 39668 40004 52030 87500 333 10045 87618
AAXX 06181 33345 32498 72502 10030 20017 39797 40001 52025 87600 333 10050 87712
AAXX 06181 33393 11460 83007 10024 20006 39632 40023 52036 69932 76186 8802/ 333 10048 88513
AAXX 06181 33506 11496 81805 10062 20060 39825 40018 52015 60032 76086 8772/ 333 10063
AAXX 06181 33587 32439 80000 10043 20036 39743 40004 52025 886// 333 10054 88716
AAXX 06181 33631 11697 53303 10036 20026 39894 40038 52032 69932 70262 85500 333 10051 85640
AAXX 06181 33663 NIL
AAXX 06181 33658 32797 63203 10036 20002 39725 40023 52038 86500 333 10067 86650
AAXX 06181 33711 11295 81703 10060 20053 39798 40005 52020 69982 71062 886// 333 10071 88706
AAXX 06181 33791 NIL
AAXX 06181 33837 11441 82002 10072 20070 39941 49992 52015 60022 76186 8672/ 333 10081
AAXX 06181 33924 NIL
AAXX 06181 33946 12997 81104 10086 21012 39809 40025 53002 69902 83031 333 10117
AAXX 06181 34300 11450 81507 10050 20038 39853 40041 52009 69962 78082 883// 333 10066 86913
AAXX 06181 34504 11440 81905 10059 20054 39860 40037 52015 60072 76162 8772/ 333 10072 87711
AAXX 06181 34519 31110 81406 10016 20008 39801 40078 52007 71042 886// 333 10063 88702
AAXX 06181 34601 11225 71503 10059 20053 39914 40049 52016 60032 78082 87900 333 10080 85706
AAXX 06184 91503 01465 80000 10250 20244 40083 55004 60051 75065 8387/ 333 56699 69927 81816 83626 88458
AAXX 06184 91517 01470 81804 10241 20236 40086 57006 60061 71582 8597/ 333 56699 60037 81814 81915 85626 88360
AAXX 06183 91551 NIL
AAXX 06183 91553 NIL
AAXX 06183 91554 31598 10000 10227 20220 40071 53002 70111 81130 333 5699/ 81825
AAXX 06183 91555 31598 10000 10240 20227 40068 53002 70122 81100 333 569// 81823
AAXX 06183 91557 11598 30000 10235 20232 40066 53002 69931 70222 83101 333 569/9 69931 83820
AAXX 06183 91565 31598 10000 10240 20231 40054 53003 70121 81101 333 563/9 81822
AAXX 06183 91568 11598 60000 10242 20236 40068 53005 69921 70228 83802 333 566/9 69921 83825 86080
AAXX 06184 91503 01465 80000 10250 20244 40083 55004 60051 75065 8387/ 333 56699 69927 81816 83626 88458
AAXX 06184 91517 01470 81804 10241 20236 40086 57006 60061 71582 8597/ 333 56699 60037 81814 81915 85626 88360
AAXX 06183 91551 NIL
AAXX 06183 91553 NIL
AAXX 06183 91554 31598 10000 10227 20220 40071 53002 70111 81130 333 5699/ 81825
AAXX 06183 91555 31598 10000 10240 20227 40068 53002 70122 81100 333 569// 81823
AAXX 06183 91557 11598 30000 10235 20232 40066 53002 69931 70222 83101 333 569/9 69931 83820
AAXX 06183 91565 31598 10000 10240 20231 40054 53003 70121 81101 333 563/9 81822
AAXX 06183 91568 11598 60000 10242 20236 40068 53005 69921 70228 83802 333 566/9 69921 83825 86080
AAXX 06181 01406 46/// /2304 10050 20024 30032 40051 58020 333 10066 91114
AAXX 06181 01442 11889 81802 11008 21022 39800 40063 58014 60002 70322 8807/ 333 11007 91107
AAXX 06181 01037 16/// /1701 11095 21107 39998 40005 50002 60002 333 11094 91103
AAXX 06181 01065 11680 81902 11052 21068 39823 49987 52003 60002 78588 888// 333 11051 91104
AAXX 06181 01114 16/// /0702 11080 21131 39971 49982 52009 60002 333 11020 91107
AAXX 06181 01245 11560 51402 11038 21063 39292 40007 53007 60062 70182 85200 333 11015 91115
AAXX 06181 01364 16/// /2704 11045 21082 38894 40025 50002 60002 333 11032 4/116 91115
AAXX 06181 01389 11887 83301 11101 21112 39702 40026 55000 60002 70320 8801/ 333 11099 91106
AAXX 06183 64501 32460 72408 10270 20242 3//// 4//// 878// 333 10285 5//// 83810 87630 94919 95839
AAXX 06181 01156 16/// /0504 11037 21092 39980 49990 54000 60002 333 11026 91106
AAXX 06181 01273 16/// /3102 11022 21037 39802 40001 51019 60072 333 10003 91109
AAXX 06181 01477 16/// /3101 11005 21040 60002 333 10016 4/028 91104
AAXX 06181 01046 11889 72001 11112 21129 30000 40007 52002 60002 70321 87030 333 11107 91103
AAXX 06181 01144 41989 01303 11025 21062 70100 333 11006 91111
AAXX 06181 01135 16/// /1401 11122 21131 39836 49996 53014 60052 333 11056 4/036 91105
AAXX 06181 01192 16/// /2301 11069 21112 60002 333 11048 4/015 91103
AAXX 06181 01232 16/// /3404 10013 20002 39932 40012 55004 60082 333 10024 4/017 91109
AAXX 06181 01291 16/// /3001 11074 21085 60032 333 11026 4/046 91106
AAXX 06181 01370 16/// /3303 11038 21079 38901 40084 57003 60002 333 11026 4/040 91111
AAXX 06181 01386 16/// ///// 11091 21105 60002 333 11075
AAXX 06181 01419 16/// /1802 10011 20005 60022 333 10013 91105
AAXX 06181 01455 16/// /0104 10029 21022 39733 40043 58019 60002 333 10029 91113
AAXX 06181 01481 16/// /2403 10020 21051 39995 40027 56017 60002 333 10030 91110
AAXX 06184 91413 32469 80610 10272 20232 30083 40108 56015 82878 333 56199 70038 555 90618
AAXX 06184 48407 31959 30202 10195 20143 30018 40163 52006 71011 80001 333 58011
AAXX 06181 45007 12459 73605 10125 20086 30244 40253 58003 60001 8453/ 333 58025 81612 83622 85358
AAXX 06181 45007 12459 73605 10125 20086 30244 40253 58003 60001 8453/ 333 58025 81612 83622 85358
AAXX 06184 48440 31957 00000 10222 20199 30100 40150 52002 71000 333 58008
AAXX 06184 91413 32469 80610 10272 20232 30083 40108 56015 82878 333 56199 70038 555 90618
AAXX 06184 65306 32960 50000 10288 20043 39783 40116 80002 333 10320 58015 85076
AAXX 06184 65319 32958 50000 10295 20100 39596 40109 80002 333 10346 59009 85076
AAXX 06184 65330 31920 50404 10290 20107 39661 40099 70522 80002 333 10342 59007 85076
AAXX 06184 65335 32956 53204 10310 20116 39872 40095 80002 333 10354 59010 85076
AAXX 06184 65344 31940 52004 10290 20221 30083 40094 70522 80002 333 10325 59009 85076
AAXX 06184 16206 12970 00503 10060 21090 30090 40099 52022 60002 333 10130
AAXX 06181 11010 11482 62406 10023 21009 39802 40188 52049 60012 70282 333 10047 82816 85650 91114 91211
AAXX 06181 11012 11458 82606 10015 21004 39712 40191 51042 69982 76062 8672/ 333 10035 20006 55300 91116
AAXX 06181 11022 12567 33005 10022 21048 39752 40145 53053 60002 82130 333 10054 20021 55300 82833 91121
AAXX 06181 11035 12986 23207 10041 21041 39878 40133 52055 69902 82030 333 10066 20035 82361 91119
AAXX 06181 11036 12884 53210 10039 21047 39901 40126 52049 69902 333 10074 82657 83358 91015 91122 91215
AAXX 06181 11101 11470 82903 10033 20010 39730 40269 52040 69912 72076 885// 333 10035 20018 88618
AAXX 06181 11120 01230 82405 10008 20000 39490 40213 52044 60062 77377 333 10021 69995 81704 83610 86618 91122 91211
AAXX 06181 11126 17/// /3412 11098 21100 37691 48473 51038 69992 7404/ 333 11098 21121 55300 91135
AAXX 06181 11130 17/// /0402 10021 21010 39619 40220 53041 60072 7218/ 333 10029 20001 55300
AAXX 06181 11146 11/00 90409 11162 21163 36841 47941 52033 60082 77074 333 11153 21180 89/00 92612 91131 91216
AAXX 06181 11150 11380 72905 10025 21004 39663 40214 52047 69992 70287 333 10037 81709 83630 87358 91113 91208
AAXX 06181 11155 11/01 93216 11068 21077 38318 48452 53033 60152 77374 333 11058 21079 55300 89/02 91131
AAXX 06181 11157 11465 72406 10015 21045 39395 40177 51046 60032 70287 875// 333 10024 82710 87636 91120 91210
AAXX 06181 11172 NIL
AAXX 06181 11190 12665 53005 10049 21055 39892 40127 53051 69902 855// 333 10074 20041 55300 91122
AAXX 06181 11204 17/// /3102 10011 21041 39370 40175 53045 69942 7//8/ 333 10020 21005 55300 91115
AAXX 06181 11212 11/70 22906 11092 21122 37735 48423 52026 69922 73674 82100 333 11082 817// 91119
AAXX 06181 11231 32884 12702 10015 21031 39559 40139 52038 333 10068 81658
AAXX 06181 11240 32784 23408 10049 21065 39679 40118 52044 333 10076 82656 91115 91210
AAXX 06181 11244 16/// /3604 10051 21071 39785 40115 53040 60002 333 10086 21030 55300 91114
AAXX 06181 11389 16550 62307 10027 21004 39832 40163 53050 69902 865// 333 10045 20019 55300 91119
AAXX 06184 48419 31958 50902 10252 20228 30141 40149 56008 71011 80005 333 58006
AAXX 06184 48458 32960 00000 10256 20232 30090 40172 52005 333 58012
AAXX 06184 48481 31958 00000 10230 20199 30121 40150 57003 71000 333 58007
BBXX UFTA 06181 99843 71197 12597 83603 11209 21234 40019 57018 69932 80007
AAXX 06181 01062 11484 40509 11034 21050 30103 40116 52001 69902 78581 83310 333 11029 91113
AAXX 06181 01205 46/// /2705 10048 20002 39973 40018 58019 333 10061 91117
AAXX 06181 89061 379// 00606 10027 21004 39819 49826 57025 74144 333 91011 91122
AAXX 06184 91930 06/// ///// 10263 20232 69921 333 69927
AAXX 06184 91943 16/// /3608 10278 20216 30124 40126 51013 60022 333 10279 59022
AAXX 06184 70026 NIL
AAXX 06184 70133 NIL
AAXX 06184 70174 NIL
AAXX 06184 70200 NIL
AAXX 06184 70219 NIL
AAXX 06184 70231 NIL
AAXX 06184 70261 NIL
AAXX 06184 70267 NIL
AAXX 06184 70271 NIL
AAXX 06184 70273 NIL
AAXX 06184 70308 NIL
AAXX 06184 70316 NIL
AAXX 06184 70326 NIL
AAXX 06184 70340 NIL
AAXX 06184 70350 NIL
AAXX 06184 70361 NIL
AAXX 06184 70381 NIL
AAXX 06184 70398 NIL
AAXX 06184 70414 NIL
AAXX 06184 68024 42960 10903 10305 20151 48499 53004 81080 333 10373
AAXX 06184 68029 42960 11103 10268 20195 48496 52008 81070 333 10348
AAXX 06184 68030 42960 00000 10279 20168 48496 52010 333 10341
AAXX 06184 68032 42960 11106 10314 20158 48496 52010 81080 333 10372
AAXX 06184 68038 42960 20904 10310 20166 48505 52009 82080 333 10371
AAXX 06184 68040 42660 71812 10364 20126 48492 56017 84970
AAXX 06184 68070 41660 30707 10297 20172 48520 52015 71700 81983 333 10340
AAXX 06184 68148 41660 30000 10330 20161 48516 52014 71311 83383 333 10361
AAXX 06184 68234 42660 40607 10266 20179 48511 52015 84902 333 10372
AAXX 06184 68240 41660 60308 10236 20168 48509 52019 71721 84980 333 10358
AAXX 06184 68320 42660 32402 10331 20165 48506 53003 82280 333 10385
AAXX 06184 68328 42660 12105 10340 20140 48502 50008 81280 333 10391
AAXX 06184 03292 167// /2206 10062 20041 30144 40163 58033 60002 91750 333 10071 84/50
AAXX 06184 03008 11220 82222 10069 20062 49998 60012 76165 887// 91750 333 10070 88703 90710 91132
AAXX 06184 03010 46/// /3023 10085 20084 40017 56023 333 90710 91143
AAXX 06184 03014 46/// /2521 10029 20021 49987 56062 91750 333 8//// 90710 91132
AAXX 06184 03031 17462 /2817 10074 20058 39745 40069 56013 60022 757// 91750 333 10088 553// 20000 81/18 85/26 90710 91126
AAXX 06184 03034 17661 /2714 10089 20063 30059 40073 55008 60062 723// 91750 333 10097 87/46 90710 91129
AAXX 06184 03037 17667 /3016 10087 20067 30074 40096 55001 60082 723// 91750 333 10097 86/30 83/41 90710 91131
AAXX 06184 03039 46/// /2934 10033 20002 91750 333 10051 90710 91151
AAXX 06184 03041 46/// /2531 10025 20025 91750 333 10031 90710 91147 91042
AAXX 06184 03044 17582 /2818 10089 20067 39946 40044 56026 69902 761// 91750 333 10093 553// 20000 84/20 85/42 90710 91132
AAXX 06184 03047 17567 /2408 10091 20068 39793 40093 56022 60032 761// 91750 333 10095 553// 20000 81/20 86/29 90710 91125 91018
AAXX 06184 03062 15584 /2512 10089 20053 30047 40052 56025 69922 91750 333 10095 553// 20000 83/28 84/45
AAXX 06184 03065 46/// /2651 10017 20017 91750 333 10018 90710 91181 91069
AAXX 06184 03068 11683 52410 10069 20046 30044 40053 56034 69922 70162 84530 91750 333 10075 83630 84656 85360
AAXX 06184 03080 15684 /0803 10048 20026 39900 40072 56036 69902 91750 333 10073 81/30 87/56
AAXX 06184 03088 17259 /2207 10051 20049 39922 40087 58033 69902 710// 91750 333 10051 553// 20000 88/04
AAXX 06184 03094 15680 /1813 10050 20029 30046 40051 56039 69922 91750 333 10057 88/40
AAXX 06184 03105 17256 /2620 10098 20098 30117 40134 56014 60022 710// 91750 333 10098 87/04 84/16 90710 91128
AAXX 06184 03132 17369 /2515 10096 20096 30139 40152 57024 69942 781// 91750 333 10096 81/08 85/16
AAXX 06184 03144 17381 /2316 10085 20070 30048 40091 57038 69922 723// 91750 333 10086 553// 20000 82/09 86/35 85/50 90710 91127 91027
AAXX 06184 03148 46/// /2823 10063 20063 91750 333 10063 90710 91134
AAXX 06184 03153 17056 /2322 10082 20082 30009 40147 56025 60012 751// 91750 333 10082 553// 20000 87/01 86/09 90710 91132
AAXX 06184 03155 16359 /2419 10079 20070 39823 40119 56029 69942 91750 333 10079 85/07 85/15 90710 91130 91029
AAXX 06184 03158 17580 /2217 10064 20059 39975 40113 56036 69902 723// 91750 333 10065 553// 20000 87/20 84/31
AAXX 06184 03210 16/04 /2319 10076 20076 30012 40164 57030 60022 91750 333 10077 90710 91127
AAXX 06184 03212 16/// /2614 10098 20078 30060 40159 56029 6///2 91750 333 10098 90710 91127 91027
AAXX 06184 03214 17250 /2417 10080 20075 30155 40174 56028 69962 710// 91750 333 10082 87/03 90710 91126
AAXX 06184 03220 16371 ///// 10087 20080 30105 40140 56038 69962 91750 333 10087 85/07 87/17
AAXX 06184 03224 17/03 /2521 10064 20064 39793 40139 56028 60012 732// 91750 333 10065 90710 91134
AAXX 06184 03225 16659 /2615 10075 20058 39852 40159 56030 69942 91750 333 10075 553// 20000 86/32 83/49
AAXX 06184 03226 17459 /2612 10071 20064 39879 40156 56030 69902 751// 91750 333 10071 87/17
AAXX 06184 03230 16337 /2415 10068 20062 39875 40132 56035 69922 91750 333 10068 86/07 84/14 86/17 90710 91126
AAXX 06184 03238 17379 /2610 10075 20062 39964 40137 56030 69922 722// 91750 333 10075 88/08
AAXX 06184 03261 16465 /2107 10073 20060 30129 40169 58028 69902 91750 333 10082 87/10
AAXX 06184 03265 15482 /2311 10075 20060 30136 40167 58030 69922 91750 333 10080 81/12 84/17
AAXX 06184 03266 16473 /2108 10074 20043 30153 40170 58027 60002 91750 333 10081 87/11
AAXX 06184 03275 15478 /2318 10065 20042 39956 40150 56032 69902 91750 333 10066 86/13 84/50 90710 91126
AAXX 06184 03281 16/// /2215 10050 20048 60002 91750 333 10052
AAXX 06184 03903 16447 /2610 10105 20101 30119 40176 56010 60012 91750 333 10110 553// 20000 87/10
AAXX 06184 03904 17357 /2413 10100 20092 30105 40165 57010 69982 751// 91750 333 10105 87/09 85/20 90710 91125
AAXX 06184 03907 17338 /2316 10093 20089 30143 40150 57011 69982 751// 91750 333 10096 55300 20000 87/09
AAXX 06184 03911 16258 /2715 10092 20088 39887 40159 57016 60022 91750 333 10092 88/05 90710 91126 91026
AAXX 06184 03915 16481 /2412 10103 20103 30074 40152 58015 60002 91750 333 10103 88/17
AAXX 06184 03916 16250 /3009 10096 20091 39953 40142 56016 60012 91750 333 10096 553// 20000 86/05 86/12 90710 91125 91021
AAXX 06184 03923 17360 /2611 10100 20089 39971 40166 58017 69922 751// 91750 333 10101 84/09 84/16 91022
AAXX 06184 03301 16566 /2219 10091 20091 30129 40203 58022 69942 91750 333 10091 87/20 90710 91125
AAXX 06184 03313 16586 /2210 10092 20073 30102 40197 58021 60002 91750 333 10095 84/23 86/50
AAXX 06184 03316 15480 /2520 10085 20073 30177 40188 58029 60002 91750 333 10087 86/18 83/50 90710 91126
AAXX 06184 03318 16/// /2420 10080 20075 60002 91750 333 10080 90710 91126
AAXX 06184 03321 16679 /2514 10095 20071 30183 40196 58026 60002 91750 333 10099 553// 20000 82/36 86/50
AAXX 06184 03330 17270 /2513 10058 20054 39833 40198 58028 69902 723// 91750 333 10062 88/04
AAXX 06184 03344 17241 /2413 10066 20059 39855 40175 56024 69942 751// 91750 333 10066 87/04 90710 91125
AAXX 06184 03346 16/// /2622 10061 20057 60002 91750 333 10061 90710 91130
AAXX 06184 03348 17480 /2209 10069 20061 30085 40194 57026 69902 722// 91750 333 10073 55300 20000 82/19 86/50
AAXX 06184 03355 15472 /2208 10073 20054 30165 40176 58025 60002 91750 333 10080 55300 20000 87/12
AAXX 06184 03373 16663 /2316 10063 20041 30118 40189 57027 60002 91750 333 10069 87/45
AAXX 06184 03379 16777 /2418 10069 20040 30121 40199 56026 60002 91750 333 10070 87/50
AAXX 06184 03382 15572 /2211 10065 20040 30161 40169 58032 69902 91750 333 10071 55300 20000 82/24 83/56
AAXX 06184 03385 46668 /2217 10059 20038 30175 40185 57027 91750 333 10067 81/36 85/56
AAXX 06184 03391 12575 72208 10060 20036 30192 40199 57024 60002 875// 91750 333 10072 81625 87650
AAXX 06184 03392 16770 /2318 10056 20039 30194 40198 57025 60002 91750 333 10065 87/56
AAXX 06184 03405 16267 /2425 10094 20094 30103 40220 57022 69922 91750 333 10094 553// 20000 81/05 87/15 85/50 90710 91134
AAXX 06184 03409 16/// /2309 10080 20073 60012 91750 333 10080 55300 2////
AAXX 06184 03410 16350 /2412 10069 20068 39770 40208 58019 69962 91750 333 10076 553// 20000 87/08
AAXX 06184 03469 15771 /2214 10058 20039 30202 40206 58021 60002 91750 333 10073 553// 20000 87/56
AAXX 06184 03488 15769 /2216 10057 20032 30175 40202 58020 60002 91750 333 10059 87/50
AAXX 06184 03503 17350 /2510 10092 20087 30153 40230 58016 60022 781// 91750 333 10092 85/06 85/23
AAXX 06184 03507 17040 /2410 10071 20071 39860 40235 58018 60012 751// 91750 333 10071 88/01
AAXX 06184 03520 16479 /2410 10082 20066 30101 40223 56022 69922 91750 333 10092 553// 20000 87/14 84/50
AAXX 06184 03522 15483 /2505 10094 20078 30138 40231 56020 60002 91750 333 10098 86/17 84/24
AAXX 06184 03529 15461 /2109 10078 20058 30188 40231 56018 60002 91750 333 10084 88/19
AAXX 06184 03544 17457 /2207 10066 20049 30088 40220 56020 60002 704// 91750 333 10071 553// 20000 81/17 86/42
AAXX 06184 03560 15573 /2309 10066 20043 30116 40221 58017 60002 91750 333 10076 553// 20000 84/20 84/30
AAXX 06184 03604 16379 /2718 10099 20089 30194 40249 58007 60002 91750 333 10101 87/07 90710 91125
AAXX 06184 03605 16459 /2616 10097 20088 30239 40247 58015 69922 91750 333 10098 81/12 87/45
AAXX 06184 03609 16/// /2517 10096 20087 30201 40254 56011 69942 91750 333 10098
AAXX 06184 03628 17239 /2308 10079 20075 30171 40244 58015 69902 722// 91750 333 10087 55300 20000 88/03
AAXX 06184 03647 16466 /2513 10070 20050 39971 40229 56016 60002 91750 333 10070 553// 20000 81/10 85/17 86/44
AAXX 06184 03658 12470 82208 10079 20053 30168 40238 58014 60002 885// 91750 333 10086 85614 87620
AAXX 06184 03660 15461 /2706 10068 20051 39983 40235 58016 60002 91750 333 10070 87/12
AAXX 06184 03672 12475 72513 10081 20044 30198 40238 58015 60002 875// 91750 333 10088 83619 87645
AAXX 06184 03684 17676 /2409 10059 20027 30122 40230 57014 69902 781// 91750 333 10069 88/48
AAXX 06184 03693 16777 /2408 10066 20028 30235 40237 56015 60002 91750 333 10078 88/56
AAXX 06184 03710 16264 /2819 10072 20072 39826 40251 58017 69982 91750 333 10074 553// 20000 82/03 87/15 90710 91126
AAXX 06184 03743 12364 72406 10073 20062 30085 40248 57017 60002 876// 91750 333 10085 87707
AAXX 06184 03749 16465 /2005 10077 20058 30138 40250 57014 60002 91750 333 10087 87/11
AAXX 06184 03761 12468 72212 10070 20041 30099 40245 57016 60002 875// 91750 333 10083 55300 20000 83618 87640
AAXX 06184 03768 16467 /2408 10076 20048 30166 40246 56014 60002 91750 333 10097 86/17 84/24
AAXX 06184 03769 15771 /2305 10070 20043 30164 40247 56013 6///2 91750 333 10088 55300 20000 87/56
AAXX 06184 03770 16/// ///// 10082 20045 60002 91750 333 10086
AAXX 06184 03781 15569 /2308 10067 20039 30037 40247 55012 60002 91750 333 10072 553// 20000 83/21 84/36 87/56
AAXX 06184 03797 15867 /2207 10047 20020 30180 40242 57016 60002 91750 333 10066 55300 20000 88/57
AAXX 06184 03823 17137 /2910 10084 20084 30027 40273 57007 69982 723// 91750 333 10092 553// 20000 87/02
AAXX 06184 03839 16/// ///// 10091 20084 60002 91750 333 10100 553// 20000
AAXX 06184 03857 15461 /2821 10098 20080 30197 40261 56017 60002 91750 333 10099 87/19 90710 91126
AAXX 06184 03862 15564 /2610 10090 20065 30243 40256 56016 6///2 91750 333 1//// 55300 20000 86/21 87/56
AAXX 06184 03866 16/// /2618 10095 20067 30232 40257 57013 60002 91750 333 10098
AAXX 06184 03872 15564 /2511 10085 20068 30249 40254 57013 60002 91750 333 10092 553// 20000 83/23 85/33
AAXX 06184 03876 16/// /2609 10081 20057 30252 40254 56013 60002 91750 333 10091
AAXX 06184 03895 41575 72712 10099 20064 40281 57010 70262 875// 333 10103 87627
AAXX 06184 03896 16/// ///// 10102 69902 333 10111
AAXX 06184 78526 NIL
AAXX 06184 78543 NIL
BBXX C6XC2 06184 99150 11269 41498 80823 10250 20207 40140 57010 70322 8897/ 22244 00290 2//// 3//// 4//// 5//// 6//// 80220 ICE /////
BBXX PCHM 06184 99225 31663 41498 31515 10230 20199 40076 58003 70222 82140 22214 00220 20203 308// 40203 80210
BBXX KAOU 06184 99078 10984 43/// /0705 10266 20225 40139 5//// 7//// 8//// 222// 04295 2//// 3//// 4//// 5//// 6//// 8//// ICE /////
BBXX NWS0029 06184 99415 70707 43/// /2114 10092 20035 40090 5//// 7//// 8//// 222// 04056 2//// 3//// 4//// 5//// 6//// 8//// ICE /////
BBXX NWS0003 06184 99600 71679 43/// /1806 11206 21243 40071 5//// 7//// 8//// 222// 0//// 2//// 3//// 4//// 5//// 6//// 8//// ICE /////
BBXX NWS0020 06184 99253 70800 43/// /0010 10192 20127 40220 5//// 7//// 8//// 222// 04230 2//// 3//// 4//// 5//// 6//// 8//// ICE /////
BBXX WCPU 06184 99267 70696 41698 22226 10183 20107 40219 50005 70200 821// 22223 0//// 20402
BBXX NWS0022 06184 99416 70714 43/// /2210 10112 20046 40074 5//// 7//// 8//// 222// 04081 2//// 3//// 4//// 5//// 6//// 8//// ICE /////
BBXX C6VG7 06184 99205 70869 414// 80817 10260 2//// 40190 5/010 7//11 88/7/ 22200 0//// 20601 3//// 40601 50601 6//// 8//// ICE /////
BBXX NEPP 06184 99599 71679 41597 31704 11210 2123/ 40069 56004 7//00 835// 22282 00005 2//// 3//// 4//// 5//// 6//// 86210 ICE 44092
BBXX C6CL6 06184 99240 70808 41598 30606 00/// 10300 2018/ 40220 52015 70100 83905 22252 00280 2//// 3//// 4//// 5//// 6//// 80220 0/0/0
BBXX C6WK7 06184 99339 70124 41697 60327 1//// 2//// 40300 54/// 7//22 86/5/ 22254 00170 20402 3//// 40402 5//// 6//// 8//// ICE /////
BBXX WKAE 06183 99254 70799 41598 43613 10223 20128 40219 58005 70211 84100 22284 00250 20202 3//// 4//// 5//// 6//// 80165 ICE /////
BBXX WE4805 06184 99443 70873 41/99 92520 10066 2//// 40030 54000 70202 88451 22211 00028 20601 3//// 4//// 5//// 6//// 8//// ICE /////
BBXX 46083 06181 99582 71380 46/// /1217 10036 21024 40011 58019 91750 22200 00065 11110 20708 300// 41106 70052 333 91222 555 11185 22198 31650 41223 61749 119171 119165 117163 117163 114171 120163 81218 91750
AAXX 06184 78255 42560 50707 10237 20118 30054 40203 57010 85200 333 10230 20139 85820
AAXX 06184 78317 NIL
AAXX 06184 78318 NIL
AAXX 06184 78325 NIL
AAXX 06184 78333 NIL
AAXX 06184 78338 NIL
AAXX 06184 78348 NIL
AAXX 06184 78349 NIL
AAXX 06184 78353 NIL
AAXX 06184 78360 NIL
AAXX 06184 78367 NIL
AAXX 06184 78369 NIL
BBXX 41041 06181 99142 70460 46/// /0906 10260 20185 40154 56018 91750 22200 00261 10704 20503 3//// 40703 70021 333 91208 555 11067 22071 31657 40809 61749 085063 086064 086065 079067 083065 085068 80907 91726
BBXX 46053 06181 99342 71198 46/// /2810 10141 40167 51016 91750 22200 00143 333 91212 555 11103 22109 31745 42812 61749 276096 267091 271094 267091 265087 267081
BBXX 46042 06181 99368 71224 46/// /3510 10109 40228 53017 91750 22200 00116 11509 20603 330// 41508 70043 333 91212 555 11101 22107 31737 43512 61749 354096 352102 348097 349096 349096 348097
BBXX 44060 06181 99413 70721 46/// ///08 10082 40087 56032 91800 22200 00085 333 91210 555 11088 22093
BBXX 44022 06181 99409 70737 46/// ///05 10078 20003 40087 56031 91800 22200 00056 333 91206 555 11057 22067
BBXX 51003 06181 99193 71606 46/// /0707 10242 40201 53011 91750 22200 00250 10905 20502 3//// 40905 70027 333 91208 555 11071 22075 31743 40708 61749 067067 065065 061065 065062 064062 067063
BBXX UITJ 06181 99616 10042 41598 80000 10060 40023 57021 70222 885// 22283 00080 20000 33400 41006
BBXX PCGM 06183 99531 10035 41498 43024 10090 20049 40202 55024 70200 8///6 22283 04087 20806 80070
BBXX PCBT 06183 99479 70086 41598 72910 10118 20081 40323 52013 7//// 875// 22254 20201 330// 40805 80098
BBXX PHDL 06183 99428 70250 41598 41513 10149 20122 40362 52006 70211 82865 22214 00158 20402 32815 41004 50703 80133 91239
BBXX PDHW 06183 99491 70125 41498 72715 10130 20094 40330 54000 70122 8/4// 22223 00120 20402 399// 40904 80110
BBXX OXOR2 06184 99318 10315 41598 12117 10149 20073 40137 58011 70200 81100 22264 00188 2//// 80108
BBXX MGRH9 06184 99266 31532 41/98 /1114 10240 20167 40125 51012 7//// 8//// 22200 00245 2//// 3//// 4//// 5//// 80195
BBXX PCCL 06183 99364 31503 41397 20410 10180 40131 54000 70222 821// 22283 04203 20501
BBXX A8CP6 06180 99117 31521 41/98 11503 10280 20266 40100 54000 70200 81//4 22233 00285 20301 3//// 4//// 5//// 80270
BBXX A8KX4 06184 99135 31709 41297 72719 10274 20245 40050 55000 72586 8677/ 22274 04296 20705 322// 41204 80253
BBXX ZCAO7 06183 99170 31186 41/98 39904 10290 20246 40071 58015 71300 8//// 22214 2//// 80259
AAXX 06181 26554 11241 82001 10006 20003 39797 49959 52026 60022 71072 886// 333 10015 88704
AAXX 06181 26666 11256 82201 10013 20005 39749 49963 52019 60052 72075 886// 333 10013 88705
AAXX 06181 26850 11356 80000 10007 20004 39707 49979 52028 60032 71022 885// 333 10007 88709
AAXX 06181 26863 11250 82103 10019 20014 39732 49967 52018 60032 71062 886// 333 10023 88706
AAXX 06181 26941 11217 82501 10003 20000 39752 49990 52032 60032 71074 887// 333 10011 88703
AAXX 06181 26951 11458 72202 10026 20021 39782 49980 52026 60012 71022 875// 333 10038 87617
AAXX 06181 33008 11558 73202 10028 20013 39833 40011 52045 60012 71062 87500 333 10040 87627
AAXX 06181 33019 31456 82301 10025 20015 39816 49989 52034 71022 886// 333 10038 86715
AAXX 06181 33036 11957 01801 10013 20002 39757 49987 52024 69902 71081 333 10034
AAXX 06181 33041 31550 70000 10023 20018 39832 49987 52017 71022 87500 333 10036 87623
AAXX 06183 91802 NIL
AAXX 06183 91809 NIL
AAXX 06183 91831 36/// /3005 10234 20232 40107 52001
AAXX 06183 91841 NIL
AAXX 06183 91843 11498 81307 10219 20196 40107 53015 60131 78066 8427/ 333 5639/ 84817 88459
AAXX 06183 91848 36/// /1407 10226 20199 49980 52022 555 20252
AAXX 06184 91165 NIL
AAXX 06184 91182 NIL
AAXX 06184 91190 NIL
AAXX 06184 91212 NIL
AAXX 06184 91217 NIL
AAXX 06184 91285 NIL
AAXX 06184 91317 NIL
AAXX 06184 91334 32474 80610 10271 20250 30097 40100 55007 82171 333 56199 70272 555 90618
AAXX 06184 91348 NIL
AAXX 06184 91356 NIL
AAXX 06184 91366 NIL
AAXX 06184 91369 NIL
AAXX 06184 91371 NIL
AAXX 06184 91376 NIL
AAXX 06184 91408 32474 80905 10272 20250 30052 40090 57022 83278 333 56299 70013 555 90618
AAXX 06184 91413 32469 80610 10272 20232 30083 40108 56015 82878 333 56199 70038 555 90618
AAXX 06184 91425 NIL
AAXX 06184 91434 NIL
AAXX 06184 91765 NIL
AAXX 06184 91222 NIL
AAXX 06184 91245 NIL
AAXX 06184 91323 NIL
AAXX 06184 91339 NIL
AAXX 06184 91343 NIL
AAXX 06184 91353 NIL
AAXX 06184 91442 NIL
AAXX 06184 63980 11470 71902 10267 20247 40133 60014 70282 8483/ 333 10295 58008 84816 86359 943// 911//
AAXX 06181 06414 36/// /2303 10028 21002 30213 40246 58008 60002 333 10075 91111 91208
AAXX 06181 06459 16/// /2604 10040 20032 30061 40259 53002 60012 333 10060 91112 91209
AAXX 06181 06494 16/// /2905 10008 20005 39428 40247 51012 60082 333 10015 91113 91208
BBXX C6OR4 06183 99365 10743 41597 53140 10120 20068 40032 58020 70251 85220 22223 06166 21014 3//// 4//// 5//// 80095
BBXX UBNY 06181 99738 10709 41/96 91218 11169 40169 57009 77177 22213 ICE52
BBXX 46070 06181 99551 11753 46/// /3106 11047 21081 40059 57005 91750 22200 00028 11203 20501 3//// 41202 70013 333 91210 555 11062 22065 31651 43210 61749 315058 317047 329043 344036 326041 321074 83209 91653
BBXX D5BC5 06184 99414 11522 41/98 73211 00/// 10020 2103/ 40110 54000 70322 87/// 22224 04/// 2//// 3//// 4//// 5//// 6//// 80000 ICE /////
BBXX C6XC2 06184 99150 11269 41498 80823 10250 20207 40140 57010 70322 8897/ 22244 00290 2//// 3//// 4//// 5//// 6//// 80220 ICE /////
BBXX WDB3161 06184 99359 11426 41498 80125 10110 2005/ 40170 54000 70222 887// 22215 00208 20804 301// 41005 5//// 6//// 80080 ICE /////
BBXX MLJA8 06183 99253 10566 41/97 21805 10210 20178 40181 54000 70211 8//// 22200 00250 2//00 317// 4//01 5//// 80190
BBXX VRJI2 06183 99123 50346 41497 60909 10260 2023/ 40130 54000 75811 86700 22243 04270 21202 30909 41002 51002 6/00/ 80240 ICE 0////
BBXX DBLK 06181 99339 30184 41/97 /1407 10227 20161 40162 54000 7//// 22200 04161
BBXX WRYW 06184 99136 10559 43/// /0415 10240 2021/ 40158 51012 7//// 8//// 22275 00256 20301 304// 40502 5//// 6//// 80220 ICE /////
BBXX BATFR55 06184 99206 30557 46/// /1216 10262 20210 40156 53015 22222 00272
BBXX BATFR19 06184 99061 30058 46/// /2111 10247 20204 40110 53009 22222 00259
BBXX BATFR08 06184 99466 30539 44697 83119 10072 20052 40128 58003 702// 886// 22223 00067
BBXX BATFR05 06184 99298 70142 46/// /0417 10172 20135 40261 50001 22212 00172
BBXX OVYB2 06181 99071 30587 41499 33304 10277 20235 40154 51015 70100 831// 22214 00300 20300 3//// 4//// 5//// 80248
BBXX OXBB2 06181 99016 50815 41498 62104 10256 20215 40108 57029 70222 82178 22244 00250 20501 30000 80227
BBXX 32012 06181 99197 50856 46/// ///// 1//// 91750 22200 11603 70017
BBXX PBEN 06183 99367 70017 41998 21806 10161 20156 40258 53018 7//00 80006 22253 04177 20501 30000 80158
BBXX TBWUK35 06184 99688 10122 41598 11110 10026 21004 49985 51020 70100 81500 22214 00080 20501 30000 80015
BBXX AVMI 06183 99330 31517 41298 60409 10200 20/// 40234 53002 70102 82111 22200 00200
BBXX TFBKF 06184 99635 70202 46/// ///// 22200 10705 70027
BBXX TFBLK 06184 99657 70248 46/// ///// 22200 10807 70034
BBXX TFDRN 06184 99658 70212 46/// ///// 22200 10802 70012
BBXX TFGRS 06184 99663 70182 46/// ///// 22200 10703 70017
BBXX TFGRV 06184 99638 70225 46/// ///// 22200 10808 70041
BBXX TFGSK 06184 99641 70229 46/// ///// 22200 10808 70038
BBXX TFHFN 06184 99642 70152 46/// ///// 22200 10706 70032
BBXX TFKGR 06184 99657 70136 46/// ///// 22200 10709 70043
BBXX TFSRT 06184 99633 70203 46/// ///// 22200 10810 70048
BBXX TFSTD 06184 99664 70234 46/// ///// 22200 10706 70028
BBXX UFTA 06181 99843 71197 12597 83603 11209 21234 40019 57018 69932 80007
BBXX WDC6644 06184 99591 71443 41397 82830 11030 2//// 40000 52040 72377 887// 22232 00050 20201 31829 41011 50606 6//// ICE /////
BBXX SHIP 06184 99315 71295 41497 70414 10150 2013/ 40300 54000 70322 86488 22263 00190 20505 329// 41409 5//// 6//// 80140 ICE /////
BBXX WDC6736 06184 99388 70591 41298 63426 10190 2012/ 40100 57020 70222 86200 22224 00210 20405 332// 40806 5//// 6//// 80150 ICE /////
BBXX KGTY 06184 99548 71403 41397 82730 10033 2001/ 40000 52020 70282 886// 22234 00056 2//// 3//// 4//// 5//// 6//// 80022 ICE /////
BBXX C6XC6 06184 99291 71202 41897 53422 10180 2//// 40190 52020 70111 851// 22254 00190 20506 3//// 40905 5//// 6//// 8//// ICE /////
BBXX J8PB 06184 99181 70689 41698 70213 10250 20222 40150 57020 7//22 87263 22222 0//// 20502 30205 40302 50402 6////
BBXX WGJT 06184 99206 70689 41598 50317 10233 2022/ 40183 5//// 70210 8513/ 22273 00256 20203 30103 41206 50604 6//// 80222 ICE /////
BBXX WKAE 06183 99254 70799 41598 43613 10223 20128 40219 58005 70211 84100 22284 00250 20202 3//// 4//// 5//// 6//// 80165 ICE /////
BBXX 9HA2583 06184 99356 70714 41797 52417 10150 2//// 40190 54/// 70211 85246 22244 04217 2//// 3//// 4//// 5//// 6//// 8//// ICE /////
BBXX 46219 06181 99332 71199 46/// ///// 1//// 91758 22200 00137 11809 20806 327// 41807 70046
BBXX 46224 06181 99332 71175 46/// ///// 1//// 91736 22200 00148 11303 21001 327// 41303 70014
BBXX 41112 06181 99307 70813 46/// ///// 1//// 91751 22200 00152 11101 310// 41101 70004
BBXX 41110 06181 99341 70777 46/// ///// 1//// 91751 22200 00120 11201 21001 70005
BBXX 41113 06181 99284 70805 46/// ///// 1//// 91751 22200 00194 11301 21001 309// 41301 70004
BBXX 42099 06181 99273 70842 46/// ///// 1//// 91757 22200 00214 10501 20501 70005
BBXX 44100 06181 99363 70756 46/// ///// 1//// 91752 22200 00100 11201 21001 310// 41201 70006
BBXX 46238 06181 99334 71195 46/// ///// 1//// 91750 22200 00136 11707 21004 328// 41706 70036
BBXX 46239 06181 99363 71221 46/// ///// 1//// 91751 22200 00118 11710 21005 329// 41708 70050
BBXX 44039 06181 99411 70727 46/// /2605 10072 20030 40098 91745 22200 00068 10301 70005 333 91206
BBXX 44099 06181 99369 70757 46/// ///// 1//// 91752 22200 00095 10401 20401 70007
BBXX 46215 06181 99352 71209 46/// ///// 1//// 91738 22200 00127 11707 20804 325// 41705 70034
BBXX 46225 06181 99329 71174 46/// ///// 1//// 91744 22200 00149 11704 21002 326// 41703 70018
BBXX 46213 06181 99403 71247 46/// ///// 1//// 91754 22200 00107 11511 21006 329// 41509 70053
BBXX 46236 06181 99368 71219 46/// ///// 1//// 91750 22200 00117 11409 21004 327// 41408 70043
BBXX 46229 06181 99438 71246 46/// ///// 1//// 91751 22200 00096 11310 21004 328// 41309 70048
BBXX 46243 06181 99462 71241 46/// ///// 1//// 91759 22200 00090 11407 21004 326// 41405 70033
BBXX 46232 06181 99325 71174 46/// ///// 1//// 91738 22200 00148 11705 21002 328// 41704 70025
BBXX 46247 06181 99378 71228 46/// ///// 1//// 91751 22200 00115 11409 20805 328// 41407 70043
BBXX 46218 06181 99345 71208 46/// ///// 1//// 91802 22200 00132 11509 20805 329// 41508 70047
BBXX VAAP 06184 99492 70586 46/// /2632 11062 21116 40025 53002 7//// 8//// 22272 0//// 2////
BBXX 44008 06181 99405 70692 46/// /1808 10078 20033 40123 56033 91750 22200 00095 10703 20602 323// 40702 70013 333 91209 555 11080 22084 31708 41910 61749 181077 184079 184077 188078 192077 188077
BBXX 44172 06181 99445 70634 46/// ///// 1//// 91801 22200 00054 11102 21001 315// 41101 70009
BBXX 44097 06181 99410 70711 46/// ///// 1//// 91802 22200 00107 10604 20604 70019
BBXX 44066 06181 99396 70726 46/// /2211 10110 20055 40106 58032 91750 22200 00126 10603 20603 70016 333 91213 555 11122 22129 31742 42313 61749 225113 227107 229109 232106 233101 229106
BBXX 42055 06181 99222 70940 46/// /1207 10236 20157 40195 58005 91750 22200 00246 10502 20502 70010 333 91209 555 11075 22079 31702 41309 61749 125072 123070 119069 125062 127071 128071 81308 91745
BBXX 41012 06181 99300 70805 46/// /2603 10171 40223 91750 22200 00215 11101 315// 41101 70005 333 91204 555 11029 22029 31735 42505 61749 259027 247030 255029 257027 255028 251028
BBXX 42020 06181 99270 70967 46/// /1411 10201 20161 40190 58011 91750 22200 00220 10602 20602 70008 333 91214 555 11114 22120 31749 41414 61749 142107 133075 130043 125043 132036 133029
BBXX 41060 06181 99148 70510 46/// ///// 1//// 91750 22200 11405 70027
BBXX 41044 06181 99217 70587 46/// /2502 10255 20194 40177 56016 91750 22200 00259 11206 20401 300// 41206 70031 333 91202 555 11015 22016 31657 41805 61749 251014 216011 216016 213015 194023 193027 82003 91654
BBXX 41001 06181 99347 70727 46/// ///// 10169 20070 40190 56028 91750 22200 00217 10803 70014
BBXX MYSU5 06184 99468 70568 41294 72728 11014 21034 40122 55002 78687 877// 22264 00060 20503 3//// 4//// 5//// 81020
BBXX WSRH 06184 99277 71454 41498 73609 10194 2017/ 40250 53005 71522 86163 22255 00194 29903 305// 4//05 5//// 6//// 80178 ICE /////
BBXX VREX8 06184 99533 71479 41496 23413 11010 2101/ 40030 54000 7//11 821// 22234 0//// 2//// 322// 4//05 5//// 6//// 81010 ICE /////
BBXX WKAW 06184 99404 70586 41498 73125 10110 2005/ 40080 52030 70122 8728/ 22264 00150 20505 32818 40706 51003 6//// 80080 ICE /////
BBXX A8TG2 06183 99256 71526 41/// 30908 10250 20204 40220 54000 7//// 8//// 22263 00220 20801 305// 41005 5//// 80220
BBXX MHNO6 06183 99241 70812 41598 20610 10200 20111 40222 50000 70200 82100 22253 00272 20401 309// 40602 5//// 80151
BBXX KIYI 06184 99538 71356 41498 52430 10060 2004/ 40039 54000 7//22 859// 22274 0//// 20204 324// 40807 5//// 6//// 80053 ICE /////
BBXX PHAM 06183 99543 70001 41/97 82530 10076 20024 40153 57037 70011 88/// 22272 20606 80052 91239
BBXX 46061 06181 99602 71468 46/// /2206 11020 49938 53007 91750 22200 00035 11106 20502 300// 41105 70028 333 91208 555 11063 22065 31712 42110 61749 220062 213065 215078 205077 208046 198052
BBXX 51101 06181 99243 71621 46/// /0903 10229 20191 40223 53016 91750 22200 00237 11905 20401 332// 41905 70024 333 91204 555 11026 22027 31659 41305 61749 086026 088023 090025 104030 124032 117034
BBXX 44011 06181 99411 70666 46/// /2506 10048 21011 40140 57015 91750 22200 00084 10804 20502 3//// 40804 70022 333 91207 555 11065 22067 31713 40608 61749 252062 245061 242060 238063 243061 243055
BBXX 46089 06181 99459 71258 46/// /1908 10084 20048 40255 56009 91750 22200 00092 11408 20602 327// 41408 70040 333 91209 555 11080 22084 31741 41910 61749 189076 191077 189074 185075 191071 193069
BBXX 41046 06181 99238 70683 46/// /0505 10226 20135 40197 58023 91750 22200 00250 11105 20401 300// 41105 70024 333 91208 555 11055 22057 31744 40508 61749 047054 048052 054055 048053 046054 044054 80506 91731
BBXX 41101 06184 99146 70562 46/// /0914 10262 20203 40136 57022 22200 00268 10905 70026
BBXX VOKF 06184 99490 70669 46/// /2109 11132 21185 40115 58012 7//// 8//// 22200 0//// 2////
BBXX VOXS 06184 99467 70480 41596 81626 10061 2006/ 40049 56042 76166 885// 22200 04019 20403 320// 40607 80059
BBXX VCXF 06184 99464 70484 41496 81740 10069 2007/ 40015 57037 78062 887// 22200 02027 20605 32232 40804 50803 80069
BBXX A8OK7 06184 99095 70583 41598 40614 10278 20228 40131 55007 70311 8/162 22273 20704 304// 41003 5//// 80242
BBXX DANM 06184 99394 70648 41598 52824 10086 20018 40149 56010 70222 8513/ 22224 00150 20405 399// 4//04 80055
BBXX NEPP 06184 99599 71679 41597 31704 11210 2123/ 40069 56004 7//00 835// 22282 00005 2//// 3//// 4//// 5//// 6//// 86210 ICE 44092
BBXX KABP 06183 99427 70450 43/95 /1419 10140 2009/ 40110 57070 7//// 8//// 22211 0//// 2//// 3//// 4//// 5//// 6//// 80110 ICE /////
BBXX C6CL6 06184 99240 70808 41598 30606 00/// 10300 2018/ 40220 52015 70100 83905 22252 00280 2//// 3//// 4//// 5//// 6//// 80220 0/0/0
BBXX CGBN 06184 99475 70527 46/// /2514 10012 21058 40030 51003 7//// 8//// 22200 0//// 2////
BBXX CG2958 06184 99500 71272 46/// /1210 10036 20027 40221 56010 7//// 8//// 22200 0//// 2////
BBXX VOKJ 06184 99455 70735 46/// /0211 11126 21145 40056 56034 7//// 8//// 22200 0//// 2////
BBXX CGBY 06184 99487 71235 46/// /2603 10039 20026 40260 55002 7//// 8//// 22200 0//// 2////
BBXX VOFG 06184 99456 70614 46/// /3016 11059 21118 40113 56004 7//// 8//// 22200 0//// 2////
BBXX VOPP 06184 99456 70735 46/// /0207 11124 21136 4//// 5//// 7//// 8//// 22200 0//// 2////
BBXX CGHL 06184 99476 70527 46/// /2513 10013 21059 40032 52002 7//// 8//// 22200 0//// 2////
BBXX CGCC 06184 99463 70725 46/// /0312 11117 21149 40080 58041 7//// 8//// 22200 0//// 2////
BBXX C6SI6 06184 99543 71644 46/// /0225 11085 21120 49955 56042 7//// 8//// 22223 0//// 2////
BBXX CGBR 06184 99534 71293 46/// /1607 10019 20019 40170 56009 7//// 8//// 22200 0//// 2////
BBXX CGJV 06184 99459 70628 46/// /2914 11086 21126 40129 57012 7//// 8//// 22233 00015 2////
BBXX CGDR 06184 99543 71304 46/// /1015 10038 20020 40130 56037 7//// 8//// 22200 0//// 2////
BBXX 3FZK3 06184 99552 71376 46/// /2329 10054 20053 49948 58063 7//// 8//// 22262 0//// 2////
BBXX CGSB 06184 99479 70695 46/// /1904 11129 21181 40128 56029 7//// 8//// 22200 0//// 2////
BBXX CGTF 06184 99476 70527 46/// /1512 10010 21060 40032 52002 7//// 8//// 22200 0//// 2////
BBXX VRYO3 06184 99492 70639 46/// /3022 11094 21146 40089 56021 7//// 8//// 22225 00004 2////
BBXX VCLM 06184 99468 70712 46/// /0611 11110 21146 40099 58038 7//// 8//// 22200 0//// 2////
BBXX PFBF 06183 99139 31749 41297 83005 10250 20236 40080 51010 76562 8/85/ 22263 20608 335// 40812 5//// 80240
BBXX VCSZ 06184 99463 70726 46/// /0516 11114 21128 40074 58055 7//// 8//// 22252 0//// 2////
BBXX VCWL 06184 99468 70712 46/// /0515 11119 21155 40101 58040 7//// 8//// 22200 0//// 2////
BBXX CGDG 06184 99447 70636 46/// /3106 11056 21118 40132 56013 7//// 8//// 22200 0//// 2////
BBXX VOLG 06184 99446 70636 46/// /3103 11047 21121 40130 56013 7//// 8//// 22200 0//// 2////
BBXX CGDX 06184 99468 70712 46/// /0409 11115 21154 40106 58037 7//// 8//// 22200 0//// 2////
BBXX VXKF 06184 99472 70599 46/// /2928 11062 21114 40044 55013 7//// 8//// 22253 0//// 2////
BBXX CGDT 06184 99463 70725 46/// /0308 11105 21135 40078 58042 7//// 8//// 22200 0//// 2////
BBXX VCBW 06184 99500 70668 46/// /2508 11120 21189 40104 56011 7//// 8//// 22243 00018 2////
BBXX 42057 06181 99168 70815 46/// /0409 10260 20185 40170 58014 91750 22200 00271 10804 20504 3//// 40802 70021 333 91210 555 11086 22091 31716 40311 61749 042085 039090 039086 034092 036089 041090 80410 91705
BBXX 41010 06181 99289 70785 46/// /2804 10201 40219 58016 91750 22200 00231 11102 20401 300// 41102 70009 333 91205 555 11039 22040
BBXX 41009 06181 99285 70802 46/// /2802 10176 20119 40231 58016 91750 22200 00207 10702 20401 300// 40701 70008 333 91203 555 11025 22025
BBXX CZ9742 06184 99506 70969 46/// /3210 11050 21059 4//// 5//// 7//// 8//// 22200 0//// 2////
BBXX CGUM 06184 99457 70602 46/// /3016 11053 21102 40104 51006 7//// 8//// 22251 0//// 2////
BBXX VCRG 06184 99474 70619 46/// /2611 11079 21120 40106 53002 7//// 8//// 22200 0//// 2////
BBXX 46026 06181 99378 71228 46/// /3308 10103 40229 53018 91750 22200 00113 11608 20703 329// 41607 70038 333 91212 555 11085 22090 31717 42713 61749 319081 279096 279099 278103 280100 285101
BBXX 46041 06181 99474 71247 46/// /2007 10078 40248 56007 91750 22200 00085 11207 20602 3//// 41207 70035 333 91208 555 11072 22076 31721 41609 61749 199068 183059 173067 178063 172061 170064
BBXX 44040 06181 99410 70736 46/// /2406 10073 20008 40096 91745 22200 10201 70003 333 91207 555 11072 22088
BBXX 46077 06181 99579 71543 46/// /2603 11071 21145 40018 58021 91750 22200 00039 10401 20301 3//// 40401 70007 333 91206 555 11032 22032 31658 42506 61749 260031 260037 256037 253042 252039 243041 82605 91656
BBXX 46072 06181 99517 71722 46/// /0211 10001 21064 49940 54000 91750 22200 00040 10907 20805 3//// 40905 70036 333 91213 555 11113 22119 31748 40313 61749 025105 031102 028107 028103 026101 027101 80312 91724
BBXX 41040 06181 99145 70530 46/// /0707 10263 20219 40146 56023 91750 22200 00271 11406 20403 3//// 41405 70029 333 91210 555 11079 22083 31747 40810 61749 074075 075073 077074 076072 078072 081075 80808 91748
BBXX 42039 06181 99288 70860 46/// /3502 10204 40219 57012 91750 22200 00212 10401 20401 70004 333 91203 555 11021 22021 31652 43603 61749 347019 345017 347018 338019 344018 351021 83603 91653
BBXX 46035 06181 99571 71778 46/// /1003 1//// 40048 57006 91750 22200 11102 300// 41102 70011 333 91204 555 11025 22026 31655 42105 61749 095023 124014 156023 178032 191033 200028 82104 91655
BBXX 46082 06181 99597 71434 46/// ///// 11005 49961 55000 91750 22200 00057
BBXX BATEU05 06184 99642 70524 46/// /0506 11073 40049 22282
BBXX BATFR14 06184 99321 70375 44798 32005 10202 20139 40242 56013 70000 83162 22254 00205
BBXX ELWR5 06183 99218 70614 41598 30910 10255 20205 40175 55005 70211 82165 22214 04258 20502 399// 41206 80220
BBXX A8EY7 06183 99327 71277 41/98 50320 10155 20102 40300 54000 702// 8/5// 22234 2//04 326// 4//04 5//// 80125
BBXX C6JS 06183 99269 70745 41498 70412 10230 2011/ 40230 54000 70200 89/// 22285 20201 302// 40402 80160
BBXX 46069 06181 99337 71202 46/// /3312 10126 40186 53014 91750 22200 00137 11509 20606 329// 41507 70045 333 91215 555 11127 22135 31739 43216 61749 325118 325116 323118 325111 327114 325118
BBXX 41008 06181 99314 70809 46/// /2205 10141 20094 40216 58020 91750 22200 00152 11001 300// 41001 70004 333 91206 555 11050 22052 31745 42206 61749 217048 219045 222043 227045 231046 231044
BBXX 44020 06181 99414 70702 46/// /1906 10069 20035 40094 58040 91750 22200 00048 10301 20301 70004 333 91206 555 11060 22063 31651 42508 61749 199055 248055 249059 249062 248065 244066
BBXX 46011 06181 99350 71210 46/// /3211 10117 40207 53015 91750 22200 00127 11308 20804 330// 41307 70040 333 91214 555 11119 22126 31739 43214 61749 323113 321114 321112 324116 323113 322112
BBXX 44025 06181 99402 70732 46/// /2210 10089 20043 40094 56032 91750 22200 00092 10503 20503 70016 333 91212 555 11104 22110 31653 42212 61749 218096 219093 219097 222101 218096 218102
BBXX 46078 06181 99561 71526 46/// /1608 11024 21096 40021 91750 333 91210 555 11081 22087
BBXX 46088 06181 99483 71232 46/// /1306 10058 40251 56006 91750 22200 00077 11301 325// 41301 70005 333 91207 555 11065 22068 31745 41307 61749 134062 134059 134055 130054 130051 124050
BBXX 46047 06181 99324 71195 46/// /3210 10135 40184 53021 91750 22200 00135 11609 20805 330// 41607 70044 333 91211 555 11102 22108 31711 43112 61749 321094 326090 324090 318099 319096 319097
BBXX 46014 06181 99394 71240 46/// /3411 10103 40250 53015 91750 22200 00108 11610 20804 3//// 41609 70051 333 91214 555 11122 22130 31733 43415 61749 341115 339116 341116 340114 342112 343113
BBXX 46086 06181 99325 71180 46/// /3103 10152 40173 51020 91750 22200 00151 11606 20401 329// 41606 70032 333 91204 555 11030 22033 31655 43004 61749 307027 305024 322025 323025 310027 303025
BBXX 44014 06181 99366 70748 46/// ///10 1//// 40155 58025 91750 22200 00189 10603 20603 306// 41101 70014 333 91212 555 11098 22098
BBXX 41013 06181 99334 70777 46/// /2306 10173 20086 40193 58023 91750 22200 00183 11101 20401 311// 41101 70007 333 91208 555 11068 22071 31700 42309 61749 229066 227069 227071 224075 220079 218077
BBXX 46027 06181 99419 71244 46/// /0301 10080 40269 53012 91750 22200 00096 11508 20401 327// 41508 70040 333 91203 555 11014 22015 31749 40905 61749 031015 020019 027017 008019 352021 023020
BBXX 46050 06181 99442 71246 46/// /2101 10082 40275 52005 91750 22200 00093 11508 20301 328// 41508 70042 333 91203 555 11012 22013 31744 41803 61749 210012 228013 239009 236010 167005 208004
BBXX 41004 06181 99325 70791 46/// /2405 10166 20066 91750 22200 00192 11101 20301 3//// 41101 70006 333 91206 555 11051 22053 31729 42407 61749 236050 237051 240051 238047 240047 243045
BBXX 44065 06181 99404 70737 46/// /1907 10085 20034 40095 56029 91750 22200 00083 10502 20502 304// 41101 70011 333 91208 555 11074 22079 31707 42009 61749 193068 196068 198073 198079 198082 203077 82009 91713
BBXX 44027 06181 99443 70673 46/// /0803 11041 21088 40127 57026 91750 22200 00071 11001 3//// 41001 70006 333 91205 555 11033 22034 31743 40905 61749 077030 097027 065025 062024 061028 076022
BBXX 46105 06181 99590 71522 46/// ///// 1//// 91750 22200 10705 70024
BBXX WDC6698 06184 99213 71579 43/// /1200 10256 20195 40190 5//// 7//// 8//// 222// 04242 2//// 3//// 4//// 5//// 6//// 8//// ICE /////
BBXX C6VG8 06184 99296 70765 41/// /2810 10180 2//// 40210 5//// 7//// 8//// 22284 00230 2//// 3//// 4//// 5//// 6//// 8//// ICE /////
BBXX DHYW 06181 99533 71486 41897 70710 10010 21016 40040 57010 70222 8//1/ 22224 2//// 3//// 4//// 5//// 80000
BBXX S6JU 06184 99508 71764 41898 25134 10005 21015 49985 51012 70201 82941 22254 04010 2//// 33029 40604 50403 6//// 81005 ICE /////
BBXX 4XFV 06183 99275 71215 43498 73517 10170 2014/ 40210 52010 85099 22234 20503 328// 40805 80150
BBXX FVNM 06184 99195 70869 46/// /0911 10252 20147 40192 58017 22281 00269
BBXX BAREU00 06184 99455 70424 46/// ///// 40133 57054 22263
BBXX 42085 06181 99179 70665 46/// /1205 10271 40142 91740 333 91206
BBXX 44007 06181 99435 70701 46/// /1406 10026 20015 40093 57038 91750 22200 00067 11101 20301 3//// 41101 70006 333 91207 555 11058 22060 31654 41507 61749 142056 145055 147051 153053 150053 146052
BBXX BAREU08 06184 99204 70640 46/// ///// 40171 57022 22254
BBXX 46080 06181 99580 71500 46/// /2909 11050 21115 40026 55000 91750 22200 00040 11107 20805 3//// 41105 70036 333 91212 555 11098 22102 31722 43014 61749 287093 294098 291109 286100 286096 290103 82912 91725
BBXX 46028 06181 99357 71219 46/// /3212 10112 40211 51017 91750 22200 00129 11709 20805 330// 41707 70044 333 91215 555 11128 22136 31702 43215 61749 323120 326114 320113 320115 321122 327120
BBXX 46075 06181 99539 71608 46/// /0514 11016 21042 49916 56062 91750 22200 00034 11205 20404 300// 41204 70026 333 91218 555 11150 22159 31650 40518 61749 053142 052138 050137 051138 053136 050135 80515 91749
BBXX 46025 06181 99337 71191 46/// /3505 10150 20127 40166 52018 91750 22200 00150 11605 20401 328// 41605 70024 333 91206 555 11052 22055 31744 43406 61749 349049 352042 353039 352045 001047 355047
BBXX 46005 06181 99461 71310 46/// ///10 10102 40205 53017 91750 22200 00097 11107 20805 3//// 41105 70035 333 91213 555 11109 22117
BBXX 46059 06181 99380 71300 46/// /3607 10118 40312 51013 91750 22200 00136 11407 20602 3//// 41407 70036 333 91208 555 11074 22077 31651 43409 61749 004070 001072 001069 357074 353069 000067
BBXX 46054 06181 99342 71204 46/// /3214 10120 40185 51021 91750 22200 00126 11709 20805 300// 41708 70045 333 91216 555 11148 22158 31737 43217 61749 316139 319134 321134 320130 324134 323130
BBXX 46029 06181 99461 71245 46/// /2006 10079 20035 40261 56004 91750 22200 00088 11508 20502 328// 41508 70041 333 91207 555 11060 22063 31740 42108 61749 196058 201059 199060 204053 182052 192053
BBXX 46087 06181 99485 71247 46/// /1405 10070 20035 40250 56003 91750 22200 00083 11406 20501 326// 41406 70031 333 91208 555 11054 22056 31657 41408 61749 137051 133049 135043 131050 146056 145055
BBXX 46084 06181 99566 71361 46/// ///// 10040 20030 40019 56029 91750 22200 00069 11110 70051
BBXX 46012 06181 99374 71229 46/// /3211 10106 40232 53016 91750 22200 00115 11610 20605 331// 41609 70051 333 91213 555 11113 22120 31656 43114 61749 322108 322113 317110 315109 323110 313106
BBXX 46013 06181 99382 71233 46/// /3212 10103 40225 53014 91750 22200 00107 11409 20605 3//// 41408 70045 333 91215 555 11132 22140 31739 43316 61749 322124 323132 326124 325123 326123 323127
BBXX 46006 06181 99408 71375 46/// /1907 10126 40278 53006 91750 22200 00117 11206 20602 3//// 41205 70030 333 91208 555 11071 22078 31656 41908 61749 193066 192065 192067 191066 194065 193067
BBXX 46002 06181 99426 71305 46/// ///// 10112 40278 56003 91750 22200 00117 11408 70038
BBXX 44009 06181 99385 70747 46/// /2107 10089 40138 58023 91750 22200 00085 10602 20602 300// 41001 70011 333 91208 555 11070 22076 31700 42109 61749 209066 209073 205077 206076 205074 209076
BBXX CG2960 06184 99453 70817 46/// /2314 10056 20030 49994 58005 7//// 8//// 22200 0//// 2////
BBXX CG2350 06184 99433 70798 46/// /2314 10068 20018 40020 58010 7//// 8//// 22200 0//// 2////
BBXX CGDS 06184 99429 70792 46/// /3120 10068 20018 40047 56010 7//// 8//// 22200 0//// 2////
BBXX WDE3569 06184 99434 70834 41/98 62016 10061 2//// 40007 54000 70222 84026 22243 0//// 20201 3//// 4//// 5//// 6//// 8//// ICE /////
BBXX DBFH 06181 99535 10086 46/// /2904 10060 20041 40164 52007 22200 00055
BBXX DBJM 06181 99543 10072 46/// /2910 10057 20030 40156 52006 22231 00064
BBXX DBBA 06181 99541 10121 46/// /2703 10027 21001 40125 52010 22220 00050
BBXX DBEA 06181 99540 10083 46/// /3010/10063 /0043 40150 52007 22250 00057
BBXX DBKR 06181 99541 10121 46/// /2603 10019 20006 40125 52009 22200 00048
BBXX DBBC 06181 99575 10100 46/// /2806 10052 20029 40149 52010 22220 00050
BBXX DBBI 06181 99535 10100 46/// /2806 10052 20049 40146 52008 22240 00048
BBXX WDD6127 06184 99446 70220 41598 72416 10150 2012/ 40350 56003 7//11 8788/ 22264 00150 20202 331// 40607 5//// 6//// 80130 ICE /////
BBXX TFEA 06181 99634 70184 42/97 72409 10045 49875 22223 00070
BBXX TFNA 06181 99667 70129 41/97 80617 10016 49885 76972 22272 00029
BBXX DK7210 06181 99540 10066 46/// /2912 10077 20070 30141 222// 21106 70028
BBXX 42003 06181 99260 70856 46/// /2602 1//// 91750 22200 10401 20301 336// 40401 70005 333 91204 555 11025 22027 31708 42304 61749 264025 229022 237025 228019 240024 256024 82303 91708
BBXX 44005 06181 99432 70691 46/// /1507 10015 21011 40103 56037 91750 22200 00076 11101 20401 3//// 41101 70007 333 91209 555 11074 22077 31736 41509 61749 150070 149067 152061 148067 150059 144057
BBXX 42040 06181 99292 70882 46/// /2903 10190 40222 58008 91750 22200 00218 10601 325// 40601 70003 333 91203 555 11027 22028 31651 42904 61749 292027 289024 288027 290028 288029 286029
BBXX 42019 06181 99279 70954 46/// /2401 10214 20167 40192 58006 91750 22200 10602 20401 316// 40602 70010 333 91201 555 11008 22009 31659 42402 61749 247009 238010 240010 234012 252013 258016
BBXX 42059 06181 99151 70675 46/// /0906 10270 20213 40144 58022 91750 22200 00278 11404 20502 3//// 41403 70018 333 91207 555 11061 22064 31656 40807 61749 085058 083058 085057 084055 081058 082057 80806 91656
BBXX 42056 06181 99198 70849 46/// /0709 10238 20172 40193 58020 91750 22200 00265 10603 20603 309// 40801 70015 333 91211 555 11092 22097 31704 40612 61749 067087 059088 057090 056089 057091 055087 80610 91705
BBXX 41048 06181 99320 70696 46/// /3303 10176 20060 40206 57015 91750 22200 00214 10804 20301 3//// 40804 70022 333 91204 555 11031 22032 31657 43206 61749 326031 308042 343045 343036 342040 335045 83505 91722
BBXX 42036 06181 99285 70845 46/// /0602 10191 20129 40220 58015 91750 22200 00206 10401 70003 333 91203 555 11024 22024 31739 40603 61749 060023 085019 115013 117014 090016 096013
BBXX 42035 06181 99292 70944 46/// /1803 10168 20164 40195 58006 91750 22200 00154 10502 20301 317// 40501 70008 333 91204 555 11036 22043 31650 41905 61749 182031 179033 191027 210024 205032 201040
BBXX 42058 06181 99149 70749 46/// /0809 10266 20216 40132 58018 91750 22200 00271 10604 20604 335// 41301 70019 333 91212 555 11100 22106 31654 40812 61749 080095 082097 078102 082101 073103 079104 80811 91713
BBXX 42060 06181 99163 70635 46/// /1007 10267 20207 40150 58024 91750 22200 00273 11003 20502 300// 41002 70015 333 91208 555 11071 22075 31717 41108 61749 101067 100067 101061 106063 111062 114058 81007 91743
BBXX 41047 06181 99275 70715 46/// /3504 10214 40215 58019 91750 22200 00249 10904 20401 335// 40904 70019 333 91206 555 11044 22045 31746 43606 61749 350044 339040 341039 343041 340038 350044 83605 91747
BBXX 42002 06181 99258 70937 46/// /2009 10227 20134 40208 58006 91750 22200 00245 10502 20502 70008 333 91211 555 11094 22100 31721 41911 61749 195092 188087 187092 186087 188086 173087
BBXX 42065 06181 99170 70817 46/// /0508 10253 20185 91750 22200 10704 20704 70018 333 91210 555 11081 22087 31713 40410 61749 046076 044077 044078 047081 036078 037079 80409 91708
BBXX 41036 06181 99342 70770 46/// ///// 10171 20084 40188 58023 91750 22200 00190 10302 70008
BBXX 41043 06181 99211 70650 46/// /0309 10240 20216 40175 58021 91750 22200 00260 11206 20604 300// 41204 70029 333 91211 555 11100 22105 31721 40412 61749 029093 031093 028096 028098 027098 025094 80311 91709
BBXX 41049 06181 99275 70630 46/// /3207 10212 20142 40187 56017 91750 555 11079 22084
BBXX 42012 06181 99301 70876 46/// /0000 10164 20150 40220 58010 91750 22200 00173 10401 20401 70004 333 91201 555 11005 22005 31657 43102 61749 339005 322007 310010 306011 303015 301019
BBXX 42001 06181 99259 70897 46/// /1806 10212 20108 40230 58006 91750 22200 00234 10301 20301 70004 333 91207 555 11065 22068 31738 41708 61749 175060 165059 166054 171053 168057 163061
BBXX A8ID9 06184 99134 71367 41698 40914 10239 20216 40165 51005 70211 82262 22254 04240 20304 326// 40606 5//// 80223
BBXX ELQQ4 06184 99080 70460 438// 50513 10270 2026/ 40080 56030 7//// 8/6// 22234 00280 2//// 3//// 4//// 5//// 6//// 80260 ICE /////
BBXX WJBJ 06183 99128 71000 41398 70713 10290 2022/ 40146 50004 7//22 85831 22265 00272 20302 334// 40704 5//// 6//// 80240 ICE /////
BBXX A8FU7 06181 99076 70841 41898 72007 10275 20231 40130 54000 70211 86440 22265 00280 299// 3//// 4//// 5//// 80245
BBXX ONAI 06184 99062 70508 41697 40913 10370 2028/ 40120 56010 701// 84200 22274 00283 2//// 3//// 4//// 5//// 6//// 80300 ICE /////
BBXX DQXQ 06184 99100 70903 41998 00616 10267 20218 40133 57010 70000 80000 22234 00240 20202 308// 40505 80232
BBXX BATFR35 06184 99166 51516 46/// /3115 10252 20215 40100 22272 00287
BBXX PCHM 06184 99225 31663 41498 31515 10230 20199 40076 58003 70222 82140 22214 00220 20203 308// 40203 80210
BBXX WBP3210 06184 99720 51570 43/// /1518 11017 2//// 49651 5//// 7//// 8//// 22262 01006 2//// 3//// 4//// 5//// 6//// ICE /////
BBXX WCX7445 06184 99648 50640 43/// /0927 10010 2//// 49774 5//// 7//// 8//// 22200 00000 2//// 3//// 4//// 5//// 6//// ICE /////
AAXX 06181 14240 12975 33501 10064 21044 39943 40099 52044 60002 83030 333 10094
AAXX 06181 14258 NIL
AAXX 06181 14445 12670 40215 10093 21067 39850 40003 52027 60002 84200 333 10102 84896 92323
AAXX 06181 26038 01484 73004 11020 21046 39913 49954 52019 69942 70282 87500 333 10012 21020 60007 87615 91109 555 1/102 21020 3/102 50002 52102
AAXX 06181 26045 NIL
AAXX 06181 26058 NIL
AAXX 06181 26115 NIL
AAXX 06181 26135 01381 82902 11007 21018 39876 49950 52019 69982 77777 886// 333 10007 21007 60007 88707 555 1/101 21007 3/101 50002 52101
AAXX 06181 26141 01383 83004 11009 21016 39791 49940 51020 60012 72687 883// 333 10002 21009 69937 88910 555 1/101 21009 3/101 51001 52101
AAXX 06181 26231 NIL
AAXX 06181 26242 01370 82902 10000 21009 39859 49945 52023 60022 77175 886// 333 10012 20000 60007 88707 555 1/100 20000 3/100 50006 52100
AAXX 06181 26247 NIL
AAXX 06184 47101 32965 00701 11107 21133 30258 40362 52015
AAXX 06184 47105 369// /2710 11037 21119 30305 40339 52009
AAXX 06184 47108 32960 02901 11070 21147 30240 40353 52011
AAXX 06184 47115 32670 70714 11015 21053 30036 40320 53005 87500 333 92044
AAXX 06184 47133 32965 00000 11068 21104 30264 40355 52012
AAXX 06184 47138 32965 02504 11009 21113 30327 40330 52011 333 92022
AAXX 06184 47159 32970 03405 11008 21127 30234 40323 52008 333 92023
AAXX 06184 47165 32965 00000 11028 21080 30295 40344 52008 333 92020
AAXX 06184 47168 32965 03607 11012 21071 30246 40329 52011 333 92023
AAXX 06184 47184 32670 63607 10043 21034 30309 40335 53002 86500 333 92023
AAXX 06184 93004 16/// /1821 10161 20161 40037 57009 60031
AAXX 06184 93023 16/// /1408 10179 20171 40047 57013 60041
AAXX 06184 93069 16/// /1225 10186 20176 40056 57018 6///1
AAXX 06184 93110 17998 /1508 10172 20154 40082 57007 60001
AAXX 06184 93186 17698 /1405 10183 20165 40092 57005 60001
AAXX 06184 93196 16/// /1403 10177 20158 40104 57004 69981
AAXX 06184 93245 16698 /1402 10146 20131 40108 54000 60001
AAXX 06184 93292 17998 /0402 10174 20133 40106 52003 60001
AAXX 06184 93309 17698 /1603 10135 20128 40099 57001 60001
AAXX 06184 93334 16/// /0000 10102 20094 39167 52005 60001
AAXX 06184 93339 16/// /2403 10095 20091 39174 52006 60001
AAXX 06184 93373 17997 /2404 10148 20145 40095 52004 60001
AAXX 06184 93404 17/98 /3504 10134 20123 40102 52001 60001
AAXX 06184 93420 17/98 /0505 10151 20110 40099 52003 60001
AAXX 06184 93439 17/98 /0310 10159 20123 40093 52005 60001
AAXX 06184 93498 16/// /3105 10149 20112 40094 52011 60001
AAXX 06184 93515 17698 /1304 10150 20146 40093 52001 60001
AAXX 06184 93527 16/// /2908 10152 20142 40090 52002 60001
AAXX 06184 93546 17/98 /1303 10151 20135 40084 52006 60001
AAXX 06184 93597 16/// /1506 10148 20140 40091 52013 60001
AAXX 06184 93615 17596 /1104 10141 20138 40093 52002 60091
AAXX 06184 93678 16598 /2010 10154 20138 40087 52007 60001
AAXX 06184 93709 16/// /0000 10143 20139 40087 52006 60041
AAXX 06184 93773 17396 /2004 10121 20118 40103 52009 60021
AAXX 06184 93781 17398 /2209 10144 20138 40089 52008 60001
AAXX 06184 93800 NIL
AAXX 06184 93805 NIL
AAXX 06184 93831 17898 /1403 10105 20074 40105 52013 60001
AAXX 06184 93845 17598 /2904 10115 20104 40107 52008 60001
AAXX 06184 93891 17897 /1902 10100 20094 40107 52009 60001
AAXX 06184 93909 16/// /3309 10088 20071 40103 52003 60001
AAXX 06184 93929 16/// /2920 10091 20051 40044 57011 60001
AAXX 06184 93947 16/// /3209 10078 20056 40028 57009 60001
AAXX 06184 93987 16/// /3314 10159 20155 40128 52008 60001
AAXX 06184 93994 NIL
AAXX 06184 16622 11360 83224 10044 20039 39845 49855 52030 60092 76066 8777/ 333 10132 81708 87620 88357 90730 91130 555 10000 40044 30000 10050 2//// 30070 4//// 5//// 40000 47412 44205 50000 50042 60000 60085 60600 70000 77R// 7RD//
AAXX 06184 16641 11460 82914 10076 20058 39833 49838 52030 60102 76162 8682/ 333 10130 84815 86620 88458 90730 91124 555 10000 40076 40000 47402 44190 50000 50068 60000 60104 61005 70000 77R// 7R///
AAXX 06184 16682 11560 62716 10100 20056 39860 49878 52013 60112 76062 85141 333 10150 85820 84358 90730 91135 555 10000 40100 30000 10095 20110 30112 40112 50160 60160 40000 47424 44190 50000 50080 60000 60108 60620 70000 77R// 7R///
AAXX 06184 16716 11560 42710 10130 20059 39854 49871 53014 69972 70161 82150 333 10164 82825 84360 555 10000 40130 40000 47415 44160 50000 50096 60000 60007 60140 70000 77/// 7R///
AAXX 06184 16734 NIL
AAXX 06184 16743 NIL
AAXX 06184 16749 11457 81910 10150 20113 39999 40013 57011 60102 76165 8582/ 333 10162 83818 84625 88458 90730 91115 555 10000 40126 40000 47530 44205 50000 50130 60000 60096 60425 70000 77R// 7RD//
AAXX 06184 16754 11460 72020 10144 20106 39920 49967 57009 60152 76166 87800 333 10156 82815 86620 90730 91139 555 10000 40132 40000 47471 44200 50000 50124 60000 60147 60755 70000 77R// 7R///
AAXX 06184 91925 02581 20907 10297 20208 30074 40134 51010 60001 82200 333 56100 60007 82826 90710 91112 555 60005 11512 59018
AAXX 06184 91929 04584 82907 10252 20223 30106 40109 51015 60142 700// 333 10270 20236 69987 90710 91114 555 69945
AAXX 06184 91938 01565 80402 10261 20226 30106 40108 51010 60082 715// 878// 333 10277 20247 69967 82820 87640 90710 91108 555 60005 10908 59025
AAXX 06184 91944 06/// /0109 10268 20202 30121 40124 53011 60092 333 10272 20240 60007 90710 91112 555 60005
AAXX 06184 91948 02582 40504 10277 20208 30047 40148 51006 60001 82246 333 56166 60007 82821 83271 90710 91112 555 60005 10612 59006
AAXX 06184 91954 06/// /1104 10215 20203 30108 40111 51014 60071 333 60077 555 59004
AAXX 06184 91958 01775 81904 10217 20138 30111 40113 50008 60011 70286 885// 333 56499 60007 88650 90710 91118 555 60005 11522 58007
AAXX 06184 91943 NIL
AAXX 06184 91945 NIL
AAXX 06184 47090 32970 02703 11037 21131 30316 40340 52007 333 92032
AAXX 06184 47095 32960 00000 11139 21161 30159 40366 52015
AAXX 06184 47097 329// /0000 11103 21130 30252 40356 52013
AAXX 06184 47098 329// /3602 11104 21136 30209 40354 52012
AAXX 06184 47099 329// /0000 11127 21152 30317 40357 52010
AAXX 06184 47100 32970 00000 11179 21202 39386 40397 52019
AAXX 06184 47102 32668 12908 11035 21099 30172 40360 52008 81500
AAXX 06184 47104 32670 22306 11038 21134 30236 40339 52009 82500
AAXX 06184 47106 329// /2303 11021 21099 30282 40334 52010
AAXX 06184 47112 32962 03603 11065 21140 30264 40354 52009 333 92012
AAXX 06184 47114 32960 00502 11099 21133 30160 40357 52014
AAXX 06184 47119 31957 00000 11087 21123 30308 40353 52010 70500
AAXX 06184 47121 329// /0000 11115 21132 30047 40366 52016
AAXX 06184 47127 329// /0902 11099 21123 30206 40359 52014
AAXX 06184 47129 32962 00001 11095 21115 30321 40360 52010
AAXX 06184 47130 32670 52503 11035 21093 30268 40333 52009 85500 333 92032
AAXX 06184 47131 32965 00000 11073 21106 30278 40354 52012
AAXX 06184 47135 329// /0502 11089 21115 30034 40355 52012
AAXX 06184 47136 32963 00000 11099 21127 30165 40351 52014
AAXX 06184 47137 329// /2504 11048 21139 30222 40347 52011
AAXX 06184 47140 32965 00000 11069 21094 30322 40353 52010 333 92010
AAXX 06184 47143 32968 02703 11022 21120 30265 40348 52011
AAXX 06184 47145 32962 02001 11104 21125 30319 40348 52011
AAXX 06184 47146 32963 01601 11065 21087 30281 40351 52009
AAXX 06184 47150 32968 00203 11076 21111 30331 40352 52010
AAXX 06184 47152 32970 00000 11022 21102 30282 40327 52010
AAXX 06184 47154 329// /3403 11064 21117 30283 40347 52010
AAXX 06184 47155 32970 03603 11006 21125 30282 40330 52008
AAXX 06184 47156 32968 00207 11041 21082 30255 40349 51007
AAXX 06184 47157 32961 03201 11088 21104 30051 40341 52015
AAXX 06184 47162 32965 00503 11011 21076 30285 40327 52009 333 92022
AAXX 06184 47169 32670 53413 10027 21045 30245 40342 53007 85500 333 92044
AAXX 06184 47170 32968 03404 11015 21078 30295 40341 52007 333 92022
AAXX 06184 47171 329// /1102 11070 21094 30294 40353 52008
AAXX 06184 47172 329// /0000 11071 21093 30275 40346 52009
AAXX 06184 47173 329// /0001 11097 21113 30233 40353 52013
AAXX 06184 47174 32965 03206 11038 21082 30126 40339 52008
AAXX 06184 47175 32970 00703 11046 21068 39741 40345 52010 333 92022
AAXX 06184 47185 32670 63417 10052 21024 30234 40327 53005 86500 333 92035
AAXX 06184 47188 32670 23603 10022 21031 30305 40328 52007 82500 333 92022
AAXX 06184 47189 32668 43604 10045 21001 30252 40314 52006 84500 333 92022
AAXX 06184 47192 32962 00000 11074 21099 30299 40339 52011
BBXX LAHV 06181 99641 10097 43/// /3306 10027 21038 49992 222// 04075 1////
BBXX LDGJ 06181 99603 10053 43/// /1402 10028 20004 40047 5//// 222/0 04078 1//// 3//// 4//// 5////
BBXX LF4H 06184 99596 10022 46/98 12114 10058 20030 40035 57047 8//// 22200 06081 10805 70023 333 91122
BBXX LMEL 06181 99603 10053 43/// /1403 10023 20022 40046 5//// 222/0 04080 1//// 3//// 4//// 5////
AAXX 06184 91348 32474 60307 10272 20226 30059 40112 55000 83101 333 561/9 70010 555 90618
AAXX 06184 68226 42660 30000 10326 20144 48498 52006 82980 333 10377
BBXX 3FZK3 06184 99552 71376 46/// /2329 10054 20053 49948 58063 7//// 8//// 22262 0//// 2////
BBXX 46026 06181 99378 71228 46/// /3308 10103 40229 53018 91750 22200 00113 11608 20703 329// 41607 70038 333 91212 555 11085 22090 31717 42713 61749 319081 279096 279099 278103 280100 285101
BBXX 46028 06181 99357 71219 46/// /3212 10112 40211 51017 91750 22200 00129 11709 20805 330// 41707 70044 333 91215 555 11128 22136 31702 43215 61749 323120 326114 320113 320115 321122 327120
BBXX 46042 06181 99368 71224 46/// /3510 10109 40228 53017 91750 22200 00116 11509 20603 330// 41508 70043 333 91212 555 11101 22107 31737 43512 61749 354096 352102 348097 349096 349096 348097
BBXX CG2958 06184 99500 71272 46/// /1210 10036 20027 40221 56010 7//// 8//// 22200 0//// 2////
BBXX CGBR 06184 99534 71293 46/// /1607 10019 20019 40170 56009 7//// 8//// 22200 0//// 2////
BBXX CGBY 06184 99487 71235 46/// /2603 10039 20026 40260 55002 7//// 8//// 22200 0//// 2////
BBXX CGDR 06184 99543 71304 46/// /1015 10038 20020 40130 56037 7//// 8//// 22200 0//// 2////
BBXX DHBN 06181 99310 71369 41598 60808 10185 20145 40272 51012 70322 8/3// 22224 00200 2//// 3//// 4//// 5//// 80160
BBXX KGTY 06184 99548 71403 41397 82730 10033 20010 40000 52020 70282 886// 22234 00056 2//// 3//// 4//// 5//// 6//// 80022 ICE /////
BBXX SHIP 06183 99385 71468 41/97 72720 10150 20133 40160 52010 74642 87/7/ 22225 00135 20404 325// 41205 80140
BBXX WDC6644 06184 99591 71443 41397 82830 11030 2//// 40000 52040 72377 887// 22232 00050 20201 31829 41011 50606 6//// ICE /////
BBXX WDJK 06184 99549 71406 41497 82842 10051 20031 49996 52040 76022 8824/ 22273 00050 20805 327// 41010 5//// 6//// 80042 ICE /////
AAXX 06184 08001 NIL
AAXX 06184 08015 11440 80000 10110 20102 39938 40347 56004 60012 75052 8677/ 333 10117
AAXX 06184 08023 11460 72604 10120 20112 30273 40345 53005 60022 70282 8483/ 333 10137
AAXX 06184 08027 11459 63308 10102 20078 30012 40327 53005 60012 71022 86200 333 10125
AAXX 06184 08045 02984 /0109 10121 20091 30008 40320 56003 69902 333 10155 60007
AAXX 06184 08141 12960 22902 10056 20047 39456 40336 53003 60002 80002 333 10077
AAXX 06184 08160 12665 23025 10114 20032 39984 40296 50001 60002 81501 333 10154
AAXX 06184 08181 02562 62405 10106 20054 30255 40261 51019 60002 82878 333 10162 60007
AAXX 06184 08221 02980 00115 10114 20041 39611 40299 50008 60002 333 10155 60007
AAXX 06184 08231 NIL
AAXX 06184 08261 12980 12303 10084 20033 39823 40314 55001 60002 80001 333 10158
AAXX 06184 08284 02782 51307 10163 20078 30194 40269 53032 60002 81145 333 10239 60007
AAXX 06184 08306 12768 40606 10116 20046 30258 40264 51011 60002 83108 333 10166
AAXX 06184 08314 02570 13521 10113 20028 30137 40242 53001 60002 81456 333 10137 60007
AAXX 06184 08430 12880 42905 10186 20048 30181 40255 53006 60002 81011 333 10230
AAXX 06184 08482 12982 02815 10218 20025 30226 40234 53005 60002 333 10256
AAXX 06181 26509 11597 73205 10018 21043 30012 40021 52029 69912 70182 87500 333 10034 91011 91113 555 53013
AAXX 06181 26518 11570 83205 11002 21011 40008 52029 69942 78582 889// 333 10014 88921 91008 91111 555 53011
AAXX 06181 26524 11698 83004 10005 21006 39862 49995 52031 69962 70282 885// 333 10026 88645 91007 91109 555 53009
AAXX 06181 26531 11463 73003 10014 20006 49977 52031 69982 70265 87500 333 10027 87615 91005 91108 555 53008
AAXX 06181 26629 11467 83104 10017 20012 39903 49999 52038 69982 72162 885// 333 10036 88614 91006 91107 555 53007
AAXX 06181 26633 11462 82902 10017 20009 39843 49973 52032 69932 76165 8872/ 333 10028 88710 91004 91106 555 53006
AAXX 06181 26730 11262 83104 10016 20013 39789 49980 52030 69952 75152 8802/ 333 10022 88506 91005 91107 555 53007
AAXX 06181 14241 12984 40204 10053 21059 39968 40099 52045 60002 84030 333 10096
AAXX 06181 14284 12980 03411 10046 21025 39954 40063 52038 60002 333 10072
AAXX 06181 14307 32984 03402 10063 21059 30013 40090 53032 333 10116
AAXX 06181 14317 NIL
AAXX 06181 14431 12780 53207 10096 21056 39962 40055 51026 60002 82130 333 10119 91012 91536
AAXX 06181 14444 33980 03615 10096 21050 39999 40028 52032 333 10109 91023 91536 91127 91501
AAXX 06181 14474 12680 73513 10077 21044 39762 49951 51024 60012 81170 333 10087 91020 91534 91137 91535
AAXX 06184 16614 11560 73213 10022 21019 39110 49881 53038 60152 70176 84550 333 10048 41998 84625 86358 90730 91135 93199 555 10000 40008 60000 60149 61000 70000 77/// 7*R//
AAXX 06184 16627 11558 81522 10130 20111 39855 49859 57010 60072 76166 8657/ 333 10134 86620 88357 90730 91148 555 10000 40120 30000 10100 20094 30090 40082 50078 6//// 40000 47424 44240 50000 50120 60000 60065 60800 70000 77R// 7R///
AAXX 06184 16667 11457 81527 10142 20120 39895 49900 56015 60042 76396 8767/ 333 10150 82713 86625 88358 90730 91148 555 10000 40116 30000 20116 30124 40000 47450 44200 50000 50130 60000 60043 60600 70000 77RY/ 7TRY/
AAXX 06184 16675 17/// /9901 10076 20062 39814 49828 52002 60092 741// 333 10167 90730 91114 555 10000 40073 60000 60091 60743
AAXX 06184 16710 36/// /2412 10054 20017 39142 49900 52021 333 10103 90730 91135 555 10000 40052
AAXX 06184 16723 11460 81722 10154 20129 39916 49931 57040 60012 76062 8682/ 333 10160 83818 85625 88458 90730 91138 555 10000 40130 40000 47470 44220 50000 50140 60000 60012 60130 70000 77R// 7R///
AAXX 06184 16738 17/// /2311 10123 20078 39715 49909 52007 60072 74144 333 10146 90730 91145 555 10000 40112 60000 60068 61132
AAXX 06184 16746 11560 72520 10114 20082 39775 49955 52006 60032 76062 87800 333 10174 82820 86630 90730 91148 555 10000 40106 40000 47360 44180 50000 50098 60000 60025 60130 70000 77R// 7R///
AAXX 06184 16643 11460 71304 10090 20073 39827 49833 56003 60102 76062 84670 333 10144 82715 84635 87358 90730 91108 555 10000 40090 40000 47402 44220 50000 50082 60000 60095 60800 70000 77R// 7R///
AAXX 06184 16648 11360 83015 10056 20042 39747 49835 52018 60092 76162 8672/ 333 10126 83707 85625 88457 90730 91122 555 10000 40040 30000 10060 2//// 30058 40060 5//// 6//// 40000 47340 44210 50000 50050 60000 60090 60715 70000 77R// 7RY//
AAXX 06184 16650 11440 81725 10142 20112 39811 49815 57023 60082 76066 8767/ 333 10144 83710 85620 88358 90730 91156 555 10000 40138 30000 10112 20102 30100 40100 50094 60116 40000 47390 44230 50000 50126 60000 60078 60930 70000 77R// 7R///
AAXX 06184 16684 11460 51919 10114 20082 39790 49816 57012 60032 70196 84603 333 10150 82712 84625 90730 91139 555 10000 40114 40000 47372 44210 50000 50098 60000 60034 60120 70000 77/// 7TRY/
AAXX 06184 16732 11462 71928 10134 20103 39906 49918 57026 60062 72162 86770 333 10158 83712 85625 87358 90730 91147 555 10000 40134 40000 47453 44150 50000 50118 60000 60058 60540 70000 77R// 7R///
AAXX 06184 68383 16/// /0000 10258 20183 39919 48587 52022 69922 333 10326 20258 91000 555 20002 91016
AAXX 06184 68379 36/// /0805 10253 20208 39839 48582 52021 333 10344 20253 91012 555 91016
AAXX 06184 68398 36/// /3611 10228 20194 39389 48540 52016 333 10309 20228 91017 555 91016
AAXX 06184 68299 36/// /0506 10170 20141 38957 48546 52011 333 10221 20169 91008 555 91021
AAXX 06184 91348 32474 60307 10272 20226 30059 40112 55000 83101 333 561/9 70010 555 90618
AAXX 06181 26645 11295 82702 10014 20011 39710 49968 52027 69932 71022 886// 333 10014 88703
AAXX 06181 26659 11457 82202 10005 21003 39755 49968 52026 60052 77172 8872/ 333 10006 88510
AAXX 06181 26763 11335 82003 10017 20012 39741 49967 52023 60042 75165 886// 333 10018 88707
AAXX 06181 26825 31456 63003 10018 20013 39812 49994 52037 71022 86600 333 10026 86712
AAXX 06181 26832 11218 82601 10019 20014 39795 49987 52030 69982 71072 8667/ 333 10021 86704
AAXX 06181 26887 11496 81702 10022 20014 39778 49983 52013 69952 71062 886// 333 10031 88714
AAXX 06181 26961 11358 82402 10026 20014 39787 49978 52025 60012 71022 885// 333 10027 88708
AAXX 06181 33027 12597 72402 10028 20020 39824 49990 52024 60012 87500 333 10033
AAXX 06184 16434 11250 83615 10006 21008 38834 48343 53008 60042 79574 889// 333 10062 83904 85807 91025 95090 95103
AAXX 06184 60106 32965 03203 10114 20070 40276 55003 333 10204
AAXX 06184 60318 32960 02614 10175 20054 40245 58006 333 10221
BBXX BATUK01 06184 99581 70034 46/// /2217 10089 20054 40043 56041 22211 00079
AAXX 06181 14008 12099 33232 11122 21156 37352 47889 52044 69902 83200 333 11113 49110 91139 92868 93100 95100
AAXX 06181 14015 12782 21801 10056 21081 39743 40094 53036 60002 82830 333 10102 81850 81656
AAXX 06181 14023 12799 33605 10065 21063 39820 40115 52041 60002 83530 333 10091 83650
AAXX 06181 14024 12499 10103 10002 21098 38998 48398 52036 60002 81140 333 10033 91110 95000
AAXX 06181 14026 12998 20203 10038 21047 39790 40114 52043 60002 82030 333 10086
AAXX 06181 14031 12999 30403 10045 21053 39885 40115 53043 60002 83030 333 10089
AAXX 06181 14105 12999 01204 10020 21014 30091 40096 53032 60002 333 10112
AAXX 06181 14106 12999 01102 10014 21006 30023 40093 52033 60002 333 10111 95000
AAXX 06181 14121 12799 10302 10061 21043 39831 40097 52038 60002 81500 333 10091 81650
AAXX 06181 14122 12984 13101 10004 21035 39910 40111 52045 60002 81030 333 10104
AAXX 06184 04005 32489 59901 10015 21017 49840 52005 85500 333 10037 20013 555 3/204
AAXX 06184 04018 21480 71809 10023 20010 49840 57002 71582 81666 333 10034 20021 60038 555 3//13 81711 83358 85362
AAXX 06184 04030 21480 71003 10024 20019 49845 55008 75182 85770 333 10039 20024 60038 555 3//08 84712
AAXX 06184 04048 21459 72625 10043 20020 49855 57012 78088 878// 333 10063 20035 60028 555 3/532
AAXX 06184 04063 22580 62802 10006 21010 49852 57007 84940 333 10008 21023 69918 555 3//04
AAXX 06184 04077 NIL
AAXX 06184 04082 22581 72913 10037 20005 49855 57005 8367/ 333 10038 20021 60018 555 3//13 83730 86361
AAXX 06184 04097 22589 73516 10030 21015 49836 57019 70272 83330 333 10033 20004 60148 555 3/417
AAXX 06181 38353 115// 80000 11049 21059 39425 40372 58010 69930 77172 885//
AAXX 06181 38613 429// 82701 11031 21073 40321 58018 8802/ 333 11014
AAXX 06181 38616 425// 70000 11047 21071 39278 40344 58008 87500 333 11035
AAXX 06181 38345 31596 82801 11075 21097 38871 48547 58006 71022 88611 333 11040
AAXX 06181 36911 119// 80000 11044 21057 39355 40366 58003 69900 77072 8802/ 333 11021
AAXX 06181 36974 329// 00902 11198 21224 38022 48595 51102 333 11106
AAXX 06181 36982 429// 00000 11229 21297 36520 47197 53002 333 11134
AAXX 06183 04013 22586 80909 10020 20004 49838 54000 82220 333 10042 20020 69958 555 3//13
AAXX 06183 04064 22682 52502 10012 20007 49874 57006 83932 333 10035 20012 69908 555 3//05
AAXX 06181 33088 12597 82802 10033 20004 39803 49993 52029 69902 885// 333 10059
AAXX 06181 33177 11597 82002 10024 20014 39753 49990 52032 69952 72582 889// 333 10045
AAXX 06181 33261 11396 82101 10055 20046 39817 49996 52016 60042 72162 886// 333 10057 88708
AAXX 06181 33275 11297 81605 10056 20051 39787 40007 52007 60052 76162 8772/ 333 10056 87705
AAXX 06181 33301 12497 82503 10020 20004 39719 40001 52030 69912 885// 333 10060 88616
AAXX 06181 33325 11996 82601 10012 20007 39733 40002 52025 69932 71062 80007 333 10047
AAXX 06181 33377 11294 81602 10059 20052 39806 49997 52016 60142 76162 8772/ 333 10064 86706
AAXX 06181 33415 32697 62503 10023 21007 39612 40010 52032 84530 333 10063
AAXX 06181 33429 12797 72503 10008 21011 39590 40015 52028 69902 83530 333 10050 83650
AAXX 06181 33466 31456 82001 10053 20041 39817 40002 52026 71022 885// 333 10064 85717
AAXX 06181 33526 12670 72902 10029 21007 39682 40020 52037 69902 85530 333 10081 85613
AAXX 06181 33562 31540 82903 10012 20001 39647 40009 52031 71022 8655/ 333 10043 86624
AAXX 06181 33614 11459 81902 10071 20062 39901 40004 52022 60012 76162 8872/ 333 10076 88713
AAXX 06181 33761 11496 81801 10048 20043 39776 49997 52020 60022 71022 886// 333 10060 88715
AAXX 06181 33902 11496 81704 10077 20065 39947 40012 52020 60032 78088 889// 333 10095
AAXX 06181 33983 32997 81406 10074 20062 39998 40058 52003 80001 333 10122
AAXX 06181 34415 NIL
AAXX 06181 34523 NIL
AAXX 06181 34712 31995 80905 10015 20012 39995 40082 52008 71011 80007 333 10053
AAXX 06184 17022 12662 61607 10155 20000 39826 49987 56003 60002 84250 333 10161 84834 86360 91117 92437
AAXX 06184 17031 12970 01709 10128 20001 30056 40062 52007 60002 333 10180
AAXX 06184 17038 12970 32214 10158 21057 30044 40094 50001 60002 83030 333 10175 83360 92428
AAXX 06184 17050 11556 71311 10109 20089 39806 49866 57024 60232 78188 85270 333 10113 85830 87458 91022 91122
AAXX 06184 17060 12560 71309 10147 20025 39890 49929 57012 60002 84250 333 10151 84830 86360
AAXX 06184 17096 11560 50000 11077 21100 38205 48486 52005 69942 70172 83550 333 11040 83630 85358 93197
AAXX 06184 17124 12660 71411 10069 20011 39107 40025 55002 60002 84550 333 10087 84635 86360
AAXX 06184 17128 12660 71503 10023 20005 38977 40099 58003 60002 83150 333 10027 83840 86360
AAXX 06184 17170 11556 30000 11024 21042 38303 48478 52005 60002 71011 83500 333 10050 83630
AAXX 06184 17195 12670 33404 10006 21026 38900 48419 52009 60002 83400 333 10100 83640
AAXX 06184 17199 11558 81301 10014 20009 39074 40195 52011 69912 71022 8562/ 333 10023 82720 84635 88459
AAXX 06184 17219 11460 71826 10131 20110 39783 49924 58022 60072 79598 86950 333 10135 81915 85825 87360 9103 7 91141
AAXX 06184 17240 11570 61612 10060 20014 38910 40052 58008 69922 72582 84250 333 10084 84830 86360 91026 91126
AAXX 06184 17244 12670 51817 10046 20014 38899 48398 52006 60002 83550 333 10108 83640 85360
AAXX 06184 17280 11660 72706 10023 20014 39389 40203 52008 60022 70262 8451/ 333 10036 84635 87459
AAXX 06184 17350 11660 70408 10088 20080 30071 40150 53015 69992 78082 85250 333 10137 85835 87360
AAXX 06184 17024 12670 81821 10153 21008 39928 40004 50000 60002 8452/ 333 10179 84635 88460 91035 91141 92438
AAXX 06184 17056 11670 71523 10133 20114 39903 49907 56007 60032 70282 84270 333 10135 84833 87359 91130 92458
AAXX 06184 17067 12670 51505 10151 20013 39921 49943 57015 60002 85200 333 10157 85840 91133 92428
AAXX 06184 17092 12660 53201 11007 21047 38833 48461 52010 60002 83550 333 10073 83640 85360
AAXX 06184 17112 11556 71729 10134 20107 39864 49866 57012 60072 78122 85270 333 10139 85830 87359 91148 92446
AAXX 06184 17115 12660 71721 10132 20045 39854 49904 57018 60002 84270 333 10147 84835 87460
AAXX 06184 17116 12670 61506 10158 20015 39803 49921 57025 60002 84250 333 10161 84835 86360 91018 91122
AAXX 06184 17188 12660 70810 10072 21002 38956 40010 55010 60002 85250 333 10081 85835 87360 91123
AAXX 06184 17202 12565 70706 10014 20002 39157 40209 52012 69962 84550 333 10023 82720 84635 87360
AAXX 06184 17248 12970 30202 10024 21011 38910 48420 53015 60002 83030 333 10103 83360
AAXX 06184 17292 11556 71709 10087 20085 39260 40010 57018 60312 79582 85970 333 10096 81925 84830 87359 91126
AAXX 06184 17300 11460 71511 10133 20095 30002 40073 56005 60072 78022 87900 333 10149 81915 86825
AAXX 06184 17310 11670 70703 10127 20081 30107 40114 52003 60122 70282 83250 333 10154 83835 86360 91114 92428
AAXX 06184 17330 12670 50705 10124 20048 30120 40138 52005 60002 83230 333 10139 83840 85360
AAXX 06181 13160 32997 03508 10043 21005 39949 40058 52034 333 10071 91014 91119
AAXX 06181 13262 32698 83603 10054 21003 39913 40062 52040 8557/ 333 10063
AAXX 06181 13272 32670 83408 10051 20001 39912 40032 52030 8557/ 333 10072 85640 88460
AAXX 06181 13285 32698 83202 10042 21002 39908 40011 52023 885// 333 10066
AAXX 06181 13289 11/92 93210 11029 21033 38769 48284 52021 60012 74944 333 11014 4/004 91017 91120 93101
AAXX 06181 13376 12698 83004 10046 20004 39761 40023 52027 69952 885// 333 10060
AAXX 06181 13388 11597 83305 10039 20007 39718 49965 51014 60062 70266 885// 333 10051 91010 91112
AAXX 06181 13462 12460 80110 10080 21029 39902 49941 52016 60032 8657/ 333 10093 82710 86630 88457
AAXX 06181 13473 NIL
AAXX 06181 13489 11497 80303 10007 20001 39424 49944 53012 60122 77177 887// 333 10036 42000 93197
AAXX 06184 17026 12670 61406 10130 20032 30001 40039 50001 60002 83250 333 10146 83833 86358 91115 92428
AAXX 06184 17034 12970 02205 10154 21044 30039 40085 50000 60002 333 10179 92428
AAXX 06184 17070 12565 60903 10094 20008 39161 40018 50000 60002 84550 333 10095 84630 85360 91120
AAXX 06184 17084 12970 32003 10019 21014 39186 40115 52006 60002 83030 333 10089 83360
AAXX 06184 17090 12965 40601 10017 21024 38672 48446 52011 60002 84030 333 10066 84360
AAXX 06184 17098 11560 80701 11090 21097 38162 48488 56001 69922 77142 8552/ 333 11069 85630 88457 93197
AAXX 06184 17150 11660 71520 10124 20059 39799 49919 58017 69902 78082 85230 333 10155 85835 87359 91138
AAXX 06184 17160 12670 61708 10071 21015 38937 48411 50006 60002 86500 333 10107 86639 91018 91123
AAXX 06184 17184 12670 71410 10139 20061 39831 49941 57021 69922 84270 333 10148 84840 87360 91131
AAXX 06184 17189 12670 51416 10058 20001 38875 48351 58010 60002 85200 333 10094 85835
AAXX 06184 17210 12670 83502 10050 20003 39143 40192 52010 60002 8452/ 333 10073 84633 88459
AAXX 06184 17234 11660 71003 10120 20094 39911 49978 57023 69972 78082 84270 333 10156 84836 87359 91116
AAXX 06184 17260 11345 83501 10044 20040 39345 40177 52008 69942 71062 86520 333 10049 83707 85625 88458
AAXX 06184 17290 11570 71821 10155 20109 39951 49982 55019 60022 72582 84270 333 10172 84830 87359 91038 9114 3 92448
AAXX 06184 17370 11665 61207 10116 20040 30141 40145 52009 69942 70382 84230 333 10133 84835 86360 92437
AAXX 06181 26231 01584 82702 11003 21024 39947 49962 51019 69962 70282 883// 333 10009 21003 60007 88933 555 1/100 21003 3/100 50005
AAXX 06184 17042 12970 21211 10140 21075 30074 40113 52009 60002 82030 333 10167 82360 92438
AAXX 06184 17074 12662 61203 10045 21002 39122 40070 55001 60002 84230 333 10097 84833 86360 91115
AAXX 06184 17086 12670 22704 10086 21026 39384 40099 52019 60002 82500 333 10136 82635
AAXX 06184 17088 12670 51604 10033 21057 38756 48459 52013 60002 83550 333 10052 83640 85360
AAXX 06184 17140 12665 61807 10029 21017 38616 48407 50008 60002 86200 333 10072 86838
AAXX 06184 17155 12670 31508 10067 21002 38896 49999 55004 60002 83500 333 10081 83640 91020 91121
AAXX 06184 17203 11640 80000 11026 21034 38878 48519 53006 60042 77177 8552/ 333 11025 85633 88457 93104
AAXX 06184 17237 11665 71808 10128 20032 39490 49984 57024 69902 78082 84270 333 10144 84833 87359 91128
AAXX 06184 17250 12675 31611 10063 21024 38729 48424 53006 60002 83500 333 10097 83640
AAXX 06184 17270 12670 72702 10066 20032 39523 40181 52010 60012 85520 333 10080 85640 87460
AAXX 06184 17295 11558 71621 10155 20112 30027 40034 57016 60082 78082 84270 333 10159 84823 87357
AAXX 06184 17320 11556 73406 10098 20087 30125 40130 53008 60402 79582 85970 333 10156 81920 84830 87359 92446
AAXX 06184 17375 11570 61705 10149 20124 30076 40078 56005 60082 72982 86900 333 10165 81929 85833 91118 92447
AAXX 06181 15502 11560 83403 10050 20031 39921 49960 52021 60062 76166 8802/ 333 10058 20036 555 587// 69999 71800
AAXX 06181 15525 11558 82707 10017 20012 39660 49925 58001 60092 76166 885// 333 10061 20015 555 59603 69999 71842
AAXX 06181 15528 11/06 92502 10042 20037 39723 49911 54000 60152 76366 333 10072 20028 555 59707 69999 71851
AAXX 06181 15535 11562 80706 10069 20065 39869 49915 53006 60082 76362 8802/ 333 10082 20054 555 59702 60899
AAXX 06181 15549 11464 81103 10059 20043 39511 49919 54000 60142 76366 8872/ 333 10076 20040 555 59005 69999 71855
AAXX 06181 15552 11458 80503 10084 20071 39887 49935 54000 60072 76166 8802/ 222// 2//01 314// 4//01 333 10090 20068 555 59201 69999 71872 92024 92426
AAXX 06181 15614 11540 82704 10004 21001 39227 49931 52006 60122 77387 8802/ 333 10036 20004 48005 555 596// 69999 71850
AAXX 06181 15615 11/01 90210 11120 21135 36855 47765 57005 60062 77077 333 11070 21120 92982 555 589// 69999 71865 92711
AAXX 06181 15626 11665 82709 10030 20025 39692 49879 57021 60062 78182 889// 333 10040 21014 43002 555 59706 69999 71862
AAXX 06181 15640 113// 80703 10088 20071 39588 49891 57009 60412 76566 8802/ 333 10095 20052 555 58915 69999 71850 93041
AAXX 06181 15655 11570 80912 10098 20066 39868 49900 57007 60032 76122 885// 222// 00073 20502 333 10113 20058 555 58100 67299 71800 92036 92438
AAXX 06181 15712 11557 83606 10041 20011 39615 49862 53014 60152 78088 889// 333 10080 20036 555 58106 69999 71856 93015
AAXX 06181 15730 11559 83614 10047 20042 39469 49853 57016 60582 78198 889// 333 10080 20044 41/// 555 59729 69999 71859 93058
AAXX 06184 17500 NIL
AAXX 06184 17501 12560 50000 10128 20083 30105 40124 53004 60002 84250 333 10149 81825 83830 85360 92427
AAXX 06184 17505 12560 50905 10122 20078 30023 40136 53007 60002 84250 333 10169 81825 83830 85360
AAXX 06184 17507 NIL
AAXX 06184 17510 11560 20000 10123 20084 30098 40108 53004 69922 70281 82100 333 10174 82830 92417
AAXX 06184 17515 11560 50000 10092 20070 39973 40151 53009 69942 70381 84250 333 10181 81825 83830 85360
AAXX 06184 17521 12560 62305 10100 20073 39989 40127 52009 60002 86230 333 10168 81825 85830
AAXX 06184 17530 12560 50000 10089 20072 30084 40142 52011 60002 84250 333 81825 83830 85360
AAXX 06184 17535 12560 52804 10108 20082 30083 40119 53005 60002 84250 333 81825 83830 85360
AAXX 06184 17540 12560 31706 10140 20089 30125 40149 53008 60002 82230 333 10177 82825 92437
AAXX 06184 17547 12560 32007 10121 20088 39889 40132 53005 60002 82230 333 10143 82825 92437
AAXX 06184 17550 12560 51607 10117 20080 39983 40129 53005 60002 84250 333 10156 81825 83830 85360 92437
AAXX 06184 17572 12560 2//// 10121 20074 30115 40140 53005 60002 82100 333 10154 82830 92417
AAXX 06181 26106 11/96 82803 10016 21012 49978 52023 60032 78882 889// 333 10030 91111
AAXX 06181 26313 12/// 53404 10008 21027 49988 52021 69942 85900 333 10029 91112
AAXX 06181 26346 11295 83004 11005 21006 49945 52020 69972 71065 886// 333 10010 88705
AAXX 06181 26406 11697 63205 10017 21049 40014 52023 69932 70282 86500 333 10035 86636 91010 91113
AAXX 06181 26416 33/// /3004 11006 21014 49998 52020 333 10016 91112
AAXX 06181 26424 12597 73003 10002 21006 49989 52023 60012 86530 333 10022 86621 91110
AAXX 06181 26544 11496 82902 10013 20007 49959 52024 69912 72582 883// 333 10019
AAXX 06181 01281 16/// ///// 1//// 2//// 39810 49996 51022 60082
AAXX 06184 43533 12460 60707 10273 20240 30135 40138 60001 82902 333 58008 81818 81919 85077
AAXX 06184 43555 11460 70917 10278 20230 30129 40132 69901 70282 82232 333 58002 82818 86362
AAXX 06184 43577 11468 40903 10272 20233 30138 40140 69911 70281 81231 333 58006 81818 83363
AAXX 06184 43588 12468 41403 10275 20230 30139 40141 60001 82232 333 58009 82818
AAXX 06184 43599 12465 10000 10260 20231 30143 40145 60001 71100 333 58010 81819
AAXX 06181 48820 11497 83602 10110 20094 30241 40249 50001 69901 76062 888// 333 58029 85894 88697 96160
AAXX 06184 43533 12460 60707 10273 20240 30135 40138 60001 82902 333 58008 81818 81919 85077
AAXX 06184 43555 11460 70917 10278 20230 30129 40132 69901 70282 82232 333 58002 82818 86362
AAXX 06184 43577 11468 40903 10272 20233 30138 40140 69911 70281 81231 333 58006 81818 83363
AAXX 06184 43588 12468 41403 10275 20230 30139 40141 60001 82232 333 58009 82818
AAXX 06184 43599 12465 10000 10260 20231 30143 40145 60001 71100 333 58010 81819
AAXX 06184 68054 41660 20906 10276 20201 48531 52012 71311 82902
AAXX 06184 08055 12980 00104 10090 20047 39253 48610 53001 60002 333 10142 95090
AAXX 06184 08075 12582 50111 10078 20053 39278 48610 52004 60002 85500 333 10107
AAXX 06184 08084 02570 52907 10108 20051 39892 40330 52008 69932 85500 333 10141 60007
AAXX 06184 08171 12985 12707 10110 21005 30024 40266 52024 60002 80001 333 10172
AAXX 06184 08184 06/// /2503 10079 21013 30099 40258 53022 60002 333 10157 60007
AAXX 06184 08202 02965 10606 10075 20040 39388 42916 53003 60002 80001 333 10140 60007
AAXX 06184 08235 NIL
AAXX 06184 08238 12770 53412 10148 20001 30194 40254 52019 60002 81145 333 10188
AAXX 06184 08280 12975 53109 10116 20043 39452 40276 53007 60002 82031 333 10158
AAXX 06184 08330 11008 21202 10046 20025 30066 40305 57003 69912 71144 81601 333 10082
AAXX 06184 08348 12970 10604 10121 20062 39560 40300 53005 60002 80002 333 10163
AAXX 06184 08360 02980 00709 10160 20096 30224 40262 53028 60002 333 10231 60007
AAXX 06184 08373 02558 21002 10134 20094 30246 40268 51022 60002 822// 333 10202 60007
AAXX 06184 08410 06/// /0803 10145 20030 30163 40274 53003 60002 333 10195 60007
AAXX 06184 08419 02982 10308 10147 20026 39594 40259 53002 60002 80001 333 10195 60007
AAXX 06184 08451 06/// /3007 10135 20079 30234 40267 55002 60002 333 10195 60007
AAXX 06184 08487 02365 40000 10135 20124 30226 40252 53018 69902 81601 333 10175 60007
AAXX 06181 48870 32498 73202 10230 20196 30172 40179 58005 878// 333 58015 83894 86696
AAXX 06181 48877 32598 63407 10243 20192 30159 40164 58012 868// 333 58012 83895 86697
AAXX 06181 48887 32798 70201 10241 20175 30133 40139 58003 81508 333 58010 81697 87299
AAXX 06181 48920 32598 83609 10260 20247 30117 40120 58016 889// 333 58010 82895 81996 87697
AAXX 06181 48892 32598 60207 10262 20236 30123 40128 58009 83208 333 58014 83895 86299
AAXX 06181 48823 11496 83403 10112 20109 30239 40242 50001 69901 75052 8772/ 333 58029 87794 88499 96150
AAXX 06184 65352 31940 70402 10308 20082 3//// 4//// 70522 80002 333 10342 5//// 87076
AAXX 06184 65361 32958 70000 10295 20071 3//// 4//// 80002 333 10335 5//// 87076
AAXX 06184 65376 31920 71002 10294 20115 39643 40101 70522 80002 333 10321 59008 87073
AAXX 06184 65387 32956 72204 10289 20237 30066 40084 80002 333 10328 59008 87073
AAXX 06184 06030 02970 32508 10022 20006 30062 40078 57007 6///2 80001 333 10037 21010 6///7 83071
AAXX 06184 06060 02775 42609 10027 20013 30036 40102 58001 69902 81531 333 10045 21029 6///7 81650 83070
AAXX 06184 06070 05/76 02506 10007 21016 30061 40091 57010 6///2 333 10040 20001 6///7
AAXX 06184 06120 NIL
AAXX 06184 06180 02982 32507 10004 21012 30091 40098 54000 6///2 80001 333 10043 20001 6///7 83070 91123
AAXX 06184 06193 05/73 03015 10028 21012 30076 40087 52009 6///2 333 10035 20023 55300 20000 6///7
AAXX 06184 17026 12670 61406 10130 20032 30001 40039 50001 60002 83250 333 10146 83833 86358 91115 92428
AAXX 06184 17034 12970 02205 10154 21044 30039 40085 50000 60002 333 10179 92428
AAXX 06184 17070 12565 60903 10094 20008 39161 40018 50000 60002 84550 333 10095 84630 85360 91120
AAXX 06184 17084 12970 32003 10019 21014 39186 40115 52006 60002 83030 333 10089 83360
AAXX 06184 17090 12965 40601 10017 21024 38672 48446 52011 60002 84030 333 10066 84360
AAXX 06184 17098 11560 80701 11090 21097 38162 48488 56001 69922 77142 8552/ 333 11069 85630 88457 93197
AAXX 06184 17150 11660 71520 10124 20059 39799 49919 58017 69902 78082 85230 333 10155 85835 87359 91138
AAXX 06184 17160 12670 61708 10071 21015 38937 48411 50006 60002 86500 333 10107 86639 91018 91123
AAXX 06184 17184 12670 71410 10139 20061 39831 49941 57021 69922 84270 333 10148 84840 87360 91131
AAXX 06184 17189 12670 51416 10058 20001 38875 48351 58010 60002 85200 333 10094 85835
AAXX 06184 17210 12670 83502 10050 20003 39143 40192 52010 60002 8452/ 333 10073 84633 88459
AAXX 06184 17234 11660 71003 10120 20094 39911 49978 57023 69972 78082 84270 333 10156 84836 87359 91116
AAXX 06184 17260 11345 83501 10044 20040 39345 40177 52008 69942 71062 86520 333 10049 83707 85625 88458
AAXX 06184 17290 11570 71821 10155 20109 39951 49982 55019 60022 72582 84270 333 10172 84830 87359 91038 91143 92448
AAXX 06184 17370 11665 61207 10116 20040 30141 40145 52009 69942 70382 84230 333 10133 84835 86360 92437
AAXX 06184 17022 12662 61607 10155 20000 39826 49987 56003 60002 84250 333 10161 84834 86360 91117 92437
AAXX 06184 17031 12970 01709 10128 20001 30056 40062 52007 60002 333 10180
AAXX 06184 17038 12970 32214 10158 21057 30044 40094 50001 60002 83030 333 10175 83360 92428
AAXX 06184 17050 11556 71311 10109 20089 39806 49866 57024 60232 78188 85270 333 10113 85830 87458 91022 91122
AAXX 06184 17060 12560 71309 10147 20025 39890 49929 57012 60002 84250 333 10151 84830 86360
AAXX 06184 17096 11560 50000 11077 21100 38205 48486 52005 69942 70172 83550 333 11040 83630 85358 93197
AAXX 06184 17124 12660 71411 10069 20011 39107 40025 55002 60002 84550 333 10087 84635 86360
AAXX 06184 17128 12660 71503 10023 20005 38977 40099 58003 60002 83150 333 10027 83840 86360
AAXX 06184 17170 11556 30000 11024 21042 38303 48478 52005 60002 71011 83500 333 10050 83630
AAXX 06184 17195 12670 33404 10006 21026 38900 48419 52009 60002 83400 333 10100 83640
AAXX 06184 17199 11558 81301 10014 20009 39074 40195 52011 69912 71022 8562/ 333 10023 82720 84635 88459
AAXX 06184 17219 11460 71826 10131 20110 39783 49924 58022 60072 79598 86950 333 10135 81915 85825 87360 91037 91141
AAXX 06184 17240 11570 61612 10060 20014 38910 40052 58008 69922 72582 84250 333 10084 84830 86360 91026 91126
AAXX 06184 17244 12670 51817 10046 20014 38899 48398 52006 60002 83550 333 10108 83640 85360
AAXX 06184 17280 11660 72706 10023 20014 39389 40203 52008 60022 70262 8451/ 333 10036 84635 87459
AAXX 06184 17350 11660 70408 10088 20080 30071 40150 53015 69992 78082 85250 333 10137 85835 87360
AAXX 06181 13173 32698 73405 10045 20013 39937 40038 52035 87500 333 10061
AAXX 06181 13180 32698 83203 10035 20030 39913 40023 52028 885// 333 10064
AAXX 06181 13266 32698 73506 10047 20053 39950 40050 52045 87500 333 10071 91113
AAXX 06181 13369 11495 83206 11023 21033 38803 48293 52016 60052 77177 8802/ 333 11015 4/026 91012 91116 93110
AAXX 06181 13383 12697 83204 10048 21002 39800 40003 52020 60022 885// 333 10057
AAXX 06181 13384 12597 83404 10048 20015 39848 49999 52017 69912 885// 333 10061
AAXX 06181 13389 11597 83506 10031 20004 39681 49962 51010 60142 76166 8802/ 333 10052
AAXX 06181 13477 NIL
AAXX 06184 13601 11660 83604 10084 21048 39781 49880 52031 60292 70262 885// 333 10092 88640
AAXX 06183 61701 31959 50000 10312 20136 40112 70522 84032 333 10342 58001 84363
AAXX 06183 61705 31959 40802 10329 20133 4//// 70500 80006 333 10345 5//// 82272 83073
AAXX 06183 61707 31959 10902 10323 20123 4//// 70522 81030 333 10349 5//// 81363
AAXX 06183 61711 32960 50902 10284 20164 4//// 85030 333 10312 5//// 85362
AAXX 06183 61712 32960 31803 10330 20050 4//// 80002 333 10365 5//// 83074
AAXX 06183 61717 31959 30902 10335 20060 4//// 70500 83030 333 10354 5//// 83362
AAXX 06183 61720 NIL
AAXX 06183 61721 31959 53604 10334 20044 4//// 70522 80002 333 10351 5//// 85074
AAXX 06183 61722 31959 43605 10330 20031 4//// 70511 80002 333 10350 5//// 84074
AAXX 06183 61731 31959 50000 10328 20123 4//// 70522 81032 333 10360 5//// 81362 85074
AAXX 06183 61733 NIL
AAXX 06184 65501 32960 73602 10255 21020 39823 40141 80002 333 10290 59004 87076
AAXX 06184 65502 31956 70804 10273 21031 39746 40128 70611 80002 333 10299 59006 87076
AAXX 06184 65503 31940 70406 10277 20016 39779 40127 70622 80002 333 10320 59003 87076
AAXX 06184 65505 32960 40408 10294 21004 39782 40121 80002 333 10325 59001 84076
AAXX 06184 65507 32960 70204 10267 21011 39772 40124 80002 333 10313 59005 87076
AAXX 06184 65510 31958 50206 10295 20036 39598 40111 70622 80002 333 10320 58005 85076
AAXX 06184 65516 32965 50404 10296 20010 39808 40115 80002 333 10325 58005 85076
AAXX 06184 65518 32965 73604 10289 20042 39743 40107 80002 333 10324 59007 87076
AAXX 06184 65522 32960 70000 10312 20028 39775 40104 80002 333 10336 59005 87076
AAXX 06181 15501 11568 83204 10050 20023 39911 49955 52019 69932 75152 8802/ 333 10056 20034 555 58300 62799
AAXX 06181 15505 11556 82906 10010 20007 39577 49950 52013 60212 76876 8802/ 333 10060 20008 555 59805 69999 71856 93021
AAXX 06181 15511 11565 83206 10046 20031 39924 49963 52011 60132 76166 8802/ 333 10054 20045 555 59002 69999
AAXX 06181 15514 11558 82904 10048 20039 39902 49937 52008 60142 76162 8802/ 333 10051 20042 555 59404 60899
AAXX 06181 15530 11962 80000 10022 20012 39690 49927 51001 60122 76362 8802/ 333 10070 20022 555 59309 69999 71859
AAXX 06181 15533 11559 80000 10064 20057 39854 49885 53001 60152 76366 8802/ 333 10066 20050 555 59607 69999 93015
AAXX 06181 15550 11556 80000 10078 20072 39902 49921 53011 60112 76366 8802/ 333 10094 20067 555 59604 69999
AAXX 06181 15561 11468 81410 10100 20071 39929 49936 53001 60072 76166 8802/ 222// 00080 2//02 333 10100 20080 555 58203 69999 71845 92035 92437
AAXX 06181 15562 11474 81412 10100 20066 39870 49940 58003 60042 76165 8802/ 222// 2//02 333 10100 20078 555 58002 69999 71850 92036 92438
AAXX 06181 15600 11/00 93610 11070 21079 38033 48254 57006 60092 77174 333 11014 21070 48014 555 593// 69999 92711
AAXX 06181 15601 11650 83203 10006 20001 39284 49901 51004 60242 77177 8802/ 333 10044 20002 43002 555 596// 69999 71861 93024
AAXX 06181 15605 11330 82904 11010 21013 39094 49939 52022 60222 77077 8802/ 333 10026 21010 48013 555 598// 69999 71853
AAXX 06181 15613 11/00 90220 11098 21101 37450 47773 56001 60032 77174 333 11038 21098 48062 91128 92993 555 597// 69999 92711
AAXX 06181 15628 11515 82506 10024 20014 39641 49896 53004 60092 76364 8802/ 333 10024 21018 42006 555 59307 69999 71853
AAXX 06181 15642 11568 81407 10096 20094 39703 49865 57025 60222 76166 8802/ 333 10104 20086 555 59903 69999 71853 93022
AAXX 06181 15661 12570 81403 10098 20069 39882 49917 54000 60002 885// 222// 20000 333 10132 20092 555 582// 92012 92418
AAXX 06181 15726 11/00 90504 11018 21020 37963 48234 57020 60252 77577 333 10003 21018 48062 555 59811 69999 71861 93025
AAXX 06184 13611 11560 83622 10068 20036 39754 49843 52018 60182 70282 885// 333 10115 88623
AAXX 06184 71950 15766 81802 11060 21071 39551 40193 53003 60001 333 11023 21062 70000
AAXX 06184 71952 16/// /0000 11094 21103 39330 40204 51004 60001 333 11046 21139 70000
AAXX 06184 71954 46/// /3304 11107 21129 39728 40111 51026 6///1 333 11069 21108 7////
AAXX 06184 71956 NIL
AAXX 06184 71959 NIL
AAXX 06184 71960 460// /1407 11257 39925 40061 58010 6///1 333 11171 21257 7////
AAXX 06184 71962 16/// /2712 10025 21011 39591 40007 51017 60001 333 10043 20016 70687
AAXX 06184 71963 NIL
AAXX 06184 71967 16/// /0407 11076 21098 39966 40074 56041 60001 333 11076 21154 70000
AAXX 06184 71970 NIL
AAXX 06184 71971 NIL
AAXX 06184 71972 460// ///// 11200 39564 40040 55000 6///1 333 11199 21207 7////
AAXX 06184 71973 46/// /2611 11070 21086 39849 40038 53011 6///1 333 11003 21071 7////
AAXX 06184 71974 NIL
AAXX 06184 71975 460// /2508 11238 39281 40032 53008 6///1 333 11238 21251 7////
AAXX 06184 71976 NIL
AAXX 06184 71977 NIL
AAXX 06184 71978 NIL
AAXX 06184 71979 NIL
AAXX 06184 71980 46/// ///// 11271 21303 6///1 333 11174 21271 7////
AAXX 06184 71981 NIL
AAXX 06184 71982 NIL
AAXX 06184 71983 NIL
AAXX 06184 71984 16/// /2114 11193 21221 30062 40070 55003 60001 333 11173 21314 70000
AAXX 06184 71985 NIL
AAXX 06184 71986 NIL
AAXX 06184 71987 16/// /2712 11100 21133 30102 40112 56010 60001 333 11061 21106 70000
AAXX 06184 71988 16/// /3304 11035 21093 30119 40139 57020 60001 333 11026 21051 70006
AAXX 06184 71989 NIL
AAXX 06184 71990 NIL
AAXX 06184 71999 46/// ///// 10002 6///1 333 10012 21008 7////
AAXX 06184 71816 12574 22611 11175 21232 39950 40013 56007 60001 81171 333 11159 21215 79999
AAXX 06184 71817 11432 82817 11089 21127 39903 49916 53032 60051 77172 886// 333 42025 70106 90927
AAXX 06184 71818 11/16 93117 11134 21160 39928 49946 55011 60051 77172 333 11073 21140 44032 70060 90973 93105
AAXX 06184 71822 11848 81207 11182 21220 39578 40073 58027 69921 77172 8807/ 333 11181 21275 43049 70002 90942
AAXX 06184 71825 11174 23210 11220 21278 39374 40075 57003 69901 70277 82500 333 11216 21259 48107 70006 90963
AAXX 06184 71827 NIL
AAXX 06184 71828 17462 33109 11235 21288 39383 40049 53007 69951 7//44 333 11226 21261 70005
AAXX 06184 71831 11732 80705 11096 21109 39710 49984 56012 69941 75677 887// 333 11095 21146 48053 70016 90937
AAXX 06184 71832 NIL
AAXX 06184 71834 11/16 90304 11118 21131 39554 49988 50009 69941 77162 333 11108 21136 48034 70038 90983
AAXX 06184 71841 NIL
AAXX 06184 71842 11374 83406 11061 21070 39531 40003 52025 60021 70277 886// 333 11041 21079 48016 70090 90923
AAXX 06184 71844 NIL
AAXX 06184 71845 11366 80203 11137 21146 39539 40023 51018 69901 77177 887// 333 10117 21146 44025 79999 90973
AAXX 06184 71850 11212 83107 11038 21049 39519 40017 51023 60051 77177 887// 333 10011 21038 48010 70052 90973 93105
AAXX 06184 71852 17227 93410 11028 21037 39760 40053 51028 69951 74544 333 10043 21032 70015
AAXX 06184 71854 11369 83507 11067 21083 39546 40021 52022 69921 77177 885// 333 11049 21068 48020 70022 90993
AAXX 06184 71858 NIL
AAXX 06184 71861 16/// /3114 11011 21038 39384 40110 51033 60001 333 10008 21014 70000
AAXX 06184 71862 11974 13118 10011 21046 39435 40138 52026 69921 70171 81070 333 10012 21008 45001 70002 90930
AAXX 06184 71863 46564 83012 11004 21049 39441 40142 51025 6///1 333 10009 21021 7////
AAXX 06184 71665 16/// /2109 11156 21196 39923 49933 55010 60001 333 11075 21163 70041 555 10110
AAXX 06184 71666 16/// /2605 11086 21203 30075 40121 56019 60001 333 11084 21146 70000
AAXX 06184 71667 NIL
AAXX 06184 71668 16/// /2801 11092 21182 30088 40133 56023 60001 333 11091 21147 70000
AAXX 06184 71669 NIL
AAXX 06184 71670 16/// ///// 11094 21196 60001 333 11094 21153 70000
AAXX 06184 71671 NIL
AAXX 06184 71672 16/// /2204 10060 20000 39748 40010 58014 60001 333 10060 21056 70004
AAXX 06184 71673 NIL
AAXX 06184 71674 NIL
AAXX 06184 71675 17666 80705 11159 21182 39770 40057 51012 60051 77144 333 11159 21179 70210
AAXX 06184 71679 NIL
AAXX 06184 71680 NIL
AAXX 06184 71681 46/// /1701 11034 21048 6///1 333 10001 21045 7////
AAXX 06184 71682 NIL
AAXX 06184 71683 NIL
AAXX 06184 71684 17459 80805 11078 21086 39690 49995 58015 60001 771// 333 11078 21166 70011
AAXX 06184 71685 17364 83203 10001 20001 39701 40249 53003 60001 771// 333 10003 21007 70003
AAXX 06184 71686 469// /2701 11150 21166 39187 40166 58005 6///1 333 11102 21162
AAXX 06184 71687 16/// /1703 10001 21022 39447 40239 53006 60001 333 10012 21002 70003 555 10010
AAXX 06184 71688 16/// /0000 11016 21029 39182 40229 53004 60001 333 11006 21025 70000
AAXX 06184 71689 17566 83207 11088 21096 39658 40124 51024 60001 771// 333 11066 21122 70005
AAXX 06184 71690 NIL
AAXX 06184 71691 15966 83004 11159 21216 30093 40122 56018 60001 333 11159 21225 70000
AAXX 06184 71692 NIL
AAXX 06184 71694 17/// /2004 10032 20004 39653 40013 58015 69931 7//4/ 333 10032 21048 70006
AAXX 06184 71695 16/// /3406 11091 21113 39761 40100 51026 60001 333 11067 21092 70013 555 10030
AAXX 06184 71696 16/// /3604 11200 21219 30090 40128 51011 60001 333 11200 21236 70000
AAXX 06184 71697 15966 32106 10053 20016 39849 40019 58009 60001 333 10054 21027 70000
AAXX 06184 71699 16/// /2402 11064 21161 30127 40135 56022 60001 333 11059 21120 70000
AAXX 06184 71700 15966 32206 11092 21190 30110 40136 56022 60001 333 11091 21149
AAXX 06184 71701 12974 62304 11096 21187 30073 40137 57021 60001 85071 333 11096 21147 70000
AAXX 06184 71702 16/// /2808 11098 21163 30102 40118 56012 60001 333 11064 21125 70000
AAXX 06184 71703 12569 81703 11146 21185 39815 40125 57027 60001 885// 333 11127 21237 70004
AAXX 06184 71704 15966 82111 10112 20020 39812 40030 58010 60001 333 10112 20008 70000
AAXX 06184 71710 16/// /2914 11079 21134 30085 40095 53003 60001 333 11031 21083 70020
AAXX 06184 71712 16/// /0708 11099 21114 39986 40049 56029 60001 333 11087 21127 70013
AAXX 06184 71713 NIL
AAXX 06184 71716 NIL
AAXX 06184 71717 NIL
AAXX 06184 71720 16/// /1004 10033 20014 30102 40257 53003 60001 333 10035 20012 70009
AAXX 06184 71721 NIL
AAXX 06184 71723 16/// /0508 11118 21153 30063 40073 56046 60001 333 11117 21165 70000
AAXX 06184 71724 NIL
AAXX 06184 71732 16/// /1607 11047 21057 60001 333 11046 21118 70046 555 10050
AAXX 06184 71733 16/// /1703 11015 21015 39554 49982 58012 60001 333 11015 21092 70031 555 10050
AAXX 06184 71734 NIL
AAXX 06184 71736 NIL
AAXX 06184 71737 NIL
AAXX 06184 71741 16/// /0000 11021 21043 39815 40247 53006 60001 333 11001 21066 70000
AAXX 06184 71742 46/// /2517 11039 21095 39830 40017 53009 6///1 333 10004 21054 7////
AAXX 06184 71743 NIL
AAXX 06184 71744 16/// /2406 11092 21180 30079 40121 56019 60001 333 11091 21160 70000
AAXX 06184 71745 NIL
AAXX 06184 71746 NIL
AAXX 06184 71747 NIL
AAXX 06184 71748 NIL
AAXX 06184 71893 11574 81706 10044 20021 30218 40250 53003 69921 76111 885// 333 10045 20016 70006 90921
AAXX 06184 71894 17/// /1115 10050 20046 30219 40228 55003 60061 7//4/ 333 10050 20032 70076
AAXX 06184 71896 15966 61405 11048 21061 39375 40222 53009 60001 333 11014 21066 70000
AAXX 06184 71897 12469 81425 10050 20019 3//// 4//// 56012 60081 8882X 333 10056 20034 70064
AAXX 06184 71898 160// ///// 10032 56009 60001 333 10040 20016 70000
AAXX 06184 71899 12574 81609 10030 20007 3//// 4//// 56018 60001 8682X 333 10031 20012 70002
AAXX 06184 71902 11974 02108 11157 21221 39929 49938 55010 69901 70177 333 11075 21162 47052 70052 90955
AAXX 06184 71905 NIL
AAXX 06184 71906 11674 62605 11204 21259 30011 40063 53008 69901 72272 82571 333 11170 21235 48027 70002 90927
AAXX 06184 71907 16964 00000 11282 21322 30064 40098 58001 60001 333 11264 21315 70000
AAXX 06184 71909 16964 00000 11294 21326 30012 40058 53007 60001 333 11276 21322 70000
AAXX 06184 71910 47008 92516 11181 21208 39941 40005 56006 6///1 745// 333 11180 21291 7////
AAXX 06184 71911 46028 02810 11378 39981 40040 51018 6///1 333 11300 21406 7////
AAXX 06184 71912 11458 80606 11178 21217 39915 40105 51020 69901 77177 885// 333 11177 21195 48020 70016 90983
AAXX 06184 71915 11574 60000 11271 21314 39922 40006 50000 69901 77677 86500 333 11250 21327 48042 79999 90983
AAXX 06184 71917 11974 01304 11421 21460 30008 40023 53009 69901 77677 333 11391 21434 48015 79999 90983
AAXX 06184 71922 11356 80000 11077 21083 39637 40108 52016 69901 75672 887// 333 11040 21089 47040 70052 90942
AAXX 06184 71924 NIL
AAXX 06184 71925 11974 03105 11337 21390 30080 40123 52005 69901 77677 333 11293 21363 44021 70002 90983
AAXX 06184 71926 11566 63010 11264 21323 30074 40099 53020 69901 77677 86500 333 11264 21339 44043 79999 90983
AAXX 06184 71928 16/// /1301 11063 21148 39001 40188 51008 60001 333 11047 21136 70000
AAXX 06184 71001 15966 81321 11060 21121 39021 49989 58019 60001 333 11050 21212 70000
AAXX 06184 71002 15966 02607 11207 21237 39477 40038 56004 60001 333 11207 21264 70003
AAXX 06184 71003 15966 02404 11206 21243 39710 40109 55006 60001 333 11206 21250 70000
AAXX 06184 71005 16/// ///// 11022 21076 60001 333 11017 21067 7////
AAXX 06184 71006 NIL
AAXX 06184 71007 NIL
AAXX 06184 71008 NIL
AAXX 06184 71009 NIL
AAXX 06184 71010 NIL
AAXX 06184 71011 NIL
AAXX 06184 71012 NIL
AAXX 06184 71013 NIL
AAXX 06184 71014 NIL
AAXX 06184 71015 NIL
AAXX 06184 71016 NIL
AAXX 06184 71017 NIL
AAXX 06184 71018 NIL
AAXX 06184 71019 NIL
AAXX 06184 71020 NIL
AAXX 06184 71021 NIL
AAXX 06184 71022 17666 81210 10030 20009 30095 40139 56010 60001 761// 333 10036 20015 70023
AAXX 06184 71023 NIL
AAXX 06184 71024 16/// /3104 11134 21155 60001 333 11097 21150 70000
AAXX 06184 71026 NIL
AAXX 06184 71027 16/// /2805 11059 21115 30081 40091 55002 60001 333 11016 21065 70040 555 10040
AAXX 06184 71028 16/// /3204 11037 21044 39177 40235 53005 60001 333 11037 21055 70000
AAXX 06184 71029 17/// /1212 11222 21244 30030 40070 58007 69931 7//4/ 333 11205 21295 70060 555 10010
AAXX 06184 71030 16/64 /0805 11057 21108 30032 40123 56023 60001 333 11044 21096 70000
AAXX 06184 71032 46/// /0000 11024 21035 39403 40249 55001 6///1 333 11008 21034 7////
AAXX 06184 71033 46/// /0701 11164 21185 39466 40114 51015 6///1 333 11135 21213 7//// 555 10010
AAXX 06184 71035 NIL
AAXX 06184 71036 17566 80114 11040 21065 39723 40099 51055 69931 7004/ 333 10026 21040 70006
AAXX 06184 71039 46/// /1110 11084 6///1 333 11077 21253 7////
AAXX 06184 71040 46/// /0405 11180 21225 39896 40105 58028 6///1 333 11180 21290 7////
AAXX 06184 71041 15566 63014 11070 21120 39965 40109 55004 60001 333 11026 21079 70025
AAXX 06184 71042 16/// /0901 10034 20030 30252 40256 55011 60001 333 10036 20005 70000
AAXX 06184 71044 16/// /2201 11309 21343 39712 40049 58015 60001 333 11271 21335 70000
AAXX 06184 71046 460// /2712 11280 39995 40013 58001 6///1 333 11225 21316 7////
AAXX 06184 71047 16/// ///// 11013 21059 60001 333 10008 21050 70000
AAXX 06184 71048 NIL
AAXX 06184 71049 NIL
AAXX 06184 71060 NIL
AAXX 06184 71063 NIL
AAXX 06184 71350 16/// /2408 11103 21155 30051 40118 56009 60001 333 11063 21124 70000 555 10010
AAXX 06184 71351 NIL
AAXX 06184 71352 16/// /2411 10039 20002 39575 40026 51001 60001 333 10039 21024 70000
AAXX 06184 71353 NIL
AAXX 06184 71354 NIL
AAXX 06184 71355 16/// /2705 11303 21338 39901 49989 58001 60001 333 11273 21329 70000
AAXX 06184 71356 16/// /3011 11266 21299 30032 40102 53017 60001 333 11265 21346 70000
AAXX 06184 71357 NIL
AAXX 06184 71358 NIL
AAXX 06184 71359 NIL
AAXX 06184 71360 NIL
AAXX 06184 71361 NIL
AAXX 06184 71362 NIL
AAXX 06184 71363 NIL
AAXX 06184 71364 NIL
AAXX 06184 71365 NIL
AAXX 06184 71368 15966 02512 10046 20004 39645 40031 56005 60001 333 10049 21017 70000
AAXX 06184 71369 15666 82819 10008 21071 39431 40138 51015 60001 333 10014 20004 70000
AAXX 06184 71370 46/// /0405 11136 21166 39934 40075 56039 6///1 333 11136 21200 7////
AAXX 06184 71371 15466 80311 11116 21135 30024 40059 57036 69931 333 11109 21127 70003
AAXX 06184 71372 NIL
AAXX 06184 71373 NIL
AAXX 06184 71374 NIL
AAXX 06184 71375 NIL
AAXX 06184 71376 NIL
AAXX 06184 71377 16/// /0407 11124 21148 30004 40054 56033 60001 333 11095 21129 70006
AAXX 06184 71378 16/// /3406 11173 21208 39872 40091 58037 60001 333 11173 21277 70000
AAXX 06184 71379 16/// /0602 11208 21237 39919 40099 58024 60001 333 11207 21317 70000
AAXX 06184 71380 NIL
AAXX 06184 71381 NIL
AAXX 06184 71382 16/// /2003 11139 21169 39104 40099 58025 60001 333 11137 21297 70000
AAXX 06184 71383 NIL
AAXX 06184 71384 NIL
AAXX 06184 71385 NIL
AAXX 06184 71386 NIL
AAXX 06184 71387 NIL
AAXX 06184 71388 46/// /0701 11176 21220 39912 40109 58028 6///1 333 11176 21295 7////
AAXX 06184 71389 46/// /0806 11115 21175 6///1 333 11115 21234 7////
AAXX 06184 71390 46/// /2810 11141 6///1 333 11141 21175 7////
AAXX 06184 71391 17/// ///// 11095 21113 60011 7//4/ 333 11095 21146 70037
AAXX 06184 71392 16/// /0610 11122 21165 60001 333 11121 21174 70000
AAXX 06184 71393 NIL
AAXX 06184 71395 12974 23005 5 11074 21147 39943 40125 55010 60001 80001 333 11055 21100 70028
AAXX 06184 71398 17762 80712 11132 21152 30020 40032 56012 60001 771// 333 11132 21212 70000
AAXX 06184 71399 NIL
AAXX 06184 71300 NIL
AAXX 06184 71301 16/// ///// 11085 21090 39582 49985 58014 60001 333 11085 21185 70015 555 10010
AAXX 06184 71302 16/// /1404 11045 21056 39386 40219 53009 60001 333 11012 21064 70000
AAXX 06184 71303 46/// ///// 10061 20008 6///1 333 10068 20019 7////
AAXX 06184 71305 17766 83304 11151 21170 39842 40141 51022 60001 771// 333 11121 21152 70000
AAXX 06184 71306 15466 60302 11240 21270 30063 40097 58001 60001 333 11224 21288 70000
AAXX 06184 71307 NIL
AAXX 06184 71308 16/// /3009 11073 21113 30032 40118 55005 60001 333 11036 21084 70011 555 10010
AAXX 06184 71309 NIL
AAXX 06184 71310 16/// /2611 11093 21140 30078 40116 56007 60001 333 11067 21117 70014 555 10100
AAXX 06184 71311 16/// /2504 11076 21171 30103 40128 56017 60001 333 11062 21127 70000
AAXX 06184 71312 NIL
AAXX 06184 71314 16/// /1904 10039 21003 39653 40001 58013 60001 333 10046 21057 70000
AAXX 06184 71315 NIL
AAXX 06184 71316 16/// /2612 10002 21057 39442 40127 51014 60001 333 10016 21017 70000
AAXX 06184 71317 NIL
AAXX 06184 71318 16/// /2913 11001 21098 39215 40170 51013 60001 333 11001 21069 70000
AAXX 06184 71319 16/// /2003 11139 21184 39186 40078 58025 60001 333 11135 21231 70005
AAXX 06184 71320 NIL
AAXX 06184 71321 16/// /3303 11289 21315 30029 40075 53008 60001 333 11281 21320 70000
AAXX 06184 71322 NIL
AAXX 06184 71323 16/// /1602 11091 21139 39788 40077 58039 60001 333 11091 21187 70000
AAXX 06184 71331 16/// /3502 11130 21161 60001 333 11093 21134 70000
AAXX 06184 71332 NIL
AAXX 06184 71334 NIL
AAXX 06184 71335 46000 ///// 11128 39288 49903 58035 6///1 333 11085 21129 7////
AAXX 06184 71336 46/// ///21 11003 21054 39981 40003 53007 6///1 333 10055 21025 7////
AAXX 06184 71337 46/// /2612 11061 21076 39753 49990 53014 6///1 333 11025 21067 7////
AAXX 06184 71338 46964 30000 11319 21371 30016 40024 53008 6///1 333 11277 21379 7////
AAXX 06184 71339 17448 82819 11089 21127 39904 49919 53033 60021 745// 333 11007 21090 70050
AAXX 06184 71340 NIL
AAXX 06184 71341 NIL
AAXX 06184 71342 NIL
AAXX 06184 71343 NIL
AAXX 06184 71344 NIL
AAXX 06184 71345 NIL
AAXX 06184 71346 NIL
AAXX 06184 71347 NIL
AAXX 06184 71348 NIL
AAXX 06184 71349 NIL
AAXX 06184 71621 12574 62514 10072 20022 39912 40017 56019 60001 81572 333 10075 21029 70020
AAXX 06184 71900 46/// /21// 11176 21226 39944 49957 58014 6///1 333 11131 21191 7////
AAXX 06184 71903 NIL
AAXX 06184 71904 NIL
AAXX 06184 71914 16/// /3001 10037 20024 30037 40262 55000 60001 333 10039 20015 70000
AAXX 06184 71916 NIL
AAXX 06184 71918 460// ///// 11384 6///1 333 7////
AAXX 06184 71920 16/// /2903 11002 21067 30129 40135 56018 60001 333 10000 21051 70006
AAXX 06184 71921 NIL
AAXX 06184 71923 NIL
AAXX 06184 71927 NIL
AAXX 06184 71941 17364 81410 11112 21120 39590 40015 58020 60001 771// 333 11112 21223 70000
AAXX 06184 71947 17462 81007 11150 21166 39675 40033 56022 60001 771// 333 11150 21265 70000
AAXX 06184 71930 13774 22604 11023 21104 39225 40167 53014 60003 81101 333 11004 21051 43013 70000
AAXX 06184 71931 NIL
AAXX 06184 71934 11874 73102 11175 21208 39883 40150 51022 69981 77177 87071 333 11155 21177 47033 70016 90983 93101
AAXX 06184 71935 11874 20000 11245 21287 39947 40165 52015 69901 70171 81071 333 11163 21269 47032 70002 90963
AAXX 06184 71936 11174 30000 11284 21325 39880 40156 52010 60001 71141 83670 333 11240 21300 70000
AAXX 06184 71937 NIL
AAXX 06184 71938 11874 71803 11278 21307 30069 40100 58006 69901 72277 87070 333 11260 21336 79999 90913
AAXX 06184 71940 12982 62910 11041 21082 39359 40174 53015 60001 81071 333 10007 21043 70000
AAXX 06184 71943 12974 72312 11030 21105 39308 40150 52012 60001 80001 333 10000 21033 70000
AAXX 06184 71944 160// ///// 11058 53014 60001 333 11015 21073 70000
AAXX 06184 71945 12983 40000 11212 21264 39663 40154 52013 60001 84030 333 11166 21233 70000
AAXX 06184 71946 12774 30000 11230 21255 39930 40154 52006 60001 83500 333 11207 21273 79999
AAXX 06184 71948 46064 /2006 11214 39951 40067 56001 6///1 333 11211 21233 7////
AAXX 06184 71949 NIL
AAXX 06184 71951 NIL
AAXX 06184 71957 46964 01010 11221 21296 39955 40046 56016 6///1 333 11211 21260 7////
AAXX 06184 71964 12986 81815 11068 21119 39226 40089 56012 60001 8803/ 333 11063 21145 70000
AAXX 06184 71966 16/// /0000 11275 21306 39580 40061 56018 60001 333 11229 21298 70000
AAXX 06184 71968 460// /1717 11159 39930 49995 56027 6///1 333 11147 21268 7////
AAXX 06184 71397 12574 32706 11066 21119 30103 40138 56015 60001 81540 333 11042 21090 70004
AAXX 06184 71400 16/64 /2609 11048 21082 60001 333 11011 21090 70048
AAXX 06184 71403 46/// /3007 11060 21128 30102 40122 6///1 333 11015 21078 7////
AAXX 06184 71411 16/// /2708 11026 21077 30122 40135 56020 60001 333 11019 21083 70000
AAXX 06184 71412 16/// /2711 11080 21115 30097 40107 55003 60001 333 11051 21095 70000 555 10020
AAXX 06184 71421 NIL
AAXX 06184 71430 16/// /2510 10056 20026 39924 40020 56017 60001 333 10072 21019 70000
AAXX 06184 71431 NIL
AAXX 06184 71432 NIL
AAXX 06184 71433 NIL
AAXX 06184 71435 NIL
AAXX 06184 71441 46/// /3018 10031 21027 39736 40041 51016 6///1 333 10038 21002 7////
AAXX 06184 71443 17/// /3304 11035 21068 39688 40103 51030 60011 7//4/ 333 11017 21053 70107 555 10120
AAXX 06184 71444 NIL
AAXX 06184 71447 NIL
AAXX 06184 71467 16/// /0000 11203 21221 39941 40058 58004 60001 333 11203 21269 70000
AAXX 06184 71472 NIL
AAXX 06184 71474 16764 32005 11042 21071 38963 40222 51006 60001 333 11036 21062 70000
AAXX 06184 71510 NIL
AAXX 06184 71538 12974 72415 10090 20016 39823 40051 55009 60001 81071 333 10091 20016 70000
AAXX 06184 71600 16564 62913 11011 21074 30108 40114 56002 60001 333 10039 21017 70015
AAXX 06184 71601 NIL
AAXX 06184 71603 12574 83204 11029 21092 30082 40136 55017 60001 81551 333 11025 21054 70006
AAXX 06184 71607 16/// /3301 11058 21156 30095 40128 57029 60001 333 11052 21119 70000
AAXX 06184 71609 12974 60000 11087 21195 39997 40135 57020 60001 83071 333 11077 21134 70000
AAXX 06184 71610 17666 80705 11079 21097 39765 40069 56040 69951 7004/ 333 11079 21172 70005
AAXX 06184 71621 12574 72514 10072 20022 39912 40017 56019 60001 81572 333 10075 21029 70020
AAXX 06184 71623 NIL
AAXX 06184 71624 12974 72608 10074 20011 39813 40023 58009 60001 86071 333 10075 20003 70000
AAXX 06184 71625 16259 81405 11089 21096 39861 40024 58025 69951 333 11083 21133 70045
AAXX 06184 71627 11474 80410 11119 21156 30013 40059 58034 69941 77177 885// 333 11100 21127 46002 70012 90917
AAXX 06184 71628 11460 80807 11104 21126 39901 40045 57022 60021 77172 88500 333 11097 21144 4-6016 70028 909/7
AAXX 06184 71630 NIL
AAXX 06184 71631 16/// /2604 10040 21002 39526 40021 51001 60001 333 10040 21020 70012
AAXX 06184 71633 12874 82314 10046 20023 39736 40005 56002 60001 8802/ 333 10058 21022 79999
AAXX 06184 71705 12974 32508 11083 21211 30035 40125 56016 60001 81071 333 11079 21146 70000
AAXX 06184 71706 11574 22708 11104 21154 30067 40129 57010 69901 70280 82501 333 11061 21123 47003 70018 90930
AAXX 06184 71707 11569 72910 11065 21111 30020 40098 55002 69901 78522 87500 333 11022 21067 44024 70054 90962
AAXX 06184 71709 11580 72915 11080 21122 30086 40100 53003 60011 78582 87500 333 11032 21085 47005 70054 90917 93101
AAXX 06184 71711 NIL
AAXX 06184 71714 16/// /0709 11119 21164 30021 40117 56038 60001 333 11119 21203 70000
AAXX 06184 71715 16/// /1901 11141 21199 39929 40118 56027 60001 333 11136 21221 70000
AAXX 06184 71718 11574 72307 11138 21192 30057 40125 57020 69921 78522 86570 333 11137 21156 47010 70030 90931
AAXX 06184 71719 16/// /2709 11087 21153 30098 40104 56012 60001 333 11085 21133 70003 555 10020
AAXX 06184 71726 17/// /1103 11151 21171 39495 40060 57028 69951 7//4/ 333 11151 21294 70024 555 10020
AAXX 06184 71727 12682 80904 11176 21216 39905 40112 57029 60001 8352/ 333 11175 21273 79999
AAXX 06184 71728 11566 80903 11198 21248 39880 40113 58023 69921 77181 885// 333 11197 21266 44003 70002 90931
AAXX 06184 71730 11140 81805 11015 21016 39561 49985 58012 60001 71022 886// 333 11015 21094 44017 70054
AAXX 06184 71731 11/04 91505 11023 21029 39540 49992 57016 69901 74552 333 11022 21103 48031 70056 90947
AAXX 06184 71735 NIL
AAXX 06184 71738 11369 82506 10029 20015 39607 49956 58005 69901 70272 886// 333 10030 21081 43024 70010 90921
AAXX 06184 71739 41266 81306 11091 21100 39611 49979 58017 6//// 77175 886// 333 11090 21201 4//// 7//// 90973
AAXX 06184 71749 16564 82813 10042 20004 39727 49971 51006 60001 333 10043 21097 70000
AAXX 06184 71799 12580 72904 10035 20024 30236 40260 55001 60001 86870 333 10036 21006 70008
AAXX 06184 71800 16/// /2816 10012 21023 30005 40038 55004 60001 333 10059 20000 7////
AAXX 06184 71801 12574 62715 11003 21057 39855 40028 53005 60001 84530 333 10056 21035 70050
AAXX 06184 71803 11580 42517 11038 21109 39828 40015 53009 60001 73611 82101 333 10005 21054 70042
AAXX 06184 71807 16/// /2816 10004 21039 30025 40043 55001 60001 333 10067 21014 70013
AAXX 06184 71808 NIL
AAXX 06184 71809 NIL
AAXX 06184 71810 16/// /2908 11116 21147 30008 40076 58004 60001 333 11112 21147 70059
AAXX 06184 71811 NIL
AAXX 06184 71813 16/// /2809 11129 21181 30040 40054 53012 60001 333 11099 21159 70000
AAXX 06184 71814 16/// /2910 11110 21154 30017 40027 53014 60001 333 11053 21119 70010
AAXX 06184 71815 11469 42914 11058 21081 30024 40055 53018 69901 78500 84500 333 10011 21062 48024 70012 90952
AAXX 06184 71812 46964 02707 11334 21375 30109 40123 53003 6///1 333 11330 21364 7////
AAXX 06184 71819 17548 82821 11066 21093 39913 49954 51038 60001 771// 333 11016 21074 70000
AAXX 06184 71820 16/// /2106 10049 20027 39911 40025 55013 60001 333 10054 21034 70038
AAXX 06184 71823 17964 02304 11221 21264 39710 40110 56006 69951 7//44 333 11215 21276 70005
AAXX 06184 71824 NIL
AAXX 06184 71826 16/// /1103 11304 21347 30008 40054 51012 60001 333 11289 21310 70000
AAXX 06184 71829 16/// /2706 11165 21228 39944 40112 56017 60001 333 11161 21209 70003
AAXX 06184 71833 46/// /2411 10057 20008 6///1 333 10058 21039 7////
AAXX 06184 71835 16/// /0203 11137 21150 39530 40018 51019 60001 333 11118 21145 70000
AAXX 06184 71837 NIL
AAXX 06184 71839 NIL
AAXX 06184 71840 NIL
AAXX 06184 71846 16/// /0605 11158 21170 39713 40037 51010 60001 333 11147 21173 70000
AAXX 06184 71847 NIL
AAXX 06184 71848 NIL
AAXX 06184 71849 17/// /3310 11031 21040 39759 40053 51028 69981 7//4/ 333 10042 21033 70008 555 10010
AAXX 06184 71851 16/// /3510 11018 21022 39728 40061 53030 60001 333 10053 21019 70013
AAXX 06184 71857 NIL
AAXX 06184 71860 11783 72812 10009 21136 38776 40191 52003 60001 71511 81571 333 10010 21048 70000
AAXX 06184 71876 15966 62911 11003 21060 39474 40141 51015 60001 333 10020 21031 70020
AAXX 06184 71885 NIL
AAXX 06184 71886 16/// /3115 11016 21042 39502 40110 51036 60001 333 10019 21018 70000
AAXX 06184 71888 NIL
AAXX 06184 71890 16/// /0604 11159 21225 30090 40118 56018 60001 333 11159 21227 70000
AAXX 06184 71895 NIL
AAXX 06184 71051 NIL
AAXX 06184 71055 NIL
AAXX 06184 71057 NIL
AAXX 06184 71059 460// ///// 11244 39983 40077 56004 6///1 333 11226 21267 7////
AAXX 06184 71061 16/// /2508 11008 21080 39362 40147 51011 60001 333 10001 21019 70000
AAXX 06184 71062 46/// /2204 11006 21117 39074 40152 53009 6///1 333 11006 21076 7//// 555 10010
AAXX 06184 71064 460// /0305 11318 39895 40121 50003 6///1 333 11256 21345 7////
AAXX 06184 71065 NIL
AAXX 06184 71067 NIL
AAXX 06184 71070 NIL
AAXX 06184 71073 NIL
AAXX 06184 71074 NIL
AAXX 06184 71075 16/// /0302 11245 21272 39491 40122 51017 60001 333 11182 21269 70000
AAXX 06184 71078 NIL
AAXX 06184 71084 460// ///// 11350 30048 40098 51011 6///1 333 11273 21352 7////
AAXX 06184 71085 15966 02621 10001 21098 38812 40206 50003 60001 333 10001 21022 70000
AAXX 06184 71087 NIL
AAXX 06184 71088 460// /1708 11318 51007 6///1 333 11297 21347 7////
AAXX 06184 71089 NIL
AAXX 06184 71096 460// ///// 11233 39249 40000 53007 6///1 333 11232 21285 7////
AAXX 06184 71097 46045 03103 11227 39556 40047 53004 6///1 333 11227 21262 7////
AAXX 06184 71098 43/// /3604 11136 21148 39681 40048 51017 6///1 333 11127 21140 7////
AAXX 06184 71099 43/// /0702 11181 21213 30081 40102 51008 6///1 333 11180 21275 7////
AAXX 06184 71744 NIL
AAXX 06184 71750 17/// /0504 11039 21048 39718 49951 55001 60021 7//4/ 333 11038 21085 70017 555 10020
AAXX 06184 71751 NIL
AAXX 06184 71752 NIL
AAXX 06184 71753 16/// /2906 11071 21163 30090 40120 56014 60001 333 11051 21113 70016 555 10010
AAXX 06184 71754 16/// /3011 11007 21075 39471 40138 51016 60001 333 10019 21036 70015
AAXX 06184 71755 43/// /0304 11153 21170 39696 40049 51014 6///1 333 11149 21156 7////
AAXX 06184 71756 16/// /0000 11022 21026 39128 40236 53003 60001 333 11010 21026 70000 555 10010
AAXX 06184 71758 NIL
AAXX 06184 71760 NIL
AAXX 06184 71761 NIL
AAXX 06184 71762 NIL
AAXX 06184 71763 NIL
AAXX 06184 71765 16/// /1818 10040 21022 39952 40229 53007 60001 333 10045 20017 70000
AAXX 06184 71766 16/// /1701 10019 20010 30176 40249 53001 60001 333 10027 21008 70000
AAXX 06184 71767 16/// /2308 10050 20018 39740 49997 58004 60001 333 10051 21030 70000
AAXX 06184 71768 46/// /2803 10011 21047 39698 40255 53002 6///1 333 10011 21029 7////
AAXX 06184 71769 16/// /1213 10053 20011 30226 40242 55000 60001 333 10067 20043 70000
AAXX 06184 71770 16/// /1203 10008 21030 39482 40265 50008 60001 333 10033 21022 70000
AAXX 06184 71771 NIL
AAXX 06184 71772 16/// /1410 10054 20034 30239 40245 55001 60001 333 10065 20041 70000
AAXX 06184 71773 16/// /1710 11065 21108 39220 40083 58013 60001 333 11065 21126 70000
AAXX 06184 71774 46/// ///// 10022 6///1 333 10022 20008 7////
AAXX 06184 71775 16/// /0703 10040 20032 30262 40268 53002 60001 333 10051 20023 70000
AAXX 06184 71776 46/// /2407 10007 21036 39603 40254 50001 6///1 333 10016 21013 7////
AAXX 06184 71777 16/// ///// 10002 20001 39991 40247 53004 60001 333 10006 21004 70000
AAXX 06184 71778 46/// /3605 6///1 333 7////
AAXX 06184 71779 16/// /1701 11049 21052 39558 40233 53009 60001 333 11027 21055 70000
AAXX 06184 71780 NIL
AAXX 06184 71781 46/// /1217 10055 20023 30217 40242 55001 6///1 333 10061 20048 7////
AAXX 06184 71782 46/// /1807 11013 21074 38889 40231 51013 6///1 333 10000 21021 7////
AAXX 06184 71783 16/// /1603 10051 20027 30181 40256 55001 60001 333 10053 20018 70088
AAXX 06184 71784 16/// /0803 10040 20007 30045 40252 56001 60001 333 10048 20020 70000
AAXX 06184 71785 16/// /0703 10051 20027 30253 40269 55000 60001 333 10065 20041 70002
AAXX 06184 71786 46/// /2711 11063 21078 38367 40228 53006 6///1 333 11059 21072 7////
AAXX 06184 71787 17/// /2605 11096 21176 39614 40114 56013 69931 7//4/ 333 11095 21169 70003 555 10010
AAXX 06184 71788 NIL
AAXX 06184 71789 NIL
AAXX 06184 71791 NIL
AAXX 06184 71792 NIL
AAXX 06184 71793 NIL
AAXX 06184 71794 NIL
AAXX 06184 71795 NIL
AAXX 06184 71796 NIL
AAXX 06184 71797 NIL
AAXX 06184 71250 NIL
AAXX 06184 71251 16/// /2511 10025 21089 39265 40199 51010 60001 333 10025 21040 70000
AAXX 06184 71252 NIL
AAXX 06184 71253 46/// /0401 11146 21158 6///1 333 11113 21146 7//// 555 10010
AAXX 06184 71254 16/// /2103 11016 21080 60001 333 11012 21060 70000
AAXX 06184 71255 16/// /0103 11094 21110 60001 333 11087 21132 70015 555 10010
AAXX 06184 71256 46/// /2703 11014 21082 39220 40163 53012 6///1 333 11003 21046 7////
AAXX 06184 71257 NIL
AAXX 06184 71258 NIL
AAXX 06184 71259 NIL
AAXX 06184 71261 16/// /1914 10044 20007 39766 40024 50001 60001 333 10045 20003 70000
AAXX 06184 71263 13960 22417 10071 20020 39741 40027 58009 60001 82/48 333 10072 21011 4-9000 79999
AAXX 06184 71264 16/// /3105 11052 21129 30096 40128 56014 60001 333 11026 21073 70008
AAXX 06184 71265 15966 32410 10059 20022 39930 40023 56012 60001 333 10060 20013 70000
AAXX 06184 71266 NIL
AAXX 06184 71267 15966 02519 10023 21100 39102 40207 50006 60001 333 10023 21025 70000
AAXX 06184 71268 11/12 90000 11002 21002 39587 49989 58003 60001 71042 333 11002 21055 70000
AAXX 06184 71269 NIL
AAXX 06184 71270 NIL
AAXX 06184 71271 16/// ///// 10008 21071 60001 333 10008 21021 70000
AAXX 06184 71272 17766 81002 11227 21253 39769 40139 51017 69911 771// 333 11227 21248 70009
AAXX 06184 71273 16/// /2808 11001 21056 39455 40115 51019 60001 333 10007 21021 70033
AAXX 06184 71274 NIL
AAXX 06184 71275 NIL
AAXX 06184 71276 NIL
AAXX 06184 71277 NIL
AAXX 06184 71278 NIL
AAXX 06184 71279 16/// /2907 11150 21209 30029 40098 56011 60001 333 11149 21208 70000
AAXX 06184 71281 NIL
AAXX 06184 71282 46/// /2006 10019 20018 39745 40013 58013 6///1 333 10019 21042 7////
AAXX 06184 71283 NIL
AAXX 06184 71284 16/// ///// 11009 21075 60001 333 10001 21027 70000
AAXX 06184 71285 NIL
AAXX 06184 71286 NIL
AAXX 06184 71287 NIL
AAXX 06184 71288 NIL
AAXX 06184 71289 NIL
AAXX 06184 71290 15966 01609 11050 21081 39358 40202 53014 60001 333 11014 21066 70000
AAXX 06184 71291 17/// /3609 11029 21046 39681 49970 51010 69931 7//4/ 333 11023 21072 70006
AAXX 06184 71292 15466 83117 11014 21031 39503 40111 51036 60001 333 10019 21018 70000
AAXX 06184 71294 16/// /2103 10011 21004 39607 40008 58018 60001 333 10011 70028 555 10040
AAXX 06184 71295 NIL
AAXX 06184 71296 NIL
AAXX 06184 71297 16/// /2609 10074 20019 60001 333 10079 20000 70000
AAXX 06184 71298 16/// /2415 10070 20015 39821 40049 56018 60001 333 10071 20015 70000
AAXX 06184 71299 NIL
AAXX 06184 71043 12883 61102 11237 21286 39987 40084 57016 60001 81071 333 12232 21293 70010
AAXX 06184 71045 16/// /0204 11091 21123 39260 40141 56010 60001 333 11087 21146 70000
AAXX 06184 71050 NIL
AAXX 06184 71051 NIL
AAXX 06184 71052 NIL
AAXX 06184 71066 NIL
AAXX 06184 71068 12774 72710 11012 21070 39447 40143 52010 60001 87500 333 10001 21020 70000
AAXX 06184 71069 16664 32817 10009 21062 39432 40137 51015 60001 333 10015 20002 70000
AAXX 06184 71076 16/// /0601 11203 21227 39727 40135 51017 60001 333 11179 21262 70000
AAXX 06184 71077 17/// /3106 11046 21058 39568 40114 51020 60231 7//4/ 333 11046 21074 70812 555 10020
AAXX 06184 71079 11469 80207 11166 21197 39815 40105 52020 69941 77177 8554/ 333 11165 21180 48017 70008 90983 93101
AAXX 06184 71081 46964 02705 11389 21437 39948 49961 53005 6///1 333 11324 21399 7////
AAXX 06184 71082 NIL
AAXX 06184 71083 11674 22711 11310 21357 30041 40086 50008 69901 77677 81501 333 11294 21337 48060 79999 90983
AAXX 06184 71090 46864 80000 11334 21375 39960 49997 51009 6///1 333 11327 21400 7////
AAXX 06184 71091 460// /1310 11309 39764 49982 53003 6///1 333 7////
AAXX 06184 71092 46411 81516 11324 39308 40002 53008 6///1 333 11312 21328 7////
AAXX 06184 71093 460// ///// 11263 39495 40007 53012 6///1 333 11245 21290 7////
AAXX 06184 71094 46064 /2113 11257 39056 49979 53008 6///1 333 11257 21270 7////
AAXX 06184 71095 46964 31803 11336 21380 39907 49991 53008 6///1 333 11297 21363 7////
AAXX 06184 71101 160// /1707 30106 53003 60001 333 70000
AAXX 06184 71104 12974 61404 11070 21087 39094 40228 53006 60001 86071 333 11061 21105 79999
AAXX 06184 71108 12780 80000 10032 20011 30191 40265 50000 60001 8653/ 333 10063 20002 70029
AAXX 06184 71109 12480 81115 10047 20013 30177 40204 57006 60001 8557/ 333 10054 20018 70002
AAXX 06184 71114 160// /0000 10033 20019 30214 40263 51003 60001 333 10055 20025 70135
AAXX 06184 71120 11974 42606 11027 21065 39468 40129 52015 60001 71411 84070 333 11001 21039 70008
AAXX 06184 71122 16/// /2706 11016 21114 38580 40200 50003 60001 333 11016 21050 70000
AAXX 06184 71123 12974 12605 11046 21111 39296 40176 51011 60001 81072 333 11012 21094 70000
AAXX 06184 71125 12574 52511 11016 21050 39528 40116 52016 60001 81570 333 70078
AAXX 06184 71129 12774 52711 10000 21078 39326 40162 51014 60001 82570 333 10001 21046 70000
AAXX 06184 71131 16/// /2203 11046 21082 38917 40189 50013 60001 333 11012 21088 70000
AAXX 06184 71135 NIL
AAXX 06184 71137 16/// /2910 10010 21060 39234 40186 52017 60001 333 10010 21045 70000
AAXX 06184 71140 11462 83221 10004 21003 39580 40080 5/032 69921 77111 885// 333 10026 21009 41997 70002 90921
AAXX 06184 71145 11459 83506 11157 21176 39770 40071 51023 69901 77177 885// 333 11128 21157 48036 70008 90983
AAXX 06184 71148 NIL
AAXX 06184 71185 17548 32520 11059 39979 40003 52006 60001 745// 333 11008 21061 70025
AAXX 06184 71188 12374 22710 11105 21196 30048 40092 57009 60001 81531 333 11105 21164 43017 70000
AAXX 06184 71200 16/// /1604 10053 20027 60001 333 10057 20039 70098
AAXX 06184 71207 16/// /0000 10027 30188 40253 53004 60001 333 10041 20012 70066
AAXX 06184 71260 13/// ///// 10037 20004 39753 49987 50001 60001 333 10037 21072 79999
AAXX 06184 71450 NIL
AAXX 06184 71451 17/// /3402 11157 21184 39682 40120 51021 69961 7//4/ 333 11106 21167 70006
AAXX 06184 71452 NIL
AAXX 06184 71453 16/// /2608 10018 21077 39268 40188 51008 60001 333 10018 7////
AAXX 06184 71454 16/// /3006 11017 21039 39409 40101 53014 60001 333 10000 21044 70093
AAXX 06184 71455 46/// /3016 10005 21070 39350 40149 51016 6///1 333 10013 21028 7////
AAXX 06184 71456 16/// /2606 11019 21029 39507 40105 50008 60001 333 10009 21048 70038
AAXX 06184 71457 16/// /2302 11003 21069 39280 40179 51010 60001 333 10001 21070 70000
AAXX 06184 71458 16/// /2607 11002 21073 39378 40152 53017 60001 333 10006 21036 70000
AAXX 06184 71459 16/// /2813 10008 21071 39356 40171 51010 60001 333 10016 21036 70000
AAXX 06184 71460 16/// /1401 10026 20012 39750 49990 58012 60001 333 10029 21037 70000
AAXX 06184 71461 NIL
AAXX 06184 71462 NIL
AAXX 06184 71463 46/// /2524 10063 21007 39821 40042 56015 6///1 333 10065 20003 7////
AAXX 06184 71464 NIL
AAXX 06184 71465 NIL
AAXX 06184 71466 NIL
AAXX 06184 71468 NIL
AAXX 06184 71470 NIL
AAXX 06184 71471 15966 02411 11020 21099 39362 40158 53009 60001 333 10015 21025 70000
AAXX 06184 71473 16/// /1710 10037 20012 30227 40257 54000 60001 333 10040 20029 70000
AAXX 06184 71475 NIL
AAXX 06184 71476 NIL
AAXX 06184 71477 17/// /1631 10050 20032 60021 7//4/ 333 10050 20001 70026
AAXX 06184 71478 NIL
AAXX 06184 71479 NIL
AAXX 06184 71480 NIL
AAXX 06184 71481 NIL
AAXX 06184 71482 NIL
AAXX 06184 71483 NIL
AAXX 06184 71484 NIL
AAXX 06184 71485 16/// /1233 10051 20020 30172 40192 56007 60001 333 10055 20045 70044
AAXX 06184 71486 16/// /1703 11021 21049 38974 40188 53005 60001 333 11021 21038 70000
AAXX 06184 71487 16/// /2917 10008 21042 39283 40152 50013 60001 333 10021 21028 70000
AAXX 06184 71489 NIL
AAXX 06184 71490 NIL
AAXX 06184 71491 NIL
AAXX 06184 71492 NIL
AAXX 06184 71493 16/// /2606 11062 21173 30085 40124 56015 60001 333 11061 21139 70000
AAXX 06184 71494 16/// /0603 11085 21105 39538 40073 56035 60001 333 11082 21211 70000
AAXX 06184 71495 NIL
AAXX 06184 71496 16/// /3013 11007 21063 39512 40125 51013 60001 333 10014 21062 70000
AAXX 06184 71497 46/// /2404 11261 21289 39884 40164 51012 6///1 333 11205 21276 7////
AAXX 06184 71498 NIL
AAXX 06184 71499 17966 80602 11155 21173 39466 40111 51015 60001 771// 333 11127 21191 70000
AAXX 06184 84628 34460 62008 10264 20205 30113 40129 70242 81630 333 56410 59013 81713 85366
AAXX 06184 84401 21560 72106 10309 20195 30081 40124 70262 8453/ 333 5600/ 59009 69901 84625 83359
AAXX 06184 84515 31460 83505 10302 20241 39923 40098 70222 84130 333 56900 59005 84817 84360
AAXX 06184 84688 31458 80110 10121 20073 36671 70222 886// 333 568// 59004 83613 85640
AAXX 06184 84370 31460 83506 10271 20225 30095 40129 70222 885// 333 56900 58011 88614
AAXX 06184 84472 21560 82301 10164 20102 37408 70325 887// 333 56900 59010 60061 84725 87737
AAXX 06184 84444 21560 80508 10145 20130 37538 70262 8443/ 333 5699/ 58000 60191 84630 84361
AAXX 06184 84390 31460 81406 10293 20189 30025 40124 70222 8453/ 333 5633/ 59012 84615 86358
AAXX 06184 84531 31962 31915 10254 20144 30087 40104 70122 8303/ 333 5609/ 59017 83362
AAXX 06184 84377 21560 80000 10276 20237 30004 40109 70224 85830 333 56890 58000 60021 85820 87360
AAXX 06184 71401 17/// /1703 11014 21048 39569 40266 50003 69971 7//4/ 333 10023 21043 70007
AAXX 06184 71402 NIL
AAXX 06184 71404 NIL
AAXX 06184 71405 NIL
AAXX 06184 71406 NIL
AAXX 06184 71407 NIL
AAXX 06184 71408 NIL
AAXX 06184 71409 NIL
AAXX 06184 71410 17466 83407 11144 21172 39801 40087 51022 60001 771// 333 11105 21145 70000
AAXX 06184 71413 NIL
AAXX 06184 71414 NIL
AAXX 06184 71415 16/// /2916 11076 21117 30113 40116 58002 60001 333 11042 21080 70007 555 10010
AAXX 06184 71417 NIL
AAXX 06184 71418 NIL
AAXX 06184 71419 46/// /2914 11055 21106 30101 40111 55002 6///1 333 11006 21062 7////
AAXX 06184 71423 NIL
AAXX 06184 71424 46/// /0514 6///1 333 7////
AAXX 06184 71425 NIL
AAXX 06184 71426 NIL
AAXX 06184 71427 16/// /2515 11139 21186 30106 40114 56018 60001 333 11136 21196 70000
AAXX 06184 71428 NIL
AAXX 06184 71429 NIL
AAXX 06184 71434 NIL
AAXX 06184 71436 17966 62207 10052 20010 39781 40014 58014 69931 7004/ 333 10052 21065 70003
AAXX 06184 71437 46/// /2208 10074 20006 39924 40018 56008 6///1 333 10076 20013 7////
AAXX 06184 71438 NIL
AAXX 06184 71439 NIL
AAXX 06184 71440 NIL
AAXX 06184 71442 47/// /3409 11061 21074 39753 40069 5/034 6///1 7//4/ 333 7////
AAXX 06184 71445 NIL
AAXX 06184 71446 NIL
AAXX 06184 71448 NIL
AAXX 06184 71449 NIL
AAXX 06184 71201 16/// ///// 10048 20020 60001 333 10059 20044 70006
AAXX 06184 71202 16/// ///// 11008 21085 60001 333 10001 21066 70000
AAXX 06184 71203 15966 61605 10025 21023 39721 40249 53003 60001 333 10025 21031 70000
AAXX 06184 71209 46/// /1009 10040 6///1 333 10064 20037 7////
AAXX 06184 71211 46/// /3307 10035 20027 30244 40256 55000 6///1 333 10057 20031 7////
AAXX 06184 71212 NIL
AAXX 06184 71213 46/// /0804 11076 21080 39687 49991 58015 6///1 333 11076 21166 7////
AAXX 06184 71214 NIL
AAXX 06184 71215 46/// /1503 11001 21057 39904 40256 58000 6///1 333 10027 21047 7////
AAXX 06184 71216 16/// /2102 10020 21010 39614 40238 53001 60001 333 10032 21010 70000
AAXX 06184 71217 NIL
AAXX 06184 71218 16/// /1902 11021 21035 39809 40245 53005 60001 333 10007 21044 70000
AAXX 06184 71219 46/// /1317 10034 21007 30137 40143 55004 6///1 333 10036 20012 7////
AAXX 06184 71220 46/// /1325 10034 20009 6///1 333 10039 20026 7////
AAXX 06184 71221 NIL
AAXX 06184 71222 16/// /0000 11171 21187 39187 40187 58005 60001 333 11097 21184 70000
AAXX 06184 71223 NIL
AAXX 06184 71224 NIL
AAXX 06184 71225 NIL
AAXX 06184 71226 NIL
AAXX 06184 71227 NIL
AAXX 06184 71228 NIL
AAXX 06184 71229 NIL
AAXX 06184 71230 16/// /2515 11023 21096 39260 40160 51009 60001 333 10004 21046 70000
AAXX 06184 71231 16/// /2816 10033 21098 60001 333 10033 21043 70000
AAXX 06184 71232 16/// /2509 11009 21133 38665 40173 50003 60001 333 11003 21024 70000
AAXX 06184 71233 NIL
AAXX 06184 71234 16/// /2715 10018 21100 38995 40193 51009 60001 333 10018 21039 70000
AAXX 06184 71235 16/// /2807 10006 21129 60001 333 10006 21028 70000
AAXX 06184 71236 46/// /3112 11003 21107 6///1 333 11003 21022 7////
AAXX 06184 71237 46/// /1703 11037 21079 39358 40181 51012 6///1 333 10029 21088 7////
AAXX 06184 71238 16/// /2704 10006 21081 60001 333 10007 21020 70000
AAXX 06184 71239 16/// /3014 10015 21017 39601 40054 51023 60001 333 10034 21010 70000
AAXX 06184 71240 16/// ///// 10017 21088 39318 40171 51016 60001 333 10017 21044 70000
AAXX 06184 71241 NIL
AAXX 06184 71242 16/// /1503 11047 21097 60001 333 11044 21095 70000
AAXX 06184 71243 NIL
AAXX 06184 71244 16/// /2715 10013 21099 38960 40198 51006 60001 333 10014 21062 70000
AAXX 06184 71245 NIL
AAXX 06184 71246 NIL
AAXX 06184 71247 15966 82307 10017 21074 39333 40194 51011 60001 333 10020 21040 70000
AAXX 06184 71248 16/// /0000 11016 21094 38860 40181 52007 60001 333 11014 21105 70000
AAXX 06184 71249 NIL
AAXX 06184 71604 16/// /3014 11109 21126 60001 333 11062 21110 70026 555 10070
AAXX 06184 71605 16/// /0102 10037 20037 30103 40255 53001 60001 333 10050 20024 70038
AAXX 06184 71611 17/// /0204 11071 21091 60031 7//4/ 333 11071 21151 70026
AAXX 06184 71612 NIL
AAXX 06184 71614 17/// /0607 11101 21124 39977 40044 56033 69931 7//4/ 333 11098 21149 70008 555 10010
AAXX 06184 71616 16/// /0607 11103 21136 39959 40084 56041 60001 333 11103 21231 70000
AAXX 06184 71617 16/// /3602 11178 21198 39942 40124 56029 60001 333 11178 21265 70000
AAXX 06184 71618 15466 83509 11199 21218 30095 40134 51012 60001 333 11199 21235 70000
AAXX 06184 71619 NIL
AAXX 06184 71622 NIL
AAXX 06184 71632 46/// /3602 11186 21210 39662 40118 51022 6///1 333 11169 21221 7//// 555 10010
AAXX 06184 71634 16/// /2503 11102 21191 39961 40119 58014 60001 333 11100 21201 70000
AAXX 06184 71638 16/// /3401 10022 20011 30141 40248 56002 60001 333 10045 20004 70013
AAXX 06184 71639 12974 82206 10051 21010 39778 40017 58008 60001 88070 333 10052 21010 79999
AAXX 06184 71642 11174 82304 11002 21002 39417 49958 58012 69901 70287 885// 333 11002 21110 48038 70048 90927
AAXX 06184 71500 NIL
AAXX 06184 71501 NIL
AAXX 06184 71502 NIL
AAXX 06184 71503 NIL
AAXX 06184 71504 NIL
AAXX 06184 71505 46/// /2801 11100 21150 39322 40061 58015 6///1 333 11027 21216 7////
AAXX 06184 71506 NIL
AAXX 06184 71507 NIL
AAXX 06184 71508 16/// ///// 10075 20027 39889 40025 56012 60001 333 10075 20011 70006
AAXX 06184 71509 NIL
AAXX 06184 71511 NIL
AAXX 06184 71512 NIL
AAXX 06184 71513 15966 02909 11130 21183 30044 40060 53013 60001 333 11099 21160 70000
AAXX 06184 71514 NIL
AAXX 06184 71515 NIL
AAXX 06184 71516 16/// /3119 10023 21057 60001 333 10023 21026 70000
AAXX 06184 71517 NIL
AAXX 06184 71518 NIL
AAXX 06184 71519 NIL
AAXX 06184 71520 NIL
AAXX 06184 71521 NIL
AAXX 06184 71522 NIL
AAXX 06184 71523 NIL
AAXX 06184 71524 NIL
AAXX 06184 71525 NIL
AAXX 06184 71526 NIL
AAXX 06184 71527 17416 83206 11034 21041 39498 40002 51027 60021 7714/ 333 11011 21035 70020
AAXX 06184 71528 NIL
AAXX 06184 71529 46/// /0000 11241 21282 39912 40152 51019 6///1 333 11240 21280 7////
AAXX 06184 71532 15966 11906 10029 20011 39664 40006 58013 60021 333 10029 21048 70023
AAXX 06184 71534 17964 02805 10062 20010 39742 40011 58009 69951 7//44 333 10064 21034 70005
AAXX 06184 71535 NIL
AAXX 06184 71536 NIL
AAXX 06184 71537 NIL
AAXX 06184 71539 NIL
AAXX 06184 71540 NIL
AAXX 06184 71541 NIL
AAXX 06184 71542 16/// /2506 11132 21148 60001 333 11079 21138 70000
AAXX 06184 71543 NIL
AAXX 06184 71544 NIL
AAXX 06184 71545 16/// ///// 10005 21075 60001 333 10005 21020 70000
AAXX 06184 71546 NIL
AAXX 06184 71547 NIL
AAXX 06184 71548 NIL
AAXX 06184 71549 NIL
AAXX 06184 71864 NIL
AAXX 06184 71865 16/// /2706 11010 21034 39434 40116 51017 60001 333 11003 21020 70000
AAXX 06184 71866 46864 82911 11006 21061 39515 40132 51011 6///1 333 10015 21061 7////
AAXX 06184 71867 11459 83407 11092 21107 39764 40104 51026 69921 77177 887// 333 11068 21093 47028 70024 90987 93101
AAXX 06184 71868 NIL
AAXX 06184 71869 11674 72808 11002 21026 39584 40108 53012 60001 71422 86570 333 10027 21023 70022
AAXX 06184 71871 15966 82813 11018 21064 39331 40141 51018 60001 333 10009 21052 70000
AAXX 06184 71877 12986 52713 10019 21133 38904 40185 50006 60001 81071 333 10019 21012 70000
AAXX 06184 71878 12974 22002 11061 21119 39101 40193 51008 60001 80001 333 11030 21105 70000
AAXX 06184 71879 16964 02607 10001 21094 39353 40162 51013 60001 333 10011 21027 70000
AAXX 06184 71880 12782 43203 11024 21063 39124 40249 51012 60001 82501 333 11001 21052 70006
AAXX 06184 71882 160// /3303 10000 20000 39702 40249 53003 60001 333 10003 21006 70010
AAXX 06184 71883 46/// /0000 11016 21018 39408 40241 53009 6///1 333 11012 21030 7////
AAXX 06184 71887 12986 71006 11022 21051 39819 40250 53006 60001 85071 333 11001 21066 70000
AAXX 06184 71889 12974 61610 10020 21061 39829 40255 55001 60001 82071 333 10044 21028 70000
AAXX 06184 71891 16864 31919 10041 21020 39954 40231 53007 60001 333 10047 20020 70000
AAXX 06184 71892 12474 80907 10039 20019 30257 40263 55000 60001 87808 333 10050 20012 70000
AAXX 06184 71550 NIL
AAXX 06184 71551 NIL
AAXX 06184 71552 46/// /3415 11053 21062 6///1 333 11009 21053 7////
AAXX 06184 71553 17/// /3316 11034 21057 69971 7//4/ 333 10018 21035 70022
AAXX 06184 71554 16/// /2704 11122 21178 30119 40125 56021 60001 333 11122 21157 70000
AAXX 06184 71555 16/// /2718 10002 21142 38612 40190 51005 60001 333 10002 21042 70000
AAXX 06184 71556 16/// /3010 11002 21049 39522 40129 50017 60001 333 10007 21010 70000 555 10010
AAXX 06184 71557 46/// /2303 10027 21061 6///1 333 10027 21044 7////
AAXX 06184 71558 46/// ///// 11063 21088 39911 49947 51035 6///1 333 11017 21075 7////
AAXX 06184 71559 NIL
AAXX 06184 71560 16/// /3018 10030 21027 39741 40033 51017 60001 333 10034 21004 70000
AAXX 06184 71563 NIL
AAXX 06184 71564 NIL
AAXX 06184 71565 NIL
AAXX 06184 71566 NIL
AAXX 06184 71567 NIL
AAXX 06184 71568 17/// /1508 10036 20017 30230 40243 53001 60021 7//4/ 333 10050 20032 70030
AAXX 06184 71569 16/// /2915 10001 21053 39426 40129 51022 60001 333 10017 21013 70000
AAXX 06184 71570 17/// /3106 11046 21067 39731 40044 51022 60021 7//4/ 333 11006 21051 70035
AAXX 06184 71571 NIL
AAXX 06184 71572 NIL
AAXX 06184 71573 16/// /2208 10061 20014 39752 40031 58011 60001 333 10066 20000 70000
AAXX 06184 71574 12974 62905 11113 21154 30039 40114 58018 60001 81079 333 11109 21168 79999
AAXX 06184 71575 16/// /2615 11180 21197 39936 40003 56005 60001 333 11180 21290 70000 555 10050
AAXX 06184 71576 NIL
AAXX 06184 71577 46/// /3410 11052 21067 6///1 333 11014 21052 7////
AAXX 06184 71578 NIL
AAXX 06184 71579 17/// /3307 11031 21048 39763 40045 51027 69971 7//4/ 333 10048 21032 70007
AAXX 06184 71580 12474 53113 11370 39990 40028 51012 60001 83530 333 11349 21399 44030 70004
AAXX 06184 71581 NIL
AAXX 06184 71582 17666 81307 10037 20016 30146 40200 55007 60001 761// 333 10038 21005 70090
AAXX 06184 71583 NIL
AAXX 06184 71584 15966 02811 11127 21183 30025 40074 55000 60001 333 11109 21164 70000
AAXX 06184 71585 NIL
AAXX 06184 71586 NIL
AAXX 06184 71587 NIL
AAXX 06184 71588 NIL
AAXX 06184 71589 NIL
AAXX 06184 71590 16/// /1204 11140 21198 39925 40125 56027 60001 333 11134 21287 70000
AAXX 06184 71592 NIL
AAXX 06184 71593 NIL
AAXX 06184 71596 NIL
AAXX 06184 71598 16/60 /2612 11107 21142 30105 40111 55009 60001 333 11090 21117 70000
AAXX 06184 71599 NIL
AAXX 06184 71150 46/// /3313 11025 21035 39405 40084 51047 6///1 333 10019 21027 7////
AAXX 06184 71151 NIL
AAXX 06184 71152 NIL
AAXX 06184 71153 16/// /2712 10012 21113 60001 333 10012 21027 70000
AAXX 06184 71154 16/// /2319 10005 21117 60001 333 10005 21021 70000
AAXX 06184 71155 NIL
AAXX 06184 71156 NIL
AAXX 06184 71157 NIL
AAXX 06184 71158 NIL
AAXX 06184 71159 17/// /2911 11063 21080 39975 40048 53014 69931 7//4/ 333 10002 21066 70003
AAXX 06184 71160 NIL
AAXX 06184 71161 16/// /0205 11052 21073 39877 40026 56019 60001 333 11046 21128 70038
AAXX 06184 71162 NIL
AAXX 06184 71163 46/// /2802 11260 21283 39786 40146 52008 6///1 333 11240 21319 7////
AAXX 06184 71164 NIL
AAXX 06184 71165 NIL
AAXX 06184 71166 NIL
AAXX 06184 71167 15966 02805 11086 21128 39064 40184 52009 60001 333 11017 21135 70000
AAXX 06184 71168 NIL
AAXX 06184 71170 16/// /0114 11006 21024 60001 333 10032 21012 70000
AAXX 06184 71171 16/// /2410 10082 20020 39923 40018 58008 60001 333 10084 20002 70000
AAXX 06184 71172 16/// ///// 10040 20018 39771 49985 58010 60001 333 10040 21036 70000
AAXX 06184 71175 16/// /3109 11061 21114 30070 40105 55002 60001 333 11015 21064 70015
AAXX 06184 71176 460// /3314 11169 39307 40000 56001 6///1 333 11159 21173 7////
AAXX 06184 71177 460// /2102 11120 38889 49885 56005 6///1 333 11096 21144 7////
AAXX 06184 71178 16/// /2825 11015 21062 39982 40014 53011 60001 333 10040 21034 70079
AAXX 06184 71179 460// /2404 11181 39090 49926 56023 6///1 333 11161 21196 7////
AAXX 06184 71180 NIL
AAXX 06184 71181 17450 62821 11009 21052 39988 40024 55005 60001 745// 333 21025 70160
AAXX 06184 71183 17/// /0409 30016 56034 69931 7//4/ 333 70012
AAXX 06184 71184 46/// /0607 11112 21143 6///1 333 11112 21133 7////
AAXX 06184 71186 NIL
AAXX 06184 71187 15666 11001 10031 20023 30214 40263 51004 60001 333 10053 20024 70000
AAXX 06184 71189 NIL
AAXX 06184 71190 NIL
AAXX 06184 71191 16/// ///// 11061 21158 60001 333 11053 21144 70000 555 10010
AAXX 06184 71192 15366 62002 11049 21049 39561 40237 53008 60001 333 11026 21056 70000
AAXX 06184 71193 16/// /1106 11094 21101 39611 49978 58016 60001 333 11094 21169 70020
AAXX 06184 71196 16/// /1306 11096 21102 39820 40022 58024 60001 333 11093 21139 70028 555 10050
AAXX 06184 71197 17430 62928 11057 21086 30018 40068 53005 60001 745// 333 11006 21057 70030
AAXX 06184 71198 46/// /0315 11117 21149 6///1 333 11115 21147 7////
AAXX 06184 71199 46/// /0000 11249 21275 39308 40183 55000 6///1 333 11184 21286 7////
AAXX 06184 71102 NIL
AAXX 06184 71105 NIL
AAXX 06184 71107 NIL
AAXX 06184 71110 NIL
AAXX 06184 71111 15966 81612 10044 20024 30104 40112 55000 60001 333 10047 20002 70000
AAXX 06184 71112 16/// ///// 60001 333 70000
AAXX 06184 71113 16/// /1502 10028 20024 30237 40261 53002 60001 333 10051 20009 70042
AAXX 06184 71115 NIL
AAXX 06184 71116 NIL
AAXX 06184 71118 16/// /2711 11026 21085 39325 40159 51016 60001 333 11010 21050 70000
AAXX 06184 71121 16964 02912 11001 21114 39330 40159 51011 60001 333 11001 21039 70000
AAXX 06184 71127 16/// /2708 11017 21099 39246 40162 53012 60001 333 11001 21040 70000
AAXX 06184 71130 15466 82505 11031 21049 39650 40109 51015 60001 333 10021 21038 70099
AAXX 06184 71132 15966 81203 11220 21247 39816 40143 51019 60001 333 11162 21271 70000
AAXX 06184 71133 46/// /2809 11019 21065 39398 40106 51017 6///1 333 10002 21037 7////
AAXX 06184 71139 NIL
AAXX 06184 71141 NIL
AAXX 06184 71142 15966 02713 10003 21049 39185 40158 50009 60001 333 10003 21032 70000
AAXX 06184 71143 NIL
AAXX 06184 71144 NIL
AAXX 06184 71147 NIL
AAXX 06184 71149 17/// /3410 11043 21060 69931 7//4/ 333 10037 21043 70003
AAXX 06184 78922 46/// /1410 10273 20201 30099 40143 58026
AAXX 06184 84455 31460 31603 10316 20207 39800 40142 70112 83100 333 56900 59010 83817
AAXX 06184 84425 31460 73504 10302 20228 39928 40137 70122 8323/ 333 5689/ 59004 83815 84360
AAXX 06184 84452 31660 51915 10300 20213 30103 40133 70122 8253/ 333 5649/ 59016 82640 83360
AAXX 06184 84534 31660 3//// 10310 20214 39360 40058 7031/ 83200 333 56900 59030 83840
AAXX 06184 84542 31670 73308 10210 20101 37348 7022/ 8453/ 333 5699/ 59031 84645 83365
AAXX 06184 84720 31960 02905 10330 20218 39481 40147 70200 333 59045
AAXX 06184 84735 31360 60405 10154 20051 36439 70222 82150 333 56990 59004 82810 84630
AAXX 06184 84773 31962 01511 10264 20198 30103 40128 70211 333 59027
AAXX 06184 84564 31560 30606 10261 20159 38140 7012/ 83200 333 56000 59022 83830
AAXX 06184 84658 31462 63303 10340 20262 39849 40083 70312 8613/ 333 5679/ 59001 83810 83357
AAXX 06184 84673 31663 31704 10212 20120 37342 71522 83100 333 56900 59008 83846
AAXX 06184 84474 31660 41004 10308 20243 39770 7022/ 84100 333 56900 59002 84840
AAXX 06184 84691 31560 22706 10288 20212 30109 40116 70300 82500 333 56000 59021 82640
AAXX 06184 84752 32460 72410 10155 20113 37529 70224 875// 333 569// 59018 87617
AAXX 06184 84501 31660 71711 10239 20186 30099 40125 70211 8353/ 333 56000 59020 83640 86369
AAXX 06184 84686 31665 73608 10174 20027 36868 70220 885// 333 56900 59004 83640 85656
AAXX 06184 84782 31965 22114 10260 20165 39611 40105 70211 80002 333 56009 59027 82075
AAXX 06184 71930 13774 22604 11023 21104 39225 40167 53014 60003 81101 333 11004 21051 43013 70000
AAXX 06184 71931 NIL
AAXX 06184 71934 11874 73102 11175 21208 39883 40150 51022 69981 77177 87071 333 11155 21177 47033 70016 90983 93101
AAXX 06184 71935 11874 20000 11245 21287 39947 40165 52015 69901 70171 81071 333 11163 21269 47032 70002 90963
AAXX 06184 71936 11174 30000 11284 21325 39880 40156 52010 60001 71141 83670 333 11240 21300 70000
AAXX 06184 71937 NIL
AAXX 06184 71938 11874 71803 11278 21307 30069 40100 58006 69901 72277 87070 333 11260 21336 79999 90913
AAXX 06184 71940 12982 62910 11041 21082 39359 40174 53015 60001 81071 333 10007 21043 70000
AAXX 06184 71943 12974 72312 11030 21105 39308 40150 52012 60001 80001 333 10000 21033 70000
AAXX 06184 71944 160// ///// 11058 53014 60001 333 11015 21073 70000
AAXX 06184 71945 12983 40000 11212 21264 39663 40154 52013 60001 84030 333 11166 21233 70000
AAXX 06184 71946 12774 30000 11230 21255 39930 40154 52006 60001 83500 333 11207 21273 79999
AAXX 06184 71948 46064 /2006 11214 39951 40067 56001 6///1 333 11211 21233 7////
AAXX 06184 71949 NIL
AAXX 06184 71951 NIL
AAXX 06184 71957 46964 01010 11221 21296 39955 40046 56016 6///1 333 11211 21260 7////
AAXX 06184 71964 12986 81815 11068 21119 39226 40089 56012 60001 8803/ 333 11063 21145 70000
AAXX 06184 71966 16/// /0000 11275 21306 39580 40061 56018 60001 333 11229 21298 70000
AAXX 06184 71968 460// /1717 11159 39930 49995 56027 6///1 333 11147 21268 7////
AAXX 06184 71397 12574 32706 11066 21119 30103 40138 56015 60001 81540 333 11042 21090 70004
AAXX 06184 71400 16/64 /2609 11048 21082 60001 333 11011 21090 70048
AAXX 06184 71403 46/// /3007 11060 21128 30102 40122 6///1 333 11015 21078 7////
AAXX 06184 71411 16/// /2708 11026 21077 30122 40135 56020 60001 333 11019 21083 70000
AAXX 06184 71412 16/// /2711 11080 21115 30097 40107 55003 60001 333 11051 21095 70000 555 10020
AAXX 06184 71421 NIL
AAXX 06184 71430 16/// /2510 10056 20026 39924 40020 56017 60001 333 10072 21019 70000
AAXX 06184 71431 NIL
AAXX 06184 71432 NIL
AAXX 06184 71433 NIL
AAXX 06184 71435 NIL
AAXX 06184 71441 46/// /3018 10031 21027 39736 40041 51016 6///1 333 10038 21002 7////
AAXX 06184 71443 17/// /3304 11035 21068 39688 40103 51030 60011 7//4/ 333 11017 21053 70107 555 10120
AAXX 06184 71444 NIL
AAXX 06184 71447 NIL
AAXX 06184 71467 16/// /0000 11203 21221 39941 40058 58004 60001 333 11203 21269 70000
AAXX 06184 71472 NIL
AAXX 06184 71474 16764 32005 11042 21071 38963 40222 51006 60001 333 11036 21062 70000
AAXX 06184 71510 NIL
AAXX 06184 71538 12974 72415 10090 20016 39823 40051 55009 60001 81071 333 10091 20016 70000
AAXX 06184 71600 16564 62913 11011 21074 30108 40114 56002 60001 333 10039 21017 70015
AAXX 06184 71601 NIL
AAXX 06184 71621 12574 62514 10072 20022 39912 40017 56019 60001 81572 333 10075 21029 70020
AAXX 06184 71603 12574 83204 11029 21092 30082 40136 55017 60001 81551 333 11025 21054 70006
AAXX 06184 71607 16/// /3301 11058 21156 30095 40128 57029 60001 333 11052 21119 70000
AAXX 06184 71609 12974 60000 11087 21195 39997 40135 57020 60001 83071 333 11077 21134 70000
AAXX 06184 71610 17666 80705 11079 21097 39765 40069 56040 69951 7004/ 333 11079 21172 70005
AAXX 06184 71621 12574 72514 10072 20022 39912 40017 56019 60001 81572 333 10075 21029 70020
AAXX 06184 71623 NIL
AAXX 06184 71624 12974 72608 10074 20011 39813 40023 58009 60001 86071 333 10075 20003 70000
AAXX 06184 71625 16259 81405 11089 21096 39861 40024 58025 69951 333 11083 21133 70045
AAXX 06184 71627 11474 80410 11119 21156 30013 40059 58034 69941 77177 885// 333 11100 21127 46002 70012 90917
AAXX 06184 71628 11460 80807 11104 21126 39901 40045 57022 60021 77172 88500 333 11097 21144 4-6016 70028 909/7
AAXX 06184 71630 NIL
AAXX 06184 71631 16/// /2604 10040 21002 39526 40021 51001 60001 333 10040 21020 70012
AAXX 06184 71633 12874 82314 10046 20023 39736 40005 56002 60001 8802/ 333 10058 21022 79999
AAXX 06184 71705 12974 32508 11083 21211 30035 40125 56016 60001 81071 333 11079 21146 70000
AAXX 06184 71706 11574 22708 11104 21154 30067 40129 57010 69901 70280 82501 333 11061 21123 47003 70018 90930
AAXX 06184 71707 11569 72910 11065 21111 30020 40098 55002 69901 78522 87500 333 11022 21067 44024 70054 90962
AAXX 06184 71709 11580 72915 11080 21122 30086 40100 53003 60011 78582 87500 333 11032 21085 47005 70054 90917 93101
AAXX 06184 71711 NIL
AAXX 06184 71714 16/// /0709 11119 21164 30021 40117 56038 60001 333 11119 21203 70000
AAXX 06184 71715 16/// /1901 11141 21199 39929 40118 56027 60001 333 11136 21221 70000
AAXX 06184 71718 11574 72307 11138 21192 30057 40125 57020 69921 78522 86570 333 11137 21156 47010 70030 90931
AAXX 06184 71719 16/// /2709 11087 21153 30098 40104 56012 60001 333 11085 21133 70003 555 10020
AAXX 06184 71726 17/// /1103 11151 21171 39495 40060 57028 69951 7//4/ 333 11151 21294 70024 555 10020
AAXX 06184 71727 12682 80904 11176 21216 39905 40112 57029 60001 8352/ 333 11175 21273 79999
AAXX 06184 71728 11566 80903 11198 21248 39880 40113 58023 69921 77181 885// 333 11197 21266 44003 70002 90931
AAXX 06184 71730 11140 81805 11015 21016 39561 49985 58012 60001 71022 886// 333 11015 21094 44017 70054
AAXX 06184 71731 11/04 91505 11023 21029 39540 49992 57016 69901 74552 333 11022 21103 48031 70056 90947
AAXX 06184 71735 NIL
AAXX 06184 71738 11369 82506 10029 20015 39607 49956 58005 69901 70272 886// 333 10030 21081 43024 70010 90921
AAXX 06184 71739 41266 81306 11091 21100 39611 49979 58017 6//// 77175 886// 333 11090 21201 4//// 7//// 90973
AAXX 06184 71749 16564 82813 10042 20004 39727 49971 51006 60001 333 10043 21097 70000
AAXX 06184 71799 12580 72904 10035 20024 30236 40260 55001 60001 86870 333 10036 21006 70008
AAXX 06184 71800 16/// /2816 10012 21023 30005 40038 55004 60001 333 10059 20000 7////
AAXX 06184 71801 12574 62715 11003 21057 39855 40028 53005 60001 84530 333 10056 21035 70050
AAXX 06184 71803 11580 42517 11038 21109 39828 40015 53009 60001 73611 82101 333 10005 21054 70042
AAXX 06184 71807 16/// /2816 10004 21039 30025 40043 55001 60001 333 10067 21014 70013
AAXX 06184 71808 NIL
AAXX 06184 71809 NIL
AAXX 06184 71810 16/// /2908 11116 21147 30008 40076 58004 60001 333 11112 21147 70059
AAXX 06184 71811 NIL
AAXX 06184 71813 16/// /2809 11129 21181 30040 40054 53012 60001 333 11099 21159 70000
AAXX 06184 71814 16/// /2910 11110 21154 30017 40027 53014 60001 333 11053 21119 70010
AAXX 06184 71815 11469 42914 11058 21081 30024 40055 53018 69901 78500 84500 333 10011 21062 48024 70012 90952
AAXX 06184 71893 11574 81706 10044 20021 30218 40250 53003 69921 76111 885// 333 10045 20016 70006 90921
AAXX 06184 71894 17/// /1115 10050 20046 30219 40228 55003 60061 7//4/ 333 10050 20032 70076
AAXX 06184 71896 15966 61405 11048 21061 39375 40222 53009 60001 333 11014 21066 70000
AAXX 06184 71897 12469 81425 10050 20019 3//// 4//// 56012 60081 8882X 333 10056 20034 70064
AAXX 06184 71898 160// ///// 10032 56009 60001 333 10040 20016 70000
AAXX 06184 71899 12574 81609 10030 20007 3//// 4//// 56018 60001 8682X 333 10031 20012 70002
AAXX 06184 71902 11974 02108 11157 21221 39929 49938 55010 69901 70177 333 11075 21162 47052 70052 90955
AAXX 06184 71905 NIL
AAXX 06184 71906 11674 62605 11204 21259 30011 40063 53008 69901 72272 82571 333 11170 21235 48027 70002 90927
AAXX 06184 71907 16964 00000 11282 21322 30064 40098 58001 60001 333 11264 21315 70000
AAXX 06184 71909 16964 00000 11294 21326 30012 40058 53007 60001 333 11276 21322 70000
AAXX 06184 71910 47008 92516 11181 21208 39941 40005 56006 6///1 745// 333 11180 21291 7////
AAXX 06184 71911 46028 02810 11378 39981 40040 51018 6///1 333 11300 21406 7////
AAXX 06184 71912 11458 80606 11178 21217 39915 40105 51020 69901 77177 885// 333 11177 21195 48020 70016 90983
AAXX 06184 71915 11574 60000 11271 21314 39922 40006 50000 69901 77677 86500 333 11250 21327 48042 79999 90983
AAXX 06184 71917 11974 01304 11421 21460 30008 40023 53009 69901 77677 333 11391 21434 48015 79999 90983
AAXX 06184 71922 11356 80000 11077 21083 39637 40108 52016 69901 75672 887// 333 11040 21089 47040 70052 90942
AAXX 06184 71924 NIL
AAXX 06184 71925 11974 03105 11337 21390 30080 40123 52005 69901 77677 333 11293 21363 44021 70002 90983
AAXX 06184 71926 11566 63010 11264 21323 30074 40099 53020 69901 77677 86500 333 11264 21339 44043 79999 90983
AAXX 06184 71928 16/// /1301 11063 21148 39001 40188 51008 60001 333 11047 21136 70000
AAXX 06184 71816 12574 22611 11175 21232 39950 40013 56007 60001 81171 333 11159 21215 79999
AAXX 06184 71817 11432 82817 11089 21127 39903 49916 53032 60051 77172 886// 333 42025 70106 90927
AAXX 06184 71818 11/16 93117 11134 21160 39928 49946 55011 60051 77172 333 11073 21140 44032 70060 90973 93105
AAXX 06184 71822 11848 81207 11182 21220 39578 40073 58027 69921 77172 8807/ 333 11181 21275 43049 70002 90942
AAXX 06184 71825 11174 23210 11220 21278 39374 40075 57003 69901 70277 82500 333 11216 21259 48107 70006 90963
AAXX 06184 71827 NIL
AAXX 06184 71828 17462 33109 11235 21288 39383 40049 53007 69951 7//44 333 11226 21261 70005
AAXX 06184 71831 11732 80705 11096 21109 39710 49984 56012 69941 75677 887// 333 11095 21146 48053 70016 90937
AAXX 06184 71832 NIL
AAXX 06184 71834 11/16 90304 11118 21131 39554 49988 50009 69941 77162 333 11108 21136 48034 70038 90983
AAXX 06184 71841 NIL
AAXX 06184 71842 11374 83406 11061 21070 39531 40003 52025 60021 70277 886// 333 11041 21079 48016 70090 90923
AAXX 06184 71844 NIL
AAXX 06184 71845 11366 80203 11137 21146 39539 40023 51018 69901 77177 887// 333 10117 21146 44025 79999 90973
AAXX 06184 71850 11212 83107 11038 21049 39519 40017 51023 60051 77177 887// 333 10011 21038 48010 70052 90973 93105
AAXX 06184 71852 17227 93410 11028 21037 39760 40053 51028 69951 74544 333 10043 21032 70015
AAXX 06184 71854 11369 83507 11067 21083 39546 40021 52022 69921 77177 885// 333 11049 21068 48020 70022 90993
AAXX 06184 71858 NIL
AAXX 06184 71861 16/// /3114 11011 21038 39384 40110 51033 60001 333 10008 21014 70000
AAXX 06184 71862 11974 13118 10011 21046 39435 40138 52026 69921 70171 81070 333 10012 21008 45001 70002 90930
AAXX 06184 71863 46564 83012 11004 21049 39441 40142 51025 6///1 333 10009 21021 7////
AAXX 06184 71114 160// /0000 10033 20019 30214 40263 51003 60001 333 10055 20025 70135
AAXX 06184 71120 11974 42606 11027 21065 39468 40129 52015 60001 71411 84070 333 11001 21039 70008
AAXX 06184 71122 16/// /2706 11016 21114 38580 40200 50003 60001 333 11016 21050 70000
AAXX 06184 71123 12974 12605 11046 21111 39296 40176 51011 60001 81072 333 11012 21094 70000
AAXX 06184 71125 12574 52511 11016 21050 39528 40116 52016 60001 81570 333 70078
AAXX 06184 71129 12774 52711 10000 21078 39326 40162 51014 60001 82570 333 10001 21046 70000
AAXX 06184 71131 16/// /2203 11046 21082 38917 40189 50013 60001 333 11012 21088 70000
AAXX 06184 71135 NIL
AAXX 06184 71137 16/// /2910 10010 21060 39234 40186 52017 60001 333 10010 21045 70000
AAXX 06184 71140 11462 83221 10004 21003 39580 40080 5/032 69921 77111 885// 333 10026 21009 41997 70002 90921
AAXX 06184 71145 11459 83506 11157 21176 39770 40071 51023 69901 77177 885// 333 11128 21157 48036 70008 90983
AAXX 06184 71148 NIL
AAXX 06184 71185 17548 32520 11059 39979 40003 52006 60001 745// 333 11008 21061 70025
AAXX 06184 71188 12374 22710 11105 21196 30048 40092 57009 60001 81531 333 11105 21164 43017 70000
AAXX 06184 71200 16/// /1604 10053 20027 60001 333 10057 20039 70098
AAXX 06184 71207 16/// /0000 10027 30188 40253 53004 60001 333 10041 20012 70066
AAXX 06184 71260 13/// ///// 10037 20004 39753 49987 50001 60001 333 10037 21072 79999
AAXX 06184 71864 NIL
AAXX 06184 71865 16/// /2706 11010 21034 39434 40116 51017 60001 333 11003 21020 70000
AAXX 06184 71866 46864 82911 11006 21061 39515 40132 51011 6///1 333 10015 21061 7////
AAXX 06184 71867 11459 83407 11092 21107 39764 40104 51026 69921 77177 887// 333 11068 21093 47028 70024 90987 93101
AAXX 06184 71868 NIL
AAXX 06184 71869 11674 72808 11002 21026 39584 40108 53012 60001 71422 86570 333 10027 21023 70022
AAXX 06184 71871 15966 82813 11018 21064 39331 40141 51018 60001 333 10009 21052 70000
AAXX 06184 71877 12986 52713 10019 21133 38904 40185 50006 60001 81071 333 10019 21012 70000
AAXX 06184 71878 12974 22002 11061 21119 39101 40193 51008 60001 80001 333 11030 21105 70000
AAXX 06184 71879 16964 02607 10001 21094 39353 40162 51013 60001 333 10011 21027 70000
AAXX 06184 71880 12782 43203 11024 21063 39124 40249 51012 60001 82501 333 11001 21052 70006
AAXX 06184 71882 160// /3303 10000 20000 39702 40249 53003 60001 333 10003 21006 70010
AAXX 06184 71883 46/// /0000 11016 21018 39408 40241 53009 6///1 333 11012 21030 7////
AAXX 06184 71887 12986 71006 11022 21051 39819 40250 53006 60001 85071 333 11001 21066 70000
AAXX 06184 71889 12974 61610 10020 21061 39829 40255 55001 60001 82071 333 10044 21028 70000
AAXX 06184 71891 16864 31919 10041 21020 39954 40231 53007 60001 333 10047 20020 70000
AAXX 06184 71892 12474 80907 10039 20019 30257 40263 55000 60001 87808 333 10050 20012 70000
AAXX 06184 71043 12883 61102 11237 21286 39987 40084 57016 60001 81071 333 12232 21293 70010
AAXX 06184 71045 16/// /0204 11091 21123 39260 40141 56010 60001 333 11087 21146 70000
AAXX 06184 71050 NIL
AAXX 06184 71051 NIL
AAXX 06184 71052 NIL
AAXX 06184 71066 NIL
AAXX 06184 71068 12774 72710 11012 21070 39447 40143 52010 60001 87500 333 10001 21020 70000
AAXX 06184 71069 16664 32817 10009 21062 39432 40137 51015 60001 333 10015 20002 70000
AAXX 06184 71076 16/// /0601 11203 21227 39727 40135 51017 60001 333 11179 21262 70000
AAXX 06184 71077 17/// /3106 11046 21058 39568 40114 51020 60231 7//4/ 333 11046 21074 70812 555 10020
AAXX 06184 71079 11469 80207 11166 21197 39815 40105 52020 69941 77177 8554/ 333 11165 21180 48017 70008 90983 93101
AAXX 06184 71081 46964 02705 11389 21437 39948 49961 53005 6///1 333 11324 21399 7////
AAXX 06184 71082 NIL
AAXX 06184 71083 11674 22711 11310 21357 30041 40086 50008 69901 77677 81501 333 11294 21337 48060 79999 90983
AAXX 06184 71090 46864 80000 11334 21375 39960 49997 51009 6///1 333 11327 21400 7////
AAXX 06184 71091 460// /1310 11309 39764 49982 53003 6///1 333 7////
AAXX 06184 71092 46411 81516 11324 39308 40002 53008 6///1 333 11312 21328 7////
AAXX 06184 71093 460// ///// 11263 39495 40007 53012 6///1 333 11245 21290 7////
AAXX 06184 71094 46064 /2113 11257 39056 49979 53008 6///1 333 11257 21270 7////
AAXX 06184 71095 46964 31803 11336 21380 39907 49991 53008 6///1 333 11297 21363 7////
AAXX 06184 71101 160// /1707 30106 53003 60001 333 70000
AAXX 06184 71104 12974 61404 11070 21087 39094 40228 53006 60001 86071 333 11061 21105 79999
AAXX 06184 71108 12780 80000 10032 20011 30191 40265 50000 60001 8653/ 333 10063 20002 70029
AAXX 06184 71109 12480 81115 10047 20013 30177 40204 57006 60001 8557/ 333 10054 20018 70002
AAXX 06184 78866 01483 61407 10277 20213 30150 40155 57025 69921 70162 83870 333 58007 60007 82818 84358
AAXX 06184 48325 31956 00000 10165 20156 39922 40173 52011 71000 333 58022
AAXX 06184 48357 32960 11003 10188 20137 30013 40187 58001 80001 333 58015
AAXX 06184 48386 31950 00000 10230 20216 30105 40149 52007 71000 333 58005
AAXX 06184 48563 32560 40000 10234 20217 30106 40142 57003 81145 333 58007
AAXX 06181 33924 11598 81806 10098 20045 30009 40021 52015 60022 70282 8157/ 333 10105
AAXX 06184 60020 NIL
AAXX 06184 60030 02570 60216 10182 20141 30187 40243 53001 60002 82875 333 10212 60007 92427
AAXX 06184 60040 02570 23515 10191 20133 30228 40253 55000 60002 81506 333 10226 60007 92438
AAXX 06184 60338 12982 22405 10174 20069 30180 40246 53005 60002 80001 333 10210 92418
AAXX 06184 48350 31956 00000 10190 20177 39862 40170 52004 71000 333 58001
AAXX 06184 78866 01483 61407 10277 20213 30150 40155 57025 69921 70162 83870 333 58007 60007 82818 84358
AAXX 06181 01092 46/// /0805 10006 21024 333 10012 91109
AAXX 06181 01199 11575 80105 11070 21085 39509 49984 52005 69982 70273 885// 333 11070 91109
AAXX 06181 01262 46/// /3606 10017 21057 333 10034 91119
AAXX 06181 01329 11563 82405 10024 20008 39987 40049 58019 6//// 70282 888// 333 91111
AAXX 06181 01337 16/// /1001 11041 21056 39982 40050 58019 69932 333 11034 91102
AAXX 06181 01374 31880 33301 11076 21082 70300 81041 333 11023
AAXX 06181 01393 16/// /3105 11041 21076 39180 49989 55001 6//// 333 11040 91109
AAXX 06181 01373 11789 10000 11139 21153 39824 40032 56010 60002 70100 81100 333 11131 91102
AAXX 06181 01436 11575 82909 10053 20023 60002 70221 888// 333 10053 91113
AAXX 06181 01015 46/// /1607 11039 21060 333 11032 91109
AAXX 06181 01180 11980 03003 11039 21077 39936 49994 50003 60002 70200 333 11026 91107
AAXX 06181 01228 46/// /3107 10018 21025 39999 40007 50001 333 10047 91118
AAXX 06181 01340 16/// /2805 11027 21036 39164 40044 56011 60022 333 11018 91110
AAXX 06181 01425 16/// /3301 10009 20005 39991 40072 58020 60002 333 10011 91103
AAXX 06181 01450 16/// /2705 11060 21089 38887 40052 56007 60002 333 11034 91113
AAXX 06181 01265 16/// /3102 11024 21069 39420 40005 53009 60012 333 11015 91112
AAXX 06181 01375 16/// /2910 11056 21061 6//// 333 11050 91116
AAXX 06181 01440 46/// /2810 11045 21051 38760 40058 57012 333 11041 91113
AAXX 06181 01441 16/// /2605 11021 21046 39048 40040 57013 69972 333 11020 91109
AAXX 06181 01469 16/// /2902 11071 21087 39847 40025 57013 60002 333 11063 91105
AAXX 06181 01392 11876 83601 11064 21076 39783 40015 57006 60002 77072 8802/ 333 11023 91102
AAXX 06181 01494 11983 71602 10006 21044 39958 40024 57018 60002 70320 85076 333 10010 91106
AAXX 06181 01277 16/// /1802 11053 21065 60012 333 10011 91108
AAXX 06181 01476 16/// /2508 10028 21012 30027 40034 58023 6//// 333 10038 91110
AAXX 06181 12120 12570 63303 10024 21031 30067 40074 51020 69922 862// 333 10046 20018 91111 93000
AAXX 06181 12250 11663 73003 10018 21018 39992 40082 51039 69912 70282 875// 333 10050 20018 91111 93097
AAXX 06181 12295 11458 83304 10016 20010 39827 40012 53043 60012 78122 889// 333 10030 20015 88910 91110 93097
AAXX 06181 12330 11570 73006 10019 21015 30002 40112 51037 69912 70186 875// 333 10038 20018 91114 93097
AAXX 06181 12375 11470 73007 10032 20022 39914 40045 52051 60032 72582 875// 333 10040 20006 87612 91112 93094
AAXX 06181 12424 11499 83106 10019 21026 39973 40128 52042 60012 72362 875// 333 10037 20013 83611 91114 93091
AAXX 06184 78388 111574 60815 10268 20165 30152 40161 60001 70522 82802 333 01909 10286 20224 59013 82822 87072
AAXX 06184 DUPE
AAXX 06181 12160 11460 72903 10010 21002 30006 40060 51034 60022 78322 873// 333 10045 20005 91115 93001
AAXX 06181 12205 12974 02804 10014 21004 30109 40117 51021 69932 333 10038 20014 91111 93000
AAXX 06181 12465 11583 73107 10017 21006 39845 40082 53053 60062 70186 875// 333 10038 20017 91012 91114 93004
AAXX 06181 12566 11460 82807 10024 20014 39785 40082 51043 60032 76166 875// 333 10027 20005 91111 93001
AAXX 06181 12105 11584 52904 10018 21015 30052 40095 51022 69922 70382 85200 333 10039 20012 91110 93091
AAXX 06181 12195 11480 63305 10013 20010 39784 40013 52042 60012 72581 8453/ 333 10032 20007 93001
AAXX 06181 12235 11972 42804 10000 21006 39868 40082 51025 69962 70181 84030 333 10033 21001 91113 93092
AAXX 06181 12270 11484 73206 10011 21004 39871 40055 52048 60012 70282 873// 333 10042 20008 91113 93096
AAXX 06181 12280 11458 73206 10018 20006 39873 40031 52042 69942 78082 879// 333 10037 20018 91112 93093
AAXX 06181 12300 12580 63003 10019 21008 30031 40122 51028 69962 86500 333 10031 20018 91109 93000
AAXX 06181 12400 12682 73004 10013 21021 39890 40130 51030 69922 875// 333 10022 20012 91113 93000
AAXX 06181 12435 11583 73006 10016 21008 39927 40102 51046 69992 72582 875// 333 10037 20016 91011 91114 93094
AAXX 06181 12495 11250 83006 10030 20026 39736 40029 51045 60032 72562 886// 333 10030 20010 93001
AAXX 06181 12530 11580 83004 10021 20005 39911 40113 52047 60012 70252 885// 333 10032 20021 91009 91112 93092
AAXX 06181 12570 11356 83007 10027 20024 39739 40059 52046 60032 78386 889// 333 10032 20011 84707 88910 91113 93001
AAXX 06181 12580 11365 72806 10030 20023 39783 40044 51049 60022 72622 873// 333 10033 20019 87909 91111 93094
AAXX 06181 33088 12597 82802 10033 20004 39803 49993 52029 69902 885// 333 10059
AAXX 06181 33177 11597 82002 10024 20014 39753 49990 52032 69952 72582 889// 333 10045
AAXX 06181 33261 11396 82101 10055 20046 39817 49996 52016 60042 72162 886// 333 10057 88708
AAXX 06181 33275 11297 81605 10056 20051 39787 40007 52007 60052 76162 8772/ 333 10056 87705
AAXX 06181 33301 12497 82503 10020 20004 39719 40001 52030 69912 885// 333 10060 88616
AAXX 06181 33325 11996 82601 10012 20007 39733 40002 52025 69932 71062 80007 333 10047
AAXX 06181 33377 11294 81602 10059 20052 39806 49997 52016 60142 76162 8772/ 333 10064 86706
AAXX 06181 33415 32697 62503 10023 21007 39612 40010 52032 84530 333 10063
AAXX 06181 33429 12797 72503 10008 21011 39590 40015 52028 69902 83530 333 10050 83650
AAXX 06181 33466 31456 82001 10053 20041 39817 40002 52026 71022 885// 333 10064 85717
AAXX 06181 33526 12670 72902 10029 21007 39682 40020 52037 69902 85530 333 10081 85613
AAXX 06181 33562 31540 82903 10012 20001 39647 40009 52031 71022 8655/ 333 10043 86624
AAXX 06181 33614 11459 81902 10071 20062 39901 40004 52022 60012 76162 8872/ 333 10076 88713
AAXX 06181 33761 11496 81801 10048 20043 39776 49997 52020 60022 71022 886// 333 10060 88715
AAXX 06181 33902 11496 81704 10077 20065 39947 40012 52020 60032 78088 889// 333 10095
AAXX 06181 33983 32997 81406 10074 20062 39998 40058 52003 80001 333 10122
AAXX 06181 34415 NIL
AAXX 06181 34523 NIL
AAXX 06181 34712 31995 80905 10015 20012 39995 40082 52008 71011 80007 333 10053
AAXX 06184 78388 111574 60815 10268 20165 30152 40161 60001 70522 82802 333 01909 10286 20224 59013 82822 87072
AAXX 06184 DUPE
BBXX 61002 06184 99421 10047 46/// ///33 10122 2//// 40242 52006 22200 00133 10708 70038 555 1/044
AAXX 06184 60612 36/// /0000 10142 21084 333 10189
AAXX 06184 60619 36/// /3008 10155 21132 333 10219
AAXX 06184 60645 36/// /0000 10186 21065 333 10237
AAXX 06184 60663 36/// /1104 10167 21153 333 10218
AAXX 06184 08231 12970 73403 10097 20037 39189 48589 51008 60002 80008 333 10142
AAXX 06184 16008 11440 83507 11032 21062 38511 48471 52041 69902 77177 887// 333 11032 47047 88710 93103
AAXX 06184 64600 32960 70000 10245 20162 39436 40084 80002 333 10320 55034 59012 87080
AAXX 06184 64601 31956 00406 10230 20063 38988 48498 70411 333 10305 59009
AAXX 06184 64605 32960 50000 10228 20101 39349 40089 80002 333 10310 59005 85080
AAXX 06184 64610 32960 70000 10230 20175 3//// 4//// 80002 333 10335 5//// 87080
AAXX 06184 64650 31940 81204 10249 20162 39679 40092 70422 80002 333 10332 55070 59001 88080
AAXX 06184 64654 32960 70804 10238 20112 39527 40100 80002 333 10357 59017 87080
AAXX 06184 64655 32960 70000 10242 20152 39437 40082 80002 333 1//// 59012 87080
AAXX 06184 64656 32960 60000 10267 20225 39529 40078 80002 333 10322 59012 86080
AAXX 06184 64659 NIL
AAXX 06184 64660 32960 00000 10255 20159 39550 40076 333 10330 59009
AAXX 06184 64662 32960 50000 10253 20147 39577 40074 80002 333 10335 59005 85080
AAXX 06184 64665 32960 80000 10234 20169 3//// 4//// 80002 333 10335 5//// 88080
AAXX 06184 60621 36/// /3407 10190 21106 333 10245
AAXX 06181 76040 32960 03401 10180 20044 30163 40177 52002 91749 333 10184 20051 30/// 59057 98660
AAXX 06181 76055 32980 00302 10206 20020 30135 40154 52014 91740 333 10273 20088 30/// 59044
AAXX 06181 76056 06/// /0901 10234 21046 30145 40168 52018 60002 7//// 8//// 91750 333 0//// 10234 20091 30/// 4//// 54/// 56/// 57/// 59047 60007 8//// 8//// 8//// 9//// 9//// 9//// 44
AAXX 06181 76061 32981 11003 10170 20092 30110 40185 52020 80001 91740 333 10176 20080 30/// 56006 59046 81072
AAXX 06181 76122 32970 10000 10168 21041 38545 40216 52003 80002 91750 333 10170 21042 30/// 56009 59080
AAXX 06181 76123 06/// 11404 10199 21096 3//// 4//// 5//// 60002 7//// 80002 91750 333 0//// 10200 21044 56009 57/// 5//// 60007 8//// 8//// 8//// 8//// 9//// 9//// 9//// 444 ///// 555
AAXX 06181 76220 32958 20000 10056 21052 38178 40313 52003 80004 91740 333 10056 21094 30/// 56007 59038
AAXX 06181 76225 32960 01101 10152 21037 38637 40180 50002 91739 333 10152 21037 30/// 59085
AAXX 06181 76226 02/// ///// 1//// 2//// 3//// 4//// 5//// 6//// 7//// 8//// 9//// 333 0//// 1//// 2//// 30/// 4//// 54/// 56/// 57/// 5//// 6//// 8//// 8//// 8//// 9//// 9//// 9//// 44
AAXX 06181 76256 32980 00000 10200 20031 30170 40184 52022 91745 333 10219 20095 30/// 59005
AAXX 06181 76258 32970 21106 10246 20049 30123 40169 52015 80001 91750 333 10255 20072 30/// 59008
AAXX 06181 76305 32970 51602 10254 20032 30158 40166 50008 81014 91738 333 10254 20120 30/// 56066 59018 81460 84070
AAXX 06181 76342 32962 00101 10222 20031 39498 40217 57004 91750 333 10227 20080 30/// 59085
AAXX 06181 76373 32980 00000 10140 21029 38222 40171 57010 91755 333 10150 21054 30/// 58025
AAXX 06181 76382 32980 01103 10170 20067 38929 40205 52006 91750 333 10176 20048 30/// 59056
AAXX 06181 76390 32970 02804 10153 21011 38244 40209 57002 91730 333 10165 20023 30/// 59047
AAXX 06181 76393 32950 00601 10222 20077 39591 40172 57010 91755 333 10229 20094 30/// 59077
AAXX 06181 76402 31958 31403 10262 20068 30108 40165 52007 70544 80006 91750 333 10264 20086 30/// 56006 59011
AAXX 06181 76423 32975 32001 10138 20020 38174 40233 58002 80004 91740 333 10153 20005 30/// 56009 59021 83067
AAXX 06181 76458 31466 31302 10227 20181 30169 40174 58001 70144 82404 91745 333 10246 20139 30/// 56206 58001 82619 81079
AAXX 06181 76471 32980 32702 10166 21048 37705 40196 52005 80001 91755 333 10170 20001 30/// 56004 59023 83075
AAXX 06181 76490 06/// /1202 10212 20132 39794 40180 58005 69922 7//// 8//// 91750 333 0//// 10217 20124 30/// 54/// 56/// 57/// 59065 60007 8//// 8//// 8//// 8//// 9//// 9//// 9//// 44
AAXX 06181 76491 32960 01401 10210 20159 39812 40206 52002 91750 333 10216 20088 31/// 59075
AAXX 06181 76499 32560 41503 10230 20174 30159 40181 57008 84200 91745 333 10231 20136 32/// 563// 59074 84821
AAXX 06181 76525 32980 32704 10084 21020 37482 40198 52005 80001 91740 333 10086 20041 30/// 56//1 59009 83080
AAXX 06181 76538 06/// /0702 10173 20036 38176 40137 58006 60002 7//// 8//// 91750 333 0//// 10176 20028 30/// 4//// 54/// 56/// 57/// 59025 60007 8//// 8//// 8//// 9//// 9//// 9//// 44
AAXX 06181 76539 31962 20000 10150 20072 38177 40219 54000 70544 80005 91745 333 10165 20023 30/// 56005 59027 82070
AAXX 06181 76543 32975 13602 10232 20158 30172 40205 58012 80005 91739 333 10233 20156 31/// 56005 59067
AAXX 06181 76547 06/// /0502 10213 20175 30181 40193 58007 69922 7//// 8//// 91750 333 0//// 10224 20168 56/// 57/// 59059 60007 8//// 8//// 8//// 8//// 9//// 9//// 9//// 444 ///// 555
AAXX 06181 76548 11475 70802 10220 20175 30197 40207 58014 69941 70252 8513/ 91738 333 10224 20168 31/// 56130 59061 85612
AAXX 06181 76556 32970 61201 10240 20082 39138 40175 50010 80006 91730 333 10240 20108 30/// 56006 59005 86270 99021
AAXX 06181 76571 31965 40000 10164 20041 38188 40225 56001 705// 80004 91748 333 10170 20050 30/// 56005 59005
AAXX 06181 76577 32570 72303 10157 20119 38058 40201 50005 87403 91740 333 10164 20055 30/// 56105 59013 81625 86082
AAXX 06181 76578 06/// /2204 10160 20021 38054 40143 58003 60002 7//// 8//// 91750 333 0//// 10162 20059 30/// 4//// 54/// 56/// 57/// 59013 60007 8//// 8//// 8//// 9//// 9//// 9//// 44
AAXX 06181 76581 32975 62502 10181 20128 39087 40212 57004 84036 91750 333 10188 20087 30/// 56033 59053 84360
AAXX 06181 76585 32980 20000 10190 20157 30031 40188 58009 80006 91740 333 10210 20138 30/// 56//6 59062 82067
AAXX 06181 76586 06/// /1601 10239 20168 30034 40188 58008 60002 7//// 8//// 91750 333 0//// 10239 20148 30/// 4//// 54/// 56/// 57/// 59062 60007 8//// 8//// 8//// 9//// 9//// 9//// 44
AAXX 06181 76592 06/// /1107 10279 20099 30196 40196 58022 60002 7//// 8//// 91750 333 0//// 10279 20125 30/// 4//// 54/// 56/// 57/// 59053 60007 8//// 8//// 8//// 9//// 9//// 9//// 44
AAXX 06181 76593 32370 12205 10264 20222 30196 40198 57023 81100 91750 333 10281 20120 30/// 565// 59053 81820 91006 91522
AAXX 06181 76612 32962 61701 10170 20034 38499 40213 58002 80005 91750 333 10181 20060 30/// 56006 59007 86272
AAXX 06181 76625 32750 33203 10171 20053 38162 40188 52004 83030 91740 333 10173 20089 30/// 56060 59013 83357
AAXX 06181 76632 31550 52303 10128 20065 37639 40172 57003 70511 85800 91745 333 10136 20052 30/// 56600 59010 85726
AAXX 06181 76634 31570 63505 10164 20049 37858 40213 57001 70511 85204 91750 333 10174 20030 30/// 565/5 59023 85827
AAXX 06181 76641 06/// /1301 10215 20179 30188 40200 58004 60002 7//// 8//// 91750 333 0//// 10215 20167 30/// 4//// 54/// 56/// 57/// 59054 60007 8//// 8//// 8//// 8//// 9//// 9//// 9/
AAXX 06181 76644 32460 31102 10271 20115 30184 40197 57027 81101 91750 333 10277 20135 30/// 563/9 59047 81810
AAXX 06181 76645 06/// /1103 10273 20113 30186 40199 58023 60002 7//// 8//// 91750 333 0//// 10276 20128 30/// 4//// 54/// 56/// 57/// 59051 60007 8//// 8//// 8//// 9//// 9//// 9//// 44
AAXX 06181 76648 06/// /0903 10292 20100 30164 40194 58026 60002 7//// 8//// 91750 333 0//// 10295 20121 30/// 4//// 54/// 56/// 57/// 59049 60007 8//// 8//// 8//// 8//// 9//// 9//// 9/
AAXX 06181 76654 31940 52502 10285 20232 30166 40170 50000 70544 80001 91750 333 10286 20207 30/// 56900 59026 85070
AAXX 06181 76658 31960 42702 10274 20144 39652 40162 56011 70541 80002 91748 333 10280 20155 30/// 56001 59012 84070 98924
AAXX 06181 76659 06/// /0102 10292 20100 3//// 4//// 5//// 60002 7//// 8//// 91750 333 0//// 10300 20142 30/// 4//// 54/// 56/// 57/// 5//// 60007 8//// 8//// 8//// 9//// 9//// 9//// 44
AAXX 06181 76662 32670 43102 10213 20078 38480 40185 54000 70544 81105 91745 333 10214 20072 30/// 5620/ 59016 81833
AAXX 06181 76665 31562 21603 10209 20078 38130 40175 57007 70310 82200 91745 333 10220 20065 30/// 56100 57811 59015 82824
AAXX 06181 76675 31575 31101 10158 21017 37380 40210 54000 70544 82204 91753 333 10167 21011 30/// 569/9 59012 82826 98475
AAXX 06181 76681 31970 20502 10190 20040 37782 40187 57005 70510 80008 91745 333 10190 20020 30/// 59019 82077
AAXX 06181 76684 02/// ///// 1//// 2//// 3//// 4//// 5//// 6//// 7//// 8//// 9//// 333 0//// 1//// 2//// 30/// 4//// 54/// 56/// 57/// 5//// 6//// 8//// 8//// 8//// 9//// 9//// 9//// 44
AAXX 06181 76685 31550 61501 10166 20035 37875 40189 54000 70544 81106 91750 333 10168 20040 30/// 56909 59015 81827 85277
AAXX 06181 76695 32960 00303 10272 20155 30178 40184 57017 91750 333 10275 20127 30/// 59046
AAXX 06181 76698 32560 20401 10275 20195 30193 40205 57019 82200 91750 333 10291 20145 30/// 56100 59039 82820
AAXX 06181 76726 32970 02001 10244 20135 38413 40143 52013 91755 333 10244 20114 30/// 59015
AAXX 06181 76727 06/// /1601 10228 20050 38407 40096 58005 60002 7//// 8//// 91750 333 0//// 10228 20109 30/// 4//// 54/// 56/// 57/// 59017 60007 8//// 8//// 8//// 9//// 9//// 9//// 44
AAXX 06181 76738 06/// /1402 10150 20110 38794 40184 58007 60002 7//// 8//// 333 10169 20111 30/// 56/// 57/// 59046 60007 8//// 8//// 8//// 8//// 9//// 9//// 9//// 444 ///// 555 30179
AAXX 06181 76743 31557 60903 10239 20185 30171 40179 57017 70211 862// 91750 333 10250 20186 30/// 562// 59052 86822
AAXX 06181 76750 32560 10903 10279 20150 30186 40197 57017 81100 91750 333 10279 20141 30/// 56100 59045 81820
AAXX 06181 76751 02/// ///// 1//// 2//// 3//// 4//// 5//// 6//// 7//// 8//// 9//// 333 0//// 1//// 2//// 30/// 4//// 54/// 56/// 57/// 5//// 6//// 8//// 8//// 8//// 9//// 9//// 9//// 44
AAXX 06181 76762 32904 33302 10260 20209 38772 40168 57011 80001 91739 333 10264 20108 30/// 56006 59017 83070
AAXX 06181 76772 06/// /2101 10233 20063 38438 40117 58009 60002 7//// 8//// 91750 333 0//// 10236 20054 30/// 4//// 56/// 57/// 59013 60007 8//// 8//// 8//// 9//// 9//// 9//// 444 ////
AAXX 06181 76773 31568 30901 10226 20058 38429 40155 57014 70500 81103 91746 333 10228 20062 30/// 56209 59021 81820
AAXX 06181 76775 31970 31801 10227 20062 38532 40199 57017 70300 80002 91730 333 10229 20060 30/// 56002 59026
AAXX 06181 76776 06/// /2401 10224 20037 38513 40113 58020 60002 7//// 8//// 91750 333 0//// 10225 20055 30/// 4//// 56/// 57/// 59026 60007 8//// 8//// 8//// 9//// 9//// 9//// 444 ////
AAXX 06181 76805 32570 61701 10293 20227 30141 40146 58009 82109 91750 333 10315 20218 30/// 561/5 59011 82830 82163 82064
AAXX 06181 76806 06/// /1702 10299 20219 30143 40147 58010 60002 7//// 8//// 91750 333 10307 20214 30/// 56/// 57/// 59011 60007 8//// 8//// 8//// 8//// 9//// 9//// 9//// 555 30272
AAXX 06181 76833 32970 03608 10286 20157 30147 40149 57001 91745 333 10286 20208 30/// 59026 92000
AAXX 06181 76840 32950 00304 10296 20197 30090 40146 57014 80000 91745 333 10305 20195 30/// 56000 58072 80000
AAXX 06181 76843 32965 00202 10230 20132 39512 40163 57002 91737 333 10244 20135 30/// 59004
AAXX 06181 76845 32960 01702 10210 20140 37953 40218 56017 91747 333 10218 20038 30/// 59015
AAXX 06181 76848 32970 00701 10208 20101 38390 40128 57013 91750 333 10208 20103 30/// 59031
AAXX 06181 76902 06/// /2902 10291 20206 30008 40145 58017 60002 7//// 8//// 91750 333 0//// 10313 20229 30/// 4//// 54/// 56/// 57/// 59013 60007 8//// 8//// 8//// 8//// 9//// 9//// 9/
AAXX 06181 76903 32580 42802 10302 20219 30011 40141 57014 84200 91750 333 10315 20228 30/// 56600 59013 84833
AAXX 06181 76160 32962 30201 10196 21022 39926 40177 52019 80006 91730 333 10196 20090 30/// 56009 59019 83070
AAXX 06181 76243 32973 00601 10196 20069 39875 40177 57009 91735 333 10208 20040 30/// 59108
AAXX 06181 76253 32782 22302 10230 20087 30087 40177 51018 82020 91459 333 10235 20130 30/// 56/5/ 59023 82457 92002
AAXX 06181 76311 32980 00000 10254 20090 39888 40171 52013 91755 333 10262 20088 30/// 59008
AAXX 06181 76323 32970 03001 10182 21022 38296 40287 52008 91740 333 10182 21022 30/// 59058
AAXX 06181 76405 32980 60000 10239 20140 30152 40174 57005 80005 91750 333 10240 20118 30/// 56004 59014 86080
AAXX 06181 76412 32966 02201 10220 20163 30144 40189 57002 91740 333 10230 20120 30/// 58000
AAXX 06181 76647 32670 20903 10282 20126 30179 40209 57020 81101 91750 333 10286 20130 30/// 54305 5630/ 59052 81850
AAXX 06181 76656 32975 30000 10223 20027 38524 40194 54000 80008 91748 333 10230 20048 30/// 56005 59010 83280
AAXX 06181 76855 32580 71301 10288 20221 30085 40135 51008 82270 91740 333 10295 20216 30/// 56990 59015 82820 85360 92000
AAXX 06181 02019 07/99 /2502 11107 21133 39360 49994 52005 69922 70070 333 11069 21115 60005 90710 91104
AAXX 06181 02081 07/58 /3503 11067 21081 39570 49978 52006 69912 77170 333 11067 21091 69905 90710 91105
AAXX 06181 02095 07470 /0103 11054 21069 39745 49950 52014 69972 70070 333 11053 21098 60005 88/13 90710 91106
AAXX 06181 02101 45684 /9901 11222 21247 39418 40001 53008 8//// 333 11148 21225 81/47
AAXX 06181 02119 07575 /0102 11053 21081 39582 49971 53017 69912 70087 333 11039 21128 60005 87/31 90710 91106
AAXX 06181 02124 07579 /3503 11063 21087 39422 49951 53010 60012 70070 333 11063 21121 60005 88/22 90710 91108
AAXX 06181 02126 07434 /3204 11070 21086 39595 49936 53003 69952 77170 333 11070 21160 69915 88/18 90710 91107
AAXX 06181 02151 17483 83604 11058 21070 39605 49943 51012 60052 77770 333 11057 21093 60005 88/14 91008 90710 91108 90710 91205
AAXX 06181 02186 07329 83604 11060 21069 39878 49903 51007 60032 77174 333 11059 21088 69945 81/08 83/11 88/19 91006 90710 91107 90710 91204
AAXX 06181 02197 07/38 /0205 11045 21048 39884 49903 53014 60032 77177 333 11045 21083 69915 90710 91108
AAXX 06181 02207 07481 /3106 11050 21054 39272 49975 51015 60042 70087 333 11031 21051 69915 87/14 90710 91112
AAXX 06181 02219 07/61 /3501 11120 21131 39293 49973 51020 60022 70087 333 11052 21137 69915 90710 91104
AAXX 06181 02226 47561 /0102 11057 21065 39500 49958 50019 724// 8//// 333 11019 21061 88/24
AAXX 06181 02243 07/58 /2802 11172 21184 39670 49947 54001 60002 71010 333 11128 21199 60005 90710 91104
AAXX 06181 02269 07656 /3004 11083 21100 69902 77171 333 11063 21086 69905 86/39 87/57 90710 91107
AAXX 06181 02287 07516 /3205 11079 21091 39899 49909 55003 69952 77170 333 11077 21086 69945 87/20 88/58 90710 91109
AAXX 06181 02297 07313 /3107 11066 21068 39856 49901 52003 60042 77177 333 11065 21080 69945 81/08 85/16 87/28 90710 91110
AAXX 06181 02308 07/99 /3101 11067 21091 39109 49976 53009 69902 70087 333 11037 21089 60005 90710 91106
AAXX 06181 02327 07/99 /3002 11055 21062 39525 49963 53004 69902 70087 333 11034 21155 60005 90710 91105
AAXX 06181 02355 07658 /2805 11022 21041 39920 49932 58010 69902 77170 333 11021 21051 69905 81/36 83/43 85/50 87/// 90710 91108
AAXX 06181 02366 47684 /3103 11063 21075 39934 49940 54000 724// 8//// 333 11053 21099 88/46
AAXX 06181 02407 05880 /3102 11063 21074 39619 49993 58008 60002 333 11051 21154 60005 83/56 87/59 90710 91104
AAXX 06181 02418 45984 /2304 11016 21054 39879 40012 56018 8//// 333 11015 21058 81/61
AAXX 06181 02435 45984 /2804 11028 21075 39787 49976 58015 8//// 333 11025 21074
AAXX 06181 02440 05999 /2703 11040 21064 60002 333 11040 21086 60005 81/60 87/63 90710 91107
AAXX 06181 02452 05999 /2604 11033 21056 60002 333 11033 21064 60005 81/72 90710 91108
AAXX 06181 02456 05999 /2102 11051 21075 39920 49964 58016 60002 333 11034 21064 60005 90710 91104
AAXX 06181 02469 05/99 /2605 11038 21074 60002 333 11024 21061 60005 90710 91107
AAXX 06181 02498 05/83 /2712 11005 21046 39951 49967 58012 69912 333 10002 21022 60005 90710 91115
AAXX 06181 02518 46/// /2506 10033 20012 333 10036 20005 90710 91108
AAXX 06181 02520 35983 02105 11020 21054 39973 40041 58018 60002 333 10001 21040 60005 91007 90710 91107 90710 91205
AAXX 06181 02550 45984 /2004 11051 21051 39770 40050 58009 8//// 333 11016 21066
AAXX 06181 02562 35984 12406 11019 21048 39912 40029 58009 60002 333 11012 21036 60005 81/73 91009 90710 91111 90710 91207
AAXX 06181 02563 05/99 /2906 11009 21049 39995 40017 55003 60002 333 11004 21021 60005 90710 91110
AAXX 06181 02565 05967 /2604 11027 21047 39928 40049 50001 60002 333 10001 21027 60005 85/73 90710 91108
AAXX 06181 02589 05599 /2906 10001 21033 39974 49996 50000 69912 333 10008 21009 60005 90710 91111
AAXX 06181 02590 45984 /2806 10011 21034 39959 40021 51006 8//// 333 10014 21003
AAXX 06181 02618 07/58 /2002 11035 21046 39902 40069 58009 60002 71010 333 11002 21039 60005 90710 91104
AAXX 06181 02664 35984 02702 11024 21046 30000 40073 50006 60002 333 10013 21026 60005 91003 90710 91105 90710 91203
AAXX 06181 02679 05/99 /3008 10006 21035 39991 40037 51008 69942 333 10019 21002 60005 90710 91112
AAXX 06181 76040 32960 03401 10180 20044 30163 40177 52002 91749 333 10184 20051 30/// 59057 98660
AAXX 06181 76055 32980 00302 10206 20020 30135 40154 52014 91740 333 10273 20088 30/// 59044
AAXX 06181 76056 06/// /0901 10234 21046 30145 40168 52018 60002 7//// 8//// 91750 333 0//// 10234 20091 30/// 4//// 54/// 56/// 57/// 59047 60007 8//// 8//// 8//// 9//// 9//// 9//// 44
AAXX 06181 76061 32981 11003 10170 20092 30110 40185 52020 80001 91740 333 10176 20080 30/// 56006 59046 81072
AAXX 06181 76122 32970 10000 10168 21041 38545 40216 52003 80002 91750 333 10170 21042 30/// 56009 59080
AAXX 06181 76123 06/// 11404 10199 21096 3//// 4//// 5//// 60002 7//// 80002 91750 333 0//// 10200 21044 56009 57/// 5//// 60007 8//// 8//// 8//// 8//// 9//// 9//// 9//// 444 ///// 555
AAXX 06181 76220 32958 20000 10056 21052 38178 40313 52003 80004 91740 333 10056 21094 30/// 56007 59038
AAXX 06181 76225 32960 01101 10152 21037 38637 40180 50002 91739 333 10152 21037 30/// 59085
AAXX 06181 76226 02/// ///// 1//// 2//// 3//// 4//// 5//// 6//// 7//// 8//// 9//// 333 0//// 1//// 2//// 30/// 4//// 54/// 56/// 57/// 5//// 6//// 8//// 8//// 8//// 9//// 9//// 9//// 44
AAXX 06181 76256 32980 00000 10200 20031 30170 40184 52022 91745 333 10219 20095 30/// 59005
AAXX 06181 76258 32970 21106 10246 20049 30123 40169 52015 80001 91750 333 10255 20072 30/// 59008
AAXX 06181 76305 32970 51602 10254 20032 30158 40166 50008 81014 91738 333 10254 20120 30/// 56066 59018 81460 84070
AAXX 06181 76342 32962 00101 10222 20031 39498 40217 57004 91750 333 10227 20080 30/// 59085
AAXX 06181 76373 32980 00000 10140 21029 38222 40171 57010 91755 333 10150 21054 30/// 58025
AAXX 06181 76382 32980 01103 10170 20067 38929 40205 52006 91750 333 10176 20048 30/// 59056
AAXX 06181 76390 32970 02804 10153 21011 38244 40209 57002 91730 333 10165 20023 30/// 59047
AAXX 06181 76393 32950 00601 10222 20077 39591 40172 57010 91755 333 10229 20094 30/// 59077
AAXX 06181 76402 31958 31403 10262 20068 30108 40165 52007 70544 80006 91750 333 10264 20086 30/// 56006 59011
AAXX 06181 76423 32975 32001 10138 20020 38174 40233 58002 80004 91740 333 10153 20005 30/// 56009 59021 83067
AAXX 06181 76458 31466 31302 10227 20181 30169 40174 58001 70144 82404 91745 333 10246 20139 30/// 56206 58001 82619 81079
AAXX 06181 76471 32980 32702 10166 21048 37705 40196 52005 80001 91755 333 10170 20001 30/// 56004 59023 83075
AAXX 06181 76490 06/// /1202 10212 20132 39794 40180 58005 69922 7//// 8//// 91750 333 0//// 10217 20124 30/// 54/// 56/// 57/// 59065 60007 8//// 8//// 8//// 8//// 9//// 9//// 9//// 44
AAXX 06181 76491 32960 01401 10210 20159 39812 40206 52002 91750 333 10216 20088 31/// 59075
AAXX 06181 76499 32560 41503 10230 20174 30159 40181 57008 84200 91745 333 10231 20136 32/// 563// 59074 84821
AAXX 06181 76525 32980 32704 10084 21020 37482 40198 52005 80001 91740 333 10086 20041 30/// 56//1 59009 83080
AAXX 06181 76538 06/// /0702 10173 20036 38176 40137 58006 60002 7//// 8//// 91750 333 0//// 10176 20028 30/// 4//// 54/// 56/// 57/// 59025 60007 8//// 8//// 8//// 9//// 9//// 9//// 44
AAXX 06181 76539 31962 20000 10150 20072 38177 40219 54000 70544 80005 91745 333 10165 20023 30/// 56005 59027 82070
AAXX 06181 76543 32975 13602 10232 20158 30172 40205 58012 80005 91739 333 10233 20156 31/// 56005 59067
AAXX 06181 76547 06/// /0502 10213 20175 30181 40193 58007 69922 7//// 8//// 91750 333 0//// 10224 20168 56/// 57/// 59059 60007 8//// 8//// 8//// 8//// 9//// 9//// 9//// 444 ///// 555
AAXX 06181 76548 11475 70802 10220 20175 30197 40207 58014 69941 70252 8513/ 91738 333 10224 20168 31/// 56130 59061 85612
AAXX 06181 76556 32970 61201 10240 20082 39138 40175 50010 80006 91730 333 10240 20108 30/// 56006 59005 86270 99021
AAXX 06181 76571 31965 40000 10164 20041 38188 40225 56001 705// 80004 91748 333 10170 20050 30/// 56005 59005
AAXX 06181 76577 32570 72303 10157 20119 38058 40201 50005 87403 91740 333 10164 20055 30/// 56105 59013 81625 86082
AAXX 06181 76578 06/// /2204 10160 20021 38054 40143 58003 60002 7//// 8//// 91750 333 0//// 10162 20059 30/// 4//// 54/// 56/// 57/// 59013 60007 8//// 8//// 8//// 9//// 9//// 9//// 44
AAXX 06181 76581 32975 62502 10181 20128 39087 40212 57004 84036 91750 333 10188 20087 30/// 56033 59053 84360
AAXX 06181 76585 32980 20000 10190 20157 30031 40188 58009 80006 91740 333 10210 20138 30/// 56//6 59062 82067
AAXX 06181 76586 06/// /1601 10239 20168 30034 40188 58008 60002 7//// 8//// 91750 333 0//// 10239 20148 30/// 4//// 54/// 56/// 57/// 59062 60007 8//// 8//// 8//// 9//// 9//// 9//// 44
AAXX 06181 76592 06/// /1107 10279 20099 30196 40196 58022 60002 7//// 8//// 91750 333 0//// 10279 20125 30/// 4//// 54/// 56/// 57/// 59053 60007 8//// 8//// 8//// 9//// 9//// 9//// 44
AAXX 06181 76593 32370 12205 10264 20222 30196 40198 57023 81100 91750 333 10281 20120 30/// 565// 59053 81820 91006 91522
AAXX 06181 76612 32962 61701 10170 20034 38499 40213 58002 80005 91750 333 10181 20060 30/// 56006 59007 86272
AAXX 06181 76625 32750 33203 10171 20053 38162 40188 52004 83030 91740 333 10173 20089 30/// 56060 59013 83357
AAXX 06181 76632 31550 52303 10128 20065 37639 40172 57003 70511 85800 91745 333 10136 20052 30/// 56600 59010 85726
AAXX 06181 76634 31570 63505 10164 20049 37858 40213 57001 70511 85204 91750 333 10174 20030 30/// 565/5 59023 85827
AAXX 06181 76641 06/// /1301 10215 20179 30188 40200 58004 60002 7//// 8//// 91750 333 0//// 10215 20167 30/// 4//// 54/// 56/// 57/// 59054 60007 8//// 8//// 8//// 8//// 9//// 9//// 9/
AAXX 06181 76644 32460 31102 10271 20115 30184 40197 57027 81101 91750 333 10277 20135 30/// 563/9 59047 81810
AAXX 06181 76645 06/// /1103 10273 20113 30186 40199 58023 60002 7//// 8//// 91750 333 0//// 10276 20128 30/// 4//// 54/// 56/// 57/// 59051 60007 8//// 8//// 8//// 9//// 9//// 9//// 44
AAXX 06181 76648 06/// /0903 10292 20100 30164 40194 58026 60002 7//// 8//// 91750 333 0//// 10295 20121 30/// 4//// 54/// 56/// 57/// 59049 60007 8//// 8//// 8//// 8//// 9//// 9//// 9/
AAXX 06181 76654 31940 52502 10285 20232 30166 40170 50000 70544 80001 91750 333 10286 20207 30/// 56900 59026 85070
AAXX 06181 76658 31960 42702 10274 20144 39652 40162 56011 70541 80002 91748 333 10280 20155 30/// 56001 59012 84070 98924
AAXX 06181 76659 06/// /0102 10292 20100 3//// 4//// 5//// 60002 7//// 8//// 91750 333 0//// 10300 20142 30/// 4//// 54/// 56/// 57/// 5//// 60007 8//// 8//// 8//// 9//// 9//// 9//// 44
AAXX 06181 76662 32670 43102 10213 20078 38480 40185 54000 70544 81105 91745 333 10214 20072 30/// 5620/ 59016 81833
AAXX 06181 76665 31562 21603 10209 20078 38130 40175 57007 70310 82200 91745 333 10220 20065 30/// 56100 57811 59015 82824
AAXX 06181 76675 31575 31101 10158 21017 37380 40210 54000 70544 82204 91753 333 10167 21011 30/// 569/9 59012 82826 98475
AAXX 06181 76681 31970 20502 10190 20040 37782 40187 57005 70510 80008 91745 333 10190 20020 30/// 59019 82077
AAXX 06181 76684 02/// ///// 1//// 2//// 3//// 4//// 5//// 6//// 7//// 8//// 9//// 333 0//// 1//// 2//// 30/// 4//// 54/// 56/// 57/// 5//// 6//// 8//// 8//// 8//// 9//// 9//// 9//// 44
AAXX 06181 76685 31550 61501 10166 20035 37875 40189 54000 70544 81106 91750 333 10168 20040 30/// 56909 59015 81827 85277
AAXX 06181 76695 32960 00303 10272 20155 30178 40184 57017 91750 333 10275 20127 30/// 59046
AAXX 06181 76698 32560 20401 10275 20195 30193 40205 57019 82200 91750 333 10291 20145 30/// 56100 59039 82820
AAXX 06181 76726 32970 02001 10244 20135 38413 40143 52013 91755 333 10244 20114 30/// 59015
AAXX 06181 76727 06/// /1601 10228 20050 38407 40096 58005 60002 7//// 8//// 91750 333 0//// 10228 20109 30/// 4//// 54/// 56/// 57/// 59017 60007 8//// 8//// 8//// 9//// 9//// 9//// 44
AAXX 06181 76738 06/// /1402 10150 20110 38794 40184 58007 60002 7//// 8//// 333 10169 20111 30/// 56/// 57/// 59046 60007 8//// 8//// 8//// 8//// 9//// 9//// 9//// 444 ///// 555 30179
AAXX 06181 76743 31557 60903 10239 20185 30171 40179 57017 70211 862// 91750 333 10250 20186 30/// 562// 59052 86822
AAXX 06181 76750 32560 10903 10279 20150 30186 40197 57017 81100 91750 333 10279 20141 30/// 56100 59045 81820
AAXX 06181 76751 02/// ///// 1//// 2//// 3//// 4//// 5//// 6//// 7//// 8//// 9//// 333 0//// 1//// 2//// 30/// 4//// 54/// 56/// 57/// 5//// 6//// 8//// 8//// 8//// 9//// 9//// 9//// 44
AAXX 06181 76762 32904 33302 10260 20209 38772 40168 57011 80001 91739 333 10264 20108 30/// 56006 59017 83070
AAXX 06181 76772 06/// /2101 10233 20063 38438 40117 58009 60002 7//// 8//// 91750 333 0//// 10236 20054 30/// 4//// 56/// 57/// 59013 60007 8//// 8//// 8//// 9//// 9//// 9//// 444 ////
AAXX 06181 76773 31568 30901 10226 20058 38429 40155 57014 70500 81103 91746 333 10228 20062 30/// 56209 59021 81820
AAXX 06181 76775 31970 31801 10227 20062 38532 40199 57017 70300 80002 91730 333 10229 20060 30/// 56002 59026
AAXX 06181 76776 06/// /2401 10224 20037 38513 40113 58020 60002 7//// 8//// 91750 333 0//// 10225 20055 30/// 4//// 56/// 57/// 59026 60007 8//// 8//// 8//// 9//// 9//// 9//// 444 ////
AAXX 06181 76805 32570 61701 10293 20227 30141 40146 58009 82109 91750 333 10315 20218 30/// 561/5 59011 82830 82163 82064
AAXX 06181 76806 06/// /1702 10299 20219 30143 40147 58010 60002 7//// 8//// 91750 333 10307 20214 30/// 56/// 57/// 59011 60007 8//// 8//// 8//// 8//// 9//// 9//// 9//// 555 30272
AAXX 06181 76833 32970 03608 10286 20157 30147 40149 57001 91745 333 10286 20208 30/// 59026 92000
AAXX 06181 76840 32950 00304 10296 20197 30090 40146 57014 80000 91745 333 10305 20195 30/// 56000 58072 80000
AAXX 06181 76843 32965 00202 10230 20132 39512 40163 57002 91737 333 10244 20135 30/// 59004
AAXX 06181 76845 32960 01702 10210 20140 37953 40218 56017 91747 333 10218 20038 30/// 59015
AAXX 06181 76848 32970 00701 10208 20101 38390 40128 57013 91750 333 10208 20103 30/// 59031
AAXX 06181 76902 06/// /2902 10291 20206 30008 40145 58017 60002 7//// 8//// 91750 333 0//// 10313 20229 30/// 4//// 54/// 56/// 57/// 59013 60007 8//// 8//// 8//// 8//// 9//// 9//// 9/
AAXX 06181 76903 32580 42802 10302 20219 30011 40141 57014 84200 91750 333 10315 20228 30/// 56600 59013 84833
AAXX 06181 76160 32962 30201 10196 21022 39926 40177 52019 80006 91730 333 10196 20090 30/// 56009 59019 83070
AAXX 06181 76243 32973 00601 10196 20069 39875 40177 57009 91735 333 10208 20040 30/// 59108
AAXX 06181 76253 32782 22302 10230 20087 30087 40177 51018 82020 91459 333 10235 20130 30/// 56/5/ 59023 82457 92002
AAXX 06181 76311 32980 00000 10254 20090 39888 40171 52013 91755 333 10262 20088 30/// 59008
AAXX 06181 76323 32970 03001 10182 21022 38296 40287 52008 91740 333 10182 21022 30/// 59058
AAXX 06181 76405 32980 60000 10239 20140 30152 40174 57005 80005 91750 333 10240 20118 30/// 56004 59014 86080
AAXX 06181 76412 32966 02201 10220 20163 30144 40189 57002 91740 333 10230 20120 30/// 58000
AAXX 06181 76647 32670 20903 10282 20126 30179 40209 57020 81101 91750 333 10286 20130 30/// 54305 5630/ 59052 81850
AAXX 06181 76656 32975 30000 10223 20027 38524 40194 54000 80008 91748 333 10230 20048 30/// 56005 59010 83280
AAXX 06181 76855 32580 71301 10288 20221 30085 40135 51008 82270 91740 333 10295 20216 30/// 56990 59015 82820 85360 92000
AAXX 06181 76040 32960 03401 10180 20044 30163 40177 52002 91749 33310184 20051 30/// 59057 98660
AAXX 06181 76055 32980 00302 10206 20020 30135 40154 52014 91740 33310273 20088 30/// 59044
AAXX 06181 76056 06/// /0901 10234 21046 30145 40168 52018 60002 7////8//// 91750 333 0//// 10234 20091 30/// 4//// 54/// 56///57/// 59047 60007 8//// 8//// 8//// 9//// 9//// 9//// 44
AAXX 06181 76061 32981 11003 10170 20092 30110 40185 52020 80001 91740333 10176 20080 30/// 56006 59046 81072
AAXX 06181 76122 32970 10000 10168 21041 38545 40216 52003 80002 91750333 10170 21042 30/// 56009 59080
AAXX 06181 76123 06/// 11404 10199 21096 3//// 4//// 5//// 60002 7////80002 91750 333 0//// 10200 21044 56009 57/// 5//// 600078//// 8//// 8//// 8//// 9//// 9//// 9//// 444 ///// 555
AAXX 06181 76220 32958 20000 10056 21052 38178 40313 52003 80004 91740333 10056 21094 30/// 56007 59038
AAXX 06181 76225 32960 01101 10152 21037 38637 40180 50002 91739 33310152 21037 30/// 59085
AAXX 06181 76226 02/// ///// 1//// 2//// 3//// 4//// 5//// 6//// 7////8//// 9//// 333 0//// 1//// 2//// 30/// 4//// 54/// 56///57/// 5//// 6//// 8//// 8//// 8//// 9//// 9//// 9//// 44
AAXX 06181 76256 32980 00000 10200 20031 30170 40184 52022 91745 33310219 20095 30/// 59005
AAXX 06181 76258 32970 21106 10246 20049 30123 40169 52015 80001 91750333 10255 20072 30/// 59008
AAXX 06181 76305 32970 51602 10254 20032 30158 40166 50008 81014 91738333 10254 20120 30/// 56066 59018 81460 84070
AAXX 06181 76342 32962 00101 10222 20031 39498 40217 57004 91750 33310227 20080 30/// 59085
AAXX 06181 76373 32980 00000 10140 21029 38222 40171 57010 91755 33310150 21054 30/// 58025
AAXX 06181 76382 32980 01103 10170 20067 38929 40205 52006 91750 33310176 20048 30/// 59056
AAXX 06181 76390 32970 02804 10153 21011 38244 40209 57002 91730 33310165 20023 30/// 59047
AAXX 06181 76393 32950 00601 10222 20077 39591 40172 57010 91755 33310229 20094 30/// 59077
AAXX 06181 76402 31958 31403 10262 20068 30108 40165 52007 70544 8000691750 333 10264 20086 30/// 56006 59011
AAXX 06181 76423 32975 32001 10138 20020 38174 40233 58002 80004 91740333 10153 20005 30/// 56009 59021 83067
AAXX 06181 76458 31466 31302 10227 20181 30169 40174 58001 70144 8240491745 333 10246 20139 30/// 56206 58001 82619 81079
AAXX 06181 76471 32980 32702 10166 21048 37705 40196 52005 80001 91755333 10170 20001 30/// 56004 59023 83075
AAXX 06181 76490 06/// /1202 10212 20132 39794 40180 58005 69922 7////8//// 91750 333 0//// 10217 20124 30/// 54/// 56/// 57///59065 60007 8//// 8//// 8//// 8//// 9//// 9//// 9//// 44
AAXX 06181 76491 32960 01401 10210 20159 39812 40206 52002 91750 33310216 20088 31/// 59075
AAXX 06181 76499 32560 41503 10230 20174 30159 40181 57008 84200 91745333 10231 20136 32/// 563// 59074 84821
AAXX 06181 76525 32980 32704 10084 21020 37482 40198 52005 80001 91740333 10086 20041 30/// 56//1 59009 83080
AAXX 06181 76538 06/// /0702 10173 20036 38176 40137 58006 60002 7////8//// 91750 333 0//// 10176 20028 30/// 4//// 54/// 56///57/// 59025 60007 8//// 8//// 8//// 9//// 9//// 9//// 44
AAXX 06181 76539 31962 20000 10150 20072 38177 40219 54000 70544 8000591745 333 10165 20023 30/// 56005 59027 82070
AAXX 06181 76543 32975 13602 10232 20158 30172 40205 58012 80005 91739333 10233 20156 31/// 56005 59067
AAXX 06181 76547 06/// /0502 10213 20175 30181 40193 58007 69922 7////8//// 91750 333 0//// 10224 20168 56/// 57/// 59059 600078//// 8//// 8//// 8//// 9//// 9//// 9//// 444 ///// 555
AAXX 06181 76548 11475 70802 10220 20175 30197 40207 58014 69941 702528513/ 91738 333 10224 20168 31/// 56130 59061 85612
AAXX 06181 76556 32970 61201 10240 20082 39138 40175 50010 80006 91730333 10240 20108 30/// 56006 59005 86270 99021
AAXX 06181 76571 31965 40000 10164 20041 38188 40225 56001 705// 8000491748 333 10170 20050 30/// 56005 59005
AAXX 06181 76577 32570 72303 10157 20119 38058 40201 50005 87403 91740333 10164 20055 30/// 56105 59013 81625 86082
AAXX 06181 76578 06/// /2204 10160 20021 38054 40143 58003 60002 7////8//// 91750 333 0//// 10162 20059 30/// 4//// 54/// 56///57/// 59013 60007 8//// 8//// 8//// 9//// 9//// 9//// 44
AAXX 06181 76581 32975 62502 10181 20128 39087 40212 57004 84036 91750333 10188 20087 30/// 56033 59053 84360
AAXX 06181 76585 32980 20000 10190 20157 30031 40188 58009 80006 91740333 10210 20138 30/// 56//6 59062 82067
AAXX 06181 76586 06/// /1601 10239 20168 30034 40188 58008 60002 7////8//// 91750 333 0//// 10239 20148 30/// 4//// 54/// 56///57/// 59062 60007 8//// 8//// 8//// 9//// 9//// 9//// 44
AAXX 06181 76592 06/// /1107 10279 20099 30196 40196 58022 60002 7////8//// 91750 333 0//// 10279 20125 30/// 4//// 54/// 56///57/// 59053 60007 8//// 8//// 8//// 9//// 9//// 9//// 44
AAXX 06181 76593 32370 12205 10264 20222 30196 40198 57023 81100 91750333 10281 20120 30/// 565// 59053 81820 91006 91522
AAXX 06181 76612 32962 61701 10170 20034 38499 40213 58002 80005 91750333 10181 20060 30/// 56006 59007 86272
AAXX 06181 76625 32750 33203 10171 20053 38162 40188 52004 83030 91740333 10173 20089 30/// 56060 59013 83357
AAXX 06181 76632 31550 52303 10128 20065 37639 40172 57003 70511 8580091745 333 10136 20052 30/// 56600 59010 85726
AAXX 06181 76634 31570 63505 10164 20049 37858 40213 57001 70511 8520491750 333 10174 20030 30/// 565/5 59023 85827
AAXX 06181 76641 06/// /1301 10215 20179 30188 40200 58004 60002 7////8//// 91750 333 0//// 10215 20167 30/// 4//// 54/// 56///57/// 59054 60007 8//// 8//// 8//// 8//// 9//// 9//// 9/
AAXX 06181 76644 32460 31102 10271 20115 30184 40197 57027 81101 91750333 10277 20135 30/// 563/9 59047 81810
AAXX 06181 76645 06/// /1103 10273 20113 30186 40199 58023 60002 7////8//// 91750 333 0//// 10276 20128 30/// 4//// 54/// 56///57/// 59051 60007 8//// 8//// 8//// 9//// 9//// 9//// 44
AAXX 06181 76648 06/// /0903 10292 20100 30164 40194 58026 60002 7////8//// 91750 333 0//// 10295 20121 30/// 4//// 54/// 56///57/// 59049 60007 8//// 8//// 8//// 8//// 9//// 9//// 9/
AAXX 06181 76654 31940 52502 10285 20232 30166 40170 50000 70544 8000191750 333 10286 20207 30/// 56900 59026 85070
AAXX 06181 76658 31960 42702 10274 20144 39652 40162 56011 70541 8000291748 333 10280 20155 30/// 56001 59012 84070 98924
AAXX 06181 76659 06/// /0102 10292 20100 3//// 4//// 5//// 60002 7////8//// 91750 333 0//// 10300 20142 30/// 4//// 54/// 56///57/// 5//// 60007 8//// 8//// 8//// 9//// 9//// 9//// 44
AAXX 06181 76662 32670 43102 10213 20078 38480 40185 54000 70544 8110591745 333 10214 20072 30/// 5620/ 59016 81833
AAXX 06181 76665 31562 21603 10209 20078 38130 40175 57007 70310 8220091745 333 10220 20065 30/// 56100 57811 59015 82824
AAXX 06181 76675 31575 31101 10158 21017 37380 40210 54000 70544 8220491753 333 10167 21011 30/// 569/9 59012 82826 98475
AAXX 06181 76681 31970 20502 10190 20040 37782 40187 57005 70510 8000891745 333 10190 20020 30/// 59019 82077
AAXX 06181 76684 02/// ///// 1//// 2//// 3//// 4//// 5//// 6//// 7////8//// 9//// 333 0//// 1//// 2//// 30/// 4//// 54/// 56///57/// 5//// 6//// 8//// 8//// 8//// 9//// 9//// 9//// 44
AAXX 06181 76685 31550 61501 10166 20035 37875 40189 54000 70544 8110691750 333 10168 20040 30/// 56909 59015 81827 85277
AAXX 06181 76695 32960 00303 10272 20155 30178 40184 57017 91750 33310275 20127 30/// 59046
AAXX 06181 76698 32560 20401 10275 20195 30193 40205 57019 82200 91750333 10291 20145 30/// 56100 59039 82820
AAXX 06181 76726 32970 02001 10244 20135 38413 40143 52013 91755 33310244 20114 30/// 59015
AAXX 06181 76727 06/// /1601 10228 20050 38407 40096 58005 60002 7////8//// 91750 333 0//// 10228 20109 30/// 4//// 54/// 56///57/// 59017 60007 8//// 8//// 8//// 9//// 9//// 9//// 44
AAXX 06181 76738 06/// /1402 10150 20110 38794 40184 58007 60002 7////8//// 333 10169 20111 30/// 56/// 57/// 59046 60007 8////8//// 8//// 8//// 9//// 9//// 9//// 444 ///// 555 30179
AAXX 06181 76743 31557 60903 10239 20185 30171 40179 57017 70211 862//91750 333 10250 20186 30/// 562// 59052 86822
AAXX 06181 76750 32560 10903 10279 20150 30186 40197 57017 81100 91750333 10279 20141 30/// 56100 59045 81820
AAXX 06181 76751 02/// ///// 1//// 2//// 3//// 4//// 5//// 6//// 7////8//// 9//// 333 0//// 1//// 2//// 30/// 4//// 54/// 56///57/// 5//// 6//// 8//// 8//// 8//// 9//// 9//// 9//// 44
AAXX 06181 76762 32904 33302 10260 20209 38772 40168 57011 80001 91739333 10264 20108 30/// 56006 59017 83070
AAXX 06181 76772 06/// /2101 10233 20063 38438 40117 58009 60002 7////8//// 91750 333 0//// 10236 20054 30/// 4//// 56/// 57///59013 60007 8//// 8//// 8//// 9//// 9//// 9//// 444 ////
AAXX 06181 76773 31568 30901 10226 20058 38429 40155 57014 70500 8110391746 333 10228 20062 30/// 56209 59021 81820
AAXX 06181 76775 31970 31801 10227 20062 38532 40199 57017 70300 8000291730 333 10229 20060 30/// 56002 59026
AAXX 06181 76776 06/// /2401 10224 20037 38513 40113 58020 60002 7////8//// 91750 333 0//// 10225 20055 30/// 4//// 56/// 57///59026 60007 8//// 8//// 8//// 9//// 9//// 9//// 444 ////
AAXX 06181 76805 32570 61701 10293 20227 30141 40146 58009 82109 91750333 10315 20218 30/// 561/5 59011 82830 82163 82064
AAXX 06181 76806 06/// /1702 10299 20219 30143 40147 58010 60002 7////8//// 91750 333 10307 20214 30/// 56/// 57/// 59011 600078//// 8//// 8//// 8//// 9//// 9//// 9//// 555 30272
AAXX 06181 76833 32970 03608 10286 20157 30147 40149 57001 91745 33310286 20208 30/// 59026 92000
AAXX 06181 76840 32950 00304 10296 20197 30090 40146 57014 80000 91745333 10305 20195 30/// 56000 58072 80000
AAXX 06181 76843 32965 00202 10230 20132 39512 40163 57002 91737 33310244 20135 30/// 59004
AAXX 06181 76845 32960 01702 10210 20140 37953 40218 56017 91747 33310218 20038 30/// 59015
AAXX 06181 76848 32970 00701 10208 20101 38390 40128 57013 91750 33310208 20103 30/// 59031
AAXX 06181 76902 06/// /2902 10291 20206 30008 40145 58017 60002 7////8//// 91750 333 0//// 10313 20229 30/// 4//// 54/// 56///57/// 59013 60007 8//// 8//// 8//// 8//// 9//// 9//// 9/
AAXX 06181 76903 32580 42802 10302 20219 30011 40141 57014 84200 91750333 10315 20228 30/// 56600 59013 84833
AAXX 06181 76160 32962 30201 10196 21022 39926 40177 52019 80006 91730333 10196 20090 30/// 56009 59019 83070
AAXX 06181 76243 32973 00601 10196 20069 39875 40177 57009 91735 33310208 20040 30/// 59108
AAXX 06181 76253 32782 22302 10230 20087 30087 40177 51018 82020 91459333 10235 20130 30/// 56/5/ 59023 82457 92002
AAXX 06181 76311 32980 00000 10254 20090 39888 40171 52013 91755 33310262 20088 30/// 59008
AAXX 06181 76323 32970 03001 10182 21022 38296 40287 52008 91740 33310182 21022 30/// 59058
AAXX 06181 76405 32980 60000 10239 20140 30152 40174 57005 80005 91750333 10240 20118 30/// 56004 59014 86080
AAXX 06181 76412 32966 02201 10220 20163 30144 40189 57002 91740 33310230 20120 30/// 58000
AAXX 06181 76647 32670 20903 10282 20126 30179 40209 57020 81101 91750333 10286 20130 30/// 54305 5630/ 59052 81850
AAXX 06181 76656 32975 30000 10223 20027 38524 40194 54000 80008 91748333 10230 20048 30/// 56005 59010 83280
AAXX 06181 76855 32580 71301 10288 20221 30085 40135 51008 82270 91740333 10295 20216 30/// 56990 59015 82820 85360 92000
AAXX 06184 61974 11470 72702 10270 20241 40124 60022 70282 84872 333 10293 55005 58001 83818 83650 86360
AAXX 06184 61986 12470 21304 10270 20220 40138 60002 82800 333 10334 58008 82818
AAXX 06184 61988 12470 21605 10234 20187 40143 60002 82200 333 10296 55097 58001 82818
AAXX 06184 61989 NIL
AAXX 06184 61990 12470 21402 10253 20188 40155 60002 82800 333 10296 55117 58003 82817
AAXX 06184 61995 12470 11308 10219 20189 39671 60002 81840 333 10282 55092 58003 81818 91120
AAXX 06181 01300 41598 61906 10053 20011 40013 57049 70222 86/// 22200 02063 10806 70028 333 91108
AAXX 06181 01400 41598 62411 10069 20027 40107 57032 70282 83250 22200 06075 10606 70028 333 91112
AAXX 06181 01447 16/// /3401 11088 21095 39374 40071 57010 60002 333 11019 91105
AAXX 06184 85223 31580 72406 10190 20106 37519 47157 57013 70422 84870 333 56000 58009 84827 87357
AAXX 06184 85283 32584 70306 10156 20104 37215 47146 57010 82374 333 56100 59003 81620 81933 87457
AAXX 06184 85293 32484 70610 10105 20081 36374 57003 85540 333 56600 59007 85617 86457
AAXX 06184 85312 32884 71604 10254 20189 38879 57015 87020 333 56000 58008 87457
AAXX 06184 85345 32584 72506 10290 20220 39644 40101 57017 81150 333 56000 58011 81823 86358
AAXX 06184 85364 11370 70000 10182 20156 38170 48198 57013 60051 70266 84530 333 56000 58010 81610 83623 87357
AAXX 06184 85365 32584 80000 10250 20222 39388 40136 57014 8453/ 333 56009 58012 84625 88357
AAXX 06184 85394 32884 73606 10277 20233 39688 40119 57008 87020 333 56000 58018 87457
AAXX 06181 78268 11460 40804 10260 20190 30177 40196 57023 60001 70000 82200 333 82815 84830
AAXX 06181 48917 32598 60502 10246 20234 30125 40131 57006 82208 222// 00287 333 58007 82895 86299
AAXX 06181 48918 32498 70502 10246 20213 30136 40147 58009 82108 222// 00254 2//// 333 58008 82894 87299
AAXX 06181 48900 32497 63104 10240 20220 30130 40140 57003 868// 333 58010 81894 85696
AAXX 06181 48914 32498 70901 10255 20219 30146 40148 58002 878// 333 58008 83894 87696
BBXX A8IZ2 31201 06184 99360 10253 41597 72040 10170 20110 49980 57040 75015 87/// 22274 80135
BBXX .....
AAXX 06181 02464 45984 /2604 11017 21066 39967 49985 57011 8//// 333 11017 21038
AAXX 06181 02500 05977 /2507 10040 21005 39987 40030 57022 60002 333 10040 21008 60005 85/69 90710 91111
AAXX 06181 02513 05/81 /1501 11007 21039 30052 40056 58015 60002 333 10020 21027 60005 90710 91102
AAXX 06181 02615 05982 /2707 10031 20008 30097 40101 50005 60002 333 10042 20019 60005 84/70 90710 91110
AAXX 06181 02635 05/74 /2703 10018 21001 60002 333 10038 20006 60005 90710 91104
AAXX 06181 06447 16/// /2603 10042 20012 30122 40250 52002 60012 333 10065 91111 91206
AAXX 06181 06431 36/// /2304 10044 20023 30229 40241 58004 60002 333 10075 91110 91207
AAXX 06184 48373 31958 20000 10232 20224 30079 40142 57005 71000 80001 333 58010
AAXX 06184 48352 32660 61005 10210 20169 39991 40196 52045 82530 333 58026
AAXX 06181 91925 02581 20907 10297 20208 30074 40134 51010 60001 82200 333 56100 60007 82826 90710 91112 555 60005 11512 59018
AAXX 06181 91929 04584 82907 10252 20223 30106 40109 51015 60142 700// 333 10270 20236 69987 90710 91114 555 69945
AAXX 06181 91938 01565 80402 10261 20226 30106 40108 51010 60082 715// 878// 333 10277 20247 69967 82820 87640 90710 91108 555 60005 10908 59025
AAXX 06181 91948 02582 40504 10277 20208 30047 40148 51006 60001 82246 333 56166 60007 82821 83271 90710 91112 555 60005 10612 59006
AAXX 06181 91958 01775 81904 10217 20138 30111 40113 50008 60011 70286 885// 333 56499 60007 88650 90710 91118 555 60005 11522 58007
AAXX 06181 91945 36/// /3312 10276 20230 30106 40111 51013= 91944 06/// /0109 10268 20202 30121 40124 53011 60092 333 10272 20240 60007 90710 91112 555 60005
AAXX 06181 91954 06/// /1104 10215 20203 30108 40111 51014 60071 333 60077 555 59004
AAXX 06181 48840 11496 83402 10124 20117 30231 40237 58002 69901 75052 887// 333 85794 88696 96150
AAXX 06184 94893 NIL
AAXX 06184 94907 46/// /3305 10096 20094 30085 40095
AAXX 06184 94910 46/// /0907 10150 20083 39869 40112
AAXX 06184 94926 46/// /0902 10086 20077 39484 40138
AAXX 06184 94935 46/// /0108 10164 20118 30094 40120
AAXX 06184 94954 46/// /0511 10142 20089 39992 40101
AAXX 06184 94956 46/// /0204 10091 20074 30082 40108
AAXX 06184 94975 46/// /3106 10131 20092 30085 40117
AAXX 06184 94983 46/// /3205 10137 20092 30098 40123
AAXX 06184 94995 NIL
AAXX 06184 94996 46/// /2015 10193 20130 39938 40064
AAXX 06184 94997 NIL
AAXX 06184 94998 46/// /2531 10054 20034 39799 49809
AAXX 06184 95111 46/// /0804 10260 20237 30040 40076
AAXX 06184 95205 46/// /0000 10281 20247 30069 40076
AAXX 06184 95322 NIL
AAXX 06184 95448 46/// /2013 10240 20103 39507 40051
AAXX 06184 95458 46/// /2709 10290 20148 39797 40050
AAXX 06184 95480 46/// /0508 10313 20064 39988 40045
AAXX 06184 95481 46/// /0908 10261 20077 30007 40050
AAXX 06184 95482 46/// /0806 10320 20095 39986 40040
AAXX 06184 95485 46/// /0707 10253 2//// 39866 40063
AAXX 06184 95492 46/// /1206 10270 21009 39918 40066
AAXX 06184 95527 46/// /0608 10202 20170 39865 40112
AAXX 06184 95634 46/// /2311 10170 20084 39698 40087
AAXX 06184 95637 46/// /2207 10166 20090 39764 40089
AAXX 06184 95646 46/// /3608 10227 20225 39839 40020
AAXX 06184 95666 NIL
AAXX 06184 95719 46/// /1012 10153 20121 39795 40117
AAXX 06184 95762 46/// /1609 10153 20121 39674 40119
AAXX 06184 95826 NIL
AAXX 06184 95839 46/// /0810 10160 20002 39912 40066
AAXX 06184 95864 NIL
AAXX 06184 95909 NIL
AAXX 06184 95954 NIL
AAXX 06184 95966 46/// /3505 10115 20074 39921 40118
AAXX 06184 96995 46/// /0000 10239 20233 39806 40100
AAXX 06184 96996 45/// /3004 10269 20247 30101 40105 58007
AAXX 06184 78951 12572 41012 10295 20207 30129 40144 60001 84200 333 10299 20236 58006 70001 84821
AAXX 06181 48919 11498 80511 10259 20234 30102 40124 57017 69971 70382 889// 22200 02261 333 59006 81894 8299 5 85696
AAXX 06181 48916 32598 70000 10255 20235 30090 40137 57004 82908 333 58001 82995 87299
AAXX 06184 89564 45/// /1431 10006 21063 39699 49718 58001
AAXX 06184 89570 46/// /0841 11060 21092 39035 56037
AAXX 06184 89571 45/// /0622 10012 21122 39688 49716 56030
AAXX 06184 89573 NIL
AAXX 06184 89610 NIL
AAXX 06184 89611 45/// /1012 11059 21116 39784 49836 53001
AAXX 06184 89614 NIL
AAXX 06184 89615 46/// /0918 11124 21183 38929 50002
AAXX 06184 89807 NIL
AAXX 06184 89809 46/// /1012 11118 21131 39379 56002
AAXX 06184 94500 NIL
AAXX 06184 94510 46/// /0000 10232 20232 39728 40065
AAXX 06184 94515 46/// /0512 10228 20183 39750 40089
AAXX 06184 94552 46/// /0705 10178 20156 39664 40121
AAXX 06184 94578 46/// /2205 10221 20194 30121 40132
AAXX 06184 94584 46/// /1212 10226 20166 30013 40122
AAXX 06184 94601 46/// /2221 10182 20106 30094 40111
AAXX 06184 94610 46/// /1706 10176 20145 30090 40113
AAXX 06184 94637 46/// /2207 10212 20048 39653 40066
AAXX 06184 94638 46/// /2513 10184 20113 30044 40075
AAXX 06184 94642 NIL
AAXX 06184 94643 NIL
AAXX 06184 94647 46/// /3207 10227 20213 39905 40022
AAXX 06184 94651 46/// /3412 10227 20215 39961 40036
AAXX 06184 94653 46/// /3007 10255 20168 30021 40039
AAXX 06184 94659 46/// /3506 10294 20101 39848 40036
AAXX 06184 94672 46/// /0511 10274 20020 30015 40025
AAXX 06184 94691 46/// /0414 10245 20008 39752 40070
AAXX 06184 94693 46/// /0506 10205 20033 30010 40070
AAXX 06184 94700 NIL
AAXX 06184 94703 46/// /1005 10251 20173 39957 40078
AAXX 06184 94710 46/// /0906 10214 20103 39841 40086
AAXX 06184 94729 46/// /0000 10089 20078 39293 40121
AAXX 06184 94750 46/// /2907 10132 20118 30027 40149
AAXX 06184 94767 46/// /3207 10155 20122 30146 40152
AAXX 06184 94776 46/// /2905 10139 20133 30140 40150
AAXX 06184 94791 NIL
AAXX 06184 94802 46/// /2908 10137 20122 39998 40078
AAXX 06184 94804 46/// /2313 10195 20171 30000 40037
AAXX 06184 94807 NIL
AAXX 06184 94821 46/// /0505 10130 20077 39971 40051
AAXX 06184 94842 46/// /0712 10156 20117 39974 40071
AAXX 06184 94847 NIL
AAXX 06184 94850 46/// /0711 10152 20109 30035 40079
AAXX 06184 94865 46/// /3304 10128 20105 30062 40086
AAXX 06184 94866 46/// /0204 10133 20106 39950 40087
AAXX 06184 94875 46/// /0000 10113 20092 39960 40091
AAXX 06184 92001 NIL
AAXX 06184 92014 NIL
AAXX 06184 92044 11460 80000 10249 20244 30082 40088 5//// 60041 7606/ 8422/
AAXX 06184 92047 NIL
AAXX 06184 92100 NIL
AAXX 06184 94102 46/// /0706 10287 20271 30065 40074
AAXX 06184 94103 NIL
AAXX 06184 94120 46/// /3507 10273 20247 30044 40084
AAXX 06184 94122 46/// /3611 10286 20244 30069 40077
AAXX 06184 94131 46/// /3403 10264 20232 39928 40079
AAXX 06184 94132 NIL
AAXX 06184 94147 NIL
AAXX 06184 94150 46/// /0000 10248 20241 30028 40087
AAXX 06184 94151 46/// /3607 10283 20230 30067 4////
AAXX 06184 94170 46/// /0502 10248 20223 30073 40095
AAXX 06184 94200 NIL
AAXX 06184 94203 46/// /2805 10295 20242 30067 40077
AAXX 06184 94206 NIL
AAXX 06184 94207 46/// /2607 10292 30065 40073 56019
AAXX 06184 94211 NIL
AAXX 06184 94212 46/// /0301 10255 20218 39601 40064
AAXX 06184 94216 46/// /0000 10255 20245 30029 40079
AAXX 06184 94236 NIL
AAXX 06184 94238 46/// /3308 10294 20157 39647 40060
AAXX 06184 94248 NIL
AAXX 06184 94255 46/// /3307 10283 20192 39806 40062
AAXX 06184 94268 46/// /0405 10250 20247 30071 40083
AAXX 06184 94287 46/// /0000 10218 20212 30090 40099
AAXX 06184 94290 NIL
AAXX 06184 94294 46/// /0105 10257 20216 30091 40101
AAXX 06184 94296 NIL
AAXX 06184 94298 46/// /1211 10254 30092 40098 55002
AAXX 06184 95641 NIL
AAXX 06184 68004 16/// /1803 10236 20150 38540 48495 52005 69922 333 10362 20220 91006 555 20002 69925 91017
AAXX 06184 68006 36/// /1003 10324 20108 38885 48478 52007 333 10388 20324 91003 555 91011
AAXX 06184 68018 36/// /1202 10298 20111 38875 48491 52008 333 10377 20297 91003 555 91013
AAXX 06184 68098 36/// /3311 10174 20123 30017 40124 53002 333 10216 20174 91013 555 91012
AAXX 06184 68102 36/// /3202 10228 20182 38741 48493 52018 333 10373 20225 91004 555 91015
AAXX 06184 68112 36/// /2507 10266 20109 38330 48509 52007 333 10378 20241 91010 555 91020
AAXX 06184 68116 16/// /0404 10311 20085 38558 48508 52010 69922 333 10378 20309 91006 555 20002 91018
AAXX 06184 68212 36/// /1803 10373 21003 38874 48510 52007 333 10424 20373 91006 555 91014
AAXX 06184 68312 32889 11910 10353 20078 38927 48511 53004 81081 333 10402 20353 91014 555 91014
AAXX 06181 48845 11497 83202 10143 20141 30222 40229 58002 60031 76166 888// 333 58021 85894 88696 96160
AAXX 06184 85585 NIL
AAXX 06184 85586 12560 82408 10192 20124 40179 52016 60001 885// 333 56599 88630
AAXX 06184 85629 NIL
AAXX 06184 85672 12657 23406 10274 20158 40136 58013 60001 80002 333 56005 82070
AAXX 06184 85682 12560 73614 10203 20145 40154 58002 60001 87500 333 56800 87625
AAXX 06184 85743 12960 02411 10263 20152 40119 55009 60001
AAXX 06184 85766 NIL
AAXX 06184 85782 11930 39902 10290 20156 40115 57019 60001 70411 80001 333 56000 83070
AAXX 06184 85799 11957 31510 10238 20168 40126 57017 60001 70400 80001 333 56006 83070
AAXX 06184 85830 NIL
AAXX 06184 94299 46/// /1508 10253 20204 30083 40093
AAXX 06184 94300 46/// /1715 10228 20168 30097 40107
AAXX 06184 94302 46/// /2012 10231 20184 30084 40090
AAXX 06184 94312 46/// /2906 10264 20202 30063 40072
AAXX 06184 94313 NIL
AAXX 06184 94317 46/// /1304 10255 20224 39477 40044
AAXX 06184 94319 46/// /3009 10274 20181 39733 40054
AAXX 06184 94324 NIL
AAXX 06184 94326 46/// /2806 10241 20214 39475 40073
AAXX 06184 94327 46/// /2807 10332 20136 39690 40052
AAXX 06184 94332 46/// /0204 10273 20171 39681 40056
AAXX 06184 94333 NIL
AAXX 06184 94341 46/// /3409 10287 20145 39833 40062
AAXX 06184 94346 46/// /0408 10261 20117 39841 40055
AAXX 06184 94363 46/// /0706 10217 20198 39882 40095
AAXX 06184 94366 NIL
AAXX 06184 94367 46/// /2802 10228 20208 30062 40103
AAXX 06184 94374 46/// /1405 10229 20199 30096 40112
AAXX 06184 94388 46/// /1108 10235 20181 30116 40121
AAXX 06184 94393 46/// /0000 10244 30090 40102 55001
AAXX 06184 94394 46/// /1515 10232 30103 40111 53001
AAXX 06184 94403 46/// /1204 10177 20135 30079 40119
AAXX 06184 94429 46/// /2012 10199 20103 39636 40084
AAXX 06184 94430 46/// /1914 10238 20070 39495 40059
AAXX 06184 94449 46/// /2209 10258 20123 39543 40054
AAXX 06184 94451 NIL
AAXX 06184 94461 46/// /2511 10225 20222 39413 40062
AAXX 06184 94462 46/// /0208 10236 20217 39517 40054
AAXX 06184 94477 NIL
AAXX 06184 94488 NIL
AAXX 06184 85406 12970 02019 10243 20154 40118 56010 60001
AAXX 06184 85418 12970 02321 10244 20142 40126 57016 60001
AAXX 06184 85432 12770 12522 10234 20047 37750 48404 57015 60001 81100 333 56600 81856
AAXX 06184 85442 12480 11814 10223 20155 40134 58011 60001 81500 333 56400 81615
AAXX 06184 85467 NIL
AAXX 06184 85469 42565 60818 10250 20154 40233 52008 86200 333 56200 84820
AAXX 06184 85488 12460 82807 10205 20136 40165 58008 885// 333 56099 88617
AAXX 06184 85574 12960 51614 10261 20129 39591 40123 58013 60001 82032 333 56011 82366 84075
AAXX 06184 85577 NIL
AAXX 06184 88963 11430 82720 10010 20006 39826 49856 57025 69901 76872 8452/ 333 56669 84612 88540 90015 90088 92425 94065 95002
AAXX 06184 88968 32565 30908 10023 21033 39982 49998 52008 83100 333 56600 83820 92417 92731 92851 94082 95002
AAXX 06184 89034 11258 73402 11037 21045 39537 49852 58003 69901 77072 85670 333 56880 85706 90023 90093 90931 92406 92800 93100 96010 97508
AAXX 06184 89053 11340 82730 10028 20007 39898 49913 57049 69901 76062 887// 333 88708 90010 90088 90263 90284 90912 92435 94076 94479 95096 96010 97536 98540
AAXX 06184 89055 31558 83223 10014 21017 39582 49824 57052 71022 886// 333 56899 88720 90060 90080 92731 92841 95190
AAXX 06184 89066 11558 80000 10018 21004 39809 49818 56009 69901 77077 886// 333 56499 88720 90545 92406 93199 94070 95090 97514
AAXX 06184 85832 12980 39903 10299 20092 40112 57027 60001 80002 333 56000 83070
AAXX 06184 85836 12970 52507 10310 20117 40162 57026 60001 80002 333 56007 85070
AAXX 06184 85864 11970 71908 10228 20122 40148 57028 60001 70522 80008 333 56009 87070
AAXX 06184 85874 12970 72804 10222 20070 39552 40149 58028 60001 80006 333 56006 87270
AAXX 06184 85886 12970 70106 10196 20170 40170 57031 60001 80008 333 56006 87270
AAXX 06184 85892 12670 82005 10260 20073 40108 57028 60001 81101 333 56606 81840 88070
AAXX 06184 85930 12997 01402 10114 20070 40150 57011
AAXX 06184 85934 12980 42910 10162 20012 40111 57027 60001 80001 333 56007 84070
AAXX 06184 85972 11496 83020 10070 20062 40073 57012 60014 75022 887// 333 56799 88617
AAXX 06184 89054 11150 83227 10016 20011 49916 57030 69941 71076 886// 333 56799 88703 91046 96462 96472
AAXX 06184 89056 11225 83423 10009 20005 49898 57053 69913 76772 8552/ 333 56889 85606 88520 93100
AAXX 06184 89057 11220 82817 10001 20005 49900 57050 60013 76922 8572/ 333 56669 85705 88515
AAXX 06184 89059 12460 82115 10004 21046 49899 57033 60003 886// 333 73099 88713
AAXX 06184 89251 41256 82127 10013 20003 48999 57051 76872 8672/
AAXX 06183 NIL
AAXX 06184 68014 36/// /0702 10237 20098 38588 48505 53000 333 10352 20237 91003 555 91018
AAXX 06184 68110 36/// /3505 10281 20081 38284 48497 53002 333 10395 20281 91009 555 91020
AAXX 06184 68300 36/// /1819 10166 20128 39950 40099 52007 333 10250 20166 91024 555 91010
AAXX 06184 41241 31957 01703 10205 20075 30143 40179 70500 333 00023 10237 59003
AAXX 06184 41242 NIL
AAXX 06184 41244 NIL
AAXX 06184 41246 32960 02003 10210 20147 30178 40183 333 10252 58004
AAXX 06184 41251 NIL
AAXX 06184 41252 36/// /3106 10187 20018 39804 40094 333 0E018 10268 58005
AAXX 06184 41253 36/// /3402 10186 20145 39812 40196 333 0E020 10251 58004
AAXX 06184 41254 36/// /2904 10102 20046 37993 47997 333 0E010 10173 59017
AAXX 06184 41255 36/// /0300 10201 20067 39645 40201 333 0E022 10274 58009
AAXX 06184 41256 31958 00806 10213 20154 30170 40180 70500 333 10243 59003
AAXX 06184 41257 NIL
AAXX 06184 41258 36/// /1105 10231 20154 30170 40174 333 0E/// 10243 59001
AAXX 06184 41259 36/// /2721 10054 21032 37135 40310 333 0E/// 10091 58003
AAXX 06184 41262 NIL
AAXX 06184 41263 NIL
AAXX 06184 41264 NIL
AAXX 06184 41265 NIL
AAXX 06184 41267 35/// /2104 10225 20131 30170 40185 333 0E023 10250 58009
AAXX 06184 41268 36/// /1902 10213 20144 30168 48260 333 0E023 10259 58007
AAXX 06184 41270 NIL
AAXX 06184 41275 NIL
AAXX 06184 41287 36/// /0903 10206 20172 30141 40192 333 0E023 10282 58010
AAXX 06184 41288 NIL
AAXX 06184 41290 NIL
AAXX 06184 41295 36/// /0805 10195 20177 39996 40179 333 0E019 10271 58004
AAXX 06184 41304 NIL
AAXX 06184 41312 36/// /0600 10233 20187 30128 40168 333 0E/// 10265 59005
AAXX 06184 41314 NIL
AAXX 06184 41315 NIL
AAXX 06184 41316 NIL
AAXX 06184 89564 45/// /1431 10006 21063 39699 49718 58001
AAXX 06184 89570 46/// /0841 11060 21092 39035 56037
AAXX 06184 89571 45/// /0622 10012 21122 39688 49716 56030
AAXX 06184 89573 NIL
AAXX 06184 89610 NIL
AAXX 06184 89611 45/// /1012 11059 21116 39784 49836 53001
AAXX 06184 89614 NIL
AAXX 06184 89615 46/// /0918 11124 21183 38929 50002
AAXX 06184 89807 NIL
AAXX 06184 89809 46/// /1012 11118 21131 39379 56002
AAXX 06184 94299 46/// /1508 10253 20204 30083 40093
AAXX 06184 94300 46/// /1715 10228 20168 30097 40107
AAXX 06184 94302 46/// /2012 10231 20184 30084 40090
AAXX 06184 94312 46/// /2906 10264 20202 30063 40072
AAXX 06184 94313 NIL
AAXX 06184 94317 46/// /1304 10255 20224 39477 40044
AAXX 06184 94319 46/// /3009 10274 20181 39733 40054
AAXX 06184 94324 NIL
AAXX 06184 94326 46/// /2806 10241 20214 39475 40073
AAXX 06184 94327 46/// /2807 10332 20136 39690 40052
AAXX 06184 94332 46/// /0204 10273 20171 39681 40056
AAXX 06184 94333 NIL
AAXX 06184 94341 46/// /3409 10287 20145 39833 40062
AAXX 06184 94346 46/// /0408 10261 20117 39841 40055
AAXX 06184 94363 46/// /0706 10217 20198 39882 40095
AAXX 06184 94366 NIL
AAXX 06184 94367 46/// /2802 10228 20208 30062 40103
AAXX 06184 94374 46/// /1405 10229 20199 30096 40112
AAXX 06184 94388 46/// /1108 10235 20181 30116 40121
AAXX 06184 94393 46/// /0000 10244 30090 40102 55001
AAXX 06184 94394 46/// /1515 10232 30103 40111 53001
AAXX 06184 94403 46/// /1204 10177 20135 30079 40119
AAXX 06184 94429 46/// /2012 10199 20103 39636 40084
AAXX 06184 94430 46/// /1914 10238 20070 39495 40059
AAXX 06184 94449 46/// /2209 10258 20123 39543 40054
AAXX 06184 94451 NIL
AAXX 06184 94461 46/// /2511 10225 20222 39413 40062
AAXX 06184 94462 46/// /0208 10236 20217 39517 40054
AAXX 06184 94477 NIL
AAXX 06184 94488 NIL
BBXX VRAE3 06184 99214 31697 41697 31510 10260 20240 40063 56005 70201 83234 22223 00280 2//// 303// 46063 5//// 80255
BBXX 3ECI3 06184 99391 31690 41297 82510 10175 20149 40119 58010 75152 8/700 22263 00170 20400 327// 40802 80160
BBXX VNSZ 06164 99394 31453 46/// /0519 10164 20102 30084 40110 57039 22276 04182 85128
BBXX VNSZ 06184 99386 31448 46/// /0521 10161 20121 30060 40086 57041 22276 04188 85137
BBXX C6FS9 06164 99315 31532 46/// /2115 10215 20147 30115 40151 57008 22243 04251 85172
BBXX 9HA2479 06164 99172 31654 46/// /2315 10269 20221 30043 40072 57014 22254 04291 85235
BBXX VNAH 06164 99358 31311 46/// /3225 10194 20166 39994 40017 57001 22263 04188 85175
BBXX VROB 06164 99068 31470 46/// /3105 10251 20230 30057 40082 57029 22200 04305 85236
BBXX FHZI 06164 99429 31473 46/// /2103 10147 20096 30111 40122 57018 22200 04183 85119
BBXX VNSZ 06174 99390 31450 46/// /0625 10165 20109 30064 40090 57055 22276 04185 85132
BBXX VREN5 06183 99427 31737 41/98 90235 10160 20143 40070 53/// 70211 8901/ 22252 20502 80150
BBXX C6FS9 06174 99318 31531 46/// /2516 10204 20165 30112 40148 57013 22243 04250 85179
BBXX B2M1303 06183 99175 31088 41698 22012 10265 20215 40101 54000 70100 82500 22243 00290 20106 80230
BBXX 9HA2479 06174 99173 31651 46/// /2416 10268 20214 30042 40071 57009 22254 04288 85229
BBXX VNAH 06174 99358 31308 46/// /3027 10192 20165 39990 40013 57013 22263 04189 85174
BBXX VROB 06174 99068 31470 46/// /3305 10251 20226 30050 40075 57029 22200 04305 85233
BBXX FHZI 06174 99429 31473 46/// /2304 10150 20100 30107 40118 57018 22200 04185 85122
BBXX C6NR5 06164 99274 31538 41598 31207 10240 20204 40134 58/// 7//00 82140 22243 20401 3//// 4//// 5//// 80215
BBXX VRDB3 06184 99326 31525 41398 52003 10210 20164 40141 54000 70222 83/// 22243 00160 2//// 3//// 4//// 80180
BBXX VROC 06184 99313 31531 41498 12109 10200 20158 40137 58010 70300 8/1// 22283 04150 20401 80175
BBXX VRRC 06184 99286 31537 41298 71525 10230 20201 40089 56/// 70200 87772 22244 2//// 399// 4//04 80210
AAXX 06184 92001 NIL
AAXX 06184 92014 NIL
AAXX 06184 92044 11460 80000 10249 20244 30082 40088 5//// 60041 7606/ 8422/
AAXX 06184 92047 NIL
AAXX 06184 92100 NIL
AAXX 06184 94500 NIL
AAXX 06184 94510 46/// /0000 10232 20232 39728 40065
AAXX 06184 94515 46/// /0512 10228 20183 39750 40089
AAXX 06184 94552 46/// /0705 10178 20156 39664 40121
AAXX 06184 94578 46/// /2205 10221 20194 30121 40132
AAXX 06184 94584 46/// /1212 10226 20166 30013 40122
AAXX 06184 94601 46/// /2221 10182 20106 30094 40111
AAXX 06184 94610 46/// /1706 10176 20145 30090 40113
AAXX 06184 94637 46/// /2207 10212 20048 39653 40066
AAXX 06184 94638 46/// /2513 10184 20113 30044 40075
AAXX 06184 94642 NIL
AAXX 06184 94643 NIL
AAXX 06184 94647 46/// /3207 10227 20213 39905 40022
AAXX 06184 94651 46/// /3412 10227 20215 39961 40036
AAXX 06184 94653 46/// /3007 10255 20168 30021 40039
AAXX 06184 94659 46/// /3506 10294 20101 39848 40036
AAXX 06184 94672 46/// /0511 10274 20020 30015 40025
AAXX 06184 94691 46/// /0414 10245 20008 39752 40070
AAXX 06184 94693 46/// /0506 10205 20033 30010 40070
AAXX 06184 94700 NIL
AAXX 06184 94703 46/// /1005 10251 20173 39957 40078
AAXX 06184 94710 46/// /0906 10214 20103 39841 40086
AAXX 06184 94729 46/// /0000 10089 20078 39293 40121
AAXX 06184 94750 46/// /2907 10132 20118 30027 40149
AAXX 06184 94767 46/// /3207 10155 20122 30146 40152
AAXX 06184 94776 46/// /2905 10139 20133 30140 40150
AAXX 06184 94791 NIL
AAXX 06184 94802 46/// /2908 10137 20122 39998 40078
AAXX 06184 94804 46/// /2313 10195 20171 30000 40037
AAXX 06184 94807 NIL
AAXX 06184 94821 46/// /0505 10130 20077 39971 40051
AAXX 06184 94842 46/// /0712 10156 20117 39974 40071
AAXX 06184 94847 NIL
AAXX 06184 94850 46/// /0711 10152 20109 30035 40079
AAXX 06184 94865 46/// /3304 10128 20105 30062 40086
AAXX 06184 94866 46/// /0204 10133 20106 39950 40087
AAXX 06184 94875 46/// /0000 10113 20092 39960 40091
AAXX 06184 40356 42960 02504 10080 20040 39179 48471 333 10120 58019 55087 555 04410 50171
AAXX 06184 40357 42960 03108 10102 20030 39523 40173 333 10178 58006 55///
AAXX 06184 40360 42960 00000 10094 20040 39571 40174 333 10158 58029 55066
AAXX 06184 40361 42960 60000 10095 21010 39399 40181 86030 333 10160 58035 55/// 86360
AAXX 06184 40362 42960 42606 10123 21050 39641 40162 84030 333 10192 59001 55/// 84360
AAXX 06184 40373 42960 03206 10163 20010 39736 40158 333 10231 59032 55///
AAXX 06184 40375 42960 30000 10118 21020 39268 40161 83020 333 10150 58009 55080 83460
AAXX 06184 40377 42960 03309 10145 20050 39684 40170 333 10240 59021 55///
AAXX 06184 40394 42960 00608 10106 20000 39035 48512 333 10202 58016 55098 555 04410 50160
AAXX 06184 40400 42960 00403 10176 20100 30127 40155 333 10234 59004 55091
AAXX 06184 40401 42960 02405 10170 21040 39441 40140 333 10220 59001
AAXX 06184 40405 42960 00210 10180 20070 39410 40147 333 10270 59008 55///
AAXX 06184 40416 42960 01004 10150 20120 30141 40161 333 10220 59021 55///
AAXX 06184 40417 42960 01406 10143 20050 30159 40174 333 10218 59024 55///
AAXX 06184 40420 42960 01702 10152 20070 39964 40174 333 10229 59025 55///
AAXX 06184 40430 42960 02304 10222 20080 39417 40134 333 10272 59001 55081
AAXX 06184 40435 NIL
AAXX 06184 40437 41959 01505 10165 20020 39460 40162 70600 333 10198 59026 55085
AAXX 06184 40439 42960 02704 10200 20100 30119 40129 333 10270 59011 55098
AAXX 06184 94893 NIL
AAXX 06184 94907 46/// /3305 10096 20094 30085 40095
AAXX 06184 94910 46/// /0907 10150 20083 39869 40112
AAXX 06184 94926 46/// /0902 10086 20077 39484 40138
AAXX 06184 94935 46/// /0108 10164 20118 30094 40120
AAXX 06184 94954 46/// /0511 10142 20089 39992 40101
AAXX 06184 94956 46/// /0204 10091 20074 30082 40108
AAXX 06184 94975 46/// /3106 10131 20092 30085 40117
AAXX 06184 94983 46/// /3205 10137 20092 30098 40123
AAXX 06184 94995 NIL
AAXX 06184 94996 46/// /2015 10193 20130 39938 40064
AAXX 06184 94997 NIL
AAXX 06184 94998 46/// /2531 10054 20034 39799 49809
AAXX 06184 95111 46/// /0804 10260 20237 30040 40076
AAXX 06184 95205 46/// /0000 10281 20247 30069 40076
AAXX 06184 95322 NIL
AAXX 06184 95448 46/// /2013 10240 20103 39507 40051
AAXX 06184 95458 46/// /2709 10290 20148 39797 40050
AAXX 06184 95480 46/// /0508 10313 20064 39988 40045
AAXX 06184 95481 46/// /0908 10261 20077 30007 40050
AAXX 06184 95482 46/// /0806 10320 20095 39986 40040
AAXX 06184 95485 46/// /0707 10253 2//// 39866 40063
AAXX 06184 95492 46/// /1206 10270 21009 39918 40066
AAXX 06184 95527 46/// /0608 10202 20170 39865 40112
AAXX 06184 95634 46/// /2311 10170 20084 39698 40087
AAXX 06184 95637 46/// /2207 10166 20090 39764 40089
AAXX 06184 95646 46/// /3608 10227 20225 39839 40020
AAXX 06184 95666 NIL
AAXX 06184 95719 46/// /1012 10153 20121 39795 40117
AAXX 06184 95762 46/// /1609 10153 20121 39674 40119
AAXX 06184 95826 NIL
AAXX 06184 95839 46/// /0810 10160 20002 39912 40066
AAXX 06184 95864 NIL
AAXX 06184 95909 NIL
AAXX 06184 95954 NIL
AAXX 06184 95966 46/// /3505 10115 20074 39921 40118
AAXX 06184 96995 46/// /0000 10239 20233 39806 40100
AAXX 06184 96996 45/// /3004 10269 20247 30101 40105 58007
AAXX 06184 94310 46/// /3017 10278 20236 30057 40069 57022
AAXX 06184 95283 46/// /2902 10210 20205 30091 40098
AAXX 06184 95288 46/// /1210 10267 30075 40090 56014
AAXX 06184 95675 46/// /0515
AAXX 06184 95872 46/// /3504
AAXX 06184 95961 35/// /0409 10097 30067 40108 57023
AAXX 06184 94102 46/// /0706 10287 20271 30065 40074
AAXX 06184 94103 NIL
AAXX 06184 94120 46/// /3507 10273 20247 30044 40084
AAXX 06184 94122 46/// /3611 10286 20244 30069 40077
AAXX 06184 94131 46/// /3403 10264 20232 39928 40079
AAXX 06184 94132 NIL
AAXX 06184 94147 NIL
AAXX 06184 94150 46/// /0000 10248 20241 30028 40087
AAXX 06184 94151 46/// /3607 10283 20230 30067 4////
AAXX 06184 94170 46/// /0502 10248 20223 30073 40095
AAXX 06184 94200 NIL
AAXX 06184 94203 46/// /2805 10295 20242 30067 40077
AAXX 06184 94206 NIL
AAXX 06184 94207 46/// /2607 10292 30065 40073 56019
AAXX 06184 94211 NIL
AAXX 06184 94212 46/// /0301 10255 20218 39601 40064
AAXX 06184 94216 46/// /0000 10255 20245 30029 40079
AAXX 06184 94236 NIL
AAXX 06184 94238 46/// /3308 10294 20157 39647 40060
AAXX 06184 94248 NIL
AAXX 06184 94255 46/// /3307 10283 20192 39806 40062
AAXX 06184 94268 46/// /0405 10250 20247 30071 40083
AAXX 06184 94287 46/// /0000 10218 20212 30090 40099
AAXX 06184 94290 NIL
AAXX 06184 94294 46/// /0105 10257 20216 30091 40101
AAXX 06184 94296 NIL
AAXX 06184 94298 46/// /1211 10254 30092 40098 55002
AAXX 06184 95641 NIL
BBXX UCKZ 06181 99664 30928 42998 80813 11021 21068 49785 57033 8807/ 22221 01016 2//// ICE 87995
AAXX 06183 91502 01470 80000 10255 20248 40088 55000 69901 71799 8497/ 333 56999 69907 82814 81915 84630 87360
AAXX 06183 91507 01470 80000 10252 20244 40085 5//// 60081 72582 8592/ 333 56799 60081 83815 81916 83628 87460
AAXX 06183 91520 01470 70000 10242 20239 40086 55005 60061 71586 86978 333 56999 60037 81814 81915 86630
AAXX 06183 91541 NIL
AAXX 06184 41024 42960 03404 10230 20160 30112 40132 333 10290 59012 55075
AAXX 06184 41030 42660 30000 10242 20170 39853 40126 81430 333 10315 59010 55/// 81640
AAXX 06184 41036 42960 01606 10174 20120 38565 48515 333 10242 59009 55100 555 0 4410 50116
AAXX 06184 41055 42560 22103 10160 20130 38375 48521 82400 333 10238 59002 55090 82630 555 04410 50136
AAXX 06184 41061 42960 01308 10169 20100 39438 40149 333 10260 59023 55090
AAXX 06184 41084 42960 00000 10210 20150 38865 48519 333 10300 59006 55098 555 04410 50135
AAXX 06184 41112 42960 00000 10139 20130 37963 48528 333 10211 59008 55094 555 04410 50162
AAXX 06184 41114 42960 00000 10148 20110 37995 48529 333 10244 59007 55100 555 04410 50169
AAXX 06184 41128 42960 00202 10201 20060 38823 48530 333 10290 59012 55085 555 04410 50143
AAXX 06184 41136 42960 00609 10225 20060 39331 40135 333 10300 59016 55097
AAXX 06184 41140 42560 22406 10275 20230 30124 40132 81130 333 10304 59010 55/// 81830
BBXX VRAE3 06184 99214 31697 41697 31510 10260 20240 40063 56005 70201 83234 22223 00280 2//// 303// 46063 5//// 80255
BBXX 3ECI3 06184 99391 31690 41297 82510 10175 20149 40119 58010 75152 8/700 22263 00170 20400 327// 40802 80160
BBXX VNSZ 06164 99394 31453 46/// /0519 10164 20102 30084 40110 57039 22276 04182 85128
BBXX VNSZ 06184 99386 31448 46/// /0521 10161 20121 30060 40086 57041 22276 04188 85137
BBXX C6FS9 06164 99315 31532 46/// /2115 10215 20147 30115 40151 57008 22243 04251 85172
BBXX 9HA2479 06164 99172 31654 46/// /2315 10269 20221 30043 40072 57014 22254 04291 85235
BBXX VNAH 06164 99358 31311 46/// /3225 10194 20166 39994 40017 57001 22263 04188 85175
BBXX VROB 06164 99068 31470 46/// /3105 10251 20230 30057 40082 57029 22200 04305 85236
BBXX FHZI 06164 99429 31473 46/// /2103 10147 20096 30111 40122 57018 22200 04183 85119
BBXX VNSZ 06174 99390 31450 46/// /0625 10165 20109 30064 40090 57055 22276 04185 85132
BBXX VREN5 06183 99427 31737 41/98 90235 10160 20143 40070 53/// 70211 8901/ 22252 20502 80150
BBXX C6FS9 06174 99318 31531 46/// /2516 10204 20165 30112 40148 57013 22243 04250 85179
BBXX B2M1303 06183 99175 31088 41698 22012 10265 20215 40101 54000 70100 82500 22243 00290 20106 80230
BBXX 9HA2479 06174 99173 31651 46/// /2416 10268 20214 30042 40071 57009 22254 04288 85229
BBXX VNAH 06174 99358 31308 46/// /3027 10192 20165 39990 40013 57013 22263 04189 85174
BBXX VROB 06174 99068 31470 46/// /3305 10251 20226 30050 40075 57029 22200 04305 85233
BBXX FHZI 06174 99429 31473 46/// /2304 10150 20100 30107 40118 57018 22200 04185 85122
BBXX C6NR5 06164 99274 31538 41598 31207 10240 20204 40134 58/// 7//00 82140 22243 20401 3//// 4//// 5//// 80215
BBXX VRDB3 06184 99326 31525 41398 52003 10210 20164 40141 54000 70222 83/// 22243 00160 2//// 3//// 4//// 80180
BBXX VROC 06184 99313 31531 41498 12109 10200 20158 40137 58010 70300 8/1// 22283 04150 20401 80175
BBXX VRRC 06184 99286 31537 41298 71525 10230 20201 40089 56/// 70200 87772 22244 2//// 399// 4//04 80210
AAXX 06184 68298 36/// /0909 1//// 2//// 39512 4//// 52016 333 1//// 2//// 91012 555 91018
AAXX 06184 40550 47/57 /2004 10151 20108 40164 53008 71086 333 55300 00000 10151 20000 30000 41206 51357 60000 55407 40000 90069 90400 91007 91119 91207 91305
AAXX 06184 40551 46/// /1313 10149 20061 333 90401 91017 91121 91213 91309
AAXX 06184 40552 45/69 /1510 10152 20059 40164 52012 333 55300 90069 90401 91013 91125 91221 91313
AAXX 06184 40553 37/57 /1513 10148 20119 40162 53006 71086 333 55300 90069 90402 91015 91129 91225 91317
AAXX 06184 40568 36/// /1802 10153 20133 333 90401 91003 91119 91217 91307
AAXX 06184 40569 NIL
AAXX 06184 40570 35/65 /1102 10162 20007 40165 51024 333 55300 90069 90400 91003 91125 91217 91307
AAXX 06184 40571 NIL
AAXX 06184 40572 NIL
AAXX 06184 40573 36/// /2207 10139 20005 333 90400 91007 91127 91211 91307
AAXX 06184 40580 36/// /1302 10175 20081 333 553// 00000 10125 20000 30000 41297 51422 60000 55407 40000 90400 91005 91123 91209 91305
AAXX 06184 40581 36/// /1705 10177 20111 333 90400 91011 91117 91207 91303
AAXX 06184 40582 32677 61508 10174 20050 40162 52004 83730 333 55300 00000 10110 20000 30000 41318 51429 60000 55407 40000 83640 86358 90401 91011 91125 91217 91311
AAXX 06184 40583 NIL
AAXX 06184 40585 36/// /1816 10165 20134 222// 1//// 3//// 4//// 70/// 333 90400 91017 91125 91219 91315
AAXX 06184 40586 36/// /1102 10156 20075 333 90401 91005 91123 91213 91307
AAXX 06184 40587 36/// /1306 10157 20082 333 553// 00000 10131 20000 30000 41244 51376 60000 55407 40000 90401 91009 91123 91213 91307
AAXX 06184 40588 37/60 /1205 10159 20124 40164 51004 72186 333 55300 90069 90401 91007 91123 91213 91307
AAXX 06184 40589 NIL
AAXX 06184 40590 36/// /1308 10150 20052 333 90400 91009 91125 91221 91313
AAXX 06184 40591 NIL
AAXX 06184 40592 35/62 /1406 10142 20073 40163 51007 333 55300 00000 10180 20000 30000 41177 51357 60000 55407 40000 90069 90400 91011 91123 91213 91309
AAXX 06184 40593 36/// /1710 10168 20130 333 90400 91011 91125 91221 91315
AAXX 06184 40594 36/// /1504 10158 20101 333 90400 91009 91119 91207 91305
AAXX 06184 40596 46/// /1515 10191 20126 333 90401 91017 91123 91219 91317
AAXX 06181 38141 32998 00903 11074 21123 30152 40321 53010 333 11043
AAXX 06181 38149 42998 01004 11080 21131 30247 40329 58003 333 11012
AAXX 06181 38178 429// 01101 11129 21237 30072 40384 58005 333 11083
AAXX 06181 38262 329// 20903 11085 21144 30236 40322 54000 82030 333 11025
AAXX 06181 38264 12998 01003 11088 21095 30230 40329 57006 69900 333 11052
AAXX 06181 38396 11/92 90903 11087 21102 30206 40340 58010 69902 74541 333 11070
AAXX 06181 38403 429// 00000 11112 21158 30218 40349 57005 333 11054
AAXX 06181 38413 429// 80901 11072 21101 30049 40359 53005 8802/ 333 11051
AAXX 06181 38457 31994 21401 11071 21091 39726 40352 57006 71000 82040 333 11015
AAXX 06181 38462 429// 00000 11128 21180 38826 48546 58003 333 11031
AAXX 06181 38565 329// 00000 11066 21082 39730 40350 58001 333 11023
AAXX 06181 38579 125// 70602 11041 21050 39910 40352 58005 69912 87500 333 11015
AAXX 06181 38583 31/93 93602 11076 21081 30016 40361 57005 74741 333 11019
AAXX 06181 38611 11695 82401 11024 21036 39751 40348 57007 69942 71022 8802/ 333 11004 83185
AAXX 06181 38618 115// 83401 11026 21045 39611 40331 57005 69920 77177 8802/ 333 11011
AAXX 06181 38683 42997 00000 11076 21098 30039 40336 58009 333 11010
AAXX 06181 38696 326// 50902 11057 21064 39439 40336 57004 85500 333 11033
AAXX 06181 38812 41996 01302 11066 21071 39847 40329 58008 71000 333 11014
AAXX 06181 38927 12660 40402 11008 21015 39939 40331 58009 69902 84900 333 10019 84945
AAXX 06184 78951 12572 41012 10295 20207 30129 40144 60001 84200 333 10299 20236 58006 70001 84821
AAXX 06184 78951 12572 41012 10295 20207 30129 40144 60001 84200 333 10299 20236 58006 70001 84821
AAXX 06184 16168 12970 03325 10062 21157 39351 42720 52035 60002 333 10074
AAXX 06184 78982 02582 40815 10297 20229 30125 40128 57025 60001 82201 333 58002 60007 82822 84081
BBXX UFNZ 06181 99361 70025 41098 22030 10181 40262 70110 82004 22223 00121
BBXX 41038 06181 99341 70777 46/// /2207 10151 40182 58026 91800 22200 00120 333 91208
AAXX 06184 85041 32570 73610 10303 20256 39821 40086 56010 85930 333 56880 59002 84820 81923 86358
AAXX 06184 85140 32470 33503 10340 20246 39892 40098 57005 83301 333 56706 59006 82817 81927 83370
AAXX 06184 85141 32584 63608 10347 20277 39860 40091 56006 82101 333 56707 59005 82820 86070
AAXX 06184 85151 NIL
AAXX 06184 85152 32584 33605 10340 20254 39850 40086 57013 83200 333 56700 59008 83820
AAXX 06184 85201 31470 61008 10106 20048 36295 57012 71522 85933 333 56000 58001 84817 81920 85070
AAXX 06184 85230 NIL
AAXX 06184 85242 32484 70705 10130 20057 36563 57017 84320 333 56100 58005 83817 81920 87457
AAXX 06184 85032 32465 43410 10325 20231 39935 40093 57015 84200 333 56700 58005 84817
AAXX 06184 85043 32465 53608 10320 20233 39935 40095 57015 85201 333 56800 58002 85817 85070
AAXX 06184 85104 32465 43206 10325 20253 39929 40083 57017 84201 333 56706 59004 84817
AAXX 06184 85109 32565 43208 10328 20253 39925 40084 57015 84900 333 56700 58002 83820 81925
AAXX 06184 85114 32465 73006 10325 20249 39923 40086 57019 85204 333 567006 59006 85817 86070
AAXX 06184 85116 32465 63406 10303 20236 39911 40088 57019 86200 333 56700 59001 86817
AAXX 06184 85123 32465 43204 10338 20237 39910 40073 57017 82200 333 56700 58000 84817
AAXX 06184 85139 32465 50000 10342 20254 39855 40044 56005 85204 333 56706 59004 85817
AAXX 06184 85153 32465 33610 10338 20244 39900 40081 57011 83200 333 56700 59002 83817
AAXX 06184 85154 32570 33006 10341 20249 39898 40073 57024 83900 333 56700 59009 82820 81923
AAXX 06184 60715 11558 73012 10097 20053 30129 40136 52025 60012 71798 8498/ 333 10163 59034 83823 81930 86360 91017 91149
AAXX 06184 60723 11560 33014 10109 20046 39976 40166 51030 69982 70161 83280 333 10156 83823
AAXX 06184 60725 12560 73314 10110 2//// 39995 40167 53021 69922 878// 333 10160 84820 84630
AAXX 06184 60735 12560 33212 10130 20010 30050 40132 52029 60002 83202 333 10190 83823
AAXX 06184 60745 12558 33218 10137 21027 39790 40160 53020 60002 83200 333 10188 59053 83826 91028 91145
AAXX 06184 60748 12558 32919 10112 20012 39736 40156 52028 60002 83200 333 10175 83826
AAXX 06184 60750 12550 43215 10137 21031 30115 40140 51031 60002 84800 333 10202 82820 83630
AAXX 06184 60760 11530 33424 10159 21021 30060 40164 53017 60002 70700 82202 333 10202 82830 91038 91138
AAXX 06184 60765 12550 42908 10170 21009 30133 40137 51010 60002 84800 333 10199 82820 83630 92436 925//
AAXX 06184 60767 12560 33216 10163 21060 30006 40149 53023 60002 83800 333 10189 82820
AAXX 06184 60769 11540 33423 10165 20025 30128 40132 52027 60002 70700 83800 333 10193 81826 83630
AAXX 06181 50468 NIL
AAXX 06181 50953 32970 00000 11175 21209 30200 40395 52003 333 11108
AAXX 06181 51076 NIL
AAXX 06181 51243 NIL
AAXX 06181 51288 32980 00902 11149 21209 38414 52002 333 00701 11071
AAXX 06181 51463 NIL
AAXX 06181 51573 NIL
AAXX 06181 51709 NIL
AAXX 06181 52533 NIL
AAXX 06181 52652 NIL
AAXX 06181 52866 NIL
AAXX 06181 52983 NIL
AAXX 06181 53463 NIL
AAXX 06181 53513 NIL
AAXX 06181 53588 NIL
AAXX 06181 53772 NIL
AAXX 06181 53915 NIL
AAXX 06181 54218 NIL
AAXX 06181 54337 NIL
AAXX 06181 54342 NIL
AAXX 06181 54401 NIL
AAXX 06181 54471 NIL
AAXX 06181 54497 32965 03604 11086 21181 30360 40377 52005 333 11020
AAXX 06181 54511 NIL
AAXX 06181 54823 NIL
AAXX 06181 56080 NIL
AAXX 06181 56096 NIL
AAXX 06181 57083 NIL
AAXX 06181 26045 01459 82703 10004 21009 39931 49934 51019 60022 78782 889// 333 10020 21000 60007 88912 91109 555 1/100 21000 3/100 50008
AAXX 06181 26058 27157 83105 10016 20013 39913 49921 52014 76161 88/// 333 10018 20002 69947 88/03 91009 91109 555 1/100 20002 3/100 50008 52100
AAXX 06181 26115 27584 33003 10002 21046 39964 49972 51011 70000 83/// 333 10019 21001 60007 83/26 91110 555 1/101 21001 3/101 50013
AAXX 06184 06670 01362 82503 10015 20002 39750 40279 5//// 69952 72582 888// 333 10047 32/// 553// 20000 69945 82708 85714 86621 90766 93100
AAXX 06184 06700 01680 23401 10003 21009 39794 40308 5//// 69942 70181 81540 333 10040 31/// 553// 20000 60005 81635 90766 93100
AAXX 06184 06680 01/01 90108 11111 21120 37487 47008 5//// 60172 77074 333 11111 47375 553// 20000 69985 90766 93105
AAXX 06184 06990 01450 80208 10047 21029 39689 40246 5//// 69962 76362 887// 333 10047 42/// 553// 20000 60005 88719
AAXX 06184 06760 31782 53504 10051 21037 39737 40191 5//// 70262 8151/ 333 10068 31/// 553// 20000 81650 84458 90766 93100
AAXX 06184 06720 32465 82613 10032 21020 39699 40290 5//// 886// 333 10038 42006 553// 20000 88711 90766 93100
AAXX 06184 06610 31664 71908 10025 21008 39696 40298 5//// 71082 875// 333 10042 33/// 553// 20000 87634 90766 93100
AAXX 06184 84072 11565 80404 10167 20110 37308 69941 72045 8321/ 333 59007 555 10004 30069
AAXX 06184 84173 31774 50406 10184 20108 70544 83250 555 30061
AAXX 06184 84036 31568 81408 10157 20114 70544 8555/ 555 30075
AAXX 06184 84143 12565 71612 10166 20116 37409 69931 86830 333 58010 555 10003 30072
AAXX 06184 84270 11565 50408 10210 20118 69991 74025 85500 555 10009 30056
AAXX 06184 84204 11668 70504 10280 20222 69931 72044 83410 555 10003 30070
AAXX 06184 84202 31570 72702 10268 20205 30160 70544 85210 333 59020 555 30068
AAXX 06184 84135 12675 70902 10298 20226 30070 60011 86230 333 59026 555 10010 30065
AAXX 06184 84160 31575 70904 10179 20086 37269 70544 85530 333 58004 555 30054
AAXX 06184 84142 11257 60410 10188 20182 69941 75046 86800 555 10004 30095
AAXX 06184 84179 11560 70000 10231 20208 39063 69941 71794 85960 333 58002 555 10004 30087
AAXX 06184 84140 32581 71804 10284 20221 30032 40117 84150 333 59026 555 30069
AAXX 06184 84226 31/00 90000 10110 20110 74744 89/// 555 30100
AAXX 06184 84076 11570 73602 10165 20128 69911 70545 87400 555 10001 30078
AAXX 06184 84008 11559 71410 10249 20238 30126 40136 60061 75065 86810 00231 333 59012 555 10061 30094
AAXX 06184 84132 31470 80404 10267 20234 39895 70544 8727/ 333 58008 555 30082
AAXX 06184 84105 31562 73604 10284 20223 31001 70542 84510 333 59002 555 30069
AAXX 06184 84088 31565 80000 10150 20114 37069 70546 883// 333 59005 555 30079
AAXX 06184 84050 31565 51812 10276 20213 70545 84210 555 30069
AAXX 06184 84045 31440 80906 10119 20096 74545 888// 555 30086
AAXX 06184 84056 12280 72304 10170 20092 69971 87800 555 10007 30056
BBXX 44139 06181 99442 70571 46/// /3010 10015 40098 57001 22200 00048 10805 70025 333 91213
AAXX 06184 17600 11560 71609 10152 20106 30119 40129 53008 60022 72181 878// 333 10171 20105 81825 87644
BBXX C6FY8 06183 99414 11464 41898 62824 10040 21130 40170 5//// 70222 862// 22211 0//// 20703 32728 40706 51208 6//// 81010 ICE /////
BBXX WDB3161 06184 99359 11426 41498 80125 10110 20050 40170 54000 70222 887// 22215 00208 20804 301// 41005 5//// 6//// 80080 ICE /////
BBXX D5BC5 06184 99414 11522 41/98 73211 00/// 10020 21030 40110 54000 70322 87/// 22224 04/// 2//// 3//// 4//// 5//// 6//// 80000 ICE /////
BBXX LAYG5 06184 99454 11639 41597 80918 10030 21050 40010 51020 70322 885// 22213 00086 20804 327// 41404 80000
BBXX 44139 06181 99442 70571 46/// /3010 10015 40098 57001 22200 00048 10805 70025 333 91213
AAXX 06181 26247 01442 83003 10003 20001 39873 49952 53023 69992 72682 883// 333 10019 20003 60007 88913 555 1/100 20003 3/100 50009
AAXX 06181 34415 32697 81804 10042 20025 39970 40066 53013 885// 333 10079
AAXX 06181 33791 11243 81905 10072 20068 39864 40012 52015 60012 72162 886// 333 10077 88706
AAXX 06181 01257 16/// /2601 11018 21026 39842 40006 51010 60022 333 10015 91113
AAXX 06181 01488 16/// /1701 11066 21073 60002 333 11046 91103
AAXX 06181 37575 42998 20502 11006 21034 39590 40193 54000 82050 333 10016
AAXX 06181 37675 32995 01102 10030 20003 39442 52001 333 10134 555 53006
AAXX 06181 37735 42998 02702 10009 21027 39770 40155 53012 333 10050
AAXX 06181 37749 42998 62902 10022 21008 30079 40198 58002 86080 333 10069 555 53004
AAXX 06181 37756 41/93 92707 11013 21013 39279 40201 56004 74542 333 10021
AAXX 06181 37864 32597 41910 10060 20026 40145 57002 84500 333 10079 84623
AAXX 06181 37985 42596 83601 10056 20029 30183 40168 58006 885// 333 10072
AAXX 06181 48803 32497 81402 10122 20111 30129 40247 58001 888// 333 58026 83894 88696
AAXX 06184 60710 12558 62823 10126 20033 30089 40169 51034 60002 86800 333 10160 84820 83630
AAXX 06184 60714 12460 63423 10129 20022 30142 40148 52026 60002 86800 333 10159 84816 83630 91153 91237 91535
AAXX 06184 60720 11558 42910 10102 20050 30070 40104 53035 60082 70298 84800 333 10163 83820
AAXX 06184 60728 NIL
AAXX 06184 60729 NIL
AAXX 06184 60731 NIL
AAXX 06184 60732 NIL
AAXX 06184 60734 12558 63221 10085 20028 39613 40139 51019 60002 85202 333 10137 85823
AAXX 06184 60738 NIL
AAXX 06184 60739 11630 33239 10083 20008 39299 40122 53010 60002 70711 83202 333 10127 83833 94239
AAXX 06184 60740 12560 53230 10132 20056 30119 40121 53019 60002 84582 333 10181 84620
AAXX 06184 60742 NIL
AAXX 06184 60764 12560 33312 10157 20020 30089 40162 53005 60002 83200 333 10203 83830
AAXX 06184 60770 12960 42712 10161 20035 30000 40137 52023 60002 84080 333 10201 84360
AAXX 06184 60772 NIL
AAXX 06184 60775 12562 63006 10143 20012 39799 40152 53013 60002 85502 333 10169 85630
AAXX 06184 60780 12960 03114 10122 21032 39850 40152 58012 60002 333 10173
BBXX SBHI 06183 99572 10184 43/97 02318 10006 40027 50017 22252 06053
AAXX 06184 91753 02584 73105 10273 20235 30068 40100 53013 69902 8122/ 333 10281 20271 60007 81820 87469 90710 91110 555 60005
AAXX 06184 91754 01475 80104 10250 20232 30058 40099 53011 60021 725// 8697/ 333 69947 81810 81916 84818 88360 555 69925
AAXX 06184 89002 42999 00606 11031 21060 39775 49829 52003
AAXX 06184 13600 12962 81406 10072 20007 39867 49919 52025 60062 8805/ 333 10090 88360
BBXX DCSL2 06184 99370 71521 41298 82126 10170 20170 40140 54000 71082 887// 22224 00153 20304 30000 80170
AAXX 06184 13622 11662 83314 10056 20021 39971 49978 52045 60472 70266 885// 333 10125 88633
BBXX A8CG7 06180 99369 31693 41597 69902 10188 40100 53010 7//// 854// 22274 2//// 3//// 4//// 5////
BBXX A8CE9 06184 99140 10563 41298 30416 10244 20216 40158 51020 70200 83100 22274 04270 29902 80224
BBXX DCPC2 06184 99256 11697 41498 12316 10240 20196 40170 54000 70100 81160 22263 00250 21003 320// 41003 5//// 80210
BBXX SKWI 06184 99382 70652 43/98 72819 10126 40158 53004 22214 00200 2//// 4////
BBXX SERW 06183 99165 70357 43696 40713 10242 2//// 40164 56017 70322 858// 22262 06246 20402 305// 40806
BBXX SBLW 06183 99535 71479 43/98 70809 11020 40068 58011 22273 00043 2//// 4////
BBXX SKUN 06183 99455 70414 43/98 59013 10130 40141 58054 22264 00141 20204 40708
AAXX 06184 60731 02958 03129 10123 20025 30144 40121 53020 60002 333 10178 20123 59056 60007 91044 91151
BBXX SBLI 06181 99079 11086 43/98 80214 10247 40132 58019 22254 00246 2//// 4////
BBXX SLCO 06184 99061 11462 43/98 70610 10279 40098 57023 22274 00281 2//// 4////
AAXX 06184 71358 17/// /2501 11334 21371 39959 49996 51010 60011 7//4/ 333 11330 21409 70065
AAXX 06184 71361 16/// /1701 11243 21269 39937 40154 51016 60001 333 11161 21268 70000
AAXX 06184 71362 16/// /3204 11175 21199 39876 40141 51021 60001 333 11157 21183 70000
AAXX 06184 71364 16/// /0908 11232 21259 39902 40039 56016 60001 333 11216 21254 70000
AAXX 06184 71365 16/// /1402 11235 21256 39924 40147 51006 60001 333 11207 21286 70000
AAXX 06184 71373 17/// /1505 11027 21068 60011 7//4/ 333 11026 21127 70010
AAXX 06184 71381 46/// /0606 11179 21201 6///1 333 21311 7////
AAXX 06184 71393 16/// ///// 10017 21136 38897 40177 51006 60001 333 10017 21020 70000
AAXX 06184 71431 16/// /2706 10041 20022 39917 40012 58011 60001 333 10053 21019 70000
AAXX 06184 71243 16/// /2616 10033 21108 39118 40207 50008 60001 333 10033 21012 70000
AAXX 06184 71246 16/// /2605 11013 21064 39466 40132 52015 60001 333 11002 21020 7////
AAXX 06184 71450 16/// /2914 10001 21073 39425 40147 50017 60001 333 10012 21022 70000
AAXX 06184 71452 46/// /3220 10016 21040 39427 40139 51028 6///1 333 10018 21003 7////
AAXX 06184 71465 46/// /2212 10056 20018 39832 40047 56012 6///1 333 10057 20014 7////
AAXX 06184 71470 16/// /2401 11301 21332 39474 40135 50000 60001 333 11288 21369 7////
AAXX 06184 71475 17/// /0000 10017 20016 30162 40257 55000 69961 7//4/ 333 10017 20001 70006
AAXX 06184 71476 17/// /1420 30126 56008 60011 7//4/ 333 70018
AAXX 06184 71480 16/// /1303 11236 21262 39951 40077 56016 60001 333 11221 21289 70003 555 10010
AAXX 06184 71484 16/// /1632 10052 20037 30101 40119 55004 60001 333 10059 20035 70000
AAXX 06184 71489 16/// /2808 11017 21075 39341 40138 51016 60001 333 10005 21061 70000
AAXX 06184 71492 46/// ///10 11216 21238 39337 40050 58006 6///1 333 11182 21265 7////
AAXX 06184 71832 16/// /1002 11103 21114 39650 49980 51001 60001 333 11102 21161 70000 555 10020
AAXX 06184 71858 17/// /3306 11093 21120 39807 40093 51026 60011 7//4/ 333 11071 21097 70013
AAXX 06184 71924 11774 23305 11353 21399 39930 40024 51008 69901 70370 82500 333 11304 21356 48038 79999 90923
AAXX 06184 71885 16/// ///// 10018 60001 333 10018 21050 7////
AAXX 06184 71956 16/// /2711 10062 20023 39754 49982 58003 60001 333 10064 21030 70000
AAXX 06184 71959 16/// ///// 11061 21108 60001 333 11011 21062 70021 555 10020
AAXX 06184 71970 17/// /2610 11018 21048 39525 40113 51018 69931 7//4/ 333 10001 21029 70039
AAXX 06184 71977 46/// /0101 11280 21280 39303 40042 58016 6///1 333 11243 7//// 555 10020
AAXX 06184 71978 46/// /2109 11208 21232 39684 40003 56009 6///1 333 11176 21253 7//// 555 10040
AAXX 06184 71989 16/// /1505 11280 21308 30049 40066 58010 60001 333 11280 21348 70000
AAXX 06184 71758 16/// /2810 11068 21100 30019 40097 55001 60001 333 11028 21082 70033
AAXX 06184 71669 16/// /2603 11021 21130 38554 40191 51006 60001 333 11012 21032 70000
AAXX 06184 71671 16/// /2507 11062 21155 30065 40126 56015 60001 333 11050 21099 70003
AAXX 06184 71837 16/// ///// 10009 60001 333 10010 7////
AAXX 06184 71840 46/// /3017 10022 21019 6///1 333 10041 20002 7////
AAXX 06184 71402 46/// /2716 11037 21075 39881 49995 53015 6///1 333 11001 21050 7////
AAXX 06184 71407 16/// /2814 11350 21391 39989 40011 51014 60001 333 11275 21366 70000
AAXX 06184 71428 16/// /2312 11126 21169 30104 40110 57011 60001 333 11114 21134 70000
AAXX 06184 71429 16/// /2804 11098 21176 30068 40088 57012 60001 333 11098 21158 70000
AAXX 06184 71446 16/// /2816 11001 21061 39173 40156 50009 60001 333 10006 21025 70000
AAXX 06184 71809 11532 72516 11056 21092 30001 40028 53010 60011 78581 86500 333 11016 21063 47045 70072 90983 93101
AAXX 06184 71250 16/// /2609 10002 21060 39887 40022 53006 60001 333 10059 21042 70066
AAXX 06184 71270 16/// /2503 10074 20009 39786 40001 58004 60001 333 10089 21024 70000
AAXX 06184 71295 17/// /3305 11053 21065 39568 40014 51025 69981 7//4/ 333 11038 21078 70137 555 10180
AAXX 06184 71296 16/// /2403 10057 20006 39703 40005 58011 60001 333 10057 21036 70000
AAXX 06184 71501 16/// /1303 11269 21300 39998 40000 55008 60001 333 11219 21301 70006
AAXX 06184 71511 16/// /2912 11005 21054 39487 40127 51015 60001 333 10013 21016 70000
AAXX 06184 71514 16/// /3012 11004 21050 39442 40144 51026 60001 333 10010 21022 70000
AAXX 06184 71515 16/// /3115 11001 21023 39424 40127 51031 60001 333 10009 21014 70000
AAXX 06184 71522 46/// /0000 11229 21263 39607 40122 56020 6///1 333 11229 21298 70000
AAXX 06184 71524 16/// /0107 11134 21157 30050 40078 56036 60001 333 11128 21157 70000 555 10010
AAXX 06184 71736 46/// ///// 10004 21098 6///1 333 10004 21022 7////
AAXX 06184 71747 47/// /2808 39516 5/016 6///1 7//4/ 333 7////
AAXX 06184 71110 16/// /2717 11001 21050 39981 40041 55005 60001 333 10037 21014 70106
AAXX 06184 71147 16/// /0109 11002 21026 60001 333 10050 21002 70000
AAXX 06184 71066 11574 20000 11170 21200 39722 40155 52022 69901 70171 82500 333 11097 21176 48029 70002 90946
AAXX 06184 71157 46/// ///// 11001 21069 6///1 333 10007 21025 7////
AAXX 06184 71158 17/// /3110 11094 21111 39786 40065 51029 69931 7//4/ 333 11052 21094 70003
AAXX 06184 71160 16/// /0000 11305 21340 39936 40164 53018 60001 333 11282 21312 70000
AAXX 06184 71162 46/// /1205 11213 21243 6///1 333 11203 21227 7////
AAXX 06184 71164 46/// /1103 11303 21339 30001 40086 56015 6///1 333 11231 21309 7////
AAXX 06184 71165 46/// ///02 11268 21299 39847 40146 53001 6///1 333 11250 21321 7////
AAXX 06184 71166 46/// /1402 11224 21245 39509 40143 51012 6///1 333 11161 21285 7////
AAXX 06184 71180 16/// /2721 11055 21090 30038 40078 53010 60001 333 11007 21055 70038 555 10030
AAXX 06184 71015 16/// ///// 11004 60001 333 11004 21031 70000
AAXX 06184 71017 16/// /2913 11349 21386 30064 40080 57007 60001 333 11340 21382 70000
AAXX 06184 71019 46/// /1703 11144 21192 39810 40124 56025 6///1 333 11108 21229 7////
AAXX 06184 71020 46/// /3402 11273 21305 39871 40140 51004 6///1 333 11243 21298 7////
AAXX 06184 71021 46/// /0000 11298 21331 39782 40152 52016 6///1 333 11192 21299 7////
AAXX 06184 71063 16/// /0507 11111 21123 39943 40045 56024 60001 333 11099 21137 70023 555 10010
BBXX 44150 06181 99425 70640 46/// /3303 10013 40138 57010 22200 00095 10804 70019 333 91205
AAXX 06184 71612 16/// /0205 11116 21140 39971 40063 56035 60001 333 11108 21133 70000
AAXX 06184 71951 11359 80402 11001 21005 39912 40182 55001 69981 77187 885// 333 10009 21007 43043 70010 90973 93101
AAXX 06184 71551 16/// /2914 11003 21069 39481 40138 51012 60001 333 10006 21031 70000
AAXX 06184 71564 16/// /3014 10024 21024 39684 40045 51018 60001 333 10042 20006 70000
AAXX 06184 71578 17/// /0611 11116 21164 60011 7//4/ 333 11116 21172 70011
AAXX 06184 71581 16/// /2201 11003 21013 39517 49998 58019 60001 333 11003 70035 555 10040
AAXX 06184 71586 16/// /3002 11078 21085 39633 40103 51016 60001 333 11042 21091 70047 555 10060
AAXX 06184 71588 16/// /2520 11069 21103 60001 333 11026 21069 70000
AAXX 06184 71589 16/// /2510 11035 21076 39881 40014 53006 60001 333 11002 21054 70072 555 10070
AAXX 06184 71599 16/// /3302 11049 21104 39930 40136 56017 60001 333 11041 21095 70006 555 10010
AAXX 06184 71074 16/// ///02 11364 21401 39927 40008 56006 60001 333 11312 21364 7////
AAXX 06184 71087 46/// /0000 11268 21299 39942 40157 52012 6///1 333 11173 21269 7////
AAXX 06184 71312 16/// /2804 11031 21048 39647 40105 51015 60001 333 10019 21039 70113
AAXX 06184 71317 16/// /2705 11075 21183 30074 40122 56017 60001 333 11075 21134 70005
AAXX 06184 71320 16/// /2605 11393 21433 39952 49952 53005 60001 333 11324 21401 70000
AAXX 06184 71322 46/// /2807 11332 21366 30110 40124 53003 6///1 333 11329 21365 7////
AAXX 06184 71332 16/// /1804 11255 21282 30057 40088 58007 60001 333 11252 21333 70000
AAXX 06184 71334 46/// /0601 11227 21260 39795 40140 51017 6///1 333 11226 21251 7////
AAXX 06184 71431 16/// /2706 10041 20022 39917 40012 58011 60001 333 10053 21019 70000
AAXX 06184 71924 11774 23305 11353 21399 39930 40024 51008 69901 70370 82500 333 11304 21356 48038 79999 90923
AAXX 06184 71832 16/// /1002 11103 21114 39650 49980 51001 60001 333 11102 21161 70000 555 10020
AAXX 06184 71858 17/// /3306 11093 21120 39807 40093 51026 60011 7//4/ 333 11071 21097 70013
AAXX 06184 71358 17/// /2501 11334 21371 39959 49996 51010 60011 7//4/ 333 11330 21409 70065
AAXX 06184 71361 16/// /1701 11243 21269 39937 40154 51016 60001 333 11161 21268 70000
AAXX 06184 71362 16/// /3204 11175 21199 39876 40141 51021 60001 333 11157 21183 70000
AAXX 06184 71364 16/// /0908 11232 21259 39902 40039 56016 60001 333 11216 21254 70000
AAXX 06184 71365 16/// /1402 11235 21256 39924 40147 51006 60001 333 11207 21286 70000
AAXX 06184 71373 17/// /1505 11027 21068 60011 7//4/ 333 11026 21127 70010
AAXX 06184 71381 46/// /0606 11179 21201 6///1 333 21311 7////
AAXX 06184 71393 16/// ///// 10017 21136 38897 40177 51006 60001 333 10017 21020 70000
AAXX 06184 71885 16/// ///// 10018 60001 333 10018 21050 7////
AAXX 06184 71501 16/// /1303 11269 21300 39998 40000 55008 60001 333 11219 21301 70006
AAXX 06184 71511 16/// /2912 11005 21054 39487 40127 51015 60001 333 10013 21016 70000
AAXX 06184 71514 16/// /3012 11004 21050 39442 40144 51026 60001 333 10010 21022 70000
AAXX 06184 71515 16/// /3115 11001 21023 39424 40127 51031 60001 333 10009 21014 70000
AAXX 06184 71522 46/// /0000 11229 21263 39607 40122 56020 6///1 333 11229 21298 70000
AAXX 06184 71524 16/// /0107 11134 21157 30050 40078 56036 60001 333 11128 21157 70000 555 10010
AAXX 06184 71837 16/// ///// 10009 60001 333 10010 7////
AAXX 06184 71840 46/// /3017 10022 21019 6///1 333 10041 20002 7////
AAXX 06184 71243 16/// /2616 10033 21108 39118 40207 50008 60001 333 10033 21012 70000
AAXX 06184 71246 16/// /2605 11013 21064 39466 40132 52015 60001 333 11002 21020 7////
AAXX 06184 71450 16/// /2914 10001 21073 39425 40147 50017 60001 333 10012 21022 70000
AAXX 06184 71452 46/// /3220 10016 21040 39427 40139 51028 6///1 333 10018 21003 7////
AAXX 06184 71465 46/// /2212 10056 20018 39832 40047 56012 6///1 333 10057 20014 7////
AAXX 06184 71470 16/// /2401 11301 21332 39474 40135 50000 60001 333 11288 21369 7////
AAXX 06184 71475 17/// /0000 10017 20016 30162 40257 55000 69961 7//4/ 333 10017 20001 70006
AAXX 06184 71476 17/// /1420 30126 56008 60011 7//4/ 333 70018
AAXX 06184 71480 16/// /1303 11236 21262 39951 40077 56016 60001 333 11221 21289 70003 555 10010
AAXX 06184 71484 16/// /1632 10052 20037 30101 40119 55004 60001 333 10059 20035 70000
AAXX 06184 71489 16/// /2808 11017 21075 39341 40138 51016 60001 333 10005 21061 70000
AAXX 06184 71492 46/// ///10 11216 21238 39337 40050 58006 6///1 333 11182 21265 7////
AAXX 06184 71669 16/// /2603 11021 21130 38554 40191 51006 60001 333 11012 21032 70000
AAXX 06184 71671 16/// /2507 11062 21155 30065 40126 56015 60001 333 11050 21099 70003
AAXX 06184 71250 16/// /2609 10002 21060 39887 40022 53006 60001 333 10059 21042 70066
AAXX 06184 71270 16/// /2503 10074 20009 39786 40001 58004 60001 333 10089 21024 70000
AAXX 06184 71295 17/// /3305 11053 21065 39568 40014 51025 69981 7//4/ 333 11038 21078 70137 555 10180
AAXX 06184 71296 16/// /2403 10057 20006 39703 40005 58011 60001 333 10057 21036 70000
AAXX 06184 71015 16/// ///// 11004 60001 333 11004 21031 70000
AAXX 06184 71017 16/// /2913 11349 21386 30064 40080 57007 60001 333 11340 21382 70000
AAXX 06184 71019 46/// /1703 11144 21192 39810 40124 56025 6///1 333 11108 21229 7////
AAXX 06184 71020 46/// /3402 11273 21305 39871 40140 51004 6///1 333 11243 21298 7////
AAXX 06184 71021 46/// /0000 11298 21331 39782 40152 52016 6///1 333 11192 21299 7////
AAXX 06184 71063 16/// /0507 11111 21123 39943 40045 56024 60001 333 11099 21137 70023 555 10010
AAXX 06184 71758 16/// /2810 11068 21100 30019 40097 55001 60001 333 11028 21082 70033
AAXX 06184 71809 11532 72516 11056 21092 30001 40028 53010 60011 78581 86500 333 11016 21063 47045 70072 90983 93101
AAXX 06184 71956 16/// /2711 10062 20023 39754 49982 58003 60001 333 10064 21030 70000
AAXX 06184 71959 16/// ///// 11061 21108 60001 333 11011 21062 70021 555 10020
AAXX 06184 71970 17/// /2610 11018 21048 39525 40113 51018 69931 7//4/ 333 10001 21029 70039
AAXX 06184 71977 46/// /0101 11280 21280 39303 40042 58016 6///1 333 11243 7//// 555 10020
AAXX 06184 71978 46/// /2109 11208 21232 39684 40003 56009 6///1 333 11176 21253 7//// 555 10040
AAXX 06184 71989 16/// /1505 11280 21308 30049 40066 58010 60001 333 11280 21348 70000
AAXX 06184 71402 46/// /2716 11037 21075 39881 49995 53015 6///1 333 11001 21050 7////
AAXX 06184 71407 16/// /2814 11350 21391 39989 40011 51014 60001 333 11275 21366 70000
AAXX 06184 71428 16/// /2312 11126 21169 30104 40110 57011 60001 333 11114 21134 70000
AAXX 06184 71429 16/// /2804 11098 21176 30068 40088 57012 60001 333 11098 21158 70000
AAXX 06184 71446 16/// /2816 11001 21061 39173 40156 50009 60001 333 10006 21025 70000
AAXX 06184 71066 11574 20000 11170 21200 39722 40155 52022 69901 70171 82500 333 11097 21176 48029 70002 90946
AAXX 06184 71951 11359 80402 11001 21005 39912 40182 55001 69981 77187 885// 333 10009 21007 43043 70010 90973 93101
BBXX 44150 06181 99425 70640 46/// /3303 10013 40138 57010 22200 00095 10804 70019 333 91205
AAXX 06184 71074 16/// ///02 11364 21401 39927 40008 56006 60001 333 11312 21364 7////
AAXX 06184 71087 46/// /0000 11268 21299 39942 40157 52012 6///1 333 11173 21269 7////
AAXX 06184 71736 46/// ///// 10004 21098 6///1 333 10004 21022 7////
AAXX 06184 71747 47/// /2808 39516 5/016 6///1 7//4/ 333 7////
AAXX 06184 71551 16/// /2914 11003 21069 39481 40138 51012 60001 333 10006 21031 70000
AAXX 06184 71564 16/// /3014 10024 21024 39684 40045 51018 60001 333 10042 20006 70000
AAXX 06184 71578 17/// /0611 11116 21164 60011 7//4/ 333 11116 21172 70011
AAXX 06184 71581 16/// /2201 11003 21013 39517 49998 58019 60001 333 11003 70035 555 10040
AAXX 06184 71586 16/// /3002 11078 21085 39633 40103 51016 60001 333 11042 21091 70047 555 10060
AAXX 06184 71588 16/// /2520 11069 21103 60001 333 11026 21069 70000
AAXX 06184 71589 16/// /2510 11035 21076 39881 40014 53006 60001 333 11002 21054 70072 555 10070
AAXX 06184 71599 16/// /3302 11049 21104 39930 40136 56017 60001 333 11041 21095 70006 555 10010
AAXX 06184 71612 16/// /0205 11116 21140 39971 40063 56035 60001 333 11108 21133 70000
AAXX 06184 71110 16/// /2717 11001 21050 39981 40041 55005 60001 333 10037 21014 70106
AAXX 06184 71147 16/// /0109 11002 21026 60001 333 10050 21002 70000
AAXX 06184 71157 46/// ///// 11001 21069 6///1 333 10007 21025 7////
AAXX 06184 71158 17/// /3110 11094 21111 39786 40065 51029 69931 7//4/ 333 11052 21094 70003
AAXX 06184 71160 16/// /0000 11305 21340 39936 40164 53018 60001 333 11282 21312 70000
AAXX 06184 71162 46/// /1205 11213 21243 6///1 333 11203 21227 7////
AAXX 06184 71164 46/// /1103 11303 21339 30001 40086 56015 6///1 333 11231 21309 7////
AAXX 06184 71165 46/// ///02 11268 21299 39847 40146 53001 6///1 333 11250 21321 7////
AAXX 06184 71166 46/// /1402 11224 21245 39509 40143 51012 6///1 333 11161 21285 7////
AAXX 06184 71180 16/// /2721 11055 21090 30038 40078 53010 60001 333 11007 21055 70038 555 10030
AAXX 06184 71312 16/// /2804 11031 21048 39647 40105 51015 60001 333 10019 21039 70113
AAXX 06184 71317 16/// /2705 11075 21183 30074 40122 56017 60001 333 11075 21134 70005
AAXX 06184 71320 16/// /2605 11393 21433 39952 49952 53005 60001 333 11324 21401 70000
AAXX 06184 71322 46/// /2807 11332 21366 30110 40124 53003 6///1 333 11329 21365 7////
AAXX 06184 71332 16/// /1804 11255 21282 30057 40088 58007 60001 333 11252 21333 70000
AAXX 06184 71334 46/// /0601 11227 21260 39795 40140 51017 6///1 333 11226 21251 7////
AAXX 06184 48464 31956 00000 10235 20217 30125 40138 57004 71000 333 58008
AAXX 06184 78615 32482 30906 10254 20177 30058 40203 58022 83200 333 10258 20120 30/// 56200 57824 59042 83818
AAXX 06184 78627 32982 01606 10220 20033 38170 58107 333 10236 20050 30/// 59030
AAXX 06184 78637 32582 42704 10228 20187 30177 40193 58016 82230 333 10240 20174 30/// 56290 57844 59037 82820
AAXX 06184 78641 32982 03120 10194 20096 38565 40170 58011 333 10204 20102 30/// 59018
AAXX 06184 78647 32982 01810 10304 20184 30133 40145 58017 333 10318 20155 30/// 54505 54405 59002
AAXX 06184 04211 47/59 /0302 11193 21209 39868 40037 52030 77788 333 11188 21205
AAXX 06184 04220 07481 11907 11171 21198 30003 40058 52028 69912 70087 333 10307 21229 55300 20004 69907 81/16
AAXX 06184 04221 47584 71210 11150 21189 30016 40056 52030 70088 333 11144 21156 85/25 87/70
AAXX 06184 04231 12989 70507 11281 21324 30003 40084 52024 6///2 80001 333 11244 21290 87069
AAXX 06184 04234 47432 80103 11135 21171 30047 40058 52024 77188 333 11129 21174 88/14
AAXX 06184 04241 47684 50810 11107 21146 30015 40056 52017 77188 333 11099 21115 85/36
AAXX 06184 04250 07984 10805 11085 21152 39938 40046 52003 69902 70087 333 11077 21088 55300 20032 69907 81/61
AAXX 06184 04254 45984 21005 11087 21177 39941 40059 52011 333 11073 21104 82/69
AAXX 06184 04260 46/// /////
AAXX 06184 04270 47613 70503 11047 21073 30022 40062 52007 78587 333 11007 21048 83/42 87/50
AAXX 06184 04272 06/// ///// 39981 52001 69932 333 6///7
AAXX 06184 04312 46/// /1531 11062 21072 39991 40033 57004
AAXX 06184 04320 NIL
AAXX 06184 04339 47/56 ///// 11068 21073 39927 40019 57009 77171 333 11066 21127 55300 20000
AAXX 06184 04360 06/// /3601 11027 21119 39892 49962 52021 6///2 333 10008 21039 55300 20000 6///7
AAXX 06184 04361 46/// /2102 11046 21142 39913 49966 52021 333 10008 21062
AAXX 06184 04390 07/83 02111 11027 21142 39944 40039 52032 60112 70087 333 10014 21032 60027 91138 91230
AAXX 06184 78615 32482 30906 10254 20177 30058 40203 58022 83200 333 10258 20120 30/// 56200 57824 59042 83818
AAXX 06184 78627 32982 01606 10220 20033 38170 58107 333 10236 20050 30/// 59030
AAXX 06184 78637 32582 42704 10228 20187 30177 40193 58016 82230 333 10240 20174 30/// 56290 57844 59037 82820
AAXX 06184 78641 32982 03120 10194 20096 38565 40170 58011 333 10204 20102 30/// 59018
AAXX 06184 78647 32982 01810 10304 20184 30133 40145 58017 333 10318 20155 30/// 54505 54405 59002
BBXX DGLM 06183 99038 10095 41996 12302 10285 20237 40094 53004 70500 80007 22200 29901 30000 80250
BBXX A8RV9 06184 99370 30197 41598 62518 10210 20172 40160 53/// 70311 8/56/ 22224 20805 323// 41205 5//// 80185
BBXX V7OX3 06181 99359 30130 41/97 /2708 10190 20190 40170 52/// 703// 8//// 22223 04220 21005 3//// 4//// 5//// 80190
BBXX A8NF2 06184 99319 11238 41497 50314 10080 20080 40350 54000 70211 84465 22234 04110 2//// 3//// 4//// 5//// 80080
BBXX C6CU6 06183 99092 70514 41397 41021 10272 20255 40129 50000 70322 842// 22233 04277 20806 307// 40905 5//// 80260
BBXX MGGK4 06180 99170 70176 41/97 53607 10210 20164 40165 55015 70511 83038 22243 04203 20201 304// 40603 5//// 80180
BBXX KSDF 06184 99367 10009 41498 23307 10167 20149 40250 52010 70100 821// 22253 0//// 20301 329// 40702 5//// 6//// 80156 /////
AAXX 06184 62002 NIL
AAXX 06184 62010 31858 13215 10166 20043 40107 51006 70700 81060 333 10185 81357
AAXX 06184 62012 32560 32828 10163 20066 30058 40088 52001 83500 333 10182 83680
AAXX 06184 62053 NIL
BBXX 9VBM6 06183 99313 70116 41898 40114 10210 20146 40270 52010 7//22 83189 22243 00200 20302 3//// 40303 50302 6//// 80170 /////
AAXX 06181 40706 11450 83303 10008 20001 38638 40218 50011 69921 77062 8332X 333 55067 21008 81715 81940 88557
AAXX 06181 40718 12962 83003 10084 20076 30180 40151 50001 60001 80007 333 55085 88267
AAXX 06181 40732 12560 70000 10082 20060 30169 40144 53003 60001 83506 333 55084 83630 87269
AAXX 06181 40745 11956 00802 11092 21105 39090 40324 58002 60001 71000 333 55055 21214
AAXX 06181 40754 12660 71802 10022 21064 38836 40224 50003 60001 81570 333 55085 81640 87360
AAXX 06181 40766 12660 51603 10072 21068 38683 40188 52007 60001 83470 333 55012 20508 83645 85359
AAXX 06181 40800 12660 20000 10000 21097 38456 40230 51003 60001 82500 333 55092 2//// 82640
AAXX 06181 40811 11658 61202 10150 20073 30142 40169 52017 69911 70562 83530 333 55062 21048 83640 86360
AAXX 06181 40841 12960 40000 10028 21150 38262 40217 52013 60001 80002 333 55094 21586 84070
AAXX 06181 40848 12965 30000 10042 21013 38539 40212 51011 60001 80002 333 55094 21425 83069
AAXX 06181 40856 12965 11902 10004 21162 38660 40227 50004 60001 80002 333 55096 2//// 81070
AAXX 06181 40875 11935 03502 10140 21047 30170 40182 52010 60001 70500 333 55075 21166
AAXX 06181 40706 11450 83303 10008 20001 38638 40218 50011 69921 77062 8332X 333 55067 21008 81715 81940 88557
AAXX 06181 40718 12962 83003 10084 20076 30180 40151 50001 60001 80007 333 55085 88267
AAXX 06181 40732 12560 70000 10082 20060 30169 40144 53003 60001 83506 333 55084 83630 87269
AAXX 06181 40745 11956 00802 11092 21105 39090 40324 58002 60001 71000 333 55055 21214
AAXX 06181 40754 12660 71802 10022 21064 38836 40224 50003 60001 81570 333 55085 81640 87360
AAXX 06181 40766 12660 51603 10072 21068 38683 40188 52007 60001 83470 333 55012 20508 83645 85359
AAXX 06181 40800 12660 20000 10000 21097 38456 40230 51003 60001 82500 333 55092 2//// 82640
AAXX 06181 40811 11658 61202 10150 20073 30142 40169 52017 69911 70562 83530 333 55062 21048 83640 86360
AAXX 06181 40841 12960 40000 10028 21150 38262 40217 52013 60001 80002 333 55094 21586 84070
AAXX 06181 40848 12965 30000 10042 21013 38539 40212 51011 60001 80002 333 55094 21425 83069
AAXX 06181 40856 12965 11902 10004 21162 38660 40227 50004 60001 80002 333 55096 2//// 81070
AAXX 06181 40875 11935 03502 10140 21047 30170 40182 52010 60001 70500 333 55075 21166
AAXX 06180 44214 32998 03001 11229 21284 38352 40541 51002
AAXX 06180 44231 319// 70000 11263 21316 38802 40537 52002 70422 80008
AAXX 06180 44259 31997 20301 11302 21339 39435 40473 58001 70142 80004
AAXX 06180 44277 329// 00000 11233 21280 37845 40223 52003
AAXX 06180 44288 32999 02802 11158 21221 38199 40428 54000
AAXX 06180 44292 32999 00000 11272 21296 38778 40499 51003
AAXX 06180 44304 329// 00000 11282 21313 39090 40467 52001
AAXX 06180 44354 329// 00000 11263 21287 39210 40467 54000
AAXX 06180 44373 32999 00000 11224 21260 38592 48604 56005
AAXX 06180 44203 329// 20000 11317 21341 38493 40585 52003 80007
AAXX 06180 44207 329// 72702 11255 21294 38371 40494 54000 87070
AAXX 06180 44212 32999 21803 11364 21394 39321 40655 53003 80004
AAXX 06180 44213 32999 00000 11365 21403 38925 40663 54000
AAXX 06180 44215 32998 00000 11313 21336 38499 40588 54000
AAXX 06180 44218 329// 00000 11303 21334 38714 40579 55000
AAXX 06180 44225 329// 00000 11389 21405 38357 40700 51001
AAXX 06180 44230 329// 73602 11259 21292 38875 40524 52003 80008
AAXX 06180 44232 329// 50000 11321 21357 39215 40520 52004 85040
AAXX 06180 44237 32999 60000 11222 21254 38551 40457 53016 84041
AAXX 06180 44239 329// 23401 11294 21331 38869 40481 54001 82040
AAXX 06180 44241 329// 00000 11335 21359 39379 40514 52006
AAXX 06180 44256 32999 00000 11349 21364 39473 40468 56004
AAXX 06180 44265 329// 00000 11270 21301 38941 40516 58002
AAXX 06180 44272 329// 00000 11280 21306 38292 40535 52006
AAXX 06180 44275 32998 00000 11304 21315 37746 40555 54000
AAXX 06180 44282 32999 20000 11183 21249 38339 40425 51003 80004
AAXX 06180 44284 32999 00000 11293 21323 37884 40613 51002
AAXX 06180 44285 32999 11501 11265 21295 38369 40517 52002 80001
AAXX 06180 44287 32999 00204 11214 21255 38158 40491 58002
AAXX 06180 44294 329// 83301 11301 21333 38628 40547 57005 80007
AAXX 06180 44298 328// 30000 11252 21258 38792 40464 54000 74240 83040
AAXX 06180 44302 329// 02906 11263 21292 39212 40463 52008
AAXX 06180 44305 32999 02902 11274 21307 39156 40460 56004
AAXX 06180 44313 32999 30000 11310 21340 39523 40483 58008 80004
AAXX 06180 44314 32998 50000 11271 21294 39248 40478 57007 83084
AAXX 06180 44317 32998 72302 11225 21257 39047 40472 57001 87030
AAXX 06180 44336 329// 00000 11283 21313 38763 40534 58001
AAXX 06180 44341 329// 00000 11265 21295 38668 40512 58003
AAXX 06180 44347 32999 00000 11242 21266 38787 40475 58001
AAXX 06180 44352 32999 00000 11248 21266 39013 40459 56003
AAXX 06180 44358 329// 00000 11273 21291 39191 40488 56007
AAXX 06181 53564 32973 70000 11117 21162 39300 40384 52002 8703/ 333 00305 11024
AAXX 06181 53845 32965 80902 11047 21115 39179 40347 52001 8802/ 333 00304 10033
AAXX 06181 53959 32960 53204 10006 21102 39899 40356 52005 80002 333 10063
AAXX 06181 57127 32960 82901 10037 20021 39693 40319 52003 8807/ 333 10053
AAXX 06181 53614 31957 43402 11093 21141 39007 40370 52003 71000 80002 333 00401 11024
AAXX 06181 53646 32968 70000 11089 21149 38944 40351 52001 80002 333 00405 11005
AAXX 06181 54102 32980 01601 11306 21337 39142 40485 57008 333 11198
AAXX 06181 57131 32960 83601 11003 21078 39843 40359 52001 8807/ 333 10027
AAXX 06181 53463 32980 00701 11117 21191 39062 40378 57001 333 00303 11030
AAXX 06181 54337 32960 01101 11135 21192 30325 40415 54000 333 11055
AAXX 06181 54471 32960 00402 11138 21181 30404 40410 52004 333 11068
AAXX 06181 57265 32962 03401 11016 21063 30251 40367 52009 333 10075
AAXX 06181 57494 32965 00202 11019 21047 30310 40341 52009 333 10098
AAXX 06181 58102 32965 00201 11031 21113 30335 40386 52005 333 10060
AAXX 06181 58221 32960 00402 11017 21064 30345 40375 52004 333 10052
AAXX 06181 59134 11680 80203 10120 20088 30098 40269 52001 69911 70060 885// 333 10121
AAXX 06181 59644 11560 83604 10086 20072 30238 40255 57005 69901 76000 888// 333 10102
AAXX 06181 50468 32970 03202 11238 21259 30137 40366 52003 333 11114
AAXX 06181 51076 32980 03201 11201 21237 39474 40440 52003 333 00751 11081
AAXX 06181 51463 32962 00701 11118 21145 39237 40412 52003 333 00701 11043
AAXX 06181 51573 32970 00000 11099 21154 30352 40399 52004 333 00700 11036
AAXX 06181 52983 31958 72702 11119 21139 38163 52001 70500 80002 333 00651 11044
AAXX 06181 54401 32965 53201 11132 21173 39416 40400 52004 80002 333 11044
AAXX 06181 56778 32970 00701 10036 20029 38128 57001 333 00253 10157
AAXX 06181 58362 32980 20201 10037 21011 30344 40353 52003 82030 333 10079
AAXX 06181 56187 11430 80402 10038 20028 39639 40309 52003 60021 76066 8277/ 333 00300 10052
AAXX 06181 57461 31956 73401 10016 21005 30185 40354 52005 71000 8704/ 333 10086
AAXX 06181 57516 31957 82901 10065 20033 39981 40301 52003 71000 8807/ 333 00301 10083
AAXX 06181 58040 32962 23601 11042 21094 30370 40384 52006 80002 333 10037
AAXX 06181 58150 32560 73402 10012 21057 30370 40374 52004 875// 333 10053
AAXX 06181 58251 31940 03601 11027 21055 30360 40365 52002 71000 333 10060
AAXX 06181 50136 32970 02001 11326 21368 39788 40390 57008 333 11169
AAXX 06181 50745 32965 02901 11178 21224 30193 40394 52003 333 11087
AAXX 06181 50774 32960 00000 11261 21287 30050 40387 52004 333 11120
AAXX 06181 50788 32970 02503 11217 21242 30243 40337 52002 333 11140
AAXX 06181 54094 32962 01801 11211 21248 30067 40396 52005 333 11105
AAXX 06181 54161 32960 02201 11187 21220 30091 40411 52002 333 11087
AAXX 06181 54292 32965 02704 11143 21218 30046 40390 52006 333 11083
AAXX 06181 54374 32962 03601 11211 21238 39924 40435 52008 333 11096
AAXX 06181 54843 32966 02701 11060 21078 30372 40401 52005 333 10023
AAXX 06181 54909 32962 03401 11057 21083 30318 40385 52006 333 10041
AAXX 06181 56029 32680 30000 11109 21140 36430 52001 83900 333 00004 10011
AAXX 06181 51431 32975 00701 11130 21150 39552 40403 57002 333 00851 11026
AAXX 06181 52203 32980 00201 11144 21194 39455 40398 52008 333 00652 11023
AAXX 06181 52418 32980 02201 11143 21196 38978 40385 52004 333 00501 11001
AAXX 06181 52681 32980 71802 11110 21196 38720 40376 54000 80002 333 00400 11019
AAXX 06181 53798 32960 73401 11044 21092 30300 40402 52004 80002 333 10013
AAXX 06181 54423 32970 23401 11143 21187 39862 40416 52001 80002 333 11037
AAXX 06181 54618 32962 50901 11069 21095 30380 40399 52002 80002 333 10024
AAXX 06181 52533 32980 02203 11135 21222 38605 40386 52001 333 00501 11019
AAXX 06181 52652 32980 41802 11168 21243 38615 40393 54000 80002 333 00401 11024
AAXX 06181 53588 32980 22506 11140 21188 37825 57001 80002 333 11088
AAXX 06181 53772 31958 41401 11065 21154 39414 40383 52003 70400 80002 333 10018
AAXX 06181 53915 32762 80201 11031 21076 38740 40341 52001 885// 333 00405 11017
AAXX 06181 54342 32960 00701 11199 21220 30342 40410 52001 333 11088
AAXX 06181 54511 11770 82001 11035 21117 30358 40401 54000 69901 70070 885// 333 11019
AAXX 06181 54823 32966 01101 11046 21120 30170 40390 52006 333 10036
AAXX 06181 56080 32970 03201 11130 21162 37141 52003 333 00200 10042
AAXX 06181 56096 32770 80402 10020 21025 39022 40302 52002 885// 333 00403 10032
AAXX 06181 52866 32970 20000 11125 21155 37734 52006 80002 333 00501 10031
AAXX 06181 53513 32965 00000 11164 21179 39083 40395 57001 333 00401 11050
AAXX 06181 54218 32970 00000 11192 21241 39556 40430 57005 333 11075
AAXX 06181 57083 31957 00702 11029 21094 30245 40389 52006 71000 333 10033
AAXX 06181 57687 31758 82902 10057 21012 30240 40327 52005 70500 885// 333 10074
AAXX 06181 57816 11440 80703 11008 21012 38858 40306 52001 69911 76660 885// 333 00301 10017 93427
AAXX 06181 58238 32961 00702 10006 21052 30317 40363 52002 333 10071
AAXX 06181 58457 31930 03201 10009 21023 30301 40356 52004 71000 333 10041
AAXX 06181 58606 32760 80702 10052 21041 30261 40321 52003 885// 333 10085
AAXX 06181 58752 11765 83203 10062 20035 30276 40324 52002 69901 70060 885// 333 10064
AAXX 06181 58847 11562 83603 10088 20085 30191 40296 54000 60011 72166 885// 333 10088
AAXX 06181 59117 32662 83601 10085 20063 30165 40275 57002 885// 333 10096
AAXX 06181 59287 32570 83605 10084 20055 30176 40264 57005 888// 333 10110
AAXX 06181 59316 32662 80000 10123 20102 30250 40255 57005 885// 333 10141
AAXX 06181 59431 32662 80000 10082 20062 30127 40279 57001 885// 333 10089
AAXX 06181 59758 11450 80403 10133 20127 30157 40235 57007 60011 76066 887// 333 10133
AAXX 06184 47407 11/65 73507 11043 21066 30001 40180 52013 69901 70282 81232
AAXX 06184 47409 11/05 83210 11017 21031 30096 40151 50003 60011 78682 883//
AAXX 06184 47418 11/70 70213 11018 21044 30088 40139 52007 60031 72682 82202
AAXX 06184 47421 17/70 /1503 11033 21048 30137 40182 51015 69901 77170
AAXX 06184 47430 12/70 41601 11070 21100 30117 40174 52008 60001 81202
AAXX 06184 47570 17/69 /3003 11020 21050 39971 40242 51008 69951 77176
AAXX 06184 47575 11/50 82012 11015 21028 30152 40157 56026 60041 78682 883//
AAXX 06184 47584 12/65 21508 11039 21084 30002 40200 50001 60001 82300
AAXX 06184 47604 11/60 73008 10025 21058 30240 40249 51004 69951 72682 872//
AAXX 06184 47605 11/60 80604 10012 21002 30239 40282 53013 60071 78382 882//
AAXX 06184 47610 11/50 70706 11017 21028 39729 40253 50005 69901 78588 872//
AAXX 06184 47624 12/70 13205 10013 21045 30084 40228 51009 60001 81100
AAXX 06184 47629 12/65 13504 11014 21046 30172 40212 51006 60001 81100
AAXX 06184 47636 11/65 23506 10019 20001 30176 40247 51013 69901 70281 82100
AAXX 06184 47651 13/// /3109 10047 21005 30226 40249 51013 60001
AAXX 06184 47655 15/70 /2813 10045 21003 30160 40218 53006 60001
AAXX 06184 47675 15/70 /0510 10063 21016 30115 40208 53014 60001
AAXX 06184 47741 11/60 81005 10025 20010 30267 40296 53016 60081 78082 882//
AAXX 06184 47746 11/58 81204 10006 21001 30269 40289 51016 60151 78388 882//
AAXX 06184 47750 11/60 83407 10032 20013 30251 40280 51017 60061 78382 882//
AAXX 06184 47765 11/65 70307 10018 21011 30221 40290 53009 69901 78081 872//
AAXX 06184 47772 12/80 72804 10053 21005 30163 40267 51013 60001 878//
AAXX 06184 47800 15/67 /3106 10031 21024 30308 40313 53009 60001
AAXX 06184 47815 12/70 11503 10018 21031 30276 40293 50004 60001 81400
AAXX 06184 47817 12980 20601 10020 21016 30259 40305 53003 60001 80002
AAXX 06184 47830 12980 22906 10016 21010 30270 40289 53010 60001 80002
AAXX 06184 47887 12/70 10905 10019 21022 30243 40286 53005 60001 81100
AAXX 06184 47891 11/65 72709 10056 21002 30258 40276 53009 69901 78000 872//
AAXX 06184 47895 12/75 12909 10048 21010 30260 40268 52008 60001 81800
AAXX 06184 47927 11/65 80516 10179 20164 30173 40223 50004 60121 76062 888//
AAXX 06184 41265 36/// /1506 10196 20162 39644 40198 333 0E023 10278 58006
AAXX 06181 48855 32597 83201 10201 20175 30196 40204 57004 888// 333 58020 84895 88697
AAXX 06181 48848 11597 83202 10164 20147 30212 40220 57007 69901 70262 888// 333 58018 82895 88697
AAXX 06184 47401 11/70 70215 11016 21047 30183 40198 53011 69951 72682 8727/
AAXX 06184 47412 11/60 73305 11012 21034 30143 40176 51012 60021 78582 872//
AAXX 06184 47420 17/70 /3313 10001 21038 30089 40123 50000 69901 70076
AAXX 06184 47426 17/70 /3112 11009 21042 30102 40151 52004 69901 77170
AAXX 06184 47582 11/60 82815 10007 21051 30190 40218 50002 69901 78582 883//
AAXX 06184 47590 11/75 70703 11006 21038 30158 40214 51004 69901 70282 87300
AAXX 06184 47600 17/64 /2808 10021 21044 30264 40273 52007 69901 77170
AAXX 06184 47648 12/80 33321 10061 21018 30173 40208 53012 60001 83200
AAXX 06184 47662 12980 03505 10042 21064 30171 40217 51011 60001
AAXX 06184 47678 17/70 /2809 10099 20023 30020 40209 53007 69901 70060
AAXX 06184 47740 17/75 /3406 10023 21017 30256 40292 51011 60061 76776
AAXX 06184 47778 15/70 /3008 10064 21010 30166 40252 51006 69901
AAXX 06184 47807 11/70 71703 10042 21014 30283 40302 52006 69901 72522 87200
AAXX 06184 47827 12/80 63604 10043 21017 30256 40296 52007 60001 81132
AAXX 06184 47843 15/67 /3306 10072 20000 30272 40306 53004 60001
AAXX 06184 47893 12970 02903 10019 21017 30263 40269 50004 60001
AAXX 06184 47909 11/70 83602 10137 20119 30252 40262 50003 60011 76166 8727/
AAXX 06184 47918 11/58 70618 10185 20170 30189 40207 58009 60031 72162 878//
AAXX 06184 47936 11/60 80208 10154 20134 30183 40243 51001 60021 76162 8587/
AAXX 06184 47945 11/56 80205 10168 20160 30210 40235 50002 60041 76162 888//
AAXX 06184 47971 11/70 80302 10165 20108 30215 40225 58008 69901 72522 8427/
AAXX 06184 47991 16/// /0309 10215 20142 30185 40195 56005 69901
AAXX 06181 48852 11497 82501 10175 20174 30199 40209 58005 69931 76062 888// 333 58016 86894 88697 96160
AAXX 06181 34415 32697 81804 10042 20025 39970 40066 53013 885// 333 10079
AAXX 06184 85766 12475 12612 10277 20160 40177 57016 60001 70311 81400 333 56600 81615
AAXX 06184 40101 11557 82401 10069 20059 39085 48482 51007 60051 76066 882// 918// 333 10117 81923 87826
AAXX 06184 40103 31558 72408 10120 20090 40157 52011 76022 87800 333 10159 83824 85640 555 10183
AAXX 06184 40100 NIL
AAXX 06184 40102 NIL
AAXX 06181 40001 32570 61005 10071 20012 40176 53018 84550 333 10118 84626 86360
AAXX 06181 40007 12560 30000 10063 20053 40174 53009 60022 83500 333 10080 83630
AAXX 06181 40025 11560 71506 10118 20103 40147 52013 60052 76969 87900 333 10160 83926 85630
AAXX 06181 40045 32970 00000 10050 20009 40186 52017 333 10135
AAXX 06181 40061 32970 00000 10088 20006 40160 52015 333 10154
AAXX 06181 40080 32570 42705 10084 20045 39445 40162 52010 82530 333 10130 82630 83360
AAXX 06181 40087 NIL
AAXX 06181 40095 NIL
BBXX 2AJI3 06183 99057 70110 41598 53205 10285 20235 40099 53/// 70222 8227/ 22274 00270 20000 300// 4//// 5//// 80250
AAXX 06181 08501 32/// /1805 10169 20155 30254 40290 57006 333 10177 91108
AAXX 06181 08505 11468 41205 10178 20149 30260 40310 56006 60022 70282 84800 333 10191 84812
AAXX 06181 08509 32460 11404 10170 20149 30260 40325 55000 81800 333 10186 81816
AAXX 06181 08512 32480 51004 10171 20135 30227 40320 54000 85840 333 1//// 81816 85650
AAXX 06181 08515 NIL
AAXX 06181 08533 32/// /0205 10120 20095 30248 40277 54000 333 10147 91008 91108
AAXX 06181 08541 12/// /0104 10110 20078 30167 40288 54000 69912 333 10143
AAXX 06181 08545 31957 10301 10123 20091 30223 40308 57001 71000 80002 333 10144 81075
AAXX 06181 08548 32/// /3502 10099 20071 30099 40308 52001 333 10131
AAXX 06181 08554 31970 11102 10118 20082 30270 40280 55000 70300 80001 333 10165 81075
AAXX 06181 08558 12/// /3503 10095 20061 39990 40290 54000 69912 333 10147
AAXX 06181 08560 NIL
AAXX 06181 08567 32/// /0201 10081 20063 39652 40329 52002 333 10121
AAXX 06181 08570 31875 10501 10141 20066 39835 40293 52003 70300 81048 333 10188 81358
AAXX 06181 08575 32/// /0000 10099 20047 39504 40323 52002 333 10114
AAXX 06181 08579 32/// /2402 10125 20068 30166 40293 54000 333 10170 91105
AAXX 06181 34523 31496 81304 10028 20018 30023 40100 52004 71022 886// 333 10049 88715
BBXX A8VL7 06184 99132 70562 41598 30906 10268 20208 40120 58012 70211 81145 22274 04270 20803 30709 40803 50502 80226
BBXX A8SG2 06181 99355 31778 41397 80713 10195 20170 40060 58050 78022 887// 22224 00190 20803 305// 41003 5//// 80180
AAXX 06184 13619 11557 83224 10006 21016 39201 42614 54000 60062 77872 885// 333 10034 88630
AAXX 06181 40716 11657 80000 10010 20000 38914 40224 51024 60021 77176 8352X 333 55050 83640 88558
AAXX 06181 40719 11557 72902 10070 20056 30167 40156 53004 60001 71020 83570 333 55079 83625 87358
AAXX 06181 40721 12960 01611 10062 21046 39633 40185 53005 60001 333 55087
AAXX 06181 40858 12660 30000 10170 20115 30166 40177 52008 60001 83500 333 55079 83640
AAXX 06181 40872 12660 41405 10208 20162 30171 40176 53007 60001 84400 222// 00/// 20301 333 55085 84635
AAXX 06181 40877 12960 00000 10080 21033 39617 40173 52006 60001 333 55076
AAXX 06181 40898 11950 00000 10220 20068 30164 40173 51004 60001 70500 222// 00233 10500 333 55074 2////
AAXX 06181 13457 32670 73509 10097 21043 39931 49938 52018 84820 91816 333 10105 81833 83643 85459
AAXX 06181 40703 12960 00000 11012 21049 38904 40213 53013 60001 333 55050
AAXX 06181 40712 11656 33002 11028 21056 38663 40212 51007 60001 71020 82502 333 55060 2//// 83635
AAXX 06181 40729 11556 80603 11014 21021 38329 40212 53003 69961 77072 8432/ 333 55066 21017 82930 83630 88558
AAXX 06181 40736 12960 01102 10064 20035 30167 40141 56022 60001 333 55085
AAXX 06181 40739 12965 00302 11062 21099 38706 40284 51002 60001 333 55057
AAXX 06181 40743 12965 00605 11042 21107 39110 40292 54000 60001 333 55089
AAXX 06181 40762 12662 30000 11104 21125 38575 40298 53003 60001 82402 333 55086 82640
AAXX 06181 40768 12560 62503 10007 21009 38245 40208 52005 69901 83420 333 55032 20910 83640 85460
AAXX 06181 40769 12660 60000 10012 21092 38283 40210 50003 60001 83570 333 55079 21195 83635 85260
AAXX 06181 40785 12960 00000 10000 21069 39099 40232 54000 60001 333 55088
AAXX 06181 40809 12965 01302 11048 21134 38521 40267 51004 60001 333 55097 21395
AAXX 06181 40821 12960 62102 10028 21148 38803 40232 50006 60001 80006 333 55091 21386 86270
AAXX 06181 40831 12660 61203 10154 20117 30156 40163 51006 60001 86300 333 55073 81935 85640
AAXX 06181 40703 12960 00000 11012 21049 38904 40213 53013 60001 333 55050
AAXX 06181 40712 11656 33002 11028 21056 38663 40212 51007 60001 71020 82502 333 55060 2//// 83635
AAXX 06181 40729 11556 80603 11014 21021 38329 40212 53003 69961 77072 8432/ 333 55066 21017 82930 83630 88558
AAXX 06181 40736 12960 01102 10064 20035 30167 40141 56022 60001 333 55085
AAXX 06181 40739 12965 00302 11062 21099 38706 40284 51002 60001 333 55057
AAXX 06181 40743 12965 00605 11042 21107 39110 40292 54000 60001 333 55089
AAXX 06181 40762 12662 30000 11104 21125 38575 40298 53003 60001 82402 333 55086 82640
AAXX 06181 40768 12560 62503 10007 21009 38245 40208 52005 69901 83420 333 55032 20910 83640 85460
AAXX 06181 40769 12660 60000 10012 21092 38283 40210 50003 60001 83570 333 55079 21195 83635 85260
AAXX 06181 40785 12960 00000 10000 21069 39099 40232 54000 60001 333 55088
AAXX 06181 40809 12965 01302 11048 21134 38521 40267 51004 60001 333 55097 21395
AAXX 06181 40821 12960 62102 10028 21148 38803 40232 50006 60001 80006 333 55091 21386 86270
AAXX 06181 40831 12660 61203 10154 20117 30156 40163 51006 60001 86300 333 55073 81935 85640
AAXX 06184 88883 46/// /2720 10117 20036 40170 57013
AAXX 06184 88897 46/// /2618 10096 20027 40140 57009
AAXX 06180 44210 32999 00000 11279 21296 38630 54000
AAXX 06180 44216 32999 00000 11361 21384 39160 40638 58001
AAXX 06180 44217 32998 00000 11276 21299 37900 40582 54000
AAXX 06180 44219 329// 01102 11330 21353 38333 40162 52003
AAXX 06180 44221 329// 00000 11378 21399 38708 40670 52002
AAXX 06180 44224 329// 00000 11379 21415 38117 40685 51001
AAXX 06180 44229 32999 62702 11268 21300 37967 40540 51004 80008
AAXX 06180 44242 329// 00000 11339 21374 39445 40512 52005
AAXX 06180 44243 329// 02001 11368 21408 39547 40529 51006
AAXX 06180 44254 329// 02502 11276 21299 39135 40465 53003
AAXX 06180 44257 329// 00000 11345 21384 39069 40541 52004
AAXX 06180 44263 32998 00000 11286 21324 38134 40618 52005
AAXX 06180 44266 329// 03605 11202 21251 37807 40461 53003
AAXX 06180 44286 329// 00000 11240 21262 38705 40458 58006
AAXX 06180 44291 319// 00000 11338 21371 38817 40572 52004 70400
AAXX 06180 44325 329// 00902 11216 21258 38930 40464 52001
AAXX 06180 44329 32998 22303 11192 21198 37791 40338 54000 80001
AAXX 06180 44338 32999 62303 11231 21249 38535 40474 54000 80008
AAXX 06180 44348 329// 00000 11202 21208 38762 40421 54000
AAXX 06180 44374 32999 32701 11181 21237 38308 40466 54000 80006
AAXX 06180 44385 32999 00000 11210 21243 39010 40457 58015
AAXX 06180 44386 329// 00000 11231 21270 39149 40456 54000
AAXX 06184 96449 11458 73405 10240 20235 30075 40094 60091 76166 83571 333 83614 87365
AAXX 06183 87007 31560 50505 10151 20053 36742 47145 57012 71522 83125 333 56770 83820
AAXX 06183 87047 32568 70503 10250 20137 38794 48514 57016 87200 333 56200 57893 87820
AAXX 06183 87148 32970 32708 10350 20118 39992 40097 57015 82075 333 56077 82360 83270
AAXX 06184 87022 32960 80000 10252 20210 39588 40082 57013 8807/ 333 56099 88360
AAXX 06184 87046 32665 63606 10290 20135 39098 48494 57020 84870 333 56110 82840 83645
AAXX 06184 87097 32570 30506 10340 20158 39774 40077 57021 83100 333 56100 83825
AAXX 06184 87121 31565 71812 10276 20181 39614 40115 55003 71522 86870 333 56450 83830 83640
AAXX 06184 87129 11662 82302 10242 20196 39901 40128 56015 60061 8457/ 333 84640
AAXX 06184 87155 31962 22305 10346 20126 30045 40104 57012 70400 80005 333 56006 82270
AAXX 06184 87162 31558 11812 10344 20132 30024 40094 57011 70400 81100 333 56200 81820
AAXX 06184 87166 31958 11606 10342 20114 30030 40101 57012 70400 80005 333 56005 81270
AAXX 06184 87178 32670 22007 10350 20164 39942 40083 57013 82100 333 56000 82835
AAXX 06184 87217 31770 60506 10308 20209 39625 40098 57015 71792 81900 333 56600 57961 81950 82850 83656
AAXX 06184 87222 32770 73612 10309 20141 39590 40092 57016 85570 333 56550 85650 83360
AAXX 06184 87257 32960 51806 10352 20111 30010 40110 57021 83066 333 56066 83360 85270
AAXX 06184 87270 32965 00905 10339 20141 30054 40115 58012
AAXX 06184 87289 32962 01416 10317 20111 30033 40113 57011
AAXX 06184 87311 32765 63612 10322 20169 39440 40096 57017 82202 333 56606 57862 82850 86070
AAXX 06184 87320 NIL
AAXX 06184 87328 32680 71806 10351 20080 39461 40083 57028 83202 333 56606 57801 83840 84070 95000
AAXX 06184 70133 11664 81507 11272 21306 30044 40050 50012 69901 771// 91753 333 11244 21367 555 90618
AAXX 06184 70174 11420 81704 11283 21306 39765 40028 58000 69931 771// 91753 333 11272 21344 4/076 96010 555 90618
AAXX 06184 70200 32966 20000 11378 30052 40059 51006 91753 333 11322 21400 555 90618
AAXX 06184 70219 32966 20000 11333 21372 30036 40095 55002 91753 333 11317 21350 555 90618
AAXX 06184 70231 32966 00000 11428 39951 40093 53001 91753 333 11344 21428 4/097 555 90618
AAXX 06184 70261 11424 80000 11256 21289 39858 40040 53006 60021 771// 91753 333 11239 21350 96010 555 90618
AAXX 06184 70267 11420 82705 11239 21267 39534 40046 53013 69931 771// 91753 333 11139 21328 555 90618
AAXX 06184 70271 11648 82506 11106 21122 39315 49910 55003 69901 771// 91753 333 11011 21250 4/008 91016 96010 555 90618
AAXX 06184 70273 12666 61913 11122 21178 39939 40001 55001 69901 91753 333 11089 21161 4/076 555 90618
AAXX 06184 70316 31032 60323 11106 21128 39941 49978 58025 738// 91753 333 11100 21172 91030 555 90618
AAXX 06184 70326 32266 83406 11306 21333 30038 40054 56011 91754 333 11244 21322 555 90618
AAXX 06184 70340 32966 03409 11244 21289 30005 40071 56005 91753 333 11200 21272 555 90618
AAXX 06184 70350 32666 82804 11133 21178 39993 40034 56007 91753 333 11083 21172 4/003 555 90618
AAXX 06184 70361 11316 /0714 11006 21017 30016 40026 56019 60011 771// 91753 333 10006 21022 4/074 91019 96010 555 90618
AAXX 06184 70381 32666 81308 10011 21050 30081 40091 56025 91753 333 10017 20000 4/005 555 90618
AAXX 06184 70414 35666 83313 11039 21100 30035 40073 53003 91756 333 11033 21050 555 90618
AAXX 06181 30372 42999 80000 11355 21377 39411 40414 57011 82047
AAXX 06181 30433 42999 00000 11236 21255 39753 40411 53002
AAXX 06181 30554 429// 00000 11386 21402 39227 40509 57002
AAXX 06181 30635 429// 01202 11245 21264 39791 40427 52001
AAXX 06181 30673 42999 30000 11352 21357 39542 40431 57008 80001
AAXX 06181 30692 NIL
AAXX 06181 30758 41930 00000 11356 21384 39539 40495 54000 70500
AAXX 06181 30802 42999 83201 11212 21218 38764 48526 58002 84035
AAXX 06181 30823 41998 60802 11312 21336 39744 40473 52005 70411 80001
AAXX 06181 30879 42999 00000 11336 21359 39601 40480 58001
AAXX 06181 30935 42999 00000 11346 21374 39422 40509 52006
AAXX 06181 30949 42999 00000 11320 21331 39240 40453 54000
AAXX 06181 30965 429// 01201 11361 21384 39530 40496 57003
AAXX 06181 31168 42999 80202 11117 21200 30215 40227 53001 80001
AAXX 06181 31300 41906 00000 11284 21290 30028 40354 53001 74840
AAXX 06181 31329 42999 00000 11349 21370 39623 40395 52002
AAXX 06181 31369 42998 00000 11241 21253 30167 40261 57005
AAXX 06181 31416 42999 00000 11270 21270 30178 40278 57002
AAXX 06181 31484 42999 00000 11220 21211 39940 40234 52003
AAXX 06181 31512 429// 02701 11230 21256 30178 40363 52002
AAXX 06181 31538 42998 60101 11289 21307 39878 40368 52007 80001
AAXX 06181 31707 NIL
AAXX 06181 31735 41997 71902 11217 21241 30217 40314 53002 70272 84031
AAXX 06181 31770 32981 00000 11154 21167 30227 40259 52008
AAXX 06181 28676 325// 81703 11052 21073 30203 40334 52010 886// 333 11057
AAXX 06181 28766 315// 62005 11056 21070 30135 40331 52012 71022 84530 333 11049
AAXX 06181 28867 NIL
AAXX 06181 28879 116// 82106 11056 21070 30065 40363 52012 69900 70272 885// 333 11053 91112
AAXX 06181 28952 NIL
AAXX 06181 28966 125// 81805 11067 21087 30071 40367 52015 69900 885// 333 11064
AAXX 06181 29802 325// 81903 11132 21152 30209 40362 52004 885// 333 11170
AAXX 06181 29807 325// 82203 11110 21138 30242 40368 54000 885// 333 11159
AAXX 06181 34691 32998 81408 11023 21050 30210 40197 57001 8802/ 333 10015
AAXX 06181 35067 329// 82003 11085 21100 30095 40385 52008 8802/ 333 11068
AAXX 06181 35078 115// 82306 11089 21104 39997 40396 52006 69900 73632 885// 333 11080
AAXX 06181 35085 125// 82204 11080 21090 39891 40389 52004 69920 8657/ 333 11080
AAXX 06181 35108 329// 71605 11071 21105 30224 40272 52003 80050 333 10002
AAXX 06181 35188 112// 81602 11107 21122 39955 40416 52004 69920 71072 886// 333 11109 88703
AAXX 06181 35217 329// 71407 11090 21106 30246 40287 52001 80001 333 11054
AAXX 06181 35229 129// 01401 11139 21153 30077 40371 52007 69900 333 11036
AAXX 06181 35302 329// 61708 11066 21094 30242 40262 52003 86050 333 11031
AAXX 06181 35357 125// 81802 11183 21209 39956 40431 52005 69930 885// 333 11120
AAXX 06181 35394 12998 61401 11175 21197 39706 40442 52004 69920 80002 333 11130
AAXX 06181 35406 319// 61605 11066 21099 30263 40265 52004 70232 86040 333 11025
AAXX 06181 35416 329// 11308 11099 21136 30193 40320 52003 80001 333 11043
AAXX 06181 35426 329// 01302 11136 21156 30059 40372 53006 333 11066
AAXX 06181 35497 329// 00000 11213 21238 39572 40452 52003 333 11112
AAXX 06181 35532 31993 00912 11112 21147 39838 40359 57002 73933 333 11046 91016 91118
AAXX 06181 35671 32998 00000 11209 21233 39963 40438 52003 333 11156
AAXX 06181 35700 32998 01308 11045 21080 30263 40238 58004 333 11010 91012 91117
AAXX 06181 35746 319// 00503 11145 21158 30327 40400 52002 71000 333 11085
AAXX 06181 35796 31597 80403 11122 21146 39950 40414 52001 77772 886// 333 11106
AAXX 06181 35849 32998 00000 11138 21158 30299 40392 54000 333 11049
AAXX 06181 35925 329// 01107 11066 21086 40308 56001 333 11049
AAXX 06181 35953 129// 00402 11197 21209 30256 40398 57003 69900 333 11087
AAXX 06181 35969 329// 00000 11204 21229 30219 40411 58004 333 11141
AAXX 06181 36003 32998 22001 11193 21212 30227 40393 52006 80001 333 11113
AAXX 06181 36152 329// 02002 11209 21234 30210 40418 52006 333 11057
AAXX 06181 36177 115// 73101 11078 21092 30147 40404 52009 69940 78582 87300 333 11071
AAXX 06181 36208 NIL
AAXX 06181 36397 326// 81806 11106 21167 39811 40403 51002 885// 333 11096
AAXX 06181 36428 NIL
AAXX 06181 36535 329// 40000 11252 21283 39768 40475 52003 80001 333 11156
AAXX 06181 36639 NIL
AAXX 06181 36821 118// 80000 11060 21071 39882 40391 58004 69920 71072 8801/ 333 11049
AAXX 06181 36859 329// 60000 11118 21124 39576 40408 58003 83045 333 11029
AAXX 06181 36864 NIL
AAXX 06181 36870 113// 80101 11061 21072 39317 40370 58007 69900 77772 886// 333 11037
AAXX 06181 38001 32997 50509 11003 21047 30206 40176 52016 85030 333 10031
AAXX 06181 38062 329// 00401 11182 21208 30209 40388 58011 333 11101
AAXX 06181 38069 329// 00000 11149 21176 30169 40377 58009 333 11051
AAXX 06181 38196 NIL
AAXX 06181 38198 NIL
AAXX 06181 38222 32597 80000 11026 21052 39788 40364 58010 885// 333 11015
AAXX 06181 38232 32998 11104 11025 21048 30141 40243 58001 81080 333 11003
AAXX 06181 38328 NIL
AAXX 06181 38334 NIL
AAXX 06181 38341 11996 80104 11046 21057 39536 40352 58012 69920 71022 8802/ 333 11020
AAXX 06181 38343 12697 81603 11049 21073 39481 40356 58013 69930 885// 333 11030
AAXX 06181 38439 NIL
AAXX 06181 22028 11576 71803 11049 21055 39941 49979 52007 69962 77187 82570 333 11031 91004
AAXX 06181 22106 11596 73201 11083 21093 39890 49970 52009 60022 78582 86930 333 11052 86920 91002
AAXX 06181 22127 11596 71201 11042 21047 39770 49972 52008 69952 71082 87900 333 11035 85636 91002
AAXX 06181 22324 11440 81403 10002 21004 39912 49961 52012 60012 78582 889// 333 10003 91005
AAXX 06181 22621 11358 81503 11002 21011 39799 49938 53003 60022 77187 8672/ 333 10006 86708
AAXX 06181 22831 11496 81402 10001 21008 39904 49964 53001 60022 78582 889// 333 10006
AAXX 06181 22892 11294 80000 10000 21003 39893 49909 52012 60032 77187 8802/ 333 10003 88506 96028
AAXX 06181 26275 11396 81402 10011 20008 39909 49939 52007 60022 76162 8802/ 333 10019 88509
AAXX 06181 26389 11496 81702 10006 21002 39696 49958 52005 69982 78582 889// 333 10015
AAXX 06181 26499 12498 71504 10016 20005 39760 49987 52003 69902 87500 333 10017 87612
AAXX 06181 26695 11296 81803 10014 20006 39688 49994 52012 69902 71072 886// 333 10018 88706
AAXX 06181 26882 12464 71803 10018 20007 39716 49990 52012 69902 87500 333 10018 87611
AAXX 06184 78526 12566 40508 10272 20211 30132 40155 58024 69901 91756 333 10278 20228 555 90618
AAXX 06184 78543 15566 81204 10244 20239 30072 40153 58015 60031 91753 333 10267 20222 555 90618
AAXX 06181 22271 11/93 91603 11014 21019 30006 40016 52017 69920 74984 333 11006 93402
AAXX 06181 22520 11296 81207 11004 21007 39931 49940 56001 69992 77172 8872/ 333 11001 88705
AAXX 06181 22550 11466 61603 10000 21023 39995 40005 51002 69920 70282 86500 333 10005 86618
AAXX 06181 22583 NIL
AAXX 06181 22768 32697 81404 10005 21023 39978 40035 51002 885// 333 10015
AAXX 06181 22845 32498 81603 11003 21012 39841 49997 52001 885// 333 10000 86712
AAXX 06181 22887 31421 71503 10004 21005 39997 40067 52002 78622 8695/ 333 10005 86915 91105
AAXX 06181 23205 11498 82003 11033 21054 30043 40058 52014 69950 70282 886// 333 11049 88710 91106
AAXX 06181 23219 NIL
AAXX 06181 23418 11465 81803 11011 21024 30040 40114 52011 60020 70272 886// 333 11016 88713
AAXX 06181 23606 12460 81704 11010 21017 39944 40117 52009 69900 885// 333 11010 88610
AAXX 06181 23711 11498 81503 11024 21030 39975 40151 52003 69920 70272 885// 333 11024 88617
AAXX 06181 23804 11397 81802 11005 21014 39959 40107 54000 69900 77172 8572/ 333 11002 85707
AAXX 06181 27037 31598 81804 10012 21011 39857 40018 52002 77872 885// 333 10007 88624
AAXX 06181 27199 11498 81903 10011 20000 39937 40134 52005 60020 72176 885// 333 10009
AAXX 06181 27271 11497 81405 10010 20005 39935 40092 52006 60030 75175 886// 333 10012
AAXX 06181 27459 12398 81704 10012 21002 39907 40102 52011 60020 886// 333 10016 86708
AAXX 06181 27730 11396 81706 10012 20004 39864 40058 52008 60050 75162 886// 333 10019 88708
AAXX 06181 38598 426// 82702 11034 21055 40361 57004 885//
AAXX 06181 38599 NIL
AAXX 06181 38725 429// 30000 11100 21135 48540 54000 80002
AAXX 06181 38734 429// 00902 11163 21214 47010 51001
AAXX 06181 38744 429// 50000 11155 21168 38026 48580 58002 80001
AAXX 06181 38836 115// 80000 11041 21067 39349 40336 58001 69940 71022 889// 333 11020
AAXX 06181 38838 NIL
AAXX 06181 38844 429// 31802 11091 21153 48550 57005 80002
AAXX 06181 38846 NIL
AAXX 06181 38847 NIL
AAXX 06181 38932 NIL
AAXX 06181 38933 319// 40000 11071 21092 39801 40352 58013 74441 84030 333 10002
AAXX 06181 38944 129// 53603 11034 21047 39700 40202 52003 69900 85030 333 10019
AAXX 06181 38954 328// 70000 11062 21111 37902 48510 53001 83501 333 10021
AAXX 06181 28676 325// 81703 11052 21073 30203 40334 52010 886// 333 11057
AAXX 06181 28766 315// 62005 11056 21070 30135 40331 52012 71022 84530 333 11049
AAXX 06181 28867 NIL
AAXX 06181 28879 116// 82106 11056 21070 30065 40363 52012 69900 70272 885// 333 11053 91112
AAXX 06181 28952 NIL
AAXX 06181 28966 125// 81805 11067 21087 30071 40367 52015 69900 885// 333 11064
AAXX 06181 29802 325// 81903 11132 21152 30209 40362 52004 885// 333 11170
AAXX 06181 29807 325// 82203 11110 21138 30242 40368 54000 885// 333 11159
AAXX 06181 34691 32998 81408 11023 21050 30210 40197 57001 8802/ 333 10015
AAXX 06181 35067 329// 82003 11085 21100 30095 40385 52008 8802/ 333 11068
AAXX 06181 35078 115// 82306 11089 21104 39997 40396 52006 69900 73632 885// 333 11080
AAXX 06181 35085 125// 82204 11080 21090 39891 40389 52004 69920 8657/ 333 11080
AAXX 06181 35108 329// 71605 11071 21105 30224 40272 52003 80050 333 10002
AAXX 06181 35188 112// 81602 11107 21122 39955 40416 52004 69920 71072 886// 333 11109 88703
AAXX 06181 35217 329// 71407 11090 21106 30246 40287 52001 80001 333 11054
AAXX 06181 35229 129// 01401 11139 21153 30077 40371 52007 69900 333 11036
AAXX 06181 35302 329// 61708 11066 21094 30242 40262 52003 86050 333 11031
AAXX 06181 35357 125// 81802 11183 21209 39956 40431 52005 69930 885// 333 11120
AAXX 06181 35394 12998 61401 11175 21197 39706 40442 52004 69920 80002 333 11130
AAXX 06181 35406 319// 61605 11066 21099 30263 40265 52004 70232 86040 333 11025
AAXX 06181 35416 329// 11308 11099 21136 30193 40320 52003 80001 333 11043
AAXX 06181 35426 329// 01302 11136 21156 30059 40372 53006 333 11066
AAXX 06181 35497 329// 00000 11213 21238 39572 40452 52003 333 11112
AAXX 06181 35532 31993 00912 11112 21147 39838 40359 57002 73933 333 11046 91016 91118
AAXX 06181 35671 32998 00000 11209 21233 39963 40438 52003 333 11156
AAXX 06181 35700 32998 01308 11045 21080 30263 40238 58004 333 11010 91012 91117
AAXX 06181 35746 319// 00503 11145 21158 30327 40400 52002 71000 333 11085
AAXX 06181 35796 31597 80403 11122 21146 39950 40414 52001 77772 886// 333 11106
AAXX 06181 35849 32998 00000 11138 21158 30299 40392 54000 333 11049
AAXX 06181 35925 329// 01107 11066 21086 40308 56001 333 11049
AAXX 06181 35953 129// 00402 11197 21209 30256 40398 57003 69900 333 11087
AAXX 06181 35969 329// 00000 11204 21229 30219 40411 58004 333 11141
AAXX 06181 36003 32998 22001 11193 21212 30227 40393 52006 80001 333 11113
AAXX 06181 36152 329// 02002 11209 21234 30210 40418 52006 333 11057
AAXX 06181 36177 115// 73101 11078 21092 30147 40404 52009 69940 78582 87300 333 11071
AAXX 06181 36208 NIL
AAXX 06181 36397 326// 81806 11106 21167 39811 40403 51002 885// 333 11096
AAXX 06181 36428 NIL
AAXX 06181 36535 329// 40000 11252 21283 39768 40475 52003 80001 333 11156
AAXX 06181 36639 NIL
AAXX 06181 36821 118// 80000 11060 21071 39882 40391 58004 69920 71072 8801/ 333 11049
AAXX 06181 36859 329// 60000 11118 21124 39576 40408 58003 83045 333 11029
AAXX 06181 36864 NIL
AAXX 06181 36870 113// 80101 11061 21072 39317 40370 58007 69900 77772 886// 333 11037
AAXX 06181 38001 32997 50509 11003 21047 30206 40176 52016 85030 333 10031
AAXX 06181 38062 329// 00401 11182 21208 30209 40388 58011 333 11101
AAXX 06181 38069 329// 00000 11149 21176 30169 40377 58009 333 11051
AAXX 06181 38196 NIL
AAXX 06181 38198 NIL
AAXX 06181 38222 32597 80000 11026 21052 39788 40364 58010 885// 333 11015
AAXX 06181 38232 32998 11104 11025 21048 30141 40243 58001 81080 333 11003
AAXX 06181 38328 NIL
AAXX 06181 38334 NIL
AAXX 06181 38341 11996 80104 11046 21057 39536 40352 58012 69920 71022 8802/ 333 11020
AAXX 06181 38343 12697 81603 11049 21073 39481 40356 58013 69930 885// 333 11030
AAXX 06181 38439 NIL
BBXX C6XC6 06184 99291 71202 41897 53422 10180 2//// 40190 52020 70111 851// 22254 00190 20506 3//// 40905 5//// 6//// 8//// ICE /////
BBXX VRJI2 06183 99123 50346 41497 60909 10260 2023/ 40130 54000 75811 86700 22243 04270 21202 30909 41002 51002 6/00/ 80240 ICE 0////
BBXX PDGS 06184 99286 71316 41297 80720 10180 20148 40260 54000 70222 887// 22264 00180 29902 306// 41008 80160
BBXX WE3592 06184 99443 70828 43/// /2424 10050 2//// 40007 5//// 7//// 8//// 222// 0//// 2//// 3//// 4//// 5//// 6//// 8//// ICE /////
BBXX S6SR 06184 99211 70336 417// /0516 10270 20243 40210 56010 7//// 85/3/ 22273 02230 2//05 306// 4//// 5//// 6//// 80250 ICE /////
BBXX WCF3012 06184 99437 70825 41/98 72013 10060 40020 70222 22243 00060 20302
BBXX KEY796 06183 99571 71703 41/97 80418 11105 21150 40046 55/// 726// 8//// 222// 01011 2//// 3//// 4//// 5//// 6//// 8//// ICE /////
BBXX WDF2728 06184 99279 70863 41598 63503 10233 2017/ 40220 57010 7//22 83463 22273 0//// 20301 302// 40701 5//// 6//// 80189 ICE /////
BBXX HPYE 06183 99229 70841 41797 30509 10210 2001/ 40170 54/// 70311 83/5/ 22214 00250 20101 3//// 4//// 5//// 6//// 80110 ICE /////
BBXX WBN3013 06184 99242 70733 41/// /0612 10256 2//// 40051 56002 7//// 8//// 22232 0//// 20503 30736 40602 50402 6//// 8//// ICE /////
BBXX V7HC6 06184 99273 70907 416// 51717 10230 20185 40216 57014 7//22 852// 22200 00220 20301 320// 40702 5//// 6//// 80200 ICE /////
BBXX KCGJ 06183 99543 71635 41/97 40430 11067 2//// 49950 5//// 702// 8//// 222// 0//// 2//03 305// 4//03 5//// 6//// 8//// ICE /////
BBXX WXJ63 06183 99611 71464 41/92 92611 11017 21020 49926 52/// 775// 8//// 222// 00044 2//// 3//// 4//// 5//// 6//// 8//// ICE /////
AAXX 06181 38598 426// 82702 11034 21055 40361 57004 885//
AAXX 06181 38599 NIL
AAXX 06181 38725 429// 30000 11100 21135 48540 54000 80002
AAXX 06181 38734 429// 00902 11163 21214 47010 51001
AAXX 06181 38744 429// 50000 11155 21168 38026 48580 58002 80001
AAXX 06181 38836 115// 80000 11041 21067 39349 40336 58001 69940 71022 889// 333 11020
AAXX 06181 38838 NIL
AAXX 06181 38844 429// 31802 11091 21153 48550 57005 80002
AAXX 06181 38846 NIL
AAXX 06181 38847 NIL
AAXX 06181 38932 NIL
AAXX 06181 38933 319// 40000 11071 21092 39801 40352 58013 74441 84030 333 10002
AAXX 06181 38944 129// 53603 11034 21047 39700 40202 52003 69900 85030 333 10019
AAXX 06181 38954 328// 70000 11062 21111 37902 48510 53001 83501 333 10021
AAXX 06184 91165 32966 00809 10228 20172 30179 40215 51007 91753 333 10233 20222 555 90618
AAXX 06184 91182 32566 40606 10228 20178 30205 40208 51010 91753 333 10239 20206 555 90618
AAXX 06184 91190 32966 01408 10167 20128 30192 40212 51010 91754 333 10228 20139 555 90618
AAXX 06184 91212 32966 00508 10261 20228 31394 40127 56016 91754 333 10294 20250 555 90618
AAXX 06184 91285 32566 22306 10178 20106 30205 40219 53010 91753 333 10189 20161 555 90618
AAXX 06184 91348 32474 60307 10272 20226 30059 40112 55000 83101 333 561/9 70010 555 90618
AAXX 06184 91245 32562 20309 10240 20240 30157 91751 555 90618
AAXX 06181 20107 32597 30602 11058 21120 30057 40155 57002 82540 333 11054 91003
AAXX 06181 22003 NIL
AAXX 06181 22004 NIL
AAXX 06181 22100 NIL
AAXX 06181 22140 NIL
AAXX 06181 22113 11584 70501 11048 21058 39909 49973 52006 69982 70282 86930 333 11038 91002 93514
AAXX 06181 22212 11564 70000 11065 21073 39806 49972 52007 60022 70282 83930 333 11063
AAXX 06181 22213 NIL
AAXX 06181 22217 11461 70102 11036 21044 39923 49955 50002 69962 78582 87900 333 11036 85621 91004
AAXX 06181 22235 12481 81302 11014 21016 39787 49982 52010 60022 885// 333 11008 88616 91003
AAXX 06181 22249 12484 81101 11016 21021 39809 49997 52012 69942 886// 333 11008 91002
AAXX 06181 22312 11456 81102 11009 21011 39931 49953 52009 69972 78582 889// 333 11009 91003
AAXX 06181 22334 11484 71306 10007 21004 39957 49964 52006 69922 70282 87900 333 10010 91007
AAXX 06181 22349 11596 81505 10005 21018 39982 49994 52008 69902 72682 889// 333 10009 91006
AAXX 06181 22408 11356 81201 11005 21008 39774 49922 52003 60032 77172 8872/ 333 11004 88708
AAXX 06181 22602 11471 81202 11011 21012 39684 49908 52003 60032 72272 885// 333 11001 88611
AAXX 06181 22619 11358 81803 10000 21005 39768 49927 53001 60022 77187 8872/ 333 10004 87707
AAXX 06181 22721 11397 81201 10001 20001 39837 49937 53003 60042 78587 889// 333 10005 85706 93711
AAXX 06181 22802 11456 81602 10010 20007 39893 49916 52011 60062 78082 889// 333 10014
AAXX 06181 22820 11469 81803 10005 21001 39800 49936 52004 69962 77072 8457/ 333 10007
AAXX 06181 26059 11296 82402 10006 20003 39895 49920 51010 60022 71082 889// 10016 87706
AAXX 06181 26063 12497 81802 10023 20001 39913 49920 51009 69902 885// 333 10024 88611
AAXX 06181 26094 81402 10006 20003 39871 49947 52004 60042 76876 8872/ 333 10008 88707
AAXX 06181 26157 11395 83002 10006 20003 39882 49932 52017 6003/ 78582 889// 333 10018 86707
AAXX 06181 26167 11245 81902 10008 20005 39821 49932 52011 69932 71052 886// 333 10012 88704
AAXX 06181 26258 32597 82301 10010 20005 39882 49937 52013 71022 8872/ 333 10017
AAXX 06181 26298 11496 81603 10008 21003 39741 49970 52006 69922 77172 8872/ 333 10015
AAXX 06181 26359 32699 71901 10010 21001 39812 49945 52011 875// 333 10015
AAXX 06181 26702 11496 73502 10018 21033 30014 40040 52036 60022 70282 87500 333 10043 91003 91109
AAXX 06181 26781 11296 81803 10006 20003 39681 49972 52013 60032 77172 8802/ 333 10012 88504
AAXX 06181 27208 11497 81603 10015 21004 39810 49985 52007 69902 70272 886// 333 10031
AAXX 06181 27402 11497 81302 10014 20000 39815 49994 52011 69902 70262 886// 333 10021 88710
AAXX 06181 37395 32997 20904 10056 21039 39986 40127 52003 82030 333 10154
AAXX 06181 37409 32991 00902 11015 21067 38726 48453 54000 333 11002 95090
AAXX 06181 37432 32697 40000 11018 21074 38900 48450 57007 84200 333 10047
AAXX 06181 37514 32996 00000 11035 21088 38995 40171 53019 333 10089
AAXX 06181 37545 325// 10000 11013 21042 39643 40173 52007 81100 333 10066
AAXX 06181 37621 326// 30000 11018 21064 39513 40172 54000 80030 333 10055
AAXX 06181 37484 NIL
AAXX 06181 26997 11421 81802 10043 20041 39781 49997 52010 60012 71022 886// 333 10045 88710
AAXX 06181 27595 12597 81904 11003 21027 30043 40189 50009 69900 8850/ 333 10011 88620 91113
AAXX 06181 27612 114// 81802 10029 20019 39825 40016 52007 69952 76186 887// 333 10029
AAXX 06181 27707 11425 81802 10021 20018 39710 40000 52010 60022 75185 887// 333 10023 88713
AAXX 06181 27719 11497 81405 10025 20022 39785 40034 52007 60072 78082 883// 333 10025
AAXX 06181 27786 32497 71604 10001 21020 30033 40197 52008 87500 333 10017 87612
AAXX 06181 27857 32497 81807 10011 21003 39958 40122 52004 886// 333 10014 88710 91114
AAXX 06181 27906 11496 81305 10032 20027 39776 40015 52010 60082 78082 889// 333 10036
AAXX 06181 27928 11496 81704 10016 20008 39851 40058 52008 69900 76162 885// 333 10029
AAXX 06181 27947 12397 81608 10012 21002 39950 40110 52010 69900 886// 333 10023 88708 91115
AAXX 06181 27962 32397 81507 10003 21008 40163 50010 885// 333 10016 88607
AAXX 06181 27983 12467 81704 11031 21048 30093 40226 53013 69900 886// 333 10008 88715
AAXX 06181 27995 32972 51403 11057 21083 40244 52010 80001 333 10014
AAXX 06181 28506 12997 61904 11020 21052 30121 40236 52019 69900 86050 333 10021
AAXX 06181 28704 31498 81710 11029 21042 30132 40230 51008 73632 8802/ 333 10012 88515 91012 91116
AAXX 06181 28711 11397 81906 11040 21046 39877 40264 53013 69930 73632 886// 333 10004 88707 91120 91013 91119
AAXX 06181 28807 12697 31604 11056 21083 30208 40261 52010 69900 83500 333 10017
AAXX 06181 34009 11595 81605 10043 20036 39723 40023 52004 60032 78082 889// 333 10044
AAXX 06181 34110 11497 81604 10034 20027 39772 40047 52007 60022 76165 8872/ 333 10051 88715
AAXX 06181 34123 31396 81407 10009 20009 39895 40079 52010 71022 886// 333 10024 88706
AAXX 06181 34152 31356 81705 10002 21001 39944 40143 52004 71022 886// 333 10010 88708 91011 91112
AAXX 06181 34163 31494 81203 11012 21014 40185 52007 71022 885// 333 10006 88620
AAXX 06181 34171 11260 81607 11013 21027 39995 40190 51008 69900 72452 886// 333 10005 88706 91112 93401
AAXX 06181 34186 32979 71407 11062 21085 30087 40231 52006 80001 333 10004 91112
AAXX 06181 34247 31859 81704 10020 20004 30004 40118 58003 71022 8807/ 333 10019
AAXX 06181 34336 32997 81402 10022 20012 30014 40119 52005 8807/ 333 10020
AAXX 06181 34391 32997 21405 11059 21078 30188 40220 52006 80002 333 10004
AAXX 06181 35011 12984 81304 11075 21110 40303 52005 69900 88007 333 11005
AAXX 06181 35121 12998 61404 11072 21097 30180 40334 52003 69900 86030 333 11023
BBXX 2AJI3 06183 99057 70110 41598 53205 10285 20235 40099 53/// 70222 8227/ 22274 00270 20000 300// 4//// 5//// 80250
BBXX MGGK4 06180 99170 70176 41/97 53607 10210 20164 40165 55015 70511 83038 22243 04203 20201 304// 40603 5//// 80180
BBXX DGLM 06183 99038 10095 41996 12302 10285 20237 40094 53004 70500 80007 22200 29901 30000 80250
BBXX V7OX3 06181 99359 30130 41/97 /2708 10190 20190 40170 52/// 703// 8//// 22223 04220 21005 3//// 4//// 5//// 80190
BBXX A8RV9 06184 99370 30197 41598 62518 10210 20172 40160 53/// 70311 8/56/ 22224 20805 323// 41205 5//// 80185
BBXX HZGN 06183 99224 10676 41/97 13406 10230 20114 40173 51012 70300 81//4 22274 02228 20000 334// 40301 5//// 80160
BBXX A8CE9 06184 99140 10563 41298 30416 10244 20216 40158 51020 70200 83100 22274 04270 29902 80224
BBXX WDE8265 06184 99229 10597 43/// /9905 10240 2021/ 40150 54000 7//// 8//// 22275 0//// 2//// 318// 41204 5//// 6//// 80220 ICE /////
BBXX DPKZ 06183 99235 70164 41598 40315 10210 20160 40210 57005 7//// 8/5// 22254 29902 80180
BBXX LAIP5 06183 99323 30152 41397 21820 10210 20194 40170 54000 70200 8/17/ 22232 04200 20704 319// 40905 5//// 80200
BBXX S6SR 06184 99211 70336 417// /0516 10270 20243 40210 56010 7//// 85/3/ 22273 02230 2//05 306// 4//// 5//// 6//// 80250 ICE /////
BBXX UBAU 06181 99125 70175 41498 40305 10265 40148 57002 70211 84607 22241 04225 20401
BBXX PHOB 06184 99252 10575 41996 01712 10220 20190 40174 52006 70500 80000 22234 00230 2//// 3//// 4//// 5//// 80200
BBXX A8XA3 06183 99047 30117 41998 22204 10270 40098 53001 70111 8201/ 22200 20000 319// 40602
BBXX PJHA 06184 99033 70032 41396 51712 10273 20268 40134 54000 7//// 826// 22263 06270 20201 31818 40802 51002 80269
BBXX DCHO 06184 99185 70212 41/97 60311 10215 20161 40177 5/000 701// 8/73/ 22214 00220 29903 80180
AAXX 06184 86330 32998 01215 10330 20084 40107 57012
AAXX 06184 86360 32597 11008 10356 20120 40116 58014 81100
AAXX 06184 86460 32598 11804 10362 20105 40114 58003 81101
AAXX 06184 86490 32697 11608 10367 20104 40116 58009 81135
AAXX 06184 86530 32997 11910 10350 20140 40105 57012 80005
AAXX 06184 86545 32597 21906 10344 20152 40117 55005 81105
AAXX 06184 86565 32998 22127 10288 20170 40114 53009 81065
AAXX 06184 86580 32497 51713 10253 20214 40142 53018 83506
BBXX PDKK 06183 99285 50434 41598 80407 10231 20221 40148 58010 70222 8247/ 22253 20301 319// 40702 80224
BBXX J8PE4 06183 99125 70620 414// 71119 10310 2018/ 40150 54000 70322 87427 22274 00290 20704 311// 40302 5//// 6//// 80220 ICE /////
BBXX C6FU4 06184 99231 70725 41898 30619 10290 20170 40210 50/// 7//00 8318/ 22274 00250 20404 3//// 4//// 5//// 6//// 80210 ICE /////
BBXX WGAX 06184 99435 70554 43298 73028 10070 2000/ 40024 58013 7//// 86130 22213 00112 20805 316// 40603 5//// 6//// 80040 ICE /////
BBXX 9HXD9 06184 99153 70816 41597 60223 10244 2//// 40130 54000 70322 85187 22234 00288 2//// 3//// 4//// 5//// 6//// 8//// ICE /////
BBXX PECF 06183 99243 70752 41398 20211 10230 20185 40210 58010 70200 81122 22233 02240 20803 302// 41003 80200
BBXX A8NQ5 06183 99404 70683 41698 22507 10080 20013 40120 55020 71300 82144 22224 04090 21801 80050
BBXX PDGS 06184 99286 71316 41297 80720 10180 20148 40260 54000 70222 887// 22264 00180 29902 306// 41008 80160
BBXX DGOS 06183 99229 70889 41698 51417 10230 20143 40205 58010 70222 85200 22264 20803 30000 80175
BBXX DDSD2 06183 99203 70639 41598 60614 10270 20221 40162 58023 70311 8531/ 22264 04262 20403 33200 41008 5//// 80235
BBXX DFFA2 06183 99209 70750 41/98 30721 10270 20173 40185 58020 70300 824/6 22234 00260 20402 3//// 4//// 5//// 80205
BBXX C6KD4 06183 99243 70565 41298 62310 10245 20220 40177 56011 76061 8472/ 22214 02248 20806 399// 41207 80228
BBXX C6OT4 06184 99116 70746 41398 20930 10261 20233 40109 57020 70100 82143 22223 04269 20703 30500 40803 5//// 80242
BBXX DHBN 06181 99310 71369 41598 60808 10185 20145 40272 51012 70322 8/3// 22224 00200 2//// 3//// 4//// 5//// 80160
BBXX PCEX 06183 99271 70916 41698 61820 10225 20137 40210 54000 70111 84168 22233 02215 20703 80170
BBXX DDJS2 06183 99531 71595 41/96 80824 11002 49889 57088 77172 88/// 22265 00040 21004 3//// 4//// 5////
BBXX C6KD5 06183 99264 70521 41498 62020 10240 20185 40167 57012 70322 85563 22254 02243 21205 330// 41405 5//// 80205
BBXX PHIN 06184 99473 70469 41997 71738 10062 20060 40044 57022 70222 8/018 22223 00020 20610 80061
BBXX PJFF 06184 99279 70512 41598 82120 10225 20188 40180 58010 75055 887// 22214 04250 20401 313// 41005 80200
BBXX SKUN 06183 99455 70414 43/98 59013 10130 40141 58054 22264 00141 20204 40708
BBXX DILE 06183 99428 70579 41197 63524 10040 21009 40080 53005 70322 84772 22264 04130 20507 331// 40508 80020
BBXX DGDD 06181 99183 71036 41498 20402 10250 20207 40160 51005 70200 821// 22234 04260 20200 319// 40202 5//// 80220
BBXX WCPU 06184 99267 70696 41698 22226 10183 20107 40219 50005 70200 821// 22223 0//// 20402
BBXX NWS0003 06184 99600 71679 43/// /1806 11206 21243 40071 5//// 7//// 8//// 222// 0//// 2//// 3//// 4//// 5//// 6//// 8//// ICE /////
BBXX NWS0029 06184 99415 70707 43/// /2114 10092 20035 40090 5//// 7//// 8//// 222// 04056 2//// 3//// 4//// 5//// 6//// 8//// ICE /////
BBXX C6VG7 06184 99205 70869 414// 80817 10260 2//// 40190 5/010 7//11 88/7/ 22200 0//// 20601 3//// 40601 50601 6//// 8//// ICE /////
BBXX NWS0020 06184 99253 70800 43/// /0010 10192 20127 40220 5//// 7//// 8//// 222// 04230 2//// 3//// 4//// 5//// 6//// 8//// ICE /////
BBXX NWS0022 06184 99416 70714 43/// /2210 10112 20046 40074 5//// 7//// 8//// 222// 04081 2//// 3//// 4//// 5//// 6//// 8//// ICE /////
BBXX 46053 06181 99342 71198 46/// /2810 10141 40167 51016 91750 22200 00143 333 91212 555 11103 22109 31745 42812 61749 276096 267091 271094 267091 265087 267081
BBXX 44022 06181 99409 70737 46/// ///05 10078 20003 40087 56031 91800 22200 00056 333 91206 555 11057 22067
BBXX 46042 06181 99368 71224 46/// /3510 10109 40228 53017 91750 22200 00116 11509 20603 330// 41508 70043 333 91212 555 11101 22107 31737 43512 61749 354096 352102 348097 349096 349096 348097
BBXX A8VL7 06184 99132 70562 41598 30906 10268 20208 40120 58012 70211 81145 22274 04270 20803 30709 40803 50502 80226
BBXX C6CU6 06183 99092 70514 41397 41021 10272 20255 40129 50000 70322 842// 22233 04277 20806 307// 40905 5//// 80260
BBXX HPYE 06183 99229 70841 41797 30509 10210 2001/ 40170 54/// 70311 83/5/ 22214 00250 20101 3//// 4//// 5//// 6//// 80110 ICE /////
BBXX KCHV 06184 99257 70870 41498 21405 10211 2014/ 40220 50020 7//00 821// 22233 0//// 2//// 313// 40301 5//// 6//// 80167 ICE /////
BBXX DCCM2 06184 99552 71437 41597 73127 10015 21096 40040 52/// 70211 8/4/0 22224 04070 20108 323// 40108 81020
BBXX WBN3013 06184 99242 70733 41/// /0612 10256 2//// 40051 56002 7//// 8//// 22232 0//// 20503 30736 40602 50402 6//// 8//// ICE /////
BBXX WCX8882 06184 99443 71483 41196 81937 10120 2012/ 40025 57025 78162 84627 22234 00080 20206 317// 40512 5//// 6//// 80120 ICE /////
BBXX 9VVP 06184 99547 71373 41496 52432 10055 20044 40005 56015 75055 8562/ 22274 00070 20810 325// 41212 5//// 6//// 80050 ICE /////
BBXX 44150 06181 99425 70640 46/// /3303 10013 40138 57010 22200 00095 10804 70019 333 91205
BBXX SERW 06183 99165 70357 43696 40713 10242 2//// 40164 56017 70322 858// 22262 06246 20402 305// 40806
BBXX SBLW 06183 99535 71479 43/98 70809 11020 40068 58011 22273 00043 2//// 4////
BBXX DCSL2 06184 99370 71521 41298 82126 10170 20170 40140 54000 71082 887// 22224 00153 20304 30000 80170
BBXX SKWI 06184 99382 70652 43/98 72819 10126 40158 53004 22214 00200 2//// 4////
BBXX 44139 06181 99442 70571 46/// /3010 10015 40098 57001 22200 00048 10805 70025 333 91213
BBXX 41038 06181 99341 70777 46/// /2207 10151 40182 58026 91800 22200 00120 333 91208
BBXX DGBE 06183 99389 71243 41497 73525 10125 20057 40265 53014 70322 86818 22234 20804 335// 41408 80090
BBXX DGNB 06183 99320 70596 41697 53022 10200 20116 40155 56005 70211 8/465 22224 00217 21005 329// 41206 80150
BBXX DDJG2 06183 99356 70682 41698 62519 10195 20129 40200 57005 70222 84245 22224 04200 20603 80155
BBXX J8PR3 06183 99105 70604 41198 70919 10300 2026/ 40140 54000 70222 87988 22231 00290 20403 30909 40403 50403 6//// 80270 ICE /////
BBXX WDF2728 06184 99279 70863 41598 63503 10233 2017/ 40220 57010 7//22 83463 22273 0//// 20301 302// 40701 5//// 6//// 80189 ICE /////
BBXX WDE9586 06183 99224 70846 41699 10817 10230 2011/ 40200 57020 7//00 80189 22214 00270 20303 304// 40604 5//// 6//// 80160 ICE /////
BBXX C6KJ5 06184 99242 70874 41497 11405 10234 2012/ 40215 57010 70100 81100 22233 00250 80165
BBXX KRGB 06184 99322 71381 41/97 71112 10167 2016/ 40271 52010 7//22 87/// 22255 00156 20802 329// 41406 5//// 6//// 80161 ICE /////
BBXX DPTS 06183 99220 70888 41298 10917 10250 20236 40200 54000 70300 8/100 22224 04220 204// 30900 40301 50000 80240
BBXX WBWK 06183 99280 71642 41198 41915 10222 2021/ 40202 54000 70200 848// 22262 0//// 20303 325// 41118 5//// 6//// 80211 ICE /////
BBXX WRGD 06184 99295 71353 41598 60818 10200 2014/ 40270 51015 70222 8567/ 22265 00183 20203 331// 40907 5//// 6//// 80161 ICE /////
BBXX WAHV 06183 99410 70415 43398 81718 10173 2017/ 40146 57040 82508 22264 00168 20804 399// 41004 80168
BBXX OUJS2 06183 99392 71371 41998 11913 10140 2011/ 40330 54000 7//00 800/9 22234 00130 21201 326// 41001 5//// 6//// 80120 ICE /////
BBXX WDD6126 06184 99247 70803 41698 43613 10240 2013/ 40215 57020 70200 84200 22215 00241 20201 3//// 4//// 5//// 6//// 80175 ICE /////
BBXX VQKR7 06184 99322 71171 41598 60303 10170 20115 40173 51011 70211 84162 22200 04100 20401 326// 40402 80140
BBXX SHIP 06184 99546 71689 41598 60333 11003 21049 49970 56016 70222 86/// 91800 22264 00040 2//// 3//// 4//// 82000
BBXX WCF3012 06184 99437 70825 41/98 72013 10060 40020 70222 22243 00060 20302
BBXX WE4805 06184 99443 70873 41/99 92520 10066 2//// 40030 54000 70202 88451 22211 00028 20601 3//// 4//// 5//// 6//// 8//// ICE /////
BBXX 41041 06181 99142 70460 46/// /0906 10260 20185 40154 56018 91750 22200 00261 10704 20503 3//// 40703 70021 333 91208 555 11067 22071 31657 40809 61749 085063 086064 086065 079067 083065 085068 80907 91726
BBXX 44060 06181 99413 70721 46/// ///08 10082 40087 56032 91800 22200 00085 333 91210 555 11088 22093
BBXX 46083 06181 99582 71380 46/// /1217 10036 21024 40011 58019 91750 22200 00065 11110 20708 300// 41106 70052 333 91222 555 11185 22198 31650 41223 61749 119171 119165 117163 117163 114171 120163 81218 91750
BBXX UCKZ 06181 99664 30928 42998 80813 11021 21068 49785 57033 8807/ 22221 01016 2//// ICE 87995
BBXX SHIP 06184 99645 31092 41698 10902 11028 21081 49827 52001 70200 81030 22262 00003 11302 20200 307// 40301 6/000 86044
BBXX A8KC6 06184 99138 71503 41597 30413 10240 20194 40160 52030 70322 83793 22214 04280 20503 3//// 4//// 5//// 80210 46379 1738060124
BBXX SBHI 06183 99572 10184 43/97 02318 10006 40027 50017 22252 06053
BBXX UFNZ 06181 99361 70025 41098 22030 10181 40262 70110 82004 22223 00121
BBXX 62023 06183 99514 70079 46/97 /2629 10104 2//// 40272 5//// 22200 10504 70022 333 91136 555 70040 80004
BBXX LMEL 06181 99603 10053 43/// /1403 10023 20022 40046 5//// 222/0 04080 1//// 3//// 4//// 5////
BBXX LF4H 06184 99596 10022 46/98 12114 10058 20030 40035 57047 8//// 22200 06081 10805 70023 333 91122
BBXX LDGJ 06181 99603 10053 43/// /1402 10028 20004 40047 5//// 222/0 04078 1//// 3//// 4//// 5////
BBXX LAHV 06181 99641 10097 43/// /3306 10027 21038 49992 222// 04075 1////
BBXX TBWUK35 06184 99688 10122 41598 11110 10026 21004 49985 51020 70100 81500 22214 00080 20501 30000 80015
BBXX TFGRV 06184 99638 70225 46/// ///// 22200 10808 70041
BBXX TFHFN 06184 99642 70152 46/// ///// 22200 10706 70032
BBXX TFGSK 06184 99641 70229 46/// ///// 22200 10808 70038
BBXX TFDRN 06184 99658 70212 46/// ///// 22200 10802 70012
BBXX TFKGR 06184 99657 70136 46/// ///// 22200 10709 70043
BBXX TFSTD 06184 99664 70234 46/// ///// 22200 10706 70028
BBXX TFSRT 06184 99633 70203 46/// ///// 22200 10810 70048
BBXX TFGRS 06184 99663 70182 46/// ///// 22200 10703 70017
BBXX TFBKF 06184 99635 70202 46/// ///// 22200 10705 70027
BBXX TFBLK 06184 99657 70248 46/// ///// 22200 10807 70034
BBXX PHAM 06183 99543 70001 41/97 82530 10076 20024 40153 57037 70011 88/// 22272 20606 80052 91239
BBXX PBEN 06183 99367 70017 41998 21806 10161 20156 40258 53018 7//00 80006 22253 04177 20501 30000 80158
BBXX OXOR2 06184 99318 10315 41598 12117 10149 20073 40137 58011 70200 81100 22264 00188 2//// 80108
BBXX PCGM 06183 99531 10035 41498 43024 10090 20049 40202 55024 70200 8///6 22283 04087 20806 80070
BBXX PDHW 06183 99491 70125 41498 72715 10130 20094 40330 54000 70122 8/4// 22223 00120 20402 399// 40904 80110
BBXX PHDL 06183 99428 70250 41598 41513 10149 20122 40362 52006 70211 82865 22214 00158 20402 32815 41004 50703 80133 91239
BBXX PCBT 06183 99479 70086 41598 72910 10118 20081 40323 52013 7//// 875// 22254 20201 330// 40805 80098
BBXX UITJ 06181 99616 10042 41598 80000 10060 40023 57021 70222 885// 22283 00080 20000 33400 41006
BBXX C6WK7 06184 99339 70124 41697 60327 1//// 2//// 40300 54/// 7//22 86/5/ 22254 00170 20402 3//// 40402 5//// 6//// 8//// ICE /////
BBXX A8SG2 06181 99355 31778 41397 80713 10195 20170 40060 58050 78022 887// 22224 00190 20803 305// 41003 5//// 80180
BBXX A8CG7 06180 99369 31693 41597 69902 10188 40100 53010 7//// 854// 22274 2//// 3//// 4//// 5////
BBXX B2M1303 06183 99175 31088 41698 22012 10265 20215 40101 54000 70100 82500 22243 00290 20106 80230
BBXX VROC 06184 99313 31531 41498 12109 10200 20158 40137 58010 70300 8/1// 22283 04150 20401 80175
BBXX VRRC 06184 99286 31537 41298 71525 10230 20201 40089 56/// 70200 87772 22244 2//// 399// 4//04 80210
BBXX SHIP 06184 99326 31525 41398 52003 10210 20164 40141 54000 70222 83/// 22243 00160 2//// 3//// 4//// 80180
BBXX VREN5 06183 99427 31737 41/98 90235 10160 20143 40070 53/// 70211 8901/ 22252 20502 80150
BBXX VNSZ 06184 99386 31448 46/// /0521 10161 20121 30060 40086 57041 22276 04188 85137
BBXX VRAE3 06184 99214 31697 41697 31510 10260 20240 40063 56005 70201 83234 22223 00280 2//// 303// 46063 5//// 80255
BBXX 3ECI3 06184 99391 31690 41297 82510 10175 20149 40119 58010 75152 8/700 22263 00170 20400 327// 40802 80160
BBXX C6UA2 06184 99271 31602 41696 61515 10210 2//// 40150 56010 7//22 86870 22214 02260 2//03 3//// 4//// 5//// 6//// 8//// ICE /////
BBXX VRET5 06183 99116 31521 41/// 91409 10270 2020/ 40110 5//// 700// 89/// 22284 00300 2//// 3//// 4//// 5//// 6//// 80220 ICE /////
BBXX PFBF 06183 99139 31749 41297 83005 10250 20236 40080 51010 76562 8/85/ 22263 20608 335// 40812 5//// 80240
BBXX AVMI 06183 99330 31517 41298 60409 10200 20/// 40234 53002 70102 82111 22200 00200
BBXX A8CP6 06180 99117 31521 41/98 11503 10280 20266 40100 54000 70200 81//4 22233 00285 20301 3//// 4//// 5//// 80270
BBXX A8KX4 06184 99135 31709 41297 72719 10274 20245 40050 55000 72586 8677/ 22274 04296 20705 322// 41204 80253
BBXX MGRH9 06184 99266 31532 41/98 /1114 10240 20167 40125 51012 7//// 8//// 22200 00245 2//// 3//// 4//// 5//// 80195
BBXX PCCL 06183 99364 31503 41397 20410 10180 40131 54000 70222 821// 22283 04203 20501
BBXX ZCAO7 06183 99170 31186 41/98 39904 10290 20246 40071 58015 71300 8//// 22214 2//// 80259
BBXX 2AKI2 06183 99019 30874 41498 32807 10275 20230 40128 57007 70200 82140 22254 00291 20201 32700 40902 5//// 80244
BBXX A8IH2 06183 99313 51749 41296 80830 10215 20193 40090 56020 76052 8/700 22254 20507 304// 40608 5//// 80200
AAXX 06181 26059 11296 82402 10006 20003 39895 49920 51010 60022 71082 889// 333 10016 87706
AAXX 06184 78988 02480 41010 10279 20234 30122 40132 57025 60031 70181 82201 333 58002 60037 82818 84081
AAXX 06184 78990 01480 51012 10283 20235 30133 40140 57024 69941 71581 84861 333 58003 69927 84818
AAXX 06184 78873 02575 11107 10276 20216 30111 40156 57020 60001 81200 333 58009 60007 81822
BBXX A8NF2 06184 99319 11238 41497 50314 10080 20080 40350 54000 70211 84465 22234 04110 2//// 3//// 4//// 5//// 80080
BBXX WDB9986 06184 99534 11740 41/97 /3319 11020 21092 40040 54000 72672 8//// 22264 02030 20602 332// 40803 5//// 6//// 82040 ICE /////
BBXX VRCI9 06184 99540 11799 41/96 /0512 11030 21039 40040 52010 77272 8//// 22264 00025 2//// 3//// 4//// 81030
BBXX SBLI 06181 99079 11086 43/98 80214 10247 40132 58019 22254 00246 2//// 4////
BBXX SLCO 06184 99061 11462 43/98 70610 10279 40098 57023 22274 00281 2//// 4////
BBXX DCPC2 06184 99256 11697 41498 12316 10240 20196 40170 54000 70100 81160 22263 00250 21003 320// 41003 5//// 80210
BBXX KFMV 06183 99224 11290 41698 60918 10211 2017/ 40200 52020 70321 85475 22275 00239 20602 33602 40502 50502 6//// 80189 ICE /////
BBXX 3FMV6 06183 99128 10730 41397 73512 10250 20250 40117 51010 70222 87666 22284 06270 20101 80250
BBXX PHKL 06180 99063 10932 41/98 7//// 10281 20236 40129 50004 71598 86/// 22223 00288 2//// 3//// 4//// 5//// 80248
BBXX A8QR9 06180 99066 11083 41/// /2005 10245 20238 40130 5/000 700// 8//4/ 22254 20505 80240
BBXX MTFH5 06183 99165 10846 41697 61303 10265 20217 40160 51011 70322 86/// 22234 2//// 3//// 4//// 5//// 80231
BBXX DGWD2 06183 99079 11081 41/98 /0429 10250 20207 40120 54000 702// 8//// 22214 00240 2//// 80220
BBXX PCIM 06184 99255 11205 41396 80131 10152 20132 40270 51021 75052 837// 22213 00175 20506 80140
BBXX KAOU 06184 99078 10984 43/// /0705 10266 20225 40139 5//// 7//// 8//// 222// 04295 2//// 3//// 4//// 5//// 6//// 8//// ICE /////
AAXX 06184 48601 11558 50307 10262 20206 30124 40128 60001 70522 81141 333 81628 85080
AAXX 06184 48615 11562 71102 10245 20222 30138 40144 60001 70522 83542 333 83620 87074
AAXX 06184 48620 11562 70601 10257 20248 30117 40126 60001 70522 82542 333 82630 83365 87078
AAXX 06184 48647 11456 73301 10262 20245 30102 40127 60001 71322 82931 333 81917 87078
AAXX 06184 48657 11560 70202 10230 20219 30121 40139 60001 70522 82531 333 82625 86078
AAXX 06184 48665 12564 70306 10248 20221 30125 40135 60001 81542 333 81630 83364 86077
AAXX 06184 96413 11565 72004 10228 20223 30093 40120 60061 70262 8457/ 333 84620 87365
AAXX 06184 96421 11358 72104 10237 20233 30080 40116 60101 76062 8557/ 333 82708 84616 87365
AAXX 06184 96441 11156 81703 10235 20230 30076 40103 60341 76166 8552/ 333 82703 84614 88464
AAXX 06184 96449 11458 73405 10240 20235 30075 40094 60091 76166 83571 333 83614 87365
AAXX 06184 96465 11465 80000 10247 20242 30073 40107 60281 70162 84877 333 82810 83635 85364
AAXX 06184 96471 11468 81103 10244 20233 30105 40108 60021 72166 82847 333 81814 84363 88276
AAXX 06184 96481 12462 63403 10243 20227 30085 40104 60001 82841 333 81817 83364 86080
AAXX 06184 96491 11356 72403 10249 20240 30097 40109 6///1 76162 84858 333 82708 83640 87276
AAXX 06184 91943 16/// /3608 10278 20216 30124 40126 51013 60022 333 10279 59022
AAXX 06184 91945 36/// /3312 10276 20230 30106 40111 51013
AAXX 06181 80400 NIL
AAXX 06181 80403 32470 60905 10285 20222 30119 40138 8327/ 333 30/// 5699/ 59002 83816 83356 555 10140
AAXX 06181 80405 NIL
AAXX 06181 80407 32470 3//// 10305 20224 30056 4//// 83400 333 30/// 56900 5//// 83616 10131
AAXX 06181 80410 32470 41105 10298 20191 39449 40124 84200 333 30/// 56900 59001 84816 555 10162
AAXX 06181 80413 32470 62004 10322 20157 39635 40121 867// 333 30/// 569// 59007 86713 555 10153
AAXX 06181 80415 NIL
AAXX 06181 80419 NIL
AAXX 06181 80421 NIL
AAXX 06181 80423 32470 4//// 10300 20201 30085 40102 84200 333 30/// 56200 58000 84810 555 10101
AAXX 06181 80428 32570 20503 10315 20205 39934 40117 82100 333 30/// 56900 59001 82820 555 10130
AAXX 06181 80432 NIL
AAXX 06181 80435 32470 40903 10311 20181 30030 40106 84100 333 30/// 56900 59003 84813 555 10104
AAXX 06181 80438 32565 42505 10246 20168 38523 48520 82540 333 30/// 56990 59006 82623 555 10206
AAXX 06181 80444 NIL
AAXX 06181 80447 32558 70000 10293 20217 39671 40092 875// 333 30/// 569// 59007 87620 555 10143
AAXX 06181 80448 32570 30903 10315 20227 3//// 4//// 83500 333 30/// 56900 5//// 83617
AAXX 06181 80450 32475 81404 10324 20243 30070 40115 83508 333 30/// 56209 59007 83616 85280 555 10112
AAXX 06181 80453 NIL
AAXX 06181 80457 NIL
AAXX 06181 80462 NIL
AAXX 06184 78988 02480 41010 10279 20234 30122 40132 57025 60031 70181 82201 333 58002 60037 82818 84081
AAXX 06184 78990 01480 51012 10283 20235 30133 40140 57024 69941 71581 84861 333 58003 69927 84818
AAXX 06184 78873 02575 11107 10276 20216 30111 40156 57020 60001 81200 333 58009 60007 81822
AAXX 06181 80402 NIL
AAXX 06181 80412 NIL
AAXX 06181 80416 NIL
AAXX 06181 80420 32470 10208 10311 20178 30114 40110 81500 333 30/// 56900 58000 81613 555 10133
AAXX 06181 80425 32570 22502 10328 20243 30089 40120 82100 333 30/// 56900 59009 82820 10121
AAXX 06181 80426 32570 80202 10266 20182 39494 40138 8351/ 333 30/// 5699/ 59002 83623 86460 555 10169
AAXX 06181 80427 32570 41603 10320 20231 39870 40121 83130 333 30/// 56990 59005 83280 555 10139
AAXX 06181 80431 32570 5//// 10306 20161 39627 40105 858// 333 30/// 569// 59014 85820 555 10129
AAXX 06181 80434 NIL
AAXX 06181 80437 32470 83102 10300 20210 30014 40099 8351/ 333 30/// 5699/ 59015 83620 85460 555 10106
AAXX 06181 80440 32570 30503 10309 20193 39918 40128 83200 333 30/// 56900 58010 83823 555 10138
AAXX 06181 80442 32470 3//// 10329 2//// 30001 4//// 83200 333 30/// 56900 59004 83813 555 10112
AAXX 06181 80472 32465 51404 10319 20191 39634 40110 852// 333 30/// 569// 59004 85816 555 10136
AAXX 06181 80475 NIL
AAXX 06181 80476 32370 4//// 10328 20255 30099 40129 82507 333 30/// 56909 59001 82610
AAXX 06181 80478 NIL
AAXX 06181 80479 NIL
AAXX 06181 08521 32470 60406 10169 20106 30223 40294 58002 85801 333 10194 82818 83630
AAXX 06181 08524 32470 70503 10163 20108 30200 40299 54000 87800 333 10182 86815 91006 91107
BBXX BAREU54 06184 99038 70772 46/// ///// 40107 22251
BBXX BATFR53 06184 99115 51053 44598 81217 10229 20174 40167 58004 70222 8857/ 22222 00235 202// 31420 40602 520//
BBXX IDDUK02 06184 99539 50380 46/// ///// 49950 222//
BBXX DCAX2 06183 99329 51145 41496 80923 10190 20142 40280 54000 72566 87758 22223 21204 313// 41204 5//// 80160
AAXX 06184 41858 31408 50000 10160 20150 30137 40184 74222 83520 333 56490 58018 70000 83616 85460
AAXX 06184 41863 NIL
AAXX 06184 41886 31930 00000 10150 20140 30118 40140 71040 333 58014 70000
AAXX 06184 41895 NIL
AAXX 06184 41909 NIL
AAXX 06184 41915 31430 60000 10143 20130 30157 40184 71044 84620 333 56990 58014 70000 82710 83616 85458
AAXX 06184 41926 31940 50000 10163 20150 30161 40175 70522 85010 333 56090 58014 70080 85458
AAXX 06184 41929 31450 50000 10183 20170 30157 40167 70542 83540 333 56990 58012 70079 83618 84364
AAXX 06184 41933 NIL
AAXX 06184 41939 NIL
AAXX 06184 41941 31440 50000 10178 20170 30166 40172 70522 82520 333 56990 58009 70000 82615 84460
AAXX 06184 41946 31940 20000 10180 20170 30163 40168 70522 82050 333 56090 58011 70114 82362
AAXX 06184 41947 31920 20000 10180 20170 30168 40170 71044 82030 333 56090 58014 70138 82362
AAXX 06184 41951 NIL
AAXX 06184 41953 31930 40000 10200 20190 30160 40166 70522 84030 333 56090 58008 70000 84361
AAXX 06184 41958 31930 00000 10182 20170 30160 40162 70522 333 58012 70050
AAXX 06184 41960 31908 00000 10180 20180 30174 40176 74444 333 58017 70048
AAXX 06184 41963 31916 70000 10185 20185 30163 40166 71022 87010 333 56090 58010 70000 87458
AAXX 06184 41964 31920 53601 10187 20180 30170 40172 71022 83520 333 56990 58000 70000 83618 85460
AAXX 06184 41965 NIL
AAXX 06184 41966 NIL
AAXX 06184 41984 31440 20000 10193 20180 30161 40163 70511 82030 333 56090 58016 70046 82362
AAXX 06184 41989 NIL
AAXX 06184 41998 NIL
BBXX BATFR08 06184 99466 30539 44697 83119 10072 20052 40128 58003 702// 886// 22223 00067
BBXX BATFR05 06184 99298 70142 46/// /0417 10172 20135 40261 50001 22212 00172
BBXX BATFR19 06184 99061 30058 46/// /2111 10247 20204 40110 53009 22222 00259
BBXX BATFR55 06184 99206 30557 46/// /1216 10262 20210 40156 53015 22222 00272
BBXX A8CE9 06184 99140 10563 41298 30416 10244 20216 40158 51020 70200 83100 22274 04270 29902 80224
BBXX DGLM 06183 99038 10095 41996 12302 10285 20237 40094 53004 70500 80007 22200 29901 30000 80250
BBXX A8RV9 06184 99370 30197 41598 62518 10210 20172 40160 53/// 70311 8/56/ 22224 20805 323// 41205 5//// 80185
BBXX V7OX3 06181 99359 30130 41/97 /2708 10190 20190 40170 52/// 703// 8//// 22223 04220 21005 3//// 4//// 5//// 80190
BBXX MGGK4 06180 99170 70176 41/97 53607 10210 20164 40165 55015 70511 83038 22243 04203 20201 304// 40603 5//// 80180
BBXX 2AJI3 06183 99057 70110 41598 53205 10285 20235 40099 53/// 70222 8227/ 22274 00270 20000 300// 4//// 5//// 80250
BBXX BAREU11 06184 99478 70116 46/// ///// 40348 52014 22254
BBXX BAREU51 06184 99383 10128 46/// ///// 40043 57009 22224
BBXX BAREU04 06184 99467 70290 46/// ///// 40293 52007 22223
BBXX BAREU06 06184 99386 10003 46/// ///// 40262 52019 22254
BBXX BATFR02 06184 99539 10045 46/// /2622 10062 20017 40190 58025 22214 00094
BBXX BATFR22 06184 99433 10053 46/// /3234 10127 40214 52010 22243 00137
BBXX BATFR27 06184 99564 10073 46/// /2932 10079 20022 40106 58026 22214 00082
BBXX BATFR34 06184 99476 70054 46/// /3013 4//// 22200 00132
BBXX BATFR54 06184 99365 70087 46/// /0207 10144 20090 40272 55009 22222 00167
BBXX BATFR12 06184 99483 70057 46/// /2714 10119 20100 40316 56001 22272 00139
BBXX BATEU06 06184 99496 70052 46/// /2822 10127 20090 40280 53019 22254 00120
BBXX BATFR03 06184 99502 70007 46/// /2723 10100 20052 40263 58029 22284
BBXX BATFR04 06184 99575 70061 46/// /2627 10094 20052 40069 55005 22200 00097
BBXX BATFR60 06184 99540 10082 46/// /2726 10065 20040 40152 50012 22262 00052
BBXX BATFR58 06184 99432 10067 46/// /2917 40173 51023 22200 00155
BBXX BATFR42 06184 99503 70018 46/// /2432 10102 20077 40249 22244 00117
BBXX BATEU04 06184 99586 70028 46/// /2225 10070 20052 40026 56026 22223
BBXX BATEU08 06184 99585 70020 46/// /2824 10079 20059 40024 56057 22262
BBXX 61001 06184 99434 10078 46/// /2608 10135 20038 40158 52026 22200 00134 10604 70018
BBXX BATUK01 06184 99581 70034 46/// /2217 10089 20054 40043 56041 22211 00079
BBXX 61002 06184 99421 10047 46/// ///33 10122 2//// 40242 52006 22200 00133 10708 70038 555 1/044
BBXX KSDF 06184 99367 10009 41498 23307 10167 20149 40250 52010 70100 821// 22253 0//// 20301 329// 40702 5//// 6//// 80156 /////
BBXX 9VBM6 06183 99313 70116 41898 40114 10210 20146 40270 52010 7//22 83189 22243 00200 20302 3//// 40303 50302 6//// 80170 /////
AAXX 06181 40701 11658 22603 11036 21059 38569 40222 53004 60001 71020 81501 333 55070 81640
AAXX 06181 40704 12660 82406 10034 21023 38590 40171 51013 60001 8332X 333 55078 21049 83940 88458
AAXX 06181 40708 12660 41808 10024 21012 38635 40159 50013 60001 81470 333 55087 21118 81635 83358
AAXX 06181 40710 11656 82702 11004 21015 38297 40219 51008 69961 77172 8442X 333 55050 84635 88457
AAXX 06181 40713 11528 80702 10010 21005 38656 40203 51005 60061 72287 8442X 333 55031 81720 83640 88460
AAXX 06181 40719 11557 72902 10070 20056 30167 40156 53004 60001 71020 83570 333 55079 83625 87358
AAXX 06181 40731 12960 51003 10006 21040 38741 40223 50008 60001 85030 333 55080 21065 85360
AAXX 06181 40738 12960 01105 10036 20026 30168 40170 58003 60001 333 55062
AAXX 06181 40740 12960 00609 11112 21117 38750 40304 52008 60001 333 55063
AAXX 06181 40747 11660 60000 10017 20005 38619 40209 56001 69921 70282 84370 333 55017 20561 81940 83640 86358
AAXX 06181 40757 12965 03601 11014 21081 38915 40240 56004 60001 333 55090 20732
AAXX 06181 40763 12665 11102 11018 21038 38956 40272 50002 60001 81500 333 55086
AAXX 06181 40782 12660 61102 10088 21021 38871 40188 51002 69901 85330 333 55059 81935 84640 86359
AAXX 06181 40783 12665 31204 10050 21036 37972 40164 51010 60001 83500 333 55085 83640
AAXX 06181 40789 12965 20000 10036 21067 39229 40236 58001 60001 80001 333 55092 21305 82070
AAXX 06181 40798 12660 52103 10050 21042 37961 40201 51008 60001 82450 333 55092 21415 82635 83359
AAXX 06181 40818 12970 40000 10014 21128 37978 40206 50005 60001 80002 333 55092 84070
AAXX 06181 40827 12965 00000 11008 21080 38867 40283 51007 60001 333 55094
AAXX 06181 40836 12667 72202 10050 21088 38205 40206 51005 60001 81170 333 55095 21525 81845 87359
AAXX 06181 40851 12960 31202 10052 21125 38276 40204 52013 60001 80001 333 55083 83070
AAXX 06181 40853 12960 03603 10024 21175 37756 40202 51005 60001 333 55090
AAXX 06181 40854 12960 00000 10054 21087 38977 40209 51003 60001 333 55080
AAXX 06181 40857 12560 51805 10192 20158 30169 40178 51011 60001 85600 222// 00/// 20000 333 55078 85725
AAXX 06181 40859 12965 03202 10028 21093 38736 40203 52010 60001 333 55092
AAXX 06181 40878 12965 00402 10035 21139 38876 40247 53012 60001 333 55097
AAXX 06181 40879 11950 30000 10092 21120 39517 40211 51006 60001 70500 80006 333 55086 83270
AAXX 06181 40883 11940 03503 10164 20066 30160 40183 52008 60001 70500 333 55074
AAXX 06181 40898 11950 00000 10220 20068 30164 40173 51004 60001 70500 222// 00233 10500 333 55074 2////
BBXX BATFR35 06184 99166 51516 46/// /3115 10252 20215 40100 22272 00287
BBXX A8CG7 06180 99369 31693 41597 69902 10188 40100 53010 7//// 854// 22274 2//// 3//// 4//// 5////
BBXX A8SG2 06181 99355 31778 41397 80713 10195 20170 40060 58050 78022 887// 22224 00190 20803 305// 41003 5//// 80180
BBXX BAREU08 06184 99204 70640 46/// ///// 40171 57022 22254
BBXX BAREU00 06184 99455 70424 46/// ///// 40133 57054 22263
BBXX FVNM 06184 99195 70869 46/// /0911 10252 20147 40192 58017 22281 00269
BBXX BATFR14 06184 99321 70375 44798 32005 10202 20139 40242 56013 70000 83162 22254 00205
BBXX BATEU05 06184 99642 70524 46/// /0506 11073 40049 22282
BBXX 41101 06184 99146 70562 46/// /0914 10262 20203 40136 57022 22200 00268 10905 70026
BBXX DCSL2 06184 99370 71521 41298 82126 10170 20170 40140 54000 71082 887// 22224 00153 20304 30000 80170
BBXX C6CU6 06183 99092 70514 41397 41021 10272 20255 40129 50000 70322 842// 22233 04277 20806 307// 40905 5//// 80260
BBXX A8VL7 06184 99132 70562 41598 30906 10268 20208 40120 58012 70211 81145 22274 04270 20803 30709 40803 50502 80226
AAXX 06181 40701 11658 22603 11036 21059 38569 40222 53004 60001 71020 81501 333 55070 81640
AAXX 06181 40704 12660 82406 10034 21023 38590 40171 51013 60001 8332X 333 55078 21049 83940 88458
AAXX 06181 40708 12660 41808 10024 21012 38635 40159 50013 60001 81470 333 55087 21118 81635 83358
AAXX 06181 40710 11656 82702 11004 21015 38297 40219 51008 69961 77172 8442X 333 55050 84635 88457
AAXX 06181 40713 11528 80702 10010 21005 38656 40203 51005 60061 72287 8442X 333 55031 81720 83640 88460
AAXX 06181 40719 11557 72902 10070 20056 30167 40156 53004 60001 71020 83570 333 55079 83625 87358
AAXX 06181 40731 12960 51003 10006 21040 38741 40223 50008 60001 85030 333 55080 21065 85360
AAXX 06181 40738 12960 01105 10036 20026 30168 40170 58003 60001 333 55062
AAXX 06181 40740 12960 00609 11112 21117 38750 40304 52008 60001 333 55063
AAXX 06181 40747 11660 60000 10017 20005 38619 40209 56001 69921 70282 84370 333 55017 20561 81940 83640 86358
AAXX 06181 40757 12965 03601 11014 21081 38915 40240 56004 60001 333 55090 20732
AAXX 06181 40763 12665 11102 11018 21038 38956 40272 50002 60001 81500 333 55086
AAXX 06181 40782 12660 61102 10088 21021 38871 40188 51002 69901 85330 333 55059 81935 84640 86359
AAXX 06181 40783 12665 31204 10050 21036 37972 40164 51010 60001 83500 333 55085 83640
AAXX 06181 40789 12965 20000 10036 21067 39229 40236 58001 60001 80001 333 55092 21305 82070
AAXX 06181 40798 12660 52103 10050 21042 37961 40201 51008 60001 82450 333 55092 21415 82635 83359
AAXX 06181 40818 12970 40000 10014 21128 37978 40206 50005 60001 80002 333 55092 84070
AAXX 06181 40827 12965 00000 11008 21080 38867 40283 51007 60001 333 55094
AAXX 06181 40836 12667 72202 10050 21088 38205 40206 51005 60001 81170 333 55095 21525 81845 87359
AAXX 06181 40851 12960 31202 10052 21125 38276 40204 52013 60001 80001 333 55083 83070
AAXX 06181 40853 12960 03603 10024 21175 37756 40202 51005 60001 333 55090
AAXX 06181 40854 12960 00000 10054 21087 38977 40209 51003 60001 333 55080
AAXX 06181 40857 12560 51805 10192 20158 30169 40178 51011 60001 85600 222// 00/// 20000 333 55078 85725
AAXX 06181 40859 12965 03202 10028 21093 38736 40203 52010 60001 333 55092
AAXX 06181 40878 12965 00402 10035 21139 38876 40247 53012 60001 333 55097
AAXX 06181 40879 11950 30000 10092 21120 39517 40211 51006 60001 70500 80006 333 55086 83270
AAXX 06181 40883 11940 03503 10164 20066 30160 40183 52008 60001 70500 333 55074
AAXX 06181 40898 11950 00000 10220 20068 30164 40173 51004 60001 70500 222// 00233 10500 333 55074 2////
AAXX 06181 28676 325// 81703 11052 21073 30203 40334 52010 886// 333 11057
AAXX 06181 28766 315// 62005 11056 21070 30135 40331 52012 71022 84530 333 11049
AAXX 06181 28867 NIL
AAXX 06181 28879 116// 82106 11056 21070 30065 40363 52012 69900 70272 885// 333 11053 91112
AAXX 06181 28952 NIL
AAXX 06181 28966 125// 81805 11067 21087 30071 40367 52015 69900 885// 333 11064
AAXX 06181 29802 325// 81903 11132 21152 30209 40362 52004 885// 333 11170
AAXX 06181 29807 325// 82203 11110 21138 30242 40368 54000 885// 333 11159
AAXX 06181 34691 32998 81408 11023 21050 30210 40197 57001 8802/ 333 10015
AAXX 06181 35067 329// 82003 11085 21100 30095 40385 52008 8802/ 333 11068
AAXX 06181 35078 115// 82306 11089 21104 39997 40396 52006 69900 73632 885// 333 11080
AAXX 06181 35085 125// 82204 11080 21090 39891 40389 52004 69920 8657/ 333 11080
AAXX 06181 35108 329// 71605 11071 21105 30224 40272 52003 80050 333 10002
AAXX 06181 35188 112// 81602 11107 21122 39955 40416 52004 69920 71072 886// 333 11109 88703
AAXX 06181 35217 329// 71407 11090 21106 30246 40287 52001 80001 333 11054
AAXX 06181 35229 129// 01401 11139 21153 30077 40371 52007 69900 333 11036
AAXX 06181 35302 329// 61708 11066 21094 30242 40262 52003 86050 333 11031
AAXX 06181 35357 125// 81802 11183 21209 39956 40431 52005 69930 885// 333 11120
AAXX 06181 35394 12998 61401 11175 21197 39706 40442 52004 69920 80002 333 11130
AAXX 06181 35406 319// 61605 11066 21099 30263 40265 52004 70232 86040 333 11025
AAXX 06181 35416 329// 11308 11099 21136 30193 40320 52003 80001 333 11043
AAXX 06181 35426 329// 01302 11136 21156 30059 40372 53006 333 11066
AAXX 06181 35497 329// 00000 11213 21238 39572 40452 52003 333 11112
AAXX 06181 35532 31993 00912 11112 21147 39838 40359 57002 73933 333 11046 91016 91118
AAXX 06181 35671 32998 00000 11209 21233 39963 40438 52003 333 11156
AAXX 06181 35700 32998 01308 11045 21080 30263 40238 58004 333 11010 91012 91117
AAXX 06181 35746 319// 00503 11145 21158 30327 40400 52002 71000 333 11085
AAXX 06181 35796 31597 80403 11122 21146 39950 40414 52001 77772 886// 333 11106
AAXX 06181 35849 32998 00000 11138 21158 30299 40392 54000 333 11049
AAXX 06181 35925 329// 01107 11066 21086 40308 56001 333 11049
AAXX 06181 35953 129// 00402 11197 21209 30256 40398 57003 69900 333 11087
AAXX 06181 35969 329// 00000 11204 21229 30219 40411 58004 333 11141
AAXX 06181 36003 32998 22001 11193 21212 30227 40393 52006 80001 333 11113
AAXX 06181 36152 329// 02002 11209 21234 30210 40418 52006 333 11057
AAXX 06181 36177 115// 73101 11078 21092 30147 40404 52009 69940 78582 87300 333 11071
AAXX 06181 36208 315// 80602 11084 21125 39374 40394 54000 77172 8372/ 333 11047
AAXX 06181 36397 326// 81806 11106 21167 39811 40403 51002 885// 333 11096
AAXX 06181 36428 329// 60000 11215 21240 39908 40459 51001 82041 333 11179 95090
AAXX 06181 36535 329// 40000 11252 21283 39768 40475 52003 80001 333 11156
AAXX 06181 36639 329// 00000 11228 21256 39769 40439 58002 333 11089
AAXX 06181 36821 118// 80000 11060 21071 39882 40391 58004 69920 71072 8801/ 333 11049
AAXX 06181 36859 329// 60000 11118 21124 39576 40408 58003 83045 333 11029
AAXX 06181 36864 NIL
AAXX 06181 36870 113// 80101 11061 21072 39317 40370 58007 69900 77772 886// 333 11037
AAXX 06181 38001 32997 50509 11003 21047 30206 40176 52016 85030 333 10031
AAXX 06181 38062 329// 00401 11182 21208 30209 40388 58011 333 11101
AAXX 06181 38069 329// 00000 11149 21176 30169 40377 58009 333 11051
AAXX 06181 38196 NIL
AAXX 06181 38198 NIL
AAXX 06181 38222 32597 80000 11026 21052 39788 40364 58010 885// 333 11015
AAXX 06181 38232 32998 11104 11025 21048 30141 40243 58001 81080 333 11003
AAXX 06181 38328 NIL
AAXX 06181 38334 NIL
AAXX 06181 38341 11996 80104 11046 21057 39536 40352 58012 69920 71022 8802/ 333 11020
AAXX 06181 38343 12697 81603 11049 21073 39481 40356 58013 69930 885// 333 11030
AAXX 06181 38439 NIL
AAXX 06181 28676 325// 81703 11052 21073 30203 40334 52010 886// 333 11057
AAXX 06181 28766 315// 62005 11056 21070 30135 40331 52012 71022 84530 333 11049
AAXX 06181 28867 NIL
AAXX 06181 28879 116// 82106 11056 21070 30065 40363 52012 69900 70272 885// 333 11053 91112
AAXX 06181 28952 NIL
AAXX 06181 28966 125// 81805 11067 21087 30071 40367 52015 69900 885// 333 11064
AAXX 06181 29802 325// 81903 11132 21152 30209 40362 52004 885// 333 11170
AAXX 06181 29807 325// 82203 11110 21138 30242 40368 54000 885// 333 11159
AAXX 06181 34691 32998 81408 11023 21050 30210 40197 57001 8802/ 333 10015
AAXX 06181 35067 329// 82003 11085 21100 30095 40385 52008 8802/ 333 11068
AAXX 06181 35078 115// 82306 11089 21104 39997 40396 52006 69900 73632 885// 333 11080
AAXX 06181 35085 125// 82204 11080 21090 39891 40389 52004 69920 8657/ 333 11080
AAXX 06181 35108 329// 71605 11071 21105 30224 40272 52003 80050 333 10002
AAXX 06181 35188 112// 81602 11107 21122 39955 40416 52004 69920 71072 886// 333 11109 88703
AAXX 06181 35217 329// 71407 11090 21106 30246 40287 52001 80001 333 11054
AAXX 06181 35229 129// 01401 11139 21153 30077 40371 52007 69900 333 11036
AAXX 06181 35302 329// 61708 11066 21094 30242 40262 52003 86050 333 11031
AAXX 06181 35357 125// 81802 11183 21209 39956 40431 52005 69930 885// 333 11120
AAXX 06181 35394 12998 61401 11175 21197 39706 40442 52004 69920 80002 333 11130
AAXX 06181 35406 319// 61605 11066 21099 30263 40265 52004 70232 86040 333 11025
AAXX 06181 35416 329// 11308 11099 21136 30193 40320 52003 80001 333 11043
AAXX 06181 35426 329// 01302 11136 21156 30059 40372 53006 333 11066
AAXX 06181 35497 329// 00000 11213 21238 39572 40452 52003 333 11112
AAXX 06181 35532 31993 00912 11112 21147 39838 40359 57002 73933 333 11046 91016 91118
AAXX 06181 35671 32998 00000 11209 21233 39963 40438 52003 333 11156
AAXX 06181 35700 32998 01308 11045 21080 30263 40238 58004 333 11010 91012 91117
AAXX 06181 35746 319// 00503 11145 21158 30327 40400 52002 71000 333 11085
AAXX 06181 35796 31597 80403 11122 21146 39950 40414 52001 77772 886// 333 11106
AAXX 06181 35849 32998 00000 11138 21158 30299 40392 54000 333 11049
AAXX 06181 35925 329// 01107 11066 21086 40308 56001 333 11049
AAXX 06181 35953 129// 00402 11197 21209 30256 40398 57003 69900 333 11087
AAXX 06181 35969 329// 00000 11204 21229 30219 40411 58004 333 11141
AAXX 06181 36003 32998 22001 11193 21212 30227 40393 52006 80001 333 11113
AAXX 06181 36152 329// 02002 11209 21234 30210 40418 52006 333 11057
AAXX 06181 36177 115// 73101 11078 21092 30147 40404 52009 69940 78582 87300 333 11071
AAXX 06181 36208 315// 80602 11084 21125 39374 40394 54000 77172 8372/ 333 11047
AAXX 06181 36397 326// 81806 11106 21167 39811 40403 51002 885// 333 11096
AAXX 06181 36428 329// 60000 11215 21240 39908 40459 51001 82041 333 11179 95090
AAXX 06181 36535 329// 40000 11252 21283 39768 40475 52003 80001 333 11156
AAXX 06181 36639 329// 00000 11228 21256 39769 40439 58002 333 11089
AAXX 06181 36821 118// 80000 11060 21071 39882 40391 58004 69920 71072 8801/ 333 11049
AAXX 06181 36859 329// 60000 11118 21124 39576 40408 58003 83045 333 11029
AAXX 06181 36864 NIL
AAXX 06181 36870 113// 80101 11061 21072 39317 40370 58007 69900 77772 886// 333 11037
AAXX 06181 38001 32997 50509 11003 21047 30206 40176 52016 85030 333 10031
AAXX 06181 38062 329// 00401 11182 21208 30209 40388 58011 333 11101
AAXX 06181 38069 329// 00000 11149 21176 30169 40377 58009 333 11051
AAXX 06181 38196 NIL
AAXX 06181 38198 NIL
AAXX 06181 38222 32597 80000 11026 21052 39788 40364 58010 885// 333 11015
AAXX 06181 38232 32998 11104 11025 21048 30141 40243 58001 81080 333 11003
AAXX 06181 38328 NIL
AAXX 06181 38334 NIL
AAXX 06181 38341 11996 80104 11046 21057 39536 40352 58012 69920 71022 8802/ 333 11020
AAXX 06181 38343 12697 81603 11049 21073 39481 40356 58013 69930 885// 333 11030
AAXX 06181 38439 NIL
AAXX 06184 83384 NIL
AAXX 06184 83386 NIL
AAXX 06184 83388 NIL
AAXX 06184 83393 NIL
AAXX 06184 83442 NIL
AAXX 06184 83479 NIL
AAXX 06184 83483 NIL
AAXX 06184 83531 NIL
AAXX 06184 83538 NIL
AAXX 06184 83574 NIL
AAXX 06184 83582 NIL
AAXX 06184 83595 NIL
AAXX 06184 83687 NIL
AAXX 06184 83692 NIL
AAXX 06184 83695 32698 80000 10296 20218 39996 40131 56010 885//
AAXX 06184 83718 NIL
AAXX 06184 82022 32570 51015 10321 20195 30002 40098 85100 333 59002
AAXX 06184 82193 21262 72505 10264 20244 30074 40092 79562 85930 333 59007 69951
AAXX 06184 82281 32570 50520 10317 20184 30035 40097 85200 333 58003
AAXX 06184 82332 21440 70510 10279 20238 30003 40096 76022 882// 333 59002 69901
AAXX 06184 82398 32570 30811 10282 20225 30082 40111 83100 333 58005
AAXX 06184 82400 32570 41110 10284 20230 30054 40118 84100 333 59004
AAXX 06184 82579 32570 40704 10344 20210 30012 40088 82104 333 59000
AAXX 06184 82917 32570 73208 10276 20223 39880 40102 85230 333 59000
AAXX 06184 82965 21570 60410 10284 20228 39766 40092 70262 83234 333 58004 60011
AAXX 06184 82993 32570 41013 10288 20233 39987 40122 82130 333 59002
AAXX 06184 83208 32470 73408 10256 20210 39411 48530 83230 333 58003
AAXX 06184 83349 21570 20808 10295 20233 30130 40136 70261 82100 333 59000 69951
AAXX 06184 83362 32570 42806 10340 20188 39854 40066 84100 333 59006
AAXX 06184 83378 21459 63106 10207 20179 38949 48510 79196 85230 333 58007 60031
AAXX 06184 83460 32570 10816 10273 20217 30074 40130 81100 333 59001
AAXX 06184 83497 NIL
AAXX 06184 83566 21240 72104 10187 20177 39213 48520 76162 86210 333 58017 60071
AAXX 06184 83599 NIL
AAXX 06184 83612 32970 52910 10322 20168 39460 48510 58027 84204
AAXX 06184 83649 32570 60410 10281 20225 30130 40135 57019 82234
AAXX 06184 83650 NIL
AAXX 06184 83780 32570 51412 10223 20169 39223 48510 56014 85500
AAXX 06184 83827 32570 20504 10342 20141 39800 40071 58023 82100
AAXX 06184 83840 32570 72904 10251 20172 39097 48500 57024 85204
AAXX 06184 83899 32570 20112 10287 20214 30089 40095 57030 82100
AAXX 06184 83925 NIL
AAXX 06184 83970 NIL
AAXX 06184 83971 32970 42108 10303 20198 30098 40102 56013 84100
AAXX 06184 NIL
AAXX 06184 NIL
AAXX 06184 NIL
AAXX 06184 NIL
AAXX 06184 82392 NIL
AAXX 06184 82583 NIL
AAXX 06184 82594 NIL
AAXX 06184 82683 NIL
AAXX 06184 82780 NIL
AAXX 06184 82789 NIL
AAXX 06184 82795 NIL
AAXX 06184 82879 NIL
AAXX 06184 82893 NIL
AAXX 06184 82979 32498 30908 10313 20153 39653 40096 83100 333 58004
AAXX 06184 82986 32598 21407 10347 20160 39801 40081 82100 333 59006
AAXX 06184 83179 32598 20508 10331 20165 39626 40064 82200 333 59010
AAXX 06184 83192 32597 21209 10350 20138 39939 40101 82200 333 59004
AAXX 06184 83339 32497 20912 10271 20175 39134 40085 82200 333 59002
AAXX 06184 83498 32595 30907 10290 20232 30137 40142 83210 333 58000
AAXX 06184 82586 NIL
AAXX 06184 82678 NIL
AAXX 06184 82784 NIL
AAXX 06184 82791 NIL
AAXX 06184 82983 NIL
AAXX 06184 83096 32695 20906 10295 20226 30127 40134 82100 333 58001
AAXX 06184 83186 32598 51806 10324 20126 39575 40096 85100 333 59001
AAXX 06184 83236 NIL
AAXX 06184 83242 32497 61803 10317 20228 39613 40105 86700 333 59013
AAXX 06184 83288 32598 41802 10299 20216 39599 40085 81136 333 59003
AAXX 06184 83344 32498 70906 10253 20182 39156 40121 86530 333 59004
AAXX 06184 NIL
AAXX 06184 82143 NIL
AAXX 06184 82599 32570 41212 10293 20231 30051 4//// 84100 333 59002
AAXX 06184 82824 32470 72903 10311 20232 30003 40103 82030 333 59022
AAXX 06184 82899 32570 10610 10292 20210 30110 40122 81100 333 59002
AAXX 06184 83117 NIL
AAXX 06184 83248 32470 31210 10304 20240 30111 40133 83200 333 59000
AAXX 06184 83746 31562 61306 10295 20214 30088 40098 57009 70511 884//
BBXX 46207 06181 99509 71299 46/// /1612 10060 40154 52003 22200 00079 10806 70030 333 91214
AAXX 06184 83437 NIL
AAXX 06184 83550 31597 5//// 10294 20226 30091 40120 70301 83204 333 58007
AAXX 06184 83552 NIL
AAXX 06184 83565 NIL
AAXX 06184 83579 NIL
AAXX 06184 83592 NIL
AAXX 06184 83623 NIL
AAXX 06184 83630 NIL
AAXX 06184 83676 NIL
AAXX 06184 83698 32998 80503 10284 20226 30111 40125 56014 8801/
AAXX 06184 83702 NIL
AAXX 06184 83704 NIL
AAXX 06184 83716 NIL
AAXX 06184 83726 NIL
AAXX 06184 83738 NIL
AAXX 06184 NIL
BBXX 3ERR2 06184 99635 10053 41598 80604 10047 21005 40006 57019 71582 8337/ 22200 06089 10909 70043 333 91123
BBXX LF3F 06184 99643 10078 43/// /3611 10034 21058 40002 57004 22200 04086 10909 70044 333 91131
BBXX LF3N 06184 99653 10073 41698 60209 10029 21063 40004 52001 70222 8//// 22200 10810 70050
BBXX LF4B 06184 99606 10037 47/98 /2206 10050 40036 57034 723// 22200 00050 10806 70031 333 91121
BBXX LF4C 06184 99584 10019 41598 72219 10069 20024 40054 57045 70262 89/// 22200 00068 10704 70020 333 91122
BBXX LF5T 06184 99660 10081 41698 /0517 10024 21007 49993 57007 700// 22200 10808 70038 333 91131
AAXX 06184 91487 NIL
AAXX 06184 91490 NIL
AAXX 06184 91533 NIL
AAXX 06184 91601 NIL
AAXX 06184 91610 11499 30810 10265 20225 40093 53006 60001 70300 82208 333 562/9
AAXX 06184 91623 NIL
AAXX 06184 91629 NIL
AAXX 06184 91701 NIL
AAXX 06184 91487 NIL
AAXX 06184 91490 NIL
AAXX 06184 91533 NIL
AAXX 06184 91601 NIL
AAXX 06184 91610 11499 30810 10265 20225 40093 53006 60001 70300 82208 333 562/9
AAXX 06184 91623 NIL
AAXX 06184 91629 NIL
AAXX 06184 91701 NIL
AAXX 06181 45032 36/// /3201 10111 20070 30233 40250 57001
AAXX 06181 45035 36/// /0102 10117 20088 30210 40254 57002
AAXX 06181 45039 36/// /0102 10118 20086 30232 40247 57001
AAXX 06181 45044 36/// /0006 10123 20095 30145 40242 54000
AAXX 06181 45032 36/// /3201 10111 20070 30233 40250 57001
AAXX 06181 45035 36/// /0102 10117 20088 30210 40254 57002
AAXX 06181 45039 36/// /0102 10118 20086 30232 40247 57001
AAXX 06181 45044 36/// /0006 10123 20095 30145 40242 54000
AAXX 06184 41316 36/63 /3402 10223 20167 30144 40170 333 0E022 10275 59004
BBXX 46207 06181 99509 71299 46/// /1612 10060 40154 52003 22200 00079 10806 70030 333 91214
AAXX 06183 87480 32965 00507 10357 20124 30092 40121 57009
AAXX 06183 87532 32970 33608 10381 20129 39942 40103 57007 81072 333 56076 81360
AAXX 06184 87344 32562 70713 10346 20115 39574 40099 57012 84306 333 56505 57974 83825 81935 84270
AAXX 06184 87349 32970 20204 10346 20095 39734 40114 57012 82060 333 56000 82359
AAXX 06184 87371 32962 01406 10340 20119 30109 40130 58009
AAXX 06184 87374 32965 00908 10352 20089 30037 40122 57009
AAXX 06184 87395 32965 02010 10343 20131 30073 40117 57015
AAXX 06184 87418 32665 50504 10356 20103 39309 40066 57019 84996 333 56666 57992 82840 82945
AAXX 06184 87436 32670 73204 10349 20134 39309 40082 57017 84876 333 56886 82640 84360 87270
AAXX 06184 87448 32665 61412 10374 20136 39557 40096 57012 83106 333 56706 83840 84270
AAXX 06184 87453 32965 00212 10346 20140 39630 40097 57009
AAXX 06184 87467 32970 00512 10355 20133 39985 40116 57011
AAXX 06184 87497 32965 01810 10359 20135 30096 40122 57019
AAXX 06184 87506 11559 73218 10230 20093 38606 48531 53005 69901 79596 84966 333 56665 57900 82830 82935 95060
AAXX 06184 87509 31570 62308 10308 20105 39274 40087 58004 72992 84970 333 56770 57970 83825 81950 82355 82460 90103
AAXX 06184 87534 32960 10508 10377 20080 39956 40110 57013 81070 333 56060 81360
AAXX 06184 87548 32665 50210 10376 20075 30026 40118 58004 82586 333 56554 82640
AAXX 06184 87576 32960 51608 10381 20124 30102 40125 57011 82086 333 56076 82360 85270
AAXX 06184 87582 32660 42010 10375 20063 30120 40126 57008 82206 333 56506 57855 82845 84270
AAXX 06184 87585 32660 21806 10379 20106 30089 40118 57015 81231 333 56567 57845 81835
AAXX 06181 22282 115// 82005 11017 21025 30021 40029 53028 50010 78582 889// 333 11011
AAXX 06181 22438 NIL
AAXX 06181 22471 12484 71804 11008 21018 30003 40027 52009 69900 87500 333 10003 87616
AAXX 06181 22563 12497 82002 11002 21008 39994 40032 52012 69920 885// 333 10008 88614
AAXX 06181 22641 11499 81303 10001 21010 39962 49978 52005 69900 70282 8658/ 333 10009 85716 91108
AAXX 06181 22695 31497 81603 11011 21015 39931 40084 52011 77172 8652/ 333 10000 86613
AAXX 06181 22867 32498 81202 10002 21009 39911 40024 58001 886// 333 10005 88710 91106
AAXX 06181 22939 32597 71604 10006 21014 39829 49991 53003 875// 333 10004 87626
AAXX 06181 22996 11595 71303 10003 21003 39918 40108 52004 60020 78582 84910 333 10003
AAXX 06181 23324 11578 82203 11032 21042 30038 40117 52014 60010 70272 885// 333 11065 88624
AAXX 06181 27008 11998 81404 10005 21009 39811 49980 52009 69900 70272 8807/ 333 10011
AAXX 06181 27051 11496 81703 10005 21003 39865 40030 58002 69900 78582 8655/ 333 10009 84914
AAXX 06181 27225 32464 81803 10016 21006 39885 40015 52008 885// 333 10013 88619
AAXX 06181 27252 11496 81604 10004 20001 39876 40061 52007 60020 77172 8877/ 333 10005 88715
AAXX 06181 27333 11284 81706 10011 20003 39879 40036 52006 60010 77176 887// 333 10012 88707
AAXX 06181 27369 11697 81804 10016 21000 39969 40106 52011 60030 70252 885// 333 10017
AAXX 06181 27393 12498 82308 10008 21000 30101 40271 52013 60010 886// 333 10010 91115
AAXX 06181 27479 12498 81805 10018 21010 30004 40138 52012 69980 886// 333 10027 88715
AAXX 06181 27532 11296 81804 10014 20009 39838 40050 52011 60040 77177 8872/ 333 10009 86704
AAXX 06181 27648 11396 81705 10007 21004 39920 40088 52012 60040 75152 886// 333 20016 88706 91112
AAXX 06181 27675 32497 81706 10013 21007 39979 40149 52012 885// 333 10023 88619
AAXX 06181 27679 32498 81806 10012 21008 39935 40160 52007 885// 333 10017 88619
AAXX 06181 28214 11596 81806 10010 21007 39978 40191 52011 69970 70232 885// 333 10002 91112
AAXX 06181 34560 11215 81306 11003 21002 39997 40166 52010 69900 72842 886// 333 10006 88703
AAXX 06181 34720 32497 80803 10023 20016 30053 40093 52002 886// 333 10037
AAXX 06181 34730 31240 81105 10019 20012 30011 40104 52004 71022 886// 333 10029 88706
AAXX 06181 34740 31596 81304 10032 20023 30022 40119 55002 71022 885// 333 10040
AAXX 06181 34824 32997 01302 10044 20020 30072 40077 52005 333 10107
AAXX 06181 34858 31995 60802 10032 20023 30023 40131 50006 71022 86030 333 10055
AAXX 06181 34866 32498 81005 10022 20014 30143 40134 52012 8860/ 333 10042
AAXX 06181 34880 31597 80904 10009 21016 30190 40163 52004 78582 889// 333 10014 88920
AAXX 06181 37018 32998 01304 10107 20022 30019 40093 52003 333 10126
AAXX 06181 37054 31/93 90802 11015 21015 39750 40142 51011 74544 333 11008
AAXX 06181 37472 NIL
AAXX 06181 22165 NIL
AAXX 06181 22676 12584 81303 11004 21016 39978 40056 52005 69900 885// 333 10010
AAXX 06181 22837 11458 81503 10007 21007 39900 49970 52007 69910 78582 889// 333 10012 86916
AAXX 06181 22954 32398 81503 11001 21013 39768 40016 54000 886// 333 11003 88707
AAXX 06181 23405 12474 71602 11013 21027 39985 40085 52013 69940 87500 333 11008 87614
AAXX 06181 23412 11399 81603 11017 21034 30003 40100 52015 69930 72682 883// 333 11028 86708
AAXX 06181 23803 11496 81503 11020 21026 39957 40139 58001 60010 77372 8872/ 333 11011 87711
AAXX 06181 27066 11396 81803 10006 20001 39894 40071 52012 60020 77177 8872/ 333 10004 88707
AAXX 06181 27083 11345 82003 10003 20000 39879 40103 52010 60020 77172 8802/ 333 10002
AAXX 06181 27113 11460 81703 10012 20001 39854 49999 52003 69900 72682 8633/ 333 10011 85916
AAXX 06181 27242 11498 82803 10013 20010 39906 40033 52005 60010 70282 889// 333 10011 88712
AAXX 06181 27329 11468 81804 10012 20009 39899 40024 52006 60020 70282 885// 333 10014
AAXX 06181 27355 12497 81805 10010 20005 39907 40073 52007 60030 885// 333 10013 91113
AAXX 06181 27373 11396 81807 10010 20005 39899 40117 52008 60030 75052 886// 333 10012 88708 91112
AAXX 06181 27665 12497 81504 10008 21015 39856 40128 52007 69900 886// 333 10012 88710
AAXX 06181 27835 11396 81803 10010 21001 39920 40078 52007 69930 71022 886// 333 10023 88707
AAXX 06181 28009 11496 82105 10008 21006 39945 40156 52007 69960 75185 886// 333 10000
AAXX 06181 28411 12597 62008 11001 21031 30026 40224 52009 69920 83530 333 10010
AAXX 06181 28418 11997 81705 11006 21037 30071 40240 52017 69930 73632 80004 333 10015
AAXX 06181 14258 12670 03508 10055 21034 39900 40088 52040 60002 82500 333 10088
AAXX 06181 15627 11/01 93210 11070 21089 37410 47828 58020 60492 74174 333 11046 21071 47040 93505 555 593// 92713
AAXX 06184 78947 11580 61211 10285 20212 30141 40144 69901 70382 86400 333 05300 10291 20224 58004 70007 83824 85638 90924
AAXX 06181 34523 31496 81304 10028 20018 30023 40100 52004 71022 886// 333 10049 88715
AAXX 06184 85585 12498 73204 10190 20141 40138 56003 60001 87500 333 56700 87618
BBXX 46035 06181 99571 71778 46/// /1003 1//// 40048 57006 91750 22200 11102 300// 41102 70011 333 91204 555 11025 22026 31655 42105 61749 095023 124014 156023 178032 191033 200028 82104 91655
BBXX C6SI6 06184 99543 71644 46/// /0225 11085 21120 49955 56042 7//// 8//// 22223 0//// 2////
BBXX DCSL2 06184 99370 71521 41298 82126 10170 20170 40140 54000 71082 887// 22224 00153 20304 30000 80170
BBXX DDJS2 06183 99531 71595 41/96 80824 11002 49889 57088 77172 88/// 22265 00040 21004 3//// 4//// 5////
BBXX KCGJ 06183 99543 71635 41/97 40430 11067 2//// 49950 5//// 702// 8//// 222// 0//// 2//03 305// 4//03 5//// 6//// 8//// ICE /////
BBXX KEY796 06183 99571 71703 41/97 80418 11105 21150 40046 55/// 726// 8//// 222// 01011 2//// 3//// 4//// 5//// 6//// 8//// ICE /////
BBXX NEPP 06184 99599 71679 41597 31704 11210 21230 40069 56004 7//00 835// 22282 00005 2//// 3//// 4//// 5//// 6//// 86210 ICE 44092
BBXX NWS0003 06184 99600 71679 43/// /1806 11206 21243 40071 5//// 7//// 8//// 222// 0//// 2//// 3//// 4//// 5//// 6//// 8//// ICE /////
BBXX S6JU 06184 99508 71764 41898 25134 10005 21015 49985 51012 70201 82941 22254 04010 2//// 33029 40604 50403 6//// 81005 ICE /////
BBXX SHIP 06184 99546 71689 41598 60333 11003 21049 49970 56016 70222 86/// 91800 22264 00040 2//// 3//// 4//// 82000
AAXX 06181 50844 32962 00000 11240 21265 40398 52001 333 11086
AAXX 06181 50854 32965 02501 11207 21238 40395 52002 333 11100
AAXX 06181 50968 32962 02202 11220 21238 40410 52004 333 11125
AAXX 06181 51379 32970 01403 11203 21236 40433 54000 333 00755 11069
AAXX 06181 51467 32980 00000 11141 21185 38291 52008 333 00600 11003
AAXX 06181 51495 32980 03404 11113 21199 40401 52007 333 00652 11035
AAXX 06181 53480 32980 00000 11145 21220 40389 54000 333 11053
AAXX 06181 53673 32961 03202 11103 21172 40396 52001 333 11023
AAXX 06181 53698 32961 70202 11036 21076 40407 52001 8703/ 333 10001
AAXX 06181 53898 31930 03402 11037 21080 40392 57001 71000 333 10027
AAXX 06181 54308 32980 23401 11164 21213 40414 52002 80002 333 11042
AAXX 06181 54602 32960 80702 11046 21077 40404 54000 80007 333 11012
AAXX 06181 54725 32965 00902 11080 21093 40405 52005 333 10026
AAXX 06181 54751 32976 03605 11039 21091 40392 52001 333 10003
AAXX 06181 54916 32960 00901 11070 21088 40391 52007 333 10048
AAXX 06181 57014 32765 80903 11013 21055 40327 52001 885// 333 00500 10012
AAXX 06181 57025 32760 82901 11016 21090 40349 57001 885// 333 11001
AAXX 06181 57046 32462 72207 11064 21078 37988 52002 875// 333 00401 11016
AAXX 06181 58208 32960 01102 11009 21064 40365 52005 333 10075
AAXX 06184 62305 32560 42320 10129 20048 40094 54000 84500 333 10174
AAXX 06184 62306 32960 01916 10128 20052 40112 57001 333 10180
AAXX 06184 62318 32960 01806 10107 20079 40144 52008 333 10175
AAXX 06184 62337 32960 01702 10090 20003 40161 52010 333 10186
AAXX 06184 62366 32960 01708 10134 20043 40163 52008 333 10170
AAXX 06184 62393 32960 02703 10114 20000 40185 53016 333 10190
AAXX 06184 62405 32960 02102 10126 20031 40165 52011 333 10206
AAXX 06184 62414 32960 03605 10156 21002 40175 52009 333 10200
AAXX 06184 62417 32960 02304 10121 20017 40141 52004 333 10176
AAXX 06184 62440 32960 02006 10130 20009 40160 52011 333 10187
AAXX 06184 62463 32960 02504 10138 20034 40161 52010 333 10204
AAXX 06184 62465 32960 02902 10160 20061 40155 52006 333 10202
AAXX 06184 62419 NIL
AAXX 06181 37472 31596 83102 10021 20016 30145 40122 52009 71022 886// 333 10032
AAXX 06181 38838 429// 20000 11082 21092 39634 40353 52001 80002
AAXX 06181 40700 12960 72202 10014 21015 30076 40167 56002 60001 80006 333 55026 87267
AAXX 06181 40723 12960 00000 11096 21116 38932 40294 55000 60001 333 55070 21018
AAXX 06181 40726 11660 81803 10012 21003 38644 40202 51002 69951 70366 83520 333 55030 83635 87458
AAXX 06181 40727 11657 80000 11004 21010 38473 40219 51008 69921 77021 8252/ 333 55035 20848 82640 88560
AAXX 06181 40734 12960 50000 10074 20046 30176 40151 53003 60001 85030 333 55087 85359
AAXX 06181 40737 12960 00000 10034 20024 30127 40145 57018 60001 333 55074 2////
AAXX 06181 40741 12960 01203 11002 21024 39953 40307 50000 60001 333 55033
AAXX 06181 40780 12660 31505 10076 21096 38677 40175 52010 60001 82530 333 55028 20619 82640 83359
AAXX 06181 40791 12962 09020 10040 21090 39388 40244 50005 60001 333 55098 2////
AAXX 06181 40792 12968 00602 11014 21084 38736 40250 55000 60001 333 55095
AAXX 06181 40794 11660 80902 10140 20080 30080 40179 52012 69901 70292 8432/ 91740 333 55066 20995 82935 82640 88459
AAXX 06181 40812 12660 70000 10154 20050 39789 40168 52017 60001 85370 333 55061 82935 83640 87359
AAXX 06181 40829 12960 03303 10013 21090 39652 40250 51004 60001 333 55094
AAXX 06181 40833 12660 61305 10172 20109 30149 40181 53006 60001 86400 91745 333 55075 86640
AAXX 06181 40835 12660 60000 10146 21065 39353 40190 51007 60001 83430 333 55089 83640 86360
AAXX 06181 40845 NIL
AAXX 06181 40882 11940 00000 10188 20119 30146 40181 51009 60001 70500 333 55072
AAXX 06181 40889 NIL
AAXX 06181 40890 NIL
AAXX 06181 40893 11956 01803 10220 20135 30173 40179 51010 60001 70500 222// 00/// 20501 333 55073
AAXX 06181 40897 14940 00000 10160 21023 30169 40183 51007 60001 70500 333
AAXX 06181 14235 12970 0//// 11012 21069 38927 48381 52034 60002 333 10006 41998
AAXX 06181 14246 11982 63502 10040 21045 39900 40106 52/// 60002 700// 86030 333 10089
AAXX 06181 14314 12680 23506 10100 21052 30010 40074 52/// 60002 82200 333 10125 92323 92438
AAXX 06181 14323 11982 03302 10101 21039 30044 40078 52/// 60002 702// 333 10124 92322 92428
AAXX 06181 14324 12370 40911 11061 21077 38270 48383 56/// 60002 84600 333 11038 44026
AAXX 06181 14328 12665 23503 10064 21076 39698 40093 52/// 60002 81540 333 10082
AAXX 06181 14330 12360 20306 10042 21070 39407 40076 52/// 60002 81230 333 10057
AAXX 06181 14438 11680 53408 10089 20006 39946 40036 51/// 60002 703// 85200 333 10100 923//
AAXX 06181 14443 32698 534// 10096 20040 39909 40006 52032 85030 333 10110 92356 911//
AAXX 06181 14447 12584 73306 10097 21046 39989 40019 52/// 60002 87200 333 10115 92322
AAXX 06181 14472 12670 80209 10089 21071 39888 49952 53021 69922 8221/ 333 10105 92312
AAXX 06181 15605 11330 82904 11010 21013 39094 49939 52022 60222 77077 8802/ 333 10026 21010 48013 555 598// 69999 71853 93022
AAXX 06183 64800 NIL
AAXX 06183 64820 NIL
AAXX 06183 64860 31950 70000 10263 20088 39838 40110 70522 80002 333 10318 59008 87080
AAXX 06183 64861 NIL
AAXX 06184 64870 32960 70000 10199 20076 38910 48500 80002 333 10301 59008 87080
AAXX 06184 64871 NIL
AAXX 06184 64892 NIL
AAXX 06184 64893 NIL
AAXX 06184 64894 NIL
AAXX 06184 64910 31414 72604 10283 20229 30088 40097 70522 82502 333 10333 59019 82616 87080
AAXX 06184 64911 NIL
AAXX 06184 64950 NIL
AAXX 06181 08501 32/// /1805 10169 20155 30254 40290 57006 333 10177 91108 555 60005
AAXX 06181 08505 11468 41205 10178 20149 30260 40310 56006 60022 70282 84800 333 10191 84812 555 60007
AAXX 06181 08506 12/// /1706 10168 20148 30245 40317 57005 60032 333 10182 91109 555 60005
AAXX 06181 08509 32460 11404 10170 20149 30260 40325 55000 81800 333 10186 81816 555 60007
AAXX 06181 08511 32/// /1202 10161 20134 30217 40325 54000 333 10177 555 60005
AAXX 06181 08512 32480 51004 10171 20135 30227 40320 54000 85840 333 1//// 81816 85650 555 60007
AAXX 06181 08515 NIL
AAXX 06181 08521 32470 60406 10169 20106 30223 40294 58002 85801 333 10194 82818 83630 555 60007
AAXX 06181 08522 32568 79901 10178 20101 30218 40288 57002 85801 222// 313// 40301 333 10214 83820 555 60005
AAXX 06181 08524 32470 70503 10163 20108 30200 40299 54000 87800 333 10182 86815 91006 91107 555 60005
AAXX 06181 08530 NIL
AAXX 06181 08531 32/// /0308 10134 20110 30263 40302 57004 333 10141 555 60005
AAXX 06181 08532 NIL
AAXX 06181 08533 32/// /0205 10120 20095 30248 40277 54000 333 10147 91008 91108 555 60005
AAXX 06180 08534 32970 19901 10124 20091 30274 40292 55000 80001 333 10170 81072 555 60007
AAXX 06181 08535 32/// /3503 10132 20071 30200 40293 54000 333 10179 91105 555 60005
AAXX 06181 08537 NIL
AAXX 06181 08540 32960 13302 10104 20089 30233 40303 55001 80001 333 10138 81070 555 60007
AAXX 06181 08541 12/// /0104 10110 20078 30167 40288 54000 69912 333 10143 555 60005
AAXX 06181 08544 31940 10101 10116 20101 30281 40302 55003 71000 80001 333 10138 81070 555 60007
AAXX 06181 08545 31957 10301 10123 20091 30223 40308 57001 71000 80002 333 10144 81075 555 60005
AAXX 06181 08548 32/// /3502 10099 20071 30099 40308 52001 333 10131 555 60005
AAXX 06181 08551 31964 10901 10115 20095 30251 40309 54000 70200 80001 333 10161 81099 555 60005
AAXX 06181 08554 31970 11102 10118 20082 30270 40280 55000 70300 80001 333 10165 81075 555 60005
AAXX 06181 08558 12/// /3503 10095 20061 39990 40290 54000 69912 333 10147 555 60005
AAXX 06181 08560 NIL
AAXX 06181 08561 31970 19901 10096 20076 30055 40293 53002 70241 80001 333 10138 81072 555 60007
AAXX 06181 08562 12/// /9901 10094 20067 39988 40287 52002 69912 333 10143 555 60005
AAXX 06181 08567 32/// /0201 10081 20063 39652 40329 52002 333 10121 555 60005
AAXX 06181 08568 32/// /1403 10068 20033 38746 48613 52002 333 10134 555 60005
AAXX 06181 08570 31875 10501 10141 20066 39835 40293 52003 70300 81048 333 10188 81358 555 60005
AAXX 06181 08571 32/// /0000 10122 20053 39589 40294 52003 333 10180 555 60005
AAXX 06181 08575 32/// /0000 10099 20047 39504 40323 52002 333 10114 555 60005
AAXX 06181 08579 32/// /2402 10125 20068 30166 40293 54000 333 10170 91105 555 60005
AAXX 06181 01271 17/65 03205 11017 21045 39980 40002 51016 60062 700// 333 10016 91116
AAXX 06184 89528 46/// /3420 4//// 5////
AAXX 06184 89628 46/// /3124 4//// 5////
AAXX 06184 89022 41520 82605 11033 21051 39825 49862 57002 77372 886// 333 88727
AAXX 06184 89062 41580 70218 10019 21025 39763 49803 57006 70272 8753/ 333 82620 84656
AAXX 06184 87593 32960 51618 10343 20077 30112 40137 53008 82081 333 56065 82360 84070
AAXX 06184 87623 32880 30509 10391 20155 39889 40101 57009 82102 333 56706 82858
AAXX 06184 87641 32965 31404 10334 20084 39978 40145 52004 80004 333 56006 83070
AAXX 06184 87645 32970 30916 10280 20095 39962 40164 52012 80005 333 56006 83270
AAXX 06184 87648 32960 21410 10303 20114 30142 40153 52015 80005 333 56000 82270
AAXX 06184 87692 32460 31618 10209 20147 30168 40193 52019 82501 333 56406 82618
AAXX 06184 87715 31959 20915 10286 20115 39848 40153 57013 80006 333 56006 70700 82270
AAXX 06184 87750 32965 21426 10272 20082 30086 40183 51004 80002 333 56005 82070
AAXX 06184 87765 31930 23605 10330 20016 39184 48505 57028 70400 80001 333 56009 82070 96104 96120
AAXX 06184 87784 32980 11621 10208 20118 30201 40225 57012 80001 333 56000 81070
AAXX 06184 87791 32580 10921 10214 20096 30216 40225 51003 81500 333 56000 81625
AAXX 06184 87800 31970 40000 10327 20158 39717 40103 57029 70411 80001 333 56006 84089
AAXX 06184 87803 31970 42501 10309 20105 39222 40100 57031 70400 80006 333 56002 84270 96104
AAXX 06184 87828 32980 00915 10200 20061 30176 40227 57019
AAXX 06184 87860 31975 50520 10181 20078 30138 40193 57032 70710 80006 333 56006 85270
AAXX 06184 87904 32980 82705 10162 20014 39893 40137 57027 87076 333 56066 87359
AAXX 06184 87909 32580 63616 10242 20000 30069 40143 57049 82536 333 56000 82630
AAXX 06184 87925 32680 72708 10210 21001 30093 40116 57035 83570 333 56660 83640 84360
AAXX 06184 87938 32980 42312 10131 20025 30014 40084 57033 84040 333 56050 57344 84358
AAXX 06183 87016 32560 62708 10326 20186 39682 40074 57017 82206 333 56604 82820
AAXX 06183 87896 32980 73624 10188 20049 30098 40196 57035 80006 333 56006 87270
AAXX 06183 NIL
AAXX 06184 87078 32770 41804 10376 20141 39949 40096 57023 84100 333 56800 84850
AAXX 06184 87244 NIL
AAXX 06184 87393 31958 01407 10329 20139 30060 40122 57015 70400
AAXX 06184 87416 32665 43208 10361 20101 39358 40066 58019 83304 333 56606 57933 81935 83836
AAXX 06184 87563 32965 40516 10351 20004 30070 40111 54000 84040 333 56060 57360 84360
AAXX 06184 87640 32965 20000 10363 20077 30025 4//// 57012 80005 333 56006 82270
AAXX 06184 87688 32962 00916 10241 20099 30052 40187 52011
AAXX 06184 87774 32982 02708 10250 20093 39170 48538 5////
AAXX 06184 87852 31575 72509 10234 20078 39650 40150 57029 70422 81174 333 56677 81825 83360 85070
AAXX 06181 40700 12960 72202 10014 21015 30076 40167 56002 60001 80006 333 55026 87267
AAXX 06181 40723 12960 00000 11096 21116 38932 40294 55000 60001 333 55070 21018
AAXX 06181 40726 11660 81803 10012 21003 38644 40202 51002 69951 70366 83520 333 55030 83635 87458
AAXX 06181 40727 11657 80000 11004 21010 38473 40219 51008 69921 77021 8252/ 333 55035 20848 82640 88560
AAXX 06181 40734 12960 50000 10074 20046 30176 40151 53003 60001 85030 333 55087 85359
AAXX 06181 40737 12960 00000 10034 20024 30127 40145 57018 60001 333 55074 2////
AAXX 06181 40741 12960 01203 11002 21024 39953 40307 50000 60001 333 55033
AAXX 06181 40780 12660 31505 10076 21096 38677 40175 52010 60001 82530 333 55028 20619 82640 83359
AAXX 06181 40791 12962 09020 10040 21090 39388 40244 50005 60001 333 55098 2////
AAXX 06181 40792 12968 00602 11014 21084 38736 40250 55000 60001 333 55095
AAXX 06181 40794 11660 80902 10140 20080 30080 40179 52012 69901 70292 8432/ 91740 333 55066 20995 82935 82640 88459
AAXX 06181 40812 12660 70000 10154 20050 39789 40168 52017 60001 85370 333 55061 82935 83640 87359
AAXX 06181 40829 12960 03303 10013 21090 39652 40250 51004 60001 333 55094
AAXX 06181 40833 12660 61305 10172 20109 30149 40181 53006 60001 86400 91745 333 55075 86640
AAXX 06181 40835 12660 60000 10146 21065 39353 40190 51007 60001 83430 333 55089 83640 86360
AAXX 06181 40845 NIL
AAXX 06181 40882 11940 00000 10188 20119 30146 40181 51009 60001 70500 333 55072
AAXX 06181 40889 NIL
AAXX 06181 40890 NIL
AAXX 06181 40893 11956 01803 10220 20135 30173 40179 51010 60001 70500 222// 00/// 20501 333 55073
AAXX 06181 40897 14940 00000 10160 21023 30169 40183 51007 60001 70500 333
AAXX 06181 33663 32597 60000 10016 20002 39911 40007 52029 82530 333 10070
AAXX 06181 23914 11498 81605 11026 21026 39920 40181 53001 60010 77172 8872/ 333 11033
AAXX 06181 23921 31597 80000 11104 21117 30085 40209 52006 78582 889// 333 11090
AAXX 06181 23955 41584 82103 11138 21156 30194 40259 53005 70272 8457/
AAXX 06181 23966 42999 70000 11226 21251 30144 40283 52002 80002
AAXX 06181 28138 11595 82102 11028 21032 39662 40241 52009 60010 77172 8802/ 333 11038
AAXX 06181 28224 11498 82105 10007 21007 30012 40227 52010 69930 70272 885// 333 11002
AAXX 06181 28255 12994 82502 11028 21048 30129 40261 52006 69900 86031 333 11028
AAXX 06181 28440 11597 72101 11014 21040 39916 40272 52005 69900 72682 87300 333 11011
AAXX 06181 28645 32597 21801 11068 21080 30005 40314 52007 82500 333 11040
AAXX 06181 28661 32997 52103 11091 21098 30218 40315 52011 80001 333 11069
AAXX 06181 28722 31697 71603 11032 21049 30159 40294 52008 70232 87500 333 11005
AAXX 06181 28748 32962 62301 11081 21095 30075 40327 52011 86030 333 11024
AAXX 06181 28838 32996 72204 11066 21071 39842 40338 52009 87030 333 11025
AAXX 06181 29231 41496 71802 11169 21188 30214 40319 53004 78582 85930
AAXX 06181 29313 42998 82102 11174 21193 30190 40322 53004 8803/
AAXX 06181 29612 42998 81803 11179 21198 30180 40345 58002 8802/
AAXX 06181 29638 42998 71603 11196 21215 30189 40371 52002 80001
AAXX 06181 29838 41596 81601 11110 21123 30135 40382 52002 77072 885//
AAXX 06181 29846 41450 81702 11101 21107 39979 40385 52008 78582 8695/ 333 86917
AAXX 06181 36061 41997 80000 11109 21122 39971 40403 52005 77172 8802/
AAXX 06181 28049 32997 71704 11043 21048 30062 40230 50001 84031 333 11048
AAXX 06181 28144 11598 71803 11016 21034 30071 40231 54000 69900 70282 875// 333 11021 87621
AAXX 06181 28319 11498 82204 10013 21007 30065 40231 52010 69920 70272 885// 333 10010
AAXX 06181 28321 12599 81605 10009 21011 30021 40226 52012 69950 885// 333 11002
AAXX 06181 28334 11497 82103 11010 21023 39954 40262 52010 69960 77072 8872/ 333 11013
AAXX 06181 28434 11598 81303 11004 21026 30010 40272 52010 69920 70282 889// 333 11009 85920
AAXX 06181 28552 32598 82401 11034 21061 30179 40295 52005 885// 333 11043
AAXX 06181 28666 11999 21903 11092 21100 30137 40320 53012 69900 71000 80002 333 11073
AAXX 06181 28825 12597 71803 11041 21060 30141 40319 52008 69920 87500 333 11019
AAXX 06181 29111 41698 82203 11155 21177 30196 40290 54000 70272 885// 333 88635
AAXX 06181 29209 42598 71802 11169 21182 30179 40315 52003 87500
AAXX 06181 29551 41497 82002 11109 21115 30161 40354 52008 78582 883//
AAXX 06181 29602 42999 82003 11148 21161 30190 40341 52005 8802/
AAXX 06181 29636 42598 82101 11147 21174 30134 40368 52004 885//
AAXX 06181 29654 41396 81803 11122 21135 39718 40364 52009 78582 889// 333 84709
AAXX 06181 29712 42998 21803 11182 21208 30194 40348 58011 80002
AAXX 06181 29724 42697 82104 11181 21207 30147 40368 52001 8357/
AAXX 06181 29726 42998 62503 11179 21213 30198 40379 52004 80006
AAXX 06181 29814 42999 81902 11172 21198 30215 40374 54000 8805/
AAXX 06181 29827 42697 82503 11174 21186 30216 40383 52004 84555
AAXX 06181 29923 42999 82203 11113 21126 30093 40384 52003 8805/
AAXX 06181 29939 41596 80000 11101 21107 30095 40394 52007 78582 889//
AAXX 06181 35026 11596 82301 11079 21093 39695 40363 52009 69900 71022 885// 333 11060
AAXX 06181 36021 42999 42302 11158 21171 30202 40397 52006 80002
AAXX 06181 36022 42998 42203 11151 21157 30121 40403 52011 80001
AAXX 06181 36038 42599 82501 11061 21125 39939 40399 52007 885// 333 88624
AAXX 06181 36058 42699 81302 11079 21158 39860 40406 52005 885//
AAXX 06181 36064 42999 70603 11042 21132 39789 40402 54000 87070
AAXX 06181 36229 42999 50000 11226 21244 39216 40513 52005 82049
AAXX 06181 36259 42699 30000 11310 21341 38324 48609 57001 82901
AAXX 06181 23909 11297 82004 11013 21021 39912 40162 53005 69970 77173 8772/ 333 11022
AAXX 06181 28044 32597 72003 11029 21044 30052 40218 54001 87500 333 11026
AAXX 06181 28116 11899 81904 11011 21021 39952 40186 52005 69970 70272 8807/ 333 11014
AAXX 06181 28240 12598 82404 11007 21031 39919 40246 52005 69900 885// 333 11014
AAXX 06181 28522 11597 82007 11023 21037 30019 40283 52016 60010 73673 885// 333 11015
AAXX 06181 28621 11997 71606 11039 21057 30036 40275 52010 69970 73673 80002 333 11003
AAXX 06181 28719 12484 820// 11061 21073 39847 40303 52010 69990 886// 333 11010
AAXX 06181 29023 41397 81801 11188 21214 30186 40292 53001 78582 889// 333 86707
AAXX 06181 29122 41596 82002 11169 21182 30223 40302 53004 78582 8332/
AAXX 06181 29328 42998 42102 11195 21214 30186 40338 52004 80009
AAXX 06181 29348 41997 72202 11146 21160 30192 40347 52006 70282 87030
AAXX 06181 29405 42997 82102 11178 21197 30173 40332 52005 85031
AAXX 06181 29418 42998 22102 11194 21213 30168 40342 52003 82030
AAXX 06181 29430 41998 80000 11183 21202 30161 40352 54000 70271
AAXX 06181 29524 42998 81902 11178 21197 30168 40344 52003 82037
AAXX 06181 29605 41496 82202 11138 21144 30186 40337 52002 78582 889//
AAXX 06181 29631 42697 82002 11179 21198 30162 40364 52004 885//
AAXX 06181 29645 41597 81601 11119 21146 30169 40367 52008 70282 885// 333 88622
AAXX 06181 29706 42998 82404 11152 21165 30199 40357 54000 8802/
AAXX 06181 29736 42598 80201 11154 21167 30110 40379 52004 8655/
AAXX 06181 29937 41596 82003 11086 21097 30153 40386 52001 78582 889//
AAXX 06181 36034 41498 82303 11077 21091 30110 40399 52008 70272 885// 333 88613
AAXX 06181 36096 41996 70000 11295 21320 39667 40555 52001 77022 84035 333 95090
AAXX 06181 34357 32598 81203 10012 20006 39977 40133 50000 885// 333 10023
AAXX 06181 34363 12397 81604 11007 21015 30030 40185 52007 69900 886// 333 10001
AAXX 06181 34545 32598 71506 10025 20023 30013 40125 50001 87500 333 10035
AAXX 06181 34579 31998 81105 11017 21029 30135 40180 50002 70288 8002/ 333 10008
AAXX 06181 34838 32997 00103 10024 20009 30007 40104 51006 333 10053
AAXX 06181 34927 32997 00501 10063 21003 30053 40090 54001 333 10147
AAXX 06181 34949 31/01 90903 11022 21024 39578 40136 52011 75754 333 10034 96047 93402
AAXX 06181 37001 32997 41707 10104 20057 30026 40066 50001 80002 333 10114
AAXX 06181 37031 32997 41603 10004 21005 39917 40115 51009 80001 333 10067
AAXX 06181 37061 11558 80101 10040 20018 39958 40124 51011 69900 71022 885// 333 10047
AAXX 06181 37085 32596 71401 10041 20019 30146 40173 52007 87500 333 10053
AAXX 06181 37107 32998 20401 10021 21019 39452 40135 52008 80001 333 10088
AAXX 06181 37126 42999 62102 11023 21157 37870 48441 52004 83031 333 11034
AAXX 06181 37171 32996 50606 10077 21002 30081 40100 58003 80001 333 10138
AAXX 06181 37228 32997 60000 11007 21028 39286 40132 51017 86070 333 10084
AAXX 06181 37470 32596 83004 10053 20026 30121 40099 53009 885// 333 10087
AAXX 06181 37663 32996 02802 10044 21100 38940 48424 52009 333 10143
AAXX 06181 40009 32570 30000 10070 20047 40146 52007 83500 333 10112 83630
AAXX 06181 40016 32970 01202 10076 20014 40208 51018 333 10126
AAXX 06181 40022 11565 60902 10108 20092 40137 53006 60042 79596 86900 222 20000 333 10172 83930 8632
AAXX 06181 40030 31560 80000 10074 20067 40167 52014 71022 8457 333 10106 84630 87360
AAXX 06181 40039 32570 50000 10071 20037 40162 52012 83550 333 10139 83630 85360
AAXX 06181 40066 11570 63202 10106 20080 40150 52011 60183 76062 86400 333 10140 86626
AAXX 06181 40072 32970 00402 10088 20052 40189 52015 333 10150
AAXX 06181 40083 32570 30000 10042 20018 48454 52011 83500 333 10110 83630
BBXX BAREU12 06184 99477 70197 46/// ///// 40335 57001 22264
AAXX 06184 43400 NIL
AAXX 06184 43404 NIL
AAXX 06184 43410 NIL
AAXX 06184 43413 22470 60512 10263 20245 30143 40146 84106 333 58012 60007 84816 85280
AAXX 06184 43415 NIL
AAXX 06184 43418 22470 81606 10261 20234 3//// 4//// 81117 333 5//// 60007 81818 88278
AAXX 06184 43421 22460 63201 10250 20237 30050 40152 81106 333 58021 60007 81818 86280
AAXX 06184 43422 NIL
AAXX 06184 43424 22968 70902 10244 20235 30132 40134 80006 333 58013 60007 86280
AAXX 06184 43436 21460 83606 10244 20238 30144 40147 75088 8317/ 333 58017 60097 83816 88458
AAXX 06184 43441 NIL
AAXX 06184 43444 21460 81104 10208 20201 39607 40141 78088 8622/ 333 58014 60047 86817 88458
AAXX 06184 43467 22460 70000 10244 20232 30128 40133 8317/ 333 58014 60007 83818 86358
AAXX 06184 43473 21470 60905 10144 20137 38155 48524 70285 81136 333 58011 69907 81812 86278
AAXX 06184 43475 NIL
AAXX 06184 43476 NIL
AAXX 06184 43479 NIL
AAXX 06184 43486 22470 40000 10226 20220 30038 40132 83106 333 58016 60007 83814 83280
AAXX 06184 43495 22468 5//// 10244 20220 30122 40138 83270 333 58013 60007 83818 84458
AAXX 06184 43497 21460 60503 10240 20234 30117 40135 70181 82131 333 58018 60007 82818 83360
AAXX 06184 43400 NIL
AAXX 06184 43404 NIL
AAXX 06184 43410 NIL
AAXX 06184 43413 22470 60512 10263 20245 30143 40146 84106 333 58012 60007 84816 85280
AAXX 06184 43415 NIL
AAXX 06184 43418 22470 81606 10261 20234 3//// 4//// 81117 333 5//// 60007 81818 88278
AAXX 06184 43421 22460 63201 10250 20237 30050 40152 81106 333 58021 60007 81818 86280
AAXX 06184 43422 NIL
AAXX 06184 43424 22968 70902 10244 20235 30132 40134 80006 333 58013 60007 86280
AAXX 06184 43436 21460 83606 10244 20238 30144 40147 75088 8317/ 333 58017 60097 83816 88458
AAXX 06184 43441 NIL
AAXX 06184 43444 21460 81104 10208 20201 39607 40141 78088 8622/ 333 58014 60047 86817 88458
AAXX 06184 43467 22460 70000 10244 20232 30128 40133 8317/ 333 58014 60007 83818 86358
AAXX 06184 43473 21470 60905 10144 20137 38155 48524 70285 81136 333 58011 69907 81812 86278
AAXX 06184 43475 NIL
AAXX 06184 43476 NIL
AAXX 06184 43479 NIL
AAXX 06184 43486 22470 40000 10226 20220 30038 40132 83106 333 58016 60007 83814 83280
AAXX 06184 43495 22468 5//// 10244 20220 30122 40138 83270 333 58013 60007 83818 84458
AAXX 06184 43497 21460 60503 10240 20234 30117 40135 70181 82131 333 58018 60007 82818 83360
AAXX 06181 37279 32994 00000 10041 21002 39972 40116 53005 333 10162
AAXX 06181 37308 329// 60000 10006 21051 39486 40147 53004 86030 333 10110
AAXX 06181 37531 329// 00000 11032 21045 39444 40194 53014 333 10070
AAXX 06181 37553 329// 22701 11028 21059 39499 40167 57001 80030 333 10045
AAXX 06181 37651 16/// ///00 11024 21049 3//// 4//// 5//// 60002 333 10060
AAXX 06181 37492 NIL
AAXX 06181 13463 12570 70705 10083 21019 39883 49942 52013 60012 84820 333 10092 91120
AAXX 06181 13459 11670 83608 10033 21033 39202 49960 52020 69902 70272 8682/ 333 10053 85696 88498 91123 93100
AAXX 06181 13461 12665 80213 10098 21051 39913 49921 52017 60082 8582/ 333 10102 91132 92355 92457
AAXX 06181 13363 11530 83404 10001 21009 39099 48327 52026 60052 77172 8802/ 333 10008 43013 91112 93106
AAXX 06184 71135 16/// /3014 10006 21062 39074 40165 51015 60001 333 10006 21022 70000
AAXX 06184 71971 16/// /2001 11258 21309 39954 40001 51011 60001 333 11223 21274 70000
AAXX 06184 71976 46/// /2503 11330 21368 39398 40061 51003 6///1 333 11287 21343 7////
AAXX 06184 71478 17/// /1733 10049 20042 30034 40171 55000 69941 7//4/ 333 10057 20035 70004
AAXX 06184 71479 16/// /1229 10052 20034 30055 40176 56012 60001 333 10059 20038 70000
AAXX 06184 71228 16/// /2810 11011 21083 60001 333 11011 21054 70000
AAXX 06184 71357 16/// /3001 11320 21356 30020 40027 53009 60001 333 11277 21375 70000
AAXX 06184 71374 46/// /2917 11101 21133 6///1 333 11055 21105 7////
AAXX 06184 71387 16/// /3503 11199 21237 39708 40117 56022 60001 333 11199 21327 70000
AAXX 06184 71421 16/// ///// 11206 21238 39326 40070 56001 60001 333 11202 21242 70004
AAXX 06184 71432 16/// /2407 10078 20018 39930 40026 55008 60001 333 10078 20009 70003
AAXX 06184 71435 17/// /2605 10003 20001 39380 49969 51014 69991 7//4/ 333 10012 21117 70009
AAXX 06184 71444 17/// /3606 11049 21071 39322 40078 53046 69931 7//4/ 333 10016 21049 70003
AAXX 06184 71447 16/// /3224 10017 21030 39555 40098 51032 60001 333 10025 21005 70000
AAXX 06184 71269 16/// /2513 11008 21062 60001 333 10008 21054 70000
AAXX 06184 71285 46/// /3008 11012 21075 6///1 333 11012 21032 7////
AAXX 06184 71288 16/// /2806 11345 21379 30091 40117 52006 60001 333 11300 21363 70000 555 10010
AAXX 06184 71299 16/// /0904 11096 21103 39702 49980 56011 60001 333 11096 21175 70000
AAXX 06184 71827 11474 60806 11217 21251 39833 40089 57011 69901 70277 81170 333 11212 21244 48020 79999 90933
AAXX 06184 71151 17/// /3208 11039 21046 39511 40013 51024 60031 7//4/ 333 10010 21039 70028 555 10050
AAXX 06184 71156 16/// /2704 11072 21120 39062 40177 52008 60001 333 11031 21135 70000
AAXX 06184 71168 16/// /3113 10039 21035 39544 40122 50006 60001 333 10071 21001 70000
AAXX 06184 71186 46/// /0915 11141 21189 6///1 333 11141 21220 7////
AAXX 06184 71190 46/// /1605 11102 21154 6///1 333 11097 21146 7////
AAXX 06184 71300 16/// /0702 11077 21100 39910 40034 56023 60001 333 11072 21130 70032 555 10060
AAXX 06184 71309 16/// /0607 11133 21156 30018 40030 56013 60001 333 11133 21220 70000
AAXX 06184 71340 16/// /2408 11013 21069 60001 333 11002 21022 70000
AAXX 06184 71341 16/// ///// 10015 21101 60001 333 10015 21021 70000
AAXX 06184 71342 16/// /3013 10016 21088 60001 333 10016 21032 70000
AAXX 06184 71344 16/// /3007 11013 21106 60001 333 10005 21044 70005
AAXX 06184 71347 16/// /2607 11016 21078 60001 333 11002 21022 70000
AAXX 06184 71348 16/// /2607 11011 21078 60001 333 10004 21020 70000
AAXX 06184 71752 16/// /2415 10083 20017 39820 40034 55011 60001 333 10083 20005 70000
AAXX 06184 71771 46/// /1619 10054 20043 30095 40116 53003 6///1 333 10060 20034 7////
AAXX 06184 71737 16/// /0902 11145 21167 39514 40054 58030 60001 333 11145 21246 70000
AAXX 06184 71743 46/// /2405 11286 21315 39864 40095 5/001 6///1 333 11286 21345 7////
AAXX 06184 71748 17/// /3313 11056 21066 39769 40057 51029 60021 7//4/ 333 11004 21056 70023
AAXX 06184 71808 11574 22816 11088 21131 39927 49973 53024 69901 70171 82100 333 11020 21089 48036 70092 90953
AAXX 06184 71423 16/// /2915 11100 21154 30061 40071 53007 60001 333 11097 21131 70000
AAXX 06184 71434 16/// /0703 11191 21212 30018 40087 51004 60001 333 11191 70000
AAXX 06184 71448 17/// /3308 11048 21062 39708 40037 51023 60011 7//4/ 333 10025 21070 70015
AAXX 06184 71449 16/// /2713 10009 21018 39623 40021 51011 60001 333 10043 20009 70000
AAXX 06184 71949 46/// /1003 11165 21185 39225 40123 57008 6///1 333 11153 21197 7////
AAXX 06184 71667 16/// /2812 10041 21003 39721 49965 51006 60001 333 10041 21096 70000
AAXX 06184 71682 16/// /0000 11286 21310 39919 40161 52008 60001 333 11202 21287 70008
AAXX 06184 71026 16/// /2407 10015 21081 39327 40187 51010 60001 333 21044 7////
AAXX 06184 71506 46/// /1206 11063 21204 39101 49993 58019 6///1 333 11063 21268 7////
AAXX 06184 71507 16/// /2606 11067 21116 60001 333 11012 21093 7////
AAXX 06184 71903 16/// /1707 10033 20008 30028 40077 55003 60001 333 10033 7////
AAXX 06184 71550 17/// /3613 11042 21065 39723 40099 51055 69961 7//4/ 333 10027 21043 70006
AAXX 06184 71559 46/// /3221 10013 21042 39429 40131 51028 6///1 333 10013 21007 7////
AAXX 06184 71576 16/// /1701 11338 21375 39903 49992 53008 60001 333 11297 21366 70000
AAXX 06184 71585 16/// /3205 11088 21093 39649 40121 51023 60001 333 11066 21135 70005 555 10020
AAXX 06184 71107 16/// ///24 10054 20045 30026 40139 53003 60001 333 10054 20032 70000
AAXX 06184 71622 16/// ///// 10056 20004 39703 40037 58005 60001 333 10063 21009 70000
AAXX 06184 71135 16/// /3014 10006 21062 39074 40165 51015 60001 333 10006 21022 70000
AAXX 06184 71827 11474 60806 11217 21251 39833 40089 57011 69901 70277 81170 333 11212 21244 48020 79999 90933
AAXX 06184 71421 16/// ///// 11206 21238 39326 40070 56001 60001 333 11202 21242 70004
AAXX 06184 71432 16/// /2407 10078 20018 39930 40026 55008 60001 333 10078 20009 70003
AAXX 06184 71435 17/// /2605 10003 20001 39380 49969 51014 69991 7//4/ 333 10012 21117 70009
AAXX 06184 71444 17/// /3606 11049 21071 39322 40078 53046 69931 7//4/ 333 10016 21049 70003
AAXX 06184 71447 16/// /3224 10017 21030 39555 40098 51032 60001 333 10025 21005 70000
AAXX 06184 71300 16/// /0702 11077 21100 39910 40034 56023 60001 333 11072 21130 70032 555 10060
AAXX 06184 71309 16/// /0607 11133 21156 30018 40030 56013 60001 333 11133 21220 70000
AAXX 06184 71340 16/// /2408 11013 21069 60001 333 11002 21022 70000
AAXX 06184 71341 16/// ///// 10015 21101 60001 333 10015 21021 70000
AAXX 06184 71342 16/// /3013 10016 21088 60001 333 10016 21032 70000
AAXX 06184 71344 16/// /3007 11013 21106 60001 333 10005 21044 70005
AAXX 06184 71347 16/// /2607 11016 21078 60001 333 11002 21022 70000
AAXX 06184 71348 16/// /2607 11011 21078 60001 333 10004 21020 70000
AAXX 06184 71357 16/// /3001 11320 21356 30020 40027 53009 60001 333 11277 21375 70000
AAXX 06184 71374 46/// /2917 11101 21133 6///1 333 11055 21105 7////
AAXX 06184 71387 16/// /3503 11199 21237 39708 40117 56022 60001 333 11199 21327 70000
AAXX 06184 71971 16/// /2001 11258 21309 39954 40001 51011 60001 333 11223 21274 70000
AAXX 06184 71976 46/// /2503 11330 21368 39398 40061 51003 6///1 333 11287 21343 7////
AAXX 06184 71151 17/// /3208 11039 21046 39511 40013 51024 60031 7//4/ 333 10010 21039 70028 555 10050
AAXX 06184 71156 16/// /2704 11072 21120 39062 40177 52008 60001 333 11031 21135 70000
AAXX 06184 71168 16/// /3113 10039 21035 39544 40122 50006 60001 333 10071 21001 70000
AAXX 06184 71186 46/// /0915 11141 21189 6///1 333 11141 21220 7////
AAXX 06184 71190 46/// /1605 11102 21154 6///1 333 11097 21146 7////
AAXX 06184 71737 16/// /0902 11145 21167 39514 40054 58030 60001 333 11145 21246 70000
AAXX 06184 71743 46/// /2405 11286 21315 39864 40095 5/001 6///1 333 11286 21345 7////
AAXX 06184 71748 17/// /3313 11056 21066 39769 40057 51029 60021 7//4/ 333 11004 21056 70023
AAXX 06184 71423 16/// /2915 11100 21154 30061 40071 53007 60001 333 11097 21131 70000
AAXX 06184 71434 16/// /0703 11191 21212 30018 40087 51004 60001 333 11191 70000
AAXX 06184 71448 17/// /3308 11048 21062 39708 40037 51023 60011 7//4/ 333 10025 21070 70015
AAXX 06184 71449 16/// /2713 10009 21018 39623 40021 51011 60001 333 10043 20009 70000
AAXX 06184 71808 11574 22816 11088 21131 39927 49973 53024 69901 70171 82100 333 11020 21089 48036 70092 90953
AAXX 06184 71752 16/// /2415 10083 20017 39820 40034 55011 60001 333 10083 20005 70000
AAXX 06184 71771 46/// /1619 10054 20043 30095 40116 53003 6///1 333 10060 20034 7////
AAXX 06184 71478 17/// /1733 10049 20042 30034 40171 55000 69941 7//4/ 333 10057 20035 70004
AAXX 06184 71479 16/// /1229 10052 20034 30055 40176 56012 60001 333 10059 20038 70000
AAXX 06184 71269 16/// /2513 11008 21062 60001 333 10008 21054 70000
AAXX 06184 71285 46/// /3008 11012 21075 6///1 333 11012 21032 7////
AAXX 06184 71288 16/// /2806 11345 21379 30091 40117 52006 60001 333 11300 21363 70000 555 10010
AAXX 06184 71299 16/// /0904 11096 21103 39702 49980 56011 60001 333 11096 21175 70000
AAXX 06184 71667 16/// /2812 10041 21003 39721 49965 51006 60001 333 10041 21096 70000
AAXX 06184 71682 16/// /0000 11286 21310 39919 40161 52008 60001 333 11202 21287 70008
AAXX 06184 71506 46/// /1206 11063 21204 39101 49993 58019 6///1 333 11063 21268 7////
AAXX 06184 71507 16/// /2606 11067 21116 60001 333 11012 21093 7////
AAXX 06184 71026 16/// /2407 10015 21081 39327 40187 51010 60001 333 21044 7////
AAXX 06184 71949 46/// /1003 11165 21185 39225 40123 57008 6///1 333 11153 21197 7////
AAXX 06184 48352 32660 61005 10210 20169 39977 40183 52032 82530 333 58013
AAXX 06181 28216 12698 82005 12003 21013 39920 40204 52012 69940 885// 333 11009
AAXX 06181 28428 11497 72107 11006 21024 30081 40269 52016 69970 73673 87500 333 10000
AAXX 06181 28451 32996 82303 11012 21046 30118 40280 52005 8805/ 333 11018
AAXX 06181 28541 32582 82502 11018 21046 39784 40284 52008 885// 333 11016
AAXX 06181 28655 32998 62503 11081 21088 30078 40310 52009 86030 333 11051
AAXX 06181 28756 32997 22003 11099 21107 30175 40332 52010 80001
AAXX 06181 29557 41996 82603 11087 21102 30071 40348 52009 77187 8802/
AAXX 06181 29625 42998 82303 11181 21200 30168 40362 52002 8805/
AAXX 06181 29813 42999 82303 11175 21194 30167 40362 52006 80002
AAXX 06181 29822 42997 82002 11164 21183 30203 40379 52005 80005
AAXX 06181 29915 42998 82002 11193 21205 30206 40379 52003 80005
AAXX 06181 36020 42998 72101 11163 21169 30180 40396 52008 80002
AAXX 06184 48435 31959 21006 10226 20169 39716 40158 58003 71000 80001 333 58007
AAXX 06181 22004 11568 80000 11083 21089 39866 49981 52003 69952 78582 889// 333 11082
AAXX 06181 22003 11499 71104 10011 21012 39968 49978 52004 69952 70282 85930 333 10011 91005
AAXX 06181 22213 11480 70602 11014 21019 39794 49960 52003 60022 78587 86931 333 11013 85712 91004
AAXX 06181 22140 12597 71904 10000 21023 39965 49980 52010 69992 87500 333 10000 91005
AAXX 06181 23226 11560 81804 11108 21128 39896 40120 52011 60010 70272 8553/ 333 11117 85632
AAXX 06181 23701 11463 81702 11005 21017 39969 40099 54000 69900 77187 885// 333 10003 88615
AAXX 06181 28909 32499 21406 11064 21092 30176 40280 52001 82030 333 10009 91112
AAXX 06184 08184 02980 42503 10079 21013 30099 40258 53022 60002 80006 333 10157 60007
AAXX 06181 22100 11497 80000 11085 21087 39831 49978 52010 69942 78582 889// 333 11075 88916 91001
AAXX 06184 60351 12458 73214 10137 20097 40225 53010 69922 878// 333 0//18 10175 82816 87633 95990
AAXX 06184 60355 NIL
AAXX 06184 60445 11456 73008 10044 20031 39052 48527 51010 60022 75052 872// 333 10095 82710 86826 95990
AAXX 06184 60468 11560 73014 10055 20043 39227 48490 58008 69982 70162 872// 333 10110 87826 95990
AAXX 06184 60507 12970 63607 10110 20060 40267 53011 60002 83082 333 10176 83360 85073 95990
AAXX 06184 60511 12565 63318 10102 20079 39112 48546 51005 60002 86200 333 10126 86823 95990
AAXX 06184 60535 12570 63612 10080 20059 38876 48540 53018 60002 86200 333 10105 86826 95900
AAXX 06184 60536 12960 60000 10109 20055 39370 48552 56009 60002 80002 333 10166 86073 95990
AAXX 06184 60549 11958 43018 10120 21061 38976 48574 53006 60002 70200 80002 333 10173 84073 95990
AAXX 06184 60550 12960 60208 10080 20018 38712 48549 53006 60002 83032 333 10116 83360 85073 95990
AAXX 06184 60555 12958 23212 10178 20069 40178 53018 60002 81032 333 10208 81360
AAXX 06184 60559 11620 20610 10165 20035 40174 53020 60002 70600 82200 333 10212 82840
AAXX 06184 60581 12956 43406 10182 20051 40178 53014 60002 80002 333 10232 84073
AAXX 06184 60602 12960 00000 10191 21065 40224 54000 60002 333 10233 95990
AAXX 06184 60607 12960 03006 10191 2//// 40206 53001 60002 333 10241
AAXX 06184 60640 12960 02710 10145 21038 40192 55000 60002 333 10195
AAXX 06184 60690 NIL
AAXX 06184 60360 12557 53433 10122 20030 40204 52028 69902 85900 333 10171 83826 81933 95990
AAXX 06184 60390 11558 81503 10118 20105 40273 51025 60022 72162 8483/ 333 10178 83820 84633 86358 95990
AAXX 06184 60402 11550 82405 10107 20095 40248 53006 60082 76066 8487/ 333 10172 82820 83643 86359 95990
AAXX 06184 60419 12560 43218 10071 20013 40210 53006 60012 81800 333 10111 82820 84626 95990
AAXX 06184 60475 12660 63230 10069 20026 39213 48477 52012 60002 85230 333 10114 85833 95990
AAXX 06184 60490 12970 60604 10145 20086 40254 53006 60002 80002 333 10208 86073 95990
AAXX 06184 60525 NIL
AAXX 06184 60531 12970 50204 10142 20022 40258 53005 60002 80002 333 10216 85073 95990
AAXX 06184 60566 11935 2//// 10166 20054 40212 52017 60002 70700 80002 333 10211 82073
AAXX 06184 60571 12965 10210 10181 21158 39299 48554 53002 60002 80001 333 10245 81073 95990
AAXX 06184 60580 11960 03418 10188 20099 40183 55017 60002 70700 333 10236
AAXX 06184 60590 NIL
AAXX 06184 60611 12958 02610 10133 21022 40165 55000 60002 333 10178
AAXX 06184 60620 12960 02805 10192 21146 40217 56007 60002 333 10232
AAXX 06184 60630 12975 02808 10195 21040 40201 55002 60002 333 10252
AAXX 06184 60656 12975 50000 10198 21009 40232 55002 60002 80002 333 10240 85073
AAXX 06184 60670 NIL
AAXX 06184 60680 12980 02807 10154 21149 38654 48530 58001 60002 333 10204 95990
AAXX 06184 60351 12458 73214 10137 20097 40225 53010 69922 878// 333 0//18 10175 82816 87633 95990
AAXX 06184 60355 NIL
AAXX 06184 60445 11456 73008 10044 20031 39052 48527 51010 60022 75052 872// 333 10095 82710 86826 95990
AAXX 06184 60468 11560 73014 10055 20043 39227 48490 58008 69982 70162 872// 333 10110 87826 95990
AAXX 06184 60507 12970 63607 10110 20060 40267 53011 60002 83082 333 10176 83360 85073 95990
AAXX 06184 60511 12565 63318 10102 20079 39112 48546 51005 60002 86200 333 10126 86823 95990
AAXX 06184 60535 12570 63612 10080 20059 38876 48540 53018 60002 86200 333 10105 86826 95900
AAXX 06184 60536 12960 60000 10109 20055 39370 48552 56009 60002 80002 333 10166 86073 95990
AAXX 06184 60549 11958 43018 10120 21061 38976 48574 53006 60002 70200 80002 333 10173 84073 95990
AAXX 06184 60550 12960 60208 10080 20018 38712 48549 53006 60002 83032 333 10116 83360 85073 95990
AAXX 06184 60555 12958 23212 10178 20069 40178 53018 60002 81032 333 10208 81360
AAXX 06184 60559 11620 20610 10165 20035 40174 53020 60002 70600 82200 333 10212 82840
AAXX 06184 60581 12956 43406 10182 20051 40178 53014 60002 80002 333 10232 84073
AAXX 06184 60602 12960 00000 10191 21065 40224 54000 60002 333 10233 95990
AAXX 06184 60607 12960 03006 10191 2//// 40206 53001 60002 333 10241
AAXX 06184 60640 12960 02710 10145 21038 40192 55000 60002 333 10195
AAXX 06184 60690 NIL
AAXX 06181 01415 17981 73202 10041 20011 30060 40071 58019 6//// 723// 333 10055 91113
AAXX 06181 56146 32780 10901 11165 21184 36731 52001 81100 333 00051 11049
AAXX 06181 56444 32780 61101 11042 21073 36810 52001 86100 333 00102 10015
AAXX 06181 56492 31740 81801 10060 20028 39883 40303 52004 71000 885// 333 00300 10080
AAXX 06181 56571 32980 03201 10080 21038 38393 52004 333 00104 10193
AAXX 06181 57799 32762 80000 10048 20030 30227 40320 57001 885// 333 10053
AAXX 06181 57866 32760 82501 10035 20011 30110 40327 57003 885// 333 10037
AAXX 06181 57957 32560 80204 10048 21004 30105 40312 57003 888// 333 10070
AAXX 06181 57993 11760 83201 10039 20030 30138 40313 57004 69901 76060 885// 333 10043
AAXX 06181 58027 31958 00701 11053 21099 30323 40378 52005 71000 333 10042
AAXX 06181 58141 31950 03601 11025 21061 30357 40377 52002 71000 333 10046
AAXX 06181 58265 32962 03601 10033 21020 30352 40358 52003 333 10066
AAXX 06181 58472 32780 70206 10061 21013 30241 40339 52001 87500 333 10065
AAXX 06181 58477 32480 13603 10047 20005 30288 40335 52002 81100 333 10060
AAXX 06181 58527 32660 70000 10043 21052 30245 40324 52003 875// 333 10110
AAXX 06181 58633 31630 80705 10030 20002 30234 40339 57004 71000 885// 333 10034
AAXX 06181 58666 11662 83610 10058 20028 30208 40314 57004 69901 70060 885// 333 10058
AAXX 06181 58725 11456 83601 10054 20044 30036 40308 57002 69981 76066 885// 333 10070
AAXX 06181 58921 31650 80201 10060 20050 30041 40298 57004 71000 885// 333 10064
AAXX 06181 59082 11663 83201 10055 20027 30145 40298 57005 69901 70060 885// 333 10068
AAXX 06181 59211 32865 83401 10090 20063 30064 40278 52003 885// 333 10114
AAXX 06181 59265 32765 80403 10066 20029 30134 40278 57005 885// 333 10083
AAXX 06181 59293 11762 80404 10072 20034 30188 40277 57002 69901 76000 885// 333 10090
AAXX 06181 59501 32768 70202 10118 20094 30223 40245 57005 875// 333 10145
AAXX 06181 59663 32660 80402 10102 20071 30140 40252 57005 885// 333 10109
AAXX 06181 59838 11562 70406 10151 20119 30212 40223 57002 69901 70060 878// 333 10165
AAXX 06181 59948 32470 70404 10160 20144 39725 40214 57003 878// 333 10218
AAXX 06181 59981 32570 60704 10233 20190 30179 40186 57007 86200 333 10270
AAXX 06184 60395 11660 80000 10116 20079 40250 51024 60032 70262 8427/ 333 10150 84840 96460 95990
AAXX 06184 60421 12560 50120 10064 21002 39134 48482 56002 60022 85200 333 10095 85830 95990
AAXX 06184 60423 12660 83616 10055 20027 39190 48461 51023 60032 888// 333 10100 83833 87640 95990
AAXX 06184 60430 11560 60000 10100 20080 40257 53006 69932 72162 86800 333 10127 85820 95990
AAXX 06184 60437 11560 73208 10071 20059 39025 48523 53010 60032 70262 878// 333 10092 83826 85633 95990
AAXX 06184 60444 11558 60410 10048 20036 39124 48534 53039 60012 72166 86200 333 10129 86830 95900
AAXX 06184 60452 12960 5//// 10177 20108 40247 51009 60002 80002 222// 20000 333 10203 85073 91826
AAXX 06184 60457 12965 40000 10128 20113 40261 51011 60002 80002 333 10184 84073 95990
AAXX 06184 60514 12560 72608 10104 20052 39322 48554 53003 60002 878// 333 10149 82820 86626 95990
AAXX 06184 60518 12965 60000 10156 20045 40238 53004 60002 80002 222// 20000 333 10206 86073 91807 95990
AAXX 06184 60520 12960 60000 10132 20042 40261 53008 60002 80002 333 10186 86073 95990
AAXX 06184 60540 11960 63613 10103 20001 39077 48535 53006 60002 70222 80002 333 10170 86073 95990
AAXX 06184 60560 11960 41312 10154 21123 39000 48551 53006 60002 70210 80002 333 10198 84073 95990
BBXX OXHY2 06183 99123 10464 41/98 /0603 10245 20194 40159 51016 7//00 8//// 22224 20101 3//// 4//// 5//// 80210
AAXX 06184 60661 36/// /0504 10142 21115 333 10192
AAXX 06184 60676 36/// /0000 10129 21091 333 10172
AAXX 06184 60672 36/// /0000 10156 21146 333 10209
AAXX 06184 60692 36/// /0107 10192 21085 333 10242
AAXX 06181 89064 11416 80205 10009 29091 49888 57053 60011 77727 887//
AAXX 06184 60667 36/// /0000 10137 21071 333 10185
AAXX 06184 60662 36/// /0000 10130 21146 333 10175
AAXX 06184 60660 36/// /3507 10196 21083 333 10225
AAXX 06184 60353 NIL
AAXX 06184 60367 12560 6//// 10129 20092 40124 58011 69942 86800 333 10167 83820 86840
AAXX 06184 60369 11560 80521 10147 20074 40262 53025 69902 70262 8388/ 333 10185 83826 85360 91837
AAXX 06184 60401 NIL
AAXX 06184 60403 12658 52811 10113 20034 40205 52021 69922 85200 333 10148 85836 95990
AAXX 06184 60425 12565 40404 10149 20104 40251 51005 60002 84200 333 10188 84826 95990
AAXX 06184 60461 12970 40000 10170 20122 40250 54000 60002 80002 222// 20000 333 10180 84073 91828 95990
AAXX 06184 60467 12660 53618 10103 20056 40226 51027 60002 85801 333 10184 85833 95990
AAXX 06184 60492 12562 41208 10124 20093 40242 53006 60002 81202 333 10195 81810 84073 95990
AAXX 06184 60515 NIL
AAXX 06184 60517 12960 20000 10167 20081 40257 53010 60002 80002 333 10202 82073 95970
AAXX 06184 60522 12970 50000 10149 20044 40263 53002 60002 80001 333 10208 85073 95990
AAXX 06184 60557 11970 70208 10127 21058 38912 48555 53004 60002 70222 80002 333 10173 87073 95990
AAXX 06184 60563 12958 33614 10130 20041 39324 48533 53010 60002 80002 333 10187 83073
AAXX 06184 60603 12960 03008 10160 21042 40175 52005 60002 333 10214
AAXX 06184 60638 12960 02614 10162 21033 40188 53004 60002 333 10202
AAXX 06184 60686 NIL
AAXX 06184 60691 36/// /0211 10187 21128 333 10244
AAXX 06184 60677 36/// /0000 10139 21108 333 10204
AAXX 06184 60633 36/// /3408 10194 21211 333 10248
BBXX BAREU12 06184 99477 70197 46/// ///// 40335 57001 22264
BBXX OXHY2 06183 99123 10464 41/98 /0603 10245 20194 40159 51016 7//00 8//// 22224 20101 3//// 4//// 5//// 80210
AAXX 06184 43466 21470 71403 10244 20226 30122 40134 70392 848// 333 58013 60007 84816 85628
AAXX 06184 04203 46/// /1914 11207 21235 39976 49994 52021
AAXX 06184 04205 45/84 /1602 11274 21347 39984 40008 52025 333 11252 21290
AAXX 06184 04208 46/// /2902 11209 21239 39983 40030 52032
AAXX 06184 04213 46/// /2805 11142 21176 39918 40032 52025 333 11141 21152
AAXX 06184 04214 46/// /0303 11151 21180 30004 40037 52027
AAXX 06184 04224 45380 41907 11160 21204 30021 40055 52028 333 11134 21169 84/08
AAXX 06184 04228 NIL
AAXX 06184 04242 46/// /1304 11090 21125 30044 40061 52015
AAXX 06184 04253 46/// /0507 11078 21103 30023 40050 52006
AAXX 06184 04266 46/// /1507 11038 21079 30004 40042 52003
AAXX 06184 04285 46/// /0507 11033 21085 30034 40053 57002
AAXX 06184 04301 46/// /2712 11197 21261 39960 49965 52021
AAXX 06184 04313 46/// /1920 11070 21078 30077 40089 57004
AAXX 06184 04330 46/// /1002 11053 21068 30079 40097 57001
AAXX 06184 04351 46/// /0115 11017 21098 39918 49934 52008 333 91026
AAXX 06184 04373 46/// /3008 11006 21065 39877 49971 52015
AAXX 06184 04382 46/// /2006 11013 21051 39955 40004 52016
AAXX 06184 04416 NIL
AAXX 06184 67002 12570 70207 10270 20242 30073 40107 60272 83872 333 10289 59006 81820 83628 85459 92417
AAXX 06184 67009 NIL
AAXX 06184 67027 11458 81212 10235 20220 30100 40121 52018 60272 76162 8487/ 333 10298 82817 83633 85459 RR:26.5MM
AAXX 06184 67083 NIL
AAXX 06184 67095 12475 70000 10250 20235 30125 40132 52015 69962 8487/ 333 10317 82817 83633 86360
AAXX 06184 67197 32480 60816 10262 20227 30110 40120 52011 82202 333 10309 82817 85073
AAXX 06181 80001 01470 60605 10270 20232 30139 40140 60021 70255 83236 333 56100 59013 69917 83818
AAXX 06181 80002 NIL
AAXX 06181 80009 31560 22502 10298 20245 30098 40103 70500 81801 333 560/0 59007 81820
AAXX 06181 80022 NIL
AAXX 06181 80028 NIL
AAXX 06181 80035 31565 50805 10315 20206 30126 40131 70521 83101 333 562/9 59002 83820
AAXX 06181 80036 31568 10607 10330 20191 70500 81801 333 560/0 81810
AAXX 06181 80063 31465 50000 10320 20236 70522 85510 333 5600/ 85620
AAXX 06181 80084 31570 61903 10290 20233 70522 83805 333 568/9 83825 83270
AAXX 06181 80091 31462 40903 10292 20244 70510 83101 333 569/0 83810
AAXX 06181 80094 31465 42704 10230 20184 38813 70521 83871 333 56799 59001 84815
AAXX 06181 80097 32568 53604 10277 20228 39764 40111 84841 333 56999 58000 84817
AAXX 06181 80099 31466 40204 10310 20216 39930 40075 70500 84201 333 563/9 57893 58003 84815
AAXX 06181 80110 31565 60403 10250 20146 38510 70522 85281 333 56009 57894 58000 85833
AAXX 06181 80112 31570 63601 10190 20123 37906 70522 83281 333 56999 57894 58004 83820 83358
AAXX 06181 80139 32570 10406 10337 20222 81100 333 56200 81823
AAXX 06181 80144 31458 50000 10276 20237 71522 85200 333 56000 85817
AAXX 06181 80149 NIL
AAXX 06181 80210 31565 42902 10236 20181 38660 70522 82231 333 56000 57892 59009 82820
AAXX 06181 80211 11570 62702 10250 20181 69931 70552 86200 333 19010 3205/ 420//
AAXX 06181 80214 NIL
AAXX 06181 80222 31567 73602 10192 20091 37515 70522 85206 333 563/9 57896 59001 85823
AAXX 06181 80234 01560 62602 10286 20209 39611 40100 69911 72052 83532 333 56239 58001 69917 83623 83359
AAXX 06181 80241 NIL
AAXX 06181 80252 NIL
AAXX 06181 80259 31560 52302 10268 20175 39058 70521 83830 333 562// 59005 83825
AAXX 06181 80308 NIL
AAXX 06181 80315 11462 50000 10272 20207 39603 40102 60021 71562 83250 333 5604/ 58014 83813
AAXX 06181 80322 NIL
AAXX 06181 80342 11559 70000 10178 20159 38223 69981 71552 87800 333 564// 59002 87820
AAXX 06181 80361 NIL
AAXX 06181 80370 31463 61101 10138 20098 71522 86800 333 563// 86818
AAXX 06181 80372 NIL
AAXX 06181 80398 31458 80102 10290 20250 30019 40114 71522 8487/ 333 5689/ 59019 84815 87359
AAXX 06184 61017 NIL
AAXX 06184 61024 32960 11212 10210 21088 39584 40162 80002 333 10257 59012 81080
AAXX 06184 61036 32960 70000 10257 20040 39895 40136 80008 333 10293 59008 87280
AAXX 06184 61043 32960 30408 10236 21078 39696 40145 80002 333 10277 59006 83080
AAXX 06184 61045 32960 50000 10205 21005 39640 40148 80002 333 10255 58002 85080
AAXX 06184 61049 32960 70000 10198 20012 39811 40137 80008 333 10270 59014 87280
AAXX 06184 61052 32960 30408 10260 21042 39876 40136 80002 333 10296 59008 83080
AAXX 06184 61075 32960 50000 10250 21002 39817 40130 80002 333 10298 59014 85080
AAXX 06184 61080 32965 70604 10232 21015 39719 40144 80008 333 10278 59017 87280
AAXX 06184 61090 32965 70404 10224 21040 39617 40136 80008 333 10265 59017 87280
AAXX 06184 61091 32965 30000 10219 20070 39688 40153 80002 333 10280 59014 83080
AAXX 06184 61096 32960 70000 10214 20006 39758 40148 80008 333 10272 59012 87280
AAXX 06184 61099 32960 70206 10280 20042 39883 40112 80008 333 10310 59007 87280
BBXX MINUK05 0618/ 99575 70016 46/// ///// 10068 40063 57052
BBXX MINUK04 0618/ 99555 10083 46/// ///// 10058 4//// 52021
BBXX MINUK01 0618/ 99571 70021 46/// ///// 10065 40083 57035
AAXX 06184 78988 02480 41010 10279 20234 30122 40132 57025 60031 70181 82201 333 58002 60037 82818 84081
AAXX 06184 78990 01480 51012 10283 20235 30133 40140 57024 69941 71581 84861 333 58003 69927 84818
AAXX 06184 78873 02575 11107 10276 20216 30111 40156 57020 60001 81200 333 58009 60007 81822
AAXX 06184 60679 36/// /0216 10051 21161 333 10110
AAXX 06181 60370 16/// /0902 10128 20090 60012 333 10177
AAXX 06181 60371 NIL
AAXX 06181 60372 16/// /0805 10105 20082 69922 333 10149
AAXX 06181 60373 NIL
AAXX 06181 60374 NIL
AAXX 06181 60376 NIL
AAXX 06181 60379 NIL
AAXX 06181 60380 NIL
AAXX 06181 60381 16/// /1801 10124 20105 60022 333 10185
AAXX 06181 60393 NIL
AAXX 06181 60394 NIL
AAXX 06181 60593 NIL
AAXX 06184 60595 36/// /0000 11451 333 11451
AAXX 06184 60605 36/// /2904 10216 21170 333 10255
AAXX 06184 60613 NIL
AAXX 06184 60623 NIL
AAXX 06184 60624 36/// /0000 10199 21090 333 10223
AAXX 06184 60639 36/// /2710 10161 21062 333 10198
AAXX 06184 60645 36/// /0000 10186 21065 333 10237
AAXX 06184 60650 36/// /0102 10163 21071 333 10206
AAXX 06181 80001 01470 60605 10270 20232 30139 40140 60021 70255 83236 333 56100 59013 69917 83818
AAXX 06181 80002 NIL
AAXX 06181 80009 31560 22502 10298 20245 30098 40103 70500 81801 333 560/0 59007 81820
AAXX 06181 80022 NIL
AAXX 06181 80028 NIL
AAXX 06181 80035 31565 50805 10315 20206 30126 40131 70521 83101 333 562/9 59002 83820
AAXX 06181 80036 31568 10607 10330 20191 70500 81801 333 560/0 81810
AAXX 06181 80063 31465 50000 10320 20236 70522 85510 333 5600/ 85620
AAXX 06181 80084 31570 61903 10290 20233 70522 83805 333 568/9 83825 83270
AAXX 06181 80091 31462 40903 10292 20244 70510 83101 333 569/0 83810
AAXX 06181 80094 31465 42704 10230 20184 38813 70521 83871 333 56799 59001 84815
AAXX 06181 80097 32568 53604 10277 20228 39764 40111 84841 333 56999 58000 84817
AAXX 06181 80099 31466 40204 10310 20216 39930 40075 70500 84201 333 563/9 57893 58003 84815
AAXX 06181 80110 31565 60403 10250 20146 38510 70522 85281 333 56009 57894 58000 85833
AAXX 06181 80112 31570 63601 10190 20123 37906 70522 83281 333 56999 57894 58004 83820 83358
AAXX 06181 80139 32570 10406 10337 20222 81100 333 56200 81823
AAXX 06181 80144 31458 50000 10276 20237 71522 85200 333 56000 85817
AAXX 06181 80149 NIL
AAXX 06181 80210 31565 42902 10236 20181 38660 70522 82231 333 56000 57892 59009 82820
AAXX 06181 80211 11570 62702 10250 20181 69931 70552 86200 333 19010 3205/ 420//
AAXX 06181 80214 NIL
AAXX 06181 80222 31567 73602 10192 20091 37515 70522 85206 333 563/9 57896 59001 85823
AAXX 06181 80234 01560 62602 10286 20209 39611 40100 69911 72052 83532 333 56239 58001 69917 83623 83359
AAXX 06181 80241 NIL
AAXX 06181 80252 NIL
AAXX 06181 80259 31560 52302 10268 20175 39058 70521 83830 333 562// 59005 83825
AAXX 06181 80308 NIL
AAXX 06181 80315 11462 50000 10272 20207 39603 40102 60021 71562 83250 333 5604/ 58014 83813
AAXX 06181 80322 NIL
AAXX 06181 80342 11559 70000 10178 20159 38223 69981 71552 87800 333 564// 59002 87820
AAXX 06181 80361 NIL
AAXX 06181 80370 31463 61101 10138 20098 71522 86800 333 563// 86818
AAXX 06181 80372 NIL
AAXX 06181 80398 31458 80102 10290 20250 30019 40114 71522 8487/ 333 5689/ 59019 84815 87359
AAXX 06181 01025 17/67 00801 11093 21109 39992 40004 50005 60002 700// 333 11088 91104
AAXX 06181 89062 41580 70218 10019 21025 39763 49803 57006 70272 8753/ 333 82620 84656
AAXX 06181 01311 47757 81402 10012 20009 39988 40051 58019 781// 333 10020 91104
AAXX 06181 50353 31970 01601 11288 21318 30117 40365 57002 77600 333 11141
AAXX 06181 50557 32970 02701 11232 21264 30050 40381 52002 333 11119
AAXX 06181 50756 32960 00000 11250 21269 30065 40397 54000 333 11160
AAXX 06181 50949 32965 00000 11203 21248 30218 40406 52002 333 11099
AAXX 06181 50963 32962 02001 11218 21242 30236 40388 52001 333 11139
AAXX 06181 50978 32975 02704 11172 21215 39989 40366 52002 333 11100
AAXX 06181 51087 32980 00000 11238 21273 39395 40468 52005 333 00800 11106
AAXX 06181 51156 NIL
AAXX 06181 51644 NIL
AAXX 06181 51656 NIL
AAXX 06181 51886 32980 21102 11148 21297 37112 52004 80002 333 00301 11059
AAXX 06181 52602 32980 02901 11207 21313 37266 52004 333 00300 11022
AAXX 06181 52713 32980 01601 11167 21286 36899 52004 333 00353 11034
AAXX 06181 52754 32980 60201 11156 21230 36770 52003 80002 333 00202 11039
AAXX 06181 52818 32980 80000 11092 21248 37234 54000 80007 333 00302 11040
AAXX 06181 52836 32980 71601 11134 21239 36886 57002 80008 333 00455 11033
AAXX 06181 52955 32980 71602 11147 21211 36952 52001 80002 333 00200 10019
AAXX 06181 53068 32980 00902 11267 21299 39183 40467 57002 333 00152 11203
AAXX 06181 53276 32980 02002 11211 21250 38955 40428 57002 333 11135
AAXX 06181 54135 32980 12501 11190 21225 30178 40423 54000 80002 333 11099
AAXX 06181 54236 32980 02901 11182 21214 30304 40420 52002 333 11076
AAXX 06181 54539 32970 00701 11091 21156 30400 40416 52002 333 11032
AAXX 06181 54662 32970 03602 11096 21163 30277 40400 52005 333 11049
AAXX 06181 54753 32965 00202 11036 21085 30389 40396 52002 333 11004
AAXX 06181 54857 32965 03602 11039 21084 30295 40393 52008 333 10038
AAXX 06181 57067 32960 50000 11065 21097 39667 40382 52006 85030 333 10036
AAXX 06181 57178 32961 00402 11003 21092 30209 40375 52008 333 10076
AAXX 06181 57245 32770 80703 10051 21084 39969 40330 52011 8557/ 333 00405 10085
AAXX 06181 57297 32960 00401 11010 21099 30221 40368 52008 333 10065
BBXX 62029 06184 99487 70125 46/// /2515 10124 20107 40332 55001 22200 00124 10806 70032
BBXX 62163 06184 99475 70084 46/// /3014 10104 20076 40340 53002 22200 00123 10907 70034
BBXX 62001 06184 99452 70050 46/// /2904 10126 20102 40338 53005 22200 00133 11007 70036
BBXX 64046 06184 99605 70049 46/// /2823 10077 20048 49972 56020 22200 00074 10708 70039
BBXX 62301 06184 99524 70047 46/// /2415 10091 20081 40226 58017 22200 00084 10503 70017
BBXX 62442 06184 99490 70164 46/// /2516 1//// 2//// 40328 53002 22200 00119
BBXX 62303 06184 99516 70051 46/// /2619 10105 20089 40250 58007 22200 00107 10604 70021 333 90710 91126
BBXX 62107 06184 99501 70061 46/// /2926 10101 20088 40289 57003 22200 00114 11005 70023 333 90710 91129
BBXX 64045 06184 99591 70117 46/// /2729 10071 20037 40042 50000 22200 00098 10810 70049 333 90710 91139
BBXX 62081 06184 99510 70134 46/// ///// 10118 20105 40286 57004 22200 00112 10706 70030
BBXX 62105 06184 99554 70121 46/// /2725 10100 20046 40168 52012 22200 00106 10809 70046 333 90710 91135
BBXX 62129 06184 99584 10003 46/// ///// 10068 20033 40056 57047 22200
BBXX 62128 06184 99587 10014 47598 /2224 10061 20016 40048 58043 700// 22200 10605 70025
BBXX 63057 06184 99592 10015 47598 /2223 10062 20012 40039 57045 700// 22200 10705 70024
BBXX 63110 06184 99595 10015 47598 /2221 10058 20016 40029 57050 700// 22200 10605 70024
BBXX 63109 06184 99596 10015 46/// /2320 10074 20024 40030 57049 22200
BBXX 63056 06184 99597 10016 47498 /2118 10054 20012 40026 57041 700// 22200 10705 70024
BBXX 62121 06184 99535 10027 46/// /2420 10059 20026 22200
BBXX 62144 06184 99534 10017 47797 /2421 10063 20037 40199 57018 700// 22200 10504 70021
BBXX 62145 06184 99531 10028 47/// ///// 700// 22200
BBXX 62142 06184 99530 10021 47897 /2416 10058 20033 40200 57016 700// 22200 10605 70023
BBXX 62111 06184 99580 70003 46/// /2425 10073 20046 40064 57048 22200 10504 70021
BBXX PJAI 06184 99581 70014 47698 /2216 10078 20037 40046 57046 700// 22200
BBXX 62112 06184 99584 70002 47697 /2224 10071 20042 40044 57052 762// 22200
BBXX 63055 06184 99606 10016 47297 /2113 10053 20012 40019 57048 740// 22200 10805 70026
BBXX 63108 06184 99608 10017 47998 /2116 10050 20008 40009 57049 700// 22200 10905 70027
BBXX 63106 06184 99610 10017 46/// /1912 10053 40010 57050 22200
BBXX 63105 06184 99610 10017 47598 ///// 10061 20013 40009 57051 700// 22200
BBXX 63113 06184 99610 10017 46/// /2414 10057 20010 40011 57051 22200 10806 70031
BBXX 63112 06184 99611 10010 46/// /2017 10057 20008 49998 57056 22200 10806 70030
BBXX 63107 06184 99611 10017 46/// /1916 10055 40008 57050 22200
BBXX 63101 06184 99612 10009 46/// /2017 10052 20020 40000 57054 22200
BBXX 63103 06184 99612 10011 46/// /1915 10056 20010 40000 57059 22200 10806 70029
BBXX 63104 06184 99612 10016 47598 /1915 10055 20010 40007 57050 700// 22200
BBXX 63117 06184 99613 10011 47598 /1914 10055 21006 40003 57052 762// 22200
BBXX 63115 06184 99616 10013 47598 /1614 10092 20014 49996 57055 700// 22200 10807 70034
BBXX MWYG6 06184 99603 70040 47997 /2725 10091 700// 22200
BBXX 64041 06184 99607 70026 47296 /2220 10076 20076 49961 57049 761// 22200 10807 70037
BBXX 62150 06184 99536 10007 47598 /2316 10069 20037 40195 57023 700// 22200 10705 70024
BBXX 62148 06184 99536 10015 46/// /2321 10066 20039 40195 57018 22200
BBXX 62149 06184 99537 10011 47598 /2321 10069 20041 40187 57022 700// 22200 10604 70020
BBXX 62131 06184 99539 10012 46/// /23// 10069 20044 40178 57026 22200
BBXX 62127 06184 99540 10007 46/// ///// 10069 20038 40174 57027 22200 10605 70024
BBXX 62165 06184 99540 10009 47696 /2423 10069 20041 40178 57028 762// 22200 10605 70026
BBXX 62123 06184 99563 10022 47597 /2422 10072 20024 40110 57036 700// 22200
BBXX 62132 06184 99564 10020 46/// /2618 10074 20025 40107 57038 22200
BBXX 62120 06184 99564 10021 47497 /2522 10072 20039 40106 57038 700// 22200
BBXX 62154 06184 99564 10022 46/// /2319 10069 20032 40109 57035 22200
BBXX 62152 06184 99570 10018 47/97 /2117 10068 20021 40100 57039 700// 22200 10505 70026
BBXX 62119 06184 99570 10019 47497 /2424 10069 20024 40097 57041 700// 22200 10505 70025
BBXX 62133 06184 99571 10009 46/// /2417 10070 20037 40080 57047 22200
BBXX PJGO 06184 99571 10022 47/96 /2214 10063 20063 40094 57037 762// 22200
BBXX 62164 06184 99572 10008 47497 /2224 10105 20060 40085 57045 700// 22200 00087 10605 70025
BBXX 62146 06184 99572 10021 47/97 /2418 10068 20026 40092 57039 700// 22200 10605 70027
BBXX 62140 06184 99573 10013 46/// /24// 10070 20041 40077 57045 22200
BBXX 62122 06184 99573 10016 47497 /2320 10078 20033 40089 57043 700// 22200 10605 70024
BBXX 62153 06184 99573 10020 47497 /2321 10068 20039 40084 57041 700// 22200 10605 70025
BBXX 62104 06184 99574 10013 47497 /2420 10077 20029 40072 57047 700// 22200
BBXX 62116 06184 99576 10011 47497 /2423 10070 20039 40066 57048 700// 22200 10605 70025
BBXX 62155 06184 99577 10007 47497 /2426 10074 20035 40075 57043 751// 22200 10605 70023
BBXX 62118 06184 99577 10009 47497 /2224 10087 20042 40061 57046 700// 22200 10605 70024
BBXX 62143 06184 99577 10018 47497 /2310 10068 20025 40073 57051 700// 22200 10605 70024
BBXX 62117 06184 99579 10000 47497 /2222 10078 20037 40059 57048 751// 22200 10504 70022
BBXX 62102 06184 99579 10018 46/// /2218 10065 20005 40069 57041 22200 10605 70024
BBXX 62134 06184 99580 10014 47498 /2220 10068 20020 40058 58050 700// 22200 10605 70024
BBXX 62114 06184 99583 10000 46/// /2124 10070 20041 40043 57054 22200
BBXX ZQSD5 06184 99583 10007 46/// /2216 10068 20034 40065 57042 22200 10706 70032
BBXX 62113 06184 99584 10002 47598 /2221 10067 20026 40057 57045 700// 22200
BBXX 62027 06184 99491 70022 46/// /2714 1//// 2//// 40286 57009 22200 00113 11203 331// 70016
BBXX 62170 06184 99514 10020 46/97 /2420 10079 20034 40242 57015 22200 00100 10602 70010 333 90710 91125
BBXX 62305 06184 99504 10000 46/98 /2726 10097 20056 40267 57014 22200 00112 10701 70007 333 90710 91132
BBXX 62094 06184 99517 70067 46/// /2421 10105 20096 40250 57010 22200 00103 10504 70022 333 90710 91129
BBXX 62103 06184 99499 70029 46/98 /2623 10104 20078 40268 57019 22200 00115 10903 70016 333 90710 91129
BBXX 62304 06184 99511 10018 46/98 ///20 10083 20027 40247 58014 22200 00104 10602 70009
BBXX 62304 06184 99511 10018 46/98 /2517 10085 20028 40249 57014 22200 00104 10602 70009
BBXX 64045 06184 99591 70117 46/// /2731 10071 20037 40042 50000 22200 00098 10810 70049 333 90710 91139
BBXX 62095 06184 99531 70159 46/// /2715 10107 20100 40240 53009 22200 00110 10707 70035
BBXX 62103 06184 99499 70029 46/97 /2722 10107 20096 40266 56014 22200 00115 10803 70016 333 90710 91130
AAXX 06184 41263 36/// /9902 10204 20028 39502 40195 333 0E019 10267 58007
AAXX 06181 29998 42999 21301 11268 21275 38705 48550 52001 80001
AAXX 06181 30385 42999 60000 11345 21362 39772 40384 57020 80008
AAXX 06181 30469 429// 80000 11420 21444 39598 40491 57006 80001
AAXX 06181 30636 429// 00000 11375 21393 39767 40480 52001
AAXX 06181 30650 42984 00000 11381 21403 39208 40514 54000
AAXX 06181 30664 42999 00000 11373 21395 39331 40482 58005
AAXX 06181 30781 42999 00000 11355 21377 39947 40448 53007
AAXX 06181 30777 42998 02403 11323 21346 39710 40457 54000
AAXX 06181 30844 41999 30000 11344 21362 39377 40504 52004 70171 82041
AAXX 06181 30925 429// 00000 11282 21300 39378 40470 52005
AAXX 06181 31371 42999 00000 11293 21324 30066 40364 58004
AAXX 06181 31388 42984 00000 11346 21368 30062 40365 53004
AAXX 06181 31478 NIL
AAXX 06181 31532 NIL
AAXX 06181 31594 42999 00000 11304 21321 30168 40361 53002
AAXX 06181 31655 41997 22304 11189 21195 30258 40310 54000 70272 82050
AAXX 06181 31754 42999 80000 11249 21268 39791 40346 58005 80007
AAXX 06181 91945 36/// /3312 10276 20230 30106 40111 51013
AAXX 06181 91943 16/// /3608 10278 20216 30124 40126 51013 60022 333 10279 59022
AAXX 06181 38388 32998 01106 11051 21065 30211 40285 57004 333 10001
AAXX 06181 38392 31194 81107 11078 21088 30224 40334 58009 71011 886// 333 11053 88702 93400
AAXX 06181 38507 32996 01106 10012 21044 30071 40176 57003 333 10056
AAXX 06181 38511 32998 20908 11015 21032 30091 40238 53008 80001 333 10007
AAXX 06181 38545 32998 00801 11098 21119 30151 40340 58019 333 11023
AAXX 06181 38647 22497 70912 10015 20007 30154 40197 52005 87600 333 69900 10026
AAXX 06181 38656 32998 01107 11003 21034 30148 40261 57010 333 10026
AAXX 06181 38687 32996 00201 11065 21081 30085 40336 58012 333 10001
AAXX 06181 38750 32997 00702 10039 20016 30187 40158 58011 333 10110
AAXX 06181 38763 32597 70909 10012 21014 30089 40196 58021 87400 333 10021 87830
AAXX 06181 38774 32895 81404 10008 21018 30038 40239 57018 8807/ 333 10003
AAXX 06181 38799 32997 00902 11026 21036 30085 40329 58009 333 10026
AAXX 06181 38806 32997 00000 11037 21048 30055 40331 58011 333 10012
AAXX 06181 38880 32497 80908 11001 21025 39976 40240 58011 886// 333 10024 88711
AAXX 06181 38886 32997 01305 10002 21030 30051 40288 58013 333 10024
AAXX 06181 38895 32996 01003 11016 21033 30018 40322 58006 333 10037
AAXX 06181 38911 32997 00000 11024 21043 30017 40327 58016 333 10010
AAXX 06181 38915 32997 01202 11005 21014 39992 40331 58011 333 10033
AAXX 06181 38974 32998 01602 11010 21035 39950 40300 58005 333 10027
AAXX 06181 38987 22996 00302 11042 21054 39536 40319 54000 333 69900 10005
AAXX 06184 40582 32677 61508 10174 20050 40162 52004 83730 333 55300 00000 10110 20000 30000 41318 51429 60000 55407 40000 83640 86358 90401 91011 91125 91217 91311
AAXX 06184 41150 NIL
AAXX 06184 41168 NIL
AAXX 06184 41170 NIL
AAXX 06184 41176 NIL
AAXX 06184 41184 41958 00000 10165 20110 40175 70600 333 10255 59002
AAXX 06184 41194 11959 00905 10200 20119 30178 40183 60001 70600 333 10239 59004
AAXX 06184 41196 42960 01102 10157 20092 30146 40186 333 10251 59005
AAXX 06184 41198 31950 02602 10200 20107 30153 40182 70600 333 10241 58000
AAXX 06184 41210 NIL
AAXX 06184 41216 NIL
AAXX 06184 41217 41959 00103 10182 20145 30149 40179 70500 333 10234 59003
AAXX 06184 41218 41958 00206 10176 20110 39874 40185 70500 333 10244 59006
AAXX 06184 41226 NIL
AAXX 06184 41244 NIL
AAXX 06184 41246 32960 02003 10210 20147 30178 40183 333 10252 58004
AAXX 06184 41254 36/// /2904 10102 20046 37993 47997 333 0E010 10173 59017
AAXX 06184 41256 31958 00806 10213 20154 30170 40180 70500 333 10243 59003
AAXX 06184 41258 36/// /1105 10231 20154 30170 40174 333 0E/// 10243 59001
AAXX 06184 41268 36/// /1902 10213 20144 30168 48260 333 0E023 10259 58007
AAXX 06184 41312 36/// /0600 10233 20187 30128 40168 333 0E/// 10265 59005
AAXX 06184 41314 NIL
AAXX 06184 41316 36/63 /3402 10223 20167 30144 40170 333 0E022 10275 59004
AAXX 06184 41404 42960 03404 10145 20004 37885 48539 333 10243 59006
AAXX 06184 41407 NIL
AAXX 06184 41431 42960 01409 10254 20214 30117 40130 333 10286 59010
AAXX 06184 41466 41457 71510 10164 20136 38586 48486 71044 876// 333 10256 59006 86720 83625
AAXX 06184 41477 NIL
AAXX 06184 41480 42460 30812 10257 20196 30163 40166 83530 333 10290 59009 81618 83360
AAXX 06181 22165 12598 81305 11009 21019 39941 40002 53015 69940 83509 333 11008
AAXX 06181 38847 3//// /2605 11112 21123 39510 40340 333 11018
BBXX A8GP6 06183 99186 31086 41498 51610 10250 20207 40105 56005 70211 8419/ 22284 04284 20301 80220 40302 80230
AAXX 06181 28688 12997 82303 11058 21073 30168 40333 52008 69900 8801/ 333 11055
AAXX 06181 28465 32998 81902 11089 21104 30218 40300 52007 8807/ 333 11088
AAXX 06181 28791 32998 82404 11057 21071 30187 40338 52004 8802/ 333 11067
AAXX 06181 28696 11997 82002 11107 21120 30191 40338 52003 69900 70272 8802/ 333 11132
AAXX 06181 28588 11996 82302 11072 21085 30158 40323 52008 69920 71022 8802/ 333 11088
AAXX 06181 28383 11996 81601 11135 21155 30214 40304 52007 69900 77172 8802/ 333 11143
AAXX 06184 08001 12465 60207 10128 20109 30251 40333 56002 60032 83872 333 10145 924/7
AAXX 06181 60373 36/// /1104 10120 20116 333 10160
AAXX 06181 60623 36/// /0000 10137 21167 333 10188
AAXX 06181 60393 16/// /1601 10129 20104 60022 333 10176
AAXX 06181 23929 32976 82002 11092 21099 30159 40228 52007 85031 333 11057
AAXX 06181 28586 11997 72303 11096 21108 30165 40321 52005 69920 70272 87030 333 11115
AAXX 06181 80001 01470 60605 10270 20232 30139 40140 60021 70255 83236 333 56100 59013 69917 83818
AAXX 06181 80002 NIL
AAXX 06181 80009 31560 22502 10298 20245 30098 40103 70500 81801 333 560/0 59007 81820
AAXX 06181 80022 NIL
AAXX 06181 80028 NIL
AAXX 06181 80035 31565 50805 10315 20206 30126 40131 70521 83101 333 562/9 59002 83820
AAXX 06181 80036 31568 10607 10330 20191 70500 81801 333 560/0 81810
AAXX 06181 80063 31465 50000 10320 20236 70522 85510 333 5600/ 85620
AAXX 06181 80084 31570 61903 10290 20233 70522 83805 333 568/9 83825 83270
AAXX 06181 80091 31462 40903 10292 20244 70510 83101 333 569/0 83810
AAXX 06181 80094 31465 42704 10230 20184 38813 70521 83871 333 56799 59001 84815
AAXX 06181 80097 32568 53604 10277 20228 39764 40111 84841 333 56999 58000 84817
AAXX 06181 80099 31466 40204 10310 20216 39930 40075 70500 84201 333 563/9 57893 58003 84815
AAXX 06181 80110 31565 60403 10250 20146 38510 70522 85281 333 56009 57894 58000 85833
AAXX 06181 80112 31570 63601 10190 20123 37906 70522 83281 333 56999 57894 58004 83820 83358
AAXX 06181 80139 32570 10406 10337 20222 81100 333 56200 81823
AAXX 06181 80144 31458 50000 10276 20237 71522 85200 333 56000 85817
AAXX 06181 80149 NIL
AAXX 06181 80210 31565 42902 10236 20181 38660 70522 82231 333 56000 57892 59009 82820
AAXX 06181 80211 11570 62702 10250 20181 69931 70552 86200 333 19010 3205/ 420//
AAXX 06181 80214 NIL
AAXX 06181 80222 31567 73602 10192 20091 37515 70522 85206 333 563/9 57896 59001 85823
AAXX 06181 80234 01560 62602 10286 20209 39611 40100 69911 72052 83532 333 56239 58001 69917 83623 83359
AAXX 06181 80241 NIL
AAXX 06181 80252 NIL
AAXX 06181 80259 31560 52302 10268 20175 39058 70521 83830 333 562// 59005 83825
AAXX 06181 80308 NIL
AAXX 06181 80315 11462 50000 10272 20207 39603 40102 60021 71562 83250 333 5604/ 58014 83813
AAXX 06181 80322 NIL
AAXX 06181 80342 11559 70000 10178 20159 38223 69981 71552 87800 333 564// 59002 87820
AAXX 06181 80361 NIL
AAXX 06181 80370 31463 61101 10138 20098 71522 86800 333 563// 86818
AAXX 06181 80372 NIL
AAXX 06181 80398 31458 80102 10290 20250 30019 40114 71522 8487/ 333 5689/ 59019 84815 87359
BBXX DHZQ 06184 99497 11603 41/98 80312 11005 21048 40095 53050 70272 8//// 22253 00020 2//// 81020
BBXX DDAC2 06180 99518 11654 41498 60405 11006 21017 40080 54000 7//22 84460 22263 04038 20301 309// 40704 5//// 81010
BBXX SHIP 06184 99198 11199 41497 73626 10220 20200 40183 57014 70222 8666/ 22254 00242 2//// 3//// 4//// 80205 NNNN
BBXX A8JX9 06183 99359 11433 41/// /0450 10105 20094 40175 56013 70000 8//// 22214 2//// 3//// 4//// 5//// 80099
BBXX SHIP 06184 99338 71521 41498 81818 10190 20159 40216 57004 7636 1 87727 22263 00230 020302 327// 40303 80170
BBXX SHIP 06184 99200 51200 41296 80711 10242 20193 40166 50014 76062 8462/ 22200 04254 20302 31714 40904 50703
BBXX 7JKC 06184 99067 31188 41496 63221 00 10260 2//// 40040 54 76255 87890 9//// 22253 00260 1//// 2 3 // 4 5//// 6//// 80240 /////
BBXX SHIP 06184 99200 51200 41296 80711 10242 20193 40166 50014 76062 8462/ 22200 04254 20302 31714 40904 50703
BBXX 7JKC 06184 99067 31188 41496 63221 00 10260 2//// 40040 54 76255 87890 9//// 22253 00260 1//// 2 3 // 4 5//// 6//// 80240 /////
AAXX 06184 82106 32698 61404 10318 20241 3//// 4//// 85201 333 5////
AAXX 06184 82113 21496 80000 10274 20248 3//// 4//// 70366 84880 333 5//// 60111
AAXX 06184 82212 21697 81404 10264 20235 30054 40136 70362 885// 333 58028 60091
AAXX 06184 82336 32598 50000 10318 20236 3//// 4//// 82223 333 5////
AAXX 06184 82425 21196 82704 10232 20216 3//// 4//// 72162 887// 333 5//// 60791
AAXX 06184 82533 31497 32302 10320 20243 3//// 4//// 71711 83300 333 5////
AAXX 06184 82704 21695 80000 10266 20256 39860 40054 70362 885// 333 59011 60131
AAXX 06184 82723 32698 82702 10297 20264 30047 40129 885// 333 58019
AAXX 06184 82042 32197 60506 10295 20231 3//// 4//// 83632 333 5////
AAXX 06184 82240 32596 40000 10305 20235 3//// 4//// 82231 333 5////
AAXX 06184 82317 21593 80000 10235 20231 3//// 4//// 70266 8452/ 333 5//// 60311
AAXX 06184 82610 32695 60000 10295 20256 3//// 4//// 84340 333 5////
AAXX 06184 82807 21595 83602 10267 20243 3//// 4//// 71396 885// 333 5//// 60061
AAXX 06184 83064 32598 33606 10307 20220 39812 40079 82205 333 59016
AAXX 06184 83332 21696 80000 10260 20189 39187 40082 70362 885// 333 59004 60051
AAXX 06184 83423 31698 83204 10288 20194 39278 40081 71522 889// 333 59006
AAXX 06184 83470 22698 52702 10269 20228 39232 40075 86100 333 59008 60051
AAXX 06184 83552 32498 4//// 10364 20202 39931 4//// 84300 333 59012
AAXX 06184 83565 32697 60904 10314 20221 39610 40068 86200 333 59005
AAXX 06184 83630 21597 61402 10214 20199 3//// 4//// 57007 70362 83330 333 60091
AAXX 06184 83702 32599 73206 10341 20141 39337 40064 58020 86305
AAXX 06184 83704 32698 53604 10241 20206 39653 40050 58028 85100
AAXX 06184 83726 32597 72702 10302 20189 39166 40115 58035 85303
AAXX 06184 93800 16/// /2102 10104 20090 40103 52013 60001
AAXX 06184 93805 16/// /2306 10119 20077 40116 52008 60001
AAXX 06184 93994 16/// /0512 10216 20210 40074 52002 60021
BBXX ZMFR 06184 99429 51758 43/// /3520 10167 20156 40151 52015 22222 00155
BBXX V2QD4 06183 99381 31513 41498 50514 10180 20164 40129 56011 70311 84184 22224 00200 20401 322// 41004
BBXX ZMFR 06184 99429 51758 43/// /3520 10167 20156 40151 52015 22222 00155
BBXX V2QD4 06183 99381 31513 41498 50514 10180 20164 40129 56011 70311 84184 22224 00200 20401 322// 41004
AAXX 06181 14216 12782 10101 10074 21070 39935 40087 52/// 60002 81100 333 10122 923// 924/8
AAXX 06181 14219 12982 00303 10016 21081 39083 48396 52/// 60002 333 10050 41998
AAXX 06181 14232 12784 20503 10027 21043 39964 40102 52/// 60002 81480 333 10096
AAXX 06181 14234 11980 10304 10065 21042 39857 40103 52/// 60002 700// 81040 333 10091
AAXX 06181 14236 11780 20702 10073 21051 39898 40095 52/// 60002 701// 82530 333 10096
AAXX 06181 14244 12481 63603 10055 21048 39970 40100 52/// 60002 86500 333 10087
AAXX 06181 14248 12784 63604 10061 21049 39927 40101 52/// 60002 84540 333 10091
AAXX 06181 14253 12560 40205 10058 21061 39913 40086 52/// 60002 84400 333 10078
AAXX 06181 14256 12584 43408 10048 21043 39769 40088 52040 60002 82530 333 10070
AAXX 06181 14280 12960 03305 10051 21012 39952 40062 52035 60002 333 10072
AAXX 06181 14308 12980 03602 10052 21073 39733 40087 51/// 60002 333 10094
AAXX 06181 14321 12684 10103 10101 21072 30058 40082 52/// 60002 81400 333 10131 92323 92439
AAXX 06181 14370 12560 23408 10066 21022 39957 40066 52035 60002 82500 333 10086
AAXX 06181 14382 12980 03406 10044 21009 39944 40064 53039 60002 333 10064
AAXX 06181 14428 12470 33105 10104 21049 30053 40061 52/// 60002 83800 333 10119 92312 91118 91535
AAXX 06181 14441 11580 31607 10100 21027 39987 40011 51/// 60002 700// 83400 333 10120 92323
AAXX 06181 14452 NIL
AAXX 06181 14454 11720 70121 10095 21024 39897 49956 52/// 60002 707// 82449 333 10115 91042 91501 91142 91501 92323
AAXX 06181 14462 12980 70204 10085 21033 39985 49991 52/// 69902 87070 333 10103
AAXX 06181 21432 NIL
AAXX 06181 21824 41998 61901 11366 21381 30334 40344 52007 70272 80006
AAXX 06181 21908 42999 00000 11469 21489 30298 40396 52007
AAXX 06181 21921 41999 30508 11326 21361 30282 40333 52014 73631 80001
AAXX 06181 21931 42998 82002 11336 21372 30284 40320 52010 80001
AAXX 06181 21946 41498 80000 11346 21374 30181 40270 53008 77872 8653/ 333 86610
AAXX 06181 21982 11998 02407 11272 21297 30038 40067 52009 60022 73673 333 21279 48009 91109
AAXX 06181 25062 11597 63104 11267 21291 30057 40061 57002 69982 70273 86500 333 21271 47040 91106
AAXX 06181 25123 41996 81601 11390 21424 30175 40213 58005 77172 8802/
AAXX 06181 25138 41698 81002 11400 21427 30064 40204 57008 77171 82537 333 91102
AAXX 06181 25173 11396 82906 11256 21268 30035 40040 53006 60012 77173 8372/ 333 21257 48057 91113
AAXX 06181 25248 41597 83002 11326 21348 39655 40152 56007 77172 8651/ 333 91107
AAXX 06181 25282 31984 23004 11302 21319 39994 40001 58035 70231 80001 333 21306 46006 55000 91106
AAXX 06181 25325 NIL
AAXX 06181 25356 11997 83202 11271 21309 39973 40080 57006 69922 77171 8807/ 333 21469 48017 55000 91004
AAXX 06181 25399 32984 12202 11330 21360 30052 40062 52006 80001 333 21365 48037 55000 91103
AAXX 06181 25428 41918 80000 11455 21483 39858 40250 52005 77872 83037 333 91100
AAXX 06181 25551 32998 62301 11463 21492 30064 40100 57007 80001 333 21489 47035 55000 91103
AAXX 06181 25563 32984 33405 11357 21386 39983 40071 58007 80001 333 21391 44030 55019 91107
AAXX 06181 25594 32998 00000 11315 21321 30012 40067 53001 333 21317 49040 91102
AAXX 06181 25677 32998 62602 11326 21355 30053 40059 57007 86030 333 21326 91105
AAXX 06181 31054 42999 20901 11301 21325 39976 40279 52005 82020
AAXX 06181 31123 42998 62302 11317 21354 39971 40338 58008 80001
AAXX 06181 80402 NIL
AAXX 06181 80412 NIL
AAXX 06181 80416 NIL
AAXX 06181 80420 32470 10208 10311 20178 30114 40110 81500 333 30/// 56900 58000 81613 555 10133
AAXX 06181 80425 32570 22502 10328 20243 30089 40120 82100 333 30/// 56900 59009 82820 10121
AAXX 06181 80426 32570 80202 10266 20182 39494 40138 8351/ 333 30/// 5699/ 59002 83623 86460 555 10169
AAXX 06181 80427 32570 41603 10320 20231 39870 40121 83130 333 30/// 56990 59005 83280 555 10139
AAXX 06181 80431 32570 5//// 10306 20161 39627 40105 858// 333 30/// 569// 59014 85820 555 10129
AAXX 06181 80434 NIL
AAXX 06181 80437 32470 83102 10300 20210 30014 40099 8351/ 333 30/// 5699/ 59015 83620 85460 555 10106
AAXX 06181 80440 32570 30503 10309 20193 39918 40128 83200 333 30/// 56900 58010 83823 555 10138
AAXX 06181 80442 32470 3//// 10329 2//// 30001 4//// 83200 333 30/// 56900 59004 83813 555 10112
AAXX 06181 80472 32465 51404 10319 20191 39634 40110 852// 333 30/// 569// 59004 85816 555 10136
AAXX 06181 80475 NIL
AAXX 06181 80476 32370 4//// 10328 20255 30099 40129 82507 333 30/// 56909 59001 82610
AAXX 06181 80478 NIL
AAXX 06181 80479 NIL
AAXX 06181 80400 NIL
AAXX 06181 80403 32470 60905 10285 20222 30119 40138 8327/ 333 30/// 5699/ 59002 83816 83356 555 10140
AAXX 06181 80405 NIL
AAXX 06181 80407 32470 3//// 10305 20224 30056 4//// 83400 333 30/// 56900 5//// 83616 10131
AAXX 06181 80410 32470 41105 10298 20191 39449 40124 84200 333 30/// 56900 59001 84816 555 10162
AAXX 06181 80413 32470 62004 10322 20157 39635 40121 867// 333 30/// 569// 59007 86713 555 10153
AAXX 06181 80415 NIL
AAXX 06181 80419 NIL
AAXX 06181 80421 NIL
AAXX 06181 80423 32470 4//// 10300 20201 30085 40102 84200 333 30/// 56200 58000 84810 555 10101
AAXX 06181 80428 32570 20503 10315 20205 39934 40117 82100 333 30/// 56900 59001 82820 555 10130
AAXX 06181 80432 NIL
AAXX 06181 80435 32470 40903 10311 20181 30030 40106 84100 333 30/// 56900 59003 84813 555 10104
AAXX 06181 80438 32565 42505 10246 20168 38523 48520 82540 333 30/// 56990 59006 82623 555 10206
AAXX 06181 80444 NIL
AAXX 06181 80447 32558 70000 10293 20217 39671 40092 875// 333 30/// 569// 59007 87620 555 10143
AAXX 06181 80448 32570 30903 10315 20227 3//// 4//// 83500 333 30/// 56900 5//// 83617
AAXX 06181 80450 32475 81404 10324 20243 30070 40115 83508 333 30/// 56209 59007 83616 85280 555 10112
AAXX 06181 80453 NIL
AAXX 06181 80457 NIL
AAXX 06181 80462 NIL
AAXX 06181 08560 32/// /0705 10119 20050 39544 40304 57001 333 10159 91009 91109
AAXX 06181 08515 32580 4//// 10169 20120 30207 40322 57001 84800 333 10196 82824 83648
AAXX 06181 08515 32580 4//// 10169 20120 30207 40322 57001 84800 333 10196 82824 83648 555 60005
AAXX 06181 08560 32/// /0705 10119 20050 39544 40304 57001 333 10159 91009 91109 555 60005
BBXX 46207 06181 99509 71299 46/// /1612 10060 40154 52003 22200 00079 10806 70030 333 91214
BBXX 9VVP 06184 99547 71373 41496 52432 10055 20044 40005 56015 75055 8562/ 22274 00070 20810 325// 41212 5//// 6//// 80050 ICE /////
BBXX A8EY7 06183 99327 71277 41/98 50320 10155 20102 40300 54000 702// 8/5// 22234 2//04 326// 4//04 5//// 80125
BBXX DCCM2 06184 99552 71437 41597 73127 10015 21096 40040 52/// 70211 8/4/0 22224 04070 20108 323// 40108 81020
BBXX DGBE 06183 99389 71243 41497 73525 10125 20057 40265 53014 70322 86818 22234 20804 335// 41408 80090
BBXX DHYW 06181 99533 71486 41897 70710 10010 21016 40040 57010 70222 8//1/ 22224 2//// 3//// 4//// 5//// 80000
BBXX KIYI 06184 99538 71356 41498 52430 10060 20040 40039 54000 7//22 859// 22274 0//// 20204 324// 40807 5//// 6//// 80053 ICE /////
BBXX KRGB 06184 99322 71381 41/97 71112 10167 20160 40271 52010 7//22 87/// 22255 00156 20802 329// 41406 5//// 6//// 80161 ICE /////
BBXX OUJS2 06183 99392 71371 41998 11913 10140 20110 40330 54000 7//00 800/9 22234 00130 21201 326// 41001 5//// 6//// 80120 ICE /////
BBXX SBLW 06183 99535 71479 43/98 70809 11020 40068 58011 22273 00043 2//// 4////
BBXX SHIP 06184 99315 71295 41497 70414 10150 20130 40300 54000 70322 86488 22263 00190 20505 329// 41409 5//// 6//// 80140 ICE /////
BBXX VREX8 06184 99533 71479 41496 23413 11010 21010 40030 54000 7//11 821// 22234 0//// 2//// 322// 4//05 5//// 6//// 81010 ICE /////
BBXX WCX8882 06184 99443 71483 41196 81937 10120 20120 40025 57025 78162 84627 22234 00080 20206 317// 40512 5//// 6//// 80120 ICE /////
AAXX 06184 65528 NIL
AAXX 06184 65536 NIL
AAXX 06184 65545 NIL
AAXX 06184 65548 NIL
AAXX 06184 65555 NIL
AAXX 06184 65557 NIL
AAXX 06184 65560 NIL
AAXX 06184 65562 NIL
AAXX 06184 65563 NIL
AAXX 06184 65578 32557 52404 10285 20250 30094 40111 85500 333 10305 58002 85620
AAXX 06184 65585 NIL
AAXX 06184 65592 NIL
AAXX 06184 65594 NIL
AAXX 06184 65599 NIL
AAXX 06184 40153 11658 22312 10050 20048 39081 48472 52008 60182 71064 82400 333 10072
AAXX 06184 40179 12965 01206 10106 20069 30124 40162 52006 60002 333 10176
AAXX 06184 40180 12960 00802 10114 20053 30118 40168 52008 69902 333 10173
AAXX 06184 40190 16/// ///// 10088 20014 39832 40170 52010 60002 333 10174
AAXX 06184 40199 13/// /0102 10134 20005 30134 40157 52011 60002 333 10213
AAXX 06184 62476 32960 00000 10192 20133 40142 53008 333 10228
AAXX 06184 62420 32960 00000 10100 20000 40159 52006 333 10190
AAXX 06184 62432 32960 00000 10107 20040 40177 52018 333 10210
AAXX 06184 62435 32960 01802 10122 20051 40171 52012 333 10206
AAXX 06184 62455 32960 01204 10122 20037 40144 52012 333 10194
AAXX 06184 62458 32960 00104 10127 21016 40168 52011 333 10188
AAXX 06184 62309 32960 01905 10120 20026 40122 54000 333 10174
AAXX 06184 62325 32960 00000 10112 20088 40146 52002 333 10175
AAXX 06184 62332 32960 01904 10142 20075 40154 52007 333 10174
AAXX 06184 62387 32960 00000 10108 20034 40174 57016 333 10194
AAXX 06184 62459 32960 00000 10136 21029 40162 52012 333 10194
AAXX 06184 62452 32960 01603 10088 21003 40187 52015 333 10182
BBXX 46147 06181 99518 71312 46/// /2308 10069 40133 52009 22200 00075 10808 70040 333 91211
AAXX 06184 62309 32960 01905 10120 20026 40122 54000 333 10174
AAXX 06184 62325 32960 00000 10112 20088 40146 52002 333 10175
AAXX 06184 62332 32960 01904 10142 20075 40154 52007 333 10174
AAXX 06184 62387 32960 00000 10108 20034 40174 57016 333 10194
AAXX 06184 62459 32960 00000 10136 21029 40162 52012 333 10194
AAXX 06184 62452 32960 01603 10088 21003 40187 52015 333 10182
AAXX 06181 63333 42880 20000 10162 20070 38178 40203 82030 333 10270 59008 82358
AAXX 06181 63334 42980 02502 10146 20000 37638 40144 333 10245 59005
AAXX 06181 63340 42980 03302 10170 20093 37951 40155 333 10280 58002
AAXX 06181 63450 42980 00406 10160 20087 37748 40139 333 10245 58000
AAXX 06181 63451 42980 0//// 1//// 2//// 38152 4//// 333 10280 59007
AAXX 06181 63471 NIL
AAXX 06181
BBXX 46147 06181 99518 71312 46/// /2308 10069 40133 52009 22200 00075 10808 70040 333 91211
AAXX 06184 62423 32960 02302 10104 20021 40173 52007 333 10184
AAXX 06184 62357 32960 01703 10125 20037 40153 52005 333 10183
AAXX 06184 62403 32960 00000 10138 20026 40170 52012 333 10206
AAXX 06184 62423 32960 02302 10104 20021 40173 52007 333 10184
AAXX 06184 62357 32960 01703 10125 20037 40153 52005 333 10183
AAXX 06184 62403 32960 00000 10138 20026 40170 52012 333 10206
AAXX 06181 63333 42880 20000 10162 20070 38178 40203 82030 333 10270 59008 82358
AAXX 06181 63334 42980 02502 10146 20000 37638 40144 333 10245 59005
AAXX 06181 63340 42980 03302 10170 20093 37951 40155 333 10280 58002
AAXX 06181 63450 42980 00406 10160 20087 37748 40139 333 10245 58000
AAXX 06181 63451 42980 0//// 1//// 2//// 38152 4//// 333 10280 59007
AAXX 06181 63471 NIL
AAXX 06184 41315 36/// /0106 10178 20051 39185 42822 333 0E/// 10255 59004
AAXX 06181 51133 32980 00402 11135 21178 39716 40413 57001 333 00853 11042
AAXX 06181 51747 32970 00000 11211 21251 39039 40435 52002 333 00652 11038
AAXX 06181 51243 32970 03201 11190 21212 39833 40447 52001 333 00700 11128
AAXX 06181 51709 32962 72202 11076 21106 38817 40385 52001 80002 333 00602 11028
AAXX 06181 51156 32980 03401 11141 21202 38815 40407 54000 333 00602 11051
AAXX 06181 51644 32960 00000 11135 21158 39059 40410 52005 333 00751 11031
AAXX 06181 51656 31958 00000 11116 21142 39235 40405 52003 70400 333 00600 11023
AAXX 06181 25703 41998 80000 11466 21501 39974 40296 54000 77071 80007
AAXX 06181 25745 NIL
AAXX 06181 25913 42999 80503 11230 21270 30011 40171 57001 80007
AAXX 06181 25954 42998 33502 11234 21274 39973 40095 52003 81031
AAXX 06181 25956 42999 00503 11285 21324 30047 40054 57004
AAXX 06181 31088 42999 63402 11230 21278 30163 40171 57006 81041
AAXX 06181 31873 42997 02603 11197 21215 30205 40351 53002
AAXX 06181 31909 42998 02907 11134 21205 30201 40285 53008 333 91114
AAXX 06181 31960 42997 03509 11144 21195 30096 40348 52007
AAXX 06181 31961 42997 00301 11250 21268 30314 40366 52008
AAXX 06181 32053 42997 02502 11220 21238 30197 40250 53002 333 91003 91104
AAXX 06181 32061 42984 21203 11192 21218 30215 40258 53003 80002 333 91003 91103
AAXX 06181 32098 42998 63303 11100 21137 30227 40238 52005 80001 333 91005 91106
AAXX 06181 32150 41594 83605 11040 21052 30178 40208 52013 78683 889// 333 91010 91112
AAXX 06181 32165 41596 83105 11008 21021 30061 40122 58006 78582 889// 333 91009 91109
AAXX 06181 32215 42996 83204 11048 21097 30102 40132 53003 80007 333 91007 91107
AAXX 06181 32252 NIL
AAXX 06181 32389 NIL
AAXX 06181 32477 42998 20602 11207 21219 30122 40156 52001 80001
AAXX 06181 32583 42999 03503 11129 21149 30088 40120 53001
AAXX 06181 32618 42598 30105 11064 21109 30073 40095 53003 83500
AAXX 06181 48806 11497 81602 10101 20099 39439 40243 58005 69901 75165 8527/ 333 58025 85794 88499 96150
AAXX 06184 71139 16/// /2805 11013 21121 38706 40177 51013 60001 333 11013 21055 70000
AAXX 06184 71307 16/// /2413 10070 20018 39803 40051 56008 60001 333 10073 20007 70000
AAXX 06184 71343 16/// /2618 10025 21105 60001 333 10025 21043 70000
AAXX 06184 71345 16/// /2614 10024 21091 60001 333 10024 21046 70000
AAXX 06184 71276 16/// ///09 11014 21070 60001 333 11013 21049 70000
AAXX 06184 71189 46/// /0809 11128 21175 6///1 333 11128 21207 7////
AAXX 06184 71375 46/// /2914 11125 6///1 333 11100 21154 7////
AAXX 06184 71217 16/// /1907 11006 21069 60001 333 11006 21083 70000
AAXX 06184 71224 16/// /2514 11002 21101 60001 333 10000 21060 70000
AAXX 06184 71979 16/// ///// 11087 21127 38471 40147 53006 60001 333 11038 21133 70000
AAXX 06181 23219 12398 81802 11050 21074 30005 40112 52014 69962 8802/ 333 11085
BBXX 46183 06181 99536 71311 46/// /1515 10060 40120 57006 22200 00076 10707 70034 333 912//
AAXX 06181 63021 42580 10402 10118 20093 37743 40172 81100 333 10250 59005 81820
AAXX 06184 89002 42999 00606 11031 21060 39775 49829 52003
BBXX 46183 06181 99536 71311 46/// /1515 10060 40120 57006 22200 00076 10707 70034 333 912//
AAXX 06183 64800 NIL
AAXX 06183 64820 NIL
AAXX 06183 64860 31950 70000 10263 20088 39838 40110 70522 80002 333 10318 59008 87080
AAXX 06183 64861 NIL
AAXX 06183 64870 32960 70000 10199 20076 38910 48500 80002 333 10301 59008 87080
AAXX 06183 64871 NIL
AAXX 06183 64892 NIL
AAXX 06183 64893 NIL
AAXX 06183 64894 NIL
AAXX 06183 64910 31414 72604 10283 20229 30088 40097 70522 82502 333 10333 59019 82616 87080
AAXX 06183 64911 NIL
AAXX 06183 64950 NIL
AAXX 06184 61017 NIL
AAXX 06184 61024 32960 11212 10210 21088 39584 40162 80002 333 10257 59012 81080
AAXX 06184 61036 32960 70000 10257 20040 39895 40136 80008 333 10293 59008 87280
AAXX 06184 61043 32960 30408 10236 21078 39696 40145 80002 333 10277 59006 83080
AAXX 06184 61045 32960 50000 10205 21005 39640 40148 80002 333 10255 58002 85080
AAXX 06184 61049 32960 70000 10198 20012 39811 40137 80008 333 10270 59014 87280
AAXX 06184 61052 32960 30408 10260 21042 39876 40136 80002 333 10296 59008 83080
AAXX 06184 61075 32960 50000 10250 21002 39817 40130 80002 333 10298 59014 85080
AAXX 06184 61080 32965 70604 10232 21015 39719 40144 80008 333 10278 59017 87280
AAXX 06184 61090 32965 70404 10224 21040 39617 40136 80008 333 10265 59017 87280
AAXX 06184 61091 32965 30000 10219 20070 39688 40153 80002 333 10280 59014 83080
AAXX 06184 61096 32960 70000 10214 20006 39758 40148 80008 333 10272 59012 87280
AAXX 06184 61099 32960 70206 10280 20042 39883 40112 80008 333 10310 59007 87280
AAXX 06184 67002 12570 70207 10270 20242 30073 40107 60272 83872 333 10289 59006 81820 83628 85459 92417
AAXX 06184 67009 NIL
AAXX 06184 67027 11458 81212 10235 20220 30100 40121 52018 60272 76162 8487/ 333 10298 82817 83633 85459
AAXX 06184 67083 NIL
AAXX 06184 67095 12475 70000 10250 20235 30125 40132 52015 69962 8487/ 333 10317 82817 83633 86360
AAXX 06184 67197 32480 60816 10262 20227 30110 40120 52011 82202 333 10309 82817 85073
AAXX 06181 50434 32980 50000 11363 21405 39458 40473 52001 80002 333 11215
AAXX 06181 50527 32970 01804 11311 21342 39569 40472 57002 333 11251
AAXX 06181 50603 32978 00000 11313 21348 39691 40466 57005 333 11230
AAXX 06181 50632 32980 03202 11234 21275 39440 40427 57002 333 11173
AAXX 06181 50727 32980 20000 11329 21370 39146 40497 57005 80001 333 11229
AAXX 06181 50915 32680 70000 11279 21321 39342 40472 57008 86502 333 11193
AAXX 06181 51716 32965 70000 11080 21112 39009 40388 57001 80002 333 00602 11024
AAXX 06181 51765 32980 03601 11148 21173 39331 40408 52003 333 00602 11019
AAXX 06181 51777 32975 02002 11130 21171 39289 40408 52006 333 00801 11023
AAXX 06181 51811 32961 70000 11103 21128 38884 40397 52004 80002 333 00551 11026
AAXX 06181 51828 32965 71401 11072 21136 38718 40376 54000 80002 333 00601 11028
AAXX 06181 52267 32980 02901 11150 21238 39213 40406 52004 333 00552 11042
AAXX 06181 52323 32980 02705 11188 21217 38292 52002 333 00654 11039
AAXX 06181 52495 32980 41401 11177 21256 38768 40401 52001 80002 333 00452 11031
AAXX 06181 53149 32980 00000 11185 21229 38864 40406 57003 333 00202 11104
AAXX 06181 53192 32980 01101 11263 21289 38994 40475 57003 333 11191
AAXX 06181 53231 32970 01803 11182 21230 38553 57001 333 00400 11068
AAXX 06181 53336 32980 01601 11171 21219 38794 40391 57002 333 00301 11071
AAXX 06181 53391 32980 02701 11147 21215 38574 40384 52001 333 00205 11078
AAXX 06181 53529 32970 80401 11084 21167 38698 40351 57003 8801/ 333 00410 11013
AAXX 06181 53543 32980 72202 11083 21164 38605 40351 52001 80002 333 11030
AAXX 06181 53723 32970 82701 11058 21132 38731 40338 57001 8807/ 333 00408 11006
AAXX 06181 54012 32980 70902 11316 21357 39144 40486 57007 85032 333 11179
AAXX 06181 54026 32980 03401 11177 21256 30051 40407 57005 333 11075
AAXX 06181 54027 32975 02501 11206 21277 39775 40422 57002 333 11083
AAXX 06181 54208 32980 00000 11255 21288 38849 40453 57001 333 11142
AAXX 06181 54776 32980 03208 11019 21084 30317 40377 52005 333 10009
AAXX 06181 56004 32680 72501 11190 21248 35778 57004 85502 333 00101 11087
AAXX 06181 56033 32680 70000 11162 21188 35982 57001 82502 333 00104 11086
AAXX 06181 56046 11980 72001 11135 21164 36229 52001 69921 72270 80002 333 00007 11055
AAXX 06181 56193 NIL
AAXX 06181 56196 31850 83401 10039 20024 40313 52002 71000 885// 333 00300 10054
AAXX 06181 56287 11450 80401 10039 20033 40311 52002 69941 76066 885// 333 00300 10051
AAXX 06181 56684 32570 10702 10020 21016 37906 52006 81100 333 00352 10130
AAXX 06181 56751 32780 31404 10093 21014 38036 52004 83400 333 00202 10152 91119 91522
AAXX 06181 56786 32570 10000 10050 20017 38118 52001 81100 333 00251 10163
AAXX 06181 56977 32462 81401 10142 20134 40184 57001 884// 333 00202 10202
AAXX 06181 57259 32965 01101 11022 21053 40357 52008 333 10091
AAXX 06181 57279 32962 02501 11012 21069 40362 52012 333 10087
AAXX 06181 57348 32865 83604 10079 21045 40309 52006 885// 333 10112
AAXX 06181 57399 32962 03601 10010 21090 40348 52009 333 10116
AAXX 06181 57554 32862 80403 10049 21034 40338 52004 885// 333 10073
AAXX 06181 57793 31750 80901 10050 20020 40325 52003 71000 885// 333 10057
AAXX 06181 58345 31958 00000 11017 21036 40361 52003 71000 333 10072
AAXX 06181 58506 32966 70703 11021 21109 40331 52002 87040 333 10021
AAXX 06181 58813 11658 80401 10038 20034 40315 57001 69901 76060 885// 333 10050
AAXX 06181 58834 11759 80202 10053 20044 40311 57002 69911 76060 885// 333 10056
AAXX 06181 58926 31650 81801 10082 20062 40289 54000 71000 885// 333 10094
AAXX 06181 58944 11461 80204 10086 20071 40287 57003 69931 76066 885// 333 10094
AAXX 06181 59096 32563 80401 10057 20025 40289 57003 885// 333 10086
AAXX 06181 59102 32660 80401 10046 20031 40295 57001 885// 333 10068
AAXX 06181 59278 32763 80203 10097 20055 40269 57004 885// 333 10104
AAXX 06181 59456 11763 80201 10097 20068 40252 57005 69901 70060 885// 333 10113
AAXX 06181 59493 32765 83603 10109 20081 40253 57003 885// 333 10126
AAXX 06181 59658 31658 80202 10102 20083 40244 57007 71000 885// 333 10125
AAXX 06181 59673 32562 80209 10109 20085 40245 57008 888// 333 10117
AAXX 06181 59845 11458 80901 10126 20121 40239 57006 69901 76066 887// 333 10127
BBXX 46145 06181 99544 71324 46/// /1713 10060 40091 57008 22200 00069 10604 70020 333 91216
AAXX 06181 60379 16/// /0802 10133 20106 60032 333 10170
AAXX 06181 60380 36/// /1303 10122 20101 333 10171
AAXX 06181 60394 16/// /0801 10121 20109 60012 333 10173
AAXX 06181 60374 36/// /0605 10139 20091 333 10180
AAXX 06181 60613 36/// /2706 10123 21056 333 10181
BBXX 9V9243 06183 99221 11151 41/97 /0520 10147 40233 58014 70222 8//// 22223 00202 2////
AAXX 06181 22583 12480 71401 11008 21012 39982 40062 52012 69960 875// 333 11002 87612
BBXX 46145 06181 99544 71324 46/// /1713 10060 40091 57008 22200 00069 10604 70020 333 91216
AAXX 06181 21432 42998 72602 11296 21326 30290 40311 53001 83031
BBXX 46131 06181 99499 71250 46/// /1208 1//// 40248 52003 22200 00076 10301 70004 333 91210
BBXX 46131 06181 99499 71250 46/// /1208 1//// 40248 52003 22200 00076 10301 70004 333 91210
AAXX 06184 84072 11565 80404 10167 20110 37308 69941 72045 8321/ 333 59007 555 10004 30069
AAXX 06184 84036 31568 81408 10157 20114 70544 8555/ 555 30075
AAXX 06184 84143 12565 71612 10166 20116 37409 69931 86830 333 58010 555 10003 30072
AAXX 06184 84270 11565 50408 10210 20118 69991 74025 85500 555 10009 30056
AAXX 06184 84204 11668 70504 10280 20222 69931 72044 83410 555 10003 30070
AAXX 06184 84202 31570 72702 10268 20205 30160 70544 85210 333 59020 555 30068
AAXX 06184 84135 12675 70902 10298 20226 30070 60011 86230 333 59026 555 10010 30065
AAXX 06184 84160 31575 70904 10179 20086 37269 70544 85530 333 58004 555 30054
AAXX 06184 84179 11560 70000 10231 20208 39063 69941 71794 85960 333 58002 555 10004 30087
AAXX 06184 84140 32581 71804 10284 20221 30032 40117 84150 333 59026 555 30069
AAXX 06184 84226 31/00 90000 10110 20110 74744 89/// 555 30100
AAXX 06184 84076 11570 73602 10165 20128 69911 70545 87400 555 10001 30078
AAXX 06184 84008 11559 71410 10249 20238 30126 40136 60061 75065 86810 00231 333 59012 555 10061 30094
AAXX 06184 84132 31470 80404 10267 20234 39895 70544 8727/ 333 58008 555 30082
AAXX 06184 84105 31562 73604 10284 20223 31001 70542 84510 333 59002 555 30069
AAXX 06184 84088 31565 80000 10150 20114 37069 70546 883// 333 59005 555 30079
AAXX 06184 84050 31565 51812 10276 20213 70545 84210 555 30069
AAXX 06184 84045 31440 80906 10119 20096 74545 888// 555 30086
AAXX 06184 84056 12280 72304 10170 20092 69971 87800 555 10007 30056
AAXX 06184 84001 31565 71210 10288 20218 30112 40132 71644 83230 333 59009
AAXX 06184 84010 11456 71407 10244 20233 60071 72162 87800 555 10074
AAXX 06184 84018 31580 30107 10276 20246 30112 40119 70544 82230 333 59015
AAXX 06184 84027 11575 70708 10145 20113 37172 47146 60011 72142 87200 333 59005 555 10010
AAXX 06184 84063 32580 50000 10288 20231 39759 40087 83201 333 58005
AAXX 06184 84069 11565 72404 10262 20214 60021 70364 83230 555 10023
AAXX 06184 84071 11665 70101 10167 20076 37284 47136 69971 71564 85270 333 59004 555 10007
AAXX 06184 84099 11575 60000 10275 20234 3//// 40110 60091 70262 83130 333 58/// 555 10092
AAXX 06184 84101 31462 73006 10264 20228 30104 40118 70544 83230 333 59017
AAXX 06184 84117 11562 73006 10275 20231 30098 40121 69941 70564 84230 333 59026 555 10004
AAXX 06184 84123 11558 71912 10160 20114 37298 47137 69931 71664 86230 333 58004 555 10003
AAXX 06184 84147 11565 60000 10163 20128 69931 72164 84230 555 10003
AAXX 06184 84163 11565 71605 10239 20195 38957 48510 69951 75182 83230 333 58002 555 10005
AAXX 06184 84176 32680 40510 10207 20119 84200
AAXX 06184 84200 31465 73606 10258 20223 70544 87800
AAXX 06184 84203 12560 70903 10268 20194 30113 40118 69941 75130 85130 333 59016 555 10004
AAXX 06184 84217 11556 62903 10230 20193 60041 71798 84930 555 10040
AAXX 06184 84239 31680 72105 10181 20117 37540 47151 71521 86200 333 59006
AAXX 06184 84252 11570 80404 10275 20221 30119 40127 69901 70544 8722/ 333 58008 555 1 T
AAXX 06184 84265 32680 42602 10250 20162 38762 4//// 84100 333 59007
AAXX 06181 31532 41999 60000 11276 21293 39980 40365 53003 70272 80001
AAXX 06184 41257 36/// /0302 10185 20158 39702 40192 333 0E018 10250 58000
AAXX 06184 65545 31940 2//// 10302 20105 39986 40110 70500 80002 333 10344 58004 82076
AAXX 06184 65560 32958 2//// 10314 20194 39786 40093 80002 333 10340 59003 82076
AAXX 06184 65563 32956 32604 10303 20193 39861 40102 80002 333 10330 58000 83076
AAXX 06184 65585 32456 2//// 10287 20244 3//// 4//// 81501 333 10320 5//// 81613
AAXX 06184 65592 32458 6//// 10282 20250 30075 40098 82202 333 10310 59004 82813 86076 94908
AAXX 06184 65594 32458 72802 10280 20244 30075 40109 85902 333 10306 58003 81915 84815 87080 94919 94946 95876
AAXX 06184 65599 32458 6//// 10271 20254 30023 40097 82902 333 10304 58005 82915 86076 94946 95836
AAXX 06184 61017 NIL
AAXX 06184 61045 32960 50000 10205 21005 39640 40148 80002 333 10255 59013 85080
AAXX 06184 61017 NIL
AAXX 06184 61045 32960 50000 10205 21005 39640 40148 80002 333 10255 59013 85080
BBXX 46204 06181 99514 71288 46/// /1414 10058 40169 57004 22200 00078 11107 70036 333 91217
AAXX 06181 37661 42998 02101 11011 21017 39392 40171 57003 333 10030
AAXX 06181 37675 32998 01102 10030 20003 39442 52001 333 10134 555 53006
AAXX 06181 37729 42597 62703 10012 20004 38498 53002 86500 333 10110 53007
AAXX 06181 37735 42998 02702 10009 21027 39770 40155 53012 333 10050
AAXX 06181 37740 42596 52001 11017 21020 39354 40183 52012 85500 333 10055
AAXX 06181 37749 42998 62902 10022 21008 30079 40198 58002 86080 333 10069 555 53004
AAXX 06181 37832 32997 03001 11016 21028 40166 52004 333 10071
AAXX 06181 37851 42598 51906 10052 20017 30074 40147 57005 83530
AAXX 06181 37864 32597 41910 10060 20026 40145 57002 84500 333 10079 84623
AAXX 06181 37905 42597 02301 10005 21009 40177 58015 333 10048
AAXX 06181 37923 42996 73606 10051 20027 40141 54000 87070 333 10078 555 53010
AAXX 06181 37925 42997 83201 10050 20017 30197 40167 53004 8807/ 333 10072 555 53004
AAXX 06181 37985 42596 83601 10056 20029 30183 40168 58006 885// 333 10072
AAXX 06181 37989 42996 83002 10044 20027 40178 53007 8803/ 333 10091
BBXX 46204 06181 99514 71288 46/// /1414 10058 40169 57004 22200 00078 11107 70036 333 91217
AAXX 06181 21802 42999 03403 11385 21401 30364 40392 52010
AAXX 06181 24125 42998 03602 11390 21411 30090 40419 52007
AAXX 06181 24136 41999 02103 11480 21511 30266 40382 52006
AAXX 06181 24143 42999 03601 11467 21501 30254 40314 52005
AAXX 06181 24266 42998 10000 11492 21516 30119 40332 52010 80001
AAXX 06181 24329 42998 00000 11442 21459 30067 40428 52012
AAXX 06181 24343 42997 43303 11393 21422 30164 40302 57001 80002
AAXX 06181 24382 41992 80000 11465 21494 30035 40337 52008 74474 80006
AAXX 06181 24639 42998 02801 11417 21443 30178 40359 52010
AAXX 06181 24641 42999 02802 11418 21449 30157 40325 52005
AAXX 06181 24652 41997 82706 11382 21409 30140 40283 52006 77173 86037
AAXX 06181 24656 42999 82702 11346 21374 30156 40273 52004 80007
AAXX 06181 24671 41999 60000 11369 21391 39695 40274 53012 70272 80008
AAXX 06181 24688 41998 80301 11480 21511 39287 40382 54000 77172 80007
AAXX 06181 24724 42999 23503 11335 21359 39787 40392 52016 80001
AAXX 06181 24738 42998 23001 11373 21388 30148 40352 52006 80001
AAXX 06181 24768 42998 52502 11351 21387 30014 40280 52005 80001
AAXX 06181 24923 41698 82902 11219 21244 30006 40339 52009 77172 84507 333 84633
AAXX 06181 24944 41996 83405 11254 21285 39993 40314 54000 77172 84037
AAXX 06181 24951 42999 63101 11258 21289 30105 40289 53002 80002
AAXX 06181 24661 41998 80000 11417 21443 39954 40265 52006 74011 80007
AAXX 06181 24959 42999 82101 11330 21360 30134 40279 52005 83031
AAXX 06181 24962 42998 80000 11336 21365 30073 40285 52003 80007
AAXX 06181 24966 41999 80000 11272 21290 30024 40263 52008 70272 80007
AAXX 06181 24967 42999 80000 11357 21386 30056 40306 54000 80006
AAXX 06181 25206 41997 82102 11379 21409 30218 40250 52011 77177 80007
AAXX 06181 25400 41998 80000 11399 21421 30196 40260 52005 72272 80007
AAXX 06181 30054 42998 71703 11234 21266 30091 40356 57003 83041
AAXX 06181 30089 41998 80000 11205 21224 30064 40296 57002 77177 80007
AAXX 06181 30393 41999 82003 11242 21260 39193 40329 57013 72272 85037
AAXX 06181 30493 42999 62901 11313 21336 39210 40388 57007 80005
AAXX 06181 31004 41496 82601 11164 21183 39381 40261 57007 78582 86907 333 86911
AAXX 06181 31137 42999 50000 11479 21499 39209 40461 58013 80001
BBXX 9HA2479 06184 99175 31649 46/// /2414 10265 20205 30045 40074 57003 22254 04288 85223
BBXX C6FS9 06184 99320 31530 46/// /2110 10207 20127 30114 40150 57003 22243 04248 85158
BBXX VROB 06184 99068 31470 46/// /3206 10246 20226 30050 40075 57018 22200 04305 85231
BBXX VNAH 06184 99358 31305 46/// /3020 10187 20163 39981 40004 57020 22263 04187 85171
BBXX FHZI 06184 99429 31473 46/// /3301 10146 20093 30105 40116 57011 22200 04182 85117
BBXX 9KWP 06183 99161 30992 41697 61216 10260 20215 40124 58010 70211 83534 22234 2//// 80230
BBXX VNAA 06184 99481 31466 41297 82825 10110 20086 40064 57015 70255 8/7// 22243 00115 20402 327// 41006
BBXX 9V8207 06183 99308 51382 41/97 73013 40103 52006 75051 8622/ 22224 2//// 326// 40504
AAXX 06184 87244 32570 73602 10318 20183 39730 4//// 5//// 83272 333 56466 57846 83820
BBXX 41036 06181 99342 70770 46/// ///// 10176 20065 40183 91820 22200 00190
AAXX 06181 28867 12598 82006 11054 21092 30069 40349 52010 69900 885// 333 11055
AAXX 06181 28952 129// 02003 11080 21102 30151 40351 52010 69900 333 11026
AAXX 06181 36208 315// 80602 11084 21125 39374 40394 54000 77172 8372/ 333 11047
AAXX 06181 36428 329// 60000 11215 21240 39908 40459 51001 82041 333 11179 95090
AAXX 06181 36639 329// 00000 11228 21256 39769 40439 58002 333 11089
AAXX 06181 36864 325// 80903 11052 21066 39443 40369 58004 885// 333 11036
AAXX 06181 38196 12498 60202 11060 21095 39335 40358 58008 69900 83602 333 11041
AAXX 06181 38198 129// 00000 11086 21097 30092 40366 58007 69900 333 11021
AAXX 06181 38328 319// 81701 11076 21081 39587 40355 57006 71022 8807/ 333 11045
AAXX 06181 38334 11996 81003 11054 21075 39342 40243 58010 69900 77172 8802/ 333 11017
AAXX 06181 38439 32598 80302 11064 21080 30002 40358 58008 885// 333 11042
BBXX 9HA2479 06184 99175 31649 46/// /2414 10265 20205 30045 40074 57003 22254 04288 85223
BBXX C6FS9 06184 99320 31530 46/// /2110 10207 20127 30114 40150 57003 22243 04248 85158
BBXX VROB 06184 99068 31470 46/// /3206 10246 20226 30050 40075 57018 22200 04305 85231
BBXX VNAH 06184 99358 31305 46/// /3020 10187 20163 39981 40004 57020 22263 04187 85171
BBXX FHZI 06184 99429 31473 46/// /3301 10146 20093 30105 40116 57011 22200 04182 85117
BBXX 9KWP 06183 99161 30992 41697 61216 10260 20215 40124 58010 70211 83534 22234 2//// 80230
BBXX VNAA 06184 99481 31466 41297 82825 10110 20086 40064 57015 70255 8/7// 22243 00115 20402 327// 41006
BBXX 9V8207 06183 99308 51382 41/97 73013 40103 52006 75051 8622/ 22224 2//// 326// 40504
AAXX 06181 28867 12598 82006 11054 21092 30069 40349 52010 69900 885// 333 11055
AAXX 06181 28952 129// 02003 11080 21102 30151 40351 52010 69900 333 11026
AAXX 06181 36208 315// 80602 11084 21125 39374 40394 54000 77172 8372/ 333 11047
AAXX 06181 36428 329// 60000 11215 21240 39908 40459 51001 82041 333 11179 95090
AAXX 06181 36639 329// 00000 11228 21256 39769 40439 58002 333 11089
AAXX 06181 36864 325// 80903 11052 21066 39443 40369 58004 885// 333 11036
AAXX 06181 38196 12498 60202 11060 21095 39335 40358 58008 69900 83602 333 11041
AAXX 06181 38198 129// 00000 11086 21097 30092 40366 58007 69900 333 11021
AAXX 06181 38328 319// 81701 11076 21081 39587 40355 57006 71022 8807/ 333 11045
AAXX 06181 38334 11996 81003 11054 21075 39342 40243 58010 69900 77172 8802/ 333 11017
AAXX 06181 38439 32598 80302 11064 21080 30002 40358 58008 885// 333 11042
BBXX VRWG3 06184 99494 70048 41/// 52622 10130 20026 40300 54000 75011 85/// 22262 00140 214// 3//// 4//// 5//// 6//// 80080 ICE /////
BBXX WDC8307 06184 99441 70826 41/98 72520 10066 2//// 40017 53/// 70202 8//// 22253 00022 2//02 3//// 4//// 5//// 6//// 8//// ICE /////
BBXX WKAB 06184 99180 10637 41298 10809 10238 20191 40164 54000 70200 81100 22264 00252 20201 309// 40302 5//// 6//// 80206 ICE /////
BBXX WAZV 06184 99492 71285 41298 81630 10060 2006/ 40175 57051 76165 847// 22273 00090 20303 32819 40707 5//// 6//// 80060 ICE /////
AAXX 06184 67765 42684 11502 10232 20149 38651 48495 81902 333 10293 59009 81945
AAXX 06184 67775 42980 11406 10207 20112 38506 48510 80002 333 10270 59001 81080
AAXX 06184 67779 NIL
AAXX 06184 67853 NIL
AAXX 06184 67861 NIL
AAXX 06184 67867 42880 10000 10202 20121 38578 48506 81402 333 10280 59004 81657
AAXX 06184 67881 42980 31602 10210 20156 38578 48506 80002 333 10265 59008 83080
AAXX 06184 67965 42780 11506 10231 20122 38687 48498 81400 333 10316 59003 81650
AAXX 06184 67975 42980 01001 10232 20130 38915 48507 333 10293 59016
AAXX 06184 67977 42980 00804 10279 20152 39651 48538 333 10355 59003
AAXX 06184 67983 42980 20000 10214 20135 38881 48508 80002 333 10275 59009 82080
AAXX 06184 67991 42980 00000 10309 20174 39565 48488 333 10357 59005
AAXX 06181 30157 41997 81404 11279 21317 30078 40397 58012 77171 85037
BBXX 46088 06181 99483 71232 46/// /1405 10058 40253 91820 22200 00077 11002 20201 325// 41001 70008 333 91206 555 11056 22058 31751 41307 61819 138054 132060 130062 134062 134059 134055
BBXX 46087 06181 99485 71247 46/// /1305 10068 20035 40251 91820 22200 00083 333 91206 555 11048 22050 31746 41308 61819 130047 137048 141047 137051 133049 135043
AAXX 06184 91650 NIL
AAXX 06184 91652 NIL
AAXX 06184 91656 NIL
AAXX 06184 91659 11599 82814 10243 2023/ 40090 55000 60101 76066 8487/ 333 5669/ 84820 83640 88460
AAXX 06184 91660 NIL
AAXX 06184 91669 36/// /2904 10239 2//// 40081 52005 91815
AAXX 06184 91670 36/// /2500 10243 20231 40079
AAXX 06184 91676 14/// /3204 10263 20238 30000 40060 50004 69951
AAXX 06184 91680 11495 80000 10235 20232 40082 53008 60351 76086 8687/ 333 5699/ 84818 86642 88460
AAXX 06184 91682 NIL
AAXX 06184 91683 11498 70000 10236 20235 40065 56002 60031 78068 8687/ 333 5699/ 84818 85648 87461
AAXX 06184 91691 14/// /3103 10269 20252 30068 40071 50015 60031
AAXX 06184 91693 NIL
AAXX 06184 91697 14/// /3004 10263 20243 30058 40063 50006 60011
AAXX 06184 91699 14/// /2302 10250 20241 30029 40061 50008 60011
BBXX V2QD4 06183 99381 31513 41498 50514 10180 20164 40129 56011 70311 84184 22224 00200 20401 322// 41004
BBXX ZMFR 06184 99429 51758 43/// /3520 10167 20156 40151 52015 22222 00155
BBXX SHIP 06184 99200 51200 41296 80711 10242 20193 40166 50014 76062 8462/ 22200 04254 20302 31714 40904 50703
BBXX 7JKC 06184 99067 31188 41496 63221 00 10260 2//// 40040 54 76255 87890 9//// 22253 00260 1//// 2 3 // 4 5//// 6//// 80240 /////
BBXX A8GP6 06183 99186 31086 41498 51610 10250 20207 40105 56005 70211 8419/ 22284 04284 20301 80220 40302 80230
BBXX 2AKI2 06183 99019 30874 41498 32807 10275 20230 40128 57007 70200 82140 22254 00291 20201 32700 40902 5//// 80244
BBXX A8IH2 06183 99313 51749 41296 80830 10215 20193 40090 56020 76052 8/700 22254 20507 304// 40608 5//// 80200
BBXX OXVD2 06183 99270 10516 41998 01204 10195 20177 40184 53004 70200 80000 22263 04220 20000 300// 40000 5//// 80184
BBXX WKAB 06184 99180 10637 41298 10809 10238 20191 40164 54000 70200 81100 22264 00252 20201 309// 40302 5//// 6//// 80206 ICE /////
BBXX OXHY2 06183 99123 10464 41/98 /0603 10245 20194 40159 51016 7//00 8//// 22224 20101 3//// 4//// 5//// 80210
BBXX PHAA 06183 99143 50340 41399 61010 10267 20209 40150 58014 70222 83130 22243 20301 80226 91239
BBXX DCAX2 06183 99329 51145 41496 80923 10190 20142 40280 54000 72566 87758 22223 21204 313// 41204 5//// 80160
BBXX BATFR53 06184 99115 51053 44598 81217 10229 20174 40167 58004 70222 8857/ 22222 00235 202// 31420 40602 520//
BBXX IDDUK02 06184 99539 50380 46/// ///// 49950 222//
BBXX BAREU54 06184 99038 70772 46/// ///// 40107 22251
BBXX 9V9243 06183 99221 11151 41/97 /0520 10147 40233 58014 70222 8//// 22223 00202 2////
BBXX SHIP 06184 99198 11199 41497 73626 10220 20200 40183 57014 70222 8666/ 22254 00242 2//// 3//// 4//// 80205 ////
BBXX HZGH 06183 99146 10736 41396 73510 10260 20238 40163 51/// 71022 84678 22244 02268 20302 33500 40302 5//// 80245
BBXX A8JX9 06183 99359 11433 41/// /0450 10105 20094 40175 56013 70000 8//// 22214 2//// 3//// 4//// 5//// 80099
BBXX SHIP 06184 99198 11199 41497 73626 10220 20200 40183 57014 70222 8666/ 22254 00242 2//// 3//// 4//// 80205 NNNN
BBXX DHZQ 06184 99497 11603 41/98 80312 11005 21048 40095 53050 70272 8//// 22253 00020 2//// 81020
BBXX DDAC2 06180 99518 11654 41498 60405 11006 21017 40080 54000 7//22 84460 22263 04038 20301 309// 40704 5//// 81010
BBXX 46204 06181 99514 71288 46/// /1414 10058 40169 57004 22200 00078 11107 70036 333 91217
BBXX 46131 06181 99499 71250 46/// /1208 1//// 40248 52003 22200 00076 10301 70004 333 91210
BBXX 46145 06181 99544 71324 46/// /1713 10060 40091 57008 22200 00069 10604 70020 333 91216
BBXX SHIP 06184 99338 71521 41498 81818 10190 20159 1 40216 57004 7636 87727 22263 00230 020302 327// 40303 80170
BBXX 46183 06181 99536 71311 46/// /1515 10060 40120 57006 22200 00076 10707 70034 333 912//
BBXX SHIP 06184 99500 71576 41396 81431 10080 20060 40970 57075 76126 887// 91800 22224 00060 20505 313// 40707 80070
BBXX 46147 06181 99518 71312 46/// /2308 10069 40133 52009 22200 00075 10808 70040 333 91211
BBXX SHIP 06184 99338 71521 41498 81818 10190 20159 40216 57004 7636 1 87727 22263 00230 020302 327// 40303 80170
BBXX 9HXC9 06184 99224 70777 41598 30618 10214 20048 40186 55003 7//00 83100 22274 04260 20502 3//// 40802 5//// 6//// 80126 ICE /////
BBXX SHIP 06184 99216 71256 41498 60515 10205 20164 40200 53010 703// 82132 22224 04200 2//04 332// 41207 80180
BBXX 46207 06181 99509 71299 46/// /1612 10060 40154 52003 22200 00079 10806 70030 333 91214
BBXX OZDQ2 06183 99268 71169 41498 33515 10180 20148 40180 51020 70100 82203 22224 00170 20202 30000 80160
BBXX PFBE 06183 99424 70516 41597 62224 10145 20138 40015 58028 76066 84718 22224 04130 20305 80141 91239
BBXX WXJ63 06183 99611 71464 41/92 92611 11017 21020 49926 52/// 775// 8//// 222// 00044 2//// 3//// 4//// 5//// 6//// 8//// ICE /////
BBXX KCGJ 06183 99543 71635 41/97 40430 11067 2//// 49950 5//// 702// 8//// 222// 0//// 2//03 305// 4//03 5//// 6//// 8//// ICE /////
BBXX V7HC6 06184 99273 70907 416// 51717 10230 20185 40216 57014 7//22 852// 22200 00220 20301 320// 40702 5//// 6//// 80200 ICE /////
BBXX KEY796 06183 99571 71703 41/97 80418 11105 21150 40046 55/// 726// 8//// 222// 01011 2//// 3//// 4//// 5//// 6//// 8//// ICE /////
BBXX WE3592 06184 99443 70828 43/// /2424 10050 2//// 40007 5//// 7//// 8//// 222// 0//// 2//// 3//// 4//// 5//// 6//// 8//// ICE /////
BBXX 62103 06184 99499 70029 46/97 /2722 10107 20096 40266 56014 22200 00115 10803 70016 333 90710 91130
BBXX 62305 06184 99504 10000 46/98 /2726 10097 20056 40267 57014 22200 00112 10701 70007 333 90710 91132
BBXX 62304 06184 99511 10018 46/98 ///20 10083 20027 40247 58014 22200 00104 10602 70009
BBXX 62095 06184 99531 70159 46/// /2715 10107 20100 40240 53009 22200 00110 10707 70035
BBXX 64045 06184 99591 70117 46/// /2731 10071 20037 40042 50000 22200 00098 10810 70049 333 90710 91139
BBXX 62304 06184 99511 10018 46/98 /2517 10085 20028 40249 57014 22200 00104 10602 70009
BBXX 62103 06184 99499 70029 46/98 /2623 10104 20078 40268 57019 22200 00115 10903 70016 333 90710 91129
BBXX 62094 06184 99517 70067 46/// /2421 10105 20096 40250 57010 22200 00103 10504 70022 333 90710 91129
BBXX 62027 06184 99491 70022 46/// /2714 1//// 2//// 40286 57009 22200 00113 11203 331// 70016
BBXX 62170 06184 99514 10020 46/97 /2420 10079 20034 40242 57015 22200 00100 10602 70010 333 90710 91125
BBXX 62113 06184 99584 10002 47598 /2221 10067 20026 40057 57045 700// 22200
BBXX ZQSD5 06184 99583 10007 46/// /2216 10068 20034 40065 57042 22200 10706 70032
BBXX 62114 06184 99583 10000 46/// /2124 10070 20041 40043 57054 22200
BBXX 62134 06184 99580 10014 47498 /2220 10068 20020 40058 58050 700// 22200 10605 70024
BBXX 62117 06184 99579 10000 47497 /2222 10078 20037 40059 57048 751// 22200 10504 70022
BBXX 62102 06184 99579 10018 46/// /2218 10065 20005 40069 57041 22200 10605 70024
BBXX 62143 06184 99577 10018 47497 /2310 10068 20025 40073 57051 700// 22200 10605 70024
BBXX 62118 06184 99577 10009 47497 /2224 10087 20042 40061 57046 700// 22200 10605 70024
BBXX 62155 06184 99577 10007 47497 /2426 10074 20035 40075 57043 751// 22200 10605 70023
BBXX 62116 06184 99576 10011 47497 /2423 10070 20039 40066 57048 700// 22200 10605 70025
BBXX 62104 06184 99574 10013 47497 /2420 10077 20029 40072 57047 700// 22200
BBXX 62153 06184 99573 10020 47497 /2321 10068 20039 40084 57041 700// 22200 10605 70025
BBXX 62148 06184 99536 10015 46/// /2321 10066 20039 40195 57018 22200
BBXX 62146 06184 99572 10021 47/97 /2418 10068 20026 40092 57039 700// 22200 10605 70027
BBXX 62122 06184 99573 10016 47497 /2320 10078 20033 40089 57043 700// 22200 10605 70024
BBXX 62140 06184 99573 10013 46/// /24// 10070 20041 40077 57045 22200
BBXX 62164 06184 99572 10008 47497 /2224 10105 20060 40085 57045 700// 22200 00087 10605 70025
BBXX PJGO 06184 99571 10022 47/96 /2214 10063 20063 40094 57037 762// 22200
BBXX 62152 06184 99570 10018 47/97 /2117 10068 20021 40100 57039 700// 22200 10505 70026
BBXX 62133 06184 99571 10009 46/// /2417 10070 20037 40080 57047 22200
BBXX 62119 06184 99570 10019 47497 /2424 10069 20024 40097 57041 700// 22200 10505 70025
BBXX 62154 06184 99564 10022 46/// /2319 10069 20032 40109 57035 22200
BBXX 62132 06184 99564 10020 46/// /2618 10074 20025 40107 57038 22200
BBXX 62120 06184 99564 10021 47497 /2522 10072 20039 40106 57038 700// 22200
BBXX 62123 06184 99563 10022 47597 /2422 10072 20024 40110 57036 700// 22200
BBXX 62127 06184 99540 10007 46/// ///// 10069 20038 40174 57027 22200 10605 70024
BBXX 62165 06184 99540 10009 47696 /2423 10069 20041 40178 57028 762// 22200 10605 70026
BBXX 62149 06184 99537 10011 47598 /2321 10069 20041 40187 57022 700// 22200 10604 70020
BBXX 62131 06184 99539 10012 46/// /23// 10069 20044 40178 57026 22200
BBXX 62150 06184 99536 10007 47598 /2316 10069 20037 40195 57023 700// 22200 10705 70024
BBXX 64041 06184 99607 70026 47296 /2220 10076 20076 49961 57049 761// 22200 10807 70037
BBXX MWYG6 06184 99603 70040 47997 /2725 10091 700// 22200
BBXX LF4B 06184 99606 10037 47/98 /2206 10050 40036 57034 723// 22200 00050 10806 70031 333 91121
BBXX LF3F 06184 99643 10078 43/// /3611 10034 21058 40002 57004 22200 04086 10909 70044 333 91131
BBXX 3ERR2 06184 99635 10053 41598 80604 10047 21005 40006 57019 71582 8337/ 22200 06089 10909 70043 333 91123
BBXX BATFR22 06184 99433 10053 46/// /3234 10127 40214 52010 22243 00137
BBXX BAREU11 06184 99478 70116 46/// ///// 40348 52014 22254
BBXX BATFR27 06184 99564 10073 46/// /2932 10079 20022 40106 58026 22214 00082
BBXX BATFR12 06184 99483 70057 46/// /2714 10119 20100 40316 56001 22272 00139
BBXX BATFR54 06184 99365 70087 46/// /0207 10144 20090 40272 55009 22222 00167
BBXX BATFR34 06184 99476 70054 46/// /3013 4//// 22200 00132
BBXX 9VBM6 06183 99313 70116 41898 40114 10210 20146 40270 52010 7//22 83189 22243 00200 20302 3//// 40303 50302 6//// 80170 /////
BBXX KSDF 06184 99367 10009 41498 23307 10167 20149 40250 52010 70100 821// 22253 0//// 20301 329// 40702 5//// 6//// 80156 /////
BBXX 61002 06184 99421 10047 46/// ///33 10122 2//// 40242 52006 22200 00133 10708 70038 555 1/044
BBXX 61001 06184 99434 10078 46/// /2608 10135 20038 40158 52026 22200 00134 10604 70018
BBXX BATUK01 06184 99581 70034 46/// /2217 10089 20054 40043 56041 22211 00079
BBXX BATEU04 06184 99586 70028 46/// /2225 10070 20052 40026 56026 22223
BBXX BATEU08 06184 99585 70020 46/// /2824 10079 20059 40024 56057 22262
BBXX BATFR42 06184 99503 70018 46/// /2432 10102 20077 40249 22244 00117
BBXX BATEU06 06184 99496 70052 46/// /2822 10127 20090 40280 53019 22254 00120
BBXX BATFR58 06184 99432 10067 46/// /2917 40173 51023 22200 00155
BBXX BATFR60 06184 99540 10082 46/// /2726 10065 20040 40152 50012 22262 00052
BBXX BATFR04 06184 99575 70061 46/// /2627 10094 20052 40069 55005 22200 00097
BBXX BATFR03 06184 99502 70007 46/// /2723 10100 20052 40263 58029 22284
BBXX BAREU06 06184 99386 10003 46/// ///// 40262 52019 22254
BBXX BATFR02 06184 99539 10045 46/// /2622 10062 20017 40190 58025 22214 00094
BBXX BAREU04 06184 99467 70290 46/// ///// 40293 52007 22223
BBXX BAREU51 06184 99383 10128 46/// ///// 40043 57009 22224
BBXX 63115 06184 99616 10013 47598 /1614 10092 20014 49996 57055 700// 22200 10807 70034
BBXX 63104 06184 99612 10016 47598 /1915 10055 20010 40007 57050 700// 22200
BBXX 63117 06184 99613 10011 47598 /1914 10055 21006 40003 57052 762// 22200
BBXX 63103 06184 99612 10011 46/// /1915 10056 20010 40000 57059 22200 10806 70029
BBXX 63101 06184 99612 10009 46/// /2017 10052 20020 40000 57054 22200
BBXX 63107 06184 99611 10017 46/// /1916 10055 40008 57050 22200
BBXX 63112 06184 99611 10010 46/// /2017 10057 20008 49998 57056 22200 10806 70030
BBXX 63113 06184 99610 10017 46/// /2414 10057 20010 40011 57051 22200 10806 70031
BBXX 63106 06184 99610 10017 46/// /1912 10053 40010 57050 22200
BBXX 63105 06184 99610 10017 47598 ///// 10061 20013 40009 57051 700// 22200
BBXX 63108 06184 99608 10017 47998 /2116 10050 20008 40009 57049 700// 22200 10905 70027
BBXX 63055 06184 99606 10016 47297 /2113 10053 20012 40019 57048 740// 22200 10805 70026
BBXX 62112 06184 99584 70002 47697 /2224 10071 20042 40044 57052 762// 22200
BBXX PJAI 06184 99581 70014 47698 /2216 10078 20037 40046 57046 700// 22200
BBXX 62111 06184 99580 70003 46/// /2425 10073 20046 40064 57048 22200 10504 70021
BBXX 62142 06184 99530 10021 47897 /2416 10058 20033 40200 57016 700// 22200 10605 70023
BBXX 62145 06184 99531 10028 47/// ///// 700// 22200
BBXX 62144 06184 99534 10017 47797 /2421 10063 20037 40199 57018 700// 22200 10504 70021
BBXX 62121 06184 99535 10027 46/// /2420 10059 20026 22200
BBXX 63110 06184 99595 10015 47598 /2221 10058 20016 40029 57050 700// 22200 10605 70024
BBXX 63056 06184 99597 10016 47498 /2118 10054 20012 40026 57041 700// 22200 10705 70024
BBXX 63109 06184 99596 10015 46/// /2320 10074 20024 40030 57049 22200
BBXX 63057 06184 99592 10015 47598 /2223 10062 20012 40039 57045 700// 22200 10705 70024
BBXX 62128 06184 99587 10014 47598 /2224 10061 20016 40048 58043 700// 22200 10605 70025
BBXX 62105 06184 99554 70121 46/// /2725 10100 20046 40168 52012 22200 00106 10809 70046 333 90710 91135
BBXX 62129 06184 99584 10003 46/// ///// 10068 20033 40056 57047 22200
BBXX 62081 06184 99510 70134 46/// ///// 10118 20105 40286 57004 22200 00112 10706 70030
BBXX 64045 06184 99591 70117 46/// /2729 10071 20037 40042 50000 22200 00098 10810 70049 333 90710 91139
BBXX 62442 06184 99490 70164 46/// /2516 1//// 2//// 40328 53002 22200 00119
BBXX 62303 06184 99516 70051 46/// /2619 10105 20089 40250 58007 22200 00107 10604 70021 333 90710 91126
BBXX 62301 06184 99524 70047 46/// /2415 10091 20081 40226 58017 22200 00084 10503 70017
BBXX 62107 06184 99501 70061 46/// /2926 10101 20088 40289 57003 22200 00114 11005 70023 333 90710 91129
BBXX 62001 06184 99452 70050 46/// /2904 10126 20102 40338 53005 22200 00133 11007 70036
BBXX 64046 06184 99605 70049 46/// /2823 10077 20048 49972 56020 22200 00074 10708 70039
BBXX 62029 06184 99487 70125 46/// /2515 10124 20107 40332 55001 22200 00124 10806 70032
BBXX 62163 06184 99475 70084 46/// /3014 10104 20076 40340 53002 22200 00123 10907 70034
BBXX MINUK05 0618/ 99575 70016 46/// ///// 10068 40063 57052
BBXX MINUK01 0618/ 99571 70021 46/// ///// 10065 40083 57035
BBXX MINUK04 0618/ 99555 10083 46/// ///// 10058 4//// 52021
BBXX BAREU12 06184 99477 70197 46/// ///// 40335 57001 22264
BBXX VRWG3 06184 99494 70048 41/// 52622 10130 20026 40300 54000 75011 85/// 22262 00140 214// 3//// 4//// 5//// 6//// 80080 ICE /////
BBXX LF3N 06184 99653 10073 41698 60209 10029 21063 40004 52001 70222 8//// 22200 10810 70050
BBXX LF5T 06184 99660 10081 41698 /0517 10024 21007 49993 57007 700// 22200 10808 70038 333 91131
BBXX LF4C 06184 99584 10019 41598 72219 10069 20024 40054 57045 70262 89/// 22200 00068 10704 70020 333 91122
AAXX 06184 40250 32960 00000 10078 20022 39366 40172 52015 333 10144
AAXX 06184 40265 32960 00000 10050 20011 39381 40192 52006 333 10106
AAXX 06184 40296 32960 00000 10146 20064 40159 54000 333 10234
AAXX 06184 40310 32960 10000 10047 21032 38934 48474 52014 80001 333 10121 81070
AAXX 06181 78310 12570 20505 10230 20130 30205 40216 58021 60001 81201 333 10230 20150 30/// 56909 59032 81820 92024
AAXX 06181 78315 12575 31501 10234 20100 30140 40107 58024 60001 83200 333 10240 20114 30/// 56900 59022 83820
AAXX 06181 78318 11563 20303 10230 20102 30206 40210 58025 60001 70500 81802 333 10233 20108 30/// 56909 59030 81820
AAXX 06181 78322 11559 52201 10228 20113 30197 40215 58025 60001 70522 85400 333 10234 20102 30/// 56900 59018 85820
AAXX 06181 78324 NIL
AAXX 06181 78325 11562 50203 10222 20124 30153 40212 58023 60001 70511 85400 333 10238 20136 30/// 56100 57883 59020 85820 555 10501
AAXX 06181 78328 11461 31106 10230 20130 30215 40/// 58014 60001 70500 83800 333 10233 20184 3//// 56100 59017 82817 92427 555 10303
AAXX 06181 78333 11410 11002 10241 20079 30200 40207 58023 60001 70500 81100 333 10244 20093 30/// 56200 59016 81818 555 10803
AAXX 06181 78344 11564 10803 10245 20086 30149 40199 58026 60001 70500 81200 333 10245 20113 30/// 56900 59018 81820
AAXX 06181 78345 12565 40506 10250 20166 30198 40202 57019 60001 84800 333 10252 20116 30/// 56100 59012 81820 83623 555 10502
AAXX 06181 78348 11557 30903 10219 20108 30157 40210 58019 60001 70500 82802 333 10225 20131 30/// 56209 57843 59010 82820 555 10902
AAXX 06181 78349 11565 30502 10231 20084 30094 40204 57026 60001 70500 83200 333 10236 20098 30/// 56800 59011 83822 555 13602
AAXX 06181 78351 12550 50206 10256 20106 30180 40182 58022 60001 85502 333 10256 20127 30/// 56209 59010 85630 555 10703
AAXX 06181 78353 12570 50703 10247 20089 30184 40206 58017 60001 85800 333 10250 20189 30/// 56900 58004 83823
AAXX 06181 78355 12570 50607 10238 20116 30057 40195 58020 60001 84802 333 10240 20140 30/// 56909 59006 81823 83630
AAXX 06181 78358 12550 60707 10256 20172 30174 40189 57019 60001 85801 333 10256 20202 30/// 56209 59011 70001 84823 555 10803
AAXX 06181 78360 12570 10704 10275 20134 30166 40178 58025 60001 81402 333 10280 20174 30/// 56909 59013 818// 92023
AAXX 06181 78363 11564 60404 10256 20139 30048 40165 58027 60001 70511 85201 333 10261 20113 30/// 56109 59010 85820 555 10401
AAXX 06181 78365 11562 60712 10252 20175 30190 40195 58021 60001 70522 86800 333 10254 20226 30/// 56200 57834 59011 85820 92046 555 10703
AAXX 06181 78369 11568 40405 10255 20173 30175 40184 57018 60001 70511 84200 333 10262 20225 30/// 56100 57843 59007 84820 92043 555 10403
AAXX 06184 42309 21495 70502 10152 20138 40177 70522 83230 333 58016 6006/
AAXX 06184 42314 31595 60000 10144 20126 40201 70520 83530 333 58029 83620 86360
AAXX 06184 42398 31994 09901 10100 20100 40194 71000 333 58022
AAXX 06184 42410 31595 40000 10162 20141 40189 70511 82530 333 58025 82620 84360
AAXX 06184 42415 31596 50000 10152 20127 40205 70522 83330 333 58026 82620 81930 84360
AAXX 06184 42492 31594 20502 10146 20135 40186 71000 82500 333 58021 82620
AAXX 06184 42587 31/93 90902 10154 20154 40167 74342 333 58008
AAXX 06184 42591 31/91 90504 10150 20150 40179 74744 333 58012
AAXX 06184 42701 31994 23602 10185 20151 39429 40173 71000 82030 333 58013 82360
AAXX 06184 42706 31495 70000 10180 20170 40166 70521 85530 333 56690 58021 85616 85360
AAXX 06184 42724 31595 60000 10170 20153 40177 70522 83530 333 58015 83620 85360
AAXX 06184 42798 31994 40000 10184 20160 40161 71000 84030 333 58022 84360
AAXX 06184 42809 21494 20000 10190 20177 40170 71000 82500 333 56600 58008 6002/ 82618
AAXX 06184 42886 21995 70000 10198 20188 40153 71096 87030 333 58013 6002/ 87360
AAXX 06184 42895 22496 70000 10218 20199 40163 85520 333 58018 6019/ 85618 86458
AAXX 06184 42971 21595 60904 10236 20224 40158 70562 84531 333 56490 58009 6990/ 84620 85360
AAXX 06184 43333 21495 70708 10264 20232 40147 70562 86401 333 56109 58010 6990/ 82616 84818
AAXX 06184 42623 NIL
AAXX 06184 42977 NIL
AAXX 06184 43368 NIL
AAXX 06181 40650 12960 03603 10103 20039 40165 52017 60002
AAXX 06181 40604 12560 30000 10065 20017 40194 52012 60002 83500
AAXX 06181 40608 11960 00902 10068 20034 40199 52011 69912 70161
AAXX 06181 40621 11958 40902 10105 20040 40192 52003 60012 62160 84030
AAXX 06181 40629 12960 00000 10062 20033 40195 52014 60002
AAXX 06181 40642 12960 00000 10082 20000 40199 52028 60002
AAXX 06181 40656 12960 03505 10118 20042 40136 52019 60002
AAXX 06181 40665 12960 41503 10136 20065 40162 52009 60002 84030
AAXX 06181 40674 12960 42605 10138 20021 40155 52020 60002 82031
AAXX 06181 40676 12960 10000 10148 20065 40159 52018 60002 80001
AAXX 06181 40689 11960 41809 10150 20114 40167 52010 69902 70162 84030
AAXX 06181 40691 12660 60603 10165 20131 40188 51008 60002 83232
BBXX 41053 06181 99185 70661 46/// /0304 10264 40146 58025 91800 22200 00273 11204 70022 333 91206
AAXX 06181 30692 42999 00902 11353 21371 39821 40394 58///
AAXX 06181 60376 16/// /0404 10136 20101 60012 333 10170
AAXX 06181 60593 36/// /0000 10177 333 10238
BBXX A8TG2 06183 99256 71526 41/// 30908 10250 20204 40220 54000 22263 00220 20801 305// 41005 80220
BBXX A8RU5 06184 99366 10132 41/97 /3628 10112 20090 40060 53012 70011 22294 299// 80100
BBXX DAJT 06184 99283 50484 41598 40818 10250 20222 40055 58/// 70211 8314/ 22243 00230 2//02 80230
AAXX 06181 08560 31975 00705 10119 20050 39544 40304 55001 70200 333 10159 91009 91109
AAXX 06181 08560 31975 00705 10119 20050 39544 40304 55001 70200 333 10159 91009 91109 555 60005
BBXX 41053 06181 99185 70661 46/// /0404 10264 40147 91750 333 91206
BBXX 41053 06181 99185 70661 46/// /0404 10263 40147 91740 333 91206
AAXX 06184 40310 32960 10000 10047 21032 38934 48474 52014 80001 333 10121 81070
AAXX 06184 89050 41095 80124 10013 20005 49902 57050 77372 8762/
AAXX 06184 89512 32598 80208 11041 21079 39677 49826 54000 885// 333 11026
AAXX 06184 89574 42598 80704 11002 21052 49737 57026 8557/
AAXX 06184 89592 42998 00806 11024 21054 49850 57013
AAXX 06184 89606 41998 02312 11315 21371 36266 47785 57005 73630 333 11256
BBXX 46109 06181 99481 71234 46/// /2002 10037 40254 91800 22200 00079
AAXX 06184 94996 455// 12014 10194 20131 39933 40067 53007 91830
AAXX 06181 55299 32780 20202 11158 21250 35811 57003 82400 333 00153 11046
AAXX 06181 55591 32980 00901 11049 21198 36486 52012 333 00100 10063
AAXX 06181 56739 32978 00201 10045 20027 38382 52002 333 00200 10161
AAXX 06181 56951 32670 11101 10074 20057 38533 52002 81400 333 00251 10182
AAXX 06181 56964 32970 03201 10106 20094 38736 40179 52001 333 00200 10219
AAXX 06181 57328 31957 80000 10058 20023 39880 40303 52001 71000 8807/ 333 10085
AAXX 06181 57411 31940 83401 10059 20037 39922 40305 52002 71000 8807/ 333 10077
AAXX 06181 57447 32965 82901 10040 20027 39764 40328 52003 8807/ 333 10061
AAXX 06181 57662 32962 83604 10042 21067 30143 40332 52002 8807/ 333 10091
AAXX 06181 57745 31758 80701 10045 21011 39989 40329 52007 71000 885// 333 10057
AAXX 06181 57972 11457 83401 10033 20027 30088 40324 57003 69911 76066 887// 333 10034
AAXX 06181 58203 32962 00202 11052 21111 30332 40376 52004 333 10063
AAXX 06181 58314 32962 00000 11046 21056 30247 40359 52002 333 10079
AAXX 06181 58424 32961 00403 10026 21079 30322 40349 52004 333 10082
AAXX 06181 59023 11563 82502 10066 20059 39971 40292 52001 69901 70060 888// 333 10095
AAXX 06181 59417 11462 80901 10088 20073 30112 40272 57002 69901 76066 887// 333 10106
AAXX 06181 59985 32570 20405 10228 20205 30183 40188 57006 82100 333 10277
AAXX 06181 59995 NIL
AAXX 06181 28867 12598 82006 11054 21092 30069 40349 52010 69900 885// 333 11055
AAXX 06181 28952 129// 02003 11080 21102 30151 40351 52010 69900 333 11026
AAXX 06181 36864 325// 80903 11052 21066 39443 40369 58004 885// 333 11036
AAXX 06181 38196 12498 60202 11060 21095 39335 40358 58008 69900 83602 333 11041
AAXX 06181 38198 129// 00000 11086 21097 30092 40366 58007 69900 333 11021
AAXX 06181 38328 319// 81701 11076 21081 39587 40355 57006 71022 8807/ 333 11045
AAXX 06181 38334 11996 81003 11054 21075 39342 40243 58010 69900 77172 8802/ 333 11017
AAXX 06181 38439 32598 80302 11064 21080 30002 40358 58008 885// 333 11042
AAXX 06184 94996 455// 12014 10194 20131 39933 40067 53007 91830
AAXX 06181 28867 12598 82006 11054 21092 30069 40349 52010 69900 885// 333 11055
AAXX 06181 28952 129// 02003 11080 21102 30151 40351 52010 69900 333 11026
AAXX 06181 36864 325// 80903 11052 21066 39443 40369 58004 885// 333 11036
AAXX 06181 38196 12498 60202 11060 21095 39335 40358 58008 69900 83602 333 11041
AAXX 06181 38198 129// 00000 11086 21097 30092 40366 58007 69900 333 11021
AAXX 06181 38328 319// 81701 11076 21081 39587 40355 57006 71022 8807/ 333 11045
AAXX 06181 38334 11996 81003 11054 21075 39342 40243 58010 69900 77172 8802/ 333 11017
AAXX 06181 38439 32598 80302 11064 21080 30002 40358 58008 885// 333 11042
AAXX 06184 83264 21797 83202 10278 20234 39663 40125 70066 8351/ 333 58004 60021
AAXX 06184 83358 21598 80000 10266 20229 39671 40067 70162 885// 333 58006 60241
AAXX 06184 82678 32596 61801 10338 20216 39960 40098 85502 333 58007
AAXX 06184 82784 32598 21403 10307 20243 39645 40094 82200 333 58013
AAXX 06184 82791 32599 50502 10358 20188 39808 40082 84302 333 58005
AAXX 06184 82983 32598 11406 10334 20215 39681 40087 81100 333 58002
AAXX 06184 82141 32698 33607 10302 20257 30082 40094 83080 333 59017
AAXX 06184 82145 32598 30503 10320 20230 30054 40095 82201 333 59006
AAXX 06184 82181 32497 50708 10316 20217 39980 40119 82230 333 59001
AAXX 06184 82198 32495 40509 10329 20226 30033 40084 84200 333 59005
AAXX 06184 82353 32496 80506 10316 20240 39984 40068 8677/ 333 59004
AAXX 06184 82361 21497 53603 10316 20252 30055 40092 70262 85300 333 59013 69921
AAXX 06184 82476 32595 40505 10334 20195 39970 40089 83650 333 59019
AAXX 06184 82861 32597 40506 10307 20240 39898 40066 82101 333 59001
AAXX 06184 82098 31596 60904 10276 20234 30086 40103 71621 8597/ 333 59002
AAXX 06184 82246 32697 50702 10285 20244 39912 40110 83031 333 58001
AAXX 06184 82445 32697 71402 10284 20244 30068 40120 83575 333 59003
AAXX 06184 82460 32597 60503 10328 20224 30062 40091 86200 333 58034
AAXX 06184 82562 21598 70504 10321 20228 39955 40061 70362 87070 333 59035 69981
AAXX 06184 82571 32497 50906 10302 20229 39914 40088 85200 333 59006
AAXX 06184 82765 21597 80903 10255 20236 39887 40129 75022 8422/ 333 58014 69911
BBXX 46185 06181 99524 71298 46/// /1715 10061 40147 57003 22200 00070 10708 70038 333 91219
BBXX ZCDQ4 31201 06183 99357 10219 41296 70530 10160 20120 47490 54000 76226 89448 22272 00186 20503 30 510 40302 50403 80130
AAXX 06184 41270 36/70 /0806 10225 20149 30129 40141 333 0E022 10248 58008
AAXX 06181 48826 11595 83601 10118 20114 30100 40241 58002 69921 71062 888// 333 58026 83895 88697
AAXX 06181 48839 33497 80210 10138 20118 30170 40238 58003 888// 222// 00157 2//// 333 58026 83894 88696
AAXX 06181 47008 42970 00000 11074 21170 30291 40348 52006
AAXX 06181 47014 42950 00000 11237 21248 39937 40390 52010
AAXX 06181 47016 42970 00000 11226 21258 39488 40405 52008
AAXX 06181 47020 42965 00000 11180 21192 39999 40415 52010
AAXX 06181 47025 42962 02702 11092 21137 30305 40336 52006
AAXX 06181 47035 42965 00000 11089 21149 30360 40369 52002
AAXX 06181 47041 42970 00000 11091 21146 30320 40349 52010
AAXX 06181 47055 42965 00000 11074 21123 30306 40354 52010
AAXX 06181 47058 42960 01801 11127 21133 30316 40368 52010
AAXX 06181 47069 42965 00000 11076 21131 30246 40352 52003
AAXX 06181 47101 32965 00701 11107 21133 30258 40362 52015
AAXX 06181 47105 369// /2710 11037 21119 30305 40339 52009
AAXX 06181 47108 32960 02901 11070 21147 30240 40353 52011
AAXX 06181 47115 32670 70714 11015 21053 30036 40320 53005 87500 333 92044
AAXX 06181 47133 32965 00000 11068 21104 30264 40355 52012
AAXX 06181 47138 32965 02504 11009 21113 30327 40330 52011 333 92022
AAXX 06181 47159 32970 03405 11008 21127 30234 40323 52008 333 92023
AAXX 06181 47165 32965 00000 11028 21080 30295 40344 52008 333 92020
AAXX 06181 47168 32965 03607 11012 21071 30246 40329 52011 333 92023
AAXX 06181 47184 32670 63607 10043 21034 30309 40335 53002 86500 333 92023
AAXX 06181 47003 42980 03205 11080 21167 30343 40347 52008
AAXX 06181 47005 42980 00000 11283 21300 38675 52004
AAXX 06181 47022 42975 00000 11242 21266 38925 52005
AAXX 06181 47028 42962 03201 11088 21148 30277 40378 58006
AAXX 06181 47031 42970 00000 11230 21249 39027 52009
AAXX 06181 47037 42970 03202 11090 21140 30230 40361 53009
AAXX 06181 47039 42960 00000 11136 21161 30173 40380 52009
AAXX 06181 47046 42969 00000 11092 21148 30317 40341 52012
AAXX 06181 47050 42965 00000 11110 21146 30326 40362 52013
AAXX 06181 47052 42965 00000 11166 21185 30011 40384 52011
AAXX 06181 47060 42960 00000 11087 21136 30295 40358 52006
AAXX 06181 47061 42980 00000 11043 21081 30289 40335 54000
AAXX 06181 47065 41960 00000 11108 21121 30296 40366 52010 71000
AAXX 06181 47067 42965 00000 11116 21144 30242 40372 52019
AAXX 06181 47068 42960 00501 11117 21130 30312 40350 52004
AAXX 06181 47070 42970 00000 11097 21128 30264 40358 52013
AAXX 06181 47075 42980 00000 11145 21172 39849 40315 52003
AAXX 06181 24790 41999 00501 11513 21540 39391 40378 57002 77670
AAXX 06181 24988 NIL
AAXX 06181 25378 32998 00000 11288 21318 30028 40065 53002 333 21290 48004 91102
AAXX 06181 25503 41698 80000 11445 21463 30117 40268 52007 77072 81537
AAXX 06181 25705 41996 02502 11445 21469 39898 40289 53006 77670
AAXX 06181 25927 42998 02501 11308 21325 30161 40169 52011
AAXX 06181 25932 42999 03601 11221 21247 30088 40130 58002
AAXX 06181 31152 42997 32002 11293 21324 39831 40277 57005 80002
AAXX 06181 31174 41999 22105 11143 21163 30243 40255 53001 73630 80001 333 91111
AAXX 06181 31489 42998 00000 11263 21275 30160 40289 57001
AAXX 06181 31866 42998 53306 11103 21187 30248 40254 52010 80004 333 91112
AAXX 06181 31959 42998 02708 11115 21177 30223 40268 52004 333 91015 91117
AAXX 06181 31989 42999 00303 11075 21175 30227 40284 53006
AAXX 06181 32027 42999 21102 11251 21276 30245 40254 57003 80002 333 91003 91104
AAXX 06181 32076 41998 23601 11123 21129 30224 40235 54000 70281 82030 333 91003 91103
AAXX 06181 32099 41998 63610 11069 21081 30203 40210 52013 70232 86030 333 91013 91113
AAXX 06181 32121 41997 80403 11067 21109 30206 40229 52012 70282 80007 333 91004 91105
AAXX 06181 32213 NIL
AAXX 06181 32287 41397 71302 11154 21167 30135 40146 52003 78582 86930 333 85707
AAXX 06181 32408 42999 01202 11227 21246 30081 40123 53007
AAXX 06181 32509 42998 03209 11070 21230 30074 40109 54000 333 91013 91114
AAXX 06181 32594 42598 70305 11081 21155 30094 40131 53002 84502
AAXX 06181 47090 32970 02703 11037 21131 30316 40340 52007 333 92032
AAXX 06181 47095 32960 00000 11139 21161 30159 40366 52015
AAXX 06181 47097 329// /0000 11103 21130 30252 40356 52013
AAXX 06181 47098 329// /3602 11104 21136 30209 40354 52012
AAXX 06181 47099 329// /0000 11127 21152 30317 40357 52010
AAXX 06181 47100 32970 00000 11179 21202 39386 40397 52019
AAXX 06181 47102 32668 12908 11035 21099 30172 40360 52008 81500
AAXX 06181 47104 32670 22306 11038 21134 30236 40339 52009 82500
AAXX 06181 47106 329// /2303 11021 21099 30282 40334 52010
AAXX 06181 47112 32962 03603 11065 21140 30264 40354 52009 333 92012
AAXX 06181 47114 32960 00502 11099 21133 30160 40357 52014
AAXX 06181 47119 31957 00000 11087 21123 30308 40353 52010 70500
AAXX 06181 47121 329// /0000 11115 21132 30047 40366 52016
AAXX 06181 47127 329// /0902 11099 21123 30206 40359 52014
AAXX 06181 47129 32962 00001 11095 21115 30321 40360 52010
AAXX 06181 47130 32670 52503 11035 21093 30268 40333 52009 85500 333 92032
AAXX 06181 47131 32965 00000 11073 21106 30278 40354 52012
AAXX 06181 47135 329// /0502 11089 21115 30034 40355 52012
AAXX 06181 47136 32963 00000 11099 21127 30165 40351 52014
AAXX 06181 47137 329// /2504 11048 21139 30222 40347 52011
AAXX 06181 47140 32965 00000 11069 21094 30322 40353 52010 333 92010
AAXX 06181 47143 32968 02703 11022 21120 30265 40348 52011
AAXX 06181 47145 32962 02001 11104 21125 30319 40348 52011
AAXX 06181 47146 32963 01601 11065 21087 30281 40351 52009
AAXX 06181 47150 32968 00203 11076 21111 30331 40352 52010
AAXX 06181 47152 32970 00000 11022 21102 30282 40327 52010
AAXX 06181 47154 329// /3403 11064 21117 30283 40347 52010
AAXX 06181 47155 32970 03603 11006 21125 30282 40330 52008
AAXX 06181 47156 32968 00207 11041 21082 30255 40349 51007
AAXX 06181 47157 32961 03201 11088 21104 30051 40341 52015
AAXX 06181 47162 32965 00503 11011 21076 30285 40327 52009 333 92022
AAXX 06181 47169 32670 53413 10027 21045 30245 40342 53007 85500 333 92044
AAXX 06181 47170 32968 03404 11015 21078 30295 40341 52007 333 92022
AAXX 06181 47171 329// /1102 11070 21094 30294 40353 52008
AAXX 06181 47172 329// /0000 11071 21093 30275 40346 52009
AAXX 06181 47173 329// /0001 11097 21113 30233 40353 52013
AAXX 06181 47174 32965 03206 11038 21082 30126 40339 52008
AAXX 06181 47175 32970 00703 11046 21068 39741 40345 52010 333 92022
AAXX 06181 47185 32670 63417 10052 21024 30234 40327 53005 86500 333 92035
AAXX 06181 47188 32670 23603 10022 21031 30305 40328 52007 82500 333 92022
AAXX 06181 47189 32668 43604 10045 21001 30252 40314 52006 84500 333 92022
AAXX 06181 47192 32962 00000 11074 21099 30299 40339 52011
BBXX 46185 06181 99524 71298 46/// /1715 10061 40147 57003 22200 00070 10708 70038 333 91219
AAXX 06181 48808 32498 80000 10092 20084 39970 40266 52002 888// 333 58035 83894 88696
AAXX 06181 48830 11497 83203 10075 20073 39944 40267 53003 69901 75152 887// 333 58031 85794 88696 96150
BBXX 46111 06181 99481 71227 46/// /2004 10052 40255 56004 91800 22200 00049
BBXX 46249 06181 99338 71197 46/// ///// 1//// 91807 22200 00143 11506 20904 326// 41504 70031
BBXX 46248 06181 99461 71247 46/// ///// 1//// 91804 22200 00094 11308 21004 327// 41307 70041
BBXX 46244 06181 99409 71244 46/// ///// 1//// 91805 22200 00106 11510 21005 328// 41509 70050
BBXX 46241 06181 99330 71173 46/// ///// 1//// 91741 22200 00142 11503 20901 326// 41503 70015
BBXX ZCDQ4 31201 06183 99357 10219 41296 70530 10160 20120 47490 54000 76226 89448 22272 00186 20503 30510 40302 50403 80130
BBXX NIL
BBXX A8XA3 06183 99047 30117 41998 22204 10270 40098 53001 70111 8201/ 22200 20000 319// 40602
BBXX BATFR19 06184 99061 30058 46/// /2111 10247 20204 40110 53009 22222 00259
BBXX OVYB2 06181 99071 30587 41499 33304 10277 20235 40154 51015 70100 831// 22214 00300 20300 3//// 4//// 5//// 80248
BBXX B2M1303 06183 99175 31088 41698 22012 10265 20215 40101 54000 70100 82500 22243 00290 20106 80230
BBXX BATFR55 06184 99206 30557 46/// /1216 10262 20210 40156 53015 22222 00272
BBXX DBBT 06181 99321 30170 46/// /1712 10205 20184 40160 57002 22273 00197
BBXX LAIP5 06183 99323 30152 41397 21820 10210 20194 40170 54000 70200 8/17/ 22232 04200 20704 319// 40905 5//// 80200
BBXX DBLK 06181 99339 30184 41/97 /1407 10227 20161 40162 54000 7//// 22200 04161
BBXX V7OX3 06181 99359 30130 41/97 /2708 10190 20190 40170 52/// 703// 8//// 22223 04220 21005 3//// 4//// 5//// 80190
BBXX A8RV9 06184 99370 30197 41598 62518 10210 20172 40160 53/// 70311 8/56/ 22224 20805 323// 41205 5//// 80185
BBXX BATFR08 06184 99466 30539 44697 83119 10072 20052 40128 58003 702// 886// 22223 00067
BBXX NIL
AAXX 06184 40255 12960 00000 10068 20050 39452 40180 52011 60012 333 10116
AAXX 06184 40260 32960 03006 10080 20047 39370 40164 52004 333 10120
AAXX 06184 40270 31956 00000 10066 20013 39263 40175 52008 70500 333 10113
AAXX 06184 40272 31958 00000 10065 20020 39332 40181 52010 70500 333 10118
AAXX 06184 40290 NIL
AAXX 06184 40340 32960 00000 10140 20013 40150 52009 333 10210
BBXX NIL
BBXX NIL
AAXX 06184 89132 NIL
AAXX 06184 89542 46/// /1300 11011 20014 49792 54001
AAXX 06184 89575 NIL
AAXX 06184 89657 NIL
AAXX 06184 40250 32960 00000 10078 20022 39366 40172 52015 333 10144
AAXX 06184 40265 32960 00000 10050 20011 39381 40192 52006 333 10106
AAXX 06184 40296 32960 00000 10146 20064 40159 54000 333 10234
AAXX 06184 40310 32960 10000 10047 21032 38934 48474 52014 80001 333 10121 81070
BBXX NIL
BBXX 46240 06181 99366 71219 46/// ///// 1//// 91812 22200 00117 11304 21002 335// 41303 70021
BBXX 46237 06181 99378 71226 46/// ///// 1//// 91810 22200 00113 11708 21003 326// 41707 70038
BBXX 46212 06181 99408 71243 46/// ///// 1//// 91812 22200 00106 11509 21005 330// 41507 70043
BBXX 46217 06181 99342 71194 46/// ///// 1//// 91812 22200 00144 11505 21004 326// 41503 70025
BBXX 46216 06181 99343 71198 46/// ///// 1//// 91757 22200 00144 11705 20903 327// 41704 70025
BBXX 46223 06181 99335 71178 46/// ///// 1//// 91800 22200 00152 11404 21002 327// 41403 70018
BBXX 46231 06181 99327 71174 46/// ///// 1//// 91754 22200 00150 11506 21002 328// 41505 70029
BBXX 46222 06181 99336 71183 46/// ///// 1//// 91756 22200 00150 11705 21002 327// 41704 70023
BBXX 46242 06181 99332 71174 46/// ///// 1//// 91758 22200 00151 11703 21001 324// 41703 70015
BBXX 46211 06181 99469 71242 46/// ///// 1//// 91806 22200 00085 11308 21004 328// 41306 70038
BBXX 46214 06181 99379 71235 46/// ///// 1//// 91818 22200 00114 11410 20907 329// 41408 70052
AAXX 06184 63733 32580 40000 10225 20184 38845 48486 81901 333 10281 59010 81922 84075
AAXX 06184 63756 32580 70000 10220 20201 38856 48482 81902 333 10280 59004 81820 81921 87073
AAXX 06184 63791 32580 30917 10277 20153 39104 48498 83900 333 10332 55300 59006 81927 83628
AAXX 06184 63832 32980 70000 10241 20195 38810 48490 8707/ 333 10291 55300 59003 87358
AAXX 06184 63862 31580 80000 10220 20171 38890 48505 70392 81977 333 10297 58004 8182 81922 87276
AAXX 06184 63866 12580 60000 10232 20216 39509 48/// 60052 86900 333 0//13 10289 58008 86622 81923
AAXX 06184 63870 31480 23605 10274 20243 30087 40105 71312 82900 333 10332 55300 58001 82818 81920
AAXX 06184 63887 32480 80000 10185 20172 38581 48504 8591/ 333 55300 59002 85618 81919 88358
AAXX 06184 63894 32580 60210 10275 20242 30053 40113 83230 333 10316 55300 58002 83822 85357
AAXX 06184 63962 31580 70000 10217 20192 38942 48502 70392 8393/ 333 10270 59006 83622 81924 86358
AAXX 06184 63729 NIL
AAXX 06184 63801 NIL
AAXX 06184 63881 NIL
AAXX 06184 63932 NIL
AAXX 06184 63971 NIL
AAXX 06184 64700 32960 23406 10232 20013 39784 40130 80002 333 10295 59013 82075
AAXX 06184 64750 32960 52808 10246 20102 39682 40092 80002 91755 333 10357 58004 85075
BBXX 51205 06181 99210 71564 46/// ///// 1//// 91818 22200 00239 11305 20703 335// 41304 70025
BBXX 46114 06181 99364 71222 46/// ///// 1//// 91804 22200 00110 11510 21006 328// 41508 70050
AAXX 06184 06610 31664 71908 10025 21008 39696 40298 52018 71082 875// 333 10042 33/// 55300 20000 87634 90766 93100 91115 91209
AAXX 06181 23973 41997 81803 11194 21213 30246 40313 52001 77172 8801/
AAXX 06181 23975 429// 50000 11284 21315 30195 40318 52008 80001
AAXX 06181 23986 41998 81902 11202 21228 39650 40335 53016 77172 8801/
AAXX 06181 23987 41599 81503 11195 21221 30247 40327 51004 70282 85907
AAXX 06181 24606 419// 80000 11253 21278 30062 40357 52011 77372 80007
AAXX 06181 29253 419// 00000 11248 21273 30152 40344 52011 70271
AAXX 06181 29471 41496 80000 11172 21184 30106 40351 52006 78582 8791/ 333 87918
AAXX 06181 29481 41999 81101 11189 21208 30091 40349 54000 70272 80007
AAXX 06181 29553 41950 82502 11107 21113 39965 40348 52006 77172 8801/
AAXX 06181 29562 42984 82101 11115 21128 39915 40352 52010 8801/
AAXX 06181 29581 419// 81201 11188 21207 30081 40360 52006 77172 8801/
AAXX 06181 29594 41997 80000 11205 21224 39945 40364 54000 77172 80007
AAXX 06181 29653 41597 81601 11112 21125 39846 40353 52009 78522 883//
AAXX 06181 29675 41896 80000 11098 21110 39734 40350 52007 77172 8802/
AAXX 06181 29676 41596 80000 11109 21115 39896 40340 52003 77177 8802/
AAXX 06181 29752 414// 81114 11136 21149 38862 48503 58002 78583 8393/ 333 91114
AAXX 06181 29759 419// 82602 11101 21129 39288 40356 52006 77172 8802/
AAXX 06181 29766 41896 80901 11105 21111 39998 40370 53002 77172 8801/
AAXX 06181 29789 NIL
AAXX 06181 29864 429// 83301 11137 21157 39679 40368 53004 80007
AAXX 06181 29866 418// 80000 11137 21143 30029 40371 53002 77172 8802/
AAXX 06181 29869 419// 82701 11139 21152 39982 40381 58001 77172 8802/ 333 95090
AAXX 06181 29956 42984 82703 11064 21096 39795 40372 52003 8807/
AAXX 06181 30337 42998 20000 11369 21398 39928 40451 57008 80001
AAXX 06181 30405 429// 80000 11306 21336 39811 40412 57002 80005
AAXX 06181 30504 42997 72101 11235 21254 39689 40403 54000 82032
AAXX 06181 30603 41995 80000 11292 21303 39777 40421 54000 71011 80001
AAXX 06181 30612 415// 80000 11320 21337 39831 40442 58001 70282 8297/
AAXX 06181 30622 429// 00000 11390 21412 39733 40493 54000
AAXX 06181 30627 42999 00304 11246 21265 39405 40433 58003
AAXX 06181 30703 429// 80000 11290 21301 39663 40421 57002 80007
AAXX 06181 36307 42997 01501 11364 21401 39120 48582 51008
AAXX 06184 06670 01362 82503 10015 20002 39750 40279 51030 69952 72582 888// 333 10047 32/// 55300 20000 69945 82708 85714 86621 90766 93100 91121 91212
AAXX 06184 06700 01680 23401 10003 21009 39794 40308 52014 69942 70181 81540 333 10040 31/// 55300 20000 60005 81635 90766 93100 91108 91206
AAXX 06184 06680 01/01 90108 11111 21120 37487 47008 51030 60172 77074 333 11111 47375 55300 20000 69985 90766 93105 91144 91218
AAXX 06184 06990 01450 80208 10047 21029 39689 40246 52032 69962 76362 887// 333 10047 42/// 55300 20000 60005 88719 91126 91214
AAXX 06184 06760 31782 53504 10051 21037 39737 40191 52032 70262 8151/ 333 10068 31/// 55300 20000 81650 84458 90766 93100 91117 91207
AAXX 06184 06720 32465 82613 10032 21020 39699 40290 52030 886// 333 10038 42006 55300 20000 88711 90766 93100 91123 91215
AAXX 06184 71679 16/// /0403 11049 21065 39159 40187 53002 60001 333 11015 21061 70000
AAXX 06184 71683 46/// /1307 11240 39907 40021 58010 6///1 333 11211 21247 7////
AAXX 06184 71257 16/// /1905 11038 21086 60001 333 11005 21068 70011
AAXX 06184 71258 16/// /2005 11034 21110 60001 333 11017 21064 70000
AAXX 06184 71259 16/// /2504 11004 21077 60001 333 10009 21066 70000
AAXX 06184 71274 16/// /2908 11010 21072 60001 333 11010 21034 70000
AAXX 06184 71275 46/// /2509 11027 21061 6///1 333 11008 21068 7////
AAXX 06184 71278 16/// /2707 11018 21063 60001 333 10007 21054 70000
AAXX 06184 71286 16/// /2808 11003 21063 60001 333 11002 21035 70000
AAXX 06184 71287 16/// /2810 10008 21058 60001 333 10008 21022 70000
AAXX 06184 71289 16/// /2707 10004 21095 60001 333 10004 21047 70000
AAXX 06184 71464 46/// ///21 10062 39822 40033 55006 6///1 333 10066 20006 7////
AAXX 06184 71466 46/// ///// 10054 39825 40061 57018 6///1 333 10055 7////
AAXX 06184 71214 16/// /3012 10001 21081 60001 333 10001 21042 70000
AAXX 06184 71223 16/// /2815 11007 21088 60001 333 11007 21047 70000
AAXX 06184 71225 46/// /2613 10028 21102 6///1 333 10028 21023 7////
AAXX 06184 71227 46/// /2508 11030 21079 6///1 333 11027 21077 7////
AAXX 06184 71233 16/// /2101 10010 21122 60001 333 10010 21052 70000
AAXX 06184 71351 16/// /2907 10008 21079 60001 333 10008 21021 70000
AAXX 06184 71353 16/// /2706 10009 21105 60001 333 10009 21050 70000
AAXX 06184 71385 46/// /2205 11122 6///1 333 11081 21158 7////
AAXX 06184 71445 16/// /3417 11113 21136 39794 40075 51027 60001 333 11061 21114 70021 555 10070
AAXX 06184 71916 46/// /0000 11356 21389 30006 40064 58012 6///1 333 11275 21365 7////
AAXX 06184 71525 16/// /2616 10025 21070 60001 333 10025 21049 70000
AAXX 06184 71535 16/// /2516 10024 21092 60001 333 10024 21033 70000
AAXX 06184 71536 16/// /2516 10022 21103 60001 333 10023 21029 70000
AAXX 06184 71537 17/// /3104 11008 21060 69941 7//4/ 333 11004 21068 70004
AAXX 06181 23074 41997 81305 11173 21199 30201 40227 57006 77172 8807/
AAXX 06181 23274 41597 71504 11186 21205 30197 40236 57004 77172 8452/ 333 84622
AAXX 06181 23383 41896 80000 11262 21294 39923 40310 53001 77172 8801/
AAXX 06181 23472 41495 71302 11178 21204 30200 40252 57002 78682 87900
AAXX 06181 23678 419// 81102 11216 21241 30218 40281 58004 77171 8807/
AAXX 06181 23884 429// 50000 11239 21257 30230 40311 58002 80006
AAXX 06181 23891 41996 80000 11329 21365 39985 54000 77111 80006
AAXX 06181 24507 429// 80701 11291 21316 30074 40345 52006 85017
AAXX 06181 24817 419// 80000 11265 21284 39946 40354 53004 77172 82046
AAXX 06181 24908 41998 80000 11328 21365 39990 40366 57005 77172 80007
AAXX 06181 29263 41959 70000 11192 21211 30229 40338 52008 77187 86032
AAXX 06181 29282 41963 80000 11293 21318 30172 40364 53002 77171 80007
AAXX 06181 29379 41997 80000 11218 21236 30128 40356 52002 77177 80007
AAXX 06181 29570 41596 72502 11091 21111 39984 40346 52006 78582 84901
AAXX 06181 29698 429// 80000 11223 21246 39825 40388 54000 86072
AAXX 06181 30230 42998 60000 11356 21384 30037 40417 57005 80001
AAXX 06181 30252 429// 80000 11305 21330 30055 40414 57016 86037
AAXX 06181 30309 41599 82702 11284 21302 39811 40395 57001 78582 82905
AAXX 06181 30328 429// 20000 11374 21395 39963 40461 58010 80007
AAXX 06181 30521 429// 80000 11374 21389 39866 40479 58001 80001
AAXX 06181 30710 41995 00000 11230 21247 39772 40415 58001 71011
AAXX 06184 42027 21595 82302 10006 21003 38384 48575 77072 8551/ 333 59030 6013/
AAXX 06184 42071 21594 79902 10108 20104 40146 71796 84320 333 59018 6026/ 84630 81940 87458
AAXX 06184 42101 31694 60000 10124 20113 40153 71000 83530 333 59012 82635 84360
AAXX 06184 42111 21594 82302 10106 20106 39387 40179 79596 8592/ 333 58011 6003/ 84625 83830 81935 87458
AAXX 06184 42131 21596 61104 10142 20131 40147 79596 85900 333 58012 6992/
AAXX 06184 42165 31995 00000 10120 21023 40139 70500 333 59009
AAXX 06184 42182 21594 61106 10138 20131 40159 72796 83330 333 59005 6008/ 83630 81935 85360
AAXX 06184 42328 31995 02704 10108 21072 40150 70500 333 59003
AAXX 06184 42339 31995 20000 10160 20072 40140 70500 80001 333 59009 82070
AAXX 06184 42348 31694 30904 10148 20137 40145 71100 83500 333 59006 83635
AAXX 06184 42361 21995 50000 10148 20130 40159 70500 85030 333 59004 6001/ 85360
AAXX 06184 42369 21392 80404 10144 20137 40179 76062 8632/ 333 5629/ 58004 6002/ 84710 85615 81930 88458
AAXX 06184 42379 31595 83201 10136 20114 40182 71042 8652/ 333 58021 86625 88458
AAXX 06184 42452 32596 42301 10176 20148 40141 82530 333 59008
AAXX 06184 42475 31594 70903 10156 20146 40179 71022 85520 333 58013 85625 87460
AAXX 06184 42189 NIL
AAXX 06184 42260 NIL
AAXX 06181 51711 32980 72701 11121 21151 38067 52004 80002 333 00604 11017
AAXX 06181 51730 32970 00401 11157 21176 40409 52002 333 00601 11014
AAXX 06181 52112 32980 02001 11142 21183 40412 52004 333 00651 11053
AAXX 06181 52737 32980 00000 11155 21260 37075 52002 333 00352 11015
AAXX 06181 52787 32980 03206 11152 21255 37019 57002 333 00453 11053
AAXX 06181 53352 32980 01402 11185 21225 40405 57001 333 11053
AAXX 06181 53593 32960 01601 11118 21197 40382 52002 333 11015
AAXX 06181 53705 32965 02501 11109 21160 40376 52001 333 00451 11015
AAXX 06181 53863 31958 80000 11090 21133 40392 52003 71000 80007 333 11001
AAXX 06181 53975 32964 02701 11059 21130 40385 52002 333 10020
AAXX 06181 54273 32970 00401 11272 21309 40433 52002 333 11117
AAXX 06181 54324 32970 01802 11206 21253 40423 54000 333 11067
AAXX 06181 54405 32960 02901 11122 21157 40401 52004 333 11022
AAXX 06181 54436 32980 03601 11141 21184 40425 54000 333 11027
AAXX 06181 54808 32961 03401 11064 21096 40391 52006 333 10040
AAXX 06181 54826 32970 01802 11106 21208 38551 52003 333 11058
AAXX 06181 54836 32962 00901 11069 21083 40403 52005 333 10019
AAXX 06181 54863 32965 02701 11058 21099 40387 54000 333 10026
AAXX 06181 56018 32980 42001 11114 21151 36147 52001 80002 333 00103 11019
AAXX 06181 56021 32980 70000 11178 21208 36041 52004 8701/ 333 00155 11049
AAXX 06181 57071 31958 00704 11028 21099 40386 52004 71000 333 10020
AAXX 06181 38599 32697 8250211052 21073 39805 40351 56006 885// 333 11025 88645
AAXX 06184 68513 36/// /1517 10210 20142 30021 40132 55000 333 10259 20210 91022 555 91013
AAXX 06184 68514 32/// /2314 10339 20058 39630 48547 52011 333 10403 20339 91022 555 91010
AAXX 06184 68523 36/// /2104 10334 20016 39094 48536 53001 333 10366 20334 91006 555 91015
AAXX 06184 68527 36/// /1504 10339 20009 39048 48515 53005 333 10383 20339 91009 555 91013
AAXX 06184 68572 32680 70702 10177 20150 38435 48543 52011 81210 333 10245 20177 91004 555 91024
AAXX 06184 68575 36/// /0000 10206 20182 39123 48551 53010 333 10244 20205 91002 555 91020
AAXX 06184 68581 36/// /0902 10216 20200 39398 48551 53010 333 10266 20216 91005 555 91018
AAXX 06184 68583 16/// /0000 10248 20221 30045 40153 52012 69922 333 10293 20247 91002 555 20002 91015
AAXX 06184 68589 16/// /1002 10176 20150 38286 48545 53003 60022 333 10256 20163 91006 555 20026 91024
AAXX 06184 68613 36/// /2014 10202 20120 30036 40151 55000 333 10240 20201 91021 555 91015
AAXX 06184 68647 36/// /1211 10223 20147 38946 48549 53018 333 10295 20223 91016 555 91021
AAXX 06184 68651 36/// /1507 10189 20156 38595 48558 53012 333 10242 20189 91010 555 91024
AAXX 06184 68715 36/// /1906 10233 20121 30035 40160 56005 333 10321 20233 91011 555 91016
AAXX 06184 68717 36/// /1603 10266 20097 30005 40144 53003 333 10345 20266 91006 555 91015
AAXX 06184 68723 36/// /1407 10259 20077 39409 48558 53017 333 10350 20259 91016 555 91017
AAXX 06184 68737 36/// /1609 10275 20091 39255 48550 52007 333 10331 20275 91021 555 91017
AAXX 06184 68744 36/// /1621 10227 20144 39114 48535 52015 333 10316 20227 91032 555 91018
AAXX 06184 68747 36/// /1510 10236 20147 39655 48581 53027 333 10336 20236 91014 555 91019
AAXX 06184 68754 36/// /1506 10197 20180 39175 48562 53020 333 10277 20197 91009 555 91021
AAXX 06184 68817 36/// /1508 10232 20158 30151 40163 55000 333 10310 20231 91016 555 91016
AAXX 06184 68821 36/// /1311 10270 20100 39914 40146 52020 333 10353 20270 91018 555 91015
AAXX 06184 68835 36/// /1202 10224 20125 30071 40184 52015 333 10307 20224 91005 555 91018
AAXX 06184 68843 36/// /2402 10222 20182 30081 40179 53018 333 10250 20222 91003 555 91018
AAXX 06184 68849 36/// /1609 10186 20157 39452 48562 53018 333 10278 20186 91013 555 91020
AAXX 06184 68912 36/// /1509 10184 20156 30169 40178 52002 333 10215 20184 91012 555 91017
AAXX 06184 68918 36/// /1203 10217 20173 30165 40183 52005 333 10250 20217 91004 555 91018
AAXX 06184 68921 36/// /2105 10216 20168 30181 40184 53006 333 10262 20216 91009 555 91018
AAXX 06184 68925 36/// /0000 10210 20140 39817 40177 53006 333 10293 20210 91002 555 91018
AAXX 06184 68926 32970 01803 10228 20125 30003 40179 52002 333 10325 20228 91007 555 91018
AAXX 06184 68935 36/// /2403 10209 20144 30120 40183 52012 333 10292 20209 91004 555 91018
AAXX 06184 63733 32580 40000 10225 20184 38845 48486 81901 333 10281 59010 81922 84075
AAXX 06184 63756 32580 70000 10220 20201 38856 48482 81902 333 10280 59004 81820 81921 87073
AAXX 06184 63791 32580 30917 10277 20153 39104 48498 83900 333 10332 55300 59006 81927 83628
AAXX 06184 63832 32980 70000 10241 20195 38810 48490 8707/ 333 10291 55300 59003 87358
AAXX 06184 63862 31580 80000 10220 20171 38890 48505 70392 81977 333 10297 58004 81922 87276
AAXX 06184 63866 12580 60000 10232 20216 39509 48/// 60052 86900 333 0//13 10289 58008 86622 81923
AAXX 06184 63870 31480 23605 10274 20243 30087 40105 71312 82900 333 10332 55300 58001 82818 81920
AAXX 06184 63887 32480 80000 10185 20172 38581 48504 8591/ 333 55300 59002 85618 81919 88358
AAXX 06184 63894 32580 60210 10275 20242 30053 40113 83230 333 10316 55300 58002 83822 85357
AAXX 06184 63962 31580 70000 10217 20192 38942 48502 70392 8393/ 333 10270 59006 83622 81924 86358
AAXX 06184 63729 NIL
AAXX 06184 63801 NIL
AAXX 06184 63881 NIL
AAXX 06184 63932 NIL
AAXX 06184 63971 NIL
AAXX 06181 32389 41996 70000 11349 21365 30135 40177 53017 74022 87030
AAXX 06181 50548 32980 03401 11265 21303 40398 52002 333 11108
AAXX 06181 50564 32970 00000 11261 21284 40376 52003 333 11101
AAXX 06181 51334 11970 00000 11193 21216 40440 57001 69901 70070 333 00700 11111
AAXX 06181 51818 32865 70000 11093 21126 40386 52001 875// 333 00600 11020
AAXX 06181 52378 32980 02701 11170 21233 40419 52002 333 00554 11072
AAXX 06181 53487 32965 03402 11147 21217 40388 52006 333 11033
AAXX 06181 53502 32980 41801 11152 21222 40400 57002 80002 333 00402 11049
AAXX 06181 53923 32980 81802 11034 21114 40341 57001 8807/ 333 11011
AAXX 06181 54049 32970 02501 11172 21237 40409 57001 333 11091
AAXX 06181 54115 32980 00000 11208 21260 40424 57006 333 11103
AAXX 06181 54157 32962 00000 11207 21234 40421 52002 333 11090
AAXX 06181 54186 32970 00000 11214 21253 40408 52001 333 11111
AAXX 06181 54311 32980 03404 11199 21253 40419 52001 333 11060
AAXX 06181 54346 32962 00701 11183 21208 40415 52002 333 11078
AAXX 06181 54377 32965 00203 11162 21191 40407 52007 333 11041
AAXX 06181 54386 32970 00402 11246 21282 40425 52010 333 11099
AAXX 06181 54493 32974 02901 11160 21204 40397 52008 333 11042
AAXX 06181 54587 NIL
AAXX 06181 54715 32966 00902 11060 21072 40398 52004 333 10035
AAXX 06181 54929 32970 00000 11049 21086 40394 52006 333 10036
AAXX 06181 54945 32973 02701 11032 21086 40390 52007 333 10040
AAXX 06181 56065 32980 70000 11159 21187 36594 57002 80008 333 00007 11052
AAXX 06181 57193 32962 00402 11015 21091 40379 52006 333 10059
AAXX 06181 57290 32962 00902 11013 21104 40374 52007 333 10059
AAXX 06181 22282 115// 82005 11017 21025 30021 40029 53028 60010 78582 889// 333 11011
AAXX 06184 68174 31665 40506 10240 20159 38791 48520 53012 70511 81482 333 10320 20240 91009 555 91018
AAXX 06184 68191 NIL
AAXX 06184 68242 32680 21906 10274 20075 38707 48493 53002 82400 333 10343 20274 91008 555 91015
AAXX 06184 68262 16/// /3502 10239 20165 38707 48517 53012 69962 333 10319 20229 91003 555 20006 91018
AAXX 06184 68263 12680 42406 10216 20146 38494 48519 53007 60032 83370 333 10295 20210 91008 555 20038 91020
AAXX 06184 68267 11565 80510 10161 20143 38272 48544 52026 60062 76022 889// 333 10281 20161 91015 555 20064 69925 91024
AAXX 06184 68289 36/// /0606 10242 20178 39167 48547 53014 333 10293 20242 91010 555 91018
AAXX 06184 68350 36/// /0105 10245 20155 38661 48514 53010 333 10359 20245 91009 555 91018
AAXX 06184 68368 11880 43311 10222 20138 38334 48523 53013 69922 72586 81162 333 10291 555 20002 91022
AAXX 06184 68403 36/// /2122 10192 20161 30108 40141 56001 333 10248 20192 91031 555 91014
AAXX 06184 68424 32982 22006 10307 21054 39172 48519 53004 80004 333 10402 20307 91007 555 91013
AAXX 06184 68438 32982 22008 10289 20000 38793 48497 53000 80001 333 10366 20288 91010 555 91015
AAXX 06184 68442 32980 01706 10275 20028 38646 48503 53003 333 10349 20275 91008 555 91017
AAXX 06184 68461 31780 30911 10213 20161 38335 48518 53006 71300 81903 333 10298 20213 91017 555 91021
AAXX 06184 68512 32982 22111 10248 20036 39023 48531 53006 80002 333 10315 20248 91016 555 91017
AAXX 06184 68538 32982 12119 10298 20024 38711 48504 53003 80001 333 10349 20298 91026 555 91016
AAXX 06184 68587 NIL
AAXX 06184 68588 16/// /1605 10254 20227 30143 40159 52007 69922 333 10281 20253 91007 555 20002 91015
AAXX 06184 68591 NIL
AAXX 06184 68592 NIL
AAXX 06184 68618 32980 12409 10294 20004 39058 48545 53005 80001 333 10343 20294 91013 555 91018
AAXX 06184 68633 36/// /1515 10247 20062 38519 48514 53006 333 10308 20247 91021 555 91019
AAXX 06184 68668 32570 21206 10203 20175 39323 48550 53015 82500 333 10282 20203 91010 555 91019
AAXX 06184 68714 36/// /1817 10210 20149 30117 40153 55000 333 10286 20210 91024 555 91015
AAXX 06184 68727 36/// /2004 10306 21005 39125 48536 53002 333 10336 20305 91006 555 91016
AAXX 06184 68752 36/// /1305 10230 20198 39508 48576 53018 333 10294 20230 91008 555 91020
AAXX 06184 68816 32475 11817 10210 20172 30119 40173 53004 81600 333 10285 91019 555 91017
AAXX 06184 68828 32980 02007 10200 20149 39955 40186 51019 333 10263 555 91019
AAXX 06184 68842 32980 12406 10197 20148 30115 40185 51025 80001 333 10268 555 91018
AAXX 06184 68858 32980 10603 10223 20204 30021 40175 53025 80001 555 91017
AAXX 06184 68906 32598 32818 10170 20123 30066 40130 56001 82202 222// 00135 333 10195 20167 91036 555 91013
AAXX 06184 68994 11394 82929 10105 20103 39846 49874 51007 60242 72055 886// 222// 00063 333 10115 20097 91042 555 20242 60305 90987
AAXX 06184 89004 31759 21211 11063 21100 38822 49826 58000 73633 81530 333 11057 21066 91014 555
AAXX 06184 61401 33960 71014 10210 20102 39800 40221 80002 333 10230 59014 87073
AAXX 06184 61404 32960 70812 10195 21048 39810 40210 85072 333 10205 59008 85363 83073
AAXX 06184 61415 32958 40806 10232 20073 30182 40187 84030 333 10259 59012 84363
AAXX 06184 61421 NIL
AAXX 06184 61437 32958 70406 10262 20036 30041 40181 8707/ 333 10274 58000 87363
AAXX 06184 61442 32956 60911 10185 21074 30148 40151 83082 91749 333 10298 59016 83363 85073
AAXX 06184 61450 32960 30404 10250 21018 39714 40174 83070 333 10286 59007 83363
AAXX 06184 61461 NIL
AAXX 06184 61489 31956 50804 10302 21035 30134 40141 70622 85070 333 10315 59003 85363
AAXX 06184 61492 31935 50808 19290 21010 30172 40191 70622 85070 333 10305 58000 85363
AAXX 06184 61497 34920 70814 10255 21019 39899 4//// 706// 80002 333 10281 59006 87073
AAXX 06184 61498 31956 20806 10280 20222 30012 40145 705// 82030 333 10304 58008 82363
AAXX 06184 61499 32958 40406 10274 21033 39890 40146 84070 333 10290 59014 84363
BBXX 46206 06181 99488 71260 46/// /1708 10062 40234 57002 22200 00081 11206 70032 333 91210
AAXX 06184 42559 31994 01402 10156 20139 40138 71000 333 59008
AAXX 06184 42571 31996 01402 10162 20148 40152 70500 333 59005
AAXX 06184 42667 32996 22302 10164 20140 39549 40148 80001 333 59009 82075
AAXX 06184 42675 31996 00000 10166 20138 40153 70500 333 59005
AAXX 06184 42754 32996 02703 10160 20110 39503 40153 333 58002
AAXX 06184 42779 32596 60000 10170 20157 39451 40163 83530 333 58002 83620 85360
AAXX 06184 42874 21996 10000 10216 20201 40142 70296 81031 333 58004 6991/ 81360
AAXX 06184 43041 32996 00000 10200 20175 39533 40158 333 58003
AAXX 06184 42867 NIL
AAXX 06184 42933 NIL
BBXX 46206 06181 99488 71260 46/// /1708 10062 40234 57002 22200 00081 11206 70032 333 91210
BBXX A8JX9 06183 99359 11433 41/// /0450 10105 20094 40175 56013 70000 8//// 22214 2//// 3//// 4//// 5//// 80099
BBXX A8NF2 06184 99319 11238 41497 50314 10080 20080 40350 54000 70211 84465 22234 04110 2//// 3//// 4//// 5//// 80080
AAXX 06184 68191 NIL
AAXX 06184 68587 NIL
AAXX 06184 68591 NIL
AAXX 06184 68592 NIL
AAXX 06181 50658 31958 00000 11256 21271 40386 57001 70400 333 11137
AAXX 06181 50888 32980 01601 11199 21222 40345 52002 333 11127
AAXX 06181 50983 32970 00000 11210 21233 40355 52002 333 11133
AAXX 06181 51053 32977 00902 11179 21216 40450 52003 333 00851 11133
AAXX 06181 51542 32980 03201 11296 21328 37609 57004 333 00401 11183
AAXX 06181 52436 32980 02001 11166 21218 38542 40387 52002 333 00551 11018
AAXX 06181 52908 32980 22503 11205 21252 35715 54000 80002 333 00155 11083
AAXX 06181 52996 11430 80901 11097 21102 37585 57002 69911 77077 885// 333 00401 11092
AAXX 06181 53083 32980 00000 11274 21303 40468 57003 333 00052 11197
AAXX 06181 53764 32970 03203 11065 21120 40358 52002 333 10034
AAXX 06181 53787 32980 70402 11108 21155 40384 52002 80002 333 10004
AAXX 06181 54096 32970 02907 11183 21216 40363 52003 333 11123
AAXX 06181 54226 32980 03201 11228 21269 40427 57001 333 11093
AAXX 06181 54259 32965 01101 11223 21255 40432 52005 333 11080
AAXX 06181 54527 32960 81402 11031 21069 40403 52001 8807/ 333 11018
AAXX 06181 54534 32965 71102 11055 21118 40409 57003 80002 333 11022
BBXX 46132 06181 99497 71279 46/// /1412 10064 40186 57010 22200 00083 11207 70037 333 91215
BBXX 46205 06181 99542 71343 46/// /2210 10066 40063 52013 22200 00070 11110 70052 333 91214
BBXX 46132 06181 99497 71279 46/// /1412 10064 40186 57010 22200 00083 11207 70037 333 91215
BBXX 46205 06181 99542 71343 46/// /2210 10066 40063 52013 22200 00070 11110 70052 333 91214
AAXX 06181 40665 12960 41503 10136 20065 40162 52009 60002 84030
AAXX 06181 40676 12960 10000 10148 20065 40159 52018 60002 80001
AAXX 06181 40691 12660 60603 10165 20131 40188 51008 60002 83232
AAXX 06181 40656 12960 03505 10118 20042 40136 52019 60002
AAXX 06181 40674 12960 42605 10138 20021 40155 52020 60002 82031
AAXX 06181 40689 11960 41809 10150 20114 40167 52010 69902 70162 84030
AAXX 06181 40604 12560 30000 10065 20017 40194 52012 60002 83500
AAXX 06181 40621 11958 40902 10105 20040 40192 52003 60012 62160 84030
AAXX 06181 40642 12960 00000 10082 20000 40199 52028 60002
AAXX 06181 40650 12960 03603 10103 20039 40165 52017 60002
AAXX 06181 40608 11960 00902 10068 20034 40199 52011 69912 70161
AAXX 06181 40629 12960 00000 10062 20033 40195 52014 60002
AAXX 06181 30455 429// 20000 11343 21365 38997 48497 57004 80001
AAXX 06181 30731 429// 31903 11152 21203 39741 40392 58002 83030
AAXX 06181 30739 429// 00000 11377 21399 39549 40509 52001
AAXX 06181 30741 429// 02802 11229 21242 38774 48555 54000
AAXX 06181 30745 429// 01801 11370 21391 39170 40507 57006
AAXX 06181 30764 42998 00000 11392 21425 39550 40488 58004
AAXX 06181 30829 42984 10000 11350 21368 39702 40502 52004 80001
AAXX 06181 30838 42998 00000 11362 21378 39376 40520 52002
AAXX 06181 30846 41998 00000 11322 21359 39439 40477 54000 70400
AAXX 06181 30859 42999 00000 11371 21401 39515 40493 58003
AAXX 06181 30862 42980 02303 11308 21339 39609 40447 58001
AAXX 06181 30957 429// 02102 11342 21378 39462 40494 52003
AAXX 06181 30967 NIL
AAXX 06181 30975 42998 00000 11371 21395 39739 40497 57002
AAXX 06181 30499 42999 02803 11304 21315 39644 40383 57010
AAXX 06181 30683 429// 00000 11316 21333 39659 40394 57007
AAXX 06181 30695 42999 03201 11329 21351 30001 40385 56006
AAXX 06181 31253 42999 80000 11339 21368 39842 40365 57003 80006
AAXX 06181 31295 42999 00000 11257 21281 39859 40364 57003
AAXX 06181 31348 42999 00000 11320 21325 30076 40297 57002
AAXX 06181 31418 42984 03401 11206 21218 30008 40283 57004
AAXX 06181 31439 42999 00000 11248 21266 30222 40271 57002
AAXX 06181 31442 42997 02101 11268 21293 39969 40363 58003
AAXX 06181 31445 42984 00000 11290 21321 30074 40359 54000
AAXX 06181 31474 41999 33201 11240 21272 39819 40349 58001 70271 83030
AAXX 06181 31521 32976 00000 11300 21317 30038 40367 58005
AAXX 06181 31527 42998 02501 11281 21292 30025 40364 54000
AAXX 06181 31534 42999 00000 11308 21326 39987 40378 52005
AAXX 06181 31587 42999 00000 11303 21315 30207 40372 52001
AAXX 06181 31632 NIL
AAXX 06181 31702 42998 00102 11296 21326 39995 40376 58001
AAXX 06181 31713 42998 00000 11273 21285 30211 40320 52003
AAXX 06181 31725 42998 03202 11233 21245 30235 40309 54000
AAXX 06181 31801 41997 80000 11197 21218 30085 40333 52004 77172 86057
AAXX 06184 45011 47558 /0110 10104 20078 40250 57003 71000 333 58026
AAXX 06181 31825 42984 60000 11148 21161 30069 40290 53013 80008
AAXX 06181 31845 41996 80000 11209 21228 30162 40341 52004 77172 8807/
AAXX 06181 31878 41984 50000 11247 21272 30224 40363 53005 70272 80001
AAXX 06181 31915 42998 02702 11169 21219 30078 40366 51004
AAXX 06181 31921 42998 02203 11193 21219 30255 40364 53006
AAXX 06181 31969 42997 03009 11117 21200 30305 40357 52008 333 91014 91114
AAXX 06181 31981 42999 52401 11238 21263 30104 40366 53006 80001
AAXX 06181 31987 42999 03505 11145 21210 30060 40339 52010 333 91112
AAXX 06181 32069 42998 81203 11154 21190 30235 40240 52006 80007 333 91003 91107
AAXX 06184 68183 32575 60506 10278 20172 39426 48538 53012 84572 333 10317 20278 91008 555 91014
AAXX 06184 68188 NIL
AAXX 06184 68268 NIL
AAXX 06184 68272 NIL
AAXX 06184 68296 36/// /1504 1//// 2//// 38916 4//// 52002 333 1//// 2//// 91011 555
AAXX 06184 68322 32982 02304 10344 20013 39104 48506 52006 333 10432 20344 91006 555 91011
AAXX 06184 68338 36/// /2604 10254 20082 38746 48484 52005 333 10350 20254 91005 555 91014
AAXX 06184 68345 36/// /2804 10268 20048 38654 48501 52006 333 10353 20268 91005 555 91017
AAXX 06184 68362 32680 70102 10224 20156 38502 48505 52010 81150 333 10316 20224 91003 555 91018
AAXX 06184 68400 32570 21103 10256 20191 30074 40146 52021 8/100 333 10342 20256 91005 555 91014
AAXX 06184 68408 32/// /1306 10161 20144 30130 40138 52012 333 10210 20161 91013 555 91013
AAXX 06184 68416 32/// /1808 10322 20027 39026 48523 52008 333 10369 20322 91014 555 91015
AAXX 06184 68478 12470 72002 10217 20175 38901 48544 52023 69922 875// 333 10305 20217 91005 555 20002 91021
AAXX 06184 68488 36/// /1103 10207 20183 39295 48548 52020 333 10283 20207 91010 555 91019
AAXX 06184 68494 36/// /1502 10235 20210 30025 40155 53012 333 10297 20235 91002 555 91015
AAXX 06184 68524 32986 00000 10327 21011 39034 48512 52005 333 10386 20327 91001 555 91013
AAXX 06184 68546 36/// /2005 10236 20114 38665 48514 53016 333 10329 20236 91012 555 91018
AAXX 06184 68558 36/// /1306 10173 20134 38217 48531 52013 333 10275 20173 91012 555 91023
AAXX 06184 68570 36/// /1304 10201 20138 38541 48534 52013 333 10304 20201 91009 555 91022
AAXX 06184 68580 16/// /1003 10185 20176 38982 48545 52014 69922 333 10282 20184 91006 555 20002 91021
AAXX 06184 68614 32980 02307 10264 20099 30082 40122 52012 333 10337 20264 91016 555 91012
AAXX 06184 68624 32882 31308 10276 20022 38752 48532 52008 81106 333 10345 20276 91014 555 91019
AAXX 06184 68674 16/// /0000 10242 20217 30136 48596 52017 69922 333 10301 20242 91003 555 20002 91016
AAXX 06184 68712 32970 01819 10172 20150 30083 40148 53001 333 10218 20172 91025 555 91014
AAXX 06184 68718 36/// /1007 10250 20124 39928 40169 52013 333 10359 20250 91018 555 91017
AAXX 06184 68722 32980 21213 10247 20052 38574 48533 52008 80008 333 10310 20247 91023 555 91021
AAXX 06184 68814 36/// /1914 1//// 2//// 30163 4//// 56005 333 1//// 2//// 91017 555 91017
AAXX 06184 68832 32970 01207 10232 20079 39223 48556 52022 333 10330 20232 91013 555 91019
AAXX 06184 68916 32370 43504 10198 20164 39915 40181 52002 84500 333 10231 20198 91009 555 91018
AAXX 06184 68920 32470 12203 10216 20166 30174 40186 52013 81800 333 10253 20216 91008 555 91018
AAXX 06184 68928 36/// /2103 10213 20138 30030 40189 52012 333 10261 20213 91006 555 91019
AAXX 06184 68155 36/// /1002 10296 20148 39169 48517 53006 333 10368 20296 91005 555 91013
AAXX 06184 68171 NIL
AAXX 06184 68176 36/// /0902 10255 20173 39130 48525 52016 333 10335 20255 91003 555 91016
AAXX 06184 68181 NIL
AAXX 06184 68182 36/// /0402 10264 20173 39328 48531 52010 333 10327 20253 91005 555 91014
AAXX 06184 68185 NIL
AAXX 06184 68253 36/// /0000 10283 20174 39028 48513 53008 333 10361 20282 91009 555 91014
AAXX 06184 68255 16/// /1502 10252 20139 38850 48504 56012 60012 333 10335 20225 91006 555 20010 91016
AAXX 06184 68271 36/// /0506 10267 20173 38904 48517 53008 333 10349 20267 91016 555 91016
AAXX 06184 68273 16/// /0807 10206 20136 38473 48527 53010 60012 333 10312 20206 91010 555 20018 91021
AAXX 06184 68287 36/// /1404 10184 20169 38605 48540 53011 333 10254 20183 91006 555 91022
AAXX 06184 68291 36/// /1405 10267 20187 39537 48550 53015 333 10340 20267 91011 555 91015
AAXX 06184 68297 NIL
AAXX 06184 68329 36/// /1503 10331 20024 39058 48513 53000 333 10408 20331 91005 555 91013
AAXX 06184 68331 36/// /2009 10321 21029 38825 48523 53002 333 10376 20321 91016 555 91017
AAXX 06184 68335 36/// /1502 10289 20040 38897 48517 56000 333 10383 20289 91003 555 91016
AAXX 06184 68341 36/// /1803 10272 20084 38524 48509 53007 333 10345 20272 91005 555 91019
AAXX 06184 68342 NIL
AAXX 06184 68343 36/// /0000 10271 20097 38760 48490 55000 333 10360 20271 91013 555 91014
AAXX 06184 68349 NIL
AAXX 06184 68353 36/// /3205 10232 20151 38518 48497 53008 333 10305 20232 91009 555 91017
AAXX 06184 68355 36/// /0104 10259 20115 38564 48499 52006 333 10325 20259 91005 555 91017
AAXX 06184 68370 31470 80510 10208 20185 38395 48543 52025 75055 885// 333 10303 2//// 555 91024
AAXX 06184 68377 16/// /1507 10201 20171 38771 48511 52020 60012 333 10324 20201 91014 555 20014 60145 91018
AAXX 06184 68380 36/// /2804 10150 20138 38350 48560 52027 333 10299 20149 91006 555 91026
AAXX 06184 68387 36/// /0709 10244 20195 38877 48543 52020 333 10296 20244 91021 555 91020
AAXX 06184 68411 36/// /2011 10338 20057 39898 40095 53001 333 10396 20338 91017 555 91010
AAXX 06184 68429 36/// ///// 10293 21065 38679 48506 53003 333 10364 20293 555 91017
AAXX 06184 68449 36/// /0303 10237 20058 38384 48494 53001 333 10316 20237 91004 555 91018
AAXX 06184 68471 NIL
AAXX 06184 68474 16/// /0000 10180 20161 38652 48543 52022 60042 333 10287 20180 91003 555 20040 60145 91022
AAXX 06184 68479 16/// /1312 10234 20188 38965 48534 52027 69962 333 10319 20231 91019 555 20006 91019
AAXX 06184 68481 36/// /0605 10263 20200 39791 40153 52025 333 10331 20263 91008 555 91016
AAXX 06184 68487 36/// /1003 10204 20182 39025 48548 53012 333 10244 20204 91005 555 91020
AAXX 06184 68491 36/// /3302 10241 20214 30139 40148 52013 333 10301 20241 91003 555 91014
AAXX 06184 68497 16/// /1703 10253 20222 30116 40160 52015 69922 333 10292 20253 91004 555 20002 91016
BBXX 41115 06181 99184 70673 46/// ///// 1//// 91805 22200 11305 20804 335// 41303 70024
BBXX 41114 06181 99276 70802 46/// ///// 1//// 91816 22200 00210 11201 20501 306// 41201 70006
BBXX 46181 06181 99538 71288 46/// /0100 10015 40180 57001 22200 00018 10300 70000 333 91200
BBXX MFLM9 06183 99138 31227 41697 41204 10290 20249 40084 54000 70311 824// 22253 04300 20101 314// 40102 5//// 80261
BBXX 46221 06181 99339 71186 46/// ///// 1//// 91745 22200 00149 11504 21002 326// 41503 70019
BBXX 42085 06181 99179 70665 46/// /1205 10271 40140 91810 333 91206
BBXX 44067 06181 99384 70770 46/// /2906 10146 40114 58032 91800
BBXX 44098 06181 99428 70702 46/// ///// 1//// 91807 22200 00078 10402 20402 311// 41101 70010
BBXX 44029 06181 99425 70706 46/30 /1710 10052 40073 56043 91804 22200 00074 10503 70014 333 91211 555 11118 22124
BBXX 51203 06181 99208 71570 46/// ///// 1//// 91813 22200 00244 10902 20902 320// 41101 70011
BBXX 52200 06181 99134 11448 46/// ///// 1//// 91815 22200 00285 10704 20704 309// 41101 70021
BBXX 46181 06181 99538 71288 46/// /0100 10015 40180 57001 22200 00018 10300 70000 333 91200
AAXX 06184 42634 32996 00000 10182 20156 40151 333 58000
AAXX 06184 42647 31995 00000 10192 20132 40154 70500 333 58005
AAXX 06184 42737 32996 03202 10200 20174 40154 333 58002
AAXX 06184 42840 32996 00000 10190 20156 40157 333 58004
AAXX 06184 42909 31996 23406 10216 20191 40151 80001 333 58004 82070
AAXX 06184 42921 32996 20000 10142 20090 40199 80001 333 59002 81075
AAXX 06184 43003 31995 00000 10196 20152 40150 70500 333 58007
AAXX 06184 43014 32996 00000 10180 20097 39490 40149 333 58001
AAXX 06184 43063 32996 20000 10166 20128 39522 40161 80001 333 58007 82070
AAXX 06184 43110 31996 03603 10236 20175 40144 70544 333 58003
AAXX 06184 43117 32596 51801 10246 20134 40139 83530 333 58007
AAXX 06184 43192 32996 20704 10254 20215 40137 80002 333 58002
BBXX SCKM 06183 99477 70197 43/98 72416 10120 40336 53001 22264 00130 20303 40303
AAXX 06184 61202 32970 40000 10222 21137 39612 40177 80005 333 10255 59015 84075
AAXX 06184 61214 NIL
AAXX 06184 61223 31930 50804 10235 20016 3//// 4//// 70622 80002 333 10270 5//// 85075
AAXX 06184 61226 32960 70606 10250 20079 39856 40157 80007 333 10284
AAXX 06184 61230 32960 30708 10286 21030 39847 40117 81042 333 10306 59003 81365
AAXX 06184 61233 32960 60806 10276 20003 3//// 4//// 80002 333 10304 5//// 86075
AAXX 06184 61235 31958 20810 10300 20044 3//// 4//// 70611 80002 333 10314 5//// 82075
AAXX 06184 61240 32960 50000 10250 21009 39816 40145 87070 333 10285 59004 85075
AAXX 06184 61250 32960 10000 10250 20011 3//// 4//// 80002 333 10280 5//// 81075
AAXX 06184 61257 31956 30408 10315 20110 30059 40153 70611 80002 333 10328 59016 83075
AAXX 06184 61265 32965 40406 10277 20013 39824 40135 80002 333 10314 59004 84075
AAXX 06184 61270 32960 20406 10315 20041 3//// 4//// 80002 333 10345 5//// 82075
AAXX 06184 61272 32960 20000 10273 20089 39798 40126 80002 333 10326 59008 82075
AAXX 06184 61277 32960 20804 10295 20015 39803 40125 80002 333 10320 59001 82075
AAXX 06184 61285 32960 70404 10333 20034 39957 40105 83072 333 10353 59006 83365 84075
AAXX 06184 61291 32960 30806 10296 20051 39695 40105 80002 333 10325 59009 83075
AAXX 06184 61293 32960 20406 10303 20067 3//// 4//// 80002 333 10325 5//// 82075
AAXX 06184 61296 32960 60000 10301 20134 3//// 4//// 80002 333 10339 5//// 86075
AAXX 06184 61297 32960 60204 10306 20038 3//// 4//// 80002 333 10320 5//// 86075
AAXX 06184 61017 NIL
AAXX 06184 61024 32960 11212 10210 21088 39584 40162 80002 333 10257 59012 81080
AAXX 06184 61036 32960 70000 10257 20040 39895 40136 80008 333 10293 59008 87280
AAXX 06184 61043 32960 30408 10236 21078 39696 40145 80002 333 10277 59006 83080
AAXX 06184 61045 32960 50000 10205 21005 39640 40148 80002 333 10255 59013 85080
AAXX 06184 61049 32960 70000 10198 20012 39811 40137 80008 333 10270 59014 87280
AAXX 06184 61052 32960 30408 10260 20842 39876 40136 80002 333 10296 59008 83080
AAXX 06184 61075 32960 50000 10250 21002 39817 40130 80002 333 10298 59014 85080
AAXX 06184 61080 32965 70604 10232 21015 39719 40144 80008 333 10278 59017 87280
AAXX 06184 61090 32965 70404 10224 21040 39617 40136 80008 333 10265 59017 87280
AAXX 06184 61091 32965 30000 10219 20070 39688 40153 80002 333 10280 59014 83080
AAXX 06184 61096 32960 70000 10214 20006 39758 40148 80008 333 10272 59012 87280
AAXX 06184 61099 32960 70206 10280 20042 39883 40112 80008 333 10310 59007 87280
AAXX 06184 61600 32960 70604 10295 20138 30130 40135 83082 333 10315 59003 83363 87073
AAXX 06184 61612 32958 70000 10295 20002 30131 40139 84082 333 10320 59001 84363 84073
AAXX 06184 61627 42958 60408 10303 20055 3//// 4//// 86070 333 10336 5//// 86363
AAXX 06184 61630 32956 00804 10308 20075 30111 40130 333 10335 59003
AAXX 06184 61666 32960 70804 10317 20089 30104 40112 85072 333 10345 59001 85363 83073
AAXX 06184 61679 31940 60807 10332 20117 30114 40122 705// 83032 333 10380 59009 83363 85073
AAXX 06184 61687 31920 40208 10332 21015 30056 40113 70600 83032 333 10355 58005 83363 83073
AAXX 06184 61695 32958 73604 10311 20125 30087 40113 83032 333 10335 59001 83363 85073
AAXX 06184 61697 31956 03206 10272 20151 30101 40115 70600 333 10322 58006
AAXX 06184 61698 32960 71804 10325 20071 30098 40109 80002 333 10370 58006 87073
AAXX 06184 61699 32958 61004 10332 20108 39914 40102 80002 333 10347 59002 86073
BBXX 46184 06181 99539 71389 46/// /2715 10040 40037 52055 22200 00057 11212 70058 333 91219
AAXX 06184 68171 NIL
AAXX 06184 68181 NIL
AAXX 06184 68185 NIL
AAXX 06184 68297 NIL
AAXX 06184 68342 NIL
AAXX 06184 68349 NIL
AAXX 06184 68471 NIL
AAXX 06184 68188 NIL
BBXX 46184 06181 99539 71389 46/// /2715 10040 40037 52055 22200 00057 11212 70058 333 91219
AAXX 06184 82863 32597 70000 10278 20232 39886 40097 85340 333 58008
AAXX 06184 83228 32799 33204 10325 20213 39801 40071 82201 333 59004
AAXX 06184 83270 32698 80000 10296 20228 39636 40115 887// 333 58000
AAXX 06184 83309 31595 40000 10333 20279 39774 40090 70511 84210 333 58008
AAXX 06184 83319 32797 60000 10244 20238 39741 40109 84264 333 59004
AAXX 06184 83368 32698 70000 10330 20215 39708 40064 87200 333 59012
AAXX 06184 83526 21498 81403 10246 20194 39168 40099 70365 885// 333 58001 69961
AAXX 06184 82392 32499 50501 10351 20174 39974 40075 84210 333 58006
AAXX 06184 82583 32599 50909 10338 20171 39746 40078 85200 333 58010
AAXX 06184 82780 32598 31402 10360 20181 39850 40097 83200 333 59006
AAXX 06184 82795 32597 20908 10305 20178 39507 40114 82100 333 59013
AAXX 06184 83766 32597 20506 10320 20196 39462 40108 5//// 82200
AAXX 06184 83836 31497 81802 10240 20201 39127 40086 56018 71792 8592/
AAXX 06184 83881 31497 41803 10360 20146 39778 40048 58018 70390 83340
AAXX 06184 83980 31996 01410 10293 20093 39838 40113 57007 70500
AAXX 06184 83997 32497 22704 10318 20165 30084 40127 58015 81101
AAXX 06184 83811 21396 73202 10242 20201 39200 40098 58018 76292 85770 333 69991
AAXX 06184 83844 32597 605// 10266 20229 30087 40094 57021 83960
AAXX 06184 83887 31597 73602 10246 20150 39060 40095 57029 70292 85502
AAXX 06184 83907 32497 32305 10360 20167 39809 40092 58013 83200
AAXX 06184 83914 21496 63210 10264 20135 39326 40080 57010 79522 83920 333 69901
AAXX 06184 83919 31496 63209 10274 20141 38955 40117 58010 70521 86200
AAXX 06184 83927 32997 01406 10313 20100 30031 40101 57009
AAXX 06184 83936 32997 01806 10330 20155 39986 40105 56010
AAXX 06184 83948 32597 10902 10266 20243 30088 40094 58007 81900
AAXX 06184 83964 31596 21406 10298 20220 39634 40114 57006 70500 82100
AAXX 06184 83995 32997 01402 10266 20209 30120 40123 58010
AAXX 06181 32213 42998 83407 11052 21085 30055 40120 57002 80001
AAXX 06181 24856 41998 82702 11347 21370 30111 40287 58001 77171 80007
AAXX 06181 30679 NIL
AAXX 06181 30686 42999 00000 11354 21377 39972 40401 57002
AAXX 06181 30961 42999 01501 11324 21342 39573 40474 58003
AAXX 06181 30971 42999 02202 11335 21372 39351 40479 58005
AAXX 06181 30978 42999 00000 11347 21384 39695 40483 58007
AAXX 06181 31513 42999 00000 11268 21274 30109 40361 52003
AAXX 06181 31624 NIL
AAXX 06181 31832 41965 20000 11242 21260 30245 40340 52003 70171 80001
AAXX 06181 31913 NIL
AAXX 06181 32128 41599 70102 11047 21075 30163 40217 51011 72682 82333 333 91003 91104
AAXX 06184 08410 02980 00803 10145 20030 30163 40274 53003 60002 333 10195 60007
AAXX 06184 91723 NIL
AAXX 06184 91759 NIL
AAXX 06184 91762 NIL
AAXX 06181 31707 42998 00000 11208 21241 30243 40343 52001
BBXX 41029 06181 99328 70796 46/// /2205 1//// 91800 555 11049 22050
BBXX 44030 06181 99432 70704 46/// /1807 1//// 40084 56036 91804 22200 00075 10402 70008 333 91208 555 11087 22093
BBXX 44032 06181 99437 70694 46/30 /1506 10007 40093 58035 91804 22200 00078 333 91208 555 11072 22074
BBXX 44034 06181 99441 70681 46/30 /1304 11018 40116 56028 91804 22200 00073 11101 70007 333 91206 555 11044 22045
BBXX 44039 06181 99411 70727 46/// /2505 10074 20028 40096 57030 91800 22200 00068 10301 70005 333 91206
BBXX 44060 06181 99413 70721 46/// ///07 10082 40085 91815 22200 00086 333 91209 555 11082 22082
BBXX 44022 06181 99409 70737 46/// ///06 10083 21001 40085 91815 22200 00056 333 91208 555 11072 22082
BBXX 44059 06181 99368 70763 46/// /2605 1//// 91820 333 91208
BBXX 44059 06181 99368 70763 46/// /2605 1//// 40132 91810 333 91209
BBXX 44059 06181 99368 70763 46/// /2605 10175 40133 58034 91800 22200 00085 333 91209
BBXX 44057 06181 99395 70761 46/// /1502 1//// 91820 333 91203
BBXX 44057 06181 99395 70761 46/// /1902 1//// 40105 91810 333 91203
BBXX 44057 06181 99395 70761 46/// /2303 10084 40106 58029 91800 22200 00032 333 91203
BBXX 44058 06181 99376 70763 46/// /2504 1//// 91820 333 91206
BBXX 44058 06181 99376 70763 46/// /2506 1//// 40125 91810 333 91207
BBXX 44058 06181 99376 70763 46/// /2506 10123 40126 58036 91800 22200 00067 1//00 70002 333 91207
BBXX 44040 06181 99410 70736 46/// /2406 10077 20011 40090 91815 22200 10201 70003 333 91207 555 11072 22088
AAXX 06181 13168 32698 53407 10040 20007 39948 40055 53038 85500 333 10063 91111
AAXX 06181 13168 32698 53407 10040 20007 39948 40055 53038 85500 333 10063 91111
AAXX 06181 13174 32697 53406 10037 20001 39942 40043 53038 85500 333 10063
AAXX 06181 13269 32698 83205 10053 20002 39832 40046 52033 885// 333 10060 91111
AAXX 06181 13274 32697 83404 10052 20004 39872 40033 52030 885// 333 10061
AAXX 06181 13278 32698 83405 10048 20007 39794 40019 52023 885// 333 10074
AAXX 06181 13378 11/91 90309 11069 21076 38045 48259 52016 60032 77177 333 11003 4/033 93103
AAXX 06181 13397 11596 83006 10008 20004 39412 49951 52013 60202 77377 8802/ 333 10034 4/010 93110
AAXX 06181 13457 NIL
AAXX 06181 13481 NIL
AAXX 06184 43086 32996 01806 10260 20205 39958 40136 333 58003
AAXX 06184 43128 31596 11403 10242 20167 39540 40145 70511 81500 333 58010 81620
AAXX 06184 43150 31996 20000 10234 20225 30087 40163 70500 80001 333 58010 82070
AAXX 06184 43185 31596 20000 10236 20218 30146 40150 70500 81502 333 58001 81620
AAXX 06184 43189 32596 40000 10236 20218 30149 40158 82501 333 58004
AAXX 06184 43198 32996 00000 10200 20172 39315 40149 333 58005
AAXX 06184 43201 32996 00903 10250 20166 39418 40134 333 58007
AAXX 06184 43213 32996 01402 10240 20154 39828 40147 333 58004
AAXX 06184 43226 32996 00901 10244 20223 30113 40143 333 58006
AAXX 06184 43233 32996 20000 10184 20110 39336 40158 80001 333 58004
AAXX 06184 43237 32996 30902 10214 20168 39756 40154 80001 333 58009 83072
AAXX 06184 43245 32596 21102 10248 20230 30127 40154 81501 333 58004
AAXX 06184 43279 32596 30702 10234 20219 30142 40160 81501 333 58009 81620 83075
AAXX 06184 43284 32996 40000 10256 20233 30020 40136 80001 333 58010 84075
AAXX 06184 43295 32996 20905 10204 20176 39134 48538 80001 333 58006 82075
AAXX 06184 43311 32596 40000 10260 20246 40135 83501 333 58006 83620
AAXX 06184 43314 32996 20000 10272 20249 40143 80002 333 58013
AAXX 06184 43321 31495 30502 10226 20185 39707 40159 70500 82530 333 58008
AAXX 06184 43329 32596 30902 10250 20234 30136 40150 81501 333 58011
AAXX 06184 43344 31996 40703 10240 20234 30057 40158 70512 80002 333 58016 84075
AAXX 06184 43346 32596 60906 10262 20242 30142 40149 84501 333 58010 84620
AAXX 06184 43353 32496 30000 10270 20248 40144 81531 333 56699 58015 81616 83072
AAXX 06184 43369 32596 60905 10278 20246 40139 83402 333 58012 83620 84075
AAXX 06184 43371 32996 20000 10256 20239 30066 40139 80001 333 58012 82075
BBXX 46232 06181 99325 71174 46/// ///// 1//// 91808 22200 00149 11405 21002 328// 41404 70025
BBXX 46246 06181 99500 71451 46/// ///// 1//// 91759 22200 00066 11311 21007 322// 41308 70054
BBXX DDAC2 06180 99518 11654 41498 60405 11006 21017 40080 54000 7//22 84460 22263 04038 20301 309// 40704 5//// 81010
BBXX DHZQ 06184 99497 11603 41/98 80312 11005 21048 40095 53050 70272 8//// 22253 00020 2//// 81020
BBXX VRCI9 06184 99540 11799 41/96 /0512 11030 21039 40040 52010 77272 8//// 22264 00025 2//// 3//// 4//// 81030
BBXX WDB9986 06184 99534 11740 41/97 /3319 11020 21092 40040 54000 72672 8//// 22264 02030 20602 332// 40803 5//// 6//// 82040 ICE /////
BBXX 46004 06181 99509 71361 46/// /2610 10056 40137 52026 22200 00070 11412 70060 333 91213
AAXX 06181 56671 32980 00000 10019 21022 38217 52003 333 00200 10168
AAXX 06181 57378 32960 03601 10008 21065 40352 52007 333 10087
AAXX 06181 57426 31759 80701 10050 20029 40301 54000 71000 885// 333 00302 10079
AAXX 06181 57476 32960 03601 11001 21053 40345 52008 333 10081
AAXX 06181 57584 32962 80403 10043 21037 40334 52004 8807/ 333 10094
AAXX 06181 57598 32962 80202 10047 21068 40330 52007 8807/ 333 10100
AAXX 06181 57655 32960 80201 10058 21025 40330 52004 8807/ 333 10090
AAXX 06181 57713 NIL
AAXX 06181 57776 32575 80408 11042 21049 40344 52003 885// 333 11037
AAXX 06181 58321 32960 00403 10008 21063 40370 52001 333 10074
AAXX 06181 58437 32980 01403 11021 21043 38217 52003 333 11006
AAXX 06181 58445 NIL
AAXX 06181 58556 31920 72501 10014 20002 40352 52001 71000 8704/ 333 10018
AAXX 06181 58569 32772 73607 10047 20003 40329 52001 875// 333 10048
AAXX 06181 58646 11650 80000 10030 20014 40344 54000 69901 71060 885// 333 10030
AAXX 06181 58653 NIL
AAXX 06181 58660 NIL
AAXX 06181 58715 11957 83601 10047 20005 40313 57003 69901 71060 8807/ 333 10056
AAXX 06181 58730 11356 83401 10050 20044 40318 52002 69971 76166 8572/ 333 10068
AAXX 06181 58731 11250 83601 10025 20018 40324 52001 69951 76066 887// 333 10041
AAXX 06181 58754 11561 83601 10071 20051 40320 52004 69971 70060 885// 333 10084
AAXX 06181 58911 31457 82201 10046 20028 40303 57001 71000 885// 333 10055
AAXX 06181 58931 11/00 91409 10046 20046 38406 57002 69941 74565 333 10075
AAXX 06181 59254 11450 80402 10072 20063 40277 57004 69911 76066 885// 333 10088
AAXX 06181 59632 32762 83402 10090 20050 40261 57004 885// 333 10107
AAXX 06181 59855 11465 83202 10144 20130 40231 57004 69911 72166 887// 333 10150
BBXX 46004 06181 99509 71361 46/// /2610 10056 40137 52026 22200 00070 11412 70060 333 91213
AAXX 06184 08045 02984 00109 10121 20091 30008 40320 56003 69902 333 10155 60007
AAXX 06184 71888 16/// ///// 11042 21083 60001 333 11032 21061 70000
AAXX 06184 71895 16/// ///// 11036 21086 60001 333 11022 21081 70000
AAXX 06184 71315 16/// /2708 11135 21196 30064 40120 58024 60001 333 11135 21178 70000 555 10010
AAXX 06184 71067 16/// ///// 11020 21100 60001 333 11013 21034 70000
AAXX 06184 71010 16/// /2813 11008 21082 60001 333 11008 21051 70000
AAXX 06184 71011 16/// ///// 10000 21121 60001 333 10004 21043 70000
AAXX 06184 71152 16/// /2916 11038 21082 30037 40050 53003 60001 333 10018 21038 70086
AAXX 06184 71359 16/// /2906 11016 21059 60001 333 10006 21042 7////
AAXX 06184 71405 46/// ///// 10007 21084 6///1 333 10007 21043 7////
AAXX 06184 71417 17/// /2519 11058 21088 39946 49980 51036 69981 7//4/ 333 11016 21058 70111
AAXX 06184 71426 46/// /2006 11129 6///1 333 11123 21160 7////
AAXX 06184 71221 16/// /2508 11029 21086 60001 333 10005 21070 70000
AAXX 06184 71226 16/// /2712 10000 21074 60001 333 10010 21001 7////
AAXX 06184 71229 46/// /3106 11034 21094 6///1 333 10001 21154 7////
AAXX 06184 71500 16/// /2303 11009 21095 60001 333 10001 21029 70000
AAXX 06184 71504 16/// ///// 11007 21093 60001 333 11001 21043 70000
AAXX 06184 71526 16/// /2404 11001 21114 60001 333 10000 21046 70000
AAXX 06184 71541 16/// /2608 11017 21062 60001 333 11001 21027 70000
AAXX 06184 71543 16/// /2803 11057 21093 60001 333 11024 21070 70000
AAXX 06184 71546 16/// /2509 11013 21087 60001 333 10011 21021 70000
AAXX 06184 71547 16/// /2513 11028 21092 60001 333 11005 21030 70000
AAXX 06184 71461 16/// /2609 11012 21068 60001 333 10001 21023 70000
AAXX 06184 71468 17/// /0311 11071 21074 39662 49985 51015 60041 7//4/ 333 21071 70046
AAXX 06184 71483 17/// ///// 11012 21084 69941 7//4/ 333 10008 21051 70004
AAXX 06184 71148 16/// /2915 10007 21022 39489 40065 51016 60001 333 10026 21007 70000
AAXX 06184 71673 16/// ///// 11024 21082 60001 333 11024 21062 70000
AAXX 06184 71690 16/// ///// 11050 21088 60001 333 11013 21072 70000
AAXX 06184 71116 16/// /3016 10023 21094 39101 40205 50008 60001 333 10023 21057 70000
AAXX 06184 71283 16/// /2610 11017 21070 60001 333 11004 21039 70000
AAXX 06184 71788 16/// /2516 10027 21088 60001 333 10027 21052 70000
AAXX 06184 71792 16/// ///// 10003 21093 60001 333 10003 21052 70000
AAXX 06184 71148 16/// /2915 10007 21022 39489 40065 51016 60001 333 10026 21007 70000
BBXX 44099 06181 99369 70757 46/// ///// 1//// 91822 22200 00095 11101 21001 70006
BBXX DFWV2 06184 99358 11307 41598 63512 10062 20012 40300 52010 70152 8/2// 22213 04120 2//03 3//// 4//// 5//// 80040
BBXX MZDL7 06183 99211 50241 41298 30717 10245 20199 40198 54000 70200 8344/ 22213 00260 20503 324// 41202 5//// 80215
BBXX A8SC4 06184 99111 70919 41999 10520 10280 20217 40135 50000 70000 81081 22234 04240 20601 329// 41004 80235
BBXX 46146 06181 99493 71237 46/// /1007 10054 40255 57001 22200 00069 10301 70004 333 91209
AAXX 06181 56144 32980 00000 11080 21152 36858 52007 333 00001 10038
AAXX 06181 56152 32980 03202 11173 21201 36293 52003 333 00002 11011
AAXX 06181 56167 32980 00000 11081 21100 37093 52009 333 05101 10030
AAXX 06181 56182 32980 00000 11080 21127 37192 52005 333 00000 10078
AAXX 06181 56357 32980 00000 11107 21158 36448 52002 333 00101 10026
AAXX 06181 56586 32460 83603 11022 21030 38077 52003 885// 333 00201 10051
AAXX 06181 56748 32980 00201 10063 20036 38379 54000 333 00101 10165
AAXX 06181 56763 32980 01102 10115 20030 40143 52004 333 00103 10240
AAXX 06181 56768 32980 00000 10066 20038 38197 54000 333 00101 10160
AAXX 06181 56838 32670 12701 10103 20084 40200 52008 81400 333 00251 10233
AAXX 06181 56886 31/08 92002 10044 20044 38324 52005 74700 333 00300 10171
AAXX 06181 56946 32680 10000 10107 20101 40182 52003 81100 333 00252 10233
AAXX 06181 56959 32762 72701 10145 20145 40169 52003 874// 333 00200 10276
AAXX 06181 56969 31458 70000 10152 20142 40180 52002 71000 82608 333 00201 10269
AAXX 06181 57731 32662 80000 10045 20001 40319 52003 885// 333 00302 10056
AAXX 06181 57766 32760 80000 10041 20013 40328 57003 885// 333 10049
AAXX 06181 57845 32760 80000 10030 21005 40314 54000 885// 333 10036
AAXX 06181 57853 31750 80000 10027 20001 40336 57003 71000 885// 333 10029
AAXX 06181 57916 32663 81401 10061 20038 40294 52004 885// 333 00302 10085
AAXX 06181 57922 11330 83201 10007 20007 40309 52003 69931 76065 887// 333 00301 10029
AAXX 06181 57932 32662 80000 10047 20024 40314 52002 885// 333 00402 10060
AAXX 06181 58338 32961 00702 10006 21035 40354 52003 333 10081
AAXX 06181 59007 11461 80401 10035 20019 40263 54000 69901 75050 886// 333 10072
AAXX 06181 59046 32762 80401 10068 20036 40292 52002 885// 333 10087
AAXX 06181 59058 32861 83202 10057 20020 40292 57001 885// 333 10061
AAXX 06181 59072 32765 83601 10047 20010 40308 57003 885// 333 10061
AAXX 06181 59087 32760 80903 10072 20027 40279 57007 885// 333 10087
AAXX 06181 59209 11458 82701 10062 20048 40270 52001 69901 76066 887// 333 10075
BBXX 46146 06181 99493 71237 46/// /1007 10054 40255 57001 22200 00069 10301 70004 333 91209
AAXX 06184 61641 32956 63409 10243 20175 30096 40129 85032 333 10269 59001 85363 83073
BBXX 44039 06181 99411 70727 46/// /2504 10074 20030 40096 91753 22200 00069 10301 70005 333 91205
BBXX 44062 06181 99386 70764 46/// /2104 1//// 91820 22200 00065 333 91204
BBXX 44062 06181 99386 70764 46/// /2103 1//// 40098 91810 22200 00064 333 91204
BBXX 44062 06181 99386 70764 46/// /2103 10100 40100 58029 91800 22200 00064 1//00 70002 333 91204
BBXX 44063 06181 99390 70764 46/// /2105 1//// 91820 333 91206
BBXX 44063 06181 99390 70764 46/// /2205 1//// 40128 91810 333 91206
BBXX 44063 06181 99390 70764 46/// /2105 10072 40130 58023 91800 22200 00054 1//00 70002 333 91206
BBXX 44041 06181 99372 70768 46/// /2704 1//// 91820 333 91206
BBXX 44041 06181 99372 70768 46/// /2705 1//// 40155 91810 333 91209
BBXX 44041 06181 99372 70768 46/// /2706 10149 40157 58032 91800 22200 00062 1//00 70001 333 91208
BBXX 44042 06181 99380 70763 46/// /2701 1//// 91820 333 91202
BBXX 44042 06181 99380 70763 46/// /2602 1//// 40124 91810 333 91203
BBXX 44042 06181 99380 70763 46/// /2702 10107 40125 58030 91800 22200 00069 10201 70003 333 91203
BBXX 44043 06181 99392 70764 46/// /1905 1//// 91820 333 91205
BBXX 44043 06181 99392 70764 46/// /1805 1//// 40101 91810 333 91206
BBXX 44043 06181 99392 70764 46/// /1805 10073 40101 58032 91800 22200 00038 1//00 70002 333 91206
BBXX 41010 06181 99289 70785 46/// /2904 10201 40215 91820 22200 00231 11102 20401 300// 41102 70010 333 91205 555 11038 22039
BBXX 41009 06181 99285 70802 46/// /2802 10177 20117 40227 91820 22200 00207 11201 20401 300// 41201 70007 333 91203 555 11019 22020
BBXX 44100 06181 99363 70756 46/// ///// 1//// 91822 22200 00100 11101 21001 70006
BBXX 41110 06181 99341 70777 46/// ///// 1//// 91821 22200 00120 11101 21001 70005
BBXX 42099 06181 99273 70842 46/// ///// 1//// 91827 22200 00214 10501 20501 70005
BBXX 41113 06181 99284 70805 46/// ///// 1//// 91821 22200 00195 11201 20901 310// 41201 70004
BBXX 41112 06181 99307 70813 46/// ///// 1//// 91821 22200 00152 11201 311// 41201 70004
BBXX 42013 06181 99272 70829 46/// ///// 1//// 40228 91740 22200 00193
BBXX A8SC4 06184 99111 70919 41999 10520 10280 20217 40135 50000 70000 81081 22234 04240 20601 329// 41004 80235
AAXX 06184 89642 40/// /2111 11087 21159 39766 49820 52007
BBXX MZDL7 06183 99211 50241 41298 30717 10245 20199 40198 54000 70200 8344/ 22213 00260 20503 324// 41202 5//// 80215
BBXX A8AF6 06183 99052 10015 41/96 /9901 10275 20241 40110 53010 70544 8//// 22223 02295 20000 318// 40501 80250
BBXX A8AF6 06183 99052 10015 41/96 /9901 10275 20241 40110 53010 70544 8//// 22223 02295 20000 318// 40501 80250
AAXX 06181 45032 36/// /3201 10110 20071 30232 40249 57001
AAXX 06181 45035 36/// /0103 10117 20088 30207 40251 57003
AAXX 06181 45039 36/// /0201 10118 20087 30230 40245 57002
AAXX 06181 45044 36/// /0105 10124 20097 30144 40240 57001
AAXX 06181 45032 36/// /3201 10110 20071 30232 40249 57001
AAXX 06181 45035 36/// /0103 10117 20088 30207 40251 57003
AAXX 06181 45039 36/// /0201 10118 20087 30230 40245 57002
AAXX 06181 45044 36/// /0105 10124 20097 30144 40240 57001
BBXX 44258 06181 99445 70634 46/// /2903 11049 40132 57009 22200 00053 11102 70009 333 91206
BBXX 44258 06181 99445 70634 46/// /2903 11049 40132 57009 22200 00053 11102 70009 333 91206
AAXX 06184 48431 32960 10000 10220 20188 39943 40160 57004 80001 333 58005
AAXX 06184 48565 32560 20000 10240 20225 30126 40136 57004 81101 333 58007
AAXX 06184 48425 31940 20000 10249 20228 30146 40156 52007 71000 80005 333 58009
BBXX 46246 06181 99500 71451 46/// ///// 1//// 91829 22200 00066 11211 21008 324// 41208 70057
BBXX 46243 06181 99462 71241 46/// ///// 1//// 91829 22200 00090 11307 21004 326// 41306 70036
BBXX 46236 06181 99368 71219 46/// ///// 1//// 91820 22200 00117 11708 21004 328// 41707 70039
BBXX 46229 06181 99438 71246 46/// ///// 1//// 91821 22200 00096 11308 21004 327// 41307 70041
BBXX 46225 06181 99329 71174 46/// ///// 1//// 91814 22200 00150 11703 20902 327// 41703 70017
BBXX 46213 06181 99403 71247 46/// ///// 1//// 91824 22200 00107 11710 21006 329// 41707 70048
BBXX 46215 06181 99352 71209 46/// ///// 1//// 91808 22200 00128 11507 21004 326// 41506 70036
BBXX 46219 06181 99332 71199 46/// ///// 1//// 91828 22200 00136 11809 20806 329// 41806 70045
BBXX 46224 06181 99332 71175 46/// ///// 1//// 91806 22200 00148 11703 21001 326// 41703 70015
AAXX 06184 97008 32459 43404 10262 20244 30074 40084 57027 84201 333 56100 57811 84818 80860
AAXX 06184 97016 32460 80000 10262 20238 30087 40089 57016 8397/ 333 56009 57902 57802 81919 82820 88360 80980 80860
AAXX 06184 97126 32457 73601 10244 20235 30033 40093 57021 83920 333 56000 57901 82916 87460 80980
AAXX 06184 97182 31460 60604 10240 20229 30090 40094 57018 71522 8327/ 333 56009 57800 83818 86360 808//
AAXX 06184 97240 11458 73305 10250 20244 39967 40081 57026 69901 70562 85231 333 56000 57801 84816 80860
AAXX 06184 97310 NIL
AAXX 06184 97320 01458 80000 10246 20243 30077 40090 57022 60191 71562 8582/ 333 56009 57801 69947 83819 88459 80858
AAXX 06184 97378 NIL
AAXX 06184 97406 NIL
AAXX 06184 97570 11457 83503 10234 20231 30093 40100 57016 60281 76166 8687/ 333 56009 81814 85616 87361
AAXX 06184 97630 11450 10240 20234 39929 40090 56021 69901 71526 8792/ 333 56009 57900 82912 85810 87458 80975
AAXX 06184 97700 32460 40000 10254 20244 30070 40084 57014 82232 333 56000 57804 82817 80850
AAXX 06184 97722 11462 60000 10246 20240 30078 40093 57018 69901 70296 84832 333 56699 57862 83819 80856
AAXX 06184 97014 11559 70000 10244 20237 30013 40106 55018 69961 70262 83871 333 56000 57802 83820 80860
AAXX 06184 97028 NIL
AAXX 06184 97048 01456 60000 10250 20235 30060 40084 57015 69901 76062 84973 333 56000 57901 57801 69907 81917 83817 80980 80860
AAXX 06184 97072 32458 70000 10240 20224 30013 40113 57018 82521 333 56000 82619 85460
AAXX 06184 97086 NIL
AAXX 06184 97096 32460 50000 10246 20230 30092 40113 59011 82231 333 56000 57803 82816 84360 80860
AAXX 06184 97120 NIL
AAXX 06184 97146 NIL
AAXX 06184 97180 12457 60603 10242 20242 30082 40100 58019 60001 83532 333 56000 83619 83360
AAXX 06184 97192 32950 40902 10253 20243 30056 40113 57020 83051 333 56000 83360
AAXX 06184 97230 01460 82712 10248 30070 40070 57025 69981 72162 85222 333 56600 57861 69927 85818 80858
AAXX 06184 97260 NIL
AAXX 06184 97270 NIL
AAXX 06184 97300 01560 80000 10260 20242 30051 40091 57025 60031 72162 8327/ 333 56009 57802 60027 83820 84459 80857
AAXX 06184 97340 NIL
AAXX 06184 97372 01457 83207 10260 20253 39967 40087 57012 60101 71762 84971 333 56000 60107 81915 83816 85459
AAXX 06184 97430 01458 70000 10246 20239 30070 40099 57016 60071 72162 84972 333 56700 57971 57871 60057 81915 83818 80980 80860
AAXX 06184 97460 32460 70000 10248 20229 30060 40074 57021 83876 333 56000 57802 82817 80858
AAXX 06184 97502 12450 70000 10245 20242 30083 40086 58013 69901 70262 87532 333 56000 86614
AAXX 06184 97530 NIL
AAXX 06184 97560 01450 82616 10238 20235 30085 40100 57009 60041 76162 8492/ 333 56000 57803 60047 81917 83818 88460 80980 80860
AAXX 06184 97686 NIL
AAXX 06184 97690 NIL
AAXX 06184 97724 31559 73103 10253 20241 30065 40081 57021 70522 81172 333 56600 81820 87459 80856
AAXX 06184 97748 31460 72405 10280 20257 30052 40054 56002 71322 83936 333 56600 57962 81914 82815 84074 80940 80850
AAXX 06184 97760 01440 70000 10260 20245 30085 40095 57020 60041 72162 84972 333 56000 57901 69937 81915 83816 80960
AAXX 06184 97796 31450 70000 10254 20248 30058 40109 57010 70522 84532 333 56000 84614 86362
AAXX 06184 97810 32958 70000 10262 20256 30068 40077 56014 86032 333 56000 86360
AAXX 06184 97900 32462 70701 10264 20246 30073 40092 57018 82950 333 56100 57913 81917 87360 80975
AAXX 06184 97980 32460 50000 10246 20237 30084 40091 57010 83242 333 56000 83817
AAXX 06184 96009 32557 31203 10247 20232 30101 40136 58004 81532 333 56000 81620
AAXX 06184 96011 32460 80000 10252 20237 30113 40139 57001 84532 333 56000 84619
AAXX 06184 96035 31450 60000 10250 20236 30097 40135 57004 70521 83531 333 56000 83618
AAXX 06184 96073 31550 70000 10247 20233 30111 40122 51001 70522 83500 333 56000 83620
AAXX 06184 96091 NIL
AAXX 06184 96109 32558 40000 10256 20222 30076 40115 58001 81531 333 56000 81625
AAXX 06184 96145 31440 80105 10262 20232 30124 40126 56006 70522 8652/ 333 56809 86616 88460
AAXX 06184 96147 NIL
AAXX 06184 96163 32560 70000 10262 20244 30117 40120 52007 84521 333 56000 84620
AAXX 06184 96179 32460 73610 10259 20233 30081 40117 57006 84238 333 56800 57882 84817 80850
AAXX 06184 96195 31440 70103 10256 20236 30090 40127 56009 70522 82511 333 56000 82614
AAXX 06184 96221 11430 80000 10246 20241 30101 40116 57010 60111 71062 83576 333 56999 83615 86362
AAXX 06184 96237 32457 70000 10252 20236 30073 40115 57016 83278 333 56000 57802 83816 86080 80858
AAXX 06184 96249 32559 73206 10258 20240 30051 40112 57017 83232 333 56700 57871 83820 80863
AAXX 06184 96253 32557 40000 10246 20231 30083 40104 57007 81132 333 56000 57800 81820 83080
AAXX 06184 96295 NIL
AAXX 06184 96509 32458 60000 10258 20248 30091 40103 57017 83131 333 56000 83815 83362
AAXX 06184 96581 32456 70000 10235 20232 30109 40116 57012 8517/ 333 56000 85810 84360 88462 80850
AAXX 06184 96633 31457 83604 10249 20242 30080 40088 58013 71392 8397/ 333 56009 57900 81917 83617 88460 809//
AAXX 06184 96645 NIL
AAXX 06184 96655 32456 50000 10258 20242 30092 40136 57006 83531 333 56000 83612
AAXX 06184 96685 32460 70000 10256 20245 30075 40102 57019 82511 333 56000 82618 86462
AAXX 06184 96749 31556 83203 10255 20237 30097 40110 56016 70592 83471 333 56000 83620 86460
AAXX 06184 96781 NIL
AAXX 06184 96805 NIL
AAXX 06184 96839 32556 70000 10254 20240 30111 40118 56002 83132 333 56000 83821
AAXX 06184 96935 32560 72505 10250 20227 30085 40091 57018 81131 333 56600 81820 85080
AAXX 06184 96001 NIL
AAXX 06184 96015 NIL
AAXX 06184 96033 31450 60000 10260 20239 30128 40134 57005 70522 82928 333 56000 57902 81920 82617 80980
AAXX 06184 96075 31440 70000 10248 20242 30115 40120 57003 71322 85921 333 56000 57901 82915 83618 80965
AAXX 06184 96087 NIL
AAXX 06184 96171 31540 60000 10248 20225 30098 40122 58003 70521 83521 333 56000 83620
AAXX 06184 96207 NIL
AAXX 06184 96525 NIL
AAXX 06184 96529 32550 30000 10250 20247 30101 40125 50001 82101 333 56000 82820
AAXX 06184 96559 01330 80000 10232 20229 30086 40124 57008 60011 70562 8612/ 333 56409 57845 69917 86808 88460 80845
AAXX 06184 96607 31420 50000 10246 20236 30095 40110 57013 74042 83511 333 56000 83612
AAXX 06184 96615 32956 43510 10260 20230 30105 40120 57010 83031 333 56000 83362
AAXX 06184 96737 NIL
AAXX 06184 96739 31456 72403 10248 20236 30064 40113 57019 70292 85522 333 56000 85618
AAXX 06184 96741 NIL
AAXX 06184 96745 11556 80000 10260 20245 30103 40108 57016 60211 70292 8452/ 333 56009 84620 88460
AAXX 06184 96751 32530 80000 10190 20179 39042 48920 52002 8551/ 333 56409 85620 83460
AAXX 06184 96791 11557 70000 10253 20241 30053 40128 56010 69901 70262 84511 333 56000 84620 86460
AAXX 06184 96797 31458 71902 10256 20244 30094 40100 57028 60041 70262 83971 333 56000 57902 81918 83620 85460 80980
AAXX 06184 96837 32558 70000 10250 20235 30099 40102 57016 83271 333 56000 57800 83823
AAXX 06184 96925 01460 82914 10275 20238 30093 40098 56016 69901 70262 84272 333 56600 57860 69907 84817 80860
AAXX 06184 96933 32560 62706 10260 20230 30083 40087 57018 81521 333 56600 81620 85460
AAXX 06184 96937 32458 73009 10260 20233 30085 40090 57018 83526 333 56000 83619 85460
AAXX 06184 96973 01458 82809 10262 20238 30087 40092 57008 69901 71762 84976 333 56000 57902 82919 80976 82820 80850
AAXX 06184 96987 12459 70000 10238 20225 30030 40089 57014 69901 83521 333 56000 83618
BBXX 44140 06181 99429 70515 46/// /3409 10133 40026 57024 22200 00100 11106 70032 333 91212
BBXX 44140 06181 99429 70515 46/// /3409 10133 40026 57024 22200 00100 11106 70032 333 91212
AAXX 06181 98134 11430 80407 10200 20194 39989 40181 58006 60121 76166 8552/ 333 56199 85617 88456
AAXX 06181 98223 32462 33604 10240 20226 40148 58012 81205 333 56899 81819 83279
AAXX 06181 98232 31565 20000 10240 20223 40169 50006 70242 82200 333 56999 82820
AAXX 06181 98325 32458 40901 10250 20236 40140 58012 82270 333 56999 82817 83359
AAXX 06181 98328 31461 41102 10160 20151 38542 40120 58008 70544 82101 333 56999 82813 84079
AAXX 06181 98330 32475 70000 10240 20219 30120 40152 58008 82270 333 56999 82818 87358
AAXX 06181 98336 11464 83603 10229 20228 30162 40167 58006 60011 76066 8252/ 333 56199 82615 88457
AAXX 06181 98429 31560 80801 10255 20234 40146 58007 70544 8387/ 333 56999 83825 88460
AAXX 06181 98430 11557 70000 10237 20237 40141 58008 69981 72584 83870 333 56999 83620 84358
AAXX 06181 98431 11458 81801 10248 20229 30088 40135 58013 60011 70282 8387/ 333 56999 83618 88459
AAXX 06181 98440 11458 80902 10242 20228 30140 40145 57010 60081 76062 8422/ 333 56299 84815 88457
AAXX 06181 98444 32462 60402 10262 20243 30111 40130 58013 82208 333 56999 82818 85270
AAXX 06181 98526 32570 10901 10275 20244 40127 57025 81100 333 56999 81820
AAXX 06181 98531 31568 30902 10262 20220 30121 40125 58011 70544 81231 333 56199 81820
AAXX 06181 98536 32465 60403 10240 20222 39930 40136 57008 83270 333 56199 83818 84357
AAXX 06181 98543 NIL
AAXX 06181 98550 11458 80000 10252 20244 40119 58012 60101 78062 8497/ 333 56999 82915 88357
AAXX 06181 98618 32470 82901 10264 20238 40115 58010 8327/ 333 56999 83819 88458
AAXX 06181 98630 NIL
AAXX 06181 98637 NIL
AAXX 06181 98646 11557 80202 10246 20238 30112 40140 57011 60181 76166 8482/ 333 56199 84820 88458
AAXX 06181 98653 11460 81603 10251 20243 30050 40095 58010 60281 76086 8322/ 333 56999 82818 88457
AAXX 06181 98741 NIL
AAXX 06181 98747 31460 52401 10233 20216 39901 40105 57008 70544 83260 333 56999 83818 85358
AAXX 06181 98753 31468 53602 10260 20238 40100 58015 70544 81231 333 56999 81816 85079
AAXX 06181 98755 NIL
AAXX 06181 98836 31460 70000 10240 20229 40108 58017 70544 81208 333 56999 81818 87281
BBXX 46036 06181 99484 71339 46/// /2808 10076 40190 52028 22200 00078 11407 70037 333 91210
BBXX 46036 06181 99484 71339 46/// /2808 10076 40190 52028 22200 00078 11407 70037 333 91210
BBXX 64045 06184 99591 70117 46/// /2729 10071 20037 40042 50000 22200 00098 10810 70049 333 90710 91139
BBXX 63106 06184 99610 10017 46/// /1912 10053 40010 57050 22200
BBXX 63105 06184 99610 10017 47598 ///// 10061 20013 40009 57051 700// 22200
BBXX 62304 06184 99511 10018 46/98 ///20 10083 20027 40247 58014 22200 00104 10602 70009
BBXX 62103 06184 99499 70029 46/98 /2623 10104 20078 40268 57019 22200 00115 10903 70016 333 90710 91129
AAXX 06181 38847 3//// /2605 11112 21123 39510 40340 333 11018 777 92091
AAXX 06181 78458 32466 80000 10235 20206 40199 57021 8582/ 333 10239 20194 31/// 56200 58008 85818 88457 78460 31460 70104 10236 20197 40178 57029 70544 84570 333 10251 20186 31/// 56100 58002 84618 87357 78467 32466 60405 10254 20199 40177 57016 86200 333 10255 20200 30/// 56800 58007 86818 78479 21466 70207 10247 20202 40153 57016 70362 85270 333 10251 20204 31/// 56100 58001 60017 85818 86358
AAXX 06181 78482 32566 23603 10324 20197 40169 57031 81201 333 10325 20190 30/// 56500 59003 81825
AAXX 06181 78485 32566 70208 10266 20179 40167 57025 86236 333 10290 20183 30/// 56100 58006 86825
AAXX 06181 78486 32566 63603 10254 20205 40152 57019 83270 333 10278 20207 30/// 56800 58006 83822 84358
AAXX 06181 78488 32466 53509 10255 20206 40168 57024 84830 333 10265 20175 30/// 56800 58006 84618
AAXX 06184 63688 32480 10000 10165 20093 81500 333 10250 59013 81618
AAXX 06184 63740 32580 40410 10210 20156 48501 81530 333 10276 59004 81621 84359
AAXX 06184 63820 32580 10310 10266 20225 40108 81100 333 10317 59001 81824
AAXX 06184 63612 NIL
AAXX 06184 63661 NIL
AAXX 06184 63671 NIL
AAXX 06184 63695 NIL
AAXX 06184 63708 NIL
AAXX 06184 63714 NIL
AAXX 06184 63723 NIL
AAXX 06184 63772 NIL
AAXX 06184 63793 NIL
AAXX 06183 63671 32980 00000 10284 20187 333 10352
AAXX 06183 63723 32980 00000 10302 20196 40081 333 10353 59013
AAXX 06183 63793 32980 50507 10277 20180 40077 80002 333 10328 58000 85075
BBXX 46238 06181 99334 71195 46/// ///// 1//// 91820 22200 00136 11507 20904 328// 41505 70034
BBXX 46239 06181 99363 71221 46/// ///// 1//// 91821 22200 00118 11709 21005 328// 41708 70046
AAXX 06184 78318 11563 20303 10230 20102 30206 40210 58025 60001 70500 81802 333 10233 20108 30/// 56909 59030 81820
AAXX 06184 78325 11562 50203 10222 20124 30153 40212 58023 60001 70511 85400 333 10238 20136 30/// 56100 57883 59020 85820 555 10501
AAXX 06184 78333 11410 11002 10241 20079 30200 40207 58023 60001 70500 81100 333 10244 20093 30/// 56200 59016 81818 555 10803
AAXX 06184 78348 11557 30903 10219 20108 30157 40210 58019 60001 70500 82802 333 10225 20131 30/// 56209 57843 59010 82820 555 10902
AAXX 06184 78349 11565 30502 10231 20084 30094 40204 57026 60001 70500 83200 333 10236 20098 30/// 56800 59011 83822 555 13602
AAXX 06184 78353 12570 50703 10247 20089 30184 40206 58017 60001 85800 333 10250 20189 30/// 56900 58004 83823
AAXX 06184 78360 12570 10704 10275 20134 30166 40178 58025 60001 81402 333 10280 20174 30/// 56909 59013 818// 92023
AAXX 06184 78369 11568 40405 10255 20173 30175 40184 57018 60001 70511 84200 333 10262 20225 30/// 56100 57843 59007 84820 92043 555 10403
AAXX 06181 20046 NIL
AAXX 06181 20069 NIL
AAXX 06181 20087 42998 01305 11265 21297 30363 40375 54000
AAXX 06181 20292 NIL
AAXX 06181 20353 46/// /1415 11158 21177 30201 40206 57006 333 91118
AAXX 06181 20667 31998 81007 11175 21194 30171 40179 53003 73632 8805/ 333 11165
AAXX 06181 20674 41498 61307 11252 21270 30181 40247 57007 73631 86500 333 86613 91112
AAXX 06181 20744 31997 61121 11121 21148 30050 40069 52011 73732 86030 333 11086 91130
AAXX 06181 20891 41994 00704 11432 21461 30340 40390 52004 71000 333 91105
AAXX 06181 23022 12997 21702 11141 21161 30037 40100 52013 69900 82030 333 11112
AAXX 06181 23032 31497 71104 11182 21208 30075 40107 52010 70232 87530 333 11191
AAXX 06181 23058 31396 81204 11201 21220 30152 40157 56002 77172 8872/ 333 11192 88707
AAXX 06181 23242 11997 62003 11201 21234 30116 40133 53005 69900 70283 85031 333 11199
AAXX 06181 23256 11996 81605 11202 21221 30123 40161 57014 69970 77172 8807/ 333 11193
AAXX 06181 23330 11697 82003 11189 21215 30124 40146 52016 60030 70272 8553/ 333 11202 85643
AAXX 06181 23445 11997 82103 11203 21222 30134 40161 52020 60010 70272 80001 333 11198
AAXX 06181 23552 11996 81902 11184 21203 30140 40176 52004 60020 77173 8802/ 333 11205
AAXX 06181 23631 11998 80000 11191 21210 30123 40167 52006 69990 70272 80006 333 11161
AAXX 06181 23662 11996 81602 11204 21223 30166 40214 57012 69900 77172 8802/ 333 11219
AAXX 06181 23724 32598 82402 11042 21051 30111 40176 52005 885// 333 11040
AAXX 06181 23734 12998 80000 11139 21152 30108 40205 52012 60010 80001 333 11140
AAXX 06181 23849 41356 82304 11116 21130 40241 52016 77177 8802/ 333 88507
AAXX 06181 23867 11996 81803 11173 21199 30178 40255 54000 69900 77171 8801/ 333 11196
AAXX 06181 23933 12997 82101 11100 21107 30176 40235 52015 69960 80005 333 11089
AAXX 06181 28064 12998 21801 11087 21094 30156 40251 52009 69900 80001 333 11056
AAXX 06181 28275 11997 01701 11090 21115 30219 40281 52009 69920 70287 333 11088
AAXX 06181 28493 32597 81702 11146 21173 30217 40316 52006 885// 333 11161
AAXX 06181 28698 11496 80000 11093 21105 30174 40336 52006 69900 77172 885// 333 11113 88619
AAXX 06181 23426 12684 61902 11193 21212 30127 40153 52011 60020 86500 333 11192
AAXX 06181 23625 12998 80201 11141 21154 30118 40154 52001 69960 80006 333 11150
AAXX 06181 28076 32597 82002 11087 21094 30182 40257 52012 885// 333 11094
AAXX 06181 28367 32984 21801 11078 21092 30156 40290 52008 80002 333 11068
AAXX 06181 28382 11998 81701 11123 21143 30223 40297 52008 69900 70277 8801/ 333 11133
AAXX 06181 28481 32997 82002 11103 21116 30204 40308 52005 8802/ 333 11120
AAXX 06181 28491 32597 82002 11122 21142 30194 40311 52006 885// 333 11141 88630
AAXX 06181 28573 32997 82302 11075 21084 30206 40314 52006 8802/ 333 11101
AAXX 06181 28593 11996 82002 11136 21156 30220 40324 52002 69900 77172 8802/ 333 11154
AAXX 06181 28786 12497 82503 11049 21062 30176 40338 52005 69900 886// 333 11066 88716
AAXX 06181 28797 32597 82303 11065 21081 30174 40337 51001 885// 333 11094 88622
AAXX 06181 28799 11496 82101 11105 21125 30198 40351 54000 69900 77172 8802/ 333 11149 88516
BBXX 44060 06181 99413 70721 46/// ///07 10080 40085 91830 22200 00086 333 91209 555 11077 22082
BBXX 44022 06181 99409 70737 46/// ///06 10084 20001 40082 91830 22200 00057 333 91209 555 11072 22082
BBXX 44033 06181 99441 70690 46/22 /1205 11010 40108 56032 91804 22200 00045 11101 70004 333 91206 555 11054 22056
BBXX 44039 06181 99411 70727 46/// /2505 10074 20028 40096 91800 22200 00068 10301 70005 333 91206
BBXX 44060 06181 99413 70721 46/// ///07 10082 40085 91815 22200 00086 333 91209 555 11082 22082
BBXX 44022 06181 99409 70737 46/// ///06 10083 21001 40085 91815 22200 00056 333 91208 555 11072 22082
BBXX 51204 06181 99213 71581 46/// ///// 1//// 91822 22200 00245 10803 20803 326// 41201 70014
BBXX 51201 06181 99217 71581 46/// ///// 1//// 91812 22200 00241 11304 21002 335// 41303 70018
BBXX 51202 06181 99214 71577 46/// ///// 1//// 91810 22200 00239 11304 20703 301// 41303 70022
BBXX A8AF6 06183 99052 10015 41/96 /9901 10275 20241 40110 53010 70544 8//// 22223 02295 20000 318// 40501 80250
BBXX MZDL7 06183 99211 50241 41298 30717 10245 20199 40198 54000 70200 8344/ 22213 00260 20503 324// 41202 5//// 80215
BBXX DAJT 06184 99283 50484 41598 40818 10250 20222 40055 58/// 70211 8314/ 22243 00230 2//02 80230
BBXX 44060 06181 99413 70721 46/// ///07 10082 40085 91815 22200 00086 333 91209 555 11082 22082
BBXX 44030 06181 99432 70704 46/// /1807 1//// 40084 56036 91804 22200 00075 10402 70008 333 91208 555 11087 22093
BBXX 44039 06181 99411 70727 46/// /2505 10074 20028 40096 57030 91800 22200 00068 10301 70005 333 91206
BBXX 44057 06181 99395 70761 46/// /1502 1//// 91820 333 91203
BBXX 44034 06181 99441 70681 46/30 /1304 11018 40116 56028 91804 22200 00073 11101 70007 333 91206 555 11044 22045
BBXX 44022 06181 99409 70737 46/// ///06 10083 21001 40085 91815 22200 00056 333 91208 555 11072 22082
BBXX 44059 06181 99368 70763 46/// /2605 1//// 91820 333 91208
BBXX 44032 06181 99437 70694 46/30 /1506 10007 40093 58035 91804 22200 00078 333 91208 555 11072 22074
BBXX 44040 06181 99410 70736 46/// /2406 10077 20011 40090 91815 22200 10201 70003 333 91207 555 11072 22088
BBXX 44058 06181 99376 70763 46/// /2506 10123 40126 58036 91800 22200 00067 1//00 70002 333 91207
BBXX 44058 06181 99376 70763 46/// /2506 1//// 40125 91810 333 91207
BBXX 44058 06181 99376 70763 46/// /2504 1//// 91820 333 91206
BBXX 44057 06181 99395 70761 46/// /2303 10084 40106 58029 91800 22200 00032 333 91203
BBXX 44057 06181 99395 70761 46/// /1902 1//// 40105 91810 333 91203
BBXX 44059 06181 99368 70763 46/// /2605 10175 40133 58034 91800 22200 00085 333 91209
BBXX 41029 06181 99328 70796 46/// /2205 1//// 91800 555 11049 22050
BBXX WACW 06184 99393 71263 41397 30313 10110 2005/ 40290 52020 7//22 8212/ 22272 00110 20504 3//// 4//// 5//// 6//// 80080 ICE /////
BBXX 46184 06181 99539 71389 46/// /2715 10040 40037 52055 22200 00057 11212 70058 333 91219
BBXX 46221 06181 99339 71186 46/// ///// 1//// 91745 22200 00149 11504 21002 326// 41503 70019
BBXX 44067 06181 99384 70770 46/// /2906 10146 40114 58032 91800
BBXX 42085 06181 99179 70665 46/// /1205 10271 40140 91810 333 91206
BBXX 44029 06181 99425 70706 46/30 /1710 10052 40073 56043 91804 22200 00074 10503 70014 333 91211 555 11118 22124
BBXX 44098 06181 99428 70702 46/// ///// 1//// 91807 22200 00078 10402 20402 311// 41101 70010
BBXX 46181 06181 99538 71288 46/// /0100 10015 40180 57001 22200 00018 10300 70000 333 91200
BBXX 41114 06181 99276 70802 46/// ///// 1//// 91816 22200 00210 11201 20501 306// 41201 70006
BBXX 41115 06181 99184 70673 46/// ///// 1//// 91805 22200 11305 20804 335// 41303 70024
BBXX 46132 06181 99497 71279 46/// /1412 10064 40186 57010 22200 00083 11207 70037 333 91215
BBXX 46205 06181 99542 71343 46/// /2210 10066 40063 52013 22200 00070 11110 70052 333 91214
BBXX 46206 06181 99488 71260 46/// /1708 10062 40234 57002 22200 00081 11206 70032 333 91210
BBXX ELWG7 06184 99449 71301 415// 82324 10120 2010/ 40235 57005 74052 886// 22284 00130 20804 325// 40808 5//// 6//// 80110 ICE /////
BBXX 51205 06181 99210 71564 46/// ///// 1//// 91818 22200 00239 11305 20703 335// 41304 70025
BBXX 46114 06181 99364 71222 46/// ///// 1//// 91804 22200 00110 11510 21006 328// 41508 70050
BBXX 46214 06181 99379 71235 46/// ///// 1//// 91818 22200 00114 11410 20907 329// 41408 70052
BBXX 46211 06181 99469 71242 46/// ///// 1//// 91806 22200 00085 11308 21004 328// 41306 70038
BBXX 46242 06181 99332 71174 46/// ///// 1//// 91758 22200 00151 11703 21001 324// 41703 70015
BBXX 46231 06181 99327 71174 46/// ///// 1//// 91754 22200 00150 11506 21002 328// 41505 70029
BBXX 46222 06181 99336 71183 46/// ///// 1//// 91756 22200 00150 11705 21002 327// 41704 70023
BBXX 46223 06181 99335 71178 46/// ///// 1//// 91800 22200 00152 11404 21002 327// 41403 70018
BBXX 46216 06181 99343 71198 46/// ///// 1//// 91757 22200 00144 11705 20903 327// 41704 70025
BBXX DFWV2 06184 99358 11307 41598 63512 10062 20012 40300 52010 70152 8/2// 22213 04120 2//03 3//// 4//// 5//// 80040
BBXX UFMK 06181 99448 11387 42598 63809 11035 40116 54000 22253 00030 20402
BBXX 46036 06181 99484 71339 46/// /2808 10076 40190 52028 22200 00078 11407 70037 333 91210
BBXX 44140 06181 99429 70515 46/// /3409 10133 40026 57024 22200 00100 11106 70032 333 91212
BBXX 46219 06181 99332 71199 46/// ///// 1//// 91828 22200 00136 11809 20806 329// 41806 70045
BBXX 46224 06181 99332 71175 46/// ///// 1//// 91806 22200 00148 11703 21001 326// 41703 70015
BBXX 46236 06181 99368 71219 46/// ///// 1//// 91820 22200 00117 11708 21004 328// 41707 70039
BBXX 46213 06181 99403 71247 46/// ///// 1//// 91824 22200 00107 11710 21006 329// 41707 70048
BBXX 46243 06181 99462 71241 46/// ///// 1//// 91829 22200 00090 11307 21004 326// 41306 70036
BBXX 46246 06181 99500 71451 46/// ///// 1//// 91829 22200 00066 11211 21008 324// 41208 70057
BBXX 46225 06181 99329 71174 46/// ///// 1//// 91814 22200 00150 11703 20902 327// 41703 70017
BBXX 46229 06181 99438 71246 46/// ///// 1//// 91821 22200 00096 11308 21004 327// 41307 70041
BBXX 46215 06181 99352 71209 46/// ///// 1//// 91808 22200 00128 11507 21004 326// 41506 70036
BBXX 44258 06181 99445 70634 46/// /2903 11049 40132 57009 22200 00053 11102 70009 333 91206
BBXX 44063 06181 99390 70764 46/// /2105 10072 40130 58023 91800 22200 00054 1//00 70002 333 91206
BBXX 44041 06181 99372 70768 46/// /2704 1//// 91820 333 91206
BBXX 44063 06181 99390 70764 46/// /2205 1//// 40128 91810 333 91206
BBXX 44041 06181 99372 70768 46/// /2706 10149 40157 58032 91800 22200 00062 1//00 70001 333 91208
BBXX 44041 06181 99372 70768 46/// /2705 1//// 40155 91810 333 91209
BBXX 44042 06181 99380 70763 46/// /2701 1//// 91820 333 91202
BBXX 44063 06181 99390 70764 46/// /2105 1//// 91820 333 91206
BBXX 44062 06181 99386 70764 46/// /2103 10100 40100 58029 91800 22200 00064 1//00 70002 333 91204
BBXX 41112 06181 99307 70813 46/// ///// 1//// 91821 22200 00152 11201 311// 41201 70004
BBXX 41113 06181 99284 70805 46/// ///// 1//// 91821 22200 00195 11201 20901 310// 41201 70004
BBXX 42099 06181 99273 70842 46/// ///// 1//// 91827 22200 00214 10501 20501 70005
BBXX 41110 06181 99341 70777 46/// ///// 1//// 91821 22200 00120 11101 21001 70005
BBXX 44100 06181 99363 70756 46/// ///// 1//// 91822 22200 00100 11101 21001 70006
BBXX 41009 06181 99285 70802 46/// /2802 10177 20117 40227 91820 22200 00207 11201 20401 300// 41201 70007 333 91203 555 11019 22020
BBXX 41010 06181 99289 70785 46/// /2904 10201 40215 91820 22200 00231 11102 20401 300// 41102 70010 333 91205 555 11038 22039
BBXX 44043 06181 99392 70764 46/// /1805 10073 40101 58032 91800 22200 00038 1//00 70002 333 91206
BBXX 44043 06181 99392 70764 46/// /1805 1//// 40101 91810 333 91206
BBXX 44043 06181 99392 70764 46/// /1905 1//// 91820 333 91205
BBXX 44042 06181 99380 70763 46/// /2702 10107 40125 58030 91800 22200 00069 10201 70003 333 91203
BBXX 44042 06181 99380 70763 46/// /2602 1//// 40124 91810 333 91203
BBXX 44062 06181 99386 70764 46/// /2103 1//// 40098 91810 22200 00064 333 91204
BBXX 44062 06181 99386 70764 46/// /2104 1//// 91820 22200 00065 333 91204
BBXX 42013 06181 99272 70829 46/// ///// 1//// 40228 91740 22200 00193
BBXX 44039 06181 99411 70727 46/// /2504 10074 20030 40096 91753 22200 00069 10301 70005 333 91205
BBXX 46146 06181 99493 71237 46/// /1007 10054 40255 57001 22200 00069 10301 70004 333 91209
BBXX 44099 06181 99369 70757 46/// ///// 1//// 91822 22200 00095 11101 21001 70006
BBXX 46004 06181 99509 71361 46/// /2610 10056 40137 52026 22200 00070 11412 70060 333 91213
BBXX 46232 06181 99325 71174 46/// ///// 1//// 91808 22200 00149 11405 21002 328// 41404 70025
BBXX 46246 06181 99500 71451 46/// ///// 1//// 91759 22200 00066 11311 21007 322// 41308 70054
BBXX 44059 06181 99368 70763 46/// /2605 1//// 40132 91810 333 91209
BBXX 46217 06181 99342 71194 46/// ///// 1//// 91812 22200 00144 11505 21004 326// 41503 70025
BBXX 46212 06181 99408 71243 46/// ///// 1//// 91812 22200 00106 11509 21005 330// 41507 70043
BBXX 46240 06181 99366 71219 46/// ///// 1//// 91812 22200 00117 11304 21002 335// 41303 70021
BBXX 46237 06181 99378 71226 46/// ///// 1//// 91810 22200 00113 11708 21003 326// 41707 70038
BBXX 46244 06181 99409 71244 46/// ///// 1//// 91805 22200 00106 11510 21005 328// 41509 70050
BBXX 46249 06181 99338 71197 46/// ///// 1//// 91807 22200 00143 11506 20904 326// 41504 70031
BBXX 46248 06181 99461 71247 46/// ///// 1//// 91804 22200 00094 11308 21004 327// 41307 70041
BBXX 46241 06181 99330 71173 46/// ///// 1//// 91741 22200 00142 11503 20901 326// 41503 70015
BBXX 46111 06181 99481 71227 46/// /2004 10052 40255 56004 91800 22200 00049
BBXX 46185 06181 99524 71298 46/// /1715 10061 40147 57003 22200 00070 10708 70038 333 91219
BBXX 46109 06181 99481 71234 46/// /2002 10037 40254 91800 22200 00079
BBXX 41053 06181 99185 70661 46/// /0404 10264 40147 91750 333 91206
BBXX 41053 06181 99185 70661 46/// /0404 10263 40147 91740 333 91206
BBXX A8TG2 06183 99256 71526 41/// 30908 10250 20204 40220 54000 22263 00220 20801 305// 41005 80220
BBXX 41053 06181 99185 70661 46/// /0304 10264 40146 58025 91800 22200 00273 11204 70022 333 91206
BBXX 46088 06181 99483 71232 46/// /1405 10058 40253 91820 22200 00077 11002 20201 325// 41001 70008 333 91206 555 11056 22058 31751 41307 61819 138054 132060 130062 134062 134059 134055
BBXX 46087 06181 99485 71247 46/// /1305 10068 20035 40251 91820 22200 00083 333 91206 555 11048 22050 31746 41308 61819 130047 137048 141047 137051 133049 135043
BBXX 41036 06181 99342 70770 46/// ///// 10176 20065 40183 91820 22200 00190
BBXX WAZV 06184 99492 71285 41298 81630 10060 2006/ 40175 57051 76165 847// 22273 00090 20303 32819 40707 5//// 6//// 80060 ICE /////
BBXX WDF2960 06183 99324 71467 41498 70906 10183 20148 40228 52006 70311 85672 22214 0//// 20201 328// 40805 5//// 6//// 80161 ICE /////
BBXX MFLM9 06183 99138 31227 41697 41204 10290 20249 40084 54000 70311 824// 22253 04300 20101 314// 40102 5//// 80261
BBXX 9KWP 06183 99161 30992 41697 61216 10260 20215 40124 58010 70211 83534 22234 2//// 80230
BBXX 9HA2479 06184 99175 31649 46/// /2414 10265 20205 30045 40074 57003 22254 04288 85223
BBXX VROB 06184 99068 31470 46/// /3206 10246 20226 30050 40075 57018 22200 04305 85231
BBXX 9V8207 06183 99308 51382 41/97 73013 40103 52006 75051 8622/ 22224 2//// 326// 40504
BBXX VNAA 06184 99481 31466 41297 82825 10110 20086 40064 57015 70255 8/7// 22243 00115 20402 327// 41006
BBXX VNAH 06184 99358 31305 46/// /3020 10187 20163 39981 40004 57020 22263 04187 85171
BBXX C6FS9 06184 99320 31530 46/// /2110 10207 20127 30114 40150 57003 22243 04248 85158
BBXX FHZI 06184 99429 31473 46/// /3301 10146 20093 30105 40116 57011 22200 04182 85117
BBXX WXY6216 06184 99419 70875 41/98 /2632 00/// 10074 20017 40061 50001 7020/ 8//// 22243 0//// 2//01 3//// 4//// 5//// 6//// 80048 ICE /////
BBXX WC5932 06184 99458 70871 43/// /2610 00/// 10081 20011 40020 50005 7//// 8//// 22200 0//// 2//// 3//// 4//// 5//// 6//// 80040 ICE /////
BBXX WDC8307 06184 99441 70826 41/98 72520 10066 2//// 40017 53/// 70202 8//// 22253 00022 2//02 3//// 4//// 5//// 6//// 8//// ICE /////
AAXX 06181 78458 32466 80000 10235 20206 40199 57021 8582/ 333 10239 20194 31/// 56200 58008 85818 88457 78460 31460 70104 10236 20197 40178 57029 70544 84570 333 10251 20186 31/// 56100 58002 84618 87357 78467 32466 60405 10254 20199 40177 57016 86200 333 10255 20200 30/// 56800 58007 86818 78479 21466 70207 10247 20202 40153 57016 70362 85270 333 10251 20204 31/// 56100 58001 60017 85818 86358
AAXX 06181 78482 32566 23603 10324 20197 40169 57031 81201 333 10325 20190 30/// 56500 59003 81825
AAXX 06181 78485 32566 70208 10266 20179 40167 57025 86236 333 10290 20183 30/// 56100 58006 86825
AAXX 06181 78486 32566 63603 10254 20205 40152 57019 83270 333 10278 20207 30/// 56800 58006 83822 84358
AAXX 06181 78488 32466 53509 10255 20206 40168 57024 84830 333 10265 20175 30/// 56800 58006 84618
BBXX SCKM 06183 99477 70197 43/98 72416 10120 40336 53001 22264 00130 20303 40303
BBXX A8RU5 06184 99366 10132 41/97 /3628 10112 20090 40060 53012 70011 22294 299// 80100
BBXX WDE8288 06184 99345 10227 41/// 92731 10150 2010/ 49988 53025 72566 8//// 22272 0//// 20508 325// 40806 5//// 6//// 80120 ICE /////
BBXX A8SC4 06184 99111 70919 41999 10520 10280 20217 40135 50000 70000 81081 22234 04240 20601 329// 41004 80235
BBXX 531076 06180 99544 10072 41597 23314 10050 40177 51010 75051 825// 22200 04100 20408 3//// 4//// 5////
BBXX WC5932 06184 99458 70871 43/// /2610 00/// 10081 20011 40020 50005 7//// 8//// 22200 0//// 2//// 3//// 4//// 5//// 6//// 80040 ICE /////
BBXX WXY6216 06184 99419 70875 41/98 /2632 00/// 10074 20017 40061 50001 7020/ 8//// 22243 0//// 2//01 3//// 4//// 5//// 6//// 80048 ICE /////
AAXX 06184 91723 NIL
AAXX 06184 91964 36/// /0611 10246 20207 40164 52009
BBXX MINUK03 0618/ 99526 10043 46/// ///// 10065 40162 57027
AAXX 06181 38846 415// 80404 11124 21134 38539 48500 57005 71022 886//
BBXX SHIP 06184 99500 71576 41396 81431 10080 20060 40970 57075 76126 887// 91800 22224 00060 20505 313// 40707 80070
BBXX SHIP 06184 99338 71521 41498 81818 10190 20159 1 40216 57004 7636 87727 22263 00230 020302 327// 40303 80170
BBXX 44137 06181 99423 70620 46/// /3208 10024 40135 57001 22200 00084 10704 70022 333 91211
BBXX 44137 06181 99423 70620 46/// /3208 10024 40135 57001 22200 00084 10704 70022 333 91211
BBXX 41033 06181 99323 70804 46/// /2204 1//// 40206 58023 91800 555 11040 22040
BBXX 44024 06181 99423 70659 46/30 /2802 10022 40131 56015 91804 22200 00073 10604 70018 333 91204 555 11026 22027
AAXX 0618/ 89866 46/// ///// 10023 39624 4//// 5//// 91820
AAXX 0618/ 89879 46/// ///// 10011 39686 4//// 5//// 91830
BBXX 44039 06181 99411 70727 46/// /2504 10074 20030 40096 91753 22200 00069 10301 70005 333 91205
BBXX KS098 06184 99446 71240 43/// /0703 10036 40274 22200 06000
BBXX KS094 06184 99184 70645 43/// /1511 10258 40161 22200 06257
BBXX KS077 06184 99171 70619 43/// ///// 10271 40154 22200 06246
BBXX KS089 06174 99260 70240 43/// /0916 10208 22263
AAXX 06181 31152 42997 32002 11293 21324 39831 40277 57005 80002
AAXX 06181 31163 NIL
AAXX 06181 31285 42999 00000 11254 21285 30217 40304 57003
AAXX 06181 31561 42999 01803 11184 21196 30266 40296 52001
AAXX 06181 31683 42999 80000 11218 21230 30195 40276 52007 80005
AAXX 06181 32010 42998 00000 11282 21306 30191 40246 57006 333 91001 91104
AAXX 06184 71049 46/// /3116 11325 30014 40039 51024 6///1 333 11255 21327 7////
AAXX 06184 71923 16/// ///02 11295 21320 39670 40141 51007 60001 333 11270 21320 70000
AAXX 06184 71592 16/// /1006 11331 21374 39978 49992 53008 60001 333 11311 21344 7////
AAXX 06184 71490 16/// /2806 11300 21328 39802 40146 51011 60001 333 11295 21365 70000
AAXX 06184 71761 16/// ///// 11024 21060 60001 333 11007 21041 70000
AAXX 06184 71963 16/// /2804 11333 21366 39718 40152 53007 60001 333 11330 21402 70000
BBXX WDC8583 06184 99554 71321 41/96 81440 10005 2//// 40130 5//// 786// 8//// 222// 0//// 2//03 3//// 4//01 6////
BBXX 44138 06181 99443 70536 46/// /3309 10041 40057 57011 22200 00079 11005 70025 333 91211
BBXX 44138 06181 99443 70536 46/// /3309 10041 40057 57011 22200 00079 11005 70025 333 91211
BBXX 46004 06181 99509 71361 46/// /2610 10056 40137 52026 22200 00070 11412 70060 333 91213
BBXX 46036 06181 99484 71339 46/// /2808 10076 40190 52028 22200 00078 11407 70037 333 91210
BBXX 46145 06181 99544 71324 46/// /1713 10060 40091 57008 22200 00069 10604 70020 333 91216
BBXX 46181 06181 99538 71288 46/// /0100 10015 40180 57001 22200 00018 10300 70000 333 91200
BBXX 46183 06181 99536 71311 46/// /1515 10060 40120 57006 22200 00076 10707 70034 333 912//
BBXX 46185 06181 99524 71298 46/// /1715 10061 40147 57003 22200 00070 10708 70038 333 91219
BBXX 46204 06181 99514 71288 46/// /1414 10058 40169 57004 22200 00078 11107 70036 333 91217
BBXX 46205 06181 99542 71343 46/// /2210 10066 40063 52013 22200 00070 11110 70052 333 91214
BBXX 46206 06181 99488 71260 46/// /1708 10062 40234 57002 22200 00081 11206 70032 333 91210
BBXX ELWG7 06184 99449 71301 415// 82324 10120 20100 40235 57005 74052 886// 22284 00130 20804 325// 40808 5//// 6//// 80110 ICE /////
BBXX KS098 06184 99446 71240 43/// /0703 10036 40274 22200 06000
BBXX WACW 06184 99393 71263 41397 30313 10110 20050 40290 52020 7//22 8212/ 22272 00110 20504 3//// 4//// 5//// 6//// 80080 ICE /////
BBXX WAZV 06184 99492 71285 41298 81630 10060 20060 40175 57051 76165 847// 22273 00090 20303 32819 40707 5//// 6//// 80060 ICE /////
BBXX WDF2960 06183 99324 71467 41498 70906 10183 20148 40228 52006 70311 85672 22214 0//// 20201 328// 40805 5//// 6//// 80161 ICE /////
AAXX 06184 78767 11458 82907 10233 20208 30150 40160 60041 75865 87520 333 10234 20205 32/// 56700 59010 86615
AAXX 06184 78767 11458 82907 10233 20208 30150 40160 60041 75865 87520 333 10234 20205 32/// 56700 59010 86615
AAXX 06184 78767 11458 82907 10233 20208 30150 40160 60041 75865 87520 333 10234 20205 32/// 56700 59010 86615
AAXX 06184 42867 31594 33203 10200 20177 70500 333 59007 81620
AAXX 06184 42933 32996 00000 10190 20101 40143 333 59003
AAXX 06184 91532 45/// /0606 10269 20240 30085 40093 52010
AAXX 06184 94210 35/// /0000 10274 30067 40072 57015
AAXX 06184 94289 46/// /1210 10262 30085 40092 56008 91815
AAXX 06184 94379 46/// /1109 10249 30100 40109 53001 91826
AAXX 06184 94995 46/// /1505 10205 20179 30107 40115
AAXX 06184 94995 46/// /1505 10205 20179 30107 40115
AAXX 06184 94206 46/// /3304 10262 2//// 39940 40068
AAXX 06184 94290 46/// /0000 10259 30088 40097 56009 91824
BBXX 44060 06181 99413 70721 46/// ///07 10080 40085 91830 22200 00086 333 91209 555 11077 22082
BBXX 44022 06181 99409 70737 46/// ///06 10084 20001 40082 91830 22200 00057 333 91209 555 11072 22082
BBXX 44040 06181 99410 70736 46/// /2406 10077 20011 40090 91819 22200 10201 70003 333 91207 555 11072 22088
AAXX 06184 94206 46/// /3304 10262 2//// 39940 40068
AAXX 06184 94290 46/// /0000 10259 30088 40097 56009 91824
BBXX JNCJ 06184 99326 11408 41697 53021 10120 20050 40190 56015 70122 83543 22233 00200 20404 331// 40604 80085
AAXX 06181 55228 32780 71401 11114 21275 35959 57004 879// 333 05101 11062
AAXX 06181 55578 32980 02202 11041 21293 36342 52012 333 00252 10050
AAXX 06181 55664 32980 00000 11150 21298 35982 52004 333 00253 10004
AAXX 06181 55773 32970 01401 11142 21215 36000 52003 333 00201 11044
AAXX 06181 56116 32980 03202 11111 21160 36321 54000 333 00001 11019
AAXX 06181 56137 32980 03201 11073 21167 36788 52004 333 00002 10059
AAXX 06181 56172 32980 00701 11069 21084 37353 52007 333 00051 10082
AAXX 06181 56247 32980 00903 10028 21153 37433 52011 333 00004 10113
AAXX 06181 56312 32680 81403 10007 21085 37085 52003 884// 333 00200 10070
AAXX 06181 56462 32680 12903 11030 21099 37135 52007 81100 333 00100 10111
AAXX 06181 56651 32980 02703 10032 21073 37656 52002 333 00202 10107
AAXX 06181 56691 11240 81402 11014 21020 37789 54000 69901 76660 887// 333 00251 10087 93427
AAXX 06181 56985 32568 61603 10101 20064 38737 40176 52006 81102 333 00200 10216
AAXX 06181 57633 11762 80401 10008 21007 39332 40337 52005 69901 76870 885// 333 00402 10022
AAXX 06181 57902 11430 81401 10018 20018 38681 40283 57003 69941 76066 887// 333 00301 10026
AAXX 06181 55279 32980 00401 11158 21327 35655 54000 333 00100 11059
AAXX 06181 55472 32880 53603 11134 21353 35693 52003 85400 333 00100 11043
AAXX 06181 55696 32980 03601 11074 21127 36334 52007 333 00100 10044
AAXX 06181 56079 32780 60000 11114 21159 36657 57002 82502 333 00004 10007
AAXX 06181 56106 32980 00000 11123 21213 36179 52005 333 00151 10000
AAXX 06181 56257 32980 01802 11071 21160 36264 52001 333 00005 10009
AAXX 06181 56374 32480 70000 11050 21073 37431 52003 874// 333 00251 10051
AAXX 06181 56385 11/00 92201 11114 21120 37006 52001 69981 77774 333 00258 10045
AAXX 06181 56954 32963 10000 10104 20104 40190 52004 81040 333 00251 10239
AAXX 06181 56966 32770 80905 10142 20096 40203 52006 884// 333 00101 10173
AAXX 06181 57237 11960 80000 10035 20000 40313 52002 69901 76000 8807/ 333 10056
AAXX 06181 57306 31959 83201 10050 20032 40308 52001 71000 8807/ 333 10081
AAXX 06181 57604 31740 83601 10059 20034 40300 52005 71000 885// 333 10074
AAXX 06181 57707 11350 80901 10000 21001 38546 52003 69921 76066 887// 333 00201 10009
AAXX 06181 57832 32760 80401 10014 21004 39553 40324 52001 885// 333 00401 10023
AAXX 06184 83437 31597 70906 10262 20203 39385 40098 71622 875// 333 59011
AAXX 06184 83579 21599 73202 10242 20188 38998 40106 70362 87700 333 58006 60091
AAXX 06184 83592 21597 60902 10264 20205 39447 40121 70352 84210 333 58012 69921
BBXX 4XFB 06184 99361 70047 41497 12826 10160 20130 40210 57020 70100 80/// 22264 00180 20303 328// 40505 5//// 80140
AAXX 06184 71981 16/// /2712 10017 21133 60001 333 10017 21063 70004
AAXX 06184 71982 16/// /2503 10011 21109 60001 333 10011 21071 70000
AAXX 06184 71986 16/// /2607 11008 21074 60001 333 10030 21049 70000
AAXX 06184 71990 17/// /0403 11193 21219 38485 40127 55001 69941 7//4/ 333 11126 21219 70019 555 10010
AAXX 06184 71048 16/// /2912 10016 21079 60001 333 10023 21040 70000
AAXX 06184 71277 46/// /2506 11013 21082 6///1 333 11001 21028 7////
AAXX 06184 71406 17/// /2624 11068 21103 39959 49969 51016 69971 7//4/ 333 11018 21069 70065
AAXX 06184 71418 46/// /2826 11061 21109 30039 40072 53007 6///1 333 11009 21062 7////
AAXX 06184 71354 16/// /2909 11003 21070 60001 333 11001 21025 70000
AAXX 06184 71050 46/// /0000 11092 21104 39132 40241 53008 6///1 333 11087 21113 7////
AAXX 06184 71050 46/// /0000 11092 21104 39132 40241 53008 6///1 333 11087 21113 7////
AAXX 06181 32213 42998 03407 11052 21085 30055 40120 57002 80001
BBXX PFFH 06183 99067 30111 41/98 /1803 10255 40098 57/// 7//// 8//// 22253 00261 2////
BBXX TBWUK18 06183 99252 30674 41597 51715 10230 20183 40107 54000 70311 855// 22212 00260 20603 309// 41405 5//// 80200
BBXX TBWUK17 06183 99247 50059 41598 21310 10239 20236 40257 57010 70200 82245 22273 04230 20101 31817 40404 50604 80237
BBXX ZNQO3 06180 99335 10254 41/95 /2120 10175 20111 40044 53030 74122 8//// 22234 04186 2//// 3//// 4//// 5//// 80140
BBXX A8HD5 06181 99235 11192 41297 80119 10110 20090 40270 54000 70322 8/778 22254 04085 20301 33600 40503 5//// 80100
AAXX 06184 89657 46/// /1506 11064 20006 49804 52003
AAXX 06181 98543 32468 70000 10256 20241 30112 40123 58016 83208 333 56999 83818 86272
AAXX 06181 98741 32468 80000 10250 20242 40096 57009 82270 333 56999 82817 88358
BBXX 46208 06181 99525 71327 46/// /2308 10070 40119 52020 22200 00069 11108 70040 333 91209
BBXX 46208 06181 99525 71327 46/// /2308 10070 40119 52020 22200 00069 11108 70040 333 91209
BBXX WACW 06184 99393 71263 41397 30313 10110 2005/ 40290 52020 7//22 8212/ 22272 00110 20504 3//// 4//// 5//// 6//// 80080 ICE /////
BBXX WDE7820 06183 99575 71522 41/97 83210 11039 2//// 40020 5//// 702// 8//// 222// 0//// 2//// 3//// 4//// 5//// 6//// 8//// ICE /////
BBXX OXES2 06184 99375 70631 412// 73117 10150 20133 40130 58020 7//// 87642 22214 00220 20502 327// 40805 5//// 6//// 80140 ICE /////
BBXX PFFH 06183 99067 30111 41/98 /1803 10255 40098 57/// 7//// 8//// 22253 00261 2////
BBXX TBWUK17 06183 99247 50059 41598 21310 10239 20236 40257 57010 70200 82245 22273 04230 20101 31817 40404 50604 80237
BBXX TBWUK18 06183 99252 30674 41597 51715 10230 20183 40107 54000 70311 855// 22212 00260 20603 309// 41405 5//// 80200
BBXX A8HD5 06181 99235 11192 41297 80119 10110 20090 40270 54000 70322 8/778 22254 04085 20301 33600 40503 5//// 80100
BBXX JNCJ 06184 99326 11408 41697 53021 10120 20050 40190 56015 70122 83543 22233 00200 20404 331// 40604 80085
BBXX ZNQO3 06180 99335 10254 41/95 /2120 10175 20111 40044 53030 74122 8//// 22234 04186 2//// 3//// 4//// 5//// 80140
BBXX 4XFB 06184 99361 70047 41497 12826 10160 20130 40210 57020 70100 80/// 22264 00180 20303 328// 40505 5//// 80140
BBXX MINUK03 0618/ 99526 10043 46/// ///// 10065 40162 57027
BBXX 531076 06180 99544 10072 41597 23314 10050 40177 51010 75051 825// 22200 04100 20408 3//// 4//// 5////
BBXX 41052 06181 99183 70648 46/// /1104 10264 40138 91830 333 91205
BBXX 41052 06181 99183 70648 46/// /1004 10262 40139 91820 333 91205
BBXX 41052 06181 99183 70648 46/// /1104 10263 40139 91810 333 91205
BBXX 41053 06181 99185 70661 46/// /0204 10264 40144 91830 333 91206
BBXX 41053 06181 99185 70661 46/// /0404 10263 40144 91820 333 91206
BBXX 41053 06181 99185 70661 46/// /0304 10264 40145 91810 333 91205
BBXX 42085 06181 99179 70665 46/// /1206 10271 40137 91830 333 91207
BBXX 42085 06181 99179 70665 46/// /1205 10271 40139 91820 333 91207
BBXX 42085 06181 99179 70665 46/// /1205 10272 40141 57025 91800 22200 00274 10501 70007 333 91207
BBXX 46208 06181 99525 71327 46/// /2308 10070 40119 52020 22200 00069 11108 70040 333 91209
BBXX SHIP 06184 99237 71305 41798 20515 10200 2017/ 40256 56004 70111 81105 22224 00300 20202 330// 40805 5//// 6//// 80180 ICE /////
BBXX 44040 06181 99410 70736 46/// /2406 10077 20011 40090 91819 22200 10201 70003 333 91207 555 11072 22088
BBXX OXES2 06184 99375 70631 412// 73117 10150 20133 40130 58020 7//// 87642 22214 00220 20502 327// 40805 5//// 6//// 80140 ICE /////
BBXX 44138 06181 99443 70536 46/// /3309 10041 40057 57011 22200 00079 11005 70025 333 91211
BBXX WDC8583 06184 99554 71321 41/96 81440 10005 2//// 40130 5//// 786// 8//// 222// 0//// 2//03 3//// 4//01 6////
BBXX KS098 06184 99446 71240 43/// /0703 10036 40274 22200 06000
BBXX KS077 06184 99171 70619 43/// ///// 10271 40154 22200 06246
BBXX KS094 06184 99184 70645 43/// /1511 10258 40161 22200 06257
BBXX 41033 06181 99323 70804 46/// /2204 1//// 40206 58023 91800 555 11040 22040
BBXX 44024 06181 99423 70659 46/30 /2802 10022 40131 56015 91804 22200 00073 10604 70018 333 91204 555 11026 22027
BBXX 44137 06181 99423 70620 46/// /3208 10024 40135 57001 22200 00084 10704 70022 333 91211
BBXX 44033 06181 99441 70690 46/22 /1205 11010 40108 56032 91804 22200 00045 11101 70004 333 91206 555 11054 22056
BBXX 44060 06181 99413 70721 46/// ///07 10080 40085 91830 22200 00086 333 91209 555 11077 22082
BBXX 44039 06181 99411 70727 46/// /2505 10074 20028 40096 91800 22200 00068 10301 70005 333 91206
BBXX 44022 06181 99409 70737 46/// ///06 10084 20001 40082 91830 22200 00057 333 91209 555 11072 22082
BBXX 46238 06181 99334 71195 46/// ///// 1//// 91820 22200 00136 11507 20904 328// 41505 70034
BBXX 46239 06181 99363 71221 46/// ///// 1//// 91821 22200 00118 11709 21005 328// 41708 70046
AAXX 06184 89667 46/// /0904 11035 29047 39730 4//// 5//// 91830
AAXX 06184 89667 46/// /01// 11102 39731 4//// 5//// 91820
AAXX 06184 89667 46/// /0602 11032 39731 4//// 5//// 91810
BBXX 42360 06181 99267 70905 46/// /1807 10213 91800 22200 00236 10301 70006 333 91210
AAXX 0618/ 89828 46/// ///// 11335 36425 4//// 5//// 91820
AAXX 0618/ 89828 46/// ///// 11335 36424 4//// 5//// 91830
AAXX 0618/ 89108 46/// ///// 11208 36877 4//// 5//// 91820
AAXX 0618/ 89108 46/// ///// 11209 36877 4//// 5//// 91830
AAXX 0618/ 89667 46/// ///// 11029 39731 4//// 5////
AAXX 0618/ 89872 46/// ///// 11026 39665 4//// 5//// 91830
AAXX 0618/ 89869 46/// ///// 11058 39660 4//// 5//// 91830
AAXX 0618/ 89329 46/// ///// 11066 38599 4//// 5//// 91830
AAXX 0618/ 89799 46/// ///// 11238 4//// 5//// 91830
AAXX 0618/ 89332 46/// ///// 11031 39065 4//// 5//// 91830
AAXX 0618/ 89769 46/// ///// 11041 39685 4//// 5//// 91830
AAXX 0618/ 89314 46/// ///// 11111 38099 4//// 5//// 91830
AAXX 0618/ 89667 46/// ///// 11037 39731 4//// 5////
AAXX 06184 89253 46/// /06// 4//// 5////
AAXX 06184 94997 46/// ///// 10042 39980 49995 5////
AAXX 0618/ 89767 46/// ///// 11044 39668 4//// 5////
AAXX 06184 89507 46/89 /3204 11197 29067 36806 4//// 5////
AAXX 06184 89807 46/// /2323 11066 29069 39765 4//// 5//// 91830 333 90700 91128
AAXX 06184 94997 46/// ///// 10042 39980 49995 5////
AAXX 06184 89807 46/// /2323 11066 29069 39765 4//// 5//// 91830 333 90700 91128
AAXX 06181 47003 42980 03205 11080 21167 30343 40347 52008
AAXX 06181 47005 42980 00000 11283 21300 38675 52004
AAXX 06181 47022 42975 00000 11242 21266 38925 52005
AAXX 06181 47028 42962 03201 11088 21148 30277 40378 58006
AAXX 06181 47031 42970 00000 11230 21249 39027 52009
AAXX 06181 47037 42970 03202 11090 21140 30230 40361 53009
AAXX 06181 47039 42960 00000 11136 21161 30173 40380 52009
AAXX 06181 47046 42969 00000 11092 21148 30317 40341 52012
AAXX 06181 47050 42965 00000 11110 21146 30326 40362 52013
AAXX 06181 47052 42965 00000 11166 21185 30011 40384 52011
AAXX 06181 47060 42960 00000 11087 21136 30295 40358 52006
AAXX 06181 47061 42980 00000 11043 21081 30289 40335 54000
AAXX 06181 47065 41960 00000 11108 21121 30296 40366 52010 71000
AAXX 06181 47067 42965 00000 11116 21144 30242 40372 52019
AAXX 06181 47068 42960 00501 11117 21130 30312 40350 52004
AAXX 06181 47070 42970 00000 11097 21128 30264 40358 52013
AAXX 06181 47075 42980 00000 11145 21172 39849 40315 52003
AAXX 06181 47008 42970 00000 11074 21170 30291 40348 52006
AAXX 06181 47014 42950 00000 11237 21248 39937 40390 52010
AAXX 06181 47016 42970 00000 11226 21258 39488 40405 52008
AAXX 06181 47020 42965 00000 11180 21192 39999 40415 52010
AAXX 06181 47025 42962 02702 11092 21137 30305 40336 52006
AAXX 06181 47035 42965 00000 11089 21149 30360 40369 52002
AAXX 06181 47041 42970 00000 11091 21146 30320 40349 52010
AAXX 06181 47055 42965 00000 11074 21123 30306 40354 52010
AAXX 06181 47058 42960 01801 11127 21133 30316 40368 52010
AAXX 06181 47069 42965 00000 11076 21131 30246 40352 52003
AAXX 06184 83384 21597 83604 10254 20214 39535 40110 70362 8759/ 333 58013 69971
AAXX 06184 83386 32498 63602 10289 20205 39558 40083 84968 333 59016
AAXX 06184 83388 32497 50509 10308 20188 39396 40053 84206 333 59018
AAXX 06184 83393 32599 70903 10264 20185 39403 40117 84430 333 58001
AAXX 06184 83442 32597 20502 10312 20205 39744 40080 81269 333 59008
AAXX 06184 83479 31598 83206 10222 20192 39314 40108 75191 885// 333 58002
AAXX 06184 83483 21596 80503 10291 20231 39525 40080 72962 887// 333 59005 69981
AAXX 06184 83531 21597 60903 10198 20190 39079 40212 72162 86400 333 58001 60151
AAXX 06184 83538 32597 83601 10233 20163 38704 40081 887// 333 58005
AAXX 06184 83574 21794 80506 10220 20210 39575 40187 5//// 76566 88600 333 60121
AAXX 06184 83582 21596 82301 10202 20189 39352 40119 57006 76362 88600 333 60221
AAXX 06184 83595 32597 60902 10310 20239 30039 40123 84250 333 59001
AAXX 06184 83692 21697 81406 10196 20189 39091 40122 58005 76122 882// 333 60031
AAXX 06184 83599 11198 72602 10235 20226 40074 57015 60241 71096 8467/ 222// 20501 80230
AAXX 06184 83650 41698 41008 10265 20231 40187 57009 720// 83530 222// 02245 21004 80242
AAXX 06184 83925 32997 10621 10244 20224 40063 57019 7010/ 81020 222// 10903 80230
AAXX 06184 83970 41598 21802 10270 20229 40165 54000 7010/ 82100 222// 02260 20000 80240
AAXX 06184 82143 31598 60314 10300 20260 40092 7012/ 83296 222// 80260 333 59008
AAXX 06184 83117 31197 71401 10270 20257 40111 57023 7022/ 8861/ 222// 02220 20101 80260
AAXX 06184 47430 12/70 41601 11070 21100 30117 40174 52008 60001 81202
BBXX DFWV2 06184 99358 11307 41598 63512 10062 20012 40300 52010 70152 8/2// 22213 04120 2//03 3//// 4//// 5//// 80040
BBXX JNCJ 06184 99326 11408 41697 53021 10120 20050 40190 56015 70122 83543 22233 00200 20404 331// 40604 80085
BBXX UFMK 06181 99448 11387 42598 63809 11035 40116 54000 22253 00030 20402
AAXX 06181 45032 36/// /3201 10110 20071 30230 40247 57002
AAXX 06181 45035 36/// /0103 10116 20087 30207 40251 54000
AAXX 06181 45039 36/// /0302 10118 20087 30229 40245 57001
AAXX 06181 45044 36/// /0005 10124 20097 30143 40240 57001
AAXX 06181 45032 36/// /3201 10110 20071 30230 40247 57002
AAXX 06181 45035 36/// /0103 10116 20087 30207 40251 54000
AAXX 06181 45039 36/// /0302 10118 20087 30229 40245 57001
AAXX 06181 45044 36/// /0005 10124 20097 30143 40240 57001
AAXX 06184 71793 16/// ///// 10005 21097 60001 333 21056 7////
AAXX 06184 71012 16/// /2811 11002 21079 60001 333 10007 21049 70000
AAXX 06184 71013 16/// ///// 11012 21087 60001 333 10001 21071 70000
AAXX 06184 71060 16/// /2604 11013 21110 38620 40202 51006 60001 333 11012 21038 70000
AAXX 06184 71495 16/// /2610 10011 21128 60001 333 10011 21038 70000
AAXX 06184 71848 16/// ///// 11004 21091 60001 333 11004 21039 70000
AAXX 06184 71073 16/// /1906 11002 21087 60001 333 11002 21060 70000
AAXX 06184 71974 46/// /1509 11297 21323 30030 40074 56012 6///1 333 11283 21321 7////
AAXX 06184 71399 16/// ///// 10005 21090 60001 333 10005 21049 70000
AAXX 06184 71565 17/// /1706 11060 21110 69961 7//4/ 333 11023 21122 70006
AAXX 06184 71566 17/// /2304 11025 21114 69951 7//4/ 333 11014 21057 70011
AAXX 06184 71567 16/// /2910 11012 21054 60001 333 10010 21035 70000
AAXX 06184 89646 46/// /0103 11228 29085 37487 4//// 5////
AAXX 06184 89648 46/// /1804 11270 29068 37060 4//// 5////
AAXX 06184 89659 46/// /3218 11248 29070 37565 4//// 5////
AAXX 06184 89661 46/// /0203 11057 39141 4//// 5////
AAXX 06184 89662 42980 00203 11014 21157 39656 49759 57007 222 ICE 98012 333 21033
AAXX 06184 89666 46/// /2108 11013 29040 39555 4//// 5////
AAXX 06181 01380 11245 83203 11048 21063 60012 77172 876// 333 11043 4/047 91112
BBXX A8VN4 06184 99250 11199 41196 80421 10117 20095 40265 56006 75155 8562/ 22254 04100 20904 304// 41205 80105
BBXX A8HJ8 06183 99012 11034 41/96 /0312 10251 20230 40130 51015 70200 8//// 22200 00/// 20101 80236
BBXX DDSX2 06184 99025 11015 41497 60514 10269 20221 40120 58015 70222 83544 22233 00299 20302 80235
BBXX MZER8 06183 99044 10993 41498 43605 10298 20225 40126 54000 70322 841// 22274 00292 20101 80248
BBXX VRFH2 06183 99442 71495 41296 81829 10090 20070 4//// 57040 75011 88773 22224 00080 20805 309// 40805 80080
BBXX 9VDD2 06184 99332 11394 41598 82813 10120 20040 40210 56010 7//22 88/// 22214 04060 2//// 80080
BBXX 3FUL2 06183 99061 10900 41598 62909 10260 20246 40170 54000 70362 84716 22264 04325 20301 330// 40703 80250
AAXX 06184 97270 11450 70000 10244 20238 30073 40077 57029 69981 70522 85821 333 56000 83813
AAXX 06184 89610 46/// /0410 11095 39646 4//// 5//// 333 90700 91112
AAXX 06184 89610 46/// /0410 11095 39646 4//// 5//// 333 90700 91112
AAXX 06184 89610 46/// /0410 11095 39646 4//// 5//// 333 90700 91112
BBXX V2AJ8 06183 99226 11167 41497 80430 10137 20124 40221 57021 70222 8677/ 22254 20608 305// 40806 5//// 80130
AAXX 06184 17260 11345 83501 10044 20040 39345 40177 52008 69942 71062 8652/ 333 10049 83707 85625 88458
BBXX 63106 06184 99610 10017 46/// /1912 10053 40010 57050 22200
BBXX 63113 06184 99610 10017 46/// /2414 10057 20010 40011 57051 22200 10806 70031
BBXX 62304 06184 99511 10018 46/98 /2517 10085 20028 40249 57014 22200 00104 10602 70009
BBXX 64045 06184 99591 70117 46/// /2731 10071 20037 40042 50000 22200 00098 10810 70049 333 90710 91139
BBXX 62103 06184 99499 70029 46/97 /2722 10107 20096 40266 56014 22200 00115 10803 70016 333 90710 91130
AAXX 06184 63714 32580 10000 10190 20096 48492 81500 333 10268 58000 81621
BBXX 46247 06181 99378 71228 46/// ///// 1//// 91821 22200 00115 11509 20905 328// 41507 70044
BBXX 46241 06181 99330 71173 46/// ///// 1//// 91811 22200 00143 11703 21001 326// 41703 70016
BBXX VQGQ4 06184 99133 31525 41/98 /1807 10280 20213 40088 51008 70322 8//// 22243 00296 20402 80235
BBXX VQGQ4 06184 99133 31525 41/98 /1807 10280 20213 40088 51008 70322 8//// 22243 00296 20402 80235
BBXX 46216 06181 99343 71198 46/// ///// 1//// 91827 22200 00145 11405 21003 327// 41404 70023
BBXX 46223 06181 99335 71178 46/// ///// 1//// 91830 22200 00153 11704 20902 328// 41704 70020
BBXX 46231 06181 99327 71174 46/// ///// 1//// 91824 22200 00151 11705 21002 328// 41704 70023
BBXX 46222 06181 99336 71183 46/// ///// 1//// 91826 22200 00150 11705 21003 327// 41704 70023
BBXX 46242 06181 99332 71174 46/// ///// 1//// 91828 22200 00151 11703 21001 324// 41702 70014
BBXX 46221 06181 99339 71186 46/// ///// 1//// 91815 22200 00149 11804 20902 326// 41803 70020
AAXX 06184 71006 16/// /2912 10006 21091 60001 333 10006 21051 7////
AAXX 06184 71007 17/// ///// 10014 21082 69941 7//4/ 333 10014 21087 7////
AAXX 06184 71008 16/// /3109 10007 21086 60001 333 10007 21065 7////
AAXX 06184 71009 16/// /1802 11006 21092 60001 333 10001 21057 70000
AAXX 06184 71035 16/// ///// 11005 21094 60001 333 11005 21083 7////
AAXX 06184 71051 16/// ///// 11005 21083 60001 333 10006 21116 7////
AAXX 06184 71057 16/// ///// 11001 21106 60001 333 11001 21064 70000
AAXX 06184 71070 16/// ///// 10012 21076 60001 333 10012 21062 70000
AAXX 06184 71089 16/// ///// 11007 21078 60001 333 11001 21032 70000
AAXX 06184 71789 16/// ///// 10025 21104 60001 333 10025 21049 7////
AAXX 06184 71794 16/// ///// 11011 21079 60001 333 10004 21049 70000
AAXX 06184 71795 16/// ///// 10012 21074 60001 333 10014 21060 7////
AAXX 06184 71796 16/// ///// 10004 21082 60001 333 10004 21049 70000
AAXX 06184 71502 16/// /1312 11289 21312 39992 40008 55013 60001 333 11199 21310 7////
AAXX 06184 71509 16/// /2617 10028 21094 60001 333 10028 7////
AAXX 06184 71517 17/// /2619 10017 21104 69941 7//4/ 333 10017 21037 70004
AAXX 06184 71518 16/// /2310 10018 21068 60001 333 10018 21079 70000
AAXX 06184 71519 16/// /2611 10023 21081 60001 333 10023 21034 7////
AAXX 06184 71520 16/// /1702 11234 21266 39395 40104 56009 60001 333 11234 21344 70000
AAXX 06184 71521 16/// /1002 11229 21267 60001 333 11225 21350 70000
AAXX 06184 71523 16/// ///// 11189 21226 39686 40079 56027 60001 333 11189 21303 70000
AAXX 06184 71528 16/// /2515 10020 21080 60001 333 10020 21062 70000
AAXX 06184 71433 46/// /2724 10044 20025 39736 49963 50003 6///1 333 10046 21021 7////
AAXX 06184 71841 16/// /0303 11118 21131 39598 40001 51017 60001 333 11103 21121 70007 555 10010
AAXX 06184 71102 16/// ///// 11024 21071 60001 333 10004 21062 7////
AAXX 06184 71105 16/// ///// 10011 21082 60001 333 10012 21064 7////
AAXX 06184 71404 46/// ///// 6///1 333 7////
AAXX 06184 71409 16/// ///// 10022 21091 60001 333 10022 21043 70000
AAXX 06184 71383 16/// ///// 11264 21300 39470 40112 56011 60001 333 11250 21359 7////
AAXX 06184 71841 16/// /0303 11118 21131 39598 40001 51017 60001 333 11103 21121 70007 555 10010
AAXX 06184 71433 46/// /2724 10044 20025 39736 49963 50003 6///1 333 10046 21021 7////
AAXX 06184 96091 32460 40000 10250 20232 30108 40131 57010 82131 333 56000 82817 83360
AAXX 06184 67083 31470 80000 10190 20181 39748 48522 53011 71522 8287/ 333 10228 81817 87360
BBXX 42023 06181 99261 70831 46/// /1005 1//// 91830 333 91205
BBXX 42023 06181 99261 70831 46/// /1005 1//// 91800 333 91205
BBXX 44039 06181 99411 70727 46/// /2504 10074 20030 40096 91830 22200 00069 10301 70005 333 91205
AAXX 06184 96525 32458 60000 10246 20236 30098 40105 57015 83975 333 56000 57900 81915 82615 809//
AAXX 06184 97378 32565 70000 10242 20239 39946 40109 53013 81102 333 56000 81820 86080
AAXX 06184 13625 11660 81412 10060 20032 39624 49851 57010 60262 76066 885// 333 10114 88640
AAXX 06184 03227 46/// /2539 10030 2//// 91750 333 10030 90710 91146
BBXX WAHP 06184 99352 70389 41698 32713 10210 20164 40260 54010 7//11 83280 22225 00200 20604 327// 40403 5//// 6//// 80180 ICE /////
BBXX 9V7645 06183 99540 71572 41696 80925 10015 21009 49970 57060 75677 887// 22264 04030 2//// 3//// 4//// 5//// 6//// 80005 ICE /////
BBXX VRFJ6 06184 99104 11296 41/98 60818 10285 20285 40121 57020 70201 8//// 22234 00280 2//// 3//// 4//// 80285
BBXX VRCI9 06184 99540 11799 41/93 /0512 11030 21039 49985 52010 77272 8//// 22264 00025 2//// 3//// 4//// 81030
BBXX SHIP 06184 99109 11096 41697 60312 10240 20225 40170 54000 70311 86570 22245 04240 20803 306// 41003 80230
BBXX V2AJ8 06183 99226 11167 41497 80430 10137 20124 40221 57021 70222 8677/ 22254 20608 305// 40806 5//// 80130
BBXX 3FUL2 06183 99061 10900 41598 62909 10260 20246 40170 54000 70362 84716 22264 04325 20301 330// 40703 80250
BBXX 9VDD2 06184 99332 11394 41598 82813 10120 20040 40210 56010 7//22 88/// 22214 04060 2//// 80080
BBXX A8VN4 06184 99250 11199 41196 80421 10117 20095 40265 56006 75155 8562/ 22254 04100 20904 304// 41205 80105
BBXX 44039 06181 99411 70727 46/// /2504 10074 20030 40096 91830 22200 00069 10301 70005 333 91205
BBXX 42023 06181 99261 70831 46/// /1005 1//// 91830 333 91205
BBXX 42023 06181 99261 70831 46/// /1005 1//// 91800 333 91205
BBXX 9V7645 06183 99540 71572 41696 80925 10015 21009 49970 57060 75677 887// 22264 04030 2//// 3//// 4//// 5//// 6//// 80005 ICE /////
BBXX ZCDF4 06183 99125 70702 41698 40615 10280 20240 40143 57023 70211 82461 22265 00270 20301 301// 40402 5//// 80252
BBXX 46221 06181 99339 71186 46/// ///// 1//// 91815 22200 00149 11804 20902 326// 41803 70020
BBXX 46216 06181 99343 71198 46/// ///// 1//// 91827 22200 00145 11405 21003 327// 41404 70023
BBXX 46242 06181 99332 71174 46/// ///// 1//// 91828 22200 00151 11703 21001 324// 41702 70014
BBXX 46231 06181 99327 71174 46/// ///// 1//// 91824 22200 00151 11705 21002 328// 41704 70023
BBXX 46223 06181 99335 71178 46/// ///// 1//// 91830 22200 00153 11704 20902 328// 41704 70020
BBXX 46222 06181 99336 71183 46/// ///// 1//// 91826 22200 00150 11705 21003 327// 41704 70023
BBXX 46241 06181 99330 71173 46/// ///// 1//// 91811 22200 00143 11703 21001 326// 41703 70016
BBXX 46247 06181 99378 71228 46/// ///// 1//// 91821 22200 00115 11509 20905 328// 41507 70044
BBXX WAHP 06184 99352 70389 41698 32713 10210 20164 40260 54010 7//11 83280 22225 00200 20604 327// 40403 5//// 6//// 80180 ICE /////
BBXX VRFH2 06183 99442 71495 41296 81829 10090 20070 4//// 57040 75011 88773 22224 00080 20805 309// 40805 80080
BBXX 42085 06181 99179 70665 46/// /1205 10271 40139 91820 333 91207
BBXX 42085 06181 99179 70665 46/// /1205 10272 40141 57025 91800 22200 00274 10501 70007 333 91207
BBXX 41052 06181 99183 70648 46/// /1104 10264 40138 91830 333 91205
BBXX 42085 06181 99179 70665 46/// /1206 10271 40137 91830 333 91207
BBXX 41053 06181 99185 70661 46/// /0304 10264 40145 91810 333 91205
BBXX 41053 06181 99185 70661 46/// /0404 10263 40144 91820 333 91206
BBXX 41052 06181 99183 70648 46/// /1104 10263 40139 91810 333 91205
BBXX 41053 06181 99185 70661 46/// /0204 10264 40144 91830 333 91206
BBXX 41052 06181 99183 70648 46/// /1004 10262 40139 91820 333 91205
BBXX 42360 06181 99267 70905 46/// /1807 10213 91800 22200 00236 10301 70006 333 91210
BBXX WDE7820 06183 99575 71522 41/97 83210 11039 2//// 40020 5//// 702// 8//// 222// 0//// 2//// 3//// 4//// 5//// 6//// 8//// ICE /////
BBXX VQGQ4 06184 99133 31525 41/98 /1807 10280 20213 40088 51008 70322 8//// 22243 00296 20402 80235
BBXX MZER8 06183 99044 10993 41498 43605 10298 20225 40126 54000 70322 841// 22274 00292 20101 80248
BBXX DDSX2 06184 99025 11015 41497 60514 10269 20221 40120 58015 70222 83544 22233 00299 20302 80235
BBXX A8HJ8 06183 99012 11034 41/96 /0312 10251 20230 40130 51015 70200 8//// 22200 00/// 20101 80236
AAXX 06184 71904 16/// ///// 10003 21110 60001 333 10003 21045 70000
AAXX 06184 71857 16/// ///// 11021 21066 60001 333 10006 21042 70000
AAXX 06184 71360 16/// ///// 11009 21075 60001 333 11004 21054 70000
AAXX 06184 71380 46/// /2704 11015 21097 6///1 333 11012 21053 7////
AAXX 06184 71413 16/// ///// 10015 21102 60001 333 10015 21076 70000
AAXX 06184 71414 16/// ///// 10004 21050 60001 333 10020 21046 70000
AAXX 06184 71440 16/// ///// 11002 21097 60001 333 11002 21051 70000
AAXX 06184 71245 46/// /2318 11112 21149 6///1 333 11106 21113 7////
AAXX 06184 71249 16/// /3607 11008 21105 60001 333 11008 21071 70000
AAXX 06184 71674 16/// ///// 11009 21090 60001 333 11004 21051 70000
AAXX 06184 71346 16/// /2412 10025 21089 60001 333 10025 21062 7////
AAXX 06184 71791 16/// /2710 11018 21072 60001 333 11001 21066 70000
AAXX 06184 71797 16/// ///// 11023 21060 60001 333 10010 21070 70000
AAXX 06184 71481 16/// /2003 11024 21098 60001 333 11004 21059 7////
AAXX 06184 71498 16/// /2706 10000 21091 60001 333 10000 21067 7////
AAXX 06184 71540 16/// /2001 11066 21106 60001 333 21117 7////
AAXX 06184 71544 16/// ///// 11010 21065 60001 333 11009 21027 7////
AAXX 06184 71548 16/// ///// 10000 21052 60001 333 10019 21025 70000
AAXX 06184 71055 46/// /1404 11285 21313 39730 40074 58007 6///1 333 11232 21301 7////
AAXX 06184 71065 16/// ///// 11004 21061 60001 333 10009 21029 70000
AAXX 06184 71014 16/// /2703 10007 21119 60001 333 10007 21061 70000
AAXX 06184 71014 16/// /2703 10007 21119 60001 333 10007 21061 70000
AAXX 06184 71360 16/// ///// 11009 21075 60001 333 11004 21054 70000
AAXX 06184 71380 46/// /2704 11015 21097 6///1 333 11012 21053 7////
AAXX 06184 71481 16/// /2003 11024 21098 60001 333 11004 21059 7////
AAXX 06184 71498 16/// /2706 10000 21091 60001 333 10000 21067 7////
AAXX 06184 71904 16/// ///// 10003 21110 60001 333 10003 21045 70000
AAXX 06184 71674 16/// ///// 11009 21090 60001 333 11004 21051 70000
AAXX 06184 71346 16/// /2412 10025 21089 60001 333 10025 21062 7////
AAXX 06184 71245 46/// /2318 11112 21149 6///1 333 11106 21113 7////
AAXX 06184 71249 16/// /3607 11008 21105 60001 333 11008 21071 70000
AAXX 06184 71055 46/// /1404 11285 21313 39730 40074 58007 6///1 333 11232 21301 7////
AAXX 06184 71065 16/// ///// 11004 21061 60001 333 10009 21029 70000
AAXX 06184 71791 16/// /2710 11018 21072 60001 333 11001 21066 70000
AAXX 06184 71797 16/// ///// 11023 21060 60001 333 10010 21070 70000
AAXX 06184 71540 16/// /2001 11066 21106 60001 333 21117 7////
AAXX 06184 71544 16/// ///// 11010 21065 60001 333 11009 21027 7////
AAXX 06184 71548 16/// ///// 10000 21052 60001 333 10019 21025 70000
AAXX 06184 71857 16/// ///// 11021 21066 60001 333 10006 21042 70000
AAXX 06184 71413 16/// ///// 10015 21102 60001 333 10015 21076 70000
AAXX 06184 71414 16/// ///// 10004 21050 60001 333 10020 21046 70000
AAXX 06184 71440 16/// ///// 11002 21097 60001 333 11002 21051 70000
BBXX 46208 06181 99525 71327 46/// /2308 10070 40119 52020 22200 00069 11108 70040 333 91209
BBXX VRFH2 06183 99442 71495 41296 81829 10090 20070 4//// 57040 75011 88773 22224 00080 20805 309// 40805 80080
BBXX WDC8583 06184 99554 71321 41/96 81440 10005 2//// 40130 5//// 786// 8//// 222// 0//// 2//03 3//// 4//01 6////
AAXX 06181 58968 11556 80904 10151 20144 30248 40256 50001 60031 76162 887//
AAXX 06181 58974 46/// /0413 10146 20122 30136 40263 50004
AAXX 06181 59358 31630 70105 10153 20136 30193 40225 57004 71022 875//
AAXX 06181 59559 32562 40105 10203 20164 30173 40202 58011 84200
AAXX 06181 59792 32460 80307 10198 20167 30209 40214 50008 8542/
AAXX 06181 59997 31458 60609 10273 20239 30124 40132 57009 71022 83810
AAXX 06181 59158 32662 53602 10151 20124 30120 40223 58006 85500
AAXX 06181 59562 32670 13401 10185 20151 30201 40213 57008 81100
AAXX 06181 59567 46/// /0221 10181 20170 39814 40196 58016
AAXX 06184 41506 12694 80000 10010 21017 48476 60023 8442/ 333 5699/ 59024 60007 84640 84460
AAXX 06184 41508 11493 80000 10000 21014 48495 60333 70272 8772/ 333 5699/ 59036 60007 84715 83630 82460
AAXX 06184 41523 02695 80000 10030 20018 48468 60213 8351/ 333 5699/ 59045 60007 83640 85460
AAXX 06184 41535 01697 80000 10025 20013 48453 60013 70262 8452/ 333 5699/ 59017 60017 84635 86460
AAXX 06184 41536 NIL
AAXX 06184 41573 01696 80000 11030 21030 48453 60183 70272 84520 333 59041 60137
AAXX 06184 41600 01595 83110 10070 20070 39844 40151 60083 79595 8692/ 333 59014 60087
AAXX 06184 41630 11995 00000 10060 20048 40155 60053 71096 333 59018
AAXX 06184 41678 11694 40000 10095 20085 40157 60003 74641 83510 333 56990 59011 60007 83640 82460
AAXX 06184 41696 02996 00000 11050 21152 38000 48537 60003 333 59010 60007
AAXX 06184 41697 02996 03108 10158 20012 40151 60003 333 59012 60007
AAXX 06184 41700 11995 00000 10110 20029 40118 60003 70400 333 59032
AAXX 06184 41725 02996 00000 10110 20043 40159 60003 333 58003 60007
AAXX 06184 41746 02996 00000 10105 20050 40160 60003 333 59018 60007
AAXX 06184 41759 12996 03602 10185 21012 30173 40149 60002 333 58022
AAXX 06184 41785 02996 20000 10155 20108 40160 60003 80001 333 56009 58001 60007 82072
AAXX 06184 41515 12695 80000 10007 21008 38525 48488 60053 8772/ 333 5699/ 59013 60007 82730 85650 82458
AAXX 06184 41560 01496 70503 10020 21004 38264 48497 60093 76066 85730 333 59021 60027
AAXX 06184 41571 NIL
AAXX 06184 41594 116// 40504 10060 20038 39928 40142 69903 70599 81530 333 56990 59014
AAXX 06184 41685 32993 00000 10050 21048 38892 48464 333 59027
AAXX 06184 41710 02997 03104 10040 21178 39379 40188 60003 333 58030 60007
AAXX 06184 41718 12996 02704 10080 21029 30037 40145 60003 333 59018
AAXX 06184 41739 02996 00000 10055 21008 39084 48519 60003 333 58004 60007
AAXX 06184 41744 32996 03102 10070 21076 38779 48496 333 59002
AAXX 06184 41749 01995 03602 10130 20080 30129 40165 60003 70400 333 59016 60007
AAXX 06184 41529 01695 80000 10067 20065 39770 40165 60223 70265 8452/ 333 5699/ 59024 69907 84640 84460
AAXX 06184 41598 01595 80508 10075 20064 39877 40160 60273 79596 8532/ 333 59015 60127
AAXX 06184 41620 32995 02705 10010 21114 38576 48477 333 59002
AAXX 06184 41624 02995 00000 10075 20053 39934 40143 60003 333 59020 60007
AAXX 06184 41640 01595 71804 10125 20106 39889 40144 60023 70420 83530 333 56990 59014 60007 83642 84362
AAXX 06184 41660 NIL
AAXX 06184 41675 11995 00000 10100 20057 39997 40140 60003 70400 333 59019
AAXX 06184 41712 12996 00502 10025 21112 39233 48513 60003 333 59009
AAXX 06184 41715 01996 00000 10110 20043 40162 60003 70500 333 59006 60007
AAXX 06184 41756 01994 00506 10170 20092 30108 40175 60003 70600 333 58009 60007
AAXX 06184 41764 31996 03602 10130 20068 30103 40154 60003 70400 333 58000 60007
AAXX 06184 41768 02996 03102 10130 20043 30149 40156 60003 333 58007 60007
AAXX 06184 41780 02996 32702 10170 21005 30142 40167 60003 80001 333 56009 60007 83067
OOXX PAP50 06151 99090 70795 ///// 00901 26/// /1303 10316 29043 30028 91550 333 60000
OOXX PAP50 06161 99090 70795 ///// 00901 26/// /1004 10311 29044 30027 91600 333 60000
OOXX PAP50 06161 99090 70795 ///// 00901 26/// /1303 10309 29046 30026 91610 333 60000
OOXX PAP50 06161 99090 70795 ///// 00901 26/// /1803 10309 29048 30027 91620 333 60000
OOXX PAP50 06161 99090 70795 ///// 00901 26/// /1903 10299 29052 30026 91630 333 60000
OOXX PAP50 06161 99090 70795 ///// 00901 26/// /1903 10293 29054 30025 91640 333 60000
OOXX PAP50 06161 99090 70795 ///// 00901 26/// /1702 10305 29050 30022 91650 333 60000
OOXX PAP50 06171 99090 70795 ///// 00901 26/// /1903 10300 29052 30020 91700 333 60000
OOXX PAP50 06171 99090 70795 ///// 00901 26/// /1802 10312 29048 30018 91710 333 60000
OOXX PAP50 06171 99090 70795 ///// 00901 26/// /1703 10307 29049 30017 91720 333 60000
OOXX PAP50 06171 99090 70795 ///// 00901 26/// /1802 10309 29049 30015 91730 333 60000
OOXX PAP50 06171 99090 70795 ///// 00901 26/// /1603 10312 29047 30014 91740 333 60000
AAXX 06184 41660 119// 02716 11020 21049 38440 48532 60003 70500 333 59005
BBXX 9V7645 06183 99540 71572 41696 80925 10015 21009 49970 57060 75677 887// 22264 04030 2//// 3//// 4//// 5//// 6//// 80005 ICE /////
BBXX WDE7820 06183 99575 71522 41/97 83210 11039 2//// 40020 5//// 702// 8//// 222// 0//// 2//// 3//// 4//// 5//// 6//// 8//// ICE /////
AAXX 06184 71931 16/// /2714 11019 21075 39982 49994 53015 60001 333 10033 21034 7////
AAXX 06184 60670 12970 00000 10135 21087 39076 48509 53007 60002 333 10203 95990
AAXX 06184 71931 16/// /2714 11019 21075 39982 49994 53015 60001 333 10033 21034 7////
AAXX 06184 91844 46/// /0905 10220 40103 22200 00269
BBXX 9VDD2 06184 99332 11394 41598 82813 10120 20040 40210 56010 7//22 88/// 22214 04060 2//// 80080
AAXX 06184 63708 32575 23604 10271 20181 48477 81502 333 10306 59010 81624
BBXX 64045 06184 99591 70117 46/// /2729 10071 20037 40042 50000 22200 00098 10810 70049 333 90710 91139
BBXX 63106 06184 99610 10017 46/// /1912 10053 40010 57050 22200
BBXX 63105 06184 99610 10017 47598 ///// 10061 20013 40009 57051 700// 22200
BBXX 62304 06184 99511 10018 46/98 ///20 10083 20027 40247 58014 22200 00104 10602 70009
BBXX 62103 06184 99499 70029 46/98 /2623 10104 20078 40268 57019 22200 00115 10903 70016 333 90710 91129
AAXX 06184 63708 32575 23604 10271 20181 48477 81502 333 10306A 59010 81624
AAXX 06184 97120 32460 30000 10262 20250 30059 40092 57015 81231 333 56000 57803 81818 80860
BBXX BSH02 06181 99542 10079 46/// ///// 22200 00062 20803 70017
BBXX BSH03 06181 99540 10081 46/// ///// 22200 00060 20804 70019
OOXX NZP46 06161 99438 51765 ///// 00221 26/// /3307 10163 29/// 30121 91640 333 60000
OOXX NZP46 06161 99438 51765 ///// 00221 26/// /3307 10161 29/// 30120 91650 333 60000
OOXX NZP46 06171 99438 51765 ///// 00221 26/// /3308 10161 29/// 30119 91700 333 60000
OOXX NZP46 06171 99438 51765 ///// 00221 26/// /3307 10161 29/// 30119 91710 333 60000
OOXX NZP46 06171 99438 51765 ///// 00221 26/// /3307 10161 29/// 30120 91720 333 60000
OOXX NZP46 06171 99438 51765 ///// 00221 26/// /3307 10162 29/// 30121 91730 333 60000
OOXX NZP46 06171 99438 51765 ///// 00221 26/// /3306 10162 29/// 30123 91740 333 60000
OOXX NZP46 06171 99438 51765 ///// 00221 26/// /3306 10163 29100 30124 91750 333 60000
OOXX NZP46 06181 99438 51765 ///// 00221 26/// /3305 10162 29100 30124 91800 333 60000
OOXX NZP46 06181 99438 51765 ///// 00221 26/// /3306 10162 29100 30124 91810 333 60000
OOXX NZP46 06181 99438 51765 ///// 00221 26/// /3306 10162 29100 30125 91820 333 60000
OOXX NZP46 06181 99438 51765 ///// 00221 26/// /3407 10163 29100 30125 91830 333 60000
OOXX KIP39 06161 99020 51574 ///// 00181 26/// /0905 10258 29087 30108 91630 333 60000
OOXX KIP39 06161 99020 51574 ///// 00181 26/// /0905 10258 29087 30110 91640 333 60000
OOXX KIP39 06161 99020 51574 ///// 00181 26/// /0905 10259 29087 30111 91650 333 60000
OOXX KIP39 06171 99020 51574 ///// 00181 26/// /0905 10259 29087 30114 91700 333 60000
OOXX KIP39 06171 99020 51574 ///// 00181 26/// /0905 10260 29087 30113 91710 333 60000
OOXX KIP39 06171 99020 51574 ///// 00181 26/// /0905 10260 29086 30115 91720 333 60000
OOXX KIP39 06171 99020 51574 ///// 00181 26/// /1005 10260 29086 30117 91730 333 60000
OOXX KIP39 06171 99020 51574 ///// 00181 26/// /0905 10262 29086 30119 91740 333 60000
OOXX KIP39 06171 99020 51574 ///// 00181 26/// /1005 10265 29085 30122 91750 333 60000
OOXX KIP39 06181 99020 51574 ///// 00181 26/// /1005 10267 29085 30122 91800 333 60000
OOXX KIP39 06181 99020 51574 ///// 00181 26/// /1005 10267 29084 30122 91810 333 60000
OOXX KIP39 06181 99020 51574 ///// 00181 26/// /1005 10268 29084 30122 91820 333 60000
OOXX MYP42 06161 99045 11014 ///// 15551 26/// /0503 10160 29087 38455 91614 333 60000
OOXX MYP42 06161 99045 11014 ///// 15551 26/// /0203 10164 29089 38458 91624 333 60000
OOXX MYP42 06161 99045 11014 ///// 15551 26/// /0401 10160 29088 38466 91634 333 60000
OOXX MYP42 06161 99045 11014 ///// 15551 26/// /1105 10160 29089 38451 91644 333 60000
OOXX MYP42 06161 99045 11014 ///// 15551 26/// /0503 10154 29089 38460 91654 333 60000
OOXX MYP42 06171 99045 11014 ///// 15551 26/// /0503 10154 29090 38456 91704 333 60000
OOXX MYP42 06171 99045 11014 ///// 15551 26/// /0903 10159 29089 38458 91714 333 60000
OOXX MYP42 06171 99045 11014 ///// 15551 26/// /1203 10157 29088 38456 91724 333 60000
OOXX MYP42 06171 99045 11014 ///// 15551 26/// /1801 10153 29087 38445 91734 333 60000
OOXX MYP42 06171 99045 11014 ///// 15551 26/// /0201 10157 29080 38456 91744 333 60000
OOXX MYP42 06171 99045 11014 ///// 15551 26/// /0401 10163 29077 38438 91754 333 60000
OOXX MYP42 06181 99045 11014 ///// 15551 26/// /0503 10165 29068 38447 91804 333 60000
OOXX RUP54 06161 99586 10494 ///// 01271 26/// /0301 11007 29092 39983 91628 333 60120
OOXX RUP54 06161 99586 10494 ///// 01271 26/// /0502 11007 29092 39984 91638 333 60120
OOXX RUP54 06161 99586 10494 ///// 01271 26/// /0301 11006 29092 39983 91648 333 60120
OOXX RUP54 06161 99586 10494 ///// 01271 26/// /0502 11006 29092 39983 91658 333 60120
OOXX RUP54 06171 99586 10494 ///// 01271 26/// /0902 11005 29092 39983 91708 333 60120
OOXX RUP54 06171 99586 10494 ///// 01271 26/// /0502 11004 29092 39985 91718 333 60120
OOXX RUP54 06171 99586 10494 ///// 01271 26/// /0403 11003 29092 39985 91728 333 60120
OOXX RUP54 06171 99586 10494 ///// 01271 26/// /0604 11003 29092 39985 91738 333 60120
OOXX RUP54 06171 99586 10494 ///// 01271 26/// /0504 11003 29092 39987 91748 333 60120
OOXX RUP54 06171 99586 10494 ///// 01271 26/// /0504 11004 29092 39987 91758 333 60120
OOXX RUP54 06181 99586 10494 ///// 01271 26/// /0404 11004 29092 39987 91808 333 60120
OOXX RUP54 06181 99586 10494 ///// 01271 26/// /0503 11005 29092 39988 91818 333 60120
OOXX ISP34 06161 99641 70219 ///// 01301 26/// /2502 10032 29003 39775 91610 333 6///0
OOXX ISP34 06161 99641 70219 ///// 01301 26/// /2503 10035 29003 39775 91620 333 6///0
OOXX ISP34 06161 99641 70219 ///// 01301 26/// /2603 10036 29003 39775 91630 333 6///0
OOXX ISP34 06161 99641 70219 ///// 01301 26/// /2603 10035 29003 39774 91640 333 6///0
OOXX ISP34 06161 99641 70219 ///// 01301 26/// /2702 10032 29003 39774 91650 333 6///0
OOXX ISP34 06171 99641 70219 ///// 01301 26/// /2402 10033 29003 39773 91700 333 6///0
OOXX ISP34 06171 99641 70219 ///// 01301 26/// /2302 10034 29003 39773 91710 333 6///0
OOXX ISP34 06171 99641 70219 ///// 01301 26/// /2202 10035 29003 39773 91720 333 6///0
OOXX ISP34 06171 99641 70219 ///// 01301 26/// /1401 10034 29003 39774 91730 333 6///0
OOXX ISP34 06171 99641 70219 ///// 01301 26/// /1401 10031 29003 39775 91740 333 6///0
OOXX ISP34 06171 99641 70219 ///// 01301 26/// /1802 10031 29003 39776 91750 333 6///0
OOXX ISP34 06181 99641 70219 ///// 01301 26/// /1502 10031 29003 39776 91800 333 6///0
OOXX AUP06 06161 99192 31468 ///// 00071 26/// /0303 10257 29078 30088 91658 333 60000
OOXX AUP06 06171 99192 31468 ///// 00071 26/// /0403 10257 29078 30089 91708 333 60000
OOXX AUP06 06171 99192 31468 ///// 00071 26/// /0403 10255 29079 30088 91718 333 60000
OOXX AUP06 06171 99192 31468 ///// 00071 26/// /0303 10255 29079 30088 91728 333 60000
OOXX AUP06 06171 99192 31468 ///// 00071 26/// /0103 10260 29077 30087 91738 333 60000
OOXX AUP06 06171 99192 31468 ///// 00071 26/// /0103 10258 29078 30087 91748 333 60000
OOXX AUP06 06171 99192 31468 ///// 00071 26/// /0103 10258 29078 30087 91758 333 60000
OOXX AUP06 06181 99192 31468 ///// 00071 26/// /0103 10257 29078 30087 91808 333 60000
OOXX AUP06 06181 99192 31468 ///// 00071 26/// /3602 10255 29079 30086 91818 333 60000
OOXX AUP06 06181 99192 31468 ///// 00071 26/// /3602 10256 29078 30086 91828 333 60000
OOXX AUP06 06181 99192 31468 ///// 00071 26/// /3603 10255 29080 30087 91838 333 60000
OOXX AUP06 06181 99192 31468 ///// 00071 26/// /3602 10251 29082 30088 91848 333 60000
OOXX AUP09 06161 99124 31309 ///// 00321 26/// ///// 1//// 29/// 3//// 91651 333 6///0
OOXX AUP09 06171 99124 31309 ///// 00321 26/// ///// 1//// 29/// 3//// 91701 333 6///0
OOXX AUP09 06171 99124 31309 ///// 00321 26/// ///// 1//// 29/// 3//// 91711 333 6///0
OOXX AUP09 06171 99124 31309 ///// 00321 26/// ///// 1//// 29/// 3//// 91721 333 6///0
OOXX AUP09 06171 99124 31309 ///// 00321 26/// ///// 1//// 29/// 3//// 91731 333 6///0
OOXX AUP09 06171 99124 31309 ///// 00321 26/// ///// 1//// 29/// 3//// 91741 333 6///0
OOXX AUP09 06171 99124 31309 ///// 00321 26/// ///// 1//// 29/// 3//// 91751 333 6///0
OOXX AUP09 06181 99124 31309 ///// 00321 26/// ///// 1//// 29/// 3//// 91801 333 6///0
OOXX AUP09 06181 99124 31309 ///// 00321 26/// ///// 1//// 29/// 3//// 91811 333 6///0
OOXX AUP09 06181 99124 31309 ///// 00321 26/// ///// 1//// 29/// 3//// 91821 333 6///0
OOXX AUP09 06181 99124 31309 ///// 00321 26/// ///// 1//// 29/// 3//// 91831 333 6///0
OOXX AUP09 06181 99124 31309 ///// 00321 26/// ///// 1//// 29/// 3//// 91841 333 6///0
OOXX RUP58 06161 99442 11320 ///// 01121 26/// /2101 11154 29067 30175 91652 333 60000
OOXX RUP58 06171 99442 11320 ///// 01121 26/// /2501 11151 29066 30176 91702 333 60000
OOXX RUP58 06171 99442 11320 ///// 01121 26/// /0000 11162 29067 30177 91712 333 60000
OOXX RUP58 06171 99442 11320 ///// 01121 26/// /0601 11165 29071 30178 91722 333 60000
OOXX RUP58 06171 99442 11320 ///// 01121 26/// /1201 11172 29072 30179 91732 333 60000
OOXX RUP58 06171 99442 11320 ///// 01121 26/// /0000 11171 29071 30179 91742 333 60000
OOXX RUP58 06171 99442 11320 ///// 01121 26/// /1401 11169 29071 30179 91752 333 60000
OOXX RUP58 06181 99442 11320 ///// 01121 26/// /1101 11162 29070 30180 91802 333 60000
OOXX RUP58 06181 99442 11320 ///// 01121 26/// /1501 11162 29068 30180 91812 333 60000
OOXX RUP58 06181 99442 11320 ///// 01121 26/// /1301 11159 29067 30179 91822 333 60000
OOXX RUP58 06181 99442 11320 ///// 01121 26/// /0501 11157 29065 30180 91832 333 60000
OOXX RUP58 06181 99442 11320 ///// 01121 26/// /0601 11157 29063 30180 91842 333 60000
OOXX FRP31 06161 99052 70527 ///// 00091 26/// /0304 10287 29071 30199 91614 333 60000
OOXX FRP31 06161 99052 70527 ///// 00091 26/// /0504 10287 29071 30197 91624 333 60000
OOXX FRP31 06161 99052 70527 ///// 00091 26/// /0504 10286 29071 30199 91634 333 60000
OOXX FRP31 06161 99052 70527 ///// 00091 26/// /0505 10284 29071 30196 91644 333 60000
OOXX FRP31 06161 99052 70527 ///// 00091 26/// /0405 10284 29073 30193 91654 333 60000
OOXX FRP31 06171 99052 70527 ///// 00091 26/// /0305 10286 29074 30191 91704 333 60000
OOXX FRP31 06171 99052 70527 ///// 00091 26/// /0405 10285 29073 30192 91714 333 60000
OOXX FRP31 06171 99052 70527 ///// 00091 26/// /0306 10283 29075 30188 91724 333 60000
OOXX FRP31 06171 99052 70527 ///// 00091 26/// /0305 10284 29075 30188 91734 333 60000
OOXX FRP31 06171 99052 70527 ///// 00091 26/// /0306 10283 29074 30188 91744 333 60000
OOXX FRP31 06171 99052 70527 ///// 00091 26/// /0406 10285 29075 30187 91754 333 60000
OOXX FRP31 06181 99052 70527 ///// 00091 26/// /0305 10285 29074 30191 91804 333 60000
OOXX SEP63 06161 99594 10180 ///// 00401 26/// /0903 11021 29070 39950 91610 333 60000
OOXX SEP63 06161 99594 10180 ///// 00401 26/// /0903 11021 29070 39940 91620 333 60000
OOXX SEP63 06161 99594 10180 ///// 00401 26/// /0703 11021 29071 39940 91630 333 60000
OOXX SEP63 06161 99594 10180 ///// 00401 26/// /0903 11022 29071 39940 91640 333 60000
OOXX SEP63 06161 99594 10180 ///// 00401 26/// /1003 11022 29071 39940 91650 333 60000
OOXX SEP63 06171 99594 10180 ///// 00401 26/// /1203 11022 29070 39940 91700 333 60000
OOXX SEP63 06171 99594 10180 ///// 00401 26/// /0903 11021 29070 39940 91710 333 60000
OOXX SEP63 06171 99594 10180 ///// 00401 26/// /0904 11021 29069 39940 91720 333 60000
OOXX SEP63 06171 99594 10180 ///// 00401 26/// /1204 11021 29069 39940 91730 333 60000
OOXX SEP63 06171 99594 10180 ///// 00401 26/// /1003 11021 29068 39940 91740 333 60000
OOXX SEP63 06171 99594 10180 ///// 00401 26/// /1003 11021 29068 39940 91750 333 60000
OOXX SEP63 06181 99594 10180 ///// 00401 26/// /0704 11020 29067 39940 91800 333 60000
OOXX AUP07 06161 99/// ///// ///// ///// 26/// /3017 10066 29087 39795 91653 333 60000
OOXX AUP07 06171 99/// ///// ///// ///// 26/// /3015 10064 29089 39795 91703 333 60000
OOXX AUP07 06171 99/// ///// ///// ///// 26/// /3015 10063 29089 39793 91713 333 69920
OOXX AUP07 06171 99/// ///// ///// ///// 26/// /3014 10063 29088 39792 91723 333 60000
OOXX AUP07 06171 99/// ///// ///// ///// 26/// /3013 10066 29087 39791 91733 333 60000
OOXX AUP07 06171 99/// ///// ///// ///// 26/// /2913 10067 29088 39789 91743 333 60000
OOXX AUP07 06171 99/// ///// ///// ///// 26/// /2819 10064 29087 39792 91753 333 60000
OOXX AUP07 06181 99/// ///// ///// ///// 26/// /2618 10056 29087 39796 91803 333 60000
OOXX AUP07 06181 99/// ///// ///// ///// 26/// /2517 10053 29087 39801 91813 333 69920
OOXX AUP07 06181 99/// ///// ///// ///// 26/// /2516 10052 29088 39807 91823 333 60000
OOXX AUP07 06181 99/// ///// ///// ///// 26/// /2518 10050 29088 39811 91833 333 69920
OOXX AUP07 06181 99/// ///// ///// ///// 26/// /2519 10049 29088 39817 91843 333 60000
OOXX FJP26 06161 99178 31775 ///// 00311 26/// /1201 10239 29095 30035 91620 333 60000
OOXX FJP26 06161 99178 31775 ///// 00311 26/// /1001 10239 29096 30035 91630 333 60000
OOXX FJP26 06161 99178 31775 ///// 00311 26/// /0000 10238 29096 30038 91640 333 60000
OOXX FJP26 06161 99178 31775 ///// 00311 26/// /0601 10238 29096 30039 91650 333 60000
OOXX FJP26 06171 99178 31775 ///// 00311 26/// /0801 10238 29096 30039 91700 333 60000
OOXX FJP26 06171 99178 31775 ///// 00311 26/// /0000 10238 29096 30041 91710 333 60000
OOXX FJP26 06171 99178 31775 ///// 00311 26/// /0701 10238 29096 30042 91720 333 60000
OOXX FJP26 06171 99178 31775 ///// 00311 26/// /0701 10238 29096 30042 91730 333 60000
OOXX FJP26 06171 99178 31775 ///// 00311 26/// /1001 10238 29096 30045 91740 333 60000
OOXX FJP26 06171 99178 31775 ///// 00311 26/// /0000 10238 29096 30045 91750 333 60000
OOXX FJP26 06181 99178 31775 ///// 00311 26/// /0000 10237 29096 30047 91800 333 60000
OOXX FJP26 06181 99178 31775 ///// 00311 26/// /1301 10237 29096 30050 91810 333 60000
OOXX GBP67 06161 99159 50057 ///// 04381 26/// /0904 10179 29091 39665 91620 333 60000
OOXX GBP67 06161 99159 50057 ///// 04381 26/// /0905 10176 29092 39665 91630 333 60000
OOXX GBP67 06161 99159 50057 ///// 04381 26/// /0904 10178 29090 39664 91640 333 60000
OOXX GBP67 06161 99159 50057 ///// 04381 26/// /1004 10179 29088 39664 91650 333 60000
OOXX GBP67 06171 99159 50057 ///// 04381 26/// /0904 10180 29087 39664 91700 333 60000
OOXX GBP67 06171 99159 50057 ///// 04381 26/// /0904 10179 29085 39666 91710 333 60000
OOXX GBP67 06171 99159 50057 ///// 04381 26/// /0904 10177 29085 39666 91720 333 60000
OOXX GBP67 06171 99159 50057 ///// 04381 26/// /0904 10177 29083 39668 91730 333 60000
OOXX GBP67 06171 99159 50057 ///// 04381 26/// /0904 10176 29084 39667 91740 333 60000
OOXX GBP67 06171 99159 50057 ///// 04381 26/// /0904 10176 29088 39669 91750 333 60000
OOXX GBP67 06181 99159 50057 ///// 04381 26/// /0904 10175 29087 39671 91800 333 60000
OOXX GBP67 06181 99159 50057 ///// 04381 26/// /0904 10175 29087 39673 91810 333 60000
OOXX RUP60 06171 99531 11588 ///// 00651 26/// /3201 11155 29059 30022 91702 333 60000
OOXX RUP60 06171 99531 11588 ///// 00651 26/// /3102 11147 29056 30022 91712 333 60000
OOXX RUP60 06171 99531 11588 ///// 00651 26/// /2506 11153 29056 30023 91722 333 60000
OOXX RUP60 06171 99531 11588 ///// 00651 26/// /2901 11157 29058 30023 91732 333 60000
OOXX RUP60 06171 99531 11588 ///// 00651 26/// /2901 11159 29059 30022 91742 333 60000
OOXX RUP60 06171 99531 11588 ///// 00651 26/// /2505 11166 29061 30023 91752 333 60000
OOXX RUP60 06181 99531 11588 ///// 00651 26/// /3405 11176 29062 30022 91802 333 60000
OOXX RUP60 06181 99531 11588 ///// 00651 26/// /2801 11174 29064 30023 91812 333 60000
OOXX RUP60 06181 99531 11588 ///// 00651 26/// /2703 11181 29066 30023 91822 333 60000
OOXX RUP60 06181 99531 11588 ///// 00651 26/// /3001 11184 29065 30023 91832 333 60000
OOXX RUP60 06181 99531 11588 ///// 00651 26/// /3001 11188 29068 30023 91842 333 60000
OOXX RUP60 06181 99531 11588 ///// 00651 26/// /3001 11192 29069 30023 91852 333 60000
OOXX FRP29 06161 99210 30556 ///// 00751 26/// /2206 10263 29078 39874 91655 333 60000
OOXX FRP29 06171 99210 30556 ///// 00751 26/// /2206 10263 29078 39872 91705 333 60000
OOXX FRP29 06171 99210 30556 ///// 00751 26/// /2208 10263 29078 39871 91715 333 60000
OOXX FRP29 06171 99210 30556 ///// 00751 26/// /2208 10263 29076 39871 91725 333 60000
OOXX FRP29 06171 99210 30556 ///// 00751 26/// /2207 10264 29076 39874 91735 333 60000
OOXX FRP29 06171 99210 30556 ///// 00751 26/// /2206 10263 29076 39873 91745 333 60000
OOXX FRP29 06171 99210 30556 ///// 00751 26/// /2207 10261 29076 39875 91755 333 60000
OOXX FRP29 06181 99210 30556 ///// 00751 26/// /2205 10261 29076 39872 91805 333 60000
OOXX FRP29 06181 99210 30556 ///// 00751 26/// /2205 10260 29076 39871 91815 333 60000
OOXX FRP29 06181 99210 30556 ///// 00751 26/// /2205 10259 29076 39870 91825 333 60000
OOXX FRP29 06181 99210 30556 ///// 00751 26/// /2205 10259 29075 39872 91835 333 60000
OOXX FRP29 06181 99210 30556 ///// 00751 26/// /2205 10259 29074 39874 91845 333 60000
OOXX GBP68 06161 99371 50123 ///// 00641 26/// /3507 10172 29000 30134 91620 333 60000
OOXX GBP68 06161 99371 50123 ///// 00641 26/// /3508 10163 29000 30133 91630 333 60000
OOXX GBP68 06161 99371 50123 ///// 00641 26/// /3508 10169 29000 30132 91640 333 60000
OOXX GBP68 06161 99371 50123 ///// 00641 26/// /3507 10165 29000 30133 91650 333 60000
OOXX GBP68 06171 99371 50123 ///// 00641 26/// /3508 10161 29000 30130 91700 333 60000
OOXX GBP68 06171 99371 50123 ///// 00641 26/// /3508 10157 29000 30129 91710 333 60000
OOXX GBP68 06171 99371 50123 ///// 00641 26/// /3507 10167 29000 30129 91720 333 60000
OOXX GBP68 06171 99371 50123 ///// 00641 26/// /3507 10160 29000 30130 91730 333 60000
OOXX GBP68 06171 99371 50123 ///// 00641 26/// /3507 10158 29000 30129 91740 333 60000
OOXX GBP68 06171 99371 50123 ///// 00641 26/// /3508 10157 29000 30129 91750 333 60000
OOXX GBP68 06181 99371 50123 ///// 00641 26/// /3508 10155 29000 30131 91800 333 60000
OOXX GBP68 06181 99371 50123 ///// 00641 26/// /3508 10155 29000 30133 91810 333 60000
OOXX ARP01 06161 99345 50585 ///// 00311 26/// /2001 10149 29020 30105 91610 333 60000
OOXX ARP01 06161 99345 50585 ///// 00311 26/// /0201 10151 29020 30103 91620 333 60000
OOXX ARP01 06161 99345 50585 ///// 00311 26/// /2001 10153 29020 30103 91630 333 60000
OOXX ARP01 06161 99345 50585 ///// 00311 26/// /0000 10155 29019 30102 91640 333 60000
OOXX ARP01 06161 99345 50585 ///// 00311 26/// /0000 10155 29019 30101 91650 333 60000
OOXX ARP01 06171 99345 50585 ///// 00311 26/// /2301 10157 29019 30101 91700 333 60000
OOXX ARP01 06171 99345 50585 ///// 00311 26/// /2301 10159 29019 30100 91710 333 60000
OOXX ARP01 06171 99345 50585 ///// 00311 26/// /2301 10161 29018 30099 91720 333 60000
OOXX ARP01 06171 99345 50585 ///// 00311 26/// /2302 10162 29017 30099 91730 333 60000
OOXX ARP01 06171 99345 50585 ///// 00311 26/// /2301 10161 29017 30099 91740 333 60000
OOXX ARP01 06171 99345 50585 ///// 00311 26/// /2002 10163 29016 30098 91750 333 60000
OOXX ARP01 06181 99345 50585 ///// 00311 26/// /2002 10164 29016 30097 91800 333 60000
OOXX MRP43 06161 99181 70159 ///// 00101 26/// /0706 10281 29011 30141 91650 333 60000
OOXX MRP43 06171 99181 70159 ///// 00101 26/// /0706 10280 29011 30139 91700 333 60000
OOXX MRP43 06171 99181 70159 ///// 00101 26/// /0706 10281 29011 30140 91710 333 60000
OOXX MRP43 06171 99181 70159 ///// 00101 26/// /0806 10281 29011 30141 91720 333 60000
OOXX MRP43 06171 99181 70159 ///// 00101 26/// /0706 10278 29011 30140 91730 333 60000
OOXX MRP43 06171 99181 70159 ///// 00101 26/// /0705 10278 29011 30141 91740 333 60000
OOXX MRP43 06171 99181 70159 ///// 00101 26/// /0705 10278 29011 30142 91750 333 60000
OOXX MRP43 06181 99181 70159 ///// 00101 26/// /0805 10277 29011 30142 91800 333 60000
OOXX MRP43 06181 99181 70159 ///// 00101 26/// /0705 10276 29011 30143 91810 333 60000
OOXX MRP43 06181 99181 70159 ///// 00101 26/// /0705 10274 29011 30140 91820 333 60000
OOXX MRP43 06181 99181 70159 ///// 00101 26/// /0705 10272 29011 30138 91830 333 60000
OOXX MRP43 06181 99181 70159 ///// 00101 26/// /0705 10270 29011 30141 91840 333 60000
AAXX 06184 91559 46/// /0000 10247 40053 22200 00298
AAXX 06184 48408 32960 20402 10182 20155 30008 40162 57000 80001 333 58009
AAXX 06184 71619 16/// /2910 11118 21179 30044 40105 56017 60001 333 11115 21151 70000
AAXX 06184 71376 16/// /0803 11103 21121 39753 40060 57025 60001 333 11101 21200 70000
AAXX 06184 71384 16/// /0911 11114 21149 30098 40106 58035 60001 333 11113 21170 70000
AAXX 06184 71386 16/// /3301 11145 21205 39900 40113 56019 60001 333 11142 21169 70000
AAXX 06184 71724 16/// /0310 11117 21153 30069 40077 56043 60001 333 11110 21167 70000
AAXX 06184 71425 16/// /2609 11114 21162 30060 40097 58007 60001 333 11111 21130 70031
AAXX 06184 71619 16/// /2910 11118 21179 30044 40105 56017 60001 333 11115 21151 70000
AAXX 06184 71376 16/// /0803 11103 21121 39753 40060 57025 60001 333 11101 21200 70000
AAXX 06184 71384 16/// /0911 11114 21149 30098 40106 58035 60001 333 11113 21170 70000
AAXX 06184 71386 16/// /3301 11145 21205 39900 40113 56019 60001 333 11142 21169 70000
AAXX 06184 71425 16/// /2609 11114 21162 30060 40097 58007 60001 333 11111 21130 70031
AAXX 06184 71724 16/// /0310 11117 21153 30069 40077 56043 60001 333 11110 21167 70000
AAXX 06184 91531 46/// /0703 1//// 40076 22200 00263
AAXX 06181 20069 41972 01209 11208 21236 30303 40317 57005 73730 333 91112
AAXX 06181 20292 42998 01601 11242 21260 30371 40392 58001 333 91103
AAXX 06181 20046 31498 71208 11126 21139 30216 40249 57009 69940 73673 87500 333 11119
AAXX 06184 71839 16/// ///// 10013 60001 333 10013 21031 70000
AAXX 06184 71016 16/// ///// 10000 60001 333 10001 21033 70004
AAXX 06184 71713 16/// /1505 11123 21182 60001 333 11123 21208 70000
AAXX 06184 71839 16/// ///// 10013 60001 333 10013 21031 70000
AAXX 06184 71713 16/// /1505 11123 21182 60001 333 11123 21208 70000
AAXX 06184 71016 16/// ///// 10000 60001 333 10001 21033 70004
BBXX 41052 06181 99183 70648 46/// /1204 10263 40141 91800 22200 00269 11102 70008 333 91205
BBXX 44055 06181 99391 70753 46/// ///// 1//// 91830 22200 00060 1//00 70002
BBXX 41037 06181 99340 70775 46/// /2408 10177 40184 58024 91800 22200 00194 333 91209
BBXX 46110 06181 99481 71230 46/// /0802 10056 40253 91758
BBXX 42043 06181 99290 70949 46/// /1903 1//// 40186 57012 91800 22200 00156 333 91204
BBXX 42044 06181 99262 70971 46/// /1202 10172 20153 40187 57007 91800 333 91203
BBXX SHIP 06184 99551 71494 41698 71419 11030 21099 40082 52010 70211 87897 22263 06050 20506 335// 40506 81050
BBXX 42045 06181 99262 70965 46/// /1703 10176 40188 57010 91800 22200 00168 333 91204
BBXX 42046 06181 99279 70940 46/// /1907 1//// 40198 91800 22200 00218 333 91209
BBXX 66022 06181 99541 10142 46/// /2708 10033 30100 22200 00039
BBXX 42046 06181 99279 70940 46/// /1907 1//// 40198 91800 22200 00218 333 91209
BBXX 42045 06181 99262 70965 46/// /1703 10176 40188 57010 91800 22200 00168 333 91204
BBXX SHIP 06184 99551 71494 41698 71419 11030 21099 40082 52010 70211 87897 22263 06050 20506 335// 40506 81050
BBXX 42044 06181 99262 70971 46/// /1202 10172 20153 40187 57007 91800 333 91203
BBXX 42043 06181 99290 70949 46/// /1903 1//// 40186 57012 91800 22200 00156 333 91204
BBXX 41037 06181 99340 70775 46/// /2408 10177 40184 58024 91800 22200 00194 333 91209
BBXX 44055 06181 99391 70753 46/// ///// 1//// 91830 22200 00060 1//00 70002
BBXX 46110 06181 99481 71230 46/// /0802 10056 40253 91758
BBXX 41052 06181 99183 70648 46/// /1204 10263 40141 91800 22200 00269 11102 70008 333 91205
BBXX 46094 06181 99446 71243 46/// /1605 10071 91830
BBXX 46094 06181 99446 71243 46/// /1504 10071 91820
BBXX 46094 06181 99446 71243 46/// /2204 10071 91810
BBXX 46094 06181 99446 71243 46/// /1204 10071 91800
BBXX 46094 06181 99446 71243 46/// /1703 10070 91750
BBXX 46094 06181 99446 71243 46/// /1604 10076 91740
BBXX 2AKI2 06183 99019 30874 41498 32807 10275 20230 40128 57007 70200 82140 22254 00291 20201 32700 40902 5//// 80244
BBXX PFFH 06183 99067 30111 41/98 /1803 10255 40098 57/// 7//// 8//// 22253 00261 2////
BBXX 9KWP 06183 99161 30992 41697 61216 10260 20215 40124 58010 70211 83534 22234 2//// 80230
BBXX A8GP6 06183 99186 31086 41498 51610 10250 20207 40105 56005 70211 8419/ 22284 04284 20301 80220 80230
BBXX TBWUK18 06183 99252 30674 41597 51715 10230 20183 40107 54000 70311 855// 22212 00260 20603 309// 41405 5//// 80200
BBXX A8AD7 06183 99104 70170 41695 43610 10275 20234 40110 56010 70000 831/8 22273 02275 2//// 30000 80245
OOXX AAERC 06184 99815 31639 60713 00451 46/// /2405 11060 21118 39677 49733 57003 91810
OOXX AAEMI 06184 99785 31731 57083 00521 46/// /2316 11043 21064 39673 49737 57003 91810
OOXX AABRI 06184 99839 51342 60134 05251 46/// /0609 11054 21155 39132 49744 5//// 91810
OOXX AAERI 06184 99849 51288 60048 09901 46/// /0929 11096 21115 38639 49748 5//// 91810
OOXX AAVIT 06184 99785 31778 57087 00501 46/// /1612 11072 21090 39639 49701 5//// 91810
OOXX AAPEG 06184 99779 31666 57186 00051 46/// ///02 11032 21131 39731 49737 57004 91810
OOXX AAMIZ 06184 99707 30443 58304 22602 46/// /1108 11160 2//// 37395 49615 57004 91800
OOXX AALAU 06184 99775 31708 57070 00371 46/// /2616 11038 21073 39674 49719 5//// 91810
AAXX 06184 71363 16/// /3214 11373 21414 39997 40055 51014 60001 333 11316 21380 70000
AAXX 06184 71746 16/// /2110 10111 20012 39807 40024 58010 60001 333 10112 20008 70000
AAXX 06184 71018 16/// ///05 11355 21393 39931 40022 50007 60001 333 11306 21357 70000
AAXX 06184 71503 46/// /0706 11249 21275 39821 40104 58010 6///1 333 11222 21290 7////
AAXX 06184 71539 16/// /2916 10008 21072 39453 40152 51019 60001 333 10031 21017 70000
AAXX 06184 71868 16/// /0000 11037 21053 39659 40102 51022 60001 333 10007 21047 70147
AAXX 06184 71746 16/// /2110 10111 20012 39807 40024 58010 60001 333 10112 20008 70000
AAXX 06184 71363 16/// /3214 11373 21414 39997 40055 51014 60001 333 11316 21380 70000
AAXX 06184 71018 16/// ///05 11355 21393 39931 40022 50007 60001 333 11306 21357 70000
AAXX 06184 71155 16/// ///// 11045 21093 60001 333 11014 21093 70000
AAXX 06184 71868 16/// /0000 11037 21053 39659 40102 51022 60001 333 10007 21047 70147
AAXX 06184 92036 46/// /9901 10257 40079 22200 00309
AAXX 06184 89016 46/// /1710 29074 39413 4//// 5////
BBXX A8AD7 06183 99104 70170 41695 43610 10275 20234 40110 56010 70000 831/8 22273 02275 2//// 30000 80245
BBXX 63106 06184 99610 10017 46/// /1912 10053 40010 57050 22200
BBXX 63113 06184 99610 10017 46/// /2414 10057 20010 40011 57051 22200 10806 70031
BBXX 62304 06184 99511 10018 46/98 /2517 10085 20028 40249 57014 22200 00104 10602 70009
BBXX 64045 06184 99591 70117 46/// /2731 10071 20037 40042 50000 22200 00098 10810 70049 333 90710 91139
BBXX 62103 06184 99499 70029 46/97 /2722 10107 20096 40266 56014 22200 00115 10803 70016 333 90710 91130
AAXX 06181 10895 01582 62703 10010 21010 39611 40195 52041 60032 72687 86500 333 10022 21003 3/101 44997 55300 20000 30000 69917 81625 86646 91115 96285 96483 96468
AAXX 06183 63612 32980 20000 10272 20185 40093 80001 333 10371 59006 82079
AAXX 06183 63695 32980 02703 10152 20133 333 10264
AAXX 06183 63772 32580 20910 10262 20225 81401 333 10311 81623
AAXX 06184 91689 46/// /0232 10247 40059 22200 00294
BBXX C6VG8 06184 99301 70764 41/// /2712 10180 2//// 40190 5//// 7//// 8//// 22284 00230 2//// 3//// 4//// 5//// 6//// 8//// ICE /////
BBXX A8AD7 06183 99104 70170 41695 43610 10275 20234 40110 56010 70000 831/8 22273 02275 2//// 30000 80245
BBXX 46094 06181 99446 71243 46/// /1204 10071 91800
BBXX 46094 06181 99446 71243 46/// /1605 10071 91830
BBXX 46094 06181 99446 71243 46/// /1504 10071 91820
BBXX 46094 06181 99446 71243 46/// /2204 10071 91810
BBXX 46094 06181 99446 71243 46/// /1604 10076 91740
BBXX 46094 06181 99446 71243 46/// /1703 10070 91750
BBXX 4XFB 06184 99361 70047 41497 12826 10160 20130 40210 57020 70100 80/// 22264 00180 20303 328// 40505 5//// 80140
BBXX ZNQO3 06180 99335 10254 41/95 /2120 10175 20111 40044 53030 74122 8//// 22234 04186 2//// 3//// 4//// 5//// 80140
AAXX 06184 89257 46/// /0213 1//// 2//// 39761 4//// 5//// 91810
BBXX FLAO 0618/ 99764 70847 46/// ///// 11273 40004 52014
AAXX 06184 89003 46/89 /3212 11085 29063 39028 4//// 5////
AAXX 06184 89614 46/// /0816 11123 29075 38965 4//// 5//// 333 90700 91120
AAXX 06184 89614 46/// /0816 11123 29075 38965 4//// 5//// 333 90700 91120
AAXX 0618/ 89872 46/// ///// 11025 39665 4//// 5////
AAXX 0618/ 89872 46/// ///// 11025 39665 4//// 5//// 91810
AAXX 0618/ 89872 46/// ///// 11025 39664 4//// 5//// 91820
AAXX 0618/ 89869 46/// ///// 11053 39660 4//// 5//// 91810
AAXX 0618/ 89869 46/// ///// 11054 39661 4//// 5//// 91820
AAXX 0618/ 89866 46/// ///// 10020 39625 4//// 5////
AAXX 0618/ 89866 46/// ///// 10025 39624 4//// 5//// 91810
AAXX 0618/ 89329 46/// ///// 11068 38600 4//// 5////
AAXX 0618/ 89799 46/// ///// 11241 4//// 5////
AAXX 0618/ 89799 46/// ///// 11241 4//// 5//// 91810
AAXX 0618/ 89799 46/// ///// 11239 4//// 5//// 91820
AAXX 0618/ 89332 46/// ///// 11033 39066 4//// 5////
AAXX 0618/ 89332 46/// ///// 11033 39065 4//// 5//// 91810
AAXX 0618/ 89769 46/// ///// 11046 39685 4//// 5////
AAXX 0618/ 89769 46/// ///// 11043 39685 4//// 5//// 91810
AAXX 0618/ 89314 46/// ///// 11111 38100 4//// 5//// 91810
AAXX 0618/ 89327 46/// ///// 11020 39511 4//// 5////
AAXX 0618/ 89327 46/// ///// 11023 39504 4//// 5//// 91810
AAXX 0618/ 89828 46/// ///// 11338 36426 4//// 5////
AAXX 0618/ 89828 46/// ///// 11338 36426 4//// 5//// 91810
AAXX 0618/ 89108 46/// ///// 11209 36877 4//// 5////
AAXX 0618/ 89108 46/// ///// 11209 36878 4//// 5//// 91810
AAXX 0618/ 89879 46/// ///// 10001 39686 4//// 5//// 91810
AAXX 06184 04418 NIL
AAXX 06184 04425 NIL
AAXX 06184 04432 NIL
AAXX 06184 04436 46/// /0000 11250 21273
AAXX 06184 04464 NIL
AAXX 06184 04485 NIL
AAXX 06184 04488 NIL
AAXX 06184 89013 46/// /0703 11209 21239 37608 49636 5//// 91810
AAXX 06184 89108 46/// /0207 11209 36876 4//// 52001 91810
AAXX 06184 89257 46/// /0213 1//// 2//// 39761 4//// 5//// 91810
AAXX 06184 89266 46/// /9901 11013 21037 39678 49814 5//// 91810
AAXX 06184 89272 46/// /0614 11112 21140 37983 49603 5//// 91810
AAXX 06184 89314 46/// /0723 11111 38095 4//// 52001 91800
AAXX 06184 89327 46/// /0000 11022 39475 49750 5//// 91800
AAXX 06184 89329 46/// /0208 11068 38597 49639 52004 91800
AAXX 06184 89332 46/// /0406 11031 39065 49660 5//// 91810
AAXX 06184 89376 46/// /1409 11081 39612 49679 52004 91800
AAXX 06184 89667 46/// ///02 11032 39731 49741 57004 91810
AAXX 06184 89734 46/// /0703 11247 36030 4//// 57002 91810
AAXX 06184 89744 46/// /0105 11228 36408 4//// 57004 91810
AAXX 06184 89769 46/// /2217 11042 39669 49721 5//// 91800
AAXX 06184 89799 46/// /2207 11239 36687 4//// 54000 91810
AAXX 06184 89828 46/// /2009 11338 36402 4//// 57001 91810
AAXX 06184 89832 46/// /1712 11114 39483 49784 52007 91810
AAXX 06184 89834 46/// /1613 11259 38037 4//// 52003 91810
AAXX 06184 89865 46/// ///// 1//// 3//// 4//// 5//// 91810
AAXX 06184 89866 46/// /0000 10025 39593 49721 57005 91810
AAXX 06184 89869 46/// /1909 11052 39652 49730 57004 91800
AAXX 06184 89872 46/// /2316 11025 39659 49714 5//// 91810
AAXX 06184 89873 46/// /2009 11056 39653 49729 57003 91800
AAXX 06184 89879 46/// /0000 10001 39670 49706 57003 91800
BBXX SHIP 06184 99551 71494 41698 71419 11030 21099 40082 52010 70211 87897 22263 06050 20506 335// 40506 81050
AAXX 0618/ 89869 46/// ///// 11058 39660 4//// 5//// 91840
AAXX 0618/ 89866 46/// ///// 10014 39624 4//// 5//// 91830
AAXX 0618/ 89329 46/// ///// 11066 38599 4//// 5//// 91840
AAXX 0618/ 89799 46/// ///// 11238 4//// 5//// 91840
AAXX 0618/ 89332 46/// ///// 11029 39066 4//// 5//// 91840
AAXX 0618/ 89314 46/// ///// 11109 38100 4//// 5//// 91840
AAXX 0618/ 89667 46/// ///// 11026 39730 4//// 5//// 91840
AAXX 06181 98132 31460 83605 10210 20196 40225 5/011 70544 8527/ 333 56199 85816 88357
AAXX 06181 98133 NIL
AAXX 06181 98222 31575 10202 10235 20221 40146 57002 70544 81201 333 56999 81820
AAXX 06181 98233 31570 30000 10230 20209 40155 58006 70544 83500 333 56999 83625
AAXX 06181 98324 31562 50701 10246 20223 40140 58010 70544 81161 333 56999 81816 85080
AAXX 06181 98327 31665 63503 10228 20198 39984 40159 57005 70544 82230 333 56999 82842 86360
AAXX 06181 98334 11465 83602 10222 20220 39958 40164 57010 60031 78082 8327/ 333 56999 83817 88357
AAXX 06181 98425 11558 70902 10266 20225 40143 57008 69921 70284 84870 333 56999 84620 87358
AAXX 06181 98426 31562 71003 10256 20193 40150 57008 70544 81170 333 56999 81820 87358
AAXX 06181 98427 32472 73602 10240 20226 39956 40135 58016 82270 333 56999 82818 87357
AAXX 06181 98428 32458 81101 10265 20231 40146 58001 82467 333 56999 82618 88275
AAXX 06181 98432 11568 30402 10252 20224 40134 58014 69971 70564 81202 333 56199 81820
AAXX 06181 98433 11/00 90908 10202 20202 39419 40144 57012 60041 78086 89/// 333 56999 89///
AAXX 06181 98434 11464 83602 10234 20229 30147 40155 58012 60141 72166 8452/ 333 56199 84617 88457
AAXX 06181 98435 32470 70402 10252 20234 40140 5//// 83270 333 56199 83818 87358
AAXX 06181 98442 NIL
AAXX 06181 98446 31465 80901 10254 20238 30093 40139 58009 71522 84207 333 56199 84818 88270
AAXX 06181 98447 11465 80706 10248 20237 39882 40148 5//// 69961 71582 8427/ 333 56299 84818 88357
AAXX 06181 98538 11460 80703 10254 20241 30129 40134 57009 60011 76062 83267 333 56119 83811 84357 88272
AAXX 06181 98546 11575 70000 10247 20238 30116 40124 57014 60021 70182 83208 333 56999 83820 87275
AAXX 06181 98548 11465 80000 10257 20248 30107 40113 58013 60031 70286 85807 333 56999 85818 88272
AAXX 06181 98553 11466 70403 10273 20249 30119 40123 58008 60071 70564 83908 333 56199 81916 83818 87272
AAXX 06181 98558 11460 80612 10252 20243 40123 57009 60151 70382 8497/ 333 56999 82915 88357
AAXX 06181 98642 11458 83204 10256 20244 30103 40112 58015 69901 78022 8522/ 333 56199 85815 88457
AAXX 06181 98644 11465 80401 10254 20242 30114 40123 58005 60061 70388 8227/ 333 56999 82817 88358
AAXX 06181 98648 11456 80000 10246 20218 30039 40121 57011 60221 78084 8492/ 333 56999 84912 88457
AAXX 06181 98746 31462 70000 10250 20221 40079 58027 70544 83972 333 56999 83918 85358
AAXX 06181 98751 32468 80000 10220 20207 39435 40102 57015 8397/ 333 56999 83915 88356
AAXX 06181 98752 11458 73501 10246 20237 40116 58013 60041 72582 83570 333 56999 83616 87358
AAXX 06181 98851 32470 62701 10243 20222 39949 40097 58013 81270 333 56999 81818 86358
BBXX 64045 06184 99591 70117 46/// /2729 10071 20037 40042 50000 22200 00098 10810 70049 333 90710 91139
BBXX 63106 06184 99610 10017 46/// /1912 10053 40010 57050 22200
BBXX 63105 06184 99610 10017 47598 ///// 10061 20013 40009 57051 700// 22200
BBXX 62304 06184 99511 10018 46/98 ///20 10083 20027 40247 58014 22200 00104 10602 70009
BBXX 62103 06184 99499 70029 46/98 /2623 10104 20078 40268 57019 22200 00115 10903 70016 333 90710 91129
BBXX 42013 06181 99272 70829 46/// ///// 1//// 40221 91820
BBXX 42013 06181 99272 70829 46/// ///// 1//// 40225 91800 22200 00193
BBXX FLAO 0618/ 99764 70847 46/// ///// 11273 40004 52014
BBXX C6VG8 06184 99301 70764 41/// /2712 10180 2//// 40190 5//// 7//// 8//// 22284 00230 2//// 3//// 4//// 5//// 6//// 8//// ICE /////
AAXX 06184 71408 46/// /2627 11014 21045 39951 40030 51001 6///1 333 10035 21027 7////
AAXX 06184 60525 12560 33310 10154 20037 40181 52032 60002 82202 333 10215 82833 95990
AAXX 06184 60355 12558 73622 10141 20052 40209 52016 60002 878// 333 0//00 10168 82830 86833 95990
AAXX 06184 78906 12580 43102 10296 20222 30135 40140 60001 83201 333 10300 20214 58005 70057 83822
AAXX 06184 78906 12580 43102 10296 20222 30135 40140 60001 83201 333 10300 20214 58005 70057 83822
AAXX 06184 78906 12580 43102 10296 20222 30135 40140 60001 83201 333 10300 20214 58005 70057 83822
BBXX PHQW 06183 99546 10054 41/98 52825 10076 20003 40145 54000 70311 8//// 22253 00081 2//// 80044 91241
BBXX 42369 06181 99272 70903 46/// /2106 1//// 91740 22200 10401 70007
BBXX 42370 06181 99273 70905 46/// ///// 10208 91740 22200 10401 70007
AAXX 06184 78906 12580 43102 10296 20222 30135 40140 60001 83201 333 10300 20214 58005 70057 83822
BBXX 42376 06181 99291 70879 46/// /0000 10201 40209 91740 22200 10101 70003
BBXX 42392 06181 99272 70900 46/// ///// 1//// 91740 22200 10401 70006
BBXX 42887 06181 99282 70885 46/// /0305 10207 91740 22200 10601 70006
BBXX PHQW 06183 99546 10054 41/98 52825 10076 20003 40145 54000 70311 8//// 22253 00081 2//// 80044 91241
BBXX 42392 06181 99272 70900 46/// ///// 1//// 91740 22200 10401 70006
BBXX 42887 06181 99282 70885 46/// /0305 10207 91740 22200 10601 70006
BBXX 42376 06181 99291 70879 46/// /0000 10201 40209 91740 22200 10101 70003
BBXX 42370 06181 99273 70905 46/// ///// 10208 91740 22200 10401 70007
BBXX 42369 06181 99272 70903 46/// /2106 1//// 91740 22200 10401 70007
BBXX 42013 06181 99272 70829 46/// ///// 1//// 40221 91820
BBXX 42013 06181 99272 70829 46/// ///// 1//// 40225 91800 22200 00193
AAXX 06181 89063 41496 80209 10013 21012 39809 49820 57028 77372 886// 333 42094
BBXX 63106 06184 99610 10017 46/// /1912 10053 40010 57050 22200
BBXX 63113 06184 99610 10017 46/// /2414 10057 20010 40011 57051 22200 10806 70031
BBXX 62304 06184 99511 10018 46/98 /2517 10085 20028 40249 57014 22200 00104 10602 70009
BBXX 64045 06184 99591 70117 46/// /2731 10071 20037 40042 50000 22200 00098 10810 70049 333 90710 91139
BBXX 62103 06184 99499 70029 46/97 /2722 10107 20096 40266 56014 22200 00115 10803 70016 333 90710 91130
BBXX SHIP 06184 99546 71689 41598 60333 11003 21049 49970 56016 70222 86/// 91800 22264 00040 2//// 3//// 4//// 82000
BBXX MINFR09 0618/ 99343 11282 46/// ///// 40323 52010
AAXX 06181 89063 41496 80209 10013 21012 39809 49820 57028 77372 886// 333 42094
BBXX AUYI 06184 99072 10784 41697 40904 10290 20250 40067 54000 70001 83111 22243 00300
BBXX MINFR09 0618/ 99343 11282 46/// ///// 40323 52010
BBXX SHIP 06184 99546 71689 41598 60333 11003 21049 49970 56016 70222 86/// 91800 22264 00040 2//// 3//// 4//// 82000
AAXX 06181 01257 11675 22601 11018 21026 39842 40006 51010 60022 70211 81110 333 10015 91113
AAXX 06184 48409 32960 10405 10212 20166 30010 40161 51003 80001 333 58004
AAXX 06184 91375 46/// /0308 10223 40096 22200 00279
BBXX 42369 06181 99272 70903 46/// /2005 1//// 91800 22200 10401 70007
AAXX 06181 11813 12582 63205 10024 21035 39773 40127 52044 69902 85540 333 10051 82625 85638 91012
BBXX 42370 06181 99273 70905 46/// ///// 10208 91800 22200 10402 70008
BBXX 42376 06181 99291 70879 46/// /0000 10200 40205 58021 91800 22200 10101 70003
BBXX 42392 06181 99272 70900 46/// ///// 1//// 91800 22200 10401 70006
BBXX 42887 06181 99282 70885 46/// /0405 10200 91800 22200 10401 70005
AAXX 06184 91165 32966 00809 10228 20172 30179 40215 51007 91753
AAXX 06184 91212 32966 00508 10261 20228 31394 40127 56016 91754
AAXX 06184 91245 32562 20309 10240 20240 30157 91751
AAXX 06184 91285 32566 22306 10178 20106 30205 40219 53010 91753
AAXX 06184 91334 32474 80610 10271 20250 30097 40100 55007 82171
AAXX 06184 91348 32474 60307 10272 20226 30059 40112 55000 83101
AAXX 06184 91408 32474 80905 10272 20250 30052 40090 57022 83278
AAXX 06184 91413 32469 80610 10272 20232 30083 40108 56015 82878
AAXX 06184 91155 NIL
AAXX 06184 91203 NIL
AAXX 06184 91217 NIL
AAXX 06184 91232 NIL
AAXX 06184 91250 NIL
AAXX 06184 91275 NIL
AAXX 06184 91317 NIL
AAXX 06184 91324 NIL
AAXX 06184 91339 NIL
AAXX 06184 91353 NIL
AAXX 06184 91356 NIL
AAXX 06184 91366 NIL
AAXX 06184 91367 NIL
AAXX 06184 91369 NIL
AAXX 06184 91371 NIL
AAXX 06184 91376 NIL
AAXX 06184 91378 NIL
AAXX 06184 91425 NIL
AAXX 06184 91434 NIL
AAXX 06184 91601 NIL
AAXX 06184 91610 NIL
BBXX 64045 06184 99591 70117 46/// /2729 10071 20037 40042 50000 22200 00098 10810 70049 333 90710 91139
BBXX 63106 06184 99610 10017 46/// /1912 10053 40010 57050 22200
BBXX 63105 06184 99610 10017 47598 ///// 10061 20013 40009 57051 700// 22200
BBXX 62304 06184 99511 10018 46/98 ///20 10083 20027 40247 58014 22200 00104 10602 70009
BBXX 62103 06184 99499 70029 46/98 /2623 10104 20078 40268 57019 22200 00115 10903 70016 333 90710 91129
AAXX 06184 91165 32966 00809 10228 20172 30179 40215 51007 91753
AAXX 06184 91212 32966 00508 10261 20228 31394 40127 56016 91754
AAXX 06184 91285 32566 22306 10178 20106 30205 40219 53010 91753
AAXX 06184 91334 32474 80610 10271 20250 30097 40100 55007 82171
AAXX 06184 91348 32474 60307 10272 20226 30059 40112 55000 83101
AAXX 06184 91408 32474 80905 10272 20250 30052 40090 57022 83278
AAXX 06184 91413 32469 80610 10272 20232 30083 40108 56015 82878
AAXX 06184 91245 32562 20309 10240 20240 30157 91751
BBXX VRHO2 06184 99547 71784 415// 70519 11020 2//// 40060 5/000 7//// 87487 22223 00000 20605 3//// 40604 50704 6//// 8//// ICE /////
BBXX PCAW 06183 99207 70193 41798 40415 10230 20185 40195 52032 70122 84020 22253 00160 20301 304// 41004 80200 91241
BBXX VRHO2 06184 99547 71784 415// 70519 11020 2//// 40060 5/000 7//// 87487 22223 00000 20605 3//// 40604 50704 6//// 8//// ICE /////
BBXX 42376 06181 99291 70879 46/// /0000 10200 40205 58021 91800 22200 10101 70003
BBXX 42392 06181 99272 70900 46/// ///// 1//// 91800 22200 10401 70006
BBXX 42370 06181 99273 70905 46/// ///// 10208 91800 22200 10402 70008
BBXX 42887 06181 99282 70885 46/// /0405 10200 91800 22200 10401 70005
BBXX 42369 06181 99272 70903 46/// /2005 1//// 91800 22200 10401 70007
BBXX AUYI 06184 99072 10784 41697 40904 10290 20250 40067 54000 70001 83111 22243 00300
AAXX 06184 71734 17/// /1006 11106 21124 39602 40000 58020 60011 7//4/ 333 11106 21171 70010
AAXX 06184 71824 46/// /1003 11174 21199 6///1 333 11174 21258 7////
AAXX 06184 71212 16/// /0000 11129 21183 39245 40079 58026 60001 333 11128 21269 70000
BBXX MINFR09 0618/ 99343 11282 46/// ///// 40323 52010
BBXX 42044 06181 99262 70971 46/// /1503 10178 20151 40179 91830 333 91204
BBXX 42046 06181 99279 70940 46/// /1808 1//// 40189 91830 22200 00218 333 91210
BBXX 63106 06184 99610 10017 46/// /1912 10053 40010 57050 22200
BBXX 63113 06184 99610 10017 46/// /2414 10057 20010 40011 57051 22200 10806 70031
BBXX 62304 06184 99511 10018 46/98 /2517 10085 20028 40249 57014 22200 00104 10602 70009
BBXX 64045 06184 99591 70117 46/// /2731 10071 20037 40042 50000 22200 00098 10810 70049 333 90710 91139
BBXX 62103 06184 99499 70029 46/97 /2722 10107 20096 40266 56014 22200 00115 10803 70016 333 90710 91130
BBXX VRHO2 06184 99547 71784 415// 70519 11020 2//// 40060 5/000 7//// 87487 22223 00000 20605 3//// 40604 50704 6//// 8//// ICE /////
AAXX 0618/ 68902 46/// ///// 40133 57001
BBXX MINFR00 0618/ 99195 51589 46/// ///// 10223 40102 52010
AAXX 06181 10946 07482 72804 10013 21005 39397 40249 51040 60012 72476 333 10016 20000 3/101 4/003 55300 20000 30000 69957 83/16 87/50 87/56 91113
BBXX 42369 06181 99272 70903 46/// /2005 1//// 91820 22200 10401 70007
BBXX 42370 06181 99273 70905 46/// ///// 10208 91820 22200 10402 70008
BBXX 42376 06181 99291 70879 46/// /0000 10200 40205 91820 22200 10101 70003
BBXX 42392 06181 99272 70900 46/// ///// 1//// 91820 22200 10401 70006
BBXX 42887 06181 99282 70885 46/// /0504 10199 91820 22200 10401 70005
AAXX 06184 87320 32970 50000 10323 20176 39577 40087 57017 85070 333 56040 85360
BBXX 42376 06181 99291 70879 46/// /0000 10200 40205 91820 22200 10101 70003
BBXX 42887 06181 99282 70885 46/// /0504 10199 91820 22200 10401 70005
BBXX 42392 06181 99272 70900 46/// ///// 1//// 91820 22200 10401 70006
BBXX 42369 06181 99272 70903 46/// /2005 1//// 91820 22200 10401 70007
BBXX 42370 06181 99273 70905 46/// ///// 10208 91820 22200 10402 70008
BBXX 42046 06181 99279 70940 46/// /1808 1//// 40189 91830 22200 00218 333 91210
BBXX 42044 06181 99262 70971 46/// /1503 10178 20151 40179 91830 333 91204
BBXX MINFR00 0618/ 99195 51589 46/// ///// 10223 40102 52010
BBXX 52243 06181 99193 11666 46/// ///// 1//// 91800 22200 00268
BBXX 51179 06181 99143 51708 46/// ///// 1//// 91800 22200 00287
BBXX 51178 06181 99142 51695 46/// ///// 1//// 91800 22200 00285
BBXX 52246 06181 99152 11457 46/// ///// 1//// 91800 22200 00280
BBXX 51176 06181 99278 71758 46/// ///// 1//// 91800 22200 00238
BBXX 52245 06181 99181 11458 46/// ///// 1//// 91800 22200 00275
BBXX 51174 06181 99142 51697 46/// ///// 1//// 91800 22200 00286
BBXX 51173 06181 99260 71739 46/// ///// 1//// 91800 22200 00246
BBXX 51172 06181 99284 71783 46/// ///// 1//// 91800 22200 00226
BBXX 51171 06181 99064 71623 46/// ///// 1//// 91800 22200 00271
BBXX 51169 06181 99004 51600 46/// ///// 1//// 91800 22200 00251
BBXX 52248 06181 99135 11448 46/// ///// 1//// 91800 22200 00282
AAXX 0618/ 89866 46/// ///// 10016 39625 4//// 5//// 91840
BBXX 64045 06184 99591 70117 46/// /2729 10071 20037 40042 50000 22200 00098 10810 70049 333 90710 91139
BBXX 63106 06184 99610 10017 46/// /1912 10053 40010 57050 22200
BBXX 63105 06184 99610 10017 47598 ///// 10061 20013 40009 57051 700// 22200
BBXX 62304 06184 99511 10018 46/98 ///20 10083 20027 40247 58014 22200 00104 10602 70009
BBXX 62103 06184 99499 70029 46/98 /2623 10104 20078 40268 57019 22200 00115 10903 70016 333 90710 91129
BBXX 52245 06181 99181 11458 46/// ///// 1//// 91800 22200 00275
BBXX 52246 06181 99152 11457 46/// ///// 1//// 91800 22200 00280
BBXX 52243 06181 99193 11666 46/// ///// 1//// 91800 22200 00268
BBXX 52248 06181 99135 11448 46/// ///// 1//// 91800 22200 00282
BBXX 51174 06181 99142 51697 46/// ///// 1//// 91800 22200 00286
BBXX 51178 06181 99142 51695 46/// ///// 1//// 91800 22200 00285
BBXX 51169 06181 99004 51600 46/// ///// 1//// 91800 22200 00251
BBXX 51179 06181 99143 51708 46/// ///// 1//// 91800 22200 00287
BBXX 51171 06181 99064 71623 46/// ///// 1//// 91800 22200 00271
BBXX 51172 06181 99284 71783 46/// ///// 1//// 91800 22200 00226
BBXX 51176 06181 99278 71758 46/// ///// 1//// 91800 22200 00238
BBXX 51173 06181 99260 71739 46/// ///// 1//// 91800 22200 00246
AAXX 06184 CCA 41170 42962 01503 10180 20140 30175 40188 333 10229 59013
AAXX 06184 16021 11560 33527 11064 21133 37910 48441 52043 60012 70271 83600 333 11054 43044 83725 92825
BBXX MINFR05 0618/ 99055 10000 46/// ///// 10270 40105 52004
AAXX 06181 98630 32575 30204 10260 20247 40132 58006 82201 222// 2//03 333 56199 82820
BBXX 3FSA4 06184 99038 70778 41899 72110 00/// 10300 20250 40010 52020 70102 8714/ 22234 00280 20402 32122 40503 5//// 6//// 80260 /////
BBXX MINFR05 0618/ 99055 10000 46/// ///// 10270 40105 52004
AAXX 06184 16021 11560 33527 11064 21133 37910 48441 52043 60012 70271 83600 333 11054 43044 83725 92825 93197
AAXX 06181 98755 11460 80000 10250 20239 40092 58026 60031 78022 8352/ 333 56999 83618 88458
AAXX 06184 97086 32560 42703 10266 20237 30079 40103 56006 82471 333 56000 82620
AAXX 06181 28704 32498 81710 11029 21042 30132 40230 51008 8802/ 333 10012 88515 91012 91116
AAXX 0618/ 89869 46/// ///// 11040 39656 4//// 5////
AAXX 0618/ 89879 46/// ///// 10004 39686 4//// 5////
AAXX 0618/ 89314 46/// ///// 11118 38099 4//// 5////
AAXX 06184 97690 32450 60000 10248 20236 39984 40089 57010 83834 333 56000 57800 82815 85080
BBXX 63106 06184 99610 10017 46/// /1912 10053 40010 57050 22200
BBXX 63113 06184 99610 10017 46/// /2414 10057 20010 40011 57051 22200 10806 70031
BBXX 62304 06184 99511 10018 46/98 /2517 10085 20028 40249 57014 22200 00104 10602 70009
BBXX 64045 06184 99591 70117 46/// /2731 10071 20037 40042 50000 22200 00098 10810 70049 333 90710 91139
BBXX 62103 06184 99499 70029 46/97 /2722 10107 20096 40266 56014 22200 00115 10803 70016 333 90710 91130
AAXX 06184 97406 01460 70000 10248 20243 30063 40088 57007 60011 71362 84962 333 56000 57901 57801 60017 81917 83818 85360 80975 80860
AAXX 06184 48421 31956 20000 10240 20225 30033 40148 51000 71000 80005 333 59006 70192
AAXX 06184 48458 32960 00000 10226 20185 30090 40172 52005 333 58013
AAXX 06181 24988 42999 20000 11358 21386 39913 40199 57001 80001
AAXX 06184 62053 12558 62620 10150 20087 40067 56009 60022 84530 333 0//28 10157 84620 85358
AAXX 06184 17150 11660 71520 10124 20059 39799 49919 58017 69902 78082 85270 333 10155 85835 87359 91030 91138
BBXX 64045 06184 99591 70117 46/// /2729 10071 20037 40042 50000 22200 00098 10810 70049 333 90710 91139
BBXX 63106 06184 99610 10017 46/// /1912 10053 40010 57050 22200
BBXX 63105 06184 99610 10017 47598 ///// 10061 20013 40009 57051 700// 22200
BBXX 62304 06184 99511 10018 46/98 ///20 10083 20027 40247 58014 22200 00104 10602 70009
BBXX 62103 06184 99499 70029 46/98 /2623 10104 20078 40268 57019 22200 00115 10903 70016 333 90710 91129
BBXX UGOS 06181 99511 11446 41/// /3109 11055 40226 54000 77071 22233 00005 20302 31100 40905
BBXX UIFY 06181 99514 11409 42/98 /3144 11122 21180 40260 52002 22200 01005 2//// ICE 41092
AAXX 06184 97340 01560 82206 10248 20239 30063 40078 57029 60031 70262 87232 333 56000 87620
AAXX 06184 40100 11560 61606 10137 20096 30127 40159 53007 60141 72998 85970 918// 333 10186 81920 84826 92427
AAXX 06184 71372 16/// /0105 11104 21119 60001 333 11098 21123 70000
AAXX 06181 38511 32998 20908 11015 21032 30091 40238 53001 80001 333 10007
AAXX 06184 41170 42962 01503 10180 20140 30175 40188 333 10229 59013
AAXX 06181 25745 42698 31001 11393 21422 30180 40139 52001 83500
BBXX 42043 06181 99290 70949 46/// /2003 1//// 40180 91830 22200 00157 333 91204
BBXX 42047 06181 99279 70936 46/// /1808 10205 20120 40194 91830 22200 00219 333 91209
BBXX 42047 06181 99279 70936 46/// /1808 10204 20130 40198 57012 91800 22200 00219 333 91209
AAXX 06184 41170 42962 01503 10180 20140 30175 40188 333 10229 59013
BBXX 42047 06181 99279 70936 46/// /1808 10204 20130 40198 57012 91800 22200 00219 333 91209
BBXX 42047 06181 99279 70936 46/// /1808 10205 20120 40194 91830 22200 00219 333 91209
BBXX 42043 06181 99290 70949 46/// /2003 1//// 40180 91830 22200 00157 333 91204
BBXX UGOS 06181 99511 11446 41/// /3109 11055 40226 54000 77071 22233 00005 20302 31100 40905
BBXX UIFY 06181 99514 11409 42/98 /3144 11122 21180 40260 52002 22200 01005 2//// ICE 41092
BBXX 63106 06184 99610 10017 46/// /1912 10053 40010 57050 22200
BBXX 63113 06184 99610 10017 46/// /2414 10057 20010 40011 57051 22200 10806 70031
BBXX 62304 06184 99511 10018 46/98 /2517 10085 20028 40249 57014 22200 00104 10602 70009
BBXX 64045 06184 99591 70117 46/// /2731 10071 20037 40042 50000 22200 00098 10810 70049 333 90710 91139
BBXX 62103 06184 99499 70029 46/97 /2722 10107 20096 40266 56014 22200 00115 10803 70016 333 90710 91130
AAXX 06184 48353 31957 00000 10194 20174 39870 40166 57001 71000 333 58000
AAXX 0618/ 89872 46/// ///// 11029 39664 4//// 5//// 91840
AAXX 0618/ 89868 46/// ///// 11050 39646 4//// 5//// 91830
AAXX 0618/ 89108 46/// ///// 11208 36877 4//// 5//// 91840
AAXX 0618/ 89769 46/// ///// 11040 39686 4//// 5//// 91840
AAXX 06180 44219 329// 01102 11330 21353 38733 40612 52003
AAXX 06184 89614 46/// /0817 11126 29075 38965 4//// 5//// 91830 333 90700 91123
AAXX 06184 89614 46/// /0817 11126 29075 38965 4//// 5//// 91830 333 90700 91123
BBXX 64045 06184 99591 70117 46/// /2729 10071 20037 40042 50000 22200 00098 10810 70049 333 90710 91139
BBXX 63106 06184 99610 10017 46/// /1912 10053 40010 57050 22200
BBXX 63105 06184 99610 10017 47598 ///// 10061 20013 40009 57051 700// 22200
BBXX 62304 06184 99511 10018 46/98 ///20 10083 20027 40247 58014 22200 00104 10602 70009
BBXX 62103 06184 99499 70029 46/98 /2623 10104 20078 40268 57019 22200 00115 10903 70016 333 90710 91129
BBXX MINFR03 0618/ 99053 10600 46/// ///// 10273 40130 52011
BBXX WZJC 06184 99278 70924 41498 71913 10233 2015/ 40200 50010 70322 86441 22233 00217 20303 3//// 4//// 5//// 6//// 80178 ICE /////
BBXX MINFR03 0618/ 99053 10600 46/// ///// 10273 40130 52011
BBXX 63106 06184 99610 10017 46/// /1912 10053 40010 57050 22200
BBXX 63113 06184 99610 10017 46/// /2414 10057 20010 40011 57051 22200 10806 70031
BBXX 62304 06184 99511 10018 46/98 /2517 10085 20028 40249 57014 22200 00104 10602 70009
BBXX 64045 06184 99591 70117 46/// /2731 10071 20037 40042 50000 22200 00098 10810 70049 333 90710 91139
BBXX 62103 06184 99499 70029 46/97 /2722 10107 20096 40266 56014 22200 00115 10803 70016 333 90710 91130
AAXX 06183 63661 32980 10504 10194 20105 48517 81040 333 10280 59012 81359
BBXX WZJC 06184 99278 70924 41498 71913 10233 2015/ 40200 50010 70322 86441 22233 00217 20303 3//// 4//// 5//// 6//// 80178 ICE /////
BBXX 3EEE2 06184 99280 70786 43597 20413 10280 20220 40225 51002 70200 82184 91800 22213 04240 2//02 301// 4//02 80240
AAXX 06181 38847 429// 22706 11111 21125 40384 58001 80003
AAXX 06184 96087 31458 53605 10256 20232 30099 40132 58006 70522 81531 333 56884 81615
BBXX 64045 06184 99591 70117 46/// /2729 10071 20037 40042 50000 22200 00098 10810 70049 333 90710 91139
BBXX 63106 06184 99610 10017 46/// /1912 10053 40010 57050 22200
BBXX 63105 06184 99610 10017 47598 ///// 10061 20013 40009 57051 700// 22200
BBXX 62304 06184 99511 10018 46/98 ///20 10083 20027 40247 58014 22200 00104 10602 70009
BBXX 62103 06184 99499 70029 46/98 /2623 10104 20078 40268 57019 22200 00115 10903 70016 333 90710 91129
BBXX SHIP 06184 99280 70786 43597 20413 10280 20220 40225 51002 70200 82184 91800 22213 04240 2//02 301// 4//02 80240
AAXX 06184 97028 32562 70000 10241 20225 30095 40101 58001 82421 333 56000 82620 86460
AAXX 06184 71512 16/// /2905 11118 21159 30068 40083 58003 60001 333 11115 21190 70000
AAXX 06184 71721 16/// /1204 11093 21105 39780 40031 58021 60001 333 11093 21162 70030
BBXX 63106 06184 99610 10017 46/// /1912 10053 40010 57050 22200
BBXX 63113 06184 99610 10017 46/// /2414 10057 20010 40011 57051 22200 10806 70031
BBXX 62304 06184 99511 10018 46/98 /2517 10085 20028 40249 57014 22200 00104 10602 70009
BBXX 64045 06184 99591 70117 46/// /2731 10071 20037 40042 50000 22200 00098 10810 70049 333 90710 91139
BBXX 62103 06184 99499 70029 46/97 /2722 10107 20096 40266 56014 22200 00115 10803 70016 333 90710 91130
BBXX 52249 06181 99052 31503 46/// ///// 1//// 91800 22200 00298
AAXX 06184 89262 46/// /0512 11010 21025 39763 49806 57020 91840
AAXX 06181 98133 31465 70404 10/// 20/// 40163 5//// 71544 84270 333 56199 84818 87360
BBXX 64045 06184 99591 70117 46/// /2729 10071 20037 40042 50000 22200 00098 10810 70049 333 90710 91139
BBXX 63106 06184 99610 10017 46/// /1912 10053 40010 57050 22200
BBXX 63105 06184 99610 10017 47598 ///// 10061 20013 40009 57051 700// 22200
BBXX 62304 06184 99511 10018 46/98 ///20 10083 20027 40247 58014 22200 00104 10602 70009
BBXX 62103 06184 99499 70029 46/98 /2623 10104 20078 40268 57019 22200 00115 10903 70016 333 90710 91129
BBXX A8VL8 06184 99202 11178 41597 83637 10220 20174 40190 57010 70222 887// 22223 0//// 2//// 3//// 4//// 5//// 6//// 80190 ICE /////
BBXX A8VL8 06184 99202 11178 41597 83637 10220 20174 40190 57010 70222 887// 22223 0//// 2//// 3//// 4//// 5//// 6//// 80190 ICE /////
BBXX 52249 06181 99052 31503 46/// ///// 1//// 91800 22200 00298
AAXX 06181 29789 42999 80000 11158 21164 39126 40383 54000 80007
BBXX 63106 06184 99610 10017 46/// /1912 10053 40010 57050 22200
BBXX 63113 06184 99610 10017 46/// /2414 10057 20010 40011 57051 22200 10806 70031
BBXX 62304 06184 99511 10018 46/98 /2517 10085 20028 40249 57014 22200 00104 10602 70009
BBXX 64045 06184 99591 70117 46/// /2731 10071 20037 40042 50000 22200 00098 10810 70049 333 90710 91139
BBXX 62103 06184 99499 70029 46/97 /2722 10107 20096 40266 56014 22200 00115 10803 70016 333 90710 91130
AAXX 06184 48427 31950 60000 10235 20220 30139 40147 50000 71022 80006 333 58006
AAXX 06181 78090 15/// /0000 10286 30220 40223 69901 91800 222// 00222
BBXX 64045 06184 99591 70117 46/// /2729 10071 20037 40042 50000 22200 00098 10810 70049 333 90710 91139
BBXX 63106 06184 99610 10017 46/// /1912 10053 40010 57050 22200
BBXX 63105 06184 99610 10017 47598 ///// 10061 20013 40009 57051 700// 22200
BBXX 62304 06184 99511 10018 46/98 ///20 10083 20027 40247 58014 22200 00104 10602 70009
BBXX 62103 06184 99499 70029 46/98 /2623 10104 20078 40268 57019 22200 00115 10903 70016 333 90710 91129
BBXX 63106 06184 99610 10017 46/// /1912 10053 40010 57050 22200
BBXX 63113 06184 99610 10017 46/// /2414 10057 20010 40011 57051 22200 10806 70031
BBXX 62304 06184 99511 10018 46/98 /2517 10085 20028 40249 57014 22200 00104 10602 70009
BBXX 64045 06184 99591 70117 46/// /2731 10071 20037 40042 50000 22200 00098 10810 70049 333 90710 91139
BBXX 62103 06184 99499 70029 46/97 /2722 10107 20096 40266 56014 22200 00115 10803 70016 333 90710 91130
BBXX 64045 06184 99591 70117 46/// /2729 10071 20037 40042 50000 22200 00098 10810 70049 333 90710 91139
BBXX 63106 06184 99610 10017 46/// /1912 10053 40010 57050 22200
BBXX 63105 06184 99610 10017 47598 ///// 10061 20013 40009 57051 700// 22200
BBXX 62304 06184 99511 10018 46/98 ///20 10083 20027 40247 58014 22200 00104 10602 70009
BBXX 62103 06184 99499 70029 46/98 /2623 10104 20078 40268 57019 22200 00115 10903 70016 333 90710 91129
AAXX 06184 48583 31558 60000 10237 20230 30140 40146 57002 71022 82206 333 58017
AAXX 06184 91723 NIL
AAXX 06184 91964 36/// /0611 10246 20207 40164 52009
BBXX 63106 06184 99610 10017 46/// /1912 10053 40010 57050 22200
BBXX 63113 06184 99610 10017 46/// /2414 10057 20010 40011 57051 22200 10806 70031
BBXX 62304 06184 99511 10018 46/98 /2517 10085 20028 40249 57014 22200 00104 10602 70009
BBXX 64045 06184 99591 70117 46/// /2731 10071 20037 40042 50000 22200 00098 10810 70049 333 90710 91139
BBXX 62103 06184 99499 70029 46/97 /2722 10107 20096 40266 56014 22200 00115 10803 70016 333 90710 91130
BBXX SMGW 06181 99074 70800 43/98 40103 10264 40112 53004 22214 00273 20401 4////
BBXX SMGW 06181 99074 70800 43/98 40103 10264 40112 53004 22214 00273 20401 4////
AAXX 06184 71627 11474 80410 11119 21156 30013 40059 58034 69941 77177 885// 333 11100 21127 46002 70016 90917
AAXX 06184 71627 11474 80410 11119 21156 30013 40059 58034 69941 77177 885// 333 11100 21127 46002 70016 90917
BBXX 64045 06184 99591 70117 46/// /2729 10071 20037 40042 50000 22200 00098 10810 70049 333 90710 91139
BBXX 63106 06184 99610 10017 46/// /1912 10053 40010 57050 22200
BBXX 63105 06184 99610 10017 47598 ///// 10061 20013 40009 57051 700// 22200
BBXX 62304 06184 99511 10018 46/98 ///20 10083 20027 40247 58014 22200 00104 10602 70009
BBXX 62103 06184 99499 70029 46/98 /2623 10104 20078 40268 57019 22200 00115 10903 70016 333 90710 91129
BBXX VRDT5 06183 99079 31226 415// 83026 10280 2027/ 40120 54000 72511 8882/ 22263 00280 21005 39999 41106 51106 6//// 80270 ICE /////
BBXX VRDT5 06183 99079 31226 415// 83026 10280 2027/ 40120 54000 72511 8882/ 22263 00280 21005 39999 41106 51106 6//// 80270 ICE /////
AAXX 06184 48581 31556 23604 10224 20218 30105 40147 57006 71000 81101 333 58005
AAXX 06184 48352 32660 61005 10210 20169 39977 40183 52032 82530 333 58013
BBXX 63106 06184 99610 10017 46/// /1912 10053 40010 57050 22200
BBXX 63113 06184 99610 10017 46/// /2414 10057 20010 40011 57051 22200 10806 70031
BBXX 62304 06184 99511 10018 46/98 /2517 10085 20028 40249 57014 22200 00104 10602 70009
BBXX 64045 06184 99591 70117 46/// /2731 10071 20037 40042 50000 22200 00098 10810 70049 333 90710 91139
BBXX 62103 06184 99499 70029 46/97 /2722 10107 20096 40266 56014 22200 00115 10803 70016 333 90710 91130
AAXX 06184 89257 46/// /0212 11047 21068 39760 49830 57006 91830
AAXX 06184 89257 46/// /0112 11046 21067 39760 49830 57006 91840
AAXX 06184 41863 31450 70000 10150 20140 30136 40182 70522 83520 333 56990 58017 70000 83618 86458
AAXX 06184 41895 32950 03602 10170 20160 30154 40178 333 58012 70000
AAXX 06184 41933 31830 40000 10169 20160 30166 40175 70522 84020 333 56090 58017 70000 84458
AAXX 06184 41939 31940 00000 10166 20160 40176 70544 333 58004 70000
AAXX 06184 41998 31920 00000 10194 20180 30152 40158 70500 333 58008 70000
AAXX 06184 48479 31958 40000 10250 20212 30071 40123 57015 71011 80006 333 59019
AAXX 06184 48001 NIL
AAXX 06184 48004 NIL
AAXX 06184 48008 31510 50000 10163 20144 40159 71044 83930 333 56450 58006
AAXX 06184 48010 NIL
AAXX 06184 48018 32920 00000 10180 20165 40163 333 58031
AAXX 06184 48019 NIL
AAXX 06184 48020 NIL
AAXX 06184 48025 NIL
AAXX 06184 48035 NIL
AAXX 06184 48037 NIL
AAXX 06184 48042 32956 00000 10190 20159 40165 333 58021
AAXX 06184 48045 NIL
AAXX 06184 48048 NIL
AAXX 06184 48053 NIL
AAXX 06184 48057 NIL
AAXX 06184 48060 32410 60000 10154 20134 40183 83532 333 56566 58028
AAXX 06184 48062 31440 30000 10212 20200 40159 70500 83500 333 56900 58014
AAXX 06184 48071 31930 00000 10240 20209 40143 71000 333 58002
AAXX 06184 48077 NIL
AAXX 06184 48078 NIL
AAXX 06184 48080 NIL
AAXX 06184 48094 32950 00000 10210 20200 40158 333 58011
AAXX 06184 48097 32956 03601 10230 20163 40142 333 58004
AAXX 06184 48108 31596 50502 10250 20219 40162 70522 82405 333 56109 58005
AAXX 06184 48109 32995 00401 10273 20226 40141 333 58009
AAXX 06184 48110 21495 82702 10240 20226 40148 71399 84367 333 56999 58006
AAXX 06184 48112 32597 70902 10150 20219 40130 83876 333 56299 58010
AAXX 06184 48001 NIL
AAXX 06184 48004 NIL
AAXX 06184 48008 31510 50000 10163 20144 40159 71044 83930 333 56450 58006
AAXX 06184 48010 NIL
AAXX 06184 48018 32920 00000 10180 20165 40163 333 58031
AAXX 06184 48019 NIL
AAXX 06184 48020 NIL
AAXX 06184 48025 NIL
AAXX 06184 48035 NIL
AAXX 06184 48037 NIL
AAXX 06184 48042 32956 00000 10190 20159 40165 333 58021
AAXX 06184 48045 NIL
AAXX 06184 48048 NIL
AAXX 06184 48053 NIL
AAXX 06184 48057 NIL
AAXX 06184 48060 32410 60000 10154 20134 40183 83532 333 56566 58028
AAXX 06184 48062 31440 30000 10212 20200 40159 70500 83500 333 56900 58014
AAXX 06184 48071 31930 00000 10240 20209 40143 71000 333 58002
AAXX 06184 48077 NIL
AAXX 06184 48078 NIL
AAXX 06184 48080 NIL
AAXX 06184 48094 32950 00000 10210 20200 40158 333 58011
AAXX 06184 48097 32956 03601 10230 20163 40142 333 58004
AAXX 06184 48108 31596 50502 10250 20219 40162 70522 82405 333 56109 58005
AAXX 06184 48109 32995 00401 10273 20226 40141 333 58009
AAXX 06184 48110 21495 82702 10240 20226 40148 71399 84367 333 56999 58006
AAXX 06184 48112 32597 70902 10150 20219 40130 83876 333 56299 58010
BBXX 64045 06184 99591 70117 46/// /2729 10071 20037 40042 50000 22200 00098 10810 70049 333 90710 91139
BBXX 63106 06184 99610 10017 46/// /1912 10053 40010 57050 22200
BBXX 63105 06184 99610 10017 47598 ///// 10061 20013 40009 57051 700// 22200
BBXX 62304 06184 99511 10018 46/98 ///20 10083 20027 40247 58014 22200 00104 10602 70009
BBXX 62103 06184 99499 70029 46/98 /2623 10104 20078 40268 57019 22200 00115 10903 70016 333 90710 91129
BBXX VRBK6 06184 99016 11044 41597 50124 10260 2024/ 40120 54000 70222 8572/ 22200 0//// 20412 30101 40310 50108 6//// 80230 ICE /////
BBXX VRBK6 06184 99016 11044 41597 50124 10260 2024/ 40120 54000 70222 8572/ 22200 0//// 20412 30101 40310 50108 6//// 80230 ICE /////
BBXX 63106 06184 99610 10017 46/// /1912 10053 40010 57050 22200
BBXX 63113 06184 99610 10017 46/// /2414 10057 20010 40011 57051 22200 10806 70031
BBXX 62304 06184 99511 10018 46/98 /2517 10085 20028 40249 57014 22200 00104 10602 70009
BBXX 64045 06184 99591 70117 46/// /2731 10071 20037 40042 50000 22200 00098 10810 70049 333 90710 91139
BBXX 62103 06184 99499 70029 46/97 /2722 10107 20096 40266 56014 22200 00115 10803 70016 333 90710 91130
BBXX ZCDN2 06183 99416 70188 41098 70913 10144 20075 40366 54000 70222 82878 22214 00160 20202 311// 40202 5//// 80110
BBXX ELVL8 06183 99336 70126 41598 40623 10191 40311 53001 703// 8/4// 22224 04190 20303 305// 40404 5//// ELVL8
BBXX 2AUO5 06183 99606 10016 41597 62120 10062 20031 40016 57025 76266 868// 22281 20402 326// 41005 80049
BBXX 63119 06184 99583 10009 41597 62423 10070 20047 40042 57030 70322 8/856 22200 20604 334// 40806 5//// 80060
BBXX 62169 06183 99614 10014 41/97 81822 10050 20050 40001 57040 78186 8//// 22200 02080 20303 327// 41004 5//// 80050
BBXX DGZL 06183 99426 70101 41298 80216 10120 20102 40350 56005 70222 886// 22244 00140 29902 329// 41006 80110
BBXX DDYL2 06183 99459 70077 41/98 /3011 10120 20102 40340 54000 7//// 8//// 22214 00130 2////
BBXX DDSB2 06183 99478 70115 41598 12922 10127 20079 40340 52010 70100 81143 22254 20405 330// 40407 80101
BBXX ZCDN2 06183 99416 70188 41098 70913 10144 20075 40366 54000 70222 82878 22214 00160 20202 311// 40202 5//// 80110
BBXX DDYL2 06183 99459 70077 41/98 /3011 10120 20102 40340 54000 7//// 8//// 22214 00130 2////
BBXX DGZL 06183 99426 70101 41298 80216 10120 20102 40350 56005 70222 886// 22244 00140 29902 329// 41006 80110
BBXX DDSB2 06183 99478 70115 41598 12922 10127 20079 40340 52010 70100 81143 22254 20405 330// 40407 80101
BBXX ZDLS1 06183 99648 50286 41297 81712 11025 2//// 49895 52018 702// 8/7// 22273 05019 20100 30000
BBXX ZSAF 06184 99691 50005 41598 71007 11013 21061 49819 54000 70222 875// 22200 04011 20000 30000 40000 50000 ICE 18145
BBXX DDSB2 06183 99478 70115 41598 12922 10127 20079 40340 52010 70100 81143 22254 20405 330// 40407 80101
BBXX DDYL2 06183 99459 70077 41/98 /3011 10120 20102 40340 54000 7//// 8//// 22214 00130 2////
BBXX DGZL 06183 99426 70101 41298 80216 10120 20102 40350 56005 70222 886// 22244 00140 29902 329// 41006 80110
BBXX 2AUO5 06183 99606 10016 41597 62120 10062 20031 40016 57025 76266 868// 22281 20402 326// 41005 80049
BBXX 62169 06183 99614 10014 41/97 81822 10050 20050 40001 57040 78186 8//// 22200 02080 20303 327// 41004 5//// 80050
BBXX 63119 06184 99583 10009 41597 62423 10070 20047 40042 57030 70322 8/856 22200 20604 334// 40806 5//// 80060
BBXX ELVL8 06183 99336 70126 41598 40623 10191 40311 53001 703// 8/4// 22224 04190 20303 305// 40404 5//// ELVL8
BBXX ZCDN2 06183 99416 70188 41098 70913 10144 20075 40366 54000 70222 82878 22214 00160 20202 311// 40202 5//// 80110
BBXX ZCDP8 06183 99240 70755 41498 40614 10225 20108 40210 57014 70200 83730 22274 00250 20301 308// 40202 5//// 80160
BBXX LAJS6 06184 99544 71739 41596 80427 11030 2103/ 49990 56010 77172 8862/ 22263 00030 20905 323// 41604 81030 NNNN
BBXX ZCEF6 06183 99475 70435 41598 31640 10095 20060 40123 57008 70100 81440 22225 00041 20402 311// 40607 5//// 80079
BBXX ZCDF4 06183 99125 70702 41698 40615 10280 20240 40143 57023 70211 82461 22265 00270 20301 301// 40402 5//// 80252
BBXX MLRM6 06183 99400 50096 41397 22920 10153 20137 40144 54000 70200 81101 22200 00145 20202 328// 40604 5////
BBXX TBWUK30 06184 99058 70124 41997 41803 10280 20266 40086 54000 70222 8/010 22274 00281 299// 30000 4//// 5//// 80270
BBXX DANV 06184 99061 10909 41398 71607 10261 20246 40130 57005 79122 8777/ 22223 04270 20102 30000 80250
BBXX ZDLP 06183 99538 50380 41599 42221 10029 21023 49948 52018 70100 83160 22212 04029 20602 399// 40604 5//// 80011
BBXX A8CC9 06184 99172 31166 41697 71417 10270 20228 40100 53010 758// 86444 22283 04310 20802 323// 41002 5//// 80240
BBXX A8RW4 06183 99127 30758 41498 32007 10275 20203 40130 53010 70200 83144 22224 04290 20303 310// 40303 80225
BBXX VQNW6 06184 99286 31120 41598 71820 10210 20157 40134 58005 70322 8/57/ 22233 00231 2//// 318// 40605 5//// 80178
BBXX A8RW4 06183 99127 30758 41498 32007 10275 20203 40130 53010 70200 83144 22224 04290 20303 310// 40303 80225
BBXX ZSAF 06184 99691 50005 41598 71007 11013 21061 49819 54000 70222 875// 22200 04011 20000 30000 40000 50000 ICE 18145
BBXX ZDLS1 06183 99648 50286 41297 81712 11025 2//// 49895 52018 702// 8/7// 22273 05019 20100 30000
BBXX MLRM6 06183 99400 50096 41397 22920 10153 20137 40144 54000 70200 81101 22200 00145 20202 328// 40604 5////
BBXX TBWUK30 06184 99058 70124 41997 41803 10280 20266 40086 54000 70222 8/010 22274 00281 299// 30000 4//// 5//// 80270
BBXX DANV 06184 99061 10909 41398 71607 10261 20246 40130 57005 79122 8777/ 22223 04270 20102 30000 80250
BBXX A8RW4 06183 99127 30758 41498 32007 10275 20203 40130 53010 70200 83144 22224 04290 20303 310// 40303 80225
BBXX VQNW6 06184 99286 31120 41598 71820 10210 20157 40134 58005 70322 8/57/ 22233 00231 2//// 318// 40605 5//// 80178
BBXX A8CC9 06184 99172 31166 41697 71417 10270 20228 40100 53010 758// 86444 22283 04310 20802 323// 41002 5//// 80240
BBXX ZDLP 06183 99538 50380 41599 42221 10029 21023 49948 52018 70100 83160 22212 04029 20602 399// 40604 5//// 80011
BBXX ZCEF6 06183 99475 70435 41598 31640 10095 20060 40123 57008 70100 81440 22225 00041 20402 311// 40607 5//// 80079
BBXX ZCDP8 06183 99240 70755 41498 40614 10225 20108 40210 57014 70200 83730 22274 00250 20301 308// 40202 5//// 80160
BBXX LAJS6 06184 99544 71739 41596 80427 11030 2103/ 49990 56010 77172 8862/ 22263 00030 20905 323// 41604 81030 NNNN
BBXX LAJS6 06184 99544 71739 41596 80427 11030 21030 49990 56010 77172 8862/ 22263 00030 20905 323// 41604 81030
BBXX 64045 06184 99591 70117 46/// /2729 10071 20037 40042 50000 22200 00098 10810 70049 333 90710 91139
BBXX 63055 06184 99606 10016 47297 /2113 10053 20012 40019 57048 740// 22200 10805 70026
BBXX 63106 06184 99610 10017 46/// /1912 10053 40010 57050 22200
BBXX 63105 06184 99610 10017 47598 ///// 10061 20013 40009 57051 700// 22200
BBXX 62304 06184 99511 10018 46/98 ///20 10083 20027 40247 58014 22200 00104 10602 70009
BBXX 62103 06184 99499 70029 46/98 /2623 10104 20078 40268 57019 22200 00115 10903 70016 333 90710 91129
AAXX 06181 38932 419// 00000 11077 21094 40357 57008 70281
BBXX 63106 06184 99610 10017 46/// /1912 10053 40010 57050 22200
BBXX 63113 06184 99610 10017 46/// /2414 10057 20010 40011 57051 22200 10806 70031
BBXX 62304 06184 99511 10018 46/98 /2517 10085 20028 40249 57014 22200 00104 10602 70009
BBXX 64045 06184 99591 70117 46/// /2731 10071 20037 40042 50000 22200 00098 10810 70049 333 90710 91139
BBXX 62103 06184 99499 70029 46/97 /2722 10107 20096 40266 56014 22200 00115 10803 70016 333 90710 91130
BBXX 2AUO5 06183 99606 10016 41597 62120 10062 20031 40016 57025 76266 868// 22281 20402 326// 41005 80049
AAXX 06184 67009 32580 70000 10230 20215 30004 40123 52012 8693/ 333 10305 81820 81920 86640 94971/2/6 95831/2/6 555 83075
AAXX 06184 67073 11565 8//// 10242 20230 30066 40092 51009 60082 76166 8287/ 333 10255 82820 86460 555 82633=7.5 67131 11575 80000 30097 40102 52008 60061 71392 889// 333 85820 83633 94994 95834
AAXX 06184 67161 31580 6//04 10290 20247 30082 40091 51009 6 81902 333 10340 81920 8182 86073 94991 95831
AAXX 06184 44454 41550 10000 10060 20048 38694 48527 71000 81100 333 58022
AAXX 06184 89262 46/// /0512 11010 21025 39763 49806 5//// 91840
AAXX 06184 89573 35962 80709 11003 21069 39713 49735 57026 8807/
AAXX 06184 89573 35962 80709 11003 21069 39713 49735 57026 8807/
AAXX 06181 10548 01480 63005 10023 20001 39645 40197 51029 60032 78081 86300 333 10032 20002 3/000 42002 55300 20000 30000 69927 82910 85636
AAXX 06181 10895 01582 62703 10010 21010 39611 40195 52041 60032 72687 86500 333 10022 21003 3/101 42997 55300 20000 30000 69917 81625 86646 91115 96285 96483 96468
AAXX 06184 68296 32975 51505 10275 2//// 38916 4//// 52002 85500 333 10329 2//// 91011 555
AAXX 06184 60515 12558 73016 10124 20085 40228 53032 60002 872// 333 10175 87830 95990
AAXX 06181 10427 01/03 93108 11004 21004 39178 48468 52024 60052 78787 333 11001 21009 3/101 48031 55300 20000 30000 69937 91120 91213 96041 96487 96486 96477 96441
BBXX V2AJ8 06183 99226 11167 41497 80430 10137 20124 40221 57021 70222 8677/ 22254 20608 305// 40806 5//// 80130
AAXX 06181 10929 01565 72605 10028 20009 39718 40263 51036 69902 72582 878// 333 10044 20010 31000 55300 20000 30000 69907 85820 85625
AAXX 06184 03100 17459 /3019 10090 20081 30097 40113 55003 60022 704// 91750 333 10100 55300 20001 81/14 86/32 90710 91133
AAXX 06184 03707 15564 /2814 10101 20090 30256 40264 55006 60002 91750 333 10104 82/23 87/32
AAXX 06181 10908 01/01 93111 11044 21044 38520 48514 51029 60012 74974 333 11044 21060 3/106 49100 55300 20000 30000 69927 89/01 91120 91215 96036
AAXX 06183 91551 11598 40000 10244 20238 40074 53002 60051 72522 84800 333 568// 60051 82820 84640
AAXX 06183 91551 11598 40000 10244 20238 40074 53002 60051 72522 84800 333 568// 60051 82820 84640
AAXX 06184 85577 11958 52009 10264 20131 39544 40128 58011 60001 70511 80001 333 56001 85075
AAXX 06184 71571 16/// /2408 11049 21097 38944 40150 51010 60001 333 11021 21052 70000
AAXX 06184 71780 16/// /0603 10051 20013 30235 40263 55001 60001 333 10052 20033 70074
AAXX 06184 71115 16/// /0801 10004 21036 39649 40239 53005 60001 333 10016 21016 70000
AAXX 06181 10836 01/01 92807 10001 20001 39344 40237 51037 60032 77074 333 10004 21012 3/101 44006 55300 20000 30000 69927 89/01 91114
AAXX 06184 71356 16/// /3011 11266 21299 30032 40102 53017 60001 333 11265 21346 70000
